[{"name":"Am Bach","postalCode":"97783","locality":"Karsbach","municipality":{"key":"09677149","name":"Karsbach","type":"Kreisangehörige_Gemeinde"},"district":{"key":"09677","name":"Main-Spessart","type":"Landkreis"},"federalState":{"key":"09","name":"Bayern"}},{"name":"Am Mäuerlein","postalCode":"97783","locality":"Karsbach","municipality":{"key":"09677149","name":"Karsbach","type":"Kreisangehörige_Gemeinde"},"district":{"key":"09677","name":"Main-Spessart","type":"Landkreis"},"federalState":{"key":"09","name":"Bayern"}},{"name":"Am Riegel","postalCode":"97783","locality":"Karsbach","municipality":{"key":"09677149","name":"Karsbach","type":"Kreisangehörige_Gemeinde"},"district":{"key":"09677","name":"Main-Spessart","type":"Landkreis"},"federalState":{"key":"09","name":"Bayern"}},{"name":"Am Schafacker","postalCode":"97783","locality":"Karsbach","municipality":{"key":"09677149","name":"Karsbach","type":"Kreisangehörige_Gemeinde"},"district":{"key":"09677","name":"Main-Spessart","type":"Landkreis"},"federalState":{"key":"09","name":"Bayern"}},{"name":"Am Steingraben","postalCode":"97783","locality":"Karsbach","municipality":{"key":"09677149","name":"Karsbach","type":"Kreisangehörige_Gemeinde"},"district":{"key":"09677","name":"Main-Spessart","type":"Landkreis"},"federalState":{"key":"09","name":"Bayern"}},{"name":"Am Uhlberg","postalCode":"97783","locality":"Karsbach","municipality":{"key":"09677149","name":"Karsbach","type":"Kreisangehörige_Gemeinde"},"district":{"key":"09677","name":"Main-Spessart","type":"Landkreis"},"federalState":{"key":"09","name":"Bayern"}},{"name":"Aschenrother Weg","postalCode":"97783","locality":"Karsbach","municipality":{"key":"09677149","name":"Karsbach","type":"Kreisangehörige_Gemeinde"},"district":{"key":"09677","name":"Main-Spessart","type":"Landkreis"},"federalState":{"key":"09","name":"Bayern"}},{"name":"Bachleite","postalCode":"97783","locality":"Karsbach","municipality":{"key":"09677149","name":"Karsbach","type":"Kreisangehörige_Gemeinde"},"district":{"key":"09677","name":"Main-Spessart","type":"Landkreis"},"federalState":{"key":"09","name":"Bayern"}},{"name":"Badersgasse","postalCode":"97783","locality":"Karsbach","municipality":{"key":"09677149","name":"Karsbach","type":"Kreisangehörige_Gemeinde"},"district":{"key":"09677","name":"Main-Spessart","type":"Landkreis"},"federalState":{"key":"09","name":"Bayern"}},{"name":"Bergstr.","postalCode":"97783","locality":"Karsbach","municipality":{"key":"09677149","name":"Karsbach","type":"Kreisangehörige_Gemeinde"},"district":{"key":"09677","name":"Main-Spessart","type":"Landkreis"},"federalState":{"key":"09","name":"Bayern"}},{"name":"Bonnländer Str.","postalCode":"97783","locality":"Karsbach","municipality":{"key":"09677149","name":"Karsbach","type":"Kreisangehörige_Gemeinde"},"district":{"key":"09677","name":"Main-Spessart","type":"Landkreis"},"federalState":{"key":"09","name":"Bayern"}},{"name":"Brunnengasse","postalCode":"97783","locality":"Karsbach","municipality":{"key":"09677149","name":"Karsbach","type":"Kreisangehörige_Gemeinde"},"district":{"key":"09677","name":"Main-Spessart","type":"Landkreis"},"federalState":{"key":"09","name":"Bayern"}},{"name":"Brunnenweg","postalCode":"97783","locality":"Karsbach","municipality":{"key":"09677149","name":"Karsbach","type":"Kreisangehörige_Gemeinde"},"district":{"key":"09677","name":"Main-Spessart","type":"Landkreis"},"federalState":{"key":"09","name":"Bayern"}},{"name":"Dünkelweg","postalCode":"97783","locality":"Karsbach","municipality":{"key":"09677149","name":"Karsbach","type":"Kreisangehörige_Gemeinde"},"district":{"key":"09677","name":"Main-Spessart","type":"Landkreis"},"federalState":{"key":"09","name":"Bayern"}},{"name":"Engforstweg","postalCode":"97783","locality":"Karsbach","municipality":{"key":"09677149","name":"Karsbach","type":"Kreisangehörige_Gemeinde"},"district":{"key":"09677","name":"Main-Spessart","type":"Landkreis"},"federalState":{"key":"09","name":"Bayern"}},{"name":"Eselspfad","postalCode":"97783","locality":"Karsbach","municipality":{"key":"09677149","name":"Karsbach","type":"Kreisangehörige_Gemeinde"},"district":{"key":"09677","name":"Main-Spessart","type":"Landkreis"},"federalState":{"key":"09","name":"Bayern"}},{"name":"Flurstr.","postalCode":"97783","locality":"Karsbach","municipality":{"key":"09677149","name":"Karsbach","type":"Kreisangehörige_Gemeinde"},"district":{"key":"09677","name":"Main-Spessart","type":"Landkreis"},"federalState":{"key":"09","name":"Bayern"}},{"name":"Friedhofstr.","postalCode":"97783","locality":"Karsbach","municipality":{"key":"09677149","name":"Karsbach","type":"Kreisangehörige_Gemeinde"},"district":{"key":"09677","name":"Main-Spessart","type":"Landkreis"},"federalState":{"key":"09","name":"Bayern"}},{"name":"Fußgasse","postalCode":"97783","locality":"Karsbach","municipality":{"key":"09677149","name":"Karsbach","type":"Kreisangehörige_Gemeinde"},"district":{"key":"09677","name":"Main-Spessart","type":"Landkreis"},"federalState":{"key":"09","name":"Bayern"}},{"name":"Gartenstr.","postalCode":"97783","locality":"Karsbach","municipality":{"key":"09677149","name":"Karsbach","type":"Kreisangehörige_Gemeinde"},"district":{"key":"09677","name":"Main-Spessart","type":"Landkreis"},"federalState":{"key":"09","name":"Bayern"}},{"name":"Geisberg","postalCode":"97783","locality":"Karsbach","municipality":{"key":"09677149","name":"Karsbach","type":"Kreisangehörige_Gemeinde"},"district":{"key":"09677","name":"Main-Spessart","type":"Landkreis"},"federalState":{"key":"09","name":"Bayern"}},{"name":"Gemündener Str.","postalCode":"97783","locality":"Karsbach","municipality":{"key":"09677149","name":"Karsbach","type":"Kreisangehörige_Gemeinde"},"district":{"key":"09677","name":"Main-Spessart","type":"Landkreis"},"federalState":{"key":"09","name":"Bayern"}},{"name":"Hasentrail","postalCode":"97783","locality":"Karsbach","municipality":{"key":"09677149","name":"Karsbach","type":"Kreisangehörige_Gemeinde"},"district":{"key":"09677","name":"Main-Spessart","type":"Landkreis"},"federalState":{"key":"09","name":"Bayern"}},{"name":"Hauptstr.","postalCode":"97783","locality":"Karsbach","municipality":{"key":"09677149","name":"Karsbach","type":"Kreisangehörige_Gemeinde"},"district":{"key":"09677","name":"Main-Spessart","type":"Landkreis"},"federalState":{"key":"09","name":"Bayern"}},{"name":"Heßdorfer Weg","postalCode":"97783","locality":"Karsbach","municipality":{"key":"09677149","name":"Karsbach","type":"Kreisangehörige_Gemeinde"},"district":{"key":"09677","name":"Main-Spessart","type":"Landkreis"},"federalState":{"key":"09","name":"Bayern"}},{"name":"Hofstattweg","postalCode":"97783","locality":"Karsbach","municipality":{"key":"09677149","name":"Karsbach","type":"Kreisangehörige_Gemeinde"},"district":{"key":"09677","name":"Main-Spessart","type":"Landkreis"},"federalState":{"key":"09","name":"Bayern"}},{"name":"Höllricher Str.","postalCode":"97783","locality":"Karsbach","municipality":{"key":"09677149","name":"Karsbach","type":"Kreisangehörige_Gemeinde"},"district":{"key":"09677","name":"Main-Spessart","type":"Landkreis"},"federalState":{"key":"09","name":"Bayern"}},{"name":"Homburgstr.","postalCode":"97783","locality":"Karsbach","municipality":{"key":"09677149","name":"Karsbach","type":"Kreisangehörige_Gemeinde"},"district":{"key":"09677","name":"Main-Spessart","type":"Landkreis"},"federalState":{"key":"09","name":"Bayern"}},{"name":"Im Grabenland","postalCode":"97783","locality":"Karsbach","municipality":{"key":"09677149","name":"Karsbach","type":"Kreisangehörige_Gemeinde"},"district":{"key":"09677","name":"Main-Spessart","type":"Landkreis"},"federalState":{"key":"09","name":"Bayern"}},{"name":"Kirchgasse","postalCode":"97783","locality":"Karsbach","municipality":{"key":"09677149","name":"Karsbach","type":"Kreisangehörige_Gemeinde"},"district":{"key":"09677","name":"Main-Spessart","type":"Landkreis"},"federalState":{"key":"09","name":"Bayern"}},{"name":"Lerchenweg","postalCode":"97783","locality":"Karsbach","municipality":{"key":"09677149","name":"Karsbach","type":"Kreisangehörige_Gemeinde"},"district":{"key":"09677","name":"Main-Spessart","type":"Landkreis"},"federalState":{"key":"09","name":"Bayern"}},{"name":"Lindenweg","postalCode":"97783","locality":"Karsbach","municipality":{"key":"09677149","name":"Karsbach","type":"Kreisangehörige_Gemeinde"},"district":{"key":"09677","name":"Main-Spessart","type":"Landkreis"},"federalState":{"key":"09","name":"Bayern"}},{"name":"Mühlberg","postalCode":"97783","locality":"Karsbach","municipality":{"key":"09677149","name":"Karsbach","type":"Kreisangehörige_Gemeinde"},"district":{"key":"09677","name":"Main-Spessart","type":"Landkreis"},"federalState":{"key":"09","name":"Bayern"}},{"name":"Mühlstr.","postalCode":"97783","locality":"Karsbach","municipality":{"key":"09677149","name":"Karsbach","type":"Kreisangehörige_Gemeinde"},"district":{"key":"09677","name":"Main-Spessart","type":"Landkreis"},"federalState":{"key":"09","name":"Bayern"}},{"name":"Obere Mühlstr.","postalCode":"97783","locality":"Karsbach","municipality":{"key":"09677149","name":"Karsbach","type":"Kreisangehörige_Gemeinde"},"district":{"key":"09677","name":"Main-Spessart","type":"Landkreis"},"federalState":{"key":"09","name":"Bayern"}},{"name":"Reuntweg","postalCode":"97783","locality":"Karsbach","municipality":{"key":"09677149","name":"Karsbach","type":"Kreisangehörige_Gemeinde"},"district":{"key":"09677","name":"Main-Spessart","type":"Landkreis"},"federalState":{"key":"09","name":"Bayern"}},{"name":"Ringstr.","postalCode":"97783","locality":"Karsbach","municipality":{"key":"09677149","name":"Karsbach","type":"Kreisangehörige_Gemeinde"},"district":{"key":"09677","name":"Main-Spessart","type":"Landkreis"},"federalState":{"key":"09","name":"Bayern"}},{"name":"Rödeweg","postalCode":"97783","locality":"Karsbach","municipality":{"key":"09677149","name":"Karsbach","type":"Kreisangehörige_Gemeinde"},"district":{"key":"09677","name":"Main-Spessart","type":"Landkreis"},"federalState":{"key":"09","name":"Bayern"}},{"name":"Schülpigweg","postalCode":"97783","locality":"Karsbach","municipality":{"key":"09677149","name":"Karsbach","type":"Kreisangehörige_Gemeinde"},"district":{"key":"09677","name":"Main-Spessart","type":"Landkreis"},"federalState":{"key":"09","name":"Bayern"}},{"name":"Schulplatz","postalCode":"97783","locality":"Karsbach","municipality":{"key":"09677149","name":"Karsbach","type":"Kreisangehörige_Gemeinde"},"district":{"key":"09677","name":"Main-Spessart","type":"Landkreis"},"federalState":{"key":"09","name":"Bayern"}},{"name":"Seedammweg","postalCode":"97783","locality":"Karsbach","municipality":{"key":"09677149","name":"Karsbach","type":"Kreisangehörige_Gemeinde"},"district":{"key":"09677","name":"Main-Spessart","type":"Landkreis"},"federalState":{"key":"09","name":"Bayern"}},{"name":"Seeweg","postalCode":"97783","locality":"Karsbach","municipality":{"key":"09677149","name":"Karsbach","type":"Kreisangehörige_Gemeinde"},"district":{"key":"09677","name":"Main-Spessart","type":"Landkreis"},"federalState":{"key":"09","name":"Bayern"}},{"name":"Seifriedsburger Str.","postalCode":"97783","locality":"Karsbach","municipality":{"key":"09677149","name":"Karsbach","type":"Kreisangehörige_Gemeinde"},"district":{"key":"09677","name":"Main-Spessart","type":"Landkreis"},"federalState":{"key":"09","name":"Bayern"}},{"name":"Untere Str.","postalCode":"97783","locality":"Karsbach","municipality":{"key":"09677149","name":"Karsbach","type":"Kreisangehörige_Gemeinde"},"district":{"key":"09677","name":"Main-Spessart","type":"Landkreis"},"federalState":{"key":"09","name":"Bayern"}},{"name":"Weidlesweg","postalCode":"97783","locality":"Karsbach","municipality":{"key":"09677149","name":"Karsbach","type":"Kreisangehörige_Gemeinde"},"district":{"key":"09677","name":"Main-Spessart","type":"Landkreis"},"federalState":{"key":"09","name":"Bayern"}},{"name":"Weinbergstr.","postalCode":"97783","locality":"Karsbach","municipality":{"key":"09677149","name":"Karsbach","type":"Kreisangehörige_Gemeinde"},"district":{"key":"09677","name":"Main-Spessart","type":"Landkreis"},"federalState":{"key":"09","name":"Bayern"}},{"name":"Ziegelweg","postalCode":"97783","locality":"Karsbach","municipality":{"key":"09677149","name":"Karsbach","type":"Kreisangehörige_Gemeinde"},"district":{"key":"09677","name":"Main-Spessart","type":"Landkreis"},"federalState":{"key":"09","name":"Bayern"}},]