[{"key":"10003876","name":"Ackerstrasse","postalCode":"8245","locality":"Feuerthalen","commune":{"key":"27","name":"Feuerthalen","shortName":"Feuerthalen"},"district":{"key":"102","name":"Bezirk Andelfingen"},"canton":{"key":"1","code":"ZH","name":"Zürich"},"status":"Real"},{"key":"10003877","name":"Adlergasse","postalCode":"8245","locality":"Feuerthalen","commune":{"key":"27","name":"Feuerthalen","shortName":"Feuerthalen"},"district":{"key":"102","name":"Bezirk Andelfingen"},"canton":{"key":"1","code":"ZH","name":"Zürich"},"status":"Real"},{"key":"10116761","name":"Bahnhofstrasse","postalCode":"8245","locality":"Feuerthalen","commune":{"key":"27","name":"Feuerthalen","shortName":"Feuerthalen"},"district":{"key":"102","name":"Bezirk Andelfingen"},"canton":{"key":"1","code":"ZH","name":"Zürich"},"status":"Real"},{"key":"10122988","name":"Beckengässli","postalCode":"8245","locality":"Feuerthalen","commune":{"key":"27","name":"Feuerthalen","shortName":"Feuerthalen"},"district":{"key":"102","name":"Bezirk Andelfingen"},"canton":{"key":"1","code":"ZH","name":"Zürich"},"status":"Real"},{"key":"10042862","name":"Burgermöslistrasse","postalCode":"8245","locality":"Feuerthalen","commune":{"key":"27","name":"Feuerthalen","shortName":"Feuerthalen"},"district":{"key":"102","name":"Bezirk Andelfingen"},"canton":{"key":"1","code":"ZH","name":"Zürich"},"status":"Real"},{"key":"10123031","name":"Chüngelibachweg","postalCode":"8245","locality":"Feuerthalen","commune":{"key":"27","name":"Feuerthalen","shortName":"Feuerthalen"},"district":{"key":"102","name":"Bezirk Andelfingen"},"canton":{"key":"1","code":"ZH","name":"Zürich"},"status":"Real"},{"key":"10111690","name":"Dahlienstrasse","postalCode":"8245","locality":"Feuerthalen","commune":{"key":"27","name":"Feuerthalen","shortName":"Feuerthalen"},"district":{"key":"102","name":"Bezirk Andelfingen"},"canton":{"key":"1","code":"ZH","name":"Zürich"},"status":"Real"},{"key":"10069539","name":"Diessenhoferstrasse","postalCode":"8245","locality":"Feuerthalen","commune":{"key":"27","name":"Feuerthalen","shortName":"Feuerthalen"},"district":{"key":"102","name":"Bezirk Andelfingen"},"canton":{"key":"1","code":"ZH","name":"Zürich"},"status":"Real"},{"key":"10054211","name":"Erlenstrasse","postalCode":"8245","locality":"Feuerthalen","commune":{"key":"27","name":"Feuerthalen","shortName":"Feuerthalen"},"district":{"key":"102","name":"Bezirk Andelfingen"},"canton":{"key":"1","code":"ZH","name":"Zürich"},"status":"Real"},{"key":"10130067","name":"Feldstrasse","postalCode":"8245","locality":"Feuerthalen","commune":{"key":"27","name":"Feuerthalen","shortName":"Feuerthalen"},"district":{"key":"102","name":"Bezirk Andelfingen"},"canton":{"key":"1","code":"ZH","name":"Zürich"},"status":"Real"},{"key":"10121017","name":"Flurlingerweg","postalCode":"8245","locality":"Feuerthalen","commune":{"key":"27","name":"Feuerthalen","shortName":"Feuerthalen"},"district":{"key":"102","name":"Bezirk Andelfingen"},"canton":{"key":"1","code":"ZH","name":"Zürich"},"status":"Real"},{"key":"10067298","name":"Forbüelstrasse","postalCode":"8245","locality":"Feuerthalen","commune":{"key":"27","name":"Feuerthalen","shortName":"Feuerthalen"},"district":{"key":"102","name":"Bezirk Andelfingen"},"canton":{"key":"1","code":"ZH","name":"Zürich"},"status":"Real"},{"key":"10123033","name":"Forsthausstrasse","postalCode":"8245","locality":"Feuerthalen","commune":{"key":"27","name":"Feuerthalen","shortName":"Feuerthalen"},"district":{"key":"102","name":"Bezirk Andelfingen"},"canton":{"key":"1","code":"ZH","name":"Zürich"},"status":"Real"},{"key":"10123034","name":"Fuchslöcherweg","postalCode":"8245","locality":"Feuerthalen","commune":{"key":"27","name":"Feuerthalen","shortName":"Feuerthalen"},"district":{"key":"102","name":"Bezirk Andelfingen"},"canton":{"key":"1","code":"ZH","name":"Zürich"},"status":"Real"},{"key":"10003878","name":"Gartenstrasse","postalCode":"8245","locality":"Feuerthalen","commune":{"key":"27","name":"Feuerthalen","shortName":"Feuerthalen"},"district":{"key":"102","name":"Bezirk Andelfingen"},"canton":{"key":"1","code":"ZH","name":"Zürich"},"status":"Real"},{"key":"10054212","name":"Grubenstrasse","postalCode":"8245","locality":"Feuerthalen","commune":{"key":"27","name":"Feuerthalen","shortName":"Feuerthalen"},"district":{"key":"102","name":"Bezirk Andelfingen"},"canton":{"key":"1","code":"ZH","name":"Zürich"},"status":"Real"},{"key":"10069540","name":"Güetliweg","postalCode":"8245","locality":"Feuerthalen","commune":{"key":"27","name":"Feuerthalen","shortName":"Feuerthalen"},"district":{"key":"102","name":"Bezirk Andelfingen"},"canton":{"key":"1","code":"ZH","name":"Zürich"},"status":"Real"},{"key":"10000562","name":"Güterstrasse","postalCode":"8245","locality":"Feuerthalen","commune":{"key":"27","name":"Feuerthalen","shortName":"Feuerthalen"},"district":{"key":"102","name":"Bezirk Andelfingen"},"canton":{"key":"1","code":"ZH","name":"Zürich"},"status":"Real"},{"key":"10123035","name":"Haldenstieg","postalCode":"8245","locality":"Feuerthalen","commune":{"key":"27","name":"Feuerthalen","shortName":"Feuerthalen"},"district":{"key":"102","name":"Bezirk Andelfingen"},"canton":{"key":"1","code":"ZH","name":"Zürich"},"status":"Real"},{"key":"10182082","name":"Haldenstrasse","postalCode":"8245","locality":"Feuerthalen","commune":{"key":"27","name":"Feuerthalen","shortName":"Feuerthalen"},"district":{"key":"102","name":"Bezirk Andelfingen"},"canton":{"key":"1","code":"ZH","name":"Zürich"},"status":"Real"},{"key":"10000563","name":"Haldenweg","postalCode":"8245","locality":"Feuerthalen","commune":{"key":"27","name":"Feuerthalen","shortName":"Feuerthalen"},"district":{"key":"102","name":"Bezirk Andelfingen"},"canton":{"key":"1","code":"ZH","name":"Zürich"},"status":"Real"},{"key":"10067299","name":"Höhenstrasse","postalCode":"8245","locality":"Feuerthalen","commune":{"key":"27","name":"Feuerthalen","shortName":"Feuerthalen"},"district":{"key":"102","name":"Bezirk Andelfingen"},"canton":{"key":"1","code":"ZH","name":"Zürich"},"status":"Real"},{"key":"10123048","name":"Im Stägli","postalCode":"8245","locality":"Feuerthalen","commune":{"key":"27","name":"Feuerthalen","shortName":"Feuerthalen"},"district":{"key":"102","name":"Bezirk Andelfingen"},"canton":{"key":"1","code":"ZH","name":"Zürich"},"status":"Real"},{"key":"10057456","name":"Itasruhstieg","postalCode":"8245","locality":"Feuerthalen","commune":{"key":"27","name":"Feuerthalen","shortName":"Feuerthalen"},"district":{"key":"102","name":"Bezirk Andelfingen"},"canton":{"key":"1","code":"ZH","name":"Zürich"},"status":"Real"},{"key":"10054213","name":"Itasruhweg","postalCode":"8245","locality":"Feuerthalen","commune":{"key":"27","name":"Feuerthalen","shortName":"Feuerthalen"},"district":{"key":"102","name":"Bezirk Andelfingen"},"canton":{"key":"1","code":"ZH","name":"Zürich"},"status":"Real"},{"key":"10000564","name":"Kesslergasse","postalCode":"8245","locality":"Feuerthalen","commune":{"key":"27","name":"Feuerthalen","shortName":"Feuerthalen"},"district":{"key":"102","name":"Bezirk Andelfingen"},"canton":{"key":"1","code":"ZH","name":"Zürich"},"status":"Real"},{"key":"10000565","name":"Kirchstrasse","postalCode":"8245","locality":"Feuerthalen","commune":{"key":"27","name":"Feuerthalen","shortName":"Feuerthalen"},"district":{"key":"102","name":"Bezirk Andelfingen"},"canton":{"key":"1","code":"ZH","name":"Zürich"},"status":"Real"},{"key":"10054214","name":"Kirchweg","postalCode":"8245","locality":"Feuerthalen","commune":{"key":"27","name":"Feuerthalen","shortName":"Feuerthalen"},"district":{"key":"102","name":"Bezirk Andelfingen"},"canton":{"key":"1","code":"ZH","name":"Zürich"},"status":"Real"},{"key":"10000566","name":"Klusweg","postalCode":"8245","locality":"Feuerthalen","commune":{"key":"27","name":"Feuerthalen","shortName":"Feuerthalen"},"district":{"key":"102","name":"Bezirk Andelfingen"},"canton":{"key":"1","code":"ZH","name":"Zürich"},"status":"Real"},{"key":"10099742","name":"Konstanzerstrasse","postalCode":"8245","locality":"Feuerthalen","commune":{"key":"27","name":"Feuerthalen","shortName":"Feuerthalen"},"district":{"key":"102","name":"Bezirk Andelfingen"},"canton":{"key":"1","code":"ZH","name":"Zürich"},"status":"Real"},{"key":"10069542","name":"Küngoldstrasse","postalCode":"8245","locality":"Feuerthalen","commune":{"key":"27","name":"Feuerthalen","shortName":"Feuerthalen"},"district":{"key":"102","name":"Bezirk Andelfingen"},"canton":{"key":"1","code":"ZH","name":"Zürich"},"status":"Real"},{"key":"10067300","name":"Lindenbuckstrasse","postalCode":"8245","locality":"Feuerthalen","commune":{"key":"27","name":"Feuerthalen","shortName":"Feuerthalen"},"district":{"key":"102","name":"Bezirk Andelfingen"},"canton":{"key":"1","code":"ZH","name":"Zürich"},"status":"Real"},{"key":"10121312","name":"Lindenstrasse","postalCode":"8245","locality":"Feuerthalen","commune":{"key":"27","name":"Feuerthalen","shortName":"Feuerthalen"},"district":{"key":"102","name":"Bezirk Andelfingen"},"canton":{"key":"1","code":"ZH","name":"Zürich"},"status":"Real"},{"key":"10054215","name":"Myrthenstrasse","postalCode":"8245","locality":"Feuerthalen","commune":{"key":"27","name":"Feuerthalen","shortName":"Feuerthalen"},"district":{"key":"102","name":"Bezirk Andelfingen"},"canton":{"key":"1","code":"ZH","name":"Zürich"},"status":"Real"},{"key":"10000567","name":"Nelkenstrasse","postalCode":"8245","locality":"Feuerthalen","commune":{"key":"27","name":"Feuerthalen","shortName":"Feuerthalen"},"district":{"key":"102","name":"Bezirk Andelfingen"},"canton":{"key":"1","code":"ZH","name":"Zürich"},"status":"Real"},{"key":"10110870","name":"Obere Rheingasse","postalCode":"8245","locality":"Feuerthalen","commune":{"key":"27","name":"Feuerthalen","shortName":"Feuerthalen"},"district":{"key":"102","name":"Bezirk Andelfingen"},"canton":{"key":"1","code":"ZH","name":"Zürich"},"status":"Real"},{"key":"10127503","name":"Obere Tannwaldstrasse","postalCode":"8245","locality":"Feuerthalen","commune":{"key":"27","name":"Feuerthalen","shortName":"Feuerthalen"},"district":{"key":"102","name":"Bezirk Andelfingen"},"canton":{"key":"1","code":"ZH","name":"Zürich"},"status":"Real"},{"key":"10127505","name":"Querstrasse","postalCode":"8245","locality":"Feuerthalen","commune":{"key":"27","name":"Feuerthalen","shortName":"Feuerthalen"},"district":{"key":"102","name":"Bezirk Andelfingen"},"canton":{"key":"1","code":"ZH","name":"Zürich"},"status":"Real"},{"key":"10170151","name":"Reservoirstrasse","postalCode":"8245","locality":"Feuerthalen","commune":{"key":"27","name":"Feuerthalen","shortName":"Feuerthalen"},"district":{"key":"102","name":"Bezirk Andelfingen"},"canton":{"key":"1","code":"ZH","name":"Zürich"},"status":"Real"},{"key":"10191193","name":"Rheingutstrasse","postalCode":"8245","locality":"Feuerthalen","commune":{"key":"27","name":"Feuerthalen","shortName":"Feuerthalen"},"district":{"key":"102","name":"Bezirk Andelfingen"},"canton":{"key":"1","code":"ZH","name":"Zürich"},"status":"Real"},{"key":"10069543","name":"Rosenstrasse","postalCode":"8245","locality":"Feuerthalen","commune":{"key":"27","name":"Feuerthalen","shortName":"Feuerthalen"},"district":{"key":"102","name":"Bezirk Andelfingen"},"canton":{"key":"1","code":"ZH","name":"Zürich"},"status":"Real"},{"key":"10000568","name":"Rütenenweg","postalCode":"8245","locality":"Feuerthalen","commune":{"key":"27","name":"Feuerthalen","shortName":"Feuerthalen"},"district":{"key":"102","name":"Bezirk Andelfingen"},"canton":{"key":"1","code":"ZH","name":"Zürich"},"status":"Real"},{"key":"10187944","name":"Scheibenäckerstrasse","postalCode":"8245","locality":"Feuerthalen","commune":{"key":"27","name":"Feuerthalen","shortName":"Feuerthalen"},"district":{"key":"102","name":"Bezirk Andelfingen"},"canton":{"key":"1","code":"ZH","name":"Zürich"},"status":"Real"},{"key":"10246446","name":"Schulstrasse","postalCode":"8245","locality":"Feuerthalen","commune":{"key":"27","name":"Feuerthalen","shortName":"Feuerthalen"},"district":{"key":"102","name":"Bezirk Andelfingen"},"canton":{"key":"1","code":"ZH","name":"Zürich"},"status":"Real"},{"key":"10054216","name":"Schützenstrasse","postalCode":"8245","locality":"Feuerthalen","commune":{"key":"27","name":"Feuerthalen","shortName":"Feuerthalen"},"district":{"key":"102","name":"Bezirk Andelfingen"},"canton":{"key":"1","code":"ZH","name":"Zürich"},"status":"Real"},{"key":"10069544","name":"Stadtweg","postalCode":"8245","locality":"Feuerthalen","commune":{"key":"27","name":"Feuerthalen","shortName":"Feuerthalen"},"district":{"key":"102","name":"Bezirk Andelfingen"},"canton":{"key":"1","code":"ZH","name":"Zürich"},"status":"Real"},{"key":"10000569","name":"Steigstrasse","postalCode":"8245","locality":"Feuerthalen","commune":{"key":"27","name":"Feuerthalen","shortName":"Feuerthalen"},"district":{"key":"102","name":"Bezirk Andelfingen"},"canton":{"key":"1","code":"ZH","name":"Zürich"},"status":"Real"},{"key":"10054217","name":"Toggenburgstrasse","postalCode":"8245","locality":"Feuerthalen","commune":{"key":"27","name":"Feuerthalen","shortName":"Feuerthalen"},"district":{"key":"102","name":"Bezirk Andelfingen"},"canton":{"key":"1","code":"ZH","name":"Zürich"},"status":"Real"},{"key":"10000764","name":"Trüllergasse","postalCode":"8245","locality":"Feuerthalen","commune":{"key":"27","name":"Feuerthalen","shortName":"Feuerthalen"},"district":{"key":"102","name":"Bezirk Andelfingen"},"canton":{"key":"1","code":"ZH","name":"Zürich"},"status":"Real"},{"key":"10069545","name":"Uhwieserstrasse","postalCode":"8245","locality":"Feuerthalen","commune":{"key":"27","name":"Feuerthalen","shortName":"Feuerthalen"},"district":{"key":"102","name":"Bezirk Andelfingen"},"canton":{"key":"1","code":"ZH","name":"Zürich"},"status":"Real"},{"key":"10069546","name":"Untere Rheingasse","postalCode":"8245","locality":"Feuerthalen","commune":{"key":"27","name":"Feuerthalen","shortName":"Feuerthalen"},"district":{"key":"102","name":"Bezirk Andelfingen"},"canton":{"key":"1","code":"ZH","name":"Zürich"},"status":"Real"},{"key":"10132405","name":"Untere Tannwaldstrasse","postalCode":"8245","locality":"Feuerthalen","commune":{"key":"27","name":"Feuerthalen","shortName":"Feuerthalen"},"district":{"key":"102","name":"Bezirk Andelfingen"},"canton":{"key":"1","code":"ZH","name":"Zürich"},"status":"Real"},{"key":"10000765","name":"Vogelsangstrasse","postalCode":"8245","locality":"Feuerthalen","commune":{"key":"27","name":"Feuerthalen","shortName":"Feuerthalen"},"district":{"key":"102","name":"Bezirk Andelfingen"},"canton":{"key":"1","code":"ZH","name":"Zürich"},"status":"Real"},{"key":"10000766","name":"Zürcherstrasse","postalCode":"8245","locality":"Feuerthalen","commune":{"key":"27","name":"Feuerthalen","shortName":"Feuerthalen"},"district":{"key":"102","name":"Bezirk Andelfingen"},"canton":{"key":"1","code":"ZH","name":"Zürich"},"status":"Real"},]