[{"name":"Achterstr.","postalCode":"29413","locality":"Dähre","municipality":{"key":"15081095","name":"Dähre","type":"Kreisangehörige_Gemeinde"},"district":{"key":"15081","name":"Altmarkkreis Salzwedel","type":"Landkreis"},"federalState":{"key":"15","name":"Sachsen-Anhalt"}},{"name":"Am Mühlenberg","postalCode":"29413","locality":"Dähre","municipality":{"key":"15081095","name":"Dähre","type":"Kreisangehörige_Gemeinde"},"district":{"key":"15081","name":"Altmarkkreis Salzwedel","type":"Landkreis"},"federalState":{"key":"15","name":"Sachsen-Anhalt"}},{"name":"Am Rundling","postalCode":"29413","locality":"Dähre","municipality":{"key":"15081095","name":"Dähre","type":"Kreisangehörige_Gemeinde"},"district":{"key":"15081","name":"Altmarkkreis Salzwedel","type":"Landkreis"},"federalState":{"key":"15","name":"Sachsen-Anhalt"}},{"name":"Bahnhofstr.","postalCode":"29413","locality":"Dähre","municipality":{"key":"15081095","name":"Dähre","type":"Kreisangehörige_Gemeinde"},"district":{"key":"15081","name":"Altmarkkreis Salzwedel","type":"Landkreis"},"federalState":{"key":"15","name":"Sachsen-Anhalt"}},{"name":"Bahnhofsweg","postalCode":"29413","locality":"Dähre","municipality":{"key":"15081095","name":"Dähre","type":"Kreisangehörige_Gemeinde"},"district":{"key":"15081","name":"Altmarkkreis Salzwedel","type":"Landkreis"},"federalState":{"key":"15","name":"Sachsen-Anhalt"}},{"name":"Bauernstr.","postalCode":"29413","locality":"Dähre","municipality":{"key":"15081095","name":"Dähre","type":"Kreisangehörige_Gemeinde"},"district":{"key":"15081","name":"Altmarkkreis Salzwedel","type":"Landkreis"},"federalState":{"key":"15","name":"Sachsen-Anhalt"}},{"name":"Boneser Str.","postalCode":"29413","locality":"Dähre","municipality":{"key":"15081095","name":"Dähre","type":"Kreisangehörige_Gemeinde"},"district":{"key":"15081","name":"Altmarkkreis Salzwedel","type":"Landkreis"},"federalState":{"key":"15","name":"Sachsen-Anhalt"}},{"name":"Dahrendorf","postalCode":"29413","locality":"Dähre","municipality":{"key":"15081095","name":"Dähre","type":"Kreisangehörige_Gemeinde"},"district":{"key":"15081","name":"Altmarkkreis Salzwedel","type":"Landkreis"},"federalState":{"key":"15","name":"Sachsen-Anhalt"}},{"name":"Dährer Str.","postalCode":"29413","locality":"Dähre","municipality":{"key":"15081095","name":"Dähre","type":"Kreisangehörige_Gemeinde"},"district":{"key":"15081","name":"Altmarkkreis Salzwedel","type":"Landkreis"},"federalState":{"key":"15","name":"Sachsen-Anhalt"}},{"name":"Diesdorfer Str.","postalCode":"29413","locality":"Dähre","municipality":{"key":"15081095","name":"Dähre","type":"Kreisangehörige_Gemeinde"},"district":{"key":"15081","name":"Altmarkkreis Salzwedel","type":"Landkreis"},"federalState":{"key":"15","name":"Sachsen-Anhalt"}},{"name":"Diesdorfer Weg","postalCode":"29413","locality":"Dähre","municipality":{"key":"15081095","name":"Dähre","type":"Kreisangehörige_Gemeinde"},"district":{"key":"15081","name":"Altmarkkreis Salzwedel","type":"Landkreis"},"federalState":{"key":"15","name":"Sachsen-Anhalt"}},{"name":"Dolslebener Str.","postalCode":"29413","locality":"Dähre","municipality":{"key":"15081095","name":"Dähre","type":"Kreisangehörige_Gemeinde"},"district":{"key":"15081","name":"Altmarkkreis Salzwedel","type":"Landkreis"},"federalState":{"key":"15","name":"Sachsen-Anhalt"}},{"name":"Dorfstr.","postalCode":"29413","locality":"Dähre","municipality":{"key":"15081095","name":"Dähre","type":"Kreisangehörige_Gemeinde"},"district":{"key":"15081","name":"Altmarkkreis Salzwedel","type":"Landkreis"},"federalState":{"key":"15","name":"Sachsen-Anhalt"}},{"name":"Eickhorster Weg","postalCode":"29413","locality":"Dähre","municipality":{"key":"15081095","name":"Dähre","type":"Kreisangehörige_Gemeinde"},"district":{"key":"15081","name":"Altmarkkreis Salzwedel","type":"Landkreis"},"federalState":{"key":"15","name":"Sachsen-Anhalt"}},{"name":"Energiestr.","postalCode":"29413","locality":"Dähre","municipality":{"key":"15081095","name":"Dähre","type":"Kreisangehörige_Gemeinde"},"district":{"key":"15081","name":"Altmarkkreis Salzwedel","type":"Landkreis"},"federalState":{"key":"15","name":"Sachsen-Anhalt"}},{"name":"Fahrendorf","postalCode":"29413","locality":"Dähre","municipality":{"key":"15081095","name":"Dähre","type":"Kreisangehörige_Gemeinde"},"district":{"key":"15081","name":"Altmarkkreis Salzwedel","type":"Landkreis"},"federalState":{"key":"15","name":"Sachsen-Anhalt"}},{"name":"Fahrenhorster Str.","postalCode":"29413","locality":"Dähre","municipality":{"key":"15081095","name":"Dähre","type":"Kreisangehörige_Gemeinde"},"district":{"key":"15081","name":"Altmarkkreis Salzwedel","type":"Landkreis"},"federalState":{"key":"15","name":"Sachsen-Anhalt"}},{"name":"Friedensstr.","postalCode":"29413","locality":"Dähre","municipality":{"key":"15081095","name":"Dähre","type":"Kreisangehörige_Gemeinde"},"district":{"key":"15081","name":"Altmarkkreis Salzwedel","type":"Landkreis"},"federalState":{"key":"15","name":"Sachsen-Anhalt"}},{"name":"Hauptstr.","postalCode":"29413","locality":"Dähre","municipality":{"key":"15081095","name":"Dähre","type":"Kreisangehörige_Gemeinde"},"district":{"key":"15081","name":"Altmarkkreis Salzwedel","type":"Landkreis"},"federalState":{"key":"15","name":"Sachsen-Anhalt"}},{"name":"Holzhausen","postalCode":"29413","locality":"Dähre","municipality":{"key":"15081095","name":"Dähre","type":"Kreisangehörige_Gemeinde"},"district":{"key":"15081","name":"Altmarkkreis Salzwedel","type":"Landkreis"},"federalState":{"key":"15","name":"Sachsen-Anhalt"}},{"name":"Im Winkel","postalCode":"29413","locality":"Dähre","municipality":{"key":"15081095","name":"Dähre","type":"Kreisangehörige_Gemeinde"},"district":{"key":"15081","name":"Altmarkkreis Salzwedel","type":"Landkreis"},"federalState":{"key":"15","name":"Sachsen-Anhalt"}},{"name":"Katzenwinkel","postalCode":"29413","locality":"Dähre","municipality":{"key":"15081095","name":"Dähre","type":"Kreisangehörige_Gemeinde"},"district":{"key":"15081","name":"Altmarkkreis Salzwedel","type":"Landkreis"},"federalState":{"key":"15","name":"Sachsen-Anhalt"}},{"name":"Kavelwiesen","postalCode":"29413","locality":"Dähre","municipality":{"key":"15081095","name":"Dähre","type":"Kreisangehörige_Gemeinde"},"district":{"key":"15081","name":"Altmarkkreis Salzwedel","type":"Landkreis"},"federalState":{"key":"15","name":"Sachsen-Anhalt"}},{"name":"Kleistau","postalCode":"29413","locality":"Dähre","municipality":{"key":"15081095","name":"Dähre","type":"Kreisangehörige_Gemeinde"},"district":{"key":"15081","name":"Altmarkkreis Salzwedel","type":"Landkreis"},"federalState":{"key":"15","name":"Sachsen-Anhalt"}},{"name":"Kleistauer Weg","postalCode":"29413","locality":"Dähre","municipality":{"key":"15081095","name":"Dähre","type":"Kreisangehörige_Gemeinde"},"district":{"key":"15081","name":"Altmarkkreis Salzwedel","type":"Landkreis"},"federalState":{"key":"15","name":"Sachsen-Anhalt"}},{"name":"Kortenbeck","postalCode":"29413","locality":"Dähre","municipality":{"key":"15081095","name":"Dähre","type":"Kreisangehörige_Gemeinde"},"district":{"key":"15081","name":"Altmarkkreis Salzwedel","type":"Landkreis"},"federalState":{"key":"15","name":"Sachsen-Anhalt"}},{"name":"Kringelstr.","postalCode":"29413","locality":"Dähre","municipality":{"key":"15081095","name":"Dähre","type":"Kreisangehörige_Gemeinde"},"district":{"key":"15081","name":"Altmarkkreis Salzwedel","type":"Landkreis"},"federalState":{"key":"15","name":"Sachsen-Anhalt"}},{"name":"Lagendorf","postalCode":"29413","locality":"Dähre","municipality":{"key":"15081095","name":"Dähre","type":"Kreisangehörige_Gemeinde"},"district":{"key":"15081","name":"Altmarkkreis Salzwedel","type":"Landkreis"},"federalState":{"key":"15","name":"Sachsen-Anhalt"}},{"name":"Lagendorfer Weg","postalCode":"29413","locality":"Dähre","municipality":{"key":"15081095","name":"Dähre","type":"Kreisangehörige_Gemeinde"},"district":{"key":"15081","name":"Altmarkkreis Salzwedel","type":"Landkreis"},"federalState":{"key":"15","name":"Sachsen-Anhalt"}},{"name":"Markau","postalCode":"29413","locality":"Dähre","municipality":{"key":"15081095","name":"Dähre","type":"Kreisangehörige_Gemeinde"},"district":{"key":"15081","name":"Altmarkkreis Salzwedel","type":"Landkreis"},"federalState":{"key":"15","name":"Sachsen-Anhalt"}},{"name":"Mühlenstr.","postalCode":"29413","locality":"Dähre","municipality":{"key":"15081095","name":"Dähre","type":"Kreisangehörige_Gemeinde"},"district":{"key":"15081","name":"Altmarkkreis Salzwedel","type":"Landkreis"},"federalState":{"key":"15","name":"Sachsen-Anhalt"}},{"name":"Salzwedeler Str.","postalCode":"29413","locality":"Dähre","municipality":{"key":"15081095","name":"Dähre","type":"Kreisangehörige_Gemeinde"},"district":{"key":"15081","name":"Altmarkkreis Salzwedel","type":"Landkreis"},"federalState":{"key":"15","name":"Sachsen-Anhalt"}},{"name":"Schmölau","postalCode":"29413","locality":"Dähre","municipality":{"key":"15081095","name":"Dähre","type":"Kreisangehörige_Gemeinde"},"district":{"key":"15081","name":"Altmarkkreis Salzwedel","type":"Landkreis"},"federalState":{"key":"15","name":"Sachsen-Anhalt"}},{"name":"Schmölauer Str.","postalCode":"29413","locality":"Dähre","municipality":{"key":"15081095","name":"Dähre","type":"Kreisangehörige_Gemeinde"},"district":{"key":"15081","name":"Altmarkkreis Salzwedel","type":"Landkreis"},"federalState":{"key":"15","name":"Sachsen-Anhalt"}},{"name":"Siedendolsleben","postalCode":"29413","locality":"Dähre","municipality":{"key":"15081095","name":"Dähre","type":"Kreisangehörige_Gemeinde"},"district":{"key":"15081","name":"Altmarkkreis Salzwedel","type":"Landkreis"},"federalState":{"key":"15","name":"Sachsen-Anhalt"}},]