[{"name":"Adling","postalCode":"85625","locality":"Glonn","municipality":{"key":"09175121","name":"Glonn, M","type":"Markt"},"district":{"key":"09175","name":"Ebersberg","type":"Landkreis"},"federalState":{"key":"09","name":"Bayern"}},{"name":"Adlinger Str.","postalCode":"85625","locality":"Glonn","municipality":{"key":"09175121","name":"Glonn, M","type":"Markt"},"district":{"key":"09175","name":"Ebersberg","type":"Landkreis"},"federalState":{"key":"09","name":"Bayern"}},{"name":"Adolf-Kolping-Str.","postalCode":"85625","locality":"Glonn","municipality":{"key":"09175121","name":"Glonn, M","type":"Markt"},"district":{"key":"09175","name":"Ebersberg","type":"Landkreis"},"federalState":{"key":"09","name":"Bayern"}},{"name":"Am Anger","postalCode":"85235","locality":"Pfaffenhofen an der Glonn","municipality":{"key":"09174137","name":"Pfaffenhofen a.d.Glonn","type":"Kreisangehörige_Gemeinde"},"district":{"key":"09174","name":"Dachau","type":"Landkreis"},"federalState":{"key":"09","name":"Bayern"}},{"name":"Am Berg","postalCode":"85625","locality":"Glonn","municipality":{"key":"09175121","name":"Glonn, M","type":"Markt"},"district":{"key":"09175","name":"Ebersberg","type":"Landkreis"},"federalState":{"key":"09","name":"Bayern"}},{"name":"Am Bernester Feld","postalCode":"85625","locality":"Glonn","municipality":{"key":"09175121","name":"Glonn, M","type":"Markt"},"district":{"key":"09175","name":"Ebersberg","type":"Landkreis"},"federalState":{"key":"09","name":"Bayern"}},{"name":"Am Blütenanger","postalCode":"85235","locality":"Pfaffenhofen an der Glonn","municipality":{"key":"09174137","name":"Pfaffenhofen a.d.Glonn","type":"Kreisangehörige_Gemeinde"},"district":{"key":"09174","name":"Dachau","type":"Landkreis"},"federalState":{"key":"09","name":"Bayern"}},{"name":"Am Hochrain","postalCode":"85625","locality":"Glonn","municipality":{"key":"09175121","name":"Glonn, M","type":"Markt"},"district":{"key":"09175","name":"Ebersberg","type":"Landkreis"},"federalState":{"key":"09","name":"Bayern"}},{"name":"Am Kupferbach","postalCode":"85625","locality":"Glonn","municipality":{"key":"09175121","name":"Glonn, M","type":"Markt"},"district":{"key":"09175","name":"Ebersberg","type":"Landkreis"},"federalState":{"key":"09","name":"Bayern"}},{"name":"Am Mühlrain","postalCode":"85235","locality":"Pfaffenhofen an der Glonn","municipality":{"key":"09174137","name":"Pfaffenhofen a.d.Glonn","type":"Kreisangehörige_Gemeinde"},"district":{"key":"09174","name":"Dachau","type":"Landkreis"},"federalState":{"key":"09","name":"Bayern"}},{"name":"Am Reßmoos","postalCode":"85235","locality":"Pfaffenhofen an der Glonn","municipality":{"key":"09174137","name":"Pfaffenhofen a.d.Glonn","type":"Kreisangehörige_Gemeinde"},"district":{"key":"09174","name":"Dachau","type":"Landkreis"},"federalState":{"key":"09","name":"Bayern"}},{"name":"Am Schmiedberg","postalCode":"85625","locality":"Glonn","municipality":{"key":"09175121","name":"Glonn, M","type":"Markt"},"district":{"key":"09175","name":"Ebersberg","type":"Landkreis"},"federalState":{"key":"09","name":"Bayern"}},{"name":"Am Seestall","postalCode":"85625","locality":"Glonn","municipality":{"key":"09175121","name":"Glonn, M","type":"Markt"},"district":{"key":"09175","name":"Ebersberg","type":"Landkreis"},"federalState":{"key":"09","name":"Bayern"}},{"name":"Am Sonnenhang","postalCode":"85235","locality":"Pfaffenhofen an der Glonn","municipality":{"key":"09174137","name":"Pfaffenhofen a.d.Glonn","type":"Kreisangehörige_Gemeinde"},"district":{"key":"09174","name":"Dachau","type":"Landkreis"},"federalState":{"key":"09","name":"Bayern"}},{"name":"An der Allee","postalCode":"85235","locality":"Pfaffenhofen an der Glonn","municipality":{"key":"09174137","name":"Pfaffenhofen a.d.Glonn","type":"Kreisangehörige_Gemeinde"},"district":{"key":"09174","name":"Dachau","type":"Landkreis"},"federalState":{"key":"09","name":"Bayern"}},{"name":"An der Leiten","postalCode":"85235","locality":"Pfaffenhofen an der Glonn","municipality":{"key":"09174137","name":"Pfaffenhofen a.d.Glonn","type":"Kreisangehörige_Gemeinde"},"district":{"key":"09174","name":"Dachau","type":"Landkreis"},"federalState":{"key":"09","name":"Bayern"}},{"name":"Arcostr.","postalCode":"85625","locality":"Glonn","municipality":{"key":"09175121","name":"Glonn, M","type":"Markt"},"district":{"key":"09175","name":"Ebersberg","type":"Landkreis"},"federalState":{"key":"09","name":"Bayern"}},{"name":"Auf der Wiese","postalCode":"85235","locality":"Pfaffenhofen an der Glonn","municipality":{"key":"09174137","name":"Pfaffenhofen a.d.Glonn","type":"Kreisangehörige_Gemeinde"},"district":{"key":"09174","name":"Dachau","type":"Landkreis"},"federalState":{"key":"09","name":"Bayern"}},{"name":"Bahnhofplatz","postalCode":"85625","locality":"Glonn","municipality":{"key":"09175121","name":"Glonn, M","type":"Markt"},"district":{"key":"09175","name":"Ebersberg","type":"Landkreis"},"federalState":{"key":"09","name":"Bayern"}},{"name":"Bahnhofstr.","postalCode":"85625","locality":"Glonn","municipality":{"key":"09175121","name":"Glonn, M","type":"Markt"},"district":{"key":"09175","name":"Ebersberg","type":"Landkreis"},"federalState":{"key":"09","name":"Bayern"}},{"name":"Balkham","postalCode":"85625","locality":"Glonn","municipality":{"key":"09175121","name":"Glonn, M","type":"Markt"},"district":{"key":"09175","name":"Ebersberg","type":"Landkreis"},"federalState":{"key":"09","name":"Bayern"}},{"name":"Bayerzeller Str.","postalCode":"85235","locality":"Pfaffenhofen an der Glonn","municipality":{"key":"09174137","name":"Pfaffenhofen a.d.Glonn","type":"Kreisangehörige_Gemeinde"},"district":{"key":"09174","name":"Dachau","type":"Landkreis"},"federalState":{"key":"09","name":"Bayern"}},{"name":"Behamstr.","postalCode":"85625","locality":"Glonn","municipality":{"key":"09175121","name":"Glonn, M","type":"Markt"},"district":{"key":"09175","name":"Ebersberg","type":"Landkreis"},"federalState":{"key":"09","name":"Bayern"}},{"name":"Bergstr.","postalCode":"85235","locality":"Pfaffenhofen an der Glonn","municipality":{"key":"09174137","name":"Pfaffenhofen a.d.Glonn","type":"Kreisangehörige_Gemeinde"},"district":{"key":"09174","name":"Dachau","type":"Landkreis"},"federalState":{"key":"09","name":"Bayern"}},{"name":"Bialasstr.","postalCode":"85625","locality":"Glonn","municipality":{"key":"09175121","name":"Glonn, M","type":"Markt"},"district":{"key":"09175","name":"Ebersberg","type":"Landkreis"},"federalState":{"key":"09","name":"Bayern"}},{"name":"Candid-Huber-Str.","postalCode":"85560","locality":"Ebersberg","municipality":{"key":"09175115","name":"Ebersberg, St","type":"Stadt"},"district":{"key":"09175","name":"Ebersberg","type":"Landkreis"},"federalState":{"key":"09","name":"Bayern"}},{"name":"Dachsberg","postalCode":"85560","locality":"Ebersberg","municipality":{"key":"09175115","name":"Ebersberg, St","type":"Stadt"},"district":{"key":"09175","name":"Ebersberg","type":"Landkreis"},"federalState":{"key":"09","name":"Bayern"}},{"name":"Dritter Geräumtweg","postalCode":"85560","locality":"Ebersberg","municipality":{"key":"09175115","name":"Ebersberg, St","type":"Stadt"},"district":{"key":"09175","name":"Ebersberg","type":"Landkreis"},"federalState":{"key":"09","name":"Bayern"}},{"name":"Dr.-Wintrich-Str.","postalCode":"85560","locality":"Ebersberg","municipality":{"key":"09175115","name":"Ebersberg, St","type":"Stadt"},"district":{"key":"09175","name":"Ebersberg","type":"Landkreis"},"federalState":{"key":"09","name":"Bayern"}},{"name":"Egenburger Str.","postalCode":"85235","locality":"Pfaffenhofen an der Glonn","municipality":{"key":"09174137","name":"Pfaffenhofen a.d.Glonn","type":"Kreisangehörige_Gemeinde"},"district":{"key":"09174","name":"Dachau","type":"Landkreis"},"federalState":{"key":"09","name":"Bayern"}},{"name":"Eginostr.","postalCode":"85235","locality":"Pfaffenhofen an der Glonn","municipality":{"key":"09174137","name":"Pfaffenhofen a.d.Glonn","type":"Kreisangehörige_Gemeinde"},"district":{"key":"09174","name":"Dachau","type":"Landkreis"},"federalState":{"key":"09","name":"Bayern"}},{"name":"Eichenweg","postalCode":"85235","locality":"Pfaffenhofen an der Glonn","municipality":{"key":"09174137","name":"Pfaffenhofen a.d.Glonn","type":"Kreisangehörige_Gemeinde"},"district":{"key":"09174","name":"Dachau","type":"Landkreis"},"federalState":{"key":"09","name":"Bayern"}},{"name":"Eichenweg","postalCode":"85625","locality":"Glonn","municipality":{"key":"09175121","name":"Glonn, M","type":"Markt"},"district":{"key":"09175","name":"Ebersberg","type":"Landkreis"},"federalState":{"key":"09","name":"Bayern"}},{"name":"Feldkirchner Str.","postalCode":"85625","locality":"Glonn","municipality":{"key":"09175121","name":"Glonn, M","type":"Markt"},"district":{"key":"09175","name":"Ebersberg","type":"Landkreis"},"federalState":{"key":"09","name":"Bayern"}},{"name":"Filzenstr.","postalCode":"85625","locality":"Glonn","municipality":{"key":"09175121","name":"Glonn, M","type":"Markt"},"district":{"key":"09175","name":"Ebersberg","type":"Landkreis"},"federalState":{"key":"09","name":"Bayern"}},{"name":"Finkenweg","postalCode":"85625","locality":"Glonn","municipality":{"key":"09175121","name":"Glonn, M","type":"Markt"},"district":{"key":"09175","name":"Ebersberg","type":"Landkreis"},"federalState":{"key":"09","name":"Bayern"}},{"name":"Forellenstr.","postalCode":"85625","locality":"Glonn","municipality":{"key":"09175121","name":"Glonn, M","type":"Markt"},"district":{"key":"09175","name":"Ebersberg","type":"Landkreis"},"federalState":{"key":"09","name":"Bayern"}},{"name":"Franz-Kaltner-Str.","postalCode":"85625","locality":"Glonn","municipality":{"key":"09175121","name":"Glonn, M","type":"Markt"},"district":{"key":"09175","name":"Ebersberg","type":"Landkreis"},"federalState":{"key":"09","name":"Bayern"}},{"name":"Frauenbründlstr.","postalCode":"85625","locality":"Glonn","municipality":{"key":"09175121","name":"Glonn, M","type":"Markt"},"district":{"key":"09175","name":"Ebersberg","type":"Landkreis"},"federalState":{"key":"09","name":"Bayern"}},{"name":"Fuggerstr.","postalCode":"85625","locality":"Glonn","municipality":{"key":"09175121","name":"Glonn, M","type":"Markt"},"district":{"key":"09175","name":"Ebersberg","type":"Landkreis"},"federalState":{"key":"09","name":"Bayern"}},{"name":"Furtmüllerweg","postalCode":"85625","locality":"Glonn","municipality":{"key":"09175121","name":"Glonn, M","type":"Markt"},"district":{"key":"09175","name":"Ebersberg","type":"Landkreis"},"federalState":{"key":"09","name":"Bayern"}},{"name":"Gartenweg","postalCode":"85235","locality":"Pfaffenhofen an der Glonn","municipality":{"key":"09174137","name":"Pfaffenhofen a.d.Glonn","type":"Kreisangehörige_Gemeinde"},"district":{"key":"09174","name":"Dachau","type":"Landkreis"},"federalState":{"key":"09","name":"Bayern"}},{"name":"Gerberstr.","postalCode":"85235","locality":"Pfaffenhofen an der Glonn","municipality":{"key":"09174137","name":"Pfaffenhofen a.d.Glonn","type":"Kreisangehörige_Gemeinde"},"district":{"key":"09174","name":"Dachau","type":"Landkreis"},"federalState":{"key":"09","name":"Bayern"}},{"name":"Gernstr.","postalCode":"85235","locality":"Pfaffenhofen an der Glonn","municipality":{"key":"09174137","name":"Pfaffenhofen a.d.Glonn","type":"Kreisangehörige_Gemeinde"},"district":{"key":"09174","name":"Dachau","type":"Landkreis"},"federalState":{"key":"09","name":"Bayern"}},{"name":"Geschwister-Scholl-Str.","postalCode":"85625","locality":"Glonn","municipality":{"key":"09175121","name":"Glonn, M","type":"Markt"},"district":{"key":"09175","name":"Ebersberg","type":"Landkreis"},"federalState":{"key":"09","name":"Bayern"}},{"name":"Glonntalstr.","postalCode":"85235","locality":"Pfaffenhofen an der Glonn","municipality":{"key":"09174137","name":"Pfaffenhofen a.d.Glonn","type":"Kreisangehörige_Gemeinde"},"district":{"key":"09174","name":"Dachau","type":"Landkreis"},"federalState":{"key":"09","name":"Bayern"}},{"name":"Hans-Brunner-Str.","postalCode":"85625","locality":"Glonn","municipality":{"key":"09175121","name":"Glonn, M","type":"Markt"},"district":{"key":"09175","name":"Ebersberg","type":"Landkreis"},"federalState":{"key":"09","name":"Bayern"}},{"name":"Hans-Ernst-Str.","postalCode":"85625","locality":"Glonn","municipality":{"key":"09175121","name":"Glonn, M","type":"Markt"},"district":{"key":"09175","name":"Ebersberg","type":"Landkreis"},"federalState":{"key":"09","name":"Bayern"}},{"name":"Haslacher Str.","postalCode":"85625","locality":"Glonn","municipality":{"key":"09175121","name":"Glonn, M","type":"Markt"},"district":{"key":"09175","name":"Ebersberg","type":"Landkreis"},"federalState":{"key":"09","name":"Bayern"}},{"name":"Hauptstr.","postalCode":"85235","locality":"Pfaffenhofen an der Glonn","municipality":{"key":"09174137","name":"Pfaffenhofen a.d.Glonn","type":"Kreisangehörige_Gemeinde"},"district":{"key":"09174","name":"Dachau","type":"Landkreis"},"federalState":{"key":"09","name":"Bayern"}},{"name":"Heckenweg","postalCode":"85625","locality":"Glonn","municipality":{"key":"09175121","name":"Glonn, M","type":"Markt"},"district":{"key":"09175","name":"Ebersberg","type":"Landkreis"},"federalState":{"key":"09","name":"Bayern"}},{"name":"Hirtenstr.","postalCode":"85235","locality":"Pfaffenhofen an der Glonn","municipality":{"key":"09174137","name":"Pfaffenhofen a.d.Glonn","type":"Kreisangehörige_Gemeinde"},"district":{"key":"09174","name":"Dachau","type":"Landkreis"},"federalState":{"key":"09","name":"Bayern"}},{"name":"Hüterweg","postalCode":"85235","locality":"Pfaffenhofen an der Glonn","municipality":{"key":"09174137","name":"Pfaffenhofen a.d.Glonn","type":"Kreisangehörige_Gemeinde"},"district":{"key":"09174","name":"Dachau","type":"Landkreis"},"federalState":{"key":"09","name":"Bayern"}},{"name":"Ignaz-Perner-Str.","postalCode":"85560","locality":"Ebersberg","municipality":{"key":"09175115","name":"Ebersberg, St","type":"Stadt"},"district":{"key":"09175","name":"Ebersberg","type":"Landkreis"},"federalState":{"key":"09","name":"Bayern"}},{"name":"Im Augrund","postalCode":"85560","locality":"Ebersberg","municipality":{"key":"09175115","name":"Ebersberg, St","type":"Stadt"},"district":{"key":"09175","name":"Ebersberg","type":"Landkreis"},"federalState":{"key":"09","name":"Bayern"}},{"name":"Im Tal","postalCode":"85560","locality":"Ebersberg","municipality":{"key":"09175115","name":"Ebersberg, St","type":"Stadt"},"district":{"key":"09175","name":"Ebersberg","type":"Landkreis"},"federalState":{"key":"09","name":"Bayern"}},{"name":"Jesuitengasse","postalCode":"85560","locality":"Ebersberg","municipality":{"key":"09175115","name":"Ebersberg, St","type":"Stadt"},"district":{"key":"09175","name":"Ebersberg","type":"Landkreis"},"federalState":{"key":"09","name":"Bayern"}},{"name":"Josef-Brendle-Str.","postalCode":"85560","locality":"Ebersberg","municipality":{"key":"09175115","name":"Ebersberg, St","type":"Stadt"},"district":{"key":"09175","name":"Ebersberg","type":"Landkreis"},"federalState":{"key":"09","name":"Bayern"}},{"name":"Josef-Maier-Promenade","postalCode":"85560","locality":"Ebersberg","municipality":{"key":"09175115","name":"Ebersberg, St","type":"Stadt"},"district":{"key":"09175","name":"Ebersberg","type":"Landkreis"},"federalState":{"key":"09","name":"Bayern"}},{"name":"Kastenseeon","postalCode":"85625","locality":"Glonn","municipality":{"key":"09175121","name":"Glonn, M","type":"Markt"},"district":{"key":"09175","name":"Ebersberg","type":"Landkreis"},"federalState":{"key":"09","name":"Bayern"}},{"name":"Kastenseestr.","postalCode":"85625","locality":"Glonn","municipality":{"key":"09175121","name":"Glonn, M","type":"Markt"},"district":{"key":"09175","name":"Ebersberg","type":"Landkreis"},"federalState":{"key":"09","name":"Bayern"}},{"name":"Keltenweg","postalCode":"85625","locality":"Glonn","municipality":{"key":"09175121","name":"Glonn, M","type":"Markt"},"district":{"key":"09175","name":"Ebersberg","type":"Landkreis"},"federalState":{"key":"09","name":"Bayern"}},{"name":"Kirchberg","postalCode":"85235","locality":"Pfaffenhofen an der Glonn","municipality":{"key":"09174137","name":"Pfaffenhofen a.d.Glonn","type":"Kreisangehörige_Gemeinde"},"district":{"key":"09174","name":"Dachau","type":"Landkreis"},"federalState":{"key":"09","name":"Bayern"}},{"name":"Kirchplatz","postalCode":"85235","locality":"Pfaffenhofen an der Glonn","municipality":{"key":"09174137","name":"Pfaffenhofen a.d.Glonn","type":"Kreisangehörige_Gemeinde"},"district":{"key":"09174","name":"Dachau","type":"Landkreis"},"federalState":{"key":"09","name":"Bayern"}},{"name":"Klosterweg","postalCode":"85625","locality":"Glonn","municipality":{"key":"09175121","name":"Glonn, M","type":"Markt"},"district":{"key":"09175","name":"Ebersberg","type":"Landkreis"},"federalState":{"key":"09","name":"Bayern"}},{"name":"Kolomanweg","postalCode":"85625","locality":"Glonn","municipality":{"key":"09175121","name":"Glonn, M","type":"Markt"},"district":{"key":"09175","name":"Ebersberg","type":"Landkreis"},"federalState":{"key":"09","name":"Bayern"}},{"name":"Kreuz","postalCode":"85625","locality":"Glonn","municipality":{"key":"09175121","name":"Glonn, M","type":"Markt"},"district":{"key":"09175","name":"Ebersberg","type":"Landkreis"},"federalState":{"key":"09","name":"Bayern"}},{"name":"Kugelfeldstr.","postalCode":"85625","locality":"Glonn","municipality":{"key":"09175121","name":"Glonn, M","type":"Markt"},"district":{"key":"09175","name":"Ebersberg","type":"Landkreis"},"federalState":{"key":"09","name":"Bayern"}},{"name":"Landstr.","postalCode":"85235","locality":"Pfaffenhofen an der Glonn","municipality":{"key":"09174137","name":"Pfaffenhofen a.d.Glonn","type":"Kreisangehörige_Gemeinde"},"district":{"key":"09174","name":"Dachau","type":"Landkreis"},"federalState":{"key":"09","name":"Bayern"}},{"name":"Läutenring","postalCode":"85235","locality":"Pfaffenhofen an der Glonn","municipality":{"key":"09174137","name":"Pfaffenhofen a.d.Glonn","type":"Kreisangehörige_Gemeinde"},"district":{"key":"09174","name":"Dachau","type":"Landkreis"},"federalState":{"key":"09","name":"Bayern"}},{"name":"Lena-Christ-Str.","postalCode":"85625","locality":"Glonn","municipality":{"key":"09175121","name":"Glonn, M","type":"Markt"},"district":{"key":"09175","name":"Ebersberg","type":"Landkreis"},"federalState":{"key":"09","name":"Bayern"}},{"name":"Ligsalzstr.","postalCode":"85235","locality":"Pfaffenhofen an der Glonn","municipality":{"key":"09174137","name":"Pfaffenhofen a.d.Glonn","type":"Kreisangehörige_Gemeinde"},"district":{"key":"09174","name":"Dachau","type":"Landkreis"},"federalState":{"key":"09","name":"Bayern"}},{"name":"Marktplatz","postalCode":"85625","locality":"Glonn","municipality":{"key":"09175121","name":"Glonn, M","type":"Markt"},"district":{"key":"09175","name":"Ebersberg","type":"Landkreis"},"federalState":{"key":"09","name":"Bayern"}},{"name":"Mattenhofen","postalCode":"85625","locality":"Glonn","municipality":{"key":"09175121","name":"Glonn, M","type":"Markt"},"district":{"key":"09175","name":"Ebersberg","type":"Landkreis"},"federalState":{"key":"09","name":"Bayern"}},{"name":"Mattenhofener Str.","postalCode":"85625","locality":"Glonn","municipality":{"key":"09175121","name":"Glonn, M","type":"Markt"},"district":{"key":"09175","name":"Ebersberg","type":"Landkreis"},"federalState":{"key":"09","name":"Bayern"}},{"name":"Moosweg","postalCode":"85235","locality":"Pfaffenhofen an der Glonn","municipality":{"key":"09174137","name":"Pfaffenhofen a.d.Glonn","type":"Kreisangehörige_Gemeinde"},"district":{"key":"09174","name":"Dachau","type":"Landkreis"},"federalState":{"key":"09","name":"Bayern"}},{"name":"Mühlstr.","postalCode":"85235","locality":"Pfaffenhofen an der Glonn","municipality":{"key":"09174137","name":"Pfaffenhofen a.d.Glonn","type":"Kreisangehörige_Gemeinde"},"district":{"key":"09174","name":"Dachau","type":"Landkreis"},"federalState":{"key":"09","name":"Bayern"}},{"name":"Mühlthal","postalCode":"85625","locality":"Glonn","municipality":{"key":"09175121","name":"Glonn, M","type":"Markt"},"district":{"key":"09175","name":"Ebersberg","type":"Landkreis"},"federalState":{"key":"09","name":"Bayern"}},{"name":"Mühlweg","postalCode":"85625","locality":"Glonn","municipality":{"key":"09175121","name":"Glonn, M","type":"Markt"},"district":{"key":"09175","name":"Ebersberg","type":"Landkreis"},"federalState":{"key":"09","name":"Bayern"}},{"name":"Münchener Str.","postalCode":"85625","locality":"Glonn","municipality":{"key":"09175121","name":"Glonn, M","type":"Markt"},"district":{"key":"09175","name":"Ebersberg","type":"Landkreis"},"federalState":{"key":"09","name":"Bayern"}},{"name":"Niedermairstr.","postalCode":"85625","locality":"Glonn","municipality":{"key":"09175121","name":"Glonn, M","type":"Markt"},"district":{"key":"09175","name":"Ebersberg","type":"Landkreis"},"federalState":{"key":"09","name":"Bayern"}},{"name":"Niederseeoner Str.","postalCode":"85625","locality":"Glonn","municipality":{"key":"09175121","name":"Glonn, M","type":"Markt"},"district":{"key":"09175","name":"Ebersberg","type":"Landkreis"},"federalState":{"key":"09","name":"Bayern"}},{"name":"Nußbaumstr.","postalCode":"85235","locality":"Pfaffenhofen an der Glonn","municipality":{"key":"09174137","name":"Pfaffenhofen a.d.Glonn","type":"Kreisangehörige_Gemeinde"},"district":{"key":"09174","name":"Dachau","type":"Landkreis"},"federalState":{"key":"09","name":"Bayern"}},{"name":"Oberer Steinweg","postalCode":"85664","locality":"Ebersberger Forst","municipality":{"key":"09175452","name":"Ebersberger Forst","type":"Gemeindefreies_Gebiet_Unbewohnt"},"district":{"key":"09175","name":"Ebersberg","type":"Landkreis"},"federalState":{"key":"09","name":"Bayern"}},{"name":"Pelzgartenweg","postalCode":"85625","locality":"Glonn","municipality":{"key":"09175121","name":"Glonn, M","type":"Markt"},"district":{"key":"09175","name":"Ebersberg","type":"Landkreis"},"federalState":{"key":"09","name":"Bayern"}},{"name":"Pfarrer-Winhart-Str.","postalCode":"85625","locality":"Glonn","municipality":{"key":"09175121","name":"Glonn, M","type":"Markt"},"district":{"key":"09175","name":"Ebersberg","type":"Landkreis"},"federalState":{"key":"09","name":"Bayern"}},{"name":"Pfarrstr.","postalCode":"85235","locality":"Pfaffenhofen an der Glonn","municipality":{"key":"09174137","name":"Pfaffenhofen a.d.Glonn","type":"Kreisangehörige_Gemeinde"},"district":{"key":"09174","name":"Dachau","type":"Landkreis"},"federalState":{"key":"09","name":"Bayern"}},{"name":"Pienzenauer Str.","postalCode":"85625","locality":"Glonn","municipality":{"key":"09175121","name":"Glonn, M","type":"Markt"},"district":{"key":"09175","name":"Ebersberg","type":"Landkreis"},"federalState":{"key":"09","name":"Bayern"}},{"name":"Postanger","postalCode":"85625","locality":"Glonn","municipality":{"key":"09175121","name":"Glonn, M","type":"Markt"},"district":{"key":"09175","name":"Ebersberg","type":"Landkreis"},"federalState":{"key":"09","name":"Bayern"}},{"name":"Preysingstr.","postalCode":"85625","locality":"Glonn","municipality":{"key":"09175121","name":"Glonn, M","type":"Markt"},"district":{"key":"09175","name":"Ebersberg","type":"Landkreis"},"federalState":{"key":"09","name":"Bayern"}},{"name":"Prof.-Lebsche-Str.","postalCode":"85625","locality":"Glonn","municipality":{"key":"09175121","name":"Glonn, M","type":"Markt"},"district":{"key":"09175","name":"Ebersberg","type":"Landkreis"},"federalState":{"key":"09","name":"Bayern"}},{"name":"Quellenstr.","postalCode":"85625","locality":"Glonn","municipality":{"key":"09175121","name":"Glonn, M","type":"Markt"},"district":{"key":"09175","name":"Ebersberg","type":"Landkreis"},"federalState":{"key":"09","name":"Bayern"}},{"name":"Raiffeisenplatz","postalCode":"85235","locality":"Pfaffenhofen an der Glonn","municipality":{"key":"09174137","name":"Pfaffenhofen a.d.Glonn","type":"Kreisangehörige_Gemeinde"},"district":{"key":"09174","name":"Dachau","type":"Landkreis"},"federalState":{"key":"09","name":"Bayern"}},{"name":"Rathausstr.","postalCode":"85235","locality":"Pfaffenhofen an der Glonn","municipality":{"key":"09174137","name":"Pfaffenhofen a.d.Glonn","type":"Kreisangehörige_Gemeinde"},"district":{"key":"09174","name":"Dachau","type":"Landkreis"},"federalState":{"key":"09","name":"Bayern"}},{"name":"Reisenthalstr.","postalCode":"85625","locality":"Glonn","municipality":{"key":"09175121","name":"Glonn, M","type":"Markt"},"district":{"key":"09175","name":"Ebersberg","type":"Landkreis"},"federalState":{"key":"09","name":"Bayern"}},{"name":"Reisererstr.","postalCode":"85235","locality":"Pfaffenhofen an der Glonn","municipality":{"key":"09174137","name":"Pfaffenhofen a.d.Glonn","type":"Kreisangehörige_Gemeinde"},"district":{"key":"09174","name":"Dachau","type":"Landkreis"},"federalState":{"key":"09","name":"Bayern"}},{"name":"Rotter Str.","postalCode":"85625","locality":"Glonn","municipality":{"key":"09175121","name":"Glonn, M","type":"Markt"},"district":{"key":"09175","name":"Ebersberg","type":"Landkreis"},"federalState":{"key":"09","name":"Bayern"}},{"name":"Sankt-Florian-Weg","postalCode":"85235","locality":"Pfaffenhofen an der Glonn","municipality":{"key":"09174137","name":"Pfaffenhofen a.d.Glonn","type":"Kreisangehörige_Gemeinde"},"district":{"key":"09174","name":"Dachau","type":"Landkreis"},"federalState":{"key":"09","name":"Bayern"}},{"name":"Sankt-Johannes-Str.","postalCode":"85625","locality":"Glonn","municipality":{"key":"09175121","name":"Glonn, M","type":"Markt"},"district":{"key":"09175","name":"Ebersberg","type":"Landkreis"},"federalState":{"key":"09","name":"Bayern"}},{"name":"Sankt-Martin-Weg","postalCode":"85235","locality":"Pfaffenhofen an der Glonn","municipality":{"key":"09174137","name":"Pfaffenhofen a.d.Glonn","type":"Kreisangehörige_Gemeinde"},"district":{"key":"09174","name":"Dachau","type":"Landkreis"},"federalState":{"key":"09","name":"Bayern"}},{"name":"Schießstättenweg","postalCode":"85625","locality":"Glonn","municipality":{"key":"09175121","name":"Glonn, M","type":"Markt"},"district":{"key":"09175","name":"Ebersberg","type":"Landkreis"},"federalState":{"key":"09","name":"Bayern"}},{"name":"Schlacht","postalCode":"85625","locality":"Glonn","municipality":{"key":"09175121","name":"Glonn, M","type":"Markt"},"district":{"key":"09175","name":"Ebersberg","type":"Landkreis"},"federalState":{"key":"09","name":"Bayern"}},{"name":"Schlesienstr.","postalCode":"85625","locality":"Glonn","municipality":{"key":"09175121","name":"Glonn, M","type":"Markt"},"district":{"key":"09175","name":"Ebersberg","type":"Landkreis"},"federalState":{"key":"09","name":"Bayern"}},{"name":"Schloßweg","postalCode":"85235","locality":"Pfaffenhofen an der Glonn","municipality":{"key":"09174137","name":"Pfaffenhofen a.d.Glonn","type":"Kreisangehörige_Gemeinde"},"district":{"key":"09174","name":"Dachau","type":"Landkreis"},"federalState":{"key":"09","name":"Bayern"}},{"name":"Schmiedweg","postalCode":"85235","locality":"Pfaffenhofen an der Glonn","municipality":{"key":"09174137","name":"Pfaffenhofen a.d.Glonn","type":"Kreisangehörige_Gemeinde"},"district":{"key":"09174","name":"Dachau","type":"Landkreis"},"federalState":{"key":"09","name":"Bayern"}},{"name":"Schwedenstr.","postalCode":"85625","locality":"Glonn","municipality":{"key":"09175121","name":"Glonn, M","type":"Markt"},"district":{"key":"09175","name":"Ebersberg","type":"Landkreis"},"federalState":{"key":"09","name":"Bayern"}},{"name":"Siebenbürgenstr.","postalCode":"85625","locality":"Glonn","municipality":{"key":"09175121","name":"Glonn, M","type":"Markt"},"district":{"key":"09175","name":"Ebersberg","type":"Landkreis"},"federalState":{"key":"09","name":"Bayern"}},{"name":"Spitzentränkbogen","postalCode":"85625","locality":"Glonn","municipality":{"key":"09175121","name":"Glonn, M","type":"Markt"},"district":{"key":"09175","name":"Ebersberg","type":"Landkreis"},"federalState":{"key":"09","name":"Bayern"}},{"name":"Sportplatzweg","postalCode":"85235","locality":"Pfaffenhofen an der Glonn","municipality":{"key":"09174137","name":"Pfaffenhofen a.d.Glonn","type":"Kreisangehörige_Gemeinde"},"district":{"key":"09174","name":"Dachau","type":"Landkreis"},"federalState":{"key":"09","name":"Bayern"}},{"name":"Steinbruchweg","postalCode":"85625","locality":"Glonn","municipality":{"key":"09175121","name":"Glonn, M","type":"Markt"},"district":{"key":"09175","name":"Ebersberg","type":"Landkreis"},"federalState":{"key":"09","name":"Bayern"}},{"name":"Steinhausen","postalCode":"85625","locality":"Glonn","municipality":{"key":"09175121","name":"Glonn, M","type":"Markt"},"district":{"key":"09175","name":"Ebersberg","type":"Landkreis"},"federalState":{"key":"09","name":"Bayern"}},{"name":"Sudetenlandstr.","postalCode":"85625","locality":"Glonn","municipality":{"key":"09175121","name":"Glonn, M","type":"Markt"},"district":{"key":"09175","name":"Ebersberg","type":"Landkreis"},"federalState":{"key":"09","name":"Bayern"}},{"name":"Talstr.","postalCode":"85625","locality":"Glonn","municipality":{"key":"09175121","name":"Glonn, M","type":"Markt"},"district":{"key":"09175","name":"Ebersberg","type":"Landkreis"},"federalState":{"key":"09","name":"Bayern"}},{"name":"Tillystr.","postalCode":"85625","locality":"Glonn","municipality":{"key":"09175121","name":"Glonn, M","type":"Markt"},"district":{"key":"09175","name":"Ebersberg","type":"Landkreis"},"federalState":{"key":"09","name":"Bayern"}},{"name":"Umbacher Str.","postalCode":"85235","locality":"Pfaffenhofen an der Glonn","municipality":{"key":"09174137","name":"Pfaffenhofen a.d.Glonn","type":"Kreisangehörige_Gemeinde"},"district":{"key":"09174","name":"Dachau","type":"Landkreis"},"federalState":{"key":"09","name":"Bayern"}},{"name":"Urbanweg","postalCode":"85625","locality":"Glonn","municipality":{"key":"09175121","name":"Glonn, M","type":"Markt"},"district":{"key":"09175","name":"Ebersberg","type":"Landkreis"},"federalState":{"key":"09","name":"Bayern"}},{"name":"von-Büssing-Str.","postalCode":"85625","locality":"Glonn","municipality":{"key":"09175121","name":"Glonn, M","type":"Markt"},"district":{"key":"09175","name":"Ebersberg","type":"Landkreis"},"federalState":{"key":"09","name":"Bayern"}},{"name":"Von-Scanzoni-Str.","postalCode":"85625","locality":"Glonn","municipality":{"key":"09175121","name":"Glonn, M","type":"Markt"},"district":{"key":"09175","name":"Ebersberg","type":"Landkreis"},"federalState":{"key":"09","name":"Bayern"}},{"name":"Von-Thoma-Str.","postalCode":"85625","locality":"Glonn","municipality":{"key":"09175121","name":"Glonn, M","type":"Markt"},"district":{"key":"09175","name":"Ebersberg","type":"Landkreis"},"federalState":{"key":"09","name":"Bayern"}},{"name":"Wagenhofener Str.","postalCode":"85235","locality":"Pfaffenhofen an der Glonn","municipality":{"key":"09174137","name":"Pfaffenhofen a.d.Glonn","type":"Kreisangehörige_Gemeinde"},"district":{"key":"09174","name":"Dachau","type":"Landkreis"},"federalState":{"key":"09","name":"Bayern"}},{"name":"Waldstr.","postalCode":"85625","locality":"Glonn","municipality":{"key":"09175121","name":"Glonn, M","type":"Markt"},"district":{"key":"09175","name":"Ebersberg","type":"Landkreis"},"federalState":{"key":"09","name":"Bayern"}},{"name":"Weiherweg","postalCode":"85235","locality":"Pfaffenhofen an der Glonn","municipality":{"key":"09174137","name":"Pfaffenhofen a.d.Glonn","type":"Kreisangehörige_Gemeinde"},"district":{"key":"09174","name":"Dachau","type":"Landkreis"},"federalState":{"key":"09","name":"Bayern"}},{"name":"Weilerweg","postalCode":"85235","locality":"Pfaffenhofen an der Glonn","municipality":{"key":"09174137","name":"Pfaffenhofen a.d.Glonn","type":"Kreisangehörige_Gemeinde"},"district":{"key":"09174","name":"Dachau","type":"Landkreis"},"federalState":{"key":"09","name":"Bayern"}},{"name":"Wendelsteinstr.","postalCode":"85625","locality":"Glonn","municipality":{"key":"09175121","name":"Glonn, M","type":"Markt"},"district":{"key":"09175","name":"Ebersberg","type":"Landkreis"},"federalState":{"key":"09","name":"Bayern"}},{"name":"Wiesenweg","postalCode":"85235","locality":"Pfaffenhofen an der Glonn","municipality":{"key":"09174137","name":"Pfaffenhofen a.d.Glonn","type":"Kreisangehörige_Gemeinde"},"district":{"key":"09174","name":"Dachau","type":"Landkreis"},"federalState":{"key":"09","name":"Bayern"}},{"name":"Wiesmühlstr.","postalCode":"85625","locality":"Glonn","municipality":{"key":"09175121","name":"Glonn, M","type":"Markt"},"district":{"key":"09175","name":"Ebersberg","type":"Landkreis"},"federalState":{"key":"09","name":"Bayern"}},{"name":"Wildmoosstr.","postalCode":"85235","locality":"Pfaffenhofen an der Glonn","municipality":{"key":"09174137","name":"Pfaffenhofen a.d.Glonn","type":"Kreisangehörige_Gemeinde"},"district":{"key":"09174","name":"Dachau","type":"Landkreis"},"federalState":{"key":"09","name":"Bayern"}},{"name":"Wolfgang-Koller-Str.","postalCode":"85625","locality":"Glonn","municipality":{"key":"09175121","name":"Glonn, M","type":"Markt"},"district":{"key":"09175","name":"Ebersberg","type":"Landkreis"},"federalState":{"key":"09","name":"Bayern"}},{"name":"Wolfgang-Wagner-Str.","postalCode":"85625","locality":"Glonn","municipality":{"key":"09175121","name":"Glonn, M","type":"Markt"},"district":{"key":"09175","name":"Ebersberg","type":"Landkreis"},"federalState":{"key":"09","name":"Bayern"}},{"name":"Yrsch-Geräumt","postalCode":"85560","locality":"Ebersberger Forst","municipality":{"key":"09175452","name":"Ebersberger Forst","type":"Gemeindefreies_Gebiet_Unbewohnt"},"district":{"key":"09175","name":"Ebersberg","type":"Landkreis"},"federalState":{"key":"09","name":"Bayern"}},{"name":"Yrsch-Geräumt","postalCode":"85664","locality":"Ebersberger Forst","municipality":{"key":"09175452","name":"Ebersberger Forst","type":"Gemeindefreies_Gebiet_Unbewohnt"},"district":{"key":"09175","name":"Ebersberg","type":"Landkreis"},"federalState":{"key":"09","name":"Bayern"}},{"name":"Ziegelstatt","postalCode":"85235","locality":"Pfaffenhofen an der Glonn","municipality":{"key":"09174137","name":"Pfaffenhofen a.d.Glonn","type":"Kreisangehörige_Gemeinde"},"district":{"key":"09174","name":"Dachau","type":"Landkreis"},"federalState":{"key":"09","name":"Bayern"}},{"name":"Zinneberger Str.","postalCode":"85625","locality":"Glonn","municipality":{"key":"09175121","name":"Glonn, M","type":"Markt"},"district":{"key":"09175","name":"Ebersberg","type":"Landkreis"},"federalState":{"key":"09","name":"Bayern"}},]