[{"name":"Agathaweg","postalCode":"97993","locality":"Creglingen","municipality":{"key":"08128020","name":"Creglingen, Stadt","type":"Stadt"},"district":{"key":"08128","name":"Main-Tauber-Kreis","type":"Landkreis"},"federalState":{"key":"08","name":"Baden-Württemberg"}},{"name":"Alemannenstr.","postalCode":"86492","locality":"Egling an der Paar","municipality":{"key":"09181116","name":"Egling a.d.Paar","type":"Kreisangehörige_Gemeinde"},"district":{"key":"09181","name":"Landsberg am Lech","type":"Landkreis"},"federalState":{"key":"09","name":"Bayern"}},{"name":"Alpenblickstr.","postalCode":"86492","locality":"Egling an der Paar","municipality":{"key":"09181116","name":"Egling a.d.Paar","type":"Kreisangehörige_Gemeinde"},"district":{"key":"09181","name":"Landsberg am Lech","type":"Landkreis"},"federalState":{"key":"09","name":"Bayern"}},{"name":"Alpenweg","postalCode":"82544","locality":"Egling","municipality":{"key":"09173120","name":"Egling","type":"Kreisangehörige_Gemeinde"},"district":{"key":"09173","name":"Bad Tölz-Wolfratshausen","type":"Landkreis"},"federalState":{"key":"09","name":"Bayern"}},{"name":"Alte Niederrimbacher Str.","postalCode":"97993","locality":"Creglingen","municipality":{"key":"08128020","name":"Creglingen, Stadt","type":"Stadt"},"district":{"key":"08128","name":"Main-Tauber-Kreis","type":"Landkreis"},"federalState":{"key":"08","name":"Baden-Württemberg"}},{"name":"Alter Flößerweg","postalCode":"82544","locality":"Egling","municipality":{"key":"09173120","name":"Egling","type":"Kreisangehörige_Gemeinde"},"district":{"key":"09173","name":"Bad Tölz-Wolfratshausen","type":"Landkreis"},"federalState":{"key":"09","name":"Bayern"}},{"name":"Alte Tölzer Str.","postalCode":"82544","locality":"Egling","municipality":{"key":"09173120","name":"Egling","type":"Kreisangehörige_Gemeinde"},"district":{"key":"09173","name":"Bad Tölz-Wolfratshausen","type":"Landkreis"},"federalState":{"key":"09","name":"Bayern"}},{"name":"Altkirchner Str.","postalCode":"82544","locality":"Egling","municipality":{"key":"09173120","name":"Egling","type":"Kreisangehörige_Gemeinde"},"district":{"key":"09173","name":"Bad Tölz-Wolfratshausen","type":"Landkreis"},"federalState":{"key":"09","name":"Bayern"}},{"name":"Am Bergl","postalCode":"82544","locality":"Egling","municipality":{"key":"09173120","name":"Egling","type":"Kreisangehörige_Gemeinde"},"district":{"key":"09173","name":"Bad Tölz-Wolfratshausen","type":"Landkreis"},"federalState":{"key":"09","name":"Bayern"}},{"name":"Am Bühel","postalCode":"82544","locality":"Egling","municipality":{"key":"09173120","name":"Egling","type":"Kreisangehörige_Gemeinde"},"district":{"key":"09173","name":"Bad Tölz-Wolfratshausen","type":"Landkreis"},"federalState":{"key":"09","name":"Bayern"}},{"name":"Am Giesenanger","postalCode":"82544","locality":"Egling","municipality":{"key":"09173120","name":"Egling","type":"Kreisangehörige_Gemeinde"},"district":{"key":"09173","name":"Bad Tölz-Wolfratshausen","type":"Landkreis"},"federalState":{"key":"09","name":"Bayern"}},{"name":"Am Hochfeld","postalCode":"82544","locality":"Egling","municipality":{"key":"09173120","name":"Egling","type":"Kreisangehörige_Gemeinde"},"district":{"key":"09173","name":"Bad Tölz-Wolfratshausen","type":"Landkreis"},"federalState":{"key":"09","name":"Bayern"}},{"name":"Am Kaltenbach","postalCode":"82544","locality":"Egling","municipality":{"key":"09173120","name":"Egling","type":"Kreisangehörige_Gemeinde"},"district":{"key":"09173","name":"Bad Tölz-Wolfratshausen","type":"Landkreis"},"federalState":{"key":"09","name":"Bayern"}},{"name":"Am Kirchberg","postalCode":"97993","locality":"Creglingen","municipality":{"key":"08128020","name":"Creglingen, Stadt","type":"Stadt"},"district":{"key":"08128","name":"Main-Tauber-Kreis","type":"Landkreis"},"federalState":{"key":"08","name":"Baden-Württemberg"}},{"name":"Am Kleinfeld","postalCode":"82544","locality":"Egling","municipality":{"key":"09173120","name":"Egling","type":"Kreisangehörige_Gemeinde"},"district":{"key":"09173","name":"Bad Tölz-Wolfratshausen","type":"Landkreis"},"federalState":{"key":"09","name":"Bayern"}},{"name":"Am Moosbach","postalCode":"82544","locality":"Egling","municipality":{"key":"09173120","name":"Egling","type":"Kreisangehörige_Gemeinde"},"district":{"key":"09173","name":"Bad Tölz-Wolfratshausen","type":"Landkreis"},"federalState":{"key":"09","name":"Bayern"}},{"name":"Am Mühlbach","postalCode":"86492","locality":"Egling an der Paar","municipality":{"key":"09181116","name":"Egling a.d.Paar","type":"Kreisangehörige_Gemeinde"},"district":{"key":"09181","name":"Landsberg am Lech","type":"Landkreis"},"federalState":{"key":"09","name":"Bayern"}},{"name":"Am Mühlfleck","postalCode":"86492","locality":"Egling an der Paar","municipality":{"key":"09181116","name":"Egling a.d.Paar","type":"Kreisangehörige_Gemeinde"},"district":{"key":"09181","name":"Landsberg am Lech","type":"Landkreis"},"federalState":{"key":"09","name":"Bayern"}},{"name":"Am Rechgarten","postalCode":"86492","locality":"Egling an der Paar","municipality":{"key":"09181116","name":"Egling a.d.Paar","type":"Kreisangehörige_Gemeinde"},"district":{"key":"09181","name":"Landsberg am Lech","type":"Landkreis"},"federalState":{"key":"09","name":"Bayern"}},{"name":"Am Rosengarten","postalCode":"97993","locality":"Creglingen","municipality":{"key":"08128020","name":"Creglingen, Stadt","type":"Stadt"},"district":{"key":"08128","name":"Main-Tauber-Kreis","type":"Landkreis"},"federalState":{"key":"08","name":"Baden-Württemberg"}},{"name":"Am Schulberg","postalCode":"82544","locality":"Egling","municipality":{"key":"09173120","name":"Egling","type":"Kreisangehörige_Gemeinde"},"district":{"key":"09173","name":"Bad Tölz-Wolfratshausen","type":"Landkreis"},"federalState":{"key":"09","name":"Bayern"}},{"name":"Amselweg","postalCode":"86492","locality":"Egling an der Paar","municipality":{"key":"09181116","name":"Egling a.d.Paar","type":"Kreisangehörige_Gemeinde"},"district":{"key":"09181","name":"Landsberg am Lech","type":"Landkreis"},"federalState":{"key":"09","name":"Bayern"}},{"name":"Amserweg","postalCode":"97993","locality":"Creglingen","municipality":{"key":"08128020","name":"Creglingen, Stadt","type":"Stadt"},"district":{"key":"08128","name":"Main-Tauber-Kreis","type":"Landkreis"},"federalState":{"key":"08","name":"Baden-Württemberg"}},{"name":"Am Stutz","postalCode":"97993","locality":"Creglingen","municipality":{"key":"08128020","name":"Creglingen, Stadt","type":"Stadt"},"district":{"key":"08128","name":"Main-Tauber-Kreis","type":"Landkreis"},"federalState":{"key":"08","name":"Baden-Württemberg"}},{"name":"Amtmannstr.","postalCode":"82544","locality":"Egling","municipality":{"key":"09173120","name":"Egling","type":"Kreisangehörige_Gemeinde"},"district":{"key":"09173","name":"Bad Tölz-Wolfratshausen","type":"Landkreis"},"federalState":{"key":"09","name":"Bayern"}},{"name":"Am Wasserhaus","postalCode":"82544","locality":"Egling","municipality":{"key":"09173120","name":"Egling","type":"Kreisangehörige_Gemeinde"},"district":{"key":"09173","name":"Bad Tölz-Wolfratshausen","type":"Landkreis"},"federalState":{"key":"09","name":"Bayern"}},{"name":"Am Weiherbachl","postalCode":"82544","locality":"Egling","municipality":{"key":"09173120","name":"Egling","type":"Kreisangehörige_Gemeinde"},"district":{"key":"09173","name":"Bad Tölz-Wolfratshausen","type":"Landkreis"},"federalState":{"key":"09","name":"Bayern"}},{"name":"Am Zwinger","postalCode":"97993","locality":"Creglingen","municipality":{"key":"08128020","name":"Creglingen, Stadt","type":"Stadt"},"district":{"key":"08128","name":"Main-Tauber-Kreis","type":"Landkreis"},"federalState":{"key":"08","name":"Baden-Württemberg"}},{"name":"Angermühlstr.","postalCode":"82544","locality":"Egling","municipality":{"key":"09173120","name":"Egling","type":"Kreisangehörige_Gemeinde"},"district":{"key":"09173","name":"Bad Tölz-Wolfratshausen","type":"Landkreis"},"federalState":{"key":"09","name":"Bayern"}},{"name":"Angerweg","postalCode":"82544","locality":"Egling","municipality":{"key":"09173120","name":"Egling","type":"Kreisangehörige_Gemeinde"},"district":{"key":"09173","name":"Bad Tölz-Wolfratshausen","type":"Landkreis"},"federalState":{"key":"09","name":"Bayern"}},{"name":"Angerweg","postalCode":"86492","locality":"Egling an der Paar","municipality":{"key":"09181116","name":"Egling a.d.Paar","type":"Kreisangehörige_Gemeinde"},"district":{"key":"09181","name":"Landsberg am Lech","type":"Landkreis"},"federalState":{"key":"09","name":"Bayern"}},{"name":"Archshofen","postalCode":"97993","locality":"Creglingen","municipality":{"key":"08128020","name":"Creglingen, Stadt","type":"Stadt"},"district":{"key":"08128","name":"Main-Tauber-Kreis","type":"Landkreis"},"federalState":{"key":"08","name":"Baden-Württemberg"}},{"name":"Argeter Str.","postalCode":"82544","locality":"Egling","municipality":{"key":"09173120","name":"Egling","type":"Kreisangehörige_Gemeinde"},"district":{"key":"09173","name":"Bad Tölz-Wolfratshausen","type":"Landkreis"},"federalState":{"key":"09","name":"Bayern"}},{"name":"Ascholdinger Str.","postalCode":"82544","locality":"Egling","municipality":{"key":"09173120","name":"Egling","type":"Kreisangehörige_Gemeinde"},"district":{"key":"09173","name":"Bad Tölz-Wolfratshausen","type":"Landkreis"},"federalState":{"key":"09","name":"Bayern"}},{"name":"Attenhamer Str.","postalCode":"82544","locality":"Egling","municipality":{"key":"09173120","name":"Egling","type":"Kreisangehörige_Gemeinde"},"district":{"key":"09173","name":"Bad Tölz-Wolfratshausen","type":"Landkreis"},"federalState":{"key":"09","name":"Bayern"}},{"name":"Aufhofener Str.","postalCode":"82544","locality":"Egling","municipality":{"key":"09173120","name":"Egling","type":"Kreisangehörige_Gemeinde"},"district":{"key":"09173","name":"Bad Tölz-Wolfratshausen","type":"Landkreis"},"federalState":{"key":"09","name":"Bayern"}},{"name":"Austr.","postalCode":"86492","locality":"Egling an der Paar","municipality":{"key":"09181116","name":"Egling a.d.Paar","type":"Kreisangehörige_Gemeinde"},"district":{"key":"09181","name":"Landsberg am Lech","type":"Landkreis"},"federalState":{"key":"09","name":"Bayern"}},{"name":"Babenstuber Weg","postalCode":"82544","locality":"Egling","municipality":{"key":"09173120","name":"Egling","type":"Kreisangehörige_Gemeinde"},"district":{"key":"09173","name":"Bad Tölz-Wolfratshausen","type":"Landkreis"},"federalState":{"key":"09","name":"Bayern"}},{"name":"Bachstr.","postalCode":"86492","locality":"Egling an der Paar","municipality":{"key":"09181116","name":"Egling a.d.Paar","type":"Kreisangehörige_Gemeinde"},"district":{"key":"09181","name":"Landsberg am Lech","type":"Landkreis"},"federalState":{"key":"09","name":"Bayern"}},{"name":"Backofenstr.","postalCode":"97993","locality":"Creglingen","municipality":{"key":"08128020","name":"Creglingen, Stadt","type":"Stadt"},"district":{"key":"08128","name":"Main-Tauber-Kreis","type":"Landkreis"},"federalState":{"key":"08","name":"Baden-Württemberg"}},{"name":"Badgasse","postalCode":"97993","locality":"Creglingen","municipality":{"key":"08128020","name":"Creglingen, Stadt","type":"Stadt"},"district":{"key":"08128","name":"Main-Tauber-Kreis","type":"Landkreis"},"federalState":{"key":"08","name":"Baden-Württemberg"}},{"name":"Bad Mergentheimer Str.","postalCode":"97993","locality":"Creglingen","municipality":{"key":"08128020","name":"Creglingen, Stadt","type":"Stadt"},"district":{"key":"08128","name":"Main-Tauber-Kreis","type":"Landkreis"},"federalState":{"key":"08","name":"Baden-Württemberg"}},{"name":"Badstr.","postalCode":"86492","locality":"Egling an der Paar","municipality":{"key":"09181116","name":"Egling a.d.Paar","type":"Kreisangehörige_Gemeinde"},"district":{"key":"09181","name":"Landsberg am Lech","type":"Landkreis"},"federalState":{"key":"09","name":"Bayern"}},{"name":"Bahnhofstr.","postalCode":"86492","locality":"Egling an der Paar","municipality":{"key":"09181116","name":"Egling a.d.Paar","type":"Kreisangehörige_Gemeinde"},"district":{"key":"09181","name":"Landsberg am Lech","type":"Landkreis"},"federalState":{"key":"09","name":"Bayern"}},{"name":"Baiuwarenstr.","postalCode":"86492","locality":"Egling an der Paar","municipality":{"key":"09181116","name":"Egling a.d.Paar","type":"Kreisangehörige_Gemeinde"},"district":{"key":"09181","name":"Landsberg am Lech","type":"Landkreis"},"federalState":{"key":"09","name":"Bayern"}},{"name":"Barfusspfad","postalCode":"97993","locality":"Creglingen","municipality":{"key":"08128020","name":"Creglingen, Stadt","type":"Stadt"},"district":{"key":"08128","name":"Main-Tauber-Kreis","type":"Landkreis"},"federalState":{"key":"08","name":"Baden-Württemberg"}},{"name":"Berganger","postalCode":"82544","locality":"Egling","municipality":{"key":"09173120","name":"Egling","type":"Kreisangehörige_Gemeinde"},"district":{"key":"09173","name":"Bad Tölz-Wolfratshausen","type":"Landkreis"},"federalState":{"key":"09","name":"Bayern"}},{"name":"Bergstr.","postalCode":"82544","locality":"Egling","municipality":{"key":"09173120","name":"Egling","type":"Kreisangehörige_Gemeinde"},"district":{"key":"09173","name":"Bad Tölz-Wolfratshausen","type":"Landkreis"},"federalState":{"key":"09","name":"Bayern"}},{"name":"Bergstr.","postalCode":"86492","locality":"Egling an der Paar","municipality":{"key":"09181116","name":"Egling a.d.Paar","type":"Kreisangehörige_Gemeinde"},"district":{"key":"09181","name":"Landsberg am Lech","type":"Landkreis"},"federalState":{"key":"09","name":"Bayern"}},{"name":"Birkenweg","postalCode":"82544","locality":"Egling","municipality":{"key":"09173120","name":"Egling","type":"Kreisangehörige_Gemeinde"},"district":{"key":"09173","name":"Bad Tölz-Wolfratshausen","type":"Landkreis"},"federalState":{"key":"09","name":"Bayern"}},{"name":"Birkenweg","postalCode":"86492","locality":"Egling an der Paar","municipality":{"key":"09181116","name":"Egling a.d.Paar","type":"Kreisangehörige_Gemeinde"},"district":{"key":"09181","name":"Landsberg am Lech","type":"Landkreis"},"federalState":{"key":"09","name":"Bayern"}},{"name":"Brunnlachweg","postalCode":"82544","locality":"Egling","municipality":{"key":"09173120","name":"Egling","type":"Kreisangehörige_Gemeinde"},"district":{"key":"09173","name":"Bad Tölz-Wolfratshausen","type":"Landkreis"},"federalState":{"key":"09","name":"Bayern"}},{"name":"Burchinger Berg","postalCode":"86492","locality":"Egling an der Paar","municipality":{"key":"09181116","name":"Egling a.d.Paar","type":"Kreisangehörige_Gemeinde"},"district":{"key":"09181","name":"Landsberg am Lech","type":"Landkreis"},"federalState":{"key":"09","name":"Bayern"}},{"name":"Craintaler Weg","postalCode":"97993","locality":"Creglingen","municipality":{"key":"08128020","name":"Creglingen, Stadt","type":"Stadt"},"district":{"key":"08128","name":"Main-Tauber-Kreis","type":"Landkreis"},"federalState":{"key":"08","name":"Baden-Württemberg"}},{"name":"Deininger Str.","postalCode":"82544","locality":"Egling","municipality":{"key":"09173120","name":"Egling","type":"Kreisangehörige_Gemeinde"},"district":{"key":"09173","name":"Bad Tölz-Wolfratshausen","type":"Landkreis"},"federalState":{"key":"09","name":"Bayern"}},{"name":"Dietramszeller Str.","postalCode":"82544","locality":"Egling","municipality":{"key":"09173120","name":"Egling","type":"Kreisangehörige_Gemeinde"},"district":{"key":"09173","name":"Bad Tölz-Wolfratshausen","type":"Landkreis"},"federalState":{"key":"09","name":"Bayern"}},{"name":"Doberseiker Str.","postalCode":"86492","locality":"Egling an der Paar","municipality":{"key":"09181116","name":"Egling a.d.Paar","type":"Kreisangehörige_Gemeinde"},"district":{"key":"09181","name":"Landsberg am Lech","type":"Landkreis"},"federalState":{"key":"09","name":"Bayern"}},{"name":"Dorfanger","postalCode":"82544","locality":"Egling","municipality":{"key":"09173120","name":"Egling","type":"Kreisangehörige_Gemeinde"},"district":{"key":"09173","name":"Bad Tölz-Wolfratshausen","type":"Landkreis"},"federalState":{"key":"09","name":"Bayern"}},{"name":"Dorfstr.","postalCode":"82544","locality":"Egling","municipality":{"key":"09173120","name":"Egling","type":"Kreisangehörige_Gemeinde"},"district":{"key":"09173","name":"Bad Tölz-Wolfratshausen","type":"Landkreis"},"federalState":{"key":"09","name":"Bayern"}},{"name":"Eckstr.","postalCode":"86492","locality":"Egling an der Paar","municipality":{"key":"09181116","name":"Egling a.d.Paar","type":"Kreisangehörige_Gemeinde"},"district":{"key":"09181","name":"Landsberg am Lech","type":"Landkreis"},"federalState":{"key":"09","name":"Bayern"}},{"name":"Edelbuchweg","postalCode":"82544","locality":"Egling","municipality":{"key":"09173120","name":"Egling","type":"Kreisangehörige_Gemeinde"},"district":{"key":"09173","name":"Bad Tölz-Wolfratshausen","type":"Landkreis"},"federalState":{"key":"09","name":"Bayern"}},{"name":"Eglinger Str.","postalCode":"82544","locality":"Egling","municipality":{"key":"09173120","name":"Egling","type":"Kreisangehörige_Gemeinde"},"district":{"key":"09173","name":"Bad Tölz-Wolfratshausen","type":"Landkreis"},"federalState":{"key":"09","name":"Bayern"}},{"name":"Eichenweg","postalCode":"82544","locality":"Egling","municipality":{"key":"09173120","name":"Egling","type":"Kreisangehörige_Gemeinde"},"district":{"key":"09173","name":"Bad Tölz-Wolfratshausen","type":"Landkreis"},"federalState":{"key":"09","name":"Bayern"}},{"name":"Eichenweg","postalCode":"86492","locality":"Egling an der Paar","municipality":{"key":"09181116","name":"Egling a.d.Paar","type":"Kreisangehörige_Gemeinde"},"district":{"key":"09181","name":"Landsberg am Lech","type":"Landkreis"},"federalState":{"key":"09","name":"Bayern"}},{"name":"Endlhauser Str.","postalCode":"82544","locality":"Egling","municipality":{"key":"09173120","name":"Egling","type":"Kreisangehörige_Gemeinde"},"district":{"key":"09173","name":"Bad Tölz-Wolfratshausen","type":"Landkreis"},"federalState":{"key":"09","name":"Bayern"}},{"name":"Erdbach","postalCode":"97993","locality":"Creglingen","municipality":{"key":"08128020","name":"Creglingen, Stadt","type":"Stadt"},"district":{"key":"08128","name":"Main-Tauber-Kreis","type":"Landkreis"},"federalState":{"key":"08","name":"Baden-Württemberg"}},{"name":"Erdbacher Str.","postalCode":"97993","locality":"Creglingen","municipality":{"key":"08128020","name":"Creglingen, Stadt","type":"Stadt"},"district":{"key":"08128","name":"Main-Tauber-Kreis","type":"Landkreis"},"federalState":{"key":"08","name":"Baden-Württemberg"}},{"name":"Erdberger Str.","postalCode":"86492","locality":"Egling an der Paar","municipality":{"key":"09181116","name":"Egling a.d.Paar","type":"Kreisangehörige_Gemeinde"},"district":{"key":"09181","name":"Landsberg am Lech","type":"Landkreis"},"federalState":{"key":"09","name":"Bayern"}},{"name":"Ergertshauser Str.","postalCode":"82544","locality":"Egling","municipality":{"key":"09173120","name":"Egling","type":"Kreisangehörige_Gemeinde"},"district":{"key":"09173","name":"Bad Tölz-Wolfratshausen","type":"Landkreis"},"federalState":{"key":"09","name":"Bayern"}},{"name":"Eschenweg","postalCode":"82544","locality":"Egling","municipality":{"key":"09173120","name":"Egling","type":"Kreisangehörige_Gemeinde"},"district":{"key":"09173","name":"Bad Tölz-Wolfratshausen","type":"Landkreis"},"federalState":{"key":"09","name":"Bayern"}},{"name":"Eulenbergweg","postalCode":"97993","locality":"Creglingen","municipality":{"key":"08128020","name":"Creglingen, Stadt","type":"Stadt"},"district":{"key":"08128","name":"Main-Tauber-Kreis","type":"Landkreis"},"federalState":{"key":"08","name":"Baden-Württemberg"}},{"name":"Eulenschwang","postalCode":"82544","locality":"Egling","municipality":{"key":"09173120","name":"Egling","type":"Kreisangehörige_Gemeinde"},"district":{"key":"09173","name":"Bad Tölz-Wolfratshausen","type":"Landkreis"},"federalState":{"key":"09","name":"Bayern"}},{"name":"Eulenschwanger Str.","postalCode":"82544","locality":"Egling","municipality":{"key":"09173120","name":"Egling","type":"Kreisangehörige_Gemeinde"},"district":{"key":"09173","name":"Bad Tölz-Wolfratshausen","type":"Landkreis"},"federalState":{"key":"09","name":"Bayern"}},{"name":"Feldkirchen","postalCode":"82544","locality":"Egling","municipality":{"key":"09173120","name":"Egling","type":"Kreisangehörige_Gemeinde"},"district":{"key":"09173","name":"Bad Tölz-Wolfratshausen","type":"Landkreis"},"federalState":{"key":"09","name":"Bayern"}},{"name":"Feldkirchener Str.","postalCode":"82544","locality":"Egling","municipality":{"key":"09173120","name":"Egling","type":"Kreisangehörige_Gemeinde"},"district":{"key":"09173","name":"Bad Tölz-Wolfratshausen","type":"Landkreis"},"federalState":{"key":"09","name":"Bayern"}},{"name":"Finkenweg","postalCode":"86492","locality":"Egling an der Paar","municipality":{"key":"09181116","name":"Egling a.d.Paar","type":"Kreisangehörige_Gemeinde"},"district":{"key":"09181","name":"Landsberg am Lech","type":"Landkreis"},"federalState":{"key":"09","name":"Bayern"}},{"name":"Flurstr.","postalCode":"86492","locality":"Egling an der Paar","municipality":{"key":"09181116","name":"Egling a.d.Paar","type":"Kreisangehörige_Gemeinde"},"district":{"key":"09181","name":"Landsberg am Lech","type":"Landkreis"},"federalState":{"key":"09","name":"Bayern"}},{"name":"Foussais Str.","postalCode":"86492","locality":"Egling an der Paar","municipality":{"key":"09181116","name":"Egling a.d.Paar","type":"Kreisangehörige_Gemeinde"},"district":{"key":"09181","name":"Landsberg am Lech","type":"Landkreis"},"federalState":{"key":"09","name":"Bayern"}},{"name":"Frankenstr.","postalCode":"86492","locality":"Egling an der Paar","municipality":{"key":"09181116","name":"Egling a.d.Paar","type":"Kreisangehörige_Gemeinde"},"district":{"key":"09181","name":"Landsberg am Lech","type":"Landkreis"},"federalState":{"key":"09","name":"Bayern"}},{"name":"Fraßhauser Str.","postalCode":"82544","locality":"Egling","municipality":{"key":"09173120","name":"Egling","type":"Kreisangehörige_Gemeinde"},"district":{"key":"09173","name":"Bad Tölz-Wolfratshausen","type":"Landkreis"},"federalState":{"key":"09","name":"Bayern"}},{"name":"Frauental","postalCode":"97993","locality":"Creglingen","municipality":{"key":"08128020","name":"Creglingen, Stadt","type":"Stadt"},"district":{"key":"08128","name":"Main-Tauber-Kreis","type":"Landkreis"},"federalState":{"key":"08","name":"Baden-Württemberg"}},{"name":"Freibad Freudenbach","postalCode":"97993","locality":"Creglingen","municipality":{"key":"08128020","name":"Creglingen, Stadt","type":"Stadt"},"district":{"key":"08128","name":"Main-Tauber-Kreis","type":"Landkreis"},"federalState":{"key":"08","name":"Baden-Württemberg"}},{"name":"Freudenbach","postalCode":"97993","locality":"Creglingen","municipality":{"key":"08128020","name":"Creglingen, Stadt","type":"Stadt"},"district":{"key":"08128","name":"Main-Tauber-Kreis","type":"Landkreis"},"federalState":{"key":"08","name":"Baden-Württemberg"}},{"name":"Gartenstr.","postalCode":"82544","locality":"Egling","municipality":{"key":"09173120","name":"Egling","type":"Kreisangehörige_Gemeinde"},"district":{"key":"09173","name":"Bad Tölz-Wolfratshausen","type":"Landkreis"},"federalState":{"key":"09","name":"Bayern"}},{"name":"Garten Weg","postalCode":"86492","locality":"Egling an der Paar","municipality":{"key":"09181116","name":"Egling a.d.Paar","type":"Kreisangehörige_Gemeinde"},"district":{"key":"09181","name":"Landsberg am Lech","type":"Landkreis"},"federalState":{"key":"09","name":"Bayern"}},{"name":"Gasteig","postalCode":"82544","locality":"Egling","municipality":{"key":"09173120","name":"Egling","type":"Kreisangehörige_Gemeinde"},"district":{"key":"09173","name":"Bad Tölz-Wolfratshausen","type":"Landkreis"},"federalState":{"key":"09","name":"Bayern"}},{"name":"Geilertshausen","postalCode":"82544","locality":"Egling","municipality":{"key":"09173120","name":"Egling","type":"Kreisangehörige_Gemeinde"},"district":{"key":"09173","name":"Bad Tölz-Wolfratshausen","type":"Landkreis"},"federalState":{"key":"09","name":"Bayern"}},{"name":"Germanenstr.","postalCode":"86492","locality":"Egling an der Paar","municipality":{"key":"09181116","name":"Egling a.d.Paar","type":"Kreisangehörige_Gemeinde"},"district":{"key":"09181","name":"Landsberg am Lech","type":"Landkreis"},"federalState":{"key":"09","name":"Bayern"}},{"name":"Gesselweg","postalCode":"86492","locality":"Egling an der Paar","municipality":{"key":"09181116","name":"Egling a.d.Paar","type":"Kreisangehörige_Gemeinde"},"district":{"key":"09181","name":"Landsberg am Lech","type":"Landkreis"},"federalState":{"key":"09","name":"Bayern"}},{"name":"Gewerbering","postalCode":"82544","locality":"Egling","municipality":{"key":"09173120","name":"Egling","type":"Kreisangehörige_Gemeinde"},"district":{"key":"09173","name":"Bad Tölz-Wolfratshausen","type":"Landkreis"},"federalState":{"key":"09","name":"Bayern"}},{"name":"Goethestr.","postalCode":"97993","locality":"Creglingen","municipality":{"key":"08128020","name":"Creglingen, Stadt","type":"Stadt"},"district":{"key":"08128","name":"Main-Tauber-Kreis","type":"Landkreis"},"federalState":{"key":"08","name":"Baden-Württemberg"}},{"name":"Gotenstr.","postalCode":"86492","locality":"Egling an der Paar","municipality":{"key":"09181116","name":"Egling a.d.Paar","type":"Kreisangehörige_Gemeinde"},"district":{"key":"09181","name":"Landsberg am Lech","type":"Landkreis"},"federalState":{"key":"09","name":"Bayern"}},{"name":"Grafenschlag","postalCode":"97993","locality":"Creglingen","municipality":{"key":"08128020","name":"Creglingen, Stadt","type":"Stadt"},"district":{"key":"08128","name":"Main-Tauber-Kreis","type":"Landkreis"},"federalState":{"key":"08","name":"Baden-Württemberg"}},{"name":"Gräfin-Justitia-Str.","postalCode":"82544","locality":"Egling","municipality":{"key":"09173120","name":"Egling","type":"Kreisangehörige_Gemeinde"},"district":{"key":"09173","name":"Bad Tölz-Wolfratshausen","type":"Landkreis"},"federalState":{"key":"09","name":"Bayern"}},{"name":"Hagweg","postalCode":"97993","locality":"Creglingen","municipality":{"key":"08128020","name":"Creglingen, Stadt","type":"Stadt"},"district":{"key":"08128","name":"Main-Tauber-Kreis","type":"Landkreis"},"federalState":{"key":"08","name":"Baden-Württemberg"}},{"name":"Hahnenweg","postalCode":"97993","locality":"Creglingen","municipality":{"key":"08128020","name":"Creglingen, Stadt","type":"Stadt"},"district":{"key":"08128","name":"Main-Tauber-Kreis","type":"Landkreis"},"federalState":{"key":"08","name":"Baden-Württemberg"}},{"name":"Hammerschmiedstr.","postalCode":"86492","locality":"Egling an der Paar","municipality":{"key":"09181116","name":"Egling a.d.Paar","type":"Kreisangehörige_Gemeinde"},"district":{"key":"09181","name":"Landsberg am Lech","type":"Landkreis"},"federalState":{"key":"09","name":"Bayern"}},{"name":"Harmating","postalCode":"82544","locality":"Egling","municipality":{"key":"09173120","name":"Egling","type":"Kreisangehörige_Gemeinde"},"district":{"key":"09173","name":"Bad Tölz-Wolfratshausen","type":"Landkreis"},"federalState":{"key":"09","name":"Bayern"}},{"name":"Hauptstr.","postalCode":"82544","locality":"Egling","municipality":{"key":"09173120","name":"Egling","type":"Kreisangehörige_Gemeinde"},"district":{"key":"09173","name":"Bad Tölz-Wolfratshausen","type":"Landkreis"},"federalState":{"key":"09","name":"Bayern"}},{"name":"Hauptstr.","postalCode":"86492","locality":"Egling an der Paar","municipality":{"key":"09181116","name":"Egling a.d.Paar","type":"Kreisangehörige_Gemeinde"},"district":{"key":"09181","name":"Landsberg am Lech","type":"Landkreis"},"federalState":{"key":"09","name":"Bayern"}},{"name":"Hauptstr.","postalCode":"97993","locality":"Creglingen","municipality":{"key":"08128020","name":"Creglingen, Stadt","type":"Stadt"},"district":{"key":"08128","name":"Main-Tauber-Kreis","type":"Landkreis"},"federalState":{"key":"08","name":"Baden-Württemberg"}},{"name":"Heinrichshofener Str.","postalCode":"86492","locality":"Egling an der Paar","municipality":{"key":"09181116","name":"Egling a.d.Paar","type":"Kreisangehörige_Gemeinde"},"district":{"key":"09181","name":"Landsberg am Lech","type":"Landkreis"},"federalState":{"key":"09","name":"Bayern"}},{"name":"Heinritzimühle","postalCode":"82544","locality":"Egling","municipality":{"key":"09173120","name":"Egling","type":"Kreisangehörige_Gemeinde"},"district":{"key":"09173","name":"Bad Tölz-Wolfratshausen","type":"Landkreis"},"federalState":{"key":"09","name":"Bayern"}},{"name":"Herderweg","postalCode":"82544","locality":"Egling","municipality":{"key":"09173120","name":"Egling","type":"Kreisangehörige_Gemeinde"},"district":{"key":"09173","name":"Bad Tölz-Wolfratshausen","type":"Landkreis"},"federalState":{"key":"09","name":"Bayern"}},{"name":"Herterleite","postalCode":"82544","locality":"Egling","municipality":{"key":"09173120","name":"Egling","type":"Kreisangehörige_Gemeinde"},"district":{"key":"09173","name":"Bad Tölz-Wolfratshausen","type":"Landkreis"},"federalState":{"key":"09","name":"Bayern"}},{"name":"Heysersklingenweg","postalCode":"97993","locality":"Creglingen","municipality":{"key":"08128020","name":"Creglingen, Stadt","type":"Stadt"},"district":{"key":"08128","name":"Main-Tauber-Kreis","type":"Landkreis"},"federalState":{"key":"08","name":"Baden-Württemberg"}},{"name":"Hirtenweg","postalCode":"82544","locality":"Egling","municipality":{"key":"09173120","name":"Egling","type":"Kreisangehörige_Gemeinde"},"district":{"key":"09173","name":"Bad Tölz-Wolfratshausen","type":"Landkreis"},"federalState":{"key":"09","name":"Bayern"}},{"name":"Hirtenwerg","postalCode":"82544","locality":"Egling","municipality":{"key":"09173120","name":"Egling","type":"Kreisangehörige_Gemeinde"},"district":{"key":"09173","name":"Bad Tölz-Wolfratshausen","type":"Landkreis"},"federalState":{"key":"09","name":"Bayern"}},{"name":"Hochleiten","postalCode":"82544","locality":"Egling","municipality":{"key":"09173120","name":"Egling","type":"Kreisangehörige_Gemeinde"},"district":{"key":"09173","name":"Bad Tölz-Wolfratshausen","type":"Landkreis"},"federalState":{"key":"09","name":"Bayern"}},{"name":"Hochreutweg","postalCode":"82544","locality":"Egling","municipality":{"key":"09173120","name":"Egling","type":"Kreisangehörige_Gemeinde"},"district":{"key":"09173","name":"Bad Tölz-Wolfratshausen","type":"Landkreis"},"federalState":{"key":"09","name":"Bayern"}},{"name":"Hochstr.","postalCode":"82544","locality":"Egling","municipality":{"key":"09173120","name":"Egling","type":"Kreisangehörige_Gemeinde"},"district":{"key":"09173","name":"Bad Tölz-Wolfratshausen","type":"Landkreis"},"federalState":{"key":"09","name":"Bayern"}},{"name":"Hölderlinweg","postalCode":"97993","locality":"Creglingen","municipality":{"key":"08128020","name":"Creglingen, Stadt","type":"Stadt"},"district":{"key":"08128","name":"Main-Tauber-Kreis","type":"Landkreis"},"federalState":{"key":"08","name":"Baden-Württemberg"}},{"name":"Holzspitzenweg","postalCode":"97993","locality":"Creglingen","municipality":{"key":"08128020","name":"Creglingen, Stadt","type":"Stadt"},"district":{"key":"08128","name":"Main-Tauber-Kreis","type":"Landkreis"},"federalState":{"key":"08","name":"Baden-Württemberg"}},{"name":"Hörle","postalCode":"97993","locality":"Creglingen","municipality":{"key":"08128020","name":"Creglingen, Stadt","type":"Stadt"},"district":{"key":"08128","name":"Main-Tauber-Kreis","type":"Landkreis"},"federalState":{"key":"08","name":"Baden-Württemberg"}},{"name":"Hornsteiner Str.","postalCode":"82544","locality":"Egling","municipality":{"key":"09173120","name":"Egling","type":"Kreisangehörige_Gemeinde"},"district":{"key":"09173","name":"Bad Tölz-Wolfratshausen","type":"Landkreis"},"federalState":{"key":"09","name":"Bayern"}},{"name":"Hunnenstr.","postalCode":"86492","locality":"Egling an der Paar","municipality":{"key":"09181116","name":"Egling a.d.Paar","type":"Kreisangehörige_Gemeinde"},"district":{"key":"09181","name":"Landsberg am Lech","type":"Landkreis"},"federalState":{"key":"09","name":"Bayern"}},{"name":"Im Schicken","postalCode":"97993","locality":"Creglingen","municipality":{"key":"08128020","name":"Creglingen, Stadt","type":"Stadt"},"district":{"key":"08128","name":"Main-Tauber-Kreis","type":"Landkreis"},"federalState":{"key":"08","name":"Baden-Württemberg"}},{"name":"Imsweg","postalCode":"97993","locality":"Creglingen","municipality":{"key":"08128020","name":"Creglingen, Stadt","type":"Stadt"},"district":{"key":"08128","name":"Main-Tauber-Kreis","type":"Landkreis"},"federalState":{"key":"08","name":"Baden-Württemberg"}},{"name":"Industriestr.","postalCode":"97993","locality":"Creglingen","municipality":{"key":"08128020","name":"Creglingen, Stadt","type":"Stadt"},"district":{"key":"08128","name":"Main-Tauber-Kreis","type":"Landkreis"},"federalState":{"key":"08","name":"Baden-Württemberg"}},{"name":"Isarleiten","postalCode":"82544","locality":"Egling","municipality":{"key":"09173120","name":"Egling","type":"Kreisangehörige_Gemeinde"},"district":{"key":"09173","name":"Bad Tölz-Wolfratshausen","type":"Landkreis"},"federalState":{"key":"09","name":"Bayern"}},{"name":"Jägerweg","postalCode":"82544","locality":"Egling","municipality":{"key":"09173120","name":"Egling","type":"Kreisangehörige_Gemeinde"},"district":{"key":"09173","name":"Bad Tölz-Wolfratshausen","type":"Landkreis"},"federalState":{"key":"09","name":"Bayern"}},{"name":"Johann-Dreher-Weg","postalCode":"97993","locality":"Creglingen","municipality":{"key":"08128020","name":"Creglingen, Stadt","type":"Stadt"},"district":{"key":"08128","name":"Main-Tauber-Kreis","type":"Landkreis"},"federalState":{"key":"08","name":"Baden-Württemberg"}},{"name":"Johannisbergstr.","postalCode":"97993","locality":"Creglingen","municipality":{"key":"08128020","name":"Creglingen, Stadt","type":"Stadt"},"district":{"key":"08128","name":"Main-Tauber-Kreis","type":"Landkreis"},"federalState":{"key":"08","name":"Baden-Württemberg"}},{"name":"Kagererweg","postalCode":"82544","locality":"Egling","municipality":{"key":"09173120","name":"Egling","type":"Kreisangehörige_Gemeinde"},"district":{"key":"09173","name":"Bad Tölz-Wolfratshausen","type":"Landkreis"},"federalState":{"key":"09","name":"Bayern"}},{"name":"Kalkofenweg","postalCode":"82544","locality":"Egling","municipality":{"key":"09173120","name":"Egling","type":"Kreisangehörige_Gemeinde"},"district":{"key":"09173","name":"Bad Tölz-Wolfratshausen","type":"Landkreis"},"federalState":{"key":"09","name":"Bayern"}},{"name":"Kalkofenweg","postalCode":"97993","locality":"Creglingen","municipality":{"key":"08128020","name":"Creglingen, Stadt","type":"Stadt"},"district":{"key":"08128","name":"Main-Tauber-Kreis","type":"Landkreis"},"federalState":{"key":"08","name":"Baden-Württemberg"}},{"name":"Kaltschmiedweg","postalCode":"82544","locality":"Egling","municipality":{"key":"09173120","name":"Egling","type":"Kreisangehörige_Gemeinde"},"district":{"key":"09173","name":"Bad Tölz-Wolfratshausen","type":"Landkreis"},"federalState":{"key":"09","name":"Bayern"}},{"name":"Kapellenweg","postalCode":"82544","locality":"Egling","municipality":{"key":"09173120","name":"Egling","type":"Kreisangehörige_Gemeinde"},"district":{"key":"09173","name":"Bad Tölz-Wolfratshausen","type":"Landkreis"},"federalState":{"key":"09","name":"Bayern"}},{"name":"Kapellen Weg","postalCode":"86492","locality":"Egling an der Paar","municipality":{"key":"09181116","name":"Egling a.d.Paar","type":"Kreisangehörige_Gemeinde"},"district":{"key":"09181","name":"Landsberg am Lech","type":"Landkreis"},"federalState":{"key":"09","name":"Bayern"}},{"name":"Keltenstr.","postalCode":"82544","locality":"Egling","municipality":{"key":"09173120","name":"Egling","type":"Kreisangehörige_Gemeinde"},"district":{"key":"09173","name":"Bad Tölz-Wolfratshausen","type":"Landkreis"},"federalState":{"key":"09","name":"Bayern"}},{"name":"Keltenstr.","postalCode":"86492","locality":"Egling an der Paar","municipality":{"key":"09181116","name":"Egling a.d.Paar","type":"Kreisangehörige_Gemeinde"},"district":{"key":"09181","name":"Landsberg am Lech","type":"Landkreis"},"federalState":{"key":"09","name":"Bayern"}},{"name":"Kiebergstr.","postalCode":"82544","locality":"Egling","municipality":{"key":"09173120","name":"Egling","type":"Kreisangehörige_Gemeinde"},"district":{"key":"09173","name":"Bad Tölz-Wolfratshausen","type":"Landkreis"},"federalState":{"key":"09","name":"Bayern"}},{"name":"Kieselallee","postalCode":"97993","locality":"Creglingen","municipality":{"key":"08128020","name":"Creglingen, Stadt","type":"Stadt"},"district":{"key":"08128","name":"Main-Tauber-Kreis","type":"Landkreis"},"federalState":{"key":"08","name":"Baden-Württemberg"}},{"name":"Kirchbergweg","postalCode":"82544","locality":"Egling","municipality":{"key":"09173120","name":"Egling","type":"Kreisangehörige_Gemeinde"},"district":{"key":"09173","name":"Bad Tölz-Wolfratshausen","type":"Landkreis"},"federalState":{"key":"09","name":"Bayern"}},{"name":"Kirchenstaffel","postalCode":"97993","locality":"Creglingen","municipality":{"key":"08128020","name":"Creglingen, Stadt","type":"Stadt"},"district":{"key":"08128","name":"Main-Tauber-Kreis","type":"Landkreis"},"federalState":{"key":"08","name":"Baden-Württemberg"}},{"name":"Kirchfeldweg","postalCode":"82544","locality":"Egling","municipality":{"key":"09173120","name":"Egling","type":"Kreisangehörige_Gemeinde"},"district":{"key":"09173","name":"Bad Tölz-Wolfratshausen","type":"Landkreis"},"federalState":{"key":"09","name":"Bayern"}},{"name":"Kirchplatz","postalCode":"97993","locality":"Creglingen","municipality":{"key":"08128020","name":"Creglingen, Stadt","type":"Stadt"},"district":{"key":"08128","name":"Main-Tauber-Kreis","type":"Landkreis"},"federalState":{"key":"08","name":"Baden-Württemberg"}},{"name":"Kirchstr.","postalCode":"82544","locality":"Egling","municipality":{"key":"09173120","name":"Egling","type":"Kreisangehörige_Gemeinde"},"district":{"key":"09173","name":"Bad Tölz-Wolfratshausen","type":"Landkreis"},"federalState":{"key":"09","name":"Bayern"}},{"name":"Kirchstr.","postalCode":"86492","locality":"Egling an der Paar","municipality":{"key":"09181116","name":"Egling a.d.Paar","type":"Kreisangehörige_Gemeinde"},"district":{"key":"09181","name":"Landsberg am Lech","type":"Landkreis"},"federalState":{"key":"09","name":"Bayern"}},{"name":"Kirchweg","postalCode":"82544","locality":"Egling","municipality":{"key":"09173120","name":"Egling","type":"Kreisangehörige_Gemeinde"},"district":{"key":"09173","name":"Bad Tölz-Wolfratshausen","type":"Landkreis"},"federalState":{"key":"09","name":"Bayern"}},{"name":"Kirchweg","postalCode":"86492","locality":"Egling an der Paar","municipality":{"key":"09181116","name":"Egling a.d.Paar","type":"Kreisangehörige_Gemeinde"},"district":{"key":"09181","name":"Landsberg am Lech","type":"Landkreis"},"federalState":{"key":"09","name":"Bayern"}},{"name":"Klingener Str.","postalCode":"97993","locality":"Creglingen","municipality":{"key":"08128020","name":"Creglingen, Stadt","type":"Stadt"},"district":{"key":"08128","name":"Main-Tauber-Kreis","type":"Landkreis"},"federalState":{"key":"08","name":"Baden-Württemberg"}},{"name":"Klosterstr.","postalCode":"82544","locality":"Egling","municipality":{"key":"09173120","name":"Egling","type":"Kreisangehörige_Gemeinde"},"district":{"key":"09173","name":"Bad Tölz-Wolfratshausen","type":"Landkreis"},"federalState":{"key":"09","name":"Bayern"}},{"name":"Krautgartenweg","postalCode":"86492","locality":"Egling an der Paar","municipality":{"key":"09181116","name":"Egling a.d.Paar","type":"Kreisangehörige_Gemeinde"},"district":{"key":"09181","name":"Landsberg am Lech","type":"Landkreis"},"federalState":{"key":"09","name":"Bayern"}},{"name":"Kraxnbichlweg","postalCode":"82544","locality":"Egling","municipality":{"key":"09173120","name":"Egling","type":"Kreisangehörige_Gemeinde"},"district":{"key":"09173","name":"Bad Tölz-Wolfratshausen","type":"Landkreis"},"federalState":{"key":"09","name":"Bayern"}},{"name":"Kreuzbergweg","postalCode":"82544","locality":"Egling","municipality":{"key":"09173120","name":"Egling","type":"Kreisangehörige_Gemeinde"},"district":{"key":"09173","name":"Bad Tölz-Wolfratshausen","type":"Landkreis"},"federalState":{"key":"09","name":"Bayern"}},{"name":"Kreuzstr.","postalCode":"82544","locality":"Egling","municipality":{"key":"09173120","name":"Egling","type":"Kreisangehörige_Gemeinde"},"district":{"key":"09173","name":"Bad Tölz-Wolfratshausen","type":"Landkreis"},"federalState":{"key":"09","name":"Bayern"}},{"name":"Kreuzstr.","postalCode":"97993","locality":"Creglingen","municipality":{"key":"08128020","name":"Creglingen, Stadt","type":"Stadt"},"district":{"key":"08128","name":"Main-Tauber-Kreis","type":"Landkreis"},"federalState":{"key":"08","name":"Baden-Württemberg"}},{"name":"Kringelsbergweg","postalCode":"97993","locality":"Creglingen","municipality":{"key":"08128020","name":"Creglingen, Stadt","type":"Stadt"},"district":{"key":"08128","name":"Main-Tauber-Kreis","type":"Landkreis"},"federalState":{"key":"08","name":"Baden-Württemberg"}},{"name":"Laberstr.","postalCode":"82544","locality":"Egling","municipality":{"key":"09173120","name":"Egling","type":"Kreisangehörige_Gemeinde"},"district":{"key":"09173","name":"Bad Tölz-Wolfratshausen","type":"Landkreis"},"federalState":{"key":"09","name":"Bayern"}},{"name":"Leonhard-Kiening-Ring","postalCode":"86492","locality":"Egling an der Paar","municipality":{"key":"09181116","name":"Egling a.d.Paar","type":"Kreisangehörige_Gemeinde"},"district":{"key":"09181","name":"Landsberg am Lech","type":"Landkreis"},"federalState":{"key":"09","name":"Bayern"}},{"name":"Leonhardsweg","postalCode":"82544","locality":"Egling","municipality":{"key":"09173120","name":"Egling","type":"Kreisangehörige_Gemeinde"},"district":{"key":"09173","name":"Bad Tölz-Wolfratshausen","type":"Landkreis"},"federalState":{"key":"09","name":"Bayern"}},{"name":"Lerchenweg","postalCode":"86492","locality":"Egling an der Paar","municipality":{"key":"09181116","name":"Egling a.d.Paar","type":"Kreisangehörige_Gemeinde"},"district":{"key":"09181","name":"Landsberg am Lech","type":"Landkreis"},"federalState":{"key":"09","name":"Bayern"}},{"name":"Lichtel","postalCode":"97993","locality":"Creglingen","municipality":{"key":"08128020","name":"Creglingen, Stadt","type":"Stadt"},"district":{"key":"08128","name":"Main-Tauber-Kreis","type":"Landkreis"},"federalState":{"key":"08","name":"Baden-Württemberg"}},{"name":"Lindenstr.","postalCode":"82544","locality":"Egling","municipality":{"key":"09173120","name":"Egling","type":"Kreisangehörige_Gemeinde"},"district":{"key":"09173","name":"Bad Tölz-Wolfratshausen","type":"Landkreis"},"federalState":{"key":"09","name":"Bayern"}},{"name":"Lindenweg","postalCode":"82544","locality":"Egling","municipality":{"key":"09173120","name":"Egling","type":"Kreisangehörige_Gemeinde"},"district":{"key":"09173","name":"Bad Tölz-Wolfratshausen","type":"Landkreis"},"federalState":{"key":"09","name":"Bayern"}},{"name":"Lindenweg","postalCode":"86492","locality":"Egling an der Paar","municipality":{"key":"09181116","name":"Egling a.d.Paar","type":"Kreisangehörige_Gemeinde"},"district":{"key":"09181","name":"Landsberg am Lech","type":"Landkreis"},"federalState":{"key":"09","name":"Bayern"}},{"name":"Lindleinstr.","postalCode":"97993","locality":"Creglingen","municipality":{"key":"08128020","name":"Creglingen, Stadt","type":"Stadt"},"district":{"key":"08128","name":"Main-Tauber-Kreis","type":"Landkreis"},"federalState":{"key":"08","name":"Baden-Württemberg"}},{"name":"Magnusstr.","postalCode":"86492","locality":"Egling an der Paar","municipality":{"key":"09181116","name":"Egling a.d.Paar","type":"Kreisangehörige_Gemeinde"},"district":{"key":"09181","name":"Landsberg am Lech","type":"Landkreis"},"federalState":{"key":"09","name":"Bayern"}},{"name":"Maria-Kappl-Weg","postalCode":"86492","locality":"Egling an der Paar","municipality":{"key":"09181116","name":"Egling a.d.Paar","type":"Kreisangehörige_Gemeinde"},"district":{"key":"09181","name":"Landsberg am Lech","type":"Landkreis"},"federalState":{"key":"09","name":"Bayern"}},{"name":"Marienstr.","postalCode":"82544","locality":"Egling","municipality":{"key":"09173120","name":"Egling","type":"Kreisangehörige_Gemeinde"},"district":{"key":"09173","name":"Bad Tölz-Wolfratshausen","type":"Landkreis"},"federalState":{"key":"09","name":"Bayern"}},{"name":"Mooshamer Str.","postalCode":"82544","locality":"Egling","municipality":{"key":"09173120","name":"Egling","type":"Kreisangehörige_Gemeinde"},"district":{"key":"09173","name":"Bad Tölz-Wolfratshausen","type":"Landkreis"},"federalState":{"key":"09","name":"Bayern"}},{"name":"Moosstr.","postalCode":"82544","locality":"Egling","municipality":{"key":"09173120","name":"Egling","type":"Kreisangehörige_Gemeinde"},"district":{"key":"09173","name":"Bad Tölz-Wolfratshausen","type":"Landkreis"},"federalState":{"key":"09","name":"Bayern"}},{"name":"Moosweg","postalCode":"82544","locality":"Egling","municipality":{"key":"09173120","name":"Egling","type":"Kreisangehörige_Gemeinde"},"district":{"key":"09173","name":"Bad Tölz-Wolfratshausen","type":"Landkreis"},"federalState":{"key":"09","name":"Bayern"}},{"name":"Mörikestr.","postalCode":"97993","locality":"Creglingen","municipality":{"key":"08128020","name":"Creglingen, Stadt","type":"Stadt"},"district":{"key":"08128","name":"Main-Tauber-Kreis","type":"Landkreis"},"federalState":{"key":"08","name":"Baden-Württemberg"}},{"name":"Mühlstr.","postalCode":"86492","locality":"Egling an der Paar","municipality":{"key":"09181116","name":"Egling a.d.Paar","type":"Kreisangehörige_Gemeinde"},"district":{"key":"09181","name":"Landsberg am Lech","type":"Landkreis"},"federalState":{"key":"09","name":"Bayern"}},{"name":"Mühlweg","postalCode":"86492","locality":"Egling an der Paar","municipality":{"key":"09181116","name":"Egling a.d.Paar","type":"Kreisangehörige_Gemeinde"},"district":{"key":"09181","name":"Landsberg am Lech","type":"Landkreis"},"federalState":{"key":"09","name":"Bayern"}},{"name":"Mühlweg","postalCode":"97993","locality":"Creglingen","municipality":{"key":"08128020","name":"Creglingen, Stadt","type":"Stadt"},"district":{"key":"08128","name":"Main-Tauber-Kreis","type":"Landkreis"},"federalState":{"key":"08","name":"Baden-Württemberg"}},{"name":"Münchner Str.","postalCode":"82544","locality":"Egling","municipality":{"key":"09173120","name":"Egling","type":"Kreisangehörige_Gemeinde"},"district":{"key":"09173","name":"Bad Tölz-Wolfratshausen","type":"Landkreis"},"federalState":{"key":"09","name":"Bayern"}},{"name":"Münster","postalCode":"97993","locality":"Creglingen","municipality":{"key":"08128020","name":"Creglingen, Stadt","type":"Stadt"},"district":{"key":"08128","name":"Main-Tauber-Kreis","type":"Landkreis"},"federalState":{"key":"08","name":"Baden-Württemberg"}},{"name":"Neue Str.","postalCode":"97993","locality":"Creglingen","municipality":{"key":"08128020","name":"Creglingen, Stadt","type":"Stadt"},"district":{"key":"08128","name":"Main-Tauber-Kreis","type":"Landkreis"},"federalState":{"key":"08","name":"Baden-Württemberg"}},{"name":"Niedersteinach","postalCode":"97993","locality":"Creglingen","municipality":{"key":"08128020","name":"Creglingen, Stadt","type":"Stadt"},"district":{"key":"08128","name":"Main-Tauber-Kreis","type":"Landkreis"},"federalState":{"key":"08","name":"Baden-Württemberg"}},{"name":"Oberbiberger Str.","postalCode":"82544","locality":"Egling","municipality":{"key":"09173120","name":"Egling","type":"Kreisangehörige_Gemeinde"},"district":{"key":"09173","name":"Bad Tölz-Wolfratshausen","type":"Landkreis"},"federalState":{"key":"09","name":"Bayern"}},{"name":"Oberer Schickenweg","postalCode":"97993","locality":"Creglingen","municipality":{"key":"08128020","name":"Creglingen, Stadt","type":"Stadt"},"district":{"key":"08128","name":"Main-Tauber-Kreis","type":"Landkreis"},"federalState":{"key":"08","name":"Baden-Württemberg"}},{"name":"Oberrimbach","postalCode":"97993","locality":"Creglingen","municipality":{"key":"08128020","name":"Creglingen, Stadt","type":"Stadt"},"district":{"key":"08128","name":"Main-Tauber-Kreis","type":"Landkreis"},"federalState":{"key":"08","name":"Baden-Württemberg"}},{"name":"Osterbergweg","postalCode":"82544","locality":"Egling","municipality":{"key":"09173120","name":"Egling","type":"Kreisangehörige_Gemeinde"},"district":{"key":"09173","name":"Bad Tölz-Wolfratshausen","type":"Landkreis"},"federalState":{"key":"09","name":"Bayern"}},{"name":"Panoramastr.","postalCode":"97993","locality":"Creglingen","municipality":{"key":"08128020","name":"Creglingen, Stadt","type":"Stadt"},"district":{"key":"08128","name":"Main-Tauber-Kreis","type":"Landkreis"},"federalState":{"key":"08","name":"Baden-Württemberg"}},{"name":"Pater-Paulus-Weg","postalCode":"82544","locality":"Egling","municipality":{"key":"09173120","name":"Egling","type":"Kreisangehörige_Gemeinde"},"district":{"key":"09173","name":"Bad Tölz-Wolfratshausen","type":"Landkreis"},"federalState":{"key":"09","name":"Bayern"}},{"name":"Pfarrstr.","postalCode":"82544","locality":"Egling","municipality":{"key":"09173120","name":"Egling","type":"Kreisangehörige_Gemeinde"},"district":{"key":"09173","name":"Bad Tölz-Wolfratshausen","type":"Landkreis"},"federalState":{"key":"09","name":"Bayern"}},{"name":"Pilsenweg","postalCode":"97993","locality":"Creglingen","municipality":{"key":"08128020","name":"Creglingen, Stadt","type":"Stadt"},"district":{"key":"08128","name":"Main-Tauber-Kreis","type":"Landkreis"},"federalState":{"key":"08","name":"Baden-Württemberg"}},{"name":"Pitzenweg","postalCode":"82544","locality":"Egling","municipality":{"key":"09173120","name":"Egling","type":"Kreisangehörige_Gemeinde"},"district":{"key":"09173","name":"Bad Tölz-Wolfratshausen","type":"Landkreis"},"federalState":{"key":"09","name":"Bayern"}},{"name":"Pointweg","postalCode":"82544","locality":"Egling","municipality":{"key":"09173120","name":"Egling","type":"Kreisangehörige_Gemeinde"},"district":{"key":"09173","name":"Bad Tölz-Wolfratshausen","type":"Landkreis"},"federalState":{"key":"09","name":"Bayern"}},{"name":"Poststr.","postalCode":"97993","locality":"Creglingen","municipality":{"key":"08128020","name":"Creglingen, Stadt","type":"Stadt"},"district":{"key":"08128","name":"Main-Tauber-Kreis","type":"Landkreis"},"federalState":{"key":"08","name":"Baden-Württemberg"}},{"name":"Pupplinger Weg","postalCode":"82544","locality":"Egling","municipality":{"key":"09173120","name":"Egling","type":"Kreisangehörige_Gemeinde"},"district":{"key":"09173","name":"Bad Tölz-Wolfratshausen","type":"Landkreis"},"federalState":{"key":"09","name":"Bayern"}},{"name":"Raiffeisenstr.","postalCode":"82544","locality":"Egling","municipality":{"key":"09173120","name":"Egling","type":"Kreisangehörige_Gemeinde"},"district":{"key":"09173","name":"Bad Tölz-Wolfratshausen","type":"Landkreis"},"federalState":{"key":"09","name":"Bayern"}},{"name":"Rathausstr.","postalCode":"82544","locality":"Egling","municipality":{"key":"09173120","name":"Egling","type":"Kreisangehörige_Gemeinde"},"district":{"key":"09173","name":"Bad Tölz-Wolfratshausen","type":"Landkreis"},"federalState":{"key":"09","name":"Bayern"}},{"name":"Rathausweg","postalCode":"86492","locality":"Egling an der Paar","municipality":{"key":"09181116","name":"Egling a.d.Paar","type":"Kreisangehörige_Gemeinde"},"district":{"key":"09181","name":"Landsberg am Lech","type":"Landkreis"},"federalState":{"key":"09","name":"Bayern"}},{"name":"Rauschbuchweg","postalCode":"82544","locality":"Egling","municipality":{"key":"09173120","name":"Egling","type":"Kreisangehörige_Gemeinde"},"district":{"key":"09173","name":"Bad Tölz-Wolfratshausen","type":"Landkreis"},"federalState":{"key":"09","name":"Bayern"}},{"name":"Reinsbronn","postalCode":"97993","locality":"Creglingen","municipality":{"key":"08128020","name":"Creglingen, Stadt","type":"Stadt"},"district":{"key":"08128","name":"Main-Tauber-Kreis","type":"Landkreis"},"federalState":{"key":"08","name":"Baden-Württemberg"}},{"name":"Reisererweg","postalCode":"82544","locality":"Egling","municipality":{"key":"09173120","name":"Egling","type":"Kreisangehörige_Gemeinde"},"district":{"key":"09173","name":"Bad Tölz-Wolfratshausen","type":"Landkreis"},"federalState":{"key":"09","name":"Bayern"}},{"name":"Riedhofweg","postalCode":"82544","locality":"Egling","municipality":{"key":"09173120","name":"Egling","type":"Kreisangehörige_Gemeinde"},"district":{"key":"09173","name":"Bad Tölz-Wolfratshausen","type":"Landkreis"},"federalState":{"key":"09","name":"Bayern"}},{"name":"Riemenschneiderbrücke","postalCode":"97993","locality":"Creglingen","municipality":{"key":"08128020","name":"Creglingen, Stadt","type":"Stadt"},"district":{"key":"08128","name":"Main-Tauber-Kreis","type":"Landkreis"},"federalState":{"key":"08","name":"Baden-Württemberg"}},{"name":"Ringstr.","postalCode":"82544","locality":"Egling","municipality":{"key":"09173120","name":"Egling","type":"Kreisangehörige_Gemeinde"},"district":{"key":"09173","name":"Bad Tölz-Wolfratshausen","type":"Landkreis"},"federalState":{"key":"09","name":"Bayern"}},{"name":"Römerstr.","postalCode":"86492","locality":"Egling an der Paar","municipality":{"key":"09181116","name":"Egling a.d.Paar","type":"Kreisangehörige_Gemeinde"},"district":{"key":"09181","name":"Landsberg am Lech","type":"Landkreis"},"federalState":{"key":"09","name":"Bayern"}},{"name":"Romgasse","postalCode":"97993","locality":"Creglingen","municipality":{"key":"08128020","name":"Creglingen, Stadt","type":"Stadt"},"district":{"key":"08128","name":"Main-Tauber-Kreis","type":"Landkreis"},"federalState":{"key":"08","name":"Baden-Württemberg"}},{"name":"Romschlösslegarten","postalCode":"97993","locality":"Creglingen","municipality":{"key":"08128020","name":"Creglingen, Stadt","type":"Stadt"},"district":{"key":"08128","name":"Main-Tauber-Kreis","type":"Landkreis"},"federalState":{"key":"08","name":"Baden-Württemberg"}},{"name":"Rötersteige","postalCode":"97993","locality":"Creglingen","municipality":{"key":"08128020","name":"Creglingen, Stadt","type":"Stadt"},"district":{"key":"08128","name":"Main-Tauber-Kreis","type":"Landkreis"},"federalState":{"key":"08","name":"Baden-Württemberg"}},{"name":"Rothenburger Str.","postalCode":"97993","locality":"Creglingen","municipality":{"key":"08128020","name":"Creglingen, Stadt","type":"Stadt"},"district":{"key":"08128","name":"Main-Tauber-Kreis","type":"Landkreis"},"federalState":{"key":"08","name":"Baden-Württemberg"}},{"name":"Sauerlacher Str.","postalCode":"82544","locality":"Egling","municipality":{"key":"09173120","name":"Egling","type":"Kreisangehörige_Gemeinde"},"district":{"key":"09173","name":"Bad Tölz-Wolfratshausen","type":"Landkreis"},"federalState":{"key":"09","name":"Bayern"}},{"name":"Schafgärtenweg","postalCode":"97993","locality":"Creglingen","municipality":{"key":"08128020","name":"Creglingen, Stadt","type":"Stadt"},"district":{"key":"08128","name":"Main-Tauber-Kreis","type":"Landkreis"},"federalState":{"key":"08","name":"Baden-Württemberg"}},{"name":"Schanzenstr.","postalCode":"82544","locality":"Egling","municipality":{"key":"09173120","name":"Egling","type":"Kreisangehörige_Gemeinde"},"district":{"key":"09173","name":"Bad Tölz-Wolfratshausen","type":"Landkreis"},"federalState":{"key":"09","name":"Bayern"}},{"name":"Schickenweg","postalCode":"97993","locality":"Creglingen","municipality":{"key":"08128020","name":"Creglingen, Stadt","type":"Stadt"},"district":{"key":"08128","name":"Main-Tauber-Kreis","type":"Landkreis"},"federalState":{"key":"08","name":"Baden-Württemberg"}},{"name":"Schießstättstr.","postalCode":"82544","locality":"Egling","municipality":{"key":"09173120","name":"Egling","type":"Kreisangehörige_Gemeinde"},"district":{"key":"09173","name":"Bad Tölz-Wolfratshausen","type":"Landkreis"},"federalState":{"key":"09","name":"Bayern"}},{"name":"Schillerstr.","postalCode":"97993","locality":"Creglingen","municipality":{"key":"08128020","name":"Creglingen, Stadt","type":"Stadt"},"district":{"key":"08128","name":"Main-Tauber-Kreis","type":"Landkreis"},"federalState":{"key":"08","name":"Baden-Württemberg"}},{"name":"Schirmbach","postalCode":"97993","locality":"Creglingen","municipality":{"key":"08128020","name":"Creglingen, Stadt","type":"Stadt"},"district":{"key":"08128","name":"Main-Tauber-Kreis","type":"Landkreis"},"federalState":{"key":"08","name":"Baden-Württemberg"}},{"name":"Schirmbacher Klinge","postalCode":"97993","locality":"Creglingen","municipality":{"key":"08128020","name":"Creglingen, Stadt","type":"Stadt"},"district":{"key":"08128","name":"Main-Tauber-Kreis","type":"Landkreis"},"federalState":{"key":"08","name":"Baden-Württemberg"}},{"name":"Schirmbacher Steige","postalCode":"97993","locality":"Creglingen","municipality":{"key":"08128020","name":"Creglingen, Stadt","type":"Stadt"},"district":{"key":"08128","name":"Main-Tauber-Kreis","type":"Landkreis"},"federalState":{"key":"08","name":"Baden-Württemberg"}},{"name":"Schirmbacher Str.","postalCode":"97993","locality":"Creglingen","municipality":{"key":"08128020","name":"Creglingen, Stadt","type":"Stadt"},"district":{"key":"08128","name":"Main-Tauber-Kreis","type":"Landkreis"},"federalState":{"key":"08","name":"Baden-Württemberg"}},{"name":"Schlosserbuck","postalCode":"97993","locality":"Creglingen","municipality":{"key":"08128020","name":"Creglingen, Stadt","type":"Stadt"},"district":{"key":"08128","name":"Main-Tauber-Kreis","type":"Landkreis"},"federalState":{"key":"08","name":"Baden-Württemberg"}},{"name":"Schloßhof","postalCode":"97993","locality":"Creglingen","municipality":{"key":"08128020","name":"Creglingen, Stadt","type":"Stadt"},"district":{"key":"08128","name":"Main-Tauber-Kreis","type":"Landkreis"},"federalState":{"key":"08","name":"Baden-Württemberg"}},{"name":"Schmerbach","postalCode":"97993","locality":"Creglingen","municipality":{"key":"08128020","name":"Creglingen, Stadt","type":"Stadt"},"district":{"key":"08128","name":"Main-Tauber-Kreis","type":"Landkreis"},"federalState":{"key":"08","name":"Baden-Württemberg"}},{"name":"Schmiedbergstr.","postalCode":"82544","locality":"Egling","municipality":{"key":"09173120","name":"Egling","type":"Kreisangehörige_Gemeinde"},"district":{"key":"09173","name":"Bad Tölz-Wolfratshausen","type":"Landkreis"},"federalState":{"key":"09","name":"Bayern"}},{"name":"Schmiedgasse","postalCode":"97993","locality":"Creglingen","municipality":{"key":"08128020","name":"Creglingen, Stadt","type":"Stadt"},"district":{"key":"08128","name":"Main-Tauber-Kreis","type":"Landkreis"},"federalState":{"key":"08","name":"Baden-Württemberg"}},{"name":"Schmiedweg","postalCode":"82544","locality":"Egling","municipality":{"key":"09173120","name":"Egling","type":"Kreisangehörige_Gemeinde"},"district":{"key":"09173","name":"Bad Tölz-Wolfratshausen","type":"Landkreis"},"federalState":{"key":"09","name":"Bayern"}},{"name":"Schön","postalCode":"97993","locality":"Creglingen","municipality":{"key":"08128020","name":"Creglingen, Stadt","type":"Stadt"},"district":{"key":"08128","name":"Main-Tauber-Kreis","type":"Landkreis"},"federalState":{"key":"08","name":"Baden-Württemberg"}},{"name":"Schonach","postalCode":"97993","locality":"Creglingen","municipality":{"key":"08128020","name":"Creglingen, Stadt","type":"Stadt"},"district":{"key":"08128","name":"Main-Tauber-Kreis","type":"Landkreis"},"federalState":{"key":"08","name":"Baden-Württemberg"}},{"name":"Schrammelweg","postalCode":"82544","locality":"Egling","municipality":{"key":"09173120","name":"Egling","type":"Kreisangehörige_Gemeinde"},"district":{"key":"09173","name":"Bad Tölz-Wolfratshausen","type":"Landkreis"},"federalState":{"key":"09","name":"Bayern"}},{"name":"Schulstr.","postalCode":"82544","locality":"Egling","municipality":{"key":"09173120","name":"Egling","type":"Kreisangehörige_Gemeinde"},"district":{"key":"09173","name":"Bad Tölz-Wolfratshausen","type":"Landkreis"},"federalState":{"key":"09","name":"Bayern"}},{"name":"Schulstr.","postalCode":"86492","locality":"Egling an der Paar","municipality":{"key":"09181116","name":"Egling a.d.Paar","type":"Kreisangehörige_Gemeinde"},"district":{"key":"09181","name":"Landsberg am Lech","type":"Landkreis"},"federalState":{"key":"09","name":"Bayern"}},{"name":"Schulstr.","postalCode":"97993","locality":"Creglingen","municipality":{"key":"08128020","name":"Creglingen, Stadt","type":"Stadt"},"district":{"key":"08128","name":"Main-Tauber-Kreis","type":"Landkreis"},"federalState":{"key":"08","name":"Baden-Württemberg"}},{"name":"Siegertshofer Str.","postalCode":"82544","locality":"Egling","municipality":{"key":"09173120","name":"Egling","type":"Kreisangehörige_Gemeinde"},"district":{"key":"09173","name":"Bad Tölz-Wolfratshausen","type":"Landkreis"},"federalState":{"key":"09","name":"Bayern"}},{"name":"Silcherweg","postalCode":"97993","locality":"Creglingen","municipality":{"key":"08128020","name":"Creglingen, Stadt","type":"Stadt"},"district":{"key":"08128","name":"Main-Tauber-Kreis","type":"Landkreis"},"federalState":{"key":"08","name":"Baden-Württemberg"}},{"name":"Sonnenhamer Str.","postalCode":"82544","locality":"Egling","municipality":{"key":"09173120","name":"Egling","type":"Kreisangehörige_Gemeinde"},"district":{"key":"09173","name":"Bad Tölz-Wolfratshausen","type":"Landkreis"},"federalState":{"key":"09","name":"Bayern"}},{"name":"Sonnenweg","postalCode":"97993","locality":"Creglingen","municipality":{"key":"08128020","name":"Creglingen, Stadt","type":"Stadt"},"district":{"key":"08128","name":"Main-Tauber-Kreis","type":"Landkreis"},"federalState":{"key":"08","name":"Baden-Württemberg"}},{"name":"Sonnleitenweg","postalCode":"82544","locality":"Egling","municipality":{"key":"09173120","name":"Egling","type":"Kreisangehörige_Gemeinde"},"district":{"key":"09173","name":"Bad Tölz-Wolfratshausen","type":"Landkreis"},"federalState":{"key":"09","name":"Bayern"}},{"name":"Stadtgraben","postalCode":"97993","locality":"Creglingen","municipality":{"key":"08128020","name":"Creglingen, Stadt","type":"Stadt"},"district":{"key":"08128","name":"Main-Tauber-Kreis","type":"Landkreis"},"federalState":{"key":"08","name":"Baden-Württemberg"}},{"name":"Standorf","postalCode":"97993","locality":"Creglingen","municipality":{"key":"08128020","name":"Creglingen, Stadt","type":"Stadt"},"district":{"key":"08128","name":"Main-Tauber-Kreis","type":"Landkreis"},"federalState":{"key":"08","name":"Baden-Württemberg"}},{"name":"Streichentaler Str.","postalCode":"97993","locality":"Creglingen","municipality":{"key":"08128020","name":"Creglingen, Stadt","type":"Stadt"},"district":{"key":"08128","name":"Main-Tauber-Kreis","type":"Landkreis"},"federalState":{"key":"08","name":"Baden-Württemberg"}},{"name":"Sudetenstr.","postalCode":"86492","locality":"Egling an der Paar","municipality":{"key":"09181116","name":"Egling a.d.Paar","type":"Kreisangehörige_Gemeinde"},"district":{"key":"09181","name":"Landsberg am Lech","type":"Landkreis"},"federalState":{"key":"09","name":"Bayern"}},{"name":"Sudetenstr.","postalCode":"97993","locality":"Creglingen","municipality":{"key":"08128020","name":"Creglingen, Stadt","type":"Stadt"},"district":{"key":"08128","name":"Main-Tauber-Kreis","type":"Landkreis"},"federalState":{"key":"08","name":"Baden-Württemberg"}},{"name":"Talstr.","postalCode":"82544","locality":"Egling","municipality":{"key":"09173120","name":"Egling","type":"Kreisangehörige_Gemeinde"},"district":{"key":"09173","name":"Bad Tölz-Wolfratshausen","type":"Landkreis"},"federalState":{"key":"09","name":"Bayern"}},{"name":"Thanninger Weg","postalCode":"82544","locality":"Egling","municipality":{"key":"09173120","name":"Egling","type":"Kreisangehörige_Gemeinde"},"district":{"key":"09173","name":"Bad Tölz-Wolfratshausen","type":"Landkreis"},"federalState":{"key":"09","name":"Bayern"}},{"name":"Tölzer Str.","postalCode":"82544","locality":"Egling","municipality":{"key":"09173120","name":"Egling","type":"Kreisangehörige_Gemeinde"},"district":{"key":"09173","name":"Bad Tölz-Wolfratshausen","type":"Landkreis"},"federalState":{"key":"09","name":"Bayern"}},{"name":"Torstr.","postalCode":"97993","locality":"Creglingen","municipality":{"key":"08128020","name":"Creglingen, Stadt","type":"Stadt"},"district":{"key":"08128","name":"Main-Tauber-Kreis","type":"Landkreis"},"federalState":{"key":"08","name":"Baden-Württemberg"}},{"name":"Uhlandstr.","postalCode":"97993","locality":"Creglingen","municipality":{"key":"08128020","name":"Creglingen, Stadt","type":"Stadt"},"district":{"key":"08128","name":"Main-Tauber-Kreis","type":"Landkreis"},"federalState":{"key":"08","name":"Baden-Württemberg"}},{"name":"Ulrichstr.","postalCode":"86492","locality":"Egling an der Paar","municipality":{"key":"09181116","name":"Egling a.d.Paar","type":"Kreisangehörige_Gemeinde"},"district":{"key":"09181","name":"Landsberg am Lech","type":"Landkreis"},"federalState":{"key":"09","name":"Bayern"}},{"name":"Veiglbergweg","postalCode":"82544","locality":"Egling","municipality":{"key":"09173120","name":"Egling","type":"Kreisangehörige_Gemeinde"},"district":{"key":"09173","name":"Bad Tölz-Wolfratshausen","type":"Landkreis"},"federalState":{"key":"09","name":"Bayern"}},{"name":"Wagnergasse","postalCode":"86492","locality":"Egling an der Paar","municipality":{"key":"09181116","name":"Egling a.d.Paar","type":"Kreisangehörige_Gemeinde"},"district":{"key":"09181","name":"Landsberg am Lech","type":"Landkreis"},"federalState":{"key":"09","name":"Bayern"}},{"name":"Waldmannshofen","postalCode":"97993","locality":"Creglingen","municipality":{"key":"08128020","name":"Creglingen, Stadt","type":"Stadt"},"district":{"key":"08128","name":"Main-Tauber-Kreis","type":"Landkreis"},"federalState":{"key":"08","name":"Baden-Württemberg"}},{"name":"Waldstr.","postalCode":"82544","locality":"Egling","municipality":{"key":"09173120","name":"Egling","type":"Kreisangehörige_Gemeinde"},"district":{"key":"09173","name":"Bad Tölz-Wolfratshausen","type":"Landkreis"},"federalState":{"key":"09","name":"Bayern"}},{"name":"Waldstr.","postalCode":"97993","locality":"Creglingen","municipality":{"key":"08128020","name":"Creglingen, Stadt","type":"Stadt"},"district":{"key":"08128","name":"Main-Tauber-Kreis","type":"Landkreis"},"federalState":{"key":"08","name":"Baden-Württemberg"}},{"name":"Wehrmeisterweg","postalCode":"82544","locality":"Egling","municipality":{"key":"09173120","name":"Egling","type":"Kreisangehörige_Gemeinde"},"district":{"key":"09173","name":"Bad Tölz-Wolfratshausen","type":"Landkreis"},"federalState":{"key":"09","name":"Bayern"}},{"name":"Weidenweg","postalCode":"86492","locality":"Egling an der Paar","municipality":{"key":"09181116","name":"Egling a.d.Paar","type":"Kreisangehörige_Gemeinde"},"district":{"key":"09181","name":"Landsberg am Lech","type":"Landkreis"},"federalState":{"key":"09","name":"Bayern"}},{"name":"Weiherstr.","postalCode":"82544","locality":"Egling","municipality":{"key":"09173120","name":"Egling","type":"Kreisangehörige_Gemeinde"},"district":{"key":"09173","name":"Bad Tölz-Wolfratshausen","type":"Landkreis"},"federalState":{"key":"09","name":"Bayern"}},{"name":"Weiherweg","postalCode":"82544","locality":"Egling","municipality":{"key":"09173120","name":"Egling","type":"Kreisangehörige_Gemeinde"},"district":{"key":"09173","name":"Bad Tölz-Wolfratshausen","type":"Landkreis"},"federalState":{"key":"09","name":"Bayern"}},{"name":"Weinbergstr.","postalCode":"97993","locality":"Creglingen","municipality":{"key":"08128020","name":"Creglingen, Stadt","type":"Stadt"},"district":{"key":"08128","name":"Main-Tauber-Kreis","type":"Landkreis"},"federalState":{"key":"08","name":"Baden-Württemberg"}},{"name":"Wimbauernleiten","postalCode":"82544","locality":"Egling","municipality":{"key":"09173120","name":"Egling","type":"Kreisangehörige_Gemeinde"},"district":{"key":"09173","name":"Bad Tölz-Wolfratshausen","type":"Landkreis"},"federalState":{"key":"09","name":"Bayern"}},{"name":"Wolfratshauser Str.","postalCode":"82544","locality":"Egling","municipality":{"key":"09173120","name":"Egling","type":"Kreisangehörige_Gemeinde"},"district":{"key":"09173","name":"Bad Tölz-Wolfratshausen","type":"Landkreis"},"federalState":{"key":"09","name":"Bayern"}},{"name":"Wolfsbuch","postalCode":"97993","locality":"Creglingen","municipality":{"key":"08128020","name":"Creglingen, Stadt","type":"Stadt"},"district":{"key":"08128","name":"Main-Tauber-Kreis","type":"Landkreis"},"federalState":{"key":"08","name":"Baden-Württemberg"}},{"name":"Wörschhauser Str.","postalCode":"82544","locality":"Egling","municipality":{"key":"09173120","name":"Egling","type":"Kreisangehörige_Gemeinde"},"district":{"key":"09173","name":"Bad Tölz-Wolfratshausen","type":"Landkreis"},"federalState":{"key":"09","name":"Bayern"}},{"name":"Zehentweg","postalCode":"86492","locality":"Egling an der Paar","municipality":{"key":"09181116","name":"Egling a.d.Paar","type":"Kreisangehörige_Gemeinde"},"district":{"key":"09181","name":"Landsberg am Lech","type":"Landkreis"},"federalState":{"key":"09","name":"Bayern"}},{"name":"Ziegelweg","postalCode":"82544","locality":"Egling","municipality":{"key":"09173120","name":"Egling","type":"Kreisangehörige_Gemeinde"},"district":{"key":"09173","name":"Bad Tölz-Wolfratshausen","type":"Landkreis"},"federalState":{"key":"09","name":"Bayern"}},{"name":"Zwischenwasser","postalCode":"97993","locality":"Creglingen","municipality":{"key":"08128020","name":"Creglingen, Stadt","type":"Stadt"},"district":{"key":"08128","name":"Main-Tauber-Kreis","type":"Landkreis"},"federalState":{"key":"08","name":"Baden-Württemberg"}},{"name":"Öhnböcker Str.","postalCode":"82544","locality":"Egling","municipality":{"key":"09173120","name":"Egling","type":"Kreisangehörige_Gemeinde"},"district":{"key":"09173","name":"Bad Tölz-Wolfratshausen","type":"Landkreis"},"federalState":{"key":"09","name":"Bayern"}},{"name":"Ötzstr.","postalCode":"82544","locality":"Egling","municipality":{"key":"09173120","name":"Egling","type":"Kreisangehörige_Gemeinde"},"district":{"key":"09173","name":"Bad Tölz-Wolfratshausen","type":"Landkreis"},"federalState":{"key":"09","name":"Bayern"}},]