[{"name":"Am alten Bähnle","postalCode":"86465","locality":"Welden","municipality":{"key":"09772216","name":"Welden, M","type":"Markt"},"district":{"key":"09772","name":"Augsburg","type":"Landkreis"},"federalState":{"key":"09","name":"Bayern"}},{"name":"Am Anger","postalCode":"86465","locality":"Welden","municipality":{"key":"09772216","name":"Welden, M","type":"Markt"},"district":{"key":"09772","name":"Augsburg","type":"Landkreis"},"federalState":{"key":"09","name":"Bayern"}},{"name":"Am Kornacker","postalCode":"86465","locality":"Welden","municipality":{"key":"09772216","name":"Welden, M","type":"Markt"},"district":{"key":"09772","name":"Augsburg","type":"Landkreis"},"federalState":{"key":"09","name":"Bayern"}},{"name":"Am Kornfeld","postalCode":"86465","locality":"Welden","municipality":{"key":"09772216","name":"Welden, M","type":"Markt"},"district":{"key":"09772","name":"Augsburg","type":"Landkreis"},"federalState":{"key":"09","name":"Bayern"}},{"name":"Am Kreuzer","postalCode":"86465","locality":"Welden","municipality":{"key":"09772216","name":"Welden, M","type":"Markt"},"district":{"key":"09772","name":"Augsburg","type":"Landkreis"},"federalState":{"key":"09","name":"Bayern"}},{"name":"Am Steinriesel","postalCode":"86465","locality":"Welden","municipality":{"key":"09772216","name":"Welden, M","type":"Markt"},"district":{"key":"09772","name":"Augsburg","type":"Landkreis"},"federalState":{"key":"09","name":"Bayern"}},{"name":"Am Theklaberg","postalCode":"86465","locality":"Welden","municipality":{"key":"09772216","name":"Welden, M","type":"Markt"},"district":{"key":"09772","name":"Augsburg","type":"Landkreis"},"federalState":{"key":"09","name":"Bayern"}},{"name":"Am Weldener Fußweg","postalCode":"86465","locality":"Welden","municipality":{"key":"09772216","name":"Welden, M","type":"Markt"},"district":{"key":"09772","name":"Augsburg","type":"Landkreis"},"federalState":{"key":"09","name":"Bayern"}},{"name":"Asternstr.","postalCode":"86465","locality":"Welden","municipality":{"key":"09772216","name":"Welden, M","type":"Markt"},"district":{"key":"09772","name":"Augsburg","type":"Landkreis"},"federalState":{"key":"09","name":"Bayern"}},{"name":"Auffenbergstr.","postalCode":"86465","locality":"Welden","municipality":{"key":"09772216","name":"Welden, M","type":"Markt"},"district":{"key":"09772","name":"Augsburg","type":"Landkreis"},"federalState":{"key":"09","name":"Bayern"}},{"name":"Bahnhofstr.","postalCode":"86465","locality":"Welden","municipality":{"key":"09772216","name":"Welden, M","type":"Markt"},"district":{"key":"09772","name":"Augsburg","type":"Landkreis"},"federalState":{"key":"09","name":"Bayern"}},{"name":"Beethovenstr.","postalCode":"86465","locality":"Welden","municipality":{"key":"09772216","name":"Welden, M","type":"Markt"},"district":{"key":"09772","name":"Augsburg","type":"Landkreis"},"federalState":{"key":"09","name":"Bayern"}},{"name":"Bergstr.","postalCode":"86465","locality":"Welden","municipality":{"key":"09772216","name":"Welden, M","type":"Markt"},"district":{"key":"09772","name":"Augsburg","type":"Landkreis"},"federalState":{"key":"09","name":"Bayern"}},{"name":"Bonstetter Steig","postalCode":"86465","locality":"Welden","municipality":{"key":"09772216","name":"Welden, M","type":"Markt"},"district":{"key":"09772","name":"Augsburg","type":"Landkreis"},"federalState":{"key":"09","name":"Bayern"}},{"name":"Brahmsstr.","postalCode":"86465","locality":"Welden","municipality":{"key":"09772216","name":"Welden, M","type":"Markt"},"district":{"key":"09772","name":"Augsburg","type":"Landkreis"},"federalState":{"key":"09","name":"Bayern"}},{"name":"Breitwies","postalCode":"86465","locality":"Welden","municipality":{"key":"09772216","name":"Welden, M","type":"Markt"},"district":{"key":"09772","name":"Augsburg","type":"Landkreis"},"federalState":{"key":"09","name":"Bayern"}},{"name":"Brunnenberg","postalCode":"86465","locality":"Welden","municipality":{"key":"09772216","name":"Welden, M","type":"Markt"},"district":{"key":"09772","name":"Augsburg","type":"Landkreis"},"federalState":{"key":"09","name":"Bayern"}},{"name":"Brunnenstr.","postalCode":"86465","locality":"Welden","municipality":{"key":"09772216","name":"Welden, M","type":"Markt"},"district":{"key":"09772","name":"Augsburg","type":"Landkreis"},"federalState":{"key":"09","name":"Bayern"}},{"name":"Burckhartstr.","postalCode":"86465","locality":"Welden","municipality":{"key":"09772216","name":"Welden, M","type":"Markt"},"district":{"key":"09772","name":"Augsburg","type":"Landkreis"},"federalState":{"key":"09","name":"Bayern"}},{"name":"Büschelstr.","postalCode":"86465","locality":"Welden","municipality":{"key":"09772216","name":"Welden, M","type":"Markt"},"district":{"key":"09772","name":"Augsburg","type":"Landkreis"},"federalState":{"key":"09","name":"Bayern"}},{"name":"Calmbergstr.","postalCode":"86159","locality":"Augsburg","municipality":{"key":"09761000","name":"Augsburg","type":"Kreisfreie_Stadt"},"district":{"key":"09761","name":"Augsburg","type":"Kreisfreie_Stadt"},"federalState":{"key":"09","name":"Bayern"}},{"name":"Canisiusstr.","postalCode":"86159","locality":"Augsburg","municipality":{"key":"09761000","name":"Augsburg","type":"Kreisfreie_Stadt"},"district":{"key":"09761","name":"Augsburg","type":"Kreisfreie_Stadt"},"federalState":{"key":"09","name":"Bayern"}},{"name":"Caritasweg","postalCode":"86153","locality":"Augsburg","municipality":{"key":"09761000","name":"Augsburg","type":"Kreisfreie_Stadt"},"district":{"key":"09761","name":"Augsburg","type":"Kreisfreie_Stadt"},"federalState":{"key":"09","name":"Bayern"}},{"name":"Carl-Hüber-Str.","postalCode":"86179","locality":"Augsburg","municipality":{"key":"09761000","name":"Augsburg","type":"Kreisfreie_Stadt"},"district":{"key":"09761","name":"Augsburg","type":"Kreisfreie_Stadt"},"federalState":{"key":"09","name":"Bayern"}},{"name":"Carl-Loewe-Str.","postalCode":"86157","locality":"Augsburg","municipality":{"key":"09761000","name":"Augsburg","type":"Kreisfreie_Stadt"},"district":{"key":"09761","name":"Augsburg","type":"Kreisfreie_Stadt"},"federalState":{"key":"09","name":"Bayern"}},{"name":"Carl-Maria-von-Weber-Str.","postalCode":"86157","locality":"Augsburg","municipality":{"key":"09761000","name":"Augsburg","type":"Kreisfreie_Stadt"},"district":{"key":"09761","name":"Augsburg","type":"Kreisfreie_Stadt"},"federalState":{"key":"09","name":"Bayern"}},{"name":"Carl-Natterer-Str.","postalCode":"86169","locality":"Augsburg","municipality":{"key":"09761000","name":"Augsburg","type":"Kreisfreie_Stadt"},"district":{"key":"09761","name":"Augsburg","type":"Kreisfreie_Stadt"},"federalState":{"key":"09","name":"Bayern"}},{"name":"Carl-Schurz-Str.","postalCode":"86156","locality":"Augsburg","municipality":{"key":"09761000","name":"Augsburg","type":"Kreisfreie_Stadt"},"district":{"key":"09761","name":"Augsburg","type":"Kreisfreie_Stadt"},"federalState":{"key":"09","name":"Bayern"}},{"name":"Carl-Zeiss-Str.","postalCode":"86199","locality":"Augsburg","municipality":{"key":"09761000","name":"Augsburg","type":"Kreisfreie_Stadt"},"district":{"key":"09761","name":"Augsburg","type":"Kreisfreie_Stadt"},"federalState":{"key":"09","name":"Bayern"}},{"name":"Carron-du-Val-Str.","postalCode":"86161","locality":"Augsburg","municipality":{"key":"09761000","name":"Augsburg","type":"Kreisfreie_Stadt"},"district":{"key":"09761","name":"Augsburg","type":"Kreisfreie_Stadt"},"federalState":{"key":"09","name":"Bayern"}},{"name":"Chemnitzer Str.","postalCode":"86157","locality":"Augsburg","municipality":{"key":"09761000","name":"Augsburg","type":"Kreisfreie_Stadt"},"district":{"key":"09761","name":"Augsburg","type":"Kreisfreie_Stadt"},"federalState":{"key":"09","name":"Bayern"}},{"name":"Chippenham-Ring","postalCode":"86316","locality":"Augsburg","municipality":{"key":"09761000","name":"Augsburg","type":"Kreisfreie_Stadt"},"district":{"key":"09761","name":"Augsburg","type":"Kreisfreie_Stadt"},"federalState":{"key":"09","name":"Bayern"}},{"name":"Christian Dierig Park","postalCode":"86157","locality":"Augsburg","municipality":{"key":"09761000","name":"Augsburg","type":"Kreisfreie_Stadt"},"district":{"key":"09761","name":"Augsburg","type":"Kreisfreie_Stadt"},"federalState":{"key":"09","name":"Bayern"}},{"name":"Christian-Dierig-Str.","postalCode":"86157","locality":"Augsburg","municipality":{"key":"09761000","name":"Augsburg","type":"Kreisfreie_Stadt"},"district":{"key":"09761","name":"Augsburg","type":"Kreisfreie_Stadt"},"federalState":{"key":"09","name":"Bayern"}},{"name":"Christleseeweg","postalCode":"86163","locality":"Augsburg","municipality":{"key":"09761000","name":"Augsburg","type":"Kreisfreie_Stadt"},"district":{"key":"09761","name":"Augsburg","type":"Kreisfreie_Stadt"},"federalState":{"key":"09","name":"Bayern"}},{"name":"Christoph-von-Schmid-Str.","postalCode":"86159","locality":"Augsburg","municipality":{"key":"09761000","name":"Augsburg","type":"Kreisfreie_Stadt"},"district":{"key":"09761","name":"Augsburg","type":"Kreisfreie_Stadt"},"federalState":{"key":"09","name":"Bayern"}},{"name":"Clara-Hätzler-Str.","postalCode":"86161","locality":"Augsburg","municipality":{"key":"09761000","name":"Augsburg","type":"Kreisfreie_Stadt"},"district":{"key":"09761","name":"Augsburg","type":"Kreisfreie_Stadt"},"federalState":{"key":"09","name":"Bayern"}},{"name":"Clara-Tott-Str.","postalCode":"86156","locality":"Augsburg","municipality":{"key":"09761000","name":"Augsburg","type":"Kreisfreie_Stadt"},"district":{"key":"09761","name":"Augsburg","type":"Kreisfreie_Stadt"},"federalState":{"key":"09","name":"Bayern"}},{"name":"Clematisweg","postalCode":"86169","locality":"Augsburg","municipality":{"key":"09761000","name":"Augsburg","type":"Kreisfreie_Stadt"},"district":{"key":"09761","name":"Augsburg","type":"Kreisfreie_Stadt"},"federalState":{"key":"09","name":"Bayern"}},{"name":"Clementine-Heymann-Str.","postalCode":"86169","locality":"Augsburg","municipality":{"key":"09761000","name":"Augsburg","type":"Kreisfreie_Stadt"},"district":{"key":"09761","name":"Augsburg","type":"Kreisfreie_Stadt"},"federalState":{"key":"09","name":"Bayern"}},{"name":"Columbusstr.","postalCode":"86156","locality":"Augsburg","municipality":{"key":"09761000","name":"Augsburg","type":"Kreisfreie_Stadt"},"district":{"key":"09761","name":"Augsburg","type":"Kreisfreie_Stadt"},"federalState":{"key":"09","name":"Bayern"}},{"name":"Cranachstr.","postalCode":"86169","locality":"Augsburg","municipality":{"key":"09761000","name":"Augsburg","type":"Kreisfreie_Stadt"},"district":{"key":"09761","name":"Augsburg","type":"Kreisfreie_Stadt"},"federalState":{"key":"09","name":"Bayern"}},{"name":"Curt-Frenzel-Str.","postalCode":"86167","locality":"Augsburg","municipality":{"key":"09761000","name":"Augsburg","type":"Kreisfreie_Stadt"},"district":{"key":"09761","name":"Augsburg","type":"Kreisfreie_Stadt"},"federalState":{"key":"09","name":"Bayern"}},{"name":"Curtiusstr.","postalCode":"86165","locality":"Augsburg","municipality":{"key":"09761000","name":"Augsburg","type":"Kreisfreie_Stadt"},"district":{"key":"09761","name":"Augsburg","type":"Kreisfreie_Stadt"},"federalState":{"key":"09","name":"Bayern"}},{"name":"Dossenbergerstr.","postalCode":"86465","locality":"Welden","municipality":{"key":"09772216","name":"Welden, M","type":"Markt"},"district":{"key":"09772","name":"Augsburg","type":"Landkreis"},"federalState":{"key":"09","name":"Bayern"}},{"name":"Ebereschenstr.","postalCode":"86179","locality":"Augsburg","municipality":{"key":"09761000","name":"Augsburg","type":"Kreisfreie_Stadt"},"district":{"key":"09761","name":"Augsburg","type":"Kreisfreie_Stadt"},"federalState":{"key":"09","name":"Bayern"}},{"name":"Ebnerstr.","postalCode":"86154","locality":"Augsburg","municipality":{"key":"09761000","name":"Augsburg","type":"Kreisfreie_Stadt"},"district":{"key":"09761","name":"Augsburg","type":"Kreisfreie_Stadt"},"federalState":{"key":"09","name":"Bayern"}},{"name":"Edelsbergstr.","postalCode":"86163","locality":"Augsburg","municipality":{"key":"09761000","name":"Augsburg","type":"Kreisfreie_Stadt"},"district":{"key":"09761","name":"Augsburg","type":"Kreisfreie_Stadt"},"federalState":{"key":"09","name":"Bayern"}},{"name":"Edelweißstr.","postalCode":"86179","locality":"Augsburg","municipality":{"key":"09761000","name":"Augsburg","type":"Kreisfreie_Stadt"},"district":{"key":"09761","name":"Augsburg","type":"Kreisfreie_Stadt"},"federalState":{"key":"09","name":"Bayern"}},{"name":"Edenberger Str.","postalCode":"86156","locality":"Augsburg","municipality":{"key":"09761000","name":"Augsburg","type":"Kreisfreie_Stadt"},"district":{"key":"09761","name":"Augsburg","type":"Kreisfreie_Stadt"},"federalState":{"key":"09","name":"Bayern"}},{"name":"Edisonstr.","postalCode":"86199","locality":"Augsburg","municipality":{"key":"09761000","name":"Augsburg","type":"Kreisfreie_Stadt"},"district":{"key":"09761","name":"Augsburg","type":"Kreisfreie_Stadt"},"federalState":{"key":"09","name":"Bayern"}},{"name":"Egelseestr.","postalCode":"86157","locality":"Augsburg","municipality":{"key":"09761000","name":"Augsburg","type":"Kreisfreie_Stadt"},"district":{"key":"09761","name":"Augsburg","type":"Kreisfreie_Stadt"},"federalState":{"key":"09","name":"Bayern"}},{"name":"Egerländer Str.","postalCode":"86179","locality":"Augsburg","municipality":{"key":"09761000","name":"Augsburg","type":"Kreisfreie_Stadt"},"district":{"key":"09761","name":"Augsburg","type":"Kreisfreie_Stadt"},"federalState":{"key":"09","name":"Bayern"}},{"name":"Eggenstr.","postalCode":"86179","locality":"Augsburg","municipality":{"key":"09761000","name":"Augsburg","type":"Kreisfreie_Stadt"},"district":{"key":"09761","name":"Augsburg","type":"Kreisfreie_Stadt"},"federalState":{"key":"09","name":"Bayern"}},{"name":"Ehingerstr.","postalCode":"86179","locality":"Augsburg","municipality":{"key":"09761000","name":"Augsburg","type":"Kreisfreie_Stadt"},"district":{"key":"09761","name":"Augsburg","type":"Kreisfreie_Stadt"},"federalState":{"key":"09","name":"Bayern"}},{"name":"Eibenweg","postalCode":"86169","locality":"Augsburg","municipality":{"key":"09761000","name":"Augsburg","type":"Kreisfreie_Stadt"},"district":{"key":"09761","name":"Augsburg","type":"Kreisfreie_Stadt"},"federalState":{"key":"09","name":"Bayern"}},{"name":"Eibseestr.","postalCode":"86163","locality":"Augsburg","municipality":{"key":"09761000","name":"Augsburg","type":"Kreisfreie_Stadt"},"district":{"key":"09761","name":"Augsburg","type":"Kreisfreie_Stadt"},"federalState":{"key":"09","name":"Bayern"}},{"name":"Eichelhäherweg","postalCode":"86156","locality":"Augsburg","municipality":{"key":"09761000","name":"Augsburg","type":"Kreisfreie_Stadt"},"district":{"key":"09761","name":"Augsburg","type":"Kreisfreie_Stadt"},"federalState":{"key":"09","name":"Bayern"}},{"name":"Eichendorffstr.","postalCode":"86161","locality":"Augsburg","municipality":{"key":"09761000","name":"Augsburg","type":"Kreisfreie_Stadt"},"district":{"key":"09761","name":"Augsburg","type":"Kreisfreie_Stadt"},"federalState":{"key":"09","name":"Bayern"}},{"name":"Eichenhofstr.","postalCode":"86154","locality":"Augsburg","municipality":{"key":"09761000","name":"Augsburg","type":"Kreisfreie_Stadt"},"district":{"key":"09761","name":"Augsburg","type":"Kreisfreie_Stadt"},"federalState":{"key":"09","name":"Bayern"}},{"name":"Eichenstr.","postalCode":"86179","locality":"Augsburg","municipality":{"key":"09761000","name":"Augsburg","type":"Kreisfreie_Stadt"},"district":{"key":"09761","name":"Augsburg","type":"Kreisfreie_Stadt"},"federalState":{"key":"09","name":"Bayern"}},{"name":"Eichhornstr.","postalCode":"86165","locality":"Augsburg","municipality":{"key":"09761000","name":"Augsburg","type":"Kreisfreie_Stadt"},"district":{"key":"09761","name":"Augsburg","type":"Kreisfreie_Stadt"},"federalState":{"key":"09","name":"Bayern"}},{"name":"Eichleitnerstr.","postalCode":"86159","locality":"Augsburg","municipality":{"key":"09761000","name":"Augsburg","type":"Kreisfreie_Stadt"},"district":{"key":"09761","name":"Augsburg","type":"Kreisfreie_Stadt"},"federalState":{"key":"09","name":"Bayern"}},{"name":"Eichleitnerstr.","postalCode":"86199","locality":"Augsburg","municipality":{"key":"09761000","name":"Augsburg","type":"Kreisfreie_Stadt"},"district":{"key":"09761","name":"Augsburg","type":"Kreisfreie_Stadt"},"federalState":{"key":"09","name":"Bayern"}},{"name":"Eichlerstr.","postalCode":"86154","locality":"Augsburg","municipality":{"key":"09761000","name":"Augsburg","type":"Kreisfreie_Stadt"},"district":{"key":"09761","name":"Augsburg","type":"Kreisfreie_Stadt"},"federalState":{"key":"09","name":"Bayern"}},{"name":"Eisackstr.","postalCode":"86165","locality":"Augsburg","municipality":{"key":"09761000","name":"Augsburg","type":"Kreisfreie_Stadt"},"district":{"key":"09761","name":"Augsburg","type":"Kreisfreie_Stadt"},"federalState":{"key":"09","name":"Bayern"}},{"name":"Eisenberg","postalCode":"86150","locality":"Augsburg","municipality":{"key":"09761000","name":"Augsburg","type":"Kreisfreie_Stadt"},"district":{"key":"09761","name":"Augsburg","type":"Kreisfreie_Stadt"},"federalState":{"key":"09","name":"Bayern"}},{"name":"Eisenhutstr.","postalCode":"86179","locality":"Augsburg","municipality":{"key":"09761000","name":"Augsburg","type":"Kreisfreie_Stadt"},"district":{"key":"09761","name":"Augsburg","type":"Kreisfreie_Stadt"},"federalState":{"key":"09","name":"Bayern"}},{"name":"Eisvogelweg","postalCode":"86156","locality":"Augsburg","municipality":{"key":"09761000","name":"Augsburg","type":"Kreisfreie_Stadt"},"district":{"key":"09761","name":"Augsburg","type":"Kreisfreie_Stadt"},"federalState":{"key":"09","name":"Bayern"}},{"name":"Elias-Holl-Platz","postalCode":"86150","locality":"Augsburg","municipality":{"key":"09761000","name":"Augsburg","type":"Kreisfreie_Stadt"},"district":{"key":"09761","name":"Augsburg","type":"Kreisfreie_Stadt"},"federalState":{"key":"09","name":"Bayern"}},{"name":"Elisabeth-Selbert-Str.","postalCode":"86199","locality":"Augsburg","municipality":{"key":"09761000","name":"Augsburg","type":"Kreisfreie_Stadt"},"district":{"key":"09761","name":"Augsburg","type":"Kreisfreie_Stadt"},"federalState":{"key":"09","name":"Bayern"}},{"name":"Elisabethstr.","postalCode":"86167","locality":"Augsburg","municipality":{"key":"09761000","name":"Augsburg","type":"Kreisfreie_Stadt"},"district":{"key":"09761","name":"Augsburg","type":"Kreisfreie_Stadt"},"federalState":{"key":"09","name":"Bayern"}},{"name":"Elisenstr.","postalCode":"86159","locality":"Augsburg","municipality":{"key":"09761000","name":"Augsburg","type":"Kreisfreie_Stadt"},"district":{"key":"09761","name":"Augsburg","type":"Kreisfreie_Stadt"},"federalState":{"key":"09","name":"Bayern"}},{"name":"Ellensindstr.","postalCode":"86179","locality":"Augsburg","municipality":{"key":"09761000","name":"Augsburg","type":"Kreisfreie_Stadt"},"district":{"key":"09761","name":"Augsburg","type":"Kreisfreie_Stadt"},"federalState":{"key":"09","name":"Bayern"}},{"name":"Ellgauer Weg","postalCode":"86154","locality":"Augsburg","municipality":{"key":"09761000","name":"Augsburg","type":"Kreisfreie_Stadt"},"district":{"key":"09761","name":"Augsburg","type":"Kreisfreie_Stadt"},"federalState":{"key":"09","name":"Bayern"}},{"name":"Elmauer Weg","postalCode":"86163","locality":"Augsburg","municipality":{"key":"09761000","name":"Augsburg","type":"Kreisfreie_Stadt"},"district":{"key":"09761","name":"Augsburg","type":"Kreisfreie_Stadt"},"federalState":{"key":"09","name":"Bayern"}},{"name":"Elsa-Brändström-Str.","postalCode":"86199","locality":"Augsburg","municipality":{"key":"09761000","name":"Augsburg","type":"Kreisfreie_Stadt"},"district":{"key":"09761","name":"Augsburg","type":"Kreisfreie_Stadt"},"federalState":{"key":"09","name":"Bayern"}},{"name":"Elsässer Str.","postalCode":"86157","locality":"Augsburg","municipality":{"key":"09761000","name":"Augsburg","type":"Kreisfreie_Stadt"},"district":{"key":"09761","name":"Augsburg","type":"Kreisfreie_Stadt"},"federalState":{"key":"09","name":"Bayern"}},{"name":"Elsenbornstr.","postalCode":"86161","locality":"Augsburg","municipality":{"key":"09761000","name":"Augsburg","type":"Kreisfreie_Stadt"},"district":{"key":"09761","name":"Augsburg","type":"Kreisfreie_Stadt"},"federalState":{"key":"09","name":"Bayern"}},{"name":"Elsterweg","postalCode":"86156","locality":"Augsburg","municipality":{"key":"09761000","name":"Augsburg","type":"Kreisfreie_Stadt"},"district":{"key":"09761","name":"Augsburg","type":"Kreisfreie_Stadt"},"federalState":{"key":"09","name":"Bayern"}},{"name":"Emil-Esche-Weg","postalCode":"86156","locality":"Augsburg","municipality":{"key":"09761000","name":"Augsburg","type":"Kreisfreie_Stadt"},"district":{"key":"09761","name":"Augsburg","type":"Kreisfreie_Stadt"},"federalState":{"key":"09","name":"Bayern"}},{"name":"Emilie-Kempin-Weg","postalCode":"86159","locality":"Augsburg","municipality":{"key":"09761000","name":"Augsburg","type":"Kreisfreie_Stadt"},"district":{"key":"09761","name":"Augsburg","type":"Kreisfreie_Stadt"},"federalState":{"key":"09","name":"Bayern"}},{"name":"Emilienstr.","postalCode":"86153","locality":"Augsburg","municipality":{"key":"09761000","name":"Augsburg","type":"Kreisfreie_Stadt"},"district":{"key":"09761","name":"Augsburg","type":"Kreisfreie_Stadt"},"federalState":{"key":"09","name":"Bayern"}},{"name":"Emil-Nolde-Str.","postalCode":"86157","locality":"Augsburg","municipality":{"key":"09761000","name":"Augsburg","type":"Kreisfreie_Stadt"},"district":{"key":"09761","name":"Augsburg","type":"Kreisfreie_Stadt"},"federalState":{"key":"09","name":"Bayern"}},{"name":"Emily-Balch-Str.","postalCode":"86156","locality":"Augsburg","municipality":{"key":"09761000","name":"Augsburg","type":"Kreisfreie_Stadt"},"district":{"key":"09761","name":"Augsburg","type":"Kreisfreie_Stadt"},"federalState":{"key":"09","name":"Bayern"}},{"name":"Endorferstr.","postalCode":"86167","locality":"Augsburg","municipality":{"key":"09761000","name":"Augsburg","type":"Kreisfreie_Stadt"},"district":{"key":"09761","name":"Augsburg","type":"Kreisfreie_Stadt"},"federalState":{"key":"09","name":"Bayern"}},{"name":"Engelbergerstr.","postalCode":"86161","locality":"Augsburg","municipality":{"key":"09761000","name":"Augsburg","type":"Kreisfreie_Stadt"},"district":{"key":"09761","name":"Augsburg","type":"Kreisfreie_Stadt"},"federalState":{"key":"09","name":"Bayern"}},{"name":"Enzianstr.","postalCode":"86179","locality":"Augsburg","municipality":{"key":"09761000","name":"Augsburg","type":"Kreisfreie_Stadt"},"district":{"key":"09761","name":"Augsburg","type":"Kreisfreie_Stadt"},"federalState":{"key":"09","name":"Bayern"}},{"name":"Eppaner Str.","postalCode":"86165","locality":"Augsburg","municipality":{"key":"09761000","name":"Augsburg","type":"Kreisfreie_Stadt"},"district":{"key":"09761","name":"Augsburg","type":"Kreisfreie_Stadt"},"federalState":{"key":"09","name":"Bayern"}},{"name":"Erfurter Str.","postalCode":"86169","locality":"Augsburg","municipality":{"key":"09761000","name":"Augsburg","type":"Kreisfreie_Stadt"},"district":{"key":"09761","name":"Augsburg","type":"Kreisfreie_Stadt"},"federalState":{"key":"09","name":"Bayern"}},{"name":"Erhard-Wunderlich-Allee","postalCode":"86159","locality":"Augsburg","municipality":{"key":"09761000","name":"Augsburg","type":"Kreisfreie_Stadt"},"district":{"key":"09761","name":"Augsburg","type":"Kreisfreie_Stadt"},"federalState":{"key":"09","name":"Bayern"}},{"name":"Erhart-Kästner-Str.","postalCode":"86161","locality":"Augsburg","municipality":{"key":"09761000","name":"Augsburg","type":"Kreisfreie_Stadt"},"district":{"key":"09761","name":"Augsburg","type":"Kreisfreie_Stadt"},"federalState":{"key":"09","name":"Bayern"}},{"name":"Erhartstr.","postalCode":"86153","locality":"Augsburg","municipality":{"key":"09761000","name":"Augsburg","type":"Kreisfreie_Stadt"},"district":{"key":"09761","name":"Augsburg","type":"Kreisfreie_Stadt"},"federalState":{"key":"09","name":"Bayern"}},{"name":"Erlenweg","postalCode":"86169","locality":"Augsburg","municipality":{"key":"09761000","name":"Augsburg","type":"Kreisfreie_Stadt"},"district":{"key":"09761","name":"Augsburg","type":"Kreisfreie_Stadt"},"federalState":{"key":"09","name":"Bayern"}},{"name":"Erlkönigweg","postalCode":"86199","locality":"Augsburg","municipality":{"key":"09761000","name":"Augsburg","type":"Kreisfreie_Stadt"},"district":{"key":"09761","name":"Augsburg","type":"Kreisfreie_Stadt"},"federalState":{"key":"09","name":"Bayern"}},{"name":"Frickenlohweg","postalCode":"86465","locality":"Welden","municipality":{"key":"09772216","name":"Welden, M","type":"Markt"},"district":{"key":"09772","name":"Augsburg","type":"Landkreis"},"federalState":{"key":"09","name":"Bayern"}},{"name":"Friedhofweg","postalCode":"86465","locality":"Welden","municipality":{"key":"09772216","name":"Welden, M","type":"Markt"},"district":{"key":"09772","name":"Augsburg","type":"Landkreis"},"federalState":{"key":"09","name":"Bayern"}},{"name":"Fuggerstr.","postalCode":"86465","locality":"Welden","municipality":{"key":"09772216","name":"Welden, M","type":"Markt"},"district":{"key":"09772","name":"Augsburg","type":"Landkreis"},"federalState":{"key":"09","name":"Bayern"}},{"name":"Gabelsbergerhofstr.","postalCode":"86465","locality":"Welden","municipality":{"key":"09772216","name":"Welden, M","type":"Markt"},"district":{"key":"09772","name":"Augsburg","type":"Landkreis"},"federalState":{"key":"09","name":"Bayern"}},{"name":"Galgenberg","postalCode":"86465","locality":"Welden","municipality":{"key":"09772216","name":"Welden, M","type":"Markt"},"district":{"key":"09772","name":"Augsburg","type":"Landkreis"},"federalState":{"key":"09","name":"Bayern"}},{"name":"Ganghoferstr.","postalCode":"86465","locality":"Welden","municipality":{"key":"09772216","name":"Welden, M","type":"Markt"},"district":{"key":"09772","name":"Augsburg","type":"Landkreis"},"federalState":{"key":"09","name":"Bayern"}},{"name":"Gartenstr.","postalCode":"86465","locality":"Welden","municipality":{"key":"09772216","name":"Welden, M","type":"Markt"},"district":{"key":"09772","name":"Augsburg","type":"Landkreis"},"federalState":{"key":"09","name":"Bayern"}},{"name":"Grüner Spanweg","postalCode":"86465","locality":"Welden","municipality":{"key":"09772216","name":"Welden, M","type":"Markt"},"district":{"key":"09772","name":"Augsburg","type":"Landkreis"},"federalState":{"key":"09","name":"Bayern"}},{"name":"Hafnerweg","postalCode":"86465","locality":"Welden","municipality":{"key":"09772216","name":"Welden, M","type":"Markt"},"district":{"key":"09772","name":"Augsburg","type":"Landkreis"},"federalState":{"key":"09","name":"Bayern"}},{"name":"Hagenmahd","postalCode":"86465","locality":"Welden","municipality":{"key":"09772216","name":"Welden, M","type":"Markt"},"district":{"key":"09772","name":"Augsburg","type":"Landkreis"},"federalState":{"key":"09","name":"Bayern"}},{"name":"Haldenloh","postalCode":"86465","locality":"Welden","municipality":{"key":"09772216","name":"Welden, M","type":"Markt"},"district":{"key":"09772","name":"Augsburg","type":"Landkreis"},"federalState":{"key":"09","name":"Bayern"}},{"name":"Haldenloh A","postalCode":"86465","locality":"Welden","municipality":{"key":"09772216","name":"Welden, M","type":"Markt"},"district":{"key":"09772","name":"Augsburg","type":"Landkreis"},"federalState":{"key":"09","name":"Bayern"}},{"name":"Haldenloh B","postalCode":"86465","locality":"Welden","municipality":{"key":"09772216","name":"Welden, M","type":"Markt"},"district":{"key":"09772","name":"Augsburg","type":"Landkreis"},"federalState":{"key":"09","name":"Bayern"}},{"name":"Haldenloh C","postalCode":"86465","locality":"Welden","municipality":{"key":"09772216","name":"Welden, M","type":"Markt"},"district":{"key":"09772","name":"Augsburg","type":"Landkreis"},"federalState":{"key":"09","name":"Bayern"}},{"name":"Haldenweg","postalCode":"86465","locality":"Welden","municipality":{"key":"09772216","name":"Welden, M","type":"Markt"},"district":{"key":"09772","name":"Augsburg","type":"Landkreis"},"federalState":{"key":"09","name":"Bayern"}},{"name":"Hochstattweg","postalCode":"86465","locality":"Welden","municipality":{"key":"09772216","name":"Welden, M","type":"Markt"},"district":{"key":"09772","name":"Augsburg","type":"Landkreis"},"federalState":{"key":"09","name":"Bayern"}},{"name":"Hofstetterstr.","postalCode":"86465","locality":"Welden","municipality":{"key":"09772216","name":"Welden, M","type":"Markt"},"district":{"key":"09772","name":"Augsburg","type":"Landkreis"},"federalState":{"key":"09","name":"Bayern"}},{"name":"Hofstr.","postalCode":"86465","locality":"Welden","municipality":{"key":"09772216","name":"Welden, M","type":"Markt"},"district":{"key":"09772","name":"Augsburg","type":"Landkreis"},"federalState":{"key":"09","name":"Bayern"}},{"name":"Hoher Weg","postalCode":"86465","locality":"Welden","municipality":{"key":"09772216","name":"Welden, M","type":"Markt"},"district":{"key":"09772","name":"Augsburg","type":"Landkreis"},"federalState":{"key":"09","name":"Bayern"}},{"name":"Hutgraben","postalCode":"86465","locality":"Welden","municipality":{"key":"09772216","name":"Welden, M","type":"Markt"},"district":{"key":"09772","name":"Augsburg","type":"Landkreis"},"federalState":{"key":"09","name":"Bayern"}},{"name":"Hutstr.","postalCode":"86465","locality":"Welden","municipality":{"key":"09772216","name":"Welden, M","type":"Markt"},"district":{"key":"09772","name":"Augsburg","type":"Landkreis"},"federalState":{"key":"09","name":"Bayern"}},{"name":"Im Holzwinkel","postalCode":"86465","locality":"Welden","municipality":{"key":"09772216","name":"Welden, M","type":"Markt"},"district":{"key":"09772","name":"Augsburg","type":"Landkreis"},"federalState":{"key":"09","name":"Bayern"}},{"name":"Johann-Enderle-Str.","postalCode":"86465","locality":"Welden","municipality":{"key":"09772216","name":"Welden, M","type":"Markt"},"district":{"key":"09772","name":"Augsburg","type":"Landkreis"},"federalState":{"key":"09","name":"Bayern"}},{"name":"Johann-Strauß-Str.","postalCode":"86465","locality":"Welden","municipality":{"key":"09772216","name":"Welden, M","type":"Markt"},"district":{"key":"09772","name":"Augsburg","type":"Landkreis"},"federalState":{"key":"09","name":"Bayern"}},{"name":"Josef-Schmuzer-Str.","postalCode":"86465","locality":"Welden","municipality":{"key":"09772216","name":"Welden, M","type":"Markt"},"district":{"key":"09772","name":"Augsburg","type":"Landkreis"},"federalState":{"key":"09","name":"Bayern"}},{"name":"Joseph-Haydn-Ring","postalCode":"86465","locality":"Welden","municipality":{"key":"09772216","name":"Welden, M","type":"Markt"},"district":{"key":"09772","name":"Augsburg","type":"Landkreis"},"federalState":{"key":"09","name":"Bayern"}},{"name":"Keltenschanzstr.","postalCode":"86465","locality":"Welden","municipality":{"key":"09772216","name":"Welden, M","type":"Markt"},"district":{"key":"09772","name":"Augsburg","type":"Landkreis"},"federalState":{"key":"09","name":"Bayern"}},{"name":"Klostergasse","postalCode":"86465","locality":"Welden","municipality":{"key":"09772216","name":"Welden, M","type":"Markt"},"district":{"key":"09772","name":"Augsburg","type":"Landkreis"},"federalState":{"key":"09","name":"Bayern"}},{"name":"Kohlgrabenstr.","postalCode":"86465","locality":"Welden","municipality":{"key":"09772216","name":"Welden, M","type":"Markt"},"district":{"key":"09772","name":"Augsburg","type":"Landkreis"},"federalState":{"key":"09","name":"Bayern"}},{"name":"Kolpingstr.","postalCode":"86465","locality":"Welden","municipality":{"key":"09772216","name":"Welden, M","type":"Markt"},"district":{"key":"09772","name":"Augsburg","type":"Landkreis"},"federalState":{"key":"09","name":"Bayern"}},{"name":"Krautgartenweg","postalCode":"86465","locality":"Welden","municipality":{"key":"09772216","name":"Welden, M","type":"Markt"},"district":{"key":"09772","name":"Augsburg","type":"Landkreis"},"federalState":{"key":"09","name":"Bayern"}},{"name":"Laugnastr.","postalCode":"86465","locality":"Welden","municipality":{"key":"09772216","name":"Welden, M","type":"Markt"},"district":{"key":"09772","name":"Augsburg","type":"Landkreis"},"federalState":{"key":"09","name":"Bayern"}},{"name":"Lerchenweg","postalCode":"86465","locality":"Welden","municipality":{"key":"09772216","name":"Welden, M","type":"Markt"},"district":{"key":"09772","name":"Augsburg","type":"Landkreis"},"federalState":{"key":"09","name":"Bayern"}},{"name":"Ludwig-Rif-Str.","postalCode":"86465","locality":"Welden","municipality":{"key":"09772216","name":"Welden, M","type":"Markt"},"district":{"key":"09772","name":"Augsburg","type":"Landkreis"},"federalState":{"key":"09","name":"Bayern"}},{"name":"Marktplatz","postalCode":"86465","locality":"Welden","municipality":{"key":"09772216","name":"Welden, M","type":"Markt"},"district":{"key":"09772","name":"Augsburg","type":"Landkreis"},"federalState":{"key":"09","name":"Bayern"}},{"name":"Matthäus-Günther-Str.","postalCode":"86465","locality":"Welden","municipality":{"key":"09772216","name":"Welden, M","type":"Markt"},"district":{"key":"09772","name":"Augsburg","type":"Landkreis"},"federalState":{"key":"09","name":"Bayern"}},{"name":"Mozartstr.","postalCode":"86465","locality":"Welden","municipality":{"key":"09772216","name":"Welden, M","type":"Markt"},"district":{"key":"09772","name":"Augsburg","type":"Landkreis"},"federalState":{"key":"09","name":"Bayern"}},{"name":"Mühlberg","postalCode":"86465","locality":"Welden","municipality":{"key":"09772216","name":"Welden, M","type":"Markt"},"district":{"key":"09772","name":"Augsburg","type":"Landkreis"},"federalState":{"key":"09","name":"Bayern"}},{"name":"Mühlweg","postalCode":"86465","locality":"Welden","municipality":{"key":"09772216","name":"Welden, M","type":"Markt"},"district":{"key":"09772","name":"Augsburg","type":"Landkreis"},"federalState":{"key":"09","name":"Bayern"}},{"name":"Neuleblangsteig","postalCode":"86465","locality":"Welden","municipality":{"key":"09772216","name":"Welden, M","type":"Markt"},"district":{"key":"09772","name":"Augsburg","type":"Landkreis"},"federalState":{"key":"09","name":"Bayern"}},{"name":"Obere Bahnhofstr.","postalCode":"86465","locality":"Welden","municipality":{"key":"09772216","name":"Welden, M","type":"Markt"},"district":{"key":"09772","name":"Augsburg","type":"Landkreis"},"federalState":{"key":"09","name":"Bayern"}},{"name":"Obere Weinbergstr.","postalCode":"86465","locality":"Welden","municipality":{"key":"09772216","name":"Welden, M","type":"Markt"},"district":{"key":"09772","name":"Augsburg","type":"Landkreis"},"federalState":{"key":"09","name":"Bayern"}},{"name":"Ostermünsterweg","postalCode":"86465","locality":"Welden","municipality":{"key":"09772216","name":"Welden, M","type":"Markt"},"district":{"key":"09772","name":"Augsburg","type":"Landkreis"},"federalState":{"key":"09","name":"Bayern"}},{"name":"Paul-Riepp-Str.","postalCode":"86465","locality":"Welden","municipality":{"key":"09772216","name":"Welden, M","type":"Markt"},"district":{"key":"09772","name":"Augsburg","type":"Landkreis"},"federalState":{"key":"09","name":"Bayern"}},{"name":"Quellenstr.","postalCode":"86165","locality":"Augsburg","municipality":{"key":"09761000","name":"Augsburg","type":"Kreisfreie_Stadt"},"district":{"key":"09761","name":"Augsburg","type":"Kreisfreie_Stadt"},"federalState":{"key":"09","name":"Bayern"}},{"name":"Quittenweg","postalCode":"86169","locality":"Augsburg","municipality":{"key":"09761000","name":"Augsburg","type":"Kreisfreie_Stadt"},"district":{"key":"09761","name":"Augsburg","type":"Kreisfreie_Stadt"},"federalState":{"key":"09","name":"Bayern"}},{"name":"Reichspoststr.","postalCode":"86465","locality":"Welden","municipality":{"key":"09772216","name":"Welden, M","type":"Markt"},"district":{"key":"09772","name":"Augsburg","type":"Landkreis"},"federalState":{"key":"09","name":"Bayern"}},{"name":"Richard-Wagner-Ring","postalCode":"86465","locality":"Welden","municipality":{"key":"09772216","name":"Welden, M","type":"Markt"},"district":{"key":"09772","name":"Augsburg","type":"Landkreis"},"federalState":{"key":"09","name":"Bayern"}},{"name":"Rosenstr.","postalCode":"86465","locality":"Welden","municipality":{"key":"09772216","name":"Welden, M","type":"Markt"},"district":{"key":"09772","name":"Augsburg","type":"Landkreis"},"federalState":{"key":"09","name":"Bayern"}},{"name":"Schläuhle","postalCode":"86465","locality":"Welden","municipality":{"key":"09772216","name":"Welden, M","type":"Markt"},"district":{"key":"09772","name":"Augsburg","type":"Landkreis"},"federalState":{"key":"09","name":"Bayern"}},{"name":"Schloßhof","postalCode":"86465","locality":"Welden","municipality":{"key":"09772216","name":"Welden, M","type":"Markt"},"district":{"key":"09772","name":"Augsburg","type":"Landkreis"},"federalState":{"key":"09","name":"Bayern"}},{"name":"Schubertstr.","postalCode":"86465","locality":"Welden","municipality":{"key":"09772216","name":"Welden, M","type":"Markt"},"district":{"key":"09772","name":"Augsburg","type":"Landkreis"},"federalState":{"key":"09","name":"Bayern"}},{"name":"Schützenstr.","postalCode":"86465","locality":"Welden","municipality":{"key":"09772216","name":"Welden, M","type":"Markt"},"district":{"key":"09772","name":"Augsburg","type":"Landkreis"},"federalState":{"key":"09","name":"Bayern"}},{"name":"Schwarzbrunnenstr.","postalCode":"86465","locality":"Welden","municipality":{"key":"09772216","name":"Welden, M","type":"Markt"},"district":{"key":"09772","name":"Augsburg","type":"Landkreis"},"federalState":{"key":"09","name":"Bayern"}},{"name":"Sonnenhalde","postalCode":"86465","locality":"Welden","municipality":{"key":"09772216","name":"Welden, M","type":"Markt"},"district":{"key":"09772","name":"Augsburg","type":"Landkreis"},"federalState":{"key":"09","name":"Bayern"}},{"name":"Spielbergweg","postalCode":"86465","locality":"Welden","municipality":{"key":"09772216","name":"Welden, M","type":"Markt"},"district":{"key":"09772","name":"Augsburg","type":"Landkreis"},"federalState":{"key":"09","name":"Bayern"}},{"name":"Straßfeld","postalCode":"86465","locality":"Welden","municipality":{"key":"09772216","name":"Welden, M","type":"Markt"},"district":{"key":"09772","name":"Augsburg","type":"Landkreis"},"federalState":{"key":"09","name":"Bayern"}},{"name":"Talblick","postalCode":"86465","locality":"Welden","municipality":{"key":"09772216","name":"Welden, M","type":"Markt"},"district":{"key":"09772","name":"Augsburg","type":"Landkreis"},"federalState":{"key":"09","name":"Bayern"}},{"name":"Talstr.","postalCode":"86465","locality":"Welden","municipality":{"key":"09772216","name":"Welden, M","type":"Markt"},"district":{"key":"09772","name":"Augsburg","type":"Landkreis"},"federalState":{"key":"09","name":"Bayern"}},{"name":"Theklasteig","postalCode":"86465","locality":"Welden","municipality":{"key":"09772216","name":"Welden, M","type":"Markt"},"district":{"key":"09772","name":"Augsburg","type":"Landkreis"},"federalState":{"key":"09","name":"Bayern"}},{"name":"Tiergarten","postalCode":"86465","locality":"Welden","municipality":{"key":"09772216","name":"Welden, M","type":"Markt"},"district":{"key":"09772","name":"Augsburg","type":"Landkreis"},"federalState":{"key":"09","name":"Bayern"}},{"name":"Tulpenstr.","postalCode":"86465","locality":"Welden","municipality":{"key":"09772216","name":"Welden, M","type":"Markt"},"district":{"key":"09772","name":"Augsburg","type":"Landkreis"},"federalState":{"key":"09","name":"Bayern"}},{"name":"Uzstr.","postalCode":"86465","locality":"Welden","municipality":{"key":"09772216","name":"Welden, M","type":"Markt"},"district":{"key":"09772","name":"Augsburg","type":"Landkreis"},"federalState":{"key":"09","name":"Bayern"}},{"name":"Verenastr.","postalCode":"86465","locality":"Welden","municipality":{"key":"09772216","name":"Welden, M","type":"Markt"},"district":{"key":"09772","name":"Augsburg","type":"Landkreis"},"federalState":{"key":"09","name":"Bayern"}},{"name":"Villenbacher Weg","postalCode":"86465","locality":"Welden","municipality":{"key":"09772216","name":"Welden, M","type":"Markt"},"district":{"key":"09772","name":"Augsburg","type":"Landkreis"},"federalState":{"key":"09","name":"Bayern"}},{"name":"Wall Wasseraufhaltebecken","postalCode":"86465","locality":"Welden","municipality":{"key":"09772216","name":"Welden, M","type":"Markt"},"district":{"key":"09772","name":"Augsburg","type":"Landkreis"},"federalState":{"key":"09","name":"Bayern"}},{"name":"Weg zum Holzwinkelsaal","postalCode":"86465","locality":"Welden","municipality":{"key":"09772216","name":"Welden, M","type":"Markt"},"district":{"key":"09772","name":"Augsburg","type":"Landkreis"},"federalState":{"key":"09","name":"Bayern"}},{"name":"Weiherberg","postalCode":"86465","locality":"Welden","municipality":{"key":"09772216","name":"Welden, M","type":"Markt"},"district":{"key":"09772","name":"Augsburg","type":"Landkreis"},"federalState":{"key":"09","name":"Bayern"}},{"name":"Weinbergstr.","postalCode":"86465","locality":"Welden","municipality":{"key":"09772216","name":"Welden, M","type":"Markt"},"district":{"key":"09772","name":"Augsburg","type":"Landkreis"},"federalState":{"key":"09","name":"Bayern"}},{"name":"Weldener Str.","postalCode":"86465","locality":"Welden","municipality":{"key":"09772216","name":"Welden, M","type":"Markt"},"district":{"key":"09772","name":"Augsburg","type":"Landkreis"},"federalState":{"key":"09","name":"Bayern"}},{"name":"Wiesenweg","postalCode":"86465","locality":"Welden","municipality":{"key":"09772216","name":"Welden, M","type":"Markt"},"district":{"key":"09772","name":"Augsburg","type":"Landkreis"},"federalState":{"key":"09","name":"Bayern"}},{"name":"Yorckstr.","postalCode":"86165","locality":"Augsburg","municipality":{"key":"09761000","name":"Augsburg","type":"Kreisfreie_Stadt"},"district":{"key":"09761","name":"Augsburg","type":"Kreisfreie_Stadt"},"federalState":{"key":"09","name":"Bayern"}},{"name":"Ziegelfeld","postalCode":"86465","locality":"Welden","municipality":{"key":"09772216","name":"Welden, M","type":"Markt"},"district":{"key":"09772","name":"Augsburg","type":"Landkreis"},"federalState":{"key":"09","name":"Bayern"}},{"name":"Ährenstr.","postalCode":"86179","locality":"Augsburg","municipality":{"key":"09761000","name":"Augsburg","type":"Kreisfreie_Stadt"},"district":{"key":"09761","name":"Augsburg","type":"Kreisfreie_Stadt"},"federalState":{"key":"09","name":"Bayern"}},{"name":"Äußerer Gang","postalCode":"86150","locality":"Augsburg","municipality":{"key":"09761000","name":"Augsburg","type":"Kreisfreie_Stadt"},"district":{"key":"09761","name":"Augsburg","type":"Kreisfreie_Stadt"},"federalState":{"key":"09","name":"Bayern"}},{"name":"Äußeres Pfaffengäßchen","postalCode":"86152","locality":"Augsburg","municipality":{"key":"09761000","name":"Augsburg","type":"Kreisfreie_Stadt"},"district":{"key":"09761","name":"Augsburg","type":"Kreisfreie_Stadt"},"federalState":{"key":"09","name":"Bayern"}},{"name":"Äußere Uferstr.","postalCode":"86154","locality":"Augsburg","municipality":{"key":"09761000","name":"Augsburg","type":"Kreisfreie_Stadt"},"district":{"key":"09761","name":"Augsburg","type":"Kreisfreie_Stadt"},"federalState":{"key":"09","name":"Bayern"}},{"name":"Öglinstr.","postalCode":"86153","locality":"Augsburg","municipality":{"key":"09761000","name":"Augsburg","type":"Kreisfreie_Stadt"},"district":{"key":"09761","name":"Augsburg","type":"Kreisfreie_Stadt"},"federalState":{"key":"09","name":"Bayern"}},{"name":"Ölbachstr.","postalCode":"86179","locality":"Augsburg","municipality":{"key":"09761000","name":"Augsburg","type":"Kreisfreie_Stadt"},"district":{"key":"09761","name":"Augsburg","type":"Kreisfreie_Stadt"},"federalState":{"key":"09","name":"Bayern"}},]