[{"name":"Bergstr.","postalCode":"53534","locality":"Bauler","municipality":{"key":"07131009","name":"Bauler","type":"Kreisangehörige_Gemeinde"},"district":{"key":"07131","name":"Ahrweiler","type":"Landkreis"},"federalState":{"key":"07","name":"Rheinland-Pfalz"}},{"name":"Dorfstr.","postalCode":"54673","locality":"Bauler","municipality":{"key":"07232008","name":"Bauler","type":"Kreisangehörige_Gemeinde"},"district":{"key":"07232","name":"Eifelkreis Bitburg-Prüm","type":"Landkreis"},"federalState":{"key":"07","name":"Rheinland-Pfalz"}},{"name":"Dorscheider Str.","postalCode":"54673","locality":"Bauler","municipality":{"key":"07232008","name":"Bauler","type":"Kreisangehörige_Gemeinde"},"district":{"key":"07232","name":"Eifelkreis Bitburg-Prüm","type":"Landkreis"},"federalState":{"key":"07","name":"Rheinland-Pfalz"}},{"name":"Gartenstr.","postalCode":"53534","locality":"Bauler","municipality":{"key":"07131009","name":"Bauler","type":"Kreisangehörige_Gemeinde"},"district":{"key":"07131","name":"Ahrweiler","type":"Landkreis"},"federalState":{"key":"07","name":"Rheinland-Pfalz"}},{"name":"Gaytalweg","postalCode":"54673","locality":"Bauler","municipality":{"key":"07232008","name":"Bauler","type":"Kreisangehörige_Gemeinde"},"district":{"key":"07232","name":"Eifelkreis Bitburg-Prüm","type":"Landkreis"},"federalState":{"key":"07","name":"Rheinland-Pfalz"}},{"name":"Hauptstr.","postalCode":"53534","locality":"Bauler","municipality":{"key":"07131009","name":"Bauler","type":"Kreisangehörige_Gemeinde"},"district":{"key":"07131","name":"Ahrweiler","type":"Landkreis"},"federalState":{"key":"07","name":"Rheinland-Pfalz"}},{"name":"Hermesweg","postalCode":"54673","locality":"Bauler","municipality":{"key":"07232008","name":"Bauler","type":"Kreisangehörige_Gemeinde"},"district":{"key":"07232","name":"Eifelkreis Bitburg-Prüm","type":"Landkreis"},"federalState":{"key":"07","name":"Rheinland-Pfalz"}},{"name":"Kammerwaldstr.","postalCode":"54673","locality":"Bauler","municipality":{"key":"07232008","name":"Bauler","type":"Kreisangehörige_Gemeinde"},"district":{"key":"07232","name":"Eifelkreis Bitburg-Prüm","type":"Landkreis"},"federalState":{"key":"07","name":"Rheinland-Pfalz"}},{"name":"Mühlenstr.","postalCode":"53534","locality":"Bauler","municipality":{"key":"07131009","name":"Bauler","type":"Kreisangehörige_Gemeinde"},"district":{"key":"07131","name":"Ahrweiler","type":"Landkreis"},"federalState":{"key":"07","name":"Rheinland-Pfalz"}},{"name":"Sandbergstr.","postalCode":"54673","locality":"Bauler","municipality":{"key":"07232008","name":"Bauler","type":"Kreisangehörige_Gemeinde"},"district":{"key":"07232","name":"Eifelkreis Bitburg-Prüm","type":"Landkreis"},"federalState":{"key":"07","name":"Rheinland-Pfalz"}},{"name":"Sankt-Georg-Str.","postalCode":"53534","locality":"Bauler","municipality":{"key":"07131009","name":"Bauler","type":"Kreisangehörige_Gemeinde"},"district":{"key":"07131","name":"Ahrweiler","type":"Landkreis"},"federalState":{"key":"07","name":"Rheinland-Pfalz"}},]