[{"name":"Alte Dorfstr.","postalCode":"23847","locality":"Meddewade","municipality":{"key":"01062046","name":"Meddewade","type":"Kreisangehörige_Gemeinde"},"district":{"key":"01062","name":"Stormarn","type":"Kreis"},"federalState":{"key":"01","name":"Schleswig-Holstein"}},{"name":"Bäckerweg","postalCode":"23847","locality":"Meddewade","municipality":{"key":"01062046","name":"Meddewade","type":"Kreisangehörige_Gemeinde"},"district":{"key":"01062","name":"Stormarn","type":"Kreis"},"federalState":{"key":"01","name":"Schleswig-Holstein"}},{"name":"Buerholz","postalCode":"23847","locality":"Meddewade","municipality":{"key":"01062046","name":"Meddewade","type":"Kreisangehörige_Gemeinde"},"district":{"key":"01062","name":"Stormarn","type":"Kreis"},"federalState":{"key":"01","name":"Schleswig-Holstein"}},{"name":"Freestot","postalCode":"23847","locality":"Meddewade","municipality":{"key":"01062046","name":"Meddewade","type":"Kreisangehörige_Gemeinde"},"district":{"key":"01062","name":"Stormarn","type":"Kreis"},"federalState":{"key":"01","name":"Schleswig-Holstein"}},{"name":"Gotenweg","postalCode":"23847","locality":"Meddewade","municipality":{"key":"01062046","name":"Meddewade","type":"Kreisangehörige_Gemeinde"},"district":{"key":"01062","name":"Stormarn","type":"Kreis"},"federalState":{"key":"01","name":"Schleswig-Holstein"}},{"name":"Hörn","postalCode":"23847","locality":"Meddewade","municipality":{"key":"01062046","name":"Meddewade","type":"Kreisangehörige_Gemeinde"},"district":{"key":"01062","name":"Stormarn","type":"Kreis"},"federalState":{"key":"01","name":"Schleswig-Holstein"}},{"name":"Meiereiweg","postalCode":"23847","locality":"Meddewade","municipality":{"key":"01062046","name":"Meddewade","type":"Kreisangehörige_Gemeinde"},"district":{"key":"01062","name":"Stormarn","type":"Kreis"},"federalState":{"key":"01","name":"Schleswig-Holstein"}},{"name":"Oldesloer Str.","postalCode":"23847","locality":"Meddewade","municipality":{"key":"01062046","name":"Meddewade","type":"Kreisangehörige_Gemeinde"},"district":{"key":"01062","name":"Stormarn","type":"Kreis"},"federalState":{"key":"01","name":"Schleswig-Holstein"}},{"name":"Parkweg","postalCode":"23847","locality":"Meddewade","municipality":{"key":"01062046","name":"Meddewade","type":"Kreisangehörige_Gemeinde"},"district":{"key":"01062","name":"Stormarn","type":"Kreis"},"federalState":{"key":"01","name":"Schleswig-Holstein"}},{"name":"Schloßweg","postalCode":"23847","locality":"Meddewade","municipality":{"key":"01062046","name":"Meddewade","type":"Kreisangehörige_Gemeinde"},"district":{"key":"01062","name":"Stormarn","type":"Kreis"},"federalState":{"key":"01","name":"Schleswig-Holstein"}},{"name":"Teichweg","postalCode":"23847","locality":"Meddewade","municipality":{"key":"01062046","name":"Meddewade","type":"Kreisangehörige_Gemeinde"},"district":{"key":"01062","name":"Stormarn","type":"Kreis"},"federalState":{"key":"01","name":"Schleswig-Holstein"}},{"name":"Wikingerweg","postalCode":"23847","locality":"Meddewade","municipality":{"key":"01062046","name":"Meddewade","type":"Kreisangehörige_Gemeinde"},"district":{"key":"01062","name":"Stormarn","type":"Kreis"},"federalState":{"key":"01","name":"Schleswig-Holstein"}},{"name":"Zum Kuksberg","postalCode":"23847","locality":"Meddewade","municipality":{"key":"01062046","name":"Meddewade","type":"Kreisangehörige_Gemeinde"},"district":{"key":"01062","name":"Stormarn","type":"Kreis"},"federalState":{"key":"01","name":"Schleswig-Holstein"}},{"name":"Zum Parkweg","postalCode":"23847","locality":"Meddewade","municipality":{"key":"01062046","name":"Meddewade","type":"Kreisangehörige_Gemeinde"},"district":{"key":"01062","name":"Stormarn","type":"Kreis"},"federalState":{"key":"01","name":"Schleswig-Holstein"}},]