[{"name":"Alte Mühle","postalCode":"35753","locality":"Greifenstein","municipality":{"key":"06532010","name":"Greifenstein","type":"Kreisangehörige_Gemeinde"},"district":{"key":"06532","name":"Lahn-Dill-Kreis","type":"Landkreis"},"federalState":{"key":"06","name":"Hessen"}},{"name":"Alte Rheinstr.","postalCode":"35753","locality":"Greifenstein","municipality":{"key":"06532010","name":"Greifenstein","type":"Kreisangehörige_Gemeinde"},"district":{"key":"06532","name":"Lahn-Dill-Kreis","type":"Landkreis"},"federalState":{"key":"06","name":"Hessen"}},{"name":"Am Aspengarten","postalCode":"35753","locality":"Greifenstein","municipality":{"key":"06532010","name":"Greifenstein","type":"Kreisangehörige_Gemeinde"},"district":{"key":"06532","name":"Lahn-Dill-Kreis","type":"Landkreis"},"federalState":{"key":"06","name":"Hessen"}},{"name":"Am Berg","postalCode":"35753","locality":"Greifenstein","municipality":{"key":"06532010","name":"Greifenstein","type":"Kreisangehörige_Gemeinde"},"district":{"key":"06532","name":"Lahn-Dill-Kreis","type":"Landkreis"},"federalState":{"key":"06","name":"Hessen"}},{"name":"Am Brunnen","postalCode":"35753","locality":"Greifenstein","municipality":{"key":"06532010","name":"Greifenstein","type":"Kreisangehörige_Gemeinde"},"district":{"key":"06532","name":"Lahn-Dill-Kreis","type":"Landkreis"},"federalState":{"key":"06","name":"Hessen"}},{"name":"Am Dorfgemeinschaftshaus","postalCode":"35753","locality":"Greifenstein","municipality":{"key":"06532010","name":"Greifenstein","type":"Kreisangehörige_Gemeinde"},"district":{"key":"06532","name":"Lahn-Dill-Kreis","type":"Landkreis"},"federalState":{"key":"06","name":"Hessen"}},{"name":"Am Hang","postalCode":"35753","locality":"Greifenstein","municipality":{"key":"06532010","name":"Greifenstein","type":"Kreisangehörige_Gemeinde"},"district":{"key":"06532","name":"Lahn-Dill-Kreis","type":"Landkreis"},"federalState":{"key":"06","name":"Hessen"}},{"name":"Am Hübel","postalCode":"35753","locality":"Greifenstein","municipality":{"key":"06532010","name":"Greifenstein","type":"Kreisangehörige_Gemeinde"},"district":{"key":"06532","name":"Lahn-Dill-Kreis","type":"Landkreis"},"federalState":{"key":"06","name":"Hessen"}},{"name":"Am Klöseberg","postalCode":"35753","locality":"Greifenstein","municipality":{"key":"06532010","name":"Greifenstein","type":"Kreisangehörige_Gemeinde"},"district":{"key":"06532","name":"Lahn-Dill-Kreis","type":"Landkreis"},"federalState":{"key":"06","name":"Hessen"}},{"name":"Am Lockenbachsgraben","postalCode":"35753","locality":"Greifenstein","municipality":{"key":"06532010","name":"Greifenstein","type":"Kreisangehörige_Gemeinde"},"district":{"key":"06532","name":"Lahn-Dill-Kreis","type":"Landkreis"},"federalState":{"key":"06","name":"Hessen"}},{"name":"Am Loh","postalCode":"35753","locality":"Greifenstein","municipality":{"key":"06532010","name":"Greifenstein","type":"Kreisangehörige_Gemeinde"},"district":{"key":"06532","name":"Lahn-Dill-Kreis","type":"Landkreis"},"federalState":{"key":"06","name":"Hessen"}},{"name":"Am Scheuernhof","postalCode":"35753","locality":"Greifenstein","municipality":{"key":"06532010","name":"Greifenstein","type":"Kreisangehörige_Gemeinde"},"district":{"key":"06532","name":"Lahn-Dill-Kreis","type":"Landkreis"},"federalState":{"key":"06","name":"Hessen"}},{"name":"Amselstr.","postalCode":"35753","locality":"Greifenstein","municipality":{"key":"06532010","name":"Greifenstein","type":"Kreisangehörige_Gemeinde"},"district":{"key":"06532","name":"Lahn-Dill-Kreis","type":"Landkreis"},"federalState":{"key":"06","name":"Hessen"}},{"name":"Am Sportplatz","postalCode":"35753","locality":"Greifenstein","municipality":{"key":"06532010","name":"Greifenstein","type":"Kreisangehörige_Gemeinde"},"district":{"key":"06532","name":"Lahn-Dill-Kreis","type":"Landkreis"},"federalState":{"key":"06","name":"Hessen"}},{"name":"Am Ulmbach","postalCode":"35753","locality":"Greifenstein","municipality":{"key":"06532010","name":"Greifenstein","type":"Kreisangehörige_Gemeinde"},"district":{"key":"06532","name":"Lahn-Dill-Kreis","type":"Landkreis"},"federalState":{"key":"06","name":"Hessen"}},{"name":"Am Wettelsberg","postalCode":"35753","locality":"Greifenstein","municipality":{"key":"06532010","name":"Greifenstein","type":"Kreisangehörige_Gemeinde"},"district":{"key":"06532","name":"Lahn-Dill-Kreis","type":"Landkreis"},"federalState":{"key":"06","name":"Hessen"}},{"name":"An der Ulmtalhalle","postalCode":"35753","locality":"Greifenstein","municipality":{"key":"06532010","name":"Greifenstein","type":"Kreisangehörige_Gemeinde"},"district":{"key":"06532","name":"Lahn-Dill-Kreis","type":"Landkreis"},"federalState":{"key":"06","name":"Hessen"}},{"name":"Arborner Weg","postalCode":"35753","locality":"Greifenstein","municipality":{"key":"06532010","name":"Greifenstein","type":"Kreisangehörige_Gemeinde"},"district":{"key":"06532","name":"Lahn-Dill-Kreis","type":"Landkreis"},"federalState":{"key":"06","name":"Hessen"}},{"name":"Auf dem Bühl","postalCode":"35753","locality":"Greifenstein","municipality":{"key":"06532010","name":"Greifenstein","type":"Kreisangehörige_Gemeinde"},"district":{"key":"06532","name":"Lahn-Dill-Kreis","type":"Landkreis"},"federalState":{"key":"06","name":"Hessen"}},{"name":"Auf dem Hohen Rain","postalCode":"35753","locality":"Greifenstein","municipality":{"key":"06532010","name":"Greifenstein","type":"Kreisangehörige_Gemeinde"},"district":{"key":"06532","name":"Lahn-Dill-Kreis","type":"Landkreis"},"federalState":{"key":"06","name":"Hessen"}},{"name":"Auf dem Tor","postalCode":"35753","locality":"Greifenstein","municipality":{"key":"06532010","name":"Greifenstein","type":"Kreisangehörige_Gemeinde"},"district":{"key":"06532","name":"Lahn-Dill-Kreis","type":"Landkreis"},"federalState":{"key":"06","name":"Hessen"}},{"name":"Auf der Bitz","postalCode":"35753","locality":"Greifenstein","municipality":{"key":"06532010","name":"Greifenstein","type":"Kreisangehörige_Gemeinde"},"district":{"key":"06532","name":"Lahn-Dill-Kreis","type":"Landkreis"},"federalState":{"key":"06","name":"Hessen"}},{"name":"Auf der Plinke","postalCode":"35753","locality":"Greifenstein","municipality":{"key":"06532010","name":"Greifenstein","type":"Kreisangehörige_Gemeinde"},"district":{"key":"06532","name":"Lahn-Dill-Kreis","type":"Landkreis"},"federalState":{"key":"06","name":"Hessen"}},{"name":"Auf der Weid","postalCode":"35753","locality":"Greifenstein","municipality":{"key":"06532010","name":"Greifenstein","type":"Kreisangehörige_Gemeinde"},"district":{"key":"06532","name":"Lahn-Dill-Kreis","type":"Landkreis"},"federalState":{"key":"06","name":"Hessen"}},{"name":"Auf der Wiese","postalCode":"35753","locality":"Greifenstein","municipality":{"key":"06532010","name":"Greifenstein","type":"Kreisangehörige_Gemeinde"},"district":{"key":"06532","name":"Lahn-Dill-Kreis","type":"Landkreis"},"federalState":{"key":"06","name":"Hessen"}},{"name":"Auf Jakobsgarten","postalCode":"35753","locality":"Greifenstein","municipality":{"key":"06532010","name":"Greifenstein","type":"Kreisangehörige_Gemeinde"},"district":{"key":"06532","name":"Lahn-Dill-Kreis","type":"Landkreis"},"federalState":{"key":"06","name":"Hessen"}},{"name":"Bachstr.","postalCode":"35753","locality":"Greifenstein","municipality":{"key":"06532010","name":"Greifenstein","type":"Kreisangehörige_Gemeinde"},"district":{"key":"06532","name":"Lahn-Dill-Kreis","type":"Landkreis"},"federalState":{"key":"06","name":"Hessen"}},{"name":"Backhausweg","postalCode":"35753","locality":"Greifenstein","municipality":{"key":"06532010","name":"Greifenstein","type":"Kreisangehörige_Gemeinde"},"district":{"key":"06532","name":"Lahn-Dill-Kreis","type":"Landkreis"},"federalState":{"key":"06","name":"Hessen"}},{"name":"Bahnhofstr.","postalCode":"35753","locality":"Greifenstein","municipality":{"key":"06532010","name":"Greifenstein","type":"Kreisangehörige_Gemeinde"},"district":{"key":"06532","name":"Lahn-Dill-Kreis","type":"Landkreis"},"federalState":{"key":"06","name":"Hessen"}},{"name":"BASALT PARKours","postalCode":"35753","locality":"Greifenstein","municipality":{"key":"06532010","name":"Greifenstein","type":"Kreisangehörige_Gemeinde"},"district":{"key":"06532","name":"Lahn-Dill-Kreis","type":"Landkreis"},"federalState":{"key":"06","name":"Hessen"}},{"name":"Beilsteiner Str.","postalCode":"35753","locality":"Greifenstein","municipality":{"key":"06532010","name":"Greifenstein","type":"Kreisangehörige_Gemeinde"},"district":{"key":"06532","name":"Lahn-Dill-Kreis","type":"Landkreis"},"federalState":{"key":"06","name":"Hessen"}},{"name":"Bergstr.","postalCode":"35753","locality":"Greifenstein","municipality":{"key":"06532010","name":"Greifenstein","type":"Kreisangehörige_Gemeinde"},"district":{"key":"06532","name":"Lahn-Dill-Kreis","type":"Landkreis"},"federalState":{"key":"06","name":"Hessen"}},{"name":"Bergweg","postalCode":"35753","locality":"Greifenstein","municipality":{"key":"06532010","name":"Greifenstein","type":"Kreisangehörige_Gemeinde"},"district":{"key":"06532","name":"Lahn-Dill-Kreis","type":"Landkreis"},"federalState":{"key":"06","name":"Hessen"}},{"name":"Bielenweide","postalCode":"35753","locality":"Greifenstein","municipality":{"key":"06532010","name":"Greifenstein","type":"Kreisangehörige_Gemeinde"},"district":{"key":"06532","name":"Lahn-Dill-Kreis","type":"Landkreis"},"federalState":{"key":"06","name":"Hessen"}},{"name":"Biskirchener Str.","postalCode":"35753","locality":"Greifenstein","municipality":{"key":"06532010","name":"Greifenstein","type":"Kreisangehörige_Gemeinde"},"district":{"key":"06532","name":"Lahn-Dill-Kreis","type":"Landkreis"},"federalState":{"key":"06","name":"Hessen"}},{"name":"Bissenberger Weg","postalCode":"35753","locality":"Greifenstein","municipality":{"key":"06532010","name":"Greifenstein","type":"Kreisangehörige_Gemeinde"},"district":{"key":"06532","name":"Lahn-Dill-Kreis","type":"Landkreis"},"federalState":{"key":"06","name":"Hessen"}},{"name":"Bleichstr.","postalCode":"35753","locality":"Greifenstein","municipality":{"key":"06532010","name":"Greifenstein","type":"Kreisangehörige_Gemeinde"},"district":{"key":"06532","name":"Lahn-Dill-Kreis","type":"Landkreis"},"federalState":{"key":"06","name":"Hessen"}},{"name":"Blumenweg","postalCode":"35753","locality":"Greifenstein","municipality":{"key":"06532010","name":"Greifenstein","type":"Kreisangehörige_Gemeinde"},"district":{"key":"06532","name":"Lahn-Dill-Kreis","type":"Landkreis"},"federalState":{"key":"06","name":"Hessen"}},{"name":"Borngasse","postalCode":"35753","locality":"Greifenstein","municipality":{"key":"06532010","name":"Greifenstein","type":"Kreisangehörige_Gemeinde"},"district":{"key":"06532","name":"Lahn-Dill-Kreis","type":"Landkreis"},"federalState":{"key":"06","name":"Hessen"}},{"name":"Brückenstr.","postalCode":"35753","locality":"Greifenstein","municipality":{"key":"06532010","name":"Greifenstein","type":"Kreisangehörige_Gemeinde"},"district":{"key":"06532","name":"Lahn-Dill-Kreis","type":"Landkreis"},"federalState":{"key":"06","name":"Hessen"}},{"name":"Brunnenstr.","postalCode":"35753","locality":"Greifenstein","municipality":{"key":"06532010","name":"Greifenstein","type":"Kreisangehörige_Gemeinde"},"district":{"key":"06532","name":"Lahn-Dill-Kreis","type":"Landkreis"},"federalState":{"key":"06","name":"Hessen"}},{"name":"Dammweg","postalCode":"35753","locality":"Greifenstein","municipality":{"key":"06532010","name":"Greifenstein","type":"Kreisangehörige_Gemeinde"},"district":{"key":"06532","name":"Lahn-Dill-Kreis","type":"Landkreis"},"federalState":{"key":"06","name":"Hessen"}},{"name":"Dianaburgstr.","postalCode":"35753","locality":"Greifenstein","municipality":{"key":"06532010","name":"Greifenstein","type":"Kreisangehörige_Gemeinde"},"district":{"key":"06532","name":"Lahn-Dill-Kreis","type":"Landkreis"},"federalState":{"key":"06","name":"Hessen"}},{"name":"Dianaburgweg","postalCode":"35753","locality":"Greifenstein","municipality":{"key":"06532010","name":"Greifenstein","type":"Kreisangehörige_Gemeinde"},"district":{"key":"06532","name":"Lahn-Dill-Kreis","type":"Landkreis"},"federalState":{"key":"06","name":"Hessen"}},{"name":"Die Gärterchen","postalCode":"35753","locality":"Greifenstein","municipality":{"key":"06532010","name":"Greifenstein","type":"Kreisangehörige_Gemeinde"},"district":{"key":"06532","name":"Lahn-Dill-Kreis","type":"Landkreis"},"federalState":{"key":"06","name":"Hessen"}},{"name":"Dillblick","postalCode":"35753","locality":"Greifenstein","municipality":{"key":"06532010","name":"Greifenstein","type":"Kreisangehörige_Gemeinde"},"district":{"key":"06532","name":"Lahn-Dill-Kreis","type":"Landkreis"},"federalState":{"key":"06","name":"Hessen"}},{"name":"Dorfstr.","postalCode":"35753","locality":"Greifenstein","municipality":{"key":"06532010","name":"Greifenstein","type":"Kreisangehörige_Gemeinde"},"district":{"key":"06532","name":"Lahn-Dill-Kreis","type":"Landkreis"},"federalState":{"key":"06","name":"Hessen"}},{"name":"Driedorfer Str.","postalCode":"35753","locality":"Greifenstein","municipality":{"key":"06532010","name":"Greifenstein","type":"Kreisangehörige_Gemeinde"},"district":{"key":"06532","name":"Lahn-Dill-Kreis","type":"Landkreis"},"federalState":{"key":"06","name":"Hessen"}},{"name":"Eichenweg","postalCode":"35753","locality":"Greifenstein","municipality":{"key":"06532010","name":"Greifenstein","type":"Kreisangehörige_Gemeinde"},"district":{"key":"06532","name":"Lahn-Dill-Kreis","type":"Landkreis"},"federalState":{"key":"06","name":"Hessen"}},{"name":"Endwieserweg","postalCode":"35753","locality":"Greifenstein","municipality":{"key":"06532010","name":"Greifenstein","type":"Kreisangehörige_Gemeinde"},"district":{"key":"06532","name":"Lahn-Dill-Kreis","type":"Landkreis"},"federalState":{"key":"06","name":"Hessen"}},{"name":"Erwin-Piscator-Str.","postalCode":"35753","locality":"Greifenstein","municipality":{"key":"06532010","name":"Greifenstein","type":"Kreisangehörige_Gemeinde"},"district":{"key":"06532","name":"Lahn-Dill-Kreis","type":"Landkreis"},"federalState":{"key":"06","name":"Hessen"}},{"name":"Eselsberg","postalCode":"35753","locality":"Greifenstein","municipality":{"key":"06532010","name":"Greifenstein","type":"Kreisangehörige_Gemeinde"},"district":{"key":"06532","name":"Lahn-Dill-Kreis","type":"Landkreis"},"federalState":{"key":"06","name":"Hessen"}},{"name":"Fliederstr.","postalCode":"35753","locality":"Greifenstein","municipality":{"key":"06532010","name":"Greifenstein","type":"Kreisangehörige_Gemeinde"},"district":{"key":"06532","name":"Lahn-Dill-Kreis","type":"Landkreis"},"federalState":{"key":"06","name":"Hessen"}},{"name":"Frankenhof","postalCode":"35753","locality":"Greifenstein","municipality":{"key":"06532010","name":"Greifenstein","type":"Kreisangehörige_Gemeinde"},"district":{"key":"06532","name":"Lahn-Dill-Kreis","type":"Landkreis"},"federalState":{"key":"06","name":"Hessen"}},{"name":"Frankenweg","postalCode":"35753","locality":"Greifenstein","municipality":{"key":"06532010","name":"Greifenstein","type":"Kreisangehörige_Gemeinde"},"district":{"key":"06532","name":"Lahn-Dill-Kreis","type":"Landkreis"},"federalState":{"key":"06","name":"Hessen"}},{"name":"Friedhofstr.","postalCode":"35753","locality":"Greifenstein","municipality":{"key":"06532010","name":"Greifenstein","type":"Kreisangehörige_Gemeinde"},"district":{"key":"06532","name":"Lahn-Dill-Kreis","type":"Landkreis"},"federalState":{"key":"06","name":"Hessen"}},{"name":"Fußgarten","postalCode":"35753","locality":"Greifenstein","municipality":{"key":"06532010","name":"Greifenstein","type":"Kreisangehörige_Gemeinde"},"district":{"key":"06532","name":"Lahn-Dill-Kreis","type":"Landkreis"},"federalState":{"key":"06","name":"Hessen"}},{"name":"Gartenstr.","postalCode":"35753","locality":"Greifenstein","municipality":{"key":"06532010","name":"Greifenstein","type":"Kreisangehörige_Gemeinde"},"district":{"key":"06532","name":"Lahn-Dill-Kreis","type":"Landkreis"},"federalState":{"key":"06","name":"Hessen"}},{"name":"Grabenstr.","postalCode":"35753","locality":"Greifenstein","municipality":{"key":"06532010","name":"Greifenstein","type":"Kreisangehörige_Gemeinde"},"district":{"key":"06532","name":"Lahn-Dill-Kreis","type":"Landkreis"},"federalState":{"key":"06","name":"Hessen"}},{"name":"Grauweiderfeld","postalCode":"35753","locality":"Greifenstein","municipality":{"key":"06532010","name":"Greifenstein","type":"Kreisangehörige_Gemeinde"},"district":{"key":"06532","name":"Lahn-Dill-Kreis","type":"Landkreis"},"federalState":{"key":"06","name":"Hessen"}},{"name":"Greifensteiner Str.","postalCode":"35753","locality":"Greifenstein","municipality":{"key":"06532010","name":"Greifenstein","type":"Kreisangehörige_Gemeinde"},"district":{"key":"06532","name":"Lahn-Dill-Kreis","type":"Landkreis"},"federalState":{"key":"06","name":"Hessen"}},{"name":"Grundmühle","postalCode":"35753","locality":"Greifenstein","municipality":{"key":"06532010","name":"Greifenstein","type":"Kreisangehörige_Gemeinde"},"district":{"key":"06532","name":"Lahn-Dill-Kreis","type":"Landkreis"},"federalState":{"key":"06","name":"Hessen"}},{"name":"Grüner Weg","postalCode":"35753","locality":"Greifenstein","municipality":{"key":"06532010","name":"Greifenstein","type":"Kreisangehörige_Gemeinde"},"district":{"key":"06532","name":"Lahn-Dill-Kreis","type":"Landkreis"},"federalState":{"key":"06","name":"Hessen"}},{"name":"Haierner Str.","postalCode":"35753","locality":"Greifenstein","municipality":{"key":"06532010","name":"Greifenstein","type":"Kreisangehörige_Gemeinde"},"district":{"key":"06532","name":"Lahn-Dill-Kreis","type":"Landkreis"},"federalState":{"key":"06","name":"Hessen"}},{"name":"Hainbuschweg","postalCode":"35753","locality":"Greifenstein","municipality":{"key":"06532010","name":"Greifenstein","type":"Kreisangehörige_Gemeinde"},"district":{"key":"06532","name":"Lahn-Dill-Kreis","type":"Landkreis"},"federalState":{"key":"06","name":"Hessen"}},{"name":"Hansewies","postalCode":"35753","locality":"Greifenstein","municipality":{"key":"06532010","name":"Greifenstein","type":"Kreisangehörige_Gemeinde"},"district":{"key":"06532","name":"Lahn-Dill-Kreis","type":"Landkreis"},"federalState":{"key":"06","name":"Hessen"}},{"name":"Hasenohrweg","postalCode":"35753","locality":"Greifenstein","municipality":{"key":"06532010","name":"Greifenstein","type":"Kreisangehörige_Gemeinde"},"district":{"key":"06532","name":"Lahn-Dill-Kreis","type":"Landkreis"},"federalState":{"key":"06","name":"Hessen"}},{"name":"Hauptstr.","postalCode":"35753","locality":"Greifenstein","municipality":{"key":"06532010","name":"Greifenstein","type":"Kreisangehörige_Gemeinde"},"district":{"key":"06532","name":"Lahn-Dill-Kreis","type":"Landkreis"},"federalState":{"key":"06","name":"Hessen"}},{"name":"Haversbach","postalCode":"35753","locality":"Greifenstein","municipality":{"key":"06532010","name":"Greifenstein","type":"Kreisangehörige_Gemeinde"},"district":{"key":"06532","name":"Lahn-Dill-Kreis","type":"Landkreis"},"federalState":{"key":"06","name":"Hessen"}},{"name":"Heimlingstr.","postalCode":"35753","locality":"Greifenstein","municipality":{"key":"06532010","name":"Greifenstein","type":"Kreisangehörige_Gemeinde"},"district":{"key":"06532","name":"Lahn-Dill-Kreis","type":"Landkreis"},"federalState":{"key":"06","name":"Hessen"}},{"name":"Heisternwies","postalCode":"35753","locality":"Greifenstein","municipality":{"key":"06532010","name":"Greifenstein","type":"Kreisangehörige_Gemeinde"},"district":{"key":"06532","name":"Lahn-Dill-Kreis","type":"Landkreis"},"federalState":{"key":"06","name":"Hessen"}},{"name":"Hellsdorfstr.","postalCode":"35753","locality":"Greifenstein","municipality":{"key":"06532010","name":"Greifenstein","type":"Kreisangehörige_Gemeinde"},"district":{"key":"06532","name":"Lahn-Dill-Kreis","type":"Landkreis"},"federalState":{"key":"06","name":"Hessen"}},{"name":"Herborner Str.","postalCode":"35753","locality":"Greifenstein","municipality":{"key":"06532010","name":"Greifenstein","type":"Kreisangehörige_Gemeinde"},"district":{"key":"06532","name":"Lahn-Dill-Kreis","type":"Landkreis"},"federalState":{"key":"06","name":"Hessen"}},{"name":"Hernee Str.","postalCode":"35753","locality":"Greifenstein","municipality":{"key":"06532010","name":"Greifenstein","type":"Kreisangehörige_Gemeinde"},"district":{"key":"06532","name":"Lahn-Dill-Kreis","type":"Landkreis"},"federalState":{"key":"06","name":"Hessen"}},{"name":"Herrenacker","postalCode":"35753","locality":"Greifenstein","municipality":{"key":"06532010","name":"Greifenstein","type":"Kreisangehörige_Gemeinde"},"district":{"key":"06532","name":"Lahn-Dill-Kreis","type":"Landkreis"},"federalState":{"key":"06","name":"Hessen"}},{"name":"Herrenpferchstr.","postalCode":"35753","locality":"Greifenstein","municipality":{"key":"06532010","name":"Greifenstein","type":"Kreisangehörige_Gemeinde"},"district":{"key":"06532","name":"Lahn-Dill-Kreis","type":"Landkreis"},"federalState":{"key":"06","name":"Hessen"}},{"name":"Hessenberg","postalCode":"35753","locality":"Greifenstein","municipality":{"key":"06532010","name":"Greifenstein","type":"Kreisangehörige_Gemeinde"},"district":{"key":"06532","name":"Lahn-Dill-Kreis","type":"Landkreis"},"federalState":{"key":"06","name":"Hessen"}},{"name":"Hintergasse","postalCode":"35753","locality":"Greifenstein","municipality":{"key":"06532010","name":"Greifenstein","type":"Kreisangehörige_Gemeinde"},"district":{"key":"06532","name":"Lahn-Dill-Kreis","type":"Landkreis"},"federalState":{"key":"06","name":"Hessen"}},{"name":"Hinterm Brauhaus","postalCode":"35753","locality":"Greifenstein","municipality":{"key":"06532010","name":"Greifenstein","type":"Kreisangehörige_Gemeinde"},"district":{"key":"06532","name":"Lahn-Dill-Kreis","type":"Landkreis"},"federalState":{"key":"06","name":"Hessen"}},{"name":"Historischer Hugenottenwanderweg","postalCode":"35753","locality":"Greifenstein","municipality":{"key":"06532010","name":"Greifenstein","type":"Kreisangehörige_Gemeinde"},"district":{"key":"06532","name":"Lahn-Dill-Kreis","type":"Landkreis"},"federalState":{"key":"06","name":"Hessen"}},{"name":"Historischer Hugenttenwanderweg","postalCode":"35753","locality":"Greifenstein","municipality":{"key":"06532010","name":"Greifenstein","type":"Kreisangehörige_Gemeinde"},"district":{"key":"06532","name":"Lahn-Dill-Kreis","type":"Landkreis"},"federalState":{"key":"06","name":"Hessen"}},{"name":"Hofacker","postalCode":"35753","locality":"Greifenstein","municipality":{"key":"06532010","name":"Greifenstein","type":"Kreisangehörige_Gemeinde"},"district":{"key":"06532","name":"Lahn-Dill-Kreis","type":"Landkreis"},"federalState":{"key":"06","name":"Hessen"}},{"name":"Hohe Str.","postalCode":"35753","locality":"Greifenstein","municipality":{"key":"06532010","name":"Greifenstein","type":"Kreisangehörige_Gemeinde"},"district":{"key":"06532","name":"Lahn-Dill-Kreis","type":"Landkreis"},"federalState":{"key":"06","name":"Hessen"}},{"name":"Hohler Weg","postalCode":"35753","locality":"Greifenstein","municipality":{"key":"06532010","name":"Greifenstein","type":"Kreisangehörige_Gemeinde"},"district":{"key":"06532","name":"Lahn-Dill-Kreis","type":"Landkreis"},"federalState":{"key":"06","name":"Hessen"}},{"name":"Hohlgasse","postalCode":"35753","locality":"Greifenstein","municipality":{"key":"06532010","name":"Greifenstein","type":"Kreisangehörige_Gemeinde"},"district":{"key":"06532","name":"Lahn-Dill-Kreis","type":"Landkreis"},"federalState":{"key":"06","name":"Hessen"}},{"name":"Holzhäuser Str.","postalCode":"35753","locality":"Greifenstein","municipality":{"key":"06532010","name":"Greifenstein","type":"Kreisangehörige_Gemeinde"},"district":{"key":"06532","name":"Lahn-Dill-Kreis","type":"Landkreis"},"federalState":{"key":"06","name":"Hessen"}},{"name":"Hundshof","postalCode":"35753","locality":"Greifenstein","municipality":{"key":"06532010","name":"Greifenstein","type":"Kreisangehörige_Gemeinde"},"district":{"key":"06532","name":"Lahn-Dill-Kreis","type":"Landkreis"},"federalState":{"key":"06","name":"Hessen"}},{"name":"Im Altgarten","postalCode":"35753","locality":"Greifenstein","municipality":{"key":"06532010","name":"Greifenstein","type":"Kreisangehörige_Gemeinde"},"district":{"key":"06532","name":"Lahn-Dill-Kreis","type":"Landkreis"},"federalState":{"key":"06","name":"Hessen"}},{"name":"Im Brühl","postalCode":"35753","locality":"Greifenstein","municipality":{"key":"06532010","name":"Greifenstein","type":"Kreisangehörige_Gemeinde"},"district":{"key":"06532","name":"Lahn-Dill-Kreis","type":"Landkreis"},"federalState":{"key":"06","name":"Hessen"}},{"name":"Im Fahlert","postalCode":"35753","locality":"Greifenstein","municipality":{"key":"06532010","name":"Greifenstein","type":"Kreisangehörige_Gemeinde"},"district":{"key":"06532","name":"Lahn-Dill-Kreis","type":"Landkreis"},"federalState":{"key":"06","name":"Hessen"}},{"name":"Im Hain","postalCode":"35753","locality":"Greifenstein","municipality":{"key":"06532010","name":"Greifenstein","type":"Kreisangehörige_Gemeinde"},"district":{"key":"06532","name":"Lahn-Dill-Kreis","type":"Landkreis"},"federalState":{"key":"06","name":"Hessen"}},{"name":"Im Hainseifen","postalCode":"35753","locality":"Greifenstein","municipality":{"key":"06532010","name":"Greifenstein","type":"Kreisangehörige_Gemeinde"},"district":{"key":"06532","name":"Lahn-Dill-Kreis","type":"Landkreis"},"federalState":{"key":"06","name":"Hessen"}},{"name":"Im Obersten Bienenroth","postalCode":"35753","locality":"Greifenstein","municipality":{"key":"06532010","name":"Greifenstein","type":"Kreisangehörige_Gemeinde"},"district":{"key":"06532","name":"Lahn-Dill-Kreis","type":"Landkreis"},"federalState":{"key":"06","name":"Hessen"}},{"name":"Im Schwarzgarten","postalCode":"35753","locality":"Greifenstein","municipality":{"key":"06532010","name":"Greifenstein","type":"Kreisangehörige_Gemeinde"},"district":{"key":"06532","name":"Lahn-Dill-Kreis","type":"Landkreis"},"federalState":{"key":"06","name":"Hessen"}},{"name":"Im Tripp","postalCode":"35753","locality":"Greifenstein","municipality":{"key":"06532010","name":"Greifenstein","type":"Kreisangehörige_Gemeinde"},"district":{"key":"06532","name":"Lahn-Dill-Kreis","type":"Landkreis"},"federalState":{"key":"06","name":"Hessen"}},{"name":"Im Vogelsang","postalCode":"35753","locality":"Greifenstein","municipality":{"key":"06532010","name":"Greifenstein","type":"Kreisangehörige_Gemeinde"},"district":{"key":"06532","name":"Lahn-Dill-Kreis","type":"Landkreis"},"federalState":{"key":"06","name":"Hessen"}},{"name":"Im Wieschen","postalCode":"35753","locality":"Greifenstein","municipality":{"key":"06532010","name":"Greifenstein","type":"Kreisangehörige_Gemeinde"},"district":{"key":"06532","name":"Lahn-Dill-Kreis","type":"Landkreis"},"federalState":{"key":"06","name":"Hessen"}},{"name":"Im Winkel","postalCode":"35753","locality":"Greifenstein","municipality":{"key":"06532010","name":"Greifenstein","type":"Kreisangehörige_Gemeinde"},"district":{"key":"06532","name":"Lahn-Dill-Kreis","type":"Landkreis"},"federalState":{"key":"06","name":"Hessen"}},{"name":"In den Gärterchen","postalCode":"35753","locality":"Greifenstein","municipality":{"key":"06532010","name":"Greifenstein","type":"Kreisangehörige_Gemeinde"},"district":{"key":"06532","name":"Lahn-Dill-Kreis","type":"Landkreis"},"federalState":{"key":"06","name":"Hessen"}},{"name":"In der Hofeck","postalCode":"35753","locality":"Greifenstein","municipality":{"key":"06532010","name":"Greifenstein","type":"Kreisangehörige_Gemeinde"},"district":{"key":"06532","name":"Lahn-Dill-Kreis","type":"Landkreis"},"federalState":{"key":"06","name":"Hessen"}},{"name":"In der Hohl","postalCode":"35753","locality":"Greifenstein","municipality":{"key":"06532010","name":"Greifenstein","type":"Kreisangehörige_Gemeinde"},"district":{"key":"06532","name":"Lahn-Dill-Kreis","type":"Landkreis"},"federalState":{"key":"06","name":"Hessen"}},{"name":"Johannisburger Weg","postalCode":"35753","locality":"Greifenstein","municipality":{"key":"06532010","name":"Greifenstein","type":"Kreisangehörige_Gemeinde"},"district":{"key":"06532","name":"Lahn-Dill-Kreis","type":"Landkreis"},"federalState":{"key":"06","name":"Hessen"}},{"name":"Kallenbachweg","postalCode":"35753","locality":"Greifenstein","municipality":{"key":"06532010","name":"Greifenstein","type":"Kreisangehörige_Gemeinde"},"district":{"key":"06532","name":"Lahn-Dill-Kreis","type":"Landkreis"},"federalState":{"key":"06","name":"Hessen"}},{"name":"Kastanienweg","postalCode":"35753","locality":"Greifenstein","municipality":{"key":"06532010","name":"Greifenstein","type":"Kreisangehörige_Gemeinde"},"district":{"key":"06532","name":"Lahn-Dill-Kreis","type":"Landkreis"},"federalState":{"key":"06","name":"Hessen"}},{"name":"Katzenfurter Str.","postalCode":"35753","locality":"Greifenstein","municipality":{"key":"06532010","name":"Greifenstein","type":"Kreisangehörige_Gemeinde"},"district":{"key":"06532","name":"Lahn-Dill-Kreis","type":"Landkreis"},"federalState":{"key":"06","name":"Hessen"}},{"name":"Käutchesweg","postalCode":"35753","locality":"Greifenstein","municipality":{"key":"06532010","name":"Greifenstein","type":"Kreisangehörige_Gemeinde"},"district":{"key":"06532","name":"Lahn-Dill-Kreis","type":"Landkreis"},"federalState":{"key":"06","name":"Hessen"}},{"name":"Kirchbodenstr.","postalCode":"35753","locality":"Greifenstein","municipality":{"key":"06532010","name":"Greifenstein","type":"Kreisangehörige_Gemeinde"},"district":{"key":"06532","name":"Lahn-Dill-Kreis","type":"Landkreis"},"federalState":{"key":"06","name":"Hessen"}},{"name":"Kirchstr.","postalCode":"35753","locality":"Greifenstein","municipality":{"key":"06532010","name":"Greifenstein","type":"Kreisangehörige_Gemeinde"},"district":{"key":"06532","name":"Lahn-Dill-Kreis","type":"Landkreis"},"federalState":{"key":"06","name":"Hessen"}},{"name":"Kirchweg","postalCode":"35753","locality":"Greifenstein","municipality":{"key":"06532010","name":"Greifenstein","type":"Kreisangehörige_Gemeinde"},"district":{"key":"06532","name":"Lahn-Dill-Kreis","type":"Landkreis"},"federalState":{"key":"06","name":"Hessen"}},{"name":"Kleine Hub","postalCode":"35753","locality":"Greifenstein","municipality":{"key":"06532010","name":"Greifenstein","type":"Kreisangehörige_Gemeinde"},"district":{"key":"06532","name":"Lahn-Dill-Kreis","type":"Landkreis"},"federalState":{"key":"06","name":"Hessen"}},{"name":"Knotenstr.","postalCode":"35753","locality":"Greifenstein","municipality":{"key":"06532010","name":"Greifenstein","type":"Kreisangehörige_Gemeinde"},"district":{"key":"06532","name":"Lahn-Dill-Kreis","type":"Landkreis"},"federalState":{"key":"06","name":"Hessen"}},{"name":"Korngasse","postalCode":"35753","locality":"Greifenstein","municipality":{"key":"06532010","name":"Greifenstein","type":"Kreisangehörige_Gemeinde"},"district":{"key":"06532","name":"Lahn-Dill-Kreis","type":"Landkreis"},"federalState":{"key":"06","name":"Hessen"}},{"name":"Langer Grund","postalCode":"35753","locality":"Greifenstein","municipality":{"key":"06532010","name":"Greifenstein","type":"Kreisangehörige_Gemeinde"},"district":{"key":"06532","name":"Lahn-Dill-Kreis","type":"Landkreis"},"federalState":{"key":"06","name":"Hessen"}},{"name":"Lenzwies","postalCode":"35753","locality":"Greifenstein","municipality":{"key":"06532010","name":"Greifenstein","type":"Kreisangehörige_Gemeinde"},"district":{"key":"06532","name":"Lahn-Dill-Kreis","type":"Landkreis"},"federalState":{"key":"06","name":"Hessen"}},{"name":"Lerchenweg","postalCode":"35753","locality":"Greifenstein","municipality":{"key":"06532010","name":"Greifenstein","type":"Kreisangehörige_Gemeinde"},"district":{"key":"06532","name":"Lahn-Dill-Kreis","type":"Landkreis"},"federalState":{"key":"06","name":"Hessen"}},{"name":"Lilienweg","postalCode":"35753","locality":"Greifenstein","municipality":{"key":"06532010","name":"Greifenstein","type":"Kreisangehörige_Gemeinde"},"district":{"key":"06532","name":"Lahn-Dill-Kreis","type":"Landkreis"},"federalState":{"key":"06","name":"Hessen"}},{"name":"Lindenstr.","postalCode":"35753","locality":"Greifenstein","municipality":{"key":"06532010","name":"Greifenstein","type":"Kreisangehörige_Gemeinde"},"district":{"key":"06532","name":"Lahn-Dill-Kreis","type":"Landkreis"},"federalState":{"key":"06","name":"Hessen"}},{"name":"Linsegass","postalCode":"35753","locality":"Greifenstein","municipality":{"key":"06532010","name":"Greifenstein","type":"Kreisangehörige_Gemeinde"},"district":{"key":"06532","name":"Lahn-Dill-Kreis","type":"Landkreis"},"federalState":{"key":"06","name":"Hessen"}},{"name":"Lustgarten","postalCode":"35753","locality":"Greifenstein","municipality":{"key":"06532010","name":"Greifenstein","type":"Kreisangehörige_Gemeinde"},"district":{"key":"06532","name":"Lahn-Dill-Kreis","type":"Landkreis"},"federalState":{"key":"06","name":"Hessen"}},{"name":"Meisenweg","postalCode":"35753","locality":"Greifenstein","municipality":{"key":"06532010","name":"Greifenstein","type":"Kreisangehörige_Gemeinde"},"district":{"key":"06532","name":"Lahn-Dill-Kreis","type":"Landkreis"},"federalState":{"key":"06","name":"Hessen"}},{"name":"Mengerskircher Weg","postalCode":"35753","locality":"Greifenstein","municipality":{"key":"06532010","name":"Greifenstein","type":"Kreisangehörige_Gemeinde"},"district":{"key":"06532","name":"Lahn-Dill-Kreis","type":"Landkreis"},"federalState":{"key":"06","name":"Hessen"}},{"name":"Mittelweg","postalCode":"35753","locality":"Greifenstein","municipality":{"key":"06532010","name":"Greifenstein","type":"Kreisangehörige_Gemeinde"},"district":{"key":"06532","name":"Lahn-Dill-Kreis","type":"Landkreis"},"federalState":{"key":"06","name":"Hessen"}},{"name":"Mittlerer Weg","postalCode":"35753","locality":"Greifenstein","municipality":{"key":"06532010","name":"Greifenstein","type":"Kreisangehörige_Gemeinde"},"district":{"key":"06532","name":"Lahn-Dill-Kreis","type":"Landkreis"},"federalState":{"key":"06","name":"Hessen"}},{"name":"Mühlenweg","postalCode":"35753","locality":"Greifenstein","municipality":{"key":"06532010","name":"Greifenstein","type":"Kreisangehörige_Gemeinde"},"district":{"key":"06532","name":"Lahn-Dill-Kreis","type":"Landkreis"},"federalState":{"key":"06","name":"Hessen"}},{"name":"Münchbornstr.","postalCode":"35753","locality":"Greifenstein","municipality":{"key":"06532010","name":"Greifenstein","type":"Kreisangehörige_Gemeinde"},"district":{"key":"06532","name":"Lahn-Dill-Kreis","type":"Landkreis"},"federalState":{"key":"06","name":"Hessen"}},{"name":"Nelkenstr.","postalCode":"35753","locality":"Greifenstein","municipality":{"key":"06532010","name":"Greifenstein","type":"Kreisangehörige_Gemeinde"},"district":{"key":"06532","name":"Lahn-Dill-Kreis","type":"Landkreis"},"federalState":{"key":"06","name":"Hessen"}},{"name":"Nillkopfweg","postalCode":"35753","locality":"Greifenstein","municipality":{"key":"06532010","name":"Greifenstein","type":"Kreisangehörige_Gemeinde"},"district":{"key":"06532","name":"Lahn-Dill-Kreis","type":"Landkreis"},"federalState":{"key":"06","name":"Hessen"}},{"name":"Oberer Weg","postalCode":"35753","locality":"Greifenstein","municipality":{"key":"06532010","name":"Greifenstein","type":"Kreisangehörige_Gemeinde"},"district":{"key":"06532","name":"Lahn-Dill-Kreis","type":"Landkreis"},"federalState":{"key":"06","name":"Hessen"}},{"name":"Obergasse","postalCode":"35753","locality":"Greifenstein","municipality":{"key":"06532010","name":"Greifenstein","type":"Kreisangehörige_Gemeinde"},"district":{"key":"06532","name":"Lahn-Dill-Kreis","type":"Landkreis"},"federalState":{"key":"06","name":"Hessen"}},{"name":"Ochsenstruth","postalCode":"35753","locality":"Greifenstein","municipality":{"key":"06532010","name":"Greifenstein","type":"Kreisangehörige_Gemeinde"},"district":{"key":"06532","name":"Lahn-Dill-Kreis","type":"Landkreis"},"federalState":{"key":"06","name":"Hessen"}},{"name":"Ortsumgehung Holzhausen","postalCode":"35753","locality":"Greifenstein","municipality":{"key":"06532010","name":"Greifenstein","type":"Kreisangehörige_Gemeinde"},"district":{"key":"06532","name":"Lahn-Dill-Kreis","type":"Landkreis"},"federalState":{"key":"06","name":"Hessen"}},{"name":"Philippsweg","postalCode":"35753","locality":"Greifenstein","municipality":{"key":"06532010","name":"Greifenstein","type":"Kreisangehörige_Gemeinde"},"district":{"key":"06532","name":"Lahn-Dill-Kreis","type":"Landkreis"},"federalState":{"key":"06","name":"Hessen"}},{"name":"Rathausstr.","postalCode":"35753","locality":"Greifenstein","municipality":{"key":"06532010","name":"Greifenstein","type":"Kreisangehörige_Gemeinde"},"district":{"key":"06532","name":"Lahn-Dill-Kreis","type":"Landkreis"},"federalState":{"key":"06","name":"Hessen"}},{"name":"Reitzenstruth","postalCode":"35753","locality":"Greifenstein","municipality":{"key":"06532010","name":"Greifenstein","type":"Kreisangehörige_Gemeinde"},"district":{"key":"06532","name":"Lahn-Dill-Kreis","type":"Landkreis"},"federalState":{"key":"06","name":"Hessen"}},{"name":"Ringstr.","postalCode":"35753","locality":"Greifenstein","municipality":{"key":"06532010","name":"Greifenstein","type":"Kreisangehörige_Gemeinde"},"district":{"key":"06532","name":"Lahn-Dill-Kreis","type":"Landkreis"},"federalState":{"key":"06","name":"Hessen"}},{"name":"Rosengarten","postalCode":"35753","locality":"Greifenstein","municipality":{"key":"06532010","name":"Greifenstein","type":"Kreisangehörige_Gemeinde"},"district":{"key":"06532","name":"Lahn-Dill-Kreis","type":"Landkreis"},"federalState":{"key":"06","name":"Hessen"}},{"name":"Rosenstr.","postalCode":"35753","locality":"Greifenstein","municipality":{"key":"06532010","name":"Greifenstein","type":"Kreisangehörige_Gemeinde"},"district":{"key":"06532","name":"Lahn-Dill-Kreis","type":"Landkreis"},"federalState":{"key":"06","name":"Hessen"}},{"name":"Schieferkaut","postalCode":"35753","locality":"Greifenstein","municipality":{"key":"06532010","name":"Greifenstein","type":"Kreisangehörige_Gemeinde"},"district":{"key":"06532","name":"Lahn-Dill-Kreis","type":"Landkreis"},"federalState":{"key":"06","name":"Hessen"}},{"name":"Schlagwiese","postalCode":"35753","locality":"Greifenstein","municipality":{"key":"06532010","name":"Greifenstein","type":"Kreisangehörige_Gemeinde"},"district":{"key":"06532","name":"Lahn-Dill-Kreis","type":"Landkreis"},"federalState":{"key":"06","name":"Hessen"}},{"name":"Schloßstr.","postalCode":"35753","locality":"Greifenstein","municipality":{"key":"06532010","name":"Greifenstein","type":"Kreisangehörige_Gemeinde"},"district":{"key":"06532","name":"Lahn-Dill-Kreis","type":"Landkreis"},"federalState":{"key":"06","name":"Hessen"}},{"name":"Schmiedegasse","postalCode":"35753","locality":"Greifenstein","municipality":{"key":"06532010","name":"Greifenstein","type":"Kreisangehörige_Gemeinde"},"district":{"key":"06532","name":"Lahn-Dill-Kreis","type":"Landkreis"},"federalState":{"key":"06","name":"Hessen"}},{"name":"Schöne Aussicht","postalCode":"35753","locality":"Greifenstein","municipality":{"key":"06532010","name":"Greifenstein","type":"Kreisangehörige_Gemeinde"},"district":{"key":"06532","name":"Lahn-Dill-Kreis","type":"Landkreis"},"federalState":{"key":"06","name":"Hessen"}},{"name":"Schönhäuser Str.","postalCode":"35753","locality":"Greifenstein","municipality":{"key":"06532010","name":"Greifenstein","type":"Kreisangehörige_Gemeinde"},"district":{"key":"06532","name":"Lahn-Dill-Kreis","type":"Landkreis"},"federalState":{"key":"06","name":"Hessen"}},{"name":"Schulberg","postalCode":"35753","locality":"Greifenstein","municipality":{"key":"06532010","name":"Greifenstein","type":"Kreisangehörige_Gemeinde"},"district":{"key":"06532","name":"Lahn-Dill-Kreis","type":"Landkreis"},"federalState":{"key":"06","name":"Hessen"}},{"name":"Schulgasse","postalCode":"35753","locality":"Greifenstein","municipality":{"key":"06532010","name":"Greifenstein","type":"Kreisangehörige_Gemeinde"},"district":{"key":"06532","name":"Lahn-Dill-Kreis","type":"Landkreis"},"federalState":{"key":"06","name":"Hessen"}},{"name":"Schulstr.","postalCode":"35753","locality":"Greifenstein","municipality":{"key":"06532010","name":"Greifenstein","type":"Kreisangehörige_Gemeinde"},"district":{"key":"06532","name":"Lahn-Dill-Kreis","type":"Landkreis"},"federalState":{"key":"06","name":"Hessen"}},{"name":"Siedlerstr.","postalCode":"35753","locality":"Greifenstein","municipality":{"key":"06532010","name":"Greifenstein","type":"Kreisangehörige_Gemeinde"},"district":{"key":"06532","name":"Lahn-Dill-Kreis","type":"Landkreis"},"federalState":{"key":"06","name":"Hessen"}},{"name":"Skulpturenweg","postalCode":"35753","locality":"Greifenstein","municipality":{"key":"06532010","name":"Greifenstein","type":"Kreisangehörige_Gemeinde"},"district":{"key":"06532","name":"Lahn-Dill-Kreis","type":"Landkreis"},"federalState":{"key":"06","name":"Hessen"}},{"name":"Sohlweg","postalCode":"35753","locality":"Greifenstein","municipality":{"key":"06532010","name":"Greifenstein","type":"Kreisangehörige_Gemeinde"},"district":{"key":"06532","name":"Lahn-Dill-Kreis","type":"Landkreis"},"federalState":{"key":"06","name":"Hessen"}},{"name":"Sonnenstr.","postalCode":"35753","locality":"Greifenstein","municipality":{"key":"06532010","name":"Greifenstein","type":"Kreisangehörige_Gemeinde"},"district":{"key":"06532","name":"Lahn-Dill-Kreis","type":"Landkreis"},"federalState":{"key":"06","name":"Hessen"}},{"name":"Sonnenweg","postalCode":"35753","locality":"Greifenstein","municipality":{"key":"06532010","name":"Greifenstein","type":"Kreisangehörige_Gemeinde"},"district":{"key":"06532","name":"Lahn-Dill-Kreis","type":"Landkreis"},"federalState":{"key":"06","name":"Hessen"}},{"name":"Sportplatzstr.","postalCode":"35753","locality":"Greifenstein","municipality":{"key":"06532010","name":"Greifenstein","type":"Kreisangehörige_Gemeinde"},"district":{"key":"06532","name":"Lahn-Dill-Kreis","type":"Landkreis"},"federalState":{"key":"06","name":"Hessen"}},{"name":"Steinkauter Weg","postalCode":"35753","locality":"Greifenstein","municipality":{"key":"06532010","name":"Greifenstein","type":"Kreisangehörige_Gemeinde"},"district":{"key":"06532","name":"Lahn-Dill-Kreis","type":"Landkreis"},"federalState":{"key":"06","name":"Hessen"}},{"name":"Steinklepper Weg","postalCode":"35753","locality":"Greifenstein","municipality":{"key":"06532010","name":"Greifenstein","type":"Kreisangehörige_Gemeinde"},"district":{"key":"06532","name":"Lahn-Dill-Kreis","type":"Landkreis"},"federalState":{"key":"06","name":"Hessen"}},{"name":"Steinmal","postalCode":"35753","locality":"Greifenstein","municipality":{"key":"06532010","name":"Greifenstein","type":"Kreisangehörige_Gemeinde"},"district":{"key":"06532","name":"Lahn-Dill-Kreis","type":"Landkreis"},"federalState":{"key":"06","name":"Hessen"}},{"name":"Stricher Weg","postalCode":"35753","locality":"Greifenstein","municipality":{"key":"06532010","name":"Greifenstein","type":"Kreisangehörige_Gemeinde"},"district":{"key":"06532","name":"Lahn-Dill-Kreis","type":"Landkreis"},"federalState":{"key":"06","name":"Hessen"}},{"name":"Talblick","postalCode":"35753","locality":"Greifenstein","municipality":{"key":"06532010","name":"Greifenstein","type":"Kreisangehörige_Gemeinde"},"district":{"key":"06532","name":"Lahn-Dill-Kreis","type":"Landkreis"},"federalState":{"key":"06","name":"Hessen"}},{"name":"Talstr.","postalCode":"35753","locality":"Greifenstein","municipality":{"key":"06532010","name":"Greifenstein","type":"Kreisangehörige_Gemeinde"},"district":{"key":"06532","name":"Lahn-Dill-Kreis","type":"Landkreis"},"federalState":{"key":"06","name":"Hessen"}},{"name":"Taunusblick","postalCode":"35753","locality":"Greifenstein","municipality":{"key":"06532010","name":"Greifenstein","type":"Kreisangehörige_Gemeinde"},"district":{"key":"06532","name":"Lahn-Dill-Kreis","type":"Landkreis"},"federalState":{"key":"06","name":"Hessen"}},{"name":"Taunusstr.","postalCode":"35753","locality":"Greifenstein","municipality":{"key":"06532010","name":"Greifenstein","type":"Kreisangehörige_Gemeinde"},"district":{"key":"06532","name":"Lahn-Dill-Kreis","type":"Landkreis"},"federalState":{"key":"06","name":"Hessen"}},{"name":"Ulmbachstr.","postalCode":"35753","locality":"Greifenstein","municipality":{"key":"06532010","name":"Greifenstein","type":"Kreisangehörige_Gemeinde"},"district":{"key":"06532","name":"Lahn-Dill-Kreis","type":"Landkreis"},"federalState":{"key":"06","name":"Hessen"}},{"name":"Ulmer Str.","postalCode":"35753","locality":"Greifenstein","municipality":{"key":"06532010","name":"Greifenstein","type":"Kreisangehörige_Gemeinde"},"district":{"key":"06532","name":"Lahn-Dill-Kreis","type":"Landkreis"},"federalState":{"key":"06","name":"Hessen"}},{"name":"Ulmtalstr.","postalCode":"35753","locality":"Greifenstein","municipality":{"key":"06532010","name":"Greifenstein","type":"Kreisangehörige_Gemeinde"},"district":{"key":"06532","name":"Lahn-Dill-Kreis","type":"Landkreis"},"federalState":{"key":"06","name":"Hessen"}},{"name":"Unterer Weg","postalCode":"35753","locality":"Greifenstein","municipality":{"key":"06532010","name":"Greifenstein","type":"Kreisangehörige_Gemeinde"},"district":{"key":"06532","name":"Lahn-Dill-Kreis","type":"Landkreis"},"federalState":{"key":"06","name":"Hessen"}},{"name":"Untergasse","postalCode":"35753","locality":"Greifenstein","municipality":{"key":"06532010","name":"Greifenstein","type":"Kreisangehörige_Gemeinde"},"district":{"key":"06532","name":"Lahn-Dill-Kreis","type":"Landkreis"},"federalState":{"key":"06","name":"Hessen"}},{"name":"Voglersheck","postalCode":"35753","locality":"Greifenstein","municipality":{"key":"06532010","name":"Greifenstein","type":"Kreisangehörige_Gemeinde"},"district":{"key":"06532","name":"Lahn-Dill-Kreis","type":"Landkreis"},"federalState":{"key":"06","name":"Hessen"}},{"name":"Vor der Buchschirm","postalCode":"35753","locality":"Greifenstein","municipality":{"key":"06532010","name":"Greifenstein","type":"Kreisangehörige_Gemeinde"},"district":{"key":"06532","name":"Lahn-Dill-Kreis","type":"Landkreis"},"federalState":{"key":"06","name":"Hessen"}},{"name":"Vorm Endstor","postalCode":"35753","locality":"Greifenstein","municipality":{"key":"06532010","name":"Greifenstein","type":"Kreisangehörige_Gemeinde"},"district":{"key":"06532","name":"Lahn-Dill-Kreis","type":"Landkreis"},"federalState":{"key":"06","name":"Hessen"}},{"name":"Waldstr.","postalCode":"35753","locality":"Greifenstein","municipality":{"key":"06532010","name":"Greifenstein","type":"Kreisangehörige_Gemeinde"},"district":{"key":"06532","name":"Lahn-Dill-Kreis","type":"Landkreis"},"federalState":{"key":"06","name":"Hessen"}},{"name":"Wallendorf","postalCode":"35753","locality":"Greifenstein","municipality":{"key":"06532010","name":"Greifenstein","type":"Kreisangehörige_Gemeinde"},"district":{"key":"06532","name":"Lahn-Dill-Kreis","type":"Landkreis"},"federalState":{"key":"06","name":"Hessen"}},{"name":"Weierwies","postalCode":"35753","locality":"Greifenstein","municipality":{"key":"06532010","name":"Greifenstein","type":"Kreisangehörige_Gemeinde"},"district":{"key":"06532","name":"Lahn-Dill-Kreis","type":"Landkreis"},"federalState":{"key":"06","name":"Hessen"}},{"name":"Weiherstr.","postalCode":"35753","locality":"Greifenstein","municipality":{"key":"06532010","name":"Greifenstein","type":"Kreisangehörige_Gemeinde"},"district":{"key":"06532","name":"Lahn-Dill-Kreis","type":"Landkreis"},"federalState":{"key":"06","name":"Hessen"}},{"name":"Weilburger Str.","postalCode":"35753","locality":"Greifenstein","municipality":{"key":"06532010","name":"Greifenstein","type":"Kreisangehörige_Gemeinde"},"district":{"key":"06532","name":"Lahn-Dill-Kreis","type":"Landkreis"},"federalState":{"key":"06","name":"Hessen"}},{"name":"Westendstr.","postalCode":"35753","locality":"Greifenstein","municipality":{"key":"06532010","name":"Greifenstein","type":"Kreisangehörige_Gemeinde"},"district":{"key":"06532","name":"Lahn-Dill-Kreis","type":"Landkreis"},"federalState":{"key":"06","name":"Hessen"}},{"name":"Westerwaldstr.","postalCode":"35753","locality":"Greifenstein","municipality":{"key":"06532010","name":"Greifenstein","type":"Kreisangehörige_Gemeinde"},"district":{"key":"06532","name":"Lahn-Dill-Kreis","type":"Landkreis"},"federalState":{"key":"06","name":"Hessen"}},{"name":"Wetzlarer Str.","postalCode":"35753","locality":"Greifenstein","municipality":{"key":"06532010","name":"Greifenstein","type":"Kreisangehörige_Gemeinde"},"district":{"key":"06532","name":"Lahn-Dill-Kreis","type":"Landkreis"},"federalState":{"key":"06","name":"Hessen"}},{"name":"Wiesenstr.","postalCode":"35753","locality":"Greifenstein","municipality":{"key":"06532010","name":"Greifenstein","type":"Kreisangehörige_Gemeinde"},"district":{"key":"06532","name":"Lahn-Dill-Kreis","type":"Landkreis"},"federalState":{"key":"06","name":"Hessen"}},{"name":"Zum Eichholz","postalCode":"35753","locality":"Greifenstein","municipality":{"key":"06532010","name":"Greifenstein","type":"Kreisangehörige_Gemeinde"},"district":{"key":"06532","name":"Lahn-Dill-Kreis","type":"Landkreis"},"federalState":{"key":"06","name":"Hessen"}},{"name":"Zum Grünacker","postalCode":"35753","locality":"Greifenstein","municipality":{"key":"06532010","name":"Greifenstein","type":"Kreisangehörige_Gemeinde"},"district":{"key":"06532","name":"Lahn-Dill-Kreis","type":"Landkreis"},"federalState":{"key":"06","name":"Hessen"}},{"name":"Zum Haag","postalCode":"35753","locality":"Greifenstein","municipality":{"key":"06532010","name":"Greifenstein","type":"Kreisangehörige_Gemeinde"},"district":{"key":"06532","name":"Lahn-Dill-Kreis","type":"Landkreis"},"federalState":{"key":"06","name":"Hessen"}},{"name":"Zum Köppelchen","postalCode":"35753","locality":"Greifenstein","municipality":{"key":"06532010","name":"Greifenstein","type":"Kreisangehörige_Gemeinde"},"district":{"key":"06532","name":"Lahn-Dill-Kreis","type":"Landkreis"},"federalState":{"key":"06","name":"Hessen"}},{"name":"Zum Rasenberg","postalCode":"35753","locality":"Greifenstein","municipality":{"key":"06532010","name":"Greifenstein","type":"Kreisangehörige_Gemeinde"},"district":{"key":"06532","name":"Lahn-Dill-Kreis","type":"Landkreis"},"federalState":{"key":"06","name":"Hessen"}},{"name":"Zum Runddielchen","postalCode":"35753","locality":"Greifenstein","municipality":{"key":"06532010","name":"Greifenstein","type":"Kreisangehörige_Gemeinde"},"district":{"key":"06532","name":"Lahn-Dill-Kreis","type":"Landkreis"},"federalState":{"key":"06","name":"Hessen"}},{"name":"Zum Scheid","postalCode":"35753","locality":"Greifenstein","municipality":{"key":"06532010","name":"Greifenstein","type":"Kreisangehörige_Gemeinde"},"district":{"key":"06532","name":"Lahn-Dill-Kreis","type":"Landkreis"},"federalState":{"key":"06","name":"Hessen"}},{"name":"Zum Steimel","postalCode":"35753","locality":"Greifenstein","municipality":{"key":"06532010","name":"Greifenstein","type":"Kreisangehörige_Gemeinde"},"district":{"key":"06532","name":"Lahn-Dill-Kreis","type":"Landkreis"},"federalState":{"key":"06","name":"Hessen"}},{"name":"Zum Wingert","postalCode":"35753","locality":"Greifenstein","municipality":{"key":"06532010","name":"Greifenstein","type":"Kreisangehörige_Gemeinde"},"district":{"key":"06532","name":"Lahn-Dill-Kreis","type":"Landkreis"},"federalState":{"key":"06","name":"Hessen"}},{"name":"Zur Bollerbrücke","postalCode":"35753","locality":"Greifenstein","municipality":{"key":"06532010","name":"Greifenstein","type":"Kreisangehörige_Gemeinde"},"district":{"key":"06532","name":"Lahn-Dill-Kreis","type":"Landkreis"},"federalState":{"key":"06","name":"Hessen"}},{"name":"Zur Bruchwiese","postalCode":"35753","locality":"Greifenstein","municipality":{"key":"06532010","name":"Greifenstein","type":"Kreisangehörige_Gemeinde"},"district":{"key":"06532","name":"Lahn-Dill-Kreis","type":"Landkreis"},"federalState":{"key":"06","name":"Hessen"}},{"name":"Zur Finkenhecke","postalCode":"35753","locality":"Greifenstein","municipality":{"key":"06532010","name":"Greifenstein","type":"Kreisangehörige_Gemeinde"},"district":{"key":"06532","name":"Lahn-Dill-Kreis","type":"Landkreis"},"federalState":{"key":"06","name":"Hessen"}},{"name":"Zur Friedolinsheck","postalCode":"35753","locality":"Greifenstein","municipality":{"key":"06532010","name":"Greifenstein","type":"Kreisangehörige_Gemeinde"},"district":{"key":"06532","name":"Lahn-Dill-Kreis","type":"Landkreis"},"federalState":{"key":"06","name":"Hessen"}},{"name":"Zur Schmalburg","postalCode":"35753","locality":"Greifenstein","municipality":{"key":"06532010","name":"Greifenstein","type":"Kreisangehörige_Gemeinde"},"district":{"key":"06532","name":"Lahn-Dill-Kreis","type":"Landkreis"},"federalState":{"key":"06","name":"Hessen"}},{"name":"Überschaar","postalCode":"35753","locality":"Greifenstein","municipality":{"key":"06532010","name":"Greifenstein","type":"Kreisangehörige_Gemeinde"},"district":{"key":"06532","name":"Lahn-Dill-Kreis","type":"Landkreis"},"federalState":{"key":"06","name":"Hessen"}},]