[{"name":"Ackerweg","postalCode":"73054","locality":"Eislingen/Fils","municipality":{"key":"08117019","name":"Eislingen/Fils, Stadt","type":"Große_Kreisstadt"},"district":{"key":"08117","name":"Göppingen","type":"Landkreis"},"federalState":{"key":"08","name":"Baden-Württemberg"}},{"name":"Adlerstr.","postalCode":"73054","locality":"Eislingen/Fils","municipality":{"key":"08117019","name":"Eislingen/Fils, Stadt","type":"Große_Kreisstadt"},"district":{"key":"08117","name":"Göppingen","type":"Landkreis"},"federalState":{"key":"08","name":"Baden-Württemberg"}},{"name":"Ahornstr.","postalCode":"73054","locality":"Eislingen/Fils","municipality":{"key":"08117019","name":"Eislingen/Fils, Stadt","type":"Große_Kreisstadt"},"district":{"key":"08117","name":"Göppingen","type":"Landkreis"},"federalState":{"key":"08","name":"Baden-Württemberg"}},{"name":"Albertstr.","postalCode":"73054","locality":"Eislingen/Fils","municipality":{"key":"08117019","name":"Eislingen/Fils, Stadt","type":"Große_Kreisstadt"},"district":{"key":"08117","name":"Göppingen","type":"Landkreis"},"federalState":{"key":"08","name":"Baden-Württemberg"}},{"name":"Albstr.","postalCode":"73054","locality":"Eislingen/Fils","municipality":{"key":"08117019","name":"Eislingen/Fils, Stadt","type":"Große_Kreisstadt"},"district":{"key":"08117","name":"Göppingen","type":"Landkreis"},"federalState":{"key":"08","name":"Baden-Württemberg"}},{"name":"Alexanderstr.","postalCode":"73054","locality":"Eislingen/Fils","municipality":{"key":"08117019","name":"Eislingen/Fils, Stadt","type":"Große_Kreisstadt"},"district":{"key":"08117","name":"Göppingen","type":"Landkreis"},"federalState":{"key":"08","name":"Baden-Württemberg"}},{"name":"Am Aubachgraben","postalCode":"73054","locality":"Eislingen/Fils","municipality":{"key":"08117019","name":"Eislingen/Fils, Stadt","type":"Große_Kreisstadt"},"district":{"key":"08117","name":"Göppingen","type":"Landkreis"},"federalState":{"key":"08","name":"Baden-Württemberg"}},{"name":"Am Eschenbach","postalCode":"73054","locality":"Eislingen/Fils","municipality":{"key":"08117019","name":"Eislingen/Fils, Stadt","type":"Große_Kreisstadt"},"district":{"key":"08117","name":"Göppingen","type":"Landkreis"},"federalState":{"key":"08","name":"Baden-Württemberg"}},{"name":"Am Feldkreuz","postalCode":"73054","locality":"Eislingen/Fils","municipality":{"key":"08117019","name":"Eislingen/Fils, Stadt","type":"Große_Kreisstadt"},"district":{"key":"08117","name":"Göppingen","type":"Landkreis"},"federalState":{"key":"08","name":"Baden-Württemberg"}},{"name":"Am Galgenberg","postalCode":"73037","locality":"Eislingen/Fils","municipality":{"key":"08117019","name":"Eislingen/Fils, Stadt","type":"Große_Kreisstadt"},"district":{"key":"08117","name":"Göppingen","type":"Landkreis"},"federalState":{"key":"08","name":"Baden-Württemberg"}},{"name":"Am Mühlkanal","postalCode":"73054","locality":"Eislingen/Fils","municipality":{"key":"08117019","name":"Eislingen/Fils, Stadt","type":"Große_Kreisstadt"},"district":{"key":"08117","name":"Göppingen","type":"Landkreis"},"federalState":{"key":"08","name":"Baden-Württemberg"}},{"name":"Am Sängerheim","postalCode":"73054","locality":"Eislingen/Fils","municipality":{"key":"08117019","name":"Eislingen/Fils, Stadt","type":"Große_Kreisstadt"},"district":{"key":"08117","name":"Göppingen","type":"Landkreis"},"federalState":{"key":"08","name":"Baden-Württemberg"}},{"name":"Amselweg","postalCode":"73054","locality":"Eislingen/Fils","municipality":{"key":"08117019","name":"Eislingen/Fils, Stadt","type":"Große_Kreisstadt"},"district":{"key":"08117","name":"Göppingen","type":"Landkreis"},"federalState":{"key":"08","name":"Baden-Württemberg"}},{"name":"Arndtstr.","postalCode":"73054","locality":"Eislingen/Fils","municipality":{"key":"08117019","name":"Eislingen/Fils, Stadt","type":"Große_Kreisstadt"},"district":{"key":"08117","name":"Göppingen","type":"Landkreis"},"federalState":{"key":"08","name":"Baden-Württemberg"}},{"name":"Auf der Ebene","postalCode":"73054","locality":"Eislingen/Fils","municipality":{"key":"08117019","name":"Eislingen/Fils, Stadt","type":"Große_Kreisstadt"},"district":{"key":"08117","name":"Göppingen","type":"Landkreis"},"federalState":{"key":"08","name":"Baden-Württemberg"}},{"name":"Bachstr.","postalCode":"73054","locality":"Eislingen/Fils","municipality":{"key":"08117019","name":"Eislingen/Fils, Stadt","type":"Große_Kreisstadt"},"district":{"key":"08117","name":"Göppingen","type":"Landkreis"},"federalState":{"key":"08","name":"Baden-Württemberg"}},{"name":"Bahnhofstr.","postalCode":"73054","locality":"Eislingen/Fils","municipality":{"key":"08117019","name":"Eislingen/Fils, Stadt","type":"Große_Kreisstadt"},"district":{"key":"08117","name":"Göppingen","type":"Landkreis"},"federalState":{"key":"08","name":"Baden-Württemberg"}},{"name":"Bärenbachweg","postalCode":"73054","locality":"Eislingen/Fils","municipality":{"key":"08117019","name":"Eislingen/Fils, Stadt","type":"Große_Kreisstadt"},"district":{"key":"08117","name":"Göppingen","type":"Landkreis"},"federalState":{"key":"08","name":"Baden-Württemberg"}},{"name":"Beethovenstr.","postalCode":"73054","locality":"Eislingen/Fils","municipality":{"key":"08117019","name":"Eislingen/Fils, Stadt","type":"Große_Kreisstadt"},"district":{"key":"08117","name":"Göppingen","type":"Landkreis"},"federalState":{"key":"08","name":"Baden-Württemberg"}},{"name":"Beltstr.","postalCode":"73054","locality":"Eislingen/Fils","municipality":{"key":"08117019","name":"Eislingen/Fils, Stadt","type":"Große_Kreisstadt"},"district":{"key":"08117","name":"Göppingen","type":"Landkreis"},"federalState":{"key":"08","name":"Baden-Württemberg"}},{"name":"Benzstr.","postalCode":"73054","locality":"Eislingen/Fils","municipality":{"key":"08117019","name":"Eislingen/Fils, Stadt","type":"Große_Kreisstadt"},"district":{"key":"08117","name":"Göppingen","type":"Landkreis"},"federalState":{"key":"08","name":"Baden-Württemberg"}},{"name":"Bergstr.","postalCode":"73054","locality":"Eislingen/Fils","municipality":{"key":"08117019","name":"Eislingen/Fils, Stadt","type":"Große_Kreisstadt"},"district":{"key":"08117","name":"Göppingen","type":"Landkreis"},"federalState":{"key":"08","name":"Baden-Württemberg"}},{"name":"Beundstr.","postalCode":"73054","locality":"Eislingen/Fils","municipality":{"key":"08117019","name":"Eislingen/Fils, Stadt","type":"Große_Kreisstadt"},"district":{"key":"08117","name":"Göppingen","type":"Landkreis"},"federalState":{"key":"08","name":"Baden-Württemberg"}},{"name":"Birkenstr.","postalCode":"73054","locality":"Eislingen/Fils","municipality":{"key":"08117019","name":"Eislingen/Fils, Stadt","type":"Große_Kreisstadt"},"district":{"key":"08117","name":"Göppingen","type":"Landkreis"},"federalState":{"key":"08","name":"Baden-Württemberg"}},{"name":"Bismarckstr.","postalCode":"73054","locality":"Eislingen/Fils","municipality":{"key":"08117019","name":"Eislingen/Fils, Stadt","type":"Große_Kreisstadt"},"district":{"key":"08117","name":"Göppingen","type":"Landkreis"},"federalState":{"key":"08","name":"Baden-Württemberg"}},{"name":"Blumhardtstr.","postalCode":"73054","locality":"Eislingen/Fils","municipality":{"key":"08117019","name":"Eislingen/Fils, Stadt","type":"Große_Kreisstadt"},"district":{"key":"08117","name":"Göppingen","type":"Landkreis"},"federalState":{"key":"08","name":"Baden-Württemberg"}},{"name":"Bodelschwinghstr.","postalCode":"73054","locality":"Eislingen/Fils","municipality":{"key":"08117019","name":"Eislingen/Fils, Stadt","type":"Große_Kreisstadt"},"district":{"key":"08117","name":"Göppingen","type":"Landkreis"},"federalState":{"key":"08","name":"Baden-Württemberg"}},{"name":"Boßlerweg","postalCode":"73054","locality":"Eislingen/Fils","municipality":{"key":"08117019","name":"Eislingen/Fils, Stadt","type":"Große_Kreisstadt"},"district":{"key":"08117","name":"Göppingen","type":"Landkreis"},"federalState":{"key":"08","name":"Baden-Württemberg"}},{"name":"Brahmsweg","postalCode":"73054","locality":"Eislingen/Fils","municipality":{"key":"08117019","name":"Eislingen/Fils, Stadt","type":"Große_Kreisstadt"},"district":{"key":"08117","name":"Göppingen","type":"Landkreis"},"federalState":{"key":"08","name":"Baden-Württemberg"}},{"name":"Braunweg","postalCode":"73054","locality":"Eislingen/Fils","municipality":{"key":"08117019","name":"Eislingen/Fils, Stadt","type":"Große_Kreisstadt"},"district":{"key":"08117","name":"Göppingen","type":"Landkreis"},"federalState":{"key":"08","name":"Baden-Württemberg"}},{"name":"Breitinger-Weg","postalCode":"73054","locality":"Eislingen/Fils","municipality":{"key":"08117019","name":"Eislingen/Fils, Stadt","type":"Große_Kreisstadt"},"district":{"key":"08117","name":"Göppingen","type":"Landkreis"},"federalState":{"key":"08","name":"Baden-Württemberg"}},{"name":"Breslauer Str.","postalCode":"73054","locality":"Eislingen/Fils","municipality":{"key":"08117019","name":"Eislingen/Fils, Stadt","type":"Große_Kreisstadt"},"district":{"key":"08117","name":"Göppingen","type":"Landkreis"},"federalState":{"key":"08","name":"Baden-Württemberg"}},{"name":"Brückenstr.","postalCode":"73054","locality":"Eislingen/Fils","municipality":{"key":"08117019","name":"Eislingen/Fils, Stadt","type":"Große_Kreisstadt"},"district":{"key":"08117","name":"Göppingen","type":"Landkreis"},"federalState":{"key":"08","name":"Baden-Württemberg"}},{"name":"Brucknerstr.","postalCode":"73054","locality":"Eislingen/Fils","municipality":{"key":"08117019","name":"Eislingen/Fils, Stadt","type":"Große_Kreisstadt"},"district":{"key":"08117","name":"Göppingen","type":"Landkreis"},"federalState":{"key":"08","name":"Baden-Württemberg"}},{"name":"Brühlbachweg","postalCode":"73054","locality":"Eislingen/Fils","municipality":{"key":"08117019","name":"Eislingen/Fils, Stadt","type":"Große_Kreisstadt"},"district":{"key":"08117","name":"Göppingen","type":"Landkreis"},"federalState":{"key":"08","name":"Baden-Württemberg"}},{"name":"Brühlstr.","postalCode":"73054","locality":"Eislingen/Fils","municipality":{"key":"08117019","name":"Eislingen/Fils, Stadt","type":"Große_Kreisstadt"},"district":{"key":"08117","name":"Göppingen","type":"Landkreis"},"federalState":{"key":"08","name":"Baden-Württemberg"}},{"name":"Brunnenäckerweg","postalCode":"73054","locality":"Eislingen/Fils","municipality":{"key":"08117019","name":"Eislingen/Fils, Stadt","type":"Große_Kreisstadt"},"district":{"key":"08117","name":"Göppingen","type":"Landkreis"},"federalState":{"key":"08","name":"Baden-Württemberg"}},{"name":"Brunnenweiler","postalCode":"73054","locality":"Eislingen/Fils","municipality":{"key":"08117019","name":"Eislingen/Fils, Stadt","type":"Große_Kreisstadt"},"district":{"key":"08117","name":"Göppingen","type":"Landkreis"},"federalState":{"key":"08","name":"Baden-Württemberg"}},{"name":"Brunnenweilerstr.","postalCode":"73054","locality":"Eislingen/Fils","municipality":{"key":"08117019","name":"Eislingen/Fils, Stadt","type":"Große_Kreisstadt"},"district":{"key":"08117","name":"Göppingen","type":"Landkreis"},"federalState":{"key":"08","name":"Baden-Württemberg"}},{"name":"Buchrainweg","postalCode":"73054","locality":"Eislingen/Fils","municipality":{"key":"08117019","name":"Eislingen/Fils, Stadt","type":"Große_Kreisstadt"},"district":{"key":"08117","name":"Göppingen","type":"Landkreis"},"federalState":{"key":"08","name":"Baden-Württemberg"}},{"name":"Bühlweg","postalCode":"73054","locality":"Eislingen/Fils","municipality":{"key":"08117019","name":"Eislingen/Fils, Stadt","type":"Große_Kreisstadt"},"district":{"key":"08117","name":"Göppingen","type":"Landkreis"},"federalState":{"key":"08","name":"Baden-Württemberg"}},{"name":"Bussardweg","postalCode":"73054","locality":"Eislingen/Fils","municipality":{"key":"08117019","name":"Eislingen/Fils, Stadt","type":"Große_Kreisstadt"},"district":{"key":"08117","name":"Göppingen","type":"Landkreis"},"federalState":{"key":"08","name":"Baden-Württemberg"}},{"name":"Charlottenstr.","postalCode":"73054","locality":"Eislingen/Fils","municipality":{"key":"08117019","name":"Eislingen/Fils, Stadt","type":"Große_Kreisstadt"},"district":{"key":"08117","name":"Göppingen","type":"Landkreis"},"federalState":{"key":"08","name":"Baden-Württemberg"}},{"name":"Daimlerstr.","postalCode":"73054","locality":"Eislingen/Fils","municipality":{"key":"08117019","name":"Eislingen/Fils, Stadt","type":"Große_Kreisstadt"},"district":{"key":"08117","name":"Göppingen","type":"Landkreis"},"federalState":{"key":"08","name":"Baden-Württemberg"}},{"name":"Danziger Str.","postalCode":"73054","locality":"Eislingen/Fils","municipality":{"key":"08117019","name":"Eislingen/Fils, Stadt","type":"Große_Kreisstadt"},"district":{"key":"08117","name":"Göppingen","type":"Landkreis"},"federalState":{"key":"08","name":"Baden-Württemberg"}},{"name":"Dinkelbeetweg","postalCode":"73054","locality":"Eislingen/Fils","municipality":{"key":"08117019","name":"Eislingen/Fils, Stadt","type":"Große_Kreisstadt"},"district":{"key":"08117","name":"Göppingen","type":"Landkreis"},"federalState":{"key":"08","name":"Baden-Württemberg"}},{"name":"Dr.-Engel-Str.","postalCode":"73054","locality":"Eislingen/Fils","municipality":{"key":"08117019","name":"Eislingen/Fils, Stadt","type":"Große_Kreisstadt"},"district":{"key":"08117","name":"Göppingen","type":"Landkreis"},"federalState":{"key":"08","name":"Baden-Württemberg"}},{"name":"Drosselweg","postalCode":"73054","locality":"Eislingen/Fils","municipality":{"key":"08117019","name":"Eislingen/Fils, Stadt","type":"Große_Kreisstadt"},"district":{"key":"08117","name":"Göppingen","type":"Landkreis"},"federalState":{"key":"08","name":"Baden-Württemberg"}},{"name":"Eberhardstr.","postalCode":"73054","locality":"Eislingen/Fils","municipality":{"key":"08117019","name":"Eislingen/Fils, Stadt","type":"Große_Kreisstadt"},"district":{"key":"08117","name":"Göppingen","type":"Landkreis"},"federalState":{"key":"08","name":"Baden-Württemberg"}},{"name":"Ebertstr.","postalCode":"73054","locality":"Eislingen/Fils","municipality":{"key":"08117019","name":"Eislingen/Fils, Stadt","type":"Große_Kreisstadt"},"district":{"key":"08117","name":"Göppingen","type":"Landkreis"},"federalState":{"key":"08","name":"Baden-Württemberg"}},{"name":"Eislinger Strässle","postalCode":"73054","locality":"Eislingen/Fils","municipality":{"key":"08117019","name":"Eislingen/Fils, Stadt","type":"Große_Kreisstadt"},"district":{"key":"08117","name":"Göppingen","type":"Landkreis"},"federalState":{"key":"08","name":"Baden-Württemberg"}},{"name":"Erich-Mühsam-Str.","postalCode":"73054","locality":"Eislingen/Fils","municipality":{"key":"08117019","name":"Eislingen/Fils, Stadt","type":"Große_Kreisstadt"},"district":{"key":"08117","name":"Göppingen","type":"Landkreis"},"federalState":{"key":"08","name":"Baden-Württemberg"}},{"name":"Erlenstr.","postalCode":"73054","locality":"Eislingen/Fils","municipality":{"key":"08117019","name":"Eislingen/Fils, Stadt","type":"Große_Kreisstadt"},"district":{"key":"08117","name":"Göppingen","type":"Landkreis"},"federalState":{"key":"08","name":"Baden-Württemberg"}},{"name":"Etzbergweg","postalCode":"73054","locality":"Eislingen/Fils","municipality":{"key":"08117019","name":"Eislingen/Fils, Stadt","type":"Große_Kreisstadt"},"district":{"key":"08117","name":"Göppingen","type":"Landkreis"},"federalState":{"key":"08","name":"Baden-Württemberg"}},{"name":"Eugenstr.","postalCode":"73054","locality":"Eislingen/Fils","municipality":{"key":"08117019","name":"Eislingen/Fils, Stadt","type":"Große_Kreisstadt"},"district":{"key":"08117","name":"Göppingen","type":"Landkreis"},"federalState":{"key":"08","name":"Baden-Württemberg"}},{"name":"Falkenweg","postalCode":"73054","locality":"Eislingen/Fils","municipality":{"key":"08117019","name":"Eislingen/Fils, Stadt","type":"Große_Kreisstadt"},"district":{"key":"08117","name":"Göppingen","type":"Landkreis"},"federalState":{"key":"08","name":"Baden-Württemberg"}},{"name":"Fasanenweg","postalCode":"73054","locality":"Eislingen/Fils","municipality":{"key":"08117019","name":"Eislingen/Fils, Stadt","type":"Große_Kreisstadt"},"district":{"key":"08117","name":"Göppingen","type":"Landkreis"},"federalState":{"key":"08","name":"Baden-Württemberg"}},{"name":"Fehläckerweg","postalCode":"73054","locality":"Eislingen/Fils","municipality":{"key":"08117019","name":"Eislingen/Fils, Stadt","type":"Große_Kreisstadt"},"district":{"key":"08117","name":"Göppingen","type":"Landkreis"},"federalState":{"key":"08","name":"Baden-Württemberg"}},{"name":"Fichtestr.","postalCode":"73054","locality":"Eislingen/Fils","municipality":{"key":"08117019","name":"Eislingen/Fils, Stadt","type":"Große_Kreisstadt"},"district":{"key":"08117","name":"Göppingen","type":"Landkreis"},"federalState":{"key":"08","name":"Baden-Württemberg"}},{"name":"Filsstr.","postalCode":"73054","locality":"Eislingen/Fils","municipality":{"key":"08117019","name":"Eislingen/Fils, Stadt","type":"Große_Kreisstadt"},"district":{"key":"08117","name":"Göppingen","type":"Landkreis"},"federalState":{"key":"08","name":"Baden-Württemberg"}},{"name":"Finkenweg","postalCode":"73054","locality":"Eislingen/Fils","municipality":{"key":"08117019","name":"Eislingen/Fils, Stadt","type":"Große_Kreisstadt"},"district":{"key":"08117","name":"Göppingen","type":"Landkreis"},"federalState":{"key":"08","name":"Baden-Württemberg"}},{"name":"Fischgasse","postalCode":"73054","locality":"Eislingen/Fils","municipality":{"key":"08117019","name":"Eislingen/Fils, Stadt","type":"Große_Kreisstadt"},"district":{"key":"08117","name":"Göppingen","type":"Landkreis"},"federalState":{"key":"08","name":"Baden-Württemberg"}},{"name":"Flachsäckerweg","postalCode":"73054","locality":"Eislingen/Fils","municipality":{"key":"08117019","name":"Eislingen/Fils, Stadt","type":"Große_Kreisstadt"},"district":{"key":"08117","name":"Göppingen","type":"Landkreis"},"federalState":{"key":"08","name":"Baden-Württemberg"}},{"name":"Fleischerstr.","postalCode":"73054","locality":"Eislingen/Fils","municipality":{"key":"08117019","name":"Eislingen/Fils, Stadt","type":"Große_Kreisstadt"},"district":{"key":"08117","name":"Göppingen","type":"Landkreis"},"federalState":{"key":"08","name":"Baden-Württemberg"}},{"name":"Föhrenweg","postalCode":"73054","locality":"Eislingen/Fils","municipality":{"key":"08117019","name":"Eislingen/Fils, Stadt","type":"Große_Kreisstadt"},"district":{"key":"08117","name":"Göppingen","type":"Landkreis"},"federalState":{"key":"08","name":"Baden-Württemberg"}},{"name":"Frauenstr.","postalCode":"73054","locality":"Eislingen/Fils","municipality":{"key":"08117019","name":"Eislingen/Fils, Stadt","type":"Große_Kreisstadt"},"district":{"key":"08117","name":"Göppingen","type":"Landkreis"},"federalState":{"key":"08","name":"Baden-Württemberg"}},{"name":"Friedhofstr.","postalCode":"73054","locality":"Eislingen/Fils","municipality":{"key":"08117019","name":"Eislingen/Fils, Stadt","type":"Große_Kreisstadt"},"district":{"key":"08117","name":"Göppingen","type":"Landkreis"},"federalState":{"key":"08","name":"Baden-Württemberg"}},{"name":"Friedrichstr.","postalCode":"73054","locality":"Eislingen/Fils","municipality":{"key":"08117019","name":"Eislingen/Fils, Stadt","type":"Große_Kreisstadt"},"district":{"key":"08117","name":"Göppingen","type":"Landkreis"},"federalState":{"key":"08","name":"Baden-Württemberg"}},{"name":"Fröbelstr.","postalCode":"73054","locality":"Eislingen/Fils","municipality":{"key":"08117019","name":"Eislingen/Fils, Stadt","type":"Große_Kreisstadt"},"district":{"key":"08117","name":"Göppingen","type":"Landkreis"},"federalState":{"key":"08","name":"Baden-Württemberg"}},{"name":"Frühlingstr.","postalCode":"73054","locality":"Eislingen/Fils","municipality":{"key":"08117019","name":"Eislingen/Fils, Stadt","type":"Große_Kreisstadt"},"district":{"key":"08117","name":"Göppingen","type":"Landkreis"},"federalState":{"key":"08","name":"Baden-Württemberg"}},{"name":"Fuchseckstr.","postalCode":"73054","locality":"Eislingen/Fils","municipality":{"key":"08117019","name":"Eislingen/Fils, Stadt","type":"Große_Kreisstadt"},"district":{"key":"08117","name":"Göppingen","type":"Landkreis"},"federalState":{"key":"08","name":"Baden-Württemberg"}},{"name":"Gairenstr.","postalCode":"73054","locality":"Eislingen/Fils","municipality":{"key":"08117019","name":"Eislingen/Fils, Stadt","type":"Große_Kreisstadt"},"district":{"key":"08117","name":"Göppingen","type":"Landkreis"},"federalState":{"key":"08","name":"Baden-Württemberg"}},{"name":"Gartenstr.","postalCode":"73054","locality":"Eislingen/Fils","municipality":{"key":"08117019","name":"Eislingen/Fils, Stadt","type":"Große_Kreisstadt"},"district":{"key":"08117","name":"Göppingen","type":"Landkreis"},"federalState":{"key":"08","name":"Baden-Württemberg"}},{"name":"Gasleitungsweg","postalCode":"73054","locality":"Eislingen/Fils","municipality":{"key":"08117019","name":"Eislingen/Fils, Stadt","type":"Große_Kreisstadt"},"district":{"key":"08117","name":"Göppingen","type":"Landkreis"},"federalState":{"key":"08","name":"Baden-Württemberg"}},{"name":"Gerberstr.","postalCode":"73054","locality":"Eislingen/Fils","municipality":{"key":"08117019","name":"Eislingen/Fils, Stadt","type":"Große_Kreisstadt"},"district":{"key":"08117","name":"Göppingen","type":"Landkreis"},"federalState":{"key":"08","name":"Baden-Württemberg"}},{"name":"Gerhart-Hauptmann-Str.","postalCode":"73054","locality":"Eislingen/Fils","municipality":{"key":"08117019","name":"Eislingen/Fils, Stadt","type":"Große_Kreisstadt"},"district":{"key":"08117","name":"Göppingen","type":"Landkreis"},"federalState":{"key":"08","name":"Baden-Württemberg"}},{"name":"Goethestr.","postalCode":"73054","locality":"Eislingen/Fils","municipality":{"key":"08117019","name":"Eislingen/Fils, Stadt","type":"Große_Kreisstadt"},"district":{"key":"08117","name":"Göppingen","type":"Landkreis"},"federalState":{"key":"08","name":"Baden-Württemberg"}},{"name":"Göppinger Str.","postalCode":"73054","locality":"Eislingen/Fils","municipality":{"key":"08117019","name":"Eislingen/Fils, Stadt","type":"Große_Kreisstadt"},"district":{"key":"08117","name":"Göppingen","type":"Landkreis"},"federalState":{"key":"08","name":"Baden-Württemberg"}},{"name":"Gottfried-Keller-Str.","postalCode":"73054","locality":"Eislingen/Fils","municipality":{"key":"08117019","name":"Eislingen/Fils, Stadt","type":"Große_Kreisstadt"},"district":{"key":"08117","name":"Göppingen","type":"Landkreis"},"federalState":{"key":"08","name":"Baden-Württemberg"}},{"name":"Grillparzerstr.","postalCode":"73054","locality":"Eislingen/Fils","municipality":{"key":"08117019","name":"Eislingen/Fils, Stadt","type":"Große_Kreisstadt"},"district":{"key":"08117","name":"Göppingen","type":"Landkreis"},"federalState":{"key":"08","name":"Baden-Württemberg"}},{"name":"Grünenbergstr.","postalCode":"73054","locality":"Eislingen/Fils","municipality":{"key":"08117019","name":"Eislingen/Fils, Stadt","type":"Große_Kreisstadt"},"district":{"key":"08117","name":"Göppingen","type":"Landkreis"},"federalState":{"key":"08","name":"Baden-Württemberg"}},{"name":"Gutenbergstr.","postalCode":"73054","locality":"Eislingen/Fils","municipality":{"key":"08117019","name":"Eislingen/Fils, Stadt","type":"Große_Kreisstadt"},"district":{"key":"08117","name":"Göppingen","type":"Landkreis"},"federalState":{"key":"08","name":"Baden-Württemberg"}},{"name":"Haarwiesenstr.","postalCode":"73054","locality":"Eislingen/Fils","municipality":{"key":"08117019","name":"Eislingen/Fils, Stadt","type":"Große_Kreisstadt"},"district":{"key":"08117","name":"Göppingen","type":"Landkreis"},"federalState":{"key":"08","name":"Baden-Württemberg"}},{"name":"Habichtstr.","postalCode":"73054","locality":"Eislingen/Fils","municipality":{"key":"08117019","name":"Eislingen/Fils, Stadt","type":"Große_Kreisstadt"},"district":{"key":"08117","name":"Göppingen","type":"Landkreis"},"federalState":{"key":"08","name":"Baden-Württemberg"}},{"name":"Haldenstr.","postalCode":"73054","locality":"Eislingen/Fils","municipality":{"key":"08117019","name":"Eislingen/Fils, Stadt","type":"Große_Kreisstadt"},"district":{"key":"08117","name":"Göppingen","type":"Landkreis"},"federalState":{"key":"08","name":"Baden-Württemberg"}},{"name":"Hammenweilerstr.","postalCode":"73054","locality":"Eislingen/Fils","municipality":{"key":"08117019","name":"Eislingen/Fils, Stadt","type":"Große_Kreisstadt"},"district":{"key":"08117","name":"Göppingen","type":"Landkreis"},"federalState":{"key":"08","name":"Baden-Württemberg"}},{"name":"Hauffstr.","postalCode":"73054","locality":"Eislingen/Fils","municipality":{"key":"08117019","name":"Eislingen/Fils, Stadt","type":"Große_Kreisstadt"},"district":{"key":"08117","name":"Göppingen","type":"Landkreis"},"federalState":{"key":"08","name":"Baden-Württemberg"}},{"name":"Hauptstr.","postalCode":"73054","locality":"Eislingen/Fils","municipality":{"key":"08117019","name":"Eislingen/Fils, Stadt","type":"Große_Kreisstadt"},"district":{"key":"08117","name":"Göppingen","type":"Landkreis"},"federalState":{"key":"08","name":"Baden-Württemberg"}},{"name":"Hausgärtenweg","postalCode":"73054","locality":"Eislingen/Fils","municipality":{"key":"08117019","name":"Eislingen/Fils, Stadt","type":"Große_Kreisstadt"},"district":{"key":"08117","name":"Göppingen","type":"Landkreis"},"federalState":{"key":"08","name":"Baden-Württemberg"}},{"name":"Heckenweg","postalCode":"73054","locality":"Eislingen/Fils","municipality":{"key":"08117019","name":"Eislingen/Fils, Stadt","type":"Große_Kreisstadt"},"district":{"key":"08117","name":"Göppingen","type":"Landkreis"},"federalState":{"key":"08","name":"Baden-Württemberg"}},{"name":"Hegelstr.","postalCode":"73054","locality":"Eislingen/Fils","municipality":{"key":"08117019","name":"Eislingen/Fils, Stadt","type":"Große_Kreisstadt"},"district":{"key":"08117","name":"Göppingen","type":"Landkreis"},"federalState":{"key":"08","name":"Baden-Württemberg"}},{"name":"Heiligenwiesenweg","postalCode":"73054","locality":"Eislingen/Fils","municipality":{"key":"08117019","name":"Eislingen/Fils, Stadt","type":"Große_Kreisstadt"},"district":{"key":"08117","name":"Göppingen","type":"Landkreis"},"federalState":{"key":"08","name":"Baden-Württemberg"}},{"name":"Heimtstr.","postalCode":"73054","locality":"Eislingen/Fils","municipality":{"key":"08117019","name":"Eislingen/Fils, Stadt","type":"Große_Kreisstadt"},"district":{"key":"08117","name":"Göppingen","type":"Landkreis"},"federalState":{"key":"08","name":"Baden-Württemberg"}},{"name":"Heinestr.","postalCode":"73054","locality":"Eislingen/Fils","municipality":{"key":"08117019","name":"Eislingen/Fils, Stadt","type":"Große_Kreisstadt"},"district":{"key":"08117","name":"Göppingen","type":"Landkreis"},"federalState":{"key":"08","name":"Baden-Württemberg"}},{"name":"Heinrich-Kleist-Str.","postalCode":"73054","locality":"Eislingen/Fils","municipality":{"key":"08117019","name":"Eislingen/Fils, Stadt","type":"Große_Kreisstadt"},"district":{"key":"08117","name":"Göppingen","type":"Landkreis"},"federalState":{"key":"08","name":"Baden-Württemberg"}},{"name":"Herbstweg","postalCode":"73054","locality":"Eislingen/Fils","municipality":{"key":"08117019","name":"Eislingen/Fils, Stadt","type":"Große_Kreisstadt"},"district":{"key":"08117","name":"Göppingen","type":"Landkreis"},"federalState":{"key":"08","name":"Baden-Württemberg"}},{"name":"Hermann-Hesse-Str.","postalCode":"73054","locality":"Eislingen/Fils","municipality":{"key":"08117019","name":"Eislingen/Fils, Stadt","type":"Große_Kreisstadt"},"district":{"key":"08117","name":"Göppingen","type":"Landkreis"},"federalState":{"key":"08","name":"Baden-Württemberg"}},{"name":"Hermann-Löns-Str.","postalCode":"73054","locality":"Eislingen/Fils","municipality":{"key":"08117019","name":"Eislingen/Fils, Stadt","type":"Große_Kreisstadt"},"district":{"key":"08117","name":"Göppingen","type":"Landkreis"},"federalState":{"key":"08","name":"Baden-Württemberg"}},{"name":"Hildegard-von-Bingen-Weg","postalCode":"73054","locality":"Eislingen/Fils","municipality":{"key":"08117019","name":"Eislingen/Fils, Stadt","type":"Große_Kreisstadt"},"district":{"key":"08117","name":"Göppingen","type":"Landkreis"},"federalState":{"key":"08","name":"Baden-Württemberg"}},{"name":"Hindenburgstr.","postalCode":"73054","locality":"Eislingen/Fils","municipality":{"key":"08117019","name":"Eislingen/Fils, Stadt","type":"Große_Kreisstadt"},"district":{"key":"08117","name":"Göppingen","type":"Landkreis"},"federalState":{"key":"08","name":"Baden-Württemberg"}},{"name":"Hochhaldenweg","postalCode":"73054","locality":"Eislingen/Fils","municipality":{"key":"08117019","name":"Eislingen/Fils, Stadt","type":"Große_Kreisstadt"},"district":{"key":"08117","name":"Göppingen","type":"Landkreis"},"federalState":{"key":"08","name":"Baden-Württemberg"}},{"name":"Hohenstaufenstr.","postalCode":"73054","locality":"Eislingen/Fils","municipality":{"key":"08117019","name":"Eislingen/Fils, Stadt","type":"Große_Kreisstadt"},"district":{"key":"08117","name":"Göppingen","type":"Landkreis"},"federalState":{"key":"08","name":"Baden-Württemberg"}},{"name":"Höhenweg","postalCode":"73054","locality":"Eislingen/Fils","municipality":{"key":"08117019","name":"Eislingen/Fils, Stadt","type":"Große_Kreisstadt"},"district":{"key":"08117","name":"Göppingen","type":"Landkreis"},"federalState":{"key":"08","name":"Baden-Württemberg"}},{"name":"Hölderlinstr.","postalCode":"73054","locality":"Eislingen/Fils","municipality":{"key":"08117019","name":"Eislingen/Fils, Stadt","type":"Große_Kreisstadt"},"district":{"key":"08117","name":"Göppingen","type":"Landkreis"},"federalState":{"key":"08","name":"Baden-Württemberg"}},{"name":"Holzheimer Str.","postalCode":"73054","locality":"Eislingen/Fils","municipality":{"key":"08117019","name":"Eislingen/Fils, Stadt","type":"Große_Kreisstadt"},"district":{"key":"08117","name":"Göppingen","type":"Landkreis"},"federalState":{"key":"08","name":"Baden-Württemberg"}},{"name":"Humboldtstr.","postalCode":"73054","locality":"Eislingen/Fils","municipality":{"key":"08117019","name":"Eislingen/Fils, Stadt","type":"Große_Kreisstadt"},"district":{"key":"08117","name":"Göppingen","type":"Landkreis"},"federalState":{"key":"08","name":"Baden-Württemberg"}},{"name":"Im Heimt","postalCode":"73054","locality":"Eislingen/Fils","municipality":{"key":"08117019","name":"Eislingen/Fils, Stadt","type":"Große_Kreisstadt"},"district":{"key":"08117","name":"Göppingen","type":"Landkreis"},"federalState":{"key":"08","name":"Baden-Württemberg"}},{"name":"Im Hof","postalCode":"73054","locality":"Eislingen/Fils","municipality":{"key":"08117019","name":"Eislingen/Fils, Stadt","type":"Große_Kreisstadt"},"district":{"key":"08117","name":"Göppingen","type":"Landkreis"},"federalState":{"key":"08","name":"Baden-Württemberg"}},{"name":"Im Klingengraben","postalCode":"73054","locality":"Eislingen/Fils","municipality":{"key":"08117019","name":"Eislingen/Fils, Stadt","type":"Große_Kreisstadt"},"district":{"key":"08117","name":"Göppingen","type":"Landkreis"},"federalState":{"key":"08","name":"Baden-Württemberg"}},{"name":"Im Schönhut","postalCode":"73054","locality":"Eislingen/Fils","municipality":{"key":"08117019","name":"Eislingen/Fils, Stadt","type":"Große_Kreisstadt"},"district":{"key":"08117","name":"Göppingen","type":"Landkreis"},"federalState":{"key":"08","name":"Baden-Württemberg"}},{"name":"In den Krummäckern","postalCode":"73054","locality":"Eislingen/Fils","municipality":{"key":"08117019","name":"Eislingen/Fils, Stadt","type":"Große_Kreisstadt"},"district":{"key":"08117","name":"Göppingen","type":"Landkreis"},"federalState":{"key":"08","name":"Baden-Württemberg"}},{"name":"In den Weingärten","postalCode":"73054","locality":"Eislingen/Fils","municipality":{"key":"08117019","name":"Eislingen/Fils, Stadt","type":"Große_Kreisstadt"},"district":{"key":"08117","name":"Göppingen","type":"Landkreis"},"federalState":{"key":"08","name":"Baden-Württemberg"}},{"name":"Industriestr.","postalCode":"73054","locality":"Eislingen/Fils","municipality":{"key":"08117019","name":"Eislingen/Fils, Stadt","type":"Große_Kreisstadt"},"district":{"key":"08117","name":"Göppingen","type":"Landkreis"},"federalState":{"key":"08","name":"Baden-Württemberg"}},{"name":"Jägerstr.","postalCode":"73054","locality":"Eislingen/Fils","municipality":{"key":"08117019","name":"Eislingen/Fils, Stadt","type":"Große_Kreisstadt"},"district":{"key":"08117","name":"Göppingen","type":"Landkreis"},"federalState":{"key":"08","name":"Baden-Württemberg"}},{"name":"Jahnstr.","postalCode":"73054","locality":"Eislingen/Fils","municipality":{"key":"08117019","name":"Eislingen/Fils, Stadt","type":"Große_Kreisstadt"},"district":{"key":"08117","name":"Göppingen","type":"Landkreis"},"federalState":{"key":"08","name":"Baden-Württemberg"}},{"name":"Johann-Jakob-Haid-Weg","postalCode":"73054","locality":"Eislingen/Fils","municipality":{"key":"08117019","name":"Eislingen/Fils, Stadt","type":"Große_Kreisstadt"},"district":{"key":"08117","name":"Göppingen","type":"Landkreis"},"federalState":{"key":"08","name":"Baden-Württemberg"}},{"name":"Johann-Peter-Hebel-Str.","postalCode":"73054","locality":"Eislingen/Fils","municipality":{"key":"08117019","name":"Eislingen/Fils, Stadt","type":"Große_Kreisstadt"},"district":{"key":"08117","name":"Göppingen","type":"Landkreis"},"federalState":{"key":"08","name":"Baden-Württemberg"}},{"name":"Julius-Vogel-Str.","postalCode":"73054","locality":"Eislingen/Fils","municipality":{"key":"08117019","name":"Eislingen/Fils, Stadt","type":"Große_Kreisstadt"},"district":{"key":"08117","name":"Göppingen","type":"Landkreis"},"federalState":{"key":"08","name":"Baden-Württemberg"}},{"name":"Kanalstr.","postalCode":"73054","locality":"Eislingen/Fils","municipality":{"key":"08117019","name":"Eislingen/Fils, Stadt","type":"Große_Kreisstadt"},"district":{"key":"08117","name":"Göppingen","type":"Landkreis"},"federalState":{"key":"08","name":"Baden-Württemberg"}},{"name":"Kantstr.","postalCode":"73054","locality":"Eislingen/Fils","municipality":{"key":"08117019","name":"Eislingen/Fils, Stadt","type":"Große_Kreisstadt"},"district":{"key":"08117","name":"Göppingen","type":"Landkreis"},"federalState":{"key":"08","name":"Baden-Württemberg"}},{"name":"Kapellenweg","postalCode":"73054","locality":"Eislingen/Fils","municipality":{"key":"08117019","name":"Eislingen/Fils, Stadt","type":"Große_Kreisstadt"},"district":{"key":"08117","name":"Göppingen","type":"Landkreis"},"federalState":{"key":"08","name":"Baden-Württemberg"}},{"name":"Karl-Liebknecht-Str.","postalCode":"73054","locality":"Eislingen/Fils","municipality":{"key":"08117019","name":"Eislingen/Fils, Stadt","type":"Große_Kreisstadt"},"district":{"key":"08117","name":"Göppingen","type":"Landkreis"},"federalState":{"key":"08","name":"Baden-Württemberg"}},{"name":"Karlstr.","postalCode":"73054","locality":"Eislingen/Fils","municipality":{"key":"08117019","name":"Eislingen/Fils, Stadt","type":"Große_Kreisstadt"},"district":{"key":"08117","name":"Göppingen","type":"Landkreis"},"federalState":{"key":"08","name":"Baden-Württemberg"}},{"name":"Kelterstr.","postalCode":"73054","locality":"Eislingen/Fils","municipality":{"key":"08117019","name":"Eislingen/Fils, Stadt","type":"Große_Kreisstadt"},"district":{"key":"08117","name":"Göppingen","type":"Landkreis"},"federalState":{"key":"08","name":"Baden-Württemberg"}},{"name":"Keplerstr.","postalCode":"73054","locality":"Eislingen/Fils","municipality":{"key":"08117019","name":"Eislingen/Fils, Stadt","type":"Große_Kreisstadt"},"district":{"key":"08117","name":"Göppingen","type":"Landkreis"},"federalState":{"key":"08","name":"Baden-Württemberg"}},{"name":"Kettelerstr.","postalCode":"73054","locality":"Eislingen/Fils","municipality":{"key":"08117019","name":"Eislingen/Fils, Stadt","type":"Große_Kreisstadt"},"district":{"key":"08117","name":"Göppingen","type":"Landkreis"},"federalState":{"key":"08","name":"Baden-Württemberg"}},{"name":"Kirchstr.","postalCode":"73054","locality":"Eislingen/Fils","municipality":{"key":"08117019","name":"Eislingen/Fils, Stadt","type":"Große_Kreisstadt"},"district":{"key":"08117","name":"Göppingen","type":"Landkreis"},"federalState":{"key":"08","name":"Baden-Württemberg"}},{"name":"Klingenstr.","postalCode":"73054","locality":"Eislingen/Fils","municipality":{"key":"08117019","name":"Eislingen/Fils, Stadt","type":"Große_Kreisstadt"},"district":{"key":"08117","name":"Göppingen","type":"Landkreis"},"federalState":{"key":"08","name":"Baden-Württemberg"}},{"name":"Kolpingstr.","postalCode":"73054","locality":"Eislingen/Fils","municipality":{"key":"08117019","name":"Eislingen/Fils, Stadt","type":"Große_Kreisstadt"},"district":{"key":"08117","name":"Göppingen","type":"Landkreis"},"federalState":{"key":"08","name":"Baden-Württemberg"}},{"name":"Königstr.","postalCode":"73054","locality":"Eislingen/Fils","municipality":{"key":"08117019","name":"Eislingen/Fils, Stadt","type":"Große_Kreisstadt"},"district":{"key":"08117","name":"Göppingen","type":"Landkreis"},"federalState":{"key":"08","name":"Baden-Württemberg"}},{"name":"Kornbergstr.","postalCode":"73054","locality":"Eislingen/Fils","municipality":{"key":"08117019","name":"Eislingen/Fils, Stadt","type":"Große_Kreisstadt"},"district":{"key":"08117","name":"Göppingen","type":"Landkreis"},"federalState":{"key":"08","name":"Baden-Württemberg"}},{"name":"Körnerstr.","postalCode":"73054","locality":"Eislingen/Fils","municipality":{"key":"08117019","name":"Eislingen/Fils, Stadt","type":"Große_Kreisstadt"},"district":{"key":"08117","name":"Göppingen","type":"Landkreis"},"federalState":{"key":"08","name":"Baden-Württemberg"}},{"name":"Kreuzstr.","postalCode":"73054","locality":"Eislingen/Fils","municipality":{"key":"08117019","name":"Eislingen/Fils, Stadt","type":"Große_Kreisstadt"},"district":{"key":"08117","name":"Göppingen","type":"Landkreis"},"federalState":{"key":"08","name":"Baden-Württemberg"}},{"name":"Kronenplatz","postalCode":"73054","locality":"Eislingen/Fils","municipality":{"key":"08117019","name":"Eislingen/Fils, Stadt","type":"Große_Kreisstadt"},"district":{"key":"08117","name":"Göppingen","type":"Landkreis"},"federalState":{"key":"08","name":"Baden-Württemberg"}},{"name":"Kronprinzstr.","postalCode":"73054","locality":"Eislingen/Fils","municipality":{"key":"08117019","name":"Eislingen/Fils, Stadt","type":"Große_Kreisstadt"},"district":{"key":"08117","name":"Göppingen","type":"Landkreis"},"federalState":{"key":"08","name":"Baden-Württemberg"}},{"name":"Krummstr.","postalCode":"73054","locality":"Eislingen/Fils","municipality":{"key":"08117019","name":"Eislingen/Fils, Stadt","type":"Große_Kreisstadt"},"district":{"key":"08117","name":"Göppingen","type":"Landkreis"},"federalState":{"key":"08","name":"Baden-Württemberg"}},{"name":"Kurze Str.","postalCode":"73054","locality":"Eislingen/Fils","municipality":{"key":"08117019","name":"Eislingen/Fils, Stadt","type":"Große_Kreisstadt"},"district":{"key":"08117","name":"Göppingen","type":"Landkreis"},"federalState":{"key":"08","name":"Baden-Württemberg"}},{"name":"Lammgasse","postalCode":"73054","locality":"Eislingen/Fils","municipality":{"key":"08117019","name":"Eislingen/Fils, Stadt","type":"Große_Kreisstadt"},"district":{"key":"08117","name":"Göppingen","type":"Landkreis"},"federalState":{"key":"08","name":"Baden-Württemberg"}},{"name":"Langäckerweg","postalCode":"73054","locality":"Eislingen/Fils","municipality":{"key":"08117019","name":"Eislingen/Fils, Stadt","type":"Große_Kreisstadt"},"district":{"key":"08117","name":"Göppingen","type":"Landkreis"},"federalState":{"key":"08","name":"Baden-Württemberg"}},{"name":"Langemarckstr.","postalCode":"73054","locality":"Eislingen/Fils","municipality":{"key":"08117019","name":"Eislingen/Fils, Stadt","type":"Große_Kreisstadt"},"district":{"key":"08117","name":"Göppingen","type":"Landkreis"},"federalState":{"key":"08","name":"Baden-Württemberg"}},{"name":"Leibnizstr.","postalCode":"73054","locality":"Eislingen/Fils","municipality":{"key":"08117019","name":"Eislingen/Fils, Stadt","type":"Große_Kreisstadt"},"district":{"key":"08117","name":"Göppingen","type":"Landkreis"},"federalState":{"key":"08","name":"Baden-Württemberg"}},{"name":"Lenauweg","postalCode":"73054","locality":"Eislingen/Fils","municipality":{"key":"08117019","name":"Eislingen/Fils, Stadt","type":"Große_Kreisstadt"},"district":{"key":"08117","name":"Göppingen","type":"Landkreis"},"federalState":{"key":"08","name":"Baden-Württemberg"}},{"name":"Leonhardstr.","postalCode":"73054","locality":"Eislingen/Fils","municipality":{"key":"08117019","name":"Eislingen/Fils, Stadt","type":"Große_Kreisstadt"},"district":{"key":"08117","name":"Göppingen","type":"Landkreis"},"federalState":{"key":"08","name":"Baden-Württemberg"}},{"name":"Lerchenweg","postalCode":"73054","locality":"Eislingen/Fils","municipality":{"key":"08117019","name":"Eislingen/Fils, Stadt","type":"Große_Kreisstadt"},"district":{"key":"08117","name":"Göppingen","type":"Landkreis"},"federalState":{"key":"08","name":"Baden-Württemberg"}},{"name":"Lessingstr.","postalCode":"73054","locality":"Eislingen/Fils","municipality":{"key":"08117019","name":"Eislingen/Fils, Stadt","type":"Große_Kreisstadt"},"district":{"key":"08117","name":"Göppingen","type":"Landkreis"},"federalState":{"key":"08","name":"Baden-Württemberg"}},{"name":"Lichtensteinstr.","postalCode":"73054","locality":"Eislingen/Fils","municipality":{"key":"08117019","name":"Eislingen/Fils, Stadt","type":"Große_Kreisstadt"},"district":{"key":"08117","name":"Göppingen","type":"Landkreis"},"federalState":{"key":"08","name":"Baden-Württemberg"}},{"name":"Lindenstr.","postalCode":"73054","locality":"Eislingen/Fils","municipality":{"key":"08117019","name":"Eislingen/Fils, Stadt","type":"Große_Kreisstadt"},"district":{"key":"08117","name":"Göppingen","type":"Landkreis"},"federalState":{"key":"08","name":"Baden-Württemberg"}},{"name":"Liststr.","postalCode":"73054","locality":"Eislingen/Fils","municipality":{"key":"08117019","name":"Eislingen/Fils, Stadt","type":"Große_Kreisstadt"},"district":{"key":"08117","name":"Göppingen","type":"Landkreis"},"federalState":{"key":"08","name":"Baden-Württemberg"}},{"name":"Löfflerstr.","postalCode":"73054","locality":"Eislingen/Fils","municipality":{"key":"08117019","name":"Eislingen/Fils, Stadt","type":"Große_Kreisstadt"},"district":{"key":"08117","name":"Göppingen","type":"Landkreis"},"federalState":{"key":"08","name":"Baden-Württemberg"}},{"name":"Logauweg","postalCode":"73054","locality":"Eislingen/Fils","municipality":{"key":"08117019","name":"Eislingen/Fils, Stadt","type":"Große_Kreisstadt"},"district":{"key":"08117","name":"Göppingen","type":"Landkreis"},"federalState":{"key":"08","name":"Baden-Württemberg"}},{"name":"Lotschnauer Weg","postalCode":"73054","locality":"Eislingen/Fils","municipality":{"key":"08117019","name":"Eislingen/Fils, Stadt","type":"Große_Kreisstadt"},"district":{"key":"08117","name":"Göppingen","type":"Landkreis"},"federalState":{"key":"08","name":"Baden-Württemberg"}},{"name":"Ludwigstr.","postalCode":"73054","locality":"Eislingen/Fils","municipality":{"key":"08117019","name":"Eislingen/Fils, Stadt","type":"Große_Kreisstadt"},"district":{"key":"08117","name":"Göppingen","type":"Landkreis"},"federalState":{"key":"08","name":"Baden-Württemberg"}},{"name":"Lutherstr.","postalCode":"73054","locality":"Eislingen/Fils","municipality":{"key":"08117019","name":"Eislingen/Fils, Stadt","type":"Große_Kreisstadt"},"district":{"key":"08117","name":"Göppingen","type":"Landkreis"},"federalState":{"key":"08","name":"Baden-Württemberg"}},{"name":"Max-Eyth-Str.","postalCode":"73054","locality":"Eislingen/Fils","municipality":{"key":"08117019","name":"Eislingen/Fils, Stadt","type":"Große_Kreisstadt"},"district":{"key":"08117","name":"Göppingen","type":"Landkreis"},"federalState":{"key":"08","name":"Baden-Württemberg"}},{"name":"Max-Liebermann-Weg","postalCode":"73054","locality":"Eislingen/Fils","municipality":{"key":"08117019","name":"Eislingen/Fils, Stadt","type":"Große_Kreisstadt"},"district":{"key":"08117","name":"Göppingen","type":"Landkreis"},"federalState":{"key":"08","name":"Baden-Württemberg"}},{"name":"Meisenweg","postalCode":"73054","locality":"Eislingen/Fils","municipality":{"key":"08117019","name":"Eislingen/Fils, Stadt","type":"Große_Kreisstadt"},"district":{"key":"08117","name":"Göppingen","type":"Landkreis"},"federalState":{"key":"08","name":"Baden-Württemberg"}},{"name":"Mittelweg","postalCode":"73054","locality":"Eislingen/Fils","municipality":{"key":"08117019","name":"Eislingen/Fils, Stadt","type":"Große_Kreisstadt"},"district":{"key":"08117","name":"Göppingen","type":"Landkreis"},"federalState":{"key":"08","name":"Baden-Württemberg"}},{"name":"Möckenweg","postalCode":"73054","locality":"Eislingen/Fils","municipality":{"key":"08117019","name":"Eislingen/Fils, Stadt","type":"Große_Kreisstadt"},"district":{"key":"08117","name":"Göppingen","type":"Landkreis"},"federalState":{"key":"08","name":"Baden-Württemberg"}},{"name":"Moltkestr.","postalCode":"73054","locality":"Eislingen/Fils","municipality":{"key":"08117019","name":"Eislingen/Fils, Stadt","type":"Große_Kreisstadt"},"district":{"key":"08117","name":"Göppingen","type":"Landkreis"},"federalState":{"key":"08","name":"Baden-Württemberg"}},{"name":"Mörikeweg","postalCode":"73054","locality":"Eislingen/Fils","municipality":{"key":"08117019","name":"Eislingen/Fils, Stadt","type":"Große_Kreisstadt"},"district":{"key":"08117","name":"Göppingen","type":"Landkreis"},"federalState":{"key":"08","name":"Baden-Württemberg"}},{"name":"Mozartstr.","postalCode":"73054","locality":"Eislingen/Fils","municipality":{"key":"08117019","name":"Eislingen/Fils, Stadt","type":"Große_Kreisstadt"},"district":{"key":"08117","name":"Göppingen","type":"Landkreis"},"federalState":{"key":"08","name":"Baden-Württemberg"}},{"name":"Mühlbachstr.","postalCode":"73054","locality":"Eislingen/Fils","municipality":{"key":"08117019","name":"Eislingen/Fils, Stadt","type":"Große_Kreisstadt"},"district":{"key":"08117","name":"Göppingen","type":"Landkreis"},"federalState":{"key":"08","name":"Baden-Württemberg"}},{"name":"Mühlesgäßle","postalCode":"73054","locality":"Eislingen/Fils","municipality":{"key":"08117019","name":"Eislingen/Fils, Stadt","type":"Große_Kreisstadt"},"district":{"key":"08117","name":"Göppingen","type":"Landkreis"},"federalState":{"key":"08","name":"Baden-Württemberg"}},{"name":"Näherhofstr.","postalCode":"73054","locality":"Eislingen/Fils","municipality":{"key":"08117019","name":"Eislingen/Fils, Stadt","type":"Große_Kreisstadt"},"district":{"key":"08117","name":"Göppingen","type":"Landkreis"},"federalState":{"key":"08","name":"Baden-Württemberg"}},{"name":"Nell-Breuning-Str.","postalCode":"73054","locality":"Eislingen/Fils","municipality":{"key":"08117019","name":"Eislingen/Fils, Stadt","type":"Große_Kreisstadt"},"district":{"key":"08117","name":"Göppingen","type":"Landkreis"},"federalState":{"key":"08","name":"Baden-Württemberg"}},{"name":"Neuffenstr.","postalCode":"73054","locality":"Eislingen/Fils","municipality":{"key":"08117019","name":"Eislingen/Fils, Stadt","type":"Große_Kreisstadt"},"district":{"key":"08117","name":"Göppingen","type":"Landkreis"},"federalState":{"key":"08","name":"Baden-Württemberg"}},{"name":"Olgastr.","postalCode":"73054","locality":"Eislingen/Fils","municipality":{"key":"08117019","name":"Eislingen/Fils, Stadt","type":"Große_Kreisstadt"},"district":{"key":"08117","name":"Göppingen","type":"Landkreis"},"federalState":{"key":"08","name":"Baden-Württemberg"}},{"name":"Osttangente","postalCode":"73054","locality":"Eislingen/Fils","municipality":{"key":"08117019","name":"Eislingen/Fils, Stadt","type":"Große_Kreisstadt"},"district":{"key":"08117","name":"Göppingen","type":"Landkreis"},"federalState":{"key":"08","name":"Baden-Württemberg"}},{"name":"Ottenbacher Str.","postalCode":"73054","locality":"Eislingen/Fils","municipality":{"key":"08117019","name":"Eislingen/Fils, Stadt","type":"Große_Kreisstadt"},"district":{"key":"08117","name":"Göppingen","type":"Landkreis"},"federalState":{"key":"08","name":"Baden-Württemberg"}},{"name":"Pfaffenwiesenweg","postalCode":"73054","locality":"Eislingen/Fils","municipality":{"key":"08117019","name":"Eislingen/Fils, Stadt","type":"Große_Kreisstadt"},"district":{"key":"08117","name":"Göppingen","type":"Landkreis"},"federalState":{"key":"08","name":"Baden-Württemberg"}},{"name":"Place d'Oyonnax","postalCode":"73054","locality":"Eislingen/Fils","municipality":{"key":"08117019","name":"Eislingen/Fils, Stadt","type":"Große_Kreisstadt"},"district":{"key":"08117","name":"Göppingen","type":"Landkreis"},"federalState":{"key":"08","name":"Baden-Württemberg"}},{"name":"Poststr.","postalCode":"73054","locality":"Eislingen/Fils","municipality":{"key":"08117019","name":"Eislingen/Fils, Stadt","type":"Große_Kreisstadt"},"district":{"key":"08117","name":"Göppingen","type":"Landkreis"},"federalState":{"key":"08","name":"Baden-Württemberg"}},{"name":"Quäkerstr.","postalCode":"73033","locality":"Göppingen","municipality":{"key":"08117026","name":"Göppingen, Stadt","type":"Große_Kreisstadt"},"district":{"key":"08117","name":"Göppingen","type":"Landkreis"},"federalState":{"key":"08","name":"Baden-Württemberg"}},{"name":"Querstr.","postalCode":"73033","locality":"Göppingen","municipality":{"key":"08117026","name":"Göppingen, Stadt","type":"Große_Kreisstadt"},"district":{"key":"08117","name":"Göppingen","type":"Landkreis"},"federalState":{"key":"08","name":"Baden-Württemberg"}},{"name":"Ramsbergstr.","postalCode":"73054","locality":"Eislingen/Fils","municipality":{"key":"08117019","name":"Eislingen/Fils, Stadt","type":"Große_Kreisstadt"},"district":{"key":"08117","name":"Göppingen","type":"Landkreis"},"federalState":{"key":"08","name":"Baden-Württemberg"}},{"name":"Rebenweg","postalCode":"73054","locality":"Eislingen/Fils","municipality":{"key":"08117019","name":"Eislingen/Fils, Stadt","type":"Große_Kreisstadt"},"district":{"key":"08117","name":"Göppingen","type":"Landkreis"},"federalState":{"key":"08","name":"Baden-Württemberg"}},{"name":"Rechbergstr.","postalCode":"73054","locality":"Eislingen/Fils","municipality":{"key":"08117019","name":"Eislingen/Fils, Stadt","type":"Große_Kreisstadt"},"district":{"key":"08117","name":"Göppingen","type":"Landkreis"},"federalState":{"key":"08","name":"Baden-Württemberg"}},{"name":"Richardstr.","postalCode":"73054","locality":"Eislingen/Fils","municipality":{"key":"08117019","name":"Eislingen/Fils, Stadt","type":"Große_Kreisstadt"},"district":{"key":"08117","name":"Göppingen","type":"Landkreis"},"federalState":{"key":"08","name":"Baden-Württemberg"}},{"name":"Richard-Wagner-Str.","postalCode":"73054","locality":"Eislingen/Fils","municipality":{"key":"08117019","name":"Eislingen/Fils, Stadt","type":"Große_Kreisstadt"},"district":{"key":"08117","name":"Göppingen","type":"Landkreis"},"federalState":{"key":"08","name":"Baden-Württemberg"}},{"name":"Richthofenstr.","postalCode":"73054","locality":"Eislingen/Fils","municipality":{"key":"08117019","name":"Eislingen/Fils, Stadt","type":"Große_Kreisstadt"},"district":{"key":"08117","name":"Göppingen","type":"Landkreis"},"federalState":{"key":"08","name":"Baden-Württemberg"}},{"name":"Rolandstr.","postalCode":"73054","locality":"Eislingen/Fils","municipality":{"key":"08117019","name":"Eislingen/Fils, Stadt","type":"Große_Kreisstadt"},"district":{"key":"08117","name":"Göppingen","type":"Landkreis"},"federalState":{"key":"08","name":"Baden-Württemberg"}},{"name":"Roseggerstr.","postalCode":"73054","locality":"Eislingen/Fils","municipality":{"key":"08117019","name":"Eislingen/Fils, Stadt","type":"Große_Kreisstadt"},"district":{"key":"08117","name":"Göppingen","type":"Landkreis"},"federalState":{"key":"08","name":"Baden-Württemberg"}},{"name":"Rosensteinstr.","postalCode":"73054","locality":"Eislingen/Fils","municipality":{"key":"08117019","name":"Eislingen/Fils, Stadt","type":"Große_Kreisstadt"},"district":{"key":"08117","name":"Göppingen","type":"Landkreis"},"federalState":{"key":"08","name":"Baden-Württemberg"}},{"name":"Rosenstr.","postalCode":"73054","locality":"Eislingen/Fils","municipality":{"key":"08117019","name":"Eislingen/Fils, Stadt","type":"Große_Kreisstadt"},"district":{"key":"08117","name":"Göppingen","type":"Landkreis"},"federalState":{"key":"08","name":"Baden-Württemberg"}},{"name":"Rückertstr.","postalCode":"73054","locality":"Eislingen/Fils","municipality":{"key":"08117019","name":"Eislingen/Fils, Stadt","type":"Große_Kreisstadt"},"district":{"key":"08117","name":"Göppingen","type":"Landkreis"},"federalState":{"key":"08","name":"Baden-Württemberg"}},{"name":"Rudolfstr.","postalCode":"73054","locality":"Eislingen/Fils","municipality":{"key":"08117019","name":"Eislingen/Fils, Stadt","type":"Große_Kreisstadt"},"district":{"key":"08117","name":"Göppingen","type":"Landkreis"},"federalState":{"key":"08","name":"Baden-Württemberg"}},{"name":"Saarstr.","postalCode":"73054","locality":"Eislingen/Fils","municipality":{"key":"08117019","name":"Eislingen/Fils, Stadt","type":"Große_Kreisstadt"},"district":{"key":"08117","name":"Göppingen","type":"Landkreis"},"federalState":{"key":"08","name":"Baden-Württemberg"}},{"name":"Salacher Str.","postalCode":"73054","locality":"Eislingen/Fils","municipality":{"key":"08117019","name":"Eislingen/Fils, Stadt","type":"Große_Kreisstadt"},"district":{"key":"08117","name":"Göppingen","type":"Landkreis"},"federalState":{"key":"08","name":"Baden-Württemberg"}},{"name":"Sängerstr.","postalCode":"73054","locality":"Eislingen/Fils","municipality":{"key":"08117019","name":"Eislingen/Fils, Stadt","type":"Große_Kreisstadt"},"district":{"key":"08117","name":"Göppingen","type":"Landkreis"},"federalState":{"key":"08","name":"Baden-Württemberg"}},{"name":"Scharnhorststr.","postalCode":"73054","locality":"Eislingen/Fils","municipality":{"key":"08117019","name":"Eislingen/Fils, Stadt","type":"Große_Kreisstadt"},"district":{"key":"08117","name":"Göppingen","type":"Landkreis"},"federalState":{"key":"08","name":"Baden-Württemberg"}},{"name":"Scheerstr.","postalCode":"73054","locality":"Eislingen/Fils","municipality":{"key":"08117019","name":"Eislingen/Fils, Stadt","type":"Große_Kreisstadt"},"district":{"key":"08117","name":"Göppingen","type":"Landkreis"},"federalState":{"key":"08","name":"Baden-Württemberg"}},{"name":"Schellingstr.","postalCode":"73054","locality":"Eislingen/Fils","municipality":{"key":"08117019","name":"Eislingen/Fils, Stadt","type":"Große_Kreisstadt"},"district":{"key":"08117","name":"Göppingen","type":"Landkreis"},"federalState":{"key":"08","name":"Baden-Württemberg"}},{"name":"Schillerplatz","postalCode":"73054","locality":"Eislingen/Fils","municipality":{"key":"08117019","name":"Eislingen/Fils, Stadt","type":"Große_Kreisstadt"},"district":{"key":"08117","name":"Göppingen","type":"Landkreis"},"federalState":{"key":"08","name":"Baden-Württemberg"}},{"name":"Schillerstr.","postalCode":"73054","locality":"Eislingen/Fils","municipality":{"key":"08117019","name":"Eislingen/Fils, Stadt","type":"Große_Kreisstadt"},"district":{"key":"08117","name":"Göppingen","type":"Landkreis"},"federalState":{"key":"08","name":"Baden-Württemberg"}},{"name":"Schloßpark","postalCode":"73054","locality":"Eislingen/Fils","municipality":{"key":"08117019","name":"Eislingen/Fils, Stadt","type":"Große_Kreisstadt"},"district":{"key":"08117","name":"Göppingen","type":"Landkreis"},"federalState":{"key":"08","name":"Baden-Württemberg"}},{"name":"Schloßpassage","postalCode":"73054","locality":"Eislingen/Fils","municipality":{"key":"08117019","name":"Eislingen/Fils, Stadt","type":"Große_Kreisstadt"},"district":{"key":"08117","name":"Göppingen","type":"Landkreis"},"federalState":{"key":"08","name":"Baden-Württemberg"}},{"name":"Schlossplatz","postalCode":"73054","locality":"Eislingen/Fils","municipality":{"key":"08117019","name":"Eislingen/Fils, Stadt","type":"Große_Kreisstadt"},"district":{"key":"08117","name":"Göppingen","type":"Landkreis"},"federalState":{"key":"08","name":"Baden-Württemberg"}},{"name":"Schloss-Str.","postalCode":"73054","locality":"Eislingen/Fils","municipality":{"key":"08117019","name":"Eislingen/Fils, Stadt","type":"Große_Kreisstadt"},"district":{"key":"08117","name":"Göppingen","type":"Landkreis"},"federalState":{"key":"08","name":"Baden-Württemberg"}},{"name":"Schmalzgartenweg","postalCode":"73054","locality":"Eislingen/Fils","municipality":{"key":"08117019","name":"Eislingen/Fils, Stadt","type":"Große_Kreisstadt"},"district":{"key":"08117","name":"Göppingen","type":"Landkreis"},"federalState":{"key":"08","name":"Baden-Württemberg"}},{"name":"Schopenhauerstr.","postalCode":"73054","locality":"Eislingen/Fils","municipality":{"key":"08117019","name":"Eislingen/Fils, Stadt","type":"Große_Kreisstadt"},"district":{"key":"08117","name":"Göppingen","type":"Landkreis"},"federalState":{"key":"08","name":"Baden-Württemberg"}},{"name":"Schubartstr.","postalCode":"73054","locality":"Eislingen/Fils","municipality":{"key":"08117019","name":"Eislingen/Fils, Stadt","type":"Große_Kreisstadt"},"district":{"key":"08117","name":"Göppingen","type":"Landkreis"},"federalState":{"key":"08","name":"Baden-Württemberg"}},{"name":"Schulstr.","postalCode":"73054","locality":"Eislingen/Fils","municipality":{"key":"08117019","name":"Eislingen/Fils, Stadt","type":"Große_Kreisstadt"},"district":{"key":"08117","name":"Göppingen","type":"Landkreis"},"federalState":{"key":"08","name":"Baden-Württemberg"}},{"name":"Schumannstr.","postalCode":"73054","locality":"Eislingen/Fils","municipality":{"key":"08117019","name":"Eislingen/Fils, Stadt","type":"Große_Kreisstadt"},"district":{"key":"08117","name":"Göppingen","type":"Landkreis"},"federalState":{"key":"08","name":"Baden-Württemberg"}},{"name":"Schützenstr.","postalCode":"73054","locality":"Eislingen/Fils","municipality":{"key":"08117019","name":"Eislingen/Fils, Stadt","type":"Große_Kreisstadt"},"district":{"key":"08117","name":"Göppingen","type":"Landkreis"},"federalState":{"key":"08","name":"Baden-Württemberg"}},{"name":"Schwabstr.","postalCode":"73054","locality":"Eislingen/Fils","municipality":{"key":"08117019","name":"Eislingen/Fils, Stadt","type":"Große_Kreisstadt"},"district":{"key":"08117","name":"Göppingen","type":"Landkreis"},"federalState":{"key":"08","name":"Baden-Württemberg"}},{"name":"Schwalbenweg","postalCode":"73054","locality":"Eislingen/Fils","municipality":{"key":"08117019","name":"Eislingen/Fils, Stadt","type":"Große_Kreisstadt"},"district":{"key":"08117","name":"Göppingen","type":"Landkreis"},"federalState":{"key":"08","name":"Baden-Württemberg"}},{"name":"Schwarzengasse","postalCode":"73054","locality":"Eislingen/Fils","municipality":{"key":"08117019","name":"Eislingen/Fils, Stadt","type":"Große_Kreisstadt"},"district":{"key":"08117","name":"Göppingen","type":"Landkreis"},"federalState":{"key":"08","name":"Baden-Württemberg"}},{"name":"Seestr.","postalCode":"73054","locality":"Eislingen/Fils","municipality":{"key":"08117019","name":"Eislingen/Fils, Stadt","type":"Große_Kreisstadt"},"district":{"key":"08117","name":"Göppingen","type":"Landkreis"},"federalState":{"key":"08","name":"Baden-Württemberg"}},{"name":"Seewiesenstr.","postalCode":"73054","locality":"Eislingen/Fils","municipality":{"key":"08117019","name":"Eislingen/Fils, Stadt","type":"Große_Kreisstadt"},"district":{"key":"08117","name":"Göppingen","type":"Landkreis"},"federalState":{"key":"08","name":"Baden-Württemberg"}},{"name":"Silcherstr.","postalCode":"73054","locality":"Eislingen/Fils","municipality":{"key":"08117019","name":"Eislingen/Fils, Stadt","type":"Große_Kreisstadt"},"district":{"key":"08117","name":"Göppingen","type":"Landkreis"},"federalState":{"key":"08","name":"Baden-Württemberg"}},{"name":"Sixtstr.","postalCode":"73054","locality":"Eislingen/Fils","municipality":{"key":"08117019","name":"Eislingen/Fils, Stadt","type":"Große_Kreisstadt"},"district":{"key":"08117","name":"Göppingen","type":"Landkreis"},"federalState":{"key":"08","name":"Baden-Württemberg"}},{"name":"Skagerrakstr.","postalCode":"73054","locality":"Eislingen/Fils","municipality":{"key":"08117019","name":"Eislingen/Fils, Stadt","type":"Große_Kreisstadt"},"district":{"key":"08117","name":"Göppingen","type":"Landkreis"},"federalState":{"key":"08","name":"Baden-Württemberg"}},{"name":"Sommerweg","postalCode":"73054","locality":"Eislingen/Fils","municipality":{"key":"08117019","name":"Eislingen/Fils, Stadt","type":"Große_Kreisstadt"},"district":{"key":"08117","name":"Göppingen","type":"Landkreis"},"federalState":{"key":"08","name":"Baden-Württemberg"}},{"name":"Spechtweg","postalCode":"73054","locality":"Eislingen/Fils","municipality":{"key":"08117019","name":"Eislingen/Fils, Stadt","type":"Große_Kreisstadt"},"district":{"key":"08117","name":"Göppingen","type":"Landkreis"},"federalState":{"key":"08","name":"Baden-Württemberg"}},{"name":"Sperberweg","postalCode":"73054","locality":"Eislingen/Fils","municipality":{"key":"08117019","name":"Eislingen/Fils, Stadt","type":"Große_Kreisstadt"},"district":{"key":"08117","name":"Göppingen","type":"Landkreis"},"federalState":{"key":"08","name":"Baden-Württemberg"}},{"name":"Starenweg","postalCode":"73054","locality":"Eislingen/Fils","municipality":{"key":"08117019","name":"Eislingen/Fils, Stadt","type":"Große_Kreisstadt"},"district":{"key":"08117","name":"Göppingen","type":"Landkreis"},"federalState":{"key":"08","name":"Baden-Württemberg"}},{"name":"Steinbeisstr.","postalCode":"73054","locality":"Eislingen/Fils","municipality":{"key":"08117019","name":"Eislingen/Fils, Stadt","type":"Große_Kreisstadt"},"district":{"key":"08117","name":"Göppingen","type":"Landkreis"},"federalState":{"key":"08","name":"Baden-Württemberg"}},{"name":"Stieglitzweg","postalCode":"73054","locality":"Eislingen/Fils","municipality":{"key":"08117019","name":"Eislingen/Fils, Stadt","type":"Große_Kreisstadt"},"district":{"key":"08117","name":"Göppingen","type":"Landkreis"},"federalState":{"key":"08","name":"Baden-Württemberg"}},{"name":"Streichenbachstr.","postalCode":"73054","locality":"Eislingen/Fils","municipality":{"key":"08117019","name":"Eislingen/Fils, Stadt","type":"Große_Kreisstadt"},"district":{"key":"08117","name":"Göppingen","type":"Landkreis"},"federalState":{"key":"08","name":"Baden-Württemberg"}},{"name":"Strutweg","postalCode":"73054","locality":"Eislingen/Fils","municipality":{"key":"08117019","name":"Eislingen/Fils, Stadt","type":"Große_Kreisstadt"},"district":{"key":"08117","name":"Göppingen","type":"Landkreis"},"federalState":{"key":"08","name":"Baden-Württemberg"}},{"name":"Stuifenstr.","postalCode":"73054","locality":"Eislingen/Fils","municipality":{"key":"08117019","name":"Eislingen/Fils, Stadt","type":"Große_Kreisstadt"},"district":{"key":"08117","name":"Göppingen","type":"Landkreis"},"federalState":{"key":"08","name":"Baden-Württemberg"}},{"name":"Stuttgarter Str.","postalCode":"73054","locality":"Eislingen/Fils","municipality":{"key":"08117019","name":"Eislingen/Fils, Stadt","type":"Große_Kreisstadt"},"district":{"key":"08117","name":"Göppingen","type":"Landkreis"},"federalState":{"key":"08","name":"Baden-Württemberg"}},{"name":"Sudetenstr.","postalCode":"73054","locality":"Eislingen/Fils","municipality":{"key":"08117019","name":"Eislingen/Fils, Stadt","type":"Große_Kreisstadt"},"district":{"key":"08117","name":"Göppingen","type":"Landkreis"},"federalState":{"key":"08","name":"Baden-Württemberg"}},{"name":"Tälesweg","postalCode":"73054","locality":"Eislingen/Fils","municipality":{"key":"08117019","name":"Eislingen/Fils, Stadt","type":"Große_Kreisstadt"},"district":{"key":"08117","name":"Göppingen","type":"Landkreis"},"federalState":{"key":"08","name":"Baden-Württemberg"}},{"name":"Talstr.","postalCode":"73054","locality":"Eislingen/Fils","municipality":{"key":"08117019","name":"Eislingen/Fils, Stadt","type":"Große_Kreisstadt"},"district":{"key":"08117","name":"Göppingen","type":"Landkreis"},"federalState":{"key":"08","name":"Baden-Württemberg"}},{"name":"Tannenbergstr.","postalCode":"73054","locality":"Eislingen/Fils","municipality":{"key":"08117019","name":"Eislingen/Fils, Stadt","type":"Große_Kreisstadt"},"district":{"key":"08117","name":"Göppingen","type":"Landkreis"},"federalState":{"key":"08","name":"Baden-Württemberg"}},{"name":"Teckstr.","postalCode":"73054","locality":"Eislingen/Fils","municipality":{"key":"08117019","name":"Eislingen/Fils, Stadt","type":"Große_Kreisstadt"},"district":{"key":"08117","name":"Göppingen","type":"Landkreis"},"federalState":{"key":"08","name":"Baden-Württemberg"}},{"name":"Theodor-Storm-Str.","postalCode":"73054","locality":"Eislingen/Fils","municipality":{"key":"08117019","name":"Eislingen/Fils, Stadt","type":"Große_Kreisstadt"},"district":{"key":"08117","name":"Göppingen","type":"Landkreis"},"federalState":{"key":"08","name":"Baden-Württemberg"}},{"name":"Trautenauer Weg","postalCode":"73054","locality":"Eislingen/Fils","municipality":{"key":"08117019","name":"Eislingen/Fils, Stadt","type":"Große_Kreisstadt"},"district":{"key":"08117","name":"Göppingen","type":"Landkreis"},"federalState":{"key":"08","name":"Baden-Württemberg"}},{"name":"Turnerweg","postalCode":"73054","locality":"Eislingen/Fils","municipality":{"key":"08117019","name":"Eislingen/Fils, Stadt","type":"Große_Kreisstadt"},"district":{"key":"08117","name":"Göppingen","type":"Landkreis"},"federalState":{"key":"08","name":"Baden-Württemberg"}},{"name":"Turnhallestr.","postalCode":"73054","locality":"Eislingen/Fils","municipality":{"key":"08117019","name":"Eislingen/Fils, Stadt","type":"Große_Kreisstadt"},"district":{"key":"08117","name":"Göppingen","type":"Landkreis"},"federalState":{"key":"08","name":"Baden-Württemberg"}},{"name":"Uferstr.","postalCode":"73054","locality":"Eislingen/Fils","municipality":{"key":"08117019","name":"Eislingen/Fils, Stadt","type":"Große_Kreisstadt"},"district":{"key":"08117","name":"Göppingen","type":"Landkreis"},"federalState":{"key":"08","name":"Baden-Württemberg"}},{"name":"Uhlandstr.","postalCode":"73054","locality":"Eislingen/Fils","municipality":{"key":"08117019","name":"Eislingen/Fils, Stadt","type":"Große_Kreisstadt"},"district":{"key":"08117","name":"Göppingen","type":"Landkreis"},"federalState":{"key":"08","name":"Baden-Württemberg"}},{"name":"Ulmer Str.","postalCode":"73054","locality":"Eislingen/Fils","municipality":{"key":"08117019","name":"Eislingen/Fils, Stadt","type":"Große_Kreisstadt"},"district":{"key":"08117","name":"Göppingen","type":"Landkreis"},"federalState":{"key":"08","name":"Baden-Württemberg"}},{"name":"Ulrichstr.","postalCode":"73054","locality":"Eislingen/Fils","municipality":{"key":"08117019","name":"Eislingen/Fils, Stadt","type":"Große_Kreisstadt"},"district":{"key":"08117","name":"Göppingen","type":"Landkreis"},"federalState":{"key":"08","name":"Baden-Württemberg"}},{"name":"Umgelterstr.","postalCode":"73054","locality":"Eislingen/Fils","municipality":{"key":"08117019","name":"Eislingen/Fils, Stadt","type":"Große_Kreisstadt"},"district":{"key":"08117","name":"Göppingen","type":"Landkreis"},"federalState":{"key":"08","name":"Baden-Württemberg"}},{"name":"Vogelgartenstr.","postalCode":"73054","locality":"Eislingen/Fils","municipality":{"key":"08117019","name":"Eislingen/Fils, Stadt","type":"Große_Kreisstadt"},"district":{"key":"08117","name":"Göppingen","type":"Landkreis"},"federalState":{"key":"08","name":"Baden-Württemberg"}},{"name":"von-Brentano-Weg","postalCode":"73054","locality":"Eislingen/Fils","municipality":{"key":"08117019","name":"Eislingen/Fils, Stadt","type":"Große_Kreisstadt"},"district":{"key":"08117","name":"Göppingen","type":"Landkreis"},"federalState":{"key":"08","name":"Baden-Württemberg"}},{"name":"von-Droste-Hülshoff-Str.","postalCode":"73054","locality":"Eislingen/Fils","municipality":{"key":"08117019","name":"Eislingen/Fils, Stadt","type":"Große_Kreisstadt"},"district":{"key":"08117","name":"Göppingen","type":"Landkreis"},"federalState":{"key":"08","name":"Baden-Württemberg"}},{"name":"von-Suttner-Weg","postalCode":"73054","locality":"Eislingen/Fils","municipality":{"key":"08117019","name":"Eislingen/Fils, Stadt","type":"Große_Kreisstadt"},"district":{"key":"08117","name":"Göppingen","type":"Landkreis"},"federalState":{"key":"08","name":"Baden-Württemberg"}},{"name":"Wachtelweg","postalCode":"73054","locality":"Eislingen/Fils","municipality":{"key":"08117019","name":"Eislingen/Fils, Stadt","type":"Große_Kreisstadt"},"district":{"key":"08117","name":"Göppingen","type":"Landkreis"},"federalState":{"key":"08","name":"Baden-Württemberg"}},{"name":"Wachterweg","postalCode":"73054","locality":"Eislingen/Fils","municipality":{"key":"08117019","name":"Eislingen/Fils, Stadt","type":"Große_Kreisstadt"},"district":{"key":"08117","name":"Göppingen","type":"Landkreis"},"federalState":{"key":"08","name":"Baden-Württemberg"}},{"name":"Wasenstr.","postalCode":"73054","locality":"Eislingen/Fils","municipality":{"key":"08117019","name":"Eislingen/Fils, Stadt","type":"Große_Kreisstadt"},"district":{"key":"08117","name":"Göppingen","type":"Landkreis"},"federalState":{"key":"08","name":"Baden-Württemberg"}},{"name":"Wasserbergstr.","postalCode":"73054","locality":"Eislingen/Fils","municipality":{"key":"08117019","name":"Eislingen/Fils, Stadt","type":"Große_Kreisstadt"},"district":{"key":"08117","name":"Göppingen","type":"Landkreis"},"federalState":{"key":"08","name":"Baden-Württemberg"}},{"name":"Wasserleitungsweg","postalCode":"73054","locality":"Eislingen/Fils","municipality":{"key":"08117019","name":"Eislingen/Fils, Stadt","type":"Große_Kreisstadt"},"district":{"key":"08117","name":"Göppingen","type":"Landkreis"},"federalState":{"key":"08","name":"Baden-Württemberg"}},{"name":"Weberstr.","postalCode":"73054","locality":"Eislingen/Fils","municipality":{"key":"08117019","name":"Eislingen/Fils, Stadt","type":"Große_Kreisstadt"},"district":{"key":"08117","name":"Göppingen","type":"Landkreis"},"federalState":{"key":"08","name":"Baden-Württemberg"}},{"name":"Wehrstr.","postalCode":"73054","locality":"Eislingen/Fils","municipality":{"key":"08117019","name":"Eislingen/Fils, Stadt","type":"Große_Kreisstadt"},"district":{"key":"08117","name":"Göppingen","type":"Landkreis"},"federalState":{"key":"08","name":"Baden-Württemberg"}},{"name":"Weidlenstr.","postalCode":"73054","locality":"Eislingen/Fils","municipality":{"key":"08117019","name":"Eislingen/Fils, Stadt","type":"Große_Kreisstadt"},"district":{"key":"08117","name":"Göppingen","type":"Landkreis"},"federalState":{"key":"08","name":"Baden-Württemberg"}},{"name":"Weingartenstr.","postalCode":"73054","locality":"Eislingen/Fils","municipality":{"key":"08117019","name":"Eislingen/Fils, Stadt","type":"Große_Kreisstadt"},"district":{"key":"08117","name":"Göppingen","type":"Landkreis"},"federalState":{"key":"08","name":"Baden-Württemberg"}},{"name":"Weinsteige","postalCode":"73054","locality":"Eislingen/Fils","municipality":{"key":"08117019","name":"Eislingen/Fils, Stadt","type":"Große_Kreisstadt"},"district":{"key":"08117","name":"Göppingen","type":"Landkreis"},"federalState":{"key":"08","name":"Baden-Württemberg"}},{"name":"Weltestr.","postalCode":"73054","locality":"Eislingen/Fils","municipality":{"key":"08117019","name":"Eislingen/Fils, Stadt","type":"Große_Kreisstadt"},"district":{"key":"08117","name":"Göppingen","type":"Landkreis"},"federalState":{"key":"08","name":"Baden-Württemberg"}},{"name":"Werkstr.","postalCode":"73054","locality":"Eislingen/Fils","municipality":{"key":"08117019","name":"Eislingen/Fils, Stadt","type":"Große_Kreisstadt"},"district":{"key":"08117","name":"Göppingen","type":"Landkreis"},"federalState":{"key":"08","name":"Baden-Württemberg"}},{"name":"Westtangente","postalCode":"73054","locality":"Eislingen/Fils","municipality":{"key":"08117019","name":"Eislingen/Fils, Stadt","type":"Große_Kreisstadt"},"district":{"key":"08117","name":"Göppingen","type":"Landkreis"},"federalState":{"key":"08","name":"Baden-Württemberg"}},{"name":"Wichernstr.","postalCode":"73054","locality":"Eislingen/Fils","municipality":{"key":"08117019","name":"Eislingen/Fils, Stadt","type":"Große_Kreisstadt"},"district":{"key":"08117","name":"Göppingen","type":"Landkreis"},"federalState":{"key":"08","name":"Baden-Württemberg"}},{"name":"Wielandweg","postalCode":"73054","locality":"Eislingen/Fils","municipality":{"key":"08117019","name":"Eislingen/Fils, Stadt","type":"Große_Kreisstadt"},"district":{"key":"08117","name":"Göppingen","type":"Landkreis"},"federalState":{"key":"08","name":"Baden-Württemberg"}},{"name":"Wiesenstr.","postalCode":"73054","locality":"Eislingen/Fils","municipality":{"key":"08117019","name":"Eislingen/Fils, Stadt","type":"Große_Kreisstadt"},"district":{"key":"08117","name":"Göppingen","type":"Landkreis"},"federalState":{"key":"08","name":"Baden-Württemberg"}},{"name":"Wilhelmstr.","postalCode":"73054","locality":"Eislingen/Fils","municipality":{"key":"08117019","name":"Eislingen/Fils, Stadt","type":"Große_Kreisstadt"},"district":{"key":"08117","name":"Göppingen","type":"Landkreis"},"federalState":{"key":"08","name":"Baden-Württemberg"}},{"name":"Wolffstr.","postalCode":"73054","locality":"Eislingen/Fils","municipality":{"key":"08117019","name":"Eislingen/Fils, Stadt","type":"Große_Kreisstadt"},"district":{"key":"08117","name":"Göppingen","type":"Landkreis"},"federalState":{"key":"08","name":"Baden-Württemberg"}},{"name":"Yorkstr.","postalCode":"73054","locality":"Eislingen/Fils","municipality":{"key":"08117019","name":"Eislingen/Fils, Stadt","type":"Große_Kreisstadt"},"district":{"key":"08117","name":"Göppingen","type":"Landkreis"},"federalState":{"key":"08","name":"Baden-Württemberg"}},{"name":"Zaunkönigweg","postalCode":"73054","locality":"Eislingen/Fils","municipality":{"key":"08117019","name":"Eislingen/Fils, Stadt","type":"Große_Kreisstadt"},"district":{"key":"08117","name":"Göppingen","type":"Landkreis"},"federalState":{"key":"08","name":"Baden-Württemberg"}},{"name":"Zeisigweg","postalCode":"73054","locality":"Eislingen/Fils","municipality":{"key":"08117019","name":"Eislingen/Fils, Stadt","type":"Große_Kreisstadt"},"district":{"key":"08117","name":"Göppingen","type":"Landkreis"},"federalState":{"key":"08","name":"Baden-Württemberg"}},{"name":"Zellerstr.","postalCode":"73054","locality":"Eislingen/Fils","municipality":{"key":"08117019","name":"Eislingen/Fils, Stadt","type":"Große_Kreisstadt"},"district":{"key":"08117","name":"Göppingen","type":"Landkreis"},"federalState":{"key":"08","name":"Baden-Württemberg"}},{"name":"Zeppelinstr.","postalCode":"73054","locality":"Eislingen/Fils","municipality":{"key":"08117019","name":"Eislingen/Fils, Stadt","type":"Große_Kreisstadt"},"district":{"key":"08117","name":"Göppingen","type":"Landkreis"},"federalState":{"key":"08","name":"Baden-Württemberg"}},{"name":"Ziegelbachklinge","postalCode":"73054","locality":"Eislingen/Fils","municipality":{"key":"08117019","name":"Eislingen/Fils, Stadt","type":"Große_Kreisstadt"},"district":{"key":"08117","name":"Göppingen","type":"Landkreis"},"federalState":{"key":"08","name":"Baden-Württemberg"}},{"name":"Ziegelbachstr.","postalCode":"73054","locality":"Eislingen/Fils","municipality":{"key":"08117019","name":"Eislingen/Fils, Stadt","type":"Große_Kreisstadt"},"district":{"key":"08117","name":"Göppingen","type":"Landkreis"},"federalState":{"key":"08","name":"Baden-Württemberg"}},{"name":"Ziegelhaldenstr.","postalCode":"73054","locality":"Eislingen/Fils","municipality":{"key":"08117019","name":"Eislingen/Fils, Stadt","type":"Große_Kreisstadt"},"district":{"key":"08117","name":"Göppingen","type":"Landkreis"},"federalState":{"key":"08","name":"Baden-Württemberg"}},{"name":"Öschstr.","postalCode":"73054","locality":"Eislingen/Fils","municipality":{"key":"08117019","name":"Eislingen/Fils, Stadt","type":"Große_Kreisstadt"},"district":{"key":"08117","name":"Göppingen","type":"Landkreis"},"federalState":{"key":"08","name":"Baden-Württemberg"}},]