[{"name":"Alte Dorfstr.","postalCode":"06258","locality":"Schkopau","municipality":{"key":"15088330","name":"Schkopau","type":"Kreisangehörige_Gemeinde"},"district":{"key":"15088","name":"Saalekreis","type":"Landkreis"},"federalState":{"key":"15","name":"Sachsen-Anhalt"}},{"name":"Alte Fähre","postalCode":"06258","locality":"Schkopau","municipality":{"key":"15088330","name":"Schkopau","type":"Kreisangehörige_Gemeinde"},"district":{"key":"15088","name":"Saalekreis","type":"Landkreis"},"federalState":{"key":"15","name":"Sachsen-Anhalt"}},{"name":"Alte Gröberssche Str.","postalCode":"06258","locality":"Schkopau","municipality":{"key":"15088330","name":"Schkopau","type":"Kreisangehörige_Gemeinde"},"district":{"key":"15088","name":"Saalekreis","type":"Landkreis"},"federalState":{"key":"15","name":"Sachsen-Anhalt"}},{"name":"Alter Sportplatz","postalCode":"06258","locality":"Schkopau","municipality":{"key":"15088330","name":"Schkopau","type":"Kreisangehörige_Gemeinde"},"district":{"key":"15088","name":"Saalekreis","type":"Landkreis"},"federalState":{"key":"15","name":"Sachsen-Anhalt"}},{"name":"Alter Teich","postalCode":"06258","locality":"Schkopau","municipality":{"key":"15088330","name":"Schkopau","type":"Kreisangehörige_Gemeinde"},"district":{"key":"15088","name":"Saalekreis","type":"Landkreis"},"federalState":{"key":"15","name":"Sachsen-Anhalt"}},{"name":"Alte Schäferei","postalCode":"06258","locality":"Schkopau","municipality":{"key":"15088330","name":"Schkopau","type":"Kreisangehörige_Gemeinde"},"district":{"key":"15088","name":"Saalekreis","type":"Landkreis"},"federalState":{"key":"15","name":"Sachsen-Anhalt"}},{"name":"Altes Dorf","postalCode":"06258","locality":"Schkopau","municipality":{"key":"15088330","name":"Schkopau","type":"Kreisangehörige_Gemeinde"},"district":{"key":"15088","name":"Saalekreis","type":"Landkreis"},"federalState":{"key":"15","name":"Sachsen-Anhalt"}},{"name":"Alte Ziegelei","postalCode":"06258","locality":"Schkopau","municipality":{"key":"15088330","name":"Schkopau","type":"Kreisangehörige_Gemeinde"},"district":{"key":"15088","name":"Saalekreis","type":"Landkreis"},"federalState":{"key":"15","name":"Sachsen-Anhalt"}},{"name":"Am Anger","postalCode":"06258","locality":"Schkopau","municipality":{"key":"15088330","name":"Schkopau","type":"Kreisangehörige_Gemeinde"},"district":{"key":"15088","name":"Saalekreis","type":"Landkreis"},"federalState":{"key":"15","name":"Sachsen-Anhalt"}},{"name":"Am Dölitz","postalCode":"06258","locality":"Schkopau","municipality":{"key":"15088330","name":"Schkopau","type":"Kreisangehörige_Gemeinde"},"district":{"key":"15088","name":"Saalekreis","type":"Landkreis"},"federalState":{"key":"15","name":"Sachsen-Anhalt"}},{"name":"Am Floßgraben","postalCode":"06258","locality":"Schkopau","municipality":{"key":"15088330","name":"Schkopau","type":"Kreisangehörige_Gemeinde"},"district":{"key":"15088","name":"Saalekreis","type":"Landkreis"},"federalState":{"key":"15","name":"Sachsen-Anhalt"}},{"name":"Am Flugplatz","postalCode":"06258","locality":"Schkopau","municipality":{"key":"15088330","name":"Schkopau","type":"Kreisangehörige_Gemeinde"},"district":{"key":"15088","name":"Saalekreis","type":"Landkreis"},"federalState":{"key":"15","name":"Sachsen-Anhalt"}},{"name":"Am Gartenweg","postalCode":"06258","locality":"Schkopau","municipality":{"key":"15088330","name":"Schkopau","type":"Kreisangehörige_Gemeinde"},"district":{"key":"15088","name":"Saalekreis","type":"Landkreis"},"federalState":{"key":"15","name":"Sachsen-Anhalt"}},{"name":"Am Hutberg","postalCode":"06258","locality":"Schkopau","municipality":{"key":"15088330","name":"Schkopau","type":"Kreisangehörige_Gemeinde"},"district":{"key":"15088","name":"Saalekreis","type":"Landkreis"},"federalState":{"key":"15","name":"Sachsen-Anhalt"}},{"name":"Am Kellerberg","postalCode":"06258","locality":"Schkopau","municipality":{"key":"15088330","name":"Schkopau","type":"Kreisangehörige_Gemeinde"},"district":{"key":"15088","name":"Saalekreis","type":"Landkreis"},"federalState":{"key":"15","name":"Sachsen-Anhalt"}},{"name":"Am Kirschberg","postalCode":"06258","locality":"Schkopau","municipality":{"key":"15088330","name":"Schkopau","type":"Kreisangehörige_Gemeinde"},"district":{"key":"15088","name":"Saalekreis","type":"Landkreis"},"federalState":{"key":"15","name":"Sachsen-Anhalt"}},{"name":"Am Löpitzer Schloß","postalCode":"06258","locality":"Schkopau","municipality":{"key":"15088330","name":"Schkopau","type":"Kreisangehörige_Gemeinde"},"district":{"key":"15088","name":"Saalekreis","type":"Landkreis"},"federalState":{"key":"15","name":"Sachsen-Anhalt"}},{"name":"Ammendorfer Str.","postalCode":"06258","locality":"Schkopau","municipality":{"key":"15088330","name":"Schkopau","type":"Kreisangehörige_Gemeinde"},"district":{"key":"15088","name":"Saalekreis","type":"Landkreis"},"federalState":{"key":"15","name":"Sachsen-Anhalt"}},{"name":"Am Mühlteich","postalCode":"06258","locality":"Schkopau","municipality":{"key":"15088330","name":"Schkopau","type":"Kreisangehörige_Gemeinde"},"district":{"key":"15088","name":"Saalekreis","type":"Landkreis"},"federalState":{"key":"15","name":"Sachsen-Anhalt"}},{"name":"Am Oberteich","postalCode":"06258","locality":"Schkopau","municipality":{"key":"15088330","name":"Schkopau","type":"Kreisangehörige_Gemeinde"},"district":{"key":"15088","name":"Saalekreis","type":"Landkreis"},"federalState":{"key":"15","name":"Sachsen-Anhalt"}},{"name":"Am Sandberg","postalCode":"06258","locality":"Schkopau","municipality":{"key":"15088330","name":"Schkopau","type":"Kreisangehörige_Gemeinde"},"district":{"key":"15088","name":"Saalekreis","type":"Landkreis"},"federalState":{"key":"15","name":"Sachsen-Anhalt"}},{"name":"Am Sportplatz","postalCode":"06258","locality":"Schkopau","municipality":{"key":"15088330","name":"Schkopau","type":"Kreisangehörige_Gemeinde"},"district":{"key":"15088","name":"Saalekreis","type":"Landkreis"},"federalState":{"key":"15","name":"Sachsen-Anhalt"}},{"name":"Am Tonschacht","postalCode":"06258","locality":"Schkopau","municipality":{"key":"15088330","name":"Schkopau","type":"Kreisangehörige_Gemeinde"},"district":{"key":"15088","name":"Saalekreis","type":"Landkreis"},"federalState":{"key":"15","name":"Sachsen-Anhalt"}},{"name":"Am Unterberg","postalCode":"06258","locality":"Schkopau","municipality":{"key":"15088330","name":"Schkopau","type":"Kreisangehörige_Gemeinde"},"district":{"key":"15088","name":"Saalekreis","type":"Landkreis"},"federalState":{"key":"15","name":"Sachsen-Anhalt"}},{"name":"Am Unterteich","postalCode":"06258","locality":"Schkopau","municipality":{"key":"15088330","name":"Schkopau","type":"Kreisangehörige_Gemeinde"},"district":{"key":"15088","name":"Saalekreis","type":"Landkreis"},"federalState":{"key":"15","name":"Sachsen-Anhalt"}},{"name":"Am Wald","postalCode":"06258","locality":"Schkopau","municipality":{"key":"15088330","name":"Schkopau","type":"Kreisangehörige_Gemeinde"},"district":{"key":"15088","name":"Saalekreis","type":"Landkreis"},"federalState":{"key":"15","name":"Sachsen-Anhalt"}},{"name":"Am Wallholz","postalCode":"06258","locality":"Schkopau","municipality":{"key":"15088330","name":"Schkopau","type":"Kreisangehörige_Gemeinde"},"district":{"key":"15088","name":"Saalekreis","type":"Landkreis"},"federalState":{"key":"15","name":"Sachsen-Anhalt"}},{"name":"Am Wassertal","postalCode":"06258","locality":"Schkopau","municipality":{"key":"15088330","name":"Schkopau","type":"Kreisangehörige_Gemeinde"},"district":{"key":"15088","name":"Saalekreis","type":"Landkreis"},"federalState":{"key":"15","name":"Sachsen-Anhalt"}},{"name":"Am Weinberg","postalCode":"06258","locality":"Schkopau","municipality":{"key":"15088330","name":"Schkopau","type":"Kreisangehörige_Gemeinde"},"district":{"key":"15088","name":"Saalekreis","type":"Landkreis"},"federalState":{"key":"15","name":"Sachsen-Anhalt"}},{"name":"An den Quellen","postalCode":"06258","locality":"Schkopau","municipality":{"key":"15088330","name":"Schkopau","type":"Kreisangehörige_Gemeinde"},"district":{"key":"15088","name":"Saalekreis","type":"Landkreis"},"federalState":{"key":"15","name":"Sachsen-Anhalt"}},{"name":"An der alten Elster","postalCode":"06258","locality":"Schkopau","municipality":{"key":"15088330","name":"Schkopau","type":"Kreisangehörige_Gemeinde"},"district":{"key":"15088","name":"Saalekreis","type":"Landkreis"},"federalState":{"key":"15","name":"Sachsen-Anhalt"}},{"name":"An der Bergschenke","postalCode":"06258","locality":"Schkopau","municipality":{"key":"15088330","name":"Schkopau","type":"Kreisangehörige_Gemeinde"},"district":{"key":"15088","name":"Saalekreis","type":"Landkreis"},"federalState":{"key":"15","name":"Sachsen-Anhalt"}},{"name":"An der Elster","postalCode":"06258","locality":"Schkopau","municipality":{"key":"15088330","name":"Schkopau","type":"Kreisangehörige_Gemeinde"},"district":{"key":"15088","name":"Saalekreis","type":"Landkreis"},"federalState":{"key":"15","name":"Sachsen-Anhalt"}},{"name":"An der Kastanienallee","postalCode":"06258","locality":"Schkopau","municipality":{"key":"15088330","name":"Schkopau","type":"Kreisangehörige_Gemeinde"},"district":{"key":"15088","name":"Saalekreis","type":"Landkreis"},"federalState":{"key":"15","name":"Sachsen-Anhalt"}},{"name":"An der Mühle","postalCode":"06258","locality":"Schkopau","municipality":{"key":"15088330","name":"Schkopau","type":"Kreisangehörige_Gemeinde"},"district":{"key":"15088","name":"Saalekreis","type":"Landkreis"},"federalState":{"key":"15","name":"Sachsen-Anhalt"}},{"name":"An der Schäferei","postalCode":"06258","locality":"Schkopau","municipality":{"key":"15088330","name":"Schkopau","type":"Kreisangehörige_Gemeinde"},"district":{"key":"15088","name":"Saalekreis","type":"Landkreis"},"federalState":{"key":"15","name":"Sachsen-Anhalt"}},{"name":"Annemariental","postalCode":"06258","locality":"Schkopau","municipality":{"key":"15088330","name":"Schkopau","type":"Kreisangehörige_Gemeinde"},"district":{"key":"15088","name":"Saalekreis","type":"Landkreis"},"federalState":{"key":"15","name":"Sachsen-Anhalt"}},{"name":"Apels Gut","postalCode":"06258","locality":"Schkopau","municipality":{"key":"15088330","name":"Schkopau","type":"Kreisangehörige_Gemeinde"},"district":{"key":"15088","name":"Saalekreis","type":"Landkreis"},"federalState":{"key":"15","name":"Sachsen-Anhalt"}},{"name":"Auenblick","postalCode":"06258","locality":"Schkopau","municipality":{"key":"15088330","name":"Schkopau","type":"Kreisangehörige_Gemeinde"},"district":{"key":"15088","name":"Saalekreis","type":"Landkreis"},"federalState":{"key":"15","name":"Sachsen-Anhalt"}},{"name":"Auenring","postalCode":"06258","locality":"Schkopau","municipality":{"key":"15088330","name":"Schkopau","type":"Kreisangehörige_Gemeinde"},"district":{"key":"15088","name":"Saalekreis","type":"Landkreis"},"federalState":{"key":"15","name":"Sachsen-Anhalt"}},{"name":"Auenstr.","postalCode":"06258","locality":"Schkopau","municipality":{"key":"15088330","name":"Schkopau","type":"Kreisangehörige_Gemeinde"},"district":{"key":"15088","name":"Saalekreis","type":"Landkreis"},"federalState":{"key":"15","name":"Sachsen-Anhalt"}},{"name":"Auenweg","postalCode":"06258","locality":"Schkopau","municipality":{"key":"15088330","name":"Schkopau","type":"Kreisangehörige_Gemeinde"},"district":{"key":"15088","name":"Saalekreis","type":"Landkreis"},"federalState":{"key":"15","name":"Sachsen-Anhalt"}},{"name":"Badenstr.","postalCode":"06258","locality":"Schkopau","municipality":{"key":"15088330","name":"Schkopau","type":"Kreisangehörige_Gemeinde"},"district":{"key":"15088","name":"Saalekreis","type":"Landkreis"},"federalState":{"key":"15","name":"Sachsen-Anhalt"}},{"name":"Bahnhofstr.","postalCode":"06258","locality":"Schkopau","municipality":{"key":"15088330","name":"Schkopau","type":"Kreisangehörige_Gemeinde"},"district":{"key":"15088","name":"Saalekreis","type":"Landkreis"},"federalState":{"key":"15","name":"Sachsen-Anhalt"}},{"name":"Bayernstr.","postalCode":"06258","locality":"Schkopau","municipality":{"key":"15088330","name":"Schkopau","type":"Kreisangehörige_Gemeinde"},"district":{"key":"15088","name":"Saalekreis","type":"Landkreis"},"federalState":{"key":"15","name":"Sachsen-Anhalt"}},{"name":"Bergbreite","postalCode":"06258","locality":"Schkopau","municipality":{"key":"15088330","name":"Schkopau","type":"Kreisangehörige_Gemeinde"},"district":{"key":"15088","name":"Saalekreis","type":"Landkreis"},"federalState":{"key":"15","name":"Sachsen-Anhalt"}},{"name":"Bergstr.","postalCode":"06258","locality":"Schkopau","municipality":{"key":"15088330","name":"Schkopau","type":"Kreisangehörige_Gemeinde"},"district":{"key":"15088","name":"Saalekreis","type":"Landkreis"},"federalState":{"key":"15","name":"Sachsen-Anhalt"}},{"name":"Berliner Str.","postalCode":"06258","locality":"Schkopau","municipality":{"key":"15088330","name":"Schkopau","type":"Kreisangehörige_Gemeinde"},"district":{"key":"15088","name":"Saalekreis","type":"Landkreis"},"federalState":{"key":"15","name":"Sachsen-Anhalt"}},{"name":"Bienengasse","postalCode":"06258","locality":"Schkopau","municipality":{"key":"15088330","name":"Schkopau","type":"Kreisangehörige_Gemeinde"},"district":{"key":"15088","name":"Saalekreis","type":"Landkreis"},"federalState":{"key":"15","name":"Sachsen-Anhalt"}},{"name":"Birkenhof","postalCode":"06258","locality":"Schkopau","municipality":{"key":"15088330","name":"Schkopau","type":"Kreisangehörige_Gemeinde"},"district":{"key":"15088","name":"Saalekreis","type":"Landkreis"},"federalState":{"key":"15","name":"Sachsen-Anhalt"}},{"name":"Birkenring","postalCode":"06258","locality":"Schkopau","municipality":{"key":"15088330","name":"Schkopau","type":"Kreisangehörige_Gemeinde"},"district":{"key":"15088","name":"Saalekreis","type":"Landkreis"},"federalState":{"key":"15","name":"Sachsen-Anhalt"}},{"name":"Bitterfeldstr.","postalCode":"06258","locality":"Schkopau","municipality":{"key":"15088330","name":"Schkopau","type":"Kreisangehörige_Gemeinde"},"district":{"key":"15088","name":"Saalekreis","type":"Landkreis"},"federalState":{"key":"15","name":"Sachsen-Anhalt"}},{"name":"Bruckdorfer Str.","postalCode":"06258","locality":"Schkopau","municipality":{"key":"15088330","name":"Schkopau","type":"Kreisangehörige_Gemeinde"},"district":{"key":"15088","name":"Saalekreis","type":"Landkreis"},"federalState":{"key":"15","name":"Sachsen-Anhalt"}},{"name":"Bündorfer Str.","postalCode":"06258","locality":"Schkopau","municipality":{"key":"15088330","name":"Schkopau","type":"Kreisangehörige_Gemeinde"},"district":{"key":"15088","name":"Saalekreis","type":"Landkreis"},"federalState":{"key":"15","name":"Sachsen-Anhalt"}},{"name":"Burgliebenauer Str.","postalCode":"06258","locality":"Schkopau","municipality":{"key":"15088330","name":"Schkopau","type":"Kreisangehörige_Gemeinde"},"district":{"key":"15088","name":"Saalekreis","type":"Landkreis"},"federalState":{"key":"15","name":"Sachsen-Anhalt"}},{"name":"Carl-Maria-von-Weber-Ring","postalCode":"06258","locality":"Schkopau","municipality":{"key":"15088330","name":"Schkopau","type":"Kreisangehörige_Gemeinde"},"district":{"key":"15088","name":"Saalekreis","type":"Landkreis"},"federalState":{"key":"15","name":"Sachsen-Anhalt"}},{"name":"Chemillenium-Park","postalCode":"06258","locality":"Schkopau","municipality":{"key":"15088330","name":"Schkopau","type":"Kreisangehörige_Gemeinde"},"district":{"key":"15088","name":"Saalekreis","type":"Landkreis"},"federalState":{"key":"15","name":"Sachsen-Anhalt"}},{"name":"Das Kirchenholz","postalCode":"06258","locality":"Schkopau","municipality":{"key":"15088330","name":"Schkopau","type":"Kreisangehörige_Gemeinde"},"district":{"key":"15088","name":"Saalekreis","type":"Landkreis"},"federalState":{"key":"15","name":"Sachsen-Anhalt"}},{"name":"Denkmalplatz","postalCode":"06258","locality":"Schkopau","municipality":{"key":"15088330","name":"Schkopau","type":"Kreisangehörige_Gemeinde"},"district":{"key":"15088","name":"Saalekreis","type":"Landkreis"},"federalState":{"key":"15","name":"Sachsen-Anhalt"}},{"name":"Die Kreuzbreite","postalCode":"06258","locality":"Schkopau","municipality":{"key":"15088330","name":"Schkopau","type":"Kreisangehörige_Gemeinde"},"district":{"key":"15088","name":"Saalekreis","type":"Landkreis"},"federalState":{"key":"15","name":"Sachsen-Anhalt"}},{"name":"Die Mühlbreite","postalCode":"06258","locality":"Schkopau","municipality":{"key":"15088330","name":"Schkopau","type":"Kreisangehörige_Gemeinde"},"district":{"key":"15088","name":"Saalekreis","type":"Landkreis"},"federalState":{"key":"15","name":"Sachsen-Anhalt"}},{"name":"Dieskauer Str.","postalCode":"06258","locality":"Schkopau","municipality":{"key":"15088330","name":"Schkopau","type":"Kreisangehörige_Gemeinde"},"district":{"key":"15088","name":"Saalekreis","type":"Landkreis"},"federalState":{"key":"15","name":"Sachsen-Anhalt"}},{"name":"Döllnitzer Weg","postalCode":"06258","locality":"Schkopau","municipality":{"key":"15088330","name":"Schkopau","type":"Kreisangehörige_Gemeinde"},"district":{"key":"15088","name":"Saalekreis","type":"Landkreis"},"federalState":{"key":"15","name":"Sachsen-Anhalt"}},{"name":"Dorfplatz","postalCode":"06258","locality":"Schkopau","municipality":{"key":"15088330","name":"Schkopau","type":"Kreisangehörige_Gemeinde"},"district":{"key":"15088","name":"Saalekreis","type":"Landkreis"},"federalState":{"key":"15","name":"Sachsen-Anhalt"}},{"name":"Dorfstr.","postalCode":"06258","locality":"Schkopau","municipality":{"key":"15088330","name":"Schkopau","type":"Kreisangehörige_Gemeinde"},"district":{"key":"15088","name":"Saalekreis","type":"Landkreis"},"federalState":{"key":"15","name":"Sachsen-Anhalt"}},{"name":"Dörstewitzer Str.","postalCode":"06258","locality":"Schkopau","municipality":{"key":"15088330","name":"Schkopau","type":"Kreisangehörige_Gemeinde"},"district":{"key":"15088","name":"Saalekreis","type":"Landkreis"},"federalState":{"key":"15","name":"Sachsen-Anhalt"}},{"name":"Eisenbahnstr.","postalCode":"06258","locality":"Schkopau","municipality":{"key":"15088330","name":"Schkopau","type":"Kreisangehörige_Gemeinde"},"district":{"key":"15088","name":"Saalekreis","type":"Landkreis"},"federalState":{"key":"15","name":"Sachsen-Anhalt"}},{"name":"Elstergasse","postalCode":"06258","locality":"Schkopau","municipality":{"key":"15088330","name":"Schkopau","type":"Kreisangehörige_Gemeinde"},"district":{"key":"15088","name":"Saalekreis","type":"Landkreis"},"federalState":{"key":"15","name":"Sachsen-Anhalt"}},{"name":"Elsterstr.","postalCode":"06258","locality":"Schkopau","municipality":{"key":"15088330","name":"Schkopau","type":"Kreisangehörige_Gemeinde"},"district":{"key":"15088","name":"Saalekreis","type":"Landkreis"},"federalState":{"key":"15","name":"Sachsen-Anhalt"}},{"name":"Emil-Fischer-Str.","postalCode":"06258","locality":"Schkopau","municipality":{"key":"15088330","name":"Schkopau","type":"Kreisangehörige_Gemeinde"},"district":{"key":"15088","name":"Saalekreis","type":"Landkreis"},"federalState":{"key":"15","name":"Sachsen-Anhalt"}},{"name":"Erich-Mühsam-Str.","postalCode":"06258","locality":"Schkopau","municipality":{"key":"15088330","name":"Schkopau","type":"Kreisangehörige_Gemeinde"},"district":{"key":"15088","name":"Saalekreis","type":"Landkreis"},"federalState":{"key":"15","name":"Sachsen-Anhalt"}},{"name":"Ernst-Thälmann-Platz","postalCode":"06258","locality":"Schkopau","municipality":{"key":"15088330","name":"Schkopau","type":"Kreisangehörige_Gemeinde"},"district":{"key":"15088","name":"Saalekreis","type":"Landkreis"},"federalState":{"key":"15","name":"Sachsen-Anhalt"}},{"name":"Eschenweg","postalCode":"06258","locality":"Schkopau","municipality":{"key":"15088330","name":"Schkopau","type":"Kreisangehörige_Gemeinde"},"district":{"key":"15088","name":"Saalekreis","type":"Landkreis"},"federalState":{"key":"15","name":"Sachsen-Anhalt"}},{"name":"Feldrain","postalCode":"06258","locality":"Schkopau","municipality":{"key":"15088330","name":"Schkopau","type":"Kreisangehörige_Gemeinde"},"district":{"key":"15088","name":"Saalekreis","type":"Landkreis"},"federalState":{"key":"15","name":"Sachsen-Anhalt"}},{"name":"Feldstr.","postalCode":"06258","locality":"Schkopau","municipality":{"key":"15088330","name":"Schkopau","type":"Kreisangehörige_Gemeinde"},"district":{"key":"15088","name":"Saalekreis","type":"Landkreis"},"federalState":{"key":"15","name":"Sachsen-Anhalt"}},{"name":"Fischerwinkel","postalCode":"06258","locality":"Schkopau","municipality":{"key":"15088330","name":"Schkopau","type":"Kreisangehörige_Gemeinde"},"district":{"key":"15088","name":"Saalekreis","type":"Landkreis"},"federalState":{"key":"15","name":"Sachsen-Anhalt"}},{"name":"Fleischergasse","postalCode":"06258","locality":"Schkopau","municipality":{"key":"15088330","name":"Schkopau","type":"Kreisangehörige_Gemeinde"},"district":{"key":"15088","name":"Saalekreis","type":"Landkreis"},"federalState":{"key":"15","name":"Sachsen-Anhalt"}},{"name":"Flurstr.","postalCode":"06258","locality":"Schkopau","municipality":{"key":"15088330","name":"Schkopau","type":"Kreisangehörige_Gemeinde"},"district":{"key":"15088","name":"Saalekreis","type":"Landkreis"},"federalState":{"key":"15","name":"Sachsen-Anhalt"}},{"name":"Friedensdorfer Weg","postalCode":"06258","locality":"Schkopau","municipality":{"key":"15088330","name":"Schkopau","type":"Kreisangehörige_Gemeinde"},"district":{"key":"15088","name":"Saalekreis","type":"Landkreis"},"federalState":{"key":"15","name":"Sachsen-Anhalt"}},{"name":"Friedensstr.","postalCode":"06258","locality":"Schkopau","municipality":{"key":"15088330","name":"Schkopau","type":"Kreisangehörige_Gemeinde"},"district":{"key":"15088","name":"Saalekreis","type":"Landkreis"},"federalState":{"key":"15","name":"Sachsen-Anhalt"}},{"name":"Friedhofstr.","postalCode":"06258","locality":"Schkopau","municipality":{"key":"15088330","name":"Schkopau","type":"Kreisangehörige_Gemeinde"},"district":{"key":"15088","name":"Saalekreis","type":"Landkreis"},"federalState":{"key":"15","name":"Sachsen-Anhalt"}},{"name":"Friedrich-Wöhler-Str.","postalCode":"06258","locality":"Schkopau","municipality":{"key":"15088330","name":"Schkopau","type":"Kreisangehörige_Gemeinde"},"district":{"key":"15088","name":"Saalekreis","type":"Landkreis"},"federalState":{"key":"15","name":"Sachsen-Anhalt"}},{"name":"Gartenweg","postalCode":"06258","locality":"Schkopau","municipality":{"key":"15088330","name":"Schkopau","type":"Kreisangehörige_Gemeinde"},"district":{"key":"15088","name":"Saalekreis","type":"Landkreis"},"federalState":{"key":"15","name":"Sachsen-Anhalt"}},{"name":"Goethestr.","postalCode":"06258","locality":"Schkopau","municipality":{"key":"15088330","name":"Schkopau","type":"Kreisangehörige_Gemeinde"},"district":{"key":"15088","name":"Saalekreis","type":"Landkreis"},"federalState":{"key":"15","name":"Sachsen-Anhalt"}},{"name":"Gosestr.","postalCode":"06258","locality":"Schkopau","municipality":{"key":"15088330","name":"Schkopau","type":"Kreisangehörige_Gemeinde"},"district":{"key":"15088","name":"Saalekreis","type":"Landkreis"},"federalState":{"key":"15","name":"Sachsen-Anhalt"}},{"name":"Gröberssche Str.","postalCode":"06258","locality":"Schkopau","municipality":{"key":"15088330","name":"Schkopau","type":"Kreisangehörige_Gemeinde"},"district":{"key":"15088","name":"Saalekreis","type":"Landkreis"},"federalState":{"key":"15","name":"Sachsen-Anhalt"}},{"name":"Grüne Aue","postalCode":"06258","locality":"Schkopau","municipality":{"key":"15088330","name":"Schkopau","type":"Kreisangehörige_Gemeinde"},"district":{"key":"15088","name":"Saalekreis","type":"Landkreis"},"federalState":{"key":"15","name":"Sachsen-Anhalt"}},{"name":"Gutshof","postalCode":"06258","locality":"Schkopau","municipality":{"key":"15088330","name":"Schkopau","type":"Kreisangehörige_Gemeinde"},"district":{"key":"15088","name":"Saalekreis","type":"Landkreis"},"federalState":{"key":"15","name":"Sachsen-Anhalt"}},{"name":"Gutspark","postalCode":"06258","locality":"Schkopau","municipality":{"key":"15088330","name":"Schkopau","type":"Kreisangehörige_Gemeinde"},"district":{"key":"15088","name":"Saalekreis","type":"Landkreis"},"federalState":{"key":"15","name":"Sachsen-Anhalt"}},{"name":"Hallesche Str.","postalCode":"06258","locality":"Schkopau","municipality":{"key":"15088330","name":"Schkopau","type":"Kreisangehörige_Gemeinde"},"district":{"key":"15088","name":"Saalekreis","type":"Landkreis"},"federalState":{"key":"15","name":"Sachsen-Anhalt"}},{"name":"Hauptstr.","postalCode":"06258","locality":"Schkopau","municipality":{"key":"15088330","name":"Schkopau","type":"Kreisangehörige_Gemeinde"},"district":{"key":"15088","name":"Saalekreis","type":"Landkreis"},"federalState":{"key":"15","name":"Sachsen-Anhalt"}},{"name":"Heimstättenweg","postalCode":"06258","locality":"Schkopau","municipality":{"key":"15088330","name":"Schkopau","type":"Kreisangehörige_Gemeinde"},"district":{"key":"15088","name":"Saalekreis","type":"Landkreis"},"federalState":{"key":"15","name":"Sachsen-Anhalt"}},{"name":"Heinrich-Heine-Str.","postalCode":"06258","locality":"Schkopau","municipality":{"key":"15088330","name":"Schkopau","type":"Kreisangehörige_Gemeinde"},"district":{"key":"15088","name":"Saalekreis","type":"Landkreis"},"federalState":{"key":"15","name":"Sachsen-Anhalt"}},{"name":"Hieronymus-von-Bose-Str.","postalCode":"06258","locality":"Schkopau","municipality":{"key":"15088330","name":"Schkopau","type":"Kreisangehörige_Gemeinde"},"district":{"key":"15088","name":"Saalekreis","type":"Landkreis"},"federalState":{"key":"15","name":"Sachsen-Anhalt"}},{"name":"Hinter dem Dorfe","postalCode":"06258","locality":"Schkopau","municipality":{"key":"15088330","name":"Schkopau","type":"Kreisangehörige_Gemeinde"},"district":{"key":"15088","name":"Saalekreis","type":"Landkreis"},"federalState":{"key":"15","name":"Sachsen-Anhalt"}},{"name":"Höchststr.","postalCode":"06258","locality":"Schkopau","municipality":{"key":"15088330","name":"Schkopau","type":"Kreisangehörige_Gemeinde"},"district":{"key":"15088","name":"Saalekreis","type":"Landkreis"},"federalState":{"key":"15","name":"Sachsen-Anhalt"}},{"name":"Hofbreite","postalCode":"06258","locality":"Schkopau","municipality":{"key":"15088330","name":"Schkopau","type":"Kreisangehörige_Gemeinde"},"district":{"key":"15088","name":"Saalekreis","type":"Landkreis"},"federalState":{"key":"15","name":"Sachsen-Anhalt"}},{"name":"Hofeberg","postalCode":"06258","locality":"Schkopau","municipality":{"key":"15088330","name":"Schkopau","type":"Kreisangehörige_Gemeinde"},"district":{"key":"15088","name":"Saalekreis","type":"Landkreis"},"federalState":{"key":"15","name":"Sachsen-Anhalt"}},{"name":"Hohlweg","postalCode":"06258","locality":"Schkopau","municipality":{"key":"15088330","name":"Schkopau","type":"Kreisangehörige_Gemeinde"},"district":{"key":"15088","name":"Saalekreis","type":"Landkreis"},"federalState":{"key":"15","name":"Sachsen-Anhalt"}},{"name":"Im Hof","postalCode":"06258","locality":"Schkopau","municipality":{"key":"15088330","name":"Schkopau","type":"Kreisangehörige_Gemeinde"},"district":{"key":"15088","name":"Saalekreis","type":"Landkreis"},"federalState":{"key":"15","name":"Sachsen-Anhalt"}},{"name":"Justus-von-Liebig-Str.","postalCode":"06258","locality":"Schkopau","municipality":{"key":"15088330","name":"Schkopau","type":"Kreisangehörige_Gemeinde"},"district":{"key":"15088","name":"Saalekreis","type":"Landkreis"},"federalState":{"key":"15","name":"Sachsen-Anhalt"}},{"name":"Kälbergarten","postalCode":"06258","locality":"Schkopau","municipality":{"key":"15088330","name":"Schkopau","type":"Kreisangehörige_Gemeinde"},"district":{"key":"15088","name":"Saalekreis","type":"Landkreis"},"federalState":{"key":"15","name":"Sachsen-Anhalt"}},{"name":"Karl-Witte-Str.","postalCode":"06258","locality":"Schkopau","municipality":{"key":"15088330","name":"Schkopau","type":"Kreisangehörige_Gemeinde"},"district":{"key":"15088","name":"Saalekreis","type":"Landkreis"},"federalState":{"key":"15","name":"Sachsen-Anhalt"}},{"name":"Kärrnerstr.","postalCode":"06258","locality":"Schkopau","municipality":{"key":"15088330","name":"Schkopau","type":"Kreisangehörige_Gemeinde"},"district":{"key":"15088","name":"Saalekreis","type":"Landkreis"},"federalState":{"key":"15","name":"Sachsen-Anhalt"}},{"name":"Kastanienweg","postalCode":"06258","locality":"Schkopau","municipality":{"key":"15088330","name":"Schkopau","type":"Kreisangehörige_Gemeinde"},"district":{"key":"15088","name":"Saalekreis","type":"Landkreis"},"federalState":{"key":"15","name":"Sachsen-Anhalt"}},{"name":"Kirchgasse","postalCode":"06258","locality":"Schkopau","municipality":{"key":"15088330","name":"Schkopau","type":"Kreisangehörige_Gemeinde"},"district":{"key":"15088","name":"Saalekreis","type":"Landkreis"},"federalState":{"key":"15","name":"Sachsen-Anhalt"}},{"name":"Kirchstr.","postalCode":"06258","locality":"Schkopau","municipality":{"key":"15088330","name":"Schkopau","type":"Kreisangehörige_Gemeinde"},"district":{"key":"15088","name":"Saalekreis","type":"Landkreis"},"federalState":{"key":"15","name":"Sachsen-Anhalt"}},{"name":"Kirchweg","postalCode":"06258","locality":"Schkopau","municipality":{"key":"15088330","name":"Schkopau","type":"Kreisangehörige_Gemeinde"},"district":{"key":"15088","name":"Saalekreis","type":"Landkreis"},"federalState":{"key":"15","name":"Sachsen-Anhalt"}},{"name":"Kirchwinkel","postalCode":"06258","locality":"Schkopau","municipality":{"key":"15088330","name":"Schkopau","type":"Kreisangehörige_Gemeinde"},"district":{"key":"15088","name":"Saalekreis","type":"Landkreis"},"federalState":{"key":"15","name":"Sachsen-Anhalt"}},{"name":"Kirschberg","postalCode":"06258","locality":"Schkopau","municipality":{"key":"15088330","name":"Schkopau","type":"Kreisangehörige_Gemeinde"},"district":{"key":"15088","name":"Saalekreis","type":"Landkreis"},"federalState":{"key":"15","name":"Sachsen-Anhalt"}},{"name":"Kleine Mühlenstr.","postalCode":"06258","locality":"Schkopau","municipality":{"key":"15088330","name":"Schkopau","type":"Kreisangehörige_Gemeinde"},"district":{"key":"15088","name":"Saalekreis","type":"Landkreis"},"federalState":{"key":"15","name":"Sachsen-Anhalt"}},{"name":"Knapendorfer Weg","postalCode":"06258","locality":"Schkopau","municipality":{"key":"15088330","name":"Schkopau","type":"Kreisangehörige_Gemeinde"},"district":{"key":"15088","name":"Saalekreis","type":"Landkreis"},"federalState":{"key":"15","name":"Sachsen-Anhalt"}},{"name":"Knapsackstr.","postalCode":"06258","locality":"Schkopau","municipality":{"key":"15088330","name":"Schkopau","type":"Kreisangehörige_Gemeinde"},"district":{"key":"15088","name":"Saalekreis","type":"Landkreis"},"federalState":{"key":"15","name":"Sachsen-Anhalt"}},{"name":"Kohlenstr.","postalCode":"06258","locality":"Schkopau","municipality":{"key":"15088330","name":"Schkopau","type":"Kreisangehörige_Gemeinde"},"district":{"key":"15088","name":"Saalekreis","type":"Landkreis"},"federalState":{"key":"15","name":"Sachsen-Anhalt"}},{"name":"Kollenbey","postalCode":"06258","locality":"Schkopau","municipality":{"key":"15088330","name":"Schkopau","type":"Kreisangehörige_Gemeinde"},"district":{"key":"15088","name":"Saalekreis","type":"Landkreis"},"federalState":{"key":"15","name":"Sachsen-Anhalt"}},{"name":"Korbethaer Str.","postalCode":"06258","locality":"Schkopau","municipality":{"key":"15088330","name":"Schkopau","type":"Kreisangehörige_Gemeinde"},"district":{"key":"15088","name":"Saalekreis","type":"Landkreis"},"federalState":{"key":"15","name":"Sachsen-Anhalt"}},{"name":"Körnerweg","postalCode":"06258","locality":"Schkopau","municipality":{"key":"15088330","name":"Schkopau","type":"Kreisangehörige_Gemeinde"},"district":{"key":"15088","name":"Saalekreis","type":"Landkreis"},"federalState":{"key":"15","name":"Sachsen-Anhalt"}},{"name":"Ledermannstr.","postalCode":"06258","locality":"Schkopau","municipality":{"key":"15088330","name":"Schkopau","type":"Kreisangehörige_Gemeinde"},"district":{"key":"15088","name":"Saalekreis","type":"Landkreis"},"federalState":{"key":"15","name":"Sachsen-Anhalt"}},{"name":"Leipziger Allee","postalCode":"06258","locality":"Schkopau","municipality":{"key":"15088330","name":"Schkopau","type":"Kreisangehörige_Gemeinde"},"district":{"key":"15088","name":"Saalekreis","type":"Landkreis"},"federalState":{"key":"15","name":"Sachsen-Anhalt"}},{"name":"Leipziger Str.","postalCode":"06258","locality":"Schkopau","municipality":{"key":"15088330","name":"Schkopau","type":"Kreisangehörige_Gemeinde"},"district":{"key":"15088","name":"Saalekreis","type":"Landkreis"},"federalState":{"key":"15","name":"Sachsen-Anhalt"}},{"name":"Leunastr.","postalCode":"06258","locality":"Schkopau","municipality":{"key":"15088330","name":"Schkopau","type":"Kreisangehörige_Gemeinde"},"district":{"key":"15088","name":"Saalekreis","type":"Landkreis"},"federalState":{"key":"15","name":"Sachsen-Anhalt"}},{"name":"Leverkusenstr.","postalCode":"06258","locality":"Schkopau","municipality":{"key":"15088330","name":"Schkopau","type":"Kreisangehörige_Gemeinde"},"district":{"key":"15088","name":"Saalekreis","type":"Landkreis"},"federalState":{"key":"15","name":"Sachsen-Anhalt"}},{"name":"Lindenplatz","postalCode":"06258","locality":"Schkopau","municipality":{"key":"15088330","name":"Schkopau","type":"Kreisangehörige_Gemeinde"},"district":{"key":"15088","name":"Saalekreis","type":"Landkreis"},"federalState":{"key":"15","name":"Sachsen-Anhalt"}},{"name":"Lindenstr.","postalCode":"06258","locality":"Schkopau","municipality":{"key":"15088330","name":"Schkopau","type":"Kreisangehörige_Gemeinde"},"district":{"key":"15088","name":"Saalekreis","type":"Landkreis"},"federalState":{"key":"15","name":"Sachsen-Anhalt"}},{"name":"Löpitzer Str.","postalCode":"06258","locality":"Schkopau","municipality":{"key":"15088330","name":"Schkopau","type":"Kreisangehörige_Gemeinde"},"district":{"key":"15088","name":"Saalekreis","type":"Landkreis"},"federalState":{"key":"15","name":"Sachsen-Anhalt"}},{"name":"Lössener Str.","postalCode":"06258","locality":"Schkopau","municipality":{"key":"15088330","name":"Schkopau","type":"Kreisangehörige_Gemeinde"},"district":{"key":"15088","name":"Saalekreis","type":"Landkreis"},"federalState":{"key":"15","name":"Sachsen-Anhalt"}},{"name":"Ludwigshafenstr.","postalCode":"06258","locality":"Schkopau","municipality":{"key":"15088330","name":"Schkopau","type":"Kreisangehörige_Gemeinde"},"district":{"key":"15088","name":"Saalekreis","type":"Landkreis"},"federalState":{"key":"15","name":"Sachsen-Anhalt"}},{"name":"Ludwig-Uhland-Str.","postalCode":"06258","locality":"Schkopau","municipality":{"key":"15088330","name":"Schkopau","type":"Kreisangehörige_Gemeinde"},"district":{"key":"15088","name":"Saalekreis","type":"Landkreis"},"federalState":{"key":"15","name":"Sachsen-Anhalt"}},{"name":"Maxim-Gorki-Str.","postalCode":"06258","locality":"Schkopau","municipality":{"key":"15088330","name":"Schkopau","type":"Kreisangehörige_Gemeinde"},"district":{"key":"15088","name":"Saalekreis","type":"Landkreis"},"federalState":{"key":"15","name":"Sachsen-Anhalt"}},{"name":"Merseburger Str.","postalCode":"06258","locality":"Schkopau","municipality":{"key":"15088330","name":"Schkopau","type":"Kreisangehörige_Gemeinde"},"district":{"key":"15088","name":"Saalekreis","type":"Landkreis"},"federalState":{"key":"15","name":"Sachsen-Anhalt"}},{"name":"Mittelgasse","postalCode":"06258","locality":"Schkopau","municipality":{"key":"15088330","name":"Schkopau","type":"Kreisangehörige_Gemeinde"},"district":{"key":"15088","name":"Saalekreis","type":"Landkreis"},"federalState":{"key":"15","name":"Sachsen-Anhalt"}},{"name":"Mittelstr.","postalCode":"06258","locality":"Schkopau","municipality":{"key":"15088330","name":"Schkopau","type":"Kreisangehörige_Gemeinde"},"district":{"key":"15088","name":"Saalekreis","type":"Landkreis"},"federalState":{"key":"15","name":"Sachsen-Anhalt"}},{"name":"Mühlenende","postalCode":"06258","locality":"Schkopau","municipality":{"key":"15088330","name":"Schkopau","type":"Kreisangehörige_Gemeinde"},"district":{"key":"15088","name":"Saalekreis","type":"Landkreis"},"federalState":{"key":"15","name":"Sachsen-Anhalt"}},{"name":"Mühlenstr.","postalCode":"06258","locality":"Schkopau","municipality":{"key":"15088330","name":"Schkopau","type":"Kreisangehörige_Gemeinde"},"district":{"key":"15088","name":"Saalekreis","type":"Landkreis"},"federalState":{"key":"15","name":"Sachsen-Anhalt"}},{"name":"Mühlstr.","postalCode":"06258","locality":"Schkopau","municipality":{"key":"15088330","name":"Schkopau","type":"Kreisangehörige_Gemeinde"},"district":{"key":"15088","name":"Saalekreis","type":"Landkreis"},"federalState":{"key":"15","name":"Sachsen-Anhalt"}},{"name":"Neue Str.","postalCode":"06258","locality":"Schkopau","municipality":{"key":"15088330","name":"Schkopau","type":"Kreisangehörige_Gemeinde"},"district":{"key":"15088","name":"Saalekreis","type":"Landkreis"},"federalState":{"key":"15","name":"Sachsen-Anhalt"}},{"name":"Neustädter Str.","postalCode":"06258","locality":"Schkopau","municipality":{"key":"15088330","name":"Schkopau","type":"Kreisangehörige_Gemeinde"},"district":{"key":"15088","name":"Saalekreis","type":"Landkreis"},"federalState":{"key":"15","name":"Sachsen-Anhalt"}},{"name":"Oberthauer Str.","postalCode":"06258","locality":"Schkopau","municipality":{"key":"15088330","name":"Schkopau","type":"Kreisangehörige_Gemeinde"},"district":{"key":"15088","name":"Saalekreis","type":"Landkreis"},"federalState":{"key":"15","name":"Sachsen-Anhalt"}},{"name":"Oppaustr.","postalCode":"06258","locality":"Schkopau","municipality":{"key":"15088330","name":"Schkopau","type":"Kreisangehörige_Gemeinde"},"district":{"key":"15088","name":"Saalekreis","type":"Landkreis"},"federalState":{"key":"15","name":"Sachsen-Anhalt"}},{"name":"Otto-Kreutzmann-Str.","postalCode":"06258","locality":"Schkopau","municipality":{"key":"15088330","name":"Schkopau","type":"Kreisangehörige_Gemeinde"},"district":{"key":"15088","name":"Saalekreis","type":"Landkreis"},"federalState":{"key":"15","name":"Sachsen-Anhalt"}},{"name":"Park Gut Ermlitz","postalCode":"06258","locality":"Schkopau","municipality":{"key":"15088330","name":"Schkopau","type":"Kreisangehörige_Gemeinde"},"district":{"key":"15088","name":"Saalekreis","type":"Landkreis"},"federalState":{"key":"15","name":"Sachsen-Anhalt"}},{"name":"Pestalozzistr.","postalCode":"06258","locality":"Schkopau","municipality":{"key":"15088330","name":"Schkopau","type":"Kreisangehörige_Gemeinde"},"district":{"key":"15088","name":"Saalekreis","type":"Landkreis"},"federalState":{"key":"15","name":"Sachsen-Anhalt"}},{"name":"Pfalzstr.","postalCode":"06258","locality":"Schkopau","municipality":{"key":"15088330","name":"Schkopau","type":"Kreisangehörige_Gemeinde"},"district":{"key":"15088","name":"Saalekreis","type":"Landkreis"},"federalState":{"key":"15","name":"Sachsen-Anhalt"}},{"name":"Pfarrgasse","postalCode":"06258","locality":"Schkopau","municipality":{"key":"15088330","name":"Schkopau","type":"Kreisangehörige_Gemeinde"},"district":{"key":"15088","name":"Saalekreis","type":"Landkreis"},"federalState":{"key":"15","name":"Sachsen-Anhalt"}},{"name":"Piesteritzstr.","postalCode":"06258","locality":"Schkopau","municipality":{"key":"15088330","name":"Schkopau","type":"Kreisangehörige_Gemeinde"},"district":{"key":"15088","name":"Saalekreis","type":"Landkreis"},"federalState":{"key":"15","name":"Sachsen-Anhalt"}},{"name":"Platz der Einheit","postalCode":"06258","locality":"Schkopau","municipality":{"key":"15088330","name":"Schkopau","type":"Kreisangehörige_Gemeinde"},"district":{"key":"15088","name":"Saalekreis","type":"Landkreis"},"federalState":{"key":"15","name":"Sachsen-Anhalt"}},{"name":"Pritschönaer Weg","postalCode":"06258","locality":"Schkopau","municipality":{"key":"15088330","name":"Schkopau","type":"Kreisangehörige_Gemeinde"},"district":{"key":"15088","name":"Saalekreis","type":"Landkreis"},"federalState":{"key":"15","name":"Sachsen-Anhalt"}},{"name":"Puschkinstr.","postalCode":"06258","locality":"Schkopau","municipality":{"key":"15088330","name":"Schkopau","type":"Kreisangehörige_Gemeinde"},"district":{"key":"15088","name":"Saalekreis","type":"Landkreis"},"federalState":{"key":"15","name":"Sachsen-Anhalt"}},{"name":"Regensburger Str.","postalCode":"06258","locality":"Schkopau","municipality":{"key":"15088330","name":"Schkopau","type":"Kreisangehörige_Gemeinde"},"district":{"key":"15088","name":"Saalekreis","type":"Landkreis"},"federalState":{"key":"15","name":"Sachsen-Anhalt"}},{"name":"Rheinlandstr.","postalCode":"06258","locality":"Schkopau","municipality":{"key":"15088330","name":"Schkopau","type":"Kreisangehörige_Gemeinde"},"district":{"key":"15088","name":"Saalekreis","type":"Landkreis"},"federalState":{"key":"15","name":"Sachsen-Anhalt"}},{"name":"Richard-Wagner-Str.","postalCode":"06258","locality":"Schkopau","municipality":{"key":"15088330","name":"Schkopau","type":"Kreisangehörige_Gemeinde"},"district":{"key":"15088","name":"Saalekreis","type":"Landkreis"},"federalState":{"key":"15","name":"Sachsen-Anhalt"}},{"name":"Richard-Wagner-Weg","postalCode":"06258","locality":"Schkopau","municipality":{"key":"15088330","name":"Schkopau","type":"Kreisangehörige_Gemeinde"},"district":{"key":"15088","name":"Saalekreis","type":"Landkreis"},"federalState":{"key":"15","name":"Sachsen-Anhalt"}},{"name":"Rockendorfer Str.","postalCode":"06258","locality":"Schkopau","municipality":{"key":"15088330","name":"Schkopau","type":"Kreisangehörige_Gemeinde"},"district":{"key":"15088","name":"Saalekreis","type":"Landkreis"},"federalState":{"key":"15","name":"Sachsen-Anhalt"}},{"name":"Röglitzer Hauptstr.","postalCode":"06258","locality":"Schkopau","municipality":{"key":"15088330","name":"Schkopau","type":"Kreisangehörige_Gemeinde"},"district":{"key":"15088","name":"Saalekreis","type":"Landkreis"},"federalState":{"key":"15","name":"Sachsen-Anhalt"}},{"name":"Rübsener Weg","postalCode":"06258","locality":"Schkopau","municipality":{"key":"15088330","name":"Schkopau","type":"Kreisangehörige_Gemeinde"},"district":{"key":"15088","name":"Saalekreis","type":"Landkreis"},"federalState":{"key":"15","name":"Sachsen-Anhalt"}},{"name":"Rudolf-Breitscheid-Steg","postalCode":"06258","locality":"Schkopau","municipality":{"key":"15088330","name":"Schkopau","type":"Kreisangehörige_Gemeinde"},"district":{"key":"15088","name":"Saalekreis","type":"Landkreis"},"federalState":{"key":"15","name":"Sachsen-Anhalt"}},{"name":"Rudolf-Breitscheid-Str.","postalCode":"06258","locality":"Schkopau","municipality":{"key":"15088330","name":"Schkopau","type":"Kreisangehörige_Gemeinde"},"district":{"key":"15088","name":"Saalekreis","type":"Landkreis"},"federalState":{"key":"15","name":"Sachsen-Anhalt"}},{"name":"Saalestr.","postalCode":"06258","locality":"Schkopau","municipality":{"key":"15088330","name":"Schkopau","type":"Kreisangehörige_Gemeinde"},"district":{"key":"15088","name":"Saalekreis","type":"Landkreis"},"federalState":{"key":"15","name":"Sachsen-Anhalt"}},{"name":"Sackgasse","postalCode":"06258","locality":"Schkopau","municipality":{"key":"15088330","name":"Schkopau","type":"Kreisangehörige_Gemeinde"},"district":{"key":"15088","name":"Saalekreis","type":"Landkreis"},"federalState":{"key":"15","name":"Sachsen-Anhalt"}},{"name":"Schachtstr.","postalCode":"06258","locality":"Schkopau","municipality":{"key":"15088330","name":"Schkopau","type":"Kreisangehörige_Gemeinde"},"district":{"key":"15088","name":"Saalekreis","type":"Landkreis"},"federalState":{"key":"15","name":"Sachsen-Anhalt"}},{"name":"Schachtweg","postalCode":"06258","locality":"Schkopau","municipality":{"key":"15088330","name":"Schkopau","type":"Kreisangehörige_Gemeinde"},"district":{"key":"15088","name":"Saalekreis","type":"Landkreis"},"federalState":{"key":"15","name":"Sachsen-Anhalt"}},{"name":"Schaltwerk","postalCode":"06258","locality":"Schkopau","municipality":{"key":"15088330","name":"Schkopau","type":"Kreisangehörige_Gemeinde"},"district":{"key":"15088","name":"Saalekreis","type":"Landkreis"},"federalState":{"key":"15","name":"Sachsen-Anhalt"}},{"name":"Schillerstr.","postalCode":"06258","locality":"Schkopau","municipality":{"key":"15088330","name":"Schkopau","type":"Kreisangehörige_Gemeinde"},"district":{"key":"15088","name":"Saalekreis","type":"Landkreis"},"federalState":{"key":"15","name":"Sachsen-Anhalt"}},{"name":"Schkeuditzer Str.","postalCode":"06258","locality":"Schkopau","municipality":{"key":"15088330","name":"Schkopau","type":"Kreisangehörige_Gemeinde"},"district":{"key":"15088","name":"Saalekreis","type":"Landkreis"},"federalState":{"key":"15","name":"Sachsen-Anhalt"}},{"name":"Schkeuditzer Weg","postalCode":"06258","locality":"Schkopau","municipality":{"key":"15088330","name":"Schkopau","type":"Kreisangehörige_Gemeinde"},"district":{"key":"15088","name":"Saalekreis","type":"Landkreis"},"federalState":{"key":"15","name":"Sachsen-Anhalt"}},{"name":"Schladebacher Str.","postalCode":"06258","locality":"Schkopau","municipality":{"key":"15088330","name":"Schkopau","type":"Kreisangehörige_Gemeinde"},"district":{"key":"15088","name":"Saalekreis","type":"Landkreis"},"federalState":{"key":"15","name":"Sachsen-Anhalt"}},{"name":"Schlosspark Schkopau","postalCode":"06258","locality":"Schkopau","municipality":{"key":"15088330","name":"Schkopau","type":"Kreisangehörige_Gemeinde"},"district":{"key":"15088","name":"Saalekreis","type":"Landkreis"},"federalState":{"key":"15","name":"Sachsen-Anhalt"}},{"name":"Schulplatz","postalCode":"06258","locality":"Schkopau","municipality":{"key":"15088330","name":"Schkopau","type":"Kreisangehörige_Gemeinde"},"district":{"key":"15088","name":"Saalekreis","type":"Landkreis"},"federalState":{"key":"15","name":"Sachsen-Anhalt"}},{"name":"Schulstr.","postalCode":"06258","locality":"Schkopau","municipality":{"key":"15088330","name":"Schkopau","type":"Kreisangehörige_Gemeinde"},"district":{"key":"15088","name":"Saalekreis","type":"Landkreis"},"federalState":{"key":"15","name":"Sachsen-Anhalt"}},{"name":"Schulweg","postalCode":"06258","locality":"Schkopau","municipality":{"key":"15088330","name":"Schkopau","type":"Kreisangehörige_Gemeinde"},"district":{"key":"15088","name":"Saalekreis","type":"Landkreis"},"federalState":{"key":"15","name":"Sachsen-Anhalt"}},{"name":"Schwalbachstr.","postalCode":"06258","locality":"Schkopau","municipality":{"key":"15088330","name":"Schkopau","type":"Kreisangehörige_Gemeinde"},"district":{"key":"15088","name":"Saalekreis","type":"Landkreis"},"federalState":{"key":"15","name":"Sachsen-Anhalt"}},{"name":"Schwarzeiche","postalCode":"06258","locality":"Schkopau","municipality":{"key":"15088330","name":"Schkopau","type":"Kreisangehörige_Gemeinde"},"district":{"key":"15088","name":"Saalekreis","type":"Landkreis"},"federalState":{"key":"15","name":"Sachsen-Anhalt"}},{"name":"Siedlungsweg","postalCode":"06258","locality":"Schkopau","municipality":{"key":"15088330","name":"Schkopau","type":"Kreisangehörige_Gemeinde"},"district":{"key":"15088","name":"Saalekreis","type":"Landkreis"},"federalState":{"key":"15","name":"Sachsen-Anhalt"}},{"name":"Str. 2a","postalCode":"06258","locality":"Schkopau","municipality":{"key":"15088330","name":"Schkopau","type":"Kreisangehörige_Gemeinde"},"district":{"key":"15088","name":"Saalekreis","type":"Landkreis"},"federalState":{"key":"15","name":"Sachsen-Anhalt"}},{"name":"Str. der Einheit","postalCode":"06258","locality":"Schkopau","municipality":{"key":"15088330","name":"Schkopau","type":"Kreisangehörige_Gemeinde"},"district":{"key":"15088","name":"Saalekreis","type":"Landkreis"},"federalState":{"key":"15","name":"Sachsen-Anhalt"}},{"name":"Str. des Friedens","postalCode":"06258","locality":"Schkopau","municipality":{"key":"15088330","name":"Schkopau","type":"Kreisangehörige_Gemeinde"},"district":{"key":"15088","name":"Saalekreis","type":"Landkreis"},"federalState":{"key":"15","name":"Sachsen-Anhalt"}},{"name":"Str. L","postalCode":"06258","locality":"Schkopau","municipality":{"key":"15088330","name":"Schkopau","type":"Kreisangehörige_Gemeinde"},"district":{"key":"15088","name":"Saalekreis","type":"Landkreis"},"federalState":{"key":"15","name":"Sachsen-Anhalt"}},{"name":"Str. M","postalCode":"06258","locality":"Schkopau","municipality":{"key":"15088330","name":"Schkopau","type":"Kreisangehörige_Gemeinde"},"district":{"key":"15088","name":"Saalekreis","type":"Landkreis"},"federalState":{"key":"15","name":"Sachsen-Anhalt"}},{"name":"Str. zum Westgate","postalCode":"06258","locality":"Schkopau","municipality":{"key":"15088330","name":"Schkopau","type":"Kreisangehörige_Gemeinde"},"district":{"key":"15088","name":"Saalekreis","type":"Landkreis"},"federalState":{"key":"15","name":"Sachsen-Anhalt"}},{"name":"Süd","postalCode":"06258","locality":"Schkopau","municipality":{"key":"15088330","name":"Schkopau","type":"Kreisangehörige_Gemeinde"},"district":{"key":"15088","name":"Saalekreis","type":"Landkreis"},"federalState":{"key":"15","name":"Sachsen-Anhalt"}},{"name":"Talstr.","postalCode":"06258","locality":"Schkopau","municipality":{"key":"15088330","name":"Schkopau","type":"Kreisangehörige_Gemeinde"},"district":{"key":"15088","name":"Saalekreis","type":"Landkreis"},"federalState":{"key":"15","name":"Sachsen-Anhalt"}},{"name":"Teichplatz","postalCode":"06258","locality":"Schkopau","municipality":{"key":"15088330","name":"Schkopau","type":"Kreisangehörige_Gemeinde"},"district":{"key":"15088","name":"Saalekreis","type":"Landkreis"},"federalState":{"key":"15","name":"Sachsen-Anhalt"}},{"name":"Teichstr.","postalCode":"06258","locality":"Schkopau","municipality":{"key":"15088330","name":"Schkopau","type":"Kreisangehörige_Gemeinde"},"district":{"key":"15088","name":"Saalekreis","type":"Landkreis"},"federalState":{"key":"15","name":"Sachsen-Anhalt"}},{"name":"Theodor-Apel-Str.","postalCode":"06258","locality":"Schkopau","municipality":{"key":"15088330","name":"Schkopau","type":"Kreisangehörige_Gemeinde"},"district":{"key":"15088","name":"Saalekreis","type":"Landkreis"},"federalState":{"key":"15","name":"Sachsen-Anhalt"}},{"name":"Thomas-Müntzer-Str.","postalCode":"06258","locality":"Schkopau","municipality":{"key":"15088330","name":"Schkopau","type":"Kreisangehörige_Gemeinde"},"district":{"key":"15088","name":"Saalekreis","type":"Landkreis"},"federalState":{"key":"15","name":"Sachsen-Anhalt"}},{"name":"Tragarth","postalCode":"06258","locality":"Schkopau","municipality":{"key":"15088330","name":"Schkopau","type":"Kreisangehörige_Gemeinde"},"district":{"key":"15088","name":"Saalekreis","type":"Landkreis"},"federalState":{"key":"15","name":"Sachsen-Anhalt"}},{"name":"Tragarther Str.","postalCode":"06258","locality":"Schkopau","municipality":{"key":"15088330","name":"Schkopau","type":"Kreisangehörige_Gemeinde"},"district":{"key":"15088","name":"Saalekreis","type":"Landkreis"},"federalState":{"key":"15","name":"Sachsen-Anhalt"}},{"name":"Vogelsang","postalCode":"06258","locality":"Schkopau","municipality":{"key":"15088330","name":"Schkopau","type":"Kreisangehörige_Gemeinde"},"district":{"key":"15088","name":"Saalekreis","type":"Landkreis"},"federalState":{"key":"15","name":"Sachsen-Anhalt"}},{"name":"Von-Haake-Str.","postalCode":"06258","locality":"Schkopau","municipality":{"key":"15088330","name":"Schkopau","type":"Kreisangehörige_Gemeinde"},"district":{"key":"15088","name":"Saalekreis","type":"Landkreis"},"federalState":{"key":"15","name":"Sachsen-Anhalt"}},{"name":"Waldstr.","postalCode":"06258","locality":"Schkopau","municipality":{"key":"15088330","name":"Schkopau","type":"Kreisangehörige_Gemeinde"},"district":{"key":"15088","name":"Saalekreis","type":"Landkreis"},"federalState":{"key":"15","name":"Sachsen-Anhalt"}},{"name":"Waldweg","postalCode":"06258","locality":"Schkopau","municipality":{"key":"15088330","name":"Schkopau","type":"Kreisangehörige_Gemeinde"},"district":{"key":"15088","name":"Saalekreis","type":"Landkreis"},"federalState":{"key":"15","name":"Sachsen-Anhalt"}},{"name":"Wallendorfer Str.","postalCode":"06258","locality":"Schkopau","municipality":{"key":"15088330","name":"Schkopau","type":"Kreisangehörige_Gemeinde"},"district":{"key":"15088","name":"Saalekreis","type":"Landkreis"},"federalState":{"key":"15","name":"Sachsen-Anhalt"}},{"name":"Wasserweg","postalCode":"06258","locality":"Schkopau","municipality":{"key":"15088330","name":"Schkopau","type":"Kreisangehörige_Gemeinde"},"district":{"key":"15088","name":"Saalekreis","type":"Landkreis"},"federalState":{"key":"15","name":"Sachsen-Anhalt"}},{"name":"Wegwitz","postalCode":"06258","locality":"Schkopau","municipality":{"key":"15088330","name":"Schkopau","type":"Kreisangehörige_Gemeinde"},"district":{"key":"15088","name":"Saalekreis","type":"Landkreis"},"federalState":{"key":"15","name":"Sachsen-Anhalt"}},{"name":"Wesenitzer Weg","postalCode":"06258","locality":"Schkopau","municipality":{"key":"15088330","name":"Schkopau","type":"Kreisangehörige_Gemeinde"},"district":{"key":"15088","name":"Saalekreis","type":"Landkreis"},"federalState":{"key":"15","name":"Sachsen-Anhalt"}},{"name":"Wiesenstr.","postalCode":"06258","locality":"Schkopau","municipality":{"key":"15088330","name":"Schkopau","type":"Kreisangehörige_Gemeinde"},"district":{"key":"15088","name":"Saalekreis","type":"Landkreis"},"federalState":{"key":"15","name":"Sachsen-Anhalt"}},{"name":"Wiesenweg","postalCode":"06258","locality":"Schkopau","municipality":{"key":"15088330","name":"Schkopau","type":"Kreisangehörige_Gemeinde"},"district":{"key":"15088","name":"Saalekreis","type":"Landkreis"},"federalState":{"key":"15","name":"Sachsen-Anhalt"}},{"name":"Wilhelm-Bunsen-Str.","postalCode":"06258","locality":"Schkopau","municipality":{"key":"15088330","name":"Schkopau","type":"Kreisangehörige_Gemeinde"},"district":{"key":"15088","name":"Saalekreis","type":"Landkreis"},"federalState":{"key":"15","name":"Sachsen-Anhalt"}},{"name":"Winkel","postalCode":"06258","locality":"Schkopau","municipality":{"key":"15088330","name":"Schkopau","type":"Kreisangehörige_Gemeinde"},"district":{"key":"15088","name":"Saalekreis","type":"Landkreis"},"federalState":{"key":"15","name":"Sachsen-Anhalt"}},{"name":"Wohnheim","postalCode":"06258","locality":"Schkopau","municipality":{"key":"15088330","name":"Schkopau","type":"Kreisangehörige_Gemeinde"},"district":{"key":"15088","name":"Saalekreis","type":"Landkreis"},"federalState":{"key":"15","name":"Sachsen-Anhalt"}},{"name":"Wolfenstr.","postalCode":"06258","locality":"Schkopau","municipality":{"key":"15088330","name":"Schkopau","type":"Kreisangehörige_Gemeinde"},"district":{"key":"15088","name":"Saalekreis","type":"Landkreis"},"federalState":{"key":"15","name":"Sachsen-Anhalt"}},{"name":"Zu den Quellen","postalCode":"06258","locality":"Schkopau","municipality":{"key":"15088330","name":"Schkopau","type":"Kreisangehörige_Gemeinde"},"district":{"key":"15088","name":"Saalekreis","type":"Landkreis"},"federalState":{"key":"15","name":"Sachsen-Anhalt"}},{"name":"Zum Königsborn","postalCode":"06258","locality":"Schkopau","municipality":{"key":"15088330","name":"Schkopau","type":"Kreisangehörige_Gemeinde"},"district":{"key":"15088","name":"Saalekreis","type":"Landkreis"},"federalState":{"key":"15","name":"Sachsen-Anhalt"}},{"name":"Zur Aue","postalCode":"06258","locality":"Schkopau","municipality":{"key":"15088330","name":"Schkopau","type":"Kreisangehörige_Gemeinde"},"district":{"key":"15088","name":"Saalekreis","type":"Landkreis"},"federalState":{"key":"15","name":"Sachsen-Anhalt"}},{"name":"Zur Aussicht","postalCode":"06258","locality":"Schkopau","municipality":{"key":"15088330","name":"Schkopau","type":"Kreisangehörige_Gemeinde"},"district":{"key":"15088","name":"Saalekreis","type":"Landkreis"},"federalState":{"key":"15","name":"Sachsen-Anhalt"}},{"name":"Zur Dahne","postalCode":"06258","locality":"Schkopau","municipality":{"key":"15088330","name":"Schkopau","type":"Kreisangehörige_Gemeinde"},"district":{"key":"15088","name":"Saalekreis","type":"Landkreis"},"federalState":{"key":"15","name":"Sachsen-Anhalt"}},{"name":"Zur Mühle","postalCode":"06258","locality":"Schkopau","municipality":{"key":"15088330","name":"Schkopau","type":"Kreisangehörige_Gemeinde"},"district":{"key":"15088","name":"Saalekreis","type":"Landkreis"},"federalState":{"key":"15","name":"Sachsen-Anhalt"}},{"name":"Zur Neuen Siedlung","postalCode":"06258","locality":"Schkopau","municipality":{"key":"15088330","name":"Schkopau","type":"Kreisangehörige_Gemeinde"},"district":{"key":"15088","name":"Saalekreis","type":"Landkreis"},"federalState":{"key":"15","name":"Sachsen-Anhalt"}},{"name":"Zur Weißen Elster","postalCode":"06258","locality":"Schkopau","municipality":{"key":"15088330","name":"Schkopau","type":"Kreisangehörige_Gemeinde"},"district":{"key":"15088","name":"Saalekreis","type":"Landkreis"},"federalState":{"key":"15","name":"Sachsen-Anhalt"}},]