[{"key":"10014411","name":"Acker","postalCode":"4953","locality":"Schwarzenbach (Huttwil)","commune":{"key":"954","name":"Huttwil","shortName":"Huttwil"},"district":{"key":"244","name":"Verwaltungskreis Oberaargau"},"canton":{"key":"2","code":"BE","name":"Bern / Berne"},"status":"Real"},{"key":"10082060","name":"Aellmegg","postalCode":"4950","locality":"Huttwil","commune":{"key":"954","name":"Huttwil","shortName":"Huttwil"},"district":{"key":"244","name":"Verwaltungskreis Oberaargau"},"canton":{"key":"2","code":"BE","name":"Bern / Berne"},"status":"Real"},{"key":"10125033","name":"Aeussere Schlüecht","postalCode":"4950","locality":"Huttwil","commune":{"key":"954","name":"Huttwil","shortName":"Huttwil"},"district":{"key":"244","name":"Verwaltungskreis Oberaargau"},"canton":{"key":"2","code":"BE","name":"Bern / Berne"},"status":"Real"},{"key":"10125033","name":"Aeussere Schlüecht","postalCode":"4953","locality":"Schwarzenbach (Huttwil)","commune":{"key":"954","name":"Huttwil","shortName":"Huttwil"},"district":{"key":"244","name":"Verwaltungskreis Oberaargau"},"canton":{"key":"2","code":"BE","name":"Bern / Berne"},"status":"Real"},{"key":"10014370","name":"Ahornweg","postalCode":"4950","locality":"Huttwil","commune":{"key":"954","name":"Huttwil","shortName":"Huttwil"},"district":{"key":"244","name":"Verwaltungskreis Oberaargau"},"canton":{"key":"2","code":"BE","name":"Bern / Berne"},"status":"Real"},{"key":"10014371","name":"Allmendstrasse","postalCode":"4950","locality":"Huttwil","commune":{"key":"954","name":"Huttwil","shortName":"Huttwil"},"district":{"key":"244","name":"Verwaltungskreis Oberaargau"},"canton":{"key":"2","code":"BE","name":"Bern / Berne"},"status":"Real"},{"key":"10186147","name":"Alpenstrasse","postalCode":"4950","locality":"Huttwil","commune":{"key":"954","name":"Huttwil","shortName":"Huttwil"},"district":{"key":"244","name":"Verwaltungskreis Oberaargau"},"canton":{"key":"2","code":"BE","name":"Bern / Berne"},"status":"Real"},{"key":"10129465","name":"Alte Rohrbachstrasse","postalCode":"4950","locality":"Huttwil","commune":{"key":"954","name":"Huttwil","shortName":"Huttwil"},"district":{"key":"244","name":"Verwaltungskreis Oberaargau"},"canton":{"key":"2","code":"BE","name":"Bern / Berne"},"status":"Real"},{"key":"10170404","name":"Bäch","postalCode":"4953","locality":"Schwarzenbach (Huttwil)","commune":{"key":"954","name":"Huttwil","shortName":"Huttwil"},"district":{"key":"244","name":"Verwaltungskreis Oberaargau"},"canton":{"key":"2","code":"BE","name":"Bern / Berne"},"status":"Real"},{"key":"10108391","name":"Bahnhofstrasse","postalCode":"4950","locality":"Huttwil","commune":{"key":"954","name":"Huttwil","shortName":"Huttwil"},"district":{"key":"244","name":"Verwaltungskreis Oberaargau"},"canton":{"key":"2","code":"BE","name":"Bern / Berne"},"status":"Real"},{"key":"10014396","name":"Baschiloch","postalCode":"4950","locality":"Huttwil","commune":{"key":"954","name":"Huttwil","shortName":"Huttwil"},"district":{"key":"244","name":"Verwaltungskreis Oberaargau"},"canton":{"key":"2","code":"BE","name":"Bern / Berne"},"status":"Real"},{"key":"10014372","name":"Bergstrasse","postalCode":"4950","locality":"Huttwil","commune":{"key":"954","name":"Huttwil","shortName":"Huttwil"},"district":{"key":"244","name":"Verwaltungskreis Oberaargau"},"canton":{"key":"2","code":"BE","name":"Bern / Berne"},"status":"Real"},{"key":"10082061","name":"Bernstrasse","postalCode":"4950","locality":"Huttwil","commune":{"key":"954","name":"Huttwil","shortName":"Huttwil"},"district":{"key":"244","name":"Verwaltungskreis Oberaargau"},"canton":{"key":"2","code":"BE","name":"Bern / Berne"},"status":"Real"},{"key":"10082061","name":"Bernstrasse","postalCode":"4953","locality":"Schwarzenbach (Huttwil)","commune":{"key":"954","name":"Huttwil","shortName":"Huttwil"},"district":{"key":"244","name":"Verwaltungskreis Oberaargau"},"canton":{"key":"2","code":"BE","name":"Bern / Berne"},"status":"Real"},{"key":"10159388","name":"Birkenweg","postalCode":"4950","locality":"Huttwil","commune":{"key":"954","name":"Huttwil","shortName":"Huttwil"},"district":{"key":"244","name":"Verwaltungskreis Oberaargau"},"canton":{"key":"2","code":"BE","name":"Bern / Berne"},"status":"Real"},{"key":"10058482","name":"Bisegg","postalCode":"4950","locality":"Huttwil","commune":{"key":"954","name":"Huttwil","shortName":"Huttwil"},"district":{"key":"244","name":"Verwaltungskreis Oberaargau"},"canton":{"key":"2","code":"BE","name":"Bern / Berne"},"status":"Real"},{"key":"10180076","name":"Blumenweg","postalCode":"4950","locality":"Huttwil","commune":{"key":"954","name":"Huttwil","shortName":"Huttwil"},"district":{"key":"244","name":"Verwaltungskreis Oberaargau"},"canton":{"key":"2","code":"BE","name":"Bern / Berne"},"status":"Real"},{"key":"10014374","name":"Brückenstrasse","postalCode":"4950","locality":"Huttwil","commune":{"key":"954","name":"Huttwil","shortName":"Huttwil"},"district":{"key":"244","name":"Verwaltungskreis Oberaargau"},"canton":{"key":"2","code":"BE","name":"Bern / Berne"},"status":"Real"},{"key":"10014373","name":"Brunnenplatz","postalCode":"4950","locality":"Huttwil","commune":{"key":"954","name":"Huttwil","shortName":"Huttwil"},"district":{"key":"244","name":"Verwaltungskreis Oberaargau"},"canton":{"key":"2","code":"BE","name":"Bern / Berne"},"status":"Real"},{"key":"10123166","name":"Bubenbergstrasse","postalCode":"4950","locality":"Huttwil","commune":{"key":"954","name":"Huttwil","shortName":"Huttwil"},"district":{"key":"244","name":"Verwaltungskreis Oberaargau"},"canton":{"key":"2","code":"BE","name":"Bern / Berne"},"status":"Real"},{"key":"10082062","name":"Buchenweg","postalCode":"4950","locality":"Huttwil","commune":{"key":"954","name":"Huttwil","shortName":"Huttwil"},"district":{"key":"244","name":"Verwaltungskreis Oberaargau"},"canton":{"key":"2","code":"BE","name":"Bern / Berne"},"status":"Real"},{"key":"10082062","name":"Buchenweg","postalCode":"4953","locality":"Schwarzenbach (Huttwil)","commune":{"key":"954","name":"Huttwil","shortName":"Huttwil"},"district":{"key":"244","name":"Verwaltungskreis Oberaargau"},"canton":{"key":"2","code":"BE","name":"Bern / Berne"},"status":"Real"},{"key":"10014412","name":"Bühl","postalCode":"4953","locality":"Schwarzenbach (Huttwil)","commune":{"key":"954","name":"Huttwil","shortName":"Huttwil"},"district":{"key":"244","name":"Verwaltungskreis Oberaargau"},"canton":{"key":"2","code":"BE","name":"Bern / Berne"},"status":"Real"},{"key":"10058485","name":"Bühlmatte","postalCode":"4953","locality":"Schwarzenbach (Huttwil)","commune":{"key":"954","name":"Huttwil","shortName":"Huttwil"},"district":{"key":"244","name":"Verwaltungskreis Oberaargau"},"canton":{"key":"2","code":"BE","name":"Bern / Berne"},"status":"Real"},{"key":"10014375","name":"Burgstrasse","postalCode":"4950","locality":"Huttwil","commune":{"key":"954","name":"Huttwil","shortName":"Huttwil"},"district":{"key":"244","name":"Verwaltungskreis Oberaargau"},"canton":{"key":"2","code":"BE","name":"Bern / Berne"},"status":"Real"},{"key":"10194021","name":"Dählenweg","postalCode":"4950","locality":"Huttwil","commune":{"key":"954","name":"Huttwil","shortName":"Huttwil"},"district":{"key":"244","name":"Verwaltungskreis Oberaargau"},"canton":{"key":"2","code":"BE","name":"Bern / Berne"},"status":"Real"},{"key":"10178754","name":"Dantsch","postalCode":"4953","locality":"Schwarzenbach (Huttwil)","commune":{"key":"954","name":"Huttwil","shortName":"Huttwil"},"district":{"key":"244","name":"Verwaltungskreis Oberaargau"},"canton":{"key":"2","code":"BE","name":"Bern / Berne"},"status":"Real"},{"key":"10108599","name":"Deckhüsli","postalCode":"4950","locality":"Huttwil","commune":{"key":"954","name":"Huttwil","shortName":"Huttwil"},"district":{"key":"244","name":"Verwaltungskreis Oberaargau"},"canton":{"key":"2","code":"BE","name":"Bern / Berne"},"status":"Real"},{"key":"10189619","name":"Dornackerweg","postalCode":"4950","locality":"Huttwil","commune":{"key":"954","name":"Huttwil","shortName":"Huttwil"},"district":{"key":"244","name":"Verwaltungskreis Oberaargau"},"canton":{"key":"2","code":"BE","name":"Bern / Berne"},"status":"Real"},{"key":"10014376","name":"Eichenweg","postalCode":"4950","locality":"Huttwil","commune":{"key":"954","name":"Huttwil","shortName":"Huttwil"},"district":{"key":"244","name":"Verwaltungskreis Oberaargau"},"canton":{"key":"2","code":"BE","name":"Bern / Berne"},"status":"Real"},{"key":"10082063","name":"Eriswilstrasse","postalCode":"4950","locality":"Huttwil","commune":{"key":"954","name":"Huttwil","shortName":"Huttwil"},"district":{"key":"244","name":"Verwaltungskreis Oberaargau"},"canton":{"key":"2","code":"BE","name":"Bern / Berne"},"status":"Real"},{"key":"10082067","name":"Ettishäusern","postalCode":"4950","locality":"Huttwil","commune":{"key":"954","name":"Huttwil","shortName":"Huttwil"},"district":{"key":"244","name":"Verwaltungskreis Oberaargau"},"canton":{"key":"2","code":"BE","name":"Bern / Berne"},"status":"Real"},{"key":"10061404","name":"Feldmoos","postalCode":"4950","locality":"Huttwil","commune":{"key":"954","name":"Huttwil","shortName":"Huttwil"},"district":{"key":"244","name":"Verwaltungskreis Oberaargau"},"canton":{"key":"2","code":"BE","name":"Bern / Berne"},"status":"Real"},{"key":"10014377","name":"Feldstrasse","postalCode":"4950","locality":"Huttwil","commune":{"key":"954","name":"Huttwil","shortName":"Huttwil"},"district":{"key":"244","name":"Verwaltungskreis Oberaargau"},"canton":{"key":"2","code":"BE","name":"Bern / Berne"},"status":"Real"},{"key":"10014413","name":"Fiechtenberg","postalCode":"4953","locality":"Schwarzenbach (Huttwil)","commune":{"key":"954","name":"Huttwil","shortName":"Huttwil"},"district":{"key":"244","name":"Verwaltungskreis Oberaargau"},"canton":{"key":"2","code":"BE","name":"Bern / Berne"},"status":"Real"},{"key":"10108392","name":"Fiechtenmühle","postalCode":"4953","locality":"Schwarzenbach (Huttwil)","commune":{"key":"954","name":"Huttwil","shortName":"Huttwil"},"district":{"key":"244","name":"Verwaltungskreis Oberaargau"},"canton":{"key":"2","code":"BE","name":"Bern / Berne"},"status":"Real"},{"key":"10180077","name":"Fiechtenstrasse","postalCode":"4950","locality":"Huttwil","commune":{"key":"954","name":"Huttwil","shortName":"Huttwil"},"district":{"key":"244","name":"Verwaltungskreis Oberaargau"},"canton":{"key":"2","code":"BE","name":"Bern / Berne"},"status":"Real"},{"key":"10061405","name":"Floraweg","postalCode":"4950","locality":"Huttwil","commune":{"key":"954","name":"Huttwil","shortName":"Huttwil"},"district":{"key":"244","name":"Verwaltungskreis Oberaargau"},"canton":{"key":"2","code":"BE","name":"Bern / Berne"},"status":"Real"},{"key":"10252442","name":"Fluhstrasse","postalCode":"4950","locality":"Huttwil","commune":{"key":"954","name":"Huttwil","shortName":"Huttwil"},"district":{"key":"244","name":"Verwaltungskreis Oberaargau"},"canton":{"key":"2","code":"BE","name":"Bern / Berne"},"status":"Real"},{"key":"10014378","name":"Flurweg","postalCode":"4950","locality":"Huttwil","commune":{"key":"954","name":"Huttwil","shortName":"Huttwil"},"district":{"key":"244","name":"Verwaltungskreis Oberaargau"},"canton":{"key":"2","code":"BE","name":"Bern / Berne"},"status":"Real"},{"key":"10128451","name":"Friedhofweg","postalCode":"4950","locality":"Huttwil","commune":{"key":"954","name":"Huttwil","shortName":"Huttwil"},"district":{"key":"244","name":"Verwaltungskreis Oberaargau"},"canton":{"key":"2","code":"BE","name":"Bern / Berne"},"status":"Real"},{"key":"10014379","name":"Friloweg","postalCode":"4950","locality":"Huttwil","commune":{"key":"954","name":"Huttwil","shortName":"Huttwil"},"district":{"key":"244","name":"Verwaltungskreis Oberaargau"},"canton":{"key":"2","code":"BE","name":"Bern / Berne"},"status":"Real"},{"key":"10014380","name":"Gartenstrasse","postalCode":"4950","locality":"Huttwil","commune":{"key":"954","name":"Huttwil","shortName":"Huttwil"},"district":{"key":"244","name":"Verwaltungskreis Oberaargau"},"canton":{"key":"2","code":"BE","name":"Bern / Berne"},"status":"Real"},{"key":"10020633","name":"Gerbe-Rieseren","postalCode":"4950","locality":"Huttwil","commune":{"key":"954","name":"Huttwil","shortName":"Huttwil"},"district":{"key":"244","name":"Verwaltungskreis Oberaargau"},"canton":{"key":"2","code":"BE","name":"Bern / Berne"},"status":"Real"},{"key":"10014381","name":"Gommen","postalCode":"4950","locality":"Huttwil","commune":{"key":"954","name":"Huttwil","shortName":"Huttwil"},"district":{"key":"244","name":"Verwaltungskreis Oberaargau"},"canton":{"key":"2","code":"BE","name":"Bern / Berne"},"status":"Real"},{"key":"10014381","name":"Gommen","postalCode":"4953","locality":"Schwarzenbach (Huttwil)","commune":{"key":"954","name":"Huttwil","shortName":"Huttwil"},"district":{"key":"244","name":"Verwaltungskreis Oberaargau"},"canton":{"key":"2","code":"BE","name":"Bern / Berne"},"status":"Real"},{"key":"10125031","name":"Grund","postalCode":"4950","locality":"Huttwil","commune":{"key":"954","name":"Huttwil","shortName":"Huttwil"},"district":{"key":"244","name":"Verwaltungskreis Oberaargau"},"canton":{"key":"2","code":"BE","name":"Bern / Berne"},"status":"Real"},{"key":"10189620","name":"Häbernbadstrasse","postalCode":"4950","locality":"Huttwil","commune":{"key":"954","name":"Huttwil","shortName":"Huttwil"},"district":{"key":"244","name":"Verwaltungskreis Oberaargau"},"canton":{"key":"2","code":"BE","name":"Bern / Berne"},"status":"Real"},{"key":"10014414","name":"Haberrüti","postalCode":"4953","locality":"Schwarzenbach (Huttwil)","commune":{"key":"954","name":"Huttwil","shortName":"Huttwil"},"district":{"key":"244","name":"Verwaltungskreis Oberaargau"},"canton":{"key":"2","code":"BE","name":"Bern / Berne"},"status":"Real"},{"key":"10014415","name":"Hager","postalCode":"4953","locality":"Schwarzenbach (Huttwil)","commune":{"key":"954","name":"Huttwil","shortName":"Huttwil"},"district":{"key":"244","name":"Verwaltungskreis Oberaargau"},"canton":{"key":"2","code":"BE","name":"Bern / Berne"},"status":"Real"},{"key":"10014416","name":"Halden","postalCode":"4953","locality":"Schwarzenbach (Huttwil)","commune":{"key":"954","name":"Huttwil","shortName":"Huttwil"},"district":{"key":"244","name":"Verwaltungskreis Oberaargau"},"canton":{"key":"2","code":"BE","name":"Bern / Berne"},"status":"Real"},{"key":"10082064","name":"Haldenstrasse","postalCode":"4950","locality":"Huttwil","commune":{"key":"954","name":"Huttwil","shortName":"Huttwil"},"district":{"key":"244","name":"Verwaltungskreis Oberaargau"},"canton":{"key":"2","code":"BE","name":"Bern / Berne"},"status":"Real"},{"key":"10061406","name":"Heimstrasse","postalCode":"4950","locality":"Huttwil","commune":{"key":"954","name":"Huttwil","shortName":"Huttwil"},"district":{"key":"244","name":"Verwaltungskreis Oberaargau"},"canton":{"key":"2","code":"BE","name":"Bern / Berne"},"status":"Real"},{"key":"10171020","name":"Heirihüsli","postalCode":"4950","locality":"Huttwil","commune":{"key":"954","name":"Huttwil","shortName":"Huttwil"},"district":{"key":"244","name":"Verwaltungskreis Oberaargau"},"canton":{"key":"2","code":"BE","name":"Bern / Berne"},"status":"Real"},{"key":"10172547","name":"Hirschegg","postalCode":"4950","locality":"Huttwil","commune":{"key":"954","name":"Huttwil","shortName":"Huttwil"},"district":{"key":"244","name":"Verwaltungskreis Oberaargau"},"canton":{"key":"2","code":"BE","name":"Bern / Berne"},"status":"Real"},{"key":"10014382","name":"Hirschmattstrasse","postalCode":"4950","locality":"Huttwil","commune":{"key":"954","name":"Huttwil","shortName":"Huttwil"},"district":{"key":"244","name":"Verwaltungskreis Oberaargau"},"canton":{"key":"2","code":"BE","name":"Bern / Berne"},"status":"Real"},{"key":"10014383","name":"Hofmattstrasse","postalCode":"4950","locality":"Huttwil","commune":{"key":"954","name":"Huttwil","shortName":"Huttwil"},"district":{"key":"244","name":"Verwaltungskreis Oberaargau"},"canton":{"key":"2","code":"BE","name":"Bern / Berne"},"status":"Real"},{"key":"10061689","name":"Höhenweg","postalCode":"4950","locality":"Huttwil","commune":{"key":"954","name":"Huttwil","shortName":"Huttwil"},"district":{"key":"244","name":"Verwaltungskreis Oberaargau"},"canton":{"key":"2","code":"BE","name":"Bern / Berne"},"status":"Real"},{"key":"10082065","name":"Hohfuhren","postalCode":"4950","locality":"Huttwil","commune":{"key":"954","name":"Huttwil","shortName":"Huttwil"},"district":{"key":"244","name":"Verwaltungskreis Oberaargau"},"canton":{"key":"2","code":"BE","name":"Bern / Berne"},"status":"Real"},{"key":"10180078","name":"Hohlenstrasse","postalCode":"4950","locality":"Huttwil","commune":{"key":"954","name":"Huttwil","shortName":"Huttwil"},"district":{"key":"244","name":"Verwaltungskreis Oberaargau"},"canton":{"key":"2","code":"BE","name":"Bern / Berne"},"status":"Real"},{"key":"10172549","name":"Hösugraben","postalCode":"4950","locality":"Huttwil","commune":{"key":"954","name":"Huttwil","shortName":"Huttwil"},"district":{"key":"244","name":"Verwaltungskreis Oberaargau"},"canton":{"key":"2","code":"BE","name":"Bern / Berne"},"status":"Real"},{"key":"10082066","name":"Hübeliwaldweg","postalCode":"4950","locality":"Huttwil","commune":{"key":"954","name":"Huttwil","shortName":"Huttwil"},"district":{"key":"244","name":"Verwaltungskreis Oberaargau"},"canton":{"key":"2","code":"BE","name":"Bern / Berne"},"status":"Real"},{"key":"10061407","name":"Hubweg","postalCode":"4950","locality":"Huttwil","commune":{"key":"954","name":"Huttwil","shortName":"Huttwil"},"district":{"key":"244","name":"Verwaltungskreis Oberaargau"},"canton":{"key":"2","code":"BE","name":"Bern / Berne"},"status":"Real"},{"key":"10108602","name":"Huttwilwald","postalCode":"4953","locality":"Schwarzenbach (Huttwil)","commune":{"key":"954","name":"Huttwil","shortName":"Huttwil"},"district":{"key":"244","name":"Verwaltungskreis Oberaargau"},"canton":{"key":"2","code":"BE","name":"Bern / Berne"},"status":"Real"},{"key":"10108989","name":"Ibachstrasse","postalCode":"4950","locality":"Huttwil","commune":{"key":"954","name":"Huttwil","shortName":"Huttwil"},"district":{"key":"244","name":"Verwaltungskreis Oberaargau"},"canton":{"key":"2","code":"BE","name":"Bern / Berne"},"status":"Real"},{"key":"10186159","name":"Im Zil","postalCode":"4953","locality":"Schwarzenbach (Huttwil)","commune":{"key":"954","name":"Huttwil","shortName":"Huttwil"},"district":{"key":"244","name":"Verwaltungskreis Oberaargau"},"canton":{"key":"2","code":"BE","name":"Bern / Berne"},"status":"Real"},{"key":"10014385","name":"Im Zyt","postalCode":"4950","locality":"Huttwil","commune":{"key":"954","name":"Huttwil","shortName":"Huttwil"},"district":{"key":"244","name":"Verwaltungskreis Oberaargau"},"canton":{"key":"2","code":"BE","name":"Bern / Berne"},"status":"Real"},{"key":"10061690","name":"Industriestrasse","postalCode":"4950","locality":"Huttwil","commune":{"key":"954","name":"Huttwil","shortName":"Huttwil"},"district":{"key":"244","name":"Verwaltungskreis Oberaargau"},"canton":{"key":"2","code":"BE","name":"Bern / Berne"},"status":"Real"},{"key":"10014386","name":"Innere Schlüecht","postalCode":"4950","locality":"Huttwil","commune":{"key":"954","name":"Huttwil","shortName":"Huttwil"},"district":{"key":"244","name":"Verwaltungskreis Oberaargau"},"canton":{"key":"2","code":"BE","name":"Bern / Berne"},"status":"Real"},{"key":"10014387","name":"Iseli","postalCode":"4950","locality":"Huttwil","commune":{"key":"954","name":"Huttwil","shortName":"Huttwil"},"district":{"key":"244","name":"Verwaltungskreis Oberaargau"},"canton":{"key":"2","code":"BE","name":"Bern / Berne"},"status":"Real"},{"key":"10255565","name":"Kammernwaldstrasse","postalCode":"4950","locality":"Huttwil","commune":{"key":"954","name":"Huttwil","shortName":"Huttwil"},"district":{"key":"244","name":"Verwaltungskreis Oberaargau"},"canton":{"key":"2","code":"BE","name":"Bern / Berne"},"status":"Real"},{"key":"10014388","name":"Kornstrasse","postalCode":"4950","locality":"Huttwil","commune":{"key":"954","name":"Huttwil","shortName":"Huttwil"},"district":{"key":"244","name":"Verwaltungskreis Oberaargau"},"canton":{"key":"2","code":"BE","name":"Bern / Berne"},"status":"Real"},{"key":"10188948","name":"Krummackerweg","postalCode":"4950","locality":"Huttwil","commune":{"key":"954","name":"Huttwil","shortName":"Huttwil"},"district":{"key":"244","name":"Verwaltungskreis Oberaargau"},"canton":{"key":"2","code":"BE","name":"Bern / Berne"},"status":"Real"},{"key":"10180079","name":"Langenthalstrasse","postalCode":"4950","locality":"Huttwil","commune":{"key":"954","name":"Huttwil","shortName":"Huttwil"},"district":{"key":"244","name":"Verwaltungskreis Oberaargau"},"canton":{"key":"2","code":"BE","name":"Bern / Berne"},"status":"Real"},{"key":"10186148","name":"Lerchenweg","postalCode":"4950","locality":"Huttwil","commune":{"key":"954","name":"Huttwil","shortName":"Huttwil"},"district":{"key":"244","name":"Verwaltungskreis Oberaargau"},"canton":{"key":"2","code":"BE","name":"Bern / Berne"},"status":"Real"},{"key":"10014389","name":"Lindenstrasse","postalCode":"4950","locality":"Huttwil","commune":{"key":"954","name":"Huttwil","shortName":"Huttwil"},"district":{"key":"244","name":"Verwaltungskreis Oberaargau"},"canton":{"key":"2","code":"BE","name":"Bern / Berne"},"status":"Real"},{"key":"10061691","name":"Lochmühleweg","postalCode":"4950","locality":"Huttwil","commune":{"key":"954","name":"Huttwil","shortName":"Huttwil"},"district":{"key":"244","name":"Verwaltungskreis Oberaargau"},"canton":{"key":"2","code":"BE","name":"Bern / Berne"},"status":"Real"},{"key":"10082068","name":"Luzernstrasse","postalCode":"4950","locality":"Huttwil","commune":{"key":"954","name":"Huttwil","shortName":"Huttwil"},"district":{"key":"244","name":"Verwaltungskreis Oberaargau"},"canton":{"key":"2","code":"BE","name":"Bern / Berne"},"status":"Real"},{"key":"10014390","name":"Marktgasse","postalCode":"4950","locality":"Huttwil","commune":{"key":"954","name":"Huttwil","shortName":"Huttwil"},"district":{"key":"244","name":"Verwaltungskreis Oberaargau"},"canton":{"key":"2","code":"BE","name":"Bern / Berne"},"status":"Real"},{"key":"10020910","name":"Matten","postalCode":"4950","locality":"Huttwil","commune":{"key":"954","name":"Huttwil","shortName":"Huttwil"},"district":{"key":"244","name":"Verwaltungskreis Oberaargau"},"canton":{"key":"2","code":"BE","name":"Bern / Berne"},"status":"Real"},{"key":"10014391","name":"Meisenweg","postalCode":"4950","locality":"Huttwil","commune":{"key":"954","name":"Huttwil","shortName":"Huttwil"},"district":{"key":"244","name":"Verwaltungskreis Oberaargau"},"canton":{"key":"2","code":"BE","name":"Bern / Berne"},"status":"Real"},{"key":"10061692","name":"Möhrenweid","postalCode":"4950","locality":"Huttwil","commune":{"key":"954","name":"Huttwil","shortName":"Huttwil"},"district":{"key":"244","name":"Verwaltungskreis Oberaargau"},"canton":{"key":"2","code":"BE","name":"Bern / Berne"},"status":"Real"},{"key":"10014392","name":"Moosstrasse","postalCode":"4950","locality":"Huttwil","commune":{"key":"954","name":"Huttwil","shortName":"Huttwil"},"district":{"key":"244","name":"Verwaltungskreis Oberaargau"},"canton":{"key":"2","code":"BE","name":"Bern / Berne"},"status":"Real"},{"key":"10014393","name":"Mühlerain","postalCode":"4950","locality":"Huttwil","commune":{"key":"954","name":"Huttwil","shortName":"Huttwil"},"district":{"key":"244","name":"Verwaltungskreis Oberaargau"},"canton":{"key":"2","code":"BE","name":"Bern / Berne"},"status":"Real"},{"key":"10082069","name":"Mühleweg","postalCode":"4950","locality":"Huttwil","commune":{"key":"954","name":"Huttwil","shortName":"Huttwil"},"district":{"key":"244","name":"Verwaltungskreis Oberaargau"},"canton":{"key":"2","code":"BE","name":"Bern / Berne"},"status":"Real"},{"key":"10014394","name":"Nelkenweg","postalCode":"4950","locality":"Huttwil","commune":{"key":"954","name":"Huttwil","shortName":"Huttwil"},"district":{"key":"244","name":"Verwaltungskreis Oberaargau"},"canton":{"key":"2","code":"BE","name":"Bern / Berne"},"status":"Real"},{"key":"10061693","name":"Neuhausstrasse","postalCode":"4950","locality":"Huttwil","commune":{"key":"954","name":"Huttwil","shortName":"Huttwil"},"district":{"key":"244","name":"Verwaltungskreis Oberaargau"},"canton":{"key":"2","code":"BE","name":"Bern / Berne"},"status":"Real"},{"key":"10061693","name":"Neuhausstrasse","postalCode":"4953","locality":"Schwarzenbach (Huttwil)","commune":{"key":"954","name":"Huttwil","shortName":"Huttwil"},"district":{"key":"244","name":"Verwaltungskreis Oberaargau"},"canton":{"key":"2","code":"BE","name":"Bern / Berne"},"status":"Real"},{"key":"10082075","name":"Neuligen","postalCode":"4950","locality":"Huttwil","commune":{"key":"954","name":"Huttwil","shortName":"Huttwil"},"district":{"key":"244","name":"Verwaltungskreis Oberaargau"},"canton":{"key":"2","code":"BE","name":"Bern / Berne"},"status":"Real"},{"key":"10189621","name":"Nyffel","postalCode":"4950","locality":"Huttwil","commune":{"key":"954","name":"Huttwil","shortName":"Huttwil"},"district":{"key":"244","name":"Verwaltungskreis Oberaargau"},"canton":{"key":"2","code":"BE","name":"Bern / Berne"},"status":"Real"},{"key":"10172548","name":"Nyffel-Hübeli","postalCode":"4950","locality":"Huttwil","commune":{"key":"954","name":"Huttwil","shortName":"Huttwil"},"district":{"key":"244","name":"Verwaltungskreis Oberaargau"},"canton":{"key":"2","code":"BE","name":"Bern / Berne"},"status":"Real"},{"key":"10108990","name":"Nyffenegg","postalCode":"4950","locality":"Huttwil","commune":{"key":"954","name":"Huttwil","shortName":"Huttwil"},"district":{"key":"244","name":"Verwaltungskreis Oberaargau"},"canton":{"key":"2","code":"BE","name":"Bern / Berne"},"status":"Real"},{"key":"10082070","name":"Oberbühl","postalCode":"4950","locality":"Huttwil","commune":{"key":"954","name":"Huttwil","shortName":"Huttwil"},"district":{"key":"244","name":"Verwaltungskreis Oberaargau"},"canton":{"key":"2","code":"BE","name":"Bern / Berne"},"status":"Real"},{"key":"10180080","name":"Oberdorfstrasse","postalCode":"4950","locality":"Huttwil","commune":{"key":"954","name":"Huttwil","shortName":"Huttwil"},"district":{"key":"244","name":"Verwaltungskreis Oberaargau"},"canton":{"key":"2","code":"BE","name":"Bern / Berne"},"status":"Real"},{"key":"10174198","name":"Oberer Baumgarten","postalCode":"4953","locality":"Schwarzenbach (Huttwil)","commune":{"key":"954","name":"Huttwil","shortName":"Huttwil"},"district":{"key":"244","name":"Verwaltungskreis Oberaargau"},"canton":{"key":"2","code":"BE","name":"Bern / Berne"},"status":"Real"},{"key":"10014395","name":"Pappelweg","postalCode":"4950","locality":"Huttwil","commune":{"key":"954","name":"Huttwil","shortName":"Huttwil"},"district":{"key":"244","name":"Verwaltungskreis Oberaargau"},"canton":{"key":"2","code":"BE","name":"Bern / Berne"},"status":"Real"},{"key":"10218036","name":"Plempel","postalCode":"4953","locality":"Schwarzenbach (Huttwil)","commune":{"key":"954","name":"Huttwil","shortName":"Huttwil"},"district":{"key":"244","name":"Verwaltungskreis Oberaargau"},"canton":{"key":"2","code":"BE","name":"Bern / Berne"},"status":"Real"},{"key":"10014397","name":"Rainweg","postalCode":"4950","locality":"Huttwil","commune":{"key":"954","name":"Huttwil","shortName":"Huttwil"},"district":{"key":"244","name":"Verwaltungskreis Oberaargau"},"canton":{"key":"2","code":"BE","name":"Bern / Berne"},"status":"Real"},{"key":"10014399","name":"Rätschen","postalCode":"4950","locality":"Huttwil","commune":{"key":"954","name":"Huttwil","shortName":"Huttwil"},"district":{"key":"244","name":"Verwaltungskreis Oberaargau"},"canton":{"key":"2","code":"BE","name":"Bern / Berne"},"status":"Real"},{"key":"10061694","name":"Ringstrasse","postalCode":"4950","locality":"Huttwil","commune":{"key":"954","name":"Huttwil","shortName":"Huttwil"},"district":{"key":"244","name":"Verwaltungskreis Oberaargau"},"canton":{"key":"2","code":"BE","name":"Bern / Berne"},"status":"Real"},{"key":"10040007","name":"Roggenweg","postalCode":"4950","locality":"Huttwil","commune":{"key":"954","name":"Huttwil","shortName":"Huttwil"},"district":{"key":"244","name":"Verwaltungskreis Oberaargau"},"canton":{"key":"2","code":"BE","name":"Bern / Berne"},"status":"Real"},{"key":"10014398","name":"Rosenweg","postalCode":"4950","locality":"Huttwil","commune":{"key":"954","name":"Huttwil","shortName":"Huttwil"},"district":{"key":"244","name":"Verwaltungskreis Oberaargau"},"canton":{"key":"2","code":"BE","name":"Bern / Berne"},"status":"Real"},{"key":"10082071","name":"Rotbachweg","postalCode":"4950","locality":"Huttwil","commune":{"key":"954","name":"Huttwil","shortName":"Huttwil"},"district":{"key":"244","name":"Verwaltungskreis Oberaargau"},"canton":{"key":"2","code":"BE","name":"Bern / Berne"},"status":"Real"},{"key":"10109347","name":"Rotmatt","postalCode":"4953","locality":"Schwarzenbach (Huttwil)","commune":{"key":"954","name":"Huttwil","shortName":"Huttwil"},"district":{"key":"244","name":"Verwaltungskreis Oberaargau"},"canton":{"key":"2","code":"BE","name":"Bern / Berne"},"status":"Real"},{"key":"10040008","name":"Rüttistaldenstrasse","postalCode":"4950","locality":"Huttwil","commune":{"key":"954","name":"Huttwil","shortName":"Huttwil"},"district":{"key":"244","name":"Verwaltungskreis Oberaargau"},"canton":{"key":"2","code":"BE","name":"Bern / Berne"},"status":"Real"},{"key":"10014400","name":"Schlegel","postalCode":"4950","locality":"Huttwil","commune":{"key":"954","name":"Huttwil","shortName":"Huttwil"},"district":{"key":"244","name":"Verwaltungskreis Oberaargau"},"canton":{"key":"2","code":"BE","name":"Bern / Berne"},"status":"Real"},{"key":"10061695","name":"Schultheissenstrasse","postalCode":"4950","locality":"Huttwil","commune":{"key":"954","name":"Huttwil","shortName":"Huttwil"},"district":{"key":"244","name":"Verwaltungskreis Oberaargau"},"canton":{"key":"2","code":"BE","name":"Bern / Berne"},"status":"Real"},{"key":"10108992","name":"Schwarzenbachberg","postalCode":"4953","locality":"Schwarzenbach (Huttwil)","commune":{"key":"954","name":"Huttwil","shortName":"Huttwil"},"district":{"key":"244","name":"Verwaltungskreis Oberaargau"},"canton":{"key":"2","code":"BE","name":"Bern / Berne"},"status":"Real"},{"key":"10082076","name":"Schwarzenbach Dörfli","postalCode":"4953","locality":"Schwarzenbach (Huttwil)","commune":{"key":"954","name":"Huttwil","shortName":"Huttwil"},"district":{"key":"244","name":"Verwaltungskreis Oberaargau"},"canton":{"key":"2","code":"BE","name":"Bern / Berne"},"status":"Real"},{"key":"10180084","name":"Schweinbrunnen","postalCode":"4953","locality":"Schwarzenbach (Huttwil)","commune":{"key":"954","name":"Huttwil","shortName":"Huttwil"},"district":{"key":"244","name":"Verwaltungskreis Oberaargau"},"canton":{"key":"2","code":"BE","name":"Bern / Berne"},"status":"Real"},{"key":"10014682","name":"Schweinbrunnen","postalCode":"4953","locality":"Schwarzenbach (Huttwil)","commune":{"key":"954","name":"Huttwil","shortName":"Huttwil"},"district":{"key":"244","name":"Verwaltungskreis Oberaargau"},"canton":{"key":"2","code":"BE","name":"Bern / Berne"},"status":"Real"},{"key":"10138407","name":"Schwende","postalCode":"4950","locality":"Huttwil","commune":{"key":"954","name":"Huttwil","shortName":"Huttwil"},"district":{"key":"244","name":"Verwaltungskreis Oberaargau"},"canton":{"key":"2","code":"BE","name":"Bern / Berne"},"status":"Real"},{"key":"10014401","name":"Signalstrasse","postalCode":"4950","locality":"Huttwil","commune":{"key":"954","name":"Huttwil","shortName":"Huttwil"},"district":{"key":"244","name":"Verwaltungskreis Oberaargau"},"canton":{"key":"2","code":"BE","name":"Bern / Berne"},"status":"Real"},{"key":"10082072","name":"Silostrasse","postalCode":"4950","locality":"Huttwil","commune":{"key":"954","name":"Huttwil","shortName":"Huttwil"},"district":{"key":"244","name":"Verwaltungskreis Oberaargau"},"canton":{"key":"2","code":"BE","name":"Bern / Berne"},"status":"Real"},{"key":"10040009","name":"Sonneggstrasse","postalCode":"4950","locality":"Huttwil","commune":{"key":"954","name":"Huttwil","shortName":"Huttwil"},"district":{"key":"244","name":"Verwaltungskreis Oberaargau"},"canton":{"key":"2","code":"BE","name":"Bern / Berne"},"status":"Real"},{"key":"10180081","name":"Sonnhaldenstrasse","postalCode":"4950","locality":"Huttwil","commune":{"key":"954","name":"Huttwil","shortName":"Huttwil"},"district":{"key":"244","name":"Verwaltungskreis Oberaargau"},"canton":{"key":"2","code":"BE","name":"Bern / Berne"},"status":"Real"},{"key":"10014402","name":"Spitalstrasse","postalCode":"4950","locality":"Huttwil","commune":{"key":"954","name":"Huttwil","shortName":"Huttwil"},"district":{"key":"244","name":"Verwaltungskreis Oberaargau"},"canton":{"key":"2","code":"BE","name":"Bern / Berne"},"status":"Real"},{"key":"10061696","name":"Stadthausstrasse","postalCode":"4950","locality":"Huttwil","commune":{"key":"954","name":"Huttwil","shortName":"Huttwil"},"district":{"key":"244","name":"Verwaltungskreis Oberaargau"},"canton":{"key":"2","code":"BE","name":"Bern / Berne"},"status":"Real"},{"key":"10098701","name":"Staldenstrasse","postalCode":"4950","locality":"Huttwil","commune":{"key":"954","name":"Huttwil","shortName":"Huttwil"},"district":{"key":"244","name":"Verwaltungskreis Oberaargau"},"canton":{"key":"2","code":"BE","name":"Bern / Berne"},"status":"Real"},{"key":"10082073","name":"Stierenweid","postalCode":"4950","locality":"Huttwil","commune":{"key":"954","name":"Huttwil","shortName":"Huttwil"},"district":{"key":"244","name":"Verwaltungskreis Oberaargau"},"canton":{"key":"2","code":"BE","name":"Bern / Berne"},"status":"Real"},{"key":"10186149","name":"Südstrasse","postalCode":"4950","locality":"Huttwil","commune":{"key":"954","name":"Huttwil","shortName":"Huttwil"},"district":{"key":"244","name":"Verwaltungskreis Oberaargau"},"canton":{"key":"2","code":"BE","name":"Bern / Berne"},"status":"Real"},{"key":"10014403","name":"Surihüsli","postalCode":"4950","locality":"Huttwil","commune":{"key":"954","name":"Huttwil","shortName":"Huttwil"},"district":{"key":"244","name":"Verwaltungskreis Oberaargau"},"canton":{"key":"2","code":"BE","name":"Bern / Berne"},"status":"Real"},{"key":"10180082","name":"Tannenweg","postalCode":"4950","locality":"Huttwil","commune":{"key":"954","name":"Huttwil","shortName":"Huttwil"},"district":{"key":"244","name":"Verwaltungskreis Oberaargau"},"canton":{"key":"2","code":"BE","name":"Bern / Berne"},"status":"Real"},{"key":"10014404","name":"Thomasbodenstrasse","postalCode":"4950","locality":"Huttwil","commune":{"key":"954","name":"Huttwil","shortName":"Huttwil"},"district":{"key":"244","name":"Verwaltungskreis Oberaargau"},"canton":{"key":"2","code":"BE","name":"Bern / Berne"},"status":"Real"},{"key":"10082074","name":"Thülboden","postalCode":"4950","locality":"Huttwil","commune":{"key":"954","name":"Huttwil","shortName":"Huttwil"},"district":{"key":"244","name":"Verwaltungskreis Oberaargau"},"canton":{"key":"2","code":"BE","name":"Bern / Berne"},"status":"Real"},{"key":"10058483","name":"Trummer","postalCode":"4950","locality":"Huttwil","commune":{"key":"954","name":"Huttwil","shortName":"Huttwil"},"district":{"key":"244","name":"Verwaltungskreis Oberaargau"},"canton":{"key":"2","code":"BE","name":"Bern / Berne"},"status":"Real"},{"key":"10125032","name":"Tschäppel","postalCode":"4950","locality":"Huttwil","commune":{"key":"954","name":"Huttwil","shortName":"Huttwil"},"district":{"key":"244","name":"Verwaltungskreis Oberaargau"},"canton":{"key":"2","code":"BE","name":"Bern / Berne"},"status":"Real"},{"key":"10188949","name":"Tscharandistrasse","postalCode":"4950","locality":"Huttwil","commune":{"key":"954","name":"Huttwil","shortName":"Huttwil"},"district":{"key":"244","name":"Verwaltungskreis Oberaargau"},"canton":{"key":"2","code":"BE","name":"Bern / Berne"},"status":"Real"},{"key":"10014405","name":"Tubel","postalCode":"4950","locality":"Huttwil","commune":{"key":"954","name":"Huttwil","shortName":"Huttwil"},"district":{"key":"244","name":"Verwaltungskreis Oberaargau"},"canton":{"key":"2","code":"BE","name":"Bern / Berne"},"status":"Real"},{"key":"10014406","name":"Uech","postalCode":"4950","locality":"Huttwil","commune":{"key":"954","name":"Huttwil","shortName":"Huttwil"},"district":{"key":"244","name":"Verwaltungskreis Oberaargau"},"canton":{"key":"2","code":"BE","name":"Bern / Berne"},"status":"Real"},{"key":"10014407","name":"Unter-Aebnit","postalCode":"4950","locality":"Huttwil","commune":{"key":"954","name":"Huttwil","shortName":"Huttwil"},"district":{"key":"244","name":"Verwaltungskreis Oberaargau"},"canton":{"key":"2","code":"BE","name":"Bern / Berne"},"status":"Real"},{"key":"10171464","name":"Unterer Baumgarten","postalCode":"4953","locality":"Schwarzenbach (Huttwil)","commune":{"key":"954","name":"Huttwil","shortName":"Huttwil"},"district":{"key":"244","name":"Verwaltungskreis Oberaargau"},"canton":{"key":"2","code":"BE","name":"Bern / Berne"},"status":"Real"},{"key":"10128452","name":"Viehmarktstrasse","postalCode":"4950","locality":"Huttwil","commune":{"key":"954","name":"Huttwil","shortName":"Huttwil"},"district":{"key":"244","name":"Verwaltungskreis Oberaargau"},"canton":{"key":"2","code":"BE","name":"Bern / Berne"},"status":"Real"},{"key":"10191453","name":"Waldmatt","postalCode":"4950","locality":"Huttwil","commune":{"key":"954","name":"Huttwil","shortName":"Huttwil"},"district":{"key":"244","name":"Verwaltungskreis Oberaargau"},"canton":{"key":"2","code":"BE","name":"Bern / Berne"},"status":"Real"},{"key":"10180083","name":"Walkestrasse","postalCode":"4950","locality":"Huttwil","commune":{"key":"954","name":"Huttwil","shortName":"Huttwil"},"district":{"key":"244","name":"Verwaltungskreis Oberaargau"},"canton":{"key":"2","code":"BE","name":"Bern / Berne"},"status":"Real"},{"key":"10109348","name":"Weid","postalCode":"4953","locality":"Schwarzenbach (Huttwil)","commune":{"key":"954","name":"Huttwil","shortName":"Huttwil"},"district":{"key":"244","name":"Verwaltungskreis Oberaargau"},"canton":{"key":"2","code":"BE","name":"Bern / Berne"},"status":"Real"},{"key":"10118535","name":"Weidweg","postalCode":"4950","locality":"Huttwil","commune":{"key":"954","name":"Huttwil","shortName":"Huttwil"},"district":{"key":"244","name":"Verwaltungskreis Oberaargau"},"canton":{"key":"2","code":"BE","name":"Bern / Berne"},"status":"Real"},{"key":"10061698","name":"Weierackerweg","postalCode":"4950","locality":"Huttwil","commune":{"key":"954","name":"Huttwil","shortName":"Huttwil"},"district":{"key":"244","name":"Verwaltungskreis Oberaargau"},"canton":{"key":"2","code":"BE","name":"Bern / Berne"},"status":"Real"},{"key":"10014408","name":"Weierhaus","postalCode":"4950","locality":"Huttwil","commune":{"key":"954","name":"Huttwil","shortName":"Huttwil"},"district":{"key":"244","name":"Verwaltungskreis Oberaargau"},"canton":{"key":"2","code":"BE","name":"Bern / Berne"},"status":"Real"},{"key":"10120176","name":"Weierhausstrasse","postalCode":"4950","locality":"Huttwil","commune":{"key":"954","name":"Huttwil","shortName":"Huttwil"},"district":{"key":"244","name":"Verwaltungskreis Oberaargau"},"canton":{"key":"2","code":"BE","name":"Bern / Berne"},"status":"Real"},{"key":"10058484","name":"Wertenbühl","postalCode":"4950","locality":"Huttwil","commune":{"key":"954","name":"Huttwil","shortName":"Huttwil"},"district":{"key":"244","name":"Verwaltungskreis Oberaargau"},"canton":{"key":"2","code":"BE","name":"Bern / Berne"},"status":"Real"},{"key":"10058486","name":"Widisberg","postalCode":"4953","locality":"Schwarzenbach (Huttwil)","commune":{"key":"954","name":"Huttwil","shortName":"Huttwil"},"district":{"key":"244","name":"Verwaltungskreis Oberaargau"},"canton":{"key":"2","code":"BE","name":"Bern / Berne"},"status":"Real"},{"key":"10014409","name":"Wiesenstrasse","postalCode":"4950","locality":"Huttwil","commune":{"key":"954","name":"Huttwil","shortName":"Huttwil"},"district":{"key":"244","name":"Verwaltungskreis Oberaargau"},"canton":{"key":"2","code":"BE","name":"Bern / Berne"},"status":"Real"},{"key":"10108991","name":"Willimatt","postalCode":"4950","locality":"Huttwil","commune":{"key":"954","name":"Huttwil","shortName":"Huttwil"},"district":{"key":"244","name":"Verwaltungskreis Oberaargau"},"canton":{"key":"2","code":"BE","name":"Bern / Berne"},"status":"Real"},{"key":"10061699","name":"Zelg","postalCode":"4950","locality":"Huttwil","commune":{"key":"954","name":"Huttwil","shortName":"Huttwil"},"district":{"key":"244","name":"Verwaltungskreis Oberaargau"},"canton":{"key":"2","code":"BE","name":"Bern / Berne"},"status":"Real"},{"key":"10014410","name":"Ziegelacker","postalCode":"4950","locality":"Huttwil","commune":{"key":"954","name":"Huttwil","shortName":"Huttwil"},"district":{"key":"244","name":"Verwaltungskreis Oberaargau"},"canton":{"key":"2","code":"BE","name":"Bern / Berne"},"status":"Real"},{"key":"10255563","name":"Ziegelbachstrasse","postalCode":"4950","locality":"Huttwil","commune":{"key":"954","name":"Huttwil","shortName":"Huttwil"},"district":{"key":"244","name":"Verwaltungskreis Oberaargau"},"canton":{"key":"2","code":"BE","name":"Bern / Berne"},"status":"Real"},]