[{"name":"Am Kirchberg","postalCode":"24977","locality":"Ringsberg","municipality":{"key":"01059157","name":"Ringsberg","type":"Kreisangehörige_Gemeinde"},"district":{"key":"01059","name":"Schleswig-Flensburg","type":"Kreis"},"federalState":{"key":"01","name":"Schleswig-Holstein"}},{"name":"Bahnhofstr.","postalCode":"24977","locality":"Ringsberg","municipality":{"key":"01059157","name":"Ringsberg","type":"Kreisangehörige_Gemeinde"},"district":{"key":"01059","name":"Schleswig-Flensburg","type":"Kreis"},"federalState":{"key":"01","name":"Schleswig-Holstein"}},{"name":"Fellerhye","postalCode":"24977","locality":"Ringsberg","municipality":{"key":"01059157","name":"Ringsberg","type":"Kreisangehörige_Gemeinde"},"district":{"key":"01059","name":"Schleswig-Flensburg","type":"Kreis"},"federalState":{"key":"01","name":"Schleswig-Holstein"}},{"name":"Furt","postalCode":"24977","locality":"Ringsberg","municipality":{"key":"01059157","name":"Ringsberg","type":"Kreisangehörige_Gemeinde"},"district":{"key":"01059","name":"Schleswig-Flensburg","type":"Kreis"},"federalState":{"key":"01","name":"Schleswig-Holstein"}},{"name":"Glücksburger Str.","postalCode":"24977","locality":"Ringsberg","municipality":{"key":"01059157","name":"Ringsberg","type":"Kreisangehörige_Gemeinde"},"district":{"key":"01059","name":"Schleswig-Flensburg","type":"Kreis"},"federalState":{"key":"01","name":"Schleswig-Holstein"}},{"name":"Horsbjerg","postalCode":"24977","locality":"Ringsberg","municipality":{"key":"01059157","name":"Ringsberg","type":"Kreisangehörige_Gemeinde"},"district":{"key":"01059","name":"Schleswig-Flensburg","type":"Kreis"},"federalState":{"key":"01","name":"Schleswig-Holstein"}},{"name":"Meiereikoppel","postalCode":"24977","locality":"Ringsberg","municipality":{"key":"01059157","name":"Ringsberg","type":"Kreisangehörige_Gemeinde"},"district":{"key":"01059","name":"Schleswig-Flensburg","type":"Kreis"},"federalState":{"key":"01","name":"Schleswig-Holstein"}},{"name":"Nordstr.","postalCode":"24977","locality":"Ringsberg","municipality":{"key":"01059157","name":"Ringsberg","type":"Kreisangehörige_Gemeinde"},"district":{"key":"01059","name":"Schleswig-Flensburg","type":"Kreis"},"federalState":{"key":"01","name":"Schleswig-Holstein"}},{"name":"Poststr.","postalCode":"24977","locality":"Ringsberg","municipality":{"key":"01059157","name":"Ringsberg","type":"Kreisangehörige_Gemeinde"},"district":{"key":"01059","name":"Schleswig-Flensburg","type":"Kreis"},"federalState":{"key":"01","name":"Schleswig-Holstein"}},{"name":"Süderholz","postalCode":"24977","locality":"Ringsberg","municipality":{"key":"01059157","name":"Ringsberg","type":"Kreisangehörige_Gemeinde"},"district":{"key":"01059","name":"Schleswig-Flensburg","type":"Kreis"},"federalState":{"key":"01","name":"Schleswig-Holstein"}},]