[{"name":"Am Friedhof","postalCode":"92637","locality":"Theisseil","municipality":{"key":"09374160","name":"Theisseil","type":"Kreisangehörige_Gemeinde"},"district":{"key":"09374","name":"Neustadt a.d.Waldnaab","type":"Landkreis"},"federalState":{"key":"09","name":"Bayern"}},{"name":"Am Sonnenhang","postalCode":"92637","locality":"Theisseil","municipality":{"key":"09374160","name":"Theisseil","type":"Kreisangehörige_Gemeinde"},"district":{"key":"09374","name":"Neustadt a.d.Waldnaab","type":"Landkreis"},"federalState":{"key":"09","name":"Bayern"}},{"name":"Bühlweg","postalCode":"92637","locality":"Theisseil","municipality":{"key":"09374160","name":"Theisseil","type":"Kreisangehörige_Gemeinde"},"district":{"key":"09374","name":"Neustadt a.d.Waldnaab","type":"Landkreis"},"federalState":{"key":"09","name":"Bayern"}},{"name":"Edeldorfer Bergstr.","postalCode":"92637","locality":"Theisseil","municipality":{"key":"09374160","name":"Theisseil","type":"Kreisangehörige_Gemeinde"},"district":{"key":"09374","name":"Neustadt a.d.Waldnaab","type":"Landkreis"},"federalState":{"key":"09","name":"Bayern"}},{"name":"Edeldorfer Ringstr.","postalCode":"92637","locality":"Theisseil","municipality":{"key":"09374160","name":"Theisseil","type":"Kreisangehörige_Gemeinde"},"district":{"key":"09374","name":"Neustadt a.d.Waldnaab","type":"Landkreis"},"federalState":{"key":"09","name":"Bayern"}},{"name":"Fichtenweg","postalCode":"92637","locality":"Theisseil","municipality":{"key":"09374160","name":"Theisseil","type":"Kreisangehörige_Gemeinde"},"district":{"key":"09374","name":"Neustadt a.d.Waldnaab","type":"Landkreis"},"federalState":{"key":"09","name":"Bayern"}},{"name":"Fischerbergweg","postalCode":"92637","locality":"Theisseil","municipality":{"key":"09374160","name":"Theisseil","type":"Kreisangehörige_Gemeinde"},"district":{"key":"09374","name":"Neustadt a.d.Waldnaab","type":"Landkreis"},"federalState":{"key":"09","name":"Bayern"}},{"name":"Fliederweg","postalCode":"92637","locality":"Theisseil","municipality":{"key":"09374160","name":"Theisseil","type":"Kreisangehörige_Gemeinde"},"district":{"key":"09374","name":"Neustadt a.d.Waldnaab","type":"Landkreis"},"federalState":{"key":"09","name":"Bayern"}},{"name":"Flurstr.","postalCode":"92637","locality":"Theisseil","municipality":{"key":"09374160","name":"Theisseil","type":"Kreisangehörige_Gemeinde"},"district":{"key":"09374","name":"Neustadt a.d.Waldnaab","type":"Landkreis"},"federalState":{"key":"09","name":"Bayern"}},{"name":"Geistlicher-Rat-Hösl-Str.","postalCode":"92637","locality":"Theisseil","municipality":{"key":"09374160","name":"Theisseil","type":"Kreisangehörige_Gemeinde"},"district":{"key":"09374","name":"Neustadt a.d.Waldnaab","type":"Landkreis"},"federalState":{"key":"09","name":"Bayern"}},{"name":"Ginsterweg","postalCode":"92637","locality":"Theisseil","municipality":{"key":"09374160","name":"Theisseil","type":"Kreisangehörige_Gemeinde"},"district":{"key":"09374","name":"Neustadt a.d.Waldnaab","type":"Landkreis"},"federalState":{"key":"09","name":"Bayern"}},{"name":"Görnitz","postalCode":"92637","locality":"Theisseil","municipality":{"key":"09374160","name":"Theisseil","type":"Kreisangehörige_Gemeinde"},"district":{"key":"09374","name":"Neustadt a.d.Waldnaab","type":"Landkreis"},"federalState":{"key":"09","name":"Bayern"}},{"name":"Görnitzer Brücke","postalCode":"92637","locality":"Theisseil","municipality":{"key":"09374160","name":"Theisseil","type":"Kreisangehörige_Gemeinde"},"district":{"key":"09374","name":"Neustadt a.d.Waldnaab","type":"Landkreis"},"federalState":{"key":"09","name":"Bayern"}},{"name":"Gregor-Nickl-Str.","postalCode":"92637","locality":"Theisseil","municipality":{"key":"09374160","name":"Theisseil","type":"Kreisangehörige_Gemeinde"},"district":{"key":"09374","name":"Neustadt a.d.Waldnaab","type":"Landkreis"},"federalState":{"key":"09","name":"Bayern"}},{"name":"Hammerharlesberg","postalCode":"92637","locality":"Theisseil","municipality":{"key":"09374160","name":"Theisseil","type":"Kreisangehörige_Gemeinde"},"district":{"key":"09374","name":"Neustadt a.d.Waldnaab","type":"Landkreis"},"federalState":{"key":"09","name":"Bayern"}},{"name":"Hochstr.","postalCode":"92637","locality":"Theisseil","municipality":{"key":"09374160","name":"Theisseil","type":"Kreisangehörige_Gemeinde"},"district":{"key":"09374","name":"Neustadt a.d.Waldnaab","type":"Landkreis"},"federalState":{"key":"09","name":"Bayern"}},{"name":"Hölltaler Str.","postalCode":"92637","locality":"Theisseil","municipality":{"key":"09374160","name":"Theisseil","type":"Kreisangehörige_Gemeinde"},"district":{"key":"09374","name":"Neustadt a.d.Waldnaab","type":"Landkreis"},"federalState":{"key":"09","name":"Bayern"}},{"name":"Im Kirchsteig","postalCode":"92637","locality":"Theisseil","municipality":{"key":"09374160","name":"Theisseil","type":"Kreisangehörige_Gemeinde"},"district":{"key":"09374","name":"Neustadt a.d.Waldnaab","type":"Landkreis"},"federalState":{"key":"09","name":"Bayern"}},{"name":"Kirchenstr.","postalCode":"92637","locality":"Theisseil","municipality":{"key":"09374160","name":"Theisseil","type":"Kreisangehörige_Gemeinde"},"district":{"key":"09374","name":"Neustadt a.d.Waldnaab","type":"Landkreis"},"federalState":{"key":"09","name":"Bayern"}},{"name":"Oberer Berg","postalCode":"92637","locality":"Theisseil","municipality":{"key":"09374160","name":"Theisseil","type":"Kreisangehörige_Gemeinde"},"district":{"key":"09374","name":"Neustadt a.d.Waldnaab","type":"Landkreis"},"federalState":{"key":"09","name":"Bayern"}},{"name":"Rosenweg","postalCode":"92637","locality":"Theisseil","municipality":{"key":"09374160","name":"Theisseil","type":"Kreisangehörige_Gemeinde"},"district":{"key":"09374","name":"Neustadt a.d.Waldnaab","type":"Landkreis"},"federalState":{"key":"09","name":"Bayern"}},{"name":"Schlehenweg","postalCode":"92637","locality":"Theisseil","municipality":{"key":"09374160","name":"Theisseil","type":"Kreisangehörige_Gemeinde"},"district":{"key":"09374","name":"Neustadt a.d.Waldnaab","type":"Landkreis"},"federalState":{"key":"09","name":"Bayern"}},{"name":"Theisseiler Str.","postalCode":"92637","locality":"Theisseil","municipality":{"key":"09374160","name":"Theisseil","type":"Kreisangehörige_Gemeinde"},"district":{"key":"09374","name":"Neustadt a.d.Waldnaab","type":"Landkreis"},"federalState":{"key":"09","name":"Bayern"}},{"name":"Unterer Berg","postalCode":"92637","locality":"Theisseil","municipality":{"key":"09374160","name":"Theisseil","type":"Kreisangehörige_Gemeinde"},"district":{"key":"09374","name":"Neustadt a.d.Waldnaab","type":"Landkreis"},"federalState":{"key":"09","name":"Bayern"}},{"name":"Waldstr.","postalCode":"92637","locality":"Theisseil","municipality":{"key":"09374160","name":"Theisseil","type":"Kreisangehörige_Gemeinde"},"district":{"key":"09374","name":"Neustadt a.d.Waldnaab","type":"Landkreis"},"federalState":{"key":"09","name":"Bayern"}},{"name":"Weidener Str.","postalCode":"92637","locality":"Theisseil","municipality":{"key":"09374160","name":"Theisseil","type":"Kreisangehörige_Gemeinde"},"district":{"key":"09374","name":"Neustadt a.d.Waldnaab","type":"Landkreis"},"federalState":{"key":"09","name":"Bayern"}},{"name":"Wilchenreuth","postalCode":"92637","locality":"Theisseil","municipality":{"key":"09374160","name":"Theisseil","type":"Kreisangehörige_Gemeinde"},"district":{"key":"09374","name":"Neustadt a.d.Waldnaab","type":"Landkreis"},"federalState":{"key":"09","name":"Bayern"}},{"name":"Zum Sportplatz","postalCode":"92637","locality":"Theisseil","municipality":{"key":"09374160","name":"Theisseil","type":"Kreisangehörige_Gemeinde"},"district":{"key":"09374","name":"Neustadt a.d.Waldnaab","type":"Landkreis"},"federalState":{"key":"09","name":"Bayern"}},]