[{"name":"Albrechtstr.","postalCode":"95698","locality":"Bad Neualbenreuth","municipality":{"key":"09377142","name":"Bad Neualbenreuth, M","type":"Markt"},"district":{"key":"09377","name":"Tirschenreuth","type":"Landkreis"},"federalState":{"key":"09","name":"Bayern"}},{"name":"Altmugl","postalCode":"95698","locality":"Bad Neualbenreuth","municipality":{"key":"09377142","name":"Bad Neualbenreuth, M","type":"Markt"},"district":{"key":"09377","name":"Tirschenreuth","type":"Landkreis"},"federalState":{"key":"09","name":"Bayern"}},{"name":"Am Anger","postalCode":"95698","locality":"Bad Neualbenreuth","municipality":{"key":"09377142","name":"Bad Neualbenreuth, M","type":"Markt"},"district":{"key":"09377","name":"Tirschenreuth","type":"Landkreis"},"federalState":{"key":"09","name":"Bayern"}},{"name":"Am Bühl","postalCode":"95698","locality":"Bad Neualbenreuth","municipality":{"key":"09377142","name":"Bad Neualbenreuth, M","type":"Markt"},"district":{"key":"09377","name":"Tirschenreuth","type":"Landkreis"},"federalState":{"key":"09","name":"Bayern"}},{"name":"Am Kirchberg","postalCode":"95698","locality":"Bad Neualbenreuth","municipality":{"key":"09377142","name":"Bad Neualbenreuth, M","type":"Markt"},"district":{"key":"09377","name":"Tirschenreuth","type":"Landkreis"},"federalState":{"key":"09","name":"Bayern"}},{"name":"Bergäcker","postalCode":"95698","locality":"Bad Neualbenreuth","municipality":{"key":"09377142","name":"Bad Neualbenreuth, M","type":"Markt"},"district":{"key":"09377","name":"Tirschenreuth","type":"Landkreis"},"federalState":{"key":"09","name":"Bayern"}},{"name":"Dahlienweg","postalCode":"95643","locality":"Tirschenreuth","municipality":{"key":"09377154","name":"Tirschenreuth, St","type":"Stadt"},"district":{"key":"09377","name":"Tirschenreuth","type":"Landkreis"},"federalState":{"key":"09","name":"Bayern"}},{"name":"Dammstr.","postalCode":"95643","locality":"Tirschenreuth","municipality":{"key":"09377154","name":"Tirschenreuth, St","type":"Stadt"},"district":{"key":"09377","name":"Tirschenreuth","type":"Landkreis"},"federalState":{"key":"09","name":"Bayern"}},{"name":"Deschplatz","postalCode":"95643","locality":"Tirschenreuth","municipality":{"key":"09377154","name":"Tirschenreuth, St","type":"Stadt"},"district":{"key":"09377","name":"Tirschenreuth","type":"Landkreis"},"federalState":{"key":"09","name":"Bayern"}},{"name":"Dorfweg","postalCode":"95643","locality":"Tirschenreuth","municipality":{"key":"09377154","name":"Tirschenreuth, St","type":"Stadt"},"district":{"key":"09377","name":"Tirschenreuth","type":"Landkreis"},"federalState":{"key":"09","name":"Bayern"}},{"name":"Dr.-Dobereiner-Weg","postalCode":"95643","locality":"Tirschenreuth","municipality":{"key":"09377154","name":"Tirschenreuth, St","type":"Stadt"},"district":{"key":"09377","name":"Tirschenreuth","type":"Landkreis"},"federalState":{"key":"09","name":"Bayern"}},{"name":"Dr.-Hauer-Weg","postalCode":"95643","locality":"Tirschenreuth","municipality":{"key":"09377154","name":"Tirschenreuth, St","type":"Stadt"},"district":{"key":"09377","name":"Tirschenreuth","type":"Landkreis"},"federalState":{"key":"09","name":"Bayern"}},{"name":"Dr.-Karl-Forster-Str.","postalCode":"95643","locality":"Tirschenreuth","municipality":{"key":"09377154","name":"Tirschenreuth, St","type":"Stadt"},"district":{"key":"09377","name":"Tirschenreuth","type":"Landkreis"},"federalState":{"key":"09","name":"Bayern"}},{"name":"Dr.-Üblacker-Weg","postalCode":"95643","locality":"Tirschenreuth","municipality":{"key":"09377154","name":"Tirschenreuth, St","type":"Stadt"},"district":{"key":"09377","name":"Tirschenreuth","type":"Landkreis"},"federalState":{"key":"09","name":"Bayern"}},{"name":"Egerer Str.","postalCode":"95698","locality":"Bad Neualbenreuth","municipality":{"key":"09377142","name":"Bad Neualbenreuth, M","type":"Markt"},"district":{"key":"09377","name":"Tirschenreuth","type":"Landkreis"},"federalState":{"key":"09","name":"Bayern"}},{"name":"Ernestgrün","postalCode":"95698","locality":"Bad Neualbenreuth","municipality":{"key":"09377142","name":"Bad Neualbenreuth, M","type":"Markt"},"district":{"key":"09377","name":"Tirschenreuth","type":"Landkreis"},"federalState":{"key":"09","name":"Bayern"}},{"name":"Friedhofstr.","postalCode":"95698","locality":"Bad Neualbenreuth","municipality":{"key":"09377142","name":"Bad Neualbenreuth, M","type":"Markt"},"district":{"key":"09377","name":"Tirschenreuth","type":"Landkreis"},"federalState":{"key":"09","name":"Bayern"}},{"name":"Grafengrüner Str.","postalCode":"95698","locality":"Bad Neualbenreuth","municipality":{"key":"09377142","name":"Bad Neualbenreuth, M","type":"Markt"},"district":{"key":"09377","name":"Tirschenreuth","type":"Landkreis"},"federalState":{"key":"09","name":"Bayern"}},{"name":"Hirtgasse","postalCode":"95698","locality":"Bad Neualbenreuth","municipality":{"key":"09377142","name":"Bad Neualbenreuth, M","type":"Markt"},"district":{"key":"09377","name":"Tirschenreuth","type":"Landkreis"},"federalState":{"key":"09","name":"Bayern"}},{"name":"Im Lehen","postalCode":"95643","locality":"Tirschenreuth","municipality":{"key":"09377154","name":"Tirschenreuth, St","type":"Stadt"},"district":{"key":"09377","name":"Tirschenreuth","type":"Landkreis"},"federalState":{"key":"09","name":"Bayern"}},{"name":"Judengasse","postalCode":"95698","locality":"Bad Neualbenreuth","municipality":{"key":"09377142","name":"Bad Neualbenreuth, M","type":"Markt"},"district":{"key":"09377","name":"Tirschenreuth","type":"Landkreis"},"federalState":{"key":"09","name":"Bayern"}},{"name":"Kapellenweg","postalCode":"95698","locality":"Bad Neualbenreuth","municipality":{"key":"09377142","name":"Bad Neualbenreuth, M","type":"Markt"},"district":{"key":"09377","name":"Tirschenreuth","type":"Landkreis"},"federalState":{"key":"09","name":"Bayern"}},{"name":"Kurallee","postalCode":"95698","locality":"Bad Neualbenreuth","municipality":{"key":"09377142","name":"Bad Neualbenreuth, M","type":"Markt"},"district":{"key":"09377","name":"Tirschenreuth","type":"Landkreis"},"federalState":{"key":"09","name":"Bayern"}},{"name":"Kurpark","postalCode":"95698","locality":"Bad Neualbenreuth","municipality":{"key":"09377142","name":"Bad Neualbenreuth, M","type":"Markt"},"district":{"key":"09377","name":"Tirschenreuth","type":"Landkreis"},"federalState":{"key":"09","name":"Bayern"}},{"name":"Lange Äcker","postalCode":"95643","locality":"Tirschenreuth","municipality":{"key":"09377154","name":"Tirschenreuth, St","type":"Stadt"},"district":{"key":"09377","name":"Tirschenreuth","type":"Landkreis"},"federalState":{"key":"09","name":"Bayern"}},{"name":"Lange Bruck","postalCode":"95643","locality":"Tirschenreuth","municipality":{"key":"09377154","name":"Tirschenreuth, St","type":"Stadt"},"district":{"key":"09377","name":"Tirschenreuth","type":"Landkreis"},"federalState":{"key":"09","name":"Bayern"}},{"name":"Lengenfeld","postalCode":"95643","locality":"Tirschenreuth","municipality":{"key":"09377154","name":"Tirschenreuth, St","type":"Stadt"},"district":{"key":"09377","name":"Tirschenreuth","type":"Landkreis"},"federalState":{"key":"09","name":"Bayern"}},{"name":"Lengenfelder Weg","postalCode":"95643","locality":"Tirschenreuth","municipality":{"key":"09377154","name":"Tirschenreuth, St","type":"Stadt"},"district":{"key":"09377","name":"Tirschenreuth","type":"Landkreis"},"federalState":{"key":"09","name":"Bayern"}},{"name":"Liegewiese am Rothenbürger Weiher","postalCode":"95643","locality":"Tirschenreuth","municipality":{"key":"09377154","name":"Tirschenreuth, St","type":"Stadt"},"district":{"key":"09377","name":"Tirschenreuth","type":"Landkreis"},"federalState":{"key":"09","name":"Bayern"}},{"name":"Lilienweg","postalCode":"95643","locality":"Tirschenreuth","municipality":{"key":"09377154","name":"Tirschenreuth, St","type":"Stadt"},"district":{"key":"09377","name":"Tirschenreuth","type":"Landkreis"},"federalState":{"key":"09","name":"Bayern"}},{"name":"Lindenweg","postalCode":"95643","locality":"Tirschenreuth","municipality":{"key":"09377154","name":"Tirschenreuth, St","type":"Stadt"},"district":{"key":"09377","name":"Tirschenreuth","type":"Landkreis"},"federalState":{"key":"09","name":"Bayern"}},{"name":"Lohnsitz","postalCode":"95643","locality":"Tirschenreuth","municipality":{"key":"09377154","name":"Tirschenreuth, St","type":"Stadt"},"district":{"key":"09377","name":"Tirschenreuth","type":"Landkreis"},"federalState":{"key":"09","name":"Bayern"}},{"name":"Luitpoldplatz","postalCode":"95643","locality":"Tirschenreuth","municipality":{"key":"09377154","name":"Tirschenreuth, St","type":"Stadt"},"district":{"key":"09377","name":"Tirschenreuth","type":"Landkreis"},"federalState":{"key":"09","name":"Bayern"}},{"name":"Maiersgrüner Str.","postalCode":"95698","locality":"Bad Neualbenreuth","municipality":{"key":"09377142","name":"Bad Neualbenreuth, M","type":"Markt"},"district":{"key":"09377","name":"Tirschenreuth","type":"Landkreis"},"federalState":{"key":"09","name":"Bayern"}},{"name":"Marktplatz","postalCode":"95698","locality":"Bad Neualbenreuth","municipality":{"key":"09377142","name":"Bad Neualbenreuth, M","type":"Markt"},"district":{"key":"09377","name":"Tirschenreuth","type":"Landkreis"},"federalState":{"key":"09","name":"Bayern"}},{"name":"Mittenteicher Str.","postalCode":"95698","locality":"Bad Neualbenreuth","municipality":{"key":"09377142","name":"Bad Neualbenreuth, M","type":"Markt"},"district":{"key":"09377","name":"Tirschenreuth","type":"Landkreis"},"federalState":{"key":"09","name":"Bayern"}},{"name":"Motzersreuth","postalCode":"95698","locality":"Bad Neualbenreuth","municipality":{"key":"09377142","name":"Bad Neualbenreuth, M","type":"Markt"},"district":{"key":"09377","name":"Tirschenreuth","type":"Landkreis"},"federalState":{"key":"09","name":"Bayern"}},{"name":"Mühlgasse","postalCode":"95698","locality":"Bad Neualbenreuth","municipality":{"key":"09377142","name":"Bad Neualbenreuth, M","type":"Markt"},"district":{"key":"09377","name":"Tirschenreuth","type":"Landkreis"},"federalState":{"key":"09","name":"Bayern"}},{"name":"Narzissenweg","postalCode":"95643","locality":"Tirschenreuth","municipality":{"key":"09377154","name":"Tirschenreuth, St","type":"Stadt"},"district":{"key":"09377","name":"Tirschenreuth","type":"Landkreis"},"federalState":{"key":"09","name":"Bayern"}},{"name":"Neualbenreuther Str.","postalCode":"95643","locality":"Tirschenreuth","municipality":{"key":"09377154","name":"Tirschenreuth, St","type":"Stadt"},"district":{"key":"09377","name":"Tirschenreuth","type":"Landkreis"},"federalState":{"key":"09","name":"Bayern"}},{"name":"Neulerchenfeldweg","postalCode":"95643","locality":"Tirschenreuth","municipality":{"key":"09377154","name":"Tirschenreuth, St","type":"Stadt"},"district":{"key":"09377","name":"Tirschenreuth","type":"Landkreis"},"federalState":{"key":"09","name":"Bayern"}},{"name":"Ottenspitz","postalCode":"95698","locality":"Bad Neualbenreuth","municipality":{"key":"09377142","name":"Bad Neualbenreuth, M","type":"Markt"},"district":{"key":"09377","name":"Tirschenreuth","type":"Landkreis"},"federalState":{"key":"09","name":"Bayern"}},{"name":"Otto-Freundl-Str.","postalCode":"95698","locality":"Bad Neualbenreuth","municipality":{"key":"09377142","name":"Bad Neualbenreuth, M","type":"Markt"},"district":{"key":"09377","name":"Tirschenreuth","type":"Landkreis"},"federalState":{"key":"09","name":"Bayern"}},{"name":"Pater-Rupert-Mayer-Weg","postalCode":"95643","locality":"Tirschenreuth","municipality":{"key":"09377154","name":"Tirschenreuth, St","type":"Stadt"},"district":{"key":"09377","name":"Tirschenreuth","type":"Landkreis"},"federalState":{"key":"09","name":"Bayern"}},{"name":"Paul-Straub-Str.","postalCode":"95643","locality":"Tirschenreuth","municipality":{"key":"09377154","name":"Tirschenreuth, St","type":"Stadt"},"district":{"key":"09377","name":"Tirschenreuth","type":"Landkreis"},"federalState":{"key":"09","name":"Bayern"}},{"name":"Paulusbrunner Weg","postalCode":"95643","locality":"Tirschenreuth","municipality":{"key":"09377154","name":"Tirschenreuth, St","type":"Stadt"},"district":{"key":"09377","name":"Tirschenreuth","type":"Landkreis"},"federalState":{"key":"09","name":"Bayern"}},{"name":"Peterangerstr.","postalCode":"95643","locality":"Tirschenreuth","municipality":{"key":"09377154","name":"Tirschenreuth, St","type":"Stadt"},"district":{"key":"09377","name":"Tirschenreuth","type":"Landkreis"},"federalState":{"key":"09","name":"Bayern"}},{"name":"Pilmersreuth a.d. Str.","postalCode":"95643","locality":"Tirschenreuth","municipality":{"key":"09377154","name":"Tirschenreuth, St","type":"Stadt"},"district":{"key":"09377","name":"Tirschenreuth","type":"Landkreis"},"federalState":{"key":"09","name":"Bayern"}},{"name":"Pilmersreuther Str.","postalCode":"95643","locality":"Tirschenreuth","municipality":{"key":"09377154","name":"Tirschenreuth, St","type":"Stadt"},"district":{"key":"09377","name":"Tirschenreuth","type":"Landkreis"},"federalState":{"key":"09","name":"Bayern"}},{"name":"Planer Str.","postalCode":"95643","locality":"Tirschenreuth","municipality":{"key":"09377154","name":"Tirschenreuth, St","type":"Stadt"},"district":{"key":"09377","name":"Tirschenreuth","type":"Landkreis"},"federalState":{"key":"09","name":"Bayern"}},{"name":"Planetenweg","postalCode":"95643","locality":"Tirschenreuth","municipality":{"key":"09377154","name":"Tirschenreuth, St","type":"Stadt"},"district":{"key":"09377","name":"Tirschenreuth","type":"Landkreis"},"federalState":{"key":"09","name":"Bayern"}},{"name":"Platz am See","postalCode":"95643","locality":"Tirschenreuth","municipality":{"key":"09377154","name":"Tirschenreuth, St","type":"Stadt"},"district":{"key":"09377","name":"Tirschenreuth","type":"Landkreis"},"federalState":{"key":"09","name":"Bayern"}},{"name":"Platz la Ville du Bois","postalCode":"95643","locality":"Tirschenreuth","municipality":{"key":"09377154","name":"Tirschenreuth, St","type":"Stadt"},"district":{"key":"09377","name":"Tirschenreuth","type":"Landkreis"},"federalState":{"key":"09","name":"Bayern"}},{"name":"Pleierstr.","postalCode":"95643","locality":"Tirschenreuth","municipality":{"key":"09377154","name":"Tirschenreuth, St","type":"Stadt"},"district":{"key":"09377","name":"Tirschenreuth","type":"Landkreis"},"federalState":{"key":"09","name":"Bayern"}},{"name":"Pointweg","postalCode":"95643","locality":"Tirschenreuth","municipality":{"key":"09377154","name":"Tirschenreuth, St","type":"Stadt"},"district":{"key":"09377","name":"Tirschenreuth","type":"Landkreis"},"federalState":{"key":"09","name":"Bayern"}},{"name":"Porzellinerstr.","postalCode":"95643","locality":"Tirschenreuth","municipality":{"key":"09377154","name":"Tirschenreuth, St","type":"Stadt"},"district":{"key":"09377","name":"Tirschenreuth","type":"Landkreis"},"federalState":{"key":"09","name":"Bayern"}},{"name":"Quergraben","postalCode":"95698","locality":"Bad Neualbenreuth","municipality":{"key":"09377142","name":"Bad Neualbenreuth, M","type":"Markt"},"district":{"key":"09377","name":"Tirschenreuth","type":"Landkreis"},"federalState":{"key":"09","name":"Bayern"}},{"name":"Raiffeisenstr.","postalCode":"95698","locality":"Bad Neualbenreuth","municipality":{"key":"09377142","name":"Bad Neualbenreuth, M","type":"Markt"},"district":{"key":"09377","name":"Tirschenreuth","type":"Landkreis"},"federalState":{"key":"09","name":"Bayern"}},{"name":"Ringer Graben","postalCode":"95698","locality":"Bad Neualbenreuth","municipality":{"key":"09377142","name":"Bad Neualbenreuth, M","type":"Markt"},"district":{"key":"09377","name":"Tirschenreuth","type":"Landkreis"},"federalState":{"key":"09","name":"Bayern"}},{"name":"Rothmühle","postalCode":"95698","locality":"Bad Neualbenreuth","municipality":{"key":"09377142","name":"Bad Neualbenreuth, M","type":"Markt"},"district":{"key":"09377","name":"Tirschenreuth","type":"Landkreis"},"federalState":{"key":"09","name":"Bayern"}},{"name":"Schachten","postalCode":"95698","locality":"Bad Neualbenreuth","municipality":{"key":"09377142","name":"Bad Neualbenreuth, M","type":"Markt"},"district":{"key":"09377","name":"Tirschenreuth","type":"Landkreis"},"federalState":{"key":"09","name":"Bayern"}},{"name":"Schulstr.","postalCode":"95698","locality":"Bad Neualbenreuth","municipality":{"key":"09377142","name":"Bad Neualbenreuth, M","type":"Markt"},"district":{"key":"09377","name":"Tirschenreuth","type":"Landkreis"},"federalState":{"key":"09","name":"Bayern"}},{"name":"Stephanskreuzstr.","postalCode":"95698","locality":"Bad Neualbenreuth","municipality":{"key":"09377142","name":"Bad Neualbenreuth, M","type":"Markt"},"district":{"key":"09377","name":"Tirschenreuth","type":"Landkreis"},"federalState":{"key":"09","name":"Bayern"}},{"name":"Tillenstr.","postalCode":"95698","locality":"Bad Neualbenreuth","municipality":{"key":"09377142","name":"Bad Neualbenreuth, M","type":"Markt"},"district":{"key":"09377","name":"Tirschenreuth","type":"Landkreis"},"federalState":{"key":"09","name":"Bayern"}},{"name":"Tirschenreuther Str.","postalCode":"95698","locality":"Bad Neualbenreuth","municipality":{"key":"09377142","name":"Bad Neualbenreuth, M","type":"Markt"},"district":{"key":"09377","name":"Tirschenreuth","type":"Landkreis"},"federalState":{"key":"09","name":"Bayern"}},{"name":"Turmstr.","postalCode":"95698","locality":"Bad Neualbenreuth","municipality":{"key":"09377142","name":"Bad Neualbenreuth, M","type":"Markt"},"district":{"key":"09377","name":"Tirschenreuth","type":"Landkreis"},"federalState":{"key":"09","name":"Bayern"}},{"name":"Unnaplatz","postalCode":"95643","locality":"Tirschenreuth","municipality":{"key":"09377154","name":"Tirschenreuth, St","type":"Stadt"},"district":{"key":"09377","name":"Tirschenreuth","type":"Landkreis"},"federalState":{"key":"09","name":"Bayern"}},{"name":"Urbanstr.","postalCode":"95643","locality":"Tirschenreuth","municipality":{"key":"09377154","name":"Tirschenreuth, St","type":"Stadt"},"district":{"key":"09377","name":"Tirschenreuth","type":"Landkreis"},"federalState":{"key":"09","name":"Bayern"}},{"name":"Vizinalbahnradweg","postalCode":"95643","locality":"Tirschenreuth","municipality":{"key":"09377154","name":"Tirschenreuth, St","type":"Stadt"},"district":{"key":"09377","name":"Tirschenreuth","type":"Landkreis"},"federalState":{"key":"09","name":"Bayern"}},{"name":"Vorholzplatz","postalCode":"95643","locality":"Tirschenreuth","municipality":{"key":"09377154","name":"Tirschenreuth, St","type":"Stadt"},"district":{"key":"09377","name":"Tirschenreuth","type":"Landkreis"},"federalState":{"key":"09","name":"Bayern"}},{"name":"Vorholzweg","postalCode":"95643","locality":"Tirschenreuth","municipality":{"key":"09377154","name":"Tirschenreuth, St","type":"Stadt"},"district":{"key":"09377","name":"Tirschenreuth","type":"Landkreis"},"federalState":{"key":"09","name":"Bayern"}},{"name":"Waldsassener Str.","postalCode":"95698","locality":"Bad Neualbenreuth","municipality":{"key":"09377142","name":"Bad Neualbenreuth, M","type":"Markt"},"district":{"key":"09377","name":"Tirschenreuth","type":"Landkreis"},"federalState":{"key":"09","name":"Bayern"}},{"name":"Weidaweg","postalCode":"95698","locality":"Bad Neualbenreuth","municipality":{"key":"09377142","name":"Bad Neualbenreuth, M","type":"Markt"},"district":{"key":"09377","name":"Tirschenreuth","type":"Landkreis"},"federalState":{"key":"09","name":"Bayern"}},{"name":"Zollstr.","postalCode":"95698","locality":"Bad Neualbenreuth","municipality":{"key":"09377142","name":"Bad Neualbenreuth, M","type":"Markt"},"district":{"key":"09377","name":"Tirschenreuth","type":"Landkreis"},"federalState":{"key":"09","name":"Bayern"}},{"name":"Zum Ringergraben","postalCode":"95698","locality":"Bad Neualbenreuth","municipality":{"key":"09377142","name":"Bad Neualbenreuth, M","type":"Markt"},"district":{"key":"09377","name":"Tirschenreuth","type":"Landkreis"},"federalState":{"key":"09","name":"Bayern"}},{"name":"Äußere Regensburger Str.","postalCode":"95643","locality":"Tirschenreuth","municipality":{"key":"09377154","name":"Tirschenreuth, St","type":"Stadt"},"district":{"key":"09377","name":"Tirschenreuth","type":"Landkreis"},"federalState":{"key":"09","name":"Bayern"}},]