[{"name":"Adalgerstr.","postalCode":"55585","locality":"Norheim","municipality":{"key":"07133071","name":"Norheim","type":"Kreisangehörige_Gemeinde"},"district":{"key":"07133","name":"Bad Kreuznach","type":"Landkreis"},"federalState":{"key":"07","name":"Rheinland-Pfalz"}},{"name":"Am Götzenfels","postalCode":"55585","locality":"Norheim","municipality":{"key":"07133071","name":"Norheim","type":"Kreisangehörige_Gemeinde"},"district":{"key":"07133","name":"Bad Kreuznach","type":"Landkreis"},"federalState":{"key":"07","name":"Rheinland-Pfalz"}},{"name":"Am Kreuz","postalCode":"55585","locality":"Norheim","municipality":{"key":"07133071","name":"Norheim","type":"Kreisangehörige_Gemeinde"},"district":{"key":"07133","name":"Bad Kreuznach","type":"Landkreis"},"federalState":{"key":"07","name":"Rheinland-Pfalz"}},{"name":"Am Oberbrunnen","postalCode":"55585","locality":"Norheim","municipality":{"key":"07133071","name":"Norheim","type":"Kreisangehörige_Gemeinde"},"district":{"key":"07133","name":"Bad Kreuznach","type":"Landkreis"},"federalState":{"key":"07","name":"Rheinland-Pfalz"}},{"name":"Am Rosenpfad","postalCode":"55585","locality":"Norheim","municipality":{"key":"07133071","name":"Norheim","type":"Kreisangehörige_Gemeinde"},"district":{"key":"07133","name":"Bad Kreuznach","type":"Landkreis"},"federalState":{"key":"07","name":"Rheinland-Pfalz"}},{"name":"Am Roten Kreuz","postalCode":"55585","locality":"Norheim","municipality":{"key":"07133071","name":"Norheim","type":"Kreisangehörige_Gemeinde"},"district":{"key":"07133","name":"Bad Kreuznach","type":"Landkreis"},"federalState":{"key":"07","name":"Rheinland-Pfalz"}},{"name":"Amselweg","postalCode":"55585","locality":"Norheim","municipality":{"key":"07133071","name":"Norheim","type":"Kreisangehörige_Gemeinde"},"district":{"key":"07133","name":"Bad Kreuznach","type":"Landkreis"},"federalState":{"key":"07","name":"Rheinland-Pfalz"}},{"name":"An der Kauleck","postalCode":"55585","locality":"Norheim","municipality":{"key":"07133071","name":"Norheim","type":"Kreisangehörige_Gemeinde"},"district":{"key":"07133","name":"Bad Kreuznach","type":"Landkreis"},"federalState":{"key":"07","name":"Rheinland-Pfalz"}},{"name":"An der Weidenmühle","postalCode":"55585","locality":"Norheim","municipality":{"key":"07133071","name":"Norheim","type":"Kreisangehörige_Gemeinde"},"district":{"key":"07133","name":"Bad Kreuznach","type":"Landkreis"},"federalState":{"key":"07","name":"Rheinland-Pfalz"}},{"name":"Attigweg","postalCode":"55585","locality":"Norheim","municipality":{"key":"07133071","name":"Norheim","type":"Kreisangehörige_Gemeinde"},"district":{"key":"07133","name":"Bad Kreuznach","type":"Landkreis"},"federalState":{"key":"07","name":"Rheinland-Pfalz"}},{"name":"Auf dem Mühlental","postalCode":"55585","locality":"Norheim","municipality":{"key":"07133071","name":"Norheim","type":"Kreisangehörige_Gemeinde"},"district":{"key":"07133","name":"Bad Kreuznach","type":"Landkreis"},"federalState":{"key":"07","name":"Rheinland-Pfalz"}},{"name":"Backesgasse","postalCode":"55585","locality":"Norheim","municipality":{"key":"07133071","name":"Norheim","type":"Kreisangehörige_Gemeinde"},"district":{"key":"07133","name":"Bad Kreuznach","type":"Landkreis"},"federalState":{"key":"07","name":"Rheinland-Pfalz"}},{"name":"Badeweg","postalCode":"55585","locality":"Norheim","municipality":{"key":"07133071","name":"Norheim","type":"Kreisangehörige_Gemeinde"},"district":{"key":"07133","name":"Bad Kreuznach","type":"Landkreis"},"federalState":{"key":"07","name":"Rheinland-Pfalz"}},{"name":"Bahnstr.","postalCode":"55585","locality":"Norheim","municipality":{"key":"07133071","name":"Norheim","type":"Kreisangehörige_Gemeinde"},"district":{"key":"07133","name":"Bad Kreuznach","type":"Landkreis"},"federalState":{"key":"07","name":"Rheinland-Pfalz"}},{"name":"Burgenstr.","postalCode":"55585","locality":"Norheim","municipality":{"key":"07133071","name":"Norheim","type":"Kreisangehörige_Gemeinde"},"district":{"key":"07133","name":"Bad Kreuznach","type":"Landkreis"},"federalState":{"key":"07","name":"Rheinland-Pfalz"}},{"name":"Bürgermeister-Kirsch-Anlage","postalCode":"55585","locality":"Norheim","municipality":{"key":"07133071","name":"Norheim","type":"Kreisangehörige_Gemeinde"},"district":{"key":"07133","name":"Bad Kreuznach","type":"Landkreis"},"federalState":{"key":"07","name":"Rheinland-Pfalz"}},{"name":"Carl-Schurz-Str.","postalCode":"55543","locality":"Bad Kreuznach","municipality":{"key":"07133006","name":"Bad Kreuznach, Stadt","type":"Stadt"},"district":{"key":"07133","name":"Bad Kreuznach","type":"Landkreis"},"federalState":{"key":"07","name":"Rheinland-Pfalz"}},{"name":"Carl-Spitzweg-Str.","postalCode":"55543","locality":"Bad Kreuznach","municipality":{"key":"07133006","name":"Bad Kreuznach, Stadt","type":"Stadt"},"district":{"key":"07133","name":"Bad Kreuznach","type":"Landkreis"},"federalState":{"key":"07","name":"Rheinland-Pfalz"}},{"name":"Carl-Zeiss-Str.","postalCode":"55543","locality":"Bad Kreuznach","municipality":{"key":"07133006","name":"Bad Kreuznach, Stadt","type":"Stadt"},"district":{"key":"07133","name":"Bad Kreuznach","type":"Landkreis"},"federalState":{"key":"07","name":"Rheinland-Pfalz"}},{"name":"Carmerstr.","postalCode":"55543","locality":"Bad Kreuznach","municipality":{"key":"07133006","name":"Bad Kreuznach, Stadt","type":"Stadt"},"district":{"key":"07133","name":"Bad Kreuznach","type":"Landkreis"},"federalState":{"key":"07","name":"Rheinland-Pfalz"}},{"name":"Cauerstr.","postalCode":"55543","locality":"Bad Kreuznach","municipality":{"key":"07133006","name":"Bad Kreuznach, Stadt","type":"Stadt"},"district":{"key":"07133","name":"Bad Kreuznach","type":"Landkreis"},"federalState":{"key":"07","name":"Rheinland-Pfalz"}},{"name":"Cecilienhöhe","postalCode":"55543","locality":"Bad Kreuznach","municipality":{"key":"07133006","name":"Bad Kreuznach, Stadt","type":"Stadt"},"district":{"key":"07133","name":"Bad Kreuznach","type":"Landkreis"},"federalState":{"key":"07","name":"Rheinland-Pfalz"}},{"name":"Charles-de-Gaulle-Str.","postalCode":"55543","locality":"Bad Kreuznach","municipality":{"key":"07133006","name":"Bad Kreuznach, Stadt","type":"Stadt"},"district":{"key":"07133","name":"Bad Kreuznach","type":"Landkreis"},"federalState":{"key":"07","name":"Rheinland-Pfalz"}},{"name":"Charles-de-Gaulle-Str.","postalCode":"55545","locality":"Bad Kreuznach","municipality":{"key":"07133006","name":"Bad Kreuznach, Stadt","type":"Stadt"},"district":{"key":"07133","name":"Bad Kreuznach","type":"Landkreis"},"federalState":{"key":"07","name":"Rheinland-Pfalz"}},{"name":"Corneliusstr.","postalCode":"55545","locality":"Bad Kreuznach","municipality":{"key":"07133006","name":"Bad Kreuznach, Stadt","type":"Stadt"},"district":{"key":"07133","name":"Bad Kreuznach","type":"Landkreis"},"federalState":{"key":"07","name":"Rheinland-Pfalz"}},{"name":"Dalbergstr.","postalCode":"55545","locality":"Bad Kreuznach","municipality":{"key":"07133006","name":"Bad Kreuznach, Stadt","type":"Stadt"},"district":{"key":"07133","name":"Bad Kreuznach","type":"Landkreis"},"federalState":{"key":"07","name":"Rheinland-Pfalz"}},{"name":"Danziger Str.","postalCode":"55543","locality":"Bad Kreuznach","municipality":{"key":"07133006","name":"Bad Kreuznach, Stadt","type":"Stadt"},"district":{"key":"07133","name":"Bad Kreuznach","type":"Landkreis"},"federalState":{"key":"07","name":"Rheinland-Pfalz"}},{"name":"Dessauer Str.","postalCode":"55545","locality":"Bad Kreuznach","municipality":{"key":"07133006","name":"Bad Kreuznach, Stadt","type":"Stadt"},"district":{"key":"07133","name":"Bad Kreuznach","type":"Landkreis"},"federalState":{"key":"07","name":"Rheinland-Pfalz"}},{"name":"Dienheimer Berg","postalCode":"55545","locality":"Bad Kreuznach","municipality":{"key":"07133006","name":"Bad Kreuznach, Stadt","type":"Stadt"},"district":{"key":"07133","name":"Bad Kreuznach","type":"Landkreis"},"federalState":{"key":"07","name":"Rheinland-Pfalz"}},{"name":"Dorfbrunnenstr.","postalCode":"55545","locality":"Bad Kreuznach","municipality":{"key":"07133006","name":"Bad Kreuznach, Stadt","type":"Stadt"},"district":{"key":"07133","name":"Bad Kreuznach","type":"Landkreis"},"federalState":{"key":"07","name":"Rheinland-Pfalz"}},{"name":"Dorfplatz","postalCode":"55545","locality":"Bad Kreuznach","municipality":{"key":"07133006","name":"Bad Kreuznach, Stadt","type":"Stadt"},"district":{"key":"07133","name":"Bad Kreuznach","type":"Landkreis"},"federalState":{"key":"07","name":"Rheinland-Pfalz"}},{"name":"Dornfelderweg","postalCode":"55583","locality":"Bad Kreuznach","municipality":{"key":"07133006","name":"Bad Kreuznach, Stadt","type":"Stadt"},"district":{"key":"07133","name":"Bad Kreuznach","type":"Landkreis"},"federalState":{"key":"07","name":"Rheinland-Pfalz"}},{"name":"Dorsheimer Str.","postalCode":"55545","locality":"Bad Kreuznach","municipality":{"key":"07133006","name":"Bad Kreuznach, Stadt","type":"Stadt"},"district":{"key":"07133","name":"Bad Kreuznach","type":"Landkreis"},"federalState":{"key":"07","name":"Rheinland-Pfalz"}},{"name":"Dr.-Alfons-Gamp-Str.","postalCode":"55543","locality":"Bad Kreuznach","municipality":{"key":"07133006","name":"Bad Kreuznach, Stadt","type":"Stadt"},"district":{"key":"07133","name":"Bad Kreuznach","type":"Landkreis"},"federalState":{"key":"07","name":"Rheinland-Pfalz"}},{"name":"Dreiburgenstr.","postalCode":"55583","locality":"Bad Kreuznach","municipality":{"key":"07133006","name":"Bad Kreuznach, Stadt","type":"Stadt"},"district":{"key":"07133","name":"Bad Kreuznach","type":"Landkreis"},"federalState":{"key":"07","name":"Rheinland-Pfalz"}},{"name":"Dr.-Geisenheyner-Str.","postalCode":"55545","locality":"Bad Kreuznach","municipality":{"key":"07133006","name":"Bad Kreuznach, Stadt","type":"Stadt"},"district":{"key":"07133","name":"Bad Kreuznach","type":"Landkreis"},"federalState":{"key":"07","name":"Rheinland-Pfalz"}},{"name":"Dr.-Gerhard-Muhs-Str.","postalCode":"55543","locality":"Bad Kreuznach","municipality":{"key":"07133006","name":"Bad Kreuznach, Stadt","type":"Stadt"},"district":{"key":"07133","name":"Bad Kreuznach","type":"Landkreis"},"federalState":{"key":"07","name":"Rheinland-Pfalz"}},{"name":"Dr.-Herbert-Eimert-Str.","postalCode":"55543","locality":"Bad Kreuznach","municipality":{"key":"07133006","name":"Bad Kreuznach, Stadt","type":"Stadt"},"district":{"key":"07133","name":"Bad Kreuznach","type":"Landkreis"},"federalState":{"key":"07","name":"Rheinland-Pfalz"}},{"name":"Dr.-Karl-Aschoff-Str.","postalCode":"55543","locality":"Bad Kreuznach","municipality":{"key":"07133006","name":"Bad Kreuznach, Stadt","type":"Stadt"},"district":{"key":"07133","name":"Bad Kreuznach","type":"Landkreis"},"federalState":{"key":"07","name":"Rheinland-Pfalz"}},{"name":"Dr.-Karl-Hessel-Str.","postalCode":"55543","locality":"Bad Kreuznach","municipality":{"key":"07133006","name":"Bad Kreuznach, Stadt","type":"Stadt"},"district":{"key":"07133","name":"Bad Kreuznach","type":"Landkreis"},"federalState":{"key":"07","name":"Rheinland-Pfalz"}},{"name":"Dr.-Konrad-Adenauer-Str.","postalCode":"55543","locality":"Bad Kreuznach","municipality":{"key":"07133006","name":"Bad Kreuznach, Stadt","type":"Stadt"},"district":{"key":"07133","name":"Bad Kreuznach","type":"Landkreis"},"federalState":{"key":"07","name":"Rheinland-Pfalz"}},{"name":"Drosselweg","postalCode":"55543","locality":"Bad Kreuznach","municipality":{"key":"07133006","name":"Bad Kreuznach, Stadt","type":"Stadt"},"district":{"key":"07133","name":"Bad Kreuznach","type":"Landkreis"},"federalState":{"key":"07","name":"Rheinland-Pfalz"}},{"name":"Drosselweg","postalCode":"55583","locality":"Bad Kreuznach","municipality":{"key":"07133006","name":"Bad Kreuznach, Stadt","type":"Stadt"},"district":{"key":"07133","name":"Bad Kreuznach","type":"Landkreis"},"federalState":{"key":"07","name":"Rheinland-Pfalz"}},{"name":"Drususstr.","postalCode":"55545","locality":"Bad Kreuznach","municipality":{"key":"07133006","name":"Bad Kreuznach, Stadt","type":"Stadt"},"district":{"key":"07133","name":"Bad Kreuznach","type":"Landkreis"},"federalState":{"key":"07","name":"Rheinland-Pfalz"}},{"name":"Dr.-Velten-Str.","postalCode":"55543","locality":"Bad Kreuznach","municipality":{"key":"07133006","name":"Bad Kreuznach, Stadt","type":"Stadt"},"district":{"key":"07133","name":"Bad Kreuznach","type":"Landkreis"},"federalState":{"key":"07","name":"Rheinland-Pfalz"}},{"name":"Dr.-Werner-Forßmann-Str.","postalCode":"55543","locality":"Bad Kreuznach","municipality":{"key":"07133006","name":"Bad Kreuznach, Stadt","type":"Stadt"},"district":{"key":"07133","name":"Bad Kreuznach","type":"Landkreis"},"federalState":{"key":"07","name":"Rheinland-Pfalz"}},{"name":"Dr.-Wilhelm-Adt-Str.","postalCode":"55543","locality":"Bad Kreuznach","municipality":{"key":"07133006","name":"Bad Kreuznach, Stadt","type":"Stadt"},"district":{"key":"07133","name":"Bad Kreuznach","type":"Landkreis"},"federalState":{"key":"07","name":"Rheinland-Pfalz"}},{"name":"Dürerstr.","postalCode":"55543","locality":"Bad Kreuznach","municipality":{"key":"07133006","name":"Bad Kreuznach, Stadt","type":"Stadt"},"district":{"key":"07133","name":"Bad Kreuznach","type":"Landkreis"},"federalState":{"key":"07","name":"Rheinland-Pfalz"}},{"name":"Eberhard-Anheuser-Str.","postalCode":"55543","locality":"Bad Kreuznach","municipality":{"key":"07133006","name":"Bad Kreuznach, Stadt","type":"Stadt"},"district":{"key":"07133","name":"Bad Kreuznach","type":"Landkreis"},"federalState":{"key":"07","name":"Rheinland-Pfalz"}},{"name":"Edith-Piaf-Str.","postalCode":"55543","locality":"Bad Kreuznach","municipality":{"key":"07133006","name":"Bad Kreuznach, Stadt","type":"Stadt"},"district":{"key":"07133","name":"Bad Kreuznach","type":"Landkreis"},"federalState":{"key":"07","name":"Rheinland-Pfalz"}},{"name":"Ehrenpreisweg","postalCode":"55543","locality":"Bad Kreuznach","municipality":{"key":"07133006","name":"Bad Kreuznach, Stadt","type":"Stadt"},"district":{"key":"07133","name":"Bad Kreuznach","type":"Landkreis"},"federalState":{"key":"07","name":"Rheinland-Pfalz"}},{"name":"Eichendorffstr.","postalCode":"55545","locality":"Bad Kreuznach","municipality":{"key":"07133006","name":"Bad Kreuznach, Stadt","type":"Stadt"},"district":{"key":"07133","name":"Bad Kreuznach","type":"Landkreis"},"federalState":{"key":"07","name":"Rheinland-Pfalz"}},{"name":"Eichstr.","postalCode":"55543","locality":"Bad Kreuznach","municipality":{"key":"07133006","name":"Bad Kreuznach, Stadt","type":"Stadt"},"district":{"key":"07133","name":"Bad Kreuznach","type":"Landkreis"},"federalState":{"key":"07","name":"Rheinland-Pfalz"}},{"name":"Eidendorffstr.","postalCode":"55545","locality":"Bad Kreuznach","municipality":{"key":"07133006","name":"Bad Kreuznach, Stadt","type":"Stadt"},"district":{"key":"07133","name":"Bad Kreuznach","type":"Landkreis"},"federalState":{"key":"07","name":"Rheinland-Pfalz"}},{"name":"Eiermarkt","postalCode":"55545","locality":"Bad Kreuznach","municipality":{"key":"07133006","name":"Bad Kreuznach, Stadt","type":"Stadt"},"district":{"key":"07133","name":"Bad Kreuznach","type":"Landkreis"},"federalState":{"key":"07","name":"Rheinland-Pfalz"}},{"name":"Elbinger Str.","postalCode":"55543","locality":"Bad Kreuznach","municipality":{"key":"07133006","name":"Bad Kreuznach, Stadt","type":"Stadt"},"district":{"key":"07133","name":"Bad Kreuznach","type":"Landkreis"},"federalState":{"key":"07","name":"Rheinland-Pfalz"}},{"name":"Elfelderstr.","postalCode":"55545","locality":"Bad Kreuznach","municipality":{"key":"07133006","name":"Bad Kreuznach, Stadt","type":"Stadt"},"district":{"key":"07133","name":"Bad Kreuznach","type":"Landkreis"},"federalState":{"key":"07","name":"Rheinland-Pfalz"}},{"name":"Elisabethenstr.","postalCode":"55545","locality":"Bad Kreuznach","municipality":{"key":"07133006","name":"Bad Kreuznach, Stadt","type":"Stadt"},"district":{"key":"07133","name":"Bad Kreuznach","type":"Landkreis"},"federalState":{"key":"07","name":"Rheinland-Pfalz"}},{"name":"Ellen-Thress-Str.","postalCode":"55543","locality":"Bad Kreuznach","municipality":{"key":"07133006","name":"Bad Kreuznach, Stadt","type":"Stadt"},"district":{"key":"07133","name":"Bad Kreuznach","type":"Landkreis"},"federalState":{"key":"07","name":"Rheinland-Pfalz"}},{"name":"Ellerbachstr.","postalCode":"55545","locality":"Bad Kreuznach","municipality":{"key":"07133006","name":"Bad Kreuznach, Stadt","type":"Stadt"},"district":{"key":"07133","name":"Bad Kreuznach","type":"Landkreis"},"federalState":{"key":"07","name":"Rheinland-Pfalz"}},{"name":"Elsbeth-Krukenberg-Str.","postalCode":"55543","locality":"Bad Kreuznach","municipality":{"key":"07133006","name":"Bad Kreuznach, Stadt","type":"Stadt"},"district":{"key":"07133","name":"Bad Kreuznach","type":"Landkreis"},"federalState":{"key":"07","name":"Rheinland-Pfalz"}},{"name":"Emil-Jacob-Weg","postalCode":"55543","locality":"Bad Kreuznach","municipality":{"key":"07133006","name":"Bad Kreuznach, Stadt","type":"Stadt"},"district":{"key":"07133","name":"Bad Kreuznach","type":"Landkreis"},"federalState":{"key":"07","name":"Rheinland-Pfalz"}},{"name":"Emil-Nolde-Str.","postalCode":"55543","locality":"Bad Kreuznach","municipality":{"key":"07133006","name":"Bad Kreuznach, Stadt","type":"Stadt"},"district":{"key":"07133","name":"Bad Kreuznach","type":"Landkreis"},"federalState":{"key":"07","name":"Rheinland-Pfalz"}},{"name":"Engelmannstr.","postalCode":"55543","locality":"Bad Kreuznach","municipality":{"key":"07133006","name":"Bad Kreuznach, Stadt","type":"Stadt"},"district":{"key":"07133","name":"Bad Kreuznach","type":"Landkreis"},"federalState":{"key":"07","name":"Rheinland-Pfalz"}},{"name":"Entenpfuhler Weg","postalCode":"55543","locality":"Bad Kreuznach","municipality":{"key":"07133006","name":"Bad Kreuznach, Stadt","type":"Stadt"},"district":{"key":"07133","name":"Bad Kreuznach","type":"Landkreis"},"federalState":{"key":"07","name":"Rheinland-Pfalz"}},{"name":"Entenpfuhler Weinbergsweg","postalCode":"55543","locality":"Bad Kreuznach","municipality":{"key":"07133006","name":"Bad Kreuznach, Stadt","type":"Stadt"},"district":{"key":"07133","name":"Bad Kreuznach","type":"Landkreis"},"federalState":{"key":"07","name":"Rheinland-Pfalz"}},{"name":"Erlenweg","postalCode":"55543","locality":"Bad Kreuznach","municipality":{"key":"07133006","name":"Bad Kreuznach, Stadt","type":"Stadt"},"district":{"key":"07133","name":"Bad Kreuznach","type":"Landkreis"},"federalState":{"key":"07","name":"Rheinland-Pfalz"}},{"name":"Erlenweg","postalCode":"55583","locality":"Bad Kreuznach","municipality":{"key":"07133006","name":"Bad Kreuznach, Stadt","type":"Stadt"},"district":{"key":"07133","name":"Bad Kreuznach","type":"Landkreis"},"federalState":{"key":"07","name":"Rheinland-Pfalz"}},{"name":"Ernst-Barlach-Str.","postalCode":"55543","locality":"Bad Kreuznach","municipality":{"key":"07133006","name":"Bad Kreuznach, Stadt","type":"Stadt"},"district":{"key":"07133","name":"Bad Kreuznach","type":"Landkreis"},"federalState":{"key":"07","name":"Rheinland-Pfalz"}},{"name":"Ernst-Ludwig-Str.","postalCode":"55545","locality":"Bad Kreuznach","municipality":{"key":"07133006","name":"Bad Kreuznach, Stadt","type":"Stadt"},"district":{"key":"07133","name":"Bad Kreuznach","type":"Landkreis"},"federalState":{"key":"07","name":"Rheinland-Pfalz"}},{"name":"Erster Galgenberger Weg","postalCode":"55543","locality":"Bad Kreuznach","municipality":{"key":"07133006","name":"Bad Kreuznach, Stadt","type":"Stadt"},"district":{"key":"07133","name":"Bad Kreuznach","type":"Landkreis"},"federalState":{"key":"07","name":"Rheinland-Pfalz"}},{"name":"Europaplatz","postalCode":"55543","locality":"Bad Kreuznach","municipality":{"key":"07133006","name":"Bad Kreuznach, Stadt","type":"Stadt"},"district":{"key":"07133","name":"Bad Kreuznach","type":"Landkreis"},"federalState":{"key":"07","name":"Rheinland-Pfalz"}},{"name":"Felderstr.","postalCode":"55585","locality":"Norheim","municipality":{"key":"07133071","name":"Norheim","type":"Kreisangehörige_Gemeinde"},"district":{"key":"07133","name":"Bad Kreuznach","type":"Landkreis"},"federalState":{"key":"07","name":"Rheinland-Pfalz"}},{"name":"Felsenblick","postalCode":"55585","locality":"Norheim","municipality":{"key":"07133071","name":"Norheim","type":"Kreisangehörige_Gemeinde"},"district":{"key":"07133","name":"Bad Kreuznach","type":"Landkreis"},"federalState":{"key":"07","name":"Rheinland-Pfalz"}},{"name":"Friedhofsweg","postalCode":"55585","locality":"Norheim","municipality":{"key":"07133071","name":"Norheim","type":"Kreisangehörige_Gemeinde"},"district":{"key":"07133","name":"Bad Kreuznach","type":"Landkreis"},"federalState":{"key":"07","name":"Rheinland-Pfalz"}},{"name":"Gabelsberger Str.","postalCode":"55543","locality":"Bad Kreuznach","municipality":{"key":"07133006","name":"Bad Kreuznach, Stadt","type":"Stadt"},"district":{"key":"07133","name":"Bad Kreuznach","type":"Landkreis"},"federalState":{"key":"07","name":"Rheinland-Pfalz"}},{"name":"Gartenbrunnenstr.","postalCode":"55543","locality":"Bad Kreuznach","municipality":{"key":"07133006","name":"Bad Kreuznach, Stadt","type":"Stadt"},"district":{"key":"07133","name":"Bad Kreuznach","type":"Landkreis"},"federalState":{"key":"07","name":"Rheinland-Pfalz"}},{"name":"Gartenbrunnenweg","postalCode":"55543","locality":"Bad Kreuznach","municipality":{"key":"07133006","name":"Bad Kreuznach, Stadt","type":"Stadt"},"district":{"key":"07133","name":"Bad Kreuznach","type":"Landkreis"},"federalState":{"key":"07","name":"Rheinland-Pfalz"}},{"name":"Gartenstr.","postalCode":"55583","locality":"Bad Kreuznach","municipality":{"key":"07133006","name":"Bad Kreuznach, Stadt","type":"Stadt"},"district":{"key":"07133","name":"Bad Kreuznach","type":"Landkreis"},"federalState":{"key":"07","name":"Rheinland-Pfalz"}},{"name":"Gartenweg","postalCode":"55583","locality":"Bad Kreuznach","municipality":{"key":"07133006","name":"Bad Kreuznach, Stadt","type":"Stadt"},"district":{"key":"07133","name":"Bad Kreuznach","type":"Landkreis"},"federalState":{"key":"07","name":"Rheinland-Pfalz"}},{"name":"Gebrüder-Baruch-Str.","postalCode":"55543","locality":"Bad Kreuznach","municipality":{"key":"07133006","name":"Bad Kreuznach, Stadt","type":"Stadt"},"district":{"key":"07133","name":"Bad Kreuznach","type":"Landkreis"},"federalState":{"key":"07","name":"Rheinland-Pfalz"}},{"name":"Geibstr.","postalCode":"55545","locality":"Bad Kreuznach","municipality":{"key":"07133006","name":"Bad Kreuznach, Stadt","type":"Stadt"},"district":{"key":"07133","name":"Bad Kreuznach","type":"Landkreis"},"federalState":{"key":"07","name":"Rheinland-Pfalz"}},{"name":"Geißenbrücke","postalCode":"55543","locality":"Bad Kreuznach","municipality":{"key":"07133006","name":"Bad Kreuznach, Stadt","type":"Stadt"},"district":{"key":"07133","name":"Bad Kreuznach","type":"Landkreis"},"federalState":{"key":"07","name":"Rheinland-Pfalz"}},{"name":"Gelbsternweg","postalCode":"55543","locality":"Bad Kreuznach","municipality":{"key":"07133006","name":"Bad Kreuznach, Stadt","type":"Stadt"},"district":{"key":"07133","name":"Bad Kreuznach","type":"Landkreis"},"federalState":{"key":"07","name":"Rheinland-Pfalz"}},{"name":"Genheimer Str.","postalCode":"55545","locality":"Bad Kreuznach","municipality":{"key":"07133006","name":"Bad Kreuznach, Stadt","type":"Stadt"},"district":{"key":"07133","name":"Bad Kreuznach","type":"Landkreis"},"federalState":{"key":"07","name":"Rheinland-Pfalz"}},{"name":"Gensinger Str.","postalCode":"55543","locality":"Bad Kreuznach","municipality":{"key":"07133006","name":"Bad Kreuznach, Stadt","type":"Stadt"},"district":{"key":"07133","name":"Bad Kreuznach","type":"Landkreis"},"federalState":{"key":"07","name":"Rheinland-Pfalz"}},{"name":"George-Gershwin-Str.","postalCode":"55543","locality":"Bad Kreuznach","municipality":{"key":"07133006","name":"Bad Kreuznach, Stadt","type":"Stadt"},"district":{"key":"07133","name":"Bad Kreuznach","type":"Landkreis"},"federalState":{"key":"07","name":"Rheinland-Pfalz"}},{"name":"George-Marshall-Str.","postalCode":"55543","locality":"Bad Kreuznach","municipality":{"key":"07133006","name":"Bad Kreuznach, Stadt","type":"Stadt"},"district":{"key":"07133","name":"Bad Kreuznach","type":"Landkreis"},"federalState":{"key":"07","name":"Rheinland-Pfalz"}},{"name":"Gerbergasse","postalCode":"55545","locality":"Bad Kreuznach","municipality":{"key":"07133006","name":"Bad Kreuznach, Stadt","type":"Stadt"},"district":{"key":"07133","name":"Bad Kreuznach","type":"Landkreis"},"federalState":{"key":"07","name":"Rheinland-Pfalz"}},{"name":"Glashütter Weg","postalCode":"55543","locality":"Bad Kreuznach","municipality":{"key":"07133006","name":"Bad Kreuznach, Stadt","type":"Stadt"},"district":{"key":"07133","name":"Bad Kreuznach","type":"Landkreis"},"federalState":{"key":"07","name":"Rheinland-Pfalz"}},{"name":"Gleiwitzer Str.","postalCode":"55543","locality":"Bad Kreuznach","municipality":{"key":"07133006","name":"Bad Kreuznach, Stadt","type":"Stadt"},"district":{"key":"07133","name":"Bad Kreuznach","type":"Landkreis"},"federalState":{"key":"07","name":"Rheinland-Pfalz"}},{"name":"Glockengasse","postalCode":"55545","locality":"Bad Kreuznach","municipality":{"key":"07133006","name":"Bad Kreuznach, Stadt","type":"Stadt"},"district":{"key":"07133","name":"Bad Kreuznach","type":"Landkreis"},"federalState":{"key":"07","name":"Rheinland-Pfalz"}},{"name":"Gluckstr.","postalCode":"55543","locality":"Bad Kreuznach","municipality":{"key":"07133006","name":"Bad Kreuznach, Stadt","type":"Stadt"},"district":{"key":"07133","name":"Bad Kreuznach","type":"Landkreis"},"federalState":{"key":"07","name":"Rheinland-Pfalz"}},{"name":"Göbenstr.","postalCode":"55543","locality":"Bad Kreuznach","municipality":{"key":"07133006","name":"Bad Kreuznach, Stadt","type":"Stadt"},"district":{"key":"07133","name":"Bad Kreuznach","type":"Landkreis"},"federalState":{"key":"07","name":"Rheinland-Pfalz"}},{"name":"Goethestr.","postalCode":"55543","locality":"Bad Kreuznach","municipality":{"key":"07133006","name":"Bad Kreuznach, Stadt","type":"Stadt"},"district":{"key":"07133","name":"Bad Kreuznach","type":"Landkreis"},"federalState":{"key":"07","name":"Rheinland-Pfalz"}},{"name":"Görlitzer Str.","postalCode":"55543","locality":"Bad Kreuznach","municipality":{"key":"07133006","name":"Bad Kreuznach, Stadt","type":"Stadt"},"district":{"key":"07133","name":"Bad Kreuznach","type":"Landkreis"},"federalState":{"key":"07","name":"Rheinland-Pfalz"}},{"name":"Görzstr.","postalCode":"55545","locality":"Bad Kreuznach","municipality":{"key":"07133006","name":"Bad Kreuznach, Stadt","type":"Stadt"},"district":{"key":"07133","name":"Bad Kreuznach","type":"Landkreis"},"federalState":{"key":"07","name":"Rheinland-Pfalz"}},{"name":"Gotenstr.","postalCode":"55545","locality":"Bad Kreuznach","municipality":{"key":"07133006","name":"Bad Kreuznach, Stadt","type":"Stadt"},"district":{"key":"07133","name":"Bad Kreuznach","type":"Landkreis"},"federalState":{"key":"07","name":"Rheinland-Pfalz"}},{"name":"Götzenfelsstr.","postalCode":"55583","locality":"Bad Kreuznach","municipality":{"key":"07133006","name":"Bad Kreuznach, Stadt","type":"Stadt"},"district":{"key":"07133","name":"Bad Kreuznach","type":"Landkreis"},"federalState":{"key":"07","name":"Rheinland-Pfalz"}},{"name":"Graf-Siegfried-Str.","postalCode":"55543","locality":"Bad Kreuznach","municipality":{"key":"07133006","name":"Bad Kreuznach, Stadt","type":"Stadt"},"district":{"key":"07133","name":"Bad Kreuznach","type":"Landkreis"},"federalState":{"key":"07","name":"Rheinland-Pfalz"}},{"name":"Grete-Schickedanz-Str.","postalCode":"55545","locality":"Bad Kreuznach","municipality":{"key":"07133006","name":"Bad Kreuznach, Stadt","type":"Stadt"},"district":{"key":"07133","name":"Bad Kreuznach","type":"Landkreis"},"federalState":{"key":"07","name":"Rheinland-Pfalz"}},{"name":"Grundweg","postalCode":"55545","locality":"Bad Kreuznach","municipality":{"key":"07133006","name":"Bad Kreuznach, Stadt","type":"Stadt"},"district":{"key":"07133","name":"Bad Kreuznach","type":"Landkreis"},"federalState":{"key":"07","name":"Rheinland-Pfalz"}},{"name":"Guldentaler Weg","postalCode":"55545","locality":"Bad Kreuznach","municipality":{"key":"07133006","name":"Bad Kreuznach, Stadt","type":"Stadt"},"district":{"key":"07133","name":"Bad Kreuznach","type":"Landkreis"},"federalState":{"key":"07","name":"Rheinland-Pfalz"}},{"name":"Gustav-Pfarrius-Str.","postalCode":"55543","locality":"Bad Kreuznach","municipality":{"key":"07133006","name":"Bad Kreuznach, Stadt","type":"Stadt"},"district":{"key":"07133","name":"Bad Kreuznach","type":"Landkreis"},"federalState":{"key":"07","name":"Rheinland-Pfalz"}},{"name":"Gutenberger Str.","postalCode":"55545","locality":"Bad Kreuznach","municipality":{"key":"07133006","name":"Bad Kreuznach, Stadt","type":"Stadt"},"district":{"key":"07133","name":"Bad Kreuznach","type":"Landkreis"},"federalState":{"key":"07","name":"Rheinland-Pfalz"}},{"name":"Güterbahnhofstr.","postalCode":"55545","locality":"Bad Kreuznach","municipality":{"key":"07133006","name":"Bad Kreuznach, Stadt","type":"Stadt"},"district":{"key":"07133","name":"Bad Kreuznach","type":"Landkreis"},"federalState":{"key":"07","name":"Rheinland-Pfalz"}},{"name":"Gutlay","postalCode":"55545","locality":"Bad Kreuznach","municipality":{"key":"07133006","name":"Bad Kreuznach, Stadt","type":"Stadt"},"district":{"key":"07133","name":"Bad Kreuznach","type":"Landkreis"},"federalState":{"key":"07","name":"Rheinland-Pfalz"}},{"name":"Gymnasialstr.","postalCode":"55543","locality":"Bad Kreuznach","municipality":{"key":"07133006","name":"Bad Kreuznach, Stadt","type":"Stadt"},"district":{"key":"07133","name":"Bad Kreuznach","type":"Landkreis"},"federalState":{"key":"07","name":"Rheinland-Pfalz"}},{"name":"Hellenweg","postalCode":"55585","locality":"Norheim","municipality":{"key":"07133071","name":"Norheim","type":"Kreisangehörige_Gemeinde"},"district":{"key":"07133","name":"Bad Kreuznach","type":"Landkreis"},"federalState":{"key":"07","name":"Rheinland-Pfalz"}},{"name":"Hüffelsheimer Str.","postalCode":"55585","locality":"Norheim","municipality":{"key":"07133071","name":"Norheim","type":"Kreisangehörige_Gemeinde"},"district":{"key":"07133","name":"Bad Kreuznach","type":"Landkreis"},"federalState":{"key":"07","name":"Rheinland-Pfalz"}},{"name":"Im Effengarten","postalCode":"55585","locality":"Norheim","municipality":{"key":"07133071","name":"Norheim","type":"Kreisangehörige_Gemeinde"},"district":{"key":"07133","name":"Bad Kreuznach","type":"Landkreis"},"federalState":{"key":"07","name":"Rheinland-Pfalz"}},{"name":"Im Leiterich","postalCode":"55585","locality":"Norheim","municipality":{"key":"07133071","name":"Norheim","type":"Kreisangehörige_Gemeinde"},"district":{"key":"07133","name":"Bad Kreuznach","type":"Landkreis"},"federalState":{"key":"07","name":"Rheinland-Pfalz"}},{"name":"Im Reil","postalCode":"55585","locality":"Norheim","municipality":{"key":"07133071","name":"Norheim","type":"Kreisangehörige_Gemeinde"},"district":{"key":"07133","name":"Bad Kreuznach","type":"Landkreis"},"federalState":{"key":"07","name":"Rheinland-Pfalz"}},{"name":"Jakob-Hessel-Str.","postalCode":"55585","locality":"Norheim","municipality":{"key":"07133071","name":"Norheim","type":"Kreisangehörige_Gemeinde"},"district":{"key":"07133","name":"Bad Kreuznach","type":"Landkreis"},"federalState":{"key":"07","name":"Rheinland-Pfalz"}},{"name":"Kirchstr.","postalCode":"55585","locality":"Norheim","municipality":{"key":"07133071","name":"Norheim","type":"Kreisangehörige_Gemeinde"},"district":{"key":"07133","name":"Bad Kreuznach","type":"Landkreis"},"federalState":{"key":"07","name":"Rheinland-Pfalz"}},{"name":"Kreuznacher Str.","postalCode":"55585","locality":"Norheim","municipality":{"key":"07133071","name":"Norheim","type":"Kreisangehörige_Gemeinde"},"district":{"key":"07133","name":"Bad Kreuznach","type":"Landkreis"},"federalState":{"key":"07","name":"Rheinland-Pfalz"}},{"name":"Lembergblick","postalCode":"55585","locality":"Norheim","municipality":{"key":"07133071","name":"Norheim","type":"Kreisangehörige_Gemeinde"},"district":{"key":"07133","name":"Bad Kreuznach","type":"Landkreis"},"federalState":{"key":"07","name":"Rheinland-Pfalz"}},{"name":"Mühlenstr.","postalCode":"55585","locality":"Norheim","municipality":{"key":"07133071","name":"Norheim","type":"Kreisangehörige_Gemeinde"},"district":{"key":"07133","name":"Bad Kreuznach","type":"Landkreis"},"federalState":{"key":"07","name":"Rheinland-Pfalz"}},{"name":"Mühlenweg","postalCode":"55585","locality":"Norheim","municipality":{"key":"07133071","name":"Norheim","type":"Kreisangehörige_Gemeinde"},"district":{"key":"07133","name":"Bad Kreuznach","type":"Landkreis"},"federalState":{"key":"07","name":"Rheinland-Pfalz"}},{"name":"Nahestr.","postalCode":"55585","locality":"Norheim","municipality":{"key":"07133071","name":"Norheim","type":"Kreisangehörige_Gemeinde"},"district":{"key":"07133","name":"Bad Kreuznach","type":"Landkreis"},"federalState":{"key":"07","name":"Rheinland-Pfalz"}},{"name":"Niederhäuser Str.","postalCode":"55585","locality":"Norheim","municipality":{"key":"07133071","name":"Norheim","type":"Kreisangehörige_Gemeinde"},"district":{"key":"07133","name":"Bad Kreuznach","type":"Landkreis"},"federalState":{"key":"07","name":"Rheinland-Pfalz"}},{"name":"Oberbürgermeister-Buß-Str.","postalCode":"55543","locality":"Bad Kreuznach","municipality":{"key":"07133006","name":"Bad Kreuznach, Stadt","type":"Stadt"},"district":{"key":"07133","name":"Bad Kreuznach","type":"Landkreis"},"federalState":{"key":"07","name":"Rheinland-Pfalz"}},{"name":"Obere Flotz","postalCode":"55543","locality":"Bad Kreuznach","municipality":{"key":"07133006","name":"Bad Kreuznach, Stadt","type":"Stadt"},"district":{"key":"07133","name":"Bad Kreuznach","type":"Landkreis"},"federalState":{"key":"07","name":"Rheinland-Pfalz"}},{"name":"Obere Gartenstr.","postalCode":"55545","locality":"Bad Kreuznach","municipality":{"key":"07133006","name":"Bad Kreuznach, Stadt","type":"Stadt"},"district":{"key":"07133","name":"Bad Kreuznach","type":"Landkreis"},"federalState":{"key":"07","name":"Rheinland-Pfalz"}},{"name":"Oberer Monauweg","postalCode":"55543","locality":"Bad Kreuznach","municipality":{"key":"07133006","name":"Bad Kreuznach, Stadt","type":"Stadt"},"district":{"key":"07133","name":"Bad Kreuznach","type":"Landkreis"},"federalState":{"key":"07","name":"Rheinland-Pfalz"}},{"name":"Oberer Mühlweg","postalCode":"55545","locality":"Bad Kreuznach","municipality":{"key":"07133006","name":"Bad Kreuznach, Stadt","type":"Stadt"},"district":{"key":"07133","name":"Bad Kreuznach","type":"Landkreis"},"federalState":{"key":"07","name":"Rheinland-Pfalz"}},{"name":"Oceanus-Str.","postalCode":"55545","locality":"Bad Kreuznach","municipality":{"key":"07133006","name":"Bad Kreuznach, Stadt","type":"Stadt"},"district":{"key":"07133","name":"Bad Kreuznach","type":"Landkreis"},"federalState":{"key":"07","name":"Rheinland-Pfalz"}},{"name":"Oligsberg","postalCode":"55543","locality":"Bad Kreuznach","municipality":{"key":"07133006","name":"Bad Kreuznach, Stadt","type":"Stadt"},"district":{"key":"07133","name":"Bad Kreuznach","type":"Landkreis"},"federalState":{"key":"07","name":"Rheinland-Pfalz"}},{"name":"Oranienpark","postalCode":"55543","locality":"Bad Kreuznach","municipality":{"key":"07133006","name":"Bad Kreuznach, Stadt","type":"Stadt"},"district":{"key":"07133","name":"Bad Kreuznach","type":"Landkreis"},"federalState":{"key":"07","name":"Rheinland-Pfalz"}},{"name":"Oranienstr.","postalCode":"55543","locality":"Bad Kreuznach","municipality":{"key":"07133006","name":"Bad Kreuznach, Stadt","type":"Stadt"},"district":{"key":"07133","name":"Bad Kreuznach","type":"Landkreis"},"federalState":{"key":"07","name":"Rheinland-Pfalz"}},{"name":"Orffstr.","postalCode":"55543","locality":"Bad Kreuznach","municipality":{"key":"07133006","name":"Bad Kreuznach, Stadt","type":"Stadt"},"district":{"key":"07133","name":"Bad Kreuznach","type":"Landkreis"},"federalState":{"key":"07","name":"Rheinland-Pfalz"}},{"name":"Ortegaweg","postalCode":"55543","locality":"Bad Kreuznach","municipality":{"key":"07133006","name":"Bad Kreuznach, Stadt","type":"Stadt"},"district":{"key":"07133","name":"Bad Kreuznach","type":"Landkreis"},"federalState":{"key":"07","name":"Rheinland-Pfalz"}},{"name":"Otto-Hersing-Str.","postalCode":"55545","locality":"Bad Kreuznach","municipality":{"key":"07133006","name":"Bad Kreuznach, Stadt","type":"Stadt"},"district":{"key":"07133","name":"Bad Kreuznach","type":"Landkreis"},"federalState":{"key":"07","name":"Rheinland-Pfalz"}},{"name":"Otto-Meffert-Str.","postalCode":"55543","locality":"Bad Kreuznach","municipality":{"key":"07133006","name":"Bad Kreuznach, Stadt","type":"Stadt"},"district":{"key":"07133","name":"Bad Kreuznach","type":"Landkreis"},"federalState":{"key":"07","name":"Rheinland-Pfalz"}},{"name":"Pfalzblick","postalCode":"55585","locality":"Norheim","municipality":{"key":"07133071","name":"Norheim","type":"Kreisangehörige_Gemeinde"},"district":{"key":"07133","name":"Bad Kreuznach","type":"Landkreis"},"federalState":{"key":"07","name":"Rheinland-Pfalz"}},{"name":"Reiterweg","postalCode":"55585","locality":"Norheim","municipality":{"key":"07133071","name":"Norheim","type":"Kreisangehörige_Gemeinde"},"district":{"key":"07133","name":"Bad Kreuznach","type":"Landkreis"},"federalState":{"key":"07","name":"Rheinland-Pfalz"}},{"name":"Rheingrafenstr.","postalCode":"55585","locality":"Norheim","municipality":{"key":"07133071","name":"Norheim","type":"Kreisangehörige_Gemeinde"},"district":{"key":"07133","name":"Bad Kreuznach","type":"Landkreis"},"federalState":{"key":"07","name":"Rheinland-Pfalz"}},{"name":"Römerfeld","postalCode":"55585","locality":"Norheim","municipality":{"key":"07133071","name":"Norheim","type":"Kreisangehörige_Gemeinde"},"district":{"key":"07133","name":"Bad Kreuznach","type":"Landkreis"},"federalState":{"key":"07","name":"Rheinland-Pfalz"}},{"name":"Rotenfelser Str.","postalCode":"55585","locality":"Norheim","municipality":{"key":"07133071","name":"Norheim","type":"Kreisangehörige_Gemeinde"},"district":{"key":"07133","name":"Bad Kreuznach","type":"Landkreis"},"federalState":{"key":"07","name":"Rheinland-Pfalz"}},{"name":"Schäferhof","postalCode":"55585","locality":"Norheim","municipality":{"key":"07133071","name":"Norheim","type":"Kreisangehörige_Gemeinde"},"district":{"key":"07133","name":"Bad Kreuznach","type":"Landkreis"},"federalState":{"key":"07","name":"Rheinland-Pfalz"}},{"name":"Schulstr.","postalCode":"55585","locality":"Norheim","municipality":{"key":"07133071","name":"Norheim","type":"Kreisangehörige_Gemeinde"},"district":{"key":"07133","name":"Bad Kreuznach","type":"Landkreis"},"federalState":{"key":"07","name":"Rheinland-Pfalz"}},{"name":"Seeboldstr.","postalCode":"55585","locality":"Norheim","municipality":{"key":"07133071","name":"Norheim","type":"Kreisangehörige_Gemeinde"},"district":{"key":"07133","name":"Bad Kreuznach","type":"Landkreis"},"federalState":{"key":"07","name":"Rheinland-Pfalz"}},{"name":"St. Martin-Str.","postalCode":"55585","locality":"Norheim","municipality":{"key":"07133071","name":"Norheim","type":"Kreisangehörige_Gemeinde"},"district":{"key":"07133","name":"Bad Kreuznach","type":"Landkreis"},"federalState":{"key":"07","name":"Rheinland-Pfalz"}},{"name":"Tannayer Str.","postalCode":"55585","locality":"Norheim","municipality":{"key":"07133071","name":"Norheim","type":"Kreisangehörige_Gemeinde"},"district":{"key":"07133","name":"Bad Kreuznach","type":"Landkreis"},"federalState":{"key":"07","name":"Rheinland-Pfalz"}},{"name":"Teichweg","postalCode":"55585","locality":"Norheim","municipality":{"key":"07133071","name":"Norheim","type":"Kreisangehörige_Gemeinde"},"district":{"key":"07133","name":"Bad Kreuznach","type":"Landkreis"},"federalState":{"key":"07","name":"Rheinland-Pfalz"}},{"name":"Uhlandstr.","postalCode":"55543","locality":"Bad Kreuznach","municipality":{"key":"07133006","name":"Bad Kreuznach, Stadt","type":"Stadt"},"district":{"key":"07133","name":"Bad Kreuznach","type":"Landkreis"},"federalState":{"key":"07","name":"Rheinland-Pfalz"}},{"name":"Ulmenweg","postalCode":"55543","locality":"Bad Kreuznach","municipality":{"key":"07133006","name":"Bad Kreuznach, Stadt","type":"Stadt"},"district":{"key":"07133","name":"Bad Kreuznach","type":"Landkreis"},"federalState":{"key":"07","name":"Rheinland-Pfalz"}},{"name":"Ulrich-von-Hutten-Str.","postalCode":"55583","locality":"Bad Kreuznach","municipality":{"key":"07133006","name":"Bad Kreuznach, Stadt","type":"Stadt"},"district":{"key":"07133","name":"Bad Kreuznach","type":"Landkreis"},"federalState":{"key":"07","name":"Rheinland-Pfalz"}},{"name":"Unter den Gärten","postalCode":"55545","locality":"Bad Kreuznach","municipality":{"key":"07133006","name":"Bad Kreuznach, Stadt","type":"Stadt"},"district":{"key":"07133","name":"Bad Kreuznach","type":"Landkreis"},"federalState":{"key":"07","name":"Rheinland-Pfalz"}},{"name":"Unter den Linden","postalCode":"55545","locality":"Bad Kreuznach","municipality":{"key":"07133006","name":"Bad Kreuznach, Stadt","type":"Stadt"},"district":{"key":"07133","name":"Bad Kreuznach","type":"Landkreis"},"federalState":{"key":"07","name":"Rheinland-Pfalz"}},{"name":"Unter der Bastei","postalCode":"55583","locality":"Bad Kreuznach","municipality":{"key":"07133006","name":"Bad Kreuznach, Stadt","type":"Stadt"},"district":{"key":"07133","name":"Bad Kreuznach","type":"Landkreis"},"federalState":{"key":"07","name":"Rheinland-Pfalz"}},{"name":"Van-Recum-Str.","postalCode":"55545","locality":"Bad Kreuznach","municipality":{"key":"07133006","name":"Bad Kreuznach, Stadt","type":"Stadt"},"district":{"key":"07133","name":"Bad Kreuznach","type":"Landkreis"},"federalState":{"key":"07","name":"Rheinland-Pfalz"}},{"name":"Victorinusstr.","postalCode":"55545","locality":"Bad Kreuznach","municipality":{"key":"07133006","name":"Bad Kreuznach, Stadt","type":"Stadt"},"district":{"key":"07133","name":"Bad Kreuznach","type":"Landkreis"},"federalState":{"key":"07","name":"Rheinland-Pfalz"}},{"name":"Viktoriastr.","postalCode":"55543","locality":"Bad Kreuznach","municipality":{"key":"07133006","name":"Bad Kreuznach, Stadt","type":"Stadt"},"district":{"key":"07133","name":"Bad Kreuznach","type":"Landkreis"},"federalState":{"key":"07","name":"Rheinland-Pfalz"}},{"name":"Vordere Grabenstr.","postalCode":"55545","locality":"Bad Kreuznach","municipality":{"key":"07133006","name":"Bad Kreuznach, Stadt","type":"Stadt"},"district":{"key":"07133","name":"Bad Kreuznach","type":"Landkreis"},"federalState":{"key":"07","name":"Rheinland-Pfalz"}},{"name":"Waldalgesheimer Str.","postalCode":"55545","locality":"Bad Kreuznach","municipality":{"key":"07133006","name":"Bad Kreuznach, Stadt","type":"Stadt"},"district":{"key":"07133","name":"Bad Kreuznach","type":"Landkreis"},"federalState":{"key":"07","name":"Rheinland-Pfalz"}},{"name":"Waldemarstr.","postalCode":"55543","locality":"Bad Kreuznach","municipality":{"key":"07133006","name":"Bad Kreuznach, Stadt","type":"Stadt"},"district":{"key":"07133","name":"Bad Kreuznach","type":"Landkreis"},"federalState":{"key":"07","name":"Rheinland-Pfalz"}},{"name":"Waldhilbersheimer Str.","postalCode":"55545","locality":"Bad Kreuznach","municipality":{"key":"07133006","name":"Bad Kreuznach, Stadt","type":"Stadt"},"district":{"key":"07133","name":"Bad Kreuznach","type":"Landkreis"},"federalState":{"key":"07","name":"Rheinland-Pfalz"}},{"name":"Wasserstr.","postalCode":"55545","locality":"Bad Kreuznach","municipality":{"key":"07133006","name":"Bad Kreuznach, Stadt","type":"Stadt"},"district":{"key":"07133","name":"Bad Kreuznach","type":"Landkreis"},"federalState":{"key":"07","name":"Rheinland-Pfalz"}},{"name":"Wassersümpfchen","postalCode":"55543","locality":"Bad Kreuznach","municipality":{"key":"07133006","name":"Bad Kreuznach, Stadt","type":"Stadt"},"district":{"key":"07133","name":"Bad Kreuznach","type":"Landkreis"},"federalState":{"key":"07","name":"Rheinland-Pfalz"}},{"name":"Weinbergstr.","postalCode":"55545","locality":"Bad Kreuznach","municipality":{"key":"07133006","name":"Bad Kreuznach, Stadt","type":"Stadt"},"district":{"key":"07133","name":"Bad Kreuznach","type":"Landkreis"},"federalState":{"key":"07","name":"Rheinland-Pfalz"}},{"name":"Weinbergstr.","postalCode":"55583","locality":"Bad Kreuznach","municipality":{"key":"07133006","name":"Bad Kreuznach, Stadt","type":"Stadt"},"district":{"key":"07133","name":"Bad Kreuznach","type":"Landkreis"},"federalState":{"key":"07","name":"Rheinland-Pfalz"}},{"name":"Weinkauffstr.","postalCode":"55543","locality":"Bad Kreuznach","municipality":{"key":"07133006","name":"Bad Kreuznach, Stadt","type":"Stadt"},"district":{"key":"07133","name":"Bad Kreuznach","type":"Landkreis"},"federalState":{"key":"07","name":"Rheinland-Pfalz"}},{"name":"Weinsheimer Str.","postalCode":"55545","locality":"Bad Kreuznach","municipality":{"key":"07133006","name":"Bad Kreuznach, Stadt","type":"Stadt"},"district":{"key":"07133","name":"Bad Kreuznach","type":"Landkreis"},"federalState":{"key":"07","name":"Rheinland-Pfalz"}},{"name":"Weinstr.","postalCode":"55545","locality":"Bad Kreuznach","municipality":{"key":"07133006","name":"Bad Kreuznach, Stadt","type":"Stadt"},"district":{"key":"07133","name":"Bad Kreuznach","type":"Landkreis"},"federalState":{"key":"07","name":"Rheinland-Pfalz"}},{"name":"Werner-Rottenau-Weg","postalCode":"55543","locality":"Bad Kreuznach","municipality":{"key":"07133006","name":"Bad Kreuznach, Stadt","type":"Stadt"},"district":{"key":"07133","name":"Bad Kreuznach","type":"Landkreis"},"federalState":{"key":"07","name":"Rheinland-Pfalz"}},{"name":"Weyersstr.","postalCode":"55543","locality":"Bad Kreuznach","municipality":{"key":"07133006","name":"Bad Kreuznach, Stadt","type":"Stadt"},"district":{"key":"07133","name":"Bad Kreuznach","type":"Landkreis"},"federalState":{"key":"07","name":"Rheinland-Pfalz"}},{"name":"Weyroth","postalCode":"55543","locality":"Bad Kreuznach","municipality":{"key":"07133006","name":"Bad Kreuznach, Stadt","type":"Stadt"},"district":{"key":"07133","name":"Bad Kreuznach","type":"Landkreis"},"federalState":{"key":"07","name":"Rheinland-Pfalz"}},{"name":"Wielandstr.","postalCode":"55543","locality":"Bad Kreuznach","municipality":{"key":"07133006","name":"Bad Kreuznach, Stadt","type":"Stadt"},"district":{"key":"07133","name":"Bad Kreuznach","type":"Landkreis"},"federalState":{"key":"07","name":"Rheinland-Pfalz"}},{"name":"Wilhelm-Busch-Str.","postalCode":"55543","locality":"Bad Kreuznach","municipality":{"key":"07133006","name":"Bad Kreuznach, Stadt","type":"Stadt"},"district":{"key":"07133","name":"Bad Kreuznach","type":"Landkreis"},"federalState":{"key":"07","name":"Rheinland-Pfalz"}},{"name":"Wilhelm-Mathern-Str.","postalCode":"55543","locality":"Bad Kreuznach","municipality":{"key":"07133006","name":"Bad Kreuznach, Stadt","type":"Stadt"},"district":{"key":"07133","name":"Bad Kreuznach","type":"Landkreis"},"federalState":{"key":"07","name":"Rheinland-Pfalz"}},{"name":"Wilhelmstr.","postalCode":"55543","locality":"Bad Kreuznach","municipality":{"key":"07133006","name":"Bad Kreuznach, Stadt","type":"Stadt"},"district":{"key":"07133","name":"Bad Kreuznach","type":"Landkreis"},"federalState":{"key":"07","name":"Rheinland-Pfalz"}},{"name":"Wilhelmstr.","postalCode":"55545","locality":"Bad Kreuznach","municipality":{"key":"07133006","name":"Bad Kreuznach, Stadt","type":"Stadt"},"district":{"key":"07133","name":"Bad Kreuznach","type":"Landkreis"},"federalState":{"key":"07","name":"Rheinland-Pfalz"}},{"name":"Willibald-Hamburger-Str.","postalCode":"55543","locality":"Bad Kreuznach","municipality":{"key":"07133006","name":"Bad Kreuznach, Stadt","type":"Stadt"},"district":{"key":"07133","name":"Bad Kreuznach","type":"Landkreis"},"federalState":{"key":"07","name":"Rheinland-Pfalz"}},{"name":"Windesheimer Str.","postalCode":"55545","locality":"Bad Kreuznach","municipality":{"key":"07133006","name":"Bad Kreuznach, Stadt","type":"Stadt"},"district":{"key":"07133","name":"Bad Kreuznach","type":"Landkreis"},"federalState":{"key":"07","name":"Rheinland-Pfalz"}},{"name":"Winzenheimer Str.","postalCode":"55545","locality":"Bad Kreuznach","municipality":{"key":"07133006","name":"Bad Kreuznach, Stadt","type":"Stadt"},"district":{"key":"07133","name":"Bad Kreuznach","type":"Landkreis"},"federalState":{"key":"07","name":"Rheinland-Pfalz"}},{"name":"Winzerweg","postalCode":"55545","locality":"Bad Kreuznach","municipality":{"key":"07133006","name":"Bad Kreuznach, Stadt","type":"Stadt"},"district":{"key":"07133","name":"Bad Kreuznach","type":"Landkreis"},"federalState":{"key":"07","name":"Rheinland-Pfalz"}},{"name":"Wolfsheimer Str.","postalCode":"55543","locality":"Bad Kreuznach","municipality":{"key":"07133006","name":"Bad Kreuznach, Stadt","type":"Stadt"},"district":{"key":"07133","name":"Bad Kreuznach","type":"Landkreis"},"federalState":{"key":"07","name":"Rheinland-Pfalz"}},{"name":"Wöllsteiner Str.","postalCode":"55543","locality":"Bad Kreuznach","municipality":{"key":"07133006","name":"Bad Kreuznach, Stadt","type":"Stadt"},"district":{"key":"07133","name":"Bad Kreuznach","type":"Landkreis"},"federalState":{"key":"07","name":"Rheinland-Pfalz"}},{"name":"Zum Hasselberg","postalCode":"55585","locality":"Norheim","municipality":{"key":"07133071","name":"Norheim","type":"Kreisangehörige_Gemeinde"},"district":{"key":"07133","name":"Bad Kreuznach","type":"Landkreis"},"federalState":{"key":"07","name":"Rheinland-Pfalz"}},]