[{"name":"Amalien Geräumt","postalCode":"82061","locality":"Forstenrieder Park","municipality":{"key":"09184452","name":"Forstenrieder Park","type":"Gemeindefreies_Gebiet_Unbewohnt"},"district":{"key":"09184","name":"München","type":"Landkreis"},"federalState":{"key":"09","name":"Bayern"}},{"name":"Augusten Geräumt","postalCode":"82061","locality":"Forstenrieder Park","municipality":{"key":"09184452","name":"Forstenrieder Park","type":"Gemeindefreies_Gebiet_Unbewohnt"},"district":{"key":"09184","name":"München","type":"Landkreis"},"federalState":{"key":"09","name":"Bayern"}},{"name":"Baaderplatz","postalCode":"80469","locality":"München","municipality":{"key":"09162000","name":"München, Landeshauptstadt","type":"Kreisfreie_Stadt"},"district":{"key":"09162","name":"München, Landeshauptstadt","type":"Kreisfreie_Stadt"},"federalState":{"key":"09","name":"Bayern"}},{"name":"Baaderstr.","postalCode":"80469","locality":"München","municipality":{"key":"09162000","name":"München, Landeshauptstadt","type":"Kreisfreie_Stadt"},"district":{"key":"09162","name":"München, Landeshauptstadt","type":"Kreisfreie_Stadt"},"federalState":{"key":"09","name":"Bayern"}},{"name":"Babenhausener Weg","postalCode":"81671","locality":"München","municipality":{"key":"09162000","name":"München, Landeshauptstadt","type":"Kreisfreie_Stadt"},"district":{"key":"09162","name":"München, Landeshauptstadt","type":"Kreisfreie_Stadt"},"federalState":{"key":"09","name":"Bayern"}},{"name":"Bachbauernstr.","postalCode":"81241","locality":"München","municipality":{"key":"09162000","name":"München, Landeshauptstadt","type":"Kreisfreie_Stadt"},"district":{"key":"09162","name":"München, Landeshauptstadt","type":"Kreisfreie_Stadt"},"federalState":{"key":"09","name":"Bayern"}},{"name":"Bacherlstr.","postalCode":"93449","locality":"Waldmünchen","municipality":{"key":"09372171","name":"Waldmünchen, St","type":"Stadt"},"district":{"key":"09372","name":"Cham","type":"Landkreis"},"federalState":{"key":"09","name":"Bayern"}},{"name":"Bacherstr.","postalCode":"81539","locality":"München","municipality":{"key":"09162000","name":"München, Landeshauptstadt","type":"Kreisfreie_Stadt"},"district":{"key":"09162","name":"München, Landeshauptstadt","type":"Kreisfreie_Stadt"},"federalState":{"key":"09","name":"Bayern"}},{"name":"Bachgasse","postalCode":"93449","locality":"Waldmünchen","municipality":{"key":"09372171","name":"Waldmünchen, St","type":"Stadt"},"district":{"key":"09372","name":"Cham","type":"Landkreis"},"federalState":{"key":"09","name":"Bayern"}},{"name":"Bachmairstr.","postalCode":"81243","locality":"München","municipality":{"key":"09162000","name":"München, Landeshauptstadt","type":"Kreisfreie_Stadt"},"district":{"key":"09162","name":"München, Landeshauptstadt","type":"Kreisfreie_Stadt"},"federalState":{"key":"09","name":"Bayern"}},{"name":"Bachstelzenweg","postalCode":"80937","locality":"München","municipality":{"key":"09162000","name":"München, Landeshauptstadt","type":"Kreisfreie_Stadt"},"district":{"key":"09162","name":"München, Landeshauptstadt","type":"Kreisfreie_Stadt"},"federalState":{"key":"09","name":"Bayern"}},{"name":"Bachstelzenweg","postalCode":"85551","locality":"Kirchheim bei München","municipality":{"key":"09184131","name":"Kirchheim b.München","type":"Kreisangehörige_Gemeinde"},"district":{"key":"09184","name":"München","type":"Landkreis"},"federalState":{"key":"09","name":"Bayern"}},{"name":"Bachstr.","postalCode":"86830","locality":"Schwabmünchen","municipality":{"key":"09772200","name":"Schwabmünchen, St","type":"Stadt"},"district":{"key":"09772","name":"Augsburg","type":"Landkreis"},"federalState":{"key":"09","name":"Bayern"}},{"name":"Bäckerbauerstr.","postalCode":"81241","locality":"München","municipality":{"key":"09162000","name":"München, Landeshauptstadt","type":"Kreisfreie_Stadt"},"district":{"key":"09162","name":"München, Landeshauptstadt","type":"Kreisfreie_Stadt"},"federalState":{"key":"09","name":"Bayern"}},{"name":"Bäckergasse","postalCode":"93449","locality":"Waldmünchen","municipality":{"key":"09372171","name":"Waldmünchen, St","type":"Stadt"},"district":{"key":"09372","name":"Cham","type":"Landkreis"},"federalState":{"key":"09","name":"Bayern"}},{"name":"Bäckerstr.","postalCode":"81241","locality":"München","municipality":{"key":"09162000","name":"München, Landeshauptstadt","type":"Kreisfreie_Stadt"},"district":{"key":"09162","name":"München, Landeshauptstadt","type":"Kreisfreie_Stadt"},"federalState":{"key":"09","name":"Bayern"}},{"name":"Bad-Berneck-Str.","postalCode":"81549","locality":"München","municipality":{"key":"09162000","name":"München, Landeshauptstadt","type":"Kreisfreie_Stadt"},"district":{"key":"09162","name":"München, Landeshauptstadt","type":"Kreisfreie_Stadt"},"federalState":{"key":"09","name":"Bayern"}},{"name":"Bad Brunnthal","postalCode":"81675","locality":"München","municipality":{"key":"09162000","name":"München, Landeshauptstadt","type":"Kreisfreie_Stadt"},"district":{"key":"09162","name":"München, Landeshauptstadt","type":"Kreisfreie_Stadt"},"federalState":{"key":"09","name":"Bayern"}},{"name":"Bad-Dürkheimer-Str.","postalCode":"81539","locality":"München","municipality":{"key":"09162000","name":"München, Landeshauptstadt","type":"Kreisfreie_Stadt"},"district":{"key":"09162","name":"München, Landeshauptstadt","type":"Kreisfreie_Stadt"},"federalState":{"key":"09","name":"Bayern"}},{"name":"Badenburgstr.","postalCode":"81247","locality":"München","municipality":{"key":"09162000","name":"München, Landeshauptstadt","type":"Kreisfreie_Stadt"},"district":{"key":"09162","name":"München, Landeshauptstadt","type":"Kreisfreie_Stadt"},"federalState":{"key":"09","name":"Bayern"}},{"name":"Baderseestr.","postalCode":"81373","locality":"München","municipality":{"key":"09162000","name":"München, Landeshauptstadt","type":"Kreisfreie_Stadt"},"district":{"key":"09162","name":"München, Landeshauptstadt","type":"Kreisfreie_Stadt"},"federalState":{"key":"09","name":"Bayern"}},{"name":"Badestrand Ostufer Feldmochinger See","postalCode":"80995","locality":"München","municipality":{"key":"09162000","name":"München, Landeshauptstadt","type":"Kreisfreie_Stadt"},"district":{"key":"09162","name":"München, Landeshauptstadt","type":"Kreisfreie_Stadt"},"federalState":{"key":"09","name":"Bayern"}},{"name":"Bad Forstenrieder Park","postalCode":"81476","locality":"München","municipality":{"key":"09162000","name":"München, Landeshauptstadt","type":"Kreisfreie_Stadt"},"district":{"key":"09162","name":"München, Landeshauptstadt","type":"Kreisfreie_Stadt"},"federalState":{"key":"09","name":"Bayern"}},{"name":"Badgasteiner Str.","postalCode":"81373","locality":"München","municipality":{"key":"09162000","name":"München, Landeshauptstadt","type":"Kreisfreie_Stadt"},"district":{"key":"09162","name":"München, Landeshauptstadt","type":"Kreisfreie_Stadt"},"federalState":{"key":"09","name":"Bayern"}},{"name":"Bad-Ischler-Str.","postalCode":"81241","locality":"München","municipality":{"key":"09162000","name":"München, Landeshauptstadt","type":"Kreisfreie_Stadt"},"district":{"key":"09162","name":"München, Landeshauptstadt","type":"Kreisfreie_Stadt"},"federalState":{"key":"09","name":"Bayern"}},{"name":"Bad-Kissingen-Str.","postalCode":"81671","locality":"München","municipality":{"key":"09162000","name":"München, Landeshauptstadt","type":"Kreisfreie_Stadt"},"district":{"key":"09162","name":"München, Landeshauptstadt","type":"Kreisfreie_Stadt"},"federalState":{"key":"09","name":"Bayern"}},{"name":"Bad-Kreuther-Str.","postalCode":"81671","locality":"München","municipality":{"key":"09162000","name":"München, Landeshauptstadt","type":"Kreisfreie_Stadt"},"district":{"key":"09162","name":"München, Landeshauptstadt","type":"Kreisfreie_Stadt"},"federalState":{"key":"09","name":"Bayern"}},{"name":"Bad-Kreuznacher-Str.","postalCode":"80807","locality":"München","municipality":{"key":"09162000","name":"München, Landeshauptstadt","type":"Kreisfreie_Stadt"},"district":{"key":"09162","name":"München, Landeshauptstadt","type":"Kreisfreie_Stadt"},"federalState":{"key":"09","name":"Bayern"}},{"name":"Bad-Nauheimer-Weg","postalCode":"80807","locality":"München","municipality":{"key":"09162000","name":"München, Landeshauptstadt","type":"Kreisfreie_Stadt"},"district":{"key":"09162","name":"München, Landeshauptstadt","type":"Kreisfreie_Stadt"},"federalState":{"key":"09","name":"Bayern"}},{"name":"Bad-Schachener-Str.","postalCode":"81671","locality":"München","municipality":{"key":"09162000","name":"München, Landeshauptstadt","type":"Kreisfreie_Stadt"},"district":{"key":"09162","name":"München, Landeshauptstadt","type":"Kreisfreie_Stadt"},"federalState":{"key":"09","name":"Bayern"}},{"name":"Bad-Schachener-Str.","postalCode":"81735","locality":"München","municipality":{"key":"09162000","name":"München, Landeshauptstadt","type":"Kreisfreie_Stadt"},"district":{"key":"09162","name":"München, Landeshauptstadt","type":"Kreisfreie_Stadt"},"federalState":{"key":"09","name":"Bayern"}},{"name":"Bad-Soden-Str.","postalCode":"80807","locality":"München","municipality":{"key":"09162000","name":"München, Landeshauptstadt","type":"Kreisfreie_Stadt"},"district":{"key":"09162","name":"München, Landeshauptstadt","type":"Kreisfreie_Stadt"},"federalState":{"key":"09","name":"Bayern"}},{"name":"Bad-Stebener-Weg","postalCode":"81243","locality":"München","municipality":{"key":"09162000","name":"München, Landeshauptstadt","type":"Kreisfreie_Stadt"},"district":{"key":"09162","name":"München, Landeshauptstadt","type":"Kreisfreie_Stadt"},"federalState":{"key":"09","name":"Bayern"}},{"name":"Badstr.","postalCode":"81379","locality":"München","municipality":{"key":"09162000","name":"München, Landeshauptstadt","type":"Kreisfreie_Stadt"},"district":{"key":"09162","name":"München, Landeshauptstadt","type":"Kreisfreie_Stadt"},"federalState":{"key":"09","name":"Bayern"}},{"name":"Badstr.","postalCode":"86830","locality":"Schwabmünchen","municipality":{"key":"09772200","name":"Schwabmünchen, St","type":"Stadt"},"district":{"key":"09772","name":"Augsburg","type":"Landkreis"},"federalState":{"key":"09","name":"Bayern"}},{"name":"Bad-Wiessee-Str.","postalCode":"81547","locality":"München","municipality":{"key":"09162000","name":"München, Landeshauptstadt","type":"Kreisfreie_Stadt"},"district":{"key":"09162","name":"München, Landeshauptstadt","type":"Kreisfreie_Stadt"},"federalState":{"key":"09","name":"Bayern"}},{"name":"Bad-Wörishofener-Str.","postalCode":"81475","locality":"München","municipality":{"key":"09162000","name":"München, Landeshauptstadt","type":"Kreisfreie_Stadt"},"district":{"key":"09162","name":"München, Landeshauptstadt","type":"Kreisfreie_Stadt"},"federalState":{"key":"09","name":"Bayern"}},{"name":"Bahnhofplatz","postalCode":"80335","locality":"München","municipality":{"key":"09162000","name":"München, Landeshauptstadt","type":"Kreisfreie_Stadt"},"district":{"key":"09162","name":"München, Landeshauptstadt","type":"Kreisfreie_Stadt"},"federalState":{"key":"09","name":"Bayern"}},{"name":"Bahnhofsplatz","postalCode":"85567","locality":"Grafing bei München","municipality":{"key":"09175122","name":"Grafing b.München, St","type":"Stadt"},"district":{"key":"09175","name":"Ebersberg","type":"Landkreis"},"federalState":{"key":"09","name":"Bayern"}},{"name":"Bahnhofstr.","postalCode":"07589","locality":"Münchenbernsdorf","municipality":{"key":"16076049","name":"Münchenbernsdorf, Stadt","type":"Stadt"},"district":{"key":"16076","name":"Greiz","type":"Landkreis"},"federalState":{"key":"16","name":"Thüringen"}},{"name":"Bahnhofstr.","postalCode":"85551","locality":"Kirchheim bei München","municipality":{"key":"09184131","name":"Kirchheim b.München","type":"Kreisangehörige_Gemeinde"},"district":{"key":"09184","name":"München","type":"Landkreis"},"federalState":{"key":"09","name":"Bayern"}},{"name":"Bahnhofstr.","postalCode":"85567","locality":"Grafing bei München","municipality":{"key":"09175122","name":"Grafing b.München, St","type":"Stadt"},"district":{"key":"09175","name":"Ebersberg","type":"Landkreis"},"federalState":{"key":"09","name":"Bayern"}},{"name":"Bahnhofstr.","postalCode":"86830","locality":"Schwabmünchen","municipality":{"key":"09772200","name":"Schwabmünchen, St","type":"Stadt"},"district":{"key":"09772","name":"Augsburg","type":"Landkreis"},"federalState":{"key":"09","name":"Bayern"}},{"name":"Bahnhofstr.","postalCode":"93449","locality":"Waldmünchen","municipality":{"key":"09372171","name":"Waldmünchen, St","type":"Stadt"},"district":{"key":"09372","name":"Cham","type":"Landkreis"},"federalState":{"key":"09","name":"Bayern"}},{"name":"Bahnstr.","postalCode":"81827","locality":"München","municipality":{"key":"09162000","name":"München, Landeshauptstadt","type":"Kreisfreie_Stadt"},"district":{"key":"09162","name":"München, Landeshauptstadt","type":"Kreisfreie_Stadt"},"federalState":{"key":"09","name":"Bayern"}},{"name":"Bahnweg","postalCode":"86830","locality":"Schwabmünchen","municipality":{"key":"09772200","name":"Schwabmünchen, St","type":"Stadt"},"district":{"key":"09772","name":"Augsburg","type":"Landkreis"},"federalState":{"key":"09","name":"Bayern"}},{"name":"Baierbrunner Str.","postalCode":"81379","locality":"München","municipality":{"key":"09162000","name":"München, Landeshauptstadt","type":"Kreisfreie_Stadt"},"district":{"key":"09162","name":"München, Landeshauptstadt","type":"Kreisfreie_Stadt"},"federalState":{"key":"09","name":"Bayern"}},{"name":"Bairawieser Weg","postalCode":"81545","locality":"München","municipality":{"key":"09162000","name":"München, Landeshauptstadt","type":"Kreisfreie_Stadt"},"district":{"key":"09162","name":"München, Landeshauptstadt","type":"Kreisfreie_Stadt"},"federalState":{"key":"09","name":"Bayern"}},{"name":"Bajuwarenstr.","postalCode":"81825","locality":"München","municipality":{"key":"09162000","name":"München, Landeshauptstadt","type":"Kreisfreie_Stadt"},"district":{"key":"09162","name":"München, Landeshauptstadt","type":"Kreisfreie_Stadt"},"federalState":{"key":"09","name":"Bayern"}},{"name":"Bajuwarenstr.","postalCode":"85551","locality":"Kirchheim bei München","municipality":{"key":"09184131","name":"Kirchheim b.München","type":"Kreisangehörige_Gemeinde"},"district":{"key":"09184","name":"München","type":"Landkreis"},"federalState":{"key":"09","name":"Bayern"}},{"name":"Bajuwarenstr.","postalCode":"85567","locality":"Grafing bei München","municipality":{"key":"09175122","name":"Grafing b.München, St","type":"Stadt"},"district":{"key":"09175","name":"Ebersberg","type":"Landkreis"},"federalState":{"key":"09","name":"Bayern"}},{"name":"Bajuwarenstr.","postalCode":"86830","locality":"Schwabmünchen","municipality":{"key":"09772200","name":"Schwabmünchen, St","type":"Stadt"},"district":{"key":"09772","name":"Augsburg","type":"Landkreis"},"federalState":{"key":"09","name":"Bayern"}},{"name":"Carolinen Geräumt","postalCode":"82061","locality":"Forstenrieder Park","municipality":{"key":"09184452","name":"Forstenrieder Park","type":"Gemeindefreies_Gebiet_Unbewohnt"},"district":{"key":"09184","name":"München","type":"Landkreis"},"federalState":{"key":"09","name":"Bayern"}},{"name":"Charlotten Geräumt","postalCode":"82061","locality":"Forstenrieder Park","municipality":{"key":"09184452","name":"Forstenrieder Park","type":"Gemeindefreies_Gebiet_Unbewohnt"},"district":{"key":"09184","name":"München","type":"Landkreis"},"federalState":{"key":"09","name":"Bayern"}},{"name":"Dillisgeräumt","postalCode":"82061","locality":"Forstenrieder Park","municipality":{"key":"09184452","name":"Forstenrieder Park","type":"Gemeindefreies_Gebiet_Unbewohnt"},"district":{"key":"09184","name":"München","type":"Landkreis"},"federalState":{"key":"09","name":"Bayern"}},{"name":"Elisen Geräumt","postalCode":"82061","locality":"Forstenrieder Park","municipality":{"key":"09184452","name":"Forstenrieder Park","type":"Gemeindefreies_Gebiet_Unbewohnt"},"district":{"key":"09184","name":"München","type":"Landkreis"},"federalState":{"key":"09","name":"Bayern"}},{"name":"Forstenrieder Allee","postalCode":"81476","locality":"Forstenrieder Park","municipality":{"key":"09184452","name":"Forstenrieder Park","type":"Gemeindefreies_Gebiet_Unbewohnt"},"district":{"key":"09184","name":"München","type":"Landkreis"},"federalState":{"key":"09","name":"Bayern"}},{"name":"Forstenrieder Allee","postalCode":"82061","locality":"Forstenrieder Park","municipality":{"key":"09184452","name":"Forstenrieder Park","type":"Gemeindefreies_Gebiet_Unbewohnt"},"district":{"key":"09184","name":"München","type":"Landkreis"},"federalState":{"key":"09","name":"Bayern"}},{"name":"Friederiken Geräumt","postalCode":"82061","locality":"Forstenrieder Park","municipality":{"key":"09184452","name":"Forstenrieder Park","type":"Gemeindefreies_Gebiet_Unbewohnt"},"district":{"key":"09184","name":"München","type":"Landkreis"},"federalState":{"key":"09","name":"Bayern"}},{"name":"Gabelsbergerstr.","postalCode":"80333","locality":"München","municipality":{"key":"09162000","name":"München, Landeshauptstadt","type":"Kreisfreie_Stadt"},"district":{"key":"09162","name":"München, Landeshauptstadt","type":"Kreisfreie_Stadt"},"federalState":{"key":"09","name":"Bayern"}},{"name":"Gabelsbergerstr.","postalCode":"80335","locality":"München","municipality":{"key":"09162000","name":"München, Landeshauptstadt","type":"Kreisfreie_Stadt"},"district":{"key":"09162","name":"München, Landeshauptstadt","type":"Kreisfreie_Stadt"},"federalState":{"key":"09","name":"Bayern"}},{"name":"Gabelsberger Str.","postalCode":"07589","locality":"Münchenbernsdorf","municipality":{"key":"16076049","name":"Münchenbernsdorf, Stadt","type":"Stadt"},"district":{"key":"16076","name":"Greiz","type":"Landkreis"},"federalState":{"key":"16","name":"Thüringen"}},{"name":"Gaberlstr.","postalCode":"81377","locality":"München","municipality":{"key":"09162000","name":"München, Landeshauptstadt","type":"Kreisfreie_Stadt"},"district":{"key":"09162","name":"München, Landeshauptstadt","type":"Kreisfreie_Stadt"},"federalState":{"key":"09","name":"Bayern"}},{"name":"Gablonzer Str.","postalCode":"80937","locality":"München","municipality":{"key":"09162000","name":"München, Landeshauptstadt","type":"Kreisfreie_Stadt"},"district":{"key":"09162","name":"München, Landeshauptstadt","type":"Kreisfreie_Stadt"},"federalState":{"key":"09","name":"Bayern"}},{"name":"Gablonzer Str.","postalCode":"80939","locality":"München","municipality":{"key":"09162000","name":"München, Landeshauptstadt","type":"Kreisfreie_Stadt"},"district":{"key":"09162","name":"München, Landeshauptstadt","type":"Kreisfreie_Stadt"},"federalState":{"key":"09","name":"Bayern"}},{"name":"Gabriele-Münter-Str.","postalCode":"81477","locality":"München","municipality":{"key":"09162000","name":"München, Landeshauptstadt","type":"Kreisfreie_Stadt"},"district":{"key":"09162","name":"München, Landeshauptstadt","type":"Kreisfreie_Stadt"},"federalState":{"key":"09","name":"Bayern"}},{"name":"Gabrielenstr.","postalCode":"80636","locality":"München","municipality":{"key":"09162000","name":"München, Landeshauptstadt","type":"Kreisfreie_Stadt"},"district":{"key":"09162","name":"München, Landeshauptstadt","type":"Kreisfreie_Stadt"},"federalState":{"key":"09","name":"Bayern"}},{"name":"Gabriel-Max-Str.","postalCode":"81545","locality":"München","municipality":{"key":"09162000","name":"München, Landeshauptstadt","type":"Kreisfreie_Stadt"},"district":{"key":"09162","name":"München, Landeshauptstadt","type":"Kreisfreie_Stadt"},"federalState":{"key":"09","name":"Bayern"}},{"name":"Gaggenaystr.","postalCode":"80992","locality":"München","municipality":{"key":"09162000","name":"München, Landeshauptstadt","type":"Kreisfreie_Stadt"},"district":{"key":"09162","name":"München, Landeshauptstadt","type":"Kreisfreie_Stadt"},"federalState":{"key":"09","name":"Bayern"}},{"name":"Gaiglstr.","postalCode":"80335","locality":"München","municipality":{"key":"09162000","name":"München, Landeshauptstadt","type":"Kreisfreie_Stadt"},"district":{"key":"09162","name":"München, Landeshauptstadt","type":"Kreisfreie_Stadt"},"federalState":{"key":"09","name":"Bayern"}},{"name":"Gailenreuther Str.","postalCode":"81243","locality":"München","municipality":{"key":"09162000","name":"München, Landeshauptstadt","type":"Kreisfreie_Stadt"},"district":{"key":"09162","name":"München, Landeshauptstadt","type":"Kreisfreie_Stadt"},"federalState":{"key":"09","name":"Bayern"}},{"name":"Gailkircherstr.","postalCode":"81247","locality":"München","municipality":{"key":"09162000","name":"München, Landeshauptstadt","type":"Kreisfreie_Stadt"},"district":{"key":"09162","name":"München, Landeshauptstadt","type":"Kreisfreie_Stadt"},"federalState":{"key":"09","name":"Bayern"}},{"name":"Gaisbergstr.","postalCode":"81675","locality":"München","municipality":{"key":"09162000","name":"München, Landeshauptstadt","type":"Kreisfreie_Stadt"},"district":{"key":"09162","name":"München, Landeshauptstadt","type":"Kreisfreie_Stadt"},"federalState":{"key":"09","name":"Bayern"}},{"name":"Gaishoferstr.","postalCode":"80689","locality":"München","municipality":{"key":"09162000","name":"München, Landeshauptstadt","type":"Kreisfreie_Stadt"},"district":{"key":"09162","name":"München, Landeshauptstadt","type":"Kreisfreie_Stadt"},"federalState":{"key":"09","name":"Bayern"}},{"name":"Gaishornstr.","postalCode":"86830","locality":"Schwabmünchen","municipality":{"key":"09772200","name":"Schwabmünchen, St","type":"Stadt"},"district":{"key":"09772","name":"Augsburg","type":"Landkreis"},"federalState":{"key":"09","name":"Bayern"}},{"name":"Gaißacher Str.","postalCode":"81371","locality":"München","municipality":{"key":"09162000","name":"München, Landeshauptstadt","type":"Kreisfreie_Stadt"},"district":{"key":"09162","name":"München, Landeshauptstadt","type":"Kreisfreie_Stadt"},"federalState":{"key":"09","name":"Bayern"}},{"name":"Galeriestr.","postalCode":"80539","locality":"München","municipality":{"key":"09162000","name":"München, Landeshauptstadt","type":"Kreisfreie_Stadt"},"district":{"key":"09162","name":"München, Landeshauptstadt","type":"Kreisfreie_Stadt"},"federalState":{"key":"09","name":"Bayern"}},{"name":"Galgensteig","postalCode":"86830","locality":"Schwabmünchen","municipality":{"key":"09772200","name":"Schwabmünchen, St","type":"Stadt"},"district":{"key":"09772","name":"Augsburg","type":"Landkreis"},"federalState":{"key":"09","name":"Bayern"}},{"name":"Galileiplatz","postalCode":"81679","locality":"München","municipality":{"key":"09162000","name":"München, Landeshauptstadt","type":"Kreisfreie_Stadt"},"district":{"key":"09162","name":"München, Landeshauptstadt","type":"Kreisfreie_Stadt"},"federalState":{"key":"09","name":"Bayern"}},{"name":"Gallmayerstr.","postalCode":"81669","locality":"München","municipality":{"key":"09162000","name":"München, Landeshauptstadt","type":"Kreisfreie_Stadt"},"district":{"key":"09162","name":"München, Landeshauptstadt","type":"Kreisfreie_Stadt"},"federalState":{"key":"09","name":"Bayern"}},{"name":"Galoppbahn","postalCode":"81929","locality":"München","municipality":{"key":"09162000","name":"München, Landeshauptstadt","type":"Kreisfreie_Stadt"},"district":{"key":"09162","name":"München, Landeshauptstadt","type":"Kreisfreie_Stadt"},"federalState":{"key":"09","name":"Bayern"}},{"name":"Galopperstr.","postalCode":"81829","locality":"München","municipality":{"key":"09162000","name":"München, Landeshauptstadt","type":"Kreisfreie_Stadt"},"district":{"key":"09162","name":"München, Landeshauptstadt","type":"Kreisfreie_Stadt"},"federalState":{"key":"09","name":"Bayern"}},{"name":"Gammelsdorfer Str.","postalCode":"81671","locality":"München","municipality":{"key":"09162000","name":"München, Landeshauptstadt","type":"Kreisfreie_Stadt"},"district":{"key":"09162","name":"München, Landeshauptstadt","type":"Kreisfreie_Stadt"},"federalState":{"key":"09","name":"Bayern"}},{"name":"Ganghoferstr.","postalCode":"80339","locality":"München","municipality":{"key":"09162000","name":"München, Landeshauptstadt","type":"Kreisfreie_Stadt"},"district":{"key":"09162","name":"München, Landeshauptstadt","type":"Kreisfreie_Stadt"},"federalState":{"key":"09","name":"Bayern"}},{"name":"Ganghoferstr.","postalCode":"81373","locality":"München","municipality":{"key":"09162000","name":"München, Landeshauptstadt","type":"Kreisfreie_Stadt"},"district":{"key":"09162","name":"München, Landeshauptstadt","type":"Kreisfreie_Stadt"},"federalState":{"key":"09","name":"Bayern"}},{"name":"Ganghoferstr.","postalCode":"85567","locality":"Grafing bei München","municipality":{"key":"09175122","name":"Grafing b.München, St","type":"Stadt"},"district":{"key":"09175","name":"Ebersberg","type":"Landkreis"},"federalState":{"key":"09","name":"Bayern"}},{"name":"Gänselieselstr.","postalCode":"81739","locality":"München","municipality":{"key":"09162000","name":"München, Landeshauptstadt","type":"Kreisfreie_Stadt"},"district":{"key":"09162","name":"München, Landeshauptstadt","type":"Kreisfreie_Stadt"},"federalState":{"key":"09","name":"Bayern"}},{"name":"Ganzenmüllerstr.","postalCode":"80999","locality":"München","municipality":{"key":"09162000","name":"München, Landeshauptstadt","type":"Kreisfreie_Stadt"},"district":{"key":"09162","name":"München, Landeshauptstadt","type":"Kreisfreie_Stadt"},"federalState":{"key":"09","name":"Bayern"}},{"name":"Garatshausener Str.","postalCode":"81479","locality":"München","municipality":{"key":"09162000","name":"München, Landeshauptstadt","type":"Kreisfreie_Stadt"},"district":{"key":"09162","name":"München, Landeshauptstadt","type":"Kreisfreie_Stadt"},"federalState":{"key":"09","name":"Bayern"}},{"name":"Garchinger Str.","postalCode":"80805","locality":"München","municipality":{"key":"09162000","name":"München, Landeshauptstadt","type":"Kreisfreie_Stadt"},"district":{"key":"09162","name":"München, Landeshauptstadt","type":"Kreisfreie_Stadt"},"federalState":{"key":"09","name":"Bayern"}},{"name":"Gareisstr.","postalCode":"80937","locality":"München","municipality":{"key":"09162000","name":"München, Landeshauptstadt","type":"Kreisfreie_Stadt"},"district":{"key":"09162","name":"München, Landeshauptstadt","type":"Kreisfreie_Stadt"},"federalState":{"key":"09","name":"Bayern"}},{"name":"Garmischer Str.","postalCode":"80339","locality":"München","municipality":{"key":"09162000","name":"München, Landeshauptstadt","type":"Kreisfreie_Stadt"},"district":{"key":"09162","name":"München, Landeshauptstadt","type":"Kreisfreie_Stadt"},"federalState":{"key":"09","name":"Bayern"}},{"name":"Garmischer Str.","postalCode":"80686","locality":"München","municipality":{"key":"09162000","name":"München, Landeshauptstadt","type":"Kreisfreie_Stadt"},"district":{"key":"09162","name":"München, Landeshauptstadt","type":"Kreisfreie_Stadt"},"federalState":{"key":"09","name":"Bayern"}},{"name":"Garmischer Str.","postalCode":"81373","locality":"München","municipality":{"key":"09162000","name":"München, Landeshauptstadt","type":"Kreisfreie_Stadt"},"district":{"key":"09162","name":"München, Landeshauptstadt","type":"Kreisfreie_Stadt"},"federalState":{"key":"09","name":"Bayern"}},{"name":"Garmischer Str.","postalCode":"81377","locality":"München","municipality":{"key":"09162000","name":"München, Landeshauptstadt","type":"Kreisfreie_Stadt"},"district":{"key":"09162","name":"München, Landeshauptstadt","type":"Kreisfreie_Stadt"},"federalState":{"key":"09","name":"Bayern"}},{"name":"Garten des Georgianums","postalCode":"80539","locality":"München","municipality":{"key":"09162000","name":"München, Landeshauptstadt","type":"Kreisfreie_Stadt"},"district":{"key":"09162","name":"München, Landeshauptstadt","type":"Kreisfreie_Stadt"},"federalState":{"key":"09","name":"Bayern"}},{"name":"Gartenstadtstr.","postalCode":"81825","locality":"München","municipality":{"key":"09162000","name":"München, Landeshauptstadt","type":"Kreisfreie_Stadt"},"district":{"key":"09162","name":"München, Landeshauptstadt","type":"Kreisfreie_Stadt"},"federalState":{"key":"09","name":"Bayern"}},{"name":"Gartenstr.","postalCode":"07589","locality":"Münchenbernsdorf","municipality":{"key":"16076049","name":"Münchenbernsdorf, Stadt","type":"Stadt"},"district":{"key":"16076","name":"Greiz","type":"Landkreis"},"federalState":{"key":"16","name":"Thüringen"}},{"name":"Gartenstr.","postalCode":"80809","locality":"München","municipality":{"key":"09162000","name":"München, Landeshauptstadt","type":"Kreisfreie_Stadt"},"district":{"key":"09162","name":"München, Landeshauptstadt","type":"Kreisfreie_Stadt"},"federalState":{"key":"09","name":"Bayern"}},{"name":"Gartenstr.","postalCode":"85551","locality":"Kirchheim bei München","municipality":{"key":"09184131","name":"Kirchheim b.München","type":"Kreisangehörige_Gemeinde"},"district":{"key":"09184","name":"München","type":"Landkreis"},"federalState":{"key":"09","name":"Bayern"}},{"name":"Gartenstr.","postalCode":"85567","locality":"Grafing bei München","municipality":{"key":"09175122","name":"Grafing b.München, St","type":"Stadt"},"district":{"key":"09175","name":"Ebersberg","type":"Landkreis"},"federalState":{"key":"09","name":"Bayern"}},{"name":"Gartenstr.","postalCode":"85748","locality":"Garching bei München","municipality":{"key":"09184119","name":"Garching b.München, St","type":"Stadt"},"district":{"key":"09184","name":"München","type":"Landkreis"},"federalState":{"key":"09","name":"Bayern"}},{"name":"Gartenstr.","postalCode":"86830","locality":"Schwabmünchen","municipality":{"key":"09772200","name":"Schwabmünchen, St","type":"Stadt"},"district":{"key":"09772","name":"Augsburg","type":"Landkreis"},"federalState":{"key":"09","name":"Bayern"}},{"name":"Gartenstr.","postalCode":"93449","locality":"Waldmünchen","municipality":{"key":"09372171","name":"Waldmünchen, St","type":"Stadt"},"district":{"key":"09372","name":"Cham","type":"Landkreis"},"federalState":{"key":"09","name":"Bayern"}},{"name":"Gärtnerplatz","postalCode":"80469","locality":"München","municipality":{"key":"09162000","name":"München, Landeshauptstadt","type":"Kreisfreie_Stadt"},"district":{"key":"09162","name":"München, Landeshauptstadt","type":"Kreisfreie_Stadt"},"federalState":{"key":"09","name":"Bayern"}},{"name":"Gärtnerstr.","postalCode":"80992","locality":"München","municipality":{"key":"09162000","name":"München, Landeshauptstadt","type":"Kreisfreie_Stadt"},"district":{"key":"09162","name":"München, Landeshauptstadt","type":"Kreisfreie_Stadt"},"federalState":{"key":"09","name":"Bayern"}},{"name":"Gasparistr.","postalCode":"81479","locality":"München","municipality":{"key":"09162000","name":"München, Landeshauptstadt","type":"Kreisfreie_Stadt"},"district":{"key":"09162","name":"München, Landeshauptstadt","type":"Kreisfreie_Stadt"},"federalState":{"key":"09","name":"Bayern"}},{"name":"Gassenfleckl","postalCode":"80939","locality":"München","municipality":{"key":"09162000","name":"München, Landeshauptstadt","type":"Kreisfreie_Stadt"},"district":{"key":"09162","name":"München, Landeshauptstadt","type":"Kreisfreie_Stadt"},"federalState":{"key":"09","name":"Bayern"}},{"name":"Gaßnerstr.","postalCode":"80639","locality":"München","municipality":{"key":"09162000","name":"München, Landeshauptstadt","type":"Kreisfreie_Stadt"},"district":{"key":"09162","name":"München, Landeshauptstadt","type":"Kreisfreie_Stadt"},"federalState":{"key":"09","name":"Bayern"}},{"name":"Haager Str.","postalCode":"81671","locality":"München","municipality":{"key":"09162000","name":"München, Landeshauptstadt","type":"Kreisfreie_Stadt"},"district":{"key":"09162","name":"München, Landeshauptstadt","type":"Kreisfreie_Stadt"},"federalState":{"key":"09","name":"Bayern"}},{"name":"Habacher Str.","postalCode":"81377","locality":"München","municipality":{"key":"09162000","name":"München, Landeshauptstadt","type":"Kreisfreie_Stadt"},"district":{"key":"09162","name":"München, Landeshauptstadt","type":"Kreisfreie_Stadt"},"federalState":{"key":"09","name":"Bayern"}},{"name":"Haberkernstr.","postalCode":"80939","locality":"München","municipality":{"key":"09162000","name":"München, Landeshauptstadt","type":"Kreisfreie_Stadt"},"district":{"key":"09162","name":"München, Landeshauptstadt","type":"Kreisfreie_Stadt"},"federalState":{"key":"09","name":"Bayern"}},{"name":"Haberlandstr.","postalCode":"81241","locality":"München","municipality":{"key":"09162000","name":"München, Landeshauptstadt","type":"Kreisfreie_Stadt"},"district":{"key":"09162","name":"München, Landeshauptstadt","type":"Kreisfreie_Stadt"},"federalState":{"key":"09","name":"Bayern"}},{"name":"Häberlstr.","postalCode":"80337","locality":"München","municipality":{"key":"09162000","name":"München, Landeshauptstadt","type":"Kreisfreie_Stadt"},"district":{"key":"09162","name":"München, Landeshauptstadt","type":"Kreisfreie_Stadt"},"federalState":{"key":"09","name":"Bayern"}},{"name":"Habermannstr.","postalCode":"80638","locality":"München","municipality":{"key":"09162000","name":"München, Landeshauptstadt","type":"Kreisfreie_Stadt"},"district":{"key":"09162","name":"München, Landeshauptstadt","type":"Kreisfreie_Stadt"},"federalState":{"key":"09","name":"Bayern"}},{"name":"Haberstr.","postalCode":"80999","locality":"München","municipality":{"key":"09162000","name":"München, Landeshauptstadt","type":"Kreisfreie_Stadt"},"district":{"key":"09162","name":"München, Landeshauptstadt","type":"Kreisfreie_Stadt"},"federalState":{"key":"09","name":"Bayern"}},{"name":"Habichtstr.","postalCode":"81827","locality":"München","municipality":{"key":"09162000","name":"München, Landeshauptstadt","type":"Kreisfreie_Stadt"},"district":{"key":"09162","name":"München, Landeshauptstadt","type":"Kreisfreie_Stadt"},"federalState":{"key":"09","name":"Bayern"}},{"name":"Habichtweg","postalCode":"85551","locality":"Kirchheim bei München","municipality":{"key":"09184131","name":"Kirchheim b.München","type":"Kreisangehörige_Gemeinde"},"district":{"key":"09184","name":"München","type":"Landkreis"},"federalState":{"key":"09","name":"Bayern"}},{"name":"Habsburgerplatz","postalCode":"80801","locality":"München","municipality":{"key":"09162000","name":"München, Landeshauptstadt","type":"Kreisfreie_Stadt"},"district":{"key":"09162","name":"München, Landeshauptstadt","type":"Kreisfreie_Stadt"},"federalState":{"key":"09","name":"Bayern"}},{"name":"Habsburgerstr.","postalCode":"80801","locality":"München","municipality":{"key":"09162000","name":"München, Landeshauptstadt","type":"Kreisfreie_Stadt"},"district":{"key":"09162","name":"München, Landeshauptstadt","type":"Kreisfreie_Stadt"},"federalState":{"key":"09","name":"Bayern"}},{"name":"Habsburgerstr.","postalCode":"86830","locality":"Schwabmünchen","municipality":{"key":"09772200","name":"Schwabmünchen, St","type":"Stadt"},"district":{"key":"09772","name":"Augsburg","type":"Landkreis"},"federalState":{"key":"09","name":"Bayern"}},{"name":"Hachinger-Bach-Str.","postalCode":"81671","locality":"München","municipality":{"key":"09162000","name":"München, Landeshauptstadt","type":"Kreisfreie_Stadt"},"district":{"key":"09162","name":"München, Landeshauptstadt","type":"Kreisfreie_Stadt"},"federalState":{"key":"09","name":"Bayern"}},{"name":"Hachinger-Bach-Str.","postalCode":"81673","locality":"München","municipality":{"key":"09162000","name":"München, Landeshauptstadt","type":"Kreisfreie_Stadt"},"district":{"key":"09162","name":"München, Landeshauptstadt","type":"Kreisfreie_Stadt"},"federalState":{"key":"09","name":"Bayern"}},{"name":"Hackenstr.","postalCode":"80331","locality":"München","municipality":{"key":"09162000","name":"München, Landeshauptstadt","type":"Kreisfreie_Stadt"},"district":{"key":"09162","name":"München, Landeshauptstadt","type":"Kreisfreie_Stadt"},"federalState":{"key":"09","name":"Bayern"}},{"name":"Hackerbrücke","postalCode":"80335","locality":"München","municipality":{"key":"09162000","name":"München, Landeshauptstadt","type":"Kreisfreie_Stadt"},"district":{"key":"09162","name":"München, Landeshauptstadt","type":"Kreisfreie_Stadt"},"federalState":{"key":"09","name":"Bayern"}},{"name":"Hackerbrücke","postalCode":"80636","locality":"München","municipality":{"key":"09162000","name":"München, Landeshauptstadt","type":"Kreisfreie_Stadt"},"district":{"key":"09162","name":"München, Landeshauptstadt","type":"Kreisfreie_Stadt"},"federalState":{"key":"09","name":"Bayern"}},{"name":"Hackländerstr.","postalCode":"81677","locality":"München","municipality":{"key":"09162000","name":"München, Landeshauptstadt","type":"Kreisfreie_Stadt"},"district":{"key":"09162","name":"München, Landeshauptstadt","type":"Kreisfreie_Stadt"},"federalState":{"key":"09","name":"Bayern"}},{"name":"Hackmahdgasse","postalCode":"80939","locality":"München","municipality":{"key":"09162000","name":"München, Landeshauptstadt","type":"Kreisfreie_Stadt"},"district":{"key":"09162","name":"München, Landeshauptstadt","type":"Kreisfreie_Stadt"},"federalState":{"key":"09","name":"Bayern"}},{"name":"Haderunstr.","postalCode":"81375","locality":"München","municipality":{"key":"09162000","name":"München, Landeshauptstadt","type":"Kreisfreie_Stadt"},"district":{"key":"09162","name":"München, Landeshauptstadt","type":"Kreisfreie_Stadt"},"federalState":{"key":"09","name":"Bayern"}},{"name":"Hadorfer Str.","postalCode":"81475","locality":"München","municipality":{"key":"09162000","name":"München, Landeshauptstadt","type":"Kreisfreie_Stadt"},"district":{"key":"09162","name":"München, Landeshauptstadt","type":"Kreisfreie_Stadt"},"federalState":{"key":"09","name":"Bayern"}},{"name":"Hafelhofweg","postalCode":"81825","locality":"München","municipality":{"key":"09162000","name":"München, Landeshauptstadt","type":"Kreisfreie_Stadt"},"district":{"key":"09162","name":"München, Landeshauptstadt","type":"Kreisfreie_Stadt"},"federalState":{"key":"09","name":"Bayern"}},{"name":"Haferweg","postalCode":"81929","locality":"München","municipality":{"key":"09162000","name":"München, Landeshauptstadt","type":"Kreisfreie_Stadt"},"district":{"key":"09162","name":"München, Landeshauptstadt","type":"Kreisfreie_Stadt"},"federalState":{"key":"09","name":"Bayern"}},{"name":"Haffstr.","postalCode":"81825","locality":"München","municipality":{"key":"09162000","name":"München, Landeshauptstadt","type":"Kreisfreie_Stadt"},"district":{"key":"09162","name":"München, Landeshauptstadt","type":"Kreisfreie_Stadt"},"federalState":{"key":"09","name":"Bayern"}},{"name":"Hafnergraben","postalCode":"86830","locality":"Schwabmünchen","municipality":{"key":"09772200","name":"Schwabmünchen, St","type":"Stadt"},"district":{"key":"09772","name":"Augsburg","type":"Landkreis"},"federalState":{"key":"09","name":"Bayern"}},{"name":"Hagbügerl","postalCode":"93449","locality":"Waldmünchen","municipality":{"key":"09372171","name":"Waldmünchen, St","type":"Stadt"},"district":{"key":"09372","name":"Cham","type":"Landkreis"},"federalState":{"key":"09","name":"Bayern"}},{"name":"Hagedornstr.","postalCode":"80804","locality":"München","municipality":{"key":"09162000","name":"München, Landeshauptstadt","type":"Kreisfreie_Stadt"},"district":{"key":"09162","name":"München, Landeshauptstadt","type":"Kreisfreie_Stadt"},"federalState":{"key":"09","name":"Bayern"}},{"name":"Hagelstangestr.","postalCode":"81927","locality":"München","municipality":{"key":"09162000","name":"München, Landeshauptstadt","type":"Kreisfreie_Stadt"},"district":{"key":"09162","name":"München, Landeshauptstadt","type":"Kreisfreie_Stadt"},"federalState":{"key":"09","name":"Bayern"}},{"name":"Hagenauerstr.","postalCode":"81479","locality":"München","municipality":{"key":"09162000","name":"München, Landeshauptstadt","type":"Kreisfreie_Stadt"},"district":{"key":"09162","name":"München, Landeshauptstadt","type":"Kreisfreie_Stadt"},"federalState":{"key":"09","name":"Bayern"}},{"name":"Hagenbacher Str.","postalCode":"81243","locality":"München","municipality":{"key":"09162000","name":"München, Landeshauptstadt","type":"Kreisfreie_Stadt"},"district":{"key":"09162","name":"München, Landeshauptstadt","type":"Kreisfreie_Stadt"},"federalState":{"key":"09","name":"Bayern"}},{"name":"Haggenmillerstr.","postalCode":"80809","locality":"München","municipality":{"key":"09162000","name":"München, Landeshauptstadt","type":"Kreisfreie_Stadt"},"district":{"key":"09162","name":"München, Landeshauptstadt","type":"Kreisfreie_Stadt"},"federalState":{"key":"09","name":"Bayern"}},{"name":"Häherweg","postalCode":"81827","locality":"München","municipality":{"key":"09162000","name":"München, Landeshauptstadt","type":"Kreisfreie_Stadt"},"district":{"key":"09162","name":"München, Landeshauptstadt","type":"Kreisfreie_Stadt"},"federalState":{"key":"09","name":"Bayern"}},{"name":"Hahndorfer Str.","postalCode":"81377","locality":"München","municipality":{"key":"09162000","name":"München, Landeshauptstadt","type":"Kreisfreie_Stadt"},"district":{"key":"09162","name":"München, Landeshauptstadt","type":"Kreisfreie_Stadt"},"federalState":{"key":"09","name":"Bayern"}},{"name":"Hahnemannstr.","postalCode":"80999","locality":"München","municipality":{"key":"09162000","name":"München, Landeshauptstadt","type":"Kreisfreie_Stadt"},"district":{"key":"09162","name":"München, Landeshauptstadt","type":"Kreisfreie_Stadt"},"federalState":{"key":"09","name":"Bayern"}},{"name":"Hahnenstr.","postalCode":"80539","locality":"München","municipality":{"key":"09162000","name":"München, Landeshauptstadt","type":"Kreisfreie_Stadt"},"district":{"key":"09162","name":"München, Landeshauptstadt","type":"Kreisfreie_Stadt"},"federalState":{"key":"09","name":"Bayern"}},{"name":"Haidelweg","postalCode":"81241","locality":"München","municipality":{"key":"09162000","name":"München, Landeshauptstadt","type":"Kreisfreie_Stadt"},"district":{"key":"09162","name":"München, Landeshauptstadt","type":"Kreisfreie_Stadt"},"federalState":{"key":"09","name":"Bayern"}},{"name":"Haidenaupark","postalCode":"81667","locality":"München","municipality":{"key":"09162000","name":"München, Landeshauptstadt","type":"Kreisfreie_Stadt"},"district":{"key":"09162","name":"München, Landeshauptstadt","type":"Kreisfreie_Stadt"},"federalState":{"key":"09","name":"Bayern"}},{"name":"Haidenauplatz","postalCode":"81667","locality":"München","municipality":{"key":"09162000","name":"München, Landeshauptstadt","type":"Kreisfreie_Stadt"},"district":{"key":"09162","name":"München, Landeshauptstadt","type":"Kreisfreie_Stadt"},"federalState":{"key":"09","name":"Bayern"}},{"name":"Haidhauser Str.","postalCode":"81675","locality":"München","municipality":{"key":"09162000","name":"München, Landeshauptstadt","type":"Kreisfreie_Stadt"},"district":{"key":"09162","name":"München, Landeshauptstadt","type":"Kreisfreie_Stadt"},"federalState":{"key":"09","name":"Bayern"}},{"name":"Haidlinger Weg","postalCode":"85567","locality":"Grafing bei München","municipality":{"key":"09175122","name":"Grafing b.München, St","type":"Stadt"},"district":{"key":"09175","name":"Ebersberg","type":"Landkreis"},"federalState":{"key":"09","name":"Bayern"}},{"name":"Haimhauserstr.","postalCode":"80802","locality":"München","municipality":{"key":"09162000","name":"München, Landeshauptstadt","type":"Kreisfreie_Stadt"},"district":{"key":"09162","name":"München, Landeshauptstadt","type":"Kreisfreie_Stadt"},"federalState":{"key":"09","name":"Bayern"}},{"name":"Hainbuchenstr.","postalCode":"80935","locality":"München","municipality":{"key":"09162000","name":"München, Landeshauptstadt","type":"Kreisfreie_Stadt"},"district":{"key":"09162","name":"München, Landeshauptstadt","type":"Kreisfreie_Stadt"},"federalState":{"key":"09","name":"Bayern"}},{"name":"Hainstr.","postalCode":"86830","locality":"Schwabmünchen","municipality":{"key":"09772200","name":"Schwabmünchen, St","type":"Stadt"},"district":{"key":"09772","name":"Augsburg","type":"Landkreis"},"federalState":{"key":"09","name":"Bayern"}},{"name":"Halbigstr.","postalCode":"81543","locality":"München","municipality":{"key":"09162000","name":"München, Landeshauptstadt","type":"Kreisfreie_Stadt"},"district":{"key":"09162","name":"München, Landeshauptstadt","type":"Kreisfreie_Stadt"},"federalState":{"key":"09","name":"Bayern"}},{"name":"Hälblingweg","postalCode":"81825","locality":"München","municipality":{"key":"09162000","name":"München, Landeshauptstadt","type":"Kreisfreie_Stadt"},"district":{"key":"09162","name":"München, Landeshauptstadt","type":"Kreisfreie_Stadt"},"federalState":{"key":"09","name":"Bayern"}},{"name":"Halbreiterstr.","postalCode":"81479","locality":"München","municipality":{"key":"09162000","name":"München, Landeshauptstadt","type":"Kreisfreie_Stadt"},"district":{"key":"09162","name":"München, Landeshauptstadt","type":"Kreisfreie_Stadt"},"federalState":{"key":"09","name":"Bayern"}},{"name":"Haldenbergerstr.","postalCode":"80997","locality":"München","municipality":{"key":"09162000","name":"München, Landeshauptstadt","type":"Kreisfreie_Stadt"},"district":{"key":"09162","name":"München, Landeshauptstadt","type":"Kreisfreie_Stadt"},"federalState":{"key":"09","name":"Bayern"}},{"name":"Haldenseestr.","postalCode":"81671","locality":"München","municipality":{"key":"09162000","name":"München, Landeshauptstadt","type":"Kreisfreie_Stadt"},"district":{"key":"09162","name":"München, Landeshauptstadt","type":"Kreisfreie_Stadt"},"federalState":{"key":"09","name":"Bayern"}},{"name":"Halfinger Str.","postalCode":"81825","locality":"München","municipality":{"key":"09162000","name":"München, Landeshauptstadt","type":"Kreisfreie_Stadt"},"district":{"key":"09162","name":"München, Landeshauptstadt","type":"Kreisfreie_Stadt"},"federalState":{"key":"09","name":"Bayern"}},{"name":"Halleiner Str.","postalCode":"81825","locality":"München","municipality":{"key":"09162000","name":"München, Landeshauptstadt","type":"Kreisfreie_Stadt"},"district":{"key":"09162","name":"München, Landeshauptstadt","type":"Kreisfreie_Stadt"},"federalState":{"key":"09","name":"Bayern"}},{"name":"Iblherstr.","postalCode":"81739","locality":"München","municipality":{"key":"09162000","name":"München, Landeshauptstadt","type":"Kreisfreie_Stadt"},"district":{"key":"09162","name":"München, Landeshauptstadt","type":"Kreisfreie_Stadt"},"federalState":{"key":"09","name":"Bayern"}},{"name":"Ichostr.","postalCode":"81541","locality":"München","municipality":{"key":"09162000","name":"München, Landeshauptstadt","type":"Kreisfreie_Stadt"},"district":{"key":"09162","name":"München, Landeshauptstadt","type":"Kreisfreie_Stadt"},"federalState":{"key":"09","name":"Bayern"}},{"name":"Ickelsamerstr.","postalCode":"81825","locality":"München","municipality":{"key":"09162000","name":"München, Landeshauptstadt","type":"Kreisfreie_Stadt"},"district":{"key":"09162","name":"München, Landeshauptstadt","type":"Kreisfreie_Stadt"},"federalState":{"key":"09","name":"Bayern"}},{"name":"Ickstattstr.","postalCode":"80469","locality":"München","municipality":{"key":"09162000","name":"München, Landeshauptstadt","type":"Kreisfreie_Stadt"},"district":{"key":"09162","name":"München, Landeshauptstadt","type":"Kreisfreie_Stadt"},"federalState":{"key":"09","name":"Bayern"}},{"name":"Ida-Pfeiffer-Str.","postalCode":"81929","locality":"München","municipality":{"key":"09162000","name":"München, Landeshauptstadt","type":"Kreisfreie_Stadt"},"district":{"key":"09162","name":"München, Landeshauptstadt","type":"Kreisfreie_Stadt"},"federalState":{"key":"09","name":"Bayern"}},{"name":"Ida-Schumacher-Weg","postalCode":"80689","locality":"München","municipality":{"key":"09162000","name":"München, Landeshauptstadt","type":"Kreisfreie_Stadt"},"district":{"key":"09162","name":"München, Landeshauptstadt","type":"Kreisfreie_Stadt"},"federalState":{"key":"09","name":"Bayern"}},{"name":"Idastr.","postalCode":"81479","locality":"München","municipality":{"key":"09162000","name":"München, Landeshauptstadt","type":"Kreisfreie_Stadt"},"district":{"key":"09162","name":"München, Landeshauptstadt","type":"Kreisfreie_Stadt"},"federalState":{"key":"09","name":"Bayern"}},{"name":"Iffeldorfer Str.","postalCode":"81379","locality":"München","municipality":{"key":"09162000","name":"München, Landeshauptstadt","type":"Kreisfreie_Stadt"},"district":{"key":"09162","name":"München, Landeshauptstadt","type":"Kreisfreie_Stadt"},"federalState":{"key":"09","name":"Bayern"}},{"name":"Ifflandstr.","postalCode":"80538","locality":"München","municipality":{"key":"09162000","name":"München, Landeshauptstadt","type":"Kreisfreie_Stadt"},"district":{"key":"09162","name":"München, Landeshauptstadt","type":"Kreisfreie_Stadt"},"federalState":{"key":"09","name":"Bayern"}},{"name":"Ignatius-Blenninger-Str.","postalCode":"80995","locality":"München","municipality":{"key":"09162000","name":"München, Landeshauptstadt","type":"Kreisfreie_Stadt"},"district":{"key":"09162","name":"München, Landeshauptstadt","type":"Kreisfreie_Stadt"},"federalState":{"key":"09","name":"Bayern"}},{"name":"Ignaz-Fuchs-Weg","postalCode":"85567","locality":"Grafing bei München","municipality":{"key":"09175122","name":"Grafing b.München, St","type":"Stadt"},"district":{"key":"09175","name":"Ebersberg","type":"Landkreis"},"federalState":{"key":"09","name":"Bayern"}},{"name":"Ignaz-Günther-Str.","postalCode":"81927","locality":"München","municipality":{"key":"09162000","name":"München, Landeshauptstadt","type":"Kreisfreie_Stadt"},"district":{"key":"09162","name":"München, Landeshauptstadt","type":"Kreisfreie_Stadt"},"federalState":{"key":"09","name":"Bayern"}},{"name":"Ignaz-Perner-Str.","postalCode":"80638","locality":"München","municipality":{"key":"09162000","name":"München, Landeshauptstadt","type":"Kreisfreie_Stadt"},"district":{"key":"09162","name":"München, Landeshauptstadt","type":"Kreisfreie_Stadt"},"federalState":{"key":"09","name":"Bayern"}},{"name":"Ika-Freudenberg-Str.","postalCode":"81829","locality":"München","municipality":{"key":"09162000","name":"München, Landeshauptstadt","type":"Kreisfreie_Stadt"},"district":{"key":"09162","name":"München, Landeshauptstadt","type":"Kreisfreie_Stadt"},"federalState":{"key":"09","name":"Bayern"}},{"name":"Ilkastr.","postalCode":"81477","locality":"München","municipality":{"key":"09162000","name":"München, Landeshauptstadt","type":"Kreisfreie_Stadt"},"district":{"key":"09162","name":"München, Landeshauptstadt","type":"Kreisfreie_Stadt"},"federalState":{"key":"09","name":"Bayern"}},{"name":"Illingstr.","postalCode":"81379","locality":"München","municipality":{"key":"09162000","name":"München, Landeshauptstadt","type":"Kreisfreie_Stadt"},"district":{"key":"09162","name":"München, Landeshauptstadt","type":"Kreisfreie_Stadt"},"federalState":{"key":"09","name":"Bayern"}},{"name":"Illungshofstr.","postalCode":"80807","locality":"München","municipality":{"key":"09162000","name":"München, Landeshauptstadt","type":"Kreisfreie_Stadt"},"district":{"key":"09162","name":"München, Landeshauptstadt","type":"Kreisfreie_Stadt"},"federalState":{"key":"09","name":"Bayern"}},{"name":"Ilmmünsterstr.","postalCode":"80686","locality":"München","municipality":{"key":"09162000","name":"München, Landeshauptstadt","type":"Kreisfreie_Stadt"},"district":{"key":"09162","name":"München, Landeshauptstadt","type":"Kreisfreie_Stadt"},"federalState":{"key":"09","name":"Bayern"}},{"name":"Ilmstr.","postalCode":"81829","locality":"München","municipality":{"key":"09162000","name":"München, Landeshauptstadt","type":"Kreisfreie_Stadt"},"district":{"key":"09162","name":"München, Landeshauptstadt","type":"Kreisfreie_Stadt"},"federalState":{"key":"09","name":"Bayern"}},{"name":"Ilse-Fehling-Str.","postalCode":"81245","locality":"München","municipality":{"key":"09162000","name":"München, Landeshauptstadt","type":"Kreisfreie_Stadt"},"district":{"key":"09162","name":"München, Landeshauptstadt","type":"Kreisfreie_Stadt"},"federalState":{"key":"09","name":"Bayern"}},{"name":"Ilse-Weber-Str.","postalCode":"80686","locality":"München","municipality":{"key":"09162000","name":"München, Landeshauptstadt","type":"Kreisfreie_Stadt"},"district":{"key":"09162","name":"München, Landeshauptstadt","type":"Kreisfreie_Stadt"},"federalState":{"key":"09","name":"Bayern"}},{"name":"Iltisstr.","postalCode":"81827","locality":"München","municipality":{"key":"09162000","name":"München, Landeshauptstadt","type":"Kreisfreie_Stadt"},"district":{"key":"09162","name":"München, Landeshauptstadt","type":"Kreisfreie_Stadt"},"federalState":{"key":"09","name":"Bayern"}},{"name":"Im Eichgehölz","postalCode":"80997","locality":"München","municipality":{"key":"09162000","name":"München, Landeshauptstadt","type":"Kreisfreie_Stadt"},"district":{"key":"09162","name":"München, Landeshauptstadt","type":"Kreisfreie_Stadt"},"federalState":{"key":"09","name":"Bayern"}},{"name":"Im Gefilde","postalCode":"81739","locality":"München","municipality":{"key":"09162000","name":"München, Landeshauptstadt","type":"Kreisfreie_Stadt"},"district":{"key":"09162","name":"München, Landeshauptstadt","type":"Kreisfreie_Stadt"},"federalState":{"key":"09","name":"Bayern"}},{"name":"Im Grund","postalCode":"80999","locality":"München","municipality":{"key":"09162000","name":"München, Landeshauptstadt","type":"Kreisfreie_Stadt"},"district":{"key":"09162","name":"München, Landeshauptstadt","type":"Kreisfreie_Stadt"},"federalState":{"key":"09","name":"Bayern"}},{"name":"Imhofstr.","postalCode":"80805","locality":"München","municipality":{"key":"09162000","name":"München, Landeshauptstadt","type":"Kreisfreie_Stadt"},"district":{"key":"09162","name":"München, Landeshauptstadt","type":"Kreisfreie_Stadt"},"federalState":{"key":"09","name":"Bayern"}},{"name":"Imhofstr.","postalCode":"86830","locality":"Schwabmünchen","municipality":{"key":"09772200","name":"Schwabmünchen, St","type":"Stadt"},"district":{"key":"09772","name":"Augsburg","type":"Landkreis"},"federalState":{"key":"09","name":"Bayern"}},{"name":"Imkerweg","postalCode":"81249","locality":"München","municipality":{"key":"09162000","name":"München, Landeshauptstadt","type":"Kreisfreie_Stadt"},"district":{"key":"09162","name":"München, Landeshauptstadt","type":"Kreisfreie_Stadt"},"federalState":{"key":"09","name":"Bayern"}},{"name":"Imma-Mack-Weg","postalCode":"81669","locality":"München","municipality":{"key":"09162000","name":"München, Landeshauptstadt","type":"Kreisfreie_Stadt"},"district":{"key":"09162","name":"München, Landeshauptstadt","type":"Kreisfreie_Stadt"},"federalState":{"key":"09","name":"Bayern"}},{"name":"Immastr.","postalCode":"81377","locality":"München","municipality":{"key":"09162000","name":"München, Landeshauptstadt","type":"Kreisfreie_Stadt"},"district":{"key":"09162","name":"München, Landeshauptstadt","type":"Kreisfreie_Stadt"},"federalState":{"key":"09","name":"Bayern"}},{"name":"Immenstadter Str.","postalCode":"81475","locality":"München","municipality":{"key":"09162000","name":"München, Landeshauptstadt","type":"Kreisfreie_Stadt"},"district":{"key":"09162","name":"München, Landeshauptstadt","type":"Kreisfreie_Stadt"},"federalState":{"key":"09","name":"Bayern"}},{"name":"Immergrünstr.","postalCode":"81547","locality":"München","municipality":{"key":"09162000","name":"München, Landeshauptstadt","type":"Kreisfreie_Stadt"},"district":{"key":"09162","name":"München, Landeshauptstadt","type":"Kreisfreie_Stadt"},"federalState":{"key":"09","name":"Bayern"}},{"name":"Immermannplatz","postalCode":"81247","locality":"München","municipality":{"key":"09162000","name":"München, Landeshauptstadt","type":"Kreisfreie_Stadt"},"district":{"key":"09162","name":"München, Landeshauptstadt","type":"Kreisfreie_Stadt"},"federalState":{"key":"09","name":"Bayern"}},{"name":"Im Moosgrund","postalCode":"81929","locality":"München","municipality":{"key":"09162000","name":"München, Landeshauptstadt","type":"Kreisfreie_Stadt"},"district":{"key":"09162","name":"München, Landeshauptstadt","type":"Kreisfreie_Stadt"},"federalState":{"key":"09","name":"Bayern"}},{"name":"Impenberg","postalCode":"85567","locality":"Grafing bei München","municipality":{"key":"09175122","name":"Grafing b.München, St","type":"Stadt"},"district":{"key":"09175","name":"Ebersberg","type":"Landkreis"},"federalState":{"key":"09","name":"Bayern"}},{"name":"Implerplatz","postalCode":"81371","locality":"München","municipality":{"key":"09162000","name":"München, Landeshauptstadt","type":"Kreisfreie_Stadt"},"district":{"key":"09162","name":"München, Landeshauptstadt","type":"Kreisfreie_Stadt"},"federalState":{"key":"09","name":"Bayern"}},{"name":"Implerstr.","postalCode":"80337","locality":"München","municipality":{"key":"09162000","name":"München, Landeshauptstadt","type":"Kreisfreie_Stadt"},"district":{"key":"09162","name":"München, Landeshauptstadt","type":"Kreisfreie_Stadt"},"federalState":{"key":"09","name":"Bayern"}},{"name":"Implerstr.","postalCode":"81371","locality":"München","municipality":{"key":"09162000","name":"München, Landeshauptstadt","type":"Kreisfreie_Stadt"},"district":{"key":"09162","name":"München, Landeshauptstadt","type":"Kreisfreie_Stadt"},"federalState":{"key":"09","name":"Bayern"}},{"name":"Im Schnecken","postalCode":"86830","locality":"Schwabmünchen","municipality":{"key":"09772200","name":"Schwabmünchen, St","type":"Stadt"},"district":{"key":"09772","name":"Augsburg","type":"Landkreis"},"federalState":{"key":"09","name":"Bayern"}},{"name":"Im Stocket","postalCode":"81249","locality":"München","municipality":{"key":"09162000","name":"München, Landeshauptstadt","type":"Kreisfreie_Stadt"},"district":{"key":"09162","name":"München, Landeshauptstadt","type":"Kreisfreie_Stadt"},"federalState":{"key":"09","name":"Bayern"}},{"name":"Im Wismat","postalCode":"81247","locality":"München","municipality":{"key":"09162000","name":"München, Landeshauptstadt","type":"Kreisfreie_Stadt"},"district":{"key":"09162","name":"München, Landeshauptstadt","type":"Kreisfreie_Stadt"},"federalState":{"key":"09","name":"Bayern"}},{"name":"Ina-Seidel-Bogen","postalCode":"81929","locality":"München","municipality":{"key":"09162000","name":"München, Landeshauptstadt","type":"Kreisfreie_Stadt"},"district":{"key":"09162","name":"München, Landeshauptstadt","type":"Kreisfreie_Stadt"},"federalState":{"key":"09","name":"Bayern"}},{"name":"In den Kirschen","postalCode":"80992","locality":"München","municipality":{"key":"09162000","name":"München, Landeshauptstadt","type":"Kreisfreie_Stadt"},"district":{"key":"09162","name":"München, Landeshauptstadt","type":"Kreisfreie_Stadt"},"federalState":{"key":"09","name":"Bayern"}},{"name":"In der Aue","postalCode":"86830","locality":"Schwabmünchen","municipality":{"key":"09772200","name":"Schwabmünchen, St","type":"Stadt"},"district":{"key":"09772","name":"Augsburg","type":"Landkreis"},"federalState":{"key":"09","name":"Bayern"}},{"name":"In der Heuluss","postalCode":"81827","locality":"München","municipality":{"key":"09162000","name":"München, Landeshauptstadt","type":"Kreisfreie_Stadt"},"district":{"key":"09162","name":"München, Landeshauptstadt","type":"Kreisfreie_Stadt"},"federalState":{"key":"09","name":"Bayern"}},{"name":"In der Rosenau","postalCode":"81829","locality":"München","municipality":{"key":"09162000","name":"München, Landeshauptstadt","type":"Kreisfreie_Stadt"},"district":{"key":"09162","name":"München, Landeshauptstadt","type":"Kreisfreie_Stadt"},"federalState":{"key":"09","name":"Bayern"}},{"name":"Inderstorferstr.","postalCode":"80689","locality":"München","municipality":{"key":"09162000","name":"München, Landeshauptstadt","type":"Kreisfreie_Stadt"},"district":{"key":"09162","name":"München, Landeshauptstadt","type":"Kreisfreie_Stadt"},"federalState":{"key":"09","name":"Bayern"}},{"name":"Industriestr.","postalCode":"81245","locality":"München","municipality":{"key":"09162000","name":"München, Landeshauptstadt","type":"Kreisfreie_Stadt"},"district":{"key":"09162","name":"München, Landeshauptstadt","type":"Kreisfreie_Stadt"},"federalState":{"key":"09","name":"Bayern"}},{"name":"Infanteriestr.","postalCode":"80797","locality":"München","municipality":{"key":"09162000","name":"München, Landeshauptstadt","type":"Kreisfreie_Stadt"},"district":{"key":"09162","name":"München, Landeshauptstadt","type":"Kreisfreie_Stadt"},"federalState":{"key":"09","name":"Bayern"}},{"name":"Ingeborg-Bachmann-Str.","postalCode":"81829","locality":"München","municipality":{"key":"09162000","name":"München, Landeshauptstadt","type":"Kreisfreie_Stadt"},"district":{"key":"09162","name":"München, Landeshauptstadt","type":"Kreisfreie_Stadt"},"federalState":{"key":"09","name":"Bayern"}},{"name":"Jubiläumsweg","postalCode":"82061","locality":"Forstenrieder Park","municipality":{"key":"09184452","name":"Forstenrieder Park","type":"Gemeindefreies_Gebiet_Unbewohnt"},"district":{"key":"09184","name":"München","type":"Landkreis"},"federalState":{"key":"09","name":"Bayern"}},{"name":"Karl-Geräumt","postalCode":"82061","locality":"Forstenrieder Park","municipality":{"key":"09184452","name":"Forstenrieder Park","type":"Gemeindefreies_Gebiet_Unbewohnt"},"district":{"key":"09184","name":"München","type":"Landkreis"},"federalState":{"key":"09","name":"Bayern"}},{"name":"Kraillinger Route","postalCode":"82061","locality":"Forstenrieder Park","municipality":{"key":"09184452","name":"Forstenrieder Park","type":"Gemeindefreies_Gebiet_Unbewohnt"},"district":{"key":"09184","name":"München","type":"Landkreis"},"federalState":{"key":"09","name":"Bayern"}},{"name":"Link Geräumt","postalCode":"82061","locality":"Forstenrieder Park","municipality":{"key":"09184452","name":"Forstenrieder Park","type":"Gemeindefreies_Gebiet_Unbewohnt"},"district":{"key":"09184","name":"München","type":"Landkreis"},"federalState":{"key":"09","name":"Bayern"}},{"name":"Ludwig Geräumt","postalCode":"82061","locality":"Forstenrieder Park","municipality":{"key":"09184452","name":"Forstenrieder Park","type":"Gemeindefreies_Gebiet_Unbewohnt"},"district":{"key":"09184","name":"München","type":"Landkreis"},"federalState":{"key":"09","name":"Bayern"}},{"name":"Ludwig-Geräumt","postalCode":"82061","locality":"Forstenrieder Park","municipality":{"key":"09184452","name":"Forstenrieder Park","type":"Gemeindefreies_Gebiet_Unbewohnt"},"district":{"key":"09184","name":"München","type":"Landkreis"},"federalState":{"key":"09","name":"Bayern"}},{"name":"Marien Geräumt","postalCode":"82061","locality":"Forstenrieder Park","municipality":{"key":"09184452","name":"Forstenrieder Park","type":"Gemeindefreies_Gebiet_Unbewohnt"},"district":{"key":"09184","name":"München","type":"Landkreis"},"federalState":{"key":"09","name":"Bayern"}},{"name":"Max-Josef-Geräumt","postalCode":"82061","locality":"Forstenrieder Park","municipality":{"key":"09184452","name":"Forstenrieder Park","type":"Gemeindefreies_Gebiet_Unbewohnt"},"district":{"key":"09184","name":"München","type":"Landkreis"},"federalState":{"key":"09","name":"Bayern"}},{"name":"Neuhauser-Weg","postalCode":"82061","locality":"Forstenrieder Park","municipality":{"key":"09184452","name":"Forstenrieder Park","type":"Gemeindefreies_Gebiet_Unbewohnt"},"district":{"key":"09184","name":"München","type":"Landkreis"},"federalState":{"key":"09","name":"Bayern"}},{"name":"Neurieder Straßl","postalCode":"82061","locality":"Forstenrieder Park","municipality":{"key":"09184452","name":"Forstenrieder Park","type":"Gemeindefreies_Gebiet_Unbewohnt"},"district":{"key":"09184","name":"München","type":"Landkreis"},"federalState":{"key":"09","name":"Bayern"}},{"name":"Neurieder Straßl/Trimm-dich-Pfad","postalCode":"82061","locality":"Forstenrieder Park","municipality":{"key":"09184452","name":"Forstenrieder Park","type":"Gemeindefreies_Gebiet_Unbewohnt"},"district":{"key":"09184","name":"München","type":"Landkreis"},"federalState":{"key":"09","name":"Bayern"}},{"name":"Oberdiller Str.","postalCode":"82061","locality":"Forstenrieder Park","municipality":{"key":"09184452","name":"Forstenrieder Park","type":"Gemeindefreies_Gebiet_Unbewohnt"},"district":{"key":"09184","name":"München","type":"Landkreis"},"federalState":{"key":"09","name":"Bayern"}},{"name":"Olympiastr.","postalCode":"82061","locality":"Forstenrieder Park","municipality":{"key":"09184452","name":"Forstenrieder Park","type":"Gemeindefreies_Gebiet_Unbewohnt"},"district":{"key":"09184","name":"München","type":"Landkreis"},"federalState":{"key":"09","name":"Bayern"}},{"name":"Ottertal Geräumt","postalCode":"82061","locality":"Forstenrieder Park","municipality":{"key":"09184452","name":"Forstenrieder Park","type":"Gemeindefreies_Gebiet_Unbewohnt"},"district":{"key":"09184","name":"München","type":"Landkreis"},"federalState":{"key":"09","name":"Bayern"}},{"name":"Preysing Geräumt","postalCode":"82061","locality":"Forstenrieder Park","municipality":{"key":"09184452","name":"Forstenrieder Park","type":"Gemeindefreies_Gebiet_Unbewohnt"},"district":{"key":"09184","name":"München","type":"Landkreis"},"federalState":{"key":"09","name":"Bayern"}},{"name":"Quagliostr.","postalCode":"81543","locality":"München","municipality":{"key":"09162000","name":"München, Landeshauptstadt","type":"Kreisfreie_Stadt"},"district":{"key":"09162","name":"München, Landeshauptstadt","type":"Kreisfreie_Stadt"},"federalState":{"key":"09","name":"Bayern"}},{"name":"Quedlinburger Str.","postalCode":"80992","locality":"München","municipality":{"key":"09162000","name":"München, Landeshauptstadt","type":"Kreisfreie_Stadt"},"district":{"key":"09162","name":"München, Landeshauptstadt","type":"Kreisfreie_Stadt"},"federalState":{"key":"09","name":"Bayern"}},{"name":"Quellweg","postalCode":"85551","locality":"Kirchheim bei München","municipality":{"key":"09184131","name":"Kirchheim b.München","type":"Kreisangehörige_Gemeinde"},"district":{"key":"09184","name":"München","type":"Landkreis"},"federalState":{"key":"09","name":"Bayern"}},{"name":"Queristr.","postalCode":"80689","locality":"München","municipality":{"key":"09162000","name":"München, Landeshauptstadt","type":"Kreisfreie_Stadt"},"district":{"key":"09162","name":"München, Landeshauptstadt","type":"Kreisfreie_Stadt"},"federalState":{"key":"09","name":"Bayern"}},{"name":"Querstr.","postalCode":"07589","locality":"Münchenbernsdorf","municipality":{"key":"16076049","name":"Münchenbernsdorf, Stadt","type":"Stadt"},"district":{"key":"16076","name":"Greiz","type":"Landkreis"},"federalState":{"key":"16","name":"Thüringen"}},{"name":"Quiddestr.","postalCode":"81735","locality":"München","municipality":{"key":"09162000","name":"München, Landeshauptstadt","type":"Kreisfreie_Stadt"},"district":{"key":"09162","name":"München, Landeshauptstadt","type":"Kreisfreie_Stadt"},"federalState":{"key":"09","name":"Bayern"}},{"name":"Quiddestr.","postalCode":"81737","locality":"München","municipality":{"key":"09162000","name":"München, Landeshauptstadt","type":"Kreisfreie_Stadt"},"district":{"key":"09162","name":"München, Landeshauptstadt","type":"Kreisfreie_Stadt"},"federalState":{"key":"09","name":"Bayern"}},{"name":"Römerstr.","postalCode":"82061","locality":"Forstenrieder Park","municipality":{"key":"09184452","name":"Forstenrieder Park","type":"Gemeindefreies_Gebiet_Unbewohnt"},"district":{"key":"09184","name":"München","type":"Landkreis"},"federalState":{"key":"09","name":"Bayern"}},{"name":"Spitzelbergweg","postalCode":"82061","locality":"Forstenrieder Park","municipality":{"key":"09184452","name":"Forstenrieder Park","type":"Gemeindefreies_Gebiet_Unbewohnt"},"district":{"key":"09184","name":"München","type":"Landkreis"},"federalState":{"key":"09","name":"Bayern"}},{"name":"Theresien Geräumt","postalCode":"82061","locality":"Forstenrieder Park","municipality":{"key":"09184452","name":"Forstenrieder Park","type":"Gemeindefreies_Gebiet_Unbewohnt"},"district":{"key":"09184","name":"München","type":"Landkreis"},"federalState":{"key":"09","name":"Bayern"}},{"name":"Theresien- Geräumt","postalCode":"82061","locality":"Forstenrieder Park","municipality":{"key":"09184452","name":"Forstenrieder Park","type":"Gemeindefreies_Gebiet_Unbewohnt"},"district":{"key":"09184","name":"München","type":"Landkreis"},"federalState":{"key":"09","name":"Bayern"}},{"name":"Trimm-dich-Pfad","postalCode":"82061","locality":"Forstenrieder Park","municipality":{"key":"09184452","name":"Forstenrieder Park","type":"Gemeindefreies_Gebiet_Unbewohnt"},"district":{"key":"09184","name":"München","type":"Landkreis"},"federalState":{"key":"09","name":"Bayern"}},{"name":"U6","postalCode":"85748","locality":"Garching bei München","municipality":{"key":"09184119","name":"Garching b.München, St","type":"Stadt"},"district":{"key":"09184","name":"München","type":"Landkreis"},"federalState":{"key":"09","name":"Bayern"}},{"name":"Ubostr.","postalCode":"81245","locality":"München","municipality":{"key":"09162000","name":"München, Landeshauptstadt","type":"Kreisfreie_Stadt"},"district":{"key":"09162","name":"München, Landeshauptstadt","type":"Kreisfreie_Stadt"},"federalState":{"key":"09","name":"Bayern"}},{"name":"Udalrichstr.","postalCode":"80933","locality":"München","municipality":{"key":"09162000","name":"München, Landeshauptstadt","type":"Kreisfreie_Stadt"},"district":{"key":"09162","name":"München, Landeshauptstadt","type":"Kreisfreie_Stadt"},"federalState":{"key":"09","name":"Bayern"}},{"name":"Uffinger Str.","postalCode":"81477","locality":"München","municipality":{"key":"09162000","name":"München, Landeshauptstadt","type":"Kreisfreie_Stadt"},"district":{"key":"09162","name":"München, Landeshauptstadt","type":"Kreisfreie_Stadt"},"federalState":{"key":"09","name":"Bayern"}},{"name":"Uhdestr.","postalCode":"81477","locality":"München","municipality":{"key":"09162000","name":"München, Landeshauptstadt","type":"Kreisfreie_Stadt"},"district":{"key":"09162","name":"München, Landeshauptstadt","type":"Kreisfreie_Stadt"},"federalState":{"key":"09","name":"Bayern"}},{"name":"Uhlandstr.","postalCode":"80336","locality":"München","municipality":{"key":"09162000","name":"München, Landeshauptstadt","type":"Kreisfreie_Stadt"},"district":{"key":"09162","name":"München, Landeshauptstadt","type":"Kreisfreie_Stadt"},"federalState":{"key":"09","name":"Bayern"}},{"name":"Ulfilasstr.","postalCode":"81739","locality":"München","municipality":{"key":"09162000","name":"München, Landeshauptstadt","type":"Kreisfreie_Stadt"},"district":{"key":"09162","name":"München, Landeshauptstadt","type":"Kreisfreie_Stadt"},"federalState":{"key":"09","name":"Bayern"}},{"name":"Ulmenstr.","postalCode":"81545","locality":"München","municipality":{"key":"09162000","name":"München, Landeshauptstadt","type":"Kreisfreie_Stadt"},"district":{"key":"09162","name":"München, Landeshauptstadt","type":"Kreisfreie_Stadt"},"federalState":{"key":"09","name":"Bayern"}},{"name":"Ulrich-Corti-Str.","postalCode":"81249","locality":"München","municipality":{"key":"09162000","name":"München, Landeshauptstadt","type":"Kreisfreie_Stadt"},"district":{"key":"09162","name":"München, Landeshauptstadt","type":"Kreisfreie_Stadt"},"federalState":{"key":"09","name":"Bayern"}},{"name":"Ulrich-Kortler-Weg","postalCode":"81241","locality":"München","municipality":{"key":"09162000","name":"München, Landeshauptstadt","type":"Kreisfreie_Stadt"},"district":{"key":"09162","name":"München, Landeshauptstadt","type":"Kreisfreie_Stadt"},"federalState":{"key":"09","name":"Bayern"}},{"name":"Ulrichsberg","postalCode":"86830","locality":"Schwabmünchen","municipality":{"key":"09772200","name":"Schwabmünchen, St","type":"Stadt"},"district":{"key":"09772","name":"Augsburg","type":"Landkreis"},"federalState":{"key":"09","name":"Bayern"}},{"name":"Ulrichsbergstr.","postalCode":"81673","locality":"München","municipality":{"key":"09162000","name":"München, Landeshauptstadt","type":"Kreisfreie_Stadt"},"district":{"key":"09162","name":"München, Landeshauptstadt","type":"Kreisfreie_Stadt"},"federalState":{"key":"09","name":"Bayern"}},{"name":"Ulrichsgrüner Str.","postalCode":"93449","locality":"Waldmünchen","municipality":{"key":"09372171","name":"Waldmünchen, St","type":"Stadt"},"district":{"key":"09372","name":"Cham","type":"Landkreis"},"federalState":{"key":"09","name":"Bayern"}},{"name":"Ulrich-von-Hutten-Str.","postalCode":"81739","locality":"München","municipality":{"key":"09162000","name":"München, Landeshauptstadt","type":"Kreisfreie_Stadt"},"district":{"key":"09162","name":"München, Landeshauptstadt","type":"Kreisfreie_Stadt"},"federalState":{"key":"09","name":"Bayern"}},{"name":"Umgehungsstr.","postalCode":"85748","locality":"Garching bei München","municipality":{"key":"09184119","name":"Garching b.München, St","type":"Stadt"},"district":{"key":"09184","name":"München","type":"Landkreis"},"federalState":{"key":"09","name":"Bayern"}},{"name":"Undinestr.","postalCode":"81927","locality":"München","municipality":{"key":"09162000","name":"München, Landeshauptstadt","type":"Kreisfreie_Stadt"},"district":{"key":"09162","name":"München, Landeshauptstadt","type":"Kreisfreie_Stadt"},"federalState":{"key":"09","name":"Bayern"}},{"name":"Unertlstr.","postalCode":"80803","locality":"München","municipality":{"key":"09162000","name":"München, Landeshauptstadt","type":"Kreisfreie_Stadt"},"district":{"key":"09162","name":"München, Landeshauptstadt","type":"Kreisfreie_Stadt"},"federalState":{"key":"09","name":"Bayern"}},{"name":"Ungererstr.","postalCode":"80802","locality":"München","municipality":{"key":"09162000","name":"München, Landeshauptstadt","type":"Kreisfreie_Stadt"},"district":{"key":"09162","name":"München, Landeshauptstadt","type":"Kreisfreie_Stadt"},"federalState":{"key":"09","name":"Bayern"}},{"name":"Ungererstr.","postalCode":"80805","locality":"München","municipality":{"key":"09162000","name":"München, Landeshauptstadt","type":"Kreisfreie_Stadt"},"district":{"key":"09162","name":"München, Landeshauptstadt","type":"Kreisfreie_Stadt"},"federalState":{"key":"09","name":"Bayern"}},{"name":"Ungsteiner Str.","postalCode":"81539","locality":"München","municipality":{"key":"09162000","name":"München, Landeshauptstadt","type":"Kreisfreie_Stadt"},"district":{"key":"09162","name":"München, Landeshauptstadt","type":"Kreisfreie_Stadt"},"federalState":{"key":"09","name":"Bayern"}},{"name":"Ungsteiner Str.","postalCode":"81541","locality":"München","municipality":{"key":"09162000","name":"München, Landeshauptstadt","type":"Kreisfreie_Stadt"},"district":{"key":"09162","name":"München, Landeshauptstadt","type":"Kreisfreie_Stadt"},"federalState":{"key":"09","name":"Bayern"}},{"name":"Unnützstr.","postalCode":"81825","locality":"München","municipality":{"key":"09162000","name":"München, Landeshauptstadt","type":"Kreisfreie_Stadt"},"district":{"key":"09162","name":"München, Landeshauptstadt","type":"Kreisfreie_Stadt"},"federalState":{"key":"09","name":"Bayern"}},{"name":"Unnützwiese","postalCode":"81825","locality":"München","municipality":{"key":"09162000","name":"München, Landeshauptstadt","type":"Kreisfreie_Stadt"},"district":{"key":"09162","name":"München, Landeshauptstadt","type":"Kreisfreie_Stadt"},"federalState":{"key":"09","name":"Bayern"}},{"name":"Unsöldstr.","postalCode":"80538","locality":"München","municipality":{"key":"09162000","name":"München, Landeshauptstadt","type":"Kreisfreie_Stadt"},"district":{"key":"09162","name":"München, Landeshauptstadt","type":"Kreisfreie_Stadt"},"federalState":{"key":"09","name":"Bayern"}},{"name":"Unteranger","postalCode":"85567","locality":"Grafing bei München","municipality":{"key":"09175122","name":"Grafing b.München, St","type":"Stadt"},"district":{"key":"09175","name":"Ebersberg","type":"Landkreis"},"federalState":{"key":"09","name":"Bayern"}},{"name":"Unterbiberger Str.","postalCode":"81737","locality":"München","municipality":{"key":"09162000","name":"München, Landeshauptstadt","type":"Kreisfreie_Stadt"},"district":{"key":"09162","name":"München, Landeshauptstadt","type":"Kreisfreie_Stadt"},"federalState":{"key":"09","name":"Bayern"}},{"name":"Unterbrunner Str.","postalCode":"81475","locality":"München","municipality":{"key":"09162000","name":"München, Landeshauptstadt","type":"Kreisfreie_Stadt"},"district":{"key":"09162","name":"München, Landeshauptstadt","type":"Kreisfreie_Stadt"},"federalState":{"key":"09","name":"Bayern"}},{"name":"Unter der Linde","postalCode":"80939","locality":"München","municipality":{"key":"09162000","name":"München, Landeshauptstadt","type":"Kreisfreie_Stadt"},"district":{"key":"09162","name":"München, Landeshauptstadt","type":"Kreisfreie_Stadt"},"federalState":{"key":"09","name":"Bayern"}},{"name":"Untere Allee","postalCode":"80997","locality":"München","municipality":{"key":"09162000","name":"München, Landeshauptstadt","type":"Kreisfreie_Stadt"},"district":{"key":"09162","name":"München, Landeshauptstadt","type":"Kreisfreie_Stadt"},"federalState":{"key":"09","name":"Bayern"}},{"name":"Untere Angerlohe","postalCode":"80997","locality":"München","municipality":{"key":"09162000","name":"München, Landeshauptstadt","type":"Kreisfreie_Stadt"},"district":{"key":"09162","name":"München, Landeshauptstadt","type":"Kreisfreie_Stadt"},"federalState":{"key":"09","name":"Bayern"}},{"name":"Untere Bachgasse","postalCode":"07589","locality":"Münchenbernsdorf","municipality":{"key":"16076049","name":"Münchenbernsdorf, Stadt","type":"Stadt"},"district":{"key":"16076","name":"Greiz","type":"Landkreis"},"federalState":{"key":"16","name":"Thüringen"}},{"name":"Untere Bräuhausstr.","postalCode":"93449","locality":"Waldmünchen","municipality":{"key":"09372171","name":"Waldmünchen, St","type":"Stadt"},"district":{"key":"09372","name":"Cham","type":"Landkreis"},"federalState":{"key":"09","name":"Bayern"}},{"name":"Untere Feldstr.","postalCode":"81675","locality":"München","municipality":{"key":"09162000","name":"München, Landeshauptstadt","type":"Kreisfreie_Stadt"},"district":{"key":"09162","name":"München, Landeshauptstadt","type":"Kreisfreie_Stadt"},"federalState":{"key":"09","name":"Bayern"}},{"name":"Untere Grasstr.","postalCode":"81541","locality":"München","municipality":{"key":"09162000","name":"München, Landeshauptstadt","type":"Kreisfreie_Stadt"},"district":{"key":"09162","name":"München, Landeshauptstadt","type":"Kreisfreie_Stadt"},"federalState":{"key":"09","name":"Bayern"}},{"name":"Untere Hausbreite","postalCode":"80939","locality":"München","municipality":{"key":"09162000","name":"München, Landeshauptstadt","type":"Kreisfreie_Stadt"},"district":{"key":"09162","name":"München, Landeshauptstadt","type":"Kreisfreie_Stadt"},"federalState":{"key":"09","name":"Bayern"}},{"name":"Untere Johannisstr.","postalCode":"81667","locality":"München","municipality":{"key":"09162000","name":"München, Landeshauptstadt","type":"Kreisfreie_Stadt"},"district":{"key":"09162","name":"München, Landeshauptstadt","type":"Kreisfreie_Stadt"},"federalState":{"key":"09","name":"Bayern"}},{"name":"Untere Krautstr.","postalCode":"80993","locality":"München","municipality":{"key":"09162000","name":"München, Landeshauptstadt","type":"Kreisfreie_Stadt"},"district":{"key":"09162","name":"München, Landeshauptstadt","type":"Kreisfreie_Stadt"},"federalState":{"key":"09","name":"Bayern"}},{"name":"Untere Länge","postalCode":"80939","locality":"München","municipality":{"key":"09162000","name":"München, Landeshauptstadt","type":"Kreisfreie_Stadt"},"district":{"key":"09162","name":"München, Landeshauptstadt","type":"Kreisfreie_Stadt"},"federalState":{"key":"09","name":"Bayern"}},{"name":"Untere Mühlstr.","postalCode":"80999","locality":"München","municipality":{"key":"09162000","name":"München, Landeshauptstadt","type":"Kreisfreie_Stadt"},"district":{"key":"09162","name":"München, Landeshauptstadt","type":"Kreisfreie_Stadt"},"federalState":{"key":"09","name":"Bayern"}},{"name":"Unterer Anger","postalCode":"80331","locality":"München","municipality":{"key":"09162000","name":"München, Landeshauptstadt","type":"Kreisfreie_Stadt"},"district":{"key":"09162","name":"München, Landeshauptstadt","type":"Kreisfreie_Stadt"},"federalState":{"key":"09","name":"Bayern"}},{"name":"Untere Rieselstr.","postalCode":"93449","locality":"Waldmünchen","municipality":{"key":"09372171","name":"Waldmünchen, St","type":"Stadt"},"district":{"key":"09372","name":"Cham","type":"Landkreis"},"federalState":{"key":"09","name":"Bayern"}},{"name":"Unterer Trathweg","postalCode":"93449","locality":"Waldmünchen","municipality":{"key":"09372171","name":"Waldmünchen, St","type":"Stadt"},"district":{"key":"09372","name":"Cham","type":"Landkreis"},"federalState":{"key":"09","name":"Bayern"}},{"name":"Untere Straßäcker","postalCode":"85748","locality":"Garching bei München","municipality":{"key":"09184119","name":"Garching b.München, St","type":"Stadt"},"district":{"key":"09184","name":"München","type":"Landkreis"},"federalState":{"key":"09","name":"Bayern"}},{"name":"Untere Weidenstr.","postalCode":"81543","locality":"München","municipality":{"key":"09162000","name":"München, Landeshauptstadt","type":"Kreisfreie_Stadt"},"district":{"key":"09162","name":"München, Landeshauptstadt","type":"Kreisfreie_Stadt"},"federalState":{"key":"09","name":"Bayern"}},{"name":"Untere Zell","postalCode":"93449","locality":"Waldmünchen","municipality":{"key":"09372171","name":"Waldmünchen, St","type":"Stadt"},"district":{"key":"09372","name":"Cham","type":"Landkreis"},"federalState":{"key":"09","name":"Bayern"}},{"name":"Unterhachinger Str.","postalCode":"81737","locality":"München","municipality":{"key":"09162000","name":"München, Landeshauptstadt","type":"Kreisfreie_Stadt"},"district":{"key":"09162","name":"München, Landeshauptstadt","type":"Kreisfreie_Stadt"},"federalState":{"key":"09","name":"Bayern"}},{"name":"Unterhütte","postalCode":"93449","locality":"Waldmünchen","municipality":{"key":"09372171","name":"Waldmünchen, St","type":"Stadt"},"district":{"key":"09372","name":"Cham","type":"Landkreis"},"federalState":{"key":"09","name":"Bayern"}},{"name":"Unterhüttener Str.","postalCode":"93449","locality":"Waldmünchen","municipality":{"key":"09372171","name":"Waldmünchen, St","type":"Stadt"},"district":{"key":"09372","name":"Cham","type":"Landkreis"},"federalState":{"key":"09","name":"Bayern"}},{"name":"Untermenzinger Str.","postalCode":"80997","locality":"München","municipality":{"key":"09162000","name":"München, Landeshauptstadt","type":"Kreisfreie_Stadt"},"district":{"key":"09162","name":"München, Landeshauptstadt","type":"Kreisfreie_Stadt"},"federalState":{"key":"09","name":"Bayern"}},{"name":"Untermühlanger","postalCode":"80995","locality":"München","municipality":{"key":"09162000","name":"München, Landeshauptstadt","type":"Kreisfreie_Stadt"},"district":{"key":"09162","name":"München, Landeshauptstadt","type":"Kreisfreie_Stadt"},"federalState":{"key":"09","name":"Bayern"}},{"name":"Vahrner Str.","postalCode":"81545","locality":"München","municipality":{"key":"09162000","name":"München, Landeshauptstadt","type":"Kreisfreie_Stadt"},"district":{"key":"09162","name":"München, Landeshauptstadt","type":"Kreisfreie_Stadt"},"federalState":{"key":"09","name":"Bayern"}},{"name":"Valeppstr.","postalCode":"81539","locality":"München","municipality":{"key":"09162000","name":"München, Landeshauptstadt","type":"Kreisfreie_Stadt"},"district":{"key":"09162","name":"München, Landeshauptstadt","type":"Kreisfreie_Stadt"},"federalState":{"key":"09","name":"Bayern"}},{"name":"Vallettastr.","postalCode":"81829","locality":"München","municipality":{"key":"09162000","name":"München, Landeshauptstadt","type":"Kreisfreie_Stadt"},"district":{"key":"09162","name":"München, Landeshauptstadt","type":"Kreisfreie_Stadt"},"federalState":{"key":"09","name":"Bayern"}},{"name":"Valleyplatz","postalCode":"81371","locality":"München","municipality":{"key":"09162000","name":"München, Landeshauptstadt","type":"Kreisfreie_Stadt"},"district":{"key":"09162","name":"München, Landeshauptstadt","type":"Kreisfreie_Stadt"},"federalState":{"key":"09","name":"Bayern"}},{"name":"Valleystr.","postalCode":"81371","locality":"München","municipality":{"key":"09162000","name":"München, Landeshauptstadt","type":"Kreisfreie_Stadt"},"district":{"key":"09162","name":"München, Landeshauptstadt","type":"Kreisfreie_Stadt"},"federalState":{"key":"09","name":"Bayern"}},{"name":"Valpichlerstr.","postalCode":"80686","locality":"München","municipality":{"key":"09162000","name":"München, Landeshauptstadt","type":"Kreisfreie_Stadt"},"district":{"key":"09162","name":"München, Landeshauptstadt","type":"Kreisfreie_Stadt"},"federalState":{"key":"09","name":"Bayern"}},{"name":"Valpichlerstr.","postalCode":"80689","locality":"München","municipality":{"key":"09162000","name":"München, Landeshauptstadt","type":"Kreisfreie_Stadt"},"district":{"key":"09162","name":"München, Landeshauptstadt","type":"Kreisfreie_Stadt"},"federalState":{"key":"09","name":"Bayern"}},{"name":"Vandalenstr.","postalCode":"81925","locality":"München","municipality":{"key":"09162000","name":"München, Landeshauptstadt","type":"Kreisfreie_Stadt"},"district":{"key":"09162","name":"München, Landeshauptstadt","type":"Kreisfreie_Stadt"},"federalState":{"key":"09","name":"Bayern"}},{"name":"Van-Eyck-Str.","postalCode":"81735","locality":"München","municipality":{"key":"09162000","name":"München, Landeshauptstadt","type":"Kreisfreie_Stadt"},"district":{"key":"09162","name":"München, Landeshauptstadt","type":"Kreisfreie_Stadt"},"federalState":{"key":"09","name":"Bayern"}},{"name":"Van-Gogh-Str.","postalCode":"81479","locality":"München","municipality":{"key":"09162000","name":"München, Landeshauptstadt","type":"Kreisfreie_Stadt"},"district":{"key":"09162","name":"München, Landeshauptstadt","type":"Kreisfreie_Stadt"},"federalState":{"key":"09","name":"Bayern"}},{"name":"Varnhagenstr.","postalCode":"81241","locality":"München","municipality":{"key":"09162000","name":"München, Landeshauptstadt","type":"Kreisfreie_Stadt"},"district":{"key":"09162","name":"München, Landeshauptstadt","type":"Kreisfreie_Stadt"},"federalState":{"key":"09","name":"Bayern"}},{"name":"Vazaninistr.","postalCode":"85567","locality":"Grafing bei München","municipality":{"key":"09175122","name":"Grafing b.München, St","type":"Stadt"},"district":{"key":"09175","name":"Ebersberg","type":"Landkreis"},"federalState":{"key":"09","name":"Bayern"}},{"name":"Veilchenstr.","postalCode":"80689","locality":"München","municipality":{"key":"09162000","name":"München, Landeshauptstadt","type":"Kreisfreie_Stadt"},"district":{"key":"09162","name":"München, Landeshauptstadt","type":"Kreisfreie_Stadt"},"federalState":{"key":"09","name":"Bayern"}},{"name":"Veilchenweg","postalCode":"85551","locality":"Kirchheim bei München","municipality":{"key":"09184131","name":"Kirchheim b.München","type":"Kreisangehörige_Gemeinde"},"district":{"key":"09184","name":"München","type":"Landkreis"},"federalState":{"key":"09","name":"Bayern"}},{"name":"Veit-Pogner-Str.","postalCode":"81927","locality":"München","municipality":{"key":"09162000","name":"München, Landeshauptstadt","type":"Kreisfreie_Stadt"},"district":{"key":"09162","name":"München, Landeshauptstadt","type":"Kreisfreie_Stadt"},"federalState":{"key":"09","name":"Bayern"}},{"name":"Veitshöchheimer Weg","postalCode":"81243","locality":"München","municipality":{"key":"09162000","name":"München, Landeshauptstadt","type":"Kreisfreie_Stadt"},"district":{"key":"09162","name":"München, Landeshauptstadt","type":"Kreisfreie_Stadt"},"federalState":{"key":"09","name":"Bayern"}},{"name":"Veit-Stoß-Str.","postalCode":"80687","locality":"München","municipality":{"key":"09162000","name":"München, Landeshauptstadt","type":"Kreisfreie_Stadt"},"district":{"key":"09162","name":"München, Landeshauptstadt","type":"Kreisfreie_Stadt"},"federalState":{"key":"09","name":"Bayern"}},{"name":"Veldener Str.","postalCode":"81241","locality":"München","municipality":{"key":"09162000","name":"München, Landeshauptstadt","type":"Kreisfreie_Stadt"},"district":{"key":"09162","name":"München, Landeshauptstadt","type":"Kreisfreie_Stadt"},"federalState":{"key":"09","name":"Bayern"}},{"name":"Veldensteinstr.","postalCode":"81249","locality":"München","municipality":{"key":"09162000","name":"München, Landeshauptstadt","type":"Kreisfreie_Stadt"},"district":{"key":"09162","name":"München, Landeshauptstadt","type":"Kreisfreie_Stadt"},"federalState":{"key":"09","name":"Bayern"}},{"name":"Verdistr.","postalCode":"81245","locality":"München","municipality":{"key":"09162000","name":"München, Landeshauptstadt","type":"Kreisfreie_Stadt"},"district":{"key":"09162","name":"München, Landeshauptstadt","type":"Kreisfreie_Stadt"},"federalState":{"key":"09","name":"Bayern"}},{"name":"Verdistr.","postalCode":"81247","locality":"München","municipality":{"key":"09162000","name":"München, Landeshauptstadt","type":"Kreisfreie_Stadt"},"district":{"key":"09162","name":"München, Landeshauptstadt","type":"Kreisfreie_Stadt"},"federalState":{"key":"09","name":"Bayern"}},{"name":"Verhoevenstr.","postalCode":"81739","locality":"München","municipality":{"key":"09162000","name":"München, Landeshauptstadt","type":"Kreisfreie_Stadt"},"district":{"key":"09162","name":"München, Landeshauptstadt","type":"Kreisfreie_Stadt"},"federalState":{"key":"09","name":"Bayern"}},{"name":"Veronastr.","postalCode":"81735","locality":"München","municipality":{"key":"09162000","name":"München, Landeshauptstadt","type":"Kreisfreie_Stadt"},"district":{"key":"09162","name":"München, Landeshauptstadt","type":"Kreisfreie_Stadt"},"federalState":{"key":"09","name":"Bayern"}},{"name":"Veroneser Str.","postalCode":"81547","locality":"München","municipality":{"key":"09162000","name":"München, Landeshauptstadt","type":"Kreisfreie_Stadt"},"district":{"key":"09162","name":"München, Landeshauptstadt","type":"Kreisfreie_Stadt"},"federalState":{"key":"09","name":"Bayern"}},{"name":"Veronikastr.","postalCode":"81827","locality":"München","municipality":{"key":"09162000","name":"München, Landeshauptstadt","type":"Kreisfreie_Stadt"},"district":{"key":"09162","name":"München, Landeshauptstadt","type":"Kreisfreie_Stadt"},"federalState":{"key":"09","name":"Bayern"}},{"name":"Versailler Str.","postalCode":"81677","locality":"München","municipality":{"key":"09162000","name":"München, Landeshauptstadt","type":"Kreisfreie_Stadt"},"district":{"key":"09162","name":"München, Landeshauptstadt","type":"Kreisfreie_Stadt"},"federalState":{"key":"09","name":"Bayern"}},{"name":"Vesaliusstr.","postalCode":"80999","locality":"München","municipality":{"key":"09162000","name":"München, Landeshauptstadt","type":"Kreisfreie_Stadt"},"district":{"key":"09162","name":"München, Landeshauptstadt","type":"Kreisfreie_Stadt"},"federalState":{"key":"09","name":"Bayern"}},{"name":"Vestastr.","postalCode":"81249","locality":"München","municipality":{"key":"09162000","name":"München, Landeshauptstadt","type":"Kreisfreie_Stadt"},"district":{"key":"09162","name":"München, Landeshauptstadt","type":"Kreisfreie_Stadt"},"federalState":{"key":"09","name":"Bayern"}},{"name":"Veterinärstr.","postalCode":"80539","locality":"München","municipality":{"key":"09162000","name":"München, Landeshauptstadt","type":"Kreisfreie_Stadt"},"district":{"key":"09162","name":"München, Landeshauptstadt","type":"Kreisfreie_Stadt"},"federalState":{"key":"09","name":"Bayern"}},{"name":"Viebigplatz","postalCode":"80686","locality":"München","municipality":{"key":"09162000","name":"München, Landeshauptstadt","type":"Kreisfreie_Stadt"},"district":{"key":"09162","name":"München, Landeshauptstadt","type":"Kreisfreie_Stadt"},"federalState":{"key":"09","name":"Bayern"}},{"name":"Vierheiligstr.","postalCode":"81545","locality":"München","municipality":{"key":"09162000","name":"München, Landeshauptstadt","type":"Kreisfreie_Stadt"},"district":{"key":"09162","name":"München, Landeshauptstadt","type":"Kreisfreie_Stadt"},"federalState":{"key":"09","name":"Bayern"}},{"name":"Viktoriaplatz","postalCode":"80803","locality":"München","municipality":{"key":"09162000","name":"München, Landeshauptstadt","type":"Kreisfreie_Stadt"},"district":{"key":"09162","name":"München, Landeshauptstadt","type":"Kreisfreie_Stadt"},"federalState":{"key":"09","name":"Bayern"}},{"name":"Viktoriastr.","postalCode":"80803","locality":"München","municipality":{"key":"09162000","name":"München, Landeshauptstadt","type":"Kreisfreie_Stadt"},"district":{"key":"09162","name":"München, Landeshauptstadt","type":"Kreisfreie_Stadt"},"federalState":{"key":"09","name":"Bayern"}},{"name":"Viktor-Scheffel-Str.","postalCode":"80803","locality":"München","municipality":{"key":"09162000","name":"München, Landeshauptstadt","type":"Kreisfreie_Stadt"},"district":{"key":"09162","name":"München, Landeshauptstadt","type":"Kreisfreie_Stadt"},"federalState":{"key":"09","name":"Bayern"}},{"name":"Viktor-von-Scheffel-Str.","postalCode":"86830","locality":"Schwabmünchen","municipality":{"key":"09772200","name":"Schwabmünchen, St","type":"Stadt"},"district":{"key":"09772","name":"Augsburg","type":"Landkreis"},"federalState":{"key":"09","name":"Bayern"}},{"name":"Viktualienmarkt","postalCode":"80331","locality":"München","municipality":{"key":"09162000","name":"München, Landeshauptstadt","type":"Kreisfreie_Stadt"},"district":{"key":"09162","name":"München, Landeshauptstadt","type":"Kreisfreie_Stadt"},"federalState":{"key":"09","name":"Bayern"}},{"name":"Viktualienmarktpassage","postalCode":"80331","locality":"München","municipality":{"key":"09162000","name":"München, Landeshauptstadt","type":"Kreisfreie_Stadt"},"district":{"key":"09162","name":"München, Landeshauptstadt","type":"Kreisfreie_Stadt"},"federalState":{"key":"09","name":"Bayern"}},{"name":"Villacher Str.","postalCode":"80687","locality":"München","municipality":{"key":"09162000","name":"München, Landeshauptstadt","type":"Kreisfreie_Stadt"},"district":{"key":"09162","name":"München, Landeshauptstadt","type":"Kreisfreie_Stadt"},"federalState":{"key":"09","name":"Bayern"}},{"name":"Vilniusstr.","postalCode":"80992","locality":"München","municipality":{"key":"09162000","name":"München, Landeshauptstadt","type":"Kreisfreie_Stadt"},"district":{"key":"09162","name":"München, Landeshauptstadt","type":"Kreisfreie_Stadt"},"federalState":{"key":"09","name":"Bayern"}},{"name":"Vilshofener Str.","postalCode":"81679","locality":"München","municipality":{"key":"09162000","name":"München, Landeshauptstadt","type":"Kreisfreie_Stadt"},"district":{"key":"09162","name":"München, Landeshauptstadt","type":"Kreisfreie_Stadt"},"federalState":{"key":"09","name":"Bayern"}},{"name":"Vingerstr.","postalCode":"81375","locality":"München","municipality":{"key":"09162000","name":"München, Landeshauptstadt","type":"Kreisfreie_Stadt"},"district":{"key":"09162","name":"München, Landeshauptstadt","type":"Kreisfreie_Stadt"},"federalState":{"key":"09","name":"Bayern"}},{"name":"Vintschgauer Str.","postalCode":"81547","locality":"München","municipality":{"key":"09162000","name":"München, Landeshauptstadt","type":"Kreisfreie_Stadt"},"district":{"key":"09162","name":"München, Landeshauptstadt","type":"Kreisfreie_Stadt"},"federalState":{"key":"09","name":"Bayern"}},{"name":"Vinzenz-Schüpfer-Str.","postalCode":"81475","locality":"München","municipality":{"key":"09162000","name":"München, Landeshauptstadt","type":"Kreisfreie_Stadt"},"district":{"key":"09162","name":"München, Landeshauptstadt","type":"Kreisfreie_Stadt"},"federalState":{"key":"09","name":"Bayern"}},{"name":"Vinzenz-von-Paul-Str.","postalCode":"81671","locality":"München","municipality":{"key":"09162000","name":"München, Landeshauptstadt","type":"Kreisfreie_Stadt"},"district":{"key":"09162","name":"München, Landeshauptstadt","type":"Kreisfreie_Stadt"},"federalState":{"key":"09","name":"Bayern"}},{"name":"Violenstr.","postalCode":"80689","locality":"München","municipality":{"key":"09162000","name":"München, Landeshauptstadt","type":"Kreisfreie_Stadt"},"district":{"key":"09162","name":"München, Landeshauptstadt","type":"Kreisfreie_Stadt"},"federalState":{"key":"09","name":"Bayern"}},{"name":"Virgilstr.","postalCode":"81673","locality":"München","municipality":{"key":"09162000","name":"München, Landeshauptstadt","type":"Kreisfreie_Stadt"},"district":{"key":"09162","name":"München, Landeshauptstadt","type":"Kreisfreie_Stadt"},"federalState":{"key":"09","name":"Bayern"}},{"name":"Viscardihof","postalCode":"80333","locality":"München","municipality":{"key":"09162000","name":"München, Landeshauptstadt","type":"Kreisfreie_Stadt"},"district":{"key":"09162","name":"München, Landeshauptstadt","type":"Kreisfreie_Stadt"},"federalState":{"key":"09","name":"Bayern"}},{"name":"Vogelanger","postalCode":"81477","locality":"München","municipality":{"key":"09162000","name":"München, Landeshauptstadt","type":"Kreisfreie_Stadt"},"district":{"key":"09162","name":"München, Landeshauptstadt","type":"Kreisfreie_Stadt"},"federalState":{"key":"09","name":"Bayern"}},{"name":"Vogelbeerenweg","postalCode":"85551","locality":"Kirchheim bei München","municipality":{"key":"09184131","name":"Kirchheim b.München","type":"Kreisangehörige_Gemeinde"},"district":{"key":"09184","name":"München","type":"Landkreis"},"federalState":{"key":"09","name":"Bayern"}},{"name":"Vogelhartstr.","postalCode":"80807","locality":"München","municipality":{"key":"09162000","name":"München, Landeshauptstadt","type":"Kreisfreie_Stadt"},"district":{"key":"09162","name":"München, Landeshauptstadt","type":"Kreisfreie_Stadt"},"federalState":{"key":"09","name":"Bayern"}},{"name":"Warnberger Weg","postalCode":"82061","locality":"Forstenrieder Park","municipality":{"key":"09184452","name":"Forstenrieder Park","type":"Gemeindefreies_Gebiet_Unbewohnt"},"district":{"key":"09184","name":"München","type":"Landkreis"},"federalState":{"key":"09","name":"Bayern"}},{"name":"Xaver-Weismor-Str.","postalCode":"81829","locality":"München","municipality":{"key":"09162000","name":"München, Landeshauptstadt","type":"Kreisfreie_Stadt"},"district":{"key":"09162","name":"München, Landeshauptstadt","type":"Kreisfreie_Stadt"},"federalState":{"key":"09","name":"Bayern"}},{"name":"Yorckstr.","postalCode":"80637","locality":"München","municipality":{"key":"09162000","name":"München, Landeshauptstadt","type":"Kreisfreie_Stadt"},"district":{"key":"09162","name":"München, Landeshauptstadt","type":"Kreisfreie_Stadt"},"federalState":{"key":"09","name":"Bayern"}},{"name":"Ysenburgstr.","postalCode":"80634","locality":"München","municipality":{"key":"09162000","name":"München, Landeshauptstadt","type":"Kreisfreie_Stadt"},"district":{"key":"09162","name":"München, Landeshauptstadt","type":"Kreisfreie_Stadt"},"federalState":{"key":"09","name":"Bayern"}},{"name":"Zyllnhard-Geräumt","postalCode":"82061","locality":"Forstenrieder Park","municipality":{"key":"09184452","name":"Forstenrieder Park","type":"Gemeindefreies_Gebiet_Unbewohnt"},"district":{"key":"09184","name":"München","type":"Landkreis"},"federalState":{"key":"09","name":"Bayern"}},{"name":"Zyllnhardt Geräumt","postalCode":"82061","locality":"Forstenrieder Park","municipality":{"key":"09184452","name":"Forstenrieder Park","type":"Gemeindefreies_Gebiet_Unbewohnt"},"district":{"key":"09184","name":"München","type":"Landkreis"},"federalState":{"key":"09","name":"Bayern"}},{"name":"Öcklweg","postalCode":"81369","locality":"München","municipality":{"key":"09162000","name":"München, Landeshauptstadt","type":"Kreisfreie_Stadt"},"district":{"key":"09162","name":"München, Landeshauptstadt","type":"Kreisfreie_Stadt"},"federalState":{"key":"09","name":"Bayern"}},{"name":"Öffentliche Grünanlage am Horst-Salzmann-Weg","postalCode":"81825","locality":"München","municipality":{"key":"09162000","name":"München, Landeshauptstadt","type":"Kreisfreie_Stadt"},"district":{"key":"09162","name":"München, Landeshauptstadt","type":"Kreisfreie_Stadt"},"federalState":{"key":"09","name":"Bayern"}},{"name":"Öffentliche Grünfläche Hochäckerstr.","postalCode":"81737","locality":"München","municipality":{"key":"09162000","name":"München, Landeshauptstadt","type":"Kreisfreie_Stadt"},"district":{"key":"09162","name":"München, Landeshauptstadt","type":"Kreisfreie_Stadt"},"federalState":{"key":"09","name":"Bayern"}},{"name":"Öffentlicher Garten am Kriegsarchiv","postalCode":"80636","locality":"München","municipality":{"key":"09162000","name":"München, Landeshauptstadt","type":"Kreisfreie_Stadt"},"district":{"key":"09162","name":"München, Landeshauptstadt","type":"Kreisfreie_Stadt"},"federalState":{"key":"09","name":"Bayern"}},{"name":"Ölbergstr.","postalCode":"93449","locality":"Waldmünchen","municipality":{"key":"09372171","name":"Waldmünchen, St","type":"Stadt"},"district":{"key":"09372","name":"Cham","type":"Landkreis"},"federalState":{"key":"09","name":"Bayern"}},{"name":"Ölbergweg","postalCode":"93449","locality":"Waldmünchen","municipality":{"key":"09372171","name":"Waldmünchen, St","type":"Stadt"},"district":{"key":"09372","name":"Cham","type":"Landkreis"},"federalState":{"key":"09","name":"Bayern"}},{"name":"Ötschmannweg","postalCode":"81369","locality":"München","municipality":{"key":"09162000","name":"München, Landeshauptstadt","type":"Kreisfreie_Stadt"},"district":{"key":"09162","name":"München, Landeshauptstadt","type":"Kreisfreie_Stadt"},"federalState":{"key":"09","name":"Bayern"}},{"name":"Öttlmairstr.","postalCode":"81737","locality":"München","municipality":{"key":"09162000","name":"München, Landeshauptstadt","type":"Kreisfreie_Stadt"},"district":{"key":"09162","name":"München, Landeshauptstadt","type":"Kreisfreie_Stadt"},"federalState":{"key":"09","name":"Bayern"}},{"name":"Über der Klause","postalCode":"81545","locality":"München","municipality":{"key":"09162000","name":"München, Landeshauptstadt","type":"Kreisfreie_Stadt"},"district":{"key":"09162","name":"München, Landeshauptstadt","type":"Kreisfreie_Stadt"},"federalState":{"key":"09","name":"Bayern"}},{"name":"Überlinger Weg","postalCode":"81243","locality":"München","municipality":{"key":"09162000","name":"München, Landeshauptstadt","type":"Kreisfreie_Stadt"},"district":{"key":"09162","name":"München, Landeshauptstadt","type":"Kreisfreie_Stadt"},"federalState":{"key":"09","name":"Bayern"}},{"name":"Überreiterstr.","postalCode":"81247","locality":"München","municipality":{"key":"09162000","name":"München, Landeshauptstadt","type":"Kreisfreie_Stadt"},"district":{"key":"09162","name":"München, Landeshauptstadt","type":"Kreisfreie_Stadt"},"federalState":{"key":"09","name":"Bayern"}},{"name":"Überreiterweg","postalCode":"85748","locality":"Garching bei München","municipality":{"key":"09184119","name":"Garching b.München, St","type":"Stadt"},"district":{"key":"09184","name":"München","type":"Landkreis"},"federalState":{"key":"09","name":"Bayern"}},{"name":"Überrheinerstr.","postalCode":"85551","locality":"Kirchheim bei München","municipality":{"key":"09184131","name":"Kirchheim b.München","type":"Kreisangehörige_Gemeinde"},"district":{"key":"09184","name":"München","type":"Landkreis"},"federalState":{"key":"09","name":"Bayern"}},{"name":"Überseeplatz","postalCode":"81825","locality":"München","municipality":{"key":"09162000","name":"München, Landeshauptstadt","type":"Kreisfreie_Stadt"},"district":{"key":"09162","name":"München, Landeshauptstadt","type":"Kreisfreie_Stadt"},"federalState":{"key":"09","name":"Bayern"}},]