[{"name":"1. Feuerbahn","postalCode":"75217","locality":"Birkenfeld","municipality":{"key":"08236004","name":"Birkenfeld","type":"Kreisangehörige_Gemeinde"},"district":{"key":"08236","name":"Enzkreis","type":"Landkreis"},"federalState":{"key":"08","name":"Baden-Württemberg"}},{"name":"2. Feuerweg","postalCode":"75217","locality":"Birkenfeld","municipality":{"key":"08236004","name":"Birkenfeld","type":"Kreisangehörige_Gemeinde"},"district":{"key":"08236","name":"Enzkreis","type":"Landkreis"},"federalState":{"key":"08","name":"Baden-Württemberg"}},{"name":"3. Feuerweg","postalCode":"75217","locality":"Birkenfeld","municipality":{"key":"08236004","name":"Birkenfeld","type":"Kreisangehörige_Gemeinde"},"district":{"key":"08236","name":"Enzkreis","type":"Landkreis"},"federalState":{"key":"08","name":"Baden-Württemberg"}},{"name":"Am Bach","postalCode":"55758","locality":"Stipshausen","municipality":{"key":"07134087","name":"Stipshausen","type":"Kreisangehörige_Gemeinde"},"district":{"key":"07134","name":"Birkenfeld","type":"Landkreis"},"federalState":{"key":"07","name":"Rheinland-Pfalz"}},{"name":"Am Sportplatz","postalCode":"55758","locality":"Stipshausen","municipality":{"key":"07134087","name":"Stipshausen","type":"Kreisangehörige_Gemeinde"},"district":{"key":"07134","name":"Birkenfeld","type":"Landkreis"},"federalState":{"key":"07","name":"Rheinland-Pfalz"}},{"name":"Brunnenweg","postalCode":"55758","locality":"Stipshausen","municipality":{"key":"07134087","name":"Stipshausen","type":"Kreisangehörige_Gemeinde"},"district":{"key":"07134","name":"Birkenfeld","type":"Landkreis"},"federalState":{"key":"07","name":"Rheinland-Pfalz"}},{"name":"Daimlerstr.","postalCode":"75217","locality":"Birkenfeld","municipality":{"key":"08236004","name":"Birkenfeld","type":"Kreisangehörige_Gemeinde"},"district":{"key":"08236","name":"Enzkreis","type":"Landkreis"},"federalState":{"key":"08","name":"Baden-Württemberg"}},{"name":"Damaschkestr.","postalCode":"75217","locality":"Birkenfeld","municipality":{"key":"08236004","name":"Birkenfeld","type":"Kreisangehörige_Gemeinde"},"district":{"key":"08236","name":"Enzkreis","type":"Landkreis"},"federalState":{"key":"08","name":"Baden-Württemberg"}},{"name":"Dambacher Weg","postalCode":"55765","locality":"Birkenfeld","municipality":{"key":"07134010","name":"Birkenfeld, Stadt","type":"Stadt"},"district":{"key":"07134","name":"Birkenfeld","type":"Landkreis"},"federalState":{"key":"07","name":"Rheinland-Pfalz"}},{"name":"Dantelaustr.","postalCode":"75217","locality":"Birkenfeld","municipality":{"key":"08236004","name":"Birkenfeld","type":"Kreisangehörige_Gemeinde"},"district":{"key":"08236","name":"Enzkreis","type":"Landkreis"},"federalState":{"key":"08","name":"Baden-Württemberg"}},{"name":"Danziger Weg","postalCode":"75217","locality":"Birkenfeld","municipality":{"key":"08236004","name":"Birkenfeld","type":"Kreisangehörige_Gemeinde"},"district":{"key":"08236","name":"Enzkreis","type":"Landkreis"},"federalState":{"key":"08","name":"Baden-Württemberg"}},{"name":"Der Steinsche Platz","postalCode":"37318","locality":"Birkenfelde","municipality":{"key":"16061007","name":"Birkenfelde","type":"Kreisangehörige_Gemeinde"},"district":{"key":"16061","name":"Eichsfeld","type":"Landkreis"},"federalState":{"key":"16","name":"Thüringen"}},{"name":"Dieselstr.","postalCode":"75217","locality":"Birkenfeld","municipality":{"key":"08236004","name":"Birkenfeld","type":"Kreisangehörige_Gemeinde"},"district":{"key":"08236","name":"Enzkreis","type":"Landkreis"},"federalState":{"key":"08","name":"Baden-Württemberg"}},{"name":"Dietlinger Str.","postalCode":"75217","locality":"Birkenfeld","municipality":{"key":"08236004","name":"Birkenfeld","type":"Kreisangehörige_Gemeinde"},"district":{"key":"08236","name":"Enzkreis","type":"Landkreis"},"federalState":{"key":"08","name":"Baden-Württemberg"}},{"name":"Drei Linden","postalCode":"75217","locality":"Birkenfeld","municipality":{"key":"08236004","name":"Birkenfeld","type":"Kreisangehörige_Gemeinde"},"district":{"key":"08236","name":"Enzkreis","type":"Landkreis"},"federalState":{"key":"08","name":"Baden-Württemberg"}},{"name":"Dresdener Str.","postalCode":"75217","locality":"Birkenfeld","municipality":{"key":"08236004","name":"Birkenfeld","type":"Kreisangehörige_Gemeinde"},"district":{"key":"08236","name":"Enzkreis","type":"Landkreis"},"federalState":{"key":"08","name":"Baden-Württemberg"}},{"name":"Drosselweg","postalCode":"55765","locality":"Birkenfeld","municipality":{"key":"07134010","name":"Birkenfeld, Stadt","type":"Stadt"},"district":{"key":"07134","name":"Birkenfeld","type":"Landkreis"},"federalState":{"key":"07","name":"Rheinland-Pfalz"}},{"name":"Drosselweg","postalCode":"75217","locality":"Birkenfeld","municipality":{"key":"08236004","name":"Birkenfeld","type":"Kreisangehörige_Gemeinde"},"district":{"key":"08236","name":"Enzkreis","type":"Landkreis"},"federalState":{"key":"08","name":"Baden-Württemberg"}},{"name":"Duttenbrunner Str.","postalCode":"97834","locality":"Birkenfeld","municipality":{"key":"09677119","name":"Birkenfeld","type":"Kreisangehörige_Gemeinde"},"district":{"key":"09677","name":"Main-Spessart","type":"Landkreis"},"federalState":{"key":"09","name":"Bayern"}},{"name":"Düttstein","postalCode":"97834","locality":"Birkenfeld","municipality":{"key":"09677119","name":"Birkenfeld","type":"Kreisangehörige_Gemeinde"},"district":{"key":"09677","name":"Main-Spessart","type":"Landkreis"},"federalState":{"key":"09","name":"Bayern"}},{"name":"Edelberg","postalCode":"97834","locality":"Birkenfeld","municipality":{"key":"09677119","name":"Birkenfeld","type":"Kreisangehörige_Gemeinde"},"district":{"key":"09677","name":"Main-Spessart","type":"Landkreis"},"federalState":{"key":"09","name":"Bayern"}},{"name":"Eichenring","postalCode":"55765","locality":"Birkenfeld","municipality":{"key":"07134010","name":"Birkenfeld, Stadt","type":"Stadt"},"district":{"key":"07134","name":"Birkenfeld","type":"Landkreis"},"federalState":{"key":"07","name":"Rheinland-Pfalz"}},{"name":"Eichenstr.","postalCode":"75217","locality":"Birkenfeld","municipality":{"key":"08236004","name":"Birkenfeld","type":"Kreisangehörige_Gemeinde"},"district":{"key":"08236","name":"Enzkreis","type":"Landkreis"},"federalState":{"key":"08","name":"Baden-Württemberg"}},{"name":"Eisenacher Str.","postalCode":"75217","locality":"Birkenfeld","municipality":{"key":"08236004","name":"Birkenfeld","type":"Kreisangehörige_Gemeinde"},"district":{"key":"08236","name":"Enzkreis","type":"Landkreis"},"federalState":{"key":"08","name":"Baden-Württemberg"}},{"name":"Ellmendinger Str.","postalCode":"75217","locality":"Birkenfeld","municipality":{"key":"08236004","name":"Birkenfeld","type":"Kreisangehörige_Gemeinde"},"district":{"key":"08236","name":"Enzkreis","type":"Landkreis"},"federalState":{"key":"08","name":"Baden-Württemberg"}},{"name":"Endelbachstr.","postalCode":"75217","locality":"Birkenfeld","municipality":{"key":"08236004","name":"Birkenfeld","type":"Kreisangehörige_Gemeinde"},"district":{"key":"08236","name":"Enzkreis","type":"Landkreis"},"federalState":{"key":"08","name":"Baden-Württemberg"}},{"name":"Enzhangweg","postalCode":"75217","locality":"Birkenfeld","municipality":{"key":"08236004","name":"Birkenfeld","type":"Kreisangehörige_Gemeinde"},"district":{"key":"08236","name":"Enzkreis","type":"Landkreis"},"federalState":{"key":"08","name":"Baden-Württemberg"}},{"name":"Enzweg","postalCode":"75217","locality":"Birkenfeld","municipality":{"key":"08236004","name":"Birkenfeld","type":"Kreisangehörige_Gemeinde"},"district":{"key":"08236","name":"Enzkreis","type":"Landkreis"},"federalState":{"key":"08","name":"Baden-Württemberg"}},{"name":"Erfurter Str.","postalCode":"75217","locality":"Birkenfeld","municipality":{"key":"08236004","name":"Birkenfeld","type":"Kreisangehörige_Gemeinde"},"district":{"key":"08236","name":"Enzkreis","type":"Landkreis"},"federalState":{"key":"08","name":"Baden-Württemberg"}},{"name":"Erlachstr.","postalCode":"75217","locality":"Birkenfeld","municipality":{"key":"08236004","name":"Birkenfeld","type":"Kreisangehörige_Gemeinde"},"district":{"key":"08236","name":"Enzkreis","type":"Landkreis"},"federalState":{"key":"08","name":"Baden-Württemberg"}},{"name":"Erlengrund","postalCode":"55765","locality":"Birkenfeld","municipality":{"key":"07134010","name":"Birkenfeld, Stadt","type":"Stadt"},"district":{"key":"07134","name":"Birkenfeld","type":"Landkreis"},"federalState":{"key":"07","name":"Rheinland-Pfalz"}},{"name":"Erlenstr.","postalCode":"75217","locality":"Birkenfeld","municipality":{"key":"08236004","name":"Birkenfeld","type":"Kreisangehörige_Gemeinde"},"district":{"key":"08236","name":"Enzkreis","type":"Landkreis"},"federalState":{"key":"08","name":"Baden-Württemberg"}},{"name":"Erlenstr.","postalCode":"97834","locality":"Birkenfeld","municipality":{"key":"09677119","name":"Birkenfeld","type":"Kreisangehörige_Gemeinde"},"district":{"key":"09677","name":"Main-Spessart","type":"Landkreis"},"federalState":{"key":"09","name":"Bayern"}},{"name":"Eschenstr.","postalCode":"75217","locality":"Birkenfeld","municipality":{"key":"08236004","name":"Birkenfeld","type":"Kreisangehörige_Gemeinde"},"district":{"key":"08236","name":"Enzkreis","type":"Landkreis"},"federalState":{"key":"08","name":"Baden-Württemberg"}},{"name":"Eselsweg","postalCode":"75217","locality":"Birkenfeld","municipality":{"key":"08236004","name":"Birkenfeld","type":"Kreisangehörige_Gemeinde"},"district":{"key":"08236","name":"Enzkreis","type":"Landkreis"},"federalState":{"key":"08","name":"Baden-Württemberg"}},{"name":"Friedhofsweg","postalCode":"55758","locality":"Stipshausen","municipality":{"key":"07134087","name":"Stipshausen","type":"Kreisangehörige_Gemeinde"},"district":{"key":"07134","name":"Birkenfeld","type":"Landkreis"},"federalState":{"key":"07","name":"Rheinland-Pfalz"}},{"name":"Gartenstr.","postalCode":"55758","locality":"Stipshausen","municipality":{"key":"07134087","name":"Stipshausen","type":"Kreisangehörige_Gemeinde"},"district":{"key":"07134","name":"Birkenfeld","type":"Landkreis"},"federalState":{"key":"07","name":"Rheinland-Pfalz"}},{"name":"Gildemeisterstr.","postalCode":"55758","locality":"Stipshausen","municipality":{"key":"07134087","name":"Stipshausen","type":"Kreisangehörige_Gemeinde"},"district":{"key":"07134","name":"Birkenfeld","type":"Landkreis"},"federalState":{"key":"07","name":"Rheinland-Pfalz"}},{"name":"Hauptstr.","postalCode":"55758","locality":"Stipshausen","municipality":{"key":"07134087","name":"Stipshausen","type":"Kreisangehörige_Gemeinde"},"district":{"key":"07134","name":"Birkenfeld","type":"Landkreis"},"federalState":{"key":"07","name":"Rheinland-Pfalz"}},{"name":"Heidestr.","postalCode":"55758","locality":"Stipshausen","municipality":{"key":"07134087","name":"Stipshausen","type":"Kreisangehörige_Gemeinde"},"district":{"key":"07134","name":"Birkenfeld","type":"Landkreis"},"federalState":{"key":"07","name":"Rheinland-Pfalz"}},{"name":"Im Birkenweg","postalCode":"55758","locality":"Stipshausen","municipality":{"key":"07134087","name":"Stipshausen","type":"Kreisangehörige_Gemeinde"},"district":{"key":"07134","name":"Birkenfeld","type":"Landkreis"},"federalState":{"key":"07","name":"Rheinland-Pfalz"}},{"name":"Im Bruch","postalCode":"55758","locality":"Stipshausen","municipality":{"key":"07134087","name":"Stipshausen","type":"Kreisangehörige_Gemeinde"},"district":{"key":"07134","name":"Birkenfeld","type":"Landkreis"},"federalState":{"key":"07","name":"Rheinland-Pfalz"}},{"name":"Im Gässchen","postalCode":"55758","locality":"Stipshausen","municipality":{"key":"07134087","name":"Stipshausen","type":"Kreisangehörige_Gemeinde"},"district":{"key":"07134","name":"Birkenfeld","type":"Landkreis"},"federalState":{"key":"07","name":"Rheinland-Pfalz"}},{"name":"Im Hahlgarten","postalCode":"55758","locality":"Stipshausen","municipality":{"key":"07134087","name":"Stipshausen","type":"Kreisangehörige_Gemeinde"},"district":{"key":"07134","name":"Birkenfeld","type":"Landkreis"},"federalState":{"key":"07","name":"Rheinland-Pfalz"}},{"name":"Im Litz","postalCode":"55758","locality":"Stipshausen","municipality":{"key":"07134087","name":"Stipshausen","type":"Kreisangehörige_Gemeinde"},"district":{"key":"07134","name":"Birkenfeld","type":"Landkreis"},"federalState":{"key":"07","name":"Rheinland-Pfalz"}},{"name":"Im Winkel","postalCode":"55758","locality":"Stipshausen","municipality":{"key":"07134087","name":"Stipshausen","type":"Kreisangehörige_Gemeinde"},"district":{"key":"07134","name":"Birkenfeld","type":"Landkreis"},"federalState":{"key":"07","name":"Rheinland-Pfalz"}},{"name":"In der Träb","postalCode":"55758","locality":"Stipshausen","municipality":{"key":"07134087","name":"Stipshausen","type":"Kreisangehörige_Gemeinde"},"district":{"key":"07134","name":"Birkenfeld","type":"Landkreis"},"federalState":{"key":"07","name":"Rheinland-Pfalz"}},{"name":"Jägersteig","postalCode":"75217","locality":"Birkenfeld","municipality":{"key":"08236004","name":"Birkenfeld","type":"Kreisangehörige_Gemeinde"},"district":{"key":"08236","name":"Enzkreis","type":"Landkreis"},"federalState":{"key":"08","name":"Baden-Württemberg"}},{"name":"Jägersteig-Kreisel","postalCode":"75217","locality":"Birkenfeld","municipality":{"key":"08236004","name":"Birkenfeld","type":"Kreisangehörige_Gemeinde"},"district":{"key":"08236","name":"Enzkreis","type":"Landkreis"},"federalState":{"key":"08","name":"Baden-Württemberg"}},{"name":"Jahnstr.","postalCode":"75217","locality":"Birkenfeld","municipality":{"key":"08236004","name":"Birkenfeld","type":"Kreisangehörige_Gemeinde"},"district":{"key":"08236","name":"Enzkreis","type":"Landkreis"},"federalState":{"key":"08","name":"Baden-Württemberg"}},{"name":"Kantstr.","postalCode":"75217","locality":"Birkenfeld","municipality":{"key":"08236004","name":"Birkenfeld","type":"Kreisangehörige_Gemeinde"},"district":{"key":"08236","name":"Enzkreis","type":"Landkreis"},"federalState":{"key":"08","name":"Baden-Württemberg"}},{"name":"Karl-Kircher-Str.","postalCode":"75217","locality":"Birkenfeld","municipality":{"key":"08236004","name":"Birkenfeld","type":"Kreisangehörige_Gemeinde"},"district":{"key":"08236","name":"Enzkreis","type":"Landkreis"},"federalState":{"key":"08","name":"Baden-Württemberg"}},{"name":"Karlsruher Str.","postalCode":"75217","locality":"Birkenfeld","municipality":{"key":"08236004","name":"Birkenfeld","type":"Kreisangehörige_Gemeinde"},"district":{"key":"08236","name":"Enzkreis","type":"Landkreis"},"federalState":{"key":"08","name":"Baden-Württemberg"}},{"name":"Karlstr.","postalCode":"75217","locality":"Birkenfeld","municipality":{"key":"08236004","name":"Birkenfeld","type":"Kreisangehörige_Gemeinde"},"district":{"key":"08236","name":"Enzkreis","type":"Landkreis"},"federalState":{"key":"08","name":"Baden-Württemberg"}},{"name":"Karweg","postalCode":"55765","locality":"Birkenfeld","municipality":{"key":"07134010","name":"Birkenfeld, Stadt","type":"Stadt"},"district":{"key":"07134","name":"Birkenfeld","type":"Landkreis"},"federalState":{"key":"07","name":"Rheinland-Pfalz"}},{"name":"Kastanienstr.","postalCode":"75217","locality":"Birkenfeld","municipality":{"key":"08236004","name":"Birkenfeld","type":"Kreisangehörige_Gemeinde"},"district":{"key":"08236","name":"Enzkreis","type":"Landkreis"},"federalState":{"key":"08","name":"Baden-Württemberg"}},{"name":"Kelteräckerweg","postalCode":"75217","locality":"Birkenfeld","municipality":{"key":"08236004","name":"Birkenfeld","type":"Kreisangehörige_Gemeinde"},"district":{"key":"08236","name":"Enzkreis","type":"Landkreis"},"federalState":{"key":"08","name":"Baden-Württemberg"}},{"name":"Kelterstr.","postalCode":"75217","locality":"Birkenfeld","municipality":{"key":"08236004","name":"Birkenfeld","type":"Kreisangehörige_Gemeinde"},"district":{"key":"08236","name":"Enzkreis","type":"Landkreis"},"federalState":{"key":"08","name":"Baden-Württemberg"}},{"name":"Kelterweg","postalCode":"75217","locality":"Birkenfeld","municipality":{"key":"08236004","name":"Birkenfeld","type":"Kreisangehörige_Gemeinde"},"district":{"key":"08236","name":"Enzkreis","type":"Landkreis"},"federalState":{"key":"08","name":"Baden-Württemberg"}},{"name":"Keplerweg","postalCode":"75217","locality":"Birkenfeld","municipality":{"key":"08236004","name":"Birkenfeld","type":"Kreisangehörige_Gemeinde"},"district":{"key":"08236","name":"Enzkreis","type":"Landkreis"},"federalState":{"key":"08","name":"Baden-Württemberg"}},{"name":"Kernerstr.","postalCode":"75217","locality":"Birkenfeld","municipality":{"key":"08236004","name":"Birkenfeld","type":"Kreisangehörige_Gemeinde"},"district":{"key":"08236","name":"Enzkreis","type":"Landkreis"},"federalState":{"key":"08","name":"Baden-Württemberg"}},{"name":"Kesslerstr.","postalCode":"75217","locality":"Birkenfeld","municipality":{"key":"08236004","name":"Birkenfeld","type":"Kreisangehörige_Gemeinde"},"district":{"key":"08236","name":"Enzkreis","type":"Landkreis"},"federalState":{"key":"08","name":"Baden-Württemberg"}},{"name":"Kettelsbachstr.","postalCode":"75217","locality":"Birkenfeld","municipality":{"key":"08236004","name":"Birkenfeld","type":"Kreisangehörige_Gemeinde"},"district":{"key":"08236","name":"Enzkreis","type":"Landkreis"},"federalState":{"key":"08","name":"Baden-Württemberg"}},{"name":"Kettelsbachweg","postalCode":"75217","locality":"Birkenfeld","municipality":{"key":"08236004","name":"Birkenfeld","type":"Kreisangehörige_Gemeinde"},"district":{"key":"08236","name":"Enzkreis","type":"Landkreis"},"federalState":{"key":"08","name":"Baden-Württemberg"}},{"name":"Kiefernstr.","postalCode":"75217","locality":"Birkenfeld","municipality":{"key":"08236004","name":"Birkenfeld","type":"Kreisangehörige_Gemeinde"},"district":{"key":"08236","name":"Enzkreis","type":"Landkreis"},"federalState":{"key":"08","name":"Baden-Württemberg"}},{"name":"Kieferstr.","postalCode":"55765","locality":"Birkenfeld","municipality":{"key":"07134010","name":"Birkenfeld, Stadt","type":"Stadt"},"district":{"key":"07134","name":"Birkenfeld","type":"Landkreis"},"federalState":{"key":"07","name":"Rheinland-Pfalz"}},{"name":"Kiesweg","postalCode":"75217","locality":"Birkenfeld","municipality":{"key":"08236004","name":"Birkenfeld","type":"Kreisangehörige_Gemeinde"},"district":{"key":"08236","name":"Enzkreis","type":"Landkreis"},"federalState":{"key":"08","name":"Baden-Württemberg"}},{"name":"Kirchgartenstr.","postalCode":"75217","locality":"Birkenfeld","municipality":{"key":"08236004","name":"Birkenfeld","type":"Kreisangehörige_Gemeinde"},"district":{"key":"08236","name":"Enzkreis","type":"Landkreis"},"federalState":{"key":"08","name":"Baden-Württemberg"}},{"name":"Kirchgasse","postalCode":"97834","locality":"Birkenfeld","municipality":{"key":"09677119","name":"Birkenfeld","type":"Kreisangehörige_Gemeinde"},"district":{"key":"09677","name":"Main-Spessart","type":"Landkreis"},"federalState":{"key":"09","name":"Bayern"}},{"name":"Kirchstr.","postalCode":"75217","locality":"Birkenfeld","municipality":{"key":"08236004","name":"Birkenfeld","type":"Kreisangehörige_Gemeinde"},"district":{"key":"08236","name":"Enzkreis","type":"Landkreis"},"federalState":{"key":"08","name":"Baden-Württemberg"}},{"name":"Kirchweg","postalCode":"75217","locality":"Birkenfeld","municipality":{"key":"08236004","name":"Birkenfeld","type":"Kreisangehörige_Gemeinde"},"district":{"key":"08236","name":"Enzkreis","type":"Landkreis"},"federalState":{"key":"08","name":"Baden-Württemberg"}},{"name":"Kirschenstr.","postalCode":"75217","locality":"Birkenfeld","municipality":{"key":"08236004","name":"Birkenfeld","type":"Kreisangehörige_Gemeinde"},"district":{"key":"08236","name":"Enzkreis","type":"Landkreis"},"federalState":{"key":"08","name":"Baden-Württemberg"}},{"name":"Kleiner Siedlungspark","postalCode":"55765","locality":"Birkenfeld","municipality":{"key":"07134010","name":"Birkenfeld, Stadt","type":"Stadt"},"district":{"key":"07134","name":"Birkenfeld","type":"Landkreis"},"federalState":{"key":"07","name":"Rheinland-Pfalz"}},{"name":"Kleinhausstr.","postalCode":"75217","locality":"Birkenfeld","municipality":{"key":"08236004","name":"Birkenfeld","type":"Kreisangehörige_Gemeinde"},"district":{"key":"08236","name":"Enzkreis","type":"Landkreis"},"federalState":{"key":"08","name":"Baden-Württemberg"}},{"name":"Klostereck","postalCode":"55765","locality":"Birkenfeld","municipality":{"key":"07134010","name":"Birkenfeld, Stadt","type":"Stadt"},"district":{"key":"07134","name":"Birkenfeld","type":"Landkreis"},"federalState":{"key":"07","name":"Rheinland-Pfalz"}},{"name":"Kochweg","postalCode":"75217","locality":"Birkenfeld","municipality":{"key":"08236004","name":"Birkenfeld","type":"Kreisangehörige_Gemeinde"},"district":{"key":"08236","name":"Enzkreis","type":"Landkreis"},"federalState":{"key":"08","name":"Baden-Württemberg"}},{"name":"Königsberger Str.","postalCode":"55765","locality":"Birkenfeld","municipality":{"key":"07134010","name":"Birkenfeld, Stadt","type":"Stadt"},"district":{"key":"07134","name":"Birkenfeld","type":"Landkreis"},"federalState":{"key":"07","name":"Rheinland-Pfalz"}},{"name":"Königsberger Weg","postalCode":"75217","locality":"Birkenfeld","municipality":{"key":"08236004","name":"Birkenfeld","type":"Kreisangehörige_Gemeinde"},"district":{"key":"08236","name":"Enzkreis","type":"Landkreis"},"federalState":{"key":"08","name":"Baden-Württemberg"}},{"name":"Königsgasse","postalCode":"55765","locality":"Birkenfeld","municipality":{"key":"07134010","name":"Birkenfeld, Stadt","type":"Stadt"},"district":{"key":"07134","name":"Birkenfeld","type":"Landkreis"},"federalState":{"key":"07","name":"Rheinland-Pfalz"}},{"name":"Kopf-Rundweg","postalCode":"75217","locality":"Birkenfeld","municipality":{"key":"08236004","name":"Birkenfeld","type":"Kreisangehörige_Gemeinde"},"district":{"key":"08236","name":"Enzkreis","type":"Landkreis"},"federalState":{"key":"08","name":"Baden-Württemberg"}},{"name":"Krähenbaumstr.","postalCode":"75217","locality":"Birkenfeld","municipality":{"key":"08236004","name":"Birkenfeld","type":"Kreisangehörige_Gemeinde"},"district":{"key":"08236","name":"Enzkreis","type":"Landkreis"},"federalState":{"key":"08","name":"Baden-Württemberg"}},{"name":"Krautgasse","postalCode":"55765","locality":"Birkenfeld","municipality":{"key":"07134010","name":"Birkenfeld, Stadt","type":"Stadt"},"district":{"key":"07134","name":"Birkenfeld","type":"Landkreis"},"federalState":{"key":"07","name":"Rheinland-Pfalz"}},{"name":"Kreuzbergstr.","postalCode":"97834","locality":"Birkenfeld","municipality":{"key":"09677119","name":"Birkenfeld","type":"Kreisangehörige_Gemeinde"},"district":{"key":"09677","name":"Main-Spessart","type":"Landkreis"},"federalState":{"key":"09","name":"Bayern"}},{"name":"Kreuzstr.","postalCode":"75217","locality":"Birkenfeld","municipality":{"key":"08236004","name":"Birkenfeld","type":"Kreisangehörige_Gemeinde"},"district":{"key":"08236","name":"Enzkreis","type":"Landkreis"},"federalState":{"key":"08","name":"Baden-Württemberg"}},{"name":"Laierserweg","postalCode":"75217","locality":"Birkenfeld","municipality":{"key":"08236004","name":"Birkenfeld","type":"Kreisangehörige_Gemeinde"},"district":{"key":"08236","name":"Enzkreis","type":"Landkreis"},"federalState":{"key":"08","name":"Baden-Württemberg"}},{"name":"Langgasse","postalCode":"97834","locality":"Birkenfeld","municipality":{"key":"09677119","name":"Birkenfeld","type":"Kreisangehörige_Gemeinde"},"district":{"key":"09677","name":"Main-Spessart","type":"Landkreis"},"federalState":{"key":"09","name":"Bayern"}},{"name":"Langwiesenstr.","postalCode":"75217","locality":"Birkenfeld","municipality":{"key":"08236004","name":"Birkenfeld","type":"Kreisangehörige_Gemeinde"},"district":{"key":"08236","name":"Enzkreis","type":"Landkreis"},"federalState":{"key":"08","name":"Baden-Württemberg"}},{"name":"Lärchenstr.","postalCode":"75217","locality":"Birkenfeld","municipality":{"key":"08236004","name":"Birkenfeld","type":"Kreisangehörige_Gemeinde"},"district":{"key":"08236","name":"Enzkreis","type":"Landkreis"},"federalState":{"key":"08","name":"Baden-Württemberg"}},{"name":"Lärchenstr.","postalCode":"97834","locality":"Birkenfeld","municipality":{"key":"09677119","name":"Birkenfeld","type":"Kreisangehörige_Gemeinde"},"district":{"key":"09677","name":"Main-Spessart","type":"Landkreis"},"federalState":{"key":"09","name":"Bayern"}},{"name":"Leipziger Str.","postalCode":"75217","locality":"Birkenfeld","municipality":{"key":"08236004","name":"Birkenfeld","type":"Kreisangehörige_Gemeinde"},"district":{"key":"08236","name":"Enzkreis","type":"Landkreis"},"federalState":{"key":"08","name":"Baden-Württemberg"}},{"name":"Leitgertsweg","postalCode":"55765","locality":"Birkenfeld","municipality":{"key":"07134010","name":"Birkenfeld, Stadt","type":"Stadt"},"district":{"key":"07134","name":"Birkenfeld","type":"Landkreis"},"federalState":{"key":"07","name":"Rheinland-Pfalz"}},{"name":"Lerchenweg","postalCode":"55765","locality":"Birkenfeld","municipality":{"key":"07134010","name":"Birkenfeld, Stadt","type":"Stadt"},"district":{"key":"07134","name":"Birkenfeld","type":"Landkreis"},"federalState":{"key":"07","name":"Rheinland-Pfalz"}},{"name":"Lessingstr.","postalCode":"75217","locality":"Birkenfeld","municipality":{"key":"08236004","name":"Birkenfeld","type":"Kreisangehörige_Gemeinde"},"district":{"key":"08236","name":"Enzkreis","type":"Landkreis"},"federalState":{"key":"08","name":"Baden-Württemberg"}},{"name":"Lindenstr.","postalCode":"55765","locality":"Birkenfeld","municipality":{"key":"07134010","name":"Birkenfeld, Stadt","type":"Stadt"},"district":{"key":"07134","name":"Birkenfeld","type":"Landkreis"},"federalState":{"key":"07","name":"Rheinland-Pfalz"}},{"name":"Lindenstr.","postalCode":"75217","locality":"Birkenfeld","municipality":{"key":"08236004","name":"Birkenfeld","type":"Kreisangehörige_Gemeinde"},"district":{"key":"08236","name":"Enzkreis","type":"Landkreis"},"federalState":{"key":"08","name":"Baden-Württemberg"}},{"name":"Lindenstr.","postalCode":"97834","locality":"Birkenfeld","municipality":{"key":"09677119","name":"Birkenfeld","type":"Kreisangehörige_Gemeinde"},"district":{"key":"09677","name":"Main-Spessart","type":"Landkreis"},"federalState":{"key":"09","name":"Bayern"}},{"name":"Lotharweg","postalCode":"75217","locality":"Birkenfeld","municipality":{"key":"08236004","name":"Birkenfeld","type":"Kreisangehörige_Gemeinde"},"district":{"key":"08236","name":"Enzkreis","type":"Landkreis"},"federalState":{"key":"08","name":"Baden-Württemberg"}},{"name":"Lothringer Str.","postalCode":"55765","locality":"Birkenfeld","municipality":{"key":"07134010","name":"Birkenfeld, Stadt","type":"Stadt"},"district":{"key":"07134","name":"Birkenfeld","type":"Landkreis"},"federalState":{"key":"07","name":"Rheinland-Pfalz"}},{"name":"Mittelweg","postalCode":"55758","locality":"Stipshausen","municipality":{"key":"07134087","name":"Stipshausen","type":"Kreisangehörige_Gemeinde"},"district":{"key":"07134","name":"Birkenfeld","type":"Landkreis"},"federalState":{"key":"07","name":"Rheinland-Pfalz"}},{"name":"Nachtigallenweg","postalCode":"55765","locality":"Birkenfeld","municipality":{"key":"07134010","name":"Birkenfeld, Stadt","type":"Stadt"},"district":{"key":"07134","name":"Birkenfeld","type":"Landkreis"},"federalState":{"key":"07","name":"Rheinland-Pfalz"}},{"name":"Neubaustr.","postalCode":"97834","locality":"Birkenfeld","municipality":{"key":"09677119","name":"Birkenfeld","type":"Kreisangehörige_Gemeinde"},"district":{"key":"09677","name":"Main-Spessart","type":"Landkreis"},"federalState":{"key":"09","name":"Bayern"}},{"name":"Neue Gasse","postalCode":"75217","locality":"Birkenfeld","municipality":{"key":"08236004","name":"Birkenfeld","type":"Kreisangehörige_Gemeinde"},"district":{"key":"08236","name":"Enzkreis","type":"Landkreis"},"federalState":{"key":"08","name":"Baden-Württemberg"}},{"name":"Neuenbürger Str.","postalCode":"75217","locality":"Birkenfeld","municipality":{"key":"08236004","name":"Birkenfeld","type":"Kreisangehörige_Gemeinde"},"district":{"key":"08236","name":"Enzkreis","type":"Landkreis"},"federalState":{"key":"08","name":"Baden-Württemberg"}},{"name":"Neuenbürger Weg","postalCode":"75217","locality":"Birkenfeld","municipality":{"key":"08236004","name":"Birkenfeld","type":"Kreisangehörige_Gemeinde"},"district":{"key":"08236","name":"Enzkreis","type":"Landkreis"},"federalState":{"key":"08","name":"Baden-Württemberg"}},{"name":"Neuer Weg","postalCode":"75217","locality":"Birkenfeld","municipality":{"key":"08236004","name":"Birkenfeld","type":"Kreisangehörige_Gemeinde"},"district":{"key":"08236","name":"Enzkreis","type":"Landkreis"},"federalState":{"key":"08","name":"Baden-Württemberg"}},{"name":"Niebelsbacher Str.","postalCode":"75217","locality":"Birkenfeld","municipality":{"key":"08236004","name":"Birkenfeld","type":"Kreisangehörige_Gemeinde"},"district":{"key":"08236","name":"Enzkreis","type":"Landkreis"},"federalState":{"key":"08","name":"Baden-Württemberg"}},{"name":"Niebelsbacher Weg","postalCode":"75217","locality":"Birkenfeld","municipality":{"key":"08236004","name":"Birkenfeld","type":"Kreisangehörige_Gemeinde"},"district":{"key":"08236","name":"Enzkreis","type":"Landkreis"},"federalState":{"key":"08","name":"Baden-Württemberg"}},{"name":"Oberdorf","postalCode":"37318","locality":"Birkenfelde","municipality":{"key":"16061007","name":"Birkenfelde","type":"Kreisangehörige_Gemeinde"},"district":{"key":"16061","name":"Eichsfeld","type":"Landkreis"},"federalState":{"key":"16","name":"Thüringen"}},{"name":"Oberes Eichholz","postalCode":"37318","locality":"Birkenfelde","municipality":{"key":"16061007","name":"Birkenfelde","type":"Kreisangehörige_Gemeinde"},"district":{"key":"16061","name":"Eichsfeld","type":"Landkreis"},"federalState":{"key":"16","name":"Thüringen"}},{"name":"Obernhausen-Neuenbürger-Weg","postalCode":"75217","locality":"Birkenfeld","municipality":{"key":"08236004","name":"Birkenfeld","type":"Kreisangehörige_Gemeinde"},"district":{"key":"08236","name":"Enzkreis","type":"Landkreis"},"federalState":{"key":"08","name":"Baden-Württemberg"}},{"name":"Obernhäuser Str.","postalCode":"75217","locality":"Birkenfeld","municipality":{"key":"08236004","name":"Birkenfeld","type":"Kreisangehörige_Gemeinde"},"district":{"key":"08236","name":"Enzkreis","type":"Landkreis"},"federalState":{"key":"08","name":"Baden-Württemberg"}},{"name":"Oldenburger Str.","postalCode":"55765","locality":"Birkenfeld","municipality":{"key":"07134010","name":"Birkenfeld, Stadt","type":"Stadt"},"district":{"key":"07134","name":"Birkenfeld","type":"Landkreis"},"federalState":{"key":"07","name":"Rheinland-Pfalz"}},{"name":"Paradieseck","postalCode":"55758","locality":"Stipshausen","municipality":{"key":"07134087","name":"Stipshausen","type":"Kreisangehörige_Gemeinde"},"district":{"key":"07134","name":"Birkenfeld","type":"Landkreis"},"federalState":{"key":"07","name":"Rheinland-Pfalz"}},{"name":"Quellenweg","postalCode":"97834","locality":"Birkenfeld","municipality":{"key":"09677119","name":"Birkenfeld","type":"Kreisangehörige_Gemeinde"},"district":{"key":"09677","name":"Main-Spessart","type":"Landkreis"},"federalState":{"key":"09","name":"Bayern"}},{"name":"Raiffeisenstr.","postalCode":"75217","locality":"Birkenfeld","municipality":{"key":"08236004","name":"Birkenfeld","type":"Kreisangehörige_Gemeinde"},"district":{"key":"08236","name":"Enzkreis","type":"Landkreis"},"federalState":{"key":"08","name":"Baden-Württemberg"}},{"name":"Raiffeisenstr.","postalCode":"97834","locality":"Birkenfeld","municipality":{"key":"09677119","name":"Birkenfeld","type":"Kreisangehörige_Gemeinde"},"district":{"key":"09677","name":"Main-Spessart","type":"Landkreis"},"federalState":{"key":"09","name":"Bayern"}},{"name":"Rainstr.","postalCode":"75217","locality":"Birkenfeld","municipality":{"key":"08236004","name":"Birkenfeld","type":"Kreisangehörige_Gemeinde"},"district":{"key":"08236","name":"Enzkreis","type":"Landkreis"},"federalState":{"key":"08","name":"Baden-Württemberg"}},{"name":"Rathausgasse","postalCode":"75217","locality":"Birkenfeld","municipality":{"key":"08236004","name":"Birkenfeld","type":"Kreisangehörige_Gemeinde"},"district":{"key":"08236","name":"Enzkreis","type":"Landkreis"},"federalState":{"key":"08","name":"Baden-Württemberg"}},{"name":"Rathausplatz","postalCode":"75217","locality":"Birkenfeld","municipality":{"key":"08236004","name":"Birkenfeld","type":"Kreisangehörige_Gemeinde"},"district":{"key":"08236","name":"Enzkreis","type":"Landkreis"},"federalState":{"key":"08","name":"Baden-Württemberg"}},{"name":"Reblandweg","postalCode":"75217","locality":"Birkenfeld","municipality":{"key":"08236004","name":"Birkenfeld","type":"Kreisangehörige_Gemeinde"},"district":{"key":"08236","name":"Enzkreis","type":"Landkreis"},"federalState":{"key":"08","name":"Baden-Württemberg"}},{"name":"Regelbaumstr.","postalCode":"75217","locality":"Birkenfeld","municipality":{"key":"08236004","name":"Birkenfeld","type":"Kreisangehörige_Gemeinde"},"district":{"key":"08236","name":"Enzkreis","type":"Landkreis"},"federalState":{"key":"08","name":"Baden-Württemberg"}},{"name":"Regiestr.","postalCode":"97834","locality":"Birkenfeld","municipality":{"key":"09677119","name":"Birkenfeld","type":"Kreisangehörige_Gemeinde"},"district":{"key":"09677","name":"Main-Spessart","type":"Landkreis"},"federalState":{"key":"09","name":"Bayern"}},{"name":"Reiterwiesen","postalCode":"97834","locality":"Birkenfeld","municipality":{"key":"09677119","name":"Birkenfeld","type":"Kreisangehörige_Gemeinde"},"district":{"key":"09677","name":"Main-Spessart","type":"Landkreis"},"federalState":{"key":"09","name":"Bayern"}},{"name":"Remlinger Str.","postalCode":"97834","locality":"Birkenfeld","municipality":{"key":"09677119","name":"Birkenfeld","type":"Kreisangehörige_Gemeinde"},"district":{"key":"09677","name":"Main-Spessart","type":"Landkreis"},"federalState":{"key":"09","name":"Bayern"}},{"name":"Rennweg","postalCode":"55765","locality":"Birkenfeld","municipality":{"key":"07134010","name":"Birkenfeld, Stadt","type":"Stadt"},"district":{"key":"07134","name":"Birkenfeld","type":"Landkreis"},"federalState":{"key":"07","name":"Rheinland-Pfalz"}},{"name":"Reutweg","postalCode":"75217","locality":"Birkenfeld","municipality":{"key":"08236004","name":"Birkenfeld","type":"Kreisangehörige_Gemeinde"},"district":{"key":"08236","name":"Enzkreis","type":"Landkreis"},"federalState":{"key":"08","name":"Baden-Württemberg"}},{"name":"Richard-Bäuchle-Str.","postalCode":"55765","locality":"Birkenfeld","municipality":{"key":"07134010","name":"Birkenfeld, Stadt","type":"Stadt"},"district":{"key":"07134","name":"Birkenfeld","type":"Landkreis"},"federalState":{"key":"07","name":"Rheinland-Pfalz"}},{"name":"Richard-Wagner-Str.","postalCode":"75217","locality":"Birkenfeld","municipality":{"key":"08236004","name":"Birkenfeld","type":"Kreisangehörige_Gemeinde"},"district":{"key":"08236","name":"Enzkreis","type":"Landkreis"},"federalState":{"key":"08","name":"Baden-Württemberg"}},{"name":"Rieslingweg","postalCode":"75217","locality":"Birkenfeld","municipality":{"key":"08236004","name":"Birkenfeld","type":"Kreisangehörige_Gemeinde"},"district":{"key":"08236","name":"Enzkreis","type":"Landkreis"},"federalState":{"key":"08","name":"Baden-Württemberg"}},{"name":"Robert-Bosch-Str.","postalCode":"75217","locality":"Birkenfeld","municipality":{"key":"08236004","name":"Birkenfeld","type":"Kreisangehörige_Gemeinde"},"district":{"key":"08236","name":"Enzkreis","type":"Landkreis"},"federalState":{"key":"08","name":"Baden-Württemberg"}},{"name":"Römerweg","postalCode":"75217","locality":"Birkenfeld","municipality":{"key":"08236004","name":"Birkenfeld","type":"Kreisangehörige_Gemeinde"},"district":{"key":"08236","name":"Enzkreis","type":"Landkreis"},"federalState":{"key":"08","name":"Baden-Württemberg"}},{"name":"Roter Pfützenweg","postalCode":"75217","locality":"Birkenfeld","municipality":{"key":"08236004","name":"Birkenfeld","type":"Kreisangehörige_Gemeinde"},"district":{"key":"08236","name":"Enzkreis","type":"Landkreis"},"federalState":{"key":"08","name":"Baden-Württemberg"}},{"name":"Schulstr.","postalCode":"55758","locality":"Stipshausen","municipality":{"key":"07134087","name":"Stipshausen","type":"Kreisangehörige_Gemeinde"},"district":{"key":"07134","name":"Birkenfeld","type":"Landkreis"},"federalState":{"key":"07","name":"Rheinland-Pfalz"}},{"name":"Skulturenpark","postalCode":"55758","locality":"Stipshausen","municipality":{"key":"07134087","name":"Stipshausen","type":"Kreisangehörige_Gemeinde"},"district":{"key":"07134","name":"Birkenfeld","type":"Landkreis"},"federalState":{"key":"07","name":"Rheinland-Pfalz"}},{"name":"Tannenweg","postalCode":"55758","locality":"Stipshausen","municipality":{"key":"07134087","name":"Stipshausen","type":"Kreisangehörige_Gemeinde"},"district":{"key":"07134","name":"Birkenfeld","type":"Landkreis"},"federalState":{"key":"07","name":"Rheinland-Pfalz"}},{"name":"Uhlandstr.","postalCode":"75217","locality":"Birkenfeld","municipality":{"key":"08236004","name":"Birkenfeld","type":"Kreisangehörige_Gemeinde"},"district":{"key":"08236","name":"Enzkreis","type":"Landkreis"},"federalState":{"key":"08","name":"Baden-Württemberg"}},{"name":"Ulmenstr.","postalCode":"75217","locality":"Birkenfeld","municipality":{"key":"08236004","name":"Birkenfeld","type":"Kreisangehörige_Gemeinde"},"district":{"key":"08236","name":"Enzkreis","type":"Landkreis"},"federalState":{"key":"08","name":"Baden-Württemberg"}},{"name":"Untertorstr.","postalCode":"97834","locality":"Birkenfeld","municipality":{"key":"09677119","name":"Birkenfeld","type":"Kreisangehörige_Gemeinde"},"district":{"key":"09677","name":"Main-Spessart","type":"Landkreis"},"federalState":{"key":"09","name":"Bayern"}},{"name":"Von-Drais-Str.","postalCode":"75217","locality":"Birkenfeld","municipality":{"key":"08236004","name":"Birkenfeld","type":"Kreisangehörige_Gemeinde"},"district":{"key":"08236","name":"Enzkreis","type":"Landkreis"},"federalState":{"key":"08","name":"Baden-Württemberg"}},{"name":"Vor der Sielbach","postalCode":"55765","locality":"Birkenfeld","municipality":{"key":"07134010","name":"Birkenfeld, Stadt","type":"Stadt"},"district":{"key":"07134","name":"Birkenfeld","type":"Landkreis"},"federalState":{"key":"07","name":"Rheinland-Pfalz"}},{"name":"Vor Klopp","postalCode":"55765","locality":"Birkenfeld","municipality":{"key":"07134010","name":"Birkenfeld, Stadt","type":"Stadt"},"district":{"key":"07134","name":"Birkenfeld","type":"Landkreis"},"federalState":{"key":"07","name":"Rheinland-Pfalz"}},{"name":"Wiesenstr.","postalCode":"55758","locality":"Stipshausen","municipality":{"key":"07134087","name":"Stipshausen","type":"Kreisangehörige_Gemeinde"},"district":{"key":"07134","name":"Birkenfeld","type":"Landkreis"},"federalState":{"key":"07","name":"Rheinland-Pfalz"}},{"name":"Zum Idar","postalCode":"55758","locality":"Stipshausen","municipality":{"key":"07134087","name":"Stipshausen","type":"Kreisangehörige_Gemeinde"},"district":{"key":"07134","name":"Birkenfeld","type":"Landkreis"},"federalState":{"key":"07","name":"Rheinland-Pfalz"}},{"name":"Zur Heck","postalCode":"55758","locality":"Stipshausen","municipality":{"key":"07134087","name":"Stipshausen","type":"Kreisangehörige_Gemeinde"},"district":{"key":"07134","name":"Birkenfeld","type":"Landkreis"},"federalState":{"key":"07","name":"Rheinland-Pfalz"}},]