[{"name":"Adamsweg","postalCode":"34590","locality":"Wabern","municipality":{"key":"06634025","name":"Wabern","type":"Kreisangehörige_Gemeinde"},"district":{"key":"06634","name":"Schwalm-Eder-Kreis","type":"Landkreis"},"federalState":{"key":"06","name":"Hessen"}},{"name":"Ahornweg","postalCode":"34590","locality":"Wabern","municipality":{"key":"06634025","name":"Wabern","type":"Kreisangehörige_Gemeinde"},"district":{"key":"06634","name":"Schwalm-Eder-Kreis","type":"Landkreis"},"federalState":{"key":"06","name":"Hessen"}},{"name":"Akazienweg","postalCode":"34590","locality":"Wabern","municipality":{"key":"06634025","name":"Wabern","type":"Kreisangehörige_Gemeinde"},"district":{"key":"06634","name":"Schwalm-Eder-Kreis","type":"Landkreis"},"federalState":{"key":"06","name":"Hessen"}},{"name":"Alsfelder Str.","postalCode":"34590","locality":"Wabern","municipality":{"key":"06634025","name":"Wabern","type":"Kreisangehörige_Gemeinde"},"district":{"key":"06634","name":"Schwalm-Eder-Kreis","type":"Landkreis"},"federalState":{"key":"06","name":"Hessen"}},{"name":"Alte Kasseler Str.","postalCode":"34590","locality":"Wabern","municipality":{"key":"06634025","name":"Wabern","type":"Kreisangehörige_Gemeinde"},"district":{"key":"06634","name":"Schwalm-Eder-Kreis","type":"Landkreis"},"federalState":{"key":"06","name":"Hessen"}},{"name":"Alte Linde","postalCode":"34590","locality":"Wabern","municipality":{"key":"06634025","name":"Wabern","type":"Kreisangehörige_Gemeinde"},"district":{"key":"06634","name":"Schwalm-Eder-Kreis","type":"Landkreis"},"federalState":{"key":"06","name":"Hessen"}},{"name":"Am Althausgarten","postalCode":"34590","locality":"Wabern","municipality":{"key":"06634025","name":"Wabern","type":"Kreisangehörige_Gemeinde"},"district":{"key":"06634","name":"Schwalm-Eder-Kreis","type":"Landkreis"},"federalState":{"key":"06","name":"Hessen"}},{"name":"Am Backhaus","postalCode":"34590","locality":"Wabern","municipality":{"key":"06634025","name":"Wabern","type":"Kreisangehörige_Gemeinde"},"district":{"key":"06634","name":"Schwalm-Eder-Kreis","type":"Landkreis"},"federalState":{"key":"06","name":"Hessen"}},{"name":"Am Berg","postalCode":"34590","locality":"Wabern","municipality":{"key":"06634025","name":"Wabern","type":"Kreisangehörige_Gemeinde"},"district":{"key":"06634","name":"Schwalm-Eder-Kreis","type":"Landkreis"},"federalState":{"key":"06","name":"Hessen"}},{"name":"Am Bösel","postalCode":"34590","locality":"Wabern","municipality":{"key":"06634025","name":"Wabern","type":"Kreisangehörige_Gemeinde"},"district":{"key":"06634","name":"Schwalm-Eder-Kreis","type":"Landkreis"},"federalState":{"key":"06","name":"Hessen"}},{"name":"Am Brudersrain","postalCode":"34590","locality":"Wabern","municipality":{"key":"06634025","name":"Wabern","type":"Kreisangehörige_Gemeinde"},"district":{"key":"06634","name":"Schwalm-Eder-Kreis","type":"Landkreis"},"federalState":{"key":"06","name":"Hessen"}},{"name":"Am Eck","postalCode":"34590","locality":"Wabern","municipality":{"key":"06634025","name":"Wabern","type":"Kreisangehörige_Gemeinde"},"district":{"key":"06634","name":"Schwalm-Eder-Kreis","type":"Landkreis"},"federalState":{"key":"06","name":"Hessen"}},{"name":"Am Feldgarten","postalCode":"34590","locality":"Wabern","municipality":{"key":"06634025","name":"Wabern","type":"Kreisangehörige_Gemeinde"},"district":{"key":"06634","name":"Schwalm-Eder-Kreis","type":"Landkreis"},"federalState":{"key":"06","name":"Hessen"}},{"name":"Am Gänsemarkt","postalCode":"34590","locality":"Wabern","municipality":{"key":"06634025","name":"Wabern","type":"Kreisangehörige_Gemeinde"},"district":{"key":"06634","name":"Schwalm-Eder-Kreis","type":"Landkreis"},"federalState":{"key":"06","name":"Hessen"}},{"name":"Am Gerngarten","postalCode":"34590","locality":"Wabern","municipality":{"key":"06634025","name":"Wabern","type":"Kreisangehörige_Gemeinde"},"district":{"key":"06634","name":"Schwalm-Eder-Kreis","type":"Landkreis"},"federalState":{"key":"06","name":"Hessen"}},{"name":"Am Goldacker","postalCode":"34590","locality":"Wabern","municipality":{"key":"06634025","name":"Wabern","type":"Kreisangehörige_Gemeinde"},"district":{"key":"06634","name":"Schwalm-Eder-Kreis","type":"Landkreis"},"federalState":{"key":"06","name":"Hessen"}},{"name":"Am Hang","postalCode":"34590","locality":"Wabern","municipality":{"key":"06634025","name":"Wabern","type":"Kreisangehörige_Gemeinde"},"district":{"key":"06634","name":"Schwalm-Eder-Kreis","type":"Landkreis"},"federalState":{"key":"06","name":"Hessen"}},{"name":"Am Hofacker","postalCode":"34590","locality":"Wabern","municipality":{"key":"06634025","name":"Wabern","type":"Kreisangehörige_Gemeinde"},"district":{"key":"06634","name":"Schwalm-Eder-Kreis","type":"Landkreis"},"federalState":{"key":"06","name":"Hessen"}},{"name":"Am Hopfenberg","postalCode":"34590","locality":"Wabern","municipality":{"key":"06634025","name":"Wabern","type":"Kreisangehörige_Gemeinde"},"district":{"key":"06634","name":"Schwalm-Eder-Kreis","type":"Landkreis"},"federalState":{"key":"06","name":"Hessen"}},{"name":"Am Markt","postalCode":"34590","locality":"Wabern","municipality":{"key":"06634025","name":"Wabern","type":"Kreisangehörige_Gemeinde"},"district":{"key":"06634","name":"Schwalm-Eder-Kreis","type":"Landkreis"},"federalState":{"key":"06","name":"Hessen"}},{"name":"Am Otlenacker","postalCode":"34590","locality":"Wabern","municipality":{"key":"06634025","name":"Wabern","type":"Kreisangehörige_Gemeinde"},"district":{"key":"06634","name":"Schwalm-Eder-Kreis","type":"Landkreis"},"federalState":{"key":"06","name":"Hessen"}},{"name":"Am Rain","postalCode":"34590","locality":"Wabern","municipality":{"key":"06634025","name":"Wabern","type":"Kreisangehörige_Gemeinde"},"district":{"key":"06634","name":"Schwalm-Eder-Kreis","type":"Landkreis"},"federalState":{"key":"06","name":"Hessen"}},{"name":"Am Raingarten","postalCode":"34590","locality":"Wabern","municipality":{"key":"06634025","name":"Wabern","type":"Kreisangehörige_Gemeinde"},"district":{"key":"06634","name":"Schwalm-Eder-Kreis","type":"Landkreis"},"federalState":{"key":"06","name":"Hessen"}},{"name":"Am Schloßberg","postalCode":"34590","locality":"Wabern","municipality":{"key":"06634025","name":"Wabern","type":"Kreisangehörige_Gemeinde"},"district":{"key":"06634","name":"Schwalm-Eder-Kreis","type":"Landkreis"},"federalState":{"key":"06","name":"Hessen"}},{"name":"Am Schloßgarten","postalCode":"34590","locality":"Wabern","municipality":{"key":"06634025","name":"Wabern","type":"Kreisangehörige_Gemeinde"},"district":{"key":"06634","name":"Schwalm-Eder-Kreis","type":"Landkreis"},"federalState":{"key":"06","name":"Hessen"}},{"name":"Amselweg","postalCode":"34590","locality":"Wabern","municipality":{"key":"06634025","name":"Wabern","type":"Kreisangehörige_Gemeinde"},"district":{"key":"06634","name":"Schwalm-Eder-Kreis","type":"Landkreis"},"federalState":{"key":"06","name":"Hessen"}},{"name":"Am Siechen","postalCode":"34590","locality":"Wabern","municipality":{"key":"06634025","name":"Wabern","type":"Kreisangehörige_Gemeinde"},"district":{"key":"06634","name":"Schwalm-Eder-Kreis","type":"Landkreis"},"federalState":{"key":"06","name":"Hessen"}},{"name":"Am Sportplatz","postalCode":"34590","locality":"Wabern","municipality":{"key":"06634025","name":"Wabern","type":"Kreisangehörige_Gemeinde"},"district":{"key":"06634","name":"Schwalm-Eder-Kreis","type":"Landkreis"},"federalState":{"key":"06","name":"Hessen"}},{"name":"Am Weinberg","postalCode":"34590","locality":"Wabern","municipality":{"key":"06634025","name":"Wabern","type":"Kreisangehörige_Gemeinde"},"district":{"key":"06634","name":"Schwalm-Eder-Kreis","type":"Landkreis"},"federalState":{"key":"06","name":"Hessen"}},{"name":"An den Gärten","postalCode":"34590","locality":"Wabern","municipality":{"key":"06634025","name":"Wabern","type":"Kreisangehörige_Gemeinde"},"district":{"key":"06634","name":"Schwalm-Eder-Kreis","type":"Landkreis"},"federalState":{"key":"06","name":"Hessen"}},{"name":"An der Kirche","postalCode":"34590","locality":"Wabern","municipality":{"key":"06634025","name":"Wabern","type":"Kreisangehörige_Gemeinde"},"district":{"key":"06634","name":"Schwalm-Eder-Kreis","type":"Landkreis"},"federalState":{"key":"06","name":"Hessen"}},{"name":"An der Lehmgrube","postalCode":"34590","locality":"Wabern","municipality":{"key":"06634025","name":"Wabern","type":"Kreisangehörige_Gemeinde"},"district":{"key":"06634","name":"Schwalm-Eder-Kreis","type":"Landkreis"},"federalState":{"key":"06","name":"Hessen"}},{"name":"Asternweg","postalCode":"34590","locality":"Wabern","municipality":{"key":"06634025","name":"Wabern","type":"Kreisangehörige_Gemeinde"},"district":{"key":"06634","name":"Schwalm-Eder-Kreis","type":"Landkreis"},"federalState":{"key":"06","name":"Hessen"}},{"name":"Auerhahnweg","postalCode":"34590","locality":"Wabern","municipality":{"key":"06634025","name":"Wabern","type":"Kreisangehörige_Gemeinde"},"district":{"key":"06634","name":"Schwalm-Eder-Kreis","type":"Landkreis"},"federalState":{"key":"06","name":"Hessen"}},{"name":"Aueweg","postalCode":"34590","locality":"Wabern","municipality":{"key":"06634025","name":"Wabern","type":"Kreisangehörige_Gemeinde"},"district":{"key":"06634","name":"Schwalm-Eder-Kreis","type":"Landkreis"},"federalState":{"key":"06","name":"Hessen"}},{"name":"Auf dem Kreuz","postalCode":"34590","locality":"Wabern","municipality":{"key":"06634025","name":"Wabern","type":"Kreisangehörige_Gemeinde"},"district":{"key":"06634","name":"Schwalm-Eder-Kreis","type":"Landkreis"},"federalState":{"key":"06","name":"Hessen"}},{"name":"Auf den Stämmen","postalCode":"34590","locality":"Wabern","municipality":{"key":"06634025","name":"Wabern","type":"Kreisangehörige_Gemeinde"},"district":{"key":"06634","name":"Schwalm-Eder-Kreis","type":"Landkreis"},"federalState":{"key":"06","name":"Hessen"}},{"name":"Auf der Teichwiese","postalCode":"34590","locality":"Wabern","municipality":{"key":"06634025","name":"Wabern","type":"Kreisangehörige_Gemeinde"},"district":{"key":"06634","name":"Schwalm-Eder-Kreis","type":"Landkreis"},"federalState":{"key":"06","name":"Hessen"}},{"name":"Aussiger Str.","postalCode":"34590","locality":"Wabern","municipality":{"key":"06634025","name":"Wabern","type":"Kreisangehörige_Gemeinde"},"district":{"key":"06634","name":"Schwalm-Eder-Kreis","type":"Landkreis"},"federalState":{"key":"06","name":"Hessen"}},{"name":"Bachstr.","postalCode":"34590","locality":"Wabern","municipality":{"key":"06634025","name":"Wabern","type":"Kreisangehörige_Gemeinde"},"district":{"key":"06634","name":"Schwalm-Eder-Kreis","type":"Landkreis"},"federalState":{"key":"06","name":"Hessen"}},{"name":"Bahnhofstr.","postalCode":"34590","locality":"Wabern","municipality":{"key":"06634025","name":"Wabern","type":"Kreisangehörige_Gemeinde"},"district":{"key":"06634","name":"Schwalm-Eder-Kreis","type":"Landkreis"},"federalState":{"key":"06","name":"Hessen"}},{"name":"Bammesweg","postalCode":"34590","locality":"Wabern","municipality":{"key":"06634025","name":"Wabern","type":"Kreisangehörige_Gemeinde"},"district":{"key":"06634","name":"Schwalm-Eder-Kreis","type":"Landkreis"},"federalState":{"key":"06","name":"Hessen"}},{"name":"Bauerngasse","postalCode":"34590","locality":"Wabern","municipality":{"key":"06634025","name":"Wabern","type":"Kreisangehörige_Gemeinde"},"district":{"key":"06634","name":"Schwalm-Eder-Kreis","type":"Landkreis"},"federalState":{"key":"06","name":"Hessen"}},{"name":"Bergstr.","postalCode":"34590","locality":"Wabern","municipality":{"key":"06634025","name":"Wabern","type":"Kreisangehörige_Gemeinde"},"district":{"key":"06634","name":"Schwalm-Eder-Kreis","type":"Landkreis"},"federalState":{"key":"06","name":"Hessen"}},{"name":"Berliner Str.","postalCode":"34590","locality":"Wabern","municipality":{"key":"06634025","name":"Wabern","type":"Kreisangehörige_Gemeinde"},"district":{"key":"06634","name":"Schwalm-Eder-Kreis","type":"Landkreis"},"federalState":{"key":"06","name":"Hessen"}},{"name":"Bindeweg","postalCode":"34590","locality":"Wabern","municipality":{"key":"06634025","name":"Wabern","type":"Kreisangehörige_Gemeinde"},"district":{"key":"06634","name":"Schwalm-Eder-Kreis","type":"Landkreis"},"federalState":{"key":"06","name":"Hessen"}},{"name":"Birkenweg","postalCode":"34590","locality":"Wabern","municipality":{"key":"06634025","name":"Wabern","type":"Kreisangehörige_Gemeinde"},"district":{"key":"06634","name":"Schwalm-Eder-Kreis","type":"Landkreis"},"federalState":{"key":"06","name":"Hessen"}},{"name":"Bleichweg","postalCode":"34590","locality":"Wabern","municipality":{"key":"06634025","name":"Wabern","type":"Kreisangehörige_Gemeinde"},"district":{"key":"06634","name":"Schwalm-Eder-Kreis","type":"Landkreis"},"federalState":{"key":"06","name":"Hessen"}},{"name":"Blumenweg","postalCode":"34590","locality":"Wabern","municipality":{"key":"06634025","name":"Wabern","type":"Kreisangehörige_Gemeinde"},"district":{"key":"06634","name":"Schwalm-Eder-Kreis","type":"Landkreis"},"federalState":{"key":"06","name":"Hessen"}},{"name":"Borkener Ring","postalCode":"34590","locality":"Wabern","municipality":{"key":"06634025","name":"Wabern","type":"Kreisangehörige_Gemeinde"},"district":{"key":"06634","name":"Schwalm-Eder-Kreis","type":"Landkreis"},"federalState":{"key":"06","name":"Hessen"}},{"name":"Bornstr.","postalCode":"34590","locality":"Wabern","municipality":{"key":"06634025","name":"Wabern","type":"Kreisangehörige_Gemeinde"},"district":{"key":"06634","name":"Schwalm-Eder-Kreis","type":"Landkreis"},"federalState":{"key":"06","name":"Hessen"}},{"name":"Brandauweg","postalCode":"34590","locality":"Wabern","municipality":{"key":"06634025","name":"Wabern","type":"Kreisangehörige_Gemeinde"},"district":{"key":"06634","name":"Schwalm-Eder-Kreis","type":"Landkreis"},"federalState":{"key":"06","name":"Hessen"}},{"name":"Breslauer Str.","postalCode":"34590","locality":"Wabern","municipality":{"key":"06634025","name":"Wabern","type":"Kreisangehörige_Gemeinde"},"district":{"key":"06634","name":"Schwalm-Eder-Kreis","type":"Landkreis"},"federalState":{"key":"06","name":"Hessen"}},{"name":"Brunnenweg","postalCode":"34590","locality":"Wabern","municipality":{"key":"06634025","name":"Wabern","type":"Kreisangehörige_Gemeinde"},"district":{"key":"06634","name":"Schwalm-Eder-Kreis","type":"Landkreis"},"federalState":{"key":"06","name":"Hessen"}},{"name":"Buchenweg","postalCode":"34590","locality":"Wabern","municipality":{"key":"06634025","name":"Wabern","type":"Kreisangehörige_Gemeinde"},"district":{"key":"06634","name":"Schwalm-Eder-Kreis","type":"Landkreis"},"federalState":{"key":"06","name":"Hessen"}},{"name":"Burgweg","postalCode":"34590","locality":"Wabern","municipality":{"key":"06634025","name":"Wabern","type":"Kreisangehörige_Gemeinde"},"district":{"key":"06634","name":"Schwalm-Eder-Kreis","type":"Landkreis"},"federalState":{"key":"06","name":"Hessen"}},{"name":"Cappeler Str.","postalCode":"34590","locality":"Wabern","municipality":{"key":"06634025","name":"Wabern","type":"Kreisangehörige_Gemeinde"},"district":{"key":"06634","name":"Schwalm-Eder-Kreis","type":"Landkreis"},"federalState":{"key":"06","name":"Hessen"}},{"name":"Chattenstr.","postalCode":"34590","locality":"Wabern","municipality":{"key":"06634025","name":"Wabern","type":"Kreisangehörige_Gemeinde"},"district":{"key":"06634","name":"Schwalm-Eder-Kreis","type":"Landkreis"},"federalState":{"key":"06","name":"Hessen"}},{"name":"Christgasse","postalCode":"34590","locality":"Wabern","municipality":{"key":"06634025","name":"Wabern","type":"Kreisangehörige_Gemeinde"},"district":{"key":"06634","name":"Schwalm-Eder-Kreis","type":"Landkreis"},"federalState":{"key":"06","name":"Hessen"}},{"name":"Drosselweg","postalCode":"34590","locality":"Wabern","municipality":{"key":"06634025","name":"Wabern","type":"Kreisangehörige_Gemeinde"},"district":{"key":"06634","name":"Schwalm-Eder-Kreis","type":"Landkreis"},"federalState":{"key":"06","name":"Hessen"}},{"name":"Eckernweg","postalCode":"34590","locality":"Wabern","municipality":{"key":"06634025","name":"Wabern","type":"Kreisangehörige_Gemeinde"},"district":{"key":"06634","name":"Schwalm-Eder-Kreis","type":"Landkreis"},"federalState":{"key":"06","name":"Hessen"}},{"name":"Ederweg","postalCode":"34590","locality":"Wabern","municipality":{"key":"06634025","name":"Wabern","type":"Kreisangehörige_Gemeinde"},"district":{"key":"06634","name":"Schwalm-Eder-Kreis","type":"Landkreis"},"federalState":{"key":"06","name":"Hessen"}},{"name":"Efzestr.","postalCode":"34590","locality":"Wabern","municipality":{"key":"06634025","name":"Wabern","type":"Kreisangehörige_Gemeinde"},"district":{"key":"06634","name":"Schwalm-Eder-Kreis","type":"Landkreis"},"federalState":{"key":"06","name":"Hessen"}},{"name":"Eibenweg","postalCode":"34590","locality":"Wabern","municipality":{"key":"06634025","name":"Wabern","type":"Kreisangehörige_Gemeinde"},"district":{"key":"06634","name":"Schwalm-Eder-Kreis","type":"Landkreis"},"federalState":{"key":"06","name":"Hessen"}},{"name":"Eichenweg","postalCode":"34590","locality":"Wabern","municipality":{"key":"06634025","name":"Wabern","type":"Kreisangehörige_Gemeinde"},"district":{"key":"06634","name":"Schwalm-Eder-Kreis","type":"Landkreis"},"federalState":{"key":"06","name":"Hessen"}},{"name":"Eisfeld","postalCode":"34590","locality":"Wabern","municipality":{"key":"06634025","name":"Wabern","type":"Kreisangehörige_Gemeinde"},"district":{"key":"06634","name":"Schwalm-Eder-Kreis","type":"Landkreis"},"federalState":{"key":"06","name":"Hessen"}},{"name":"Elsterweg","postalCode":"34590","locality":"Wabern","municipality":{"key":"06634025","name":"Wabern","type":"Kreisangehörige_Gemeinde"},"district":{"key":"06634","name":"Schwalm-Eder-Kreis","type":"Landkreis"},"federalState":{"key":"06","name":"Hessen"}},{"name":"Enge Gasse","postalCode":"34590","locality":"Wabern","municipality":{"key":"06634025","name":"Wabern","type":"Kreisangehörige_Gemeinde"},"district":{"key":"06634","name":"Schwalm-Eder-Kreis","type":"Landkreis"},"federalState":{"key":"06","name":"Hessen"}},{"name":"Engelstr.","postalCode":"34590","locality":"Wabern","municipality":{"key":"06634025","name":"Wabern","type":"Kreisangehörige_Gemeinde"},"district":{"key":"06634","name":"Schwalm-Eder-Kreis","type":"Landkreis"},"federalState":{"key":"06","name":"Hessen"}},{"name":"Eschenweg","postalCode":"34590","locality":"Wabern","municipality":{"key":"06634025","name":"Wabern","type":"Kreisangehörige_Gemeinde"},"district":{"key":"06634","name":"Schwalm-Eder-Kreis","type":"Landkreis"},"federalState":{"key":"06","name":"Hessen"}},{"name":"Falkenberger Str.","postalCode":"34590","locality":"Wabern","municipality":{"key":"06634025","name":"Wabern","type":"Kreisangehörige_Gemeinde"},"district":{"key":"06634","name":"Schwalm-Eder-Kreis","type":"Landkreis"},"federalState":{"key":"06","name":"Hessen"}},{"name":"Fasanenweg","postalCode":"34590","locality":"Wabern","municipality":{"key":"06634025","name":"Wabern","type":"Kreisangehörige_Gemeinde"},"district":{"key":"06634","name":"Schwalm-Eder-Kreis","type":"Landkreis"},"federalState":{"key":"06","name":"Hessen"}},{"name":"Felsberger Str.","postalCode":"34590","locality":"Wabern","municipality":{"key":"06634025","name":"Wabern","type":"Kreisangehörige_Gemeinde"},"district":{"key":"06634","name":"Schwalm-Eder-Kreis","type":"Landkreis"},"federalState":{"key":"06","name":"Hessen"}},{"name":"Fichtenweg","postalCode":"34590","locality":"Wabern","municipality":{"key":"06634025","name":"Wabern","type":"Kreisangehörige_Gemeinde"},"district":{"key":"06634","name":"Schwalm-Eder-Kreis","type":"Landkreis"},"federalState":{"key":"06","name":"Hessen"}},{"name":"Finkenweg","postalCode":"34590","locality":"Wabern","municipality":{"key":"06634025","name":"Wabern","type":"Kreisangehörige_Gemeinde"},"district":{"key":"06634","name":"Schwalm-Eder-Kreis","type":"Landkreis"},"federalState":{"key":"06","name":"Hessen"}},{"name":"Flache Schneise","postalCode":"34590","locality":"Wabern","municipality":{"key":"06634025","name":"Wabern","type":"Kreisangehörige_Gemeinde"},"district":{"key":"06634","name":"Schwalm-Eder-Kreis","type":"Landkreis"},"federalState":{"key":"06","name":"Hessen"}},{"name":"Fliederweg","postalCode":"34590","locality":"Wabern","municipality":{"key":"06634025","name":"Wabern","type":"Kreisangehörige_Gemeinde"},"district":{"key":"06634","name":"Schwalm-Eder-Kreis","type":"Landkreis"},"federalState":{"key":"06","name":"Hessen"}},{"name":"Flurweg","postalCode":"34590","locality":"Wabern","municipality":{"key":"06634025","name":"Wabern","type":"Kreisangehörige_Gemeinde"},"district":{"key":"06634","name":"Schwalm-Eder-Kreis","type":"Landkreis"},"federalState":{"key":"06","name":"Hessen"}},{"name":"Forststr.","postalCode":"34590","locality":"Wabern","municipality":{"key":"06634025","name":"Wabern","type":"Kreisangehörige_Gemeinde"},"district":{"key":"06634","name":"Schwalm-Eder-Kreis","type":"Landkreis"},"federalState":{"key":"06","name":"Hessen"}},{"name":"Frankfurter Str.","postalCode":"34590","locality":"Wabern","municipality":{"key":"06634025","name":"Wabern","type":"Kreisangehörige_Gemeinde"},"district":{"key":"06634","name":"Schwalm-Eder-Kreis","type":"Landkreis"},"federalState":{"key":"06","name":"Hessen"}},{"name":"Friedensstr.","postalCode":"34590","locality":"Wabern","municipality":{"key":"06634025","name":"Wabern","type":"Kreisangehörige_Gemeinde"},"district":{"key":"06634","name":"Schwalm-Eder-Kreis","type":"Landkreis"},"federalState":{"key":"06","name":"Hessen"}},{"name":"Friedhofsweg","postalCode":"34590","locality":"Wabern","municipality":{"key":"06634025","name":"Wabern","type":"Kreisangehörige_Gemeinde"},"district":{"key":"06634","name":"Schwalm-Eder-Kreis","type":"Landkreis"},"federalState":{"key":"06","name":"Hessen"}},{"name":"Frielendorfer Str.","postalCode":"34590","locality":"Wabern","municipality":{"key":"06634025","name":"Wabern","type":"Kreisangehörige_Gemeinde"},"district":{"key":"06634","name":"Schwalm-Eder-Kreis","type":"Landkreis"},"federalState":{"key":"06","name":"Hessen"}},{"name":"Fritzlarer Str.","postalCode":"34590","locality":"Wabern","municipality":{"key":"06634025","name":"Wabern","type":"Kreisangehörige_Gemeinde"},"district":{"key":"06634","name":"Schwalm-Eder-Kreis","type":"Landkreis"},"federalState":{"key":"06","name":"Hessen"}},{"name":"Gartenstr.","postalCode":"34590","locality":"Wabern","municipality":{"key":"06634025","name":"Wabern","type":"Kreisangehörige_Gemeinde"},"district":{"key":"06634","name":"Schwalm-Eder-Kreis","type":"Landkreis"},"federalState":{"key":"06","name":"Hessen"}},{"name":"Gensunger Str.","postalCode":"34590","locality":"Wabern","municipality":{"key":"06634025","name":"Wabern","type":"Kreisangehörige_Gemeinde"},"district":{"key":"06634","name":"Schwalm-Eder-Kreis","type":"Landkreis"},"federalState":{"key":"06","name":"Hessen"}},{"name":"Ginsterweg","postalCode":"34590","locality":"Wabern","municipality":{"key":"06634025","name":"Wabern","type":"Kreisangehörige_Gemeinde"},"district":{"key":"06634","name":"Schwalm-Eder-Kreis","type":"Landkreis"},"federalState":{"key":"06","name":"Hessen"}},{"name":"Gippes","postalCode":"34590","locality":"Wabern","municipality":{"key":"06634025","name":"Wabern","type":"Kreisangehörige_Gemeinde"},"district":{"key":"06634","name":"Schwalm-Eder-Kreis","type":"Landkreis"},"federalState":{"key":"06","name":"Hessen"}},{"name":"Glockengasse","postalCode":"34590","locality":"Wabern","municipality":{"key":"06634025","name":"Wabern","type":"Kreisangehörige_Gemeinde"},"district":{"key":"06634","name":"Schwalm-Eder-Kreis","type":"Landkreis"},"federalState":{"key":"06","name":"Hessen"}},{"name":"Griesweg","postalCode":"34590","locality":"Wabern","municipality":{"key":"06634025","name":"Wabern","type":"Kreisangehörige_Gemeinde"},"district":{"key":"06634","name":"Schwalm-Eder-Kreis","type":"Landkreis"},"federalState":{"key":"06","name":"Hessen"}},{"name":"Großenengliser Str.","postalCode":"34590","locality":"Wabern","municipality":{"key":"06634025","name":"Wabern","type":"Kreisangehörige_Gemeinde"},"district":{"key":"06634","name":"Schwalm-Eder-Kreis","type":"Landkreis"},"federalState":{"key":"06","name":"Hessen"}},{"name":"Grüner Weg","postalCode":"34590","locality":"Wabern","municipality":{"key":"06634025","name":"Wabern","type":"Kreisangehörige_Gemeinde"},"district":{"key":"06634","name":"Schwalm-Eder-Kreis","type":"Landkreis"},"federalState":{"key":"06","name":"Hessen"}},{"name":"Gumpertstr.","postalCode":"34590","locality":"Wabern","municipality":{"key":"06634025","name":"Wabern","type":"Kreisangehörige_Gemeinde"},"district":{"key":"06634","name":"Schwalm-Eder-Kreis","type":"Landkreis"},"federalState":{"key":"06","name":"Hessen"}},{"name":"Gut Falkenhöhe","postalCode":"34590","locality":"Wabern","municipality":{"key":"06634025","name":"Wabern","type":"Kreisangehörige_Gemeinde"},"district":{"key":"06634","name":"Schwalm-Eder-Kreis","type":"Landkreis"},"federalState":{"key":"06","name":"Hessen"}},{"name":"Harler Mühle","postalCode":"34590","locality":"Wabern","municipality":{"key":"06634025","name":"Wabern","type":"Kreisangehörige_Gemeinde"},"district":{"key":"06634","name":"Schwalm-Eder-Kreis","type":"Landkreis"},"federalState":{"key":"06","name":"Hessen"}},{"name":"Harler Weg","postalCode":"34590","locality":"Wabern","municipality":{"key":"06634025","name":"Wabern","type":"Kreisangehörige_Gemeinde"},"district":{"key":"06634","name":"Schwalm-Eder-Kreis","type":"Landkreis"},"federalState":{"key":"06","name":"Hessen"}},{"name":"Hauptstr.","postalCode":"34590","locality":"Wabern","municipality":{"key":"06634025","name":"Wabern","type":"Kreisangehörige_Gemeinde"},"district":{"key":"06634","name":"Schwalm-Eder-Kreis","type":"Landkreis"},"federalState":{"key":"06","name":"Hessen"}},{"name":"Hebeler Weg","postalCode":"34590","locality":"Wabern","municipality":{"key":"06634025","name":"Wabern","type":"Kreisangehörige_Gemeinde"},"district":{"key":"06634","name":"Schwalm-Eder-Kreis","type":"Landkreis"},"federalState":{"key":"06","name":"Hessen"}},{"name":"Heckenrosenweg","postalCode":"34590","locality":"Wabern","municipality":{"key":"06634025","name":"Wabern","type":"Kreisangehörige_Gemeinde"},"district":{"key":"06634","name":"Schwalm-Eder-Kreis","type":"Landkreis"},"federalState":{"key":"06","name":"Hessen"}},{"name":"Heerstr.","postalCode":"34590","locality":"Wabern","municipality":{"key":"06634025","name":"Wabern","type":"Kreisangehörige_Gemeinde"},"district":{"key":"06634","name":"Schwalm-Eder-Kreis","type":"Landkreis"},"federalState":{"key":"06","name":"Hessen"}},{"name":"Heideweg","postalCode":"34590","locality":"Wabern","municipality":{"key":"06634025","name":"Wabern","type":"Kreisangehörige_Gemeinde"},"district":{"key":"06634","name":"Schwalm-Eder-Kreis","type":"Landkreis"},"federalState":{"key":"06","name":"Hessen"}},{"name":"Heinrichstr.","postalCode":"34590","locality":"Wabern","municipality":{"key":"06634025","name":"Wabern","type":"Kreisangehörige_Gemeinde"},"district":{"key":"06634","name":"Schwalm-Eder-Kreis","type":"Landkreis"},"federalState":{"key":"06","name":"Hessen"}},{"name":"Heisterweg","postalCode":"34590","locality":"Wabern","municipality":{"key":"06634025","name":"Wabern","type":"Kreisangehörige_Gemeinde"},"district":{"key":"06634","name":"Schwalm-Eder-Kreis","type":"Landkreis"},"federalState":{"key":"06","name":"Hessen"}},{"name":"Henkelweg","postalCode":"34590","locality":"Wabern","municipality":{"key":"06634025","name":"Wabern","type":"Kreisangehörige_Gemeinde"},"district":{"key":"06634","name":"Schwalm-Eder-Kreis","type":"Landkreis"},"federalState":{"key":"06","name":"Hessen"}},{"name":"Herbergsweg","postalCode":"34590","locality":"Wabern","municipality":{"key":"06634025","name":"Wabern","type":"Kreisangehörige_Gemeinde"},"district":{"key":"06634","name":"Schwalm-Eder-Kreis","type":"Landkreis"},"federalState":{"key":"06","name":"Hessen"}},{"name":"Herler Weg","postalCode":"34590","locality":"Wabern","municipality":{"key":"06634025","name":"Wabern","type":"Kreisangehörige_Gemeinde"},"district":{"key":"06634","name":"Schwalm-Eder-Kreis","type":"Landkreis"},"federalState":{"key":"06","name":"Hessen"}},{"name":"Hermannsburg","postalCode":"34590","locality":"Wabern","municipality":{"key":"06634025","name":"Wabern","type":"Kreisangehörige_Gemeinde"},"district":{"key":"06634","name":"Schwalm-Eder-Kreis","type":"Landkreis"},"federalState":{"key":"06","name":"Hessen"}},{"name":"Hersfelder Str.","postalCode":"34590","locality":"Wabern","municipality":{"key":"06634025","name":"Wabern","type":"Kreisangehörige_Gemeinde"},"district":{"key":"06634","name":"Schwalm-Eder-Kreis","type":"Landkreis"},"federalState":{"key":"06","name":"Hessen"}},{"name":"Hessenweg","postalCode":"34590","locality":"Wabern","municipality":{"key":"06634025","name":"Wabern","type":"Kreisangehörige_Gemeinde"},"district":{"key":"06634","name":"Schwalm-Eder-Kreis","type":"Landkreis"},"federalState":{"key":"06","name":"Hessen"}},{"name":"Hesseroder Str.","postalCode":"34590","locality":"Wabern","municipality":{"key":"06634025","name":"Wabern","type":"Kreisangehörige_Gemeinde"},"district":{"key":"06634","name":"Schwalm-Eder-Kreis","type":"Landkreis"},"federalState":{"key":"06","name":"Hessen"}},{"name":"Hesseröder Weg","postalCode":"34590","locality":"Wabern","municipality":{"key":"06634025","name":"Wabern","type":"Kreisangehörige_Gemeinde"},"district":{"key":"06634","name":"Schwalm-Eder-Kreis","type":"Landkreis"},"federalState":{"key":"06","name":"Hessen"}},{"name":"Hindenburgstr.","postalCode":"34590","locality":"Wabern","municipality":{"key":"06634025","name":"Wabern","type":"Kreisangehörige_Gemeinde"},"district":{"key":"06634","name":"Schwalm-Eder-Kreis","type":"Landkreis"},"federalState":{"key":"06","name":"Hessen"}},{"name":"Hinter den Hartwiesen","postalCode":"34590","locality":"Wabern","municipality":{"key":"06634025","name":"Wabern","type":"Kreisangehörige_Gemeinde"},"district":{"key":"06634","name":"Schwalm-Eder-Kreis","type":"Landkreis"},"federalState":{"key":"06","name":"Hessen"}},{"name":"Hinter der Hute","postalCode":"34590","locality":"Wabern","municipality":{"key":"06634025","name":"Wabern","type":"Kreisangehörige_Gemeinde"},"district":{"key":"06634","name":"Schwalm-Eder-Kreis","type":"Landkreis"},"federalState":{"key":"06","name":"Hessen"}},{"name":"Hintergasse","postalCode":"34590","locality":"Wabern","municipality":{"key":"06634025","name":"Wabern","type":"Kreisangehörige_Gemeinde"},"district":{"key":"06634","name":"Schwalm-Eder-Kreis","type":"Landkreis"},"federalState":{"key":"06","name":"Hessen"}},{"name":"Hofstr.","postalCode":"34590","locality":"Wabern","municipality":{"key":"06634025","name":"Wabern","type":"Kreisangehörige_Gemeinde"},"district":{"key":"06634","name":"Schwalm-Eder-Kreis","type":"Landkreis"},"federalState":{"key":"06","name":"Hessen"}},{"name":"Holunderweg","postalCode":"34590","locality":"Wabern","municipality":{"key":"06634025","name":"Wabern","type":"Kreisangehörige_Gemeinde"},"district":{"key":"06634","name":"Schwalm-Eder-Kreis","type":"Landkreis"},"federalState":{"key":"06","name":"Hessen"}},{"name":"Homberger Str.","postalCode":"34590","locality":"Wabern","municipality":{"key":"06634025","name":"Wabern","type":"Kreisangehörige_Gemeinde"},"district":{"key":"06634","name":"Schwalm-Eder-Kreis","type":"Landkreis"},"federalState":{"key":"06","name":"Hessen"}},{"name":"Hundegasse","postalCode":"34590","locality":"Wabern","municipality":{"key":"06634025","name":"Wabern","type":"Kreisangehörige_Gemeinde"},"district":{"key":"06634","name":"Schwalm-Eder-Kreis","type":"Landkreis"},"federalState":{"key":"06","name":"Hessen"}},{"name":"Im Ährenfeld","postalCode":"34590","locality":"Wabern","municipality":{"key":"06634025","name":"Wabern","type":"Kreisangehörige_Gemeinde"},"district":{"key":"06634","name":"Schwalm-Eder-Kreis","type":"Landkreis"},"federalState":{"key":"06","name":"Hessen"}},{"name":"Im Dreieck","postalCode":"34590","locality":"Wabern","municipality":{"key":"06634025","name":"Wabern","type":"Kreisangehörige_Gemeinde"},"district":{"key":"06634","name":"Schwalm-Eder-Kreis","type":"Landkreis"},"federalState":{"key":"06","name":"Hessen"}},{"name":"Im Niederfeld","postalCode":"34590","locality":"Wabern","municipality":{"key":"06634025","name":"Wabern","type":"Kreisangehörige_Gemeinde"},"district":{"key":"06634","name":"Schwalm-Eder-Kreis","type":"Landkreis"},"federalState":{"key":"06","name":"Hessen"}},{"name":"Im Oberdorf","postalCode":"34590","locality":"Wabern","municipality":{"key":"06634025","name":"Wabern","type":"Kreisangehörige_Gemeinde"},"district":{"key":"06634","name":"Schwalm-Eder-Kreis","type":"Landkreis"},"federalState":{"key":"06","name":"Hessen"}},{"name":"Im Ring","postalCode":"34590","locality":"Wabern","municipality":{"key":"06634025","name":"Wabern","type":"Kreisangehörige_Gemeinde"},"district":{"key":"06634","name":"Schwalm-Eder-Kreis","type":"Landkreis"},"federalState":{"key":"06","name":"Hessen"}},{"name":"Im Winkel","postalCode":"34590","locality":"Wabern","municipality":{"key":"06634025","name":"Wabern","type":"Kreisangehörige_Gemeinde"},"district":{"key":"06634","name":"Schwalm-Eder-Kreis","type":"Landkreis"},"federalState":{"key":"06","name":"Hessen"}},{"name":"In den Sälen","postalCode":"34590","locality":"Wabern","municipality":{"key":"06634025","name":"Wabern","type":"Kreisangehörige_Gemeinde"},"district":{"key":"06634","name":"Schwalm-Eder-Kreis","type":"Landkreis"},"federalState":{"key":"06","name":"Hessen"}},{"name":"In der Mark","postalCode":"34590","locality":"Wabern","municipality":{"key":"06634025","name":"Wabern","type":"Kreisangehörige_Gemeinde"},"district":{"key":"06634","name":"Schwalm-Eder-Kreis","type":"Landkreis"},"federalState":{"key":"06","name":"Hessen"}},{"name":"Industriestr.","postalCode":"34590","locality":"Wabern","municipality":{"key":"06634025","name":"Wabern","type":"Kreisangehörige_Gemeinde"},"district":{"key":"06634","name":"Schwalm-Eder-Kreis","type":"Landkreis"},"federalState":{"key":"06","name":"Hessen"}},{"name":"Jägerstr.","postalCode":"34590","locality":"Wabern","municipality":{"key":"06634025","name":"Wabern","type":"Kreisangehörige_Gemeinde"},"district":{"key":"06634","name":"Schwalm-Eder-Kreis","type":"Landkreis"},"federalState":{"key":"06","name":"Hessen"}},{"name":"Kammweg","postalCode":"34590","locality":"Wabern","municipality":{"key":"06634025","name":"Wabern","type":"Kreisangehörige_Gemeinde"},"district":{"key":"06634","name":"Schwalm-Eder-Kreis","type":"Landkreis"},"federalState":{"key":"06","name":"Hessen"}},{"name":"Karlstr.","postalCode":"34590","locality":"Wabern","municipality":{"key":"06634025","name":"Wabern","type":"Kreisangehörige_Gemeinde"},"district":{"key":"06634","name":"Schwalm-Eder-Kreis","type":"Landkreis"},"federalState":{"key":"06","name":"Hessen"}},{"name":"Kasseler Str.","postalCode":"34590","locality":"Wabern","municipality":{"key":"06634025","name":"Wabern","type":"Kreisangehörige_Gemeinde"},"district":{"key":"06634","name":"Schwalm-Eder-Kreis","type":"Landkreis"},"federalState":{"key":"06","name":"Hessen"}},{"name":"Kastanienweg","postalCode":"34590","locality":"Wabern","municipality":{"key":"06634025","name":"Wabern","type":"Kreisangehörige_Gemeinde"},"district":{"key":"06634","name":"Schwalm-Eder-Kreis","type":"Landkreis"},"federalState":{"key":"06","name":"Hessen"}},{"name":"Keffenweg","postalCode":"34590","locality":"Wabern","municipality":{"key":"06634025","name":"Wabern","type":"Kreisangehörige_Gemeinde"},"district":{"key":"06634","name":"Schwalm-Eder-Kreis","type":"Landkreis"},"federalState":{"key":"06","name":"Hessen"}},{"name":"Kiefernweg","postalCode":"34590","locality":"Wabern","municipality":{"key":"06634025","name":"Wabern","type":"Kreisangehörige_Gemeinde"},"district":{"key":"06634","name":"Schwalm-Eder-Kreis","type":"Landkreis"},"federalState":{"key":"06","name":"Hessen"}},{"name":"Kirchplatz","postalCode":"34590","locality":"Wabern","municipality":{"key":"06634025","name":"Wabern","type":"Kreisangehörige_Gemeinde"},"district":{"key":"06634","name":"Schwalm-Eder-Kreis","type":"Landkreis"},"federalState":{"key":"06","name":"Hessen"}},{"name":"Konrad-von-Hebel-Str.","postalCode":"34590","locality":"Wabern","municipality":{"key":"06634025","name":"Wabern","type":"Kreisangehörige_Gemeinde"},"district":{"key":"06634","name":"Schwalm-Eder-Kreis","type":"Landkreis"},"federalState":{"key":"06","name":"Hessen"}},{"name":"Korbacher Str.","postalCode":"34590","locality":"Wabern","municipality":{"key":"06634025","name":"Wabern","type":"Kreisangehörige_Gemeinde"},"district":{"key":"06634","name":"Schwalm-Eder-Kreis","type":"Landkreis"},"federalState":{"key":"06","name":"Hessen"}},{"name":"Küllbergsweg","postalCode":"34590","locality":"Wabern","municipality":{"key":"06634025","name":"Wabern","type":"Kreisangehörige_Gemeinde"},"district":{"key":"06634","name":"Schwalm-Eder-Kreis","type":"Landkreis"},"federalState":{"key":"06","name":"Hessen"}},{"name":"Kurfürstenstr.","postalCode":"34590","locality":"Wabern","municipality":{"key":"06634025","name":"Wabern","type":"Kreisangehörige_Gemeinde"},"district":{"key":"06634","name":"Schwalm-Eder-Kreis","type":"Landkreis"},"federalState":{"key":"06","name":"Hessen"}},{"name":"Kurzer Weg","postalCode":"34590","locality":"Wabern","municipality":{"key":"06634025","name":"Wabern","type":"Kreisangehörige_Gemeinde"},"district":{"key":"06634","name":"Schwalm-Eder-Kreis","type":"Landkreis"},"federalState":{"key":"06","name":"Hessen"}},{"name":"Landgrafenstr.","postalCode":"34590","locality":"Wabern","municipality":{"key":"06634025","name":"Wabern","type":"Kreisangehörige_Gemeinde"},"district":{"key":"06634","name":"Schwalm-Eder-Kreis","type":"Landkreis"},"federalState":{"key":"06","name":"Hessen"}},{"name":"Lange Str.","postalCode":"34590","locality":"Wabern","municipality":{"key":"06634025","name":"Wabern","type":"Kreisangehörige_Gemeinde"},"district":{"key":"06634","name":"Schwalm-Eder-Kreis","type":"Landkreis"},"federalState":{"key":"06","name":"Hessen"}},{"name":"Lehrgasse","postalCode":"34590","locality":"Wabern","municipality":{"key":"06634025","name":"Wabern","type":"Kreisangehörige_Gemeinde"},"district":{"key":"06634","name":"Schwalm-Eder-Kreis","type":"Landkreis"},"federalState":{"key":"06","name":"Hessen"}},{"name":"Lendorfer Str.","postalCode":"34590","locality":"Wabern","municipality":{"key":"06634025","name":"Wabern","type":"Kreisangehörige_Gemeinde"},"district":{"key":"06634","name":"Schwalm-Eder-Kreis","type":"Landkreis"},"federalState":{"key":"06","name":"Hessen"}},{"name":"Lilienstr.","postalCode":"34590","locality":"Wabern","municipality":{"key":"06634025","name":"Wabern","type":"Kreisangehörige_Gemeinde"},"district":{"key":"06634","name":"Schwalm-Eder-Kreis","type":"Landkreis"},"federalState":{"key":"06","name":"Hessen"}},{"name":"Lindenweg","postalCode":"34590","locality":"Wabern","municipality":{"key":"06634025","name":"Wabern","type":"Kreisangehörige_Gemeinde"},"district":{"key":"06634","name":"Schwalm-Eder-Kreis","type":"Landkreis"},"federalState":{"key":"06","name":"Hessen"}},{"name":"Lohweg","postalCode":"34590","locality":"Wabern","municipality":{"key":"06634025","name":"Wabern","type":"Kreisangehörige_Gemeinde"},"district":{"key":"06634","name":"Schwalm-Eder-Kreis","type":"Landkreis"},"federalState":{"key":"06","name":"Hessen"}},{"name":"Lormaisonstr.","postalCode":"34590","locality":"Wabern","municipality":{"key":"06634025","name":"Wabern","type":"Kreisangehörige_Gemeinde"},"district":{"key":"06634","name":"Schwalm-Eder-Kreis","type":"Landkreis"},"federalState":{"key":"06","name":"Hessen"}},{"name":"Mainzer Str.","postalCode":"34590","locality":"Wabern","municipality":{"key":"06634025","name":"Wabern","type":"Kreisangehörige_Gemeinde"},"district":{"key":"06634","name":"Schwalm-Eder-Kreis","type":"Landkreis"},"federalState":{"key":"06","name":"Hessen"}},{"name":"Marburger Str.","postalCode":"34590","locality":"Wabern","municipality":{"key":"06634025","name":"Wabern","type":"Kreisangehörige_Gemeinde"},"district":{"key":"06634","name":"Schwalm-Eder-Kreis","type":"Landkreis"},"federalState":{"key":"06","name":"Hessen"}},{"name":"Meisenweg","postalCode":"34590","locality":"Wabern","municipality":{"key":"06634025","name":"Wabern","type":"Kreisangehörige_Gemeinde"},"district":{"key":"06634","name":"Schwalm-Eder-Kreis","type":"Landkreis"},"federalState":{"key":"06","name":"Hessen"}},{"name":"Melsunger Str.","postalCode":"34590","locality":"Wabern","municipality":{"key":"06634025","name":"Wabern","type":"Kreisangehörige_Gemeinde"},"district":{"key":"06634","name":"Schwalm-Eder-Kreis","type":"Landkreis"},"federalState":{"key":"06","name":"Hessen"}},{"name":"Mittelstr.","postalCode":"34590","locality":"Wabern","municipality":{"key":"06634025","name":"Wabern","type":"Kreisangehörige_Gemeinde"},"district":{"key":"06634","name":"Schwalm-Eder-Kreis","type":"Landkreis"},"federalState":{"key":"06","name":"Hessen"}},{"name":"Mönchhofstr.","postalCode":"34590","locality":"Wabern","municipality":{"key":"06634025","name":"Wabern","type":"Kreisangehörige_Gemeinde"},"district":{"key":"06634","name":"Schwalm-Eder-Kreis","type":"Landkreis"},"federalState":{"key":"06","name":"Hessen"}},{"name":"Mosenbergsweg","postalCode":"34590","locality":"Wabern","municipality":{"key":"06634025","name":"Wabern","type":"Kreisangehörige_Gemeinde"},"district":{"key":"06634","name":"Schwalm-Eder-Kreis","type":"Landkreis"},"federalState":{"key":"06","name":"Hessen"}},{"name":"Mühlenweg","postalCode":"34590","locality":"Wabern","municipality":{"key":"06634025","name":"Wabern","type":"Kreisangehörige_Gemeinde"},"district":{"key":"06634","name":"Schwalm-Eder-Kreis","type":"Landkreis"},"federalState":{"key":"06","name":"Hessen"}},{"name":"Müllergasse","postalCode":"34590","locality":"Wabern","municipality":{"key":"06634025","name":"Wabern","type":"Kreisangehörige_Gemeinde"},"district":{"key":"06634","name":"Schwalm-Eder-Kreis","type":"Landkreis"},"federalState":{"key":"06","name":"Hessen"}},{"name":"Neuer Weg","postalCode":"34590","locality":"Wabern","municipality":{"key":"06634025","name":"Wabern","type":"Kreisangehörige_Gemeinde"},"district":{"key":"06634","name":"Schwalm-Eder-Kreis","type":"Landkreis"},"federalState":{"key":"06","name":"Hessen"}},{"name":"Neue Str.","postalCode":"34590","locality":"Wabern","municipality":{"key":"06634025","name":"Wabern","type":"Kreisangehörige_Gemeinde"},"district":{"key":"06634","name":"Schwalm-Eder-Kreis","type":"Landkreis"},"federalState":{"key":"06","name":"Hessen"}},{"name":"Nordstr.","postalCode":"34590","locality":"Wabern","municipality":{"key":"06634025","name":"Wabern","type":"Kreisangehörige_Gemeinde"},"district":{"key":"06634","name":"Schwalm-Eder-Kreis","type":"Landkreis"},"federalState":{"key":"06","name":"Hessen"}},{"name":"Obergasse","postalCode":"34590","locality":"Wabern","municipality":{"key":"06634025","name":"Wabern","type":"Kreisangehörige_Gemeinde"},"district":{"key":"06634","name":"Schwalm-Eder-Kreis","type":"Landkreis"},"federalState":{"key":"06","name":"Hessen"}},{"name":"Opferwiese","postalCode":"34590","locality":"Wabern","municipality":{"key":"06634025","name":"Wabern","type":"Kreisangehörige_Gemeinde"},"district":{"key":"06634","name":"Schwalm-Eder-Kreis","type":"Landkreis"},"federalState":{"key":"06","name":"Hessen"}},{"name":"Ostlandstr.","postalCode":"34590","locality":"Wabern","municipality":{"key":"06634025","name":"Wabern","type":"Kreisangehörige_Gemeinde"},"district":{"key":"06634","name":"Schwalm-Eder-Kreis","type":"Landkreis"},"federalState":{"key":"06","name":"Hessen"}},{"name":"Otratring","postalCode":"34590","locality":"Wabern","municipality":{"key":"06634025","name":"Wabern","type":"Kreisangehörige_Gemeinde"},"district":{"key":"06634","name":"Schwalm-Eder-Kreis","type":"Landkreis"},"federalState":{"key":"06","name":"Hessen"}},{"name":"Ottostr.","postalCode":"34590","locality":"Wabern","municipality":{"key":"06634025","name":"Wabern","type":"Kreisangehörige_Gemeinde"},"district":{"key":"06634","name":"Schwalm-Eder-Kreis","type":"Landkreis"},"federalState":{"key":"06","name":"Hessen"}},{"name":"Pappelweg","postalCode":"34590","locality":"Wabern","municipality":{"key":"06634025","name":"Wabern","type":"Kreisangehörige_Gemeinde"},"district":{"key":"06634","name":"Schwalm-Eder-Kreis","type":"Landkreis"},"federalState":{"key":"06","name":"Hessen"}},{"name":"Parkstr.","postalCode":"34590","locality":"Wabern","municipality":{"key":"06634025","name":"Wabern","type":"Kreisangehörige_Gemeinde"},"district":{"key":"06634","name":"Schwalm-Eder-Kreis","type":"Landkreis"},"federalState":{"key":"06","name":"Hessen"}},{"name":"Pestalozzistr.","postalCode":"34590","locality":"Wabern","municipality":{"key":"06634025","name":"Wabern","type":"Kreisangehörige_Gemeinde"},"district":{"key":"06634","name":"Schwalm-Eder-Kreis","type":"Landkreis"},"federalState":{"key":"06","name":"Hessen"}},{"name":"Pfadwiesen","postalCode":"34590","locality":"Wabern","municipality":{"key":"06634025","name":"Wabern","type":"Kreisangehörige_Gemeinde"},"district":{"key":"06634","name":"Schwalm-Eder-Kreis","type":"Landkreis"},"federalState":{"key":"06","name":"Hessen"}},{"name":"Platanenweg","postalCode":"34590","locality":"Wabern","municipality":{"key":"06634025","name":"Wabern","type":"Kreisangehörige_Gemeinde"},"district":{"key":"06634","name":"Schwalm-Eder-Kreis","type":"Landkreis"},"federalState":{"key":"06","name":"Hessen"}},{"name":"Prinzenstr.","postalCode":"34590","locality":"Wabern","municipality":{"key":"06634025","name":"Wabern","type":"Kreisangehörige_Gemeinde"},"district":{"key":"06634","name":"Schwalm-Eder-Kreis","type":"Landkreis"},"federalState":{"key":"06","name":"Hessen"}},{"name":"Querweg","postalCode":"34590","locality":"Wabern","municipality":{"key":"06634025","name":"Wabern","type":"Kreisangehörige_Gemeinde"},"district":{"key":"06634","name":"Schwalm-Eder-Kreis","type":"Landkreis"},"federalState":{"key":"06","name":"Hessen"}},{"name":"Raiffeisenstr.","postalCode":"34590","locality":"Wabern","municipality":{"key":"06634025","name":"Wabern","type":"Kreisangehörige_Gemeinde"},"district":{"key":"06634","name":"Schwalm-Eder-Kreis","type":"Landkreis"},"federalState":{"key":"06","name":"Hessen"}},{"name":"Reiherwaldweg","postalCode":"34590","locality":"Wabern","municipality":{"key":"06634025","name":"Wabern","type":"Kreisangehörige_Gemeinde"},"district":{"key":"06634","name":"Schwalm-Eder-Kreis","type":"Landkreis"},"federalState":{"key":"06","name":"Hessen"}},{"name":"Riegelsweg","postalCode":"34590","locality":"Wabern","municipality":{"key":"06634025","name":"Wabern","type":"Kreisangehörige_Gemeinde"},"district":{"key":"06634","name":"Schwalm-Eder-Kreis","type":"Landkreis"},"federalState":{"key":"06","name":"Hessen"}},{"name":"Ringstr.","postalCode":"34590","locality":"Wabern","municipality":{"key":"06634025","name":"Wabern","type":"Kreisangehörige_Gemeinde"},"district":{"key":"06634","name":"Schwalm-Eder-Kreis","type":"Landkreis"},"federalState":{"key":"06","name":"Hessen"}},{"name":"Rosenstr.","postalCode":"34590","locality":"Wabern","municipality":{"key":"06634025","name":"Wabern","type":"Kreisangehörige_Gemeinde"},"district":{"key":"06634","name":"Schwalm-Eder-Kreis","type":"Landkreis"},"federalState":{"key":"06","name":"Hessen"}},{"name":"Ruhholz","postalCode":"34590","locality":"Wabern","municipality":{"key":"06634025","name":"Wabern","type":"Kreisangehörige_Gemeinde"},"district":{"key":"06634","name":"Schwalm-Eder-Kreis","type":"Landkreis"},"federalState":{"key":"06","name":"Hessen"}},{"name":"Saalweg","postalCode":"34590","locality":"Wabern","municipality":{"key":"06634025","name":"Wabern","type":"Kreisangehörige_Gemeinde"},"district":{"key":"06634","name":"Schwalm-Eder-Kreis","type":"Landkreis"},"federalState":{"key":"06","name":"Hessen"}},{"name":"Sackgasse","postalCode":"34590","locality":"Wabern","municipality":{"key":"06634025","name":"Wabern","type":"Kreisangehörige_Gemeinde"},"district":{"key":"06634","name":"Schwalm-Eder-Kreis","type":"Landkreis"},"federalState":{"key":"06","name":"Hessen"}},{"name":"Sälzerweg","postalCode":"34590","locality":"Wabern","municipality":{"key":"06634025","name":"Wabern","type":"Kreisangehörige_Gemeinde"},"district":{"key":"06634","name":"Schwalm-Eder-Kreis","type":"Landkreis"},"federalState":{"key":"06","name":"Hessen"}},{"name":"Salzlecke","postalCode":"34590","locality":"Wabern","municipality":{"key":"06634025","name":"Wabern","type":"Kreisangehörige_Gemeinde"},"district":{"key":"06634","name":"Schwalm-Eder-Kreis","type":"Landkreis"},"federalState":{"key":"06","name":"Hessen"}},{"name":"Sandweg","postalCode":"34590","locality":"Wabern","municipality":{"key":"06634025","name":"Wabern","type":"Kreisangehörige_Gemeinde"},"district":{"key":"06634","name":"Schwalm-Eder-Kreis","type":"Landkreis"},"federalState":{"key":"06","name":"Hessen"}},{"name":"Sankt-Georg-Ring","postalCode":"34590","locality":"Wabern","municipality":{"key":"06634025","name":"Wabern","type":"Kreisangehörige_Gemeinde"},"district":{"key":"06634","name":"Schwalm-Eder-Kreis","type":"Landkreis"},"federalState":{"key":"06","name":"Hessen"}},{"name":"Schäfergasse","postalCode":"34590","locality":"Wabern","municipality":{"key":"06634025","name":"Wabern","type":"Kreisangehörige_Gemeinde"},"district":{"key":"06634","name":"Schwalm-Eder-Kreis","type":"Landkreis"},"federalState":{"key":"06","name":"Hessen"}},{"name":"Schafgasse","postalCode":"34590","locality":"Wabern","municipality":{"key":"06634025","name":"Wabern","type":"Kreisangehörige_Gemeinde"},"district":{"key":"06634","name":"Schwalm-Eder-Kreis","type":"Landkreis"},"federalState":{"key":"06","name":"Hessen"}},{"name":"Schafschneise","postalCode":"34590","locality":"Wabern","municipality":{"key":"06634025","name":"Wabern","type":"Kreisangehörige_Gemeinde"},"district":{"key":"06634","name":"Schwalm-Eder-Kreis","type":"Landkreis"},"federalState":{"key":"06","name":"Hessen"}},{"name":"Schaufelsgraben","postalCode":"34590","locality":"Wabern","municipality":{"key":"06634025","name":"Wabern","type":"Kreisangehörige_Gemeinde"},"district":{"key":"06634","name":"Schwalm-Eder-Kreis","type":"Landkreis"},"federalState":{"key":"06","name":"Hessen"}},{"name":"Scheid","postalCode":"34590","locality":"Wabern","municipality":{"key":"06634025","name":"Wabern","type":"Kreisangehörige_Gemeinde"},"district":{"key":"06634","name":"Schwalm-Eder-Kreis","type":"Landkreis"},"federalState":{"key":"06","name":"Hessen"}},{"name":"Schiffweg","postalCode":"34590","locality":"Wabern","municipality":{"key":"06634025","name":"Wabern","type":"Kreisangehörige_Gemeinde"},"district":{"key":"06634","name":"Schwalm-Eder-Kreis","type":"Landkreis"},"federalState":{"key":"06","name":"Hessen"}},{"name":"Schilfweg","postalCode":"34590","locality":"Wabern","municipality":{"key":"06634025","name":"Wabern","type":"Kreisangehörige_Gemeinde"},"district":{"key":"06634","name":"Schwalm-Eder-Kreis","type":"Landkreis"},"federalState":{"key":"06","name":"Hessen"}},{"name":"Schloßstr.","postalCode":"34590","locality":"Wabern","municipality":{"key":"06634025","name":"Wabern","type":"Kreisangehörige_Gemeinde"},"district":{"key":"06634","name":"Schwalm-Eder-Kreis","type":"Landkreis"},"federalState":{"key":"06","name":"Hessen"}},{"name":"Schmiedeweg","postalCode":"34590","locality":"Wabern","municipality":{"key":"06634025","name":"Wabern","type":"Kreisangehörige_Gemeinde"},"district":{"key":"06634","name":"Schwalm-Eder-Kreis","type":"Landkreis"},"federalState":{"key":"06","name":"Hessen"}},{"name":"Schöne Aussicht","postalCode":"34590","locality":"Wabern","municipality":{"key":"06634025","name":"Wabern","type":"Kreisangehörige_Gemeinde"},"district":{"key":"06634","name":"Schwalm-Eder-Kreis","type":"Landkreis"},"federalState":{"key":"06","name":"Hessen"}},{"name":"Schulstr.","postalCode":"34590","locality":"Wabern","municipality":{"key":"06634025","name":"Wabern","type":"Kreisangehörige_Gemeinde"},"district":{"key":"06634","name":"Schwalm-Eder-Kreis","type":"Landkreis"},"federalState":{"key":"06","name":"Hessen"}},{"name":"Schwalmstr.","postalCode":"34590","locality":"Wabern","municipality":{"key":"06634025","name":"Wabern","type":"Kreisangehörige_Gemeinde"},"district":{"key":"06634","name":"Schwalm-Eder-Kreis","type":"Landkreis"},"federalState":{"key":"06","name":"Hessen"}},{"name":"Siedlerstr.","postalCode":"34590","locality":"Wabern","municipality":{"key":"06634025","name":"Wabern","type":"Kreisangehörige_Gemeinde"},"district":{"key":"06634","name":"Schwalm-Eder-Kreis","type":"Landkreis"},"federalState":{"key":"06","name":"Hessen"}},{"name":"Sommerweg","postalCode":"34590","locality":"Wabern","municipality":{"key":"06634025","name":"Wabern","type":"Kreisangehörige_Gemeinde"},"district":{"key":"06634","name":"Schwalm-Eder-Kreis","type":"Landkreis"},"federalState":{"key":"06","name":"Hessen"}},{"name":"Speckingsweg","postalCode":"34590","locality":"Wabern","municipality":{"key":"06634025","name":"Wabern","type":"Kreisangehörige_Gemeinde"},"district":{"key":"06634","name":"Schwalm-Eder-Kreis","type":"Landkreis"},"federalState":{"key":"06","name":"Hessen"}},{"name":"Steingräber","postalCode":"34590","locality":"Wabern","municipality":{"key":"06634025","name":"Wabern","type":"Kreisangehörige_Gemeinde"},"district":{"key":"06634","name":"Schwalm-Eder-Kreis","type":"Landkreis"},"federalState":{"key":"06","name":"Hessen"}},{"name":"Steinkaute","postalCode":"34590","locality":"Wabern","municipality":{"key":"06634025","name":"Wabern","type":"Kreisangehörige_Gemeinde"},"district":{"key":"06634","name":"Schwalm-Eder-Kreis","type":"Landkreis"},"federalState":{"key":"06","name":"Hessen"}},{"name":"Steinstr.","postalCode":"34590","locality":"Wabern","municipality":{"key":"06634025","name":"Wabern","type":"Kreisangehörige_Gemeinde"},"district":{"key":"06634","name":"Schwalm-Eder-Kreis","type":"Landkreis"},"federalState":{"key":"06","name":"Hessen"}},{"name":"Steinweg","postalCode":"34590","locality":"Wabern","municipality":{"key":"06634025","name":"Wabern","type":"Kreisangehörige_Gemeinde"},"district":{"key":"06634","name":"Schwalm-Eder-Kreis","type":"Landkreis"},"federalState":{"key":"06","name":"Hessen"}},{"name":"Strandweg","postalCode":"34590","locality":"Wabern","municipality":{"key":"06634025","name":"Wabern","type":"Kreisangehörige_Gemeinde"},"district":{"key":"06634","name":"Schwalm-Eder-Kreis","type":"Landkreis"},"federalState":{"key":"06","name":"Hessen"}},{"name":"Südring","postalCode":"34590","locality":"Wabern","municipality":{"key":"06634025","name":"Wabern","type":"Kreisangehörige_Gemeinde"},"district":{"key":"06634","name":"Schwalm-Eder-Kreis","type":"Landkreis"},"federalState":{"key":"06","name":"Hessen"}},{"name":"Südstr.","postalCode":"34590","locality":"Wabern","municipality":{"key":"06634025","name":"Wabern","type":"Kreisangehörige_Gemeinde"},"district":{"key":"06634","name":"Schwalm-Eder-Kreis","type":"Landkreis"},"federalState":{"key":"06","name":"Hessen"}},{"name":"Talstr.","postalCode":"34590","locality":"Wabern","municipality":{"key":"06634025","name":"Wabern","type":"Kreisangehörige_Gemeinde"},"district":{"key":"06634","name":"Schwalm-Eder-Kreis","type":"Landkreis"},"federalState":{"key":"06","name":"Hessen"}},{"name":"Tannenbergstr.","postalCode":"34590","locality":"Wabern","municipality":{"key":"06634025","name":"Wabern","type":"Kreisangehörige_Gemeinde"},"district":{"key":"06634","name":"Schwalm-Eder-Kreis","type":"Landkreis"},"federalState":{"key":"06","name":"Hessen"}},{"name":"Tannenweg","postalCode":"34590","locality":"Wabern","municipality":{"key":"06634025","name":"Wabern","type":"Kreisangehörige_Gemeinde"},"district":{"key":"06634","name":"Schwalm-Eder-Kreis","type":"Landkreis"},"federalState":{"key":"06","name":"Hessen"}},{"name":"Teichstr.","postalCode":"34590","locality":"Wabern","municipality":{"key":"06634025","name":"Wabern","type":"Kreisangehörige_Gemeinde"},"district":{"key":"06634","name":"Schwalm-Eder-Kreis","type":"Landkreis"},"federalState":{"key":"06","name":"Hessen"}},{"name":"Tiefenbachweg","postalCode":"34590","locality":"Wabern","municipality":{"key":"06634025","name":"Wabern","type":"Kreisangehörige_Gemeinde"},"district":{"key":"06634","name":"Schwalm-Eder-Kreis","type":"Landkreis"},"federalState":{"key":"06","name":"Hessen"}},{"name":"Tränkeweg","postalCode":"34590","locality":"Wabern","municipality":{"key":"06634025","name":"Wabern","type":"Kreisangehörige_Gemeinde"},"district":{"key":"06634","name":"Schwalm-Eder-Kreis","type":"Landkreis"},"federalState":{"key":"06","name":"Hessen"}},{"name":"Trieschweg","postalCode":"34590","locality":"Wabern","municipality":{"key":"06634025","name":"Wabern","type":"Kreisangehörige_Gemeinde"},"district":{"key":"06634","name":"Schwalm-Eder-Kreis","type":"Landkreis"},"federalState":{"key":"06","name":"Hessen"}},{"name":"Truschelweg","postalCode":"34590","locality":"Wabern","municipality":{"key":"06634025","name":"Wabern","type":"Kreisangehörige_Gemeinde"},"district":{"key":"06634","name":"Schwalm-Eder-Kreis","type":"Landkreis"},"federalState":{"key":"06","name":"Hessen"}},{"name":"Turmstr.","postalCode":"34590","locality":"Wabern","municipality":{"key":"06634025","name":"Wabern","type":"Kreisangehörige_Gemeinde"},"district":{"key":"06634","name":"Schwalm-Eder-Kreis","type":"Landkreis"},"federalState":{"key":"06","name":"Hessen"}},{"name":"Udenborner Str.","postalCode":"34590","locality":"Wabern","municipality":{"key":"06634025","name":"Wabern","type":"Kreisangehörige_Gemeinde"},"district":{"key":"06634","name":"Schwalm-Eder-Kreis","type":"Landkreis"},"federalState":{"key":"06","name":"Hessen"}},{"name":"Ulmenweg","postalCode":"34590","locality":"Wabern","municipality":{"key":"06634025","name":"Wabern","type":"Kreisangehörige_Gemeinde"},"district":{"key":"06634","name":"Schwalm-Eder-Kreis","type":"Landkreis"},"federalState":{"key":"06","name":"Hessen"}},{"name":"Unter dem Hagen","postalCode":"34590","locality":"Wabern","municipality":{"key":"06634025","name":"Wabern","type":"Kreisangehörige_Gemeinde"},"district":{"key":"06634","name":"Schwalm-Eder-Kreis","type":"Landkreis"},"federalState":{"key":"06","name":"Hessen"}},{"name":"Uttershäuser Str.","postalCode":"34590","locality":"Wabern","municipality":{"key":"06634025","name":"Wabern","type":"Kreisangehörige_Gemeinde"},"district":{"key":"06634","name":"Schwalm-Eder-Kreis","type":"Landkreis"},"federalState":{"key":"06","name":"Hessen"}},{"name":"Vor den Erlen","postalCode":"34590","locality":"Wabern","municipality":{"key":"06634025","name":"Wabern","type":"Kreisangehörige_Gemeinde"},"district":{"key":"06634","name":"Schwalm-Eder-Kreis","type":"Landkreis"},"federalState":{"key":"06","name":"Hessen"}},{"name":"Waberner Weg","postalCode":"34590","locality":"Wabern","municipality":{"key":"06634025","name":"Wabern","type":"Kreisangehörige_Gemeinde"},"district":{"key":"06634","name":"Schwalm-Eder-Kreis","type":"Landkreis"},"federalState":{"key":"06","name":"Hessen"}},{"name":"Wäldchenweg","postalCode":"34590","locality":"Wabern","municipality":{"key":"06634025","name":"Wabern","type":"Kreisangehörige_Gemeinde"},"district":{"key":"06634","name":"Schwalm-Eder-Kreis","type":"Landkreis"},"federalState":{"key":"06","name":"Hessen"}},{"name":"Waldecker Str.","postalCode":"34590","locality":"Wabern","municipality":{"key":"06634025","name":"Wabern","type":"Kreisangehörige_Gemeinde"},"district":{"key":"06634","name":"Schwalm-Eder-Kreis","type":"Landkreis"},"federalState":{"key":"06","name":"Hessen"}},{"name":"Waldweg","postalCode":"34590","locality":"Wabern","municipality":{"key":"06634025","name":"Wabern","type":"Kreisangehörige_Gemeinde"},"district":{"key":"06634","name":"Schwalm-Eder-Kreis","type":"Landkreis"},"federalState":{"key":"06","name":"Hessen"}},{"name":"Webergasse","postalCode":"34590","locality":"Wabern","municipality":{"key":"06634025","name":"Wabern","type":"Kreisangehörige_Gemeinde"},"district":{"key":"06634","name":"Schwalm-Eder-Kreis","type":"Landkreis"},"federalState":{"key":"06","name":"Hessen"}},{"name":"Wehrstr.","postalCode":"34590","locality":"Wabern","municipality":{"key":"06634025","name":"Wabern","type":"Kreisangehörige_Gemeinde"},"district":{"key":"06634","name":"Schwalm-Eder-Kreis","type":"Landkreis"},"federalState":{"key":"06","name":"Hessen"}},{"name":"Weidenweg","postalCode":"34590","locality":"Wabern","municipality":{"key":"06634025","name":"Wabern","type":"Kreisangehörige_Gemeinde"},"district":{"key":"06634","name":"Schwalm-Eder-Kreis","type":"Landkreis"},"federalState":{"key":"06","name":"Hessen"}},{"name":"Wiesenweg","postalCode":"34590","locality":"Wabern","municipality":{"key":"06634025","name":"Wabern","type":"Kreisangehörige_Gemeinde"},"district":{"key":"06634","name":"Schwalm-Eder-Kreis","type":"Landkreis"},"federalState":{"key":"06","name":"Hessen"}},{"name":"Wildunger Str.","postalCode":"34590","locality":"Wabern","municipality":{"key":"06634025","name":"Wabern","type":"Kreisangehörige_Gemeinde"},"district":{"key":"06634","name":"Schwalm-Eder-Kreis","type":"Landkreis"},"federalState":{"key":"06","name":"Hessen"}},{"name":"Wilhelm-Dilich-Str.","postalCode":"34590","locality":"Wabern","municipality":{"key":"06634025","name":"Wabern","type":"Kreisangehörige_Gemeinde"},"district":{"key":"06634","name":"Schwalm-Eder-Kreis","type":"Landkreis"},"federalState":{"key":"06","name":"Hessen"}},{"name":"Wilhelmshöher Str.","postalCode":"34590","locality":"Wabern","municipality":{"key":"06634025","name":"Wabern","type":"Kreisangehörige_Gemeinde"},"district":{"key":"06634","name":"Schwalm-Eder-Kreis","type":"Landkreis"},"federalState":{"key":"06","name":"Hessen"}},{"name":"Wilhelmstr.","postalCode":"34590","locality":"Wabern","municipality":{"key":"06634025","name":"Wabern","type":"Kreisangehörige_Gemeinde"},"district":{"key":"06634","name":"Schwalm-Eder-Kreis","type":"Landkreis"},"federalState":{"key":"06","name":"Hessen"}},{"name":"Wimmer","postalCode":"34590","locality":"Wabern","municipality":{"key":"06634025","name":"Wabern","type":"Kreisangehörige_Gemeinde"},"district":{"key":"06634","name":"Schwalm-Eder-Kreis","type":"Landkreis"},"federalState":{"key":"06","name":"Hessen"}},{"name":"Winteräcker","postalCode":"34590","locality":"Wabern","municipality":{"key":"06634025","name":"Wabern","type":"Kreisangehörige_Gemeinde"},"district":{"key":"06634","name":"Schwalm-Eder-Kreis","type":"Landkreis"},"federalState":{"key":"06","name":"Hessen"}},{"name":"Wolfhager Str.","postalCode":"34590","locality":"Wabern","municipality":{"key":"06634025","name":"Wabern","type":"Kreisangehörige_Gemeinde"},"district":{"key":"06634","name":"Schwalm-Eder-Kreis","type":"Landkreis"},"federalState":{"key":"06","name":"Hessen"}},{"name":"Zennerwiesen","postalCode":"34590","locality":"Wabern","municipality":{"key":"06634025","name":"Wabern","type":"Kreisangehörige_Gemeinde"},"district":{"key":"06634","name":"Schwalm-Eder-Kreis","type":"Landkreis"},"federalState":{"key":"06","name":"Hessen"}},{"name":"Zeppelinstr.","postalCode":"34590","locality":"Wabern","municipality":{"key":"06634025","name":"Wabern","type":"Kreisangehörige_Gemeinde"},"district":{"key":"06634","name":"Schwalm-Eder-Kreis","type":"Landkreis"},"federalState":{"key":"06","name":"Hessen"}},{"name":"Ziegenhainer Str.","postalCode":"34590","locality":"Wabern","municipality":{"key":"06634025","name":"Wabern","type":"Kreisangehörige_Gemeinde"},"district":{"key":"06634","name":"Schwalm-Eder-Kreis","type":"Landkreis"},"federalState":{"key":"06","name":"Hessen"}},{"name":"Zur Wacht","postalCode":"34590","locality":"Wabern","municipality":{"key":"06634025","name":"Wabern","type":"Kreisangehörige_Gemeinde"},"district":{"key":"06634","name":"Schwalm-Eder-Kreis","type":"Landkreis"},"federalState":{"key":"06","name":"Hessen"}},{"name":"Zur Weißen Brücke","postalCode":"34590","locality":"Wabern","municipality":{"key":"06634025","name":"Wabern","type":"Kreisangehörige_Gemeinde"},"district":{"key":"06634","name":"Schwalm-Eder-Kreis","type":"Landkreis"},"federalState":{"key":"06","name":"Hessen"}},]