[{"name":"Aderleiten","postalCode":"84558","locality":"Kirchweidach","municipality":{"key":"09171122","name":"Kirchweidach","type":"Kreisangehörige_Gemeinde"},"district":{"key":"09171","name":"Altötting","type":"Landkreis"},"federalState":{"key":"09","name":"Bayern"}},{"name":"Ahornstr.","postalCode":"84558","locality":"Kirchweidach","municipality":{"key":"09171122","name":"Kirchweidach","type":"Kreisangehörige_Gemeinde"},"district":{"key":"09171","name":"Altötting","type":"Landkreis"},"federalState":{"key":"09","name":"Bayern"}},{"name":"Ahornweg","postalCode":"07570","locality":"Weida","municipality":{"key":"16076079","name":"Weida, Stadt","type":"Stadt"},"district":{"key":"16076","name":"Greiz","type":"Landkreis"},"federalState":{"key":"16","name":"Thüringen"}},{"name":"Ahornweg","postalCode":"09648","locality":"Mittweida","municipality":{"key":"14522360","name":"Mittweida, Stadt, Hochschulstadt","type":"Stadt"},"district":{"key":"14522","name":"Mittelsachsen","type":"Landkreis"},"federalState":{"key":"14","name":"Sachsen"}},{"name":"Alexander-Puschkin-Str.","postalCode":"07570","locality":"Weida","municipality":{"key":"16076079","name":"Weida, Stadt","type":"Stadt"},"district":{"key":"16076","name":"Greiz","type":"Landkreis"},"federalState":{"key":"16","name":"Thüringen"}},{"name":"Alte Aumaer Str.","postalCode":"07570","locality":"Weida","municipality":{"key":"16076079","name":"Weida, Stadt","type":"Stadt"},"district":{"key":"16076","name":"Greiz","type":"Landkreis"},"federalState":{"key":"16","name":"Thüringen"}},{"name":"Alte Bergaer Str.","postalCode":"07570","locality":"Weida","municipality":{"key":"16076079","name":"Weida, Stadt","type":"Stadt"},"district":{"key":"16076","name":"Greiz","type":"Landkreis"},"federalState":{"key":"16","name":"Thüringen"}},{"name":"Alte Leipziger Str.","postalCode":"09648","locality":"Mittweida","municipality":{"key":"14522360","name":"Mittweida, Stadt, Hochschulstadt","type":"Stadt"},"district":{"key":"14522","name":"Mittelsachsen","type":"Landkreis"},"federalState":{"key":"14","name":"Sachsen"}},{"name":"Altenburger Str.","postalCode":"09648","locality":"Mittweida","municipality":{"key":"14522360","name":"Mittweida, Stadt, Hochschulstadt","type":"Stadt"},"district":{"key":"14522","name":"Mittelsachsen","type":"Landkreis"},"federalState":{"key":"14","name":"Sachsen"}},{"name":"Alte Teichwitzer Str.","postalCode":"07570","locality":"Weida","municipality":{"key":"16076079","name":"Weida, Stadt","type":"Stadt"},"district":{"key":"16076","name":"Greiz","type":"Landkreis"},"federalState":{"key":"16","name":"Thüringen"}},{"name":"Alte Veitsberger Str.","postalCode":"07570","locality":"Weida","municipality":{"key":"16076079","name":"Weida, Stadt","type":"Stadt"},"district":{"key":"16076","name":"Greiz","type":"Landkreis"},"federalState":{"key":"16","name":"Thüringen"}},{"name":"Altmittweidaer Weg","postalCode":"09648","locality":"Mittweida","municipality":{"key":"14522360","name":"Mittweida, Stadt, Hochschulstadt","type":"Stadt"},"district":{"key":"14522","name":"Mittelsachsen","type":"Landkreis"},"federalState":{"key":"14","name":"Sachsen"}},{"name":"Am Anger","postalCode":"07955","locality":"Auma-Weidatal","municipality":{"key":"16076092","name":"Auma-Weidatal, Stadt","type":"Stadt"},"district":{"key":"16076","name":"Greiz","type":"Landkreis"},"federalState":{"key":"16","name":"Thüringen"}},{"name":"Am Bahnhof","postalCode":"09648","locality":"Altmittweida","municipality":{"key":"14522010","name":"Altmittweida","type":"Kreisangehörige_Gemeinde"},"district":{"key":"14522","name":"Mittelsachsen","type":"Landkreis"},"federalState":{"key":"14","name":"Sachsen"}},{"name":"Am Bahnhof","postalCode":"09648","locality":"Mittweida","municipality":{"key":"14522360","name":"Mittweida, Stadt, Hochschulstadt","type":"Stadt"},"district":{"key":"14522","name":"Mittelsachsen","type":"Landkreis"},"federalState":{"key":"14","name":"Sachsen"}},{"name":"Am Berg","postalCode":"07580","locality":"Linda b. Weida","municipality":{"key":"16076043","name":"Linda b. Weida","type":"Kreisangehörige_Gemeinde"},"district":{"key":"16076","name":"Greiz","type":"Landkreis"},"federalState":{"key":"16","name":"Thüringen"}},{"name":"Am Bürgerkarree","postalCode":"09648","locality":"Mittweida","municipality":{"key":"14522360","name":"Mittweida, Stadt, Hochschulstadt","type":"Stadt"},"district":{"key":"14522","name":"Mittelsachsen","type":"Landkreis"},"federalState":{"key":"14","name":"Sachsen"}},{"name":"Am Dorfberg","postalCode":"09648","locality":"Mittweida","municipality":{"key":"14522360","name":"Mittweida, Stadt, Hochschulstadt","type":"Stadt"},"district":{"key":"14522","name":"Mittelsachsen","type":"Landkreis"},"federalState":{"key":"14","name":"Sachsen"}},{"name":"Am Galgengrund","postalCode":"07570","locality":"Weida","municipality":{"key":"16076079","name":"Weida, Stadt","type":"Stadt"},"district":{"key":"16076","name":"Greiz","type":"Landkreis"},"federalState":{"key":"16","name":"Thüringen"}},{"name":"Am Güterbahnhof","postalCode":"09648","locality":"Mittweida","municipality":{"key":"14522360","name":"Mittweida, Stadt, Hochschulstadt","type":"Stadt"},"district":{"key":"14522","name":"Mittelsachsen","type":"Landkreis"},"federalState":{"key":"14","name":"Sachsen"}},{"name":"Am Hackberg","postalCode":"09648","locality":"Mittweida","municipality":{"key":"14522360","name":"Mittweida, Stadt, Hochschulstadt","type":"Stadt"},"district":{"key":"14522","name":"Mittelsachsen","type":"Landkreis"},"federalState":{"key":"14","name":"Sachsen"}},{"name":"Am Hain","postalCode":"09648","locality":"Mittweida","municipality":{"key":"14522360","name":"Mittweida, Stadt, Hochschulstadt","type":"Stadt"},"district":{"key":"14522","name":"Mittelsachsen","type":"Landkreis"},"federalState":{"key":"14","name":"Sachsen"}},{"name":"Am Jägerhof","postalCode":"09648","locality":"Mittweida","municipality":{"key":"14522360","name":"Mittweida, Stadt, Hochschulstadt","type":"Stadt"},"district":{"key":"14522","name":"Mittelsachsen","type":"Landkreis"},"federalState":{"key":"14","name":"Sachsen"}},{"name":"Am Katzenberg","postalCode":"07955","locality":"Auma-Weidatal","municipality":{"key":"16076092","name":"Auma-Weidatal, Stadt","type":"Stadt"},"district":{"key":"16076","name":"Greiz","type":"Landkreis"},"federalState":{"key":"16","name":"Thüringen"}},{"name":"Am Krähenholz","postalCode":"07570","locality":"Weida","municipality":{"key":"16076079","name":"Weida, Stadt","type":"Stadt"},"district":{"key":"16076","name":"Greiz","type":"Landkreis"},"federalState":{"key":"16","name":"Thüringen"}},{"name":"Am Krippenberg","postalCode":"07570","locality":"Weida","municipality":{"key":"16076079","name":"Weida, Stadt","type":"Stadt"},"district":{"key":"16076","name":"Greiz","type":"Landkreis"},"federalState":{"key":"16","name":"Thüringen"}},{"name":"Am Kuckucksberg","postalCode":"09648","locality":"Mittweida","municipality":{"key":"14522360","name":"Mittweida, Stadt, Hochschulstadt","type":"Stadt"},"district":{"key":"14522","name":"Mittelsachsen","type":"Landkreis"},"federalState":{"key":"14","name":"Sachsen"}},{"name":"Am Landratsamt","postalCode":"09648","locality":"Mittweida","municipality":{"key":"14522360","name":"Mittweida, Stadt, Hochschulstadt","type":"Stadt"},"district":{"key":"14522","name":"Mittelsachsen","type":"Landkreis"},"federalState":{"key":"14","name":"Sachsen"}},{"name":"Am Nesselbusch","postalCode":"09648","locality":"Mittweida","municipality":{"key":"14522360","name":"Mittweida, Stadt, Hochschulstadt","type":"Stadt"},"district":{"key":"14522","name":"Mittelsachsen","type":"Landkreis"},"federalState":{"key":"14","name":"Sachsen"}},{"name":"Am Plan","postalCode":"07955","locality":"Auma-Weidatal","municipality":{"key":"16076092","name":"Auma-Weidatal, Stadt","type":"Stadt"},"district":{"key":"16076","name":"Greiz","type":"Landkreis"},"federalState":{"key":"16","name":"Thüringen"}},{"name":"Am Raubschloß","postalCode":"09648","locality":"Mittweida","municipality":{"key":"14522360","name":"Mittweida, Stadt, Hochschulstadt","type":"Stadt"},"district":{"key":"14522","name":"Mittelsachsen","type":"Landkreis"},"federalState":{"key":"14","name":"Sachsen"}},{"name":"Am Reitplatz","postalCode":"09648","locality":"Altmittweida","municipality":{"key":"14522010","name":"Altmittweida","type":"Kreisangehörige_Gemeinde"},"district":{"key":"14522","name":"Mittelsachsen","type":"Landkreis"},"federalState":{"key":"14","name":"Sachsen"}},{"name":"Am Schafberge","postalCode":"07570","locality":"Weida","municipality":{"key":"16076079","name":"Weida, Stadt","type":"Stadt"},"district":{"key":"16076","name":"Greiz","type":"Landkreis"},"federalState":{"key":"16","name":"Thüringen"}},{"name":"Am Schafturm","postalCode":"07570","locality":"Weida","municipality":{"key":"16076079","name":"Weida, Stadt","type":"Stadt"},"district":{"key":"16076","name":"Greiz","type":"Landkreis"},"federalState":{"key":"16","name":"Thüringen"}},{"name":"Am Schießberg","postalCode":"07570","locality":"Weida","municipality":{"key":"16076079","name":"Weida, Stadt","type":"Stadt"},"district":{"key":"16076","name":"Greiz","type":"Landkreis"},"federalState":{"key":"16","name":"Thüringen"}},{"name":"Am Schwanenteich","postalCode":"09648","locality":"Mittweida","municipality":{"key":"14522360","name":"Mittweida, Stadt, Hochschulstadt","type":"Stadt"},"district":{"key":"14522","name":"Mittelsachsen","type":"Landkreis"},"federalState":{"key":"14","name":"Sachsen"}},{"name":"Am Schweizerwald","postalCode":"09648","locality":"Mittweida","municipality":{"key":"14522360","name":"Mittweida, Stadt, Hochschulstadt","type":"Stadt"},"district":{"key":"14522","name":"Mittelsachsen","type":"Landkreis"},"federalState":{"key":"14","name":"Sachsen"}},{"name":"Am Seeweg","postalCode":"07955","locality":"Auma-Weidatal","municipality":{"key":"16076092","name":"Auma-Weidatal, Stadt","type":"Stadt"},"district":{"key":"16076","name":"Greiz","type":"Landkreis"},"federalState":{"key":"16","name":"Thüringen"}},{"name":"Amselweg","postalCode":"09648","locality":"Altmittweida","municipality":{"key":"14522010","name":"Altmittweida","type":"Kreisangehörige_Gemeinde"},"district":{"key":"14522","name":"Mittelsachsen","type":"Landkreis"},"federalState":{"key":"14","name":"Sachsen"}},{"name":"Amselweg","postalCode":"84558","locality":"Kirchweidach","municipality":{"key":"09171122","name":"Kirchweidach","type":"Kreisangehörige_Gemeinde"},"district":{"key":"09171","name":"Altötting","type":"Landkreis"},"federalState":{"key":"09","name":"Bayern"}},{"name":"Am Sophienbad","postalCode":"07955","locality":"Auma-Weidatal","municipality":{"key":"16076092","name":"Auma-Weidatal, Stadt","type":"Stadt"},"district":{"key":"16076","name":"Greiz","type":"Landkreis"},"federalState":{"key":"16","name":"Thüringen"}},{"name":"Am Sportplatz","postalCode":"09648","locality":"Mittweida","municipality":{"key":"14522360","name":"Mittweida, Stadt, Hochschulstadt","type":"Stadt"},"district":{"key":"14522","name":"Mittelsachsen","type":"Landkreis"},"federalState":{"key":"14","name":"Sachsen"}},{"name":"Am Stadtbad","postalCode":"09648","locality":"Mittweida","municipality":{"key":"14522360","name":"Mittweida, Stadt, Hochschulstadt","type":"Stadt"},"district":{"key":"14522","name":"Mittelsachsen","type":"Landkreis"},"federalState":{"key":"14","name":"Sachsen"}},{"name":"Am Stadtpark","postalCode":"07955","locality":"Auma-Weidatal","municipality":{"key":"16076092","name":"Auma-Weidatal, Stadt","type":"Stadt"},"district":{"key":"16076","name":"Greiz","type":"Landkreis"},"federalState":{"key":"16","name":"Thüringen"}},{"name":"Am Stadtpark","postalCode":"09648","locality":"Mittweida","municipality":{"key":"14522360","name":"Mittweida, Stadt, Hochschulstadt","type":"Stadt"},"district":{"key":"14522","name":"Mittelsachsen","type":"Landkreis"},"federalState":{"key":"14","name":"Sachsen"}},{"name":"Am Steinberg","postalCode":"07580","locality":"Linda b. Weida","municipality":{"key":"16076043","name":"Linda b. Weida","type":"Kreisangehörige_Gemeinde"},"district":{"key":"16076","name":"Greiz","type":"Landkreis"},"federalState":{"key":"16","name":"Thüringen"}},{"name":"Am Talberg","postalCode":"07955","locality":"Auma-Weidatal","municipality":{"key":"16076092","name":"Auma-Weidatal, Stadt","type":"Stadt"},"district":{"key":"16076","name":"Greiz","type":"Landkreis"},"federalState":{"key":"16","name":"Thüringen"}},{"name":"Am Teich","postalCode":"07570","locality":"Weida","municipality":{"key":"16076079","name":"Weida, Stadt","type":"Stadt"},"district":{"key":"16076","name":"Greiz","type":"Landkreis"},"federalState":{"key":"16","name":"Thüringen"}},{"name":"Am Wasser","postalCode":"07570","locality":"Weida","municipality":{"key":"16076079","name":"Weida, Stadt","type":"Stadt"},"district":{"key":"16076","name":"Greiz","type":"Landkreis"},"federalState":{"key":"16","name":"Thüringen"}},{"name":"Am Weidaer Tor","postalCode":"07955","locality":"Auma-Weidatal","municipality":{"key":"16076092","name":"Auma-Weidatal, Stadt","type":"Stadt"},"district":{"key":"16076","name":"Greiz","type":"Landkreis"},"federalState":{"key":"16","name":"Thüringen"}},{"name":"Badweg","postalCode":"09648","locality":"Altmittweida","municipality":{"key":"14522010","name":"Altmittweida","type":"Kreisangehörige_Gemeinde"},"district":{"key":"14522","name":"Mittelsachsen","type":"Landkreis"},"federalState":{"key":"14","name":"Sachsen"}},{"name":"Bahnhofstr.","postalCode":"07570","locality":"Weida","municipality":{"key":"16076079","name":"Weida, Stadt","type":"Stadt"},"district":{"key":"16076","name":"Greiz","type":"Landkreis"},"federalState":{"key":"16","name":"Thüringen"}},{"name":"Bahnhofstr.","postalCode":"07955","locality":"Auma-Weidatal","municipality":{"key":"16076092","name":"Auma-Weidatal, Stadt","type":"Stadt"},"district":{"key":"16076","name":"Greiz","type":"Landkreis"},"federalState":{"key":"16","name":"Thüringen"}},{"name":"Bahnhofstr.","postalCode":"09648","locality":"Altmittweida","municipality":{"key":"14522010","name":"Altmittweida","type":"Kreisangehörige_Gemeinde"},"district":{"key":"14522","name":"Mittelsachsen","type":"Landkreis"},"federalState":{"key":"14","name":"Sachsen"}},{"name":"Bahnhofstr.","postalCode":"09648","locality":"Mittweida","municipality":{"key":"14522360","name":"Mittweida, Stadt, Hochschulstadt","type":"Stadt"},"district":{"key":"14522","name":"Mittelsachsen","type":"Landkreis"},"federalState":{"key":"14","name":"Sachsen"}},{"name":"Bahnhofstr.","postalCode":"84558","locality":"Kirchweidach","municipality":{"key":"09171122","name":"Kirchweidach","type":"Kreisangehörige_Gemeinde"},"district":{"key":"09171","name":"Altötting","type":"Landkreis"},"federalState":{"key":"09","name":"Bayern"}},{"name":"Baumpark Ringethal","postalCode":"09648","locality":"Mittweida","municipality":{"key":"14522360","name":"Mittweida, Stadt, Hochschulstadt","type":"Stadt"},"district":{"key":"14522","name":"Mittelsachsen","type":"Landkreis"},"federalState":{"key":"14","name":"Sachsen"}},{"name":"Beethovenweg","postalCode":"07570","locality":"Weida","municipality":{"key":"16076079","name":"Weida, Stadt","type":"Stadt"},"district":{"key":"16076","name":"Greiz","type":"Landkreis"},"federalState":{"key":"16","name":"Thüringen"}},{"name":"Berg","postalCode":"84558","locality":"Kirchweidach","municipality":{"key":"09171122","name":"Kirchweidach","type":"Kreisangehörige_Gemeinde"},"district":{"key":"09171","name":"Altötting","type":"Landkreis"},"federalState":{"key":"09","name":"Bayern"}},{"name":"Berggartenstr.","postalCode":"07570","locality":"Weida","municipality":{"key":"16076079","name":"Weida, Stadt","type":"Stadt"},"district":{"key":"16076","name":"Greiz","type":"Landkreis"},"federalState":{"key":"16","name":"Thüringen"}},{"name":"Bergstr.","postalCode":"07570","locality":"Weida","municipality":{"key":"16076079","name":"Weida, Stadt","type":"Stadt"},"district":{"key":"16076","name":"Greiz","type":"Landkreis"},"federalState":{"key":"16","name":"Thüringen"}},{"name":"Bergstr.","postalCode":"09648","locality":"Mittweida","municipality":{"key":"14522360","name":"Mittweida, Stadt, Hochschulstadt","type":"Stadt"},"district":{"key":"14522","name":"Mittelsachsen","type":"Landkreis"},"federalState":{"key":"14","name":"Sachsen"}},{"name":"Bergstr.","postalCode":"84558","locality":"Kirchweidach","municipality":{"key":"09171122","name":"Kirchweidach","type":"Kreisangehörige_Gemeinde"},"district":{"key":"09171","name":"Altötting","type":"Landkreis"},"federalState":{"key":"09","name":"Bayern"}},{"name":"Bergweg","postalCode":"07955","locality":"Auma-Weidatal","municipality":{"key":"16076092","name":"Auma-Weidatal, Stadt","type":"Stadt"},"district":{"key":"16076","name":"Greiz","type":"Landkreis"},"federalState":{"key":"16","name":"Thüringen"}},{"name":"Bernhard-Schmidt-Str.","postalCode":"09648","locality":"Mittweida","municipality":{"key":"14522360","name":"Mittweida, Stadt, Hochschulstadt","type":"Stadt"},"district":{"key":"14522","name":"Mittelsachsen","type":"Landkreis"},"federalState":{"key":"14","name":"Sachsen"}},{"name":"Berreit","postalCode":"84558","locality":"Kirchweidach","municipality":{"key":"09171122","name":"Kirchweidach","type":"Kreisangehörige_Gemeinde"},"district":{"key":"09171","name":"Altötting","type":"Landkreis"},"federalState":{"key":"09","name":"Bayern"}},{"name":"Biburg","postalCode":"84558","locality":"Kirchweidach","municipality":{"key":"09171122","name":"Kirchweidach","type":"Kreisangehörige_Gemeinde"},"district":{"key":"09171","name":"Altötting","type":"Landkreis"},"federalState":{"key":"09","name":"Bayern"}},{"name":"Bicheln","postalCode":"84558","locality":"Kirchweidach","municipality":{"key":"09171122","name":"Kirchweidach","type":"Kreisangehörige_Gemeinde"},"district":{"key":"09171","name":"Altötting","type":"Landkreis"},"federalState":{"key":"09","name":"Bayern"}},{"name":"Birkenstr.","postalCode":"84558","locality":"Kirchweidach","municipality":{"key":"09171122","name":"Kirchweidach","type":"Kreisangehörige_Gemeinde"},"district":{"key":"09171","name":"Altötting","type":"Landkreis"},"federalState":{"key":"09","name":"Bayern"}},{"name":"Birkenweg","postalCode":"07570","locality":"Weida","municipality":{"key":"16076079","name":"Weida, Stadt","type":"Stadt"},"district":{"key":"16076","name":"Greiz","type":"Landkreis"},"federalState":{"key":"16","name":"Thüringen"}},{"name":"Birkenweg","postalCode":"09648","locality":"Mittweida","municipality":{"key":"14522360","name":"Mittweida, Stadt, Hochschulstadt","type":"Stadt"},"district":{"key":"14522","name":"Mittelsachsen","type":"Landkreis"},"federalState":{"key":"14","name":"Sachsen"}},{"name":"Birnbaum","postalCode":"84558","locality":"Kirchweidach","municipality":{"key":"09171122","name":"Kirchweidach","type":"Kreisangehörige_Gemeinde"},"district":{"key":"09171","name":"Altötting","type":"Landkreis"},"federalState":{"key":"09","name":"Bayern"}},{"name":"Bleichweg","postalCode":"09648","locality":"Mittweida","municipality":{"key":"14522360","name":"Mittweida, Stadt, Hochschulstadt","type":"Stadt"},"district":{"key":"14522","name":"Mittelsachsen","type":"Landkreis"},"federalState":{"key":"14","name":"Sachsen"}},{"name":"Blumenstr.","postalCode":"84558","locality":"Kirchweidach","municipality":{"key":"09171122","name":"Kirchweidach","type":"Kreisangehörige_Gemeinde"},"district":{"key":"09171","name":"Altötting","type":"Landkreis"},"federalState":{"key":"09","name":"Bayern"}},{"name":"Böhrpfad","postalCode":"84558","locality":"Kirchweidach","municipality":{"key":"09171122","name":"Kirchweidach","type":"Kreisangehörige_Gemeinde"},"district":{"key":"09171","name":"Altötting","type":"Landkreis"},"federalState":{"key":"09","name":"Bayern"}},{"name":"Bornheimer Str.","postalCode":"09648","locality":"Mittweida","municipality":{"key":"14522360","name":"Mittweida, Stadt, Hochschulstadt","type":"Stadt"},"district":{"key":"14522","name":"Mittelsachsen","type":"Landkreis"},"federalState":{"key":"14","name":"Sachsen"}},{"name":"Brauhausgasse","postalCode":"07570","locality":"Weida","municipality":{"key":"16076079","name":"Weida, Stadt","type":"Stadt"},"district":{"key":"16076","name":"Greiz","type":"Landkreis"},"federalState":{"key":"16","name":"Thüringen"}},{"name":"Braunichswalder Str.","postalCode":"07580","locality":"Linda b. Weida","municipality":{"key":"16076043","name":"Linda b. Weida","type":"Kreisangehörige_Gemeinde"},"district":{"key":"16076","name":"Greiz","type":"Landkreis"},"federalState":{"key":"16","name":"Thüringen"}},{"name":"Braunsdorf","postalCode":"07955","locality":"Auma-Weidatal","municipality":{"key":"16076092","name":"Auma-Weidatal, Stadt","type":"Stadt"},"district":{"key":"16076","name":"Greiz","type":"Landkreis"},"federalState":{"key":"16","name":"Thüringen"}},{"name":"Breite Str.","postalCode":"07955","locality":"Auma-Weidatal","municipality":{"key":"16076092","name":"Auma-Weidatal, Stadt","type":"Stadt"},"district":{"key":"16076","name":"Greiz","type":"Landkreis"},"federalState":{"key":"16","name":"Thüringen"}},{"name":"Brückenaue","postalCode":"09648","locality":"Mittweida","municipality":{"key":"14522360","name":"Mittweida, Stadt, Hochschulstadt","type":"Stadt"},"district":{"key":"14522","name":"Mittelsachsen","type":"Landkreis"},"federalState":{"key":"14","name":"Sachsen"}},{"name":"Brüderstr.","postalCode":"07570","locality":"Weida","municipality":{"key":"16076079","name":"Weida, Stadt","type":"Stadt"},"district":{"key":"16076","name":"Greiz","type":"Landkreis"},"federalState":{"key":"16","name":"Thüringen"}},{"name":"Brühl","postalCode":"09648","locality":"Mittweida","municipality":{"key":"14522360","name":"Mittweida, Stadt, Hochschulstadt","type":"Stadt"},"district":{"key":"14522","name":"Mittelsachsen","type":"Landkreis"},"federalState":{"key":"14","name":"Sachsen"}},{"name":"Buchenweg","postalCode":"09648","locality":"Mittweida","municipality":{"key":"14522360","name":"Mittweida, Stadt, Hochschulstadt","type":"Stadt"},"district":{"key":"14522","name":"Mittelsachsen","type":"Landkreis"},"federalState":{"key":"14","name":"Sachsen"}},{"name":"Burghausener Str.","postalCode":"84558","locality":"Kirchweidach","municipality":{"key":"09171122","name":"Kirchweidach","type":"Kreisangehörige_Gemeinde"},"district":{"key":"09171","name":"Altötting","type":"Landkreis"},"federalState":{"key":"09","name":"Bayern"}},{"name":"Burgstädter Str.","postalCode":"09648","locality":"Altmittweida","municipality":{"key":"14522010","name":"Altmittweida","type":"Kreisangehörige_Gemeinde"},"district":{"key":"14522","name":"Mittelsachsen","type":"Landkreis"},"federalState":{"key":"14","name":"Sachsen"}},{"name":"Burgstädter Str.","postalCode":"09648","locality":"Mittweida","municipality":{"key":"14522360","name":"Mittweida, Stadt, Hochschulstadt","type":"Stadt"},"district":{"key":"14522","name":"Mittelsachsen","type":"Landkreis"},"federalState":{"key":"14","name":"Sachsen"}},{"name":"Burgstr.","postalCode":"07570","locality":"Weida","municipality":{"key":"16076079","name":"Weida, Stadt","type":"Stadt"},"district":{"key":"16076","name":"Greiz","type":"Landkreis"},"federalState":{"key":"16","name":"Thüringen"}},{"name":"Chemnitzer Str.","postalCode":"09648","locality":"Altmittweida","municipality":{"key":"14522010","name":"Altmittweida","type":"Kreisangehörige_Gemeinde"},"district":{"key":"14522","name":"Mittelsachsen","type":"Landkreis"},"federalState":{"key":"14","name":"Sachsen"}},{"name":"Chemnitzer Str.","postalCode":"09648","locality":"Mittweida","municipality":{"key":"14522360","name":"Mittweida, Stadt, Hochschulstadt","type":"Stadt"},"district":{"key":"14522","name":"Mittelsachsen","type":"Landkreis"},"federalState":{"key":"14","name":"Sachsen"}},{"name":"Clara-Zetkin-Str.","postalCode":"07570","locality":"Weida","municipality":{"key":"16076079","name":"Weida, Stadt","type":"Stadt"},"district":{"key":"16076","name":"Greiz","type":"Landkreis"},"federalState":{"key":"16","name":"Thüringen"}},{"name":"Clemens-Fritzsche-Str.","postalCode":"09648","locality":"Altmittweida","municipality":{"key":"14522010","name":"Altmittweida","type":"Kreisangehörige_Gemeinde"},"district":{"key":"14522","name":"Mittelsachsen","type":"Landkreis"},"federalState":{"key":"14","name":"Sachsen"}},{"name":"Cronschwitzer Weg","postalCode":"07570","locality":"Weida","municipality":{"key":"16076079","name":"Weida, Stadt","type":"Stadt"},"district":{"key":"16076","name":"Greiz","type":"Landkreis"},"federalState":{"key":"16","name":"Thüringen"}},{"name":"Dahlienweg","postalCode":"09648","locality":"Altmittweida","municipality":{"key":"14522010","name":"Altmittweida","type":"Kreisangehörige_Gemeinde"},"district":{"key":"14522","name":"Mittelsachsen","type":"Landkreis"},"federalState":{"key":"14","name":"Sachsen"}},{"name":"Damaschkestr.","postalCode":"09648","locality":"Mittweida","municipality":{"key":"14522360","name":"Mittweida, Stadt, Hochschulstadt","type":"Stadt"},"district":{"key":"14522","name":"Mittelsachsen","type":"Landkreis"},"federalState":{"key":"14","name":"Sachsen"}},{"name":"Diebstr.","postalCode":"09648","locality":"Mittweida","municipality":{"key":"14522360","name":"Mittweida, Stadt, Hochschulstadt","type":"Stadt"},"district":{"key":"14522","name":"Mittelsachsen","type":"Landkreis"},"federalState":{"key":"14","name":"Sachsen"}},{"name":"Döhlen","postalCode":"07955","locality":"Auma-Weidatal","municipality":{"key":"16076092","name":"Auma-Weidatal, Stadt","type":"Stadt"},"district":{"key":"16076","name":"Greiz","type":"Landkreis"},"federalState":{"key":"16","name":"Thüringen"}},{"name":"Dörffelstr.","postalCode":"07570","locality":"Weida","municipality":{"key":"16076079","name":"Weida, Stadt","type":"Stadt"},"district":{"key":"16076","name":"Greiz","type":"Landkreis"},"federalState":{"key":"16","name":"Thüringen"}},{"name":"Dorfstr.","postalCode":"07570","locality":"Weida","municipality":{"key":"16076079","name":"Weida, Stadt","type":"Stadt"},"district":{"key":"16076","name":"Greiz","type":"Landkreis"},"federalState":{"key":"16","name":"Thüringen"}},{"name":"Dorfstr.","postalCode":"09648","locality":"Altmittweida","municipality":{"key":"14522010","name":"Altmittweida","type":"Kreisangehörige_Gemeinde"},"district":{"key":"14522","name":"Mittelsachsen","type":"Landkreis"},"federalState":{"key":"14","name":"Sachsen"}},{"name":"Dorfstr.","postalCode":"09648","locality":"Mittweida","municipality":{"key":"14522360","name":"Mittweida, Stadt, Hochschulstadt","type":"Stadt"},"district":{"key":"14522","name":"Mittelsachsen","type":"Landkreis"},"federalState":{"key":"14","name":"Sachsen"}},{"name":"Dorfstr.","postalCode":"84558","locality":"Kirchweidach","municipality":{"key":"09171122","name":"Kirchweidach","type":"Kreisangehörige_Gemeinde"},"district":{"key":"09171","name":"Altötting","type":"Landkreis"},"federalState":{"key":"09","name":"Bayern"}},{"name":"Dornberg","postalCode":"07570","locality":"Weida","municipality":{"key":"16076079","name":"Weida, Stadt","type":"Stadt"},"district":{"key":"16076","name":"Greiz","type":"Landkreis"},"federalState":{"key":"16","name":"Thüringen"}},{"name":"Dorngäßchen","postalCode":"07570","locality":"Weida","municipality":{"key":"16076079","name":"Weida, Stadt","type":"Stadt"},"district":{"key":"16076","name":"Greiz","type":"Landkreis"},"federalState":{"key":"16","name":"Thüringen"}},{"name":"Dreiwerdener Weg","postalCode":"09648","locality":"Mittweida","municipality":{"key":"14522360","name":"Mittweida, Stadt, Hochschulstadt","type":"Stadt"},"district":{"key":"14522","name":"Mittelsachsen","type":"Landkreis"},"federalState":{"key":"14","name":"Sachsen"}},{"name":"Dresdener Str.","postalCode":"09648","locality":"Mittweida","municipality":{"key":"14522360","name":"Mittweida, Stadt, Hochschulstadt","type":"Stadt"},"district":{"key":"14522","name":"Mittelsachsen","type":"Landkreis"},"federalState":{"key":"14","name":"Sachsen"}},{"name":"Dr.-Josef-Wirth-Str.","postalCode":"07570","locality":"Weida","municipality":{"key":"16076079","name":"Weida, Stadt","type":"Stadt"},"district":{"key":"16076","name":"Greiz","type":"Landkreis"},"federalState":{"key":"16","name":"Thüringen"}},{"name":"Dr.-Martin-Luther-Str.","postalCode":"07955","locality":"Auma-Weidatal","municipality":{"key":"16076092","name":"Auma-Weidatal, Stadt","type":"Stadt"},"district":{"key":"16076","name":"Greiz","type":"Landkreis"},"federalState":{"key":"16","name":"Thüringen"}},{"name":"Drosselweg","postalCode":"84558","locality":"Kirchweidach","municipality":{"key":"09171122","name":"Kirchweidach","type":"Kreisangehörige_Gemeinde"},"district":{"key":"09171","name":"Altötting","type":"Landkreis"},"federalState":{"key":"09","name":"Bayern"}},{"name":"Dr.-Rudolf-Breitscheid-Str.","postalCode":"07570","locality":"Weida","municipality":{"key":"16076079","name":"Weida, Stadt","type":"Stadt"},"district":{"key":"16076","name":"Greiz","type":"Landkreis"},"federalState":{"key":"16","name":"Thüringen"}},{"name":"Dr.-Wilhelm-Külz-Str.","postalCode":"09648","locality":"Mittweida","municipality":{"key":"14522360","name":"Mittweida, Stadt, Hochschulstadt","type":"Stadt"},"district":{"key":"14522","name":"Mittelsachsen","type":"Landkreis"},"federalState":{"key":"14","name":"Sachsen"}},{"name":"Eichenweg","postalCode":"07570","locality":"Weida","municipality":{"key":"16076079","name":"Weida, Stadt","type":"Stadt"},"district":{"key":"16076","name":"Greiz","type":"Landkreis"},"federalState":{"key":"16","name":"Thüringen"}},{"name":"Eichenweg","postalCode":"84558","locality":"Kirchweidach","municipality":{"key":"09171122","name":"Kirchweidach","type":"Kreisangehörige_Gemeinde"},"district":{"key":"09171","name":"Altötting","type":"Landkreis"},"federalState":{"key":"09","name":"Bayern"}},{"name":"Eichplatz","postalCode":"07955","locality":"Auma-Weidatal","municipality":{"key":"16076092","name":"Auma-Weidatal, Stadt","type":"Stadt"},"district":{"key":"16076","name":"Greiz","type":"Landkreis"},"federalState":{"key":"16","name":"Thüringen"}},{"name":"Eichstr.","postalCode":"07955","locality":"Auma-Weidatal","municipality":{"key":"16076092","name":"Auma-Weidatal, Stadt","type":"Stadt"},"district":{"key":"16076","name":"Greiz","type":"Landkreis"},"federalState":{"key":"16","name":"Thüringen"}},{"name":"Eisenhammerweg","postalCode":"07570","locality":"Weida","municipality":{"key":"16076079","name":"Weida, Stadt","type":"Stadt"},"district":{"key":"16076","name":"Greiz","type":"Landkreis"},"federalState":{"key":"16","name":"Thüringen"}},{"name":"Endlerstr.","postalCode":"09648","locality":"Mittweida","municipality":{"key":"14522360","name":"Mittweida, Stadt, Hochschulstadt","type":"Stadt"},"district":{"key":"14522","name":"Mittelsachsen","type":"Landkreis"},"federalState":{"key":"14","name":"Sachsen"}},{"name":"Enzianstr.","postalCode":"84558","locality":"Kirchweidach","municipality":{"key":"09171122","name":"Kirchweidach","type":"Kreisangehörige_Gemeinde"},"district":{"key":"09171","name":"Altötting","type":"Landkreis"},"federalState":{"key":"09","name":"Bayern"}},{"name":"Erich-Weinert-Str.","postalCode":"07570","locality":"Weida","municipality":{"key":"16076079","name":"Weida, Stadt","type":"Stadt"},"district":{"key":"16076","name":"Greiz","type":"Landkreis"},"federalState":{"key":"16","name":"Thüringen"}},{"name":"Erikaweg","postalCode":"09648","locality":"Altmittweida","municipality":{"key":"14522010","name":"Altmittweida","type":"Kreisangehörige_Gemeinde"},"district":{"key":"14522","name":"Mittelsachsen","type":"Landkreis"},"federalState":{"key":"14","name":"Sachsen"}},{"name":"Erlenweg","postalCode":"07570","locality":"Weida","municipality":{"key":"16076079","name":"Weida, Stadt","type":"Stadt"},"district":{"key":"16076","name":"Greiz","type":"Landkreis"},"federalState":{"key":"16","name":"Thüringen"}},{"name":"Ernst-Thälmann-Str.","postalCode":"07570","locality":"Weida","municipality":{"key":"16076079","name":"Weida, Stadt","type":"Stadt"},"district":{"key":"16076","name":"Greiz","type":"Landkreis"},"federalState":{"key":"16","name":"Thüringen"}},{"name":"Eschenweg","postalCode":"84558","locality":"Kirchweidach","municipality":{"key":"09171122","name":"Kirchweidach","type":"Kreisangehörige_Gemeinde"},"district":{"key":"09171","name":"Altötting","type":"Landkreis"},"federalState":{"key":"09","name":"Bayern"}},{"name":"Fabrikstr.","postalCode":"09648","locality":"Mittweida","municipality":{"key":"14522360","name":"Mittweida, Stadt, Hochschulstadt","type":"Stadt"},"district":{"key":"14522","name":"Mittelsachsen","type":"Landkreis"},"federalState":{"key":"14","name":"Sachsen"}},{"name":"Falkenhainer Str.","postalCode":"09648","locality":"Mittweida","municipality":{"key":"14522360","name":"Mittweida, Stadt, Hochschulstadt","type":"Stadt"},"district":{"key":"14522","name":"Mittelsachsen","type":"Landkreis"},"federalState":{"key":"14","name":"Sachsen"}},{"name":"Fasanenstr.","postalCode":"84558","locality":"Kirchweidach","municipality":{"key":"09171122","name":"Kirchweidach","type":"Kreisangehörige_Gemeinde"},"district":{"key":"09171","name":"Altötting","type":"Landkreis"},"federalState":{"key":"09","name":"Bayern"}},{"name":"Feichtener Str.","postalCode":"84558","locality":"Kirchweidach","municipality":{"key":"09171122","name":"Kirchweidach","type":"Kreisangehörige_Gemeinde"},"district":{"key":"09171","name":"Altötting","type":"Landkreis"},"federalState":{"key":"09","name":"Bayern"}},{"name":"Feldstr.","postalCode":"07570","locality":"Weida","municipality":{"key":"16076079","name":"Weida, Stadt","type":"Stadt"},"district":{"key":"16076","name":"Greiz","type":"Landkreis"},"federalState":{"key":"16","name":"Thüringen"}},{"name":"Feldstr.","postalCode":"09648","locality":"Mittweida","municipality":{"key":"14522360","name":"Mittweida, Stadt, Hochschulstadt","type":"Stadt"},"district":{"key":"14522","name":"Mittelsachsen","type":"Landkreis"},"federalState":{"key":"14","name":"Sachsen"}},{"name":"Ferdinand-Möhler-Str.","postalCode":"09648","locality":"Altmittweida","municipality":{"key":"14522010","name":"Altmittweida","type":"Kreisangehörige_Gemeinde"},"district":{"key":"14522","name":"Mittelsachsen","type":"Landkreis"},"federalState":{"key":"14","name":"Sachsen"}},{"name":"Fichteweg","postalCode":"07570","locality":"Weida","municipality":{"key":"16076079","name":"Weida, Stadt","type":"Stadt"},"district":{"key":"16076","name":"Greiz","type":"Landkreis"},"federalState":{"key":"16","name":"Thüringen"}},{"name":"Finkenstr.","postalCode":"84558","locality":"Kirchweidach","municipality":{"key":"09171122","name":"Kirchweidach","type":"Kreisangehörige_Gemeinde"},"district":{"key":"09171","name":"Altötting","type":"Landkreis"},"federalState":{"key":"09","name":"Bayern"}},{"name":"Finkenweg","postalCode":"09648","locality":"Altmittweida","municipality":{"key":"14522010","name":"Altmittweida","type":"Kreisangehörige_Gemeinde"},"district":{"key":"14522","name":"Mittelsachsen","type":"Landkreis"},"federalState":{"key":"14","name":"Sachsen"}},{"name":"Finkenweg","postalCode":"09648","locality":"Mittweida","municipality":{"key":"14522360","name":"Mittweida, Stadt, Hochschulstadt","type":"Stadt"},"district":{"key":"14522","name":"Mittelsachsen","type":"Landkreis"},"federalState":{"key":"14","name":"Sachsen"}},{"name":"Fliederweg","postalCode":"09648","locality":"Altmittweida","municipality":{"key":"14522010","name":"Altmittweida","type":"Kreisangehörige_Gemeinde"},"district":{"key":"14522","name":"Mittelsachsen","type":"Landkreis"},"federalState":{"key":"14","name":"Sachsen"}},{"name":"Flurstr.","postalCode":"84558","locality":"Kirchweidach","municipality":{"key":"09171122","name":"Kirchweidach","type":"Kreisangehörige_Gemeinde"},"district":{"key":"09171","name":"Altötting","type":"Landkreis"},"federalState":{"key":"09","name":"Bayern"}},{"name":"Flurweg","postalCode":"07570","locality":"Weida","municipality":{"key":"16076079","name":"Weida, Stadt","type":"Stadt"},"district":{"key":"16076","name":"Greiz","type":"Landkreis"},"federalState":{"key":"16","name":"Thüringen"}},{"name":"Forstweg","postalCode":"07570","locality":"Weida","municipality":{"key":"16076079","name":"Weida, Stadt","type":"Stadt"},"district":{"key":"16076","name":"Greiz","type":"Landkreis"},"federalState":{"key":"16","name":"Thüringen"}},{"name":"Franckestr.","postalCode":"07570","locality":"Weida","municipality":{"key":"16076079","name":"Weida, Stadt","type":"Stadt"},"district":{"key":"16076","name":"Greiz","type":"Landkreis"},"federalState":{"key":"16","name":"Thüringen"}},{"name":"Frankenauer Str.","postalCode":"09648","locality":"Altmittweida","municipality":{"key":"14522010","name":"Altmittweida","type":"Kreisangehörige_Gemeinde"},"district":{"key":"14522","name":"Mittelsachsen","type":"Landkreis"},"federalState":{"key":"14","name":"Sachsen"}},{"name":"Frankenberger Str.","postalCode":"09648","locality":"Mittweida","municipality":{"key":"14522360","name":"Mittweida, Stadt, Hochschulstadt","type":"Stadt"},"district":{"key":"14522","name":"Mittelsachsen","type":"Landkreis"},"federalState":{"key":"14","name":"Sachsen"}},{"name":"Franz-Schubert-Str.","postalCode":"07570","locality":"Weida","municipality":{"key":"16076079","name":"Weida, Stadt","type":"Stadt"},"district":{"key":"16076","name":"Greiz","type":"Landkreis"},"federalState":{"key":"16","name":"Thüringen"}},{"name":"Freiberger Str.","postalCode":"09648","locality":"Mittweida","municipality":{"key":"14522360","name":"Mittweida, Stadt, Hochschulstadt","type":"Stadt"},"district":{"key":"14522","name":"Mittelsachsen","type":"Landkreis"},"federalState":{"key":"14","name":"Sachsen"}},{"name":"Freybergstr.","postalCode":"07955","locality":"Auma-Weidatal","municipality":{"key":"16076092","name":"Auma-Weidatal, Stadt","type":"Stadt"},"district":{"key":"16076","name":"Greiz","type":"Landkreis"},"federalState":{"key":"16","name":"Thüringen"}},{"name":"Friedensstr.","postalCode":"07570","locality":"Weida","municipality":{"key":"16076079","name":"Weida, Stadt","type":"Stadt"},"district":{"key":"16076","name":"Greiz","type":"Landkreis"},"federalState":{"key":"16","name":"Thüringen"}},{"name":"Friedhofstr.","postalCode":"07570","locality":"Weida","municipality":{"key":"16076079","name":"Weida, Stadt","type":"Stadt"},"district":{"key":"16076","name":"Greiz","type":"Landkreis"},"federalState":{"key":"16","name":"Thüringen"}},{"name":"Friedhofstr.","postalCode":"07955","locality":"Auma-Weidatal","municipality":{"key":"16076092","name":"Auma-Weidatal, Stadt","type":"Stadt"},"district":{"key":"16076","name":"Greiz","type":"Landkreis"},"federalState":{"key":"16","name":"Thüringen"}},{"name":"Friedrich-Ebert-Str.","postalCode":"07570","locality":"Weida","municipality":{"key":"16076079","name":"Weida, Stadt","type":"Stadt"},"district":{"key":"16076","name":"Greiz","type":"Landkreis"},"federalState":{"key":"16","name":"Thüringen"}},{"name":"Friedrich-Schiller-Str.","postalCode":"07955","locality":"Auma-Weidatal","municipality":{"key":"16076092","name":"Auma-Weidatal, Stadt","type":"Stadt"},"district":{"key":"16076","name":"Greiz","type":"Landkreis"},"federalState":{"key":"16","name":"Thüringen"}},{"name":"Frongasse","postalCode":"09648","locality":"Mittweida","municipality":{"key":"14522360","name":"Mittweida, Stadt, Hochschulstadt","type":"Stadt"},"district":{"key":"14522","name":"Mittelsachsen","type":"Landkreis"},"federalState":{"key":"14","name":"Sachsen"}},{"name":"Fußweg","postalCode":"07570","locality":"Weida","municipality":{"key":"16076079","name":"Weida, Stadt","type":"Stadt"},"district":{"key":"16076","name":"Greiz","type":"Landkreis"},"federalState":{"key":"16","name":"Thüringen"}},{"name":"Gabelsbergerstr.","postalCode":"09648","locality":"Mittweida","municipality":{"key":"14522360","name":"Mittweida, Stadt, Hochschulstadt","type":"Stadt"},"district":{"key":"14522","name":"Mittelsachsen","type":"Landkreis"},"federalState":{"key":"14","name":"Sachsen"}},{"name":"Gabelsberger Str.","postalCode":"07570","locality":"Weida","municipality":{"key":"16076079","name":"Weida, Stadt","type":"Stadt"},"district":{"key":"16076","name":"Greiz","type":"Landkreis"},"federalState":{"key":"16","name":"Thüringen"}},{"name":"Gartenstr.","postalCode":"07955","locality":"Auma-Weidatal","municipality":{"key":"16076092","name":"Auma-Weidatal, Stadt","type":"Stadt"},"district":{"key":"16076","name":"Greiz","type":"Landkreis"},"federalState":{"key":"16","name":"Thüringen"}},{"name":"Gartenstr.","postalCode":"09648","locality":"Mittweida","municipality":{"key":"14522360","name":"Mittweida, Stadt, Hochschulstadt","type":"Stadt"},"district":{"key":"14522","name":"Mittelsachsen","type":"Landkreis"},"federalState":{"key":"14","name":"Sachsen"}},{"name":"Gartenstr.","postalCode":"84558","locality":"Kirchweidach","municipality":{"key":"09171122","name":"Kirchweidach","type":"Kreisangehörige_Gemeinde"},"district":{"key":"09171","name":"Altötting","type":"Landkreis"},"federalState":{"key":"09","name":"Bayern"}},{"name":"Gauersche Str.","postalCode":"07580","locality":"Linda b. Weida","municipality":{"key":"16076043","name":"Linda b. Weida","type":"Kreisangehörige_Gemeinde"},"district":{"key":"16076","name":"Greiz","type":"Landkreis"},"federalState":{"key":"16","name":"Thüringen"}},{"name":"Georg-Büchner-Str.","postalCode":"09648","locality":"Mittweida","municipality":{"key":"14522360","name":"Mittweida, Stadt, Hochschulstadt","type":"Stadt"},"district":{"key":"14522","name":"Mittelsachsen","type":"Landkreis"},"federalState":{"key":"14","name":"Sachsen"}},{"name":"Georg-Kresse-Weg","postalCode":"07955","locality":"Auma-Weidatal","municipality":{"key":"16076092","name":"Auma-Weidatal, Stadt","type":"Stadt"},"district":{"key":"16076","name":"Greiz","type":"Landkreis"},"federalState":{"key":"16","name":"Thüringen"}},{"name":"Geraer Landstr.","postalCode":"07570","locality":"Weida","municipality":{"key":"16076079","name":"Weida, Stadt","type":"Stadt"},"district":{"key":"16076","name":"Greiz","type":"Landkreis"},"federalState":{"key":"16","name":"Thüringen"}},{"name":"Geraer Str.","postalCode":"07570","locality":"Weida","municipality":{"key":"16076079","name":"Weida, Stadt","type":"Stadt"},"district":{"key":"16076","name":"Greiz","type":"Landkreis"},"federalState":{"key":"16","name":"Thüringen"}},{"name":"Geraische Str.","postalCode":"07955","locality":"Auma-Weidatal","municipality":{"key":"16076092","name":"Auma-Weidatal, Stadt","type":"Stadt"},"district":{"key":"16076","name":"Greiz","type":"Landkreis"},"federalState":{"key":"16","name":"Thüringen"}},{"name":"Gerberstr.","postalCode":"07570","locality":"Weida","municipality":{"key":"16076079","name":"Weida, Stadt","type":"Stadt"},"district":{"key":"16076","name":"Greiz","type":"Landkreis"},"federalState":{"key":"16","name":"Thüringen"}},{"name":"Gerhart-Hauptmann-Str.","postalCode":"09648","locality":"Mittweida","municipality":{"key":"14522360","name":"Mittweida, Stadt, Hochschulstadt","type":"Stadt"},"district":{"key":"14522","name":"Mittelsachsen","type":"Landkreis"},"federalState":{"key":"14","name":"Sachsen"}},{"name":"Geringswalder Str.","postalCode":"09648","locality":"Mittweida","municipality":{"key":"14522360","name":"Mittweida, Stadt, Hochschulstadt","type":"Stadt"},"district":{"key":"14522","name":"Mittelsachsen","type":"Landkreis"},"federalState":{"key":"14","name":"Sachsen"}},{"name":"Geschwister-Scholl-Platz","postalCode":"09648","locality":"Mittweida","municipality":{"key":"14522360","name":"Mittweida, Stadt, Hochschulstadt","type":"Stadt"},"district":{"key":"14522","name":"Mittelsachsen","type":"Landkreis"},"federalState":{"key":"14","name":"Sachsen"}},{"name":"Goethestr.","postalCode":"07570","locality":"Weida","municipality":{"key":"16076079","name":"Weida, Stadt","type":"Stadt"},"district":{"key":"16076","name":"Greiz","type":"Landkreis"},"federalState":{"key":"16","name":"Thüringen"}},{"name":"Goethestr.","postalCode":"09648","locality":"Mittweida","municipality":{"key":"14522360","name":"Mittweida, Stadt, Hochschulstadt","type":"Stadt"},"district":{"key":"14522","name":"Mittelsachsen","type":"Landkreis"},"federalState":{"key":"14","name":"Sachsen"}},{"name":"Göhren","postalCode":"07955","locality":"Auma-Weidatal","municipality":{"key":"16076092","name":"Auma-Weidatal, Stadt","type":"Stadt"},"district":{"key":"16076","name":"Greiz","type":"Landkreis"},"federalState":{"key":"16","name":"Thüringen"}},{"name":"Gottesaubachweg","postalCode":"09648","locality":"Mittweida","municipality":{"key":"14522360","name":"Mittweida, Stadt, Hochschulstadt","type":"Stadt"},"district":{"key":"14522","name":"Mittelsachsen","type":"Landkreis"},"federalState":{"key":"14","name":"Sachsen"}},{"name":"Gräfenbrück","postalCode":"07570","locality":"Weida","municipality":{"key":"16076079","name":"Weida, Stadt","type":"Stadt"},"district":{"key":"16076","name":"Greiz","type":"Landkreis"},"federalState":{"key":"16","name":"Thüringen"}},{"name":"Gräfenbrücker Str.","postalCode":"07570","locality":"Weida","municipality":{"key":"16076079","name":"Weida, Stadt","type":"Stadt"},"district":{"key":"16076","name":"Greiz","type":"Landkreis"},"federalState":{"key":"16","name":"Thüringen"}},{"name":"Greizer Str.","postalCode":"07570","locality":"Weida","municipality":{"key":"16076079","name":"Weida, Stadt","type":"Stadt"},"district":{"key":"16076","name":"Greiz","type":"Landkreis"},"federalState":{"key":"16","name":"Thüringen"}},{"name":"Grochwitzer Str.","postalCode":"07570","locality":"Weida","municipality":{"key":"16076079","name":"Weida, Stadt","type":"Stadt"},"district":{"key":"16076","name":"Greiz","type":"Landkreis"},"federalState":{"key":"16","name":"Thüringen"}},{"name":"Grochwitzer Weg","postalCode":"07570","locality":"Weida","municipality":{"key":"16076079","name":"Weida, Stadt","type":"Stadt"},"district":{"key":"16076","name":"Greiz","type":"Landkreis"},"federalState":{"key":"16","name":"Thüringen"}},{"name":"Grüner Winkel","postalCode":"09648","locality":"Mittweida","municipality":{"key":"14522360","name":"Mittweida, Stadt, Hochschulstadt","type":"Stadt"},"district":{"key":"14522","name":"Mittelsachsen","type":"Landkreis"},"federalState":{"key":"14","name":"Sachsen"}},{"name":"Gutendorf","postalCode":"84558","locality":"Kirchweidach","municipality":{"key":"09171122","name":"Kirchweidach","type":"Kreisangehörige_Gemeinde"},"district":{"key":"09171","name":"Altötting","type":"Landkreis"},"federalState":{"key":"09","name":"Bayern"}},{"name":"Gütterlitz","postalCode":"07955","locality":"Auma-Weidatal","municipality":{"key":"16076092","name":"Auma-Weidatal, Stadt","type":"Stadt"},"district":{"key":"16076","name":"Greiz","type":"Landkreis"},"federalState":{"key":"16","name":"Thüringen"}},{"name":"Haider Str.","postalCode":"84558","locality":"Kirchweidach","municipality":{"key":"09171122","name":"Kirchweidach","type":"Kreisangehörige_Gemeinde"},"district":{"key":"09171","name":"Altötting","type":"Landkreis"},"federalState":{"key":"09","name":"Bayern"}},{"name":"Hainichener Str.","postalCode":"09648","locality":"Mittweida","municipality":{"key":"14522360","name":"Mittweida, Stadt, Hochschulstadt","type":"Stadt"},"district":{"key":"14522","name":"Mittelsachsen","type":"Landkreis"},"federalState":{"key":"14","name":"Sachsen"}},{"name":"Hans-Scholl-Str.","postalCode":"09648","locality":"Mittweida","municipality":{"key":"14522360","name":"Mittweida, Stadt, Hochschulstadt","type":"Stadt"},"district":{"key":"14522","name":"Mittelsachsen","type":"Landkreis"},"federalState":{"key":"14","name":"Sachsen"}},{"name":"Harl","postalCode":"84558","locality":"Kirchweidach","municipality":{"key":"09171122","name":"Kirchweidach","type":"Kreisangehörige_Gemeinde"},"district":{"key":"09171","name":"Altötting","type":"Landkreis"},"federalState":{"key":"09","name":"Bayern"}},{"name":"Hasestr.","postalCode":"07955","locality":"Auma-Weidatal","municipality":{"key":"16076092","name":"Auma-Weidatal, Stadt","type":"Stadt"},"district":{"key":"16076","name":"Greiz","type":"Landkreis"},"federalState":{"key":"16","name":"Thüringen"}},{"name":"Hauptstr.","postalCode":"07570","locality":"Weida","municipality":{"key":"16076079","name":"Weida, Stadt","type":"Stadt"},"district":{"key":"16076","name":"Greiz","type":"Landkreis"},"federalState":{"key":"16","name":"Thüringen"}},{"name":"Hauptstr.","postalCode":"07580","locality":"Linda b. Weida","municipality":{"key":"16076043","name":"Linda b. Weida","type":"Kreisangehörige_Gemeinde"},"district":{"key":"16076","name":"Greiz","type":"Landkreis"},"federalState":{"key":"16","name":"Thüringen"}},{"name":"Hauptstr.","postalCode":"09648","locality":"Altmittweida","municipality":{"key":"14522010","name":"Altmittweida","type":"Kreisangehörige_Gemeinde"},"district":{"key":"14522","name":"Mittelsachsen","type":"Landkreis"},"federalState":{"key":"14","name":"Sachsen"}},{"name":"Hauptstr.","postalCode":"09648","locality":"Mittweida","municipality":{"key":"14522360","name":"Mittweida, Stadt, Hochschulstadt","type":"Stadt"},"district":{"key":"14522","name":"Mittelsachsen","type":"Landkreis"},"federalState":{"key":"14","name":"Sachsen"}},{"name":"Hauptstr.","postalCode":"84558","locality":"Kirchweidach","municipality":{"key":"09171122","name":"Kirchweidach","type":"Kreisangehörige_Gemeinde"},"district":{"key":"09171","name":"Altötting","type":"Landkreis"},"federalState":{"key":"09","name":"Bayern"}},{"name":"Heckenstr.","postalCode":"84558","locality":"Kirchweidach","municipality":{"key":"09171122","name":"Kirchweidach","type":"Kreisangehörige_Gemeinde"},"district":{"key":"09171","name":"Altötting","type":"Landkreis"},"federalState":{"key":"09","name":"Bayern"}},{"name":"Heinoldshäuser","postalCode":"07570","locality":"Weida","municipality":{"key":"16076079","name":"Weida, Stadt","type":"Stadt"},"district":{"key":"16076","name":"Greiz","type":"Landkreis"},"federalState":{"key":"16","name":"Thüringen"}},{"name":"Heinrich-Heine-Str.","postalCode":"07955","locality":"Auma-Weidatal","municipality":{"key":"16076092","name":"Auma-Weidatal, Stadt","type":"Stadt"},"district":{"key":"16076","name":"Greiz","type":"Landkreis"},"federalState":{"key":"16","name":"Thüringen"}},{"name":"Heinrich-Heine-Str.","postalCode":"09648","locality":"Mittweida","municipality":{"key":"14522360","name":"Mittweida, Stadt, Hochschulstadt","type":"Stadt"},"district":{"key":"14522","name":"Mittelsachsen","type":"Landkreis"},"federalState":{"key":"14","name":"Sachsen"}},{"name":"Herderstr.","postalCode":"09648","locality":"Mittweida","municipality":{"key":"14522360","name":"Mittweida, Stadt, Hochschulstadt","type":"Stadt"},"district":{"key":"14522","name":"Mittelsachsen","type":"Landkreis"},"federalState":{"key":"14","name":"Sachsen"}},{"name":"Hermann-Küttner-Str.","postalCode":"09648","locality":"Altmittweida","municipality":{"key":"14522010","name":"Altmittweida","type":"Kreisangehörige_Gemeinde"},"district":{"key":"14522","name":"Mittelsachsen","type":"Landkreis"},"federalState":{"key":"14","name":"Sachsen"}},{"name":"Hermann-Löns-Str.","postalCode":"07570","locality":"Weida","municipality":{"key":"16076079","name":"Weida, Stadt","type":"Stadt"},"district":{"key":"16076","name":"Greiz","type":"Landkreis"},"federalState":{"key":"16","name":"Thüringen"}},{"name":"Hermsdorfer Str.","postalCode":"09648","locality":"Mittweida","municipality":{"key":"14522360","name":"Mittweida, Stadt, Hochschulstadt","type":"Stadt"},"district":{"key":"14522","name":"Mittelsachsen","type":"Landkreis"},"federalState":{"key":"14","name":"Sachsen"}},{"name":"Hinter den Höfen","postalCode":"07955","locality":"Auma-Weidatal","municipality":{"key":"16076092","name":"Auma-Weidatal, Stadt","type":"Stadt"},"district":{"key":"16076","name":"Greiz","type":"Landkreis"},"federalState":{"key":"16","name":"Thüringen"}},{"name":"Hintergasse","postalCode":"09648","locality":"Mittweida","municipality":{"key":"14522360","name":"Mittweida, Stadt, Hochschulstadt","type":"Stadt"},"district":{"key":"14522","name":"Mittelsachsen","type":"Landkreis"},"federalState":{"key":"14","name":"Sachsen"}},{"name":"Hinterm Friedhof","postalCode":"07570","locality":"Weida","municipality":{"key":"16076079","name":"Weida, Stadt","type":"Stadt"},"district":{"key":"16076","name":"Greiz","type":"Landkreis"},"federalState":{"key":"16","name":"Thüringen"}},{"name":"Hofer Str.","postalCode":"84558","locality":"Kirchweidach","municipality":{"key":"09171122","name":"Kirchweidach","type":"Kreisangehörige_Gemeinde"},"district":{"key":"09171","name":"Altötting","type":"Landkreis"},"federalState":{"key":"09","name":"Bayern"}},{"name":"Hoher Weg","postalCode":"07570","locality":"Weida","municipality":{"key":"16076079","name":"Weida, Stadt","type":"Stadt"},"district":{"key":"16076","name":"Greiz","type":"Landkreis"},"federalState":{"key":"16","name":"Thüringen"}},{"name":"Hoher Weg","postalCode":"09648","locality":"Mittweida","municipality":{"key":"14522360","name":"Mittweida, Stadt, Hochschulstadt","type":"Stadt"},"district":{"key":"14522","name":"Mittelsachsen","type":"Landkreis"},"federalState":{"key":"14","name":"Sachsen"}},{"name":"Hohe Str.","postalCode":"07570","locality":"Weida","municipality":{"key":"16076079","name":"Weida, Stadt","type":"Stadt"},"district":{"key":"16076","name":"Greiz","type":"Landkreis"},"federalState":{"key":"16","name":"Thüringen"}},{"name":"Hospitalstr.","postalCode":"07955","locality":"Auma-Weidatal","municipality":{"key":"16076092","name":"Auma-Weidatal, Stadt","type":"Stadt"},"district":{"key":"16076","name":"Greiz","type":"Landkreis"},"federalState":{"key":"16","name":"Thüringen"}},{"name":"Hugo-Wachter-Str.","postalCode":"07570","locality":"Weida","municipality":{"key":"16076079","name":"Weida, Stadt","type":"Stadt"},"district":{"key":"16076","name":"Greiz","type":"Landkreis"},"federalState":{"key":"16","name":"Thüringen"}},{"name":"Humboldtstr.","postalCode":"09648","locality":"Mittweida","municipality":{"key":"14522360","name":"Mittweida, Stadt, Hochschulstadt","type":"Stadt"},"district":{"key":"14522","name":"Mittelsachsen","type":"Landkreis"},"federalState":{"key":"14","name":"Sachsen"}},{"name":"Im Gewerbegebiet Wenigenauma","postalCode":"07955","locality":"Auma-Weidatal","municipality":{"key":"16076092","name":"Auma-Weidatal, Stadt","type":"Stadt"},"district":{"key":"16076","name":"Greiz","type":"Landkreis"},"federalState":{"key":"16","name":"Thüringen"}},{"name":"Im Porzig","postalCode":"07570","locality":"Weida","municipality":{"key":"16076079","name":"Weida, Stadt","type":"Stadt"},"district":{"key":"16076","name":"Greiz","type":"Landkreis"},"federalState":{"key":"16","name":"Thüringen"}},{"name":"In den Nonnenfeldern","postalCode":"07570","locality":"Weida","municipality":{"key":"16076079","name":"Weida, Stadt","type":"Stadt"},"district":{"key":"16076","name":"Greiz","type":"Landkreis"},"federalState":{"key":"16","name":"Thüringen"}},{"name":"Jahnstr.","postalCode":"07955","locality":"Auma-Weidatal","municipality":{"key":"16076092","name":"Auma-Weidatal, Stadt","type":"Stadt"},"district":{"key":"16076","name":"Greiz","type":"Landkreis"},"federalState":{"key":"16","name":"Thüringen"}},{"name":"Johann-Gottfried-Seume-Str.","postalCode":"09648","locality":"Mittweida","municipality":{"key":"14522360","name":"Mittweida, Stadt, Hochschulstadt","type":"Stadt"},"district":{"key":"14522","name":"Mittelsachsen","type":"Landkreis"},"federalState":{"key":"14","name":"Sachsen"}},{"name":"Johann-Sebastian-Bach-Str.","postalCode":"09648","locality":"Mittweida","municipality":{"key":"14522360","name":"Mittweida, Stadt, Hochschulstadt","type":"Stadt"},"district":{"key":"14522","name":"Mittelsachsen","type":"Landkreis"},"federalState":{"key":"14","name":"Sachsen"}},{"name":"Johann-Sebastian-Bach-Weg","postalCode":"07570","locality":"Weida","municipality":{"key":"16076079","name":"Weida, Stadt","type":"Stadt"},"district":{"key":"16076","name":"Greiz","type":"Landkreis"},"federalState":{"key":"16","name":"Thüringen"}},{"name":"Joliot-Curie-Str.","postalCode":"07570","locality":"Weida","municipality":{"key":"16076079","name":"Weida, Stadt","type":"Stadt"},"district":{"key":"16076","name":"Greiz","type":"Landkreis"},"federalState":{"key":"16","name":"Thüringen"}},{"name":"Joseph-Haydn-Str.","postalCode":"07570","locality":"Weida","municipality":{"key":"16076079","name":"Weida, Stadt","type":"Stadt"},"district":{"key":"16076","name":"Greiz","type":"Landkreis"},"federalState":{"key":"16","name":"Thüringen"}},{"name":"Julius-Fucik-Str.","postalCode":"09648","locality":"Mittweida","municipality":{"key":"14522360","name":"Mittweida, Stadt, Hochschulstadt","type":"Stadt"},"district":{"key":"14522","name":"Mittelsachsen","type":"Landkreis"},"federalState":{"key":"14","name":"Sachsen"}},{"name":"Kanalstr.","postalCode":"07570","locality":"Weida","municipality":{"key":"16076079","name":"Weida, Stadt","type":"Stadt"},"district":{"key":"16076","name":"Greiz","type":"Landkreis"},"federalState":{"key":"16","name":"Thüringen"}},{"name":"Karl-Liebknecht-Str.","postalCode":"09648","locality":"Mittweida","municipality":{"key":"14522360","name":"Mittweida, Stadt, Hochschulstadt","type":"Stadt"},"district":{"key":"14522","name":"Mittelsachsen","type":"Landkreis"},"federalState":{"key":"14","name":"Sachsen"}},{"name":"Karl-Marx-Str.","postalCode":"07570","locality":"Weida","municipality":{"key":"16076079","name":"Weida, Stadt","type":"Stadt"},"district":{"key":"16076","name":"Greiz","type":"Landkreis"},"federalState":{"key":"16","name":"Thüringen"}},{"name":"Kastanienweg","postalCode":"84558","locality":"Kirchweidach","municipality":{"key":"09171122","name":"Kirchweidach","type":"Kreisangehörige_Gemeinde"},"district":{"key":"09171","name":"Altötting","type":"Landkreis"},"federalState":{"key":"09","name":"Bayern"}},{"name":"Kiefernweg","postalCode":"07570","locality":"Weida","municipality":{"key":"16076079","name":"Weida, Stadt","type":"Stadt"},"district":{"key":"16076","name":"Greiz","type":"Landkreis"},"federalState":{"key":"16","name":"Thüringen"}},{"name":"Kirchberg","postalCode":"07570","locality":"Weida","municipality":{"key":"16076079","name":"Weida, Stadt","type":"Stadt"},"district":{"key":"16076","name":"Greiz","type":"Landkreis"},"federalState":{"key":"16","name":"Thüringen"}},{"name":"Kirchberg","postalCode":"09648","locality":"Mittweida","municipality":{"key":"14522360","name":"Mittweida, Stadt, Hochschulstadt","type":"Stadt"},"district":{"key":"14522","name":"Mittelsachsen","type":"Landkreis"},"federalState":{"key":"14","name":"Sachsen"}},{"name":"Kirchenstr.","postalCode":"84558","locality":"Kirchweidach","municipality":{"key":"09171122","name":"Kirchweidach","type":"Kreisangehörige_Gemeinde"},"district":{"key":"09171","name":"Altötting","type":"Landkreis"},"federalState":{"key":"09","name":"Bayern"}},{"name":"Kirchplatz","postalCode":"07570","locality":"Weida","municipality":{"key":"16076079","name":"Weida, Stadt","type":"Stadt"},"district":{"key":"16076","name":"Greiz","type":"Landkreis"},"federalState":{"key":"16","name":"Thüringen"}},{"name":"Kirchstr.","postalCode":"07570","locality":"Weida","municipality":{"key":"16076079","name":"Weida, Stadt","type":"Stadt"},"district":{"key":"16076","name":"Greiz","type":"Landkreis"},"federalState":{"key":"16","name":"Thüringen"}},{"name":"Kirchstr.","postalCode":"09648","locality":"Altmittweida","municipality":{"key":"14522010","name":"Altmittweida","type":"Kreisangehörige_Gemeinde"},"district":{"key":"14522","name":"Mittelsachsen","type":"Landkreis"},"federalState":{"key":"14","name":"Sachsen"}},{"name":"Kirchstr.","postalCode":"09648","locality":"Mittweida","municipality":{"key":"14522360","name":"Mittweida, Stadt, Hochschulstadt","type":"Stadt"},"district":{"key":"14522","name":"Mittelsachsen","type":"Landkreis"},"federalState":{"key":"14","name":"Sachsen"}},{"name":"Kirchweg","postalCode":"07580","locality":"Linda b. Weida","municipality":{"key":"16076043","name":"Linda b. Weida","type":"Kreisangehörige_Gemeinde"},"district":{"key":"16076","name":"Greiz","type":"Landkreis"},"federalState":{"key":"16","name":"Thüringen"}},{"name":"Kleindraxdorf","postalCode":"07570","locality":"Weida","municipality":{"key":"16076079","name":"Weida, Stadt","type":"Stadt"},"district":{"key":"16076","name":"Greiz","type":"Landkreis"},"federalState":{"key":"16","name":"Thüringen"}},{"name":"Kleine Pfarrstr.","postalCode":"07570","locality":"Weida","municipality":{"key":"16076079","name":"Weida, Stadt","type":"Stadt"},"district":{"key":"16076","name":"Greiz","type":"Landkreis"},"federalState":{"key":"16","name":"Thüringen"}},{"name":"Kockisch","postalCode":"09648","locality":"Mittweida","municipality":{"key":"14522360","name":"Mittweida, Stadt, Hochschulstadt","type":"Stadt"},"district":{"key":"14522","name":"Mittelsachsen","type":"Landkreis"},"federalState":{"key":"14","name":"Sachsen"}},{"name":"Köckritzer Weg","postalCode":"07570","locality":"Weida","municipality":{"key":"16076079","name":"Weida, Stadt","type":"Stadt"},"district":{"key":"16076","name":"Greiz","type":"Landkreis"},"federalState":{"key":"16","name":"Thüringen"}},{"name":"Kolbestr.","postalCode":"07955","locality":"Auma-Weidatal","municipality":{"key":"16076092","name":"Auma-Weidatal, Stadt","type":"Stadt"},"district":{"key":"16076","name":"Greiz","type":"Landkreis"},"federalState":{"key":"16","name":"Thüringen"}},{"name":"Königshainer Str.","postalCode":"09648","locality":"Mittweida","municipality":{"key":"14522360","name":"Mittweida, Stadt, Hochschulstadt","type":"Stadt"},"district":{"key":"14522","name":"Mittelsachsen","type":"Landkreis"},"federalState":{"key":"14","name":"Sachsen"}},{"name":"Königshainer Weg","postalCode":"09648","locality":"Altmittweida","municipality":{"key":"14522010","name":"Altmittweida","type":"Kreisangehörige_Gemeinde"},"district":{"key":"14522","name":"Mittelsachsen","type":"Landkreis"},"federalState":{"key":"14","name":"Sachsen"}},{"name":"Königshainer Weg","postalCode":"09648","locality":"Mittweida","municipality":{"key":"14522360","name":"Mittweida, Stadt, Hochschulstadt","type":"Stadt"},"district":{"key":"14522","name":"Mittelsachsen","type":"Landkreis"},"federalState":{"key":"14","name":"Sachsen"}},{"name":"Körnerstr.","postalCode":"09648","locality":"Mittweida","municipality":{"key":"14522360","name":"Mittweida, Stadt, Hochschulstadt","type":"Stadt"},"district":{"key":"14522","name":"Mittelsachsen","type":"Landkreis"},"federalState":{"key":"14","name":"Sachsen"}},{"name":"Köthnitzer Weg","postalCode":"07955","locality":"Auma-Weidatal","municipality":{"key":"16076092","name":"Auma-Weidatal, Stadt","type":"Stadt"},"district":{"key":"16076","name":"Greiz","type":"Landkreis"},"federalState":{"key":"16","name":"Thüringen"}},{"name":"Kratzhammer","postalCode":"09648","locality":"Mittweida","municipality":{"key":"14522360","name":"Mittweida, Stadt, Hochschulstadt","type":"Stadt"},"district":{"key":"14522","name":"Mittelsachsen","type":"Landkreis"},"federalState":{"key":"14","name":"Sachsen"}},{"name":"Kriebsteiner Str.","postalCode":"09648","locality":"Mittweida","municipality":{"key":"14522360","name":"Mittweida, Stadt, Hochschulstadt","type":"Stadt"},"district":{"key":"14522","name":"Mittelsachsen","type":"Landkreis"},"federalState":{"key":"14","name":"Sachsen"}},{"name":"Krölpa","postalCode":"07955","locality":"Auma-Weidatal","municipality":{"key":"16076092","name":"Auma-Weidatal, Stadt","type":"Stadt"},"district":{"key":"16076","name":"Greiz","type":"Landkreis"},"federalState":{"key":"16","name":"Thüringen"}},{"name":"Krumbacher Weg","postalCode":"09648","locality":"Altmittweida","municipality":{"key":"14522010","name":"Altmittweida","type":"Kreisangehörige_Gemeinde"},"district":{"key":"14522","name":"Mittelsachsen","type":"Landkreis"},"federalState":{"key":"14","name":"Sachsen"}},{"name":"Kurze Str.","postalCode":"07570","locality":"Weida","municipality":{"key":"16076079","name":"Weida, Stadt","type":"Stadt"},"district":{"key":"16076","name":"Greiz","type":"Landkreis"},"federalState":{"key":"16","name":"Thüringen"}},{"name":"Kurze Str.","postalCode":"09648","locality":"Altmittweida","municipality":{"key":"14522010","name":"Altmittweida","type":"Kreisangehörige_Gemeinde"},"district":{"key":"14522","name":"Mittelsachsen","type":"Landkreis"},"federalState":{"key":"14","name":"Sachsen"}},{"name":"Kuxberg","postalCode":"09648","locality":"Mittweida","municipality":{"key":"14522360","name":"Mittweida, Stadt, Hochschulstadt","type":"Stadt"},"district":{"key":"14522","name":"Mittelsachsen","type":"Landkreis"},"federalState":{"key":"14","name":"Sachsen"}},{"name":"Lange Gasse","postalCode":"07955","locality":"Auma-Weidatal","municipality":{"key":"16076092","name":"Auma-Weidatal, Stadt","type":"Stadt"},"district":{"key":"16076","name":"Greiz","type":"Landkreis"},"federalState":{"key":"16","name":"Thüringen"}},{"name":"Lärchenweg","postalCode":"07570","locality":"Weida","municipality":{"key":"16076079","name":"Weida, Stadt","type":"Stadt"},"district":{"key":"16076","name":"Greiz","type":"Landkreis"},"federalState":{"key":"16","name":"Thüringen"}},{"name":"Lauenhainer Feld","postalCode":"09648","locality":"Mittweida","municipality":{"key":"14522360","name":"Mittweida, Stadt, Hochschulstadt","type":"Stadt"},"district":{"key":"14522","name":"Mittelsachsen","type":"Landkreis"},"federalState":{"key":"14","name":"Sachsen"}},{"name":"Lauenhainer Str.","postalCode":"09648","locality":"Mittweida","municipality":{"key":"14522360","name":"Mittweida, Stadt, Hochschulstadt","type":"Stadt"},"district":{"key":"14522","name":"Mittelsachsen","type":"Landkreis"},"federalState":{"key":"14","name":"Sachsen"}},{"name":"Leisniger Str.","postalCode":"09648","locality":"Mittweida","municipality":{"key":"14522360","name":"Mittweida, Stadt, Hochschulstadt","type":"Stadt"},"district":{"key":"14522","name":"Mittelsachsen","type":"Landkreis"},"federalState":{"key":"14","name":"Sachsen"}},{"name":"Leitergasse","postalCode":"07570","locality":"Weida","municipality":{"key":"16076079","name":"Weida, Stadt","type":"Stadt"},"district":{"key":"16076","name":"Greiz","type":"Landkreis"},"federalState":{"key":"16","name":"Thüringen"}},{"name":"Leonhardistr.","postalCode":"84558","locality":"Kirchweidach","municipality":{"key":"09171122","name":"Kirchweidach","type":"Kreisangehörige_Gemeinde"},"district":{"key":"09171","name":"Altötting","type":"Landkreis"},"federalState":{"key":"09","name":"Bayern"}},{"name":"Lerchenstr.","postalCode":"84558","locality":"Kirchweidach","municipality":{"key":"09171122","name":"Kirchweidach","type":"Kreisangehörige_Gemeinde"},"district":{"key":"09171","name":"Altötting","type":"Landkreis"},"federalState":{"key":"09","name":"Bayern"}},{"name":"Lessingstr.","postalCode":"09648","locality":"Mittweida","municipality":{"key":"14522360","name":"Mittweida, Stadt, Hochschulstadt","type":"Stadt"},"district":{"key":"14522","name":"Mittelsachsen","type":"Landkreis"},"federalState":{"key":"14","name":"Sachsen"}},{"name":"Liebsdorfer Eck","postalCode":"07570","locality":"Weida","municipality":{"key":"16076079","name":"Weida, Stadt","type":"Stadt"},"district":{"key":"16076","name":"Greiz","type":"Landkreis"},"federalState":{"key":"16","name":"Thüringen"}},{"name":"Liebsdorfer Str.","postalCode":"07570","locality":"Weida","municipality":{"key":"16076079","name":"Weida, Stadt","type":"Stadt"},"district":{"key":"16076","name":"Greiz","type":"Landkreis"},"federalState":{"key":"16","name":"Thüringen"}},{"name":"Lilienstr.","postalCode":"84558","locality":"Kirchweidach","municipality":{"key":"09171122","name":"Kirchweidach","type":"Kreisangehörige_Gemeinde"},"district":{"key":"09171","name":"Altötting","type":"Landkreis"},"federalState":{"key":"09","name":"Bayern"}},{"name":"Lilienthalweg","postalCode":"07570","locality":"Weida","municipality":{"key":"16076079","name":"Weida, Stadt","type":"Stadt"},"district":{"key":"16076","name":"Greiz","type":"Landkreis"},"federalState":{"key":"16","name":"Thüringen"}},{"name":"Lilienweg","postalCode":"09648","locality":"Altmittweida","municipality":{"key":"14522010","name":"Altmittweida","type":"Kreisangehörige_Gemeinde"},"district":{"key":"14522","name":"Mittelsachsen","type":"Landkreis"},"federalState":{"key":"14","name":"Sachsen"}},{"name":"Lindenstr.","postalCode":"07570","locality":"Weida","municipality":{"key":"16076079","name":"Weida, Stadt","type":"Stadt"},"district":{"key":"16076","name":"Greiz","type":"Landkreis"},"federalState":{"key":"16","name":"Thüringen"}},{"name":"Lindenstr.","postalCode":"09648","locality":"Altmittweida","municipality":{"key":"14522010","name":"Altmittweida","type":"Kreisangehörige_Gemeinde"},"district":{"key":"14522","name":"Mittelsachsen","type":"Landkreis"},"federalState":{"key":"14","name":"Sachsen"}},{"name":"Lindenstr.","postalCode":"84558","locality":"Kirchweidach","municipality":{"key":"09171122","name":"Kirchweidach","type":"Kreisangehörige_Gemeinde"},"district":{"key":"09171","name":"Altötting","type":"Landkreis"},"federalState":{"key":"09","name":"Bayern"}},{"name":"Lindenweg","postalCode":"07570","locality":"Weida","municipality":{"key":"16076079","name":"Weida, Stadt","type":"Stadt"},"district":{"key":"16076","name":"Greiz","type":"Landkreis"},"federalState":{"key":"16","name":"Thüringen"}},{"name":"Lindenweg","postalCode":"07955","locality":"Auma-Weidatal","municipality":{"key":"16076092","name":"Auma-Weidatal, Stadt","type":"Stadt"},"district":{"key":"16076","name":"Greiz","type":"Landkreis"},"federalState":{"key":"16","name":"Thüringen"}},{"name":"Lindenweg","postalCode":"09648","locality":"Mittweida","municipality":{"key":"14522360","name":"Mittweida, Stadt, Hochschulstadt","type":"Stadt"},"district":{"key":"14522","name":"Mittelsachsen","type":"Landkreis"},"federalState":{"key":"14","name":"Sachsen"}},{"name":"Lochweg","postalCode":"09648","locality":"Mittweida","municipality":{"key":"14522360","name":"Mittweida, Stadt, Hochschulstadt","type":"Stadt"},"district":{"key":"14522","name":"Mittelsachsen","type":"Landkreis"},"federalState":{"key":"14","name":"Sachsen"}},{"name":"Ludwig-Jahn-Str.","postalCode":"07570","locality":"Weida","municipality":{"key":"16076079","name":"Weida, Stadt","type":"Stadt"},"district":{"key":"16076","name":"Greiz","type":"Landkreis"},"federalState":{"key":"16","name":"Thüringen"}},{"name":"Lutherstr.","postalCode":"09648","locality":"Mittweida","municipality":{"key":"14522360","name":"Mittweida, Stadt, Hochschulstadt","type":"Stadt"},"district":{"key":"14522","name":"Mittelsachsen","type":"Landkreis"},"federalState":{"key":"14","name":"Sachsen"}},{"name":"Malzgasse","postalCode":"09648","locality":"Mittweida","municipality":{"key":"14522360","name":"Mittweida, Stadt, Hochschulstadt","type":"Stadt"},"district":{"key":"14522","name":"Mittelsachsen","type":"Landkreis"},"federalState":{"key":"14","name":"Sachsen"}},{"name":"Markt","postalCode":"07570","locality":"Weida","municipality":{"key":"16076079","name":"Weida, Stadt","type":"Stadt"},"district":{"key":"16076","name":"Greiz","type":"Landkreis"},"federalState":{"key":"16","name":"Thüringen"}},{"name":"Markt","postalCode":"07955","locality":"Auma-Weidatal","municipality":{"key":"16076092","name":"Auma-Weidatal, Stadt","type":"Stadt"},"district":{"key":"16076","name":"Greiz","type":"Landkreis"},"federalState":{"key":"16","name":"Thüringen"}},{"name":"Markt","postalCode":"09648","locality":"Mittweida","municipality":{"key":"14522360","name":"Mittweida, Stadt, Hochschulstadt","type":"Stadt"},"district":{"key":"14522","name":"Mittelsachsen","type":"Landkreis"},"federalState":{"key":"14","name":"Sachsen"}},{"name":"Marktberg","postalCode":"07955","locality":"Auma-Weidatal","municipality":{"key":"16076092","name":"Auma-Weidatal, Stadt","type":"Stadt"},"district":{"key":"16076","name":"Greiz","type":"Landkreis"},"federalState":{"key":"16","name":"Thüringen"}},{"name":"Marktstr.","postalCode":"07570","locality":"Weida","municipality":{"key":"16076079","name":"Weida, Stadt","type":"Stadt"},"district":{"key":"16076","name":"Greiz","type":"Landkreis"},"federalState":{"key":"16","name":"Thüringen"}},{"name":"Maxim-Gorki-Str.","postalCode":"09648","locality":"Mittweida","municipality":{"key":"14522360","name":"Mittweida, Stadt, Hochschulstadt","type":"Stadt"},"district":{"key":"14522","name":"Mittelsachsen","type":"Landkreis"},"federalState":{"key":"14","name":"Sachsen"}},{"name":"Meisenweg","postalCode":"84558","locality":"Kirchweidach","municipality":{"key":"09171122","name":"Kirchweidach","type":"Kreisangehörige_Gemeinde"},"district":{"key":"09171","name":"Altötting","type":"Landkreis"},"federalState":{"key":"09","name":"Bayern"}},{"name":"Melanchthonstr.","postalCode":"09648","locality":"Mittweida","municipality":{"key":"14522360","name":"Mittweida, Stadt, Hochschulstadt","type":"Stadt"},"district":{"key":"14522","name":"Mittelsachsen","type":"Landkreis"},"federalState":{"key":"14","name":"Sachsen"}},{"name":"Mittelstr.","postalCode":"07570","locality":"Weida","municipality":{"key":"16076079","name":"Weida, Stadt","type":"Stadt"},"district":{"key":"16076","name":"Greiz","type":"Landkreis"},"federalState":{"key":"16","name":"Thüringen"}},{"name":"Mittelweg","postalCode":"07570","locality":"Weida","municipality":{"key":"16076079","name":"Weida, Stadt","type":"Stadt"},"district":{"key":"16076","name":"Greiz","type":"Landkreis"},"federalState":{"key":"16","name":"Thüringen"}},{"name":"Mitterstr.","postalCode":"84558","locality":"Kirchweidach","municipality":{"key":"09171122","name":"Kirchweidach","type":"Kreisangehörige_Gemeinde"},"district":{"key":"09171","name":"Altötting","type":"Landkreis"},"federalState":{"key":"09","name":"Bayern"}},{"name":"Mittweidaer Str.","postalCode":"09648","locality":"Mittweida","municipality":{"key":"14522360","name":"Mittweida, Stadt, Hochschulstadt","type":"Stadt"},"district":{"key":"14522","name":"Mittelsachsen","type":"Landkreis"},"federalState":{"key":"14","name":"Sachsen"}},{"name":"Molkereiweg","postalCode":"84558","locality":"Kirchweidach","municipality":{"key":"09171122","name":"Kirchweidach","type":"Kreisangehörige_Gemeinde"},"district":{"key":"09171","name":"Altötting","type":"Landkreis"},"federalState":{"key":"09","name":"Bayern"}},{"name":"Moßbacher Str.","postalCode":"07955","locality":"Auma-Weidatal","municipality":{"key":"16076092","name":"Auma-Weidatal, Stadt","type":"Stadt"},"district":{"key":"16076","name":"Greiz","type":"Landkreis"},"federalState":{"key":"16","name":"Thüringen"}},{"name":"Mozartstr.","postalCode":"07570","locality":"Weida","municipality":{"key":"16076079","name":"Weida, Stadt","type":"Stadt"},"district":{"key":"16076","name":"Greiz","type":"Landkreis"},"federalState":{"key":"16","name":"Thüringen"}},{"name":"Mühlberg","postalCode":"09648","locality":"Mittweida","municipality":{"key":"14522360","name":"Mittweida, Stadt, Hochschulstadt","type":"Stadt"},"district":{"key":"14522","name":"Mittelsachsen","type":"Landkreis"},"federalState":{"key":"14","name":"Sachsen"}},{"name":"Mühlenweg","postalCode":"09648","locality":"Mittweida","municipality":{"key":"14522360","name":"Mittweida, Stadt, Hochschulstadt","type":"Stadt"},"district":{"key":"14522","name":"Mittelsachsen","type":"Landkreis"},"federalState":{"key":"14","name":"Sachsen"}},{"name":"Mühlfeld","postalCode":"09648","locality":"Mittweida","municipality":{"key":"14522360","name":"Mittweida, Stadt, Hochschulstadt","type":"Stadt"},"district":{"key":"14522","name":"Mittelsachsen","type":"Landkreis"},"federalState":{"key":"14","name":"Sachsen"}},{"name":"Mühlstr.","postalCode":"07570","locality":"Weida","municipality":{"key":"16076079","name":"Weida, Stadt","type":"Stadt"},"district":{"key":"16076","name":"Greiz","type":"Landkreis"},"federalState":{"key":"16","name":"Thüringen"}},{"name":"Mühlstr.","postalCode":"09648","locality":"Mittweida","municipality":{"key":"14522360","name":"Mittweida, Stadt, Hochschulstadt","type":"Stadt"},"district":{"key":"14522","name":"Mittelsachsen","type":"Landkreis"},"federalState":{"key":"14","name":"Sachsen"}},{"name":"Mühlweg","postalCode":"07570","locality":"Weida","municipality":{"key":"16076079","name":"Weida, Stadt","type":"Stadt"},"district":{"key":"16076","name":"Greiz","type":"Landkreis"},"federalState":{"key":"16","name":"Thüringen"}},{"name":"Muntscha","postalCode":"07955","locality":"Auma-Weidatal","municipality":{"key":"16076092","name":"Auma-Weidatal, Stadt","type":"Stadt"},"district":{"key":"16076","name":"Greiz","type":"Landkreis"},"federalState":{"key":"16","name":"Thüringen"}},{"name":"Nasser Weg","postalCode":"09648","locality":"Mittweida","municipality":{"key":"14522360","name":"Mittweida, Stadt, Hochschulstadt","type":"Stadt"},"district":{"key":"14522","name":"Mittelsachsen","type":"Landkreis"},"federalState":{"key":"14","name":"Sachsen"}},{"name":"Nelkenstr.","postalCode":"84558","locality":"Kirchweidach","municipality":{"key":"09171122","name":"Kirchweidach","type":"Kreisangehörige_Gemeinde"},"district":{"key":"09171","name":"Altötting","type":"Landkreis"},"federalState":{"key":"09","name":"Bayern"}},{"name":"Neudörfchener Weg","postalCode":"09648","locality":"Mittweida","municipality":{"key":"14522360","name":"Mittweida, Stadt, Hochschulstadt","type":"Stadt"},"district":{"key":"14522","name":"Mittelsachsen","type":"Landkreis"},"federalState":{"key":"14","name":"Sachsen"}},{"name":"Neudörfel","postalCode":"07570","locality":"Weida","municipality":{"key":"16076079","name":"Weida, Stadt","type":"Stadt"},"district":{"key":"16076","name":"Greiz","type":"Landkreis"},"federalState":{"key":"16","name":"Thüringen"}},{"name":"Neue Str.","postalCode":"07570","locality":"Weida","municipality":{"key":"16076079","name":"Weida, Stadt","type":"Stadt"},"district":{"key":"16076","name":"Greiz","type":"Landkreis"},"federalState":{"key":"16","name":"Thüringen"}},{"name":"Neuhof","postalCode":"07570","locality":"Weida","municipality":{"key":"16076079","name":"Weida, Stadt","type":"Stadt"},"district":{"key":"16076","name":"Greiz","type":"Landkreis"},"federalState":{"key":"16","name":"Thüringen"}},{"name":"Neukirchen","postalCode":"84558","locality":"Kirchweidach","municipality":{"key":"09171122","name":"Kirchweidach","type":"Kreisangehörige_Gemeinde"},"district":{"key":"09171","name":"Altötting","type":"Landkreis"},"federalState":{"key":"09","name":"Bayern"}},{"name":"Neukirchener Str.","postalCode":"84558","locality":"Kirchweidach","municipality":{"key":"09171122","name":"Kirchweidach","type":"Kreisangehörige_Gemeinde"},"district":{"key":"09171","name":"Altötting","type":"Landkreis"},"federalState":{"key":"09","name":"Bayern"}},{"name":"Neusorger Str.","postalCode":"09648","locality":"Altmittweida","municipality":{"key":"14522010","name":"Altmittweida","type":"Kreisangehörige_Gemeinde"},"district":{"key":"14522","name":"Mittelsachsen","type":"Landkreis"},"federalState":{"key":"14","name":"Sachsen"}},{"name":"Neusorger Str.","postalCode":"09648","locality":"Mittweida","municipality":{"key":"14522360","name":"Mittweida, Stadt, Hochschulstadt","type":"Stadt"},"district":{"key":"14522","name":"Mittelsachsen","type":"Landkreis"},"federalState":{"key":"14","name":"Sachsen"}},{"name":"Neustadt","postalCode":"09648","locality":"Mittweida","municipality":{"key":"14522360","name":"Mittweida, Stadt, Hochschulstadt","type":"Stadt"},"district":{"key":"14522","name":"Mittelsachsen","type":"Landkreis"},"federalState":{"key":"14","name":"Sachsen"}},{"name":"Neustädter Str.","postalCode":"07570","locality":"Weida","municipality":{"key":"16076079","name":"Weida, Stadt","type":"Stadt"},"district":{"key":"16076","name":"Greiz","type":"Landkreis"},"federalState":{"key":"16","name":"Thüringen"}},{"name":"Niedergasse","postalCode":"09648","locality":"Mittweida","municipality":{"key":"14522360","name":"Mittweida, Stadt, Hochschulstadt","type":"Stadt"},"district":{"key":"14522","name":"Mittelsachsen","type":"Landkreis"},"federalState":{"key":"14","name":"Sachsen"}},{"name":"Nonnenhof","postalCode":"07570","locality":"Weida","municipality":{"key":"16076079","name":"Weida, Stadt","type":"Stadt"},"district":{"key":"16076","name":"Greiz","type":"Landkreis"},"federalState":{"key":"16","name":"Thüringen"}},{"name":"Nordstr.","postalCode":"07570","locality":"Weida","municipality":{"key":"16076079","name":"Weida, Stadt","type":"Stadt"},"district":{"key":"16076","name":"Greiz","type":"Landkreis"},"federalState":{"key":"16","name":"Thüringen"}},{"name":"Nordstr.","postalCode":"07955","locality":"Auma-Weidatal","municipality":{"key":"16076092","name":"Auma-Weidatal, Stadt","type":"Stadt"},"district":{"key":"16076","name":"Greiz","type":"Landkreis"},"federalState":{"key":"16","name":"Thüringen"}},{"name":"Nordstr.","postalCode":"09648","locality":"Mittweida","municipality":{"key":"14522360","name":"Mittweida, Stadt, Hochschulstadt","type":"Stadt"},"district":{"key":"14522","name":"Mittelsachsen","type":"Landkreis"},"federalState":{"key":"14","name":"Sachsen"}},{"name":"Oberbucher Str.","postalCode":"84558","locality":"Kirchweidach","municipality":{"key":"09171122","name":"Kirchweidach","type":"Kreisangehörige_Gemeinde"},"district":{"key":"09171","name":"Altötting","type":"Landkreis"},"federalState":{"key":"09","name":"Bayern"}},{"name":"Obere Dorfstr.","postalCode":"09648","locality":"Altmittweida","municipality":{"key":"14522010","name":"Altmittweida","type":"Kreisangehörige_Gemeinde"},"district":{"key":"14522","name":"Mittelsachsen","type":"Landkreis"},"federalState":{"key":"14","name":"Sachsen"}},{"name":"Obere Dorfstr.","postalCode":"09648","locality":"Mittweida","municipality":{"key":"14522360","name":"Mittweida, Stadt, Hochschulstadt","type":"Stadt"},"district":{"key":"14522","name":"Mittelsachsen","type":"Landkreis"},"federalState":{"key":"14","name":"Sachsen"}},{"name":"Obere Gasse","postalCode":"07955","locality":"Auma-Weidatal","municipality":{"key":"16076092","name":"Auma-Weidatal, Stadt","type":"Stadt"},"district":{"key":"16076","name":"Greiz","type":"Landkreis"},"federalState":{"key":"16","name":"Thüringen"}},{"name":"Oberer Graben","postalCode":"07955","locality":"Auma-Weidatal","municipality":{"key":"16076092","name":"Auma-Weidatal, Stadt","type":"Stadt"},"district":{"key":"16076","name":"Greiz","type":"Landkreis"},"federalState":{"key":"16","name":"Thüringen"}},{"name":"Obere Str.","postalCode":"07570","locality":"Weida","municipality":{"key":"16076079","name":"Weida, Stadt","type":"Stadt"},"district":{"key":"16076","name":"Greiz","type":"Landkreis"},"federalState":{"key":"16","name":"Thüringen"}},{"name":"Obere Str.","postalCode":"07580","locality":"Linda b. Weida","municipality":{"key":"16076043","name":"Linda b. Weida","type":"Kreisangehörige_Gemeinde"},"district":{"key":"16076","name":"Greiz","type":"Landkreis"},"federalState":{"key":"16","name":"Thüringen"}},{"name":"Obergasse","postalCode":"09648","locality":"Mittweida","municipality":{"key":"14522360","name":"Mittweida, Stadt, Hochschulstadt","type":"Stadt"},"district":{"key":"14522","name":"Mittelsachsen","type":"Landkreis"},"federalState":{"key":"14","name":"Sachsen"}},{"name":"Oberleiten","postalCode":"84558","locality":"Kirchweidach","municipality":{"key":"09171122","name":"Kirchweidach","type":"Kreisangehörige_Gemeinde"},"district":{"key":"09171","name":"Altötting","type":"Landkreis"},"federalState":{"key":"09","name":"Bayern"}},{"name":"Oberstr.","postalCode":"09648","locality":"Mittweida","municipality":{"key":"14522360","name":"Mittweida, Stadt, Hochschulstadt","type":"Stadt"},"district":{"key":"14522","name":"Mittelsachsen","type":"Landkreis"},"federalState":{"key":"14","name":"Sachsen"}},{"name":"Oschützweg","postalCode":"07570","locality":"Weida","municipality":{"key":"16076079","name":"Weida, Stadt","type":"Stadt"},"district":{"key":"16076","name":"Greiz","type":"Landkreis"},"federalState":{"key":"16","name":"Thüringen"}},{"name":"Oststr.","postalCode":"07570","locality":"Weida","municipality":{"key":"16076079","name":"Weida, Stadt","type":"Stadt"},"district":{"key":"16076","name":"Greiz","type":"Landkreis"},"federalState":{"key":"16","name":"Thüringen"}},{"name":"Oststr.","postalCode":"09648","locality":"Mittweida","municipality":{"key":"14522360","name":"Mittweida, Stadt, Hochschulstadt","type":"Stadt"},"district":{"key":"14522","name":"Mittelsachsen","type":"Landkreis"},"federalState":{"key":"14","name":"Sachsen"}},{"name":"Papiermühlenweg","postalCode":"07570","locality":"Weida","municipality":{"key":"16076079","name":"Weida, Stadt","type":"Stadt"},"district":{"key":"16076","name":"Greiz","type":"Landkreis"},"federalState":{"key":"16","name":"Thüringen"}},{"name":"Pappelallee","postalCode":"09648","locality":"Mittweida","municipality":{"key":"14522360","name":"Mittweida, Stadt, Hochschulstadt","type":"Stadt"},"district":{"key":"14522","name":"Mittelsachsen","type":"Landkreis"},"federalState":{"key":"14","name":"Sachsen"}},{"name":"Pappelweg","postalCode":"07570","locality":"Weida","municipality":{"key":"16076079","name":"Weida, Stadt","type":"Stadt"},"district":{"key":"16076","name":"Greiz","type":"Landkreis"},"federalState":{"key":"16","name":"Thüringen"}},{"name":"Parkstr.","postalCode":"09648","locality":"Altmittweida","municipality":{"key":"14522010","name":"Altmittweida","type":"Kreisangehörige_Gemeinde"},"district":{"key":"14522","name":"Mittelsachsen","type":"Landkreis"},"federalState":{"key":"14","name":"Sachsen"}},{"name":"Parkweg","postalCode":"09648","locality":"Mittweida","municipality":{"key":"14522360","name":"Mittweida, Stadt, Hochschulstadt","type":"Stadt"},"district":{"key":"14522","name":"Mittelsachsen","type":"Landkreis"},"federalState":{"key":"14","name":"Sachsen"}},{"name":"Paul-Fleming-Str.","postalCode":"09648","locality":"Mittweida","municipality":{"key":"14522360","name":"Mittweida, Stadt, Hochschulstadt","type":"Stadt"},"district":{"key":"14522","name":"Mittelsachsen","type":"Landkreis"},"federalState":{"key":"14","name":"Sachsen"}},{"name":"Paul-Fuchs-Str.","postalCode":"07570","locality":"Weida","municipality":{"key":"16076079","name":"Weida, Stadt","type":"Stadt"},"district":{"key":"16076","name":"Greiz","type":"Landkreis"},"federalState":{"key":"16","name":"Thüringen"}},{"name":"Paul-Quensel-Weg","postalCode":"07570","locality":"Weida","municipality":{"key":"16076079","name":"Weida, Stadt","type":"Stadt"},"district":{"key":"16076","name":"Greiz","type":"Landkreis"},"federalState":{"key":"16","name":"Thüringen"}},{"name":"Petersberg","postalCode":"07570","locality":"Weida","municipality":{"key":"16076079","name":"Weida, Stadt","type":"Stadt"},"district":{"key":"16076","name":"Greiz","type":"Landkreis"},"federalState":{"key":"16","name":"Thüringen"}},{"name":"Petersstr.","postalCode":"07570","locality":"Weida","municipality":{"key":"16076079","name":"Weida, Stadt","type":"Stadt"},"district":{"key":"16076","name":"Greiz","type":"Landkreis"},"federalState":{"key":"16","name":"Thüringen"}},{"name":"Pfarrstr.","postalCode":"07570","locality":"Weida","municipality":{"key":"16076079","name":"Weida, Stadt","type":"Stadt"},"district":{"key":"16076","name":"Greiz","type":"Landkreis"},"federalState":{"key":"16","name":"Thüringen"}},{"name":"Pfarrweg","postalCode":"07580","locality":"Linda b. Weida","municipality":{"key":"16076043","name":"Linda b. Weida","type":"Kreisangehörige_Gemeinde"},"district":{"key":"16076","name":"Greiz","type":"Landkreis"},"federalState":{"key":"16","name":"Thüringen"}},{"name":"Pfersdorf","postalCode":"07955","locality":"Auma-Weidatal","municipality":{"key":"16076092","name":"Auma-Weidatal, Stadt","type":"Stadt"},"district":{"key":"16076","name":"Greiz","type":"Landkreis"},"federalState":{"key":"16","name":"Thüringen"}},{"name":"Pfortenstr.","postalCode":"07570","locality":"Weida","municipality":{"key":"16076079","name":"Weida, Stadt","type":"Stadt"},"district":{"key":"16076","name":"Greiz","type":"Landkreis"},"federalState":{"key":"16","name":"Thüringen"}},{"name":"Plan","postalCode":"09648","locality":"Mittweida","municipality":{"key":"14522360","name":"Mittweida, Stadt, Hochschulstadt","type":"Stadt"},"district":{"key":"14522","name":"Mittelsachsen","type":"Landkreis"},"federalState":{"key":"14","name":"Sachsen"}},{"name":"Platz der Freiheit","postalCode":"07570","locality":"Weida","municipality":{"key":"16076079","name":"Weida, Stadt","type":"Stadt"},"district":{"key":"16076","name":"Greiz","type":"Landkreis"},"federalState":{"key":"16","name":"Thüringen"}},{"name":"Pohlen","postalCode":"07580","locality":"Linda b. Weida","municipality":{"key":"16076043","name":"Linda b. Weida","type":"Kreisangehörige_Gemeinde"},"district":{"key":"16076","name":"Greiz","type":"Landkreis"},"federalState":{"key":"16","name":"Thüringen"}},{"name":"Poststr.","postalCode":"07570","locality":"Weida","municipality":{"key":"16076079","name":"Weida, Stadt","type":"Stadt"},"district":{"key":"16076","name":"Greiz","type":"Landkreis"},"federalState":{"key":"16","name":"Thüringen"}},{"name":"Poststr.","postalCode":"09648","locality":"Mittweida","municipality":{"key":"14522360","name":"Mittweida, Stadt, Hochschulstadt","type":"Stadt"},"district":{"key":"14522","name":"Mittelsachsen","type":"Landkreis"},"federalState":{"key":"14","name":"Sachsen"}},{"name":"Prießnitzweg","postalCode":"07570","locality":"Weida","municipality":{"key":"16076079","name":"Weida, Stadt","type":"Stadt"},"district":{"key":"16076","name":"Greiz","type":"Landkreis"},"federalState":{"key":"16","name":"Thüringen"}},{"name":"Prof.-Holzt-Str.","postalCode":"09648","locality":"Mittweida","municipality":{"key":"14522360","name":"Mittweida, Stadt, Hochschulstadt","type":"Stadt"},"district":{"key":"14522","name":"Mittelsachsen","type":"Landkreis"},"federalState":{"key":"14","name":"Sachsen"}},{"name":"Quellenstr.","postalCode":"07570","locality":"Weida","municipality":{"key":"16076079","name":"Weida, Stadt","type":"Stadt"},"district":{"key":"16076","name":"Greiz","type":"Landkreis"},"federalState":{"key":"16","name":"Thüringen"}},{"name":"Querstr.","postalCode":"07570","locality":"Weida","municipality":{"key":"16076079","name":"Weida, Stadt","type":"Stadt"},"district":{"key":"16076","name":"Greiz","type":"Landkreis"},"federalState":{"key":"16","name":"Thüringen"}},{"name":"Querstr.","postalCode":"09648","locality":"Altmittweida","municipality":{"key":"14522010","name":"Altmittweida","type":"Kreisangehörige_Gemeinde"},"district":{"key":"14522","name":"Mittelsachsen","type":"Landkreis"},"federalState":{"key":"14","name":"Sachsen"}},{"name":"Querweg","postalCode":"07955","locality":"Auma-Weidatal","municipality":{"key":"16076092","name":"Auma-Weidatal, Stadt","type":"Stadt"},"district":{"key":"16076","name":"Greiz","type":"Landkreis"},"federalState":{"key":"16","name":"Thüringen"}},{"name":"Rahmenberg","postalCode":"09648","locality":"Mittweida","municipality":{"key":"14522360","name":"Mittweida, Stadt, Hochschulstadt","type":"Stadt"},"district":{"key":"14522","name":"Mittelsachsen","type":"Landkreis"},"federalState":{"key":"14","name":"Sachsen"}},{"name":"Raiffeisenstr.","postalCode":"84558","locality":"Kirchweidach","municipality":{"key":"09171122","name":"Kirchweidach","type":"Kreisangehörige_Gemeinde"},"district":{"key":"09171","name":"Altötting","type":"Landkreis"},"federalState":{"key":"09","name":"Bayern"}},{"name":"Rathenaustr.","postalCode":"07570","locality":"Weida","municipality":{"key":"16076079","name":"Weida, Stadt","type":"Stadt"},"district":{"key":"16076","name":"Greiz","type":"Landkreis"},"federalState":{"key":"16","name":"Thüringen"}},{"name":"Rathenaustr.","postalCode":"09648","locality":"Mittweida","municipality":{"key":"14522360","name":"Mittweida, Stadt, Hochschulstadt","type":"Stadt"},"district":{"key":"14522","name":"Mittelsachsen","type":"Landkreis"},"federalState":{"key":"14","name":"Sachsen"}},{"name":"Reiterweg","postalCode":"09648","locality":"Mittweida","municipality":{"key":"14522360","name":"Mittweida, Stadt, Hochschulstadt","type":"Stadt"},"district":{"key":"14522","name":"Mittelsachsen","type":"Landkreis"},"federalState":{"key":"14","name":"Sachsen"}},{"name":"Ringethaler Weg","postalCode":"09648","locality":"Mittweida","municipality":{"key":"14522360","name":"Mittweida, Stadt, Hochschulstadt","type":"Stadt"},"district":{"key":"14522","name":"Mittelsachsen","type":"Landkreis"},"federalState":{"key":"14","name":"Sachsen"}},{"name":"Ringstr.","postalCode":"09648","locality":"Mittweida","municipality":{"key":"14522360","name":"Mittweida, Stadt, Hochschulstadt","type":"Stadt"},"district":{"key":"14522","name":"Mittelsachsen","type":"Landkreis"},"federalState":{"key":"14","name":"Sachsen"}},{"name":"Ringstr.","postalCode":"84558","locality":"Kirchweidach","municipality":{"key":"09171122","name":"Kirchweidach","type":"Kreisangehörige_Gemeinde"},"district":{"key":"09171","name":"Altötting","type":"Landkreis"},"federalState":{"key":"09","name":"Bayern"}},{"name":"Robert-Koch-Str.","postalCode":"09648","locality":"Mittweida","municipality":{"key":"14522360","name":"Mittweida, Stadt, Hochschulstadt","type":"Stadt"},"district":{"key":"14522","name":"Mittelsachsen","type":"Landkreis"},"federalState":{"key":"14","name":"Sachsen"}},{"name":"Rochlitzer Str.","postalCode":"09648","locality":"Mittweida","municipality":{"key":"14522360","name":"Mittweida, Stadt, Hochschulstadt","type":"Stadt"},"district":{"key":"14522","name":"Mittelsachsen","type":"Landkreis"},"federalState":{"key":"14","name":"Sachsen"}},{"name":"Röhrigtweg","postalCode":"09648","locality":"Mittweida","municipality":{"key":"14522360","name":"Mittweida, Stadt, Hochschulstadt","type":"Stadt"},"district":{"key":"14522","name":"Mittelsachsen","type":"Landkreis"},"federalState":{"key":"14","name":"Sachsen"}},{"name":"Röllingshainer Weg","postalCode":"09648","locality":"Altmittweida","municipality":{"key":"14522010","name":"Altmittweida","type":"Kreisangehörige_Gemeinde"},"district":{"key":"14522","name":"Mittelsachsen","type":"Landkreis"},"federalState":{"key":"14","name":"Sachsen"}},{"name":"Rosa-Luxemburg-Str.","postalCode":"09648","locality":"Mittweida","municipality":{"key":"14522360","name":"Mittweida, Stadt, Hochschulstadt","type":"Stadt"},"district":{"key":"14522","name":"Mittelsachsen","type":"Landkreis"},"federalState":{"key":"14","name":"Sachsen"}},{"name":"Rosenstr.","postalCode":"07570","locality":"Weida","municipality":{"key":"16076079","name":"Weida, Stadt","type":"Stadt"},"district":{"key":"16076","name":"Greiz","type":"Landkreis"},"federalState":{"key":"16","name":"Thüringen"}},{"name":"Rosenstr.","postalCode":"84558","locality":"Kirchweidach","municipality":{"key":"09171122","name":"Kirchweidach","type":"Kreisangehörige_Gemeinde"},"district":{"key":"09171","name":"Altötting","type":"Landkreis"},"federalState":{"key":"09","name":"Bayern"}},{"name":"Rosenweg","postalCode":"09648","locality":"Altmittweida","municipality":{"key":"14522010","name":"Altmittweida","type":"Kreisangehörige_Gemeinde"},"district":{"key":"14522","name":"Mittelsachsen","type":"Landkreis"},"federalState":{"key":"14","name":"Sachsen"}},{"name":"Rößgener Str.","postalCode":"09648","locality":"Mittweida","municipality":{"key":"14522360","name":"Mittweida, Stadt, Hochschulstadt","type":"Stadt"},"district":{"key":"14522","name":"Mittelsachsen","type":"Landkreis"},"federalState":{"key":"14","name":"Sachsen"}},{"name":"Roßmäßlerweg","postalCode":"07570","locality":"Weida","municipality":{"key":"16076079","name":"Weida, Stadt","type":"Stadt"},"district":{"key":"16076","name":"Greiz","type":"Landkreis"},"federalState":{"key":"16","name":"Thüringen"}},{"name":"Rothmühlstr.","postalCode":"07570","locality":"Weida","municipality":{"key":"16076079","name":"Weida, Stadt","type":"Stadt"},"district":{"key":"16076","name":"Greiz","type":"Landkreis"},"federalState":{"key":"16","name":"Thüringen"}},{"name":"Rückersdorfer Str.","postalCode":"07580","locality":"Linda b. Weida","municipality":{"key":"16076043","name":"Linda b. Weida","type":"Kreisangehörige_Gemeinde"},"district":{"key":"16076","name":"Greiz","type":"Landkreis"},"federalState":{"key":"16","name":"Thüringen"}},{"name":"Rudolf-Alander-Str.","postalCode":"07570","locality":"Weida","municipality":{"key":"16076079","name":"Weida, Stadt","type":"Stadt"},"district":{"key":"16076","name":"Greiz","type":"Landkreis"},"federalState":{"key":"16","name":"Thüringen"}},{"name":"Rudolf-Breitscheid-Str.","postalCode":"09648","locality":"Mittweida","municipality":{"key":"14522360","name":"Mittweida, Stadt, Hochschulstadt","type":"Stadt"},"district":{"key":"14522","name":"Mittelsachsen","type":"Landkreis"},"federalState":{"key":"14","name":"Sachsen"}},{"name":"Rundweg Osterburg","postalCode":"07570","locality":"Weida","municipality":{"key":"16076079","name":"Weida, Stadt","type":"Stadt"},"district":{"key":"16076","name":"Greiz","type":"Landkreis"},"federalState":{"key":"16","name":"Thüringen"}},{"name":"Sand","postalCode":"07570","locality":"Weida","municipality":{"key":"16076079","name":"Weida, Stadt","type":"Stadt"},"district":{"key":"16076","name":"Greiz","type":"Landkreis"},"federalState":{"key":"16","name":"Thüringen"}},{"name":"Sandstr.","postalCode":"07570","locality":"Weida","municipality":{"key":"16076079","name":"Weida, Stadt","type":"Stadt"},"district":{"key":"16076","name":"Greiz","type":"Landkreis"},"federalState":{"key":"16","name":"Thüringen"}},{"name":"Schänkenbergstr.","postalCode":"07570","locality":"Weida","municipality":{"key":"16076079","name":"Weida, Stadt","type":"Stadt"},"district":{"key":"16076","name":"Greiz","type":"Landkreis"},"federalState":{"key":"16","name":"Thüringen"}},{"name":"Scheunenweg","postalCode":"07570","locality":"Weida","municipality":{"key":"16076079","name":"Weida, Stadt","type":"Stadt"},"district":{"key":"16076","name":"Greiz","type":"Landkreis"},"federalState":{"key":"16","name":"Thüringen"}},{"name":"Schillerstr.","postalCode":"07570","locality":"Weida","municipality":{"key":"16076079","name":"Weida, Stadt","type":"Stadt"},"district":{"key":"16076","name":"Greiz","type":"Landkreis"},"federalState":{"key":"16","name":"Thüringen"}},{"name":"Schillerstr.","postalCode":"09648","locality":"Mittweida","municipality":{"key":"14522360","name":"Mittweida, Stadt, Hochschulstadt","type":"Stadt"},"district":{"key":"14522","name":"Mittelsachsen","type":"Landkreis"},"federalState":{"key":"14","name":"Sachsen"}},{"name":"Schillingstr.","postalCode":"09648","locality":"Mittweida","municipality":{"key":"14522360","name":"Mittweida, Stadt, Hochschulstadt","type":"Stadt"},"district":{"key":"14522","name":"Mittelsachsen","type":"Landkreis"},"federalState":{"key":"14","name":"Sachsen"}},{"name":"Schleizer Str.","postalCode":"07955","locality":"Auma-Weidatal","municipality":{"key":"16076092","name":"Auma-Weidatal, Stadt","type":"Stadt"},"district":{"key":"16076","name":"Greiz","type":"Landkreis"},"federalState":{"key":"16","name":"Thüringen"}},{"name":"Schloßberg","postalCode":"07570","locality":"Weida","municipality":{"key":"16076079","name":"Weida, Stadt","type":"Stadt"},"district":{"key":"16076","name":"Greiz","type":"Landkreis"},"federalState":{"key":"16","name":"Thüringen"}},{"name":"Schloßmühlenweg","postalCode":"07570","locality":"Weida","municipality":{"key":"16076079","name":"Weida, Stadt","type":"Stadt"},"district":{"key":"16076","name":"Greiz","type":"Landkreis"},"federalState":{"key":"16","name":"Thüringen"}},{"name":"Schloßstr.","postalCode":"07570","locality":"Weida","municipality":{"key":"16076079","name":"Weida, Stadt","type":"Stadt"},"district":{"key":"16076","name":"Greiz","type":"Landkreis"},"federalState":{"key":"16","name":"Thüringen"}},{"name":"Schloßstufen","postalCode":"07570","locality":"Weida","municipality":{"key":"16076079","name":"Weida, Stadt","type":"Stadt"},"district":{"key":"16076","name":"Greiz","type":"Landkreis"},"federalState":{"key":"16","name":"Thüringen"}},{"name":"Schmale Gasse","postalCode":"09648","locality":"Mittweida","municipality":{"key":"14522360","name":"Mittweida, Stadt, Hochschulstadt","type":"Stadt"},"district":{"key":"14522","name":"Mittelsachsen","type":"Landkreis"},"federalState":{"key":"14","name":"Sachsen"}},{"name":"Schömberg","postalCode":"07570","locality":"Weida","municipality":{"key":"16076079","name":"Weida, Stadt","type":"Stadt"},"district":{"key":"16076","name":"Greiz","type":"Landkreis"},"federalState":{"key":"16","name":"Thüringen"}},{"name":"Schömberger Weg","postalCode":"07570","locality":"Weida","municipality":{"key":"16076079","name":"Weida, Stadt","type":"Stadt"},"district":{"key":"16076","name":"Greiz","type":"Landkreis"},"federalState":{"key":"16","name":"Thüringen"}},{"name":"Schreberbergstr.","postalCode":"07570","locality":"Weida","municipality":{"key":"16076079","name":"Weida, Stadt","type":"Stadt"},"district":{"key":"16076","name":"Greiz","type":"Landkreis"},"federalState":{"key":"16","name":"Thüringen"}},{"name":"Schulberg","postalCode":"09648","locality":"Mittweida","municipality":{"key":"14522360","name":"Mittweida, Stadt, Hochschulstadt","type":"Stadt"},"district":{"key":"14522","name":"Mittelsachsen","type":"Landkreis"},"federalState":{"key":"14","name":"Sachsen"}},{"name":"Schulpark","postalCode":"07955","locality":"Auma-Weidatal","municipality":{"key":"16076092","name":"Auma-Weidatal, Stadt","type":"Stadt"},"district":{"key":"16076","name":"Greiz","type":"Landkreis"},"federalState":{"key":"16","name":"Thüringen"}},{"name":"Schulstr.","postalCode":"07955","locality":"Auma-Weidatal","municipality":{"key":"16076092","name":"Auma-Weidatal, Stadt","type":"Stadt"},"district":{"key":"16076","name":"Greiz","type":"Landkreis"},"federalState":{"key":"16","name":"Thüringen"}},{"name":"Schulstr.","postalCode":"09648","locality":"Altmittweida","municipality":{"key":"14522010","name":"Altmittweida","type":"Kreisangehörige_Gemeinde"},"district":{"key":"14522","name":"Mittelsachsen","type":"Landkreis"},"federalState":{"key":"14","name":"Sachsen"}},{"name":"Schulstr.","postalCode":"09648","locality":"Mittweida","municipality":{"key":"14522360","name":"Mittweida, Stadt, Hochschulstadt","type":"Stadt"},"district":{"key":"14522","name":"Mittelsachsen","type":"Landkreis"},"federalState":{"key":"14","name":"Sachsen"}},{"name":"Schulstr.","postalCode":"84558","locality":"Kirchweidach","municipality":{"key":"09171122","name":"Kirchweidach","type":"Kreisangehörige_Gemeinde"},"district":{"key":"09171","name":"Altötting","type":"Landkreis"},"federalState":{"key":"09","name":"Bayern"}},{"name":"Schumannstr.","postalCode":"09648","locality":"Mittweida","municipality":{"key":"14522360","name":"Mittweida, Stadt, Hochschulstadt","type":"Stadt"},"district":{"key":"14522","name":"Mittelsachsen","type":"Landkreis"},"federalState":{"key":"14","name":"Sachsen"}},{"name":"Schüptitz","postalCode":"07570","locality":"Weida","municipality":{"key":"16076079","name":"Weida, Stadt","type":"Stadt"},"district":{"key":"16076","name":"Greiz","type":"Landkreis"},"federalState":{"key":"16","name":"Thüringen"}},{"name":"Schützenplatz","postalCode":"09648","locality":"Mittweida","municipality":{"key":"14522360","name":"Mittweida, Stadt, Hochschulstadt","type":"Stadt"},"district":{"key":"14522","name":"Mittelsachsen","type":"Landkreis"},"federalState":{"key":"14","name":"Sachsen"}},{"name":"Seeblickstr.","postalCode":"09648","locality":"Mittweida","municipality":{"key":"14522360","name":"Mittweida, Stadt, Hochschulstadt","type":"Stadt"},"district":{"key":"14522","name":"Mittelsachsen","type":"Landkreis"},"federalState":{"key":"14","name":"Sachsen"}},{"name":"Semmelweispark","postalCode":"07570","locality":"Weida","municipality":{"key":"16076079","name":"Weida, Stadt","type":"Stadt"},"district":{"key":"16076","name":"Greiz","type":"Landkreis"},"federalState":{"key":"16","name":"Thüringen"}},{"name":"Siedlung","postalCode":"07570","locality":"Weida","municipality":{"key":"16076079","name":"Weida, Stadt","type":"Stadt"},"district":{"key":"16076","name":"Greiz","type":"Landkreis"},"federalState":{"key":"16","name":"Thüringen"}},{"name":"Siedlung","postalCode":"09648","locality":"Altmittweida","municipality":{"key":"14522010","name":"Altmittweida","type":"Kreisangehörige_Gemeinde"},"district":{"key":"14522","name":"Mittelsachsen","type":"Landkreis"},"federalState":{"key":"14","name":"Sachsen"}},{"name":"Siedlungsstr.","postalCode":"07570","locality":"Weida","municipality":{"key":"16076079","name":"Weida, Stadt","type":"Stadt"},"district":{"key":"16076","name":"Greiz","type":"Landkreis"},"federalState":{"key":"16","name":"Thüringen"}},{"name":"Siedlungsstr.","postalCode":"07955","locality":"Auma-Weidatal","municipality":{"key":"16076092","name":"Auma-Weidatal, Stadt","type":"Stadt"},"district":{"key":"16076","name":"Greiz","type":"Landkreis"},"federalState":{"key":"16","name":"Thüringen"}},{"name":"Sonnenstr.","postalCode":"09648","locality":"Mittweida","municipality":{"key":"14522360","name":"Mittweida, Stadt, Hochschulstadt","type":"Stadt"},"district":{"key":"14522","name":"Mittelsachsen","type":"Landkreis"},"federalState":{"key":"14","name":"Sachsen"}},{"name":"Sophie-Scholl-Str.","postalCode":"09648","locality":"Mittweida","municipality":{"key":"14522360","name":"Mittweida, Stadt, Hochschulstadt","type":"Stadt"},"district":{"key":"14522","name":"Mittelsachsen","type":"Landkreis"},"federalState":{"key":"14","name":"Sachsen"}},{"name":"Spielstr.","postalCode":"07580","locality":"Linda b. Weida","municipality":{"key":"16076043","name":"Linda b. Weida","type":"Kreisangehörige_Gemeinde"},"district":{"key":"16076","name":"Greiz","type":"Landkreis"},"federalState":{"key":"16","name":"Thüringen"}},{"name":"Sportpark","postalCode":"07570","locality":"Weida","municipality":{"key":"16076079","name":"Weida, Stadt","type":"Stadt"},"district":{"key":"16076","name":"Greiz","type":"Landkreis"},"federalState":{"key":"16","name":"Thüringen"}},{"name":"Stadtgraben","postalCode":"09648","locality":"Mittweida","municipality":{"key":"14522360","name":"Mittweida, Stadt, Hochschulstadt","type":"Stadt"},"district":{"key":"14522","name":"Mittelsachsen","type":"Landkreis"},"federalState":{"key":"14","name":"Sachsen"}},{"name":"Staitzer Dorfstr.","postalCode":"07955","locality":"Auma-Weidatal","municipality":{"key":"16076092","name":"Auma-Weidatal, Stadt","type":"Stadt"},"district":{"key":"16076","name":"Greiz","type":"Landkreis"},"federalState":{"key":"16","name":"Thüringen"}},{"name":"Staitzer Lindenstr.","postalCode":"07955","locality":"Auma-Weidatal","municipality":{"key":"16076092","name":"Auma-Weidatal, Stadt","type":"Stadt"},"district":{"key":"16076","name":"Greiz","type":"Landkreis"},"federalState":{"key":"16","name":"Thüringen"}},{"name":"Staitzer Südstr.","postalCode":"07955","locality":"Auma-Weidatal","municipality":{"key":"16076092","name":"Auma-Weidatal, Stadt","type":"Stadt"},"district":{"key":"16076","name":"Greiz","type":"Landkreis"},"federalState":{"key":"16","name":"Thüringen"}},{"name":"Steg","postalCode":"07570","locality":"Weida","municipality":{"key":"16076079","name":"Weida, Stadt","type":"Stadt"},"district":{"key":"16076","name":"Greiz","type":"Landkreis"},"federalState":{"key":"16","name":"Thüringen"}},{"name":"Stegstr.","postalCode":"07570","locality":"Weida","municipality":{"key":"16076079","name":"Weida, Stadt","type":"Stadt"},"district":{"key":"16076","name":"Greiz","type":"Landkreis"},"federalState":{"key":"16","name":"Thüringen"}},{"name":"Steinbogenbrücke am Eisenhammer","postalCode":"07570","locality":"Weida","municipality":{"key":"16076079","name":"Weida, Stadt","type":"Stadt"},"district":{"key":"16076","name":"Greiz","type":"Landkreis"},"federalState":{"key":"16","name":"Thüringen"}},{"name":"Steinsdorf","postalCode":"07570","locality":"Weida","municipality":{"key":"16076079","name":"Weida, Stadt","type":"Stadt"},"district":{"key":"16076","name":"Greiz","type":"Landkreis"},"federalState":{"key":"16","name":"Thüringen"}},{"name":"Steinweg","postalCode":"09648","locality":"Mittweida","municipality":{"key":"14522360","name":"Mittweida, Stadt, Hochschulstadt","type":"Stadt"},"district":{"key":"14522","name":"Mittelsachsen","type":"Landkreis"},"federalState":{"key":"14","name":"Sachsen"}},{"name":"Stelzenberg","postalCode":"84558","locality":"Kirchweidach","municipality":{"key":"09171122","name":"Kirchweidach","type":"Kreisangehörige_Gemeinde"},"district":{"key":"09171","name":"Altötting","type":"Landkreis"},"federalState":{"key":"09","name":"Bayern"}},{"name":"Str. am Anger","postalCode":"07570","locality":"Weida","municipality":{"key":"16076079","name":"Weida, Stadt","type":"Stadt"},"district":{"key":"16076","name":"Greiz","type":"Landkreis"},"federalState":{"key":"16","name":"Thüringen"}},{"name":"Str. der Frohen Zukunft","postalCode":"07570","locality":"Weida","municipality":{"key":"16076079","name":"Weida, Stadt","type":"Stadt"},"district":{"key":"16076","name":"Greiz","type":"Landkreis"},"federalState":{"key":"16","name":"Thüringen"}},{"name":"Str. der Jugend","postalCode":"07570","locality":"Weida","municipality":{"key":"16076079","name":"Weida, Stadt","type":"Stadt"},"district":{"key":"16076","name":"Greiz","type":"Landkreis"},"federalState":{"key":"16","name":"Thüringen"}},{"name":"Str. des Friedens","postalCode":"07955","locality":"Auma-Weidatal","municipality":{"key":"16076092","name":"Auma-Weidatal, Stadt","type":"Stadt"},"district":{"key":"16076","name":"Greiz","type":"Landkreis"},"federalState":{"key":"16","name":"Thüringen"}},{"name":"Str. des Friedens","postalCode":"09648","locality":"Mittweida","municipality":{"key":"14522360","name":"Mittweida, Stadt, Hochschulstadt","type":"Stadt"},"district":{"key":"14522","name":"Mittelsachsen","type":"Landkreis"},"federalState":{"key":"14","name":"Sachsen"}},{"name":"Talsperrenstr.","postalCode":"09648","locality":"Mittweida","municipality":{"key":"14522360","name":"Mittweida, Stadt, Hochschulstadt","type":"Stadt"},"district":{"key":"14522","name":"Mittelsachsen","type":"Landkreis"},"federalState":{"key":"14","name":"Sachsen"}},{"name":"Talsperrenweg","postalCode":"07955","locality":"Auma-Weidatal","municipality":{"key":"16076092","name":"Auma-Weidatal, Stadt","type":"Stadt"},"district":{"key":"16076","name":"Greiz","type":"Landkreis"},"federalState":{"key":"16","name":"Thüringen"}},{"name":"Tanneberger Hauptstr.","postalCode":"09648","locality":"Mittweida","municipality":{"key":"14522360","name":"Mittweida, Stadt, Hochschulstadt","type":"Stadt"},"district":{"key":"14522","name":"Mittelsachsen","type":"Landkreis"},"federalState":{"key":"14","name":"Sachsen"}},{"name":"Technikumplatz","postalCode":"09648","locality":"Mittweida","municipality":{"key":"14522360","name":"Mittweida, Stadt, Hochschulstadt","type":"Stadt"},"district":{"key":"14522","name":"Mittelsachsen","type":"Landkreis"},"federalState":{"key":"14","name":"Sachsen"}},{"name":"Teichdamm","postalCode":"07955","locality":"Auma-Weidatal","municipality":{"key":"16076092","name":"Auma-Weidatal, Stadt","type":"Stadt"},"district":{"key":"16076","name":"Greiz","type":"Landkreis"},"federalState":{"key":"16","name":"Thüringen"}},{"name":"Teichgasse","postalCode":"07580","locality":"Linda b. Weida","municipality":{"key":"16076043","name":"Linda b. Weida","type":"Kreisangehörige_Gemeinde"},"district":{"key":"16076","name":"Greiz","type":"Landkreis"},"federalState":{"key":"16","name":"Thüringen"}},{"name":"Theaterstr.","postalCode":"09648","locality":"Mittweida","municipality":{"key":"14522360","name":"Mittweida, Stadt, Hochschulstadt","type":"Stadt"},"district":{"key":"14522","name":"Mittelsachsen","type":"Landkreis"},"federalState":{"key":"14","name":"Sachsen"}},{"name":"Theodor-Heuss-Str.","postalCode":"09648","locality":"Mittweida","municipality":{"key":"14522360","name":"Mittweida, Stadt, Hochschulstadt","type":"Stadt"},"district":{"key":"14522","name":"Mittelsachsen","type":"Landkreis"},"federalState":{"key":"14","name":"Sachsen"}},{"name":"Theodor-Körner-Str.","postalCode":"07570","locality":"Weida","municipality":{"key":"16076079","name":"Weida, Stadt","type":"Stadt"},"district":{"key":"16076","name":"Greiz","type":"Landkreis"},"federalState":{"key":"16","name":"Thüringen"}},{"name":"Thomas-Mann-Str.","postalCode":"09648","locality":"Mittweida","municipality":{"key":"14522360","name":"Mittweida, Stadt, Hochschulstadt","type":"Stadt"},"district":{"key":"14522","name":"Mittelsachsen","type":"Landkreis"},"federalState":{"key":"14","name":"Sachsen"}},{"name":"Thomasstr.","postalCode":"07570","locality":"Weida","municipality":{"key":"16076079","name":"Weida, Stadt","type":"Stadt"},"district":{"key":"16076","name":"Greiz","type":"Landkreis"},"federalState":{"key":"16","name":"Thüringen"}},{"name":"Tischendorf","postalCode":"07955","locality":"Auma-Weidatal","municipality":{"key":"16076092","name":"Auma-Weidatal, Stadt","type":"Stadt"},"district":{"key":"16076","name":"Greiz","type":"Landkreis"},"federalState":{"key":"16","name":"Thüringen"}},{"name":"Topfseifersdorfer Str.","postalCode":"09648","locality":"Mittweida","municipality":{"key":"14522360","name":"Mittweida, Stadt, Hochschulstadt","type":"Stadt"},"district":{"key":"14522","name":"Mittelsachsen","type":"Landkreis"},"federalState":{"key":"14","name":"Sachsen"}},{"name":"Triptiser Str.","postalCode":"07955","locality":"Auma-Weidatal","municipality":{"key":"16076092","name":"Auma-Weidatal, Stadt","type":"Stadt"},"district":{"key":"16076","name":"Greiz","type":"Landkreis"},"federalState":{"key":"16","name":"Thüringen"}},{"name":"Trostberger Str.","postalCode":"84558","locality":"Kirchweidach","municipality":{"key":"09171122","name":"Kirchweidach","type":"Kreisangehörige_Gemeinde"},"district":{"key":"09171","name":"Altötting","type":"Landkreis"},"federalState":{"key":"09","name":"Bayern"}},{"name":"Tulpenstr.","postalCode":"84558","locality":"Kirchweidach","municipality":{"key":"09171122","name":"Kirchweidach","type":"Kreisangehörige_Gemeinde"},"district":{"key":"09171","name":"Altötting","type":"Landkreis"},"federalState":{"key":"09","name":"Bayern"}},{"name":"Tulpenweg","postalCode":"09648","locality":"Altmittweida","municipality":{"key":"14522010","name":"Altmittweida","type":"Kreisangehörige_Gemeinde"},"district":{"key":"14522","name":"Mittelsachsen","type":"Landkreis"},"federalState":{"key":"14","name":"Sachsen"}},{"name":"Turmstr.","postalCode":"07570","locality":"Weida","municipality":{"key":"16076079","name":"Weida, Stadt","type":"Stadt"},"district":{"key":"16076","name":"Greiz","type":"Landkreis"},"federalState":{"key":"16","name":"Thüringen"}},{"name":"Turnerstr.","postalCode":"09648","locality":"Mittweida","municipality":{"key":"14522360","name":"Mittweida, Stadt, Hochschulstadt","type":"Stadt"},"district":{"key":"14522","name":"Mittelsachsen","type":"Landkreis"},"federalState":{"key":"14","name":"Sachsen"}},{"name":"Tyrlachinger Str.","postalCode":"84558","locality":"Kirchweidach","municipality":{"key":"09171122","name":"Kirchweidach","type":"Kreisangehörige_Gemeinde"},"district":{"key":"09171","name":"Altötting","type":"Landkreis"},"federalState":{"key":"09","name":"Bayern"}},{"name":"Tzschirnerplatz","postalCode":"09648","locality":"Mittweida","municipality":{"key":"14522360","name":"Mittweida, Stadt, Hochschulstadt","type":"Stadt"},"district":{"key":"14522","name":"Mittelsachsen","type":"Landkreis"},"federalState":{"key":"14","name":"Sachsen"}},{"name":"Tzschirnerstr.","postalCode":"09648","locality":"Mittweida","municipality":{"key":"14522360","name":"Mittweida, Stadt, Hochschulstadt","type":"Stadt"},"district":{"key":"14522","name":"Mittelsachsen","type":"Landkreis"},"federalState":{"key":"14","name":"Sachsen"}},{"name":"Uferstr.","postalCode":"07570","locality":"Weida","municipality":{"key":"16076079","name":"Weida, Stadt","type":"Stadt"},"district":{"key":"16076","name":"Greiz","type":"Landkreis"},"federalState":{"key":"16","name":"Thüringen"}},{"name":"Uhlandstr.","postalCode":"09648","locality":"Mittweida","municipality":{"key":"14522360","name":"Mittweida, Stadt, Hochschulstadt","type":"Stadt"},"district":{"key":"14522","name":"Mittelsachsen","type":"Landkreis"},"federalState":{"key":"14","name":"Sachsen"}},{"name":"Ulmenweg","postalCode":"07570","locality":"Weida","municipality":{"key":"16076079","name":"Weida, Stadt","type":"Stadt"},"district":{"key":"16076","name":"Greiz","type":"Landkreis"},"federalState":{"key":"16","name":"Thüringen"}},{"name":"Ulmenweg","postalCode":"84558","locality":"Kirchweidach","municipality":{"key":"09171122","name":"Kirchweidach","type":"Kreisangehörige_Gemeinde"},"district":{"key":"09171","name":"Altötting","type":"Landkreis"},"federalState":{"key":"09","name":"Bayern"}},{"name":"Untendorf","postalCode":"07955","locality":"Auma-Weidatal","municipality":{"key":"16076092","name":"Auma-Weidatal, Stadt","type":"Stadt"},"district":{"key":"16076","name":"Greiz","type":"Landkreis"},"federalState":{"key":"16","name":"Thüringen"}},{"name":"Untere Dorfstr.","postalCode":"09648","locality":"Mittweida","municipality":{"key":"14522360","name":"Mittweida, Stadt, Hochschulstadt","type":"Stadt"},"district":{"key":"14522","name":"Mittelsachsen","type":"Landkreis"},"federalState":{"key":"14","name":"Sachsen"}},{"name":"Untere Gasse","postalCode":"07955","locality":"Auma-Weidatal","municipality":{"key":"16076092","name":"Auma-Weidatal, Stadt","type":"Stadt"},"district":{"key":"16076","name":"Greiz","type":"Landkreis"},"federalState":{"key":"16","name":"Thüringen"}},{"name":"Untere Hainstr.","postalCode":"07570","locality":"Weida","municipality":{"key":"16076079","name":"Weida, Stadt","type":"Stadt"},"district":{"key":"16076","name":"Greiz","type":"Landkreis"},"federalState":{"key":"16","name":"Thüringen"}},{"name":"Unterer Graben","postalCode":"07955","locality":"Auma-Weidatal","municipality":{"key":"16076092","name":"Auma-Weidatal, Stadt","type":"Stadt"},"district":{"key":"16076","name":"Greiz","type":"Landkreis"},"federalState":{"key":"16","name":"Thüringen"}},{"name":"Untere Str.","postalCode":"07570","locality":"Weida","municipality":{"key":"16076079","name":"Weida, Stadt","type":"Stadt"},"district":{"key":"16076","name":"Greiz","type":"Landkreis"},"federalState":{"key":"16","name":"Thüringen"}},{"name":"Viehweg","postalCode":"09648","locality":"Mittweida","municipality":{"key":"14522360","name":"Mittweida, Stadt, Hochschulstadt","type":"Stadt"},"district":{"key":"14522","name":"Mittelsachsen","type":"Landkreis"},"federalState":{"key":"14","name":"Sachsen"}},{"name":"Viersener Str.","postalCode":"09648","locality":"Mittweida","municipality":{"key":"14522360","name":"Mittweida, Stadt, Hochschulstadt","type":"Stadt"},"district":{"key":"14522","name":"Mittelsachsen","type":"Landkreis"},"federalState":{"key":"14","name":"Sachsen"}},{"name":"Vogelsweg","postalCode":"09648","locality":"Altmittweida","municipality":{"key":"14522010","name":"Altmittweida","type":"Kreisangehörige_Gemeinde"},"district":{"key":"14522","name":"Mittelsachsen","type":"Landkreis"},"federalState":{"key":"14","name":"Sachsen"}},{"name":"Vor dem Kreuztor","postalCode":"07955","locality":"Auma-Weidatal","municipality":{"key":"16076092","name":"Auma-Weidatal, Stadt","type":"Stadt"},"district":{"key":"16076","name":"Greiz","type":"Landkreis"},"federalState":{"key":"16","name":"Thüringen"}},{"name":"Vorwerk-Deschwitz-Gemäuer","postalCode":"07570","locality":"Weida","municipality":{"key":"16076079","name":"Weida, Stadt","type":"Stadt"},"district":{"key":"16076","name":"Greiz","type":"Landkreis"},"federalState":{"key":"16","name":"Thüringen"}},{"name":"Waldheimer Str.","postalCode":"09648","locality":"Mittweida","municipality":{"key":"14522360","name":"Mittweida, Stadt, Hochschulstadt","type":"Stadt"},"district":{"key":"14522","name":"Mittelsachsen","type":"Landkreis"},"federalState":{"key":"14","name":"Sachsen"}},{"name":"Waldstr.","postalCode":"07955","locality":"Auma-Weidatal","municipality":{"key":"16076092","name":"Auma-Weidatal, Stadt","type":"Stadt"},"district":{"key":"16076","name":"Greiz","type":"Landkreis"},"federalState":{"key":"16","name":"Thüringen"}},{"name":"Waldstr.","postalCode":"84558","locality":"Kirchweidach","municipality":{"key":"09171122","name":"Kirchweidach","type":"Kreisangehörige_Gemeinde"},"district":{"key":"09171","name":"Altötting","type":"Landkreis"},"federalState":{"key":"09","name":"Bayern"}},{"name":"Waldweg","postalCode":"09648","locality":"Mittweida","municipality":{"key":"14522360","name":"Mittweida, Stadt, Hochschulstadt","type":"Stadt"},"district":{"key":"14522","name":"Mittelsachsen","type":"Landkreis"},"federalState":{"key":"14","name":"Sachsen"}},{"name":"Wallstr.","postalCode":"07570","locality":"Weida","municipality":{"key":"16076079","name":"Weida, Stadt","type":"Stadt"},"district":{"key":"16076","name":"Greiz","type":"Landkreis"},"federalState":{"key":"16","name":"Thüringen"}},{"name":"Wasserwerksweg","postalCode":"09648","locality":"Altmittweida","municipality":{"key":"14522010","name":"Altmittweida","type":"Kreisangehörige_Gemeinde"},"district":{"key":"14522","name":"Mittelsachsen","type":"Landkreis"},"federalState":{"key":"14","name":"Sachsen"}},{"name":"Weberstr.","postalCode":"09648","locality":"Mittweida","municipality":{"key":"14522360","name":"Mittweida, Stadt, Hochschulstadt","type":"Stadt"},"district":{"key":"14522","name":"Mittelsachsen","type":"Landkreis"},"federalState":{"key":"14","name":"Sachsen"}},{"name":"Weidaer Str.","postalCode":"07570","locality":"Weida","municipality":{"key":"16076079","name":"Weida, Stadt","type":"Stadt"},"district":{"key":"16076","name":"Greiz","type":"Landkreis"},"federalState":{"key":"16","name":"Thüringen"}},{"name":"Weidenstr.","postalCode":"84558","locality":"Kirchweidach","municipality":{"key":"09171122","name":"Kirchweidach","type":"Kreisangehörige_Gemeinde"},"district":{"key":"09171","name":"Altötting","type":"Landkreis"},"federalState":{"key":"09","name":"Bayern"}},{"name":"Weidenweg","postalCode":"07570","locality":"Weida","municipality":{"key":"16076079","name":"Weida, Stadt","type":"Stadt"},"district":{"key":"16076","name":"Greiz","type":"Landkreis"},"federalState":{"key":"16","name":"Thüringen"}},{"name":"Weiherstr.","postalCode":"07570","locality":"Weida","municipality":{"key":"16076079","name":"Weida, Stadt","type":"Stadt"},"district":{"key":"16076","name":"Greiz","type":"Landkreis"},"federalState":{"key":"16","name":"Thüringen"}},{"name":"Weiherweg","postalCode":"84558","locality":"Kirchweidach","municipality":{"key":"09171122","name":"Kirchweidach","type":"Kreisangehörige_Gemeinde"},"district":{"key":"09171","name":"Altötting","type":"Landkreis"},"federalState":{"key":"09","name":"Bayern"}},{"name":"Weinsdorfer Str.","postalCode":"09648","locality":"Mittweida","municipality":{"key":"14522360","name":"Mittweida, Stadt, Hochschulstadt","type":"Stadt"},"district":{"key":"14522","name":"Mittelsachsen","type":"Landkreis"},"federalState":{"key":"14","name":"Sachsen"}},{"name":"Weißthal","postalCode":"09648","locality":"Mittweida","municipality":{"key":"14522360","name":"Mittweida, Stadt, Hochschulstadt","type":"Stadt"},"district":{"key":"14522","name":"Mittelsachsen","type":"Landkreis"},"federalState":{"key":"14","name":"Sachsen"}},{"name":"Weitzelstr.","postalCode":"09648","locality":"Mittweida","municipality":{"key":"14522360","name":"Mittweida, Stadt, Hochschulstadt","type":"Stadt"},"district":{"key":"14522","name":"Mittelsachsen","type":"Landkreis"},"federalState":{"key":"14","name":"Sachsen"}},{"name":"Wendisches Dorf","postalCode":"07955","locality":"Auma-Weidatal","municipality":{"key":"16076092","name":"Auma-Weidatal, Stadt","type":"Stadt"},"district":{"key":"16076","name":"Greiz","type":"Landkreis"},"federalState":{"key":"16","name":"Thüringen"}},{"name":"Wenigenauma","postalCode":"07955","locality":"Auma-Weidatal","municipality":{"key":"16076092","name":"Auma-Weidatal, Stadt","type":"Stadt"},"district":{"key":"16076","name":"Greiz","type":"Landkreis"},"federalState":{"key":"16","name":"Thüringen"}},{"name":"Weststr.","postalCode":"07570","locality":"Weida","municipality":{"key":"16076079","name":"Weida, Stadt","type":"Stadt"},"district":{"key":"16076","name":"Greiz","type":"Landkreis"},"federalState":{"key":"16","name":"Thüringen"}},{"name":"Weststr.","postalCode":"07955","locality":"Auma-Weidatal","municipality":{"key":"16076092","name":"Auma-Weidatal, Stadt","type":"Stadt"},"district":{"key":"16076","name":"Greiz","type":"Landkreis"},"federalState":{"key":"16","name":"Thüringen"}},{"name":"Weststr.","postalCode":"09648","locality":"Mittweida","municipality":{"key":"14522360","name":"Mittweida, Stadt, Hochschulstadt","type":"Stadt"},"district":{"key":"14522","name":"Mittelsachsen","type":"Landkreis"},"federalState":{"key":"14","name":"Sachsen"}},{"name":"Wiebelsdorf","postalCode":"07955","locality":"Auma-Weidatal","municipality":{"key":"16076092","name":"Auma-Weidatal, Stadt","type":"Stadt"},"district":{"key":"16076","name":"Greiz","type":"Landkreis"},"federalState":{"key":"16","name":"Thüringen"}},{"name":"Wiedenstr.","postalCode":"07570","locality":"Weida","municipality":{"key":"16076079","name":"Weida, Stadt","type":"Stadt"},"district":{"key":"16076","name":"Greiz","type":"Landkreis"},"federalState":{"key":"16","name":"Thüringen"}},{"name":"Wiener Str.","postalCode":"09648","locality":"Mittweida","municipality":{"key":"14522360","name":"Mittweida, Stadt, Hochschulstadt","type":"Stadt"},"district":{"key":"14522","name":"Mittelsachsen","type":"Landkreis"},"federalState":{"key":"14","name":"Sachsen"}},{"name":"Wiesenstr.","postalCode":"07570","locality":"Weida","municipality":{"key":"16076079","name":"Weida, Stadt","type":"Stadt"},"district":{"key":"16076","name":"Greiz","type":"Landkreis"},"federalState":{"key":"16","name":"Thüringen"}},{"name":"Wiesenstr.","postalCode":"09648","locality":"Mittweida","municipality":{"key":"14522360","name":"Mittweida, Stadt, Hochschulstadt","type":"Stadt"},"district":{"key":"14522","name":"Mittelsachsen","type":"Landkreis"},"federalState":{"key":"14","name":"Sachsen"}},{"name":"Wiesenstr.","postalCode":"84558","locality":"Kirchweidach","municipality":{"key":"09171122","name":"Kirchweidach","type":"Kreisangehörige_Gemeinde"},"district":{"key":"09171","name":"Altötting","type":"Landkreis"},"federalState":{"key":"09","name":"Bayern"}},{"name":"Wiesenweg","postalCode":"09648","locality":"Mittweida","municipality":{"key":"14522360","name":"Mittweida, Stadt, Hochschulstadt","type":"Stadt"},"district":{"key":"14522","name":"Mittelsachsen","type":"Landkreis"},"federalState":{"key":"14","name":"Sachsen"}},{"name":"Wilhelm-Faber-Str.","postalCode":"07570","locality":"Weida","municipality":{"key":"16076079","name":"Weida, Stadt","type":"Stadt"},"district":{"key":"16076","name":"Greiz","type":"Landkreis"},"federalState":{"key":"16","name":"Thüringen"}},{"name":"Windmühlenstr.","postalCode":"07955","locality":"Auma-Weidatal","municipality":{"key":"16076092","name":"Auma-Weidatal, Stadt","type":"Stadt"},"district":{"key":"16076","name":"Greiz","type":"Landkreis"},"federalState":{"key":"16","name":"Thüringen"}},{"name":"Wöhlsdorf","postalCode":"07955","locality":"Auma-Weidatal","municipality":{"key":"16076092","name":"Auma-Weidatal, Stadt","type":"Stadt"},"district":{"key":"16076","name":"Greiz","type":"Landkreis"},"federalState":{"key":"16","name":"Thüringen"}},{"name":"Wöhlsdorfer Str.","postalCode":"07955","locality":"Auma-Weidatal","municipality":{"key":"16076092","name":"Auma-Weidatal, Stadt","type":"Stadt"},"district":{"key":"16076","name":"Greiz","type":"Landkreis"},"federalState":{"key":"16","name":"Thüringen"}},{"name":"Wüstenwetzdorfer Weg","postalCode":"07955","locality":"Auma-Weidatal","municipality":{"key":"16076092","name":"Auma-Weidatal, Stadt","type":"Stadt"},"district":{"key":"16076","name":"Greiz","type":"Landkreis"},"federalState":{"key":"16","name":"Thüringen"}},{"name":"Zeisig","postalCode":"09648","locality":"Mittweida","municipality":{"key":"14522360","name":"Mittweida, Stadt, Hochschulstadt","type":"Stadt"},"district":{"key":"14522","name":"Mittelsachsen","type":"Landkreis"},"federalState":{"key":"14","name":"Sachsen"}},{"name":"Zeulenrodaer Str.","postalCode":"07955","locality":"Auma-Weidatal","municipality":{"key":"16076092","name":"Auma-Weidatal, Stadt","type":"Stadt"},"district":{"key":"16076","name":"Greiz","type":"Landkreis"},"federalState":{"key":"16","name":"Thüringen"}},{"name":"Zickra","postalCode":"07955","locality":"Auma-Weidatal","municipality":{"key":"16076092","name":"Auma-Weidatal, Stadt","type":"Stadt"},"district":{"key":"16076","name":"Greiz","type":"Landkreis"},"federalState":{"key":"16","name":"Thüringen"}},{"name":"Zimmerstr.","postalCode":"07570","locality":"Weida","municipality":{"key":"16076079","name":"Weida, Stadt","type":"Stadt"},"district":{"key":"16076","name":"Greiz","type":"Landkreis"},"federalState":{"key":"16","name":"Thüringen"}},{"name":"Zimmerstr.","postalCode":"09648","locality":"Mittweida","municipality":{"key":"14522360","name":"Mittweida, Stadt, Hochschulstadt","type":"Stadt"},"district":{"key":"14522","name":"Mittelsachsen","type":"Landkreis"},"federalState":{"key":"14","name":"Sachsen"}},{"name":"Zschopaustr.","postalCode":"09648","locality":"Mittweida","municipality":{"key":"14522360","name":"Mittweida, Stadt, Hochschulstadt","type":"Stadt"},"district":{"key":"14522","name":"Mittelsachsen","type":"Landkreis"},"federalState":{"key":"14","name":"Sachsen"}},{"name":"Zschopautalweg","postalCode":"09648","locality":"Mittweida","municipality":{"key":"14522360","name":"Mittweida, Stadt, Hochschulstadt","type":"Stadt"},"district":{"key":"14522","name":"Mittelsachsen","type":"Landkreis"},"federalState":{"key":"14","name":"Sachsen"}},{"name":"Zschöppichen","postalCode":"09648","locality":"Mittweida","municipality":{"key":"14522360","name":"Mittweida, Stadt, Hochschulstadt","type":"Stadt"},"district":{"key":"14522","name":"Mittelsachsen","type":"Landkreis"},"federalState":{"key":"14","name":"Sachsen"}},{"name":"Zschortaer Weg","postalCode":"07570","locality":"Weida","municipality":{"key":"16076079","name":"Weida, Stadt","type":"Stadt"},"district":{"key":"16076","name":"Greiz","type":"Landkreis"},"federalState":{"key":"16","name":"Thüringen"}},{"name":"Zu den Kastanien","postalCode":"07570","locality":"Weida","municipality":{"key":"16076079","name":"Weida, Stadt","type":"Stadt"},"district":{"key":"16076","name":"Greiz","type":"Landkreis"},"federalState":{"key":"16","name":"Thüringen"}},{"name":"Zur Aue","postalCode":"07580","locality":"Linda b. Weida","municipality":{"key":"16076043","name":"Linda b. Weida","type":"Kreisangehörige_Gemeinde"},"district":{"key":"16076","name":"Greiz","type":"Landkreis"},"federalState":{"key":"16","name":"Thüringen"}},{"name":"Zur Feuerwache","postalCode":"09648","locality":"Mittweida","municipality":{"key":"14522360","name":"Mittweida, Stadt, Hochschulstadt","type":"Stadt"},"district":{"key":"14522","name":"Mittelsachsen","type":"Landkreis"},"federalState":{"key":"14","name":"Sachsen"}},{"name":"Zur Obstweinschänke","postalCode":"09648","locality":"Mittweida","municipality":{"key":"14522360","name":"Mittweida, Stadt, Hochschulstadt","type":"Stadt"},"district":{"key":"14522","name":"Mittelsachsen","type":"Landkreis"},"federalState":{"key":"14","name":"Sachsen"}},{"name":"Zur Schwedeneiche","postalCode":"07570","locality":"Weida","municipality":{"key":"16076079","name":"Weida, Stadt","type":"Stadt"},"district":{"key":"16076","name":"Greiz","type":"Landkreis"},"federalState":{"key":"16","name":"Thüringen"}},{"name":"Zur Torfgrube","postalCode":"09648","locality":"Mittweida","municipality":{"key":"14522360","name":"Mittweida, Stadt, Hochschulstadt","type":"Stadt"},"district":{"key":"14522","name":"Mittelsachsen","type":"Landkreis"},"federalState":{"key":"14","name":"Sachsen"}},{"name":"Äußere Zeulenrodaer Str.","postalCode":"07973","locality":"Greiz","municipality":{"key":"16076022","name":"Greiz, Stadt","type":"Stadt"},"district":{"key":"16076","name":"Greiz","type":"Landkreis"},"federalState":{"key":"16","name":"Thüringen"}},{"name":"Ölsengrund","postalCode":"07570","locality":"Weida","municipality":{"key":"16076079","name":"Weida, Stadt","type":"Stadt"},"district":{"key":"16076","name":"Greiz","type":"Landkreis"},"federalState":{"key":"16","name":"Thüringen"}},]