[{"key":"10160455","name":"Chemin des Aroudes","postalCode":"1431","locality":"Novalles","commune":{"key":"5564","name":"Novalles","shortName":"Novalles"},"district":{"key":"2224","name":"District du Jura-Nord vaudois"},"canton":{"key":"22","code":"VD","name":"Vaud"},"status":"Real"},{"key":"10006236","name":"Chemin des Vignes","postalCode":"1431","locality":"Novalles","commune":{"key":"5564","name":"Novalles","shortName":"Novalles"},"district":{"key":"2224","name":"District du Jura-Nord vaudois"},"canton":{"key":"22","code":"VD","name":"Vaud"},"status":"Real"},{"key":"10080092","name":"Le Clos","postalCode":"1431","locality":"Novalles","commune":{"key":"5564","name":"Novalles","shortName":"Novalles"},"district":{"key":"2224","name":"District du Jura-Nord vaudois"},"canton":{"key":"22","code":"VD","name":"Vaud"},"status":"Real"},{"key":"10044697","name":"Le Moulin","postalCode":"1431","locality":"Novalles","commune":{"key":"5564","name":"Novalles","shortName":"Novalles"},"district":{"key":"2224","name":"District du Jura-Nord vaudois"},"canton":{"key":"22","code":"VD","name":"Vaud"},"status":"Real"},{"key":"10163977","name":"Place du Village","postalCode":"1431","locality":"Novalles","commune":{"key":"5564","name":"Novalles","shortName":"Novalles"},"district":{"key":"2224","name":"District du Jura-Nord vaudois"},"canton":{"key":"22","code":"VD","name":"Vaud"},"status":"Real"},{"key":"10007337","name":"Route de Fontaines","postalCode":"1431","locality":"Novalles","commune":{"key":"5564","name":"Novalles","shortName":"Novalles"},"district":{"key":"2224","name":"District du Jura-Nord vaudois"},"canton":{"key":"22","code":"VD","name":"Vaud"},"status":"Real"},{"key":"10163978","name":"Route de Vugelles","postalCode":"1431","locality":"Novalles","commune":{"key":"5564","name":"Novalles","shortName":"Novalles"},"district":{"key":"2224","name":"District du Jura-Nord vaudois"},"canton":{"key":"22","code":"VD","name":"Vaud"},"status":"Real"},{"key":"10247127","name":"Rue Les Sagnettes","postalCode":"1431","locality":"Novalles","commune":{"key":"5564","name":"Novalles","shortName":"Novalles"},"district":{"key":"2224","name":"District du Jura-Nord vaudois"},"canton":{"key":"22","code":"VD","name":"Vaud"},"status":"Real"},{"key":"10158286","name":"Ruelle du Bochet","postalCode":"1431","locality":"Novalles","commune":{"key":"5564","name":"Novalles","shortName":"Novalles"},"district":{"key":"2224","name":"District du Jura-Nord vaudois"},"canton":{"key":"22","code":"VD","name":"Vaud"},"status":"Real"},]