[{"key":"10007778","name":"Auf dem Moos","postalCode":"4922","locality":"Thunstetten","commune":{"key":"342","name":"Thunstetten","shortName":"Thunstetten"},"district":{"key":"244","name":"Verwaltungskreis Oberaargau"},"canton":{"key":"2","code":"BE","name":"Bern / Berne"},"status":"Real"},{"key":"10220280","name":"Bannwartswald","postalCode":"4922","locality":"Thunstetten","commune":{"key":"342","name":"Thunstetten","shortName":"Thunstetten"},"district":{"key":"244","name":"Verwaltungskreis Oberaargau"},"canton":{"key":"2","code":"BE","name":"Bern / Berne"},"status":"Real"},{"key":"10084895","name":"Belchenweg","postalCode":"4922","locality":"Thunstetten","commune":{"key":"342","name":"Thunstetten","shortName":"Thunstetten"},"district":{"key":"244","name":"Verwaltungskreis Oberaargau"},"canton":{"key":"2","code":"BE","name":"Bern / Berne"},"status":"Real"},{"key":"10046144","name":"Berggasse","postalCode":"4922","locality":"Thunstetten","commune":{"key":"342","name":"Thunstetten","shortName":"Thunstetten"},"district":{"key":"244","name":"Verwaltungskreis Oberaargau"},"canton":{"key":"2","code":"BE","name":"Bern / Berne"},"status":"Real"},{"key":"10007779","name":"Brotheiteri","postalCode":"4922","locality":"Thunstetten","commune":{"key":"342","name":"Thunstetten","shortName":"Thunstetten"},"district":{"key":"244","name":"Verwaltungskreis Oberaargau"},"canton":{"key":"2","code":"BE","name":"Bern / Berne"},"status":"Real"},{"key":"10007780","name":"Buchmattstrasse","postalCode":"4922","locality":"Thunstetten","commune":{"key":"342","name":"Thunstetten","shortName":"Thunstetten"},"district":{"key":"244","name":"Verwaltungskreis Oberaargau"},"canton":{"key":"2","code":"BE","name":"Bern / Berne"},"status":"Real"},{"key":"10178434","name":"Butzimatt","postalCode":"4922","locality":"Thunstetten","commune":{"key":"342","name":"Thunstetten","shortName":"Thunstetten"},"district":{"key":"244","name":"Verwaltungskreis Oberaargau"},"canton":{"key":"2","code":"BE","name":"Bern / Berne"},"status":"Real"},{"key":"10179925","name":"Dorfgasse","postalCode":"4922","locality":"Thunstetten","commune":{"key":"342","name":"Thunstetten","shortName":"Thunstetten"},"district":{"key":"244","name":"Verwaltungskreis Oberaargau"},"canton":{"key":"2","code":"BE","name":"Bern / Berne"},"status":"Real"},{"key":"10084896","name":"Erlenmoos","postalCode":"4922","locality":"Thunstetten","commune":{"key":"342","name":"Thunstetten","shortName":"Thunstetten"},"district":{"key":"244","name":"Verwaltungskreis Oberaargau"},"canton":{"key":"2","code":"BE","name":"Bern / Berne"},"status":"Real"},{"key":"10046145","name":"Eschenstrasse","postalCode":"4922","locality":"Thunstetten","commune":{"key":"342","name":"Thunstetten","shortName":"Thunstetten"},"district":{"key":"244","name":"Verwaltungskreis Oberaargau"},"canton":{"key":"2","code":"BE","name":"Bern / Berne"},"status":"Real"},{"key":"10007781","name":"Forst","postalCode":"4922","locality":"Thunstetten","commune":{"key":"342","name":"Thunstetten","shortName":"Thunstetten"},"district":{"key":"244","name":"Verwaltungskreis Oberaargau"},"canton":{"key":"2","code":"BE","name":"Bern / Berne"},"status":"Real"},{"key":"10117838","name":"Gartenweg","postalCode":"4922","locality":"Thunstetten","commune":{"key":"342","name":"Thunstetten","shortName":"Thunstetten"},"district":{"key":"244","name":"Verwaltungskreis Oberaargau"},"canton":{"key":"2","code":"BE","name":"Bern / Berne"},"status":"Real"},{"key":"10056801","name":"Halde","postalCode":"4922","locality":"Thunstetten","commune":{"key":"342","name":"Thunstetten","shortName":"Thunstetten"},"district":{"key":"244","name":"Verwaltungskreis Oberaargau"},"canton":{"key":"2","code":"BE","name":"Bern / Berne"},"status":"Real"},{"key":"10062347","name":"Hof","postalCode":"4922","locality":"Thunstetten","commune":{"key":"342","name":"Thunstetten","shortName":"Thunstetten"},"district":{"key":"244","name":"Verwaltungskreis Oberaargau"},"canton":{"key":"2","code":"BE","name":"Bern / Berne"},"status":"Real"},{"key":"10062348","name":"Im Holz","postalCode":"4922","locality":"Thunstetten","commune":{"key":"342","name":"Thunstetten","shortName":"Thunstetten"},"district":{"key":"244","name":"Verwaltungskreis Oberaargau"},"canton":{"key":"2","code":"BE","name":"Bern / Berne"},"status":"Real"},{"key":"10008909","name":"Ischmatt","postalCode":"4922","locality":"Thunstetten","commune":{"key":"342","name":"Thunstetten","shortName":"Thunstetten"},"district":{"key":"244","name":"Verwaltungskreis Oberaargau"},"canton":{"key":"2","code":"BE","name":"Bern / Berne"},"status":"Real"},{"key":"10084897","name":"Johanniterweg","postalCode":"4922","locality":"Thunstetten","commune":{"key":"342","name":"Thunstetten","shortName":"Thunstetten"},"district":{"key":"244","name":"Verwaltungskreis Oberaargau"},"canton":{"key":"2","code":"BE","name":"Bern / Berne"},"status":"Real"},{"key":"10182594","name":"Juraweg","postalCode":"4922","locality":"Thunstetten","commune":{"key":"342","name":"Thunstetten","shortName":"Thunstetten"},"district":{"key":"244","name":"Verwaltungskreis Oberaargau"},"canton":{"key":"2","code":"BE","name":"Bern / Berne"},"status":"Real"},{"key":"10178435","name":"Käsereistrasse","postalCode":"4922","locality":"Thunstetten","commune":{"key":"342","name":"Thunstetten","shortName":"Thunstetten"},"district":{"key":"244","name":"Verwaltungskreis Oberaargau"},"canton":{"key":"2","code":"BE","name":"Bern / Berne"},"status":"Real"},{"key":"10008910","name":"Kirchgasse","postalCode":"4922","locality":"Thunstetten","commune":{"key":"342","name":"Thunstetten","shortName":"Thunstetten"},"district":{"key":"244","name":"Verwaltungskreis Oberaargau"},"canton":{"key":"2","code":"BE","name":"Bern / Berne"},"status":"Real"},{"key":"10062350","name":"Klusstrasse","postalCode":"4922","locality":"Thunstetten","commune":{"key":"342","name":"Thunstetten","shortName":"Thunstetten"},"district":{"key":"244","name":"Verwaltungskreis Oberaargau"},"canton":{"key":"2","code":"BE","name":"Bern / Berne"},"status":"Real"},{"key":"10084898","name":"Landhausweg","postalCode":"4922","locality":"Thunstetten","commune":{"key":"342","name":"Thunstetten","shortName":"Thunstetten"},"district":{"key":"244","name":"Verwaltungskreis Oberaargau"},"canton":{"key":"2","code":"BE","name":"Bern / Berne"},"status":"Real"},{"key":"10008912","name":"Lochackerweg","postalCode":"4922","locality":"Thunstetten","commune":{"key":"342","name":"Thunstetten","shortName":"Thunstetten"},"district":{"key":"244","name":"Verwaltungskreis Oberaargau"},"canton":{"key":"2","code":"BE","name":"Bern / Berne"},"status":"Real"},{"key":"10117098","name":"Lochstauden","postalCode":"4922","locality":"Thunstetten","commune":{"key":"342","name":"Thunstetten","shortName":"Thunstetten"},"district":{"key":"244","name":"Verwaltungskreis Oberaargau"},"canton":{"key":"2","code":"BE","name":"Bern / Berne"},"status":"Real"},{"key":"10008914","name":"Mätteli","postalCode":"4922","locality":"Thunstetten","commune":{"key":"342","name":"Thunstetten","shortName":"Thunstetten"},"district":{"key":"244","name":"Verwaltungskreis Oberaargau"},"canton":{"key":"2","code":"BE","name":"Bern / Berne"},"status":"Real"},{"key":"10008913","name":"Moos","postalCode":"4922","locality":"Thunstetten","commune":{"key":"342","name":"Thunstetten","shortName":"Thunstetten"},"district":{"key":"244","name":"Verwaltungskreis Oberaargau"},"canton":{"key":"2","code":"BE","name":"Bern / Berne"},"status":"Real"},{"key":"10133532","name":"Oberer Wischberg","postalCode":"4922","locality":"Thunstetten","commune":{"key":"342","name":"Thunstetten","shortName":"Thunstetten"},"district":{"key":"244","name":"Verwaltungskreis Oberaargau"},"canton":{"key":"2","code":"BE","name":"Bern / Berne"},"status":"Real"},{"key":"10056802","name":"Oberes Sängeli","postalCode":"4922","locality":"Thunstetten","commune":{"key":"342","name":"Thunstetten","shortName":"Thunstetten"},"district":{"key":"244","name":"Verwaltungskreis Oberaargau"},"canton":{"key":"2","code":"BE","name":"Bern / Berne"},"status":"Real"},{"key":"10084899","name":"Oberfeld","postalCode":"4922","locality":"Thunstetten","commune":{"key":"342","name":"Thunstetten","shortName":"Thunstetten"},"district":{"key":"244","name":"Verwaltungskreis Oberaargau"},"canton":{"key":"2","code":"BE","name":"Bern / Berne"},"status":"Real"},{"key":"10062351","name":"Obergasse","postalCode":"4922","locality":"Thunstetten","commune":{"key":"342","name":"Thunstetten","shortName":"Thunstetten"},"district":{"key":"244","name":"Verwaltungskreis Oberaargau"},"canton":{"key":"2","code":"BE","name":"Bern / Berne"},"status":"Real"},{"key":"10008915","name":"Rank","postalCode":"4922","locality":"Thunstetten","commune":{"key":"342","name":"Thunstetten","shortName":"Thunstetten"},"district":{"key":"244","name":"Verwaltungskreis Oberaargau"},"canton":{"key":"2","code":"BE","name":"Bern / Berne"},"status":"Real"},{"key":"10008916","name":"Rengershäusern","postalCode":"4922","locality":"Thunstetten","commune":{"key":"342","name":"Thunstetten","shortName":"Thunstetten"},"district":{"key":"244","name":"Verwaltungskreis Oberaargau"},"canton":{"key":"2","code":"BE","name":"Bern / Berne"},"status":"Real"},{"key":"10084900","name":"Roggenweg","postalCode":"4922","locality":"Thunstetten","commune":{"key":"342","name":"Thunstetten","shortName":"Thunstetten"},"district":{"key":"244","name":"Verwaltungskreis Oberaargau"},"canton":{"key":"2","code":"BE","name":"Bern / Berne"},"status":"Real"},{"key":"10219290","name":"Sängeli","postalCode":"4922","locality":"Thunstetten","commune":{"key":"342","name":"Thunstetten","shortName":"Thunstetten"},"district":{"key":"244","name":"Verwaltungskreis Oberaargau"},"canton":{"key":"2","code":"BE","name":"Bern / Berne"},"status":"Real"},{"key":"10117839","name":"Sängeliweg","postalCode":"4922","locality":"Thunstetten","commune":{"key":"342","name":"Thunstetten","shortName":"Thunstetten"},"district":{"key":"244","name":"Verwaltungskreis Oberaargau"},"canton":{"key":"2","code":"BE","name":"Bern / Berne"},"status":"Real"},{"key":"10062353","name":"Unterer Schlosshof","postalCode":"4922","locality":"Thunstetten","commune":{"key":"342","name":"Thunstetten","shortName":"Thunstetten"},"district":{"key":"244","name":"Verwaltungskreis Oberaargau"},"canton":{"key":"2","code":"BE","name":"Bern / Berne"},"status":"Real"},{"key":"10112366","name":"Unteres Sängeli","postalCode":"4922","locality":"Thunstetten","commune":{"key":"342","name":"Thunstetten","shortName":"Thunstetten"},"district":{"key":"244","name":"Verwaltungskreis Oberaargau"},"canton":{"key":"2","code":"BE","name":"Bern / Berne"},"status":"Real"},{"key":"10178436","name":"Untergasse","postalCode":"4922","locality":"Thunstetten","commune":{"key":"342","name":"Thunstetten","shortName":"Thunstetten"},"district":{"key":"244","name":"Verwaltungskreis Oberaargau"},"canton":{"key":"2","code":"BE","name":"Bern / Berne"},"status":"Real"},{"key":"10084901","name":"Wischbergstrasse","postalCode":"4922","locality":"Thunstetten","commune":{"key":"342","name":"Thunstetten","shortName":"Thunstetten"},"district":{"key":"244","name":"Verwaltungskreis Oberaargau"},"canton":{"key":"2","code":"BE","name":"Bern / Berne"},"status":"Real"},]