[{"name":"464","postalCode":"83483","locality":"Bischofswiesen","municipality":{"key":"09172117","name":"Bischofswiesen","type":"Kreisangehörige_Gemeinde"},"district":{"key":"09172","name":"Berchtesgadener Land","type":"Landkreis"},"federalState":{"key":"09","name":"Bayern"}},{"name":"Am Hohen Stein","postalCode":"95191","locality":"Leupoldsgrün","municipality":{"key":"09475145","name":"Leupoldsgrün","type":"Kreisangehörige_Gemeinde"},"district":{"key":"09475","name":"Hof","type":"Landkreis"},"federalState":{"key":"09","name":"Bayern"}},{"name":"Am Löwenberg","postalCode":"95191","locality":"Leupoldsgrün","municipality":{"key":"09475145","name":"Leupoldsgrün","type":"Kreisangehörige_Gemeinde"},"district":{"key":"09475","name":"Hof","type":"Landkreis"},"federalState":{"key":"09","name":"Bayern"}},{"name":"Amselweg","postalCode":"95191","locality":"Leupoldsgrün","municipality":{"key":"09475145","name":"Leupoldsgrün","type":"Kreisangehörige_Gemeinde"},"district":{"key":"09475","name":"Hof","type":"Landkreis"},"federalState":{"key":"09","name":"Bayern"}},{"name":"Angerstr.","postalCode":"95191","locality":"Leupoldsgrün","municipality":{"key":"09475145","name":"Leupoldsgrün","type":"Kreisangehörige_Gemeinde"},"district":{"key":"09475","name":"Hof","type":"Landkreis"},"federalState":{"key":"09","name":"Bayern"}},{"name":"Brunnenberg","postalCode":"95191","locality":"Leupoldsgrün","municipality":{"key":"09475145","name":"Leupoldsgrün","type":"Kreisangehörige_Gemeinde"},"district":{"key":"09475","name":"Hof","type":"Landkreis"},"federalState":{"key":"09","name":"Bayern"}},{"name":"Brunnenstr.","postalCode":"95191","locality":"Leupoldsgrün","municipality":{"key":"09475145","name":"Leupoldsgrün","type":"Kreisangehörige_Gemeinde"},"district":{"key":"09475","name":"Hof","type":"Landkreis"},"federalState":{"key":"09","name":"Bayern"}},{"name":"Carl-Benz-Str.","postalCode":"89284","locality":"Pfaffenhofen an der Roth","municipality":{"key":"09775143","name":"Pfaffenhofen a.d.Roth, M","type":"Markt"},"district":{"key":"09775","name":"Neu-Ulm","type":"Landkreis"},"federalState":{"key":"09","name":"Bayern"}},{"name":"Carl-Benz-Str.","postalCode":"95032","locality":"Hof","municipality":{"key":"09464000","name":"Hof","type":"Kreisfreie_Stadt"},"district":{"key":"09464","name":"Hof","type":"Kreisfreie_Stadt"},"federalState":{"key":"09","name":"Bayern"}},{"name":"Carl-Bosch-Str.","postalCode":"67117","locality":"Limburgerhof","municipality":{"key":"07338017","name":"Limburgerhof","type":"Kreisangehörige_Gemeinde"},"district":{"key":"07338","name":"Rhein-Pfalz-Kreis","type":"Landkreis"},"federalState":{"key":"07","name":"Rheinland-Pfalz"}},{"name":"Carl-Friedrich-Benz-Str.","postalCode":"34369","locality":"Hofgeismar","municipality":{"key":"06633013","name":"Hofgeismar, Stadt","type":"Stadt"},"district":{"key":"06633","name":"Kassel","type":"Landkreis"},"federalState":{"key":"06","name":"Hessen"}},{"name":"Carl-Lohse-Str.","postalCode":"01877","locality":"Bischofswerda","municipality":{"key":"14625040","name":"Bischofswerda, Stadt","type":"Stadt"},"district":{"key":"14625","name":"Bautzen","type":"Landkreis"},"federalState":{"key":"14","name":"Sachsen"}},{"name":"Carl-Maria-von-Weber-Platz","postalCode":"67574","locality":"Osthofen","municipality":{"key":"07331055","name":"Osthofen, Stadt","type":"Stadt"},"district":{"key":"07331","name":"Alzey-Worms","type":"Landkreis"},"federalState":{"key":"07","name":"Rheinland-Pfalz"}},{"name":"Carl-Maria-von-Weber-Str.","postalCode":"01877","locality":"Bischofswerda","municipality":{"key":"14625040","name":"Bischofswerda, Stadt","type":"Stadt"},"district":{"key":"14625","name":"Bautzen","type":"Landkreis"},"federalState":{"key":"14","name":"Sachsen"}},{"name":"Carlo-Mierendorff-Str.","postalCode":"67574","locality":"Osthofen","municipality":{"key":"07331055","name":"Osthofen, Stadt","type":"Stadt"},"district":{"key":"07331","name":"Alzey-Worms","type":"Landkreis"},"federalState":{"key":"07","name":"Rheinland-Pfalz"}},{"name":"Carl-Orff-Str.","postalCode":"95030","locality":"Hof","municipality":{"key":"09464000","name":"Hof","type":"Kreisfreie_Stadt"},"district":{"key":"09464","name":"Hof","type":"Kreisfreie_Stadt"},"federalState":{"key":"09","name":"Bayern"}},{"name":"Carl-Orff-Weg","postalCode":"86368","locality":"Gersthofen","municipality":{"key":"09772147","name":"Gersthofen, St","type":"Stadt"},"district":{"key":"09772","name":"Augsburg","type":"Landkreis"},"federalState":{"key":"09","name":"Bayern"}},{"name":"Carl-Reichert-Weg","postalCode":"97922","locality":"Lauda-Königshofen","municipality":{"key":"08128139","name":"Lauda-Königshofen, Stadt","type":"Stadt"},"district":{"key":"08128","name":"Main-Tauber-Kreis","type":"Landkreis"},"federalState":{"key":"08","name":"Baden-Württemberg"}},{"name":"Carl-Reiß-Str.","postalCode":"67141","locality":"Neuhofen","municipality":{"key":"07338020","name":"Neuhofen","type":"Kreisangehörige_Gemeinde"},"district":{"key":"07338","name":"Rhein-Pfalz-Kreis","type":"Landkreis"},"federalState":{"key":"07","name":"Rheinland-Pfalz"}},{"name":"Carlsdorfer Str.","postalCode":"34369","locality":"Hofgeismar","municipality":{"key":"06633013","name":"Hofgeismar, Stadt","type":"Stadt"},"district":{"key":"06633","name":"Kassel","type":"Landkreis"},"federalState":{"key":"06","name":"Hessen"}},{"name":"Carl-Ulrich-Str.","postalCode":"67574","locality":"Osthofen","municipality":{"key":"07331055","name":"Osthofen, Stadt","type":"Stadt"},"district":{"key":"07331","name":"Alzey-Worms","type":"Landkreis"},"federalState":{"key":"07","name":"Rheinland-Pfalz"}},{"name":"Carl-Zeiss-Str.","postalCode":"93142","locality":"Maxhütte-Haidhof","municipality":{"key":"09376141","name":"Maxhütte-Haidhof, St","type":"Stadt"},"district":{"key":"09376","name":"Schwandorf","type":"Landkreis"},"federalState":{"key":"09","name":"Bayern"}},{"name":"Carl-Zimmermann-Str.","postalCode":"67373","locality":"Dudenhofen","municipality":{"key":"07338007","name":"Dudenhofen","type":"Kreisangehörige_Gemeinde"},"district":{"key":"07338","name":"Rhein-Pfalz-Kreis","type":"Landkreis"},"federalState":{"key":"07","name":"Rheinland-Pfalz"}},{"name":"Carossa-Ring","postalCode":"94474","locality":"Vilshofen an der Donau","municipality":{"key":"09275154","name":"Vilshofen an der Donau, St","type":"Stadt"},"district":{"key":"09275","name":"Passau","type":"Landkreis"},"federalState":{"key":"09","name":"Bayern"}},{"name":"Carossastr.","postalCode":"94486","locality":"Osterhofen","municipality":{"key":"09271141","name":"Osterhofen, St","type":"Stadt"},"district":{"key":"09271","name":"Deggendorf","type":"Landkreis"},"federalState":{"key":"09","name":"Bayern"}},{"name":"Carostr.","postalCode":"67117","locality":"Limburgerhof","municipality":{"key":"07338017","name":"Limburgerhof","type":"Kreisangehörige_Gemeinde"},"district":{"key":"07338","name":"Rhein-Pfalz-Kreis","type":"Landkreis"},"federalState":{"key":"07","name":"Rheinland-Pfalz"}},{"name":"Caspar-Bühler-Str.","postalCode":"91572","locality":"Bechhofen","municipality":{"key":"09571115","name":"Bechhofen, M","type":"Markt"},"district":{"key":"09571","name":"Ansbach","type":"Landkreis"},"federalState":{"key":"09","name":"Bayern"}},{"name":"Casteller Str.","postalCode":"65719","locality":"Hofheim am Taunus","municipality":{"key":"06436007","name":"Hofheim am Taunus, Kreisstadt","type":"Stadt"},"district":{"key":"06436","name":"Main-Taunus-Kreis","type":"Landkreis"},"federalState":{"key":"06","name":"Hessen"}},{"name":"Casteller Str.","postalCode":"97346","locality":"Iphofen","municipality":{"key":"09675139","name":"Iphofen, St","type":"Stadt"},"district":{"key":"09675","name":"Kitzingen","type":"Landkreis"},"federalState":{"key":"09","name":"Bayern"}},{"name":"Castellstr.","postalCode":"88690","locality":"Uhldingen-Mühlhofen","municipality":{"key":"08435066","name":"Uhldingen-Mühlhofen","type":"Kreisangehörige_Gemeinde"},"district":{"key":"08435","name":"Bodenseekreis","type":"Landkreis"},"federalState":{"key":"08","name":"Baden-Württemberg"}},{"name":"Centgasse","postalCode":"97447","locality":"Gerolzhofen","municipality":{"key":"09678134","name":"Gerolzhofen, St","type":"Stadt"},"district":{"key":"09678","name":"Schweinfurt","type":"Landkreis"},"federalState":{"key":"09","name":"Bayern"}},{"name":"Chattenstr.","postalCode":"65719","locality":"Hofheim am Taunus","municipality":{"key":"06436007","name":"Hofheim am Taunus, Kreisstadt","type":"Stadt"},"district":{"key":"06436","name":"Main-Taunus-Kreis","type":"Landkreis"},"federalState":{"key":"06","name":"Hessen"}},{"name":"Chemnitzer Str.","postalCode":"17039","locality":"Blankenhof","municipality":{"key":"13071010","name":"Blankenhof","type":"Kreisangehörige_Gemeinde"},"district":{"key":"13071","name":"Mecklenburgische Seenplatte","type":"Landkreis"},"federalState":{"key":"13","name":"Mecklenburg-Vorpommern"}},{"name":"Chemnitzer Str.","postalCode":"65474","locality":"Bischofsheim","municipality":{"key":"06433002","name":"Bischofsheim","type":"Kreisangehörige_Gemeinde"},"district":{"key":"06433","name":"Groß-Gerau","type":"Landkreis"},"federalState":{"key":"06","name":"Hessen"}},{"name":"Chemnitzer Str.","postalCode":"86368","locality":"Gersthofen","municipality":{"key":"09772147","name":"Gersthofen, St","type":"Stadt"},"district":{"key":"09772","name":"Augsburg","type":"Landkreis"},"federalState":{"key":"09","name":"Bayern"}},{"name":"Chenover Str.","postalCode":"67117","locality":"Limburgerhof","municipality":{"key":"07338017","name":"Limburgerhof","type":"Kreisangehörige_Gemeinde"},"district":{"key":"07338","name":"Rhein-Pfalz-Kreis","type":"Landkreis"},"federalState":{"key":"07","name":"Rheinland-Pfalz"}},{"name":"Cheruskerstr.","postalCode":"65719","locality":"Hofheim am Taunus","municipality":{"key":"06436007","name":"Hofheim am Taunus, Kreisstadt","type":"Stadt"},"district":{"key":"06436","name":"Main-Taunus-Kreis","type":"Landkreis"},"federalState":{"key":"06","name":"Hessen"}},{"name":"Chiemgauer Str.","postalCode":"86368","locality":"Gersthofen","municipality":{"key":"09772147","name":"Gersthofen, St","type":"Stadt"},"district":{"key":"09772","name":"Augsburg","type":"Landkreis"},"federalState":{"key":"09","name":"Bayern"}},{"name":"Chinonplatz","postalCode":"65719","locality":"Hofheim am Taunus","municipality":{"key":"06436007","name":"Hofheim am Taunus, Kreisstadt","type":"Stadt"},"district":{"key":"06436","name":"Main-Taunus-Kreis","type":"Landkreis"},"federalState":{"key":"06","name":"Hessen"}},{"name":"Chorherrenäcker","postalCode":"78343","locality":"Gaienhofen","municipality":{"key":"08335025","name":"Gaienhofen","type":"Kreisangehörige_Gemeinde"},"district":{"key":"08335","name":"Konstanz","type":"Landkreis"},"federalState":{"key":"08","name":"Baden-Württemberg"}},{"name":"Christberg Weg","postalCode":"74924","locality":"Neckarbischofsheim","municipality":{"key":"08226055","name":"Neckarbischofsheim, Stadt","type":"Stadt"},"district":{"key":"08226","name":"Rhein-Neckar-Kreis","type":"Landkreis"},"federalState":{"key":"08","name":"Baden-Württemberg"}},{"name":"Christian-Fey-Weg","postalCode":"86825","locality":"Bad Wörishofen","municipality":{"key":"09778116","name":"Bad Wörishofen, St","type":"Stadt"},"district":{"key":"09778","name":"Unterallgäu","type":"Landkreis"},"federalState":{"key":"09","name":"Bayern"}},{"name":"Christian-Jorhan-Str.","postalCode":"84169","locality":"Altfraunhofen","municipality":{"key":"09274114","name":"Altfraunhofen","type":"Kreisangehörige_Gemeinde"},"district":{"key":"09274","name":"Landshut","type":"Landkreis"},"federalState":{"key":"09","name":"Bayern"}},{"name":"Christian-Keißler-Weg","postalCode":"95028","locality":"Hof","municipality":{"key":"09464000","name":"Hof","type":"Kreisfreie_Stadt"},"district":{"key":"09464","name":"Hof","type":"Kreisfreie_Stadt"},"federalState":{"key":"09","name":"Bayern"}},{"name":"Christian-Schwarz-Weg","postalCode":"95493","locality":"Bischofsgrün","municipality":{"key":"09472121","name":"Bischofsgrün","type":"Kreisangehörige_Gemeinde"},"district":{"key":"09472","name":"Bayreuth","type":"Landkreis"},"federalState":{"key":"09","name":"Bayern"}},{"name":"Christiansreuther Str.","postalCode":"95032","locality":"Hof","municipality":{"key":"09464000","name":"Hof","type":"Kreisfreie_Stadt"},"district":{"key":"09464","name":"Hof","type":"Kreisfreie_Stadt"},"federalState":{"key":"09","name":"Bayern"}},{"name":"Christlingengraben","postalCode":"74924","locality":"Neckarbischofsheim","municipality":{"key":"08226055","name":"Neckarbischofsheim, Stadt","type":"Stadt"},"district":{"key":"08226","name":"Rhein-Neckar-Kreis","type":"Landkreis"},"federalState":{"key":"08","name":"Baden-Württemberg"}},{"name":"Christof-Seidel-Weg","postalCode":"95493","locality":"Bischofsgrün","municipality":{"key":"09472121","name":"Bischofsgrün","type":"Kreisangehörige_Gemeinde"},"district":{"key":"09472","name":"Bayreuth","type":"Landkreis"},"federalState":{"key":"09","name":"Bayern"}},{"name":"Christoph-Kalb-Str.","postalCode":"36119","locality":"Neuhof","municipality":{"key":"06631018","name":"Neuhof","type":"Kreisangehörige_Gemeinde"},"district":{"key":"06631","name":"Fulda","type":"Landkreis"},"federalState":{"key":"06","name":"Hessen"}},{"name":"Christoph-Klauß-Str.","postalCode":"95028","locality":"Hof","municipality":{"key":"09464000","name":"Hof","type":"Kreisfreie_Stadt"},"district":{"key":"09464","name":"Hof","type":"Kreisfreie_Stadt"},"federalState":{"key":"09","name":"Bayern"}},{"name":"Christophorusweg","postalCode":"87448","locality":"Waltenhofen","municipality":{"key":"09780143","name":"Waltenhofen","type":"Kreisangehörige_Gemeinde"},"district":{"key":"09780","name":"Oberallgäu","type":"Landkreis"},"federalState":{"key":"09","name":"Bayern"}},{"name":"Christoph-Probst-Str.","postalCode":"85276","locality":"Pfaffenhofen an der Ilm","municipality":{"key":"09186143","name":"Pfaffenhofen a.d.Ilm, St","type":"Stadt"},"district":{"key":"09186","name":"Pfaffenhofen a.d.Ilm","type":"Landkreis"},"federalState":{"key":"09","name":"Bayern"}},{"name":"Cimbernstr.","postalCode":"65719","locality":"Hofheim am Taunus","municipality":{"key":"06436007","name":"Hofheim am Taunus, Kreisstadt","type":"Stadt"},"district":{"key":"06436","name":"Main-Taunus-Kreis","type":"Landkreis"},"federalState":{"key":"06","name":"Hessen"}},{"name":"Cladeweg","postalCode":"04683","locality":"Naunhof","municipality":{"key":"14729300","name":"Naunhof, Stadt","type":"Stadt"},"district":{"key":"14729","name":"Leipzig","type":"Landkreis"},"federalState":{"key":"14","name":"Sachsen"}},{"name":"Clara-Schumann-Str.","postalCode":"95030","locality":"Hof","municipality":{"key":"09464000","name":"Hof","type":"Kreisfreie_Stadt"},"district":{"key":"09464","name":"Hof","type":"Kreisfreie_Stadt"},"federalState":{"key":"09","name":"Bayern"}},{"name":"Clara-Zetkin-Str.","postalCode":"01877","locality":"Bischofswerda","municipality":{"key":"14625040","name":"Bischofswerda, Stadt","type":"Stadt"},"district":{"key":"14625","name":"Bautzen","type":"Landkreis"},"federalState":{"key":"14","name":"Sachsen"}},{"name":"Clausingstr.","postalCode":"97941","locality":"Tauberbischofsheim","municipality":{"key":"08128115","name":"Tauberbischofsheim, Stadt","type":"Stadt"},"district":{"key":"08128","name":"Main-Tauber-Kreis","type":"Landkreis"},"federalState":{"key":"08","name":"Baden-Württemberg"}},{"name":"Döbrabergstr.","postalCode":"95191","locality":"Leupoldsgrün","municipality":{"key":"09475145","name":"Leupoldsgrün","type":"Kreisangehörige_Gemeinde"},"district":{"key":"09475","name":"Hof","type":"Landkreis"},"federalState":{"key":"09","name":"Bayern"}},{"name":"Ebenhofener Str.","postalCode":"87640","locality":"Biessenhofen","municipality":{"key":"09777112","name":"Biessenhofen","type":"Kreisangehörige_Gemeinde"},"district":{"key":"09777","name":"Ostallgäu","type":"Landkreis"},"federalState":{"key":"09","name":"Bayern"}},{"name":"Ebenweg","postalCode":"33161","locality":"Hövelhof","municipality":{"key":"05774024","name":"Hövelhof, Sennegemeinde","type":"Kreisangehörige_Gemeinde"},"district":{"key":"05774","name":"Paderborn","type":"Kreis"},"federalState":{"key":"05","name":"Nordrhein-Westfalen"}},{"name":"Ebereschenweg","postalCode":"67373","locality":"Dudenhofen","municipality":{"key":"07338007","name":"Dudenhofen","type":"Kreisangehörige_Gemeinde"},"district":{"key":"07338","name":"Rhein-Pfalz-Kreis","type":"Landkreis"},"federalState":{"key":"07","name":"Rheinland-Pfalz"}},{"name":"Eberleweg","postalCode":"87640","locality":"Biessenhofen","municipality":{"key":"09777112","name":"Biessenhofen","type":"Kreisangehörige_Gemeinde"},"district":{"key":"09777","name":"Ostallgäu","type":"Landkreis"},"federalState":{"key":"09","name":"Bayern"}},{"name":"Eberschützer Str.","postalCode":"34369","locality":"Hofgeismar","municipality":{"key":"06633013","name":"Hofgeismar, Stadt","type":"Stadt"},"district":{"key":"06633","name":"Kassel","type":"Landkreis"},"federalState":{"key":"06","name":"Hessen"}},{"name":"Eberstettener Str.","postalCode":"85276","locality":"Pfaffenhofen an der Ilm","municipality":{"key":"09186143","name":"Pfaffenhofen a.d.Ilm, St","type":"Stadt"},"district":{"key":"09186","name":"Pfaffenhofen a.d.Ilm","type":"Landkreis"},"federalState":{"key":"09","name":"Bayern"}},{"name":"Eberstettener Weg","postalCode":"85276","locality":"Pfaffenhofen an der Ilm","municipality":{"key":"09186143","name":"Pfaffenhofen a.d.Ilm, St","type":"Stadt"},"district":{"key":"09186","name":"Pfaffenhofen a.d.Ilm","type":"Landkreis"},"federalState":{"key":"09","name":"Bayern"}},{"name":"Ebertsholz","postalCode":"97653","locality":"Bischofsheim i.d.Rhön","municipality":{"key":"09673117","name":"Bischofsheim i.d.Rhön, St","type":"Stadt"},"district":{"key":"09673","name":"Rhön-Grabfeld","type":"Landkreis"},"federalState":{"key":"09","name":"Bayern"}},{"name":"Ebertstr.","postalCode":"66894","locality":"Bechhofen","municipality":{"key":"07340203","name":"Bechhofen","type":"Kreisangehörige_Gemeinde"},"district":{"key":"07340","name":"Südwestpfalz","type":"Landkreis"},"federalState":{"key":"07","name":"Rheinland-Pfalz"}},{"name":"Ebnather Str.","postalCode":"95679","locality":"Waldershof","municipality":{"key":"09377157","name":"Waldershof, St","type":"Stadt"},"district":{"key":"09377","name":"Tirschenreuth","type":"Landkreis"},"federalState":{"key":"09","name":"Bayern"}},{"name":"Ebnerstr.","postalCode":"86368","locality":"Gersthofen","municipality":{"key":"09772147","name":"Gersthofen, St","type":"Stadt"},"district":{"key":"09772","name":"Augsburg","type":"Landkreis"},"federalState":{"key":"09","name":"Bayern"}},{"name":"Ebrach","postalCode":"86877","locality":"Walkertshofen","municipality":{"key":"09772214","name":"Walkertshofen","type":"Kreisangehörige_Gemeinde"},"district":{"key":"09772","name":"Augsburg","type":"Landkreis"},"federalState":{"key":"09","name":"Bayern"}},{"name":"Echelnberg","postalCode":"34369","locality":"Hofgeismar","municipality":{"key":"06633013","name":"Hofgeismar, Stadt","type":"Stadt"},"district":{"key":"06633","name":"Kassel","type":"Landkreis"},"federalState":{"key":"06","name":"Hessen"}},{"name":"Eckardtskopf","postalCode":"98559","locality":"Oberhof","municipality":{"key":"16066047","name":"Oberhof, Stadt","type":"Stadt"},"district":{"key":"16066","name":"Schmalkalden-Meiningen","type":"Landkreis"},"federalState":{"key":"16","name":"Thüringen"}},{"name":"Eckartshäuser Str.","postalCode":"74532","locality":"Ilshofen","municipality":{"key":"08127043","name":"Ilshofen, Stadt","type":"Stadt"},"district":{"key":"08127","name":"Schwäbisch Hall","type":"Landkreis"},"federalState":{"key":"08","name":"Baden-Württemberg"}},{"name":"Ecke Holz","postalCode":"34369","locality":"Hofgeismar","municipality":{"key":"06633013","name":"Hofgeismar, Stadt","type":"Stadt"},"district":{"key":"06633","name":"Kassel","type":"Landkreis"},"federalState":{"key":"06","name":"Hessen"}},{"name":"Eckenhagener Str.","postalCode":"51580","locality":"Reichshof","municipality":{"key":"05374040","name":"Reichshof","type":"Kreisangehörige_Gemeinde"},"district":{"key":"05374","name":"Oberbergischer Kreis","type":"Kreis"},"federalState":{"key":"05","name":"Nordrhein-Westfalen"}},{"name":"Eckersberg","postalCode":"85276","locality":"Pfaffenhofen an der Ilm","municipality":{"key":"09186143","name":"Pfaffenhofen a.d.Ilm, St","type":"Stadt"},"district":{"key":"09186","name":"Pfaffenhofen a.d.Ilm","type":"Landkreis"},"federalState":{"key":"09","name":"Bayern"}},{"name":"Eckfeld","postalCode":"86928","locality":"Hofstetten","municipality":{"key":"09181124","name":"Hofstetten","type":"Kreisangehörige_Gemeinde"},"district":{"key":"09181","name":"Landsberg am Lech","type":"Landkreis"},"federalState":{"key":"09","name":"Bayern"}},{"name":"Eddersheimer Str.","postalCode":"65719","locality":"Hofheim am Taunus","municipality":{"key":"06436007","name":"Hofheim am Taunus, Kreisstadt","type":"Stadt"},"district":{"key":"06436","name":"Main-Taunus-Kreis","type":"Landkreis"},"federalState":{"key":"06","name":"Hessen"}},{"name":"Edelsbergstr.","postalCode":"87448","locality":"Waltenhofen","municipality":{"key":"09780143","name":"Waltenhofen","type":"Kreisangehörige_Gemeinde"},"district":{"key":"09780","name":"Oberallgäu","type":"Landkreis"},"federalState":{"key":"09","name":"Bayern"}},{"name":"Edelsbergweg","postalCode":"86825","locality":"Bad Wörishofen","municipality":{"key":"09778116","name":"Bad Wörishofen, St","type":"Stadt"},"district":{"key":"09778","name":"Unterallgäu","type":"Landkreis"},"federalState":{"key":"09","name":"Bayern"}},{"name":"Edelweißstr.","postalCode":"86825","locality":"Bad Wörishofen","municipality":{"key":"09778116","name":"Bad Wörishofen, St","type":"Stadt"},"district":{"key":"09778","name":"Unterallgäu","type":"Landkreis"},"federalState":{"key":"09","name":"Bayern"}},{"name":"Edelweißstr.","postalCode":"87527","locality":"Sonthofen","municipality":{"key":"09780139","name":"Sonthofen, St","type":"Stadt"},"district":{"key":"09780","name":"Oberallgäu","type":"Landkreis"},"federalState":{"key":"09","name":"Bayern"}},{"name":"Edenkobener Str.","postalCode":"67117","locality":"Limburgerhof","municipality":{"key":"07338017","name":"Limburgerhof","type":"Kreisangehörige_Gemeinde"},"district":{"key":"07338","name":"Rhein-Pfalz-Kreis","type":"Landkreis"},"federalState":{"key":"07","name":"Rheinland-Pfalz"}},{"name":"Ederstr.","postalCode":"67574","locality":"Osthofen","municipality":{"key":"07331055","name":"Osthofen, Stadt","type":"Stadt"},"district":{"key":"07331","name":"Alzey-Worms","type":"Landkreis"},"federalState":{"key":"07","name":"Rheinland-Pfalz"}},{"name":"Edith-Stein-Str.","postalCode":"67141","locality":"Neuhofen","municipality":{"key":"07338020","name":"Neuhofen","type":"Kreisangehörige_Gemeinde"},"district":{"key":"07338","name":"Rhein-Pfalz-Kreis","type":"Landkreis"},"federalState":{"key":"07","name":"Rheinland-Pfalz"}},{"name":"Edith-Stein-Str.","postalCode":"85084","locality":"Reichertshofen","municipality":{"key":"09186147","name":"Reichertshofen, M","type":"Markt"},"district":{"key":"09186","name":"Pfaffenhofen a.d.Ilm","type":"Landkreis"},"federalState":{"key":"09","name":"Bayern"}},{"name":"Eduard-Knauer-Str.","postalCode":"93142","locality":"Maxhütte-Haidhof","municipality":{"key":"09376141","name":"Maxhütte-Haidhof, St","type":"Stadt"},"district":{"key":"09376","name":"Schwandorf","type":"Landkreis"},"federalState":{"key":"09","name":"Bayern"}},{"name":"Eduard-Künneke-Str.","postalCode":"86368","locality":"Gersthofen","municipality":{"key":"09772147","name":"Gersthofen, St","type":"Stadt"},"district":{"key":"09772","name":"Augsburg","type":"Landkreis"},"federalState":{"key":"09","name":"Bayern"}},{"name":"Eduard-Mörike-Str.","postalCode":"95032","locality":"Hof","municipality":{"key":"09464000","name":"Hof","type":"Kreisfreie_Stadt"},"district":{"key":"09464","name":"Hof","type":"Kreisfreie_Stadt"},"federalState":{"key":"09","name":"Bayern"}},{"name":"Egatweg","postalCode":"87640","locality":"Biessenhofen","municipality":{"key":"09777112","name":"Biessenhofen","type":"Kreisangehörige_Gemeinde"},"district":{"key":"09777","name":"Ostallgäu","type":"Landkreis"},"federalState":{"key":"09","name":"Bayern"}},{"name":"Egelmes","postalCode":"36145","locality":"Hofbieber","municipality":{"key":"06631013","name":"Hofbieber","type":"Kreisangehörige_Gemeinde"},"district":{"key":"06631","name":"Fulda","type":"Landkreis"},"federalState":{"key":"06","name":"Hessen"}},{"name":"Egelmeser Str.","postalCode":"36145","locality":"Hofbieber","municipality":{"key":"06631013","name":"Hofbieber","type":"Kreisangehörige_Gemeinde"},"district":{"key":"06631","name":"Fulda","type":"Landkreis"},"federalState":{"key":"06","name":"Hessen"}},{"name":"Egenburger Str.","postalCode":"85235","locality":"Pfaffenhofen an der Glonn","municipality":{"key":"09174137","name":"Pfaffenhofen a.d.Glonn","type":"Kreisangehörige_Gemeinde"},"district":{"key":"09174","name":"Dachau","type":"Landkreis"},"federalState":{"key":"09","name":"Bayern"}},{"name":"Egerländerstr.","postalCode":"86368","locality":"Gersthofen","municipality":{"key":"09772147","name":"Gersthofen, St","type":"Stadt"},"district":{"key":"09772","name":"Augsburg","type":"Landkreis"},"federalState":{"key":"09","name":"Bayern"}},{"name":"Egerländer Str.","postalCode":"85276","locality":"Pfaffenhofen an der Ilm","municipality":{"key":"09186143","name":"Pfaffenhofen a.d.Ilm, St","type":"Stadt"},"district":{"key":"09186","name":"Pfaffenhofen a.d.Ilm","type":"Landkreis"},"federalState":{"key":"09","name":"Bayern"}},{"name":"Egerländerweg","postalCode":"86825","locality":"Bad Wörishofen","municipality":{"key":"09778116","name":"Bad Wörishofen, St","type":"Stadt"},"district":{"key":"09778","name":"Unterallgäu","type":"Landkreis"},"federalState":{"key":"09","name":"Bayern"}},{"name":"Egerländerweg","postalCode":"95032","locality":"Hof","municipality":{"key":"09464000","name":"Hof","type":"Kreisfreie_Stadt"},"district":{"key":"09464","name":"Hof","type":"Kreisfreie_Stadt"},"federalState":{"key":"09","name":"Bayern"}},{"name":"Egerlandstr.","postalCode":"91572","locality":"Bechhofen","municipality":{"key":"09571115","name":"Bechhofen, M","type":"Markt"},"district":{"key":"09571","name":"Ansbach","type":"Landkreis"},"federalState":{"key":"09","name":"Bayern"}},{"name":"Egerstr.","postalCode":"34369","locality":"Hofgeismar","municipality":{"key":"06633013","name":"Hofgeismar, Stadt","type":"Stadt"},"district":{"key":"06633","name":"Kassel","type":"Landkreis"},"federalState":{"key":"06","name":"Hessen"}},{"name":"Egerstr.","postalCode":"36119","locality":"Neuhof","municipality":{"key":"06631018","name":"Neuhof","type":"Kreisangehörige_Gemeinde"},"district":{"key":"06631","name":"Fulda","type":"Landkreis"},"federalState":{"key":"06","name":"Hessen"}},{"name":"Eggener Weg","postalCode":"87448","locality":"Waltenhofen","municipality":{"key":"09780143","name":"Waltenhofen","type":"Kreisangehörige_Gemeinde"},"district":{"key":"09780","name":"Oberallgäu","type":"Landkreis"},"federalState":{"key":"09","name":"Bayern"}},{"name":"Egglerpoint","postalCode":"83483","locality":"Bischofswiesen","municipality":{"key":"09172117","name":"Bischofswiesen","type":"Kreisangehörige_Gemeinde"},"district":{"key":"09172","name":"Berchtesgadener Land","type":"Landkreis"},"federalState":{"key":"09","name":"Bayern"}},{"name":"Eging","postalCode":"84169","locality":"Altfraunhofen","municipality":{"key":"09274114","name":"Altfraunhofen","type":"Kreisangehörige_Gemeinde"},"district":{"key":"09274","name":"Landshut","type":"Landkreis"},"federalState":{"key":"09","name":"Bayern"}},{"name":"Eginostr.","postalCode":"85235","locality":"Pfaffenhofen an der Glonn","municipality":{"key":"09174137","name":"Pfaffenhofen a.d.Glonn","type":"Kreisangehörige_Gemeinde"},"district":{"key":"09174","name":"Dachau","type":"Landkreis"},"federalState":{"key":"09","name":"Bayern"}},{"name":"Ehbachstr.","postalCode":"88690","locality":"Uhldingen-Mühlhofen","municipality":{"key":"08435066","name":"Uhldingen-Mühlhofen","type":"Kreisangehörige_Gemeinde"},"district":{"key":"08435","name":"Bodenseekreis","type":"Landkreis"},"federalState":{"key":"08","name":"Baden-Württemberg"}},{"name":"ehemaliger Kreuzweg","postalCode":"89284","locality":"Pfaffenhofen an der Roth","municipality":{"key":"09775143","name":"Pfaffenhofen a.d.Roth, M","type":"Markt"},"district":{"key":"09775","name":"Neu-Ulm","type":"Landkreis"},"federalState":{"key":"09","name":"Bayern"}},{"name":"ehem. Bahnstrecke Gau Odernheim–Osthofen","postalCode":"67574","locality":"Osthofen","municipality":{"key":"07331055","name":"Osthofen, Stadt","type":"Stadt"},"district":{"key":"07331","name":"Alzey-Worms","type":"Landkreis"},"federalState":{"key":"07","name":"Rheinland-Pfalz"}},{"name":"Ehinger Str.","postalCode":"86695","locality":"Allmannshofen","municipality":{"key":"09772114","name":"Allmannshofen","type":"Kreisangehörige_Gemeinde"},"district":{"key":"09772","name":"Augsburg","type":"Landkreis"},"federalState":{"key":"09","name":"Bayern"}},{"name":"Falkenweg","postalCode":"95191","locality":"Leupoldsgrün","municipality":{"key":"09475145","name":"Leupoldsgrün","type":"Kreisangehörige_Gemeinde"},"district":{"key":"09475","name":"Hof","type":"Landkreis"},"federalState":{"key":"09","name":"Bayern"}},{"name":"Flurweg","postalCode":"95191","locality":"Leupoldsgrün","municipality":{"key":"09475145","name":"Leupoldsgrün","type":"Kreisangehörige_Gemeinde"},"district":{"key":"09475","name":"Hof","type":"Landkreis"},"federalState":{"key":"09","name":"Bayern"}},{"name":"Frankenwaldstr.","postalCode":"95191","locality":"Leupoldsgrün","municipality":{"key":"09475145","name":"Leupoldsgrün","type":"Kreisangehörige_Gemeinde"},"district":{"key":"09475","name":"Hof","type":"Landkreis"},"federalState":{"key":"09","name":"Bayern"}},{"name":"Fritz-Goßler-Str.","postalCode":"95191","locality":"Leupoldsgrün","municipality":{"key":"09475145","name":"Leupoldsgrün","type":"Kreisangehörige_Gemeinde"},"district":{"key":"09475","name":"Hof","type":"Landkreis"},"federalState":{"key":"09","name":"Bayern"}},{"name":"Gartenstr.","postalCode":"95191","locality":"Leupoldsgrün","municipality":{"key":"09475145","name":"Leupoldsgrün","type":"Kreisangehörige_Gemeinde"},"district":{"key":"09475","name":"Hof","type":"Landkreis"},"federalState":{"key":"09","name":"Bayern"}},{"name":"Hartungs","postalCode":"95191","locality":"Leupoldsgrün","municipality":{"key":"09475145","name":"Leupoldsgrün","type":"Kreisangehörige_Gemeinde"},"district":{"key":"09475","name":"Hof","type":"Landkreis"},"federalState":{"key":"09","name":"Bayern"}},{"name":"Hauptstr.","postalCode":"95191","locality":"Leupoldsgrün","municipality":{"key":"09475145","name":"Leupoldsgrün","type":"Kreisangehörige_Gemeinde"},"district":{"key":"09475","name":"Hof","type":"Landkreis"},"federalState":{"key":"09","name":"Bayern"}},{"name":"Hochstr.","postalCode":"95191","locality":"Leupoldsgrün","municipality":{"key":"09475145","name":"Leupoldsgrün","type":"Kreisangehörige_Gemeinde"},"district":{"key":"09475","name":"Hof","type":"Landkreis"},"federalState":{"key":"09","name":"Bayern"}},{"name":"Hofer Str.","postalCode":"95191","locality":"Leupoldsgrün","municipality":{"key":"09475145","name":"Leupoldsgrün","type":"Kreisangehörige_Gemeinde"},"district":{"key":"09475","name":"Hof","type":"Landkreis"},"federalState":{"key":"09","name":"Bayern"}},{"name":"Ifenweg","postalCode":"86825","locality":"Bad Wörishofen","municipality":{"key":"09778116","name":"Bad Wörishofen, St","type":"Stadt"},"district":{"key":"09778","name":"Unterallgäu","type":"Landkreis"},"federalState":{"key":"09","name":"Bayern"}},{"name":"Igelstr.","postalCode":"65719","locality":"Hofheim am Taunus","municipality":{"key":"06436007","name":"Hofheim am Taunus, Kreisstadt","type":"Stadt"},"district":{"key":"06436","name":"Main-Taunus-Kreis","type":"Landkreis"},"federalState":{"key":"06","name":"Hessen"}},{"name":"Igelweg","postalCode":"95028","locality":"Hof","municipality":{"key":"09464000","name":"Hof","type":"Kreisfreie_Stadt"},"district":{"key":"09464","name":"Hof","type":"Kreisfreie_Stadt"},"federalState":{"key":"09","name":"Bayern"}},{"name":"Iggelheimer Str.","postalCode":"67373","locality":"Dudenhofen","municipality":{"key":"07338007","name":"Dudenhofen","type":"Kreisangehörige_Gemeinde"},"district":{"key":"07338","name":"Rhein-Pfalz-Kreis","type":"Landkreis"},"federalState":{"key":"07","name":"Rheinland-Pfalz"}},{"name":"Iggelheimer Str.","postalCode":"67374","locality":"Hanhofen","municipality":{"key":"07338010","name":"Hanhofen","type":"Kreisangehörige_Gemeinde"},"district":{"key":"07338","name":"Rhein-Pfalz-Kreis","type":"Landkreis"},"federalState":{"key":"07","name":"Rheinland-Pfalz"}},{"name":"Illenschwang","postalCode":"91749","locality":"Wittelshofen","municipality":{"key":"09571227","name":"Wittelshofen","type":"Kreisangehörige_Gemeinde"},"district":{"key":"09571","name":"Ansbach","type":"Landkreis"},"federalState":{"key":"09","name":"Bayern"}},{"name":"Illersiedlung","postalCode":"87527","locality":"Sonthofen","municipality":{"key":"09780139","name":"Sonthofen, St","type":"Stadt"},"district":{"key":"09780","name":"Oberallgäu","type":"Landkreis"},"federalState":{"key":"09","name":"Bayern"}},{"name":"Illerstr.","postalCode":"87527","locality":"Sonthofen","municipality":{"key":"09780139","name":"Sonthofen, St","type":"Stadt"},"district":{"key":"09780","name":"Oberallgäu","type":"Landkreis"},"federalState":{"key":"09","name":"Bayern"}},{"name":"Illerswiesen","postalCode":"95493","locality":"Bischofsgrün","municipality":{"key":"09472121","name":"Bischofsgrün","type":"Kreisangehörige_Gemeinde"},"district":{"key":"09472","name":"Bayreuth","type":"Landkreis"},"federalState":{"key":"09","name":"Bayern"}},{"name":"Ilmbogen","postalCode":"85276","locality":"Pfaffenhofen an der Ilm","municipality":{"key":"09186143","name":"Pfaffenhofen a.d.Ilm, St","type":"Stadt"},"district":{"key":"09186","name":"Pfaffenhofen a.d.Ilm","type":"Landkreis"},"federalState":{"key":"09","name":"Bayern"}},{"name":"Ilmgrund","postalCode":"85276","locality":"Pfaffenhofen an der Ilm","municipality":{"key":"09186143","name":"Pfaffenhofen a.d.Ilm, St","type":"Stadt"},"district":{"key":"09186","name":"Pfaffenhofen a.d.Ilm","type":"Landkreis"},"federalState":{"key":"09","name":"Bayern"}},{"name":"Ilmsiedlung","postalCode":"85276","locality":"Pfaffenhofen an der Ilm","municipality":{"key":"09186143","name":"Pfaffenhofen a.d.Ilm, St","type":"Stadt"},"district":{"key":"09186","name":"Pfaffenhofen a.d.Ilm","type":"Landkreis"},"federalState":{"key":"09","name":"Bayern"}},{"name":"Ilmstr.","postalCode":"85276","locality":"Pfaffenhofen an der Ilm","municipality":{"key":"09186143","name":"Pfaffenhofen a.d.Ilm, St","type":"Stadt"},"district":{"key":"09186","name":"Pfaffenhofen a.d.Ilm","type":"Landkreis"},"federalState":{"key":"09","name":"Bayern"}},{"name":"Ilshofener Str.","postalCode":"74532","locality":"Ilshofen","municipality":{"key":"08127043","name":"Ilshofen, Stadt","type":"Stadt"},"district":{"key":"08127","name":"Schwäbisch Hall","type":"Landkreis"},"federalState":{"key":"08","name":"Baden-Württemberg"}},{"name":"Ilshofer Höhenweg","postalCode":"74532","locality":"Ilshofen","municipality":{"key":"08127043","name":"Ilshofen, Stadt","type":"Stadt"},"district":{"key":"08127","name":"Schwäbisch Hall","type":"Landkreis"},"federalState":{"key":"08","name":"Baden-Württemberg"}},{"name":"Iltisweg","postalCode":"65719","locality":"Hofheim am Taunus","municipality":{"key":"06436007","name":"Hofheim am Taunus, Kreisstadt","type":"Stadt"},"district":{"key":"06436","name":"Main-Taunus-Kreis","type":"Landkreis"},"federalState":{"key":"06","name":"Hessen"}},{"name":"Im Acker","postalCode":"54298","locality":"Orenhofen","municipality":{"key":"07232289","name":"Orenhofen","type":"Kreisangehörige_Gemeinde"},"district":{"key":"07232","name":"Eifelkreis Bitburg-Prüm","type":"Landkreis"},"federalState":{"key":"07","name":"Rheinland-Pfalz"}},{"name":"Im Alten Bach","postalCode":"78343","locality":"Gaienhofen","municipality":{"key":"08335025","name":"Gaienhofen","type":"Kreisangehörige_Gemeinde"},"district":{"key":"08335","name":"Konstanz","type":"Landkreis"},"federalState":{"key":"08","name":"Baden-Württemberg"}},{"name":"Im Alten Garten","postalCode":"51580","locality":"Reichshof","municipality":{"key":"05374040","name":"Reichshof","type":"Kreisangehörige_Gemeinde"},"district":{"key":"05374","name":"Oberbergischer Kreis","type":"Kreis"},"federalState":{"key":"05","name":"Nordrhein-Westfalen"}},{"name":"Im Alten Hof","postalCode":"51580","locality":"Reichshof","municipality":{"key":"05374040","name":"Reichshof","type":"Kreisangehörige_Gemeinde"},"district":{"key":"05374","name":"Oberbergischer Kreis","type":"Kreis"},"federalState":{"key":"05","name":"Nordrhein-Westfalen"}},{"name":"Im alten See","postalCode":"97922","locality":"Lauda-Königshofen","municipality":{"key":"08128139","name":"Lauda-Königshofen, Stadt","type":"Stadt"},"district":{"key":"08128","name":"Main-Tauber-Kreis","type":"Landkreis"},"federalState":{"key":"08","name":"Baden-Württemberg"}},{"name":"Im Angel","postalCode":"65719","locality":"Hofheim am Taunus","municipality":{"key":"06436007","name":"Hofheim am Taunus, Kreisstadt","type":"Stadt"},"district":{"key":"06436","name":"Main-Taunus-Kreis","type":"Landkreis"},"federalState":{"key":"06","name":"Hessen"}},{"name":"Im Anger","postalCode":"87640","locality":"Biessenhofen","municipality":{"key":"09777112","name":"Biessenhofen","type":"Kreisangehörige_Gemeinde"},"district":{"key":"09777","name":"Ostallgäu","type":"Landkreis"},"federalState":{"key":"09","name":"Bayern"}},{"name":"Im Apfelgarten","postalCode":"65474","locality":"Bischofsheim","municipality":{"key":"06433002","name":"Bischofsheim","type":"Kreisangehörige_Gemeinde"},"district":{"key":"06433","name":"Groß-Gerau","type":"Landkreis"},"federalState":{"key":"06","name":"Hessen"}},{"name":"Im Armenkamp","postalCode":"51580","locality":"Reichshof","municipality":{"key":"05374040","name":"Reichshof","type":"Kreisangehörige_Gemeinde"},"district":{"key":"05374","name":"Oberbergischer Kreis","type":"Kreis"},"federalState":{"key":"05","name":"Nordrhein-Westfalen"}},{"name":"Im Asbachpark","postalCode":"51580","locality":"Reichshof","municipality":{"key":"05374040","name":"Reichshof","type":"Kreisangehörige_Gemeinde"},"district":{"key":"05374","name":"Oberbergischer Kreis","type":"Kreis"},"federalState":{"key":"05","name":"Nordrhein-Westfalen"}},{"name":"Im Attich","postalCode":"65474","locality":"Bischofsheim","municipality":{"key":"06433002","name":"Bischofsheim","type":"Kreisangehörige_Gemeinde"},"district":{"key":"06433","name":"Groß-Gerau","type":"Landkreis"},"federalState":{"key":"06","name":"Hessen"}},{"name":"Im Auchtert","postalCode":"73110","locality":"Hattenhofen","municipality":{"key":"08117029","name":"Hattenhofen","type":"Kreisangehörige_Gemeinde"},"district":{"key":"08117","name":"Göppingen","type":"Landkreis"},"federalState":{"key":"08","name":"Baden-Württemberg"}},{"name":"Im Bänkle","postalCode":"78343","locality":"Gaienhofen","municipality":{"key":"08335025","name":"Gaienhofen","type":"Kreisangehörige_Gemeinde"},"district":{"key":"08335","name":"Konstanz","type":"Landkreis"},"federalState":{"key":"08","name":"Baden-Württemberg"}},{"name":"Im Baumgarten","postalCode":"78343","locality":"Gaienhofen","municipality":{"key":"08335025","name":"Gaienhofen","type":"Kreisangehörige_Gemeinde"},"district":{"key":"08335","name":"Konstanz","type":"Landkreis"},"federalState":{"key":"08","name":"Baden-Württemberg"}},{"name":"Im Bäumlesfeld","postalCode":"74532","locality":"Ilshofen","municipality":{"key":"08127043","name":"Ilshofen, Stadt","type":"Stadt"},"district":{"key":"08127","name":"Schwäbisch Hall","type":"Landkreis"},"federalState":{"key":"08","name":"Baden-Württemberg"}},{"name":"Imberger Str.","postalCode":"87527","locality":"Sonthofen","municipality":{"key":"09780139","name":"Sonthofen, St","type":"Stadt"},"district":{"key":"09780","name":"Oberallgäu","type":"Landkreis"},"federalState":{"key":"09","name":"Bayern"}},{"name":"Imbergstr.","postalCode":"86825","locality":"Bad Wörishofen","municipality":{"key":"09778116","name":"Bad Wörishofen, St","type":"Stadt"},"district":{"key":"09778","name":"Unterallgäu","type":"Landkreis"},"federalState":{"key":"09","name":"Bayern"}},{"name":"Im Bienengarten","postalCode":"76889","locality":"Pleisweiler-Oberhofen","municipality":{"key":"07337062","name":"Pleisweiler-Oberhofen","type":"Kreisangehörige_Gemeinde"},"district":{"key":"07337","name":"Südliche Weinstraße","type":"Landkreis"},"federalState":{"key":"07","name":"Rheinland-Pfalz"}},{"name":"Im Biental","postalCode":"36119","locality":"Neuhof","municipality":{"key":"06631018","name":"Neuhof","type":"Kreisangehörige_Gemeinde"},"district":{"key":"06631","name":"Fulda","type":"Landkreis"},"federalState":{"key":"06","name":"Hessen"}},{"name":"Im Birkenfeld","postalCode":"65719","locality":"Hofheim am Taunus","municipality":{"key":"06436007","name":"Hofheim am Taunus, Kreisstadt","type":"Stadt"},"district":{"key":"06436","name":"Main-Taunus-Kreis","type":"Landkreis"},"federalState":{"key":"06","name":"Hessen"}},{"name":"Im Boden","postalCode":"56242","locality":"Nordhofen","municipality":{"key":"07143056","name":"Nordhofen","type":"Kreisangehörige_Gemeinde"},"district":{"key":"07143","name":"Westerwaldkreis","type":"Landkreis"},"federalState":{"key":"07","name":"Rheinland-Pfalz"}},{"name":"Im Boden","postalCode":"99887","locality":"Herrenhof","municipality":{"key":"16067036","name":"Herrenhof","type":"Kreisangehörige_Gemeinde"},"district":{"key":"16067","name":"Gotha","type":"Landkreis"},"federalState":{"key":"16","name":"Thüringen"}},{"name":"Im Bohnenkamp","postalCode":"51580","locality":"Reichshof","municipality":{"key":"05374040","name":"Reichshof","type":"Kreisangehörige_Gemeinde"},"district":{"key":"05374","name":"Oberbergischer Kreis","type":"Kreis"},"federalState":{"key":"05","name":"Nordrhein-Westfalen"}},{"name":"Im Bohnenstock","postalCode":"88433","locality":"Schemmerhofen","municipality":{"key":"08426134","name":"Schemmerhofen","type":"Kreisangehörige_Gemeinde"},"district":{"key":"08426","name":"Biberach","type":"Landkreis"},"federalState":{"key":"08","name":"Baden-Württemberg"}},{"name":"Im Brand","postalCode":"65719","locality":"Hofheim am Taunus","municipality":{"key":"06436007","name":"Hofheim am Taunus, Kreisstadt","type":"Stadt"},"district":{"key":"06436","name":"Main-Taunus-Kreis","type":"Landkreis"},"federalState":{"key":"06","name":"Hessen"}},{"name":"Im Bruch","postalCode":"33161","locality":"Hövelhof","municipality":{"key":"05774024","name":"Hövelhof, Sennegemeinde","type":"Kreisangehörige_Gemeinde"},"district":{"key":"05774","name":"Paderborn","type":"Kreis"},"federalState":{"key":"05","name":"Nordrhein-Westfalen"}},{"name":"Im Bruch","postalCode":"51580","locality":"Reichshof","municipality":{"key":"05374040","name":"Reichshof","type":"Kreisangehörige_Gemeinde"},"district":{"key":"05374","name":"Oberbergischer Kreis","type":"Kreis"},"federalState":{"key":"05","name":"Nordrhein-Westfalen"}},{"name":"Im Brücher Garten","postalCode":"51580","locality":"Reichshof","municipality":{"key":"05374040","name":"Reichshof","type":"Kreisangehörige_Gemeinde"},"district":{"key":"05374","name":"Oberbergischer Kreis","type":"Kreis"},"federalState":{"key":"05","name":"Nordrhein-Westfalen"}},{"name":"Im Bruchkamp","postalCode":"51580","locality":"Reichshof","municipality":{"key":"05374040","name":"Reichshof","type":"Kreisangehörige_Gemeinde"},"district":{"key":"05374","name":"Oberbergischer Kreis","type":"Kreis"},"federalState":{"key":"05","name":"Nordrhein-Westfalen"}},{"name":"Im Brühl","postalCode":"66903","locality":"Frohnhofen","municipality":{"key":"07336027","name":"Frohnhofen","type":"Kreisangehörige_Gemeinde"},"district":{"key":"07336","name":"Kusel","type":"Landkreis"},"federalState":{"key":"07","name":"Rheinland-Pfalz"}},{"name":"Im Brühl","postalCode":"89284","locality":"Pfaffenhofen an der Roth","municipality":{"key":"09775143","name":"Pfaffenhofen a.d.Roth, M","type":"Markt"},"district":{"key":"09775","name":"Neu-Ulm","type":"Landkreis"},"federalState":{"key":"09","name":"Bayern"}},{"name":"Im Brühl","postalCode":"91741","locality":"Theilenhofen","municipality":{"key":"09577172","name":"Theilenhofen","type":"Kreisangehörige_Gemeinde"},"district":{"key":"09577","name":"Weißenburg-Gunzenhausen","type":"Landkreis"},"federalState":{"key":"09","name":"Bayern"}},{"name":"Im Bündtle","postalCode":"78343","locality":"Gaienhofen","municipality":{"key":"08335025","name":"Gaienhofen","type":"Kreisangehörige_Gemeinde"},"district":{"key":"08335","name":"Konstanz","type":"Landkreis"},"federalState":{"key":"08","name":"Baden-Württemberg"}},{"name":"Im Burgfried","postalCode":"67374","locality":"Hanhofen","municipality":{"key":"07338010","name":"Hanhofen","type":"Kreisangehörige_Gemeinde"},"district":{"key":"07338","name":"Rhein-Pfalz-Kreis","type":"Landkreis"},"federalState":{"key":"07","name":"Rheinland-Pfalz"}},{"name":"Jacob-Curio-Str.","postalCode":"97461","locality":"Hofheim in Unterfranken","municipality":{"key":"09674149","name":"Hofheim i.UFr., St","type":"Stadt"},"district":{"key":"09674","name":"Haßberge","type":"Landkreis"},"federalState":{"key":"09","name":"Bayern"}},{"name":"Jagdhausweg","postalCode":"74924","locality":"Neckarbischofsheim","municipality":{"key":"08226055","name":"Neckarbischofsheim, Stadt","type":"Stadt"},"district":{"key":"08226","name":"Rhein-Neckar-Kreis","type":"Landkreis"},"federalState":{"key":"08","name":"Baden-Württemberg"}},{"name":"Jagdhüttenweg","postalCode":"06571","locality":"Gehofen","municipality":{"key":"16065019","name":"Gehofen","type":"Kreisangehörige_Gemeinde"},"district":{"key":"16065","name":"Kyffhäuserkreis","type":"Landkreis"},"federalState":{"key":"16","name":"Thüringen"}},{"name":"Jagdwinkel","postalCode":"51580","locality":"Reichshof","municipality":{"key":"05374040","name":"Reichshof","type":"Kreisangehörige_Gemeinde"},"district":{"key":"05374","name":"Oberbergischer Kreis","type":"Kreis"},"federalState":{"key":"05","name":"Nordrhein-Westfalen"}},{"name":"Jägerberg","postalCode":"88433","locality":"Schemmerhofen","municipality":{"key":"08426134","name":"Schemmerhofen","type":"Kreisangehörige_Gemeinde"},"district":{"key":"08426","name":"Biberach","type":"Landkreis"},"federalState":{"key":"08","name":"Baden-Württemberg"}},{"name":"Jägerstr.","postalCode":"33161","locality":"Hövelhof","municipality":{"key":"05774024","name":"Hövelhof, Sennegemeinde","type":"Kreisangehörige_Gemeinde"},"district":{"key":"05774","name":"Paderborn","type":"Kreis"},"federalState":{"key":"05","name":"Nordrhein-Westfalen"}},{"name":"Jägerstr.","postalCode":"67373","locality":"Dudenhofen","municipality":{"key":"07338007","name":"Dudenhofen","type":"Kreisangehörige_Gemeinde"},"district":{"key":"07338","name":"Rhein-Pfalz-Kreis","type":"Landkreis"},"federalState":{"key":"07","name":"Rheinland-Pfalz"}},{"name":"Jägerstr.","postalCode":"94486","locality":"Osterhofen","municipality":{"key":"09271141","name":"Osterhofen, St","type":"Stadt"},"district":{"key":"09271","name":"Deggendorf","type":"Landkreis"},"federalState":{"key":"09","name":"Bayern"}},{"name":"Jägerstr.","postalCode":"94533","locality":"Buchhofen","municipality":{"key":"09271118","name":"Buchhofen","type":"Kreisangehörige_Gemeinde"},"district":{"key":"09271","name":"Deggendorf","type":"Landkreis"},"federalState":{"key":"09","name":"Bayern"}},{"name":"Jägerstr.","postalCode":"95493","locality":"Bischofsgrün","municipality":{"key":"09472121","name":"Bischofsgrün","type":"Kreisangehörige_Gemeinde"},"district":{"key":"09472","name":"Bayreuth","type":"Landkreis"},"federalState":{"key":"09","name":"Bayern"}},{"name":"Jägerstr.","postalCode":"97922","locality":"Lauda-Königshofen","municipality":{"key":"08128139","name":"Lauda-Königshofen, Stadt","type":"Stadt"},"district":{"key":"08128","name":"Main-Tauber-Kreis","type":"Landkreis"},"federalState":{"key":"08","name":"Baden-Württemberg"}},{"name":"Jägerstr.","postalCode":"98559","locality":"Oberhof","municipality":{"key":"16066047","name":"Oberhof, Stadt","type":"Stadt"},"district":{"key":"16066","name":"Schmalkalden-Meiningen","type":"Landkreis"},"federalState":{"key":"16","name":"Thüringen"}},{"name":"Jägerweg","postalCode":"51580","locality":"Reichshof","municipality":{"key":"05374040","name":"Reichshof","type":"Kreisangehörige_Gemeinde"},"district":{"key":"05374","name":"Oberbergischer Kreis","type":"Kreis"},"federalState":{"key":"05","name":"Nordrhein-Westfalen"}},{"name":"Jägerweg","postalCode":"86877","locality":"Walkertshofen","municipality":{"key":"09772214","name":"Walkertshofen","type":"Kreisangehörige_Gemeinde"},"district":{"key":"09772","name":"Augsburg","type":"Landkreis"},"federalState":{"key":"09","name":"Bayern"}},{"name":"Jägerweg","postalCode":"93142","locality":"Maxhütte-Haidhof","municipality":{"key":"09376141","name":"Maxhütte-Haidhof, St","type":"Stadt"},"district":{"key":"09376","name":"Schwandorf","type":"Landkreis"},"federalState":{"key":"09","name":"Bayern"}},{"name":"Jägerzeile","postalCode":"95028","locality":"Hof","municipality":{"key":"09464000","name":"Hof","type":"Kreisfreie_Stadt"},"district":{"key":"09464","name":"Hof","type":"Kreisfreie_Stadt"},"federalState":{"key":"09","name":"Bayern"}},{"name":"Jagststr.","postalCode":"67117","locality":"Limburgerhof","municipality":{"key":"07338017","name":"Limburgerhof","type":"Kreisangehörige_Gemeinde"},"district":{"key":"07338","name":"Rhein-Pfalz-Kreis","type":"Landkreis"},"federalState":{"key":"07","name":"Rheinland-Pfalz"}},{"name":"Jahnallee","postalCode":"94474","locality":"Vilshofen an der Donau","municipality":{"key":"09275154","name":"Vilshofen an der Donau, St","type":"Stadt"},"district":{"key":"09275","name":"Passau","type":"Landkreis"},"federalState":{"key":"09","name":"Bayern"}},{"name":"Jahnpromenade","postalCode":"97631","locality":"Bad Königshofen im Grabfeld","municipality":{"key":"09673141","name":"Bad Königshofen i.Grabfeld, St","type":"Stadt"},"district":{"key":"09673","name":"Rhön-Grabfeld","type":"Landkreis"},"federalState":{"key":"09","name":"Bayern"}},{"name":"Jahnstr.","postalCode":"01877","locality":"Bischofswerda","municipality":{"key":"14625040","name":"Bischofswerda, Stadt","type":"Stadt"},"district":{"key":"14625","name":"Bautzen","type":"Landkreis"},"federalState":{"key":"14","name":"Sachsen"}},{"name":"Jahnstr.","postalCode":"33161","locality":"Hövelhof","municipality":{"key":"05774024","name":"Hövelhof, Sennegemeinde","type":"Kreisangehörige_Gemeinde"},"district":{"key":"05774","name":"Paderborn","type":"Kreis"},"federalState":{"key":"05","name":"Nordrhein-Westfalen"}},{"name":"Jahnstr.","postalCode":"36119","locality":"Neuhof","municipality":{"key":"06631018","name":"Neuhof","type":"Kreisangehörige_Gemeinde"},"district":{"key":"06631","name":"Fulda","type":"Landkreis"},"federalState":{"key":"06","name":"Hessen"}},{"name":"Jahnstr.","postalCode":"65719","locality":"Hofheim am Taunus","municipality":{"key":"06436007","name":"Hofheim am Taunus, Kreisstadt","type":"Stadt"},"district":{"key":"06436","name":"Main-Taunus-Kreis","type":"Landkreis"},"federalState":{"key":"06","name":"Hessen"}},{"name":"Jahnstr.","postalCode":"67117","locality":"Limburgerhof","municipality":{"key":"07338017","name":"Limburgerhof","type":"Kreisangehörige_Gemeinde"},"district":{"key":"07338","name":"Rhein-Pfalz-Kreis","type":"Landkreis"},"federalState":{"key":"07","name":"Rheinland-Pfalz"}},{"name":"Jahnstr.","postalCode":"67141","locality":"Neuhofen","municipality":{"key":"07338020","name":"Neuhofen","type":"Kreisangehörige_Gemeinde"},"district":{"key":"07338","name":"Rhein-Pfalz-Kreis","type":"Landkreis"},"federalState":{"key":"07","name":"Rheinland-Pfalz"}},{"name":"Jahnstr.","postalCode":"67373","locality":"Dudenhofen","municipality":{"key":"07338007","name":"Dudenhofen","type":"Kreisangehörige_Gemeinde"},"district":{"key":"07338","name":"Rhein-Pfalz-Kreis","type":"Landkreis"},"federalState":{"key":"07","name":"Rheinland-Pfalz"}},{"name":"Jahnstr.","postalCode":"67574","locality":"Osthofen","municipality":{"key":"07331055","name":"Osthofen, Stadt","type":"Stadt"},"district":{"key":"07331","name":"Alzey-Worms","type":"Landkreis"},"federalState":{"key":"07","name":"Rheinland-Pfalz"}},{"name":"Jahnstr.","postalCode":"67593","locality":"Westhofen","municipality":{"key":"07331071","name":"Westhofen","type":"Kreisangehörige_Gemeinde"},"district":{"key":"07331","name":"Alzey-Worms","type":"Landkreis"},"federalState":{"key":"07","name":"Rheinland-Pfalz"}},{"name":"Jahnstr.","postalCode":"85084","locality":"Reichertshofen","municipality":{"key":"09186147","name":"Reichertshofen, M","type":"Markt"},"district":{"key":"09186","name":"Pfaffenhofen a.d.Ilm","type":"Landkreis"},"federalState":{"key":"09","name":"Bayern"}},{"name":"Jahnstr.","postalCode":"85122","locality":"Hitzhofen","municipality":{"key":"09176132","name":"Hitzhofen","type":"Kreisangehörige_Gemeinde"},"district":{"key":"09176","name":"Eichstätt","type":"Landkreis"},"federalState":{"key":"09","name":"Bayern"}},{"name":"Jahnstr.","postalCode":"85276","locality":"Pfaffenhofen an der Ilm","municipality":{"key":"09186143","name":"Pfaffenhofen a.d.Ilm, St","type":"Stadt"},"district":{"key":"09186","name":"Pfaffenhofen a.d.Ilm","type":"Landkreis"},"federalState":{"key":"09","name":"Bayern"}},{"name":"Jahnstr.","postalCode":"86368","locality":"Gersthofen","municipality":{"key":"09772147","name":"Gersthofen, St","type":"Stadt"},"district":{"key":"09772","name":"Augsburg","type":"Landkreis"},"federalState":{"key":"09","name":"Bayern"}},{"name":"Jahnstr.","postalCode":"86570","locality":"Inchenhofen","municipality":{"key":"09771141","name":"Inchenhofen, M","type":"Markt"},"district":{"key":"09771","name":"Aichach-Friedberg","type":"Landkreis"},"federalState":{"key":"09","name":"Bayern"}},{"name":"Jahnstr.","postalCode":"86825","locality":"Bad Wörishofen","municipality":{"key":"09778116","name":"Bad Wörishofen, St","type":"Stadt"},"district":{"key":"09778","name":"Unterallgäu","type":"Landkreis"},"federalState":{"key":"09","name":"Bayern"}},{"name":"Jahnstr.","postalCode":"87448","locality":"Waltenhofen","municipality":{"key":"09780143","name":"Waltenhofen","type":"Kreisangehörige_Gemeinde"},"district":{"key":"09780","name":"Oberallgäu","type":"Landkreis"},"federalState":{"key":"09","name":"Bayern"}},{"name":"Jahnstr.","postalCode":"87527","locality":"Sonthofen","municipality":{"key":"09780139","name":"Sonthofen, St","type":"Stadt"},"district":{"key":"09780","name":"Oberallgäu","type":"Landkreis"},"federalState":{"key":"09","name":"Bayern"}},{"name":"Jahnstr.","postalCode":"87640","locality":"Biessenhofen","municipality":{"key":"09777112","name":"Biessenhofen","type":"Kreisangehörige_Gemeinde"},"district":{"key":"09777","name":"Ostallgäu","type":"Landkreis"},"federalState":{"key":"09","name":"Bayern"}},{"name":"Jahnstr.","postalCode":"88433","locality":"Schemmerhofen","municipality":{"key":"08426134","name":"Schemmerhofen","type":"Kreisangehörige_Gemeinde"},"district":{"key":"08426","name":"Biberach","type":"Landkreis"},"federalState":{"key":"08","name":"Baden-Württemberg"}},{"name":"Jahnstr.","postalCode":"88690","locality":"Uhldingen-Mühlhofen","municipality":{"key":"08435066","name":"Uhldingen-Mühlhofen","type":"Kreisangehörige_Gemeinde"},"district":{"key":"08435","name":"Bodenseekreis","type":"Landkreis"},"federalState":{"key":"08","name":"Baden-Württemberg"}},{"name":"Jahnstr.","postalCode":"90599","locality":"Dietenhofen","municipality":{"key":"09571135","name":"Dietenhofen, M","type":"Markt"},"district":{"key":"09571","name":"Ansbach","type":"Landkreis"},"federalState":{"key":"09","name":"Bayern"}},{"name":"Jahnstr.","postalCode":"91334","locality":"Hemhofen","municipality":{"key":"09572130","name":"Hemhofen","type":"Kreisangehörige_Gemeinde"},"district":{"key":"09572","name":"Erlangen-Höchstadt","type":"Landkreis"},"federalState":{"key":"09","name":"Bayern"}},{"name":"Jahnstr.","postalCode":"93142","locality":"Maxhütte-Haidhof","municipality":{"key":"09376141","name":"Maxhütte-Haidhof, St","type":"Stadt"},"district":{"key":"09376","name":"Schwandorf","type":"Landkreis"},"federalState":{"key":"09","name":"Bayern"}},{"name":"Jahnstr.","postalCode":"95028","locality":"Hof","municipality":{"key":"09464000","name":"Hof","type":"Kreisfreie_Stadt"},"district":{"key":"09464","name":"Hof","type":"Kreisfreie_Stadt"},"federalState":{"key":"09","name":"Bayern"}},{"name":"Jahnstr.","postalCode":"95030","locality":"Hof","municipality":{"key":"09464000","name":"Hof","type":"Kreisfreie_Stadt"},"district":{"key":"09464","name":"Hof","type":"Kreisfreie_Stadt"},"federalState":{"key":"09","name":"Bayern"}},{"name":"Jahnstr.","postalCode":"97447","locality":"Gerolzhofen","municipality":{"key":"09678134","name":"Gerolzhofen, St","type":"Stadt"},"district":{"key":"09678","name":"Schweinfurt","type":"Landkreis"},"federalState":{"key":"09","name":"Bayern"}},{"name":"Jahnstr.","postalCode":"97461","locality":"Hofheim in Unterfranken","municipality":{"key":"09674149","name":"Hofheim i.UFr., St","type":"Stadt"},"district":{"key":"09674","name":"Haßberge","type":"Landkreis"},"federalState":{"key":"09","name":"Bayern"}},{"name":"Jahnstr.","postalCode":"97922","locality":"Lauda-Königshofen","municipality":{"key":"08128139","name":"Lauda-Königshofen, Stadt","type":"Stadt"},"district":{"key":"08128","name":"Main-Tauber-Kreis","type":"Landkreis"},"federalState":{"key":"08","name":"Baden-Württemberg"}},{"name":"Jahnstr.","postalCode":"98559","locality":"Oberhof","municipality":{"key":"16066047","name":"Oberhof, Stadt","type":"Stadt"},"district":{"key":"16066","name":"Schmalkalden-Meiningen","type":"Landkreis"},"federalState":{"key":"16","name":"Thüringen"}},{"name":"Jakob-Haffner-Str.","postalCode":"92283","locality":"Lauterhofen","municipality":{"key":"09373140","name":"Lauterhofen, M","type":"Markt"},"district":{"key":"09373","name":"Neumarkt i.d.OPf.","type":"Landkreis"},"federalState":{"key":"09","name":"Bayern"}},{"name":"Jakob-Hafner-Str.","postalCode":"92283","locality":"Lauterhofen","municipality":{"key":"09373140","name":"Lauterhofen, M","type":"Markt"},"district":{"key":"09373","name":"Neumarkt i.d.OPf.","type":"Landkreis"},"federalState":{"key":"09","name":"Bayern"}},{"name":"Kalkofen","postalCode":"95191","locality":"Leupoldsgrün","municipality":{"key":"09475145","name":"Leupoldsgrün","type":"Kreisangehörige_Gemeinde"},"district":{"key":"09475","name":"Hof","type":"Landkreis"},"federalState":{"key":"09","name":"Bayern"}},{"name":"Kirchplatz","postalCode":"95191","locality":"Leupoldsgrün","municipality":{"key":"09475145","name":"Leupoldsgrün","type":"Kreisangehörige_Gemeinde"},"district":{"key":"09475","name":"Hof","type":"Landkreis"},"federalState":{"key":"09","name":"Bayern"}},{"name":"Lehmgrubenweg","postalCode":"95191","locality":"Leupoldsgrün","municipality":{"key":"09475145","name":"Leupoldsgrün","type":"Kreisangehörige_Gemeinde"},"district":{"key":"09475","name":"Hof","type":"Landkreis"},"federalState":{"key":"09","name":"Bayern"}},{"name":"Lerchenweg","postalCode":"95191","locality":"Leupoldsgrün","municipality":{"key":"09475145","name":"Leupoldsgrün","type":"Kreisangehörige_Gemeinde"},"district":{"key":"09475","name":"Hof","type":"Landkreis"},"federalState":{"key":"09","name":"Bayern"}},{"name":"Lindenstr.","postalCode":"95191","locality":"Leupoldsgrün","municipality":{"key":"09475145","name":"Leupoldsgrün","type":"Kreisangehörige_Gemeinde"},"district":{"key":"09475","name":"Hof","type":"Landkreis"},"federalState":{"key":"09","name":"Bayern"}},{"name":"Mühldorfer Weg","postalCode":"95191","locality":"Leupoldsgrün","municipality":{"key":"09475145","name":"Leupoldsgrün","type":"Kreisangehörige_Gemeinde"},"district":{"key":"09475","name":"Hof","type":"Landkreis"},"federalState":{"key":"09","name":"Bayern"}},{"name":"Neue Heimat","postalCode":"95191","locality":"Leupoldsgrün","municipality":{"key":"09475145","name":"Leupoldsgrün","type":"Kreisangehörige_Gemeinde"},"district":{"key":"09475","name":"Hof","type":"Landkreis"},"federalState":{"key":"09","name":"Bayern"}},{"name":"Neumühl","postalCode":"95191","locality":"Leupoldsgrün","municipality":{"key":"09475145","name":"Leupoldsgrün","type":"Kreisangehörige_Gemeinde"},"district":{"key":"09475","name":"Hof","type":"Landkreis"},"federalState":{"key":"09","name":"Bayern"}},{"name":"Oberer Anger","postalCode":"95191","locality":"Leupoldsgrün","municipality":{"key":"09475145","name":"Leupoldsgrün","type":"Kreisangehörige_Gemeinde"},"district":{"key":"09475","name":"Hof","type":"Landkreis"},"federalState":{"key":"09","name":"Bayern"}},{"name":"Parkstr.","postalCode":"95191","locality":"Leupoldsgrün","municipality":{"key":"09475145","name":"Leupoldsgrün","type":"Kreisangehörige_Gemeinde"},"district":{"key":"09475","name":"Hof","type":"Landkreis"},"federalState":{"key":"09","name":"Bayern"}},{"name":"Postgasse","postalCode":"95191","locality":"Leupoldsgrün","municipality":{"key":"09475145","name":"Leupoldsgrün","type":"Kreisangehörige_Gemeinde"},"district":{"key":"09475","name":"Hof","type":"Landkreis"},"federalState":{"key":"09","name":"Bayern"}},{"name":"Quäkerstr.","postalCode":"65719","locality":"Hofheim am Taunus","municipality":{"key":"06436007","name":"Hofheim am Taunus, Kreisstadt","type":"Stadt"},"district":{"key":"06436","name":"Main-Taunus-Kreis","type":"Landkreis"},"federalState":{"key":"06","name":"Hessen"}},{"name":"Queichstr.","postalCode":"67117","locality":"Limburgerhof","municipality":{"key":"07338017","name":"Limburgerhof","type":"Kreisangehörige_Gemeinde"},"district":{"key":"07338","name":"Rhein-Pfalz-Kreis","type":"Landkreis"},"federalState":{"key":"07","name":"Rheinland-Pfalz"}},{"name":"Quellengasse","postalCode":"85276","locality":"Pfaffenhofen an der Ilm","municipality":{"key":"09186143","name":"Pfaffenhofen a.d.Ilm, St","type":"Stadt"},"district":{"key":"09186","name":"Pfaffenhofen a.d.Ilm","type":"Landkreis"},"federalState":{"key":"09","name":"Bayern"}},{"name":"Quellenhangweg","postalCode":"74924","locality":"Neckarbischofsheim","municipality":{"key":"08226055","name":"Neckarbischofsheim, Stadt","type":"Stadt"},"district":{"key":"08226","name":"Rhein-Neckar-Kreis","type":"Landkreis"},"federalState":{"key":"08","name":"Baden-Württemberg"}},{"name":"Quellenstr.","postalCode":"86368","locality":"Gersthofen","municipality":{"key":"09772147","name":"Gersthofen, St","type":"Stadt"},"district":{"key":"09772","name":"Augsburg","type":"Landkreis"},"federalState":{"key":"09","name":"Bayern"}},{"name":"Quellenweg","postalCode":"51580","locality":"Reichshof","municipality":{"key":"05374040","name":"Reichshof","type":"Kreisangehörige_Gemeinde"},"district":{"key":"05374","name":"Oberbergischer Kreis","type":"Kreis"},"federalState":{"key":"05","name":"Nordrhein-Westfalen"}},{"name":"Quellenweg","postalCode":"65719","locality":"Hofheim am Taunus","municipality":{"key":"06436007","name":"Hofheim am Taunus, Kreisstadt","type":"Stadt"},"district":{"key":"06436","name":"Main-Taunus-Kreis","type":"Landkreis"},"federalState":{"key":"06","name":"Hessen"}},{"name":"Quellenweg","postalCode":"83483","locality":"Bischofswiesen","municipality":{"key":"09172117","name":"Bischofswiesen","type":"Kreisangehörige_Gemeinde"},"district":{"key":"09172","name":"Berchtesgadener Land","type":"Landkreis"},"federalState":{"key":"09","name":"Bayern"}},{"name":"Quellenweg","postalCode":"85570","locality":"Ottenhofen","municipality":{"key":"09177134","name":"Ottenhofen","type":"Kreisangehörige_Gemeinde"},"district":{"key":"09177","name":"Erding","type":"Landkreis"},"federalState":{"key":"09","name":"Bayern"}},{"name":"Quellenweg","postalCode":"86825","locality":"Bad Wörishofen","municipality":{"key":"09778116","name":"Bad Wörishofen, St","type":"Stadt"},"district":{"key":"09778","name":"Unterallgäu","type":"Landkreis"},"federalState":{"key":"09","name":"Bayern"}},{"name":"Quellenweg","postalCode":"94474","locality":"Vilshofen an der Donau","municipality":{"key":"09275154","name":"Vilshofen an der Donau, St","type":"Stadt"},"district":{"key":"09275","name":"Passau","type":"Landkreis"},"federalState":{"key":"09","name":"Bayern"}},{"name":"Quellgrund","postalCode":"33161","locality":"Hövelhof","municipality":{"key":"05774024","name":"Hövelhof, Sennegemeinde","type":"Kreisangehörige_Gemeinde"},"district":{"key":"05774","name":"Paderborn","type":"Kreis"},"federalState":{"key":"05","name":"Nordrhein-Westfalen"}},{"name":"Quellitzweg","postalCode":"95030","locality":"Hof","municipality":{"key":"09464000","name":"Hof","type":"Kreisfreie_Stadt"},"district":{"key":"09464","name":"Hof","type":"Kreisfreie_Stadt"},"federalState":{"key":"09","name":"Bayern"}},{"name":"Querfloßweg","postalCode":"97653","locality":"Bischofsheim i.d.Rhön","municipality":{"key":"09673117","name":"Bischofsheim i.d.Rhön, St","type":"Stadt"},"district":{"key":"09673","name":"Rhön-Grabfeld","type":"Landkreis"},"federalState":{"key":"09","name":"Bayern"}},{"name":"Quergäßchen","postalCode":"86368","locality":"Gersthofen","municipality":{"key":"09772147","name":"Gersthofen, St","type":"Stadt"},"district":{"key":"09772","name":"Augsburg","type":"Landkreis"},"federalState":{"key":"09","name":"Bayern"}},{"name":"Quergasse","postalCode":"74397","locality":"Pfaffenhofen","municipality":{"key":"08125081","name":"Pfaffenhofen","type":"Kreisangehörige_Gemeinde"},"district":{"key":"08125","name":"Heilbronn","type":"Landkreis"},"federalState":{"key":"08","name":"Baden-Württemberg"}},{"name":"Querschoppen","postalCode":"34369","locality":"Hofgeismar","municipality":{"key":"06633013","name":"Hofgeismar, Stadt","type":"Stadt"},"district":{"key":"06633","name":"Kassel","type":"Landkreis"},"federalState":{"key":"06","name":"Hessen"}},{"name":"Querstr.","postalCode":"04683","locality":"Naunhof","municipality":{"key":"14729300","name":"Naunhof, Stadt","type":"Stadt"},"district":{"key":"14729","name":"Leipzig","type":"Landkreis"},"federalState":{"key":"14","name":"Sachsen"}},{"name":"Querstr.","postalCode":"36119","locality":"Neuhof","municipality":{"key":"06631018","name":"Neuhof","type":"Kreisangehörige_Gemeinde"},"district":{"key":"06631","name":"Fulda","type":"Landkreis"},"federalState":{"key":"06","name":"Hessen"}},{"name":"Querstr.","postalCode":"51580","locality":"Reichshof","municipality":{"key":"05374040","name":"Reichshof","type":"Kreisangehörige_Gemeinde"},"district":{"key":"05374","name":"Oberbergischer Kreis","type":"Kreis"},"federalState":{"key":"05","name":"Nordrhein-Westfalen"}},{"name":"Quertrift","postalCode":"34369","locality":"Hofgeismar","municipality":{"key":"06633013","name":"Hofgeismar, Stadt","type":"Stadt"},"district":{"key":"06633","name":"Kassel","type":"Landkreis"},"federalState":{"key":"06","name":"Hessen"}},{"name":"Querweg","postalCode":"33161","locality":"Hövelhof","municipality":{"key":"05774024","name":"Hövelhof, Sennegemeinde","type":"Kreisangehörige_Gemeinde"},"district":{"key":"05774","name":"Paderborn","type":"Kreis"},"federalState":{"key":"05","name":"Nordrhein-Westfalen"}},{"name":"Querweg","postalCode":"51580","locality":"Reichshof","municipality":{"key":"05374040","name":"Reichshof","type":"Kreisangehörige_Gemeinde"},"district":{"key":"05374","name":"Oberbergischer Kreis","type":"Kreis"},"federalState":{"key":"05","name":"Nordrhein-Westfalen"}},{"name":"Querweg","postalCode":"88433","locality":"Schemmerhofen","municipality":{"key":"08426134","name":"Schemmerhofen","type":"Kreisangehörige_Gemeinde"},"district":{"key":"08426","name":"Biberach","type":"Landkreis"},"federalState":{"key":"08","name":"Baden-Württemberg"}},{"name":"Querweg","postalCode":"99887","locality":"Herrenhof","municipality":{"key":"16067036","name":"Herrenhof","type":"Kreisangehörige_Gemeinde"},"district":{"key":"16067","name":"Gotha","type":"Landkreis"},"federalState":{"key":"16","name":"Thüringen"}},{"name":"Quetschen","postalCode":"95030","locality":"Hof","municipality":{"key":"09464000","name":"Hof","type":"Kreisfreie_Stadt"},"district":{"key":"09464","name":"Hof","type":"Kreisfreie_Stadt"},"federalState":{"key":"09","name":"Bayern"}},{"name":"Quetschenweg","postalCode":"95030","locality":"Hof","municipality":{"key":"09464000","name":"Hof","type":"Kreisfreie_Stadt"},"district":{"key":"09464","name":"Hof","type":"Kreisfreie_Stadt"},"federalState":{"key":"09","name":"Bayern"}},{"name":"Quintana Str.","postalCode":"94474","locality":"Vilshofen an der Donau","municipality":{"key":"09275154","name":"Vilshofen an der Donau, St","type":"Stadt"},"district":{"key":"09275","name":"Passau","type":"Landkreis"},"federalState":{"key":"09","name":"Bayern"}},{"name":"Quirinistr.","postalCode":"94486","locality":"Osterhofen","municipality":{"key":"09271141","name":"Osterhofen, St","type":"Stadt"},"district":{"key":"09271","name":"Deggendorf","type":"Landkreis"},"federalState":{"key":"09","name":"Bayern"}},{"name":"Rathausplatz","postalCode":"95191","locality":"Leupoldsgrün","municipality":{"key":"09475145","name":"Leupoldsgrün","type":"Kreisangehörige_Gemeinde"},"district":{"key":"09475","name":"Hof","type":"Landkreis"},"federalState":{"key":"09","name":"Bayern"}},{"name":"Ringstr.","postalCode":"95191","locality":"Leupoldsgrün","municipality":{"key":"09475145","name":"Leupoldsgrün","type":"Kreisangehörige_Gemeinde"},"district":{"key":"09475","name":"Hof","type":"Landkreis"},"federalState":{"key":"09","name":"Bayern"}},{"name":"Röhrsteig","postalCode":"95191","locality":"Leupoldsgrün","municipality":{"key":"09475145","name":"Leupoldsgrün","type":"Kreisangehörige_Gemeinde"},"district":{"key":"09475","name":"Hof","type":"Landkreis"},"federalState":{"key":"09","name":"Bayern"}},{"name":"Rosenstr.","postalCode":"95191","locality":"Leupoldsgrün","municipality":{"key":"09475145","name":"Leupoldsgrün","type":"Kreisangehörige_Gemeinde"},"district":{"key":"09475","name":"Hof","type":"Landkreis"},"federalState":{"key":"09","name":"Bayern"}},{"name":"Schulstr.","postalCode":"95191","locality":"Leupoldsgrün","municipality":{"key":"09475145","name":"Leupoldsgrün","type":"Kreisangehörige_Gemeinde"},"district":{"key":"09475","name":"Hof","type":"Landkreis"},"federalState":{"key":"09","name":"Bayern"}},{"name":"Sportplatzstr.","postalCode":"95191","locality":"Leupoldsgrün","municipality":{"key":"09475145","name":"Leupoldsgrün","type":"Kreisangehörige_Gemeinde"},"district":{"key":"09475","name":"Hof","type":"Landkreis"},"federalState":{"key":"09","name":"Bayern"}},{"name":"Steinäcker","postalCode":"95191","locality":"Leupoldsgrün","municipality":{"key":"09475145","name":"Leupoldsgrün","type":"Kreisangehörige_Gemeinde"},"district":{"key":"09475","name":"Hof","type":"Landkreis"},"federalState":{"key":"09","name":"Bayern"}},{"name":"Steinbühl","postalCode":"95191","locality":"Leupoldsgrün","municipality":{"key":"09475145","name":"Leupoldsgrün","type":"Kreisangehörige_Gemeinde"},"district":{"key":"09475","name":"Hof","type":"Landkreis"},"federalState":{"key":"09","name":"Bayern"}},{"name":"Steinweg","postalCode":"95191","locality":"Leupoldsgrün","municipality":{"key":"09475145","name":"Leupoldsgrün","type":"Kreisangehörige_Gemeinde"},"district":{"key":"09475","name":"Hof","type":"Landkreis"},"federalState":{"key":"09","name":"Bayern"}},{"name":"Talstr.","postalCode":"95191","locality":"Leupoldsgrün","municipality":{"key":"09475145","name":"Leupoldsgrün","type":"Kreisangehörige_Gemeinde"},"district":{"key":"09475","name":"Hof","type":"Landkreis"},"federalState":{"key":"09","name":"Bayern"}},{"name":"Ubierstr.","postalCode":"65719","locality":"Hofheim am Taunus","municipality":{"key":"06436007","name":"Hofheim am Taunus, Kreisstadt","type":"Stadt"},"district":{"key":"06436","name":"Main-Taunus-Kreis","type":"Landkreis"},"federalState":{"key":"06","name":"Hessen"}},{"name":"Uckersdorf","postalCode":"92447","locality":"Schwarzhofen","municipality":{"key":"09376164","name":"Schwarzhofen, M","type":"Markt"},"district":{"key":"09376","name":"Schwandorf","type":"Landkreis"},"federalState":{"key":"09","name":"Bayern"}},{"name":"Udenhäuser Str.","postalCode":"34369","locality":"Hofgeismar","municipality":{"key":"06633013","name":"Hofgeismar, Stadt","type":"Stadt"},"district":{"key":"06633","name":"Kassel","type":"Landkreis"},"federalState":{"key":"06","name":"Hessen"}},{"name":"Uferbreite","postalCode":"93188","locality":"Pielenhofen","municipality":{"key":"09375184","name":"Pielenhofen","type":"Kreisangehörige_Gemeinde"},"district":{"key":"09375","name":"Regensburg","type":"Landkreis"},"federalState":{"key":"09","name":"Bayern"}},{"name":"Uferheide","postalCode":"51580","locality":"Reichshof","municipality":{"key":"05374040","name":"Reichshof","type":"Kreisangehörige_Gemeinde"},"district":{"key":"05374","name":"Oberbergischer Kreis","type":"Kreis"},"federalState":{"key":"05","name":"Nordrhein-Westfalen"}},{"name":"Uferstr.","postalCode":"78343","locality":"Gaienhofen","municipality":{"key":"08335025","name":"Gaienhofen","type":"Kreisangehörige_Gemeinde"},"district":{"key":"08335","name":"Konstanz","type":"Landkreis"},"federalState":{"key":"08","name":"Baden-Württemberg"}},{"name":"Uferstr.","postalCode":"94486","locality":"Osterhofen","municipality":{"key":"09271141","name":"Osterhofen, St","type":"Stadt"},"district":{"key":"09271","name":"Deggendorf","type":"Landkreis"},"federalState":{"key":"09","name":"Bayern"}},{"name":"Uferstr.","postalCode":"95028","locality":"Hof","municipality":{"key":"09464000","name":"Hof","type":"Kreisfreie_Stadt"},"district":{"key":"09464","name":"Hof","type":"Kreisfreie_Stadt"},"federalState":{"key":"09","name":"Bayern"}},{"name":"Uferweg","postalCode":"18445","locality":"Kramerhof","municipality":{"key":"13073046","name":"Kramerhof","type":"Kreisangehörige_Gemeinde"},"district":{"key":"13073","name":"Vorpommern-Rügen","type":"Landkreis"},"federalState":{"key":"13","name":"Mecklenburg-Vorpommern"}},{"name":"Uferweg","postalCode":"88433","locality":"Schemmerhofen","municipality":{"key":"08426134","name":"Schemmerhofen","type":"Kreisangehörige_Gemeinde"},"district":{"key":"08426","name":"Biberach","type":"Landkreis"},"federalState":{"key":"08","name":"Baden-Württemberg"}},{"name":"Uferweg","postalCode":"89284","locality":"Pfaffenhofen an der Roth","municipality":{"key":"09775143","name":"Pfaffenhofen a.d.Roth, M","type":"Markt"},"district":{"key":"09775","name":"Neu-Ulm","type":"Landkreis"},"federalState":{"key":"09","name":"Bayern"}},{"name":"Uffenheimerstr.","postalCode":"97258","locality":"Gollhofen","municipality":{"key":"09575127","name":"Gollhofen","type":"Kreisangehörige_Gemeinde"},"district":{"key":"09575","name":"Neustadt a.d.Aisch-Bad Windsheim","type":"Landkreis"},"federalState":{"key":"09","name":"Bayern"}},{"name":"Uhlandstr.","postalCode":"36119","locality":"Neuhof","municipality":{"key":"06631018","name":"Neuhof","type":"Kreisangehörige_Gemeinde"},"district":{"key":"06631","name":"Fulda","type":"Landkreis"},"federalState":{"key":"06","name":"Hessen"}},{"name":"Uhlandstr.","postalCode":"65719","locality":"Hofheim am Taunus","municipality":{"key":"06436007","name":"Hofheim am Taunus, Kreisstadt","type":"Stadt"},"district":{"key":"06436","name":"Main-Taunus-Kreis","type":"Landkreis"},"federalState":{"key":"06","name":"Hessen"}},{"name":"Uhlandstr.","postalCode":"66894","locality":"Bechhofen","municipality":{"key":"07340203","name":"Bechhofen","type":"Kreisangehörige_Gemeinde"},"district":{"key":"07340","name":"Südwestpfalz","type":"Landkreis"},"federalState":{"key":"07","name":"Rheinland-Pfalz"}},{"name":"Uhlandstr.","postalCode":"67117","locality":"Limburgerhof","municipality":{"key":"07338017","name":"Limburgerhof","type":"Kreisangehörige_Gemeinde"},"district":{"key":"07338","name":"Rhein-Pfalz-Kreis","type":"Landkreis"},"federalState":{"key":"07","name":"Rheinland-Pfalz"}},{"name":"Uhlandstr.","postalCode":"67574","locality":"Osthofen","municipality":{"key":"07331055","name":"Osthofen, Stadt","type":"Stadt"},"district":{"key":"07331","name":"Alzey-Worms","type":"Landkreis"},"federalState":{"key":"07","name":"Rheinland-Pfalz"}},{"name":"Uhlandstr.","postalCode":"73110","locality":"Hattenhofen","municipality":{"key":"08117029","name":"Hattenhofen","type":"Kreisangehörige_Gemeinde"},"district":{"key":"08117","name":"Göppingen","type":"Landkreis"},"federalState":{"key":"08","name":"Baden-Württemberg"}},{"name":"Uhlandstr.","postalCode":"74397","locality":"Pfaffenhofen","municipality":{"key":"08125081","name":"Pfaffenhofen","type":"Kreisangehörige_Gemeinde"},"district":{"key":"08125","name":"Heilbronn","type":"Landkreis"},"federalState":{"key":"08","name":"Baden-Württemberg"}},{"name":"Uhlandstr.","postalCode":"74924","locality":"Neckarbischofsheim","municipality":{"key":"08226055","name":"Neckarbischofsheim, Stadt","type":"Stadt"},"district":{"key":"08226","name":"Rhein-Neckar-Kreis","type":"Landkreis"},"federalState":{"key":"08","name":"Baden-Württemberg"}},{"name":"Uhlandstr.","postalCode":"86368","locality":"Gersthofen","municipality":{"key":"09772147","name":"Gersthofen, St","type":"Stadt"},"district":{"key":"09772","name":"Augsburg","type":"Landkreis"},"federalState":{"key":"09","name":"Bayern"}},{"name":"Uhlandstr.","postalCode":"88433","locality":"Schemmerhofen","municipality":{"key":"08426134","name":"Schemmerhofen","type":"Kreisangehörige_Gemeinde"},"district":{"key":"08426","name":"Biberach","type":"Landkreis"},"federalState":{"key":"08","name":"Baden-Württemberg"}},{"name":"Uhlandweg","postalCode":"97941","locality":"Tauberbischofsheim","municipality":{"key":"08128115","name":"Tauberbischofsheim, Stadt","type":"Stadt"},"district":{"key":"08128","name":"Main-Tauber-Kreis","type":"Landkreis"},"federalState":{"key":"08","name":"Baden-Württemberg"}},{"name":"Uhlenhorst","postalCode":"25746","locality":"Lohe-Rickelshof","municipality":{"key":"01051069","name":"Lohe-Rickelshof","type":"Kreisangehörige_Gemeinde"},"district":{"key":"01051","name":"Dithmarschen","type":"Kreis"},"federalState":{"key":"01","name":"Schleswig-Holstein"}},{"name":"Uhlmühlweg","postalCode":"83483","locality":"Bischofswiesen","municipality":{"key":"09172117","name":"Bischofswiesen","type":"Kreisangehörige_Gemeinde"},"district":{"key":"09172","name":"Berchtesgadener Land","type":"Landkreis"},"federalState":{"key":"09","name":"Bayern"}},{"name":"Ullerst","postalCode":"77716","locality":"Hofstetten","municipality":{"key":"08317046","name":"Hofstetten","type":"Kreisangehörige_Gemeinde"},"district":{"key":"08317","name":"Ortenaukreis","type":"Landkreis"},"federalState":{"key":"08","name":"Baden-Württemberg"}},{"name":"Ulmenallee","postalCode":"24977","locality":"Grundhof","municipality":{"key":"01059118","name":"Grundhof","type":"Kreisangehörige_Gemeinde"},"district":{"key":"01059","name":"Schleswig-Flensburg","type":"Kreis"},"federalState":{"key":"01","name":"Schleswig-Holstein"}},{"name":"Ulmenstr.","postalCode":"33161","locality":"Hövelhof","municipality":{"key":"05774024","name":"Hövelhof, Sennegemeinde","type":"Kreisangehörige_Gemeinde"},"district":{"key":"05774","name":"Paderborn","type":"Kreis"},"federalState":{"key":"05","name":"Nordrhein-Westfalen"}},{"name":"Ulmenstr.","postalCode":"65474","locality":"Bischofsheim","municipality":{"key":"06433002","name":"Bischofsheim","type":"Kreisangehörige_Gemeinde"},"district":{"key":"06433","name":"Groß-Gerau","type":"Landkreis"},"federalState":{"key":"06","name":"Hessen"}},{"name":"Ulmenstr.","postalCode":"65719","locality":"Hofheim am Taunus","municipality":{"key":"06436007","name":"Hofheim am Taunus, Kreisstadt","type":"Stadt"},"district":{"key":"06436","name":"Main-Taunus-Kreis","type":"Landkreis"},"federalState":{"key":"06","name":"Hessen"}},{"name":"Ulmenstr.","postalCode":"84169","locality":"Altfraunhofen","municipality":{"key":"09274114","name":"Altfraunhofen","type":"Kreisangehörige_Gemeinde"},"district":{"key":"09274","name":"Landshut","type":"Landkreis"},"federalState":{"key":"09","name":"Bayern"}},{"name":"Ulmenstr.","postalCode":"94486","locality":"Osterhofen","municipality":{"key":"09271141","name":"Osterhofen, St","type":"Stadt"},"district":{"key":"09271","name":"Deggendorf","type":"Landkreis"},"federalState":{"key":"09","name":"Bayern"}},{"name":"Ulmenweg","postalCode":"34369","locality":"Hofgeismar","municipality":{"key":"06633013","name":"Hofgeismar, Stadt","type":"Stadt"},"district":{"key":"06633","name":"Kassel","type":"Landkreis"},"federalState":{"key":"06","name":"Hessen"}},{"name":"Ulmenweg","postalCode":"36119","locality":"Neuhof","municipality":{"key":"06631018","name":"Neuhof","type":"Kreisangehörige_Gemeinde"},"district":{"key":"06631","name":"Fulda","type":"Landkreis"},"federalState":{"key":"06","name":"Hessen"}},{"name":"Ulmenweg","postalCode":"36145","locality":"Hofbieber","municipality":{"key":"06631013","name":"Hofbieber","type":"Kreisangehörige_Gemeinde"},"district":{"key":"06631","name":"Fulda","type":"Landkreis"},"federalState":{"key":"06","name":"Hessen"}},{"name":"Ulmenweg","postalCode":"51580","locality":"Reichshof","municipality":{"key":"05374040","name":"Reichshof","type":"Kreisangehörige_Gemeinde"},"district":{"key":"05374","name":"Oberbergischer Kreis","type":"Kreis"},"federalState":{"key":"05","name":"Nordrhein-Westfalen"}},{"name":"Ulmenweg","postalCode":"66894","locality":"Bechhofen","municipality":{"key":"07340203","name":"Bechhofen","type":"Kreisangehörige_Gemeinde"},"district":{"key":"07340","name":"Südwestpfalz","type":"Landkreis"},"federalState":{"key":"07","name":"Rheinland-Pfalz"}},{"name":"Ulmenweg","postalCode":"67117","locality":"Limburgerhof","municipality":{"key":"07338017","name":"Limburgerhof","type":"Kreisangehörige_Gemeinde"},"district":{"key":"07338","name":"Rhein-Pfalz-Kreis","type":"Landkreis"},"federalState":{"key":"07","name":"Rheinland-Pfalz"}},{"name":"Ulmenweg","postalCode":"67574","locality":"Osthofen","municipality":{"key":"07331055","name":"Osthofen, Stadt","type":"Stadt"},"district":{"key":"07331","name":"Alzey-Worms","type":"Landkreis"},"federalState":{"key":"07","name":"Rheinland-Pfalz"}},{"name":"Ulmenweg","postalCode":"73110","locality":"Hattenhofen","municipality":{"key":"08117029","name":"Hattenhofen","type":"Kreisangehörige_Gemeinde"},"district":{"key":"08117","name":"Göppingen","type":"Landkreis"},"federalState":{"key":"08","name":"Baden-Württemberg"}},{"name":"Ulmenweg","postalCode":"74532","locality":"Ilshofen","municipality":{"key":"08127043","name":"Ilshofen, Stadt","type":"Stadt"},"district":{"key":"08127","name":"Schwäbisch Hall","type":"Landkreis"},"federalState":{"key":"08","name":"Baden-Württemberg"}},{"name":"Ulmenweg","postalCode":"86368","locality":"Gersthofen","municipality":{"key":"09772147","name":"Gersthofen, St","type":"Stadt"},"district":{"key":"09772","name":"Augsburg","type":"Landkreis"},"federalState":{"key":"09","name":"Bayern"}},{"name":"Ulmenweg","postalCode":"86825","locality":"Bad Wörishofen","municipality":{"key":"09778116","name":"Bad Wörishofen, St","type":"Stadt"},"district":{"key":"09778","name":"Unterallgäu","type":"Landkreis"},"federalState":{"key":"09","name":"Bayern"}},{"name":"Ulmenweg","postalCode":"88433","locality":"Schemmerhofen","municipality":{"key":"08426134","name":"Schemmerhofen","type":"Kreisangehörige_Gemeinde"},"district":{"key":"08426","name":"Biberach","type":"Landkreis"},"federalState":{"key":"08","name":"Baden-Württemberg"}},{"name":"Ulmenweg","postalCode":"97320","locality":"Albertshofen","municipality":{"key":"09675112","name":"Albertshofen","type":"Kreisangehörige_Gemeinde"},"district":{"key":"09675","name":"Kitzingen","type":"Landkreis"},"federalState":{"key":"09","name":"Bayern"}},{"name":"Ulmenweg","postalCode":"97941","locality":"Tauberbischofsheim","municipality":{"key":"08128115","name":"Tauberbischofsheim, Stadt","type":"Stadt"},"district":{"key":"08128","name":"Main-Tauber-Kreis","type":"Landkreis"},"federalState":{"key":"08","name":"Baden-Württemberg"}},{"name":"Ulmer Str.","postalCode":"89284","locality":"Pfaffenhofen an der Roth","municipality":{"key":"09775143","name":"Pfaffenhofen a.d.Roth, M","type":"Markt"},"district":{"key":"09775","name":"Neu-Ulm","type":"Landkreis"},"federalState":{"key":"09","name":"Bayern"}},{"name":"Ulrichgasse","postalCode":"87448","locality":"Waltenhofen","municipality":{"key":"09780143","name":"Waltenhofen","type":"Kreisangehörige_Gemeinde"},"district":{"key":"09780","name":"Oberallgäu","type":"Landkreis"},"federalState":{"key":"09","name":"Bayern"}},{"name":"Ulrichsbergstr.","postalCode":"94486","locality":"Osterhofen","municipality":{"key":"09271141","name":"Osterhofen, St","type":"Stadt"},"district":{"key":"09271","name":"Deggendorf","type":"Landkreis"},"federalState":{"key":"09","name":"Bayern"}},{"name":"Ulrichsbrunnenweg","postalCode":"86825","locality":"Bad Wörishofen","municipality":{"key":"09778116","name":"Bad Wörishofen, St","type":"Stadt"},"district":{"key":"09778","name":"Unterallgäu","type":"Landkreis"},"federalState":{"key":"09","name":"Bayern"}},{"name":"Valentin-Arnold-Str.","postalCode":"97346","locality":"Iphofen","municipality":{"key":"09675139","name":"Iphofen, St","type":"Stadt"},"district":{"key":"09675","name":"Kitzingen","type":"Landkreis"},"federalState":{"key":"09","name":"Bayern"}},{"name":"Valesistr.","postalCode":"82285","locality":"Hattenhofen","municipality":{"key":"09179128","name":"Hattenhofen","type":"Kreisangehörige_Gemeinde"},"district":{"key":"09179","name":"Fürstenfeldbruck","type":"Landkreis"},"federalState":{"key":"09","name":"Bayern"}},{"name":"Veilchenstr.","postalCode":"88433","locality":"Schemmerhofen","municipality":{"key":"08426134","name":"Schemmerhofen","type":"Kreisangehörige_Gemeinde"},"district":{"key":"08426","name":"Biberach","type":"Landkreis"},"federalState":{"key":"08","name":"Baden-Württemberg"}},{"name":"Veilchenstr.","postalCode":"94486","locality":"Osterhofen","municipality":{"key":"09271141","name":"Osterhofen, St","type":"Stadt"},"district":{"key":"09271","name":"Deggendorf","type":"Landkreis"},"federalState":{"key":"09","name":"Bayern"}},{"name":"Veilchenweg","postalCode":"86368","locality":"Gersthofen","municipality":{"key":"09772147","name":"Gersthofen, St","type":"Stadt"},"district":{"key":"09772","name":"Augsburg","type":"Landkreis"},"federalState":{"key":"09","name":"Bayern"}},{"name":"Veitsberg","postalCode":"91807","locality":"Solnhofen","municipality":{"key":"09577168","name":"Solnhofen","type":"Kreisangehörige_Gemeinde"},"district":{"key":"09577","name":"Weißenburg-Gunzenhausen","type":"Landkreis"},"federalState":{"key":"09","name":"Bayern"}},{"name":"Veitskirch","postalCode":"91807","locality":"Solnhofen","municipality":{"key":"09577168","name":"Solnhofen","type":"Kreisangehörige_Gemeinde"},"district":{"key":"09577","name":"Weißenburg-Gunzenhausen","type":"Landkreis"},"federalState":{"key":"09","name":"Bayern"}},{"name":"Veitsmühle","postalCode":"97631","locality":"Bad Königshofen im Grabfeld","municipality":{"key":"09673141","name":"Bad Königshofen i.Grabfeld, St","type":"Stadt"},"district":{"key":"09673","name":"Rhön-Grabfeld","type":"Landkreis"},"federalState":{"key":"09","name":"Bayern"}},{"name":"Veit-Stoß-Str.","postalCode":"97941","locality":"Tauberbischofsheim","municipality":{"key":"08128115","name":"Tauberbischofsheim, Stadt","type":"Stadt"},"district":{"key":"08128","name":"Main-Tauber-Kreis","type":"Landkreis"},"federalState":{"key":"08","name":"Baden-Württemberg"}},{"name":"Veitstr.","postalCode":"97941","locality":"Tauberbischofsheim","municipality":{"key":"08128115","name":"Tauberbischofsheim, Stadt","type":"Stadt"},"district":{"key":"08128","name":"Main-Tauber-Kreis","type":"Landkreis"},"federalState":{"key":"08","name":"Baden-Württemberg"}},{"name":"Veit-vom-Berg-Str.","postalCode":"91466","locality":"Gerhardshofen","municipality":{"key":"09575125","name":"Gerhardshofen","type":"Kreisangehörige_Gemeinde"},"district":{"key":"09575","name":"Neustadt a.d.Aisch-Bad Windsheim","type":"Landkreis"},"federalState":{"key":"09","name":"Bayern"}},{"name":"Veldener Str.","postalCode":"84169","locality":"Altfraunhofen","municipality":{"key":"09274114","name":"Altfraunhofen","type":"Kreisangehörige_Gemeinde"},"district":{"key":"09274","name":"Landshut","type":"Landkreis"},"federalState":{"key":"09","name":"Bayern"}},{"name":"Veldener Str.","postalCode":"84181","locality":"Neufraunhofen","municipality":{"key":"09274154","name":"Neufraunhofen","type":"Kreisangehörige_Gemeinde"},"district":{"key":"09274","name":"Landshut","type":"Landkreis"},"federalState":{"key":"09","name":"Bayern"}},{"name":"Verbindungsforstweg","postalCode":"88167","locality":"Stiefenhofen","municipality":{"key":"09776127","name":"Stiefenhofen","type":"Kreisangehörige_Gemeinde"},"district":{"key":"09776","name":"Lindau (Bodensee)","type":"Landkreis"},"federalState":{"key":"09","name":"Bayern"}},{"name":"Verbindungsstr.","postalCode":"65719","locality":"Hofheim am Taunus","municipality":{"key":"06436007","name":"Hofheim am Taunus, Kreisstadt","type":"Stadt"},"district":{"key":"06436","name":"Main-Taunus-Kreis","type":"Landkreis"},"federalState":{"key":"06","name":"Hessen"}},{"name":"Verdistr.","postalCode":"86368","locality":"Gersthofen","municipality":{"key":"09772147","name":"Gersthofen, St","type":"Stadt"},"district":{"key":"09772","name":"Augsburg","type":"Landkreis"},"federalState":{"key":"09","name":"Bayern"}},{"name":"Verdistr.","postalCode":"93142","locality":"Maxhütte-Haidhof","municipality":{"key":"09376141","name":"Maxhütte-Haidhof, St","type":"Stadt"},"district":{"key":"09376","name":"Schwandorf","type":"Landkreis"},"federalState":{"key":"09","name":"Bayern"}},{"name":"Verdistr.","postalCode":"95030","locality":"Hof","municipality":{"key":"09464000","name":"Hof","type":"Kreisfreie_Stadt"},"district":{"key":"09464","name":"Hof","type":"Kreisfreie_Stadt"},"federalState":{"key":"09","name":"Bayern"}},{"name":"Verdyweg","postalCode":"65719","locality":"Hofheim am Taunus","municipality":{"key":"06436007","name":"Hofheim am Taunus, Kreisstadt","type":"Stadt"},"district":{"key":"06436","name":"Main-Taunus-Kreis","type":"Landkreis"},"federalState":{"key":"06","name":"Hessen"}},{"name":"Vereinshausweg","postalCode":"51580","locality":"Reichshof","municipality":{"key":"05374040","name":"Reichshof","type":"Kreisangehörige_Gemeinde"},"district":{"key":"05374","name":"Oberbergischer Kreis","type":"Kreis"},"federalState":{"key":"05","name":"Nordrhein-Westfalen"}},{"name":"Vereinsweg","postalCode":"04683","locality":"Naunhof","municipality":{"key":"14729300","name":"Naunhof, Stadt","type":"Stadt"},"district":{"key":"14729","name":"Leipzig","type":"Landkreis"},"federalState":{"key":"14","name":"Sachsen"}},{"name":"Viceburgstr.","postalCode":"95032","locality":"Hof","municipality":{"key":"09464000","name":"Hof","type":"Kreisfreie_Stadt"},"district":{"key":"09464","name":"Hof","type":"Kreisfreie_Stadt"},"federalState":{"key":"09","name":"Bayern"}},{"name":"Viehledenweg","postalCode":"01877","locality":"Bischofswerda","municipality":{"key":"14625040","name":"Bischofswerda, Stadt","type":"Stadt"},"district":{"key":"14625","name":"Bautzen","type":"Landkreis"},"federalState":{"key":"14","name":"Sachsen"}},{"name":"Viehweg","postalCode":"97653","locality":"Bischofsheim i.d.Rhön","municipality":{"key":"09673117","name":"Bischofsheim i.d.Rhön, St","type":"Stadt"},"district":{"key":"09673","name":"Rhön-Grabfeld","type":"Landkreis"},"federalState":{"key":"09","name":"Bayern"}},{"name":"Viehweide","postalCode":"04683","locality":"Naunhof","municipality":{"key":"14729300","name":"Naunhof, Stadt","type":"Stadt"},"district":{"key":"14729","name":"Leipzig","type":"Landkreis"},"federalState":{"key":"14","name":"Sachsen"}},{"name":"Viehweideweg","postalCode":"65719","locality":"Hofheim am Taunus","municipality":{"key":"06436007","name":"Hofheim am Taunus, Kreisstadt","type":"Stadt"},"district":{"key":"06436","name":"Main-Taunus-Kreis","type":"Landkreis"},"federalState":{"key":"06","name":"Hessen"}},{"name":"Viehweidweg","postalCode":"86825","locality":"Bad Wörishofen","municipality":{"key":"09778116","name":"Bad Wörishofen, St","type":"Stadt"},"district":{"key":"09778","name":"Unterallgäu","type":"Landkreis"},"federalState":{"key":"09","name":"Bayern"}},{"name":"Vierradweg","postalCode":"83483","locality":"Bischofswiesen","municipality":{"key":"09172117","name":"Bischofswiesen","type":"Kreisangehörige_Gemeinde"},"district":{"key":"09172","name":"Berchtesgadener Land","type":"Landkreis"},"federalState":{"key":"09","name":"Bayern"}},{"name":"Viktoriastr.","postalCode":"86825","locality":"Bad Wörishofen","municipality":{"key":"09778116","name":"Bad Wörishofen, St","type":"Stadt"},"district":{"key":"09778","name":"Unterallgäu","type":"Landkreis"},"federalState":{"key":"09","name":"Bayern"}},{"name":"Viktoriaweg","postalCode":"89284","locality":"Pfaffenhofen an der Roth","municipality":{"key":"09775143","name":"Pfaffenhofen a.d.Roth, M","type":"Markt"},"district":{"key":"09775","name":"Neu-Ulm","type":"Landkreis"},"federalState":{"key":"09","name":"Bayern"}},{"name":"Viktor-von-Scheffel-Str.","postalCode":"95032","locality":"Hof","municipality":{"key":"09464000","name":"Hof","type":"Kreisfreie_Stadt"},"district":{"key":"09464","name":"Hof","type":"Kreisfreie_Stadt"},"federalState":{"key":"09","name":"Bayern"}},{"name":"Vilchbander Str.","postalCode":"97922","locality":"Lauda-Königshofen","municipality":{"key":"08128139","name":"Lauda-Königshofen, Stadt","type":"Stadt"},"district":{"key":"08128","name":"Main-Tauber-Kreis","type":"Landkreis"},"federalState":{"key":"08","name":"Baden-Württemberg"}},{"name":"Vilgertshofer Str.","postalCode":"86946","locality":"Vilgertshofen","municipality":{"key":"09181133","name":"Vilgertshofen","type":"Kreisangehörige_Gemeinde"},"district":{"key":"09181","name":"Landsberg am Lech","type":"Landkreis"},"federalState":{"key":"09","name":"Bayern"}},{"name":"Villacher Str.","postalCode":"86825","locality":"Bad Wörishofen","municipality":{"key":"09778116","name":"Bad Wörishofen, St","type":"Stadt"},"district":{"key":"09778","name":"Unterallgäu","type":"Landkreis"},"federalState":{"key":"09","name":"Bayern"}},{"name":"Villeneuve-la-Garenne-Str.","postalCode":"95030","locality":"Hof","municipality":{"key":"09464000","name":"Hof","type":"Kreisfreie_Stadt"},"district":{"key":"09464","name":"Hof","type":"Kreisfreie_Stadt"},"federalState":{"key":"09","name":"Bayern"}},{"name":"Villenstr.","postalCode":"93142","locality":"Maxhütte-Haidhof","municipality":{"key":"09376141","name":"Maxhütte-Haidhof, St","type":"Stadt"},"district":{"key":"09376","name":"Schwandorf","type":"Landkreis"},"federalState":{"key":"09","name":"Bayern"}},{"name":"Vilsfeldstr.","postalCode":"94474","locality":"Vilshofen an der Donau","municipality":{"key":"09275154","name":"Vilshofen an der Donau, St","type":"Stadt"},"district":{"key":"09275","name":"Passau","type":"Landkreis"},"federalState":{"key":"09","name":"Bayern"}},{"name":"Vilshofener Str.","postalCode":"94474","locality":"Vilshofen an der Donau","municipality":{"key":"09275154","name":"Vilshofen an der Donau, St","type":"Stadt"},"district":{"key":"09275","name":"Passau","type":"Landkreis"},"federalState":{"key":"09","name":"Bayern"}},{"name":"Vilshofener Str.","postalCode":"94544","locality":"Hofkirchen","municipality":{"key":"09275127","name":"Hofkirchen, M","type":"Markt"},"district":{"key":"09275","name":"Passau","type":"Landkreis"},"federalState":{"key":"09","name":"Bayern"}},{"name":"Vilsstr.","postalCode":"94486","locality":"Osterhofen","municipality":{"key":"09271141","name":"Osterhofen, St","type":"Stadt"},"district":{"key":"09271","name":"Deggendorf","type":"Landkreis"},"federalState":{"key":"09","name":"Bayern"}},{"name":"Vilsvorstadt","postalCode":"94474","locality":"Vilshofen an der Donau","municipality":{"key":"09275154","name":"Vilshofen an der Donau, St","type":"Stadt"},"district":{"key":"09275","name":"Passau","type":"Landkreis"},"federalState":{"key":"09","name":"Bayern"}},{"name":"Vincenzstr.","postalCode":"65719","locality":"Hofheim am Taunus","municipality":{"key":"06436007","name":"Hofheim am Taunus, Kreisstadt","type":"Stadt"},"district":{"key":"06436","name":"Main-Taunus-Kreis","type":"Landkreis"},"federalState":{"key":"06","name":"Hessen"}},{"name":"Virchowstr.","postalCode":"93142","locality":"Maxhütte-Haidhof","municipality":{"key":"09376141","name":"Maxhütte-Haidhof, St","type":"Stadt"},"district":{"key":"09376","name":"Schwandorf","type":"Landkreis"},"federalState":{"key":"09","name":"Bayern"}},{"name":"Vischerstr.","postalCode":"67117","locality":"Limburgerhof","municipality":{"key":"07338017","name":"Limburgerhof","type":"Kreisangehörige_Gemeinde"},"district":{"key":"07338","name":"Rhein-Pfalz-Kreis","type":"Landkreis"},"federalState":{"key":"07","name":"Rheinland-Pfalz"}},{"name":"Vitryallee","postalCode":"97941","locality":"Tauberbischofsheim","municipality":{"key":"08128115","name":"Tauberbischofsheim, Stadt","type":"Stadt"},"district":{"key":"08128","name":"Main-Tauber-Kreis","type":"Landkreis"},"federalState":{"key":"08","name":"Baden-Württemberg"}},{"name":"Vogelgasse","postalCode":"97631","locality":"Bad Königshofen im Grabfeld","municipality":{"key":"09673141","name":"Bad Königshofen i.Grabfeld, St","type":"Stadt"},"district":{"key":"09673","name":"Rhön-Grabfeld","type":"Landkreis"},"federalState":{"key":"09","name":"Bayern"}},{"name":"Vogelhain","postalCode":"97922","locality":"Lauda-Königshofen","municipality":{"key":"08128139","name":"Lauda-Königshofen, Stadt","type":"Stadt"},"district":{"key":"08128","name":"Main-Tauber-Kreis","type":"Landkreis"},"federalState":{"key":"08","name":"Baden-Württemberg"}},{"name":"Vogelherder Str.","postalCode":"95030","locality":"Hof","municipality":{"key":"09464000","name":"Hof","type":"Kreisfreie_Stadt"},"district":{"key":"09464","name":"Hof","type":"Kreisfreie_Stadt"},"federalState":{"key":"09","name":"Bayern"}},{"name":"Vogelhuberstr.","postalCode":"91572","locality":"Bechhofen","municipality":{"key":"09571115","name":"Bechhofen, M","type":"Markt"},"district":{"key":"09571","name":"Ansbach","type":"Landkreis"},"federalState":{"key":"09","name":"Bayern"}},{"name":"Vogelkamp","postalCode":"51580","locality":"Reichshof","municipality":{"key":"05374040","name":"Reichshof","type":"Kreisangehörige_Gemeinde"},"district":{"key":"05374","name":"Oberbergischer Kreis","type":"Kreis"},"federalState":{"key":"05","name":"Nordrhein-Westfalen"}},{"name":"Waldstr.","postalCode":"95191","locality":"Leupoldsgrün","municipality":{"key":"09475145","name":"Leupoldsgrün","type":"Kreisangehörige_Gemeinde"},"district":{"key":"09475","name":"Hof","type":"Landkreis"},"federalState":{"key":"09","name":"Bayern"}},{"name":"Webersteig","postalCode":"95191","locality":"Leupoldsgrün","municipality":{"key":"09475145","name":"Leupoldsgrün","type":"Kreisangehörige_Gemeinde"},"district":{"key":"09475","name":"Hof","type":"Landkreis"},"federalState":{"key":"09","name":"Bayern"}},{"name":"Wiesenstr.","postalCode":"95191","locality":"Leupoldsgrün","municipality":{"key":"09475145","name":"Leupoldsgrün","type":"Kreisangehörige_Gemeinde"},"district":{"key":"09475","name":"Hof","type":"Landkreis"},"federalState":{"key":"09","name":"Bayern"}},{"name":"Winkel","postalCode":"95191","locality":"Leupoldsgrün","municipality":{"key":"09475145","name":"Leupoldsgrün","type":"Kreisangehörige_Gemeinde"},"district":{"key":"09475","name":"Hof","type":"Landkreis"},"federalState":{"key":"09","name":"Bayern"}},{"name":"Xaver-Hafner-Brücke","postalCode":"94330","locality":"Aiterhofen","municipality":{"key":"09278113","name":"Aiterhofen","type":"Kreisangehörige_Gemeinde"},"district":{"key":"09278","name":"Straubing-Bogen","type":"Landkreis"},"federalState":{"key":"09","name":"Bayern"}},{"name":"Xaver-Hartl-Str.","postalCode":"82281","locality":"Egenhofen","municipality":{"key":"09179117","name":"Egenhofen","type":"Kreisangehörige_Gemeinde"},"district":{"key":"09179","name":"Fürstenfeldbruck","type":"Landkreis"},"federalState":{"key":"09","name":"Bayern"}},{"name":"Xaveristr.","postalCode":"85084","locality":"Reichertshofen","municipality":{"key":"09186147","name":"Reichertshofen, M","type":"Markt"},"district":{"key":"09186","name":"Pfaffenhofen a.d.Ilm","type":"Landkreis"},"federalState":{"key":"09","name":"Bayern"}},{"name":"Yachthafen","postalCode":"18445","locality":"Kramerhof","municipality":{"key":"13073046","name":"Kramerhof","type":"Kreisangehörige_Gemeinde"},"district":{"key":"13073","name":"Vorpommern-Rügen","type":"Landkreis"},"federalState":{"key":"13","name":"Mecklenburg-Vorpommern"}},{"name":"Yorckstr.","postalCode":"95030","locality":"Hof","municipality":{"key":"09464000","name":"Hof","type":"Kreisfreie_Stadt"},"district":{"key":"09464","name":"Hof","type":"Kreisfreie_Stadt"},"federalState":{"key":"09","name":"Bayern"}},{"name":"Yves-Fily-Str.","postalCode":"87448","locality":"Waltenhofen","municipality":{"key":"09780143","name":"Waltenhofen","type":"Kreisangehörige_Gemeinde"},"district":{"key":"09780","name":"Oberallgäu","type":"Landkreis"},"federalState":{"key":"09","name":"Bayern"}},{"name":"Zaberfelder Str.","postalCode":"74397","locality":"Pfaffenhofen","municipality":{"key":"08125081","name":"Pfaffenhofen","type":"Kreisangehörige_Gemeinde"},"district":{"key":"08125","name":"Heilbronn","type":"Landkreis"},"federalState":{"key":"08","name":"Baden-Württemberg"}},{"name":"Zaberstr.","postalCode":"74397","locality":"Pfaffenhofen","municipality":{"key":"08125081","name":"Pfaffenhofen","type":"Kreisangehörige_Gemeinde"},"district":{"key":"08125","name":"Heilbronn","type":"Landkreis"},"federalState":{"key":"08","name":"Baden-Württemberg"}},{"name":"Zähringerstr.","postalCode":"97922","locality":"Lauda-Königshofen","municipality":{"key":"08128139","name":"Lauda-Königshofen, Stadt","type":"Stadt"},"district":{"key":"08128","name":"Main-Tauber-Kreis","type":"Landkreis"},"federalState":{"key":"08","name":"Baden-Württemberg"}},{"name":"Zähringerweg","postalCode":"97941","locality":"Tauberbischofsheim","municipality":{"key":"08128115","name":"Tauberbischofsheim, Stadt","type":"Stadt"},"district":{"key":"08128","name":"Main-Tauber-Kreis","type":"Landkreis"},"federalState":{"key":"08","name":"Baden-Württemberg"}},{"name":"Zainschmiedeweg","postalCode":"87527","locality":"Sonthofen","municipality":{"key":"09780139","name":"Sonthofen, St","type":"Stadt"},"district":{"key":"09780","name":"Oberallgäu","type":"Landkreis"},"federalState":{"key":"09","name":"Bayern"}},{"name":"Zange","postalCode":"99826","locality":"Bischofroda","municipality":{"key":"16063008","name":"Bischofroda","type":"Kreisangehörige_Gemeinde"},"district":{"key":"16063","name":"Wartburgkreis","type":"Landkreis"},"federalState":{"key":"16","name":"Thüringen"}},{"name":"Zanggasse","postalCode":"65719","locality":"Hofheim am Taunus","municipality":{"key":"06436007","name":"Hofheim am Taunus, Kreisstadt","type":"Stadt"},"district":{"key":"06436","name":"Main-Taunus-Kreis","type":"Landkreis"},"federalState":{"key":"06","name":"Hessen"}},{"name":"Zaundorf","postalCode":"94544","locality":"Hofkirchen","municipality":{"key":"09275127","name":"Hofkirchen, M","type":"Markt"},"district":{"key":"09275","name":"Passau","type":"Landkreis"},"federalState":{"key":"09","name":"Bayern"}},{"name":"Zaunkönigweg","postalCode":"51580","locality":"Reichshof","municipality":{"key":"05374040","name":"Reichshof","type":"Kreisangehörige_Gemeinde"},"district":{"key":"05374","name":"Oberbergischer Kreis","type":"Kreis"},"federalState":{"key":"05","name":"Nordrhein-Westfalen"}},{"name":"Zaunkönigweg","postalCode":"65719","locality":"Hofheim am Taunus","municipality":{"key":"06436007","name":"Hofheim am Taunus, Kreisstadt","type":"Stadt"},"district":{"key":"06436","name":"Main-Taunus-Kreis","type":"Landkreis"},"federalState":{"key":"06","name":"Hessen"}},{"name":"Zedernweg","postalCode":"51580","locality":"Reichshof","municipality":{"key":"05374040","name":"Reichshof","type":"Kreisangehörige_Gemeinde"},"district":{"key":"05374","name":"Oberbergischer Kreis","type":"Kreis"},"federalState":{"key":"05","name":"Nordrhein-Westfalen"}},{"name":"Zedtwitzer Str.","postalCode":"95030","locality":"Hof","municipality":{"key":"09464000","name":"Hof","type":"Kreisfreie_Stadt"},"district":{"key":"09464","name":"Hof","type":"Kreisfreie_Stadt"},"federalState":{"key":"09","name":"Bayern"}},{"name":"Zehentstadelweg","postalCode":"89284","locality":"Pfaffenhofen an der Roth","municipality":{"key":"09775143","name":"Pfaffenhofen a.d.Roth, M","type":"Markt"},"district":{"key":"09775","name":"Neu-Ulm","type":"Landkreis"},"federalState":{"key":"09","name":"Bayern"}},{"name":"Zehntfreistr.","postalCode":"97941","locality":"Tauberbischofsheim","municipality":{"key":"08128115","name":"Tauberbischofsheim, Stadt","type":"Stadt"},"district":{"key":"08128","name":"Main-Tauber-Kreis","type":"Landkreis"},"federalState":{"key":"08","name":"Baden-Württemberg"}},{"name":"Zehntgasse","postalCode":"97922","locality":"Lauda-Königshofen","municipality":{"key":"08128139","name":"Lauda-Königshofen, Stadt","type":"Stadt"},"district":{"key":"08128","name":"Main-Tauber-Kreis","type":"Landkreis"},"federalState":{"key":"08","name":"Baden-Württemberg"}},{"name":"Zehntgasse","postalCode":"97941","locality":"Tauberbischofsheim","municipality":{"key":"08128115","name":"Tauberbischofsheim, Stadt","type":"Stadt"},"district":{"key":"08128","name":"Main-Tauber-Kreis","type":"Landkreis"},"federalState":{"key":"08","name":"Baden-Württemberg"}},{"name":"Zehnthof","postalCode":"67574","locality":"Osthofen","municipality":{"key":"07331055","name":"Osthofen, Stadt","type":"Stadt"},"district":{"key":"07331","name":"Alzey-Worms","type":"Landkreis"},"federalState":{"key":"07","name":"Rheinland-Pfalz"}},{"name":"Zehnthofstr.","postalCode":"97253","locality":"Gaukönigshofen","municipality":{"key":"09679134","name":"Gaukönigshofen","type":"Kreisangehörige_Gemeinde"},"district":{"key":"09679","name":"Würzburg","type":"Landkreis"},"federalState":{"key":"09","name":"Bayern"}},{"name":"Zehntscheune","postalCode":"97258","locality":"Gollhofen","municipality":{"key":"09575127","name":"Gollhofen","type":"Kreisangehörige_Gemeinde"},"district":{"key":"09575","name":"Neustadt a.d.Aisch-Bad Windsheim","type":"Landkreis"},"federalState":{"key":"09","name":"Bayern"}},{"name":"Zehntstr.","postalCode":"97631","locality":"Bad Königshofen im Grabfeld","municipality":{"key":"09673141","name":"Bad Königshofen i.Grabfeld, St","type":"Stadt"},"district":{"key":"09673","name":"Rhön-Grabfeld","type":"Landkreis"},"federalState":{"key":"09","name":"Bayern"}},{"name":"Zehntweg","postalCode":"79802","locality":"Dettighofen","municipality":{"key":"08337030","name":"Dettighofen","type":"Kreisangehörige_Gemeinde"},"district":{"key":"08337","name":"Waldshut","type":"Landkreis"},"federalState":{"key":"08","name":"Baden-Württemberg"}},{"name":"Zeidelweide","postalCode":"91054","locality":"Buckenhof","municipality":{"key":"09572120","name":"Buckenhof","type":"Kreisangehörige_Gemeinde"},"district":{"key":"09572","name":"Erlangen-Höchstadt","type":"Landkreis"},"federalState":{"key":"09","name":"Bayern"}},{"name":"Zeil","postalCode":"65719","locality":"Hofheim am Taunus","municipality":{"key":"06436007","name":"Hofheim am Taunus, Kreisstadt","type":"Stadt"},"district":{"key":"06436","name":"Main-Taunus-Kreis","type":"Landkreis"},"federalState":{"key":"06","name":"Hessen"}},{"name":"Zeilerstr.","postalCode":"56341","locality":"Kamp-Bornhofen","municipality":{"key":"07141066","name":"Kamp-Bornhofen","type":"Kreisangehörige_Gemeinde"},"district":{"key":"07141","name":"Rhein-Lahn-Kreis","type":"Landkreis"},"federalState":{"key":"07","name":"Rheinland-Pfalz"}},{"name":"Zeilsheimer Str.","postalCode":"65719","locality":"Hofheim am Taunus","municipality":{"key":"06436007","name":"Hofheim am Taunus, Kreisstadt","type":"Stadt"},"district":{"key":"06436","name":"Main-Taunus-Kreis","type":"Landkreis"},"federalState":{"key":"06","name":"Hessen"}},{"name":"Zeiltorstr.","postalCode":"74397","locality":"Pfaffenhofen","municipality":{"key":"08125081","name":"Pfaffenhofen","type":"Kreisangehörige_Gemeinde"},"district":{"key":"08125","name":"Heilbronn","type":"Landkreis"},"federalState":{"key":"08","name":"Baden-Württemberg"}},{"name":"Zeilweg","postalCode":"97653","locality":"Bischofsheim i.d.Rhön","municipality":{"key":"09673117","name":"Bischofsheim i.d.Rhön, St","type":"Stadt"},"district":{"key":"09673","name":"Rhön-Grabfeld","type":"Landkreis"},"federalState":{"key":"09","name":"Bayern"}},{"name":"Zeisenweg","postalCode":"86928","locality":"Hofstetten","municipality":{"key":"09181124","name":"Hofstetten","type":"Kreisangehörige_Gemeinde"},"district":{"key":"09181","name":"Landsberg am Lech","type":"Landkreis"},"federalState":{"key":"09","name":"Bayern"}},{"name":"Zeisigweg","postalCode":"51580","locality":"Reichshof","municipality":{"key":"05374040","name":"Reichshof","type":"Kreisangehörige_Gemeinde"},"district":{"key":"05374","name":"Oberbergischer Kreis","type":"Kreis"},"federalState":{"key":"05","name":"Nordrhein-Westfalen"}},{"name":"Zeisigweg","postalCode":"65719","locality":"Hofheim am Taunus","municipality":{"key":"06436007","name":"Hofheim am Taunus, Kreisstadt","type":"Stadt"},"district":{"key":"06436","name":"Main-Taunus-Kreis","type":"Landkreis"},"federalState":{"key":"06","name":"Hessen"}},{"name":"Zeisigweg","postalCode":"74532","locality":"Ilshofen","municipality":{"key":"08127043","name":"Ilshofen, Stadt","type":"Stadt"},"district":{"key":"08127","name":"Schwäbisch Hall","type":"Landkreis"},"federalState":{"key":"08","name":"Baden-Württemberg"}},{"name":"Zeisigweg","postalCode":"88433","locality":"Schemmerhofen","municipality":{"key":"08426134","name":"Schemmerhofen","type":"Kreisangehörige_Gemeinde"},"district":{"key":"08426","name":"Biberach","type":"Landkreis"},"federalState":{"key":"08","name":"Baden-Württemberg"}},{"name":"Zeisigweg","postalCode":"91466","locality":"Gerhardshofen","municipality":{"key":"09575125","name":"Gerhardshofen","type":"Kreisangehörige_Gemeinde"},"district":{"key":"09575","name":"Neustadt a.d.Aisch-Bad Windsheim","type":"Landkreis"},"federalState":{"key":"09","name":"Bayern"}},{"name":"Zeisigweg","postalCode":"95030","locality":"Hof","municipality":{"key":"09464000","name":"Hof","type":"Kreisfreie_Stadt"},"district":{"key":"09464","name":"Hof","type":"Kreisfreie_Stadt"},"federalState":{"key":"09","name":"Bayern"}},{"name":"Zeitlarner Str.","postalCode":"94474","locality":"Vilshofen an der Donau","municipality":{"key":"09275154","name":"Vilshofen an der Donau, St","type":"Stadt"},"district":{"key":"09275","name":"Passau","type":"Landkreis"},"federalState":{"key":"09","name":"Bayern"}},{"name":"Zellaer Str.","postalCode":"98559","locality":"Oberhof","municipality":{"key":"16066047","name":"Oberhof, Stadt","type":"Stadt"},"district":{"key":"16066","name":"Schmalkalden-Meiningen","type":"Landkreis"},"federalState":{"key":"16","name":"Thüringen"}},{"name":"Zellen","postalCode":"87448","locality":"Waltenhofen","municipality":{"key":"09780143","name":"Waltenhofen","type":"Kreisangehörige_Gemeinde"},"district":{"key":"09780","name":"Oberallgäu","type":"Landkreis"},"federalState":{"key":"09","name":"Bayern"}},{"name":"Zellerstr.","postalCode":"86368","locality":"Gersthofen","municipality":{"key":"09772147","name":"Gersthofen, St","type":"Stadt"},"district":{"key":"09772","name":"Augsburg","type":"Landkreis"},"federalState":{"key":"09","name":"Bayern"}},{"name":"Zeller Str.","postalCode":"73110","locality":"Hattenhofen","municipality":{"key":"08117029","name":"Hattenhofen","type":"Kreisangehörige_Gemeinde"},"district":{"key":"08117","name":"Göppingen","type":"Landkreis"},"federalState":{"key":"08","name":"Baden-Württemberg"}},{"name":"Zellertstr.","postalCode":"36119","locality":"Neuhof","municipality":{"key":"06631018","name":"Neuhof","type":"Kreisangehörige_Gemeinde"},"district":{"key":"06631","name":"Fulda","type":"Landkreis"},"federalState":{"key":"06","name":"Hessen"}},{"name":"Zellweg","postalCode":"92447","locality":"Schwarzhofen","municipality":{"key":"09376164","name":"Schwarzhofen, M","type":"Markt"},"district":{"key":"09376","name":"Schwandorf","type":"Landkreis"},"federalState":{"key":"09","name":"Bayern"}},{"name":"Zemmerer Str.","postalCode":"54298","locality":"Orenhofen","municipality":{"key":"07232289","name":"Orenhofen","type":"Kreisangehörige_Gemeinde"},"district":{"key":"07232","name":"Eifelkreis Bitburg-Prüm","type":"Landkreis"},"federalState":{"key":"07","name":"Rheinland-Pfalz"}},{"name":"Zengerweg","postalCode":"92447","locality":"Schwarzhofen","municipality":{"key":"09376164","name":"Schwarzhofen, M","type":"Markt"},"district":{"key":"09376","name":"Schwandorf","type":"Landkreis"},"federalState":{"key":"09","name":"Bayern"}},{"name":"Zentweg","postalCode":"97653","locality":"Bischofsheim i.d.Rhön","municipality":{"key":"09673117","name":"Bischofsheim i.d.Rhön, St","type":"Stadt"},"district":{"key":"09673","name":"Rhön-Grabfeld","type":"Landkreis"},"federalState":{"key":"09","name":"Bayern"}},{"name":"Zeppelinstr.","postalCode":"86825","locality":"Bad Wörishofen","municipality":{"key":"09778116","name":"Bad Wörishofen, St","type":"Stadt"},"district":{"key":"09778","name":"Unterallgäu","type":"Landkreis"},"federalState":{"key":"09","name":"Bayern"}},{"name":"Zeppelinstr.","postalCode":"89284","locality":"Pfaffenhofen an der Roth","municipality":{"key":"09775143","name":"Pfaffenhofen a.d.Roth, M","type":"Markt"},"district":{"key":"09775","name":"Neu-Ulm","type":"Landkreis"},"federalState":{"key":"09","name":"Bayern"}},{"name":"Zeppelinstr.","postalCode":"95030","locality":"Hof","municipality":{"key":"09464000","name":"Hof","type":"Kreisfreie_Stadt"},"district":{"key":"09464","name":"Hof","type":"Kreisfreie_Stadt"},"federalState":{"key":"09","name":"Bayern"}},{"name":"Zeppelinstr.","postalCode":"95032","locality":"Hof","municipality":{"key":"09464000","name":"Hof","type":"Kreisfreie_Stadt"},"district":{"key":"09464","name":"Hof","type":"Kreisfreie_Stadt"},"federalState":{"key":"09","name":"Bayern"}},{"name":"Zeppelinweg","postalCode":"67117","locality":"Limburgerhof","municipality":{"key":"07338017","name":"Limburgerhof","type":"Kreisangehörige_Gemeinde"},"district":{"key":"07338","name":"Rhein-Pfalz-Kreis","type":"Landkreis"},"federalState":{"key":"07","name":"Rheinland-Pfalz"}},{"name":"Zettlerstr.","postalCode":"87448","locality":"Waltenhofen","municipality":{"key":"09780143","name":"Waltenhofen","type":"Kreisangehörige_Gemeinde"},"district":{"key":"09780","name":"Oberallgäu","type":"Landkreis"},"federalState":{"key":"09","name":"Bayern"}},{"name":"Äußere Bayreuther Str.","postalCode":"95030","locality":"Hof","municipality":{"key":"09464000","name":"Hof","type":"Kreisfreie_Stadt"},"district":{"key":"09464","name":"Hof","type":"Kreisfreie_Stadt"},"federalState":{"key":"09","name":"Bayern"}},{"name":"Äußere Bayreuther Str.","postalCode":"95032","locality":"Hof","municipality":{"key":"09464000","name":"Hof","type":"Kreisfreie_Stadt"},"district":{"key":"09464","name":"Hof","type":"Kreisfreie_Stadt"},"federalState":{"key":"09","name":"Bayern"}},{"name":"Äußere Gasse","postalCode":"97461","locality":"Hofheim in Unterfranken","municipality":{"key":"09674149","name":"Hofheim i.UFr., St","type":"Stadt"},"district":{"key":"09674","name":"Haßberge","type":"Landkreis"},"federalState":{"key":"09","name":"Bayern"}},{"name":"Äußere Moosburger Str.","postalCode":"85276","locality":"Pfaffenhofen an der Ilm","municipality":{"key":"09186143","name":"Pfaffenhofen a.d.Ilm, St","type":"Stadt"},"district":{"key":"09186","name":"Pfaffenhofen a.d.Ilm","type":"Landkreis"},"federalState":{"key":"09","name":"Bayern"}},{"name":"Äußere Quellengasse","postalCode":"85276","locality":"Pfaffenhofen an der Ilm","municipality":{"key":"09186143","name":"Pfaffenhofen a.d.Ilm, St","type":"Stadt"},"district":{"key":"09186","name":"Pfaffenhofen a.d.Ilm","type":"Landkreis"},"federalState":{"key":"09","name":"Bayern"}},{"name":"Äußeres Eschle","postalCode":"87674","locality":"Ruderatshofen","municipality":{"key":"09777167","name":"Ruderatshofen","type":"Kreisangehörige_Gemeinde"},"district":{"key":"09777","name":"Ostallgäu","type":"Landkreis"},"federalState":{"key":"09","name":"Bayern"}},{"name":"Öchenbach","postalCode":"36145","locality":"Hofbieber","municipality":{"key":"06631013","name":"Hofbieber","type":"Kreisangehörige_Gemeinde"},"district":{"key":"06631","name":"Fulda","type":"Landkreis"},"federalState":{"key":"06","name":"Hessen"}},{"name":"Ödenwaldstr.","postalCode":"88433","locality":"Schemmerhofen","municipality":{"key":"08426134","name":"Schemmerhofen","type":"Kreisangehörige_Gemeinde"},"district":{"key":"08426","name":"Biberach","type":"Landkreis"},"federalState":{"key":"08","name":"Baden-Württemberg"}},{"name":"Ölbergstr.","postalCode":"97922","locality":"Lauda-Königshofen","municipality":{"key":"08128139","name":"Lauda-Königshofen, Stadt","type":"Stadt"},"district":{"key":"08128","name":"Main-Tauber-Kreis","type":"Landkreis"},"federalState":{"key":"08","name":"Baden-Württemberg"}},{"name":"Ölmühlenweg","postalCode":"33161","locality":"Hövelhof","municipality":{"key":"05774024","name":"Hövelhof, Sennegemeinde","type":"Kreisangehörige_Gemeinde"},"district":{"key":"05774","name":"Paderborn","type":"Kreis"},"federalState":{"key":"05","name":"Nordrhein-Westfalen"}},{"name":"Ölmühleweg","postalCode":"88433","locality":"Schemmerhofen","municipality":{"key":"08426134","name":"Schemmerhofen","type":"Kreisangehörige_Gemeinde"},"district":{"key":"08426","name":"Biberach","type":"Landkreis"},"federalState":{"key":"08","name":"Baden-Württemberg"}},{"name":"Ölmützer Weg","postalCode":"86368","locality":"Gersthofen","municipality":{"key":"09772147","name":"Gersthofen, St","type":"Stadt"},"district":{"key":"09772","name":"Augsburg","type":"Landkreis"},"federalState":{"key":"09","name":"Bayern"}},{"name":"Österreichstr.","postalCode":"85084","locality":"Reichertshofen","municipality":{"key":"09186147","name":"Reichertshofen, M","type":"Markt"},"district":{"key":"09186","name":"Pfaffenhofen a.d.Ilm","type":"Landkreis"},"federalState":{"key":"09","name":"Bayern"}},{"name":"Östliche Allee","postalCode":"97447","locality":"Gerolzhofen","municipality":{"key":"09678134","name":"Gerolzhofen, St","type":"Stadt"},"district":{"key":"09678","name":"Schweinfurt","type":"Landkreis"},"federalState":{"key":"09","name":"Bayern"}},{"name":"Östliche Alpenstr.","postalCode":"87527","locality":"Sonthofen","municipality":{"key":"09780139","name":"Sonthofen, St","type":"Stadt"},"district":{"key":"09780","name":"Oberallgäu","type":"Landkreis"},"federalState":{"key":"09","name":"Bayern"}},{"name":"Östlicher Birkenweg","postalCode":"86643","locality":"Rennertshofen","municipality":{"key":"09185153","name":"Rennertshofen, M","type":"Markt"},"district":{"key":"09185","name":"Neuburg-Schrobenhausen","type":"Landkreis"},"federalState":{"key":"09","name":"Bayern"}},{"name":"Öttnergasse","postalCode":"97461","locality":"Hofheim in Unterfranken","municipality":{"key":"09674149","name":"Hofheim i.UFr., St","type":"Stadt"},"district":{"key":"09674","name":"Haßberge","type":"Landkreis"},"federalState":{"key":"09","name":"Bayern"}},{"name":"Über den Höfen","postalCode":"34369","locality":"Hofgeismar","municipality":{"key":"06633013","name":"Hofgeismar, Stadt","type":"Stadt"},"district":{"key":"06633","name":"Kassel","type":"Landkreis"},"federalState":{"key":"06","name":"Hessen"}},{"name":"Überlinger Str.","postalCode":"88690","locality":"Uhldingen-Mühlhofen","municipality":{"key":"08435066","name":"Uhldingen-Mühlhofen","type":"Kreisangehörige_Gemeinde"},"district":{"key":"08435","name":"Bodenseekreis","type":"Landkreis"},"federalState":{"key":"08","name":"Baden-Württemberg"}},{"name":"ÜF PFA21 Reichertshofen","postalCode":"85084","locality":"Reichertshofen","municipality":{"key":"09186147","name":"Reichertshofen, M","type":"Markt"},"district":{"key":"09186","name":"Pfaffenhofen a.d.Ilm","type":"Landkreis"},"federalState":{"key":"09","name":"Bayern"}},]