[{"name":"Am Kirchgarten","postalCode":"54429","locality":"Schillingen","municipality":{"key":"07235119","name":"Schillingen","type":"Kreisangehörige_Gemeinde"},"district":{"key":"07235","name":"Trier-Saarburg","type":"Landkreis"},"federalState":{"key":"07","name":"Rheinland-Pfalz"}},{"name":"Auf dem Hüttenberg","postalCode":"54429","locality":"Schillingen","municipality":{"key":"07235119","name":"Schillingen","type":"Kreisangehörige_Gemeinde"},"district":{"key":"07235","name":"Trier-Saarburg","type":"Landkreis"},"federalState":{"key":"07","name":"Rheinland-Pfalz"}},{"name":"Bahnhofstr.","postalCode":"54429","locality":"Schillingen","municipality":{"key":"07235119","name":"Schillingen","type":"Kreisangehörige_Gemeinde"},"district":{"key":"07235","name":"Trier-Saarburg","type":"Landkreis"},"federalState":{"key":"07","name":"Rheinland-Pfalz"}},{"name":"Bergstr.","postalCode":"54429","locality":"Schillingen","municipality":{"key":"07235119","name":"Schillingen","type":"Kreisangehörige_Gemeinde"},"district":{"key":"07235","name":"Trier-Saarburg","type":"Landkreis"},"federalState":{"key":"07","name":"Rheinland-Pfalz"}},{"name":"Blumenstr.","postalCode":"54429","locality":"Schillingen","municipality":{"key":"07235119","name":"Schillingen","type":"Kreisangehörige_Gemeinde"},"district":{"key":"07235","name":"Trier-Saarburg","type":"Landkreis"},"federalState":{"key":"07","name":"Rheinland-Pfalz"}},{"name":"Bohrbergstr.","postalCode":"54429","locality":"Schillingen","municipality":{"key":"07235119","name":"Schillingen","type":"Kreisangehörige_Gemeinde"},"district":{"key":"07235","name":"Trier-Saarburg","type":"Landkreis"},"federalState":{"key":"07","name":"Rheinland-Pfalz"}},{"name":"Brunnenstr.","postalCode":"54429","locality":"Schillingen","municipality":{"key":"07235119","name":"Schillingen","type":"Kreisangehörige_Gemeinde"},"district":{"key":"07235","name":"Trier-Saarburg","type":"Landkreis"},"federalState":{"key":"07","name":"Rheinland-Pfalz"}},{"name":"Fahrstr.","postalCode":"54429","locality":"Schillingen","municipality":{"key":"07235119","name":"Schillingen","type":"Kreisangehörige_Gemeinde"},"district":{"key":"07235","name":"Trier-Saarburg","type":"Landkreis"},"federalState":{"key":"07","name":"Rheinland-Pfalz"}},{"name":"Feldstr.","postalCode":"54429","locality":"Schillingen","municipality":{"key":"07235119","name":"Schillingen","type":"Kreisangehörige_Gemeinde"},"district":{"key":"07235","name":"Trier-Saarburg","type":"Landkreis"},"federalState":{"key":"07","name":"Rheinland-Pfalz"}},{"name":"Frankenstr.","postalCode":"54429","locality":"Schillingen","municipality":{"key":"07235119","name":"Schillingen","type":"Kreisangehörige_Gemeinde"},"district":{"key":"07235","name":"Trier-Saarburg","type":"Landkreis"},"federalState":{"key":"07","name":"Rheinland-Pfalz"}},{"name":"Gartenstr.","postalCode":"54429","locality":"Schillingen","municipality":{"key":"07235119","name":"Schillingen","type":"Kreisangehörige_Gemeinde"},"district":{"key":"07235","name":"Trier-Saarburg","type":"Landkreis"},"federalState":{"key":"07","name":"Rheinland-Pfalz"}},{"name":"Hinter der Burg","postalCode":"54429","locality":"Schillingen","municipality":{"key":"07235119","name":"Schillingen","type":"Kreisangehörige_Gemeinde"},"district":{"key":"07235","name":"Trier-Saarburg","type":"Landkreis"},"federalState":{"key":"07","name":"Rheinland-Pfalz"}},{"name":"Hirtenweg","postalCode":"54429","locality":"Schillingen","municipality":{"key":"07235119","name":"Schillingen","type":"Kreisangehörige_Gemeinde"},"district":{"key":"07235","name":"Trier-Saarburg","type":"Landkreis"},"federalState":{"key":"07","name":"Rheinland-Pfalz"}},{"name":"Hochstr.","postalCode":"54429","locality":"Schillingen","municipality":{"key":"07235119","name":"Schillingen","type":"Kreisangehörige_Gemeinde"},"district":{"key":"07235","name":"Trier-Saarburg","type":"Landkreis"},"federalState":{"key":"07","name":"Rheinland-Pfalz"}},{"name":"Hochwaldstr.","postalCode":"54429","locality":"Schillingen","municipality":{"key":"07235119","name":"Schillingen","type":"Kreisangehörige_Gemeinde"},"district":{"key":"07235","name":"Trier-Saarburg","type":"Landkreis"},"federalState":{"key":"07","name":"Rheinland-Pfalz"}},{"name":"Hohlweg","postalCode":"54429","locality":"Schillingen","municipality":{"key":"07235119","name":"Schillingen","type":"Kreisangehörige_Gemeinde"},"district":{"key":"07235","name":"Trier-Saarburg","type":"Landkreis"},"federalState":{"key":"07","name":"Rheinland-Pfalz"}},{"name":"Im Kandel","postalCode":"54429","locality":"Schillingen","municipality":{"key":"07235119","name":"Schillingen","type":"Kreisangehörige_Gemeinde"},"district":{"key":"07235","name":"Trier-Saarburg","type":"Landkreis"},"federalState":{"key":"07","name":"Rheinland-Pfalz"}},{"name":"Im Käswieschen","postalCode":"54429","locality":"Schillingen","municipality":{"key":"07235119","name":"Schillingen","type":"Kreisangehörige_Gemeinde"},"district":{"key":"07235","name":"Trier-Saarburg","type":"Landkreis"},"federalState":{"key":"07","name":"Rheinland-Pfalz"}},{"name":"Im Lehmkäulchen","postalCode":"54429","locality":"Schillingen","municipality":{"key":"07235119","name":"Schillingen","type":"Kreisangehörige_Gemeinde"},"district":{"key":"07235","name":"Trier-Saarburg","type":"Landkreis"},"federalState":{"key":"07","name":"Rheinland-Pfalz"}},{"name":"Im Lichtmeßgarten","postalCode":"54429","locality":"Schillingen","municipality":{"key":"07235119","name":"Schillingen","type":"Kreisangehörige_Gemeinde"},"district":{"key":"07235","name":"Trier-Saarburg","type":"Landkreis"},"federalState":{"key":"07","name":"Rheinland-Pfalz"}},{"name":"In der Bahr","postalCode":"54429","locality":"Schillingen","municipality":{"key":"07235119","name":"Schillingen","type":"Kreisangehörige_Gemeinde"},"district":{"key":"07235","name":"Trier-Saarburg","type":"Landkreis"},"federalState":{"key":"07","name":"Rheinland-Pfalz"}},{"name":"In der Neef","postalCode":"54429","locality":"Schillingen","municipality":{"key":"07235119","name":"Schillingen","type":"Kreisangehörige_Gemeinde"},"district":{"key":"07235","name":"Trier-Saarburg","type":"Landkreis"},"federalState":{"key":"07","name":"Rheinland-Pfalz"}},{"name":"In der Treef","postalCode":"54429","locality":"Schillingen","municipality":{"key":"07235119","name":"Schillingen","type":"Kreisangehörige_Gemeinde"},"district":{"key":"07235","name":"Trier-Saarburg","type":"Landkreis"},"federalState":{"key":"07","name":"Rheinland-Pfalz"}},{"name":"Marscheiderweg","postalCode":"54429","locality":"Schillingen","municipality":{"key":"07235119","name":"Schillingen","type":"Kreisangehörige_Gemeinde"},"district":{"key":"07235","name":"Trier-Saarburg","type":"Landkreis"},"federalState":{"key":"07","name":"Rheinland-Pfalz"}},{"name":"Moorwiese","postalCode":"54429","locality":"Schillingen","municipality":{"key":"07235119","name":"Schillingen","type":"Kreisangehörige_Gemeinde"},"district":{"key":"07235","name":"Trier-Saarburg","type":"Landkreis"},"federalState":{"key":"07","name":"Rheinland-Pfalz"}},{"name":"Mühlenweg","postalCode":"54429","locality":"Schillingen","municipality":{"key":"07235119","name":"Schillingen","type":"Kreisangehörige_Gemeinde"},"district":{"key":"07235","name":"Trier-Saarburg","type":"Landkreis"},"federalState":{"key":"07","name":"Rheinland-Pfalz"}},{"name":"Neustr.","postalCode":"54429","locality":"Schillingen","municipality":{"key":"07235119","name":"Schillingen","type":"Kreisangehörige_Gemeinde"},"district":{"key":"07235","name":"Trier-Saarburg","type":"Landkreis"},"federalState":{"key":"07","name":"Rheinland-Pfalz"}},{"name":"Parkstr.","postalCode":"54429","locality":"Schillingen","municipality":{"key":"07235119","name":"Schillingen","type":"Kreisangehörige_Gemeinde"},"district":{"key":"07235","name":"Trier-Saarburg","type":"Landkreis"},"federalState":{"key":"07","name":"Rheinland-Pfalz"}},{"name":"Reichertsgasse","postalCode":"54429","locality":"Schillingen","municipality":{"key":"07235119","name":"Schillingen","type":"Kreisangehörige_Gemeinde"},"district":{"key":"07235","name":"Trier-Saarburg","type":"Landkreis"},"federalState":{"key":"07","name":"Rheinland-Pfalz"}},{"name":"Schulstr.","postalCode":"54429","locality":"Schillingen","municipality":{"key":"07235119","name":"Schillingen","type":"Kreisangehörige_Gemeinde"},"district":{"key":"07235","name":"Trier-Saarburg","type":"Landkreis"},"federalState":{"key":"07","name":"Rheinland-Pfalz"}},{"name":"Sittischstr.","postalCode":"54429","locality":"Schillingen","municipality":{"key":"07235119","name":"Schillingen","type":"Kreisangehörige_Gemeinde"},"district":{"key":"07235","name":"Trier-Saarburg","type":"Landkreis"},"federalState":{"key":"07","name":"Rheinland-Pfalz"}},{"name":"St.-Albanus-Str.","postalCode":"54429","locality":"Schillingen","municipality":{"key":"07235119","name":"Schillingen","type":"Kreisangehörige_Gemeinde"},"district":{"key":"07235","name":"Trier-Saarburg","type":"Landkreis"},"federalState":{"key":"07","name":"Rheinland-Pfalz"}},{"name":"Talstr.","postalCode":"54429","locality":"Schillingen","municipality":{"key":"07235119","name":"Schillingen","type":"Kreisangehörige_Gemeinde"},"district":{"key":"07235","name":"Trier-Saarburg","type":"Landkreis"},"federalState":{"key":"07","name":"Rheinland-Pfalz"}},{"name":"Trierer Str.","postalCode":"54429","locality":"Schillingen","municipality":{"key":"07235119","name":"Schillingen","type":"Kreisangehörige_Gemeinde"},"district":{"key":"07235","name":"Trier-Saarburg","type":"Landkreis"},"federalState":{"key":"07","name":"Rheinland-Pfalz"}},{"name":"Weidegarten","postalCode":"54429","locality":"Schillingen","municipality":{"key":"07235119","name":"Schillingen","type":"Kreisangehörige_Gemeinde"},"district":{"key":"07235","name":"Trier-Saarburg","type":"Landkreis"},"federalState":{"key":"07","name":"Rheinland-Pfalz"}},{"name":"Wiesenstr.","postalCode":"54429","locality":"Schillingen","municipality":{"key":"07235119","name":"Schillingen","type":"Kreisangehörige_Gemeinde"},"district":{"key":"07235","name":"Trier-Saarburg","type":"Landkreis"},"federalState":{"key":"07","name":"Rheinland-Pfalz"}},{"name":"Winkelstr.","postalCode":"54429","locality":"Schillingen","municipality":{"key":"07235119","name":"Schillingen","type":"Kreisangehörige_Gemeinde"},"district":{"key":"07235","name":"Trier-Saarburg","type":"Landkreis"},"federalState":{"key":"07","name":"Rheinland-Pfalz"}},{"name":"Zum Wadelborn","postalCode":"54429","locality":"Schillingen","municipality":{"key":"07235119","name":"Schillingen","type":"Kreisangehörige_Gemeinde"},"district":{"key":"07235","name":"Trier-Saarburg","type":"Landkreis"},"federalState":{"key":"07","name":"Rheinland-Pfalz"}},{"name":"Zum Weiherdamm","postalCode":"54429","locality":"Schillingen","municipality":{"key":"07235119","name":"Schillingen","type":"Kreisangehörige_Gemeinde"},"district":{"key":"07235","name":"Trier-Saarburg","type":"Landkreis"},"federalState":{"key":"07","name":"Rheinland-Pfalz"}},]