[{"name":"Adebarweg","postalCode":"21394","locality":"Westergellersen","municipality":{"key":"03355041","name":"Westergellersen","type":"Kreisangehörige_Gemeinde"},"district":{"key":"03355","name":"Lüneburg","type":"Landkreis"},"federalState":{"key":"03","name":"Niedersachsen"}},{"name":"Amselweg","postalCode":"21394","locality":"Westergellersen","municipality":{"key":"03355041","name":"Westergellersen","type":"Kreisangehörige_Gemeinde"},"district":{"key":"03355","name":"Lüneburg","type":"Landkreis"},"federalState":{"key":"03","name":"Niedersachsen"}},{"name":"An der Hahnbünte","postalCode":"21394","locality":"Westergellersen","municipality":{"key":"03355041","name":"Westergellersen","type":"Kreisangehörige_Gemeinde"},"district":{"key":"03355","name":"Lüneburg","type":"Landkreis"},"federalState":{"key":"03","name":"Niedersachsen"}},{"name":"Basse-Saane-Tal","postalCode":"21394","locality":"Westergellersen","municipality":{"key":"03355041","name":"Westergellersen","type":"Kreisangehörige_Gemeinde"},"district":{"key":"03355","name":"Lüneburg","type":"Landkreis"},"federalState":{"key":"03","name":"Niedersachsen"}},{"name":"Beeres Hang","postalCode":"21394","locality":"Westergellersen","municipality":{"key":"03355041","name":"Westergellersen","type":"Kreisangehörige_Gemeinde"},"district":{"key":"03355","name":"Lüneburg","type":"Landkreis"},"federalState":{"key":"03","name":"Niedersachsen"}},{"name":"Bollweg","postalCode":"21394","locality":"Westergellersen","municipality":{"key":"03355041","name":"Westergellersen","type":"Kreisangehörige_Gemeinde"},"district":{"key":"03355","name":"Lüneburg","type":"Landkreis"},"federalState":{"key":"03","name":"Niedersachsen"}},{"name":"Bosselweg","postalCode":"21394","locality":"Westergellersen","municipality":{"key":"03355041","name":"Westergellersen","type":"Kreisangehörige_Gemeinde"},"district":{"key":"03355","name":"Lüneburg","type":"Landkreis"},"federalState":{"key":"03","name":"Niedersachsen"}},{"name":"Carl-Friedrich-Goerdeler-Str.","postalCode":"21337","locality":"Lüneburg","municipality":{"key":"03355022","name":"Lüneburg, Hansestadt","type":"Stadt"},"district":{"key":"03355","name":"Lüneburg","type":"Landkreis"},"federalState":{"key":"03","name":"Niedersachsen"}},{"name":"Carl-Gottlieb-Scharff-Str.","postalCode":"21337","locality":"Lüneburg","municipality":{"key":"03355022","name":"Lüneburg, Hansestadt","type":"Stadt"},"district":{"key":"03355","name":"Lüneburg","type":"Landkreis"},"federalState":{"key":"03","name":"Niedersachsen"}},{"name":"Carl-von-Ossietzky-Str.","postalCode":"21335","locality":"Lüneburg","municipality":{"key":"03355022","name":"Lüneburg, Hansestadt","type":"Stadt"},"district":{"key":"03355","name":"Lüneburg","type":"Landkreis"},"federalState":{"key":"03","name":"Niedersachsen"}},{"name":"Chamissostr.","postalCode":"21337","locality":"Lüneburg","municipality":{"key":"03355022","name":"Lüneburg, Hansestadt","type":"Stadt"},"district":{"key":"03355","name":"Lüneburg","type":"Landkreis"},"federalState":{"key":"03","name":"Niedersachsen"}},{"name":"Charlotte-Huhn-Str.","postalCode":"21339","locality":"Lüneburg","municipality":{"key":"03355022","name":"Lüneburg, Hansestadt","type":"Stadt"},"district":{"key":"03355","name":"Lüneburg","type":"Landkreis"},"federalState":{"key":"03","name":"Niedersachsen"}},{"name":"Christel-Rebbin-Str.","postalCode":"21337","locality":"Lüneburg","municipality":{"key":"03355022","name":"Lüneburg, Hansestadt","type":"Stadt"},"district":{"key":"03355","name":"Lüneburg","type":"Landkreis"},"federalState":{"key":"03","name":"Niedersachsen"}},{"name":"Christian-Herbst-Str.","postalCode":"21339","locality":"Lüneburg","municipality":{"key":"03355022","name":"Lüneburg, Hansestadt","type":"Stadt"},"district":{"key":"03355","name":"Lüneburg","type":"Landkreis"},"federalState":{"key":"03","name":"Niedersachsen"}},{"name":"Christianiweg","postalCode":"21339","locality":"Lüneburg","municipality":{"key":"03355022","name":"Lüneburg, Hansestadt","type":"Stadt"},"district":{"key":"03355","name":"Lüneburg","type":"Landkreis"},"federalState":{"key":"03","name":"Niedersachsen"}},{"name":"Christian-Lindemann-Str.","postalCode":"21335","locality":"Lüneburg","municipality":{"key":"03355022","name":"Lüneburg, Hansestadt","type":"Stadt"},"district":{"key":"03355","name":"Lüneburg","type":"Landkreis"},"federalState":{"key":"03","name":"Niedersachsen"}},{"name":"Clamart-Park","postalCode":"21335","locality":"Lüneburg","municipality":{"key":"03355022","name":"Lüneburg, Hansestadt","type":"Stadt"},"district":{"key":"03355","name":"Lüneburg","type":"Landkreis"},"federalState":{"key":"03","name":"Niedersachsen"}},{"name":"Claudiusweg","postalCode":"21337","locality":"Lüneburg","municipality":{"key":"03355022","name":"Lüneburg, Hansestadt","type":"Stadt"},"district":{"key":"03355","name":"Lüneburg","type":"Landkreis"},"federalState":{"key":"03","name":"Niedersachsen"}},{"name":"Conventstr.","postalCode":"21335","locality":"Lüneburg","municipality":{"key":"03355022","name":"Lüneburg, Hansestadt","type":"Stadt"},"district":{"key":"03355","name":"Lüneburg","type":"Landkreis"},"federalState":{"key":"03","name":"Niedersachsen"}},{"name":"Curiostr.","postalCode":"21339","locality":"Lüneburg","municipality":{"key":"03355022","name":"Lüneburg, Hansestadt","type":"Stadt"},"district":{"key":"03355","name":"Lüneburg","type":"Landkreis"},"federalState":{"key":"03","name":"Niedersachsen"}},{"name":"Das Eckersfeld","postalCode":"21394","locality":"Westergellersen","municipality":{"key":"03355041","name":"Westergellersen","type":"Kreisangehörige_Gemeinde"},"district":{"key":"03355","name":"Lüneburg","type":"Landkreis"},"federalState":{"key":"03","name":"Niedersachsen"}},{"name":"Das Ortfeld","postalCode":"21394","locality":"Westergellersen","municipality":{"key":"03355041","name":"Westergellersen","type":"Kreisangehörige_Gemeinde"},"district":{"key":"03355","name":"Lüneburg","type":"Landkreis"},"federalState":{"key":"03","name":"Niedersachsen"}},{"name":"Das Rote Feld","postalCode":"21394","locality":"Westergellersen","municipality":{"key":"03355041","name":"Westergellersen","type":"Kreisangehörige_Gemeinde"},"district":{"key":"03355","name":"Lüneburg","type":"Landkreis"},"federalState":{"key":"03","name":"Niedersachsen"}},{"name":"Der Vorrahn","postalCode":"21394","locality":"Westergellersen","municipality":{"key":"03355041","name":"Westergellersen","type":"Kreisangehörige_Gemeinde"},"district":{"key":"03355","name":"Lüneburg","type":"Landkreis"},"federalState":{"key":"03","name":"Niedersachsen"}},{"name":"Die Twiete","postalCode":"21394","locality":"Westergellersen","municipality":{"key":"03355041","name":"Westergellersen","type":"Kreisangehörige_Gemeinde"},"district":{"key":"03355","name":"Lüneburg","type":"Landkreis"},"federalState":{"key":"03","name":"Niedersachsen"}},{"name":"Drosselweg","postalCode":"21394","locality":"Westergellersen","municipality":{"key":"03355041","name":"Westergellersen","type":"Kreisangehörige_Gemeinde"},"district":{"key":"03355","name":"Lüneburg","type":"Landkreis"},"federalState":{"key":"03","name":"Niedersachsen"}},{"name":"Einemhofer Weg","postalCode":"21394","locality":"Westergellersen","municipality":{"key":"03355041","name":"Westergellersen","type":"Kreisangehörige_Gemeinde"},"district":{"key":"03355","name":"Lüneburg","type":"Landkreis"},"federalState":{"key":"03","name":"Niedersachsen"}},{"name":"Fasanenweg","postalCode":"21394","locality":"Westergellersen","municipality":{"key":"03355041","name":"Westergellersen","type":"Kreisangehörige_Gemeinde"},"district":{"key":"03355","name":"Lüneburg","type":"Landkreis"},"federalState":{"key":"03","name":"Niedersachsen"}},{"name":"Finkenweg","postalCode":"21394","locality":"Westergellersen","municipality":{"key":"03355041","name":"Westergellersen","type":"Kreisangehörige_Gemeinde"},"district":{"key":"03355","name":"Lüneburg","type":"Landkreis"},"federalState":{"key":"03","name":"Niedersachsen"}},{"name":"Garlopstr.","postalCode":"21335","locality":"Lüneburg","municipality":{"key":"03355022","name":"Lüneburg, Hansestadt","type":"Stadt"},"district":{"key":"03355","name":"Lüneburg","type":"Landkreis"},"federalState":{"key":"03","name":"Niedersachsen"}},{"name":"Gartenweg","postalCode":"21335","locality":"Lüneburg","municipality":{"key":"03355022","name":"Lüneburg, Hansestadt","type":"Stadt"},"district":{"key":"03355","name":"Lüneburg","type":"Landkreis"},"federalState":{"key":"03","name":"Niedersachsen"}},{"name":"Gaußstr.","postalCode":"21335","locality":"Lüneburg","municipality":{"key":"03355022","name":"Lüneburg, Hansestadt","type":"Stadt"},"district":{"key":"03355","name":"Lüneburg","type":"Landkreis"},"federalState":{"key":"03","name":"Niedersachsen"}},{"name":"Gebhardiweg","postalCode":"21339","locality":"Lüneburg","municipality":{"key":"03355022","name":"Lüneburg, Hansestadt","type":"Stadt"},"district":{"key":"03355","name":"Lüneburg","type":"Landkreis"},"federalState":{"key":"03","name":"Niedersachsen"}},{"name":"Gebrüder-Heyn-Str.","postalCode":"21337","locality":"Lüneburg","municipality":{"key":"03355022","name":"Lüneburg, Hansestadt","type":"Stadt"},"district":{"key":"03355","name":"Lüneburg","type":"Landkreis"},"federalState":{"key":"03","name":"Niedersachsen"}},{"name":"Gebrüder-Loewe-Str.","postalCode":"21337","locality":"Lüneburg","municipality":{"key":"03355022","name":"Lüneburg, Hansestadt","type":"Stadt"},"district":{"key":"03355","name":"Lüneburg","type":"Landkreis"},"federalState":{"key":"03","name":"Niedersachsen"}},{"name":"Geibelweg","postalCode":"21337","locality":"Lüneburg","municipality":{"key":"03355022","name":"Lüneburg, Hansestadt","type":"Stadt"},"district":{"key":"03355","name":"Lüneburg","type":"Landkreis"},"federalState":{"key":"03","name":"Niedersachsen"}},{"name":"Gellersstr.","postalCode":"21337","locality":"Lüneburg","municipality":{"key":"03355022","name":"Lüneburg, Hansestadt","type":"Stadt"},"district":{"key":"03355","name":"Lüneburg","type":"Landkreis"},"federalState":{"key":"03","name":"Niedersachsen"}},{"name":"Georg-Böhm-Str.","postalCode":"21337","locality":"Lüneburg","municipality":{"key":"03355022","name":"Lüneburg, Hansestadt","type":"Stadt"},"district":{"key":"03355","name":"Lüneburg","type":"Landkreis"},"federalState":{"key":"03","name":"Niedersachsen"}},{"name":"Georg-König-Str.","postalCode":"21335","locality":"Lüneburg","municipality":{"key":"03355022","name":"Lüneburg, Hansestadt","type":"Stadt"},"district":{"key":"03355","name":"Lüneburg","type":"Landkreis"},"federalState":{"key":"03","name":"Niedersachsen"}},{"name":"Georg-Leppien-Str.","postalCode":"21337","locality":"Lüneburg","municipality":{"key":"03355022","name":"Lüneburg, Hansestadt","type":"Stadt"},"district":{"key":"03355","name":"Lüneburg","type":"Landkreis"},"federalState":{"key":"03","name":"Niedersachsen"}},{"name":"Gerberstr.","postalCode":"21335","locality":"Lüneburg","municipality":{"key":"03355022","name":"Lüneburg, Hansestadt","type":"Stadt"},"district":{"key":"03355","name":"Lüneburg","type":"Landkreis"},"federalState":{"key":"03","name":"Niedersachsen"}},{"name":"Gerhart-Hauptmann-Str.","postalCode":"21337","locality":"Lüneburg","municipality":{"key":"03355022","name":"Lüneburg, Hansestadt","type":"Stadt"},"district":{"key":"03355","name":"Lüneburg","type":"Landkreis"},"federalState":{"key":"03","name":"Niedersachsen"}},{"name":"Gerstenkamp","postalCode":"21335","locality":"Lüneburg","municipality":{"key":"03355022","name":"Lüneburg, Hansestadt","type":"Stadt"},"district":{"key":"03355","name":"Lüneburg","type":"Landkreis"},"federalState":{"key":"03","name":"Niedersachsen"}},{"name":"Ginsterweg","postalCode":"21335","locality":"Lüneburg","municipality":{"key":"03355022","name":"Lüneburg, Hansestadt","type":"Stadt"},"district":{"key":"03355","name":"Lüneburg","type":"Landkreis"},"federalState":{"key":"03","name":"Niedersachsen"}},{"name":"Gladiolenweg","postalCode":"21339","locality":"Lüneburg","municipality":{"key":"03355022","name":"Lüneburg, Hansestadt","type":"Stadt"},"district":{"key":"03355","name":"Lüneburg","type":"Landkreis"},"federalState":{"key":"03","name":"Niedersachsen"}},{"name":"Gleiwitzer Str.","postalCode":"21337","locality":"Lüneburg","municipality":{"key":"03355022","name":"Lüneburg, Hansestadt","type":"Stadt"},"district":{"key":"03355","name":"Lüneburg","type":"Landkreis"},"federalState":{"key":"03","name":"Niedersachsen"}},{"name":"Glogauer Str.","postalCode":"21337","locality":"Lüneburg","municipality":{"key":"03355022","name":"Lüneburg, Hansestadt","type":"Stadt"},"district":{"key":"03355","name":"Lüneburg","type":"Landkreis"},"federalState":{"key":"03","name":"Niedersachsen"}},{"name":"Gneisenaustr.","postalCode":"21335","locality":"Lüneburg","municipality":{"key":"03355022","name":"Lüneburg, Hansestadt","type":"Stadt"},"district":{"key":"03355","name":"Lüneburg","type":"Landkreis"},"federalState":{"key":"03","name":"Niedersachsen"}},{"name":"Goebelstr.","postalCode":"21339","locality":"Lüneburg","municipality":{"key":"03355022","name":"Lüneburg, Hansestadt","type":"Stadt"},"district":{"key":"03355","name":"Lüneburg","type":"Landkreis"},"federalState":{"key":"03","name":"Niedersachsen"}},{"name":"Goethestr.","postalCode":"21335","locality":"Lüneburg","municipality":{"key":"03355022","name":"Lüneburg, Hansestadt","type":"Stadt"},"district":{"key":"03355","name":"Lüneburg","type":"Landkreis"},"federalState":{"key":"03","name":"Niedersachsen"}},{"name":"Gorch-Fock-Str.","postalCode":"21337","locality":"Lüneburg","municipality":{"key":"03355022","name":"Lüneburg, Hansestadt","type":"Stadt"},"district":{"key":"03355","name":"Lüneburg","type":"Landkreis"},"federalState":{"key":"03","name":"Niedersachsen"}},{"name":"Görgesstr.","postalCode":"21335","locality":"Lüneburg","municipality":{"key":"03355022","name":"Lüneburg, Hansestadt","type":"Stadt"},"district":{"key":"03355","name":"Lüneburg","type":"Landkreis"},"federalState":{"key":"03","name":"Niedersachsen"}},{"name":"Görlitzer Str.","postalCode":"21337","locality":"Lüneburg","municipality":{"key":"03355022","name":"Lüneburg, Hansestadt","type":"Stadt"},"district":{"key":"03355","name":"Lüneburg","type":"Landkreis"},"federalState":{"key":"03","name":"Niedersachsen"}},{"name":"Goseburg","postalCode":"21339","locality":"Lüneburg","municipality":{"key":"03355022","name":"Lüneburg, Hansestadt","type":"Stadt"},"district":{"key":"03355","name":"Lüneburg","type":"Landkreis"},"federalState":{"key":"03","name":"Niedersachsen"}},{"name":"Goseburgstr.","postalCode":"21339","locality":"Lüneburg","municipality":{"key":"03355022","name":"Lüneburg, Hansestadt","type":"Stadt"},"district":{"key":"03355","name":"Lüneburg","type":"Landkreis"},"federalState":{"key":"03","name":"Niedersachsen"}},{"name":"Gottfried-Keller-Str.","postalCode":"21337","locality":"Lüneburg","municipality":{"key":"03355022","name":"Lüneburg, Hansestadt","type":"Stadt"},"district":{"key":"03355","name":"Lüneburg","type":"Landkreis"},"federalState":{"key":"03","name":"Niedersachsen"}},{"name":"Göxer Weg","postalCode":"21337","locality":"Lüneburg","municipality":{"key":"03355022","name":"Lüneburg, Hansestadt","type":"Stadt"},"district":{"key":"03355","name":"Lüneburg","type":"Landkreis"},"federalState":{"key":"03","name":"Niedersachsen"}},{"name":"Grabenweg","postalCode":"21339","locality":"Lüneburg","municipality":{"key":"03355022","name":"Lüneburg, Hansestadt","type":"Stadt"},"district":{"key":"03355","name":"Lüneburg","type":"Landkreis"},"federalState":{"key":"03","name":"Niedersachsen"}},{"name":"Grabower Str.","postalCode":"21339","locality":"Lüneburg","municipality":{"key":"03355022","name":"Lüneburg, Hansestadt","type":"Stadt"},"district":{"key":"03355","name":"Lüneburg","type":"Landkreis"},"federalState":{"key":"03","name":"Niedersachsen"}},{"name":"Graf-Schenk-von-Stauffenberg-Str.","postalCode":"21337","locality":"Lüneburg","municipality":{"key":"03355022","name":"Lüneburg, Hansestadt","type":"Stadt"},"district":{"key":"03355","name":"Lüneburg","type":"Landkreis"},"federalState":{"key":"03","name":"Niedersachsen"}},{"name":"Graf-von-Moltke-Str.","postalCode":"21337","locality":"Lüneburg","municipality":{"key":"03355022","name":"Lüneburg, Hansestadt","type":"Stadt"},"district":{"key":"03355","name":"Lüneburg","type":"Landkreis"},"federalState":{"key":"03","name":"Niedersachsen"}},{"name":"Grasweg","postalCode":"21339","locality":"Lüneburg","municipality":{"key":"03355022","name":"Lüneburg, Hansestadt","type":"Stadt"},"district":{"key":"03355","name":"Lüneburg","type":"Landkreis"},"federalState":{"key":"03","name":"Niedersachsen"}},{"name":"Graudenzer Str.","postalCode":"21337","locality":"Lüneburg","municipality":{"key":"03355022","name":"Lüneburg, Hansestadt","type":"Stadt"},"district":{"key":"03355","name":"Lüneburg","type":"Landkreis"},"federalState":{"key":"03","name":"Niedersachsen"}},{"name":"Gravenhorststr.","postalCode":"21335","locality":"Lüneburg","municipality":{"key":"03355022","name":"Lüneburg, Hansestadt","type":"Stadt"},"district":{"key":"03355","name":"Lüneburg","type":"Landkreis"},"federalState":{"key":"03","name":"Niedersachsen"}},{"name":"Greifswalder Str.","postalCode":"21339","locality":"Lüneburg","municipality":{"key":"03355022","name":"Lüneburg, Hansestadt","type":"Stadt"},"district":{"key":"03355","name":"Lüneburg","type":"Landkreis"},"federalState":{"key":"03","name":"Niedersachsen"}},{"name":"Grenzstr.","postalCode":"21337","locality":"Lüneburg","municipality":{"key":"03355022","name":"Lüneburg, Hansestadt","type":"Stadt"},"district":{"key":"03355","name":"Lüneburg","type":"Landkreis"},"federalState":{"key":"03","name":"Niedersachsen"}},{"name":"Großer Garten","postalCode":"21335","locality":"Lüneburg","municipality":{"key":"03355022","name":"Lüneburg, Hansestadt","type":"Stadt"},"district":{"key":"03355","name":"Lüneburg","type":"Landkreis"},"federalState":{"key":"03","name":"Niedersachsen"}},{"name":"Grünberger Str.","postalCode":"21337","locality":"Lüneburg","municipality":{"key":"03355022","name":"Lüneburg, Hansestadt","type":"Stadt"},"district":{"key":"03355","name":"Lüneburg","type":"Landkreis"},"federalState":{"key":"03","name":"Niedersachsen"}},{"name":"Grundweg","postalCode":"21335","locality":"Lüneburg","municipality":{"key":"03355022","name":"Lüneburg, Hansestadt","type":"Stadt"},"district":{"key":"03355","name":"Lüneburg","type":"Landkreis"},"federalState":{"key":"03","name":"Niedersachsen"}},{"name":"Grüner Brink","postalCode":"21337","locality":"Lüneburg","municipality":{"key":"03355022","name":"Lüneburg, Hansestadt","type":"Stadt"},"district":{"key":"03355","name":"Lüneburg","type":"Landkreis"},"federalState":{"key":"03","name":"Niedersachsen"}},{"name":"Grüner Weg","postalCode":"21339","locality":"Lüneburg","municipality":{"key":"03355022","name":"Lüneburg, Hansestadt","type":"Stadt"},"district":{"key":"03355","name":"Lüneburg","type":"Landkreis"},"federalState":{"key":"03","name":"Niedersachsen"}},{"name":"Guerickestr.","postalCode":"21337","locality":"Lüneburg","municipality":{"key":"03355022","name":"Lüneburg, Hansestadt","type":"Stadt"},"district":{"key":"03355","name":"Lüneburg","type":"Landkreis"},"federalState":{"key":"03","name":"Niedersachsen"}},{"name":"Gumbinner Str.","postalCode":"21337","locality":"Lüneburg","municipality":{"key":"03355022","name":"Lüneburg, Hansestadt","type":"Stadt"},"district":{"key":"03355","name":"Lüneburg","type":"Landkreis"},"federalState":{"key":"03","name":"Niedersachsen"}},{"name":"Gummastr.","postalCode":"21335","locality":"Lüneburg","municipality":{"key":"03355022","name":"Lüneburg, Hansestadt","type":"Stadt"},"district":{"key":"03355","name":"Lüneburg","type":"Landkreis"},"federalState":{"key":"03","name":"Niedersachsen"}},{"name":"Gungelsbrunnen","postalCode":"21339","locality":"Lüneburg","municipality":{"key":"03355022","name":"Lüneburg, Hansestadt","type":"Stadt"},"district":{"key":"03355","name":"Lüneburg","type":"Landkreis"},"federalState":{"key":"03","name":"Niedersachsen"}},{"name":"Gut Wienebüttel","postalCode":"21339","locality":"Lüneburg","municipality":{"key":"03355022","name":"Lüneburg, Hansestadt","type":"Stadt"},"district":{"key":"03355","name":"Lüneburg","type":"Landkreis"},"federalState":{"key":"03","name":"Niedersachsen"}},{"name":"Hambergsfeld","postalCode":"21394","locality":"Westergellersen","municipality":{"key":"03355041","name":"Westergellersen","type":"Kreisangehörige_Gemeinde"},"district":{"key":"03355","name":"Lüneburg","type":"Landkreis"},"federalState":{"key":"03","name":"Niedersachsen"}},{"name":"Haselmausweg","postalCode":"21394","locality":"Westergellersen","municipality":{"key":"03355041","name":"Westergellersen","type":"Kreisangehörige_Gemeinde"},"district":{"key":"03355","name":"Lüneburg","type":"Landkreis"},"federalState":{"key":"03","name":"Niedersachsen"}},{"name":"Hauptstr.","postalCode":"21394","locality":"Westergellersen","municipality":{"key":"03355041","name":"Westergellersen","type":"Kreisangehörige_Gemeinde"},"district":{"key":"03355","name":"Lüneburg","type":"Landkreis"},"federalState":{"key":"03","name":"Niedersachsen"}},{"name":"Hitzker","postalCode":"21394","locality":"Westergellersen","municipality":{"key":"03355041","name":"Westergellersen","type":"Kreisangehörige_Gemeinde"},"district":{"key":"03355","name":"Lüneburg","type":"Landkreis"},"federalState":{"key":"03","name":"Niedersachsen"}},{"name":"Im Alten Dorf","postalCode":"21394","locality":"Westergellersen","municipality":{"key":"03355041","name":"Westergellersen","type":"Kreisangehörige_Gemeinde"},"district":{"key":"03355","name":"Lüneburg","type":"Landkreis"},"federalState":{"key":"03","name":"Niedersachsen"}},{"name":"Im Sellhof","postalCode":"21394","locality":"Westergellersen","municipality":{"key":"03355041","name":"Westergellersen","type":"Kreisangehörige_Gemeinde"},"district":{"key":"03355","name":"Lüneburg","type":"Landkreis"},"federalState":{"key":"03","name":"Niedersachsen"}},{"name":"Im Wiesenfeld","postalCode":"21394","locality":"Westergellersen","municipality":{"key":"03355041","name":"Westergellersen","type":"Kreisangehörige_Gemeinde"},"district":{"key":"03355","name":"Lüneburg","type":"Landkreis"},"federalState":{"key":"03","name":"Niedersachsen"}},{"name":"Im Wittmer","postalCode":"21394","locality":"Westergellersen","municipality":{"key":"03355041","name":"Westergellersen","type":"Kreisangehörige_Gemeinde"},"district":{"key":"03355","name":"Lüneburg","type":"Landkreis"},"federalState":{"key":"03","name":"Niedersachsen"}},{"name":"In der Worth","postalCode":"21394","locality":"Westergellersen","municipality":{"key":"03355041","name":"Westergellersen","type":"Kreisangehörige_Gemeinde"},"district":{"key":"03355","name":"Lüneburg","type":"Landkreis"},"federalState":{"key":"03","name":"Niedersachsen"}},{"name":"Jägerstr.","postalCode":"21339","locality":"Lüneburg","municipality":{"key":"03355022","name":"Lüneburg, Hansestadt","type":"Stadt"},"district":{"key":"03355","name":"Lüneburg","type":"Landkreis"},"federalState":{"key":"03","name":"Niedersachsen"}},{"name":"Jakob-Kaiser-Str.","postalCode":"21337","locality":"Lüneburg","municipality":{"key":"03355022","name":"Lüneburg, Hansestadt","type":"Stadt"},"district":{"key":"03355","name":"Lüneburg","type":"Landkreis"},"federalState":{"key":"03","name":"Niedersachsen"}},{"name":"Jean-Leppien-Str.","postalCode":"21339","locality":"Lüneburg","municipality":{"key":"03355022","name":"Lüneburg, Hansestadt","type":"Stadt"},"district":{"key":"03355","name":"Lüneburg","type":"Landkreis"},"federalState":{"key":"03","name":"Niedersachsen"}},{"name":"Jens-Schreiber-Str.","postalCode":"21337","locality":"Lüneburg","municipality":{"key":"03355022","name":"Lüneburg, Hansestadt","type":"Stadt"},"district":{"key":"03355","name":"Lüneburg","type":"Landkreis"},"federalState":{"key":"03","name":"Niedersachsen"}},{"name":"Johanna-Kirchner-Str.","postalCode":"21337","locality":"Lüneburg","municipality":{"key":"03355022","name":"Lüneburg, Hansestadt","type":"Stadt"},"district":{"key":"03355","name":"Lüneburg","type":"Landkreis"},"federalState":{"key":"03","name":"Niedersachsen"}},{"name":"Johanna-Stegen-Str.","postalCode":"21339","locality":"Lüneburg","municipality":{"key":"03355022","name":"Lüneburg, Hansestadt","type":"Stadt"},"district":{"key":"03355","name":"Lüneburg","type":"Landkreis"},"federalState":{"key":"03","name":"Niedersachsen"}},{"name":"Johannes-Gutenberg-Str.","postalCode":"21337","locality":"Lüneburg","municipality":{"key":"03355022","name":"Lüneburg, Hansestadt","type":"Stadt"},"district":{"key":"03355","name":"Lüneburg","type":"Landkreis"},"federalState":{"key":"03","name":"Niedersachsen"}},{"name":"Johannisburger Str.","postalCode":"21337","locality":"Lüneburg","municipality":{"key":"03355022","name":"Lüneburg, Hansestadt","type":"Stadt"},"district":{"key":"03355","name":"Lüneburg","type":"Landkreis"},"federalState":{"key":"03","name":"Niedersachsen"}},{"name":"Johannisstr.","postalCode":"21335","locality":"Lüneburg","municipality":{"key":"03355022","name":"Lüneburg, Hansestadt","type":"Stadt"},"district":{"key":"03355","name":"Lüneburg","type":"Landkreis"},"federalState":{"key":"03","name":"Niedersachsen"}},{"name":"Johann-Sebastian-Bach-Platz","postalCode":"21335","locality":"Lüneburg","municipality":{"key":"03355022","name":"Lüneburg, Hansestadt","type":"Stadt"},"district":{"key":"03355","name":"Lüneburg","type":"Landkreis"},"federalState":{"key":"03","name":"Niedersachsen"}},{"name":"Julius-Leber-Str.","postalCode":"21337","locality":"Lüneburg","municipality":{"key":"03355022","name":"Lüneburg, Hansestadt","type":"Stadt"},"district":{"key":"03355","name":"Lüneburg","type":"Landkreis"},"federalState":{"key":"03","name":"Niedersachsen"}},{"name":"Julius-Wolff-Str.","postalCode":"21335","locality":"Lüneburg","municipality":{"key":"03355022","name":"Lüneburg, Hansestadt","type":"Stadt"},"district":{"key":"03355","name":"Lüneburg","type":"Landkreis"},"federalState":{"key":"03","name":"Niedersachsen"}},{"name":"Jürgen-Backhaus-Str.","postalCode":"21337","locality":"Lüneburg","municipality":{"key":"03355022","name":"Lüneburg, Hansestadt","type":"Stadt"},"district":{"key":"03355","name":"Lüneburg","type":"Landkreis"},"federalState":{"key":"03","name":"Niedersachsen"}},{"name":"Jüttkenmoor","postalCode":"21339","locality":"Lüneburg","municipality":{"key":"03355022","name":"Lüneburg, Hansestadt","type":"Stadt"},"district":{"key":"03355","name":"Lüneburg","type":"Landkreis"},"federalState":{"key":"03","name":"Niedersachsen"}},{"name":"Kasernenplatz","postalCode":"21394","locality":"Westergellersen","municipality":{"key":"03355041","name":"Westergellersen","type":"Kreisangehörige_Gemeinde"},"district":{"key":"03355","name":"Lüneburg","type":"Landkreis"},"federalState":{"key":"03","name":"Niedersachsen"}},{"name":"Kiebitzweg","postalCode":"21394","locality":"Westergellersen","municipality":{"key":"03355041","name":"Westergellersen","type":"Kreisangehörige_Gemeinde"},"district":{"key":"03355","name":"Lüneburg","type":"Landkreis"},"federalState":{"key":"03","name":"Niedersachsen"}},{"name":"Lerchenweg","postalCode":"21394","locality":"Westergellersen","municipality":{"key":"03355041","name":"Westergellersen","type":"Kreisangehörige_Gemeinde"},"district":{"key":"03355","name":"Lüneburg","type":"Landkreis"},"federalState":{"key":"03","name":"Niedersachsen"}},{"name":"Lönsweg","postalCode":"21394","locality":"Westergellersen","municipality":{"key":"03355041","name":"Westergellersen","type":"Kreisangehörige_Gemeinde"},"district":{"key":"03355","name":"Lüneburg","type":"Landkreis"},"federalState":{"key":"03","name":"Niedersachsen"}},{"name":"Lüneburger Str.","postalCode":"21394","locality":"Westergellersen","municipality":{"key":"03355041","name":"Westergellersen","type":"Kreisangehörige_Gemeinde"},"district":{"key":"03355","name":"Lüneburg","type":"Landkreis"},"federalState":{"key":"03","name":"Niedersachsen"}},{"name":"Mechterser Weg","postalCode":"21394","locality":"Westergellersen","municipality":{"key":"03355041","name":"Westergellersen","type":"Kreisangehörige_Gemeinde"},"district":{"key":"03355","name":"Lüneburg","type":"Landkreis"},"federalState":{"key":"03","name":"Niedersachsen"}},{"name":"Meisenweg","postalCode":"21394","locality":"Westergellersen","municipality":{"key":"03355041","name":"Westergellersen","type":"Kreisangehörige_Gemeinde"},"district":{"key":"03355","name":"Lüneburg","type":"Landkreis"},"federalState":{"key":"03","name":"Niedersachsen"}},{"name":"Müggendahlweg","postalCode":"21394","locality":"Westergellersen","municipality":{"key":"03355041","name":"Westergellersen","type":"Kreisangehörige_Gemeinde"},"district":{"key":"03355","name":"Lüneburg","type":"Landkreis"},"federalState":{"key":"03","name":"Niedersachsen"}},{"name":"Nachtigallenweg","postalCode":"21339","locality":"Lüneburg","municipality":{"key":"03355022","name":"Lüneburg, Hansestadt","type":"Stadt"},"district":{"key":"03355","name":"Lüneburg","type":"Landkreis"},"federalState":{"key":"03","name":"Niedersachsen"}},{"name":"Naruto-Str.","postalCode":"21339","locality":"Lüneburg","municipality":{"key":"03355022","name":"Lüneburg, Hansestadt","type":"Stadt"},"district":{"key":"03355","name":"Lüneburg","type":"Landkreis"},"federalState":{"key":"03","name":"Niedersachsen"}},{"name":"Narzissenweg","postalCode":"21339","locality":"Lüneburg","municipality":{"key":"03355022","name":"Lüneburg, Hansestadt","type":"Stadt"},"district":{"key":"03355","name":"Lüneburg","type":"Landkreis"},"federalState":{"key":"03","name":"Niedersachsen"}},{"name":"Nelkenweg","postalCode":"21339","locality":"Lüneburg","municipality":{"key":"03355022","name":"Lüneburg, Hansestadt","type":"Stadt"},"district":{"key":"03355","name":"Lüneburg","type":"Landkreis"},"federalState":{"key":"03","name":"Niedersachsen"}},{"name":"Nelly-Sachs-Str.","postalCode":"21335","locality":"Lüneburg","municipality":{"key":"03355022","name":"Lüneburg, Hansestadt","type":"Stadt"},"district":{"key":"03355","name":"Lüneburg","type":"Landkreis"},"federalState":{"key":"03","name":"Niedersachsen"}},{"name":"Neue Str.","postalCode":"21335","locality":"Lüneburg","municipality":{"key":"03355022","name":"Lüneburg, Hansestadt","type":"Stadt"},"district":{"key":"03355","name":"Lüneburg","type":"Landkreis"},"federalState":{"key":"03","name":"Niedersachsen"}},{"name":"Neue Sülze","postalCode":"21335","locality":"Lüneburg","municipality":{"key":"03355022","name":"Lüneburg, Hansestadt","type":"Stadt"},"district":{"key":"03355","name":"Lüneburg","type":"Landkreis"},"federalState":{"key":"03","name":"Niedersachsen"}},{"name":"Neuetorstr.","postalCode":"21335","locality":"Lüneburg","municipality":{"key":"03355022","name":"Lüneburg, Hansestadt","type":"Stadt"},"district":{"key":"03355","name":"Lüneburg","type":"Landkreis"},"federalState":{"key":"03","name":"Niedersachsen"}},{"name":"Neuetorstr.","postalCode":"21339","locality":"Lüneburg","municipality":{"key":"03355022","name":"Lüneburg, Hansestadt","type":"Stadt"},"district":{"key":"03355","name":"Lüneburg","type":"Landkreis"},"federalState":{"key":"03","name":"Niedersachsen"}},{"name":"Neu-Häcklingen","postalCode":"21335","locality":"Lüneburg","municipality":{"key":"03355022","name":"Lüneburg, Hansestadt","type":"Stadt"},"district":{"key":"03355","name":"Lüneburg","type":"Landkreis"},"federalState":{"key":"03","name":"Niedersachsen"}},{"name":"Neuhauser Str.","postalCode":"21339","locality":"Lüneburg","municipality":{"key":"03355022","name":"Lüneburg, Hansestadt","type":"Stadt"},"district":{"key":"03355","name":"Lüneburg","type":"Landkreis"},"federalState":{"key":"03","name":"Niedersachsen"}},{"name":"Niklas-Luhmann-Str.","postalCode":"21339","locality":"Lüneburg","municipality":{"key":"03355022","name":"Lüneburg, Hansestadt","type":"Stadt"},"district":{"key":"03355","name":"Lüneburg","type":"Landkreis"},"federalState":{"key":"03","name":"Niedersachsen"}},{"name":"Novalisstr.","postalCode":"21337","locality":"Lüneburg","municipality":{"key":"03355022","name":"Lüneburg, Hansestadt","type":"Stadt"},"district":{"key":"03355","name":"Lüneburg","type":"Landkreis"},"federalState":{"key":"03","name":"Niedersachsen"}},{"name":"Nutzfelder Weg","postalCode":"21337","locality":"Lüneburg","municipality":{"key":"03355022","name":"Lüneburg, Hansestadt","type":"Stadt"},"district":{"key":"03355","name":"Lüneburg","type":"Landkreis"},"federalState":{"key":"03","name":"Niedersachsen"}},{"name":"Obere Ohlingerstr.","postalCode":"21335","locality":"Lüneburg","municipality":{"key":"03355022","name":"Lüneburg, Hansestadt","type":"Stadt"},"district":{"key":"03355","name":"Lüneburg","type":"Landkreis"},"federalState":{"key":"03","name":"Niedersachsen"}},{"name":"Ochtmisser Kirchsteig","postalCode":"21339","locality":"Lüneburg","municipality":{"key":"03355022","name":"Lüneburg, Hansestadt","type":"Stadt"},"district":{"key":"03355","name":"Lüneburg","type":"Landkreis"},"federalState":{"key":"03","name":"Niedersachsen"}},{"name":"Ochtmisser Str.","postalCode":"21339","locality":"Lüneburg","municipality":{"key":"03355022","name":"Lüneburg, Hansestadt","type":"Stadt"},"district":{"key":"03355","name":"Lüneburg","type":"Landkreis"},"federalState":{"key":"03","name":"Niedersachsen"}},{"name":"Ochtmisser Weg","postalCode":"21339","locality":"Lüneburg","municipality":{"key":"03355022","name":"Lüneburg, Hansestadt","type":"Stadt"},"district":{"key":"03355","name":"Lüneburg","type":"Landkreis"},"federalState":{"key":"03","name":"Niedersachsen"}},{"name":"Oedemer Busch","postalCode":"21335","locality":"Lüneburg","municipality":{"key":"03355022","name":"Lüneburg, Hansestadt","type":"Stadt"},"district":{"key":"03355","name":"Lüneburg","type":"Landkreis"},"federalState":{"key":"03","name":"Niedersachsen"}},{"name":"Oedemer Weg","postalCode":"21335","locality":"Lüneburg","municipality":{"key":"03355022","name":"Lüneburg, Hansestadt","type":"Stadt"},"district":{"key":"03355","name":"Lüneburg","type":"Landkreis"},"federalState":{"key":"03","name":"Niedersachsen"}},{"name":"Olof-Palme-Hain","postalCode":"21337","locality":"Lüneburg","municipality":{"key":"03355022","name":"Lüneburg, Hansestadt","type":"Stadt"},"district":{"key":"03355","name":"Lüneburg","type":"Landkreis"},"federalState":{"key":"03","name":"Niedersachsen"}},{"name":"Olof-Palme-Str.","postalCode":"21337","locality":"Lüneburg","municipality":{"key":"03355022","name":"Lüneburg, Hansestadt","type":"Stadt"},"district":{"key":"03355","name":"Lüneburg","type":"Landkreis"},"federalState":{"key":"03","name":"Niedersachsen"}},{"name":"Oltrogge-Platz","postalCode":"21335","locality":"Lüneburg","municipality":{"key":"03355022","name":"Lüneburg, Hansestadt","type":"Stadt"},"district":{"key":"03355","name":"Lüneburg","type":"Landkreis"},"federalState":{"key":"03","name":"Niedersachsen"}},{"name":"Ortelsburger Str.","postalCode":"21337","locality":"Lüneburg","municipality":{"key":"03355022","name":"Lüneburg, Hansestadt","type":"Stadt"},"district":{"key":"03355","name":"Lüneburg","type":"Landkreis"},"federalState":{"key":"03","name":"Niedersachsen"}},{"name":"Osterfeld","postalCode":"21339","locality":"Lüneburg","municipality":{"key":"03355022","name":"Lüneburg, Hansestadt","type":"Stadt"},"district":{"key":"03355","name":"Lüneburg","type":"Landkreis"},"federalState":{"key":"03","name":"Niedersachsen"}},{"name":"Osterwiese","postalCode":"21335","locality":"Lüneburg","municipality":{"key":"03355022","name":"Lüneburg, Hansestadt","type":"Stadt"},"district":{"key":"03355","name":"Lüneburg","type":"Landkreis"},"federalState":{"key":"03","name":"Niedersachsen"}},{"name":"Ostlandring","postalCode":"21337","locality":"Lüneburg","municipality":{"key":"03355022","name":"Lüneburg, Hansestadt","type":"Stadt"},"district":{"key":"03355","name":"Lüneburg","type":"Landkreis"},"federalState":{"key":"03","name":"Niedersachsen"}},{"name":"Ostpreußenring","postalCode":"21339","locality":"Lüneburg","municipality":{"key":"03355022","name":"Lüneburg, Hansestadt","type":"Stadt"},"district":{"key":"03355","name":"Lüneburg","type":"Landkreis"},"federalState":{"key":"03","name":"Niedersachsen"}},{"name":"Otto-Brenner-Str.","postalCode":"21337","locality":"Lüneburg","municipality":{"key":"03355022","name":"Lüneburg, Hansestadt","type":"Stadt"},"district":{"key":"03355","name":"Lüneburg","type":"Landkreis"},"federalState":{"key":"03","name":"Niedersachsen"}},{"name":"Otto-Fuhrhop-Weg","postalCode":"21335","locality":"Lüneburg","municipality":{"key":"03355022","name":"Lüneburg, Hansestadt","type":"Stadt"},"district":{"key":"03355","name":"Lüneburg","type":"Landkreis"},"federalState":{"key":"03","name":"Niedersachsen"}},{"name":"Otto-Snell-Str.","postalCode":"21339","locality":"Lüneburg","municipality":{"key":"03355022","name":"Lüneburg, Hansestadt","type":"Stadt"},"district":{"key":"03355","name":"Lüneburg","type":"Landkreis"},"federalState":{"key":"03","name":"Niedersachsen"}},{"name":"Ovelgönner Weg","postalCode":"21335","locality":"Lüneburg","municipality":{"key":"03355022","name":"Lüneburg, Hansestadt","type":"Stadt"},"district":{"key":"03355","name":"Lüneburg","type":"Landkreis"},"federalState":{"key":"03","name":"Niedersachsen"}},{"name":"Pipendahlsfeld","postalCode":"21394","locality":"Westergellersen","municipality":{"key":"03355041","name":"Westergellersen","type":"Kreisangehörige_Gemeinde"},"district":{"key":"03355","name":"Lüneburg","type":"Landkreis"},"federalState":{"key":"03","name":"Niedersachsen"}},{"name":"Pirolweg","postalCode":"21394","locality":"Westergellersen","municipality":{"key":"03355041","name":"Westergellersen","type":"Kreisangehörige_Gemeinde"},"district":{"key":"03355","name":"Lüneburg","type":"Landkreis"},"federalState":{"key":"03","name":"Niedersachsen"}},{"name":"Quellenweg","postalCode":"21339","locality":"Lüneburg","municipality":{"key":"03355022","name":"Lüneburg, Hansestadt","type":"Stadt"},"district":{"key":"03355","name":"Lüneburg","type":"Landkreis"},"federalState":{"key":"03","name":"Niedersachsen"}},{"name":"Quickbaumweg","postalCode":"21339","locality":"Lüneburg","municipality":{"key":"03355022","name":"Lüneburg, Hansestadt","type":"Stadt"},"district":{"key":"03355","name":"Lüneburg","type":"Landkreis"},"federalState":{"key":"03","name":"Niedersachsen"}},{"name":"Reiner Wißmann-Weg","postalCode":"21394","locality":"Westergellersen","municipality":{"key":"03355041","name":"Westergellersen","type":"Kreisangehörige_Gemeinde"},"district":{"key":"03355","name":"Lüneburg","type":"Landkreis"},"federalState":{"key":"03","name":"Niedersachsen"}},{"name":"Rentenstr.","postalCode":"21394","locality":"Westergellersen","municipality":{"key":"03355041","name":"Westergellersen","type":"Kreisangehörige_Gemeinde"},"district":{"key":"03355","name":"Lüneburg","type":"Landkreis"},"federalState":{"key":"03","name":"Niedersachsen"}},{"name":"Schmiedering","postalCode":"21394","locality":"Westergellersen","municipality":{"key":"03355041","name":"Westergellersen","type":"Kreisangehörige_Gemeinde"},"district":{"key":"03355","name":"Lüneburg","type":"Landkreis"},"federalState":{"key":"03","name":"Niedersachsen"}},{"name":"Schneide","postalCode":"21394","locality":"Westergellersen","municipality":{"key":"03355041","name":"Westergellersen","type":"Kreisangehörige_Gemeinde"},"district":{"key":"03355","name":"Lüneburg","type":"Landkreis"},"federalState":{"key":"03","name":"Niedersachsen"}},{"name":"Schuhmacherstr.","postalCode":"21394","locality":"Westergellersen","municipality":{"key":"03355041","name":"Westergellersen","type":"Kreisangehörige_Gemeinde"},"district":{"key":"03355","name":"Lüneburg","type":"Landkreis"},"federalState":{"key":"03","name":"Niedersachsen"}},{"name":"Stellmacherweg","postalCode":"21394","locality":"Westergellersen","municipality":{"key":"03355041","name":"Westergellersen","type":"Kreisangehörige_Gemeinde"},"district":{"key":"03355","name":"Lüneburg","type":"Landkreis"},"federalState":{"key":"03","name":"Niedersachsen"}},{"name":"Südergellerser Weg","postalCode":"21394","locality":"Westergellersen","municipality":{"key":"03355041","name":"Westergellersen","type":"Kreisangehörige_Gemeinde"},"district":{"key":"03355","name":"Lüneburg","type":"Landkreis"},"federalState":{"key":"03","name":"Niedersachsen"}},{"name":"Trift","postalCode":"21394","locality":"Westergellersen","municipality":{"key":"03355041","name":"Westergellersen","type":"Kreisangehörige_Gemeinde"},"district":{"key":"03355","name":"Lüneburg","type":"Landkreis"},"federalState":{"key":"03","name":"Niedersachsen"}},{"name":"Uelzener Str.","postalCode":"21335","locality":"Lüneburg","municipality":{"key":"03355022","name":"Lüneburg, Hansestadt","type":"Stadt"},"district":{"key":"03355","name":"Lüneburg","type":"Landkreis"},"federalState":{"key":"03","name":"Niedersachsen"}},{"name":"Uhlandstr.","postalCode":"21337","locality":"Lüneburg","municipality":{"key":"03355022","name":"Lüneburg, Hansestadt","type":"Stadt"},"district":{"key":"03355","name":"Lüneburg","type":"Landkreis"},"federalState":{"key":"03","name":"Niedersachsen"}},{"name":"Ulmenweg","postalCode":"21337","locality":"Lüneburg","municipality":{"key":"03355022","name":"Lüneburg, Hansestadt","type":"Stadt"},"district":{"key":"03355","name":"Lüneburg","type":"Landkreis"},"federalState":{"key":"03","name":"Niedersachsen"}},{"name":"Universitätsallee","postalCode":"21335","locality":"Lüneburg","municipality":{"key":"03355022","name":"Lüneburg, Hansestadt","type":"Stadt"},"district":{"key":"03355","name":"Lüneburg","type":"Landkreis"},"federalState":{"key":"03","name":"Niedersachsen"}},{"name":"Unter der Burg","postalCode":"21339","locality":"Lüneburg","municipality":{"key":"03355022","name":"Lüneburg, Hansestadt","type":"Stadt"},"district":{"key":"03355","name":"Lüneburg","type":"Landkreis"},"federalState":{"key":"03","name":"Niedersachsen"}},{"name":"Untere Ohlingerstr.","postalCode":"21335","locality":"Lüneburg","municipality":{"key":"03355022","name":"Lüneburg, Hansestadt","type":"Stadt"},"district":{"key":"03355","name":"Lüneburg","type":"Landkreis"},"federalState":{"key":"03","name":"Niedersachsen"}},{"name":"Vierhöfener Str.","postalCode":"21394","locality":"Westergellersen","municipality":{"key":"03355041","name":"Westergellersen","type":"Kreisangehörige_Gemeinde"},"district":{"key":"03355","name":"Lüneburg","type":"Landkreis"},"federalState":{"key":"03","name":"Niedersachsen"}},{"name":"Weg zum Freibad","postalCode":"21394","locality":"Westergellersen","municipality":{"key":"03355041","name":"Westergellersen","type":"Kreisangehörige_Gemeinde"},"district":{"key":"03355","name":"Lüneburg","type":"Landkreis"},"federalState":{"key":"03","name":"Niedersachsen"}},{"name":"Westergellerser Heide","postalCode":"21394","locality":"Westergellersen","municipality":{"key":"03355041","name":"Westergellersen","type":"Kreisangehörige_Gemeinde"},"district":{"key":"03355","name":"Lüneburg","type":"Landkreis"},"federalState":{"key":"03","name":"Niedersachsen"}},{"name":"Wetzer Weg","postalCode":"21394","locality":"Westergellersen","municipality":{"key":"03355041","name":"Westergellersen","type":"Kreisangehörige_Gemeinde"},"district":{"key":"03355","name":"Lüneburg","type":"Landkreis"},"federalState":{"key":"03","name":"Niedersachsen"}},{"name":"Yorckstr.","postalCode":"21335","locality":"Lüneburg","municipality":{"key":"03355022","name":"Lüneburg, Hansestadt","type":"Stadt"},"district":{"key":"03355","name":"Lüneburg","type":"Landkreis"},"federalState":{"key":"03","name":"Niedersachsen"}},{"name":"Ziegeleiring","postalCode":"21394","locality":"Westergellersen","municipality":{"key":"03355041","name":"Westergellersen","type":"Kreisangehörige_Gemeinde"},"district":{"key":"03355","name":"Lüneburg","type":"Landkreis"},"federalState":{"key":"03","name":"Niedersachsen"}},{"name":"Zum Bossel","postalCode":"21394","locality":"Westergellersen","municipality":{"key":"03355041","name":"Westergellersen","type":"Kreisangehörige_Gemeinde"},"district":{"key":"03355","name":"Lüneburg","type":"Landkreis"},"federalState":{"key":"03","name":"Niedersachsen"}},{"name":"Zum Rahn","postalCode":"21394","locality":"Westergellersen","municipality":{"key":"03355041","name":"Westergellersen","type":"Kreisangehörige_Gemeinde"},"district":{"key":"03355","name":"Lüneburg","type":"Landkreis"},"federalState":{"key":"03","name":"Niedersachsen"}},{"name":"Zum Rauhen Berg","postalCode":"21394","locality":"Westergellersen","municipality":{"key":"03355041","name":"Westergellersen","type":"Kreisangehörige_Gemeinde"},"district":{"key":"03355","name":"Lüneburg","type":"Landkreis"},"federalState":{"key":"03","name":"Niedersachsen"}},{"name":"Zum Schulsberg","postalCode":"21394","locality":"Westergellersen","municipality":{"key":"03355041","name":"Westergellersen","type":"Kreisangehörige_Gemeinde"},"district":{"key":"03355","name":"Lüneburg","type":"Landkreis"},"federalState":{"key":"03","name":"Niedersachsen"}},{"name":"Zum Silberbusch","postalCode":"21394","locality":"Westergellersen","municipality":{"key":"03355041","name":"Westergellersen","type":"Kreisangehörige_Gemeinde"},"district":{"key":"03355","name":"Lüneburg","type":"Landkreis"},"federalState":{"key":"03","name":"Niedersachsen"}},]