[{"name":"Ahornstr.","postalCode":"79862","locality":"Höchenschwand","municipality":{"key":"08337051","name":"Höchenschwand","type":"Kreisangehörige_Gemeinde"},"district":{"key":"08337","name":"Waldshut","type":"Landkreis"},"federalState":{"key":"08","name":"Baden-Württemberg"}},{"name":"Alpenblickstr.","postalCode":"79862","locality":"Höchenschwand","municipality":{"key":"08337051","name":"Höchenschwand","type":"Kreisangehörige_Gemeinde"},"district":{"key":"08337","name":"Waldshut","type":"Landkreis"},"federalState":{"key":"08","name":"Baden-Württemberg"}},{"name":"Alte Sprungschanzeweg","postalCode":"79862","locality":"Höchenschwand","municipality":{"key":"08337051","name":"Höchenschwand","type":"Kreisangehörige_Gemeinde"},"district":{"key":"08337","name":"Waldshut","type":"Landkreis"},"federalState":{"key":"08","name":"Baden-Württemberg"}},{"name":"Alte Str. Häusern/Höchenschwand","postalCode":"79862","locality":"Höchenschwand","municipality":{"key":"08337051","name":"Höchenschwand","type":"Kreisangehörige_Gemeinde"},"district":{"key":"08337","name":"Waldshut","type":"Landkreis"},"federalState":{"key":"08","name":"Baden-Württemberg"}},{"name":"Amrigschwand","postalCode":"79862","locality":"Höchenschwand","municipality":{"key":"08337051","name":"Höchenschwand","type":"Kreisangehörige_Gemeinde"},"district":{"key":"08337","name":"Waldshut","type":"Landkreis"},"federalState":{"key":"08","name":"Baden-Württemberg"}},{"name":"Arradonstr.","postalCode":"79862","locality":"Höchenschwand","municipality":{"key":"08337051","name":"Höchenschwand","type":"Kreisangehörige_Gemeinde"},"district":{"key":"08337","name":"Waldshut","type":"Landkreis"},"federalState":{"key":"08","name":"Baden-Württemberg"}},{"name":"Attlisberg","postalCode":"79862","locality":"Höchenschwand","municipality":{"key":"08337051","name":"Höchenschwand","type":"Kreisangehörige_Gemeinde"},"district":{"key":"08337","name":"Waldshut","type":"Landkreis"},"federalState":{"key":"08","name":"Baden-Württemberg"}},{"name":"Berghofweg","postalCode":"79862","locality":"Höchenschwand","municipality":{"key":"08337051","name":"Höchenschwand","type":"Kreisangehörige_Gemeinde"},"district":{"key":"08337","name":"Waldshut","type":"Landkreis"},"federalState":{"key":"08","name":"Baden-Württemberg"}},{"name":"Bergstr.","postalCode":"79862","locality":"Höchenschwand","municipality":{"key":"08337051","name":"Höchenschwand","type":"Kreisangehörige_Gemeinde"},"district":{"key":"08337","name":"Waldshut","type":"Landkreis"},"federalState":{"key":"08","name":"Baden-Württemberg"}},{"name":"Bernhard-Porten-Str.","postalCode":"79862","locality":"Höchenschwand","municipality":{"key":"08337051","name":"Höchenschwand","type":"Kreisangehörige_Gemeinde"},"district":{"key":"08337","name":"Waldshut","type":"Landkreis"},"federalState":{"key":"08","name":"Baden-Württemberg"}},{"name":"Birkenweg","postalCode":"79862","locality":"Höchenschwand","municipality":{"key":"08337051","name":"Höchenschwand","type":"Kreisangehörige_Gemeinde"},"district":{"key":"08337","name":"Waldshut","type":"Landkreis"},"federalState":{"key":"08","name":"Baden-Württemberg"}},{"name":"Birkweg","postalCode":"79862","locality":"Höchenschwand","municipality":{"key":"08337051","name":"Höchenschwand","type":"Kreisangehörige_Gemeinde"},"district":{"key":"08337","name":"Waldshut","type":"Landkreis"},"federalState":{"key":"08","name":"Baden-Württemberg"}},{"name":"Buchenstr.","postalCode":"79862","locality":"Höchenschwand","municipality":{"key":"08337051","name":"Höchenschwand","type":"Kreisangehörige_Gemeinde"},"district":{"key":"08337","name":"Waldshut","type":"Landkreis"},"federalState":{"key":"08","name":"Baden-Württemberg"}},{"name":"Bürgermeister-Huber-Str.","postalCode":"79862","locality":"Höchenschwand","municipality":{"key":"08337051","name":"Höchenschwand","type":"Kreisangehörige_Gemeinde"},"district":{"key":"08337","name":"Waldshut","type":"Landkreis"},"federalState":{"key":"08","name":"Baden-Württemberg"}},{"name":"Burgweg","postalCode":"79862","locality":"Höchenschwand","municipality":{"key":"08337051","name":"Höchenschwand","type":"Kreisangehörige_Gemeinde"},"district":{"key":"08337","name":"Waldshut","type":"Landkreis"},"federalState":{"key":"08","name":"Baden-Württemberg"}},{"name":"Christian-Gotthard-Hirsch-Str.","postalCode":"79862","locality":"Höchenschwand","municipality":{"key":"08337051","name":"Höchenschwand","type":"Kreisangehörige_Gemeinde"},"district":{"key":"08337","name":"Waldshut","type":"Landkreis"},"federalState":{"key":"08","name":"Baden-Württemberg"}},{"name":"Dr.-Bettinger-Weg","postalCode":"79862","locality":"Höchenschwand","municipality":{"key":"08337051","name":"Höchenschwand","type":"Kreisangehörige_Gemeinde"},"district":{"key":"08337","name":"Waldshut","type":"Landkreis"},"federalState":{"key":"08","name":"Baden-Württemberg"}},{"name":"Dreherhäusleweg","postalCode":"79862","locality":"Höchenschwand","municipality":{"key":"08337051","name":"Höchenschwand","type":"Kreisangehörige_Gemeinde"},"district":{"key":"08337","name":"Waldshut","type":"Landkreis"},"federalState":{"key":"08","name":"Baden-Württemberg"}},{"name":"Dr.-Rudolf-Eberle-Str.","postalCode":"79862","locality":"Höchenschwand","municipality":{"key":"08337051","name":"Höchenschwand","type":"Kreisangehörige_Gemeinde"},"district":{"key":"08337","name":"Waldshut","type":"Landkreis"},"federalState":{"key":"08","name":"Baden-Württemberg"}},{"name":"Dumrigstr.","postalCode":"79862","locality":"Höchenschwand","municipality":{"key":"08337051","name":"Höchenschwand","type":"Kreisangehörige_Gemeinde"},"district":{"key":"08337","name":"Waldshut","type":"Landkreis"},"federalState":{"key":"08","name":"Baden-Württemberg"}},{"name":"Dumrigstrasse","postalCode":"79862","locality":"Höchenschwand","municipality":{"key":"08337051","name":"Höchenschwand","type":"Kreisangehörige_Gemeinde"},"district":{"key":"08337","name":"Waldshut","type":"Landkreis"},"federalState":{"key":"08","name":"Baden-Württemberg"}},{"name":"Eislochweg","postalCode":"79862","locality":"Höchenschwand","municipality":{"key":"08337051","name":"Höchenschwand","type":"Kreisangehörige_Gemeinde"},"district":{"key":"08337","name":"Waldshut","type":"Landkreis"},"federalState":{"key":"08","name":"Baden-Württemberg"}},{"name":"Ellmenegg","postalCode":"79862","locality":"Höchenschwand","municipality":{"key":"08337051","name":"Höchenschwand","type":"Kreisangehörige_Gemeinde"},"district":{"key":"08337","name":"Waldshut","type":"Landkreis"},"federalState":{"key":"08","name":"Baden-Württemberg"}},{"name":"Eschengasse","postalCode":"79862","locality":"Höchenschwand","municipality":{"key":"08337051","name":"Höchenschwand","type":"Kreisangehörige_Gemeinde"},"district":{"key":"08337","name":"Waldshut","type":"Landkreis"},"federalState":{"key":"08","name":"Baden-Württemberg"}},{"name":"Florianstr.","postalCode":"79862","locality":"Höchenschwand","municipality":{"key":"08337051","name":"Höchenschwand","type":"Kreisangehörige_Gemeinde"},"district":{"key":"08337","name":"Waldshut","type":"Landkreis"},"federalState":{"key":"08","name":"Baden-Württemberg"}},{"name":"Fohrenbachstr.","postalCode":"79862","locality":"Höchenschwand","municipality":{"key":"08337051","name":"Höchenschwand","type":"Kreisangehörige_Gemeinde"},"district":{"key":"08337","name":"Waldshut","type":"Landkreis"},"federalState":{"key":"08","name":"Baden-Württemberg"}},{"name":"Föhrenbachstrasse","postalCode":"79862","locality":"Höchenschwand","municipality":{"key":"08337051","name":"Höchenschwand","type":"Kreisangehörige_Gemeinde"},"district":{"key":"08337","name":"Waldshut","type":"Landkreis"},"federalState":{"key":"08","name":"Baden-Württemberg"}},{"name":"Frohnschwand","postalCode":"79862","locality":"Höchenschwand","municipality":{"key":"08337051","name":"Höchenschwand","type":"Kreisangehörige_Gemeinde"},"district":{"key":"08337","name":"Waldshut","type":"Landkreis"},"federalState":{"key":"08","name":"Baden-Württemberg"}},{"name":"Fünfwegescheidweg","postalCode":"79862","locality":"Höchenschwand","municipality":{"key":"08337051","name":"Höchenschwand","type":"Kreisangehörige_Gemeinde"},"district":{"key":"08337","name":"Waldshut","type":"Landkreis"},"federalState":{"key":"08","name":"Baden-Württemberg"}},{"name":"Gartenstr.","postalCode":"79862","locality":"Höchenschwand","municipality":{"key":"08337051","name":"Höchenschwand","type":"Kreisangehörige_Gemeinde"},"district":{"key":"08337","name":"Waldshut","type":"Landkreis"},"federalState":{"key":"08","name":"Baden-Württemberg"}},{"name":"Gewerbegebiet Tiefenhäusern","postalCode":"79862","locality":"Höchenschwand","municipality":{"key":"08337051","name":"Höchenschwand","type":"Kreisangehörige_Gemeinde"},"district":{"key":"08337","name":"Waldshut","type":"Landkreis"},"federalState":{"key":"08","name":"Baden-Württemberg"}},{"name":"Grenzweg","postalCode":"79862","locality":"Höchenschwand","municipality":{"key":"08337051","name":"Höchenschwand","type":"Kreisangehörige_Gemeinde"},"district":{"key":"08337","name":"Waldshut","type":"Landkreis"},"federalState":{"key":"08","name":"Baden-Württemberg"}},{"name":"Hagenmattweg","postalCode":"79862","locality":"Höchenschwand","municipality":{"key":"08337051","name":"Höchenschwand","type":"Kreisangehörige_Gemeinde"},"district":{"key":"08337","name":"Waldshut","type":"Landkreis"},"federalState":{"key":"08","name":"Baden-Württemberg"}},{"name":"Haldenweg","postalCode":"79862","locality":"Höchenschwand","municipality":{"key":"08337051","name":"Höchenschwand","type":"Kreisangehörige_Gemeinde"},"district":{"key":"08337","name":"Waldshut","type":"Landkreis"},"federalState":{"key":"08","name":"Baden-Württemberg"}},{"name":"Hans-Thoma-Weg","postalCode":"79862","locality":"Höchenschwand","municipality":{"key":"08337051","name":"Höchenschwand","type":"Kreisangehörige_Gemeinde"},"district":{"key":"08337","name":"Waldshut","type":"Landkreis"},"federalState":{"key":"08","name":"Baden-Württemberg"}},{"name":"Hauptstr.","postalCode":"79862","locality":"Höchenschwand","municipality":{"key":"08337051","name":"Höchenschwand","type":"Kreisangehörige_Gemeinde"},"district":{"key":"08337","name":"Waldshut","type":"Landkreis"},"federalState":{"key":"08","name":"Baden-Württemberg"}},{"name":"Hebelweg","postalCode":"79862","locality":"Höchenschwand","municipality":{"key":"08337051","name":"Höchenschwand","type":"Kreisangehörige_Gemeinde"},"district":{"key":"08337","name":"Waldshut","type":"Landkreis"},"federalState":{"key":"08","name":"Baden-Württemberg"}},{"name":"Heidenschlossweg","postalCode":"79862","locality":"Höchenschwand","municipality":{"key":"08337051","name":"Höchenschwand","type":"Kreisangehörige_Gemeinde"},"district":{"key":"08337","name":"Waldshut","type":"Landkreis"},"federalState":{"key":"08","name":"Baden-Württemberg"}},{"name":"Heppenschwand","postalCode":"79862","locality":"Höchenschwand","municipality":{"key":"08337051","name":"Höchenschwand","type":"Kreisangehörige_Gemeinde"},"district":{"key":"08337","name":"Waldshut","type":"Landkreis"},"federalState":{"key":"08","name":"Baden-Württemberg"}},{"name":"Hergottsholzweg","postalCode":"79862","locality":"Höchenschwand","municipality":{"key":"08337051","name":"Höchenschwand","type":"Kreisangehörige_Gemeinde"},"district":{"key":"08337","name":"Waldshut","type":"Landkreis"},"federalState":{"key":"08","name":"Baden-Württemberg"}},{"name":"Horizontalstr.","postalCode":"79862","locality":"Höchenschwand","municipality":{"key":"08337051","name":"Höchenschwand","type":"Kreisangehörige_Gemeinde"},"district":{"key":"08337","name":"Waldshut","type":"Landkreis"},"federalState":{"key":"08","name":"Baden-Württemberg"}},{"name":"Horizontalweg","postalCode":"79862","locality":"Höchenschwand","municipality":{"key":"08337051","name":"Höchenschwand","type":"Kreisangehörige_Gemeinde"},"district":{"key":"08337","name":"Waldshut","type":"Landkreis"},"federalState":{"key":"08","name":"Baden-Württemberg"}},{"name":"Horn","postalCode":"79862","locality":"Höchenschwand","municipality":{"key":"08337051","name":"Höchenschwand","type":"Kreisangehörige_Gemeinde"},"district":{"key":"08337","name":"Waldshut","type":"Landkreis"},"federalState":{"key":"08","name":"Baden-Württemberg"}},{"name":"Hornweg","postalCode":"79862","locality":"Höchenschwand","municipality":{"key":"08337051","name":"Höchenschwand","type":"Kreisangehörige_Gemeinde"},"district":{"key":"08337","name":"Waldshut","type":"Landkreis"},"federalState":{"key":"08","name":"Baden-Württemberg"}},{"name":"Hubertusweg","postalCode":"79862","locality":"Höchenschwand","municipality":{"key":"08337051","name":"Höchenschwand","type":"Kreisangehörige_Gemeinde"},"district":{"key":"08337","name":"Waldshut","type":"Landkreis"},"federalState":{"key":"08","name":"Baden-Württemberg"}},{"name":"Im Grün","postalCode":"79862","locality":"Höchenschwand","municipality":{"key":"08337051","name":"Höchenschwand","type":"Kreisangehörige_Gemeinde"},"district":{"key":"08337","name":"Waldshut","type":"Landkreis"},"federalState":{"key":"08","name":"Baden-Württemberg"}},{"name":"Im Jägerwinkel","postalCode":"79862","locality":"Höchenschwand","municipality":{"key":"08337051","name":"Höchenschwand","type":"Kreisangehörige_Gemeinde"},"district":{"key":"08337","name":"Waldshut","type":"Landkreis"},"federalState":{"key":"08","name":"Baden-Württemberg"}},{"name":"Jungholzweg","postalCode":"79862","locality":"Höchenschwand","municipality":{"key":"08337051","name":"Höchenschwand","type":"Kreisangehörige_Gemeinde"},"district":{"key":"08337","name":"Waldshut","type":"Landkreis"},"federalState":{"key":"08","name":"Baden-Württemberg"}},{"name":"Kapellenweg","postalCode":"79862","locality":"Höchenschwand","municipality":{"key":"08337051","name":"Höchenschwand","type":"Kreisangehörige_Gemeinde"},"district":{"key":"08337","name":"Waldshut","type":"Landkreis"},"federalState":{"key":"08","name":"Baden-Württemberg"}},{"name":"Karl-Carstens-Weg","postalCode":"79862","locality":"Höchenschwand","municipality":{"key":"08337051","name":"Höchenschwand","type":"Kreisangehörige_Gemeinde"},"district":{"key":"08337","name":"Waldshut","type":"Landkreis"},"federalState":{"key":"08","name":"Baden-Württemberg"}},{"name":"Katzendöblebuchsweg","postalCode":"79862","locality":"Höchenschwand","municipality":{"key":"08337051","name":"Höchenschwand","type":"Kreisangehörige_Gemeinde"},"district":{"key":"08337","name":"Waldshut","type":"Landkreis"},"federalState":{"key":"08","name":"Baden-Württemberg"}},{"name":"Kirchstr.","postalCode":"79862","locality":"Höchenschwand","municipality":{"key":"08337051","name":"Höchenschwand","type":"Kreisangehörige_Gemeinde"},"district":{"key":"08337","name":"Waldshut","type":"Landkreis"},"federalState":{"key":"08","name":"Baden-Württemberg"}},{"name":"Kirchweg","postalCode":"79862","locality":"Höchenschwand","municipality":{"key":"08337051","name":"Höchenschwand","type":"Kreisangehörige_Gemeinde"},"district":{"key":"08337","name":"Waldshut","type":"Landkreis"},"federalState":{"key":"08","name":"Baden-Württemberg"}},{"name":"Kohlmiesfeld","postalCode":"79862","locality":"Höchenschwand","municipality":{"key":"08337051","name":"Höchenschwand","type":"Kreisangehörige_Gemeinde"},"district":{"key":"08337","name":"Waldshut","type":"Landkreis"},"federalState":{"key":"08","name":"Baden-Württemberg"}},{"name":"Kurgarten","postalCode":"79862","locality":"Höchenschwand","municipality":{"key":"08337051","name":"Höchenschwand","type":"Kreisangehörige_Gemeinde"},"district":{"key":"08337","name":"Waldshut","type":"Landkreis"},"federalState":{"key":"08","name":"Baden-Württemberg"}},{"name":"Kurhausplatz","postalCode":"79862","locality":"Höchenschwand","municipality":{"key":"08337051","name":"Höchenschwand","type":"Kreisangehörige_Gemeinde"},"district":{"key":"08337","name":"Waldshut","type":"Landkreis"},"federalState":{"key":"08","name":"Baden-Württemberg"}},{"name":"Kurpromenade","postalCode":"79862","locality":"Höchenschwand","municipality":{"key":"08337051","name":"Höchenschwand","type":"Kreisangehörige_Gemeinde"},"district":{"key":"08337","name":"Waldshut","type":"Landkreis"},"federalState":{"key":"08","name":"Baden-Württemberg"}},{"name":"Kutterauerhaldenweg","postalCode":"79862","locality":"Höchenschwand","municipality":{"key":"08337051","name":"Höchenschwand","type":"Kreisangehörige_Gemeinde"},"district":{"key":"08337","name":"Waldshut","type":"Landkreis"},"federalState":{"key":"08","name":"Baden-Württemberg"}},{"name":"Labacherbergweg","postalCode":"79862","locality":"Höchenschwand","municipality":{"key":"08337051","name":"Höchenschwand","type":"Kreisangehörige_Gemeinde"},"district":{"key":"08337","name":"Waldshut","type":"Landkreis"},"federalState":{"key":"08","name":"Baden-Württemberg"}},{"name":"Labacherholzweg","postalCode":"79862","locality":"Höchenschwand","municipality":{"key":"08337051","name":"Höchenschwand","type":"Kreisangehörige_Gemeinde"},"district":{"key":"08337","name":"Waldshut","type":"Landkreis"},"federalState":{"key":"08","name":"Baden-Württemberg"}},{"name":"Langwiesweg","postalCode":"79862","locality":"Höchenschwand","municipality":{"key":"08337051","name":"Höchenschwand","type":"Kreisangehörige_Gemeinde"},"district":{"key":"08337","name":"Waldshut","type":"Landkreis"},"federalState":{"key":"08","name":"Baden-Württemberg"}},{"name":"Lerchenbergstr.","postalCode":"79862","locality":"Höchenschwand","municipality":{"key":"08337051","name":"Höchenschwand","type":"Kreisangehörige_Gemeinde"},"district":{"key":"08337","name":"Waldshut","type":"Landkreis"},"federalState":{"key":"08","name":"Baden-Württemberg"}},{"name":"Lerchenbergweg","postalCode":"79862","locality":"Höchenschwand","municipality":{"key":"08337051","name":"Höchenschwand","type":"Kreisangehörige_Gemeinde"},"district":{"key":"08337","name":"Waldshut","type":"Landkreis"},"federalState":{"key":"08","name":"Baden-Württemberg"}},{"name":"Lindenweg","postalCode":"79862","locality":"Höchenschwand","municipality":{"key":"08337051","name":"Höchenschwand","type":"Kreisangehörige_Gemeinde"},"district":{"key":"08337","name":"Waldshut","type":"Landkreis"},"federalState":{"key":"08","name":"Baden-Württemberg"}},{"name":"Mattenweg","postalCode":"79862","locality":"Höchenschwand","municipality":{"key":"08337051","name":"Höchenschwand","type":"Kreisangehörige_Gemeinde"},"district":{"key":"08337","name":"Waldshut","type":"Landkreis"},"federalState":{"key":"08","name":"Baden-Württemberg"}},{"name":"Mättleweg","postalCode":"79862","locality":"Höchenschwand","municipality":{"key":"08337051","name":"Höchenschwand","type":"Kreisangehörige_Gemeinde"},"district":{"key":"08337","name":"Waldshut","type":"Landkreis"},"federalState":{"key":"08","name":"Baden-Württemberg"}},{"name":"mittlerer Auhaldenweg","postalCode":"79862","locality":"Höchenschwand","municipality":{"key":"08337051","name":"Höchenschwand","type":"Kreisangehörige_Gemeinde"},"district":{"key":"08337","name":"Waldshut","type":"Landkreis"},"federalState":{"key":"08","name":"Baden-Württemberg"}},{"name":"Mittlerer Buchholzweg","postalCode":"79862","locality":"Höchenschwand","municipality":{"key":"08337051","name":"Höchenschwand","type":"Kreisangehörige_Gemeinde"},"district":{"key":"08337","name":"Waldshut","type":"Landkreis"},"federalState":{"key":"08","name":"Baden-Württemberg"}},{"name":"Moosweg","postalCode":"79862","locality":"Höchenschwand","municipality":{"key":"08337051","name":"Höchenschwand","type":"Kreisangehörige_Gemeinde"},"district":{"key":"08337","name":"Waldshut","type":"Landkreis"},"federalState":{"key":"08","name":"Baden-Württemberg"}},{"name":"Moränenweg","postalCode":"79862","locality":"Höchenschwand","municipality":{"key":"08337051","name":"Höchenschwand","type":"Kreisangehörige_Gemeinde"},"district":{"key":"08337","name":"Waldshut","type":"Landkreis"},"federalState":{"key":"08","name":"Baden-Württemberg"}},{"name":"Natursportzentrum","postalCode":"79862","locality":"Höchenschwand","municipality":{"key":"08337051","name":"Höchenschwand","type":"Kreisangehörige_Gemeinde"},"district":{"key":"08337","name":"Waldshut","type":"Landkreis"},"federalState":{"key":"08","name":"Baden-Württemberg"}},{"name":"Neuer Friedhof","postalCode":"79862","locality":"Höchenschwand","municipality":{"key":"08337051","name":"Höchenschwand","type":"Kreisangehörige_Gemeinde"},"district":{"key":"08337","name":"Waldshut","type":"Landkreis"},"federalState":{"key":"08","name":"Baden-Württemberg"}},{"name":"Neue Schwarzatalstr.","postalCode":"79862","locality":"Höchenschwand","municipality":{"key":"08337051","name":"Höchenschwand","type":"Kreisangehörige_Gemeinde"},"district":{"key":"08337","name":"Waldshut","type":"Landkreis"},"federalState":{"key":"08","name":"Baden-Württemberg"}},{"name":"Neumühlenweg","postalCode":"79862","locality":"Höchenschwand","municipality":{"key":"08337051","name":"Höchenschwand","type":"Kreisangehörige_Gemeinde"},"district":{"key":"08337","name":"Waldshut","type":"Landkreis"},"federalState":{"key":"08","name":"Baden-Württemberg"}},{"name":"Neumühlweg","postalCode":"79862","locality":"Höchenschwand","municipality":{"key":"08337051","name":"Höchenschwand","type":"Kreisangehörige_Gemeinde"},"district":{"key":"08337","name":"Waldshut","type":"Landkreis"},"federalState":{"key":"08","name":"Baden-Württemberg"}},{"name":"Obere Brunnengasse","postalCode":"79862","locality":"Höchenschwand","municipality":{"key":"08337051","name":"Höchenschwand","type":"Kreisangehörige_Gemeinde"},"district":{"key":"08337","name":"Waldshut","type":"Landkreis"},"federalState":{"key":"08","name":"Baden-Württemberg"}},{"name":"Oberer Buchholzweg","postalCode":"79862","locality":"Höchenschwand","municipality":{"key":"08337051","name":"Höchenschwand","type":"Kreisangehörige_Gemeinde"},"district":{"key":"08337","name":"Waldshut","type":"Landkreis"},"federalState":{"key":"08","name":"Baden-Württemberg"}},{"name":"Oberweschnegg","postalCode":"79862","locality":"Höchenschwand","municipality":{"key":"08337051","name":"Höchenschwand","type":"Kreisangehörige_Gemeinde"},"district":{"key":"08337","name":"Waldshut","type":"Landkreis"},"federalState":{"key":"08","name":"Baden-Württemberg"}},{"name":"Panoramastr.","postalCode":"79862","locality":"Höchenschwand","municipality":{"key":"08337051","name":"Höchenschwand","type":"Kreisangehörige_Gemeinde"},"district":{"key":"08337","name":"Waldshut","type":"Landkreis"},"federalState":{"key":"08","name":"Baden-Württemberg"}},{"name":"Poststr.","postalCode":"79862","locality":"Höchenschwand","municipality":{"key":"08337051","name":"Höchenschwand","type":"Kreisangehörige_Gemeinde"},"district":{"key":"08337","name":"Waldshut","type":"Landkreis"},"federalState":{"key":"08","name":"Baden-Württemberg"}},{"name":"Professor-Wurm-Str.","postalCode":"79862","locality":"Höchenschwand","municipality":{"key":"08337051","name":"Höchenschwand","type":"Kreisangehörige_Gemeinde"},"district":{"key":"08337","name":"Waldshut","type":"Landkreis"},"federalState":{"key":"08","name":"Baden-Württemberg"}},{"name":"Quarzmühlenweg","postalCode":"79761","locality":"Waldshut-Tiengen","municipality":{"key":"08337126","name":"Waldshut-Tiengen, Stadt","type":"Große_Kreisstadt"},"district":{"key":"08337","name":"Waldshut","type":"Landkreis"},"federalState":{"key":"08","name":"Baden-Württemberg"}},{"name":"Querweg","postalCode":"79761","locality":"Waldshut-Tiengen","municipality":{"key":"08337126","name":"Waldshut-Tiengen, Stadt","type":"Große_Kreisstadt"},"district":{"key":"08337","name":"Waldshut","type":"Landkreis"},"federalState":{"key":"08","name":"Baden-Württemberg"}},{"name":"Ruhebächleweg","postalCode":"79862","locality":"Höchenschwand","municipality":{"key":"08337051","name":"Höchenschwand","type":"Kreisangehörige_Gemeinde"},"district":{"key":"08337","name":"Waldshut","type":"Landkreis"},"federalState":{"key":"08","name":"Baden-Württemberg"}},{"name":"Schluchenweg","postalCode":"79862","locality":"Höchenschwand","municipality":{"key":"08337051","name":"Höchenschwand","type":"Kreisangehörige_Gemeinde"},"district":{"key":"08337","name":"Waldshut","type":"Landkreis"},"federalState":{"key":"08","name":"Baden-Württemberg"}},{"name":"Schulstr.","postalCode":"79862","locality":"Höchenschwand","municipality":{"key":"08337051","name":"Höchenschwand","type":"Kreisangehörige_Gemeinde"},"district":{"key":"08337","name":"Waldshut","type":"Landkreis"},"federalState":{"key":"08","name":"Baden-Württemberg"}},{"name":"Schwarzatalstr.","postalCode":"79862","locality":"Höchenschwand","municipality":{"key":"08337051","name":"Höchenschwand","type":"Kreisangehörige_Gemeinde"},"district":{"key":"08337","name":"Waldshut","type":"Landkreis"},"federalState":{"key":"08","name":"Baden-Württemberg"}},{"name":"Schwarzhangweg","postalCode":"79862","locality":"Höchenschwand","municipality":{"key":"08337051","name":"Höchenschwand","type":"Kreisangehörige_Gemeinde"},"district":{"key":"08337","name":"Waldshut","type":"Landkreis"},"federalState":{"key":"08","name":"Baden-Württemberg"}},{"name":"Schwarzwaldstr.","postalCode":"79862","locality":"Höchenschwand","municipality":{"key":"08337051","name":"Höchenschwand","type":"Kreisangehörige_Gemeinde"},"district":{"key":"08337","name":"Waldshut","type":"Landkreis"},"federalState":{"key":"08","name":"Baden-Württemberg"}},{"name":"Schwimmbadstr.","postalCode":"79862","locality":"Höchenschwand","municipality":{"key":"08337051","name":"Höchenschwand","type":"Kreisangehörige_Gemeinde"},"district":{"key":"08337","name":"Waldshut","type":"Landkreis"},"federalState":{"key":"08","name":"Baden-Württemberg"}},{"name":"Sebastian-Kneipp-Str.","postalCode":"79862","locality":"Höchenschwand","municipality":{"key":"08337051","name":"Höchenschwand","type":"Kreisangehörige_Gemeinde"},"district":{"key":"08337","name":"Waldshut","type":"Landkreis"},"federalState":{"key":"08","name":"Baden-Württemberg"}},{"name":"Segalen","postalCode":"79862","locality":"Höchenschwand","municipality":{"key":"08337051","name":"Höchenschwand","type":"Kreisangehörige_Gemeinde"},"district":{"key":"08337","name":"Waldshut","type":"Landkreis"},"federalState":{"key":"08","name":"Baden-Württemberg"}},{"name":"Sonnenweg","postalCode":"79862","locality":"Höchenschwand","municipality":{"key":"08337051","name":"Höchenschwand","type":"Kreisangehörige_Gemeinde"},"district":{"key":"08337","name":"Waldshut","type":"Landkreis"},"federalState":{"key":"08","name":"Baden-Württemberg"}},{"name":"Staldenstr.","postalCode":"79862","locality":"Höchenschwand","municipality":{"key":"08337051","name":"Höchenschwand","type":"Kreisangehörige_Gemeinde"},"district":{"key":"08337","name":"Waldshut","type":"Landkreis"},"federalState":{"key":"08","name":"Baden-Württemberg"}},{"name":"Stampfestr.","postalCode":"79862","locality":"Höchenschwand","municipality":{"key":"08337051","name":"Höchenschwand","type":"Kreisangehörige_Gemeinde"},"district":{"key":"08337","name":"Waldshut","type":"Landkreis"},"federalState":{"key":"08","name":"Baden-Württemberg"}},{"name":"Steinreusche","postalCode":"79862","locality":"Höchenschwand","municipality":{"key":"08337051","name":"Höchenschwand","type":"Kreisangehörige_Gemeinde"},"district":{"key":"08337","name":"Waldshut","type":"Landkreis"},"federalState":{"key":"08","name":"Baden-Württemberg"}},{"name":"St.-Georg-Str.","postalCode":"79862","locality":"Höchenschwand","municipality":{"key":"08337051","name":"Höchenschwand","type":"Kreisangehörige_Gemeinde"},"district":{"key":"08337","name":"Waldshut","type":"Landkreis"},"federalState":{"key":"08","name":"Baden-Württemberg"}},{"name":"Strittberg","postalCode":"79862","locality":"Höchenschwand","municipality":{"key":"08337051","name":"Höchenschwand","type":"Kreisangehörige_Gemeinde"},"district":{"key":"08337","name":"Waldshut","type":"Landkreis"},"federalState":{"key":"08","name":"Baden-Württemberg"}},{"name":"Stutz Rundweg","postalCode":"79862","locality":"Höchenschwand","municipality":{"key":"08337051","name":"Höchenschwand","type":"Kreisangehörige_Gemeinde"},"district":{"key":"08337","name":"Waldshut","type":"Landkreis"},"federalState":{"key":"08","name":"Baden-Württemberg"}},{"name":"Tiefenhäusern","postalCode":"79862","locality":"Höchenschwand","municipality":{"key":"08337051","name":"Höchenschwand","type":"Kreisangehörige_Gemeinde"},"district":{"key":"08337","name":"Waldshut","type":"Landkreis"},"federalState":{"key":"08","name":"Baden-Württemberg"}},{"name":"Tränklebrunnenweg","postalCode":"79862","locality":"Höchenschwand","municipality":{"key":"08337051","name":"Höchenschwand","type":"Kreisangehörige_Gemeinde"},"district":{"key":"08337","name":"Waldshut","type":"Landkreis"},"federalState":{"key":"08","name":"Baden-Württemberg"}},{"name":"Untere Auhaldenweg","postalCode":"79862","locality":"Höchenschwand","municipality":{"key":"08337051","name":"Höchenschwand","type":"Kreisangehörige_Gemeinde"},"district":{"key":"08337","name":"Waldshut","type":"Landkreis"},"federalState":{"key":"08","name":"Baden-Württemberg"}},{"name":"Untere Brunnengasse","postalCode":"79862","locality":"Höchenschwand","municipality":{"key":"08337051","name":"Höchenschwand","type":"Kreisangehörige_Gemeinde"},"district":{"key":"08337","name":"Waldshut","type":"Landkreis"},"federalState":{"key":"08","name":"Baden-Württemberg"}},{"name":"Unterer Buchholzweg","postalCode":"79862","locality":"Höchenschwand","municipality":{"key":"08337051","name":"Höchenschwand","type":"Kreisangehörige_Gemeinde"},"district":{"key":"08337","name":"Waldshut","type":"Landkreis"},"federalState":{"key":"08","name":"Baden-Württemberg"}},{"name":"Unterweschnegg","postalCode":"79862","locality":"Höchenschwand","municipality":{"key":"08337051","name":"Höchenschwand","type":"Kreisangehörige_Gemeinde"},"district":{"key":"08337","name":"Waldshut","type":"Landkreis"},"federalState":{"key":"08","name":"Baden-Württemberg"}},{"name":"Von-Kilian-Str.","postalCode":"79761","locality":"Waldshut-Tiengen","municipality":{"key":"08337126","name":"Waldshut-Tiengen, Stadt","type":"Große_Kreisstadt"},"district":{"key":"08337","name":"Waldshut","type":"Landkreis"},"federalState":{"key":"08","name":"Baden-Württemberg"}},{"name":"Von-Opel-Str.","postalCode":"79761","locality":"Waldshut-Tiengen","municipality":{"key":"08337126","name":"Waldshut-Tiengen, Stadt","type":"Große_Kreisstadt"},"district":{"key":"08337","name":"Waldshut","type":"Landkreis"},"federalState":{"key":"08","name":"Baden-Württemberg"}},{"name":"Waldshuter Str.","postalCode":"79862","locality":"Höchenschwand","municipality":{"key":"08337051","name":"Höchenschwand","type":"Kreisangehörige_Gemeinde"},"district":{"key":"08337","name":"Waldshut","type":"Landkreis"},"federalState":{"key":"08","name":"Baden-Württemberg"}},{"name":"Waldsportpfad","postalCode":"79862","locality":"Höchenschwand","municipality":{"key":"08337051","name":"Höchenschwand","type":"Kreisangehörige_Gemeinde"},"district":{"key":"08337","name":"Waldshut","type":"Landkreis"},"federalState":{"key":"08","name":"Baden-Württemberg"}},{"name":"Weißbrunnenholzweg","postalCode":"79862","locality":"Höchenschwand","municipality":{"key":"08337051","name":"Höchenschwand","type":"Kreisangehörige_Gemeinde"},"district":{"key":"08337","name":"Waldshut","type":"Landkreis"},"federalState":{"key":"08","name":"Baden-Württemberg"}},{"name":"Wolfsbrunnenweg","postalCode":"79862","locality":"Höchenschwand","municipality":{"key":"08337051","name":"Höchenschwand","type":"Kreisangehörige_Gemeinde"},"district":{"key":"08337","name":"Waldshut","type":"Landkreis"},"federalState":{"key":"08","name":"Baden-Württemberg"}},{"name":"Zum Loheck","postalCode":"79862","locality":"Höchenschwand","municipality":{"key":"08337051","name":"Höchenschwand","type":"Kreisangehörige_Gemeinde"},"district":{"key":"08337","name":"Waldshut","type":"Landkreis"},"federalState":{"key":"08","name":"Baden-Württemberg"}},{"name":"Zunftweg","postalCode":"79862","locality":"Höchenschwand","municipality":{"key":"08337051","name":"Höchenschwand","type":"Kreisangehörige_Gemeinde"},"district":{"key":"08337","name":"Waldshut","type":"Landkreis"},"federalState":{"key":"08","name":"Baden-Württemberg"}},{"name":"Äuleweg","postalCode":"79761","locality":"Waldshut-Tiengen","municipality":{"key":"08337126","name":"Waldshut-Tiengen, Stadt","type":"Große_Kreisstadt"},"district":{"key":"08337","name":"Waldshut","type":"Landkreis"},"federalState":{"key":"08","name":"Baden-Württemberg"}},{"name":"Übertal","postalCode":"79761","locality":"Waldshut-Tiengen","municipality":{"key":"08337126","name":"Waldshut-Tiengen, Stadt","type":"Große_Kreisstadt"},"district":{"key":"08337","name":"Waldshut","type":"Landkreis"},"federalState":{"key":"08","name":"Baden-Württemberg"}},]