[{"name":"Alfred-Dick-Str.","postalCode":"94356","locality":"Kirchroth","municipality":{"key":"09278141","name":"Kirchroth","type":"Kreisangehörige_Gemeinde"},"district":{"key":"09278","name":"Straubing-Bogen","type":"Landkreis"},"federalState":{"key":"09","name":"Bayern"}},{"name":"Am Anger","postalCode":"94356","locality":"Kirchroth","municipality":{"key":"09278141","name":"Kirchroth","type":"Kreisangehörige_Gemeinde"},"district":{"key":"09278","name":"Straubing-Bogen","type":"Landkreis"},"federalState":{"key":"09","name":"Bayern"}},{"name":"Am Breimbach","postalCode":"94356","locality":"Kirchroth","municipality":{"key":"09278141","name":"Kirchroth","type":"Kreisangehörige_Gemeinde"},"district":{"key":"09278","name":"Straubing-Bogen","type":"Landkreis"},"federalState":{"key":"09","name":"Bayern"}},{"name":"Am Eichelberg","postalCode":"94356","locality":"Kirchroth","municipality":{"key":"09278141","name":"Kirchroth","type":"Kreisangehörige_Gemeinde"},"district":{"key":"09278","name":"Straubing-Bogen","type":"Landkreis"},"federalState":{"key":"09","name":"Bayern"}},{"name":"Am Fischmarkt","postalCode":"94356","locality":"Kirchroth","municipality":{"key":"09278141","name":"Kirchroth","type":"Kreisangehörige_Gemeinde"},"district":{"key":"09278","name":"Straubing-Bogen","type":"Landkreis"},"federalState":{"key":"09","name":"Bayern"}},{"name":"Am Perlbach","postalCode":"94356","locality":"Kirchroth","municipality":{"key":"09278141","name":"Kirchroth","type":"Kreisangehörige_Gemeinde"},"district":{"key":"09278","name":"Straubing-Bogen","type":"Landkreis"},"federalState":{"key":"09","name":"Bayern"}},{"name":"Am Raschberg","postalCode":"94356","locality":"Kirchroth","municipality":{"key":"09278141","name":"Kirchroth","type":"Kreisangehörige_Gemeinde"},"district":{"key":"09278","name":"Straubing-Bogen","type":"Landkreis"},"federalState":{"key":"09","name":"Bayern"}},{"name":"Am Rittersteig","postalCode":"94356","locality":"Kirchroth","municipality":{"key":"09278141","name":"Kirchroth","type":"Kreisangehörige_Gemeinde"},"district":{"key":"09278","name":"Straubing-Bogen","type":"Landkreis"},"federalState":{"key":"09","name":"Bayern"}},{"name":"Amselweg","postalCode":"94356","locality":"Kirchroth","municipality":{"key":"09278141","name":"Kirchroth","type":"Kreisangehörige_Gemeinde"},"district":{"key":"09278","name":"Straubing-Bogen","type":"Landkreis"},"federalState":{"key":"09","name":"Bayern"}},{"name":"Am Sportplatz","postalCode":"94356","locality":"Kirchroth","municipality":{"key":"09278141","name":"Kirchroth","type":"Kreisangehörige_Gemeinde"},"district":{"key":"09278","name":"Straubing-Bogen","type":"Landkreis"},"federalState":{"key":"09","name":"Bayern"}},{"name":"Asperweg","postalCode":"94356","locality":"Kirchroth","municipality":{"key":"09278141","name":"Kirchroth","type":"Kreisangehörige_Gemeinde"},"district":{"key":"09278","name":"Straubing-Bogen","type":"Landkreis"},"federalState":{"key":"09","name":"Bayern"}},{"name":"Auenstr.","postalCode":"94356","locality":"Kirchroth","municipality":{"key":"09278141","name":"Kirchroth","type":"Kreisangehörige_Gemeinde"},"district":{"key":"09278","name":"Straubing-Bogen","type":"Landkreis"},"federalState":{"key":"09","name":"Bayern"}},{"name":"Bayerwaldstr.","postalCode":"94356","locality":"Kirchroth","municipality":{"key":"09278141","name":"Kirchroth","type":"Kreisangehörige_Gemeinde"},"district":{"key":"09278","name":"Straubing-Bogen","type":"Landkreis"},"federalState":{"key":"09","name":"Bayern"}},{"name":"Benediktstr.","postalCode":"94356","locality":"Kirchroth","municipality":{"key":"09278141","name":"Kirchroth","type":"Kreisangehörige_Gemeinde"},"district":{"key":"09278","name":"Straubing-Bogen","type":"Landkreis"},"federalState":{"key":"09","name":"Bayern"}},{"name":"Bernauer Str.","postalCode":"94356","locality":"Kirchroth","municipality":{"key":"09278141","name":"Kirchroth","type":"Kreisangehörige_Gemeinde"},"district":{"key":"09278","name":"Straubing-Bogen","type":"Landkreis"},"federalState":{"key":"09","name":"Bayern"}},{"name":"Birkenstr.","postalCode":"94356","locality":"Kirchroth","municipality":{"key":"09278141","name":"Kirchroth","type":"Kreisangehörige_Gemeinde"},"district":{"key":"09278","name":"Straubing-Bogen","type":"Landkreis"},"federalState":{"key":"09","name":"Bayern"}},{"name":"Blumenstr.","postalCode":"94356","locality":"Kirchroth","municipality":{"key":"09278141","name":"Kirchroth","type":"Kreisangehörige_Gemeinde"},"district":{"key":"09278","name":"Straubing-Bogen","type":"Landkreis"},"federalState":{"key":"09","name":"Bayern"}},{"name":"Bogenstr.","postalCode":"94356","locality":"Kirchroth","municipality":{"key":"09278141","name":"Kirchroth","type":"Kreisangehörige_Gemeinde"},"district":{"key":"09278","name":"Straubing-Bogen","type":"Landkreis"},"federalState":{"key":"09","name":"Bayern"}},{"name":"Bronzeweg","postalCode":"94356","locality":"Kirchroth","municipality":{"key":"09278141","name":"Kirchroth","type":"Kreisangehörige_Gemeinde"},"district":{"key":"09278","name":"Straubing-Bogen","type":"Landkreis"},"federalState":{"key":"09","name":"Bayern"}},{"name":"Büchlweg","postalCode":"94356","locality":"Kirchroth","municipality":{"key":"09278141","name":"Kirchroth","type":"Kreisangehörige_Gemeinde"},"district":{"key":"09278","name":"Straubing-Bogen","type":"Landkreis"},"federalState":{"key":"09","name":"Bayern"}},{"name":"Dekan-Keck-Str.","postalCode":"94356","locality":"Kirchroth","municipality":{"key":"09278141","name":"Kirchroth","type":"Kreisangehörige_Gemeinde"},"district":{"key":"09278","name":"Straubing-Bogen","type":"Landkreis"},"federalState":{"key":"09","name":"Bayern"}},{"name":"Dekan-Seitz-Str.","postalCode":"94356","locality":"Kirchroth","municipality":{"key":"09278141","name":"Kirchroth","type":"Kreisangehörige_Gemeinde"},"district":{"key":"09278","name":"Straubing-Bogen","type":"Landkreis"},"federalState":{"key":"09","name":"Bayern"}},{"name":"Donaugasse","postalCode":"94356","locality":"Kirchroth","municipality":{"key":"09278141","name":"Kirchroth","type":"Kreisangehörige_Gemeinde"},"district":{"key":"09278","name":"Straubing-Bogen","type":"Landkreis"},"federalState":{"key":"09","name":"Bayern"}},{"name":"Eichenhügel","postalCode":"94356","locality":"Kirchroth","municipality":{"key":"09278141","name":"Kirchroth","type":"Kreisangehörige_Gemeinde"},"district":{"key":"09278","name":"Straubing-Bogen","type":"Landkreis"},"federalState":{"key":"09","name":"Bayern"}},{"name":"Enggasse","postalCode":"94356","locality":"Kirchroth","municipality":{"key":"09278141","name":"Kirchroth","type":"Kreisangehörige_Gemeinde"},"district":{"key":"09278","name":"Straubing-Bogen","type":"Landkreis"},"federalState":{"key":"09","name":"Bayern"}},{"name":"Erlenstr.","postalCode":"94356","locality":"Kirchroth","municipality":{"key":"09278141","name":"Kirchroth","type":"Kreisangehörige_Gemeinde"},"district":{"key":"09278","name":"Straubing-Bogen","type":"Landkreis"},"federalState":{"key":"09","name":"Bayern"}},{"name":"Feuerhausstr.","postalCode":"94356","locality":"Kirchroth","municipality":{"key":"09278141","name":"Kirchroth","type":"Kreisangehörige_Gemeinde"},"district":{"key":"09278","name":"Straubing-Bogen","type":"Landkreis"},"federalState":{"key":"09","name":"Bayern"}},{"name":"Finkenstr.","postalCode":"94356","locality":"Kirchroth","municipality":{"key":"09278141","name":"Kirchroth","type":"Kreisangehörige_Gemeinde"},"district":{"key":"09278","name":"Straubing-Bogen","type":"Landkreis"},"federalState":{"key":"09","name":"Bayern"}},{"name":"Florianstr.","postalCode":"94356","locality":"Kirchroth","municipality":{"key":"09278141","name":"Kirchroth","type":"Kreisangehörige_Gemeinde"},"district":{"key":"09278","name":"Straubing-Bogen","type":"Landkreis"},"federalState":{"key":"09","name":"Bayern"}},{"name":"Flühlingstr.","postalCode":"94356","locality":"Kirchroth","municipality":{"key":"09278141","name":"Kirchroth","type":"Kreisangehörige_Gemeinde"},"district":{"key":"09278","name":"Straubing-Bogen","type":"Landkreis"},"federalState":{"key":"09","name":"Bayern"}},{"name":"Flurstr.","postalCode":"94356","locality":"Kirchroth","municipality":{"key":"09278141","name":"Kirchroth","type":"Kreisangehörige_Gemeinde"},"district":{"key":"09278","name":"Straubing-Bogen","type":"Landkreis"},"federalState":{"key":"09","name":"Bayern"}},{"name":"Friedenhainer Str.","postalCode":"94356","locality":"Kirchroth","municipality":{"key":"09278141","name":"Kirchroth","type":"Kreisangehörige_Gemeinde"},"district":{"key":"09278","name":"Straubing-Bogen","type":"Landkreis"},"federalState":{"key":"09","name":"Bayern"}},{"name":"Gartenstr.","postalCode":"94356","locality":"Kirchroth","municipality":{"key":"09278141","name":"Kirchroth","type":"Kreisangehörige_Gemeinde"},"district":{"key":"09278","name":"Straubing-Bogen","type":"Landkreis"},"federalState":{"key":"09","name":"Bayern"}},{"name":"Germanenring","postalCode":"94356","locality":"Kirchroth","municipality":{"key":"09278141","name":"Kirchroth","type":"Kreisangehörige_Gemeinde"},"district":{"key":"09278","name":"Straubing-Bogen","type":"Landkreis"},"federalState":{"key":"09","name":"Bayern"}},{"name":"Hauptstr.","postalCode":"94356","locality":"Kirchroth","municipality":{"key":"09278141","name":"Kirchroth","type":"Kreisangehörige_Gemeinde"},"district":{"key":"09278","name":"Straubing-Bogen","type":"Landkreis"},"federalState":{"key":"09","name":"Bayern"}},{"name":"Hirschberger Weg","postalCode":"94356","locality":"Kirchroth","municipality":{"key":"09278141","name":"Kirchroth","type":"Kreisangehörige_Gemeinde"},"district":{"key":"09278","name":"Straubing-Bogen","type":"Landkreis"},"federalState":{"key":"09","name":"Bayern"}},{"name":"Hochweg","postalCode":"94356","locality":"Kirchroth","municipality":{"key":"09278141","name":"Kirchroth","type":"Kreisangehörige_Gemeinde"},"district":{"key":"09278","name":"Straubing-Bogen","type":"Landkreis"},"federalState":{"key":"09","name":"Bayern"}},{"name":"Höhenweg","postalCode":"94356","locality":"Kirchroth","municipality":{"key":"09278141","name":"Kirchroth","type":"Kreisangehörige_Gemeinde"},"district":{"key":"09278","name":"Straubing-Bogen","type":"Landkreis"},"federalState":{"key":"09","name":"Bayern"}},{"name":"Hundsschweifer Str.","postalCode":"94356","locality":"Kirchroth","municipality":{"key":"09278141","name":"Kirchroth","type":"Kreisangehörige_Gemeinde"},"district":{"key":"09278","name":"Straubing-Bogen","type":"Landkreis"},"federalState":{"key":"09","name":"Bayern"}},{"name":"Jägerstr.","postalCode":"94356","locality":"Kirchroth","municipality":{"key":"09278141","name":"Kirchroth","type":"Kreisangehörige_Gemeinde"},"district":{"key":"09278","name":"Straubing-Bogen","type":"Landkreis"},"federalState":{"key":"09","name":"Bayern"}},{"name":"Jakobiweg","postalCode":"94356","locality":"Kirchroth","municipality":{"key":"09278141","name":"Kirchroth","type":"Kreisangehörige_Gemeinde"},"district":{"key":"09278","name":"Straubing-Bogen","type":"Landkreis"},"federalState":{"key":"09","name":"Bayern"}},{"name":"Kapellenweg","postalCode":"94356","locality":"Kirchroth","municipality":{"key":"09278141","name":"Kirchroth","type":"Kreisangehörige_Gemeinde"},"district":{"key":"09278","name":"Straubing-Bogen","type":"Landkreis"},"federalState":{"key":"09","name":"Bayern"}},{"name":"Kellerweg","postalCode":"94356","locality":"Kirchroth","municipality":{"key":"09278141","name":"Kirchroth","type":"Kreisangehörige_Gemeinde"},"district":{"key":"09278","name":"Straubing-Bogen","type":"Landkreis"},"federalState":{"key":"09","name":"Bayern"}},{"name":"Keltenring","postalCode":"94356","locality":"Kirchroth","municipality":{"key":"09278141","name":"Kirchroth","type":"Kreisangehörige_Gemeinde"},"district":{"key":"09278","name":"Straubing-Bogen","type":"Landkreis"},"federalState":{"key":"09","name":"Bayern"}},{"name":"Kirchgasse","postalCode":"94356","locality":"Kirchroth","municipality":{"key":"09278141","name":"Kirchroth","type":"Kreisangehörige_Gemeinde"},"district":{"key":"09278","name":"Straubing-Bogen","type":"Landkreis"},"federalState":{"key":"09","name":"Bayern"}},{"name":"Kirchplatz","postalCode":"94356","locality":"Kirchroth","municipality":{"key":"09278141","name":"Kirchroth","type":"Kreisangehörige_Gemeinde"},"district":{"key":"09278","name":"Straubing-Bogen","type":"Landkreis"},"federalState":{"key":"09","name":"Bayern"}},{"name":"Klostergarten","postalCode":"94356","locality":"Kirchroth","municipality":{"key":"09278141","name":"Kirchroth","type":"Kreisangehörige_Gemeinde"},"district":{"key":"09278","name":"Straubing-Bogen","type":"Landkreis"},"federalState":{"key":"09","name":"Bayern"}},{"name":"Klostergasse","postalCode":"94356","locality":"Kirchroth","municipality":{"key":"09278141","name":"Kirchroth","type":"Kreisangehörige_Gemeinde"},"district":{"key":"09278","name":"Straubing-Bogen","type":"Landkreis"},"federalState":{"key":"09","name":"Bayern"}},{"name":"Krempelfurt","postalCode":"94356","locality":"Kirchroth","municipality":{"key":"09278141","name":"Kirchroth","type":"Kreisangehörige_Gemeinde"},"district":{"key":"09278","name":"Straubing-Bogen","type":"Landkreis"},"federalState":{"key":"09","name":"Bayern"}},{"name":"Kreuzacker","postalCode":"94356","locality":"Kirchroth","municipality":{"key":"09278141","name":"Kirchroth","type":"Kreisangehörige_Gemeinde"},"district":{"key":"09278","name":"Straubing-Bogen","type":"Landkreis"},"federalState":{"key":"09","name":"Bayern"}},{"name":"Kreuzweg","postalCode":"94356","locality":"Kirchroth","municipality":{"key":"09278141","name":"Kirchroth","type":"Kreisangehörige_Gemeinde"},"district":{"key":"09278","name":"Straubing-Bogen","type":"Landkreis"},"federalState":{"key":"09","name":"Bayern"}},{"name":"Lärchenweg","postalCode":"94356","locality":"Kirchroth","municipality":{"key":"09278141","name":"Kirchroth","type":"Kreisangehörige_Gemeinde"},"district":{"key":"09278","name":"Straubing-Bogen","type":"Landkreis"},"federalState":{"key":"09","name":"Bayern"}},{"name":"Laurentiusweg","postalCode":"94356","locality":"Kirchroth","municipality":{"key":"09278141","name":"Kirchroth","type":"Kreisangehörige_Gemeinde"},"district":{"key":"09278","name":"Straubing-Bogen","type":"Landkreis"},"federalState":{"key":"09","name":"Bayern"}},{"name":"Leithenweg","postalCode":"94356","locality":"Kirchroth","municipality":{"key":"09278141","name":"Kirchroth","type":"Kreisangehörige_Gemeinde"},"district":{"key":"09278","name":"Straubing-Bogen","type":"Landkreis"},"federalState":{"key":"09","name":"Bayern"}},{"name":"Leonhardiweg","postalCode":"94356","locality":"Kirchroth","municipality":{"key":"09278141","name":"Kirchroth","type":"Kreisangehörige_Gemeinde"},"district":{"key":"09278","name":"Straubing-Bogen","type":"Landkreis"},"federalState":{"key":"09","name":"Bayern"}},{"name":"Lilienstr.","postalCode":"94356","locality":"Kirchroth","municipality":{"key":"09278141","name":"Kirchroth","type":"Kreisangehörige_Gemeinde"},"district":{"key":"09278","name":"Straubing-Bogen","type":"Landkreis"},"federalState":{"key":"09","name":"Bayern"}},{"name":"Lindenstr.","postalCode":"94356","locality":"Kirchroth","municipality":{"key":"09278141","name":"Kirchroth","type":"Kreisangehörige_Gemeinde"},"district":{"key":"09278","name":"Straubing-Bogen","type":"Landkreis"},"federalState":{"key":"09","name":"Bayern"}},{"name":"Marienring","postalCode":"94356","locality":"Kirchroth","municipality":{"key":"09278141","name":"Kirchroth","type":"Kreisangehörige_Gemeinde"},"district":{"key":"09278","name":"Straubing-Bogen","type":"Landkreis"},"federalState":{"key":"09","name":"Bayern"}},{"name":"Meisenweg","postalCode":"94356","locality":"Kirchroth","municipality":{"key":"09278141","name":"Kirchroth","type":"Kreisangehörige_Gemeinde"},"district":{"key":"09278","name":"Straubing-Bogen","type":"Landkreis"},"federalState":{"key":"09","name":"Bayern"}},{"name":"Mitterweg","postalCode":"94356","locality":"Kirchroth","municipality":{"key":"09278141","name":"Kirchroth","type":"Kreisangehörige_Gemeinde"},"district":{"key":"09278","name":"Straubing-Bogen","type":"Landkreis"},"federalState":{"key":"09","name":"Bayern"}},{"name":"Mühlstr.","postalCode":"94356","locality":"Kirchroth","municipality":{"key":"09278141","name":"Kirchroth","type":"Kreisangehörige_Gemeinde"},"district":{"key":"09278","name":"Straubing-Bogen","type":"Landkreis"},"federalState":{"key":"09","name":"Bayern"}},{"name":"Münsterer Str.","postalCode":"94356","locality":"Kirchroth","municipality":{"key":"09278141","name":"Kirchroth","type":"Kreisangehörige_Gemeinde"},"district":{"key":"09278","name":"Straubing-Bogen","type":"Landkreis"},"federalState":{"key":"09","name":"Bayern"}},{"name":"Nepomuk-Ring","postalCode":"94356","locality":"Kirchroth","municipality":{"key":"09278141","name":"Kirchroth","type":"Kreisangehörige_Gemeinde"},"district":{"key":"09278","name":"Straubing-Bogen","type":"Landkreis"},"federalState":{"key":"09","name":"Bayern"}},{"name":"Neudau","postalCode":"94356","locality":"Kirchroth","municipality":{"key":"09278141","name":"Kirchroth","type":"Kreisangehörige_Gemeinde"},"district":{"key":"09278","name":"Straubing-Bogen","type":"Landkreis"},"federalState":{"key":"09","name":"Bayern"}},{"name":"Ortsplatz","postalCode":"94356","locality":"Kirchroth","municipality":{"key":"09278141","name":"Kirchroth","type":"Kreisangehörige_Gemeinde"},"district":{"key":"09278","name":"Straubing-Bogen","type":"Landkreis"},"federalState":{"key":"09","name":"Bayern"}},{"name":"Otto-Hiendl-Str.","postalCode":"94356","locality":"Kirchroth","municipality":{"key":"09278141","name":"Kirchroth","type":"Kreisangehörige_Gemeinde"},"district":{"key":"09278","name":"Straubing-Bogen","type":"Landkreis"},"federalState":{"key":"09","name":"Bayern"}},{"name":"Parkstettener Str.","postalCode":"94356","locality":"Kirchroth","municipality":{"key":"09278141","name":"Kirchroth","type":"Kreisangehörige_Gemeinde"},"district":{"key":"09278","name":"Straubing-Bogen","type":"Landkreis"},"federalState":{"key":"09","name":"Bayern"}},{"name":"Petersweg","postalCode":"94356","locality":"Kirchroth","municipality":{"key":"09278141","name":"Kirchroth","type":"Kreisangehörige_Gemeinde"},"district":{"key":"09278","name":"Straubing-Bogen","type":"Landkreis"},"federalState":{"key":"09","name":"Bayern"}},{"name":"Pfalzstr.","postalCode":"94356","locality":"Kirchroth","municipality":{"key":"09278141","name":"Kirchroth","type":"Kreisangehörige_Gemeinde"},"district":{"key":"09278","name":"Straubing-Bogen","type":"Landkreis"},"federalState":{"key":"09","name":"Bayern"}},{"name":"Pilgerstr.","postalCode":"94356","locality":"Kirchroth","municipality":{"key":"09278141","name":"Kirchroth","type":"Kreisangehörige_Gemeinde"},"district":{"key":"09278","name":"Straubing-Bogen","type":"Landkreis"},"federalState":{"key":"09","name":"Bayern"}},{"name":"Pittrich","postalCode":"94356","locality":"Kirchroth","municipality":{"key":"09278141","name":"Kirchroth","type":"Kreisangehörige_Gemeinde"},"district":{"key":"09278","name":"Straubing-Bogen","type":"Landkreis"},"federalState":{"key":"09","name":"Bayern"}},{"name":"Raiffeisenstr.","postalCode":"94356","locality":"Kirchroth","municipality":{"key":"09278141","name":"Kirchroth","type":"Kreisangehörige_Gemeinde"},"district":{"key":"09278","name":"Straubing-Bogen","type":"Landkreis"},"federalState":{"key":"09","name":"Bayern"}},{"name":"Regensburger Str.","postalCode":"94356","locality":"Kirchroth","municipality":{"key":"09278141","name":"Kirchroth","type":"Kreisangehörige_Gemeinde"},"district":{"key":"09278","name":"Straubing-Bogen","type":"Landkreis"},"federalState":{"key":"09","name":"Bayern"}},{"name":"Reiterweg","postalCode":"94356","locality":"Kirchroth","municipality":{"key":"09278141","name":"Kirchroth","type":"Kreisangehörige_Gemeinde"},"district":{"key":"09278","name":"Straubing-Bogen","type":"Landkreis"},"federalState":{"key":"09","name":"Bayern"}},{"name":"Ringstr.","postalCode":"94356","locality":"Kirchroth","municipality":{"key":"09278141","name":"Kirchroth","type":"Kreisangehörige_Gemeinde"},"district":{"key":"09278","name":"Straubing-Bogen","type":"Landkreis"},"federalState":{"key":"09","name":"Bayern"}},{"name":"Roith","postalCode":"94356","locality":"Kirchroth","municipality":{"key":"09278141","name":"Kirchroth","type":"Kreisangehörige_Gemeinde"},"district":{"key":"09278","name":"Straubing-Bogen","type":"Landkreis"},"federalState":{"key":"09","name":"Bayern"}},{"name":"Römerweg","postalCode":"94356","locality":"Kirchroth","municipality":{"key":"09278141","name":"Kirchroth","type":"Kreisangehörige_Gemeinde"},"district":{"key":"09278","name":"Straubing-Bogen","type":"Landkreis"},"federalState":{"key":"09","name":"Bayern"}},{"name":"Rosenweg","postalCode":"94356","locality":"Kirchroth","municipality":{"key":"09278141","name":"Kirchroth","type":"Kreisangehörige_Gemeinde"},"district":{"key":"09278","name":"Straubing-Bogen","type":"Landkreis"},"federalState":{"key":"09","name":"Bayern"}},{"name":"Sandweg","postalCode":"94356","locality":"Kirchroth","municipality":{"key":"09278141","name":"Kirchroth","type":"Kreisangehörige_Gemeinde"},"district":{"key":"09278","name":"Straubing-Bogen","type":"Landkreis"},"federalState":{"key":"09","name":"Bayern"}},{"name":"Sankt-Gangolf-Str.","postalCode":"94356","locality":"Kirchroth","municipality":{"key":"09278141","name":"Kirchroth","type":"Kreisangehörige_Gemeinde"},"district":{"key":"09278","name":"Straubing-Bogen","type":"Landkreis"},"federalState":{"key":"09","name":"Bayern"}},{"name":"Siebenbrunnen","postalCode":"94356","locality":"Kirchroth","municipality":{"key":"09278141","name":"Kirchroth","type":"Kreisangehörige_Gemeinde"},"district":{"key":"09278","name":"Straubing-Bogen","type":"Landkreis"},"federalState":{"key":"09","name":"Bayern"}},{"name":"Siedlerweg","postalCode":"94356","locality":"Kirchroth","municipality":{"key":"09278141","name":"Kirchroth","type":"Kreisangehörige_Gemeinde"},"district":{"key":"09278","name":"Straubing-Bogen","type":"Landkreis"},"federalState":{"key":"09","name":"Bayern"}},{"name":"Sonnenweg","postalCode":"94356","locality":"Kirchroth","municipality":{"key":"09278141","name":"Kirchroth","type":"Kreisangehörige_Gemeinde"},"district":{"key":"09278","name":"Straubing-Bogen","type":"Landkreis"},"federalState":{"key":"09","name":"Bayern"}},{"name":"Steinzeitweg","postalCode":"94356","locality":"Kirchroth","municipality":{"key":"09278141","name":"Kirchroth","type":"Kreisangehörige_Gemeinde"},"district":{"key":"09278","name":"Straubing-Bogen","type":"Landkreis"},"federalState":{"key":"09","name":"Bayern"}},{"name":"Straubinger Str.","postalCode":"94356","locality":"Kirchroth","municipality":{"key":"09278141","name":"Kirchroth","type":"Kreisangehörige_Gemeinde"},"district":{"key":"09278","name":"Straubing-Bogen","type":"Landkreis"},"federalState":{"key":"09","name":"Bayern"}},{"name":"St.-Vitus-Str.","postalCode":"94356","locality":"Kirchroth","municipality":{"key":"09278141","name":"Kirchroth","type":"Kreisangehörige_Gemeinde"},"district":{"key":"09278","name":"Straubing-Bogen","type":"Landkreis"},"federalState":{"key":"09","name":"Bayern"}},{"name":"Tulpenstr.","postalCode":"94356","locality":"Kirchroth","municipality":{"key":"09278141","name":"Kirchroth","type":"Kreisangehörige_Gemeinde"},"district":{"key":"09278","name":"Straubing-Bogen","type":"Landkreis"},"federalState":{"key":"09","name":"Bayern"}},{"name":"Ulmenweg","postalCode":"94356","locality":"Kirchroth","municipality":{"key":"09278141","name":"Kirchroth","type":"Kreisangehörige_Gemeinde"},"district":{"key":"09278","name":"Straubing-Bogen","type":"Landkreis"},"federalState":{"key":"09","name":"Bayern"}},{"name":"Untere Dorfstr.","postalCode":"94356","locality":"Kirchroth","municipality":{"key":"09278141","name":"Kirchroth","type":"Kreisangehörige_Gemeinde"},"district":{"key":"09278","name":"Straubing-Bogen","type":"Landkreis"},"federalState":{"key":"09","name":"Bayern"}},{"name":"Untermiethnach","postalCode":"94356","locality":"Kirchroth","municipality":{"key":"09278141","name":"Kirchroth","type":"Kreisangehörige_Gemeinde"},"district":{"key":"09278","name":"Straubing-Bogen","type":"Landkreis"},"federalState":{"key":"09","name":"Bayern"}},{"name":"Waldstr.","postalCode":"94356","locality":"Kirchroth","municipality":{"key":"09278141","name":"Kirchroth","type":"Kreisangehörige_Gemeinde"},"district":{"key":"09278","name":"Straubing-Bogen","type":"Landkreis"},"federalState":{"key":"09","name":"Bayern"}},{"name":"Wanderweg 8","postalCode":"94356","locality":"Kirchroth","municipality":{"key":"09278141","name":"Kirchroth","type":"Kreisangehörige_Gemeinde"},"district":{"key":"09278","name":"Straubing-Bogen","type":"Landkreis"},"federalState":{"key":"09","name":"Bayern"}},{"name":"Wasenweg","postalCode":"94356","locality":"Kirchroth","municipality":{"key":"09278141","name":"Kirchroth","type":"Kreisangehörige_Gemeinde"},"district":{"key":"09278","name":"Straubing-Bogen","type":"Landkreis"},"federalState":{"key":"09","name":"Bayern"}},{"name":"Weidenweg","postalCode":"94356","locality":"Kirchroth","municipality":{"key":"09278141","name":"Kirchroth","type":"Kreisangehörige_Gemeinde"},"district":{"key":"09278","name":"Straubing-Bogen","type":"Landkreis"},"federalState":{"key":"09","name":"Bayern"}},{"name":"Weiher","postalCode":"94356","locality":"Kirchroth","municipality":{"key":"09278141","name":"Kirchroth","type":"Kreisangehörige_Gemeinde"},"district":{"key":"09278","name":"Straubing-Bogen","type":"Landkreis"},"federalState":{"key":"09","name":"Bayern"}},{"name":"Weingartenweg","postalCode":"94356","locality":"Kirchroth","municipality":{"key":"09278141","name":"Kirchroth","type":"Kreisangehörige_Gemeinde"},"district":{"key":"09278","name":"Straubing-Bogen","type":"Landkreis"},"federalState":{"key":"09","name":"Bayern"}},{"name":"Wiesenweg","postalCode":"94356","locality":"Kirchroth","municipality":{"key":"09278141","name":"Kirchroth","type":"Kreisangehörige_Gemeinde"},"district":{"key":"09278","name":"Straubing-Bogen","type":"Landkreis"},"federalState":{"key":"09","name":"Bayern"}},{"name":"Windschnur","postalCode":"94356","locality":"Kirchroth","municipality":{"key":"09278141","name":"Kirchroth","type":"Kreisangehörige_Gemeinde"},"district":{"key":"09278","name":"Straubing-Bogen","type":"Landkreis"},"federalState":{"key":"09","name":"Bayern"}},{"name":"Winzerweg","postalCode":"94356","locality":"Kirchroth","municipality":{"key":"09278141","name":"Kirchroth","type":"Kreisangehörige_Gemeinde"},"district":{"key":"09278","name":"Straubing-Bogen","type":"Landkreis"},"federalState":{"key":"09","name":"Bayern"}},{"name":"Wirtsgasse","postalCode":"94356","locality":"Kirchroth","municipality":{"key":"09278141","name":"Kirchroth","type":"Kreisangehörige_Gemeinde"},"district":{"key":"09278","name":"Straubing-Bogen","type":"Landkreis"},"federalState":{"key":"09","name":"Bayern"}},{"name":"Zinzendorfer Weg","postalCode":"94356","locality":"Kirchroth","municipality":{"key":"09278141","name":"Kirchroth","type":"Kreisangehörige_Gemeinde"},"district":{"key":"09278","name":"Straubing-Bogen","type":"Landkreis"},"federalState":{"key":"09","name":"Bayern"}},{"name":"Zum Schloßberg","postalCode":"94356","locality":"Kirchroth","municipality":{"key":"09278141","name":"Kirchroth","type":"Kreisangehörige_Gemeinde"},"district":{"key":"09278","name":"Straubing-Bogen","type":"Landkreis"},"federalState":{"key":"09","name":"Bayern"}},{"name":"Zur Fähre","postalCode":"94356","locality":"Kirchroth","municipality":{"key":"09278141","name":"Kirchroth","type":"Kreisangehörige_Gemeinde"},"district":{"key":"09278","name":"Straubing-Bogen","type":"Landkreis"},"federalState":{"key":"09","name":"Bayern"}},]