[{"name":"Ahornweg","postalCode":"34314","locality":"Espenau","municipality":{"key":"06633007","name":"Espenau","type":"Kreisangehörige_Gemeinde"},"district":{"key":"06633","name":"Kassel","type":"Landkreis"},"federalState":{"key":"06","name":"Hessen"}},{"name":"Am Hang","postalCode":"34314","locality":"Espenau","municipality":{"key":"06633007","name":"Espenau","type":"Kreisangehörige_Gemeinde"},"district":{"key":"06633","name":"Kassel","type":"Landkreis"},"federalState":{"key":"06","name":"Hessen"}},{"name":"Am Häsel","postalCode":"34314","locality":"Espenau","municipality":{"key":"06633007","name":"Espenau","type":"Kreisangehörige_Gemeinde"},"district":{"key":"06633","name":"Kassel","type":"Landkreis"},"federalState":{"key":"06","name":"Hessen"}},{"name":"Am Hausgarten","postalCode":"34314","locality":"Espenau","municipality":{"key":"06633007","name":"Espenau","type":"Kreisangehörige_Gemeinde"},"district":{"key":"06633","name":"Kassel","type":"Landkreis"},"federalState":{"key":"06","name":"Hessen"}},{"name":"Am Kampe","postalCode":"34314","locality":"Espenau","municipality":{"key":"06633007","name":"Espenau","type":"Kreisangehörige_Gemeinde"},"district":{"key":"06633","name":"Kassel","type":"Landkreis"},"federalState":{"key":"06","name":"Hessen"}},{"name":"Am Kirchberg","postalCode":"34314","locality":"Espenau","municipality":{"key":"06633007","name":"Espenau","type":"Kreisangehörige_Gemeinde"},"district":{"key":"06633","name":"Kassel","type":"Landkreis"},"federalState":{"key":"06","name":"Hessen"}},{"name":"Am Walde","postalCode":"34314","locality":"Espenau","municipality":{"key":"06633007","name":"Espenau","type":"Kreisangehörige_Gemeinde"},"district":{"key":"06633","name":"Kassel","type":"Landkreis"},"federalState":{"key":"06","name":"Hessen"}},{"name":"An der Kirche","postalCode":"34314","locality":"Espenau","municipality":{"key":"06633007","name":"Espenau","type":"Kreisangehörige_Gemeinde"},"district":{"key":"06633","name":"Kassel","type":"Landkreis"},"federalState":{"key":"06","name":"Hessen"}},{"name":"An der Zehntscheune","postalCode":"34314","locality":"Espenau","municipality":{"key":"06633007","name":"Espenau","type":"Kreisangehörige_Gemeinde"},"district":{"key":"06633","name":"Kassel","type":"Landkreis"},"federalState":{"key":"06","name":"Hessen"}},{"name":"Auf der Heide","postalCode":"34314","locality":"Espenau","municipality":{"key":"06633007","name":"Espenau","type":"Kreisangehörige_Gemeinde"},"district":{"key":"06633","name":"Kassel","type":"Landkreis"},"federalState":{"key":"06","name":"Hessen"}},{"name":"Auf der Lohbach","postalCode":"34314","locality":"Espenau","municipality":{"key":"06633007","name":"Espenau","type":"Kreisangehörige_Gemeinde"},"district":{"key":"06633","name":"Kassel","type":"Landkreis"},"federalState":{"key":"06","name":"Hessen"}},{"name":"Auf der Schanze","postalCode":"34314","locality":"Espenau","municipality":{"key":"06633007","name":"Espenau","type":"Kreisangehörige_Gemeinde"},"district":{"key":"06633","name":"Kassel","type":"Landkreis"},"federalState":{"key":"06","name":"Hessen"}},{"name":"Bahnhofstr.","postalCode":"34314","locality":"Espenau","municipality":{"key":"06633007","name":"Espenau","type":"Kreisangehörige_Gemeinde"},"district":{"key":"06633","name":"Kassel","type":"Landkreis"},"federalState":{"key":"06","name":"Hessen"}},{"name":"Bergstr.","postalCode":"34314","locality":"Espenau","municipality":{"key":"06633007","name":"Espenau","type":"Kreisangehörige_Gemeinde"},"district":{"key":"06633","name":"Kassel","type":"Landkreis"},"federalState":{"key":"06","name":"Hessen"}},{"name":"Berliner Str.","postalCode":"34314","locality":"Espenau","municipality":{"key":"06633007","name":"Espenau","type":"Kreisangehörige_Gemeinde"},"district":{"key":"06633","name":"Kassel","type":"Landkreis"},"federalState":{"key":"06","name":"Hessen"}},{"name":"Birkenweg","postalCode":"34314","locality":"Espenau","municipality":{"key":"06633007","name":"Espenau","type":"Kreisangehörige_Gemeinde"},"district":{"key":"06633","name":"Kassel","type":"Landkreis"},"federalState":{"key":"06","name":"Hessen"}},{"name":"Bockgasse","postalCode":"34314","locality":"Espenau","municipality":{"key":"06633007","name":"Espenau","type":"Kreisangehörige_Gemeinde"},"district":{"key":"06633","name":"Kassel","type":"Landkreis"},"federalState":{"key":"06","name":"Hessen"}},{"name":"Bruchfeldweg","postalCode":"34314","locality":"Espenau","municipality":{"key":"06633007","name":"Espenau","type":"Kreisangehörige_Gemeinde"},"district":{"key":"06633","name":"Kassel","type":"Landkreis"},"federalState":{"key":"06","name":"Hessen"}},{"name":"Buchenstr.","postalCode":"34314","locality":"Espenau","municipality":{"key":"06633007","name":"Espenau","type":"Kreisangehörige_Gemeinde"},"district":{"key":"06633","name":"Kassel","type":"Landkreis"},"federalState":{"key":"06","name":"Hessen"}},{"name":"Cäcilienweg","postalCode":"53859","locality":"Niederkassel","municipality":{"key":"05382044","name":"Niederkassel, Stadt","type":"Stadt"},"district":{"key":"05382","name":"Rhein-Sieg-Kreis","type":"Kreis"},"federalState":{"key":"05","name":"Nordrhein-Westfalen"}},{"name":"Caldener Str.","postalCode":"34127","locality":"Kassel","municipality":{"key":"06611000","name":"Kassel, documenta-Stadt","type":"Kreisfreie_Stadt"},"district":{"key":"06611","name":"Kassel, documenta-Stadt","type":"Kreisfreie_Stadt"},"federalState":{"key":"06","name":"Hessen"}},{"name":"Carl-Benz-Ring","postalCode":"53859","locality":"Niederkassel","municipality":{"key":"05382044","name":"Niederkassel, Stadt","type":"Stadt"},"district":{"key":"05382","name":"Rhein-Sieg-Kreis","type":"Kreis"},"federalState":{"key":"05","name":"Nordrhein-Westfalen"}},{"name":"Carlo-Mierendorff-Str.","postalCode":"34132","locality":"Kassel","municipality":{"key":"06611000","name":"Kassel, documenta-Stadt","type":"Kreisfreie_Stadt"},"district":{"key":"06611","name":"Kassel, documenta-Stadt","type":"Kreisfreie_Stadt"},"federalState":{"key":"06","name":"Hessen"}},{"name":"Carlo-Schmid-Str.","postalCode":"53859","locality":"Niederkassel","municipality":{"key":"05382044","name":"Niederkassel, Stadt","type":"Stadt"},"district":{"key":"05382","name":"Rhein-Sieg-Kreis","type":"Kreis"},"federalState":{"key":"05","name":"Nordrhein-Westfalen"}},{"name":"Carlsdorfer Str.","postalCode":"34128","locality":"Kassel","municipality":{"key":"06611000","name":"Kassel, documenta-Stadt","type":"Kreisfreie_Stadt"},"district":{"key":"06611","name":"Kassel, documenta-Stadt","type":"Kreisfreie_Stadt"},"federalState":{"key":"06","name":"Hessen"}},{"name":"Carl-Zeiss-Str.","postalCode":"53859","locality":"Niederkassel","municipality":{"key":"05382044","name":"Niederkassel, Stadt","type":"Stadt"},"district":{"key":"05382","name":"Rhein-Sieg-Kreis","type":"Kreis"},"federalState":{"key":"05","name":"Nordrhein-Westfalen"}},{"name":"Cassiusweg","postalCode":"53859","locality":"Niederkassel","municipality":{"key":"05382044","name":"Niederkassel, Stadt","type":"Stadt"},"district":{"key":"05382","name":"Rhein-Sieg-Kreis","type":"Kreis"},"federalState":{"key":"05","name":"Nordrhein-Westfalen"}},{"name":"Cauerstr.","postalCode":"34125","locality":"Kassel","municipality":{"key":"06611000","name":"Kassel, documenta-Stadt","type":"Kreisfreie_Stadt"},"district":{"key":"06611","name":"Kassel, documenta-Stadt","type":"Kreisfreie_Stadt"},"federalState":{"key":"06","name":"Hessen"}},{"name":"Chamissostr.","postalCode":"34125","locality":"Kassel","municipality":{"key":"06611000","name":"Kassel, documenta-Stadt","type":"Kreisfreie_Stadt"},"district":{"key":"06611","name":"Kassel, documenta-Stadt","type":"Kreisfreie_Stadt"},"federalState":{"key":"06","name":"Hessen"}},{"name":"Cheruskerstr.","postalCode":"53859","locality":"Niederkassel","municipality":{"key":"05382044","name":"Niederkassel, Stadt","type":"Stadt"},"district":{"key":"05382","name":"Rhein-Sieg-Kreis","type":"Kreis"},"federalState":{"key":"05","name":"Nordrhein-Westfalen"}},{"name":"Christbuchenstr.","postalCode":"34130","locality":"Kassel","municipality":{"key":"06611000","name":"Kassel, documenta-Stadt","type":"Kreisfreie_Stadt"},"district":{"key":"06611","name":"Kassel, documenta-Stadt","type":"Kreisfreie_Stadt"},"federalState":{"key":"06","name":"Hessen"}},{"name":"Christian-Beyer-Str.","postalCode":"34128","locality":"Kassel","municipality":{"key":"06611000","name":"Kassel, documenta-Stadt","type":"Kreisfreie_Stadt"},"district":{"key":"06611","name":"Kassel, documenta-Stadt","type":"Kreisfreie_Stadt"},"federalState":{"key":"06","name":"Hessen"}},{"name":"Christian-Reul-Str.","postalCode":"34121","locality":"Kassel","municipality":{"key":"06611000","name":"Kassel, documenta-Stadt","type":"Kreisfreie_Stadt"},"district":{"key":"06611","name":"Kassel, documenta-Stadt","type":"Kreisfreie_Stadt"},"federalState":{"key":"06","name":"Hessen"}},{"name":"Christian-von-Rommel-Str.","postalCode":"34128","locality":"Kassel","municipality":{"key":"06611000","name":"Kassel, documenta-Stadt","type":"Kreisfreie_Stadt"},"district":{"key":"06611","name":"Kassel, documenta-Stadt","type":"Kreisfreie_Stadt"},"federalState":{"key":"06","name":"Hessen"}},{"name":"Christine-Teusch-Str.","postalCode":"53859","locality":"Niederkassel","municipality":{"key":"05382044","name":"Niederkassel, Stadt","type":"Stadt"},"district":{"key":"05382","name":"Rhein-Sieg-Kreis","type":"Kreis"},"federalState":{"key":"05","name":"Nordrhein-Westfalen"}},{"name":"Christophstr.","postalCode":"34123","locality":"Kassel","municipality":{"key":"06611000","name":"Kassel, documenta-Stadt","type":"Kreisfreie_Stadt"},"district":{"key":"06611","name":"Kassel, documenta-Stadt","type":"Kreisfreie_Stadt"},"federalState":{"key":"06","name":"Hessen"}},{"name":"Cimbernstr.","postalCode":"53859","locality":"Niederkassel","municipality":{"key":"05382044","name":"Niederkassel, Stadt","type":"Stadt"},"district":{"key":"05382","name":"Rhein-Sieg-Kreis","type":"Kreis"},"federalState":{"key":"05","name":"Nordrhein-Westfalen"}},{"name":"Clara-Immerwahr-Str.","postalCode":"34117","locality":"Kassel","municipality":{"key":"06611000","name":"Kassel, documenta-Stadt","type":"Kreisfreie_Stadt"},"district":{"key":"06611","name":"Kassel, documenta-Stadt","type":"Kreisfreie_Stadt"},"federalState":{"key":"06","name":"Hessen"}},{"name":"Coburger Weg","postalCode":"53859","locality":"Niederkassel","municipality":{"key":"05382044","name":"Niederkassel, Stadt","type":"Stadt"},"district":{"key":"05382","name":"Rhein-Sieg-Kreis","type":"Kreis"},"federalState":{"key":"05","name":"Nordrhein-Westfalen"}},{"name":"Cordulaweg","postalCode":"53859","locality":"Niederkassel","municipality":{"key":"05382044","name":"Niederkassel, Stadt","type":"Stadt"},"district":{"key":"05382","name":"Rhein-Sieg-Kreis","type":"Kreis"},"federalState":{"key":"05","name":"Nordrhein-Westfalen"}},{"name":"Credéstr.","postalCode":"34121","locality":"Kassel","municipality":{"key":"06611000","name":"Kassel, documenta-Stadt","type":"Kreisfreie_Stadt"},"district":{"key":"06611","name":"Kassel, documenta-Stadt","type":"Kreisfreie_Stadt"},"federalState":{"key":"06","name":"Hessen"}},{"name":"Credéstr.","postalCode":"34134","locality":"Kassel","municipality":{"key":"06611000","name":"Kassel, documenta-Stadt","type":"Kreisfreie_Stadt"},"district":{"key":"06611","name":"Kassel, documenta-Stadt","type":"Kreisfreie_Stadt"},"federalState":{"key":"06","name":"Hessen"}},{"name":"Crumbacher Str.","postalCode":"34123","locality":"Kassel","municipality":{"key":"06611000","name":"Kassel, documenta-Stadt","type":"Kreisfreie_Stadt"},"district":{"key":"06611","name":"Kassel, documenta-Stadt","type":"Kreisfreie_Stadt"},"federalState":{"key":"06","name":"Hessen"}},{"name":"Diemelweg","postalCode":"34314","locality":"Espenau","municipality":{"key":"06633007","name":"Espenau","type":"Kreisangehörige_Gemeinde"},"district":{"key":"06633","name":"Kassel","type":"Landkreis"},"federalState":{"key":"06","name":"Hessen"}},{"name":"Egerlandstr.","postalCode":"34314","locality":"Espenau","municipality":{"key":"06633007","name":"Espenau","type":"Kreisangehörige_Gemeinde"},"district":{"key":"06633","name":"Kassel","type":"Landkreis"},"federalState":{"key":"06","name":"Hessen"}},{"name":"Erbsgasse","postalCode":"34314","locality":"Espenau","municipality":{"key":"06633007","name":"Espenau","type":"Kreisangehörige_Gemeinde"},"district":{"key":"06633","name":"Kassel","type":"Landkreis"},"federalState":{"key":"06","name":"Hessen"}},{"name":"Erlenweg","postalCode":"34314","locality":"Espenau","municipality":{"key":"06633007","name":"Espenau","type":"Kreisangehörige_Gemeinde"},"district":{"key":"06633","name":"Kassel","type":"Landkreis"},"federalState":{"key":"06","name":"Hessen"}},{"name":"Esseweg","postalCode":"34314","locality":"Espenau","municipality":{"key":"06633007","name":"Espenau","type":"Kreisangehörige_Gemeinde"},"district":{"key":"06633","name":"Kassel","type":"Landkreis"},"federalState":{"key":"06","name":"Hessen"}},{"name":"Feldscheideweg","postalCode":"34314","locality":"Espenau","municipality":{"key":"06633007","name":"Espenau","type":"Kreisangehörige_Gemeinde"},"district":{"key":"06633","name":"Kassel","type":"Landkreis"},"federalState":{"key":"06","name":"Hessen"}},{"name":"Fliederweg","postalCode":"34314","locality":"Espenau","municipality":{"key":"06633007","name":"Espenau","type":"Kreisangehörige_Gemeinde"},"district":{"key":"06633","name":"Kassel","type":"Landkreis"},"federalState":{"key":"06","name":"Hessen"}},{"name":"Frankenhäuser Weg","postalCode":"34314","locality":"Espenau","municipality":{"key":"06633007","name":"Espenau","type":"Kreisangehörige_Gemeinde"},"district":{"key":"06633","name":"Kassel","type":"Landkreis"},"federalState":{"key":"06","name":"Hessen"}},{"name":"Fuldaweg","postalCode":"34314","locality":"Espenau","municipality":{"key":"06633007","name":"Espenau","type":"Kreisangehörige_Gemeinde"},"district":{"key":"06633","name":"Kassel","type":"Landkreis"},"federalState":{"key":"06","name":"Hessen"}},{"name":"Gangloffsömmerner Ring","postalCode":"34314","locality":"Espenau","municipality":{"key":"06633007","name":"Espenau","type":"Kreisangehörige_Gemeinde"},"district":{"key":"06633","name":"Kassel","type":"Landkreis"},"federalState":{"key":"06","name":"Hessen"}},{"name":"Gehrenweg","postalCode":"34314","locality":"Espenau","municipality":{"key":"06633007","name":"Espenau","type":"Kreisangehörige_Gemeinde"},"district":{"key":"06633","name":"Kassel","type":"Landkreis"},"federalState":{"key":"06","name":"Hessen"}},{"name":"Ginsterweg","postalCode":"34314","locality":"Espenau","municipality":{"key":"06633007","name":"Espenau","type":"Kreisangehörige_Gemeinde"},"district":{"key":"06633","name":"Kassel","type":"Landkreis"},"federalState":{"key":"06","name":"Hessen"}},{"name":"Goethestr.","postalCode":"34314","locality":"Espenau","municipality":{"key":"06633007","name":"Espenau","type":"Kreisangehörige_Gemeinde"},"district":{"key":"06633","name":"Kassel","type":"Landkreis"},"federalState":{"key":"06","name":"Hessen"}},{"name":"Grebensteiner Str.","postalCode":"34314","locality":"Espenau","municipality":{"key":"06633007","name":"Espenau","type":"Kreisangehörige_Gemeinde"},"district":{"key":"06633","name":"Kassel","type":"Landkreis"},"federalState":{"key":"06","name":"Hessen"}},{"name":"Grundfeld","postalCode":"34314","locality":"Espenau","municipality":{"key":"06633007","name":"Espenau","type":"Kreisangehörige_Gemeinde"},"district":{"key":"06633","name":"Kassel","type":"Landkreis"},"federalState":{"key":"06","name":"Hessen"}},{"name":"Hauerlandstr.","postalCode":"34314","locality":"Espenau","municipality":{"key":"06633007","name":"Espenau","type":"Kreisangehörige_Gemeinde"},"district":{"key":"06633","name":"Kassel","type":"Landkreis"},"federalState":{"key":"06","name":"Hessen"}},{"name":"Havelweg","postalCode":"34314","locality":"Espenau","municipality":{"key":"06633007","name":"Espenau","type":"Kreisangehörige_Gemeinde"},"district":{"key":"06633","name":"Kassel","type":"Landkreis"},"federalState":{"key":"06","name":"Hessen"}},{"name":"Heideweg","postalCode":"34314","locality":"Espenau","municipality":{"key":"06633007","name":"Espenau","type":"Kreisangehörige_Gemeinde"},"district":{"key":"06633","name":"Kassel","type":"Landkreis"},"federalState":{"key":"06","name":"Hessen"}},{"name":"Heinestr.","postalCode":"34314","locality":"Espenau","municipality":{"key":"06633007","name":"Espenau","type":"Kreisangehörige_Gemeinde"},"district":{"key":"06633","name":"Kassel","type":"Landkreis"},"federalState":{"key":"06","name":"Hessen"}},{"name":"Heinrichstr.","postalCode":"34314","locality":"Espenau","municipality":{"key":"06633007","name":"Espenau","type":"Kreisangehörige_Gemeinde"},"district":{"key":"06633","name":"Kassel","type":"Landkreis"},"federalState":{"key":"06","name":"Hessen"}},{"name":"Hermann-Gmeiner-Str.","postalCode":"34314","locality":"Espenau","municipality":{"key":"06633007","name":"Espenau","type":"Kreisangehörige_Gemeinde"},"district":{"key":"06633","name":"Kassel","type":"Landkreis"},"federalState":{"key":"06","name":"Hessen"}},{"name":"Hinter dem Hagen","postalCode":"34314","locality":"Espenau","municipality":{"key":"06633007","name":"Espenau","type":"Kreisangehörige_Gemeinde"},"district":{"key":"06633","name":"Kassel","type":"Landkreis"},"federalState":{"key":"06","name":"Hessen"}},{"name":"Hintergasse","postalCode":"34314","locality":"Espenau","municipality":{"key":"06633007","name":"Espenau","type":"Kreisangehörige_Gemeinde"},"district":{"key":"06633","name":"Kassel","type":"Landkreis"},"federalState":{"key":"06","name":"Hessen"}},{"name":"Hohenkirchener Str.","postalCode":"34314","locality":"Espenau","municipality":{"key":"06633007","name":"Espenau","type":"Kreisangehörige_Gemeinde"},"district":{"key":"06633","name":"Kassel","type":"Landkreis"},"federalState":{"key":"06","name":"Hessen"}},{"name":"Holzgrabenweg","postalCode":"34314","locality":"Espenau","municipality":{"key":"06633007","name":"Espenau","type":"Kreisangehörige_Gemeinde"},"district":{"key":"06633","name":"Kassel","type":"Landkreis"},"federalState":{"key":"06","name":"Hessen"}},{"name":"Holzhäuser Str.","postalCode":"34314","locality":"Espenau","municipality":{"key":"06633007","name":"Espenau","type":"Kreisangehörige_Gemeinde"},"district":{"key":"06633","name":"Kassel","type":"Landkreis"},"federalState":{"key":"06","name":"Hessen"}},{"name":"Im Gewerbepark","postalCode":"34314","locality":"Espenau","municipality":{"key":"06633007","name":"Espenau","type":"Kreisangehörige_Gemeinde"},"district":{"key":"06633","name":"Kassel","type":"Landkreis"},"federalState":{"key":"06","name":"Hessen"}},{"name":"Im Goldenen Horn","postalCode":"34314","locality":"Espenau","municipality":{"key":"06633007","name":"Espenau","type":"Kreisangehörige_Gemeinde"},"district":{"key":"06633","name":"Kassel","type":"Landkreis"},"federalState":{"key":"06","name":"Hessen"}},{"name":"Im Grund","postalCode":"34314","locality":"Espenau","municipality":{"key":"06633007","name":"Espenau","type":"Kreisangehörige_Gemeinde"},"district":{"key":"06633","name":"Kassel","type":"Landkreis"},"federalState":{"key":"06","name":"Hessen"}},{"name":"Im Hopfenfeld","postalCode":"34314","locality":"Espenau","municipality":{"key":"06633007","name":"Espenau","type":"Kreisangehörige_Gemeinde"},"district":{"key":"06633","name":"Kassel","type":"Landkreis"},"federalState":{"key":"06","name":"Hessen"}},{"name":"Immenhäuser Str.","postalCode":"34314","locality":"Espenau","municipality":{"key":"06633007","name":"Espenau","type":"Kreisangehörige_Gemeinde"},"district":{"key":"06633","name":"Kassel","type":"Landkreis"},"federalState":{"key":"06","name":"Hessen"}},{"name":"Im Ort","postalCode":"34314","locality":"Espenau","municipality":{"key":"06633007","name":"Espenau","type":"Kreisangehörige_Gemeinde"},"district":{"key":"06633","name":"Kassel","type":"Landkreis"},"federalState":{"key":"06","name":"Hessen"}},{"name":"Imster Ring","postalCode":"34314","locality":"Espenau","municipality":{"key":"06633007","name":"Espenau","type":"Kreisangehörige_Gemeinde"},"district":{"key":"06633","name":"Kassel","type":"Landkreis"},"federalState":{"key":"06","name":"Hessen"}},{"name":"Im Teich","postalCode":"34314","locality":"Espenau","municipality":{"key":"06633007","name":"Espenau","type":"Kreisangehörige_Gemeinde"},"district":{"key":"06633","name":"Kassel","type":"Landkreis"},"federalState":{"key":"06","name":"Hessen"}},{"name":"Im Triesch","postalCode":"34314","locality":"Espenau","municipality":{"key":"06633007","name":"Espenau","type":"Kreisangehörige_Gemeinde"},"district":{"key":"06633","name":"Kassel","type":"Landkreis"},"federalState":{"key":"06","name":"Hessen"}},{"name":"Jäckhstr.","postalCode":"34121","locality":"Kassel","municipality":{"key":"06611000","name":"Kassel, documenta-Stadt","type":"Kreisfreie_Stadt"},"district":{"key":"06611","name":"Kassel, documenta-Stadt","type":"Kreisfreie_Stadt"},"federalState":{"key":"06","name":"Hessen"}},{"name":"Jägerstr.","postalCode":"34117","locality":"Kassel","municipality":{"key":"06611000","name":"Kassel, documenta-Stadt","type":"Kreisfreie_Stadt"},"district":{"key":"06611","name":"Kassel, documenta-Stadt","type":"Kreisfreie_Stadt"},"federalState":{"key":"06","name":"Hessen"}},{"name":"Jahnstr.","postalCode":"34123","locality":"Kassel","municipality":{"key":"06611000","name":"Kassel, documenta-Stadt","type":"Kreisfreie_Stadt"},"district":{"key":"06611","name":"Kassel, documenta-Stadt","type":"Kreisfreie_Stadt"},"federalState":{"key":"06","name":"Hessen"}},{"name":"Jakobsgasse","postalCode":"34123","locality":"Kassel","municipality":{"key":"06611000","name":"Kassel, documenta-Stadt","type":"Kreisfreie_Stadt"},"district":{"key":"06611","name":"Kassel, documenta-Stadt","type":"Kreisfreie_Stadt"},"federalState":{"key":"06","name":"Hessen"}},{"name":"Jakobstr.","postalCode":"53859","locality":"Niederkassel","municipality":{"key":"05382044","name":"Niederkassel, Stadt","type":"Stadt"},"district":{"key":"05382","name":"Rhein-Sieg-Kreis","type":"Kreis"},"federalState":{"key":"05","name":"Nordrhein-Westfalen"}},{"name":"Jasminweg","postalCode":"34125","locality":"Kassel","municipality":{"key":"06611000","name":"Kassel, documenta-Stadt","type":"Kreisfreie_Stadt"},"district":{"key":"06611","name":"Kassel, documenta-Stadt","type":"Kreisfreie_Stadt"},"federalState":{"key":"06","name":"Hessen"}},{"name":"Jean-Sibelius-Str.","postalCode":"34128","locality":"Kassel","municipality":{"key":"06611000","name":"Kassel, documenta-Stadt","type":"Kreisfreie_Stadt"},"district":{"key":"06611","name":"Kassel, documenta-Stadt","type":"Kreisfreie_Stadt"},"federalState":{"key":"06","name":"Hessen"}},{"name":"Johanna-Vogt-Str.","postalCode":"34131","locality":"Kassel","municipality":{"key":"06611000","name":"Kassel, documenta-Stadt","type":"Kreisfreie_Stadt"},"district":{"key":"06611","name":"Kassel, documenta-Stadt","type":"Kreisfreie_Stadt"},"federalState":{"key":"06","name":"Hessen"}},{"name":"Johanna-Waescher-Str.","postalCode":"34131","locality":"Kassel","municipality":{"key":"06611000","name":"Kassel, documenta-Stadt","type":"Kreisfreie_Stadt"},"district":{"key":"06611","name":"Kassel, documenta-Stadt","type":"Kreisfreie_Stadt"},"federalState":{"key":"06","name":"Hessen"}},{"name":"Johann-Christian-Eberle-Str.","postalCode":"34134","locality":"Kassel","municipality":{"key":"06611000","name":"Kassel, documenta-Stadt","type":"Kreisfreie_Stadt"},"district":{"key":"06611","name":"Kassel, documenta-Stadt","type":"Kreisfreie_Stadt"},"federalState":{"key":"06","name":"Hessen"}},{"name":"Johannesstr.","postalCode":"34121","locality":"Kassel","municipality":{"key":"06611000","name":"Kassel, documenta-Stadt","type":"Kreisfreie_Stadt"},"district":{"key":"06611","name":"Kassel, documenta-Stadt","type":"Kreisfreie_Stadt"},"federalState":{"key":"06","name":"Hessen"}},{"name":"Johannesstr.","postalCode":"53859","locality":"Niederkassel","municipality":{"key":"05382044","name":"Niederkassel, Stadt","type":"Stadt"},"district":{"key":"05382","name":"Rhein-Sieg-Kreis","type":"Kreis"},"federalState":{"key":"05","name":"Nordrhein-Westfalen"}},{"name":"Johann-Hermann-Schein-Str.","postalCode":"34131","locality":"Kassel","municipality":{"key":"06611000","name":"Kassel, documenta-Stadt","type":"Kreisfreie_Stadt"},"district":{"key":"06611","name":"Kassel, documenta-Stadt","type":"Kreisfreie_Stadt"},"federalState":{"key":"06","name":"Hessen"}},{"name":"Johann-Jakoby-Str.","postalCode":"34132","locality":"Kassel","municipality":{"key":"06611000","name":"Kassel, documenta-Stadt","type":"Kreisfreie_Stadt"},"district":{"key":"06611","name":"Kassel, documenta-Stadt","type":"Kreisfreie_Stadt"},"federalState":{"key":"06","name":"Hessen"}},{"name":"Johann-Sebastian-Bach-Str.","postalCode":"34134","locality":"Kassel","municipality":{"key":"06611000","name":"Kassel, documenta-Stadt","type":"Kreisfreie_Stadt"},"district":{"key":"06611","name":"Kassel, documenta-Stadt","type":"Kreisfreie_Stadt"},"federalState":{"key":"06","name":"Hessen"}},{"name":"John-F.-Kennedy-Str.","postalCode":"34128","locality":"Kassel","municipality":{"key":"06611000","name":"Kassel, documenta-Stadt","type":"Kreisfreie_Stadt"},"district":{"key":"06611","name":"Kassel, documenta-Stadt","type":"Kreisfreie_Stadt"},"federalState":{"key":"06","name":"Hessen"}},{"name":"Jordanstr.","postalCode":"34117","locality":"Kassel","municipality":{"key":"06611000","name":"Kassel, documenta-Stadt","type":"Kreisfreie_Stadt"},"district":{"key":"06611","name":"Kassel, documenta-Stadt","type":"Kreisfreie_Stadt"},"federalState":{"key":"06","name":"Hessen"}},{"name":"Josef-Fischer-Str.","postalCode":"34127","locality":"Kassel","municipality":{"key":"06611000","name":"Kassel, documenta-Stadt","type":"Kreisfreie_Stadt"},"district":{"key":"06611","name":"Kassel, documenta-Stadt","type":"Kreisfreie_Stadt"},"federalState":{"key":"06","name":"Hessen"}},{"name":"Josefstr.","postalCode":"53859","locality":"Niederkassel","municipality":{"key":"05382044","name":"Niederkassel, Stadt","type":"Stadt"},"district":{"key":"05382","name":"Rhein-Sieg-Kreis","type":"Kreis"},"federalState":{"key":"05","name":"Nordrhein-Westfalen"}},{"name":"Joseph-Beuys-Str.","postalCode":"34117","locality":"Kassel","municipality":{"key":"06611000","name":"Kassel, documenta-Stadt","type":"Kreisfreie_Stadt"},"district":{"key":"06611","name":"Kassel, documenta-Stadt","type":"Kreisfreie_Stadt"},"federalState":{"key":"06","name":"Hessen"}},{"name":"Josephstr.","postalCode":"34125","locality":"Kassel","municipality":{"key":"06611000","name":"Kassel, documenta-Stadt","type":"Kreisfreie_Stadt"},"district":{"key":"06611","name":"Kassel, documenta-Stadt","type":"Kreisfreie_Stadt"},"federalState":{"key":"06","name":"Hessen"}},{"name":"Jugendheimstr.","postalCode":"34132","locality":"Kassel","municipality":{"key":"06611000","name":"Kassel, documenta-Stadt","type":"Kreisfreie_Stadt"},"district":{"key":"06611","name":"Kassel, documenta-Stadt","type":"Kreisfreie_Stadt"},"federalState":{"key":"06","name":"Hessen"}},{"name":"Julienstr.","postalCode":"34121","locality":"Kassel","municipality":{"key":"06611000","name":"Kassel, documenta-Stadt","type":"Kreisfreie_Stadt"},"district":{"key":"06611","name":"Kassel, documenta-Stadt","type":"Kreisfreie_Stadt"},"federalState":{"key":"06","name":"Hessen"}},{"name":"Julie-von-Kästner-Str.","postalCode":"34131","locality":"Kassel","municipality":{"key":"06611000","name":"Kassel, documenta-Stadt","type":"Kreisfreie_Stadt"},"district":{"key":"06611","name":"Kassel, documenta-Stadt","type":"Kreisfreie_Stadt"},"federalState":{"key":"06","name":"Hessen"}},{"name":"Julius-Leber-Str.","postalCode":"34132","locality":"Kassel","municipality":{"key":"06611000","name":"Kassel, documenta-Stadt","type":"Kreisfreie_Stadt"},"district":{"key":"06611","name":"Kassel, documenta-Stadt","type":"Kreisfreie_Stadt"},"federalState":{"key":"06","name":"Hessen"}},{"name":"Junkerstr.","postalCode":"53859","locality":"Niederkassel","municipality":{"key":"05382044","name":"Niederkassel, Stadt","type":"Stadt"},"district":{"key":"05382","name":"Rhein-Sieg-Kreis","type":"Kreis"},"federalState":{"key":"05","name":"Nordrhein-Westfalen"}},{"name":"Jussowstr.","postalCode":"34125","locality":"Kassel","municipality":{"key":"06611000","name":"Kassel, documenta-Stadt","type":"Kreisfreie_Stadt"},"district":{"key":"06611","name":"Kassel, documenta-Stadt","type":"Kreisfreie_Stadt"},"federalState":{"key":"06","name":"Hessen"}},{"name":"Kampesbreite","postalCode":"34314","locality":"Espenau","municipality":{"key":"06633007","name":"Espenau","type":"Kreisangehörige_Gemeinde"},"district":{"key":"06633","name":"Kassel","type":"Landkreis"},"federalState":{"key":"06","name":"Hessen"}},{"name":"Kasseler Str.","postalCode":"34314","locality":"Espenau","municipality":{"key":"06633007","name":"Espenau","type":"Kreisangehörige_Gemeinde"},"district":{"key":"06633","name":"Kassel","type":"Landkreis"},"federalState":{"key":"06","name":"Hessen"}},{"name":"Kirchweg","postalCode":"34314","locality":"Espenau","municipality":{"key":"06633007","name":"Espenau","type":"Kreisangehörige_Gemeinde"},"district":{"key":"06633","name":"Kassel","type":"Landkreis"},"federalState":{"key":"06","name":"Hessen"}},{"name":"Klosterweg","postalCode":"34314","locality":"Espenau","municipality":{"key":"06633007","name":"Espenau","type":"Kreisangehörige_Gemeinde"},"district":{"key":"06633","name":"Kassel","type":"Landkreis"},"federalState":{"key":"06","name":"Hessen"}},{"name":"Kurze Str.","postalCode":"34314","locality":"Espenau","municipality":{"key":"06633007","name":"Espenau","type":"Kreisangehörige_Gemeinde"},"district":{"key":"06633","name":"Kassel","type":"Landkreis"},"federalState":{"key":"06","name":"Hessen"}},{"name":"Lehringsgrund","postalCode":"34314","locality":"Espenau","municipality":{"key":"06633007","name":"Espenau","type":"Kreisangehörige_Gemeinde"},"district":{"key":"06633","name":"Kassel","type":"Landkreis"},"federalState":{"key":"06","name":"Hessen"}},{"name":"Leimenkaute","postalCode":"34314","locality":"Espenau","municipality":{"key":"06633007","name":"Espenau","type":"Kreisangehörige_Gemeinde"},"district":{"key":"06633","name":"Kassel","type":"Landkreis"},"federalState":{"key":"06","name":"Hessen"}},{"name":"Liebauer Str.","postalCode":"34314","locality":"Espenau","municipality":{"key":"06633007","name":"Espenau","type":"Kreisangehörige_Gemeinde"},"district":{"key":"06633","name":"Kassel","type":"Landkreis"},"federalState":{"key":"06","name":"Hessen"}},{"name":"Lindenring","postalCode":"34314","locality":"Espenau","municipality":{"key":"06633007","name":"Espenau","type":"Kreisangehörige_Gemeinde"},"district":{"key":"06633","name":"Kassel","type":"Landkreis"},"federalState":{"key":"06","name":"Hessen"}},{"name":"Löbergasse","postalCode":"34314","locality":"Espenau","municipality":{"key":"06633007","name":"Espenau","type":"Kreisangehörige_Gemeinde"},"district":{"key":"06633","name":"Kassel","type":"Landkreis"},"federalState":{"key":"06","name":"Hessen"}},{"name":"Lohbachsfeld","postalCode":"34314","locality":"Espenau","municipality":{"key":"06633007","name":"Espenau","type":"Kreisangehörige_Gemeinde"},"district":{"key":"06633","name":"Kassel","type":"Landkreis"},"federalState":{"key":"06","name":"Hessen"}},{"name":"Meierwiesenweg","postalCode":"34314","locality":"Espenau","municipality":{"key":"06633007","name":"Espenau","type":"Kreisangehörige_Gemeinde"},"district":{"key":"06633","name":"Kassel","type":"Landkreis"},"federalState":{"key":"06","name":"Hessen"}},{"name":"Mittelstr.","postalCode":"34314","locality":"Espenau","municipality":{"key":"06633007","name":"Espenau","type":"Kreisangehörige_Gemeinde"},"district":{"key":"06633","name":"Kassel","type":"Landkreis"},"federalState":{"key":"06","name":"Hessen"}},{"name":"Mönchehofer Str.","postalCode":"34314","locality":"Espenau","municipality":{"key":"06633007","name":"Espenau","type":"Kreisangehörige_Gemeinde"},"district":{"key":"06633","name":"Kassel","type":"Landkreis"},"federalState":{"key":"06","name":"Hessen"}},{"name":"Nelkenweg","postalCode":"34314","locality":"Espenau","municipality":{"key":"06633007","name":"Espenau","type":"Kreisangehörige_Gemeinde"},"district":{"key":"06633","name":"Kassel","type":"Landkreis"},"federalState":{"key":"06","name":"Hessen"}},{"name":"Neues Dörfchen","postalCode":"34314","locality":"Espenau","municipality":{"key":"06633007","name":"Espenau","type":"Kreisangehörige_Gemeinde"},"district":{"key":"06633","name":"Kassel","type":"Landkreis"},"federalState":{"key":"06","name":"Hessen"}},{"name":"Obervellmarer Weg","postalCode":"34314","locality":"Espenau","municipality":{"key":"06633007","name":"Espenau","type":"Kreisangehörige_Gemeinde"},"district":{"key":"06633","name":"Kassel","type":"Landkreis"},"federalState":{"key":"06","name":"Hessen"}},{"name":"Oderweg","postalCode":"34314","locality":"Espenau","municipality":{"key":"06633007","name":"Espenau","type":"Kreisangehörige_Gemeinde"},"district":{"key":"06633","name":"Kassel","type":"Landkreis"},"federalState":{"key":"06","name":"Hessen"}},{"name":"Pappelweg","postalCode":"34314","locality":"Espenau","municipality":{"key":"06633007","name":"Espenau","type":"Kreisangehörige_Gemeinde"},"district":{"key":"06633","name":"Kassel","type":"Landkreis"},"federalState":{"key":"06","name":"Hessen"}},{"name":"Planweg","postalCode":"34314","locality":"Espenau","municipality":{"key":"06633007","name":"Espenau","type":"Kreisangehörige_Gemeinde"},"district":{"key":"06633","name":"Kassel","type":"Landkreis"},"federalState":{"key":"06","name":"Hessen"}},{"name":"Pommernweg","postalCode":"34314","locality":"Espenau","municipality":{"key":"06633007","name":"Espenau","type":"Kreisangehörige_Gemeinde"},"district":{"key":"06633","name":"Kassel","type":"Landkreis"},"federalState":{"key":"06","name":"Hessen"}},{"name":"Querweg","postalCode":"34314","locality":"Espenau","municipality":{"key":"06633007","name":"Espenau","type":"Kreisangehörige_Gemeinde"},"district":{"key":"06633","name":"Kassel","type":"Landkreis"},"federalState":{"key":"06","name":"Hessen"}},{"name":"Rosenstr.","postalCode":"34314","locality":"Espenau","municipality":{"key":"06633007","name":"Espenau","type":"Kreisangehörige_Gemeinde"},"district":{"key":"06633","name":"Kassel","type":"Landkreis"},"federalState":{"key":"06","name":"Hessen"}},{"name":"Rotdornweg","postalCode":"34314","locality":"Espenau","municipality":{"key":"06633007","name":"Espenau","type":"Kreisangehörige_Gemeinde"},"district":{"key":"06633","name":"Kassel","type":"Landkreis"},"federalState":{"key":"06","name":"Hessen"}},{"name":"Rothwester Str.","postalCode":"34314","locality":"Espenau","municipality":{"key":"06633007","name":"Espenau","type":"Kreisangehörige_Gemeinde"},"district":{"key":"06633","name":"Kassel","type":"Landkreis"},"federalState":{"key":"06","name":"Hessen"}},{"name":"Rundstr.","postalCode":"34314","locality":"Espenau","municipality":{"key":"06633007","name":"Espenau","type":"Kreisangehörige_Gemeinde"},"district":{"key":"06633","name":"Kassel","type":"Landkreis"},"federalState":{"key":"06","name":"Hessen"}},{"name":"Schillerstr.","postalCode":"34314","locality":"Espenau","municipality":{"key":"06633007","name":"Espenau","type":"Kreisangehörige_Gemeinde"},"district":{"key":"06633","name":"Kassel","type":"Landkreis"},"federalState":{"key":"06","name":"Hessen"}},{"name":"Schlehenweg","postalCode":"34314","locality":"Espenau","municipality":{"key":"06633007","name":"Espenau","type":"Kreisangehörige_Gemeinde"},"district":{"key":"06633","name":"Kassel","type":"Landkreis"},"federalState":{"key":"06","name":"Hessen"}},{"name":"Schmalkaldener Ring","postalCode":"34314","locality":"Espenau","municipality":{"key":"06633007","name":"Espenau","type":"Kreisangehörige_Gemeinde"},"district":{"key":"06633","name":"Kassel","type":"Landkreis"},"federalState":{"key":"06","name":"Hessen"}},{"name":"Schöne Aussicht","postalCode":"34314","locality":"Espenau","municipality":{"key":"06633007","name":"Espenau","type":"Kreisangehörige_Gemeinde"},"district":{"key":"06633","name":"Kassel","type":"Landkreis"},"federalState":{"key":"06","name":"Hessen"}},{"name":"Schulgasse","postalCode":"34314","locality":"Espenau","municipality":{"key":"06633007","name":"Espenau","type":"Kreisangehörige_Gemeinde"},"district":{"key":"06633","name":"Kassel","type":"Landkreis"},"federalState":{"key":"06","name":"Hessen"}},{"name":"Schulweg","postalCode":"34314","locality":"Espenau","municipality":{"key":"06633007","name":"Espenau","type":"Kreisangehörige_Gemeinde"},"district":{"key":"06633","name":"Kassel","type":"Landkreis"},"federalState":{"key":"06","name":"Hessen"}},{"name":"Segelbreite","postalCode":"34314","locality":"Espenau","municipality":{"key":"06633007","name":"Espenau","type":"Kreisangehörige_Gemeinde"},"district":{"key":"06633","name":"Kassel","type":"Landkreis"},"federalState":{"key":"06","name":"Hessen"}},{"name":"Sellenbach","postalCode":"34314","locality":"Espenau","municipality":{"key":"06633007","name":"Espenau","type":"Kreisangehörige_Gemeinde"},"district":{"key":"06633","name":"Kassel","type":"Landkreis"},"federalState":{"key":"06","name":"Hessen"}},{"name":"Sichelbach","postalCode":"34314","locality":"Espenau","municipality":{"key":"06633007","name":"Espenau","type":"Kreisangehörige_Gemeinde"},"district":{"key":"06633","name":"Kassel","type":"Landkreis"},"federalState":{"key":"06","name":"Hessen"}},{"name":"Siegenweg","postalCode":"34314","locality":"Espenau","municipality":{"key":"06633007","name":"Espenau","type":"Kreisangehörige_Gemeinde"},"district":{"key":"06633","name":"Kassel","type":"Landkreis"},"federalState":{"key":"06","name":"Hessen"}},{"name":"Spreeweg","postalCode":"34314","locality":"Espenau","municipality":{"key":"06633007","name":"Espenau","type":"Kreisangehörige_Gemeinde"},"district":{"key":"06633","name":"Kassel","type":"Landkreis"},"federalState":{"key":"06","name":"Hessen"}},{"name":"Steinweg","postalCode":"34314","locality":"Espenau","municipality":{"key":"06633007","name":"Espenau","type":"Kreisangehörige_Gemeinde"},"district":{"key":"06633","name":"Kassel","type":"Landkreis"},"federalState":{"key":"06","name":"Hessen"}},{"name":"Stormstr.","postalCode":"34314","locality":"Espenau","municipality":{"key":"06633007","name":"Espenau","type":"Kreisangehörige_Gemeinde"},"district":{"key":"06633","name":"Kassel","type":"Landkreis"},"federalState":{"key":"06","name":"Hessen"}},{"name":"Teichstr.","postalCode":"34314","locality":"Espenau","municipality":{"key":"06633007","name":"Espenau","type":"Kreisangehörige_Gemeinde"},"district":{"key":"06633","name":"Kassel","type":"Landkreis"},"federalState":{"key":"06","name":"Hessen"}},{"name":"Thüringer Str.","postalCode":"34314","locality":"Espenau","municipality":{"key":"06633007","name":"Espenau","type":"Kreisangehörige_Gemeinde"},"district":{"key":"06633","name":"Kassel","type":"Landkreis"},"federalState":{"key":"06","name":"Hessen"}},{"name":"Triftstr.","postalCode":"34314","locality":"Espenau","municipality":{"key":"06633007","name":"Espenau","type":"Kreisangehörige_Gemeinde"},"district":{"key":"06633","name":"Kassel","type":"Landkreis"},"federalState":{"key":"06","name":"Hessen"}},{"name":"Tulpenweg","postalCode":"34314","locality":"Espenau","municipality":{"key":"06633007","name":"Espenau","type":"Kreisangehörige_Gemeinde"},"district":{"key":"06633","name":"Kassel","type":"Landkreis"},"federalState":{"key":"06","name":"Hessen"}},{"name":"Ulmenstr.","postalCode":"34314","locality":"Espenau","municipality":{"key":"06633007","name":"Espenau","type":"Kreisangehörige_Gemeinde"},"district":{"key":"06633","name":"Kassel","type":"Landkreis"},"federalState":{"key":"06","name":"Hessen"}},{"name":"Unter dem Scheideweg","postalCode":"34314","locality":"Espenau","municipality":{"key":"06633007","name":"Espenau","type":"Kreisangehörige_Gemeinde"},"district":{"key":"06633","name":"Kassel","type":"Landkreis"},"federalState":{"key":"06","name":"Hessen"}},{"name":"Vellmarer Weg","postalCode":"34314","locality":"Espenau","municipality":{"key":"06633007","name":"Espenau","type":"Kreisangehörige_Gemeinde"},"district":{"key":"06633","name":"Kassel","type":"Landkreis"},"federalState":{"key":"06","name":"Hessen"}},{"name":"Wartheweg","postalCode":"34314","locality":"Espenau","municipality":{"key":"06633007","name":"Espenau","type":"Kreisangehörige_Gemeinde"},"district":{"key":"06633","name":"Kassel","type":"Landkreis"},"federalState":{"key":"06","name":"Hessen"}},{"name":"Weichselweg","postalCode":"34314","locality":"Espenau","municipality":{"key":"06633007","name":"Espenau","type":"Kreisangehörige_Gemeinde"},"district":{"key":"06633","name":"Kassel","type":"Landkreis"},"federalState":{"key":"06","name":"Hessen"}},{"name":"Weidenhofweg","postalCode":"34314","locality":"Espenau","municipality":{"key":"06633007","name":"Espenau","type":"Kreisangehörige_Gemeinde"},"district":{"key":"06633","name":"Kassel","type":"Landkreis"},"federalState":{"key":"06","name":"Hessen"}},{"name":"Weimarer Weg","postalCode":"34314","locality":"Espenau","municipality":{"key":"06633007","name":"Espenau","type":"Kreisangehörige_Gemeinde"},"district":{"key":"06633","name":"Kassel","type":"Landkreis"},"federalState":{"key":"06","name":"Hessen"}},{"name":"Werraweg","postalCode":"34314","locality":"Espenau","municipality":{"key":"06633007","name":"Espenau","type":"Kreisangehörige_Gemeinde"},"district":{"key":"06633","name":"Kassel","type":"Landkreis"},"federalState":{"key":"06","name":"Hessen"}},{"name":"Wiesenweg","postalCode":"34314","locality":"Espenau","municipality":{"key":"06633007","name":"Espenau","type":"Kreisangehörige_Gemeinde"},"district":{"key":"06633","name":"Kassel","type":"Landkreis"},"federalState":{"key":"06","name":"Hessen"}},{"name":"Wilhelmsthaler Str.","postalCode":"34314","locality":"Espenau","municipality":{"key":"06633007","name":"Espenau","type":"Kreisangehörige_Gemeinde"},"district":{"key":"06633","name":"Kassel","type":"Landkreis"},"federalState":{"key":"06","name":"Hessen"}},{"name":"Wolfgang-Klee-Weg","postalCode":"34314","locality":"Espenau","municipality":{"key":"06633007","name":"Espenau","type":"Kreisangehörige_Gemeinde"},"district":{"key":"06633","name":"Kassel","type":"Landkreis"},"federalState":{"key":"06","name":"Hessen"}},{"name":"Yorckstr.","postalCode":"34123","locality":"Kassel","municipality":{"key":"06611000","name":"Kassel, documenta-Stadt","type":"Kreisfreie_Stadt"},"district":{"key":"06611","name":"Kassel, documenta-Stadt","type":"Kreisfreie_Stadt"},"federalState":{"key":"06","name":"Hessen"}},{"name":"Ysenburgstr.","postalCode":"34125","locality":"Kassel","municipality":{"key":"06611000","name":"Kassel, documenta-Stadt","type":"Kreisfreie_Stadt"},"district":{"key":"06611","name":"Kassel, documenta-Stadt","type":"Kreisfreie_Stadt"},"federalState":{"key":"06","name":"Hessen"}},{"name":"Znaimer Str.","postalCode":"34314","locality":"Espenau","municipality":{"key":"06633007","name":"Espenau","type":"Kreisangehörige_Gemeinde"},"district":{"key":"06633","name":"Kassel","type":"Landkreis"},"federalState":{"key":"06","name":"Hessen"}},{"name":"Zum Festplatz","postalCode":"34314","locality":"Espenau","municipality":{"key":"06633007","name":"Espenau","type":"Kreisangehörige_Gemeinde"},"district":{"key":"06633","name":"Kassel","type":"Landkreis"},"federalState":{"key":"06","name":"Hessen"}},{"name":"Zum Fürstenhof","postalCode":"34314","locality":"Espenau","municipality":{"key":"06633007","name":"Espenau","type":"Kreisangehörige_Gemeinde"},"district":{"key":"06633","name":"Kassel","type":"Landkreis"},"federalState":{"key":"06","name":"Hessen"}},{"name":"Zum Gerstenkopf","postalCode":"34314","locality":"Espenau","municipality":{"key":"06633007","name":"Espenau","type":"Kreisangehörige_Gemeinde"},"district":{"key":"06633","name":"Kassel","type":"Landkreis"},"federalState":{"key":"06","name":"Hessen"}},{"name":"Zum Lerchenfeld","postalCode":"34314","locality":"Espenau","municipality":{"key":"06633007","name":"Espenau","type":"Kreisangehörige_Gemeinde"},"district":{"key":"06633","name":"Kassel","type":"Landkreis"},"federalState":{"key":"06","name":"Hessen"}},{"name":"Zum Lindenfeld","postalCode":"34314","locality":"Espenau","municipality":{"key":"06633007","name":"Espenau","type":"Kreisangehörige_Gemeinde"},"district":{"key":"06633","name":"Kassel","type":"Landkreis"},"federalState":{"key":"06","name":"Hessen"}},{"name":"Öderaner Str.","postalCode":"34123","locality":"Kassel","municipality":{"key":"06611000","name":"Kassel, documenta-Stadt","type":"Kreisfreie_Stadt"},"district":{"key":"06611","name":"Kassel, documenta-Stadt","type":"Kreisfreie_Stadt"},"federalState":{"key":"06","name":"Hessen"}},{"name":"Ölbergweg","postalCode":"53859","locality":"Niederkassel","municipality":{"key":"05382044","name":"Niederkassel, Stadt","type":"Stadt"},"district":{"key":"05382","name":"Rhein-Sieg-Kreis","type":"Kreis"},"federalState":{"key":"05","name":"Nordrhein-Westfalen"}},{"name":"Ölmühlenweg","postalCode":"34123","locality":"Kassel","municipality":{"key":"06611000","name":"Kassel, documenta-Stadt","type":"Kreisfreie_Stadt"},"district":{"key":"06611","name":"Kassel, documenta-Stadt","type":"Kreisfreie_Stadt"},"federalState":{"key":"06","name":"Hessen"}},]