[{"name":"Ahornstr.","postalCode":"15366","locality":"Neuenhagen bei Berlin","municipality":{"key":"12064336","name":"Neuenhagen bei Berlin","type":"Kreisangehörige_Gemeinde"},"district":{"key":"12064","name":"Märkisch-Oderland","type":"Landkreis"},"federalState":{"key":"12","name":"Brandenburg"}},{"name":"Akazienstr.","postalCode":"15366","locality":"Neuenhagen bei Berlin","municipality":{"key":"12064336","name":"Neuenhagen bei Berlin","type":"Kreisangehörige_Gemeinde"},"district":{"key":"12064","name":"Märkisch-Oderland","type":"Landkreis"},"federalState":{"key":"12","name":"Brandenburg"}},{"name":"Albersweiler Str.","postalCode":"15366","locality":"Neuenhagen bei Berlin","municipality":{"key":"12064336","name":"Neuenhagen bei Berlin","type":"Kreisangehörige_Gemeinde"},"district":{"key":"12064","name":"Märkisch-Oderland","type":"Landkreis"},"federalState":{"key":"12","name":"Brandenburg"}},{"name":"Altenauer Str.","postalCode":"15366","locality":"Neuenhagen bei Berlin","municipality":{"key":"12064336","name":"Neuenhagen bei Berlin","type":"Kreisangehörige_Gemeinde"},"district":{"key":"12064","name":"Märkisch-Oderland","type":"Landkreis"},"federalState":{"key":"12","name":"Brandenburg"}},{"name":"Altlandsberger Chaussee","postalCode":"15366","locality":"Neuenhagen bei Berlin","municipality":{"key":"12064336","name":"Neuenhagen bei Berlin","type":"Kreisangehörige_Gemeinde"},"district":{"key":"12064","name":"Märkisch-Oderland","type":"Landkreis"},"federalState":{"key":"12","name":"Brandenburg"}},{"name":"Am Alten Gestüt","postalCode":"15366","locality":"Neuenhagen bei Berlin","municipality":{"key":"12064336","name":"Neuenhagen bei Berlin","type":"Kreisangehörige_Gemeinde"},"district":{"key":"12064","name":"Märkisch-Oderland","type":"Landkreis"},"federalState":{"key":"12","name":"Brandenburg"}},{"name":"Am Friedensplatz","postalCode":"15366","locality":"Neuenhagen bei Berlin","municipality":{"key":"12064336","name":"Neuenhagen bei Berlin","type":"Kreisangehörige_Gemeinde"},"district":{"key":"12064","name":"Märkisch-Oderland","type":"Landkreis"},"federalState":{"key":"12","name":"Brandenburg"}},{"name":"Am Friedhof","postalCode":"15366","locality":"Neuenhagen bei Berlin","municipality":{"key":"12064336","name":"Neuenhagen bei Berlin","type":"Kreisangehörige_Gemeinde"},"district":{"key":"12064","name":"Märkisch-Oderland","type":"Landkreis"},"federalState":{"key":"12","name":"Brandenburg"}},{"name":"Am Holländer","postalCode":"15366","locality":"Neuenhagen bei Berlin","municipality":{"key":"12064336","name":"Neuenhagen bei Berlin","type":"Kreisangehörige_Gemeinde"},"district":{"key":"12064","name":"Märkisch-Oderland","type":"Landkreis"},"federalState":{"key":"12","name":"Brandenburg"}},{"name":"Am Krankenhaus","postalCode":"15366","locality":"Neuenhagen bei Berlin","municipality":{"key":"12064336","name":"Neuenhagen bei Berlin","type":"Kreisangehörige_Gemeinde"},"district":{"key":"12064","name":"Märkisch-Oderland","type":"Landkreis"},"federalState":{"key":"12","name":"Brandenburg"}},{"name":"Am Osthang","postalCode":"15366","locality":"Neuenhagen bei Berlin","municipality":{"key":"12064336","name":"Neuenhagen bei Berlin","type":"Kreisangehörige_Gemeinde"},"district":{"key":"12064","name":"Märkisch-Oderland","type":"Landkreis"},"federalState":{"key":"12","name":"Brandenburg"}},{"name":"Am Rathaus","postalCode":"15366","locality":"Neuenhagen bei Berlin","municipality":{"key":"12064336","name":"Neuenhagen bei Berlin","type":"Kreisangehörige_Gemeinde"},"district":{"key":"12064","name":"Märkisch-Oderland","type":"Landkreis"},"federalState":{"key":"12","name":"Brandenburg"}},{"name":"Amselsteg","postalCode":"15366","locality":"Neuenhagen bei Berlin","municipality":{"key":"12064336","name":"Neuenhagen bei Berlin","type":"Kreisangehörige_Gemeinde"},"district":{"key":"12064","name":"Märkisch-Oderland","type":"Landkreis"},"federalState":{"key":"12","name":"Brandenburg"}},{"name":"Amsterdamer Str.","postalCode":"15366","locality":"Neuenhagen bei Berlin","municipality":{"key":"12064336","name":"Neuenhagen bei Berlin","type":"Kreisangehörige_Gemeinde"},"district":{"key":"12064","name":"Märkisch-Oderland","type":"Landkreis"},"federalState":{"key":"12","name":"Brandenburg"}},{"name":"Am Viertelsring","postalCode":"15366","locality":"Neuenhagen bei Berlin","municipality":{"key":"12064336","name":"Neuenhagen bei Berlin","type":"Kreisangehörige_Gemeinde"},"district":{"key":"12064","name":"Märkisch-Oderland","type":"Landkreis"},"federalState":{"key":"12","name":"Brandenburg"}},{"name":"Am Vogelsang","postalCode":"15366","locality":"Neuenhagen bei Berlin","municipality":{"key":"12064336","name":"Neuenhagen bei Berlin","type":"Kreisangehörige_Gemeinde"},"district":{"key":"12064","name":"Märkisch-Oderland","type":"Landkreis"},"federalState":{"key":"12","name":"Brandenburg"}},{"name":"Andernacher Str.","postalCode":"15366","locality":"Neuenhagen bei Berlin","municipality":{"key":"12064336","name":"Neuenhagen bei Berlin","type":"Kreisangehörige_Gemeinde"},"district":{"key":"12064","name":"Märkisch-Oderland","type":"Landkreis"},"federalState":{"key":"12","name":"Brandenburg"}},{"name":"An der Trainierbahn","postalCode":"15366","locality":"Neuenhagen bei Berlin","municipality":{"key":"12064336","name":"Neuenhagen bei Berlin","type":"Kreisangehörige_Gemeinde"},"district":{"key":"12064","name":"Märkisch-Oderland","type":"Landkreis"},"federalState":{"key":"12","name":"Brandenburg"}},{"name":"Anklamer Str.","postalCode":"15366","locality":"Neuenhagen bei Berlin","municipality":{"key":"12064336","name":"Neuenhagen bei Berlin","type":"Kreisangehörige_Gemeinde"},"district":{"key":"12064","name":"Märkisch-Oderland","type":"Landkreis"},"federalState":{"key":"12","name":"Brandenburg"}},{"name":"Annenstr.","postalCode":"15366","locality":"Neuenhagen bei Berlin","municipality":{"key":"12064336","name":"Neuenhagen bei Berlin","type":"Kreisangehörige_Gemeinde"},"district":{"key":"12064","name":"Märkisch-Oderland","type":"Landkreis"},"federalState":{"key":"12","name":"Brandenburg"}},{"name":"Anzengruberstr.","postalCode":"15366","locality":"Neuenhagen bei Berlin","municipality":{"key":"12064336","name":"Neuenhagen bei Berlin","type":"Kreisangehörige_Gemeinde"},"district":{"key":"12064","name":"Märkisch-Oderland","type":"Landkreis"},"federalState":{"key":"12","name":"Brandenburg"}},{"name":"Apoldaer Str.","postalCode":"15366","locality":"Neuenhagen bei Berlin","municipality":{"key":"12064336","name":"Neuenhagen bei Berlin","type":"Kreisangehörige_Gemeinde"},"district":{"key":"12064","name":"Märkisch-Oderland","type":"Landkreis"},"federalState":{"key":"12","name":"Brandenburg"}},{"name":"Arthur-von-Weinberg-Platz","postalCode":"15366","locality":"Neuenhagen bei Berlin","municipality":{"key":"12064336","name":"Neuenhagen bei Berlin","type":"Kreisangehörige_Gemeinde"},"district":{"key":"12064","name":"Märkisch-Oderland","type":"Landkreis"},"federalState":{"key":"12","name":"Brandenburg"}},{"name":"Bergstr.","postalCode":"15366","locality":"Neuenhagen bei Berlin","municipality":{"key":"12064336","name":"Neuenhagen bei Berlin","type":"Kreisangehörige_Gemeinde"},"district":{"key":"12064","name":"Märkisch-Oderland","type":"Landkreis"},"federalState":{"key":"12","name":"Brandenburg"}},{"name":"Berliner Str.","postalCode":"15366","locality":"Neuenhagen bei Berlin","municipality":{"key":"12064336","name":"Neuenhagen bei Berlin","type":"Kreisangehörige_Gemeinde"},"district":{"key":"12064","name":"Märkisch-Oderland","type":"Landkreis"},"federalState":{"key":"12","name":"Brandenburg"}},{"name":"Bienenstr.","postalCode":"15366","locality":"Neuenhagen bei Berlin","municipality":{"key":"12064336","name":"Neuenhagen bei Berlin","type":"Kreisangehörige_Gemeinde"},"district":{"key":"12064","name":"Märkisch-Oderland","type":"Landkreis"},"federalState":{"key":"12","name":"Brandenburg"}},{"name":"Birkenstr.","postalCode":"15366","locality":"Neuenhagen bei Berlin","municipality":{"key":"12064336","name":"Neuenhagen bei Berlin","type":"Kreisangehörige_Gemeinde"},"district":{"key":"12064","name":"Märkisch-Oderland","type":"Landkreis"},"federalState":{"key":"12","name":"Brandenburg"}},{"name":"Bischofsheimer Str.","postalCode":"15366","locality":"Neuenhagen bei Berlin","municipality":{"key":"12064336","name":"Neuenhagen bei Berlin","type":"Kreisangehörige_Gemeinde"},"district":{"key":"12064","name":"Märkisch-Oderland","type":"Landkreis"},"federalState":{"key":"12","name":"Brandenburg"}},{"name":"Blankenburger Str.","postalCode":"15366","locality":"Neuenhagen bei Berlin","municipality":{"key":"12064336","name":"Neuenhagen bei Berlin","type":"Kreisangehörige_Gemeinde"},"district":{"key":"12064","name":"Märkisch-Oderland","type":"Landkreis"},"federalState":{"key":"12","name":"Brandenburg"}},{"name":"Bollensdorfer Eck","postalCode":"15366","locality":"Neuenhagen bei Berlin","municipality":{"key":"12064336","name":"Neuenhagen bei Berlin","type":"Kreisangehörige_Gemeinde"},"district":{"key":"12064","name":"Märkisch-Oderland","type":"Landkreis"},"federalState":{"key":"12","name":"Brandenburg"}},{"name":"Braunschweiger Str.","postalCode":"15366","locality":"Neuenhagen bei Berlin","municipality":{"key":"12064336","name":"Neuenhagen bei Berlin","type":"Kreisangehörige_Gemeinde"},"district":{"key":"12064","name":"Märkisch-Oderland","type":"Landkreis"},"federalState":{"key":"12","name":"Brandenburg"}},{"name":"Buchenstr.","postalCode":"15366","locality":"Neuenhagen bei Berlin","municipality":{"key":"12064336","name":"Neuenhagen bei Berlin","type":"Kreisangehörige_Gemeinde"},"district":{"key":"12064","name":"Märkisch-Oderland","type":"Landkreis"},"federalState":{"key":"12","name":"Brandenburg"}},{"name":"Buschweg","postalCode":"15366","locality":"Neuenhagen bei Berlin","municipality":{"key":"12064336","name":"Neuenhagen bei Berlin","type":"Kreisangehörige_Gemeinde"},"district":{"key":"12064","name":"Märkisch-Oderland","type":"Landkreis"},"federalState":{"key":"12","name":"Brandenburg"}},{"name":"Buschwinkel","postalCode":"15366","locality":"Neuenhagen bei Berlin","municipality":{"key":"12064336","name":"Neuenhagen bei Berlin","type":"Kreisangehörige_Gemeinde"},"district":{"key":"12064","name":"Märkisch-Oderland","type":"Landkreis"},"federalState":{"key":"12","name":"Brandenburg"}},{"name":"Carl-Schmäcke-Str.","postalCode":"15366","locality":"Neuenhagen bei Berlin","municipality":{"key":"12064336","name":"Neuenhagen bei Berlin","type":"Kreisangehörige_Gemeinde"},"district":{"key":"12064","name":"Märkisch-Oderland","type":"Landkreis"},"federalState":{"key":"12","name":"Brandenburg"}},{"name":"Chamissoweg","postalCode":"15366","locality":"Neuenhagen bei Berlin","municipality":{"key":"12064336","name":"Neuenhagen bei Berlin","type":"Kreisangehörige_Gemeinde"},"district":{"key":"12064","name":"Märkisch-Oderland","type":"Landkreis"},"federalState":{"key":"12","name":"Brandenburg"}},{"name":"Dahlwitzer Str.","postalCode":"15366","locality":"Neuenhagen bei Berlin","municipality":{"key":"12064336","name":"Neuenhagen bei Berlin","type":"Kreisangehörige_Gemeinde"},"district":{"key":"12064","name":"Märkisch-Oderland","type":"Landkreis"},"federalState":{"key":"12","name":"Brandenburg"}},{"name":"Damerower Str.","postalCode":"15366","locality":"Neuenhagen bei Berlin","municipality":{"key":"12064336","name":"Neuenhagen bei Berlin","type":"Kreisangehörige_Gemeinde"},"district":{"key":"12064","name":"Märkisch-Oderland","type":"Landkreis"},"federalState":{"key":"12","name":"Brandenburg"}},{"name":"Darßstr.","postalCode":"15366","locality":"Neuenhagen bei Berlin","municipality":{"key":"12064336","name":"Neuenhagen bei Berlin","type":"Kreisangehörige_Gemeinde"},"district":{"key":"12064","name":"Märkisch-Oderland","type":"Landkreis"},"federalState":{"key":"12","name":"Brandenburg"}},{"name":"Demminer Str.","postalCode":"15366","locality":"Neuenhagen bei Berlin","municipality":{"key":"12064336","name":"Neuenhagen bei Berlin","type":"Kreisangehörige_Gemeinde"},"district":{"key":"12064","name":"Märkisch-Oderland","type":"Landkreis"},"federalState":{"key":"12","name":"Brandenburg"}},{"name":"Dianastr.","postalCode":"15366","locality":"Neuenhagen bei Berlin","municipality":{"key":"12064336","name":"Neuenhagen bei Berlin","type":"Kreisangehörige_Gemeinde"},"district":{"key":"12064","name":"Märkisch-Oderland","type":"Landkreis"},"federalState":{"key":"12","name":"Brandenburg"}},{"name":"Dorfstr.","postalCode":"15366","locality":"Neuenhagen bei Berlin","municipality":{"key":"12064336","name":"Neuenhagen bei Berlin","type":"Kreisangehörige_Gemeinde"},"district":{"key":"12064","name":"Märkisch-Oderland","type":"Landkreis"},"federalState":{"key":"12","name":"Brandenburg"}},{"name":"Dr.-Horst-Rocholl-Str.","postalCode":"15366","locality":"Neuenhagen bei Berlin","municipality":{"key":"12064336","name":"Neuenhagen bei Berlin","type":"Kreisangehörige_Gemeinde"},"district":{"key":"12064","name":"Märkisch-Oderland","type":"Landkreis"},"federalState":{"key":"12","name":"Brandenburg"}},{"name":"Ebereschenallee","postalCode":"15366","locality":"Neuenhagen bei Berlin","municipality":{"key":"12064336","name":"Neuenhagen bei Berlin","type":"Kreisangehörige_Gemeinde"},"district":{"key":"12064","name":"Märkisch-Oderland","type":"Landkreis"},"federalState":{"key":"12","name":"Brandenburg"}},{"name":"Edelweißstr.","postalCode":"15366","locality":"Neuenhagen bei Berlin","municipality":{"key":"12064336","name":"Neuenhagen bei Berlin","type":"Kreisangehörige_Gemeinde"},"district":{"key":"12064","name":"Märkisch-Oderland","type":"Landkreis"},"federalState":{"key":"12","name":"Brandenburg"}},{"name":"Ehrenfelsstr.","postalCode":"15366","locality":"Neuenhagen bei Berlin","municipality":{"key":"12064336","name":"Neuenhagen bei Berlin","type":"Kreisangehörige_Gemeinde"},"district":{"key":"12064","name":"Märkisch-Oderland","type":"Landkreis"},"federalState":{"key":"12","name":"Brandenburg"}},{"name":"Eisenacher Str.","postalCode":"15366","locality":"Neuenhagen bei Berlin","municipality":{"key":"12064336","name":"Neuenhagen bei Berlin","type":"Kreisangehörige_Gemeinde"},"district":{"key":"12064","name":"Märkisch-Oderland","type":"Landkreis"},"federalState":{"key":"12","name":"Brandenburg"}},{"name":"Eisenbahnstr.","postalCode":"15366","locality":"Neuenhagen bei Berlin","municipality":{"key":"12064336","name":"Neuenhagen bei Berlin","type":"Kreisangehörige_Gemeinde"},"district":{"key":"12064","name":"Märkisch-Oderland","type":"Landkreis"},"federalState":{"key":"12","name":"Brandenburg"}},{"name":"Elisenhofstr.","postalCode":"15366","locality":"Neuenhagen bei Berlin","municipality":{"key":"12064336","name":"Neuenhagen bei Berlin","type":"Kreisangehörige_Gemeinde"},"district":{"key":"12064","name":"Märkisch-Oderland","type":"Landkreis"},"federalState":{"key":"12","name":"Brandenburg"}},{"name":"Entrichstr.","postalCode":"15366","locality":"Neuenhagen bei Berlin","municipality":{"key":"12064336","name":"Neuenhagen bei Berlin","type":"Kreisangehörige_Gemeinde"},"district":{"key":"12064","name":"Märkisch-Oderland","type":"Landkreis"},"federalState":{"key":"12","name":"Brandenburg"}},{"name":"Erfurter Str.","postalCode":"15366","locality":"Neuenhagen bei Berlin","municipality":{"key":"12064336","name":"Neuenhagen bei Berlin","type":"Kreisangehörige_Gemeinde"},"district":{"key":"12064","name":"Märkisch-Oderland","type":"Landkreis"},"federalState":{"key":"12","name":"Brandenburg"}},{"name":"Erich-Weinert-Weg","postalCode":"15366","locality":"Neuenhagen bei Berlin","municipality":{"key":"12064336","name":"Neuenhagen bei Berlin","type":"Kreisangehörige_Gemeinde"},"district":{"key":"12064","name":"Märkisch-Oderland","type":"Landkreis"},"federalState":{"key":"12","name":"Brandenburg"}},{"name":"Ernst-Thälmann-Str.","postalCode":"15366","locality":"Neuenhagen bei Berlin","municipality":{"key":"12064336","name":"Neuenhagen bei Berlin","type":"Kreisangehörige_Gemeinde"},"district":{"key":"12064","name":"Märkisch-Oderland","type":"Landkreis"},"federalState":{"key":"12","name":"Brandenburg"}},{"name":"Fasanenweg","postalCode":"15366","locality":"Neuenhagen bei Berlin","municipality":{"key":"12064336","name":"Neuenhagen bei Berlin","type":"Kreisangehörige_Gemeinde"},"district":{"key":"12064","name":"Märkisch-Oderland","type":"Landkreis"},"federalState":{"key":"12","name":"Brandenburg"}},{"name":"Fichtestr.","postalCode":"15366","locality":"Neuenhagen bei Berlin","municipality":{"key":"12064336","name":"Neuenhagen bei Berlin","type":"Kreisangehörige_Gemeinde"},"district":{"key":"12064","name":"Märkisch-Oderland","type":"Landkreis"},"federalState":{"key":"12","name":"Brandenburg"}},{"name":"Finkensteg","postalCode":"15366","locality":"Neuenhagen bei Berlin","municipality":{"key":"12064336","name":"Neuenhagen bei Berlin","type":"Kreisangehörige_Gemeinde"},"district":{"key":"12064","name":"Märkisch-Oderland","type":"Landkreis"},"federalState":{"key":"12","name":"Brandenburg"}},{"name":"Fliederstr.","postalCode":"15366","locality":"Neuenhagen bei Berlin","municipality":{"key":"12064336","name":"Neuenhagen bei Berlin","type":"Kreisangehörige_Gemeinde"},"district":{"key":"12064","name":"Märkisch-Oderland","type":"Landkreis"},"federalState":{"key":"12","name":"Brandenburg"}},{"name":"Florastr.","postalCode":"15366","locality":"Neuenhagen bei Berlin","municipality":{"key":"12064336","name":"Neuenhagen bei Berlin","type":"Kreisangehörige_Gemeinde"},"district":{"key":"12064","name":"Märkisch-Oderland","type":"Landkreis"},"federalState":{"key":"12","name":"Brandenburg"}},{"name":"Fontanestr.","postalCode":"15366","locality":"Neuenhagen bei Berlin","municipality":{"key":"12064336","name":"Neuenhagen bei Berlin","type":"Kreisangehörige_Gemeinde"},"district":{"key":"12064","name":"Märkisch-Oderland","type":"Landkreis"},"federalState":{"key":"12","name":"Brandenburg"}},{"name":"Frankenhausener Str.","postalCode":"15366","locality":"Neuenhagen bei Berlin","municipality":{"key":"12064336","name":"Neuenhagen bei Berlin","type":"Kreisangehörige_Gemeinde"},"district":{"key":"12064","name":"Märkisch-Oderland","type":"Landkreis"},"federalState":{"key":"12","name":"Brandenburg"}},{"name":"Frankfurter Chaussee","postalCode":"15366","locality":"Neuenhagen bei Berlin","municipality":{"key":"12064336","name":"Neuenhagen bei Berlin","type":"Kreisangehörige_Gemeinde"},"district":{"key":"12064","name":"Märkisch-Oderland","type":"Landkreis"},"federalState":{"key":"12","name":"Brandenburg"}},{"name":"Fredersdorfer Str.","postalCode":"15366","locality":"Neuenhagen bei Berlin","municipality":{"key":"12064336","name":"Neuenhagen bei Berlin","type":"Kreisangehörige_Gemeinde"},"district":{"key":"12064","name":"Märkisch-Oderland","type":"Landkreis"},"federalState":{"key":"12","name":"Brandenburg"}},{"name":"Freiligrathstr.","postalCode":"15366","locality":"Neuenhagen bei Berlin","municipality":{"key":"12064336","name":"Neuenhagen bei Berlin","type":"Kreisangehörige_Gemeinde"},"district":{"key":"12064","name":"Märkisch-Oderland","type":"Landkreis"},"federalState":{"key":"12","name":"Brandenburg"}},{"name":"Freytagstr.","postalCode":"15366","locality":"Neuenhagen bei Berlin","municipality":{"key":"12064336","name":"Neuenhagen bei Berlin","type":"Kreisangehörige_Gemeinde"},"district":{"key":"12064","name":"Märkisch-Oderland","type":"Landkreis"},"federalState":{"key":"12","name":"Brandenburg"}},{"name":"Friedensplatz","postalCode":"15366","locality":"Neuenhagen bei Berlin","municipality":{"key":"12064336","name":"Neuenhagen bei Berlin","type":"Kreisangehörige_Gemeinde"},"district":{"key":"12064","name":"Märkisch-Oderland","type":"Landkreis"},"federalState":{"key":"12","name":"Brandenburg"}},{"name":"Friedenstr.","postalCode":"15366","locality":"Neuenhagen bei Berlin","municipality":{"key":"12064336","name":"Neuenhagen bei Berlin","type":"Kreisangehörige_Gemeinde"},"district":{"key":"12064","name":"Märkisch-Oderland","type":"Landkreis"},"federalState":{"key":"12","name":"Brandenburg"}},{"name":"Friesenweg","postalCode":"15366","locality":"Neuenhagen bei Berlin","municipality":{"key":"12064336","name":"Neuenhagen bei Berlin","type":"Kreisangehörige_Gemeinde"},"district":{"key":"12064","name":"Märkisch-Oderland","type":"Landkreis"},"federalState":{"key":"12","name":"Brandenburg"}},{"name":"Ganghofer Str.","postalCode":"15366","locality":"Neuenhagen bei Berlin","municipality":{"key":"12064336","name":"Neuenhagen bei Berlin","type":"Kreisangehörige_Gemeinde"},"district":{"key":"12064","name":"Märkisch-Oderland","type":"Landkreis"},"federalState":{"key":"12","name":"Brandenburg"}},{"name":"Gartenstr.","postalCode":"15366","locality":"Neuenhagen bei Berlin","municipality":{"key":"12064336","name":"Neuenhagen bei Berlin","type":"Kreisangehörige_Gemeinde"},"district":{"key":"12064","name":"Märkisch-Oderland","type":"Landkreis"},"federalState":{"key":"12","name":"Brandenburg"}},{"name":"Geibelstr.","postalCode":"15366","locality":"Neuenhagen bei Berlin","municipality":{"key":"12064336","name":"Neuenhagen bei Berlin","type":"Kreisangehörige_Gemeinde"},"district":{"key":"12064","name":"Märkisch-Oderland","type":"Landkreis"},"federalState":{"key":"12","name":"Brandenburg"}},{"name":"Geraer Str.","postalCode":"15366","locality":"Neuenhagen bei Berlin","municipality":{"key":"12064336","name":"Neuenhagen bei Berlin","type":"Kreisangehörige_Gemeinde"},"district":{"key":"12064","name":"Märkisch-Oderland","type":"Landkreis"},"federalState":{"key":"12","name":"Brandenburg"}},{"name":"Germesheimer Str.","postalCode":"15366","locality":"Neuenhagen bei Berlin","municipality":{"key":"12064336","name":"Neuenhagen bei Berlin","type":"Kreisangehörige_Gemeinde"},"district":{"key":"12064","name":"Märkisch-Oderland","type":"Landkreis"},"federalState":{"key":"12","name":"Brandenburg"}},{"name":"Gernroder Str.","postalCode":"15366","locality":"Neuenhagen bei Berlin","municipality":{"key":"12064336","name":"Neuenhagen bei Berlin","type":"Kreisangehörige_Gemeinde"},"district":{"key":"12064","name":"Märkisch-Oderland","type":"Landkreis"},"federalState":{"key":"12","name":"Brandenburg"}},{"name":"Goethestr.","postalCode":"15366","locality":"Neuenhagen bei Berlin","municipality":{"key":"12064336","name":"Neuenhagen bei Berlin","type":"Kreisangehörige_Gemeinde"},"district":{"key":"12064","name":"Märkisch-Oderland","type":"Landkreis"},"federalState":{"key":"12","name":"Brandenburg"}},{"name":"Goetheweg","postalCode":"15366","locality":"Neuenhagen bei Berlin","municipality":{"key":"12064336","name":"Neuenhagen bei Berlin","type":"Kreisangehörige_Gemeinde"},"district":{"key":"12064","name":"Märkisch-Oderland","type":"Landkreis"},"federalState":{"key":"12","name":"Brandenburg"}},{"name":"Gothaer Str.","postalCode":"15366","locality":"Neuenhagen bei Berlin","municipality":{"key":"12064336","name":"Neuenhagen bei Berlin","type":"Kreisangehörige_Gemeinde"},"district":{"key":"12064","name":"Märkisch-Oderland","type":"Landkreis"},"federalState":{"key":"12","name":"Brandenburg"}},{"name":"Graditzer Damm","postalCode":"15366","locality":"Neuenhagen bei Berlin","municipality":{"key":"12064336","name":"Neuenhagen bei Berlin","type":"Kreisangehörige_Gemeinde"},"district":{"key":"12064","name":"Märkisch-Oderland","type":"Landkreis"},"federalState":{"key":"12","name":"Brandenburg"}},{"name":"Graf-Spreti-Str.","postalCode":"15366","locality":"Neuenhagen bei Berlin","municipality":{"key":"12064336","name":"Neuenhagen bei Berlin","type":"Kreisangehörige_Gemeinde"},"district":{"key":"12064","name":"Märkisch-Oderland","type":"Landkreis"},"federalState":{"key":"12","name":"Brandenburg"}},{"name":"Greifswalder Str.","postalCode":"15366","locality":"Neuenhagen bei Berlin","municipality":{"key":"12064336","name":"Neuenhagen bei Berlin","type":"Kreisangehörige_Gemeinde"},"district":{"key":"12064","name":"Märkisch-Oderland","type":"Landkreis"},"federalState":{"key":"12","name":"Brandenburg"}},{"name":"Grillenweg","postalCode":"15366","locality":"Neuenhagen bei Berlin","municipality":{"key":"12064336","name":"Neuenhagen bei Berlin","type":"Kreisangehörige_Gemeinde"},"district":{"key":"12064","name":"Märkisch-Oderland","type":"Landkreis"},"federalState":{"key":"12","name":"Brandenburg"}},{"name":"Grüne Aue","postalCode":"15366","locality":"Neuenhagen bei Berlin","municipality":{"key":"12064336","name":"Neuenhagen bei Berlin","type":"Kreisangehörige_Gemeinde"},"district":{"key":"12064","name":"Märkisch-Oderland","type":"Landkreis"},"federalState":{"key":"12","name":"Brandenburg"}},{"name":"Grüner Bogen","postalCode":"15366","locality":"Neuenhagen bei Berlin","municipality":{"key":"12064336","name":"Neuenhagen bei Berlin","type":"Kreisangehörige_Gemeinde"},"district":{"key":"12064","name":"Märkisch-Oderland","type":"Landkreis"},"federalState":{"key":"12","name":"Brandenburg"}},{"name":"Grüner Weg","postalCode":"15366","locality":"Neuenhagen bei Berlin","municipality":{"key":"12064336","name":"Neuenhagen bei Berlin","type":"Kreisangehörige_Gemeinde"},"district":{"key":"12064","name":"Märkisch-Oderland","type":"Landkreis"},"federalState":{"key":"12","name":"Brandenburg"}},{"name":"Grünstr.","postalCode":"15366","locality":"Neuenhagen bei Berlin","municipality":{"key":"12064336","name":"Neuenhagen bei Berlin","type":"Kreisangehörige_Gemeinde"},"district":{"key":"12064","name":"Märkisch-Oderland","type":"Landkreis"},"federalState":{"key":"12","name":"Brandenburg"}},{"name":"Gruscheweg","postalCode":"15366","locality":"Neuenhagen bei Berlin","municipality":{"key":"12064336","name":"Neuenhagen bei Berlin","type":"Kreisangehörige_Gemeinde"},"district":{"key":"12064","name":"Märkisch-Oderland","type":"Landkreis"},"federalState":{"key":"12","name":"Brandenburg"}},{"name":"Güstrower Str.","postalCode":"15366","locality":"Neuenhagen bei Berlin","municipality":{"key":"12064336","name":"Neuenhagen bei Berlin","type":"Kreisangehörige_Gemeinde"},"district":{"key":"12064","name":"Märkisch-Oderland","type":"Landkreis"},"federalState":{"key":"12","name":"Brandenburg"}},{"name":"Harzburger Str.","postalCode":"15366","locality":"Neuenhagen bei Berlin","municipality":{"key":"12064336","name":"Neuenhagen bei Berlin","type":"Kreisangehörige_Gemeinde"},"district":{"key":"12064","name":"Märkisch-Oderland","type":"Landkreis"},"federalState":{"key":"12","name":"Brandenburg"}},{"name":"Hauptmannstr.","postalCode":"15366","locality":"Neuenhagen bei Berlin","municipality":{"key":"12064336","name":"Neuenhagen bei Berlin","type":"Kreisangehörige_Gemeinde"},"district":{"key":"12064","name":"Märkisch-Oderland","type":"Landkreis"},"federalState":{"key":"12","name":"Brandenburg"}},{"name":"Hauptstr.","postalCode":"15366","locality":"Neuenhagen bei Berlin","municipality":{"key":"12064336","name":"Neuenhagen bei Berlin","type":"Kreisangehörige_Gemeinde"},"district":{"key":"12064","name":"Märkisch-Oderland","type":"Landkreis"},"federalState":{"key":"12","name":"Brandenburg"}},{"name":"Hebbelstr.","postalCode":"15366","locality":"Neuenhagen bei Berlin","municipality":{"key":"12064336","name":"Neuenhagen bei Berlin","type":"Kreisangehörige_Gemeinde"},"district":{"key":"12064","name":"Märkisch-Oderland","type":"Landkreis"},"federalState":{"key":"12","name":"Brandenburg"}},{"name":"Heideweg","postalCode":"15366","locality":"Neuenhagen bei Berlin","municipality":{"key":"12064336","name":"Neuenhagen bei Berlin","type":"Kreisangehörige_Gemeinde"},"district":{"key":"12064","name":"Märkisch-Oderland","type":"Landkreis"},"federalState":{"key":"12","name":"Brandenburg"}},{"name":"Heimgartenstr.","postalCode":"15366","locality":"Neuenhagen bei Berlin","municipality":{"key":"12064336","name":"Neuenhagen bei Berlin","type":"Kreisangehörige_Gemeinde"},"district":{"key":"12064","name":"Märkisch-Oderland","type":"Landkreis"},"federalState":{"key":"12","name":"Brandenburg"}},{"name":"Helmstedter Str.","postalCode":"15366","locality":"Neuenhagen bei Berlin","municipality":{"key":"12064336","name":"Neuenhagen bei Berlin","type":"Kreisangehörige_Gemeinde"},"district":{"key":"12064","name":"Märkisch-Oderland","type":"Landkreis"},"federalState":{"key":"12","name":"Brandenburg"}},{"name":"Hermann-Löns-Str.","postalCode":"15366","locality":"Neuenhagen bei Berlin","municipality":{"key":"12064336","name":"Neuenhagen bei Berlin","type":"Kreisangehörige_Gemeinde"},"district":{"key":"12064","name":"Märkisch-Oderland","type":"Landkreis"},"federalState":{"key":"12","name":"Brandenburg"}},{"name":"Hohe Allee","postalCode":"15366","locality":"Neuenhagen bei Berlin","municipality":{"key":"12064336","name":"Neuenhagen bei Berlin","type":"Kreisangehörige_Gemeinde"},"district":{"key":"12064","name":"Märkisch-Oderland","type":"Landkreis"},"federalState":{"key":"12","name":"Brandenburg"}},{"name":"Höhenweg","postalCode":"15366","locality":"Neuenhagen bei Berlin","municipality":{"key":"12064336","name":"Neuenhagen bei Berlin","type":"Kreisangehörige_Gemeinde"},"district":{"key":"12064","name":"Märkisch-Oderland","type":"Landkreis"},"federalState":{"key":"12","name":"Brandenburg"}},{"name":"Holunderweg","postalCode":"15366","locality":"Neuenhagen bei Berlin","municipality":{"key":"12064336","name":"Neuenhagen bei Berlin","type":"Kreisangehörige_Gemeinde"},"district":{"key":"12064","name":"Märkisch-Oderland","type":"Landkreis"},"federalState":{"key":"12","name":"Brandenburg"}},{"name":"Hönower Chaussee","postalCode":"15366","locality":"Neuenhagen bei Berlin","municipality":{"key":"12064336","name":"Neuenhagen bei Berlin","type":"Kreisangehörige_Gemeinde"},"district":{"key":"12064","name":"Märkisch-Oderland","type":"Landkreis"},"federalState":{"key":"12","name":"Brandenburg"}},{"name":"Hoppegartener Str.","postalCode":"15366","locality":"Neuenhagen bei Berlin","municipality":{"key":"12064336","name":"Neuenhagen bei Berlin","type":"Kreisangehörige_Gemeinde"},"district":{"key":"12064","name":"Märkisch-Oderland","type":"Landkreis"},"federalState":{"key":"12","name":"Brandenburg"}},{"name":"Horstweg","postalCode":"15366","locality":"Neuenhagen bei Berlin","municipality":{"key":"12064336","name":"Neuenhagen bei Berlin","type":"Kreisangehörige_Gemeinde"},"district":{"key":"12064","name":"Märkisch-Oderland","type":"Landkreis"},"federalState":{"key":"12","name":"Brandenburg"}},{"name":"Hubertusstr.","postalCode":"15366","locality":"Neuenhagen bei Berlin","municipality":{"key":"12064336","name":"Neuenhagen bei Berlin","type":"Kreisangehörige_Gemeinde"},"district":{"key":"12064","name":"Märkisch-Oderland","type":"Landkreis"},"federalState":{"key":"12","name":"Brandenburg"}},{"name":"Humboldtstr.","postalCode":"15366","locality":"Neuenhagen bei Berlin","municipality":{"key":"12064336","name":"Neuenhagen bei Berlin","type":"Kreisangehörige_Gemeinde"},"district":{"key":"12064","name":"Märkisch-Oderland","type":"Landkreis"},"federalState":{"key":"12","name":"Brandenburg"}},{"name":"Ilmenauer Str.","postalCode":"15366","locality":"Neuenhagen bei Berlin","municipality":{"key":"12064336","name":"Neuenhagen bei Berlin","type":"Kreisangehörige_Gemeinde"},"district":{"key":"12064","name":"Märkisch-Oderland","type":"Landkreis"},"federalState":{"key":"12","name":"Brandenburg"}},{"name":"Ilsenburger Str.","postalCode":"15366","locality":"Neuenhagen bei Berlin","municipality":{"key":"12064336","name":"Neuenhagen bei Berlin","type":"Kreisangehörige_Gemeinde"},"district":{"key":"12064","name":"Märkisch-Oderland","type":"Landkreis"},"federalState":{"key":"12","name":"Brandenburg"}},{"name":"Im Grund","postalCode":"15366","locality":"Neuenhagen bei Berlin","municipality":{"key":"12064336","name":"Neuenhagen bei Berlin","type":"Kreisangehörige_Gemeinde"},"district":{"key":"12064","name":"Märkisch-Oderland","type":"Landkreis"},"federalState":{"key":"12","name":"Brandenburg"}},{"name":"Imkerstr.","postalCode":"15366","locality":"Neuenhagen bei Berlin","municipality":{"key":"12064336","name":"Neuenhagen bei Berlin","type":"Kreisangehörige_Gemeinde"},"district":{"key":"12064","name":"Märkisch-Oderland","type":"Landkreis"},"federalState":{"key":"12","name":"Brandenburg"}},{"name":"Immenweg","postalCode":"15366","locality":"Neuenhagen bei Berlin","municipality":{"key":"12064336","name":"Neuenhagen bei Berlin","type":"Kreisangehörige_Gemeinde"},"district":{"key":"12064","name":"Märkisch-Oderland","type":"Landkreis"},"federalState":{"key":"12","name":"Brandenburg"}},{"name":"Jahnstr.","postalCode":"15366","locality":"Neuenhagen bei Berlin","municipality":{"key":"12064336","name":"Neuenhagen bei Berlin","type":"Kreisangehörige_Gemeinde"},"district":{"key":"12064","name":"Märkisch-Oderland","type":"Landkreis"},"federalState":{"key":"12","name":"Brandenburg"}},{"name":"Jenaer Str.","postalCode":"15366","locality":"Neuenhagen bei Berlin","municipality":{"key":"12064336","name":"Neuenhagen bei Berlin","type":"Kreisangehörige_Gemeinde"},"district":{"key":"12064","name":"Märkisch-Oderland","type":"Landkreis"},"federalState":{"key":"12","name":"Brandenburg"}},{"name":"Johanna-Solf-Str.","postalCode":"15366","locality":"Neuenhagen bei Berlin","municipality":{"key":"12064336","name":"Neuenhagen bei Berlin","type":"Kreisangehörige_Gemeinde"},"district":{"key":"12064","name":"Märkisch-Oderland","type":"Landkreis"},"federalState":{"key":"12","name":"Brandenburg"}},{"name":"Kantstr.","postalCode":"15366","locality":"Neuenhagen bei Berlin","municipality":{"key":"12064336","name":"Neuenhagen bei Berlin","type":"Kreisangehörige_Gemeinde"},"district":{"key":"12064","name":"Märkisch-Oderland","type":"Landkreis"},"federalState":{"key":"12","name":"Brandenburg"}},{"name":"Karl-Breitinger Str.","postalCode":"15366","locality":"Neuenhagen bei Berlin","municipality":{"key":"12064336","name":"Neuenhagen bei Berlin","type":"Kreisangehörige_Gemeinde"},"district":{"key":"12064","name":"Märkisch-Oderland","type":"Landkreis"},"federalState":{"key":"12","name":"Brandenburg"}},{"name":"Karl-Liebknecht-Str.","postalCode":"15366","locality":"Neuenhagen bei Berlin","municipality":{"key":"12064336","name":"Neuenhagen bei Berlin","type":"Kreisangehörige_Gemeinde"},"district":{"key":"12064","name":"Märkisch-Oderland","type":"Landkreis"},"federalState":{"key":"12","name":"Brandenburg"}},{"name":"Kastanienstr.","postalCode":"15366","locality":"Neuenhagen bei Berlin","municipality":{"key":"12064336","name":"Neuenhagen bei Berlin","type":"Kreisangehörige_Gemeinde"},"district":{"key":"12064","name":"Märkisch-Oderland","type":"Landkreis"},"federalState":{"key":"12","name":"Brandenburg"}},{"name":"Kiefernallee","postalCode":"15366","locality":"Neuenhagen bei Berlin","municipality":{"key":"12064336","name":"Neuenhagen bei Berlin","type":"Kreisangehörige_Gemeinde"},"district":{"key":"12064","name":"Märkisch-Oderland","type":"Landkreis"},"federalState":{"key":"12","name":"Brandenburg"}},{"name":"Kinzigsteg","postalCode":"15366","locality":"Neuenhagen bei Berlin","municipality":{"key":"12064336","name":"Neuenhagen bei Berlin","type":"Kreisangehörige_Gemeinde"},"district":{"key":"12064","name":"Märkisch-Oderland","type":"Landkreis"},"federalState":{"key":"12","name":"Brandenburg"}},{"name":"Kleine Str.","postalCode":"15366","locality":"Neuenhagen bei Berlin","municipality":{"key":"12064336","name":"Neuenhagen bei Berlin","type":"Kreisangehörige_Gemeinde"},"district":{"key":"12064","name":"Märkisch-Oderland","type":"Landkreis"},"federalState":{"key":"12","name":"Brandenburg"}},{"name":"Kleiststr.","postalCode":"15366","locality":"Neuenhagen bei Berlin","municipality":{"key":"12064336","name":"Neuenhagen bei Berlin","type":"Kreisangehörige_Gemeinde"},"district":{"key":"12064","name":"Märkisch-Oderland","type":"Landkreis"},"federalState":{"key":"12","name":"Brandenburg"}},{"name":"Koblenzer Str.","postalCode":"15366","locality":"Neuenhagen bei Berlin","municipality":{"key":"12064336","name":"Neuenhagen bei Berlin","type":"Kreisangehörige_Gemeinde"},"district":{"key":"12064","name":"Märkisch-Oderland","type":"Landkreis"},"federalState":{"key":"12","name":"Brandenburg"}},{"name":"Koburger Str.","postalCode":"15366","locality":"Neuenhagen bei Berlin","municipality":{"key":"12064336","name":"Neuenhagen bei Berlin","type":"Kreisangehörige_Gemeinde"},"district":{"key":"12064","name":"Märkisch-Oderland","type":"Landkreis"},"federalState":{"key":"12","name":"Brandenburg"}},{"name":"Königswinterstr.","postalCode":"15366","locality":"Neuenhagen bei Berlin","municipality":{"key":"12064336","name":"Neuenhagen bei Berlin","type":"Kreisangehörige_Gemeinde"},"district":{"key":"12064","name":"Märkisch-Oderland","type":"Landkreis"},"federalState":{"key":"12","name":"Brandenburg"}},{"name":"Körnerstr.","postalCode":"15366","locality":"Neuenhagen bei Berlin","municipality":{"key":"12064336","name":"Neuenhagen bei Berlin","type":"Kreisangehörige_Gemeinde"},"district":{"key":"12064","name":"Märkisch-Oderland","type":"Landkreis"},"federalState":{"key":"12","name":"Brandenburg"}},{"name":"Krokusweg","postalCode":"15366","locality":"Neuenhagen bei Berlin","municipality":{"key":"12064336","name":"Neuenhagen bei Berlin","type":"Kreisangehörige_Gemeinde"},"district":{"key":"12064","name":"Märkisch-Oderland","type":"Landkreis"},"federalState":{"key":"12","name":"Brandenburg"}},{"name":"Kurze Str.","postalCode":"15366","locality":"Neuenhagen bei Berlin","municipality":{"key":"12064336","name":"Neuenhagen bei Berlin","type":"Kreisangehörige_Gemeinde"},"district":{"key":"12064","name":"Märkisch-Oderland","type":"Landkreis"},"federalState":{"key":"12","name":"Brandenburg"}},{"name":"Lahnsteiner Str.","postalCode":"15366","locality":"Neuenhagen bei Berlin","municipality":{"key":"12064336","name":"Neuenhagen bei Berlin","type":"Kreisangehörige_Gemeinde"},"district":{"key":"12064","name":"Märkisch-Oderland","type":"Landkreis"},"federalState":{"key":"12","name":"Brandenburg"}},{"name":"Landhausstr.","postalCode":"15366","locality":"Neuenhagen bei Berlin","municipality":{"key":"12064336","name":"Neuenhagen bei Berlin","type":"Kreisangehörige_Gemeinde"},"district":{"key":"12064","name":"Märkisch-Oderland","type":"Landkreis"},"federalState":{"key":"12","name":"Brandenburg"}},{"name":"Langenbeckstr.","postalCode":"15366","locality":"Neuenhagen bei Berlin","municipality":{"key":"12064336","name":"Neuenhagen bei Berlin","type":"Kreisangehörige_Gemeinde"},"district":{"key":"12064","name":"Märkisch-Oderland","type":"Landkreis"},"federalState":{"key":"12","name":"Brandenburg"}},{"name":"Lange Str.","postalCode":"15366","locality":"Neuenhagen bei Berlin","municipality":{"key":"12064336","name":"Neuenhagen bei Berlin","type":"Kreisangehörige_Gemeinde"},"district":{"key":"12064","name":"Märkisch-Oderland","type":"Landkreis"},"federalState":{"key":"12","name":"Brandenburg"}},{"name":"Lauterberger Str.","postalCode":"15366","locality":"Neuenhagen bei Berlin","municipality":{"key":"12064336","name":"Neuenhagen bei Berlin","type":"Kreisangehörige_Gemeinde"},"district":{"key":"12064","name":"Märkisch-Oderland","type":"Landkreis"},"federalState":{"key":"12","name":"Brandenburg"}},{"name":"Lerchenaue","postalCode":"15366","locality":"Neuenhagen bei Berlin","municipality":{"key":"12064336","name":"Neuenhagen bei Berlin","type":"Kreisangehörige_Gemeinde"},"district":{"key":"12064","name":"Märkisch-Oderland","type":"Landkreis"},"federalState":{"key":"12","name":"Brandenburg"}},{"name":"Lessingstr.","postalCode":"15366","locality":"Neuenhagen bei Berlin","municipality":{"key":"12064336","name":"Neuenhagen bei Berlin","type":"Kreisangehörige_Gemeinde"},"district":{"key":"12064","name":"Märkisch-Oderland","type":"Landkreis"},"federalState":{"key":"12","name":"Brandenburg"}},{"name":"Liebermannweg","postalCode":"15366","locality":"Neuenhagen bei Berlin","municipality":{"key":"12064336","name":"Neuenhagen bei Berlin","type":"Kreisangehörige_Gemeinde"},"district":{"key":"12064","name":"Märkisch-Oderland","type":"Landkreis"},"federalState":{"key":"12","name":"Brandenburg"}},{"name":"Lindenstr.","postalCode":"15366","locality":"Neuenhagen bei Berlin","municipality":{"key":"12064336","name":"Neuenhagen bei Berlin","type":"Kreisangehörige_Gemeinde"},"district":{"key":"12064","name":"Märkisch-Oderland","type":"Landkreis"},"federalState":{"key":"12","name":"Brandenburg"}},{"name":"Maiglöckchenweg","postalCode":"15366","locality":"Neuenhagen bei Berlin","municipality":{"key":"12064336","name":"Neuenhagen bei Berlin","type":"Kreisangehörige_Gemeinde"},"district":{"key":"12064","name":"Märkisch-Oderland","type":"Landkreis"},"federalState":{"key":"12","name":"Brandenburg"}},{"name":"Mainzer Str.","postalCode":"15366","locality":"Neuenhagen bei Berlin","municipality":{"key":"12064336","name":"Neuenhagen bei Berlin","type":"Kreisangehörige_Gemeinde"},"district":{"key":"12064","name":"Märkisch-Oderland","type":"Landkreis"},"federalState":{"key":"12","name":"Brandenburg"}},{"name":"Malchiner Str.","postalCode":"15366","locality":"Neuenhagen bei Berlin","municipality":{"key":"12064336","name":"Neuenhagen bei Berlin","type":"Kreisangehörige_Gemeinde"},"district":{"key":"12064","name":"Märkisch-Oderland","type":"Landkreis"},"federalState":{"key":"12","name":"Brandenburg"}},{"name":"Mannheimer Str.","postalCode":"15366","locality":"Neuenhagen bei Berlin","municipality":{"key":"12064336","name":"Neuenhagen bei Berlin","type":"Kreisangehörige_Gemeinde"},"district":{"key":"12064","name":"Märkisch-Oderland","type":"Landkreis"},"federalState":{"key":"12","name":"Brandenburg"}},{"name":"Marienheide","postalCode":"15366","locality":"Neuenhagen bei Berlin","municipality":{"key":"12064336","name":"Neuenhagen bei Berlin","type":"Kreisangehörige_Gemeinde"},"district":{"key":"12064","name":"Märkisch-Oderland","type":"Landkreis"},"federalState":{"key":"12","name":"Brandenburg"}},{"name":"Marienstr.","postalCode":"15366","locality":"Neuenhagen bei Berlin","municipality":{"key":"12064336","name":"Neuenhagen bei Berlin","type":"Kreisangehörige_Gemeinde"},"district":{"key":"12064","name":"Märkisch-Oderland","type":"Landkreis"},"federalState":{"key":"12","name":"Brandenburg"}},{"name":"Max-Thormann-Platz","postalCode":"15366","locality":"Neuenhagen bei Berlin","municipality":{"key":"12064336","name":"Neuenhagen bei Berlin","type":"Kreisangehörige_Gemeinde"},"district":{"key":"12064","name":"Märkisch-Oderland","type":"Landkreis"},"federalState":{"key":"12","name":"Brandenburg"}},{"name":"Meiningener Str.","postalCode":"15366","locality":"Neuenhagen bei Berlin","municipality":{"key":"12064336","name":"Neuenhagen bei Berlin","type":"Kreisangehörige_Gemeinde"},"district":{"key":"12064","name":"Märkisch-Oderland","type":"Landkreis"},"federalState":{"key":"12","name":"Brandenburg"}},{"name":"Mittelstr.","postalCode":"15366","locality":"Neuenhagen bei Berlin","municipality":{"key":"12064336","name":"Neuenhagen bei Berlin","type":"Kreisangehörige_Gemeinde"},"district":{"key":"12064","name":"Märkisch-Oderland","type":"Landkreis"},"federalState":{"key":"12","name":"Brandenburg"}},{"name":"Müllerstr.","postalCode":"15366","locality":"Neuenhagen bei Berlin","municipality":{"key":"12064336","name":"Neuenhagen bei Berlin","type":"Kreisangehörige_Gemeinde"},"district":{"key":"12064","name":"Märkisch-Oderland","type":"Landkreis"},"federalState":{"key":"12","name":"Brandenburg"}},{"name":"Niederheidenstr.","postalCode":"15366","locality":"Neuenhagen bei Berlin","municipality":{"key":"12064336","name":"Neuenhagen bei Berlin","type":"Kreisangehörige_Gemeinde"},"district":{"key":"12064","name":"Märkisch-Oderland","type":"Landkreis"},"federalState":{"key":"12","name":"Brandenburg"}},{"name":"Niersteiner Str.","postalCode":"15366","locality":"Neuenhagen bei Berlin","municipality":{"key":"12064336","name":"Neuenhagen bei Berlin","type":"Kreisangehörige_Gemeinde"},"district":{"key":"12064","name":"Märkisch-Oderland","type":"Landkreis"},"federalState":{"key":"12","name":"Brandenburg"}},{"name":"Nikolaus-Kalff-Weg","postalCode":"15366","locality":"Neuenhagen bei Berlin","municipality":{"key":"12064336","name":"Neuenhagen bei Berlin","type":"Kreisangehörige_Gemeinde"},"district":{"key":"12064","name":"Märkisch-Oderland","type":"Landkreis"},"federalState":{"key":"12","name":"Brandenburg"}},{"name":"Oberlandstr.","postalCode":"15366","locality":"Neuenhagen bei Berlin","municipality":{"key":"12064336","name":"Neuenhagen bei Berlin","type":"Kreisangehörige_Gemeinde"},"district":{"key":"12064","name":"Märkisch-Oderland","type":"Landkreis"},"federalState":{"key":"12","name":"Brandenburg"}},{"name":"Oppenheimer Str.","postalCode":"15366","locality":"Neuenhagen bei Berlin","municipality":{"key":"12064336","name":"Neuenhagen bei Berlin","type":"Kreisangehörige_Gemeinde"},"district":{"key":"12064","name":"Märkisch-Oderland","type":"Landkreis"},"federalState":{"key":"12","name":"Brandenburg"}},{"name":"Osteroder Str.","postalCode":"15366","locality":"Neuenhagen bei Berlin","municipality":{"key":"12064336","name":"Neuenhagen bei Berlin","type":"Kreisangehörige_Gemeinde"},"district":{"key":"12064","name":"Märkisch-Oderland","type":"Landkreis"},"federalState":{"key":"12","name":"Brandenburg"}},{"name":"Ostring","postalCode":"15366","locality":"Neuenhagen bei Berlin","municipality":{"key":"12064336","name":"Neuenhagen bei Berlin","type":"Kreisangehörige_Gemeinde"},"district":{"key":"12064","name":"Märkisch-Oderland","type":"Landkreis"},"federalState":{"key":"12","name":"Brandenburg"}},{"name":"Otto-Schmidt-Ring","postalCode":"15366","locality":"Neuenhagen bei Berlin","municipality":{"key":"12064336","name":"Neuenhagen bei Berlin","type":"Kreisangehörige_Gemeinde"},"district":{"key":"12064","name":"Märkisch-Oderland","type":"Landkreis"},"federalState":{"key":"12","name":"Brandenburg"}},{"name":"Parchimer Str.","postalCode":"15366","locality":"Neuenhagen bei Berlin","municipality":{"key":"12064336","name":"Neuenhagen bei Berlin","type":"Kreisangehörige_Gemeinde"},"district":{"key":"12064","name":"Märkisch-Oderland","type":"Landkreis"},"federalState":{"key":"12","name":"Brandenburg"}},{"name":"Park am Wiesenberg","postalCode":"15366","locality":"Neuenhagen bei Berlin","municipality":{"key":"12064336","name":"Neuenhagen bei Berlin","type":"Kreisangehörige_Gemeinde"},"district":{"key":"12064","name":"Märkisch-Oderland","type":"Landkreis"},"federalState":{"key":"12","name":"Brandenburg"}},{"name":"Parkstr.","postalCode":"15366","locality":"Neuenhagen bei Berlin","municipality":{"key":"12064336","name":"Neuenhagen bei Berlin","type":"Kreisangehörige_Gemeinde"},"district":{"key":"12064","name":"Märkisch-Oderland","type":"Landkreis"},"federalState":{"key":"12","name":"Brandenburg"}},{"name":"Pestalozzistr.","postalCode":"15366","locality":"Neuenhagen bei Berlin","municipality":{"key":"12064336","name":"Neuenhagen bei Berlin","type":"Kreisangehörige_Gemeinde"},"district":{"key":"12064","name":"Märkisch-Oderland","type":"Landkreis"},"federalState":{"key":"12","name":"Brandenburg"}},{"name":"Platanenallee","postalCode":"15366","locality":"Neuenhagen bei Berlin","municipality":{"key":"12064336","name":"Neuenhagen bei Berlin","type":"Kreisangehörige_Gemeinde"},"district":{"key":"12064","name":"Märkisch-Oderland","type":"Landkreis"},"federalState":{"key":"12","name":"Brandenburg"}},{"name":"Platz der Republik","postalCode":"15366","locality":"Neuenhagen bei Berlin","municipality":{"key":"12064336","name":"Neuenhagen bei Berlin","type":"Kreisangehörige_Gemeinde"},"district":{"key":"12064","name":"Märkisch-Oderland","type":"Landkreis"},"federalState":{"key":"12","name":"Brandenburg"}},{"name":"Professor-Zeller-Str.","postalCode":"15366","locality":"Neuenhagen bei Berlin","municipality":{"key":"12064336","name":"Neuenhagen bei Berlin","type":"Kreisangehörige_Gemeinde"},"district":{"key":"12064","name":"Märkisch-Oderland","type":"Landkreis"},"federalState":{"key":"12","name":"Brandenburg"}},{"name":"Puschkinweg","postalCode":"15366","locality":"Neuenhagen bei Berlin","municipality":{"key":"12064336","name":"Neuenhagen bei Berlin","type":"Kreisangehörige_Gemeinde"},"district":{"key":"12064","name":"Märkisch-Oderland","type":"Landkreis"},"federalState":{"key":"12","name":"Brandenburg"}},{"name":"Raabestr.","postalCode":"15366","locality":"Neuenhagen bei Berlin","municipality":{"key":"12064336","name":"Neuenhagen bei Berlin","type":"Kreisangehörige_Gemeinde"},"district":{"key":"12064","name":"Märkisch-Oderland","type":"Landkreis"},"federalState":{"key":"12","name":"Brandenburg"}},{"name":"Rathausstr.","postalCode":"15366","locality":"Neuenhagen bei Berlin","municipality":{"key":"12064336","name":"Neuenhagen bei Berlin","type":"Kreisangehörige_Gemeinde"},"district":{"key":"12064","name":"Märkisch-Oderland","type":"Landkreis"},"federalState":{"key":"12","name":"Brandenburg"}},{"name":"Reiherhorst","postalCode":"15366","locality":"Neuenhagen bei Berlin","municipality":{"key":"12064336","name":"Neuenhagen bei Berlin","type":"Kreisangehörige_Gemeinde"},"district":{"key":"12064","name":"Märkisch-Oderland","type":"Landkreis"},"federalState":{"key":"12","name":"Brandenburg"}},{"name":"Reuterstr.","postalCode":"15366","locality":"Neuenhagen bei Berlin","municipality":{"key":"12064336","name":"Neuenhagen bei Berlin","type":"Kreisangehörige_Gemeinde"},"district":{"key":"12064","name":"Märkisch-Oderland","type":"Landkreis"},"federalState":{"key":"12","name":"Brandenburg"}},{"name":"Rosa-Luxemburg-Damm","postalCode":"15366","locality":"Neuenhagen bei Berlin","municipality":{"key":"12064336","name":"Neuenhagen bei Berlin","type":"Kreisangehörige_Gemeinde"},"district":{"key":"12064","name":"Märkisch-Oderland","type":"Landkreis"},"federalState":{"key":"12","name":"Brandenburg"}},{"name":"Roseggerstr.","postalCode":"15366","locality":"Neuenhagen bei Berlin","municipality":{"key":"12064336","name":"Neuenhagen bei Berlin","type":"Kreisangehörige_Gemeinde"},"district":{"key":"12064","name":"Märkisch-Oderland","type":"Landkreis"},"federalState":{"key":"12","name":"Brandenburg"}},{"name":"Rosenaue","postalCode":"15366","locality":"Neuenhagen bei Berlin","municipality":{"key":"12064336","name":"Neuenhagen bei Berlin","type":"Kreisangehörige_Gemeinde"},"district":{"key":"12064","name":"Märkisch-Oderland","type":"Landkreis"},"federalState":{"key":"12","name":"Brandenburg"}},{"name":"Rosmarinstr.","postalCode":"15366","locality":"Neuenhagen bei Berlin","municipality":{"key":"12064336","name":"Neuenhagen bei Berlin","type":"Kreisangehörige_Gemeinde"},"district":{"key":"12064","name":"Märkisch-Oderland","type":"Landkreis"},"federalState":{"key":"12","name":"Brandenburg"}},{"name":"Roßtrappe","postalCode":"15366","locality":"Neuenhagen bei Berlin","municipality":{"key":"12064336","name":"Neuenhagen bei Berlin","type":"Kreisangehörige_Gemeinde"},"district":{"key":"12064","name":"Märkisch-Oderland","type":"Landkreis"},"federalState":{"key":"12","name":"Brandenburg"}},{"name":"Rostocker Str.","postalCode":"15366","locality":"Neuenhagen bei Berlin","municipality":{"key":"12064336","name":"Neuenhagen bei Berlin","type":"Kreisangehörige_Gemeinde"},"district":{"key":"12064","name":"Märkisch-Oderland","type":"Landkreis"},"federalState":{"key":"12","name":"Brandenburg"}},{"name":"Rotterdamer Str.","postalCode":"15366","locality":"Neuenhagen bei Berlin","municipality":{"key":"12064336","name":"Neuenhagen bei Berlin","type":"Kreisangehörige_Gemeinde"},"district":{"key":"12064","name":"Märkisch-Oderland","type":"Landkreis"},"federalState":{"key":"12","name":"Brandenburg"}},{"name":"Rückertstr.","postalCode":"15366","locality":"Neuenhagen bei Berlin","municipality":{"key":"12064336","name":"Neuenhagen bei Berlin","type":"Kreisangehörige_Gemeinde"},"district":{"key":"12064","name":"Märkisch-Oderland","type":"Landkreis"},"federalState":{"key":"12","name":"Brandenburg"}},{"name":"Rüdesheimer Str.","postalCode":"15366","locality":"Neuenhagen bei Berlin","municipality":{"key":"12064336","name":"Neuenhagen bei Berlin","type":"Kreisangehörige_Gemeinde"},"district":{"key":"12064","name":"Märkisch-Oderland","type":"Landkreis"},"federalState":{"key":"12","name":"Brandenburg"}},{"name":"Rudolf-Breitscheid-Allee","postalCode":"15366","locality":"Neuenhagen bei Berlin","municipality":{"key":"12064336","name":"Neuenhagen bei Berlin","type":"Kreisangehörige_Gemeinde"},"district":{"key":"12064","name":"Märkisch-Oderland","type":"Landkreis"},"federalState":{"key":"12","name":"Brandenburg"}},{"name":"Rügenstr.","postalCode":"15366","locality":"Neuenhagen bei Berlin","municipality":{"key":"12064336","name":"Neuenhagen bei Berlin","type":"Kreisangehörige_Gemeinde"},"district":{"key":"12064","name":"Märkisch-Oderland","type":"Landkreis"},"federalState":{"key":"12","name":"Brandenburg"}},{"name":"Saalecker Str.","postalCode":"15366","locality":"Neuenhagen bei Berlin","municipality":{"key":"12064336","name":"Neuenhagen bei Berlin","type":"Kreisangehörige_Gemeinde"},"district":{"key":"12064","name":"Märkisch-Oderland","type":"Landkreis"},"federalState":{"key":"12","name":"Brandenburg"}},{"name":"Sankt-Georgs-Weg","postalCode":"15366","locality":"Neuenhagen bei Berlin","municipality":{"key":"12064336","name":"Neuenhagen bei Berlin","type":"Kreisangehörige_Gemeinde"},"district":{"key":"12064","name":"Märkisch-Oderland","type":"Landkreis"},"federalState":{"key":"12","name":"Brandenburg"}},{"name":"Schäferplatz","postalCode":"15366","locality":"Neuenhagen bei Berlin","municipality":{"key":"12064336","name":"Neuenhagen bei Berlin","type":"Kreisangehörige_Gemeinde"},"district":{"key":"12064","name":"Märkisch-Oderland","type":"Landkreis"},"federalState":{"key":"12","name":"Brandenburg"}},{"name":"Scheffelstr.","postalCode":"15366","locality":"Neuenhagen bei Berlin","municipality":{"key":"12064336","name":"Neuenhagen bei Berlin","type":"Kreisangehörige_Gemeinde"},"district":{"key":"12064","name":"Märkisch-Oderland","type":"Landkreis"},"federalState":{"key":"12","name":"Brandenburg"}},{"name":"Schillerstr.","postalCode":"15366","locality":"Neuenhagen bei Berlin","municipality":{"key":"12064336","name":"Neuenhagen bei Berlin","type":"Kreisangehörige_Gemeinde"},"district":{"key":"12064","name":"Märkisch-Oderland","type":"Landkreis"},"federalState":{"key":"12","name":"Brandenburg"}},{"name":"Schlenderhanstr.","postalCode":"15366","locality":"Neuenhagen bei Berlin","municipality":{"key":"12064336","name":"Neuenhagen bei Berlin","type":"Kreisangehörige_Gemeinde"},"district":{"key":"12064","name":"Märkisch-Oderland","type":"Landkreis"},"federalState":{"key":"12","name":"Brandenburg"}},{"name":"Schmidtstr.","postalCode":"15366","locality":"Neuenhagen bei Berlin","municipality":{"key":"12064336","name":"Neuenhagen bei Berlin","type":"Kreisangehörige_Gemeinde"},"district":{"key":"12064","name":"Märkisch-Oderland","type":"Landkreis"},"federalState":{"key":"12","name":"Brandenburg"}},{"name":"Schöneicher Str.","postalCode":"15366","locality":"Neuenhagen bei Berlin","municipality":{"key":"12064336","name":"Neuenhagen bei Berlin","type":"Kreisangehörige_Gemeinde"},"district":{"key":"12064","name":"Märkisch-Oderland","type":"Landkreis"},"federalState":{"key":"12","name":"Brandenburg"}},{"name":"Schulstr.","postalCode":"15366","locality":"Neuenhagen bei Berlin","municipality":{"key":"12064336","name":"Neuenhagen bei Berlin","type":"Kreisangehörige_Gemeinde"},"district":{"key":"12064","name":"Märkisch-Oderland","type":"Landkreis"},"federalState":{"key":"12","name":"Brandenburg"}},{"name":"Schwarzburger Str.","postalCode":"15366","locality":"Neuenhagen bei Berlin","municipality":{"key":"12064336","name":"Neuenhagen bei Berlin","type":"Kreisangehörige_Gemeinde"},"district":{"key":"12064","name":"Märkisch-Oderland","type":"Landkreis"},"federalState":{"key":"12","name":"Brandenburg"}},{"name":"Schweriner Str.","postalCode":"15366","locality":"Neuenhagen bei Berlin","municipality":{"key":"12064336","name":"Neuenhagen bei Berlin","type":"Kreisangehörige_Gemeinde"},"district":{"key":"12064","name":"Märkisch-Oderland","type":"Landkreis"},"federalState":{"key":"12","name":"Brandenburg"}},{"name":"Sonnenweg","postalCode":"15366","locality":"Neuenhagen bei Berlin","municipality":{"key":"12064336","name":"Neuenhagen bei Berlin","type":"Kreisangehörige_Gemeinde"},"district":{"key":"12064","name":"Märkisch-Oderland","type":"Landkreis"},"federalState":{"key":"12","name":"Brandenburg"}},{"name":"Sperlingsgasse","postalCode":"15366","locality":"Neuenhagen bei Berlin","municipality":{"key":"12064336","name":"Neuenhagen bei Berlin","type":"Kreisangehörige_Gemeinde"},"district":{"key":"12064","name":"Märkisch-Oderland","type":"Landkreis"},"federalState":{"key":"12","name":"Brandenburg"}},{"name":"Speyerstr.","postalCode":"15366","locality":"Neuenhagen bei Berlin","municipality":{"key":"12064336","name":"Neuenhagen bei Berlin","type":"Kreisangehörige_Gemeinde"},"district":{"key":"12064","name":"Märkisch-Oderland","type":"Landkreis"},"federalState":{"key":"12","name":"Brandenburg"}},{"name":"Stolberger Str.","postalCode":"15366","locality":"Neuenhagen bei Berlin","municipality":{"key":"12064336","name":"Neuenhagen bei Berlin","type":"Kreisangehörige_Gemeinde"},"district":{"key":"12064","name":"Märkisch-Oderland","type":"Landkreis"},"federalState":{"key":"12","name":"Brandenburg"}},{"name":"Stormstr.","postalCode":"15366","locality":"Neuenhagen bei Berlin","municipality":{"key":"12064336","name":"Neuenhagen bei Berlin","type":"Kreisangehörige_Gemeinde"},"district":{"key":"12064","name":"Märkisch-Oderland","type":"Landkreis"},"federalState":{"key":"12","name":"Brandenburg"}},{"name":"Str. 1","postalCode":"15366","locality":"Neuenhagen bei Berlin","municipality":{"key":"12064336","name":"Neuenhagen bei Berlin","type":"Kreisangehörige_Gemeinde"},"district":{"key":"12064","name":"Märkisch-Oderland","type":"Landkreis"},"federalState":{"key":"12","name":"Brandenburg"}},{"name":"Stralsunder Str.","postalCode":"15366","locality":"Neuenhagen bei Berlin","municipality":{"key":"12064336","name":"Neuenhagen bei Berlin","type":"Kreisangehörige_Gemeinde"},"district":{"key":"12064","name":"Märkisch-Oderland","type":"Landkreis"},"federalState":{"key":"12","name":"Brandenburg"}},{"name":"Strelitzstr.","postalCode":"15366","locality":"Neuenhagen bei Berlin","municipality":{"key":"12064336","name":"Neuenhagen bei Berlin","type":"Kreisangehörige_Gemeinde"},"district":{"key":"12064","name":"Märkisch-Oderland","type":"Landkreis"},"federalState":{"key":"12","name":"Brandenburg"}},{"name":"Suhler Str.","postalCode":"15366","locality":"Neuenhagen bei Berlin","municipality":{"key":"12064336","name":"Neuenhagen bei Berlin","type":"Kreisangehörige_Gemeinde"},"district":{"key":"12064","name":"Märkisch-Oderland","type":"Landkreis"},"federalState":{"key":"12","name":"Brandenburg"}},{"name":"Teichstr.","postalCode":"15366","locality":"Neuenhagen bei Berlin","municipality":{"key":"12064336","name":"Neuenhagen bei Berlin","type":"Kreisangehörige_Gemeinde"},"district":{"key":"12064","name":"Märkisch-Oderland","type":"Landkreis"},"federalState":{"key":"12","name":"Brandenburg"}},{"name":"Theatron","postalCode":"15366","locality":"Neuenhagen bei Berlin","municipality":{"key":"12064336","name":"Neuenhagen bei Berlin","type":"Kreisangehörige_Gemeinde"},"district":{"key":"12064","name":"Märkisch-Oderland","type":"Landkreis"},"federalState":{"key":"12","name":"Brandenburg"}},{"name":"Tulpenweg","postalCode":"15366","locality":"Neuenhagen bei Berlin","municipality":{"key":"12064336","name":"Neuenhagen bei Berlin","type":"Kreisangehörige_Gemeinde"},"district":{"key":"12064","name":"Märkisch-Oderland","type":"Landkreis"},"federalState":{"key":"12","name":"Brandenburg"}},{"name":"Uhlandweg","postalCode":"15366","locality":"Neuenhagen bei Berlin","municipality":{"key":"12064336","name":"Neuenhagen bei Berlin","type":"Kreisangehörige_Gemeinde"},"district":{"key":"12064","name":"Märkisch-Oderland","type":"Landkreis"},"federalState":{"key":"12","name":"Brandenburg"}},{"name":"Unter den Ulmen","postalCode":"15366","locality":"Neuenhagen bei Berlin","municipality":{"key":"12064336","name":"Neuenhagen bei Berlin","type":"Kreisangehörige_Gemeinde"},"district":{"key":"12064","name":"Märkisch-Oderland","type":"Landkreis"},"federalState":{"key":"12","name":"Brandenburg"}},{"name":"Usedomstr.","postalCode":"15366","locality":"Neuenhagen bei Berlin","municipality":{"key":"12064336","name":"Neuenhagen bei Berlin","type":"Kreisangehörige_Gemeinde"},"district":{"key":"12064","name":"Märkisch-Oderland","type":"Landkreis"},"federalState":{"key":"12","name":"Brandenburg"}},{"name":"Virchowstr.","postalCode":"15366","locality":"Neuenhagen bei Berlin","municipality":{"key":"12064336","name":"Neuenhagen bei Berlin","type":"Kreisangehörige_Gemeinde"},"district":{"key":"12064","name":"Märkisch-Oderland","type":"Landkreis"},"federalState":{"key":"12","name":"Brandenburg"}},{"name":"Vogelsdorfer Str.","postalCode":"15366","locality":"Neuenhagen bei Berlin","municipality":{"key":"12064336","name":"Neuenhagen bei Berlin","type":"Kreisangehörige_Gemeinde"},"district":{"key":"12064","name":"Märkisch-Oderland","type":"Landkreis"},"federalState":{"key":"12","name":"Brandenburg"}},{"name":"Waldfließstr.","postalCode":"15366","locality":"Neuenhagen bei Berlin","municipality":{"key":"12064336","name":"Neuenhagen bei Berlin","type":"Kreisangehörige_Gemeinde"},"district":{"key":"12064","name":"Märkisch-Oderland","type":"Landkreis"},"federalState":{"key":"12","name":"Brandenburg"}},{"name":"Waldfriedstr.","postalCode":"15366","locality":"Neuenhagen bei Berlin","municipality":{"key":"12064336","name":"Neuenhagen bei Berlin","type":"Kreisangehörige_Gemeinde"},"district":{"key":"12064","name":"Märkisch-Oderland","type":"Landkreis"},"federalState":{"key":"12","name":"Brandenburg"}},{"name":"Waldstr.","postalCode":"15366","locality":"Neuenhagen bei Berlin","municipality":{"key":"12064336","name":"Neuenhagen bei Berlin","type":"Kreisangehörige_Gemeinde"},"district":{"key":"12064","name":"Märkisch-Oderland","type":"Landkreis"},"federalState":{"key":"12","name":"Brandenburg"}},{"name":"Walter-Genz-Str.","postalCode":"15366","locality":"Neuenhagen bei Berlin","municipality":{"key":"12064336","name":"Neuenhagen bei Berlin","type":"Kreisangehörige_Gemeinde"},"district":{"key":"12064","name":"Märkisch-Oderland","type":"Landkreis"},"federalState":{"key":"12","name":"Brandenburg"}},{"name":"Wartburgstr.","postalCode":"15366","locality":"Neuenhagen bei Berlin","municipality":{"key":"12064336","name":"Neuenhagen bei Berlin","type":"Kreisangehörige_Gemeinde"},"district":{"key":"12064","name":"Märkisch-Oderland","type":"Landkreis"},"federalState":{"key":"12","name":"Brandenburg"}},{"name":"Weimarer Str.","postalCode":"15366","locality":"Neuenhagen bei Berlin","municipality":{"key":"12064336","name":"Neuenhagen bei Berlin","type":"Kreisangehörige_Gemeinde"},"district":{"key":"12064","name":"Märkisch-Oderland","type":"Landkreis"},"federalState":{"key":"12","name":"Brandenburg"}},{"name":"Wernigeroder Str.","postalCode":"15366","locality":"Neuenhagen bei Berlin","municipality":{"key":"12064336","name":"Neuenhagen bei Berlin","type":"Kreisangehörige_Gemeinde"},"district":{"key":"12064","name":"Märkisch-Oderland","type":"Landkreis"},"federalState":{"key":"12","name":"Brandenburg"}},{"name":"Westring","postalCode":"15366","locality":"Neuenhagen bei Berlin","municipality":{"key":"12064336","name":"Neuenhagen bei Berlin","type":"Kreisangehörige_Gemeinde"},"district":{"key":"12064","name":"Märkisch-Oderland","type":"Landkreis"},"federalState":{"key":"12","name":"Brandenburg"}},{"name":"Wielandstr.","postalCode":"15366","locality":"Neuenhagen bei Berlin","municipality":{"key":"12064336","name":"Neuenhagen bei Berlin","type":"Kreisangehörige_Gemeinde"},"district":{"key":"12064","name":"Märkisch-Oderland","type":"Landkreis"},"federalState":{"key":"12","name":"Brandenburg"}},{"name":"Wiesenstr.","postalCode":"15366","locality":"Neuenhagen bei Berlin","municipality":{"key":"12064336","name":"Neuenhagen bei Berlin","type":"Kreisangehörige_Gemeinde"},"district":{"key":"12064","name":"Märkisch-Oderland","type":"Landkreis"},"federalState":{"key":"12","name":"Brandenburg"}},{"name":"Wiesenweg","postalCode":"15366","locality":"Neuenhagen bei Berlin","municipality":{"key":"12064336","name":"Neuenhagen bei Berlin","type":"Kreisangehörige_Gemeinde"},"district":{"key":"12064","name":"Märkisch-Oderland","type":"Landkreis"},"federalState":{"key":"12","name":"Brandenburg"}},{"name":"Wismarer Str.","postalCode":"15366","locality":"Neuenhagen bei Berlin","municipality":{"key":"12064336","name":"Neuenhagen bei Berlin","type":"Kreisangehörige_Gemeinde"},"district":{"key":"12064","name":"Märkisch-Oderland","type":"Landkreis"},"federalState":{"key":"12","name":"Brandenburg"}},{"name":"Wolterstr.","postalCode":"15366","locality":"Neuenhagen bei Berlin","municipality":{"key":"12064336","name":"Neuenhagen bei Berlin","type":"Kreisangehörige_Gemeinde"},"district":{"key":"12064","name":"Märkisch-Oderland","type":"Landkreis"},"federalState":{"key":"12","name":"Brandenburg"}},{"name":"Wormser Str.","postalCode":"15366","locality":"Neuenhagen bei Berlin","municipality":{"key":"12064336","name":"Neuenhagen bei Berlin","type":"Kreisangehörige_Gemeinde"},"district":{"key":"12064","name":"Märkisch-Oderland","type":"Landkreis"},"federalState":{"key":"12","name":"Brandenburg"}},{"name":"Ziegelstr.","postalCode":"15366","locality":"Neuenhagen bei Berlin","municipality":{"key":"12064336","name":"Neuenhagen bei Berlin","type":"Kreisangehörige_Gemeinde"},"district":{"key":"12064","name":"Märkisch-Oderland","type":"Landkreis"},"federalState":{"key":"12","name":"Brandenburg"}},]