[{"name":"Adlig Reetz","postalCode":"16259","locality":"Oderaue","municipality":{"key":"12064371","name":"Oderaue","type":"Kreisangehörige_Gemeinde"},"district":{"key":"12064","name":"Märkisch-Oderland","type":"Landkreis"},"federalState":{"key":"12","name":"Brandenburg"}},{"name":"Albrecht-Daniel-Thaer-Str.","postalCode":"16259","locality":"Oderaue","municipality":{"key":"12064371","name":"Oderaue","type":"Kreisangehörige_Gemeinde"},"district":{"key":"12064","name":"Märkisch-Oderland","type":"Landkreis"},"federalState":{"key":"12","name":"Brandenburg"}},{"name":"Am Alten Sportplatz","postalCode":"16259","locality":"Oderaue","municipality":{"key":"12064371","name":"Oderaue","type":"Kreisangehörige_Gemeinde"},"district":{"key":"12064","name":"Märkisch-Oderland","type":"Landkreis"},"federalState":{"key":"12","name":"Brandenburg"}},{"name":"Am Dorfplatz","postalCode":"16259","locality":"Oderaue","municipality":{"key":"12064371","name":"Oderaue","type":"Kreisangehörige_Gemeinde"},"district":{"key":"12064","name":"Märkisch-Oderland","type":"Landkreis"},"federalState":{"key":"12","name":"Brandenburg"}},{"name":"Angerstr.","postalCode":"16259","locality":"Oderaue","municipality":{"key":"12064371","name":"Oderaue","type":"Kreisangehörige_Gemeinde"},"district":{"key":"12064","name":"Märkisch-Oderland","type":"Landkreis"},"federalState":{"key":"12","name":"Brandenburg"}},{"name":"Ausbau","postalCode":"16259","locality":"Oderaue","municipality":{"key":"12064371","name":"Oderaue","type":"Kreisangehörige_Gemeinde"},"district":{"key":"12064","name":"Märkisch-Oderland","type":"Landkreis"},"federalState":{"key":"12","name":"Brandenburg"}},{"name":"Ausbau am Damm","postalCode":"16259","locality":"Oderaue","municipality":{"key":"12064371","name":"Oderaue","type":"Kreisangehörige_Gemeinde"},"district":{"key":"12064","name":"Märkisch-Oderland","type":"Landkreis"},"federalState":{"key":"12","name":"Brandenburg"}},{"name":"Ausbauten","postalCode":"16259","locality":"Oderaue","municipality":{"key":"12064371","name":"Oderaue","type":"Kreisangehörige_Gemeinde"},"district":{"key":"12064","name":"Märkisch-Oderland","type":"Landkreis"},"federalState":{"key":"12","name":"Brandenburg"}},{"name":"Bahnhofstr.","postalCode":"16259","locality":"Oderaue","municipality":{"key":"12064371","name":"Oderaue","type":"Kreisangehörige_Gemeinde"},"district":{"key":"12064","name":"Märkisch-Oderland","type":"Landkreis"},"federalState":{"key":"12","name":"Brandenburg"}},{"name":"Chausseestr.","postalCode":"16259","locality":"Oderaue","municipality":{"key":"12064371","name":"Oderaue","type":"Kreisangehörige_Gemeinde"},"district":{"key":"12064","name":"Märkisch-Oderland","type":"Landkreis"},"federalState":{"key":"12","name":"Brandenburg"}},{"name":"Croustillier","postalCode":"16259","locality":"Oderaue","municipality":{"key":"12064371","name":"Oderaue","type":"Kreisangehörige_Gemeinde"},"district":{"key":"12064","name":"Märkisch-Oderland","type":"Landkreis"},"federalState":{"key":"12","name":"Brandenburg"}},{"name":"Dorfplatz","postalCode":"16259","locality":"Oderaue","municipality":{"key":"12064371","name":"Oderaue","type":"Kreisangehörige_Gemeinde"},"district":{"key":"12064","name":"Märkisch-Oderland","type":"Landkreis"},"federalState":{"key":"12","name":"Brandenburg"}},{"name":"Freienwalder Str.","postalCode":"16259","locality":"Oderaue","municipality":{"key":"12064371","name":"Oderaue","type":"Kreisangehörige_Gemeinde"},"district":{"key":"12064","name":"Märkisch-Oderland","type":"Landkreis"},"federalState":{"key":"12","name":"Brandenburg"}},{"name":"Friedenstr.","postalCode":"16259","locality":"Oderaue","municipality":{"key":"12064371","name":"Oderaue","type":"Kreisangehörige_Gemeinde"},"district":{"key":"12064","name":"Märkisch-Oderland","type":"Landkreis"},"federalState":{"key":"12","name":"Brandenburg"}},{"name":"Friedrichshofer Weg","postalCode":"16259","locality":"Oderaue","municipality":{"key":"12064371","name":"Oderaue","type":"Kreisangehörige_Gemeinde"},"district":{"key":"12064","name":"Märkisch-Oderland","type":"Landkreis"},"federalState":{"key":"12","name":"Brandenburg"}},{"name":"Gartenstr.","postalCode":"16259","locality":"Oderaue","municipality":{"key":"12064371","name":"Oderaue","type":"Kreisangehörige_Gemeinde"},"district":{"key":"12064","name":"Märkisch-Oderland","type":"Landkreis"},"federalState":{"key":"12","name":"Brandenburg"}},{"name":"Königlich Reetz","postalCode":"16259","locality":"Oderaue","municipality":{"key":"12064371","name":"Oderaue","type":"Kreisangehörige_Gemeinde"},"district":{"key":"12064","name":"Märkisch-Oderland","type":"Landkreis"},"federalState":{"key":"12","name":"Brandenburg"}},{"name":"Mittelstr.","postalCode":"16259","locality":"Oderaue","municipality":{"key":"12064371","name":"Oderaue","type":"Kreisangehörige_Gemeinde"},"district":{"key":"12064","name":"Märkisch-Oderland","type":"Landkreis"},"federalState":{"key":"12","name":"Brandenburg"}},{"name":"Mühlenweg","postalCode":"16259","locality":"Oderaue","municipality":{"key":"12064371","name":"Oderaue","type":"Kreisangehörige_Gemeinde"},"district":{"key":"12064","name":"Märkisch-Oderland","type":"Landkreis"},"federalState":{"key":"12","name":"Brandenburg"}},{"name":"Neue Str.","postalCode":"16259","locality":"Oderaue","municipality":{"key":"12064371","name":"Oderaue","type":"Kreisangehörige_Gemeinde"},"district":{"key":"12064","name":"Märkisch-Oderland","type":"Landkreis"},"federalState":{"key":"12","name":"Brandenburg"}},{"name":"Neugauler Str.","postalCode":"16259","locality":"Oderaue","municipality":{"key":"12064371","name":"Oderaue","type":"Kreisangehörige_Gemeinde"},"district":{"key":"12064","name":"Märkisch-Oderland","type":"Landkreis"},"federalState":{"key":"12","name":"Brandenburg"}},{"name":"Neukietz","postalCode":"16259","locality":"Oderaue","municipality":{"key":"12064371","name":"Oderaue","type":"Kreisangehörige_Gemeinde"},"district":{"key":"12064","name":"Märkisch-Oderland","type":"Landkreis"},"federalState":{"key":"12","name":"Brandenburg"}},{"name":"Neuküstrinchen","postalCode":"16259","locality":"Oderaue","municipality":{"key":"12064371","name":"Oderaue","type":"Kreisangehörige_Gemeinde"},"district":{"key":"12064","name":"Märkisch-Oderland","type":"Landkreis"},"federalState":{"key":"12","name":"Brandenburg"}},{"name":"Neumädewitz","postalCode":"16259","locality":"Oderaue","municipality":{"key":"12064371","name":"Oderaue","type":"Kreisangehörige_Gemeinde"},"district":{"key":"12064","name":"Märkisch-Oderland","type":"Landkreis"},"federalState":{"key":"12","name":"Brandenburg"}},{"name":"Neuranft","postalCode":"16259","locality":"Oderaue","municipality":{"key":"12064371","name":"Oderaue","type":"Kreisangehörige_Gemeinde"},"district":{"key":"12064","name":"Märkisch-Oderland","type":"Landkreis"},"federalState":{"key":"12","name":"Brandenburg"}},{"name":"Neurüdnitz","postalCode":"16259","locality":"Oderaue","municipality":{"key":"12064371","name":"Oderaue","type":"Kreisangehörige_Gemeinde"},"district":{"key":"12064","name":"Märkisch-Oderland","type":"Landkreis"},"federalState":{"key":"12","name":"Brandenburg"}},{"name":"Oderdeich","postalCode":"16259","locality":"Oderaue","municipality":{"key":"12064371","name":"Oderaue","type":"Kreisangehörige_Gemeinde"},"district":{"key":"12064","name":"Märkisch-Oderland","type":"Landkreis"},"federalState":{"key":"12","name":"Brandenburg"}},{"name":"Oderstr.","postalCode":"16259","locality":"Oderaue","municipality":{"key":"12064371","name":"Oderaue","type":"Kreisangehörige_Gemeinde"},"district":{"key":"12064","name":"Märkisch-Oderland","type":"Landkreis"},"federalState":{"key":"12","name":"Brandenburg"}},{"name":"Paulshof","postalCode":"16259","locality":"Oderaue","municipality":{"key":"12064371","name":"Oderaue","type":"Kreisangehörige_Gemeinde"},"district":{"key":"12064","name":"Märkisch-Oderland","type":"Landkreis"},"federalState":{"key":"12","name":"Brandenburg"}},{"name":"Ratsstr.","postalCode":"16259","locality":"Oderaue","municipality":{"key":"12064371","name":"Oderaue","type":"Kreisangehörige_Gemeinde"},"district":{"key":"12064","name":"Märkisch-Oderland","type":"Landkreis"},"federalState":{"key":"12","name":"Brandenburg"}},{"name":"Schulgartenstr.","postalCode":"16259","locality":"Oderaue","municipality":{"key":"12064371","name":"Oderaue","type":"Kreisangehörige_Gemeinde"},"district":{"key":"12064","name":"Märkisch-Oderland","type":"Landkreis"},"federalState":{"key":"12","name":"Brandenburg"}},{"name":"Schwarzer Weg","postalCode":"16259","locality":"Oderaue","municipality":{"key":"12064371","name":"Oderaue","type":"Kreisangehörige_Gemeinde"},"district":{"key":"12064","name":"Märkisch-Oderland","type":"Landkreis"},"federalState":{"key":"12","name":"Brandenburg"}},{"name":"Sommerweg","postalCode":"16259","locality":"Oderaue","municipality":{"key":"12064371","name":"Oderaue","type":"Kreisangehörige_Gemeinde"},"district":{"key":"12064","name":"Märkisch-Oderland","type":"Landkreis"},"federalState":{"key":"12","name":"Brandenburg"}},{"name":"Spitz","postalCode":"16259","locality":"Oderaue","municipality":{"key":"12064371","name":"Oderaue","type":"Kreisangehörige_Gemeinde"},"district":{"key":"12064","name":"Märkisch-Oderland","type":"Landkreis"},"federalState":{"key":"12","name":"Brandenburg"}},{"name":"Wiesenweg","postalCode":"16259","locality":"Oderaue","municipality":{"key":"12064371","name":"Oderaue","type":"Kreisangehörige_Gemeinde"},"district":{"key":"12064","name":"Märkisch-Oderland","type":"Landkreis"},"federalState":{"key":"12","name":"Brandenburg"}},{"name":"Wirtschaftsweg","postalCode":"16259","locality":"Oderaue","municipality":{"key":"12064371","name":"Oderaue","type":"Kreisangehörige_Gemeinde"},"district":{"key":"12064","name":"Märkisch-Oderland","type":"Landkreis"},"federalState":{"key":"12","name":"Brandenburg"}},{"name":"Wriezener Str.","postalCode":"16259","locality":"Oderaue","municipality":{"key":"12064371","name":"Oderaue","type":"Kreisangehörige_Gemeinde"},"district":{"key":"12064","name":"Märkisch-Oderland","type":"Landkreis"},"federalState":{"key":"12","name":"Brandenburg"}},{"name":"Zäckericker Loose","postalCode":"16259","locality":"Oderaue","municipality":{"key":"12064371","name":"Oderaue","type":"Kreisangehörige_Gemeinde"},"district":{"key":"12064","name":"Märkisch-Oderland","type":"Landkreis"},"federalState":{"key":"12","name":"Brandenburg"}},{"name":"Zollbrücke","postalCode":"16259","locality":"Oderaue","municipality":{"key":"12064371","name":"Oderaue","type":"Kreisangehörige_Gemeinde"},"district":{"key":"12064","name":"Märkisch-Oderland","type":"Landkreis"},"federalState":{"key":"12","name":"Brandenburg"}},]