[{"name":"99 Steffelen","postalCode":"76703","locality":"Kraichtal","municipality":{"key":"08215097","name":"Kraichtal, Stadt","type":"Stadt"},"district":{"key":"08215","name":"Karlsruhe","type":"Landkreis"},"federalState":{"key":"08","name":"Baden-Württemberg"}},{"name":"Achalmstr.","postalCode":"72631","locality":"Aichtal","municipality":{"key":"08116081","name":"Aichtal, Stadt","type":"Stadt"},"district":{"key":"08116","name":"Esslingen","type":"Landkreis"},"federalState":{"key":"08","name":"Baden-Württemberg"}},{"name":"Adalbert-Stifter-Str.","postalCode":"72631","locality":"Aichtal","municipality":{"key":"08116081","name":"Aichtal, Stadt","type":"Stadt"},"district":{"key":"08116","name":"Esslingen","type":"Landkreis"},"federalState":{"key":"08","name":"Baden-Württemberg"}},{"name":"Adlerstr.","postalCode":"76703","locality":"Kraichtal","municipality":{"key":"08215097","name":"Kraichtal, Stadt","type":"Stadt"},"district":{"key":"08215","name":"Karlsruhe","type":"Landkreis"},"federalState":{"key":"08","name":"Baden-Württemberg"}},{"name":"Ahornstr.","postalCode":"76703","locality":"Kraichtal","municipality":{"key":"08215097","name":"Kraichtal, Stadt","type":"Stadt"},"district":{"key":"08215","name":"Karlsruhe","type":"Landkreis"},"federalState":{"key":"08","name":"Baden-Württemberg"}},{"name":"Ahornweg","postalCode":"72631","locality":"Aichtal","municipality":{"key":"08116081","name":"Aichtal, Stadt","type":"Stadt"},"district":{"key":"08116","name":"Esslingen","type":"Landkreis"},"federalState":{"key":"08","name":"Baden-Württemberg"}},{"name":"Aichbachwasen","postalCode":"72631","locality":"Aichtal","municipality":{"key":"08116081","name":"Aichtal, Stadt","type":"Stadt"},"district":{"key":"08116","name":"Esslingen","type":"Landkreis"},"federalState":{"key":"08","name":"Baden-Württemberg"}},{"name":"Aicher Str.","postalCode":"72631","locality":"Aichtal","municipality":{"key":"08116081","name":"Aichtal, Stadt","type":"Stadt"},"district":{"key":"08116","name":"Esslingen","type":"Landkreis"},"federalState":{"key":"08","name":"Baden-Württemberg"}},{"name":"Aichhaldesträßle","postalCode":"72631","locality":"Aichtal","municipality":{"key":"08116081","name":"Aichtal, Stadt","type":"Stadt"},"district":{"key":"08116","name":"Esslingen","type":"Landkreis"},"federalState":{"key":"08","name":"Baden-Württemberg"}},{"name":"Aichtalweg","postalCode":"72631","locality":"Aichtal","municipality":{"key":"08116081","name":"Aichtal, Stadt","type":"Stadt"},"district":{"key":"08116","name":"Esslingen","type":"Landkreis"},"federalState":{"key":"08","name":"Baden-Württemberg"}},{"name":"Albblickweg","postalCode":"72631","locality":"Aichtal","municipality":{"key":"08116081","name":"Aichtal, Stadt","type":"Stadt"},"district":{"key":"08116","name":"Esslingen","type":"Landkreis"},"federalState":{"key":"08","name":"Baden-Württemberg"}},{"name":"Albert-Schweitzer-Str.","postalCode":"76703","locality":"Kraichtal","municipality":{"key":"08215097","name":"Kraichtal, Stadt","type":"Stadt"},"district":{"key":"08215","name":"Karlsruhe","type":"Landkreis"},"federalState":{"key":"08","name":"Baden-Württemberg"}},{"name":"Albstr.","postalCode":"72631","locality":"Aichtal","municipality":{"key":"08116081","name":"Aichtal, Stadt","type":"Stadt"},"district":{"key":"08116","name":"Esslingen","type":"Landkreis"},"federalState":{"key":"08","name":"Baden-Württemberg"}},{"name":"Alte Halde","postalCode":"72631","locality":"Aichtal","municipality":{"key":"08116081","name":"Aichtal, Stadt","type":"Stadt"},"district":{"key":"08116","name":"Esslingen","type":"Landkreis"},"federalState":{"key":"08","name":"Baden-Württemberg"}},{"name":"Alte Hohle","postalCode":"76703","locality":"Kraichtal","municipality":{"key":"08215097","name":"Kraichtal, Stadt","type":"Stadt"},"district":{"key":"08215","name":"Karlsruhe","type":"Landkreis"},"federalState":{"key":"08","name":"Baden-Württemberg"}},{"name":"Alte Münzesheimer Str.","postalCode":"76703","locality":"Kraichtal","municipality":{"key":"08215097","name":"Kraichtal, Stadt","type":"Stadt"},"district":{"key":"08215","name":"Karlsruhe","type":"Landkreis"},"federalState":{"key":"08","name":"Baden-Württemberg"}},{"name":"Altenweg","postalCode":"76703","locality":"Kraichtal","municipality":{"key":"08215097","name":"Kraichtal, Stadt","type":"Stadt"},"district":{"key":"08215","name":"Karlsruhe","type":"Landkreis"},"federalState":{"key":"08","name":"Baden-Württemberg"}},{"name":"Alte Poststr.","postalCode":"72631","locality":"Aichtal","municipality":{"key":"08116081","name":"Aichtal, Stadt","type":"Stadt"},"district":{"key":"08116","name":"Esslingen","type":"Landkreis"},"federalState":{"key":"08","name":"Baden-Württemberg"}},{"name":"Alte Str.","postalCode":"72631","locality":"Aichtal","municipality":{"key":"08116081","name":"Aichtal, Stadt","type":"Stadt"},"district":{"key":"08116","name":"Esslingen","type":"Landkreis"},"federalState":{"key":"08","name":"Baden-Württemberg"}},{"name":"Am Baiersbach","postalCode":"72631","locality":"Aichtal","municipality":{"key":"08116081","name":"Aichtal, Stadt","type":"Stadt"},"district":{"key":"08116","name":"Esslingen","type":"Landkreis"},"federalState":{"key":"08","name":"Baden-Württemberg"}},{"name":"Am Berg","postalCode":"76703","locality":"Kraichtal","municipality":{"key":"08215097","name":"Kraichtal, Stadt","type":"Stadt"},"district":{"key":"08215","name":"Karlsruhe","type":"Landkreis"},"federalState":{"key":"08","name":"Baden-Württemberg"}},{"name":"Am Brandweiher","postalCode":"76703","locality":"Kraichtal","municipality":{"key":"08215097","name":"Kraichtal, Stadt","type":"Stadt"},"district":{"key":"08215","name":"Karlsruhe","type":"Landkreis"},"federalState":{"key":"08","name":"Baden-Württemberg"}},{"name":"Am Brückberg","postalCode":"76703","locality":"Kraichtal","municipality":{"key":"08215097","name":"Kraichtal, Stadt","type":"Stadt"},"district":{"key":"08215","name":"Karlsruhe","type":"Landkreis"},"federalState":{"key":"08","name":"Baden-Württemberg"}},{"name":"Am Eckweg","postalCode":"76703","locality":"Kraichtal","municipality":{"key":"08215097","name":"Kraichtal, Stadt","type":"Stadt"},"district":{"key":"08215","name":"Karlsruhe","type":"Landkreis"},"federalState":{"key":"08","name":"Baden-Württemberg"}},{"name":"Am Ehrlichgraben","postalCode":"76703","locality":"Kraichtal","municipality":{"key":"08215097","name":"Kraichtal, Stadt","type":"Stadt"},"district":{"key":"08215","name":"Karlsruhe","type":"Landkreis"},"federalState":{"key":"08","name":"Baden-Württemberg"}},{"name":"Am Gaisberg","postalCode":"76703","locality":"Kraichtal","municipality":{"key":"08215097","name":"Kraichtal, Stadt","type":"Stadt"},"district":{"key":"08215","name":"Karlsruhe","type":"Landkreis"},"federalState":{"key":"08","name":"Baden-Württemberg"}},{"name":"Am Gänsegarten","postalCode":"76703","locality":"Kraichtal","municipality":{"key":"08215097","name":"Kraichtal, Stadt","type":"Stadt"},"district":{"key":"08215","name":"Karlsruhe","type":"Landkreis"},"federalState":{"key":"08","name":"Baden-Württemberg"}},{"name":"Am Grundsrain","postalCode":"76703","locality":"Kraichtal","municipality":{"key":"08215097","name":"Kraichtal, Stadt","type":"Stadt"},"district":{"key":"08215","name":"Karlsruhe","type":"Landkreis"},"federalState":{"key":"08","name":"Baden-Württemberg"}},{"name":"Am Heimig","postalCode":"76703","locality":"Kraichtal","municipality":{"key":"08215097","name":"Kraichtal, Stadt","type":"Stadt"},"district":{"key":"08215","name":"Karlsruhe","type":"Landkreis"},"federalState":{"key":"08","name":"Baden-Württemberg"}},{"name":"Am Kirchplatz","postalCode":"76703","locality":"Kraichtal","municipality":{"key":"08215097","name":"Kraichtal, Stadt","type":"Stadt"},"district":{"key":"08215","name":"Karlsruhe","type":"Landkreis"},"federalState":{"key":"08","name":"Baden-Württemberg"}},{"name":"Am Ladenbergle","postalCode":"76703","locality":"Kraichtal","municipality":{"key":"08215097","name":"Kraichtal, Stadt","type":"Stadt"},"district":{"key":"08215","name":"Karlsruhe","type":"Landkreis"},"federalState":{"key":"08","name":"Baden-Württemberg"}},{"name":"Am Mühlberg","postalCode":"76703","locality":"Kraichtal","municipality":{"key":"08215097","name":"Kraichtal, Stadt","type":"Stadt"},"district":{"key":"08215","name":"Karlsruhe","type":"Landkreis"},"federalState":{"key":"08","name":"Baden-Württemberg"}},{"name":"Am Schollenacker","postalCode":"76703","locality":"Kraichtal","municipality":{"key":"08215097","name":"Kraichtal, Stadt","type":"Stadt"},"district":{"key":"08215","name":"Karlsruhe","type":"Landkreis"},"federalState":{"key":"08","name":"Baden-Württemberg"}},{"name":"Amselweg","postalCode":"72631","locality":"Aichtal","municipality":{"key":"08116081","name":"Aichtal, Stadt","type":"Stadt"},"district":{"key":"08116","name":"Esslingen","type":"Landkreis"},"federalState":{"key":"08","name":"Baden-Württemberg"}},{"name":"Amselweg","postalCode":"76703","locality":"Kraichtal","municipality":{"key":"08215097","name":"Kraichtal, Stadt","type":"Stadt"},"district":{"key":"08215","name":"Karlsruhe","type":"Landkreis"},"federalState":{"key":"08","name":"Baden-Württemberg"}},{"name":"Am Weiher","postalCode":"76703","locality":"Kraichtal","municipality":{"key":"08215097","name":"Kraichtal, Stadt","type":"Stadt"},"district":{"key":"08215","name":"Karlsruhe","type":"Landkreis"},"federalState":{"key":"08","name":"Baden-Württemberg"}},{"name":"Am Weiherbach","postalCode":"72631","locality":"Aichtal","municipality":{"key":"08116081","name":"Aichtal, Stadt","type":"Stadt"},"district":{"key":"08116","name":"Esslingen","type":"Landkreis"},"federalState":{"key":"08","name":"Baden-Württemberg"}},{"name":"An der Kraich","postalCode":"76703","locality":"Kraichtal","municipality":{"key":"08215097","name":"Kraichtal, Stadt","type":"Stadt"},"district":{"key":"08215","name":"Karlsruhe","type":"Landkreis"},"federalState":{"key":"08","name":"Baden-Württemberg"}},{"name":"An der Schanze","postalCode":"76703","locality":"Kraichtal","municipality":{"key":"08215097","name":"Kraichtal, Stadt","type":"Stadt"},"district":{"key":"08215","name":"Karlsruhe","type":"Landkreis"},"federalState":{"key":"08","name":"Baden-Württemberg"}},{"name":"An der Schießmauer","postalCode":"76703","locality":"Kraichtal","municipality":{"key":"08215097","name":"Kraichtal, Stadt","type":"Stadt"},"district":{"key":"08215","name":"Karlsruhe","type":"Landkreis"},"federalState":{"key":"08","name":"Baden-Württemberg"}},{"name":"Appenmühle","postalCode":"76703","locality":"Kraichtal","municipality":{"key":"08215097","name":"Kraichtal, Stadt","type":"Stadt"},"district":{"key":"08215","name":"Karlsruhe","type":"Landkreis"},"federalState":{"key":"08","name":"Baden-Württemberg"}},{"name":"Asiatischer Garten","postalCode":"76703","locality":"Kraichtal","municipality":{"key":"08215097","name":"Kraichtal, Stadt","type":"Stadt"},"district":{"key":"08215","name":"Karlsruhe","type":"Landkreis"},"federalState":{"key":"08","name":"Baden-Württemberg"}},{"name":"Asternweg","postalCode":"72631","locality":"Aichtal","municipality":{"key":"08116081","name":"Aichtal, Stadt","type":"Stadt"},"district":{"key":"08116","name":"Esslingen","type":"Landkreis"},"federalState":{"key":"08","name":"Baden-Württemberg"}},{"name":"Auf Aigen","postalCode":"72631","locality":"Aichtal","municipality":{"key":"08116081","name":"Aichtal, Stadt","type":"Stadt"},"district":{"key":"08116","name":"Esslingen","type":"Landkreis"},"federalState":{"key":"08","name":"Baden-Württemberg"}},{"name":"Auf der Aue","postalCode":"76703","locality":"Kraichtal","municipality":{"key":"08215097","name":"Kraichtal, Stadt","type":"Stadt"},"district":{"key":"08215","name":"Karlsruhe","type":"Landkreis"},"federalState":{"key":"08","name":"Baden-Württemberg"}},{"name":"Auf der Klamme","postalCode":"76703","locality":"Kraichtal","municipality":{"key":"08215097","name":"Kraichtal, Stadt","type":"Stadt"},"district":{"key":"08215","name":"Karlsruhe","type":"Landkreis"},"federalState":{"key":"08","name":"Baden-Württemberg"}},{"name":"Augartenstr.","postalCode":"76703","locality":"Kraichtal","municipality":{"key":"08215097","name":"Kraichtal, Stadt","type":"Stadt"},"district":{"key":"08215","name":"Karlsruhe","type":"Landkreis"},"federalState":{"key":"08","name":"Baden-Württemberg"}},{"name":"Bachstr.","postalCode":"72631","locality":"Aichtal","municipality":{"key":"08116081","name":"Aichtal, Stadt","type":"Stadt"},"district":{"key":"08116","name":"Esslingen","type":"Landkreis"},"federalState":{"key":"08","name":"Baden-Württemberg"}},{"name":"Bachstr.","postalCode":"76703","locality":"Kraichtal","municipality":{"key":"08215097","name":"Kraichtal, Stadt","type":"Stadt"},"district":{"key":"08215","name":"Karlsruhe","type":"Landkreis"},"federalState":{"key":"08","name":"Baden-Württemberg"}},{"name":"Bäderstr.","postalCode":"76703","locality":"Kraichtal","municipality":{"key":"08215097","name":"Kraichtal, Stadt","type":"Stadt"},"district":{"key":"08215","name":"Karlsruhe","type":"Landkreis"},"federalState":{"key":"08","name":"Baden-Württemberg"}},{"name":"Badgasse","postalCode":"72631","locality":"Aichtal","municipality":{"key":"08116081","name":"Aichtal, Stadt","type":"Stadt"},"district":{"key":"08116","name":"Esslingen","type":"Landkreis"},"federalState":{"key":"08","name":"Baden-Württemberg"}},{"name":"Bahnbrückener Str.","postalCode":"76703","locality":"Kraichtal","municipality":{"key":"08215097","name":"Kraichtal, Stadt","type":"Stadt"},"district":{"key":"08215","name":"Karlsruhe","type":"Landkreis"},"federalState":{"key":"08","name":"Baden-Württemberg"}},{"name":"Bahnbrücker Str.","postalCode":"76703","locality":"Kraichtal","municipality":{"key":"08215097","name":"Kraichtal, Stadt","type":"Stadt"},"district":{"key":"08215","name":"Karlsruhe","type":"Landkreis"},"federalState":{"key":"08","name":"Baden-Württemberg"}},{"name":"Bahnhofstr.","postalCode":"76703","locality":"Kraichtal","municipality":{"key":"08215097","name":"Kraichtal, Stadt","type":"Stadt"},"district":{"key":"08215","name":"Karlsruhe","type":"Landkreis"},"federalState":{"key":"08","name":"Baden-Württemberg"}},{"name":"Balthasar-Neumann-Str.","postalCode":"76703","locality":"Kraichtal","municipality":{"key":"08215097","name":"Kraichtal, Stadt","type":"Stadt"},"district":{"key":"08215","name":"Karlsruhe","type":"Landkreis"},"federalState":{"key":"08","name":"Baden-Württemberg"}},{"name":"Bandhausstr.","postalCode":"76703","locality":"Kraichtal","municipality":{"key":"08215097","name":"Kraichtal, Stadt","type":"Stadt"},"district":{"key":"08215","name":"Karlsruhe","type":"Landkreis"},"federalState":{"key":"08","name":"Baden-Württemberg"}},{"name":"Bauerbacher Str.","postalCode":"76703","locality":"Kraichtal","municipality":{"key":"08215097","name":"Kraichtal, Stadt","type":"Stadt"},"district":{"key":"08215","name":"Karlsruhe","type":"Landkreis"},"federalState":{"key":"08","name":"Baden-Württemberg"}},{"name":"Bayerhohl","postalCode":"76703","locality":"Kraichtal","municipality":{"key":"08215097","name":"Kraichtal, Stadt","type":"Stadt"},"district":{"key":"08215","name":"Karlsruhe","type":"Landkreis"},"federalState":{"key":"08","name":"Baden-Württemberg"}},{"name":"Bei den Linden","postalCode":"72631","locality":"Aichtal","municipality":{"key":"08116081","name":"Aichtal, Stadt","type":"Stadt"},"district":{"key":"08116","name":"Esslingen","type":"Landkreis"},"federalState":{"key":"08","name":"Baden-Württemberg"}},{"name":"Beim Friedhof","postalCode":"76703","locality":"Kraichtal","municipality":{"key":"08215097","name":"Kraichtal, Stadt","type":"Stadt"},"district":{"key":"08215","name":"Karlsruhe","type":"Landkreis"},"federalState":{"key":"08","name":"Baden-Württemberg"}},{"name":"Beim Höffinger","postalCode":"76703","locality":"Kraichtal","municipality":{"key":"08215097","name":"Kraichtal, Stadt","type":"Stadt"},"district":{"key":"08215","name":"Karlsruhe","type":"Landkreis"},"federalState":{"key":"08","name":"Baden-Württemberg"}},{"name":"Beim Mühltor","postalCode":"76703","locality":"Kraichtal","municipality":{"key":"08215097","name":"Kraichtal, Stadt","type":"Stadt"},"district":{"key":"08215","name":"Karlsruhe","type":"Landkreis"},"federalState":{"key":"08","name":"Baden-Württemberg"}},{"name":"Beim oberen Bruch","postalCode":"76703","locality":"Kraichtal","municipality":{"key":"08215097","name":"Kraichtal, Stadt","type":"Stadt"},"district":{"key":"08215","name":"Karlsruhe","type":"Landkreis"},"federalState":{"key":"08","name":"Baden-Württemberg"}},{"name":"Beim Römerweg","postalCode":"76703","locality":"Kraichtal","municipality":{"key":"08215097","name":"Kraichtal, Stadt","type":"Stadt"},"district":{"key":"08215","name":"Karlsruhe","type":"Landkreis"},"federalState":{"key":"08","name":"Baden-Württemberg"}},{"name":"Bergstr.","postalCode":"72631","locality":"Aichtal","municipality":{"key":"08116081","name":"Aichtal, Stadt","type":"Stadt"},"district":{"key":"08116","name":"Esslingen","type":"Landkreis"},"federalState":{"key":"08","name":"Baden-Württemberg"}},{"name":"Bergstr.","postalCode":"76703","locality":"Kraichtal","municipality":{"key":"08215097","name":"Kraichtal, Stadt","type":"Stadt"},"district":{"key":"08215","name":"Karlsruhe","type":"Landkreis"},"federalState":{"key":"08","name":"Baden-Württemberg"}},{"name":"Bertha-Benz-Str.","postalCode":"72631","locality":"Aichtal","municipality":{"key":"08116081","name":"Aichtal, Stadt","type":"Stadt"},"district":{"key":"08116","name":"Esslingen","type":"Landkreis"},"federalState":{"key":"08","name":"Baden-Württemberg"}},{"name":"Bertha-von-Suttner-Str.","postalCode":"72631","locality":"Aichtal","municipality":{"key":"08116081","name":"Aichtal, Stadt","type":"Stadt"},"district":{"key":"08116","name":"Esslingen","type":"Landkreis"},"federalState":{"key":"08","name":"Baden-Württemberg"}},{"name":"Berthold-Bott-Str.","postalCode":"76703","locality":"Kraichtal","municipality":{"key":"08215097","name":"Kraichtal, Stadt","type":"Stadt"},"district":{"key":"08215","name":"Karlsruhe","type":"Landkreis"},"federalState":{"key":"08","name":"Baden-Württemberg"}},{"name":"Birkenweg","postalCode":"76703","locality":"Kraichtal","municipality":{"key":"08215097","name":"Kraichtal, Stadt","type":"Stadt"},"district":{"key":"08215","name":"Karlsruhe","type":"Landkreis"},"federalState":{"key":"08","name":"Baden-Württemberg"}},{"name":"Bismarckstr.","postalCode":"72631","locality":"Aichtal","municipality":{"key":"08116081","name":"Aichtal, Stadt","type":"Stadt"},"district":{"key":"08116","name":"Esslingen","type":"Landkreis"},"federalState":{"key":"08","name":"Baden-Württemberg"}},{"name":"Bleichstr.","postalCode":"76703","locality":"Kraichtal","municipality":{"key":"08215097","name":"Kraichtal, Stadt","type":"Stadt"},"district":{"key":"08215","name":"Karlsruhe","type":"Landkreis"},"federalState":{"key":"08","name":"Baden-Württemberg"}},{"name":"Blohngasse","postalCode":"76703","locality":"Kraichtal","municipality":{"key":"08215097","name":"Kraichtal, Stadt","type":"Stadt"},"district":{"key":"08215","name":"Karlsruhe","type":"Landkreis"},"federalState":{"key":"08","name":"Baden-Württemberg"}},{"name":"Blumenstr.","postalCode":"72631","locality":"Aichtal","municipality":{"key":"08116081","name":"Aichtal, Stadt","type":"Stadt"},"district":{"key":"08116","name":"Esslingen","type":"Landkreis"},"federalState":{"key":"08","name":"Baden-Württemberg"}},{"name":"Blumenstr.","postalCode":"76703","locality":"Kraichtal","municipality":{"key":"08215097","name":"Kraichtal, Stadt","type":"Stadt"},"district":{"key":"08215","name":"Karlsruhe","type":"Landkreis"},"federalState":{"key":"08","name":"Baden-Württemberg"}},{"name":"Bombachweg","postalCode":"72631","locality":"Aichtal","municipality":{"key":"08116081","name":"Aichtal, Stadt","type":"Stadt"},"district":{"key":"08116","name":"Esslingen","type":"Landkreis"},"federalState":{"key":"08","name":"Baden-Württemberg"}},{"name":"Bonländer Weg","postalCode":"72631","locality":"Aichtal","municipality":{"key":"08116081","name":"Aichtal, Stadt","type":"Stadt"},"district":{"key":"08116","name":"Esslingen","type":"Landkreis"},"federalState":{"key":"08","name":"Baden-Württemberg"}},{"name":"Boßlerweg","postalCode":"72631","locality":"Aichtal","municipality":{"key":"08116081","name":"Aichtal, Stadt","type":"Stadt"},"district":{"key":"08116","name":"Esslingen","type":"Landkreis"},"federalState":{"key":"08","name":"Baden-Württemberg"}},{"name":"Breisgaustr.","postalCode":"76703","locality":"Kraichtal","municipality":{"key":"08215097","name":"Kraichtal, Stadt","type":"Stadt"},"district":{"key":"08215","name":"Karlsruhe","type":"Landkreis"},"federalState":{"key":"08","name":"Baden-Württemberg"}},{"name":"Brettener Str.","postalCode":"76703","locality":"Kraichtal","municipality":{"key":"08215097","name":"Kraichtal, Stadt","type":"Stadt"},"district":{"key":"08215","name":"Karlsruhe","type":"Landkreis"},"federalState":{"key":"08","name":"Baden-Württemberg"}},{"name":"Bruchsaler Str.","postalCode":"76703","locality":"Kraichtal","municipality":{"key":"08215097","name":"Kraichtal, Stadt","type":"Stadt"},"district":{"key":"08215","name":"Karlsruhe","type":"Landkreis"},"federalState":{"key":"08","name":"Baden-Württemberg"}},{"name":"Bruckenwasen","postalCode":"72631","locality":"Aichtal","municipality":{"key":"08116081","name":"Aichtal, Stadt","type":"Stadt"},"district":{"key":"08116","name":"Esslingen","type":"Landkreis"},"federalState":{"key":"08","name":"Baden-Württemberg"}},{"name":"Brückstr.","postalCode":"76703","locality":"Kraichtal","municipality":{"key":"08215097","name":"Kraichtal, Stadt","type":"Stadt"},"district":{"key":"08215","name":"Karlsruhe","type":"Landkreis"},"federalState":{"key":"08","name":"Baden-Württemberg"}},{"name":"Brunnenstr.","postalCode":"72631","locality":"Aichtal","municipality":{"key":"08116081","name":"Aichtal, Stadt","type":"Stadt"},"district":{"key":"08116","name":"Esslingen","type":"Landkreis"},"federalState":{"key":"08","name":"Baden-Württemberg"}},{"name":"Brunnenstr.","postalCode":"76703","locality":"Kraichtal","municipality":{"key":"08215097","name":"Kraichtal, Stadt","type":"Stadt"},"district":{"key":"08215","name":"Karlsruhe","type":"Landkreis"},"federalState":{"key":"08","name":"Baden-Württemberg"}},{"name":"Brünnlesstr.","postalCode":"72631","locality":"Aichtal","municipality":{"key":"08116081","name":"Aichtal, Stadt","type":"Stadt"},"district":{"key":"08116","name":"Esslingen","type":"Landkreis"},"federalState":{"key":"08","name":"Baden-Württemberg"}},{"name":"Buchenweg","postalCode":"76703","locality":"Kraichtal","municipality":{"key":"08215097","name":"Kraichtal, Stadt","type":"Stadt"},"district":{"key":"08215","name":"Karlsruhe","type":"Landkreis"},"federalState":{"key":"08","name":"Baden-Württemberg"}},{"name":"Büchiger Weg","postalCode":"76703","locality":"Kraichtal","municipality":{"key":"08215097","name":"Kraichtal, Stadt","type":"Stadt"},"district":{"key":"08215","name":"Karlsruhe","type":"Landkreis"},"federalState":{"key":"08","name":"Baden-Württemberg"}},{"name":"Burggartenstr.","postalCode":"76703","locality":"Kraichtal","municipality":{"key":"08215097","name":"Kraichtal, Stadt","type":"Stadt"},"district":{"key":"08215","name":"Karlsruhe","type":"Landkreis"},"federalState":{"key":"08","name":"Baden-Württemberg"}},{"name":"Burgstr.","postalCode":"72631","locality":"Aichtal","municipality":{"key":"08116081","name":"Aichtal, Stadt","type":"Stadt"},"district":{"key":"08116","name":"Esslingen","type":"Landkreis"},"federalState":{"key":"08","name":"Baden-Württemberg"}},{"name":"Burgstr.","postalCode":"76703","locality":"Kraichtal","municipality":{"key":"08215097","name":"Kraichtal, Stadt","type":"Stadt"},"district":{"key":"08215","name":"Karlsruhe","type":"Landkreis"},"federalState":{"key":"08","name":"Baden-Württemberg"}},{"name":"Burgunderweg","postalCode":"76703","locality":"Kraichtal","municipality":{"key":"08215097","name":"Kraichtal, Stadt","type":"Stadt"},"district":{"key":"08215","name":"Karlsruhe","type":"Landkreis"},"federalState":{"key":"08","name":"Baden-Württemberg"}},{"name":"Burgweg","postalCode":"76703","locality":"Kraichtal","municipality":{"key":"08215097","name":"Kraichtal, Stadt","type":"Stadt"},"district":{"key":"08215","name":"Karlsruhe","type":"Landkreis"},"federalState":{"key":"08","name":"Baden-Württemberg"}},{"name":"Bussardstr.","postalCode":"76703","locality":"Kraichtal","municipality":{"key":"08215097","name":"Kraichtal, Stadt","type":"Stadt"},"district":{"key":"08215","name":"Karlsruhe","type":"Landkreis"},"federalState":{"key":"08","name":"Baden-Württemberg"}},{"name":"Bussardweg","postalCode":"72631","locality":"Aichtal","municipality":{"key":"08116081","name":"Aichtal, Stadt","type":"Stadt"},"district":{"key":"08116","name":"Esslingen","type":"Landkreis"},"federalState":{"key":"08","name":"Baden-Württemberg"}},{"name":"Carl-Benz-Str.","postalCode":"76703","locality":"Kraichtal","municipality":{"key":"08215097","name":"Kraichtal, Stadt","type":"Stadt"},"district":{"key":"08215","name":"Karlsruhe","type":"Landkreis"},"federalState":{"key":"08","name":"Baden-Württemberg"}},{"name":"Carl-Krieger-Weg","postalCode":"76703","locality":"Kraichtal","municipality":{"key":"08215097","name":"Kraichtal, Stadt","type":"Stadt"},"district":{"key":"08215","name":"Karlsruhe","type":"Landkreis"},"federalState":{"key":"08","name":"Baden-Württemberg"}},{"name":"Christian-Sauer-Str.","postalCode":"76703","locality":"Kraichtal","municipality":{"key":"08215097","name":"Kraichtal, Stadt","type":"Stadt"},"district":{"key":"08215","name":"Karlsruhe","type":"Landkreis"},"federalState":{"key":"08","name":"Baden-Württemberg"}},{"name":"Dachsbühlallee / Halbmondweg","postalCode":"72631","locality":"Aichtal","municipality":{"key":"08116081","name":"Aichtal, Stadt","type":"Stadt"},"district":{"key":"08116","name":"Esslingen","type":"Landkreis"},"federalState":{"key":"08","name":"Baden-Württemberg"}},{"name":"Dahlienweg","postalCode":"72631","locality":"Aichtal","municipality":{"key":"08116081","name":"Aichtal, Stadt","type":"Stadt"},"district":{"key":"08116","name":"Esslingen","type":"Landkreis"},"federalState":{"key":"08","name":"Baden-Württemberg"}},{"name":"Dettenhäuser Weg","postalCode":"72631","locality":"Aichtal","municipality":{"key":"08116081","name":"Aichtal, Stadt","type":"Stadt"},"district":{"key":"08116","name":"Esslingen","type":"Landkreis"},"federalState":{"key":"08","name":"Baden-Württemberg"}},{"name":"Distelweg","postalCode":"72631","locality":"Aichtal","municipality":{"key":"08116081","name":"Aichtal, Stadt","type":"Stadt"},"district":{"key":"08116","name":"Esslingen","type":"Landkreis"},"federalState":{"key":"08","name":"Baden-Württemberg"}},{"name":"Dornröschenstr.","postalCode":"76703","locality":"Kraichtal","municipality":{"key":"08215097","name":"Kraichtal, Stadt","type":"Stadt"},"district":{"key":"08215","name":"Karlsruhe","type":"Landkreis"},"federalState":{"key":"08","name":"Baden-Württemberg"}},{"name":"Dr.-Alfred-Leitz-Str.","postalCode":"76703","locality":"Kraichtal","municipality":{"key":"08215097","name":"Kraichtal, Stadt","type":"Stadt"},"district":{"key":"08215","name":"Karlsruhe","type":"Landkreis"},"federalState":{"key":"08","name":"Baden-Württemberg"}},{"name":"Dr.-Becher-Str.","postalCode":"76703","locality":"Kraichtal","municipality":{"key":"08215097","name":"Kraichtal, Stadt","type":"Stadt"},"district":{"key":"08215","name":"Karlsruhe","type":"Landkreis"},"federalState":{"key":"08","name":"Baden-Württemberg"}},{"name":"Dreikönigstr.","postalCode":"76703","locality":"Kraichtal","municipality":{"key":"08215097","name":"Kraichtal, Stadt","type":"Stadt"},"district":{"key":"08215","name":"Karlsruhe","type":"Landkreis"},"federalState":{"key":"08","name":"Baden-Württemberg"}},{"name":"Dr.-Georg-Meier-Str.","postalCode":"76703","locality":"Kraichtal","municipality":{"key":"08215097","name":"Kraichtal, Stadt","type":"Stadt"},"district":{"key":"08215","name":"Karlsruhe","type":"Landkreis"},"federalState":{"key":"08","name":"Baden-Württemberg"}},{"name":"Drosselstr.","postalCode":"76703","locality":"Kraichtal","municipality":{"key":"08215097","name":"Kraichtal, Stadt","type":"Stadt"},"district":{"key":"08215","name":"Karlsruhe","type":"Landkreis"},"federalState":{"key":"08","name":"Baden-Württemberg"}},{"name":"Drosselweg","postalCode":"72631","locality":"Aichtal","municipality":{"key":"08116081","name":"Aichtal, Stadt","type":"Stadt"},"district":{"key":"08116","name":"Esslingen","type":"Landkreis"},"federalState":{"key":"08","name":"Baden-Württemberg"}},{"name":"Dr. Weis-Str.","postalCode":"76703","locality":"Kraichtal","municipality":{"key":"08215097","name":"Kraichtal, Stadt","type":"Stadt"},"district":{"key":"08215","name":"Karlsruhe","type":"Landkreis"},"federalState":{"key":"08","name":"Baden-Württemberg"}},{"name":"Eichendorffstr.","postalCode":"72631","locality":"Aichtal","municipality":{"key":"08116081","name":"Aichtal, Stadt","type":"Stadt"},"district":{"key":"08116","name":"Esslingen","type":"Landkreis"},"federalState":{"key":"08","name":"Baden-Württemberg"}},{"name":"Eichenstr.","postalCode":"76703","locality":"Kraichtal","municipality":{"key":"08215097","name":"Kraichtal, Stadt","type":"Stadt"},"district":{"key":"08215","name":"Karlsruhe","type":"Landkreis"},"federalState":{"key":"08","name":"Baden-Württemberg"}},{"name":"Eichholzweg","postalCode":"72631","locality":"Aichtal","municipality":{"key":"08116081","name":"Aichtal, Stadt","type":"Stadt"},"district":{"key":"08116","name":"Esslingen","type":"Landkreis"},"federalState":{"key":"08","name":"Baden-Württemberg"}},{"name":"Eisenbahnstr.","postalCode":"76703","locality":"Kraichtal","municipality":{"key":"08215097","name":"Kraichtal, Stadt","type":"Stadt"},"district":{"key":"08215","name":"Karlsruhe","type":"Landkreis"},"federalState":{"key":"08","name":"Baden-Württemberg"}},{"name":"Eisenhutstr.","postalCode":"76703","locality":"Kraichtal","municipality":{"key":"08215097","name":"Kraichtal, Stadt","type":"Stadt"},"district":{"key":"08215","name":"Karlsruhe","type":"Landkreis"},"federalState":{"key":"08","name":"Baden-Württemberg"}},{"name":"Elsenzer Str.","postalCode":"76703","locality":"Kraichtal","municipality":{"key":"08215097","name":"Kraichtal, Stadt","type":"Stadt"},"district":{"key":"08215","name":"Karlsruhe","type":"Landkreis"},"federalState":{"key":"08","name":"Baden-Württemberg"}},{"name":"Emesenbergweg","postalCode":"76703","locality":"Kraichtal","municipality":{"key":"08215097","name":"Kraichtal, Stadt","type":"Stadt"},"district":{"key":"08215","name":"Karlsruhe","type":"Landkreis"},"federalState":{"key":"08","name":"Baden-Württemberg"}},{"name":"Enzianweg","postalCode":"72631","locality":"Aichtal","municipality":{"key":"08116081","name":"Aichtal, Stadt","type":"Stadt"},"district":{"key":"08116","name":"Esslingen","type":"Landkreis"},"federalState":{"key":"08","name":"Baden-Württemberg"}},{"name":"Eppinger Str.","postalCode":"76703","locality":"Kraichtal","municipality":{"key":"08215097","name":"Kraichtal, Stadt","type":"Stadt"},"district":{"key":"08215","name":"Karlsruhe","type":"Landkreis"},"federalState":{"key":"08","name":"Baden-Württemberg"}},{"name":"Erlenweg","postalCode":"76703","locality":"Kraichtal","municipality":{"key":"08215097","name":"Kraichtal, Stadt","type":"Stadt"},"district":{"key":"08215","name":"Karlsruhe","type":"Landkreis"},"federalState":{"key":"08","name":"Baden-Württemberg"}},{"name":"Eschbachstr.","postalCode":"76703","locality":"Kraichtal","municipality":{"key":"08215097","name":"Kraichtal, Stadt","type":"Stadt"},"district":{"key":"08215","name":"Karlsruhe","type":"Landkreis"},"federalState":{"key":"08","name":"Baden-Württemberg"}},{"name":"Eschbachweg","postalCode":"76703","locality":"Kraichtal","municipality":{"key":"08215097","name":"Kraichtal, Stadt","type":"Stadt"},"district":{"key":"08215","name":"Karlsruhe","type":"Landkreis"},"federalState":{"key":"08","name":"Baden-Württemberg"}},{"name":"Fabrikstr.","postalCode":"76703","locality":"Kraichtal","municipality":{"key":"08215097","name":"Kraichtal, Stadt","type":"Stadt"},"district":{"key":"08215","name":"Karlsruhe","type":"Landkreis"},"federalState":{"key":"08","name":"Baden-Württemberg"}},{"name":"Falkenweg","postalCode":"76703","locality":"Kraichtal","municipality":{"key":"08215097","name":"Kraichtal, Stadt","type":"Stadt"},"district":{"key":"08215","name":"Karlsruhe","type":"Landkreis"},"federalState":{"key":"08","name":"Baden-Württemberg"}},{"name":"Fasanenstr.","postalCode":"76703","locality":"Kraichtal","municipality":{"key":"08215097","name":"Kraichtal, Stadt","type":"Stadt"},"district":{"key":"08215","name":"Karlsruhe","type":"Landkreis"},"federalState":{"key":"08","name":"Baden-Württemberg"}},{"name":"Fichtenweg","postalCode":"76703","locality":"Kraichtal","municipality":{"key":"08215097","name":"Kraichtal, Stadt","type":"Stadt"},"district":{"key":"08215","name":"Karlsruhe","type":"Landkreis"},"federalState":{"key":"08","name":"Baden-Württemberg"}},{"name":"Filderweg","postalCode":"72631","locality":"Aichtal","municipality":{"key":"08116081","name":"Aichtal, Stadt","type":"Stadt"},"district":{"key":"08116","name":"Esslingen","type":"Landkreis"},"federalState":{"key":"08","name":"Baden-Württemberg"}},{"name":"Finkenweg","postalCode":"72631","locality":"Aichtal","municipality":{"key":"08116081","name":"Aichtal, Stadt","type":"Stadt"},"district":{"key":"08116","name":"Esslingen","type":"Landkreis"},"federalState":{"key":"08","name":"Baden-Württemberg"}},{"name":"Finkenweg","postalCode":"76703","locality":"Kraichtal","municipality":{"key":"08215097","name":"Kraichtal, Stadt","type":"Stadt"},"district":{"key":"08215","name":"Karlsruhe","type":"Landkreis"},"federalState":{"key":"08","name":"Baden-Württemberg"}},{"name":"Flehinger Str.","postalCode":"76703","locality":"Kraichtal","municipality":{"key":"08215097","name":"Kraichtal, Stadt","type":"Stadt"},"district":{"key":"08215","name":"Karlsruhe","type":"Landkreis"},"federalState":{"key":"08","name":"Baden-Württemberg"}},{"name":"Fliederweg","postalCode":"72631","locality":"Aichtal","municipality":{"key":"08116081","name":"Aichtal, Stadt","type":"Stadt"},"district":{"key":"08116","name":"Esslingen","type":"Landkreis"},"federalState":{"key":"08","name":"Baden-Württemberg"}},{"name":"Fliederweg","postalCode":"76703","locality":"Kraichtal","municipality":{"key":"08215097","name":"Kraichtal, Stadt","type":"Stadt"},"district":{"key":"08215","name":"Karlsruhe","type":"Landkreis"},"federalState":{"key":"08","name":"Baden-Württemberg"}},{"name":"Forststr.","postalCode":"76703","locality":"Kraichtal","municipality":{"key":"08215097","name":"Kraichtal, Stadt","type":"Stadt"},"district":{"key":"08215","name":"Karlsruhe","type":"Landkreis"},"federalState":{"key":"08","name":"Baden-Württemberg"}},{"name":"Fratzenweg","postalCode":"72631","locality":"Aichtal","municipality":{"key":"08116081","name":"Aichtal, Stadt","type":"Stadt"},"district":{"key":"08116","name":"Esslingen","type":"Landkreis"},"federalState":{"key":"08","name":"Baden-Württemberg"}},{"name":"Freiherr-vom-Stein-Str.","postalCode":"76703","locality":"Kraichtal","municipality":{"key":"08215097","name":"Kraichtal, Stadt","type":"Stadt"},"district":{"key":"08215","name":"Karlsruhe","type":"Landkreis"},"federalState":{"key":"08","name":"Baden-Württemberg"}},{"name":"Friedenstr.","postalCode":"76703","locality":"Kraichtal","municipality":{"key":"08215097","name":"Kraichtal, Stadt","type":"Stadt"},"district":{"key":"08215","name":"Karlsruhe","type":"Landkreis"},"federalState":{"key":"08","name":"Baden-Württemberg"}},{"name":"Friedrich-Ebert-Str.","postalCode":"76703","locality":"Kraichtal","municipality":{"key":"08215097","name":"Kraichtal, Stadt","type":"Stadt"},"district":{"key":"08215","name":"Karlsruhe","type":"Landkreis"},"federalState":{"key":"08","name":"Baden-Württemberg"}},{"name":"Friedrichsplatz","postalCode":"76703","locality":"Kraichtal","municipality":{"key":"08215097","name":"Kraichtal, Stadt","type":"Stadt"},"district":{"key":"08215","name":"Karlsruhe","type":"Landkreis"},"federalState":{"key":"08","name":"Baden-Württemberg"}},{"name":"Friedrichstr.","postalCode":"76703","locality":"Kraichtal","municipality":{"key":"08215097","name":"Kraichtal, Stadt","type":"Stadt"},"district":{"key":"08215","name":"Karlsruhe","type":"Landkreis"},"federalState":{"key":"08","name":"Baden-Württemberg"}},{"name":"Fritz-Ruoff-Str.","postalCode":"72631","locality":"Aichtal","municipality":{"key":"08116081","name":"Aichtal, Stadt","type":"Stadt"},"district":{"key":"08116","name":"Esslingen","type":"Landkreis"},"federalState":{"key":"08","name":"Baden-Württemberg"}},{"name":"Fronbergstr.","postalCode":"76703","locality":"Kraichtal","municipality":{"key":"08215097","name":"Kraichtal, Stadt","type":"Stadt"},"district":{"key":"08215","name":"Karlsruhe","type":"Landkreis"},"federalState":{"key":"08","name":"Baden-Württemberg"}},{"name":"Froschegert","postalCode":"72631","locality":"Aichtal","municipality":{"key":"08116081","name":"Aichtal, Stadt","type":"Stadt"},"district":{"key":"08116","name":"Esslingen","type":"Landkreis"},"federalState":{"key":"08","name":"Baden-Württemberg"}},{"name":"Frühlingstr.","postalCode":"76703","locality":"Kraichtal","municipality":{"key":"08215097","name":"Kraichtal, Stadt","type":"Stadt"},"district":{"key":"08215","name":"Karlsruhe","type":"Landkreis"},"federalState":{"key":"08","name":"Baden-Württemberg"}},{"name":"Führtbruchstr.","postalCode":"76703","locality":"Kraichtal","municipality":{"key":"08215097","name":"Kraichtal, Stadt","type":"Stadt"},"district":{"key":"08215","name":"Karlsruhe","type":"Landkreis"},"federalState":{"key":"08","name":"Baden-Württemberg"}},{"name":"Galgenhohle","postalCode":"76703","locality":"Kraichtal","municipality":{"key":"08215097","name":"Kraichtal, Stadt","type":"Stadt"},"district":{"key":"08215","name":"Karlsruhe","type":"Landkreis"},"federalState":{"key":"08","name":"Baden-Württemberg"}},{"name":"Gänselbergstr.","postalCode":"76703","locality":"Kraichtal","municipality":{"key":"08215097","name":"Kraichtal, Stadt","type":"Stadt"},"district":{"key":"08215","name":"Karlsruhe","type":"Landkreis"},"federalState":{"key":"08","name":"Baden-Württemberg"}},{"name":"Gartenstr.","postalCode":"72631","locality":"Aichtal","municipality":{"key":"08116081","name":"Aichtal, Stadt","type":"Stadt"},"district":{"key":"08116","name":"Esslingen","type":"Landkreis"},"federalState":{"key":"08","name":"Baden-Württemberg"}},{"name":"Gartenstr.","postalCode":"76703","locality":"Kraichtal","municipality":{"key":"08215097","name":"Kraichtal, Stadt","type":"Stadt"},"district":{"key":"08215","name":"Karlsruhe","type":"Landkreis"},"federalState":{"key":"08","name":"Baden-Württemberg"}},{"name":"Gassenäcker","postalCode":"72631","locality":"Aichtal","municipality":{"key":"08116081","name":"Aichtal, Stadt","type":"Stadt"},"district":{"key":"08116","name":"Esslingen","type":"Landkreis"},"federalState":{"key":"08","name":"Baden-Württemberg"}},{"name":"Geigengasse","postalCode":"76703","locality":"Kraichtal","municipality":{"key":"08215097","name":"Kraichtal, Stadt","type":"Stadt"},"district":{"key":"08215","name":"Karlsruhe","type":"Landkreis"},"federalState":{"key":"08","name":"Baden-Württemberg"}},{"name":"Gemeindeberg","postalCode":"72631","locality":"Aichtal","municipality":{"key":"08116081","name":"Aichtal, Stadt","type":"Stadt"},"district":{"key":"08116","name":"Esslingen","type":"Landkreis"},"federalState":{"key":"08","name":"Baden-Württemberg"}},{"name":"Geranienweg","postalCode":"72631","locality":"Aichtal","municipality":{"key":"08116081","name":"Aichtal, Stadt","type":"Stadt"},"district":{"key":"08116","name":"Esslingen","type":"Landkreis"},"federalState":{"key":"08","name":"Baden-Württemberg"}},{"name":"Gerhart-Hauptmann-Str.","postalCode":"76703","locality":"Kraichtal","municipality":{"key":"08215097","name":"Kraichtal, Stadt","type":"Stadt"},"district":{"key":"08215","name":"Karlsruhe","type":"Landkreis"},"federalState":{"key":"08","name":"Baden-Württemberg"}},{"name":"Gichtel","postalCode":"76703","locality":"Kraichtal","municipality":{"key":"08215097","name":"Kraichtal, Stadt","type":"Stadt"},"district":{"key":"08215","name":"Karlsruhe","type":"Landkreis"},"federalState":{"key":"08","name":"Baden-Württemberg"}},{"name":"Ginsterweg","postalCode":"72631","locality":"Aichtal","municipality":{"key":"08116081","name":"Aichtal, Stadt","type":"Stadt"},"district":{"key":"08116","name":"Esslingen","type":"Landkreis"},"federalState":{"key":"08","name":"Baden-Württemberg"}},{"name":"Gochsheimer Str.","postalCode":"76703","locality":"Kraichtal","municipality":{"key":"08215097","name":"Kraichtal, Stadt","type":"Stadt"},"district":{"key":"08215","name":"Karlsruhe","type":"Landkreis"},"federalState":{"key":"08","name":"Baden-Württemberg"}},{"name":"Goethestr.","postalCode":"72631","locality":"Aichtal","municipality":{"key":"08116081","name":"Aichtal, Stadt","type":"Stadt"},"district":{"key":"08116","name":"Esslingen","type":"Landkreis"},"federalState":{"key":"08","name":"Baden-Württemberg"}},{"name":"Goethestr.","postalCode":"76703","locality":"Kraichtal","municipality":{"key":"08215097","name":"Kraichtal, Stadt","type":"Stadt"},"district":{"key":"08215","name":"Karlsruhe","type":"Landkreis"},"federalState":{"key":"08","name":"Baden-Württemberg"}},{"name":"Görnstr.","postalCode":"76703","locality":"Kraichtal","municipality":{"key":"08215097","name":"Kraichtal, Stadt","type":"Stadt"},"district":{"key":"08215","name":"Karlsruhe","type":"Landkreis"},"federalState":{"key":"08","name":"Baden-Württemberg"}},{"name":"Görretstr.","postalCode":"76703","locality":"Kraichtal","municipality":{"key":"08215097","name":"Kraichtal, Stadt","type":"Stadt"},"district":{"key":"08215","name":"Karlsruhe","type":"Landkreis"},"federalState":{"key":"08","name":"Baden-Württemberg"}},{"name":"Gottlieb-Daimler-Str.","postalCode":"76703","locality":"Kraichtal","municipality":{"key":"08215097","name":"Kraichtal, Stadt","type":"Stadt"},"district":{"key":"08215","name":"Karlsruhe","type":"Landkreis"},"federalState":{"key":"08","name":"Baden-Württemberg"}},{"name":"Grabenstr.","postalCode":"72631","locality":"Aichtal","municipality":{"key":"08116081","name":"Aichtal, Stadt","type":"Stadt"},"district":{"key":"08116","name":"Esslingen","type":"Landkreis"},"federalState":{"key":"08","name":"Baden-Württemberg"}},{"name":"Grabenstr.","postalCode":"76703","locality":"Kraichtal","municipality":{"key":"08215097","name":"Kraichtal, Stadt","type":"Stadt"},"district":{"key":"08215","name":"Karlsruhe","type":"Landkreis"},"federalState":{"key":"08","name":"Baden-Württemberg"}},{"name":"Graf-Eberstein-Str.","postalCode":"76703","locality":"Kraichtal","municipality":{"key":"08215097","name":"Kraichtal, Stadt","type":"Stadt"},"district":{"key":"08215","name":"Karlsruhe","type":"Landkreis"},"federalState":{"key":"08","name":"Baden-Württemberg"}},{"name":"Grötzinger Str.","postalCode":"72631","locality":"Aichtal","municipality":{"key":"08116081","name":"Aichtal, Stadt","type":"Stadt"},"district":{"key":"08116","name":"Esslingen","type":"Landkreis"},"federalState":{"key":"08","name":"Baden-Württemberg"}},{"name":"Grundweg","postalCode":"76703","locality":"Kraichtal","municipality":{"key":"08215097","name":"Kraichtal, Stadt","type":"Stadt"},"district":{"key":"08215","name":"Karlsruhe","type":"Landkreis"},"federalState":{"key":"08","name":"Baden-Württemberg"}},{"name":"Häfnerstr.","postalCode":"72631","locality":"Aichtal","municipality":{"key":"08116081","name":"Aichtal, Stadt","type":"Stadt"},"district":{"key":"08116","name":"Esslingen","type":"Landkreis"},"federalState":{"key":"08","name":"Baden-Württemberg"}},{"name":"Hagen","postalCode":"72631","locality":"Aichtal","municipality":{"key":"08116081","name":"Aichtal, Stadt","type":"Stadt"},"district":{"key":"08116","name":"Esslingen","type":"Landkreis"},"federalState":{"key":"08","name":"Baden-Württemberg"}},{"name":"Haldenstr.","postalCode":"72631","locality":"Aichtal","municipality":{"key":"08116081","name":"Aichtal, Stadt","type":"Stadt"},"district":{"key":"08116","name":"Esslingen","type":"Landkreis"},"federalState":{"key":"08","name":"Baden-Württemberg"}},{"name":"Hambergweg","postalCode":"76703","locality":"Kraichtal","municipality":{"key":"08215097","name":"Kraichtal, Stadt","type":"Stadt"},"district":{"key":"08215","name":"Karlsruhe","type":"Landkreis"},"federalState":{"key":"08","name":"Baden-Württemberg"}},{"name":"Harthäuser Str.","postalCode":"72631","locality":"Aichtal","municipality":{"key":"08116081","name":"Aichtal, Stadt","type":"Stadt"},"district":{"key":"08116","name":"Esslingen","type":"Landkreis"},"federalState":{"key":"08","name":"Baden-Württemberg"}},{"name":"Hauffstr.","postalCode":"72631","locality":"Aichtal","municipality":{"key":"08116081","name":"Aichtal, Stadt","type":"Stadt"},"district":{"key":"08116","name":"Esslingen","type":"Landkreis"},"federalState":{"key":"08","name":"Baden-Württemberg"}},{"name":"Hauptmannstr.","postalCode":"76703","locality":"Kraichtal","municipality":{"key":"08215097","name":"Kraichtal, Stadt","type":"Stadt"},"district":{"key":"08215","name":"Karlsruhe","type":"Landkreis"},"federalState":{"key":"08","name":"Baden-Württemberg"}},{"name":"Hauptstr.","postalCode":"76703","locality":"Kraichtal","municipality":{"key":"08215097","name":"Kraichtal, Stadt","type":"Stadt"},"district":{"key":"08215","name":"Karlsruhe","type":"Landkreis"},"federalState":{"key":"08","name":"Baden-Württemberg"}},{"name":"Hebelstr.","postalCode":"76703","locality":"Kraichtal","municipality":{"key":"08215097","name":"Kraichtal, Stadt","type":"Stadt"},"district":{"key":"08215","name":"Karlsruhe","type":"Landkreis"},"federalState":{"key":"08","name":"Baden-Württemberg"}},{"name":"Hegauweg","postalCode":"76703","locality":"Kraichtal","municipality":{"key":"08215097","name":"Kraichtal, Stadt","type":"Stadt"},"district":{"key":"08215","name":"Karlsruhe","type":"Landkreis"},"federalState":{"key":"08","name":"Baden-Württemberg"}},{"name":"Hegelweg","postalCode":"72631","locality":"Aichtal","municipality":{"key":"08116081","name":"Aichtal, Stadt","type":"Stadt"},"district":{"key":"08116","name":"Esslingen","type":"Landkreis"},"federalState":{"key":"08","name":"Baden-Württemberg"}},{"name":"Heidelsheimer Str.","postalCode":"76703","locality":"Kraichtal","municipality":{"key":"08215097","name":"Kraichtal, Stadt","type":"Stadt"},"district":{"key":"08215","name":"Karlsruhe","type":"Landkreis"},"federalState":{"key":"08","name":"Baden-Württemberg"}},{"name":"Heideweg","postalCode":"72631","locality":"Aichtal","municipality":{"key":"08116081","name":"Aichtal, Stadt","type":"Stadt"},"district":{"key":"08116","name":"Esslingen","type":"Landkreis"},"federalState":{"key":"08","name":"Baden-Württemberg"}},{"name":"Heilbronner Str.","postalCode":"76703","locality":"Kraichtal","municipality":{"key":"08215097","name":"Kraichtal, Stadt","type":"Stadt"},"district":{"key":"08215","name":"Karlsruhe","type":"Landkreis"},"federalState":{"key":"08","name":"Baden-Württemberg"}},{"name":"Heinestr.","postalCode":"72631","locality":"Aichtal","municipality":{"key":"08116081","name":"Aichtal, Stadt","type":"Stadt"},"district":{"key":"08116","name":"Esslingen","type":"Landkreis"},"federalState":{"key":"08","name":"Baden-Württemberg"}},{"name":"Heinrich-Heine-Ring","postalCode":"76703","locality":"Kraichtal","municipality":{"key":"08215097","name":"Kraichtal, Stadt","type":"Stadt"},"district":{"key":"08215","name":"Karlsruhe","type":"Landkreis"},"federalState":{"key":"08","name":"Baden-Württemberg"}},{"name":"Herrenstr.","postalCode":"76703","locality":"Kraichtal","municipality":{"key":"08215097","name":"Kraichtal, Stadt","type":"Stadt"},"district":{"key":"08215","name":"Karlsruhe","type":"Landkreis"},"federalState":{"key":"08","name":"Baden-Württemberg"}},{"name":"Heubergstr.","postalCode":"72631","locality":"Aichtal","municipality":{"key":"08116081","name":"Aichtal, Stadt","type":"Stadt"},"district":{"key":"08116","name":"Esslingen","type":"Landkreis"},"federalState":{"key":"08","name":"Baden-Württemberg"}},{"name":"Hiegerstr.","postalCode":"76703","locality":"Kraichtal","municipality":{"key":"08215097","name":"Kraichtal, Stadt","type":"Stadt"},"district":{"key":"08215","name":"Karlsruhe","type":"Landkreis"},"federalState":{"key":"08","name":"Baden-Württemberg"}},{"name":"Hildastr.","postalCode":"76703","locality":"Kraichtal","municipality":{"key":"08215097","name":"Kraichtal, Stadt","type":"Stadt"},"district":{"key":"08215","name":"Karlsruhe","type":"Landkreis"},"federalState":{"key":"08","name":"Baden-Württemberg"}},{"name":"Hindenburgplatz","postalCode":"72631","locality":"Aichtal","municipality":{"key":"08116081","name":"Aichtal, Stadt","type":"Stadt"},"district":{"key":"08116","name":"Esslingen","type":"Landkreis"},"federalState":{"key":"08","name":"Baden-Württemberg"}},{"name":"Hindenburgstr.","postalCode":"72631","locality":"Aichtal","municipality":{"key":"08116081","name":"Aichtal, Stadt","type":"Stadt"},"district":{"key":"08116","name":"Esslingen","type":"Landkreis"},"federalState":{"key":"08","name":"Baden-Württemberg"}},{"name":"Hintere Gasse","postalCode":"72631","locality":"Aichtal","municipality":{"key":"08116081","name":"Aichtal, Stadt","type":"Stadt"},"district":{"key":"08116","name":"Esslingen","type":"Landkreis"},"federalState":{"key":"08","name":"Baden-Württemberg"}},{"name":"Hintere Gasse","postalCode":"76703","locality":"Kraichtal","municipality":{"key":"08215097","name":"Kraichtal, Stadt","type":"Stadt"},"district":{"key":"08215","name":"Karlsruhe","type":"Landkreis"},"federalState":{"key":"08","name":"Baden-Württemberg"}},{"name":"Hinterm Schloss","postalCode":"76703","locality":"Kraichtal","municipality":{"key":"08215097","name":"Kraichtal, Stadt","type":"Stadt"},"district":{"key":"08215","name":"Karlsruhe","type":"Landkreis"},"federalState":{"key":"08","name":"Baden-Württemberg"}},{"name":"Hochstr.","postalCode":"76703","locality":"Kraichtal","municipality":{"key":"08215097","name":"Kraichtal, Stadt","type":"Stadt"},"district":{"key":"08215","name":"Karlsruhe","type":"Landkreis"},"federalState":{"key":"08","name":"Baden-Württemberg"}},{"name":"Hochsträß","postalCode":"72631","locality":"Aichtal","municipality":{"key":"08116081","name":"Aichtal, Stadt","type":"Stadt"},"district":{"key":"08116","name":"Esslingen","type":"Landkreis"},"federalState":{"key":"08","name":"Baden-Württemberg"}},{"name":"Hochsträßweg","postalCode":"72631","locality":"Aichtal","municipality":{"key":"08116081","name":"Aichtal, Stadt","type":"Stadt"},"district":{"key":"08116","name":"Esslingen","type":"Landkreis"},"federalState":{"key":"08","name":"Baden-Württemberg"}},{"name":"Hofwaldstr.","postalCode":"76703","locality":"Kraichtal","municipality":{"key":"08215097","name":"Kraichtal, Stadt","type":"Stadt"},"district":{"key":"08215","name":"Karlsruhe","type":"Landkreis"},"federalState":{"key":"08","name":"Baden-Württemberg"}},{"name":"Hohenneuffenstr.","postalCode":"72631","locality":"Aichtal","municipality":{"key":"08116081","name":"Aichtal, Stadt","type":"Stadt"},"district":{"key":"08116","name":"Esslingen","type":"Landkreis"},"federalState":{"key":"08","name":"Baden-Württemberg"}},{"name":"Höhenstr.","postalCode":"76703","locality":"Kraichtal","municipality":{"key":"08215097","name":"Kraichtal, Stadt","type":"Stadt"},"district":{"key":"08215","name":"Karlsruhe","type":"Landkreis"},"federalState":{"key":"08","name":"Baden-Württemberg"}},{"name":"Höhenweg","postalCode":"72631","locality":"Aichtal","municipality":{"key":"08116081","name":"Aichtal, Stadt","type":"Stadt"},"district":{"key":"08116","name":"Esslingen","type":"Landkreis"},"federalState":{"key":"08","name":"Baden-Württemberg"}},{"name":"Hohenzollernstr.","postalCode":"72631","locality":"Aichtal","municipality":{"key":"08116081","name":"Aichtal, Stadt","type":"Stadt"},"district":{"key":"08116","name":"Esslingen","type":"Landkreis"},"federalState":{"key":"08","name":"Baden-Württemberg"}},{"name":"Hoher Rain","postalCode":"72631","locality":"Aichtal","municipality":{"key":"08116081","name":"Aichtal, Stadt","type":"Stadt"},"district":{"key":"08116","name":"Esslingen","type":"Landkreis"},"federalState":{"key":"08","name":"Baden-Württemberg"}},{"name":"Hohlweg","postalCode":"76703","locality":"Kraichtal","municipality":{"key":"08215097","name":"Kraichtal, Stadt","type":"Stadt"},"district":{"key":"08215","name":"Karlsruhe","type":"Landkreis"},"federalState":{"key":"08","name":"Baden-Württemberg"}},{"name":"Hölderlinstr.","postalCode":"72631","locality":"Aichtal","municipality":{"key":"08116081","name":"Aichtal, Stadt","type":"Stadt"},"district":{"key":"08116","name":"Esslingen","type":"Landkreis"},"federalState":{"key":"08","name":"Baden-Württemberg"}},{"name":"Holzklinge","postalCode":"76703","locality":"Kraichtal","municipality":{"key":"08215097","name":"Kraichtal, Stadt","type":"Stadt"},"district":{"key":"08215","name":"Karlsruhe","type":"Landkreis"},"federalState":{"key":"08","name":"Baden-Württemberg"}},{"name":"Hörnleweg","postalCode":"72631","locality":"Aichtal","municipality":{"key":"08116081","name":"Aichtal, Stadt","type":"Stadt"},"district":{"key":"08116","name":"Esslingen","type":"Landkreis"},"federalState":{"key":"08","name":"Baden-Württemberg"}},{"name":"Horst-Kochendörfer-Platz","postalCode":"76703","locality":"Kraichtal","municipality":{"key":"08215097","name":"Kraichtal, Stadt","type":"Stadt"},"district":{"key":"08215","name":"Karlsruhe","type":"Landkreis"},"federalState":{"key":"08","name":"Baden-Württemberg"}},{"name":"Hummelsklingenweg","postalCode":"72631","locality":"Aichtal","municipality":{"key":"08116081","name":"Aichtal, Stadt","type":"Stadt"},"district":{"key":"08116","name":"Esslingen","type":"Landkreis"},"federalState":{"key":"08","name":"Baden-Württemberg"}},{"name":"Im Brühl","postalCode":"76703","locality":"Kraichtal","municipality":{"key":"08215097","name":"Kraichtal, Stadt","type":"Stadt"},"district":{"key":"08215","name":"Karlsruhe","type":"Landkreis"},"federalState":{"key":"08","name":"Baden-Württemberg"}},{"name":"Im Denzental","postalCode":"76703","locality":"Kraichtal","municipality":{"key":"08215097","name":"Kraichtal, Stadt","type":"Stadt"},"district":{"key":"08215","name":"Karlsruhe","type":"Landkreis"},"federalState":{"key":"08","name":"Baden-Württemberg"}},{"name":"Im Dietner","postalCode":"72631","locality":"Aichtal","municipality":{"key":"08116081","name":"Aichtal, Stadt","type":"Stadt"},"district":{"key":"08116","name":"Esslingen","type":"Landkreis"},"federalState":{"key":"08","name":"Baden-Württemberg"}},{"name":"Im Eiselbrunnen","postalCode":"76703","locality":"Kraichtal","municipality":{"key":"08215097","name":"Kraichtal, Stadt","type":"Stadt"},"district":{"key":"08215","name":"Karlsruhe","type":"Landkreis"},"federalState":{"key":"08","name":"Baden-Württemberg"}},{"name":"Im Faiergrund","postalCode":"76703","locality":"Kraichtal","municipality":{"key":"08215097","name":"Kraichtal, Stadt","type":"Stadt"},"district":{"key":"08215","name":"Karlsruhe","type":"Landkreis"},"federalState":{"key":"08","name":"Baden-Württemberg"}},{"name":"Im Gässle","postalCode":"76703","locality":"Kraichtal","municipality":{"key":"08215097","name":"Kraichtal, Stadt","type":"Stadt"},"district":{"key":"08215","name":"Karlsruhe","type":"Landkreis"},"federalState":{"key":"08","name":"Baden-Württemberg"}},{"name":"Im Gewand","postalCode":"72631","locality":"Aichtal","municipality":{"key":"08116081","name":"Aichtal, Stadt","type":"Stadt"},"district":{"key":"08116","name":"Esslingen","type":"Landkreis"},"federalState":{"key":"08","name":"Baden-Württemberg"}},{"name":"Im Grörach","postalCode":"72631","locality":"Aichtal","municipality":{"key":"08116081","name":"Aichtal, Stadt","type":"Stadt"},"district":{"key":"08116","name":"Esslingen","type":"Landkreis"},"federalState":{"key":"08","name":"Baden-Württemberg"}},{"name":"Im Hagen","postalCode":"76703","locality":"Kraichtal","municipality":{"key":"08215097","name":"Kraichtal, Stadt","type":"Stadt"},"district":{"key":"08215","name":"Karlsruhe","type":"Landkreis"},"federalState":{"key":"08","name":"Baden-Württemberg"}},{"name":"Im Hanfacker","postalCode":"76703","locality":"Kraichtal","municipality":{"key":"08215097","name":"Kraichtal, Stadt","type":"Stadt"},"district":{"key":"08215","name":"Karlsruhe","type":"Landkreis"},"federalState":{"key":"08","name":"Baden-Württemberg"}},{"name":"Im Hau","postalCode":"72631","locality":"Aichtal","municipality":{"key":"08116081","name":"Aichtal, Stadt","type":"Stadt"},"district":{"key":"08116","name":"Esslingen","type":"Landkreis"},"federalState":{"key":"08","name":"Baden-Württemberg"}},{"name":"Im Helm","postalCode":"76703","locality":"Kraichtal","municipality":{"key":"08215097","name":"Kraichtal, Stadt","type":"Stadt"},"district":{"key":"08215","name":"Karlsruhe","type":"Landkreis"},"federalState":{"key":"08","name":"Baden-Württemberg"}},{"name":"Im Hofteich","postalCode":"76703","locality":"Kraichtal","municipality":{"key":"08215097","name":"Kraichtal, Stadt","type":"Stadt"},"district":{"key":"08215","name":"Karlsruhe","type":"Landkreis"},"federalState":{"key":"08","name":"Baden-Württemberg"}},{"name":"Im Holder","postalCode":"76703","locality":"Kraichtal","municipality":{"key":"08215097","name":"Kraichtal, Stadt","type":"Stadt"},"district":{"key":"08215","name":"Karlsruhe","type":"Landkreis"},"federalState":{"key":"08","name":"Baden-Württemberg"}},{"name":"Im Krebsbrunnen","postalCode":"76703","locality":"Kraichtal","municipality":{"key":"08215097","name":"Kraichtal, Stadt","type":"Stadt"},"district":{"key":"08215","name":"Karlsruhe","type":"Landkreis"},"federalState":{"key":"08","name":"Baden-Württemberg"}},{"name":"Im Kummetsbrüchle","postalCode":"76703","locality":"Kraichtal","municipality":{"key":"08215097","name":"Kraichtal, Stadt","type":"Stadt"},"district":{"key":"08215","name":"Karlsruhe","type":"Landkreis"},"federalState":{"key":"08","name":"Baden-Württemberg"}},{"name":"Immenstr.","postalCode":"76703","locality":"Kraichtal","municipality":{"key":"08215097","name":"Kraichtal, Stadt","type":"Stadt"},"district":{"key":"08215","name":"Karlsruhe","type":"Landkreis"},"federalState":{"key":"08","name":"Baden-Württemberg"}},{"name":"Im Rohrland","postalCode":"76703","locality":"Kraichtal","municipality":{"key":"08215097","name":"Kraichtal, Stadt","type":"Stadt"},"district":{"key":"08215","name":"Karlsruhe","type":"Landkreis"},"federalState":{"key":"08","name":"Baden-Württemberg"}},{"name":"Im Roth","postalCode":"76703","locality":"Kraichtal","municipality":{"key":"08215097","name":"Kraichtal, Stadt","type":"Stadt"},"district":{"key":"08215","name":"Karlsruhe","type":"Landkreis"},"federalState":{"key":"08","name":"Baden-Württemberg"}},{"name":"Im Steinig","postalCode":"76703","locality":"Kraichtal","municipality":{"key":"08215097","name":"Kraichtal, Stadt","type":"Stadt"},"district":{"key":"08215","name":"Karlsruhe","type":"Landkreis"},"federalState":{"key":"08","name":"Baden-Württemberg"}},{"name":"Im Traubenacker","postalCode":"76703","locality":"Kraichtal","municipality":{"key":"08215097","name":"Kraichtal, Stadt","type":"Stadt"},"district":{"key":"08215","name":"Karlsruhe","type":"Landkreis"},"federalState":{"key":"08","name":"Baden-Württemberg"}},{"name":"Im Vogelsang","postalCode":"72631","locality":"Aichtal","municipality":{"key":"08116081","name":"Aichtal, Stadt","type":"Stadt"},"district":{"key":"08116","name":"Esslingen","type":"Landkreis"},"federalState":{"key":"08","name":"Baden-Württemberg"}},{"name":"Im Weckholder","postalCode":"72631","locality":"Aichtal","municipality":{"key":"08116081","name":"Aichtal, Stadt","type":"Stadt"},"district":{"key":"08116","name":"Esslingen","type":"Landkreis"},"federalState":{"key":"08","name":"Baden-Württemberg"}},{"name":"Im Welzemer","postalCode":"76703","locality":"Kraichtal","municipality":{"key":"08215097","name":"Kraichtal, Stadt","type":"Stadt"},"district":{"key":"08215","name":"Karlsruhe","type":"Landkreis"},"federalState":{"key":"08","name":"Baden-Württemberg"}},{"name":"Im Zeilenbaum","postalCode":"76703","locality":"Kraichtal","municipality":{"key":"08215097","name":"Kraichtal, Stadt","type":"Stadt"},"district":{"key":"08215","name":"Karlsruhe","type":"Landkreis"},"federalState":{"key":"08","name":"Baden-Württemberg"}},{"name":"Im Zeilfeld","postalCode":"72631","locality":"Aichtal","municipality":{"key":"08116081","name":"Aichtal, Stadt","type":"Stadt"},"district":{"key":"08116","name":"Esslingen","type":"Landkreis"},"federalState":{"key":"08","name":"Baden-Württemberg"}},{"name":"Im Zwischenhofen","postalCode":"76703","locality":"Kraichtal","municipality":{"key":"08215097","name":"Kraichtal, Stadt","type":"Stadt"},"district":{"key":"08215","name":"Karlsruhe","type":"Landkreis"},"federalState":{"key":"08","name":"Baden-Württemberg"}},{"name":"In den Brunnengärten","postalCode":"76703","locality":"Kraichtal","municipality":{"key":"08215097","name":"Kraichtal, Stadt","type":"Stadt"},"district":{"key":"08215","name":"Karlsruhe","type":"Landkreis"},"federalState":{"key":"08","name":"Baden-Württemberg"}},{"name":"In der Neuwies","postalCode":"76703","locality":"Kraichtal","municipality":{"key":"08215097","name":"Kraichtal, Stadt","type":"Stadt"},"district":{"key":"08215","name":"Karlsruhe","type":"Landkreis"},"federalState":{"key":"08","name":"Baden-Württemberg"}},{"name":"Industriestr.","postalCode":"76703","locality":"Kraichtal","municipality":{"key":"08215097","name":"Kraichtal, Stadt","type":"Stadt"},"district":{"key":"08215","name":"Karlsruhe","type":"Landkreis"},"federalState":{"key":"08","name":"Baden-Württemberg"}},{"name":"Ingeborg-Bachmann-Str.","postalCode":"72631","locality":"Aichtal","municipality":{"key":"08116081","name":"Aichtal, Stadt","type":"Stadt"},"district":{"key":"08116","name":"Esslingen","type":"Landkreis"},"federalState":{"key":"08","name":"Baden-Württemberg"}},{"name":"Isolde-Kurz-Str.","postalCode":"72631","locality":"Aichtal","municipality":{"key":"08116081","name":"Aichtal, Stadt","type":"Stadt"},"district":{"key":"08116","name":"Esslingen","type":"Landkreis"},"federalState":{"key":"08","name":"Baden-Württemberg"}},{"name":"Jägerstr.","postalCode":"72631","locality":"Aichtal","municipality":{"key":"08116081","name":"Aichtal, Stadt","type":"Stadt"},"district":{"key":"08116","name":"Esslingen","type":"Landkreis"},"federalState":{"key":"08","name":"Baden-Württemberg"}},{"name":"Jaichhohle","postalCode":"76703","locality":"Kraichtal","municipality":{"key":"08215097","name":"Kraichtal, Stadt","type":"Stadt"},"district":{"key":"08215","name":"Karlsruhe","type":"Landkreis"},"federalState":{"key":"08","name":"Baden-Württemberg"}},{"name":"Jakob-Zorn-Str.","postalCode":"76703","locality":"Kraichtal","municipality":{"key":"08215097","name":"Kraichtal, Stadt","type":"Stadt"},"district":{"key":"08215","name":"Karlsruhe","type":"Landkreis"},"federalState":{"key":"08","name":"Baden-Württemberg"}},{"name":"Jedermannstr.","postalCode":"76703","locality":"Kraichtal","municipality":{"key":"08215097","name":"Kraichtal, Stadt","type":"Stadt"},"district":{"key":"08215","name":"Karlsruhe","type":"Landkreis"},"federalState":{"key":"08","name":"Baden-Württemberg"}},{"name":"Johann-Kepler-Str.","postalCode":"76703","locality":"Kraichtal","municipality":{"key":"08215097","name":"Kraichtal, Stadt","type":"Stadt"},"district":{"key":"08215","name":"Karlsruhe","type":"Landkreis"},"federalState":{"key":"08","name":"Baden-Württemberg"}},{"name":"Josef-Heid-Str.","postalCode":"76703","locality":"Kraichtal","municipality":{"key":"08215097","name":"Kraichtal, Stadt","type":"Stadt"},"district":{"key":"08215","name":"Karlsruhe","type":"Landkreis"},"federalState":{"key":"08","name":"Baden-Württemberg"}},{"name":"Jusiweg","postalCode":"72631","locality":"Aichtal","municipality":{"key":"08116081","name":"Aichtal, Stadt","type":"Stadt"},"district":{"key":"08116","name":"Esslingen","type":"Landkreis"},"federalState":{"key":"08","name":"Baden-Württemberg"}},{"name":"Kaiserstuhlweg","postalCode":"76703","locality":"Kraichtal","municipality":{"key":"08215097","name":"Kraichtal, Stadt","type":"Stadt"},"district":{"key":"08215","name":"Karlsruhe","type":"Landkreis"},"federalState":{"key":"08","name":"Baden-Württemberg"}},{"name":"Kanalstr.","postalCode":"72631","locality":"Aichtal","municipality":{"key":"08116081","name":"Aichtal, Stadt","type":"Stadt"},"district":{"key":"08116","name":"Esslingen","type":"Landkreis"},"federalState":{"key":"08","name":"Baden-Württemberg"}},{"name":"Kantstr.","postalCode":"72631","locality":"Aichtal","municipality":{"key":"08116081","name":"Aichtal, Stadt","type":"Stadt"},"district":{"key":"08116","name":"Esslingen","type":"Landkreis"},"federalState":{"key":"08","name":"Baden-Württemberg"}},{"name":"Kapellenbergstr.","postalCode":"76703","locality":"Kraichtal","municipality":{"key":"08215097","name":"Kraichtal, Stadt","type":"Stadt"},"district":{"key":"08215","name":"Karlsruhe","type":"Landkreis"},"federalState":{"key":"08","name":"Baden-Württemberg"}},{"name":"Kapellenstr.","postalCode":"76703","locality":"Kraichtal","municipality":{"key":"08215097","name":"Kraichtal, Stadt","type":"Stadt"},"district":{"key":"08215","name":"Karlsruhe","type":"Landkreis"},"federalState":{"key":"08","name":"Baden-Württemberg"}},{"name":"Karl-Friedrich-Str.","postalCode":"76703","locality":"Kraichtal","municipality":{"key":"08215097","name":"Kraichtal, Stadt","type":"Stadt"},"district":{"key":"08215","name":"Karlsruhe","type":"Landkreis"},"federalState":{"key":"08","name":"Baden-Württemberg"}},{"name":"Karl-Kübler-Weg","postalCode":"76703","locality":"Kraichtal","municipality":{"key":"08215097","name":"Kraichtal, Stadt","type":"Stadt"},"district":{"key":"08215","name":"Karlsruhe","type":"Landkreis"},"federalState":{"key":"08","name":"Baden-Württemberg"}},{"name":"Karl-Mörike-Str.","postalCode":"72631","locality":"Aichtal","municipality":{"key":"08116081","name":"Aichtal, Stadt","type":"Stadt"},"district":{"key":"08116","name":"Esslingen","type":"Landkreis"},"federalState":{"key":"08","name":"Baden-Württemberg"}},{"name":"Karlsruher Str.","postalCode":"76703","locality":"Kraichtal","municipality":{"key":"08215097","name":"Kraichtal, Stadt","type":"Stadt"},"district":{"key":"08215","name":"Karlsruhe","type":"Landkreis"},"federalState":{"key":"08","name":"Baden-Württemberg"}},{"name":"Karlstr.","postalCode":"76703","locality":"Kraichtal","municipality":{"key":"08215097","name":"Kraichtal, Stadt","type":"Stadt"},"district":{"key":"08215","name":"Karlsruhe","type":"Landkreis"},"federalState":{"key":"08","name":"Baden-Württemberg"}},{"name":"Kelterplatz","postalCode":"72631","locality":"Aichtal","municipality":{"key":"08116081","name":"Aichtal, Stadt","type":"Stadt"},"district":{"key":"08116","name":"Esslingen","type":"Landkreis"},"federalState":{"key":"08","name":"Baden-Württemberg"}},{"name":"Kelterstr.","postalCode":"76703","locality":"Kraichtal","municipality":{"key":"08215097","name":"Kraichtal, Stadt","type":"Stadt"},"district":{"key":"08215","name":"Karlsruhe","type":"Landkreis"},"federalState":{"key":"08","name":"Baden-Württemberg"}},{"name":"Keplerstr.","postalCode":"72631","locality":"Aichtal","municipality":{"key":"08116081","name":"Aichtal, Stadt","type":"Stadt"},"district":{"key":"08116","name":"Esslingen","type":"Landkreis"},"federalState":{"key":"08","name":"Baden-Württemberg"}},{"name":"Kernerstr.","postalCode":"72631","locality":"Aichtal","municipality":{"key":"08116081","name":"Aichtal, Stadt","type":"Stadt"},"district":{"key":"08116","name":"Esslingen","type":"Landkreis"},"federalState":{"key":"08","name":"Baden-Württemberg"}},{"name":"Kiefernstr.","postalCode":"76703","locality":"Kraichtal","municipality":{"key":"08215097","name":"Kraichtal, Stadt","type":"Stadt"},"district":{"key":"08215","name":"Karlsruhe","type":"Landkreis"},"federalState":{"key":"08","name":"Baden-Württemberg"}},{"name":"Kirchplatz","postalCode":"72631","locality":"Aichtal","municipality":{"key":"08116081","name":"Aichtal, Stadt","type":"Stadt"},"district":{"key":"08116","name":"Esslingen","type":"Landkreis"},"federalState":{"key":"08","name":"Baden-Württemberg"}},{"name":"Kirchstr.","postalCode":"76703","locality":"Kraichtal","municipality":{"key":"08215097","name":"Kraichtal, Stadt","type":"Stadt"},"district":{"key":"08215","name":"Karlsruhe","type":"Landkreis"},"federalState":{"key":"08","name":"Baden-Württemberg"}},{"name":"Kirchweg","postalCode":"72631","locality":"Aichtal","municipality":{"key":"08116081","name":"Aichtal, Stadt","type":"Stadt"},"district":{"key":"08116","name":"Esslingen","type":"Landkreis"},"federalState":{"key":"08","name":"Baden-Württemberg"}},{"name":"Kirschenstr.","postalCode":"76703","locality":"Kraichtal","municipality":{"key":"08215097","name":"Kraichtal, Stadt","type":"Stadt"},"district":{"key":"08215","name":"Karlsruhe","type":"Landkreis"},"federalState":{"key":"08","name":"Baden-Württemberg"}},{"name":"Klaushecke","postalCode":"76703","locality":"Kraichtal","municipality":{"key":"08215097","name":"Kraichtal, Stadt","type":"Stadt"},"district":{"key":"08215","name":"Karlsruhe","type":"Landkreis"},"federalState":{"key":"08","name":"Baden-Württemberg"}},{"name":"Kleiststr.","postalCode":"72631","locality":"Aichtal","municipality":{"key":"08116081","name":"Aichtal, Stadt","type":"Stadt"},"district":{"key":"08116","name":"Esslingen","type":"Landkreis"},"federalState":{"key":"08","name":"Baden-Württemberg"}},{"name":"Klingenstr.","postalCode":"72631","locality":"Aichtal","municipality":{"key":"08116081","name":"Aichtal, Stadt","type":"Stadt"},"district":{"key":"08116","name":"Esslingen","type":"Landkreis"},"federalState":{"key":"08","name":"Baden-Württemberg"}},{"name":"Klosterweg","postalCode":"76703","locality":"Kraichtal","municipality":{"key":"08215097","name":"Kraichtal, Stadt","type":"Stadt"},"district":{"key":"08215","name":"Karlsruhe","type":"Landkreis"},"federalState":{"key":"08","name":"Baden-Württemberg"}},{"name":"Kohlplatte","postalCode":"72631","locality":"Aichtal","municipality":{"key":"08116081","name":"Aichtal, Stadt","type":"Stadt"},"district":{"key":"08116","name":"Esslingen","type":"Landkreis"},"federalState":{"key":"08","name":"Baden-Württemberg"}},{"name":"Kohlplattenweg","postalCode":"72631","locality":"Aichtal","municipality":{"key":"08116081","name":"Aichtal, Stadt","type":"Stadt"},"district":{"key":"08116","name":"Esslingen","type":"Landkreis"},"federalState":{"key":"08","name":"Baden-Württemberg"}},{"name":"Kraichgaustr.","postalCode":"76703","locality":"Kraichtal","municipality":{"key":"08215097","name":"Kraichtal, Stadt","type":"Stadt"},"district":{"key":"08215","name":"Karlsruhe","type":"Landkreis"},"federalState":{"key":"08","name":"Baden-Württemberg"}},{"name":"Kreutweg","postalCode":"72631","locality":"Aichtal","municipality":{"key":"08116081","name":"Aichtal, Stadt","type":"Stadt"},"district":{"key":"08116","name":"Esslingen","type":"Landkreis"},"federalState":{"key":"08","name":"Baden-Württemberg"}},{"name":"Kreuzstr.","postalCode":"76703","locality":"Kraichtal","municipality":{"key":"08215097","name":"Kraichtal, Stadt","type":"Stadt"},"district":{"key":"08215","name":"Karlsruhe","type":"Landkreis"},"federalState":{"key":"08","name":"Baden-Württemberg"}},{"name":"Krokusweg","postalCode":"72631","locality":"Aichtal","municipality":{"key":"08116081","name":"Aichtal, Stadt","type":"Stadt"},"district":{"key":"08116","name":"Esslingen","type":"Landkreis"},"federalState":{"key":"08","name":"Baden-Württemberg"}},{"name":"Küferstr.","postalCode":"72631","locality":"Aichtal","municipality":{"key":"08116081","name":"Aichtal, Stadt","type":"Stadt"},"district":{"key":"08116","name":"Esslingen","type":"Landkreis"},"federalState":{"key":"08","name":"Baden-Württemberg"}},{"name":"Landhausweg","postalCode":"72631","locality":"Aichtal","municipality":{"key":"08116081","name":"Aichtal, Stadt","type":"Stadt"},"district":{"key":"08116","name":"Esslingen","type":"Landkreis"},"federalState":{"key":"08","name":"Baden-Württemberg"}},{"name":"Langenwiesenbachweg","postalCode":"76703","locality":"Kraichtal","municipality":{"key":"08215097","name":"Kraichtal, Stadt","type":"Stadt"},"district":{"key":"08215","name":"Karlsruhe","type":"Landkreis"},"federalState":{"key":"08","name":"Baden-Württemberg"}},{"name":"Langer Wasenweg","postalCode":"72631","locality":"Aichtal","municipality":{"key":"08116081","name":"Aichtal, Stadt","type":"Stadt"},"district":{"key":"08116","name":"Esslingen","type":"Landkreis"},"federalState":{"key":"08","name":"Baden-Württemberg"}},{"name":"Lange Str.","postalCode":"76703","locality":"Kraichtal","municipality":{"key":"08215097","name":"Kraichtal, Stadt","type":"Stadt"},"district":{"key":"08215","name":"Karlsruhe","type":"Landkreis"},"federalState":{"key":"08","name":"Baden-Württemberg"}},{"name":"Leibnitzstr.","postalCode":"72631","locality":"Aichtal","municipality":{"key":"08116081","name":"Aichtal, Stadt","type":"Stadt"},"district":{"key":"08116","name":"Esslingen","type":"Landkreis"},"federalState":{"key":"08","name":"Baden-Württemberg"}},{"name":"Leimengrube","postalCode":"72631","locality":"Aichtal","municipality":{"key":"08116081","name":"Aichtal, Stadt","type":"Stadt"},"district":{"key":"08116","name":"Esslingen","type":"Landkreis"},"federalState":{"key":"08","name":"Baden-Württemberg"}},{"name":"Lenzweg","postalCode":"72631","locality":"Aichtal","municipality":{"key":"08116081","name":"Aichtal, Stadt","type":"Stadt"},"district":{"key":"08116","name":"Esslingen","type":"Landkreis"},"federalState":{"key":"08","name":"Baden-Württemberg"}},{"name":"Leopoldstr.","postalCode":"76703","locality":"Kraichtal","municipality":{"key":"08215097","name":"Kraichtal, Stadt","type":"Stadt"},"district":{"key":"08215","name":"Karlsruhe","type":"Landkreis"},"federalState":{"key":"08","name":"Baden-Württemberg"}},{"name":"Lerchenbergstr.","postalCode":"76703","locality":"Kraichtal","municipality":{"key":"08215097","name":"Kraichtal, Stadt","type":"Stadt"},"district":{"key":"08215","name":"Karlsruhe","type":"Landkreis"},"federalState":{"key":"08","name":"Baden-Württemberg"}},{"name":"Lerchenweg","postalCode":"72631","locality":"Aichtal","municipality":{"key":"08116081","name":"Aichtal, Stadt","type":"Stadt"},"district":{"key":"08116","name":"Esslingen","type":"Landkreis"},"federalState":{"key":"08","name":"Baden-Württemberg"}},{"name":"Lessingstr.","postalCode":"72631","locality":"Aichtal","municipality":{"key":"08116081","name":"Aichtal, Stadt","type":"Stadt"},"district":{"key":"08116","name":"Esslingen","type":"Landkreis"},"federalState":{"key":"08","name":"Baden-Württemberg"}},{"name":"Lichtensteinstr.","postalCode":"72631","locality":"Aichtal","municipality":{"key":"08116081","name":"Aichtal, Stadt","type":"Stadt"},"district":{"key":"08116","name":"Esslingen","type":"Landkreis"},"federalState":{"key":"08","name":"Baden-Württemberg"}},{"name":"Lilienstr.","postalCode":"76703","locality":"Kraichtal","municipality":{"key":"08215097","name":"Kraichtal, Stadt","type":"Stadt"},"district":{"key":"08215","name":"Karlsruhe","type":"Landkreis"},"federalState":{"key":"08","name":"Baden-Württemberg"}},{"name":"Lilienweg","postalCode":"72631","locality":"Aichtal","municipality":{"key":"08116081","name":"Aichtal, Stadt","type":"Stadt"},"district":{"key":"08116","name":"Esslingen","type":"Landkreis"},"federalState":{"key":"08","name":"Baden-Württemberg"}},{"name":"Lindenstr.","postalCode":"72631","locality":"Aichtal","municipality":{"key":"08116081","name":"Aichtal, Stadt","type":"Stadt"},"district":{"key":"08116","name":"Esslingen","type":"Landkreis"},"federalState":{"key":"08","name":"Baden-Württemberg"}},{"name":"Lönsstr.","postalCode":"72631","locality":"Aichtal","municipality":{"key":"08116081","name":"Aichtal, Stadt","type":"Stadt"},"district":{"key":"08116","name":"Esslingen","type":"Landkreis"},"federalState":{"key":"08","name":"Baden-Württemberg"}},{"name":"Luisenstr.","postalCode":"76703","locality":"Kraichtal","municipality":{"key":"08215097","name":"Kraichtal, Stadt","type":"Stadt"},"district":{"key":"08215","name":"Karlsruhe","type":"Landkreis"},"federalState":{"key":"08","name":"Baden-Württemberg"}},{"name":"Maienweg","postalCode":"72631","locality":"Aichtal","municipality":{"key":"08116081","name":"Aichtal, Stadt","type":"Stadt"},"district":{"key":"08116","name":"Esslingen","type":"Landkreis"},"federalState":{"key":"08","name":"Baden-Württemberg"}},{"name":"Malagstr.","postalCode":"76703","locality":"Kraichtal","municipality":{"key":"08215097","name":"Kraichtal, Stadt","type":"Stadt"},"district":{"key":"08215","name":"Karlsruhe","type":"Landkreis"},"federalState":{"key":"08","name":"Baden-Württemberg"}},{"name":"Markgrafenring","postalCode":"76703","locality":"Kraichtal","municipality":{"key":"08215097","name":"Kraichtal, Stadt","type":"Stadt"},"district":{"key":"08215","name":"Karlsruhe","type":"Landkreis"},"federalState":{"key":"08","name":"Baden-Württemberg"}},{"name":"Martin-Luther-Str.","postalCode":"76703","locality":"Kraichtal","municipality":{"key":"08215097","name":"Kraichtal, Stadt","type":"Stadt"},"district":{"key":"08215","name":"Karlsruhe","type":"Landkreis"},"federalState":{"key":"08","name":"Baden-Württemberg"}},{"name":"Mathildenweg","postalCode":"76703","locality":"Kraichtal","municipality":{"key":"08215097","name":"Kraichtal, Stadt","type":"Stadt"},"district":{"key":"08215","name":"Karlsruhe","type":"Landkreis"},"federalState":{"key":"08","name":"Baden-Württemberg"}},{"name":"Mauerstr.","postalCode":"72631","locality":"Aichtal","municipality":{"key":"08116081","name":"Aichtal, Stadt","type":"Stadt"},"district":{"key":"08116","name":"Esslingen","type":"Landkreis"},"federalState":{"key":"08","name":"Baden-Württemberg"}},{"name":"Max-Planck-Str.","postalCode":"72631","locality":"Aichtal","municipality":{"key":"08116081","name":"Aichtal, Stadt","type":"Stadt"},"district":{"key":"08116","name":"Esslingen","type":"Landkreis"},"federalState":{"key":"08","name":"Baden-Württemberg"}},{"name":"Meisenweg","postalCode":"72631","locality":"Aichtal","municipality":{"key":"08116081","name":"Aichtal, Stadt","type":"Stadt"},"district":{"key":"08116","name":"Esslingen","type":"Landkreis"},"federalState":{"key":"08","name":"Baden-Württemberg"}},{"name":"Menzinger Str.","postalCode":"76703","locality":"Kraichtal","municipality":{"key":"08215097","name":"Kraichtal, Stadt","type":"Stadt"},"district":{"key":"08215","name":"Karlsruhe","type":"Landkreis"},"federalState":{"key":"08","name":"Baden-Württemberg"}},{"name":"Michaelstr.","postalCode":"76703","locality":"Kraichtal","municipality":{"key":"08215097","name":"Kraichtal, Stadt","type":"Stadt"},"district":{"key":"08215","name":"Karlsruhe","type":"Landkreis"},"federalState":{"key":"08","name":"Baden-Württemberg"}},{"name":"Mittelstr.","postalCode":"76703","locality":"Kraichtal","municipality":{"key":"08215097","name":"Kraichtal, Stadt","type":"Stadt"},"district":{"key":"08215","name":"Karlsruhe","type":"Landkreis"},"federalState":{"key":"08","name":"Baden-Württemberg"}},{"name":"Mönchbuckelweg","postalCode":"72631","locality":"Aichtal","municipality":{"key":"08116081","name":"Aichtal, Stadt","type":"Stadt"},"district":{"key":"08116","name":"Esslingen","type":"Landkreis"},"federalState":{"key":"08","name":"Baden-Württemberg"}},{"name":"Mönchstr.","postalCode":"76703","locality":"Kraichtal","municipality":{"key":"08215097","name":"Kraichtal, Stadt","type":"Stadt"},"district":{"key":"08215","name":"Karlsruhe","type":"Landkreis"},"federalState":{"key":"08","name":"Baden-Württemberg"}},{"name":"Mönchsweg","postalCode":"76703","locality":"Kraichtal","municipality":{"key":"08215097","name":"Kraichtal, Stadt","type":"Stadt"},"district":{"key":"08215","name":"Karlsruhe","type":"Landkreis"},"federalState":{"key":"08","name":"Baden-Württemberg"}},{"name":"Mozartstr.","postalCode":"72631","locality":"Aichtal","municipality":{"key":"08116081","name":"Aichtal, Stadt","type":"Stadt"},"district":{"key":"08116","name":"Esslingen","type":"Landkreis"},"federalState":{"key":"08","name":"Baden-Württemberg"}},{"name":"Mozartstr.","postalCode":"76703","locality":"Kraichtal","municipality":{"key":"08215097","name":"Kraichtal, Stadt","type":"Stadt"},"district":{"key":"08215","name":"Karlsruhe","type":"Landkreis"},"federalState":{"key":"08","name":"Baden-Württemberg"}},{"name":"Mühlgässle","postalCode":"72631","locality":"Aichtal","municipality":{"key":"08116081","name":"Aichtal, Stadt","type":"Stadt"},"district":{"key":"08116","name":"Esslingen","type":"Landkreis"},"federalState":{"key":"08","name":"Baden-Württemberg"}},{"name":"Mühlstetten","postalCode":"72631","locality":"Aichtal","municipality":{"key":"08116081","name":"Aichtal, Stadt","type":"Stadt"},"district":{"key":"08116","name":"Esslingen","type":"Landkreis"},"federalState":{"key":"08","name":"Baden-Württemberg"}},{"name":"Mühlwaldweg","postalCode":"76703","locality":"Kraichtal","municipality":{"key":"08215097","name":"Kraichtal, Stadt","type":"Stadt"},"district":{"key":"08215","name":"Karlsruhe","type":"Landkreis"},"federalState":{"key":"08","name":"Baden-Württemberg"}},{"name":"Mühlwaldweg 1","postalCode":"76703","locality":"Kraichtal","municipality":{"key":"08215097","name":"Kraichtal, Stadt","type":"Stadt"},"district":{"key":"08215","name":"Karlsruhe","type":"Landkreis"},"federalState":{"key":"08","name":"Baden-Württemberg"}},{"name":"Mühlweg","postalCode":"76703","locality":"Kraichtal","municipality":{"key":"08215097","name":"Kraichtal, Stadt","type":"Stadt"},"district":{"key":"08215","name":"Karlsruhe","type":"Landkreis"},"federalState":{"key":"08","name":"Baden-Württemberg"}},{"name":"Müller-Thurgau-Ring","postalCode":"76703","locality":"Kraichtal","municipality":{"key":"08215097","name":"Kraichtal, Stadt","type":"Stadt"},"district":{"key":"08215","name":"Karlsruhe","type":"Landkreis"},"federalState":{"key":"08","name":"Baden-Württemberg"}},{"name":"Neckartailfinger Str.","postalCode":"72631","locality":"Aichtal","municipality":{"key":"08116081","name":"Aichtal, Stadt","type":"Stadt"},"district":{"key":"08116","name":"Esslingen","type":"Landkreis"},"federalState":{"key":"08","name":"Baden-Württemberg"}},{"name":"Nelkenstr.","postalCode":"72631","locality":"Aichtal","municipality":{"key":"08116081","name":"Aichtal, Stadt","type":"Stadt"},"district":{"key":"08116","name":"Esslingen","type":"Landkreis"},"federalState":{"key":"08","name":"Baden-Württemberg"}},{"name":"Nelkenstr.","postalCode":"76703","locality":"Kraichtal","municipality":{"key":"08215097","name":"Kraichtal, Stadt","type":"Stadt"},"district":{"key":"08215","name":"Karlsruhe","type":"Landkreis"},"federalState":{"key":"08","name":"Baden-Württemberg"}},{"name":"Nelly-Sachs-Str.","postalCode":"72631","locality":"Aichtal","municipality":{"key":"08116081","name":"Aichtal, Stadt","type":"Stadt"},"district":{"key":"08116","name":"Esslingen","type":"Landkreis"},"federalState":{"key":"08","name":"Baden-Württemberg"}},{"name":"Neubronnensteige","postalCode":"72631","locality":"Aichtal","municipality":{"key":"08116081","name":"Aichtal, Stadt","type":"Stadt"},"district":{"key":"08116","name":"Esslingen","type":"Landkreis"},"federalState":{"key":"08","name":"Baden-Württemberg"}},{"name":"Neuenwegstr.","postalCode":"76703","locality":"Kraichtal","municipality":{"key":"08215097","name":"Kraichtal, Stadt","type":"Stadt"},"district":{"key":"08215","name":"Karlsruhe","type":"Landkreis"},"federalState":{"key":"08","name":"Baden-Württemberg"}},{"name":"Neuhäuserwandsträßchen","postalCode":"72631","locality":"Aichtal","municipality":{"key":"08116081","name":"Aichtal, Stadt","type":"Stadt"},"district":{"key":"08116","name":"Esslingen","type":"Landkreis"},"federalState":{"key":"08","name":"Baden-Württemberg"}},{"name":"Niwenburgstr.","postalCode":"76703","locality":"Kraichtal","municipality":{"key":"08215097","name":"Kraichtal, Stadt","type":"Stadt"},"district":{"key":"08215","name":"Karlsruhe","type":"Landkreis"},"federalState":{"key":"08","name":"Baden-Württemberg"}},{"name":"Nordring","postalCode":"76703","locality":"Kraichtal","municipality":{"key":"08215097","name":"Kraichtal, Stadt","type":"Stadt"},"district":{"key":"08215","name":"Karlsruhe","type":"Landkreis"},"federalState":{"key":"08","name":"Baden-Württemberg"}},{"name":"Nürtinger Str.","postalCode":"72631","locality":"Aichtal","municipality":{"key":"08116081","name":"Aichtal, Stadt","type":"Stadt"},"district":{"key":"08116","name":"Esslingen","type":"Landkreis"},"federalState":{"key":"08","name":"Baden-Württemberg"}},{"name":"Nusshölzle","postalCode":"76703","locality":"Kraichtal","municipality":{"key":"08215097","name":"Kraichtal, Stadt","type":"Stadt"},"district":{"key":"08215","name":"Karlsruhe","type":"Landkreis"},"federalState":{"key":"08","name":"Baden-Württemberg"}},{"name":"Oberdorfstr.","postalCode":"76703","locality":"Kraichtal","municipality":{"key":"08215097","name":"Kraichtal, Stadt","type":"Stadt"},"district":{"key":"08215","name":"Karlsruhe","type":"Landkreis"},"federalState":{"key":"08","name":"Baden-Württemberg"}},{"name":"Obere Bergstr.","postalCode":"76703","locality":"Kraichtal","municipality":{"key":"08215097","name":"Kraichtal, Stadt","type":"Stadt"},"district":{"key":"08215","name":"Karlsruhe","type":"Landkreis"},"federalState":{"key":"08","name":"Baden-Württemberg"}},{"name":"Obere Hofstadt","postalCode":"76703","locality":"Kraichtal","municipality":{"key":"08215097","name":"Kraichtal, Stadt","type":"Stadt"},"district":{"key":"08215","name":"Karlsruhe","type":"Landkreis"},"federalState":{"key":"08","name":"Baden-Württemberg"}},{"name":"Obere Schloßstr.","postalCode":"76703","locality":"Kraichtal","municipality":{"key":"08215097","name":"Kraichtal, Stadt","type":"Stadt"},"district":{"key":"08215","name":"Karlsruhe","type":"Landkreis"},"federalState":{"key":"08","name":"Baden-Württemberg"}},{"name":"Obere Torstr.","postalCode":"76703","locality":"Kraichtal","municipality":{"key":"08215097","name":"Kraichtal, Stadt","type":"Stadt"},"district":{"key":"08215","name":"Karlsruhe","type":"Landkreis"},"federalState":{"key":"08","name":"Baden-Württemberg"}},{"name":"Odenwaldstr.","postalCode":"76703","locality":"Kraichtal","municipality":{"key":"08215097","name":"Kraichtal, Stadt","type":"Stadt"},"district":{"key":"08215","name":"Karlsruhe","type":"Landkreis"},"federalState":{"key":"08","name":"Baden-Württemberg"}},{"name":"Oelbergstr.","postalCode":"76703","locality":"Kraichtal","municipality":{"key":"08215097","name":"Kraichtal, Stadt","type":"Stadt"},"district":{"key":"08215","name":"Karlsruhe","type":"Landkreis"},"federalState":{"key":"08","name":"Baden-Württemberg"}},{"name":"Ortenaustr.","postalCode":"76703","locality":"Kraichtal","municipality":{"key":"08215097","name":"Kraichtal, Stadt","type":"Stadt"},"district":{"key":"08215","name":"Karlsruhe","type":"Landkreis"},"federalState":{"key":"08","name":"Baden-Württemberg"}},{"name":"Otto-Dix-Str.","postalCode":"72631","locality":"Aichtal","municipality":{"key":"08116081","name":"Aichtal, Stadt","type":"Stadt"},"district":{"key":"08116","name":"Esslingen","type":"Landkreis"},"federalState":{"key":"08","name":"Baden-Württemberg"}},{"name":"Otto-Schuster-Str.","postalCode":"72631","locality":"Aichtal","municipality":{"key":"08116081","name":"Aichtal, Stadt","type":"Stadt"},"district":{"key":"08116","name":"Esslingen","type":"Landkreis"},"federalState":{"key":"08","name":"Baden-Württemberg"}},{"name":"Panoramastr.","postalCode":"72631","locality":"Aichtal","municipality":{"key":"08116081","name":"Aichtal, Stadt","type":"Stadt"},"district":{"key":"08116","name":"Esslingen","type":"Landkreis"},"federalState":{"key":"08","name":"Baden-Württemberg"}},{"name":"Paradiesstr.","postalCode":"72631","locality":"Aichtal","municipality":{"key":"08116081","name":"Aichtal, Stadt","type":"Stadt"},"district":{"key":"08116","name":"Esslingen","type":"Landkreis"},"federalState":{"key":"08","name":"Baden-Württemberg"}},{"name":"Parkstr.","postalCode":"76703","locality":"Kraichtal","municipality":{"key":"08215097","name":"Kraichtal, Stadt","type":"Stadt"},"district":{"key":"08215","name":"Karlsruhe","type":"Landkreis"},"federalState":{"key":"08","name":"Baden-Württemberg"}},{"name":"Paul-Gerhardt-Str.","postalCode":"76703","locality":"Kraichtal","municipality":{"key":"08215097","name":"Kraichtal, Stadt","type":"Stadt"},"district":{"key":"08215","name":"Karlsruhe","type":"Landkreis"},"federalState":{"key":"08","name":"Baden-Württemberg"}},{"name":"Paul-Klee-Str.","postalCode":"72631","locality":"Aichtal","municipality":{"key":"08116081","name":"Aichtal, Stadt","type":"Stadt"},"district":{"key":"08116","name":"Esslingen","type":"Landkreis"},"federalState":{"key":"08","name":"Baden-Württemberg"}},{"name":"Peter-Parler-Str.","postalCode":"76703","locality":"Kraichtal","municipality":{"key":"08215097","name":"Kraichtal, Stadt","type":"Stadt"},"district":{"key":"08215","name":"Karlsruhe","type":"Landkreis"},"federalState":{"key":"08","name":"Baden-Württemberg"}},{"name":"Pfalzstr.","postalCode":"72631","locality":"Aichtal","municipality":{"key":"08116081","name":"Aichtal, Stadt","type":"Stadt"},"district":{"key":"08116","name":"Esslingen","type":"Landkreis"},"federalState":{"key":"08","name":"Baden-Württemberg"}},{"name":"Pfarrgarten","postalCode":"72631","locality":"Aichtal","municipality":{"key":"08116081","name":"Aichtal, Stadt","type":"Stadt"},"district":{"key":"08116","name":"Esslingen","type":"Landkreis"},"federalState":{"key":"08","name":"Baden-Württemberg"}},{"name":"Pfarrgasse","postalCode":"76703","locality":"Kraichtal","municipality":{"key":"08215097","name":"Kraichtal, Stadt","type":"Stadt"},"district":{"key":"08215","name":"Karlsruhe","type":"Landkreis"},"federalState":{"key":"08","name":"Baden-Württemberg"}},{"name":"Pfinzgauweg","postalCode":"76703","locality":"Kraichtal","municipality":{"key":"08215097","name":"Kraichtal, Stadt","type":"Stadt"},"district":{"key":"08215","name":"Karlsruhe","type":"Landkreis"},"federalState":{"key":"08","name":"Baden-Württemberg"}},{"name":"Pforzheimer Str.","postalCode":"76703","locality":"Kraichtal","municipality":{"key":"08215097","name":"Kraichtal, Stadt","type":"Stadt"},"district":{"key":"08215","name":"Karlsruhe","type":"Landkreis"},"federalState":{"key":"08","name":"Baden-Württemberg"}},{"name":"Planstr.","postalCode":"76703","locality":"Kraichtal","municipality":{"key":"08215097","name":"Kraichtal, Stadt","type":"Stadt"},"district":{"key":"08215","name":"Karlsruhe","type":"Landkreis"},"federalState":{"key":"08","name":"Baden-Württemberg"}},{"name":"Portugieserweg","postalCode":"76703","locality":"Kraichtal","municipality":{"key":"08215097","name":"Kraichtal, Stadt","type":"Stadt"},"district":{"key":"08215","name":"Karlsruhe","type":"Landkreis"},"federalState":{"key":"08","name":"Baden-Württemberg"}},{"name":"Primelweg","postalCode":"72631","locality":"Aichtal","municipality":{"key":"08116081","name":"Aichtal, Stadt","type":"Stadt"},"district":{"key":"08116","name":"Esslingen","type":"Landkreis"},"federalState":{"key":"08","name":"Baden-Württemberg"}},{"name":"Professor-Hubbuch-Str.","postalCode":"76703","locality":"Kraichtal","municipality":{"key":"08215097","name":"Kraichtal, Stadt","type":"Stadt"},"district":{"key":"08215","name":"Karlsruhe","type":"Landkreis"},"federalState":{"key":"08","name":"Baden-Württemberg"}},{"name":"Prof.-Hubbuch-Str.","postalCode":"76703","locality":"Kraichtal","municipality":{"key":"08215097","name":"Kraichtal, Stadt","type":"Stadt"},"district":{"key":"08215","name":"Karlsruhe","type":"Landkreis"},"federalState":{"key":"08","name":"Baden-Württemberg"}},{"name":"Quittenweg","postalCode":"73733","locality":"Esslingen am Neckar","municipality":{"key":"08116019","name":"Esslingen am Neckar, Stadt","type":"Große_Kreisstadt"},"district":{"key":"08116","name":"Esslingen","type":"Landkreis"},"federalState":{"key":"08","name":"Baden-Württemberg"}},{"name":"Raiffeisenstr.","postalCode":"72631","locality":"Aichtal","municipality":{"key":"08116081","name":"Aichtal, Stadt","type":"Stadt"},"district":{"key":"08116","name":"Esslingen","type":"Landkreis"},"federalState":{"key":"08","name":"Baden-Württemberg"}},{"name":"Raiffeisenstr.","postalCode":"76703","locality":"Kraichtal","municipality":{"key":"08215097","name":"Kraichtal, Stadt","type":"Stadt"},"district":{"key":"08215","name":"Karlsruhe","type":"Landkreis"},"federalState":{"key":"08","name":"Baden-Württemberg"}},{"name":"Rathausgasse","postalCode":"72631","locality":"Aichtal","municipality":{"key":"08116081","name":"Aichtal, Stadt","type":"Stadt"},"district":{"key":"08116","name":"Esslingen","type":"Landkreis"},"federalState":{"key":"08","name":"Baden-Württemberg"}},{"name":"Rathausstr.","postalCode":"76703","locality":"Kraichtal","municipality":{"key":"08215097","name":"Kraichtal, Stadt","type":"Stadt"},"district":{"key":"08215","name":"Karlsruhe","type":"Landkreis"},"federalState":{"key":"08","name":"Baden-Württemberg"}},{"name":"Rauchberg","postalCode":"76703","locality":"Kraichtal","municipality":{"key":"08215097","name":"Kraichtal, Stadt","type":"Stadt"},"district":{"key":"08215","name":"Karlsruhe","type":"Landkreis"},"federalState":{"key":"08","name":"Baden-Württemberg"}},{"name":"Rechbergstr.","postalCode":"72631","locality":"Aichtal","municipality":{"key":"08116081","name":"Aichtal, Stadt","type":"Stadt"},"district":{"key":"08116","name":"Esslingen","type":"Landkreis"},"federalState":{"key":"08","name":"Baden-Württemberg"}},{"name":"Reußensteinstr.","postalCode":"72631","locality":"Aichtal","municipality":{"key":"08116081","name":"Aichtal, Stadt","type":"Stadt"},"district":{"key":"08116","name":"Esslingen","type":"Landkreis"},"federalState":{"key":"08","name":"Baden-Württemberg"}},{"name":"Reute","postalCode":"72631","locality":"Aichtal","municipality":{"key":"08116081","name":"Aichtal, Stadt","type":"Stadt"},"district":{"key":"08116","name":"Esslingen","type":"Landkreis"},"federalState":{"key":"08","name":"Baden-Württemberg"}},{"name":"Reutwaldallee","postalCode":"76703","locality":"Kraichtal","municipality":{"key":"08215097","name":"Kraichtal, Stadt","type":"Stadt"},"district":{"key":"08215","name":"Karlsruhe","type":"Landkreis"},"federalState":{"key":"08","name":"Baden-Württemberg"}},{"name":"Reutwaldweg","postalCode":"76703","locality":"Kraichtal","municipality":{"key":"08215097","name":"Kraichtal, Stadt","type":"Stadt"},"district":{"key":"08215","name":"Karlsruhe","type":"Landkreis"},"federalState":{"key":"08","name":"Baden-Württemberg"}},{"name":"Riegelgartenstr.","postalCode":"76703","locality":"Kraichtal","municipality":{"key":"08215097","name":"Kraichtal, Stadt","type":"Stadt"},"district":{"key":"08215","name":"Karlsruhe","type":"Landkreis"},"federalState":{"key":"08","name":"Baden-Württemberg"}},{"name":"Rieslingstr.","postalCode":"76703","locality":"Kraichtal","municipality":{"key":"08215097","name":"Kraichtal, Stadt","type":"Stadt"},"district":{"key":"08215","name":"Karlsruhe","type":"Landkreis"},"federalState":{"key":"08","name":"Baden-Württemberg"}},{"name":"Ringstr.","postalCode":"76703","locality":"Kraichtal","municipality":{"key":"08215097","name":"Kraichtal, Stadt","type":"Stadt"},"district":{"key":"08215","name":"Karlsruhe","type":"Landkreis"},"federalState":{"key":"08","name":"Baden-Württemberg"}},{"name":"Rohrplattenweg","postalCode":"72631","locality":"Aichtal","municipality":{"key":"08116081","name":"Aichtal, Stadt","type":"Stadt"},"district":{"key":"08116","name":"Esslingen","type":"Landkreis"},"federalState":{"key":"08","name":"Baden-Württemberg"}},{"name":"Rosenstr.","postalCode":"72631","locality":"Aichtal","municipality":{"key":"08116081","name":"Aichtal, Stadt","type":"Stadt"},"district":{"key":"08116","name":"Esslingen","type":"Landkreis"},"federalState":{"key":"08","name":"Baden-Württemberg"}},{"name":"Rosenstr.","postalCode":"76703","locality":"Kraichtal","municipality":{"key":"08215097","name":"Kraichtal, Stadt","type":"Stadt"},"district":{"key":"08215","name":"Karlsruhe","type":"Landkreis"},"federalState":{"key":"08","name":"Baden-Württemberg"}},{"name":"Roßbergstr.","postalCode":"72631","locality":"Aichtal","municipality":{"key":"08116081","name":"Aichtal, Stadt","type":"Stadt"},"district":{"key":"08116","name":"Esslingen","type":"Landkreis"},"federalState":{"key":"08","name":"Baden-Württemberg"}},{"name":"Rudolf-Herzer-Platz","postalCode":"76703","locality":"Kraichtal","municipality":{"key":"08215097","name":"Kraichtal, Stadt","type":"Stadt"},"district":{"key":"08215","name":"Karlsruhe","type":"Landkreis"},"federalState":{"key":"08","name":"Baden-Württemberg"}},{"name":"Rudolfweg","postalCode":"76703","locality":"Kraichtal","municipality":{"key":"08215097","name":"Kraichtal, Stadt","type":"Stadt"},"district":{"key":"08215","name":"Karlsruhe","type":"Landkreis"},"federalState":{"key":"08","name":"Baden-Württemberg"}},{"name":"Ruländerstr.","postalCode":"76703","locality":"Kraichtal","municipality":{"key":"08215097","name":"Kraichtal, Stadt","type":"Stadt"},"district":{"key":"08215","name":"Karlsruhe","type":"Landkreis"},"federalState":{"key":"08","name":"Baden-Württemberg"}},{"name":"Sackweg","postalCode":"76703","locality":"Kraichtal","municipality":{"key":"08215097","name":"Kraichtal, Stadt","type":"Stadt"},"district":{"key":"08215","name":"Karlsruhe","type":"Landkreis"},"federalState":{"key":"08","name":"Baden-Württemberg"}},{"name":"Salzerlenweg","postalCode":"72631","locality":"Aichtal","municipality":{"key":"08116081","name":"Aichtal, Stadt","type":"Stadt"},"district":{"key":"08116","name":"Esslingen","type":"Landkreis"},"federalState":{"key":"08","name":"Baden-Württemberg"}},{"name":"Sandäckerweg","postalCode":"72631","locality":"Aichtal","municipality":{"key":"08116081","name":"Aichtal, Stadt","type":"Stadt"},"district":{"key":"08116","name":"Esslingen","type":"Landkreis"},"federalState":{"key":"08","name":"Baden-Württemberg"}},{"name":"Saufangsträßle","postalCode":"72631","locality":"Aichtal","municipality":{"key":"08116081","name":"Aichtal, Stadt","type":"Stadt"},"district":{"key":"08116","name":"Esslingen","type":"Landkreis"},"federalState":{"key":"08","name":"Baden-Württemberg"}},{"name":"Saulachsträßchen","postalCode":"72631","locality":"Aichtal","municipality":{"key":"08116081","name":"Aichtal, Stadt","type":"Stadt"},"district":{"key":"08116","name":"Esslingen","type":"Landkreis"},"federalState":{"key":"08","name":"Baden-Württemberg"}},{"name":"Sauterstr.","postalCode":"76703","locality":"Kraichtal","municipality":{"key":"08215097","name":"Kraichtal, Stadt","type":"Stadt"},"district":{"key":"08215","name":"Karlsruhe","type":"Landkreis"},"federalState":{"key":"08","name":"Baden-Württemberg"}},{"name":"Schachenallee","postalCode":"72631","locality":"Aichtal","municipality":{"key":"08116081","name":"Aichtal, Stadt","type":"Stadt"},"district":{"key":"08116","name":"Esslingen","type":"Landkreis"},"federalState":{"key":"08","name":"Baden-Württemberg"}},{"name":"Schaichbergstr.","postalCode":"72631","locality":"Aichtal","municipality":{"key":"08116081","name":"Aichtal, Stadt","type":"Stadt"},"district":{"key":"08116","name":"Esslingen","type":"Landkreis"},"federalState":{"key":"08","name":"Baden-Württemberg"}},{"name":"Schaichbergsträßle","postalCode":"72631","locality":"Aichtal","municipality":{"key":"08116081","name":"Aichtal, Stadt","type":"Stadt"},"district":{"key":"08116","name":"Esslingen","type":"Landkreis"},"federalState":{"key":"08","name":"Baden-Württemberg"}},{"name":"Schaicherfeld","postalCode":"72631","locality":"Aichtal","municipality":{"key":"08116081","name":"Aichtal, Stadt","type":"Stadt"},"district":{"key":"08116","name":"Esslingen","type":"Landkreis"},"federalState":{"key":"08","name":"Baden-Württemberg"}},{"name":"Schaichstr.","postalCode":"72631","locality":"Aichtal","municipality":{"key":"08116081","name":"Aichtal, Stadt","type":"Stadt"},"district":{"key":"08116","name":"Esslingen","type":"Landkreis"},"federalState":{"key":"08","name":"Baden-Württemberg"}},{"name":"Schaichtalweg","postalCode":"72631","locality":"Aichtal","municipality":{"key":"08116081","name":"Aichtal, Stadt","type":"Stadt"},"district":{"key":"08116","name":"Esslingen","type":"Landkreis"},"federalState":{"key":"08","name":"Baden-Württemberg"}},{"name":"Scheerwässere","postalCode":"72631","locality":"Aichtal","municipality":{"key":"08116081","name":"Aichtal, Stadt","type":"Stadt"},"district":{"key":"08116","name":"Esslingen","type":"Landkreis"},"federalState":{"key":"08","name":"Baden-Württemberg"}},{"name":"Scheffelstr.","postalCode":"72631","locality":"Aichtal","municipality":{"key":"08116081","name":"Aichtal, Stadt","type":"Stadt"},"district":{"key":"08116","name":"Esslingen","type":"Landkreis"},"federalState":{"key":"08","name":"Baden-Württemberg"}},{"name":"Schellingstr.","postalCode":"72631","locality":"Aichtal","municipality":{"key":"08116081","name":"Aichtal, Stadt","type":"Stadt"},"district":{"key":"08116","name":"Esslingen","type":"Landkreis"},"federalState":{"key":"08","name":"Baden-Württemberg"}},{"name":"Schillerstr.","postalCode":"72631","locality":"Aichtal","municipality":{"key":"08116081","name":"Aichtal, Stadt","type":"Stadt"},"district":{"key":"08116","name":"Esslingen","type":"Landkreis"},"federalState":{"key":"08","name":"Baden-Württemberg"}},{"name":"Schillerstr.","postalCode":"76703","locality":"Kraichtal","municipality":{"key":"08215097","name":"Kraichtal, Stadt","type":"Stadt"},"district":{"key":"08215","name":"Karlsruhe","type":"Landkreis"},"federalState":{"key":"08","name":"Baden-Württemberg"}},{"name":"Schlaitdorfer Weg","postalCode":"72631","locality":"Aichtal","municipality":{"key":"08116081","name":"Aichtal, Stadt","type":"Stadt"},"district":{"key":"08116","name":"Esslingen","type":"Landkreis"},"federalState":{"key":"08","name":"Baden-Württemberg"}},{"name":"Schmale Str.","postalCode":"72631","locality":"Aichtal","municipality":{"key":"08116081","name":"Aichtal, Stadt","type":"Stadt"},"district":{"key":"08116","name":"Esslingen","type":"Landkreis"},"federalState":{"key":"08","name":"Baden-Württemberg"}},{"name":"Schmiedweg","postalCode":"72631","locality":"Aichtal","municipality":{"key":"08116081","name":"Aichtal, Stadt","type":"Stadt"},"district":{"key":"08116","name":"Esslingen","type":"Landkreis"},"federalState":{"key":"08","name":"Baden-Württemberg"}},{"name":"Schönaicher Str.","postalCode":"72631","locality":"Aichtal","municipality":{"key":"08116081","name":"Aichtal, Stadt","type":"Stadt"},"district":{"key":"08116","name":"Esslingen","type":"Landkreis"},"federalState":{"key":"08","name":"Baden-Württemberg"}},{"name":"Schönbuchstr.","postalCode":"72631","locality":"Aichtal","municipality":{"key":"08116081","name":"Aichtal, Stadt","type":"Stadt"},"district":{"key":"08116","name":"Esslingen","type":"Landkreis"},"federalState":{"key":"08","name":"Baden-Württemberg"}},{"name":"Schubertstr.","postalCode":"72631","locality":"Aichtal","municipality":{"key":"08116081","name":"Aichtal, Stadt","type":"Stadt"},"district":{"key":"08116","name":"Esslingen","type":"Landkreis"},"federalState":{"key":"08","name":"Baden-Württemberg"}},{"name":"Schubertstr.","postalCode":"76703","locality":"Kraichtal","municipality":{"key":"08215097","name":"Kraichtal, Stadt","type":"Stadt"},"district":{"key":"08215","name":"Karlsruhe","type":"Landkreis"},"federalState":{"key":"08","name":"Baden-Württemberg"}},{"name":"Schulberg","postalCode":"72631","locality":"Aichtal","municipality":{"key":"08116081","name":"Aichtal, Stadt","type":"Stadt"},"district":{"key":"08116","name":"Esslingen","type":"Landkreis"},"federalState":{"key":"08","name":"Baden-Württemberg"}},{"name":"Schulstr.","postalCode":"72631","locality":"Aichtal","municipality":{"key":"08116081","name":"Aichtal, Stadt","type":"Stadt"},"district":{"key":"08116","name":"Esslingen","type":"Landkreis"},"federalState":{"key":"08","name":"Baden-Württemberg"}},{"name":"Schulstr.","postalCode":"76703","locality":"Kraichtal","municipality":{"key":"08215097","name":"Kraichtal, Stadt","type":"Stadt"},"district":{"key":"08215","name":"Karlsruhe","type":"Landkreis"},"federalState":{"key":"08","name":"Baden-Württemberg"}},{"name":"Schwabstr.","postalCode":"72631","locality":"Aichtal","municipality":{"key":"08116081","name":"Aichtal, Stadt","type":"Stadt"},"district":{"key":"08116","name":"Esslingen","type":"Landkreis"},"federalState":{"key":"08","name":"Baden-Württemberg"}},{"name":"Schwalbenrain","postalCode":"76703","locality":"Kraichtal","municipality":{"key":"08215097","name":"Kraichtal, Stadt","type":"Stadt"},"district":{"key":"08215","name":"Karlsruhe","type":"Landkreis"},"federalState":{"key":"08","name":"Baden-Württemberg"}},{"name":"Schwarzwaldweg","postalCode":"76703","locality":"Kraichtal","municipality":{"key":"08215097","name":"Kraichtal, Stadt","type":"Stadt"},"district":{"key":"08215","name":"Karlsruhe","type":"Landkreis"},"federalState":{"key":"08","name":"Baden-Württemberg"}},{"name":"Schweizerstr.","postalCode":"76703","locality":"Kraichtal","municipality":{"key":"08215097","name":"Kraichtal, Stadt","type":"Stadt"},"district":{"key":"08215","name":"Karlsruhe","type":"Landkreis"},"federalState":{"key":"08","name":"Baden-Württemberg"}},{"name":"Seebergerteich","postalCode":"76703","locality":"Kraichtal","municipality":{"key":"08215097","name":"Kraichtal, Stadt","type":"Stadt"},"district":{"key":"08215","name":"Karlsruhe","type":"Landkreis"},"federalState":{"key":"08","name":"Baden-Württemberg"}},{"name":"Seestr.","postalCode":"72631","locality":"Aichtal","municipality":{"key":"08116081","name":"Aichtal, Stadt","type":"Stadt"},"district":{"key":"08116","name":"Esslingen","type":"Landkreis"},"federalState":{"key":"08","name":"Baden-Württemberg"}},{"name":"Seestr.","postalCode":"76703","locality":"Kraichtal","municipality":{"key":"08215097","name":"Kraichtal, Stadt","type":"Stadt"},"district":{"key":"08215","name":"Karlsruhe","type":"Landkreis"},"federalState":{"key":"08","name":"Baden-Württemberg"}},{"name":"Sickinger Str.","postalCode":"76703","locality":"Kraichtal","municipality":{"key":"08215097","name":"Kraichtal, Stadt","type":"Stadt"},"district":{"key":"08215","name":"Karlsruhe","type":"Landkreis"},"federalState":{"key":"08","name":"Baden-Württemberg"}},{"name":"Siebenbuchenwasensträßchen","postalCode":"72631","locality":"Aichtal","municipality":{"key":"08116081","name":"Aichtal, Stadt","type":"Stadt"},"district":{"key":"08116","name":"Esslingen","type":"Landkreis"},"federalState":{"key":"08","name":"Baden-Württemberg"}},{"name":"Siecherstr.","postalCode":"76703","locality":"Kraichtal","municipality":{"key":"08215097","name":"Kraichtal, Stadt","type":"Stadt"},"district":{"key":"08215","name":"Karlsruhe","type":"Landkreis"},"federalState":{"key":"08","name":"Baden-Württemberg"}},{"name":"Siedlungsstr.","postalCode":"76703","locality":"Kraichtal","municipality":{"key":"08215097","name":"Kraichtal, Stadt","type":"Stadt"},"district":{"key":"08215","name":"Karlsruhe","type":"Landkreis"},"federalState":{"key":"08","name":"Baden-Württemberg"}},{"name":"Silcherstr.","postalCode":"72631","locality":"Aichtal","municipality":{"key":"08116081","name":"Aichtal, Stadt","type":"Stadt"},"district":{"key":"08116","name":"Esslingen","type":"Landkreis"},"federalState":{"key":"08","name":"Baden-Württemberg"}},{"name":"Sittelshegenstr.","postalCode":"76703","locality":"Kraichtal","municipality":{"key":"08215097","name":"Kraichtal, Stadt","type":"Stadt"},"district":{"key":"08215","name":"Karlsruhe","type":"Landkreis"},"federalState":{"key":"08","name":"Baden-Württemberg"}},{"name":"Sommerrain","postalCode":"72631","locality":"Aichtal","municipality":{"key":"08116081","name":"Aichtal, Stadt","type":"Stadt"},"district":{"key":"08116","name":"Esslingen","type":"Landkreis"},"federalState":{"key":"08","name":"Baden-Württemberg"}},{"name":"Sonnenbergstr.","postalCode":"72631","locality":"Aichtal","municipality":{"key":"08116081","name":"Aichtal, Stadt","type":"Stadt"},"district":{"key":"08116","name":"Esslingen","type":"Landkreis"},"federalState":{"key":"08","name":"Baden-Württemberg"}},{"name":"Sonnenblumenweg","postalCode":"72631","locality":"Aichtal","municipality":{"key":"08116081","name":"Aichtal, Stadt","type":"Stadt"},"district":{"key":"08116","name":"Esslingen","type":"Landkreis"},"federalState":{"key":"08","name":"Baden-Württemberg"}},{"name":"Sonnenstr.","postalCode":"76703","locality":"Kraichtal","municipality":{"key":"08215097","name":"Kraichtal, Stadt","type":"Stadt"},"district":{"key":"08215","name":"Karlsruhe","type":"Landkreis"},"federalState":{"key":"08","name":"Baden-Württemberg"}},{"name":"Sophienstr.","postalCode":"76703","locality":"Kraichtal","municipality":{"key":"08215097","name":"Kraichtal, Stadt","type":"Stadt"},"district":{"key":"08215","name":"Karlsruhe","type":"Landkreis"},"federalState":{"key":"08","name":"Baden-Württemberg"}},{"name":"Staarenbergstr.","postalCode":"76703","locality":"Kraichtal","municipality":{"key":"08215097","name":"Kraichtal, Stadt","type":"Stadt"},"district":{"key":"08215","name":"Karlsruhe","type":"Landkreis"},"federalState":{"key":"08","name":"Baden-Württemberg"}},{"name":"Staufenstr.","postalCode":"72631","locality":"Aichtal","municipality":{"key":"08116081","name":"Aichtal, Stadt","type":"Stadt"},"district":{"key":"08116","name":"Esslingen","type":"Landkreis"},"federalState":{"key":"08","name":"Baden-Württemberg"}},{"name":"Steinenäcker","postalCode":"72631","locality":"Aichtal","municipality":{"key":"08116081","name":"Aichtal, Stadt","type":"Stadt"},"district":{"key":"08116","name":"Esslingen","type":"Landkreis"},"federalState":{"key":"08","name":"Baden-Württemberg"}},{"name":"Steinweg","postalCode":"72631","locality":"Aichtal","municipality":{"key":"08116081","name":"Aichtal, Stadt","type":"Stadt"},"district":{"key":"08116","name":"Esslingen","type":"Landkreis"},"federalState":{"key":"08","name":"Baden-Württemberg"}},{"name":"Steinweg","postalCode":"76703","locality":"Kraichtal","municipality":{"key":"08215097","name":"Kraichtal, Stadt","type":"Stadt"},"district":{"key":"08215","name":"Karlsruhe","type":"Landkreis"},"federalState":{"key":"08","name":"Baden-Württemberg"}},{"name":"Talstr.","postalCode":"72631","locality":"Aichtal","municipality":{"key":"08116081","name":"Aichtal, Stadt","type":"Stadt"},"district":{"key":"08116","name":"Esslingen","type":"Landkreis"},"federalState":{"key":"08","name":"Baden-Württemberg"}},{"name":"Talstr.","postalCode":"76703","locality":"Kraichtal","municipality":{"key":"08215097","name":"Kraichtal, Stadt","type":"Stadt"},"district":{"key":"08215","name":"Karlsruhe","type":"Landkreis"},"federalState":{"key":"08","name":"Baden-Württemberg"}},{"name":"Teckstr.","postalCode":"72631","locality":"Aichtal","municipality":{"key":"08116081","name":"Aichtal, Stadt","type":"Stadt"},"district":{"key":"08116","name":"Esslingen","type":"Landkreis"},"federalState":{"key":"08","name":"Baden-Württemberg"}},{"name":"Tulpenstr.","postalCode":"76703","locality":"Kraichtal","municipality":{"key":"08215097","name":"Kraichtal, Stadt","type":"Stadt"},"district":{"key":"08215","name":"Karlsruhe","type":"Landkreis"},"federalState":{"key":"08","name":"Baden-Württemberg"}},{"name":"Tulpenweg","postalCode":"72631","locality":"Aichtal","municipality":{"key":"08116081","name":"Aichtal, Stadt","type":"Stadt"},"district":{"key":"08116","name":"Esslingen","type":"Landkreis"},"federalState":{"key":"08","name":"Baden-Württemberg"}},{"name":"Turmstr.","postalCode":"72631","locality":"Aichtal","municipality":{"key":"08116081","name":"Aichtal, Stadt","type":"Stadt"},"district":{"key":"08116","name":"Esslingen","type":"Landkreis"},"federalState":{"key":"08","name":"Baden-Württemberg"}},{"name":"Uferstr.","postalCode":"72631","locality":"Aichtal","municipality":{"key":"08116081","name":"Aichtal, Stadt","type":"Stadt"},"district":{"key":"08116","name":"Esslingen","type":"Landkreis"},"federalState":{"key":"08","name":"Baden-Württemberg"}},{"name":"Uhlandstr.","postalCode":"72631","locality":"Aichtal","municipality":{"key":"08116081","name":"Aichtal, Stadt","type":"Stadt"},"district":{"key":"08116","name":"Esslingen","type":"Landkreis"},"federalState":{"key":"08","name":"Baden-Württemberg"}},{"name":"Uhlbergstr.","postalCode":"72631","locality":"Aichtal","municipality":{"key":"08116081","name":"Aichtal, Stadt","type":"Stadt"},"district":{"key":"08116","name":"Esslingen","type":"Landkreis"},"federalState":{"key":"08","name":"Baden-Württemberg"}},{"name":"Ulmenstr.","postalCode":"76703","locality":"Kraichtal","municipality":{"key":"08215097","name":"Kraichtal, Stadt","type":"Stadt"},"district":{"key":"08215","name":"Karlsruhe","type":"Landkreis"},"federalState":{"key":"08","name":"Baden-Württemberg"}},{"name":"UNFINISHED","postalCode":"76703","locality":"Kraichtal","municipality":{"key":"08215097","name":"Kraichtal, Stadt","type":"Stadt"},"district":{"key":"08215","name":"Karlsruhe","type":"Landkreis"},"federalState":{"key":"08","name":"Baden-Württemberg"}},{"name":"Unterdorfstr.","postalCode":"76703","locality":"Kraichtal","municipality":{"key":"08215097","name":"Kraichtal, Stadt","type":"Stadt"},"district":{"key":"08215","name":"Karlsruhe","type":"Landkreis"},"federalState":{"key":"08","name":"Baden-Württemberg"}},{"name":"Untere Bergstr.","postalCode":"76703","locality":"Kraichtal","municipality":{"key":"08215097","name":"Kraichtal, Stadt","type":"Stadt"},"district":{"key":"08215","name":"Karlsruhe","type":"Landkreis"},"federalState":{"key":"08","name":"Baden-Württemberg"}},{"name":"Untere Hofstadt","postalCode":"76703","locality":"Kraichtal","municipality":{"key":"08215097","name":"Kraichtal, Stadt","type":"Stadt"},"district":{"key":"08215","name":"Karlsruhe","type":"Landkreis"},"federalState":{"key":"08","name":"Baden-Württemberg"}},{"name":"Untere Schloßstr.","postalCode":"76703","locality":"Kraichtal","municipality":{"key":"08215097","name":"Kraichtal, Stadt","type":"Stadt"},"district":{"key":"08215","name":"Karlsruhe","type":"Landkreis"},"federalState":{"key":"08","name":"Baden-Württemberg"}},{"name":"Veilchenweg","postalCode":"72631","locality":"Aichtal","municipality":{"key":"08116081","name":"Aichtal, Stadt","type":"Stadt"},"district":{"key":"08116","name":"Esslingen","type":"Landkreis"},"federalState":{"key":"08","name":"Baden-Württemberg"}},{"name":"Vogelsangstr.","postalCode":"76703","locality":"Kraichtal","municipality":{"key":"08215097","name":"Kraichtal, Stadt","type":"Stadt"},"district":{"key":"08215","name":"Karlsruhe","type":"Landkreis"},"federalState":{"key":"08","name":"Baden-Württemberg"}},{"name":"Vor dem Wald","postalCode":"76703","locality":"Kraichtal","municipality":{"key":"08215097","name":"Kraichtal, Stadt","type":"Stadt"},"district":{"key":"08215","name":"Karlsruhe","type":"Landkreis"},"federalState":{"key":"08","name":"Baden-Württemberg"}},{"name":"Vorstadtstr.","postalCode":"76703","locality":"Kraichtal","municipality":{"key":"08215097","name":"Kraichtal, Stadt","type":"Stadt"},"district":{"key":"08215","name":"Karlsruhe","type":"Landkreis"},"federalState":{"key":"08","name":"Baden-Württemberg"}},{"name":"Wägnerstr.","postalCode":"72631","locality":"Aichtal","municipality":{"key":"08116081","name":"Aichtal, Stadt","type":"Stadt"},"district":{"key":"08116","name":"Esslingen","type":"Landkreis"},"federalState":{"key":"08","name":"Baden-Württemberg"}},{"name":"Waldenbucher Str.","postalCode":"72631","locality":"Aichtal","municipality":{"key":"08116081","name":"Aichtal, Stadt","type":"Stadt"},"district":{"key":"08116","name":"Esslingen","type":"Landkreis"},"federalState":{"key":"08","name":"Baden-Württemberg"}},{"name":"Waldstr.","postalCode":"76703","locality":"Kraichtal","municipality":{"key":"08215097","name":"Kraichtal, Stadt","type":"Stadt"},"district":{"key":"08215","name":"Karlsruhe","type":"Landkreis"},"federalState":{"key":"08","name":"Baden-Württemberg"}},{"name":"Wasengrund","postalCode":"76703","locality":"Kraichtal","municipality":{"key":"08215097","name":"Kraichtal, Stadt","type":"Stadt"},"district":{"key":"08215","name":"Karlsruhe","type":"Landkreis"},"federalState":{"key":"08","name":"Baden-Württemberg"}},{"name":"Weberles Hohl","postalCode":"76703","locality":"Kraichtal","municipality":{"key":"08215097","name":"Kraichtal, Stadt","type":"Stadt"},"district":{"key":"08215","name":"Karlsruhe","type":"Landkreis"},"federalState":{"key":"08","name":"Baden-Württemberg"}},{"name":"Weidenstr.","postalCode":"76703","locality":"Kraichtal","municipality":{"key":"08215097","name":"Kraichtal, Stadt","type":"Stadt"},"district":{"key":"08215","name":"Karlsruhe","type":"Landkreis"},"federalState":{"key":"08","name":"Baden-Württemberg"}},{"name":"Weierbachstr.","postalCode":"76703","locality":"Kraichtal","municipality":{"key":"08215097","name":"Kraichtal, Stadt","type":"Stadt"},"district":{"key":"08215","name":"Karlsruhe","type":"Landkreis"},"federalState":{"key":"08","name":"Baden-Württemberg"}},{"name":"Weiherstr.","postalCode":"76703","locality":"Kraichtal","municipality":{"key":"08215097","name":"Kraichtal, Stadt","type":"Stadt"},"district":{"key":"08215","name":"Karlsruhe","type":"Landkreis"},"federalState":{"key":"08","name":"Baden-Württemberg"}},{"name":"Weinbergstr.","postalCode":"76703","locality":"Kraichtal","municipality":{"key":"08215097","name":"Kraichtal, Stadt","type":"Stadt"},"district":{"key":"08215","name":"Karlsruhe","type":"Landkreis"},"federalState":{"key":"08","name":"Baden-Württemberg"}},{"name":"Welschengasse","postalCode":"72631","locality":"Aichtal","municipality":{"key":"08116081","name":"Aichtal, Stadt","type":"Stadt"},"district":{"key":"08116","name":"Esslingen","type":"Landkreis"},"federalState":{"key":"08","name":"Baden-Württemberg"}},{"name":"Wiesenstr.","postalCode":"76703","locality":"Kraichtal","municipality":{"key":"08215097","name":"Kraichtal, Stadt","type":"Stadt"},"district":{"key":"08215","name":"Karlsruhe","type":"Landkreis"},"federalState":{"key":"08","name":"Baden-Württemberg"}},{"name":"Wilhelmstr.","postalCode":"76703","locality":"Kraichtal","municipality":{"key":"08215097","name":"Kraichtal, Stadt","type":"Stadt"},"district":{"key":"08215","name":"Karlsruhe","type":"Landkreis"},"federalState":{"key":"08","name":"Baden-Württemberg"}},{"name":"Wolfschluger Str.","postalCode":"72631","locality":"Aichtal","municipality":{"key":"08116081","name":"Aichtal, Stadt","type":"Stadt"},"district":{"key":"08116","name":"Esslingen","type":"Landkreis"},"federalState":{"key":"08","name":"Baden-Württemberg"}},{"name":"Zähringer Str.","postalCode":"76703","locality":"Kraichtal","municipality":{"key":"08215097","name":"Kraichtal, Stadt","type":"Stadt"},"district":{"key":"08215","name":"Karlsruhe","type":"Landkreis"},"federalState":{"key":"08","name":"Baden-Württemberg"}},{"name":"Zehnthofstr.","postalCode":"76703","locality":"Kraichtal","municipality":{"key":"08215097","name":"Kraichtal, Stadt","type":"Stadt"},"district":{"key":"08215","name":"Karlsruhe","type":"Landkreis"},"federalState":{"key":"08","name":"Baden-Württemberg"}},{"name":"Zeisigstr.","postalCode":"76703","locality":"Kraichtal","municipality":{"key":"08215097","name":"Kraichtal, Stadt","type":"Stadt"},"district":{"key":"08215","name":"Karlsruhe","type":"Landkreis"},"federalState":{"key":"08","name":"Baden-Württemberg"}},{"name":"Zeppelinstr.","postalCode":"72631","locality":"Aichtal","municipality":{"key":"08116081","name":"Aichtal, Stadt","type":"Stadt"},"district":{"key":"08116","name":"Esslingen","type":"Landkreis"},"federalState":{"key":"08","name":"Baden-Württemberg"}},{"name":"Zifferblattweg","postalCode":"76703","locality":"Kraichtal","municipality":{"key":"08215097","name":"Kraichtal, Stadt","type":"Stadt"},"district":{"key":"08215","name":"Karlsruhe","type":"Landkreis"},"federalState":{"key":"08","name":"Baden-Württemberg"}},{"name":"Zur Blumenstr.","postalCode":"72631","locality":"Aichtal","municipality":{"key":"08116081","name":"Aichtal, Stadt","type":"Stadt"},"district":{"key":"08116","name":"Esslingen","type":"Landkreis"},"federalState":{"key":"08","name":"Baden-Württemberg"}},{"name":"Zur Klinge","postalCode":"76703","locality":"Kraichtal","municipality":{"key":"08215097","name":"Kraichtal, Stadt","type":"Stadt"},"district":{"key":"08215","name":"Karlsruhe","type":"Landkreis"},"federalState":{"key":"08","name":"Baden-Württemberg"}},]