[{"name":"Anker See","postalCode":"23881","locality":"Lankau","municipality":{"key":"01053081","name":"Lankau","type":"Kreisangehörige_Gemeinde"},"district":{"key":"01053","name":"Herzogtum Lauenburg","type":"Kreis"},"federalState":{"key":"01","name":"Schleswig-Holstein"}},{"name":"Apfelweg","postalCode":"23881","locality":"Lankau","municipality":{"key":"01053081","name":"Lankau","type":"Kreisangehörige_Gemeinde"},"district":{"key":"01053","name":"Herzogtum Lauenburg","type":"Kreis"},"federalState":{"key":"01","name":"Schleswig-Holstein"}},{"name":"Birkenweg","postalCode":"23881","locality":"Lankau","municipality":{"key":"01053081","name":"Lankau","type":"Kreisangehörige_Gemeinde"},"district":{"key":"01053","name":"Herzogtum Lauenburg","type":"Kreis"},"federalState":{"key":"01","name":"Schleswig-Holstein"}},{"name":"Dorfstr.","postalCode":"23881","locality":"Lankau","municipality":{"key":"01053081","name":"Lankau","type":"Kreisangehörige_Gemeinde"},"district":{"key":"01053","name":"Herzogtum Lauenburg","type":"Kreis"},"federalState":{"key":"01","name":"Schleswig-Holstein"}},{"name":"Fischerweg","postalCode":"23881","locality":"Lankau","municipality":{"key":"01053081","name":"Lankau","type":"Kreisangehörige_Gemeinde"},"district":{"key":"01053","name":"Herzogtum Lauenburg","type":"Kreis"},"federalState":{"key":"01","name":"Schleswig-Holstein"}},{"name":"Friweh","postalCode":"23881","locality":"Lankau","municipality":{"key":"01053081","name":"Lankau","type":"Kreisangehörige_Gemeinde"},"district":{"key":"01053","name":"Herzogtum Lauenburg","type":"Kreis"},"federalState":{"key":"01","name":"Schleswig-Holstein"}},{"name":"Hauptstr.","postalCode":"23881","locality":"Lankau","municipality":{"key":"01053081","name":"Lankau","type":"Kreisangehörige_Gemeinde"},"district":{"key":"01053","name":"Herzogtum Lauenburg","type":"Kreis"},"federalState":{"key":"01","name":"Schleswig-Holstein"}},{"name":"Himmelrick","postalCode":"23881","locality":"Lankau","municipality":{"key":"01053081","name":"Lankau","type":"Kreisangehörige_Gemeinde"},"district":{"key":"01053","name":"Herzogtum Lauenburg","type":"Kreis"},"federalState":{"key":"01","name":"Schleswig-Holstein"}},{"name":"Höhenweg","postalCode":"23881","locality":"Lankau","municipality":{"key":"01053081","name":"Lankau","type":"Kreisangehörige_Gemeinde"},"district":{"key":"01053","name":"Herzogtum Lauenburg","type":"Kreis"},"federalState":{"key":"01","name":"Schleswig-Holstein"}},{"name":"Kalkkuhle","postalCode":"23881","locality":"Lankau","municipality":{"key":"01053081","name":"Lankau","type":"Kreisangehörige_Gemeinde"},"district":{"key":"01053","name":"Herzogtum Lauenburg","type":"Kreis"},"federalState":{"key":"01","name":"Schleswig-Holstein"}},{"name":"Kirschenweg","postalCode":"23881","locality":"Lankau","municipality":{"key":"01053081","name":"Lankau","type":"Kreisangehörige_Gemeinde"},"district":{"key":"01053","name":"Herzogtum Lauenburg","type":"Kreis"},"federalState":{"key":"01","name":"Schleswig-Holstein"}},{"name":"Langensaal","postalCode":"23881","locality":"Lankau","municipality":{"key":"01053081","name":"Lankau","type":"Kreisangehörige_Gemeinde"},"district":{"key":"01053","name":"Herzogtum Lauenburg","type":"Kreis"},"federalState":{"key":"01","name":"Schleswig-Holstein"}},{"name":"Marienwohlde","postalCode":"23881","locality":"Lankau","municipality":{"key":"01053081","name":"Lankau","type":"Kreisangehörige_Gemeinde"},"district":{"key":"01053","name":"Herzogtum Lauenburg","type":"Kreis"},"federalState":{"key":"01","name":"Schleswig-Holstein"}},{"name":"Mühlenweg","postalCode":"23881","locality":"Lankau","municipality":{"key":"01053081","name":"Lankau","type":"Kreisangehörige_Gemeinde"},"district":{"key":"01053","name":"Herzogtum Lauenburg","type":"Kreis"},"federalState":{"key":"01","name":"Schleswig-Holstein"}},{"name":"Pappelwech","postalCode":"23881","locality":"Lankau","municipality":{"key":"01053081","name":"Lankau","type":"Kreisangehörige_Gemeinde"},"district":{"key":"01053","name":"Herzogtum Lauenburg","type":"Kreis"},"federalState":{"key":"01","name":"Schleswig-Holstein"}},{"name":"Schleusenstr.","postalCode":"23881","locality":"Lankau","municipality":{"key":"01053081","name":"Lankau","type":"Kreisangehörige_Gemeinde"},"district":{"key":"01053","name":"Herzogtum Lauenburg","type":"Kreis"},"federalState":{"key":"01","name":"Schleswig-Holstein"}},{"name":"Seeweg","postalCode":"23881","locality":"Lankau","municipality":{"key":"01053081","name":"Lankau","type":"Kreisangehörige_Gemeinde"},"district":{"key":"01053","name":"Herzogtum Lauenburg","type":"Kreis"},"federalState":{"key":"01","name":"Schleswig-Holstein"}},{"name":"Steindamm","postalCode":"23881","locality":"Lankau","municipality":{"key":"01053081","name":"Lankau","type":"Kreisangehörige_Gemeinde"},"district":{"key":"01053","name":"Herzogtum Lauenburg","type":"Kreis"},"federalState":{"key":"01","name":"Schleswig-Holstein"}},{"name":"Tannenweg","postalCode":"23881","locality":"Lankau","municipality":{"key":"01053081","name":"Lankau","type":"Kreisangehörige_Gemeinde"},"district":{"key":"01053","name":"Herzogtum Lauenburg","type":"Kreis"},"federalState":{"key":"01","name":"Schleswig-Holstein"}},{"name":"Totenweg","postalCode":"23881","locality":"Lankau","municipality":{"key":"01053081","name":"Lankau","type":"Kreisangehörige_Gemeinde"},"district":{"key":"01053","name":"Herzogtum Lauenburg","type":"Kreis"},"federalState":{"key":"01","name":"Schleswig-Holstein"}},{"name":"Vossbergweg","postalCode":"23881","locality":"Lankau","municipality":{"key":"01053081","name":"Lankau","type":"Kreisangehörige_Gemeinde"},"district":{"key":"01053","name":"Herzogtum Lauenburg","type":"Kreis"},"federalState":{"key":"01","name":"Schleswig-Holstein"}},]