[{"name":"Akazienweg","postalCode":"49457","locality":"Drebber","municipality":{"key":"03251013","name":"Drebber","type":"Kreisangehörige_Gemeinde"},"district":{"key":"03251","name":"Diepholz","type":"Landkreis"},"federalState":{"key":"03","name":"Niedersachsen"}},{"name":"Alter Bahnhofsweg","postalCode":"49457","locality":"Drebber","municipality":{"key":"03251013","name":"Drebber","type":"Kreisangehörige_Gemeinde"},"district":{"key":"03251","name":"Diepholz","type":"Landkreis"},"federalState":{"key":"03","name":"Niedersachsen"}},{"name":"Am Bahndamm","postalCode":"49457","locality":"Drebber","municipality":{"key":"03251013","name":"Drebber","type":"Kreisangehörige_Gemeinde"},"district":{"key":"03251","name":"Diepholz","type":"Landkreis"},"federalState":{"key":"03","name":"Niedersachsen"}},{"name":"Am Friedhof","postalCode":"49457","locality":"Drebber","municipality":{"key":"03251013","name":"Drebber","type":"Kreisangehörige_Gemeinde"},"district":{"key":"03251","name":"Diepholz","type":"Landkreis"},"federalState":{"key":"03","name":"Niedersachsen"}},{"name":"Am Fuhrenkamp","postalCode":"49457","locality":"Drebber","municipality":{"key":"03251013","name":"Drebber","type":"Kreisangehörige_Gemeinde"},"district":{"key":"03251","name":"Diepholz","type":"Landkreis"},"federalState":{"key":"03","name":"Niedersachsen"}},{"name":"Am Kindergarten","postalCode":"49457","locality":"Drebber","municipality":{"key":"03251013","name":"Drebber","type":"Kreisangehörige_Gemeinde"},"district":{"key":"03251","name":"Diepholz","type":"Landkreis"},"federalState":{"key":"03","name":"Niedersachsen"}},{"name":"Am Moorkanal","postalCode":"49457","locality":"Drebber","municipality":{"key":"03251013","name":"Drebber","type":"Kreisangehörige_Gemeinde"},"district":{"key":"03251","name":"Diepholz","type":"Landkreis"},"federalState":{"key":"03","name":"Niedersachsen"}},{"name":"Am Schützenplatz","postalCode":"49457","locality":"Drebber","municipality":{"key":"03251013","name":"Drebber","type":"Kreisangehörige_Gemeinde"},"district":{"key":"03251","name":"Diepholz","type":"Landkreis"},"federalState":{"key":"03","name":"Niedersachsen"}},{"name":"Am Sportplatz","postalCode":"49457","locality":"Drebber","municipality":{"key":"03251013","name":"Drebber","type":"Kreisangehörige_Gemeinde"},"district":{"key":"03251","name":"Diepholz","type":"Landkreis"},"federalState":{"key":"03","name":"Niedersachsen"}},{"name":"Am Walde","postalCode":"49457","locality":"Drebber","municipality":{"key":"03251013","name":"Drebber","type":"Kreisangehörige_Gemeinde"},"district":{"key":"03251","name":"Diepholz","type":"Landkreis"},"federalState":{"key":"03","name":"Niedersachsen"}},{"name":"An der Feuerwehr","postalCode":"49457","locality":"Drebber","municipality":{"key":"03251013","name":"Drebber","type":"Kreisangehörige_Gemeinde"},"district":{"key":"03251","name":"Diepholz","type":"Landkreis"},"federalState":{"key":"03","name":"Niedersachsen"}},{"name":"An der Kirche","postalCode":"49457","locality":"Drebber","municipality":{"key":"03251013","name":"Drebber","type":"Kreisangehörige_Gemeinde"},"district":{"key":"03251","name":"Diepholz","type":"Landkreis"},"federalState":{"key":"03","name":"Niedersachsen"}},{"name":"Auf den Kuhlen","postalCode":"49457","locality":"Drebber","municipality":{"key":"03251013","name":"Drebber","type":"Kreisangehörige_Gemeinde"},"district":{"key":"03251","name":"Diepholz","type":"Landkreis"},"federalState":{"key":"03","name":"Niedersachsen"}},{"name":"Bahnhofstr.","postalCode":"49457","locality":"Drebber","municipality":{"key":"03251013","name":"Drebber","type":"Kreisangehörige_Gemeinde"},"district":{"key":"03251","name":"Diepholz","type":"Landkreis"},"federalState":{"key":"03","name":"Niedersachsen"}},{"name":"Berliner Str.","postalCode":"49457","locality":"Drebber","municipality":{"key":"03251013","name":"Drebber","type":"Kreisangehörige_Gemeinde"},"district":{"key":"03251","name":"Diepholz","type":"Landkreis"},"federalState":{"key":"03","name":"Niedersachsen"}},{"name":"Birkenweg","postalCode":"49457","locality":"Drebber","municipality":{"key":"03251013","name":"Drebber","type":"Kreisangehörige_Gemeinde"},"district":{"key":"03251","name":"Diepholz","type":"Landkreis"},"federalState":{"key":"03","name":"Niedersachsen"}},{"name":"Bremer Str.","postalCode":"49457","locality":"Drebber","municipality":{"key":"03251013","name":"Drebber","type":"Kreisangehörige_Gemeinde"},"district":{"key":"03251","name":"Diepholz","type":"Landkreis"},"federalState":{"key":"03","name":"Niedersachsen"}},{"name":"Brockstreck","postalCode":"49457","locality":"Drebber","municipality":{"key":"03251013","name":"Drebber","type":"Kreisangehörige_Gemeinde"},"district":{"key":"03251","name":"Diepholz","type":"Landkreis"},"federalState":{"key":"03","name":"Niedersachsen"}},{"name":"Cornauer Ort","postalCode":"49457","locality":"Drebber","municipality":{"key":"03251013","name":"Drebber","type":"Kreisangehörige_Gemeinde"},"district":{"key":"03251","name":"Diepholz","type":"Landkreis"},"federalState":{"key":"03","name":"Niedersachsen"}},{"name":"Deckau","postalCode":"49457","locality":"Drebber","municipality":{"key":"03251013","name":"Drebber","type":"Kreisangehörige_Gemeinde"},"district":{"key":"03251","name":"Diepholz","type":"Landkreis"},"federalState":{"key":"03","name":"Niedersachsen"}},{"name":"Dickeler Str.","postalCode":"49457","locality":"Drebber","municipality":{"key":"03251013","name":"Drebber","type":"Kreisangehörige_Gemeinde"},"district":{"key":"03251","name":"Diepholz","type":"Landkreis"},"federalState":{"key":"03","name":"Niedersachsen"}},{"name":"Dorfstr.","postalCode":"49457","locality":"Drebber","municipality":{"key":"03251013","name":"Drebber","type":"Kreisangehörige_Gemeinde"},"district":{"key":"03251","name":"Diepholz","type":"Landkreis"},"federalState":{"key":"03","name":"Niedersachsen"}},{"name":"Dreeker Str.","postalCode":"49457","locality":"Drebber","municipality":{"key":"03251013","name":"Drebber","type":"Kreisangehörige_Gemeinde"},"district":{"key":"03251","name":"Diepholz","type":"Landkreis"},"federalState":{"key":"03","name":"Niedersachsen"}},{"name":"Drehangel","postalCode":"49457","locality":"Drebber","municipality":{"key":"03251013","name":"Drebber","type":"Kreisangehörige_Gemeinde"},"district":{"key":"03251","name":"Diepholz","type":"Landkreis"},"federalState":{"key":"03","name":"Niedersachsen"}},{"name":"Eichenweg","postalCode":"49356","locality":"Diepholz","municipality":{"key":"03251012","name":"Diepholz, Stadt","type":"Stadt"},"district":{"key":"03251","name":"Diepholz","type":"Landkreis"},"federalState":{"key":"03","name":"Niedersachsen"}},{"name":"Elbeweg","postalCode":"49356","locality":"Diepholz","municipality":{"key":"03251012","name":"Diepholz, Stadt","type":"Stadt"},"district":{"key":"03251","name":"Diepholz","type":"Landkreis"},"federalState":{"key":"03","name":"Niedersachsen"}},{"name":"Enge Str.","postalCode":"49356","locality":"Diepholz","municipality":{"key":"03251012","name":"Diepholz, Stadt","type":"Stadt"},"district":{"key":"03251","name":"Diepholz","type":"Landkreis"},"federalState":{"key":"03","name":"Niedersachsen"}},{"name":"Erlenweg","postalCode":"49356","locality":"Diepholz","municipality":{"key":"03251012","name":"Diepholz, Stadt","type":"Stadt"},"district":{"key":"03251","name":"Diepholz","type":"Landkreis"},"federalState":{"key":"03","name":"Niedersachsen"}},{"name":"Eschenweg","postalCode":"49356","locality":"Diepholz","municipality":{"key":"03251012","name":"Diepholz, Stadt","type":"Stadt"},"district":{"key":"03251","name":"Diepholz","type":"Landkreis"},"federalState":{"key":"03","name":"Niedersachsen"}},{"name":"Eschfeldstr.","postalCode":"49356","locality":"Diepholz","municipality":{"key":"03251012","name":"Diepholz, Stadt","type":"Stadt"},"district":{"key":"03251","name":"Diepholz","type":"Landkreis"},"federalState":{"key":"03","name":"Niedersachsen"}},{"name":"Eschholt","postalCode":"49356","locality":"Diepholz","municipality":{"key":"03251012","name":"Diepholz, Stadt","type":"Stadt"},"district":{"key":"03251","name":"Diepholz","type":"Landkreis"},"federalState":{"key":"03","name":"Niedersachsen"}},{"name":"Eselweg","postalCode":"49356","locality":"Diepholz","municipality":{"key":"03251012","name":"Diepholz, Stadt","type":"Stadt"},"district":{"key":"03251","name":"Diepholz","type":"Landkreis"},"federalState":{"key":"03","name":"Niedersachsen"}},{"name":"Espeloge","postalCode":"49356","locality":"Diepholz","municipality":{"key":"03251012","name":"Diepholz, Stadt","type":"Stadt"},"district":{"key":"03251","name":"Diepholz","type":"Landkreis"},"federalState":{"key":"03","name":"Niedersachsen"}},{"name":"Eßmannskamp","postalCode":"49356","locality":"Diepholz","municipality":{"key":"03251012","name":"Diepholz, Stadt","type":"Stadt"},"district":{"key":"03251","name":"Diepholz","type":"Landkreis"},"federalState":{"key":"03","name":"Niedersachsen"}},{"name":"Eva-Str.","postalCode":"49356","locality":"Diepholz","municipality":{"key":"03251012","name":"Diepholz, Stadt","type":"Stadt"},"district":{"key":"03251","name":"Diepholz","type":"Landkreis"},"federalState":{"key":"03","name":"Niedersachsen"}},{"name":"Feldstr.","postalCode":"49457","locality":"Drebber","municipality":{"key":"03251013","name":"Drebber","type":"Kreisangehörige_Gemeinde"},"district":{"key":"03251","name":"Diepholz","type":"Landkreis"},"federalState":{"key":"03","name":"Niedersachsen"}},{"name":"Felstehausen","postalCode":"49457","locality":"Drebber","municipality":{"key":"03251013","name":"Drebber","type":"Kreisangehörige_Gemeinde"},"district":{"key":"03251","name":"Diepholz","type":"Landkreis"},"federalState":{"key":"03","name":"Niedersachsen"}},{"name":"Fischerort","postalCode":"49457","locality":"Drebber","municipality":{"key":"03251013","name":"Drebber","type":"Kreisangehörige_Gemeinde"},"district":{"key":"03251","name":"Diepholz","type":"Landkreis"},"federalState":{"key":"03","name":"Niedersachsen"}},{"name":"Friedensstr.","postalCode":"49457","locality":"Drebber","municipality":{"key":"03251013","name":"Drebber","type":"Kreisangehörige_Gemeinde"},"district":{"key":"03251","name":"Diepholz","type":"Landkreis"},"federalState":{"key":"03","name":"Niedersachsen"}},{"name":"Gartenstr.","postalCode":"49457","locality":"Drebber","municipality":{"key":"03251013","name":"Drebber","type":"Kreisangehörige_Gemeinde"},"district":{"key":"03251","name":"Diepholz","type":"Landkreis"},"federalState":{"key":"03","name":"Niedersachsen"}},{"name":"Goldtimpen","postalCode":"49457","locality":"Drebber","municipality":{"key":"03251013","name":"Drebber","type":"Kreisangehörige_Gemeinde"},"district":{"key":"03251","name":"Diepholz","type":"Landkreis"},"federalState":{"key":"03","name":"Niedersachsen"}},{"name":"Grasweg","postalCode":"49457","locality":"Drebber","municipality":{"key":"03251013","name":"Drebber","type":"Kreisangehörige_Gemeinde"},"district":{"key":"03251","name":"Diepholz","type":"Landkreis"},"federalState":{"key":"03","name":"Niedersachsen"}},{"name":"Hauptstr.","postalCode":"49457","locality":"Drebber","municipality":{"key":"03251013","name":"Drebber","type":"Kreisangehörige_Gemeinde"},"district":{"key":"03251","name":"Diepholz","type":"Landkreis"},"federalState":{"key":"03","name":"Niedersachsen"}},{"name":"Hinterstr.","postalCode":"49457","locality":"Drebber","municipality":{"key":"03251013","name":"Drebber","type":"Kreisangehörige_Gemeinde"},"district":{"key":"03251","name":"Diepholz","type":"Landkreis"},"federalState":{"key":"03","name":"Niedersachsen"}},{"name":"Höften","postalCode":"49457","locality":"Drebber","municipality":{"key":"03251013","name":"Drebber","type":"Kreisangehörige_Gemeinde"},"district":{"key":"03251","name":"Diepholz","type":"Landkreis"},"federalState":{"key":"03","name":"Niedersachsen"}},{"name":"Hölleweg","postalCode":"49457","locality":"Drebber","municipality":{"key":"03251013","name":"Drebber","type":"Kreisangehörige_Gemeinde"},"district":{"key":"03251","name":"Diepholz","type":"Landkreis"},"federalState":{"key":"03","name":"Niedersachsen"}},{"name":"Hoopener Str.","postalCode":"49457","locality":"Drebber","municipality":{"key":"03251013","name":"Drebber","type":"Kreisangehörige_Gemeinde"},"district":{"key":"03251","name":"Diepholz","type":"Landkreis"},"federalState":{"key":"03","name":"Niedersachsen"}},{"name":"Huntestr.","postalCode":"49457","locality":"Drebber","municipality":{"key":"03251013","name":"Drebber","type":"Kreisangehörige_Gemeinde"},"district":{"key":"03251","name":"Diepholz","type":"Landkreis"},"federalState":{"key":"03","name":"Niedersachsen"}},{"name":"Ihlbrocker Damm","postalCode":"49457","locality":"Drebber","municipality":{"key":"03251013","name":"Drebber","type":"Kreisangehörige_Gemeinde"},"district":{"key":"03251","name":"Diepholz","type":"Landkreis"},"federalState":{"key":"03","name":"Niedersachsen"}},{"name":"Im Barmkolk","postalCode":"49457","locality":"Drebber","municipality":{"key":"03251013","name":"Drebber","type":"Kreisangehörige_Gemeinde"},"district":{"key":"03251","name":"Diepholz","type":"Landkreis"},"federalState":{"key":"03","name":"Niedersachsen"}},{"name":"Im Flecken","postalCode":"49457","locality":"Drebber","municipality":{"key":"03251013","name":"Drebber","type":"Kreisangehörige_Gemeinde"},"district":{"key":"03251","name":"Diepholz","type":"Landkreis"},"federalState":{"key":"03","name":"Niedersachsen"}},{"name":"Im Kurzen Busch","postalCode":"49457","locality":"Drebber","municipality":{"key":"03251013","name":"Drebber","type":"Kreisangehörige_Gemeinde"},"district":{"key":"03251","name":"Diepholz","type":"Landkreis"},"federalState":{"key":"03","name":"Niedersachsen"}},{"name":"Im Orte","postalCode":"49457","locality":"Drebber","municipality":{"key":"03251013","name":"Drebber","type":"Kreisangehörige_Gemeinde"},"district":{"key":"03251","name":"Diepholz","type":"Landkreis"},"federalState":{"key":"03","name":"Niedersachsen"}},{"name":"Im Sandstich","postalCode":"49457","locality":"Drebber","municipality":{"key":"03251013","name":"Drebber","type":"Kreisangehörige_Gemeinde"},"district":{"key":"03251","name":"Diepholz","type":"Landkreis"},"federalState":{"key":"03","name":"Niedersachsen"}},{"name":"Im Weidebusch","postalCode":"49457","locality":"Drebber","municipality":{"key":"03251013","name":"Drebber","type":"Kreisangehörige_Gemeinde"},"district":{"key":"03251","name":"Diepholz","type":"Landkreis"},"federalState":{"key":"03","name":"Niedersachsen"}},{"name":"Im Winkel","postalCode":"49457","locality":"Drebber","municipality":{"key":"03251013","name":"Drebber","type":"Kreisangehörige_Gemeinde"},"district":{"key":"03251","name":"Diepholz","type":"Landkreis"},"federalState":{"key":"03","name":"Niedersachsen"}},{"name":"In der Brake","postalCode":"49457","locality":"Drebber","municipality":{"key":"03251013","name":"Drebber","type":"Kreisangehörige_Gemeinde"},"district":{"key":"03251","name":"Diepholz","type":"Landkreis"},"federalState":{"key":"03","name":"Niedersachsen"}},{"name":"Inselweg","postalCode":"49457","locality":"Drebber","municipality":{"key":"03251013","name":"Drebber","type":"Kreisangehörige_Gemeinde"},"district":{"key":"03251","name":"Diepholz","type":"Landkreis"},"federalState":{"key":"03","name":"Niedersachsen"}},{"name":"Jacobistr.","postalCode":"49457","locality":"Drebber","municipality":{"key":"03251013","name":"Drebber","type":"Kreisangehörige_Gemeinde"},"district":{"key":"03251","name":"Diepholz","type":"Landkreis"},"federalState":{"key":"03","name":"Niedersachsen"}},{"name":"Kampings Feld","postalCode":"49457","locality":"Drebber","municipality":{"key":"03251013","name":"Drebber","type":"Kreisangehörige_Gemeinde"},"district":{"key":"03251","name":"Diepholz","type":"Landkreis"},"federalState":{"key":"03","name":"Niedersachsen"}},{"name":"Kolkstr.","postalCode":"49457","locality":"Drebber","municipality":{"key":"03251013","name":"Drebber","type":"Kreisangehörige_Gemeinde"},"district":{"key":"03251","name":"Diepholz","type":"Landkreis"},"federalState":{"key":"03","name":"Niedersachsen"}},{"name":"Kreuzweg","postalCode":"49457","locality":"Drebber","municipality":{"key":"03251013","name":"Drebber","type":"Kreisangehörige_Gemeinde"},"district":{"key":"03251","name":"Diepholz","type":"Landkreis"},"federalState":{"key":"03","name":"Niedersachsen"}},{"name":"Kuhlener Weg","postalCode":"49457","locality":"Drebber","municipality":{"key":"03251013","name":"Drebber","type":"Kreisangehörige_Gemeinde"},"district":{"key":"03251","name":"Diepholz","type":"Landkreis"},"federalState":{"key":"03","name":"Niedersachsen"}},{"name":"Kurzer Weg","postalCode":"49457","locality":"Drebber","municipality":{"key":"03251013","name":"Drebber","type":"Kreisangehörige_Gemeinde"},"district":{"key":"03251","name":"Diepholz","type":"Landkreis"},"federalState":{"key":"03","name":"Niedersachsen"}},{"name":"Lange Wand","postalCode":"49457","locality":"Drebber","municipality":{"key":"03251013","name":"Drebber","type":"Kreisangehörige_Gemeinde"},"district":{"key":"03251","name":"Diepholz","type":"Landkreis"},"federalState":{"key":"03","name":"Niedersachsen"}},{"name":"Marienstr.","postalCode":"49457","locality":"Drebber","municipality":{"key":"03251013","name":"Drebber","type":"Kreisangehörige_Gemeinde"},"district":{"key":"03251","name":"Diepholz","type":"Landkreis"},"federalState":{"key":"03","name":"Niedersachsen"}},{"name":"Mittelweg","postalCode":"49457","locality":"Drebber","municipality":{"key":"03251013","name":"Drebber","type":"Kreisangehörige_Gemeinde"},"district":{"key":"03251","name":"Diepholz","type":"Landkreis"},"federalState":{"key":"03","name":"Niedersachsen"}},{"name":"Moorstr.","postalCode":"49457","locality":"Drebber","municipality":{"key":"03251013","name":"Drebber","type":"Kreisangehörige_Gemeinde"},"district":{"key":"03251","name":"Diepholz","type":"Landkreis"},"federalState":{"key":"03","name":"Niedersachsen"}},{"name":"Mühlenweg","postalCode":"49457","locality":"Drebber","municipality":{"key":"03251013","name":"Drebber","type":"Kreisangehörige_Gemeinde"},"district":{"key":"03251","name":"Diepholz","type":"Landkreis"},"federalState":{"key":"03","name":"Niedersachsen"}},{"name":"Neenstatt","postalCode":"49356","locality":"Diepholz","municipality":{"key":"03251012","name":"Diepholz, Stadt","type":"Stadt"},"district":{"key":"03251","name":"Diepholz","type":"Landkreis"},"federalState":{"key":"03","name":"Niedersachsen"}},{"name":"Neißeweg","postalCode":"49356","locality":"Diepholz","municipality":{"key":"03251012","name":"Diepholz, Stadt","type":"Stadt"},"district":{"key":"03251","name":"Diepholz","type":"Landkreis"},"federalState":{"key":"03","name":"Niedersachsen"}},{"name":"Neuer Moordamm","postalCode":"49356","locality":"Diepholz","municipality":{"key":"03251012","name":"Diepholz, Stadt","type":"Stadt"},"district":{"key":"03251","name":"Diepholz","type":"Landkreis"},"federalState":{"key":"03","name":"Niedersachsen"}},{"name":"Niedersachsenstr.","postalCode":"49356","locality":"Diepholz","municipality":{"key":"03251012","name":"Diepholz, Stadt","type":"Stadt"},"district":{"key":"03251","name":"Diepholz","type":"Landkreis"},"federalState":{"key":"03","name":"Niedersachsen"}},{"name":"Nutloer Weg","postalCode":"49356","locality":"Diepholz","municipality":{"key":"03251012","name":"Diepholz, Stadt","type":"Stadt"},"district":{"key":"03251","name":"Diepholz","type":"Landkreis"},"federalState":{"key":"03","name":"Niedersachsen"}},{"name":"Ostpreußenweg","postalCode":"49457","locality":"Drebber","municipality":{"key":"03251013","name":"Drebber","type":"Kreisangehörige_Gemeinde"},"district":{"key":"03251","name":"Diepholz","type":"Landkreis"},"federalState":{"key":"03","name":"Niedersachsen"}},{"name":"Pastorenkamp","postalCode":"49457","locality":"Drebber","municipality":{"key":"03251013","name":"Drebber","type":"Kreisangehörige_Gemeinde"},"district":{"key":"03251","name":"Diepholz","type":"Landkreis"},"federalState":{"key":"03","name":"Niedersachsen"}},{"name":"Poggenburg","postalCode":"49457","locality":"Drebber","municipality":{"key":"03251013","name":"Drebber","type":"Kreisangehörige_Gemeinde"},"district":{"key":"03251","name":"Diepholz","type":"Landkreis"},"federalState":{"key":"03","name":"Niedersachsen"}},{"name":"Pommernweg","postalCode":"49457","locality":"Drebber","municipality":{"key":"03251013","name":"Drebber","type":"Kreisangehörige_Gemeinde"},"district":{"key":"03251","name":"Diepholz","type":"Landkreis"},"federalState":{"key":"03","name":"Niedersachsen"}},{"name":"Postweg","postalCode":"49457","locality":"Drebber","municipality":{"key":"03251013","name":"Drebber","type":"Kreisangehörige_Gemeinde"},"district":{"key":"03251","name":"Diepholz","type":"Landkreis"},"federalState":{"key":"03","name":"Niedersachsen"}},{"name":"Quelleweg","postalCode":"49356","locality":"Diepholz","municipality":{"key":"03251012","name":"Diepholz, Stadt","type":"Stadt"},"district":{"key":"03251","name":"Diepholz","type":"Landkreis"},"federalState":{"key":"03","name":"Niedersachsen"}},{"name":"Ringstr.","postalCode":"49457","locality":"Drebber","municipality":{"key":"03251013","name":"Drebber","type":"Kreisangehörige_Gemeinde"},"district":{"key":"03251","name":"Diepholz","type":"Landkreis"},"federalState":{"key":"03","name":"Niedersachsen"}},{"name":"Schlesierweg","postalCode":"49457","locality":"Drebber","municipality":{"key":"03251013","name":"Drebber","type":"Kreisangehörige_Gemeinde"},"district":{"key":"03251","name":"Diepholz","type":"Landkreis"},"federalState":{"key":"03","name":"Niedersachsen"}},{"name":"Schulstr.","postalCode":"49457","locality":"Drebber","municipality":{"key":"03251013","name":"Drebber","type":"Kreisangehörige_Gemeinde"},"district":{"key":"03251","name":"Diepholz","type":"Landkreis"},"federalState":{"key":"03","name":"Niedersachsen"}},{"name":"Schwarzen Weg","postalCode":"49457","locality":"Drebber","municipality":{"key":"03251013","name":"Drebber","type":"Kreisangehörige_Gemeinde"},"district":{"key":"03251","name":"Diepholz","type":"Landkreis"},"federalState":{"key":"03","name":"Niedersachsen"}},{"name":"Speckener Str.","postalCode":"49457","locality":"Drebber","municipality":{"key":"03251013","name":"Drebber","type":"Kreisangehörige_Gemeinde"},"district":{"key":"03251","name":"Diepholz","type":"Landkreis"},"federalState":{"key":"03","name":"Niedersachsen"}},{"name":"Stichweg","postalCode":"49457","locality":"Drebber","municipality":{"key":"03251013","name":"Drebber","type":"Kreisangehörige_Gemeinde"},"district":{"key":"03251","name":"Diepholz","type":"Landkreis"},"federalState":{"key":"03","name":"Niedersachsen"}},{"name":"Tebenstr.","postalCode":"49356","locality":"Diepholz","municipality":{"key":"03251012","name":"Diepholz, Stadt","type":"Stadt"},"district":{"key":"03251","name":"Diepholz","type":"Landkreis"},"federalState":{"key":"03","name":"Niedersachsen"}},{"name":"Thea-Hucke-Str.","postalCode":"49356","locality":"Diepholz","municipality":{"key":"03251012","name":"Diepholz, Stadt","type":"Stadt"},"district":{"key":"03251","name":"Diepholz","type":"Landkreis"},"federalState":{"key":"03","name":"Niedersachsen"}},{"name":"Theanoltestr.","postalCode":"49356","locality":"Diepholz","municipality":{"key":"03251012","name":"Diepholz, Stadt","type":"Stadt"},"district":{"key":"03251","name":"Diepholz","type":"Landkreis"},"federalState":{"key":"03","name":"Niedersachsen"}},{"name":"Thouarsstr.","postalCode":"49356","locality":"Diepholz","municipality":{"key":"03251012","name":"Diepholz, Stadt","type":"Stadt"},"district":{"key":"03251","name":"Diepholz","type":"Landkreis"},"federalState":{"key":"03","name":"Niedersachsen"}},{"name":"Thüringer Str.","postalCode":"49356","locality":"Diepholz","municipality":{"key":"03251012","name":"Diepholz, Stadt","type":"Stadt"},"district":{"key":"03251","name":"Diepholz","type":"Landkreis"},"federalState":{"key":"03","name":"Niedersachsen"}},{"name":"Trift durch die Heide","postalCode":"49356","locality":"Diepholz","municipality":{"key":"03251012","name":"Diepholz, Stadt","type":"Stadt"},"district":{"key":"03251","name":"Diepholz","type":"Landkreis"},"federalState":{"key":"03","name":"Niedersachsen"}},{"name":"Triftweg","postalCode":"49356","locality":"Diepholz","municipality":{"key":"03251012","name":"Diepholz, Stadt","type":"Stadt"},"district":{"key":"03251","name":"Diepholz","type":"Landkreis"},"federalState":{"key":"03","name":"Niedersachsen"}},{"name":"Turmstr.","postalCode":"49356","locality":"Diepholz","municipality":{"key":"03251012","name":"Diepholz, Stadt","type":"Stadt"},"district":{"key":"03251","name":"Diepholz","type":"Landkreis"},"federalState":{"key":"03","name":"Niedersachsen"}},{"name":"Uthüser","postalCode":"49457","locality":"Drebber","municipality":{"key":"03251013","name":"Drebber","type":"Kreisangehörige_Gemeinde"},"district":{"key":"03251","name":"Diepholz","type":"Landkreis"},"federalState":{"key":"03","name":"Niedersachsen"}},{"name":"Vechtaer Str.","postalCode":"49356","locality":"Diepholz","municipality":{"key":"03251012","name":"Diepholz, Stadt","type":"Stadt"},"district":{"key":"03251","name":"Diepholz","type":"Landkreis"},"federalState":{"key":"03","name":"Niedersachsen"}},{"name":"Verlatsweg","postalCode":"49356","locality":"Diepholz","municipality":{"key":"03251012","name":"Diepholz, Stadt","type":"Stadt"},"district":{"key":"03251","name":"Diepholz","type":"Landkreis"},"federalState":{"key":"03","name":"Niedersachsen"}},{"name":"Von-Braun-Str.","postalCode":"49356","locality":"Diepholz","municipality":{"key":"03251012","name":"Diepholz, Stadt","type":"Stadt"},"district":{"key":"03251","name":"Diepholz","type":"Landkreis"},"federalState":{"key":"03","name":"Niedersachsen"}},{"name":"Von-Galen-Str.","postalCode":"49356","locality":"Diepholz","municipality":{"key":"03251012","name":"Diepholz, Stadt","type":"Stadt"},"district":{"key":"03251","name":"Diepholz","type":"Landkreis"},"federalState":{"key":"03","name":"Niedersachsen"}},{"name":"Von-Hünefeld-Str.","postalCode":"49356","locality":"Diepholz","municipality":{"key":"03251012","name":"Diepholz, Stadt","type":"Stadt"},"district":{"key":"03251","name":"Diepholz","type":"Landkreis"},"federalState":{"key":"03","name":"Niedersachsen"}},{"name":"Vor dem Ort","postalCode":"49356","locality":"Diepholz","municipality":{"key":"03251012","name":"Diepholz, Stadt","type":"Stadt"},"district":{"key":"03251","name":"Diepholz","type":"Landkreis"},"federalState":{"key":"03","name":"Niedersachsen"}},{"name":"Vordere Masch","postalCode":"49356","locality":"Diepholz","municipality":{"key":"03251012","name":"Diepholz, Stadt","type":"Stadt"},"district":{"key":"03251","name":"Diepholz","type":"Landkreis"},"federalState":{"key":"03","name":"Niedersachsen"}},{"name":"Vorm Kampe","postalCode":"49356","locality":"Diepholz","municipality":{"key":"03251012","name":"Diepholz, Stadt","type":"Stadt"},"district":{"key":"03251","name":"Diepholz","type":"Landkreis"},"federalState":{"key":"03","name":"Niedersachsen"}},{"name":"Vossen Neufeld","postalCode":"49356","locality":"Diepholz","municipality":{"key":"03251012","name":"Diepholz, Stadt","type":"Stadt"},"district":{"key":"03251","name":"Diepholz","type":"Landkreis"},"federalState":{"key":"03","name":"Niedersachsen"}},{"name":"Vossen Reitweg","postalCode":"49356","locality":"Diepholz","municipality":{"key":"03251012","name":"Diepholz, Stadt","type":"Stadt"},"district":{"key":"03251","name":"Diepholz","type":"Landkreis"},"federalState":{"key":"03","name":"Niedersachsen"}},{"name":"Wajemanns Feld","postalCode":"49457","locality":"Drebber","municipality":{"key":"03251013","name":"Drebber","type":"Kreisangehörige_Gemeinde"},"district":{"key":"03251","name":"Diepholz","type":"Landkreis"},"federalState":{"key":"03","name":"Niedersachsen"}},{"name":"Wajemanns Kamp","postalCode":"49457","locality":"Drebber","municipality":{"key":"03251013","name":"Drebber","type":"Kreisangehörige_Gemeinde"},"district":{"key":"03251","name":"Diepholz","type":"Landkreis"},"federalState":{"key":"03","name":"Niedersachsen"}},{"name":"Wetschener Str.","postalCode":"49457","locality":"Drebber","municipality":{"key":"03251013","name":"Drebber","type":"Kreisangehörige_Gemeinde"},"district":{"key":"03251","name":"Diepholz","type":"Landkreis"},"federalState":{"key":"03","name":"Niedersachsen"}},{"name":"Wiesengrund","postalCode":"49457","locality":"Drebber","municipality":{"key":"03251013","name":"Drebber","type":"Kreisangehörige_Gemeinde"},"district":{"key":"03251","name":"Diepholz","type":"Landkreis"},"federalState":{"key":"03","name":"Niedersachsen"}},{"name":"Wolfskammer","postalCode":"49457","locality":"Drebber","municipality":{"key":"03251013","name":"Drebber","type":"Kreisangehörige_Gemeinde"},"district":{"key":"03251","name":"Diepholz","type":"Landkreis"},"federalState":{"key":"03","name":"Niedersachsen"}},{"name":"Zum Bahnhof","postalCode":"49457","locality":"Drebber","municipality":{"key":"03251013","name":"Drebber","type":"Kreisangehörige_Gemeinde"},"district":{"key":"03251","name":"Diepholz","type":"Landkreis"},"federalState":{"key":"03","name":"Niedersachsen"}},{"name":"Zum Bauerbruch","postalCode":"49457","locality":"Drebber","municipality":{"key":"03251013","name":"Drebber","type":"Kreisangehörige_Gemeinde"},"district":{"key":"03251","name":"Diepholz","type":"Landkreis"},"federalState":{"key":"03","name":"Niedersachsen"}},{"name":"Zum Stau","postalCode":"49457","locality":"Drebber","municipality":{"key":"03251013","name":"Drebber","type":"Kreisangehörige_Gemeinde"},"district":{"key":"03251","name":"Diepholz","type":"Landkreis"},"federalState":{"key":"03","name":"Niedersachsen"}},{"name":"Zum Teich","postalCode":"49457","locality":"Drebber","municipality":{"key":"03251013","name":"Drebber","type":"Kreisangehörige_Gemeinde"},"district":{"key":"03251","name":"Diepholz","type":"Landkreis"},"federalState":{"key":"03","name":"Niedersachsen"}},{"name":"Zur Drebber Höhe","postalCode":"49457","locality":"Drebber","municipality":{"key":"03251013","name":"Drebber","type":"Kreisangehörige_Gemeinde"},"district":{"key":"03251","name":"Diepholz","type":"Landkreis"},"federalState":{"key":"03","name":"Niedersachsen"}},{"name":"Zur Hunte","postalCode":"49457","locality":"Drebber","municipality":{"key":"03251013","name":"Drebber","type":"Kreisangehörige_Gemeinde"},"district":{"key":"03251","name":"Diepholz","type":"Landkreis"},"federalState":{"key":"03","name":"Niedersachsen"}},]