[{"name":"Ahornweg","postalCode":"29584","locality":"Himbergen","municipality":{"key":"03360011","name":"Himbergen","type":"Kreisangehörige_Gemeinde"},"district":{"key":"03360","name":"Uelzen","type":"Landkreis"},"federalState":{"key":"03","name":"Niedersachsen"}},{"name":"Almstorf","postalCode":"29584","locality":"Himbergen","municipality":{"key":"03360011","name":"Himbergen","type":"Kreisangehörige_Gemeinde"},"district":{"key":"03360","name":"Uelzen","type":"Landkreis"},"federalState":{"key":"03","name":"Niedersachsen"}},{"name":"Alte Gärtnerei","postalCode":"29584","locality":"Himbergen","municipality":{"key":"03360011","name":"Himbergen","type":"Kreisangehörige_Gemeinde"},"district":{"key":"03360","name":"Uelzen","type":"Landkreis"},"federalState":{"key":"03","name":"Niedersachsen"}},{"name":"Alte Poststr.","postalCode":"29584","locality":"Himbergen","municipality":{"key":"03360011","name":"Himbergen","type":"Kreisangehörige_Gemeinde"},"district":{"key":"03360","name":"Uelzen","type":"Landkreis"},"federalState":{"key":"03","name":"Niedersachsen"}},{"name":"Alter Sandweg","postalCode":"29584","locality":"Himbergen","municipality":{"key":"03360011","name":"Himbergen","type":"Kreisangehörige_Gemeinde"},"district":{"key":"03360","name":"Uelzen","type":"Landkreis"},"federalState":{"key":"03","name":"Niedersachsen"}},{"name":"Am Berge","postalCode":"29584","locality":"Himbergen","municipality":{"key":"03360011","name":"Himbergen","type":"Kreisangehörige_Gemeinde"},"district":{"key":"03360","name":"Uelzen","type":"Landkreis"},"federalState":{"key":"03","name":"Niedersachsen"}},{"name":"Am Friedhof","postalCode":"29584","locality":"Himbergen","municipality":{"key":"03360011","name":"Himbergen","type":"Kreisangehörige_Gemeinde"},"district":{"key":"03360","name":"Uelzen","type":"Landkreis"},"federalState":{"key":"03","name":"Niedersachsen"}},{"name":"Am Hang","postalCode":"29584","locality":"Himbergen","municipality":{"key":"03360011","name":"Himbergen","type":"Kreisangehörige_Gemeinde"},"district":{"key":"03360","name":"Uelzen","type":"Landkreis"},"federalState":{"key":"03","name":"Niedersachsen"}},{"name":"Bäckerstr.","postalCode":"29584","locality":"Himbergen","municipality":{"key":"03360011","name":"Himbergen","type":"Kreisangehörige_Gemeinde"},"district":{"key":"03360","name":"Uelzen","type":"Landkreis"},"federalState":{"key":"03","name":"Niedersachsen"}},{"name":"Bahnhofstr.","postalCode":"29584","locality":"Himbergen","municipality":{"key":"03360011","name":"Himbergen","type":"Kreisangehörige_Gemeinde"},"district":{"key":"03360","name":"Uelzen","type":"Landkreis"},"federalState":{"key":"03","name":"Niedersachsen"}},{"name":"Birkenweg","postalCode":"29584","locality":"Himbergen","municipality":{"key":"03360011","name":"Himbergen","type":"Kreisangehörige_Gemeinde"},"district":{"key":"03360","name":"Uelzen","type":"Landkreis"},"federalState":{"key":"03","name":"Niedersachsen"}},{"name":"Brockhimbergen","postalCode":"29584","locality":"Himbergen","municipality":{"key":"03360011","name":"Himbergen","type":"Kreisangehörige_Gemeinde"},"district":{"key":"03360","name":"Uelzen","type":"Landkreis"},"federalState":{"key":"03","name":"Niedersachsen"}},{"name":"Caspar-Lehman-Str.","postalCode":"29525","locality":"Uelzen","municipality":{"key":"03360025","name":"Uelzen, Hansestadt","type":"Stadt"},"district":{"key":"03360","name":"Uelzen","type":"Landkreis"},"federalState":{"key":"03","name":"Niedersachsen"}},{"name":"Celler Str.","postalCode":"29525","locality":"Uelzen","municipality":{"key":"03360025","name":"Uelzen, Hansestadt","type":"Stadt"},"district":{"key":"03360","name":"Uelzen","type":"Landkreis"},"federalState":{"key":"03","name":"Niedersachsen"}},{"name":"Dahlenburger Weg","postalCode":"29584","locality":"Himbergen","municipality":{"key":"03360011","name":"Himbergen","type":"Kreisangehörige_Gemeinde"},"district":{"key":"03360","name":"Uelzen","type":"Landkreis"},"federalState":{"key":"03","name":"Niedersachsen"}},{"name":"Ebereschenweg","postalCode":"29584","locality":"Himbergen","municipality":{"key":"03360011","name":"Himbergen","type":"Kreisangehörige_Gemeinde"},"district":{"key":"03360","name":"Uelzen","type":"Landkreis"},"federalState":{"key":"03","name":"Niedersachsen"}},{"name":"Eichenweg","postalCode":"29584","locality":"Himbergen","municipality":{"key":"03360011","name":"Himbergen","type":"Kreisangehörige_Gemeinde"},"district":{"key":"03360","name":"Uelzen","type":"Landkreis"},"federalState":{"key":"03","name":"Niedersachsen"}},{"name":"Forstweg","postalCode":"29584","locality":"Himbergen","municipality":{"key":"03360011","name":"Himbergen","type":"Kreisangehörige_Gemeinde"},"district":{"key":"03360","name":"Uelzen","type":"Landkreis"},"federalState":{"key":"03","name":"Niedersachsen"}},{"name":"Fuchskamp","postalCode":"29584","locality":"Himbergen","municipality":{"key":"03360011","name":"Himbergen","type":"Kreisangehörige_Gemeinde"},"district":{"key":"03360","name":"Uelzen","type":"Landkreis"},"federalState":{"key":"03","name":"Niedersachsen"}},{"name":"Fuhrenkamp","postalCode":"29584","locality":"Himbergen","municipality":{"key":"03360011","name":"Himbergen","type":"Kreisangehörige_Gemeinde"},"district":{"key":"03360","name":"Uelzen","type":"Landkreis"},"federalState":{"key":"03","name":"Niedersachsen"}},{"name":"Göhrdestr.","postalCode":"29584","locality":"Himbergen","municipality":{"key":"03360011","name":"Himbergen","type":"Kreisangehörige_Gemeinde"},"district":{"key":"03360","name":"Uelzen","type":"Landkreis"},"federalState":{"key":"03","name":"Niedersachsen"}},{"name":"Grooden Rillen","postalCode":"29584","locality":"Himbergen","municipality":{"key":"03360011","name":"Himbergen","type":"Kreisangehörige_Gemeinde"},"district":{"key":"03360","name":"Uelzen","type":"Landkreis"},"federalState":{"key":"03","name":"Niedersachsen"}},{"name":"Hauptstr.","postalCode":"29584","locality":"Himbergen","municipality":{"key":"03360011","name":"Himbergen","type":"Kreisangehörige_Gemeinde"},"district":{"key":"03360","name":"Uelzen","type":"Landkreis"},"federalState":{"key":"03","name":"Niedersachsen"}},{"name":"Hohenfier","postalCode":"29584","locality":"Himbergen","municipality":{"key":"03360011","name":"Himbergen","type":"Kreisangehörige_Gemeinde"},"district":{"key":"03360","name":"Uelzen","type":"Landkreis"},"federalState":{"key":"03","name":"Niedersachsen"}},{"name":"Holzstr.","postalCode":"29584","locality":"Himbergen","municipality":{"key":"03360011","name":"Himbergen","type":"Kreisangehörige_Gemeinde"},"district":{"key":"03360","name":"Uelzen","type":"Landkreis"},"federalState":{"key":"03","name":"Niedersachsen"}},{"name":"Im Hagen","postalCode":"29584","locality":"Himbergen","municipality":{"key":"03360011","name":"Himbergen","type":"Kreisangehörige_Gemeinde"},"district":{"key":"03360","name":"Uelzen","type":"Landkreis"},"federalState":{"key":"03","name":"Niedersachsen"}},{"name":"Im Wiesengrund","postalCode":"29584","locality":"Himbergen","municipality":{"key":"03360011","name":"Himbergen","type":"Kreisangehörige_Gemeinde"},"district":{"key":"03360","name":"Uelzen","type":"Landkreis"},"federalState":{"key":"03","name":"Niedersachsen"}},{"name":"Jägerstr.","postalCode":"29525","locality":"Uelzen","municipality":{"key":"03360025","name":"Uelzen, Hansestadt","type":"Stadt"},"district":{"key":"03360","name":"Uelzen","type":"Landkreis"},"federalState":{"key":"03","name":"Niedersachsen"}},{"name":"Johannesstr.","postalCode":"29525","locality":"Uelzen","municipality":{"key":"03360025","name":"Uelzen, Hansestadt","type":"Stadt"},"district":{"key":"03360","name":"Uelzen","type":"Landkreis"},"federalState":{"key":"03","name":"Niedersachsen"}},{"name":"Johnsburg","postalCode":"29525","locality":"Uelzen","municipality":{"key":"03360025","name":"Uelzen, Hansestadt","type":"Stadt"},"district":{"key":"03360","name":"Uelzen","type":"Landkreis"},"federalState":{"key":"03","name":"Niedersachsen"}},{"name":"Johnsburg Kreisel","postalCode":"29525","locality":"Uelzen","municipality":{"key":"03360025","name":"Uelzen, Hansestadt","type":"Stadt"},"district":{"key":"03360","name":"Uelzen","type":"Landkreis"},"federalState":{"key":"03","name":"Niedersachsen"}},{"name":"Kapellenweg","postalCode":"29584","locality":"Himbergen","municipality":{"key":"03360011","name":"Himbergen","type":"Kreisangehörige_Gemeinde"},"district":{"key":"03360","name":"Uelzen","type":"Landkreis"},"federalState":{"key":"03","name":"Niedersachsen"}},{"name":"Kettelsdorf","postalCode":"29584","locality":"Himbergen","municipality":{"key":"03360011","name":"Himbergen","type":"Kreisangehörige_Gemeinde"},"district":{"key":"03360","name":"Uelzen","type":"Landkreis"},"federalState":{"key":"03","name":"Niedersachsen"}},{"name":"Klein Thondorf","postalCode":"29584","locality":"Himbergen","municipality":{"key":"03360011","name":"Himbergen","type":"Kreisangehörige_Gemeinde"},"district":{"key":"03360","name":"Uelzen","type":"Landkreis"},"federalState":{"key":"03","name":"Niedersachsen"}},{"name":"Knickweg","postalCode":"29584","locality":"Himbergen","municipality":{"key":"03360011","name":"Himbergen","type":"Kreisangehörige_Gemeinde"},"district":{"key":"03360","name":"Uelzen","type":"Landkreis"},"federalState":{"key":"03","name":"Niedersachsen"}},{"name":"Kurzer Weg","postalCode":"29584","locality":"Himbergen","municipality":{"key":"03360011","name":"Himbergen","type":"Kreisangehörige_Gemeinde"},"district":{"key":"03360","name":"Uelzen","type":"Landkreis"},"federalState":{"key":"03","name":"Niedersachsen"}},{"name":"Lerchenberg","postalCode":"29584","locality":"Himbergen","municipality":{"key":"03360011","name":"Himbergen","type":"Kreisangehörige_Gemeinde"},"district":{"key":"03360","name":"Uelzen","type":"Landkreis"},"federalState":{"key":"03","name":"Niedersachsen"}},{"name":"Melkwech","postalCode":"29584","locality":"Himbergen","municipality":{"key":"03360011","name":"Himbergen","type":"Kreisangehörige_Gemeinde"},"district":{"key":"03360","name":"Uelzen","type":"Landkreis"},"federalState":{"key":"03","name":"Niedersachsen"}},{"name":"Mittelweg","postalCode":"29584","locality":"Himbergen","municipality":{"key":"03360011","name":"Himbergen","type":"Kreisangehörige_Gemeinde"},"district":{"key":"03360","name":"Uelzen","type":"Landkreis"},"federalState":{"key":"03","name":"Niedersachsen"}},{"name":"Moorweg","postalCode":"29584","locality":"Himbergen","municipality":{"key":"03360011","name":"Himbergen","type":"Kreisangehörige_Gemeinde"},"district":{"key":"03360","name":"Uelzen","type":"Landkreis"},"federalState":{"key":"03","name":"Niedersachsen"}},{"name":"Mühlenbergstr.","postalCode":"29584","locality":"Himbergen","municipality":{"key":"03360011","name":"Himbergen","type":"Kreisangehörige_Gemeinde"},"district":{"key":"03360","name":"Uelzen","type":"Landkreis"},"federalState":{"key":"03","name":"Niedersachsen"}},{"name":"Neuer Zuschlagweg","postalCode":"29584","locality":"Himbergen","municipality":{"key":"03360011","name":"Himbergen","type":"Kreisangehörige_Gemeinde"},"district":{"key":"03360","name":"Uelzen","type":"Landkreis"},"federalState":{"key":"03","name":"Niedersachsen"}},{"name":"Oetzener Str.","postalCode":"29525","locality":"Uelzen","municipality":{"key":"03360025","name":"Uelzen, Hansestadt","type":"Stadt"},"district":{"key":"03360","name":"Uelzen","type":"Landkreis"},"federalState":{"key":"03","name":"Niedersachsen"}},{"name":"Oldenstädter Str.","postalCode":"29525","locality":"Uelzen","municipality":{"key":"03360025","name":"Uelzen, Hansestadt","type":"Stadt"},"district":{"key":"03360","name":"Uelzen","type":"Landkreis"},"federalState":{"key":"03","name":"Niedersachsen"}},{"name":"Orchideenweg","postalCode":"29525","locality":"Uelzen","municipality":{"key":"03360025","name":"Uelzen, Hansestadt","type":"Stadt"},"district":{"key":"03360","name":"Uelzen","type":"Landkreis"},"federalState":{"key":"03","name":"Niedersachsen"}},{"name":"Ortsumgehung Kirchweyhe","postalCode":"29525","locality":"Uelzen","municipality":{"key":"03360025","name":"Uelzen, Hansestadt","type":"Stadt"},"district":{"key":"03360","name":"Uelzen","type":"Landkreis"},"federalState":{"key":"03","name":"Niedersachsen"}},{"name":"Oskar-Wachler-Weg","postalCode":"29525","locality":"Uelzen","municipality":{"key":"03360025","name":"Uelzen, Hansestadt","type":"Stadt"},"district":{"key":"03360","name":"Uelzen","type":"Landkreis"},"federalState":{"key":"03","name":"Niedersachsen"}},{"name":"Ostermarsch","postalCode":"29525","locality":"Uelzen","municipality":{"key":"03360025","name":"Uelzen, Hansestadt","type":"Stadt"},"district":{"key":"03360","name":"Uelzen","type":"Landkreis"},"federalState":{"key":"03","name":"Niedersachsen"}},{"name":"Osterstr.","postalCode":"29525","locality":"Uelzen","municipality":{"key":"03360025","name":"Uelzen, Hansestadt","type":"Stadt"},"district":{"key":"03360","name":"Uelzen","type":"Landkreis"},"federalState":{"key":"03","name":"Niedersachsen"}},{"name":"Ostmarkstr.","postalCode":"29525","locality":"Uelzen","municipality":{"key":"03360025","name":"Uelzen, Hansestadt","type":"Stadt"},"district":{"key":"03360","name":"Uelzen","type":"Landkreis"},"federalState":{"key":"03","name":"Niedersachsen"}},{"name":"Ostpreußenring","postalCode":"29525","locality":"Uelzen","municipality":{"key":"03360025","name":"Uelzen, Hansestadt","type":"Stadt"},"district":{"key":"03360","name":"Uelzen","type":"Landkreis"},"federalState":{"key":"03","name":"Niedersachsen"}},{"name":"Papagonenweg","postalCode":"29525","locality":"Uelzen","municipality":{"key":"03360025","name":"Uelzen, Hansestadt","type":"Stadt"},"district":{"key":"03360","name":"Uelzen","type":"Landkreis"},"federalState":{"key":"03","name":"Niedersachsen"}},{"name":"Parkstr.","postalCode":"29525","locality":"Uelzen","municipality":{"key":"03360025","name":"Uelzen, Hansestadt","type":"Stadt"},"district":{"key":"03360","name":"Uelzen","type":"Landkreis"},"federalState":{"key":"03","name":"Niedersachsen"}},{"name":"Pastorenkoppel","postalCode":"29525","locality":"Uelzen","municipality":{"key":"03360025","name":"Uelzen, Hansestadt","type":"Stadt"},"district":{"key":"03360","name":"Uelzen","type":"Landkreis"},"federalState":{"key":"03","name":"Niedersachsen"}},{"name":"Pastorenstr.","postalCode":"29525","locality":"Uelzen","municipality":{"key":"03360025","name":"Uelzen, Hansestadt","type":"Stadt"},"district":{"key":"03360","name":"Uelzen","type":"Landkreis"},"federalState":{"key":"03","name":"Niedersachsen"}},{"name":"Paul-Schäffer-Weg","postalCode":"29525","locality":"Uelzen","municipality":{"key":"03360025","name":"Uelzen, Hansestadt","type":"Stadt"},"district":{"key":"03360","name":"Uelzen","type":"Landkreis"},"federalState":{"key":"03","name":"Niedersachsen"}},{"name":"Paul-Tilly-Weg","postalCode":"29525","locality":"Uelzen","municipality":{"key":"03360025","name":"Uelzen, Hansestadt","type":"Stadt"},"district":{"key":"03360","name":"Uelzen","type":"Landkreis"},"federalState":{"key":"03","name":"Niedersachsen"}},{"name":"Peter-Cordes-Weg","postalCode":"29525","locality":"Uelzen","municipality":{"key":"03360025","name":"Uelzen, Hansestadt","type":"Stadt"},"district":{"key":"03360","name":"Uelzen","type":"Landkreis"},"federalState":{"key":"03","name":"Niedersachsen"}},{"name":"Philiaweg","postalCode":"29525","locality":"Uelzen","municipality":{"key":"03360025","name":"Uelzen, Hansestadt","type":"Stadt"},"district":{"key":"03360","name":"Uelzen","type":"Landkreis"},"federalState":{"key":"03","name":"Niedersachsen"}},{"name":"Pieperhöfen","postalCode":"29525","locality":"Uelzen","municipality":{"key":"03360025","name":"Uelzen, Hansestadt","type":"Stadt"},"district":{"key":"03360","name":"Uelzen","type":"Landkreis"},"federalState":{"key":"03","name":"Niedersachsen"}},{"name":"Platenmeisterstr.","postalCode":"29525","locality":"Uelzen","municipality":{"key":"03360025","name":"Uelzen, Hansestadt","type":"Stadt"},"district":{"key":"03360","name":"Uelzen","type":"Landkreis"},"federalState":{"key":"03","name":"Niedersachsen"}},{"name":"Pohlmannstr.","postalCode":"29525","locality":"Uelzen","municipality":{"key":"03360025","name":"Uelzen, Hansestadt","type":"Stadt"},"district":{"key":"03360","name":"Uelzen","type":"Landkreis"},"federalState":{"key":"03","name":"Niedersachsen"}},{"name":"Pommernweg","postalCode":"29525","locality":"Uelzen","municipality":{"key":"03360025","name":"Uelzen, Hansestadt","type":"Stadt"},"district":{"key":"03360","name":"Uelzen","type":"Landkreis"},"federalState":{"key":"03","name":"Niedersachsen"}},{"name":"Posener Str.","postalCode":"29525","locality":"Uelzen","municipality":{"key":"03360025","name":"Uelzen, Hansestadt","type":"Stadt"},"district":{"key":"03360","name":"Uelzen","type":"Landkreis"},"federalState":{"key":"03","name":"Niedersachsen"}},{"name":"Probst-Raven-Str.","postalCode":"29525","locality":"Uelzen","municipality":{"key":"03360025","name":"Uelzen, Hansestadt","type":"Stadt"},"district":{"key":"03360","name":"Uelzen","type":"Landkreis"},"federalState":{"key":"03","name":"Niedersachsen"}},{"name":"Querweg","postalCode":"29584","locality":"Himbergen","municipality":{"key":"03360011","name":"Himbergen","type":"Kreisangehörige_Gemeinde"},"district":{"key":"03360","name":"Uelzen","type":"Landkreis"},"federalState":{"key":"03","name":"Niedersachsen"}},{"name":"Roggenkamp","postalCode":"29584","locality":"Himbergen","municipality":{"key":"03360011","name":"Himbergen","type":"Kreisangehörige_Gemeinde"},"district":{"key":"03360","name":"Uelzen","type":"Landkreis"},"federalState":{"key":"03","name":"Niedersachsen"}},{"name":"Rohrstorf","postalCode":"29584","locality":"Himbergen","municipality":{"key":"03360011","name":"Himbergen","type":"Kreisangehörige_Gemeinde"},"district":{"key":"03360","name":"Uelzen","type":"Landkreis"},"federalState":{"key":"03","name":"Niedersachsen"}},{"name":"Schmauweg","postalCode":"29584","locality":"Himbergen","municipality":{"key":"03360011","name":"Himbergen","type":"Kreisangehörige_Gemeinde"},"district":{"key":"03360","name":"Uelzen","type":"Landkreis"},"federalState":{"key":"03","name":"Niedersachsen"}},{"name":"Schöne Aussicht","postalCode":"29584","locality":"Himbergen","municipality":{"key":"03360011","name":"Himbergen","type":"Kreisangehörige_Gemeinde"},"district":{"key":"03360","name":"Uelzen","type":"Landkreis"},"federalState":{"key":"03","name":"Niedersachsen"}},{"name":"Schoolwech","postalCode":"29584","locality":"Himbergen","municipality":{"key":"03360011","name":"Himbergen","type":"Kreisangehörige_Gemeinde"},"district":{"key":"03360","name":"Uelzen","type":"Landkreis"},"federalState":{"key":"03","name":"Niedersachsen"}},{"name":"Stoetzer Str.","postalCode":"29584","locality":"Himbergen","municipality":{"key":"03360011","name":"Himbergen","type":"Kreisangehörige_Gemeinde"},"district":{"key":"03360","name":"Uelzen","type":"Landkreis"},"federalState":{"key":"03","name":"Niedersachsen"}},{"name":"Strothe","postalCode":"29584","locality":"Himbergen","municipality":{"key":"03360011","name":"Himbergen","type":"Kreisangehörige_Gemeinde"},"district":{"key":"03360","name":"Uelzen","type":"Landkreis"},"federalState":{"key":"03","name":"Niedersachsen"}},{"name":"Strother Weg","postalCode":"29584","locality":"Himbergen","municipality":{"key":"03360011","name":"Himbergen","type":"Kreisangehörige_Gemeinde"},"district":{"key":"03360","name":"Uelzen","type":"Landkreis"},"federalState":{"key":"03","name":"Niedersachsen"}},{"name":"Südstr.","postalCode":"29584","locality":"Himbergen","municipality":{"key":"03360011","name":"Himbergen","type":"Kreisangehörige_Gemeinde"},"district":{"key":"03360","name":"Uelzen","type":"Landkreis"},"federalState":{"key":"03","name":"Niedersachsen"}},{"name":"Talstr.","postalCode":"29525","locality":"Uelzen","municipality":{"key":"03360025","name":"Uelzen, Hansestadt","type":"Stadt"},"district":{"key":"03360","name":"Uelzen","type":"Landkreis"},"federalState":{"key":"03","name":"Niedersachsen"}},{"name":"Tannenweg","postalCode":"29525","locality":"Uelzen","municipality":{"key":"03360025","name":"Uelzen, Hansestadt","type":"Stadt"},"district":{"key":"03360","name":"Uelzen","type":"Landkreis"},"federalState":{"key":"03","name":"Niedersachsen"}},{"name":"Tatern","postalCode":"29525","locality":"Uelzen","municipality":{"key":"03360025","name":"Uelzen, Hansestadt","type":"Stadt"},"district":{"key":"03360","name":"Uelzen","type":"Landkreis"},"federalState":{"key":"03","name":"Niedersachsen"}},{"name":"Taubenplan","postalCode":"29525","locality":"Uelzen","municipality":{"key":"03360025","name":"Uelzen, Hansestadt","type":"Stadt"},"district":{"key":"03360","name":"Uelzen","type":"Landkreis"},"federalState":{"key":"03","name":"Niedersachsen"}},{"name":"Taubenstr.","postalCode":"29525","locality":"Uelzen","municipality":{"key":"03360025","name":"Uelzen, Hansestadt","type":"Stadt"},"district":{"key":"03360","name":"Uelzen","type":"Landkreis"},"federalState":{"key":"03","name":"Niedersachsen"}},{"name":"Taubenweg","postalCode":"29525","locality":"Uelzen","municipality":{"key":"03360025","name":"Uelzen, Hansestadt","type":"Stadt"},"district":{"key":"03360","name":"Uelzen","type":"Landkreis"},"federalState":{"key":"03","name":"Niedersachsen"}},{"name":"Theodor-Kaufmann-Weg","postalCode":"29525","locality":"Uelzen","municipality":{"key":"03360025","name":"Uelzen, Hansestadt","type":"Stadt"},"district":{"key":"03360","name":"Uelzen","type":"Landkreis"},"federalState":{"key":"03","name":"Niedersachsen"}},{"name":"Tile-Hagemann-Str.","postalCode":"29525","locality":"Uelzen","municipality":{"key":"03360025","name":"Uelzen, Hansestadt","type":"Stadt"},"district":{"key":"03360","name":"Uelzen","type":"Landkreis"},"federalState":{"key":"03","name":"Niedersachsen"}},{"name":"Tilsiter Str.","postalCode":"29525","locality":"Uelzen","municipality":{"key":"03360025","name":"Uelzen, Hansestadt","type":"Stadt"},"district":{"key":"03360","name":"Uelzen","type":"Landkreis"},"federalState":{"key":"03","name":"Niedersachsen"}},{"name":"Tivolistr.","postalCode":"29525","locality":"Uelzen","municipality":{"key":"03360025","name":"Uelzen, Hansestadt","type":"Stadt"},"district":{"key":"03360","name":"Uelzen","type":"Landkreis"},"federalState":{"key":"03","name":"Niedersachsen"}},{"name":"Treuburger Str.","postalCode":"29525","locality":"Uelzen","municipality":{"key":"03360025","name":"Uelzen, Hansestadt","type":"Stadt"},"district":{"key":"03360","name":"Uelzen","type":"Landkreis"},"federalState":{"key":"03","name":"Niedersachsen"}},{"name":"Tritschler Gasse","postalCode":"29525","locality":"Uelzen","municipality":{"key":"03360025","name":"Uelzen, Hansestadt","type":"Stadt"},"district":{"key":"03360","name":"Uelzen","type":"Landkreis"},"federalState":{"key":"03","name":"Niedersachsen"}},{"name":"Tulpenweg","postalCode":"29525","locality":"Uelzen","municipality":{"key":"03360025","name":"Uelzen, Hansestadt","type":"Stadt"},"district":{"key":"03360","name":"Uelzen","type":"Landkreis"},"federalState":{"key":"03","name":"Niedersachsen"}},{"name":"Turmstr.","postalCode":"29525","locality":"Uelzen","municipality":{"key":"03360025","name":"Uelzen, Hansestadt","type":"Stadt"},"district":{"key":"03360","name":"Uelzen","type":"Landkreis"},"federalState":{"key":"03","name":"Niedersachsen"}},{"name":"Uelzener Str.","postalCode":"29525","locality":"Uelzen","municipality":{"key":"03360025","name":"Uelzen, Hansestadt","type":"Stadt"},"district":{"key":"03360","name":"Uelzen","type":"Landkreis"},"federalState":{"key":"03","name":"Niedersachsen"}},{"name":"Uferschwalbenweg","postalCode":"29525","locality":"Uelzen","municipality":{"key":"03360025","name":"Uelzen, Hansestadt","type":"Stadt"},"district":{"key":"03360","name":"Uelzen","type":"Landkreis"},"federalState":{"key":"03","name":"Niedersachsen"}},{"name":"Uhlenweg","postalCode":"29525","locality":"Uelzen","municipality":{"key":"03360025","name":"Uelzen, Hansestadt","type":"Stadt"},"district":{"key":"03360","name":"Uelzen","type":"Landkreis"},"federalState":{"key":"03","name":"Niedersachsen"}},{"name":"Ulmenweg","postalCode":"29525","locality":"Uelzen","municipality":{"key":"03360025","name":"Uelzen, Hansestadt","type":"Stadt"},"district":{"key":"03360","name":"Uelzen","type":"Landkreis"},"federalState":{"key":"03","name":"Niedersachsen"}},{"name":"Vareniusweg","postalCode":"29525","locality":"Uelzen","municipality":{"key":"03360025","name":"Uelzen, Hansestadt","type":"Stadt"},"district":{"key":"03360","name":"Uelzen","type":"Landkreis"},"federalState":{"key":"03","name":"Niedersachsen"}},{"name":"Veerßer Str.","postalCode":"29525","locality":"Uelzen","municipality":{"key":"03360025","name":"Uelzen, Hansestadt","type":"Stadt"},"district":{"key":"03360","name":"Uelzen","type":"Landkreis"},"federalState":{"key":"03","name":"Niedersachsen"}},{"name":"Von-Estorff-Str.","postalCode":"29525","locality":"Uelzen","municipality":{"key":"03360025","name":"Uelzen, Hansestadt","type":"Stadt"},"district":{"key":"03360","name":"Uelzen","type":"Landkreis"},"federalState":{"key":"03","name":"Niedersachsen"}},{"name":"Vor dem Kamp","postalCode":"29525","locality":"Uelzen","municipality":{"key":"03360025","name":"Uelzen, Hansestadt","type":"Stadt"},"district":{"key":"03360","name":"Uelzen","type":"Landkreis"},"federalState":{"key":"03","name":"Niedersachsen"}},{"name":"Vor den Fischteichen","postalCode":"29525","locality":"Uelzen","municipality":{"key":"03360025","name":"Uelzen, Hansestadt","type":"Stadt"},"district":{"key":"03360","name":"Uelzen","type":"Landkreis"},"federalState":{"key":"03","name":"Niedersachsen"}},{"name":"Vor der Deine","postalCode":"29525","locality":"Uelzen","municipality":{"key":"03360025","name":"Uelzen, Hansestadt","type":"Stadt"},"district":{"key":"03360","name":"Uelzen","type":"Landkreis"},"federalState":{"key":"03","name":"Niedersachsen"}},{"name":"Wiebeckstr.","postalCode":"29584","locality":"Himbergen","municipality":{"key":"03360011","name":"Himbergen","type":"Kreisangehörige_Gemeinde"},"district":{"key":"03360","name":"Uelzen","type":"Landkreis"},"federalState":{"key":"03","name":"Niedersachsen"}},{"name":"Wiesenstr.","postalCode":"29584","locality":"Himbergen","municipality":{"key":"03360011","name":"Himbergen","type":"Kreisangehörige_Gemeinde"},"district":{"key":"03360","name":"Uelzen","type":"Landkreis"},"federalState":{"key":"03","name":"Niedersachsen"}},{"name":"Zum Botterbusch","postalCode":"29584","locality":"Himbergen","municipality":{"key":"03360011","name":"Himbergen","type":"Kreisangehörige_Gemeinde"},"district":{"key":"03360","name":"Uelzen","type":"Landkreis"},"federalState":{"key":"03","name":"Niedersachsen"}},]