[{"name":"Ahornstr.","postalCode":"92271","locality":"Freihung","municipality":{"key":"09371121","name":"Freihung, M","type":"Markt"},"district":{"key":"09371","name":"Amberg-Sulzbach","type":"Landkreis"},"federalState":{"key":"09","name":"Bayern"}},{"name":"Am Bahnhof","postalCode":"92271","locality":"Freihung","municipality":{"key":"09371121","name":"Freihung, M","type":"Markt"},"district":{"key":"09371","name":"Amberg-Sulzbach","type":"Landkreis"},"federalState":{"key":"09","name":"Bayern"}},{"name":"Amberger Str.","postalCode":"92271","locality":"Freihung","municipality":{"key":"09371121","name":"Freihung, M","type":"Markt"},"district":{"key":"09371","name":"Amberg-Sulzbach","type":"Landkreis"},"federalState":{"key":"09","name":"Bayern"}},{"name":"Am Gestocker","postalCode":"92271","locality":"Freihung","municipality":{"key":"09371121","name":"Freihung, M","type":"Markt"},"district":{"key":"09371","name":"Amberg-Sulzbach","type":"Landkreis"},"federalState":{"key":"09","name":"Bayern"}},{"name":"Am Haaranger","postalCode":"92271","locality":"Freihung","municipality":{"key":"09371121","name":"Freihung, M","type":"Markt"},"district":{"key":"09371","name":"Amberg-Sulzbach","type":"Landkreis"},"federalState":{"key":"09","name":"Bayern"}},{"name":"Am Harranger","postalCode":"92271","locality":"Freihung","municipality":{"key":"09371121","name":"Freihung, M","type":"Markt"},"district":{"key":"09371","name":"Amberg-Sulzbach","type":"Landkreis"},"federalState":{"key":"09","name":"Bayern"}},{"name":"Am Krautgarten","postalCode":"92271","locality":"Freihung","municipality":{"key":"09371121","name":"Freihung, M","type":"Markt"},"district":{"key":"09371","name":"Amberg-Sulzbach","type":"Landkreis"},"federalState":{"key":"09","name":"Bayern"}},{"name":"Am Rangl","postalCode":"92271","locality":"Freihung","municipality":{"key":"09371121","name":"Freihung, M","type":"Markt"},"district":{"key":"09371","name":"Amberg-Sulzbach","type":"Landkreis"},"federalState":{"key":"09","name":"Bayern"}},{"name":"Amselweg","postalCode":"92271","locality":"Freihung","municipality":{"key":"09371121","name":"Freihung, M","type":"Markt"},"district":{"key":"09371","name":"Amberg-Sulzbach","type":"Landkreis"},"federalState":{"key":"09","name":"Bayern"}},{"name":"Am Steinletz","postalCode":"92271","locality":"Freihung","municipality":{"key":"09371121","name":"Freihung, M","type":"Markt"},"district":{"key":"09371","name":"Amberg-Sulzbach","type":"Landkreis"},"federalState":{"key":"09","name":"Bayern"}},{"name":"Auf der Kolonie","postalCode":"92271","locality":"Freihung","municipality":{"key":"09371121","name":"Freihung, M","type":"Markt"},"district":{"key":"09371","name":"Amberg-Sulzbach","type":"Landkreis"},"federalState":{"key":"09","name":"Bayern"}},{"name":"Barbarastr.","postalCode":"92271","locality":"Freihung","municipality":{"key":"09371121","name":"Freihung, M","type":"Markt"},"district":{"key":"09371","name":"Amberg-Sulzbach","type":"Landkreis"},"federalState":{"key":"09","name":"Bayern"}},{"name":"Bergwerkstr.","postalCode":"92271","locality":"Freihung","municipality":{"key":"09371121","name":"Freihung, M","type":"Markt"},"district":{"key":"09371","name":"Amberg-Sulzbach","type":"Landkreis"},"federalState":{"key":"09","name":"Bayern"}},{"name":"Birkenstr.","postalCode":"92271","locality":"Freihung","municipality":{"key":"09371121","name":"Freihung, M","type":"Markt"},"district":{"key":"09371","name":"Amberg-Sulzbach","type":"Landkreis"},"federalState":{"key":"09","name":"Bayern"}},{"name":"Blumenstr.","postalCode":"92271","locality":"Freihung","municipality":{"key":"09371121","name":"Freihung, M","type":"Markt"},"district":{"key":"09371","name":"Amberg-Sulzbach","type":"Landkreis"},"federalState":{"key":"09","name":"Bayern"}},{"name":"Buchenweg","postalCode":"92271","locality":"Freihung","municipality":{"key":"09371121","name":"Freihung, M","type":"Markt"},"district":{"key":"09371","name":"Amberg-Sulzbach","type":"Landkreis"},"federalState":{"key":"09","name":"Bayern"}},{"name":"Dorfplatz","postalCode":"92271","locality":"Freihung","municipality":{"key":"09371121","name":"Freihung, M","type":"Markt"},"district":{"key":"09371","name":"Amberg-Sulzbach","type":"Landkreis"},"federalState":{"key":"09","name":"Bayern"}},{"name":"Dorfstr.","postalCode":"92271","locality":"Freihung","municipality":{"key":"09371121","name":"Freihung, M","type":"Markt"},"district":{"key":"09371","name":"Amberg-Sulzbach","type":"Landkreis"},"federalState":{"key":"09","name":"Bayern"}},{"name":"Dr.-Hans-Raß-Str.","postalCode":"92271","locality":"Freihung","municipality":{"key":"09371121","name":"Freihung, M","type":"Markt"},"district":{"key":"09371","name":"Amberg-Sulzbach","type":"Landkreis"},"federalState":{"key":"09","name":"Bayern"}},{"name":"Ehenfelder Str.","postalCode":"92271","locality":"Freihung","municipality":{"key":"09371121","name":"Freihung, M","type":"Markt"},"district":{"key":"09371","name":"Amberg-Sulzbach","type":"Landkreis"},"federalState":{"key":"09","name":"Bayern"}},{"name":"Elbarter Str.","postalCode":"92271","locality":"Freihung","municipality":{"key":"09371121","name":"Freihung, M","type":"Markt"},"district":{"key":"09371","name":"Amberg-Sulzbach","type":"Landkreis"},"federalState":{"key":"09","name":"Bayern"}},{"name":"Elisabethweg","postalCode":"92271","locality":"Freihung","municipality":{"key":"09371121","name":"Freihung, M","type":"Markt"},"district":{"key":"09371","name":"Amberg-Sulzbach","type":"Landkreis"},"federalState":{"key":"09","name":"Bayern"}},{"name":"Erlenstr.","postalCode":"92271","locality":"Freihung","municipality":{"key":"09371121","name":"Freihung, M","type":"Markt"},"district":{"key":"09371","name":"Amberg-Sulzbach","type":"Landkreis"},"federalState":{"key":"09","name":"Bayern"}},{"name":"Fichtenstr.","postalCode":"92271","locality":"Freihung","municipality":{"key":"09371121","name":"Freihung, M","type":"Markt"},"district":{"key":"09371","name":"Amberg-Sulzbach","type":"Landkreis"},"federalState":{"key":"09","name":"Bayern"}},{"name":"Flurstr.","postalCode":"92271","locality":"Freihung","municipality":{"key":"09371121","name":"Freihung, M","type":"Markt"},"district":{"key":"09371","name":"Amberg-Sulzbach","type":"Landkreis"},"federalState":{"key":"09","name":"Bayern"}},{"name":"Gartenstr.","postalCode":"92271","locality":"Freihung","municipality":{"key":"09371121","name":"Freihung, M","type":"Markt"},"district":{"key":"09371","name":"Amberg-Sulzbach","type":"Landkreis"},"federalState":{"key":"09","name":"Bayern"}},{"name":"Gartenweg","postalCode":"92271","locality":"Freihung","municipality":{"key":"09371121","name":"Freihung, M","type":"Markt"},"district":{"key":"09371","name":"Amberg-Sulzbach","type":"Landkreis"},"federalState":{"key":"09","name":"Bayern"}},{"name":"Glückaufstr.","postalCode":"92271","locality":"Freihung","municipality":{"key":"09371121","name":"Freihung, M","type":"Markt"},"district":{"key":"09371","name":"Amberg-Sulzbach","type":"Landkreis"},"federalState":{"key":"09","name":"Bayern"}},{"name":"Grabenweg","postalCode":"92271","locality":"Freihung","municipality":{"key":"09371121","name":"Freihung, M","type":"Markt"},"district":{"key":"09371","name":"Amberg-Sulzbach","type":"Landkreis"},"federalState":{"key":"09","name":"Bayern"}},{"name":"Hämmerleinsmühle","postalCode":"92271","locality":"Freihung","municipality":{"key":"09371121","name":"Freihung, M","type":"Markt"},"district":{"key":"09371","name":"Amberg-Sulzbach","type":"Landkreis"},"federalState":{"key":"09","name":"Bayern"}},{"name":"Hämmerleinsmühlstr.","postalCode":"92271","locality":"Freihung","municipality":{"key":"09371121","name":"Freihung, M","type":"Markt"},"district":{"key":"09371","name":"Amberg-Sulzbach","type":"Landkreis"},"federalState":{"key":"09","name":"Bayern"}},{"name":"Hangstr.","postalCode":"92271","locality":"Freihung","municipality":{"key":"09371121","name":"Freihung, M","type":"Markt"},"district":{"key":"09371","name":"Amberg-Sulzbach","type":"Landkreis"},"federalState":{"key":"09","name":"Bayern"}},{"name":"Hauptstr.","postalCode":"92271","locality":"Freihung","municipality":{"key":"09371121","name":"Freihung, M","type":"Markt"},"district":{"key":"09371","name":"Amberg-Sulzbach","type":"Landkreis"},"federalState":{"key":"09","name":"Bayern"}},{"name":"Heimkehrersiedlung","postalCode":"92271","locality":"Freihung","municipality":{"key":"09371121","name":"Freihung, M","type":"Markt"},"district":{"key":"09371","name":"Amberg-Sulzbach","type":"Landkreis"},"federalState":{"key":"09","name":"Bayern"}},{"name":"Hinter den Gärten","postalCode":"92271","locality":"Freihung","municipality":{"key":"09371121","name":"Freihung, M","type":"Markt"},"district":{"key":"09371","name":"Amberg-Sulzbach","type":"Landkreis"},"federalState":{"key":"09","name":"Bayern"}},{"name":"Hirschauer Str.","postalCode":"92271","locality":"Freihung","municipality":{"key":"09371121","name":"Freihung, M","type":"Markt"},"district":{"key":"09371","name":"Amberg-Sulzbach","type":"Landkreis"},"federalState":{"key":"09","name":"Bayern"}},{"name":"Hofäckerweg","postalCode":"92271","locality":"Freihung","municipality":{"key":"09371121","name":"Freihung, M","type":"Markt"},"district":{"key":"09371","name":"Amberg-Sulzbach","type":"Landkreis"},"federalState":{"key":"09","name":"Bayern"}},{"name":"Hohe Str.","postalCode":"92271","locality":"Freihung","municipality":{"key":"09371121","name":"Freihung, M","type":"Markt"},"district":{"key":"09371","name":"Amberg-Sulzbach","type":"Landkreis"},"federalState":{"key":"09","name":"Bayern"}},{"name":"Hopfenweg","postalCode":"92271","locality":"Freihung","municipality":{"key":"09371121","name":"Freihung, M","type":"Markt"},"district":{"key":"09371","name":"Amberg-Sulzbach","type":"Landkreis"},"federalState":{"key":"09","name":"Bayern"}},{"name":"Hütwinkel","postalCode":"92271","locality":"Freihung","municipality":{"key":"09371121","name":"Freihung, M","type":"Markt"},"district":{"key":"09371","name":"Amberg-Sulzbach","type":"Landkreis"},"federalState":{"key":"09","name":"Bayern"}},{"name":"Im Dorf","postalCode":"92271","locality":"Freihung","municipality":{"key":"09371121","name":"Freihung, M","type":"Markt"},"district":{"key":"09371","name":"Amberg-Sulzbach","type":"Landkreis"},"federalState":{"key":"09","name":"Bayern"}},{"name":"Kirchensteig","postalCode":"92271","locality":"Freihung","municipality":{"key":"09371121","name":"Freihung, M","type":"Markt"},"district":{"key":"09371","name":"Amberg-Sulzbach","type":"Landkreis"},"federalState":{"key":"09","name":"Bayern"}},{"name":"Kirchstr.","postalCode":"92271","locality":"Freihung","municipality":{"key":"09371121","name":"Freihung, M","type":"Markt"},"district":{"key":"09371","name":"Amberg-Sulzbach","type":"Landkreis"},"federalState":{"key":"09","name":"Bayern"}},{"name":"Kirchweg","postalCode":"92271","locality":"Freihung","municipality":{"key":"09371121","name":"Freihung, M","type":"Markt"},"district":{"key":"09371","name":"Amberg-Sulzbach","type":"Landkreis"},"federalState":{"key":"09","name":"Bayern"}},{"name":"Krickelsdorfer Str.","postalCode":"92271","locality":"Freihung","municipality":{"key":"09371121","name":"Freihung, M","type":"Markt"},"district":{"key":"09371","name":"Amberg-Sulzbach","type":"Landkreis"},"federalState":{"key":"09","name":"Bayern"}},{"name":"Langerwiesenweg","postalCode":"92271","locality":"Freihung","municipality":{"key":"09371121","name":"Freihung, M","type":"Markt"},"district":{"key":"09371","name":"Amberg-Sulzbach","type":"Landkreis"},"federalState":{"key":"09","name":"Bayern"}},{"name":"Lindenweg","postalCode":"92271","locality":"Freihung","municipality":{"key":"09371121","name":"Freihung, M","type":"Markt"},"district":{"key":"09371","name":"Amberg-Sulzbach","type":"Landkreis"},"federalState":{"key":"09","name":"Bayern"}},{"name":"Marktstr.","postalCode":"92271","locality":"Freihung","municipality":{"key":"09371121","name":"Freihung, M","type":"Markt"},"district":{"key":"09371","name":"Amberg-Sulzbach","type":"Landkreis"},"federalState":{"key":"09","name":"Bayern"}},{"name":"Maurerwiesen","postalCode":"92271","locality":"Freihung","municipality":{"key":"09371121","name":"Freihung, M","type":"Markt"},"district":{"key":"09371","name":"Amberg-Sulzbach","type":"Landkreis"},"federalState":{"key":"09","name":"Bayern"}},{"name":"Mergelweg","postalCode":"92271","locality":"Freihung","municipality":{"key":"09371121","name":"Freihung, M","type":"Markt"},"district":{"key":"09371","name":"Amberg-Sulzbach","type":"Landkreis"},"federalState":{"key":"09","name":"Bayern"}},{"name":"Moosweg","postalCode":"92271","locality":"Freihung","municipality":{"key":"09371121","name":"Freihung, M","type":"Markt"},"district":{"key":"09371","name":"Amberg-Sulzbach","type":"Landkreis"},"federalState":{"key":"09","name":"Bayern"}},{"name":"Mühlbergstr.","postalCode":"92271","locality":"Freihung","municipality":{"key":"09371121","name":"Freihung, M","type":"Markt"},"district":{"key":"09371","name":"Amberg-Sulzbach","type":"Landkreis"},"federalState":{"key":"09","name":"Bayern"}},{"name":"Neue Amberger Str.","postalCode":"92271","locality":"Freihung","municipality":{"key":"09371121","name":"Freihung, M","type":"Markt"},"district":{"key":"09371","name":"Amberg-Sulzbach","type":"Landkreis"},"federalState":{"key":"09","name":"Bayern"}},{"name":"Oberer Rofachweg","postalCode":"92271","locality":"Freihung","municipality":{"key":"09371121","name":"Freihung, M","type":"Markt"},"district":{"key":"09371","name":"Amberg-Sulzbach","type":"Landkreis"},"federalState":{"key":"09","name":"Bayern"}},{"name":"Odenricht","postalCode":"92271","locality":"Freihung","municipality":{"key":"09371121","name":"Freihung, M","type":"Markt"},"district":{"key":"09371","name":"Amberg-Sulzbach","type":"Landkreis"},"federalState":{"key":"09","name":"Bayern"}},{"name":"Porphyrweg","postalCode":"92271","locality":"Freihung","municipality":{"key":"09371121","name":"Freihung, M","type":"Markt"},"district":{"key":"09371","name":"Amberg-Sulzbach","type":"Landkreis"},"federalState":{"key":"09","name":"Bayern"}},{"name":"Professor-Stark-Str.","postalCode":"92271","locality":"Freihung","municipality":{"key":"09371121","name":"Freihung, M","type":"Markt"},"district":{"key":"09371","name":"Amberg-Sulzbach","type":"Landkreis"},"federalState":{"key":"09","name":"Bayern"}},{"name":"Prof.-Stark-Str.","postalCode":"92271","locality":"Freihung","municipality":{"key":"09371121","name":"Freihung, M","type":"Markt"},"district":{"key":"09371","name":"Amberg-Sulzbach","type":"Landkreis"},"federalState":{"key":"09","name":"Bayern"}},{"name":"Raiffeisenstr.","postalCode":"92271","locality":"Freihung","municipality":{"key":"09371121","name":"Freihung, M","type":"Markt"},"district":{"key":"09371","name":"Amberg-Sulzbach","type":"Landkreis"},"federalState":{"key":"09","name":"Bayern"}},{"name":"Rathausstr.","postalCode":"92271","locality":"Freihung","municipality":{"key":"09371121","name":"Freihung, M","type":"Markt"},"district":{"key":"09371","name":"Amberg-Sulzbach","type":"Landkreis"},"federalState":{"key":"09","name":"Bayern"}},{"name":"Ringstr.","postalCode":"92271","locality":"Freihung","municipality":{"key":"09371121","name":"Freihung, M","type":"Markt"},"district":{"key":"09371","name":"Amberg-Sulzbach","type":"Landkreis"},"federalState":{"key":"09","name":"Bayern"}},{"name":"Rosenweg","postalCode":"92271","locality":"Freihung","municipality":{"key":"09371121","name":"Freihung, M","type":"Markt"},"district":{"key":"09371","name":"Amberg-Sulzbach","type":"Landkreis"},"federalState":{"key":"09","name":"Bayern"}},{"name":"Rothaar","postalCode":"92271","locality":"Freihung","municipality":{"key":"09371121","name":"Freihung, M","type":"Markt"},"district":{"key":"09371","name":"Amberg-Sulzbach","type":"Landkreis"},"federalState":{"key":"09","name":"Bayern"}},{"name":"Rothaarstr.","postalCode":"92271","locality":"Freihung","municipality":{"key":"09371121","name":"Freihung, M","type":"Markt"},"district":{"key":"09371","name":"Amberg-Sulzbach","type":"Landkreis"},"federalState":{"key":"09","name":"Bayern"}},{"name":"Sauranger","postalCode":"92271","locality":"Freihung","municipality":{"key":"09371121","name":"Freihung, M","type":"Markt"},"district":{"key":"09371","name":"Amberg-Sulzbach","type":"Landkreis"},"federalState":{"key":"09","name":"Bayern"}},{"name":"Schlehenweg","postalCode":"92271","locality":"Freihung","municipality":{"key":"09371121","name":"Freihung, M","type":"Markt"},"district":{"key":"09371","name":"Amberg-Sulzbach","type":"Landkreis"},"federalState":{"key":"09","name":"Bayern"}},{"name":"Schmelzmühle","postalCode":"92271","locality":"Freihung","municipality":{"key":"09371121","name":"Freihung, M","type":"Markt"},"district":{"key":"09371","name":"Amberg-Sulzbach","type":"Landkreis"},"federalState":{"key":"09","name":"Bayern"}},{"name":"Seugast","postalCode":"92271","locality":"Freihung","municipality":{"key":"09371121","name":"Freihung, M","type":"Markt"},"district":{"key":"09371","name":"Amberg-Sulzbach","type":"Landkreis"},"federalState":{"key":"09","name":"Bayern"}},{"name":"Siedlungsstr.","postalCode":"92271","locality":"Freihung","municipality":{"key":"09371121","name":"Freihung, M","type":"Markt"},"district":{"key":"09371","name":"Amberg-Sulzbach","type":"Landkreis"},"federalState":{"key":"09","name":"Bayern"}},{"name":"Sonnenstr.","postalCode":"92271","locality":"Freihung","municipality":{"key":"09371121","name":"Freihung, M","type":"Markt"},"district":{"key":"09371","name":"Amberg-Sulzbach","type":"Landkreis"},"federalState":{"key":"09","name":"Bayern"}},{"name":"Stollenweg","postalCode":"92271","locality":"Freihung","municipality":{"key":"09371121","name":"Freihung, M","type":"Markt"},"district":{"key":"09371","name":"Amberg-Sulzbach","type":"Landkreis"},"federalState":{"key":"09","name":"Bayern"}},{"name":"Tulpenweg","postalCode":"92271","locality":"Freihung","municipality":{"key":"09371121","name":"Freihung, M","type":"Markt"},"district":{"key":"09371","name":"Amberg-Sulzbach","type":"Landkreis"},"federalState":{"key":"09","name":"Bayern"}},{"name":"Vilsecker Str.","postalCode":"92271","locality":"Freihung","municipality":{"key":"09371121","name":"Freihung, M","type":"Markt"},"district":{"key":"09371","name":"Amberg-Sulzbach","type":"Landkreis"},"federalState":{"key":"09","name":"Bayern"}},{"name":"Vilsstr.","postalCode":"92271","locality":"Freihung","municipality":{"key":"09371121","name":"Freihung, M","type":"Markt"},"district":{"key":"09371","name":"Amberg-Sulzbach","type":"Landkreis"},"federalState":{"key":"09","name":"Bayern"}},{"name":"Wagnergaßl","postalCode":"92271","locality":"Freihung","municipality":{"key":"09371121","name":"Freihung, M","type":"Markt"},"district":{"key":"09371","name":"Amberg-Sulzbach","type":"Landkreis"},"federalState":{"key":"09","name":"Bayern"}},{"name":"Waldweg","postalCode":"92271","locality":"Freihung","municipality":{"key":"09371121","name":"Freihung, M","type":"Markt"},"district":{"key":"09371","name":"Amberg-Sulzbach","type":"Landkreis"},"federalState":{"key":"09","name":"Bayern"}},{"name":"Weidenweg","postalCode":"92271","locality":"Freihung","municipality":{"key":"09371121","name":"Freihung, M","type":"Markt"},"district":{"key":"09371","name":"Amberg-Sulzbach","type":"Landkreis"},"federalState":{"key":"09","name":"Bayern"}},{"name":"Wiesenstr.","postalCode":"92271","locality":"Freihung","municipality":{"key":"09371121","name":"Freihung, M","type":"Markt"},"district":{"key":"09371","name":"Amberg-Sulzbach","type":"Landkreis"},"federalState":{"key":"09","name":"Bayern"}},{"name":"Zechweg","postalCode":"92271","locality":"Freihung","municipality":{"key":"09371121","name":"Freihung, M","type":"Markt"},"district":{"key":"09371","name":"Amberg-Sulzbach","type":"Landkreis"},"federalState":{"key":"09","name":"Bayern"}},{"name":"Ziegelweg","postalCode":"92271","locality":"Freihung","municipality":{"key":"09371121","name":"Freihung, M","type":"Markt"},"district":{"key":"09371","name":"Amberg-Sulzbach","type":"Landkreis"},"federalState":{"key":"09","name":"Bayern"}},{"name":"Zum Steig","postalCode":"92271","locality":"Freihung","municipality":{"key":"09371121","name":"Freihung, M","type":"Markt"},"district":{"key":"09371","name":"Amberg-Sulzbach","type":"Landkreis"},"federalState":{"key":"09","name":"Bayern"}},{"name":"Zur Vilsquelle","postalCode":"92271","locality":"Freihung","municipality":{"key":"09371121","name":"Freihung, M","type":"Markt"},"district":{"key":"09371","name":"Amberg-Sulzbach","type":"Landkreis"},"federalState":{"key":"09","name":"Bayern"}},{"name":"Ölhofweg","postalCode":"92271","locality":"Freihung","municipality":{"key":"09371121","name":"Freihung, M","type":"Markt"},"district":{"key":"09371","name":"Amberg-Sulzbach","type":"Landkreis"},"federalState":{"key":"09","name":"Bayern"}},{"name":"Ölweg","postalCode":"92271","locality":"Freihung","municipality":{"key":"09371121","name":"Freihung, M","type":"Markt"},"district":{"key":"09371","name":"Amberg-Sulzbach","type":"Landkreis"},"federalState":{"key":"09","name":"Bayern"}},]