[{"name":"Ahornstr.","postalCode":"37181","locality":"Hardegsen","municipality":{"key":"03155005","name":"Hardegsen, Stadt","type":"Stadt"},"district":{"key":"03155","name":"Northeim","type":"Landkreis"},"federalState":{"key":"03","name":"Niedersachsen"}},{"name":"Alte Hardegser Str.","postalCode":"37181","locality":"Hardegsen","municipality":{"key":"03155005","name":"Hardegsen, Stadt","type":"Stadt"},"district":{"key":"03155","name":"Northeim","type":"Landkreis"},"federalState":{"key":"03","name":"Niedersachsen"}},{"name":"Alte Uslarer Str.","postalCode":"37181","locality":"Hardegsen","municipality":{"key":"03155005","name":"Hardegsen, Stadt","type":"Stadt"},"district":{"key":"03155","name":"Northeim","type":"Landkreis"},"federalState":{"key":"03","name":"Niedersachsen"}},{"name":"Am Anger","postalCode":"37181","locality":"Hardegsen","municipality":{"key":"03155005","name":"Hardegsen, Stadt","type":"Stadt"},"district":{"key":"03155","name":"Northeim","type":"Landkreis"},"federalState":{"key":"03","name":"Niedersachsen"}},{"name":"Am Büh","postalCode":"37181","locality":"Hardegsen","municipality":{"key":"03155005","name":"Hardegsen, Stadt","type":"Stadt"},"district":{"key":"03155","name":"Northeim","type":"Landkreis"},"federalState":{"key":"03","name":"Niedersachsen"}},{"name":"Am Cölnhöfen","postalCode":"37181","locality":"Hardegsen","municipality":{"key":"03155005","name":"Hardegsen, Stadt","type":"Stadt"},"district":{"key":"03155","name":"Northeim","type":"Landkreis"},"federalState":{"key":"03","name":"Niedersachsen"}},{"name":"Am Gladeberg","postalCode":"37181","locality":"Hardegsen","municipality":{"key":"03155005","name":"Hardegsen, Stadt","type":"Stadt"},"district":{"key":"03155","name":"Northeim","type":"Landkreis"},"federalState":{"key":"03","name":"Niedersachsen"}},{"name":"Am Gretchenbach","postalCode":"37181","locality":"Hardegsen","municipality":{"key":"03155005","name":"Hardegsen, Stadt","type":"Stadt"},"district":{"key":"03155","name":"Northeim","type":"Landkreis"},"federalState":{"key":"03","name":"Niedersachsen"}},{"name":"Am Hagen","postalCode":"37181","locality":"Hardegsen","municipality":{"key":"03155005","name":"Hardegsen, Stadt","type":"Stadt"},"district":{"key":"03155","name":"Northeim","type":"Landkreis"},"federalState":{"key":"03","name":"Niedersachsen"}},{"name":"Am Hang","postalCode":"37181","locality":"Hardegsen","municipality":{"key":"03155005","name":"Hardegsen, Stadt","type":"Stadt"},"district":{"key":"03155","name":"Northeim","type":"Landkreis"},"federalState":{"key":"03","name":"Niedersachsen"}},{"name":"Am Herrenberg","postalCode":"37181","locality":"Hardegsen","municipality":{"key":"03155005","name":"Hardegsen, Stadt","type":"Stadt"},"district":{"key":"03155","name":"Northeim","type":"Landkreis"},"federalState":{"key":"03","name":"Niedersachsen"}},{"name":"Am Höhenberg","postalCode":"37181","locality":"Hardegsen","municipality":{"key":"03155005","name":"Hardegsen, Stadt","type":"Stadt"},"district":{"key":"03155","name":"Northeim","type":"Landkreis"},"federalState":{"key":"03","name":"Niedersachsen"}},{"name":"Am Kiel","postalCode":"37181","locality":"Hardegsen","municipality":{"key":"03155005","name":"Hardegsen, Stadt","type":"Stadt"},"district":{"key":"03155","name":"Northeim","type":"Landkreis"},"federalState":{"key":"03","name":"Niedersachsen"}},{"name":"Am Kirchberg","postalCode":"37181","locality":"Hardegsen","municipality":{"key":"03155005","name":"Hardegsen, Stadt","type":"Stadt"},"district":{"key":"03155","name":"Northeim","type":"Landkreis"},"federalState":{"key":"03","name":"Niedersachsen"}},{"name":"Am Kleeskamp","postalCode":"37181","locality":"Hardegsen","municipality":{"key":"03155005","name":"Hardegsen, Stadt","type":"Stadt"},"district":{"key":"03155","name":"Northeim","type":"Landkreis"},"federalState":{"key":"03","name":"Niedersachsen"}},{"name":"Am Kohlberg","postalCode":"37181","locality":"Hardegsen","municipality":{"key":"03155005","name":"Hardegsen, Stadt","type":"Stadt"},"district":{"key":"03155","name":"Northeim","type":"Landkreis"},"federalState":{"key":"03","name":"Niedersachsen"}},{"name":"Am Kurpark","postalCode":"37181","locality":"Hardegsen","municipality":{"key":"03155005","name":"Hardegsen, Stadt","type":"Stadt"},"district":{"key":"03155","name":"Northeim","type":"Landkreis"},"federalState":{"key":"03","name":"Niedersachsen"}},{"name":"Am Neuen Hof","postalCode":"37181","locality":"Hardegsen","municipality":{"key":"03155005","name":"Hardegsen, Stadt","type":"Stadt"},"district":{"key":"03155","name":"Northeim","type":"Landkreis"},"federalState":{"key":"03","name":"Niedersachsen"}},{"name":"Am Papenbusch","postalCode":"37181","locality":"Hardegsen","municipality":{"key":"03155005","name":"Hardegsen, Stadt","type":"Stadt"},"district":{"key":"03155","name":"Northeim","type":"Landkreis"},"federalState":{"key":"03","name":"Niedersachsen"}},{"name":"Am Plack","postalCode":"37181","locality":"Hardegsen","municipality":{"key":"03155005","name":"Hardegsen, Stadt","type":"Stadt"},"district":{"key":"03155","name":"Northeim","type":"Landkreis"},"federalState":{"key":"03","name":"Niedersachsen"}},{"name":"Am Plan","postalCode":"37181","locality":"Hardegsen","municipality":{"key":"03155005","name":"Hardegsen, Stadt","type":"Stadt"},"district":{"key":"03155","name":"Northeim","type":"Landkreis"},"federalState":{"key":"03","name":"Niedersachsen"}},{"name":"Am Sommerberg","postalCode":"37181","locality":"Hardegsen","municipality":{"key":"03155005","name":"Hardegsen, Stadt","type":"Stadt"},"district":{"key":"03155","name":"Northeim","type":"Landkreis"},"federalState":{"key":"03","name":"Niedersachsen"}},{"name":"Am Sonnenberg","postalCode":"37181","locality":"Hardegsen","municipality":{"key":"03155005","name":"Hardegsen, Stadt","type":"Stadt"},"district":{"key":"03155","name":"Northeim","type":"Landkreis"},"federalState":{"key":"03","name":"Niedersachsen"}},{"name":"Am Teichberg","postalCode":"37181","locality":"Hardegsen","municipality":{"key":"03155005","name":"Hardegsen, Stadt","type":"Stadt"},"district":{"key":"03155","name":"Northeim","type":"Landkreis"},"federalState":{"key":"03","name":"Niedersachsen"}},{"name":"Am Thie","postalCode":"37181","locality":"Hardegsen","municipality":{"key":"03155005","name":"Hardegsen, Stadt","type":"Stadt"},"district":{"key":"03155","name":"Northeim","type":"Landkreis"},"federalState":{"key":"03","name":"Niedersachsen"}},{"name":"Amtsfreiheit","postalCode":"37181","locality":"Hardegsen","municipality":{"key":"03155005","name":"Hardegsen, Stadt","type":"Stadt"},"district":{"key":"03155","name":"Northeim","type":"Landkreis"},"federalState":{"key":"03","name":"Niedersachsen"}},{"name":"An der Berghecke","postalCode":"37181","locality":"Hardegsen","municipality":{"key":"03155005","name":"Hardegsen, Stadt","type":"Stadt"},"district":{"key":"03155","name":"Northeim","type":"Landkreis"},"federalState":{"key":"03","name":"Niedersachsen"}},{"name":"An der Kirche","postalCode":"37181","locality":"Hardegsen","municipality":{"key":"03155005","name":"Hardegsen, Stadt","type":"Stadt"},"district":{"key":"03155","name":"Northeim","type":"Landkreis"},"federalState":{"key":"03","name":"Niedersachsen"}},{"name":"An der Linde","postalCode":"37181","locality":"Hardegsen","municipality":{"key":"03155005","name":"Hardegsen, Stadt","type":"Stadt"},"district":{"key":"03155","name":"Northeim","type":"Landkreis"},"federalState":{"key":"03","name":"Niedersachsen"}},{"name":"An der Mäsche","postalCode":"37181","locality":"Hardegsen","municipality":{"key":"03155005","name":"Hardegsen, Stadt","type":"Stadt"},"district":{"key":"03155","name":"Northeim","type":"Landkreis"},"federalState":{"key":"03","name":"Niedersachsen"}},{"name":"An der Niedeck","postalCode":"37181","locality":"Hardegsen","municipality":{"key":"03155005","name":"Hardegsen, Stadt","type":"Stadt"},"district":{"key":"03155","name":"Northeim","type":"Landkreis"},"federalState":{"key":"03","name":"Niedersachsen"}},{"name":"An der Obstplantage","postalCode":"37181","locality":"Hardegsen","municipality":{"key":"03155005","name":"Hardegsen, Stadt","type":"Stadt"},"district":{"key":"03155","name":"Northeim","type":"Landkreis"},"federalState":{"key":"03","name":"Niedersachsen"}},{"name":"An der Ölmuhle","postalCode":"37181","locality":"Hardegsen","municipality":{"key":"03155005","name":"Hardegsen, Stadt","type":"Stadt"},"district":{"key":"03155","name":"Northeim","type":"Landkreis"},"federalState":{"key":"03","name":"Niedersachsen"}},{"name":"An der Schwülme","postalCode":"37181","locality":"Hardegsen","municipality":{"key":"03155005","name":"Hardegsen, Stadt","type":"Stadt"},"district":{"key":"03155","name":"Northeim","type":"Landkreis"},"federalState":{"key":"03","name":"Niedersachsen"}},{"name":"Apfelstieg","postalCode":"37181","locality":"Hardegsen","municipality":{"key":"03155005","name":"Hardegsen, Stadt","type":"Stadt"},"district":{"key":"03155","name":"Northeim","type":"Landkreis"},"federalState":{"key":"03","name":"Niedersachsen"}},{"name":"Ascher Str.","postalCode":"37181","locality":"Hardegsen","municipality":{"key":"03155005","name":"Hardegsen, Stadt","type":"Stadt"},"district":{"key":"03155","name":"Northeim","type":"Landkreis"},"federalState":{"key":"03","name":"Niedersachsen"}},{"name":"Auf dem Gladeberg","postalCode":"37181","locality":"Hardegsen","municipality":{"key":"03155005","name":"Hardegsen, Stadt","type":"Stadt"},"district":{"key":"03155","name":"Northeim","type":"Landkreis"},"federalState":{"key":"03","name":"Niedersachsen"}},{"name":"Auf dem Hofland","postalCode":"37181","locality":"Hardegsen","municipality":{"key":"03155005","name":"Hardegsen, Stadt","type":"Stadt"},"district":{"key":"03155","name":"Northeim","type":"Landkreis"},"federalState":{"key":"03","name":"Niedersachsen"}},{"name":"Auf der Breite","postalCode":"37181","locality":"Hardegsen","municipality":{"key":"03155005","name":"Hardegsen, Stadt","type":"Stadt"},"district":{"key":"03155","name":"Northeim","type":"Landkreis"},"federalState":{"key":"03","name":"Niedersachsen"}},{"name":"Auf der Burg","postalCode":"37181","locality":"Hardegsen","municipality":{"key":"03155005","name":"Hardegsen, Stadt","type":"Stadt"},"district":{"key":"03155","name":"Northeim","type":"Landkreis"},"federalState":{"key":"03","name":"Niedersachsen"}},{"name":"Auf der Glaake","postalCode":"37181","locality":"Hardegsen","municipality":{"key":"03155005","name":"Hardegsen, Stadt","type":"Stadt"},"district":{"key":"03155","name":"Northeim","type":"Landkreis"},"federalState":{"key":"03","name":"Niedersachsen"}},{"name":"Auf der Pfaurade","postalCode":"37181","locality":"Hardegsen","municipality":{"key":"03155005","name":"Hardegsen, Stadt","type":"Stadt"},"district":{"key":"03155","name":"Northeim","type":"Landkreis"},"federalState":{"key":"03","name":"Niedersachsen"}},{"name":"Bachstr.","postalCode":"37181","locality":"Hardegsen","municipality":{"key":"03155005","name":"Hardegsen, Stadt","type":"Stadt"},"district":{"key":"03155","name":"Northeim","type":"Landkreis"},"federalState":{"key":"03","name":"Niedersachsen"}},{"name":"Bahnhofstr.","postalCode":"37181","locality":"Hardegsen","municipality":{"key":"03155005","name":"Hardegsen, Stadt","type":"Stadt"},"district":{"key":"03155","name":"Northeim","type":"Landkreis"},"federalState":{"key":"03","name":"Niedersachsen"}},{"name":"Bartshäuser Str.","postalCode":"37181","locality":"Hardegsen","municipality":{"key":"03155005","name":"Hardegsen, Stadt","type":"Stadt"},"district":{"key":"03155","name":"Northeim","type":"Landkreis"},"federalState":{"key":"03","name":"Niedersachsen"}},{"name":"Baumeister-Schonlau-Str.","postalCode":"37181","locality":"Hardegsen","municipality":{"key":"03155005","name":"Hardegsen, Stadt","type":"Stadt"},"district":{"key":"03155","name":"Northeim","type":"Landkreis"},"federalState":{"key":"03","name":"Niedersachsen"}},{"name":"Beckerweg","postalCode":"37181","locality":"Hardegsen","municipality":{"key":"03155005","name":"Hardegsen, Stadt","type":"Stadt"},"district":{"key":"03155","name":"Northeim","type":"Landkreis"},"federalState":{"key":"03","name":"Niedersachsen"}},{"name":"Berghofstr.","postalCode":"37181","locality":"Hardegsen","municipality":{"key":"03155005","name":"Hardegsen, Stadt","type":"Stadt"},"district":{"key":"03155","name":"Northeim","type":"Landkreis"},"federalState":{"key":"03","name":"Niedersachsen"}},{"name":"Bergstr.","postalCode":"37181","locality":"Hardegsen","municipality":{"key":"03155005","name":"Hardegsen, Stadt","type":"Stadt"},"district":{"key":"03155","name":"Northeim","type":"Landkreis"},"federalState":{"key":"03","name":"Niedersachsen"}},{"name":"Berliner Str.","postalCode":"37181","locality":"Hardegsen","municipality":{"key":"03155005","name":"Hardegsen, Stadt","type":"Stadt"},"district":{"key":"03155","name":"Northeim","type":"Landkreis"},"federalState":{"key":"03","name":"Niedersachsen"}},{"name":"Birkenhof","postalCode":"37181","locality":"Hardegsen","municipality":{"key":"03155005","name":"Hardegsen, Stadt","type":"Stadt"},"district":{"key":"03155","name":"Northeim","type":"Landkreis"},"federalState":{"key":"03","name":"Niedersachsen"}},{"name":"Birkenweg","postalCode":"37181","locality":"Hardegsen","municipality":{"key":"03155005","name":"Hardegsen, Stadt","type":"Stadt"},"district":{"key":"03155","name":"Northeim","type":"Landkreis"},"federalState":{"key":"03","name":"Niedersachsen"}},{"name":"Bollertstr.","postalCode":"37181","locality":"Hardegsen","municipality":{"key":"03155005","name":"Hardegsen, Stadt","type":"Stadt"},"district":{"key":"03155","name":"Northeim","type":"Landkreis"},"federalState":{"key":"03","name":"Niedersachsen"}},{"name":"Bornbreite","postalCode":"37181","locality":"Hardegsen","municipality":{"key":"03155005","name":"Hardegsen, Stadt","type":"Stadt"},"district":{"key":"03155","name":"Northeim","type":"Landkreis"},"federalState":{"key":"03","name":"Niedersachsen"}},{"name":"Bramburgstr.","postalCode":"37181","locality":"Hardegsen","municipality":{"key":"03155005","name":"Hardegsen, Stadt","type":"Stadt"},"district":{"key":"03155","name":"Northeim","type":"Landkreis"},"federalState":{"key":"03","name":"Niedersachsen"}},{"name":"Brandesstr.","postalCode":"37181","locality":"Hardegsen","municipality":{"key":"03155005","name":"Hardegsen, Stadt","type":"Stadt"},"district":{"key":"03155","name":"Northeim","type":"Landkreis"},"federalState":{"key":"03","name":"Niedersachsen"}},{"name":"Brinkfeldstr.","postalCode":"37181","locality":"Hardegsen","municipality":{"key":"03155005","name":"Hardegsen, Stadt","type":"Stadt"},"district":{"key":"03155","name":"Northeim","type":"Landkreis"},"federalState":{"key":"03","name":"Niedersachsen"}},{"name":"Brinkstr.","postalCode":"37181","locality":"Hardegsen","municipality":{"key":"03155005","name":"Hardegsen, Stadt","type":"Stadt"},"district":{"key":"03155","name":"Northeim","type":"Landkreis"},"federalState":{"key":"03","name":"Niedersachsen"}},{"name":"Buchenweg","postalCode":"37181","locality":"Hardegsen","municipality":{"key":"03155005","name":"Hardegsen, Stadt","type":"Stadt"},"district":{"key":"03155","name":"Northeim","type":"Landkreis"},"federalState":{"key":"03","name":"Niedersachsen"}},{"name":"Bühweg","postalCode":"37181","locality":"Hardegsen","municipality":{"key":"03155005","name":"Hardegsen, Stadt","type":"Stadt"},"district":{"key":"03155","name":"Northeim","type":"Landkreis"},"federalState":{"key":"03","name":"Niedersachsen"}},{"name":"Burgberg","postalCode":"37181","locality":"Hardegsen","municipality":{"key":"03155005","name":"Hardegsen, Stadt","type":"Stadt"},"district":{"key":"03155","name":"Northeim","type":"Landkreis"},"federalState":{"key":"03","name":"Niedersachsen"}},{"name":"Burgstr.","postalCode":"37181","locality":"Hardegsen","municipality":{"key":"03155005","name":"Hardegsen, Stadt","type":"Stadt"},"district":{"key":"03155","name":"Northeim","type":"Landkreis"},"federalState":{"key":"03","name":"Niedersachsen"}},{"name":"Carl-Loewe-Weg","postalCode":"37154","locality":"Northeim","municipality":{"key":"03155011","name":"Northeim, Stadt","type":"Stadt"},"district":{"key":"03155","name":"Northeim","type":"Landkreis"},"federalState":{"key":"03","name":"Niedersachsen"}},{"name":"Carl-Orff-Weg","postalCode":"37154","locality":"Northeim","municipality":{"key":"03155011","name":"Northeim, Stadt","type":"Stadt"},"district":{"key":"03155","name":"Northeim","type":"Landkreis"},"federalState":{"key":"03","name":"Niedersachsen"}},{"name":"Carl-Querfurt-Str.","postalCode":"37154","locality":"Northeim","municipality":{"key":"03155011","name":"Northeim, Stadt","type":"Stadt"},"district":{"key":"03155","name":"Northeim","type":"Landkreis"},"federalState":{"key":"03","name":"Niedersachsen"}},{"name":"Chopinweg","postalCode":"37154","locality":"Northeim","municipality":{"key":"03155011","name":"Northeim, Stadt","type":"Stadt"},"district":{"key":"03155","name":"Northeim","type":"Landkreis"},"federalState":{"key":"03","name":"Niedersachsen"}},{"name":"Christoph-Friese-Str.","postalCode":"37154","locality":"Northeim","municipality":{"key":"03155011","name":"Northeim, Stadt","type":"Stadt"},"district":{"key":"03155","name":"Northeim","type":"Landkreis"},"federalState":{"key":"03","name":"Niedersachsen"}},{"name":"Dachswiese","postalCode":"37181","locality":"Hardegsen","municipality":{"key":"03155005","name":"Hardegsen, Stadt","type":"Stadt"},"district":{"key":"03155","name":"Northeim","type":"Landkreis"},"federalState":{"key":"03","name":"Niedersachsen"}},{"name":"Delliehäuser Weg","postalCode":"37181","locality":"Hardegsen","municipality":{"key":"03155005","name":"Hardegsen, Stadt","type":"Stadt"},"district":{"key":"03155","name":"Northeim","type":"Landkreis"},"federalState":{"key":"03","name":"Niedersachsen"}},{"name":"Domelerweg","postalCode":"37181","locality":"Hardegsen","municipality":{"key":"03155005","name":"Hardegsen, Stadt","type":"Stadt"},"district":{"key":"03155","name":"Northeim","type":"Landkreis"},"federalState":{"key":"03","name":"Niedersachsen"}},{"name":"Dorfplatz","postalCode":"37181","locality":"Hardegsen","municipality":{"key":"03155005","name":"Hardegsen, Stadt","type":"Stadt"},"district":{"key":"03155","name":"Northeim","type":"Landkreis"},"federalState":{"key":"03","name":"Niedersachsen"}},{"name":"Dorfstr.","postalCode":"37181","locality":"Hardegsen","municipality":{"key":"03155005","name":"Hardegsen, Stadt","type":"Stadt"},"district":{"key":"03155","name":"Northeim","type":"Landkreis"},"federalState":{"key":"03","name":"Niedersachsen"}},{"name":"Drei-Eichen-Weg","postalCode":"37181","locality":"Hardegsen","municipality":{"key":"03155005","name":"Hardegsen, Stadt","type":"Stadt"},"district":{"key":"03155","name":"Northeim","type":"Landkreis"},"federalState":{"key":"03","name":"Niedersachsen"}},{"name":"Eichelbergstr.","postalCode":"37181","locality":"Hardegsen","municipality":{"key":"03155005","name":"Hardegsen, Stadt","type":"Stadt"},"district":{"key":"03155","name":"Northeim","type":"Landkreis"},"federalState":{"key":"03","name":"Niedersachsen"}},{"name":"Eichendorffstr.","postalCode":"37181","locality":"Hardegsen","municipality":{"key":"03155005","name":"Hardegsen, Stadt","type":"Stadt"},"district":{"key":"03155","name":"Northeim","type":"Landkreis"},"federalState":{"key":"03","name":"Niedersachsen"}},{"name":"Eichstr.","postalCode":"37181","locality":"Hardegsen","municipality":{"key":"03155005","name":"Hardegsen, Stadt","type":"Stadt"},"district":{"key":"03155","name":"Northeim","type":"Landkreis"},"federalState":{"key":"03","name":"Niedersachsen"}},{"name":"Ellieröder Str.","postalCode":"37181","locality":"Hardegsen","municipality":{"key":"03155005","name":"Hardegsen, Stadt","type":"Stadt"},"district":{"key":"03155","name":"Northeim","type":"Landkreis"},"federalState":{"key":"03","name":"Niedersachsen"}},{"name":"Erlenweg","postalCode":"37181","locality":"Hardegsen","municipality":{"key":"03155005","name":"Hardegsen, Stadt","type":"Stadt"},"district":{"key":"03155","name":"Northeim","type":"Landkreis"},"federalState":{"key":"03","name":"Niedersachsen"}},{"name":"Ertinghäauserweg","postalCode":"37181","locality":"Hardegsen","municipality":{"key":"03155005","name":"Hardegsen, Stadt","type":"Stadt"},"district":{"key":"03155","name":"Northeim","type":"Landkreis"},"federalState":{"key":"03","name":"Niedersachsen"}},{"name":"Ertinghäuser Str.","postalCode":"37181","locality":"Hardegsen","municipality":{"key":"03155005","name":"Hardegsen, Stadt","type":"Stadt"},"district":{"key":"03155","name":"Northeim","type":"Landkreis"},"federalState":{"key":"03","name":"Niedersachsen"}},{"name":"Ertinghäuserweg","postalCode":"37181","locality":"Hardegsen","municipality":{"key":"03155005","name":"Hardegsen, Stadt","type":"Stadt"},"district":{"key":"03155","name":"Northeim","type":"Landkreis"},"federalState":{"key":"03","name":"Niedersachsen"}},{"name":"Espoldetal","postalCode":"37181","locality":"Hardegsen","municipality":{"key":"03155005","name":"Hardegsen, Stadt","type":"Stadt"},"district":{"key":"03155","name":"Northeim","type":"Landkreis"},"federalState":{"key":"03","name":"Niedersachsen"}},{"name":"Fahrweg","postalCode":"37181","locality":"Hardegsen","municipality":{"key":"03155005","name":"Hardegsen, Stadt","type":"Stadt"},"district":{"key":"03155","name":"Northeim","type":"Landkreis"},"federalState":{"key":"03","name":"Niedersachsen"}},{"name":"Fehrlingser Str.","postalCode":"37181","locality":"Hardegsen","municipality":{"key":"03155005","name":"Hardegsen, Stadt","type":"Stadt"},"district":{"key":"03155","name":"Northeim","type":"Landkreis"},"federalState":{"key":"03","name":"Niedersachsen"}},{"name":"Fichtenweg","postalCode":"37181","locality":"Hardegsen","municipality":{"key":"03155005","name":"Hardegsen, Stadt","type":"Stadt"},"district":{"key":"03155","name":"Northeim","type":"Landkreis"},"federalState":{"key":"03","name":"Niedersachsen"}},{"name":"Fliederstr.","postalCode":"37181","locality":"Hardegsen","municipality":{"key":"03155005","name":"Hardegsen, Stadt","type":"Stadt"},"district":{"key":"03155","name":"Northeim","type":"Landkreis"},"federalState":{"key":"03","name":"Niedersachsen"}},{"name":"Friedhofsweg","postalCode":"37181","locality":"Hardegsen","municipality":{"key":"03155005","name":"Hardegsen, Stadt","type":"Stadt"},"district":{"key":"03155","name":"Northeim","type":"Landkreis"},"federalState":{"key":"03","name":"Niedersachsen"}},{"name":"Friwoler Str.","postalCode":"37181","locality":"Hardegsen","municipality":{"key":"03155005","name":"Hardegsen, Stadt","type":"Stadt"},"district":{"key":"03155","name":"Northeim","type":"Landkreis"},"federalState":{"key":"03","name":"Niedersachsen"}},{"name":"Fuchsbreite","postalCode":"37181","locality":"Hardegsen","municipality":{"key":"03155005","name":"Hardegsen, Stadt","type":"Stadt"},"district":{"key":"03155","name":"Northeim","type":"Landkreis"},"federalState":{"key":"03","name":"Niedersachsen"}},{"name":"Galgenbergstr.","postalCode":"37181","locality":"Hardegsen","municipality":{"key":"03155005","name":"Hardegsen, Stadt","type":"Stadt"},"district":{"key":"03155","name":"Northeim","type":"Landkreis"},"federalState":{"key":"03","name":"Niedersachsen"}},{"name":"Gartenstr.","postalCode":"37181","locality":"Hardegsen","municipality":{"key":"03155005","name":"Hardegsen, Stadt","type":"Stadt"},"district":{"key":"03155","name":"Northeim","type":"Landkreis"},"federalState":{"key":"03","name":"Niedersachsen"}},{"name":"Gewerbeallee","postalCode":"37181","locality":"Hardegsen","municipality":{"key":"03155005","name":"Hardegsen, Stadt","type":"Stadt"},"district":{"key":"03155","name":"Northeim","type":"Landkreis"},"federalState":{"key":"03","name":"Niedersachsen"}},{"name":"Gießeturm","postalCode":"37181","locality":"Hardegsen","municipality":{"key":"03155005","name":"Hardegsen, Stadt","type":"Stadt"},"district":{"key":"03155","name":"Northeim","type":"Landkreis"},"federalState":{"key":"03","name":"Niedersachsen"}},{"name":"Gladebergsweg","postalCode":"37181","locality":"Hardegsen","municipality":{"key":"03155005","name":"Hardegsen, Stadt","type":"Stadt"},"district":{"key":"03155","name":"Northeim","type":"Landkreis"},"federalState":{"key":"03","name":"Niedersachsen"}},{"name":"Göttinger Str.","postalCode":"37181","locality":"Hardegsen","municipality":{"key":"03155005","name":"Hardegsen, Stadt","type":"Stadt"},"district":{"key":"03155","name":"Northeim","type":"Landkreis"},"federalState":{"key":"03","name":"Niedersachsen"}},{"name":"Graseweg","postalCode":"37181","locality":"Hardegsen","municipality":{"key":"03155005","name":"Hardegsen, Stadt","type":"Stadt"},"district":{"key":"03155","name":"Northeim","type":"Landkreis"},"federalState":{"key":"03","name":"Niedersachsen"}},{"name":"Große Gasse","postalCode":"37181","locality":"Hardegsen","municipality":{"key":"03155005","name":"Hardegsen, Stadt","type":"Stadt"},"district":{"key":"03155","name":"Northeim","type":"Landkreis"},"federalState":{"key":"03","name":"Niedersachsen"}},{"name":"Grüner Weg","postalCode":"37181","locality":"Hardegsen","municipality":{"key":"03155005","name":"Hardegsen, Stadt","type":"Stadt"},"district":{"key":"03155","name":"Northeim","type":"Landkreis"},"federalState":{"key":"03","name":"Niedersachsen"}},{"name":"Haarkesanger","postalCode":"37181","locality":"Hardegsen","municipality":{"key":"03155005","name":"Hardegsen, Stadt","type":"Stadt"},"district":{"key":"03155","name":"Northeim","type":"Landkreis"},"federalState":{"key":"03","name":"Niedersachsen"}},{"name":"Haidbreite","postalCode":"37181","locality":"Hardegsen","municipality":{"key":"03155005","name":"Hardegsen, Stadt","type":"Stadt"},"district":{"key":"03155","name":"Northeim","type":"Landkreis"},"federalState":{"key":"03","name":"Niedersachsen"}},{"name":"Hardegser Weg","postalCode":"37181","locality":"Hardegsen","municipality":{"key":"03155005","name":"Hardegsen, Stadt","type":"Stadt"},"district":{"key":"03155","name":"Northeim","type":"Landkreis"},"federalState":{"key":"03","name":"Niedersachsen"}},{"name":"Hasenweide","postalCode":"37181","locality":"Hardegsen","municipality":{"key":"03155005","name":"Hardegsen, Stadt","type":"Stadt"},"district":{"key":"03155","name":"Northeim","type":"Landkreis"},"federalState":{"key":"03","name":"Niedersachsen"}},{"name":"Hauptstr.","postalCode":"37181","locality":"Hardegsen","municipality":{"key":"03155005","name":"Hardegsen, Stadt","type":"Stadt"},"district":{"key":"03155","name":"Northeim","type":"Landkreis"},"federalState":{"key":"03","name":"Niedersachsen"}},{"name":"Herzog-Otto-Str.","postalCode":"37181","locality":"Hardegsen","municipality":{"key":"03155005","name":"Hardegsen, Stadt","type":"Stadt"},"district":{"key":"03155","name":"Northeim","type":"Landkreis"},"federalState":{"key":"03","name":"Niedersachsen"}},{"name":"Hettenser Str.","postalCode":"37181","locality":"Hardegsen","municipality":{"key":"03155005","name":"Hardegsen, Stadt","type":"Stadt"},"district":{"key":"03155","name":"Northeim","type":"Landkreis"},"federalState":{"key":"03","name":"Niedersachsen"}},{"name":"Hevenser Str.","postalCode":"37181","locality":"Hardegsen","municipality":{"key":"03155005","name":"Hardegsen, Stadt","type":"Stadt"},"district":{"key":"03155","name":"Northeim","type":"Landkreis"},"federalState":{"key":"03","name":"Niedersachsen"}},{"name":"Hinter den Höfen","postalCode":"37181","locality":"Hardegsen","municipality":{"key":"03155005","name":"Hardegsen, Stadt","type":"Stadt"},"district":{"key":"03155","name":"Northeim","type":"Landkreis"},"federalState":{"key":"03","name":"Niedersachsen"}},{"name":"Hinter der Klus","postalCode":"37181","locality":"Hardegsen","municipality":{"key":"03155005","name":"Hardegsen, Stadt","type":"Stadt"},"district":{"key":"03155","name":"Northeim","type":"Landkreis"},"federalState":{"key":"03","name":"Niedersachsen"}},{"name":"Hinterstr.","postalCode":"37181","locality":"Hardegsen","municipality":{"key":"03155005","name":"Hardegsen, Stadt","type":"Stadt"},"district":{"key":"03155","name":"Northeim","type":"Landkreis"},"federalState":{"key":"03","name":"Niedersachsen"}},{"name":"Hohe Str.","postalCode":"37181","locality":"Hardegsen","municipality":{"key":"03155005","name":"Hardegsen, Stadt","type":"Stadt"},"district":{"key":"03155","name":"Northeim","type":"Landkreis"},"federalState":{"key":"03","name":"Niedersachsen"}},{"name":"Hohle Str.","postalCode":"37181","locality":"Hardegsen","municipality":{"key":"03155005","name":"Hardegsen, Stadt","type":"Stadt"},"district":{"key":"03155","name":"Northeim","type":"Landkreis"},"federalState":{"key":"03","name":"Niedersachsen"}},{"name":"Horst-von-Jagemann-Str.","postalCode":"37181","locality":"Hardegsen","municipality":{"key":"03155005","name":"Hardegsen, Stadt","type":"Stadt"},"district":{"key":"03155","name":"Northeim","type":"Landkreis"},"federalState":{"key":"03","name":"Niedersachsen"}},{"name":"Im Alten Höfen","postalCode":"37181","locality":"Hardegsen","municipality":{"key":"03155005","name":"Hardegsen, Stadt","type":"Stadt"},"district":{"key":"03155","name":"Northeim","type":"Landkreis"},"federalState":{"key":"03","name":"Niedersachsen"}},{"name":"Im Feldhüterhof","postalCode":"37181","locality":"Hardegsen","municipality":{"key":"03155005","name":"Hardegsen, Stadt","type":"Stadt"},"district":{"key":"03155","name":"Northeim","type":"Landkreis"},"federalState":{"key":"03","name":"Niedersachsen"}},{"name":"Im Finkenhof","postalCode":"37181","locality":"Hardegsen","municipality":{"key":"03155005","name":"Hardegsen, Stadt","type":"Stadt"},"district":{"key":"03155","name":"Northeim","type":"Landkreis"},"federalState":{"key":"03","name":"Niedersachsen"}},{"name":"Im Knick","postalCode":"37181","locality":"Hardegsen","municipality":{"key":"03155005","name":"Hardegsen, Stadt","type":"Stadt"},"district":{"key":"03155","name":"Northeim","type":"Landkreis"},"federalState":{"key":"03","name":"Niedersachsen"}},{"name":"Im Lohwinkel","postalCode":"37181","locality":"Hardegsen","municipality":{"key":"03155005","name":"Hardegsen, Stadt","type":"Stadt"},"district":{"key":"03155","name":"Northeim","type":"Landkreis"},"federalState":{"key":"03","name":"Niedersachsen"}},{"name":"Im Pfingstanger","postalCode":"37181","locality":"Hardegsen","municipality":{"key":"03155005","name":"Hardegsen, Stadt","type":"Stadt"},"district":{"key":"03155","name":"Northeim","type":"Landkreis"},"federalState":{"key":"03","name":"Niedersachsen"}},{"name":"Im Rischenau","postalCode":"37181","locality":"Hardegsen","municipality":{"key":"03155005","name":"Hardegsen, Stadt","type":"Stadt"},"district":{"key":"03155","name":"Northeim","type":"Landkreis"},"federalState":{"key":"03","name":"Niedersachsen"}},{"name":"Im Stiegsfeld","postalCode":"37181","locality":"Hardegsen","municipality":{"key":"03155005","name":"Hardegsen, Stadt","type":"Stadt"},"district":{"key":"03155","name":"Northeim","type":"Landkreis"},"federalState":{"key":"03","name":"Niedersachsen"}},{"name":"Im Unterdorf","postalCode":"37181","locality":"Hardegsen","municipality":{"key":"03155005","name":"Hardegsen, Stadt","type":"Stadt"},"district":{"key":"03155","name":"Northeim","type":"Landkreis"},"federalState":{"key":"03","name":"Niedersachsen"}},{"name":"Im Winkel","postalCode":"37181","locality":"Hardegsen","municipality":{"key":"03155005","name":"Hardegsen, Stadt","type":"Stadt"},"district":{"key":"03155","name":"Northeim","type":"Landkreis"},"federalState":{"key":"03","name":"Niedersachsen"}},{"name":"In der Paschenburg","postalCode":"37181","locality":"Hardegsen","municipality":{"key":"03155005","name":"Hardegsen, Stadt","type":"Stadt"},"district":{"key":"03155","name":"Northeim","type":"Landkreis"},"federalState":{"key":"03","name":"Niedersachsen"}},{"name":"Johannisanger","postalCode":"37181","locality":"Hardegsen","municipality":{"key":"03155005","name":"Hardegsen, Stadt","type":"Stadt"},"district":{"key":"03155","name":"Northeim","type":"Landkreis"},"federalState":{"key":"03","name":"Niedersachsen"}},{"name":"Kaineweg","postalCode":"37181","locality":"Hardegsen","municipality":{"key":"03155005","name":"Hardegsen, Stadt","type":"Stadt"},"district":{"key":"03155","name":"Northeim","type":"Landkreis"},"federalState":{"key":"03","name":"Niedersachsen"}},{"name":"Kampfeldstr.","postalCode":"37181","locality":"Hardegsen","municipality":{"key":"03155005","name":"Hardegsen, Stadt","type":"Stadt"},"district":{"key":"03155","name":"Northeim","type":"Landkreis"},"federalState":{"key":"03","name":"Niedersachsen"}},{"name":"Karl-Lechte-Weg","postalCode":"37181","locality":"Hardegsen","municipality":{"key":"03155005","name":"Hardegsen, Stadt","type":"Stadt"},"district":{"key":"03155","name":"Northeim","type":"Landkreis"},"federalState":{"key":"03","name":"Niedersachsen"}},{"name":"Kespernstr.","postalCode":"37181","locality":"Hardegsen","municipality":{"key":"03155005","name":"Hardegsen, Stadt","type":"Stadt"},"district":{"key":"03155","name":"Northeim","type":"Landkreis"},"federalState":{"key":"03","name":"Niedersachsen"}},{"name":"Kiefernweg","postalCode":"37181","locality":"Hardegsen","municipality":{"key":"03155005","name":"Hardegsen, Stadt","type":"Stadt"},"district":{"key":"03155","name":"Northeim","type":"Landkreis"},"federalState":{"key":"03","name":"Niedersachsen"}},{"name":"Kirchgasse","postalCode":"37181","locality":"Hardegsen","municipality":{"key":"03155005","name":"Hardegsen, Stadt","type":"Stadt"},"district":{"key":"03155","name":"Northeim","type":"Landkreis"},"federalState":{"key":"03","name":"Niedersachsen"}},{"name":"Kirchweg","postalCode":"37181","locality":"Hardegsen","municipality":{"key":"03155005","name":"Hardegsen, Stadt","type":"Stadt"},"district":{"key":"03155","name":"Northeim","type":"Landkreis"},"federalState":{"key":"03","name":"Niedersachsen"}},{"name":"Kirschstr.","postalCode":"37181","locality":"Hardegsen","municipality":{"key":"03155005","name":"Hardegsen, Stadt","type":"Stadt"},"district":{"key":"03155","name":"Northeim","type":"Landkreis"},"federalState":{"key":"03","name":"Niedersachsen"}},{"name":"Kirschweg","postalCode":"37181","locality":"Hardegsen","municipality":{"key":"03155005","name":"Hardegsen, Stadt","type":"Stadt"},"district":{"key":"03155","name":"Northeim","type":"Landkreis"},"federalState":{"key":"03","name":"Niedersachsen"}},{"name":"Krausweg","postalCode":"37181","locality":"Hardegsen","municipality":{"key":"03155005","name":"Hardegsen, Stadt","type":"Stadt"},"district":{"key":"03155","name":"Northeim","type":"Landkreis"},"federalState":{"key":"03","name":"Niedersachsen"}},{"name":"Krummelstr.","postalCode":"37181","locality":"Hardegsen","municipality":{"key":"03155005","name":"Hardegsen, Stadt","type":"Stadt"},"district":{"key":"03155","name":"Northeim","type":"Landkreis"},"federalState":{"key":"03","name":"Niedersachsen"}},{"name":"Kurpark","postalCode":"37181","locality":"Hardegsen","municipality":{"key":"03155005","name":"Hardegsen, Stadt","type":"Stadt"},"district":{"key":"03155","name":"Northeim","type":"Landkreis"},"federalState":{"key":"03","name":"Niedersachsen"}},{"name":"Landstr.","postalCode":"37181","locality":"Hardegsen","municipality":{"key":"03155005","name":"Hardegsen, Stadt","type":"Stadt"},"district":{"key":"03155","name":"Northeim","type":"Landkreis"},"federalState":{"key":"03","name":"Niedersachsen"}},{"name":"Landwehr","postalCode":"37181","locality":"Hardegsen","municipality":{"key":"03155005","name":"Hardegsen, Stadt","type":"Stadt"},"district":{"key":"03155","name":"Northeim","type":"Landkreis"},"federalState":{"key":"03","name":"Niedersachsen"}},{"name":"Lange Str.","postalCode":"37181","locality":"Hardegsen","municipality":{"key":"03155005","name":"Hardegsen, Stadt","type":"Stadt"},"district":{"key":"03155","name":"Northeim","type":"Landkreis"},"federalState":{"key":"03","name":"Niedersachsen"}},{"name":"Lärchenweg","postalCode":"37181","locality":"Hardegsen","municipality":{"key":"03155005","name":"Hardegsen, Stadt","type":"Stadt"},"district":{"key":"03155","name":"Northeim","type":"Landkreis"},"federalState":{"key":"03","name":"Niedersachsen"}},{"name":"Lehmkuhlenstr.","postalCode":"37181","locality":"Hardegsen","municipality":{"key":"03155005","name":"Hardegsen, Stadt","type":"Stadt"},"district":{"key":"03155","name":"Northeim","type":"Landkreis"},"federalState":{"key":"03","name":"Niedersachsen"}},{"name":"Letznerstr.","postalCode":"37181","locality":"Hardegsen","municipality":{"key":"03155005","name":"Hardegsen, Stadt","type":"Stadt"},"district":{"key":"03155","name":"Northeim","type":"Landkreis"},"federalState":{"key":"03","name":"Niedersachsen"}},{"name":"Lianenweg","postalCode":"37181","locality":"Hardegsen","municipality":{"key":"03155005","name":"Hardegsen, Stadt","type":"Stadt"},"district":{"key":"03155","name":"Northeim","type":"Landkreis"},"federalState":{"key":"03","name":"Niedersachsen"}},{"name":"Lindenplatz","postalCode":"37181","locality":"Hardegsen","municipality":{"key":"03155005","name":"Hardegsen, Stadt","type":"Stadt"},"district":{"key":"03155","name":"Northeim","type":"Landkreis"},"federalState":{"key":"03","name":"Niedersachsen"}},{"name":"Lindenstr.","postalCode":"37181","locality":"Hardegsen","municipality":{"key":"03155005","name":"Hardegsen, Stadt","type":"Stadt"},"district":{"key":"03155","name":"Northeim","type":"Landkreis"},"federalState":{"key":"03","name":"Niedersachsen"}},{"name":"Lödingser Str.","postalCode":"37181","locality":"Hardegsen","municipality":{"key":"03155005","name":"Hardegsen, Stadt","type":"Stadt"},"district":{"key":"03155","name":"Northeim","type":"Landkreis"},"federalState":{"key":"03","name":"Niedersachsen"}},{"name":"Ludwigshöhe","postalCode":"37181","locality":"Hardegsen","municipality":{"key":"03155005","name":"Hardegsen, Stadt","type":"Stadt"},"district":{"key":"03155","name":"Northeim","type":"Landkreis"},"federalState":{"key":"03","name":"Niedersachsen"}},{"name":"Lunauweg","postalCode":"37181","locality":"Hardegsen","municipality":{"key":"03155005","name":"Hardegsen, Stadt","type":"Stadt"},"district":{"key":"03155","name":"Northeim","type":"Landkreis"},"federalState":{"key":"03","name":"Niedersachsen"}},{"name":"Lutterhäuser Str.","postalCode":"37181","locality":"Hardegsen","municipality":{"key":"03155005","name":"Hardegsen, Stadt","type":"Stadt"},"district":{"key":"03155","name":"Northeim","type":"Landkreis"},"federalState":{"key":"03","name":"Niedersachsen"}},{"name":"Marderwinkel","postalCode":"37181","locality":"Hardegsen","municipality":{"key":"03155005","name":"Hardegsen, Stadt","type":"Stadt"},"district":{"key":"03155","name":"Northeim","type":"Landkreis"},"federalState":{"key":"03","name":"Niedersachsen"}},{"name":"Margaretenweg","postalCode":"37181","locality":"Hardegsen","municipality":{"key":"03155005","name":"Hardegsen, Stadt","type":"Stadt"},"district":{"key":"03155","name":"Northeim","type":"Landkreis"},"federalState":{"key":"03","name":"Niedersachsen"}},{"name":"Marienweg","postalCode":"37181","locality":"Hardegsen","municipality":{"key":"03155005","name":"Hardegsen, Stadt","type":"Stadt"},"district":{"key":"03155","name":"Northeim","type":"Landkreis"},"federalState":{"key":"03","name":"Niedersachsen"}},{"name":"Mauerstr.","postalCode":"37181","locality":"Hardegsen","municipality":{"key":"03155005","name":"Hardegsen, Stadt","type":"Stadt"},"district":{"key":"03155","name":"Northeim","type":"Landkreis"},"federalState":{"key":"03","name":"Niedersachsen"}},{"name":"Meckelstr.","postalCode":"37181","locality":"Hardegsen","municipality":{"key":"03155005","name":"Hardegsen, Stadt","type":"Stadt"},"district":{"key":"03155","name":"Northeim","type":"Landkreis"},"federalState":{"key":"03","name":"Niedersachsen"}},{"name":"Meinertsberg","postalCode":"37181","locality":"Hardegsen","municipality":{"key":"03155005","name":"Hardegsen, Stadt","type":"Stadt"},"district":{"key":"03155","name":"Northeim","type":"Landkreis"},"federalState":{"key":"03","name":"Niedersachsen"}},{"name":"Moringer Str.","postalCode":"37181","locality":"Hardegsen","municipality":{"key":"03155005","name":"Hardegsen, Stadt","type":"Stadt"},"district":{"key":"03155","name":"Northeim","type":"Landkreis"},"federalState":{"key":"03","name":"Niedersachsen"}},{"name":"Mühlenanger","postalCode":"37181","locality":"Hardegsen","municipality":{"key":"03155005","name":"Hardegsen, Stadt","type":"Stadt"},"district":{"key":"03155","name":"Northeim","type":"Landkreis"},"federalState":{"key":"03","name":"Niedersachsen"}},{"name":"Mühlenberg","postalCode":"37181","locality":"Hardegsen","municipality":{"key":"03155005","name":"Hardegsen, Stadt","type":"Stadt"},"district":{"key":"03155","name":"Northeim","type":"Landkreis"},"federalState":{"key":"03","name":"Niedersachsen"}},{"name":"Mühlengarten","postalCode":"37181","locality":"Hardegsen","municipality":{"key":"03155005","name":"Hardegsen, Stadt","type":"Stadt"},"district":{"key":"03155","name":"Northeim","type":"Landkreis"},"federalState":{"key":"03","name":"Niedersachsen"}},{"name":"Mühlengasse","postalCode":"37181","locality":"Hardegsen","municipality":{"key":"03155005","name":"Hardegsen, Stadt","type":"Stadt"},"district":{"key":"03155","name":"Northeim","type":"Landkreis"},"federalState":{"key":"03","name":"Niedersachsen"}},{"name":"Mühlenstieg","postalCode":"37181","locality":"Hardegsen","municipality":{"key":"03155005","name":"Hardegsen, Stadt","type":"Stadt"},"district":{"key":"03155","name":"Northeim","type":"Landkreis"},"federalState":{"key":"03","name":"Niedersachsen"}},{"name":"Mühlenstr.","postalCode":"37181","locality":"Hardegsen","municipality":{"key":"03155005","name":"Hardegsen, Stadt","type":"Stadt"},"district":{"key":"03155","name":"Northeim","type":"Landkreis"},"federalState":{"key":"03","name":"Niedersachsen"}},{"name":"Mühlenweg","postalCode":"37181","locality":"Hardegsen","municipality":{"key":"03155005","name":"Hardegsen, Stadt","type":"Stadt"},"district":{"key":"03155","name":"Northeim","type":"Landkreis"},"federalState":{"key":"03","name":"Niedersachsen"}},{"name":"Nienhagener Str.","postalCode":"37181","locality":"Hardegsen","municipality":{"key":"03155005","name":"Hardegsen, Stadt","type":"Stadt"},"district":{"key":"03155","name":"Northeim","type":"Landkreis"},"federalState":{"key":"03","name":"Niedersachsen"}},{"name":"Nordring","postalCode":"37181","locality":"Hardegsen","municipality":{"key":"03155005","name":"Hardegsen, Stadt","type":"Stadt"},"district":{"key":"03155","name":"Northeim","type":"Landkreis"},"federalState":{"key":"03","name":"Niedersachsen"}},{"name":"Northeimer Landstr.","postalCode":"37181","locality":"Hardegsen","municipality":{"key":"03155005","name":"Hardegsen, Stadt","type":"Stadt"},"district":{"key":"03155","name":"Northeim","type":"Landkreis"},"federalState":{"key":"03","name":"Niedersachsen"}},{"name":"Oberdorfstr.","postalCode":"37181","locality":"Hardegsen","municipality":{"key":"03155005","name":"Hardegsen, Stadt","type":"Stadt"},"district":{"key":"03155","name":"Northeim","type":"Landkreis"},"federalState":{"key":"03","name":"Niedersachsen"}},{"name":"Oberfeld","postalCode":"37181","locality":"Hardegsen","municipality":{"key":"03155005","name":"Hardegsen, Stadt","type":"Stadt"},"district":{"key":"03155","name":"Northeim","type":"Landkreis"},"federalState":{"key":"03","name":"Niedersachsen"}},{"name":"Papenstr.","postalCode":"37181","locality":"Hardegsen","municipality":{"key":"03155005","name":"Hardegsen, Stadt","type":"Stadt"},"district":{"key":"03155","name":"Northeim","type":"Landkreis"},"federalState":{"key":"03","name":"Niedersachsen"}},{"name":"Parenser Weg","postalCode":"37181","locality":"Hardegsen","municipality":{"key":"03155005","name":"Hardegsen, Stadt","type":"Stadt"},"district":{"key":"03155","name":"Northeim","type":"Landkreis"},"federalState":{"key":"03","name":"Niedersachsen"}},{"name":"Pfarrstr.","postalCode":"37181","locality":"Hardegsen","municipality":{"key":"03155005","name":"Hardegsen, Stadt","type":"Stadt"},"district":{"key":"03155","name":"Northeim","type":"Landkreis"},"federalState":{"key":"03","name":"Niedersachsen"}},{"name":"Quellengrund","postalCode":"37154","locality":"Northeim","municipality":{"key":"03155011","name":"Northeim, Stadt","type":"Stadt"},"district":{"key":"03155","name":"Northeim","type":"Landkreis"},"federalState":{"key":"03","name":"Niedersachsen"}},{"name":"Rathausstr.","postalCode":"37181","locality":"Hardegsen","municipality":{"key":"03155005","name":"Hardegsen, Stadt","type":"Stadt"},"district":{"key":"03155","name":"Northeim","type":"Landkreis"},"federalState":{"key":"03","name":"Niedersachsen"}},{"name":"Rektor-Westermann-Str.","postalCode":"37181","locality":"Hardegsen","municipality":{"key":"03155005","name":"Hardegsen, Stadt","type":"Stadt"},"district":{"key":"03155","name":"Northeim","type":"Landkreis"},"federalState":{"key":"03","name":"Niedersachsen"}},{"name":"Rosenstr.","postalCode":"37181","locality":"Hardegsen","municipality":{"key":"03155005","name":"Hardegsen, Stadt","type":"Stadt"},"district":{"key":"03155","name":"Northeim","type":"Landkreis"},"federalState":{"key":"03","name":"Niedersachsen"}},{"name":"Rosenwinkel","postalCode":"37181","locality":"Hardegsen","municipality":{"key":"03155005","name":"Hardegsen, Stadt","type":"Stadt"},"district":{"key":"03155","name":"Northeim","type":"Landkreis"},"federalState":{"key":"03","name":"Niedersachsen"}},{"name":"Sankt-Lamberti-Str.","postalCode":"37181","locality":"Hardegsen","municipality":{"key":"03155005","name":"Hardegsen, Stadt","type":"Stadt"},"district":{"key":"03155","name":"Northeim","type":"Landkreis"},"federalState":{"key":"03","name":"Niedersachsen"}},{"name":"Saure Plecke","postalCode":"37181","locality":"Hardegsen","municipality":{"key":"03155005","name":"Hardegsen, Stadt","type":"Stadt"},"district":{"key":"03155","name":"Northeim","type":"Landkreis"},"federalState":{"key":"03","name":"Niedersachsen"}},{"name":"Schafstallweg","postalCode":"37181","locality":"Hardegsen","municipality":{"key":"03155005","name":"Hardegsen, Stadt","type":"Stadt"},"district":{"key":"03155","name":"Northeim","type":"Landkreis"},"federalState":{"key":"03","name":"Niedersachsen"}},{"name":"Schaperhof","postalCode":"37181","locality":"Hardegsen","municipality":{"key":"03155005","name":"Hardegsen, Stadt","type":"Stadt"},"district":{"key":"03155","name":"Northeim","type":"Landkreis"},"federalState":{"key":"03","name":"Niedersachsen"}},{"name":"Schiefe Barte","postalCode":"37181","locality":"Hardegsen","municipality":{"key":"03155005","name":"Hardegsen, Stadt","type":"Stadt"},"district":{"key":"03155","name":"Northeim","type":"Landkreis"},"federalState":{"key":"03","name":"Niedersachsen"}},{"name":"Schiefe Halbe","postalCode":"37181","locality":"Hardegsen","municipality":{"key":"03155005","name":"Hardegsen, Stadt","type":"Stadt"},"district":{"key":"03155","name":"Northeim","type":"Landkreis"},"federalState":{"key":"03","name":"Niedersachsen"}},{"name":"Schmiedegasse","postalCode":"37181","locality":"Hardegsen","municipality":{"key":"03155005","name":"Hardegsen, Stadt","type":"Stadt"},"district":{"key":"03155","name":"Northeim","type":"Landkreis"},"federalState":{"key":"03","name":"Niedersachsen"}},{"name":"Schmiedestr.","postalCode":"37181","locality":"Hardegsen","municipality":{"key":"03155005","name":"Hardegsen, Stadt","type":"Stadt"},"district":{"key":"03155","name":"Northeim","type":"Landkreis"},"federalState":{"key":"03","name":"Niedersachsen"}},{"name":"Schmiedewiese","postalCode":"37181","locality":"Hardegsen","municipality":{"key":"03155005","name":"Hardegsen, Stadt","type":"Stadt"},"district":{"key":"03155","name":"Northeim","type":"Landkreis"},"federalState":{"key":"03","name":"Niedersachsen"}},{"name":"Schneiderweg","postalCode":"37181","locality":"Hardegsen","municipality":{"key":"03155005","name":"Hardegsen, Stadt","type":"Stadt"},"district":{"key":"03155","name":"Northeim","type":"Landkreis"},"federalState":{"key":"03","name":"Niedersachsen"}},{"name":"Schönebergweg","postalCode":"37181","locality":"Hardegsen","municipality":{"key":"03155005","name":"Hardegsen, Stadt","type":"Stadt"},"district":{"key":"03155","name":"Northeim","type":"Landkreis"},"federalState":{"key":"03","name":"Niedersachsen"}},{"name":"Schulstr.","postalCode":"37181","locality":"Hardegsen","municipality":{"key":"03155005","name":"Hardegsen, Stadt","type":"Stadt"},"district":{"key":"03155","name":"Northeim","type":"Landkreis"},"federalState":{"key":"03","name":"Niedersachsen"}},{"name":"Schulweg","postalCode":"37181","locality":"Hardegsen","municipality":{"key":"03155005","name":"Hardegsen, Stadt","type":"Stadt"},"district":{"key":"03155","name":"Northeim","type":"Landkreis"},"federalState":{"key":"03","name":"Niedersachsen"}},{"name":"Schwarzer Weg","postalCode":"37181","locality":"Hardegsen","municipality":{"key":"03155005","name":"Hardegsen, Stadt","type":"Stadt"},"district":{"key":"03155","name":"Northeim","type":"Landkreis"},"federalState":{"key":"03","name":"Niedersachsen"}},{"name":"Sechslindenweg","postalCode":"37181","locality":"Hardegsen","municipality":{"key":"03155005","name":"Hardegsen, Stadt","type":"Stadt"},"district":{"key":"03155","name":"Northeim","type":"Landkreis"},"federalState":{"key":"03","name":"Niedersachsen"}},{"name":"Siedlungsstr.","postalCode":"37181","locality":"Hardegsen","municipality":{"key":"03155005","name":"Hardegsen, Stadt","type":"Stadt"},"district":{"key":"03155","name":"Northeim","type":"Landkreis"},"federalState":{"key":"03","name":"Niedersachsen"}},{"name":"Sohnreystr.","postalCode":"37181","locality":"Hardegsen","municipality":{"key":"03155005","name":"Hardegsen, Stadt","type":"Stadt"},"district":{"key":"03155","name":"Northeim","type":"Landkreis"},"federalState":{"key":"03","name":"Niedersachsen"}},{"name":"Sollingstr.","postalCode":"37181","locality":"Hardegsen","municipality":{"key":"03155005","name":"Hardegsen, Stadt","type":"Stadt"},"district":{"key":"03155","name":"Northeim","type":"Landkreis"},"federalState":{"key":"03","name":"Niedersachsen"}},{"name":"Sonnenweg","postalCode":"37181","locality":"Hardegsen","municipality":{"key":"03155005","name":"Hardegsen, Stadt","type":"Stadt"},"district":{"key":"03155","name":"Northeim","type":"Landkreis"},"federalState":{"key":"03","name":"Niedersachsen"}},{"name":"Spangenbergweg","postalCode":"37181","locality":"Hardegsen","municipality":{"key":"03155005","name":"Hardegsen, Stadt","type":"Stadt"},"district":{"key":"03155","name":"Northeim","type":"Landkreis"},"federalState":{"key":"03","name":"Niedersachsen"}},{"name":"Springanger","postalCode":"37181","locality":"Hardegsen","municipality":{"key":"03155005","name":"Hardegsen, Stadt","type":"Stadt"},"district":{"key":"03155","name":"Northeim","type":"Landkreis"},"federalState":{"key":"03","name":"Niedersachsen"}},{"name":"Springstr.","postalCode":"37181","locality":"Hardegsen","municipality":{"key":"03155005","name":"Hardegsen, Stadt","type":"Stadt"},"district":{"key":"03155","name":"Northeim","type":"Landkreis"},"federalState":{"key":"03","name":"Niedersachsen"}},{"name":"Stadtpark","postalCode":"37181","locality":"Hardegsen","municipality":{"key":"03155005","name":"Hardegsen, Stadt","type":"Stadt"},"district":{"key":"03155","name":"Northeim","type":"Landkreis"},"federalState":{"key":"03","name":"Niedersachsen"}},{"name":"Stecklersbeeke","postalCode":"37181","locality":"Hardegsen","municipality":{"key":"03155005","name":"Hardegsen, Stadt","type":"Stadt"},"district":{"key":"03155","name":"Northeim","type":"Landkreis"},"federalState":{"key":"03","name":"Niedersachsen"}},{"name":"Steinbreite","postalCode":"37181","locality":"Hardegsen","municipality":{"key":"03155005","name":"Hardegsen, Stadt","type":"Stadt"},"district":{"key":"03155","name":"Northeim","type":"Landkreis"},"federalState":{"key":"03","name":"Niedersachsen"}},{"name":"Steintor","postalCode":"37181","locality":"Hardegsen","municipality":{"key":"03155005","name":"Hardegsen, Stadt","type":"Stadt"},"district":{"key":"03155","name":"Northeim","type":"Landkreis"},"federalState":{"key":"03","name":"Niedersachsen"}},{"name":"Stolberger Weg","postalCode":"37181","locality":"Hardegsen","municipality":{"key":"03155005","name":"Hardegsen, Stadt","type":"Stadt"},"district":{"key":"03155","name":"Northeim","type":"Landkreis"},"federalState":{"key":"03","name":"Niedersachsen"}},{"name":"Strohmeyerweg","postalCode":"37181","locality":"Hardegsen","municipality":{"key":"03155005","name":"Hardegsen, Stadt","type":"Stadt"},"district":{"key":"03155","name":"Northeim","type":"Landkreis"},"federalState":{"key":"03","name":"Niedersachsen"}},{"name":"Stubenstr.","postalCode":"37181","locality":"Hardegsen","municipality":{"key":"03155005","name":"Hardegsen, Stadt","type":"Stadt"},"district":{"key":"03155","name":"Northeim","type":"Landkreis"},"federalState":{"key":"03","name":"Niedersachsen"}},{"name":"Teichwiesenstr.","postalCode":"37181","locality":"Hardegsen","municipality":{"key":"03155005","name":"Hardegsen, Stadt","type":"Stadt"},"district":{"key":"03155","name":"Northeim","type":"Landkreis"},"federalState":{"key":"03","name":"Niedersachsen"}},{"name":"Thüdinghäuser Str.","postalCode":"37181","locality":"Hardegsen","municipality":{"key":"03155005","name":"Hardegsen, Stadt","type":"Stadt"},"district":{"key":"03155","name":"Northeim","type":"Landkreis"},"federalState":{"key":"03","name":"Niedersachsen"}},{"name":"Töllenweg","postalCode":"37181","locality":"Hardegsen","municipality":{"key":"03155005","name":"Hardegsen, Stadt","type":"Stadt"},"district":{"key":"03155","name":"Northeim","type":"Landkreis"},"federalState":{"key":"03","name":"Niedersachsen"}},{"name":"Trail","postalCode":"37181","locality":"Hardegsen","municipality":{"key":"03155005","name":"Hardegsen, Stadt","type":"Stadt"},"district":{"key":"03155","name":"Northeim","type":"Landkreis"},"federalState":{"key":"03","name":"Niedersachsen"}},{"name":"Trift","postalCode":"37181","locality":"Hardegsen","municipality":{"key":"03155005","name":"Hardegsen, Stadt","type":"Stadt"},"district":{"key":"03155","name":"Northeim","type":"Landkreis"},"federalState":{"key":"03","name":"Niedersachsen"}},{"name":"Trögener Landstr.","postalCode":"37181","locality":"Hardegsen","municipality":{"key":"03155005","name":"Hardegsen, Stadt","type":"Stadt"},"district":{"key":"03155","name":"Northeim","type":"Landkreis"},"federalState":{"key":"03","name":"Niedersachsen"}},{"name":"Tweeschmorgen","postalCode":"37181","locality":"Hardegsen","municipality":{"key":"03155005","name":"Hardegsen, Stadt","type":"Stadt"},"district":{"key":"03155","name":"Northeim","type":"Landkreis"},"federalState":{"key":"03","name":"Niedersachsen"}},{"name":"Twetgenweg","postalCode":"37181","locality":"Hardegsen","municipality":{"key":"03155005","name":"Hardegsen, Stadt","type":"Stadt"},"district":{"key":"03155","name":"Northeim","type":"Landkreis"},"federalState":{"key":"03","name":"Niedersachsen"}},{"name":"Unterdorfstr.","postalCode":"37181","locality":"Hardegsen","municipality":{"key":"03155005","name":"Hardegsen, Stadt","type":"Stadt"},"district":{"key":"03155","name":"Northeim","type":"Landkreis"},"federalState":{"key":"03","name":"Niedersachsen"}},{"name":"Vogelfleck","postalCode":"37181","locality":"Hardegsen","municipality":{"key":"03155005","name":"Hardegsen, Stadt","type":"Stadt"},"district":{"key":"03155","name":"Northeim","type":"Landkreis"},"federalState":{"key":"03","name":"Niedersachsen"}},{"name":"Vor dem Dorfe","postalCode":"37181","locality":"Hardegsen","municipality":{"key":"03155005","name":"Hardegsen, Stadt","type":"Stadt"},"district":{"key":"03155","name":"Northeim","type":"Landkreis"},"federalState":{"key":"03","name":"Niedersachsen"}},{"name":"Vor dem Tore","postalCode":"37181","locality":"Hardegsen","municipality":{"key":"03155005","name":"Hardegsen, Stadt","type":"Stadt"},"district":{"key":"03155","name":"Northeim","type":"Landkreis"},"federalState":{"key":"03","name":"Niedersachsen"}},{"name":"Wahlgasse","postalCode":"37181","locality":"Hardegsen","municipality":{"key":"03155005","name":"Hardegsen, Stadt","type":"Stadt"},"district":{"key":"03155","name":"Northeim","type":"Landkreis"},"federalState":{"key":"03","name":"Niedersachsen"}},{"name":"Wanderweg K","postalCode":"37181","locality":"Hardegsen","municipality":{"key":"03155005","name":"Hardegsen, Stadt","type":"Stadt"},"district":{"key":"03155","name":"Northeim","type":"Landkreis"},"federalState":{"key":"03","name":"Niedersachsen"}},{"name":"Wanneweg","postalCode":"37181","locality":"Hardegsen","municipality":{"key":"03155005","name":"Hardegsen, Stadt","type":"Stadt"},"district":{"key":"03155","name":"Northeim","type":"Landkreis"},"federalState":{"key":"03","name":"Niedersachsen"}},{"name":"Wasserbergsbreite","postalCode":"37181","locality":"Hardegsen","municipality":{"key":"03155005","name":"Hardegsen, Stadt","type":"Stadt"},"district":{"key":"03155","name":"Northeim","type":"Landkreis"},"federalState":{"key":"03","name":"Niedersachsen"}},{"name":"Wehmestr.","postalCode":"37181","locality":"Hardegsen","municipality":{"key":"03155005","name":"Hardegsen, Stadt","type":"Stadt"},"district":{"key":"03155","name":"Northeim","type":"Landkreis"},"federalState":{"key":"03","name":"Niedersachsen"}},{"name":"Weinbergstr.","postalCode":"37181","locality":"Hardegsen","municipality":{"key":"03155005","name":"Hardegsen, Stadt","type":"Stadt"},"district":{"key":"03155","name":"Northeim","type":"Landkreis"},"federalState":{"key":"03","name":"Niedersachsen"}},{"name":"Weperstr.","postalCode":"37181","locality":"Hardegsen","municipality":{"key":"03155005","name":"Hardegsen, Stadt","type":"Stadt"},"district":{"key":"03155","name":"Northeim","type":"Landkreis"},"federalState":{"key":"03","name":"Niedersachsen"}},{"name":"Wiesenstr.","postalCode":"37181","locality":"Hardegsen","municipality":{"key":"03155005","name":"Hardegsen, Stadt","type":"Stadt"},"district":{"key":"03155","name":"Northeim","type":"Landkreis"},"federalState":{"key":"03","name":"Niedersachsen"}},{"name":"Zu den Höfen","postalCode":"37181","locality":"Hardegsen","municipality":{"key":"03155005","name":"Hardegsen, Stadt","type":"Stadt"},"district":{"key":"03155","name":"Northeim","type":"Landkreis"},"federalState":{"key":"03","name":"Niedersachsen"}},{"name":"Zum Friedhof","postalCode":"37181","locality":"Hardegsen","municipality":{"key":"03155005","name":"Hardegsen, Stadt","type":"Stadt"},"district":{"key":"03155","name":"Northeim","type":"Landkreis"},"federalState":{"key":"03","name":"Niedersachsen"}},{"name":"Zum Hainholz","postalCode":"37181","locality":"Hardegsen","municipality":{"key":"03155005","name":"Hardegsen, Stadt","type":"Stadt"},"district":{"key":"03155","name":"Northeim","type":"Landkreis"},"federalState":{"key":"03","name":"Niedersachsen"}},{"name":"Zum kleinen Holze","postalCode":"37181","locality":"Hardegsen","municipality":{"key":"03155005","name":"Hardegsen, Stadt","type":"Stadt"},"district":{"key":"03155","name":"Northeim","type":"Landkreis"},"federalState":{"key":"03","name":"Niedersachsen"}},{"name":"Zum Schöttelbach","postalCode":"37181","locality":"Hardegsen","municipality":{"key":"03155005","name":"Hardegsen, Stadt","type":"Stadt"},"district":{"key":"03155","name":"Northeim","type":"Landkreis"},"federalState":{"key":"03","name":"Niedersachsen"}},{"name":"Zum Wellborn","postalCode":"37181","locality":"Hardegsen","municipality":{"key":"03155005","name":"Hardegsen, Stadt","type":"Stadt"},"district":{"key":"03155","name":"Northeim","type":"Landkreis"},"federalState":{"key":"03","name":"Niedersachsen"}},{"name":"Zur Gasse","postalCode":"37181","locality":"Hardegsen","municipality":{"key":"03155005","name":"Hardegsen, Stadt","type":"Stadt"},"district":{"key":"03155","name":"Northeim","type":"Landkreis"},"federalState":{"key":"03","name":"Niedersachsen"}},{"name":"Zur Höhe","postalCode":"37181","locality":"Hardegsen","municipality":{"key":"03155005","name":"Hardegsen, Stadt","type":"Stadt"},"district":{"key":"03155","name":"Northeim","type":"Landkreis"},"federalState":{"key":"03","name":"Niedersachsen"}},{"name":"Zur Taubenbreite","postalCode":"37181","locality":"Hardegsen","municipality":{"key":"03155005","name":"Hardegsen, Stadt","type":"Stadt"},"district":{"key":"03155","name":"Northeim","type":"Landkreis"},"federalState":{"key":"03","name":"Niedersachsen"}},{"name":"Zwetschenallee","postalCode":"37181","locality":"Hardegsen","municipality":{"key":"03155005","name":"Hardegsen, Stadt","type":"Stadt"},"district":{"key":"03155","name":"Northeim","type":"Landkreis"},"federalState":{"key":"03","name":"Niedersachsen"}},{"name":"Zwetschenbergweg","postalCode":"37181","locality":"Hardegsen","municipality":{"key":"03155005","name":"Hardegsen, Stadt","type":"Stadt"},"district":{"key":"03155","name":"Northeim","type":"Landkreis"},"federalState":{"key":"03","name":"Niedersachsen"}},{"name":"Über der Landwehr","postalCode":"37181","locality":"Hardegsen","municipality":{"key":"03155005","name":"Hardegsen, Stadt","type":"Stadt"},"district":{"key":"03155","name":"Northeim","type":"Landkreis"},"federalState":{"key":"03","name":"Niedersachsen"}},{"name":"Üssinghauser Str.","postalCode":"37181","locality":"Hardegsen","municipality":{"key":"03155005","name":"Hardegsen, Stadt","type":"Stadt"},"district":{"key":"03155","name":"Northeim","type":"Landkreis"},"federalState":{"key":"03","name":"Niedersachsen"}},]