[{"name":"Altenburger Str.","postalCode":"08396","locality":"Oberwiera","municipality":{"key":"14524240","name":"Oberwiera","type":"Kreisangehörige_Gemeinde"},"district":{"key":"14524","name":"Zwickau","type":"Landkreis"},"federalState":{"key":"14","name":"Sachsen"}},{"name":"Am Silberberg","postalCode":"08396","locality":"Oberwiera","municipality":{"key":"14524240","name":"Oberwiera","type":"Kreisangehörige_Gemeinde"},"district":{"key":"14524","name":"Zwickau","type":"Landkreis"},"federalState":{"key":"14","name":"Sachsen"}},{"name":"Am Wieratal","postalCode":"08396","locality":"Oberwiera","municipality":{"key":"14524240","name":"Oberwiera","type":"Kreisangehörige_Gemeinde"},"district":{"key":"14524","name":"Zwickau","type":"Landkreis"},"federalState":{"key":"14","name":"Sachsen"}},{"name":"Bachstr.","postalCode":"08396","locality":"Oberwiera","municipality":{"key":"14524240","name":"Oberwiera","type":"Kreisangehörige_Gemeinde"},"district":{"key":"14524","name":"Zwickau","type":"Landkreis"},"federalState":{"key":"14","name":"Sachsen"}},{"name":"Cainsdorfer Bergstr.","postalCode":"08064","locality":"Zwickau","municipality":{"key":"14524330","name":"Zwickau, Stadt","type":"Stadt"},"district":{"key":"14524","name":"Zwickau","type":"Landkreis"},"federalState":{"key":"14","name":"Sachsen"}},{"name":"Cainsdorfer Brücke","postalCode":"08056","locality":"Zwickau","municipality":{"key":"14524330","name":"Zwickau, Stadt","type":"Stadt"},"district":{"key":"14524","name":"Zwickau","type":"Landkreis"},"federalState":{"key":"14","name":"Sachsen"}},{"name":"Cainsdorfer Hauptstr.","postalCode":"08064","locality":"Zwickau","municipality":{"key":"14524330","name":"Zwickau, Stadt","type":"Stadt"},"district":{"key":"14524","name":"Zwickau","type":"Landkreis"},"federalState":{"key":"14","name":"Sachsen"}},{"name":"Cainsdorfer Höhe","postalCode":"08064","locality":"Zwickau","municipality":{"key":"14524330","name":"Zwickau, Stadt","type":"Stadt"},"district":{"key":"14524","name":"Zwickau","type":"Landkreis"},"federalState":{"key":"14","name":"Sachsen"}},{"name":"Cainsdorfer Str.","postalCode":"08064","locality":"Zwickau","municipality":{"key":"14524330","name":"Zwickau, Stadt","type":"Stadt"},"district":{"key":"14524","name":"Zwickau","type":"Landkreis"},"federalState":{"key":"14","name":"Sachsen"}},{"name":"Cainsdorfer Waldweg","postalCode":"08064","locality":"Zwickau","municipality":{"key":"14524330","name":"Zwickau, Stadt","type":"Stadt"},"district":{"key":"14524","name":"Zwickau","type":"Landkreis"},"federalState":{"key":"14","name":"Sachsen"}},{"name":"Carl-Goerdeler-Str.","postalCode":"08066","locality":"Zwickau","municipality":{"key":"14524330","name":"Zwickau, Stadt","type":"Stadt"},"district":{"key":"14524","name":"Zwickau","type":"Landkreis"},"federalState":{"key":"14","name":"Sachsen"}},{"name":"Carl-Wolf-Str.","postalCode":"08066","locality":"Zwickau","municipality":{"key":"14524330","name":"Zwickau, Stadt","type":"Stadt"},"district":{"key":"14524","name":"Zwickau","type":"Landkreis"},"federalState":{"key":"14","name":"Sachsen"}},{"name":"Carolastr.","postalCode":"08056","locality":"Zwickau","municipality":{"key":"14524330","name":"Zwickau, Stadt","type":"Stadt"},"district":{"key":"14524","name":"Zwickau","type":"Landkreis"},"federalState":{"key":"14","name":"Sachsen"}},{"name":"Casparistr.","postalCode":"08056","locality":"Zwickau","municipality":{"key":"14524330","name":"Zwickau, Stadt","type":"Stadt"},"district":{"key":"14524","name":"Zwickau","type":"Landkreis"},"federalState":{"key":"14","name":"Sachsen"}},{"name":"Christian-Kautzsch-Str.","postalCode":"08056","locality":"Zwickau","municipality":{"key":"14524330","name":"Zwickau, Stadt","type":"Stadt"},"district":{"key":"14524","name":"Zwickau","type":"Landkreis"},"federalState":{"key":"14","name":"Sachsen"}},{"name":"Christianstr.","postalCode":"08062","locality":"Zwickau","municipality":{"key":"14524330","name":"Zwickau, Stadt","type":"Stadt"},"district":{"key":"14524","name":"Zwickau","type":"Landkreis"},"federalState":{"key":"14","name":"Sachsen"}},{"name":"Clara-Zetkin-Str.","postalCode":"08058","locality":"Zwickau","municipality":{"key":"14524330","name":"Zwickau, Stadt","type":"Stadt"},"district":{"key":"14524","name":"Zwickau","type":"Landkreis"},"federalState":{"key":"14","name":"Sachsen"}},{"name":"Colombstr.","postalCode":"08066","locality":"Zwickau","municipality":{"key":"14524330","name":"Zwickau, Stadt","type":"Stadt"},"district":{"key":"14524","name":"Zwickau","type":"Landkreis"},"federalState":{"key":"14","name":"Sachsen"}},{"name":"Comeniusweg","postalCode":"08056","locality":"Zwickau","municipality":{"key":"14524330","name":"Zwickau, Stadt","type":"Stadt"},"district":{"key":"14524","name":"Zwickau","type":"Landkreis"},"federalState":{"key":"14","name":"Sachsen"}},{"name":"Crataegusdamm","postalCode":"08056","locality":"Zwickau","municipality":{"key":"14524330","name":"Zwickau, Stadt","type":"Stadt"},"district":{"key":"14524","name":"Zwickau","type":"Landkreis"},"federalState":{"key":"14","name":"Sachsen"}},{"name":"Crimmitschauer Str.","postalCode":"08056","locality":"Zwickau","municipality":{"key":"14524330","name":"Zwickau, Stadt","type":"Stadt"},"district":{"key":"14524","name":"Zwickau","type":"Landkreis"},"federalState":{"key":"14","name":"Sachsen"}},{"name":"Crimmitschauer Str.","postalCode":"08058","locality":"Zwickau","municipality":{"key":"14524330","name":"Zwickau, Stadt","type":"Stadt"},"district":{"key":"14524","name":"Zwickau","type":"Landkreis"},"federalState":{"key":"14","name":"Sachsen"}},{"name":"Crossener Kirchsteig","postalCode":"08058","locality":"Zwickau","municipality":{"key":"14524330","name":"Zwickau, Stadt","type":"Stadt"},"district":{"key":"14524","name":"Zwickau","type":"Landkreis"},"federalState":{"key":"14","name":"Sachsen"}},{"name":"Crossener Kirchstr.","postalCode":"08058","locality":"Zwickau","municipality":{"key":"14524330","name":"Zwickau, Stadt","type":"Stadt"},"district":{"key":"14524","name":"Zwickau","type":"Landkreis"},"federalState":{"key":"14","name":"Sachsen"}},{"name":"Crossener Marktsteig","postalCode":"08058","locality":"Zwickau","municipality":{"key":"14524330","name":"Zwickau, Stadt","type":"Stadt"},"district":{"key":"14524","name":"Zwickau","type":"Landkreis"},"federalState":{"key":"14","name":"Sachsen"}},{"name":"Crossener Str.","postalCode":"08058","locality":"Zwickau","municipality":{"key":"14524330","name":"Zwickau, Stadt","type":"Stadt"},"district":{"key":"14524","name":"Zwickau","type":"Landkreis"},"federalState":{"key":"14","name":"Sachsen"}},{"name":"Culitzscher Weg","postalCode":"08064","locality":"Zwickau","municipality":{"key":"14524330","name":"Zwickau, Stadt","type":"Stadt"},"district":{"key":"14524","name":"Zwickau","type":"Landkreis"},"federalState":{"key":"14","name":"Sachsen"}},{"name":"Dorfstr.","postalCode":"08396","locality":"Oberwiera","municipality":{"key":"14524240","name":"Oberwiera","type":"Kreisangehörige_Gemeinde"},"district":{"key":"14524","name":"Zwickau","type":"Landkreis"},"federalState":{"key":"14","name":"Sachsen"}},{"name":"Ebersbrunner Str.","postalCode":"08064","locality":"Zwickau","municipality":{"key":"14524330","name":"Zwickau, Stadt","type":"Stadt"},"district":{"key":"14524","name":"Zwickau","type":"Landkreis"},"federalState":{"key":"14","name":"Sachsen"}},{"name":"Eckersbach","postalCode":"08066","locality":"Zwickau","municipality":{"key":"14524330","name":"Zwickau, Stadt","type":"Stadt"},"district":{"key":"14524","name":"Zwickau","type":"Landkreis"},"federalState":{"key":"14","name":"Sachsen"}},{"name":"Eckersbacher Brücke","postalCode":"08066","locality":"Zwickau","municipality":{"key":"14524330","name":"Zwickau, Stadt","type":"Stadt"},"district":{"key":"14524","name":"Zwickau","type":"Landkreis"},"federalState":{"key":"14","name":"Sachsen"}},{"name":"Eckersbacher Höhe","postalCode":"08066","locality":"Zwickau","municipality":{"key":"14524330","name":"Zwickau, Stadt","type":"Stadt"},"district":{"key":"14524","name":"Zwickau","type":"Landkreis"},"federalState":{"key":"14","name":"Sachsen"}},{"name":"Eckersbacher Rundwanderweg","postalCode":"08066","locality":"Zwickau","municipality":{"key":"14524330","name":"Zwickau, Stadt","type":"Stadt"},"district":{"key":"14524","name":"Zwickau","type":"Landkreis"},"federalState":{"key":"14","name":"Sachsen"}},{"name":"Eckersbacher Rundweg","postalCode":"08066","locality":"Zwickau","municipality":{"key":"14524330","name":"Zwickau, Stadt","type":"Stadt"},"district":{"key":"14524","name":"Zwickau","type":"Landkreis"},"federalState":{"key":"14","name":"Sachsen"}},{"name":"Eckersbach Wende","postalCode":"08066","locality":"Zwickau","municipality":{"key":"14524330","name":"Zwickau, Stadt","type":"Stadt"},"district":{"key":"14524","name":"Zwickau","type":"Landkreis"},"federalState":{"key":"14","name":"Sachsen"}},{"name":"Edisonstr.","postalCode":"08064","locality":"Zwickau","municipality":{"key":"14524330","name":"Zwickau, Stadt","type":"Stadt"},"district":{"key":"14524","name":"Zwickau","type":"Landkreis"},"federalState":{"key":"14","name":"Sachsen"}},{"name":"Edmundstr.","postalCode":"08058","locality":"Zwickau","municipality":{"key":"14524330","name":"Zwickau, Stadt","type":"Stadt"},"district":{"key":"14524","name":"Zwickau","type":"Landkreis"},"federalState":{"key":"14","name":"Sachsen"}},{"name":"Eduard-Soermus-Str.","postalCode":"08062","locality":"Zwickau","municipality":{"key":"14524330","name":"Zwickau, Stadt","type":"Stadt"},"district":{"key":"14524","name":"Zwickau","type":"Landkreis"},"federalState":{"key":"14","name":"Sachsen"}},{"name":"Eichendorffweg","postalCode":"08056","locality":"Zwickau","municipality":{"key":"14524330","name":"Zwickau, Stadt","type":"Stadt"},"district":{"key":"14524","name":"Zwickau","type":"Landkreis"},"federalState":{"key":"14","name":"Sachsen"}},{"name":"Eichenweg","postalCode":"08064","locality":"Zwickau","municipality":{"key":"14524330","name":"Zwickau, Stadt","type":"Stadt"},"district":{"key":"14524","name":"Zwickau","type":"Landkreis"},"federalState":{"key":"14","name":"Sachsen"}},{"name":"Einsteinstr.","postalCode":"08062","locality":"Zwickau","municipality":{"key":"14524330","name":"Zwickau, Stadt","type":"Stadt"},"district":{"key":"14524","name":"Zwickau","type":"Landkreis"},"federalState":{"key":"14","name":"Sachsen"}},{"name":"Eisenweg","postalCode":"08056","locality":"Zwickau","municipality":{"key":"14524330","name":"Zwickau, Stadt","type":"Stadt"},"district":{"key":"14524","name":"Zwickau","type":"Landkreis"},"federalState":{"key":"14","name":"Sachsen"}},{"name":"Elsterweg","postalCode":"08066","locality":"Zwickau","municipality":{"key":"14524330","name":"Zwickau, Stadt","type":"Stadt"},"district":{"key":"14524","name":"Zwickau","type":"Landkreis"},"federalState":{"key":"14","name":"Sachsen"}},{"name":"Emil-Herzog-Str.","postalCode":"08060","locality":"Zwickau","municipality":{"key":"14524330","name":"Zwickau, Stadt","type":"Stadt"},"district":{"key":"14524","name":"Zwickau","type":"Landkreis"},"federalState":{"key":"14","name":"Sachsen"}},{"name":"Emilienstr.","postalCode":"08056","locality":"Zwickau","municipality":{"key":"14524330","name":"Zwickau, Stadt","type":"Stadt"},"district":{"key":"14524","name":"Zwickau","type":"Landkreis"},"federalState":{"key":"14","name":"Sachsen"}},{"name":"Emil-Rosenow-Str.","postalCode":"08064","locality":"Zwickau","municipality":{"key":"14524330","name":"Zwickau, Stadt","type":"Stadt"},"district":{"key":"14524","name":"Zwickau","type":"Landkreis"},"federalState":{"key":"14","name":"Sachsen"}},{"name":"Erich-Knauf-Str.","postalCode":"08058","locality":"Zwickau","municipality":{"key":"14524330","name":"Zwickau, Stadt","type":"Stadt"},"district":{"key":"14524","name":"Zwickau","type":"Landkreis"},"federalState":{"key":"14","name":"Sachsen"}},{"name":"Erich-Mühsam-Str.","postalCode":"08062","locality":"Zwickau","municipality":{"key":"14524330","name":"Zwickau, Stadt","type":"Stadt"},"district":{"key":"14524","name":"Zwickau","type":"Landkreis"},"federalState":{"key":"14","name":"Sachsen"}},{"name":"Erlmühlenstr.","postalCode":"08066","locality":"Zwickau","municipality":{"key":"14524330","name":"Zwickau, Stadt","type":"Stadt"},"district":{"key":"14524","name":"Zwickau","type":"Landkreis"},"federalState":{"key":"14","name":"Sachsen"}},{"name":"Ernst-August-Geitner-Str.","postalCode":"08064","locality":"Zwickau","municipality":{"key":"14524330","name":"Zwickau, Stadt","type":"Stadt"},"district":{"key":"14524","name":"Zwickau","type":"Landkreis"},"federalState":{"key":"14","name":"Sachsen"}},{"name":"Ernst-Fabian-Str.","postalCode":"08058","locality":"Zwickau","municipality":{"key":"14524330","name":"Zwickau, Stadt","type":"Stadt"},"district":{"key":"14524","name":"Zwickau","type":"Landkreis"},"federalState":{"key":"14","name":"Sachsen"}},{"name":"Ernst-Grube-Str.","postalCode":"08062","locality":"Zwickau","municipality":{"key":"14524330","name":"Zwickau, Stadt","type":"Stadt"},"district":{"key":"14524","name":"Zwickau","type":"Landkreis"},"federalState":{"key":"14","name":"Sachsen"}},{"name":"Ernst-Grube-Weg","postalCode":"08064","locality":"Zwickau","municipality":{"key":"14524330","name":"Zwickau, Stadt","type":"Stadt"},"district":{"key":"14524","name":"Zwickau","type":"Landkreis"},"federalState":{"key":"14","name":"Sachsen"}},{"name":"Ernst-Otto-Str.","postalCode":"08058","locality":"Zwickau","municipality":{"key":"14524330","name":"Zwickau, Stadt","type":"Stadt"},"district":{"key":"14524","name":"Zwickau","type":"Landkreis"},"federalState":{"key":"14","name":"Sachsen"}},{"name":"Ernst-Schneller-Platz","postalCode":"08058","locality":"Zwickau","municipality":{"key":"14524330","name":"Zwickau, Stadt","type":"Stadt"},"district":{"key":"14524","name":"Zwickau","type":"Landkreis"},"federalState":{"key":"14","name":"Sachsen"}},{"name":"Ernst-Thälmann-Str.","postalCode":"08066","locality":"Zwickau","municipality":{"key":"14524330","name":"Zwickau, Stadt","type":"Stadt"},"district":{"key":"14524","name":"Zwickau","type":"Landkreis"},"federalState":{"key":"14","name":"Sachsen"}},{"name":"Erntestr.","postalCode":"08060","locality":"Zwickau","municipality":{"key":"14524330","name":"Zwickau, Stadt","type":"Stadt"},"district":{"key":"14524","name":"Zwickau","type":"Landkreis"},"federalState":{"key":"14","name":"Sachsen"}},{"name":"Erzgebirgische Str.","postalCode":"08056","locality":"Zwickau","municipality":{"key":"14524330","name":"Zwickau, Stadt","type":"Stadt"},"district":{"key":"14524","name":"Zwickau","type":"Landkreis"},"federalState":{"key":"14","name":"Sachsen"}},{"name":"Eschenweg","postalCode":"08060","locality":"Zwickau","municipality":{"key":"14524330","name":"Zwickau, Stadt","type":"Stadt"},"district":{"key":"14524","name":"Zwickau","type":"Landkreis"},"federalState":{"key":"14","name":"Sachsen"}},{"name":"Eulenweg","postalCode":"08066","locality":"Zwickau","municipality":{"key":"14524330","name":"Zwickau, Stadt","type":"Stadt"},"district":{"key":"14524","name":"Zwickau","type":"Landkreis"},"federalState":{"key":"14","name":"Sachsen"}},{"name":"Forststr.","postalCode":"08396","locality":"Oberwiera","municipality":{"key":"14524240","name":"Oberwiera","type":"Kreisangehörige_Gemeinde"},"district":{"key":"14524","name":"Zwickau","type":"Landkreis"},"federalState":{"key":"14","name":"Sachsen"}},{"name":"Glauchauer Str.","postalCode":"08396","locality":"Oberwiera","municipality":{"key":"14524240","name":"Oberwiera","type":"Kreisangehörige_Gemeinde"},"district":{"key":"14524","name":"Zwickau","type":"Landkreis"},"federalState":{"key":"14","name":"Sachsen"}},{"name":"Hauptstr.","postalCode":"08396","locality":"Oberwiera","municipality":{"key":"14524240","name":"Oberwiera","type":"Kreisangehörige_Gemeinde"},"district":{"key":"14524","name":"Zwickau","type":"Landkreis"},"federalState":{"key":"14","name":"Sachsen"}},{"name":"Hohe Str.","postalCode":"08396","locality":"Oberwiera","municipality":{"key":"14524240","name":"Oberwiera","type":"Kreisangehörige_Gemeinde"},"district":{"key":"14524","name":"Zwickau","type":"Landkreis"},"federalState":{"key":"14","name":"Sachsen"}},{"name":"Holzhäuser","postalCode":"08396","locality":"Oberwiera","municipality":{"key":"14524240","name":"Oberwiera","type":"Kreisangehörige_Gemeinde"},"district":{"key":"14524","name":"Zwickau","type":"Landkreis"},"federalState":{"key":"14","name":"Sachsen"}},{"name":"Industrierandstr.","postalCode":"08060","locality":"Zwickau","municipality":{"key":"14524330","name":"Zwickau, Stadt","type":"Stadt"},"district":{"key":"14524","name":"Zwickau","type":"Landkreis"},"federalState":{"key":"14","name":"Sachsen"}},{"name":"Innere Schneeberger Str.","postalCode":"08056","locality":"Zwickau","municipality":{"key":"14524330","name":"Zwickau, Stadt","type":"Stadt"},"district":{"key":"14524","name":"Zwickau","type":"Landkreis"},"federalState":{"key":"14","name":"Sachsen"}},{"name":"Innere Zwickauer Str.","postalCode":"08056","locality":"Zwickau","municipality":{"key":"14524330","name":"Zwickau, Stadt","type":"Stadt"},"district":{"key":"14524","name":"Zwickau","type":"Landkreis"},"federalState":{"key":"14","name":"Sachsen"}},{"name":"Innere Zwickauer Str.","postalCode":"08062","locality":"Zwickau","municipality":{"key":"14524330","name":"Zwickau, Stadt","type":"Stadt"},"district":{"key":"14524","name":"Zwickau","type":"Landkreis"},"federalState":{"key":"14","name":"Sachsen"}},{"name":"Innere Zwickauer Str.","postalCode":"08064","locality":"Zwickau","municipality":{"key":"14524330","name":"Zwickau, Stadt","type":"Stadt"},"district":{"key":"14524","name":"Zwickau","type":"Landkreis"},"federalState":{"key":"14","name":"Sachsen"}},{"name":"Jablonecer Str.","postalCode":"08062","locality":"Zwickau","municipality":{"key":"14524330","name":"Zwickau, Stadt","type":"Stadt"},"district":{"key":"14524","name":"Zwickau","type":"Landkreis"},"federalState":{"key":"14","name":"Sachsen"}},{"name":"Jacob-Leupold-Str.","postalCode":"08064","locality":"Zwickau","municipality":{"key":"14524330","name":"Zwickau, Stadt","type":"Stadt"},"district":{"key":"14524","name":"Zwickau","type":"Landkreis"},"federalState":{"key":"14","name":"Sachsen"}},{"name":"Jacobstr.","postalCode":"08060","locality":"Zwickau","municipality":{"key":"14524330","name":"Zwickau, Stadt","type":"Stadt"},"district":{"key":"14524","name":"Zwickau","type":"Landkreis"},"federalState":{"key":"14","name":"Sachsen"}},{"name":"Jahnstr.","postalCode":"08058","locality":"Zwickau","municipality":{"key":"14524330","name":"Zwickau, Stadt","type":"Stadt"},"district":{"key":"14524","name":"Zwickau","type":"Landkreis"},"federalState":{"key":"14","name":"Sachsen"}},{"name":"Jasminweg","postalCode":"08058","locality":"Zwickau","municipality":{"key":"14524330","name":"Zwickau, Stadt","type":"Stadt"},"district":{"key":"14524","name":"Zwickau","type":"Landkreis"},"federalState":{"key":"14","name":"Sachsen"}},{"name":"Jerusalemer Platz","postalCode":"08056","locality":"Zwickau","municipality":{"key":"14524330","name":"Zwickau, Stadt","type":"Stadt"},"district":{"key":"14524","name":"Zwickau","type":"Landkreis"},"federalState":{"key":"14","name":"Sachsen"}},{"name":"Jogichesstr.","postalCode":"08056","locality":"Zwickau","municipality":{"key":"14524330","name":"Zwickau, Stadt","type":"Stadt"},"district":{"key":"14524","name":"Zwickau","type":"Landkreis"},"federalState":{"key":"14","name":"Sachsen"}},{"name":"Johannisstr.","postalCode":"08056","locality":"Zwickau","municipality":{"key":"14524330","name":"Zwickau, Stadt","type":"Stadt"},"district":{"key":"14524","name":"Zwickau","type":"Landkreis"},"federalState":{"key":"14","name":"Sachsen"}},{"name":"Joliot-Curie-Str.","postalCode":"08060","locality":"Zwickau","municipality":{"key":"14524330","name":"Zwickau, Stadt","type":"Stadt"},"district":{"key":"14524","name":"Zwickau","type":"Landkreis"},"federalState":{"key":"14","name":"Sachsen"}},{"name":"Jüdenhainer Str.","postalCode":"08058","locality":"Zwickau","municipality":{"key":"14524330","name":"Zwickau, Stadt","type":"Stadt"},"district":{"key":"14524","name":"Zwickau","type":"Landkreis"},"federalState":{"key":"14","name":"Sachsen"}},{"name":"Julius-Seifert-Str.","postalCode":"08060","locality":"Zwickau","municipality":{"key":"14524330","name":"Zwickau, Stadt","type":"Stadt"},"district":{"key":"14524","name":"Zwickau","type":"Landkreis"},"federalState":{"key":"14","name":"Sachsen"}},{"name":"Kirchsteig","postalCode":"08396","locality":"Oberwiera","municipality":{"key":"14524240","name":"Oberwiera","type":"Kreisangehörige_Gemeinde"},"district":{"key":"14524","name":"Zwickau","type":"Landkreis"},"federalState":{"key":"14","name":"Sachsen"}},{"name":"Kirchstr.","postalCode":"08396","locality":"Oberwiera","municipality":{"key":"14524240","name":"Oberwiera","type":"Kreisangehörige_Gemeinde"},"district":{"key":"14524","name":"Zwickau","type":"Landkreis"},"federalState":{"key":"14","name":"Sachsen"}},{"name":"Lange Str.","postalCode":"08058","locality":"Zwickau","municipality":{"key":"14524330","name":"Zwickau, Stadt","type":"Stadt"},"district":{"key":"14524","name":"Zwickau","type":"Landkreis"},"federalState":{"key":"14","name":"Sachsen"}},{"name":"Lasanstr.","postalCode":"08056","locality":"Zwickau","municipality":{"key":"14524330","name":"Zwickau, Stadt","type":"Stadt"},"district":{"key":"14524","name":"Zwickau","type":"Landkreis"},"federalState":{"key":"14","name":"Sachsen"}},{"name":"Lassallestr.","postalCode":"08058","locality":"Zwickau","municipality":{"key":"14524330","name":"Zwickau, Stadt","type":"Stadt"},"district":{"key":"14524","name":"Zwickau","type":"Landkreis"},"federalState":{"key":"14","name":"Sachsen"}},{"name":"Leibnizstr.","postalCode":"08062","locality":"Zwickau","municipality":{"key":"14524330","name":"Zwickau, Stadt","type":"Stadt"},"district":{"key":"14524","name":"Zwickau","type":"Landkreis"},"federalState":{"key":"14","name":"Sachsen"}},{"name":"Leipziger Str.","postalCode":"08056","locality":"Zwickau","municipality":{"key":"14524330","name":"Zwickau, Stadt","type":"Stadt"},"district":{"key":"14524","name":"Zwickau","type":"Landkreis"},"federalState":{"key":"14","name":"Sachsen"}},{"name":"Leipziger Str.","postalCode":"08058","locality":"Zwickau","municipality":{"key":"14524330","name":"Zwickau, Stadt","type":"Stadt"},"district":{"key":"14524","name":"Zwickau","type":"Landkreis"},"federalState":{"key":"14","name":"Sachsen"}},{"name":"Lenauweg","postalCode":"08056","locality":"Zwickau","municipality":{"key":"14524330","name":"Zwickau, Stadt","type":"Stadt"},"district":{"key":"14524","name":"Zwickau","type":"Landkreis"},"federalState":{"key":"14","name":"Sachsen"}},{"name":"Lengenfelder Str.","postalCode":"08056","locality":"Zwickau","municipality":{"key":"14524330","name":"Zwickau, Stadt","type":"Stadt"},"district":{"key":"14524","name":"Zwickau","type":"Landkreis"},"federalState":{"key":"14","name":"Sachsen"}},{"name":"Lengenfelder Str.","postalCode":"08064","locality":"Zwickau","municipality":{"key":"14524330","name":"Zwickau, Stadt","type":"Stadt"},"district":{"key":"14524","name":"Zwickau","type":"Landkreis"},"federalState":{"key":"14","name":"Sachsen"}},{"name":"Lerchenweg","postalCode":"08066","locality":"Zwickau","municipality":{"key":"14524330","name":"Zwickau, Stadt","type":"Stadt"},"district":{"key":"14524","name":"Zwickau","type":"Landkreis"},"federalState":{"key":"14","name":"Sachsen"}},{"name":"Lerschstr.","postalCode":"08060","locality":"Zwickau","municipality":{"key":"14524330","name":"Zwickau, Stadt","type":"Stadt"},"district":{"key":"14524","name":"Zwickau","type":"Landkreis"},"federalState":{"key":"14","name":"Sachsen"}},{"name":"Lessingstr.","postalCode":"08058","locality":"Zwickau","municipality":{"key":"14524330","name":"Zwickau, Stadt","type":"Stadt"},"district":{"key":"14524","name":"Zwickau","type":"Landkreis"},"federalState":{"key":"14","name":"Sachsen"}},{"name":"Levinestr.","postalCode":"08058","locality":"Zwickau","municipality":{"key":"14524330","name":"Zwickau, Stadt","type":"Stadt"},"district":{"key":"14524","name":"Zwickau","type":"Landkreis"},"federalState":{"key":"14","name":"Sachsen"}},{"name":"Lichtentanner Str.","postalCode":"08060","locality":"Zwickau","municipality":{"key":"14524330","name":"Zwickau, Stadt","type":"Stadt"},"district":{"key":"14524","name":"Zwickau","type":"Landkreis"},"federalState":{"key":"14","name":"Sachsen"}},{"name":"Lichtweg","postalCode":"08066","locality":"Zwickau","municipality":{"key":"14524330","name":"Zwickau, Stadt","type":"Stadt"},"district":{"key":"14524","name":"Zwickau","type":"Landkreis"},"federalState":{"key":"14","name":"Sachsen"}},{"name":"Liebigstr.","postalCode":"08056","locality":"Zwickau","municipality":{"key":"14524330","name":"Zwickau, Stadt","type":"Stadt"},"district":{"key":"14524","name":"Zwickau","type":"Landkreis"},"federalState":{"key":"14","name":"Sachsen"}},{"name":"Lilienweg","postalCode":"08058","locality":"Zwickau","municipality":{"key":"14524330","name":"Zwickau, Stadt","type":"Stadt"},"district":{"key":"14524","name":"Zwickau","type":"Landkreis"},"federalState":{"key":"14","name":"Sachsen"}},{"name":"Lindenallee","postalCode":"08056","locality":"Zwickau","municipality":{"key":"14524330","name":"Zwickau, Stadt","type":"Stadt"},"district":{"key":"14524","name":"Zwickau","type":"Landkreis"},"federalState":{"key":"14","name":"Sachsen"}},{"name":"Lindenplatz","postalCode":"08058","locality":"Zwickau","municipality":{"key":"14524330","name":"Zwickau, Stadt","type":"Stadt"},"district":{"key":"14524","name":"Zwickau","type":"Landkreis"},"federalState":{"key":"14","name":"Sachsen"}},{"name":"Lindenstr.","postalCode":"08064","locality":"Zwickau","municipality":{"key":"14524330","name":"Zwickau, Stadt","type":"Stadt"},"district":{"key":"14524","name":"Zwickau","type":"Landkreis"},"federalState":{"key":"14","name":"Sachsen"}},{"name":"Lindenweg","postalCode":"08058","locality":"Zwickau","municipality":{"key":"14524330","name":"Zwickau, Stadt","type":"Stadt"},"district":{"key":"14524","name":"Zwickau","type":"Landkreis"},"federalState":{"key":"14","name":"Sachsen"}},{"name":"Lion-Feuchtwanger-Str.","postalCode":"08060","locality":"Zwickau","municipality":{"key":"14524330","name":"Zwickau, Stadt","type":"Stadt"},"district":{"key":"14524","name":"Zwickau","type":"Landkreis"},"federalState":{"key":"14","name":"Sachsen"}},{"name":"Lise-Meitner-Str.","postalCode":"08066","locality":"Zwickau","municipality":{"key":"14524330","name":"Zwickau, Stadt","type":"Stadt"},"district":{"key":"14524","name":"Zwickau","type":"Landkreis"},"federalState":{"key":"14","name":"Sachsen"}},{"name":"Lothar-Streit-Str.","postalCode":"08056","locality":"Zwickau","municipality":{"key":"14524330","name":"Zwickau, Stadt","type":"Stadt"},"district":{"key":"14524","name":"Zwickau","type":"Landkreis"},"federalState":{"key":"14","name":"Sachsen"}},{"name":"Lucas-Cranach-Str.","postalCode":"08066","locality":"Zwickau","municipality":{"key":"14524330","name":"Zwickau, Stadt","type":"Stadt"},"district":{"key":"14524","name":"Zwickau","type":"Landkreis"},"federalState":{"key":"14","name":"Sachsen"}},{"name":"Ludwig-Erhard-Str.","postalCode":"08060","locality":"Zwickau","municipality":{"key":"14524330","name":"Zwickau, Stadt","type":"Stadt"},"district":{"key":"14524","name":"Zwickau","type":"Landkreis"},"federalState":{"key":"14","name":"Sachsen"}},{"name":"Ludwig-Möckel-Str.","postalCode":"08064","locality":"Zwickau","municipality":{"key":"14524330","name":"Zwickau, Stadt","type":"Stadt"},"district":{"key":"14524","name":"Zwickau","type":"Landkreis"},"federalState":{"key":"14","name":"Sachsen"}},{"name":"Ludwig-Renn-Str.","postalCode":"08058","locality":"Zwickau","municipality":{"key":"14524330","name":"Zwickau, Stadt","type":"Stadt"},"district":{"key":"14524","name":"Zwickau","type":"Landkreis"},"federalState":{"key":"14","name":"Sachsen"}},{"name":"Ludwig-Richter-Str.","postalCode":"08058","locality":"Zwickau","municipality":{"key":"14524330","name":"Zwickau, Stadt","type":"Stadt"},"district":{"key":"14524","name":"Zwickau","type":"Landkreis"},"federalState":{"key":"14","name":"Sachsen"}},{"name":"Luisenstr.","postalCode":"08060","locality":"Zwickau","municipality":{"key":"14524330","name":"Zwickau, Stadt","type":"Stadt"},"district":{"key":"14524","name":"Zwickau","type":"Landkreis"},"federalState":{"key":"14","name":"Sachsen"}},{"name":"Luise-Zietz-Str.","postalCode":"08064","locality":"Zwickau","municipality":{"key":"14524330","name":"Zwickau, Stadt","type":"Stadt"},"district":{"key":"14524","name":"Zwickau","type":"Landkreis"},"federalState":{"key":"14","name":"Sachsen"}},{"name":"Lukasgarten -Tast-, Duft- und Erlebnisgarten-","postalCode":"08064","locality":"Zwickau","municipality":{"key":"14524330","name":"Zwickau, Stadt","type":"Stadt"},"district":{"key":"14524","name":"Zwickau","type":"Landkreis"},"federalState":{"key":"14","name":"Sachsen"}},{"name":"Lukasstr.","postalCode":"08064","locality":"Zwickau","municipality":{"key":"14524330","name":"Zwickau, Stadt","type":"Stadt"},"district":{"key":"14524","name":"Zwickau","type":"Landkreis"},"federalState":{"key":"14","name":"Sachsen"}},{"name":"Lunikweg","postalCode":"08066","locality":"Zwickau","municipality":{"key":"14524330","name":"Zwickau, Stadt","type":"Stadt"},"district":{"key":"14524","name":"Zwickau","type":"Landkreis"},"federalState":{"key":"14","name":"Sachsen"}},{"name":"Lupinenweg","postalCode":"08064","locality":"Zwickau","municipality":{"key":"14524330","name":"Zwickau, Stadt","type":"Stadt"},"district":{"key":"14524","name":"Zwickau","type":"Landkreis"},"federalState":{"key":"14","name":"Sachsen"}},{"name":"Lutherstr.","postalCode":"08056","locality":"Zwickau","municipality":{"key":"14524330","name":"Zwickau, Stadt","type":"Stadt"},"district":{"key":"14524","name":"Zwickau","type":"Landkreis"},"federalState":{"key":"14","name":"Sachsen"}},{"name":"Lützowstr.","postalCode":"08056","locality":"Zwickau","municipality":{"key":"14524330","name":"Zwickau, Stadt","type":"Stadt"},"district":{"key":"14524","name":"Zwickau","type":"Landkreis"},"federalState":{"key":"14","name":"Sachsen"}},{"name":"Meeraner Str.","postalCode":"08396","locality":"Oberwiera","municipality":{"key":"14524240","name":"Oberwiera","type":"Kreisangehörige_Gemeinde"},"district":{"key":"14524","name":"Zwickau","type":"Landkreis"},"federalState":{"key":"14","name":"Sachsen"}},{"name":"Mühlenstr.","postalCode":"08396","locality":"Oberwiera","municipality":{"key":"14524240","name":"Oberwiera","type":"Kreisangehörige_Gemeinde"},"district":{"key":"14524","name":"Zwickau","type":"Landkreis"},"federalState":{"key":"14","name":"Sachsen"}},{"name":"Nachtigallenweg","postalCode":"08066","locality":"Zwickau","municipality":{"key":"14524330","name":"Zwickau, Stadt","type":"Stadt"},"district":{"key":"14524","name":"Zwickau","type":"Landkreis"},"federalState":{"key":"14","name":"Sachsen"}},{"name":"Narzissenweg","postalCode":"08058","locality":"Zwickau","municipality":{"key":"14524330","name":"Zwickau, Stadt","type":"Stadt"},"district":{"key":"14524","name":"Zwickau","type":"Landkreis"},"federalState":{"key":"14","name":"Sachsen"}},{"name":"Neuberinplatz","postalCode":"08056","locality":"Zwickau","municipality":{"key":"14524330","name":"Zwickau, Stadt","type":"Stadt"},"district":{"key":"14524","name":"Zwickau","type":"Landkreis"},"federalState":{"key":"14","name":"Sachsen"}},{"name":"Neudörfler Str.","postalCode":"08062","locality":"Zwickau","municipality":{"key":"14524330","name":"Zwickau, Stadt","type":"Stadt"},"district":{"key":"14524","name":"Zwickau","type":"Landkreis"},"federalState":{"key":"14","name":"Sachsen"}},{"name":"Neugasse","postalCode":"08056","locality":"Zwickau","municipality":{"key":"14524330","name":"Zwickau, Stadt","type":"Stadt"},"district":{"key":"14524","name":"Zwickau","type":"Landkreis"},"federalState":{"key":"14","name":"Sachsen"}},{"name":"Neumarkt","postalCode":"08056","locality":"Zwickau","municipality":{"key":"14524330","name":"Zwickau, Stadt","type":"Stadt"},"district":{"key":"14524","name":"Zwickau","type":"Landkreis"},"federalState":{"key":"14","name":"Sachsen"}},{"name":"Neuplanitz","postalCode":"08062","locality":"Zwickau","municipality":{"key":"14524330","name":"Zwickau, Stadt","type":"Stadt"},"district":{"key":"14524","name":"Zwickau","type":"Landkreis"},"federalState":{"key":"14","name":"Sachsen"}},{"name":"Neuplanitzer Str.","postalCode":"08056","locality":"Zwickau","municipality":{"key":"14524330","name":"Zwickau, Stadt","type":"Stadt"},"district":{"key":"14524","name":"Zwickau","type":"Landkreis"},"federalState":{"key":"14","name":"Sachsen"}},{"name":"Neuplanitzer Str.","postalCode":"08062","locality":"Zwickau","municipality":{"key":"14524330","name":"Zwickau, Stadt","type":"Stadt"},"district":{"key":"14524","name":"Zwickau","type":"Landkreis"},"federalState":{"key":"14","name":"Sachsen"}},{"name":"Newtonstr.","postalCode":"08058","locality":"Zwickau","municipality":{"key":"14524330","name":"Zwickau, Stadt","type":"Stadt"},"district":{"key":"14524","name":"Zwickau","type":"Landkreis"},"federalState":{"key":"14","name":"Sachsen"}},{"name":"Newtonstr.","postalCode":"08060","locality":"Zwickau","municipality":{"key":"14524330","name":"Zwickau, Stadt","type":"Stadt"},"district":{"key":"14524","name":"Zwickau","type":"Landkreis"},"federalState":{"key":"14","name":"Sachsen"}},{"name":"Nicolaistr.","postalCode":"08056","locality":"Zwickau","municipality":{"key":"14524330","name":"Zwickau, Stadt","type":"Stadt"},"district":{"key":"14524","name":"Zwickau","type":"Landkreis"},"federalState":{"key":"14","name":"Sachsen"}},{"name":"Niedercrinitzer Str.","postalCode":"08064","locality":"Zwickau","municipality":{"key":"14524330","name":"Zwickau, Stadt","type":"Stadt"},"district":{"key":"14524","name":"Zwickau","type":"Landkreis"},"federalState":{"key":"14","name":"Sachsen"}},{"name":"Niederhohndorfer Querweg","postalCode":"08058","locality":"Zwickau","municipality":{"key":"14524330","name":"Zwickau, Stadt","type":"Stadt"},"district":{"key":"14524","name":"Zwickau","type":"Landkreis"},"federalState":{"key":"14","name":"Sachsen"}},{"name":"Niederhohndorfer Str.","postalCode":"08058","locality":"Zwickau","municipality":{"key":"14524330","name":"Zwickau, Stadt","type":"Stadt"},"district":{"key":"14524","name":"Zwickau","type":"Landkreis"},"federalState":{"key":"14","name":"Sachsen"}},{"name":"Niedermülsener Hauptstr.","postalCode":"08058","locality":"Zwickau","municipality":{"key":"14524330","name":"Zwickau, Stadt","type":"Stadt"},"district":{"key":"14524","name":"Zwickau","type":"Landkreis"},"federalState":{"key":"14","name":"Sachsen"}},{"name":"Nordplatz","postalCode":"08058","locality":"Zwickau","municipality":{"key":"14524330","name":"Zwickau, Stadt","type":"Stadt"},"district":{"key":"14524","name":"Zwickau","type":"Landkreis"},"federalState":{"key":"14","name":"Sachsen"}},{"name":"Obere Kohlenstr.","postalCode":"08056","locality":"Zwickau","municipality":{"key":"14524330","name":"Zwickau, Stadt","type":"Stadt"},"district":{"key":"14524","name":"Zwickau","type":"Landkreis"},"federalState":{"key":"14","name":"Sachsen"}},{"name":"Obere Siedlungsstr.","postalCode":"08056","locality":"Zwickau","municipality":{"key":"14524330","name":"Zwickau, Stadt","type":"Stadt"},"district":{"key":"14524","name":"Zwickau","type":"Landkreis"},"federalState":{"key":"14","name":"Sachsen"}},{"name":"Oberhohndorfer Marktweg","postalCode":"08056","locality":"Zwickau","municipality":{"key":"14524330","name":"Zwickau, Stadt","type":"Stadt"},"district":{"key":"14524","name":"Zwickau","type":"Landkreis"},"federalState":{"key":"14","name":"Sachsen"}},{"name":"Oberrothenbach Bahnhof, Gleis 1","postalCode":"08058","locality":"Zwickau","municipality":{"key":"14524330","name":"Zwickau, Stadt","type":"Stadt"},"district":{"key":"14524","name":"Zwickau","type":"Landkreis"},"federalState":{"key":"14","name":"Sachsen"}},{"name":"Oberrothenbach Banhof, Gleis 2","postalCode":"08058","locality":"Zwickau","municipality":{"key":"14524330","name":"Zwickau, Stadt","type":"Stadt"},"district":{"key":"14524","name":"Zwickau","type":"Landkreis"},"federalState":{"key":"14","name":"Sachsen"}},{"name":"Obersteigerweg","postalCode":"08056","locality":"Zwickau","municipality":{"key":"14524330","name":"Zwickau, Stadt","type":"Stadt"},"district":{"key":"14524","name":"Zwickau","type":"Landkreis"},"federalState":{"key":"14","name":"Sachsen"}},{"name":"Olzmannstr.","postalCode":"08060","locality":"Zwickau","municipality":{"key":"14524330","name":"Zwickau, Stadt","type":"Stadt"},"district":{"key":"14524","name":"Zwickau","type":"Landkreis"},"federalState":{"key":"14","name":"Sachsen"}},{"name":"Oskar-Arnold-Str.","postalCode":"08056","locality":"Zwickau","municipality":{"key":"14524330","name":"Zwickau, Stadt","type":"Stadt"},"district":{"key":"14524","name":"Zwickau","type":"Landkreis"},"federalState":{"key":"14","name":"Sachsen"}},{"name":"Oskar-Lorenz-Str.","postalCode":"08064","locality":"Zwickau","municipality":{"key":"14524330","name":"Zwickau, Stadt","type":"Stadt"},"district":{"key":"14524","name":"Zwickau","type":"Landkreis"},"federalState":{"key":"14","name":"Sachsen"}},{"name":"Osterweihstr.","postalCode":"08056","locality":"Zwickau","municipality":{"key":"14524330","name":"Zwickau, Stadt","type":"Stadt"},"district":{"key":"14524","name":"Zwickau","type":"Landkreis"},"federalState":{"key":"14","name":"Sachsen"}},{"name":"Oststr.","postalCode":"08056","locality":"Zwickau","municipality":{"key":"14524330","name":"Zwickau, Stadt","type":"Stadt"},"district":{"key":"14524","name":"Zwickau","type":"Landkreis"},"federalState":{"key":"14","name":"Sachsen"}},{"name":"Oswaldstr.","postalCode":"08060","locality":"Zwickau","municipality":{"key":"14524330","name":"Zwickau, Stadt","type":"Stadt"},"district":{"key":"14524","name":"Zwickau","type":"Landkreis"},"federalState":{"key":"14","name":"Sachsen"}},{"name":"Otto-Hahn-Str.","postalCode":"08066","locality":"Zwickau","municipality":{"key":"14524330","name":"Zwickau, Stadt","type":"Stadt"},"district":{"key":"14524","name":"Zwickau","type":"Landkreis"},"federalState":{"key":"14","name":"Sachsen"}},{"name":"Otto-Heil-Weg","postalCode":"08066","locality":"Zwickau","municipality":{"key":"14524330","name":"Zwickau, Stadt","type":"Stadt"},"district":{"key":"14524","name":"Zwickau","type":"Landkreis"},"federalState":{"key":"14","name":"Sachsen"}},{"name":"Otto-Lilienthal-Weg","postalCode":"08066","locality":"Zwickau","municipality":{"key":"14524330","name":"Zwickau, Stadt","type":"Stadt"},"district":{"key":"14524","name":"Zwickau","type":"Landkreis"},"federalState":{"key":"14","name":"Sachsen"}},{"name":"Otto-Nagel-Str.","postalCode":"08058","locality":"Zwickau","municipality":{"key":"14524330","name":"Zwickau, Stadt","type":"Stadt"},"district":{"key":"14524","name":"Zwickau","type":"Landkreis"},"federalState":{"key":"14","name":"Sachsen"}},{"name":"Otto-Riedel-Str.","postalCode":"08062","locality":"Zwickau","municipality":{"key":"14524330","name":"Zwickau, Stadt","type":"Stadt"},"district":{"key":"14524","name":"Zwickau","type":"Landkreis"},"federalState":{"key":"14","name":"Sachsen"}},{"name":"Pappelweg","postalCode":"08060","locality":"Zwickau","municipality":{"key":"14524330","name":"Zwickau, Stadt","type":"Stadt"},"district":{"key":"14524","name":"Zwickau","type":"Landkreis"},"federalState":{"key":"14","name":"Sachsen"}},{"name":"Park Neue Welt","postalCode":"08058","locality":"Zwickau","municipality":{"key":"14524330","name":"Zwickau, Stadt","type":"Stadt"},"district":{"key":"14524","name":"Zwickau","type":"Landkreis"},"federalState":{"key":"14","name":"Sachsen"}},{"name":"Parkstr.","postalCode":"08056","locality":"Zwickau","municipality":{"key":"14524330","name":"Zwickau, Stadt","type":"Stadt"},"district":{"key":"14524","name":"Zwickau","type":"Landkreis"},"federalState":{"key":"14","name":"Sachsen"}},{"name":"Paul-Baumann-Weg","postalCode":"08066","locality":"Zwickau","municipality":{"key":"14524330","name":"Zwickau, Stadt","type":"Stadt"},"district":{"key":"14524","name":"Zwickau","type":"Landkreis"},"federalState":{"key":"14","name":"Sachsen"}},{"name":"Paul-Fleming-Str.","postalCode":"08066","locality":"Zwickau","municipality":{"key":"14524330","name":"Zwickau, Stadt","type":"Stadt"},"district":{"key":"14524","name":"Zwickau","type":"Landkreis"},"federalState":{"key":"14","name":"Sachsen"}},{"name":"Paul-Leonhardt-Str.","postalCode":"08058","locality":"Zwickau","municipality":{"key":"14524330","name":"Zwickau, Stadt","type":"Stadt"},"district":{"key":"14524","name":"Zwickau","type":"Landkreis"},"federalState":{"key":"14","name":"Sachsen"}},{"name":"Paul-Lorenz-Str.","postalCode":"08060","locality":"Zwickau","municipality":{"key":"14524330","name":"Zwickau, Stadt","type":"Stadt"},"district":{"key":"14524","name":"Zwickau","type":"Landkreis"},"federalState":{"key":"14","name":"Sachsen"}},{"name":"Paul-Speck-Str.","postalCode":"08066","locality":"Zwickau","municipality":{"key":"14524330","name":"Zwickau, Stadt","type":"Stadt"},"district":{"key":"14524","name":"Zwickau","type":"Landkreis"},"federalState":{"key":"14","name":"Sachsen"}},{"name":"Pauluskirchplatz","postalCode":"08060","locality":"Zwickau","municipality":{"key":"14524330","name":"Zwickau, Stadt","type":"Stadt"},"district":{"key":"14524","name":"Zwickau","type":"Landkreis"},"federalState":{"key":"14","name":"Sachsen"}},{"name":"Paulusstr.","postalCode":"08060","locality":"Zwickau","municipality":{"key":"14524330","name":"Zwickau, Stadt","type":"Stadt"},"district":{"key":"14524","name":"Zwickau","type":"Landkreis"},"federalState":{"key":"14","name":"Sachsen"}},{"name":"Pestalozzistr.","postalCode":"08062","locality":"Zwickau","municipality":{"key":"14524330","name":"Zwickau, Stadt","type":"Stadt"},"district":{"key":"14524","name":"Zwickau","type":"Landkreis"},"federalState":{"key":"14","name":"Sachsen"}},{"name":"Pestalozziweg","postalCode":"08064","locality":"Zwickau","municipality":{"key":"14524330","name":"Zwickau, Stadt","type":"Stadt"},"district":{"key":"14524","name":"Zwickau","type":"Landkreis"},"federalState":{"key":"14","name":"Sachsen"}},{"name":"Peter-Breuer-Str.","postalCode":"08056","locality":"Zwickau","municipality":{"key":"14524330","name":"Zwickau, Stadt","type":"Stadt"},"district":{"key":"14524","name":"Zwickau","type":"Landkreis"},"federalState":{"key":"14","name":"Sachsen"}},{"name":"Planitzer Str.","postalCode":"08056","locality":"Zwickau","municipality":{"key":"14524330","name":"Zwickau, Stadt","type":"Stadt"},"district":{"key":"14524","name":"Zwickau","type":"Landkreis"},"federalState":{"key":"14","name":"Sachsen"}},{"name":"Planitzer Str.","postalCode":"08062","locality":"Zwickau","municipality":{"key":"14524330","name":"Zwickau, Stadt","type":"Stadt"},"district":{"key":"14524","name":"Zwickau","type":"Landkreis"},"federalState":{"key":"14","name":"Sachsen"}},{"name":"Planstr. Süd","postalCode":"08056","locality":"Zwickau","municipality":{"key":"14524330","name":"Zwickau, Stadt","type":"Stadt"},"district":{"key":"14524","name":"Zwickau","type":"Landkreis"},"federalState":{"key":"14","name":"Sachsen"}},{"name":"Platanenweg","postalCode":"08060","locality":"Zwickau","municipality":{"key":"14524330","name":"Zwickau, Stadt","type":"Stadt"},"district":{"key":"14524","name":"Zwickau","type":"Landkreis"},"federalState":{"key":"14","name":"Sachsen"}},{"name":"Platz der Deutschen Einheit","postalCode":"08056","locality":"Zwickau","municipality":{"key":"14524330","name":"Zwickau, Stadt","type":"Stadt"},"district":{"key":"14524","name":"Zwickau","type":"Landkreis"},"federalState":{"key":"14","name":"Sachsen"}},{"name":"Platz der Einheit","postalCode":"08058","locality":"Zwickau","municipality":{"key":"14524330","name":"Zwickau, Stadt","type":"Stadt"},"district":{"key":"14524","name":"Zwickau","type":"Landkreis"},"federalState":{"key":"14","name":"Sachsen"}},{"name":"Plauener Str.","postalCode":"08056","locality":"Zwickau","municipality":{"key":"14524330","name":"Zwickau, Stadt","type":"Stadt"},"district":{"key":"14524","name":"Zwickau","type":"Landkreis"},"federalState":{"key":"14","name":"Sachsen"}},{"name":"Poetenweg","postalCode":"08056","locality":"Zwickau","municipality":{"key":"14524330","name":"Zwickau, Stadt","type":"Stadt"},"district":{"key":"14524","name":"Zwickau","type":"Landkreis"},"federalState":{"key":"14","name":"Sachsen"}},{"name":"Pöhlauer Ring","postalCode":"08066","locality":"Zwickau","municipality":{"key":"14524330","name":"Zwickau, Stadt","type":"Stadt"},"district":{"key":"14524","name":"Zwickau","type":"Landkreis"},"federalState":{"key":"14","name":"Sachsen"}},{"name":"Pöhlauer Str.","postalCode":"08066","locality":"Zwickau","municipality":{"key":"14524330","name":"Zwickau, Stadt","type":"Stadt"},"district":{"key":"14524","name":"Zwickau","type":"Landkreis"},"federalState":{"key":"14","name":"Sachsen"}},{"name":"Pohlwaldsiedlung","postalCode":"08066","locality":"Zwickau","municipality":{"key":"14524330","name":"Zwickau, Stadt","type":"Stadt"},"district":{"key":"14524","name":"Zwickau","type":"Landkreis"},"federalState":{"key":"14","name":"Sachsen"}},{"name":"Pölbitzer Kirchsteig","postalCode":"08058","locality":"Zwickau","municipality":{"key":"14524330","name":"Zwickau, Stadt","type":"Stadt"},"district":{"key":"14524","name":"Zwickau","type":"Landkreis"},"federalState":{"key":"14","name":"Sachsen"}},{"name":"Pölbitzer Str.","postalCode":"08058","locality":"Zwickau","municipality":{"key":"14524330","name":"Zwickau, Stadt","type":"Stadt"},"district":{"key":"14524","name":"Zwickau","type":"Landkreis"},"federalState":{"key":"14","name":"Sachsen"}},{"name":"Pölbitzer Weg","postalCode":"08058","locality":"Zwickau","municipality":{"key":"14524330","name":"Zwickau, Stadt","type":"Stadt"},"district":{"key":"14524","name":"Zwickau","type":"Landkreis"},"federalState":{"key":"14","name":"Sachsen"}},{"name":"Polenzstr.","postalCode":"08060","locality":"Zwickau","municipality":{"key":"14524330","name":"Zwickau, Stadt","type":"Stadt"},"district":{"key":"14524","name":"Zwickau","type":"Landkreis"},"federalState":{"key":"14","name":"Sachsen"}},{"name":"Poststr.","postalCode":"08064","locality":"Zwickau","municipality":{"key":"14524330","name":"Zwickau, Stadt","type":"Stadt"},"district":{"key":"14524","name":"Zwickau","type":"Landkreis"},"federalState":{"key":"14","name":"Sachsen"}},{"name":"Progreßweg","postalCode":"08066","locality":"Zwickau","municipality":{"key":"14524330","name":"Zwickau, Stadt","type":"Stadt"},"district":{"key":"14524","name":"Zwickau","type":"Landkreis"},"federalState":{"key":"14","name":"Sachsen"}},{"name":"Quergasse","postalCode":"08058","locality":"Zwickau","municipality":{"key":"14524330","name":"Zwickau, Stadt","type":"Stadt"},"district":{"key":"14524","name":"Zwickau","type":"Landkreis"},"federalState":{"key":"14","name":"Sachsen"}},{"name":"Querstr.","postalCode":"08056","locality":"Zwickau","municipality":{"key":"14524330","name":"Zwickau, Stadt","type":"Stadt"},"district":{"key":"14524","name":"Zwickau","type":"Landkreis"},"federalState":{"key":"14","name":"Sachsen"}},{"name":"Querweg","postalCode":"08064","locality":"Zwickau","municipality":{"key":"14524330","name":"Zwickau, Stadt","type":"Stadt"},"district":{"key":"14524","name":"Zwickau","type":"Landkreis"},"federalState":{"key":"14","name":"Sachsen"}},{"name":"Rappendorfstr.","postalCode":"08060","locality":"Zwickau","municipality":{"key":"14524330","name":"Zwickau, Stadt","type":"Stadt"},"district":{"key":"14524","name":"Zwickau","type":"Landkreis"},"federalState":{"key":"14","name":"Sachsen"}},{"name":"Rathausstr.","postalCode":"08058","locality":"Zwickau","municipality":{"key":"14524330","name":"Zwickau, Stadt","type":"Stadt"},"district":{"key":"14524","name":"Zwickau","type":"Landkreis"},"federalState":{"key":"14","name":"Sachsen"}},{"name":"Rehwinkel","postalCode":"08064","locality":"Zwickau","municipality":{"key":"14524330","name":"Zwickau, Stadt","type":"Stadt"},"district":{"key":"14524","name":"Zwickau","type":"Landkreis"},"federalState":{"key":"14","name":"Sachsen"}},{"name":"Reichenbacher Str.","postalCode":"08056","locality":"Zwickau","municipality":{"key":"14524330","name":"Zwickau, Stadt","type":"Stadt"},"district":{"key":"14524","name":"Zwickau","type":"Landkreis"},"federalState":{"key":"14","name":"Sachsen"}},{"name":"Reinsdorfer Str.","postalCode":"08066","locality":"Zwickau","municipality":{"key":"14524330","name":"Zwickau, Stadt","type":"Stadt"},"district":{"key":"14524","name":"Zwickau","type":"Landkreis"},"federalState":{"key":"14","name":"Sachsen"}},{"name":"Reuterweg","postalCode":"08056","locality":"Zwickau","municipality":{"key":"14524330","name":"Zwickau, Stadt","type":"Stadt"},"district":{"key":"14524","name":"Zwickau","type":"Landkreis"},"federalState":{"key":"14","name":"Sachsen"}},{"name":"Ricarda-Huch-Str.","postalCode":"08062","locality":"Zwickau","municipality":{"key":"14524330","name":"Zwickau, Stadt","type":"Stadt"},"district":{"key":"14524","name":"Zwickau","type":"Landkreis"},"federalState":{"key":"14","name":"Sachsen"}},{"name":"Richard-Holz-Str.","postalCode":"08060","locality":"Zwickau","municipality":{"key":"14524330","name":"Zwickau, Stadt","type":"Stadt"},"district":{"key":"14524","name":"Zwickau","type":"Landkreis"},"federalState":{"key":"14","name":"Sachsen"}},{"name":"Richardstr.","postalCode":"08064","locality":"Zwickau","municipality":{"key":"14524330","name":"Zwickau, Stadt","type":"Stadt"},"district":{"key":"14524","name":"Zwickau","type":"Landkreis"},"federalState":{"key":"14","name":"Sachsen"}},{"name":"Richard-Wagner-Str.","postalCode":"08062","locality":"Zwickau","municipality":{"key":"14524330","name":"Zwickau, Stadt","type":"Stadt"},"district":{"key":"14524","name":"Zwickau","type":"Landkreis"},"federalState":{"key":"14","name":"Sachsen"}},{"name":"Riemenschneiderstr.","postalCode":"08066","locality":"Zwickau","municipality":{"key":"14524330","name":"Zwickau, Stadt","type":"Stadt"},"district":{"key":"14524","name":"Zwickau","type":"Landkreis"},"federalState":{"key":"14","name":"Sachsen"}},{"name":"Ritterstr.","postalCode":"08062","locality":"Zwickau","municipality":{"key":"14524330","name":"Zwickau, Stadt","type":"Stadt"},"district":{"key":"14524","name":"Zwickau","type":"Landkreis"},"federalState":{"key":"14","name":"Sachsen"}},{"name":"Robert-Blum-Str.","postalCode":"08056","locality":"Zwickau","municipality":{"key":"14524330","name":"Zwickau, Stadt","type":"Stadt"},"district":{"key":"14524","name":"Zwickau","type":"Landkreis"},"federalState":{"key":"14","name":"Sachsen"}},{"name":"Robert-Koch-Str.","postalCode":"08060","locality":"Zwickau","municipality":{"key":"14524330","name":"Zwickau, Stadt","type":"Stadt"},"district":{"key":"14524","name":"Zwickau","type":"Landkreis"},"federalState":{"key":"14","name":"Sachsen"}},{"name":"Robert-Müller-Str.","postalCode":"08056","locality":"Zwickau","municipality":{"key":"14524330","name":"Zwickau, Stadt","type":"Stadt"},"district":{"key":"14524","name":"Zwickau","type":"Landkreis"},"federalState":{"key":"14","name":"Sachsen"}},{"name":"Robinienweg","postalCode":"08060","locality":"Zwickau","municipality":{"key":"14524330","name":"Zwickau, Stadt","type":"Stadt"},"district":{"key":"14524","name":"Zwickau","type":"Landkreis"},"federalState":{"key":"14","name":"Sachsen"}},{"name":"Römerplatz","postalCode":"08056","locality":"Zwickau","municipality":{"key":"14524330","name":"Zwickau, Stadt","type":"Stadt"},"district":{"key":"14524","name":"Zwickau","type":"Landkreis"},"federalState":{"key":"14","name":"Sachsen"}},{"name":"Römerstr.","postalCode":"08056","locality":"Zwickau","municipality":{"key":"14524330","name":"Zwickau, Stadt","type":"Stadt"},"district":{"key":"14524","name":"Zwickau","type":"Landkreis"},"federalState":{"key":"14","name":"Sachsen"}},{"name":"Röntgenstr.","postalCode":"08064","locality":"Zwickau","municipality":{"key":"14524330","name":"Zwickau, Stadt","type":"Stadt"},"district":{"key":"14524","name":"Zwickau","type":"Landkreis"},"federalState":{"key":"14","name":"Sachsen"}},{"name":"Rosa-Luxemburg-Str.","postalCode":"08058","locality":"Zwickau","municipality":{"key":"14524330","name":"Zwickau, Stadt","type":"Stadt"},"district":{"key":"14524","name":"Zwickau","type":"Landkreis"},"federalState":{"key":"14","name":"Sachsen"}},{"name":"Roseggerstr.","postalCode":"08060","locality":"Zwickau","municipality":{"key":"14524330","name":"Zwickau, Stadt","type":"Stadt"},"district":{"key":"14524","name":"Zwickau","type":"Landkreis"},"federalState":{"key":"14","name":"Sachsen"}},{"name":"Rosengäßchen","postalCode":"08056","locality":"Zwickau","municipality":{"key":"14524330","name":"Zwickau, Stadt","type":"Stadt"},"district":{"key":"14524","name":"Zwickau","type":"Landkreis"},"federalState":{"key":"14","name":"Sachsen"}},{"name":"Rosenhag","postalCode":"08064","locality":"Zwickau","municipality":{"key":"14524330","name":"Zwickau, Stadt","type":"Stadt"},"district":{"key":"14524","name":"Zwickau","type":"Landkreis"},"federalState":{"key":"14","name":"Sachsen"}},{"name":"Rosenwiese","postalCode":"08058","locality":"Zwickau","municipality":{"key":"14524330","name":"Zwickau, Stadt","type":"Stadt"},"district":{"key":"14524","name":"Zwickau","type":"Landkreis"},"federalState":{"key":"14","name":"Sachsen"}},{"name":"Rotbuchenweg","postalCode":"08060","locality":"Zwickau","municipality":{"key":"14524330","name":"Zwickau, Stadt","type":"Stadt"},"district":{"key":"14524","name":"Zwickau","type":"Landkreis"},"federalState":{"key":"14","name":"Sachsen"}},{"name":"Rotdornweg","postalCode":"08060","locality":"Zwickau","municipality":{"key":"14524330","name":"Zwickau, Stadt","type":"Stadt"},"district":{"key":"14524","name":"Zwickau","type":"Landkreis"},"federalState":{"key":"14","name":"Sachsen"}},{"name":"Rothberg","postalCode":"08066","locality":"Zwickau","municipality":{"key":"14524330","name":"Zwickau, Stadt","type":"Stadt"},"district":{"key":"14524","name":"Zwickau","type":"Landkreis"},"federalState":{"key":"14","name":"Sachsen"}},{"name":"Rotkehlchenweg","postalCode":"08066","locality":"Zwickau","municipality":{"key":"14524330","name":"Zwickau, Stadt","type":"Stadt"},"district":{"key":"14524","name":"Zwickau","type":"Landkreis"},"federalState":{"key":"14","name":"Sachsen"}},{"name":"Rottmannsdorfer Hauptstr.","postalCode":"08064","locality":"Zwickau","municipality":{"key":"14524330","name":"Zwickau, Stadt","type":"Stadt"},"district":{"key":"14524","name":"Zwickau","type":"Landkreis"},"federalState":{"key":"14","name":"Sachsen"}},{"name":"Rottmannsdorfer Str.","postalCode":"08064","locality":"Zwickau","municipality":{"key":"14524330","name":"Zwickau, Stadt","type":"Stadt"},"district":{"key":"14524","name":"Zwickau","type":"Landkreis"},"federalState":{"key":"14","name":"Sachsen"}},{"name":"Rudolf-Breitscheid-Str.","postalCode":"08062","locality":"Zwickau","municipality":{"key":"14524330","name":"Zwickau, Stadt","type":"Stadt"},"district":{"key":"14524","name":"Zwickau","type":"Landkreis"},"federalState":{"key":"14","name":"Sachsen"}},{"name":"Rudolf-Ehrlich-Str.","postalCode":"08058","locality":"Zwickau","municipality":{"key":"14524330","name":"Zwickau, Stadt","type":"Stadt"},"district":{"key":"14524","name":"Zwickau","type":"Landkreis"},"federalState":{"key":"14","name":"Sachsen"}},{"name":"Rudolf-Harbig-Weg","postalCode":"08064","locality":"Zwickau","municipality":{"key":"14524330","name":"Zwickau, Stadt","type":"Stadt"},"district":{"key":"14524","name":"Zwickau","type":"Landkreis"},"federalState":{"key":"14","name":"Sachsen"}},{"name":"Schulberg","postalCode":"08396","locality":"Oberwiera","municipality":{"key":"14524240","name":"Oberwiera","type":"Kreisangehörige_Gemeinde"},"district":{"key":"14524","name":"Zwickau","type":"Landkreis"},"federalState":{"key":"14","name":"Sachsen"}},{"name":"Schwabener Weg","postalCode":"08396","locality":"Oberwiera","municipality":{"key":"14524240","name":"Oberwiera","type":"Kreisangehörige_Gemeinde"},"district":{"key":"14524","name":"Zwickau","type":"Landkreis"},"federalState":{"key":"14","name":"Sachsen"}},{"name":"Str. der Freundschaft","postalCode":"08396","locality":"Oberwiera","municipality":{"key":"14524240","name":"Oberwiera","type":"Kreisangehörige_Gemeinde"},"district":{"key":"14524","name":"Zwickau","type":"Landkreis"},"federalState":{"key":"14","name":"Sachsen"}},{"name":"Talstr.","postalCode":"08396","locality":"Oberwiera","municipality":{"key":"14524240","name":"Oberwiera","type":"Kreisangehörige_Gemeinde"},"district":{"key":"14524","name":"Zwickau","type":"Landkreis"},"federalState":{"key":"14","name":"Sachsen"}},{"name":"Uferstr.","postalCode":"08058","locality":"Zwickau","municipality":{"key":"14524330","name":"Zwickau, Stadt","type":"Stadt"},"district":{"key":"14524","name":"Zwickau","type":"Landkreis"},"federalState":{"key":"14","name":"Sachsen"}},{"name":"Uferstr.","postalCode":"08066","locality":"Zwickau","municipality":{"key":"14524330","name":"Zwickau, Stadt","type":"Stadt"},"district":{"key":"14524","name":"Zwickau","type":"Landkreis"},"federalState":{"key":"14","name":"Sachsen"}},{"name":"Uhdestr.","postalCode":"08056","locality":"Zwickau","municipality":{"key":"14524330","name":"Zwickau, Stadt","type":"Stadt"},"district":{"key":"14524","name":"Zwickau","type":"Landkreis"},"federalState":{"key":"14","name":"Sachsen"}},{"name":"Uhlandstr.","postalCode":"08064","locality":"Zwickau","municipality":{"key":"14524330","name":"Zwickau, Stadt","type":"Stadt"},"district":{"key":"14524","name":"Zwickau","type":"Landkreis"},"federalState":{"key":"14","name":"Sachsen"}},{"name":"Ulmenweg","postalCode":"08060","locality":"Zwickau","municipality":{"key":"14524330","name":"Zwickau, Stadt","type":"Stadt"},"district":{"key":"14524","name":"Zwickau","type":"Landkreis"},"federalState":{"key":"14","name":"Sachsen"}},{"name":"Untere Kohlenstr.","postalCode":"08056","locality":"Zwickau","municipality":{"key":"14524330","name":"Zwickau, Stadt","type":"Stadt"},"district":{"key":"14524","name":"Zwickau","type":"Landkreis"},"federalState":{"key":"14","name":"Sachsen"}},{"name":"Untere Siedlungsstr.","postalCode":"08056","locality":"Zwickau","municipality":{"key":"14524330","name":"Zwickau, Stadt","type":"Stadt"},"district":{"key":"14524","name":"Zwickau","type":"Landkreis"},"federalState":{"key":"14","name":"Sachsen"}},{"name":"Uthmannstr.","postalCode":"08064","locality":"Zwickau","municipality":{"key":"14524330","name":"Zwickau, Stadt","type":"Stadt"},"district":{"key":"14524","name":"Zwickau","type":"Landkreis"},"federalState":{"key":"14","name":"Sachsen"}},{"name":"Veilchenweg","postalCode":"08058","locality":"Zwickau","municipality":{"key":"14524330","name":"Zwickau, Stadt","type":"Stadt"},"district":{"key":"14524","name":"Zwickau","type":"Landkreis"},"federalState":{"key":"14","name":"Sachsen"}},{"name":"Vereinsglückstr.","postalCode":"08056","locality":"Zwickau","municipality":{"key":"14524330","name":"Zwickau, Stadt","type":"Stadt"},"district":{"key":"14524","name":"Zwickau","type":"Landkreis"},"federalState":{"key":"14","name":"Sachsen"}},{"name":"Virchowplatz","postalCode":"08060","locality":"Zwickau","municipality":{"key":"14524330","name":"Zwickau, Stadt","type":"Stadt"},"district":{"key":"14524","name":"Zwickau","type":"Landkreis"},"federalState":{"key":"14","name":"Sachsen"}},{"name":"Vollrathstr.","postalCode":"08066","locality":"Zwickau","municipality":{"key":"14524330","name":"Zwickau, Stadt","type":"Stadt"},"district":{"key":"14524","name":"Zwickau","type":"Landkreis"},"federalState":{"key":"14","name":"Sachsen"}},{"name":"Von-Schlegel-Str.","postalCode":"08056","locality":"Zwickau","municipality":{"key":"14524330","name":"Zwickau, Stadt","type":"Stadt"},"district":{"key":"14524","name":"Zwickau","type":"Landkreis"},"federalState":{"key":"14","name":"Sachsen"}},{"name":"Von-Weber-Str.","postalCode":"08064","locality":"Zwickau","municipality":{"key":"14524330","name":"Zwickau, Stadt","type":"Stadt"},"district":{"key":"14524","name":"Zwickau","type":"Landkreis"},"federalState":{"key":"14","name":"Sachsen"}},{"name":"Waldenburger Str.","postalCode":"08396","locality":"Oberwiera","municipality":{"key":"14524240","name":"Oberwiera","type":"Kreisangehörige_Gemeinde"},"district":{"key":"14524","name":"Zwickau","type":"Landkreis"},"federalState":{"key":"14","name":"Sachsen"}},{"name":"Waldpfad","postalCode":"08396","locality":"Oberwiera","municipality":{"key":"14524240","name":"Oberwiera","type":"Kreisangehörige_Gemeinde"},"district":{"key":"14524","name":"Zwickau","type":"Landkreis"},"federalState":{"key":"14","name":"Sachsen"}},{"name":"Zaanstader Str.","postalCode":"08062","locality":"Zwickau","municipality":{"key":"14524330","name":"Zwickau, Stadt","type":"Stadt"},"district":{"key":"14524","name":"Zwickau","type":"Landkreis"},"federalState":{"key":"14","name":"Sachsen"}},{"name":"Zechenweg","postalCode":"08056","locality":"Zwickau","municipality":{"key":"14524330","name":"Zwickau, Stadt","type":"Stadt"},"district":{"key":"14524","name":"Zwickau","type":"Landkreis"},"federalState":{"key":"14","name":"Sachsen"}},{"name":"Zeisigweg","postalCode":"08066","locality":"Zwickau","municipality":{"key":"14524330","name":"Zwickau, Stadt","type":"Stadt"},"district":{"key":"14524","name":"Zwickau","type":"Landkreis"},"federalState":{"key":"14","name":"Sachsen"}},{"name":"Ziegelstr.","postalCode":"08056","locality":"Zwickau","municipality":{"key":"14524330","name":"Zwickau, Stadt","type":"Stadt"},"district":{"key":"14524","name":"Zwickau","type":"Landkreis"},"federalState":{"key":"14","name":"Sachsen"}},{"name":"Zimmererweg","postalCode":"08056","locality":"Zwickau","municipality":{"key":"14524330","name":"Zwickau, Stadt","type":"Stadt"},"district":{"key":"14524","name":"Zwickau","type":"Landkreis"},"federalState":{"key":"14","name":"Sachsen"}},{"name":"Zimmermannstr.","postalCode":"08060","locality":"Zwickau","municipality":{"key":"14524330","name":"Zwickau, Stadt","type":"Stadt"},"district":{"key":"14524","name":"Zwickau","type":"Landkreis"},"federalState":{"key":"14","name":"Sachsen"}},{"name":"Zum Graurock","postalCode":"08058","locality":"Zwickau","municipality":{"key":"14524330","name":"Zwickau, Stadt","type":"Stadt"},"district":{"key":"14524","name":"Zwickau","type":"Landkreis"},"federalState":{"key":"14","name":"Sachsen"}},{"name":"Zum Graurock","postalCode":"08132","locality":"Zwickau","municipality":{"key":"14524330","name":"Zwickau, Stadt","type":"Stadt"},"district":{"key":"14524","name":"Zwickau","type":"Landkreis"},"federalState":{"key":"14","name":"Sachsen"}},{"name":"Zum Rehblick","postalCode":"08064","locality":"Zwickau","municipality":{"key":"14524330","name":"Zwickau, Stadt","type":"Stadt"},"district":{"key":"14524","name":"Zwickau","type":"Landkreis"},"federalState":{"key":"14","name":"Sachsen"}},{"name":"Zur Kohlenstr.","postalCode":"08062","locality":"Zwickau","municipality":{"key":"14524330","name":"Zwickau, Stadt","type":"Stadt"},"district":{"key":"14524","name":"Zwickau","type":"Landkreis"},"federalState":{"key":"14","name":"Sachsen"}},{"name":"Zwickauer Str.","postalCode":"08058","locality":"Zwickau","municipality":{"key":"14524330","name":"Zwickau, Stadt","type":"Stadt"},"district":{"key":"14524","name":"Zwickau","type":"Landkreis"},"federalState":{"key":"14","name":"Sachsen"}},{"name":"Äußere Dresdner Str.","postalCode":"08066","locality":"Zwickau","municipality":{"key":"14524330","name":"Zwickau, Stadt","type":"Stadt"},"district":{"key":"14524","name":"Zwickau","type":"Landkreis"},"federalState":{"key":"14","name":"Sachsen"}},{"name":"Äußere Schneeberger Str.","postalCode":"08056","locality":"Zwickau","municipality":{"key":"14524330","name":"Zwickau, Stadt","type":"Stadt"},"district":{"key":"14524","name":"Zwickau","type":"Landkreis"},"federalState":{"key":"14","name":"Sachsen"}},{"name":"Äußere Zwickauer Str.","postalCode":"08064","locality":"Zwickau","municipality":{"key":"14524330","name":"Zwickau, Stadt","type":"Stadt"},"district":{"key":"14524","name":"Zwickau","type":"Landkreis"},"federalState":{"key":"14","name":"Sachsen"}},]