[{"name":"Am Schäfereck","postalCode":"23974","locality":"Blowatz","municipality":{"key":"13074007","name":"Blowatz","type":"Kreisangehörige_Gemeinde"},"district":{"key":"13074","name":"Nordwestmecklenburg","type":"Landkreis"},"federalState":{"key":"13","name":"Mecklenburg-Vorpommern"}},{"name":"Auf dem Sandberg","postalCode":"23974","locality":"Blowatz","municipality":{"key":"13074007","name":"Blowatz","type":"Kreisangehörige_Gemeinde"},"district":{"key":"13074","name":"Nordwestmecklenburg","type":"Landkreis"},"federalState":{"key":"13","name":"Mecklenburg-Vorpommern"}},{"name":"Damekow","postalCode":"23974","locality":"Blowatz","municipality":{"key":"13074007","name":"Blowatz","type":"Kreisangehörige_Gemeinde"},"district":{"key":"13074","name":"Nordwestmecklenburg","type":"Landkreis"},"federalState":{"key":"13","name":"Mecklenburg-Vorpommern"}},{"name":"Damekower Weg","postalCode":"23974","locality":"Blowatz","municipality":{"key":"13074007","name":"Blowatz","type":"Kreisangehörige_Gemeinde"},"district":{"key":"13074","name":"Nordwestmecklenburg","type":"Landkreis"},"federalState":{"key":"13","name":"Mecklenburg-Vorpommern"}},{"name":"Dorfplatz","postalCode":"23974","locality":"Blowatz","municipality":{"key":"13074007","name":"Blowatz","type":"Kreisangehörige_Gemeinde"},"district":{"key":"13074","name":"Nordwestmecklenburg","type":"Landkreis"},"federalState":{"key":"13","name":"Mecklenburg-Vorpommern"}},{"name":"Gartenweg","postalCode":"23974","locality":"Blowatz","municipality":{"key":"13074007","name":"Blowatz","type":"Kreisangehörige_Gemeinde"},"district":{"key":"13074","name":"Nordwestmecklenburg","type":"Landkreis"},"federalState":{"key":"13","name":"Mecklenburg-Vorpommern"}},{"name":"Hauptstr.","postalCode":"23974","locality":"Blowatz","municipality":{"key":"13074007","name":"Blowatz","type":"Kreisangehörige_Gemeinde"},"district":{"key":"13074","name":"Nordwestmecklenburg","type":"Landkreis"},"federalState":{"key":"13","name":"Mecklenburg-Vorpommern"}},{"name":"Heckenweg","postalCode":"23974","locality":"Blowatz","municipality":{"key":"13074007","name":"Blowatz","type":"Kreisangehörige_Gemeinde"},"district":{"key":"13074","name":"Nordwestmecklenburg","type":"Landkreis"},"federalState":{"key":"13","name":"Mecklenburg-Vorpommern"}},{"name":"Heidekaten","postalCode":"23974","locality":"Blowatz","municipality":{"key":"13074007","name":"Blowatz","type":"Kreisangehörige_Gemeinde"},"district":{"key":"13074","name":"Nordwestmecklenburg","type":"Landkreis"},"federalState":{"key":"13","name":"Mecklenburg-Vorpommern"}},{"name":"Krusenhagener Weg","postalCode":"23974","locality":"Blowatz","municipality":{"key":"13074007","name":"Blowatz","type":"Kreisangehörige_Gemeinde"},"district":{"key":"13074","name":"Nordwestmecklenburg","type":"Landkreis"},"federalState":{"key":"13","name":"Mecklenburg-Vorpommern"}},{"name":"Lindenweg","postalCode":"23974","locality":"Blowatz","municipality":{"key":"13074007","name":"Blowatz","type":"Kreisangehörige_Gemeinde"},"district":{"key":"13074","name":"Nordwestmecklenburg","type":"Landkreis"},"federalState":{"key":"13","name":"Mecklenburg-Vorpommern"}},{"name":"Nach_Heidekaten","postalCode":"23974","locality":"Blowatz","municipality":{"key":"13074007","name":"Blowatz","type":"Kreisangehörige_Gemeinde"},"district":{"key":"13074","name":"Nordwestmecklenburg","type":"Landkreis"},"federalState":{"key":"13","name":"Mecklenburg-Vorpommern"}},{"name":"Neuburger Str.","postalCode":"23974","locality":"Blowatz","municipality":{"key":"13074007","name":"Blowatz","type":"Kreisangehörige_Gemeinde"},"district":{"key":"13074","name":"Nordwestmecklenburg","type":"Landkreis"},"federalState":{"key":"13","name":"Mecklenburg-Vorpommern"}},{"name":"Poeler Landweg","postalCode":"23974","locality":"Blowatz","municipality":{"key":"13074007","name":"Blowatz","type":"Kreisangehörige_Gemeinde"},"district":{"key":"13074","name":"Nordwestmecklenburg","type":"Landkreis"},"federalState":{"key":"13","name":"Mecklenburg-Vorpommern"}},{"name":"Rericer Weg","postalCode":"23974","locality":"Blowatz","municipality":{"key":"13074007","name":"Blowatz","type":"Kreisangehörige_Gemeinde"},"district":{"key":"13074","name":"Nordwestmecklenburg","type":"Landkreis"},"federalState":{"key":"13","name":"Mecklenburg-Vorpommern"}},{"name":"Ringweg","postalCode":"23974","locality":"Blowatz","municipality":{"key":"13074007","name":"Blowatz","type":"Kreisangehörige_Gemeinde"},"district":{"key":"13074","name":"Nordwestmecklenburg","type":"Landkreis"},"federalState":{"key":"13","name":"Mecklenburg-Vorpommern"}},{"name":"Robertsdorf","postalCode":"23974","locality":"Blowatz","municipality":{"key":"13074007","name":"Blowatz","type":"Kreisangehörige_Gemeinde"},"district":{"key":"13074","name":"Nordwestmecklenburg","type":"Landkreis"},"federalState":{"key":"13","name":"Mecklenburg-Vorpommern"}},{"name":"Robertsdorfer Str.","postalCode":"23974","locality":"Blowatz","municipality":{"key":"13074007","name":"Blowatz","type":"Kreisangehörige_Gemeinde"},"district":{"key":"13074","name":"Nordwestmecklenburg","type":"Landkreis"},"federalState":{"key":"13","name":"Mecklenburg-Vorpommern"}},{"name":"Robinienweg","postalCode":"23974","locality":"Blowatz","municipality":{"key":"13074007","name":"Blowatz","type":"Kreisangehörige_Gemeinde"},"district":{"key":"13074","name":"Nordwestmecklenburg","type":"Landkreis"},"federalState":{"key":"13","name":"Mecklenburg-Vorpommern"}},{"name":"Rotdornweg","postalCode":"23974","locality":"Blowatz","municipality":{"key":"13074007","name":"Blowatz","type":"Kreisangehörige_Gemeinde"},"district":{"key":"13074","name":"Nordwestmecklenburg","type":"Landkreis"},"federalState":{"key":"13","name":"Mecklenburg-Vorpommern"}},{"name":"Schulstr.","postalCode":"23974","locality":"Blowatz","municipality":{"key":"13074007","name":"Blowatz","type":"Kreisangehörige_Gemeinde"},"district":{"key":"13074","name":"Nordwestmecklenburg","type":"Landkreis"},"federalState":{"key":"13","name":"Mecklenburg-Vorpommern"}},{"name":"Wismarsche Str.","postalCode":"23974","locality":"Blowatz","municipality":{"key":"13074007","name":"Blowatz","type":"Kreisangehörige_Gemeinde"},"district":{"key":"13074","name":"Nordwestmecklenburg","type":"Landkreis"},"federalState":{"key":"13","name":"Mecklenburg-Vorpommern"}},{"name":"Wodorf","postalCode":"23974","locality":"Blowatz","municipality":{"key":"13074007","name":"Blowatz","type":"Kreisangehörige_Gemeinde"},"district":{"key":"13074","name":"Nordwestmecklenburg","type":"Landkreis"},"federalState":{"key":"13","name":"Mecklenburg-Vorpommern"}},{"name":"Zum Gutshaus","postalCode":"23974","locality":"Blowatz","municipality":{"key":"13074007","name":"Blowatz","type":"Kreisangehörige_Gemeinde"},"district":{"key":"13074","name":"Nordwestmecklenburg","type":"Landkreis"},"federalState":{"key":"13","name":"Mecklenburg-Vorpommern"}},{"name":"Zur Bucht","postalCode":"23974","locality":"Blowatz","municipality":{"key":"13074007","name":"Blowatz","type":"Kreisangehörige_Gemeinde"},"district":{"key":"13074","name":"Nordwestmecklenburg","type":"Landkreis"},"federalState":{"key":"13","name":"Mecklenburg-Vorpommern"}},]