[{"name":"Aachweg","postalCode":"78239","locality":"Rielasingen-Worblingen","municipality":{"key":"08335100","name":"Rielasingen-Worblingen","type":"Kreisangehörige_Gemeinde"},"district":{"key":"08335","name":"Konstanz","type":"Landkreis"},"federalState":{"key":"08","name":"Baden-Württemberg"}},{"name":"Adam-Opel-Str.","postalCode":"78239","locality":"Rielasingen-Worblingen","municipality":{"key":"08335100","name":"Rielasingen-Worblingen","type":"Kreisangehörige_Gemeinde"},"district":{"key":"08335","name":"Konstanz","type":"Landkreis"},"federalState":{"key":"08","name":"Baden-Württemberg"}},{"name":"Adolf-Zinsmayer-Platz","postalCode":"78239","locality":"Rielasingen-Worblingen","municipality":{"key":"08335100","name":"Rielasingen-Worblingen","type":"Kreisangehörige_Gemeinde"},"district":{"key":"08335","name":"Konstanz","type":"Landkreis"},"federalState":{"key":"08","name":"Baden-Württemberg"}},{"name":"Albert-Ten-Brink-Str.","postalCode":"78239","locality":"Rielasingen-Worblingen","municipality":{"key":"08335100","name":"Rielasingen-Worblingen","type":"Kreisangehörige_Gemeinde"},"district":{"key":"08335","name":"Konstanz","type":"Landkreis"},"federalState":{"key":"08","name":"Baden-Württemberg"}},{"name":"Albrecht-Dürer-Str.","postalCode":"78239","locality":"Rielasingen-Worblingen","municipality":{"key":"08335100","name":"Rielasingen-Worblingen","type":"Kreisangehörige_Gemeinde"},"district":{"key":"08335","name":"Konstanz","type":"Landkreis"},"federalState":{"key":"08","name":"Baden-Württemberg"}},{"name":"Alemannenstr.","postalCode":"78239","locality":"Rielasingen-Worblingen","municipality":{"key":"08335100","name":"Rielasingen-Worblingen","type":"Kreisangehörige_Gemeinde"},"district":{"key":"08335","name":"Konstanz","type":"Landkreis"},"federalState":{"key":"08","name":"Baden-Württemberg"}},{"name":"Am alten Sportplatz","postalCode":"78239","locality":"Rielasingen-Worblingen","municipality":{"key":"08335100","name":"Rielasingen-Worblingen","type":"Kreisangehörige_Gemeinde"},"district":{"key":"08335","name":"Konstanz","type":"Landkreis"},"federalState":{"key":"08","name":"Baden-Württemberg"}},{"name":"Am Burgstall","postalCode":"78239","locality":"Rielasingen-Worblingen","municipality":{"key":"08335100","name":"Rielasingen-Worblingen","type":"Kreisangehörige_Gemeinde"},"district":{"key":"08335","name":"Konstanz","type":"Landkreis"},"federalState":{"key":"08","name":"Baden-Württemberg"}},{"name":"Am Moorbach","postalCode":"78239","locality":"Rielasingen-Worblingen","municipality":{"key":"08335100","name":"Rielasingen-Worblingen","type":"Kreisangehörige_Gemeinde"},"district":{"key":"08335","name":"Konstanz","type":"Landkreis"},"federalState":{"key":"08","name":"Baden-Württemberg"}},{"name":"Am Park","postalCode":"78239","locality":"Rielasingen-Worblingen","municipality":{"key":"08335100","name":"Rielasingen-Worblingen","type":"Kreisangehörige_Gemeinde"},"district":{"key":"08335","name":"Konstanz","type":"Landkreis"},"federalState":{"key":"08","name":"Baden-Württemberg"}},{"name":"Am Rebberg","postalCode":"78239","locality":"Rielasingen-Worblingen","municipality":{"key":"08335100","name":"Rielasingen-Worblingen","type":"Kreisangehörige_Gemeinde"},"district":{"key":"08335","name":"Konstanz","type":"Landkreis"},"federalState":{"key":"08","name":"Baden-Württemberg"}},{"name":"Am Riederngraben","postalCode":"78239","locality":"Rielasingen-Worblingen","municipality":{"key":"08335100","name":"Rielasingen-Worblingen","type":"Kreisangehörige_Gemeinde"},"district":{"key":"08335","name":"Konstanz","type":"Landkreis"},"federalState":{"key":"08","name":"Baden-Württemberg"}},{"name":"Arlener Str.","postalCode":"78239","locality":"Rielasingen-Worblingen","municipality":{"key":"08335100","name":"Rielasingen-Worblingen","type":"Kreisangehörige_Gemeinde"},"district":{"key":"08335","name":"Konstanz","type":"Landkreis"},"federalState":{"key":"08","name":"Baden-Württemberg"}},{"name":"Bahnhofstr.","postalCode":"78239","locality":"Rielasingen-Worblingen","municipality":{"key":"08335100","name":"Rielasingen-Worblingen","type":"Kreisangehörige_Gemeinde"},"district":{"key":"08335","name":"Konstanz","type":"Landkreis"},"federalState":{"key":"08","name":"Baden-Württemberg"}},{"name":"Beethovenstr.","postalCode":"78239","locality":"Rielasingen-Worblingen","municipality":{"key":"08335100","name":"Rielasingen-Worblingen","type":"Kreisangehörige_Gemeinde"},"district":{"key":"08335","name":"Konstanz","type":"Landkreis"},"federalState":{"key":"08","name":"Baden-Württemberg"}},{"name":"Bergstr.","postalCode":"78239","locality":"Rielasingen-Worblingen","municipality":{"key":"08335100","name":"Rielasingen-Worblingen","type":"Kreisangehörige_Gemeinde"},"district":{"key":"08335","name":"Konstanz","type":"Landkreis"},"federalState":{"key":"08","name":"Baden-Württemberg"}},{"name":"Bilgäckerstr.","postalCode":"78239","locality":"Rielasingen-Worblingen","municipality":{"key":"08335100","name":"Rielasingen-Worblingen","type":"Kreisangehörige_Gemeinde"},"district":{"key":"08335","name":"Konstanz","type":"Landkreis"},"federalState":{"key":"08","name":"Baden-Württemberg"}},{"name":"Bohlinger Str.","postalCode":"78239","locality":"Rielasingen-Worblingen","municipality":{"key":"08335100","name":"Rielasingen-Worblingen","type":"Kreisangehörige_Gemeinde"},"district":{"key":"08335","name":"Konstanz","type":"Landkreis"},"federalState":{"key":"08","name":"Baden-Württemberg"}},{"name":"Bohlweg","postalCode":"78239","locality":"Rielasingen-Worblingen","municipality":{"key":"08335100","name":"Rielasingen-Worblingen","type":"Kreisangehörige_Gemeinde"},"district":{"key":"08335","name":"Konstanz","type":"Landkreis"},"federalState":{"key":"08","name":"Baden-Württemberg"}},{"name":"Buchenweg","postalCode":"78239","locality":"Rielasingen-Worblingen","municipality":{"key":"08335100","name":"Rielasingen-Worblingen","type":"Kreisangehörige_Gemeinde"},"district":{"key":"08335","name":"Konstanz","type":"Landkreis"},"federalState":{"key":"08","name":"Baden-Württemberg"}},{"name":"Burgstr.","postalCode":"78239","locality":"Rielasingen-Worblingen","municipality":{"key":"08335100","name":"Rielasingen-Worblingen","type":"Kreisangehörige_Gemeinde"},"district":{"key":"08335","name":"Konstanz","type":"Landkreis"},"federalState":{"key":"08","name":"Baden-Württemberg"}},{"name":"Carl-Benz-Str.","postalCode":"78239","locality":"Rielasingen-Worblingen","municipality":{"key":"08335100","name":"Rielasingen-Worblingen","type":"Kreisangehörige_Gemeinde"},"district":{"key":"08335","name":"Konstanz","type":"Landkreis"},"federalState":{"key":"08","name":"Baden-Württemberg"}},{"name":"Doktor-Fritz-Guth-Str.","postalCode":"78239","locality":"Rielasingen-Worblingen","municipality":{"key":"08335100","name":"Rielasingen-Worblingen","type":"Kreisangehörige_Gemeinde"},"district":{"key":"08335","name":"Konstanz","type":"Landkreis"},"federalState":{"key":"08","name":"Baden-Württemberg"}},{"name":"Domänenstr.","postalCode":"78239","locality":"Rielasingen-Worblingen","municipality":{"key":"08335100","name":"Rielasingen-Worblingen","type":"Kreisangehörige_Gemeinde"},"district":{"key":"08335","name":"Konstanz","type":"Landkreis"},"federalState":{"key":"08","name":"Baden-Württemberg"}},{"name":"Eichendorffstr.","postalCode":"78239","locality":"Rielasingen-Worblingen","municipality":{"key":"08335100","name":"Rielasingen-Worblingen","type":"Kreisangehörige_Gemeinde"},"district":{"key":"08335","name":"Konstanz","type":"Landkreis"},"federalState":{"key":"08","name":"Baden-Württemberg"}},{"name":"Eichenwaldweg","postalCode":"78239","locality":"Rielasingen-Worblingen","municipality":{"key":"08335100","name":"Rielasingen-Worblingen","type":"Kreisangehörige_Gemeinde"},"district":{"key":"08335","name":"Konstanz","type":"Landkreis"},"federalState":{"key":"08","name":"Baden-Württemberg"}},{"name":"Eichenweg","postalCode":"78239","locality":"Rielasingen-Worblingen","municipality":{"key":"08335100","name":"Rielasingen-Worblingen","type":"Kreisangehörige_Gemeinde"},"district":{"key":"08335","name":"Konstanz","type":"Landkreis"},"federalState":{"key":"08","name":"Baden-Württemberg"}},{"name":"Erlenring","postalCode":"78239","locality":"Rielasingen-Worblingen","municipality":{"key":"08335100","name":"Rielasingen-Worblingen","type":"Kreisangehörige_Gemeinde"},"district":{"key":"08335","name":"Konstanz","type":"Landkreis"},"federalState":{"key":"08","name":"Baden-Württemberg"}},{"name":"Falkenstr.","postalCode":"78239","locality":"Rielasingen-Worblingen","municipality":{"key":"08335100","name":"Rielasingen-Worblingen","type":"Kreisangehörige_Gemeinde"},"district":{"key":"08335","name":"Konstanz","type":"Landkreis"},"federalState":{"key":"08","name":"Baden-Württemberg"}},{"name":"Feuerwehrstr.","postalCode":"78239","locality":"Rielasingen-Worblingen","municipality":{"key":"08335100","name":"Rielasingen-Worblingen","type":"Kreisangehörige_Gemeinde"},"district":{"key":"08335","name":"Konstanz","type":"Landkreis"},"federalState":{"key":"08","name":"Baden-Württemberg"}},{"name":"Finkenweg","postalCode":"78239","locality":"Rielasingen-Worblingen","municipality":{"key":"08335100","name":"Rielasingen-Worblingen","type":"Kreisangehörige_Gemeinde"},"district":{"key":"08335","name":"Konstanz","type":"Landkreis"},"federalState":{"key":"08","name":"Baden-Württemberg"}},{"name":"Frankenweg","postalCode":"78239","locality":"Rielasingen-Worblingen","municipality":{"key":"08335100","name":"Rielasingen-Worblingen","type":"Kreisangehörige_Gemeinde"},"district":{"key":"08335","name":"Konstanz","type":"Landkreis"},"federalState":{"key":"08","name":"Baden-Württemberg"}},{"name":"Friedhofstr.","postalCode":"78239","locality":"Rielasingen-Worblingen","municipality":{"key":"08335100","name":"Rielasingen-Worblingen","type":"Kreisangehörige_Gemeinde"},"district":{"key":"08335","name":"Konstanz","type":"Landkreis"},"federalState":{"key":"08","name":"Baden-Württemberg"}},{"name":"Galgenäcker","postalCode":"78239","locality":"Rielasingen-Worblingen","municipality":{"key":"08335100","name":"Rielasingen-Worblingen","type":"Kreisangehörige_Gemeinde"},"district":{"key":"08335","name":"Konstanz","type":"Landkreis"},"federalState":{"key":"08","name":"Baden-Württemberg"}},{"name":"Gänseweide","postalCode":"78239","locality":"Rielasingen-Worblingen","municipality":{"key":"08335100","name":"Rielasingen-Worblingen","type":"Kreisangehörige_Gemeinde"},"district":{"key":"08335","name":"Konstanz","type":"Landkreis"},"federalState":{"key":"08","name":"Baden-Württemberg"}},{"name":"Gartenstr.","postalCode":"78239","locality":"Rielasingen-Worblingen","municipality":{"key":"08335100","name":"Rielasingen-Worblingen","type":"Kreisangehörige_Gemeinde"},"district":{"key":"08335","name":"Konstanz","type":"Landkreis"},"federalState":{"key":"08","name":"Baden-Württemberg"}},{"name":"Gemsweg","postalCode":"78239","locality":"Rielasingen-Worblingen","municipality":{"key":"08335100","name":"Rielasingen-Worblingen","type":"Kreisangehörige_Gemeinde"},"district":{"key":"08335","name":"Konstanz","type":"Landkreis"},"federalState":{"key":"08","name":"Baden-Württemberg"}},{"name":"Glockengasse","postalCode":"78239","locality":"Rielasingen-Worblingen","municipality":{"key":"08335100","name":"Rielasingen-Worblingen","type":"Kreisangehörige_Gemeinde"},"district":{"key":"08335","name":"Konstanz","type":"Landkreis"},"federalState":{"key":"08","name":"Baden-Württemberg"}},{"name":"Goethestr.","postalCode":"78239","locality":"Rielasingen-Worblingen","municipality":{"key":"08335100","name":"Rielasingen-Worblingen","type":"Kreisangehörige_Gemeinde"},"district":{"key":"08335","name":"Konstanz","type":"Landkreis"},"federalState":{"key":"08","name":"Baden-Württemberg"}},{"name":"Gotenweg","postalCode":"78239","locality":"Rielasingen-Worblingen","municipality":{"key":"08335100","name":"Rielasingen-Worblingen","type":"Kreisangehörige_Gemeinde"},"district":{"key":"08335","name":"Konstanz","type":"Landkreis"},"federalState":{"key":"08","name":"Baden-Württemberg"}},{"name":"Gottlieb-Daimler-Str.","postalCode":"78239","locality":"Rielasingen-Worblingen","municipality":{"key":"08335100","name":"Rielasingen-Worblingen","type":"Kreisangehörige_Gemeinde"},"district":{"key":"08335","name":"Konstanz","type":"Landkreis"},"federalState":{"key":"08","name":"Baden-Württemberg"}},{"name":"Gottmadinger Str.","postalCode":"78239","locality":"Rielasingen-Worblingen","municipality":{"key":"08335100","name":"Rielasingen-Worblingen","type":"Kreisangehörige_Gemeinde"},"district":{"key":"08335","name":"Konstanz","type":"Landkreis"},"federalState":{"key":"08","name":"Baden-Württemberg"}},{"name":"Grenzstr.","postalCode":"78239","locality":"Rielasingen-Worblingen","municipality":{"key":"08335100","name":"Rielasingen-Worblingen","type":"Kreisangehörige_Gemeinde"},"district":{"key":"08335","name":"Konstanz","type":"Landkreis"},"federalState":{"key":"08","name":"Baden-Württemberg"}},{"name":"Grünewaldstr.","postalCode":"78239","locality":"Rielasingen-Worblingen","municipality":{"key":"08335100","name":"Rielasingen-Worblingen","type":"Kreisangehörige_Gemeinde"},"district":{"key":"08335","name":"Konstanz","type":"Landkreis"},"federalState":{"key":"08","name":"Baden-Württemberg"}},{"name":"Gutenbergstr.","postalCode":"78239","locality":"Rielasingen-Worblingen","municipality":{"key":"08335100","name":"Rielasingen-Worblingen","type":"Kreisangehörige_Gemeinde"},"district":{"key":"08335","name":"Konstanz","type":"Landkreis"},"federalState":{"key":"08","name":"Baden-Württemberg"}},{"name":"Hans-Thoma-Str.","postalCode":"78239","locality":"Rielasingen-Worblingen","municipality":{"key":"08335100","name":"Rielasingen-Worblingen","type":"Kreisangehörige_Gemeinde"},"district":{"key":"08335","name":"Konstanz","type":"Landkreis"},"federalState":{"key":"08","name":"Baden-Württemberg"}},{"name":"Hardstr.","postalCode":"78239","locality":"Rielasingen-Worblingen","municipality":{"key":"08335100","name":"Rielasingen-Worblingen","type":"Kreisangehörige_Gemeinde"},"district":{"key":"08335","name":"Konstanz","type":"Landkreis"},"federalState":{"key":"08","name":"Baden-Württemberg"}},{"name":"Hardtbergstr.","postalCode":"78239","locality":"Rielasingen-Worblingen","municipality":{"key":"08335100","name":"Rielasingen-Worblingen","type":"Kreisangehörige_Gemeinde"},"district":{"key":"08335","name":"Konstanz","type":"Landkreis"},"federalState":{"key":"08","name":"Baden-Württemberg"}},{"name":"Hauptstr.","postalCode":"78239","locality":"Rielasingen-Worblingen","municipality":{"key":"08335100","name":"Rielasingen-Worblingen","type":"Kreisangehörige_Gemeinde"},"district":{"key":"08335","name":"Konstanz","type":"Landkreis"},"federalState":{"key":"08","name":"Baden-Württemberg"}},{"name":"Hebelstr.","postalCode":"78239","locality":"Rielasingen-Worblingen","municipality":{"key":"08335100","name":"Rielasingen-Worblingen","type":"Kreisangehörige_Gemeinde"},"district":{"key":"08335","name":"Konstanz","type":"Landkreis"},"federalState":{"key":"08","name":"Baden-Württemberg"}},{"name":"Hegaustr.","postalCode":"78239","locality":"Rielasingen-Worblingen","municipality":{"key":"08335100","name":"Rielasingen-Worblingen","type":"Kreisangehörige_Gemeinde"},"district":{"key":"08335","name":"Konstanz","type":"Landkreis"},"federalState":{"key":"08","name":"Baden-Württemberg"}},{"name":"Herderstr.","postalCode":"78239","locality":"Rielasingen-Worblingen","municipality":{"key":"08335100","name":"Rielasingen-Worblingen","type":"Kreisangehörige_Gemeinde"},"district":{"key":"08335","name":"Konstanz","type":"Landkreis"},"federalState":{"key":"08","name":"Baden-Württemberg"}},{"name":"Herdweg","postalCode":"78239","locality":"Rielasingen-Worblingen","municipality":{"key":"08335100","name":"Rielasingen-Worblingen","type":"Kreisangehörige_Gemeinde"},"district":{"key":"08335","name":"Konstanz","type":"Landkreis"},"federalState":{"key":"08","name":"Baden-Württemberg"}},{"name":"Herrentischstr.","postalCode":"78239","locality":"Rielasingen-Worblingen","municipality":{"key":"08335100","name":"Rielasingen-Worblingen","type":"Kreisangehörige_Gemeinde"},"district":{"key":"08335","name":"Konstanz","type":"Landkreis"},"federalState":{"key":"08","name":"Baden-Württemberg"}},{"name":"Hinterhof","postalCode":"78239","locality":"Rielasingen-Worblingen","municipality":{"key":"08335100","name":"Rielasingen-Worblingen","type":"Kreisangehörige_Gemeinde"},"district":{"key":"08335","name":"Konstanz","type":"Landkreis"},"federalState":{"key":"08","name":"Baden-Württemberg"}},{"name":"Hittisheimer Str.","postalCode":"78239","locality":"Rielasingen-Worblingen","municipality":{"key":"08335100","name":"Rielasingen-Worblingen","type":"Kreisangehörige_Gemeinde"},"district":{"key":"08335","name":"Konstanz","type":"Landkreis"},"federalState":{"key":"08","name":"Baden-Württemberg"}},{"name":"Hofenackerstr.","postalCode":"78239","locality":"Rielasingen-Worblingen","municipality":{"key":"08335100","name":"Rielasingen-Worblingen","type":"Kreisangehörige_Gemeinde"},"district":{"key":"08335","name":"Konstanz","type":"Landkreis"},"federalState":{"key":"08","name":"Baden-Württemberg"}},{"name":"Hohenkrähenstr.","postalCode":"78239","locality":"Rielasingen-Worblingen","municipality":{"key":"08335100","name":"Rielasingen-Worblingen","type":"Kreisangehörige_Gemeinde"},"district":{"key":"08335","name":"Konstanz","type":"Landkreis"},"federalState":{"key":"08","name":"Baden-Württemberg"}},{"name":"Hohentwielstr.","postalCode":"78239","locality":"Rielasingen-Worblingen","municipality":{"key":"08335100","name":"Rielasingen-Worblingen","type":"Kreisangehörige_Gemeinde"},"district":{"key":"08335","name":"Konstanz","type":"Landkreis"},"federalState":{"key":"08","name":"Baden-Württemberg"}},{"name":"Holbeinstr.","postalCode":"78239","locality":"Rielasingen-Worblingen","municipality":{"key":"08335100","name":"Rielasingen-Worblingen","type":"Kreisangehörige_Gemeinde"},"district":{"key":"08335","name":"Konstanz","type":"Landkreis"},"federalState":{"key":"08","name":"Baden-Württemberg"}},{"name":"Höristr.","postalCode":"78239","locality":"Rielasingen-Worblingen","municipality":{"key":"08335100","name":"Rielasingen-Worblingen","type":"Kreisangehörige_Gemeinde"},"district":{"key":"08335","name":"Konstanz","type":"Landkreis"},"federalState":{"key":"08","name":"Baden-Württemberg"}},{"name":"Im Allizag","postalCode":"78239","locality":"Rielasingen-Worblingen","municipality":{"key":"08335100","name":"Rielasingen-Worblingen","type":"Kreisangehörige_Gemeinde"},"district":{"key":"08335","name":"Konstanz","type":"Landkreis"},"federalState":{"key":"08","name":"Baden-Württemberg"}},{"name":"Im Bildstöckle","postalCode":"78239","locality":"Rielasingen-Worblingen","municipality":{"key":"08335100","name":"Rielasingen-Worblingen","type":"Kreisangehörige_Gemeinde"},"district":{"key":"08335","name":"Konstanz","type":"Landkreis"},"federalState":{"key":"08","name":"Baden-Württemberg"}},{"name":"Im Bünd","postalCode":"78239","locality":"Rielasingen-Worblingen","municipality":{"key":"08335100","name":"Rielasingen-Worblingen","type":"Kreisangehörige_Gemeinde"},"district":{"key":"08335","name":"Konstanz","type":"Landkreis"},"federalState":{"key":"08","name":"Baden-Württemberg"}},{"name":"Im Hasel","postalCode":"78239","locality":"Rielasingen-Worblingen","municipality":{"key":"08335100","name":"Rielasingen-Worblingen","type":"Kreisangehörige_Gemeinde"},"district":{"key":"08335","name":"Konstanz","type":"Landkreis"},"federalState":{"key":"08","name":"Baden-Württemberg"}},{"name":"Im Knechtgarten","postalCode":"78239","locality":"Rielasingen-Worblingen","municipality":{"key":"08335100","name":"Rielasingen-Worblingen","type":"Kreisangehörige_Gemeinde"},"district":{"key":"08335","name":"Konstanz","type":"Landkreis"},"federalState":{"key":"08","name":"Baden-Württemberg"}},{"name":"Im Mühlezelgle","postalCode":"78239","locality":"Rielasingen-Worblingen","municipality":{"key":"08335100","name":"Rielasingen-Worblingen","type":"Kreisangehörige_Gemeinde"},"district":{"key":"08335","name":"Konstanz","type":"Landkreis"},"federalState":{"key":"08","name":"Baden-Württemberg"}},{"name":"Im Neusatz","postalCode":"78239","locality":"Rielasingen-Worblingen","municipality":{"key":"08335100","name":"Rielasingen-Worblingen","type":"Kreisangehörige_Gemeinde"},"district":{"key":"08335","name":"Konstanz","type":"Landkreis"},"federalState":{"key":"08","name":"Baden-Württemberg"}},{"name":"Im tiefen Brunnen","postalCode":"78239","locality":"Rielasingen-Worblingen","municipality":{"key":"08335100","name":"Rielasingen-Worblingen","type":"Kreisangehörige_Gemeinde"},"district":{"key":"08335","name":"Konstanz","type":"Landkreis"},"federalState":{"key":"08","name":"Baden-Württemberg"}},{"name":"In der Breite","postalCode":"78239","locality":"Rielasingen-Worblingen","municipality":{"key":"08335100","name":"Rielasingen-Worblingen","type":"Kreisangehörige_Gemeinde"},"district":{"key":"08335","name":"Konstanz","type":"Landkreis"},"federalState":{"key":"08","name":"Baden-Württemberg"}},{"name":"In der Gaß","postalCode":"78239","locality":"Rielasingen-Worblingen","municipality":{"key":"08335100","name":"Rielasingen-Worblingen","type":"Kreisangehörige_Gemeinde"},"district":{"key":"08335","name":"Konstanz","type":"Landkreis"},"federalState":{"key":"08","name":"Baden-Württemberg"}},{"name":"In Lebern","postalCode":"78239","locality":"Rielasingen-Worblingen","municipality":{"key":"08335100","name":"Rielasingen-Worblingen","type":"Kreisangehörige_Gemeinde"},"district":{"key":"08335","name":"Konstanz","type":"Landkreis"},"federalState":{"key":"08","name":"Baden-Württemberg"}},{"name":"Inselstr.","postalCode":"78239","locality":"Rielasingen-Worblingen","municipality":{"key":"08335100","name":"Rielasingen-Worblingen","type":"Kreisangehörige_Gemeinde"},"district":{"key":"08335","name":"Konstanz","type":"Landkreis"},"federalState":{"key":"08","name":"Baden-Württemberg"}},{"name":"Junkernbühl","postalCode":"78239","locality":"Rielasingen-Worblingen","municipality":{"key":"08335100","name":"Rielasingen-Worblingen","type":"Kreisangehörige_Gemeinde"},"district":{"key":"08335","name":"Konstanz","type":"Landkreis"},"federalState":{"key":"08","name":"Baden-Württemberg"}},{"name":"Karl-von-Drais-Str.","postalCode":"78239","locality":"Rielasingen-Worblingen","municipality":{"key":"08335100","name":"Rielasingen-Worblingen","type":"Kreisangehörige_Gemeinde"},"district":{"key":"08335","name":"Konstanz","type":"Landkreis"},"federalState":{"key":"08","name":"Baden-Württemberg"}},{"name":"Kehlhofstr.","postalCode":"78239","locality":"Rielasingen-Worblingen","municipality":{"key":"08335100","name":"Rielasingen-Worblingen","type":"Kreisangehörige_Gemeinde"},"district":{"key":"08335","name":"Konstanz","type":"Landkreis"},"federalState":{"key":"08","name":"Baden-Württemberg"}},{"name":"Keltenweg","postalCode":"78239","locality":"Rielasingen-Worblingen","municipality":{"key":"08335100","name":"Rielasingen-Worblingen","type":"Kreisangehörige_Gemeinde"},"district":{"key":"08335","name":"Konstanz","type":"Landkreis"},"federalState":{"key":"08","name":"Baden-Württemberg"}},{"name":"Kiefernweg","postalCode":"78239","locality":"Rielasingen-Worblingen","municipality":{"key":"08335100","name":"Rielasingen-Worblingen","type":"Kreisangehörige_Gemeinde"},"district":{"key":"08335","name":"Konstanz","type":"Landkreis"},"federalState":{"key":"08","name":"Baden-Württemberg"}},{"name":"Kirchäckerstr.","postalCode":"78239","locality":"Rielasingen-Worblingen","municipality":{"key":"08335100","name":"Rielasingen-Worblingen","type":"Kreisangehörige_Gemeinde"},"district":{"key":"08335","name":"Konstanz","type":"Landkreis"},"federalState":{"key":"08","name":"Baden-Württemberg"}},{"name":"Kirchgasse","postalCode":"78239","locality":"Rielasingen-Worblingen","municipality":{"key":"08335100","name":"Rielasingen-Worblingen","type":"Kreisangehörige_Gemeinde"},"district":{"key":"08335","name":"Konstanz","type":"Landkreis"},"federalState":{"key":"08","name":"Baden-Württemberg"}},{"name":"Kleiststr.","postalCode":"78239","locality":"Rielasingen-Worblingen","municipality":{"key":"08335100","name":"Rielasingen-Worblingen","type":"Kreisangehörige_Gemeinde"},"district":{"key":"08335","name":"Konstanz","type":"Landkreis"},"federalState":{"key":"08","name":"Baden-Württemberg"}},{"name":"Kolpingstr.","postalCode":"78239","locality":"Rielasingen-Worblingen","municipality":{"key":"08335100","name":"Rielasingen-Worblingen","type":"Kreisangehörige_Gemeinde"},"district":{"key":"08335","name":"Konstanz","type":"Landkreis"},"federalState":{"key":"08","name":"Baden-Württemberg"}},{"name":"Konrad-Zuse-Str.","postalCode":"78239","locality":"Rielasingen-Worblingen","municipality":{"key":"08335100","name":"Rielasingen-Worblingen","type":"Kreisangehörige_Gemeinde"},"district":{"key":"08335","name":"Konstanz","type":"Landkreis"},"federalState":{"key":"08","name":"Baden-Württemberg"}},{"name":"Kreuzstr.","postalCode":"78239","locality":"Rielasingen-Worblingen","municipality":{"key":"08335100","name":"Rielasingen-Worblingen","type":"Kreisangehörige_Gemeinde"},"district":{"key":"08335","name":"Konstanz","type":"Landkreis"},"federalState":{"key":"08","name":"Baden-Württemberg"}},{"name":"Langenäcker","postalCode":"78239","locality":"Rielasingen-Worblingen","municipality":{"key":"08335100","name":"Rielasingen-Worblingen","type":"Kreisangehörige_Gemeinde"},"district":{"key":"08335","name":"Konstanz","type":"Landkreis"},"federalState":{"key":"08","name":"Baden-Württemberg"}},{"name":"Leimengrube","postalCode":"78239","locality":"Rielasingen-Worblingen","municipality":{"key":"08335100","name":"Rielasingen-Worblingen","type":"Kreisangehörige_Gemeinde"},"district":{"key":"08335","name":"Konstanz","type":"Landkreis"},"federalState":{"key":"08","name":"Baden-Württemberg"}},{"name":"Lessingstr.","postalCode":"78239","locality":"Rielasingen-Worblingen","municipality":{"key":"08335100","name":"Rielasingen-Worblingen","type":"Kreisangehörige_Gemeinde"},"district":{"key":"08335","name":"Konstanz","type":"Landkreis"},"federalState":{"key":"08","name":"Baden-Württemberg"}},{"name":"Leutenweg","postalCode":"78239","locality":"Rielasingen-Worblingen","municipality":{"key":"08335100","name":"Rielasingen-Worblingen","type":"Kreisangehörige_Gemeinde"},"district":{"key":"08335","name":"Konstanz","type":"Landkreis"},"federalState":{"key":"08","name":"Baden-Württemberg"}},{"name":"Liebenfelsstr.","postalCode":"78239","locality":"Rielasingen-Worblingen","municipality":{"key":"08335100","name":"Rielasingen-Worblingen","type":"Kreisangehörige_Gemeinde"},"district":{"key":"08335","name":"Konstanz","type":"Landkreis"},"federalState":{"key":"08","name":"Baden-Württemberg"}},{"name":"Lindenstr.","postalCode":"78239","locality":"Rielasingen-Worblingen","municipality":{"key":"08335100","name":"Rielasingen-Worblingen","type":"Kreisangehörige_Gemeinde"},"district":{"key":"08335","name":"Konstanz","type":"Landkreis"},"federalState":{"key":"08","name":"Baden-Württemberg"}},{"name":"Ludwig-Finckh-Str.","postalCode":"78239","locality":"Rielasingen-Worblingen","municipality":{"key":"08335100","name":"Rielasingen-Worblingen","type":"Kreisangehörige_Gemeinde"},"district":{"key":"08335","name":"Konstanz","type":"Landkreis"},"federalState":{"key":"08","name":"Baden-Württemberg"}},{"name":"Lutherstr.","postalCode":"78239","locality":"Rielasingen-Worblingen","municipality":{"key":"08335100","name":"Rielasingen-Worblingen","type":"Kreisangehörige_Gemeinde"},"district":{"key":"08335","name":"Konstanz","type":"Landkreis"},"federalState":{"key":"08","name":"Baden-Württemberg"}},{"name":"Max-Eyth-Str.","postalCode":"78239","locality":"Rielasingen-Worblingen","municipality":{"key":"08335100","name":"Rielasingen-Worblingen","type":"Kreisangehörige_Gemeinde"},"district":{"key":"08335","name":"Konstanz","type":"Landkreis"},"federalState":{"key":"08","name":"Baden-Württemberg"}},{"name":"Mozartstr.","postalCode":"78239","locality":"Rielasingen-Worblingen","municipality":{"key":"08335100","name":"Rielasingen-Worblingen","type":"Kreisangehörige_Gemeinde"},"district":{"key":"08335","name":"Konstanz","type":"Landkreis"},"federalState":{"key":"08","name":"Baden-Württemberg"}},{"name":"Naturbad Aachtal","postalCode":"78239","locality":"Rielasingen-Worblingen","municipality":{"key":"08335100","name":"Rielasingen-Worblingen","type":"Kreisangehörige_Gemeinde"},"district":{"key":"08335","name":"Konstanz","type":"Landkreis"},"federalState":{"key":"08","name":"Baden-Württemberg"}},{"name":"Neugasse","postalCode":"78239","locality":"Rielasingen-Worblingen","municipality":{"key":"08335100","name":"Rielasingen-Worblingen","type":"Kreisangehörige_Gemeinde"},"district":{"key":"08335","name":"Konstanz","type":"Landkreis"},"federalState":{"key":"08","name":"Baden-Württemberg"}},{"name":"Niedergasse","postalCode":"78239","locality":"Rielasingen-Worblingen","municipality":{"key":"08335100","name":"Rielasingen-Worblingen","type":"Kreisangehörige_Gemeinde"},"district":{"key":"08335","name":"Konstanz","type":"Landkreis"},"federalState":{"key":"08","name":"Baden-Württemberg"}},{"name":"Ob der Aach","postalCode":"78239","locality":"Rielasingen-Worblingen","municipality":{"key":"08335100","name":"Rielasingen-Worblingen","type":"Kreisangehörige_Gemeinde"},"district":{"key":"08335","name":"Konstanz","type":"Landkreis"},"federalState":{"key":"08","name":"Baden-Württemberg"}},{"name":"Oberdorfstr.","postalCode":"78239","locality":"Rielasingen-Worblingen","municipality":{"key":"08335100","name":"Rielasingen-Worblingen","type":"Kreisangehörige_Gemeinde"},"district":{"key":"08335","name":"Konstanz","type":"Landkreis"},"federalState":{"key":"08","name":"Baden-Württemberg"}},{"name":"Oberholzstr.","postalCode":"78239","locality":"Rielasingen-Worblingen","municipality":{"key":"08335100","name":"Rielasingen-Worblingen","type":"Kreisangehörige_Gemeinde"},"district":{"key":"08335","name":"Konstanz","type":"Landkreis"},"federalState":{"key":"08","name":"Baden-Württemberg"}},{"name":"Oberstr.","postalCode":"78239","locality":"Rielasingen-Worblingen","municipality":{"key":"08335100","name":"Rielasingen-Worblingen","type":"Kreisangehörige_Gemeinde"},"district":{"key":"08335","name":"Konstanz","type":"Landkreis"},"federalState":{"key":"08","name":"Baden-Württemberg"}},{"name":"Oberwiesen","postalCode":"78239","locality":"Rielasingen-Worblingen","municipality":{"key":"08335100","name":"Rielasingen-Worblingen","type":"Kreisangehörige_Gemeinde"},"district":{"key":"08335","name":"Konstanz","type":"Landkreis"},"federalState":{"key":"08","name":"Baden-Württemberg"}},{"name":"Pappelweg","postalCode":"78239","locality":"Rielasingen-Worblingen","municipality":{"key":"08335100","name":"Rielasingen-Worblingen","type":"Kreisangehörige_Gemeinde"},"district":{"key":"08335","name":"Konstanz","type":"Landkreis"},"federalState":{"key":"08","name":"Baden-Württemberg"}},{"name":"Poststr.","postalCode":"78239","locality":"Rielasingen-Worblingen","municipality":{"key":"08335100","name":"Rielasingen-Worblingen","type":"Kreisangehörige_Gemeinde"},"district":{"key":"08335","name":"Konstanz","type":"Landkreis"},"federalState":{"key":"08","name":"Baden-Württemberg"}},{"name":"Ramsener Str.","postalCode":"78239","locality":"Rielasingen-Worblingen","municipality":{"key":"08335100","name":"Rielasingen-Worblingen","type":"Kreisangehörige_Gemeinde"},"district":{"key":"08335","name":"Konstanz","type":"Landkreis"},"federalState":{"key":"08","name":"Baden-Württemberg"}},{"name":"Riedernstr.","postalCode":"78239","locality":"Rielasingen-Worblingen","municipality":{"key":"08335100","name":"Rielasingen-Worblingen","type":"Kreisangehörige_Gemeinde"},"district":{"key":"08335","name":"Konstanz","type":"Landkreis"},"federalState":{"key":"08","name":"Baden-Württemberg"}},{"name":"Rielasinger Str.","postalCode":"78239","locality":"Rielasingen-Worblingen","municipality":{"key":"08335100","name":"Rielasingen-Worblingen","type":"Kreisangehörige_Gemeinde"},"district":{"key":"08335","name":"Konstanz","type":"Landkreis"},"federalState":{"key":"08","name":"Baden-Württemberg"}},{"name":"Riesenweg","postalCode":"78239","locality":"Rielasingen-Worblingen","municipality":{"key":"08335100","name":"Rielasingen-Worblingen","type":"Kreisangehörige_Gemeinde"},"district":{"key":"08335","name":"Konstanz","type":"Landkreis"},"federalState":{"key":"08","name":"Baden-Württemberg"}},{"name":"Riesenweg II","postalCode":"78239","locality":"Rielasingen-Worblingen","municipality":{"key":"08335100","name":"Rielasingen-Worblingen","type":"Kreisangehörige_Gemeinde"},"district":{"key":"08335","name":"Konstanz","type":"Landkreis"},"federalState":{"key":"08","name":"Baden-Württemberg"}},{"name":"Ringstr.","postalCode":"78239","locality":"Rielasingen-Worblingen","municipality":{"key":"08335100","name":"Rielasingen-Worblingen","type":"Kreisangehörige_Gemeinde"},"district":{"key":"08335","name":"Konstanz","type":"Landkreis"},"federalState":{"key":"08","name":"Baden-Württemberg"}},{"name":"Robert-Bosch-Str.","postalCode":"78239","locality":"Rielasingen-Worblingen","municipality":{"key":"08335100","name":"Rielasingen-Worblingen","type":"Kreisangehörige_Gemeinde"},"district":{"key":"08335","name":"Konstanz","type":"Landkreis"},"federalState":{"key":"08","name":"Baden-Württemberg"}},{"name":"Römerstr.","postalCode":"78239","locality":"Rielasingen-Worblingen","municipality":{"key":"08335100","name":"Rielasingen-Worblingen","type":"Kreisangehörige_Gemeinde"},"district":{"key":"08335","name":"Konstanz","type":"Landkreis"},"federalState":{"key":"08","name":"Baden-Württemberg"}},{"name":"Roseneggbergweg","postalCode":"78239","locality":"Rielasingen-Worblingen","municipality":{"key":"08335100","name":"Rielasingen-Worblingen","type":"Kreisangehörige_Gemeinde"},"district":{"key":"08335","name":"Konstanz","type":"Landkreis"},"federalState":{"key":"08","name":"Baden-Württemberg"}},{"name":"Roseneggstr.","postalCode":"78239","locality":"Rielasingen-Worblingen","municipality":{"key":"08335100","name":"Rielasingen-Worblingen","type":"Kreisangehörige_Gemeinde"},"district":{"key":"08335","name":"Konstanz","type":"Landkreis"},"federalState":{"key":"08","name":"Baden-Württemberg"}},{"name":"Rudolf-Diesel-Str.","postalCode":"78239","locality":"Rielasingen-Worblingen","municipality":{"key":"08335100","name":"Rielasingen-Worblingen","type":"Kreisangehörige_Gemeinde"},"district":{"key":"08335","name":"Konstanz","type":"Landkreis"},"federalState":{"key":"08","name":"Baden-Württemberg"}},{"name":"Schaffhauser Str.","postalCode":"78239","locality":"Rielasingen-Worblingen","municipality":{"key":"08335100","name":"Rielasingen-Worblingen","type":"Kreisangehörige_Gemeinde"},"district":{"key":"08335","name":"Konstanz","type":"Landkreis"},"federalState":{"key":"08","name":"Baden-Württemberg"}},{"name":"Scheffelstr.","postalCode":"78239","locality":"Rielasingen-Worblingen","municipality":{"key":"08335100","name":"Rielasingen-Worblingen","type":"Kreisangehörige_Gemeinde"},"district":{"key":"08335","name":"Konstanz","type":"Landkreis"},"federalState":{"key":"08","name":"Baden-Württemberg"}},{"name":"Schienerbergstr.","postalCode":"78239","locality":"Rielasingen-Worblingen","municipality":{"key":"08335100","name":"Rielasingen-Worblingen","type":"Kreisangehörige_Gemeinde"},"district":{"key":"08335","name":"Konstanz","type":"Landkreis"},"federalState":{"key":"08","name":"Baden-Württemberg"}},{"name":"Schillerstr.","postalCode":"78239","locality":"Rielasingen-Worblingen","municipality":{"key":"08335100","name":"Rielasingen-Worblingen","type":"Kreisangehörige_Gemeinde"},"district":{"key":"08335","name":"Konstanz","type":"Landkreis"},"federalState":{"key":"08","name":"Baden-Württemberg"}},{"name":"Schloßweg","postalCode":"78239","locality":"Rielasingen-Worblingen","municipality":{"key":"08335100","name":"Rielasingen-Worblingen","type":"Kreisangehörige_Gemeinde"},"district":{"key":"08335","name":"Konstanz","type":"Landkreis"},"federalState":{"key":"08","name":"Baden-Württemberg"}},{"name":"Schmiedgasse","postalCode":"78239","locality":"Rielasingen-Worblingen","municipality":{"key":"08335100","name":"Rielasingen-Worblingen","type":"Kreisangehörige_Gemeinde"},"district":{"key":"08335","name":"Konstanz","type":"Landkreis"},"federalState":{"key":"08","name":"Baden-Württemberg"}},{"name":"Schmollerstr.","postalCode":"78239","locality":"Rielasingen-Worblingen","municipality":{"key":"08335100","name":"Rielasingen-Worblingen","type":"Kreisangehörige_Gemeinde"},"district":{"key":"08335","name":"Konstanz","type":"Landkreis"},"federalState":{"key":"08","name":"Baden-Württemberg"}},{"name":"Schnaidholzstr.","postalCode":"78239","locality":"Rielasingen-Worblingen","municipality":{"key":"08335100","name":"Rielasingen-Worblingen","type":"Kreisangehörige_Gemeinde"},"district":{"key":"08335","name":"Konstanz","type":"Landkreis"},"federalState":{"key":"08","name":"Baden-Württemberg"}},{"name":"Schrotzburgstr.","postalCode":"78239","locality":"Rielasingen-Worblingen","municipality":{"key":"08335100","name":"Rielasingen-Worblingen","type":"Kreisangehörige_Gemeinde"},"district":{"key":"08335","name":"Konstanz","type":"Landkreis"},"federalState":{"key":"08","name":"Baden-Württemberg"}},{"name":"Schubertstr.","postalCode":"78239","locality":"Rielasingen-Worblingen","municipality":{"key":"08335100","name":"Rielasingen-Worblingen","type":"Kreisangehörige_Gemeinde"},"district":{"key":"08335","name":"Konstanz","type":"Landkreis"},"federalState":{"key":"08","name":"Baden-Württemberg"}},{"name":"Schulstr.","postalCode":"78239","locality":"Rielasingen-Worblingen","municipality":{"key":"08335100","name":"Rielasingen-Worblingen","type":"Kreisangehörige_Gemeinde"},"district":{"key":"08335","name":"Konstanz","type":"Landkreis"},"federalState":{"key":"08","name":"Baden-Württemberg"}},{"name":"Singener Str.","postalCode":"78239","locality":"Rielasingen-Worblingen","municipality":{"key":"08335100","name":"Rielasingen-Worblingen","type":"Kreisangehörige_Gemeinde"},"district":{"key":"08335","name":"Konstanz","type":"Landkreis"},"federalState":{"key":"08","name":"Baden-Württemberg"}},{"name":"Staadäckerweg","postalCode":"78239","locality":"Rielasingen-Worblingen","municipality":{"key":"08335100","name":"Rielasingen-Worblingen","type":"Kreisangehörige_Gemeinde"},"district":{"key":"08335","name":"Konstanz","type":"Landkreis"},"federalState":{"key":"08","name":"Baden-Württemberg"}},{"name":"Steinerweg","postalCode":"78239","locality":"Rielasingen-Worblingen","municipality":{"key":"08335100","name":"Rielasingen-Worblingen","type":"Kreisangehörige_Gemeinde"},"district":{"key":"08335","name":"Konstanz","type":"Landkreis"},"federalState":{"key":"08","name":"Baden-Württemberg"}},{"name":"Steißlinger Str.","postalCode":"78239","locality":"Rielasingen-Worblingen","municipality":{"key":"08335100","name":"Rielasingen-Worblingen","type":"Kreisangehörige_Gemeinde"},"district":{"key":"08335","name":"Konstanz","type":"Landkreis"},"federalState":{"key":"08","name":"Baden-Württemberg"}},{"name":"Talweg","postalCode":"78239","locality":"Rielasingen-Worblingen","municipality":{"key":"08335100","name":"Rielasingen-Worblingen","type":"Kreisangehörige_Gemeinde"},"district":{"key":"08335","name":"Konstanz","type":"Landkreis"},"federalState":{"key":"08","name":"Baden-Württemberg"}},{"name":"Talwiesenstr.","postalCode":"78239","locality":"Rielasingen-Worblingen","municipality":{"key":"08335100","name":"Rielasingen-Worblingen","type":"Kreisangehörige_Gemeinde"},"district":{"key":"08335","name":"Konstanz","type":"Landkreis"},"federalState":{"key":"08","name":"Baden-Württemberg"}},{"name":"Ten-Brink-Park","postalCode":"78239","locality":"Rielasingen-Worblingen","municipality":{"key":"08335100","name":"Rielasingen-Worblingen","type":"Kreisangehörige_Gemeinde"},"district":{"key":"08335","name":"Konstanz","type":"Landkreis"},"federalState":{"key":"08","name":"Baden-Württemberg"}},{"name":"Turnplatz","postalCode":"78239","locality":"Rielasingen-Worblingen","municipality":{"key":"08335100","name":"Rielasingen-Worblingen","type":"Kreisangehörige_Gemeinde"},"district":{"key":"08335","name":"Konstanz","type":"Landkreis"},"federalState":{"key":"08","name":"Baden-Württemberg"}},{"name":"Türweg","postalCode":"78239","locality":"Rielasingen-Worblingen","municipality":{"key":"08335100","name":"Rielasingen-Worblingen","type":"Kreisangehörige_Gemeinde"},"district":{"key":"08335","name":"Konstanz","type":"Landkreis"},"federalState":{"key":"08","name":"Baden-Württemberg"}},{"name":"Uhlandstr.","postalCode":"78239","locality":"Rielasingen-Worblingen","municipality":{"key":"08335100","name":"Rielasingen-Worblingen","type":"Kreisangehörige_Gemeinde"},"district":{"key":"08335","name":"Konstanz","type":"Landkreis"},"federalState":{"key":"08","name":"Baden-Württemberg"}},{"name":"Unter dem Staffel","postalCode":"78239","locality":"Rielasingen-Worblingen","municipality":{"key":"08335100","name":"Rielasingen-Worblingen","type":"Kreisangehörige_Gemeinde"},"district":{"key":"08335","name":"Konstanz","type":"Landkreis"},"federalState":{"key":"08","name":"Baden-Württemberg"}},{"name":"Unterm Rain","postalCode":"78239","locality":"Rielasingen-Worblingen","municipality":{"key":"08335100","name":"Rielasingen-Worblingen","type":"Kreisangehörige_Gemeinde"},"district":{"key":"08335","name":"Konstanz","type":"Landkreis"},"federalState":{"key":"08","name":"Baden-Württemberg"}},{"name":"Volapükweg","postalCode":"78465","locality":"Konstanz","municipality":{"key":"08335043","name":"Konstanz, Universitätsstadt","type":"Große_Kreisstadt"},"district":{"key":"08335","name":"Konstanz","type":"Landkreis"},"federalState":{"key":"08","name":"Baden-Württemberg"}},{"name":"Von-Emmich-Str.","postalCode":"78467","locality":"Konstanz","municipality":{"key":"08335043","name":"Konstanz, Universitätsstadt","type":"Große_Kreisstadt"},"district":{"key":"08335","name":"Konstanz","type":"Landkreis"},"federalState":{"key":"08","name":"Baden-Württemberg"}},{"name":"Vordere Weidstaud","postalCode":"78465","locality":"Konstanz","municipality":{"key":"08335043","name":"Konstanz, Universitätsstadt","type":"Große_Kreisstadt"},"district":{"key":"08335","name":"Konstanz","type":"Landkreis"},"federalState":{"key":"08","name":"Baden-Württemberg"}},{"name":"Vor der Halde","postalCode":"78462","locality":"Konstanz","municipality":{"key":"08335043","name":"Konstanz, Universitätsstadt","type":"Große_Kreisstadt"},"district":{"key":"08335","name":"Konstanz","type":"Landkreis"},"federalState":{"key":"08","name":"Baden-Württemberg"}},{"name":"Waldheimstr.","postalCode":"78239","locality":"Rielasingen-Worblingen","municipality":{"key":"08335100","name":"Rielasingen-Worblingen","type":"Kreisangehörige_Gemeinde"},"district":{"key":"08335","name":"Konstanz","type":"Landkreis"},"federalState":{"key":"08","name":"Baden-Württemberg"}},{"name":"Waldstr.","postalCode":"78239","locality":"Rielasingen-Worblingen","municipality":{"key":"08335100","name":"Rielasingen-Worblingen","type":"Kreisangehörige_Gemeinde"},"district":{"key":"08335","name":"Konstanz","type":"Landkreis"},"federalState":{"key":"08","name":"Baden-Württemberg"}},{"name":"Werner-von-Siemens-Str.","postalCode":"78239","locality":"Rielasingen-Worblingen","municipality":{"key":"08335100","name":"Rielasingen-Worblingen","type":"Kreisangehörige_Gemeinde"},"district":{"key":"08335","name":"Konstanz","type":"Landkreis"},"federalState":{"key":"08","name":"Baden-Württemberg"}},{"name":"Wessenbergstr.","postalCode":"78239","locality":"Rielasingen-Worblingen","municipality":{"key":"08335100","name":"Rielasingen-Worblingen","type":"Kreisangehörige_Gemeinde"},"district":{"key":"08335","name":"Konstanz","type":"Landkreis"},"federalState":{"key":"08","name":"Baden-Württemberg"}},{"name":"Wiesenpfad","postalCode":"78239","locality":"Rielasingen-Worblingen","municipality":{"key":"08335100","name":"Rielasingen-Worblingen","type":"Kreisangehörige_Gemeinde"},"district":{"key":"08335","name":"Konstanz","type":"Landkreis"},"federalState":{"key":"08","name":"Baden-Württemberg"}},{"name":"Wiesholzer Str.","postalCode":"78239","locality":"Rielasingen-Worblingen","municipality":{"key":"08335100","name":"Rielasingen-Worblingen","type":"Kreisangehörige_Gemeinde"},"district":{"key":"08335","name":"Konstanz","type":"Landkreis"},"federalState":{"key":"08","name":"Baden-Württemberg"}},{"name":"Wirbel","postalCode":"78239","locality":"Rielasingen-Worblingen","municipality":{"key":"08335100","name":"Rielasingen-Worblingen","type":"Kreisangehörige_Gemeinde"},"district":{"key":"08335","name":"Konstanz","type":"Landkreis"},"federalState":{"key":"08","name":"Baden-Württemberg"}},{"name":"Wolkensteinweg","postalCode":"78239","locality":"Rielasingen-Worblingen","municipality":{"key":"08335100","name":"Rielasingen-Worblingen","type":"Kreisangehörige_Gemeinde"},"district":{"key":"08335","name":"Konstanz","type":"Landkreis"},"federalState":{"key":"08","name":"Baden-Württemberg"}},{"name":"Worbelhag","postalCode":"78239","locality":"Rielasingen-Worblingen","municipality":{"key":"08335100","name":"Rielasingen-Worblingen","type":"Kreisangehörige_Gemeinde"},"district":{"key":"08335","name":"Konstanz","type":"Landkreis"},"federalState":{"key":"08","name":"Baden-Württemberg"}},{"name":"Worblingen Aachbrücke","postalCode":"78239","locality":"Rielasingen-Worblingen","municipality":{"key":"08335100","name":"Rielasingen-Worblingen","type":"Kreisangehörige_Gemeinde"},"district":{"key":"08335","name":"Konstanz","type":"Landkreis"},"federalState":{"key":"08","name":"Baden-Württemberg"}},{"name":"Worblinger Str.","postalCode":"78239","locality":"Rielasingen-Worblingen","municipality":{"key":"08335100","name":"Rielasingen-Worblingen","type":"Kreisangehörige_Gemeinde"},"district":{"key":"08335","name":"Konstanz","type":"Landkreis"},"federalState":{"key":"08","name":"Baden-Württemberg"}},{"name":"Zelglestr.","postalCode":"78239","locality":"Rielasingen-Worblingen","municipality":{"key":"08335100","name":"Rielasingen-Worblingen","type":"Kreisangehörige_Gemeinde"},"district":{"key":"08335","name":"Konstanz","type":"Landkreis"},"federalState":{"key":"08","name":"Baden-Württemberg"}},{"name":"Zeppelinstr.","postalCode":"78239","locality":"Rielasingen-Worblingen","municipality":{"key":"08335100","name":"Rielasingen-Worblingen","type":"Kreisangehörige_Gemeinde"},"district":{"key":"08335","name":"Konstanz","type":"Landkreis"},"federalState":{"key":"08","name":"Baden-Württemberg"}},{"name":"Zwischen den Wegen","postalCode":"78239","locality":"Rielasingen-Worblingen","municipality":{"key":"08335100","name":"Rielasingen-Worblingen","type":"Kreisangehörige_Gemeinde"},"district":{"key":"08335","name":"Konstanz","type":"Landkreis"},"federalState":{"key":"08","name":"Baden-Württemberg"}},{"name":"Überlinger Weg","postalCode":"78239","locality":"Rielasingen-Worblingen","municipality":{"key":"08335100","name":"Rielasingen-Worblingen","type":"Kreisangehörige_Gemeinde"},"district":{"key":"08335","name":"Konstanz","type":"Landkreis"},"federalState":{"key":"08","name":"Baden-Württemberg"}},]