[{"key":"10245447","name":"A3","postalCode":"8942","locality":"Oberrieden","commune":{"key":"137","name":"Oberrieden","shortName":"Oberrieden"},"district":{"key":"106","name":"Bezirk Horgen"},"canton":{"key":"1","code":"ZH","name":"Zürich"},"status":"Real"},{"key":"10001291","name":"Alte Landstrasse","postalCode":"8942","locality":"Oberrieden","commune":{"key":"137","name":"Oberrieden","shortName":"Oberrieden"},"district":{"key":"106","name":"Bezirk Horgen"},"canton":{"key":"1","code":"ZH","name":"Zürich"},"status":"Real"},{"key":"10147838","name":"Altgasse","postalCode":"8942","locality":"Oberrieden","commune":{"key":"137","name":"Oberrieden","shortName":"Oberrieden"},"district":{"key":"106","name":"Bezirk Horgen"},"canton":{"key":"1","code":"ZH","name":"Zürich"},"status":"Real"},{"key":"10066981","name":"Altweg","postalCode":"8942","locality":"Oberrieden","commune":{"key":"137","name":"Oberrieden","shortName":"Oberrieden"},"district":{"key":"106","name":"Bezirk Horgen"},"canton":{"key":"1","code":"ZH","name":"Zürich"},"status":"Real"},{"key":"10001292","name":"Ankergasse","postalCode":"8942","locality":"Oberrieden","commune":{"key":"137","name":"Oberrieden","shortName":"Oberrieden"},"district":{"key":"106","name":"Bezirk Horgen"},"canton":{"key":"1","code":"ZH","name":"Zürich"},"status":"Real"},{"key":"10001293","name":"Bahnhofstrasse","postalCode":"8942","locality":"Oberrieden","commune":{"key":"137","name":"Oberrieden","shortName":"Oberrieden"},"district":{"key":"106","name":"Bezirk Horgen"},"canton":{"key":"1","code":"ZH","name":"Zürich"},"status":"Real"},{"key":"10173931","name":"Bahnweg","postalCode":"8942","locality":"Oberrieden","commune":{"key":"137","name":"Oberrieden","shortName":"Oberrieden"},"district":{"key":"106","name":"Bezirk Horgen"},"canton":{"key":"1","code":"ZH","name":"Zürich"},"status":"Real"},{"key":"10109732","name":"Bickelstrasse","postalCode":"8942","locality":"Oberrieden","commune":{"key":"137","name":"Oberrieden","shortName":"Oberrieden"},"district":{"key":"106","name":"Bezirk Horgen"},"canton":{"key":"1","code":"ZH","name":"Zürich"},"status":"Real"},{"key":"10066982","name":"Bindernstrasse","postalCode":"8942","locality":"Oberrieden","commune":{"key":"137","name":"Oberrieden","shortName":"Oberrieden"},"district":{"key":"106","name":"Bezirk Horgen"},"canton":{"key":"1","code":"ZH","name":"Zürich"},"status":"Real"},{"key":"10117562","name":"Bindernweg","postalCode":"8942","locality":"Oberrieden","commune":{"key":"137","name":"Oberrieden","shortName":"Oberrieden"},"district":{"key":"106","name":"Bezirk Horgen"},"canton":{"key":"1","code":"ZH","name":"Zürich"},"status":"Real"},{"key":"10001294","name":"Bleierbrunnenweg","postalCode":"8942","locality":"Oberrieden","commune":{"key":"137","name":"Oberrieden","shortName":"Oberrieden"},"district":{"key":"106","name":"Bezirk Horgen"},"canton":{"key":"1","code":"ZH","name":"Zürich"},"status":"Real"},{"key":"10001295","name":"Bleierstrasse","postalCode":"8942","locality":"Oberrieden","commune":{"key":"137","name":"Oberrieden","shortName":"Oberrieden"},"district":{"key":"106","name":"Bezirk Horgen"},"canton":{"key":"1","code":"ZH","name":"Zürich"},"status":"Real"},{"key":"10078643","name":"Bleierweg","postalCode":"8942","locality":"Oberrieden","commune":{"key":"137","name":"Oberrieden","shortName":"Oberrieden"},"district":{"key":"106","name":"Bezirk Horgen"},"canton":{"key":"1","code":"ZH","name":"Zürich"},"status":"Real"},{"key":"10171069","name":"Bodenweg","postalCode":"8942","locality":"Oberrieden","commune":{"key":"137","name":"Oberrieden","shortName":"Oberrieden"},"district":{"key":"106","name":"Bezirk Horgen"},"canton":{"key":"1","code":"ZH","name":"Zürich"},"status":"Real"},{"key":"10001296","name":"Bruggstrasse","postalCode":"8942","locality":"Oberrieden","commune":{"key":"137","name":"Oberrieden","shortName":"Oberrieden"},"district":{"key":"106","name":"Bezirk Horgen"},"canton":{"key":"1","code":"ZH","name":"Zürich"},"status":"Real"},{"key":"10105395","name":"Büelhaldenstrasse","postalCode":"8942","locality":"Oberrieden","commune":{"key":"137","name":"Oberrieden","shortName":"Oberrieden"},"district":{"key":"106","name":"Bezirk Horgen"},"canton":{"key":"1","code":"ZH","name":"Zürich"},"status":"Real"},{"key":"10001297","name":"Büelhaldenweg","postalCode":"8942","locality":"Oberrieden","commune":{"key":"137","name":"Oberrieden","shortName":"Oberrieden"},"district":{"key":"106","name":"Bezirk Horgen"},"canton":{"key":"1","code":"ZH","name":"Zürich"},"status":"Real"},{"key":"10193694","name":"Butzenbachstrasse","postalCode":"8942","locality":"Oberrieden","commune":{"key":"137","name":"Oberrieden","shortName":"Oberrieden"},"district":{"key":"106","name":"Bezirk Horgen"},"canton":{"key":"1","code":"ZH","name":"Zürich"},"status":"Real"},{"key":"10181923","name":"Cholenmoosweg","postalCode":"8942","locality":"Oberrieden","commune":{"key":"137","name":"Oberrieden","shortName":"Oberrieden"},"district":{"key":"106","name":"Bezirk Horgen"},"canton":{"key":"1","code":"ZH","name":"Zürich"},"status":"Real"},{"key":"10001298","name":"Dörflistrasse","postalCode":"8942","locality":"Oberrieden","commune":{"key":"137","name":"Oberrieden","shortName":"Oberrieden"},"district":{"key":"106","name":"Bezirk Horgen"},"canton":{"key":"1","code":"ZH","name":"Zürich"},"status":"Real"},{"key":"10001299","name":"Dörner-Rüti","postalCode":"8942","locality":"Oberrieden","commune":{"key":"137","name":"Oberrieden","shortName":"Oberrieden"},"district":{"key":"106","name":"Bezirk Horgen"},"canton":{"key":"1","code":"ZH","name":"Zürich"},"status":"Real"},{"key":"10097656","name":"Ebnetstrasse","postalCode":"8942","locality":"Oberrieden","commune":{"key":"137","name":"Oberrieden","shortName":"Oberrieden"},"district":{"key":"106","name":"Bezirk Horgen"},"canton":{"key":"1","code":"ZH","name":"Zürich"},"status":"Real"},{"key":"10189929","name":"Eglistrasse","postalCode":"8942","locality":"Oberrieden","commune":{"key":"137","name":"Oberrieden","shortName":"Oberrieden"},"district":{"key":"106","name":"Bezirk Horgen"},"canton":{"key":"1","code":"ZH","name":"Zürich"},"status":"Real"},{"key":"10078644","name":"Einsiedlerstrasse","postalCode":"8942","locality":"Oberrieden","commune":{"key":"137","name":"Oberrieden","shortName":"Oberrieden"},"district":{"key":"106","name":"Bezirk Horgen"},"canton":{"key":"1","code":"ZH","name":"Zürich"},"status":"Real"},{"key":"10203342","name":"Einsiedlerweg","postalCode":"8942","locality":"Oberrieden","commune":{"key":"137","name":"Oberrieden","shortName":"Oberrieden"},"district":{"key":"106","name":"Bezirk Horgen"},"canton":{"key":"1","code":"ZH","name":"Zürich"},"status":"Real"},{"key":"10002979","name":"Fachstrasse","postalCode":"8942","locality":"Oberrieden","commune":{"key":"137","name":"Oberrieden","shortName":"Oberrieden"},"district":{"key":"106","name":"Bezirk Horgen"},"canton":{"key":"1","code":"ZH","name":"Zürich"},"status":"Real"},{"key":"10108443","name":"Feldeggstrasse","postalCode":"8942","locality":"Oberrieden","commune":{"key":"137","name":"Oberrieden","shortName":"Oberrieden"},"district":{"key":"106","name":"Bezirk Horgen"},"canton":{"key":"1","code":"ZH","name":"Zürich"},"status":"Real"},{"key":"10109733","name":"Feldstrasse","postalCode":"8942","locality":"Oberrieden","commune":{"key":"137","name":"Oberrieden","shortName":"Oberrieden"},"district":{"key":"106","name":"Bezirk Horgen"},"canton":{"key":"1","code":"ZH","name":"Zürich"},"status":"Real"},{"key":"10097654","name":"Feldweg","postalCode":"8942","locality":"Oberrieden","commune":{"key":"137","name":"Oberrieden","shortName":"Oberrieden"},"district":{"key":"106","name":"Bezirk Horgen"},"canton":{"key":"1","code":"ZH","name":"Zürich"},"status":"Real"},{"key":"10066983","name":"Förlibuckrain","postalCode":"8942","locality":"Oberrieden","commune":{"key":"137","name":"Oberrieden","shortName":"Oberrieden"},"district":{"key":"106","name":"Bezirk Horgen"},"canton":{"key":"1","code":"ZH","name":"Zürich"},"status":"Real"},{"key":"10002980","name":"Freihofstrasse","postalCode":"8942","locality":"Oberrieden","commune":{"key":"137","name":"Oberrieden","shortName":"Oberrieden"},"district":{"key":"106","name":"Bezirk Horgen"},"canton":{"key":"1","code":"ZH","name":"Zürich"},"status":"Real"},{"key":"10076126","name":"Grenzweg","postalCode":"8942","locality":"Oberrieden","commune":{"key":"137","name":"Oberrieden","shortName":"Oberrieden"},"district":{"key":"106","name":"Bezirk Horgen"},"canton":{"key":"1","code":"ZH","name":"Zürich"},"status":"Real"},{"key":"10002981","name":"Haldenstrasse","postalCode":"8942","locality":"Oberrieden","commune":{"key":"137","name":"Oberrieden","shortName":"Oberrieden"},"district":{"key":"106","name":"Bezirk Horgen"},"canton":{"key":"1","code":"ZH","name":"Zürich"},"status":"Real"},{"key":"10097660","name":"Hasenrainweg","postalCode":"8942","locality":"Oberrieden","commune":{"key":"137","name":"Oberrieden","shortName":"Oberrieden"},"district":{"key":"106","name":"Bezirk Horgen"},"canton":{"key":"1","code":"ZH","name":"Zürich"},"status":"Real"},{"key":"10002982","name":"Hechtstrasse","postalCode":"8942","locality":"Oberrieden","commune":{"key":"137","name":"Oberrieden","shortName":"Oberrieden"},"district":{"key":"106","name":"Bezirk Horgen"},"canton":{"key":"1","code":"ZH","name":"Zürich"},"status":"Real"},{"key":"10066984","name":"Hintere Bergstrasse","postalCode":"8942","locality":"Oberrieden","commune":{"key":"137","name":"Oberrieden","shortName":"Oberrieden"},"district":{"key":"106","name":"Bezirk Horgen"},"canton":{"key":"1","code":"ZH","name":"Zürich"},"status":"Real"},{"key":"10076127","name":"Hinterer Scheller","postalCode":"8942","locality":"Oberrieden","commune":{"key":"137","name":"Oberrieden","shortName":"Oberrieden"},"district":{"key":"106","name":"Bezirk Horgen"},"canton":{"key":"1","code":"ZH","name":"Zürich"},"status":"Real"},{"key":"10097662","name":"Höhenweg","postalCode":"8942","locality":"Oberrieden","commune":{"key":"137","name":"Oberrieden","shortName":"Oberrieden"},"district":{"key":"106","name":"Bezirk Horgen"},"canton":{"key":"1","code":"ZH","name":"Zürich"},"status":"Real"},{"key":"10169431","name":"Holderhütte","postalCode":"8942","locality":"Oberrieden","commune":{"key":"137","name":"Oberrieden","shortName":"Oberrieden"},"district":{"key":"106","name":"Bezirk Horgen"},"canton":{"key":"1","code":"ZH","name":"Zürich"},"status":"Real"},{"key":"10002983","name":"Holzgasse","postalCode":"8942","locality":"Oberrieden","commune":{"key":"137","name":"Oberrieden","shortName":"Oberrieden"},"district":{"key":"106","name":"Bezirk Horgen"},"canton":{"key":"1","code":"ZH","name":"Zürich"},"status":"Real"},{"key":"10002984","name":"Horngasse","postalCode":"8942","locality":"Oberrieden","commune":{"key":"137","name":"Oberrieden","shortName":"Oberrieden"},"district":{"key":"106","name":"Bezirk Horgen"},"canton":{"key":"1","code":"ZH","name":"Zürich"},"status":"Real"},{"key":"10002985","name":"Hubstrasse","postalCode":"8942","locality":"Oberrieden","commune":{"key":"137","name":"Oberrieden","shortName":"Oberrieden"},"district":{"key":"106","name":"Bezirk Horgen"},"canton":{"key":"1","code":"ZH","name":"Zürich"},"status":"Real"},{"key":"10173933","name":"Hüttenweg","postalCode":"8942","locality":"Oberrieden","commune":{"key":"137","name":"Oberrieden","shortName":"Oberrieden"},"district":{"key":"106","name":"Bezirk Horgen"},"canton":{"key":"1","code":"ZH","name":"Zürich"},"status":"Real"},{"key":"10109734","name":"Im Bärenmoos","postalCode":"8942","locality":"Oberrieden","commune":{"key":"137","name":"Oberrieden","shortName":"Oberrieden"},"district":{"key":"106","name":"Bezirk Horgen"},"canton":{"key":"1","code":"ZH","name":"Zürich"},"status":"Real"},{"key":"10076128","name":"Im Bergli","postalCode":"8942","locality":"Oberrieden","commune":{"key":"137","name":"Oberrieden","shortName":"Oberrieden"},"district":{"key":"106","name":"Bezirk Horgen"},"canton":{"key":"1","code":"ZH","name":"Zürich"},"status":"Real"},{"key":"10066985","name":"Im Bleier","postalCode":"8942","locality":"Oberrieden","commune":{"key":"137","name":"Oberrieden","shortName":"Oberrieden"},"district":{"key":"106","name":"Bezirk Horgen"},"canton":{"key":"1","code":"ZH","name":"Zürich"},"status":"Real"},{"key":"10105396","name":"Im Huebacher","postalCode":"8942","locality":"Oberrieden","commune":{"key":"137","name":"Oberrieden","shortName":"Oberrieden"},"district":{"key":"106","name":"Bezirk Horgen"},"canton":{"key":"1","code":"ZH","name":"Zürich"},"status":"Real"},{"key":"10002986","name":"In der Weid","postalCode":"8942","locality":"Oberrieden","commune":{"key":"137","name":"Oberrieden","shortName":"Oberrieden"},"district":{"key":"106","name":"Bezirk Horgen"},"canton":{"key":"1","code":"ZH","name":"Zürich"},"status":"Real"},{"key":"10076129","name":"Karpfenstrasse","postalCode":"8942","locality":"Oberrieden","commune":{"key":"137","name":"Oberrieden","shortName":"Oberrieden"},"district":{"key":"106","name":"Bezirk Horgen"},"canton":{"key":"1","code":"ZH","name":"Zürich"},"status":"Real"},{"key":"10002987","name":"Kirchstrasse","postalCode":"8942","locality":"Oberrieden","commune":{"key":"137","name":"Oberrieden","shortName":"Oberrieden"},"district":{"key":"106","name":"Bezirk Horgen"},"canton":{"key":"1","code":"ZH","name":"Zürich"},"status":"Real"},{"key":"10171071","name":"Kohlweg","postalCode":"8942","locality":"Oberrieden","commune":{"key":"137","name":"Oberrieden","shortName":"Oberrieden"},"district":{"key":"106","name":"Bezirk Horgen"},"canton":{"key":"1","code":"ZH","name":"Zürich"},"status":"Real"},{"key":"10066986","name":"Kreuzbühlweg","postalCode":"8942","locality":"Oberrieden","commune":{"key":"137","name":"Oberrieden","shortName":"Oberrieden"},"district":{"key":"106","name":"Bezirk Horgen"},"canton":{"key":"1","code":"ZH","name":"Zürich"},"status":"Real"},{"key":"10196629","name":"Krummenweg","postalCode":"8942","locality":"Oberrieden","commune":{"key":"137","name":"Oberrieden","shortName":"Oberrieden"},"district":{"key":"106","name":"Bezirk Horgen"},"canton":{"key":"1","code":"ZH","name":"Zürich"},"status":"Real"},{"key":"10002988","name":"Langweg","postalCode":"8942","locality":"Oberrieden","commune":{"key":"137","name":"Oberrieden","shortName":"Oberrieden"},"district":{"key":"106","name":"Bezirk Horgen"},"canton":{"key":"1","code":"ZH","name":"Zürich"},"status":"Real"},{"key":"10002989","name":"Langwiesstrasse","postalCode":"8942","locality":"Oberrieden","commune":{"key":"137","name":"Oberrieden","shortName":"Oberrieden"},"district":{"key":"106","name":"Bezirk Horgen"},"canton":{"key":"1","code":"ZH","name":"Zürich"},"status":"Real"},{"key":"10002990","name":"Länzweg","postalCode":"8942","locality":"Oberrieden","commune":{"key":"137","name":"Oberrieden","shortName":"Oberrieden"},"district":{"key":"106","name":"Bezirk Horgen"},"canton":{"key":"1","code":"ZH","name":"Zürich"},"status":"Real"},{"key":"10097664","name":"Lotteretewäg","postalCode":"8942","locality":"Oberrieden","commune":{"key":"137","name":"Oberrieden","shortName":"Oberrieden"},"district":{"key":"106","name":"Bezirk Horgen"},"canton":{"key":"1","code":"ZH","name":"Zürich"},"status":"Real"},{"key":"10171072","name":"Meereggrain","postalCode":"8942","locality":"Oberrieden","commune":{"key":"137","name":"Oberrieden","shortName":"Oberrieden"},"district":{"key":"106","name":"Bezirk Horgen"},"canton":{"key":"1","code":"ZH","name":"Zürich"},"status":"Real"},{"key":"10196790","name":"Meisterweg","postalCode":"8942","locality":"Oberrieden","commune":{"key":"137","name":"Oberrieden","shortName":"Oberrieden"},"district":{"key":"106","name":"Bezirk Horgen"},"canton":{"key":"1","code":"ZH","name":"Zürich"},"status":"Real"},{"key":"10076130","name":"Mettlistrasse","postalCode":"8942","locality":"Oberrieden","commune":{"key":"137","name":"Oberrieden","shortName":"Oberrieden"},"district":{"key":"106","name":"Bezirk Horgen"},"canton":{"key":"1","code":"ZH","name":"Zürich"},"status":"Real"},{"key":"10171073","name":"Neuforststrasse","postalCode":"8942","locality":"Oberrieden","commune":{"key":"137","name":"Oberrieden","shortName":"Oberrieden"},"district":{"key":"106","name":"Bezirk Horgen"},"canton":{"key":"1","code":"ZH","name":"Zürich"},"status":"Real"},{"key":"10002991","name":"Oberer Stünziweg","postalCode":"8942","locality":"Oberrieden","commune":{"key":"137","name":"Oberrieden","shortName":"Oberrieden"},"district":{"key":"106","name":"Bezirk Horgen"},"canton":{"key":"1","code":"ZH","name":"Zürich"},"status":"Real"},{"key":"10101913","name":"Plattenstrasse","postalCode":"8942","locality":"Oberrieden","commune":{"key":"137","name":"Oberrieden","shortName":"Oberrieden"},"district":{"key":"106","name":"Bezirk Horgen"},"canton":{"key":"1","code":"ZH","name":"Zürich"},"status":"Real"},{"key":"10066987","name":"Püntstrasse","postalCode":"8942","locality":"Oberrieden","commune":{"key":"137","name":"Oberrieden","shortName":"Oberrieden"},"district":{"key":"106","name":"Bezirk Horgen"},"canton":{"key":"1","code":"ZH","name":"Zürich"},"status":"Real"},{"key":"10109735","name":"Rosengartenweg","postalCode":"8942","locality":"Oberrieden","commune":{"key":"137","name":"Oberrieden","shortName":"Oberrieden"},"district":{"key":"106","name":"Bezirk Horgen"},"canton":{"key":"1","code":"ZH","name":"Zürich"},"status":"Real"},{"key":"10101918","name":"Sagenweg","postalCode":"8942","locality":"Oberrieden","commune":{"key":"137","name":"Oberrieden","shortName":"Oberrieden"},"district":{"key":"106","name":"Bezirk Horgen"},"canton":{"key":"1","code":"ZH","name":"Zürich"},"status":"Real"},{"key":"10002992","name":"Säntisstrasse","postalCode":"8942","locality":"Oberrieden","commune":{"key":"137","name":"Oberrieden","shortName":"Oberrieden"},"district":{"key":"106","name":"Bezirk Horgen"},"canton":{"key":"1","code":"ZH","name":"Zürich"},"status":"Real"},{"key":"10076131","name":"Schäppi-Naef-Strasse","postalCode":"8942","locality":"Oberrieden","commune":{"key":"137","name":"Oberrieden","shortName":"Oberrieden"},"district":{"key":"106","name":"Bezirk Horgen"},"canton":{"key":"1","code":"ZH","name":"Zürich"},"status":"Real"},{"key":"10171075","name":"Schellerweg","postalCode":"8942","locality":"Oberrieden","commune":{"key":"137","name":"Oberrieden","shortName":"Oberrieden"},"district":{"key":"106","name":"Bezirk Horgen"},"canton":{"key":"1","code":"ZH","name":"Zürich"},"status":"Real"},{"key":"10170575","name":"Schulweg","postalCode":"8942","locality":"Oberrieden","commune":{"key":"137","name":"Oberrieden","shortName":"Oberrieden"},"district":{"key":"106","name":"Bezirk Horgen"},"canton":{"key":"1","code":"ZH","name":"Zürich"},"status":"Real"},{"key":"10101924","name":"Seerebenweg","postalCode":"8942","locality":"Oberrieden","commune":{"key":"137","name":"Oberrieden","shortName":"Oberrieden"},"district":{"key":"106","name":"Bezirk Horgen"},"canton":{"key":"1","code":"ZH","name":"Zürich"},"status":"Real"},{"key":"10125644","name":"Seestrasse","postalCode":"8942","locality":"Oberrieden","commune":{"key":"137","name":"Oberrieden","shortName":"Oberrieden"},"district":{"key":"106","name":"Bezirk Horgen"},"canton":{"key":"1","code":"ZH","name":"Zürich"},"status":"Real"},{"key":"10101925","name":"Sihlfluhweg","postalCode":"8942","locality":"Oberrieden","commune":{"key":"137","name":"Oberrieden","shortName":"Oberrieden"},"district":{"key":"106","name":"Bezirk Horgen"},"canton":{"key":"1","code":"ZH","name":"Zürich"},"status":"Real"},{"key":"10108444","name":"Speerstrasse","postalCode":"8942","locality":"Oberrieden","commune":{"key":"137","name":"Oberrieden","shortName":"Oberrieden"},"district":{"key":"106","name":"Bezirk Horgen"},"canton":{"key":"1","code":"ZH","name":"Zürich"},"status":"Real"},{"key":"10066988","name":"Spielhofweg","postalCode":"8942","locality":"Oberrieden","commune":{"key":"137","name":"Oberrieden","shortName":"Oberrieden"},"district":{"key":"106","name":"Bezirk Horgen"},"canton":{"key":"1","code":"ZH","name":"Zürich"},"status":"Real"},{"key":"10076132","name":"Tannenbachstrasse","postalCode":"8942","locality":"Oberrieden","commune":{"key":"137","name":"Oberrieden","shortName":"Oberrieden"},"district":{"key":"106","name":"Bezirk Horgen"},"canton":{"key":"1","code":"ZH","name":"Zürich"},"status":"Real"},{"key":"10171076","name":"Thalwilerstrasse","postalCode":"8942","locality":"Oberrieden","commune":{"key":"137","name":"Oberrieden","shortName":"Oberrieden"},"district":{"key":"106","name":"Bezirk Horgen"},"canton":{"key":"1","code":"ZH","name":"Zürich"},"status":"Real"},{"key":"10002993","name":"Tischenloostrasse","postalCode":"8942","locality":"Oberrieden","commune":{"key":"137","name":"Oberrieden","shortName":"Oberrieden"},"district":{"key":"106","name":"Bezirk Horgen"},"canton":{"key":"1","code":"ZH","name":"Zürich"},"status":"Real"},{"key":"10002994","name":"Unterer Stünziweg","postalCode":"8942","locality":"Oberrieden","commune":{"key":"137","name":"Oberrieden","shortName":"Oberrieden"},"district":{"key":"106","name":"Bezirk Horgen"},"canton":{"key":"1","code":"ZH","name":"Zürich"},"status":"Real"},{"key":"10105397","name":"Vordere Bergstrasse","postalCode":"8942","locality":"Oberrieden","commune":{"key":"137","name":"Oberrieden","shortName":"Oberrieden"},"district":{"key":"106","name":"Bezirk Horgen"},"canton":{"key":"1","code":"ZH","name":"Zürich"},"status":"Real"},{"key":"10076133","name":"Wattenbühlweg","postalCode":"8942","locality":"Oberrieden","commune":{"key":"137","name":"Oberrieden","shortName":"Oberrieden"},"district":{"key":"106","name":"Bezirk Horgen"},"canton":{"key":"1","code":"ZH","name":"Zürich"},"status":"Real"},{"key":"10151113","name":"Widenbodenstrasse","postalCode":"8942","locality":"Oberrieden","commune":{"key":"137","name":"Oberrieden","shortName":"Oberrieden"},"district":{"key":"106","name":"Bezirk Horgen"},"canton":{"key":"1","code":"ZH","name":"Zürich"},"status":"Real"},{"key":"10127963","name":"Wiesengrundstrasse","postalCode":"8942","locality":"Oberrieden","commune":{"key":"137","name":"Oberrieden","shortName":"Oberrieden"},"district":{"key":"106","name":"Bezirk Horgen"},"canton":{"key":"1","code":"ZH","name":"Zürich"},"status":"Real"},{"key":"10170485","name":"Wiesengrundweg","postalCode":"8942","locality":"Oberrieden","commune":{"key":"137","name":"Oberrieden","shortName":"Oberrieden"},"district":{"key":"106","name":"Bezirk Horgen"},"canton":{"key":"1","code":"ZH","name":"Zürich"},"status":"Real"},{"key":"10002995","name":"Winkelhaldenstrasse","postalCode":"8942","locality":"Oberrieden","commune":{"key":"137","name":"Oberrieden","shortName":"Oberrieden"},"district":{"key":"106","name":"Bezirk Horgen"},"canton":{"key":"1","code":"ZH","name":"Zürich"},"status":"Real"},{"key":"10101927","name":"Zürcherstrasse","postalCode":"8942","locality":"Oberrieden","commune":{"key":"137","name":"Oberrieden","shortName":"Oberrieden"},"district":{"key":"106","name":"Bezirk Horgen"},"canton":{"key":"1","code":"ZH","name":"Zürich"},"status":"Real"},]