[{"name":"Ahlener Str.","postalCode":"26892","locality":"Dörpen","municipality":{"key":"03454008","name":"Dörpen","type":"Kreisangehörige_Gemeinde"},"district":{"key":"03454","name":"Emsland","type":"Landkreis"},"federalState":{"key":"03","name":"Niedersachsen"}},{"name":"Am alten Kirchweg","postalCode":"26892","locality":"Dörpen","municipality":{"key":"03454008","name":"Dörpen","type":"Kreisangehörige_Gemeinde"},"district":{"key":"03454","name":"Emsland","type":"Landkreis"},"federalState":{"key":"03","name":"Niedersachsen"}},{"name":"Am Dählenschloot","postalCode":"26892","locality":"Dörpen","municipality":{"key":"03454008","name":"Dörpen","type":"Kreisangehörige_Gemeinde"},"district":{"key":"03454","name":"Emsland","type":"Landkreis"},"federalState":{"key":"03","name":"Niedersachsen"}},{"name":"Am Dorfteich","postalCode":"26892","locality":"Dörpen","municipality":{"key":"03454008","name":"Dörpen","type":"Kreisangehörige_Gemeinde"},"district":{"key":"03454","name":"Emsland","type":"Landkreis"},"federalState":{"key":"03","name":"Niedersachsen"}},{"name":"Am Erdbeerfeld","postalCode":"26892","locality":"Dörpen","municipality":{"key":"03454008","name":"Dörpen","type":"Kreisangehörige_Gemeinde"},"district":{"key":"03454","name":"Emsland","type":"Landkreis"},"federalState":{"key":"03","name":"Niedersachsen"}},{"name":"Am Erlenbruch","postalCode":"26892","locality":"Dörpen","municipality":{"key":"03454008","name":"Dörpen","type":"Kreisangehörige_Gemeinde"},"district":{"key":"03454","name":"Emsland","type":"Landkreis"},"federalState":{"key":"03","name":"Niedersachsen"}},{"name":"Am Sportpark","postalCode":"26892","locality":"Dörpen","municipality":{"key":"03454008","name":"Dörpen","type":"Kreisangehörige_Gemeinde"},"district":{"key":"03454","name":"Emsland","type":"Landkreis"},"federalState":{"key":"03","name":"Niedersachsen"}},{"name":"An der Düne","postalCode":"26892","locality":"Dörpen","municipality":{"key":"03454008","name":"Dörpen","type":"Kreisangehörige_Gemeinde"},"district":{"key":"03454","name":"Emsland","type":"Landkreis"},"federalState":{"key":"03","name":"Niedersachsen"}},{"name":"An der Emmauskirche","postalCode":"26892","locality":"Dörpen","municipality":{"key":"03454008","name":"Dörpen","type":"Kreisangehörige_Gemeinde"},"district":{"key":"03454","name":"Emsland","type":"Landkreis"},"federalState":{"key":"03","name":"Niedersachsen"}},{"name":"Astrid-Lindgren-Str.","postalCode":"26892","locality":"Dörpen","municipality":{"key":"03454008","name":"Dörpen","type":"Kreisangehörige_Gemeinde"},"district":{"key":"03454","name":"Emsland","type":"Landkreis"},"federalState":{"key":"03","name":"Niedersachsen"}},{"name":"Auf dem Sand","postalCode":"26892","locality":"Dörpen","municipality":{"key":"03454008","name":"Dörpen","type":"Kreisangehörige_Gemeinde"},"district":{"key":"03454","name":"Emsland","type":"Landkreis"},"federalState":{"key":"03","name":"Niedersachsen"}},{"name":"Bachstr.","postalCode":"26892","locality":"Dörpen","municipality":{"key":"03454008","name":"Dörpen","type":"Kreisangehörige_Gemeinde"},"district":{"key":"03454","name":"Emsland","type":"Landkreis"},"federalState":{"key":"03","name":"Niedersachsen"}},{"name":"Bahnhofstr.","postalCode":"26892","locality":"Dörpen","municipality":{"key":"03454008","name":"Dörpen","type":"Kreisangehörige_Gemeinde"},"district":{"key":"03454","name":"Emsland","type":"Landkreis"},"federalState":{"key":"03","name":"Niedersachsen"}},{"name":"Bärkenkamp","postalCode":"26892","locality":"Dörpen","municipality":{"key":"03454008","name":"Dörpen","type":"Kreisangehörige_Gemeinde"},"district":{"key":"03454","name":"Emsland","type":"Landkreis"},"federalState":{"key":"03","name":"Niedersachsen"}},{"name":"Bergstr.","postalCode":"26892","locality":"Dörpen","municipality":{"key":"03454008","name":"Dörpen","type":"Kreisangehörige_Gemeinde"},"district":{"key":"03454","name":"Emsland","type":"Landkreis"},"federalState":{"key":"03","name":"Niedersachsen"}},{"name":"Birkenweg","postalCode":"26892","locality":"Dörpen","municipality":{"key":"03454008","name":"Dörpen","type":"Kreisangehörige_Gemeinde"},"district":{"key":"03454","name":"Emsland","type":"Landkreis"},"federalState":{"key":"03","name":"Niedersachsen"}},{"name":"Bruno-Hengelbrock-Str.","postalCode":"26892","locality":"Dörpen","municipality":{"key":"03454008","name":"Dörpen","type":"Kreisangehörige_Gemeinde"},"district":{"key":"03454","name":"Emsland","type":"Landkreis"},"federalState":{"key":"03","name":"Niedersachsen"}},{"name":"Bundesstr.","postalCode":"26892","locality":"Dörpen","municipality":{"key":"03454008","name":"Dörpen","type":"Kreisangehörige_Gemeinde"},"district":{"key":"03454","name":"Emsland","type":"Landkreis"},"federalState":{"key":"03","name":"Niedersachsen"}},{"name":"Bürgermeister-Busemann-Str.","postalCode":"26892","locality":"Dörpen","municipality":{"key":"03454008","name":"Dörpen","type":"Kreisangehörige_Gemeinde"},"district":{"key":"03454","name":"Emsland","type":"Landkreis"},"federalState":{"key":"03","name":"Niedersachsen"}},{"name":"Bürgerstr.","postalCode":"26892","locality":"Dörpen","municipality":{"key":"03454008","name":"Dörpen","type":"Kreisangehörige_Gemeinde"},"district":{"key":"03454","name":"Emsland","type":"Landkreis"},"federalState":{"key":"03","name":"Niedersachsen"}},{"name":"Burgstr.","postalCode":"26892","locality":"Dörpen","municipality":{"key":"03454008","name":"Dörpen","type":"Kreisangehörige_Gemeinde"},"district":{"key":"03454","name":"Emsland","type":"Landkreis"},"federalState":{"key":"03","name":"Niedersachsen"}},{"name":"Dechant-Kleene-Str.","postalCode":"26892","locality":"Dörpen","municipality":{"key":"03454008","name":"Dörpen","type":"Kreisangehörige_Gemeinde"},"district":{"key":"03454","name":"Emsland","type":"Landkreis"},"federalState":{"key":"03","name":"Niedersachsen"}},{"name":"Dobronstr.","postalCode":"26892","locality":"Dörpen","municipality":{"key":"03454008","name":"Dörpen","type":"Kreisangehörige_Gemeinde"},"district":{"key":"03454","name":"Emsland","type":"Landkreis"},"federalState":{"key":"03","name":"Niedersachsen"}},{"name":"Dorenkamp","postalCode":"26892","locality":"Dörpen","municipality":{"key":"03454008","name":"Dörpen","type":"Kreisangehörige_Gemeinde"},"district":{"key":"03454","name":"Emsland","type":"Landkreis"},"federalState":{"key":"03","name":"Niedersachsen"}},{"name":"Dr.-Augustin-Str.","postalCode":"26892","locality":"Dörpen","municipality":{"key":"03454008","name":"Dörpen","type":"Kreisangehörige_Gemeinde"},"district":{"key":"03454","name":"Emsland","type":"Landkreis"},"federalState":{"key":"03","name":"Niedersachsen"}},{"name":"Eckesbergstr.","postalCode":"26892","locality":"Dörpen","municipality":{"key":"03454008","name":"Dörpen","type":"Kreisangehörige_Gemeinde"},"district":{"key":"03454","name":"Emsland","type":"Landkreis"},"federalState":{"key":"03","name":"Niedersachsen"}},{"name":"Eichenstr.","postalCode":"26892","locality":"Dörpen","municipality":{"key":"03454008","name":"Dörpen","type":"Kreisangehörige_Gemeinde"},"district":{"key":"03454","name":"Emsland","type":"Landkreis"},"federalState":{"key":"03","name":"Niedersachsen"}},{"name":"Fasanenstr.","postalCode":"26892","locality":"Dörpen","municipality":{"key":"03454008","name":"Dörpen","type":"Kreisangehörige_Gemeinde"},"district":{"key":"03454","name":"Emsland","type":"Landkreis"},"federalState":{"key":"03","name":"Niedersachsen"}},{"name":"Feldstr.","postalCode":"26892","locality":"Dörpen","municipality":{"key":"03454008","name":"Dörpen","type":"Kreisangehörige_Gemeinde"},"district":{"key":"03454","name":"Emsland","type":"Landkreis"},"federalState":{"key":"03","name":"Niedersachsen"}},{"name":"Finkenstr.","postalCode":"26892","locality":"Dörpen","municipality":{"key":"03454008","name":"Dörpen","type":"Kreisangehörige_Gemeinde"},"district":{"key":"03454","name":"Emsland","type":"Landkreis"},"federalState":{"key":"03","name":"Niedersachsen"}},{"name":"Forst-Arenberg-Str.","postalCode":"26892","locality":"Dörpen","municipality":{"key":"03454008","name":"Dörpen","type":"Kreisangehörige_Gemeinde"},"district":{"key":"03454","name":"Emsland","type":"Landkreis"},"federalState":{"key":"03","name":"Niedersachsen"}},{"name":"Frericksweg","postalCode":"26892","locality":"Dörpen","municipality":{"key":"03454008","name":"Dörpen","type":"Kreisangehörige_Gemeinde"},"district":{"key":"03454","name":"Emsland","type":"Landkreis"},"federalState":{"key":"03","name":"Niedersachsen"}},{"name":"Friedhofstr.","postalCode":"26892","locality":"Dörpen","municipality":{"key":"03454008","name":"Dörpen","type":"Kreisangehörige_Gemeinde"},"district":{"key":"03454","name":"Emsland","type":"Landkreis"},"federalState":{"key":"03","name":"Niedersachsen"}},{"name":"Gartenstr.","postalCode":"26892","locality":"Dörpen","municipality":{"key":"03454008","name":"Dörpen","type":"Kreisangehörige_Gemeinde"},"district":{"key":"03454","name":"Emsland","type":"Landkreis"},"federalState":{"key":"03","name":"Niedersachsen"}},{"name":"Gewerbegebiet Kämpe","postalCode":"26892","locality":"Dörpen","municipality":{"key":"03454008","name":"Dörpen","type":"Kreisangehörige_Gemeinde"},"district":{"key":"03454","name":"Emsland","type":"Landkreis"},"federalState":{"key":"03","name":"Niedersachsen"}},{"name":"Gewerbegebiet Nord","postalCode":"26892","locality":"Dörpen","municipality":{"key":"03454008","name":"Dörpen","type":"Kreisangehörige_Gemeinde"},"district":{"key":"03454","name":"Emsland","type":"Landkreis"},"federalState":{"key":"03","name":"Niedersachsen"}},{"name":"Gewerbegebiet Süd","postalCode":"26892","locality":"Dörpen","municipality":{"key":"03454008","name":"Dörpen","type":"Kreisangehörige_Gemeinde"},"district":{"key":"03454","name":"Emsland","type":"Landkreis"},"federalState":{"key":"03","name":"Niedersachsen"}},{"name":"Goethestr.","postalCode":"26892","locality":"Dörpen","municipality":{"key":"03454008","name":"Dörpen","type":"Kreisangehörige_Gemeinde"},"district":{"key":"03454","name":"Emsland","type":"Landkreis"},"federalState":{"key":"03","name":"Niedersachsen"}},{"name":"Haar","postalCode":"26892","locality":"Dörpen","municipality":{"key":"03454008","name":"Dörpen","type":"Kreisangehörige_Gemeinde"},"district":{"key":"03454","name":"Emsland","type":"Landkreis"},"federalState":{"key":"03","name":"Niedersachsen"}},{"name":"Händelstr.","postalCode":"26892","locality":"Dörpen","municipality":{"key":"03454008","name":"Dörpen","type":"Kreisangehörige_Gemeinde"},"district":{"key":"03454","name":"Emsland","type":"Landkreis"},"federalState":{"key":"03","name":"Niedersachsen"}},{"name":"Hauptstr.","postalCode":"26892","locality":"Dörpen","municipality":{"key":"03454008","name":"Dörpen","type":"Kreisangehörige_Gemeinde"},"district":{"key":"03454","name":"Emsland","type":"Landkreis"},"federalState":{"key":"03","name":"Niedersachsen"}},{"name":"Heeder Str.","postalCode":"26892","locality":"Dörpen","municipality":{"key":"03454008","name":"Dörpen","type":"Kreisangehörige_Gemeinde"},"district":{"key":"03454","name":"Emsland","type":"Landkreis"},"federalState":{"key":"03","name":"Niedersachsen"}},{"name":"Heideweg","postalCode":"26892","locality":"Dörpen","municipality":{"key":"03454008","name":"Dörpen","type":"Kreisangehörige_Gemeinde"},"district":{"key":"03454","name":"Emsland","type":"Landkreis"},"federalState":{"key":"03","name":"Niedersachsen"}},{"name":"Hermann-Schmitz-Str.","postalCode":"26892","locality":"Dörpen","municipality":{"key":"03454008","name":"Dörpen","type":"Kreisangehörige_Gemeinde"},"district":{"key":"03454","name":"Emsland","type":"Landkreis"},"federalState":{"key":"03","name":"Niedersachsen"}},{"name":"Hofstr.","postalCode":"26892","locality":"Dörpen","municipality":{"key":"03454008","name":"Dörpen","type":"Kreisangehörige_Gemeinde"},"district":{"key":"03454","name":"Emsland","type":"Landkreis"},"federalState":{"key":"03","name":"Niedersachsen"}},{"name":"Hoge Norde","postalCode":"26892","locality":"Dörpen","municipality":{"key":"03454008","name":"Dörpen","type":"Kreisangehörige_Gemeinde"},"district":{"key":"03454","name":"Emsland","type":"Landkreis"},"federalState":{"key":"03","name":"Niedersachsen"}},{"name":"Hoher Esch","postalCode":"26892","locality":"Dörpen","municipality":{"key":"03454008","name":"Dörpen","type":"Kreisangehörige_Gemeinde"},"district":{"key":"03454","name":"Emsland","type":"Landkreis"},"federalState":{"key":"03","name":"Niedersachsen"}},{"name":"Hölderlinstr.","postalCode":"26892","locality":"Dörpen","municipality":{"key":"03454008","name":"Dörpen","type":"Kreisangehörige_Gemeinde"},"district":{"key":"03454","name":"Emsland","type":"Landkreis"},"federalState":{"key":"03","name":"Niedersachsen"}},{"name":"Im Nordesch","postalCode":"26892","locality":"Dörpen","municipality":{"key":"03454008","name":"Dörpen","type":"Kreisangehörige_Gemeinde"},"district":{"key":"03454","name":"Emsland","type":"Landkreis"},"federalState":{"key":"03","name":"Niedersachsen"}},{"name":"Industriestr.","postalCode":"26892","locality":"Dörpen","municipality":{"key":"03454008","name":"Dörpen","type":"Kreisangehörige_Gemeinde"},"district":{"key":"03454","name":"Emsland","type":"Landkreis"},"federalState":{"key":"03","name":"Niedersachsen"}},{"name":"Industriestr. Ost","postalCode":"26892","locality":"Dörpen","municipality":{"key":"03454008","name":"Dörpen","type":"Kreisangehörige_Gemeinde"},"district":{"key":"03454","name":"Emsland","type":"Landkreis"},"federalState":{"key":"03","name":"Niedersachsen"}},{"name":"Innenhof","postalCode":"26892","locality":"Dörpen","municipality":{"key":"03454008","name":"Dörpen","type":"Kreisangehörige_Gemeinde"},"district":{"key":"03454","name":"Emsland","type":"Landkreis"},"federalState":{"key":"03","name":"Niedersachsen"}},{"name":"Johannesstr.","postalCode":"26892","locality":"Dörpen","municipality":{"key":"03454008","name":"Dörpen","type":"Kreisangehörige_Gemeinde"},"district":{"key":"03454","name":"Emsland","type":"Landkreis"},"federalState":{"key":"03","name":"Niedersachsen"}},{"name":"Josefstr.","postalCode":"26892","locality":"Dörpen","municipality":{"key":"03454008","name":"Dörpen","type":"Kreisangehörige_Gemeinde"},"district":{"key":"03454","name":"Emsland","type":"Landkreis"},"federalState":{"key":"03","name":"Niedersachsen"}},{"name":"Kampweg","postalCode":"26892","locality":"Dörpen","municipality":{"key":"03454008","name":"Dörpen","type":"Kreisangehörige_Gemeinde"},"district":{"key":"03454","name":"Emsland","type":"Landkreis"},"federalState":{"key":"03","name":"Niedersachsen"}},{"name":"Kiefernweg","postalCode":"26892","locality":"Dörpen","municipality":{"key":"03454008","name":"Dörpen","type":"Kreisangehörige_Gemeinde"},"district":{"key":"03454","name":"Emsland","type":"Landkreis"},"federalState":{"key":"03","name":"Niedersachsen"}},{"name":"Kirchstr.","postalCode":"26892","locality":"Dörpen","municipality":{"key":"03454008","name":"Dörpen","type":"Kreisangehörige_Gemeinde"},"district":{"key":"03454","name":"Emsland","type":"Landkreis"},"federalState":{"key":"03","name":"Niedersachsen"}},{"name":"Kleeweg","postalCode":"26892","locality":"Dörpen","municipality":{"key":"03454008","name":"Dörpen","type":"Kreisangehörige_Gemeinde"},"district":{"key":"03454","name":"Emsland","type":"Landkreis"},"federalState":{"key":"03","name":"Niedersachsen"}},{"name":"Kleine Str.","postalCode":"26892","locality":"Dörpen","municipality":{"key":"03454008","name":"Dörpen","type":"Kreisangehörige_Gemeinde"},"district":{"key":"03454","name":"Emsland","type":"Landkreis"},"federalState":{"key":"03","name":"Niedersachsen"}},{"name":"Kleiststr.","postalCode":"26892","locality":"Dörpen","municipality":{"key":"03454008","name":"Dörpen","type":"Kreisangehörige_Gemeinde"},"district":{"key":"03454","name":"Emsland","type":"Landkreis"},"federalState":{"key":"03","name":"Niedersachsen"}},{"name":"Kolpingplatz","postalCode":"26892","locality":"Dörpen","municipality":{"key":"03454008","name":"Dörpen","type":"Kreisangehörige_Gemeinde"},"district":{"key":"03454","name":"Emsland","type":"Landkreis"},"federalState":{"key":"03","name":"Niedersachsen"}},{"name":"Kotte Berge","postalCode":"26892","locality":"Dörpen","municipality":{"key":"03454008","name":"Dörpen","type":"Kreisangehörige_Gemeinde"},"district":{"key":"03454","name":"Emsland","type":"Landkreis"},"federalState":{"key":"03","name":"Niedersachsen"}},{"name":"Lange Berge","postalCode":"26892","locality":"Dörpen","municipality":{"key":"03454008","name":"Dörpen","type":"Kreisangehörige_Gemeinde"},"district":{"key":"03454","name":"Emsland","type":"Landkreis"},"federalState":{"key":"03","name":"Niedersachsen"}},{"name":"Lange Str.","postalCode":"26892","locality":"Dörpen","municipality":{"key":"03454008","name":"Dörpen","type":"Kreisangehörige_Gemeinde"},"district":{"key":"03454","name":"Emsland","type":"Landkreis"},"federalState":{"key":"03","name":"Niedersachsen"}},{"name":"Lehmstücke","postalCode":"26892","locality":"Dörpen","municipality":{"key":"03454008","name":"Dörpen","type":"Kreisangehörige_Gemeinde"},"district":{"key":"03454","name":"Emsland","type":"Landkreis"},"federalState":{"key":"03","name":"Niedersachsen"}},{"name":"Lessingstr.","postalCode":"26892","locality":"Dörpen","municipality":{"key":"03454008","name":"Dörpen","type":"Kreisangehörige_Gemeinde"},"district":{"key":"03454","name":"Emsland","type":"Landkreis"},"federalState":{"key":"03","name":"Niedersachsen"}},{"name":"Lilienstr.","postalCode":"26892","locality":"Dörpen","municipality":{"key":"03454008","name":"Dörpen","type":"Kreisangehörige_Gemeinde"},"district":{"key":"03454","name":"Emsland","type":"Landkreis"},"federalState":{"key":"03","name":"Niedersachsen"}},{"name":"Lindenstr.","postalCode":"26892","locality":"Dörpen","municipality":{"key":"03454008","name":"Dörpen","type":"Kreisangehörige_Gemeinde"},"district":{"key":"03454","name":"Emsland","type":"Landkreis"},"federalState":{"key":"03","name":"Niedersachsen"}},{"name":"Lönsstr.","postalCode":"26892","locality":"Dörpen","municipality":{"key":"03454008","name":"Dörpen","type":"Kreisangehörige_Gemeinde"},"district":{"key":"03454","name":"Emsland","type":"Landkreis"},"federalState":{"key":"03","name":"Niedersachsen"}},{"name":"Marienstr.","postalCode":"26892","locality":"Dörpen","municipality":{"key":"03454008","name":"Dörpen","type":"Kreisangehörige_Gemeinde"},"district":{"key":"03454","name":"Emsland","type":"Landkreis"},"federalState":{"key":"03","name":"Niedersachsen"}},{"name":"Marktstr.","postalCode":"26892","locality":"Dörpen","municipality":{"key":"03454008","name":"Dörpen","type":"Kreisangehörige_Gemeinde"},"district":{"key":"03454","name":"Emsland","type":"Landkreis"},"federalState":{"key":"03","name":"Niedersachsen"}},{"name":"Meisenstr.","postalCode":"26892","locality":"Dörpen","municipality":{"key":"03454008","name":"Dörpen","type":"Kreisangehörige_Gemeinde"},"district":{"key":"03454","name":"Emsland","type":"Landkreis"},"federalState":{"key":"03","name":"Niedersachsen"}},{"name":"Möhlentogten","postalCode":"26892","locality":"Dörpen","municipality":{"key":"03454008","name":"Dörpen","type":"Kreisangehörige_Gemeinde"},"district":{"key":"03454","name":"Emsland","type":"Landkreis"},"federalState":{"key":"03","name":"Niedersachsen"}},{"name":"Moosweg","postalCode":"26892","locality":"Dörpen","municipality":{"key":"03454008","name":"Dörpen","type":"Kreisangehörige_Gemeinde"},"district":{"key":"03454","name":"Emsland","type":"Landkreis"},"federalState":{"key":"03","name":"Niedersachsen"}},{"name":"Mörikestr.","postalCode":"26892","locality":"Dörpen","municipality":{"key":"03454008","name":"Dörpen","type":"Kreisangehörige_Gemeinde"},"district":{"key":"03454","name":"Emsland","type":"Landkreis"},"federalState":{"key":"03","name":"Niedersachsen"}},{"name":"Mühlenstr.","postalCode":"26892","locality":"Dörpen","municipality":{"key":"03454008","name":"Dörpen","type":"Kreisangehörige_Gemeinde"},"district":{"key":"03454","name":"Emsland","type":"Landkreis"},"federalState":{"key":"03","name":"Niedersachsen"}},{"name":"Neudörpen","postalCode":"26892","locality":"Dörpen","municipality":{"key":"03454008","name":"Dörpen","type":"Kreisangehörige_Gemeinde"},"district":{"key":"03454","name":"Emsland","type":"Landkreis"},"federalState":{"key":"03","name":"Niedersachsen"}},{"name":"Neudörpener Str.","postalCode":"26892","locality":"Dörpen","municipality":{"key":"03454008","name":"Dörpen","type":"Kreisangehörige_Gemeinde"},"district":{"key":"03454","name":"Emsland","type":"Landkreis"},"federalState":{"key":"03","name":"Niedersachsen"}},{"name":"Nordeschstr.","postalCode":"26892","locality":"Dörpen","municipality":{"key":"03454008","name":"Dörpen","type":"Kreisangehörige_Gemeinde"},"district":{"key":"03454","name":"Emsland","type":"Landkreis"},"federalState":{"key":"03","name":"Niedersachsen"}},{"name":"Nordestr.","postalCode":"26892","locality":"Dörpen","municipality":{"key":"03454008","name":"Dörpen","type":"Kreisangehörige_Gemeinde"},"district":{"key":"03454","name":"Emsland","type":"Landkreis"},"federalState":{"key":"03","name":"Niedersachsen"}},{"name":"Nordstr.","postalCode":"26892","locality":"Dörpen","municipality":{"key":"03454008","name":"Dörpen","type":"Kreisangehörige_Gemeinde"},"district":{"key":"03454","name":"Emsland","type":"Landkreis"},"federalState":{"key":"03","name":"Niedersachsen"}},{"name":"Nord-Süd-Str.","postalCode":"26892","locality":"Dörpen","municipality":{"key":"03454008","name":"Dörpen","type":"Kreisangehörige_Gemeinde"},"district":{"key":"03454","name":"Emsland","type":"Landkreis"},"federalState":{"key":"03","name":"Niedersachsen"}},{"name":"Osteck","postalCode":"26892","locality":"Dörpen","municipality":{"key":"03454008","name":"Dörpen","type":"Kreisangehörige_Gemeinde"},"district":{"key":"03454","name":"Emsland","type":"Landkreis"},"federalState":{"key":"03","name":"Niedersachsen"}},{"name":"Oststr.","postalCode":"26892","locality":"Dörpen","municipality":{"key":"03454008","name":"Dörpen","type":"Kreisangehörige_Gemeinde"},"district":{"key":"03454","name":"Emsland","type":"Landkreis"},"federalState":{"key":"03","name":"Niedersachsen"}},{"name":"Otto-Schlütken-Str.","postalCode":"26892","locality":"Dörpen","municipality":{"key":"03454008","name":"Dörpen","type":"Kreisangehörige_Gemeinde"},"district":{"key":"03454","name":"Emsland","type":"Landkreis"},"federalState":{"key":"03","name":"Niedersachsen"}},{"name":"Rägertstr.","postalCode":"26892","locality":"Dörpen","municipality":{"key":"03454008","name":"Dörpen","type":"Kreisangehörige_Gemeinde"},"district":{"key":"03454","name":"Emsland","type":"Landkreis"},"federalState":{"key":"03","name":"Niedersachsen"}},{"name":"Rahenweg","postalCode":"26892","locality":"Dörpen","municipality":{"key":"03454008","name":"Dörpen","type":"Kreisangehörige_Gemeinde"},"district":{"key":"03454","name":"Emsland","type":"Landkreis"},"federalState":{"key":"03","name":"Niedersachsen"}},{"name":"Rebhuhnstr.","postalCode":"26892","locality":"Dörpen","municipality":{"key":"03454008","name":"Dörpen","type":"Kreisangehörige_Gemeinde"},"district":{"key":"03454","name":"Emsland","type":"Landkreis"},"federalState":{"key":"03","name":"Niedersachsen"}},{"name":"Ringstr.","postalCode":"26892","locality":"Dörpen","municipality":{"key":"03454008","name":"Dörpen","type":"Kreisangehörige_Gemeinde"},"district":{"key":"03454","name":"Emsland","type":"Landkreis"},"federalState":{"key":"03","name":"Niedersachsen"}},{"name":"Rosenstr.","postalCode":"26892","locality":"Dörpen","municipality":{"key":"03454008","name":"Dörpen","type":"Kreisangehörige_Gemeinde"},"district":{"key":"03454","name":"Emsland","type":"Landkreis"},"federalState":{"key":"03","name":"Niedersachsen"}},{"name":"Schillerstr.","postalCode":"26892","locality":"Dörpen","municipality":{"key":"03454008","name":"Dörpen","type":"Kreisangehörige_Gemeinde"},"district":{"key":"03454","name":"Emsland","type":"Landkreis"},"federalState":{"key":"03","name":"Niedersachsen"}},{"name":"Schleuse","postalCode":"26892","locality":"Dörpen","municipality":{"key":"03454008","name":"Dörpen","type":"Kreisangehörige_Gemeinde"},"district":{"key":"03454","name":"Emsland","type":"Landkreis"},"federalState":{"key":"03","name":"Niedersachsen"}},{"name":"Schulstr.","postalCode":"26892","locality":"Dörpen","municipality":{"key":"03454008","name":"Dörpen","type":"Kreisangehörige_Gemeinde"},"district":{"key":"03454","name":"Emsland","type":"Landkreis"},"federalState":{"key":"03","name":"Niedersachsen"}},{"name":"Schützenstr.","postalCode":"26892","locality":"Dörpen","municipality":{"key":"03454008","name":"Dörpen","type":"Kreisangehörige_Gemeinde"},"district":{"key":"03454","name":"Emsland","type":"Landkreis"},"federalState":{"key":"03","name":"Niedersachsen"}},{"name":"Schwester-Talida-Platz","postalCode":"26892","locality":"Dörpen","municipality":{"key":"03454008","name":"Dörpen","type":"Kreisangehörige_Gemeinde"},"district":{"key":"03454","name":"Emsland","type":"Landkreis"},"federalState":{"key":"03","name":"Niedersachsen"}},{"name":"Siedlerweg","postalCode":"26892","locality":"Dörpen","municipality":{"key":"03454008","name":"Dörpen","type":"Kreisangehörige_Gemeinde"},"district":{"key":"03454","name":"Emsland","type":"Landkreis"},"federalState":{"key":"03","name":"Niedersachsen"}},{"name":"Siemensstr.","postalCode":"26892","locality":"Dörpen","municipality":{"key":"03454008","name":"Dörpen","type":"Kreisangehörige_Gemeinde"},"district":{"key":"03454","name":"Emsland","type":"Landkreis"},"federalState":{"key":"03","name":"Niedersachsen"}},{"name":"Südring","postalCode":"26892","locality":"Dörpen","municipality":{"key":"03454008","name":"Dörpen","type":"Kreisangehörige_Gemeinde"},"district":{"key":"03454","name":"Emsland","type":"Landkreis"},"federalState":{"key":"03","name":"Niedersachsen"}},{"name":"Südstr.","postalCode":"26892","locality":"Dörpen","municipality":{"key":"03454008","name":"Dörpen","type":"Kreisangehörige_Gemeinde"},"district":{"key":"03454","name":"Emsland","type":"Landkreis"},"federalState":{"key":"03","name":"Niedersachsen"}},{"name":"Telemannstr.","postalCode":"26892","locality":"Dörpen","municipality":{"key":"03454008","name":"Dörpen","type":"Kreisangehörige_Gemeinde"},"district":{"key":"03454","name":"Emsland","type":"Landkreis"},"federalState":{"key":"03","name":"Niedersachsen"}},{"name":"Uhlandstr.","postalCode":"26892","locality":"Dörpen","municipality":{"key":"03454008","name":"Dörpen","type":"Kreisangehörige_Gemeinde"},"district":{"key":"03454","name":"Emsland","type":"Landkreis"},"federalState":{"key":"03","name":"Niedersachsen"}},{"name":"Veeneweg","postalCode":"26892","locality":"Dörpen","municipality":{"key":"03454008","name":"Dörpen","type":"Kreisangehörige_Gemeinde"},"district":{"key":"03454","name":"Emsland","type":"Landkreis"},"federalState":{"key":"03","name":"Niedersachsen"}},{"name":"Vellandstr.","postalCode":"26892","locality":"Dörpen","municipality":{"key":"03454008","name":"Dörpen","type":"Kreisangehörige_Gemeinde"},"district":{"key":"03454","name":"Emsland","type":"Landkreis"},"federalState":{"key":"03","name":"Niedersachsen"}},{"name":"Vitusstr.","postalCode":"26892","locality":"Dörpen","municipality":{"key":"03454008","name":"Dörpen","type":"Kreisangehörige_Gemeinde"},"district":{"key":"03454","name":"Emsland","type":"Landkreis"},"federalState":{"key":"03","name":"Niedersachsen"}},{"name":"Vor dem Norde","postalCode":"26892","locality":"Dörpen","municipality":{"key":"03454008","name":"Dörpen","type":"Kreisangehörige_Gemeinde"},"district":{"key":"03454","name":"Emsland","type":"Landkreis"},"federalState":{"key":"03","name":"Niedersachsen"}},{"name":"Waldstr.","postalCode":"26892","locality":"Dörpen","municipality":{"key":"03454008","name":"Dörpen","type":"Kreisangehörige_Gemeinde"},"district":{"key":"03454","name":"Emsland","type":"Landkreis"},"federalState":{"key":"03","name":"Niedersachsen"}},{"name":"Wendebeckenstr.","postalCode":"26892","locality":"Dörpen","municipality":{"key":"03454008","name":"Dörpen","type":"Kreisangehörige_Gemeinde"},"district":{"key":"03454","name":"Emsland","type":"Landkreis"},"federalState":{"key":"03","name":"Niedersachsen"}},{"name":"Weststr.","postalCode":"26892","locality":"Dörpen","municipality":{"key":"03454008","name":"Dörpen","type":"Kreisangehörige_Gemeinde"},"district":{"key":"03454","name":"Emsland","type":"Landkreis"},"federalState":{"key":"03","name":"Niedersachsen"}},{"name":"Wiesenblick","postalCode":"26892","locality":"Dörpen","municipality":{"key":"03454008","name":"Dörpen","type":"Kreisangehörige_Gemeinde"},"district":{"key":"03454","name":"Emsland","type":"Landkreis"},"federalState":{"key":"03","name":"Niedersachsen"}},{"name":"Windthorststr.","postalCode":"26892","locality":"Dörpen","municipality":{"key":"03454008","name":"Dörpen","type":"Kreisangehörige_Gemeinde"},"district":{"key":"03454","name":"Emsland","type":"Landkreis"},"federalState":{"key":"03","name":"Niedersachsen"}},{"name":"Wittefehnstr.","postalCode":"26892","locality":"Dörpen","municipality":{"key":"03454008","name":"Dörpen","type":"Kreisangehörige_Gemeinde"},"district":{"key":"03454","name":"Emsland","type":"Landkreis"},"federalState":{"key":"03","name":"Niedersachsen"}},{"name":"Zum Hafen","postalCode":"26892","locality":"Dörpen","municipality":{"key":"03454008","name":"Dörpen","type":"Kreisangehörige_Gemeinde"},"district":{"key":"03454","name":"Emsland","type":"Landkreis"},"federalState":{"key":"03","name":"Niedersachsen"}},{"name":"Zum Wendebecken","postalCode":"26892","locality":"Dörpen","municipality":{"key":"03454008","name":"Dörpen","type":"Kreisangehörige_Gemeinde"},"district":{"key":"03454","name":"Emsland","type":"Landkreis"},"federalState":{"key":"03","name":"Niedersachsen"}},{"name":"Zur Kämpe","postalCode":"26892","locality":"Dörpen","municipality":{"key":"03454008","name":"Dörpen","type":"Kreisangehörige_Gemeinde"},"district":{"key":"03454","name":"Emsland","type":"Landkreis"},"federalState":{"key":"03","name":"Niedersachsen"}},]