[{"key":"10106981","name":"Chemin de Bellevue","postalCode":"1073","locality":"Savigny","commune":{"key":"5611","name":"Savigny","shortName":"Savigny"},"district":{"key":"2226","name":"District de Lavaux-Oron"},"canton":{"key":"22","code":"VD","name":"Vaud"},"status":"Real"},{"key":"10035486","name":"Chemin de Geffry","postalCode":"1073","locality":"Savigny","commune":{"key":"5611","name":"Savigny","shortName":"Savigny"},"district":{"key":"2226","name":"District de Lavaux-Oron"},"canton":{"key":"22","code":"VD","name":"Vaud"},"status":"Real"},{"key":"10190722","name":"Chemin de Gremaudet","postalCode":"1073","locality":"Savigny","commune":{"key":"5611","name":"Savigny","shortName":"Savigny"},"district":{"key":"2226","name":"District de Lavaux-Oron"},"canton":{"key":"22","code":"VD","name":"Vaud"},"status":"Real"},{"key":"10102106","name":"Chemin de la Cabuse","postalCode":"1073","locality":"Savigny","commune":{"key":"5611","name":"Savigny","shortName":"Savigny"},"district":{"key":"2226","name":"District de Lavaux-Oron"},"canton":{"key":"22","code":"VD","name":"Vaud"},"status":"Real"},{"key":"10073710","name":"Chemin de la Clef","postalCode":"1073","locality":"Savigny","commune":{"key":"5611","name":"Savigny","shortName":"Savigny"},"district":{"key":"2226","name":"District de Lavaux-Oron"},"canton":{"key":"22","code":"VD","name":"Vaud"},"status":"Real"},{"key":"10037327","name":"Chemin de la Corne","postalCode":"1073","locality":"Savigny","commune":{"key":"5611","name":"Savigny","shortName":"Savigny"},"district":{"key":"2226","name":"District de Lavaux-Oron"},"canton":{"key":"22","code":"VD","name":"Vaud"},"status":"Real"},{"key":"10037328","name":"Chemin de la Daumuse","postalCode":"1073","locality":"Savigny","commune":{"key":"5611","name":"Savigny","shortName":"Savigny"},"district":{"key":"2226","name":"District de Lavaux-Oron"},"canton":{"key":"22","code":"VD","name":"Vaud"},"status":"Real"},{"key":"10102107","name":"Chemin de la Fontaine","postalCode":"1073","locality":"Savigny","commune":{"key":"5611","name":"Savigny","shortName":"Savigny"},"district":{"key":"2226","name":"District de Lavaux-Oron"},"canton":{"key":"22","code":"VD","name":"Vaud"},"status":"Real"},{"key":"10176852","name":"Chemin de la Fruitière","postalCode":"1073","locality":"Savigny","commune":{"key":"5611","name":"Savigny","shortName":"Savigny"},"district":{"key":"2226","name":"District de Lavaux-Oron"},"canton":{"key":"22","code":"VD","name":"Vaud"},"status":"Real"},{"key":"10037329","name":"Chemin de la Grangette","postalCode":"1073","locality":"Savigny","commune":{"key":"5611","name":"Savigny","shortName":"Savigny"},"district":{"key":"2226","name":"District de Lavaux-Oron"},"canton":{"key":"22","code":"VD","name":"Vaud"},"status":"Real"},{"key":"10073711","name":"Chemin de la Guéta","postalCode":"1073","locality":"Savigny","commune":{"key":"5611","name":"Savigny","shortName":"Savigny"},"district":{"key":"2226","name":"District de Lavaux-Oron"},"canton":{"key":"22","code":"VD","name":"Vaud"},"status":"Real"},{"key":"10102108","name":"Chemin de la Lionne","postalCode":"1073","locality":"Savigny","commune":{"key":"5611","name":"Savigny","shortName":"Savigny"},"district":{"key":"2226","name":"District de Lavaux-Oron"},"canton":{"key":"22","code":"VD","name":"Vaud"},"status":"Real"},{"key":"10037330","name":"Chemin de la Porat","postalCode":"1073","locality":"Savigny","commune":{"key":"5611","name":"Savigny","shortName":"Savigny"},"district":{"key":"2226","name":"District de Lavaux-Oron"},"canton":{"key":"22","code":"VD","name":"Vaud"},"status":"Real"},{"key":"10037331","name":"Chemin de la Sapinière","postalCode":"1073","locality":"Savigny","commune":{"key":"5611","name":"Savigny","shortName":"Savigny"},"district":{"key":"2226","name":"District de Lavaux-Oron"},"canton":{"key":"22","code":"VD","name":"Vaud"},"status":"Real"},{"key":"10102109","name":"Chemin de la Séchaude","postalCode":"1073","locality":"Savigny","commune":{"key":"5611","name":"Savigny","shortName":"Savigny"},"district":{"key":"2226","name":"District de Lavaux-Oron"},"canton":{"key":"22","code":"VD","name":"Vaud"},"status":"Real"},{"key":"10037333","name":"Chemin de la Tantérine","postalCode":"1073","locality":"Savigny","commune":{"key":"5611","name":"Savigny","shortName":"Savigny"},"district":{"key":"2226","name":"District de Lavaux-Oron"},"canton":{"key":"22","code":"VD","name":"Vaud"},"status":"Real"},{"key":"10102110","name":"Chemin de la Tornire","postalCode":"1073","locality":"Savigny","commune":{"key":"5611","name":"Savigny","shortName":"Savigny"},"district":{"key":"2226","name":"District de Lavaux-Oron"},"canton":{"key":"22","code":"VD","name":"Vaud"},"status":"Real"},{"key":"10102105","name":"Chemin de l'Aurore","postalCode":"1073","locality":"Savigny","commune":{"key":"5611","name":"Savigny","shortName":"Savigny"},"district":{"key":"2226","name":"District de Lavaux-Oron"},"canton":{"key":"22","code":"VD","name":"Vaud"},"status":"Real"},{"key":"10037334","name":"Chemin de la Verne","postalCode":"1073","locality":"Savigny","commune":{"key":"5611","name":"Savigny","shortName":"Savigny"},"district":{"key":"2226","name":"District de Lavaux-Oron"},"canton":{"key":"22","code":"VD","name":"Vaud"},"status":"Real"},{"key":"10131684","name":"Chemin de la Vuétaz","postalCode":"1073","locality":"Savigny","commune":{"key":"5611","name":"Savigny","shortName":"Savigny"},"district":{"key":"2226","name":"District de Lavaux-Oron"},"canton":{"key":"22","code":"VD","name":"Vaud"},"status":"Real"},{"key":"10155275","name":"Chemin de l'Eglise","postalCode":"1073","locality":"Savigny","commune":{"key":"5611","name":"Savigny","shortName":"Savigny"},"district":{"key":"2226","name":"District de Lavaux-Oron"},"canton":{"key":"22","code":"VD","name":"Vaud"},"status":"Real"},{"key":"10035488","name":"Chemin de l'Union","postalCode":"1073","locality":"Savigny","commune":{"key":"5611","name":"Savigny","shortName":"Savigny"},"district":{"key":"2226","name":"District de Lavaux-Oron"},"canton":{"key":"22","code":"VD","name":"Vaud"},"status":"Real"},{"key":"10107149","name":"Chemin de Pra Charbon","postalCode":"1073","locality":"Savigny","commune":{"key":"5611","name":"Savigny","shortName":"Savigny"},"district":{"key":"2226","name":"District de Lavaux-Oron"},"canton":{"key":"22","code":"VD","name":"Vaud"},"status":"Real"},{"key":"10037335","name":"Chemin des Charmilles","postalCode":"1073","locality":"Savigny","commune":{"key":"5611","name":"Savigny","shortName":"Savigny"},"district":{"key":"2226","name":"District de Lavaux-Oron"},"canton":{"key":"22","code":"VD","name":"Vaud"},"status":"Real"},{"key":"10116226","name":"Chemin des Colombettes","postalCode":"1073","locality":"Savigny","commune":{"key":"5611","name":"Savigny","shortName":"Savigny"},"district":{"key":"2226","name":"District de Lavaux-Oron"},"canton":{"key":"22","code":"VD","name":"Vaud"},"status":"Real"},{"key":"10035572","name":"Chemin des Gavardes","postalCode":"1073","locality":"Savigny","commune":{"key":"5611","name":"Savigny","shortName":"Savigny"},"district":{"key":"2226","name":"District de Lavaux-Oron"},"canton":{"key":"22","code":"VD","name":"Vaud"},"status":"Real"},{"key":"10102111","name":"Chemin des Girolles","postalCode":"1073","locality":"Savigny","commune":{"key":"5611","name":"Savigny","shortName":"Savigny"},"district":{"key":"2226","name":"District de Lavaux-Oron"},"canton":{"key":"22","code":"VD","name":"Vaud"},"status":"Real"},{"key":"10176853","name":"Chemin des Guilles","postalCode":"1073","locality":"Savigny","commune":{"key":"5611","name":"Savigny","shortName":"Savigny"},"district":{"key":"2226","name":"District de Lavaux-Oron"},"canton":{"key":"22","code":"VD","name":"Vaud"},"status":"Real"},{"key":"10035573","name":"Chemin des Humberts","postalCode":"1073","locality":"Savigny","commune":{"key":"5611","name":"Savigny","shortName":"Savigny"},"district":{"key":"2226","name":"District de Lavaux-Oron"},"canton":{"key":"22","code":"VD","name":"Vaud"},"status":"Real"},{"key":"10035574","name":"Chemin des Planches","postalCode":"1073","locality":"Savigny","commune":{"key":"5611","name":"Savigny","shortName":"Savigny"},"district":{"key":"2226","name":"District de Lavaux-Oron"},"canton":{"key":"22","code":"VD","name":"Vaud"},"status":"Real"},{"key":"10102113","name":"Chemin des Silènes","postalCode":"1073","locality":"Savigny","commune":{"key":"5611","name":"Savigny","shortName":"Savigny"},"district":{"key":"2226","name":"District de Lavaux-Oron"},"canton":{"key":"22","code":"VD","name":"Vaud"},"status":"Real"},{"key":"10035576","name":"Chemin du Bois de Nialin","postalCode":"1073","locality":"Savigny","commune":{"key":"5611","name":"Savigny","shortName":"Savigny"},"district":{"key":"2226","name":"District de Lavaux-Oron"},"canton":{"key":"22","code":"VD","name":"Vaud"},"status":"Real"},{"key":"10116794","name":"Chemin du Bossu","postalCode":"1073","locality":"Savigny","commune":{"key":"5611","name":"Savigny","shortName":"Savigny"},"district":{"key":"2226","name":"District de Lavaux-Oron"},"canton":{"key":"22","code":"VD","name":"Vaud"},"status":"Real"},{"key":"10188659","name":"Chemin du Casard","postalCode":"1073","locality":"Savigny","commune":{"key":"5611","name":"Savigny","shortName":"Savigny"},"district":{"key":"2226","name":"District de Lavaux-Oron"},"canton":{"key":"22","code":"VD","name":"Vaud"},"status":"Real"},{"key":"10190723","name":"Chemin du Crêt Rouge","postalCode":"1073","locality":"Savigny","commune":{"key":"5611","name":"Savigny","shortName":"Savigny"},"district":{"key":"2226","name":"District de Lavaux-Oron"},"canton":{"key":"22","code":"VD","name":"Vaud"},"status":"Real"},{"key":"10035577","name":"Chemin du Crêt Tornire","postalCode":"1073","locality":"Savigny","commune":{"key":"5611","name":"Savigny","shortName":"Savigny"},"district":{"key":"2226","name":"District de Lavaux-Oron"},"canton":{"key":"22","code":"VD","name":"Vaud"},"status":"Real"},{"key":"10035578","name":"Chemin du Grammont","postalCode":"1073","locality":"Savigny","commune":{"key":"5611","name":"Savigny","shortName":"Savigny"},"district":{"key":"2226","name":"District de Lavaux-Oron"},"canton":{"key":"22","code":"VD","name":"Vaud"},"status":"Real"},{"key":"10123472","name":"Chemin du Grand Clos","postalCode":"1073","locality":"Savigny","commune":{"key":"5611","name":"Savigny","shortName":"Savigny"},"district":{"key":"2226","name":"District de Lavaux-Oron"},"canton":{"key":"22","code":"VD","name":"Vaud"},"status":"Real"},{"key":"10107151","name":"Chemin du Lumignon","postalCode":"1073","locality":"Savigny","commune":{"key":"5611","name":"Savigny","shortName":"Savigny"},"district":{"key":"2226","name":"District de Lavaux-Oron"},"canton":{"key":"22","code":"VD","name":"Vaud"},"status":"Real"},{"key":"10035579","name":"Chemin du Pavillon","postalCode":"1073","locality":"Savigny","commune":{"key":"5611","name":"Savigny","shortName":"Savigny"},"district":{"key":"2226","name":"District de Lavaux-Oron"},"canton":{"key":"22","code":"VD","name":"Vaud"},"status":"Real"},{"key":"10176854","name":"Chemin du Pétozan","postalCode":"1073","locality":"Savigny","commune":{"key":"5611","name":"Savigny","shortName":"Savigny"},"district":{"key":"2226","name":"District de Lavaux-Oron"},"canton":{"key":"22","code":"VD","name":"Vaud"},"status":"Real"},{"key":"10048099","name":"Chemin du Presbytère","postalCode":"1073","locality":"Savigny","commune":{"key":"5611","name":"Savigny","shortName":"Savigny"},"district":{"key":"2226","name":"District de Lavaux-Oron"},"canton":{"key":"22","code":"VD","name":"Vaud"},"status":"Real"},{"key":"10102114","name":"Chemin du Publoz","postalCode":"1073","locality":"Savigny","commune":{"key":"5611","name":"Savigny","shortName":"Savigny"},"district":{"key":"2226","name":"District de Lavaux-Oron"},"canton":{"key":"22","code":"VD","name":"Vaud"},"status":"Real"},{"key":"10035580","name":"Chemin du Trait d'Union","postalCode":"1073","locality":"Savigny","commune":{"key":"5611","name":"Savigny","shortName":"Savigny"},"district":{"key":"2226","name":"District de Lavaux-Oron"},"canton":{"key":"22","code":"VD","name":"Vaud"},"status":"Real"},{"key":"10107363","name":"Chemin du Vieux Collège","postalCode":"1073","locality":"Savigny","commune":{"key":"5611","name":"Savigny","shortName":"Savigny"},"district":{"key":"2226","name":"District de Lavaux-Oron"},"canton":{"key":"22","code":"VD","name":"Vaud"},"status":"Real"},{"key":"10118457","name":"Chemin Pivet","postalCode":"1073","locality":"Savigny","commune":{"key":"5611","name":"Savigny","shortName":"Savigny"},"district":{"key":"2226","name":"District de Lavaux-Oron"},"canton":{"key":"22","code":"VD","name":"Vaud"},"status":"Real"},{"key":"10035487","name":"Chemin William","postalCode":"1073","locality":"Savigny","commune":{"key":"5611","name":"Savigny","shortName":"Savigny"},"district":{"key":"2226","name":"District de Lavaux-Oron"},"canton":{"key":"22","code":"VD","name":"Vaud"},"status":"Real"},{"key":"10130030","name":"Eden-Roc","postalCode":"1073","locality":"Savigny","commune":{"key":"5611","name":"Savigny","shortName":"Savigny"},"district":{"key":"2226","name":"District de Lavaux-Oron"},"canton":{"key":"22","code":"VD","name":"Vaud"},"status":"Real"},{"key":"10035581","name":"En Brit","postalCode":"1073","locality":"Savigny","commune":{"key":"5611","name":"Savigny","shortName":"Savigny"},"district":{"key":"2226","name":"District de Lavaux-Oron"},"canton":{"key":"22","code":"VD","name":"Vaud"},"status":"Real"},{"key":"10035582","name":"En Meguettaz","postalCode":"1073","locality":"Savigny","commune":{"key":"5611","name":"Savigny","shortName":"Savigny"},"district":{"key":"2226","name":"District de Lavaux-Oron"},"canton":{"key":"22","code":"VD","name":"Vaud"},"status":"Real"},{"key":"10073714","name":"En Métraude","postalCode":"1073","locality":"Savigny","commune":{"key":"5611","name":"Savigny","shortName":"Savigny"},"district":{"key":"2226","name":"District de Lavaux-Oron"},"canton":{"key":"22","code":"VD","name":"Vaud"},"status":"Real"},{"key":"10058854","name":"Ferme La Bonne Foire","postalCode":"1073","locality":"Savigny","commune":{"key":"5611","name":"Savigny","shortName":"Savigny"},"district":{"key":"2226","name":"District de Lavaux-Oron"},"canton":{"key":"22","code":"VD","name":"Vaud"},"status":"Real"},{"key":"10157505","name":"Ferme La Guettaz","postalCode":"1073","locality":"Savigny","commune":{"key":"5611","name":"Savigny","shortName":"Savigny"},"district":{"key":"2226","name":"District de Lavaux-Oron"},"canton":{"key":"22","code":"VD","name":"Vaud"},"status":"Real"},{"key":"10102115","name":"Ferme Le Crêt Rouge","postalCode":"1073","locality":"Savigny","commune":{"key":"5611","name":"Savigny","shortName":"Savigny"},"district":{"key":"2226","name":"District de Lavaux-Oron"},"canton":{"key":"22","code":"VD","name":"Vaud"},"status":"Real"},{"key":"10035583","name":"Ferme Le Creux","postalCode":"1073","locality":"Savigny","commune":{"key":"5611","name":"Savigny","shortName":"Savigny"},"district":{"key":"2226","name":"District de Lavaux-Oron"},"canton":{"key":"22","code":"VD","name":"Vaud"},"status":"Real"},{"key":"10059596","name":"Ferme Pra de Mure","postalCode":"1073","locality":"Savigny","commune":{"key":"5611","name":"Savigny","shortName":"Savigny"},"district":{"key":"2226","name":"District de Lavaux-Oron"},"canton":{"key":"22","code":"VD","name":"Vaud"},"status":"Real"},{"key":"10035584","name":"Les Mottes","postalCode":"1073","locality":"Savigny","commune":{"key":"5611","name":"Savigny","shortName":"Savigny"},"district":{"key":"2226","name":"District de Lavaux-Oron"},"canton":{"key":"22","code":"VD","name":"Vaud"},"status":"Real"},{"key":"10106983","name":"Place du Forum","postalCode":"1073","locality":"Savigny","commune":{"key":"5611","name":"Savigny","shortName":"Savigny"},"district":{"key":"2226","name":"District de Lavaux-Oron"},"canton":{"key":"22","code":"VD","name":"Vaud"},"status":"Real"},{"key":"10107130","name":"Port-des-Champs","postalCode":"1073","locality":"Savigny","commune":{"key":"5611","name":"Savigny","shortName":"Savigny"},"district":{"key":"2226","name":"District de Lavaux-Oron"},"canton":{"key":"22","code":"VD","name":"Vaud"},"status":"Real"},{"key":"10035585","name":"Route de Chexbres","postalCode":"1073","locality":"Savigny","commune":{"key":"5611","name":"Savigny","shortName":"Savigny"},"district":{"key":"2226","name":"District de Lavaux-Oron"},"canton":{"key":"22","code":"VD","name":"Vaud"},"status":"Real"},{"key":"10106984","name":"Route de Courtaraye","postalCode":"1073","locality":"Savigny","commune":{"key":"5611","name":"Savigny","shortName":"Savigny"},"district":{"key":"2226","name":"District de Lavaux-Oron"},"canton":{"key":"22","code":"VD","name":"Vaud"},"status":"Real"},{"key":"10035586","name":"Route de Grandvaux","postalCode":"1073","locality":"Savigny","commune":{"key":"5611","name":"Savigny","shortName":"Savigny"},"district":{"key":"2226","name":"District de Lavaux-Oron"},"canton":{"key":"22","code":"VD","name":"Vaud"},"status":"Real"},{"key":"10048102","name":"Route de la Bile","postalCode":"1073","locality":"Savigny","commune":{"key":"5611","name":"Savigny","shortName":"Savigny"},"district":{"key":"2226","name":"District de Lavaux-Oron"},"canton":{"key":"22","code":"VD","name":"Vaud"},"status":"Real"},{"key":"10077166","name":"Route de la Claie-aux-Moines","postalCode":"1073","locality":"Savigny","commune":{"key":"5611","name":"Savigny","shortName":"Savigny"},"district":{"key":"2226","name":"District de Lavaux-Oron"},"canton":{"key":"22","code":"VD","name":"Vaud"},"status":"Real"},{"key":"10035589","name":"Route de la Goille","postalCode":"1073","locality":"Savigny","commune":{"key":"5611","name":"Savigny","shortName":"Savigny"},"district":{"key":"2226","name":"District de Lavaux-Oron"},"canton":{"key":"22","code":"VD","name":"Vaud"},"status":"Real"},{"key":"10073269","name":"Route de l'Ancienne Poste","postalCode":"1073","locality":"Savigny","commune":{"key":"5611","name":"Savigny","shortName":"Savigny"},"district":{"key":"2226","name":"District de Lavaux-Oron"},"canton":{"key":"22","code":"VD","name":"Vaud"},"status":"Real"},{"key":"10115398","name":"Route de la Roche","postalCode":"1073","locality":"Savigny","commune":{"key":"5611","name":"Savigny","shortName":"Savigny"},"district":{"key":"2226","name":"District de Lavaux-Oron"},"canton":{"key":"22","code":"VD","name":"Vaud"},"status":"Real"},{"key":"10100492","name":"Route de la Séresse","postalCode":"1073","locality":"Savigny","commune":{"key":"5611","name":"Savigny","shortName":"Savigny"},"district":{"key":"2226","name":"District de Lavaux-Oron"},"canton":{"key":"22","code":"VD","name":"Vaud"},"status":"Real"},{"key":"10048100","name":"Route de Lutry","postalCode":"1073","locality":"Savigny","commune":{"key":"5611","name":"Savigny","shortName":"Savigny"},"district":{"key":"2226","name":"District de Lavaux-Oron"},"canton":{"key":"22","code":"VD","name":"Vaud"},"status":"Real"},{"key":"10102117","name":"Route de Mollie-Margot","postalCode":"1073","locality":"Savigny","commune":{"key":"5611","name":"Savigny","shortName":"Savigny"},"district":{"key":"2226","name":"District de Lavaux-Oron"},"canton":{"key":"22","code":"VD","name":"Vaud"},"status":"Real"},{"key":"10035587","name":"Route de Nialin","postalCode":"1073","locality":"Savigny","commune":{"key":"5611","name":"Savigny","shortName":"Savigny"},"district":{"key":"2226","name":"District de Lavaux-Oron"},"canton":{"key":"22","code":"VD","name":"Vaud"},"status":"Real"},{"key":"10048101","name":"Route de Pierre-Ozaire","postalCode":"1073","locality":"Savigny","commune":{"key":"5611","name":"Savigny","shortName":"Savigny"},"district":{"key":"2226","name":"District de Lavaux-Oron"},"canton":{"key":"22","code":"VD","name":"Vaud"},"status":"Real"},{"key":"10176855","name":"Route de Pré la Pierre","postalCode":"1073","locality":"Savigny","commune":{"key":"5611","name":"Savigny","shortName":"Savigny"},"district":{"key":"2226","name":"District de Lavaux-Oron"},"canton":{"key":"22","code":"VD","name":"Vaud"},"status":"Real"},{"key":"10100491","name":"Route de Saint-Amour","postalCode":"1073","locality":"Savigny","commune":{"key":"5611","name":"Savigny","shortName":"Savigny"},"district":{"key":"2226","name":"District de Lavaux-Oron"},"canton":{"key":"22","code":"VD","name":"Vaud"},"status":"Real"},{"key":"10107152","name":"Route des Miguettes","postalCode":"1073","locality":"Savigny","commune":{"key":"5611","name":"Savigny","shortName":"Savigny"},"district":{"key":"2226","name":"District de Lavaux-Oron"},"canton":{"key":"22","code":"VD","name":"Vaud"},"status":"Real"},{"key":"10035590","name":"Route de Tantérine","postalCode":"1073","locality":"Savigny","commune":{"key":"5611","name":"Savigny","shortName":"Savigny"},"district":{"key":"2226","name":"District de Lavaux-Oron"},"canton":{"key":"22","code":"VD","name":"Vaud"},"status":"Real"},{"key":"10121999","name":"Route de Vers-chez-les-Blanc","postalCode":"1073","locality":"Savigny","commune":{"key":"5611","name":"Savigny","shortName":"Savigny"},"district":{"key":"2226","name":"District de Lavaux-Oron"},"canton":{"key":"22","code":"VD","name":"Vaud"},"status":"Real"},{"key":"10102116","name":"Route d'Oron","postalCode":"1073","locality":"Savigny","commune":{"key":"5611","name":"Savigny","shortName":"Savigny"},"district":{"key":"2226","name":"District de Lavaux-Oron"},"canton":{"key":"22","code":"VD","name":"Vaud"},"status":"Real"},{"key":"10035592","name":"Route du Bois de la Chaux","postalCode":"1073","locality":"Savigny","commune":{"key":"5611","name":"Savigny","shortName":"Savigny"},"district":{"key":"2226","name":"District de Lavaux-Oron"},"canton":{"key":"22","code":"VD","name":"Vaud"},"status":"Real"},{"key":"10073270","name":"Route du Château","postalCode":"1073","locality":"Savigny","commune":{"key":"5611","name":"Savigny","shortName":"Savigny"},"district":{"key":"2226","name":"District de Lavaux-Oron"},"canton":{"key":"22","code":"VD","name":"Vaud"},"status":"Real"},{"key":"10100493","name":"Route du Collège","postalCode":"1073","locality":"Savigny","commune":{"key":"5611","name":"Savigny","shortName":"Savigny"},"district":{"key":"2226","name":"District de Lavaux-Oron"},"canton":{"key":"22","code":"VD","name":"Vaud"},"status":"Real"},{"key":"10035593","name":"Route du Jorat","postalCode":"1073","locality":"Savigny","commune":{"key":"5611","name":"Savigny","shortName":"Savigny"},"district":{"key":"2226","name":"District de Lavaux-Oron"},"canton":{"key":"22","code":"VD","name":"Vaud"},"status":"Real"},{"key":"10035594","name":"Route du Martinet","postalCode":"1073","locality":"Savigny","commune":{"key":"5611","name":"Savigny","shortName":"Savigny"},"district":{"key":"2226","name":"District de Lavaux-Oron"},"canton":{"key":"22","code":"VD","name":"Vaud"},"status":"Real"},{"key":"10048104","name":"Route du Martinet d'En Bas","postalCode":"1073","locality":"Savigny","commune":{"key":"5611","name":"Savigny","shortName":"Savigny"},"district":{"key":"2226","name":"District de Lavaux-Oron"},"canton":{"key":"22","code":"VD","name":"Vaud"},"status":"Real"},{"key":"10035595","name":"Route du Petit Versailles","postalCode":"1073","locality":"Savigny","commune":{"key":"5611","name":"Savigny","shortName":"Savigny"},"district":{"key":"2226","name":"District de Lavaux-Oron"},"canton":{"key":"22","code":"VD","name":"Vaud"},"status":"Real"},{"key":"10176856","name":"Sentier de Courtaraye","postalCode":"1073","locality":"Savigny","commune":{"key":"5611","name":"Savigny","shortName":"Savigny"},"district":{"key":"2226","name":"District de Lavaux-Oron"},"canton":{"key":"22","code":"VD","name":"Vaud"},"status":"Real"},]