[{"name":"Am alten Graben","postalCode":"97258","locality":"Oberickelsheim","municipality":{"key":"09575155","name":"Oberickelsheim","type":"Kreisangehörige_Gemeinde"},"district":{"key":"09575","name":"Neustadt a.d.Aisch-Bad Windsheim","type":"Landkreis"},"federalState":{"key":"09","name":"Bayern"}},{"name":"Am Fischkasten","postalCode":"97258","locality":"Oberickelsheim","municipality":{"key":"09575155","name":"Oberickelsheim","type":"Kreisangehörige_Gemeinde"},"district":{"key":"09575","name":"Neustadt a.d.Aisch-Bad Windsheim","type":"Landkreis"},"federalState":{"key":"09","name":"Bayern"}},{"name":"Am Grabenrain","postalCode":"97258","locality":"Oberickelsheim","municipality":{"key":"09575155","name":"Oberickelsheim","type":"Kreisangehörige_Gemeinde"},"district":{"key":"09575","name":"Neustadt a.d.Aisch-Bad Windsheim","type":"Landkreis"},"federalState":{"key":"09","name":"Bayern"}},{"name":"Am Hirtenbach","postalCode":"97258","locality":"Oberickelsheim","municipality":{"key":"09575155","name":"Oberickelsheim","type":"Kreisangehörige_Gemeinde"},"district":{"key":"09575","name":"Neustadt a.d.Aisch-Bad Windsheim","type":"Landkreis"},"federalState":{"key":"09","name":"Bayern"}},{"name":"Am Tannenbaum","postalCode":"97258","locality":"Oberickelsheim","municipality":{"key":"09575155","name":"Oberickelsheim","type":"Kreisangehörige_Gemeinde"},"district":{"key":"09575","name":"Neustadt a.d.Aisch-Bad Windsheim","type":"Landkreis"},"federalState":{"key":"09","name":"Bayern"}},{"name":"Bamberger Weg","postalCode":"97258","locality":"Oberickelsheim","municipality":{"key":"09575155","name":"Oberickelsheim","type":"Kreisangehörige_Gemeinde"},"district":{"key":"09575","name":"Neustadt a.d.Aisch-Bad Windsheim","type":"Landkreis"},"federalState":{"key":"09","name":"Bayern"}},{"name":"Birkenweg","postalCode":"97258","locality":"Oberickelsheim","municipality":{"key":"09575155","name":"Oberickelsheim","type":"Kreisangehörige_Gemeinde"},"district":{"key":"09575","name":"Neustadt a.d.Aisch-Bad Windsheim","type":"Landkreis"},"federalState":{"key":"09","name":"Bayern"}},{"name":"Gartenstr.","postalCode":"97258","locality":"Oberickelsheim","municipality":{"key":"09575155","name":"Oberickelsheim","type":"Kreisangehörige_Gemeinde"},"district":{"key":"09575","name":"Neustadt a.d.Aisch-Bad Windsheim","type":"Landkreis"},"federalState":{"key":"09","name":"Bayern"}},{"name":"Gülchsheimer Weg","postalCode":"97258","locality":"Oberickelsheim","municipality":{"key":"09575155","name":"Oberickelsheim","type":"Kreisangehörige_Gemeinde"},"district":{"key":"09575","name":"Neustadt a.d.Aisch-Bad Windsheim","type":"Landkreis"},"federalState":{"key":"09","name":"Bayern"}},{"name":"Hauptstr.","postalCode":"97258","locality":"Oberickelsheim","municipality":{"key":"09575155","name":"Oberickelsheim","type":"Kreisangehörige_Gemeinde"},"district":{"key":"09575","name":"Neustadt a.d.Aisch-Bad Windsheim","type":"Landkreis"},"federalState":{"key":"09","name":"Bayern"}},{"name":"Heerstr.","postalCode":"97258","locality":"Oberickelsheim","municipality":{"key":"09575155","name":"Oberickelsheim","type":"Kreisangehörige_Gemeinde"},"district":{"key":"09575","name":"Neustadt a.d.Aisch-Bad Windsheim","type":"Landkreis"},"federalState":{"key":"09","name":"Bayern"}},{"name":"Herrengasse","postalCode":"97258","locality":"Oberickelsheim","municipality":{"key":"09575155","name":"Oberickelsheim","type":"Kreisangehörige_Gemeinde"},"district":{"key":"09575","name":"Neustadt a.d.Aisch-Bad Windsheim","type":"Landkreis"},"federalState":{"key":"09","name":"Bayern"}},{"name":"In der Schanz","postalCode":"97258","locality":"Oberickelsheim","municipality":{"key":"09575155","name":"Oberickelsheim","type":"Kreisangehörige_Gemeinde"},"district":{"key":"09575","name":"Neustadt a.d.Aisch-Bad Windsheim","type":"Landkreis"},"federalState":{"key":"09","name":"Bayern"}},{"name":"Kirchgasse","postalCode":"97258","locality":"Oberickelsheim","municipality":{"key":"09575155","name":"Oberickelsheim","type":"Kreisangehörige_Gemeinde"},"district":{"key":"09575","name":"Neustadt a.d.Aisch-Bad Windsheim","type":"Landkreis"},"federalState":{"key":"09","name":"Bayern"}},{"name":"Kirchplatz","postalCode":"97258","locality":"Oberickelsheim","municipality":{"key":"09575155","name":"Oberickelsheim","type":"Kreisangehörige_Gemeinde"},"district":{"key":"09575","name":"Neustadt a.d.Aisch-Bad Windsheim","type":"Landkreis"},"federalState":{"key":"09","name":"Bayern"}},{"name":"Obergasse","postalCode":"97258","locality":"Oberickelsheim","municipality":{"key":"09575155","name":"Oberickelsheim","type":"Kreisangehörige_Gemeinde"},"district":{"key":"09575","name":"Neustadt a.d.Aisch-Bad Windsheim","type":"Landkreis"},"federalState":{"key":"09","name":"Bayern"}},{"name":"Oberickelsheimer Str.","postalCode":"97258","locality":"Oberickelsheim","municipality":{"key":"09575155","name":"Oberickelsheim","type":"Kreisangehörige_Gemeinde"},"district":{"key":"09575","name":"Neustadt a.d.Aisch-Bad Windsheim","type":"Landkreis"},"federalState":{"key":"09","name":"Bayern"}},{"name":"Ostring","postalCode":"97258","locality":"Oberickelsheim","municipality":{"key":"09575155","name":"Oberickelsheim","type":"Kreisangehörige_Gemeinde"},"district":{"key":"09575","name":"Neustadt a.d.Aisch-Bad Windsheim","type":"Landkreis"},"federalState":{"key":"09","name":"Bayern"}},{"name":"Pfarrgasse","postalCode":"97258","locality":"Oberickelsheim","municipality":{"key":"09575155","name":"Oberickelsheim","type":"Kreisangehörige_Gemeinde"},"district":{"key":"09575","name":"Neustadt a.d.Aisch-Bad Windsheim","type":"Landkreis"},"federalState":{"key":"09","name":"Bayern"}},{"name":"Riedweg","postalCode":"97258","locality":"Oberickelsheim","municipality":{"key":"09575155","name":"Oberickelsheim","type":"Kreisangehörige_Gemeinde"},"district":{"key":"09575","name":"Neustadt a.d.Aisch-Bad Windsheim","type":"Landkreis"},"federalState":{"key":"09","name":"Bayern"}},{"name":"Rodheimerstr.","postalCode":"97258","locality":"Oberickelsheim","municipality":{"key":"09575155","name":"Oberickelsheim","type":"Kreisangehörige_Gemeinde"},"district":{"key":"09575","name":"Neustadt a.d.Aisch-Bad Windsheim","type":"Landkreis"},"federalState":{"key":"09","name":"Bayern"}},{"name":"Schustergasse","postalCode":"97258","locality":"Oberickelsheim","municipality":{"key":"09575155","name":"Oberickelsheim","type":"Kreisangehörige_Gemeinde"},"district":{"key":"09575","name":"Neustadt a.d.Aisch-Bad Windsheim","type":"Landkreis"},"federalState":{"key":"09","name":"Bayern"}},{"name":"Torstr.","postalCode":"97258","locality":"Oberickelsheim","municipality":{"key":"09575155","name":"Oberickelsheim","type":"Kreisangehörige_Gemeinde"},"district":{"key":"09575","name":"Neustadt a.d.Aisch-Bad Windsheim","type":"Landkreis"},"federalState":{"key":"09","name":"Bayern"}},{"name":"Untergasse","postalCode":"97258","locality":"Oberickelsheim","municipality":{"key":"09575155","name":"Oberickelsheim","type":"Kreisangehörige_Gemeinde"},"district":{"key":"09575","name":"Neustadt a.d.Aisch-Bad Windsheim","type":"Landkreis"},"federalState":{"key":"09","name":"Bayern"}},{"name":"Wassergasse","postalCode":"97258","locality":"Oberickelsheim","municipality":{"key":"09575155","name":"Oberickelsheim","type":"Kreisangehörige_Gemeinde"},"district":{"key":"09575","name":"Neustadt a.d.Aisch-Bad Windsheim","type":"Landkreis"},"federalState":{"key":"09","name":"Bayern"}},{"name":"Westring","postalCode":"97258","locality":"Oberickelsheim","municipality":{"key":"09575155","name":"Oberickelsheim","type":"Kreisangehörige_Gemeinde"},"district":{"key":"09575","name":"Neustadt a.d.Aisch-Bad Windsheim","type":"Landkreis"},"federalState":{"key":"09","name":"Bayern"}},{"name":"Zollweg","postalCode":"97258","locality":"Oberickelsheim","municipality":{"key":"09575155","name":"Oberickelsheim","type":"Kreisangehörige_Gemeinde"},"district":{"key":"09575","name":"Neustadt a.d.Aisch-Bad Windsheim","type":"Landkreis"},"federalState":{"key":"09","name":"Bayern"}},]