[{"name":"Ahornweg","postalCode":"17094","locality":"Burg Stargard","municipality":{"key":"13071021","name":"Burg Stargard, Stadt","type":"Stadt"},"district":{"key":"13071","name":"Mecklenburgische Seenplatte","type":"Landkreis"},"federalState":{"key":"13","name":"Mecklenburg-Vorpommern"}},{"name":"Alte Dorfstr.","postalCode":"17094","locality":"Burg Stargard","municipality":{"key":"13071021","name":"Burg Stargard, Stadt","type":"Stadt"},"district":{"key":"13071","name":"Mecklenburgische Seenplatte","type":"Landkreis"},"federalState":{"key":"13","name":"Mecklenburg-Vorpommern"}},{"name":"Am Bahnhof","postalCode":"17094","locality":"Burg Stargard","municipality":{"key":"13071021","name":"Burg Stargard, Stadt","type":"Stadt"},"district":{"key":"13071","name":"Mecklenburgische Seenplatte","type":"Landkreis"},"federalState":{"key":"13","name":"Mecklenburg-Vorpommern"}},{"name":"Am Berge","postalCode":"17094","locality":"Burg Stargard","municipality":{"key":"13071021","name":"Burg Stargard, Stadt","type":"Stadt"},"district":{"key":"13071","name":"Mecklenburgische Seenplatte","type":"Landkreis"},"federalState":{"key":"13","name":"Mecklenburg-Vorpommern"}},{"name":"Am Brink","postalCode":"17094","locality":"Burg Stargard","municipality":{"key":"13071021","name":"Burg Stargard, Stadt","type":"Stadt"},"district":{"key":"13071","name":"Mecklenburgische Seenplatte","type":"Landkreis"},"federalState":{"key":"13","name":"Mecklenburg-Vorpommern"}},{"name":"Am Feldrain","postalCode":"17094","locality":"Burg Stargard","municipality":{"key":"13071021","name":"Burg Stargard, Stadt","type":"Stadt"},"district":{"key":"13071","name":"Mecklenburgische Seenplatte","type":"Landkreis"},"federalState":{"key":"13","name":"Mecklenburg-Vorpommern"}},{"name":"Am Fuhrweg","postalCode":"17094","locality":"Burg Stargard","municipality":{"key":"13071021","name":"Burg Stargard, Stadt","type":"Stadt"},"district":{"key":"13071","name":"Mecklenburgische Seenplatte","type":"Landkreis"},"federalState":{"key":"13","name":"Mecklenburg-Vorpommern"}},{"name":"Am Gramelower See","postalCode":"17094","locality":"Burg Stargard","municipality":{"key":"13071021","name":"Burg Stargard, Stadt","type":"Stadt"},"district":{"key":"13071","name":"Mecklenburgische Seenplatte","type":"Landkreis"},"federalState":{"key":"13","name":"Mecklenburg-Vorpommern"}},{"name":"Am Hufenfeld","postalCode":"17094","locality":"Burg Stargard","municipality":{"key":"13071021","name":"Burg Stargard, Stadt","type":"Stadt"},"district":{"key":"13071","name":"Mecklenburgische Seenplatte","type":"Landkreis"},"federalState":{"key":"13","name":"Mecklenburg-Vorpommern"}},{"name":"Am Markt","postalCode":"17094","locality":"Burg Stargard","municipality":{"key":"13071021","name":"Burg Stargard, Stadt","type":"Stadt"},"district":{"key":"13071","name":"Mecklenburgische Seenplatte","type":"Landkreis"},"federalState":{"key":"13","name":"Mecklenburg-Vorpommern"}},{"name":"Am Rowaer Forst","postalCode":"17094","locality":"Burg Stargard","municipality":{"key":"13071021","name":"Burg Stargard, Stadt","type":"Stadt"},"district":{"key":"13071","name":"Mecklenburgische Seenplatte","type":"Landkreis"},"federalState":{"key":"13","name":"Mecklenburg-Vorpommern"}},{"name":"Am Sannbruch","postalCode":"17094","locality":"Burg Stargard","municipality":{"key":"13071021","name":"Burg Stargard, Stadt","type":"Stadt"},"district":{"key":"13071","name":"Mecklenburgische Seenplatte","type":"Landkreis"},"federalState":{"key":"13","name":"Mecklenburg-Vorpommern"}},{"name":"Am Teufelsbruch","postalCode":"17094","locality":"Burg Stargard","municipality":{"key":"13071021","name":"Burg Stargard, Stadt","type":"Stadt"},"district":{"key":"13071","name":"Mecklenburgische Seenplatte","type":"Landkreis"},"federalState":{"key":"13","name":"Mecklenburg-Vorpommern"}},{"name":"Am Winkel","postalCode":"17094","locality":"Burg Stargard","municipality":{"key":"13071021","name":"Burg Stargard, Stadt","type":"Stadt"},"district":{"key":"13071","name":"Mecklenburgische Seenplatte","type":"Landkreis"},"federalState":{"key":"13","name":"Mecklenburg-Vorpommern"}},{"name":"An den Schanzen","postalCode":"17094","locality":"Burg Stargard","municipality":{"key":"13071021","name":"Burg Stargard, Stadt","type":"Stadt"},"district":{"key":"13071","name":"Mecklenburgische Seenplatte","type":"Landkreis"},"federalState":{"key":"13","name":"Mecklenburg-Vorpommern"}},{"name":"An den Weiden","postalCode":"17094","locality":"Burg Stargard","municipality":{"key":"13071021","name":"Burg Stargard, Stadt","type":"Stadt"},"district":{"key":"13071","name":"Mecklenburgische Seenplatte","type":"Landkreis"},"federalState":{"key":"13","name":"Mecklenburg-Vorpommern"}},{"name":"An der Wöhrde","postalCode":"17094","locality":"Burg Stargard","municipality":{"key":"13071021","name":"Burg Stargard, Stadt","type":"Stadt"},"district":{"key":"13071","name":"Mecklenburgische Seenplatte","type":"Landkreis"},"federalState":{"key":"13","name":"Mecklenburg-Vorpommern"}},{"name":"Bahnhofstr.","postalCode":"17094","locality":"Burg Stargard","municipality":{"key":"13071021","name":"Burg Stargard, Stadt","type":"Stadt"},"district":{"key":"13071","name":"Mecklenburgische Seenplatte","type":"Landkreis"},"federalState":{"key":"13","name":"Mecklenburg-Vorpommern"}},{"name":"Bauhof","postalCode":"17094","locality":"Burg Stargard","municipality":{"key":"13071021","name":"Burg Stargard, Stadt","type":"Stadt"},"district":{"key":"13071","name":"Mecklenburgische Seenplatte","type":"Landkreis"},"federalState":{"key":"13","name":"Mecklenburg-Vorpommern"}},{"name":"Birkenallee","postalCode":"17094","locality":"Burg Stargard","municipality":{"key":"13071021","name":"Burg Stargard, Stadt","type":"Stadt"},"district":{"key":"13071","name":"Mecklenburgische Seenplatte","type":"Landkreis"},"federalState":{"key":"13","name":"Mecklenburg-Vorpommern"}},{"name":"Birkenweg","postalCode":"17094","locality":"Burg Stargard","municipality":{"key":"13071021","name":"Burg Stargard, Stadt","type":"Stadt"},"district":{"key":"13071","name":"Mecklenburgische Seenplatte","type":"Landkreis"},"federalState":{"key":"13","name":"Mecklenburg-Vorpommern"}},{"name":"Blumenstr.","postalCode":"17094","locality":"Burg Stargard","municipality":{"key":"13071021","name":"Burg Stargard, Stadt","type":"Stadt"},"district":{"key":"13071","name":"Mecklenburgische Seenplatte","type":"Landkreis"},"federalState":{"key":"13","name":"Mecklenburg-Vorpommern"}},{"name":"Buchenweg","postalCode":"17094","locality":"Burg Stargard","municipality":{"key":"13071021","name":"Burg Stargard, Stadt","type":"Stadt"},"district":{"key":"13071","name":"Mecklenburgische Seenplatte","type":"Landkreis"},"federalState":{"key":"13","name":"Mecklenburg-Vorpommern"}},{"name":"Burg","postalCode":"17094","locality":"Burg Stargard","municipality":{"key":"13071021","name":"Burg Stargard, Stadt","type":"Stadt"},"district":{"key":"13071","name":"Mecklenburgische Seenplatte","type":"Landkreis"},"federalState":{"key":"13","name":"Mecklenburg-Vorpommern"}},{"name":"Burgblick","postalCode":"17094","locality":"Burg Stargard","municipality":{"key":"13071021","name":"Burg Stargard, Stadt","type":"Stadt"},"district":{"key":"13071","name":"Mecklenburgische Seenplatte","type":"Landkreis"},"federalState":{"key":"13","name":"Mecklenburg-Vorpommern"}},{"name":"Burgstr.","postalCode":"17094","locality":"Burg Stargard","municipality":{"key":"13071021","name":"Burg Stargard, Stadt","type":"Stadt"},"district":{"key":"13071","name":"Mecklenburgische Seenplatte","type":"Landkreis"},"federalState":{"key":"13","name":"Mecklenburg-Vorpommern"}},{"name":"Camminer Weg","postalCode":"17094","locality":"Burg Stargard","municipality":{"key":"13071021","name":"Burg Stargard, Stadt","type":"Stadt"},"district":{"key":"13071","name":"Mecklenburgische Seenplatte","type":"Landkreis"},"federalState":{"key":"13","name":"Mecklenburg-Vorpommern"}},{"name":"Carl-Stolte-Str.","postalCode":"17094","locality":"Burg Stargard","municipality":{"key":"13071021","name":"Burg Stargard, Stadt","type":"Stadt"},"district":{"key":"13071","name":"Mecklenburgische Seenplatte","type":"Landkreis"},"federalState":{"key":"13","name":"Mecklenburg-Vorpommern"}},{"name":"Dewitzer Chaussee","postalCode":"17094","locality":"Burg Stargard","municipality":{"key":"13071021","name":"Burg Stargard, Stadt","type":"Stadt"},"district":{"key":"13071","name":"Mecklenburgische Seenplatte","type":"Landkreis"},"federalState":{"key":"13","name":"Mecklenburg-Vorpommern"}},{"name":"Dorfstr.","postalCode":"17094","locality":"Burg Stargard","municipality":{"key":"13071021","name":"Burg Stargard, Stadt","type":"Stadt"},"district":{"key":"13071","name":"Mecklenburgische Seenplatte","type":"Landkreis"},"federalState":{"key":"13","name":"Mecklenburg-Vorpommern"}},{"name":"Eichenweg","postalCode":"17094","locality":"Burg Stargard","municipality":{"key":"13071021","name":"Burg Stargard, Stadt","type":"Stadt"},"district":{"key":"13071","name":"Mecklenburgische Seenplatte","type":"Landkreis"},"federalState":{"key":"13","name":"Mecklenburg-Vorpommern"}},{"name":"Feldstr.","postalCode":"17094","locality":"Burg Stargard","municipality":{"key":"13071021","name":"Burg Stargard, Stadt","type":"Stadt"},"district":{"key":"13071","name":"Mecklenburgische Seenplatte","type":"Landkreis"},"federalState":{"key":"13","name":"Mecklenburg-Vorpommern"}},{"name":"Fichtenweg","postalCode":"17094","locality":"Burg Stargard","municipality":{"key":"13071021","name":"Burg Stargard, Stadt","type":"Stadt"},"district":{"key":"13071","name":"Mecklenburgische Seenplatte","type":"Landkreis"},"federalState":{"key":"13","name":"Mecklenburg-Vorpommern"}},{"name":"Fünfeichener Weg","postalCode":"17094","locality":"Burg Stargard","municipality":{"key":"13071021","name":"Burg Stargard, Stadt","type":"Stadt"},"district":{"key":"13071","name":"Mecklenburgische Seenplatte","type":"Landkreis"},"federalState":{"key":"13","name":"Mecklenburg-Vorpommern"}},{"name":"Galgenberg","postalCode":"17094","locality":"Burg Stargard","municipality":{"key":"13071021","name":"Burg Stargard, Stadt","type":"Stadt"},"district":{"key":"13071","name":"Mecklenburgische Seenplatte","type":"Landkreis"},"federalState":{"key":"13","name":"Mecklenburg-Vorpommern"}},{"name":"Gartenstr.","postalCode":"17094","locality":"Burg Stargard","municipality":{"key":"13071021","name":"Burg Stargard, Stadt","type":"Stadt"},"district":{"key":"13071","name":"Mecklenburgische Seenplatte","type":"Landkreis"},"federalState":{"key":"13","name":"Mecklenburg-Vorpommern"}},{"name":"Godensweger Str.","postalCode":"17094","locality":"Burg Stargard","municipality":{"key":"13071021","name":"Burg Stargard, Stadt","type":"Stadt"},"district":{"key":"13071","name":"Mecklenburgische Seenplatte","type":"Landkreis"},"federalState":{"key":"13","name":"Mecklenburg-Vorpommern"}},{"name":"Gottlieb-Genzmer-Str.","postalCode":"17094","locality":"Burg Stargard","municipality":{"key":"13071021","name":"Burg Stargard, Stadt","type":"Stadt"},"district":{"key":"13071","name":"Mecklenburgische Seenplatte","type":"Landkreis"},"federalState":{"key":"13","name":"Mecklenburg-Vorpommern"}},{"name":"Grabenstr.","postalCode":"17094","locality":"Burg Stargard","municipality":{"key":"13071021","name":"Burg Stargard, Stadt","type":"Stadt"},"district":{"key":"13071","name":"Mecklenburgische Seenplatte","type":"Landkreis"},"federalState":{"key":"13","name":"Mecklenburg-Vorpommern"}},{"name":"Gramelower Str.","postalCode":"17094","locality":"Burg Stargard","municipality":{"key":"13071021","name":"Burg Stargard, Stadt","type":"Stadt"},"district":{"key":"13071","name":"Mecklenburgische Seenplatte","type":"Landkreis"},"federalState":{"key":"13","name":"Mecklenburg-Vorpommern"}},{"name":"Hauptstr.","postalCode":"17094","locality":"Burg Stargard","municipality":{"key":"13071021","name":"Burg Stargard, Stadt","type":"Stadt"},"district":{"key":"13071","name":"Mecklenburgische Seenplatte","type":"Landkreis"},"federalState":{"key":"13","name":"Mecklenburg-Vorpommern"}},{"name":"Hermann-Löns-Weg","postalCode":"17094","locality":"Burg Stargard","municipality":{"key":"13071021","name":"Burg Stargard, Stadt","type":"Stadt"},"district":{"key":"13071","name":"Mecklenburgische Seenplatte","type":"Landkreis"},"federalState":{"key":"13","name":"Mecklenburg-Vorpommern"}},{"name":"Hohlweg","postalCode":"17094","locality":"Burg Stargard","municipality":{"key":"13071021","name":"Burg Stargard, Stadt","type":"Stadt"},"district":{"key":"13071","name":"Mecklenburgische Seenplatte","type":"Landkreis"},"federalState":{"key":"13","name":"Mecklenburg-Vorpommern"}},{"name":"Johanna-Beckmann-Str.","postalCode":"17094","locality":"Burg Stargard","municipality":{"key":"13071021","name":"Burg Stargard, Stadt","type":"Stadt"},"district":{"key":"13071","name":"Mecklenburgische Seenplatte","type":"Landkreis"},"federalState":{"key":"13","name":"Mecklenburg-Vorpommern"}},{"name":"Jungfernbrunnen","postalCode":"17094","locality":"Burg Stargard","municipality":{"key":"13071021","name":"Burg Stargard, Stadt","type":"Stadt"},"district":{"key":"13071","name":"Mecklenburgische Seenplatte","type":"Landkreis"},"federalState":{"key":"13","name":"Mecklenburg-Vorpommern"}},{"name":"Kastanienallee","postalCode":"17094","locality":"Burg Stargard","municipality":{"key":"13071021","name":"Burg Stargard, Stadt","type":"Stadt"},"district":{"key":"13071","name":"Mecklenburgische Seenplatte","type":"Landkreis"},"federalState":{"key":"13","name":"Mecklenburg-Vorpommern"}},{"name":"Kastanienweg","postalCode":"17094","locality":"Burg Stargard","municipality":{"key":"13071021","name":"Burg Stargard, Stadt","type":"Stadt"},"district":{"key":"13071","name":"Mecklenburgische Seenplatte","type":"Landkreis"},"federalState":{"key":"13","name":"Mecklenburg-Vorpommern"}},{"name":"Kienbruch","postalCode":"17094","locality":"Burg Stargard","municipality":{"key":"13071021","name":"Burg Stargard, Stadt","type":"Stadt"},"district":{"key":"13071","name":"Mecklenburgische Seenplatte","type":"Landkreis"},"federalState":{"key":"13","name":"Mecklenburg-Vorpommern"}},{"name":"Klüschenbergstr.","postalCode":"17094","locality":"Burg Stargard","municipality":{"key":"13071021","name":"Burg Stargard, Stadt","type":"Stadt"},"district":{"key":"13071","name":"Mecklenburgische Seenplatte","type":"Landkreis"},"federalState":{"key":"13","name":"Mecklenburg-Vorpommern"}},{"name":"Kurze Str.","postalCode":"17094","locality":"Burg Stargard","municipality":{"key":"13071021","name":"Burg Stargard, Stadt","type":"Stadt"},"district":{"key":"13071","name":"Mecklenburgische Seenplatte","type":"Landkreis"},"federalState":{"key":"13","name":"Mecklenburg-Vorpommern"}},{"name":"Lange Str.","postalCode":"17094","locality":"Burg Stargard","municipality":{"key":"13071021","name":"Burg Stargard, Stadt","type":"Stadt"},"district":{"key":"13071","name":"Mecklenburgische Seenplatte","type":"Landkreis"},"federalState":{"key":"13","name":"Mecklenburg-Vorpommern"}},{"name":"Lindenallee","postalCode":"17094","locality":"Burg Stargard","municipality":{"key":"13071021","name":"Burg Stargard, Stadt","type":"Stadt"},"district":{"key":"13071","name":"Mecklenburgische Seenplatte","type":"Landkreis"},"federalState":{"key":"13","name":"Mecklenburg-Vorpommern"}},{"name":"Lindenhof","postalCode":"17094","locality":"Burg Stargard","municipality":{"key":"13071021","name":"Burg Stargard, Stadt","type":"Stadt"},"district":{"key":"13071","name":"Mecklenburgische Seenplatte","type":"Landkreis"},"federalState":{"key":"13","name":"Mecklenburg-Vorpommern"}},{"name":"Lindenstr.","postalCode":"17094","locality":"Burg Stargard","municipality":{"key":"13071021","name":"Burg Stargard, Stadt","type":"Stadt"},"district":{"key":"13071","name":"Mecklenburgische Seenplatte","type":"Landkreis"},"federalState":{"key":"13","name":"Mecklenburg-Vorpommern"}},{"name":"Lindenweg","postalCode":"17094","locality":"Burg Stargard","municipality":{"key":"13071021","name":"Burg Stargard, Stadt","type":"Stadt"},"district":{"key":"13071","name":"Mecklenburgische Seenplatte","type":"Landkreis"},"federalState":{"key":"13","name":"Mecklenburg-Vorpommern"}},{"name":"Marie-Hager-Str.","postalCode":"17094","locality":"Burg Stargard","municipality":{"key":"13071021","name":"Burg Stargard, Stadt","type":"Stadt"},"district":{"key":"13071","name":"Mecklenburgische Seenplatte","type":"Landkreis"},"federalState":{"key":"13","name":"Mecklenburg-Vorpommern"}},{"name":"Marktstr.","postalCode":"17094","locality":"Burg Stargard","municipality":{"key":"13071021","name":"Burg Stargard, Stadt","type":"Stadt"},"district":{"key":"13071","name":"Mecklenburgische Seenplatte","type":"Landkreis"},"federalState":{"key":"13","name":"Mecklenburg-Vorpommern"}},{"name":"Marner Str.","postalCode":"17094","locality":"Burg Stargard","municipality":{"key":"13071021","name":"Burg Stargard, Stadt","type":"Stadt"},"district":{"key":"13071","name":"Mecklenburgische Seenplatte","type":"Landkreis"},"federalState":{"key":"13","name":"Mecklenburg-Vorpommern"}},{"name":"Melsenseehof","postalCode":"17094","locality":"Burg Stargard","municipality":{"key":"13071021","name":"Burg Stargard, Stadt","type":"Stadt"},"district":{"key":"13071","name":"Mecklenburgische Seenplatte","type":"Landkreis"},"federalState":{"key":"13","name":"Mecklenburg-Vorpommern"}},{"name":"Messweg","postalCode":"17094","locality":"Burg Stargard","municipality":{"key":"13071021","name":"Burg Stargard, Stadt","type":"Stadt"},"district":{"key":"13071","name":"Mecklenburgische Seenplatte","type":"Landkreis"},"federalState":{"key":"13","name":"Mecklenburg-Vorpommern"}},{"name":"Mühlenstr.","postalCode":"17094","locality":"Burg Stargard","municipality":{"key":"13071021","name":"Burg Stargard, Stadt","type":"Stadt"},"district":{"key":"13071","name":"Mecklenburgische Seenplatte","type":"Landkreis"},"federalState":{"key":"13","name":"Mecklenburg-Vorpommern"}},{"name":"Neudorf","postalCode":"17094","locality":"Burg Stargard","municipality":{"key":"13071021","name":"Burg Stargard, Stadt","type":"Stadt"},"district":{"key":"13071","name":"Mecklenburgische Seenplatte","type":"Landkreis"},"federalState":{"key":"13","name":"Mecklenburg-Vorpommern"}},{"name":"Neue Feldstr.","postalCode":"17094","locality":"Burg Stargard","municipality":{"key":"13071021","name":"Burg Stargard, Stadt","type":"Stadt"},"district":{"key":"13071","name":"Mecklenburgische Seenplatte","type":"Landkreis"},"federalState":{"key":"13","name":"Mecklenburg-Vorpommern"}},{"name":"Neue Str.","postalCode":"17094","locality":"Burg Stargard","municipality":{"key":"13071021","name":"Burg Stargard, Stadt","type":"Stadt"},"district":{"key":"13071","name":"Mecklenburgische Seenplatte","type":"Landkreis"},"federalState":{"key":"13","name":"Mecklenburg-Vorpommern"}},{"name":"Oberer Weg","postalCode":"17094","locality":"Burg Stargard","municipality":{"key":"13071021","name":"Burg Stargard, Stadt","type":"Stadt"},"district":{"key":"13071","name":"Mecklenburgische Seenplatte","type":"Landkreis"},"federalState":{"key":"13","name":"Mecklenburg-Vorpommern"}},{"name":"Papiermühlenweg","postalCode":"17094","locality":"Burg Stargard","municipality":{"key":"13071021","name":"Burg Stargard, Stadt","type":"Stadt"},"district":{"key":"13071","name":"Mecklenburgische Seenplatte","type":"Landkreis"},"federalState":{"key":"13","name":"Mecklenburg-Vorpommern"}},{"name":"Quastenberg","postalCode":"17094","locality":"Burg Stargard","municipality":{"key":"13071021","name":"Burg Stargard, Stadt","type":"Stadt"},"district":{"key":"13071","name":"Mecklenburgische Seenplatte","type":"Landkreis"},"federalState":{"key":"13","name":"Mecklenburg-Vorpommern"}},{"name":"Quastenberger Damm","postalCode":"17094","locality":"Burg Stargard","municipality":{"key":"13071021","name":"Burg Stargard, Stadt","type":"Stadt"},"district":{"key":"13071","name":"Mecklenburgische Seenplatte","type":"Landkreis"},"federalState":{"key":"13","name":"Mecklenburg-Vorpommern"}},{"name":"Quastenberger Siedlung","postalCode":"17094","locality":"Burg Stargard","municipality":{"key":"13071021","name":"Burg Stargard, Stadt","type":"Stadt"},"district":{"key":"13071","name":"Mecklenburgische Seenplatte","type":"Landkreis"},"federalState":{"key":"13","name":"Mecklenburg-Vorpommern"}},{"name":"Riepker Str.","postalCode":"17094","locality":"Burg Stargard","municipality":{"key":"13071021","name":"Burg Stargard, Stadt","type":"Stadt"},"district":{"key":"13071","name":"Mecklenburgische Seenplatte","type":"Landkreis"},"federalState":{"key":"13","name":"Mecklenburg-Vorpommern"}},{"name":"Ringstr.","postalCode":"17094","locality":"Burg Stargard","municipality":{"key":"13071021","name":"Burg Stargard, Stadt","type":"Stadt"},"district":{"key":"13071","name":"Mecklenburgische Seenplatte","type":"Landkreis"},"federalState":{"key":"13","name":"Mecklenburg-Vorpommern"}},{"name":"Rosenstr.","postalCode":"17094","locality":"Burg Stargard","municipality":{"key":"13071021","name":"Burg Stargard, Stadt","type":"Stadt"},"district":{"key":"13071","name":"Mecklenburgische Seenplatte","type":"Landkreis"},"federalState":{"key":"13","name":"Mecklenburg-Vorpommern"}},{"name":"Rowaer Weg","postalCode":"17094","locality":"Burg Stargard","municipality":{"key":"13071021","name":"Burg Stargard, Stadt","type":"Stadt"},"district":{"key":"13071","name":"Mecklenburgische Seenplatte","type":"Landkreis"},"federalState":{"key":"13","name":"Mecklenburg-Vorpommern"}},{"name":"Sabel","postalCode":"17094","locality":"Burg Stargard","municipality":{"key":"13071021","name":"Burg Stargard, Stadt","type":"Stadt"},"district":{"key":"13071","name":"Mecklenburgische Seenplatte","type":"Landkreis"},"federalState":{"key":"13","name":"Mecklenburg-Vorpommern"}},{"name":"Schmiedeweg","postalCode":"17094","locality":"Burg Stargard","municipality":{"key":"13071021","name":"Burg Stargard, Stadt","type":"Stadt"},"district":{"key":"13071","name":"Mecklenburgische Seenplatte","type":"Landkreis"},"federalState":{"key":"13","name":"Mecklenburg-Vorpommern"}},{"name":"Schönbruch","postalCode":"17094","locality":"Burg Stargard","municipality":{"key":"13071021","name":"Burg Stargard, Stadt","type":"Stadt"},"district":{"key":"13071","name":"Mecklenburgische Seenplatte","type":"Landkreis"},"federalState":{"key":"13","name":"Mecklenburg-Vorpommern"}},{"name":"Seeweg","postalCode":"17094","locality":"Burg Stargard","municipality":{"key":"13071021","name":"Burg Stargard, Stadt","type":"Stadt"},"district":{"key":"13071","name":"Mecklenburgische Seenplatte","type":"Landkreis"},"federalState":{"key":"13","name":"Mecklenburg-Vorpommern"}},{"name":"Siedlung","postalCode":"17094","locality":"Burg Stargard","municipality":{"key":"13071021","name":"Burg Stargard, Stadt","type":"Stadt"},"district":{"key":"13071","name":"Mecklenburgische Seenplatte","type":"Landkreis"},"federalState":{"key":"13","name":"Mecklenburg-Vorpommern"}},{"name":"Stargarder Str.","postalCode":"17094","locality":"Burg Stargard","municipality":{"key":"13071021","name":"Burg Stargard, Stadt","type":"Stadt"},"district":{"key":"13071","name":"Mecklenburgische Seenplatte","type":"Landkreis"},"federalState":{"key":"13","name":"Mecklenburg-Vorpommern"}},{"name":"Strelitzer Str.","postalCode":"17094","locality":"Burg Stargard","municipality":{"key":"13071021","name":"Burg Stargard, Stadt","type":"Stadt"},"district":{"key":"13071","name":"Mecklenburgische Seenplatte","type":"Landkreis"},"federalState":{"key":"13","name":"Mecklenburg-Vorpommern"}},{"name":"Tannenkrug","postalCode":"17094","locality":"Burg Stargard","municipality":{"key":"13071021","name":"Burg Stargard, Stadt","type":"Stadt"},"district":{"key":"13071","name":"Mecklenburgische Seenplatte","type":"Landkreis"},"federalState":{"key":"13","name":"Mecklenburg-Vorpommern"}},{"name":"Tannenweg","postalCode":"17094","locality":"Burg Stargard","municipality":{"key":"13071021","name":"Burg Stargard, Stadt","type":"Stadt"},"district":{"key":"13071","name":"Mecklenburgische Seenplatte","type":"Landkreis"},"federalState":{"key":"13","name":"Mecklenburg-Vorpommern"}},{"name":"Teschendorfer Chaussee","postalCode":"17094","locality":"Burg Stargard","municipality":{"key":"13071021","name":"Burg Stargard, Stadt","type":"Stadt"},"district":{"key":"13071","name":"Mecklenburgische Seenplatte","type":"Landkreis"},"federalState":{"key":"13","name":"Mecklenburg-Vorpommern"}},{"name":"Tuchmacherstr.","postalCode":"17094","locality":"Burg Stargard","municipality":{"key":"13071021","name":"Burg Stargard, Stadt","type":"Stadt"},"district":{"key":"13071","name":"Mecklenburgische Seenplatte","type":"Landkreis"},"federalState":{"key":"13","name":"Mecklenburg-Vorpommern"}},{"name":"Walkmüllerweg","postalCode":"17094","locality":"Burg Stargard","municipality":{"key":"13071021","name":"Burg Stargard, Stadt","type":"Stadt"},"district":{"key":"13071","name":"Mecklenburgische Seenplatte","type":"Landkreis"},"federalState":{"key":"13","name":"Mecklenburg-Vorpommern"}},{"name":"Warkenbruch","postalCode":"17094","locality":"Burg Stargard","municipality":{"key":"13071021","name":"Burg Stargard, Stadt","type":"Stadt"},"district":{"key":"13071","name":"Mecklenburgische Seenplatte","type":"Landkreis"},"federalState":{"key":"13","name":"Mecklenburg-Vorpommern"}},{"name":"Weinbergsweg","postalCode":"17094","locality":"Burg Stargard","municipality":{"key":"13071021","name":"Burg Stargard, Stadt","type":"Stadt"},"district":{"key":"13071","name":"Mecklenburgische Seenplatte","type":"Landkreis"},"federalState":{"key":"13","name":"Mecklenburg-Vorpommern"}},{"name":"Zum Born","postalCode":"17094","locality":"Burg Stargard","municipality":{"key":"13071021","name":"Burg Stargard, Stadt","type":"Stadt"},"district":{"key":"13071","name":"Mecklenburgische Seenplatte","type":"Landkreis"},"federalState":{"key":"13","name":"Mecklenburg-Vorpommern"}},{"name":"Zum Sandberg","postalCode":"17094","locality":"Burg Stargard","municipality":{"key":"13071021","name":"Burg Stargard, Stadt","type":"Stadt"},"district":{"key":"13071","name":"Mecklenburgische Seenplatte","type":"Landkreis"},"federalState":{"key":"13","name":"Mecklenburg-Vorpommern"}},{"name":"Zur Seewiese","postalCode":"17094","locality":"Burg Stargard","municipality":{"key":"13071021","name":"Burg Stargard, Stadt","type":"Stadt"},"district":{"key":"13071","name":"Mecklenburgische Seenplatte","type":"Landkreis"},"federalState":{"key":"13","name":"Mecklenburg-Vorpommern"}},]