[{"key":"10253742","name":"A la Côte","postalCode":"1782","locality":"Belfaux","commune":{"key":"2175","name":"Belfaux","shortName":"Belfaux"},"district":{"key":"1004","name":"District de la Sarine"},"canton":{"key":"10","code":"FR","name":"Fribourg / Freiburg"},"status":"Real"},{"key":"10253746","name":"Bois des Côtes","postalCode":"1782","locality":"Belfaux","commune":{"key":"2175","name":"Belfaux","shortName":"Belfaux"},"district":{"key":"1004","name":"District de la Sarine"},"canton":{"key":"10","code":"FR","name":"Fribourg / Freiburg"},"status":"Real"},{"key":"10253749","name":"Champ de Cudré","postalCode":"1782","locality":"Belfaux","commune":{"key":"2175","name":"Belfaux","shortName":"Belfaux"},"district":{"key":"1004","name":"District de la Sarine"},"canton":{"key":"10","code":"FR","name":"Fribourg / Freiburg"},"status":"Real"},{"key":"10022306","name":"Chemin de Bellevue","postalCode":"1782","locality":"Belfaux","commune":{"key":"2175","name":"Belfaux","shortName":"Belfaux"},"district":{"key":"1004","name":"District de la Sarine"},"canton":{"key":"10","code":"FR","name":"Fribourg / Freiburg"},"status":"Real"},{"key":"10087438","name":"Chemin de la Fenetta","postalCode":"1782","locality":"Belfaux","commune":{"key":"2175","name":"Belfaux","shortName":"Belfaux"},"district":{"key":"1004","name":"District de la Sarine"},"canton":{"key":"10","code":"FR","name":"Fribourg / Freiburg"},"status":"Real"},{"key":"10022307","name":"Chemin de la Ferme","postalCode":"1782","locality":"Belfaux","commune":{"key":"2175","name":"Belfaux","shortName":"Belfaux"},"district":{"key":"1004","name":"District de la Sarine"},"canton":{"key":"10","code":"FR","name":"Fribourg / Freiburg"},"status":"Real"},{"key":"10022308","name":"Chemin de la Fin","postalCode":"1782","locality":"Belfaux","commune":{"key":"2175","name":"Belfaux","shortName":"Belfaux"},"district":{"key":"1004","name":"District de la Sarine"},"canton":{"key":"10","code":"FR","name":"Fribourg / Freiburg"},"status":"Real"},{"key":"10087439","name":"Chemin de la Forge","postalCode":"1782","locality":"Belfaux","commune":{"key":"2175","name":"Belfaux","shortName":"Belfaux"},"district":{"key":"1004","name":"District de la Sarine"},"canton":{"key":"10","code":"FR","name":"Fribourg / Freiburg"},"status":"Real"},{"key":"10254019","name":"Chemin de la Fusion","postalCode":"1782","locality":"Belfaux","commune":{"key":"2175","name":"Belfaux","shortName":"Belfaux"},"district":{"key":"1004","name":"District de la Sarine"},"canton":{"key":"10","code":"FR","name":"Fribourg / Freiburg"},"status":"Real"},{"key":"10202913","name":"Chemin de la Halle","postalCode":"1782","locality":"Belfaux","commune":{"key":"2175","name":"Belfaux","shortName":"Belfaux"},"district":{"key":"1004","name":"District de la Sarine"},"canton":{"key":"10","code":"FR","name":"Fribourg / Freiburg"},"status":"Real"},{"key":"10066546","name":"Chemin de la Maison-Neuve","postalCode":"1782","locality":"Belfaux","commune":{"key":"2175","name":"Belfaux","shortName":"Belfaux"},"district":{"key":"1004","name":"District de la Sarine"},"canton":{"key":"10","code":"FR","name":"Fribourg / Freiburg"},"status":"Real"},{"key":"10076323","name":"Chemin de la Pisciculture","postalCode":"1782","locality":"Belfaux","commune":{"key":"2175","name":"Belfaux","shortName":"Belfaux"},"district":{"key":"1004","name":"District de la Sarine"},"canton":{"key":"10","code":"FR","name":"Fribourg / Freiburg"},"status":"Real"},{"key":"10022309","name":"Chemin de la Rita","postalCode":"1782","locality":"Belfaux","commune":{"key":"2175","name":"Belfaux","shortName":"Belfaux"},"district":{"key":"1004","name":"District de la Sarine"},"canton":{"key":"10","code":"FR","name":"Fribourg / Freiburg"},"status":"Real"},{"key":"10253753","name":"Chemin de l'Oratoire","postalCode":"1782","locality":"Belfaux","commune":{"key":"2175","name":"Belfaux","shortName":"Belfaux"},"district":{"key":"1004","name":"District de la Sarine"},"canton":{"key":"10","code":"FR","name":"Fribourg / Freiburg"},"status":"Real"},{"key":"10022310","name":"Chemin des Devins","postalCode":"1782","locality":"Belfaux","commune":{"key":"2175","name":"Belfaux","shortName":"Belfaux"},"district":{"key":"1004","name":"District de la Sarine"},"canton":{"key":"10","code":"FR","name":"Fribourg / Freiburg"},"status":"Real"},{"key":"10087440","name":"Chemin des Ecoliers","postalCode":"1782","locality":"Belfaux","commune":{"key":"2175","name":"Belfaux","shortName":"Belfaux"},"district":{"key":"1004","name":"District de la Sarine"},"canton":{"key":"10","code":"FR","name":"Fribourg / Freiburg"},"status":"Real"},{"key":"10022592","name":"Chemin des Grands-Esserts","postalCode":"1782","locality":"Belfaux","commune":{"key":"2175","name":"Belfaux","shortName":"Belfaux"},"district":{"key":"1004","name":"District de la Sarine"},"canton":{"key":"10","code":"FR","name":"Fribourg / Freiburg"},"status":"Real"},{"key":"10022593","name":"Chemin des Jardins","postalCode":"1782","locality":"Belfaux","commune":{"key":"2175","name":"Belfaux","shortName":"Belfaux"},"district":{"key":"1004","name":"District de la Sarine"},"canton":{"key":"10","code":"FR","name":"Fribourg / Freiburg"},"status":"Real"},{"key":"10253756","name":"Chemin du Botsalet","postalCode":"1782","locality":"Belfaux","commune":{"key":"2175","name":"Belfaux","shortName":"Belfaux"},"district":{"key":"1004","name":"District de la Sarine"},"canton":{"key":"10","code":"FR","name":"Fribourg / Freiburg"},"status":"Real"},{"key":"10253760","name":"Chemin du Brésil","postalCode":"1782","locality":"Belfaux","commune":{"key":"2175","name":"Belfaux","shortName":"Belfaux"},"district":{"key":"1004","name":"District de la Sarine"},"canton":{"key":"10","code":"FR","name":"Fribourg / Freiburg"},"status":"Real"},{"key":"10066547","name":"Chemin du Château","postalCode":"1782","locality":"Belfaux","commune":{"key":"2175","name":"Belfaux","shortName":"Belfaux"},"district":{"key":"1004","name":"District de la Sarine"},"canton":{"key":"10","code":"FR","name":"Fribourg / Freiburg"},"status":"Real"},{"key":"10022594","name":"Chemin du Jordil","postalCode":"1782","locality":"Belfaux","commune":{"key":"2175","name":"Belfaux","shortName":"Belfaux"},"district":{"key":"1004","name":"District de la Sarine"},"canton":{"key":"10","code":"FR","name":"Fribourg / Freiburg"},"status":"Real"},{"key":"10191737","name":"Chemin du Pontet","postalCode":"1782","locality":"Belfaux","commune":{"key":"2175","name":"Belfaux","shortName":"Belfaux"},"district":{"key":"1004","name":"District de la Sarine"},"canton":{"key":"10","code":"FR","name":"Fribourg / Freiburg"},"status":"Real"},{"key":"10087441","name":"Chemin du Rialet","postalCode":"1782","locality":"Belfaux","commune":{"key":"2175","name":"Belfaux","shortName":"Belfaux"},"district":{"key":"1004","name":"District de la Sarine"},"canton":{"key":"10","code":"FR","name":"Fribourg / Freiburg"},"status":"Real"},{"key":"10098252","name":"Chemin du Stand","postalCode":"1782","locality":"Belfaux","commune":{"key":"2175","name":"Belfaux","shortName":"Belfaux"},"district":{"key":"1004","name":"District de la Sarine"},"canton":{"key":"10","code":"FR","name":"Fribourg / Freiburg"},"status":"Real"},{"key":"10022595","name":"Chemin du Verger","postalCode":"1782","locality":"Belfaux","commune":{"key":"2175","name":"Belfaux","shortName":"Belfaux"},"district":{"key":"1004","name":"District de la Sarine"},"canton":{"key":"10","code":"FR","name":"Fribourg / Freiburg"},"status":"Real"},{"key":"10169060","name":"Chemin Pra Novy","postalCode":"1782","locality":"Belfaux","commune":{"key":"2175","name":"Belfaux","shortName":"Belfaux"},"district":{"key":"1004","name":"District de la Sarine"},"canton":{"key":"10","code":"FR","name":"Fribourg / Freiburg"},"status":"Real"},{"key":"10066545","name":"Chemin Saint-Paul","postalCode":"1782","locality":"Belfaux","commune":{"key":"2175","name":"Belfaux","shortName":"Belfaux"},"district":{"key":"1004","name":"District de la Sarine"},"canton":{"key":"10","code":"FR","name":"Fribourg / Freiburg"},"status":"Real"},{"key":"10247229","name":"Impasse de la Crausa","postalCode":"1782","locality":"Belfaux","commune":{"key":"2175","name":"Belfaux","shortName":"Belfaux"},"district":{"key":"1004","name":"District de la Sarine"},"canton":{"key":"10","code":"FR","name":"Fribourg / Freiburg"},"status":"Planned"},{"key":"10114686","name":"Impasse de la Fontaine","postalCode":"1782","locality":"Belfaux","commune":{"key":"2175","name":"Belfaux","shortName":"Belfaux"},"district":{"key":"1004","name":"District de la Sarine"},"canton":{"key":"10","code":"FR","name":"Fribourg / Freiburg"},"status":"Real"},{"key":"10022596","name":"Impasse de la Gravière","postalCode":"1782","locality":"Belfaux","commune":{"key":"2175","name":"Belfaux","shortName":"Belfaux"},"district":{"key":"1004","name":"District de la Sarine"},"canton":{"key":"10","code":"FR","name":"Fribourg / Freiburg"},"status":"Real"},{"key":"10145277","name":"Impasse de la Source","postalCode":"1782","locality":"Belfaux","commune":{"key":"2175","name":"Belfaux","shortName":"Belfaux"},"district":{"key":"1004","name":"District de la Sarine"},"canton":{"key":"10","code":"FR","name":"Fribourg / Freiburg"},"status":"Real"},{"key":"10163068","name":"Impasse de Montazagny","postalCode":"1782","locality":"Belfaux","commune":{"key":"2175","name":"Belfaux","shortName":"Belfaux"},"district":{"key":"1004","name":"District de la Sarine"},"canton":{"key":"10","code":"FR","name":"Fribourg / Freiburg"},"status":"Real"},{"key":"10134057","name":"Impasse des Essertines","postalCode":"1782","locality":"Belfaux","commune":{"key":"2175","name":"Belfaux","shortName":"Belfaux"},"district":{"key":"1004","name":"District de la Sarine"},"canton":{"key":"10","code":"FR","name":"Fribourg / Freiburg"},"status":"Real"},{"key":"10121468","name":"Impasse des Lilas","postalCode":"1782","locality":"Belfaux","commune":{"key":"2175","name":"Belfaux","shortName":"Belfaux"},"district":{"key":"1004","name":"District de la Sarine"},"canton":{"key":"10","code":"FR","name":"Fribourg / Freiburg"},"status":"Real"},{"key":"10145275","name":"Impasse des Tulipiers","postalCode":"1782","locality":"Belfaux","commune":{"key":"2175","name":"Belfaux","shortName":"Belfaux"},"district":{"key":"1004","name":"District de la Sarine"},"canton":{"key":"10","code":"FR","name":"Fribourg / Freiburg"},"status":"Real"},{"key":"10154457","name":"Impasse du Canal","postalCode":"1782","locality":"Belfaux","commune":{"key":"2175","name":"Belfaux","shortName":"Belfaux"},"district":{"key":"1004","name":"District de la Sarine"},"canton":{"key":"10","code":"FR","name":"Fribourg / Freiburg"},"status":"Real"},{"key":"10087443","name":"Impasse du Petit-Bois","postalCode":"1782","locality":"Belfaux","commune":{"key":"2175","name":"Belfaux","shortName":"Belfaux"},"district":{"key":"1004","name":"District de la Sarine"},"canton":{"key":"10","code":"FR","name":"Fribourg / Freiburg"},"status":"Real"},{"key":"10022597","name":"Impasse du Remblai","postalCode":"1782","locality":"Belfaux","commune":{"key":"2175","name":"Belfaux","shortName":"Belfaux"},"district":{"key":"1004","name":"District de la Sarine"},"canton":{"key":"10","code":"FR","name":"Fribourg / Freiburg"},"status":"Real"},{"key":"10102815","name":"Impasse du Tiguelet","postalCode":"1782","locality":"Belfaux","commune":{"key":"2175","name":"Belfaux","shortName":"Belfaux"},"district":{"key":"1004","name":"District de la Sarine"},"canton":{"key":"10","code":"FR","name":"Fribourg / Freiburg"},"status":"Real"},{"key":"10087442","name":"Impasse Gare CFF","postalCode":"1782","locality":"Belfaux","commune":{"key":"2175","name":"Belfaux","shortName":"Belfaux"},"district":{"key":"1004","name":"District de la Sarine"},"canton":{"key":"10","code":"FR","name":"Fribourg / Freiburg"},"status":"Real"},{"key":"10254938","name":"La Crausa","postalCode":"1782","locality":"Belfaux","commune":{"key":"2175","name":"Belfaux","shortName":"Belfaux"},"district":{"key":"1004","name":"District de la Sarine"},"canton":{"key":"10","code":"FR","name":"Fribourg / Freiburg"},"status":"Real"},{"key":"10254939","name":"La Fenetta","postalCode":"1782","locality":"Belfaux","commune":{"key":"2175","name":"Belfaux","shortName":"Belfaux"},"district":{"key":"1004","name":"District de la Sarine"},"canton":{"key":"10","code":"FR","name":"Fribourg / Freiburg"},"status":"Real"},{"key":"10254940","name":"Les Grands-Esserts","postalCode":"1782","locality":"Belfaux","commune":{"key":"2175","name":"Belfaux","shortName":"Belfaux"},"district":{"key":"1004","name":"District de la Sarine"},"canton":{"key":"10","code":"FR","name":"Fribourg / Freiburg"},"status":"Real"},{"key":"10252839","name":"Le Tiguelet","postalCode":"1782","locality":"Belfaux","commune":{"key":"2175","name":"Belfaux","shortName":"Belfaux"},"district":{"key":"1004","name":"District de la Sarine"},"canton":{"key":"10","code":"FR","name":"Fribourg / Freiburg"},"status":"Real"},{"key":"10254941","name":"Montilly","postalCode":"1782","locality":"Belfaux","commune":{"key":"2175","name":"Belfaux","shortName":"Belfaux"},"district":{"key":"1004","name":"District de la Sarine"},"canton":{"key":"10","code":"FR","name":"Fribourg / Freiburg"},"status":"Real"},{"key":"10022598","name":"Place de la Gare GFM","postalCode":"1782","locality":"Belfaux","commune":{"key":"2175","name":"Belfaux","shortName":"Belfaux"},"district":{"key":"1004","name":"District de la Sarine"},"canton":{"key":"10","code":"FR","name":"Fribourg / Freiburg"},"status":"Real"},{"key":"10159328","name":"Route Champ Bonjard","postalCode":"1782","locality":"Belfaux","commune":{"key":"2175","name":"Belfaux","shortName":"Belfaux"},"district":{"key":"1004","name":"District de la Sarine"},"canton":{"key":"10","code":"FR","name":"Fribourg / Freiburg"},"status":"Real"},{"key":"10062151","name":"Route d'Autafond","postalCode":"1782","locality":"Belfaux","commune":{"key":"2175","name":"Belfaux","shortName":"Belfaux"},"district":{"key":"1004","name":"District de la Sarine"},"canton":{"key":"10","code":"FR","name":"Fribourg / Freiburg"},"status":"Real"},{"key":"10022601","name":"Route de Chésopelloz","postalCode":"1782","locality":"Belfaux","commune":{"key":"2175","name":"Belfaux","shortName":"Belfaux"},"district":{"key":"1004","name":"District de la Sarine"},"canton":{"key":"10","code":"FR","name":"Fribourg / Freiburg"},"status":"Real"},{"key":"10191733","name":"Route de Combes","postalCode":"1782","locality":"Belfaux","commune":{"key":"2175","name":"Belfaux","shortName":"Belfaux"},"district":{"key":"1004","name":"District de la Sarine"},"canton":{"key":"10","code":"FR","name":"Fribourg / Freiburg"},"status":"Real"},{"key":"10087445","name":"Route de Corminboeuf","postalCode":"1782","locality":"Belfaux","commune":{"key":"2175","name":"Belfaux","shortName":"Belfaux"},"district":{"key":"1004","name":"District de la Sarine"},"canton":{"key":"10","code":"FR","name":"Fribourg / Freiburg"},"status":"Real"},{"key":"10155485","name":"Route de Cudré","postalCode":"1782","locality":"Belfaux","commune":{"key":"2175","name":"Belfaux","shortName":"Belfaux"},"district":{"key":"1004","name":"District de la Sarine"},"canton":{"key":"10","code":"FR","name":"Fribourg / Freiburg"},"status":"Real"},{"key":"10022602","name":"Route de Cutterwil","postalCode":"1782","locality":"Belfaux","commune":{"key":"2175","name":"Belfaux","shortName":"Belfaux"},"district":{"key":"1004","name":"District de la Sarine"},"canton":{"key":"10","code":"FR","name":"Fribourg / Freiburg"},"status":"Real"},{"key":"10022603","name":"Route de Formangueires","postalCode":"1782","locality":"Belfaux","commune":{"key":"2175","name":"Belfaux","shortName":"Belfaux"},"district":{"key":"1004","name":"District de la Sarine"},"canton":{"key":"10","code":"FR","name":"Fribourg / Freiburg"},"status":"Real"},{"key":"10181490","name":"Route de Fribourg","postalCode":"1782","locality":"Belfaux","commune":{"key":"2175","name":"Belfaux","shortName":"Belfaux"},"district":{"key":"1004","name":"District de la Sarine"},"canton":{"key":"10","code":"FR","name":"Fribourg / Freiburg"},"status":"Real"},{"key":"10022606","name":"Route de la Barretta","postalCode":"1782","locality":"Belfaux","commune":{"key":"2175","name":"Belfaux","shortName":"Belfaux"},"district":{"key":"1004","name":"District de la Sarine"},"canton":{"key":"10","code":"FR","name":"Fribourg / Freiburg"},"status":"Real"},{"key":"10144793","name":"Route de la Combetta","postalCode":"1782","locality":"Belfaux","commune":{"key":"2175","name":"Belfaux","shortName":"Belfaux"},"district":{"key":"1004","name":"District de la Sarine"},"canton":{"key":"10","code":"FR","name":"Fribourg / Freiburg"},"status":"Real"},{"key":"10022607","name":"Route de la Rosière","postalCode":"1782","locality":"Belfaux","commune":{"key":"2175","name":"Belfaux","shortName":"Belfaux"},"district":{"key":"1004","name":"District de la Sarine"},"canton":{"key":"10","code":"FR","name":"Fribourg / Freiburg"},"status":"Real"},{"key":"10252844","name":"Route de la Sonnaz","postalCode":"1782","locality":"Belfaux","commune":{"key":"2175","name":"Belfaux","shortName":"Belfaux"},"district":{"key":"1004","name":"District de la Sarine"},"canton":{"key":"10","code":"FR","name":"Fribourg / Freiburg"},"status":"Real"},{"key":"10087447","name":"Route de l'Eglise","postalCode":"1782","locality":"Belfaux","commune":{"key":"2175","name":"Belfaux","shortName":"Belfaux"},"district":{"key":"1004","name":"District de la Sarine"},"canton":{"key":"10","code":"FR","name":"Fribourg / Freiburg"},"status":"Real"},{"key":"10087446","name":"Route de Lossy","postalCode":"1782","locality":"Belfaux","commune":{"key":"2175","name":"Belfaux","shortName":"Belfaux"},"district":{"key":"1004","name":"District de la Sarine"},"canton":{"key":"10","code":"FR","name":"Fribourg / Freiburg"},"status":"Real"},{"key":"10022604","name":"Route de Misery","postalCode":"1782","locality":"Belfaux","commune":{"key":"2175","name":"Belfaux","shortName":"Belfaux"},"district":{"key":"1004","name":"District de la Sarine"},"canton":{"key":"10","code":"FR","name":"Fribourg / Freiburg"},"status":"Real"},{"key":"10136252","name":"Route des Noisetiers","postalCode":"1782","locality":"Belfaux","commune":{"key":"2175","name":"Belfaux","shortName":"Belfaux"},"district":{"key":"1004","name":"District de la Sarine"},"canton":{"key":"10","code":"FR","name":"Fribourg / Freiburg"},"status":"Real"},{"key":"10087448","name":"Route des Prés","postalCode":"1782","locality":"Belfaux","commune":{"key":"2175","name":"Belfaux","shortName":"Belfaux"},"district":{"key":"1004","name":"District de la Sarine"},"canton":{"key":"10","code":"FR","name":"Fribourg / Freiburg"},"status":"Real"},{"key":"10121469","name":"Route des Vuarines","postalCode":"1782","locality":"Belfaux","commune":{"key":"2175","name":"Belfaux","shortName":"Belfaux"},"district":{"key":"1004","name":"District de la Sarine"},"canton":{"key":"10","code":"FR","name":"Fribourg / Freiburg"},"status":"Real"},{"key":"10022605","name":"Route de Verchières","postalCode":"1782","locality":"Belfaux","commune":{"key":"2175","name":"Belfaux","shortName":"Belfaux"},"district":{"key":"1004","name":"District de la Sarine"},"canton":{"key":"10","code":"FR","name":"Fribourg / Freiburg"},"status":"Real"},{"key":"10098253","name":"Route du Bugnon","postalCode":"1782","locality":"Belfaux","commune":{"key":"2175","name":"Belfaux","shortName":"Belfaux"},"district":{"key":"1004","name":"District de la Sarine"},"canton":{"key":"10","code":"FR","name":"Fribourg / Freiburg"},"status":"Real"},{"key":"10087449","name":"Route du Centre","postalCode":"1782","locality":"Belfaux","commune":{"key":"2175","name":"Belfaux","shortName":"Belfaux"},"district":{"key":"1004","name":"District de la Sarine"},"canton":{"key":"10","code":"FR","name":"Fribourg / Freiburg"},"status":"Real"},{"key":"10022608","name":"Route du Châno","postalCode":"1782","locality":"Belfaux","commune":{"key":"2175","name":"Belfaux","shortName":"Belfaux"},"district":{"key":"1004","name":"District de la Sarine"},"canton":{"key":"10","code":"FR","name":"Fribourg / Freiburg"},"status":"Real"},{"key":"10098254","name":"Route du Moulin","postalCode":"1782","locality":"Belfaux","commune":{"key":"2175","name":"Belfaux","shortName":"Belfaux"},"district":{"key":"1004","name":"District de la Sarine"},"canton":{"key":"10","code":"FR","name":"Fribourg / Freiburg"},"status":"Real"},{"key":"10087444","name":"Route En-Verdau","postalCode":"1782","locality":"Belfaux","commune":{"key":"2175","name":"Belfaux","shortName":"Belfaux"},"district":{"key":"1004","name":"District de la Sarine"},"canton":{"key":"10","code":"FR","name":"Fribourg / Freiburg"},"status":"Real"},{"key":"10022599","name":"Route Pré-St-Maurice","postalCode":"1782","locality":"Belfaux","commune":{"key":"2175","name":"Belfaux","shortName":"Belfaux"},"district":{"key":"1004","name":"District de la Sarine"},"canton":{"key":"10","code":"FR","name":"Fribourg / Freiburg"},"status":"Real"},{"key":"10022600","name":"Route Sur-le-Ru","postalCode":"1782","locality":"Belfaux","commune":{"key":"2175","name":"Belfaux","shortName":"Belfaux"},"district":{"key":"1004","name":"District de la Sarine"},"canton":{"key":"10","code":"FR","name":"Fribourg / Freiburg"},"status":"Real"},]