[{"name":"Altwiese","postalCode":"54316","locality":"Ollmuth","municipality":{"key":"07235100","name":"Ollmuth","type":"Kreisangehörige_Gemeinde"},"district":{"key":"07235","name":"Trier-Saarburg","type":"Landkreis"},"federalState":{"key":"07","name":"Rheinland-Pfalz"}},{"name":"Boorwiese","postalCode":"54316","locality":"Ollmuth","municipality":{"key":"07235100","name":"Ollmuth","type":"Kreisangehörige_Gemeinde"},"district":{"key":"07235","name":"Trier-Saarburg","type":"Landkreis"},"federalState":{"key":"07","name":"Rheinland-Pfalz"}},{"name":"Brunnenstr.","postalCode":"54316","locality":"Ollmuth","municipality":{"key":"07235100","name":"Ollmuth","type":"Kreisangehörige_Gemeinde"},"district":{"key":"07235","name":"Trier-Saarburg","type":"Landkreis"},"federalState":{"key":"07","name":"Rheinland-Pfalz"}},{"name":"Hauptstr.","postalCode":"54316","locality":"Ollmuth","municipality":{"key":"07235100","name":"Ollmuth","type":"Kreisangehörige_Gemeinde"},"district":{"key":"07235","name":"Trier-Saarburg","type":"Landkreis"},"federalState":{"key":"07","name":"Rheinland-Pfalz"}},{"name":"Im Döller","postalCode":"54316","locality":"Ollmuth","municipality":{"key":"07235100","name":"Ollmuth","type":"Kreisangehörige_Gemeinde"},"district":{"key":"07235","name":"Trier-Saarburg","type":"Landkreis"},"federalState":{"key":"07","name":"Rheinland-Pfalz"}},{"name":"Kapellenstr.","postalCode":"54316","locality":"Ollmuth","municipality":{"key":"07235100","name":"Ollmuth","type":"Kreisangehörige_Gemeinde"},"district":{"key":"07235","name":"Trier-Saarburg","type":"Landkreis"},"federalState":{"key":"07","name":"Rheinland-Pfalz"}},{"name":"Sehrer Ritsch","postalCode":"54316","locality":"Ollmuth","municipality":{"key":"07235100","name":"Ollmuth","type":"Kreisangehörige_Gemeinde"},"district":{"key":"07235","name":"Trier-Saarburg","type":"Landkreis"},"federalState":{"key":"07","name":"Rheinland-Pfalz"}},{"name":"Zum Ruwertal","postalCode":"54316","locality":"Ollmuth","municipality":{"key":"07235100","name":"Ollmuth","type":"Kreisangehörige_Gemeinde"},"district":{"key":"07235","name":"Trier-Saarburg","type":"Landkreis"},"federalState":{"key":"07","name":"Rheinland-Pfalz"}},{"name":"Zum Thomasberg","postalCode":"54316","locality":"Ollmuth","municipality":{"key":"07235100","name":"Ollmuth","type":"Kreisangehörige_Gemeinde"},"district":{"key":"07235","name":"Trier-Saarburg","type":"Landkreis"},"federalState":{"key":"07","name":"Rheinland-Pfalz"}},]