[{"name":"Adlerweg","postalCode":"09474","locality":"Crottendorf","municipality":{"key":"14521130","name":"Crottendorf","type":"Kreisangehörige_Gemeinde"},"district":{"key":"14521","name":"Erzgebirgskreis","type":"Landkreis"},"federalState":{"key":"14","name":"Sachsen"}},{"name":"Ahornweg","postalCode":"97228","locality":"Rottendorf","municipality":{"key":"09679185","name":"Rottendorf","type":"Kreisangehörige_Gemeinde"},"district":{"key":"09679","name":"Würzburg","type":"Landkreis"},"federalState":{"key":"09","name":"Bayern"}},{"name":"Alte Dorfstr.","postalCode":"09474","locality":"Crottendorf","municipality":{"key":"14521130","name":"Crottendorf","type":"Kreisangehörige_Gemeinde"},"district":{"key":"14521","name":"Erzgebirgskreis","type":"Landkreis"},"federalState":{"key":"14","name":"Sachsen"}},{"name":"Alter Friedhof","postalCode":"97228","locality":"Rottendorf","municipality":{"key":"09679185","name":"Rottendorf","type":"Kreisangehörige_Gemeinde"},"district":{"key":"09679","name":"Würzburg","type":"Landkreis"},"federalState":{"key":"09","name":"Bayern"}},{"name":"Alte Scheibenberger Str.","postalCode":"09474","locality":"Crottendorf","municipality":{"key":"14521130","name":"Crottendorf","type":"Kreisangehörige_Gemeinde"},"district":{"key":"14521","name":"Erzgebirgskreis","type":"Landkreis"},"federalState":{"key":"14","name":"Sachsen"}},{"name":"Am Bremig","postalCode":"97228","locality":"Rottendorf","municipality":{"key":"09679185","name":"Rottendorf","type":"Kreisangehörige_Gemeinde"},"district":{"key":"09679","name":"Würzburg","type":"Landkreis"},"federalState":{"key":"09","name":"Bayern"}},{"name":"Am Dreschplatz","postalCode":"97228","locality":"Rottendorf","municipality":{"key":"09679185","name":"Rottendorf","type":"Kreisangehörige_Gemeinde"},"district":{"key":"09679","name":"Würzburg","type":"Landkreis"},"federalState":{"key":"09","name":"Bayern"}},{"name":"Am Gewerbegebiet","postalCode":"09474","locality":"Crottendorf","municipality":{"key":"14521130","name":"Crottendorf","type":"Kreisangehörige_Gemeinde"},"district":{"key":"14521","name":"Erzgebirgskreis","type":"Landkreis"},"federalState":{"key":"14","name":"Sachsen"}},{"name":"Am Graben","postalCode":"09474","locality":"Crottendorf","municipality":{"key":"14521130","name":"Crottendorf","type":"Kreisangehörige_Gemeinde"},"district":{"key":"14521","name":"Erzgebirgskreis","type":"Landkreis"},"federalState":{"key":"14","name":"Sachsen"}},{"name":"Am Grasholz","postalCode":"97228","locality":"Rottendorf","municipality":{"key":"09679185","name":"Rottendorf","type":"Kreisangehörige_Gemeinde"},"district":{"key":"09679","name":"Würzburg","type":"Landkreis"},"federalState":{"key":"09","name":"Bayern"}},{"name":"Am Kriegerdenkmal","postalCode":"97228","locality":"Rottendorf","municipality":{"key":"09679185","name":"Rottendorf","type":"Kreisangehörige_Gemeinde"},"district":{"key":"09679","name":"Würzburg","type":"Landkreis"},"federalState":{"key":"09","name":"Bayern"}},{"name":"Am Marienheim","postalCode":"97228","locality":"Rottendorf","municipality":{"key":"09679185","name":"Rottendorf","type":"Kreisangehörige_Gemeinde"},"district":{"key":"09679","name":"Würzburg","type":"Landkreis"},"federalState":{"key":"09","name":"Bayern"}},{"name":"Am Pilzberg","postalCode":"97228","locality":"Rottendorf","municipality":{"key":"09679185","name":"Rottendorf","type":"Kreisangehörige_Gemeinde"},"district":{"key":"09679","name":"Würzburg","type":"Landkreis"},"federalState":{"key":"09","name":"Bayern"}},{"name":"Am Rathaus","postalCode":"97228","locality":"Rottendorf","municipality":{"key":"09679185","name":"Rottendorf","type":"Kreisangehörige_Gemeinde"},"district":{"key":"09679","name":"Würzburg","type":"Landkreis"},"federalState":{"key":"09","name":"Bayern"}},{"name":"Am Reißbach","postalCode":"97228","locality":"Rottendorf","municipality":{"key":"09679185","name":"Rottendorf","type":"Kreisangehörige_Gemeinde"},"district":{"key":"09679","name":"Würzburg","type":"Landkreis"},"federalState":{"key":"09","name":"Bayern"}},{"name":"Am Sand","postalCode":"97228","locality":"Rottendorf","municipality":{"key":"09679185","name":"Rottendorf","type":"Kreisangehörige_Gemeinde"},"district":{"key":"09679","name":"Würzburg","type":"Landkreis"},"federalState":{"key":"09","name":"Bayern"}},{"name":"Am Schwaigerskeller","postalCode":"97228","locality":"Rottendorf","municipality":{"key":"09679185","name":"Rottendorf","type":"Kreisangehörige_Gemeinde"},"district":{"key":"09679","name":"Würzburg","type":"Landkreis"},"federalState":{"key":"09","name":"Bayern"}},{"name":"Am Seelein","postalCode":"97228","locality":"Rottendorf","municipality":{"key":"09679185","name":"Rottendorf","type":"Kreisangehörige_Gemeinde"},"district":{"key":"09679","name":"Würzburg","type":"Landkreis"},"federalState":{"key":"09","name":"Bayern"}},{"name":"Amselweg","postalCode":"97228","locality":"Rottendorf","municipality":{"key":"09679185","name":"Rottendorf","type":"Kreisangehörige_Gemeinde"},"district":{"key":"09679","name":"Würzburg","type":"Landkreis"},"federalState":{"key":"09","name":"Bayern"}},{"name":"Am Steinbruch","postalCode":"97228","locality":"Rottendorf","municipality":{"key":"09679185","name":"Rottendorf","type":"Kreisangehörige_Gemeinde"},"district":{"key":"09679","name":"Würzburg","type":"Landkreis"},"federalState":{"key":"09","name":"Bayern"}},{"name":"Am Steinhügel","postalCode":"09474","locality":"Crottendorf","municipality":{"key":"14521130","name":"Crottendorf","type":"Kreisangehörige_Gemeinde"},"district":{"key":"14521","name":"Erzgebirgskreis","type":"Landkreis"},"federalState":{"key":"14","name":"Sachsen"}},{"name":"An der Arztpraxis","postalCode":"09474","locality":"Crottendorf","municipality":{"key":"14521130","name":"Crottendorf","type":"Kreisangehörige_Gemeinde"},"district":{"key":"14521","name":"Erzgebirgskreis","type":"Landkreis"},"federalState":{"key":"14","name":"Sachsen"}},{"name":"An der Stadtmarter","postalCode":"97228","locality":"Rottendorf","municipality":{"key":"09679185","name":"Rottendorf","type":"Kreisangehörige_Gemeinde"},"district":{"key":"09679","name":"Würzburg","type":"Landkreis"},"federalState":{"key":"09","name":"Bayern"}},{"name":"Anemonenstr.","postalCode":"97228","locality":"Rottendorf","municipality":{"key":"09679185","name":"Rottendorf","type":"Kreisangehörige_Gemeinde"},"district":{"key":"09679","name":"Würzburg","type":"Landkreis"},"federalState":{"key":"09","name":"Bayern"}},{"name":"Annaberger Str.","postalCode":"09474","locality":"Crottendorf","municipality":{"key":"14521130","name":"Crottendorf","type":"Kreisangehörige_Gemeinde"},"district":{"key":"14521","name":"Erzgebirgskreis","type":"Landkreis"},"federalState":{"key":"14","name":"Sachsen"}},{"name":"Armgasse","postalCode":"97228","locality":"Rottendorf","municipality":{"key":"09679185","name":"Rottendorf","type":"Kreisangehörige_Gemeinde"},"district":{"key":"09679","name":"Würzburg","type":"Landkreis"},"federalState":{"key":"09","name":"Bayern"}},{"name":"Asternweg","postalCode":"97228","locality":"Rottendorf","municipality":{"key":"09679185","name":"Rottendorf","type":"Kreisangehörige_Gemeinde"},"district":{"key":"09679","name":"Würzburg","type":"Landkreis"},"federalState":{"key":"09","name":"Bayern"}},{"name":"August-Bebel-Str.","postalCode":"09474","locality":"Crottendorf","municipality":{"key":"14521130","name":"Crottendorf","type":"Kreisangehörige_Gemeinde"},"district":{"key":"14521","name":"Erzgebirgskreis","type":"Landkreis"},"federalState":{"key":"14","name":"Sachsen"}},{"name":"Bäckenluke","postalCode":"97228","locality":"Rottendorf","municipality":{"key":"09679185","name":"Rottendorf","type":"Kreisangehörige_Gemeinde"},"district":{"key":"09679","name":"Würzburg","type":"Landkreis"},"federalState":{"key":"09","name":"Bayern"}},{"name":"Bahnhofstr.","postalCode":"09474","locality":"Crottendorf","municipality":{"key":"14521130","name":"Crottendorf","type":"Kreisangehörige_Gemeinde"},"district":{"key":"14521","name":"Erzgebirgskreis","type":"Landkreis"},"federalState":{"key":"14","name":"Sachsen"}},{"name":"Bahnhofstr.","postalCode":"97228","locality":"Rottendorf","municipality":{"key":"09679185","name":"Rottendorf","type":"Kreisangehörige_Gemeinde"},"district":{"key":"09679","name":"Würzburg","type":"Landkreis"},"federalState":{"key":"09","name":"Bayern"}},{"name":"Bergstr.","postalCode":"09474","locality":"Crottendorf","municipality":{"key":"14521130","name":"Crottendorf","type":"Kreisangehörige_Gemeinde"},"district":{"key":"14521","name":"Erzgebirgskreis","type":"Landkreis"},"federalState":{"key":"14","name":"Sachsen"}},{"name":"Birkenstr.","postalCode":"97228","locality":"Rottendorf","municipality":{"key":"09679185","name":"Rottendorf","type":"Kreisangehörige_Gemeinde"},"district":{"key":"09679","name":"Würzburg","type":"Landkreis"},"federalState":{"key":"09","name":"Bayern"}},{"name":"Bogenweg","postalCode":"09474","locality":"Crottendorf","municipality":{"key":"14521130","name":"Crottendorf","type":"Kreisangehörige_Gemeinde"},"district":{"key":"14521","name":"Erzgebirgskreis","type":"Landkreis"},"federalState":{"key":"14","name":"Sachsen"}},{"name":"Brandtweg","postalCode":"09474","locality":"Crottendorf","municipality":{"key":"14521130","name":"Crottendorf","type":"Kreisangehörige_Gemeinde"},"district":{"key":"14521","name":"Erzgebirgskreis","type":"Landkreis"},"federalState":{"key":"14","name":"Sachsen"}},{"name":"Brückenweg","postalCode":"09474","locality":"Crottendorf","municipality":{"key":"14521130","name":"Crottendorf","type":"Kreisangehörige_Gemeinde"},"district":{"key":"14521","name":"Erzgebirgskreis","type":"Landkreis"},"federalState":{"key":"14","name":"Sachsen"}},{"name":"Brunnengasse","postalCode":"97228","locality":"Rottendorf","municipality":{"key":"09679185","name":"Rottendorf","type":"Kreisangehörige_Gemeinde"},"district":{"key":"09679","name":"Würzburg","type":"Landkreis"},"federalState":{"key":"09","name":"Bayern"}},{"name":"Brunnenweg","postalCode":"09474","locality":"Crottendorf","municipality":{"key":"14521130","name":"Crottendorf","type":"Kreisangehörige_Gemeinde"},"district":{"key":"14521","name":"Erzgebirgskreis","type":"Landkreis"},"federalState":{"key":"14","name":"Sachsen"}},{"name":"Buchenstr.","postalCode":"97228","locality":"Rottendorf","municipality":{"key":"09679185","name":"Rottendorf","type":"Kreisangehörige_Gemeinde"},"district":{"key":"09679","name":"Würzburg","type":"Landkreis"},"federalState":{"key":"09","name":"Bayern"}},{"name":"Bürgermeister-Albert-Str.","postalCode":"97228","locality":"Rottendorf","municipality":{"key":"09679185","name":"Rottendorf","type":"Kreisangehörige_Gemeinde"},"district":{"key":"09679","name":"Würzburg","type":"Landkreis"},"federalState":{"key":"09","name":"Bayern"}},{"name":"Burggasse","postalCode":"97228","locality":"Rottendorf","municipality":{"key":"09679185","name":"Rottendorf","type":"Kreisangehörige_Gemeinde"},"district":{"key":"09679","name":"Würzburg","type":"Landkreis"},"federalState":{"key":"09","name":"Bayern"}},{"name":"Carl-Schnabel-Str.","postalCode":"97228","locality":"Rottendorf","municipality":{"key":"09679185","name":"Rottendorf","type":"Kreisangehörige_Gemeinde"},"district":{"key":"09679","name":"Würzburg","type":"Landkreis"},"federalState":{"key":"09","name":"Bayern"}},{"name":"Cranzahler Str.","postalCode":"09474","locality":"Crottendorf","municipality":{"key":"14521130","name":"Crottendorf","type":"Kreisangehörige_Gemeinde"},"district":{"key":"14521","name":"Erzgebirgskreis","type":"Landkreis"},"federalState":{"key":"14","name":"Sachsen"}},{"name":"Cranzahler Weg","postalCode":"09474","locality":"Crottendorf","municipality":{"key":"14521130","name":"Crottendorf","type":"Kreisangehörige_Gemeinde"},"district":{"key":"14521","name":"Erzgebirgskreis","type":"Landkreis"},"federalState":{"key":"14","name":"Sachsen"}},{"name":"Dahlienstr.","postalCode":"97228","locality":"Rottendorf","municipality":{"key":"09679185","name":"Rottendorf","type":"Kreisangehörige_Gemeinde"},"district":{"key":"09679","name":"Würzburg","type":"Landkreis"},"federalState":{"key":"09","name":"Bayern"}},{"name":"Dammweg","postalCode":"09474","locality":"Crottendorf","municipality":{"key":"14521130","name":"Crottendorf","type":"Kreisangehörige_Gemeinde"},"district":{"key":"14521","name":"Erzgebirgskreis","type":"Landkreis"},"federalState":{"key":"14","name":"Sachsen"}},{"name":"Dreiweg","postalCode":"09474","locality":"Crottendorf","municipality":{"key":"14521130","name":"Crottendorf","type":"Kreisangehörige_Gemeinde"},"district":{"key":"14521","name":"Erzgebirgskreis","type":"Landkreis"},"federalState":{"key":"14","name":"Sachsen"}},{"name":"Dr.-Otto-Nuschke-Str.","postalCode":"09474","locality":"Crottendorf","municipality":{"key":"14521130","name":"Crottendorf","type":"Kreisangehörige_Gemeinde"},"district":{"key":"14521","name":"Erzgebirgskreis","type":"Landkreis"},"federalState":{"key":"14","name":"Sachsen"}},{"name":"Dr.-Wilhelm-Külz-Str.","postalCode":"09474","locality":"Crottendorf","municipality":{"key":"14521130","name":"Crottendorf","type":"Kreisangehörige_Gemeinde"},"district":{"key":"14521","name":"Erzgebirgskreis","type":"Landkreis"},"federalState":{"key":"14","name":"Sachsen"}},{"name":"Dürerstr.","postalCode":"97228","locality":"Rottendorf","municipality":{"key":"09679185","name":"Rottendorf","type":"Kreisangehörige_Gemeinde"},"district":{"key":"09679","name":"Würzburg","type":"Landkreis"},"federalState":{"key":"09","name":"Bayern"}},{"name":"Edekastr.","postalCode":"97228","locality":"Rottendorf","municipality":{"key":"09679185","name":"Rottendorf","type":"Kreisangehörige_Gemeinde"},"district":{"key":"09679","name":"Würzburg","type":"Landkreis"},"federalState":{"key":"09","name":"Bayern"}},{"name":"Eichenstr.","postalCode":"97228","locality":"Rottendorf","municipality":{"key":"09679185","name":"Rottendorf","type":"Kreisangehörige_Gemeinde"},"district":{"key":"09679","name":"Würzburg","type":"Landkreis"},"federalState":{"key":"09","name":"Bayern"}},{"name":"Eisengrubenweg","postalCode":"09474","locality":"Crottendorf","municipality":{"key":"14521130","name":"Crottendorf","type":"Kreisangehörige_Gemeinde"},"district":{"key":"14521","name":"Erzgebirgskreis","type":"Landkreis"},"federalState":{"key":"14","name":"Sachsen"}},{"name":"Erlenweg","postalCode":"97228","locality":"Rottendorf","municipality":{"key":"09679185","name":"Rottendorf","type":"Kreisangehörige_Gemeinde"},"district":{"key":"09679","name":"Würzburg","type":"Landkreis"},"federalState":{"key":"09","name":"Bayern"}},{"name":"Ernst-Thälmann-Str.","postalCode":"09474","locality":"Crottendorf","municipality":{"key":"14521130","name":"Crottendorf","type":"Kreisangehörige_Gemeinde"},"district":{"key":"14521","name":"Erzgebirgskreis","type":"Landkreis"},"federalState":{"key":"14","name":"Sachsen"}},{"name":"Estenfelder Str.","postalCode":"97228","locality":"Rottendorf","municipality":{"key":"09679185","name":"Rottendorf","type":"Kreisangehörige_Gemeinde"},"district":{"key":"09679","name":"Würzburg","type":"Landkreis"},"federalState":{"key":"09","name":"Bayern"}},{"name":"Fabrikstr.","postalCode":"97228","locality":"Rottendorf","municipality":{"key":"09679185","name":"Rottendorf","type":"Kreisangehörige_Gemeinde"},"district":{"key":"09679","name":"Würzburg","type":"Landkreis"},"federalState":{"key":"09","name":"Bayern"}},{"name":"Fichtenstr.","postalCode":"97228","locality":"Rottendorf","municipality":{"key":"09679185","name":"Rottendorf","type":"Kreisangehörige_Gemeinde"},"district":{"key":"09679","name":"Würzburg","type":"Landkreis"},"federalState":{"key":"09","name":"Bayern"}},{"name":"Finkenweg","postalCode":"97228","locality":"Rottendorf","municipality":{"key":"09679185","name":"Rottendorf","type":"Kreisangehörige_Gemeinde"},"district":{"key":"09679","name":"Würzburg","type":"Landkreis"},"federalState":{"key":"09","name":"Bayern"}},{"name":"Firstenweg","postalCode":"09474","locality":"Crottendorf","municipality":{"key":"14521130","name":"Crottendorf","type":"Kreisangehörige_Gemeinde"},"district":{"key":"14521","name":"Erzgebirgskreis","type":"Landkreis"},"federalState":{"key":"14","name":"Sachsen"}},{"name":"Fliederweg","postalCode":"97228","locality":"Rottendorf","municipality":{"key":"09679185","name":"Rottendorf","type":"Kreisangehörige_Gemeinde"},"district":{"key":"09679","name":"Würzburg","type":"Landkreis"},"federalState":{"key":"09","name":"Bayern"}},{"name":"Forsthausweg","postalCode":"09474","locality":"Crottendorf","municipality":{"key":"14521130","name":"Crottendorf","type":"Kreisangehörige_Gemeinde"},"district":{"key":"14521","name":"Erzgebirgskreis","type":"Landkreis"},"federalState":{"key":"14","name":"Sachsen"}},{"name":"Frankenstr.","postalCode":"97228","locality":"Rottendorf","municipality":{"key":"09679185","name":"Rottendorf","type":"Kreisangehörige_Gemeinde"},"district":{"key":"09679","name":"Würzburg","type":"Landkreis"},"federalState":{"key":"09","name":"Bayern"}},{"name":"Friedhofstr.","postalCode":"97228","locality":"Rottendorf","municipality":{"key":"09679185","name":"Rottendorf","type":"Kreisangehörige_Gemeinde"},"district":{"key":"09679","name":"Würzburg","type":"Landkreis"},"federalState":{"key":"09","name":"Bayern"}},{"name":"Friedrich-Ludwig-Jahn-Str.","postalCode":"09474","locality":"Crottendorf","municipality":{"key":"14521130","name":"Crottendorf","type":"Kreisangehörige_Gemeinde"},"district":{"key":"14521","name":"Erzgebirgskreis","type":"Landkreis"},"federalState":{"key":"14","name":"Sachsen"}},{"name":"Fritz-Hesse-Gasse","postalCode":"09474","locality":"Crottendorf","municipality":{"key":"14521130","name":"Crottendorf","type":"Kreisangehörige_Gemeinde"},"district":{"key":"14521","name":"Erzgebirgskreis","type":"Landkreis"},"federalState":{"key":"14","name":"Sachsen"}},{"name":"Froschgasse","postalCode":"97228","locality":"Rottendorf","municipality":{"key":"09679185","name":"Rottendorf","type":"Kreisangehörige_Gemeinde"},"district":{"key":"09679","name":"Würzburg","type":"Landkreis"},"federalState":{"key":"09","name":"Bayern"}},{"name":"Fuchsleite","postalCode":"09474","locality":"Crottendorf","municipality":{"key":"14521130","name":"Crottendorf","type":"Kreisangehörige_Gemeinde"},"district":{"key":"14521","name":"Erzgebirgskreis","type":"Landkreis"},"federalState":{"key":"14","name":"Sachsen"}},{"name":"Gartenstr.","postalCode":"09474","locality":"Crottendorf","municipality":{"key":"14521130","name":"Crottendorf","type":"Kreisangehörige_Gemeinde"},"district":{"key":"14521","name":"Erzgebirgskreis","type":"Landkreis"},"federalState":{"key":"14","name":"Sachsen"}},{"name":"Gartenstr.","postalCode":"97228","locality":"Rottendorf","municipality":{"key":"09679185","name":"Rottendorf","type":"Kreisangehörige_Gemeinde"},"district":{"key":"09679","name":"Würzburg","type":"Landkreis"},"federalState":{"key":"09","name":"Bayern"}},{"name":"Gasanstaltstr.","postalCode":"09474","locality":"Crottendorf","municipality":{"key":"14521130","name":"Crottendorf","type":"Kreisangehörige_Gemeinde"},"district":{"key":"14521","name":"Erzgebirgskreis","type":"Landkreis"},"federalState":{"key":"14","name":"Sachsen"}},{"name":"Geranienweg","postalCode":"97228","locality":"Rottendorf","municipality":{"key":"09679185","name":"Rottendorf","type":"Kreisangehörige_Gemeinde"},"district":{"key":"09679","name":"Würzburg","type":"Landkreis"},"federalState":{"key":"09","name":"Bayern"}},{"name":"Gerichtsstr.","postalCode":"09474","locality":"Crottendorf","municipality":{"key":"14521130","name":"Crottendorf","type":"Kreisangehörige_Gemeinde"},"district":{"key":"14521","name":"Erzgebirgskreis","type":"Landkreis"},"federalState":{"key":"14","name":"Sachsen"}},{"name":"Glashüttenstr.","postalCode":"09474","locality":"Crottendorf","municipality":{"key":"14521130","name":"Crottendorf","type":"Kreisangehörige_Gemeinde"},"district":{"key":"14521","name":"Erzgebirgskreis","type":"Landkreis"},"federalState":{"key":"14","name":"Sachsen"}},{"name":"Goethestr.","postalCode":"09474","locality":"Crottendorf","municipality":{"key":"14521130","name":"Crottendorf","type":"Kreisangehörige_Gemeinde"},"district":{"key":"14521","name":"Erzgebirgskreis","type":"Landkreis"},"federalState":{"key":"14","name":"Sachsen"}},{"name":"Goethestr.","postalCode":"97228","locality":"Rottendorf","municipality":{"key":"09679185","name":"Rottendorf","type":"Kreisangehörige_Gemeinde"},"district":{"key":"09679","name":"Würzburg","type":"Landkreis"},"federalState":{"key":"09","name":"Bayern"}},{"name":"Grasholzstr.","postalCode":"97228","locality":"Rottendorf","municipality":{"key":"09679185","name":"Rottendorf","type":"Kreisangehörige_Gemeinde"},"district":{"key":"09679","name":"Würzburg","type":"Landkreis"},"federalState":{"key":"09","name":"Bayern"}},{"name":"Große Mittweidaer Str.","postalCode":"09474","locality":"Crottendorf","municipality":{"key":"14521130","name":"Crottendorf","type":"Kreisangehörige_Gemeinde"},"district":{"key":"14521","name":"Erzgebirgskreis","type":"Landkreis"},"federalState":{"key":"14","name":"Sachsen"}},{"name":"Grünewaldstr.","postalCode":"97228","locality":"Rottendorf","municipality":{"key":"09679185","name":"Rottendorf","type":"Kreisangehörige_Gemeinde"},"district":{"key":"09679","name":"Würzburg","type":"Landkreis"},"federalState":{"key":"09","name":"Bayern"}},{"name":"Güterweg","postalCode":"09474","locality":"Crottendorf","municipality":{"key":"14521130","name":"Crottendorf","type":"Kreisangehörige_Gemeinde"},"district":{"key":"14521","name":"Erzgebirgskreis","type":"Landkreis"},"federalState":{"key":"14","name":"Sachsen"}},{"name":"Gutsweg","postalCode":"09474","locality":"Crottendorf","municipality":{"key":"14521130","name":"Crottendorf","type":"Kreisangehörige_Gemeinde"},"district":{"key":"14521","name":"Erzgebirgskreis","type":"Landkreis"},"federalState":{"key":"14","name":"Sachsen"}},{"name":"Gut Wöllried","postalCode":"97228","locality":"Rottendorf","municipality":{"key":"09679185","name":"Rottendorf","type":"Kreisangehörige_Gemeinde"},"district":{"key":"09679","name":"Würzburg","type":"Landkreis"},"federalState":{"key":"09","name":"Bayern"}},{"name":"Hauptstr.","postalCode":"09474","locality":"Crottendorf","municipality":{"key":"14521130","name":"Crottendorf","type":"Kreisangehörige_Gemeinde"},"district":{"key":"14521","name":"Erzgebirgskreis","type":"Landkreis"},"federalState":{"key":"14","name":"Sachsen"}},{"name":"Hauptstr.","postalCode":"97228","locality":"Rottendorf","municipality":{"key":"09679185","name":"Rottendorf","type":"Kreisangehörige_Gemeinde"},"district":{"key":"09679","name":"Würzburg","type":"Landkreis"},"federalState":{"key":"09","name":"Bayern"}},{"name":"Heinrich-Heine-Str.","postalCode":"09474","locality":"Crottendorf","municipality":{"key":"14521130","name":"Crottendorf","type":"Kreisangehörige_Gemeinde"},"district":{"key":"14521","name":"Erzgebirgskreis","type":"Landkreis"},"federalState":{"key":"14","name":"Sachsen"}},{"name":"Hinterer Talweg","postalCode":"97228","locality":"Rottendorf","municipality":{"key":"09679185","name":"Rottendorf","type":"Kreisangehörige_Gemeinde"},"district":{"key":"09679","name":"Würzburg","type":"Landkreis"},"federalState":{"key":"09","name":"Bayern"}},{"name":"Hirtenweg","postalCode":"09474","locality":"Crottendorf","municipality":{"key":"14521130","name":"Crottendorf","type":"Kreisangehörige_Gemeinde"},"district":{"key":"14521","name":"Erzgebirgskreis","type":"Landkreis"},"federalState":{"key":"14","name":"Sachsen"}},{"name":"Hofschwärz","postalCode":"97228","locality":"Rottendorf","municipality":{"key":"09679185","name":"Rottendorf","type":"Kreisangehörige_Gemeinde"},"district":{"key":"09679","name":"Würzburg","type":"Landkreis"},"federalState":{"key":"09","name":"Bayern"}},{"name":"Hofstr.","postalCode":"97228","locality":"Rottendorf","municipality":{"key":"09679185","name":"Rottendorf","type":"Kreisangehörige_Gemeinde"},"district":{"key":"09679","name":"Würzburg","type":"Landkreis"},"federalState":{"key":"09","name":"Bayern"}},{"name":"Hüttbrettmühlenweg","postalCode":"09474","locality":"Crottendorf","municipality":{"key":"14521130","name":"Crottendorf","type":"Kreisangehörige_Gemeinde"},"district":{"key":"14521","name":"Erzgebirgskreis","type":"Landkreis"},"federalState":{"key":"14","name":"Sachsen"}},{"name":"Hyazinthenweg","postalCode":"97228","locality":"Rottendorf","municipality":{"key":"09679185","name":"Rottendorf","type":"Kreisangehörige_Gemeinde"},"district":{"key":"09679","name":"Würzburg","type":"Landkreis"},"federalState":{"key":"09","name":"Bayern"}},{"name":"Im Talfeld","postalCode":"97228","locality":"Rottendorf","municipality":{"key":"09679185","name":"Rottendorf","type":"Kreisangehörige_Gemeinde"},"district":{"key":"09679","name":"Würzburg","type":"Landkreis"},"federalState":{"key":"09","name":"Bayern"}},{"name":"Jahnstr.","postalCode":"97228","locality":"Rottendorf","municipality":{"key":"09679185","name":"Rottendorf","type":"Kreisangehörige_Gemeinde"},"district":{"key":"09679","name":"Würzburg","type":"Landkreis"},"federalState":{"key":"09","name":"Bayern"}},{"name":"Joachimsthaler Str.","postalCode":"09474","locality":"Crottendorf","municipality":{"key":"14521130","name":"Crottendorf","type":"Kreisangehörige_Gemeinde"},"district":{"key":"14521","name":"Erzgebirgskreis","type":"Landkreis"},"federalState":{"key":"14","name":"Sachsen"}},{"name":"Kalksteig","postalCode":"09474","locality":"Crottendorf","municipality":{"key":"14521130","name":"Crottendorf","type":"Kreisangehörige_Gemeinde"},"district":{"key":"14521","name":"Erzgebirgskreis","type":"Landkreis"},"federalState":{"key":"14","name":"Sachsen"}},{"name":"Kalkstr.","postalCode":"09474","locality":"Crottendorf","municipality":{"key":"14521130","name":"Crottendorf","type":"Kreisangehörige_Gemeinde"},"district":{"key":"14521","name":"Erzgebirgskreis","type":"Landkreis"},"federalState":{"key":"14","name":"Sachsen"}},{"name":"Kapellenbergstr.","postalCode":"97228","locality":"Rottendorf","municipality":{"key":"09679185","name":"Rottendorf","type":"Kreisangehörige_Gemeinde"},"district":{"key":"09679","name":"Würzburg","type":"Landkreis"},"federalState":{"key":"09","name":"Bayern"}},{"name":"Katzensteinbrücke","postalCode":"09474","locality":"Crottendorf","municipality":{"key":"14521130","name":"Crottendorf","type":"Kreisangehörige_Gemeinde"},"district":{"key":"14521","name":"Erzgebirgskreis","type":"Landkreis"},"federalState":{"key":"14","name":"Sachsen"}},{"name":"Katzensteiner Str.","postalCode":"09474","locality":"Crottendorf","municipality":{"key":"14521130","name":"Crottendorf","type":"Kreisangehörige_Gemeinde"},"district":{"key":"14521","name":"Erzgebirgskreis","type":"Landkreis"},"federalState":{"key":"14","name":"Sachsen"}},{"name":"Kirchplatz","postalCode":"97228","locality":"Rottendorf","municipality":{"key":"09679185","name":"Rottendorf","type":"Kreisangehörige_Gemeinde"},"district":{"key":"09679","name":"Würzburg","type":"Landkreis"},"federalState":{"key":"09","name":"Bayern"}},{"name":"Kirchstr.","postalCode":"97228","locality":"Rottendorf","municipality":{"key":"09679185","name":"Rottendorf","type":"Kreisangehörige_Gemeinde"},"district":{"key":"09679","name":"Würzburg","type":"Landkreis"},"federalState":{"key":"09","name":"Bayern"}},{"name":"Kitzinger Str.","postalCode":"97228","locality":"Rottendorf","municipality":{"key":"09679185","name":"Rottendorf","type":"Kreisangehörige_Gemeinde"},"district":{"key":"09679","name":"Würzburg","type":"Landkreis"},"federalState":{"key":"09","name":"Bayern"}},{"name":"Kleine Kirchgasse","postalCode":"09474","locality":"Crottendorf","municipality":{"key":"14521130","name":"Crottendorf","type":"Kreisangehörige_Gemeinde"},"district":{"key":"14521","name":"Erzgebirgskreis","type":"Landkreis"},"federalState":{"key":"14","name":"Sachsen"}},{"name":"Klötzerweg","postalCode":"09474","locality":"Crottendorf","municipality":{"key":"14521130","name":"Crottendorf","type":"Kreisangehörige_Gemeinde"},"district":{"key":"14521","name":"Erzgebirgskreis","type":"Landkreis"},"federalState":{"key":"14","name":"Sachsen"}},{"name":"Kohlweg","postalCode":"09474","locality":"Crottendorf","municipality":{"key":"14521130","name":"Crottendorf","type":"Kreisangehörige_Gemeinde"},"district":{"key":"14521","name":"Erzgebirgskreis","type":"Landkreis"},"federalState":{"key":"14","name":"Sachsen"}},{"name":"Krummer Weg","postalCode":"09474","locality":"Crottendorf","municipality":{"key":"14521130","name":"Crottendorf","type":"Kreisangehörige_Gemeinde"},"district":{"key":"14521","name":"Erzgebirgskreis","type":"Landkreis"},"federalState":{"key":"14","name":"Sachsen"}},{"name":"Kurzer Weg","postalCode":"09474","locality":"Crottendorf","municipality":{"key":"14521130","name":"Crottendorf","type":"Kreisangehörige_Gemeinde"},"district":{"key":"14521","name":"Erzgebirgskreis","type":"Landkreis"},"federalState":{"key":"14","name":"Sachsen"}},{"name":"Ladestr.","postalCode":"09474","locality":"Crottendorf","municipality":{"key":"14521130","name":"Crottendorf","type":"Kreisangehörige_Gemeinde"},"district":{"key":"14521","name":"Erzgebirgskreis","type":"Landkreis"},"federalState":{"key":"14","name":"Sachsen"}},{"name":"Lärchenweg","postalCode":"97228","locality":"Rottendorf","municipality":{"key":"09679185","name":"Rottendorf","type":"Kreisangehörige_Gemeinde"},"district":{"key":"09679","name":"Würzburg","type":"Landkreis"},"federalState":{"key":"09","name":"Bayern"}},{"name":"Lessingstr.","postalCode":"09474","locality":"Crottendorf","municipality":{"key":"14521130","name":"Crottendorf","type":"Kreisangehörige_Gemeinde"},"district":{"key":"14521","name":"Erzgebirgskreis","type":"Landkreis"},"federalState":{"key":"14","name":"Sachsen"}},{"name":"Lilienstr.","postalCode":"97228","locality":"Rottendorf","municipality":{"key":"09679185","name":"Rottendorf","type":"Kreisangehörige_Gemeinde"},"district":{"key":"09679","name":"Würzburg","type":"Landkreis"},"federalState":{"key":"09","name":"Bayern"}},{"name":"Lindenstr.","postalCode":"97228","locality":"Rottendorf","municipality":{"key":"09679185","name":"Rottendorf","type":"Kreisangehörige_Gemeinde"},"district":{"key":"09679","name":"Würzburg","type":"Landkreis"},"federalState":{"key":"09","name":"Bayern"}},{"name":"Meisenweg","postalCode":"97228","locality":"Rottendorf","municipality":{"key":"09679185","name":"Rottendorf","type":"Kreisangehörige_Gemeinde"},"district":{"key":"09679","name":"Würzburg","type":"Landkreis"},"federalState":{"key":"09","name":"Bayern"}},{"name":"Mittlerer Talweg","postalCode":"97228","locality":"Rottendorf","municipality":{"key":"09679185","name":"Rottendorf","type":"Kreisangehörige_Gemeinde"},"district":{"key":"09679","name":"Würzburg","type":"Landkreis"},"federalState":{"key":"09","name":"Bayern"}},{"name":"Narzissenstr.","postalCode":"97228","locality":"Rottendorf","municipality":{"key":"09679185","name":"Rottendorf","type":"Kreisangehörige_Gemeinde"},"district":{"key":"09679","name":"Würzburg","type":"Landkreis"},"federalState":{"key":"09","name":"Bayern"}},{"name":"Nelkenstr.","postalCode":"97228","locality":"Rottendorf","municipality":{"key":"09679185","name":"Rottendorf","type":"Kreisangehörige_Gemeinde"},"district":{"key":"09679","name":"Würzburg","type":"Landkreis"},"federalState":{"key":"09","name":"Bayern"}},{"name":"Neudorfer Str.","postalCode":"09474","locality":"Crottendorf","municipality":{"key":"14521130","name":"Crottendorf","type":"Kreisangehörige_Gemeinde"},"district":{"key":"14521","name":"Erzgebirgskreis","type":"Landkreis"},"federalState":{"key":"14","name":"Sachsen"}},{"name":"Niederer Wiesenweg","postalCode":"09474","locality":"Crottendorf","municipality":{"key":"14521130","name":"Crottendorf","type":"Kreisangehörige_Gemeinde"},"district":{"key":"14521","name":"Erzgebirgskreis","type":"Landkreis"},"federalState":{"key":"14","name":"Sachsen"}},{"name":"Nitzschhammerstr.","postalCode":"09474","locality":"Crottendorf","municipality":{"key":"14521130","name":"Crottendorf","type":"Kreisangehörige_Gemeinde"},"district":{"key":"14521","name":"Erzgebirgskreis","type":"Landkreis"},"federalState":{"key":"14","name":"Sachsen"}},{"name":"Nitzschhammerweg","postalCode":"09474","locality":"Crottendorf","municipality":{"key":"14521130","name":"Crottendorf","type":"Kreisangehörige_Gemeinde"},"district":{"key":"14521","name":"Erzgebirgskreis","type":"Landkreis"},"federalState":{"key":"14","name":"Sachsen"}},{"name":"Nordring","postalCode":"97228","locality":"Rottendorf","municipality":{"key":"09679185","name":"Rottendorf","type":"Kreisangehörige_Gemeinde"},"district":{"key":"09679","name":"Würzburg","type":"Landkreis"},"federalState":{"key":"09","name":"Bayern"}},{"name":"Nordstr.","postalCode":"97228","locality":"Rottendorf","municipality":{"key":"09679185","name":"Rottendorf","type":"Kreisangehörige_Gemeinde"},"district":{"key":"09679","name":"Würzburg","type":"Landkreis"},"federalState":{"key":"09","name":"Bayern"}},{"name":"Oberer Wiesenweg","postalCode":"09474","locality":"Crottendorf","municipality":{"key":"14521130","name":"Crottendorf","type":"Kreisangehörige_Gemeinde"},"district":{"key":"14521","name":"Erzgebirgskreis","type":"Landkreis"},"federalState":{"key":"14","name":"Sachsen"}},{"name":"Obermittweida","postalCode":"09474","locality":"Crottendorf","municipality":{"key":"14521130","name":"Crottendorf","type":"Kreisangehörige_Gemeinde"},"district":{"key":"14521","name":"Erzgebirgskreis","type":"Landkreis"},"federalState":{"key":"14","name":"Sachsen"}},{"name":"Obertorstr.","postalCode":"97228","locality":"Rottendorf","municipality":{"key":"09679185","name":"Rottendorf","type":"Kreisangehörige_Gemeinde"},"district":{"key":"09679","name":"Würzburg","type":"Landkreis"},"federalState":{"key":"09","name":"Bayern"}},{"name":"Oberwiesenthaler Str.","postalCode":"09474","locality":"Crottendorf","municipality":{"key":"14521130","name":"Crottendorf","type":"Kreisangehörige_Gemeinde"},"district":{"key":"14521","name":"Erzgebirgskreis","type":"Landkreis"},"federalState":{"key":"14","name":"Sachsen"}},{"name":"Oeggstr.","postalCode":"97228","locality":"Rottendorf","municipality":{"key":"09679185","name":"Rottendorf","type":"Kreisangehörige_Gemeinde"},"district":{"key":"09679","name":"Würzburg","type":"Landkreis"},"federalState":{"key":"09","name":"Bayern"}},{"name":"Ostring","postalCode":"97228","locality":"Rottendorf","municipality":{"key":"09679185","name":"Rottendorf","type":"Kreisangehörige_Gemeinde"},"district":{"key":"09679","name":"Würzburg","type":"Landkreis"},"federalState":{"key":"09","name":"Bayern"}},{"name":"Otto-Peuschel-Str.","postalCode":"09474","locality":"Crottendorf","municipality":{"key":"14521130","name":"Crottendorf","type":"Kreisangehörige_Gemeinde"},"district":{"key":"14521","name":"Erzgebirgskreis","type":"Landkreis"},"federalState":{"key":"14","name":"Sachsen"}},{"name":"Park","postalCode":"09474","locality":"Crottendorf","municipality":{"key":"14521130","name":"Crottendorf","type":"Kreisangehörige_Gemeinde"},"district":{"key":"14521","name":"Erzgebirgskreis","type":"Landkreis"},"federalState":{"key":"14","name":"Sachsen"}},{"name":"Parkstr.","postalCode":"97228","locality":"Rottendorf","municipality":{"key":"09679185","name":"Rottendorf","type":"Kreisangehörige_Gemeinde"},"district":{"key":"09679","name":"Würzburg","type":"Landkreis"},"federalState":{"key":"09","name":"Bayern"}},{"name":"Paul-Böttcher-Str.","postalCode":"09474","locality":"Crottendorf","municipality":{"key":"14521130","name":"Crottendorf","type":"Kreisangehörige_Gemeinde"},"district":{"key":"14521","name":"Erzgebirgskreis","type":"Landkreis"},"federalState":{"key":"14","name":"Sachsen"}},{"name":"Pfahlbergweg","postalCode":"09474","locality":"Crottendorf","municipality":{"key":"14521130","name":"Crottendorf","type":"Kreisangehörige_Gemeinde"},"district":{"key":"14521","name":"Erzgebirgskreis","type":"Landkreis"},"federalState":{"key":"14","name":"Sachsen"}},{"name":"Pfannengäßchen","postalCode":"09474","locality":"Crottendorf","municipality":{"key":"14521130","name":"Crottendorf","type":"Kreisangehörige_Gemeinde"},"district":{"key":"14521","name":"Erzgebirgskreis","type":"Landkreis"},"federalState":{"key":"14","name":"Sachsen"}},{"name":"Pfarrgasse","postalCode":"97228","locality":"Rottendorf","municipality":{"key":"09679185","name":"Rottendorf","type":"Kreisangehörige_Gemeinde"},"district":{"key":"09679","name":"Würzburg","type":"Landkreis"},"federalState":{"key":"09","name":"Bayern"}},{"name":"Pfarrteichweg","postalCode":"09474","locality":"Crottendorf","municipality":{"key":"14521130","name":"Crottendorf","type":"Kreisangehörige_Gemeinde"},"district":{"key":"14521","name":"Erzgebirgskreis","type":"Landkreis"},"federalState":{"key":"14","name":"Sachsen"}},{"name":"Platz Troarn","postalCode":"97228","locality":"Rottendorf","municipality":{"key":"09679185","name":"Rottendorf","type":"Kreisangehörige_Gemeinde"},"district":{"key":"09679","name":"Würzburg","type":"Landkreis"},"federalState":{"key":"09","name":"Bayern"}},{"name":"Primelweg","postalCode":"97228","locality":"Rottendorf","municipality":{"key":"09679185","name":"Rottendorf","type":"Kreisangehörige_Gemeinde"},"district":{"key":"09679","name":"Würzburg","type":"Landkreis"},"federalState":{"key":"09","name":"Bayern"}},{"name":"Prinzenweg","postalCode":"09474","locality":"Crottendorf","municipality":{"key":"14521130","name":"Crottendorf","type":"Kreisangehörige_Gemeinde"},"district":{"key":"14521","name":"Erzgebirgskreis","type":"Landkreis"},"federalState":{"key":"14","name":"Sachsen"}},{"name":"Querstr.","postalCode":"09474","locality":"Crottendorf","municipality":{"key":"14521130","name":"Crottendorf","type":"Kreisangehörige_Gemeinde"},"district":{"key":"14521","name":"Erzgebirgskreis","type":"Landkreis"},"federalState":{"key":"14","name":"Sachsen"}},{"name":"Rachelweg","postalCode":"09474","locality":"Crottendorf","municipality":{"key":"14521130","name":"Crottendorf","type":"Kreisangehörige_Gemeinde"},"district":{"key":"14521","name":"Erzgebirgskreis","type":"Landkreis"},"federalState":{"key":"14","name":"Sachsen"}},{"name":"Rathenaustr.","postalCode":"09474","locality":"Crottendorf","municipality":{"key":"14521130","name":"Crottendorf","type":"Kreisangehörige_Gemeinde"},"district":{"key":"14521","name":"Erzgebirgskreis","type":"Landkreis"},"federalState":{"key":"14","name":"Sachsen"}},{"name":"Richard-Schneider-Str.","postalCode":"09474","locality":"Crottendorf","municipality":{"key":"14521130","name":"Crottendorf","type":"Kreisangehörige_Gemeinde"},"district":{"key":"14521","name":"Erzgebirgskreis","type":"Landkreis"},"federalState":{"key":"14","name":"Sachsen"}},{"name":"Riemenschneiderstr.","postalCode":"97228","locality":"Rottendorf","municipality":{"key":"09679185","name":"Rottendorf","type":"Kreisangehörige_Gemeinde"},"district":{"key":"09679","name":"Würzburg","type":"Landkreis"},"federalState":{"key":"09","name":"Bayern"}},{"name":"Röntgenstr.","postalCode":"97228","locality":"Rottendorf","municipality":{"key":"09679185","name":"Rottendorf","type":"Kreisangehörige_Gemeinde"},"district":{"key":"09679","name":"Würzburg","type":"Landkreis"},"federalState":{"key":"09","name":"Bayern"}},{"name":"Rosenstr.","postalCode":"97228","locality":"Rottendorf","municipality":{"key":"09679185","name":"Rottendorf","type":"Kreisangehörige_Gemeinde"},"district":{"key":"09679","name":"Würzburg","type":"Landkreis"},"federalState":{"key":"09","name":"Bayern"}},{"name":"Rothof","postalCode":"97228","locality":"Rottendorf","municipality":{"key":"09679185","name":"Rottendorf","type":"Kreisangehörige_Gemeinde"},"district":{"key":"09679","name":"Würzburg","type":"Landkreis"},"federalState":{"key":"09","name":"Bayern"}},{"name":"Rothofer Str.","postalCode":"97228","locality":"Rottendorf","municipality":{"key":"09679185","name":"Rottendorf","type":"Kreisangehörige_Gemeinde"},"district":{"key":"09679","name":"Würzburg","type":"Landkreis"},"federalState":{"key":"09","name":"Bayern"}},{"name":"Rückertstr.","postalCode":"97228","locality":"Rottendorf","municipality":{"key":"09679185","name":"Rottendorf","type":"Kreisangehörige_Gemeinde"},"district":{"key":"09679","name":"Würzburg","type":"Landkreis"},"federalState":{"key":"09","name":"Bayern"}},{"name":"Rundweg","postalCode":"09474","locality":"Crottendorf","municipality":{"key":"14521130","name":"Crottendorf","type":"Kreisangehörige_Gemeinde"},"district":{"key":"14521","name":"Erzgebirgskreis","type":"Landkreis"},"federalState":{"key":"14","name":"Sachsen"}},{"name":"Salatgasse","postalCode":"09474","locality":"Crottendorf","municipality":{"key":"14521130","name":"Crottendorf","type":"Kreisangehörige_Gemeinde"},"district":{"key":"14521","name":"Erzgebirgskreis","type":"Landkreis"},"federalState":{"key":"14","name":"Sachsen"}},{"name":"Salzweg","postalCode":"09474","locality":"Crottendorf","municipality":{"key":"14521130","name":"Crottendorf","type":"Kreisangehörige_Gemeinde"},"district":{"key":"14521","name":"Erzgebirgskreis","type":"Landkreis"},"federalState":{"key":"14","name":"Sachsen"}},{"name":"Sandweg","postalCode":"09474","locality":"Crottendorf","municipality":{"key":"14521130","name":"Crottendorf","type":"Kreisangehörige_Gemeinde"},"district":{"key":"14521","name":"Erzgebirgskreis","type":"Landkreis"},"federalState":{"key":"14","name":"Sachsen"}},{"name":"Scheffelstr.","postalCode":"97228","locality":"Rottendorf","municipality":{"key":"09679185","name":"Rottendorf","type":"Kreisangehörige_Gemeinde"},"district":{"key":"09679","name":"Würzburg","type":"Landkreis"},"federalState":{"key":"09","name":"Bayern"}},{"name":"Scheibenberger Str.","postalCode":"09474","locality":"Crottendorf","municipality":{"key":"14521130","name":"Crottendorf","type":"Kreisangehörige_Gemeinde"},"district":{"key":"14521","name":"Erzgebirgskreis","type":"Landkreis"},"federalState":{"key":"14","name":"Sachsen"}},{"name":"Schießbergblick","postalCode":"09474","locality":"Crottendorf","municipality":{"key":"14521130","name":"Crottendorf","type":"Kreisangehörige_Gemeinde"},"district":{"key":"14521","name":"Erzgebirgskreis","type":"Landkreis"},"federalState":{"key":"14","name":"Sachsen"}},{"name":"Schießhausstr.","postalCode":"97228","locality":"Rottendorf","municipality":{"key":"09679185","name":"Rottendorf","type":"Kreisangehörige_Gemeinde"},"district":{"key":"09679","name":"Würzburg","type":"Landkreis"},"federalState":{"key":"09","name":"Bayern"}},{"name":"Schillerstr.","postalCode":"09474","locality":"Crottendorf","municipality":{"key":"14521130","name":"Crottendorf","type":"Kreisangehörige_Gemeinde"},"district":{"key":"14521","name":"Erzgebirgskreis","type":"Landkreis"},"federalState":{"key":"14","name":"Sachsen"}},{"name":"Schillerstr.","postalCode":"97228","locality":"Rottendorf","municipality":{"key":"09679185","name":"Rottendorf","type":"Kreisangehörige_Gemeinde"},"district":{"key":"09679","name":"Würzburg","type":"Landkreis"},"federalState":{"key":"09","name":"Bayern"}},{"name":"Schlehenweg","postalCode":"97228","locality":"Rottendorf","municipality":{"key":"09679185","name":"Rottendorf","type":"Kreisangehörige_Gemeinde"},"district":{"key":"09679","name":"Würzburg","type":"Landkreis"},"federalState":{"key":"09","name":"Bayern"}},{"name":"Schulgasse","postalCode":"09474","locality":"Crottendorf","municipality":{"key":"14521130","name":"Crottendorf","type":"Kreisangehörige_Gemeinde"},"district":{"key":"14521","name":"Erzgebirgskreis","type":"Landkreis"},"federalState":{"key":"14","name":"Sachsen"}},{"name":"Schulstr.","postalCode":"97228","locality":"Rottendorf","municipality":{"key":"09679185","name":"Rottendorf","type":"Kreisangehörige_Gemeinde"},"district":{"key":"09679","name":"Würzburg","type":"Landkreis"},"federalState":{"key":"09","name":"Bayern"}},{"name":"Siedlung","postalCode":"09474","locality":"Crottendorf","municipality":{"key":"14521130","name":"Crottendorf","type":"Kreisangehörige_Gemeinde"},"district":{"key":"14521","name":"Erzgebirgskreis","type":"Landkreis"},"federalState":{"key":"14","name":"Sachsen"}},{"name":"Stadtpfad","postalCode":"97228","locality":"Rottendorf","municipality":{"key":"09679185","name":"Rottendorf","type":"Kreisangehörige_Gemeinde"},"district":{"key":"09679","name":"Würzburg","type":"Landkreis"},"federalState":{"key":"09","name":"Bayern"}},{"name":"Str. des Friedens","postalCode":"09474","locality":"Crottendorf","municipality":{"key":"14521130","name":"Crottendorf","type":"Kreisangehörige_Gemeinde"},"district":{"key":"14521","name":"Erzgebirgskreis","type":"Landkreis"},"federalState":{"key":"14","name":"Sachsen"}},{"name":"Tannenstr.","postalCode":"97228","locality":"Rottendorf","municipality":{"key":"09679185","name":"Rottendorf","type":"Kreisangehörige_Gemeinde"},"district":{"key":"09679","name":"Würzburg","type":"Landkreis"},"federalState":{"key":"09","name":"Bayern"}},{"name":"Theilheimer Str.","postalCode":"97228","locality":"Rottendorf","municipality":{"key":"09679185","name":"Rottendorf","type":"Kreisangehörige_Gemeinde"},"district":{"key":"09679","name":"Würzburg","type":"Landkreis"},"federalState":{"key":"09","name":"Bayern"}},{"name":"Tulpenstr.","postalCode":"97228","locality":"Rottendorf","municipality":{"key":"09679185","name":"Rottendorf","type":"Kreisangehörige_Gemeinde"},"district":{"key":"09679","name":"Würzburg","type":"Landkreis"},"federalState":{"key":"09","name":"Bayern"}},{"name":"Uferweg","postalCode":"09474","locality":"Crottendorf","municipality":{"key":"14521130","name":"Crottendorf","type":"Kreisangehörige_Gemeinde"},"district":{"key":"14521","name":"Erzgebirgskreis","type":"Landkreis"},"federalState":{"key":"14","name":"Sachsen"}},{"name":"Untertorstr.","postalCode":"97228","locality":"Rottendorf","municipality":{"key":"09679185","name":"Rottendorf","type":"Kreisangehörige_Gemeinde"},"district":{"key":"09679","name":"Würzburg","type":"Landkreis"},"federalState":{"key":"09","name":"Bayern"}},{"name":"Veilchenstr.","postalCode":"97228","locality":"Rottendorf","municipality":{"key":"09679185","name":"Rottendorf","type":"Kreisangehörige_Gemeinde"},"district":{"key":"09679","name":"Würzburg","type":"Landkreis"},"federalState":{"key":"09","name":"Bayern"}},{"name":"Vorderer Talweg","postalCode":"97228","locality":"Rottendorf","municipality":{"key":"09679185","name":"Rottendorf","type":"Kreisangehörige_Gemeinde"},"district":{"key":"09679","name":"Würzburg","type":"Landkreis"},"federalState":{"key":"09","name":"Bayern"}},{"name":"Waldweg","postalCode":"97228","locality":"Rottendorf","municipality":{"key":"09679185","name":"Rottendorf","type":"Kreisangehörige_Gemeinde"},"district":{"key":"09679","name":"Würzburg","type":"Landkreis"},"federalState":{"key":"09","name":"Bayern"}},{"name":"Wasserweg","postalCode":"09474","locality":"Crottendorf","municipality":{"key":"14521130","name":"Crottendorf","type":"Kreisangehörige_Gemeinde"},"district":{"key":"14521","name":"Erzgebirgskreis","type":"Landkreis"},"federalState":{"key":"14","name":"Sachsen"}},{"name":"Weg zum Pfahl","postalCode":"09474","locality":"Crottendorf","municipality":{"key":"14521130","name":"Crottendorf","type":"Kreisangehörige_Gemeinde"},"district":{"key":"14521","name":"Erzgebirgskreis","type":"Landkreis"},"federalState":{"key":"14","name":"Sachsen"}},{"name":"Wielandstr.","postalCode":"97228","locality":"Rottendorf","municipality":{"key":"09679185","name":"Rottendorf","type":"Kreisangehörige_Gemeinde"},"district":{"key":"09679","name":"Würzburg","type":"Landkreis"},"federalState":{"key":"09","name":"Bayern"}},{"name":"Würzburger Str.","postalCode":"97228","locality":"Rottendorf","municipality":{"key":"09679185","name":"Rottendorf","type":"Kreisangehörige_Gemeinde"},"district":{"key":"09679","name":"Würzburg","type":"Landkreis"},"federalState":{"key":"09","name":"Bayern"}},{"name":"Ysenburgstr.","postalCode":"97082","locality":"Würzburg","municipality":{"key":"09663000","name":"Würzburg","type":"Kreisfreie_Stadt"},"district":{"key":"09663","name":"Würzburg","type":"Kreisfreie_Stadt"},"federalState":{"key":"09","name":"Bayern"}},{"name":"Y-Spange","postalCode":"97084","locality":"Würzburg","municipality":{"key":"09663000","name":"Würzburg","type":"Kreisfreie_Stadt"},"district":{"key":"09663","name":"Würzburg","type":"Kreisfreie_Stadt"},"federalState":{"key":"09","name":"Bayern"}},{"name":"Zeppelinstr.","postalCode":"97228","locality":"Rottendorf","municipality":{"key":"09679185","name":"Rottendorf","type":"Kreisangehörige_Gemeinde"},"district":{"key":"09679","name":"Würzburg","type":"Landkreis"},"federalState":{"key":"09","name":"Bayern"}},{"name":"Zschopaustr.","postalCode":"09474","locality":"Crottendorf","municipality":{"key":"14521130","name":"Crottendorf","type":"Kreisangehörige_Gemeinde"},"district":{"key":"14521","name":"Erzgebirgskreis","type":"Landkreis"},"federalState":{"key":"14","name":"Sachsen"}},{"name":"Zschopauweg","postalCode":"09474","locality":"Crottendorf","municipality":{"key":"14521130","name":"Crottendorf","type":"Kreisangehörige_Gemeinde"},"district":{"key":"14521","name":"Erzgebirgskreis","type":"Landkreis"},"federalState":{"key":"14","name":"Sachsen"}},{"name":"Zweiggasse","postalCode":"09474","locality":"Crottendorf","municipality":{"key":"14521130","name":"Crottendorf","type":"Kreisangehörige_Gemeinde"},"district":{"key":"14521","name":"Erzgebirgskreis","type":"Landkreis"},"federalState":{"key":"14","name":"Sachsen"}},{"name":"Zwingerstr.","postalCode":"09474","locality":"Crottendorf","municipality":{"key":"14521130","name":"Crottendorf","type":"Kreisangehörige_Gemeinde"},"district":{"key":"14521","name":"Erzgebirgskreis","type":"Landkreis"},"federalState":{"key":"14","name":"Sachsen"}},{"name":"Äußere Aumühlstr.","postalCode":"97076","locality":"Würzburg","municipality":{"key":"09663000","name":"Würzburg","type":"Kreisfreie_Stadt"},"district":{"key":"09663","name":"Würzburg","type":"Kreisfreie_Stadt"},"federalState":{"key":"09","name":"Bayern"}},{"name":"Äußerer Hublandweg","postalCode":"97074","locality":"Würzburg","municipality":{"key":"09663000","name":"Würzburg","type":"Kreisfreie_Stadt"},"district":{"key":"09663","name":"Würzburg","type":"Kreisfreie_Stadt"},"federalState":{"key":"09","name":"Bayern"}},{"name":"Äußerer Neubergweg","postalCode":"97074","locality":"Würzburg","municipality":{"key":"09663000","name":"Würzburg","type":"Kreisfreie_Stadt"},"district":{"key":"09663","name":"Würzburg","type":"Kreisfreie_Stadt"},"federalState":{"key":"09","name":"Bayern"}},{"name":"Äußerer Tränkeweg","postalCode":"97074","locality":"Würzburg","municipality":{"key":"09663000","name":"Würzburg","type":"Kreisfreie_Stadt"},"district":{"key":"09663","name":"Würzburg","type":"Kreisfreie_Stadt"},"federalState":{"key":"09","name":"Bayern"}},{"name":"Öhlberg","postalCode":"97080","locality":"Würzburg","municipality":{"key":"09663000","name":"Würzburg","type":"Kreisfreie_Stadt"},"district":{"key":"09663","name":"Würzburg","type":"Kreisfreie_Stadt"},"federalState":{"key":"09","name":"Bayern"}},]