[{"name":"Angermünder Str.","postalCode":"16248","locality":"Parsteinsee","municipality":{"key":"12060185","name":"Parsteinsee","type":"Kreisangehörige_Gemeinde"},"district":{"key":"12060","name":"Barnim","type":"Landkreis"},"federalState":{"key":"12","name":"Brandenburg"}},{"name":"Bahnhofstr.","postalCode":"16248","locality":"Parsteinsee","municipality":{"key":"12060185","name":"Parsteinsee","type":"Kreisangehörige_Gemeinde"},"district":{"key":"12060","name":"Barnim","type":"Landkreis"},"federalState":{"key":"12","name":"Brandenburg"}},{"name":"Dorfstr.","postalCode":"16248","locality":"Parsteinsee","municipality":{"key":"12060185","name":"Parsteinsee","type":"Kreisangehörige_Gemeinde"},"district":{"key":"12060","name":"Barnim","type":"Landkreis"},"federalState":{"key":"12","name":"Brandenburg"}},{"name":"Ebereschenweg","postalCode":"15377","locality":"Oberbarnim","municipality":{"key":"12064370","name":"Oberbarnim","type":"Kreisangehörige_Gemeinde"},"district":{"key":"12064","name":"Märkisch-Oderland","type":"Landkreis"},"federalState":{"key":"12","name":"Brandenburg"}},{"name":"Eberswalder Chaussee","postalCode":"15377","locality":"Oberbarnim","municipality":{"key":"12064370","name":"Oberbarnim","type":"Kreisangehörige_Gemeinde"},"district":{"key":"12064","name":"Märkisch-Oderland","type":"Landkreis"},"federalState":{"key":"12","name":"Brandenburg"}},{"name":"Egon-Erwin-Kisch Weg","postalCode":"15377","locality":"Oberbarnim","municipality":{"key":"12064370","name":"Oberbarnim","type":"Kreisangehörige_Gemeinde"},"district":{"key":"12064","name":"Märkisch-Oderland","type":"Landkreis"},"federalState":{"key":"12","name":"Brandenburg"}},{"name":"Eibenweg","postalCode":"15377","locality":"Oberbarnim","municipality":{"key":"12064370","name":"Oberbarnim","type":"Kreisangehörige_Gemeinde"},"district":{"key":"12064","name":"Märkisch-Oderland","type":"Landkreis"},"federalState":{"key":"12","name":"Brandenburg"}},{"name":"Eichenweg","postalCode":"15377","locality":"Oberbarnim","municipality":{"key":"12064370","name":"Oberbarnim","type":"Kreisangehörige_Gemeinde"},"district":{"key":"12064","name":"Märkisch-Oderland","type":"Landkreis"},"federalState":{"key":"12","name":"Brandenburg"}},{"name":"Friedensstr.","postalCode":"16248","locality":"Parsteinsee","municipality":{"key":"12060185","name":"Parsteinsee","type":"Kreisangehörige_Gemeinde"},"district":{"key":"12060","name":"Barnim","type":"Landkreis"},"federalState":{"key":"12","name":"Brandenburg"}},{"name":"Ginsterweg","postalCode":"15377","locality":"Oberbarnim","municipality":{"key":"12064370","name":"Oberbarnim","type":"Kreisangehörige_Gemeinde"},"district":{"key":"12064","name":"Märkisch-Oderland","type":"Landkreis"},"federalState":{"key":"12","name":"Brandenburg"}},{"name":"Großer Wesenberg","postalCode":"15377","locality":"Oberbarnim","municipality":{"key":"12064370","name":"Oberbarnim","type":"Kreisangehörige_Gemeinde"},"district":{"key":"12064","name":"Märkisch-Oderland","type":"Landkreis"},"federalState":{"key":"12","name":"Brandenburg"}},{"name":"Grunower Str.","postalCode":"15377","locality":"Oberbarnim","municipality":{"key":"12064370","name":"Oberbarnim","type":"Kreisangehörige_Gemeinde"},"district":{"key":"12064","name":"Märkisch-Oderland","type":"Landkreis"},"federalState":{"key":"12","name":"Brandenburg"}},{"name":"Haselnussweg","postalCode":"15377","locality":"Oberbarnim","municipality":{"key":"12064370","name":"Oberbarnim","type":"Kreisangehörige_Gemeinde"},"district":{"key":"12064","name":"Märkisch-Oderland","type":"Landkreis"},"federalState":{"key":"12","name":"Brandenburg"}},{"name":"Hauptstr.","postalCode":"15377","locality":"Oberbarnim","municipality":{"key":"12064370","name":"Oberbarnim","type":"Kreisangehörige_Gemeinde"},"district":{"key":"12064","name":"Märkisch-Oderland","type":"Landkreis"},"federalState":{"key":"12","name":"Brandenburg"}},{"name":"Hibiskusweg","postalCode":"15377","locality":"Oberbarnim","municipality":{"key":"12064370","name":"Oberbarnim","type":"Kreisangehörige_Gemeinde"},"district":{"key":"12064","name":"Märkisch-Oderland","type":"Landkreis"},"federalState":{"key":"12","name":"Brandenburg"}},{"name":"Holunderstr.","postalCode":"15377","locality":"Oberbarnim","municipality":{"key":"12064370","name":"Oberbarnim","type":"Kreisangehörige_Gemeinde"},"district":{"key":"12064","name":"Märkisch-Oderland","type":"Landkreis"},"federalState":{"key":"12","name":"Brandenburg"}},{"name":"Hopfenweg","postalCode":"15377","locality":"Oberbarnim","municipality":{"key":"12064370","name":"Oberbarnim","type":"Kreisangehörige_Gemeinde"},"district":{"key":"12064","name":"Märkisch-Oderland","type":"Landkreis"},"federalState":{"key":"12","name":"Brandenburg"}},{"name":"Ihlower Ring","postalCode":"15377","locality":"Oberbarnim","municipality":{"key":"12064370","name":"Oberbarnim","type":"Kreisangehörige_Gemeinde"},"district":{"key":"12064","name":"Märkisch-Oderland","type":"Landkreis"},"federalState":{"key":"12","name":"Brandenburg"}},{"name":"Jasminweg","postalCode":"15377","locality":"Oberbarnim","municipality":{"key":"12064370","name":"Oberbarnim","type":"Kreisangehörige_Gemeinde"},"district":{"key":"12064","name":"Märkisch-Oderland","type":"Landkreis"},"federalState":{"key":"12","name":"Brandenburg"}},{"name":"Kirschenallee","postalCode":"16248","locality":"Parsteinsee","municipality":{"key":"12060185","name":"Parsteinsee","type":"Kreisangehörige_Gemeinde"},"district":{"key":"12060","name":"Barnim","type":"Landkreis"},"federalState":{"key":"12","name":"Brandenburg"}},{"name":"Lüdersdorfer Str.","postalCode":"16248","locality":"Parsteinsee","municipality":{"key":"12060185","name":"Parsteinsee","type":"Kreisangehörige_Gemeinde"},"district":{"key":"12060","name":"Barnim","type":"Landkreis"},"federalState":{"key":"12","name":"Brandenburg"}},{"name":"Magnolienweg","postalCode":"15377","locality":"Oberbarnim","municipality":{"key":"12064370","name":"Oberbarnim","type":"Kreisangehörige_Gemeinde"},"district":{"key":"12064","name":"Märkisch-Oderland","type":"Landkreis"},"federalState":{"key":"12","name":"Brandenburg"}},{"name":"Mittelstr.","postalCode":"15377","locality":"Oberbarnim","municipality":{"key":"12064370","name":"Oberbarnim","type":"Kreisangehörige_Gemeinde"},"district":{"key":"12064","name":"Märkisch-Oderland","type":"Landkreis"},"federalState":{"key":"12","name":"Brandenburg"}},{"name":"Mittelweg","postalCode":"15377","locality":"Oberbarnim","municipality":{"key":"12064370","name":"Oberbarnim","type":"Kreisangehörige_Gemeinde"},"district":{"key":"12064","name":"Märkisch-Oderland","type":"Landkreis"},"federalState":{"key":"12","name":"Brandenburg"}},{"name":"Müncheberger Chaussee","postalCode":"15377","locality":"Oberbarnim","municipality":{"key":"12064370","name":"Oberbarnim","type":"Kreisangehörige_Gemeinde"},"district":{"key":"12064","name":"Märkisch-Oderland","type":"Landkreis"},"federalState":{"key":"12","name":"Brandenburg"}},{"name":"Narzissenweg","postalCode":"15377","locality":"Oberbarnim","municipality":{"key":"12064370","name":"Oberbarnim","type":"Kreisangehörige_Gemeinde"},"district":{"key":"12064","name":"Märkisch-Oderland","type":"Landkreis"},"federalState":{"key":"12","name":"Brandenburg"}},{"name":"Oderberger Str.","postalCode":"16248","locality":"Parsteinsee","municipality":{"key":"12060185","name":"Parsteinsee","type":"Kreisangehörige_Gemeinde"},"district":{"key":"12060","name":"Barnim","type":"Landkreis"},"federalState":{"key":"12","name":"Brandenburg"}},{"name":"Parsteiner Str.","postalCode":"16248","locality":"Parsteinsee","municipality":{"key":"12060185","name":"Parsteinsee","type":"Kreisangehörige_Gemeinde"},"district":{"key":"12060","name":"Barnim","type":"Landkreis"},"federalState":{"key":"12","name":"Brandenburg"}},{"name":"Reichenberger Chaussee","postalCode":"15377","locality":"Oberbarnim","municipality":{"key":"12064370","name":"Oberbarnim","type":"Kreisangehörige_Gemeinde"},"district":{"key":"12064","name":"Märkisch-Oderland","type":"Landkreis"},"federalState":{"key":"12","name":"Brandenburg"}},{"name":"Reichenberger Str.","postalCode":"15377","locality":"Oberbarnim","municipality":{"key":"12064370","name":"Oberbarnim","type":"Kreisangehörige_Gemeinde"},"district":{"key":"12064","name":"Märkisch-Oderland","type":"Landkreis"},"federalState":{"key":"12","name":"Brandenburg"}},{"name":"Reichenower Str.","postalCode":"15377","locality":"Oberbarnim","municipality":{"key":"12064370","name":"Oberbarnim","type":"Kreisangehörige_Gemeinde"},"district":{"key":"12064","name":"Märkisch-Oderland","type":"Landkreis"},"federalState":{"key":"12","name":"Brandenburg"}},{"name":"Ringstr.","postalCode":"15377","locality":"Oberbarnim","municipality":{"key":"12064370","name":"Oberbarnim","type":"Kreisangehörige_Gemeinde"},"district":{"key":"12064","name":"Märkisch-Oderland","type":"Landkreis"},"federalState":{"key":"12","name":"Brandenburg"}},{"name":"Ruhlsdorfer Weg","postalCode":"15377","locality":"Oberbarnim","municipality":{"key":"12064370","name":"Oberbarnim","type":"Kreisangehörige_Gemeinde"},"district":{"key":"12064","name":"Märkisch-Oderland","type":"Landkreis"},"federalState":{"key":"12","name":"Brandenburg"}},{"name":"Schlehenring","postalCode":"15377","locality":"Oberbarnim","municipality":{"key":"12064370","name":"Oberbarnim","type":"Kreisangehörige_Gemeinde"},"district":{"key":"12064","name":"Märkisch-Oderland","type":"Landkreis"},"federalState":{"key":"12","name":"Brandenburg"}},{"name":"Schlosspark Ihlow","postalCode":"15377","locality":"Oberbarnim","municipality":{"key":"12064370","name":"Oberbarnim","type":"Kreisangehörige_Gemeinde"},"district":{"key":"12064","name":"Märkisch-Oderland","type":"Landkreis"},"federalState":{"key":"12","name":"Brandenburg"}},{"name":"Siedlung","postalCode":"15377","locality":"Oberbarnim","municipality":{"key":"12064370","name":"Oberbarnim","type":"Kreisangehörige_Gemeinde"},"district":{"key":"12064","name":"Märkisch-Oderland","type":"Landkreis"},"federalState":{"key":"12","name":"Brandenburg"}},{"name":"Siedlung Schermützelsee","postalCode":"15377","locality":"Oberbarnim","municipality":{"key":"12064370","name":"Oberbarnim","type":"Kreisangehörige_Gemeinde"},"district":{"key":"12064","name":"Märkisch-Oderland","type":"Landkreis"},"federalState":{"key":"12","name":"Brandenburg"}},{"name":"Str. des Friedens","postalCode":"15377","locality":"Oberbarnim","municipality":{"key":"12064370","name":"Oberbarnim","type":"Kreisangehörige_Gemeinde"},"district":{"key":"12064","name":"Märkisch-Oderland","type":"Landkreis"},"federalState":{"key":"12","name":"Brandenburg"}},{"name":"Str. zum Sportplatz","postalCode":"15377","locality":"Oberbarnim","municipality":{"key":"12064370","name":"Oberbarnim","type":"Kreisangehörige_Gemeinde"},"district":{"key":"12064","name":"Märkisch-Oderland","type":"Landkreis"},"federalState":{"key":"12","name":"Brandenburg"}},{"name":"Triftstr.","postalCode":"16248","locality":"Parsteinsee","municipality":{"key":"12060185","name":"Parsteinsee","type":"Kreisangehörige_Gemeinde"},"district":{"key":"12060","name":"Barnim","type":"Landkreis"},"federalState":{"key":"12","name":"Brandenburg"}},{"name":"Wallyshofer Weg","postalCode":"16248","locality":"Parsteinsee","municipality":{"key":"12060185","name":"Parsteinsee","type":"Kreisangehörige_Gemeinde"},"district":{"key":"12060","name":"Barnim","type":"Landkreis"},"federalState":{"key":"12","name":"Brandenburg"}},{"name":"Zedernweg","postalCode":"15377","locality":"Oberbarnim","municipality":{"key":"12064370","name":"Oberbarnim","type":"Kreisangehörige_Gemeinde"},"district":{"key":"12064","name":"Märkisch-Oderland","type":"Landkreis"},"federalState":{"key":"12","name":"Brandenburg"}},{"name":"Zum Gutshof","postalCode":"15377","locality":"Oberbarnim","municipality":{"key":"12064370","name":"Oberbarnim","type":"Kreisangehörige_Gemeinde"},"district":{"key":"12064","name":"Märkisch-Oderland","type":"Landkreis"},"federalState":{"key":"12","name":"Brandenburg"}},{"name":"Zypressenweg","postalCode":"15377","locality":"Oberbarnim","municipality":{"key":"12064370","name":"Oberbarnim","type":"Kreisangehörige_Gemeinde"},"district":{"key":"12064","name":"Märkisch-Oderland","type":"Landkreis"},"federalState":{"key":"12","name":"Brandenburg"}},]