[{"name":"Am alten Weinberg","postalCode":"06905","locality":"Bad Schmiedeberg","municipality":{"key":"15091020","name":"Bad Schmiedeberg, Stadt","type":"Stadt"},"district":{"key":"15091","name":"Wittenberg","type":"Landkreis"},"federalState":{"key":"15","name":"Sachsen-Anhalt"}},{"name":"Am Bahnhof","postalCode":"06905","locality":"Bad Schmiedeberg","municipality":{"key":"15091020","name":"Bad Schmiedeberg, Stadt","type":"Stadt"},"district":{"key":"15091","name":"Wittenberg","type":"Landkreis"},"federalState":{"key":"15","name":"Sachsen-Anhalt"}},{"name":"Am Graben","postalCode":"06905","locality":"Bad Schmiedeberg","municipality":{"key":"15091020","name":"Bad Schmiedeberg, Stadt","type":"Stadt"},"district":{"key":"15091","name":"Wittenberg","type":"Landkreis"},"federalState":{"key":"15","name":"Sachsen-Anhalt"}},{"name":"Am Markt","postalCode":"06905","locality":"Bad Schmiedeberg","municipality":{"key":"15091020","name":"Bad Schmiedeberg, Stadt","type":"Stadt"},"district":{"key":"15091","name":"Wittenberg","type":"Landkreis"},"federalState":{"key":"15","name":"Sachsen-Anhalt"}},{"name":"Am Neumarkt","postalCode":"06905","locality":"Bad Schmiedeberg","municipality":{"key":"15091020","name":"Bad Schmiedeberg, Stadt","type":"Stadt"},"district":{"key":"15091","name":"Wittenberg","type":"Landkreis"},"federalState":{"key":"15","name":"Sachsen-Anhalt"}},{"name":"Am Schloss","postalCode":"06905","locality":"Bad Schmiedeberg","municipality":{"key":"15091020","name":"Bad Schmiedeberg, Stadt","type":"Stadt"},"district":{"key":"15091","name":"Wittenberg","type":"Landkreis"},"federalState":{"key":"15","name":"Sachsen-Anhalt"}},{"name":"An den Wiesen","postalCode":"06905","locality":"Bad Schmiedeberg","municipality":{"key":"15091020","name":"Bad Schmiedeberg, Stadt","type":"Stadt"},"district":{"key":"15091","name":"Wittenberg","type":"Landkreis"},"federalState":{"key":"15","name":"Sachsen-Anhalt"}},{"name":"An der Kirche","postalCode":"06905","locality":"Bad Schmiedeberg","municipality":{"key":"15091020","name":"Bad Schmiedeberg, Stadt","type":"Stadt"},"district":{"key":"15091","name":"Wittenberg","type":"Landkreis"},"federalState":{"key":"15","name":"Sachsen-Anhalt"}},{"name":"Ankerweg","postalCode":"06905","locality":"Bad Schmiedeberg","municipality":{"key":"15091020","name":"Bad Schmiedeberg, Stadt","type":"Stadt"},"district":{"key":"15091","name":"Wittenberg","type":"Landkreis"},"federalState":{"key":"15","name":"Sachsen-Anhalt"}},{"name":"Bachweg","postalCode":"06905","locality":"Bad Schmiedeberg","municipality":{"key":"15091020","name":"Bad Schmiedeberg, Stadt","type":"Stadt"},"district":{"key":"15091","name":"Wittenberg","type":"Landkreis"},"federalState":{"key":"15","name":"Sachsen-Anhalt"}},{"name":"Badegasse","postalCode":"06905","locality":"Bad Schmiedeberg","municipality":{"key":"15091020","name":"Bad Schmiedeberg, Stadt","type":"Stadt"},"district":{"key":"15091","name":"Wittenberg","type":"Landkreis"},"federalState":{"key":"15","name":"Sachsen-Anhalt"}},{"name":"Bad Schmiedeberger Str.","postalCode":"06905","locality":"Bad Schmiedeberg","municipality":{"key":"15091020","name":"Bad Schmiedeberg, Stadt","type":"Stadt"},"district":{"key":"15091","name":"Wittenberg","type":"Landkreis"},"federalState":{"key":"15","name":"Sachsen-Anhalt"}},{"name":"Bahnhofstr.","postalCode":"06905","locality":"Bad Schmiedeberg","municipality":{"key":"15091020","name":"Bad Schmiedeberg, Stadt","type":"Stadt"},"district":{"key":"15091","name":"Wittenberg","type":"Landkreis"},"federalState":{"key":"15","name":"Sachsen-Anhalt"}},{"name":"Bergsiedlung","postalCode":"06905","locality":"Bad Schmiedeberg","municipality":{"key":"15091020","name":"Bad Schmiedeberg, Stadt","type":"Stadt"},"district":{"key":"15091","name":"Wittenberg","type":"Landkreis"},"federalState":{"key":"15","name":"Sachsen-Anhalt"}},{"name":"Bergstr.","postalCode":"06905","locality":"Bad Schmiedeberg","municipality":{"key":"15091020","name":"Bad Schmiedeberg, Stadt","type":"Stadt"},"district":{"key":"15091","name":"Wittenberg","type":"Landkreis"},"federalState":{"key":"15","name":"Sachsen-Anhalt"}},{"name":"Bergweg","postalCode":"06905","locality":"Bad Schmiedeberg","municipality":{"key":"15091020","name":"Bad Schmiedeberg, Stadt","type":"Stadt"},"district":{"key":"15091","name":"Wittenberg","type":"Landkreis"},"federalState":{"key":"15","name":"Sachsen-Anhalt"}},{"name":"Birkenallee","postalCode":"06905","locality":"Bad Schmiedeberg","municipality":{"key":"15091020","name":"Bad Schmiedeberg, Stadt","type":"Stadt"},"district":{"key":"15091","name":"Wittenberg","type":"Landkreis"},"federalState":{"key":"15","name":"Sachsen-Anhalt"}},{"name":"Birkenhain","postalCode":"06905","locality":"Bad Schmiedeberg","municipality":{"key":"15091020","name":"Bad Schmiedeberg, Stadt","type":"Stadt"},"district":{"key":"15091","name":"Wittenberg","type":"Landkreis"},"federalState":{"key":"15","name":"Sachsen-Anhalt"}},{"name":"Birkenweg","postalCode":"06905","locality":"Bad Schmiedeberg","municipality":{"key":"15091020","name":"Bad Schmiedeberg, Stadt","type":"Stadt"},"district":{"key":"15091","name":"Wittenberg","type":"Landkreis"},"federalState":{"key":"15","name":"Sachsen-Anhalt"}},{"name":"Bösewig","postalCode":"06905","locality":"Bad Schmiedeberg","municipality":{"key":"15091020","name":"Bad Schmiedeberg, Stadt","type":"Stadt"},"district":{"key":"15091","name":"Wittenberg","type":"Landkreis"},"federalState":{"key":"15","name":"Sachsen-Anhalt"}},{"name":"Brauerweg","postalCode":"06905","locality":"Bad Schmiedeberg","municipality":{"key":"15091020","name":"Bad Schmiedeberg, Stadt","type":"Stadt"},"district":{"key":"15091","name":"Wittenberg","type":"Landkreis"},"federalState":{"key":"15","name":"Sachsen-Anhalt"}},{"name":"Breitscheidstr.","postalCode":"06905","locality":"Bad Schmiedeberg","municipality":{"key":"15091020","name":"Bad Schmiedeberg, Stadt","type":"Stadt"},"district":{"key":"15091","name":"Wittenberg","type":"Landkreis"},"federalState":{"key":"15","name":"Sachsen-Anhalt"}},{"name":"Brunnenstr.","postalCode":"06905","locality":"Bad Schmiedeberg","municipality":{"key":"15091020","name":"Bad Schmiedeberg, Stadt","type":"Stadt"},"district":{"key":"15091","name":"Wittenberg","type":"Landkreis"},"federalState":{"key":"15","name":"Sachsen-Anhalt"}},{"name":"Buschteich","postalCode":"06905","locality":"Bad Schmiedeberg","municipality":{"key":"15091020","name":"Bad Schmiedeberg, Stadt","type":"Stadt"},"district":{"key":"15091","name":"Wittenberg","type":"Landkreis"},"federalState":{"key":"15","name":"Sachsen-Anhalt"}},{"name":"Charlottenstr.","postalCode":"06886","locality":"Wittenberg","municipality":{"key":"15091375","name":"Wittenberg, Lutherstadt","type":"Stadt"},"district":{"key":"15091","name":"Wittenberg","type":"Landkreis"},"federalState":{"key":"15","name":"Sachsen-Anhalt"}},{"name":"Clara-Zetkin-Str.","postalCode":"06886","locality":"Wittenberg","municipality":{"key":"15091375","name":"Wittenberg, Lutherstadt","type":"Stadt"},"district":{"key":"15091","name":"Wittenberg","type":"Landkreis"},"federalState":{"key":"15","name":"Sachsen-Anhalt"}},{"name":"Collegienstr.","postalCode":"06886","locality":"Wittenberg","municipality":{"key":"15091375","name":"Wittenberg, Lutherstadt","type":"Stadt"},"district":{"key":"15091","name":"Wittenberg","type":"Landkreis"},"federalState":{"key":"15","name":"Sachsen-Anhalt"}},{"name":"Coswiger Landstr.","postalCode":"06886","locality":"Wittenberg","municipality":{"key":"15091375","name":"Wittenberg, Lutherstadt","type":"Stadt"},"district":{"key":"15091","name":"Wittenberg","type":"Landkreis"},"federalState":{"key":"15","name":"Sachsen-Anhalt"}},{"name":"Cumlosener Str.","postalCode":"19322","locality":"Wittenberge","municipality":{"key":"12070424","name":"Wittenberge, Stadt","type":"Stadt"},"district":{"key":"12070","name":"Prignitz","type":"Landkreis"},"federalState":{"key":"12","name":"Brandenburg"}},{"name":"Dahlenberger Weg","postalCode":"06905","locality":"Bad Schmiedeberg","municipality":{"key":"15091020","name":"Bad Schmiedeberg, Stadt","type":"Stadt"},"district":{"key":"15091","name":"Wittenberg","type":"Landkreis"},"federalState":{"key":"15","name":"Sachsen-Anhalt"}},{"name":"Deichstr.","postalCode":"06905","locality":"Bad Schmiedeberg","municipality":{"key":"15091020","name":"Bad Schmiedeberg, Stadt","type":"Stadt"},"district":{"key":"15091","name":"Wittenberg","type":"Landkreis"},"federalState":{"key":"15","name":"Sachsen-Anhalt"}},{"name":"Der alte I-Weg","postalCode":"06905","locality":"Bad Schmiedeberg","municipality":{"key":"15091020","name":"Bad Schmiedeberg, Stadt","type":"Stadt"},"district":{"key":"15091","name":"Wittenberg","type":"Landkreis"},"federalState":{"key":"15","name":"Sachsen-Anhalt"}},{"name":"Die Gabel","postalCode":"06905","locality":"Bad Schmiedeberg","municipality":{"key":"15091020","name":"Bad Schmiedeberg, Stadt","type":"Stadt"},"district":{"key":"15091","name":"Wittenberg","type":"Landkreis"},"federalState":{"key":"15","name":"Sachsen-Anhalt"}},{"name":"Domänenpark","postalCode":"06905","locality":"Bad Schmiedeberg","municipality":{"key":"15091020","name":"Bad Schmiedeberg, Stadt","type":"Stadt"},"district":{"key":"15091","name":"Wittenberg","type":"Landkreis"},"federalState":{"key":"15","name":"Sachsen-Anhalt"}},{"name":"Dommitzscher Str.","postalCode":"06905","locality":"Bad Schmiedeberg","municipality":{"key":"15091020","name":"Bad Schmiedeberg, Stadt","type":"Stadt"},"district":{"key":"15091","name":"Wittenberg","type":"Landkreis"},"federalState":{"key":"15","name":"Sachsen-Anhalt"}},{"name":"Dorfstr.","postalCode":"06905","locality":"Bad Schmiedeberg","municipality":{"key":"15091020","name":"Bad Schmiedeberg, Stadt","type":"Stadt"},"district":{"key":"15091","name":"Wittenberg","type":"Landkreis"},"federalState":{"key":"15","name":"Sachsen-Anhalt"}},{"name":"Drosselweg","postalCode":"06905","locality":"Bad Schmiedeberg","municipality":{"key":"15091020","name":"Bad Schmiedeberg, Stadt","type":"Stadt"},"district":{"key":"15091","name":"Wittenberg","type":"Landkreis"},"federalState":{"key":"15","name":"Sachsen-Anhalt"}},{"name":"Dübener Landstr.","postalCode":"06905","locality":"Bad Schmiedeberg","municipality":{"key":"15091020","name":"Bad Schmiedeberg, Stadt","type":"Stadt"},"district":{"key":"15091","name":"Wittenberg","type":"Landkreis"},"federalState":{"key":"15","name":"Sachsen-Anhalt"}},{"name":"Dübener Str.","postalCode":"06905","locality":"Bad Schmiedeberg","municipality":{"key":"15091020","name":"Bad Schmiedeberg, Stadt","type":"Stadt"},"district":{"key":"15091","name":"Wittenberg","type":"Landkreis"},"federalState":{"key":"15","name":"Sachsen-Anhalt"}},{"name":"Elbstr.","postalCode":"06905","locality":"Bad Schmiedeberg","municipality":{"key":"15091020","name":"Bad Schmiedeberg, Stadt","type":"Stadt"},"district":{"key":"15091","name":"Wittenberg","type":"Landkreis"},"federalState":{"key":"15","name":"Sachsen-Anhalt"}},{"name":"Ernst-Thälmann-Str.","postalCode":"06905","locality":"Bad Schmiedeberg","municipality":{"key":"15091020","name":"Bad Schmiedeberg, Stadt","type":"Stadt"},"district":{"key":"15091","name":"Wittenberg","type":"Landkreis"},"federalState":{"key":"15","name":"Sachsen-Anhalt"}},{"name":"Eselsweg","postalCode":"06905","locality":"Bad Schmiedeberg","municipality":{"key":"15091020","name":"Bad Schmiedeberg, Stadt","type":"Stadt"},"district":{"key":"15091","name":"Wittenberg","type":"Landkreis"},"federalState":{"key":"15","name":"Sachsen-Anhalt"}},{"name":"E-Weg","postalCode":"06905","locality":"Bad Schmiedeberg","municipality":{"key":"15091020","name":"Bad Schmiedeberg, Stadt","type":"Stadt"},"district":{"key":"15091","name":"Wittenberg","type":"Landkreis"},"federalState":{"key":"15","name":"Sachsen-Anhalt"}},{"name":"Falkenberger Str.","postalCode":"06905","locality":"Bad Schmiedeberg","municipality":{"key":"15091020","name":"Bad Schmiedeberg, Stadt","type":"Stadt"},"district":{"key":"15091","name":"Wittenberg","type":"Landkreis"},"federalState":{"key":"15","name":"Sachsen-Anhalt"}},{"name":"Feldsieben","postalCode":"06905","locality":"Bad Schmiedeberg","municipality":{"key":"15091020","name":"Bad Schmiedeberg, Stadt","type":"Stadt"},"district":{"key":"15091","name":"Wittenberg","type":"Landkreis"},"federalState":{"key":"15","name":"Sachsen-Anhalt"}},{"name":"Feldstr.","postalCode":"06905","locality":"Bad Schmiedeberg","municipality":{"key":"15091020","name":"Bad Schmiedeberg, Stadt","type":"Stadt"},"district":{"key":"15091","name":"Wittenberg","type":"Landkreis"},"federalState":{"key":"15","name":"Sachsen-Anhalt"}},{"name":"Feldweg","postalCode":"06905","locality":"Bad Schmiedeberg","municipality":{"key":"15091020","name":"Bad Schmiedeberg, Stadt","type":"Stadt"},"district":{"key":"15091","name":"Wittenberg","type":"Landkreis"},"federalState":{"key":"15","name":"Sachsen-Anhalt"}},{"name":"Fischerstr.","postalCode":"06905","locality":"Bad Schmiedeberg","municipality":{"key":"15091020","name":"Bad Schmiedeberg, Stadt","type":"Stadt"},"district":{"key":"15091","name":"Wittenberg","type":"Landkreis"},"federalState":{"key":"15","name":"Sachsen-Anhalt"}},{"name":"Fischotterlinie","postalCode":"06905","locality":"Bad Schmiedeberg","municipality":{"key":"15091020","name":"Bad Schmiedeberg, Stadt","type":"Stadt"},"district":{"key":"15091","name":"Wittenberg","type":"Landkreis"},"federalState":{"key":"15","name":"Sachsen-Anhalt"}},{"name":"Gartenstr.","postalCode":"06905","locality":"Bad Schmiedeberg","municipality":{"key":"15091020","name":"Bad Schmiedeberg, Stadt","type":"Stadt"},"district":{"key":"15091","name":"Wittenberg","type":"Landkreis"},"federalState":{"key":"15","name":"Sachsen-Anhalt"}},{"name":"Gartenweg","postalCode":"06905","locality":"Bad Schmiedeberg","municipality":{"key":"15091020","name":"Bad Schmiedeberg, Stadt","type":"Stadt"},"district":{"key":"15091","name":"Wittenberg","type":"Landkreis"},"federalState":{"key":"15","name":"Sachsen-Anhalt"}},{"name":"Gärtnerstr.","postalCode":"06905","locality":"Bad Schmiedeberg","municipality":{"key":"15091020","name":"Bad Schmiedeberg, Stadt","type":"Stadt"},"district":{"key":"15091","name":"Wittenberg","type":"Landkreis"},"federalState":{"key":"15","name":"Sachsen-Anhalt"}},{"name":"Gärtnerweg","postalCode":"06905","locality":"Bad Schmiedeberg","municipality":{"key":"15091020","name":"Bad Schmiedeberg, Stadt","type":"Stadt"},"district":{"key":"15091","name":"Wittenberg","type":"Landkreis"},"federalState":{"key":"15","name":"Sachsen-Anhalt"}},{"name":"Goetheallee","postalCode":"06905","locality":"Bad Schmiedeberg","municipality":{"key":"15091020","name":"Bad Schmiedeberg, Stadt","type":"Stadt"},"district":{"key":"15091","name":"Wittenberg","type":"Landkreis"},"federalState":{"key":"15","name":"Sachsen-Anhalt"}},{"name":"Graulweg","postalCode":"06905","locality":"Bad Schmiedeberg","municipality":{"key":"15091020","name":"Bad Schmiedeberg, Stadt","type":"Stadt"},"district":{"key":"15091","name":"Wittenberg","type":"Landkreis"},"federalState":{"key":"15","name":"Sachsen-Anhalt"}},{"name":"Grenzflügel","postalCode":"06905","locality":"Bad Schmiedeberg","municipality":{"key":"15091020","name":"Bad Schmiedeberg, Stadt","type":"Stadt"},"district":{"key":"15091","name":"Wittenberg","type":"Landkreis"},"federalState":{"key":"15","name":"Sachsen-Anhalt"}},{"name":"Grenzweg","postalCode":"06905","locality":"Bad Schmiedeberg","municipality":{"key":"15091020","name":"Bad Schmiedeberg, Stadt","type":"Stadt"},"district":{"key":"15091","name":"Wittenberg","type":"Landkreis"},"federalState":{"key":"15","name":"Sachsen-Anhalt"}},{"name":"Großkorgauer Str.","postalCode":"06905","locality":"Bad Schmiedeberg","municipality":{"key":"15091020","name":"Bad Schmiedeberg, Stadt","type":"Stadt"},"district":{"key":"15091","name":"Wittenberg","type":"Landkreis"},"federalState":{"key":"15","name":"Sachsen-Anhalt"}},{"name":"Großkorgauer Weg","postalCode":"06905","locality":"Bad Schmiedeberg","municipality":{"key":"15091020","name":"Bad Schmiedeberg, Stadt","type":"Stadt"},"district":{"key":"15091","name":"Wittenberg","type":"Landkreis"},"federalState":{"key":"15","name":"Sachsen-Anhalt"}},{"name":"Großkorkauer Dorfstr.","postalCode":"06905","locality":"Bad Schmiedeberg","municipality":{"key":"15091020","name":"Bad Schmiedeberg, Stadt","type":"Stadt"},"district":{"key":"15091","name":"Wittenberg","type":"Landkreis"},"federalState":{"key":"15","name":"Sachsen-Anhalt"}},{"name":"Großwiger Weg","postalCode":"06905","locality":"Bad Schmiedeberg","municipality":{"key":"15091020","name":"Bad Schmiedeberg, Stadt","type":"Stadt"},"district":{"key":"15091","name":"Wittenberg","type":"Landkreis"},"federalState":{"key":"15","name":"Sachsen-Anhalt"}},{"name":"Großwiger Weinberg I","postalCode":"06905","locality":"Bad Schmiedeberg","municipality":{"key":"15091020","name":"Bad Schmiedeberg, Stadt","type":"Stadt"},"district":{"key":"15091","name":"Wittenberg","type":"Landkreis"},"federalState":{"key":"15","name":"Sachsen-Anhalt"}},{"name":"Großwiger Weinberg II","postalCode":"06905","locality":"Bad Schmiedeberg","municipality":{"key":"15091020","name":"Bad Schmiedeberg, Stadt","type":"Stadt"},"district":{"key":"15091","name":"Wittenberg","type":"Landkreis"},"federalState":{"key":"15","name":"Sachsen-Anhalt"}},{"name":"Grüner Weg","postalCode":"06905","locality":"Bad Schmiedeberg","municipality":{"key":"15091020","name":"Bad Schmiedeberg, Stadt","type":"Stadt"},"district":{"key":"15091","name":"Wittenberg","type":"Landkreis"},"federalState":{"key":"15","name":"Sachsen-Anhalt"}},{"name":"Hauptstr.","postalCode":"06905","locality":"Bad Schmiedeberg","municipality":{"key":"15091020","name":"Bad Schmiedeberg, Stadt","type":"Stadt"},"district":{"key":"15091","name":"Wittenberg","type":"Landkreis"},"federalState":{"key":"15","name":"Sachsen-Anhalt"}},{"name":"Heidestr.","postalCode":"06905","locality":"Bad Schmiedeberg","municipality":{"key":"15091020","name":"Bad Schmiedeberg, Stadt","type":"Stadt"},"district":{"key":"15091","name":"Wittenberg","type":"Landkreis"},"federalState":{"key":"15","name":"Sachsen-Anhalt"}},{"name":"Hohlweg","postalCode":"06905","locality":"Bad Schmiedeberg","municipality":{"key":"15091020","name":"Bad Schmiedeberg, Stadt","type":"Stadt"},"district":{"key":"15091","name":"Wittenberg","type":"Landkreis"},"federalState":{"key":"15","name":"Sachsen-Anhalt"}},{"name":"Höllenweg","postalCode":"06905","locality":"Bad Schmiedeberg","municipality":{"key":"15091020","name":"Bad Schmiedeberg, Stadt","type":"Stadt"},"district":{"key":"15091","name":"Wittenberg","type":"Landkreis"},"federalState":{"key":"15","name":"Sachsen-Anhalt"}},{"name":"Horstweinberge","postalCode":"06905","locality":"Bad Schmiedeberg","municipality":{"key":"15091020","name":"Bad Schmiedeberg, Stadt","type":"Stadt"},"district":{"key":"15091","name":"Wittenberg","type":"Landkreis"},"federalState":{"key":"15","name":"Sachsen-Anhalt"}},{"name":"H-Weg","postalCode":"06905","locality":"Bad Schmiedeberg","municipality":{"key":"15091020","name":"Bad Schmiedeberg, Stadt","type":"Stadt"},"district":{"key":"15091","name":"Wittenberg","type":"Landkreis"},"federalState":{"key":"15","name":"Sachsen-Anhalt"}},{"name":"Im Hagen","postalCode":"19322","locality":"Wittenberge","municipality":{"key":"12070424","name":"Wittenberge, Stadt","type":"Stadt"},"district":{"key":"12070","name":"Prignitz","type":"Landkreis"},"federalState":{"key":"12","name":"Brandenburg"}},{"name":"Im Pannbusch","postalCode":"19322","locality":"Wittenberge","municipality":{"key":"12070424","name":"Wittenberge, Stadt","type":"Stadt"},"district":{"key":"12070","name":"Prignitz","type":"Landkreis"},"federalState":{"key":"12","name":"Brandenburg"}},{"name":"In den Grapenstücken","postalCode":"19322","locality":"Wittenberge","municipality":{"key":"12070424","name":"Wittenberge, Stadt","type":"Stadt"},"district":{"key":"12070","name":"Prignitz","type":"Landkreis"},"federalState":{"key":"12","name":"Brandenburg"}},{"name":"Industriestr.","postalCode":"19322","locality":"Wittenberge","municipality":{"key":"12070424","name":"Wittenberge, Stadt","type":"Stadt"},"district":{"key":"12070","name":"Prignitz","type":"Landkreis"},"federalState":{"key":"12","name":"Brandenburg"}},{"name":"J-Acht","postalCode":"06905","locality":"Bad Schmiedeberg","municipality":{"key":"15091020","name":"Bad Schmiedeberg, Stadt","type":"Stadt"},"district":{"key":"15091","name":"Wittenberg","type":"Landkreis"},"federalState":{"key":"15","name":"Sachsen-Anhalt"}},{"name":"Jagdflügel Sechs","postalCode":"06905","locality":"Bad Schmiedeberg","municipality":{"key":"15091020","name":"Bad Schmiedeberg, Stadt","type":"Stadt"},"district":{"key":"15091","name":"Wittenberg","type":"Landkreis"},"federalState":{"key":"15","name":"Sachsen-Anhalt"}},{"name":"Jagdhausweg","postalCode":"06905","locality":"Bad Schmiedeberg","municipality":{"key":"15091020","name":"Bad Schmiedeberg, Stadt","type":"Stadt"},"district":{"key":"15091","name":"Wittenberg","type":"Landkreis"},"federalState":{"key":"15","name":"Sachsen-Anhalt"}},{"name":"J-Fünf","postalCode":"06905","locality":"Bad Schmiedeberg","municipality":{"key":"15091020","name":"Bad Schmiedeberg, Stadt","type":"Stadt"},"district":{"key":"15091","name":"Wittenberg","type":"Landkreis"},"federalState":{"key":"15","name":"Sachsen-Anhalt"}},{"name":"J-Sieben","postalCode":"06905","locality":"Bad Schmiedeberg","municipality":{"key":"15091020","name":"Bad Schmiedeberg, Stadt","type":"Stadt"},"district":{"key":"15091","name":"Wittenberg","type":"Landkreis"},"federalState":{"key":"15","name":"Sachsen-Anhalt"}},{"name":"J-Vier","postalCode":"06905","locality":"Bad Schmiedeberg","municipality":{"key":"15091020","name":"Bad Schmiedeberg, Stadt","type":"Stadt"},"district":{"key":"15091","name":"Wittenberg","type":"Landkreis"},"federalState":{"key":"15","name":"Sachsen-Anhalt"}},{"name":"Kemberger Str.","postalCode":"06905","locality":"Bad Schmiedeberg","municipality":{"key":"15091020","name":"Bad Schmiedeberg, Stadt","type":"Stadt"},"district":{"key":"15091","name":"Wittenberg","type":"Landkreis"},"federalState":{"key":"15","name":"Sachsen-Anhalt"}},{"name":"Kienlampe","postalCode":"06905","locality":"Bad Schmiedeberg","municipality":{"key":"15091020","name":"Bad Schmiedeberg, Stadt","type":"Stadt"},"district":{"key":"15091","name":"Wittenberg","type":"Landkreis"},"federalState":{"key":"15","name":"Sachsen-Anhalt"}},{"name":"Kirchplatz","postalCode":"06905","locality":"Bad Schmiedeberg","municipality":{"key":"15091020","name":"Bad Schmiedeberg, Stadt","type":"Stadt"},"district":{"key":"15091","name":"Wittenberg","type":"Landkreis"},"federalState":{"key":"15","name":"Sachsen-Anhalt"}},{"name":"Kirchstr.","postalCode":"06905","locality":"Bad Schmiedeberg","municipality":{"key":"15091020","name":"Bad Schmiedeberg, Stadt","type":"Stadt"},"district":{"key":"15091","name":"Wittenberg","type":"Landkreis"},"federalState":{"key":"15","name":"Sachsen-Anhalt"}},{"name":"Kleinkorgauer Dorfstr.","postalCode":"06905","locality":"Bad Schmiedeberg","municipality":{"key":"15091020","name":"Bad Schmiedeberg, Stadt","type":"Stadt"},"district":{"key":"15091","name":"Wittenberg","type":"Landkreis"},"federalState":{"key":"15","name":"Sachsen-Anhalt"}},{"name":"Kleinzerbster Weg","postalCode":"06905","locality":"Bad Schmiedeberg","municipality":{"key":"15091020","name":"Bad Schmiedeberg, Stadt","type":"Stadt"},"district":{"key":"15091","name":"Wittenberg","type":"Landkreis"},"federalState":{"key":"15","name":"Sachsen-Anhalt"}},{"name":"Knotenweg","postalCode":"06905","locality":"Bad Schmiedeberg","municipality":{"key":"15091020","name":"Bad Schmiedeberg, Stadt","type":"Stadt"},"district":{"key":"15091","name":"Wittenberg","type":"Landkreis"},"federalState":{"key":"15","name":"Sachsen-Anhalt"}},{"name":"Köhlerweg","postalCode":"06905","locality":"Bad Schmiedeberg","municipality":{"key":"15091020","name":"Bad Schmiedeberg, Stadt","type":"Stadt"},"district":{"key":"15091","name":"Wittenberg","type":"Landkreis"},"federalState":{"key":"15","name":"Sachsen-Anhalt"}},{"name":"Körbiner Str.","postalCode":"06905","locality":"Bad Schmiedeberg","municipality":{"key":"15091020","name":"Bad Schmiedeberg, Stadt","type":"Stadt"},"district":{"key":"15091","name":"Wittenberg","type":"Landkreis"},"federalState":{"key":"15","name":"Sachsen-Anhalt"}},{"name":"Körbiner Weg","postalCode":"06905","locality":"Bad Schmiedeberg","municipality":{"key":"15091020","name":"Bad Schmiedeberg, Stadt","type":"Stadt"},"district":{"key":"15091","name":"Wittenberg","type":"Landkreis"},"federalState":{"key":"15","name":"Sachsen-Anhalt"}},{"name":"Körbin-Neu","postalCode":"06905","locality":"Bad Schmiedeberg","municipality":{"key":"15091020","name":"Bad Schmiedeberg, Stadt","type":"Stadt"},"district":{"key":"15091","name":"Wittenberg","type":"Landkreis"},"federalState":{"key":"15","name":"Sachsen-Anhalt"}},{"name":"Korgauer Str.","postalCode":"06905","locality":"Bad Schmiedeberg","municipality":{"key":"15091020","name":"Bad Schmiedeberg, Stadt","type":"Stadt"},"district":{"key":"15091","name":"Wittenberg","type":"Landkreis"},"federalState":{"key":"15","name":"Sachsen-Anhalt"}},{"name":"Kossaer Str.","postalCode":"06905","locality":"Bad Schmiedeberg","municipality":{"key":"15091020","name":"Bad Schmiedeberg, Stadt","type":"Stadt"},"district":{"key":"15091","name":"Wittenberg","type":"Landkreis"},"federalState":{"key":"15","name":"Sachsen-Anhalt"}},{"name":"Kurfürstenring","postalCode":"06905","locality":"Bad Schmiedeberg","municipality":{"key":"15091020","name":"Bad Schmiedeberg, Stadt","type":"Stadt"},"district":{"key":"15091","name":"Wittenberg","type":"Landkreis"},"federalState":{"key":"15","name":"Sachsen-Anhalt"}},{"name":"Kurpark","postalCode":"06905","locality":"Bad Schmiedeberg","municipality":{"key":"15091020","name":"Bad Schmiedeberg, Stadt","type":"Stadt"},"district":{"key":"15091","name":"Wittenberg","type":"Landkreis"},"federalState":{"key":"15","name":"Sachsen-Anhalt"}},{"name":"Kurpromenade","postalCode":"06905","locality":"Bad Schmiedeberg","municipality":{"key":"15091020","name":"Bad Schmiedeberg, Stadt","type":"Stadt"},"district":{"key":"15091","name":"Wittenberg","type":"Landkreis"},"federalState":{"key":"15","name":"Sachsen-Anhalt"}},{"name":"Kurt-am-Ende-Str.","postalCode":"06905","locality":"Bad Schmiedeberg","municipality":{"key":"15091020","name":"Bad Schmiedeberg, Stadt","type":"Stadt"},"district":{"key":"15091","name":"Wittenberg","type":"Landkreis"},"federalState":{"key":"15","name":"Sachsen-Anhalt"}},{"name":"Kurze Str.","postalCode":"06905","locality":"Bad Schmiedeberg","municipality":{"key":"15091020","name":"Bad Schmiedeberg, Stadt","type":"Stadt"},"district":{"key":"15091","name":"Wittenberg","type":"Landkreis"},"federalState":{"key":"15","name":"Sachsen-Anhalt"}},{"name":"Lange Linie","postalCode":"06905","locality":"Bad Schmiedeberg","municipality":{"key":"15091020","name":"Bad Schmiedeberg, Stadt","type":"Stadt"},"district":{"key":"15091","name":"Wittenberg","type":"Landkreis"},"federalState":{"key":"15","name":"Sachsen-Anhalt"}},{"name":"Lausiger Str.","postalCode":"06905","locality":"Bad Schmiedeberg","municipality":{"key":"15091020","name":"Bad Schmiedeberg, Stadt","type":"Stadt"},"district":{"key":"15091","name":"Wittenberg","type":"Landkreis"},"federalState":{"key":"15","name":"Sachsen-Anhalt"}},{"name":"Leipziger Str.","postalCode":"06905","locality":"Bad Schmiedeberg","municipality":{"key":"15091020","name":"Bad Schmiedeberg, Stadt","type":"Stadt"},"district":{"key":"15091","name":"Wittenberg","type":"Landkreis"},"federalState":{"key":"15","name":"Sachsen-Anhalt"}},{"name":"Lindenstr.","postalCode":"06905","locality":"Bad Schmiedeberg","municipality":{"key":"15091020","name":"Bad Schmiedeberg, Stadt","type":"Stadt"},"district":{"key":"15091","name":"Wittenberg","type":"Landkreis"},"federalState":{"key":"15","name":"Sachsen-Anhalt"}},{"name":"L-Linie","postalCode":"06905","locality":"Bad Schmiedeberg","municipality":{"key":"15091020","name":"Bad Schmiedeberg, Stadt","type":"Stadt"},"district":{"key":"15091","name":"Wittenberg","type":"Landkreis"},"federalState":{"key":"15","name":"Sachsen-Anhalt"}},{"name":"Luisenstr.","postalCode":"06905","locality":"Bad Schmiedeberg","municipality":{"key":"15091020","name":"Bad Schmiedeberg, Stadt","type":"Stadt"},"district":{"key":"15091","name":"Wittenberg","type":"Landkreis"},"federalState":{"key":"15","name":"Sachsen-Anhalt"}},{"name":"L-Weg","postalCode":"06905","locality":"Bad Schmiedeberg","municipality":{"key":"15091020","name":"Bad Schmiedeberg, Stadt","type":"Stadt"},"district":{"key":"15091","name":"Wittenberg","type":"Landkreis"},"federalState":{"key":"15","name":"Sachsen-Anhalt"}},{"name":"Margarethen-Ring","postalCode":"06905","locality":"Bad Schmiedeberg","municipality":{"key":"15091020","name":"Bad Schmiedeberg, Stadt","type":"Stadt"},"district":{"key":"15091","name":"Wittenberg","type":"Landkreis"},"federalState":{"key":"15","name":"Sachsen-Anhalt"}},{"name":"Merkwitz","postalCode":"06905","locality":"Bad Schmiedeberg","municipality":{"key":"15091020","name":"Bad Schmiedeberg, Stadt","type":"Stadt"},"district":{"key":"15091","name":"Wittenberg","type":"Landkreis"},"federalState":{"key":"15","name":"Sachsen-Anhalt"}},{"name":"Merschwitz","postalCode":"06905","locality":"Bad Schmiedeberg","municipality":{"key":"15091020","name":"Bad Schmiedeberg, Stadt","type":"Stadt"},"district":{"key":"15091","name":"Wittenberg","type":"Landkreis"},"federalState":{"key":"15","name":"Sachsen-Anhalt"}},{"name":"Meuro","postalCode":"06905","locality":"Bad Schmiedeberg","municipality":{"key":"15091020","name":"Bad Schmiedeberg, Stadt","type":"Stadt"},"district":{"key":"15091","name":"Wittenberg","type":"Landkreis"},"federalState":{"key":"15","name":"Sachsen-Anhalt"}},{"name":"Mittelweg","postalCode":"06905","locality":"Bad Schmiedeberg","municipality":{"key":"15091020","name":"Bad Schmiedeberg, Stadt","type":"Stadt"},"district":{"key":"15091","name":"Wittenberg","type":"Landkreis"},"federalState":{"key":"15","name":"Sachsen-Anhalt"}},{"name":"Moschwiger Str.","postalCode":"06905","locality":"Bad Schmiedeberg","municipality":{"key":"15091020","name":"Bad Schmiedeberg, Stadt","type":"Stadt"},"district":{"key":"15091","name":"Wittenberg","type":"Landkreis"},"federalState":{"key":"15","name":"Sachsen-Anhalt"}},{"name":"Mühlenweg","postalCode":"06905","locality":"Bad Schmiedeberg","municipality":{"key":"15091020","name":"Bad Schmiedeberg, Stadt","type":"Stadt"},"district":{"key":"15091","name":"Wittenberg","type":"Landkreis"},"federalState":{"key":"15","name":"Sachsen-Anhalt"}},{"name":"M-Weg","postalCode":"06905","locality":"Bad Schmiedeberg","municipality":{"key":"15091020","name":"Bad Schmiedeberg, Stadt","type":"Stadt"},"district":{"key":"15091","name":"Wittenberg","type":"Landkreis"},"federalState":{"key":"15","name":"Sachsen-Anhalt"}},{"name":"Neumarkt","postalCode":"06905","locality":"Bad Schmiedeberg","municipality":{"key":"15091020","name":"Bad Schmiedeberg, Stadt","type":"Stadt"},"district":{"key":"15091","name":"Wittenberg","type":"Landkreis"},"federalState":{"key":"15","name":"Sachsen-Anhalt"}},{"name":"Neumarktstr.","postalCode":"06905","locality":"Bad Schmiedeberg","municipality":{"key":"15091020","name":"Bad Schmiedeberg, Stadt","type":"Stadt"},"district":{"key":"15091","name":"Wittenberg","type":"Landkreis"},"federalState":{"key":"15","name":"Sachsen-Anhalt"}},{"name":"Neumühlstr.","postalCode":"06905","locality":"Bad Schmiedeberg","municipality":{"key":"15091020","name":"Bad Schmiedeberg, Stadt","type":"Stadt"},"district":{"key":"15091","name":"Wittenberg","type":"Landkreis"},"federalState":{"key":"15","name":"Sachsen-Anhalt"}},{"name":"Neustr.","postalCode":"06905","locality":"Bad Schmiedeberg","municipality":{"key":"15091020","name":"Bad Schmiedeberg, Stadt","type":"Stadt"},"district":{"key":"15091","name":"Wittenberg","type":"Landkreis"},"federalState":{"key":"15","name":"Sachsen-Anhalt"}},{"name":"Oberer Straacher Weg","postalCode":"06889","locality":"Wittenberg","municipality":{"key":"15091375","name":"Wittenberg, Lutherstadt","type":"Stadt"},"district":{"key":"15091","name":"Wittenberg","type":"Landkreis"},"federalState":{"key":"15","name":"Sachsen-Anhalt"}},{"name":"Oskar-Meßter-Str.","postalCode":"06886","locality":"Wittenberg","municipality":{"key":"15091375","name":"Wittenberg, Lutherstadt","type":"Stadt"},"district":{"key":"15091","name":"Wittenberg","type":"Landkreis"},"federalState":{"key":"15","name":"Sachsen-Anhalt"}},{"name":"Osterburger Str.","postalCode":"19322","locality":"Wittenberge","municipality":{"key":"12070424","name":"Wittenberge, Stadt","type":"Stadt"},"district":{"key":"12070","name":"Prignitz","type":"Landkreis"},"federalState":{"key":"12","name":"Brandenburg"}},{"name":"Oststr.","postalCode":"06886","locality":"Wittenberg","municipality":{"key":"15091375","name":"Wittenberg, Lutherstadt","type":"Stadt"},"district":{"key":"15091","name":"Wittenberg","type":"Landkreis"},"federalState":{"key":"15","name":"Sachsen-Anhalt"}},{"name":"Otto-Mucke-Str.","postalCode":"06888","locality":"Wittenberg","municipality":{"key":"15091375","name":"Wittenberg, Lutherstadt","type":"Stadt"},"district":{"key":"15091","name":"Wittenberg","type":"Landkreis"},"federalState":{"key":"15","name":"Sachsen-Anhalt"}},{"name":"Otto-Nuschke-Str.","postalCode":"06886","locality":"Wittenberg","municipality":{"key":"15091375","name":"Wittenberg, Lutherstadt","type":"Stadt"},"district":{"key":"15091","name":"Wittenberg","type":"Landkreis"},"federalState":{"key":"15","name":"Sachsen-Anhalt"}},{"name":"Parkweg","postalCode":"06905","locality":"Bad Schmiedeberg","municipality":{"key":"15091020","name":"Bad Schmiedeberg, Stadt","type":"Stadt"},"district":{"key":"15091","name":"Wittenberg","type":"Landkreis"},"federalState":{"key":"15","name":"Sachsen-Anhalt"}},{"name":"Patzschwig","postalCode":"06905","locality":"Bad Schmiedeberg","municipality":{"key":"15091020","name":"Bad Schmiedeberg, Stadt","type":"Stadt"},"district":{"key":"15091","name":"Wittenberg","type":"Landkreis"},"federalState":{"key":"15","name":"Sachsen-Anhalt"}},{"name":"Pfarrdamm","postalCode":"06905","locality":"Bad Schmiedeberg","municipality":{"key":"15091020","name":"Bad Schmiedeberg, Stadt","type":"Stadt"},"district":{"key":"15091","name":"Wittenberg","type":"Landkreis"},"federalState":{"key":"15","name":"Sachsen-Anhalt"}},{"name":"Pfeffermühlweg","postalCode":"06905","locality":"Bad Schmiedeberg","municipality":{"key":"15091020","name":"Bad Schmiedeberg, Stadt","type":"Stadt"},"district":{"key":"15091","name":"Wittenberg","type":"Landkreis"},"federalState":{"key":"15","name":"Sachsen-Anhalt"}},{"name":"Postweg","postalCode":"06905","locality":"Bad Schmiedeberg","municipality":{"key":"15091020","name":"Bad Schmiedeberg, Stadt","type":"Stadt"},"district":{"key":"15091","name":"Wittenberg","type":"Landkreis"},"federalState":{"key":"15","name":"Sachsen-Anhalt"}},{"name":"Pretzscher Allee","postalCode":"06905","locality":"Bad Schmiedeberg","municipality":{"key":"15091020","name":"Bad Schmiedeberg, Stadt","type":"Stadt"},"district":{"key":"15091","name":"Wittenberg","type":"Landkreis"},"federalState":{"key":"15","name":"Sachsen-Anhalt"}},{"name":"Pretzscher Str.","postalCode":"06905","locality":"Bad Schmiedeberg","municipality":{"key":"15091020","name":"Bad Schmiedeberg, Stadt","type":"Stadt"},"district":{"key":"15091","name":"Wittenberg","type":"Landkreis"},"federalState":{"key":"15","name":"Sachsen-Anhalt"}},{"name":"Priesitz","postalCode":"06905","locality":"Bad Schmiedeberg","municipality":{"key":"15091020","name":"Bad Schmiedeberg, Stadt","type":"Stadt"},"district":{"key":"15091","name":"Wittenberg","type":"Landkreis"},"federalState":{"key":"15","name":"Sachsen-Anhalt"}},{"name":"Promenade","postalCode":"06905","locality":"Bad Schmiedeberg","municipality":{"key":"15091020","name":"Bad Schmiedeberg, Stadt","type":"Stadt"},"district":{"key":"15091","name":"Wittenberg","type":"Landkreis"},"federalState":{"key":"15","name":"Sachsen-Anhalt"}},{"name":"Querstr.","postalCode":"06889","locality":"Wittenberg","municipality":{"key":"15091375","name":"Wittenberg, Lutherstadt","type":"Stadt"},"district":{"key":"15091","name":"Wittenberg","type":"Landkreis"},"federalState":{"key":"15","name":"Sachsen-Anhalt"}},{"name":"Quitzowstr.","postalCode":"19322","locality":"Wittenberge","municipality":{"key":"12070424","name":"Wittenberge, Stadt","type":"Stadt"},"district":{"key":"12070","name":"Prignitz","type":"Landkreis"},"federalState":{"key":"12","name":"Brandenburg"}},{"name":"Ratsgraben","postalCode":"06905","locality":"Bad Schmiedeberg","municipality":{"key":"15091020","name":"Bad Schmiedeberg, Stadt","type":"Stadt"},"district":{"key":"15091","name":"Wittenberg","type":"Landkreis"},"federalState":{"key":"15","name":"Sachsen-Anhalt"}},{"name":"Rehhahnweg","postalCode":"06905","locality":"Bad Schmiedeberg","municipality":{"key":"15091020","name":"Bad Schmiedeberg, Stadt","type":"Stadt"},"district":{"key":"15091","name":"Wittenberg","type":"Landkreis"},"federalState":{"key":"15","name":"Sachsen-Anhalt"}},{"name":"Reichsapfelweg","postalCode":"06905","locality":"Bad Schmiedeberg","municipality":{"key":"15091020","name":"Bad Schmiedeberg, Stadt","type":"Stadt"},"district":{"key":"15091","name":"Wittenberg","type":"Landkreis"},"federalState":{"key":"15","name":"Sachsen-Anhalt"}},{"name":"Reinharz","postalCode":"06905","locality":"Bad Schmiedeberg","municipality":{"key":"15091020","name":"Bad Schmiedeberg, Stadt","type":"Stadt"},"district":{"key":"15091","name":"Wittenberg","type":"Landkreis"},"federalState":{"key":"15","name":"Sachsen-Anhalt"}},{"name":"Reinharzer Str.","postalCode":"06905","locality":"Bad Schmiedeberg","municipality":{"key":"15091020","name":"Bad Schmiedeberg, Stadt","type":"Stadt"},"district":{"key":"15091","name":"Wittenberg","type":"Landkreis"},"federalState":{"key":"15","name":"Sachsen-Anhalt"}},{"name":"Reinharzer Weg","postalCode":"06905","locality":"Bad Schmiedeberg","municipality":{"key":"15091020","name":"Bad Schmiedeberg, Stadt","type":"Stadt"},"district":{"key":"15091","name":"Wittenberg","type":"Landkreis"},"federalState":{"key":"15","name":"Sachsen-Anhalt"}},{"name":"Ringstr.","postalCode":"06905","locality":"Bad Schmiedeberg","municipality":{"key":"15091020","name":"Bad Schmiedeberg, Stadt","type":"Stadt"},"district":{"key":"15091","name":"Wittenberg","type":"Landkreis"},"federalState":{"key":"15","name":"Sachsen-Anhalt"}},{"name":"Rodelbahn","postalCode":"06905","locality":"Bad Schmiedeberg","municipality":{"key":"15091020","name":"Bad Schmiedeberg, Stadt","type":"Stadt"},"district":{"key":"15091","name":"Wittenberg","type":"Landkreis"},"federalState":{"key":"15","name":"Sachsen-Anhalt"}},{"name":"Rosengasse","postalCode":"06905","locality":"Bad Schmiedeberg","municipality":{"key":"15091020","name":"Bad Schmiedeberg, Stadt","type":"Stadt"},"district":{"key":"15091","name":"Wittenberg","type":"Landkreis"},"federalState":{"key":"15","name":"Sachsen-Anhalt"}},{"name":"Rote Brücke","postalCode":"06905","locality":"Bad Schmiedeberg","municipality":{"key":"15091020","name":"Bad Schmiedeberg, Stadt","type":"Stadt"},"district":{"key":"15091","name":"Wittenberg","type":"Landkreis"},"federalState":{"key":"15","name":"Sachsen-Anhalt"}},{"name":"Rotscher Weg","postalCode":"06905","locality":"Bad Schmiedeberg","municipality":{"key":"15091020","name":"Bad Schmiedeberg, Stadt","type":"Stadt"},"district":{"key":"15091","name":"Wittenberg","type":"Landkreis"},"federalState":{"key":"15","name":"Sachsen-Anhalt"}},{"name":"R-Weg","postalCode":"06905","locality":"Bad Schmiedeberg","municipality":{"key":"15091020","name":"Bad Schmiedeberg, Stadt","type":"Stadt"},"district":{"key":"15091","name":"Wittenberg","type":"Landkreis"},"federalState":{"key":"15","name":"Sachsen-Anhalt"}},{"name":"Säbelweg","postalCode":"06905","locality":"Bad Schmiedeberg","municipality":{"key":"15091020","name":"Bad Schmiedeberg, Stadt","type":"Stadt"},"district":{"key":"15091","name":"Wittenberg","type":"Landkreis"},"federalState":{"key":"15","name":"Sachsen-Anhalt"}},{"name":"Sachau","postalCode":"06905","locality":"Bad Schmiedeberg","municipality":{"key":"15091020","name":"Bad Schmiedeberg, Stadt","type":"Stadt"},"district":{"key":"15091","name":"Wittenberg","type":"Landkreis"},"federalState":{"key":"15","name":"Sachsen-Anhalt"}},{"name":"Sackwitz","postalCode":"06905","locality":"Bad Schmiedeberg","municipality":{"key":"15091020","name":"Bad Schmiedeberg, Stadt","type":"Stadt"},"district":{"key":"15091","name":"Wittenberg","type":"Landkreis"},"federalState":{"key":"15","name":"Sachsen-Anhalt"}},{"name":"Schäfergasse","postalCode":"06905","locality":"Bad Schmiedeberg","municipality":{"key":"15091020","name":"Bad Schmiedeberg, Stadt","type":"Stadt"},"district":{"key":"15091","name":"Wittenberg","type":"Landkreis"},"federalState":{"key":"15","name":"Sachsen-Anhalt"}},{"name":"Schafsgrundweg I","postalCode":"06905","locality":"Bad Schmiedeberg","municipality":{"key":"15091020","name":"Bad Schmiedeberg, Stadt","type":"Stadt"},"district":{"key":"15091","name":"Wittenberg","type":"Landkreis"},"federalState":{"key":"15","name":"Sachsen-Anhalt"}},{"name":"Schafsgrundweg II","postalCode":"06905","locality":"Bad Schmiedeberg","municipality":{"key":"15091020","name":"Bad Schmiedeberg, Stadt","type":"Stadt"},"district":{"key":"15091","name":"Wittenberg","type":"Landkreis"},"federalState":{"key":"15","name":"Sachsen-Anhalt"}},{"name":"Schafstr.","postalCode":"06905","locality":"Bad Schmiedeberg","municipality":{"key":"15091020","name":"Bad Schmiedeberg, Stadt","type":"Stadt"},"district":{"key":"15091","name":"Wittenberg","type":"Landkreis"},"federalState":{"key":"15","name":"Sachsen-Anhalt"}},{"name":"Schellinberg","postalCode":"06905","locality":"Bad Schmiedeberg","municipality":{"key":"15091020","name":"Bad Schmiedeberg, Stadt","type":"Stadt"},"district":{"key":"15091","name":"Wittenberg","type":"Landkreis"},"federalState":{"key":"15","name":"Sachsen-Anhalt"}},{"name":"Schkönaer Str.","postalCode":"06905","locality":"Bad Schmiedeberg","municipality":{"key":"15091020","name":"Bad Schmiedeberg, Stadt","type":"Stadt"},"district":{"key":"15091","name":"Wittenberg","type":"Landkreis"},"federalState":{"key":"15","name":"Sachsen-Anhalt"}},{"name":"Schlosspark","postalCode":"06905","locality":"Bad Schmiedeberg","municipality":{"key":"15091020","name":"Bad Schmiedeberg, Stadt","type":"Stadt"},"district":{"key":"15091","name":"Wittenberg","type":"Landkreis"},"federalState":{"key":"15","name":"Sachsen-Anhalt"}},{"name":"Schloßstr.","postalCode":"06905","locality":"Bad Schmiedeberg","municipality":{"key":"15091020","name":"Bad Schmiedeberg, Stadt","type":"Stadt"},"district":{"key":"15091","name":"Wittenberg","type":"Landkreis"},"federalState":{"key":"15","name":"Sachsen-Anhalt"}},{"name":"Schmiedeberger Str.","postalCode":"06905","locality":"Bad Schmiedeberg","municipality":{"key":"15091020","name":"Bad Schmiedeberg, Stadt","type":"Stadt"},"district":{"key":"15091","name":"Wittenberg","type":"Landkreis"},"federalState":{"key":"15","name":"Sachsen-Anhalt"}},{"name":"Schmiedeberger Weg","postalCode":"06905","locality":"Bad Schmiedeberg","municipality":{"key":"15091020","name":"Bad Schmiedeberg, Stadt","type":"Stadt"},"district":{"key":"15091","name":"Wittenberg","type":"Landkreis"},"federalState":{"key":"15","name":"Sachsen-Anhalt"}},{"name":"Schnellin","postalCode":"06905","locality":"Bad Schmiedeberg","municipality":{"key":"15091020","name":"Bad Schmiedeberg, Stadt","type":"Stadt"},"district":{"key":"15091","name":"Wittenberg","type":"Landkreis"},"federalState":{"key":"15","name":"Sachsen-Anhalt"}},{"name":"Scholiser Weinberg","postalCode":"06905","locality":"Bad Schmiedeberg","municipality":{"key":"15091020","name":"Bad Schmiedeberg, Stadt","type":"Stadt"},"district":{"key":"15091","name":"Wittenberg","type":"Landkreis"},"federalState":{"key":"15","name":"Sachsen-Anhalt"}},{"name":"Schulstr.","postalCode":"06905","locality":"Bad Schmiedeberg","municipality":{"key":"15091020","name":"Bad Schmiedeberg, Stadt","type":"Stadt"},"district":{"key":"15091","name":"Wittenberg","type":"Landkreis"},"federalState":{"key":"15","name":"Sachsen-Anhalt"}},{"name":"Schwalbenweg","postalCode":"06905","locality":"Bad Schmiedeberg","municipality":{"key":"15091020","name":"Bad Schmiedeberg, Stadt","type":"Stadt"},"district":{"key":"15091","name":"Wittenberg","type":"Landkreis"},"federalState":{"key":"15","name":"Sachsen-Anhalt"}},{"name":"Schwarzer Weg","postalCode":"06905","locality":"Bad Schmiedeberg","municipality":{"key":"15091020","name":"Bad Schmiedeberg, Stadt","type":"Stadt"},"district":{"key":"15091","name":"Wittenberg","type":"Landkreis"},"federalState":{"key":"15","name":"Sachsen-Anhalt"}},{"name":"Splau","postalCode":"06905","locality":"Bad Schmiedeberg","municipality":{"key":"15091020","name":"Bad Schmiedeberg, Stadt","type":"Stadt"},"district":{"key":"15091","name":"Wittenberg","type":"Landkreis"},"federalState":{"key":"15","name":"Sachsen-Anhalt"}},{"name":"Steinweg","postalCode":"06905","locality":"Bad Schmiedeberg","municipality":{"key":"15091020","name":"Bad Schmiedeberg, Stadt","type":"Stadt"},"district":{"key":"15091","name":"Wittenberg","type":"Landkreis"},"federalState":{"key":"15","name":"Sachsen-Anhalt"}},{"name":"Tafelweg","postalCode":"06905","locality":"Bad Schmiedeberg","municipality":{"key":"15091020","name":"Bad Schmiedeberg, Stadt","type":"Stadt"},"district":{"key":"15091","name":"Wittenberg","type":"Landkreis"},"federalState":{"key":"15","name":"Sachsen-Anhalt"}},{"name":"Thälmannstr.","postalCode":"06905","locality":"Bad Schmiedeberg","municipality":{"key":"15091020","name":"Bad Schmiedeberg, Stadt","type":"Stadt"},"district":{"key":"15091","name":"Wittenberg","type":"Landkreis"},"federalState":{"key":"15","name":"Sachsen-Anhalt"}},{"name":"Töpferweg","postalCode":"06905","locality":"Bad Schmiedeberg","municipality":{"key":"15091020","name":"Bad Schmiedeberg, Stadt","type":"Stadt"},"district":{"key":"15091","name":"Wittenberg","type":"Landkreis"},"federalState":{"key":"15","name":"Sachsen-Anhalt"}},{"name":"Torfhäuser","postalCode":"06905","locality":"Bad Schmiedeberg","municipality":{"key":"15091020","name":"Bad Schmiedeberg, Stadt","type":"Stadt"},"district":{"key":"15091","name":"Wittenberg","type":"Landkreis"},"federalState":{"key":"15","name":"Sachsen-Anhalt"}},{"name":"Torgauer Allee","postalCode":"06905","locality":"Bad Schmiedeberg","municipality":{"key":"15091020","name":"Bad Schmiedeberg, Stadt","type":"Stadt"},"district":{"key":"15091","name":"Wittenberg","type":"Landkreis"},"federalState":{"key":"15","name":"Sachsen-Anhalt"}},{"name":"Torgauer Str.","postalCode":"06905","locality":"Bad Schmiedeberg","municipality":{"key":"15091020","name":"Bad Schmiedeberg, Stadt","type":"Stadt"},"district":{"key":"15091","name":"Wittenberg","type":"Landkreis"},"federalState":{"key":"15","name":"Sachsen-Anhalt"}},{"name":"Tuchmacherweg","postalCode":"06905","locality":"Bad Schmiedeberg","municipality":{"key":"15091020","name":"Bad Schmiedeberg, Stadt","type":"Stadt"},"district":{"key":"15091","name":"Wittenberg","type":"Landkreis"},"federalState":{"key":"15","name":"Sachsen-Anhalt"}},{"name":"U-Weg","postalCode":"06905","locality":"Bad Schmiedeberg","municipality":{"key":"15091020","name":"Bad Schmiedeberg, Stadt","type":"Stadt"},"district":{"key":"15091","name":"Wittenberg","type":"Landkreis"},"federalState":{"key":"15","name":"Sachsen-Anhalt"}},{"name":"Veilchenweg","postalCode":"19322","locality":"Wittenberge","municipality":{"key":"12070424","name":"Wittenberge, Stadt","type":"Stadt"},"district":{"key":"12070","name":"Prignitz","type":"Landkreis"},"federalState":{"key":"12","name":"Brandenburg"}},{"name":"Veritas-Sportpark","postalCode":"19322","locality":"Wittenberge","municipality":{"key":"12070424","name":"Wittenberge, Stadt","type":"Stadt"},"district":{"key":"12070","name":"Prignitz","type":"Landkreis"},"federalState":{"key":"12","name":"Brandenburg"}},{"name":"Virchowstr.","postalCode":"06886","locality":"Wittenberg","municipality":{"key":"15091375","name":"Wittenberg, Lutherstadt","type":"Stadt"},"district":{"key":"15091","name":"Wittenberg","type":"Landkreis"},"federalState":{"key":"15","name":"Sachsen-Anhalt"}},{"name":"Wachtmeisterweg","postalCode":"06905","locality":"Bad Schmiedeberg","municipality":{"key":"15091020","name":"Bad Schmiedeberg, Stadt","type":"Stadt"},"district":{"key":"15091","name":"Wittenberg","type":"Landkreis"},"federalState":{"key":"15","name":"Sachsen-Anhalt"}},{"name":"Waldschlößchen","postalCode":"06905","locality":"Bad Schmiedeberg","municipality":{"key":"15091020","name":"Bad Schmiedeberg, Stadt","type":"Stadt"},"district":{"key":"15091","name":"Wittenberg","type":"Landkreis"},"federalState":{"key":"15","name":"Sachsen-Anhalt"}},{"name":"Waldstr.","postalCode":"06905","locality":"Bad Schmiedeberg","municipality":{"key":"15091020","name":"Bad Schmiedeberg, Stadt","type":"Stadt"},"district":{"key":"15091","name":"Wittenberg","type":"Landkreis"},"federalState":{"key":"15","name":"Sachsen-Anhalt"}},{"name":"Wartenburger Str.","postalCode":"06905","locality":"Bad Schmiedeberg","municipality":{"key":"15091020","name":"Bad Schmiedeberg, Stadt","type":"Stadt"},"district":{"key":"15091","name":"Wittenberg","type":"Landkreis"},"federalState":{"key":"15","name":"Sachsen-Anhalt"}},{"name":"Weberweg","postalCode":"06905","locality":"Bad Schmiedeberg","municipality":{"key":"15091020","name":"Bad Schmiedeberg, Stadt","type":"Stadt"},"district":{"key":"15091","name":"Wittenberg","type":"Landkreis"},"federalState":{"key":"15","name":"Sachsen-Anhalt"}},{"name":"Weg am Rehbach","postalCode":"06905","locality":"Bad Schmiedeberg","municipality":{"key":"15091020","name":"Bad Schmiedeberg, Stadt","type":"Stadt"},"district":{"key":"15091","name":"Wittenberg","type":"Landkreis"},"federalState":{"key":"15","name":"Sachsen-Anhalt"}},{"name":"Weinbergsthalweg","postalCode":"06905","locality":"Bad Schmiedeberg","municipality":{"key":"15091020","name":"Bad Schmiedeberg, Stadt","type":"Stadt"},"district":{"key":"15091","name":"Wittenberg","type":"Landkreis"},"federalState":{"key":"15","name":"Sachsen-Anhalt"}},{"name":"Weinbergstr.","postalCode":"06905","locality":"Bad Schmiedeberg","municipality":{"key":"15091020","name":"Bad Schmiedeberg, Stadt","type":"Stadt"},"district":{"key":"15091","name":"Wittenberg","type":"Landkreis"},"federalState":{"key":"15","name":"Sachsen-Anhalt"}},{"name":"Wiesenweg","postalCode":"06905","locality":"Bad Schmiedeberg","municipality":{"key":"15091020","name":"Bad Schmiedeberg, Stadt","type":"Stadt"},"district":{"key":"15091","name":"Wittenberg","type":"Landkreis"},"federalState":{"key":"15","name":"Sachsen-Anhalt"}},{"name":"Windmühlenstr.","postalCode":"06905","locality":"Bad Schmiedeberg","municipality":{"key":"15091020","name":"Bad Schmiedeberg, Stadt","type":"Stadt"},"district":{"key":"15091","name":"Wittenberg","type":"Landkreis"},"federalState":{"key":"15","name":"Sachsen-Anhalt"}},{"name":"Wittenberger Chaussee","postalCode":"06905","locality":"Bad Schmiedeberg","municipality":{"key":"15091020","name":"Bad Schmiedeberg, Stadt","type":"Stadt"},"district":{"key":"15091","name":"Wittenberg","type":"Landkreis"},"federalState":{"key":"15","name":"Sachsen-Anhalt"}},{"name":"Wittenberger Str.","postalCode":"06905","locality":"Bad Schmiedeberg","municipality":{"key":"15091020","name":"Bad Schmiedeberg, Stadt","type":"Stadt"},"district":{"key":"15091","name":"Wittenberg","type":"Landkreis"},"federalState":{"key":"15","name":"Sachsen-Anhalt"}},{"name":"Zschimmerstr.","postalCode":"06905","locality":"Bad Schmiedeberg","municipality":{"key":"15091020","name":"Bad Schmiedeberg, Stadt","type":"Stadt"},"district":{"key":"15091","name":"Wittenberg","type":"Landkreis"},"federalState":{"key":"15","name":"Sachsen-Anhalt"}},{"name":"Österitz","postalCode":"06905","locality":"Bad Schmiedeberg","municipality":{"key":"15091020","name":"Bad Schmiedeberg, Stadt","type":"Stadt"},"district":{"key":"15091","name":"Wittenberg","type":"Landkreis"},"federalState":{"key":"15","name":"Sachsen-Anhalt"}},]