[{"name":"Am Aubach","postalCode":"19069","locality":"Alt Meteln","municipality":{"key":"13074001","name":"Alt Meteln","type":"Kreisangehörige_Gemeinde"},"district":{"key":"13074","name":"Nordwestmecklenburg","type":"Landkreis"},"federalState":{"key":"13","name":"Mecklenburg-Vorpommern"}},{"name":"Am Park","postalCode":"19069","locality":"Alt Meteln","municipality":{"key":"13074001","name":"Alt Meteln","type":"Kreisangehörige_Gemeinde"},"district":{"key":"13074","name":"Nordwestmecklenburg","type":"Landkreis"},"federalState":{"key":"13","name":"Mecklenburg-Vorpommern"}},{"name":"Am Voßberg","postalCode":"19069","locality":"Alt Meteln","municipality":{"key":"13074001","name":"Alt Meteln","type":"Kreisangehörige_Gemeinde"},"district":{"key":"13074","name":"Nordwestmecklenburg","type":"Landkreis"},"federalState":{"key":"13","name":"Mecklenburg-Vorpommern"}},{"name":"Am Wald","postalCode":"19069","locality":"Alt Meteln","municipality":{"key":"13074001","name":"Alt Meteln","type":"Kreisangehörige_Gemeinde"},"district":{"key":"13074","name":"Nordwestmecklenburg","type":"Landkreis"},"federalState":{"key":"13","name":"Mecklenburg-Vorpommern"}},{"name":"Bökener Str.","postalCode":"19069","locality":"Alt Meteln","municipality":{"key":"13074001","name":"Alt Meteln","type":"Kreisangehörige_Gemeinde"},"district":{"key":"13074","name":"Nordwestmecklenburg","type":"Landkreis"},"federalState":{"key":"13","name":"Mecklenburg-Vorpommern"}},{"name":"Buchenweg","postalCode":"19069","locality":"Alt Meteln","municipality":{"key":"13074001","name":"Alt Meteln","type":"Kreisangehörige_Gemeinde"},"district":{"key":"13074","name":"Nordwestmecklenburg","type":"Landkreis"},"federalState":{"key":"13","name":"Mecklenburg-Vorpommern"}},{"name":"Dalberger Weg","postalCode":"19069","locality":"Alt Meteln","municipality":{"key":"13074001","name":"Alt Meteln","type":"Kreisangehörige_Gemeinde"},"district":{"key":"13074","name":"Nordwestmecklenburg","type":"Landkreis"},"federalState":{"key":"13","name":"Mecklenburg-Vorpommern"}},{"name":"Dorfstr. Böken","postalCode":"19069","locality":"Alt Meteln","municipality":{"key":"13074001","name":"Alt Meteln","type":"Kreisangehörige_Gemeinde"},"district":{"key":"13074","name":"Nordwestmecklenburg","type":"Landkreis"},"federalState":{"key":"13","name":"Mecklenburg-Vorpommern"}},{"name":"Eichenweg","postalCode":"19069","locality":"Alt Meteln","municipality":{"key":"13074001","name":"Alt Meteln","type":"Kreisangehörige_Gemeinde"},"district":{"key":"13074","name":"Nordwestmecklenburg","type":"Landkreis"},"federalState":{"key":"13","name":"Mecklenburg-Vorpommern"}},{"name":"Feldweg","postalCode":"19069","locality":"Alt Meteln","municipality":{"key":"13074001","name":"Alt Meteln","type":"Kreisangehörige_Gemeinde"},"district":{"key":"13074","name":"Nordwestmecklenburg","type":"Landkreis"},"federalState":{"key":"13","name":"Mecklenburg-Vorpommern"}},{"name":"Gartenweg","postalCode":"19069","locality":"Alt Meteln","municipality":{"key":"13074001","name":"Alt Meteln","type":"Kreisangehörige_Gemeinde"},"district":{"key":"13074","name":"Nordwestmecklenburg","type":"Landkreis"},"federalState":{"key":"13","name":"Mecklenburg-Vorpommern"}},{"name":"Hof Meteler Str.","postalCode":"19069","locality":"Alt Meteln","municipality":{"key":"13074001","name":"Alt Meteln","type":"Kreisangehörige_Gemeinde"},"district":{"key":"13074","name":"Nordwestmecklenburg","type":"Landkreis"},"federalState":{"key":"13","name":"Mecklenburg-Vorpommern"}},{"name":"Hof Metelner Str.","postalCode":"19069","locality":"Alt Meteln","municipality":{"key":"13074001","name":"Alt Meteln","type":"Kreisangehörige_Gemeinde"},"district":{"key":"13074","name":"Nordwestmecklenburg","type":"Landkreis"},"federalState":{"key":"13","name":"Mecklenburg-Vorpommern"}},{"name":"Königstr.","postalCode":"19069","locality":"Alt Meteln","municipality":{"key":"13074001","name":"Alt Meteln","type":"Kreisangehörige_Gemeinde"},"district":{"key":"13074","name":"Nordwestmecklenburg","type":"Landkreis"},"federalState":{"key":"13","name":"Mecklenburg-Vorpommern"}},{"name":"Kornblumenweg","postalCode":"19069","locality":"Alt Meteln","municipality":{"key":"13074001","name":"Alt Meteln","type":"Kreisangehörige_Gemeinde"},"district":{"key":"13074","name":"Nordwestmecklenburg","type":"Landkreis"},"federalState":{"key":"13","name":"Mecklenburg-Vorpommern"}},{"name":"Lübstorfer Str.","postalCode":"19069","locality":"Alt Meteln","municipality":{"key":"13074001","name":"Alt Meteln","type":"Kreisangehörige_Gemeinde"},"district":{"key":"13074","name":"Nordwestmecklenburg","type":"Landkreis"},"federalState":{"key":"13","name":"Mecklenburg-Vorpommern"}},{"name":"Metelner Weg","postalCode":"19069","locality":"Alt Meteln","municipality":{"key":"13074001","name":"Alt Meteln","type":"Kreisangehörige_Gemeinde"},"district":{"key":"13074","name":"Nordwestmecklenburg","type":"Landkreis"},"federalState":{"key":"13","name":"Mecklenburg-Vorpommern"}},{"name":"Moltenower Str.","postalCode":"19069","locality":"Alt Meteln","municipality":{"key":"13074001","name":"Alt Meteln","type":"Kreisangehörige_Gemeinde"},"district":{"key":"13074","name":"Nordwestmecklenburg","type":"Landkreis"},"federalState":{"key":"13","name":"Mecklenburg-Vorpommern"}},{"name":"Neue Dorfstr.","postalCode":"19069","locality":"Alt Meteln","municipality":{"key":"13074001","name":"Alt Meteln","type":"Kreisangehörige_Gemeinde"},"district":{"key":"13074","name":"Nordwestmecklenburg","type":"Landkreis"},"federalState":{"key":"13","name":"Mecklenburg-Vorpommern"}},{"name":"Ringstr.","postalCode":"19069","locality":"Alt Meteln","municipality":{"key":"13074001","name":"Alt Meteln","type":"Kreisangehörige_Gemeinde"},"district":{"key":"13074","name":"Nordwestmecklenburg","type":"Landkreis"},"federalState":{"key":"13","name":"Mecklenburg-Vorpommern"}},{"name":"Sandweg","postalCode":"19069","locality":"Alt Meteln","municipality":{"key":"13074001","name":"Alt Meteln","type":"Kreisangehörige_Gemeinde"},"district":{"key":"13074","name":"Nordwestmecklenburg","type":"Landkreis"},"federalState":{"key":"13","name":"Mecklenburg-Vorpommern"}},{"name":"Schönhofer Weg","postalCode":"19069","locality":"Alt Meteln","municipality":{"key":"13074001","name":"Alt Meteln","type":"Kreisangehörige_Gemeinde"},"district":{"key":"13074","name":"Nordwestmecklenburg","type":"Landkreis"},"federalState":{"key":"13","name":"Mecklenburg-Vorpommern"}},{"name":"Siedlungsweg","postalCode":"19069","locality":"Alt Meteln","municipality":{"key":"13074001","name":"Alt Meteln","type":"Kreisangehörige_Gemeinde"},"district":{"key":"13074","name":"Nordwestmecklenburg","type":"Landkreis"},"federalState":{"key":"13","name":"Mecklenburg-Vorpommern"}},{"name":"Trebbower Weg","postalCode":"19069","locality":"Alt Meteln","municipality":{"key":"13074001","name":"Alt Meteln","type":"Kreisangehörige_Gemeinde"},"district":{"key":"13074","name":"Nordwestmecklenburg","type":"Landkreis"},"federalState":{"key":"13","name":"Mecklenburg-Vorpommern"}},{"name":"Wasserwirtschaft","postalCode":"19069","locality":"Alt Meteln","municipality":{"key":"13074001","name":"Alt Meteln","type":"Kreisangehörige_Gemeinde"},"district":{"key":"13074","name":"Nordwestmecklenburg","type":"Landkreis"},"federalState":{"key":"13","name":"Mecklenburg-Vorpommern"}},{"name":"Wiesenweg","postalCode":"19069","locality":"Alt Meteln","municipality":{"key":"13074001","name":"Alt Meteln","type":"Kreisangehörige_Gemeinde"},"district":{"key":"13074","name":"Nordwestmecklenburg","type":"Landkreis"},"federalState":{"key":"13","name":"Mecklenburg-Vorpommern"}},{"name":"Zum alten Stützpunkt","postalCode":"19069","locality":"Alt Meteln","municipality":{"key":"13074001","name":"Alt Meteln","type":"Kreisangehörige_Gemeinde"},"district":{"key":"13074","name":"Nordwestmecklenburg","type":"Landkreis"},"federalState":{"key":"13","name":"Mecklenburg-Vorpommern"}},{"name":"Zum Wasserwerk","postalCode":"19069","locality":"Alt Meteln","municipality":{"key":"13074001","name":"Alt Meteln","type":"Kreisangehörige_Gemeinde"},"district":{"key":"13074","name":"Nordwestmecklenburg","type":"Landkreis"},"federalState":{"key":"13","name":"Mecklenburg-Vorpommern"}},]