[{"name":"Ackermannstr.","postalCode":"27374","locality":"Visselhövede","municipality":{"key":"03357051","name":"Visselhövede, Stadt","type":"Stadt"},"district":{"key":"03357","name":"Rotenburg (Wümme)","type":"Landkreis"},"federalState":{"key":"03","name":"Niedersachsen"}},{"name":"Ahrsener Kirchweg","postalCode":"27374","locality":"Visselhövede","municipality":{"key":"03357051","name":"Visselhövede, Stadt","type":"Stadt"},"district":{"key":"03357","name":"Rotenburg (Wümme)","type":"Landkreis"},"federalState":{"key":"03","name":"Niedersachsen"}},{"name":"Alter Postweg","postalCode":"27374","locality":"Visselhövede","municipality":{"key":"03357051","name":"Visselhövede, Stadt","type":"Stadt"},"district":{"key":"03357","name":"Rotenburg (Wümme)","type":"Landkreis"},"federalState":{"key":"03","name":"Niedersachsen"}},{"name":"Am Brink","postalCode":"27374","locality":"Visselhövede","municipality":{"key":"03357051","name":"Visselhövede, Stadt","type":"Stadt"},"district":{"key":"03357","name":"Rotenburg (Wümme)","type":"Landkreis"},"federalState":{"key":"03","name":"Niedersachsen"}},{"name":"Am Denkmal","postalCode":"27374","locality":"Visselhövede","municipality":{"key":"03357051","name":"Visselhövede, Stadt","type":"Stadt"},"district":{"key":"03357","name":"Rotenburg (Wümme)","type":"Landkreis"},"federalState":{"key":"03","name":"Niedersachsen"}},{"name":"Am Fluchsberg","postalCode":"27374","locality":"Visselhövede","municipality":{"key":"03357051","name":"Visselhövede, Stadt","type":"Stadt"},"district":{"key":"03357","name":"Rotenburg (Wümme)","type":"Landkreis"},"federalState":{"key":"03","name":"Niedersachsen"}},{"name":"Am Fuchsberg","postalCode":"27374","locality":"Visselhövede","municipality":{"key":"03357051","name":"Visselhövede, Stadt","type":"Stadt"},"district":{"key":"03357","name":"Rotenburg (Wümme)","type":"Landkreis"},"federalState":{"key":"03","name":"Niedersachsen"}},{"name":"Am Hünenkamp","postalCode":"27374","locality":"Visselhövede","municipality":{"key":"03357051","name":"Visselhövede, Stadt","type":"Stadt"},"district":{"key":"03357","name":"Rotenburg (Wümme)","type":"Landkreis"},"federalState":{"key":"03","name":"Niedersachsen"}},{"name":"Am Jeddinger Moor","postalCode":"27374","locality":"Visselhövede","municipality":{"key":"03357051","name":"Visselhövede, Stadt","type":"Stadt"},"district":{"key":"03357","name":"Rotenburg (Wümme)","type":"Landkreis"},"federalState":{"key":"03","name":"Niedersachsen"}},{"name":"Am Krähenloh","postalCode":"27374","locality":"Visselhövede","municipality":{"key":"03357051","name":"Visselhövede, Stadt","type":"Stadt"},"district":{"key":"03357","name":"Rotenburg (Wümme)","type":"Landkreis"},"federalState":{"key":"03","name":"Niedersachsen"}},{"name":"Am Lehrdetal","postalCode":"27374","locality":"Visselhövede","municipality":{"key":"03357051","name":"Visselhövede, Stadt","type":"Stadt"},"district":{"key":"03357","name":"Rotenburg (Wümme)","type":"Landkreis"},"federalState":{"key":"03","name":"Niedersachsen"}},{"name":"Am Mühlenberg","postalCode":"27374","locality":"Visselhövede","municipality":{"key":"03357051","name":"Visselhövede, Stadt","type":"Stadt"},"district":{"key":"03357","name":"Rotenburg (Wümme)","type":"Landkreis"},"federalState":{"key":"03","name":"Niedersachsen"}},{"name":"Am Ostermoor","postalCode":"27374","locality":"Visselhövede","municipality":{"key":"03357051","name":"Visselhövede, Stadt","type":"Stadt"},"district":{"key":"03357","name":"Rotenburg (Wümme)","type":"Landkreis"},"federalState":{"key":"03","name":"Niedersachsen"}},{"name":"Am Rathaus","postalCode":"27374","locality":"Visselhövede","municipality":{"key":"03357051","name":"Visselhövede, Stadt","type":"Stadt"},"district":{"key":"03357","name":"Rotenburg (Wümme)","type":"Landkreis"},"federalState":{"key":"03","name":"Niedersachsen"}},{"name":"Am Rohlmannshof","postalCode":"27374","locality":"Visselhövede","municipality":{"key":"03357051","name":"Visselhövede, Stadt","type":"Stadt"},"district":{"key":"03357","name":"Rotenburg (Wümme)","type":"Landkreis"},"federalState":{"key":"03","name":"Niedersachsen"}},{"name":"Am Schneebach","postalCode":"27374","locality":"Visselhövede","municipality":{"key":"03357051","name":"Visselhövede, Stadt","type":"Stadt"},"district":{"key":"03357","name":"Rotenburg (Wümme)","type":"Landkreis"},"federalState":{"key":"03","name":"Niedersachsen"}},{"name":"Amselweg","postalCode":"27374","locality":"Visselhövede","municipality":{"key":"03357051","name":"Visselhövede, Stadt","type":"Stadt"},"district":{"key":"03357","name":"Rotenburg (Wümme)","type":"Landkreis"},"federalState":{"key":"03","name":"Niedersachsen"}},{"name":"Am Stadtpark","postalCode":"27374","locality":"Visselhövede","municipality":{"key":"03357051","name":"Visselhövede, Stadt","type":"Stadt"},"district":{"key":"03357","name":"Rotenburg (Wümme)","type":"Landkreis"},"federalState":{"key":"03","name":"Niedersachsen"}},{"name":"Am Vogtsmoor","postalCode":"27374","locality":"Visselhövede","municipality":{"key":"03357051","name":"Visselhövede, Stadt","type":"Stadt"},"district":{"key":"03357","name":"Rotenburg (Wümme)","type":"Landkreis"},"federalState":{"key":"03","name":"Niedersachsen"}},{"name":"Am Wierngraben","postalCode":"27374","locality":"Visselhövede","municipality":{"key":"03357051","name":"Visselhövede, Stadt","type":"Stadt"},"district":{"key":"03357","name":"Rotenburg (Wümme)","type":"Landkreis"},"federalState":{"key":"03","name":"Niedersachsen"}},{"name":"An der alten Bahn","postalCode":"27374","locality":"Visselhövede","municipality":{"key":"03357051","name":"Visselhövede, Stadt","type":"Stadt"},"district":{"key":"03357","name":"Rotenburg (Wümme)","type":"Landkreis"},"federalState":{"key":"03","name":"Niedersachsen"}},{"name":"An der Schmiede","postalCode":"27374","locality":"Visselhövede","municipality":{"key":"03357051","name":"Visselhövede, Stadt","type":"Stadt"},"district":{"key":"03357","name":"Rotenburg (Wümme)","type":"Landkreis"},"federalState":{"key":"03","name":"Niedersachsen"}},{"name":"Angerburger Str.","postalCode":"27374","locality":"Visselhövede","municipality":{"key":"03357051","name":"Visselhövede, Stadt","type":"Stadt"},"district":{"key":"03357","name":"Rotenburg (Wümme)","type":"Landkreis"},"federalState":{"key":"03","name":"Niedersachsen"}},{"name":"Asternweg","postalCode":"27374","locality":"Visselhövede","municipality":{"key":"03357051","name":"Visselhövede, Stadt","type":"Stadt"},"district":{"key":"03357","name":"Rotenburg (Wümme)","type":"Landkreis"},"federalState":{"key":"03","name":"Niedersachsen"}},{"name":"Auf dem Elmhorstberg","postalCode":"27374","locality":"Visselhövede","municipality":{"key":"03357051","name":"Visselhövede, Stadt","type":"Stadt"},"district":{"key":"03357","name":"Rotenburg (Wümme)","type":"Landkreis"},"federalState":{"key":"03","name":"Niedersachsen"}},{"name":"Auf dem Eulenkamp","postalCode":"27374","locality":"Visselhövede","municipality":{"key":"03357051","name":"Visselhövede, Stadt","type":"Stadt"},"district":{"key":"03357","name":"Rotenburg (Wümme)","type":"Landkreis"},"federalState":{"key":"03","name":"Niedersachsen"}},{"name":"Auf dem Horn","postalCode":"27374","locality":"Visselhövede","municipality":{"key":"03357051","name":"Visselhövede, Stadt","type":"Stadt"},"district":{"key":"03357","name":"Rotenburg (Wümme)","type":"Landkreis"},"federalState":{"key":"03","name":"Niedersachsen"}},{"name":"Auf dem Kuhrehdel","postalCode":"27374","locality":"Visselhövede","municipality":{"key":"03357051","name":"Visselhövede, Stadt","type":"Stadt"},"district":{"key":"03357","name":"Rotenburg (Wümme)","type":"Landkreis"},"federalState":{"key":"03","name":"Niedersachsen"}},{"name":"Auf dem Mühlenberg","postalCode":"27374","locality":"Visselhövede","municipality":{"key":"03357051","name":"Visselhövede, Stadt","type":"Stadt"},"district":{"key":"03357","name":"Rotenburg (Wümme)","type":"Landkreis"},"federalState":{"key":"03","name":"Niedersachsen"}},{"name":"Auf dem Wiehern","postalCode":"27374","locality":"Visselhövede","municipality":{"key":"03357051","name":"Visselhövede, Stadt","type":"Stadt"},"district":{"key":"03357","name":"Rotenburg (Wümme)","type":"Landkreis"},"federalState":{"key":"03","name":"Niedersachsen"}},{"name":"Auf der Lehmhorst","postalCode":"27374","locality":"Visselhövede","municipality":{"key":"03357051","name":"Visselhövede, Stadt","type":"Stadt"},"district":{"key":"03357","name":"Rotenburg (Wümme)","type":"Landkreis"},"federalState":{"key":"03","name":"Niedersachsen"}},{"name":"Auf der Loge","postalCode":"27374","locality":"Visselhövede","municipality":{"key":"03357051","name":"Visselhövede, Stadt","type":"Stadt"},"district":{"key":"03357","name":"Rotenburg (Wümme)","type":"Landkreis"},"federalState":{"key":"03","name":"Niedersachsen"}},{"name":"Bahnhofstr.","postalCode":"27374","locality":"Visselhövede","municipality":{"key":"03357051","name":"Visselhövede, Stadt","type":"Stadt"},"district":{"key":"03357","name":"Rotenburg (Wümme)","type":"Landkreis"},"federalState":{"key":"03","name":"Niedersachsen"}},{"name":"Bahnweg","postalCode":"27374","locality":"Visselhövede","municipality":{"key":"03357051","name":"Visselhövede, Stadt","type":"Stadt"},"district":{"key":"03357","name":"Rotenburg (Wümme)","type":"Landkreis"},"federalState":{"key":"03","name":"Niedersachsen"}},{"name":"Bergstr.","postalCode":"27374","locality":"Visselhövede","municipality":{"key":"03357051","name":"Visselhövede, Stadt","type":"Stadt"},"district":{"key":"03357","name":"Rotenburg (Wümme)","type":"Landkreis"},"federalState":{"key":"03","name":"Niedersachsen"}},{"name":"Birkenweg","postalCode":"27374","locality":"Visselhövede","municipality":{"key":"03357051","name":"Visselhövede, Stadt","type":"Stadt"},"district":{"key":"03357","name":"Rotenburg (Wümme)","type":"Landkreis"},"federalState":{"key":"03","name":"Niedersachsen"}},{"name":"Bleckwedel","postalCode":"27374","locality":"Visselhövede","municipality":{"key":"03357051","name":"Visselhövede, Stadt","type":"Stadt"},"district":{"key":"03357","name":"Rotenburg (Wümme)","type":"Landkreis"},"federalState":{"key":"03","name":"Niedersachsen"}},{"name":"Bleckwedeler Str.","postalCode":"27374","locality":"Visselhövede","municipality":{"key":"03357051","name":"Visselhövede, Stadt","type":"Stadt"},"district":{"key":"03357","name":"Rotenburg (Wümme)","type":"Landkreis"},"federalState":{"key":"03","name":"Niedersachsen"}},{"name":"Bosberg","postalCode":"27374","locality":"Visselhövede","municipality":{"key":"03357051","name":"Visselhövede, Stadt","type":"Stadt"},"district":{"key":"03357","name":"Rotenburg (Wümme)","type":"Landkreis"},"federalState":{"key":"03","name":"Niedersachsen"}},{"name":"Bremers Garten","postalCode":"27374","locality":"Visselhövede","municipality":{"key":"03357051","name":"Visselhövede, Stadt","type":"Stadt"},"district":{"key":"03357","name":"Rotenburg (Wümme)","type":"Landkreis"},"federalState":{"key":"03","name":"Niedersachsen"}},{"name":"Bremer Str.","postalCode":"27374","locality":"Visselhövede","municipality":{"key":"03357051","name":"Visselhövede, Stadt","type":"Stadt"},"district":{"key":"03357","name":"Rotenburg (Wümme)","type":"Landkreis"},"federalState":{"key":"03","name":"Niedersachsen"}},{"name":"Breslauer Str.","postalCode":"27374","locality":"Visselhövede","municipality":{"key":"03357051","name":"Visselhövede, Stadt","type":"Stadt"},"district":{"key":"03357","name":"Rotenburg (Wümme)","type":"Landkreis"},"federalState":{"key":"03","name":"Niedersachsen"}},{"name":"Bretel","postalCode":"27374","locality":"Visselhövede","municipality":{"key":"03357051","name":"Visselhövede, Stadt","type":"Stadt"},"district":{"key":"03357","name":"Rotenburg (Wümme)","type":"Landkreis"},"federalState":{"key":"03","name":"Niedersachsen"}},{"name":"Brunnenstr.","postalCode":"27374","locality":"Visselhövede","municipality":{"key":"03357051","name":"Visselhövede, Stadt","type":"Stadt"},"district":{"key":"03357","name":"Rotenburg (Wümme)","type":"Landkreis"},"federalState":{"key":"03","name":"Niedersachsen"}},{"name":"Buchenstr.","postalCode":"27374","locality":"Visselhövede","municipality":{"key":"03357051","name":"Visselhövede, Stadt","type":"Stadt"},"district":{"key":"03357","name":"Rotenburg (Wümme)","type":"Landkreis"},"federalState":{"key":"03","name":"Niedersachsen"}},{"name":"Buchholz","postalCode":"27374","locality":"Visselhövede","municipality":{"key":"03357051","name":"Visselhövede, Stadt","type":"Stadt"},"district":{"key":"03357","name":"Rotenburg (Wümme)","type":"Landkreis"},"federalState":{"key":"03","name":"Niedersachsen"}},{"name":"Buchholzer Weg","postalCode":"27374","locality":"Visselhövede","municipality":{"key":"03357051","name":"Visselhövede, Stadt","type":"Stadt"},"district":{"key":"03357","name":"Rotenburg (Wümme)","type":"Landkreis"},"federalState":{"key":"03","name":"Niedersachsen"}},{"name":"Burgstr.","postalCode":"27374","locality":"Visselhövede","municipality":{"key":"03357051","name":"Visselhövede, Stadt","type":"Stadt"},"district":{"key":"03357","name":"Rotenburg (Wümme)","type":"Landkreis"},"federalState":{"key":"03","name":"Niedersachsen"}},{"name":"Buschmannsweg","postalCode":"27374","locality":"Visselhövede","municipality":{"key":"03357051","name":"Visselhövede, Stadt","type":"Stadt"},"district":{"key":"03357","name":"Rotenburg (Wümme)","type":"Landkreis"},"federalState":{"key":"03","name":"Niedersachsen"}},{"name":"Celler Str.","postalCode":"27374","locality":"Visselhövede","municipality":{"key":"03357051","name":"Visselhövede, Stadt","type":"Stadt"},"district":{"key":"03357","name":"Rotenburg (Wümme)","type":"Landkreis"},"federalState":{"key":"03","name":"Niedersachsen"}},{"name":"Dammstr.","postalCode":"27374","locality":"Visselhövede","municipality":{"key":"03357051","name":"Visselhövede, Stadt","type":"Stadt"},"district":{"key":"03357","name":"Rotenburg (Wümme)","type":"Landkreis"},"federalState":{"key":"03","name":"Niedersachsen"}},{"name":"Danziger Str.","postalCode":"27374","locality":"Visselhövede","municipality":{"key":"03357051","name":"Visselhövede, Stadt","type":"Stadt"},"district":{"key":"03357","name":"Rotenburg (Wümme)","type":"Landkreis"},"federalState":{"key":"03","name":"Niedersachsen"}},{"name":"Delventhal","postalCode":"27374","locality":"Visselhövede","municipality":{"key":"03357051","name":"Visselhövede, Stadt","type":"Stadt"},"district":{"key":"03357","name":"Rotenburg (Wümme)","type":"Landkreis"},"federalState":{"key":"03","name":"Niedersachsen"}},{"name":"Dieckkamp","postalCode":"27374","locality":"Visselhövede","municipality":{"key":"03357051","name":"Visselhövede, Stadt","type":"Stadt"},"district":{"key":"03357","name":"Rotenburg (Wümme)","type":"Landkreis"},"federalState":{"key":"03","name":"Niedersachsen"}},{"name":"Dohrmanns Horst","postalCode":"27374","locality":"Visselhövede","municipality":{"key":"03357051","name":"Visselhövede, Stadt","type":"Stadt"},"district":{"key":"03357","name":"Rotenburg (Wümme)","type":"Landkreis"},"federalState":{"key":"03","name":"Niedersachsen"}},{"name":"Dreeßel","postalCode":"27374","locality":"Visselhövede","municipality":{"key":"03357051","name":"Visselhövede, Stadt","type":"Stadt"},"district":{"key":"03357","name":"Rotenburg (Wümme)","type":"Landkreis"},"federalState":{"key":"03","name":"Niedersachsen"}},{"name":"Dreikronen","postalCode":"27374","locality":"Visselhövede","municipality":{"key":"03357051","name":"Visselhövede, Stadt","type":"Stadt"},"district":{"key":"03357","name":"Rotenburg (Wümme)","type":"Landkreis"},"federalState":{"key":"03","name":"Niedersachsen"}},{"name":"Drosselstr.","postalCode":"27374","locality":"Visselhövede","municipality":{"key":"03357051","name":"Visselhövede, Stadt","type":"Stadt"},"district":{"key":"03357","name":"Rotenburg (Wümme)","type":"Landkreis"},"federalState":{"key":"03","name":"Niedersachsen"}},{"name":"Eckernworth","postalCode":"27374","locality":"Visselhövede","municipality":{"key":"03357051","name":"Visselhövede, Stadt","type":"Stadt"},"district":{"key":"03357","name":"Rotenburg (Wümme)","type":"Landkreis"},"federalState":{"key":"03","name":"Niedersachsen"}},{"name":"Egenbostel","postalCode":"27374","locality":"Visselhövede","municipality":{"key":"03357051","name":"Visselhövede, Stadt","type":"Stadt"},"district":{"key":"03357","name":"Rotenburg (Wümme)","type":"Landkreis"},"federalState":{"key":"03","name":"Niedersachsen"}},{"name":"Eichenstr.","postalCode":"27374","locality":"Visselhövede","municipality":{"key":"03357051","name":"Visselhövede, Stadt","type":"Stadt"},"district":{"key":"03357","name":"Rotenburg (Wümme)","type":"Landkreis"},"federalState":{"key":"03","name":"Niedersachsen"}},{"name":"Emmy-Krüger-Str.","postalCode":"27374","locality":"Visselhövede","municipality":{"key":"03357051","name":"Visselhövede, Stadt","type":"Stadt"},"district":{"key":"03357","name":"Rotenburg (Wümme)","type":"Landkreis"},"federalState":{"key":"03","name":"Niedersachsen"}},{"name":"Eschenweg","postalCode":"27374","locality":"Visselhövede","municipality":{"key":"03357051","name":"Visselhövede, Stadt","type":"Stadt"},"district":{"key":"03357","name":"Rotenburg (Wümme)","type":"Landkreis"},"federalState":{"key":"03","name":"Niedersachsen"}},{"name":"Feldstr.","postalCode":"27374","locality":"Visselhövede","municipality":{"key":"03357051","name":"Visselhövede, Stadt","type":"Stadt"},"district":{"key":"03357","name":"Rotenburg (Wümme)","type":"Landkreis"},"federalState":{"key":"03","name":"Niedersachsen"}},{"name":"Finkenweg","postalCode":"27374","locality":"Visselhövede","municipality":{"key":"03357051","name":"Visselhövede, Stadt","type":"Stadt"},"district":{"key":"03357","name":"Rotenburg (Wümme)","type":"Landkreis"},"federalState":{"key":"03","name":"Niedersachsen"}},{"name":"Fliederweg","postalCode":"27374","locality":"Visselhövede","municipality":{"key":"03357051","name":"Visselhövede, Stadt","type":"Stadt"},"district":{"key":"03357","name":"Rotenburg (Wümme)","type":"Landkreis"},"federalState":{"key":"03","name":"Niedersachsen"}},{"name":"Forstweg","postalCode":"27374","locality":"Visselhövede","municipality":{"key":"03357051","name":"Visselhövede, Stadt","type":"Stadt"},"district":{"key":"03357","name":"Rotenburg (Wümme)","type":"Landkreis"},"federalState":{"key":"03","name":"Niedersachsen"}},{"name":"Friedrich-Ebert-Str.","postalCode":"27374","locality":"Visselhövede","municipality":{"key":"03357051","name":"Visselhövede, Stadt","type":"Stadt"},"district":{"key":"03357","name":"Rotenburg (Wümme)","type":"Landkreis"},"federalState":{"key":"03","name":"Niedersachsen"}},{"name":"Friedrich-Freudenthal-Str.","postalCode":"27374","locality":"Visselhövede","municipality":{"key":"03357051","name":"Visselhövede, Stadt","type":"Stadt"},"district":{"key":"03357","name":"Rotenburg (Wümme)","type":"Landkreis"},"federalState":{"key":"03","name":"Niedersachsen"}},{"name":"Gannerkamp","postalCode":"27374","locality":"Visselhövede","municipality":{"key":"03357051","name":"Visselhövede, Stadt","type":"Stadt"},"district":{"key":"03357","name":"Rotenburg (Wümme)","type":"Landkreis"},"federalState":{"key":"03","name":"Niedersachsen"}},{"name":"Gartenstr.","postalCode":"27374","locality":"Visselhövede","municipality":{"key":"03357051","name":"Visselhövede, Stadt","type":"Stadt"},"district":{"key":"03357","name":"Rotenburg (Wümme)","type":"Landkreis"},"federalState":{"key":"03","name":"Niedersachsen"}},{"name":"Gaswerkstr.","postalCode":"27374","locality":"Visselhövede","municipality":{"key":"03357051","name":"Visselhövede, Stadt","type":"Stadt"},"district":{"key":"03357","name":"Rotenburg (Wümme)","type":"Landkreis"},"federalState":{"key":"03","name":"Niedersachsen"}},{"name":"Geranienweg","postalCode":"27374","locality":"Visselhövede","municipality":{"key":"03357051","name":"Visselhövede, Stadt","type":"Stadt"},"district":{"key":"03357","name":"Rotenburg (Wümme)","type":"Landkreis"},"federalState":{"key":"03","name":"Niedersachsen"}},{"name":"Gerhart-Hauptmann-Str.","postalCode":"27374","locality":"Visselhövede","municipality":{"key":"03357051","name":"Visselhövede, Stadt","type":"Stadt"},"district":{"key":"03357","name":"Rotenburg (Wümme)","type":"Landkreis"},"federalState":{"key":"03","name":"Niedersachsen"}},{"name":"Gewerbestr.","postalCode":"27374","locality":"Visselhövede","municipality":{"key":"03357051","name":"Visselhövede, Stadt","type":"Stadt"},"district":{"key":"03357","name":"Rotenburg (Wümme)","type":"Landkreis"},"federalState":{"key":"03","name":"Niedersachsen"}},{"name":"Ginsterweg","postalCode":"27374","locality":"Visselhövede","municipality":{"key":"03357051","name":"Visselhövede, Stadt","type":"Stadt"},"district":{"key":"03357","name":"Rotenburg (Wümme)","type":"Landkreis"},"federalState":{"key":"03","name":"Niedersachsen"}},{"name":"Goethestr.","postalCode":"27374","locality":"Visselhövede","municipality":{"key":"03357051","name":"Visselhövede, Stadt","type":"Stadt"},"district":{"key":"03357","name":"Rotenburg (Wümme)","type":"Landkreis"},"federalState":{"key":"03","name":"Niedersachsen"}},{"name":"Grenzstr.","postalCode":"27374","locality":"Visselhövede","municipality":{"key":"03357051","name":"Visselhövede, Stadt","type":"Stadt"},"district":{"key":"03357","name":"Rotenburg (Wümme)","type":"Landkreis"},"federalState":{"key":"03","name":"Niedersachsen"}},{"name":"Großer-Kamp-Str.","postalCode":"27374","locality":"Visselhövede","municipality":{"key":"03357051","name":"Visselhövede, Stadt","type":"Stadt"},"district":{"key":"03357","name":"Rotenburg (Wümme)","type":"Landkreis"},"federalState":{"key":"03","name":"Niedersachsen"}},{"name":"Große Str.","postalCode":"27374","locality":"Visselhövede","municipality":{"key":"03357051","name":"Visselhövede, Stadt","type":"Stadt"},"district":{"key":"03357","name":"Rotenburg (Wümme)","type":"Landkreis"},"federalState":{"key":"03","name":"Niedersachsen"}},{"name":"Grundchaussee","postalCode":"27374","locality":"Visselhövede","municipality":{"key":"03357051","name":"Visselhövede, Stadt","type":"Stadt"},"district":{"key":"03357","name":"Rotenburg (Wümme)","type":"Landkreis"},"federalState":{"key":"03","name":"Niedersachsen"}},{"name":"Grundstr.","postalCode":"27374","locality":"Visselhövede","municipality":{"key":"03357051","name":"Visselhövede, Stadt","type":"Stadt"},"district":{"key":"03357","name":"Rotenburg (Wümme)","type":"Landkreis"},"federalState":{"key":"03","name":"Niedersachsen"}},{"name":"Grüner Placken","postalCode":"27374","locality":"Visselhövede","municipality":{"key":"03357051","name":"Visselhövede, Stadt","type":"Stadt"},"district":{"key":"03357","name":"Rotenburg (Wümme)","type":"Landkreis"},"federalState":{"key":"03","name":"Niedersachsen"}},{"name":"Grünhagens Garten","postalCode":"27374","locality":"Visselhövede","municipality":{"key":"03357051","name":"Visselhövede, Stadt","type":"Stadt"},"district":{"key":"03357","name":"Rotenburg (Wümme)","type":"Landkreis"},"federalState":{"key":"03","name":"Niedersachsen"}},{"name":"Haferkost","postalCode":"27374","locality":"Visselhövede","municipality":{"key":"03357051","name":"Visselhövede, Stadt","type":"Stadt"},"district":{"key":"03357","name":"Rotenburg (Wümme)","type":"Landkreis"},"federalState":{"key":"03","name":"Niedersachsen"}},{"name":"Hainhorster Weg","postalCode":"27374","locality":"Visselhövede","municipality":{"key":"03357051","name":"Visselhövede, Stadt","type":"Stadt"},"district":{"key":"03357","name":"Rotenburg (Wümme)","type":"Landkreis"},"federalState":{"key":"03","name":"Niedersachsen"}},{"name":"Handelsstr.","postalCode":"27374","locality":"Visselhövede","municipality":{"key":"03357051","name":"Visselhövede, Stadt","type":"Stadt"},"district":{"key":"03357","name":"Rotenburg (Wümme)","type":"Landkreis"},"federalState":{"key":"03","name":"Niedersachsen"}},{"name":"Hasenwinkel","postalCode":"27374","locality":"Visselhövede","municipality":{"key":"03357051","name":"Visselhövede, Stadt","type":"Stadt"},"district":{"key":"03357","name":"Rotenburg (Wümme)","type":"Landkreis"},"federalState":{"key":"03","name":"Niedersachsen"}},{"name":"Hauptstr.","postalCode":"27374","locality":"Visselhövede","municipality":{"key":"03357051","name":"Visselhövede, Stadt","type":"Stadt"},"district":{"key":"03357","name":"Rotenburg (Wümme)","type":"Landkreis"},"federalState":{"key":"03","name":"Niedersachsen"}},{"name":"Heelsen","postalCode":"27374","locality":"Visselhövede","municipality":{"key":"03357051","name":"Visselhövede, Stadt","type":"Stadt"},"district":{"key":"03357","name":"Rotenburg (Wümme)","type":"Landkreis"},"federalState":{"key":"03","name":"Niedersachsen"}},{"name":"Heelsener Kirchweg","postalCode":"27374","locality":"Visselhövede","municipality":{"key":"03357051","name":"Visselhövede, Stadt","type":"Stadt"},"district":{"key":"03357","name":"Rotenburg (Wümme)","type":"Landkreis"},"federalState":{"key":"03","name":"Niedersachsen"}},{"name":"Heelsener Str.","postalCode":"27374","locality":"Visselhövede","municipality":{"key":"03357051","name":"Visselhövede, Stadt","type":"Stadt"},"district":{"key":"03357","name":"Rotenburg (Wümme)","type":"Landkreis"},"federalState":{"key":"03","name":"Niedersachsen"}},{"name":"Heideweg","postalCode":"27374","locality":"Visselhövede","municipality":{"key":"03357051","name":"Visselhövede, Stadt","type":"Stadt"},"district":{"key":"03357","name":"Rotenburg (Wümme)","type":"Landkreis"},"federalState":{"key":"03","name":"Niedersachsen"}},{"name":"Heidmark","postalCode":"27374","locality":"Visselhövede","municipality":{"key":"03357051","name":"Visselhövede, Stadt","type":"Stadt"},"district":{"key":"03357","name":"Rotenburg (Wümme)","type":"Landkreis"},"federalState":{"key":"03","name":"Niedersachsen"}},{"name":"Heinig Hoop","postalCode":"27374","locality":"Visselhövede","municipality":{"key":"03357051","name":"Visselhövede, Stadt","type":"Stadt"},"district":{"key":"03357","name":"Rotenburg (Wümme)","type":"Landkreis"},"federalState":{"key":"03","name":"Niedersachsen"}},{"name":"Hiddinger Str.","postalCode":"27374","locality":"Visselhövede","municipality":{"key":"03357051","name":"Visselhövede, Stadt","type":"Stadt"},"district":{"key":"03357","name":"Rotenburg (Wümme)","type":"Landkreis"},"federalState":{"key":"03","name":"Niedersachsen"}},{"name":"Hilligensehl","postalCode":"27374","locality":"Visselhövede","municipality":{"key":"03357051","name":"Visselhövede, Stadt","type":"Stadt"},"district":{"key":"03357","name":"Rotenburg (Wümme)","type":"Landkreis"},"federalState":{"key":"03","name":"Niedersachsen"}},{"name":"Hinter dem Schützenholze","postalCode":"27374","locality":"Visselhövede","municipality":{"key":"03357051","name":"Visselhövede, Stadt","type":"Stadt"},"district":{"key":"03357","name":"Rotenburg (Wümme)","type":"Landkreis"},"federalState":{"key":"03","name":"Niedersachsen"}},{"name":"Hinter den Höfen","postalCode":"27374","locality":"Visselhövede","municipality":{"key":"03357051","name":"Visselhövede, Stadt","type":"Stadt"},"district":{"key":"03357","name":"Rotenburg (Wümme)","type":"Landkreis"},"federalState":{"key":"03","name":"Niedersachsen"}},{"name":"Hobarg","postalCode":"27374","locality":"Visselhövede","municipality":{"key":"03357051","name":"Visselhövede, Stadt","type":"Stadt"},"district":{"key":"03357","name":"Rotenburg (Wümme)","type":"Landkreis"},"federalState":{"key":"03","name":"Niedersachsen"}},{"name":"Hohe Str.","postalCode":"27374","locality":"Visselhövede","municipality":{"key":"03357051","name":"Visselhövede, Stadt","type":"Stadt"},"district":{"key":"03357","name":"Rotenburg (Wümme)","type":"Landkreis"},"federalState":{"key":"03","name":"Niedersachsen"}},{"name":"Horen","postalCode":"27374","locality":"Visselhövede","municipality":{"key":"03357051","name":"Visselhövede, Stadt","type":"Stadt"},"district":{"key":"03357","name":"Rotenburg (Wümme)","type":"Landkreis"},"federalState":{"key":"03","name":"Niedersachsen"}},{"name":"Hoyers Eck","postalCode":"27374","locality":"Visselhövede","municipality":{"key":"03357051","name":"Visselhövede, Stadt","type":"Stadt"},"district":{"key":"03357","name":"Rotenburg (Wümme)","type":"Landkreis"},"federalState":{"key":"03","name":"Niedersachsen"}},{"name":"Hunnehopstr.","postalCode":"27374","locality":"Visselhövede","municipality":{"key":"03357051","name":"Visselhövede, Stadt","type":"Stadt"},"district":{"key":"03357","name":"Rotenburg (Wümme)","type":"Landkreis"},"federalState":{"key":"03","name":"Niedersachsen"}},{"name":"Hütthof","postalCode":"27374","locality":"Visselhövede","municipality":{"key":"03357051","name":"Visselhövede, Stadt","type":"Stadt"},"district":{"key":"03357","name":"Rotenburg (Wümme)","type":"Landkreis"},"federalState":{"key":"03","name":"Niedersachsen"}},{"name":"Im Allerhoop","postalCode":"27374","locality":"Visselhövede","municipality":{"key":"03357051","name":"Visselhövede, Stadt","type":"Stadt"},"district":{"key":"03357","name":"Rotenburg (Wümme)","type":"Landkreis"},"federalState":{"key":"03","name":"Niedersachsen"}},{"name":"Im Beerbruch","postalCode":"27374","locality":"Visselhövede","municipality":{"key":"03357051","name":"Visselhövede, Stadt","type":"Stadt"},"district":{"key":"03357","name":"Rotenburg (Wümme)","type":"Landkreis"},"federalState":{"key":"03","name":"Niedersachsen"}},{"name":"Im Blöcken","postalCode":"27374","locality":"Visselhövede","municipality":{"key":"03357051","name":"Visselhövede, Stadt","type":"Stadt"},"district":{"key":"03357","name":"Rotenburg (Wümme)","type":"Landkreis"},"federalState":{"key":"03","name":"Niedersachsen"}},{"name":"Im Feriengebiet","postalCode":"27374","locality":"Visselhövede","municipality":{"key":"03357051","name":"Visselhövede, Stadt","type":"Stadt"},"district":{"key":"03357","name":"Rotenburg (Wümme)","type":"Landkreis"},"federalState":{"key":"03","name":"Niedersachsen"}},{"name":"Im Gehäge","postalCode":"27374","locality":"Visselhövede","municipality":{"key":"03357051","name":"Visselhövede, Stadt","type":"Stadt"},"district":{"key":"03357","name":"Rotenburg (Wümme)","type":"Landkreis"},"federalState":{"key":"03","name":"Niedersachsen"}},{"name":"Im Gewerbepark","postalCode":"27374","locality":"Visselhövede","municipality":{"key":"03357051","name":"Visselhövede, Stadt","type":"Stadt"},"district":{"key":"03357","name":"Rotenburg (Wümme)","type":"Landkreis"},"federalState":{"key":"03","name":"Niedersachsen"}},{"name":"Im Heidfeld","postalCode":"27374","locality":"Visselhövede","municipality":{"key":"03357051","name":"Visselhövede, Stadt","type":"Stadt"},"district":{"key":"03357","name":"Rotenburg (Wümme)","type":"Landkreis"},"federalState":{"key":"03","name":"Niedersachsen"}},{"name":"Im Kloster","postalCode":"27374","locality":"Visselhövede","municipality":{"key":"03357051","name":"Visselhövede, Stadt","type":"Stadt"},"district":{"key":"03357","name":"Rotenburg (Wümme)","type":"Landkreis"},"federalState":{"key":"03","name":"Niedersachsen"}},{"name":"Im Luisenpark","postalCode":"27374","locality":"Visselhövede","municipality":{"key":"03357051","name":"Visselhövede, Stadt","type":"Stadt"},"district":{"key":"03357","name":"Rotenburg (Wümme)","type":"Landkreis"},"federalState":{"key":"03","name":"Niedersachsen"}},{"name":"Im Speckförth","postalCode":"27374","locality":"Visselhövede","municipality":{"key":"03357051","name":"Visselhövede, Stadt","type":"Stadt"},"district":{"key":"03357","name":"Rotenburg (Wümme)","type":"Landkreis"},"federalState":{"key":"03","name":"Niedersachsen"}},{"name":"Im Winkel","postalCode":"27374","locality":"Visselhövede","municipality":{"key":"03357051","name":"Visselhövede, Stadt","type":"Stadt"},"district":{"key":"03357","name":"Rotenburg (Wümme)","type":"Landkreis"},"federalState":{"key":"03","name":"Niedersachsen"}},{"name":"Im Ziek","postalCode":"27374","locality":"Visselhövede","municipality":{"key":"03357051","name":"Visselhövede, Stadt","type":"Stadt"},"district":{"key":"03357","name":"Rotenburg (Wümme)","type":"Landkreis"},"federalState":{"key":"03","name":"Niedersachsen"}},{"name":"In den Ackern","postalCode":"27374","locality":"Visselhövede","municipality":{"key":"03357051","name":"Visselhövede, Stadt","type":"Stadt"},"district":{"key":"03357","name":"Rotenburg (Wümme)","type":"Landkreis"},"federalState":{"key":"03","name":"Niedersachsen"}},{"name":"Industriestr.","postalCode":"27374","locality":"Visselhövede","municipality":{"key":"03357051","name":"Visselhövede, Stadt","type":"Stadt"},"district":{"key":"03357","name":"Rotenburg (Wümme)","type":"Landkreis"},"federalState":{"key":"03","name":"Niedersachsen"}},{"name":"Insterburger Str.","postalCode":"27374","locality":"Visselhövede","municipality":{"key":"03357051","name":"Visselhövede, Stadt","type":"Stadt"},"district":{"key":"03357","name":"Rotenburg (Wümme)","type":"Landkreis"},"federalState":{"key":"03","name":"Niedersachsen"}},{"name":"Jeddinger Dorfstr.","postalCode":"27374","locality":"Visselhövede","municipality":{"key":"03357051","name":"Visselhövede, Stadt","type":"Stadt"},"district":{"key":"03357","name":"Rotenburg (Wümme)","type":"Landkreis"},"federalState":{"key":"03","name":"Niedersachsen"}},{"name":"Johann-Philipp-Reis-Str.","postalCode":"27374","locality":"Visselhövede","municipality":{"key":"03357051","name":"Visselhövede, Stadt","type":"Stadt"},"district":{"key":"03357","name":"Rotenburg (Wümme)","type":"Landkreis"},"federalState":{"key":"03","name":"Niedersachsen"}},{"name":"Jürshof","postalCode":"27374","locality":"Visselhövede","municipality":{"key":"03357051","name":"Visselhövede, Stadt","type":"Stadt"},"district":{"key":"03357","name":"Rotenburg (Wümme)","type":"Landkreis"},"federalState":{"key":"03","name":"Niedersachsen"}},{"name":"Kantstr.","postalCode":"27374","locality":"Visselhövede","municipality":{"key":"03357051","name":"Visselhövede, Stadt","type":"Stadt"},"district":{"key":"03357","name":"Rotenburg (Wümme)","type":"Landkreis"},"federalState":{"key":"03","name":"Niedersachsen"}},{"name":"Kettenburg","postalCode":"27374","locality":"Visselhövede","municipality":{"key":"03357051","name":"Visselhövede, Stadt","type":"Stadt"},"district":{"key":"03357","name":"Rotenburg (Wümme)","type":"Landkreis"},"federalState":{"key":"03","name":"Niedersachsen"}},{"name":"Kirchwalseder Str.","postalCode":"27374","locality":"Visselhövede","municipality":{"key":"03357051","name":"Visselhövede, Stadt","type":"Stadt"},"district":{"key":"03357","name":"Rotenburg (Wümme)","type":"Landkreis"},"federalState":{"key":"03","name":"Niedersachsen"}},{"name":"Kirchweg","postalCode":"27374","locality":"Visselhövede","municipality":{"key":"03357051","name":"Visselhövede, Stadt","type":"Stadt"},"district":{"key":"03357","name":"Rotenburg (Wümme)","type":"Landkreis"},"federalState":{"key":"03","name":"Niedersachsen"}},{"name":"Königsberger Str.","postalCode":"27374","locality":"Visselhövede","municipality":{"key":"03357051","name":"Visselhövede, Stadt","type":"Stadt"},"district":{"key":"03357","name":"Rotenburg (Wümme)","type":"Landkreis"},"federalState":{"key":"03","name":"Niedersachsen"}},{"name":"Kurze Str.","postalCode":"27374","locality":"Visselhövede","municipality":{"key":"03357051","name":"Visselhövede, Stadt","type":"Stadt"},"district":{"key":"03357","name":"Rotenburg (Wümme)","type":"Landkreis"},"federalState":{"key":"03","name":"Niedersachsen"}},{"name":"Langenkamp","postalCode":"27374","locality":"Visselhövede","municipality":{"key":"03357051","name":"Visselhövede, Stadt","type":"Stadt"},"district":{"key":"03357","name":"Rotenburg (Wümme)","type":"Landkreis"},"federalState":{"key":"03","name":"Niedersachsen"}},{"name":"Lehrden","postalCode":"27374","locality":"Visselhövede","municipality":{"key":"03357051","name":"Visselhövede, Stadt","type":"Stadt"},"district":{"key":"03357","name":"Rotenburg (Wümme)","type":"Landkreis"},"federalState":{"key":"03","name":"Niedersachsen"}},{"name":"Lerchenweg","postalCode":"27374","locality":"Visselhövede","municipality":{"key":"03357051","name":"Visselhövede, Stadt","type":"Stadt"},"district":{"key":"03357","name":"Rotenburg (Wümme)","type":"Landkreis"},"federalState":{"key":"03","name":"Niedersachsen"}},{"name":"Lessingstr.","postalCode":"27374","locality":"Visselhövede","municipality":{"key":"03357051","name":"Visselhövede, Stadt","type":"Stadt"},"district":{"key":"03357","name":"Rotenburg (Wümme)","type":"Landkreis"},"federalState":{"key":"03","name":"Niedersachsen"}},{"name":"Liegnitzer Str.","postalCode":"27374","locality":"Visselhövede","municipality":{"key":"03357051","name":"Visselhövede, Stadt","type":"Stadt"},"district":{"key":"03357","name":"Rotenburg (Wümme)","type":"Landkreis"},"federalState":{"key":"03","name":"Niedersachsen"}},{"name":"Limmerberg","postalCode":"27374","locality":"Visselhövede","municipality":{"key":"03357051","name":"Visselhövede, Stadt","type":"Stadt"},"district":{"key":"03357","name":"Rotenburg (Wümme)","type":"Landkreis"},"federalState":{"key":"03","name":"Niedersachsen"}},{"name":"Lindenpark","postalCode":"27374","locality":"Visselhövede","municipality":{"key":"03357051","name":"Visselhövede, Stadt","type":"Stadt"},"district":{"key":"03357","name":"Rotenburg (Wümme)","type":"Landkreis"},"federalState":{"key":"03","name":"Niedersachsen"}},{"name":"Lindenstr.","postalCode":"27374","locality":"Visselhövede","municipality":{"key":"03357051","name":"Visselhövede, Stadt","type":"Stadt"},"district":{"key":"03357","name":"Rotenburg (Wümme)","type":"Landkreis"},"federalState":{"key":"03","name":"Niedersachsen"}},{"name":"Lönsstr.","postalCode":"27374","locality":"Visselhövede","municipality":{"key":"03357051","name":"Visselhövede, Stadt","type":"Stadt"},"district":{"key":"03357","name":"Rotenburg (Wümme)","type":"Landkreis"},"federalState":{"key":"03","name":"Niedersachsen"}},{"name":"Lüdinger Str.","postalCode":"27374","locality":"Visselhövede","municipality":{"key":"03357051","name":"Visselhövede, Stadt","type":"Stadt"},"district":{"key":"03357","name":"Rotenburg (Wümme)","type":"Landkreis"},"federalState":{"key":"03","name":"Niedersachsen"}},{"name":"Marktplatz","postalCode":"27374","locality":"Visselhövede","municipality":{"key":"03357051","name":"Visselhövede, Stadt","type":"Stadt"},"district":{"key":"03357","name":"Rotenburg (Wümme)","type":"Landkreis"},"federalState":{"key":"03","name":"Niedersachsen"}},{"name":"Memeler Str.","postalCode":"27374","locality":"Visselhövede","municipality":{"key":"03357051","name":"Visselhövede, Stadt","type":"Stadt"},"district":{"key":"03357","name":"Rotenburg (Wümme)","type":"Landkreis"},"federalState":{"key":"03","name":"Niedersachsen"}},{"name":"Mittelweg","postalCode":"27374","locality":"Visselhövede","municipality":{"key":"03357051","name":"Visselhövede, Stadt","type":"Stadt"},"district":{"key":"03357","name":"Rotenburg (Wümme)","type":"Landkreis"},"federalState":{"key":"03","name":"Niedersachsen"}},{"name":"Molkereistr.","postalCode":"27374","locality":"Visselhövede","municipality":{"key":"03357051","name":"Visselhövede, Stadt","type":"Stadt"},"district":{"key":"03357","name":"Rotenburg (Wümme)","type":"Landkreis"},"federalState":{"key":"03","name":"Niedersachsen"}},{"name":"Moordorf","postalCode":"27374","locality":"Visselhövede","municipality":{"key":"03357051","name":"Visselhövede, Stadt","type":"Stadt"},"district":{"key":"03357","name":"Rotenburg (Wümme)","type":"Landkreis"},"federalState":{"key":"03","name":"Niedersachsen"}},{"name":"Mozartstr.","postalCode":"27374","locality":"Visselhövede","municipality":{"key":"03357051","name":"Visselhövede, Stadt","type":"Stadt"},"district":{"key":"03357","name":"Rotenburg (Wümme)","type":"Landkreis"},"federalState":{"key":"03","name":"Niedersachsen"}},{"name":"Mühlenstr.","postalCode":"27374","locality":"Visselhövede","municipality":{"key":"03357051","name":"Visselhövede, Stadt","type":"Stadt"},"district":{"key":"03357","name":"Rotenburg (Wümme)","type":"Landkreis"},"federalState":{"key":"03","name":"Niedersachsen"}},{"name":"Neuenkirchener Str.","postalCode":"27374","locality":"Visselhövede","municipality":{"key":"03357051","name":"Visselhövede, Stadt","type":"Stadt"},"district":{"key":"03357","name":"Rotenburg (Wümme)","type":"Landkreis"},"federalState":{"key":"03","name":"Niedersachsen"}},{"name":"Neulander Str.","postalCode":"27374","locality":"Visselhövede","municipality":{"key":"03357051","name":"Visselhövede, Stadt","type":"Stadt"},"district":{"key":"03357","name":"Rotenburg (Wümme)","type":"Landkreis"},"federalState":{"key":"03","name":"Niedersachsen"}},{"name":"Neu-Wehnsen","postalCode":"27374","locality":"Visselhövede","municipality":{"key":"03357051","name":"Visselhövede, Stadt","type":"Stadt"},"district":{"key":"03357","name":"Rotenburg (Wümme)","type":"Landkreis"},"federalState":{"key":"03","name":"Niedersachsen"}},{"name":"Nikolaus-Otto-Str.","postalCode":"27374","locality":"Visselhövede","municipality":{"key":"03357051","name":"Visselhövede, Stadt","type":"Stadt"},"district":{"key":"03357","name":"Rotenburg (Wümme)","type":"Landkreis"},"federalState":{"key":"03","name":"Niedersachsen"}},{"name":"Nindorfer Eichende","postalCode":"27374","locality":"Visselhövede","municipality":{"key":"03357051","name":"Visselhövede, Stadt","type":"Stadt"},"district":{"key":"03357","name":"Rotenburg (Wümme)","type":"Landkreis"},"federalState":{"key":"03","name":"Niedersachsen"}},{"name":"Nindorfer Str.","postalCode":"27374","locality":"Visselhövede","municipality":{"key":"03357051","name":"Visselhövede, Stadt","type":"Stadt"},"district":{"key":"03357","name":"Rotenburg (Wümme)","type":"Landkreis"},"federalState":{"key":"03","name":"Niedersachsen"}},{"name":"Nordstr.","postalCode":"27374","locality":"Visselhövede","municipality":{"key":"03357051","name":"Visselhövede, Stadt","type":"Stadt"},"district":{"key":"03357","name":"Rotenburg (Wümme)","type":"Landkreis"},"federalState":{"key":"03","name":"Niedersachsen"}},{"name":"Orchideenstr.","postalCode":"27374","locality":"Visselhövede","municipality":{"key":"03357051","name":"Visselhövede, Stadt","type":"Stadt"},"district":{"key":"03357","name":"Rotenburg (Wümme)","type":"Landkreis"},"federalState":{"key":"03","name":"Niedersachsen"}},{"name":"Orthof","postalCode":"27374","locality":"Visselhövede","municipality":{"key":"03357051","name":"Visselhövede, Stadt","type":"Stadt"},"district":{"key":"03357","name":"Rotenburg (Wümme)","type":"Landkreis"},"federalState":{"key":"03","name":"Niedersachsen"}},{"name":"Ostendestr.","postalCode":"27374","locality":"Visselhövede","municipality":{"key":"03357051","name":"Visselhövede, Stadt","type":"Stadt"},"district":{"key":"03357","name":"Rotenburg (Wümme)","type":"Landkreis"},"federalState":{"key":"03","name":"Niedersachsen"}},{"name":"Ostlandstr.","postalCode":"27374","locality":"Visselhövede","municipality":{"key":"03357051","name":"Visselhövede, Stadt","type":"Stadt"},"district":{"key":"03357","name":"Rotenburg (Wümme)","type":"Landkreis"},"federalState":{"key":"03","name":"Niedersachsen"}},{"name":"Ottinger Dorfstr.","postalCode":"27374","locality":"Visselhövede","municipality":{"key":"03357051","name":"Visselhövede, Stadt","type":"Stadt"},"district":{"key":"03357","name":"Rotenburg (Wümme)","type":"Landkreis"},"federalState":{"key":"03","name":"Niedersachsen"}},{"name":"Ottinger-Kirchweg","postalCode":"27374","locality":"Visselhövede","municipality":{"key":"03357051","name":"Visselhövede, Stadt","type":"Stadt"},"district":{"key":"03357","name":"Rotenburg (Wümme)","type":"Landkreis"},"federalState":{"key":"03","name":"Niedersachsen"}},{"name":"Ottlandring","postalCode":"27374","locality":"Visselhövede","municipality":{"key":"03357051","name":"Visselhövede, Stadt","type":"Stadt"},"district":{"key":"03357","name":"Rotenburg (Wümme)","type":"Landkreis"},"federalState":{"key":"03","name":"Niedersachsen"}},{"name":"Pappelstr.","postalCode":"27374","locality":"Visselhövede","municipality":{"key":"03357051","name":"Visselhövede, Stadt","type":"Stadt"},"district":{"key":"03357","name":"Rotenburg (Wümme)","type":"Landkreis"},"federalState":{"key":"03","name":"Niedersachsen"}},{"name":"Paterbusch","postalCode":"27374","locality":"Visselhövede","municipality":{"key":"03357051","name":"Visselhövede, Stadt","type":"Stadt"},"district":{"key":"03357","name":"Rotenburg (Wümme)","type":"Landkreis"},"federalState":{"key":"03","name":"Niedersachsen"}},{"name":"Porrathstr.","postalCode":"27374","locality":"Visselhövede","municipality":{"key":"03357051","name":"Visselhövede, Stadt","type":"Stadt"},"district":{"key":"03357","name":"Rotenburg (Wümme)","type":"Landkreis"},"federalState":{"key":"03","name":"Niedersachsen"}},{"name":"Raiffeisenstr.","postalCode":"27374","locality":"Visselhövede","municipality":{"key":"03357051","name":"Visselhövede, Stadt","type":"Stadt"},"district":{"key":"03357","name":"Rotenburg (Wümme)","type":"Landkreis"},"federalState":{"key":"03","name":"Niedersachsen"}},{"name":"Richtweg","postalCode":"27374","locality":"Visselhövede","municipality":{"key":"03357051","name":"Visselhövede, Stadt","type":"Stadt"},"district":{"key":"03357","name":"Rotenburg (Wümme)","type":"Landkreis"},"federalState":{"key":"03","name":"Niedersachsen"}},{"name":"Riepholm","postalCode":"27374","locality":"Visselhövede","municipality":{"key":"03357051","name":"Visselhövede, Stadt","type":"Stadt"},"district":{"key":"03357","name":"Rotenburg (Wümme)","type":"Landkreis"},"federalState":{"key":"03","name":"Niedersachsen"}},{"name":"Rosebruch","postalCode":"27374","locality":"Visselhövede","municipality":{"key":"03357051","name":"Visselhövede, Stadt","type":"Stadt"},"district":{"key":"03357","name":"Rotenburg (Wümme)","type":"Landkreis"},"federalState":{"key":"03","name":"Niedersachsen"}},{"name":"Rosenstr.","postalCode":"27374","locality":"Visselhövede","municipality":{"key":"03357051","name":"Visselhövede, Stadt","type":"Stadt"},"district":{"key":"03357","name":"Rotenburg (Wümme)","type":"Landkreis"},"federalState":{"key":"03","name":"Niedersachsen"}},{"name":"Rote Moorstr.","postalCode":"27374","locality":"Visselhövede","municipality":{"key":"03357051","name":"Visselhövede, Stadt","type":"Stadt"},"district":{"key":"03357","name":"Rotenburg (Wümme)","type":"Landkreis"},"federalState":{"key":"03","name":"Niedersachsen"}},{"name":"Rotenburger Str.","postalCode":"27374","locality":"Visselhövede","municipality":{"key":"03357051","name":"Visselhövede, Stadt","type":"Stadt"},"district":{"key":"03357","name":"Rotenburg (Wümme)","type":"Landkreis"},"federalState":{"key":"03","name":"Niedersachsen"}},{"name":"Rudolf-Diesel-Str.","postalCode":"27374","locality":"Visselhövede","municipality":{"key":"03357051","name":"Visselhövede, Stadt","type":"Stadt"},"district":{"key":"03357","name":"Rotenburg (Wümme)","type":"Landkreis"},"federalState":{"key":"03","name":"Niedersachsen"}},{"name":"Rutenmühler Str.","postalCode":"27374","locality":"Visselhövede","municipality":{"key":"03357051","name":"Visselhövede, Stadt","type":"Stadt"},"district":{"key":"03357","name":"Rotenburg (Wümme)","type":"Landkreis"},"federalState":{"key":"03","name":"Niedersachsen"}},{"name":"Saarlandweg","postalCode":"27374","locality":"Visselhövede","municipality":{"key":"03357051","name":"Visselhövede, Stadt","type":"Stadt"},"district":{"key":"03357","name":"Rotenburg (Wümme)","type":"Landkreis"},"federalState":{"key":"03","name":"Niedersachsen"}},{"name":"Schäferstr.","postalCode":"27374","locality":"Visselhövede","municipality":{"key":"03357051","name":"Visselhövede, Stadt","type":"Stadt"},"district":{"key":"03357","name":"Rotenburg (Wümme)","type":"Landkreis"},"federalState":{"key":"03","name":"Niedersachsen"}},{"name":"Schafwinkeler Landstr.","postalCode":"27374","locality":"Visselhövede","municipality":{"key":"03357051","name":"Visselhövede, Stadt","type":"Stadt"},"district":{"key":"03357","name":"Rotenburg (Wümme)","type":"Landkreis"},"federalState":{"key":"03","name":"Niedersachsen"}},{"name":"Schillerstr.","postalCode":"27374","locality":"Visselhövede","municipality":{"key":"03357051","name":"Visselhövede, Stadt","type":"Stadt"},"district":{"key":"03357","name":"Rotenburg (Wümme)","type":"Landkreis"},"federalState":{"key":"03","name":"Niedersachsen"}},{"name":"Schneidemühler Str.","postalCode":"27374","locality":"Visselhövede","municipality":{"key":"03357051","name":"Visselhövede, Stadt","type":"Stadt"},"district":{"key":"03357","name":"Rotenburg (Wümme)","type":"Landkreis"},"federalState":{"key":"03","name":"Niedersachsen"}},{"name":"Schneiders Kamp","postalCode":"27374","locality":"Visselhövede","municipality":{"key":"03357051","name":"Visselhövede, Stadt","type":"Stadt"},"district":{"key":"03357","name":"Rotenburg (Wümme)","type":"Landkreis"},"federalState":{"key":"03","name":"Niedersachsen"}},{"name":"Schulstr.","postalCode":"27374","locality":"Visselhövede","municipality":{"key":"03357051","name":"Visselhövede, Stadt","type":"Stadt"},"district":{"key":"03357","name":"Rotenburg (Wümme)","type":"Landkreis"},"federalState":{"key":"03","name":"Niedersachsen"}},{"name":"Schützenstr.","postalCode":"27374","locality":"Visselhövede","municipality":{"key":"03357051","name":"Visselhövede, Stadt","type":"Stadt"},"district":{"key":"03357","name":"Rotenburg (Wümme)","type":"Landkreis"},"federalState":{"key":"03","name":"Niedersachsen"}},{"name":"Schwitscher Str.","postalCode":"27374","locality":"Visselhövede","municipality":{"key":"03357051","name":"Visselhövede, Stadt","type":"Stadt"},"district":{"key":"03357","name":"Rotenburg (Wümme)","type":"Landkreis"},"federalState":{"key":"03","name":"Niedersachsen"}},{"name":"Soltauer Str.","postalCode":"27374","locality":"Visselhövede","municipality":{"key":"03357051","name":"Visselhövede, Stadt","type":"Stadt"},"district":{"key":"03357","name":"Rotenburg (Wümme)","type":"Landkreis"},"federalState":{"key":"03","name":"Niedersachsen"}},{"name":"Sonnenstr.","postalCode":"27374","locality":"Visselhövede","municipality":{"key":"03357051","name":"Visselhövede, Stadt","type":"Stadt"},"district":{"key":"03357","name":"Rotenburg (Wümme)","type":"Landkreis"},"federalState":{"key":"03","name":"Niedersachsen"}},{"name":"Stadtpark","postalCode":"27374","locality":"Visselhövede","municipality":{"key":"03357051","name":"Visselhövede, Stadt","type":"Stadt"},"district":{"key":"03357","name":"Rotenburg (Wümme)","type":"Landkreis"},"federalState":{"key":"03","name":"Niedersachsen"}},{"name":"Stellichter Str.","postalCode":"27374","locality":"Visselhövede","municipality":{"key":"03357051","name":"Visselhövede, Stadt","type":"Stadt"},"district":{"key":"03357","name":"Rotenburg (Wümme)","type":"Landkreis"},"federalState":{"key":"03","name":"Niedersachsen"}},{"name":"Stettiner Str.","postalCode":"27374","locality":"Visselhövede","municipality":{"key":"03357051","name":"Visselhövede, Stadt","type":"Stadt"},"district":{"key":"03357","name":"Rotenburg (Wümme)","type":"Landkreis"},"federalState":{"key":"03","name":"Niedersachsen"}},{"name":"Stölpenhof","postalCode":"27374","locality":"Visselhövede","municipality":{"key":"03357051","name":"Visselhövede, Stadt","type":"Stadt"},"district":{"key":"03357","name":"Rotenburg (Wümme)","type":"Landkreis"},"federalState":{"key":"03","name":"Niedersachsen"}},{"name":"St. Pauli","postalCode":"27374","locality":"Visselhövede","municipality":{"key":"03357051","name":"Visselhövede, Stadt","type":"Stadt"},"district":{"key":"03357","name":"Rotenburg (Wümme)","type":"Landkreis"},"federalState":{"key":"03","name":"Niedersachsen"}},{"name":"Suder Feld","postalCode":"27374","locality":"Visselhövede","municipality":{"key":"03357051","name":"Visselhövede, Stadt","type":"Stadt"},"district":{"key":"03357","name":"Rotenburg (Wümme)","type":"Landkreis"},"federalState":{"key":"03","name":"Niedersachsen"}},{"name":"Süderstr.","postalCode":"27374","locality":"Visselhövede","municipality":{"key":"03357051","name":"Visselhövede, Stadt","type":"Stadt"},"district":{"key":"03357","name":"Rotenburg (Wümme)","type":"Landkreis"},"federalState":{"key":"03","name":"Niedersachsen"}},{"name":"Südring","postalCode":"27374","locality":"Visselhövede","municipality":{"key":"03357051","name":"Visselhövede, Stadt","type":"Stadt"},"district":{"key":"03357","name":"Rotenburg (Wümme)","type":"Landkreis"},"federalState":{"key":"03","name":"Niedersachsen"}},{"name":"Surend","postalCode":"27374","locality":"Visselhövede","municipality":{"key":"03357051","name":"Visselhövede, Stadt","type":"Stadt"},"district":{"key":"03357","name":"Rotenburg (Wümme)","type":"Landkreis"},"federalState":{"key":"03","name":"Niedersachsen"}},{"name":"Tadel","postalCode":"27374","locality":"Visselhövede","municipality":{"key":"03357051","name":"Visselhövede, Stadt","type":"Stadt"},"district":{"key":"03357","name":"Rotenburg (Wümme)","type":"Landkreis"},"federalState":{"key":"03","name":"Niedersachsen"}},{"name":"Tannenberger Weg","postalCode":"27374","locality":"Visselhövede","municipality":{"key":"03357051","name":"Visselhövede, Stadt","type":"Stadt"},"district":{"key":"03357","name":"Rotenburg (Wümme)","type":"Landkreis"},"federalState":{"key":"03","name":"Niedersachsen"}},{"name":"Tilsiter Str.","postalCode":"27374","locality":"Visselhövede","municipality":{"key":"03357051","name":"Visselhövede, Stadt","type":"Stadt"},"district":{"key":"03357","name":"Rotenburg (Wümme)","type":"Landkreis"},"federalState":{"key":"03","name":"Niedersachsen"}},{"name":"Tulpenstr.","postalCode":"27374","locality":"Visselhövede","municipality":{"key":"03357051","name":"Visselhövede, Stadt","type":"Stadt"},"district":{"key":"03357","name":"Rotenburg (Wümme)","type":"Landkreis"},"federalState":{"key":"03","name":"Niedersachsen"}},{"name":"Uhlenbusch","postalCode":"27374","locality":"Visselhövede","municipality":{"key":"03357051","name":"Visselhövede, Stadt","type":"Stadt"},"district":{"key":"03357","name":"Rotenburg (Wümme)","type":"Landkreis"},"federalState":{"key":"03","name":"Niedersachsen"}},{"name":"Unter den Eichen","postalCode":"27374","locality":"Visselhövede","municipality":{"key":"03357051","name":"Visselhövede, Stadt","type":"Stadt"},"district":{"key":"03357","name":"Rotenburg (Wümme)","type":"Landkreis"},"federalState":{"key":"03","name":"Niedersachsen"}},{"name":"Verdener Str.","postalCode":"27374","locality":"Visselhövede","municipality":{"key":"03357051","name":"Visselhövede, Stadt","type":"Stadt"},"district":{"key":"03357","name":"Rotenburg (Wümme)","type":"Landkreis"},"federalState":{"key":"03","name":"Niedersachsen"}},{"name":"Visselhöveder Str.","postalCode":"27374","locality":"Visselhövede","municipality":{"key":"03357051","name":"Visselhövede, Stadt","type":"Stadt"},"district":{"key":"03357","name":"Rotenburg (Wümme)","type":"Landkreis"},"federalState":{"key":"03","name":"Niedersachsen"}},{"name":"Visselquelle","postalCode":"27374","locality":"Visselhövede","municipality":{"key":"03357051","name":"Visselhövede, Stadt","type":"Stadt"},"district":{"key":"03357","name":"Rotenburg (Wümme)","type":"Landkreis"},"federalState":{"key":"03","name":"Niedersachsen"}},{"name":"Visselseen","postalCode":"27374","locality":"Visselhövede","municipality":{"key":"03357051","name":"Visselhövede, Stadt","type":"Stadt"},"district":{"key":"03357","name":"Rotenburg (Wümme)","type":"Landkreis"},"federalState":{"key":"03","name":"Niedersachsen"}},{"name":"Vor dem Blöcken","postalCode":"27374","locality":"Visselhövede","municipality":{"key":"03357051","name":"Visselhövede, Stadt","type":"Stadt"},"district":{"key":"03357","name":"Rotenburg (Wümme)","type":"Landkreis"},"federalState":{"key":"03","name":"Niedersachsen"}},{"name":"Vossworth","postalCode":"27374","locality":"Visselhövede","municipality":{"key":"03357051","name":"Visselhövede, Stadt","type":"Stadt"},"district":{"key":"03357","name":"Rotenburg (Wümme)","type":"Landkreis"},"federalState":{"key":"03","name":"Niedersachsen"}},{"name":"Wacholderweg","postalCode":"27374","locality":"Visselhövede","municipality":{"key":"03357051","name":"Visselhövede, Stadt","type":"Stadt"},"district":{"key":"03357","name":"Rotenburg (Wümme)","type":"Landkreis"},"federalState":{"key":"03","name":"Niedersachsen"}},{"name":"Waldweg","postalCode":"27374","locality":"Visselhövede","municipality":{"key":"03357051","name":"Visselhövede, Stadt","type":"Stadt"},"district":{"key":"03357","name":"Rotenburg (Wümme)","type":"Landkreis"},"federalState":{"key":"03","name":"Niedersachsen"}},{"name":"Walsroder Str.","postalCode":"27374","locality":"Visselhövede","municipality":{"key":"03357051","name":"Visselhövede, Stadt","type":"Stadt"},"district":{"key":"03357","name":"Rotenburg (Wümme)","type":"Landkreis"},"federalState":{"key":"03","name":"Niedersachsen"}},{"name":"Weberlohstr.","postalCode":"27374","locality":"Visselhövede","municipality":{"key":"03357051","name":"Visselhövede, Stadt","type":"Stadt"},"district":{"key":"03357","name":"Rotenburg (Wümme)","type":"Landkreis"},"federalState":{"key":"03","name":"Niedersachsen"}},{"name":"Wedekindstr.","postalCode":"27374","locality":"Visselhövede","municipality":{"key":"03357051","name":"Visselhövede, Stadt","type":"Stadt"},"district":{"key":"03357","name":"Rotenburg (Wümme)","type":"Landkreis"},"federalState":{"key":"03","name":"Niedersachsen"}},{"name":"Wehnsen","postalCode":"27374","locality":"Visselhövede","municipality":{"key":"03357051","name":"Visselhövede, Stadt","type":"Stadt"},"district":{"key":"03357","name":"Rotenburg (Wümme)","type":"Landkreis"},"federalState":{"key":"03","name":"Niedersachsen"}},{"name":"Wehnser Weg","postalCode":"27374","locality":"Visselhövede","municipality":{"key":"03357051","name":"Visselhövede, Stadt","type":"Stadt"},"district":{"key":"03357","name":"Rotenburg (Wümme)","type":"Landkreis"},"federalState":{"key":"03","name":"Niedersachsen"}},{"name":"Weidenstr.","postalCode":"27374","locality":"Visselhövede","municipality":{"key":"03357051","name":"Visselhövede, Stadt","type":"Stadt"},"district":{"key":"03357","name":"Rotenburg (Wümme)","type":"Landkreis"},"federalState":{"key":"03","name":"Niedersachsen"}},{"name":"Westerstr.","postalCode":"27374","locality":"Visselhövede","municipality":{"key":"03357051","name":"Visselhövede, Stadt","type":"Stadt"},"district":{"key":"03357","name":"Rotenburg (Wümme)","type":"Landkreis"},"federalState":{"key":"03","name":"Niedersachsen"}},{"name":"Wiesenstr.","postalCode":"27374","locality":"Visselhövede","municipality":{"key":"03357051","name":"Visselhövede, Stadt","type":"Stadt"},"district":{"key":"03357","name":"Rotenburg (Wümme)","type":"Landkreis"},"federalState":{"key":"03","name":"Niedersachsen"}},{"name":"Wittenberger Str.","postalCode":"27374","locality":"Visselhövede","municipality":{"key":"03357051","name":"Visselhövede, Stadt","type":"Stadt"},"district":{"key":"03357","name":"Rotenburg (Wümme)","type":"Landkreis"},"federalState":{"key":"03","name":"Niedersachsen"}},{"name":"Wittorfer Str.","postalCode":"27374","locality":"Visselhövede","municipality":{"key":"03357051","name":"Visselhövede, Stadt","type":"Stadt"},"district":{"key":"03357","name":"Rotenburg (Wümme)","type":"Landkreis"},"federalState":{"key":"03","name":"Niedersachsen"}},{"name":"Worthstr.","postalCode":"27374","locality":"Visselhövede","municipality":{"key":"03357051","name":"Visselhövede, Stadt","type":"Stadt"},"district":{"key":"03357","name":"Rotenburg (Wümme)","type":"Landkreis"},"federalState":{"key":"03","name":"Niedersachsen"}},{"name":"Wrietreith","postalCode":"27374","locality":"Visselhövede","municipality":{"key":"03357051","name":"Visselhövede, Stadt","type":"Stadt"},"district":{"key":"03357","name":"Rotenburg (Wümme)","type":"Landkreis"},"federalState":{"key":"03","name":"Niedersachsen"}},{"name":"Wüstenhof","postalCode":"27374","locality":"Visselhövede","municipality":{"key":"03357051","name":"Visselhövede, Stadt","type":"Stadt"},"district":{"key":"03357","name":"Rotenburg (Wümme)","type":"Landkreis"},"federalState":{"key":"03","name":"Niedersachsen"}},{"name":"Zernitzpark","postalCode":"27374","locality":"Visselhövede","municipality":{"key":"03357051","name":"Visselhövede, Stadt","type":"Stadt"},"district":{"key":"03357","name":"Rotenburg (Wümme)","type":"Landkreis"},"federalState":{"key":"03","name":"Niedersachsen"}},{"name":"Zu den Visselwiesen","postalCode":"27374","locality":"Visselhövede","municipality":{"key":"03357051","name":"Visselhövede, Stadt","type":"Stadt"},"district":{"key":"03357","name":"Rotenburg (Wümme)","type":"Landkreis"},"federalState":{"key":"03","name":"Niedersachsen"}},{"name":"Zum Dicken Holz","postalCode":"27374","locality":"Visselhövede","municipality":{"key":"03357051","name":"Visselhövede, Stadt","type":"Stadt"},"district":{"key":"03357","name":"Rotenburg (Wümme)","type":"Landkreis"},"federalState":{"key":"03","name":"Niedersachsen"}},{"name":"Zum großen Feld","postalCode":"27374","locality":"Visselhövede","municipality":{"key":"03357051","name":"Visselhövede, Stadt","type":"Stadt"},"district":{"key":"03357","name":"Rotenburg (Wümme)","type":"Landkreis"},"federalState":{"key":"03","name":"Niedersachsen"}},{"name":"Zum Heister","postalCode":"27374","locality":"Visselhövede","municipality":{"key":"03357051","name":"Visselhövede, Stadt","type":"Stadt"},"district":{"key":"03357","name":"Rotenburg (Wümme)","type":"Landkreis"},"federalState":{"key":"03","name":"Niedersachsen"}},{"name":"Zum Hoop","postalCode":"27374","locality":"Visselhövede","municipality":{"key":"03357051","name":"Visselhövede, Stadt","type":"Stadt"},"district":{"key":"03357","name":"Rotenburg (Wümme)","type":"Landkreis"},"federalState":{"key":"03","name":"Niedersachsen"}},{"name":"Zum Limmer","postalCode":"27374","locality":"Visselhövede","municipality":{"key":"03357051","name":"Visselhövede, Stadt","type":"Stadt"},"district":{"key":"03357","name":"Rotenburg (Wümme)","type":"Landkreis"},"federalState":{"key":"03","name":"Niedersachsen"}},{"name":"Zur Braake","postalCode":"27374","locality":"Visselhövede","municipality":{"key":"03357051","name":"Visselhövede, Stadt","type":"Stadt"},"district":{"key":"03357","name":"Rotenburg (Wümme)","type":"Landkreis"},"federalState":{"key":"03","name":"Niedersachsen"}},{"name":"Zur Einigkeit","postalCode":"27374","locality":"Visselhövede","municipality":{"key":"03357051","name":"Visselhövede, Stadt","type":"Stadt"},"district":{"key":"03357","name":"Rotenburg (Wümme)","type":"Landkreis"},"federalState":{"key":"03","name":"Niedersachsen"}},{"name":"Zur Reith","postalCode":"27374","locality":"Visselhövede","municipality":{"key":"03357051","name":"Visselhövede, Stadt","type":"Stadt"},"district":{"key":"03357","name":"Rotenburg (Wümme)","type":"Landkreis"},"federalState":{"key":"03","name":"Niedersachsen"}},{"name":"Zur Rotbuche","postalCode":"27374","locality":"Visselhövede","municipality":{"key":"03357051","name":"Visselhövede, Stadt","type":"Stadt"},"district":{"key":"03357","name":"Rotenburg (Wümme)","type":"Landkreis"},"federalState":{"key":"03","name":"Niedersachsen"}},]