[{"name":"Adam-Kraft-Str.","postalCode":"90562","locality":"Heroldsberg","municipality":{"key":"09572131","name":"Heroldsberg, M","type":"Markt"},"district":{"key":"09572","name":"Erlangen-Höchstadt","type":"Landkreis"},"federalState":{"key":"09","name":"Bayern"}},{"name":"Adelsgasse","postalCode":"91336","locality":"Heroldsbach","municipality":{"key":"09474135","name":"Heroldsbach","type":"Kreisangehörige_Gemeinde"},"district":{"key":"09474","name":"Forchheim","type":"Landkreis"},"federalState":{"key":"09","name":"Bayern"}},{"name":"Adenauerstr.","postalCode":"91336","locality":"Heroldsbach","municipality":{"key":"09474135","name":"Heroldsbach","type":"Kreisangehörige_Gemeinde"},"district":{"key":"09474","name":"Forchheim","type":"Landkreis"},"federalState":{"key":"09","name":"Bayern"}},{"name":"Adlerstr.","postalCode":"90562","locality":"Heroldsberg","municipality":{"key":"09572131","name":"Heroldsberg, M","type":"Markt"},"district":{"key":"09572","name":"Erlangen-Höchstadt","type":"Landkreis"},"federalState":{"key":"09","name":"Bayern"}},{"name":"Adolf-Dietz-Str.","postalCode":"72535","locality":"Heroldstatt","municipality":{"key":"08425139","name":"Heroldstatt","type":"Kreisangehörige_Gemeinde"},"district":{"key":"08425","name":"Alb-Donau-Kreis","type":"Landkreis"},"federalState":{"key":"08","name":"Baden-Württemberg"}},{"name":"Ahornweg","postalCode":"72535","locality":"Heroldstatt","municipality":{"key":"08425139","name":"Heroldstatt","type":"Kreisangehörige_Gemeinde"},"district":{"key":"08425","name":"Alb-Donau-Kreis","type":"Landkreis"},"federalState":{"key":"08","name":"Baden-Württemberg"}},{"name":"Albrecht-Dürer-Str.","postalCode":"90562","locality":"Heroldsberg","municipality":{"key":"09572131","name":"Heroldsberg, M","type":"Markt"},"district":{"key":"09572","name":"Erlangen-Höchstadt","type":"Landkreis"},"federalState":{"key":"09","name":"Bayern"}},{"name":"Albrecht-Dürer-Str.","postalCode":"91336","locality":"Heroldsbach","municipality":{"key":"09474135","name":"Heroldsbach","type":"Kreisangehörige_Gemeinde"},"district":{"key":"09474","name":"Forchheim","type":"Landkreis"},"federalState":{"key":"09","name":"Bayern"}},{"name":"Albstr.","postalCode":"72535","locality":"Heroldstatt","municipality":{"key":"08425139","name":"Heroldstatt","type":"Kreisangehörige_Gemeinde"},"district":{"key":"08425","name":"Alb-Donau-Kreis","type":"Landkreis"},"federalState":{"key":"08","name":"Baden-Württemberg"}},{"name":"Altenburgstr.","postalCode":"91336","locality":"Heroldsbach","municipality":{"key":"09474135","name":"Heroldsbach","type":"Kreisangehörige_Gemeinde"},"district":{"key":"09474","name":"Forchheim","type":"Landkreis"},"federalState":{"key":"09","name":"Bayern"}},{"name":"Am Bachfeld","postalCode":"91336","locality":"Heroldsbach","municipality":{"key":"09474135","name":"Heroldsbach","type":"Kreisangehörige_Gemeinde"},"district":{"key":"09474","name":"Forchheim","type":"Landkreis"},"federalState":{"key":"09","name":"Bayern"}},{"name":"Am Bahnhof","postalCode":"90562","locality":"Heroldsberg","municipality":{"key":"09572131","name":"Heroldsberg, M","type":"Markt"},"district":{"key":"09572","name":"Erlangen-Höchstadt","type":"Landkreis"},"federalState":{"key":"09","name":"Bayern"}},{"name":"Am Baumfeld","postalCode":"91336","locality":"Heroldsbach","municipality":{"key":"09474135","name":"Heroldsbach","type":"Kreisangehörige_Gemeinde"},"district":{"key":"09474","name":"Forchheim","type":"Landkreis"},"federalState":{"key":"09","name":"Bayern"}},{"name":"Am Berg","postalCode":"56368","locality":"Herold","municipality":{"key":"07141054","name":"Herold","type":"Kreisangehörige_Gemeinde"},"district":{"key":"07141","name":"Rhein-Lahn-Kreis","type":"Landkreis"},"federalState":{"key":"07","name":"Rheinland-Pfalz"}},{"name":"Am Berg","postalCode":"72535","locality":"Heroldstatt","municipality":{"key":"08425139","name":"Heroldstatt","type":"Kreisangehörige_Gemeinde"},"district":{"key":"08425","name":"Alb-Donau-Kreis","type":"Landkreis"},"federalState":{"key":"08","name":"Baden-Württemberg"}},{"name":"Am Bühl","postalCode":"90562","locality":"Heroldsberg","municipality":{"key":"09572131","name":"Heroldsberg, M","type":"Markt"},"district":{"key":"09572","name":"Erlangen-Höchstadt","type":"Landkreis"},"federalState":{"key":"09","name":"Bayern"}},{"name":"Am Eichenwäldchen","postalCode":"90562","locality":"Heroldsberg","municipality":{"key":"09572131","name":"Heroldsberg, M","type":"Markt"},"district":{"key":"09572","name":"Erlangen-Höchstadt","type":"Landkreis"},"federalState":{"key":"09","name":"Bayern"}},{"name":"Ameisenbühl","postalCode":"91336","locality":"Heroldsbach","municipality":{"key":"09474135","name":"Heroldsbach","type":"Kreisangehörige_Gemeinde"},"district":{"key":"09474","name":"Forchheim","type":"Landkreis"},"federalState":{"key":"09","name":"Bayern"}},{"name":"Am Festplatz","postalCode":"90562","locality":"Heroldsberg","municipality":{"key":"09572131","name":"Heroldsberg, M","type":"Markt"},"district":{"key":"09572","name":"Erlangen-Höchstadt","type":"Landkreis"},"federalState":{"key":"09","name":"Bayern"}},{"name":"Am Forsthaus","postalCode":"91336","locality":"Heroldsbach","municipality":{"key":"09474135","name":"Heroldsbach","type":"Kreisangehörige_Gemeinde"},"district":{"key":"09474","name":"Forchheim","type":"Landkreis"},"federalState":{"key":"09","name":"Bayern"}},{"name":"Am Griesfeld","postalCode":"91336","locality":"Heroldsbach","municipality":{"key":"09474135","name":"Heroldsbach","type":"Kreisangehörige_Gemeinde"},"district":{"key":"09474","name":"Forchheim","type":"Landkreis"},"federalState":{"key":"09","name":"Bayern"}},{"name":"Am Herrengarten","postalCode":"91336","locality":"Heroldsbach","municipality":{"key":"09474135","name":"Heroldsbach","type":"Kreisangehörige_Gemeinde"},"district":{"key":"09474","name":"Forchheim","type":"Landkreis"},"federalState":{"key":"09","name":"Bayern"}},{"name":"Am Heustädele","postalCode":"72535","locality":"Heroldstatt","municipality":{"key":"08425139","name":"Heroldstatt","type":"Kreisangehörige_Gemeinde"},"district":{"key":"08425","name":"Alb-Donau-Kreis","type":"Landkreis"},"federalState":{"key":"08","name":"Baden-Württemberg"}},{"name":"Am Hopfengarten","postalCode":"91336","locality":"Heroldsbach","municipality":{"key":"09474135","name":"Heroldsbach","type":"Kreisangehörige_Gemeinde"},"district":{"key":"09474","name":"Forchheim","type":"Landkreis"},"federalState":{"key":"09","name":"Bayern"}},{"name":"Am Kübellohberg","postalCode":"91336","locality":"Heroldsbach","municipality":{"key":"09474135","name":"Heroldsbach","type":"Kreisangehörige_Gemeinde"},"district":{"key":"09474","name":"Forchheim","type":"Landkreis"},"federalState":{"key":"09","name":"Bayern"}},{"name":"Am Kübelweiher","postalCode":"91336","locality":"Heroldsbach","municipality":{"key":"09474135","name":"Heroldsbach","type":"Kreisangehörige_Gemeinde"},"district":{"key":"09474","name":"Forchheim","type":"Landkreis"},"federalState":{"key":"09","name":"Bayern"}},{"name":"Am Kühberg","postalCode":"91336","locality":"Heroldsbach","municipality":{"key":"09474135","name":"Heroldsbach","type":"Kreisangehörige_Gemeinde"},"district":{"key":"09474","name":"Forchheim","type":"Landkreis"},"federalState":{"key":"09","name":"Bayern"}},{"name":"Am Lachgarten","postalCode":"91336","locality":"Heroldsbach","municipality":{"key":"09474135","name":"Heroldsbach","type":"Kreisangehörige_Gemeinde"},"district":{"key":"09474","name":"Forchheim","type":"Landkreis"},"federalState":{"key":"09","name":"Bayern"}},{"name":"Am Lachweiher","postalCode":"91336","locality":"Heroldsbach","municipality":{"key":"09474135","name":"Heroldsbach","type":"Kreisangehörige_Gemeinde"},"district":{"key":"09474","name":"Forchheim","type":"Landkreis"},"federalState":{"key":"09","name":"Bayern"}},{"name":"Am Lehmgrubenfeld","postalCode":"91336","locality":"Heroldsbach","municipality":{"key":"09474135","name":"Heroldsbach","type":"Kreisangehörige_Gemeinde"},"district":{"key":"09474","name":"Forchheim","type":"Landkreis"},"federalState":{"key":"09","name":"Bayern"}},{"name":"Am Riegelberg","postalCode":"91336","locality":"Heroldsbach","municipality":{"key":"09474135","name":"Heroldsbach","type":"Kreisangehörige_Gemeinde"},"district":{"key":"09474","name":"Forchheim","type":"Landkreis"},"federalState":{"key":"09","name":"Bayern"}},{"name":"Am Ruhstein","postalCode":"90562","locality":"Heroldsberg","municipality":{"key":"09572131","name":"Heroldsberg, M","type":"Markt"},"district":{"key":"09572","name":"Erlangen-Höchstadt","type":"Landkreis"},"federalState":{"key":"09","name":"Bayern"}},{"name":"Am Sayen","postalCode":"56368","locality":"Herold","municipality":{"key":"07141054","name":"Herold","type":"Kreisangehörige_Gemeinde"},"district":{"key":"07141","name":"Rhein-Lahn-Kreis","type":"Landkreis"},"federalState":{"key":"07","name":"Rheinland-Pfalz"}},{"name":"Am Schäferhaus","postalCode":"56368","locality":"Herold","municipality":{"key":"07141054","name":"Herold","type":"Kreisangehörige_Gemeinde"},"district":{"key":"07141","name":"Rhein-Lahn-Kreis","type":"Landkreis"},"federalState":{"key":"07","name":"Rheinland-Pfalz"}},{"name":"Amselweg","postalCode":"90562","locality":"Heroldsberg","municipality":{"key":"09572131","name":"Heroldsberg, M","type":"Markt"},"district":{"key":"09572","name":"Erlangen-Höchstadt","type":"Landkreis"},"federalState":{"key":"09","name":"Bayern"}},{"name":"Amselweg","postalCode":"91336","locality":"Heroldsbach","municipality":{"key":"09474135","name":"Heroldsbach","type":"Kreisangehörige_Gemeinde"},"district":{"key":"09474","name":"Forchheim","type":"Landkreis"},"federalState":{"key":"09","name":"Bayern"}},{"name":"Am Vogelherd","postalCode":"91336","locality":"Heroldsbach","municipality":{"key":"09474135","name":"Heroldsbach","type":"Kreisangehörige_Gemeinde"},"district":{"key":"09474","name":"Forchheim","type":"Landkreis"},"federalState":{"key":"09","name":"Bayern"}},{"name":"Am Wasserturm","postalCode":"90562","locality":"Heroldsberg","municipality":{"key":"09572131","name":"Heroldsberg, M","type":"Markt"},"district":{"key":"09572","name":"Erlangen-Höchstadt","type":"Landkreis"},"federalState":{"key":"09","name":"Bayern"}},{"name":"Am Wiesenhang","postalCode":"91336","locality":"Heroldsbach","municipality":{"key":"09474135","name":"Heroldsbach","type":"Kreisangehörige_Gemeinde"},"district":{"key":"09474","name":"Forchheim","type":"Landkreis"},"federalState":{"key":"09","name":"Bayern"}},{"name":"Am Zeerranken","postalCode":"91336","locality":"Heroldsbach","municipality":{"key":"09474135","name":"Heroldsbach","type":"Kreisangehörige_Gemeinde"},"district":{"key":"09474","name":"Forchheim","type":"Landkreis"},"federalState":{"key":"09","name":"Bayern"}},{"name":"An der Hagenau","postalCode":"91336","locality":"Heroldsbach","municipality":{"key":"09474135","name":"Heroldsbach","type":"Kreisangehörige_Gemeinde"},"district":{"key":"09474","name":"Forchheim","type":"Landkreis"},"federalState":{"key":"09","name":"Bayern"}},{"name":"An der Schwedenschanze","postalCode":"91336","locality":"Heroldsbach","municipality":{"key":"09474135","name":"Heroldsbach","type":"Kreisangehörige_Gemeinde"},"district":{"key":"09474","name":"Forchheim","type":"Landkreis"},"federalState":{"key":"09","name":"Bayern"}},{"name":"Auf dem Berg","postalCode":"72535","locality":"Heroldstatt","municipality":{"key":"08425139","name":"Heroldstatt","type":"Kreisangehörige_Gemeinde"},"district":{"key":"08425","name":"Alb-Donau-Kreis","type":"Landkreis"},"federalState":{"key":"08","name":"Baden-Württemberg"}},{"name":"Bäckengasse","postalCode":"90562","locality":"Heroldsberg","municipality":{"key":"09572131","name":"Heroldsberg, M","type":"Markt"},"district":{"key":"09572","name":"Erlangen-Höchstadt","type":"Landkreis"},"federalState":{"key":"09","name":"Bayern"}},{"name":"Backesweg","postalCode":"56368","locality":"Herold","municipality":{"key":"07141054","name":"Herold","type":"Kreisangehörige_Gemeinde"},"district":{"key":"07141","name":"Rhein-Lahn-Kreis","type":"Landkreis"},"federalState":{"key":"07","name":"Rheinland-Pfalz"}},{"name":"Baiersdorfer Str.","postalCode":"91336","locality":"Heroldsbach","municipality":{"key":"09474135","name":"Heroldsbach","type":"Kreisangehörige_Gemeinde"},"district":{"key":"09474","name":"Forchheim","type":"Landkreis"},"federalState":{"key":"09","name":"Bayern"}},{"name":"Bannholz","postalCode":"72535","locality":"Heroldstatt","municipality":{"key":"08425139","name":"Heroldstatt","type":"Kreisangehörige_Gemeinde"},"district":{"key":"08425","name":"Alb-Donau-Kreis","type":"Landkreis"},"federalState":{"key":"08","name":"Baden-Württemberg"}},{"name":"Bayernstr.","postalCode":"91336","locality":"Heroldsbach","municipality":{"key":"09474135","name":"Heroldsbach","type":"Kreisangehörige_Gemeinde"},"district":{"key":"09474","name":"Forchheim","type":"Landkreis"},"federalState":{"key":"09","name":"Bayern"}},{"name":"Beethovenstr.","postalCode":"72535","locality":"Heroldstatt","municipality":{"key":"08425139","name":"Heroldstatt","type":"Kreisangehörige_Gemeinde"},"district":{"key":"08425","name":"Alb-Donau-Kreis","type":"Landkreis"},"federalState":{"key":"08","name":"Baden-Württemberg"}},{"name":"Behringersdorfer Str.","postalCode":"90562","locality":"Heroldsberg","municipality":{"key":"09572131","name":"Heroldsberg, M","type":"Markt"},"district":{"key":"09572","name":"Erlangen-Höchstadt","type":"Landkreis"},"federalState":{"key":"09","name":"Bayern"}},{"name":"Bergstr.","postalCode":"72535","locality":"Heroldstatt","municipality":{"key":"08425139","name":"Heroldstatt","type":"Kreisangehörige_Gemeinde"},"district":{"key":"08425","name":"Alb-Donau-Kreis","type":"Landkreis"},"federalState":{"key":"08","name":"Baden-Württemberg"}},{"name":"Bergstr.","postalCode":"91336","locality":"Heroldsbach","municipality":{"key":"09474135","name":"Heroldsbach","type":"Kreisangehörige_Gemeinde"},"district":{"key":"09474","name":"Forchheim","type":"Landkreis"},"federalState":{"key":"09","name":"Bayern"}},{"name":"Bgm.-Georg-Gügel-Ring","postalCode":"91336","locality":"Heroldsbach","municipality":{"key":"09474135","name":"Heroldsbach","type":"Kreisangehörige_Gemeinde"},"district":{"key":"09474","name":"Forchheim","type":"Landkreis"},"federalState":{"key":"09","name":"Bayern"}},{"name":"Bgm.-Georg-Reck-Str.","postalCode":"91336","locality":"Heroldsbach","municipality":{"key":"09474135","name":"Heroldsbach","type":"Kreisangehörige_Gemeinde"},"district":{"key":"09474","name":"Forchheim","type":"Landkreis"},"federalState":{"key":"09","name":"Bayern"}},{"name":"Bienenweg","postalCode":"90562","locality":"Heroldsberg","municipality":{"key":"09572131","name":"Heroldsberg, M","type":"Markt"},"district":{"key":"09572","name":"Erlangen-Höchstadt","type":"Landkreis"},"federalState":{"key":"09","name":"Bayern"}},{"name":"Birkenweg","postalCode":"72535","locality":"Heroldstatt","municipality":{"key":"08425139","name":"Heroldstatt","type":"Kreisangehörige_Gemeinde"},"district":{"key":"08425","name":"Alb-Donau-Kreis","type":"Landkreis"},"federalState":{"key":"08","name":"Baden-Württemberg"}},{"name":"Birkenweg","postalCode":"91336","locality":"Heroldsbach","municipality":{"key":"09474135","name":"Heroldsbach","type":"Kreisangehörige_Gemeinde"},"district":{"key":"09474","name":"Forchheim","type":"Landkreis"},"federalState":{"key":"09","name":"Bayern"}},{"name":"Blaubeurer Weg","postalCode":"72535","locality":"Heroldstatt","municipality":{"key":"08425139","name":"Heroldstatt","type":"Kreisangehörige_Gemeinde"},"district":{"key":"08425","name":"Alb-Donau-Kreis","type":"Landkreis"},"federalState":{"key":"08","name":"Baden-Württemberg"}},{"name":"Blumenstr.","postalCode":"72535","locality":"Heroldstatt","municipality":{"key":"08425139","name":"Heroldstatt","type":"Kreisangehörige_Gemeinde"},"district":{"key":"08425","name":"Alb-Donau-Kreis","type":"Landkreis"},"federalState":{"key":"08","name":"Baden-Württemberg"}},{"name":"Boden","postalCode":"72535","locality":"Heroldstatt","municipality":{"key":"08425139","name":"Heroldstatt","type":"Kreisangehörige_Gemeinde"},"district":{"key":"08425","name":"Alb-Donau-Kreis","type":"Landkreis"},"federalState":{"key":"08","name":"Baden-Württemberg"}},{"name":"Bolystr.","postalCode":"90562","locality":"Heroldsberg","municipality":{"key":"09572131","name":"Heroldsberg, M","type":"Markt"},"district":{"key":"09572","name":"Erlangen-Höchstadt","type":"Landkreis"},"federalState":{"key":"09","name":"Bayern"}},{"name":"Boschstr.","postalCode":"72535","locality":"Heroldstatt","municipality":{"key":"08425139","name":"Heroldstatt","type":"Kreisangehörige_Gemeinde"},"district":{"key":"08425","name":"Alb-Donau-Kreis","type":"Landkreis"},"federalState":{"key":"08","name":"Baden-Württemberg"}},{"name":"Bräuhausstr.","postalCode":"91336","locality":"Heroldsbach","municipality":{"key":"09474135","name":"Heroldsbach","type":"Kreisangehörige_Gemeinde"},"district":{"key":"09474","name":"Forchheim","type":"Landkreis"},"federalState":{"key":"09","name":"Bayern"}},{"name":"Breitenstr.","postalCode":"72535","locality":"Heroldstatt","municipality":{"key":"08425139","name":"Heroldstatt","type":"Kreisangehörige_Gemeinde"},"district":{"key":"08425","name":"Alb-Donau-Kreis","type":"Landkreis"},"federalState":{"key":"08","name":"Baden-Württemberg"}},{"name":"Brunnenstr.","postalCode":"72535","locality":"Heroldstatt","municipality":{"key":"08425139","name":"Heroldstatt","type":"Kreisangehörige_Gemeinde"},"district":{"key":"08425","name":"Alb-Donau-Kreis","type":"Landkreis"},"federalState":{"key":"08","name":"Baden-Württemberg"}},{"name":"Brunnenstr.","postalCode":"90562","locality":"Heroldsberg","municipality":{"key":"09572131","name":"Heroldsberg, M","type":"Markt"},"district":{"key":"09572","name":"Erlangen-Höchstadt","type":"Landkreis"},"federalState":{"key":"09","name":"Bayern"}},{"name":"Brunnenstr.","postalCode":"91336","locality":"Heroldsbach","municipality":{"key":"09474135","name":"Heroldsbach","type":"Kreisangehörige_Gemeinde"},"district":{"key":"09474","name":"Forchheim","type":"Landkreis"},"federalState":{"key":"09","name":"Bayern"}},{"name":"Buchenweg","postalCode":"72535","locality":"Heroldstatt","municipality":{"key":"08425139","name":"Heroldstatt","type":"Kreisangehörige_Gemeinde"},"district":{"key":"08425","name":"Alb-Donau-Kreis","type":"Landkreis"},"federalState":{"key":"08","name":"Baden-Württemberg"}},{"name":"Buchenweg","postalCode":"90562","locality":"Heroldsberg","municipality":{"key":"09572131","name":"Heroldsberg, M","type":"Markt"},"district":{"key":"09572","name":"Erlangen-Höchstadt","type":"Landkreis"},"federalState":{"key":"09","name":"Bayern"}},{"name":"Bühlweg","postalCode":"90562","locality":"Heroldsberg","municipality":{"key":"09572131","name":"Heroldsberg, M","type":"Markt"},"district":{"key":"09572","name":"Erlangen-Höchstadt","type":"Landkreis"},"federalState":{"key":"09","name":"Bayern"}},{"name":"Bürgermeister-Morgenroth-Str.","postalCode":"91336","locality":"Heroldsbach","municipality":{"key":"09474135","name":"Heroldsbach","type":"Kreisangehörige_Gemeinde"},"district":{"key":"09474","name":"Forchheim","type":"Landkreis"},"federalState":{"key":"09","name":"Bayern"}},{"name":"Bürgermeister-Obenauf-Str.","postalCode":"91336","locality":"Heroldsbach","municipality":{"key":"09474135","name":"Heroldsbach","type":"Kreisangehörige_Gemeinde"},"district":{"key":"09474","name":"Forchheim","type":"Landkreis"},"federalState":{"key":"09","name":"Bayern"}},{"name":"Bürgermeister-Rösch-Str.","postalCode":"91336","locality":"Heroldsbach","municipality":{"key":"09474135","name":"Heroldsbach","type":"Kreisangehörige_Gemeinde"},"district":{"key":"09474","name":"Forchheim","type":"Landkreis"},"federalState":{"key":"09","name":"Bayern"}},{"name":"Burgleite","postalCode":"91336","locality":"Heroldsbach","municipality":{"key":"09474135","name":"Heroldsbach","type":"Kreisangehörige_Gemeinde"},"district":{"key":"09474","name":"Forchheim","type":"Landkreis"},"federalState":{"key":"09","name":"Bayern"}},{"name":"Daimlerstr.","postalCode":"72535","locality":"Heroldstatt","municipality":{"key":"08425139","name":"Heroldstatt","type":"Kreisangehörige_Gemeinde"},"district":{"key":"08425","name":"Alb-Donau-Kreis","type":"Landkreis"},"federalState":{"key":"08","name":"Baden-Württemberg"}},{"name":"Demmerweg","postalCode":"90562","locality":"Heroldsberg","municipality":{"key":"09572131","name":"Heroldsberg, M","type":"Markt"},"district":{"key":"09572","name":"Erlangen-Höchstadt","type":"Landkreis"},"federalState":{"key":"09","name":"Bayern"}},{"name":"Dieselstr.","postalCode":"72535","locality":"Heroldstatt","municipality":{"key":"08425139","name":"Heroldstatt","type":"Kreisangehörige_Gemeinde"},"district":{"key":"08425","name":"Alb-Donau-Kreis","type":"Landkreis"},"federalState":{"key":"08","name":"Baden-Württemberg"}},{"name":"Dieselstr.","postalCode":"90562","locality":"Heroldsberg","municipality":{"key":"09572131","name":"Heroldsberg, M","type":"Markt"},"district":{"key":"09572","name":"Erlangen-Höchstadt","type":"Landkreis"},"federalState":{"key":"09","name":"Bayern"}},{"name":"Dorfplatz","postalCode":"91336","locality":"Heroldsbach","municipality":{"key":"09474135","name":"Heroldsbach","type":"Kreisangehörige_Gemeinde"},"district":{"key":"09474","name":"Forchheim","type":"Landkreis"},"federalState":{"key":"09","name":"Bayern"}},{"name":"Dorfstr.","postalCode":"91336","locality":"Heroldsbach","municipality":{"key":"09474135","name":"Heroldsbach","type":"Kreisangehörige_Gemeinde"},"district":{"key":"09474","name":"Forchheim","type":"Landkreis"},"federalState":{"key":"09","name":"Bayern"}},{"name":"Dr.-Gustav-Schickedanz-Str.","postalCode":"90562","locality":"Heroldsberg","municipality":{"key":"09572131","name":"Heroldsberg, M","type":"Markt"},"district":{"key":"09572","name":"Erlangen-Höchstadt","type":"Landkreis"},"federalState":{"key":"09","name":"Bayern"}},{"name":"Dr.-Hans-Sitzmann-Str.","postalCode":"91336","locality":"Heroldsbach","municipality":{"key":"09474135","name":"Heroldsbach","type":"Kreisangehörige_Gemeinde"},"district":{"key":"09474","name":"Forchheim","type":"Landkreis"},"federalState":{"key":"09","name":"Bayern"}},{"name":"Drosselweg","postalCode":"72535","locality":"Heroldstatt","municipality":{"key":"08425139","name":"Heroldstatt","type":"Kreisangehörige_Gemeinde"},"district":{"key":"08425","name":"Alb-Donau-Kreis","type":"Landkreis"},"federalState":{"key":"08","name":"Baden-Württemberg"}},{"name":"Drosselweg","postalCode":"90562","locality":"Heroldsberg","municipality":{"key":"09572131","name":"Heroldsberg, M","type":"Markt"},"district":{"key":"09572","name":"Erlangen-Höchstadt","type":"Landkreis"},"federalState":{"key":"09","name":"Bayern"}},{"name":"Egerlandstr.","postalCode":"90562","locality":"Heroldsberg","municipality":{"key":"09572131","name":"Heroldsberg, M","type":"Markt"},"district":{"key":"09572","name":"Erlangen-Höchstadt","type":"Landkreis"},"federalState":{"key":"09","name":"Bayern"}},{"name":"Eichengasse","postalCode":"91336","locality":"Heroldsbach","municipality":{"key":"09474135","name":"Heroldsbach","type":"Kreisangehörige_Gemeinde"},"district":{"key":"09474","name":"Forchheim","type":"Landkreis"},"federalState":{"key":"09","name":"Bayern"}},{"name":"Eichenstr.","postalCode":"90562","locality":"Heroldsberg","municipality":{"key":"09572131","name":"Heroldsberg, M","type":"Markt"},"district":{"key":"09572","name":"Erlangen-Höchstadt","type":"Landkreis"},"federalState":{"key":"09","name":"Bayern"}},{"name":"Eichenweg","postalCode":"72535","locality":"Heroldstatt","municipality":{"key":"08425139","name":"Heroldstatt","type":"Kreisangehörige_Gemeinde"},"district":{"key":"08425","name":"Alb-Donau-Kreis","type":"Landkreis"},"federalState":{"key":"08","name":"Baden-Württemberg"}},{"name":"Eichhalde","postalCode":"72535","locality":"Heroldstatt","municipality":{"key":"08425139","name":"Heroldstatt","type":"Kreisangehörige_Gemeinde"},"district":{"key":"08425","name":"Alb-Donau-Kreis","type":"Landkreis"},"federalState":{"key":"08","name":"Baden-Württemberg"}},{"name":"Eichweg","postalCode":"72535","locality":"Heroldstatt","municipality":{"key":"08425139","name":"Heroldstatt","type":"Kreisangehörige_Gemeinde"},"district":{"key":"08425","name":"Alb-Donau-Kreis","type":"Landkreis"},"federalState":{"key":"08","name":"Baden-Württemberg"}},{"name":"Ennabeurer Weg","postalCode":"72535","locality":"Heroldstatt","municipality":{"key":"08425139","name":"Heroldstatt","type":"Kreisangehörige_Gemeinde"},"district":{"key":"08425","name":"Alb-Donau-Kreis","type":"Landkreis"},"federalState":{"key":"08","name":"Baden-Württemberg"}},{"name":"Erhardstr.","postalCode":"90562","locality":"Heroldsberg","municipality":{"key":"09572131","name":"Heroldsberg, M","type":"Markt"},"district":{"key":"09572","name":"Erlangen-Höchstadt","type":"Landkreis"},"federalState":{"key":"09","name":"Bayern"}},{"name":"Erlenstr.","postalCode":"72535","locality":"Heroldstatt","municipality":{"key":"08425139","name":"Heroldstatt","type":"Kreisangehörige_Gemeinde"},"district":{"key":"08425","name":"Alb-Donau-Kreis","type":"Landkreis"},"federalState":{"key":"08","name":"Baden-Württemberg"}},{"name":"Erlenweg","postalCode":"90562","locality":"Heroldsberg","municipality":{"key":"09572131","name":"Heroldsberg, M","type":"Markt"},"district":{"key":"09572","name":"Erlangen-Höchstadt","type":"Landkreis"},"federalState":{"key":"09","name":"Bayern"}},{"name":"Erlenweg","postalCode":"91336","locality":"Heroldsbach","municipality":{"key":"09474135","name":"Heroldsbach","type":"Kreisangehörige_Gemeinde"},"district":{"key":"09474","name":"Forchheim","type":"Landkreis"},"federalState":{"key":"09","name":"Bayern"}},{"name":"Eschenweg","postalCode":"72535","locality":"Heroldstatt","municipality":{"key":"08425139","name":"Heroldstatt","type":"Kreisangehörige_Gemeinde"},"district":{"key":"08425","name":"Alb-Donau-Kreis","type":"Landkreis"},"federalState":{"key":"08","name":"Baden-Württemberg"}},{"name":"Eschenweg","postalCode":"90562","locality":"Heroldsberg","municipality":{"key":"09572131","name":"Heroldsberg, M","type":"Markt"},"district":{"key":"09572","name":"Erlangen-Höchstadt","type":"Landkreis"},"federalState":{"key":"09","name":"Bayern"}},{"name":"Fabrikstr.","postalCode":"90562","locality":"Heroldsberg","municipality":{"key":"09572131","name":"Heroldsberg, M","type":"Markt"},"district":{"key":"09572","name":"Erlangen-Höchstadt","type":"Landkreis"},"federalState":{"key":"09","name":"Bayern"}},{"name":"Falkenstr.","postalCode":"90562","locality":"Heroldsberg","municipality":{"key":"09572131","name":"Heroldsberg, M","type":"Markt"},"district":{"key":"09572","name":"Erlangen-Höchstadt","type":"Landkreis"},"federalState":{"key":"09","name":"Bayern"}},{"name":"Feldstetter Str.","postalCode":"72535","locality":"Heroldstatt","municipality":{"key":"08425139","name":"Heroldstatt","type":"Kreisangehörige_Gemeinde"},"district":{"key":"08425","name":"Alb-Donau-Kreis","type":"Landkreis"},"federalState":{"key":"08","name":"Baden-Württemberg"}},{"name":"Feldstr.","postalCode":"56368","locality":"Herold","municipality":{"key":"07141054","name":"Herold","type":"Kreisangehörige_Gemeinde"},"district":{"key":"07141","name":"Rhein-Lahn-Kreis","type":"Landkreis"},"federalState":{"key":"07","name":"Rheinland-Pfalz"}},{"name":"Finkenweg","postalCode":"72535","locality":"Heroldstatt","municipality":{"key":"08425139","name":"Heroldstatt","type":"Kreisangehörige_Gemeinde"},"district":{"key":"08425","name":"Alb-Donau-Kreis","type":"Landkreis"},"federalState":{"key":"08","name":"Baden-Württemberg"}},{"name":"Finkenweg","postalCode":"90562","locality":"Heroldsberg","municipality":{"key":"09572131","name":"Heroldsberg, M","type":"Markt"},"district":{"key":"09572","name":"Erlangen-Höchstadt","type":"Landkreis"},"federalState":{"key":"09","name":"Bayern"}},{"name":"Fliederweg","postalCode":"90562","locality":"Heroldsberg","municipality":{"key":"09572131","name":"Heroldsberg, M","type":"Markt"},"district":{"key":"09572","name":"Erlangen-Höchstadt","type":"Landkreis"},"federalState":{"key":"09","name":"Bayern"}},{"name":"Fliederweg","postalCode":"91336","locality":"Heroldsbach","municipality":{"key":"09474135","name":"Heroldsbach","type":"Kreisangehörige_Gemeinde"},"district":{"key":"09474","name":"Forchheim","type":"Landkreis"},"federalState":{"key":"09","name":"Bayern"}},{"name":"Flurstr.","postalCode":"72535","locality":"Heroldstatt","municipality":{"key":"08425139","name":"Heroldstatt","type":"Kreisangehörige_Gemeinde"},"district":{"key":"08425","name":"Alb-Donau-Kreis","type":"Landkreis"},"federalState":{"key":"08","name":"Baden-Württemberg"}},{"name":"Flurstr.","postalCode":"90562","locality":"Heroldsberg","municipality":{"key":"09572131","name":"Heroldsberg, M","type":"Markt"},"district":{"key":"09572","name":"Erlangen-Höchstadt","type":"Landkreis"},"federalState":{"key":"09","name":"Bayern"}},{"name":"Flurweg","postalCode":"91336","locality":"Heroldsbach","municipality":{"key":"09474135","name":"Heroldsbach","type":"Kreisangehörige_Gemeinde"},"district":{"key":"09474","name":"Forchheim","type":"Landkreis"},"federalState":{"key":"09","name":"Bayern"}},{"name":"Föhrenweg","postalCode":"90562","locality":"Heroldsberg","municipality":{"key":"09572131","name":"Heroldsberg, M","type":"Markt"},"district":{"key":"09572","name":"Erlangen-Höchstadt","type":"Landkreis"},"federalState":{"key":"09","name":"Bayern"}},{"name":"Föhrenweg","postalCode":"91336","locality":"Heroldsbach","municipality":{"key":"09474135","name":"Heroldsbach","type":"Kreisangehörige_Gemeinde"},"district":{"key":"09474","name":"Forchheim","type":"Landkreis"},"federalState":{"key":"09","name":"Bayern"}},{"name":"Forstweg","postalCode":"90562","locality":"Heroldsberg","municipality":{"key":"09572131","name":"Heroldsberg, M","type":"Markt"},"district":{"key":"09572","name":"Erlangen-Höchstadt","type":"Landkreis"},"federalState":{"key":"09","name":"Bayern"}},{"name":"Frankenstr.","postalCode":"91336","locality":"Heroldsbach","municipality":{"key":"09474135","name":"Heroldsbach","type":"Kreisangehörige_Gemeinde"},"district":{"key":"09474","name":"Forchheim","type":"Landkreis"},"federalState":{"key":"09","name":"Bayern"}},{"name":"Friedenstr.","postalCode":"91336","locality":"Heroldsbach","municipality":{"key":"09474135","name":"Heroldsbach","type":"Kreisangehörige_Gemeinde"},"district":{"key":"09474","name":"Forchheim","type":"Landkreis"},"federalState":{"key":"09","name":"Bayern"}},{"name":"Friedhofstr.","postalCode":"90562","locality":"Heroldsberg","municipality":{"key":"09572131","name":"Heroldsberg, M","type":"Markt"},"district":{"key":"09572","name":"Erlangen-Höchstadt","type":"Landkreis"},"federalState":{"key":"09","name":"Bayern"}},{"name":"Fritz-Griebel-Str.","postalCode":"90562","locality":"Heroldsberg","municipality":{"key":"09572131","name":"Heroldsberg, M","type":"Markt"},"district":{"key":"09572","name":"Erlangen-Höchstadt","type":"Landkreis"},"federalState":{"key":"09","name":"Bayern"}},{"name":"Fuchsweg","postalCode":"90562","locality":"Heroldsberg","municipality":{"key":"09572131","name":"Heroldsberg, M","type":"Markt"},"district":{"key":"09572","name":"Erlangen-Höchstadt","type":"Landkreis"},"federalState":{"key":"09","name":"Bayern"}},{"name":"Fürstbergstr.","postalCode":"91336","locality":"Heroldsbach","municipality":{"key":"09474135","name":"Heroldsbach","type":"Kreisangehörige_Gemeinde"},"district":{"key":"09474","name":"Forchheim","type":"Landkreis"},"federalState":{"key":"09","name":"Bayern"}},{"name":"Gartenstr.","postalCode":"56368","locality":"Herold","municipality":{"key":"07141054","name":"Herold","type":"Kreisangehörige_Gemeinde"},"district":{"key":"07141","name":"Rhein-Lahn-Kreis","type":"Landkreis"},"federalState":{"key":"07","name":"Rheinland-Pfalz"}},{"name":"Gartenstr.","postalCode":"72535","locality":"Heroldstatt","municipality":{"key":"08425139","name":"Heroldstatt","type":"Kreisangehörige_Gemeinde"},"district":{"key":"08425","name":"Alb-Donau-Kreis","type":"Landkreis"},"federalState":{"key":"08","name":"Baden-Württemberg"}},{"name":"Gartenstr.","postalCode":"91336","locality":"Heroldsbach","municipality":{"key":"09474135","name":"Heroldsbach","type":"Kreisangehörige_Gemeinde"},"district":{"key":"09474","name":"Forchheim","type":"Landkreis"},"federalState":{"key":"09","name":"Bayern"}},{"name":"Geranienweg","postalCode":"90562","locality":"Heroldsberg","municipality":{"key":"09572131","name":"Heroldsberg, M","type":"Markt"},"district":{"key":"09572","name":"Erlangen-Höchstadt","type":"Landkreis"},"federalState":{"key":"09","name":"Bayern"}},{"name":"Gerichtsweg","postalCode":"90562","locality":"Heroldsberg","municipality":{"key":"09572131","name":"Heroldsberg, M","type":"Markt"},"district":{"key":"09572","name":"Erlangen-Höchstadt","type":"Landkreis"},"federalState":{"key":"09","name":"Bayern"}},{"name":"Gewerbestr.","postalCode":"72535","locality":"Heroldstatt","municipality":{"key":"08425139","name":"Heroldstatt","type":"Kreisangehörige_Gemeinde"},"district":{"key":"08425","name":"Alb-Donau-Kreis","type":"Landkreis"},"federalState":{"key":"08","name":"Baden-Württemberg"}},{"name":"Gotzmannstr.","postalCode":"91336","locality":"Heroldsbach","municipality":{"key":"09474135","name":"Heroldsbach","type":"Kreisangehörige_Gemeinde"},"district":{"key":"09474","name":"Forchheim","type":"Landkreis"},"federalState":{"key":"09","name":"Bayern"}},{"name":"Gräfin-Irmgard-v.-Bentzel-Ring","postalCode":"91336","locality":"Heroldsbach","municipality":{"key":"09474135","name":"Heroldsbach","type":"Kreisangehörige_Gemeinde"},"district":{"key":"09474","name":"Forchheim","type":"Landkreis"},"federalState":{"key":"09","name":"Bayern"}},{"name":"Günthersbühler Str.","postalCode":"90562","locality":"Heroldsberg","municipality":{"key":"09572131","name":"Heroldsberg, M","type":"Markt"},"district":{"key":"09572","name":"Erlangen-Höchstadt","type":"Landkreis"},"federalState":{"key":"09","name":"Bayern"}},{"name":"Haidbergweg","postalCode":"90562","locality":"Heroldsberg","municipality":{"key":"09572131","name":"Heroldsberg, M","type":"Markt"},"district":{"key":"09572","name":"Erlangen-Höchstadt","type":"Landkreis"},"federalState":{"key":"09","name":"Bayern"}},{"name":"Hallerstr.","postalCode":"90562","locality":"Heroldsberg","municipality":{"key":"09572131","name":"Heroldsberg, M","type":"Markt"},"district":{"key":"09572","name":"Erlangen-Höchstadt","type":"Landkreis"},"federalState":{"key":"09","name":"Bayern"}},{"name":"Hans-Sachs-Platz","postalCode":"90562","locality":"Heroldsberg","municipality":{"key":"09572131","name":"Heroldsberg, M","type":"Markt"},"district":{"key":"09572","name":"Erlangen-Höchstadt","type":"Landkreis"},"federalState":{"key":"09","name":"Bayern"}},{"name":"Hans-Sachs-Str.","postalCode":"90562","locality":"Heroldsberg","municipality":{"key":"09572131","name":"Heroldsberg, M","type":"Markt"},"district":{"key":"09572","name":"Erlangen-Höchstadt","type":"Landkreis"},"federalState":{"key":"09","name":"Bayern"}},{"name":"Haselweg","postalCode":"72535","locality":"Heroldstatt","municipality":{"key":"08425139","name":"Heroldstatt","type":"Kreisangehörige_Gemeinde"},"district":{"key":"08425","name":"Alb-Donau-Kreis","type":"Landkreis"},"federalState":{"key":"08","name":"Baden-Württemberg"}},{"name":"Hauptstr.","postalCode":"56368","locality":"Herold","municipality":{"key":"07141054","name":"Herold","type":"Kreisangehörige_Gemeinde"},"district":{"key":"07141","name":"Rhein-Lahn-Kreis","type":"Landkreis"},"federalState":{"key":"07","name":"Rheinland-Pfalz"}},{"name":"Hauptstr.","postalCode":"90562","locality":"Heroldsberg","municipality":{"key":"09572131","name":"Heroldsberg, M","type":"Markt"},"district":{"key":"09572","name":"Erlangen-Höchstadt","type":"Landkreis"},"federalState":{"key":"09","name":"Bayern"}},{"name":"Hauptstr.","postalCode":"91336","locality":"Heroldsbach","municipality":{"key":"09474135","name":"Heroldsbach","type":"Kreisangehörige_Gemeinde"},"district":{"key":"09474","name":"Forchheim","type":"Landkreis"},"federalState":{"key":"09","name":"Bayern"}},{"name":"Hausener Str.","postalCode":"91336","locality":"Heroldsbach","municipality":{"key":"09474135","name":"Heroldsbach","type":"Kreisangehörige_Gemeinde"},"district":{"key":"09474","name":"Forchheim","type":"Landkreis"},"federalState":{"key":"09","name":"Bayern"}},{"name":"Haydnstr.","postalCode":"72535","locality":"Heroldstatt","municipality":{"key":"08425139","name":"Heroldstatt","type":"Kreisangehörige_Gemeinde"},"district":{"key":"08425","name":"Alb-Donau-Kreis","type":"Landkreis"},"federalState":{"key":"08","name":"Baden-Württemberg"}},{"name":"Heiliger Berg","postalCode":"72535","locality":"Heroldstatt","municipality":{"key":"08425139","name":"Heroldstatt","type":"Kreisangehörige_Gemeinde"},"district":{"key":"08425","name":"Alb-Donau-Kreis","type":"Landkreis"},"federalState":{"key":"08","name":"Baden-Württemberg"}},{"name":"Heroldsbacher Str.","postalCode":"91336","locality":"Heroldsbach","municipality":{"key":"09474135","name":"Heroldsbach","type":"Kreisangehörige_Gemeinde"},"district":{"key":"09474","name":"Forchheim","type":"Landkreis"},"federalState":{"key":"09","name":"Bayern"}},{"name":"Heroldsberger Weg","postalCode":"90562","locality":"Heroldsberg","municipality":{"key":"09572131","name":"Heroldsberg, M","type":"Markt"},"district":{"key":"09572","name":"Erlangen-Höchstadt","type":"Landkreis"},"federalState":{"key":"09","name":"Bayern"}},{"name":"Heroldstetter Weg","postalCode":"72535","locality":"Heroldstatt","municipality":{"key":"08425139","name":"Heroldstatt","type":"Kreisangehörige_Gemeinde"},"district":{"key":"08425","name":"Alb-Donau-Kreis","type":"Landkreis"},"federalState":{"key":"08","name":"Baden-Württemberg"}},{"name":"Herrmannsgäßchen","postalCode":"90562","locality":"Heroldsberg","municipality":{"key":"09572131","name":"Heroldsberg, M","type":"Markt"},"district":{"key":"09572","name":"Erlangen-Höchstadt","type":"Landkreis"},"federalState":{"key":"09","name":"Bayern"}},{"name":"Hersbrucker Str.","postalCode":"90562","locality":"Heroldsberg","municipality":{"key":"09572131","name":"Heroldsberg, M","type":"Markt"},"district":{"key":"09572","name":"Erlangen-Höchstadt","type":"Landkreis"},"federalState":{"key":"09","name":"Bayern"}},{"name":"Heuweg","postalCode":"90562","locality":"Heroldsberg","municipality":{"key":"09572131","name":"Heroldsberg, M","type":"Markt"},"district":{"key":"09572","name":"Erlangen-Höchstadt","type":"Landkreis"},"federalState":{"key":"09","name":"Bayern"}},{"name":"Hirnhauweg","postalCode":"72535","locality":"Heroldstatt","municipality":{"key":"08425139","name":"Heroldstatt","type":"Kreisangehörige_Gemeinde"},"district":{"key":"08425","name":"Alb-Donau-Kreis","type":"Landkreis"},"federalState":{"key":"08","name":"Baden-Württemberg"}},{"name":"Hirningshütteweg","postalCode":"72535","locality":"Heroldstatt","municipality":{"key":"08425139","name":"Heroldstatt","type":"Kreisangehörige_Gemeinde"},"district":{"key":"08425","name":"Alb-Donau-Kreis","type":"Landkreis"},"federalState":{"key":"08","name":"Baden-Württemberg"}},{"name":"Hirtengasse","postalCode":"90562","locality":"Heroldsberg","municipality":{"key":"09572131","name":"Heroldsberg, M","type":"Markt"},"district":{"key":"09572","name":"Erlangen-Höchstadt","type":"Landkreis"},"federalState":{"key":"09","name":"Bayern"}},{"name":"Hofsiedlung","postalCode":"72535","locality":"Heroldstatt","municipality":{"key":"08425139","name":"Heroldstatt","type":"Kreisangehörige_Gemeinde"},"district":{"key":"08425","name":"Alb-Donau-Kreis","type":"Landkreis"},"federalState":{"key":"08","name":"Baden-Württemberg"}},{"name":"Höhenstr.","postalCode":"72535","locality":"Heroldstatt","municipality":{"key":"08425139","name":"Heroldstatt","type":"Kreisangehörige_Gemeinde"},"district":{"key":"08425","name":"Alb-Donau-Kreis","type":"Landkreis"},"federalState":{"key":"08","name":"Baden-Württemberg"}},{"name":"Hollergasse","postalCode":"91336","locality":"Heroldsbach","municipality":{"key":"09474135","name":"Heroldsbach","type":"Kreisangehörige_Gemeinde"},"district":{"key":"09474","name":"Forchheim","type":"Landkreis"},"federalState":{"key":"09","name":"Bayern"}},{"name":"Holunderweg","postalCode":"72535","locality":"Heroldstatt","municipality":{"key":"08425139","name":"Heroldstatt","type":"Kreisangehörige_Gemeinde"},"district":{"key":"08425","name":"Alb-Donau-Kreis","type":"Landkreis"},"federalState":{"key":"08","name":"Baden-Württemberg"}},{"name":"Holzschuherstr.","postalCode":"90562","locality":"Heroldsberg","municipality":{"key":"09572131","name":"Heroldsberg, M","type":"Markt"},"district":{"key":"09572","name":"Erlangen-Höchstadt","type":"Landkreis"},"federalState":{"key":"09","name":"Bayern"}},{"name":"Horneckstr.","postalCode":"91336","locality":"Heroldsbach","municipality":{"key":"09474135","name":"Heroldsbach","type":"Kreisangehörige_Gemeinde"},"district":{"key":"09474","name":"Forchheim","type":"Landkreis"},"federalState":{"key":"09","name":"Bayern"}},{"name":"Hubertusstr.","postalCode":"91336","locality":"Heroldsbach","municipality":{"key":"09474135","name":"Heroldsbach","type":"Kreisangehörige_Gemeinde"},"district":{"key":"09474","name":"Forchheim","type":"Landkreis"},"federalState":{"key":"09","name":"Bayern"}},{"name":"Hülbenstr.","postalCode":"72535","locality":"Heroldstatt","municipality":{"key":"08425139","name":"Heroldstatt","type":"Kreisangehörige_Gemeinde"},"district":{"key":"08425","name":"Alb-Donau-Kreis","type":"Landkreis"},"federalState":{"key":"08","name":"Baden-Württemberg"}},{"name":"Im Brunnengäßle","postalCode":"72535","locality":"Heroldstatt","municipality":{"key":"08425139","name":"Heroldstatt","type":"Kreisangehörige_Gemeinde"},"district":{"key":"08425","name":"Alb-Donau-Kreis","type":"Landkreis"},"federalState":{"key":"08","name":"Baden-Württemberg"}},{"name":"Im Förstergarten","postalCode":"91336","locality":"Heroldsbach","municipality":{"key":"09474135","name":"Heroldsbach","type":"Kreisangehörige_Gemeinde"},"district":{"key":"09474","name":"Forchheim","type":"Landkreis"},"federalState":{"key":"09","name":"Bayern"}},{"name":"Imkerweg","postalCode":"90562","locality":"Heroldsberg","municipality":{"key":"09572131","name":"Heroldsberg, M","type":"Markt"},"district":{"key":"09572","name":"Erlangen-Höchstadt","type":"Landkreis"},"federalState":{"key":"09","name":"Bayern"}},{"name":"Im Kirschgarten","postalCode":"91336","locality":"Heroldsbach","municipality":{"key":"09474135","name":"Heroldsbach","type":"Kreisangehörige_Gemeinde"},"district":{"key":"09474","name":"Forchheim","type":"Landkreis"},"federalState":{"key":"09","name":"Bayern"}},{"name":"Im Lattigstück","postalCode":"56368","locality":"Herold","municipality":{"key":"07141054","name":"Herold","type":"Kreisangehörige_Gemeinde"},"district":{"key":"07141","name":"Rhein-Lahn-Kreis","type":"Landkreis"},"federalState":{"key":"07","name":"Rheinland-Pfalz"}},{"name":"Im Sayen","postalCode":"56368","locality":"Herold","municipality":{"key":"07141054","name":"Herold","type":"Kreisangehörige_Gemeinde"},"district":{"key":"07141","name":"Rhein-Lahn-Kreis","type":"Landkreis"},"federalState":{"key":"07","name":"Rheinland-Pfalz"}},{"name":"Im Spargelfeld","postalCode":"91336","locality":"Heroldsbach","municipality":{"key":"09474135","name":"Heroldsbach","type":"Kreisangehörige_Gemeinde"},"district":{"key":"09474","name":"Forchheim","type":"Landkreis"},"federalState":{"key":"09","name":"Bayern"}},{"name":"In der Hub","postalCode":"91336","locality":"Heroldsbach","municipality":{"key":"09474135","name":"Heroldsbach","type":"Kreisangehörige_Gemeinde"},"district":{"key":"09474","name":"Forchheim","type":"Landkreis"},"federalState":{"key":"09","name":"Bayern"}},{"name":"In der Reuth","postalCode":"91336","locality":"Heroldsbach","municipality":{"key":"09474135","name":"Heroldsbach","type":"Kreisangehörige_Gemeinde"},"district":{"key":"09474","name":"Forchheim","type":"Landkreis"},"federalState":{"key":"09","name":"Bayern"}},{"name":"Jagdweg","postalCode":"90562","locality":"Heroldsberg","municipality":{"key":"09572131","name":"Heroldsberg, M","type":"Markt"},"district":{"key":"09572","name":"Erlangen-Höchstadt","type":"Landkreis"},"federalState":{"key":"09","name":"Bayern"}},{"name":"Jagdweg","postalCode":"91336","locality":"Heroldsbach","municipality":{"key":"09474135","name":"Heroldsbach","type":"Kreisangehörige_Gemeinde"},"district":{"key":"09474","name":"Forchheim","type":"Landkreis"},"federalState":{"key":"09","name":"Bayern"}},{"name":"Justinger Weg","postalCode":"72535","locality":"Heroldstatt","municipality":{"key":"08425139","name":"Heroldstatt","type":"Kreisangehörige_Gemeinde"},"district":{"key":"08425","name":"Alb-Donau-Kreis","type":"Landkreis"},"federalState":{"key":"08","name":"Baden-Württemberg"}},{"name":"Kalchreuther Weg","postalCode":"90562","locality":"Heroldsberg","municipality":{"key":"09572131","name":"Heroldsberg, M","type":"Markt"},"district":{"key":"09572","name":"Erlangen-Höchstadt","type":"Landkreis"},"federalState":{"key":"09","name":"Bayern"}},{"name":"Kaltenbuchweg","postalCode":"72535","locality":"Heroldstatt","municipality":{"key":"08425139","name":"Heroldstatt","type":"Kreisangehörige_Gemeinde"},"district":{"key":"08425","name":"Alb-Donau-Kreis","type":"Landkreis"},"federalState":{"key":"08","name":"Baden-Württemberg"}},{"name":"Kiefernweg","postalCode":"91336","locality":"Heroldsbach","municipality":{"key":"09474135","name":"Heroldsbach","type":"Kreisangehörige_Gemeinde"},"district":{"key":"09474","name":"Forchheim","type":"Landkreis"},"federalState":{"key":"09","name":"Bayern"}},{"name":"Kirchenweg","postalCode":"90562","locality":"Heroldsberg","municipality":{"key":"09572131","name":"Heroldsberg, M","type":"Markt"},"district":{"key":"09572","name":"Erlangen-Höchstadt","type":"Landkreis"},"federalState":{"key":"09","name":"Bayern"}},{"name":"Kirchgasse","postalCode":"72535","locality":"Heroldstatt","municipality":{"key":"08425139","name":"Heroldstatt","type":"Kreisangehörige_Gemeinde"},"district":{"key":"08425","name":"Alb-Donau-Kreis","type":"Landkreis"},"federalState":{"key":"08","name":"Baden-Württemberg"}},{"name":"Klingenstr.","postalCode":"91336","locality":"Heroldsbach","municipality":{"key":"09474135","name":"Heroldsbach","type":"Kreisangehörige_Gemeinde"},"district":{"key":"09474","name":"Forchheim","type":"Landkreis"},"federalState":{"key":"09","name":"Bayern"}},{"name":"Kohlengasse","postalCode":"90562","locality":"Heroldsberg","municipality":{"key":"09572131","name":"Heroldsberg, M","type":"Markt"},"district":{"key":"09572","name":"Erlangen-Höchstadt","type":"Landkreis"},"federalState":{"key":"09","name":"Bayern"}},{"name":"Kohlhalde","postalCode":"72535","locality":"Heroldstatt","municipality":{"key":"08425139","name":"Heroldstatt","type":"Kreisangehörige_Gemeinde"},"district":{"key":"08425","name":"Alb-Donau-Kreis","type":"Landkreis"},"federalState":{"key":"08","name":"Baden-Württemberg"}},{"name":"Kohlstr.","postalCode":"56368","locality":"Herold","municipality":{"key":"07141054","name":"Herold","type":"Kreisangehörige_Gemeinde"},"district":{"key":"07141","name":"Rhein-Lahn-Kreis","type":"Landkreis"},"federalState":{"key":"07","name":"Rheinland-Pfalz"}},{"name":"Kreuzacker","postalCode":"91336","locality":"Heroldsbach","municipality":{"key":"09474135","name":"Heroldsbach","type":"Kreisangehörige_Gemeinde"},"district":{"key":"09474","name":"Forchheim","type":"Landkreis"},"federalState":{"key":"09","name":"Bayern"}},{"name":"Kummertsreuth","postalCode":"91336","locality":"Heroldsbach","municipality":{"key":"09474135","name":"Heroldsbach","type":"Kreisangehörige_Gemeinde"},"district":{"key":"09474","name":"Forchheim","type":"Landkreis"},"federalState":{"key":"09","name":"Bayern"}},{"name":"Kunzengasse","postalCode":"90562","locality":"Heroldsberg","municipality":{"key":"09572131","name":"Heroldsberg, M","type":"Markt"},"district":{"key":"09572","name":"Erlangen-Höchstadt","type":"Landkreis"},"federalState":{"key":"09","name":"Bayern"}},{"name":"Kurt-Schumacher-Str.","postalCode":"91336","locality":"Heroldsbach","municipality":{"key":"09474135","name":"Heroldsbach","type":"Kreisangehörige_Gemeinde"},"district":{"key":"09474","name":"Forchheim","type":"Landkreis"},"federalState":{"key":"09","name":"Bayern"}},{"name":"Lahnstr.","postalCode":"56368","locality":"Herold","municipality":{"key":"07141054","name":"Herold","type":"Kreisangehörige_Gemeinde"},"district":{"key":"07141","name":"Rhein-Lahn-Kreis","type":"Landkreis"},"federalState":{"key":"07","name":"Rheinland-Pfalz"}},{"name":"Laichinger Str.","postalCode":"72535","locality":"Heroldstatt","municipality":{"key":"08425139","name":"Heroldstatt","type":"Kreisangehörige_Gemeinde"},"district":{"key":"08425","name":"Alb-Donau-Kreis","type":"Landkreis"},"federalState":{"key":"08","name":"Baden-Württemberg"}},{"name":"Landsbühl","postalCode":"72535","locality":"Heroldstatt","municipality":{"key":"08425139","name":"Heroldstatt","type":"Kreisangehörige_Gemeinde"},"district":{"key":"08425","name":"Alb-Donau-Kreis","type":"Landkreis"},"federalState":{"key":"08","name":"Baden-Württemberg"}},{"name":"Lange Gasse","postalCode":"90562","locality":"Heroldsberg","municipality":{"key":"09572131","name":"Heroldsberg, M","type":"Markt"},"district":{"key":"09572","name":"Erlangen-Höchstadt","type":"Landkreis"},"federalState":{"key":"09","name":"Bayern"}},{"name":"Lange Str.","postalCode":"72535","locality":"Heroldstatt","municipality":{"key":"08425139","name":"Heroldstatt","type":"Kreisangehörige_Gemeinde"},"district":{"key":"08425","name":"Alb-Donau-Kreis","type":"Landkreis"},"federalState":{"key":"08","name":"Baden-Württemberg"}},{"name":"Lärchenweg","postalCode":"72535","locality":"Heroldstatt","municipality":{"key":"08425139","name":"Heroldstatt","type":"Kreisangehörige_Gemeinde"},"district":{"key":"08425","name":"Alb-Donau-Kreis","type":"Landkreis"},"federalState":{"key":"08","name":"Baden-Württemberg"}},{"name":"Laufer Weg","postalCode":"90562","locality":"Heroldsberg","municipality":{"key":"09572131","name":"Heroldsberg, M","type":"Markt"},"district":{"key":"09572","name":"Erlangen-Höchstadt","type":"Landkreis"},"federalState":{"key":"09","name":"Bayern"}},{"name":"Lehrer-Franz-Str.","postalCode":"91336","locality":"Heroldsbach","municipality":{"key":"09474135","name":"Heroldsbach","type":"Kreisangehörige_Gemeinde"},"district":{"key":"09474","name":"Forchheim","type":"Landkreis"},"federalState":{"key":"09","name":"Bayern"}},{"name":"Lehrer-Löhlein-Weg","postalCode":"91336","locality":"Heroldsbach","municipality":{"key":"09474135","name":"Heroldsbach","type":"Kreisangehörige_Gemeinde"},"district":{"key":"09474","name":"Forchheim","type":"Landkreis"},"federalState":{"key":"09","name":"Bayern"}},{"name":"Leitenweg","postalCode":"91336","locality":"Heroldsbach","municipality":{"key":"09474135","name":"Heroldsbach","type":"Kreisangehörige_Gemeinde"},"district":{"key":"09474","name":"Forchheim","type":"Landkreis"},"federalState":{"key":"09","name":"Bayern"}},{"name":"Lerchenstr.","postalCode":"90562","locality":"Heroldsberg","municipality":{"key":"09572131","name":"Heroldsberg, M","type":"Markt"},"district":{"key":"09572","name":"Erlangen-Höchstadt","type":"Landkreis"},"federalState":{"key":"09","name":"Bayern"}},{"name":"Ligusterweg","postalCode":"72535","locality":"Heroldstatt","municipality":{"key":"08425139","name":"Heroldstatt","type":"Kreisangehörige_Gemeinde"},"district":{"key":"08425","name":"Alb-Donau-Kreis","type":"Landkreis"},"federalState":{"key":"08","name":"Baden-Württemberg"}},{"name":"Lindenhof","postalCode":"72535","locality":"Heroldstatt","municipality":{"key":"08425139","name":"Heroldstatt","type":"Kreisangehörige_Gemeinde"},"district":{"key":"08425","name":"Alb-Donau-Kreis","type":"Landkreis"},"federalState":{"key":"08","name":"Baden-Württemberg"}},{"name":"Lindenstr.","postalCode":"72535","locality":"Heroldstatt","municipality":{"key":"08425139","name":"Heroldstatt","type":"Kreisangehörige_Gemeinde"},"district":{"key":"08425","name":"Alb-Donau-Kreis","type":"Landkreis"},"federalState":{"key":"08","name":"Baden-Württemberg"}},{"name":"Löffelholzweg","postalCode":"91336","locality":"Heroldsbach","municipality":{"key":"09474135","name":"Heroldsbach","type":"Kreisangehörige_Gemeinde"},"district":{"key":"09474","name":"Forchheim","type":"Landkreis"},"federalState":{"key":"09","name":"Bayern"}},{"name":"Martin-Behaim-Str.","postalCode":"90562","locality":"Heroldsberg","municipality":{"key":"09572131","name":"Heroldsberg, M","type":"Markt"},"district":{"key":"09572","name":"Erlangen-Höchstadt","type":"Landkreis"},"federalState":{"key":"09","name":"Bayern"}},{"name":"Maxenlohe","postalCode":"90562","locality":"Heroldsberg","municipality":{"key":"09572131","name":"Heroldsberg, M","type":"Markt"},"district":{"key":"09572","name":"Erlangen-Höchstadt","type":"Landkreis"},"federalState":{"key":"09","name":"Bayern"}},{"name":"Meisenweg","postalCode":"72535","locality":"Heroldstatt","municipality":{"key":"08425139","name":"Heroldstatt","type":"Kreisangehörige_Gemeinde"},"district":{"key":"08425","name":"Alb-Donau-Kreis","type":"Landkreis"},"federalState":{"key":"08","name":"Baden-Württemberg"}},{"name":"Meisenweg","postalCode":"90562","locality":"Heroldsberg","municipality":{"key":"09572131","name":"Heroldsberg, M","type":"Markt"},"district":{"key":"09572","name":"Erlangen-Höchstadt","type":"Landkreis"},"federalState":{"key":"09","name":"Bayern"}},{"name":"Mozartweg","postalCode":"72535","locality":"Heroldstatt","municipality":{"key":"08425139","name":"Heroldstatt","type":"Kreisangehörige_Gemeinde"},"district":{"key":"08425","name":"Alb-Donau-Kreis","type":"Landkreis"},"federalState":{"key":"08","name":"Baden-Württemberg"}},{"name":"Mühlstr.","postalCode":"90562","locality":"Heroldsberg","municipality":{"key":"09572131","name":"Heroldsberg, M","type":"Markt"},"district":{"key":"09572","name":"Erlangen-Höchstadt","type":"Landkreis"},"federalState":{"key":"09","name":"Bayern"}},{"name":"Mühlweg","postalCode":"56368","locality":"Herold","municipality":{"key":"07141054","name":"Herold","type":"Kreisangehörige_Gemeinde"},"district":{"key":"07141","name":"Rhein-Lahn-Kreis","type":"Landkreis"},"federalState":{"key":"07","name":"Rheinland-Pfalz"}},{"name":"Mühlweg","postalCode":"72535","locality":"Heroldstatt","municipality":{"key":"08425139","name":"Heroldstatt","type":"Kreisangehörige_Gemeinde"},"district":{"key":"08425","name":"Alb-Donau-Kreis","type":"Landkreis"},"federalState":{"key":"08","name":"Baden-Württemberg"}},{"name":"Münsinger Str.","postalCode":"72535","locality":"Heroldstatt","municipality":{"key":"08425139","name":"Heroldstatt","type":"Kreisangehörige_Gemeinde"},"district":{"key":"08425","name":"Alb-Donau-Kreis","type":"Landkreis"},"federalState":{"key":"08","name":"Baden-Württemberg"}},{"name":"Neubachweg","postalCode":"72535","locality":"Heroldstatt","municipality":{"key":"08425139","name":"Heroldstatt","type":"Kreisangehörige_Gemeinde"},"district":{"key":"08425","name":"Alb-Donau-Kreis","type":"Landkreis"},"federalState":{"key":"08","name":"Baden-Württemberg"}},{"name":"Neue Gasse","postalCode":"90562","locality":"Heroldsberg","municipality":{"key":"09572131","name":"Heroldsberg, M","type":"Markt"},"district":{"key":"09572","name":"Erlangen-Höchstadt","type":"Landkreis"},"federalState":{"key":"09","name":"Bayern"}},{"name":"Neuenkruger Weg","postalCode":"90562","locality":"Heroldsberg","municipality":{"key":"09572131","name":"Heroldsberg, M","type":"Markt"},"district":{"key":"09572","name":"Erlangen-Höchstadt","type":"Landkreis"},"federalState":{"key":"09","name":"Bayern"}},{"name":"Neue Siedlung","postalCode":"72535","locality":"Heroldstatt","municipality":{"key":"08425139","name":"Heroldstatt","type":"Kreisangehörige_Gemeinde"},"district":{"key":"08425","name":"Alb-Donau-Kreis","type":"Landkreis"},"federalState":{"key":"08","name":"Baden-Württemberg"}},{"name":"Neugasse","postalCode":"56368","locality":"Herold","municipality":{"key":"07141054","name":"Herold","type":"Kreisangehörige_Gemeinde"},"district":{"key":"07141","name":"Rhein-Lahn-Kreis","type":"Landkreis"},"federalState":{"key":"07","name":"Rheinland-Pfalz"}},{"name":"Nürnberger Str.","postalCode":"90562","locality":"Heroldsberg","municipality":{"key":"09572131","name":"Heroldsberg, M","type":"Markt"},"district":{"key":"09572","name":"Erlangen-Höchstadt","type":"Landkreis"},"federalState":{"key":"09","name":"Bayern"}},{"name":"Nuschelberger Weg","postalCode":"90562","locality":"Heroldsberg","municipality":{"key":"09572131","name":"Heroldsberg, M","type":"Markt"},"district":{"key":"09572","name":"Erlangen-Höchstadt","type":"Landkreis"},"federalState":{"key":"09","name":"Bayern"}},{"name":"Ober dem Rauhbucherhäule","postalCode":"72535","locality":"Heroldstatt","municipality":{"key":"08425139","name":"Heroldstatt","type":"Kreisangehörige_Gemeinde"},"district":{"key":"08425","name":"Alb-Donau-Kreis","type":"Landkreis"},"federalState":{"key":"08","name":"Baden-Württemberg"}},{"name":"Obere Bergstr.","postalCode":"90562","locality":"Heroldsberg","municipality":{"key":"09572131","name":"Heroldsberg, M","type":"Markt"},"district":{"key":"09572","name":"Erlangen-Höchstadt","type":"Landkreis"},"federalState":{"key":"09","name":"Bayern"}},{"name":"Oberer Markt","postalCode":"90562","locality":"Heroldsberg","municipality":{"key":"09572131","name":"Heroldsberg, M","type":"Markt"},"district":{"key":"09572","name":"Erlangen-Höchstadt","type":"Landkreis"},"federalState":{"key":"09","name":"Bayern"}},{"name":"Obere Seelach","postalCode":"90562","locality":"Heroldsberg","municipality":{"key":"09572131","name":"Heroldsberg, M","type":"Markt"},"district":{"key":"09572","name":"Erlangen-Höchstadt","type":"Landkreis"},"federalState":{"key":"09","name":"Bayern"}},{"name":"Oedenberger Weg","postalCode":"90562","locality":"Heroldsberg","municipality":{"key":"09572131","name":"Heroldsberg, M","type":"Markt"},"district":{"key":"09572","name":"Erlangen-Höchstadt","type":"Landkreis"},"federalState":{"key":"09","name":"Bayern"}},{"name":"Oesdorfer Str.","postalCode":"91336","locality":"Heroldsbach","municipality":{"key":"09474135","name":"Heroldsbach","type":"Kreisangehörige_Gemeinde"},"district":{"key":"09474","name":"Forchheim","type":"Landkreis"},"federalState":{"key":"09","name":"Bayern"}},{"name":"Oskar-Rosenfelder-Str.","postalCode":"90562","locality":"Heroldsberg","municipality":{"key":"09572131","name":"Heroldsberg, M","type":"Markt"},"district":{"key":"09572","name":"Erlangen-Höchstadt","type":"Landkreis"},"federalState":{"key":"09","name":"Bayern"}},{"name":"Panoramaweg","postalCode":"72535","locality":"Heroldstatt","municipality":{"key":"08425139","name":"Heroldstatt","type":"Kreisangehörige_Gemeinde"},"district":{"key":"08425","name":"Alb-Donau-Kreis","type":"Landkreis"},"federalState":{"key":"08","name":"Baden-Württemberg"}},{"name":"Park am alten Spritzenhaus","postalCode":"91336","locality":"Heroldsbach","municipality":{"key":"09474135","name":"Heroldsbach","type":"Kreisangehörige_Gemeinde"},"district":{"key":"09474","name":"Forchheim","type":"Landkreis"},"federalState":{"key":"09","name":"Bayern"}},{"name":"Parkstr.","postalCode":"91336","locality":"Heroldsbach","municipality":{"key":"09474135","name":"Heroldsbach","type":"Kreisangehörige_Gemeinde"},"district":{"key":"09474","name":"Forchheim","type":"Landkreis"},"federalState":{"key":"09","name":"Bayern"}},{"name":"Pater-Kentenich-Weg","postalCode":"72535","locality":"Heroldstatt","municipality":{"key":"08425139","name":"Heroldstatt","type":"Kreisangehörige_Gemeinde"},"district":{"key":"08425","name":"Alb-Donau-Kreis","type":"Landkreis"},"federalState":{"key":"08","name":"Baden-Württemberg"}},{"name":"Peter-Henlein-Str.","postalCode":"90562","locality":"Heroldsberg","municipality":{"key":"09572131","name":"Heroldsberg, M","type":"Markt"},"district":{"key":"09572","name":"Erlangen-Höchstadt","type":"Landkreis"},"federalState":{"key":"09","name":"Bayern"}},{"name":"Peter-Vischer-Weg","postalCode":"90562","locality":"Heroldsberg","municipality":{"key":"09572131","name":"Heroldsberg, M","type":"Markt"},"district":{"key":"09572","name":"Erlangen-Höchstadt","type":"Landkreis"},"federalState":{"key":"09","name":"Bayern"}},{"name":"Pfarrer-Bittner-Weg","postalCode":"91336","locality":"Heroldsbach","municipality":{"key":"09474135","name":"Heroldsbach","type":"Kreisangehörige_Gemeinde"},"district":{"key":"09474","name":"Forchheim","type":"Landkreis"},"federalState":{"key":"09","name":"Bayern"}},{"name":"Pfarrer-Dr.-Marquardt-Platz","postalCode":"91336","locality":"Heroldsbach","municipality":{"key":"09474135","name":"Heroldsbach","type":"Kreisangehörige_Gemeinde"},"district":{"key":"09474","name":"Forchheim","type":"Landkreis"},"federalState":{"key":"09","name":"Bayern"}},{"name":"Pfarrer-Gailer-Str.","postalCode":"91336","locality":"Heroldsbach","municipality":{"key":"09474135","name":"Heroldsbach","type":"Kreisangehörige_Gemeinde"},"district":{"key":"09474","name":"Forchheim","type":"Landkreis"},"federalState":{"key":"09","name":"Bayern"}},{"name":"Poppendorfer Str.","postalCode":"91336","locality":"Heroldsbach","municipality":{"key":"09474135","name":"Heroldsbach","type":"Kreisangehörige_Gemeinde"},"district":{"key":"09474","name":"Forchheim","type":"Landkreis"},"federalState":{"key":"09","name":"Bayern"}},{"name":"Postgäßchen","postalCode":"90562","locality":"Heroldsberg","municipality":{"key":"09572131","name":"Heroldsberg, M","type":"Markt"},"district":{"key":"09572","name":"Erlangen-Höchstadt","type":"Landkreis"},"federalState":{"key":"09","name":"Bayern"}},{"name":"Raiffeisenstr.","postalCode":"91336","locality":"Heroldsbach","municipality":{"key":"09474135","name":"Heroldsbach","type":"Kreisangehörige_Gemeinde"},"district":{"key":"09474","name":"Forchheim","type":"Landkreis"},"federalState":{"key":"09","name":"Bayern"}},{"name":"Reglitzstr.","postalCode":"91336","locality":"Heroldsbach","municipality":{"key":"09474135","name":"Heroldsbach","type":"Kreisangehörige_Gemeinde"},"district":{"key":"09474","name":"Forchheim","type":"Landkreis"},"federalState":{"key":"09","name":"Bayern"}},{"name":"Reichswaldstr.","postalCode":"90562","locality":"Heroldsberg","municipality":{"key":"09572131","name":"Heroldsberg, M","type":"Markt"},"district":{"key":"09572","name":"Erlangen-Höchstadt","type":"Landkreis"},"federalState":{"key":"09","name":"Bayern"}},{"name":"Reiterhof","postalCode":"72535","locality":"Heroldstatt","municipality":{"key":"08425139","name":"Heroldstatt","type":"Kreisangehörige_Gemeinde"},"district":{"key":"08425","name":"Alb-Donau-Kreis","type":"Landkreis"},"federalState":{"key":"08","name":"Baden-Württemberg"}},{"name":"Remontedepot","postalCode":"72535","locality":"Heroldstatt","municipality":{"key":"08425139","name":"Heroldstatt","type":"Kreisangehörige_Gemeinde"},"district":{"key":"08425","name":"Alb-Donau-Kreis","type":"Landkreis"},"federalState":{"key":"08","name":"Baden-Württemberg"}},{"name":"Rennweg","postalCode":"91336","locality":"Heroldsbach","municipality":{"key":"09474135","name":"Heroldsbach","type":"Kreisangehörige_Gemeinde"},"district":{"key":"09474","name":"Forchheim","type":"Landkreis"},"federalState":{"key":"09","name":"Bayern"}},{"name":"Reuendorfer Weg","postalCode":"91336","locality":"Heroldsbach","municipality":{"key":"09474135","name":"Heroldsbach","type":"Kreisangehörige_Gemeinde"},"district":{"key":"09474","name":"Forchheim","type":"Landkreis"},"federalState":{"key":"09","name":"Bayern"}},{"name":"Ringstr.","postalCode":"72535","locality":"Heroldstatt","municipality":{"key":"08425139","name":"Heroldstatt","type":"Kreisangehörige_Gemeinde"},"district":{"key":"08425","name":"Alb-Donau-Kreis","type":"Landkreis"},"federalState":{"key":"08","name":"Baden-Württemberg"}},{"name":"Ringstr.","postalCode":"91336","locality":"Heroldsbach","municipality":{"key":"09474135","name":"Heroldsbach","type":"Kreisangehörige_Gemeinde"},"district":{"key":"09474","name":"Forchheim","type":"Landkreis"},"federalState":{"key":"09","name":"Bayern"}},{"name":"Rosenweg","postalCode":"90562","locality":"Heroldsberg","municipality":{"key":"09572131","name":"Heroldsberg, M","type":"Markt"},"district":{"key":"09572","name":"Erlangen-Höchstadt","type":"Landkreis"},"federalState":{"key":"09","name":"Bayern"}},{"name":"Röthenbacher Str.","postalCode":"90562","locality":"Heroldsberg","municipality":{"key":"09572131","name":"Heroldsberg, M","type":"Markt"},"district":{"key":"09572","name":"Erlangen-Höchstadt","type":"Landkreis"},"federalState":{"key":"09","name":"Bayern"}},{"name":"Rückersdorfer Str.","postalCode":"90562","locality":"Heroldsberg","municipality":{"key":"09572131","name":"Heroldsberg, M","type":"Markt"},"district":{"key":"09572","name":"Erlangen-Höchstadt","type":"Landkreis"},"federalState":{"key":"09","name":"Bayern"}},{"name":"Ruckswegla","postalCode":"91336","locality":"Heroldsbach","municipality":{"key":"09474135","name":"Heroldsbach","type":"Kreisangehörige_Gemeinde"},"district":{"key":"09474","name":"Forchheim","type":"Landkreis"},"federalState":{"key":"09","name":"Bayern"}},{"name":"Rudolf-Schiestl-Str.","postalCode":"90562","locality":"Heroldsberg","municipality":{"key":"09572131","name":"Heroldsberg, M","type":"Markt"},"district":{"key":"09572","name":"Erlangen-Höchstadt","type":"Landkreis"},"federalState":{"key":"09","name":"Bayern"}},{"name":"Sackweg","postalCode":"90562","locality":"Heroldsberg","municipality":{"key":"09572131","name":"Heroldsberg, M","type":"Markt"},"district":{"key":"09572","name":"Erlangen-Höchstadt","type":"Landkreis"},"federalState":{"key":"09","name":"Bayern"}},{"name":"Sandäcker","postalCode":"91336","locality":"Heroldsbach","municipality":{"key":"09474135","name":"Heroldsbach","type":"Kreisangehörige_Gemeinde"},"district":{"key":"09474","name":"Forchheim","type":"Landkreis"},"federalState":{"key":"09","name":"Bayern"}},{"name":"Saranskstr.","postalCode":"90562","locality":"Heroldsberg","municipality":{"key":"09572131","name":"Heroldsberg, M","type":"Markt"},"district":{"key":"09572","name":"Erlangen-Höchstadt","type":"Landkreis"},"federalState":{"key":"09","name":"Bayern"}},{"name":"Schießwinkel","postalCode":"72535","locality":"Heroldstatt","municipality":{"key":"08425139","name":"Heroldstatt","type":"Kreisangehörige_Gemeinde"},"district":{"key":"08425","name":"Alb-Donau-Kreis","type":"Landkreis"},"federalState":{"key":"08","name":"Baden-Württemberg"}},{"name":"Schillerstr.","postalCode":"72535","locality":"Heroldstatt","municipality":{"key":"08425139","name":"Heroldstatt","type":"Kreisangehörige_Gemeinde"},"district":{"key":"08425","name":"Alb-Donau-Kreis","type":"Landkreis"},"federalState":{"key":"08","name":"Baden-Württemberg"}},{"name":"Schillerweg","postalCode":"91336","locality":"Heroldsbach","municipality":{"key":"09474135","name":"Heroldsbach","type":"Kreisangehörige_Gemeinde"},"district":{"key":"09474","name":"Forchheim","type":"Landkreis"},"federalState":{"key":"09","name":"Bayern"}},{"name":"Schimmelleitenweg","postalCode":"90562","locality":"Heroldsberg","municipality":{"key":"09572131","name":"Heroldsberg, M","type":"Markt"},"district":{"key":"09572","name":"Erlangen-Höchstadt","type":"Landkreis"},"federalState":{"key":"09","name":"Bayern"}},{"name":"Schlehenweg","postalCode":"72535","locality":"Heroldstatt","municipality":{"key":"08425139","name":"Heroldstatt","type":"Kreisangehörige_Gemeinde"},"district":{"key":"08425","name":"Alb-Donau-Kreis","type":"Landkreis"},"federalState":{"key":"08","name":"Baden-Württemberg"}},{"name":"Schlenkgasse","postalCode":"72535","locality":"Heroldstatt","municipality":{"key":"08425139","name":"Heroldstatt","type":"Kreisangehörige_Gemeinde"},"district":{"key":"08425","name":"Alb-Donau-Kreis","type":"Landkreis"},"federalState":{"key":"08","name":"Baden-Württemberg"}},{"name":"Schlesierstr.","postalCode":"90562","locality":"Heroldsberg","municipality":{"key":"09572131","name":"Heroldsberg, M","type":"Markt"},"district":{"key":"09572","name":"Erlangen-Höchstadt","type":"Landkreis"},"federalState":{"key":"09","name":"Bayern"}},{"name":"Schlosshof","postalCode":"90562","locality":"Heroldsberg","municipality":{"key":"09572131","name":"Heroldsberg, M","type":"Markt"},"district":{"key":"09572","name":"Erlangen-Höchstadt","type":"Landkreis"},"federalState":{"key":"09","name":"Bayern"}},{"name":"Schloßplatz","postalCode":"91336","locality":"Heroldsbach","municipality":{"key":"09474135","name":"Heroldsbach","type":"Kreisangehörige_Gemeinde"},"district":{"key":"09474","name":"Forchheim","type":"Landkreis"},"federalState":{"key":"09","name":"Bayern"}},{"name":"Schloßstr.","postalCode":"91336","locality":"Heroldsbach","municipality":{"key":"09474135","name":"Heroldsbach","type":"Kreisangehörige_Gemeinde"},"district":{"key":"09474","name":"Forchheim","type":"Landkreis"},"federalState":{"key":"09","name":"Bayern"}},{"name":"Schlotfegergasse","postalCode":"90562","locality":"Heroldsberg","municipality":{"key":"09572131","name":"Heroldsberg, M","type":"Markt"},"district":{"key":"09572","name":"Erlangen-Höchstadt","type":"Landkreis"},"federalState":{"key":"09","name":"Bayern"}},{"name":"Schnaittacher Str.","postalCode":"90562","locality":"Heroldsberg","municipality":{"key":"09572131","name":"Heroldsberg, M","type":"Markt"},"district":{"key":"09572","name":"Erlangen-Höchstadt","type":"Landkreis"},"federalState":{"key":"09","name":"Bayern"}},{"name":"Schubertstr.","postalCode":"72535","locality":"Heroldstatt","municipality":{"key":"08425139","name":"Heroldstatt","type":"Kreisangehörige_Gemeinde"},"district":{"key":"08425","name":"Alb-Donau-Kreis","type":"Landkreis"},"federalState":{"key":"08","name":"Baden-Württemberg"}},{"name":"Schulstr.","postalCode":"72535","locality":"Heroldstatt","municipality":{"key":"08425139","name":"Heroldstatt","type":"Kreisangehörige_Gemeinde"},"district":{"key":"08425","name":"Alb-Donau-Kreis","type":"Landkreis"},"federalState":{"key":"08","name":"Baden-Württemberg"}},{"name":"Schulstr.","postalCode":"91336","locality":"Heroldsbach","municipality":{"key":"09474135","name":"Heroldsbach","type":"Kreisangehörige_Gemeinde"},"district":{"key":"09474","name":"Forchheim","type":"Landkreis"},"federalState":{"key":"09","name":"Bayern"}},{"name":"Schumannweg","postalCode":"72535","locality":"Heroldstatt","municipality":{"key":"08425139","name":"Heroldstatt","type":"Kreisangehörige_Gemeinde"},"district":{"key":"08425","name":"Alb-Donau-Kreis","type":"Landkreis"},"federalState":{"key":"08","name":"Baden-Württemberg"}},{"name":"Schustergasse","postalCode":"90562","locality":"Heroldsberg","municipality":{"key":"09572131","name":"Heroldsberg, M","type":"Markt"},"district":{"key":"09572","name":"Erlangen-Höchstadt","type":"Landkreis"},"federalState":{"key":"09","name":"Bayern"}},{"name":"Schützenstr.","postalCode":"90562","locality":"Heroldsberg","municipality":{"key":"09572131","name":"Heroldsberg, M","type":"Markt"},"district":{"key":"09572","name":"Erlangen-Höchstadt","type":"Landkreis"},"federalState":{"key":"09","name":"Bayern"}},{"name":"Schwabenstr.","postalCode":"72535","locality":"Heroldstatt","municipality":{"key":"08425139","name":"Heroldstatt","type":"Kreisangehörige_Gemeinde"},"district":{"key":"08425","name":"Alb-Donau-Kreis","type":"Landkreis"},"federalState":{"key":"08","name":"Baden-Württemberg"}},{"name":"Schwalbenweg","postalCode":"90562","locality":"Heroldsberg","municipality":{"key":"09572131","name":"Heroldsberg, M","type":"Markt"},"district":{"key":"09572","name":"Erlangen-Höchstadt","type":"Landkreis"},"federalState":{"key":"09","name":"Bayern"}},{"name":"Schwanweg","postalCode":"90562","locality":"Heroldsberg","municipality":{"key":"09572131","name":"Heroldsberg, M","type":"Markt"},"district":{"key":"09572","name":"Erlangen-Höchstadt","type":"Landkreis"},"federalState":{"key":"09","name":"Bayern"}},{"name":"Sebastian-Lindenast-Str.","postalCode":"90562","locality":"Heroldsberg","municipality":{"key":"09572131","name":"Heroldsberg, M","type":"Markt"},"district":{"key":"09572","name":"Erlangen-Höchstadt","type":"Landkreis"},"federalState":{"key":"09","name":"Bayern"}},{"name":"Seelachweg","postalCode":"90562","locality":"Heroldsberg","municipality":{"key":"09572131","name":"Heroldsberg, M","type":"Markt"},"district":{"key":"09572","name":"Erlangen-Höchstadt","type":"Landkreis"},"federalState":{"key":"09","name":"Bayern"}},{"name":"Siedlerstr.","postalCode":"91336","locality":"Heroldsbach","municipality":{"key":"09474135","name":"Heroldsbach","type":"Kreisangehörige_Gemeinde"},"district":{"key":"09474","name":"Forchheim","type":"Landkreis"},"federalState":{"key":"09","name":"Bayern"}},{"name":"Siemensstr.","postalCode":"72535","locality":"Heroldstatt","municipality":{"key":"08425139","name":"Heroldstatt","type":"Kreisangehörige_Gemeinde"},"district":{"key":"08425","name":"Alb-Donau-Kreis","type":"Landkreis"},"federalState":{"key":"08","name":"Baden-Württemberg"}},{"name":"Silberdistelweg","postalCode":"72535","locality":"Heroldstatt","municipality":{"key":"08425139","name":"Heroldstatt","type":"Kreisangehörige_Gemeinde"},"district":{"key":"08425","name":"Alb-Donau-Kreis","type":"Landkreis"},"federalState":{"key":"08","name":"Baden-Württemberg"}},{"name":"Silcherweg","postalCode":"72535","locality":"Heroldstatt","municipality":{"key":"08425139","name":"Heroldstatt","type":"Kreisangehörige_Gemeinde"},"district":{"key":"08425","name":"Alb-Donau-Kreis","type":"Landkreis"},"federalState":{"key":"08","name":"Baden-Württemberg"}},{"name":"Simmelberger Weg","postalCode":"90562","locality":"Heroldsberg","municipality":{"key":"09572131","name":"Heroldsberg, M","type":"Markt"},"district":{"key":"09572","name":"Erlangen-Höchstadt","type":"Landkreis"},"federalState":{"key":"09","name":"Bayern"}},{"name":"Sonnenleite","postalCode":"91336","locality":"Heroldsbach","municipality":{"key":"09474135","name":"Heroldsbach","type":"Kreisangehörige_Gemeinde"},"district":{"key":"09474","name":"Forchheim","type":"Landkreis"},"federalState":{"key":"09","name":"Bayern"}},{"name":"Sonnenweg","postalCode":"72535","locality":"Heroldstatt","municipality":{"key":"08425139","name":"Heroldstatt","type":"Kreisangehörige_Gemeinde"},"district":{"key":"08425","name":"Alb-Donau-Kreis","type":"Landkreis"},"federalState":{"key":"08","name":"Baden-Württemberg"}},{"name":"Sophienhöhe","postalCode":"90562","locality":"Heroldsberg","municipality":{"key":"09572131","name":"Heroldsberg, M","type":"Markt"},"district":{"key":"09572","name":"Erlangen-Höchstadt","type":"Landkreis"},"federalState":{"key":"09","name":"Bayern"}},{"name":"Spechtweg","postalCode":"90562","locality":"Heroldsberg","municipality":{"key":"09572131","name":"Heroldsberg, M","type":"Markt"},"district":{"key":"09572","name":"Erlangen-Höchstadt","type":"Landkreis"},"federalState":{"key":"09","name":"Bayern"}},{"name":"Spindäckerstr.","postalCode":"90562","locality":"Heroldsberg","municipality":{"key":"09572131","name":"Heroldsberg, M","type":"Markt"},"district":{"key":"09572","name":"Erlangen-Höchstadt","type":"Landkreis"},"federalState":{"key":"09","name":"Bayern"}},{"name":"Sportplatzstr.","postalCode":"91336","locality":"Heroldsbach","municipality":{"key":"09474135","name":"Heroldsbach","type":"Kreisangehörige_Gemeinde"},"district":{"key":"09474","name":"Forchheim","type":"Landkreis"},"federalState":{"key":"09","name":"Bayern"}},{"name":"Sportplatzweg","postalCode":"90562","locality":"Heroldsberg","municipality":{"key":"09572131","name":"Heroldsberg, M","type":"Markt"},"district":{"key":"09572","name":"Erlangen-Höchstadt","type":"Landkreis"},"federalState":{"key":"09","name":"Bayern"}},{"name":"Starenweg","postalCode":"72535","locality":"Heroldstatt","municipality":{"key":"08425139","name":"Heroldstatt","type":"Kreisangehörige_Gemeinde"},"district":{"key":"08425","name":"Alb-Donau-Kreis","type":"Landkreis"},"federalState":{"key":"08","name":"Baden-Württemberg"}},{"name":"Steigle","postalCode":"72535","locality":"Heroldstatt","municipality":{"key":"08425139","name":"Heroldstatt","type":"Kreisangehörige_Gemeinde"},"district":{"key":"08425","name":"Alb-Donau-Kreis","type":"Landkreis"},"federalState":{"key":"08","name":"Baden-Württemberg"}},{"name":"Steigweg","postalCode":"91336","locality":"Heroldsbach","municipality":{"key":"09474135","name":"Heroldsbach","type":"Kreisangehörige_Gemeinde"},"district":{"key":"09474","name":"Forchheim","type":"Landkreis"},"federalState":{"key":"09","name":"Bayern"}},{"name":"Steinge","postalCode":"72535","locality":"Heroldstatt","municipality":{"key":"08425139","name":"Heroldstatt","type":"Kreisangehörige_Gemeinde"},"district":{"key":"08425","name":"Alb-Donau-Kreis","type":"Landkreis"},"federalState":{"key":"08","name":"Baden-Württemberg"}},{"name":"Steinstetter Str.","postalCode":"72535","locality":"Heroldstatt","municipality":{"key":"08425139","name":"Heroldstatt","type":"Kreisangehörige_Gemeinde"},"district":{"key":"08425","name":"Alb-Donau-Kreis","type":"Landkreis"},"federalState":{"key":"08","name":"Baden-Württemberg"}},{"name":"Stettenberger Weg","postalCode":"90562","locality":"Heroldsberg","municipality":{"key":"09572131","name":"Heroldsberg, M","type":"Markt"},"district":{"key":"09572","name":"Erlangen-Höchstadt","type":"Landkreis"},"federalState":{"key":"09","name":"Bayern"}},{"name":"St.-Georgen-Str.","postalCode":"91336","locality":"Heroldsbach","municipality":{"key":"09474135","name":"Heroldsbach","type":"Kreisangehörige_Gemeinde"},"district":{"key":"09474","name":"Forchheim","type":"Landkreis"},"federalState":{"key":"09","name":"Bayern"}},{"name":"Stiegelweg","postalCode":"91336","locality":"Heroldsbach","municipality":{"key":"09474135","name":"Heroldsbach","type":"Kreisangehörige_Gemeinde"},"district":{"key":"09474","name":"Forchheim","type":"Landkreis"},"federalState":{"key":"09","name":"Bayern"}},{"name":"Stieglitzweg","postalCode":"90562","locality":"Heroldsberg","municipality":{"key":"09572131","name":"Heroldsberg, M","type":"Markt"},"district":{"key":"09572","name":"Erlangen-Höchstadt","type":"Landkreis"},"federalState":{"key":"09","name":"Bayern"}},{"name":"St.-Michael-Str.","postalCode":"91336","locality":"Heroldsbach","municipality":{"key":"09474135","name":"Heroldsbach","type":"Kreisangehörige_Gemeinde"},"district":{"key":"09474","name":"Forchheim","type":"Landkreis"},"federalState":{"key":"09","name":"Bayern"}},{"name":"St.-Sebastian-Str.","postalCode":"91336","locality":"Heroldsbach","municipality":{"key":"09474135","name":"Heroldsbach","type":"Kreisangehörige_Gemeinde"},"district":{"key":"09474","name":"Forchheim","type":"Landkreis"},"federalState":{"key":"09","name":"Bayern"}},{"name":"Sturmfederring","postalCode":"91336","locality":"Heroldsbach","municipality":{"key":"09474135","name":"Heroldsbach","type":"Kreisangehörige_Gemeinde"},"district":{"key":"09474","name":"Forchheim","type":"Landkreis"},"federalState":{"key":"09","name":"Bayern"}},{"name":"Taiostr.","postalCode":"90562","locality":"Heroldsberg","municipality":{"key":"09572131","name":"Heroldsberg, M","type":"Markt"},"district":{"key":"09572","name":"Erlangen-Höchstadt","type":"Landkreis"},"federalState":{"key":"09","name":"Bayern"}},{"name":"Tannenweg","postalCode":"72535","locality":"Heroldstatt","municipality":{"key":"08425139","name":"Heroldstatt","type":"Kreisangehörige_Gemeinde"},"district":{"key":"08425","name":"Alb-Donau-Kreis","type":"Landkreis"},"federalState":{"key":"08","name":"Baden-Württemberg"}},{"name":"Tannenweg","postalCode":"91336","locality":"Heroldsbach","municipality":{"key":"09474135","name":"Heroldsbach","type":"Kreisangehörige_Gemeinde"},"district":{"key":"09474","name":"Forchheim","type":"Landkreis"},"federalState":{"key":"09","name":"Bayern"}},{"name":"Taubergweg","postalCode":"72535","locality":"Heroldstatt","municipality":{"key":"08425139","name":"Heroldstatt","type":"Kreisangehörige_Gemeinde"},"district":{"key":"08425","name":"Alb-Donau-Kreis","type":"Landkreis"},"federalState":{"key":"08","name":"Baden-Württemberg"}},{"name":"Thomas-Flad-Weg","postalCode":"90562","locality":"Heroldsberg","municipality":{"key":"09572131","name":"Heroldsberg, M","type":"Markt"},"district":{"key":"09572","name":"Erlangen-Höchstadt","type":"Landkreis"},"federalState":{"key":"09","name":"Bayern"}},{"name":"Thurner Str.","postalCode":"91336","locality":"Heroldsbach","municipality":{"key":"09474135","name":"Heroldsbach","type":"Kreisangehörige_Gemeinde"},"district":{"key":"09474","name":"Forchheim","type":"Landkreis"},"federalState":{"key":"09","name":"Bayern"}},{"name":"Tiefentalweg","postalCode":"72535","locality":"Heroldstatt","municipality":{"key":"08425139","name":"Heroldstatt","type":"Kreisangehörige_Gemeinde"},"district":{"key":"08425","name":"Alb-Donau-Kreis","type":"Landkreis"},"federalState":{"key":"08","name":"Baden-Württemberg"}},{"name":"Tilman-Riemenschneider-Str.","postalCode":"90562","locality":"Heroldsberg","municipality":{"key":"09572131","name":"Heroldsberg, M","type":"Markt"},"district":{"key":"09572","name":"Erlangen-Höchstadt","type":"Landkreis"},"federalState":{"key":"09","name":"Bayern"}},{"name":"Tucherstr.","postalCode":"90562","locality":"Heroldsberg","municipality":{"key":"09572131","name":"Heroldsberg, M","type":"Markt"},"district":{"key":"09572","name":"Erlangen-Höchstadt","type":"Landkreis"},"federalState":{"key":"09","name":"Bayern"}},{"name":"Tulpenweg","postalCode":"90562","locality":"Heroldsberg","municipality":{"key":"09572131","name":"Heroldsberg, M","type":"Markt"},"district":{"key":"09572","name":"Erlangen-Höchstadt","type":"Landkreis"},"federalState":{"key":"09","name":"Bayern"}},{"name":"Uhlandstr.","postalCode":"72535","locality":"Heroldstatt","municipality":{"key":"08425139","name":"Heroldstatt","type":"Kreisangehörige_Gemeinde"},"district":{"key":"08425","name":"Alb-Donau-Kreis","type":"Landkreis"},"federalState":{"key":"08","name":"Baden-Württemberg"}},{"name":"Ulmenweg","postalCode":"72535","locality":"Heroldstatt","municipality":{"key":"08425139","name":"Heroldstatt","type":"Kreisangehörige_Gemeinde"},"district":{"key":"08425","name":"Alb-Donau-Kreis","type":"Landkreis"},"federalState":{"key":"08","name":"Baden-Württemberg"}},{"name":"Ulmer Str.","postalCode":"72535","locality":"Heroldstatt","municipality":{"key":"08425139","name":"Heroldstatt","type":"Kreisangehörige_Gemeinde"},"district":{"key":"08425","name":"Alb-Donau-Kreis","type":"Landkreis"},"federalState":{"key":"08","name":"Baden-Württemberg"}},{"name":"Untere Bergstr.","postalCode":"90562","locality":"Heroldsberg","municipality":{"key":"09572131","name":"Heroldsberg, M","type":"Markt"},"district":{"key":"09572","name":"Erlangen-Höchstadt","type":"Landkreis"},"federalState":{"key":"09","name":"Bayern"}},{"name":"Untere Gasse","postalCode":"72535","locality":"Heroldstatt","municipality":{"key":"08425139","name":"Heroldstatt","type":"Kreisangehörige_Gemeinde"},"district":{"key":"08425","name":"Alb-Donau-Kreis","type":"Landkreis"},"federalState":{"key":"08","name":"Baden-Württemberg"}},{"name":"Untere Hauptstr.","postalCode":"91336","locality":"Heroldsbach","municipality":{"key":"09474135","name":"Heroldsbach","type":"Kreisangehörige_Gemeinde"},"district":{"key":"09474","name":"Forchheim","type":"Landkreis"},"federalState":{"key":"09","name":"Bayern"}},{"name":"Untere Seelach","postalCode":"90562","locality":"Heroldsberg","municipality":{"key":"09572131","name":"Heroldsberg, M","type":"Markt"},"district":{"key":"09572","name":"Erlangen-Höchstadt","type":"Landkreis"},"federalState":{"key":"09","name":"Bayern"}},{"name":"Veit-Stoß-Weg","postalCode":"90562","locality":"Heroldsberg","municipality":{"key":"09572131","name":"Heroldsberg, M","type":"Markt"},"district":{"key":"09572","name":"Erlangen-Höchstadt","type":"Landkreis"},"federalState":{"key":"09","name":"Bayern"}},{"name":"Vollandsgässchen","postalCode":"90562","locality":"Heroldsberg","municipality":{"key":"09572131","name":"Heroldsberg, M","type":"Markt"},"district":{"key":"09572","name":"Erlangen-Höchstadt","type":"Landkreis"},"federalState":{"key":"09","name":"Bayern"}},{"name":"Von-Bünau-Str.","postalCode":"91336","locality":"Heroldsbach","municipality":{"key":"09474135","name":"Heroldsbach","type":"Kreisangehörige_Gemeinde"},"district":{"key":"09474","name":"Forchheim","type":"Landkreis"},"federalState":{"key":"09","name":"Bayern"}},{"name":"von-Geuder-Str.","postalCode":"90562","locality":"Heroldsberg","municipality":{"key":"09572131","name":"Heroldsberg, M","type":"Markt"},"district":{"key":"09572","name":"Erlangen-Höchstadt","type":"Landkreis"},"federalState":{"key":"09","name":"Bayern"}},{"name":"Wacholderweg","postalCode":"72535","locality":"Heroldstatt","municipality":{"key":"08425139","name":"Heroldstatt","type":"Kreisangehörige_Gemeinde"},"district":{"key":"08425","name":"Alb-Donau-Kreis","type":"Landkreis"},"federalState":{"key":"08","name":"Baden-Württemberg"}},{"name":"Wagnerstr.","postalCode":"72535","locality":"Heroldstatt","municipality":{"key":"08425139","name":"Heroldstatt","type":"Kreisangehörige_Gemeinde"},"district":{"key":"08425","name":"Alb-Donau-Kreis","type":"Landkreis"},"federalState":{"key":"08","name":"Baden-Württemberg"}},{"name":"Waldstetter Weg","postalCode":"72535","locality":"Heroldstatt","municipality":{"key":"08425139","name":"Heroldstatt","type":"Kreisangehörige_Gemeinde"},"district":{"key":"08425","name":"Alb-Donau-Kreis","type":"Landkreis"},"federalState":{"key":"08","name":"Baden-Württemberg"}},{"name":"Waldstr.","postalCode":"91336","locality":"Heroldsbach","municipality":{"key":"09474135","name":"Heroldsbach","type":"Kreisangehörige_Gemeinde"},"district":{"key":"09474","name":"Forchheim","type":"Landkreis"},"federalState":{"key":"09","name":"Bayern"}},{"name":"Wasserstein","postalCode":"72535","locality":"Heroldstatt","municipality":{"key":"08425139","name":"Heroldstatt","type":"Kreisangehörige_Gemeinde"},"district":{"key":"08425","name":"Alb-Donau-Kreis","type":"Landkreis"},"federalState":{"key":"08","name":"Baden-Württemberg"}},{"name":"Weberstr.","postalCode":"72535","locality":"Heroldstatt","municipality":{"key":"08425139","name":"Heroldstatt","type":"Kreisangehörige_Gemeinde"},"district":{"key":"08425","name":"Alb-Donau-Kreis","type":"Landkreis"},"federalState":{"key":"08","name":"Baden-Württemberg"}},{"name":"Weidenstr.","postalCode":"72535","locality":"Heroldstatt","municipality":{"key":"08425139","name":"Heroldstatt","type":"Kreisangehörige_Gemeinde"},"district":{"key":"08425","name":"Alb-Donau-Kreis","type":"Landkreis"},"federalState":{"key":"08","name":"Baden-Württemberg"}},{"name":"Weinbergstr.","postalCode":"91336","locality":"Heroldsbach","municipality":{"key":"09474135","name":"Heroldsbach","type":"Kreisangehörige_Gemeinde"},"district":{"key":"09474","name":"Forchheim","type":"Landkreis"},"federalState":{"key":"09","name":"Bayern"}},{"name":"Weinmayrsbergstr.","postalCode":"90562","locality":"Heroldsberg","municipality":{"key":"09572131","name":"Heroldsberg, M","type":"Markt"},"district":{"key":"09572","name":"Erlangen-Höchstadt","type":"Landkreis"},"federalState":{"key":"09","name":"Bayern"}},{"name":"Weißdornweg","postalCode":"72535","locality":"Heroldstatt","municipality":{"key":"08425139","name":"Heroldstatt","type":"Kreisangehörige_Gemeinde"},"district":{"key":"08425","name":"Alb-Donau-Kreis","type":"Landkreis"},"federalState":{"key":"08","name":"Baden-Württemberg"}},{"name":"Welserstr.","postalCode":"90562","locality":"Heroldsberg","municipality":{"key":"09572131","name":"Heroldsberg, M","type":"Markt"},"district":{"key":"09572","name":"Erlangen-Höchstadt","type":"Landkreis"},"federalState":{"key":"09","name":"Bayern"}},{"name":"Wiesenstr.","postalCode":"72535","locality":"Heroldstatt","municipality":{"key":"08425139","name":"Heroldstatt","type":"Kreisangehörige_Gemeinde"},"district":{"key":"08425","name":"Alb-Donau-Kreis","type":"Landkreis"},"federalState":{"key":"08","name":"Baden-Württemberg"}},{"name":"Wiesenweg","postalCode":"90562","locality":"Heroldsberg","municipality":{"key":"09572131","name":"Heroldsberg, M","type":"Markt"},"district":{"key":"09572","name":"Erlangen-Höchstadt","type":"Landkreis"},"federalState":{"key":"09","name":"Bayern"}},{"name":"Willersdorfer Str.","postalCode":"91336","locality":"Heroldsbach","municipality":{"key":"09474135","name":"Heroldsbach","type":"Kreisangehörige_Gemeinde"},"district":{"key":"09474","name":"Forchheim","type":"Landkreis"},"federalState":{"key":"09","name":"Bayern"}},{"name":"Willibald-Pirckheimer-Str.","postalCode":"90562","locality":"Heroldsberg","municipality":{"key":"09572131","name":"Heroldsberg, M","type":"Markt"},"district":{"key":"09572","name":"Erlangen-Höchstadt","type":"Landkreis"},"federalState":{"key":"09","name":"Bayern"}},{"name":"Wimmelbacher Str.","postalCode":"91336","locality":"Heroldsbach","municipality":{"key":"09474135","name":"Heroldsbach","type":"Kreisangehörige_Gemeinde"},"district":{"key":"09474","name":"Forchheim","type":"Landkreis"},"federalState":{"key":"09","name":"Bayern"}},{"name":"Wolgemutstr.","postalCode":"90562","locality":"Heroldsberg","municipality":{"key":"09572131","name":"Heroldsberg, M","type":"Markt"},"district":{"key":"09572","name":"Erlangen-Höchstadt","type":"Landkreis"},"federalState":{"key":"09","name":"Bayern"}},{"name":"Wörthstr.","postalCode":"72535","locality":"Heroldstatt","municipality":{"key":"08425139","name":"Heroldstatt","type":"Kreisangehörige_Gemeinde"},"district":{"key":"08425","name":"Alb-Donau-Kreis","type":"Landkreis"},"federalState":{"key":"08","name":"Baden-Württemberg"}},{"name":"Zeisigweg","postalCode":"90562","locality":"Heroldsberg","municipality":{"key":"09572131","name":"Heroldsberg, M","type":"Markt"},"district":{"key":"09572","name":"Erlangen-Höchstadt","type":"Landkreis"},"federalState":{"key":"09","name":"Bayern"}},{"name":"Zeppelinstrasße","postalCode":"72535","locality":"Heroldstatt","municipality":{"key":"08425139","name":"Heroldstatt","type":"Kreisangehörige_Gemeinde"},"district":{"key":"08425","name":"Alb-Donau-Kreis","type":"Landkreis"},"federalState":{"key":"08","name":"Baden-Württemberg"}},{"name":"Ziegelweg","postalCode":"90562","locality":"Heroldsberg","municipality":{"key":"09572131","name":"Heroldsberg, M","type":"Markt"},"district":{"key":"09572","name":"Erlangen-Höchstadt","type":"Landkreis"},"federalState":{"key":"09","name":"Bayern"}},{"name":"Zum Bären","postalCode":"90562","locality":"Heroldsberg","municipality":{"key":"09572131","name":"Heroldsberg, M","type":"Markt"},"district":{"key":"09572","name":"Erlangen-Höchstadt","type":"Landkreis"},"federalState":{"key":"09","name":"Bayern"}},{"name":"Zum Blech","postalCode":"90562","locality":"Heroldsberg","municipality":{"key":"09572131","name":"Heroldsberg, M","type":"Markt"},"district":{"key":"09572","name":"Erlangen-Höchstadt","type":"Landkreis"},"federalState":{"key":"09","name":"Bayern"}},{"name":"Zum Fuchsengraben","postalCode":"91336","locality":"Heroldsbach","municipality":{"key":"09474135","name":"Heroldsbach","type":"Kreisangehörige_Gemeinde"},"district":{"key":"09474","name":"Forchheim","type":"Landkreis"},"federalState":{"key":"09","name":"Bayern"}},{"name":"Zur Eckenau","postalCode":"91336","locality":"Heroldsbach","municipality":{"key":"09474135","name":"Heroldsbach","type":"Kreisangehörige_Gemeinde"},"district":{"key":"09474","name":"Forchheim","type":"Landkreis"},"federalState":{"key":"09","name":"Bayern"}},]