[{"name":"Ahornweg","postalCode":"72820","locality":"Sonnenbühl","municipality":{"key":"08415091","name":"Sonnenbühl","type":"Kreisangehörige_Gemeinde"},"district":{"key":"08415","name":"Reutlingen","type":"Landkreis"},"federalState":{"key":"08","name":"Baden-Württemberg"}},{"name":"Albstr.","postalCode":"72820","locality":"Sonnenbühl","municipality":{"key":"08415091","name":"Sonnenbühl","type":"Kreisangehörige_Gemeinde"},"district":{"key":"08415","name":"Reutlingen","type":"Landkreis"},"federalState":{"key":"08","name":"Baden-Württemberg"}},{"name":"Alemannenstr.","postalCode":"72820","locality":"Sonnenbühl","municipality":{"key":"08415091","name":"Sonnenbühl","type":"Kreisangehörige_Gemeinde"},"district":{"key":"08415","name":"Reutlingen","type":"Landkreis"},"federalState":{"key":"08","name":"Baden-Württemberg"}},{"name":"Alleestr.","postalCode":"37345","locality":"Sonnenstein","municipality":{"key":"16061117","name":"Sonnenstein","type":"Kreisangehörige_Gemeinde"},"district":{"key":"16061","name":"Eichsfeld","type":"Landkreis"},"federalState":{"key":"16","name":"Thüringen"}},{"name":"Alte Bahn Bleicherode-Herzberg","postalCode":"37345","locality":"Sonnenstein","municipality":{"key":"16061117","name":"Sonnenstein","type":"Kreisangehörige_Gemeinde"},"district":{"key":"16061","name":"Eichsfeld","type":"Landkreis"},"federalState":{"key":"16","name":"Thüringen"}},{"name":"Alte Bahn Bleicherode-Herzberg Tunnel","postalCode":"37345","locality":"Sonnenstein","municipality":{"key":"16061117","name":"Sonnenstein","type":"Kreisangehörige_Gemeinde"},"district":{"key":"16061","name":"Eichsfeld","type":"Landkreis"},"federalState":{"key":"16","name":"Thüringen"}},{"name":"alte Bahnstrecke","postalCode":"16775","locality":"Sonnenberg","municipality":{"key":"12065301","name":"Sonnenberg","type":"Kreisangehörige_Gemeinde"},"district":{"key":"12065","name":"Oberhavel","type":"Landkreis"},"federalState":{"key":"12","name":"Brandenburg"}},{"name":"Alte Höhlenstr.","postalCode":"72820","locality":"Sonnenbühl","municipality":{"key":"08415091","name":"Sonnenbühl","type":"Kreisangehörige_Gemeinde"},"district":{"key":"08415","name":"Reutlingen","type":"Landkreis"},"federalState":{"key":"08","name":"Baden-Württemberg"}},{"name":"Alte Schulstr.","postalCode":"16775","locality":"Sonnenberg","municipality":{"key":"12065301","name":"Sonnenberg","type":"Kreisangehörige_Gemeinde"},"district":{"key":"12065","name":"Oberhavel","type":"Landkreis"},"federalState":{"key":"12","name":"Brandenburg"}},{"name":"Alte Talheimer Steige","postalCode":"72820","locality":"Sonnenbühl","municipality":{"key":"08415091","name":"Sonnenbühl","type":"Kreisangehörige_Gemeinde"},"district":{"key":"08415","name":"Reutlingen","type":"Landkreis"},"federalState":{"key":"08","name":"Baden-Württemberg"}},{"name":"Am Bahnhof","postalCode":"37345","locality":"Sonnenstein","municipality":{"key":"16061117","name":"Sonnenstein","type":"Kreisangehörige_Gemeinde"},"district":{"key":"16061","name":"Eichsfeld","type":"Landkreis"},"federalState":{"key":"16","name":"Thüringen"}},{"name":"Am Berge","postalCode":"37345","locality":"Sonnenstein","municipality":{"key":"16061117","name":"Sonnenstein","type":"Kreisangehörige_Gemeinde"},"district":{"key":"16061","name":"Eichsfeld","type":"Landkreis"},"federalState":{"key":"16","name":"Thüringen"}},{"name":"Am Dorfteich","postalCode":"16775","locality":"Sonnenberg","municipality":{"key":"12065301","name":"Sonnenberg","type":"Kreisangehörige_Gemeinde"},"district":{"key":"12065","name":"Oberhavel","type":"Landkreis"},"federalState":{"key":"12","name":"Brandenburg"}},{"name":"Am Friedhof","postalCode":"37345","locality":"Sonnenstein","municipality":{"key":"16061117","name":"Sonnenstein","type":"Kreisangehörige_Gemeinde"},"district":{"key":"16061","name":"Eichsfeld","type":"Landkreis"},"federalState":{"key":"16","name":"Thüringen"}},{"name":"Am Gärtling","postalCode":"37345","locality":"Sonnenstein","municipality":{"key":"16061117","name":"Sonnenstein","type":"Kreisangehörige_Gemeinde"},"district":{"key":"16061","name":"Eichsfeld","type":"Landkreis"},"federalState":{"key":"16","name":"Thüringen"}},{"name":"Am Genkinger Weg","postalCode":"72820","locality":"Sonnenbühl","municipality":{"key":"08415091","name":"Sonnenbühl","type":"Kreisangehörige_Gemeinde"},"district":{"key":"08415","name":"Reutlingen","type":"Landkreis"},"federalState":{"key":"08","name":"Baden-Württemberg"}},{"name":"Am Guppenloch","postalCode":"72820","locality":"Sonnenbühl","municipality":{"key":"08415091","name":"Sonnenbühl","type":"Kreisangehörige_Gemeinde"},"district":{"key":"08415","name":"Reutlingen","type":"Landkreis"},"federalState":{"key":"08","name":"Baden-Württemberg"}},{"name":"Am Hopfenberg","postalCode":"37345","locality":"Sonnenstein","municipality":{"key":"16061117","name":"Sonnenstein","type":"Kreisangehörige_Gemeinde"},"district":{"key":"16061","name":"Eichsfeld","type":"Landkreis"},"federalState":{"key":"16","name":"Thüringen"}},{"name":"Am Kirchberg","postalCode":"72820","locality":"Sonnenbühl","municipality":{"key":"08415091","name":"Sonnenbühl","type":"Kreisangehörige_Gemeinde"},"district":{"key":"08415","name":"Reutlingen","type":"Landkreis"},"federalState":{"key":"08","name":"Baden-Württemberg"}},{"name":"Am Kirchberg","postalCode":"94164","locality":"Sonnen","municipality":{"key":"09275148","name":"Sonnen","type":"Kreisangehörige_Gemeinde"},"district":{"key":"09275","name":"Passau","type":"Landkreis"},"federalState":{"key":"09","name":"Bayern"}},{"name":"Am Köbele","postalCode":"72820","locality":"Sonnenbühl","municipality":{"key":"08415091","name":"Sonnenbühl","type":"Kreisangehörige_Gemeinde"},"district":{"key":"08415","name":"Reutlingen","type":"Landkreis"},"federalState":{"key":"08","name":"Baden-Württemberg"}},{"name":"Am Seilerweg","postalCode":"72820","locality":"Sonnenbühl","municipality":{"key":"08415091","name":"Sonnenbühl","type":"Kreisangehörige_Gemeinde"},"district":{"key":"08415","name":"Reutlingen","type":"Landkreis"},"federalState":{"key":"08","name":"Baden-Württemberg"}},{"name":"Amselweg","postalCode":"72820","locality":"Sonnenbühl","municipality":{"key":"08415091","name":"Sonnenbühl","type":"Kreisangehörige_Gemeinde"},"district":{"key":"08415","name":"Reutlingen","type":"Landkreis"},"federalState":{"key":"08","name":"Baden-Württemberg"}},{"name":"Am Sonnenhang","postalCode":"94164","locality":"Sonnen","municipality":{"key":"09275148","name":"Sonnen","type":"Kreisangehörige_Gemeinde"},"district":{"key":"09275","name":"Passau","type":"Landkreis"},"federalState":{"key":"09","name":"Bayern"}},{"name":"Am Steinberg","postalCode":"37345","locality":"Sonnenstein","municipality":{"key":"16061117","name":"Sonnenstein","type":"Kreisangehörige_Gemeinde"},"district":{"key":"16061","name":"Eichsfeld","type":"Landkreis"},"federalState":{"key":"16","name":"Thüringen"}},{"name":"Am Teich","postalCode":"37345","locality":"Sonnenstein","municipality":{"key":"16061117","name":"Sonnenstein","type":"Kreisangehörige_Gemeinde"},"district":{"key":"16061","name":"Eichsfeld","type":"Landkreis"},"federalState":{"key":"16","name":"Thüringen"}},{"name":"Am Trieb","postalCode":"72820","locality":"Sonnenbühl","municipality":{"key":"08415091","name":"Sonnenbühl","type":"Kreisangehörige_Gemeinde"},"district":{"key":"08415","name":"Reutlingen","type":"Landkreis"},"federalState":{"key":"08","name":"Baden-Württemberg"}},{"name":"Am Weiherstein","postalCode":"72820","locality":"Sonnenbühl","municipality":{"key":"08415091","name":"Sonnenbühl","type":"Kreisangehörige_Gemeinde"},"district":{"key":"08415","name":"Reutlingen","type":"Landkreis"},"federalState":{"key":"08","name":"Baden-Württemberg"}},{"name":"Am Weinberg","postalCode":"37345","locality":"Sonnenstein","municipality":{"key":"16061117","name":"Sonnenstein","type":"Kreisangehörige_Gemeinde"},"district":{"key":"16061","name":"Eichsfeld","type":"Landkreis"},"federalState":{"key":"16","name":"Thüringen"}},{"name":"Am Weißenborn","postalCode":"37345","locality":"Sonnenstein","municipality":{"key":"16061117","name":"Sonnenstein","type":"Kreisangehörige_Gemeinde"},"district":{"key":"16061","name":"Eichsfeld","type":"Landkreis"},"federalState":{"key":"16","name":"Thüringen"}},{"name":"Am Zien","postalCode":"37345","locality":"Sonnenstein","municipality":{"key":"16061117","name":"Sonnenstein","type":"Kreisangehörige_Gemeinde"},"district":{"key":"16061","name":"Eichsfeld","type":"Landkreis"},"federalState":{"key":"16","name":"Thüringen"}},{"name":"An der Federhecke","postalCode":"72820","locality":"Sonnenbühl","municipality":{"key":"08415091","name":"Sonnenbühl","type":"Kreisangehörige_Gemeinde"},"district":{"key":"08415","name":"Reutlingen","type":"Landkreis"},"federalState":{"key":"08","name":"Baden-Württemberg"}},{"name":"An der Pfannenbreite","postalCode":"37345","locality":"Sonnenstein","municipality":{"key":"16061117","name":"Sonnenstein","type":"Kreisangehörige_Gemeinde"},"district":{"key":"16061","name":"Eichsfeld","type":"Landkreis"},"federalState":{"key":"16","name":"Thüringen"}},{"name":"Anemonenweg","postalCode":"72820","locality":"Sonnenbühl","municipality":{"key":"08415091","name":"Sonnenbühl","type":"Kreisangehörige_Gemeinde"},"district":{"key":"08415","name":"Reutlingen","type":"Landkreis"},"federalState":{"key":"08","name":"Baden-Württemberg"}},{"name":"Anger","postalCode":"37345","locality":"Sonnenstein","municipality":{"key":"16061117","name":"Sonnenstein","type":"Kreisangehörige_Gemeinde"},"district":{"key":"16061","name":"Eichsfeld","type":"Landkreis"},"federalState":{"key":"16","name":"Thüringen"}},{"name":"Anton-Thraen-Str.","postalCode":"37345","locality":"Sonnenstein","municipality":{"key":"16061117","name":"Sonnenstein","type":"Kreisangehörige_Gemeinde"},"district":{"key":"16061","name":"Eichsfeld","type":"Landkreis"},"federalState":{"key":"16","name":"Thüringen"}},{"name":"Auchtertweg","postalCode":"72820","locality":"Sonnenbühl","municipality":{"key":"08415091","name":"Sonnenbühl","type":"Kreisangehörige_Gemeinde"},"district":{"key":"08415","name":"Reutlingen","type":"Landkreis"},"federalState":{"key":"08","name":"Baden-Württemberg"}},{"name":"Auenbühl","postalCode":"72820","locality":"Sonnenbühl","municipality":{"key":"08415091","name":"Sonnenbühl","type":"Kreisangehörige_Gemeinde"},"district":{"key":"08415","name":"Reutlingen","type":"Landkreis"},"federalState":{"key":"08","name":"Baden-Württemberg"}},{"name":"Auf dem Filz","postalCode":"72820","locality":"Sonnenbühl","municipality":{"key":"08415091","name":"Sonnenbühl","type":"Kreisangehörige_Gemeinde"},"district":{"key":"08415","name":"Reutlingen","type":"Landkreis"},"federalState":{"key":"08","name":"Baden-Württemberg"}},{"name":"Auf dem Weiherstein","postalCode":"72820","locality":"Sonnenbühl","municipality":{"key":"08415091","name":"Sonnenbühl","type":"Kreisangehörige_Gemeinde"},"district":{"key":"08415","name":"Reutlingen","type":"Landkreis"},"federalState":{"key":"08","name":"Baden-Württemberg"}},{"name":"Ausbildungs- und Gesundheitszentrum - Weg der Mitte","postalCode":"37345","locality":"Sonnenstein","municipality":{"key":"16061117","name":"Sonnenstein","type":"Kreisangehörige_Gemeinde"},"district":{"key":"16061","name":"Eichsfeld","type":"Landkreis"},"federalState":{"key":"16","name":"Thüringen"}},{"name":"Austr.","postalCode":"72820","locality":"Sonnenbühl","municipality":{"key":"08415091","name":"Sonnenbühl","type":"Kreisangehörige_Gemeinde"},"district":{"key":"08415","name":"Reutlingen","type":"Landkreis"},"federalState":{"key":"08","name":"Baden-Württemberg"}},{"name":"Bachstr.","postalCode":"72820","locality":"Sonnenbühl","municipality":{"key":"08415091","name":"Sonnenbühl","type":"Kreisangehörige_Gemeinde"},"district":{"key":"08415","name":"Reutlingen","type":"Landkreis"},"federalState":{"key":"08","name":"Baden-Württemberg"}},{"name":"Badeweiher Sonnen","postalCode":"94164","locality":"Sonnen","municipality":{"key":"09275148","name":"Sonnen","type":"Kreisangehörige_Gemeinde"},"district":{"key":"09275","name":"Passau","type":"Landkreis"},"federalState":{"key":"09","name":"Bayern"}},{"name":"Bahnhofstr.","postalCode":"37345","locality":"Sonnenstein","municipality":{"key":"16061117","name":"Sonnenstein","type":"Kreisangehörige_Gemeinde"},"district":{"key":"16061","name":"Eichsfeld","type":"Landkreis"},"federalState":{"key":"16","name":"Thüringen"}},{"name":"Bannwaldweg","postalCode":"72820","locality":"Sonnenbühl","municipality":{"key":"08415091","name":"Sonnenbühl","type":"Kreisangehörige_Gemeinde"},"district":{"key":"08415","name":"Reutlingen","type":"Landkreis"},"federalState":{"key":"08","name":"Baden-Württemberg"}},{"name":"Banzendorfer Weg","postalCode":"16775","locality":"Sonnenberg","municipality":{"key":"12065301","name":"Sonnenberg","type":"Kreisangehörige_Gemeinde"},"district":{"key":"12065","name":"Oberhavel","type":"Landkreis"},"federalState":{"key":"12","name":"Brandenburg"}},{"name":"Bauerngasse","postalCode":"37345","locality":"Sonnenstein","municipality":{"key":"16061117","name":"Sonnenstein","type":"Kreisangehörige_Gemeinde"},"district":{"key":"16061","name":"Eichsfeld","type":"Landkreis"},"federalState":{"key":"16","name":"Thüringen"}},{"name":"Baumschulenweg","postalCode":"37345","locality":"Sonnenstein","municipality":{"key":"16061117","name":"Sonnenstein","type":"Kreisangehörige_Gemeinde"},"district":{"key":"16061","name":"Eichsfeld","type":"Landkreis"},"federalState":{"key":"16","name":"Thüringen"}},{"name":"Bei der Hardtlinde","postalCode":"72820","locality":"Sonnenbühl","municipality":{"key":"08415091","name":"Sonnenbühl","type":"Kreisangehörige_Gemeinde"},"district":{"key":"08415","name":"Reutlingen","type":"Landkreis"},"federalState":{"key":"08","name":"Baden-Württemberg"}},{"name":"Beim Sportplatz","postalCode":"72820","locality":"Sonnenbühl","municipality":{"key":"08415091","name":"Sonnenbühl","type":"Kreisangehörige_Gemeinde"},"district":{"key":"08415","name":"Reutlingen","type":"Landkreis"},"federalState":{"key":"08","name":"Baden-Württemberg"}},{"name":"Bergstr.","postalCode":"37345","locality":"Sonnenstein","municipality":{"key":"16061117","name":"Sonnenstein","type":"Kreisangehörige_Gemeinde"},"district":{"key":"16061","name":"Eichsfeld","type":"Landkreis"},"federalState":{"key":"16","name":"Thüringen"}},{"name":"Bergstr.","postalCode":"55767","locality":"Sonnenberg-Winnenberg","municipality":{"key":"07134085","name":"Sonnenberg-Winnenberg","type":"Kreisangehörige_Gemeinde"},"district":{"key":"07134","name":"Birkenfeld","type":"Landkreis"},"federalState":{"key":"07","name":"Rheinland-Pfalz"}},{"name":"Bergstr.","postalCode":"72820","locality":"Sonnenbühl","municipality":{"key":"08415091","name":"Sonnenbühl","type":"Kreisangehörige_Gemeinde"},"district":{"key":"08415","name":"Reutlingen","type":"Landkreis"},"federalState":{"key":"08","name":"Baden-Württemberg"}},{"name":"Bernlochsteigle","postalCode":"72820","locality":"Sonnenbühl","municipality":{"key":"08415091","name":"Sonnenbühl","type":"Kreisangehörige_Gemeinde"},"district":{"key":"08415","name":"Reutlingen","type":"Landkreis"},"federalState":{"key":"08","name":"Baden-Württemberg"}},{"name":"Bernlochweg","postalCode":"72820","locality":"Sonnenbühl","municipality":{"key":"08415091","name":"Sonnenbühl","type":"Kreisangehörige_Gemeinde"},"district":{"key":"08415","name":"Reutlingen","type":"Landkreis"},"federalState":{"key":"08","name":"Baden-Württemberg"}},{"name":"Bettburgstr.","postalCode":"72820","locality":"Sonnenbühl","municipality":{"key":"08415091","name":"Sonnenbühl","type":"Kreisangehörige_Gemeinde"},"district":{"key":"08415","name":"Reutlingen","type":"Landkreis"},"federalState":{"key":"08","name":"Baden-Württemberg"}},{"name":"Birkensiedlung","postalCode":"55767","locality":"Sonnenberg-Winnenberg","municipality":{"key":"07134085","name":"Sonnenberg-Winnenberg","type":"Kreisangehörige_Gemeinde"},"district":{"key":"07134","name":"Birkenfeld","type":"Landkreis"},"federalState":{"key":"07","name":"Rheinland-Pfalz"}},{"name":"Birkenweg","postalCode":"72820","locality":"Sonnenbühl","municipality":{"key":"08415091","name":"Sonnenbühl","type":"Kreisangehörige_Gemeinde"},"district":{"key":"08415","name":"Reutlingen","type":"Landkreis"},"federalState":{"key":"08","name":"Baden-Württemberg"}},{"name":"Bischofferöder Str.","postalCode":"37345","locality":"Sonnenstein","municipality":{"key":"16061117","name":"Sonnenstein","type":"Kreisangehörige_Gemeinde"},"district":{"key":"16061","name":"Eichsfeld","type":"Landkreis"},"federalState":{"key":"16","name":"Thüringen"}},{"name":"Bismarckstr.","postalCode":"72820","locality":"Sonnenbühl","municipality":{"key":"08415091","name":"Sonnenbühl","type":"Kreisangehörige_Gemeinde"},"district":{"key":"08415","name":"Reutlingen","type":"Landkreis"},"federalState":{"key":"08","name":"Baden-Württemberg"}},{"name":"Bittgang","postalCode":"72820","locality":"Sonnenbühl","municipality":{"key":"08415091","name":"Sonnenbühl","type":"Kreisangehörige_Gemeinde"},"district":{"key":"08415","name":"Reutlingen","type":"Landkreis"},"federalState":{"key":"08","name":"Baden-Württemberg"}},{"name":"Blumenstr.","postalCode":"72820","locality":"Sonnenbühl","municipality":{"key":"08415091","name":"Sonnenbühl","type":"Kreisangehörige_Gemeinde"},"district":{"key":"08415","name":"Reutlingen","type":"Landkreis"},"federalState":{"key":"08","name":"Baden-Württemberg"}},{"name":"Bockelnhagener Str.","postalCode":"37345","locality":"Sonnenstein","municipality":{"key":"16061117","name":"Sonnenstein","type":"Kreisangehörige_Gemeinde"},"district":{"key":"16061","name":"Eichsfeld","type":"Landkreis"},"federalState":{"key":"16","name":"Thüringen"}},{"name":"Bodengasse","postalCode":"37345","locality":"Sonnenstein","municipality":{"key":"16061117","name":"Sonnenstein","type":"Kreisangehörige_Gemeinde"},"district":{"key":"16061","name":"Eichsfeld","type":"Landkreis"},"federalState":{"key":"16","name":"Thüringen"}},{"name":"Bohlweg","postalCode":"37345","locality":"Sonnenstein","municipality":{"key":"16061117","name":"Sonnenstein","type":"Kreisangehörige_Gemeinde"},"district":{"key":"16061","name":"Eichsfeld","type":"Landkreis"},"federalState":{"key":"16","name":"Thüringen"}},{"name":"Böhmerwaldstr.","postalCode":"94164","locality":"Sonnen","municipality":{"key":"09275148","name":"Sonnen","type":"Kreisangehörige_Gemeinde"},"district":{"key":"09275","name":"Passau","type":"Landkreis"},"federalState":{"key":"09","name":"Bayern"}},{"name":"Bolbergstr.","postalCode":"72820","locality":"Sonnenbühl","municipality":{"key":"08415091","name":"Sonnenbühl","type":"Kreisangehörige_Gemeinde"},"district":{"key":"08415","name":"Reutlingen","type":"Landkreis"},"federalState":{"key":"08","name":"Baden-Württemberg"}},{"name":"Bornbergstr.","postalCode":"37345","locality":"Sonnenstein","municipality":{"key":"16061117","name":"Sonnenstein","type":"Kreisangehörige_Gemeinde"},"district":{"key":"16061","name":"Eichsfeld","type":"Landkreis"},"federalState":{"key":"16","name":"Thüringen"}},{"name":"Breitenegert","postalCode":"72820","locality":"Sonnenbühl","municipality":{"key":"08415091","name":"Sonnenbühl","type":"Kreisangehörige_Gemeinde"},"district":{"key":"08415","name":"Reutlingen","type":"Landkreis"},"federalState":{"key":"08","name":"Baden-Württemberg"}},{"name":"Breitwiesweg","postalCode":"72820","locality":"Sonnenbühl","municipality":{"key":"08415091","name":"Sonnenbühl","type":"Kreisangehörige_Gemeinde"},"district":{"key":"08415","name":"Reutlingen","type":"Landkreis"},"federalState":{"key":"08","name":"Baden-Württemberg"}},{"name":"Brinkstr.","postalCode":"37345","locality":"Sonnenstein","municipality":{"key":"16061117","name":"Sonnenstein","type":"Kreisangehörige_Gemeinde"},"district":{"key":"16061","name":"Eichsfeld","type":"Landkreis"},"federalState":{"key":"16","name":"Thüringen"}},{"name":"Brombacher Weg","postalCode":"55767","locality":"Sonnenberg-Winnenberg","municipality":{"key":"07134085","name":"Sonnenberg-Winnenberg","type":"Kreisangehörige_Gemeinde"},"district":{"key":"07134","name":"Birkenfeld","type":"Landkreis"},"federalState":{"key":"07","name":"Rheinland-Pfalz"}},{"name":"Bronnentalweg","postalCode":"72820","locality":"Sonnenbühl","municipality":{"key":"08415091","name":"Sonnenbühl","type":"Kreisangehörige_Gemeinde"},"district":{"key":"08415","name":"Reutlingen","type":"Landkreis"},"federalState":{"key":"08","name":"Baden-Württemberg"}},{"name":"Brühlstr.","postalCode":"72820","locality":"Sonnenbühl","municipality":{"key":"08415091","name":"Sonnenbühl","type":"Kreisangehörige_Gemeinde"},"district":{"key":"08415","name":"Reutlingen","type":"Landkreis"},"federalState":{"key":"08","name":"Baden-Württemberg"}},{"name":"Brunnenstr.","postalCode":"72820","locality":"Sonnenbühl","municipality":{"key":"08415091","name":"Sonnenbühl","type":"Kreisangehörige_Gemeinde"},"district":{"key":"08415","name":"Reutlingen","type":"Landkreis"},"federalState":{"key":"08","name":"Baden-Württemberg"}},{"name":"Brunnhaldenstr.","postalCode":"72820","locality":"Sonnenbühl","municipality":{"key":"08415091","name":"Sonnenbühl","type":"Kreisangehörige_Gemeinde"},"district":{"key":"08415","name":"Reutlingen","type":"Landkreis"},"federalState":{"key":"08","name":"Baden-Württemberg"}},{"name":"Buchenweg","postalCode":"72820","locality":"Sonnenbühl","municipality":{"key":"08415091","name":"Sonnenbühl","type":"Kreisangehörige_Gemeinde"},"district":{"key":"08415","name":"Reutlingen","type":"Landkreis"},"federalState":{"key":"08","name":"Baden-Württemberg"}},{"name":"Buchhaldeweg","postalCode":"72820","locality":"Sonnenbühl","municipality":{"key":"08415091","name":"Sonnenbühl","type":"Kreisangehörige_Gemeinde"},"district":{"key":"08415","name":"Reutlingen","type":"Landkreis"},"federalState":{"key":"08","name":"Baden-Württemberg"}},{"name":"Buchtweg","postalCode":"16775","locality":"Sonnenberg","municipality":{"key":"12065301","name":"Sonnenberg","type":"Kreisangehörige_Gemeinde"},"district":{"key":"12065","name":"Oberhavel","type":"Landkreis"},"federalState":{"key":"12","name":"Brandenburg"}},{"name":"Burgstr.","postalCode":"72820","locality":"Sonnenbühl","municipality":{"key":"08415091","name":"Sonnenbühl","type":"Kreisangehörige_Gemeinde"},"district":{"key":"08415","name":"Reutlingen","type":"Landkreis"},"federalState":{"key":"08","name":"Baden-Württemberg"}},{"name":"Carlonegasse","postalCode":"94032","locality":"Passau","municipality":{"key":"09262000","name":"Passau","type":"Kreisfreie_Stadt"},"district":{"key":"09262","name":"Passau","type":"Kreisfreie_Stadt"},"federalState":{"key":"09","name":"Bayern"}},{"name":"Carossastr.","postalCode":"94036","locality":"Passau","municipality":{"key":"09262000","name":"Passau","type":"Kreisfreie_Stadt"},"district":{"key":"09262","name":"Passau","type":"Kreisfreie_Stadt"},"federalState":{"key":"09","name":"Bayern"}},{"name":"Christdobl","postalCode":"94034","locality":"Passau","municipality":{"key":"09262000","name":"Passau","type":"Kreisfreie_Stadt"},"district":{"key":"09262","name":"Passau","type":"Kreisfreie_Stadt"},"federalState":{"key":"09","name":"Bayern"}},{"name":"Daimlerstr.","postalCode":"72820","locality":"Sonnenbühl","municipality":{"key":"08415091","name":"Sonnenbühl","type":"Kreisangehörige_Gemeinde"},"district":{"key":"08415","name":"Reutlingen","type":"Landkreis"},"federalState":{"key":"08","name":"Baden-Württemberg"}},{"name":"Dammstr.","postalCode":"37345","locality":"Sonnenstein","municipality":{"key":"16061117","name":"Sonnenstein","type":"Kreisangehörige_Gemeinde"},"district":{"key":"16061","name":"Eichsfeld","type":"Landkreis"},"federalState":{"key":"16","name":"Thüringen"}},{"name":"Degentalstr.","postalCode":"72820","locality":"Sonnenbühl","municipality":{"key":"08415091","name":"Sonnenbühl","type":"Kreisangehörige_Gemeinde"},"district":{"key":"08415","name":"Reutlingen","type":"Landkreis"},"federalState":{"key":"08","name":"Baden-Württemberg"}},{"name":"Deissengässle","postalCode":"72820","locality":"Sonnenbühl","municipality":{"key":"08415091","name":"Sonnenbühl","type":"Kreisangehörige_Gemeinde"},"district":{"key":"08415","name":"Reutlingen","type":"Landkreis"},"federalState":{"key":"08","name":"Baden-Württemberg"}},{"name":"Diemertalweg","postalCode":"72820","locality":"Sonnenbühl","municipality":{"key":"08415091","name":"Sonnenbühl","type":"Kreisangehörige_Gemeinde"},"district":{"key":"08415","name":"Reutlingen","type":"Landkreis"},"federalState":{"key":"08","name":"Baden-Württemberg"}},{"name":"Distelweg","postalCode":"72820","locality":"Sonnenbühl","municipality":{"key":"08415091","name":"Sonnenbühl","type":"Kreisangehörige_Gemeinde"},"district":{"key":"08415","name":"Reutlingen","type":"Landkreis"},"federalState":{"key":"08","name":"Baden-Württemberg"}},{"name":"Dollgower Damm","postalCode":"16775","locality":"Sonnenberg","municipality":{"key":"12065301","name":"Sonnenberg","type":"Kreisangehörige_Gemeinde"},"district":{"key":"12065","name":"Oberhavel","type":"Landkreis"},"federalState":{"key":"12","name":"Brandenburg"}},{"name":"Dorfstr.","postalCode":"16775","locality":"Sonnenberg","municipality":{"key":"12065301","name":"Sonnenberg","type":"Kreisangehörige_Gemeinde"},"district":{"key":"12065","name":"Oberhavel","type":"Landkreis"},"federalState":{"key":"12","name":"Brandenburg"}},{"name":"Dorfstr.","postalCode":"37345","locality":"Sonnenstein","municipality":{"key":"16061117","name":"Sonnenstein","type":"Kreisangehörige_Gemeinde"},"district":{"key":"16061","name":"Eichsfeld","type":"Landkreis"},"federalState":{"key":"16","name":"Thüringen"}},{"name":"Dreisesselstr.","postalCode":"94164","locality":"Sonnen","municipality":{"key":"09275148","name":"Sonnen","type":"Kreisangehörige_Gemeinde"},"district":{"key":"09275","name":"Passau","type":"Landkreis"},"federalState":{"key":"09","name":"Bayern"}},{"name":"Drexlerwiese","postalCode":"94164","locality":"Sonnen","municipality":{"key":"09275148","name":"Sonnen","type":"Kreisangehörige_Gemeinde"},"district":{"key":"09275","name":"Passau","type":"Landkreis"},"federalState":{"key":"09","name":"Bayern"}},{"name":"Drosselstr.","postalCode":"72820","locality":"Sonnenbühl","municipality":{"key":"08415091","name":"Sonnenbühl","type":"Kreisangehörige_Gemeinde"},"district":{"key":"08415","name":"Reutlingen","type":"Landkreis"},"federalState":{"key":"08","name":"Baden-Württemberg"}},{"name":"Dr.-Vogt-Str.","postalCode":"94164","locality":"Sonnen","municipality":{"key":"09275148","name":"Sonnen","type":"Kreisangehörige_Gemeinde"},"district":{"key":"09275","name":"Passau","type":"Landkreis"},"federalState":{"key":"09","name":"Bayern"}},{"name":"Egelsbergstr.","postalCode":"72820","locality":"Sonnenbühl","municipality":{"key":"08415091","name":"Sonnenbühl","type":"Kreisangehörige_Gemeinde"},"district":{"key":"08415","name":"Reutlingen","type":"Landkreis"},"federalState":{"key":"08","name":"Baden-Württemberg"}},{"name":"ehemaliger Kolonnenweg - DDR Grenze","postalCode":"37345","locality":"Sonnenstein","municipality":{"key":"16061117","name":"Sonnenstein","type":"Kreisangehörige_Gemeinde"},"district":{"key":"16061","name":"Eichsfeld","type":"Landkreis"},"federalState":{"key":"16","name":"Thüringen"}},{"name":"Eichbergweg","postalCode":"72820","locality":"Sonnenbühl","municipality":{"key":"08415091","name":"Sonnenbühl","type":"Kreisangehörige_Gemeinde"},"district":{"key":"08415","name":"Reutlingen","type":"Landkreis"},"federalState":{"key":"08","name":"Baden-Württemberg"}},{"name":"Eichenring","postalCode":"55767","locality":"Sonnenberg-Winnenberg","municipality":{"key":"07134085","name":"Sonnenberg-Winnenberg","type":"Kreisangehörige_Gemeinde"},"district":{"key":"07134","name":"Birkenfeld","type":"Landkreis"},"federalState":{"key":"07","name":"Rheinland-Pfalz"}},{"name":"Eichholz","postalCode":"37345","locality":"Sonnenstein","municipality":{"key":"16061117","name":"Sonnenstein","type":"Kreisangehörige_Gemeinde"},"district":{"key":"16061","name":"Eichsfeld","type":"Landkreis"},"federalState":{"key":"16","name":"Thüringen"}},{"name":"Einwinkelweg","postalCode":"72820","locality":"Sonnenbühl","municipality":{"key":"08415091","name":"Sonnenbühl","type":"Kreisangehörige_Gemeinde"},"district":{"key":"08415","name":"Reutlingen","type":"Landkreis"},"federalState":{"key":"08","name":"Baden-Württemberg"}},{"name":"Elsterweg","postalCode":"72820","locality":"Sonnenbühl","municipality":{"key":"08415091","name":"Sonnenbühl","type":"Kreisangehörige_Gemeinde"},"district":{"key":"08415","name":"Reutlingen","type":"Landkreis"},"federalState":{"key":"08","name":"Baden-Württemberg"}},{"name":"Enzianweg","postalCode":"72820","locality":"Sonnenbühl","municipality":{"key":"08415091","name":"Sonnenbühl","type":"Kreisangehörige_Gemeinde"},"district":{"key":"08415","name":"Reutlingen","type":"Landkreis"},"federalState":{"key":"08","name":"Baden-Württemberg"}},{"name":"Epschenröder Hauptstr.","postalCode":"37345","locality":"Sonnenstein","municipality":{"key":"16061117","name":"Sonnenstein","type":"Kreisangehörige_Gemeinde"},"district":{"key":"16061","name":"Eichsfeld","type":"Landkreis"},"federalState":{"key":"16","name":"Thüringen"}},{"name":"Epschenröder Kirchgasse","postalCode":"37345","locality":"Sonnenstein","municipality":{"key":"16061117","name":"Sonnenstein","type":"Kreisangehörige_Gemeinde"},"district":{"key":"16061","name":"Eichsfeld","type":"Landkreis"},"federalState":{"key":"16","name":"Thüringen"}},{"name":"Erlenweg","postalCode":"72820","locality":"Sonnenbühl","municipality":{"key":"08415091","name":"Sonnenbühl","type":"Kreisangehörige_Gemeinde"},"district":{"key":"08415","name":"Reutlingen","type":"Landkreis"},"federalState":{"key":"08","name":"Baden-Württemberg"}},{"name":"Erpfinger Str.","postalCode":"72820","locality":"Sonnenbühl","municipality":{"key":"08415091","name":"Sonnenbühl","type":"Kreisangehörige_Gemeinde"},"district":{"key":"08415","name":"Reutlingen","type":"Landkreis"},"federalState":{"key":"08","name":"Baden-Württemberg"}},{"name":"Falkenstr.","postalCode":"72820","locality":"Sonnenbühl","municipality":{"key":"08415091","name":"Sonnenbühl","type":"Kreisangehörige_Gemeinde"},"district":{"key":"08415","name":"Reutlingen","type":"Landkreis"},"federalState":{"key":"08","name":"Baden-Württemberg"}},{"name":"Falltorstr.","postalCode":"72820","locality":"Sonnenbühl","municipality":{"key":"08415091","name":"Sonnenbühl","type":"Kreisangehörige_Gemeinde"},"district":{"key":"08415","name":"Reutlingen","type":"Landkreis"},"federalState":{"key":"08","name":"Baden-Württemberg"}},{"name":"Feilenweg","postalCode":"72820","locality":"Sonnenbühl","municipality":{"key":"08415091","name":"Sonnenbühl","type":"Kreisangehörige_Gemeinde"},"district":{"key":"08415","name":"Reutlingen","type":"Landkreis"},"federalState":{"key":"08","name":"Baden-Württemberg"}},{"name":"Feinstr.","postalCode":"72820","locality":"Sonnenbühl","municipality":{"key":"08415091","name":"Sonnenbühl","type":"Kreisangehörige_Gemeinde"},"district":{"key":"08415","name":"Reutlingen","type":"Landkreis"},"federalState":{"key":"08","name":"Baden-Württemberg"}},{"name":"Feldschlagstr.","postalCode":"37345","locality":"Sonnenstein","municipality":{"key":"16061117","name":"Sonnenstein","type":"Kreisangehörige_Gemeinde"},"district":{"key":"16061","name":"Eichsfeld","type":"Landkreis"},"federalState":{"key":"16","name":"Thüringen"}},{"name":"Feldstr.","postalCode":"37345","locality":"Sonnenstein","municipality":{"key":"16061117","name":"Sonnenstein","type":"Kreisangehörige_Gemeinde"},"district":{"key":"16061","name":"Eichsfeld","type":"Landkreis"},"federalState":{"key":"16","name":"Thüringen"}},{"name":"Felsenstr.","postalCode":"72820","locality":"Sonnenbühl","municipality":{"key":"08415091","name":"Sonnenbühl","type":"Kreisangehörige_Gemeinde"},"district":{"key":"08415","name":"Reutlingen","type":"Landkreis"},"federalState":{"key":"08","name":"Baden-Württemberg"}},{"name":"Filsenbergweg","postalCode":"72820","locality":"Sonnenbühl","municipality":{"key":"08415091","name":"Sonnenbühl","type":"Kreisangehörige_Gemeinde"},"district":{"key":"08415","name":"Reutlingen","type":"Landkreis"},"federalState":{"key":"08","name":"Baden-Württemberg"}},{"name":"Finkenstr.","postalCode":"72820","locality":"Sonnenbühl","municipality":{"key":"08415091","name":"Sonnenbühl","type":"Kreisangehörige_Gemeinde"},"district":{"key":"08415","name":"Reutlingen","type":"Landkreis"},"federalState":{"key":"08","name":"Baden-Württemberg"}},{"name":"Fliederweg","postalCode":"72820","locality":"Sonnenbühl","municipality":{"key":"08415091","name":"Sonnenbühl","type":"Kreisangehörige_Gemeinde"},"district":{"key":"08415","name":"Reutlingen","type":"Landkreis"},"federalState":{"key":"08","name":"Baden-Württemberg"}},{"name":"Forchenstr.","postalCode":"72820","locality":"Sonnenbühl","municipality":{"key":"08415091","name":"Sonnenbühl","type":"Kreisangehörige_Gemeinde"},"district":{"key":"08415","name":"Reutlingen","type":"Landkreis"},"federalState":{"key":"08","name":"Baden-Württemberg"}},{"name":"Forstweg","postalCode":"16775","locality":"Sonnenberg","municipality":{"key":"12065301","name":"Sonnenberg","type":"Kreisangehörige_Gemeinde"},"district":{"key":"12065","name":"Oberhavel","type":"Landkreis"},"federalState":{"key":"12","name":"Brandenburg"}},{"name":"Frauenwaldweg","postalCode":"72820","locality":"Sonnenbühl","municipality":{"key":"08415091","name":"Sonnenbühl","type":"Kreisangehörige_Gemeinde"},"district":{"key":"08415","name":"Reutlingen","type":"Landkreis"},"federalState":{"key":"08","name":"Baden-Württemberg"}},{"name":"Friedhofstr.","postalCode":"55767","locality":"Sonnenberg-Winnenberg","municipality":{"key":"07134085","name":"Sonnenberg-Winnenberg","type":"Kreisangehörige_Gemeinde"},"district":{"key":"07134","name":"Birkenfeld","type":"Landkreis"},"federalState":{"key":"07","name":"Rheinland-Pfalz"}},{"name":"Friedhofstr.","postalCode":"72820","locality":"Sonnenbühl","municipality":{"key":"08415091","name":"Sonnenbühl","type":"Kreisangehörige_Gemeinde"},"district":{"key":"08415","name":"Reutlingen","type":"Landkreis"},"federalState":{"key":"08","name":"Baden-Württemberg"}},{"name":"Friedhofsweg","postalCode":"37345","locality":"Sonnenstein","municipality":{"key":"16061117","name":"Sonnenstein","type":"Kreisangehörige_Gemeinde"},"district":{"key":"16061","name":"Eichsfeld","type":"Landkreis"},"federalState":{"key":"16","name":"Thüringen"}},{"name":"Friedrichstr.","postalCode":"72820","locality":"Sonnenbühl","municipality":{"key":"08415091","name":"Sonnenbühl","type":"Kreisangehörige_Gemeinde"},"district":{"key":"08415","name":"Reutlingen","type":"Landkreis"},"federalState":{"key":"08","name":"Baden-Württemberg"}},{"name":"Fritz-Schramm-Ring","postalCode":"94164","locality":"Sonnen","municipality":{"key":"09275148","name":"Sonnen","type":"Kreisangehörige_Gemeinde"},"district":{"key":"09275","name":"Passau","type":"Landkreis"},"federalState":{"key":"09","name":"Bayern"}},{"name":"Gartenstr.","postalCode":"37345","locality":"Sonnenstein","municipality":{"key":"16061117","name":"Sonnenstein","type":"Kreisangehörige_Gemeinde"},"district":{"key":"16061","name":"Eichsfeld","type":"Landkreis"},"federalState":{"key":"16","name":"Thüringen"}},{"name":"Gartenstr.","postalCode":"72820","locality":"Sonnenbühl","municipality":{"key":"08415091","name":"Sonnenbühl","type":"Kreisangehörige_Gemeinde"},"district":{"key":"08415","name":"Reutlingen","type":"Landkreis"},"federalState":{"key":"08","name":"Baden-Württemberg"}},{"name":"Gasse","postalCode":"37345","locality":"Sonnenstein","municipality":{"key":"16061117","name":"Sonnenstein","type":"Kreisangehörige_Gemeinde"},"district":{"key":"16061","name":"Eichsfeld","type":"Landkreis"},"federalState":{"key":"16","name":"Thüringen"}},{"name":"Geröder Str.","postalCode":"37345","locality":"Sonnenstein","municipality":{"key":"16061117","name":"Sonnenstein","type":"Kreisangehörige_Gemeinde"},"district":{"key":"16061","name":"Eichsfeld","type":"Landkreis"},"federalState":{"key":"16","name":"Thüringen"}},{"name":"Geyerstr.","postalCode":"72820","locality":"Sonnenbühl","municipality":{"key":"08415091","name":"Sonnenbühl","type":"Kreisangehörige_Gemeinde"},"district":{"key":"08415","name":"Reutlingen","type":"Landkreis"},"federalState":{"key":"08","name":"Baden-Württemberg"}},{"name":"Goethestr.","postalCode":"72820","locality":"Sonnenbühl","municipality":{"key":"08415091","name":"Sonnenbühl","type":"Kreisangehörige_Gemeinde"},"district":{"key":"08415","name":"Reutlingen","type":"Landkreis"},"federalState":{"key":"08","name":"Baden-Württemberg"}},{"name":"Gönninger Str.","postalCode":"72820","locality":"Sonnenbühl","municipality":{"key":"08415091","name":"Sonnenbühl","type":"Kreisangehörige_Gemeinde"},"district":{"key":"08415","name":"Reutlingen","type":"Landkreis"},"federalState":{"key":"08","name":"Baden-Württemberg"}},{"name":"Gönninger Weg","postalCode":"72820","locality":"Sonnenbühl","municipality":{"key":"08415091","name":"Sonnenbühl","type":"Kreisangehörige_Gemeinde"},"district":{"key":"08415","name":"Reutlingen","type":"Landkreis"},"federalState":{"key":"08","name":"Baden-Württemberg"}},{"name":"Gottlieb-Sauer-Str.","postalCode":"72820","locality":"Sonnenbühl","municipality":{"key":"08415091","name":"Sonnenbühl","type":"Kreisangehörige_Gemeinde"},"district":{"key":"08415","name":"Reutlingen","type":"Landkreis"},"federalState":{"key":"08","name":"Baden-Württemberg"}},{"name":"Grabenstr.","postalCode":"72820","locality":"Sonnenbühl","municipality":{"key":"08415091","name":"Sonnenbühl","type":"Kreisangehörige_Gemeinde"},"district":{"key":"08415","name":"Reutlingen","type":"Landkreis"},"federalState":{"key":"08","name":"Baden-Württemberg"}},{"name":"Granseer Str.","postalCode":"16775","locality":"Sonnenberg","municipality":{"key":"12065301","name":"Sonnenberg","type":"Kreisangehörige_Gemeinde"},"district":{"key":"12065","name":"Oberhavel","type":"Landkreis"},"federalState":{"key":"12","name":"Brandenburg"}},{"name":"Greutweg","postalCode":"72820","locality":"Sonnenbühl","municipality":{"key":"08415091","name":"Sonnenbühl","type":"Kreisangehörige_Gemeinde"},"district":{"key":"08415","name":"Reutlingen","type":"Landkreis"},"federalState":{"key":"08","name":"Baden-Württemberg"}},{"name":"Grießstr.","postalCode":"72820","locality":"Sonnenbühl","municipality":{"key":"08415091","name":"Sonnenbühl","type":"Kreisangehörige_Gemeinde"},"district":{"key":"08415","name":"Reutlingen","type":"Landkreis"},"federalState":{"key":"08","name":"Baden-Württemberg"}},{"name":"Große Breite","postalCode":"37345","locality":"Sonnenstein","municipality":{"key":"16061117","name":"Sonnenstein","type":"Kreisangehörige_Gemeinde"},"district":{"key":"16061","name":"Eichsfeld","type":"Landkreis"},"federalState":{"key":"16","name":"Thüringen"}},{"name":"Große Gasse","postalCode":"37345","locality":"Sonnenstein","municipality":{"key":"16061117","name":"Sonnenstein","type":"Kreisangehörige_Gemeinde"},"district":{"key":"16061","name":"Eichsfeld","type":"Landkreis"},"federalState":{"key":"16","name":"Thüringen"}},{"name":"Große Hintergasse","postalCode":"37345","locality":"Sonnenstein","municipality":{"key":"16061117","name":"Sonnenstein","type":"Kreisangehörige_Gemeinde"},"district":{"key":"16061","name":"Eichsfeld","type":"Landkreis"},"federalState":{"key":"16","name":"Thüringen"}},{"name":"Hafnerweg","postalCode":"72820","locality":"Sonnenbühl","municipality":{"key":"08415091","name":"Sonnenbühl","type":"Kreisangehörige_Gemeinde"},"district":{"key":"08415","name":"Reutlingen","type":"Landkreis"},"federalState":{"key":"08","name":"Baden-Württemberg"}},{"name":"Hagentäle","postalCode":"72820","locality":"Sonnenbühl","municipality":{"key":"08415091","name":"Sonnenbühl","type":"Kreisangehörige_Gemeinde"},"district":{"key":"08415","name":"Reutlingen","type":"Landkreis"},"federalState":{"key":"08","name":"Baden-Württemberg"}},{"name":"Hagstr.","postalCode":"72820","locality":"Sonnenbühl","municipality":{"key":"08415091","name":"Sonnenbühl","type":"Kreisangehörige_Gemeinde"},"district":{"key":"08415","name":"Reutlingen","type":"Landkreis"},"federalState":{"key":"08","name":"Baden-Württemberg"}},{"name":"Haldenstr.","postalCode":"72820","locality":"Sonnenbühl","municipality":{"key":"08415091","name":"Sonnenbühl","type":"Kreisangehörige_Gemeinde"},"district":{"key":"08415","name":"Reutlingen","type":"Landkreis"},"federalState":{"key":"08","name":"Baden-Württemberg"}},{"name":"Hamberg","postalCode":"37345","locality":"Sonnenstein","municipality":{"key":"16061117","name":"Sonnenstein","type":"Kreisangehörige_Gemeinde"},"district":{"key":"16061","name":"Eichsfeld","type":"Landkreis"},"federalState":{"key":"16","name":"Thüringen"}},{"name":"Hardtgrenzweg","postalCode":"72820","locality":"Sonnenbühl","municipality":{"key":"08415091","name":"Sonnenbühl","type":"Kreisangehörige_Gemeinde"},"district":{"key":"08415","name":"Reutlingen","type":"Landkreis"},"federalState":{"key":"08","name":"Baden-Württemberg"}},{"name":"Hardtweg","postalCode":"72820","locality":"Sonnenbühl","municipality":{"key":"08415091","name":"Sonnenbühl","type":"Kreisangehörige_Gemeinde"},"district":{"key":"08415","name":"Reutlingen","type":"Landkreis"},"federalState":{"key":"08","name":"Baden-Württemberg"}},{"name":"Hauffstr.","postalCode":"72820","locality":"Sonnenbühl","municipality":{"key":"08415091","name":"Sonnenbühl","type":"Kreisangehörige_Gemeinde"},"district":{"key":"08415","name":"Reutlingen","type":"Landkreis"},"federalState":{"key":"08","name":"Baden-Württemberg"}},{"name":"Häuleweg","postalCode":"72820","locality":"Sonnenbühl","municipality":{"key":"08415091","name":"Sonnenbühl","type":"Kreisangehörige_Gemeinde"},"district":{"key":"08415","name":"Reutlingen","type":"Landkreis"},"federalState":{"key":"08","name":"Baden-Württemberg"}},{"name":"Hauptstr.","postalCode":"16775","locality":"Sonnenberg","municipality":{"key":"12065301","name":"Sonnenberg","type":"Kreisangehörige_Gemeinde"},"district":{"key":"12065","name":"Oberhavel","type":"Landkreis"},"federalState":{"key":"12","name":"Brandenburg"}},{"name":"Hauptstr.","postalCode":"37345","locality":"Sonnenstein","municipality":{"key":"16061117","name":"Sonnenstein","type":"Kreisangehörige_Gemeinde"},"district":{"key":"16061","name":"Eichsfeld","type":"Landkreis"},"federalState":{"key":"16","name":"Thüringen"}},{"name":"Hauptstr.","postalCode":"55767","locality":"Sonnenberg-Winnenberg","municipality":{"key":"07134085","name":"Sonnenberg-Winnenberg","type":"Kreisangehörige_Gemeinde"},"district":{"key":"07134","name":"Birkenfeld","type":"Landkreis"},"federalState":{"key":"07","name":"Rheinland-Pfalz"}},{"name":"Hauptstr.","postalCode":"72820","locality":"Sonnenbühl","municipality":{"key":"08415091","name":"Sonnenbühl","type":"Kreisangehörige_Gemeinde"},"district":{"key":"08415","name":"Reutlingen","type":"Landkreis"},"federalState":{"key":"08","name":"Baden-Württemberg"}},{"name":"Hauptstr.","postalCode":"94164","locality":"Sonnen","municipality":{"key":"09275148","name":"Sonnen","type":"Kreisangehörige_Gemeinde"},"district":{"key":"09275","name":"Passau","type":"Landkreis"},"federalState":{"key":"09","name":"Bayern"}},{"name":"Hausener Str.","postalCode":"72820","locality":"Sonnenbühl","municipality":{"key":"08415091","name":"Sonnenbühl","type":"Kreisangehörige_Gemeinde"},"district":{"key":"08415","name":"Reutlingen","type":"Landkreis"},"federalState":{"key":"08","name":"Baden-Württemberg"}},{"name":"Heergasse","postalCode":"72820","locality":"Sonnenbühl","municipality":{"key":"08415091","name":"Sonnenbühl","type":"Kreisangehörige_Gemeinde"},"district":{"key":"08415","name":"Reutlingen","type":"Landkreis"},"federalState":{"key":"08","name":"Baden-Württemberg"}},{"name":"Hegelweg","postalCode":"72820","locality":"Sonnenbühl","municipality":{"key":"08415091","name":"Sonnenbühl","type":"Kreisangehörige_Gemeinde"},"district":{"key":"08415","name":"Reutlingen","type":"Landkreis"},"federalState":{"key":"08","name":"Baden-Württemberg"}},{"name":"Heidenburgweg","postalCode":"72820","locality":"Sonnenbühl","municipality":{"key":"08415091","name":"Sonnenbühl","type":"Kreisangehörige_Gemeinde"},"district":{"key":"08415","name":"Reutlingen","type":"Landkreis"},"federalState":{"key":"08","name":"Baden-Württemberg"}},{"name":"Heidestr.","postalCode":"16775","locality":"Sonnenberg","municipality":{"key":"12065301","name":"Sonnenberg","type":"Kreisangehörige_Gemeinde"},"district":{"key":"12065","name":"Oberhavel","type":"Landkreis"},"federalState":{"key":"12","name":"Brandenburg"}},{"name":"Heiligengasse","postalCode":"37345","locality":"Sonnenstein","municipality":{"key":"16061117","name":"Sonnenstein","type":"Kreisangehörige_Gemeinde"},"district":{"key":"16061","name":"Eichsfeld","type":"Landkreis"},"federalState":{"key":"16","name":"Thüringen"}},{"name":"Heiligenwiesenstr.","postalCode":"72820","locality":"Sonnenbühl","municipality":{"key":"08415091","name":"Sonnenbühl","type":"Kreisangehörige_Gemeinde"},"district":{"key":"08415","name":"Reutlingen","type":"Landkreis"},"federalState":{"key":"08","name":"Baden-Württemberg"}},{"name":"Herdweg","postalCode":"72820","locality":"Sonnenbühl","municipality":{"key":"08415091","name":"Sonnenbühl","type":"Kreisangehörige_Gemeinde"},"district":{"key":"08415","name":"Reutlingen","type":"Landkreis"},"federalState":{"key":"08","name":"Baden-Württemberg"}},{"name":"Heuberg","postalCode":"37345","locality":"Sonnenstein","municipality":{"key":"16061117","name":"Sonnenstein","type":"Kreisangehörige_Gemeinde"},"district":{"key":"16061","name":"Eichsfeld","type":"Landkreis"},"federalState":{"key":"16","name":"Thüringen"}},{"name":"Heuweg","postalCode":"72820","locality":"Sonnenbühl","municipality":{"key":"08415091","name":"Sonnenbühl","type":"Kreisangehörige_Gemeinde"},"district":{"key":"08415","name":"Reutlingen","type":"Landkreis"},"federalState":{"key":"08","name":"Baden-Württemberg"}},{"name":"Himmelreichsberg","postalCode":"37345","locality":"Sonnenstein","municipality":{"key":"16061117","name":"Sonnenstein","type":"Kreisangehörige_Gemeinde"},"district":{"key":"16061","name":"Eichsfeld","type":"Landkreis"},"federalState":{"key":"16","name":"Thüringen"}},{"name":"Himmeltalstr.","postalCode":"37345","locality":"Sonnenstein","municipality":{"key":"16061117","name":"Sonnenstein","type":"Kreisangehörige_Gemeinde"},"district":{"key":"16061","name":"Eichsfeld","type":"Landkreis"},"federalState":{"key":"16","name":"Thüringen"}},{"name":"Hindenburgstr.","postalCode":"72820","locality":"Sonnenbühl","municipality":{"key":"08415091","name":"Sonnenbühl","type":"Kreisangehörige_Gemeinde"},"district":{"key":"08415","name":"Reutlingen","type":"Landkreis"},"federalState":{"key":"08","name":"Baden-Württemberg"}},{"name":"Hinter den Gärten","postalCode":"72820","locality":"Sonnenbühl","municipality":{"key":"08415091","name":"Sonnenbühl","type":"Kreisangehörige_Gemeinde"},"district":{"key":"08415","name":"Reutlingen","type":"Landkreis"},"federalState":{"key":"08","name":"Baden-Württemberg"}},{"name":"Hinter den Höfen","postalCode":"37345","locality":"Sonnenstein","municipality":{"key":"16061117","name":"Sonnenstein","type":"Kreisangehörige_Gemeinde"},"district":{"key":"16061","name":"Eichsfeld","type":"Landkreis"},"federalState":{"key":"16","name":"Thüringen"}},{"name":"Hinter der Schießmauer","postalCode":"72820","locality":"Sonnenbühl","municipality":{"key":"08415091","name":"Sonnenbühl","type":"Kreisangehörige_Gemeinde"},"district":{"key":"08415","name":"Reutlingen","type":"Landkreis"},"federalState":{"key":"08","name":"Baden-Württemberg"}},{"name":"Hinterdorf","postalCode":"37345","locality":"Sonnenstein","municipality":{"key":"16061117","name":"Sonnenstein","type":"Kreisangehörige_Gemeinde"},"district":{"key":"16061","name":"Eichsfeld","type":"Landkreis"},"federalState":{"key":"16","name":"Thüringen"}},{"name":"Hintere Dorfstr.","postalCode":"37345","locality":"Sonnenstein","municipality":{"key":"16061117","name":"Sonnenstein","type":"Kreisangehörige_Gemeinde"},"district":{"key":"16061","name":"Eichsfeld","type":"Landkreis"},"federalState":{"key":"16","name":"Thüringen"}},{"name":"Hintergasse","postalCode":"37345","locality":"Sonnenstein","municipality":{"key":"16061117","name":"Sonnenstein","type":"Kreisangehörige_Gemeinde"},"district":{"key":"16061","name":"Eichsfeld","type":"Landkreis"},"federalState":{"key":"16","name":"Thüringen"}},{"name":"Hinterstr.","postalCode":"37345","locality":"Sonnenstein","municipality":{"key":"16061117","name":"Sonnenstein","type":"Kreisangehörige_Gemeinde"},"district":{"key":"16061","name":"Eichsfeld","type":"Landkreis"},"federalState":{"key":"16","name":"Thüringen"}},{"name":"Hirschstr.","postalCode":"72820","locality":"Sonnenbühl","municipality":{"key":"08415091","name":"Sonnenbühl","type":"Kreisangehörige_Gemeinde"},"district":{"key":"08415","name":"Reutlingen","type":"Landkreis"},"federalState":{"key":"08","name":"Baden-Württemberg"}},{"name":"Höhenweg","postalCode":"72820","locality":"Sonnenbühl","municipality":{"key":"08415091","name":"Sonnenbühl","type":"Kreisangehörige_Gemeinde"},"district":{"key":"08415","name":"Reutlingen","type":"Landkreis"},"federalState":{"key":"08","name":"Baden-Württemberg"}},{"name":"Hohenzollernweg","postalCode":"72820","locality":"Sonnenbühl","municipality":{"key":"08415091","name":"Sonnenbühl","type":"Kreisangehörige_Gemeinde"},"district":{"key":"08415","name":"Reutlingen","type":"Landkreis"},"federalState":{"key":"08","name":"Baden-Württemberg"}},{"name":"Hohe Str.","postalCode":"37345","locality":"Sonnenstein","municipality":{"key":"16061117","name":"Sonnenstein","type":"Kreisangehörige_Gemeinde"},"district":{"key":"16061","name":"Eichsfeld","type":"Landkreis"},"federalState":{"key":"16","name":"Thüringen"}},{"name":"Hohler Graben","postalCode":"37345","locality":"Sonnenstein","municipality":{"key":"16061117","name":"Sonnenstein","type":"Kreisangehörige_Gemeinde"},"district":{"key":"16061","name":"Eichsfeld","type":"Landkreis"},"federalState":{"key":"16","name":"Thüringen"}},{"name":"Holdergasse","postalCode":"72820","locality":"Sonnenbühl","municipality":{"key":"08415091","name":"Sonnenbühl","type":"Kreisangehörige_Gemeinde"},"district":{"key":"08415","name":"Reutlingen","type":"Landkreis"},"federalState":{"key":"08","name":"Baden-Württemberg"}},{"name":"Holunderweg","postalCode":"72820","locality":"Sonnenbühl","municipality":{"key":"08415091","name":"Sonnenbühl","type":"Kreisangehörige_Gemeinde"},"district":{"key":"08415","name":"Reutlingen","type":"Landkreis"},"federalState":{"key":"08","name":"Baden-Württemberg"}},{"name":"Huehenweg","postalCode":"72820","locality":"Sonnenbühl","municipality":{"key":"08415091","name":"Sonnenbühl","type":"Kreisangehörige_Gemeinde"},"district":{"key":"08415","name":"Reutlingen","type":"Landkreis"},"federalState":{"key":"08","name":"Baden-Württemberg"}},{"name":"Hummelbergweg","postalCode":"72820","locality":"Sonnenbühl","municipality":{"key":"08415091","name":"Sonnenbühl","type":"Kreisangehörige_Gemeinde"},"district":{"key":"08415","name":"Reutlingen","type":"Landkreis"},"federalState":{"key":"08","name":"Baden-Württemberg"}},{"name":"Im Dorf","postalCode":"72820","locality":"Sonnenbühl","municipality":{"key":"08415091","name":"Sonnenbühl","type":"Kreisangehörige_Gemeinde"},"district":{"key":"08415","name":"Reutlingen","type":"Landkreis"},"federalState":{"key":"08","name":"Baden-Württemberg"}},{"name":"Im Eschle","postalCode":"72820","locality":"Sonnenbühl","municipality":{"key":"08415091","name":"Sonnenbühl","type":"Kreisangehörige_Gemeinde"},"district":{"key":"08415","name":"Reutlingen","type":"Landkreis"},"federalState":{"key":"08","name":"Baden-Württemberg"}},{"name":"Im Gäßle","postalCode":"72820","locality":"Sonnenbühl","municipality":{"key":"08415091","name":"Sonnenbühl","type":"Kreisangehörige_Gemeinde"},"district":{"key":"08415","name":"Reutlingen","type":"Landkreis"},"federalState":{"key":"08","name":"Baden-Württemberg"}},{"name":"Im Steigle","postalCode":"72820","locality":"Sonnenbühl","municipality":{"key":"08415091","name":"Sonnenbühl","type":"Kreisangehörige_Gemeinde"},"district":{"key":"08415","name":"Reutlingen","type":"Landkreis"},"federalState":{"key":"08","name":"Baden-Württemberg"}},{"name":"Im Steinmäuerle","postalCode":"72820","locality":"Sonnenbühl","municipality":{"key":"08415091","name":"Sonnenbühl","type":"Kreisangehörige_Gemeinde"},"district":{"key":"08415","name":"Reutlingen","type":"Landkreis"},"federalState":{"key":"08","name":"Baden-Württemberg"}},{"name":"Im Teich","postalCode":"37345","locality":"Sonnenstein","municipality":{"key":"16061117","name":"Sonnenstein","type":"Kreisangehörige_Gemeinde"},"district":{"key":"16061","name":"Eichsfeld","type":"Landkreis"},"federalState":{"key":"16","name":"Thüringen"}},{"name":"Im Winkel","postalCode":"37345","locality":"Sonnenstein","municipality":{"key":"16061117","name":"Sonnenstein","type":"Kreisangehörige_Gemeinde"},"district":{"key":"16061","name":"Eichsfeld","type":"Landkreis"},"federalState":{"key":"16","name":"Thüringen"}},{"name":"Im Zwingelhof","postalCode":"72820","locality":"Sonnenbühl","municipality":{"key":"08415091","name":"Sonnenbühl","type":"Kreisangehörige_Gemeinde"},"district":{"key":"08415","name":"Reutlingen","type":"Landkreis"},"federalState":{"key":"08","name":"Baden-Württemberg"}},{"name":"In den Angelwiesen","postalCode":"72820","locality":"Sonnenbühl","municipality":{"key":"08415091","name":"Sonnenbühl","type":"Kreisangehörige_Gemeinde"},"district":{"key":"08415","name":"Reutlingen","type":"Landkreis"},"federalState":{"key":"08","name":"Baden-Württemberg"}},{"name":"In den Brunnenwiesen","postalCode":"72820","locality":"Sonnenbühl","municipality":{"key":"08415091","name":"Sonnenbühl","type":"Kreisangehörige_Gemeinde"},"district":{"key":"08415","name":"Reutlingen","type":"Landkreis"},"federalState":{"key":"08","name":"Baden-Württemberg"}},{"name":"In der Schmiede","postalCode":"72820","locality":"Sonnenbühl","municipality":{"key":"08415091","name":"Sonnenbühl","type":"Kreisangehörige_Gemeinde"},"district":{"key":"08415","name":"Reutlingen","type":"Landkreis"},"federalState":{"key":"08","name":"Baden-Württemberg"}},{"name":"Jahnstr.","postalCode":"72820","locality":"Sonnenbühl","municipality":{"key":"08415091","name":"Sonnenbühl","type":"Kreisangehörige_Gemeinde"},"district":{"key":"08415","name":"Reutlingen","type":"Landkreis"},"federalState":{"key":"08","name":"Baden-Württemberg"}},{"name":"Johann-Ludwig-Schneller-Str.","postalCode":"72820","locality":"Sonnenbühl","municipality":{"key":"08415091","name":"Sonnenbühl","type":"Kreisangehörige_Gemeinde"},"district":{"key":"08415","name":"Reutlingen","type":"Landkreis"},"federalState":{"key":"08","name":"Baden-Württemberg"}},{"name":"Jützenbacher Str.","postalCode":"37345","locality":"Sonnenstein","municipality":{"key":"16061117","name":"Sonnenstein","type":"Kreisangehörige_Gemeinde"},"district":{"key":"16061","name":"Eichsfeld","type":"Landkreis"},"federalState":{"key":"16","name":"Thüringen"}},{"name":"Katzental","postalCode":"72820","locality":"Sonnenbühl","municipality":{"key":"08415091","name":"Sonnenbühl","type":"Kreisangehörige_Gemeinde"},"district":{"key":"08415","name":"Reutlingen","type":"Landkreis"},"federalState":{"key":"08","name":"Baden-Württemberg"}},{"name":"Kirchbergstr.","postalCode":"72820","locality":"Sonnenbühl","municipality":{"key":"08415091","name":"Sonnenbühl","type":"Kreisangehörige_Gemeinde"},"district":{"key":"08415","name":"Reutlingen","type":"Landkreis"},"federalState":{"key":"08","name":"Baden-Württemberg"}},{"name":"Kirchentreppe","postalCode":"37345","locality":"Sonnenstein","municipality":{"key":"16061117","name":"Sonnenstein","type":"Kreisangehörige_Gemeinde"},"district":{"key":"16061","name":"Eichsfeld","type":"Landkreis"},"federalState":{"key":"16","name":"Thüringen"}},{"name":"Kirchgasse","postalCode":"37345","locality":"Sonnenstein","municipality":{"key":"16061117","name":"Sonnenstein","type":"Kreisangehörige_Gemeinde"},"district":{"key":"16061","name":"Eichsfeld","type":"Landkreis"},"federalState":{"key":"16","name":"Thüringen"}},{"name":"Kirchgäßle","postalCode":"72820","locality":"Sonnenbühl","municipality":{"key":"08415091","name":"Sonnenbühl","type":"Kreisangehörige_Gemeinde"},"district":{"key":"08415","name":"Reutlingen","type":"Landkreis"},"federalState":{"key":"08","name":"Baden-Württemberg"}},{"name":"Kirchstr.","postalCode":"37345","locality":"Sonnenstein","municipality":{"key":"16061117","name":"Sonnenstein","type":"Kreisangehörige_Gemeinde"},"district":{"key":"16061","name":"Eichsfeld","type":"Landkreis"},"federalState":{"key":"16","name":"Thüringen"}},{"name":"Kirchtal","postalCode":"37345","locality":"Sonnenstein","municipality":{"key":"16061117","name":"Sonnenstein","type":"Kreisangehörige_Gemeinde"},"district":{"key":"16061","name":"Eichsfeld","type":"Landkreis"},"federalState":{"key":"16","name":"Thüringen"}},{"name":"Klaus-Dieter-Kindl-Platz","postalCode":"94164","locality":"Sonnen","municipality":{"key":"09275148","name":"Sonnen","type":"Kreisangehörige_Gemeinde"},"district":{"key":"09275","name":"Passau","type":"Landkreis"},"federalState":{"key":"09","name":"Bayern"}},{"name":"Kleine Gasse","postalCode":"37345","locality":"Sonnenstein","municipality":{"key":"16061117","name":"Sonnenstein","type":"Kreisangehörige_Gemeinde"},"district":{"key":"16061","name":"Eichsfeld","type":"Landkreis"},"federalState":{"key":"16","name":"Thüringen"}},{"name":"Kleine Gasse","postalCode":"72820","locality":"Sonnenbühl","municipality":{"key":"08415091","name":"Sonnenbühl","type":"Kreisangehörige_Gemeinde"},"district":{"key":"08415","name":"Reutlingen","type":"Landkreis"},"federalState":{"key":"08","name":"Baden-Württemberg"}},{"name":"Kleines Eichsfeld","postalCode":"37345","locality":"Sonnenstein","municipality":{"key":"16061117","name":"Sonnenstein","type":"Kreisangehörige_Gemeinde"},"district":{"key":"16061","name":"Eichsfeld","type":"Landkreis"},"federalState":{"key":"16","name":"Thüringen"}},{"name":"Klostergasse","postalCode":"37345","locality":"Sonnenstein","municipality":{"key":"16061117","name":"Sonnenstein","type":"Kreisangehörige_Gemeinde"},"district":{"key":"16061","name":"Eichsfeld","type":"Landkreis"},"federalState":{"key":"16","name":"Thüringen"}},{"name":"Knappenweg","postalCode":"72820","locality":"Sonnenbühl","municipality":{"key":"08415091","name":"Sonnenbühl","type":"Kreisangehörige_Gemeinde"},"district":{"key":"08415","name":"Reutlingen","type":"Landkreis"},"federalState":{"key":"08","name":"Baden-Württemberg"}},{"name":"Knickstr.","postalCode":"37345","locality":"Sonnenstein","municipality":{"key":"16061117","name":"Sonnenstein","type":"Kreisangehörige_Gemeinde"},"district":{"key":"16061","name":"Eichsfeld","type":"Landkreis"},"federalState":{"key":"16","name":"Thüringen"}},{"name":"Kobelweg","postalCode":"72820","locality":"Sonnenbühl","municipality":{"key":"08415091","name":"Sonnenbühl","type":"Kreisangehörige_Gemeinde"},"district":{"key":"08415","name":"Reutlingen","type":"Landkreis"},"federalState":{"key":"08","name":"Baden-Württemberg"}},{"name":"Kolonnenweg DDR-Grenze","postalCode":"37345","locality":"Sonnenstein","municipality":{"key":"16061117","name":"Sonnenstein","type":"Kreisangehörige_Gemeinde"},"district":{"key":"16061","name":"Eichsfeld","type":"Landkreis"},"federalState":{"key":"16","name":"Thüringen"}},{"name":"Krämerstr.","postalCode":"72820","locality":"Sonnenbühl","municipality":{"key":"08415091","name":"Sonnenbühl","type":"Kreisangehörige_Gemeinde"},"district":{"key":"08415","name":"Reutlingen","type":"Landkreis"},"federalState":{"key":"08","name":"Baden-Württemberg"}},{"name":"Kreuzweg","postalCode":"72820","locality":"Sonnenbühl","municipality":{"key":"08415091","name":"Sonnenbühl","type":"Kreisangehörige_Gemeinde"},"district":{"key":"08415","name":"Reutlingen","type":"Landkreis"},"federalState":{"key":"08","name":"Baden-Württemberg"}},{"name":"Krummigstr.","postalCode":"37345","locality":"Sonnenstein","municipality":{"key":"16061117","name":"Sonnenstein","type":"Kreisangehörige_Gemeinde"},"district":{"key":"16061","name":"Eichsfeld","type":"Landkreis"},"federalState":{"key":"16","name":"Thüringen"}},{"name":"Kurgarten","postalCode":"72820","locality":"Sonnenbühl","municipality":{"key":"08415091","name":"Sonnenbühl","type":"Kreisangehörige_Gemeinde"},"district":{"key":"08415","name":"Reutlingen","type":"Landkreis"},"federalState":{"key":"08","name":"Baden-Württemberg"}},{"name":"Länderstr.","postalCode":"72820","locality":"Sonnenbühl","municipality":{"key":"08415091","name":"Sonnenbühl","type":"Kreisangehörige_Gemeinde"},"district":{"key":"08415","name":"Reutlingen","type":"Landkreis"},"federalState":{"key":"08","name":"Baden-Württemberg"}},{"name":"Lange Gasse","postalCode":"72820","locality":"Sonnenbühl","municipality":{"key":"08415091","name":"Sonnenbühl","type":"Kreisangehörige_Gemeinde"},"district":{"key":"08415","name":"Reutlingen","type":"Landkreis"},"federalState":{"key":"08","name":"Baden-Württemberg"}},{"name":"Lauchertstr.","postalCode":"72820","locality":"Sonnenbühl","municipality":{"key":"08415091","name":"Sonnenbühl","type":"Kreisangehörige_Gemeinde"},"district":{"key":"08415","name":"Reutlingen","type":"Landkreis"},"federalState":{"key":"08","name":"Baden-Württemberg"}},{"name":"Lehnstr.","postalCode":"37345","locality":"Sonnenstein","municipality":{"key":"16061117","name":"Sonnenstein","type":"Kreisangehörige_Gemeinde"},"district":{"key":"16061","name":"Eichsfeld","type":"Landkreis"},"federalState":{"key":"16","name":"Thüringen"}},{"name":"Leimgrubenstr.","postalCode":"72820","locality":"Sonnenbühl","municipality":{"key":"08415091","name":"Sonnenbühl","type":"Kreisangehörige_Gemeinde"},"district":{"key":"08415","name":"Reutlingen","type":"Landkreis"},"federalState":{"key":"08","name":"Baden-Württemberg"}},{"name":"Leitenweg","postalCode":"94164","locality":"Sonnen","municipality":{"key":"09275148","name":"Sonnen","type":"Kreisangehörige_Gemeinde"},"district":{"key":"09275","name":"Passau","type":"Landkreis"},"federalState":{"key":"09","name":"Bayern"}},{"name":"Lerchenstr.","postalCode":"72820","locality":"Sonnenbühl","municipality":{"key":"08415091","name":"Sonnenbühl","type":"Kreisangehörige_Gemeinde"},"district":{"key":"08415","name":"Reutlingen","type":"Landkreis"},"federalState":{"key":"08","name":"Baden-Württemberg"}},{"name":"Lichtensteinstr.","postalCode":"72820","locality":"Sonnenbühl","municipality":{"key":"08415091","name":"Sonnenbühl","type":"Kreisangehörige_Gemeinde"},"district":{"key":"08415","name":"Reutlingen","type":"Landkreis"},"federalState":{"key":"08","name":"Baden-Württemberg"}},{"name":"Ligusterweg","postalCode":"72820","locality":"Sonnenbühl","municipality":{"key":"08415091","name":"Sonnenbühl","type":"Kreisangehörige_Gemeinde"},"district":{"key":"08415","name":"Reutlingen","type":"Landkreis"},"federalState":{"key":"08","name":"Baden-Württemberg"}},{"name":"Lilienstr.","postalCode":"72820","locality":"Sonnenbühl","municipality":{"key":"08415091","name":"Sonnenbühl","type":"Kreisangehörige_Gemeinde"},"district":{"key":"08415","name":"Reutlingen","type":"Landkreis"},"federalState":{"key":"08","name":"Baden-Württemberg"}},{"name":"Lindenstr.","postalCode":"72820","locality":"Sonnenbühl","municipality":{"key":"08415091","name":"Sonnenbühl","type":"Kreisangehörige_Gemeinde"},"district":{"key":"08415","name":"Reutlingen","type":"Landkreis"},"federalState":{"key":"08","name":"Baden-Württemberg"}},{"name":"Lindenweg","postalCode":"16775","locality":"Sonnenberg","municipality":{"key":"12065301","name":"Sonnenberg","type":"Kreisangehörige_Gemeinde"},"district":{"key":"12065","name":"Oberhavel","type":"Landkreis"},"federalState":{"key":"12","name":"Brandenburg"}},{"name":"Löherstr.","postalCode":"72820","locality":"Sonnenbühl","municipality":{"key":"08415091","name":"Sonnenbühl","type":"Kreisangehörige_Gemeinde"},"district":{"key":"08415","name":"Reutlingen","type":"Landkreis"},"federalState":{"key":"08","name":"Baden-Württemberg"}},{"name":"Lutherstr.","postalCode":"72820","locality":"Sonnenbühl","municipality":{"key":"08415091","name":"Sonnenbühl","type":"Kreisangehörige_Gemeinde"},"district":{"key":"08415","name":"Reutlingen","type":"Landkreis"},"federalState":{"key":"08","name":"Baden-Württemberg"}},{"name":"Mantelstr.","postalCode":"72820","locality":"Sonnenbühl","municipality":{"key":"08415091","name":"Sonnenbühl","type":"Kreisangehörige_Gemeinde"},"district":{"key":"08415","name":"Reutlingen","type":"Landkreis"},"federalState":{"key":"08","name":"Baden-Württemberg"}},{"name":"Marktstr.","postalCode":"72820","locality":"Sonnenbühl","municipality":{"key":"08415091","name":"Sonnenbühl","type":"Kreisangehörige_Gemeinde"},"district":{"key":"08415","name":"Reutlingen","type":"Landkreis"},"federalState":{"key":"08","name":"Baden-Württemberg"}},{"name":"Marsche","postalCode":"37345","locality":"Sonnenstein","municipality":{"key":"16061117","name":"Sonnenstein","type":"Kreisangehörige_Gemeinde"},"district":{"key":"16061","name":"Eichsfeld","type":"Landkreis"},"federalState":{"key":"16","name":"Thüringen"}},{"name":"Matthäus-Möck-Str.","postalCode":"72820","locality":"Sonnenbühl","municipality":{"key":"08415091","name":"Sonnenbühl","type":"Kreisangehörige_Gemeinde"},"district":{"key":"08415","name":"Reutlingen","type":"Landkreis"},"federalState":{"key":"08","name":"Baden-Württemberg"}},{"name":"Meisenstr.","postalCode":"72820","locality":"Sonnenbühl","municipality":{"key":"08415091","name":"Sonnenbühl","type":"Kreisangehörige_Gemeinde"},"district":{"key":"08415","name":"Reutlingen","type":"Landkreis"},"federalState":{"key":"08","name":"Baden-Württemberg"}},{"name":"Melchinger Str.","postalCode":"72820","locality":"Sonnenbühl","municipality":{"key":"08415091","name":"Sonnenbühl","type":"Kreisangehörige_Gemeinde"},"district":{"key":"08415","name":"Reutlingen","type":"Landkreis"},"federalState":{"key":"08","name":"Baden-Württemberg"}},{"name":"Meseberger Weg","postalCode":"16775","locality":"Sonnenberg","municipality":{"key":"12065301","name":"Sonnenberg","type":"Kreisangehörige_Gemeinde"},"district":{"key":"12065","name":"Oberhavel","type":"Landkreis"},"federalState":{"key":"12","name":"Brandenburg"}},{"name":"Mezgerstr.","postalCode":"72820","locality":"Sonnenbühl","municipality":{"key":"08415091","name":"Sonnenbühl","type":"Kreisangehörige_Gemeinde"},"district":{"key":"08415","name":"Reutlingen","type":"Landkreis"},"federalState":{"key":"08","name":"Baden-Württemberg"}},{"name":"Mittelweg","postalCode":"16775","locality":"Sonnenberg","municipality":{"key":"12065301","name":"Sonnenberg","type":"Kreisangehörige_Gemeinde"},"district":{"key":"12065","name":"Oberhavel","type":"Landkreis"},"federalState":{"key":"12","name":"Brandenburg"}},{"name":"Mitterweg","postalCode":"94164","locality":"Sonnen","municipality":{"key":"09275148","name":"Sonnen","type":"Kreisangehörige_Gemeinde"},"district":{"key":"09275","name":"Passau","type":"Landkreis"},"federalState":{"key":"09","name":"Bayern"}},{"name":"Mittlere Eichehalde","postalCode":"72820","locality":"Sonnenbühl","municipality":{"key":"08415091","name":"Sonnenbühl","type":"Kreisangehörige_Gemeinde"},"district":{"key":"08415","name":"Reutlingen","type":"Landkreis"},"federalState":{"key":"08","name":"Baden-Württemberg"}},{"name":"Moltkestr.","postalCode":"72820","locality":"Sonnenbühl","municipality":{"key":"08415091","name":"Sonnenbühl","type":"Kreisangehörige_Gemeinde"},"district":{"key":"08415","name":"Reutlingen","type":"Landkreis"},"federalState":{"key":"08","name":"Baden-Württemberg"}},{"name":"Mörikeweg","postalCode":"72820","locality":"Sonnenbühl","municipality":{"key":"08415091","name":"Sonnenbühl","type":"Kreisangehörige_Gemeinde"},"district":{"key":"08415","name":"Reutlingen","type":"Landkreis"},"federalState":{"key":"08","name":"Baden-Württemberg"}},{"name":"Mühlstr.","postalCode":"72820","locality":"Sonnenbühl","municipality":{"key":"08415091","name":"Sonnenbühl","type":"Kreisangehörige_Gemeinde"},"district":{"key":"08415","name":"Reutlingen","type":"Landkreis"},"federalState":{"key":"08","name":"Baden-Württemberg"}},{"name":"Mühlweg","postalCode":"72820","locality":"Sonnenbühl","municipality":{"key":"08415091","name":"Sonnenbühl","type":"Kreisangehörige_Gemeinde"},"district":{"key":"08415","name":"Reutlingen","type":"Landkreis"},"federalState":{"key":"08","name":"Baden-Württemberg"}},{"name":"Mußweg","postalCode":"72820","locality":"Sonnenbühl","municipality":{"key":"08415091","name":"Sonnenbühl","type":"Kreisangehörige_Gemeinde"},"district":{"key":"08415","name":"Reutlingen","type":"Landkreis"},"federalState":{"key":"08","name":"Baden-Württemberg"}},{"name":"Nägelesbrunnenweg","postalCode":"72820","locality":"Sonnenbühl","municipality":{"key":"08415091","name":"Sonnenbühl","type":"Kreisangehörige_Gemeinde"},"district":{"key":"08415","name":"Reutlingen","type":"Landkreis"},"federalState":{"key":"08","name":"Baden-Württemberg"}},{"name":"Nahestr.","postalCode":"55767","locality":"Sonnenberg-Winnenberg","municipality":{"key":"07134085","name":"Sonnenberg-Winnenberg","type":"Kreisangehörige_Gemeinde"},"district":{"key":"07134","name":"Birkenfeld","type":"Landkreis"},"federalState":{"key":"07","name":"Rheinland-Pfalz"}},{"name":"Nebelhöhleweg","postalCode":"72820","locality":"Sonnenbühl","municipality":{"key":"08415091","name":"Sonnenbühl","type":"Kreisangehörige_Gemeinde"},"district":{"key":"08415","name":"Reutlingen","type":"Landkreis"},"federalState":{"key":"08","name":"Baden-Württemberg"}},{"name":"Nelkenstr.","postalCode":"72820","locality":"Sonnenbühl","municipality":{"key":"08415091","name":"Sonnenbühl","type":"Kreisangehörige_Gemeinde"},"district":{"key":"08415","name":"Reutlingen","type":"Landkreis"},"federalState":{"key":"08","name":"Baden-Württemberg"}},{"name":"Neuer Weg","postalCode":"37345","locality":"Sonnenstein","municipality":{"key":"16061117","name":"Sonnenstein","type":"Kreisangehörige_Gemeinde"},"district":{"key":"16061","name":"Eichsfeld","type":"Landkreis"},"federalState":{"key":"16","name":"Thüringen"}},{"name":"Neuer Weg","postalCode":"72820","locality":"Sonnenbühl","municipality":{"key":"08415091","name":"Sonnenbühl","type":"Kreisangehörige_Gemeinde"},"district":{"key":"08415","name":"Reutlingen","type":"Landkreis"},"federalState":{"key":"08","name":"Baden-Württemberg"}},{"name":"Neue Str.","postalCode":"37345","locality":"Sonnenstein","municipality":{"key":"16061117","name":"Sonnenstein","type":"Kreisangehörige_Gemeinde"},"district":{"key":"16061","name":"Eichsfeld","type":"Landkreis"},"federalState":{"key":"16","name":"Thüringen"}},{"name":"Neue Str.","postalCode":"72820","locality":"Sonnenbühl","municipality":{"key":"08415091","name":"Sonnenbühl","type":"Kreisangehörige_Gemeinde"},"district":{"key":"08415","name":"Reutlingen","type":"Landkreis"},"federalState":{"key":"08","name":"Baden-Württemberg"}},{"name":"Niedere Str.","postalCode":"72820","locality":"Sonnenbühl","municipality":{"key":"08415091","name":"Sonnenbühl","type":"Kreisangehörige_Gemeinde"},"district":{"key":"08415","name":"Reutlingen","type":"Landkreis"},"federalState":{"key":"08","name":"Baden-Württemberg"}},{"name":"Niederneureuth","postalCode":"94164","locality":"Sonnen","municipality":{"key":"09275148","name":"Sonnen","type":"Kreisangehörige_Gemeinde"},"district":{"key":"09275","name":"Passau","type":"Landkreis"},"federalState":{"key":"09","name":"Bayern"}},{"name":"Ober dem Hof","postalCode":"55767","locality":"Sonnenberg-Winnenberg","municipality":{"key":"07134085","name":"Sonnenberg-Winnenberg","type":"Kreisangehörige_Gemeinde"},"district":{"key":"07134","name":"Birkenfeld","type":"Landkreis"},"federalState":{"key":"07","name":"Rheinland-Pfalz"}},{"name":"Obere Eichehalde","postalCode":"72820","locality":"Sonnenbühl","municipality":{"key":"08415091","name":"Sonnenbühl","type":"Kreisangehörige_Gemeinde"},"district":{"key":"08415","name":"Reutlingen","type":"Landkreis"},"federalState":{"key":"08","name":"Baden-Württemberg"}},{"name":"Obere Gasse","postalCode":"72820","locality":"Sonnenbühl","municipality":{"key":"08415091","name":"Sonnenbühl","type":"Kreisangehörige_Gemeinde"},"district":{"key":"08415","name":"Reutlingen","type":"Landkreis"},"federalState":{"key":"08","name":"Baden-Württemberg"}},{"name":"Oberer Heiligenhof","postalCode":"37345","locality":"Sonnenstein","municipality":{"key":"16061117","name":"Sonnenstein","type":"Kreisangehörige_Gemeinde"},"district":{"key":"16061","name":"Eichsfeld","type":"Landkreis"},"federalState":{"key":"16","name":"Thüringen"}},{"name":"Oberstr.","postalCode":"37345","locality":"Sonnenstein","municipality":{"key":"16061117","name":"Sonnenstein","type":"Kreisangehörige_Gemeinde"},"district":{"key":"16061","name":"Eichsfeld","type":"Landkreis"},"federalState":{"key":"16","name":"Thüringen"}},{"name":"Ochsensteigle","postalCode":"72820","locality":"Sonnenbühl","municipality":{"key":"08415091","name":"Sonnenbühl","type":"Kreisangehörige_Gemeinde"},"district":{"key":"08415","name":"Reutlingen","type":"Landkreis"},"federalState":{"key":"08","name":"Baden-Württemberg"}},{"name":"Ortäcker","postalCode":"94164","locality":"Sonnen","municipality":{"key":"09275148","name":"Sonnen","type":"Kreisangehörige_Gemeinde"},"district":{"key":"09275","name":"Passau","type":"Landkreis"},"federalState":{"key":"09","name":"Bayern"}},{"name":"Ottenrain","postalCode":"72820","locality":"Sonnenbühl","municipality":{"key":"08415091","name":"Sonnenbühl","type":"Kreisangehörige_Gemeinde"},"district":{"key":"08415","name":"Reutlingen","type":"Landkreis"},"federalState":{"key":"08","name":"Baden-Württemberg"}},{"name":"Panoramastr.","postalCode":"72820","locality":"Sonnenbühl","municipality":{"key":"08415091","name":"Sonnenbühl","type":"Kreisangehörige_Gemeinde"},"district":{"key":"08415","name":"Reutlingen","type":"Landkreis"},"federalState":{"key":"08","name":"Baden-Württemberg"}},{"name":"Pappelallee","postalCode":"16775","locality":"Sonnenberg","municipality":{"key":"12065301","name":"Sonnenberg","type":"Kreisangehörige_Gemeinde"},"district":{"key":"12065","name":"Oberhavel","type":"Landkreis"},"federalState":{"key":"12","name":"Brandenburg"}},{"name":"Passauerstr.","postalCode":"94164","locality":"Sonnen","municipality":{"key":"09275148","name":"Sonnen","type":"Kreisangehörige_Gemeinde"},"district":{"key":"09275","name":"Passau","type":"Landkreis"},"federalState":{"key":"09","name":"Bayern"}},{"name":"Pfannenbodenweg","postalCode":"72820","locality":"Sonnenbühl","municipality":{"key":"08415091","name":"Sonnenbühl","type":"Kreisangehörige_Gemeinde"},"district":{"key":"08415","name":"Reutlingen","type":"Landkreis"},"federalState":{"key":"08","name":"Baden-Württemberg"}},{"name":"Pfannenweg","postalCode":"72820","locality":"Sonnenbühl","municipality":{"key":"08415091","name":"Sonnenbühl","type":"Kreisangehörige_Gemeinde"},"district":{"key":"08415","name":"Reutlingen","type":"Landkreis"},"federalState":{"key":"08","name":"Baden-Württemberg"}},{"name":"Pfingstanger","postalCode":"37345","locality":"Sonnenstein","municipality":{"key":"16061117","name":"Sonnenstein","type":"Kreisangehörige_Gemeinde"},"district":{"key":"16061","name":"Eichsfeld","type":"Landkreis"},"federalState":{"key":"16","name":"Thüringen"}},{"name":"Pfullinger Str.","postalCode":"72820","locality":"Sonnenbühl","municipality":{"key":"08415091","name":"Sonnenbühl","type":"Kreisangehörige_Gemeinde"},"district":{"key":"08415","name":"Reutlingen","type":"Landkreis"},"federalState":{"key":"08","name":"Baden-Württemberg"}},{"name":"Poststr.","postalCode":"37345","locality":"Sonnenstein","municipality":{"key":"16061117","name":"Sonnenstein","type":"Kreisangehörige_Gemeinde"},"district":{"key":"16061","name":"Eichsfeld","type":"Landkreis"},"federalState":{"key":"16","name":"Thüringen"}},{"name":"Poststr.","postalCode":"72820","locality":"Sonnenbühl","municipality":{"key":"08415091","name":"Sonnenbühl","type":"Kreisangehörige_Gemeinde"},"district":{"key":"08415","name":"Reutlingen","type":"Landkreis"},"federalState":{"key":"08","name":"Baden-Württemberg"}},{"name":"Quartbühlstr.","postalCode":"72820","locality":"Sonnenbühl","municipality":{"key":"08415091","name":"Sonnenbühl","type":"Kreisangehörige_Gemeinde"},"district":{"key":"08415","name":"Reutlingen","type":"Landkreis"},"federalState":{"key":"08","name":"Baden-Württemberg"}},{"name":"Quellenstr.","postalCode":"72820","locality":"Sonnenbühl","municipality":{"key":"08415091","name":"Sonnenbühl","type":"Kreisangehörige_Gemeinde"},"district":{"key":"08415","name":"Reutlingen","type":"Landkreis"},"federalState":{"key":"08","name":"Baden-Württemberg"}},{"name":"Radweg Zwinge - Weißenborn-Lüderode","postalCode":"37345","locality":"Sonnenstein","municipality":{"key":"16061117","name":"Sonnenstein","type":"Kreisangehörige_Gemeinde"},"district":{"key":"16061","name":"Eichsfeld","type":"Landkreis"},"federalState":{"key":"16","name":"Thüringen"}},{"name":"Raiffeisenstr.","postalCode":"72820","locality":"Sonnenbühl","municipality":{"key":"08415091","name":"Sonnenbühl","type":"Kreisangehörige_Gemeinde"},"district":{"key":"08415","name":"Reutlingen","type":"Landkreis"},"federalState":{"key":"08","name":"Baden-Württemberg"}},{"name":"Rathausstr.","postalCode":"72820","locality":"Sonnenbühl","municipality":{"key":"08415091","name":"Sonnenbühl","type":"Kreisangehörige_Gemeinde"},"district":{"key":"08415","name":"Reutlingen","type":"Landkreis"},"federalState":{"key":"08","name":"Baden-Württemberg"}},{"name":"Rauschendorfer Weg","postalCode":"16775","locality":"Sonnenberg","municipality":{"key":"12065301","name":"Sonnenberg","type":"Kreisangehörige_Gemeinde"},"district":{"key":"12065","name":"Oberhavel","type":"Landkreis"},"federalState":{"key":"12","name":"Brandenburg"}},{"name":"Reuteweg","postalCode":"72820","locality":"Sonnenbühl","municipality":{"key":"08415091","name":"Sonnenbühl","type":"Kreisangehörige_Gemeinde"},"district":{"key":"08415","name":"Reutlingen","type":"Landkreis"},"federalState":{"key":"08","name":"Baden-Württemberg"}},{"name":"Rheinsberger Str.","postalCode":"16775","locality":"Sonnenberg","municipality":{"key":"12065301","name":"Sonnenberg","type":"Kreisangehörige_Gemeinde"},"district":{"key":"12065","name":"Oberhavel","type":"Landkreis"},"federalState":{"key":"12","name":"Brandenburg"}},{"name":"Riedernbergweg","postalCode":"72820","locality":"Sonnenbühl","municipality":{"key":"08415091","name":"Sonnenbühl","type":"Kreisangehörige_Gemeinde"},"district":{"key":"08415","name":"Reutlingen","type":"Landkreis"},"federalState":{"key":"08","name":"Baden-Württemberg"}},{"name":"Riemenweg","postalCode":"72820","locality":"Sonnenbühl","municipality":{"key":"08415091","name":"Sonnenbühl","type":"Kreisangehörige_Gemeinde"},"district":{"key":"08415","name":"Reutlingen","type":"Landkreis"},"federalState":{"key":"08","name":"Baden-Württemberg"}},{"name":"Ringstr.","postalCode":"55767","locality":"Sonnenberg-Winnenberg","municipality":{"key":"07134085","name":"Sonnenberg-Winnenberg","type":"Kreisangehörige_Gemeinde"},"district":{"key":"07134","name":"Birkenfeld","type":"Landkreis"},"federalState":{"key":"07","name":"Rheinland-Pfalz"}},{"name":"Ritterscher Weg","postalCode":"16775","locality":"Sonnenberg","municipality":{"key":"12065301","name":"Sonnenberg","type":"Kreisangehörige_Gemeinde"},"district":{"key":"12065","name":"Oberhavel","type":"Landkreis"},"federalState":{"key":"12","name":"Brandenburg"}},{"name":"Ritterweg","postalCode":"72820","locality":"Sonnenbühl","municipality":{"key":"08415091","name":"Sonnenbühl","type":"Kreisangehörige_Gemeinde"},"district":{"key":"08415","name":"Reutlingen","type":"Landkreis"},"federalState":{"key":"08","name":"Baden-Württemberg"}},{"name":"Robert-Bosch-Str.","postalCode":"72820","locality":"Sonnenbühl","municipality":{"key":"08415091","name":"Sonnenbühl","type":"Kreisangehörige_Gemeinde"},"district":{"key":"08415","name":"Reutlingen","type":"Landkreis"},"federalState":{"key":"08","name":"Baden-Württemberg"}},{"name":"Römerstr.","postalCode":"55767","locality":"Sonnenberg-Winnenberg","municipality":{"key":"07134085","name":"Sonnenberg-Winnenberg","type":"Kreisangehörige_Gemeinde"},"district":{"key":"07134","name":"Birkenfeld","type":"Landkreis"},"federalState":{"key":"07","name":"Rheinland-Pfalz"}},{"name":"Römerstr.","postalCode":"72820","locality":"Sonnenbühl","municipality":{"key":"08415091","name":"Sonnenbühl","type":"Kreisangehörige_Gemeinde"},"district":{"key":"08415","name":"Reutlingen","type":"Landkreis"},"federalState":{"key":"08","name":"Baden-Württemberg"}},{"name":"Rönnebecker Str.","postalCode":"16775","locality":"Sonnenberg","municipality":{"key":"12065301","name":"Sonnenberg","type":"Kreisangehörige_Gemeinde"},"district":{"key":"12065","name":"Oberhavel","type":"Landkreis"},"federalState":{"key":"12","name":"Brandenburg"}},{"name":"Rönnebecker Weg","postalCode":"16775","locality":"Sonnenberg","municipality":{"key":"12065301","name":"Sonnenberg","type":"Kreisangehörige_Gemeinde"},"district":{"key":"12065","name":"Oberhavel","type":"Landkreis"},"federalState":{"key":"12","name":"Brandenburg"}},{"name":"Rosengartenstr.","postalCode":"72820","locality":"Sonnenbühl","municipality":{"key":"08415091","name":"Sonnenbühl","type":"Kreisangehörige_Gemeinde"},"district":{"key":"08415","name":"Reutlingen","type":"Landkreis"},"federalState":{"key":"08","name":"Baden-Württemberg"}},{"name":"Rosenstr.","postalCode":"72820","locality":"Sonnenbühl","municipality":{"key":"08415091","name":"Sonnenbühl","type":"Kreisangehörige_Gemeinde"},"district":{"key":"08415","name":"Reutlingen","type":"Landkreis"},"federalState":{"key":"08","name":"Baden-Württemberg"}},{"name":"Roßau","postalCode":"94164","locality":"Sonnen","municipality":{"key":"09275148","name":"Sonnen","type":"Kreisangehörige_Gemeinde"},"district":{"key":"09275","name":"Passau","type":"Landkreis"},"federalState":{"key":"09","name":"Bayern"}},{"name":"Rößlinshardtweg","postalCode":"72820","locality":"Sonnenbühl","municipality":{"key":"08415091","name":"Sonnenbühl","type":"Kreisangehörige_Gemeinde"},"district":{"key":"08415","name":"Reutlingen","type":"Landkreis"},"federalState":{"key":"08","name":"Baden-Württemberg"}},{"name":"Schachtstr.","postalCode":"37345","locality":"Sonnenstein","municipality":{"key":"16061117","name":"Sonnenstein","type":"Kreisangehörige_Gemeinde"},"district":{"key":"16061","name":"Eichsfeld","type":"Landkreis"},"federalState":{"key":"16","name":"Thüringen"}},{"name":"Schatzbuckelweg","postalCode":"72820","locality":"Sonnenbühl","municipality":{"key":"08415091","name":"Sonnenbühl","type":"Kreisangehörige_Gemeinde"},"district":{"key":"08415","name":"Reutlingen","type":"Landkreis"},"federalState":{"key":"08","name":"Baden-Württemberg"}},{"name":"Schauberg","postalCode":"94164","locality":"Sonnen","municipality":{"key":"09275148","name":"Sonnen","type":"Kreisangehörige_Gemeinde"},"district":{"key":"09275","name":"Passau","type":"Landkreis"},"federalState":{"key":"09","name":"Bayern"}},{"name":"Scheiterhauweg","postalCode":"72820","locality":"Sonnenbühl","municipality":{"key":"08415091","name":"Sonnenbühl","type":"Kreisangehörige_Gemeinde"},"district":{"key":"08415","name":"Reutlingen","type":"Landkreis"},"federalState":{"key":"08","name":"Baden-Württemberg"}},{"name":"Schießgasse","postalCode":"72820","locality":"Sonnenbühl","municipality":{"key":"08415091","name":"Sonnenbühl","type":"Kreisangehörige_Gemeinde"},"district":{"key":"08415","name":"Reutlingen","type":"Landkreis"},"federalState":{"key":"08","name":"Baden-Württemberg"}},{"name":"Schildchenstr.","postalCode":"37345","locality":"Sonnenstein","municipality":{"key":"16061117","name":"Sonnenstein","type":"Kreisangehörige_Gemeinde"},"district":{"key":"16061","name":"Eichsfeld","type":"Landkreis"},"federalState":{"key":"16","name":"Thüringen"}},{"name":"Schillerstr.","postalCode":"72820","locality":"Sonnenbühl","municipality":{"key":"08415091","name":"Sonnenbühl","type":"Kreisangehörige_Gemeinde"},"district":{"key":"08415","name":"Reutlingen","type":"Landkreis"},"federalState":{"key":"08","name":"Baden-Württemberg"}},{"name":"Schillingstr.","postalCode":"72820","locality":"Sonnenbühl","municipality":{"key":"08415091","name":"Sonnenbühl","type":"Kreisangehörige_Gemeinde"},"district":{"key":"08415","name":"Reutlingen","type":"Landkreis"},"federalState":{"key":"08","name":"Baden-Württemberg"}},{"name":"Schlehenweg","postalCode":"72820","locality":"Sonnenbühl","municipality":{"key":"08415091","name":"Sonnenbühl","type":"Kreisangehörige_Gemeinde"},"district":{"key":"08415","name":"Reutlingen","type":"Landkreis"},"federalState":{"key":"08","name":"Baden-Württemberg"}},{"name":"Schloßhalde","postalCode":"72820","locality":"Sonnenbühl","municipality":{"key":"08415091","name":"Sonnenbühl","type":"Kreisangehörige_Gemeinde"},"district":{"key":"08415","name":"Reutlingen","type":"Landkreis"},"federalState":{"key":"08","name":"Baden-Württemberg"}},{"name":"Schloßstr.","postalCode":"72820","locality":"Sonnenbühl","municipality":{"key":"08415091","name":"Sonnenbühl","type":"Kreisangehörige_Gemeinde"},"district":{"key":"08415","name":"Reutlingen","type":"Landkreis"},"federalState":{"key":"08","name":"Baden-Württemberg"}},{"name":"Schmiedegasse","postalCode":"37345","locality":"Sonnenstein","municipality":{"key":"16061117","name":"Sonnenstein","type":"Kreisangehörige_Gemeinde"},"district":{"key":"16061","name":"Eichsfeld","type":"Landkreis"},"federalState":{"key":"16","name":"Thüringen"}},{"name":"Schmiedstr.","postalCode":"72820","locality":"Sonnenbühl","municipality":{"key":"08415091","name":"Sonnenbühl","type":"Kreisangehörige_Gemeinde"},"district":{"key":"08415","name":"Reutlingen","type":"Landkreis"},"federalState":{"key":"08","name":"Baden-Württemberg"}},{"name":"Schöner Weg","postalCode":"72820","locality":"Sonnenbühl","municipality":{"key":"08415091","name":"Sonnenbühl","type":"Kreisangehörige_Gemeinde"},"district":{"key":"08415","name":"Reutlingen","type":"Landkreis"},"federalState":{"key":"08","name":"Baden-Württemberg"}},{"name":"Schulenbergstr.","postalCode":"37345","locality":"Sonnenstein","municipality":{"key":"16061117","name":"Sonnenstein","type":"Kreisangehörige_Gemeinde"},"district":{"key":"16061","name":"Eichsfeld","type":"Landkreis"},"federalState":{"key":"16","name":"Thüringen"}},{"name":"Schulplatz","postalCode":"72820","locality":"Sonnenbühl","municipality":{"key":"08415091","name":"Sonnenbühl","type":"Kreisangehörige_Gemeinde"},"district":{"key":"08415","name":"Reutlingen","type":"Landkreis"},"federalState":{"key":"08","name":"Baden-Württemberg"}},{"name":"Schulstr.","postalCode":"37345","locality":"Sonnenstein","municipality":{"key":"16061117","name":"Sonnenstein","type":"Kreisangehörige_Gemeinde"},"district":{"key":"16061","name":"Eichsfeld","type":"Landkreis"},"federalState":{"key":"16","name":"Thüringen"}},{"name":"Schulstr.","postalCode":"55767","locality":"Sonnenberg-Winnenberg","municipality":{"key":"07134085","name":"Sonnenberg-Winnenberg","type":"Kreisangehörige_Gemeinde"},"district":{"key":"07134","name":"Birkenfeld","type":"Landkreis"},"federalState":{"key":"07","name":"Rheinland-Pfalz"}},{"name":"Schulstr.","postalCode":"72820","locality":"Sonnenbühl","municipality":{"key":"08415091","name":"Sonnenbühl","type":"Kreisangehörige_Gemeinde"},"district":{"key":"08415","name":"Reutlingen","type":"Landkreis"},"federalState":{"key":"08","name":"Baden-Württemberg"}},{"name":"Schulstr.","postalCode":"94164","locality":"Sonnen","municipality":{"key":"09275148","name":"Sonnen","type":"Kreisangehörige_Gemeinde"},"district":{"key":"09275","name":"Passau","type":"Landkreis"},"federalState":{"key":"09","name":"Bayern"}},{"name":"Schulweg","postalCode":"37345","locality":"Sonnenstein","municipality":{"key":"16061117","name":"Sonnenstein","type":"Kreisangehörige_Gemeinde"},"district":{"key":"16061","name":"Eichsfeld","type":"Landkreis"},"federalState":{"key":"16","name":"Thüringen"}},{"name":"Schützenstr.","postalCode":"37345","locality":"Sonnenstein","municipality":{"key":"16061117","name":"Sonnenstein","type":"Kreisangehörige_Gemeinde"},"district":{"key":"16061","name":"Eichsfeld","type":"Landkreis"},"federalState":{"key":"16","name":"Thüringen"}},{"name":"Seebachweg","postalCode":"72820","locality":"Sonnenbühl","municipality":{"key":"08415091","name":"Sonnenbühl","type":"Kreisangehörige_Gemeinde"},"district":{"key":"08415","name":"Reutlingen","type":"Landkreis"},"federalState":{"key":"08","name":"Baden-Württemberg"}},{"name":"Senderstr.","postalCode":"72820","locality":"Sonnenbühl","municipality":{"key":"08415091","name":"Sonnenbühl","type":"Kreisangehörige_Gemeinde"},"district":{"key":"08415","name":"Reutlingen","type":"Landkreis"},"federalState":{"key":"08","name":"Baden-Württemberg"}},{"name":"Siedlung","postalCode":"37345","locality":"Sonnenstein","municipality":{"key":"16061117","name":"Sonnenstein","type":"Kreisangehörige_Gemeinde"},"district":{"key":"16061","name":"Eichsfeld","type":"Landkreis"},"federalState":{"key":"16","name":"Thüringen"}},{"name":"Silcherstr.","postalCode":"72820","locality":"Sonnenbühl","municipality":{"key":"08415091","name":"Sonnenbühl","type":"Kreisangehörige_Gemeinde"},"district":{"key":"08415","name":"Reutlingen","type":"Landkreis"},"federalState":{"key":"08","name":"Baden-Württemberg"}},{"name":"Sommerichstr.","postalCode":"55767","locality":"Sonnenberg-Winnenberg","municipality":{"key":"07134085","name":"Sonnenberg-Winnenberg","type":"Kreisangehörige_Gemeinde"},"district":{"key":"07134","name":"Birkenfeld","type":"Landkreis"},"federalState":{"key":"07","name":"Rheinland-Pfalz"}},{"name":"Sonderstr.","postalCode":"37345","locality":"Sonnenstein","municipality":{"key":"16061117","name":"Sonnenstein","type":"Kreisangehörige_Gemeinde"},"district":{"key":"16061","name":"Eichsfeld","type":"Landkreis"},"federalState":{"key":"16","name":"Thüringen"}},{"name":"Sonnenstein","postalCode":"37345","locality":"Sonnenstein","municipality":{"key":"16061117","name":"Sonnenstein","type":"Kreisangehörige_Gemeinde"},"district":{"key":"16061","name":"Eichsfeld","type":"Landkreis"},"federalState":{"key":"16","name":"Thüringen"}},{"name":"Sonnensteinstr.","postalCode":"37345","locality":"Sonnenstein","municipality":{"key":"16061117","name":"Sonnenstein","type":"Kreisangehörige_Gemeinde"},"district":{"key":"16061","name":"Eichsfeld","type":"Landkreis"},"federalState":{"key":"16","name":"Thüringen"}},{"name":"Sonnenstr.","postalCode":"72820","locality":"Sonnenbühl","municipality":{"key":"08415091","name":"Sonnenbühl","type":"Kreisangehörige_Gemeinde"},"district":{"key":"08415","name":"Reutlingen","type":"Landkreis"},"federalState":{"key":"08","name":"Baden-Württemberg"}},{"name":"Steigle","postalCode":"72820","locality":"Sonnenbühl","municipality":{"key":"08415091","name":"Sonnenbühl","type":"Kreisangehörige_Gemeinde"},"district":{"key":"08415","name":"Reutlingen","type":"Landkreis"},"federalState":{"key":"08","name":"Baden-Württemberg"}},{"name":"Steigstr.","postalCode":"72820","locality":"Sonnenbühl","municipality":{"key":"08415091","name":"Sonnenbühl","type":"Kreisangehörige_Gemeinde"},"district":{"key":"08415","name":"Reutlingen","type":"Landkreis"},"federalState":{"key":"08","name":"Baden-Württemberg"}},{"name":"Steigsträßle","postalCode":"72820","locality":"Sonnenbühl","municipality":{"key":"08415091","name":"Sonnenbühl","type":"Kreisangehörige_Gemeinde"},"district":{"key":"08415","name":"Reutlingen","type":"Landkreis"},"federalState":{"key":"08","name":"Baden-Württemberg"}},{"name":"Steinbühlstr.","postalCode":"72820","locality":"Sonnenbühl","municipality":{"key":"08415091","name":"Sonnenbühl","type":"Kreisangehörige_Gemeinde"},"district":{"key":"08415","name":"Reutlingen","type":"Landkreis"},"federalState":{"key":"08","name":"Baden-Württemberg"}},{"name":"Steinmauerweg","postalCode":"72820","locality":"Sonnenbühl","municipality":{"key":"08415091","name":"Sonnenbühl","type":"Kreisangehörige_Gemeinde"},"district":{"key":"08415","name":"Reutlingen","type":"Landkreis"},"federalState":{"key":"08","name":"Baden-Württemberg"}},{"name":"Stettener Str.","postalCode":"72820","locality":"Sonnenbühl","municipality":{"key":"08415091","name":"Sonnenbühl","type":"Kreisangehörige_Gemeinde"},"district":{"key":"08415","name":"Reutlingen","type":"Landkreis"},"federalState":{"key":"08","name":"Baden-Württemberg"}},{"name":"Stöckeyer Hauptstr.","postalCode":"37345","locality":"Sonnenstein","municipality":{"key":"16061117","name":"Sonnenstein","type":"Kreisangehörige_Gemeinde"},"district":{"key":"16061","name":"Eichsfeld","type":"Landkreis"},"federalState":{"key":"16","name":"Thüringen"}},{"name":"Str. des Friedens","postalCode":"16775","locality":"Sonnenberg","municipality":{"key":"12065301","name":"Sonnenberg","type":"Kreisangehörige_Gemeinde"},"district":{"key":"12065","name":"Oberhavel","type":"Landkreis"},"federalState":{"key":"12","name":"Brandenburg"}},{"name":"Striehweg","postalCode":"72820","locality":"Sonnenbühl","municipality":{"key":"08415091","name":"Sonnenbühl","type":"Kreisangehörige_Gemeinde"},"district":{"key":"08415","name":"Reutlingen","type":"Landkreis"},"federalState":{"key":"08","name":"Baden-Württemberg"}},{"name":"Stüblhäuser","postalCode":"94164","locality":"Sonnen","municipality":{"key":"09275148","name":"Sonnen","type":"Kreisangehörige_Gemeinde"},"district":{"key":"09275","name":"Passau","type":"Landkreis"},"federalState":{"key":"09","name":"Bayern"}},{"name":"Stuhlsteige","postalCode":"72820","locality":"Sonnenbühl","municipality":{"key":"08415091","name":"Sonnenbühl","type":"Kreisangehörige_Gemeinde"},"district":{"key":"08415","name":"Reutlingen","type":"Landkreis"},"federalState":{"key":"08","name":"Baden-Württemberg"}},{"name":"Südstr.","postalCode":"37345","locality":"Sonnenstein","municipality":{"key":"16061117","name":"Sonnenstein","type":"Kreisangehörige_Gemeinde"},"district":{"key":"16061","name":"Eichsfeld","type":"Landkreis"},"federalState":{"key":"16","name":"Thüringen"}},{"name":"Talstr.","postalCode":"72820","locality":"Sonnenbühl","municipality":{"key":"08415091","name":"Sonnenbühl","type":"Kreisangehörige_Gemeinde"},"district":{"key":"08415","name":"Reutlingen","type":"Landkreis"},"federalState":{"key":"08","name":"Baden-Württemberg"}},{"name":"Tannenstr.","postalCode":"72820","locality":"Sonnenbühl","municipality":{"key":"08415091","name":"Sonnenbühl","type":"Kreisangehörige_Gemeinde"},"district":{"key":"08415","name":"Reutlingen","type":"Landkreis"},"federalState":{"key":"08","name":"Baden-Württemberg"}},{"name":"Teichstr.","postalCode":"37345","locality":"Sonnenstein","municipality":{"key":"16061117","name":"Sonnenstein","type":"Kreisangehörige_Gemeinde"},"district":{"key":"16061","name":"Eichsfeld","type":"Landkreis"},"federalState":{"key":"16","name":"Thüringen"}},{"name":"Thomasstr.","postalCode":"72820","locality":"Sonnenbühl","municipality":{"key":"08415091","name":"Sonnenbühl","type":"Kreisangehörige_Gemeinde"},"district":{"key":"08415","name":"Reutlingen","type":"Landkreis"},"federalState":{"key":"08","name":"Baden-Württemberg"}},{"name":"Tiefer Weg","postalCode":"72820","locality":"Sonnenbühl","municipality":{"key":"08415091","name":"Sonnenbühl","type":"Kreisangehörige_Gemeinde"},"district":{"key":"08415","name":"Reutlingen","type":"Landkreis"},"federalState":{"key":"08","name":"Baden-Württemberg"}},{"name":"Tränkestr.","postalCode":"37345","locality":"Sonnenstein","municipality":{"key":"16061117","name":"Sonnenstein","type":"Kreisangehörige_Gemeinde"},"district":{"key":"16061","name":"Eichsfeld","type":"Landkreis"},"federalState":{"key":"16","name":"Thüringen"}},{"name":"Traufweg","postalCode":"72820","locality":"Sonnenbühl","municipality":{"key":"08415091","name":"Sonnenbühl","type":"Kreisangehörige_Gemeinde"},"district":{"key":"08415","name":"Reutlingen","type":"Landkreis"},"federalState":{"key":"08","name":"Baden-Württemberg"}},{"name":"Trochtelfinger Str.","postalCode":"72820","locality":"Sonnenbühl","municipality":{"key":"08415091","name":"Sonnenbühl","type":"Kreisangehörige_Gemeinde"},"district":{"key":"08415","name":"Reutlingen","type":"Landkreis"},"federalState":{"key":"08","name":"Baden-Württemberg"}},{"name":"Tulpenweg","postalCode":"72820","locality":"Sonnenbühl","municipality":{"key":"08415091","name":"Sonnenbühl","type":"Kreisangehörige_Gemeinde"},"district":{"key":"08415","name":"Reutlingen","type":"Landkreis"},"federalState":{"key":"08","name":"Baden-Württemberg"}},{"name":"Uhlandstr.","postalCode":"72820","locality":"Sonnenbühl","municipality":{"key":"08415091","name":"Sonnenbühl","type":"Kreisangehörige_Gemeinde"},"district":{"key":"08415","name":"Reutlingen","type":"Landkreis"},"federalState":{"key":"08","name":"Baden-Württemberg"}},{"name":"Ulmenstr.","postalCode":"72820","locality":"Sonnenbühl","municipality":{"key":"08415091","name":"Sonnenbühl","type":"Kreisangehörige_Gemeinde"},"district":{"key":"08415","name":"Reutlingen","type":"Landkreis"},"federalState":{"key":"08","name":"Baden-Württemberg"}},{"name":"Undinger Str.","postalCode":"72820","locality":"Sonnenbühl","municipality":{"key":"08415091","name":"Sonnenbühl","type":"Kreisangehörige_Gemeinde"},"district":{"key":"08415","name":"Reutlingen","type":"Landkreis"},"federalState":{"key":"08","name":"Baden-Württemberg"}},{"name":"Unterer Grubenweg","postalCode":"72820","locality":"Sonnenbühl","municipality":{"key":"08415091","name":"Sonnenbühl","type":"Kreisangehörige_Gemeinde"},"district":{"key":"08415","name":"Reutlingen","type":"Landkreis"},"federalState":{"key":"08","name":"Baden-Württemberg"}},{"name":"Unterer Heiligenhof","postalCode":"37345","locality":"Sonnenstein","municipality":{"key":"16061117","name":"Sonnenstein","type":"Kreisangehörige_Gemeinde"},"district":{"key":"16061","name":"Eichsfeld","type":"Landkreis"},"federalState":{"key":"16","name":"Thüringen"}},{"name":"Unterm Berge","postalCode":"37345","locality":"Sonnenstein","municipality":{"key":"16061117","name":"Sonnenstein","type":"Kreisangehörige_Gemeinde"},"district":{"key":"16061","name":"Eichsfeld","type":"Landkreis"},"federalState":{"key":"16","name":"Thüringen"}},{"name":"Unterstr.","postalCode":"37345","locality":"Sonnenstein","municipality":{"key":"16061117","name":"Sonnenstein","type":"Kreisangehörige_Gemeinde"},"district":{"key":"16061","name":"Eichsfeld","type":"Landkreis"},"federalState":{"key":"16","name":"Thüringen"}},{"name":"Veilchenweg","postalCode":"72820","locality":"Sonnenbühl","municipality":{"key":"08415091","name":"Sonnenbühl","type":"Kreisangehörige_Gemeinde"},"district":{"key":"08415","name":"Reutlingen","type":"Landkreis"},"federalState":{"key":"08","name":"Baden-Württemberg"}},{"name":"Vor Weinstein","postalCode":"72820","locality":"Sonnenbühl","municipality":{"key":"08415091","name":"Sonnenbühl","type":"Kreisangehörige_Gemeinde"},"district":{"key":"08415","name":"Reutlingen","type":"Landkreis"},"federalState":{"key":"08","name":"Baden-Württemberg"}},{"name":"Wacholderweg","postalCode":"72820","locality":"Sonnenbühl","municipality":{"key":"08415091","name":"Sonnenbühl","type":"Kreisangehörige_Gemeinde"},"district":{"key":"08415","name":"Reutlingen","type":"Landkreis"},"federalState":{"key":"08","name":"Baden-Württemberg"}},{"name":"Wegle","postalCode":"72820","locality":"Sonnenbühl","municipality":{"key":"08415091","name":"Sonnenbühl","type":"Kreisangehörige_Gemeinde"},"district":{"key":"08415","name":"Reutlingen","type":"Landkreis"},"federalState":{"key":"08","name":"Baden-Württemberg"}},{"name":"Weiherweg","postalCode":"94164","locality":"Sonnen","municipality":{"key":"09275148","name":"Sonnen","type":"Kreisangehörige_Gemeinde"},"district":{"key":"09275","name":"Passau","type":"Landkreis"},"federalState":{"key":"09","name":"Bayern"}},{"name":"Weilröder Str.","postalCode":"37345","locality":"Sonnenstein","municipality":{"key":"16061117","name":"Sonnenstein","type":"Kreisangehörige_Gemeinde"},"district":{"key":"16061","name":"Eichsfeld","type":"Landkreis"},"federalState":{"key":"16","name":"Thüringen"}},{"name":"Weinsteinstr.","postalCode":"72820","locality":"Sonnenbühl","municipality":{"key":"08415091","name":"Sonnenbühl","type":"Kreisangehörige_Gemeinde"},"district":{"key":"08415","name":"Reutlingen","type":"Landkreis"},"federalState":{"key":"08","name":"Baden-Württemberg"}},{"name":"Weißdornweg","postalCode":"72820","locality":"Sonnenbühl","municipality":{"key":"08415091","name":"Sonnenbühl","type":"Kreisangehörige_Gemeinde"},"district":{"key":"08415","name":"Reutlingen","type":"Landkreis"},"federalState":{"key":"08","name":"Baden-Württemberg"}},{"name":"Werningeröder Dorfstr.","postalCode":"37345","locality":"Sonnenstein","municipality":{"key":"16061117","name":"Sonnenstein","type":"Kreisangehörige_Gemeinde"},"district":{"key":"16061","name":"Eichsfeld","type":"Landkreis"},"federalState":{"key":"16","name":"Thüringen"}},{"name":"Wiesenstr.","postalCode":"72820","locality":"Sonnenbühl","municipality":{"key":"08415091","name":"Sonnenbühl","type":"Kreisangehörige_Gemeinde"},"district":{"key":"08415","name":"Reutlingen","type":"Landkreis"},"federalState":{"key":"08","name":"Baden-Württemberg"}},{"name":"Wilhelmstr.","postalCode":"72820","locality":"Sonnenbühl","municipality":{"key":"08415091","name":"Sonnenbühl","type":"Kreisangehörige_Gemeinde"},"district":{"key":"08415","name":"Reutlingen","type":"Landkreis"},"federalState":{"key":"08","name":"Baden-Württemberg"}},{"name":"Willmandinger Str.","postalCode":"72820","locality":"Sonnenbühl","municipality":{"key":"08415091","name":"Sonnenbühl","type":"Kreisangehörige_Gemeinde"},"district":{"key":"08415","name":"Reutlingen","type":"Landkreis"},"federalState":{"key":"08","name":"Baden-Württemberg"}},{"name":"Wilsinger Spitzweg","postalCode":"72820","locality":"Sonnenbühl","municipality":{"key":"08415091","name":"Sonnenbühl","type":"Kreisangehörige_Gemeinde"},"district":{"key":"08415","name":"Reutlingen","type":"Landkreis"},"federalState":{"key":"08","name":"Baden-Württemberg"}},{"name":"Windmühlenweg","postalCode":"37345","locality":"Sonnenstein","municipality":{"key":"16061117","name":"Sonnenstein","type":"Kreisangehörige_Gemeinde"},"district":{"key":"16061","name":"Eichsfeld","type":"Landkreis"},"federalState":{"key":"16","name":"Thüringen"}},{"name":"Windmühlstr.","postalCode":"72820","locality":"Sonnenbühl","municipality":{"key":"08415091","name":"Sonnenbühl","type":"Kreisangehörige_Gemeinde"},"district":{"key":"08415","name":"Reutlingen","type":"Landkreis"},"federalState":{"key":"08","name":"Baden-Württemberg"}},{"name":"Winkel","postalCode":"37345","locality":"Sonnenstein","municipality":{"key":"16061117","name":"Sonnenstein","type":"Kreisangehörige_Gemeinde"},"district":{"key":"16061","name":"Eichsfeld","type":"Landkreis"},"federalState":{"key":"16","name":"Thüringen"}},{"name":"Winkelstr.","postalCode":"37345","locality":"Sonnenstein","municipality":{"key":"16061117","name":"Sonnenstein","type":"Kreisangehörige_Gemeinde"},"district":{"key":"16061","name":"Eichsfeld","type":"Landkreis"},"federalState":{"key":"16","name":"Thüringen"}},{"name":"Winnenberger Str.","postalCode":"55767","locality":"Sonnenberg-Winnenberg","municipality":{"key":"07134085","name":"Sonnenberg-Winnenberg","type":"Kreisangehörige_Gemeinde"},"district":{"key":"07134","name":"Birkenfeld","type":"Landkreis"},"federalState":{"key":"07","name":"Rheinland-Pfalz"}},{"name":"Wolfsruher Weg","postalCode":"16775","locality":"Sonnenberg","municipality":{"key":"12065301","name":"Sonnenberg","type":"Kreisangehörige_Gemeinde"},"district":{"key":"12065","name":"Oberhavel","type":"Landkreis"},"federalState":{"key":"12","name":"Brandenburg"}},{"name":"Wörnershalde","postalCode":"72820","locality":"Sonnenbühl","municipality":{"key":"08415091","name":"Sonnenbühl","type":"Kreisangehörige_Gemeinde"},"district":{"key":"08415","name":"Reutlingen","type":"Landkreis"},"federalState":{"key":"08","name":"Baden-Württemberg"}},{"name":"Xandersweg","postalCode":"72820","locality":"Sonnenbühl","municipality":{"key":"08415091","name":"Sonnenbühl","type":"Kreisangehörige_Gemeinde"},"district":{"key":"08415","name":"Reutlingen","type":"Landkreis"},"federalState":{"key":"08","name":"Baden-Württemberg"}},{"name":"Zeughausstr.","postalCode":"72820","locality":"Sonnenbühl","municipality":{"key":"08415091","name":"Sonnenbühl","type":"Kreisangehörige_Gemeinde"},"district":{"key":"08415","name":"Reutlingen","type":"Landkreis"},"federalState":{"key":"08","name":"Baden-Württemberg"}},{"name":"Zimmerlochweg","postalCode":"72820","locality":"Sonnenbühl","municipality":{"key":"08415091","name":"Sonnenbühl","type":"Kreisangehörige_Gemeinde"},"district":{"key":"08415","name":"Reutlingen","type":"Landkreis"},"federalState":{"key":"08","name":"Baden-Württemberg"}},{"name":"Zum Häldele","postalCode":"72820","locality":"Sonnenbühl","municipality":{"key":"08415091","name":"Sonnenbühl","type":"Kreisangehörige_Gemeinde"},"district":{"key":"08415","name":"Reutlingen","type":"Landkreis"},"federalState":{"key":"08","name":"Baden-Württemberg"}},{"name":"Zum Teich","postalCode":"37345","locality":"Sonnenstein","municipality":{"key":"16061117","name":"Sonnenstein","type":"Kreisangehörige_Gemeinde"},"district":{"key":"16061","name":"Eichsfeld","type":"Landkreis"},"federalState":{"key":"16","name":"Thüringen"}},{"name":"Zünderstr.","postalCode":"72820","locality":"Sonnenbühl","municipality":{"key":"08415091","name":"Sonnenbühl","type":"Kreisangehörige_Gemeinde"},"district":{"key":"08415","name":"Reutlingen","type":"Landkreis"},"federalState":{"key":"08","name":"Baden-Württemberg"}},{"name":"Zwinger Dorfstr.","postalCode":"37345","locality":"Sonnenstein","municipality":{"key":"16061117","name":"Sonnenstein","type":"Kreisangehörige_Gemeinde"},"district":{"key":"16061","name":"Eichsfeld","type":"Landkreis"},"federalState":{"key":"16","name":"Thüringen"}},{"name":"Zwinger Winkel","postalCode":"37345","locality":"Sonnenstein","municipality":{"key":"16061117","name":"Sonnenstein","type":"Kreisangehörige_Gemeinde"},"district":{"key":"16061","name":"Eichsfeld","type":"Landkreis"},"federalState":{"key":"16","name":"Thüringen"}},{"name":"Zwingweg","postalCode":"72820","locality":"Sonnenbühl","municipality":{"key":"08415091","name":"Sonnenbühl","type":"Kreisangehörige_Gemeinde"},"district":{"key":"08415","name":"Reutlingen","type":"Landkreis"},"federalState":{"key":"08","name":"Baden-Württemberg"}},{"name":"Äußere Wiesäcker","postalCode":"72820","locality":"Sonnenbühl","municipality":{"key":"08415091","name":"Sonnenbühl","type":"Kreisangehörige_Gemeinde"},"district":{"key":"08415","name":"Reutlingen","type":"Landkreis"},"federalState":{"key":"08","name":"Baden-Württemberg"}},{"name":"Öschinger Str.","postalCode":"72820","locality":"Sonnenbühl","municipality":{"key":"08415091","name":"Sonnenbühl","type":"Kreisangehörige_Gemeinde"},"district":{"key":"08415","name":"Reutlingen","type":"Landkreis"},"federalState":{"key":"08","name":"Baden-Württemberg"}},{"name":"Öschinger Weg","postalCode":"72820","locality":"Sonnenbühl","municipality":{"key":"08415091","name":"Sonnenbühl","type":"Kreisangehörige_Gemeinde"},"district":{"key":"08415","name":"Reutlingen","type":"Landkreis"},"federalState":{"key":"08","name":"Baden-Württemberg"}},]