[{"key":"10024132","name":"Am Rain","postalCode":"4413","locality":"Büren SO","commune":{"key":"2472","name":"Büren (SO)","shortName":"Büren (SO)"},"district":{"key":"1104","name":"Bezirk Dorneck"},"canton":{"key":"11","code":"SO","name":"Solothurn"},"status":"Real"},{"key":"10024133","name":"Brühlweg","postalCode":"4413","locality":"Büren SO","commune":{"key":"2472","name":"Büren (SO)","shortName":"Büren (SO)"},"district":{"key":"1104","name":"Bezirk Dorneck"},"canton":{"key":"11","code":"SO","name":"Solothurn"},"status":"Real"},{"key":"10212817","name":"Buchmatt","postalCode":"4413","locality":"Büren SO","commune":{"key":"2472","name":"Büren (SO)","shortName":"Büren (SO)"},"district":{"key":"1104","name":"Bezirk Dorneck"},"canton":{"key":"11","code":"SO","name":"Solothurn"},"status":"Real"},{"key":"10024134","name":"Bündtenweg","postalCode":"4413","locality":"Büren SO","commune":{"key":"2472","name":"Büren (SO)","shortName":"Büren (SO)"},"district":{"key":"1104","name":"Bezirk Dorneck"},"canton":{"key":"11","code":"SO","name":"Solothurn"},"status":"Real"},{"key":"10071681","name":"Dremletenweg","postalCode":"4413","locality":"Büren SO","commune":{"key":"2472","name":"Büren (SO)","shortName":"Büren (SO)"},"district":{"key":"1104","name":"Bezirk Dorneck"},"canton":{"key":"11","code":"SO","name":"Solothurn"},"status":"Real"},{"key":"10094613","name":"Dummetenweg","postalCode":"4413","locality":"Büren SO","commune":{"key":"2472","name":"Büren (SO)","shortName":"Büren (SO)"},"district":{"key":"1104","name":"Bezirk Dorneck"},"canton":{"key":"11","code":"SO","name":"Solothurn"},"status":"Real"},{"key":"10024137","name":"Gässli","postalCode":"4413","locality":"Büren SO","commune":{"key":"2472","name":"Büren (SO)","shortName":"Büren (SO)"},"district":{"key":"1104","name":"Bezirk Dorneck"},"canton":{"key":"11","code":"SO","name":"Solothurn"},"status":"Real"},{"key":"10024135","name":"Gempenstrasse","postalCode":"4413","locality":"Büren SO","commune":{"key":"2472","name":"Büren (SO)","shortName":"Büren (SO)"},"district":{"key":"1104","name":"Bezirk Dorneck"},"canton":{"key":"11","code":"SO","name":"Solothurn"},"status":"Real"},{"key":"10024136","name":"Gerenhof","postalCode":"4413","locality":"Büren SO","commune":{"key":"2472","name":"Büren (SO)","shortName":"Büren (SO)"},"district":{"key":"1104","name":"Bezirk Dorneck"},"canton":{"key":"11","code":"SO","name":"Solothurn"},"status":"Real"},{"key":"10212822","name":"Güggelhofweg","postalCode":"4413","locality":"Büren SO","commune":{"key":"2472","name":"Büren (SO)","shortName":"Büren (SO)"},"district":{"key":"1104","name":"Bezirk Dorneck"},"canton":{"key":"11","code":"SO","name":"Solothurn"},"status":"Real"},{"key":"10212825","name":"Hägenhof","postalCode":"4413","locality":"Büren SO","commune":{"key":"2472","name":"Büren (SO)","shortName":"Büren (SO)"},"district":{"key":"1104","name":"Bezirk Dorneck"},"canton":{"key":"11","code":"SO","name":"Solothurn"},"status":"Real"},{"key":"10187753","name":"Haretenweg","postalCode":"4413","locality":"Büren SO","commune":{"key":"2472","name":"Büren (SO)","shortName":"Büren (SO)"},"district":{"key":"1104","name":"Bezirk Dorneck"},"canton":{"key":"11","code":"SO","name":"Solothurn"},"status":"Real"},{"key":"10212831","name":"Hobelrankweg","postalCode":"4413","locality":"Büren SO","commune":{"key":"2472","name":"Büren (SO)","shortName":"Büren (SO)"},"district":{"key":"1104","name":"Bezirk Dorneck"},"canton":{"key":"11","code":"SO","name":"Solothurn"},"status":"Real"},{"key":"10212835","name":"Hochrüti","postalCode":"4413","locality":"Büren SO","commune":{"key":"2472","name":"Büren (SO)","shortName":"Büren (SO)"},"district":{"key":"1104","name":"Bezirk Dorneck"},"canton":{"key":"11","code":"SO","name":"Solothurn"},"status":"Real"},{"key":"10055150","name":"Hofmatt","postalCode":"4413","locality":"Büren SO","commune":{"key":"2472","name":"Büren (SO)","shortName":"Büren (SO)"},"district":{"key":"1104","name":"Bezirk Dorneck"},"canton":{"key":"11","code":"SO","name":"Solothurn"},"status":"Real"},{"key":"10186062","name":"Höhenmatt","postalCode":"4413","locality":"Büren SO","commune":{"key":"2472","name":"Büren (SO)","shortName":"Büren (SO)"},"district":{"key":"1104","name":"Bezirk Dorneck"},"canton":{"key":"11","code":"SO","name":"Solothurn"},"status":"Real"},{"key":"10024139","name":"Hohle Gasse","postalCode":"4413","locality":"Büren SO","commune":{"key":"2472","name":"Büren (SO)","shortName":"Büren (SO)"},"district":{"key":"1104","name":"Bezirk Dorneck"},"canton":{"key":"11","code":"SO","name":"Solothurn"},"status":"Real"},{"key":"10071682","name":"Im Baumgarten","postalCode":"4413","locality":"Büren SO","commune":{"key":"2472","name":"Büren (SO)","shortName":"Büren (SO)"},"district":{"key":"1104","name":"Bezirk Dorneck"},"canton":{"key":"11","code":"SO","name":"Solothurn"},"status":"Real"},{"key":"10055151","name":"Im Grund","postalCode":"4413","locality":"Büren SO","commune":{"key":"2472","name":"Büren (SO)","shortName":"Büren (SO)"},"district":{"key":"1104","name":"Bezirk Dorneck"},"canton":{"key":"11","code":"SO","name":"Solothurn"},"status":"Real"},{"key":"10094615","name":"Im Schlössli","postalCode":"4413","locality":"Büren SO","commune":{"key":"2472","name":"Büren (SO)","shortName":"Büren (SO)"},"district":{"key":"1104","name":"Bezirk Dorneck"},"canton":{"key":"11","code":"SO","name":"Solothurn"},"status":"Real"},{"key":"10024140","name":"Im Winkel","postalCode":"4413","locality":"Büren SO","commune":{"key":"2472","name":"Büren (SO)","shortName":"Büren (SO)"},"district":{"key":"1104","name":"Bezirk Dorneck"},"canton":{"key":"11","code":"SO","name":"Solothurn"},"status":"Real"},{"key":"10024141","name":"Kalkofenweg","postalCode":"4413","locality":"Büren SO","commune":{"key":"2472","name":"Büren (SO)","shortName":"Büren (SO)"},"district":{"key":"1104","name":"Bezirk Dorneck"},"canton":{"key":"11","code":"SO","name":"Solothurn"},"status":"Real"},{"key":"10071683","name":"Kilpenweg","postalCode":"4413","locality":"Büren SO","commune":{"key":"2472","name":"Büren (SO)","shortName":"Büren (SO)"},"district":{"key":"1104","name":"Bezirk Dorneck"},"canton":{"key":"11","code":"SO","name":"Solothurn"},"status":"Real"},{"key":"10024142","name":"Kohlerhof","postalCode":"4413","locality":"Büren SO","commune":{"key":"2472","name":"Büren (SO)","shortName":"Büren (SO)"},"district":{"key":"1104","name":"Bezirk Dorneck"},"canton":{"key":"11","code":"SO","name":"Solothurn"},"status":"Real"},{"key":"10094616","name":"Kohliberg","postalCode":"4413","locality":"Büren SO","commune":{"key":"2472","name":"Büren (SO)","shortName":"Büren (SO)"},"district":{"key":"1104","name":"Bezirk Dorneck"},"canton":{"key":"11","code":"SO","name":"Solothurn"},"status":"Real"},{"key":"10024143","name":"Kreuzenweg","postalCode":"4413","locality":"Büren SO","commune":{"key":"2472","name":"Büren (SO)","shortName":"Büren (SO)"},"district":{"key":"1104","name":"Bezirk Dorneck"},"canton":{"key":"11","code":"SO","name":"Solothurn"},"status":"Real"},{"key":"10212839","name":"Lehmgruben","postalCode":"4413","locality":"Büren SO","commune":{"key":"2472","name":"Büren (SO)","shortName":"Büren (SO)"},"district":{"key":"1104","name":"Bezirk Dorneck"},"canton":{"key":"11","code":"SO","name":"Solothurn"},"status":"Real"},{"key":"10114227","name":"Leimengasse","postalCode":"4413","locality":"Büren SO","commune":{"key":"2472","name":"Büren (SO)","shortName":"Büren (SO)"},"district":{"key":"1104","name":"Bezirk Dorneck"},"canton":{"key":"11","code":"SO","name":"Solothurn"},"status":"Real"},{"key":"10180275","name":"Leimenhof","postalCode":"4413","locality":"Büren SO","commune":{"key":"2472","name":"Büren (SO)","shortName":"Büren (SO)"},"district":{"key":"1104","name":"Bezirk Dorneck"},"canton":{"key":"11","code":"SO","name":"Solothurn"},"status":"Real"},{"key":"10191226","name":"Liestalerstrasse","postalCode":"4413","locality":"Büren SO","commune":{"key":"2472","name":"Büren (SO)","shortName":"Büren (SO)"},"district":{"key":"1104","name":"Bezirk Dorneck"},"canton":{"key":"11","code":"SO","name":"Solothurn"},"status":"Real"},{"key":"10212843","name":"Lindengässli","postalCode":"4413","locality":"Büren SO","commune":{"key":"2472","name":"Büren (SO)","shortName":"Büren (SO)"},"district":{"key":"1104","name":"Bezirk Dorneck"},"canton":{"key":"11","code":"SO","name":"Solothurn"},"status":"Real"},{"key":"10213749","name":"Löhr","postalCode":"4413","locality":"Büren SO","commune":{"key":"2472","name":"Büren (SO)","shortName":"Büren (SO)"},"district":{"key":"1104","name":"Bezirk Dorneck"},"canton":{"key":"11","code":"SO","name":"Solothurn"},"status":"Real"},{"key":"10024144","name":"Lupsingerstrasse","postalCode":"4413","locality":"Büren SO","commune":{"key":"2472","name":"Büren (SO)","shortName":"Büren (SO)"},"district":{"key":"1104","name":"Bezirk Dorneck"},"canton":{"key":"11","code":"SO","name":"Solothurn"},"status":"Real"},{"key":"10024145","name":"Moosmattweg","postalCode":"4413","locality":"Büren SO","commune":{"key":"2472","name":"Büren (SO)","shortName":"Büren (SO)"},"district":{"key":"1104","name":"Bezirk Dorneck"},"canton":{"key":"11","code":"SO","name":"Solothurn"},"status":"Real"},{"key":"10117671","name":"Mühle","postalCode":"4413","locality":"Büren SO","commune":{"key":"2472","name":"Büren (SO)","shortName":"Büren (SO)"},"district":{"key":"1104","name":"Bezirk Dorneck"},"canton":{"key":"11","code":"SO","name":"Solothurn"},"status":"Real"},{"key":"10065869","name":"Mühleackerweg","postalCode":"4413","locality":"Büren SO","commune":{"key":"2472","name":"Büren (SO)","shortName":"Büren (SO)"},"district":{"key":"1104","name":"Bezirk Dorneck"},"canton":{"key":"11","code":"SO","name":"Solothurn"},"status":"Real"},{"key":"10213753","name":"Mühlegässli","postalCode":"4413","locality":"Büren SO","commune":{"key":"2472","name":"Büren (SO)","shortName":"Büren (SO)"},"district":{"key":"1104","name":"Bezirk Dorneck"},"canton":{"key":"11","code":"SO","name":"Solothurn"},"status":"Real"},{"key":"10213760","name":"Mühlerain","postalCode":"4413","locality":"Büren SO","commune":{"key":"2472","name":"Büren (SO)","shortName":"Büren (SO)"},"district":{"key":"1104","name":"Bezirk Dorneck"},"canton":{"key":"11","code":"SO","name":"Solothurn"},"status":"Real"},{"key":"10094617","name":"Rainmättliweg","postalCode":"4413","locality":"Büren SO","commune":{"key":"2472","name":"Büren (SO)","shortName":"Büren (SO)"},"district":{"key":"1104","name":"Bezirk Dorneck"},"canton":{"key":"11","code":"SO","name":"Solothurn"},"status":"Real"},{"key":"10178114","name":"Rebenweg","postalCode":"4413","locality":"Büren SO","commune":{"key":"2472","name":"Büren (SO)","shortName":"Büren (SO)"},"district":{"key":"1104","name":"Bezirk Dorneck"},"canton":{"key":"11","code":"SO","name":"Solothurn"},"status":"Real"},{"key":"10115076","name":"Ringweg","postalCode":"4413","locality":"Büren SO","commune":{"key":"2472","name":"Büren (SO)","shortName":"Büren (SO)"},"district":{"key":"1104","name":"Bezirk Dorneck"},"canton":{"key":"11","code":"SO","name":"Solothurn"},"status":"Real"},{"key":"10213762","name":"Rothengrund","postalCode":"4413","locality":"Büren SO","commune":{"key":"2472","name":"Büren (SO)","shortName":"Büren (SO)"},"district":{"key":"1104","name":"Bezirk Dorneck"},"canton":{"key":"11","code":"SO","name":"Solothurn"},"status":"Real"},{"key":"10186063","name":"Schlossmatt","postalCode":"4413","locality":"Büren SO","commune":{"key":"2472","name":"Büren (SO)","shortName":"Büren (SO)"},"district":{"key":"1104","name":"Bezirk Dorneck"},"canton":{"key":"11","code":"SO","name":"Solothurn"},"status":"Real"},{"key":"10190046","name":"Schlossmattweg","postalCode":"4413","locality":"Büren SO","commune":{"key":"2472","name":"Büren (SO)","shortName":"Büren (SO)"},"district":{"key":"1104","name":"Bezirk Dorneck"},"canton":{"key":"11","code":"SO","name":"Solothurn"},"status":"Real"},{"key":"10213767","name":"Schneematt","postalCode":"4413","locality":"Büren SO","commune":{"key":"2472","name":"Büren (SO)","shortName":"Büren (SO)"},"district":{"key":"1104","name":"Bezirk Dorneck"},"canton":{"key":"11","code":"SO","name":"Solothurn"},"status":"Real"},{"key":"10024146","name":"Seewenstrasse","postalCode":"4413","locality":"Büren SO","commune":{"key":"2472","name":"Büren (SO)","shortName":"Büren (SO)"},"district":{"key":"1104","name":"Bezirk Dorneck"},"canton":{"key":"11","code":"SO","name":"Solothurn"},"status":"Real"},{"key":"10156184","name":"Sternenbergweg","postalCode":"4413","locality":"Büren SO","commune":{"key":"2472","name":"Büren (SO)","shortName":"Büren (SO)"},"district":{"key":"1104","name":"Bezirk Dorneck"},"canton":{"key":"11","code":"SO","name":"Solothurn"},"status":"Real"},{"key":"10065870","name":"St. Pantaleonstrasse","postalCode":"4413","locality":"Büren SO","commune":{"key":"2472","name":"Büren (SO)","shortName":"Büren (SO)"},"district":{"key":"1104","name":"Bezirk Dorneck"},"canton":{"key":"11","code":"SO","name":"Solothurn"},"status":"Real"},{"key":"10094618","name":"Thalackerweg","postalCode":"4413","locality":"Büren SO","commune":{"key":"2472","name":"Büren (SO)","shortName":"Büren (SO)"},"district":{"key":"1104","name":"Bezirk Dorneck"},"canton":{"key":"11","code":"SO","name":"Solothurn"},"status":"Real"},{"key":"10045854","name":"Turnplatzweg","postalCode":"4413","locality":"Büren SO","commune":{"key":"2472","name":"Büren (SO)","shortName":"Büren (SO)"},"district":{"key":"1104","name":"Bezirk Dorneck"},"canton":{"key":"11","code":"SO","name":"Solothurn"},"status":"Real"},{"key":"10213770","name":"Unger Berg","postalCode":"4413","locality":"Büren SO","commune":{"key":"2472","name":"Büren (SO)","shortName":"Büren (SO)"},"district":{"key":"1104","name":"Bezirk Dorneck"},"canton":{"key":"11","code":"SO","name":"Solothurn"},"status":"Real"},{"key":"10024147","name":"Unter den Reben","postalCode":"4413","locality":"Büren SO","commune":{"key":"2472","name":"Büren (SO)","shortName":"Büren (SO)"},"district":{"key":"1104","name":"Bezirk Dorneck"},"canton":{"key":"11","code":"SO","name":"Solothurn"},"status":"Real"},{"key":"10210985","name":"Unterer Turnplatzweg","postalCode":"4413","locality":"Büren SO","commune":{"key":"2472","name":"Büren (SO)","shortName":"Büren (SO)"},"district":{"key":"1104","name":"Bezirk Dorneck"},"canton":{"key":"11","code":"SO","name":"Solothurn"},"status":"Real"},{"key":"10213774","name":"Unter Horn","postalCode":"4413","locality":"Büren SO","commune":{"key":"2472","name":"Büren (SO)","shortName":"Büren (SO)"},"district":{"key":"1104","name":"Bezirk Dorneck"},"canton":{"key":"11","code":"SO","name":"Solothurn"},"status":"Real"},]