[{"name":"Achatweg","postalCode":"09306","locality":"Königshain-Wiederau","municipality":{"key":"14522290","name":"Königshain-Wiederau","type":"Kreisangehörige_Gemeinde"},"district":{"key":"14522","name":"Mittelsachsen","type":"Landkreis"},"federalState":{"key":"14","name":"Sachsen"}},{"name":"Alte Ziegelei","postalCode":"09306","locality":"Königshain-Wiederau","municipality":{"key":"14522290","name":"Königshain-Wiederau","type":"Kreisangehörige_Gemeinde"},"district":{"key":"14522","name":"Mittelsachsen","type":"Landkreis"},"federalState":{"key":"14","name":"Sachsen"}},{"name":"Am Kindergarten","postalCode":"09306","locality":"Königshain-Wiederau","municipality":{"key":"14522290","name":"Königshain-Wiederau","type":"Kreisangehörige_Gemeinde"},"district":{"key":"14522","name":"Mittelsachsen","type":"Landkreis"},"federalState":{"key":"14","name":"Sachsen"}},{"name":"Baumschulenweg","postalCode":"09306","locality":"Königshain-Wiederau","municipality":{"key":"14522290","name":"Königshain-Wiederau","type":"Kreisangehörige_Gemeinde"},"district":{"key":"14522","name":"Mittelsachsen","type":"Landkreis"},"federalState":{"key":"14","name":"Sachsen"}},{"name":"Bergstr.","postalCode":"09306","locality":"Königshain-Wiederau","municipality":{"key":"14522290","name":"Königshain-Wiederau","type":"Kreisangehörige_Gemeinde"},"district":{"key":"14522","name":"Mittelsachsen","type":"Landkreis"},"federalState":{"key":"14","name":"Sachsen"}},{"name":"Chemnitztalstr.","postalCode":"09306","locality":"Königshain-Wiederau","municipality":{"key":"14522290","name":"Königshain-Wiederau","type":"Kreisangehörige_Gemeinde"},"district":{"key":"14522","name":"Mittelsachsen","type":"Landkreis"},"federalState":{"key":"14","name":"Sachsen"}},{"name":"Claußnitzer Str.","postalCode":"09306","locality":"Königshain-Wiederau","municipality":{"key":"14522290","name":"Königshain-Wiederau","type":"Kreisangehörige_Gemeinde"},"district":{"key":"14522","name":"Mittelsachsen","type":"Landkreis"},"federalState":{"key":"14","name":"Sachsen"}},{"name":"Dorfstr.","postalCode":"02829","locality":"Königshain","municipality":{"key":"14626240","name":"Königshain","type":"Kreisangehörige_Gemeinde"},"district":{"key":"14626","name":"Görlitz","type":"Landkreis"},"federalState":{"key":"14","name":"Sachsen"}},{"name":"Dorfstr.","postalCode":"09306","locality":"Königshain-Wiederau","municipality":{"key":"14522290","name":"Königshain-Wiederau","type":"Kreisangehörige_Gemeinde"},"district":{"key":"14522","name":"Mittelsachsen","type":"Landkreis"},"federalState":{"key":"14","name":"Sachsen"}},{"name":"Eibenweg","postalCode":"02827","locality":"Görlitz","municipality":{"key":"14626110","name":"Görlitz, Stadt","type":"Stadt"},"district":{"key":"14626","name":"Görlitz","type":"Landkreis"},"federalState":{"key":"14","name":"Sachsen"}},{"name":"Eichendorffstr.","postalCode":"02826","locality":"Görlitz","municipality":{"key":"14626110","name":"Görlitz, Stadt","type":"Stadt"},"district":{"key":"14626","name":"Görlitz","type":"Landkreis"},"federalState":{"key":"14","name":"Sachsen"}},{"name":"Einsteinstr.","postalCode":"02827","locality":"Görlitz","municipality":{"key":"14626110","name":"Görlitz, Stadt","type":"Stadt"},"district":{"key":"14626","name":"Görlitz","type":"Landkreis"},"federalState":{"key":"14","name":"Sachsen"}},{"name":"Elisabethstr.","postalCode":"02826","locality":"Görlitz","municipality":{"key":"14626110","name":"Görlitz, Stadt","type":"Stadt"},"district":{"key":"14626","name":"Görlitz","type":"Landkreis"},"federalState":{"key":"14","name":"Sachsen"}},{"name":"Elsternweg","postalCode":"02827","locality":"Görlitz","municipality":{"key":"14626110","name":"Görlitz, Stadt","type":"Stadt"},"district":{"key":"14626","name":"Görlitz","type":"Landkreis"},"federalState":{"key":"14","name":"Sachsen"}},{"name":"Emmerichstr.","postalCode":"02826","locality":"Görlitz","municipality":{"key":"14626110","name":"Görlitz, Stadt","type":"Stadt"},"district":{"key":"14626","name":"Görlitz","type":"Landkreis"},"federalState":{"key":"14","name":"Sachsen"}},{"name":"Erich-Mühsam-Str.","postalCode":"02826","locality":"Görlitz","municipality":{"key":"14626110","name":"Görlitz, Stadt","type":"Stadt"},"district":{"key":"14626","name":"Görlitz","type":"Landkreis"},"federalState":{"key":"14","name":"Sachsen"}},{"name":"Erich-Oppenheimer-Str.","postalCode":"02827","locality":"Görlitz","municipality":{"key":"14626110","name":"Görlitz, Stadt","type":"Stadt"},"district":{"key":"14626","name":"Görlitz","type":"Landkreis"},"federalState":{"key":"14","name":"Sachsen"}},{"name":"Erich-Weinert-Str.","postalCode":"02827","locality":"Görlitz","municipality":{"key":"14626110","name":"Görlitz, Stadt","type":"Stadt"},"district":{"key":"14626","name":"Görlitz","type":"Landkreis"},"federalState":{"key":"14","name":"Sachsen"}},{"name":"Ernst-Thälmann-Platz","postalCode":"02827","locality":"Görlitz","municipality":{"key":"14626110","name":"Görlitz, Stadt","type":"Stadt"},"district":{"key":"14626","name":"Görlitz","type":"Landkreis"},"federalState":{"key":"14","name":"Sachsen"}},{"name":"E-Weinert-Str.","postalCode":"02827","locality":"Görlitz","municipality":{"key":"14626110","name":"Görlitz, Stadt","type":"Stadt"},"district":{"key":"14626","name":"Görlitz","type":"Landkreis"},"federalState":{"key":"14","name":"Sachsen"}},{"name":"Felsenstr.","postalCode":"09306","locality":"Königshain-Wiederau","municipality":{"key":"14522290","name":"Königshain-Wiederau","type":"Kreisangehörige_Gemeinde"},"district":{"key":"14522","name":"Mittelsachsen","type":"Landkreis"},"federalState":{"key":"14","name":"Sachsen"}},{"name":"Frankenauer Str.","postalCode":"09306","locality":"Königshain-Wiederau","municipality":{"key":"14522290","name":"Königshain-Wiederau","type":"Kreisangehörige_Gemeinde"},"district":{"key":"14522","name":"Mittelsachsen","type":"Landkreis"},"federalState":{"key":"14","name":"Sachsen"}},{"name":"Gartenstr.","postalCode":"09306","locality":"Königshain-Wiederau","municipality":{"key":"14522290","name":"Königshain-Wiederau","type":"Kreisangehörige_Gemeinde"},"district":{"key":"14522","name":"Mittelsachsen","type":"Landkreis"},"federalState":{"key":"14","name":"Sachsen"}},{"name":"Gewerbegebiet","postalCode":"09306","locality":"Königshain-Wiederau","municipality":{"key":"14522290","name":"Königshain-Wiederau","type":"Kreisangehörige_Gemeinde"},"district":{"key":"14522","name":"Mittelsachsen","type":"Landkreis"},"federalState":{"key":"14","name":"Sachsen"}},{"name":"Goldene Aussicht","postalCode":"09306","locality":"Königshain-Wiederau","municipality":{"key":"14522290","name":"Königshain-Wiederau","type":"Kreisangehörige_Gemeinde"},"district":{"key":"14522","name":"Mittelsachsen","type":"Landkreis"},"federalState":{"key":"14","name":"Sachsen"}},{"name":"Hauptstr.","postalCode":"09306","locality":"Königshain-Wiederau","municipality":{"key":"14522290","name":"Königshain-Wiederau","type":"Kreisangehörige_Gemeinde"},"district":{"key":"14522","name":"Mittelsachsen","type":"Landkreis"},"federalState":{"key":"14","name":"Sachsen"}},{"name":"Im Bogen","postalCode":"02826","locality":"Görlitz","municipality":{"key":"14626110","name":"Görlitz, Stadt","type":"Stadt"},"district":{"key":"14626","name":"Görlitz","type":"Landkreis"},"federalState":{"key":"14","name":"Sachsen"}},{"name":"Immanuel-Kant-Str.","postalCode":"02827","locality":"Görlitz","municipality":{"key":"14626110","name":"Görlitz, Stadt","type":"Stadt"},"district":{"key":"14626","name":"Görlitz","type":"Landkreis"},"federalState":{"key":"14","name":"Sachsen"}},{"name":"In der Aue","postalCode":"02827","locality":"Görlitz","municipality":{"key":"14626110","name":"Görlitz, Stadt","type":"Stadt"},"district":{"key":"14626","name":"Görlitz","type":"Landkreis"},"federalState":{"key":"14","name":"Sachsen"}},{"name":"Jahnstr.","postalCode":"02828","locality":"Görlitz","municipality":{"key":"14626110","name":"Görlitz, Stadt","type":"Stadt"},"district":{"key":"14626","name":"Görlitz","type":"Landkreis"},"federalState":{"key":"14","name":"Sachsen"}},{"name":"Jakob-Böhme-Str.","postalCode":"02826","locality":"Görlitz","municipality":{"key":"14626110","name":"Görlitz, Stadt","type":"Stadt"},"district":{"key":"14626","name":"Görlitz","type":"Landkreis"},"federalState":{"key":"14","name":"Sachsen"}},{"name":"Jakobstr.","postalCode":"02826","locality":"Görlitz","municipality":{"key":"14626110","name":"Görlitz, Stadt","type":"Stadt"},"district":{"key":"14626","name":"Görlitz","type":"Landkreis"},"federalState":{"key":"14","name":"Sachsen"}},{"name":"Jakobstunnel","postalCode":"02826","locality":"Görlitz","municipality":{"key":"14626110","name":"Görlitz, Stadt","type":"Stadt"},"district":{"key":"14626","name":"Görlitz","type":"Landkreis"},"federalState":{"key":"14","name":"Sachsen"}},{"name":"James-von-Moltke-Str.","postalCode":"02826","locality":"Görlitz","municipality":{"key":"14626110","name":"Görlitz, Stadt","type":"Stadt"},"district":{"key":"14626","name":"Görlitz","type":"Landkreis"},"federalState":{"key":"14","name":"Sachsen"}},{"name":"Jauernicker Str.","postalCode":"02826","locality":"Görlitz","municipality":{"key":"14626110","name":"Görlitz, Stadt","type":"Stadt"},"district":{"key":"14626","name":"Görlitz","type":"Landkreis"},"federalState":{"key":"14","name":"Sachsen"}},{"name":"Jeschkenstr.","postalCode":"02826","locality":"Görlitz","municipality":{"key":"14626110","name":"Görlitz, Stadt","type":"Stadt"},"district":{"key":"14626","name":"Görlitz","type":"Landkreis"},"federalState":{"key":"14","name":"Sachsen"}},{"name":"Jochmannstr.","postalCode":"02826","locality":"Görlitz","municipality":{"key":"14626110","name":"Görlitz, Stadt","type":"Stadt"},"district":{"key":"14626","name":"Görlitz","type":"Landkreis"},"federalState":{"key":"14","name":"Sachsen"}},{"name":"Johanna-Dreyer-Str.","postalCode":"02826","locality":"Görlitz","municipality":{"key":"14626110","name":"Görlitz, Stadt","type":"Stadt"},"district":{"key":"14626","name":"Görlitz","type":"Landkreis"},"federalState":{"key":"14","name":"Sachsen"}},{"name":"Johannes-R.-Becher-Str.","postalCode":"02827","locality":"Görlitz","municipality":{"key":"14626110","name":"Görlitz, Stadt","type":"Stadt"},"district":{"key":"14626","name":"Görlitz","type":"Landkreis"},"federalState":{"key":"14","name":"Sachsen"}},{"name":"Johannes-Wüsten-Str.","postalCode":"02826","locality":"Görlitz","municipality":{"key":"14626110","name":"Görlitz, Stadt","type":"Stadt"},"district":{"key":"14626","name":"Görlitz","type":"Landkreis"},"federalState":{"key":"14","name":"Sachsen"}},{"name":"Johann-Haß-Str.","postalCode":"02826","locality":"Görlitz","municipality":{"key":"14626110","name":"Görlitz, Stadt","type":"Stadt"},"district":{"key":"14626","name":"Görlitz","type":"Landkreis"},"federalState":{"key":"14","name":"Sachsen"}},{"name":"Johann-Sebastian-Bach-Str.","postalCode":"02827","locality":"Görlitz","municipality":{"key":"14626110","name":"Görlitz, Stadt","type":"Stadt"},"district":{"key":"14626","name":"Görlitz","type":"Landkreis"},"federalState":{"key":"14","name":"Sachsen"}},{"name":"Joliot-Curie-Str.","postalCode":"02826","locality":"Görlitz","municipality":{"key":"14626110","name":"Görlitz, Stadt","type":"Stadt"},"district":{"key":"14626","name":"Görlitz","type":"Landkreis"},"federalState":{"key":"14","name":"Sachsen"}},{"name":"Jonas-Cohn-Str.","postalCode":"02827","locality":"Görlitz","municipality":{"key":"14626110","name":"Görlitz, Stadt","type":"Stadt"},"district":{"key":"14626","name":"Görlitz","type":"Landkreis"},"federalState":{"key":"14","name":"Sachsen"}},{"name":"Jüdenstr.","postalCode":"02826","locality":"Görlitz","municipality":{"key":"14626110","name":"Görlitz, Stadt","type":"Stadt"},"district":{"key":"14626","name":"Görlitz","type":"Landkreis"},"federalState":{"key":"14","name":"Sachsen"}},{"name":"Julius-Motteler-Str.","postalCode":"02827","locality":"Görlitz","municipality":{"key":"14626110","name":"Görlitz, Stadt","type":"Stadt"},"district":{"key":"14626","name":"Görlitz","type":"Landkreis"},"federalState":{"key":"14","name":"Sachsen"}},{"name":"Kirchberg","postalCode":"09306","locality":"Königshain-Wiederau","municipality":{"key":"14522290","name":"Königshain-Wiederau","type":"Kreisangehörige_Gemeinde"},"district":{"key":"14522","name":"Mittelsachsen","type":"Landkreis"},"federalState":{"key":"14","name":"Sachsen"}},{"name":"Kirchweg","postalCode":"09306","locality":"Königshain-Wiederau","municipality":{"key":"14522290","name":"Königshain-Wiederau","type":"Kreisangehörige_Gemeinde"},"district":{"key":"14522","name":"Mittelsachsen","type":"Landkreis"},"federalState":{"key":"14","name":"Sachsen"}},{"name":"Königshainer Str.","postalCode":"09306","locality":"Königshain-Wiederau","municipality":{"key":"14522290","name":"Königshain-Wiederau","type":"Kreisangehörige_Gemeinde"},"district":{"key":"14522","name":"Mittelsachsen","type":"Landkreis"},"federalState":{"key":"14","name":"Sachsen"}},{"name":"Lindenstr.","postalCode":"09306","locality":"Königshain-Wiederau","municipality":{"key":"14522290","name":"Königshain-Wiederau","type":"Kreisangehörige_Gemeinde"},"district":{"key":"14522","name":"Mittelsachsen","type":"Landkreis"},"federalState":{"key":"14","name":"Sachsen"}},{"name":"Lugweg","postalCode":"09306","locality":"Königshain-Wiederau","municipality":{"key":"14522290","name":"Königshain-Wiederau","type":"Kreisangehörige_Gemeinde"},"district":{"key":"14522","name":"Mittelsachsen","type":"Landkreis"},"federalState":{"key":"14","name":"Sachsen"}},{"name":"Lunzenauer Str.","postalCode":"09306","locality":"Königshain-Wiederau","municipality":{"key":"14522290","name":"Königshain-Wiederau","type":"Kreisangehörige_Gemeinde"},"district":{"key":"14522","name":"Mittelsachsen","type":"Landkreis"},"federalState":{"key":"14","name":"Sachsen"}},{"name":"Mittweidaer Str.","postalCode":"09306","locality":"Königshain-Wiederau","municipality":{"key":"14522290","name":"Königshain-Wiederau","type":"Kreisangehörige_Gemeinde"},"district":{"key":"14522","name":"Mittelsachsen","type":"Landkreis"},"federalState":{"key":"14","name":"Sachsen"}},{"name":"Münchsteinacher Str.","postalCode":"09306","locality":"Königshain-Wiederau","municipality":{"key":"14522290","name":"Königshain-Wiederau","type":"Kreisangehörige_Gemeinde"},"district":{"key":"14522","name":"Mittelsachsen","type":"Landkreis"},"federalState":{"key":"14","name":"Sachsen"}},{"name":"Neue Siedlung","postalCode":"09306","locality":"Königshain-Wiederau","municipality":{"key":"14522290","name":"Königshain-Wiederau","type":"Kreisangehörige_Gemeinde"},"district":{"key":"14522","name":"Mittelsachsen","type":"Landkreis"},"federalState":{"key":"14","name":"Sachsen"}},{"name":"Obere Holzstr.","postalCode":"02829","locality":"Königshain","municipality":{"key":"14626240","name":"Königshain","type":"Kreisangehörige_Gemeinde"},"district":{"key":"14626","name":"Görlitz","type":"Landkreis"},"federalState":{"key":"14","name":"Sachsen"}},{"name":"Park des Friedens","postalCode":"02826","locality":"Görlitz","municipality":{"key":"14626110","name":"Görlitz, Stadt","type":"Stadt"},"district":{"key":"14626","name":"Görlitz","type":"Landkreis"},"federalState":{"key":"14","name":"Sachsen"}},{"name":"Parkstr.","postalCode":"02826","locality":"Görlitz","municipality":{"key":"14626110","name":"Görlitz, Stadt","type":"Stadt"},"district":{"key":"14626","name":"Görlitz","type":"Landkreis"},"federalState":{"key":"14","name":"Sachsen"}},{"name":"Parsevalstr.","postalCode":"02828","locality":"Görlitz","municipality":{"key":"14626110","name":"Görlitz, Stadt","type":"Stadt"},"district":{"key":"14626","name":"Görlitz","type":"Landkreis"},"federalState":{"key":"14","name":"Sachsen"}},{"name":"Paul-Keller-Str.","postalCode":"02826","locality":"Görlitz","municipality":{"key":"14626110","name":"Görlitz, Stadt","type":"Stadt"},"district":{"key":"14626","name":"Görlitz","type":"Landkreis"},"federalState":{"key":"14","name":"Sachsen"}},{"name":"Paul-Linke-Str.","postalCode":"02827","locality":"Görlitz","municipality":{"key":"14626110","name":"Görlitz, Stadt","type":"Stadt"},"district":{"key":"14626","name":"Görlitz","type":"Landkreis"},"federalState":{"key":"14","name":"Sachsen"}},{"name":"Paul-Mühsam-Str.","postalCode":"02827","locality":"Görlitz","municipality":{"key":"14626110","name":"Görlitz, Stadt","type":"Stadt"},"district":{"key":"14626","name":"Görlitz","type":"Landkreis"},"federalState":{"key":"14","name":"Sachsen"}},{"name":"Paul-Taubadel-Str.","postalCode":"02827","locality":"Görlitz","municipality":{"key":"14626110","name":"Görlitz, Stadt","type":"Stadt"},"district":{"key":"14626","name":"Görlitz","type":"Landkreis"},"federalState":{"key":"14","name":"Sachsen"}},{"name":"Pestalozzistr.","postalCode":"02826","locality":"Görlitz","municipality":{"key":"14626110","name":"Görlitz, Stadt","type":"Stadt"},"district":{"key":"14626","name":"Görlitz","type":"Landkreis"},"federalState":{"key":"14","name":"Sachsen"}},{"name":"Peter-Liebig-Hof","postalCode":"02828","locality":"Görlitz","municipality":{"key":"14626110","name":"Görlitz, Stadt","type":"Stadt"},"district":{"key":"14626","name":"Görlitz","type":"Landkreis"},"federalState":{"key":"14","name":"Sachsen"}},{"name":"Peterstr.","postalCode":"02826","locality":"Görlitz","municipality":{"key":"14626110","name":"Görlitz, Stadt","type":"Stadt"},"district":{"key":"14626","name":"Görlitz","type":"Landkreis"},"federalState":{"key":"14","name":"Sachsen"}},{"name":"Pfaffendorfer Weg","postalCode":"02827","locality":"Görlitz","municipality":{"key":"14626110","name":"Görlitz, Stadt","type":"Stadt"},"district":{"key":"14626","name":"Görlitz","type":"Landkreis"},"federalState":{"key":"14","name":"Sachsen"}},{"name":"Pfeiffergasse","postalCode":"02828","locality":"Görlitz","municipality":{"key":"14626110","name":"Görlitz, Stadt","type":"Stadt"},"district":{"key":"14626","name":"Görlitz","type":"Landkreis"},"federalState":{"key":"14","name":"Sachsen"}},{"name":"Plantagenweg","postalCode":"02827","locality":"Görlitz","municipality":{"key":"14626110","name":"Görlitz, Stadt","type":"Stadt"},"district":{"key":"14626","name":"Görlitz","type":"Landkreis"},"federalState":{"key":"14","name":"Sachsen"}},{"name":"Plattnerstr.","postalCode":"02826","locality":"Görlitz","municipality":{"key":"14626110","name":"Görlitz, Stadt","type":"Stadt"},"district":{"key":"14626","name":"Görlitz","type":"Landkreis"},"federalState":{"key":"14","name":"Sachsen"}},{"name":"Platz der Einheit","postalCode":"02828","locality":"Görlitz","municipality":{"key":"14626110","name":"Görlitz, Stadt","type":"Stadt"},"district":{"key":"14626","name":"Görlitz","type":"Landkreis"},"federalState":{"key":"14","name":"Sachsen"}},{"name":"Platz der Friedlichen Revolution","postalCode":"02826","locality":"Görlitz","municipality":{"key":"14626110","name":"Görlitz, Stadt","type":"Stadt"},"district":{"key":"14626","name":"Görlitz","type":"Landkreis"},"federalState":{"key":"14","name":"Sachsen"}},{"name":"Pließnitztalweg","postalCode":"02827","locality":"Görlitz","municipality":{"key":"14626110","name":"Görlitz, Stadt","type":"Stadt"},"district":{"key":"14626","name":"Görlitz","type":"Landkreis"},"federalState":{"key":"14","name":"Sachsen"}},{"name":"Pomologische Gartenstr.","postalCode":"02826","locality":"Görlitz","municipality":{"key":"14626110","name":"Görlitz, Stadt","type":"Stadt"},"district":{"key":"14626","name":"Görlitz","type":"Landkreis"},"federalState":{"key":"14","name":"Sachsen"}},{"name":"Pontepark","postalCode":"02828","locality":"Görlitz","municipality":{"key":"14626110","name":"Görlitz, Stadt","type":"Stadt"},"district":{"key":"14626","name":"Görlitz","type":"Landkreis"},"federalState":{"key":"14","name":"Sachsen"}},{"name":"Pontestr.","postalCode":"02826","locality":"Görlitz","municipality":{"key":"14626110","name":"Görlitz, Stadt","type":"Stadt"},"district":{"key":"14626","name":"Görlitz","type":"Landkreis"},"federalState":{"key":"14","name":"Sachsen"}},{"name":"Posottendorfer Str.","postalCode":"02827","locality":"Görlitz","municipality":{"key":"14626110","name":"Görlitz, Stadt","type":"Stadt"},"district":{"key":"14626","name":"Görlitz","type":"Landkreis"},"federalState":{"key":"14","name":"Sachsen"}},{"name":"Postplatz","postalCode":"02826","locality":"Görlitz","municipality":{"key":"14626110","name":"Görlitz, Stadt","type":"Stadt"},"district":{"key":"14626","name":"Görlitz","type":"Landkreis"},"federalState":{"key":"14","name":"Sachsen"}},{"name":"Promenadenstr.","postalCode":"02827","locality":"Görlitz","municipality":{"key":"14626110","name":"Görlitz, Stadt","type":"Stadt"},"district":{"key":"14626","name":"Görlitz","type":"Landkreis"},"federalState":{"key":"14","name":"Sachsen"}},{"name":"Querweg","postalCode":"09306","locality":"Königshain-Wiederau","municipality":{"key":"14522290","name":"Königshain-Wiederau","type":"Kreisangehörige_Gemeinde"},"district":{"key":"14522","name":"Mittelsachsen","type":"Landkreis"},"federalState":{"key":"14","name":"Sachsen"}},{"name":"Rehbockswinkel","postalCode":"09306","locality":"Königshain-Wiederau","municipality":{"key":"14522290","name":"Königshain-Wiederau","type":"Kreisangehörige_Gemeinde"},"district":{"key":"14522","name":"Mittelsachsen","type":"Landkreis"},"federalState":{"key":"14","name":"Sachsen"}},{"name":"Rochlitzer Str.","postalCode":"09306","locality":"Königshain-Wiederau","municipality":{"key":"14522290","name":"Königshain-Wiederau","type":"Kreisangehörige_Gemeinde"},"district":{"key":"14522","name":"Mittelsachsen","type":"Landkreis"},"federalState":{"key":"14","name":"Sachsen"}},{"name":"Siedlung","postalCode":"09306","locality":"Königshain-Wiederau","municipality":{"key":"14522290","name":"Königshain-Wiederau","type":"Kreisangehörige_Gemeinde"},"district":{"key":"14522","name":"Mittelsachsen","type":"Landkreis"},"federalState":{"key":"14","name":"Sachsen"}},{"name":"Steiner Str.","postalCode":"09306","locality":"Königshain-Wiederau","municipality":{"key":"14522290","name":"Königshain-Wiederau","type":"Kreisangehörige_Gemeinde"},"district":{"key":"14522","name":"Mittelsachsen","type":"Landkreis"},"federalState":{"key":"14","name":"Sachsen"}},{"name":"Tannenweg","postalCode":"09306","locality":"Königshain-Wiederau","municipality":{"key":"14522290","name":"Königshain-Wiederau","type":"Kreisangehörige_Gemeinde"},"district":{"key":"14522","name":"Mittelsachsen","type":"Landkreis"},"federalState":{"key":"14","name":"Sachsen"}},{"name":"Topfseifersdorfer Str.","postalCode":"09306","locality":"Königshain-Wiederau","municipality":{"key":"14522290","name":"Königshain-Wiederau","type":"Kreisangehörige_Gemeinde"},"district":{"key":"14522","name":"Mittelsachsen","type":"Landkreis"},"federalState":{"key":"14","name":"Sachsen"}},{"name":"Uferpark","postalCode":"02826","locality":"Görlitz","municipality":{"key":"14626110","name":"Görlitz, Stadt","type":"Stadt"},"district":{"key":"14626","name":"Görlitz","type":"Landkreis"},"federalState":{"key":"14","name":"Sachsen"}},{"name":"Uferstr.","postalCode":"02826","locality":"Görlitz","municipality":{"key":"14626110","name":"Görlitz, Stadt","type":"Stadt"},"district":{"key":"14626","name":"Görlitz","type":"Landkreis"},"federalState":{"key":"14","name":"Sachsen"}},{"name":"Unterer Ringweg","postalCode":"02827","locality":"Görlitz","municipality":{"key":"14626110","name":"Görlitz, Stadt","type":"Stadt"},"district":{"key":"14626","name":"Görlitz","type":"Landkreis"},"federalState":{"key":"14","name":"Sachsen"}},{"name":"Unterer Rundweg","postalCode":"02827","locality":"Görlitz","municipality":{"key":"14626110","name":"Görlitz, Stadt","type":"Stadt"},"district":{"key":"14626","name":"Görlitz","type":"Landkreis"},"federalState":{"key":"14","name":"Sachsen"}},{"name":"Untermarkt","postalCode":"02826","locality":"Görlitz","municipality":{"key":"14626110","name":"Görlitz, Stadt","type":"Stadt"},"district":{"key":"14626","name":"Görlitz","type":"Landkreis"},"federalState":{"key":"14","name":"Sachsen"}},{"name":"Veilchenweg","postalCode":"02827","locality":"Görlitz","municipality":{"key":"14626110","name":"Görlitz, Stadt","type":"Stadt"},"district":{"key":"14626","name":"Görlitz","type":"Landkreis"},"federalState":{"key":"14","name":"Sachsen"}},{"name":"Verrätergasse","postalCode":"02826","locality":"Görlitz","municipality":{"key":"14626110","name":"Görlitz, Stadt","type":"Stadt"},"district":{"key":"14626","name":"Görlitz","type":"Landkreis"},"federalState":{"key":"14","name":"Sachsen"}},{"name":"Viehweg","postalCode":"02827","locality":"Görlitz","municipality":{"key":"14626110","name":"Görlitz, Stadt","type":"Stadt"},"district":{"key":"14626","name":"Görlitz","type":"Landkreis"},"federalState":{"key":"14","name":"Sachsen"}},{"name":"Virchowstr.","postalCode":"02828","locality":"Görlitz","municipality":{"key":"14626110","name":"Görlitz, Stadt","type":"Stadt"},"district":{"key":"14626","name":"Görlitz","type":"Landkreis"},"federalState":{"key":"14","name":"Sachsen"}},{"name":"Von-Rodewitz-Weg","postalCode":"02828","locality":"Görlitz","municipality":{"key":"14626110","name":"Görlitz, Stadt","type":"Stadt"},"district":{"key":"14626","name":"Görlitz","type":"Landkreis"},"federalState":{"key":"14","name":"Sachsen"}},{"name":"Wiederberg","postalCode":"09306","locality":"Königshain-Wiederau","municipality":{"key":"14522290","name":"Königshain-Wiederau","type":"Kreisangehörige_Gemeinde"},"district":{"key":"14522","name":"Mittelsachsen","type":"Landkreis"},"federalState":{"key":"14","name":"Sachsen"}},{"name":"Zur Kaufhalle","postalCode":"09306","locality":"Königshain-Wiederau","municipality":{"key":"14522290","name":"Königshain-Wiederau","type":"Kreisangehörige_Gemeinde"},"district":{"key":"14522","name":"Mittelsachsen","type":"Landkreis"},"federalState":{"key":"14","name":"Sachsen"}},]