[{"key":"10147093","name":"Chemin de Champidoux","postalCode":"1261","locality":"Marchissy","commune":{"key":"5430","name":"Marchissy","shortName":"Marchissy"},"district":{"key":"2228","name":"District de Nyon"},"canton":{"key":"22","code":"VD","name":"Vaud"},"status":"Real"},{"key":"10158746","name":"Chemin de la Creuse","postalCode":"1261","locality":"Marchissy","commune":{"key":"5430","name":"Marchissy","shortName":"Marchissy"},"district":{"key":"2228","name":"District de Nyon"},"canton":{"key":"22","code":"VD","name":"Vaud"},"status":"Real"},{"key":"10156994","name":"Chemin de la Laiterie","postalCode":"1261","locality":"Marchissy","commune":{"key":"5430","name":"Marchissy","shortName":"Marchissy"},"district":{"key":"2228","name":"District de Nyon"},"canton":{"key":"22","code":"VD","name":"Vaud"},"status":"Real"},{"key":"10043712","name":"Chemin de Pr√©-Baron","postalCode":"1261","locality":"Marchissy","commune":{"key":"5430","name":"Marchissy","shortName":"Marchissy"},"district":{"key":"2228","name":"District de Nyon"},"canton":{"key":"22","code":"VD","name":"Vaud"},"status":"Real"},{"key":"10134093","name":"Chemin des Raisses","postalCode":"1261","locality":"Marchissy","commune":{"key":"5430","name":"Marchissy","shortName":"Marchissy"},"district":{"key":"2228","name":"District de Nyon"},"canton":{"key":"22","code":"VD","name":"Vaud"},"status":"Real"},{"key":"10126946","name":"Chemin des Salles","postalCode":"1261","locality":"Marchissy","commune":{"key":"5430","name":"Marchissy","shortName":"Marchissy"},"district":{"key":"2228","name":"District de Nyon"},"canton":{"key":"22","code":"VD","name":"Vaud"},"status":"Real"},{"key":"10158747","name":"Chemin du Battoir","postalCode":"1261","locality":"Marchissy","commune":{"key":"5430","name":"Marchissy","shortName":"Marchissy"},"district":{"key":"2228","name":"District de Nyon"},"canton":{"key":"22","code":"VD","name":"Vaud"},"status":"Real"},{"key":"10160109","name":"Chemin du Sel","postalCode":"1261","locality":"Marchissy","commune":{"key":"5430","name":"Marchissy","shortName":"Marchissy"},"district":{"key":"2228","name":"District de Nyon"},"canton":{"key":"22","code":"VD","name":"Vaud"},"status":"Real"},{"key":"10156993","name":"Chemin Magnin","postalCode":"1261","locality":"Marchissy","commune":{"key":"5430","name":"Marchissy","shortName":"Marchissy"},"district":{"key":"2228","name":"District de Nyon"},"canton":{"key":"22","code":"VD","name":"Vaud"},"status":"Real"},{"key":"10043709","name":"La Foge","postalCode":"1261","locality":"Marchissy","commune":{"key":"5430","name":"Marchissy","shortName":"Marchissy"},"district":{"key":"2228","name":"District de Nyon"},"canton":{"key":"22","code":"VD","name":"Vaud"},"status":"Real"},{"key":"10057673","name":"La Refaz","postalCode":"1261","locality":"Marchissy","commune":{"key":"5430","name":"Marchissy","shortName":"Marchissy"},"district":{"key":"2228","name":"District de Nyon"},"canton":{"key":"22","code":"VD","name":"Vaud"},"status":"Real"},{"key":"10153373","name":"La Ruelle","postalCode":"1261","locality":"Marchissy","commune":{"key":"5430","name":"Marchissy","shortName":"Marchissy"},"district":{"key":"2228","name":"District de Nyon"},"canton":{"key":"22","code":"VD","name":"Vaud"},"status":"Real"},{"key":"10134490","name":"La Scie","postalCode":"1261","locality":"Marchissy","commune":{"key":"5430","name":"Marchissy","shortName":"Marchissy"},"district":{"key":"2228","name":"District de Nyon"},"canton":{"key":"22","code":"VD","name":"Vaud"},"status":"Real"},{"key":"10255427","name":"Perroude de Vaud","postalCode":"1261","locality":"Marchissy","commune":{"key":"5430","name":"Marchissy","shortName":"Marchissy"},"district":{"key":"2228","name":"District de Nyon"},"canton":{"key":"22","code":"VD","name":"Vaud"},"status":"Real"},{"key":"10160110","name":"Place du Tilleul","postalCode":"1261","locality":"Marchissy","commune":{"key":"5430","name":"Marchissy","shortName":"Marchissy"},"district":{"key":"2228","name":"District de Nyon"},"canton":{"key":"22","code":"VD","name":"Vaud"},"status":"Real"},{"key":"10156995","name":"Route des Montagnes","postalCode":"1261","locality":"Marchissy","commune":{"key":"5430","name":"Marchissy","shortName":"Marchissy"},"district":{"key":"2228","name":"District de Nyon"},"canton":{"key":"22","code":"VD","name":"Vaud"},"status":"Real"},{"key":"10156992","name":"Route du Marchairuz","postalCode":"1261","locality":"Marchissy","commune":{"key":"5430","name":"Marchissy","shortName":"Marchissy"},"district":{"key":"2228","name":"District de Nyon"},"canton":{"key":"22","code":"VD","name":"Vaud"},"status":"Real"},]