[{"name":"Am Krämer","postalCode":"56337","locality":"Kadenbach","municipality":{"key":"07143039","name":"Kadenbach","type":"Kreisangehörige_Gemeinde"},"district":{"key":"07143","name":"Westerwaldkreis","type":"Landkreis"},"federalState":{"key":"07","name":"Rheinland-Pfalz"}},{"name":"Auf der Höh","postalCode":"56337","locality":"Kadenbach","municipality":{"key":"07143039","name":"Kadenbach","type":"Kreisangehörige_Gemeinde"},"district":{"key":"07143","name":"Westerwaldkreis","type":"Landkreis"},"federalState":{"key":"07","name":"Rheinland-Pfalz"}},{"name":"Auf der Lähr","postalCode":"56337","locality":"Kadenbach","municipality":{"key":"07143039","name":"Kadenbach","type":"Kreisangehörige_Gemeinde"},"district":{"key":"07143","name":"Westerwaldkreis","type":"Landkreis"},"federalState":{"key":"07","name":"Rheinland-Pfalz"}},{"name":"Bergstr.","postalCode":"56337","locality":"Kadenbach","municipality":{"key":"07143039","name":"Kadenbach","type":"Kreisangehörige_Gemeinde"},"district":{"key":"07143","name":"Westerwaldkreis","type":"Landkreis"},"federalState":{"key":"07","name":"Rheinland-Pfalz"}},{"name":"Brunnenstr.","postalCode":"56337","locality":"Kadenbach","municipality":{"key":"07143039","name":"Kadenbach","type":"Kreisangehörige_Gemeinde"},"district":{"key":"07143","name":"Westerwaldkreis","type":"Landkreis"},"federalState":{"key":"07","name":"Rheinland-Pfalz"}},{"name":"Butterweg","postalCode":"56337","locality":"Kadenbach","municipality":{"key":"07143039","name":"Kadenbach","type":"Kreisangehörige_Gemeinde"},"district":{"key":"07143","name":"Westerwaldkreis","type":"Landkreis"},"federalState":{"key":"07","name":"Rheinland-Pfalz"}},{"name":"Emser Str.","postalCode":"56337","locality":"Kadenbach","municipality":{"key":"07143039","name":"Kadenbach","type":"Kreisangehörige_Gemeinde"},"district":{"key":"07143","name":"Westerwaldkreis","type":"Landkreis"},"federalState":{"key":"07","name":"Rheinland-Pfalz"}},{"name":"Freiherr-vom-Stein-Str.","postalCode":"56337","locality":"Kadenbach","municipality":{"key":"07143039","name":"Kadenbach","type":"Kreisangehörige_Gemeinde"},"district":{"key":"07143","name":"Westerwaldkreis","type":"Landkreis"},"federalState":{"key":"07","name":"Rheinland-Pfalz"}},{"name":"Gartenstr.","postalCode":"56337","locality":"Kadenbach","municipality":{"key":"07143039","name":"Kadenbach","type":"Kreisangehörige_Gemeinde"},"district":{"key":"07143","name":"Westerwaldkreis","type":"Landkreis"},"federalState":{"key":"07","name":"Rheinland-Pfalz"}},{"name":"Hauptstr.","postalCode":"56337","locality":"Kadenbach","municipality":{"key":"07143039","name":"Kadenbach","type":"Kreisangehörige_Gemeinde"},"district":{"key":"07143","name":"Westerwaldkreis","type":"Landkreis"},"federalState":{"key":"07","name":"Rheinland-Pfalz"}},{"name":"Hinter der Schule","postalCode":"56337","locality":"Kadenbach","municipality":{"key":"07143039","name":"Kadenbach","type":"Kreisangehörige_Gemeinde"},"district":{"key":"07143","name":"Westerwaldkreis","type":"Landkreis"},"federalState":{"key":"07","name":"Rheinland-Pfalz"}},{"name":"In der Au","postalCode":"56337","locality":"Kadenbach","municipality":{"key":"07143039","name":"Kadenbach","type":"Kreisangehörige_Gemeinde"},"district":{"key":"07143","name":"Westerwaldkreis","type":"Landkreis"},"federalState":{"key":"07","name":"Rheinland-Pfalz"}},{"name":"In der Augst","postalCode":"56337","locality":"Kadenbach","municipality":{"key":"07143039","name":"Kadenbach","type":"Kreisangehörige_Gemeinde"},"district":{"key":"07143","name":"Westerwaldkreis","type":"Landkreis"},"federalState":{"key":"07","name":"Rheinland-Pfalz"}},{"name":"In der Eck","postalCode":"56337","locality":"Kadenbach","municipality":{"key":"07143039","name":"Kadenbach","type":"Kreisangehörige_Gemeinde"},"district":{"key":"07143","name":"Westerwaldkreis","type":"Landkreis"},"federalState":{"key":"07","name":"Rheinland-Pfalz"}},{"name":"Kirchstr.","postalCode":"56337","locality":"Kadenbach","municipality":{"key":"07143039","name":"Kadenbach","type":"Kreisangehörige_Gemeinde"},"district":{"key":"07143","name":"Westerwaldkreis","type":"Landkreis"},"federalState":{"key":"07","name":"Rheinland-Pfalz"}},{"name":"Lampertsweg","postalCode":"56337","locality":"Kadenbach","municipality":{"key":"07143039","name":"Kadenbach","type":"Kreisangehörige_Gemeinde"},"district":{"key":"07143","name":"Westerwaldkreis","type":"Landkreis"},"federalState":{"key":"07","name":"Rheinland-Pfalz"}},{"name":"Limesstr.","postalCode":"56337","locality":"Kadenbach","municipality":{"key":"07143039","name":"Kadenbach","type":"Kreisangehörige_Gemeinde"},"district":{"key":"07143","name":"Westerwaldkreis","type":"Landkreis"},"federalState":{"key":"07","name":"Rheinland-Pfalz"}},{"name":"Mittelweg","postalCode":"56337","locality":"Kadenbach","municipality":{"key":"07143039","name":"Kadenbach","type":"Kreisangehörige_Gemeinde"},"district":{"key":"07143","name":"Westerwaldkreis","type":"Landkreis"},"federalState":{"key":"07","name":"Rheinland-Pfalz"}},{"name":"Naturlehrpfad Binnbachtal","postalCode":"56337","locality":"Kadenbach","municipality":{"key":"07143039","name":"Kadenbach","type":"Kreisangehörige_Gemeinde"},"district":{"key":"07143","name":"Westerwaldkreis","type":"Landkreis"},"federalState":{"key":"07","name":"Rheinland-Pfalz"}},{"name":"Römerstr.","postalCode":"56337","locality":"Kadenbach","municipality":{"key":"07143039","name":"Kadenbach","type":"Kreisangehörige_Gemeinde"},"district":{"key":"07143","name":"Westerwaldkreis","type":"Landkreis"},"federalState":{"key":"07","name":"Rheinland-Pfalz"}},{"name":"Sonnenweg","postalCode":"56337","locality":"Kadenbach","municipality":{"key":"07143039","name":"Kadenbach","type":"Kreisangehörige_Gemeinde"},"district":{"key":"07143","name":"Westerwaldkreis","type":"Landkreis"},"federalState":{"key":"07","name":"Rheinland-Pfalz"}},{"name":"Triftstr.","postalCode":"56337","locality":"Kadenbach","municipality":{"key":"07143039","name":"Kadenbach","type":"Kreisangehörige_Gemeinde"},"district":{"key":"07143","name":"Westerwaldkreis","type":"Landkreis"},"federalState":{"key":"07","name":"Rheinland-Pfalz"}},{"name":"Westerwaldstr.","postalCode":"56337","locality":"Kadenbach","municipality":{"key":"07143039","name":"Kadenbach","type":"Kreisangehörige_Gemeinde"},"district":{"key":"07143","name":"Westerwaldkreis","type":"Landkreis"},"federalState":{"key":"07","name":"Rheinland-Pfalz"}},{"name":"Zum Mühlenberg","postalCode":"56337","locality":"Kadenbach","municipality":{"key":"07143039","name":"Kadenbach","type":"Kreisangehörige_Gemeinde"},"district":{"key":"07143","name":"Westerwaldkreis","type":"Landkreis"},"federalState":{"key":"07","name":"Rheinland-Pfalz"}},]