[{"key":"10253317","name":"A Bocheferra","postalCode":"1680","locality":"Romont FR","commune":{"key":"2096","name":"Romont (FR)","shortName":"Romont (FR)"},"district":{"key":"1002","name":"District de la Glâne"},"canton":{"key":"10","code":"FR","name":"Fribourg / Freiburg"},"status":"Real"},{"key":"10253324","name":"Aux Bossonnets","postalCode":"1680","locality":"Romont FR","commune":{"key":"2096","name":"Romont (FR)","shortName":"Romont (FR)"},"district":{"key":"1002","name":"District de la Glâne"},"canton":{"key":"10","code":"FR","name":"Fribourg / Freiburg"},"status":"Real"},{"key":"10235267","name":"Avenue de la Gare","postalCode":"1680","locality":"Romont FR","commune":{"key":"2096","name":"Romont (FR)","shortName":"Romont (FR)"},"district":{"key":"1002","name":"District de la Glâne"},"canton":{"key":"10","code":"FR","name":"Fribourg / Freiburg"},"status":"Real"},{"key":"10068167","name":"Avenue Gérard Clerc","postalCode":"1680","locality":"Romont FR","commune":{"key":"2096","name":"Romont (FR)","shortName":"Romont (FR)"},"district":{"key":"1002","name":"District de la Glâne"},"canton":{"key":"10","code":"FR","name":"Fribourg / Freiburg"},"status":"Real"},{"key":"10253330","name":"Bois de Boulogne","postalCode":"1680","locality":"Romont FR","commune":{"key":"2096","name":"Romont (FR)","shortName":"Romont (FR)"},"district":{"key":"1002","name":"District de la Glâne"},"canton":{"key":"10","code":"FR","name":"Fribourg / Freiburg"},"status":"Real"},{"key":"10253481","name":"Bois de l'Epeney","postalCode":"1680","locality":"Romont FR","commune":{"key":"2096","name":"Romont (FR)","shortName":"Romont (FR)"},"district":{"key":"1002","name":"District de la Glâne"},"canton":{"key":"10","code":"FR","name":"Fribourg / Freiburg"},"status":"Real"},{"key":"10253489","name":"Caserne","postalCode":"1680","locality":"Romont FR","commune":{"key":"2096","name":"Romont (FR)","shortName":"Romont (FR)"},"district":{"key":"1002","name":"District de la Glâne"},"canton":{"key":"10","code":"FR","name":"Fribourg / Freiburg"},"status":"Real"},{"key":"10253337","name":"Champ du Devin","postalCode":"1680","locality":"Romont FR","commune":{"key":"2096","name":"Romont (FR)","shortName":"Romont (FR)"},"district":{"key":"1002","name":"District de la Glâne"},"canton":{"key":"10","code":"FR","name":"Fribourg / Freiburg"},"status":"Real"},{"key":"10194687","name":"Chemin de Charmey","postalCode":"1680","locality":"Romont FR","commune":{"key":"2096","name":"Romont (FR)","shortName":"Romont (FR)"},"district":{"key":"1002","name":"District de la Glâne"},"canton":{"key":"10","code":"FR","name":"Fribourg / Freiburg"},"status":"Real"},{"key":"10192452","name":"Chemin de Cocagne","postalCode":"1680","locality":"Romont FR","commune":{"key":"2096","name":"Romont (FR)","shortName":"Romont (FR)"},"district":{"key":"1002","name":"District de la Glâne"},"canton":{"key":"10","code":"FR","name":"Fribourg / Freiburg"},"status":"Real"},{"key":"10193981","name":"Chemin de la Bossonna","postalCode":"1680","locality":"Romont FR","commune":{"key":"2096","name":"Romont (FR)","shortName":"Romont (FR)"},"district":{"key":"1002","name":"District de la Glâne"},"canton":{"key":"10","code":"FR","name":"Fribourg / Freiburg"},"status":"Real"},{"key":"10104326","name":"Chemin de la Côte","postalCode":"1680","locality":"Romont FR","commune":{"key":"2096","name":"Romont (FR)","shortName":"Romont (FR)"},"district":{"key":"1002","name":"District de la Glâne"},"canton":{"key":"10","code":"FR","name":"Fribourg / Freiburg"},"status":"Real"},{"key":"10020667","name":"Chemin de la Gillabert","postalCode":"1680","locality":"Romont FR","commune":{"key":"2096","name":"Romont (FR)","shortName":"Romont (FR)"},"district":{"key":"1002","name":"District de la Glâne"},"canton":{"key":"10","code":"FR","name":"Fribourg / Freiburg"},"status":"Real"},{"key":"10020668","name":"Chemin de la Maula","postalCode":"1680","locality":"Romont FR","commune":{"key":"2096","name":"Romont (FR)","shortName":"Romont (FR)"},"district":{"key":"1002","name":"District de la Glâne"},"canton":{"key":"10","code":"FR","name":"Fribourg / Freiburg"},"status":"Real"},{"key":"10253085","name":"Chemin de la Montagne","postalCode":"1680","locality":"Romont FR","commune":{"key":"2096","name":"Romont (FR)","shortName":"Romont (FR)"},"district":{"key":"1002","name":"District de la Glâne"},"canton":{"key":"10","code":"FR","name":"Fribourg / Freiburg"},"status":"Real"},{"key":"10194684","name":"Chemin de la Montagne","postalCode":"1680","locality":"Romont FR","commune":{"key":"2096","name":"Romont (FR)","shortName":"Romont (FR)"},"district":{"key":"1002","name":"District de la Glâne"},"canton":{"key":"10","code":"FR","name":"Fribourg / Freiburg"},"status":"Real"},{"key":"10020669","name":"Chemin de la Terrassette","postalCode":"1680","locality":"Romont FR","commune":{"key":"2096","name":"Romont (FR)","shortName":"Romont (FR)"},"district":{"key":"1002","name":"District de la Glâne"},"canton":{"key":"10","code":"FR","name":"Fribourg / Freiburg"},"status":"Real"},{"key":"10089523","name":"Chemin des Biollettes","postalCode":"1680","locality":"Romont FR","commune":{"key":"2096","name":"Romont (FR)","shortName":"Romont (FR)"},"district":{"key":"1002","name":"District de la Glâne"},"canton":{"key":"10","code":"FR","name":"Fribourg / Freiburg"},"status":"Real"},{"key":"10020670","name":"Chemin des Bossonnets","postalCode":"1680","locality":"Romont FR","commune":{"key":"2096","name":"Romont (FR)","shortName":"Romont (FR)"},"district":{"key":"1002","name":"District de la Glâne"},"canton":{"key":"10","code":"FR","name":"Fribourg / Freiburg"},"status":"Real"},{"key":"10068168","name":"Chemin des Ecureuils","postalCode":"1680","locality":"Romont FR","commune":{"key":"2096","name":"Romont (FR)","shortName":"Romont (FR)"},"district":{"key":"1002","name":"District de la Glâne"},"canton":{"key":"10","code":"FR","name":"Fribourg / Freiburg"},"status":"Real"},{"key":"10020671","name":"Chemin des Grands Champs","postalCode":"1680","locality":"Romont FR","commune":{"key":"2096","name":"Romont (FR)","shortName":"Romont (FR)"},"district":{"key":"1002","name":"District de la Glâne"},"canton":{"key":"10","code":"FR","name":"Fribourg / Freiburg"},"status":"Real"},{"key":"10089524","name":"Chemin des Préalpes","postalCode":"1680","locality":"Romont FR","commune":{"key":"2096","name":"Romont (FR)","shortName":"Romont (FR)"},"district":{"key":"1002","name":"District de la Glâne"},"canton":{"key":"10","code":"FR","name":"Fribourg / Freiburg"},"status":"Real"},{"key":"10125753","name":"Chemin de Ste-Anne","postalCode":"1680","locality":"Romont FR","commune":{"key":"2096","name":"Romont (FR)","shortName":"Romont (FR)"},"district":{"key":"1002","name":"District de la Glâne"},"canton":{"key":"10","code":"FR","name":"Fribourg / Freiburg"},"status":"Real"},{"key":"10182759","name":"Chemin du Brit","postalCode":"1680","locality":"Romont FR","commune":{"key":"2096","name":"Romont (FR)","shortName":"Romont (FR)"},"district":{"key":"1002","name":"District de la Glâne"},"canton":{"key":"10","code":"FR","name":"Fribourg / Freiburg"},"status":"Real"},{"key":"10173196","name":"Chemin du Marais","postalCode":"1680","locality":"Romont FR","commune":{"key":"2096","name":"Romont (FR)","shortName":"Romont (FR)"},"district":{"key":"1002","name":"District de la Glâne"},"canton":{"key":"10","code":"FR","name":"Fribourg / Freiburg"},"status":"Real"},{"key":"10121367","name":"Chemin du Moléson","postalCode":"1680","locality":"Romont FR","commune":{"key":"2096","name":"Romont (FR)","shortName":"Romont (FR)"},"district":{"key":"1002","name":"District de la Glâne"},"canton":{"key":"10","code":"FR","name":"Fribourg / Freiburg"},"status":"Real"},{"key":"10193773","name":"Chemin du Pra du Marais","postalCode":"1680","locality":"Romont FR","commune":{"key":"2096","name":"Romont (FR)","shortName":"Romont (FR)"},"district":{"key":"1002","name":"District de la Glâne"},"canton":{"key":"10","code":"FR","name":"Fribourg / Freiburg"},"status":"Real"},{"key":"10102521","name":"Chemin Sous-Gare","postalCode":"1680","locality":"Romont FR","commune":{"key":"2096","name":"Romont (FR)","shortName":"Romont (FR)"},"district":{"key":"1002","name":"District de la Glâne"},"canton":{"key":"10","code":"FR","name":"Fribourg / Freiburg"},"status":"Real"},{"key":"10253343","name":"Clos de la Croix","postalCode":"1680","locality":"Romont FR","commune":{"key":"2096","name":"Romont (FR)","shortName":"Romont (FR)"},"district":{"key":"1002","name":"District de la Glâne"},"canton":{"key":"10","code":"FR","name":"Fribourg / Freiburg"},"status":"Real"},{"key":"10253348","name":"Clos Maillet","postalCode":"1680","locality":"Romont FR","commune":{"key":"2096","name":"Romont (FR)","shortName":"Romont (FR)"},"district":{"key":"1002","name":"District de la Glâne"},"canton":{"key":"10","code":"FR","name":"Fribourg / Freiburg"},"status":"Real"},{"key":"10018958","name":"Drognens","postalCode":"1680","locality":"Romont FR","commune":{"key":"2096","name":"Romont (FR)","shortName":"Romont (FR)"},"district":{"key":"1002","name":"District de la Glâne"},"canton":{"key":"10","code":"FR","name":"Fribourg / Freiburg"},"status":"Real"},{"key":"10020675","name":"Echervettes","postalCode":"1680","locality":"Romont FR","commune":{"key":"2096","name":"Romont (FR)","shortName":"Romont (FR)"},"district":{"key":"1002","name":"District de la Glâne"},"canton":{"key":"10","code":"FR","name":"Fribourg / Freiburg"},"status":"Real"},{"key":"10166700","name":"En Bouley","postalCode":"1680","locality":"Romont FR","commune":{"key":"2096","name":"Romont (FR)","shortName":"Romont (FR)"},"district":{"key":"1002","name":"District de la Glâne"},"canton":{"key":"10","code":"FR","name":"Fribourg / Freiburg"},"status":"Real"},{"key":"10182843","name":"Grand Rue","postalCode":"1680","locality":"Romont FR","commune":{"key":"2096","name":"Romont (FR)","shortName":"Romont (FR)"},"district":{"key":"1002","name":"District de la Glâne"},"canton":{"key":"10","code":"FR","name":"Fribourg / Freiburg"},"status":"Real"},{"key":"10020672","name":"Impasse de la Belle-Croix","postalCode":"1680","locality":"Romont FR","commune":{"key":"2096","name":"Romont (FR)","shortName":"Romont (FR)"},"district":{"key":"1002","name":"District de la Glâne"},"canton":{"key":"10","code":"FR","name":"Fribourg / Freiburg"},"status":"Real"},{"key":"10122950","name":"Impasse de la Maladaire","postalCode":"1680","locality":"Romont FR","commune":{"key":"2096","name":"Romont (FR)","shortName":"Romont (FR)"},"district":{"key":"1002","name":"District de la Glâne"},"canton":{"key":"10","code":"FR","name":"Fribourg / Freiburg"},"status":"Real"},{"key":"10253357","name":"La Burita","postalCode":"1680","locality":"Romont FR","commune":{"key":"2096","name":"Romont (FR)","shortName":"Romont (FR)"},"district":{"key":"1002","name":"District de la Glâne"},"canton":{"key":"10","code":"FR","name":"Fribourg / Freiburg"},"status":"Real"},{"key":"10060021","name":"La Comba","postalCode":"1680","locality":"Romont FR","commune":{"key":"2096","name":"Romont (FR)","shortName":"Romont (FR)"},"district":{"key":"1002","name":"District de la Glâne"},"canton":{"key":"10","code":"FR","name":"Fribourg / Freiburg"},"status":"Real"},{"key":"10089522","name":"La Gare","postalCode":"1680","locality":"Romont FR","commune":{"key":"2096","name":"Romont (FR)","shortName":"Romont (FR)"},"district":{"key":"1002","name":"District de la Glâne"},"canton":{"key":"10","code":"FR","name":"Fribourg / Freiburg"},"status":"Real"},{"key":"10253366","name":"La Maillarde","postalCode":"1680","locality":"Romont FR","commune":{"key":"2096","name":"Romont (FR)","shortName":"Romont (FR)"},"district":{"key":"1002","name":"District de la Glâne"},"canton":{"key":"10","code":"FR","name":"Fribourg / Freiburg"},"status":"Real"},{"key":"10143872","name":"La Vignetta","postalCode":"1680","locality":"Romont FR","commune":{"key":"2096","name":"Romont (FR)","shortName":"Romont (FR)"},"district":{"key":"1002","name":"District de la Glâne"},"canton":{"key":"10","code":"FR","name":"Fribourg / Freiburg"},"status":"Real"},{"key":"10020674","name":"Le Glaney","postalCode":"1680","locality":"Romont FR","commune":{"key":"2096","name":"Romont (FR)","shortName":"Romont (FR)"},"district":{"key":"1002","name":"District de la Glâne"},"canton":{"key":"10","code":"FR","name":"Fribourg / Freiburg"},"status":"Real"},{"key":"10253374","name":"Les Biolettes","postalCode":"1680","locality":"Romont FR","commune":{"key":"2096","name":"Romont (FR)","shortName":"Romont (FR)"},"district":{"key":"1002","name":"District de la Glâne"},"canton":{"key":"10","code":"FR","name":"Fribourg / Freiburg"},"status":"Real"},{"key":"10089525","name":"Les Rochettes","postalCode":"1680","locality":"Romont FR","commune":{"key":"2096","name":"Romont (FR)","shortName":"Romont (FR)"},"district":{"key":"1002","name":"District de la Glâne"},"canton":{"key":"10","code":"FR","name":"Fribourg / Freiburg"},"status":"Real"},{"key":"10182760","name":"Les Rochettes Dessous","postalCode":"1680","locality":"Romont FR","commune":{"key":"2096","name":"Romont (FR)","shortName":"Romont (FR)"},"district":{"key":"1002","name":"District de la Glâne"},"canton":{"key":"10","code":"FR","name":"Fribourg / Freiburg"},"status":"Real"},{"key":"10089526","name":"Les Rochettes Dessus","postalCode":"1680","locality":"Romont FR","commune":{"key":"2096","name":"Romont (FR)","shortName":"Romont (FR)"},"district":{"key":"1002","name":"District de la Glâne"},"canton":{"key":"10","code":"FR","name":"Fribourg / Freiburg"},"status":"Real"},{"key":"10068169","name":"Les Roseires","postalCode":"1680","locality":"Romont FR","commune":{"key":"2096","name":"Romont (FR)","shortName":"Romont (FR)"},"district":{"key":"1002","name":"District de la Glâne"},"canton":{"key":"10","code":"FR","name":"Fribourg / Freiburg"},"status":"Real"},{"key":"10173632","name":"PAA","postalCode":"1680","locality":"Romont FR","commune":{"key":"2096","name":"Romont (FR)","shortName":"Romont (FR)"},"district":{"key":"1002","name":"District de la Glâne"},"canton":{"key":"10","code":"FR","name":"Fribourg / Freiburg"},"status":"Real"},{"key":"10253381","name":"Parc Automobile de l'Armée","postalCode":"1680","locality":"Romont FR","commune":{"key":"2096","name":"Romont (FR)","shortName":"Romont (FR)"},"district":{"key":"1002","name":"District de la Glâne"},"canton":{"key":"10","code":"FR","name":"Fribourg / Freiburg"},"status":"Real"},{"key":"10020676","name":"Place Saint-Jacques","postalCode":"1680","locality":"Romont FR","commune":{"key":"2096","name":"Romont (FR)","shortName":"Romont (FR)"},"district":{"key":"1002","name":"District de la Glâne"},"canton":{"key":"10","code":"FR","name":"Fribourg / Freiburg"},"status":"Real"},{"key":"10020677","name":"Promenade des Avoines","postalCode":"1680","locality":"Romont FR","commune":{"key":"2096","name":"Romont (FR)","shortName":"Romont (FR)"},"district":{"key":"1002","name":"District de la Glâne"},"canton":{"key":"10","code":"FR","name":"Fribourg / Freiburg"},"status":"Real"},{"key":"10253391","name":"Rempart du Sauvage","postalCode":"1680","locality":"Romont FR","commune":{"key":"2096","name":"Romont (FR)","shortName":"Romont (FR)"},"district":{"key":"1002","name":"District de la Glâne"},"canton":{"key":"10","code":"FR","name":"Fribourg / Freiburg"},"status":"Real"},{"key":"10068170","name":"Route d'Arruffens","postalCode":"1680","locality":"Romont FR","commune":{"key":"2096","name":"Romont (FR)","shortName":"Romont (FR)"},"district":{"key":"1002","name":"District de la Glâne"},"canton":{"key":"10","code":"FR","name":"Fribourg / Freiburg"},"status":"Real"},{"key":"10020678","name":"Route de Berlens","postalCode":"1680","locality":"Romont FR","commune":{"key":"2096","name":"Romont (FR)","shortName":"Romont (FR)"},"district":{"key":"1002","name":"District de la Glâne"},"canton":{"key":"10","code":"FR","name":"Fribourg / Freiburg"},"status":"Real"},{"key":"10102522","name":"Route de Billens","postalCode":"1680","locality":"Romont FR","commune":{"key":"2096","name":"Romont (FR)","shortName":"Romont (FR)"},"district":{"key":"1002","name":"District de la Glâne"},"canton":{"key":"10","code":"FR","name":"Fribourg / Freiburg"},"status":"Real"},{"key":"10254428","name":"Route de Bocheferra","postalCode":"1680","locality":"Romont FR","commune":{"key":"2096","name":"Romont (FR)","shortName":"Romont (FR)"},"district":{"key":"1002","name":"District de la Glâne"},"canton":{"key":"10","code":"FR","name":"Fribourg / Freiburg"},"status":"Real"},{"key":"10068171","name":"Route de Bocheferra","postalCode":"1680","locality":"Romont FR","commune":{"key":"2096","name":"Romont (FR)","shortName":"Romont (FR)"},"district":{"key":"1002","name":"District de la Glâne"},"canton":{"key":"10","code":"FR","name":"Fribourg / Freiburg"},"status":"Real"},{"key":"10020679","name":"Route de Bossens","postalCode":"1680","locality":"Romont FR","commune":{"key":"2096","name":"Romont (FR)","shortName":"Romont (FR)"},"district":{"key":"1002","name":"District de la Glâne"},"canton":{"key":"10","code":"FR","name":"Fribourg / Freiburg"},"status":"Real"},{"key":"10089528","name":"Route de Fribourg","postalCode":"1680","locality":"Romont FR","commune":{"key":"2096","name":"Romont (FR)","shortName":"Romont (FR)"},"district":{"key":"1002","name":"District de la Glâne"},"canton":{"key":"10","code":"FR","name":"Fribourg / Freiburg"},"status":"Real"},{"key":"10017570","name":"Route de Fribourg","postalCode":"1680","locality":"Romont FR","commune":{"key":"2096","name":"Romont (FR)","shortName":"Romont (FR)"},"district":{"key":"1002","name":"District de la Glâne"},"canton":{"key":"10","code":"FR","name":"Fribourg / Freiburg"},"status":"Real"},{"key":"10089530","name":"Route de la Belle-Croix","postalCode":"1680","locality":"Romont FR","commune":{"key":"2096","name":"Romont (FR)","shortName":"Romont (FR)"},"district":{"key":"1002","name":"District de la Glâne"},"canton":{"key":"10","code":"FR","name":"Fribourg / Freiburg"},"status":"Real"},{"key":"10020683","name":"Route de la Comba","postalCode":"1680","locality":"Romont FR","commune":{"key":"2096","name":"Romont (FR)","shortName":"Romont (FR)"},"district":{"key":"1002","name":"District de la Glâne"},"canton":{"key":"10","code":"FR","name":"Fribourg / Freiburg"},"status":"Real"},{"key":"10182761","name":"Route de la Condémine","postalCode":"1680","locality":"Romont FR","commune":{"key":"2096","name":"Romont (FR)","shortName":"Romont (FR)"},"district":{"key":"1002","name":"District de la Glâne"},"canton":{"key":"10","code":"FR","name":"Fribourg / Freiburg"},"status":"Real"},{"key":"10020684","name":"Route de la Glâne","postalCode":"1680","locality":"Romont FR","commune":{"key":"2096","name":"Romont (FR)","shortName":"Romont (FR)"},"district":{"key":"1002","name":"District de la Glâne"},"canton":{"key":"10","code":"FR","name":"Fribourg / Freiburg"},"status":"Real"},{"key":"10020685","name":"Route de la Maillarde","postalCode":"1680","locality":"Romont FR","commune":{"key":"2096","name":"Romont (FR)","shortName":"Romont (FR)"},"district":{"key":"1002","name":"District de la Glâne"},"canton":{"key":"10","code":"FR","name":"Fribourg / Freiburg"},"status":"Real"},{"key":"10210889","name":"Route de l'Ancienne Ferme","postalCode":"1680","locality":"Romont FR","commune":{"key":"2096","name":"Romont (FR)","shortName":"Romont (FR)"},"district":{"key":"1002","name":"District de la Glâne"},"canton":{"key":"10","code":"FR","name":"Fribourg / Freiburg"},"status":"Real"},{"key":"10020682","name":"Route de l'Ancien Stand","postalCode":"1680","locality":"Romont FR","commune":{"key":"2096","name":"Romont (FR)","shortName":"Romont (FR)"},"district":{"key":"1002","name":"District de la Glâne"},"canton":{"key":"10","code":"FR","name":"Fribourg / Freiburg"},"status":"Real"},{"key":"10089532","name":"Route de la Parqueterie","postalCode":"1680","locality":"Romont FR","commune":{"key":"2096","name":"Romont (FR)","shortName":"Romont (FR)"},"district":{"key":"1002","name":"District de la Glâne"},"canton":{"key":"10","code":"FR","name":"Fribourg / Freiburg"},"status":"Real"},{"key":"10104697","name":"Route de la Perrausa","postalCode":"1680","locality":"Romont FR","commune":{"key":"2096","name":"Romont (FR)","shortName":"Romont (FR)"},"district":{"key":"1002","name":"District de la Glâne"},"canton":{"key":"10","code":"FR","name":"Fribourg / Freiburg"},"status":"Real"},{"key":"10020680","name":"Route de Lausanne","postalCode":"1680","locality":"Romont FR","commune":{"key":"2096","name":"Romont (FR)","shortName":"Romont (FR)"},"district":{"key":"1002","name":"District de la Glâne"},"canton":{"key":"10","code":"FR","name":"Fribourg / Freiburg"},"status":"Real"},{"key":"10125754","name":"Route de l'Industrie","postalCode":"1680","locality":"Romont FR","commune":{"key":"2096","name":"Romont (FR)","shortName":"Romont (FR)"},"district":{"key":"1002","name":"District de la Glâne"},"canton":{"key":"10","code":"FR","name":"Fribourg / Freiburg"},"status":"Real"},{"key":"10104328","name":"Route de Massonnens","postalCode":"1680","locality":"Romont FR","commune":{"key":"2096","name":"Romont (FR)","shortName":"Romont (FR)"},"district":{"key":"1002","name":"District de la Glâne"},"canton":{"key":"10","code":"FR","name":"Fribourg / Freiburg"},"status":"Real"},{"key":"10020681","name":"Route de Raboud","postalCode":"1680","locality":"Romont FR","commune":{"key":"2096","name":"Romont (FR)","shortName":"Romont (FR)"},"district":{"key":"1002","name":"District de la Glâne"},"canton":{"key":"10","code":"FR","name":"Fribourg / Freiburg"},"status":"Real"},{"key":"10131908","name":"Route des Barges","postalCode":"1680","locality":"Romont FR","commune":{"key":"2096","name":"Romont (FR)","shortName":"Romont (FR)"},"district":{"key":"1002","name":"District de la Glâne"},"canton":{"key":"10","code":"FR","name":"Fribourg / Freiburg"},"status":"Real"},{"key":"10068172","name":"Route des Chavannes","postalCode":"1680","locality":"Romont FR","commune":{"key":"2096","name":"Romont (FR)","shortName":"Romont (FR)"},"district":{"key":"1002","name":"District de la Glâne"},"canton":{"key":"10","code":"FR","name":"Fribourg / Freiburg"},"status":"Real"},{"key":"10020686","name":"Route des Echervettes","postalCode":"1680","locality":"Romont FR","commune":{"key":"2096","name":"Romont (FR)","shortName":"Romont (FR)"},"district":{"key":"1002","name":"District de la Glâne"},"canton":{"key":"10","code":"FR","name":"Fribourg / Freiburg"},"status":"Real"},{"key":"10089529","name":"Route de Siviriez","postalCode":"1680","locality":"Romont FR","commune":{"key":"2096","name":"Romont (FR)","shortName":"Romont (FR)"},"district":{"key":"1002","name":"District de la Glâne"},"canton":{"key":"10","code":"FR","name":"Fribourg / Freiburg"},"status":"Real"},{"key":"10076317","name":"Route des Petits Quartiers","postalCode":"1680","locality":"Romont FR","commune":{"key":"2096","name":"Romont (FR)","shortName":"Romont (FR)"},"district":{"key":"1002","name":"District de la Glâne"},"canton":{"key":"10","code":"FR","name":"Fribourg / Freiburg"},"status":"Real"},{"key":"10020687","name":"Route des Rayons","postalCode":"1680","locality":"Romont FR","commune":{"key":"2096","name":"Romont (FR)","shortName":"Romont (FR)"},"district":{"key":"1002","name":"District de la Glâne"},"canton":{"key":"10","code":"FR","name":"Fribourg / Freiburg"},"status":"Real"},{"key":"10236101","name":"Route des Trois Sapins","postalCode":"1680","locality":"Romont FR","commune":{"key":"2096","name":"Romont (FR)","shortName":"Romont (FR)"},"district":{"key":"1002","name":"District de la Glâne"},"canton":{"key":"10","code":"FR","name":"Fribourg / Freiburg"},"status":"Real"},{"key":"10020688","name":"Route du Poyet","postalCode":"1680","locality":"Romont FR","commune":{"key":"2096","name":"Romont (FR)","shortName":"Romont (FR)"},"district":{"key":"1002","name":"District de la Glâne"},"canton":{"key":"10","code":"FR","name":"Fribourg / Freiburg"},"status":"Real"},{"key":"10089527","name":"Route du Pré de la Grange","postalCode":"1680","locality":"Romont FR","commune":{"key":"2096","name":"Romont (FR)","shortName":"Romont (FR)"},"district":{"key":"1002","name":"District de la Glâne"},"canton":{"key":"10","code":"FR","name":"Fribourg / Freiburg"},"status":"Real"},{"key":"10020689","name":"Route sous l'Hôpital","postalCode":"1680","locality":"Romont FR","commune":{"key":"2096","name":"Romont (FR)","shortName":"Romont (FR)"},"district":{"key":"1002","name":"District de la Glâne"},"canton":{"key":"10","code":"FR","name":"Fribourg / Freiburg"},"status":"Real"},{"key":"10113315","name":"Rue Alexandre Cingria","postalCode":"1680","locality":"Romont FR","commune":{"key":"2096","name":"Romont (FR)","shortName":"Romont (FR)"},"district":{"key":"1002","name":"District de la Glâne"},"canton":{"key":"10","code":"FR","name":"Fribourg / Freiburg"},"status":"Real"},{"key":"10068173","name":"Rue Aliénor","postalCode":"1680","locality":"Romont FR","commune":{"key":"2096","name":"Romont (FR)","shortName":"Romont (FR)"},"district":{"key":"1002","name":"District de la Glâne"},"canton":{"key":"10","code":"FR","name":"Fribourg / Freiburg"},"status":"Real"},{"key":"10020692","name":"Rue de l'Eglise","postalCode":"1680","locality":"Romont FR","commune":{"key":"2096","name":"Romont (FR)","shortName":"Romont (FR)"},"district":{"key":"1002","name":"District de la Glâne"},"canton":{"key":"10","code":"FR","name":"Fribourg / Freiburg"},"status":"Real"},{"key":"10190504","name":"Rue des Béguines","postalCode":"1680","locality":"Romont FR","commune":{"key":"2096","name":"Romont (FR)","shortName":"Romont (FR)"},"district":{"key":"1002","name":"District de la Glâne"},"canton":{"key":"10","code":"FR","name":"Fribourg / Freiburg"},"status":"Real"},{"key":"10089534","name":"Rue des Comtes","postalCode":"1680","locality":"Romont FR","commune":{"key":"2096","name":"Romont (FR)","shortName":"Romont (FR)"},"district":{"key":"1002","name":"District de la Glâne"},"canton":{"key":"10","code":"FR","name":"Fribourg / Freiburg"},"status":"Real"},{"key":"10018945","name":"Rue des Moines","postalCode":"1680","locality":"Romont FR","commune":{"key":"2096","name":"Romont (FR)","shortName":"Romont (FR)"},"district":{"key":"1002","name":"District de la Glâne"},"canton":{"key":"10","code":"FR","name":"Fribourg / Freiburg"},"status":"Real"},{"key":"10182762","name":"Rue du Château","postalCode":"1680","locality":"Romont FR","commune":{"key":"2096","name":"Romont (FR)","shortName":"Romont (FR)"},"district":{"key":"1002","name":"District de la Glâne"},"canton":{"key":"10","code":"FR","name":"Fribourg / Freiburg"},"status":"Real"},{"key":"10020690","name":"Rue Fernand Dumas","postalCode":"1680","locality":"Romont FR","commune":{"key":"2096","name":"Romont (FR)","shortName":"Romont (FR)"},"district":{"key":"1002","name":"District de la Glâne"},"canton":{"key":"10","code":"FR","name":"Fribourg / Freiburg"},"status":"Real"},{"key":"10251663","name":"Ruelle Saint-Jacques","postalCode":"1680","locality":"Romont FR","commune":{"key":"2096","name":"Romont (FR)","shortName":"Romont (FR)"},"district":{"key":"1002","name":"District de la Glâne"},"canton":{"key":"10","code":"FR","name":"Fribourg / Freiburg"},"status":"Real"},{"key":"10162468","name":"Rue Louis Page","postalCode":"1680","locality":"Romont FR","commune":{"key":"2096","name":"Romont (FR)","shortName":"Romont (FR)"},"district":{"key":"1002","name":"District de la Glâne"},"canton":{"key":"10","code":"FR","name":"Fribourg / Freiburg"},"status":"Real"},{"key":"10089533","name":"Rue Paul Bondallaz","postalCode":"1680","locality":"Romont FR","commune":{"key":"2096","name":"Romont (FR)","shortName":"Romont (FR)"},"district":{"key":"1002","name":"District de la Glâne"},"canton":{"key":"10","code":"FR","name":"Fribourg / Freiburg"},"status":"Real"},{"key":"10020691","name":"Rue Pierre de Savoie","postalCode":"1680","locality":"Romont FR","commune":{"key":"2096","name":"Romont (FR)","shortName":"Romont (FR)"},"district":{"key":"1002","name":"District de la Glâne"},"canton":{"key":"10","code":"FR","name":"Fribourg / Freiburg"},"status":"Real"},]