[{"name":"Alte Landstr.","postalCode":"24852","locality":"Sollerup","municipality":{"key":"01059162","name":"Sollerup","type":"Kreisangehörige_Gemeinde"},"district":{"key":"01059","name":"Schleswig-Flensburg","type":"Kreis"},"federalState":{"key":"01","name":"Schleswig-Holstein"}},{"name":"Alter Kirchenweg","postalCode":"24852","locality":"Sollerup","municipality":{"key":"01059162","name":"Sollerup","type":"Kreisangehörige_Gemeinde"},"district":{"key":"01059","name":"Schleswig-Flensburg","type":"Kreis"},"federalState":{"key":"01","name":"Schleswig-Holstein"}},{"name":"Dorfstr.","postalCode":"24852","locality":"Sollerup","municipality":{"key":"01059162","name":"Sollerup","type":"Kreisangehörige_Gemeinde"},"district":{"key":"01059","name":"Schleswig-Flensburg","type":"Kreis"},"federalState":{"key":"01","name":"Schleswig-Holstein"}},{"name":"Eggebeker Str.","postalCode":"24852","locality":"Sollerup","municipality":{"key":"01059162","name":"Sollerup","type":"Kreisangehörige_Gemeinde"},"district":{"key":"01059","name":"Schleswig-Flensburg","type":"Kreis"},"federalState":{"key":"01","name":"Schleswig-Holstein"}},{"name":"Jerrisbeker Weg","postalCode":"24852","locality":"Sollerup","municipality":{"key":"01059162","name":"Sollerup","type":"Kreisangehörige_Gemeinde"},"district":{"key":"01059","name":"Schleswig-Flensburg","type":"Kreis"},"federalState":{"key":"01","name":"Schleswig-Holstein"}},{"name":"Kampweg","postalCode":"24992","locality":"Sollerup","municipality":{"key":"01059162","name":"Sollerup","type":"Kreisangehörige_Gemeinde"},"district":{"key":"01059","name":"Schleswig-Flensburg","type":"Kreis"},"federalState":{"key":"01","name":"Schleswig-Holstein"}},{"name":"Malergasse","postalCode":"24852","locality":"Sollerup","municipality":{"key":"01059162","name":"Sollerup","type":"Kreisangehörige_Gemeinde"},"district":{"key":"01059","name":"Schleswig-Flensburg","type":"Kreis"},"federalState":{"key":"01","name":"Schleswig-Holstein"}},{"name":"Meiereiweg","postalCode":"24852","locality":"Sollerup","municipality":{"key":"01059162","name":"Sollerup","type":"Kreisangehörige_Gemeinde"},"district":{"key":"01059","name":"Schleswig-Flensburg","type":"Kreis"},"federalState":{"key":"01","name":"Schleswig-Holstein"}},{"name":"Mühlenberg","postalCode":"24852","locality":"Sollerup","municipality":{"key":"01059162","name":"Sollerup","type":"Kreisangehörige_Gemeinde"},"district":{"key":"01059","name":"Schleswig-Flensburg","type":"Kreis"},"federalState":{"key":"01","name":"Schleswig-Holstein"}},{"name":"Mühlenweg","postalCode":"24852","locality":"Sollerup","municipality":{"key":"01059162","name":"Sollerup","type":"Kreisangehörige_Gemeinde"},"district":{"key":"01059","name":"Schleswig-Flensburg","type":"Kreis"},"federalState":{"key":"01","name":"Schleswig-Holstein"}},{"name":"Schulstr.","postalCode":"24852","locality":"Sollerup","municipality":{"key":"01059162","name":"Sollerup","type":"Kreisangehörige_Gemeinde"},"district":{"key":"01059","name":"Schleswig-Flensburg","type":"Kreis"},"federalState":{"key":"01","name":"Schleswig-Holstein"}},{"name":"Treeneblick","postalCode":"24852","locality":"Sollerup","municipality":{"key":"01059162","name":"Sollerup","type":"Kreisangehörige_Gemeinde"},"district":{"key":"01059","name":"Schleswig-Flensburg","type":"Kreis"},"federalState":{"key":"01","name":"Schleswig-Holstein"}},{"name":"Viöler Weg","postalCode":"24852","locality":"Sollerup","municipality":{"key":"01059162","name":"Sollerup","type":"Kreisangehörige_Gemeinde"},"district":{"key":"01059","name":"Schleswig-Flensburg","type":"Kreis"},"federalState":{"key":"01","name":"Schleswig-Holstein"}},{"name":"Wiesenweg","postalCode":"24852","locality":"Sollerup","municipality":{"key":"01059162","name":"Sollerup","type":"Kreisangehörige_Gemeinde"},"district":{"key":"01059","name":"Schleswig-Flensburg","type":"Kreis"},"federalState":{"key":"01","name":"Schleswig-Holstein"}},{"name":"Zur Erholung","postalCode":"24852","locality":"Sollerup","municipality":{"key":"01059162","name":"Sollerup","type":"Kreisangehörige_Gemeinde"},"district":{"key":"01059","name":"Schleswig-Flensburg","type":"Kreis"},"federalState":{"key":"01","name":"Schleswig-Holstein"}},]