[{"name":"Achalmstr.","postalCode":"72654","locality":"Neckartenzlingen","municipality":{"key":"08116042","name":"Neckartenzlingen","type":"Kreisangehörige_Gemeinde"},"district":{"key":"08116","name":"Esslingen","type":"Landkreis"},"federalState":{"key":"08","name":"Baden-Württemberg"}},{"name":"Ahornstr.","postalCode":"72654","locality":"Neckartenzlingen","municipality":{"key":"08116042","name":"Neckartenzlingen","type":"Kreisangehörige_Gemeinde"},"district":{"key":"08116","name":"Esslingen","type":"Landkreis"},"federalState":{"key":"08","name":"Baden-Württemberg"}},{"name":"Alemannenstr.","postalCode":"72654","locality":"Neckartenzlingen","municipality":{"key":"08116042","name":"Neckartenzlingen","type":"Kreisangehörige_Gemeinde"},"district":{"key":"08116","name":"Esslingen","type":"Landkreis"},"federalState":{"key":"08","name":"Baden-Württemberg"}},{"name":"Altdorfer Str.","postalCode":"72654","locality":"Neckartenzlingen","municipality":{"key":"08116042","name":"Neckartenzlingen","type":"Kreisangehörige_Gemeinde"},"district":{"key":"08116","name":"Esslingen","type":"Landkreis"},"federalState":{"key":"08","name":"Baden-Württemberg"}},{"name":"Alter Postweg","postalCode":"72654","locality":"Neckartenzlingen","municipality":{"key":"08116042","name":"Neckartenzlingen","type":"Kreisangehörige_Gemeinde"},"district":{"key":"08116","name":"Esslingen","type":"Landkreis"},"federalState":{"key":"08","name":"Baden-Württemberg"}},{"name":"Amselweg","postalCode":"72654","locality":"Neckartenzlingen","municipality":{"key":"08116042","name":"Neckartenzlingen","type":"Kreisangehörige_Gemeinde"},"district":{"key":"08116","name":"Esslingen","type":"Landkreis"},"federalState":{"key":"08","name":"Baden-Württemberg"}},{"name":"Auwiesen","postalCode":"72654","locality":"Neckartenzlingen","municipality":{"key":"08116042","name":"Neckartenzlingen","type":"Kreisangehörige_Gemeinde"},"district":{"key":"08116","name":"Esslingen","type":"Landkreis"},"federalState":{"key":"08","name":"Baden-Württemberg"}},{"name":"Berliner Str.","postalCode":"72654","locality":"Neckartenzlingen","municipality":{"key":"08116042","name":"Neckartenzlingen","type":"Kreisangehörige_Gemeinde"},"district":{"key":"08116","name":"Esslingen","type":"Landkreis"},"federalState":{"key":"08","name":"Baden-Württemberg"}},{"name":"Birkenstr.","postalCode":"72654","locality":"Neckartenzlingen","municipality":{"key":"08116042","name":"Neckartenzlingen","type":"Kreisangehörige_Gemeinde"},"district":{"key":"08116","name":"Esslingen","type":"Landkreis"},"federalState":{"key":"08","name":"Baden-Württemberg"}},{"name":"Brandenburger Str.","postalCode":"72654","locality":"Neckartenzlingen","municipality":{"key":"08116042","name":"Neckartenzlingen","type":"Kreisangehörige_Gemeinde"},"district":{"key":"08116","name":"Esslingen","type":"Landkreis"},"federalState":{"key":"08","name":"Baden-Württemberg"}},{"name":"Bruckwiesenstr.","postalCode":"72654","locality":"Neckartenzlingen","municipality":{"key":"08116042","name":"Neckartenzlingen","type":"Kreisangehörige_Gemeinde"},"district":{"key":"08116","name":"Esslingen","type":"Landkreis"},"federalState":{"key":"08","name":"Baden-Württemberg"}},{"name":"Buchenstr.","postalCode":"72654","locality":"Neckartenzlingen","municipality":{"key":"08116042","name":"Neckartenzlingen","type":"Kreisangehörige_Gemeinde"},"district":{"key":"08116","name":"Esslingen","type":"Landkreis"},"federalState":{"key":"08","name":"Baden-Württemberg"}},{"name":"Camererweg","postalCode":"73732","locality":"Esslingen am Neckar","municipality":{"key":"08116019","name":"Esslingen am Neckar, Stadt","type":"Große_Kreisstadt"},"district":{"key":"08116","name":"Esslingen","type":"Landkreis"},"federalState":{"key":"08","name":"Baden-Württemberg"}},{"name":"Cannstatter Str.","postalCode":"73733","locality":"Esslingen am Neckar","municipality":{"key":"08116019","name":"Esslingen am Neckar, Stadt","type":"Große_Kreisstadt"},"district":{"key":"08116","name":"Esslingen","type":"Landkreis"},"federalState":{"key":"08","name":"Baden-Württemberg"}},{"name":"Champagnestr.","postalCode":"73734","locality":"Esslingen am Neckar","municipality":{"key":"08116019","name":"Esslingen am Neckar, Stadt","type":"Große_Kreisstadt"},"district":{"key":"08116","name":"Esslingen","type":"Landkreis"},"federalState":{"key":"08","name":"Baden-Württemberg"}},{"name":"Charlottenplatz","postalCode":"73728","locality":"Esslingen am Neckar","municipality":{"key":"08116019","name":"Esslingen am Neckar, Stadt","type":"Große_Kreisstadt"},"district":{"key":"08116","name":"Esslingen","type":"Landkreis"},"federalState":{"key":"08","name":"Baden-Württemberg"}},{"name":"Christian-Fink-Str.","postalCode":"73732","locality":"Esslingen am Neckar","municipality":{"key":"08116019","name":"Esslingen am Neckar, Stadt","type":"Große_Kreisstadt"},"district":{"key":"08116","name":"Esslingen","type":"Landkreis"},"federalState":{"key":"08","name":"Baden-Württemberg"}},{"name":"Christian-Knayer-Str.","postalCode":"73734","locality":"Esslingen am Neckar","municipality":{"key":"08116019","name":"Esslingen am Neckar, Stadt","type":"Große_Kreisstadt"},"district":{"key":"08116","name":"Esslingen","type":"Landkreis"},"federalState":{"key":"08","name":"Baden-Württemberg"}},{"name":"Christophstr.","postalCode":"73734","locality":"Esslingen am Neckar","municipality":{"key":"08116019","name":"Esslingen am Neckar, Stadt","type":"Große_Kreisstadt"},"district":{"key":"08116","name":"Esslingen","type":"Landkreis"},"federalState":{"key":"08","name":"Baden-Württemberg"}},{"name":"Danziger Str.","postalCode":"72654","locality":"Neckartenzlingen","municipality":{"key":"08116042","name":"Neckartenzlingen","type":"Kreisangehörige_Gemeinde"},"district":{"key":"08116","name":"Esslingen","type":"Landkreis"},"federalState":{"key":"08","name":"Baden-Württemberg"}},{"name":"Drosselweg","postalCode":"72654","locality":"Neckartenzlingen","municipality":{"key":"08116042","name":"Neckartenzlingen","type":"Kreisangehörige_Gemeinde"},"district":{"key":"08116","name":"Esslingen","type":"Landkreis"},"federalState":{"key":"08","name":"Baden-Württemberg"}},{"name":"Eichendorffstr.","postalCode":"72654","locality":"Neckartenzlingen","municipality":{"key":"08116042","name":"Neckartenzlingen","type":"Kreisangehörige_Gemeinde"},"district":{"key":"08116","name":"Esslingen","type":"Landkreis"},"federalState":{"key":"08","name":"Baden-Württemberg"}},{"name":"Eichwasenring","postalCode":"72654","locality":"Neckartenzlingen","municipality":{"key":"08116042","name":"Neckartenzlingen","type":"Kreisangehörige_Gemeinde"},"district":{"key":"08116","name":"Esslingen","type":"Landkreis"},"federalState":{"key":"08","name":"Baden-Württemberg"}},{"name":"Erlenweg","postalCode":"72654","locality":"Neckartenzlingen","municipality":{"key":"08116042","name":"Neckartenzlingen","type":"Kreisangehörige_Gemeinde"},"district":{"key":"08116","name":"Esslingen","type":"Landkreis"},"federalState":{"key":"08","name":"Baden-Württemberg"}},{"name":"Ermsbrückle","postalCode":"72654","locality":"Neckartenzlingen","municipality":{"key":"08116042","name":"Neckartenzlingen","type":"Kreisangehörige_Gemeinde"},"district":{"key":"08116","name":"Esslingen","type":"Landkreis"},"federalState":{"key":"08","name":"Baden-Württemberg"}},{"name":"Ermsstr.","postalCode":"72654","locality":"Neckartenzlingen","municipality":{"key":"08116042","name":"Neckartenzlingen","type":"Kreisangehörige_Gemeinde"},"district":{"key":"08116","name":"Esslingen","type":"Landkreis"},"federalState":{"key":"08","name":"Baden-Württemberg"}},{"name":"Finkenweg","postalCode":"72654","locality":"Neckartenzlingen","municipality":{"key":"08116042","name":"Neckartenzlingen","type":"Kreisangehörige_Gemeinde"},"district":{"key":"08116","name":"Esslingen","type":"Landkreis"},"federalState":{"key":"08","name":"Baden-Württemberg"}},{"name":"Freiherr-von-Stein-Str.","postalCode":"72654","locality":"Neckartenzlingen","municipality":{"key":"08116042","name":"Neckartenzlingen","type":"Kreisangehörige_Gemeinde"},"district":{"key":"08116","name":"Esslingen","type":"Landkreis"},"federalState":{"key":"08","name":"Baden-Württemberg"}},{"name":"Friedrich-List-Str.","postalCode":"72654","locality":"Neckartenzlingen","municipality":{"key":"08116042","name":"Neckartenzlingen","type":"Kreisangehörige_Gemeinde"},"district":{"key":"08116","name":"Esslingen","type":"Landkreis"},"federalState":{"key":"08","name":"Baden-Württemberg"}},{"name":"Fuchsäcker","postalCode":"72654","locality":"Neckartenzlingen","municipality":{"key":"08116042","name":"Neckartenzlingen","type":"Kreisangehörige_Gemeinde"},"district":{"key":"08116","name":"Esslingen","type":"Landkreis"},"federalState":{"key":"08","name":"Baden-Württemberg"}},{"name":"Gallenweg","postalCode":"72654","locality":"Neckartenzlingen","municipality":{"key":"08116042","name":"Neckartenzlingen","type":"Kreisangehörige_Gemeinde"},"district":{"key":"08116","name":"Esslingen","type":"Landkreis"},"federalState":{"key":"08","name":"Baden-Württemberg"}},{"name":"Gartenstr.","postalCode":"72654","locality":"Neckartenzlingen","municipality":{"key":"08116042","name":"Neckartenzlingen","type":"Kreisangehörige_Gemeinde"},"district":{"key":"08116","name":"Esslingen","type":"Landkreis"},"federalState":{"key":"08","name":"Baden-Württemberg"}},{"name":"Gerokstr.","postalCode":"72654","locality":"Neckartenzlingen","municipality":{"key":"08116042","name":"Neckartenzlingen","type":"Kreisangehörige_Gemeinde"},"district":{"key":"08116","name":"Esslingen","type":"Landkreis"},"federalState":{"key":"08","name":"Baden-Württemberg"}},{"name":"Goethestr.","postalCode":"72654","locality":"Neckartenzlingen","municipality":{"key":"08116042","name":"Neckartenzlingen","type":"Kreisangehörige_Gemeinde"},"district":{"key":"08116","name":"Esslingen","type":"Landkreis"},"federalState":{"key":"08","name":"Baden-Württemberg"}},{"name":"Hafnergasse","postalCode":"72654","locality":"Neckartenzlingen","municipality":{"key":"08116042","name":"Neckartenzlingen","type":"Kreisangehörige_Gemeinde"},"district":{"key":"08116","name":"Esslingen","type":"Landkreis"},"federalState":{"key":"08","name":"Baden-Württemberg"}},{"name":"Haldenweg","postalCode":"72654","locality":"Neckartenzlingen","municipality":{"key":"08116042","name":"Neckartenzlingen","type":"Kreisangehörige_Gemeinde"},"district":{"key":"08116","name":"Esslingen","type":"Landkreis"},"federalState":{"key":"08","name":"Baden-Württemberg"}},{"name":"Hauffstr.","postalCode":"72654","locality":"Neckartenzlingen","municipality":{"key":"08116042","name":"Neckartenzlingen","type":"Kreisangehörige_Gemeinde"},"district":{"key":"08116","name":"Esslingen","type":"Landkreis"},"federalState":{"key":"08","name":"Baden-Württemberg"}},{"name":"Hauptstr.","postalCode":"72654","locality":"Neckartenzlingen","municipality":{"key":"08116042","name":"Neckartenzlingen","type":"Kreisangehörige_Gemeinde"},"district":{"key":"08116","name":"Esslingen","type":"Landkreis"},"federalState":{"key":"08","name":"Baden-Württemberg"}},{"name":"Hindenburgstr.","postalCode":"72654","locality":"Neckartenzlingen","municipality":{"key":"08116042","name":"Neckartenzlingen","type":"Kreisangehörige_Gemeinde"},"district":{"key":"08116","name":"Esslingen","type":"Landkreis"},"federalState":{"key":"08","name":"Baden-Württemberg"}},{"name":"Hinter Holz","postalCode":"72654","locality":"Neckartenzlingen","municipality":{"key":"08116042","name":"Neckartenzlingen","type":"Kreisangehörige_Gemeinde"},"district":{"key":"08116","name":"Esslingen","type":"Landkreis"},"federalState":{"key":"08","name":"Baden-Württemberg"}},{"name":"Hohenneuffenstr.","postalCode":"72654","locality":"Neckartenzlingen","municipality":{"key":"08116042","name":"Neckartenzlingen","type":"Kreisangehörige_Gemeinde"},"district":{"key":"08116","name":"Esslingen","type":"Landkreis"},"federalState":{"key":"08","name":"Baden-Württemberg"}},{"name":"Hohe Str.","postalCode":"72654","locality":"Neckartenzlingen","municipality":{"key":"08116042","name":"Neckartenzlingen","type":"Kreisangehörige_Gemeinde"},"district":{"key":"08116","name":"Esslingen","type":"Landkreis"},"federalState":{"key":"08","name":"Baden-Württemberg"}},{"name":"Hölderlinstr.","postalCode":"72654","locality":"Neckartenzlingen","municipality":{"key":"08116042","name":"Neckartenzlingen","type":"Kreisangehörige_Gemeinde"},"district":{"key":"08116","name":"Esslingen","type":"Landkreis"},"federalState":{"key":"08","name":"Baden-Württemberg"}},{"name":"Im Greut","postalCode":"72654","locality":"Neckartenzlingen","municipality":{"key":"08116042","name":"Neckartenzlingen","type":"Kreisangehörige_Gemeinde"},"district":{"key":"08116","name":"Esslingen","type":"Landkreis"},"federalState":{"key":"08","name":"Baden-Württemberg"}},{"name":"Im Oberen Rotenbach","postalCode":"72654","locality":"Neckartenzlingen","municipality":{"key":"08116042","name":"Neckartenzlingen","type":"Kreisangehörige_Gemeinde"},"district":{"key":"08116","name":"Esslingen","type":"Landkreis"},"federalState":{"key":"08","name":"Baden-Württemberg"}},{"name":"Im Rotenbach","postalCode":"72654","locality":"Neckartenzlingen","municipality":{"key":"08116042","name":"Neckartenzlingen","type":"Kreisangehörige_Gemeinde"},"district":{"key":"08116","name":"Esslingen","type":"Landkreis"},"federalState":{"key":"08","name":"Baden-Württemberg"}},{"name":"Im Veitengarten","postalCode":"72654","locality":"Neckartenzlingen","municipality":{"key":"08116042","name":"Neckartenzlingen","type":"Kreisangehörige_Gemeinde"},"district":{"key":"08116","name":"Esslingen","type":"Landkreis"},"federalState":{"key":"08","name":"Baden-Württemberg"}},{"name":"Im Wasen","postalCode":"72654","locality":"Neckartenzlingen","municipality":{"key":"08116042","name":"Neckartenzlingen","type":"Kreisangehörige_Gemeinde"},"district":{"key":"08116","name":"Esslingen","type":"Landkreis"},"federalState":{"key":"08","name":"Baden-Württemberg"}},{"name":"In den Fleckenäckern","postalCode":"72654","locality":"Neckartenzlingen","municipality":{"key":"08116042","name":"Neckartenzlingen","type":"Kreisangehörige_Gemeinde"},"district":{"key":"08116","name":"Esslingen","type":"Landkreis"},"federalState":{"key":"08","name":"Baden-Württemberg"}},{"name":"In der Boindte","postalCode":"72654","locality":"Neckartenzlingen","municipality":{"key":"08116042","name":"Neckartenzlingen","type":"Kreisangehörige_Gemeinde"},"district":{"key":"08116","name":"Esslingen","type":"Landkreis"},"federalState":{"key":"08","name":"Baden-Württemberg"}},{"name":"In der Steige","postalCode":"72654","locality":"Neckartenzlingen","municipality":{"key":"08116042","name":"Neckartenzlingen","type":"Kreisangehörige_Gemeinde"},"district":{"key":"08116","name":"Esslingen","type":"Landkreis"},"federalState":{"key":"08","name":"Baden-Württemberg"}},{"name":"Inselstr.","postalCode":"72654","locality":"Neckartenzlingen","municipality":{"key":"08116042","name":"Neckartenzlingen","type":"Kreisangehörige_Gemeinde"},"district":{"key":"08116","name":"Esslingen","type":"Landkreis"},"federalState":{"key":"08","name":"Baden-Württemberg"}},{"name":"Jägersteig","postalCode":"73734","locality":"Esslingen am Neckar","municipality":{"key":"08116019","name":"Esslingen am Neckar, Stadt","type":"Große_Kreisstadt"},"district":{"key":"08116","name":"Esslingen","type":"Landkreis"},"federalState":{"key":"08","name":"Baden-Württemberg"}},{"name":"Jakobstr.","postalCode":"73734","locality":"Esslingen am Neckar","municipality":{"key":"08116019","name":"Esslingen am Neckar, Stadt","type":"Große_Kreisstadt"},"district":{"key":"08116","name":"Esslingen","type":"Landkreis"},"federalState":{"key":"08","name":"Baden-Württemberg"}},{"name":"J.-F.-Schreiber-Weg","postalCode":"73728","locality":"Esslingen am Neckar","municipality":{"key":"08116019","name":"Esslingen am Neckar, Stadt","type":"Große_Kreisstadt"},"district":{"key":"08116","name":"Esslingen","type":"Landkreis"},"federalState":{"key":"08","name":"Baden-Württemberg"}},{"name":"Johannesstr.","postalCode":"73730","locality":"Esslingen am Neckar","municipality":{"key":"08116019","name":"Esslingen am Neckar, Stadt","type":"Große_Kreisstadt"},"district":{"key":"08116","name":"Esslingen","type":"Landkreis"},"federalState":{"key":"08","name":"Baden-Württemberg"}},{"name":"Julius-Motteler-Str.","postalCode":"73728","locality":"Esslingen am Neckar","municipality":{"key":"08116019","name":"Esslingen am Neckar, Stadt","type":"Große_Kreisstadt"},"district":{"key":"08116","name":"Esslingen","type":"Landkreis"},"federalState":{"key":"08","name":"Baden-Württemberg"}},{"name":"Jurastr.","postalCode":"73734","locality":"Esslingen am Neckar","municipality":{"key":"08116019","name":"Esslingen am Neckar, Stadt","type":"Große_Kreisstadt"},"district":{"key":"08116","name":"Esslingen","type":"Landkreis"},"federalState":{"key":"08","name":"Baden-Württemberg"}},{"name":"Jusiweg","postalCode":"73734","locality":"Esslingen am Neckar","municipality":{"key":"08116019","name":"Esslingen am Neckar, Stadt","type":"Große_Kreisstadt"},"district":{"key":"08116","name":"Esslingen","type":"Landkreis"},"federalState":{"key":"08","name":"Baden-Württemberg"}},{"name":"Karlstr.","postalCode":"72654","locality":"Neckartenzlingen","municipality":{"key":"08116042","name":"Neckartenzlingen","type":"Kreisangehörige_Gemeinde"},"district":{"key":"08116","name":"Esslingen","type":"Landkreis"},"federalState":{"key":"08","name":"Baden-Württemberg"}},{"name":"Kelterplatz","postalCode":"72654","locality":"Neckartenzlingen","municipality":{"key":"08116042","name":"Neckartenzlingen","type":"Kreisangehörige_Gemeinde"},"district":{"key":"08116","name":"Esslingen","type":"Landkreis"},"federalState":{"key":"08","name":"Baden-Württemberg"}},{"name":"Kiefernweg","postalCode":"72654","locality":"Neckartenzlingen","municipality":{"key":"08116042","name":"Neckartenzlingen","type":"Kreisangehörige_Gemeinde"},"district":{"key":"08116","name":"Esslingen","type":"Landkreis"},"federalState":{"key":"08","name":"Baden-Württemberg"}},{"name":"Kirchbachgasse","postalCode":"72654","locality":"Neckartenzlingen","municipality":{"key":"08116042","name":"Neckartenzlingen","type":"Kreisangehörige_Gemeinde"},"district":{"key":"08116","name":"Esslingen","type":"Landkreis"},"federalState":{"key":"08","name":"Baden-Württemberg"}},{"name":"Kirschwasenweg","postalCode":"72654","locality":"Neckartenzlingen","municipality":{"key":"08116042","name":"Neckartenzlingen","type":"Kreisangehörige_Gemeinde"},"district":{"key":"08116","name":"Esslingen","type":"Landkreis"},"federalState":{"key":"08","name":"Baden-Württemberg"}},{"name":"Klärwerkstr.","postalCode":"72658","locality":"Neckartenzlingen","municipality":{"key":"08116042","name":"Neckartenzlingen","type":"Kreisangehörige_Gemeinde"},"district":{"key":"08116","name":"Esslingen","type":"Landkreis"},"federalState":{"key":"08","name":"Baden-Württemberg"}},{"name":"Krummenäcker","postalCode":"72654","locality":"Neckartenzlingen","municipality":{"key":"08116042","name":"Neckartenzlingen","type":"Kreisangehörige_Gemeinde"},"district":{"key":"08116","name":"Esslingen","type":"Landkreis"},"federalState":{"key":"08","name":"Baden-Württemberg"}},{"name":"Kühstelle","postalCode":"72654","locality":"Neckartenzlingen","municipality":{"key":"08116042","name":"Neckartenzlingen","type":"Kreisangehörige_Gemeinde"},"district":{"key":"08116","name":"Esslingen","type":"Landkreis"},"federalState":{"key":"08","name":"Baden-Württemberg"}},{"name":"Lerchenweg","postalCode":"72654","locality":"Neckartenzlingen","municipality":{"key":"08116042","name":"Neckartenzlingen","type":"Kreisangehörige_Gemeinde"},"district":{"key":"08116","name":"Esslingen","type":"Landkreis"},"federalState":{"key":"08","name":"Baden-Württemberg"}},{"name":"Lindenstr.","postalCode":"72654","locality":"Neckartenzlingen","municipality":{"key":"08116042","name":"Neckartenzlingen","type":"Kreisangehörige_Gemeinde"},"district":{"key":"08116","name":"Esslingen","type":"Landkreis"},"federalState":{"key":"08","name":"Baden-Württemberg"}},{"name":"Marktplatz","postalCode":"72654","locality":"Neckartenzlingen","municipality":{"key":"08116042","name":"Neckartenzlingen","type":"Kreisangehörige_Gemeinde"},"district":{"key":"08116","name":"Esslingen","type":"Landkreis"},"federalState":{"key":"08","name":"Baden-Württemberg"}},{"name":"Meisenweg","postalCode":"72654","locality":"Neckartenzlingen","municipality":{"key":"08116042","name":"Neckartenzlingen","type":"Kreisangehörige_Gemeinde"},"district":{"key":"08116","name":"Esslingen","type":"Landkreis"},"federalState":{"key":"08","name":"Baden-Württemberg"}},{"name":"Melchiorstr.","postalCode":"72654","locality":"Neckartenzlingen","municipality":{"key":"08116042","name":"Neckartenzlingen","type":"Kreisangehörige_Gemeinde"},"district":{"key":"08116","name":"Esslingen","type":"Landkreis"},"federalState":{"key":"08","name":"Baden-Württemberg"}},{"name":"Metzinger Str.","postalCode":"72654","locality":"Neckartenzlingen","municipality":{"key":"08116042","name":"Neckartenzlingen","type":"Kreisangehörige_Gemeinde"},"district":{"key":"08116","name":"Esslingen","type":"Landkreis"},"federalState":{"key":"08","name":"Baden-Württemberg"}},{"name":"Mörikestr.","postalCode":"72654","locality":"Neckartenzlingen","municipality":{"key":"08116042","name":"Neckartenzlingen","type":"Kreisangehörige_Gemeinde"},"district":{"key":"08116","name":"Esslingen","type":"Landkreis"},"federalState":{"key":"08","name":"Baden-Württemberg"}},{"name":"Mühlstr.","postalCode":"72654","locality":"Neckartenzlingen","municipality":{"key":"08116042","name":"Neckartenzlingen","type":"Kreisangehörige_Gemeinde"},"district":{"key":"08116","name":"Esslingen","type":"Landkreis"},"federalState":{"key":"08","name":"Baden-Württemberg"}},{"name":"Neckarburg","postalCode":"72654","locality":"Neckartenzlingen","municipality":{"key":"08116042","name":"Neckartenzlingen","type":"Kreisangehörige_Gemeinde"},"district":{"key":"08116","name":"Esslingen","type":"Landkreis"},"federalState":{"key":"08","name":"Baden-Württemberg"}},{"name":"Neckarstr.","postalCode":"72654","locality":"Neckartenzlingen","municipality":{"key":"08116042","name":"Neckartenzlingen","type":"Kreisangehörige_Gemeinde"},"district":{"key":"08116","name":"Esslingen","type":"Landkreis"},"federalState":{"key":"08","name":"Baden-Württemberg"}},{"name":"Neckartenzlinger Str.","postalCode":"72654","locality":"Neckartenzlingen","municipality":{"key":"08116042","name":"Neckartenzlingen","type":"Kreisangehörige_Gemeinde"},"district":{"key":"08116","name":"Esslingen","type":"Landkreis"},"federalState":{"key":"08","name":"Baden-Württemberg"}},{"name":"Ostpreußenstr.","postalCode":"72654","locality":"Neckartenzlingen","municipality":{"key":"08116042","name":"Neckartenzlingen","type":"Kreisangehörige_Gemeinde"},"district":{"key":"08116","name":"Esslingen","type":"Landkreis"},"federalState":{"key":"08","name":"Baden-Württemberg"}},{"name":"Panoramastr.","postalCode":"72654","locality":"Neckartenzlingen","municipality":{"key":"08116042","name":"Neckartenzlingen","type":"Kreisangehörige_Gemeinde"},"district":{"key":"08116","name":"Esslingen","type":"Landkreis"},"federalState":{"key":"08","name":"Baden-Württemberg"}},{"name":"Planstr.","postalCode":"72654","locality":"Neckartenzlingen","municipality":{"key":"08116042","name":"Neckartenzlingen","type":"Kreisangehörige_Gemeinde"},"district":{"key":"08116","name":"Esslingen","type":"Landkreis"},"federalState":{"key":"08","name":"Baden-Württemberg"}},{"name":"Pommernstr.","postalCode":"72654","locality":"Neckartenzlingen","municipality":{"key":"08116042","name":"Neckartenzlingen","type":"Kreisangehörige_Gemeinde"},"district":{"key":"08116","name":"Esslingen","type":"Landkreis"},"federalState":{"key":"08","name":"Baden-Württemberg"}},{"name":"Quittenweg","postalCode":"73733","locality":"Esslingen am Neckar","municipality":{"key":"08116019","name":"Esslingen am Neckar, Stadt","type":"Große_Kreisstadt"},"district":{"key":"08116","name":"Esslingen","type":"Landkreis"},"federalState":{"key":"08","name":"Baden-Württemberg"}},{"name":"Reuschweg","postalCode":"72654","locality":"Neckartenzlingen","municipality":{"key":"08116042","name":"Neckartenzlingen","type":"Kreisangehörige_Gemeinde"},"district":{"key":"08116","name":"Esslingen","type":"Landkreis"},"federalState":{"key":"08","name":"Baden-Württemberg"}},{"name":"Rieter Steige","postalCode":"72654","locality":"Neckartenzlingen","municipality":{"key":"08116042","name":"Neckartenzlingen","type":"Kreisangehörige_Gemeinde"},"district":{"key":"08116","name":"Esslingen","type":"Landkreis"},"federalState":{"key":"08","name":"Baden-Württemberg"}},{"name":"Römerstr.","postalCode":"72654","locality":"Neckartenzlingen","municipality":{"key":"08116042","name":"Neckartenzlingen","type":"Kreisangehörige_Gemeinde"},"district":{"key":"08116","name":"Esslingen","type":"Landkreis"},"federalState":{"key":"08","name":"Baden-Württemberg"}},{"name":"Schießhausstr.","postalCode":"72654","locality":"Neckartenzlingen","municipality":{"key":"08116042","name":"Neckartenzlingen","type":"Kreisangehörige_Gemeinde"},"district":{"key":"08116","name":"Esslingen","type":"Landkreis"},"federalState":{"key":"08","name":"Baden-Württemberg"}},{"name":"Schillerstr.","postalCode":"72654","locality":"Neckartenzlingen","municipality":{"key":"08116042","name":"Neckartenzlingen","type":"Kreisangehörige_Gemeinde"},"district":{"key":"08116","name":"Esslingen","type":"Landkreis"},"federalState":{"key":"08","name":"Baden-Württemberg"}},{"name":"Schlesierstr.","postalCode":"72654","locality":"Neckartenzlingen","municipality":{"key":"08116042","name":"Neckartenzlingen","type":"Kreisangehörige_Gemeinde"},"district":{"key":"08116","name":"Esslingen","type":"Landkreis"},"federalState":{"key":"08","name":"Baden-Württemberg"}},{"name":"Schulstr.","postalCode":"72654","locality":"Neckartenzlingen","municipality":{"key":"08116042","name":"Neckartenzlingen","type":"Kreisangehörige_Gemeinde"},"district":{"key":"08116","name":"Esslingen","type":"Landkreis"},"federalState":{"key":"08","name":"Baden-Württemberg"}},{"name":"Schwalbenweg","postalCode":"72654","locality":"Neckartenzlingen","municipality":{"key":"08116042","name":"Neckartenzlingen","type":"Kreisangehörige_Gemeinde"},"district":{"key":"08116","name":"Esslingen","type":"Landkreis"},"federalState":{"key":"08","name":"Baden-Württemberg"}},{"name":"Silcherstr.","postalCode":"72654","locality":"Neckartenzlingen","municipality":{"key":"08116042","name":"Neckartenzlingen","type":"Kreisangehörige_Gemeinde"},"district":{"key":"08116","name":"Esslingen","type":"Landkreis"},"federalState":{"key":"08","name":"Baden-Württemberg"}},{"name":"Spenglerstr.","postalCode":"72654","locality":"Neckartenzlingen","municipality":{"key":"08116042","name":"Neckartenzlingen","type":"Kreisangehörige_Gemeinde"},"district":{"key":"08116","name":"Esslingen","type":"Landkreis"},"federalState":{"key":"08","name":"Baden-Württemberg"}},{"name":"Steinachstr.","postalCode":"72654","locality":"Neckartenzlingen","municipality":{"key":"08116042","name":"Neckartenzlingen","type":"Kreisangehörige_Gemeinde"},"district":{"key":"08116","name":"Esslingen","type":"Landkreis"},"federalState":{"key":"08","name":"Baden-Württemberg"}},{"name":"Stuttgarter Str.","postalCode":"72654","locality":"Neckartenzlingen","municipality":{"key":"08116042","name":"Neckartenzlingen","type":"Kreisangehörige_Gemeinde"},"district":{"key":"08116","name":"Esslingen","type":"Landkreis"},"federalState":{"key":"08","name":"Baden-Württemberg"}},{"name":"Sudentenstr.","postalCode":"72654","locality":"Neckartenzlingen","municipality":{"key":"08116042","name":"Neckartenzlingen","type":"Kreisangehörige_Gemeinde"},"district":{"key":"08116","name":"Esslingen","type":"Landkreis"},"federalState":{"key":"08","name":"Baden-Württemberg"}},{"name":"Tannenweg","postalCode":"72654","locality":"Neckartenzlingen","municipality":{"key":"08116042","name":"Neckartenzlingen","type":"Kreisangehörige_Gemeinde"},"district":{"key":"08116","name":"Esslingen","type":"Landkreis"},"federalState":{"key":"08","name":"Baden-Württemberg"}},{"name":"Teckstr.","postalCode":"72654","locality":"Neckartenzlingen","municipality":{"key":"08116042","name":"Neckartenzlingen","type":"Kreisangehörige_Gemeinde"},"district":{"key":"08116","name":"Esslingen","type":"Landkreis"},"federalState":{"key":"08","name":"Baden-Württemberg"}},{"name":"Tübinger Str.","postalCode":"72654","locality":"Neckartenzlingen","municipality":{"key":"08116042","name":"Neckartenzlingen","type":"Kreisangehörige_Gemeinde"},"district":{"key":"08116","name":"Esslingen","type":"Landkreis"},"federalState":{"key":"08","name":"Baden-Württemberg"}},{"name":"Uhlandstr.","postalCode":"72654","locality":"Neckartenzlingen","municipality":{"key":"08116042","name":"Neckartenzlingen","type":"Kreisangehörige_Gemeinde"},"district":{"key":"08116","name":"Esslingen","type":"Landkreis"},"federalState":{"key":"08","name":"Baden-Württemberg"}},{"name":"Ulmenstr.","postalCode":"72654","locality":"Neckartenzlingen","municipality":{"key":"08116042","name":"Neckartenzlingen","type":"Kreisangehörige_Gemeinde"},"district":{"key":"08116","name":"Esslingen","type":"Landkreis"},"federalState":{"key":"08","name":"Baden-Württemberg"}},{"name":"Unterbössel","postalCode":"72654","locality":"Neckartenzlingen","municipality":{"key":"08116042","name":"Neckartenzlingen","type":"Kreisangehörige_Gemeinde"},"district":{"key":"08116","name":"Esslingen","type":"Landkreis"},"federalState":{"key":"08","name":"Baden-Württemberg"}},{"name":"Veilchenweg","postalCode":"73730","locality":"Esslingen am Neckar","municipality":{"key":"08116019","name":"Esslingen am Neckar, Stadt","type":"Große_Kreisstadt"},"district":{"key":"08116","name":"Esslingen","type":"Landkreis"},"federalState":{"key":"08","name":"Baden-Württemberg"}},{"name":"Viehgasse","postalCode":"73733","locality":"Esslingen am Neckar","municipality":{"key":"08116019","name":"Esslingen am Neckar, Stadt","type":"Große_Kreisstadt"},"district":{"key":"08116","name":"Esslingen","type":"Landkreis"},"federalState":{"key":"08","name":"Baden-Württemberg"}},{"name":"Vogelsangbrücke","postalCode":"73728","locality":"Esslingen am Neckar","municipality":{"key":"08116019","name":"Esslingen am Neckar, Stadt","type":"Große_Kreisstadt"},"district":{"key":"08116","name":"Esslingen","type":"Landkreis"},"federalState":{"key":"08","name":"Baden-Württemberg"}},{"name":"Vogelsangbrücke","postalCode":"73734","locality":"Esslingen am Neckar","municipality":{"key":"08116019","name":"Esslingen am Neckar, Stadt","type":"Große_Kreisstadt"},"district":{"key":"08116","name":"Esslingen","type":"Landkreis"},"federalState":{"key":"08","name":"Baden-Württemberg"}},{"name":"Vogelsangstr.","postalCode":"73728","locality":"Esslingen am Neckar","municipality":{"key":"08116019","name":"Esslingen am Neckar, Stadt","type":"Große_Kreisstadt"},"district":{"key":"08116","name":"Esslingen","type":"Landkreis"},"federalState":{"key":"08","name":"Baden-Württemberg"}},{"name":"Volker-Boehringer-Weg","postalCode":"73732","locality":"Esslingen am Neckar","municipality":{"key":"08116019","name":"Esslingen am Neckar, Stadt","type":"Große_Kreisstadt"},"district":{"key":"08116","name":"Esslingen","type":"Landkreis"},"federalState":{"key":"08","name":"Baden-Württemberg"}},{"name":"Weinbergweg","postalCode":"72654","locality":"Neckartenzlingen","municipality":{"key":"08116042","name":"Neckartenzlingen","type":"Kreisangehörige_Gemeinde"},"district":{"key":"08116","name":"Esslingen","type":"Landkreis"},"federalState":{"key":"08","name":"Baden-Württemberg"}},{"name":"Zollernstr.","postalCode":"72654","locality":"Neckartenzlingen","municipality":{"key":"08116042","name":"Neckartenzlingen","type":"Kreisangehörige_Gemeinde"},"district":{"key":"08116","name":"Esslingen","type":"Landkreis"},"federalState":{"key":"08","name":"Baden-Württemberg"}},{"name":"Zum Weinbergweg","postalCode":"72654","locality":"Neckartenzlingen","municipality":{"key":"08116042","name":"Neckartenzlingen","type":"Kreisangehörige_Gemeinde"},"district":{"key":"08116","name":"Esslingen","type":"Landkreis"},"federalState":{"key":"08","name":"Baden-Württemberg"}},]