[{"name":"Aichelauer Str.","postalCode":"72534","locality":"Hayingen","municipality":{"key":"08415034","name":"Hayingen, Stadt","type":"Stadt"},"district":{"key":"08415","name":"Reutlingen","type":"Landkreis"},"federalState":{"key":"08","name":"Baden-Württemberg"}},{"name":"Albert-Stemmer-Weg","postalCode":"72534","locality":"Hayingen","municipality":{"key":"08415034","name":"Hayingen, Stadt","type":"Stadt"},"district":{"key":"08415","name":"Reutlingen","type":"Landkreis"},"federalState":{"key":"08","name":"Baden-Württemberg"}},{"name":"Am Bürgergarten","postalCode":"72534","locality":"Hayingen","municipality":{"key":"08415034","name":"Hayingen, Stadt","type":"Stadt"},"district":{"key":"08415","name":"Reutlingen","type":"Landkreis"},"federalState":{"key":"08","name":"Baden-Württemberg"}},{"name":"Am Ehestetter Weg","postalCode":"72534","locality":"Hayingen","municipality":{"key":"08415034","name":"Hayingen, Stadt","type":"Stadt"},"district":{"key":"08415","name":"Reutlingen","type":"Landkreis"},"federalState":{"key":"08","name":"Baden-Württemberg"}},{"name":"Am Kirchweg","postalCode":"72534","locality":"Hayingen","municipality":{"key":"08415034","name":"Hayingen, Stadt","type":"Stadt"},"district":{"key":"08415","name":"Reutlingen","type":"Landkreis"},"federalState":{"key":"08","name":"Baden-Württemberg"}},{"name":"Am Mühlweg","postalCode":"72534","locality":"Hayingen","municipality":{"key":"08415034","name":"Hayingen, Stadt","type":"Stadt"},"district":{"key":"08415","name":"Reutlingen","type":"Landkreis"},"federalState":{"key":"08","name":"Baden-Württemberg"}},{"name":"Auf dem Leihen","postalCode":"72534","locality":"Hayingen","municipality":{"key":"08415034","name":"Hayingen, Stadt","type":"Stadt"},"district":{"key":"08415","name":"Reutlingen","type":"Landkreis"},"federalState":{"key":"08","name":"Baden-Württemberg"}},{"name":"Auf der Bleiche","postalCode":"72534","locality":"Hayingen","municipality":{"key":"08415034","name":"Hayingen, Stadt","type":"Stadt"},"district":{"key":"08415","name":"Reutlingen","type":"Landkreis"},"federalState":{"key":"08","name":"Baden-Württemberg"}},{"name":"Auf der Nachthut","postalCode":"72534","locality":"Hayingen","municipality":{"key":"08415034","name":"Hayingen, Stadt","type":"Stadt"},"district":{"key":"08415","name":"Reutlingen","type":"Landkreis"},"federalState":{"key":"08","name":"Baden-Württemberg"}},{"name":"Bachweg","postalCode":"72534","locality":"Hayingen","municipality":{"key":"08415034","name":"Hayingen, Stadt","type":"Stadt"},"district":{"key":"08415","name":"Reutlingen","type":"Landkreis"},"federalState":{"key":"08","name":"Baden-Württemberg"}},{"name":"Bäckergasse","postalCode":"72534","locality":"Hayingen","municipality":{"key":"08415034","name":"Hayingen, Stadt","type":"Stadt"},"district":{"key":"08415","name":"Reutlingen","type":"Landkreis"},"federalState":{"key":"08","name":"Baden-Württemberg"}},{"name":"Badgasse","postalCode":"72534","locality":"Hayingen","municipality":{"key":"08415034","name":"Hayingen, Stadt","type":"Stadt"},"district":{"key":"08415","name":"Reutlingen","type":"Landkreis"},"federalState":{"key":"08","name":"Baden-Württemberg"}},{"name":"Birkenweg","postalCode":"72534","locality":"Hayingen","municipality":{"key":"08415034","name":"Hayingen, Stadt","type":"Stadt"},"district":{"key":"08415","name":"Reutlingen","type":"Landkreis"},"federalState":{"key":"08","name":"Baden-Württemberg"}},{"name":"Brühl","postalCode":"72534","locality":"Hayingen","municipality":{"key":"08415034","name":"Hayingen, Stadt","type":"Stadt"},"district":{"key":"08415","name":"Reutlingen","type":"Landkreis"},"federalState":{"key":"08","name":"Baden-Württemberg"}},{"name":"Brunnenstr.","postalCode":"72534","locality":"Hayingen","municipality":{"key":"08415034","name":"Hayingen, Stadt","type":"Stadt"},"district":{"key":"08415","name":"Reutlingen","type":"Landkreis"},"federalState":{"key":"08","name":"Baden-Württemberg"}},{"name":"Bürgergarten","postalCode":"72534","locality":"Hayingen","municipality":{"key":"08415034","name":"Hayingen, Stadt","type":"Stadt"},"district":{"key":"08415","name":"Reutlingen","type":"Landkreis"},"federalState":{"key":"08","name":"Baden-Württemberg"}},{"name":"Burghaldenweg","postalCode":"72534","locality":"Hayingen","municipality":{"key":"08415034","name":"Hayingen, Stadt","type":"Stadt"},"district":{"key":"08415","name":"Reutlingen","type":"Landkreis"},"federalState":{"key":"08","name":"Baden-Württemberg"}},{"name":"Carl-Diem-Str.","postalCode":"72760","locality":"Reutlingen","municipality":{"key":"08415061","name":"Reutlingen, Stadt","type":"Große_Kreisstadt"},"district":{"key":"08415","name":"Reutlingen","type":"Landkreis"},"federalState":{"key":"08","name":"Baden-Württemberg"}},{"name":"Carl-Zeiss-Str.","postalCode":"72770","locality":"Reutlingen","municipality":{"key":"08415061","name":"Reutlingen, Stadt","type":"Große_Kreisstadt"},"district":{"key":"08415","name":"Reutlingen","type":"Landkreis"},"federalState":{"key":"08","name":"Baden-Württemberg"}},{"name":"Carmenstr.","postalCode":"72768","locality":"Reutlingen","municipality":{"key":"08415061","name":"Reutlingen, Stadt","type":"Große_Kreisstadt"},"district":{"key":"08415","name":"Reutlingen","type":"Landkreis"},"federalState":{"key":"08","name":"Baden-Württemberg"}},{"name":"Charlottenstr.","postalCode":"72764","locality":"Reutlingen","municipality":{"key":"08415061","name":"Reutlingen, Stadt","type":"Große_Kreisstadt"},"district":{"key":"08415","name":"Reutlingen","type":"Landkreis"},"federalState":{"key":"08","name":"Baden-Württemberg"}},{"name":"Charlottenstr.","postalCode":"72766","locality":"Reutlingen","municipality":{"key":"08415061","name":"Reutlingen, Stadt","type":"Große_Kreisstadt"},"district":{"key":"08415","name":"Reutlingen","type":"Landkreis"},"federalState":{"key":"08","name":"Baden-Württemberg"}},{"name":"Christian-Fauser-Str.","postalCode":"72770","locality":"Reutlingen","municipality":{"key":"08415061","name":"Reutlingen, Stadt","type":"Große_Kreisstadt"},"district":{"key":"08415","name":"Reutlingen","type":"Landkreis"},"federalState":{"key":"08","name":"Baden-Württemberg"}},{"name":"Christoph-Schnurr-Weg","postalCode":"72766","locality":"Reutlingen","municipality":{"key":"08415061","name":"Reutlingen, Stadt","type":"Große_Kreisstadt"},"district":{"key":"08415","name":"Reutlingen","type":"Landkreis"},"federalState":{"key":"08","name":"Baden-Württemberg"}},{"name":"Christophstr.","postalCode":"72760","locality":"Reutlingen","municipality":{"key":"08415061","name":"Reutlingen, Stadt","type":"Große_Kreisstadt"},"district":{"key":"08415","name":"Reutlingen","type":"Landkreis"},"federalState":{"key":"08","name":"Baden-Württemberg"}},{"name":"Clemensstr.","postalCode":"72768","locality":"Reutlingen","municipality":{"key":"08415061","name":"Reutlingen, Stadt","type":"Große_Kreisstadt"},"district":{"key":"08415","name":"Reutlingen","type":"Landkreis"},"federalState":{"key":"08","name":"Baden-Württemberg"}},{"name":"Corinthstr.","postalCode":"72768","locality":"Reutlingen","municipality":{"key":"08415061","name":"Reutlingen, Stadt","type":"Große_Kreisstadt"},"district":{"key":"08415","name":"Reutlingen","type":"Landkreis"},"federalState":{"key":"08","name":"Baden-Württemberg"}},{"name":"Crailsheimer Str.","postalCode":"72760","locality":"Reutlingen","municipality":{"key":"08415061","name":"Reutlingen, Stadt","type":"Große_Kreisstadt"},"district":{"key":"08415","name":"Reutlingen","type":"Landkreis"},"federalState":{"key":"08","name":"Baden-Württemberg"}},{"name":"Cranachstr.","postalCode":"72768","locality":"Reutlingen","municipality":{"key":"08415061","name":"Reutlingen, Stadt","type":"Große_Kreisstadt"},"district":{"key":"08415","name":"Reutlingen","type":"Landkreis"},"federalState":{"key":"08","name":"Baden-Württemberg"}},{"name":"Digelfeldstr.","postalCode":"72534","locality":"Hayingen","municipality":{"key":"08415034","name":"Hayingen, Stadt","type":"Stadt"},"district":{"key":"08415","name":"Reutlingen","type":"Landkreis"},"federalState":{"key":"08","name":"Baden-Württemberg"}},{"name":"Ehestetter Str.","postalCode":"72534","locality":"Hayingen","municipality":{"key":"08415034","name":"Hayingen, Stadt","type":"Stadt"},"district":{"key":"08415","name":"Reutlingen","type":"Landkreis"},"federalState":{"key":"08","name":"Baden-Württemberg"}},{"name":"Ehrenfelser Weg","postalCode":"72534","locality":"Hayingen","municipality":{"key":"08415034","name":"Hayingen, Stadt","type":"Stadt"},"district":{"key":"08415","name":"Reutlingen","type":"Landkreis"},"federalState":{"key":"08","name":"Baden-Württemberg"}},{"name":"Eichbühl","postalCode":"72534","locality":"Hayingen","municipality":{"key":"08415034","name":"Hayingen, Stadt","type":"Stadt"},"district":{"key":"08415","name":"Reutlingen","type":"Landkreis"},"federalState":{"key":"08","name":"Baden-Württemberg"}},{"name":"Enzianweg","postalCode":"72534","locality":"Hayingen","municipality":{"key":"08415034","name":"Hayingen, Stadt","type":"Stadt"},"district":{"key":"08415","name":"Reutlingen","type":"Landkreis"},"federalState":{"key":"08","name":"Baden-Württemberg"}},{"name":"Erbstetter Str.","postalCode":"72534","locality":"Hayingen","municipality":{"key":"08415034","name":"Hayingen, Stadt","type":"Stadt"},"district":{"key":"08415","name":"Reutlingen","type":"Landkreis"},"federalState":{"key":"08","name":"Baden-Württemberg"}},{"name":"Färbergasse","postalCode":"72534","locality":"Hayingen","municipality":{"key":"08415034","name":"Hayingen, Stadt","type":"Stadt"},"district":{"key":"08415","name":"Reutlingen","type":"Landkreis"},"federalState":{"key":"08","name":"Baden-Württemberg"}},{"name":"Frauengasse","postalCode":"72534","locality":"Hayingen","municipality":{"key":"08415034","name":"Hayingen, Stadt","type":"Stadt"},"district":{"key":"08415","name":"Reutlingen","type":"Landkreis"},"federalState":{"key":"08","name":"Baden-Württemberg"}},{"name":"Friedhofweg","postalCode":"72534","locality":"Hayingen","municipality":{"key":"08415034","name":"Hayingen, Stadt","type":"Stadt"},"district":{"key":"08415","name":"Reutlingen","type":"Landkreis"},"federalState":{"key":"08","name":"Baden-Württemberg"}},{"name":"Gallusweg","postalCode":"72534","locality":"Hayingen","municipality":{"key":"08415034","name":"Hayingen, Stadt","type":"Stadt"},"district":{"key":"08415","name":"Reutlingen","type":"Landkreis"},"federalState":{"key":"08","name":"Baden-Württemberg"}},{"name":"Gerbergasse","postalCode":"72534","locality":"Hayingen","municipality":{"key":"08415034","name":"Hayingen, Stadt","type":"Stadt"},"district":{"key":"08415","name":"Reutlingen","type":"Landkreis"},"federalState":{"key":"08","name":"Baden-Württemberg"}},{"name":"Glastal","postalCode":"72534","locality":"Hayingen","municipality":{"key":"08415034","name":"Hayingen, Stadt","type":"Stadt"},"district":{"key":"08415","name":"Reutlingen","type":"Landkreis"},"federalState":{"key":"08","name":"Baden-Württemberg"}},{"name":"Glastalstr.","postalCode":"72534","locality":"Hayingen","municipality":{"key":"08415034","name":"Hayingen, Stadt","type":"Stadt"},"district":{"key":"08415","name":"Reutlingen","type":"Landkreis"},"federalState":{"key":"08","name":"Baden-Württemberg"}},{"name":"Guckentalweg","postalCode":"72534","locality":"Hayingen","municipality":{"key":"08415034","name":"Hayingen, Stadt","type":"Stadt"},"district":{"key":"08415","name":"Reutlingen","type":"Landkreis"},"federalState":{"key":"08","name":"Baden-Württemberg"}},{"name":"Gustav-Jourdan-Weg","postalCode":"72534","locality":"Hayingen","municipality":{"key":"08415034","name":"Hayingen, Stadt","type":"Stadt"},"district":{"key":"08415","name":"Reutlingen","type":"Landkreis"},"federalState":{"key":"08","name":"Baden-Württemberg"}},{"name":"Hanfgärten","postalCode":"72534","locality":"Hayingen","municipality":{"key":"08415034","name":"Hayingen, Stadt","type":"Stadt"},"district":{"key":"08415","name":"Reutlingen","type":"Landkreis"},"federalState":{"key":"08","name":"Baden-Württemberg"}},{"name":"Hauptstr.","postalCode":"72534","locality":"Hayingen","municipality":{"key":"08415034","name":"Hayingen, Stadt","type":"Stadt"},"district":{"key":"08415","name":"Reutlingen","type":"Landkreis"},"federalState":{"key":"08","name":"Baden-Württemberg"}},{"name":"Heiligenberg","postalCode":"72534","locality":"Hayingen","municipality":{"key":"08415034","name":"Hayingen, Stadt","type":"Stadt"},"district":{"key":"08415","name":"Reutlingen","type":"Landkreis"},"federalState":{"key":"08","name":"Baden-Württemberg"}},{"name":"Herzental","postalCode":"72534","locality":"Hayingen","municipality":{"key":"08415034","name":"Hayingen, Stadt","type":"Stadt"},"district":{"key":"08415","name":"Reutlingen","type":"Landkreis"},"federalState":{"key":"08","name":"Baden-Württemberg"}},{"name":"Hitzenstaudenring","postalCode":"72534","locality":"Hayingen","municipality":{"key":"08415034","name":"Hayingen, Stadt","type":"Stadt"},"district":{"key":"08415","name":"Reutlingen","type":"Landkreis"},"federalState":{"key":"08","name":"Baden-Württemberg"}},{"name":"Hofäckerstr.","postalCode":"72534","locality":"Hayingen","municipality":{"key":"08415034","name":"Hayingen, Stadt","type":"Stadt"},"district":{"key":"08415","name":"Reutlingen","type":"Landkreis"},"federalState":{"key":"08","name":"Baden-Württemberg"}},{"name":"Höhe","postalCode":"72534","locality":"Hayingen","municipality":{"key":"08415034","name":"Hayingen, Stadt","type":"Stadt"},"district":{"key":"08415","name":"Reutlingen","type":"Landkreis"},"federalState":{"key":"08","name":"Baden-Württemberg"}},{"name":"Höhenweg","postalCode":"72534","locality":"Hayingen","municipality":{"key":"08415034","name":"Hayingen, Stadt","type":"Stadt"},"district":{"key":"08415","name":"Reutlingen","type":"Landkreis"},"federalState":{"key":"08","name":"Baden-Württemberg"}},{"name":"Holzgasse","postalCode":"72534","locality":"Hayingen","municipality":{"key":"08415034","name":"Hayingen, Stadt","type":"Stadt"},"district":{"key":"08415","name":"Reutlingen","type":"Landkreis"},"federalState":{"key":"08","name":"Baden-Württemberg"}},{"name":"Im Öschle","postalCode":"72534","locality":"Hayingen","municipality":{"key":"08415034","name":"Hayingen, Stadt","type":"Stadt"},"district":{"key":"08415","name":"Reutlingen","type":"Landkreis"},"federalState":{"key":"08","name":"Baden-Württemberg"}},{"name":"In Breitwiesen","postalCode":"72534","locality":"Hayingen","municipality":{"key":"08415034","name":"Hayingen, Stadt","type":"Stadt"},"district":{"key":"08415","name":"Reutlingen","type":"Landkreis"},"federalState":{"key":"08","name":"Baden-Württemberg"}},{"name":"Johannes-Schwendele-Weg","postalCode":"72534","locality":"Hayingen","municipality":{"key":"08415034","name":"Hayingen, Stadt","type":"Stadt"},"district":{"key":"08415","name":"Reutlingen","type":"Landkreis"},"federalState":{"key":"08","name":"Baden-Württemberg"}},{"name":"Josef-Haible-Weg","postalCode":"72534","locality":"Hayingen","municipality":{"key":"08415034","name":"Hayingen, Stadt","type":"Stadt"},"district":{"key":"08415","name":"Reutlingen","type":"Landkreis"},"federalState":{"key":"08","name":"Baden-Württemberg"}},{"name":"Josefstr.","postalCode":"72534","locality":"Hayingen","municipality":{"key":"08415034","name":"Hayingen, Stadt","type":"Stadt"},"district":{"key":"08415","name":"Reutlingen","type":"Landkreis"},"federalState":{"key":"08","name":"Baden-Württemberg"}},{"name":"Kaplaneistr.","postalCode":"72534","locality":"Hayingen","municipality":{"key":"08415034","name":"Hayingen, Stadt","type":"Stadt"},"district":{"key":"08415","name":"Reutlingen","type":"Landkreis"},"federalState":{"key":"08","name":"Baden-Württemberg"}},{"name":"Kappisbühl","postalCode":"72534","locality":"Hayingen","municipality":{"key":"08415034","name":"Hayingen, Stadt","type":"Stadt"},"district":{"key":"08415","name":"Reutlingen","type":"Landkreis"},"federalState":{"key":"08","name":"Baden-Württemberg"}},{"name":"Karlsplatz","postalCode":"72534","locality":"Hayingen","municipality":{"key":"08415034","name":"Hayingen, Stadt","type":"Stadt"},"district":{"key":"08415","name":"Reutlingen","type":"Landkreis"},"federalState":{"key":"08","name":"Baden-Württemberg"}},{"name":"Karl-Truchsess-Weg","postalCode":"72534","locality":"Hayingen","municipality":{"key":"08415034","name":"Hayingen, Stadt","type":"Stadt"},"district":{"key":"08415","name":"Reutlingen","type":"Landkreis"},"federalState":{"key":"08","name":"Baden-Württemberg"}},{"name":"Kirchberg","postalCode":"72534","locality":"Hayingen","municipality":{"key":"08415034","name":"Hayingen, Stadt","type":"Stadt"},"district":{"key":"08415","name":"Reutlingen","type":"Landkreis"},"federalState":{"key":"08","name":"Baden-Württemberg"}},{"name":"Kirchstr.","postalCode":"72534","locality":"Hayingen","municipality":{"key":"08415034","name":"Hayingen, Stadt","type":"Stadt"},"district":{"key":"08415","name":"Reutlingen","type":"Landkreis"},"federalState":{"key":"08","name":"Baden-Württemberg"}},{"name":"Konrad-Häbe-Str.","postalCode":"72534","locality":"Hayingen","municipality":{"key":"08415034","name":"Hayingen, Stadt","type":"Stadt"},"district":{"key":"08415","name":"Reutlingen","type":"Landkreis"},"federalState":{"key":"08","name":"Baden-Württemberg"}},{"name":"Kreuzbergweg","postalCode":"72534","locality":"Hayingen","municipality":{"key":"08415034","name":"Hayingen, Stadt","type":"Stadt"},"district":{"key":"08415","name":"Reutlingen","type":"Landkreis"},"federalState":{"key":"08","name":"Baden-Württemberg"}},{"name":"Küfergasse","postalCode":"72534","locality":"Hayingen","municipality":{"key":"08415034","name":"Hayingen, Stadt","type":"Stadt"},"district":{"key":"08415","name":"Reutlingen","type":"Landkreis"},"federalState":{"key":"08","name":"Baden-Württemberg"}},{"name":"Lautertalstr.","postalCode":"72534","locality":"Hayingen","municipality":{"key":"08415034","name":"Hayingen, Stadt","type":"Stadt"},"district":{"key":"08415","name":"Reutlingen","type":"Landkreis"},"federalState":{"key":"08","name":"Baden-Württemberg"}},{"name":"Lindenweg","postalCode":"72534","locality":"Hayingen","municipality":{"key":"08415034","name":"Hayingen, Stadt","type":"Stadt"},"district":{"key":"08415","name":"Reutlingen","type":"Landkreis"},"federalState":{"key":"08","name":"Baden-Württemberg"}},{"name":"Marktstr.","postalCode":"72534","locality":"Hayingen","municipality":{"key":"08415034","name":"Hayingen, Stadt","type":"Stadt"},"district":{"key":"08415","name":"Reutlingen","type":"Landkreis"},"federalState":{"key":"08","name":"Baden-Württemberg"}},{"name":"Martin-Schleker-Platz","postalCode":"72534","locality":"Hayingen","municipality":{"key":"08415034","name":"Hayingen, Stadt","type":"Stadt"},"district":{"key":"08415","name":"Reutlingen","type":"Landkreis"},"federalState":{"key":"08","name":"Baden-Württemberg"}},{"name":"Mühlstr.","postalCode":"72534","locality":"Hayingen","municipality":{"key":"08415034","name":"Hayingen, Stadt","type":"Stadt"},"district":{"key":"08415","name":"Reutlingen","type":"Landkreis"},"federalState":{"key":"08","name":"Baden-Württemberg"}},{"name":"Münsinger Str.","postalCode":"72534","locality":"Hayingen","municipality":{"key":"08415034","name":"Hayingen, Stadt","type":"Stadt"},"district":{"key":"08415","name":"Reutlingen","type":"Landkreis"},"federalState":{"key":"08","name":"Baden-Württemberg"}},{"name":"Nägelesäcker","postalCode":"72770","locality":"Reutlingen","municipality":{"key":"08415061","name":"Reutlingen, Stadt","type":"Große_Kreisstadt"},"district":{"key":"08415","name":"Reutlingen","type":"Landkreis"},"federalState":{"key":"08","name":"Baden-Württemberg"}},{"name":"Nägelestr.","postalCode":"72770","locality":"Reutlingen","municipality":{"key":"08415061","name":"Reutlingen, Stadt","type":"Große_Kreisstadt"},"district":{"key":"08415","name":"Reutlingen","type":"Landkreis"},"federalState":{"key":"08","name":"Baden-Württemberg"}},{"name":"Nahestr.","postalCode":"72768","locality":"Reutlingen","municipality":{"key":"08415061","name":"Reutlingen, Stadt","type":"Große_Kreisstadt"},"district":{"key":"08415","name":"Reutlingen","type":"Landkreis"},"federalState":{"key":"08","name":"Baden-Württemberg"}},{"name":"Narzissenweg","postalCode":"72770","locality":"Reutlingen","municipality":{"key":"08415061","name":"Reutlingen, Stadt","type":"Große_Kreisstadt"},"district":{"key":"08415","name":"Reutlingen","type":"Landkreis"},"federalState":{"key":"08","name":"Baden-Württemberg"}},{"name":"Neckarstr.","postalCode":"72768","locality":"Reutlingen","municipality":{"key":"08415061","name":"Reutlingen, Stadt","type":"Große_Kreisstadt"},"district":{"key":"08415","name":"Reutlingen","type":"Landkreis"},"federalState":{"key":"08","name":"Baden-Württemberg"}},{"name":"Neckartal-Radweg","postalCode":"72768","locality":"Reutlingen","municipality":{"key":"08415061","name":"Reutlingen, Stadt","type":"Große_Kreisstadt"},"district":{"key":"08415","name":"Reutlingen","type":"Landkreis"},"federalState":{"key":"08","name":"Baden-Württemberg"}},{"name":"Neckartalstr.","postalCode":"72768","locality":"Reutlingen","municipality":{"key":"08415061","name":"Reutlingen, Stadt","type":"Große_Kreisstadt"},"district":{"key":"08415","name":"Reutlingen","type":"Landkreis"},"federalState":{"key":"08","name":"Baden-Württemberg"}},{"name":"Neckartenzlinger Str.","postalCode":"72766","locality":"Reutlingen","municipality":{"key":"08415061","name":"Reutlingen, Stadt","type":"Große_Kreisstadt"},"district":{"key":"08415","name":"Reutlingen","type":"Landkreis"},"federalState":{"key":"08","name":"Baden-Württemberg"}},{"name":"Negelerstr.","postalCode":"72762","locality":"Reutlingen","municipality":{"key":"08415061","name":"Reutlingen, Stadt","type":"Große_Kreisstadt"},"district":{"key":"08415","name":"Reutlingen","type":"Landkreis"},"federalState":{"key":"08","name":"Baden-Württemberg"}},{"name":"Nelkenstr.","postalCode":"72764","locality":"Reutlingen","municipality":{"key":"08415061","name":"Reutlingen, Stadt","type":"Große_Kreisstadt"},"district":{"key":"08415","name":"Reutlingen","type":"Landkreis"},"federalState":{"key":"08","name":"Baden-Württemberg"}},{"name":"Nerzweg","postalCode":"72768","locality":"Reutlingen","municipality":{"key":"08415061","name":"Reutlingen, Stadt","type":"Große_Kreisstadt"},"district":{"key":"08415","name":"Reutlingen","type":"Landkreis"},"federalState":{"key":"08","name":"Baden-Württemberg"}},{"name":"Neue Str.","postalCode":"72770","locality":"Reutlingen","municipality":{"key":"08415061","name":"Reutlingen, Stadt","type":"Große_Kreisstadt"},"district":{"key":"08415","name":"Reutlingen","type":"Landkreis"},"federalState":{"key":"08","name":"Baden-Württemberg"}},{"name":"Neuffenweg","postalCode":"72766","locality":"Reutlingen","municipality":{"key":"08415061","name":"Reutlingen, Stadt","type":"Große_Kreisstadt"},"district":{"key":"08415","name":"Reutlingen","type":"Landkreis"},"federalState":{"key":"08","name":"Baden-Württemberg"}},{"name":"Nibelungenstr.","postalCode":"72768","locality":"Reutlingen","municipality":{"key":"08415061","name":"Reutlingen, Stadt","type":"Große_Kreisstadt"},"district":{"key":"08415","name":"Reutlingen","type":"Landkreis"},"federalState":{"key":"08","name":"Baden-Württemberg"}},{"name":"Nikolausstr.","postalCode":"72768","locality":"Reutlingen","municipality":{"key":"08415061","name":"Reutlingen, Stadt","type":"Große_Kreisstadt"},"district":{"key":"08415","name":"Reutlingen","type":"Landkreis"},"federalState":{"key":"08","name":"Baden-Württemberg"}},{"name":"Nonnenwasenstr.","postalCode":"72766","locality":"Reutlingen","municipality":{"key":"08415061","name":"Reutlingen, Stadt","type":"Große_Kreisstadt"},"district":{"key":"08415","name":"Reutlingen","type":"Landkreis"},"federalState":{"key":"08","name":"Baden-Württemberg"}},{"name":"Nördlinger Str.","postalCode":"72760","locality":"Reutlingen","municipality":{"key":"08415061","name":"Reutlingen, Stadt","type":"Große_Kreisstadt"},"district":{"key":"08415","name":"Reutlingen","type":"Landkreis"},"federalState":{"key":"08","name":"Baden-Württemberg"}},{"name":"Novalisweg","postalCode":"72770","locality":"Reutlingen","municipality":{"key":"08415061","name":"Reutlingen, Stadt","type":"Große_Kreisstadt"},"district":{"key":"08415","name":"Reutlingen","type":"Landkreis"},"federalState":{"key":"08","name":"Baden-Württemberg"}},{"name":"Nürnberger Str.","postalCode":"72760","locality":"Reutlingen","municipality":{"key":"08415061","name":"Reutlingen, Stadt","type":"Große_Kreisstadt"},"district":{"key":"08415","name":"Reutlingen","type":"Landkreis"},"federalState":{"key":"08","name":"Baden-Württemberg"}},{"name":"Nürtingerhofstr.","postalCode":"72764","locality":"Reutlingen","municipality":{"key":"08415061","name":"Reutlingen, Stadt","type":"Große_Kreisstadt"},"district":{"key":"08415","name":"Reutlingen","type":"Landkreis"},"federalState":{"key":"08","name":"Baden-Württemberg"}},{"name":"Obere Kirchstr.","postalCode":"72534","locality":"Hayingen","municipality":{"key":"08415034","name":"Hayingen, Stadt","type":"Stadt"},"district":{"key":"08415","name":"Reutlingen","type":"Landkreis"},"federalState":{"key":"08","name":"Baden-Württemberg"}},{"name":"Obere Wiesen","postalCode":"72534","locality":"Hayingen","municipality":{"key":"08415034","name":"Hayingen, Stadt","type":"Stadt"},"district":{"key":"08415","name":"Reutlingen","type":"Landkreis"},"federalState":{"key":"08","name":"Baden-Württemberg"}},{"name":"Oberwilzinger Str.","postalCode":"72534","locality":"Hayingen","municipality":{"key":"08415034","name":"Hayingen, Stadt","type":"Stadt"},"district":{"key":"08415","name":"Reutlingen","type":"Landkreis"},"federalState":{"key":"08","name":"Baden-Württemberg"}},{"name":"Orchideenstr.","postalCode":"72534","locality":"Hayingen","municipality":{"key":"08415034","name":"Hayingen, Stadt","type":"Stadt"},"district":{"key":"08415","name":"Reutlingen","type":"Landkreis"},"federalState":{"key":"08","name":"Baden-Württemberg"}},{"name":"Ortsstr.","postalCode":"72534","locality":"Hayingen","municipality":{"key":"08415034","name":"Hayingen, Stadt","type":"Stadt"},"district":{"key":"08415","name":"Reutlingen","type":"Landkreis"},"federalState":{"key":"08","name":"Baden-Württemberg"}},{"name":"Paul-Burkhardt-Weg","postalCode":"72534","locality":"Hayingen","municipality":{"key":"08415034","name":"Hayingen, Stadt","type":"Stadt"},"district":{"key":"08415","name":"Reutlingen","type":"Landkreis"},"federalState":{"key":"08","name":"Baden-Württemberg"}},{"name":"Prälatenweg","postalCode":"72534","locality":"Hayingen","municipality":{"key":"08415034","name":"Hayingen, Stadt","type":"Stadt"},"district":{"key":"08415","name":"Reutlingen","type":"Landkreis"},"federalState":{"key":"08","name":"Baden-Württemberg"}},{"name":"Quellenstr.","postalCode":"72770","locality":"Reutlingen","municipality":{"key":"08415061","name":"Reutlingen, Stadt","type":"Große_Kreisstadt"},"district":{"key":"08415","name":"Reutlingen","type":"Landkreis"},"federalState":{"key":"08","name":"Baden-Württemberg"}},{"name":"Rathausplatz","postalCode":"72534","locality":"Hayingen","municipality":{"key":"08415034","name":"Hayingen, Stadt","type":"Stadt"},"district":{"key":"08415","name":"Reutlingen","type":"Landkreis"},"federalState":{"key":"08","name":"Baden-Württemberg"}},{"name":"Rauher Hund","postalCode":"72534","locality":"Hayingen","municipality":{"key":"08415034","name":"Hayingen, Stadt","type":"Stadt"},"district":{"key":"08415","name":"Reutlingen","type":"Landkreis"},"federalState":{"key":"08","name":"Baden-Württemberg"}},{"name":"Schlehdornweg","postalCode":"72534","locality":"Hayingen","municipality":{"key":"08415034","name":"Hayingen, Stadt","type":"Stadt"},"district":{"key":"08415","name":"Reutlingen","type":"Landkreis"},"federalState":{"key":"08","name":"Baden-Württemberg"}},{"name":"Schloßgartenstr.","postalCode":"72534","locality":"Hayingen","municipality":{"key":"08415034","name":"Hayingen, Stadt","type":"Stadt"},"district":{"key":"08415","name":"Reutlingen","type":"Landkreis"},"federalState":{"key":"08","name":"Baden-Württemberg"}},{"name":"Schloßhof","postalCode":"72534","locality":"Hayingen","municipality":{"key":"08415034","name":"Hayingen, Stadt","type":"Stadt"},"district":{"key":"08415","name":"Reutlingen","type":"Landkreis"},"federalState":{"key":"08","name":"Baden-Württemberg"}},{"name":"Schloßsteige","postalCode":"72534","locality":"Hayingen","municipality":{"key":"08415034","name":"Hayingen, Stadt","type":"Stadt"},"district":{"key":"08415","name":"Reutlingen","type":"Landkreis"},"federalState":{"key":"08","name":"Baden-Württemberg"}},{"name":"Schmiedgässle","postalCode":"72534","locality":"Hayingen","municipality":{"key":"08415034","name":"Hayingen, Stadt","type":"Stadt"},"district":{"key":"08415","name":"Reutlingen","type":"Landkreis"},"federalState":{"key":"08","name":"Baden-Württemberg"}},{"name":"Schneidergasse","postalCode":"72534","locality":"Hayingen","municipality":{"key":"08415034","name":"Hayingen, Stadt","type":"Stadt"},"district":{"key":"08415","name":"Reutlingen","type":"Landkreis"},"federalState":{"key":"08","name":"Baden-Württemberg"}},{"name":"Schulstr.","postalCode":"72534","locality":"Hayingen","municipality":{"key":"08415034","name":"Hayingen, Stadt","type":"Stadt"},"district":{"key":"08415","name":"Reutlingen","type":"Landkreis"},"federalState":{"key":"08","name":"Baden-Württemberg"}},{"name":"Schülzburgweg","postalCode":"72534","locality":"Hayingen","municipality":{"key":"08415034","name":"Hayingen, Stadt","type":"Stadt"},"district":{"key":"08415","name":"Reutlingen","type":"Landkreis"},"federalState":{"key":"08","name":"Baden-Württemberg"}},{"name":"Schweiftalweg","postalCode":"72534","locality":"Hayingen","municipality":{"key":"08415034","name":"Hayingen, Stadt","type":"Stadt"},"district":{"key":"08415","name":"Reutlingen","type":"Landkreis"},"federalState":{"key":"08","name":"Baden-Württemberg"}},{"name":"Silberdistelweg","postalCode":"72534","locality":"Hayingen","municipality":{"key":"08415034","name":"Hayingen, Stadt","type":"Stadt"},"district":{"key":"08415","name":"Reutlingen","type":"Landkreis"},"federalState":{"key":"08","name":"Baden-Württemberg"}},{"name":"Spitalgasse","postalCode":"72534","locality":"Hayingen","municipality":{"key":"08415034","name":"Hayingen, Stadt","type":"Stadt"},"district":{"key":"08415","name":"Reutlingen","type":"Landkreis"},"federalState":{"key":"08","name":"Baden-Württemberg"}},{"name":"Steige","postalCode":"72534","locality":"Hayingen","municipality":{"key":"08415034","name":"Hayingen, Stadt","type":"Stadt"},"district":{"key":"08415","name":"Reutlingen","type":"Landkreis"},"federalState":{"key":"08","name":"Baden-Württemberg"}},{"name":"Steigwiesen","postalCode":"72534","locality":"Hayingen","municipality":{"key":"08415034","name":"Hayingen, Stadt","type":"Stadt"},"district":{"key":"08415","name":"Reutlingen","type":"Landkreis"},"federalState":{"key":"08","name":"Baden-Württemberg"}},{"name":"St.-Urban-Weg","postalCode":"72534","locality":"Hayingen","municipality":{"key":"08415034","name":"Hayingen, Stadt","type":"Stadt"},"district":{"key":"08415","name":"Reutlingen","type":"Landkreis"},"federalState":{"key":"08","name":"Baden-Württemberg"}},{"name":"St.-Ursula-Str.","postalCode":"72534","locality":"Hayingen","municipality":{"key":"08415034","name":"Hayingen, Stadt","type":"Stadt"},"district":{"key":"08415","name":"Reutlingen","type":"Landkreis"},"federalState":{"key":"08","name":"Baden-Württemberg"}},{"name":"Swiggerstr.","postalCode":"72534","locality":"Hayingen","municipality":{"key":"08415034","name":"Hayingen, Stadt","type":"Stadt"},"district":{"key":"08415","name":"Reutlingen","type":"Landkreis"},"federalState":{"key":"08","name":"Baden-Württemberg"}},{"name":"Talblick","postalCode":"72534","locality":"Hayingen","municipality":{"key":"08415034","name":"Hayingen, Stadt","type":"Stadt"},"district":{"key":"08415","name":"Reutlingen","type":"Landkreis"},"federalState":{"key":"08","name":"Baden-Württemberg"}},{"name":"Talweg","postalCode":"72534","locality":"Hayingen","municipality":{"key":"08415034","name":"Hayingen, Stadt","type":"Stadt"},"district":{"key":"08415","name":"Reutlingen","type":"Landkreis"},"federalState":{"key":"08","name":"Baden-Württemberg"}},{"name":"Tiber-Fundel-Weg","postalCode":"72534","locality":"Hayingen","municipality":{"key":"08415034","name":"Hayingen, Stadt","type":"Stadt"},"district":{"key":"08415","name":"Reutlingen","type":"Landkreis"},"federalState":{"key":"08","name":"Baden-Württemberg"}},{"name":"Tiefental","postalCode":"72534","locality":"Hayingen","municipality":{"key":"08415034","name":"Hayingen, Stadt","type":"Stadt"},"district":{"key":"08415","name":"Reutlingen","type":"Landkreis"},"federalState":{"key":"08","name":"Baden-Württemberg"}},{"name":"Unter dem Rain","postalCode":"72534","locality":"Hayingen","municipality":{"key":"08415034","name":"Hayingen, Stadt","type":"Stadt"},"district":{"key":"08415","name":"Reutlingen","type":"Landkreis"},"federalState":{"key":"08","name":"Baden-Württemberg"}},{"name":"Unter der Buche","postalCode":"72534","locality":"Hayingen","municipality":{"key":"08415034","name":"Hayingen, Stadt","type":"Stadt"},"district":{"key":"08415","name":"Reutlingen","type":"Landkreis"},"federalState":{"key":"08","name":"Baden-Württemberg"}},{"name":"Veilchenweg","postalCode":"72764","locality":"Reutlingen","municipality":{"key":"08415061","name":"Reutlingen, Stadt","type":"Große_Kreisstadt"},"district":{"key":"08415","name":"Reutlingen","type":"Landkreis"},"federalState":{"key":"08","name":"Baden-Württemberg"}},{"name":"Veit-Stoß-Str.","postalCode":"72768","locality":"Reutlingen","municipality":{"key":"08415061","name":"Reutlingen, Stadt","type":"Große_Kreisstadt"},"district":{"key":"08415","name":"Reutlingen","type":"Landkreis"},"federalState":{"key":"08","name":"Baden-Württemberg"}},{"name":"Verbindungsweg","postalCode":"72770","locality":"Reutlingen","municipality":{"key":"08415061","name":"Reutlingen, Stadt","type":"Große_Kreisstadt"},"district":{"key":"08415","name":"Reutlingen","type":"Landkreis"},"federalState":{"key":"08","name":"Baden-Württemberg"}},{"name":"Verdistr.","postalCode":"72768","locality":"Reutlingen","municipality":{"key":"08415061","name":"Reutlingen, Stadt","type":"Große_Kreisstadt"},"district":{"key":"08415","name":"Reutlingen","type":"Landkreis"},"federalState":{"key":"08","name":"Baden-Württemberg"}},{"name":"Vier Länder","postalCode":"72768","locality":"Reutlingen","municipality":{"key":"08415061","name":"Reutlingen, Stadt","type":"Große_Kreisstadt"},"district":{"key":"08415","name":"Reutlingen","type":"Landkreis"},"federalState":{"key":"08","name":"Baden-Württemberg"}},{"name":"Villastr.","postalCode":"72770","locality":"Reutlingen","municipality":{"key":"08415061","name":"Reutlingen, Stadt","type":"Große_Kreisstadt"},"district":{"key":"08415","name":"Reutlingen","type":"Landkreis"},"federalState":{"key":"08","name":"Baden-Württemberg"}},{"name":"Vischerstr.","postalCode":"72764","locality":"Reutlingen","municipality":{"key":"08415061","name":"Reutlingen, Stadt","type":"Große_Kreisstadt"},"district":{"key":"08415","name":"Reutlingen","type":"Landkreis"},"federalState":{"key":"08","name":"Baden-Württemberg"}},{"name":"Vochezenholzstr.","postalCode":"72762","locality":"Reutlingen","municipality":{"key":"08415061","name":"Reutlingen, Stadt","type":"Große_Kreisstadt"},"district":{"key":"08415","name":"Reutlingen","type":"Landkreis"},"federalState":{"key":"08","name":"Baden-Württemberg"}},{"name":"Vogelsangstr.","postalCode":"72770","locality":"Reutlingen","municipality":{"key":"08415061","name":"Reutlingen, Stadt","type":"Große_Kreisstadt"},"district":{"key":"08415","name":"Reutlingen","type":"Landkreis"},"federalState":{"key":"08","name":"Baden-Württemberg"}},{"name":"Vogelsbergstr.","postalCode":"72766","locality":"Reutlingen","municipality":{"key":"08415061","name":"Reutlingen, Stadt","type":"Große_Kreisstadt"},"district":{"key":"08415","name":"Reutlingen","type":"Landkreis"},"federalState":{"key":"08","name":"Baden-Württemberg"}},{"name":"Volker-Ammann-Weg","postalCode":"72770","locality":"Reutlingen","municipality":{"key":"08415061","name":"Reutlingen, Stadt","type":"Große_Kreisstadt"},"district":{"key":"08415","name":"Reutlingen","type":"Landkreis"},"federalState":{"key":"08","name":"Baden-Württemberg"}},{"name":"Volkspark","postalCode":"72762","locality":"Reutlingen","municipality":{"key":"08415061","name":"Reutlingen, Stadt","type":"Große_Kreisstadt"},"district":{"key":"08415","name":"Reutlingen","type":"Landkreis"},"federalState":{"key":"08","name":"Baden-Württemberg"}},{"name":"Vorderer Schönrain","postalCode":"72766","locality":"Reutlingen","municipality":{"key":"08415061","name":"Reutlingen, Stadt","type":"Große_Kreisstadt"},"district":{"key":"08415","name":"Reutlingen","type":"Landkreis"},"federalState":{"key":"08","name":"Baden-Württemberg"}},{"name":"Wacholderweg","postalCode":"72534","locality":"Hayingen","municipality":{"key":"08415034","name":"Hayingen, Stadt","type":"Stadt"},"district":{"key":"08415","name":"Reutlingen","type":"Landkreis"},"federalState":{"key":"08","name":"Baden-Württemberg"}},{"name":"Wagnergasse","postalCode":"72534","locality":"Hayingen","municipality":{"key":"08415034","name":"Hayingen, Stadt","type":"Stadt"},"district":{"key":"08415","name":"Reutlingen","type":"Landkreis"},"federalState":{"key":"08","name":"Baden-Württemberg"}},{"name":"Waldbrunnenweg","postalCode":"72534","locality":"Hayingen","municipality":{"key":"08415034","name":"Hayingen, Stadt","type":"Stadt"},"district":{"key":"08415","name":"Reutlingen","type":"Landkreis"},"federalState":{"key":"08","name":"Baden-Württemberg"}},{"name":"Wannenweg","postalCode":"72534","locality":"Hayingen","municipality":{"key":"08415034","name":"Hayingen, Stadt","type":"Stadt"},"district":{"key":"08415","name":"Reutlingen","type":"Landkreis"},"federalState":{"key":"08","name":"Baden-Württemberg"}},{"name":"Wartsteinweg","postalCode":"72534","locality":"Hayingen","municipality":{"key":"08415034","name":"Hayingen, Stadt","type":"Stadt"},"district":{"key":"08415","name":"Reutlingen","type":"Landkreis"},"federalState":{"key":"08","name":"Baden-Württemberg"}},{"name":"Wasserweg","postalCode":"72534","locality":"Hayingen","municipality":{"key":"08415034","name":"Hayingen, Stadt","type":"Stadt"},"district":{"key":"08415","name":"Reutlingen","type":"Landkreis"},"federalState":{"key":"08","name":"Baden-Württemberg"}},{"name":"Wendelinusweg","postalCode":"72534","locality":"Hayingen","municipality":{"key":"08415034","name":"Hayingen, Stadt","type":"Stadt"},"district":{"key":"08415","name":"Reutlingen","type":"Landkreis"},"federalState":{"key":"08","name":"Baden-Württemberg"}},{"name":"Wildrosenstr.","postalCode":"72534","locality":"Hayingen","municipality":{"key":"08415034","name":"Hayingen, Stadt","type":"Stadt"},"district":{"key":"08415","name":"Reutlingen","type":"Landkreis"},"federalState":{"key":"08","name":"Baden-Württemberg"}},{"name":"Zehntscheuerweg","postalCode":"72534","locality":"Hayingen","municipality":{"key":"08415034","name":"Hayingen, Stadt","type":"Stadt"},"district":{"key":"08415","name":"Reutlingen","type":"Landkreis"},"federalState":{"key":"08","name":"Baden-Württemberg"}},{"name":"Zwiefalter Str.","postalCode":"72534","locality":"Hayingen","municipality":{"key":"08415034","name":"Hayingen, Stadt","type":"Stadt"},"district":{"key":"08415","name":"Reutlingen","type":"Landkreis"},"federalState":{"key":"08","name":"Baden-Württemberg"}},{"name":"Äckerlen","postalCode":"72534","locality":"Hayingen","municipality":{"key":"08415034","name":"Hayingen, Stadt","type":"Stadt"},"district":{"key":"08415","name":"Reutlingen","type":"Landkreis"},"federalState":{"key":"08","name":"Baden-Württemberg"}},{"name":"Öläckerweg","postalCode":"72770","locality":"Reutlingen","municipality":{"key":"08415061","name":"Reutlingen, Stadt","type":"Große_Kreisstadt"},"district":{"key":"08415","name":"Reutlingen","type":"Landkreis"},"federalState":{"key":"08","name":"Baden-Württemberg"}},{"name":"Öschbergweg","postalCode":"72766","locality":"Reutlingen","municipality":{"key":"08415061","name":"Reutlingen, Stadt","type":"Große_Kreisstadt"},"district":{"key":"08415","name":"Reutlingen","type":"Landkreis"},"federalState":{"key":"08","name":"Baden-Württemberg"}},{"name":"Öschinger Str.","postalCode":"72770","locality":"Reutlingen","municipality":{"key":"08415061","name":"Reutlingen, Stadt","type":"Große_Kreisstadt"},"district":{"key":"08415","name":"Reutlingen","type":"Landkreis"},"federalState":{"key":"08","name":"Baden-Württemberg"}},{"name":"Über den Halden","postalCode":"72768","locality":"Reutlingen","municipality":{"key":"08415061","name":"Reutlingen, Stadt","type":"Große_Kreisstadt"},"district":{"key":"08415","name":"Reutlingen","type":"Landkreis"},"federalState":{"key":"08","name":"Baden-Württemberg"}},{"name":"Überm Neckar","postalCode":"72768","locality":"Reutlingen","municipality":{"key":"08415061","name":"Reutlingen, Stadt","type":"Große_Kreisstadt"},"district":{"key":"08415","name":"Reutlingen","type":"Landkreis"},"federalState":{"key":"08","name":"Baden-Württemberg"}},]