[{"name":"Achtalstr.","postalCode":"88299","locality":"Leutkirch im Allgäu","municipality":{"key":"08436055","name":"Leutkirch im Allgäu, Stadt","type":"Große_Kreisstadt"},"district":{"key":"08436","name":"Ravensburg","type":"Landkreis"},"federalState":{"key":"08","name":"Baden-Württemberg"}},{"name":"Achweg","postalCode":"88299","locality":"Leutkirch im Allgäu","municipality":{"key":"08436055","name":"Leutkirch im Allgäu, Stadt","type":"Große_Kreisstadt"},"district":{"key":"08436","name":"Ravensburg","type":"Landkreis"},"federalState":{"key":"08","name":"Baden-Württemberg"}},{"name":"Adalbert-Stifter-Str.","postalCode":"88299","locality":"Leutkirch im Allgäu","municipality":{"key":"08436055","name":"Leutkirch im Allgäu, Stadt","type":"Große_Kreisstadt"},"district":{"key":"08436","name":"Ravensburg","type":"Landkreis"},"federalState":{"key":"08","name":"Baden-Württemberg"}},{"name":"Adeleggstr.","postalCode":"88299","locality":"Leutkirch im Allgäu","municipality":{"key":"08436055","name":"Leutkirch im Allgäu, Stadt","type":"Große_Kreisstadt"},"district":{"key":"08436","name":"Ravensburg","type":"Landkreis"},"federalState":{"key":"08","name":"Baden-Württemberg"}},{"name":"Adlerstr.","postalCode":"88299","locality":"Leutkirch im Allgäu","municipality":{"key":"08436055","name":"Leutkirch im Allgäu, Stadt","type":"Große_Kreisstadt"},"district":{"key":"08436","name":"Ravensburg","type":"Landkreis"},"federalState":{"key":"08","name":"Baden-Württemberg"}},{"name":"Adrazhofer Berg","postalCode":"88299","locality":"Leutkirch im Allgäu","municipality":{"key":"08436055","name":"Leutkirch im Allgäu, Stadt","type":"Große_Kreisstadt"},"district":{"key":"08436","name":"Ravensburg","type":"Landkreis"},"federalState":{"key":"08","name":"Baden-Württemberg"}},{"name":"Ahornweg","postalCode":"88299","locality":"Leutkirch im Allgäu","municipality":{"key":"08436055","name":"Leutkirch im Allgäu, Stadt","type":"Große_Kreisstadt"},"district":{"key":"08436","name":"Ravensburg","type":"Landkreis"},"federalState":{"key":"08","name":"Baden-Württemberg"}},{"name":"Albrecht-Dürer-Str.","postalCode":"88299","locality":"Leutkirch im Allgäu","municipality":{"key":"08436055","name":"Leutkirch im Allgäu, Stadt","type":"Große_Kreisstadt"},"district":{"key":"08436","name":"Ravensburg","type":"Landkreis"},"federalState":{"key":"08","name":"Baden-Württemberg"}},{"name":"Allgäublick","postalCode":"88299","locality":"Leutkirch im Allgäu","municipality":{"key":"08436055","name":"Leutkirch im Allgäu, Stadt","type":"Große_Kreisstadt"},"district":{"key":"08436","name":"Ravensburg","type":"Landkreis"},"federalState":{"key":"08","name":"Baden-Württemberg"}},{"name":"Allmandstr.","postalCode":"88299","locality":"Leutkirch im Allgäu","municipality":{"key":"08436055","name":"Leutkirch im Allgäu, Stadt","type":"Große_Kreisstadt"},"district":{"key":"08436","name":"Ravensburg","type":"Landkreis"},"federalState":{"key":"08","name":"Baden-Württemberg"}},{"name":"Alte Bahnlinie","postalCode":"88299","locality":"Leutkirch im Allgäu","municipality":{"key":"08436055","name":"Leutkirch im Allgäu, Stadt","type":"Große_Kreisstadt"},"district":{"key":"08436","name":"Ravensburg","type":"Landkreis"},"federalState":{"key":"08","name":"Baden-Württemberg"}},{"name":"Alte Marktstr.","postalCode":"88299","locality":"Leutkirch im Allgäu","municipality":{"key":"08436055","name":"Leutkirch im Allgäu, Stadt","type":"Große_Kreisstadt"},"district":{"key":"08436","name":"Ravensburg","type":"Landkreis"},"federalState":{"key":"08","name":"Baden-Württemberg"}},{"name":"Alter Schulweg","postalCode":"88299","locality":"Leutkirch im Allgäu","municipality":{"key":"08436055","name":"Leutkirch im Allgäu, Stadt","type":"Große_Kreisstadt"},"district":{"key":"08436","name":"Ravensburg","type":"Landkreis"},"federalState":{"key":"08","name":"Baden-Württemberg"}},{"name":"Am Alten Postweg","postalCode":"88299","locality":"Leutkirch im Allgäu","municipality":{"key":"08436055","name":"Leutkirch im Allgäu, Stadt","type":"Große_Kreisstadt"},"district":{"key":"08436","name":"Ravensburg","type":"Landkreis"},"federalState":{"key":"08","name":"Baden-Württemberg"}},{"name":"Amann-Locher-Weg","postalCode":"88299","locality":"Leutkirch im Allgäu","municipality":{"key":"08436055","name":"Leutkirch im Allgäu, Stadt","type":"Große_Kreisstadt"},"district":{"key":"08436","name":"Ravensburg","type":"Landkreis"},"federalState":{"key":"08","name":"Baden-Württemberg"}},{"name":"Am Bächle","postalCode":"88299","locality":"Leutkirch im Allgäu","municipality":{"key":"08436055","name":"Leutkirch im Allgäu, Stadt","type":"Große_Kreisstadt"},"district":{"key":"08436","name":"Ravensburg","type":"Landkreis"},"federalState":{"key":"08","name":"Baden-Württemberg"}},{"name":"Am Bahndamm","postalCode":"88299","locality":"Leutkirch im Allgäu","municipality":{"key":"08436055","name":"Leutkirch im Allgäu, Stadt","type":"Große_Kreisstadt"},"district":{"key":"08436","name":"Ravensburg","type":"Landkreis"},"federalState":{"key":"08","name":"Baden-Württemberg"}},{"name":"Am Buchenhang","postalCode":"88299","locality":"Leutkirch im Allgäu","municipality":{"key":"08436055","name":"Leutkirch im Allgäu, Stadt","type":"Große_Kreisstadt"},"district":{"key":"08436","name":"Ravensburg","type":"Landkreis"},"federalState":{"key":"08","name":"Baden-Württemberg"}},{"name":"Am Diepoldshofer Weg","postalCode":"88299","locality":"Leutkirch im Allgäu","municipality":{"key":"08436055","name":"Leutkirch im Allgäu, Stadt","type":"Große_Kreisstadt"},"district":{"key":"08436","name":"Ravensburg","type":"Landkreis"},"federalState":{"key":"08","name":"Baden-Württemberg"}},{"name":"Am Dorfbach","postalCode":"88299","locality":"Leutkirch im Allgäu","municipality":{"key":"08436055","name":"Leutkirch im Allgäu, Stadt","type":"Große_Kreisstadt"},"district":{"key":"08436","name":"Ravensburg","type":"Landkreis"},"federalState":{"key":"08","name":"Baden-Württemberg"}},{"name":"Am Dorfplatz","postalCode":"88299","locality":"Leutkirch im Allgäu","municipality":{"key":"08436055","name":"Leutkirch im Allgäu, Stadt","type":"Große_Kreisstadt"},"district":{"key":"08436","name":"Ravensburg","type":"Landkreis"},"federalState":{"key":"08","name":"Baden-Württemberg"}},{"name":"Am Dürenbach","postalCode":"88299","locality":"Leutkirch im Allgäu","municipality":{"key":"08436055","name":"Leutkirch im Allgäu, Stadt","type":"Große_Kreisstadt"},"district":{"key":"08436","name":"Ravensburg","type":"Landkreis"},"federalState":{"key":"08","name":"Baden-Württemberg"}},{"name":"Am Eichenhang","postalCode":"88299","locality":"Leutkirch im Allgäu","municipality":{"key":"08436055","name":"Leutkirch im Allgäu, Stadt","type":"Große_Kreisstadt"},"district":{"key":"08436","name":"Ravensburg","type":"Landkreis"},"federalState":{"key":"08","name":"Baden-Württemberg"}},{"name":"Am Floschen","postalCode":"88299","locality":"Leutkirch im Allgäu","municipality":{"key":"08436055","name":"Leutkirch im Allgäu, Stadt","type":"Große_Kreisstadt"},"district":{"key":"08436","name":"Ravensburg","type":"Landkreis"},"federalState":{"key":"08","name":"Baden-Württemberg"}},{"name":"Am Fuchsgraben","postalCode":"88299","locality":"Leutkirch im Allgäu","municipality":{"key":"08436055","name":"Leutkirch im Allgäu, Stadt","type":"Große_Kreisstadt"},"district":{"key":"08436","name":"Ravensburg","type":"Landkreis"},"federalState":{"key":"08","name":"Baden-Württemberg"}},{"name":"Am Gängele","postalCode":"88299","locality":"Leutkirch im Allgäu","municipality":{"key":"08436055","name":"Leutkirch im Allgäu, Stadt","type":"Große_Kreisstadt"},"district":{"key":"08436","name":"Ravensburg","type":"Landkreis"},"federalState":{"key":"08","name":"Baden-Württemberg"}},{"name":"Am Gässle","postalCode":"88299","locality":"Leutkirch im Allgäu","municipality":{"key":"08436055","name":"Leutkirch im Allgäu, Stadt","type":"Große_Kreisstadt"},"district":{"key":"08436","name":"Ravensburg","type":"Landkreis"},"federalState":{"key":"08","name":"Baden-Württemberg"}},{"name":"Am Hag","postalCode":"88299","locality":"Leutkirch im Allgäu","municipality":{"key":"08436055","name":"Leutkirch im Allgäu, Stadt","type":"Große_Kreisstadt"},"district":{"key":"08436","name":"Ravensburg","type":"Landkreis"},"federalState":{"key":"08","name":"Baden-Württemberg"}},{"name":"Am Hang","postalCode":"88299","locality":"Leutkirch im Allgäu","municipality":{"key":"08436055","name":"Leutkirch im Allgäu, Stadt","type":"Große_Kreisstadt"},"district":{"key":"08436","name":"Ravensburg","type":"Landkreis"},"federalState":{"key":"08","name":"Baden-Württemberg"}},{"name":"Am Hausacker","postalCode":"88299","locality":"Leutkirch im Allgäu","municipality":{"key":"08436055","name":"Leutkirch im Allgäu, Stadt","type":"Große_Kreisstadt"},"district":{"key":"08436","name":"Ravensburg","type":"Landkreis"},"federalState":{"key":"08","name":"Baden-Württemberg"}},{"name":"Am Haxberg","postalCode":"88299","locality":"Leutkirch im Allgäu","municipality":{"key":"08436055","name":"Leutkirch im Allgäu, Stadt","type":"Große_Kreisstadt"},"district":{"key":"08436","name":"Ravensburg","type":"Landkreis"},"federalState":{"key":"08","name":"Baden-Württemberg"}},{"name":"Am Holderstrauch","postalCode":"88299","locality":"Leutkirch im Allgäu","municipality":{"key":"08436055","name":"Leutkirch im Allgäu, Stadt","type":"Große_Kreisstadt"},"district":{"key":"08436","name":"Ravensburg","type":"Landkreis"},"federalState":{"key":"08","name":"Baden-Württemberg"}},{"name":"Am Hornungsbach","postalCode":"88299","locality":"Leutkirch im Allgäu","municipality":{"key":"08436055","name":"Leutkirch im Allgäu, Stadt","type":"Große_Kreisstadt"},"district":{"key":"08436","name":"Ravensburg","type":"Landkreis"},"federalState":{"key":"08","name":"Baden-Württemberg"}},{"name":"Am Hubertusweg","postalCode":"88299","locality":"Leutkirch im Allgäu","municipality":{"key":"08436055","name":"Leutkirch im Allgäu, Stadt","type":"Große_Kreisstadt"},"district":{"key":"08436","name":"Ravensburg","type":"Landkreis"},"federalState":{"key":"08","name":"Baden-Württemberg"}},{"name":"Am Kapf","postalCode":"88299","locality":"Leutkirch im Allgäu","municipality":{"key":"08436055","name":"Leutkirch im Allgäu, Stadt","type":"Große_Kreisstadt"},"district":{"key":"08436","name":"Ravensburg","type":"Landkreis"},"federalState":{"key":"08","name":"Baden-Württemberg"}},{"name":"Am Kellerberg","postalCode":"88299","locality":"Leutkirch im Allgäu","municipality":{"key":"08436055","name":"Leutkirch im Allgäu, Stadt","type":"Große_Kreisstadt"},"district":{"key":"08436","name":"Ravensburg","type":"Landkreis"},"federalState":{"key":"08","name":"Baden-Württemberg"}},{"name":"Am Kornspeicher","postalCode":"88299","locality":"Leutkirch im Allgäu","municipality":{"key":"08436055","name":"Leutkirch im Allgäu, Stadt","type":"Große_Kreisstadt"},"district":{"key":"08436","name":"Ravensburg","type":"Landkreis"},"federalState":{"key":"08","name":"Baden-Württemberg"}},{"name":"Am Märzengrund","postalCode":"88299","locality":"Leutkirch im Allgäu","municipality":{"key":"08436055","name":"Leutkirch im Allgäu, Stadt","type":"Große_Kreisstadt"},"district":{"key":"08436","name":"Ravensburg","type":"Landkreis"},"federalState":{"key":"08","name":"Baden-Württemberg"}},{"name":"Am Moos","postalCode":"88299","locality":"Leutkirch im Allgäu","municipality":{"key":"08436055","name":"Leutkirch im Allgäu, Stadt","type":"Große_Kreisstadt"},"district":{"key":"08436","name":"Ravensburg","type":"Landkreis"},"federalState":{"key":"08","name":"Baden-Württemberg"}},{"name":"Am Mühlbach","postalCode":"88299","locality":"Leutkirch im Allgäu","municipality":{"key":"08436055","name":"Leutkirch im Allgäu, Stadt","type":"Große_Kreisstadt"},"district":{"key":"08436","name":"Ravensburg","type":"Landkreis"},"federalState":{"key":"08","name":"Baden-Württemberg"}},{"name":"Am neuen Friedhof","postalCode":"88299","locality":"Leutkirch im Allgäu","municipality":{"key":"08436055","name":"Leutkirch im Allgäu, Stadt","type":"Große_Kreisstadt"},"district":{"key":"08436","name":"Ravensburg","type":"Landkreis"},"federalState":{"key":"08","name":"Baden-Württemberg"}},{"name":"Am Pfarrstadl","postalCode":"88299","locality":"Leutkirch im Allgäu","municipality":{"key":"08436055","name":"Leutkirch im Allgäu, Stadt","type":"Große_Kreisstadt"},"district":{"key":"08436","name":"Ravensburg","type":"Landkreis"},"federalState":{"key":"08","name":"Baden-Württemberg"}},{"name":"Am Rathaus","postalCode":"88299","locality":"Leutkirch im Allgäu","municipality":{"key":"08436055","name":"Leutkirch im Allgäu, Stadt","type":"Große_Kreisstadt"},"district":{"key":"08436","name":"Ravensburg","type":"Landkreis"},"federalState":{"key":"08","name":"Baden-Württemberg"}},{"name":"Am Repsweiher","postalCode":"88299","locality":"Leutkirch im Allgäu","municipality":{"key":"08436055","name":"Leutkirch im Allgäu, Stadt","type":"Große_Kreisstadt"},"district":{"key":"08436","name":"Ravensburg","type":"Landkreis"},"federalState":{"key":"08","name":"Baden-Württemberg"}},{"name":"Am Sägplatz","postalCode":"88299","locality":"Leutkirch im Allgäu","municipality":{"key":"08436055","name":"Leutkirch im Allgäu, Stadt","type":"Große_Kreisstadt"},"district":{"key":"08436","name":"Ravensburg","type":"Landkreis"},"federalState":{"key":"08","name":"Baden-Württemberg"}},{"name":"Am Schächele","postalCode":"88299","locality":"Leutkirch im Allgäu","municipality":{"key":"08436055","name":"Leutkirch im Allgäu, Stadt","type":"Große_Kreisstadt"},"district":{"key":"08436","name":"Ravensburg","type":"Landkreis"},"federalState":{"key":"08","name":"Baden-Württemberg"}},{"name":"Am Schilfweg","postalCode":"88299","locality":"Leutkirch im Allgäu","municipality":{"key":"08436055","name":"Leutkirch im Allgäu, Stadt","type":"Große_Kreisstadt"},"district":{"key":"08436","name":"Ravensburg","type":"Landkreis"},"federalState":{"key":"08","name":"Baden-Württemberg"}},{"name":"Am Schindgarten","postalCode":"88299","locality":"Leutkirch im Allgäu","municipality":{"key":"08436055","name":"Leutkirch im Allgäu, Stadt","type":"Große_Kreisstadt"},"district":{"key":"08436","name":"Ravensburg","type":"Landkreis"},"federalState":{"key":"08","name":"Baden-Württemberg"}},{"name":"Amselweg","postalCode":"88299","locality":"Leutkirch im Allgäu","municipality":{"key":"08436055","name":"Leutkirch im Allgäu, Stadt","type":"Große_Kreisstadt"},"district":{"key":"08436","name":"Ravensburg","type":"Landkreis"},"federalState":{"key":"08","name":"Baden-Württemberg"}},{"name":"Am Simonsweg","postalCode":"88299","locality":"Leutkirch im Allgäu","municipality":{"key":"08436055","name":"Leutkirch im Allgäu, Stadt","type":"Große_Kreisstadt"},"district":{"key":"08436","name":"Ravensburg","type":"Landkreis"},"federalState":{"key":"08","name":"Baden-Württemberg"}},{"name":"Bachstr.","postalCode":"88299","locality":"Leutkirch im Allgäu","municipality":{"key":"08436055","name":"Leutkirch im Allgäu, Stadt","type":"Große_Kreisstadt"},"district":{"key":"08436","name":"Ravensburg","type":"Landkreis"},"federalState":{"key":"08","name":"Baden-Württemberg"}},{"name":"Badweg","postalCode":"88299","locality":"Leutkirch im Allgäu","municipality":{"key":"08436055","name":"Leutkirch im Allgäu, Stadt","type":"Große_Kreisstadt"},"district":{"key":"08436","name":"Ravensburg","type":"Landkreis"},"federalState":{"key":"08","name":"Baden-Württemberg"}},{"name":"Bahnhof","postalCode":"88299","locality":"Leutkirch im Allgäu","municipality":{"key":"08436055","name":"Leutkirch im Allgäu, Stadt","type":"Große_Kreisstadt"},"district":{"key":"08436","name":"Ravensburg","type":"Landkreis"},"federalState":{"key":"08","name":"Baden-Württemberg"}},{"name":"Bahnhofspark","postalCode":"88299","locality":"Leutkirch im Allgäu","municipality":{"key":"08436055","name":"Leutkirch im Allgäu, Stadt","type":"Große_Kreisstadt"},"district":{"key":"08436","name":"Ravensburg","type":"Landkreis"},"federalState":{"key":"08","name":"Baden-Württemberg"}},{"name":"Bahnhofstr.","postalCode":"88299","locality":"Leutkirch im Allgäu","municipality":{"key":"08436055","name":"Leutkirch im Allgäu, Stadt","type":"Große_Kreisstadt"},"district":{"key":"08436","name":"Ravensburg","type":"Landkreis"},"federalState":{"key":"08","name":"Baden-Württemberg"}},{"name":"Balterazhofer Str.","postalCode":"88299","locality":"Leutkirch im Allgäu","municipality":{"key":"08436055","name":"Leutkirch im Allgäu, Stadt","type":"Große_Kreisstadt"},"district":{"key":"08436","name":"Ravensburg","type":"Landkreis"},"federalState":{"key":"08","name":"Baden-Württemberg"}},{"name":"Bauhofgasse","postalCode":"88299","locality":"Leutkirch im Allgäu","municipality":{"key":"08436055","name":"Leutkirch im Allgäu, Stadt","type":"Große_Kreisstadt"},"district":{"key":"08436","name":"Ravensburg","type":"Landkreis"},"federalState":{"key":"08","name":"Baden-Württemberg"}},{"name":"Baumannstr.","postalCode":"88299","locality":"Leutkirch im Allgäu","municipality":{"key":"08436055","name":"Leutkirch im Allgäu, Stadt","type":"Große_Kreisstadt"},"district":{"key":"08436","name":"Ravensburg","type":"Landkreis"},"federalState":{"key":"08","name":"Baden-Württemberg"}},{"name":"Baumgartenweg","postalCode":"88299","locality":"Leutkirch im Allgäu","municipality":{"key":"08436055","name":"Leutkirch im Allgäu, Stadt","type":"Große_Kreisstadt"},"district":{"key":"08436","name":"Ravensburg","type":"Landkreis"},"federalState":{"key":"08","name":"Baden-Württemberg"}},{"name":"Baurenbergweg","postalCode":"88299","locality":"Leutkirch im Allgäu","municipality":{"key":"08436055","name":"Leutkirch im Allgäu, Stadt","type":"Große_Kreisstadt"},"district":{"key":"08436","name":"Ravensburg","type":"Landkreis"},"federalState":{"key":"08","name":"Baden-Württemberg"}},{"name":"Beim Hammerschmied","postalCode":"88299","locality":"Leutkirch im Allgäu","municipality":{"key":"08436055","name":"Leutkirch im Allgäu, Stadt","type":"Große_Kreisstadt"},"district":{"key":"08436","name":"Ravensburg","type":"Landkreis"},"federalState":{"key":"08","name":"Baden-Württemberg"}},{"name":"Beim Seiler","postalCode":"88299","locality":"Leutkirch im Allgäu","municipality":{"key":"08436055","name":"Leutkirch im Allgäu, Stadt","type":"Große_Kreisstadt"},"district":{"key":"08436","name":"Ravensburg","type":"Landkreis"},"federalState":{"key":"08","name":"Baden-Württemberg"}},{"name":"Beim Wagner","postalCode":"88299","locality":"Leutkirch im Allgäu","municipality":{"key":"08436055","name":"Leutkirch im Allgäu, Stadt","type":"Große_Kreisstadt"},"district":{"key":"08436","name":"Ravensburg","type":"Landkreis"},"federalState":{"key":"08","name":"Baden-Württemberg"}},{"name":"Beim Zehntstadel","postalCode":"88299","locality":"Leutkirch im Allgäu","municipality":{"key":"08436055","name":"Leutkirch im Allgäu, Stadt","type":"Große_Kreisstadt"},"district":{"key":"08436","name":"Ravensburg","type":"Landkreis"},"federalState":{"key":"08","name":"Baden-Württemberg"}},{"name":"Beiselstr.","postalCode":"88299","locality":"Leutkirch im Allgäu","municipality":{"key":"08436055","name":"Leutkirch im Allgäu, Stadt","type":"Große_Kreisstadt"},"district":{"key":"08436","name":"Ravensburg","type":"Landkreis"},"federalState":{"key":"08","name":"Baden-Württemberg"}},{"name":"Bergblick","postalCode":"88299","locality":"Leutkirch im Allgäu","municipality":{"key":"08436055","name":"Leutkirch im Allgäu, Stadt","type":"Große_Kreisstadt"},"district":{"key":"08436","name":"Ravensburg","type":"Landkreis"},"federalState":{"key":"08","name":"Baden-Württemberg"}},{"name":"Bergstr.","postalCode":"88299","locality":"Leutkirch im Allgäu","municipality":{"key":"08436055","name":"Leutkirch im Allgäu, Stadt","type":"Große_Kreisstadt"},"district":{"key":"08436","name":"Ravensburg","type":"Landkreis"},"federalState":{"key":"08","name":"Baden-Württemberg"}},{"name":"Bergweg","postalCode":"88299","locality":"Leutkirch im Allgäu","municipality":{"key":"08436055","name":"Leutkirch im Allgäu, Stadt","type":"Große_Kreisstadt"},"district":{"key":"08436","name":"Ravensburg","type":"Landkreis"},"federalState":{"key":"08","name":"Baden-Württemberg"}},{"name":"Bettelhofen","postalCode":"88299","locality":"Leutkirch im Allgäu","municipality":{"key":"08436055","name":"Leutkirch im Allgäu, Stadt","type":"Große_Kreisstadt"},"district":{"key":"08436","name":"Ravensburg","type":"Landkreis"},"federalState":{"key":"08","name":"Baden-Württemberg"}},{"name":"Beurener Str.","postalCode":"88299","locality":"Leutkirch im Allgäu","municipality":{"key":"08436055","name":"Leutkirch im Allgäu, Stadt","type":"Große_Kreisstadt"},"district":{"key":"08436","name":"Ravensburg","type":"Landkreis"},"federalState":{"key":"08","name":"Baden-Württemberg"}},{"name":"Birkenweg","postalCode":"88299","locality":"Leutkirch im Allgäu","municipality":{"key":"08436055","name":"Leutkirch im Allgäu, Stadt","type":"Große_Kreisstadt"},"district":{"key":"08436","name":"Ravensburg","type":"Landkreis"},"federalState":{"key":"08","name":"Baden-Württemberg"}},{"name":"Bischof-Leiprecht-Str.","postalCode":"88299","locality":"Leutkirch im Allgäu","municipality":{"key":"08436055","name":"Leutkirch im Allgäu, Stadt","type":"Große_Kreisstadt"},"district":{"key":"08436","name":"Ravensburg","type":"Landkreis"},"federalState":{"key":"08","name":"Baden-Württemberg"}},{"name":"Bischof-Moser-Str.","postalCode":"88299","locality":"Leutkirch im Allgäu","municipality":{"key":"08436055","name":"Leutkirch im Allgäu, Stadt","type":"Große_Kreisstadt"},"district":{"key":"08436","name":"Ravensburg","type":"Landkreis"},"federalState":{"key":"08","name":"Baden-Württemberg"}},{"name":"Bischof-Sproll-Str.","postalCode":"88299","locality":"Leutkirch im Allgäu","municipality":{"key":"08436055","name":"Leutkirch im Allgäu, Stadt","type":"Große_Kreisstadt"},"district":{"key":"08436","name":"Ravensburg","type":"Landkreis"},"federalState":{"key":"08","name":"Baden-Württemberg"}},{"name":"Blaichstr.","postalCode":"88299","locality":"Leutkirch im Allgäu","municipality":{"key":"08436055","name":"Leutkirch im Allgäu, Stadt","type":"Große_Kreisstadt"},"district":{"key":"08436","name":"Ravensburg","type":"Landkreis"},"federalState":{"key":"08","name":"Baden-Württemberg"}},{"name":"Bodenhaus","postalCode":"88299","locality":"Leutkirch im Allgäu","municipality":{"key":"08436055","name":"Leutkirch im Allgäu, Stadt","type":"Große_Kreisstadt"},"district":{"key":"08436","name":"Ravensburg","type":"Landkreis"},"federalState":{"key":"08","name":"Baden-Württemberg"}},{"name":"Bogenstr.","postalCode":"88299","locality":"Leutkirch im Allgäu","municipality":{"key":"08436055","name":"Leutkirch im Allgäu, Stadt","type":"Große_Kreisstadt"},"district":{"key":"08436","name":"Ravensburg","type":"Landkreis"},"federalState":{"key":"08","name":"Baden-Württemberg"}},{"name":"Boindstr.","postalCode":"88299","locality":"Leutkirch im Allgäu","municipality":{"key":"08436055","name":"Leutkirch im Allgäu, Stadt","type":"Große_Kreisstadt"},"district":{"key":"08436","name":"Ravensburg","type":"Landkreis"},"federalState":{"key":"08","name":"Baden-Württemberg"}},{"name":"Brandenburger Str.","postalCode":"88299","locality":"Leutkirch im Allgäu","municipality":{"key":"08436055","name":"Leutkirch im Allgäu, Stadt","type":"Große_Kreisstadt"},"district":{"key":"08436","name":"Ravensburg","type":"Landkreis"},"federalState":{"key":"08","name":"Baden-Württemberg"}},{"name":"Brauereiweg","postalCode":"88299","locality":"Leutkirch im Allgäu","municipality":{"key":"08436055","name":"Leutkirch im Allgäu, Stadt","type":"Große_Kreisstadt"},"district":{"key":"08436","name":"Ravensburg","type":"Landkreis"},"federalState":{"key":"08","name":"Baden-Württemberg"}},{"name":"Brückenstr.","postalCode":"88299","locality":"Leutkirch im Allgäu","municipality":{"key":"08436055","name":"Leutkirch im Allgäu, Stadt","type":"Große_Kreisstadt"},"district":{"key":"08436","name":"Ravensburg","type":"Landkreis"},"federalState":{"key":"08","name":"Baden-Württemberg"}},{"name":"Brühlstr.","postalCode":"88299","locality":"Leutkirch im Allgäu","municipality":{"key":"08436055","name":"Leutkirch im Allgäu, Stadt","type":"Große_Kreisstadt"},"district":{"key":"08436","name":"Ravensburg","type":"Landkreis"},"federalState":{"key":"08","name":"Baden-Württemberg"}},{"name":"Brunnenstr.","postalCode":"88299","locality":"Leutkirch im Allgäu","municipality":{"key":"08436055","name":"Leutkirch im Allgäu, Stadt","type":"Große_Kreisstadt"},"district":{"key":"08436","name":"Ravensburg","type":"Landkreis"},"federalState":{"key":"08","name":"Baden-Württemberg"}},{"name":"Brunnentobel","postalCode":"88299","locality":"Leutkirch im Allgäu","municipality":{"key":"08436055","name":"Leutkirch im Allgäu, Stadt","type":"Große_Kreisstadt"},"district":{"key":"08436","name":"Ravensburg","type":"Landkreis"},"federalState":{"key":"08","name":"Baden-Württemberg"}},{"name":"Brunnenwies","postalCode":"88299","locality":"Leutkirch im Allgäu","municipality":{"key":"08436055","name":"Leutkirch im Allgäu, Stadt","type":"Große_Kreisstadt"},"district":{"key":"08436","name":"Ravensburg","type":"Landkreis"},"federalState":{"key":"08","name":"Baden-Württemberg"}},{"name":"Buchenweg","postalCode":"88299","locality":"Leutkirch im Allgäu","municipality":{"key":"08436055","name":"Leutkirch im Allgäu, Stadt","type":"Große_Kreisstadt"},"district":{"key":"08436","name":"Ravensburg","type":"Landkreis"},"federalState":{"key":"08","name":"Baden-Württemberg"}},{"name":"Burgstr.","postalCode":"88299","locality":"Leutkirch im Allgäu","municipality":{"key":"08436055","name":"Leutkirch im Allgäu, Stadt","type":"Große_Kreisstadt"},"district":{"key":"08436","name":"Ravensburg","type":"Landkreis"},"federalState":{"key":"08","name":"Baden-Württemberg"}},{"name":"Burrisweg","postalCode":"88299","locality":"Leutkirch im Allgäu","municipality":{"key":"08436055","name":"Leutkirch im Allgäu, Stadt","type":"Große_Kreisstadt"},"district":{"key":"08436","name":"Ravensburg","type":"Landkreis"},"federalState":{"key":"08","name":"Baden-Württemberg"}},{"name":"Carlo-Schmid-Str.","postalCode":"88299","locality":"Leutkirch im Allgäu","municipality":{"key":"08436055","name":"Leutkirch im Allgäu, Stadt","type":"Große_Kreisstadt"},"district":{"key":"08436","name":"Ravensburg","type":"Landkreis"},"federalState":{"key":"08","name":"Baden-Württemberg"}},{"name":"Casian-Motz-Str.","postalCode":"88299","locality":"Leutkirch im Allgäu","municipality":{"key":"08436055","name":"Leutkirch im Allgäu, Stadt","type":"Große_Kreisstadt"},"district":{"key":"08436","name":"Ravensburg","type":"Landkreis"},"federalState":{"key":"08","name":"Baden-Württemberg"}},{"name":"Charlottenstr.","postalCode":"88299","locality":"Leutkirch im Allgäu","municipality":{"key":"08436055","name":"Leutkirch im Allgäu, Stadt","type":"Große_Kreisstadt"},"district":{"key":"08436","name":"Ravensburg","type":"Landkreis"},"federalState":{"key":"08","name":"Baden-Württemberg"}},{"name":"Dahlienweg","postalCode":"88299","locality":"Leutkirch im Allgäu","municipality":{"key":"08436055","name":"Leutkirch im Allgäu, Stadt","type":"Große_Kreisstadt"},"district":{"key":"08436","name":"Ravensburg","type":"Landkreis"},"federalState":{"key":"08","name":"Baden-Württemberg"}},{"name":"Damaschkeweg","postalCode":"88299","locality":"Leutkirch im Allgäu","municipality":{"key":"08436055","name":"Leutkirch im Allgäu, Stadt","type":"Große_Kreisstadt"},"district":{"key":"08436","name":"Ravensburg","type":"Landkreis"},"federalState":{"key":"08","name":"Baden-Württemberg"}},{"name":"Dammweg","postalCode":"88299","locality":"Leutkirch im Allgäu","municipality":{"key":"08436055","name":"Leutkirch im Allgäu, Stadt","type":"Große_Kreisstadt"},"district":{"key":"08436","name":"Ravensburg","type":"Landkreis"},"federalState":{"key":"08","name":"Baden-Württemberg"}},{"name":"Danziger Str.","postalCode":"88299","locality":"Leutkirch im Allgäu","municipality":{"key":"08436055","name":"Leutkirch im Allgäu, Stadt","type":"Große_Kreisstadt"},"district":{"key":"08436","name":"Ravensburg","type":"Landkreis"},"federalState":{"key":"08","name":"Baden-Württemberg"}},{"name":"Dekan-Kästle-Str.","postalCode":"88299","locality":"Leutkirch im Allgäu","municipality":{"key":"08436055","name":"Leutkirch im Allgäu, Stadt","type":"Große_Kreisstadt"},"district":{"key":"08436","name":"Ravensburg","type":"Landkreis"},"federalState":{"key":"08","name":"Baden-Württemberg"}},{"name":"Dekan-Willburger-Str.","postalCode":"88299","locality":"Leutkirch im Allgäu","municipality":{"key":"08436055","name":"Leutkirch im Allgäu, Stadt","type":"Große_Kreisstadt"},"district":{"key":"08436","name":"Ravensburg","type":"Landkreis"},"federalState":{"key":"08","name":"Baden-Württemberg"}},{"name":"Dilpersrieder Str.","postalCode":"88299","locality":"Leutkirch im Allgäu","municipality":{"key":"08436055","name":"Leutkirch im Allgäu, Stadt","type":"Große_Kreisstadt"},"district":{"key":"08436","name":"Ravensburg","type":"Landkreis"},"federalState":{"key":"08","name":"Baden-Württemberg"}},{"name":"Dominikus-Zimmermann-Str.","postalCode":"88299","locality":"Leutkirch im Allgäu","municipality":{"key":"08436055","name":"Leutkirch im Allgäu, Stadt","type":"Große_Kreisstadt"},"district":{"key":"08436","name":"Ravensburg","type":"Landkreis"},"federalState":{"key":"08","name":"Baden-Württemberg"}},{"name":"Dorfstr.","postalCode":"88299","locality":"Leutkirch im Allgäu","municipality":{"key":"08436055","name":"Leutkirch im Allgäu, Stadt","type":"Große_Kreisstadt"},"district":{"key":"08436","name":"Ravensburg","type":"Landkreis"},"federalState":{"key":"08","name":"Baden-Württemberg"}},{"name":"Drosselweg","postalCode":"88299","locality":"Leutkirch im Allgäu","municipality":{"key":"08436055","name":"Leutkirch im Allgäu, Stadt","type":"Große_Kreisstadt"},"district":{"key":"08436","name":"Ravensburg","type":"Landkreis"},"federalState":{"key":"08","name":"Baden-Württemberg"}},{"name":"Dübelweg","postalCode":"88299","locality":"Leutkirch im Allgäu","municipality":{"key":"08436055","name":"Leutkirch im Allgäu, Stadt","type":"Große_Kreisstadt"},"district":{"key":"08436","name":"Ravensburg","type":"Landkreis"},"federalState":{"key":"08","name":"Baden-Württemberg"}},{"name":"Eberhard-Joser-Weg","postalCode":"88299","locality":"Leutkirch im Allgäu","municipality":{"key":"08436055","name":"Leutkirch im Allgäu, Stadt","type":"Große_Kreisstadt"},"district":{"key":"08436","name":"Ravensburg","type":"Landkreis"},"federalState":{"key":"08","name":"Baden-Württemberg"}},{"name":"Ebnatweg","postalCode":"88299","locality":"Leutkirch im Allgäu","municipality":{"key":"08436055","name":"Leutkirch im Allgäu, Stadt","type":"Große_Kreisstadt"},"district":{"key":"08436","name":"Ravensburg","type":"Landkreis"},"federalState":{"key":"08","name":"Baden-Württemberg"}},{"name":"Eggmannstr.","postalCode":"88299","locality":"Leutkirch im Allgäu","municipality":{"key":"08436055","name":"Leutkirch im Allgäu, Stadt","type":"Große_Kreisstadt"},"district":{"key":"08436","name":"Ravensburg","type":"Landkreis"},"federalState":{"key":"08","name":"Baden-Württemberg"}},{"name":"Eibenweg","postalCode":"88299","locality":"Leutkirch im Allgäu","municipality":{"key":"08436055","name":"Leutkirch im Allgäu, Stadt","type":"Große_Kreisstadt"},"district":{"key":"08436","name":"Ravensburg","type":"Landkreis"},"federalState":{"key":"08","name":"Baden-Württemberg"}},{"name":"Eichendorffstr.","postalCode":"88299","locality":"Leutkirch im Allgäu","municipality":{"key":"08436055","name":"Leutkirch im Allgäu, Stadt","type":"Große_Kreisstadt"},"district":{"key":"08436","name":"Ravensburg","type":"Landkreis"},"federalState":{"key":"08","name":"Baden-Württemberg"}},{"name":"Eichenstr.","postalCode":"88299","locality":"Leutkirch im Allgäu","municipality":{"key":"08436055","name":"Leutkirch im Allgäu, Stadt","type":"Große_Kreisstadt"},"district":{"key":"08436","name":"Ravensburg","type":"Landkreis"},"federalState":{"key":"08","name":"Baden-Württemberg"}},{"name":"Emerlanden","postalCode":"88299","locality":"Leutkirch im Allgäu","municipality":{"key":"08436055","name":"Leutkirch im Allgäu, Stadt","type":"Große_Kreisstadt"},"district":{"key":"08436","name":"Ravensburg","type":"Landkreis"},"federalState":{"key":"08","name":"Baden-Württemberg"}},{"name":"Emerlander Mühle","postalCode":"88299","locality":"Leutkirch im Allgäu","municipality":{"key":"08436055","name":"Leutkirch im Allgäu, Stadt","type":"Große_Kreisstadt"},"district":{"key":"08436","name":"Ravensburg","type":"Landkreis"},"federalState":{"key":"08","name":"Baden-Württemberg"}},{"name":"Engelboldshofen","postalCode":"88299","locality":"Leutkirch im Allgäu","municipality":{"key":"08436055","name":"Leutkirch im Allgäu, Stadt","type":"Große_Kreisstadt"},"district":{"key":"08436","name":"Ravensburg","type":"Landkreis"},"federalState":{"key":"08","name":"Baden-Württemberg"}},{"name":"Engelboldshofer Str.","postalCode":"88299","locality":"Leutkirch im Allgäu","municipality":{"key":"08436055","name":"Leutkirch im Allgäu, Stadt","type":"Große_Kreisstadt"},"district":{"key":"08436","name":"Ravensburg","type":"Landkreis"},"federalState":{"key":"08","name":"Baden-Württemberg"}},{"name":"Engelgässle","postalCode":"88299","locality":"Leutkirch im Allgäu","municipality":{"key":"08436055","name":"Leutkirch im Allgäu, Stadt","type":"Große_Kreisstadt"},"district":{"key":"08436","name":"Ravensburg","type":"Landkreis"},"federalState":{"key":"08","name":"Baden-Württemberg"}},{"name":"Engerazhofer Str.","postalCode":"88299","locality":"Leutkirch im Allgäu","municipality":{"key":"08436055","name":"Leutkirch im Allgäu, Stadt","type":"Große_Kreisstadt"},"district":{"key":"08436","name":"Ravensburg","type":"Landkreis"},"federalState":{"key":"08","name":"Baden-Württemberg"}},{"name":"Entenbachgässle","postalCode":"88299","locality":"Leutkirch im Allgäu","municipality":{"key":"08436055","name":"Leutkirch im Allgäu, Stadt","type":"Große_Kreisstadt"},"district":{"key":"08436","name":"Ravensburg","type":"Landkreis"},"federalState":{"key":"08","name":"Baden-Württemberg"}},{"name":"Enzianweg","postalCode":"88299","locality":"Leutkirch im Allgäu","municipality":{"key":"08436055","name":"Leutkirch im Allgäu, Stadt","type":"Große_Kreisstadt"},"district":{"key":"08436","name":"Ravensburg","type":"Landkreis"},"federalState":{"key":"08","name":"Baden-Württemberg"}},{"name":"Enzlesmühler Weg","postalCode":"88299","locality":"Leutkirch im Allgäu","municipality":{"key":"08436055","name":"Leutkirch im Allgäu, Stadt","type":"Große_Kreisstadt"},"district":{"key":"08436","name":"Ravensburg","type":"Landkreis"},"federalState":{"key":"08","name":"Baden-Württemberg"}},{"name":"Erlenweg","postalCode":"88299","locality":"Leutkirch im Allgäu","municipality":{"key":"08436055","name":"Leutkirch im Allgäu, Stadt","type":"Große_Kreisstadt"},"district":{"key":"08436","name":"Ravensburg","type":"Landkreis"},"federalState":{"key":"08","name":"Baden-Württemberg"}},{"name":"Erwin-Henning-Weg","postalCode":"88299","locality":"Leutkirch im Allgäu","municipality":{"key":"08436055","name":"Leutkirch im Allgäu, Stadt","type":"Große_Kreisstadt"},"district":{"key":"08436","name":"Ravensburg","type":"Landkreis"},"federalState":{"key":"08","name":"Baden-Württemberg"}},{"name":"Esch","postalCode":"88299","locality":"Leutkirch im Allgäu","municipality":{"key":"08436055","name":"Leutkirch im Allgäu, Stadt","type":"Große_Kreisstadt"},"district":{"key":"08436","name":"Ravensburg","type":"Landkreis"},"federalState":{"key":"08","name":"Baden-Württemberg"}},{"name":"Eschachstr.","postalCode":"88299","locality":"Leutkirch im Allgäu","municipality":{"key":"08436055","name":"Leutkirch im Allgäu, Stadt","type":"Große_Kreisstadt"},"district":{"key":"08436","name":"Ravensburg","type":"Landkreis"},"federalState":{"key":"08","name":"Baden-Württemberg"}},{"name":"Europaplatz","postalCode":"88299","locality":"Leutkirch im Allgäu","municipality":{"key":"08436055","name":"Leutkirch im Allgäu, Stadt","type":"Große_Kreisstadt"},"district":{"key":"08436","name":"Ravensburg","type":"Landkreis"},"federalState":{"key":"08","name":"Baden-Württemberg"}},{"name":"Evangelische Kirchgasse","postalCode":"88299","locality":"Leutkirch im Allgäu","municipality":{"key":"08436055","name":"Leutkirch im Allgäu, Stadt","type":"Große_Kreisstadt"},"district":{"key":"08436","name":"Ravensburg","type":"Landkreis"},"federalState":{"key":"08","name":"Baden-Württemberg"}},{"name":"Faberstr.","postalCode":"88299","locality":"Leutkirch im Allgäu","municipality":{"key":"08436055","name":"Leutkirch im Allgäu, Stadt","type":"Große_Kreisstadt"},"district":{"key":"08436","name":"Ravensburg","type":"Landkreis"},"federalState":{"key":"08","name":"Baden-Württemberg"}},{"name":"Falkenweg","postalCode":"88299","locality":"Leutkirch im Allgäu","municipality":{"key":"08436055","name":"Leutkirch im Allgäu, Stadt","type":"Große_Kreisstadt"},"district":{"key":"08436","name":"Ravensburg","type":"Landkreis"},"federalState":{"key":"08","name":"Baden-Württemberg"}},{"name":"Fasanenweg","postalCode":"88299","locality":"Leutkirch im Allgäu","municipality":{"key":"08436055","name":"Leutkirch im Allgäu, Stadt","type":"Große_Kreisstadt"},"district":{"key":"08436","name":"Ravensburg","type":"Landkreis"},"federalState":{"key":"08","name":"Baden-Württemberg"}},{"name":"Fetzachweg","postalCode":"88299","locality":"Leutkirch im Allgäu","municipality":{"key":"08436055","name":"Leutkirch im Allgäu, Stadt","type":"Große_Kreisstadt"},"district":{"key":"08436","name":"Ravensburg","type":"Landkreis"},"federalState":{"key":"08","name":"Baden-Württemberg"}},{"name":"Fichtenweg","postalCode":"88299","locality":"Leutkirch im Allgäu","municipality":{"key":"08436055","name":"Leutkirch im Allgäu, Stadt","type":"Große_Kreisstadt"},"district":{"key":"08436","name":"Ravensburg","type":"Landkreis"},"federalState":{"key":"08","name":"Baden-Württemberg"}},{"name":"Finkenweg","postalCode":"88299","locality":"Leutkirch im Allgäu","municipality":{"key":"08436055","name":"Leutkirch im Allgäu, Stadt","type":"Große_Kreisstadt"},"district":{"key":"08436","name":"Ravensburg","type":"Landkreis"},"federalState":{"key":"08","name":"Baden-Württemberg"}},{"name":"Fischerstr.","postalCode":"88299","locality":"Leutkirch im Allgäu","municipality":{"key":"08436055","name":"Leutkirch im Allgäu, Stadt","type":"Große_Kreisstadt"},"district":{"key":"08436","name":"Ravensburg","type":"Landkreis"},"federalState":{"key":"08","name":"Baden-Württemberg"}},{"name":"Floriansweg","postalCode":"88299","locality":"Leutkirch im Allgäu","municipality":{"key":"08436055","name":"Leutkirch im Allgäu, Stadt","type":"Große_Kreisstadt"},"district":{"key":"08436","name":"Ravensburg","type":"Landkreis"},"federalState":{"key":"08","name":"Baden-Württemberg"}},{"name":"Flurstr.","postalCode":"88299","locality":"Leutkirch im Allgäu","municipality":{"key":"08436055","name":"Leutkirch im Allgäu, Stadt","type":"Große_Kreisstadt"},"district":{"key":"08436","name":"Ravensburg","type":"Landkreis"},"federalState":{"key":"08","name":"Baden-Württemberg"}},{"name":"Flußweg","postalCode":"88299","locality":"Leutkirch im Allgäu","municipality":{"key":"08436055","name":"Leutkirch im Allgäu, Stadt","type":"Große_Kreisstadt"},"district":{"key":"08436","name":"Ravensburg","type":"Landkreis"},"federalState":{"key":"08","name":"Baden-Württemberg"}},{"name":"Forchenweg","postalCode":"88299","locality":"Leutkirch im Allgäu","municipality":{"key":"08436055","name":"Leutkirch im Allgäu, Stadt","type":"Große_Kreisstadt"},"district":{"key":"08436","name":"Ravensburg","type":"Landkreis"},"federalState":{"key":"08","name":"Baden-Württemberg"}},{"name":"Forststr.","postalCode":"88299","locality":"Leutkirch im Allgäu","municipality":{"key":"08436055","name":"Leutkirch im Allgäu, Stadt","type":"Große_Kreisstadt"},"district":{"key":"08436","name":"Ravensburg","type":"Landkreis"},"federalState":{"key":"08","name":"Baden-Württemberg"}},{"name":"Franz-Beer-Weg","postalCode":"88299","locality":"Leutkirch im Allgäu","municipality":{"key":"08436055","name":"Leutkirch im Allgäu, Stadt","type":"Große_Kreisstadt"},"district":{"key":"08436","name":"Ravensburg","type":"Landkreis"},"federalState":{"key":"08","name":"Baden-Württemberg"}},{"name":"Frauenzeller Str.","postalCode":"88299","locality":"Leutkirch im Allgäu","municipality":{"key":"08436055","name":"Leutkirch im Allgäu, Stadt","type":"Große_Kreisstadt"},"district":{"key":"08436","name":"Ravensburg","type":"Landkreis"},"federalState":{"key":"08","name":"Baden-Württemberg"}},{"name":"Freihalder Str.","postalCode":"88299","locality":"Leutkirch im Allgäu","municipality":{"key":"08436055","name":"Leutkirch im Allgäu, Stadt","type":"Große_Kreisstadt"},"district":{"key":"08436","name":"Ravensburg","type":"Landkreis"},"federalState":{"key":"08","name":"Baden-Württemberg"}},{"name":"Freiherr-vom-Stein-Str.","postalCode":"88299","locality":"Leutkirch im Allgäu","municipality":{"key":"08436055","name":"Leutkirch im Allgäu, Stadt","type":"Große_Kreisstadt"},"district":{"key":"08436","name":"Ravensburg","type":"Landkreis"},"federalState":{"key":"08","name":"Baden-Württemberg"}},{"name":"Friedenstr.","postalCode":"88299","locality":"Leutkirch im Allgäu","municipality":{"key":"08436055","name":"Leutkirch im Allgäu, Stadt","type":"Große_Kreisstadt"},"district":{"key":"08436","name":"Ravensburg","type":"Landkreis"},"federalState":{"key":"08","name":"Baden-Württemberg"}},{"name":"Friesenhofen Bahnhof","postalCode":"88299","locality":"Leutkirch im Allgäu","municipality":{"key":"08436055","name":"Leutkirch im Allgäu, Stadt","type":"Große_Kreisstadt"},"district":{"key":"08436","name":"Ravensburg","type":"Landkreis"},"federalState":{"key":"08","name":"Baden-Württemberg"}},{"name":"Fürst-Erich-Str.","postalCode":"88299","locality":"Leutkirch im Allgäu","municipality":{"key":"08436055","name":"Leutkirch im Allgäu, Stadt","type":"Große_Kreisstadt"},"district":{"key":"08436","name":"Ravensburg","type":"Landkreis"},"federalState":{"key":"08","name":"Baden-Württemberg"}},{"name":"Furtenbachstr.","postalCode":"88299","locality":"Leutkirch im Allgäu","municipality":{"key":"08436055","name":"Leutkirch im Allgäu, Stadt","type":"Große_Kreisstadt"},"district":{"key":"08436","name":"Ravensburg","type":"Landkreis"},"federalState":{"key":"08","name":"Baden-Württemberg"}},{"name":"Gallusweg","postalCode":"88299","locality":"Leutkirch im Allgäu","municipality":{"key":"08436055","name":"Leutkirch im Allgäu, Stadt","type":"Große_Kreisstadt"},"district":{"key":"08436","name":"Ravensburg","type":"Landkreis"},"federalState":{"key":"08","name":"Baden-Württemberg"}},{"name":"Gänsbühl","postalCode":"88299","locality":"Leutkirch im Allgäu","municipality":{"key":"08436055","name":"Leutkirch im Allgäu, Stadt","type":"Große_Kreisstadt"},"district":{"key":"08436","name":"Ravensburg","type":"Landkreis"},"federalState":{"key":"08","name":"Baden-Württemberg"}},{"name":"Garten des Stadtschlosses","postalCode":"88299","locality":"Leutkirch im Allgäu","municipality":{"key":"08436055","name":"Leutkirch im Allgäu, Stadt","type":"Große_Kreisstadt"},"district":{"key":"08436","name":"Ravensburg","type":"Landkreis"},"federalState":{"key":"08","name":"Baden-Württemberg"}},{"name":"Gartenstr.","postalCode":"88299","locality":"Leutkirch im Allgäu","municipality":{"key":"08436055","name":"Leutkirch im Allgäu, Stadt","type":"Große_Kreisstadt"},"district":{"key":"08436","name":"Ravensburg","type":"Landkreis"},"federalState":{"key":"08","name":"Baden-Württemberg"}},{"name":"Gebhard-Müller-Str.","postalCode":"88299","locality":"Leutkirch im Allgäu","municipality":{"key":"08436055","name":"Leutkirch im Allgäu, Stadt","type":"Große_Kreisstadt"},"district":{"key":"08436","name":"Ravensburg","type":"Landkreis"},"federalState":{"key":"08","name":"Baden-Württemberg"}},{"name":"Gebrazhofer Str.","postalCode":"88299","locality":"Leutkirch im Allgäu","municipality":{"key":"08436055","name":"Leutkirch im Allgäu, Stadt","type":"Große_Kreisstadt"},"district":{"key":"08436","name":"Ravensburg","type":"Landkreis"},"federalState":{"key":"08","name":"Baden-Württemberg"}},{"name":"Gebrüder-Metz-Str.","postalCode":"88299","locality":"Leutkirch im Allgäu","municipality":{"key":"08436055","name":"Leutkirch im Allgäu, Stadt","type":"Große_Kreisstadt"},"district":{"key":"08436","name":"Ravensburg","type":"Landkreis"},"federalState":{"key":"08","name":"Baden-Württemberg"}},{"name":"Geranienweg","postalCode":"88299","locality":"Leutkirch im Allgäu","municipality":{"key":"08436055","name":"Leutkirch im Allgäu, Stadt","type":"Große_Kreisstadt"},"district":{"key":"08436","name":"Ravensburg","type":"Landkreis"},"federalState":{"key":"08","name":"Baden-Württemberg"}},{"name":"Gerbergasse","postalCode":"88299","locality":"Leutkirch im Allgäu","municipality":{"key":"08436055","name":"Leutkirch im Allgäu, Stadt","type":"Große_Kreisstadt"},"district":{"key":"08436","name":"Ravensburg","type":"Landkreis"},"federalState":{"key":"08","name":"Baden-Württemberg"}},{"name":"Gerhart-Hauptmann-Str.","postalCode":"88299","locality":"Leutkirch im Allgäu","municipality":{"key":"08436055","name":"Leutkirch im Allgäu, Stadt","type":"Große_Kreisstadt"},"district":{"key":"08436","name":"Ravensburg","type":"Landkreis"},"federalState":{"key":"08","name":"Baden-Württemberg"}},{"name":"Goethestr.","postalCode":"88299","locality":"Leutkirch im Allgäu","municipality":{"key":"08436055","name":"Leutkirch im Allgäu, Stadt","type":"Große_Kreisstadt"},"district":{"key":"08436","name":"Ravensburg","type":"Landkreis"},"federalState":{"key":"08","name":"Baden-Württemberg"}},{"name":"Grasgartenweg","postalCode":"88299","locality":"Leutkirch im Allgäu","municipality":{"key":"08436055","name":"Leutkirch im Allgäu, Stadt","type":"Große_Kreisstadt"},"district":{"key":"08436","name":"Ravensburg","type":"Landkreis"},"federalState":{"key":"08","name":"Baden-Württemberg"}},{"name":"Greishofstr.","postalCode":"88299","locality":"Leutkirch im Allgäu","municipality":{"key":"08436055","name":"Leutkirch im Allgäu, Stadt","type":"Große_Kreisstadt"},"district":{"key":"08436","name":"Ravensburg","type":"Landkreis"},"federalState":{"key":"08","name":"Baden-Württemberg"}},{"name":"Grüntenstr.","postalCode":"88299","locality":"Leutkirch im Allgäu","municipality":{"key":"08436055","name":"Leutkirch im Allgäu, Stadt","type":"Große_Kreisstadt"},"district":{"key":"08436","name":"Ravensburg","type":"Landkreis"},"federalState":{"key":"08","name":"Baden-Württemberg"}},{"name":"Günther-Zöller-Weg","postalCode":"88299","locality":"Leutkirch im Allgäu","municipality":{"key":"08436055","name":"Leutkirch im Allgäu, Stadt","type":"Große_Kreisstadt"},"district":{"key":"08436","name":"Ravensburg","type":"Landkreis"},"federalState":{"key":"08","name":"Baden-Württemberg"}},{"name":"Hädrichweg","postalCode":"88299","locality":"Leutkirch im Allgäu","municipality":{"key":"08436055","name":"Leutkirch im Allgäu, Stadt","type":"Große_Kreisstadt"},"district":{"key":"08436","name":"Ravensburg","type":"Landkreis"},"federalState":{"key":"08","name":"Baden-Württemberg"}},{"name":"Haid","postalCode":"88299","locality":"Leutkirch im Allgäu","municipality":{"key":"08436055","name":"Leutkirch im Allgäu, Stadt","type":"Große_Kreisstadt"},"district":{"key":"08436","name":"Ravensburg","type":"Landkreis"},"federalState":{"key":"08","name":"Baden-Württemberg"}},{"name":"Haldenweg","postalCode":"88299","locality":"Leutkirch im Allgäu","municipality":{"key":"08436055","name":"Leutkirch im Allgäu, Stadt","type":"Große_Kreisstadt"},"district":{"key":"08436","name":"Ravensburg","type":"Landkreis"},"federalState":{"key":"08","name":"Baden-Württemberg"}},{"name":"Hangweg","postalCode":"88299","locality":"Leutkirch im Allgäu","municipality":{"key":"08436055","name":"Leutkirch im Allgäu, Stadt","type":"Große_Kreisstadt"},"district":{"key":"08436","name":"Ravensburg","type":"Landkreis"},"federalState":{"key":"08","name":"Baden-Württemberg"}},{"name":"Hans-Multscher-Str.","postalCode":"88299","locality":"Leutkirch im Allgäu","municipality":{"key":"08436055","name":"Leutkirch im Allgäu, Stadt","type":"Große_Kreisstadt"},"district":{"key":"08436","name":"Ravensburg","type":"Landkreis"},"federalState":{"key":"08","name":"Baden-Württemberg"}},{"name":"Haselburgweg","postalCode":"88299","locality":"Leutkirch im Allgäu","municipality":{"key":"08436055","name":"Leutkirch im Allgäu, Stadt","type":"Große_Kreisstadt"},"district":{"key":"08436","name":"Ravensburg","type":"Landkreis"},"federalState":{"key":"08","name":"Baden-Württemberg"}},{"name":"Hasengasse","postalCode":"88299","locality":"Leutkirch im Allgäu","municipality":{"key":"08436055","name":"Leutkirch im Allgäu, Stadt","type":"Große_Kreisstadt"},"district":{"key":"08436","name":"Ravensburg","type":"Landkreis"},"federalState":{"key":"08","name":"Baden-Württemberg"}},{"name":"Haslacher Weg","postalCode":"88299","locality":"Leutkirch im Allgäu","municipality":{"key":"08436055","name":"Leutkirch im Allgäu, Stadt","type":"Große_Kreisstadt"},"district":{"key":"08436","name":"Ravensburg","type":"Landkreis"},"federalState":{"key":"08","name":"Baden-Württemberg"}},{"name":"Hauptstr.","postalCode":"88299","locality":"Leutkirch im Allgäu","municipality":{"key":"08436055","name":"Leutkirch im Allgäu, Stadt","type":"Große_Kreisstadt"},"district":{"key":"08436","name":"Ravensburg","type":"Landkreis"},"federalState":{"key":"08","name":"Baden-Württemberg"}},{"name":"Hayderstr.","postalCode":"88299","locality":"Leutkirch im Allgäu","municipality":{"key":"08436055","name":"Leutkirch im Allgäu, Stadt","type":"Große_Kreisstadt"},"district":{"key":"08436","name":"Ravensburg","type":"Landkreis"},"federalState":{"key":"08","name":"Baden-Württemberg"}},{"name":"Haydnstr.","postalCode":"88299","locality":"Leutkirch im Allgäu","municipality":{"key":"08436055","name":"Leutkirch im Allgäu, Stadt","type":"Große_Kreisstadt"},"district":{"key":"08436","name":"Ravensburg","type":"Landkreis"},"federalState":{"key":"08","name":"Baden-Württemberg"}},{"name":"Heckenrosenweg","postalCode":"88299","locality":"Leutkirch im Allgäu","municipality":{"key":"08436055","name":"Leutkirch im Allgäu, Stadt","type":"Große_Kreisstadt"},"district":{"key":"08436","name":"Ravensburg","type":"Landkreis"},"federalState":{"key":"08","name":"Baden-Württemberg"}},{"name":"Heggelbach","postalCode":"88299","locality":"Leutkirch im Allgäu","municipality":{"key":"08436055","name":"Leutkirch im Allgäu, Stadt","type":"Große_Kreisstadt"},"district":{"key":"08436","name":"Ravensburg","type":"Landkreis"},"federalState":{"key":"08","name":"Baden-Württemberg"}},{"name":"Heggelbacher Str.","postalCode":"88299","locality":"Leutkirch im Allgäu","municipality":{"key":"08436055","name":"Leutkirch im Allgäu, Stadt","type":"Große_Kreisstadt"},"district":{"key":"08436","name":"Ravensburg","type":"Landkreis"},"federalState":{"key":"08","name":"Baden-Württemberg"}},{"name":"Heidschachenstr.","postalCode":"88299","locality":"Leutkirch im Allgäu","municipality":{"key":"08436055","name":"Leutkirch im Allgäu, Stadt","type":"Große_Kreisstadt"},"district":{"key":"08436","name":"Ravensburg","type":"Landkreis"},"federalState":{"key":"08","name":"Baden-Württemberg"}},{"name":"Heidschachenweg","postalCode":"88299","locality":"Leutkirch im Allgäu","municipality":{"key":"08436055","name":"Leutkirch im Allgäu, Stadt","type":"Große_Kreisstadt"},"district":{"key":"08436","name":"Ravensburg","type":"Landkreis"},"federalState":{"key":"08","name":"Baden-Württemberg"}},{"name":"Heidweg","postalCode":"88299","locality":"Leutkirch im Allgäu","municipality":{"key":"08436055","name":"Leutkirch im Allgäu, Stadt","type":"Große_Kreisstadt"},"district":{"key":"08436","name":"Ravensburg","type":"Landkreis"},"federalState":{"key":"08","name":"Baden-Württemberg"}},{"name":"Heinrich-Heine-Str.","postalCode":"88299","locality":"Leutkirch im Allgäu","municipality":{"key":"08436055","name":"Leutkirch im Allgäu, Stadt","type":"Große_Kreisstadt"},"district":{"key":"08436","name":"Ravensburg","type":"Landkreis"},"federalState":{"key":"08","name":"Baden-Württemberg"}},{"name":"Heinrich-von-Kleist-Str.","postalCode":"88299","locality":"Leutkirch im Allgäu","municipality":{"key":"08436055","name":"Leutkirch im Allgäu, Stadt","type":"Große_Kreisstadt"},"district":{"key":"08436","name":"Ravensburg","type":"Landkreis"},"federalState":{"key":"08","name":"Baden-Württemberg"}},{"name":"Herbrazhofen","postalCode":"88299","locality":"Leutkirch im Allgäu","municipality":{"key":"08436055","name":"Leutkirch im Allgäu, Stadt","type":"Große_Kreisstadt"},"district":{"key":"08436","name":"Ravensburg","type":"Landkreis"},"federalState":{"key":"08","name":"Baden-Württemberg"}},{"name":"Herbrazhofer Str.","postalCode":"88299","locality":"Leutkirch im Allgäu","municipality":{"key":"08436055","name":"Leutkirch im Allgäu, Stadt","type":"Große_Kreisstadt"},"district":{"key":"08436","name":"Ravensburg","type":"Landkreis"},"federalState":{"key":"08","name":"Baden-Württemberg"}},{"name":"Herlazhofer Str.","postalCode":"88299","locality":"Leutkirch im Allgäu","municipality":{"key":"08436055","name":"Leutkirch im Allgäu, Stadt","type":"Große_Kreisstadt"},"district":{"key":"08436","name":"Ravensburg","type":"Landkreis"},"federalState":{"key":"08","name":"Baden-Württemberg"}},{"name":"Hermann-Neuner-Str.","postalCode":"88299","locality":"Leutkirch im Allgäu","municipality":{"key":"08436055","name":"Leutkirch im Allgäu, Stadt","type":"Große_Kreisstadt"},"district":{"key":"08436","name":"Ravensburg","type":"Landkreis"},"federalState":{"key":"08","name":"Baden-Württemberg"}},{"name":"Hinter den Zäunen","postalCode":"88299","locality":"Leutkirch im Allgäu","municipality":{"key":"08436055","name":"Leutkirch im Allgäu, Stadt","type":"Große_Kreisstadt"},"district":{"key":"08436","name":"Ravensburg","type":"Landkreis"},"federalState":{"key":"08","name":"Baden-Württemberg"}},{"name":"Hinznang","postalCode":"88299","locality":"Leutkirch im Allgäu","municipality":{"key":"08436055","name":"Leutkirch im Allgäu, Stadt","type":"Große_Kreisstadt"},"district":{"key":"08436","name":"Ravensburg","type":"Landkreis"},"federalState":{"key":"08","name":"Baden-Württemberg"}},{"name":"Hinznanger Str.","postalCode":"88299","locality":"Leutkirch im Allgäu","municipality":{"key":"08436055","name":"Leutkirch im Allgäu, Stadt","type":"Große_Kreisstadt"},"district":{"key":"08436","name":"Ravensburg","type":"Landkreis"},"federalState":{"key":"08","name":"Baden-Württemberg"}},{"name":"Hitzenlinder Str.","postalCode":"88299","locality":"Leutkirch im Allgäu","municipality":{"key":"08436055","name":"Leutkirch im Allgäu, Stadt","type":"Große_Kreisstadt"},"district":{"key":"08436","name":"Ravensburg","type":"Landkreis"},"federalState":{"key":"08","name":"Baden-Württemberg"}},{"name":"Hochgratstr.","postalCode":"88299","locality":"Leutkirch im Allgäu","municipality":{"key":"08436055","name":"Leutkirch im Allgäu, Stadt","type":"Große_Kreisstadt"},"district":{"key":"08436","name":"Ravensburg","type":"Landkreis"},"federalState":{"key":"08","name":"Baden-Württemberg"}},{"name":"Hochvogelstr.","postalCode":"88299","locality":"Leutkirch im Allgäu","municipality":{"key":"08436055","name":"Leutkirch im Allgäu, Stadt","type":"Große_Kreisstadt"},"district":{"key":"08436","name":"Ravensburg","type":"Landkreis"},"federalState":{"key":"08","name":"Baden-Württemberg"}},{"name":"Hofser Str.","postalCode":"88299","locality":"Leutkirch im Allgäu","municipality":{"key":"08436055","name":"Leutkirch im Allgäu, Stadt","type":"Große_Kreisstadt"},"district":{"key":"08436","name":"Ravensburg","type":"Landkreis"},"federalState":{"key":"08","name":"Baden-Württemberg"}},{"name":"Höhenstr.","postalCode":"88299","locality":"Leutkirch im Allgäu","municipality":{"key":"08436055","name":"Leutkirch im Allgäu, Stadt","type":"Große_Kreisstadt"},"district":{"key":"08436","name":"Ravensburg","type":"Landkreis"},"federalState":{"key":"08","name":"Baden-Württemberg"}},{"name":"Höhenweg","postalCode":"88299","locality":"Leutkirch im Allgäu","municipality":{"key":"08436055","name":"Leutkirch im Allgäu, Stadt","type":"Große_Kreisstadt"},"district":{"key":"08436","name":"Ravensburg","type":"Landkreis"},"federalState":{"key":"08","name":"Baden-Württemberg"}},{"name":"Hoherbergweg","postalCode":"88299","locality":"Leutkirch im Allgäu","municipality":{"key":"08436055","name":"Leutkirch im Allgäu, Stadt","type":"Große_Kreisstadt"},"district":{"key":"08436","name":"Ravensburg","type":"Landkreis"},"federalState":{"key":"08","name":"Baden-Württemberg"}},{"name":"Hohlohweg","postalCode":"88299","locality":"Leutkirch im Allgäu","municipality":{"key":"08436055","name":"Leutkirch im Allgäu, Stadt","type":"Große_Kreisstadt"},"district":{"key":"08436","name":"Ravensburg","type":"Landkreis"},"federalState":{"key":"08","name":"Baden-Württemberg"}},{"name":"Holbeinstr.","postalCode":"88299","locality":"Leutkirch im Allgäu","municipality":{"key":"08436055","name":"Leutkirch im Allgäu, Stadt","type":"Große_Kreisstadt"},"district":{"key":"08436","name":"Ravensburg","type":"Landkreis"},"federalState":{"key":"08","name":"Baden-Württemberg"}},{"name":"Hölderlinstr.","postalCode":"88299","locality":"Leutkirch im Allgäu","municipality":{"key":"08436055","name":"Leutkirch im Allgäu, Stadt","type":"Große_Kreisstadt"},"district":{"key":"08436","name":"Ravensburg","type":"Landkreis"},"federalState":{"key":"08","name":"Baden-Württemberg"}},{"name":"Hügelweg","postalCode":"88299","locality":"Leutkirch im Allgäu","municipality":{"key":"08436055","name":"Leutkirch im Allgäu, Stadt","type":"Große_Kreisstadt"},"district":{"key":"08436","name":"Ravensburg","type":"Landkreis"},"federalState":{"key":"08","name":"Baden-Württemberg"}},{"name":"Hünlishofen","postalCode":"88299","locality":"Leutkirch im Allgäu","municipality":{"key":"08436055","name":"Leutkirch im Allgäu, Stadt","type":"Große_Kreisstadt"},"district":{"key":"08436","name":"Ravensburg","type":"Landkreis"},"federalState":{"key":"08","name":"Baden-Württemberg"}},{"name":"Im alten Dorf","postalCode":"88299","locality":"Leutkirch im Allgäu","municipality":{"key":"08436055","name":"Leutkirch im Allgäu, Stadt","type":"Große_Kreisstadt"},"district":{"key":"08436","name":"Ravensburg","type":"Landkreis"},"federalState":{"key":"08","name":"Baden-Württemberg"}},{"name":"Im Anger","postalCode":"88299","locality":"Leutkirch im Allgäu","municipality":{"key":"08436055","name":"Leutkirch im Allgäu, Stadt","type":"Große_Kreisstadt"},"district":{"key":"08436","name":"Ravensburg","type":"Landkreis"},"federalState":{"key":"08","name":"Baden-Württemberg"}},{"name":"Im Brühl","postalCode":"88299","locality":"Leutkirch im Allgäu","municipality":{"key":"08436055","name":"Leutkirch im Allgäu, Stadt","type":"Große_Kreisstadt"},"district":{"key":"08436","name":"Ravensburg","type":"Landkreis"},"federalState":{"key":"08","name":"Baden-Württemberg"}},{"name":"Im Buchholz","postalCode":"88299","locality":"Leutkirch im Allgäu","municipality":{"key":"08436055","name":"Leutkirch im Allgäu, Stadt","type":"Große_Kreisstadt"},"district":{"key":"08436","name":"Ravensburg","type":"Landkreis"},"federalState":{"key":"08","name":"Baden-Württemberg"}},{"name":"Im Eichele","postalCode":"88299","locality":"Leutkirch im Allgäu","municipality":{"key":"08436055","name":"Leutkirch im Allgäu, Stadt","type":"Große_Kreisstadt"},"district":{"key":"08436","name":"Ravensburg","type":"Landkreis"},"federalState":{"key":"08","name":"Baden-Württemberg"}},{"name":"Im Engerle","postalCode":"88299","locality":"Leutkirch im Allgäu","municipality":{"key":"08436055","name":"Leutkirch im Allgäu, Stadt","type":"Große_Kreisstadt"},"district":{"key":"08436","name":"Ravensburg","type":"Landkreis"},"federalState":{"key":"08","name":"Baden-Württemberg"}},{"name":"Im Eschachtal","postalCode":"88299","locality":"Leutkirch im Allgäu","municipality":{"key":"08436055","name":"Leutkirch im Allgäu, Stadt","type":"Große_Kreisstadt"},"district":{"key":"08436","name":"Ravensburg","type":"Landkreis"},"federalState":{"key":"08","name":"Baden-Württemberg"}},{"name":"Im Grund","postalCode":"88299","locality":"Leutkirch im Allgäu","municipality":{"key":"08436055","name":"Leutkirch im Allgäu, Stadt","type":"Große_Kreisstadt"},"district":{"key":"08436","name":"Ravensburg","type":"Landkreis"},"federalState":{"key":"08","name":"Baden-Württemberg"}},{"name":"Im Herrach","postalCode":"88299","locality":"Leutkirch im Allgäu","municipality":{"key":"08436055","name":"Leutkirch im Allgäu, Stadt","type":"Große_Kreisstadt"},"district":{"key":"08436","name":"Ravensburg","type":"Landkreis"},"federalState":{"key":"08","name":"Baden-Württemberg"}},{"name":"Im Ösch","postalCode":"88299","locality":"Leutkirch im Allgäu","municipality":{"key":"08436055","name":"Leutkirch im Allgäu, Stadt","type":"Große_Kreisstadt"},"district":{"key":"08436","name":"Ravensburg","type":"Landkreis"},"federalState":{"key":"08","name":"Baden-Württemberg"}},{"name":"Im Schleifrad","postalCode":"88299","locality":"Leutkirch im Allgäu","municipality":{"key":"08436055","name":"Leutkirch im Allgäu, Stadt","type":"Große_Kreisstadt"},"district":{"key":"08436","name":"Ravensburg","type":"Landkreis"},"federalState":{"key":"08","name":"Baden-Württemberg"}},{"name":"Im Unterdorf","postalCode":"88299","locality":"Leutkirch im Allgäu","municipality":{"key":"08436055","name":"Leutkirch im Allgäu, Stadt","type":"Große_Kreisstadt"},"district":{"key":"08436","name":"Ravensburg","type":"Landkreis"},"federalState":{"key":"08","name":"Baden-Württemberg"}},{"name":"Im Wittum","postalCode":"88299","locality":"Leutkirch im Allgäu","municipality":{"key":"08436055","name":"Leutkirch im Allgäu, Stadt","type":"Große_Kreisstadt"},"district":{"key":"08436","name":"Ravensburg","type":"Landkreis"},"federalState":{"key":"08","name":"Baden-Württemberg"}},{"name":"In den Wiesen","postalCode":"88299","locality":"Leutkirch im Allgäu","municipality":{"key":"08436055","name":"Leutkirch im Allgäu, Stadt","type":"Große_Kreisstadt"},"district":{"key":"08436","name":"Ravensburg","type":"Landkreis"},"federalState":{"key":"08","name":"Baden-Württemberg"}},{"name":"In der Bleiche","postalCode":"88299","locality":"Leutkirch im Allgäu","municipality":{"key":"08436055","name":"Leutkirch im Allgäu, Stadt","type":"Große_Kreisstadt"},"district":{"key":"08436","name":"Ravensburg","type":"Landkreis"},"federalState":{"key":"08","name":"Baden-Württemberg"}},{"name":"In der Vorstadt","postalCode":"88299","locality":"Leutkirch im Allgäu","municipality":{"key":"08436055","name":"Leutkirch im Allgäu, Stadt","type":"Große_Kreisstadt"},"district":{"key":"08436","name":"Ravensburg","type":"Landkreis"},"federalState":{"key":"08","name":"Baden-Württemberg"}},{"name":"Irisweg","postalCode":"88299","locality":"Leutkirch im Allgäu","municipality":{"key":"08436055","name":"Leutkirch im Allgäu, Stadt","type":"Große_Kreisstadt"},"district":{"key":"08436","name":"Ravensburg","type":"Landkreis"},"federalState":{"key":"08","name":"Baden-Württemberg"}},{"name":"Isnyer Str.","postalCode":"88299","locality":"Leutkirch im Allgäu","municipality":{"key":"08436055","name":"Leutkirch im Allgäu, Stadt","type":"Große_Kreisstadt"},"district":{"key":"08436","name":"Ravensburg","type":"Landkreis"},"federalState":{"key":"08","name":"Baden-Württemberg"}},{"name":"Jägerstr.","postalCode":"88299","locality":"Leutkirch im Allgäu","municipality":{"key":"08436055","name":"Leutkirch im Allgäu, Stadt","type":"Große_Kreisstadt"},"district":{"key":"08436","name":"Ravensburg","type":"Landkreis"},"federalState":{"key":"08","name":"Baden-Württemberg"}},{"name":"Jakobsweg","postalCode":"88299","locality":"Leutkirch im Allgäu","municipality":{"key":"08436055","name":"Leutkirch im Allgäu, Stadt","type":"Große_Kreisstadt"},"district":{"key":"08436","name":"Ravensburg","type":"Landkreis"},"federalState":{"key":"08","name":"Baden-Württemberg"}},{"name":"Johannesholzstr.","postalCode":"88299","locality":"Leutkirch im Allgäu","municipality":{"key":"08436055","name":"Leutkirch im Allgäu, Stadt","type":"Große_Kreisstadt"},"district":{"key":"08436","name":"Ravensburg","type":"Landkreis"},"federalState":{"key":"08","name":"Baden-Württemberg"}},{"name":"Johann-Schütz-Str.","postalCode":"88299","locality":"Leutkirch im Allgäu","municipality":{"key":"08436055","name":"Leutkirch im Allgäu, Stadt","type":"Große_Kreisstadt"},"district":{"key":"08436","name":"Ravensburg","type":"Landkreis"},"federalState":{"key":"08","name":"Baden-Württemberg"}},{"name":"Josef-Feger-Weg","postalCode":"88299","locality":"Leutkirch im Allgäu","municipality":{"key":"08436055","name":"Leutkirch im Allgäu, Stadt","type":"Große_Kreisstadt"},"district":{"key":"08436","name":"Ravensburg","type":"Landkreis"},"federalState":{"key":"08","name":"Baden-Württemberg"}},{"name":"Josef-Siedler-Weg","postalCode":"88299","locality":"Leutkirch im Allgäu","municipality":{"key":"08436055","name":"Leutkirch im Allgäu, Stadt","type":"Große_Kreisstadt"},"district":{"key":"08436","name":"Ravensburg","type":"Landkreis"},"federalState":{"key":"08","name":"Baden-Württemberg"}},{"name":"Jungholzweg","postalCode":"88299","locality":"Leutkirch im Allgäu","municipality":{"key":"08436055","name":"Leutkirch im Allgäu, Stadt","type":"Große_Kreisstadt"},"district":{"key":"08436","name":"Ravensburg","type":"Landkreis"},"federalState":{"key":"08","name":"Baden-Württemberg"}},{"name":"Kaiserhalde","postalCode":"88299","locality":"Leutkirch im Allgäu","municipality":{"key":"08436055","name":"Leutkirch im Allgäu, Stadt","type":"Große_Kreisstadt"},"district":{"key":"08436","name":"Ravensburg","type":"Landkreis"},"federalState":{"key":"08","name":"Baden-Württemberg"}},{"name":"Kapellenweg","postalCode":"88299","locality":"Leutkirch im Allgäu","municipality":{"key":"08436055","name":"Leutkirch im Allgäu, Stadt","type":"Große_Kreisstadt"},"district":{"key":"08436","name":"Ravensburg","type":"Landkreis"},"federalState":{"key":"08","name":"Baden-Württemberg"}},{"name":"Kaplaneigässle","postalCode":"88299","locality":"Leutkirch im Allgäu","municipality":{"key":"08436055","name":"Leutkirch im Allgäu, Stadt","type":"Große_Kreisstadt"},"district":{"key":"08436","name":"Ravensburg","type":"Landkreis"},"federalState":{"key":"08","name":"Baden-Württemberg"}},{"name":"Karlstr.","postalCode":"88299","locality":"Leutkirch im Allgäu","municipality":{"key":"08436055","name":"Leutkirch im Allgäu, Stadt","type":"Große_Kreisstadt"},"district":{"key":"08436","name":"Ravensburg","type":"Landkreis"},"federalState":{"key":"08","name":"Baden-Württemberg"}},{"name":"Käsereiweg","postalCode":"88299","locality":"Leutkirch im Allgäu","municipality":{"key":"08436055","name":"Leutkirch im Allgäu, Stadt","type":"Große_Kreisstadt"},"district":{"key":"08436","name":"Ravensburg","type":"Landkreis"},"federalState":{"key":"08","name":"Baden-Württemberg"}},{"name":"Kastanienweg","postalCode":"88299","locality":"Leutkirch im Allgäu","municipality":{"key":"08436055","name":"Leutkirch im Allgäu, Stadt","type":"Große_Kreisstadt"},"district":{"key":"08436","name":"Ravensburg","type":"Landkreis"},"federalState":{"key":"08","name":"Baden-Württemberg"}},{"name":"Katholische Kirchgasse","postalCode":"88299","locality":"Leutkirch im Allgäu","municipality":{"key":"08436055","name":"Leutkirch im Allgäu, Stadt","type":"Große_Kreisstadt"},"district":{"key":"08436","name":"Ravensburg","type":"Landkreis"},"federalState":{"key":"08","name":"Baden-Württemberg"}},{"name":"Kemptener Str.","postalCode":"88299","locality":"Leutkirch im Allgäu","municipality":{"key":"08436055","name":"Leutkirch im Allgäu, Stadt","type":"Große_Kreisstadt"},"district":{"key":"08436","name":"Ravensburg","type":"Landkreis"},"federalState":{"key":"08","name":"Baden-Württemberg"}},{"name":"Kirchplatz","postalCode":"88299","locality":"Leutkirch im Allgäu","municipality":{"key":"08436055","name":"Leutkirch im Allgäu, Stadt","type":"Große_Kreisstadt"},"district":{"key":"08436","name":"Ravensburg","type":"Landkreis"},"federalState":{"key":"08","name":"Baden-Württemberg"}},{"name":"Kirchstr.","postalCode":"88299","locality":"Leutkirch im Allgäu","municipality":{"key":"08436055","name":"Leutkirch im Allgäu, Stadt","type":"Große_Kreisstadt"},"district":{"key":"08436","name":"Ravensburg","type":"Landkreis"},"federalState":{"key":"08","name":"Baden-Württemberg"}},{"name":"Kloosenweg","postalCode":"88299","locality":"Leutkirch im Allgäu","municipality":{"key":"08436055","name":"Leutkirch im Allgäu, Stadt","type":"Große_Kreisstadt"},"district":{"key":"08436","name":"Ravensburg","type":"Landkreis"},"federalState":{"key":"08","name":"Baden-Württemberg"}},{"name":"Kneippweg","postalCode":"88299","locality":"Leutkirch im Allgäu","municipality":{"key":"08436055","name":"Leutkirch im Allgäu, Stadt","type":"Große_Kreisstadt"},"district":{"key":"08436","name":"Ravensburg","type":"Landkreis"},"federalState":{"key":"08","name":"Baden-Württemberg"}},{"name":"Kohlplatzweg","postalCode":"88299","locality":"Leutkirch im Allgäu","municipality":{"key":"08436055","name":"Leutkirch im Allgäu, Stadt","type":"Große_Kreisstadt"},"district":{"key":"08436","name":"Ravensburg","type":"Landkreis"},"federalState":{"key":"08","name":"Baden-Württemberg"}},{"name":"Konrad-Hegenauer-Str.","postalCode":"88299","locality":"Leutkirch im Allgäu","municipality":{"key":"08436055","name":"Leutkirch im Allgäu, Stadt","type":"Große_Kreisstadt"},"district":{"key":"08436","name":"Ravensburg","type":"Landkreis"},"federalState":{"key":"08","name":"Baden-Württemberg"}},{"name":"Konradin-Kreutzer-Str.","postalCode":"88299","locality":"Leutkirch im Allgäu","municipality":{"key":"08436055","name":"Leutkirch im Allgäu, Stadt","type":"Große_Kreisstadt"},"district":{"key":"08436","name":"Ravensburg","type":"Landkreis"},"federalState":{"key":"08","name":"Baden-Württemberg"}},{"name":"Kopfhausstr.","postalCode":"88299","locality":"Leutkirch im Allgäu","municipality":{"key":"08436055","name":"Leutkirch im Allgäu, Stadt","type":"Große_Kreisstadt"},"district":{"key":"08436","name":"Ravensburg","type":"Landkreis"},"federalState":{"key":"08","name":"Baden-Württemberg"}},{"name":"Kornhausstr.","postalCode":"88299","locality":"Leutkirch im Allgäu","municipality":{"key":"08436055","name":"Leutkirch im Allgäu, Stadt","type":"Große_Kreisstadt"},"district":{"key":"08436","name":"Ravensburg","type":"Landkreis"},"federalState":{"key":"08","name":"Baden-Württemberg"}},{"name":"Krählohweg","postalCode":"88299","locality":"Leutkirch im Allgäu","municipality":{"key":"08436055","name":"Leutkirch im Allgäu, Stadt","type":"Große_Kreisstadt"},"district":{"key":"08436","name":"Ravensburg","type":"Landkreis"},"federalState":{"key":"08","name":"Baden-Württemberg"}},{"name":"Krämerstr.","postalCode":"88299","locality":"Leutkirch im Allgäu","municipality":{"key":"08436055","name":"Leutkirch im Allgäu, Stadt","type":"Große_Kreisstadt"},"district":{"key":"08436","name":"Ravensburg","type":"Landkreis"},"federalState":{"key":"08","name":"Baden-Württemberg"}},{"name":"Krankenhauspark","postalCode":"88299","locality":"Leutkirch im Allgäu","municipality":{"key":"08436055","name":"Leutkirch im Allgäu, Stadt","type":"Große_Kreisstadt"},"district":{"key":"08436","name":"Ravensburg","type":"Landkreis"},"federalState":{"key":"08","name":"Baden-Württemberg"}},{"name":"Kreuzergrabenweg","postalCode":"88299","locality":"Leutkirch im Allgäu","municipality":{"key":"08436055","name":"Leutkirch im Allgäu, Stadt","type":"Große_Kreisstadt"},"district":{"key":"08436","name":"Ravensburg","type":"Landkreis"},"federalState":{"key":"08","name":"Baden-Württemberg"}},{"name":"Krokusweg","postalCode":"88299","locality":"Leutkirch im Allgäu","municipality":{"key":"08436055","name":"Leutkirch im Allgäu, Stadt","type":"Große_Kreisstadt"},"district":{"key":"08436","name":"Ravensburg","type":"Landkreis"},"federalState":{"key":"08","name":"Baden-Württemberg"}},{"name":"Kronburgblick","postalCode":"88299","locality":"Leutkirch im Allgäu","municipality":{"key":"08436055","name":"Leutkirch im Allgäu, Stadt","type":"Große_Kreisstadt"},"district":{"key":"08436","name":"Ravensburg","type":"Landkreis"},"federalState":{"key":"08","name":"Baden-Württemberg"}},{"name":"Kronengässle","postalCode":"88299","locality":"Leutkirch im Allgäu","municipality":{"key":"08436055","name":"Leutkirch im Allgäu, Stadt","type":"Große_Kreisstadt"},"district":{"key":"08436","name":"Ravensburg","type":"Landkreis"},"federalState":{"key":"08","name":"Baden-Württemberg"}},{"name":"Küferweg","postalCode":"88299","locality":"Leutkirch im Allgäu","municipality":{"key":"08436055","name":"Leutkirch im Allgäu, Stadt","type":"Große_Kreisstadt"},"district":{"key":"08436","name":"Ravensburg","type":"Landkreis"},"federalState":{"key":"08","name":"Baden-Württemberg"}},{"name":"Kugelstr.","postalCode":"88299","locality":"Leutkirch im Allgäu","municipality":{"key":"08436055","name":"Leutkirch im Allgäu, Stadt","type":"Große_Kreisstadt"},"district":{"key":"08436","name":"Ravensburg","type":"Landkreis"},"federalState":{"key":"08","name":"Baden-Württemberg"}},{"name":"Künkelinstr.","postalCode":"88299","locality":"Leutkirch im Allgäu","municipality":{"key":"08436055","name":"Leutkirch im Allgäu, Stadt","type":"Große_Kreisstadt"},"district":{"key":"08436","name":"Ravensburg","type":"Landkreis"},"federalState":{"key":"08","name":"Baden-Württemberg"}},{"name":"Kunstmühleweg","postalCode":"88299","locality":"Leutkirch im Allgäu","municipality":{"key":"08436055","name":"Leutkirch im Allgäu, Stadt","type":"Große_Kreisstadt"},"district":{"key":"08436","name":"Ravensburg","type":"Landkreis"},"federalState":{"key":"08","name":"Baden-Württemberg"}},{"name":"Kurt-Georg-Kiesinger-Str.","postalCode":"88299","locality":"Leutkirch im Allgäu","municipality":{"key":"08436055","name":"Leutkirch im Allgäu, Stadt","type":"Große_Kreisstadt"},"district":{"key":"08436","name":"Ravensburg","type":"Landkreis"},"federalState":{"key":"08","name":"Baden-Württemberg"}},{"name":"Kurze Str.","postalCode":"88299","locality":"Leutkirch im Allgäu","municipality":{"key":"08436055","name":"Leutkirch im Allgäu, Stadt","type":"Große_Kreisstadt"},"district":{"key":"08436","name":"Ravensburg","type":"Landkreis"},"federalState":{"key":"08","name":"Baden-Württemberg"}},{"name":"Lammgasse","postalCode":"88299","locality":"Leutkirch im Allgäu","municipality":{"key":"08436055","name":"Leutkirch im Allgäu, Stadt","type":"Große_Kreisstadt"},"district":{"key":"08436","name":"Ravensburg","type":"Landkreis"},"federalState":{"key":"08","name":"Baden-Württemberg"}},{"name":"Landhausstr.","postalCode":"88299","locality":"Leutkirch im Allgäu","municipality":{"key":"08436055","name":"Leutkirch im Allgäu, Stadt","type":"Große_Kreisstadt"},"district":{"key":"08436","name":"Ravensburg","type":"Landkreis"},"federalState":{"key":"08","name":"Baden-Württemberg"}},{"name":"Landstr.","postalCode":"88299","locality":"Leutkirch im Allgäu","municipality":{"key":"08436055","name":"Leutkirch im Allgäu, Stadt","type":"Große_Kreisstadt"},"district":{"key":"08436","name":"Ravensburg","type":"Landkreis"},"federalState":{"key":"08","name":"Baden-Württemberg"}},{"name":"Laurentiusweg","postalCode":"88299","locality":"Leutkirch im Allgäu","municipality":{"key":"08436055","name":"Leutkirch im Allgäu, Stadt","type":"Große_Kreisstadt"},"district":{"key":"08436","name":"Ravensburg","type":"Landkreis"},"federalState":{"key":"08","name":"Baden-Württemberg"}},{"name":"Lausitzer Str.","postalCode":"88299","locality":"Leutkirch im Allgäu","municipality":{"key":"08436055","name":"Leutkirch im Allgäu, Stadt","type":"Große_Kreisstadt"},"district":{"key":"08436","name":"Ravensburg","type":"Landkreis"},"federalState":{"key":"08","name":"Baden-Württemberg"}},{"name":"Lauthstr.","postalCode":"88299","locality":"Leutkirch im Allgäu","municipality":{"key":"08436055","name":"Leutkirch im Allgäu, Stadt","type":"Große_Kreisstadt"},"district":{"key":"08436","name":"Ravensburg","type":"Landkreis"},"federalState":{"key":"08","name":"Baden-Württemberg"}},{"name":"Legauer Str.","postalCode":"88299","locality":"Leutkirch im Allgäu","municipality":{"key":"08436055","name":"Leutkirch im Allgäu, Stadt","type":"Große_Kreisstadt"},"district":{"key":"08436","name":"Ravensburg","type":"Landkreis"},"federalState":{"key":"08","name":"Baden-Württemberg"}},{"name":"Lerchenweg","postalCode":"88299","locality":"Leutkirch im Allgäu","municipality":{"key":"08436055","name":"Leutkirch im Allgäu, Stadt","type":"Große_Kreisstadt"},"district":{"key":"08436","name":"Ravensburg","type":"Landkreis"},"federalState":{"key":"08","name":"Baden-Württemberg"}},{"name":"Leutkircher Str.","postalCode":"88299","locality":"Leutkirch im Allgäu","municipality":{"key":"08436055","name":"Leutkirch im Allgäu, Stadt","type":"Große_Kreisstadt"},"district":{"key":"08436","name":"Ravensburg","type":"Landkreis"},"federalState":{"key":"08","name":"Baden-Württemberg"}},{"name":"Liezenhofer Str.","postalCode":"88299","locality":"Leutkirch im Allgäu","municipality":{"key":"08436055","name":"Leutkirch im Allgäu, Stadt","type":"Große_Kreisstadt"},"district":{"key":"08436","name":"Ravensburg","type":"Landkreis"},"federalState":{"key":"08","name":"Baden-Württemberg"}},{"name":"Lilo-Gollowitsch-Weg","postalCode":"88299","locality":"Leutkirch im Allgäu","municipality":{"key":"08436055","name":"Leutkirch im Allgäu, Stadt","type":"Große_Kreisstadt"},"district":{"key":"08436","name":"Ravensburg","type":"Landkreis"},"federalState":{"key":"08","name":"Baden-Württemberg"}},{"name":"Lindenstr.","postalCode":"88299","locality":"Leutkirch im Allgäu","municipality":{"key":"08436055","name":"Leutkirch im Allgäu, Stadt","type":"Große_Kreisstadt"},"district":{"key":"08436","name":"Ravensburg","type":"Landkreis"},"federalState":{"key":"08","name":"Baden-Württemberg"}},{"name":"Lochbühler Str.","postalCode":"88299","locality":"Leutkirch im Allgäu","municipality":{"key":"08436055","name":"Leutkirch im Allgäu, Stadt","type":"Große_Kreisstadt"},"district":{"key":"08436","name":"Ravensburg","type":"Landkreis"},"federalState":{"key":"08","name":"Baden-Württemberg"}},{"name":"Lorenz-Hengler-Str.","postalCode":"88299","locality":"Leutkirch im Allgäu","municipality":{"key":"08436055","name":"Leutkirch im Allgäu, Stadt","type":"Große_Kreisstadt"},"district":{"key":"08436","name":"Ravensburg","type":"Landkreis"},"federalState":{"key":"08","name":"Baden-Württemberg"}},{"name":"Löwengasse","postalCode":"88299","locality":"Leutkirch im Allgäu","municipality":{"key":"08436055","name":"Leutkirch im Allgäu, Stadt","type":"Große_Kreisstadt"},"district":{"key":"08436","name":"Ravensburg","type":"Landkreis"},"federalState":{"key":"08","name":"Baden-Württemberg"}},{"name":"Löwenzahnweg","postalCode":"88299","locality":"Leutkirch im Allgäu","municipality":{"key":"08436055","name":"Leutkirch im Allgäu, Stadt","type":"Große_Kreisstadt"},"district":{"key":"08436","name":"Ravensburg","type":"Landkreis"},"federalState":{"key":"08","name":"Baden-Württemberg"}},{"name":"Loystr.","postalCode":"88299","locality":"Leutkirch im Allgäu","municipality":{"key":"08436055","name":"Leutkirch im Allgäu, Stadt","type":"Große_Kreisstadt"},"district":{"key":"08436","name":"Ravensburg","type":"Landkreis"},"federalState":{"key":"08","name":"Baden-Württemberg"}},{"name":"Ludwig-Richter-Weg","postalCode":"88299","locality":"Leutkirch im Allgäu","municipality":{"key":"08436055","name":"Leutkirch im Allgäu, Stadt","type":"Große_Kreisstadt"},"district":{"key":"08436","name":"Ravensburg","type":"Landkreis"},"federalState":{"key":"08","name":"Baden-Württemberg"}},{"name":"Luginslandweg","postalCode":"88299","locality":"Leutkirch im Allgäu","municipality":{"key":"08436055","name":"Leutkirch im Allgäu, Stadt","type":"Große_Kreisstadt"},"district":{"key":"08436","name":"Ravensburg","type":"Landkreis"},"federalState":{"key":"08","name":"Baden-Württemberg"}},{"name":"Luttolsberger Str.","postalCode":"88299","locality":"Leutkirch im Allgäu","municipality":{"key":"08436055","name":"Leutkirch im Allgäu, Stadt","type":"Große_Kreisstadt"},"district":{"key":"08436","name":"Ravensburg","type":"Landkreis"},"federalState":{"key":"08","name":"Baden-Württemberg"}},{"name":"Magnusweg","postalCode":"88299","locality":"Leutkirch im Allgäu","municipality":{"key":"08436055","name":"Leutkirch im Allgäu, Stadt","type":"Große_Kreisstadt"},"district":{"key":"08436","name":"Ravensburg","type":"Landkreis"},"federalState":{"key":"08","name":"Baden-Württemberg"}},{"name":"Mailand","postalCode":"88299","locality":"Leutkirch im Allgäu","municipality":{"key":"08436055","name":"Leutkirch im Allgäu, Stadt","type":"Große_Kreisstadt"},"district":{"key":"08436","name":"Ravensburg","type":"Landkreis"},"federalState":{"key":"08","name":"Baden-Württemberg"}},{"name":"Mailänder Str.","postalCode":"88299","locality":"Leutkirch im Allgäu","municipality":{"key":"08436055","name":"Leutkirch im Allgäu, Stadt","type":"Große_Kreisstadt"},"district":{"key":"08436","name":"Ravensburg","type":"Landkreis"},"federalState":{"key":"08","name":"Baden-Württemberg"}},{"name":"Margaretenweg","postalCode":"88299","locality":"Leutkirch im Allgäu","municipality":{"key":"08436055","name":"Leutkirch im Allgäu, Stadt","type":"Große_Kreisstadt"},"district":{"key":"08436","name":"Ravensburg","type":"Landkreis"},"federalState":{"key":"08","name":"Baden-Württemberg"}},{"name":"Maria-Burger-Weg","postalCode":"88299","locality":"Leutkirch im Allgäu","municipality":{"key":"08436055","name":"Leutkirch im Allgäu, Stadt","type":"Große_Kreisstadt"},"district":{"key":"08436","name":"Ravensburg","type":"Landkreis"},"federalState":{"key":"08","name":"Baden-Württemberg"}},{"name":"Marienhof","postalCode":"88299","locality":"Leutkirch im Allgäu","municipality":{"key":"08436055","name":"Leutkirch im Allgäu, Stadt","type":"Große_Kreisstadt"},"district":{"key":"08436","name":"Ravensburg","type":"Landkreis"},"federalState":{"key":"08","name":"Baden-Württemberg"}},{"name":"Marienplatz","postalCode":"88299","locality":"Leutkirch im Allgäu","municipality":{"key":"08436055","name":"Leutkirch im Allgäu, Stadt","type":"Große_Kreisstadt"},"district":{"key":"08436","name":"Ravensburg","type":"Landkreis"},"federalState":{"key":"08","name":"Baden-Württemberg"}},{"name":"Marktstr.","postalCode":"88299","locality":"Leutkirch im Allgäu","municipality":{"key":"08436055","name":"Leutkirch im Allgäu, Stadt","type":"Große_Kreisstadt"},"district":{"key":"08436","name":"Ravensburg","type":"Landkreis"},"federalState":{"key":"08","name":"Baden-Württemberg"}},{"name":"Martin-Knoll-Weg","postalCode":"88299","locality":"Leutkirch im Allgäu","municipality":{"key":"08436055","name":"Leutkirch im Allgäu, Stadt","type":"Große_Kreisstadt"},"district":{"key":"08436","name":"Ravensburg","type":"Landkreis"},"federalState":{"key":"08","name":"Baden-Württemberg"}},{"name":"Martinsweg","postalCode":"88299","locality":"Leutkirch im Allgäu","municipality":{"key":"08436055","name":"Leutkirch im Allgäu, Stadt","type":"Große_Kreisstadt"},"district":{"key":"08436","name":"Ravensburg","type":"Landkreis"},"federalState":{"key":"08","name":"Baden-Württemberg"}},{"name":"Märzenbecherweg","postalCode":"88299","locality":"Leutkirch im Allgäu","municipality":{"key":"08436055","name":"Leutkirch im Allgäu, Stadt","type":"Große_Kreisstadt"},"district":{"key":"08436","name":"Ravensburg","type":"Landkreis"},"federalState":{"key":"08","name":"Baden-Württemberg"}},{"name":"Mathias-Grünewald-Str.","postalCode":"88299","locality":"Leutkirch im Allgäu","municipality":{"key":"08436055","name":"Leutkirch im Allgäu, Stadt","type":"Große_Kreisstadt"},"district":{"key":"08436","name":"Ravensburg","type":"Landkreis"},"federalState":{"key":"08","name":"Baden-Württemberg"}},{"name":"Maucherstr.","postalCode":"88299","locality":"Leutkirch im Allgäu","municipality":{"key":"08436055","name":"Leutkirch im Allgäu, Stadt","type":"Große_Kreisstadt"},"district":{"key":"08436","name":"Ravensburg","type":"Landkreis"},"federalState":{"key":"08","name":"Baden-Württemberg"}},{"name":"Meisengässle","postalCode":"88299","locality":"Leutkirch im Allgäu","municipality":{"key":"08436055","name":"Leutkirch im Allgäu, Stadt","type":"Große_Kreisstadt"},"district":{"key":"08436","name":"Ravensburg","type":"Landkreis"},"federalState":{"key":"08","name":"Baden-Württemberg"}},{"name":"Memminger Str.","postalCode":"88299","locality":"Leutkirch im Allgäu","municipality":{"key":"08436055","name":"Leutkirch im Allgäu, Stadt","type":"Große_Kreisstadt"},"district":{"key":"08436","name":"Ravensburg","type":"Landkreis"},"federalState":{"key":"08","name":"Baden-Württemberg"}},{"name":"Missener Str.","postalCode":"88299","locality":"Leutkirch im Allgäu","municipality":{"key":"08436055","name":"Leutkirch im Allgäu, Stadt","type":"Große_Kreisstadt"},"district":{"key":"08436","name":"Ravensburg","type":"Landkreis"},"federalState":{"key":"08","name":"Baden-Württemberg"}},{"name":"Mittelhofer Platz","postalCode":"88299","locality":"Leutkirch im Allgäu","municipality":{"key":"08436055","name":"Leutkirch im Allgäu, Stadt","type":"Große_Kreisstadt"},"district":{"key":"08436","name":"Ravensburg","type":"Landkreis"},"federalState":{"key":"08","name":"Baden-Württemberg"}},{"name":"Mittelhoferweg","postalCode":"88299","locality":"Leutkirch im Allgäu","municipality":{"key":"08436055","name":"Leutkirch im Allgäu, Stadt","type":"Große_Kreisstadt"},"district":{"key":"08436","name":"Ravensburg","type":"Landkreis"},"federalState":{"key":"08","name":"Baden-Württemberg"}},{"name":"Mohnblumenweg","postalCode":"88299","locality":"Leutkirch im Allgäu","municipality":{"key":"08436055","name":"Leutkirch im Allgäu, Stadt","type":"Große_Kreisstadt"},"district":{"key":"08436","name":"Ravensburg","type":"Landkreis"},"federalState":{"key":"08","name":"Baden-Württemberg"}},{"name":"Möhrlinstr.","postalCode":"88299","locality":"Leutkirch im Allgäu","municipality":{"key":"08436055","name":"Leutkirch im Allgäu, Stadt","type":"Große_Kreisstadt"},"district":{"key":"08436","name":"Ravensburg","type":"Landkreis"},"federalState":{"key":"08","name":"Baden-Württemberg"}},{"name":"Moorbadstr.","postalCode":"88299","locality":"Leutkirch im Allgäu","municipality":{"key":"08436055","name":"Leutkirch im Allgäu, Stadt","type":"Große_Kreisstadt"},"district":{"key":"08436","name":"Ravensburg","type":"Landkreis"},"federalState":{"key":"08","name":"Baden-Württemberg"}},{"name":"Mooswiesenweg","postalCode":"88299","locality":"Leutkirch im Allgäu","municipality":{"key":"08436055","name":"Leutkirch im Allgäu, Stadt","type":"Große_Kreisstadt"},"district":{"key":"08436","name":"Ravensburg","type":"Landkreis"},"federalState":{"key":"08","name":"Baden-Württemberg"}},{"name":"Mörikestr.","postalCode":"88299","locality":"Leutkirch im Allgäu","municipality":{"key":"08436055","name":"Leutkirch im Allgäu, Stadt","type":"Große_Kreisstadt"},"district":{"key":"08436","name":"Ravensburg","type":"Landkreis"},"federalState":{"key":"08","name":"Baden-Württemberg"}},{"name":"Muckenwinkel","postalCode":"88299","locality":"Leutkirch im Allgäu","municipality":{"key":"08436055","name":"Leutkirch im Allgäu, Stadt","type":"Große_Kreisstadt"},"district":{"key":"08436","name":"Ravensburg","type":"Landkreis"},"federalState":{"key":"08","name":"Baden-Württemberg"}},{"name":"Mühlbachstr.","postalCode":"88299","locality":"Leutkirch im Allgäu","municipality":{"key":"08436055","name":"Leutkirch im Allgäu, Stadt","type":"Große_Kreisstadt"},"district":{"key":"08436","name":"Ravensburg","type":"Landkreis"},"federalState":{"key":"08","name":"Baden-Württemberg"}},{"name":"Mühlbühlweg","postalCode":"88299","locality":"Leutkirch im Allgäu","municipality":{"key":"08436055","name":"Leutkirch im Allgäu, Stadt","type":"Große_Kreisstadt"},"district":{"key":"08436","name":"Ravensburg","type":"Landkreis"},"federalState":{"key":"08","name":"Baden-Württemberg"}},{"name":"Mühlweg","postalCode":"88299","locality":"Leutkirch im Allgäu","municipality":{"key":"08436055","name":"Leutkirch im Allgäu, Stadt","type":"Große_Kreisstadt"},"district":{"key":"08436","name":"Ravensburg","type":"Landkreis"},"federalState":{"key":"08","name":"Baden-Württemberg"}},{"name":"Mühlweiherweg","postalCode":"88299","locality":"Leutkirch im Allgäu","municipality":{"key":"08436055","name":"Leutkirch im Allgäu, Stadt","type":"Große_Kreisstadt"},"district":{"key":"08436","name":"Ravensburg","type":"Landkreis"},"federalState":{"key":"08","name":"Baden-Württemberg"}},{"name":"Multscherweg","postalCode":"88299","locality":"Leutkirch im Allgäu","municipality":{"key":"08436055","name":"Leutkirch im Allgäu, Stadt","type":"Große_Kreisstadt"},"district":{"key":"08436","name":"Ravensburg","type":"Landkreis"},"federalState":{"key":"08","name":"Baden-Württemberg"}},{"name":"Mundinggasse","postalCode":"88299","locality":"Leutkirch im Allgäu","municipality":{"key":"08436055","name":"Leutkirch im Allgäu, Stadt","type":"Große_Kreisstadt"},"district":{"key":"08436","name":"Ravensburg","type":"Landkreis"},"federalState":{"key":"08","name":"Baden-Württemberg"}},{"name":"Nachtigallenweg","postalCode":"88299","locality":"Leutkirch im Allgäu","municipality":{"key":"08436055","name":"Leutkirch im Allgäu, Stadt","type":"Große_Kreisstadt"},"district":{"key":"08436","name":"Ravensburg","type":"Landkreis"},"federalState":{"key":"08","name":"Baden-Württemberg"}},{"name":"Nadlerstr.","postalCode":"88299","locality":"Leutkirch im Allgäu","municipality":{"key":"08436055","name":"Leutkirch im Allgäu, Stadt","type":"Große_Kreisstadt"},"district":{"key":"08436","name":"Ravensburg","type":"Landkreis"},"federalState":{"key":"08","name":"Baden-Württemberg"}},{"name":"Nelkenweg","postalCode":"88299","locality":"Leutkirch im Allgäu","municipality":{"key":"08436055","name":"Leutkirch im Allgäu, Stadt","type":"Große_Kreisstadt"},"district":{"key":"08436","name":"Ravensburg","type":"Landkreis"},"federalState":{"key":"08","name":"Baden-Württemberg"}},{"name":"Nibelfurt","postalCode":"88299","locality":"Leutkirch im Allgäu","municipality":{"key":"08436055","name":"Leutkirch im Allgäu, Stadt","type":"Große_Kreisstadt"},"district":{"key":"08436","name":"Ravensburg","type":"Landkreis"},"federalState":{"key":"08","name":"Baden-Württemberg"}},{"name":"Nibelhöfe","postalCode":"88299","locality":"Leutkirch im Allgäu","municipality":{"key":"08436055","name":"Leutkirch im Allgäu, Stadt","type":"Große_Kreisstadt"},"district":{"key":"08436","name":"Ravensburg","type":"Landkreis"},"federalState":{"key":"08","name":"Baden-Württemberg"}},{"name":"Nibelweg","postalCode":"88299","locality":"Leutkirch im Allgäu","municipality":{"key":"08436055","name":"Leutkirch im Allgäu, Stadt","type":"Große_Kreisstadt"},"district":{"key":"08436","name":"Ravensburg","type":"Landkreis"},"federalState":{"key":"08","name":"Baden-Württemberg"}},{"name":"Niederhofen","postalCode":"88299","locality":"Leutkirch im Allgäu","municipality":{"key":"08436055","name":"Leutkirch im Allgäu, Stadt","type":"Große_Kreisstadt"},"district":{"key":"08436","name":"Ravensburg","type":"Landkreis"},"federalState":{"key":"08","name":"Baden-Württemberg"}},{"name":"Nußholzstr.","postalCode":"88299","locality":"Leutkirch im Allgäu","municipality":{"key":"08436055","name":"Leutkirch im Allgäu, Stadt","type":"Große_Kreisstadt"},"district":{"key":"08436","name":"Ravensburg","type":"Landkreis"},"federalState":{"key":"08","name":"Baden-Württemberg"}},{"name":"Obere Kirchstr.","postalCode":"88299","locality":"Leutkirch im Allgäu","municipality":{"key":"08436055","name":"Leutkirch im Allgäu, Stadt","type":"Große_Kreisstadt"},"district":{"key":"08436","name":"Ravensburg","type":"Landkreis"},"federalState":{"key":"08","name":"Baden-Württemberg"}},{"name":"Oberer Dorfweg","postalCode":"88299","locality":"Leutkirch im Allgäu","municipality":{"key":"08436055","name":"Leutkirch im Allgäu, Stadt","type":"Große_Kreisstadt"},"district":{"key":"08436","name":"Ravensburg","type":"Landkreis"},"federalState":{"key":"08","name":"Baden-Württemberg"}},{"name":"Oberer Graben","postalCode":"88299","locality":"Leutkirch im Allgäu","municipality":{"key":"08436055","name":"Leutkirch im Allgäu, Stadt","type":"Große_Kreisstadt"},"district":{"key":"08436","name":"Ravensburg","type":"Landkreis"},"federalState":{"key":"08","name":"Baden-Württemberg"}},{"name":"Oberer Mühleweg","postalCode":"88299","locality":"Leutkirch im Allgäu","municipality":{"key":"08436055","name":"Leutkirch im Allgäu, Stadt","type":"Große_Kreisstadt"},"district":{"key":"08436","name":"Ravensburg","type":"Landkreis"},"federalState":{"key":"08","name":"Baden-Württemberg"}},{"name":"Oberer Ölweg","postalCode":"88299","locality":"Leutkirch im Allgäu","municipality":{"key":"08436055","name":"Leutkirch im Allgäu, Stadt","type":"Große_Kreisstadt"},"district":{"key":"08436","name":"Ravensburg","type":"Landkreis"},"federalState":{"key":"08","name":"Baden-Württemberg"}},{"name":"Oberer Tann","postalCode":"88299","locality":"Leutkirch im Allgäu","municipality":{"key":"08436055","name":"Leutkirch im Allgäu, Stadt","type":"Große_Kreisstadt"},"district":{"key":"08436","name":"Ravensburg","type":"Landkreis"},"federalState":{"key":"08","name":"Baden-Württemberg"}},{"name":"Oberer Waldweg","postalCode":"88299","locality":"Leutkirch im Allgäu","municipality":{"key":"08436055","name":"Leutkirch im Allgäu, Stadt","type":"Große_Kreisstadt"},"district":{"key":"08436","name":"Ravensburg","type":"Landkreis"},"federalState":{"key":"08","name":"Baden-Württemberg"}},{"name":"Obere Vorstadtstr.","postalCode":"88299","locality":"Leutkirch im Allgäu","municipality":{"key":"08436055","name":"Leutkirch im Allgäu, Stadt","type":"Große_Kreisstadt"},"district":{"key":"08436","name":"Ravensburg","type":"Landkreis"},"federalState":{"key":"08","name":"Baden-Württemberg"}},{"name":"Ostpreußische Str.","postalCode":"88299","locality":"Leutkirch im Allgäu","municipality":{"key":"08436055","name":"Leutkirch im Allgäu, Stadt","type":"Große_Kreisstadt"},"district":{"key":"08436","name":"Ravensburg","type":"Landkreis"},"federalState":{"key":"08","name":"Baden-Württemberg"}},{"name":"Ottmannshofen","postalCode":"88299","locality":"Leutkirch im Allgäu","municipality":{"key":"08436055","name":"Leutkirch im Allgäu, Stadt","type":"Große_Kreisstadt"},"district":{"key":"08436","name":"Ravensburg","type":"Landkreis"},"federalState":{"key":"08","name":"Baden-Württemberg"}},{"name":"Ottmannshofer Str.","postalCode":"88299","locality":"Leutkirch im Allgäu","municipality":{"key":"08436055","name":"Leutkirch im Allgäu, Stadt","type":"Große_Kreisstadt"},"district":{"key":"08436","name":"Ravensburg","type":"Landkreis"},"federalState":{"key":"08","name":"Baden-Württemberg"}},{"name":"Paradiesgäßle","postalCode":"88299","locality":"Leutkirch im Allgäu","municipality":{"key":"08436055","name":"Leutkirch im Allgäu, Stadt","type":"Große_Kreisstadt"},"district":{"key":"08436","name":"Ravensburg","type":"Landkreis"},"federalState":{"key":"08","name":"Baden-Württemberg"}},{"name":"Pater-Inigo-Str.","postalCode":"88299","locality":"Leutkirch im Allgäu","municipality":{"key":"08436055","name":"Leutkirch im Allgäu, Stadt","type":"Große_Kreisstadt"},"district":{"key":"08436","name":"Ravensburg","type":"Landkreis"},"federalState":{"key":"08","name":"Baden-Württemberg"}},{"name":"Paulinenstr.","postalCode":"88299","locality":"Leutkirch im Allgäu","municipality":{"key":"08436055","name":"Leutkirch im Allgäu, Stadt","type":"Große_Kreisstadt"},"district":{"key":"08436","name":"Ravensburg","type":"Landkreis"},"federalState":{"key":"08","name":"Baden-Württemberg"}},{"name":"Peter-Dörfler-Weg","postalCode":"88299","locality":"Leutkirch im Allgäu","municipality":{"key":"08436055","name":"Leutkirch im Allgäu, Stadt","type":"Große_Kreisstadt"},"district":{"key":"08436","name":"Ravensburg","type":"Landkreis"},"federalState":{"key":"08","name":"Baden-Württemberg"}},{"name":"Pfadstr.","postalCode":"88299","locality":"Leutkirch im Allgäu","municipality":{"key":"08436055","name":"Leutkirch im Allgäu, Stadt","type":"Große_Kreisstadt"},"district":{"key":"08436","name":"Ravensburg","type":"Landkreis"},"federalState":{"key":"08","name":"Baden-Württemberg"}},{"name":"Pfarrer-Strauß-Weg","postalCode":"88299","locality":"Leutkirch im Allgäu","municipality":{"key":"08436055","name":"Leutkirch im Allgäu, Stadt","type":"Große_Kreisstadt"},"district":{"key":"08436","name":"Ravensburg","type":"Landkreis"},"federalState":{"key":"08","name":"Baden-Württemberg"}},{"name":"Pfauenweg","postalCode":"88299","locality":"Leutkirch im Allgäu","municipality":{"key":"08436055","name":"Leutkirch im Allgäu, Stadt","type":"Große_Kreisstadt"},"district":{"key":"08436","name":"Ravensburg","type":"Landkreis"},"federalState":{"key":"08","name":"Baden-Württemberg"}},{"name":"Pfefferbergweg","postalCode":"88299","locality":"Leutkirch im Allgäu","municipality":{"key":"08436055","name":"Leutkirch im Allgäu, Stadt","type":"Große_Kreisstadt"},"district":{"key":"08436","name":"Ravensburg","type":"Landkreis"},"federalState":{"key":"08","name":"Baden-Württemberg"}},{"name":"Pfingstbrunnenweg","postalCode":"88299","locality":"Leutkirch im Allgäu","municipality":{"key":"08436055","name":"Leutkirch im Allgäu, Stadt","type":"Große_Kreisstadt"},"district":{"key":"08436","name":"Ravensburg","type":"Landkreis"},"federalState":{"key":"08","name":"Baden-Württemberg"}},{"name":"Pflugberg","postalCode":"88299","locality":"Leutkirch im Allgäu","municipality":{"key":"08436055","name":"Leutkirch im Allgäu, Stadt","type":"Große_Kreisstadt"},"district":{"key":"08436","name":"Ravensburg","type":"Landkreis"},"federalState":{"key":"08","name":"Baden-Württemberg"}},{"name":"Pommernstr.","postalCode":"88299","locality":"Leutkirch im Allgäu","municipality":{"key":"08436055","name":"Leutkirch im Allgäu, Stadt","type":"Große_Kreisstadt"},"district":{"key":"08436","name":"Ravensburg","type":"Landkreis"},"federalState":{"key":"08","name":"Baden-Württemberg"}},{"name":"Postgässle","postalCode":"88299","locality":"Leutkirch im Allgäu","municipality":{"key":"08436055","name":"Leutkirch im Allgäu, Stadt","type":"Große_Kreisstadt"},"district":{"key":"08436","name":"Ravensburg","type":"Landkreis"},"federalState":{"key":"08","name":"Baden-Württemberg"}},{"name":"Postplatz","postalCode":"88299","locality":"Leutkirch im Allgäu","municipality":{"key":"08436055","name":"Leutkirch im Allgäu, Stadt","type":"Große_Kreisstadt"},"district":{"key":"08436","name":"Ravensburg","type":"Landkreis"},"federalState":{"key":"08","name":"Baden-Württemberg"}},{"name":"Poststr.","postalCode":"88299","locality":"Leutkirch im Allgäu","municipality":{"key":"08436055","name":"Leutkirch im Allgäu, Stadt","type":"Große_Kreisstadt"},"district":{"key":"08436","name":"Ravensburg","type":"Landkreis"},"federalState":{"key":"08","name":"Baden-Württemberg"}},{"name":"Quellenstr.","postalCode":"88299","locality":"Leutkirch im Allgäu","municipality":{"key":"08436055","name":"Leutkirch im Allgäu, Stadt","type":"Große_Kreisstadt"},"district":{"key":"08436","name":"Ravensburg","type":"Landkreis"},"federalState":{"key":"08","name":"Baden-Württemberg"}},{"name":"Rathausstr.","postalCode":"88299","locality":"Leutkirch im Allgäu","municipality":{"key":"08436055","name":"Leutkirch im Allgäu, Stadt","type":"Große_Kreisstadt"},"district":{"key":"08436","name":"Ravensburg","type":"Landkreis"},"federalState":{"key":"08","name":"Baden-Württemberg"}},{"name":"Regendächle","postalCode":"88299","locality":"Leutkirch im Allgäu","municipality":{"key":"08436055","name":"Leutkirch im Allgäu, Stadt","type":"Große_Kreisstadt"},"district":{"key":"08436","name":"Ravensburg","type":"Landkreis"},"federalState":{"key":"08","name":"Baden-Württemberg"}},{"name":"Reichenhofer Weg","postalCode":"88299","locality":"Leutkirch im Allgäu","municipality":{"key":"08436055","name":"Leutkirch im Allgäu, Stadt","type":"Große_Kreisstadt"},"district":{"key":"08436","name":"Ravensburg","type":"Landkreis"},"federalState":{"key":"08","name":"Baden-Württemberg"}},{"name":"Reiherstr.","postalCode":"88299","locality":"Leutkirch im Allgäu","municipality":{"key":"08436055","name":"Leutkirch im Allgäu, Stadt","type":"Große_Kreisstadt"},"district":{"key":"08436","name":"Ravensburg","type":"Landkreis"},"federalState":{"key":"08","name":"Baden-Württemberg"}},{"name":"Reinhold-Maier-Str.","postalCode":"88299","locality":"Leutkirch im Allgäu","municipality":{"key":"08436055","name":"Leutkirch im Allgäu, Stadt","type":"Große_Kreisstadt"},"district":{"key":"08436","name":"Ravensburg","type":"Landkreis"},"federalState":{"key":"08","name":"Baden-Württemberg"}},{"name":"Richostr.","postalCode":"88299","locality":"Leutkirch im Allgäu","municipality":{"key":"08436055","name":"Leutkirch im Allgäu, Stadt","type":"Große_Kreisstadt"},"district":{"key":"08436","name":"Ravensburg","type":"Landkreis"},"federalState":{"key":"08","name":"Baden-Württemberg"}},{"name":"Riedlesmühle","postalCode":"88299","locality":"Leutkirch im Allgäu","municipality":{"key":"08436055","name":"Leutkirch im Allgäu, Stadt","type":"Große_Kreisstadt"},"district":{"key":"08436","name":"Ravensburg","type":"Landkreis"},"federalState":{"key":"08","name":"Baden-Württemberg"}},{"name":"Riedlings","postalCode":"88299","locality":"Leutkirch im Allgäu","municipality":{"key":"08436055","name":"Leutkirch im Allgäu, Stadt","type":"Große_Kreisstadt"},"district":{"key":"08436","name":"Ravensburg","type":"Landkreis"},"federalState":{"key":"08","name":"Baden-Württemberg"}},{"name":"Riedstr.","postalCode":"88299","locality":"Leutkirch im Allgäu","municipality":{"key":"08436055","name":"Leutkirch im Allgäu, Stadt","type":"Große_Kreisstadt"},"district":{"key":"08436","name":"Ravensburg","type":"Landkreis"},"federalState":{"key":"08","name":"Baden-Württemberg"}},{"name":"Riedweg","postalCode":"88299","locality":"Leutkirch im Allgäu","municipality":{"key":"08436055","name":"Leutkirch im Allgäu, Stadt","type":"Große_Kreisstadt"},"district":{"key":"08436","name":"Ravensburg","type":"Landkreis"},"federalState":{"key":"08","name":"Baden-Württemberg"}},{"name":"Riesengebirgsstr.","postalCode":"88299","locality":"Leutkirch im Allgäu","municipality":{"key":"08436055","name":"Leutkirch im Allgäu, Stadt","type":"Große_Kreisstadt"},"district":{"key":"08436","name":"Ravensburg","type":"Landkreis"},"federalState":{"key":"08","name":"Baden-Württemberg"}},{"name":"Rimpach","postalCode":"88299","locality":"Leutkirch im Allgäu","municipality":{"key":"08436055","name":"Leutkirch im Allgäu, Stadt","type":"Große_Kreisstadt"},"district":{"key":"08436","name":"Ravensburg","type":"Landkreis"},"federalState":{"key":"08","name":"Baden-Württemberg"}},{"name":"Rimpacher Str.","postalCode":"88299","locality":"Leutkirch im Allgäu","municipality":{"key":"08436055","name":"Leutkirch im Allgäu, Stadt","type":"Große_Kreisstadt"},"district":{"key":"08436","name":"Ravensburg","type":"Landkreis"},"federalState":{"key":"08","name":"Baden-Württemberg"}},{"name":"Rindalphornweg","postalCode":"88299","locality":"Leutkirch im Allgäu","municipality":{"key":"08436055","name":"Leutkirch im Allgäu, Stadt","type":"Große_Kreisstadt"},"district":{"key":"08436","name":"Ravensburg","type":"Landkreis"},"federalState":{"key":"08","name":"Baden-Württemberg"}},{"name":"Ringweg","postalCode":"88299","locality":"Leutkirch im Allgäu","municipality":{"key":"08436055","name":"Leutkirch im Allgäu, Stadt","type":"Große_Kreisstadt"},"district":{"key":"08436","name":"Ravensburg","type":"Landkreis"},"federalState":{"key":"08","name":"Baden-Württemberg"}},{"name":"Roseggerstr.","postalCode":"88299","locality":"Leutkirch im Allgäu","municipality":{"key":"08436055","name":"Leutkirch im Allgäu, Stadt","type":"Große_Kreisstadt"},"district":{"key":"08436","name":"Ravensburg","type":"Landkreis"},"federalState":{"key":"08","name":"Baden-Württemberg"}},{"name":"Rosenstr.","postalCode":"88299","locality":"Leutkirch im Allgäu","municipality":{"key":"08436055","name":"Leutkirch im Allgäu, Stadt","type":"Große_Kreisstadt"},"district":{"key":"08436","name":"Ravensburg","type":"Landkreis"},"federalState":{"key":"08","name":"Baden-Württemberg"}},{"name":"Rostall","postalCode":"88299","locality":"Leutkirch im Allgäu","municipality":{"key":"08436055","name":"Leutkirch im Allgäu, Stadt","type":"Große_Kreisstadt"},"district":{"key":"08436","name":"Ravensburg","type":"Landkreis"},"federalState":{"key":"08","name":"Baden-Württemberg"}},{"name":"Rotisweg","postalCode":"88299","locality":"Leutkirch im Allgäu","municipality":{"key":"08436055","name":"Leutkirch im Allgäu, Stadt","type":"Große_Kreisstadt"},"district":{"key":"08436","name":"Ravensburg","type":"Landkreis"},"federalState":{"key":"08","name":"Baden-Württemberg"}},{"name":"Rudolph-Roth-Str.","postalCode":"88299","locality":"Leutkirch im Allgäu","municipality":{"key":"08436055","name":"Leutkirch im Allgäu, Stadt","type":"Große_Kreisstadt"},"district":{"key":"08436","name":"Ravensburg","type":"Landkreis"},"federalState":{"key":"08","name":"Baden-Württemberg"}},{"name":"Rupert-App-Str.","postalCode":"88299","locality":"Leutkirch im Allgäu","municipality":{"key":"08436055","name":"Leutkirch im Allgäu, Stadt","type":"Große_Kreisstadt"},"district":{"key":"08436","name":"Ravensburg","type":"Landkreis"},"federalState":{"key":"08","name":"Baden-Württemberg"}},{"name":"Sägestr.","postalCode":"88299","locality":"Leutkirch im Allgäu","municipality":{"key":"08436055","name":"Leutkirch im Allgäu, Stadt","type":"Große_Kreisstadt"},"district":{"key":"08436","name":"Ravensburg","type":"Landkreis"},"federalState":{"key":"08","name":"Baden-Württemberg"}},{"name":"Sandäcker","postalCode":"88299","locality":"Leutkirch im Allgäu","municipality":{"key":"08436055","name":"Leutkirch im Allgäu, Stadt","type":"Große_Kreisstadt"},"district":{"key":"08436","name":"Ravensburg","type":"Landkreis"},"federalState":{"key":"08","name":"Baden-Württemberg"}},{"name":"Sankt-Emanuel-Weg","postalCode":"88299","locality":"Leutkirch im Allgäu","municipality":{"key":"08436055","name":"Leutkirch im Allgäu, Stadt","type":"Große_Kreisstadt"},"district":{"key":"08436","name":"Ravensburg","type":"Landkreis"},"federalState":{"key":"08","name":"Baden-Württemberg"}},{"name":"Sankt-Matthäus-Weg","postalCode":"88299","locality":"Leutkirch im Allgäu","municipality":{"key":"08436055","name":"Leutkirch im Allgäu, Stadt","type":"Große_Kreisstadt"},"district":{"key":"08436","name":"Ravensburg","type":"Landkreis"},"federalState":{"key":"08","name":"Baden-Württemberg"}},{"name":"Säntisstr.","postalCode":"88299","locality":"Leutkirch im Allgäu","municipality":{"key":"08436055","name":"Leutkirch im Allgäu, Stadt","type":"Große_Kreisstadt"},"district":{"key":"08436","name":"Ravensburg","type":"Landkreis"},"federalState":{"key":"08","name":"Baden-Württemberg"}},{"name":"Scheffelstr.","postalCode":"88299","locality":"Leutkirch im Allgäu","municipality":{"key":"08436055","name":"Leutkirch im Allgäu, Stadt","type":"Große_Kreisstadt"},"district":{"key":"08436","name":"Ravensburg","type":"Landkreis"},"federalState":{"key":"08","name":"Baden-Württemberg"}},{"name":"Schießstattweg","postalCode":"88299","locality":"Leutkirch im Allgäu","municipality":{"key":"08436055","name":"Leutkirch im Allgäu, Stadt","type":"Große_Kreisstadt"},"district":{"key":"08436","name":"Ravensburg","type":"Landkreis"},"federalState":{"key":"08","name":"Baden-Württemberg"}},{"name":"Schillerstr.","postalCode":"88299","locality":"Leutkirch im Allgäu","municipality":{"key":"08436055","name":"Leutkirch im Allgäu, Stadt","type":"Große_Kreisstadt"},"district":{"key":"08436","name":"Ravensburg","type":"Landkreis"},"federalState":{"key":"08","name":"Baden-Württemberg"}},{"name":"Schlehenweg","postalCode":"88299","locality":"Leutkirch im Allgäu","municipality":{"key":"08436055","name":"Leutkirch im Allgäu, Stadt","type":"Große_Kreisstadt"},"district":{"key":"08436","name":"Ravensburg","type":"Landkreis"},"federalState":{"key":"08","name":"Baden-Württemberg"}},{"name":"Schleifweg","postalCode":"88299","locality":"Leutkirch im Allgäu","municipality":{"key":"08436055","name":"Leutkirch im Allgäu, Stadt","type":"Große_Kreisstadt"},"district":{"key":"08436","name":"Ravensburg","type":"Landkreis"},"federalState":{"key":"08","name":"Baden-Württemberg"}},{"name":"Schlesische Str.","postalCode":"88299","locality":"Leutkirch im Allgäu","municipality":{"key":"08436055","name":"Leutkirch im Allgäu, Stadt","type":"Große_Kreisstadt"},"district":{"key":"08436","name":"Ravensburg","type":"Landkreis"},"federalState":{"key":"08","name":"Baden-Württemberg"}},{"name":"Schloßbergweg","postalCode":"88299","locality":"Leutkirch im Allgäu","municipality":{"key":"08436055","name":"Leutkirch im Allgäu, Stadt","type":"Große_Kreisstadt"},"district":{"key":"08436","name":"Ravensburg","type":"Landkreis"},"federalState":{"key":"08","name":"Baden-Württemberg"}},{"name":"Schlotterbachgasse","postalCode":"88299","locality":"Leutkirch im Allgäu","municipality":{"key":"08436055","name":"Leutkirch im Allgäu, Stadt","type":"Große_Kreisstadt"},"district":{"key":"08436","name":"Ravensburg","type":"Landkreis"},"federalState":{"key":"08","name":"Baden-Württemberg"}},{"name":"Schmidsfelden","postalCode":"88299","locality":"Leutkirch im Allgäu","municipality":{"key":"08436055","name":"Leutkirch im Allgäu, Stadt","type":"Große_Kreisstadt"},"district":{"key":"08436","name":"Ravensburg","type":"Landkreis"},"federalState":{"key":"08","name":"Baden-Württemberg"}},{"name":"Schneegasse","postalCode":"88299","locality":"Leutkirch im Allgäu","municipality":{"key":"08436055","name":"Leutkirch im Allgäu, Stadt","type":"Große_Kreisstadt"},"district":{"key":"08436","name":"Ravensburg","type":"Landkreis"},"federalState":{"key":"08","name":"Baden-Württemberg"}},{"name":"Schneeglöckchenweg","postalCode":"88299","locality":"Leutkirch im Allgäu","municipality":{"key":"08436055","name":"Leutkirch im Allgäu, Stadt","type":"Große_Kreisstadt"},"district":{"key":"08436","name":"Ravensburg","type":"Landkreis"},"federalState":{"key":"08","name":"Baden-Württemberg"}},{"name":"Schubertstr.","postalCode":"88299","locality":"Leutkirch im Allgäu","municipality":{"key":"08436055","name":"Leutkirch im Allgäu, Stadt","type":"Große_Kreisstadt"},"district":{"key":"08436","name":"Ravensburg","type":"Landkreis"},"federalState":{"key":"08","name":"Baden-Württemberg"}},{"name":"Schulstr.","postalCode":"88299","locality":"Leutkirch im Allgäu","municipality":{"key":"08436055","name":"Leutkirch im Allgäu, Stadt","type":"Große_Kreisstadt"},"district":{"key":"08436","name":"Ravensburg","type":"Landkreis"},"federalState":{"key":"08","name":"Baden-Württemberg"}},{"name":"Schützenweg","postalCode":"88299","locality":"Leutkirch im Allgäu","municipality":{"key":"08436055","name":"Leutkirch im Allgäu, Stadt","type":"Große_Kreisstadt"},"district":{"key":"08436","name":"Ravensburg","type":"Landkreis"},"federalState":{"key":"08","name":"Baden-Württemberg"}},{"name":"Schwalbenweg","postalCode":"88299","locality":"Leutkirch im Allgäu","municipality":{"key":"08436055","name":"Leutkirch im Allgäu, Stadt","type":"Große_Kreisstadt"},"district":{"key":"08436","name":"Ravensburg","type":"Landkreis"},"federalState":{"key":"08","name":"Baden-Württemberg"}},{"name":"Schwarzer-Grat-Weg","postalCode":"88299","locality":"Leutkirch im Allgäu","municipality":{"key":"08436055","name":"Leutkirch im Allgäu, Stadt","type":"Große_Kreisstadt"},"district":{"key":"08436","name":"Ravensburg","type":"Landkreis"},"federalState":{"key":"08","name":"Baden-Württemberg"}},{"name":"Schwedenschanze","postalCode":"88299","locality":"Leutkirch im Allgäu","municipality":{"key":"08436055","name":"Leutkirch im Allgäu, Stadt","type":"Große_Kreisstadt"},"district":{"key":"08436","name":"Ravensburg","type":"Landkreis"},"federalState":{"key":"08","name":"Baden-Württemberg"}},{"name":"Seelhausweg","postalCode":"88299","locality":"Leutkirch im Allgäu","municipality":{"key":"08436055","name":"Leutkirch im Allgäu, Stadt","type":"Große_Kreisstadt"},"district":{"key":"08436","name":"Ravensburg","type":"Landkreis"},"federalState":{"key":"08","name":"Baden-Württemberg"}},{"name":"Seilerstr.","postalCode":"88299","locality":"Leutkirch im Allgäu","municipality":{"key":"08436055","name":"Leutkirch im Allgäu, Stadt","type":"Große_Kreisstadt"},"district":{"key":"08436","name":"Ravensburg","type":"Landkreis"},"federalState":{"key":"08","name":"Baden-Württemberg"}},{"name":"Sennereiweg","postalCode":"88299","locality":"Leutkirch im Allgäu","municipality":{"key":"08436055","name":"Leutkirch im Allgäu, Stadt","type":"Große_Kreisstadt"},"district":{"key":"08436","name":"Ravensburg","type":"Landkreis"},"federalState":{"key":"08","name":"Baden-Württemberg"}},{"name":"Siechenhausweg","postalCode":"88299","locality":"Leutkirch im Allgäu","municipality":{"key":"08436055","name":"Leutkirch im Allgäu, Stadt","type":"Große_Kreisstadt"},"district":{"key":"08436","name":"Ravensburg","type":"Landkreis"},"federalState":{"key":"08","name":"Baden-Württemberg"}},{"name":"Silcherweg","postalCode":"88299","locality":"Leutkirch im Allgäu","municipality":{"key":"08436055","name":"Leutkirch im Allgäu, Stadt","type":"Große_Kreisstadt"},"district":{"key":"08436","name":"Ravensburg","type":"Landkreis"},"federalState":{"key":"08","name":"Baden-Württemberg"}},{"name":"Sonnenblumenweg","postalCode":"88299","locality":"Leutkirch im Allgäu","municipality":{"key":"08436055","name":"Leutkirch im Allgäu, Stadt","type":"Große_Kreisstadt"},"district":{"key":"08436","name":"Ravensburg","type":"Landkreis"},"federalState":{"key":"08","name":"Baden-Württemberg"}},{"name":"Sonnenbühl","postalCode":"88299","locality":"Leutkirch im Allgäu","municipality":{"key":"08436055","name":"Leutkirch im Allgäu, Stadt","type":"Große_Kreisstadt"},"district":{"key":"08436","name":"Ravensburg","type":"Landkreis"},"federalState":{"key":"08","name":"Baden-Württemberg"}},{"name":"Sonnengässle","postalCode":"88299","locality":"Leutkirch im Allgäu","municipality":{"key":"08436055","name":"Leutkirch im Allgäu, Stadt","type":"Große_Kreisstadt"},"district":{"key":"08436","name":"Ravensburg","type":"Landkreis"},"federalState":{"key":"08","name":"Baden-Württemberg"}},{"name":"Sonnenhang","postalCode":"88299","locality":"Leutkirch im Allgäu","municipality":{"key":"08436055","name":"Leutkirch im Allgäu, Stadt","type":"Große_Kreisstadt"},"district":{"key":"08436","name":"Ravensburg","type":"Landkreis"},"federalState":{"key":"08","name":"Baden-Württemberg"}},{"name":"Sonnenweg","postalCode":"88299","locality":"Leutkirch im Allgäu","municipality":{"key":"08436055","name":"Leutkirch im Allgäu, Stadt","type":"Große_Kreisstadt"},"district":{"key":"08436","name":"Ravensburg","type":"Landkreis"},"federalState":{"key":"08","name":"Baden-Württemberg"}},{"name":"Spechtschmiede","postalCode":"88299","locality":"Leutkirch im Allgäu","municipality":{"key":"08436055","name":"Leutkirch im Allgäu, Stadt","type":"Große_Kreisstadt"},"district":{"key":"08436","name":"Ravensburg","type":"Landkreis"},"federalState":{"key":"08","name":"Baden-Württemberg"}},{"name":"Sperberweg","postalCode":"88299","locality":"Leutkirch im Allgäu","municipality":{"key":"08436055","name":"Leutkirch im Allgäu, Stadt","type":"Große_Kreisstadt"},"district":{"key":"08436","name":"Ravensburg","type":"Landkreis"},"federalState":{"key":"08","name":"Baden-Württemberg"}},{"name":"Spitalriedstr.","postalCode":"88299","locality":"Leutkirch im Allgäu","municipality":{"key":"08436055","name":"Leutkirch im Allgäu, Stadt","type":"Große_Kreisstadt"},"district":{"key":"08436","name":"Ravensburg","type":"Landkreis"},"federalState":{"key":"08","name":"Baden-Württemberg"}},{"name":"Spitzenrainweg","postalCode":"88299","locality":"Leutkirch im Allgäu","municipality":{"key":"08436055","name":"Leutkirch im Allgäu, Stadt","type":"Große_Kreisstadt"},"district":{"key":"08436","name":"Ravensburg","type":"Landkreis"},"federalState":{"key":"08","name":"Baden-Württemberg"}},{"name":"Stampfe","postalCode":"88299","locality":"Leutkirch im Allgäu","municipality":{"key":"08436055","name":"Leutkirch im Allgäu, Stadt","type":"Große_Kreisstadt"},"district":{"key":"08436","name":"Ravensburg","type":"Landkreis"},"federalState":{"key":"08","name":"Baden-Württemberg"}},{"name":"Starenweg","postalCode":"88299","locality":"Leutkirch im Allgäu","municipality":{"key":"08436055","name":"Leutkirch im Allgäu, Stadt","type":"Große_Kreisstadt"},"district":{"key":"08436","name":"Ravensburg","type":"Landkreis"},"federalState":{"key":"08","name":"Baden-Württemberg"}},{"name":"St.-Carolus-Weg","postalCode":"88299","locality":"Leutkirch im Allgäu","municipality":{"key":"08436055","name":"Leutkirch im Allgäu, Stadt","type":"Große_Kreisstadt"},"district":{"key":"08436","name":"Ravensburg","type":"Landkreis"},"federalState":{"key":"08","name":"Baden-Württemberg"}},{"name":"Steigweg","postalCode":"88299","locality":"Leutkirch im Allgäu","municipality":{"key":"08436055","name":"Leutkirch im Allgäu, Stadt","type":"Große_Kreisstadt"},"district":{"key":"08436","name":"Ravensburg","type":"Landkreis"},"federalState":{"key":"08","name":"Baden-Württemberg"}},{"name":"Steinbeisstr.","postalCode":"88299","locality":"Leutkirch im Allgäu","municipality":{"key":"08436055","name":"Leutkirch im Allgäu, Stadt","type":"Große_Kreisstadt"},"district":{"key":"08436","name":"Ravensburg","type":"Landkreis"},"federalState":{"key":"08","name":"Baden-Württemberg"}},{"name":"Steinbühlstr.","postalCode":"88299","locality":"Leutkirch im Allgäu","municipality":{"key":"08436055","name":"Leutkirch im Allgäu, Stadt","type":"Große_Kreisstadt"},"district":{"key":"08436","name":"Ravensburg","type":"Landkreis"},"federalState":{"key":"08","name":"Baden-Württemberg"}},{"name":"Storchenstr.","postalCode":"88299","locality":"Leutkirch im Allgäu","municipality":{"key":"08436055","name":"Leutkirch im Allgäu, Stadt","type":"Große_Kreisstadt"},"district":{"key":"08436","name":"Ravensburg","type":"Landkreis"},"federalState":{"key":"08","name":"Baden-Württemberg"}},{"name":"Strampfelbergweg","postalCode":"88299","locality":"Leutkirch im Allgäu","municipality":{"key":"08436055","name":"Leutkirch im Allgäu, Stadt","type":"Große_Kreisstadt"},"district":{"key":"08436","name":"Ravensburg","type":"Landkreis"},"federalState":{"key":"08","name":"Baden-Württemberg"}},{"name":"Ströhlerweg","postalCode":"88299","locality":"Leutkirch im Allgäu","municipality":{"key":"08436055","name":"Leutkirch im Allgäu, Stadt","type":"Große_Kreisstadt"},"district":{"key":"08436","name":"Ravensburg","type":"Landkreis"},"federalState":{"key":"08","name":"Baden-Württemberg"}},{"name":"St.-Stephanus-Weg","postalCode":"88299","locality":"Leutkirch im Allgäu","municipality":{"key":"08436055","name":"Leutkirch im Allgäu, Stadt","type":"Große_Kreisstadt"},"district":{"key":"08436","name":"Ravensburg","type":"Landkreis"},"federalState":{"key":"08","name":"Baden-Württemberg"}},{"name":"St.-Wolfgangs-Weg","postalCode":"88299","locality":"Leutkirch im Allgäu","municipality":{"key":"08436055","name":"Leutkirch im Allgäu, Stadt","type":"Große_Kreisstadt"},"district":{"key":"08436","name":"Ravensburg","type":"Landkreis"},"federalState":{"key":"08","name":"Baden-Württemberg"}},{"name":"Sudetenstr.","postalCode":"88299","locality":"Leutkirch im Allgäu","municipality":{"key":"08436055","name":"Leutkirch im Allgäu, Stadt","type":"Große_Kreisstadt"},"district":{"key":"08436","name":"Ravensburg","type":"Landkreis"},"federalState":{"key":"08","name":"Baden-Württemberg"}},{"name":"Syrlinstr.","postalCode":"88299","locality":"Leutkirch im Allgäu","municipality":{"key":"08436055","name":"Leutkirch im Allgäu, Stadt","type":"Große_Kreisstadt"},"district":{"key":"08436","name":"Ravensburg","type":"Landkreis"},"federalState":{"key":"08","name":"Baden-Württemberg"}},{"name":"Talbauernstr.","postalCode":"88299","locality":"Leutkirch im Allgäu","municipality":{"key":"08436055","name":"Leutkirch im Allgäu, Stadt","type":"Große_Kreisstadt"},"district":{"key":"08436","name":"Ravensburg","type":"Landkreis"},"federalState":{"key":"08","name":"Baden-Württemberg"}},{"name":"Talstr.","postalCode":"88299","locality":"Leutkirch im Allgäu","municipality":{"key":"08436055","name":"Leutkirch im Allgäu, Stadt","type":"Große_Kreisstadt"},"district":{"key":"08436","name":"Ravensburg","type":"Landkreis"},"federalState":{"key":"08","name":"Baden-Württemberg"}},{"name":"Tannenweg","postalCode":"88299","locality":"Leutkirch im Allgäu","municipality":{"key":"08436055","name":"Leutkirch im Allgäu, Stadt","type":"Große_Kreisstadt"},"district":{"key":"08436","name":"Ravensburg","type":"Landkreis"},"federalState":{"key":"08","name":"Baden-Württemberg"}},{"name":"Tannhöfe","postalCode":"88299","locality":"Leutkirch im Allgäu","municipality":{"key":"08436055","name":"Leutkirch im Allgäu, Stadt","type":"Große_Kreisstadt"},"district":{"key":"08436","name":"Ravensburg","type":"Landkreis"},"federalState":{"key":"08","name":"Baden-Württemberg"}},{"name":"Tannholzstr.","postalCode":"88299","locality":"Leutkirch im Allgäu","municipality":{"key":"08436055","name":"Leutkirch im Allgäu, Stadt","type":"Große_Kreisstadt"},"district":{"key":"08436","name":"Ravensburg","type":"Landkreis"},"federalState":{"key":"08","name":"Baden-Württemberg"}},{"name":"Taubenweg","postalCode":"88299","locality":"Leutkirch im Allgäu","municipality":{"key":"08436055","name":"Leutkirch im Allgäu, Stadt","type":"Große_Kreisstadt"},"district":{"key":"08436","name":"Ravensburg","type":"Landkreis"},"federalState":{"key":"08","name":"Baden-Württemberg"}},{"name":"Tautenhofer Str.","postalCode":"88299","locality":"Leutkirch im Allgäu","municipality":{"key":"08436055","name":"Leutkirch im Allgäu, Stadt","type":"Große_Kreisstadt"},"district":{"key":"08436","name":"Ravensburg","type":"Landkreis"},"federalState":{"key":"08","name":"Baden-Württemberg"}},{"name":"Theodor-Heuss-Str.","postalCode":"88299","locality":"Leutkirch im Allgäu","municipality":{"key":"08436055","name":"Leutkirch im Allgäu, Stadt","type":"Große_Kreisstadt"},"district":{"key":"08436","name":"Ravensburg","type":"Landkreis"},"federalState":{"key":"08","name":"Baden-Württemberg"}},{"name":"Trettachweg","postalCode":"88299","locality":"Leutkirch im Allgäu","municipality":{"key":"08436055","name":"Leutkirch im Allgäu, Stadt","type":"Große_Kreisstadt"},"district":{"key":"08436","name":"Ravensburg","type":"Landkreis"},"federalState":{"key":"08","name":"Baden-Württemberg"}},{"name":"Tulpenweg","postalCode":"88299","locality":"Leutkirch im Allgäu","municipality":{"key":"08436055","name":"Leutkirch im Allgäu, Stadt","type":"Große_Kreisstadt"},"district":{"key":"08436","name":"Ravensburg","type":"Landkreis"},"federalState":{"key":"08","name":"Baden-Württemberg"}},{"name":"Ufhofer Str.","postalCode":"88299","locality":"Leutkirch im Allgäu","municipality":{"key":"08436055","name":"Leutkirch im Allgäu, Stadt","type":"Große_Kreisstadt"},"district":{"key":"08436","name":"Ravensburg","type":"Landkreis"},"federalState":{"key":"08","name":"Baden-Württemberg"}},{"name":"Uhlandstr.","postalCode":"88299","locality":"Leutkirch im Allgäu","municipality":{"key":"08436055","name":"Leutkirch im Allgäu, Stadt","type":"Große_Kreisstadt"},"district":{"key":"08436","name":"Ravensburg","type":"Landkreis"},"federalState":{"key":"08","name":"Baden-Württemberg"}},{"name":"Ulmenweg","postalCode":"88299","locality":"Leutkirch im Allgäu","municipality":{"key":"08436055","name":"Leutkirch im Allgäu, Stadt","type":"Große_Kreisstadt"},"district":{"key":"08436","name":"Ravensburg","type":"Landkreis"},"federalState":{"key":"08","name":"Baden-Württemberg"}},{"name":"Ulrichsweg","postalCode":"88299","locality":"Leutkirch im Allgäu","municipality":{"key":"08436055","name":"Leutkirch im Allgäu, Stadt","type":"Große_Kreisstadt"},"district":{"key":"08436","name":"Ravensburg","type":"Landkreis"},"federalState":{"key":"08","name":"Baden-Württemberg"}},{"name":"Untere Grabenstr.","postalCode":"88299","locality":"Leutkirch im Allgäu","municipality":{"key":"08436055","name":"Leutkirch im Allgäu, Stadt","type":"Große_Kreisstadt"},"district":{"key":"08436","name":"Ravensburg","type":"Landkreis"},"federalState":{"key":"08","name":"Baden-Württemberg"}},{"name":"Untere Halde","postalCode":"88299","locality":"Leutkirch im Allgäu","municipality":{"key":"08436055","name":"Leutkirch im Allgäu, Stadt","type":"Große_Kreisstadt"},"district":{"key":"08436","name":"Ravensburg","type":"Landkreis"},"federalState":{"key":"08","name":"Baden-Württemberg"}},{"name":"Untere Kirchgasse","postalCode":"88299","locality":"Leutkirch im Allgäu","municipality":{"key":"08436055","name":"Leutkirch im Allgäu, Stadt","type":"Große_Kreisstadt"},"district":{"key":"08436","name":"Ravensburg","type":"Landkreis"},"federalState":{"key":"08","name":"Baden-Württemberg"}},{"name":"Untere Kirchstr.","postalCode":"88299","locality":"Leutkirch im Allgäu","municipality":{"key":"08436055","name":"Leutkirch im Allgäu, Stadt","type":"Große_Kreisstadt"},"district":{"key":"08436","name":"Ravensburg","type":"Landkreis"},"federalState":{"key":"08","name":"Baden-Württemberg"}},{"name":"Unterer Dorfweg","postalCode":"88299","locality":"Leutkirch im Allgäu","municipality":{"key":"08436055","name":"Leutkirch im Allgäu, Stadt","type":"Große_Kreisstadt"},"district":{"key":"08436","name":"Ravensburg","type":"Landkreis"},"federalState":{"key":"08","name":"Baden-Württemberg"}},{"name":"Unterer Mühleweg","postalCode":"88299","locality":"Leutkirch im Allgäu","municipality":{"key":"08436055","name":"Leutkirch im Allgäu, Stadt","type":"Große_Kreisstadt"},"district":{"key":"08436","name":"Ravensburg","type":"Landkreis"},"federalState":{"key":"08","name":"Baden-Württemberg"}},{"name":"Unterer Ölweg","postalCode":"88299","locality":"Leutkirch im Allgäu","municipality":{"key":"08436055","name":"Leutkirch im Allgäu, Stadt","type":"Große_Kreisstadt"},"district":{"key":"08436","name":"Ravensburg","type":"Landkreis"},"federalState":{"key":"08","name":"Baden-Württemberg"}},{"name":"Unterzeiler Weg","postalCode":"88299","locality":"Leutkirch im Allgäu","municipality":{"key":"08436055","name":"Leutkirch im Allgäu, Stadt","type":"Große_Kreisstadt"},"district":{"key":"08436","name":"Ravensburg","type":"Landkreis"},"federalState":{"key":"08","name":"Baden-Württemberg"}},{"name":"Urlau Bahnhof","postalCode":"88299","locality":"Leutkirch im Allgäu","municipality":{"key":"08436055","name":"Leutkirch im Allgäu, Stadt","type":"Große_Kreisstadt"},"district":{"key":"08436","name":"Ravensburg","type":"Landkreis"},"federalState":{"key":"08","name":"Baden-Württemberg"}},{"name":"Uttenhofen","postalCode":"88299","locality":"Leutkirch im Allgäu","municipality":{"key":"08436055","name":"Leutkirch im Allgäu, Stadt","type":"Große_Kreisstadt"},"district":{"key":"08436","name":"Ravensburg","type":"Landkreis"},"federalState":{"key":"08","name":"Baden-Württemberg"}},{"name":"Uttenhofer Str.","postalCode":"88299","locality":"Leutkirch im Allgäu","municipality":{"key":"08436055","name":"Leutkirch im Allgäu, Stadt","type":"Große_Kreisstadt"},"district":{"key":"08436","name":"Ravensburg","type":"Landkreis"},"federalState":{"key":"08","name":"Baden-Württemberg"}},{"name":"Veilchenweg","postalCode":"88299","locality":"Leutkirch im Allgäu","municipality":{"key":"08436055","name":"Leutkirch im Allgäu, Stadt","type":"Große_Kreisstadt"},"district":{"key":"08436","name":"Ravensburg","type":"Landkreis"},"federalState":{"key":"08","name":"Baden-Württemberg"}},{"name":"Waldkapelle","postalCode":"88299","locality":"Leutkirch im Allgäu","municipality":{"key":"08436055","name":"Leutkirch im Allgäu, Stadt","type":"Große_Kreisstadt"},"district":{"key":"08436","name":"Ravensburg","type":"Landkreis"},"federalState":{"key":"08","name":"Baden-Württemberg"}},{"name":"Waldstr.","postalCode":"88299","locality":"Leutkirch im Allgäu","municipality":{"key":"08436055","name":"Leutkirch im Allgäu, Stadt","type":"Große_Kreisstadt"},"district":{"key":"08436","name":"Ravensburg","type":"Landkreis"},"federalState":{"key":"08","name":"Baden-Württemberg"}},{"name":"Waltershofer Str.","postalCode":"88299","locality":"Leutkirch im Allgäu","municipality":{"key":"08436055","name":"Leutkirch im Allgäu, Stadt","type":"Große_Kreisstadt"},"district":{"key":"08436","name":"Ravensburg","type":"Landkreis"},"federalState":{"key":"08","name":"Baden-Württemberg"}},{"name":"Wangener Str.","postalCode":"88299","locality":"Leutkirch im Allgäu","municipality":{"key":"08436055","name":"Leutkirch im Allgäu, Stadt","type":"Große_Kreisstadt"},"district":{"key":"08436","name":"Ravensburg","type":"Landkreis"},"federalState":{"key":"08","name":"Baden-Württemberg"}},{"name":"Wangerweg","postalCode":"88299","locality":"Leutkirch im Allgäu","municipality":{"key":"08436055","name":"Leutkirch im Allgäu, Stadt","type":"Große_Kreisstadt"},"district":{"key":"08436","name":"Ravensburg","type":"Landkreis"},"federalState":{"key":"08","name":"Baden-Württemberg"}},{"name":"Webergasse","postalCode":"88299","locality":"Leutkirch im Allgäu","municipality":{"key":"08436055","name":"Leutkirch im Allgäu, Stadt","type":"Große_Kreisstadt"},"district":{"key":"08436","name":"Ravensburg","type":"Landkreis"},"federalState":{"key":"08","name":"Baden-Württemberg"}},{"name":"Weidenweg","postalCode":"88299","locality":"Leutkirch im Allgäu","municipality":{"key":"08436055","name":"Leutkirch im Allgäu, Stadt","type":"Große_Kreisstadt"},"district":{"key":"08436","name":"Ravensburg","type":"Landkreis"},"federalState":{"key":"08","name":"Baden-Württemberg"}},{"name":"Weiherweg","postalCode":"88299","locality":"Leutkirch im Allgäu","municipality":{"key":"08436055","name":"Leutkirch im Allgäu, Stadt","type":"Große_Kreisstadt"},"district":{"key":"08436","name":"Ravensburg","type":"Landkreis"},"federalState":{"key":"08","name":"Baden-Württemberg"}},{"name":"Weißdornweg","postalCode":"88299","locality":"Leutkirch im Allgäu","municipality":{"key":"08436055","name":"Leutkirch im Allgäu, Stadt","type":"Große_Kreisstadt"},"district":{"key":"08436","name":"Ravensburg","type":"Landkreis"},"federalState":{"key":"08","name":"Baden-Württemberg"}},{"name":"Werkhausgasse","postalCode":"88299","locality":"Leutkirch im Allgäu","municipality":{"key":"08436055","name":"Leutkirch im Allgäu, Stadt","type":"Große_Kreisstadt"},"district":{"key":"08436","name":"Ravensburg","type":"Landkreis"},"federalState":{"key":"08","name":"Baden-Württemberg"}},{"name":"Wielazhofen","postalCode":"88299","locality":"Leutkirch im Allgäu","municipality":{"key":"08436055","name":"Leutkirch im Allgäu, Stadt","type":"Große_Kreisstadt"},"district":{"key":"08436","name":"Ravensburg","type":"Landkreis"},"federalState":{"key":"08","name":"Baden-Württemberg"}},{"name":"Wiesenweg","postalCode":"88299","locality":"Leutkirch im Allgäu","municipality":{"key":"08436055","name":"Leutkirch im Allgäu, Stadt","type":"Große_Kreisstadt"},"district":{"key":"08436","name":"Ravensburg","type":"Landkreis"},"federalState":{"key":"08","name":"Baden-Württemberg"}},{"name":"Wilhelm-Bauer-Str.","postalCode":"88299","locality":"Leutkirch im Allgäu","municipality":{"key":"08436055","name":"Leutkirch im Allgäu, Stadt","type":"Große_Kreisstadt"},"district":{"key":"08436","name":"Ravensburg","type":"Landkreis"},"federalState":{"key":"08","name":"Baden-Württemberg"}},{"name":"Wilhelmshöhe","postalCode":"88299","locality":"Leutkirch im Allgäu","municipality":{"key":"08436055","name":"Leutkirch im Allgäu, Stadt","type":"Große_Kreisstadt"},"district":{"key":"08436","name":"Ravensburg","type":"Landkreis"},"federalState":{"key":"08","name":"Baden-Württemberg"}},{"name":"Wilhelmstr.","postalCode":"88299","locality":"Leutkirch im Allgäu","municipality":{"key":"08436055","name":"Leutkirch im Allgäu, Stadt","type":"Große_Kreisstadt"},"district":{"key":"08436","name":"Ravensburg","type":"Landkreis"},"federalState":{"key":"08","name":"Baden-Württemberg"}},{"name":"Willerazhofen","postalCode":"88299","locality":"Leutkirch im Allgäu","municipality":{"key":"08436055","name":"Leutkirch im Allgäu, Stadt","type":"Große_Kreisstadt"},"district":{"key":"08436","name":"Ravensburg","type":"Landkreis"},"federalState":{"key":"08","name":"Baden-Württemberg"}},{"name":"Winterstetten","postalCode":"88299","locality":"Leutkirch im Allgäu","municipality":{"key":"08436055","name":"Leutkirch im Allgäu, Stadt","type":"Große_Kreisstadt"},"district":{"key":"08436","name":"Ravensburg","type":"Landkreis"},"federalState":{"key":"08","name":"Baden-Württemberg"}},{"name":"Winterstetter Staig","postalCode":"88299","locality":"Leutkirch im Allgäu","municipality":{"key":"08436055","name":"Leutkirch im Allgäu, Stadt","type":"Große_Kreisstadt"},"district":{"key":"08436","name":"Ravensburg","type":"Landkreis"},"federalState":{"key":"08","name":"Baden-Württemberg"}},{"name":"Wolferazhofer Str.","postalCode":"88299","locality":"Leutkirch im Allgäu","municipality":{"key":"08436055","name":"Leutkirch im Allgäu, Stadt","type":"Große_Kreisstadt"},"district":{"key":"08436","name":"Ravensburg","type":"Landkreis"},"federalState":{"key":"08","name":"Baden-Württemberg"}},{"name":"Wurzacher Str.","postalCode":"88299","locality":"Leutkirch im Allgäu","municipality":{"key":"08436055","name":"Leutkirch im Allgäu, Stadt","type":"Große_Kreisstadt"},"district":{"key":"08436","name":"Ravensburg","type":"Landkreis"},"federalState":{"key":"08","name":"Baden-Württemberg"}},{"name":"Zaungasse","postalCode":"88299","locality":"Leutkirch im Allgäu","municipality":{"key":"08436055","name":"Leutkirch im Allgäu, Stadt","type":"Große_Kreisstadt"},"district":{"key":"08436","name":"Ravensburg","type":"Landkreis"},"federalState":{"key":"08","name":"Baden-Württemberg"}},{"name":"Zeisigweg","postalCode":"88299","locality":"Leutkirch im Allgäu","municipality":{"key":"08436055","name":"Leutkirch im Allgäu, Stadt","type":"Große_Kreisstadt"},"district":{"key":"08436","name":"Ravensburg","type":"Landkreis"},"federalState":{"key":"08","name":"Baden-Württemberg"}},{"name":"Zeppelinstr.","postalCode":"88299","locality":"Leutkirch im Allgäu","municipality":{"key":"08436055","name":"Leutkirch im Allgäu, Stadt","type":"Große_Kreisstadt"},"district":{"key":"08436","name":"Ravensburg","type":"Landkreis"},"federalState":{"key":"08","name":"Baden-Württemberg"}},{"name":"Ziegelweg","postalCode":"88299","locality":"Leutkirch im Allgäu","municipality":{"key":"08436055","name":"Leutkirch im Allgäu, Stadt","type":"Große_Kreisstadt"},"district":{"key":"08436","name":"Ravensburg","type":"Landkreis"},"federalState":{"key":"08","name":"Baden-Württemberg"}},{"name":"Zollstr.","postalCode":"88299","locality":"Leutkirch im Allgäu","municipality":{"key":"08436055","name":"Leutkirch im Allgäu, Stadt","type":"Große_Kreisstadt"},"district":{"key":"08436","name":"Ravensburg","type":"Landkreis"},"federalState":{"key":"08","name":"Baden-Württemberg"}},{"name":"Zum Bärenacker","postalCode":"88299","locality":"Leutkirch im Allgäu","municipality":{"key":"08436055","name":"Leutkirch im Allgäu, Stadt","type":"Große_Kreisstadt"},"district":{"key":"08436","name":"Ravensburg","type":"Landkreis"},"federalState":{"key":"08","name":"Baden-Württemberg"}},{"name":"Zum Brunnentobel","postalCode":"88299","locality":"Leutkirch im Allgäu","municipality":{"key":"08436055","name":"Leutkirch im Allgäu, Stadt","type":"Große_Kreisstadt"},"district":{"key":"08436","name":"Ravensburg","type":"Landkreis"},"federalState":{"key":"08","name":"Baden-Württemberg"}},{"name":"Zum Esch","postalCode":"88299","locality":"Leutkirch im Allgäu","municipality":{"key":"08436055","name":"Leutkirch im Allgäu, Stadt","type":"Große_Kreisstadt"},"district":{"key":"08436","name":"Ravensburg","type":"Landkreis"},"federalState":{"key":"08","name":"Baden-Württemberg"}},{"name":"Zum Hasenmoos","postalCode":"88299","locality":"Leutkirch im Allgäu","municipality":{"key":"08436055","name":"Leutkirch im Allgäu, Stadt","type":"Große_Kreisstadt"},"district":{"key":"08436","name":"Ravensburg","type":"Landkreis"},"federalState":{"key":"08","name":"Baden-Württemberg"}},{"name":"Zum Roßhimmel","postalCode":"88299","locality":"Leutkirch im Allgäu","municipality":{"key":"08436055","name":"Leutkirch im Allgäu, Stadt","type":"Große_Kreisstadt"},"district":{"key":"08436","name":"Ravensburg","type":"Landkreis"},"federalState":{"key":"08","name":"Baden-Württemberg"}},{"name":"Zum Schachen","postalCode":"88299","locality":"Leutkirch im Allgäu","municipality":{"key":"08436055","name":"Leutkirch im Allgäu, Stadt","type":"Große_Kreisstadt"},"district":{"key":"08436","name":"Ravensburg","type":"Landkreis"},"federalState":{"key":"08","name":"Baden-Württemberg"}},{"name":"Zur Alten Schmiede","postalCode":"88299","locality":"Leutkirch im Allgäu","municipality":{"key":"08436055","name":"Leutkirch im Allgäu, Stadt","type":"Große_Kreisstadt"},"district":{"key":"08436","name":"Ravensburg","type":"Landkreis"},"federalState":{"key":"08","name":"Baden-Württemberg"}},{"name":"Zur Brunnenstube","postalCode":"88299","locality":"Leutkirch im Allgäu","municipality":{"key":"08436055","name":"Leutkirch im Allgäu, Stadt","type":"Große_Kreisstadt"},"district":{"key":"08436","name":"Ravensburg","type":"Landkreis"},"federalState":{"key":"08","name":"Baden-Württemberg"}},{"name":"Zur Dorfschule","postalCode":"88299","locality":"Leutkirch im Allgäu","municipality":{"key":"08436055","name":"Leutkirch im Allgäu, Stadt","type":"Große_Kreisstadt"},"district":{"key":"08436","name":"Ravensburg","type":"Landkreis"},"federalState":{"key":"08","name":"Baden-Württemberg"}},{"name":"Zur Schmiede","postalCode":"88299","locality":"Leutkirch im Allgäu","municipality":{"key":"08436055","name":"Leutkirch im Allgäu, Stadt","type":"Große_Kreisstadt"},"district":{"key":"08436","name":"Ravensburg","type":"Landkreis"},"federalState":{"key":"08","name":"Baden-Württemberg"}},{"name":"Zur Stampfmühle","postalCode":"88299","locality":"Leutkirch im Allgäu","municipality":{"key":"08436055","name":"Leutkirch im Allgäu, Stadt","type":"Große_Kreisstadt"},"district":{"key":"08436","name":"Ravensburg","type":"Landkreis"},"federalState":{"key":"08","name":"Baden-Württemberg"}},{"name":"Zur Wasserquelle","postalCode":"88299","locality":"Leutkirch im Allgäu","municipality":{"key":"08436055","name":"Leutkirch im Allgäu, Stadt","type":"Große_Kreisstadt"},"district":{"key":"08436","name":"Ravensburg","type":"Landkreis"},"federalState":{"key":"08","name":"Baden-Württemberg"}},{"name":"Ährenweg","postalCode":"88214","locality":"Ravensburg","municipality":{"key":"08436064","name":"Ravensburg, Stadt","type":"Große_Kreisstadt"},"district":{"key":"08436","name":"Ravensburg","type":"Landkreis"},"federalState":{"key":"08","name":"Baden-Württemberg"}},{"name":"Ölblick","postalCode":"88299","locality":"Leutkirch im Allgäu","municipality":{"key":"08436055","name":"Leutkirch im Allgäu, Stadt","type":"Große_Kreisstadt"},"district":{"key":"08436","name":"Ravensburg","type":"Landkreis"},"federalState":{"key":"08","name":"Baden-Württemberg"}},{"name":"Öschweg","postalCode":"88299","locality":"Leutkirch im Allgäu","municipality":{"key":"08436055","name":"Leutkirch im Allgäu, Stadt","type":"Große_Kreisstadt"},"district":{"key":"08436","name":"Ravensburg","type":"Landkreis"},"federalState":{"key":"08","name":"Baden-Württemberg"}},{"name":"Übendorf","postalCode":"88299","locality":"Leutkirch im Allgäu","municipality":{"key":"08436055","name":"Leutkirch im Allgäu, Stadt","type":"Große_Kreisstadt"},"district":{"key":"08436","name":"Ravensburg","type":"Landkreis"},"federalState":{"key":"08","name":"Baden-Württemberg"}},]