[{"name":"Allstedter Str.","postalCode":"06542","locality":"Allstedt","municipality":{"key":"15087015","name":"Allstedt, Stadt","type":"Stadt"},"district":{"key":"15087","name":"Mansfeld-Südharz","type":"Landkreis"},"federalState":{"key":"15","name":"Sachsen-Anhalt"}},{"name":"Alte Dorfstr.","postalCode":"06542","locality":"Allstedt","municipality":{"key":"15087015","name":"Allstedt, Stadt","type":"Stadt"},"district":{"key":"15087","name":"Mansfeld-Südharz","type":"Landkreis"},"federalState":{"key":"15","name":"Sachsen-Anhalt"}},{"name":"Alte Str.","postalCode":"06542","locality":"Allstedt","municipality":{"key":"15087015","name":"Allstedt, Stadt","type":"Stadt"},"district":{"key":"15087","name":"Mansfeld-Südharz","type":"Landkreis"},"federalState":{"key":"15","name":"Sachsen-Anhalt"}},{"name":"Am alten Gut","postalCode":"06542","locality":"Allstedt","municipality":{"key":"15087015","name":"Allstedt, Stadt","type":"Stadt"},"district":{"key":"15087","name":"Mansfeld-Südharz","type":"Landkreis"},"federalState":{"key":"15","name":"Sachsen-Anhalt"}},{"name":"Am Anger","postalCode":"06542","locality":"Allstedt","municipality":{"key":"15087015","name":"Allstedt, Stadt","type":"Stadt"},"district":{"key":"15087","name":"Mansfeld-Südharz","type":"Landkreis"},"federalState":{"key":"15","name":"Sachsen-Anhalt"}},{"name":"Am Brunnen","postalCode":"06542","locality":"Allstedt","municipality":{"key":"15087015","name":"Allstedt, Stadt","type":"Stadt"},"district":{"key":"15087","name":"Mansfeld-Südharz","type":"Landkreis"},"federalState":{"key":"15","name":"Sachsen-Anhalt"}},{"name":"Am Brunseborn","postalCode":"06542","locality":"Allstedt","municipality":{"key":"15087015","name":"Allstedt, Stadt","type":"Stadt"},"district":{"key":"15087","name":"Mansfeld-Südharz","type":"Landkreis"},"federalState":{"key":"15","name":"Sachsen-Anhalt"}},{"name":"Am Dorftor","postalCode":"06542","locality":"Allstedt","municipality":{"key":"15087015","name":"Allstedt, Stadt","type":"Stadt"},"district":{"key":"15087","name":"Mansfeld-Südharz","type":"Landkreis"},"federalState":{"key":"15","name":"Sachsen-Anhalt"}},{"name":"Am Eulenberg","postalCode":"06542","locality":"Allstedt","municipality":{"key":"15087015","name":"Allstedt, Stadt","type":"Stadt"},"district":{"key":"15087","name":"Mansfeld-Südharz","type":"Landkreis"},"federalState":{"key":"15","name":"Sachsen-Anhalt"}},{"name":"Am Gehren","postalCode":"06542","locality":"Allstedt","municipality":{"key":"15087015","name":"Allstedt, Stadt","type":"Stadt"},"district":{"key":"15087","name":"Mansfeld-Südharz","type":"Landkreis"},"federalState":{"key":"15","name":"Sachsen-Anhalt"}},{"name":"Am Hechlerbrunnen","postalCode":"06542","locality":"Allstedt","municipality":{"key":"15087015","name":"Allstedt, Stadt","type":"Stadt"},"district":{"key":"15087","name":"Mansfeld-Südharz","type":"Landkreis"},"federalState":{"key":"15","name":"Sachsen-Anhalt"}},{"name":"Am Kirchplatz","postalCode":"06542","locality":"Allstedt","municipality":{"key":"15087015","name":"Allstedt, Stadt","type":"Stadt"},"district":{"key":"15087","name":"Mansfeld-Südharz","type":"Landkreis"},"federalState":{"key":"15","name":"Sachsen-Anhalt"}},{"name":"Am Pfarrgarten","postalCode":"99439","locality":"Ballstedt","municipality":{"key":"16071005","name":"Ballstedt","type":"Kreisangehörige_Gemeinde"},"district":{"key":"16071","name":"Weimarer Land","type":"Landkreis"},"federalState":{"key":"16","name":"Thüringen"}},{"name":"Am Pietschbach","postalCode":"06542","locality":"Allstedt","municipality":{"key":"15087015","name":"Allstedt, Stadt","type":"Stadt"},"district":{"key":"15087","name":"Mansfeld-Südharz","type":"Landkreis"},"federalState":{"key":"15","name":"Sachsen-Anhalt"}},{"name":"Am Plan","postalCode":"06542","locality":"Allstedt","municipality":{"key":"15087015","name":"Allstedt, Stadt","type":"Stadt"},"district":{"key":"15087","name":"Mansfeld-Südharz","type":"Landkreis"},"federalState":{"key":"15","name":"Sachsen-Anhalt"}},{"name":"Am Rohnetal","postalCode":"06542","locality":"Allstedt","municipality":{"key":"15087015","name":"Allstedt, Stadt","type":"Stadt"},"district":{"key":"15087","name":"Mansfeld-Südharz","type":"Landkreis"},"federalState":{"key":"15","name":"Sachsen-Anhalt"}},{"name":"Am Schacht","postalCode":"06542","locality":"Allstedt","municipality":{"key":"15087015","name":"Allstedt, Stadt","type":"Stadt"},"district":{"key":"15087","name":"Mansfeld-Südharz","type":"Landkreis"},"federalState":{"key":"15","name":"Sachsen-Anhalt"}},{"name":"Am Schiessgraben","postalCode":"06542","locality":"Allstedt","municipality":{"key":"15087015","name":"Allstedt, Stadt","type":"Stadt"},"district":{"key":"15087","name":"Mansfeld-Südharz","type":"Landkreis"},"federalState":{"key":"15","name":"Sachsen-Anhalt"}},{"name":"Am Schild","postalCode":"06542","locality":"Allstedt","municipality":{"key":"15087015","name":"Allstedt, Stadt","type":"Stadt"},"district":{"key":"15087","name":"Mansfeld-Südharz","type":"Landkreis"},"federalState":{"key":"15","name":"Sachsen-Anhalt"}},{"name":"Am Sportplatz","postalCode":"06542","locality":"Allstedt","municipality":{"key":"15087015","name":"Allstedt, Stadt","type":"Stadt"},"district":{"key":"15087","name":"Mansfeld-Südharz","type":"Landkreis"},"federalState":{"key":"15","name":"Sachsen-Anhalt"}},{"name":"Am Sportplatz","postalCode":"99439","locality":"Ballstedt","municipality":{"key":"16071005","name":"Ballstedt","type":"Kreisangehörige_Gemeinde"},"district":{"key":"16071","name":"Weimarer Land","type":"Landkreis"},"federalState":{"key":"16","name":"Thüringen"}},{"name":"Am Steingarten","postalCode":"99439","locality":"Ballstedt","municipality":{"key":"16071005","name":"Ballstedt","type":"Kreisangehörige_Gemeinde"},"district":{"key":"16071","name":"Weimarer Land","type":"Landkreis"},"federalState":{"key":"16","name":"Thüringen"}},{"name":"Am Teichdamm","postalCode":"06542","locality":"Allstedt","municipality":{"key":"15087015","name":"Allstedt, Stadt","type":"Stadt"},"district":{"key":"15087","name":"Mansfeld-Südharz","type":"Landkreis"},"federalState":{"key":"15","name":"Sachsen-Anhalt"}},{"name":"Amthofstr.","postalCode":"06542","locality":"Allstedt","municipality":{"key":"15087015","name":"Allstedt, Stadt","type":"Stadt"},"district":{"key":"15087","name":"Mansfeld-Südharz","type":"Landkreis"},"federalState":{"key":"15","name":"Sachsen-Anhalt"}},{"name":"Am Westerbach","postalCode":"06542","locality":"Allstedt","municipality":{"key":"15087015","name":"Allstedt, Stadt","type":"Stadt"},"district":{"key":"15087","name":"Mansfeld-Südharz","type":"Landkreis"},"federalState":{"key":"15","name":"Sachsen-Anhalt"}},{"name":"An der Feldstr.","postalCode":"06542","locality":"Allstedt","municipality":{"key":"15087015","name":"Allstedt, Stadt","type":"Stadt"},"district":{"key":"15087","name":"Mansfeld-Südharz","type":"Landkreis"},"federalState":{"key":"15","name":"Sachsen-Anhalt"}},{"name":"An der Fülle","postalCode":"06542","locality":"Allstedt","municipality":{"key":"15087015","name":"Allstedt, Stadt","type":"Stadt"},"district":{"key":"15087","name":"Mansfeld-Südharz","type":"Landkreis"},"federalState":{"key":"15","name":"Sachsen-Anhalt"}},{"name":"An der Kirche","postalCode":"06542","locality":"Allstedt","municipality":{"key":"15087015","name":"Allstedt, Stadt","type":"Stadt"},"district":{"key":"15087","name":"Mansfeld-Südharz","type":"Landkreis"},"federalState":{"key":"15","name":"Sachsen-Anhalt"}},{"name":"An der Mühle","postalCode":"06542","locality":"Allstedt","municipality":{"key":"15087015","name":"Allstedt, Stadt","type":"Stadt"},"district":{"key":"15087","name":"Mansfeld-Südharz","type":"Landkreis"},"federalState":{"key":"15","name":"Sachsen-Anhalt"}},{"name":"An der Rohne","postalCode":"06542","locality":"Allstedt","municipality":{"key":"15087015","name":"Allstedt, Stadt","type":"Stadt"},"district":{"key":"15087","name":"Mansfeld-Südharz","type":"Landkreis"},"federalState":{"key":"15","name":"Sachsen-Anhalt"}},{"name":"An der Schule","postalCode":"06542","locality":"Allstedt","municipality":{"key":"15087015","name":"Allstedt, Stadt","type":"Stadt"},"district":{"key":"15087","name":"Mansfeld-Südharz","type":"Landkreis"},"federalState":{"key":"15","name":"Sachsen-Anhalt"}},{"name":"An der Windmühle","postalCode":"06542","locality":"Allstedt","municipality":{"key":"15087015","name":"Allstedt, Stadt","type":"Stadt"},"district":{"key":"15087","name":"Mansfeld-Südharz","type":"Landkreis"},"federalState":{"key":"15","name":"Sachsen-Anhalt"}},{"name":"Anger","postalCode":"06542","locality":"Allstedt","municipality":{"key":"15087015","name":"Allstedt, Stadt","type":"Stadt"},"district":{"key":"15087","name":"Mansfeld-Südharz","type":"Landkreis"},"federalState":{"key":"15","name":"Sachsen-Anhalt"}},{"name":"Annaröder Str.","postalCode":"06542","locality":"Allstedt","municipality":{"key":"15087015","name":"Allstedt, Stadt","type":"Stadt"},"district":{"key":"15087","name":"Mansfeld-Südharz","type":"Landkreis"},"federalState":{"key":"15","name":"Sachsen-Anhalt"}},{"name":"Annaröder Weg","postalCode":"06542","locality":"Allstedt","municipality":{"key":"15087015","name":"Allstedt, Stadt","type":"Stadt"},"district":{"key":"15087","name":"Mansfeld-Südharz","type":"Landkreis"},"federalState":{"key":"15","name":"Sachsen-Anhalt"}},{"name":"Auf dem Steinberg","postalCode":"06542","locality":"Allstedt","municipality":{"key":"15087015","name":"Allstedt, Stadt","type":"Stadt"},"district":{"key":"15087","name":"Mansfeld-Südharz","type":"Landkreis"},"federalState":{"key":"15","name":"Sachsen-Anhalt"}},{"name":"AWG-Siedlung","postalCode":"06542","locality":"Allstedt","municipality":{"key":"15087015","name":"Allstedt, Stadt","type":"Stadt"},"district":{"key":"15087","name":"Mansfeld-Südharz","type":"Landkreis"},"federalState":{"key":"15","name":"Sachsen-Anhalt"}},{"name":"Bäckerberg","postalCode":"06542","locality":"Allstedt","municipality":{"key":"15087015","name":"Allstedt, Stadt","type":"Stadt"},"district":{"key":"15087","name":"Mansfeld-Südharz","type":"Landkreis"},"federalState":{"key":"15","name":"Sachsen-Anhalt"}},{"name":"Bäckergasse","postalCode":"06542","locality":"Allstedt","municipality":{"key":"15087015","name":"Allstedt, Stadt","type":"Stadt"},"district":{"key":"15087","name":"Mansfeld-Südharz","type":"Landkreis"},"federalState":{"key":"15","name":"Sachsen-Anhalt"}},{"name":"Bäckerplatz","postalCode":"06542","locality":"Allstedt","municipality":{"key":"15087015","name":"Allstedt, Stadt","type":"Stadt"},"district":{"key":"15087","name":"Mansfeld-Südharz","type":"Landkreis"},"federalState":{"key":"15","name":"Sachsen-Anhalt"}},{"name":"Bahnhofstr.","postalCode":"06542","locality":"Allstedt","municipality":{"key":"15087015","name":"Allstedt, Stadt","type":"Stadt"},"district":{"key":"15087","name":"Mansfeld-Südharz","type":"Landkreis"},"federalState":{"key":"15","name":"Sachsen-Anhalt"}},{"name":"Bahnweg","postalCode":"06542","locality":"Allstedt","municipality":{"key":"15087015","name":"Allstedt, Stadt","type":"Stadt"},"district":{"key":"15087","name":"Mansfeld-Südharz","type":"Landkreis"},"federalState":{"key":"15","name":"Sachsen-Anhalt"}},{"name":"Bauernreihe","postalCode":"06542","locality":"Allstedt","municipality":{"key":"15087015","name":"Allstedt, Stadt","type":"Stadt"},"district":{"key":"15087","name":"Mansfeld-Südharz","type":"Landkreis"},"federalState":{"key":"15","name":"Sachsen-Anhalt"}},{"name":"Bergstr.","postalCode":"06542","locality":"Allstedt","municipality":{"key":"15087015","name":"Allstedt, Stadt","type":"Stadt"},"district":{"key":"15087","name":"Mansfeld-Südharz","type":"Landkreis"},"federalState":{"key":"15","name":"Sachsen-Anhalt"}},{"name":"Biege","postalCode":"06542","locality":"Allstedt","municipality":{"key":"15087015","name":"Allstedt, Stadt","type":"Stadt"},"district":{"key":"15087","name":"Mansfeld-Südharz","type":"Landkreis"},"federalState":{"key":"15","name":"Sachsen-Anhalt"}},{"name":"Borntalweg","postalCode":"06542","locality":"Allstedt","municipality":{"key":"15087015","name":"Allstedt, Stadt","type":"Stadt"},"district":{"key":"15087","name":"Mansfeld-Südharz","type":"Landkreis"},"federalState":{"key":"15","name":"Sachsen-Anhalt"}},{"name":"Brauhausgasse","postalCode":"06542","locality":"Allstedt","municipality":{"key":"15087015","name":"Allstedt, Stadt","type":"Stadt"},"district":{"key":"15087","name":"Mansfeld-Südharz","type":"Landkreis"},"federalState":{"key":"15","name":"Sachsen-Anhalt"}},{"name":"Breite Str.","postalCode":"06542","locality":"Allstedt","municipality":{"key":"15087015","name":"Allstedt, Stadt","type":"Stadt"},"district":{"key":"15087","name":"Mansfeld-Südharz","type":"Landkreis"},"federalState":{"key":"15","name":"Sachsen-Anhalt"}},{"name":"Buswendeschleife","postalCode":"06542","locality":"Allstedt","municipality":{"key":"15087015","name":"Allstedt, Stadt","type":"Stadt"},"district":{"key":"15087","name":"Mansfeld-Südharz","type":"Landkreis"},"federalState":{"key":"15","name":"Sachsen-Anhalt"}},{"name":"Curtsgehofener Weg","postalCode":"06542","locality":"Allstedt","municipality":{"key":"15087015","name":"Allstedt, Stadt","type":"Stadt"},"district":{"key":"15087","name":"Mansfeld-Südharz","type":"Landkreis"},"federalState":{"key":"15","name":"Sachsen-Anhalt"}},{"name":"Domplatz","postalCode":"06542","locality":"Allstedt","municipality":{"key":"15087015","name":"Allstedt, Stadt","type":"Stadt"},"district":{"key":"15087","name":"Mansfeld-Südharz","type":"Landkreis"},"federalState":{"key":"15","name":"Sachsen-Anhalt"}},{"name":"Domstr.","postalCode":"06542","locality":"Allstedt","municipality":{"key":"15087015","name":"Allstedt, Stadt","type":"Stadt"},"district":{"key":"15087","name":"Mansfeld-Südharz","type":"Landkreis"},"federalState":{"key":"15","name":"Sachsen-Anhalt"}},{"name":"Dorfrain","postalCode":"06542","locality":"Allstedt","municipality":{"key":"15087015","name":"Allstedt, Stadt","type":"Stadt"},"district":{"key":"15087","name":"Mansfeld-Südharz","type":"Landkreis"},"federalState":{"key":"15","name":"Sachsen-Anhalt"}},{"name":"Dorfstr.","postalCode":"06542","locality":"Allstedt","municipality":{"key":"15087015","name":"Allstedt, Stadt","type":"Stadt"},"district":{"key":"15087","name":"Mansfeld-Südharz","type":"Landkreis"},"federalState":{"key":"15","name":"Sachsen-Anhalt"}},{"name":"Dutkaweg","postalCode":"06542","locality":"Allstedt","municipality":{"key":"15087015","name":"Allstedt, Stadt","type":"Stadt"},"district":{"key":"15087","name":"Mansfeld-Südharz","type":"Landkreis"},"federalState":{"key":"15","name":"Sachsen-Anhalt"}},{"name":"Einsdorfer Dorfstr.","postalCode":"06542","locality":"Allstedt","municipality":{"key":"15087015","name":"Allstedt, Stadt","type":"Stadt"},"district":{"key":"15087","name":"Mansfeld-Südharz","type":"Landkreis"},"federalState":{"key":"15","name":"Sachsen-Anhalt"}},{"name":"Einsdorfer Teichgasse","postalCode":"06542","locality":"Allstedt","municipality":{"key":"15087015","name":"Allstedt, Stadt","type":"Stadt"},"district":{"key":"15087","name":"Mansfeld-Südharz","type":"Landkreis"},"federalState":{"key":"15","name":"Sachsen-Anhalt"}},{"name":"Einzinger Landstr.","postalCode":"06542","locality":"Allstedt","municipality":{"key":"15087015","name":"Allstedt, Stadt","type":"Stadt"},"district":{"key":"15087","name":"Mansfeld-Südharz","type":"Landkreis"},"federalState":{"key":"15","name":"Sachsen-Anhalt"}},{"name":"Eislebener Str.","postalCode":"06542","locality":"Allstedt","municipality":{"key":"15087015","name":"Allstedt, Stadt","type":"Stadt"},"district":{"key":"15087","name":"Mansfeld-Südharz","type":"Landkreis"},"federalState":{"key":"15","name":"Sachsen-Anhalt"}},{"name":"Eisleber Str.","postalCode":"06542","locality":"Allstedt","municipality":{"key":"15087015","name":"Allstedt, Stadt","type":"Stadt"},"district":{"key":"15087","name":"Mansfeld-Südharz","type":"Landkreis"},"federalState":{"key":"15","name":"Sachsen-Anhalt"}},{"name":"Elisabethstr.","postalCode":"06542","locality":"Allstedt","municipality":{"key":"15087015","name":"Allstedt, Stadt","type":"Stadt"},"district":{"key":"15087","name":"Mansfeld-Südharz","type":"Landkreis"},"federalState":{"key":"15","name":"Sachsen-Anhalt"}},{"name":"Emseloher Dorfstr.","postalCode":"06542","locality":"Allstedt","municipality":{"key":"15087015","name":"Allstedt, Stadt","type":"Stadt"},"district":{"key":"15087","name":"Mansfeld-Südharz","type":"Landkreis"},"federalState":{"key":"15","name":"Sachsen-Anhalt"}},{"name":"Emseloher Schulgasse","postalCode":"06542","locality":"Allstedt","municipality":{"key":"15087015","name":"Allstedt, Stadt","type":"Stadt"},"district":{"key":"15087","name":"Mansfeld-Südharz","type":"Landkreis"},"federalState":{"key":"15","name":"Sachsen-Anhalt"}},{"name":"Emseloher Siedlung","postalCode":"06542","locality":"Allstedt","municipality":{"key":"15087015","name":"Allstedt, Stadt","type":"Stadt"},"district":{"key":"15087","name":"Mansfeld-Südharz","type":"Landkreis"},"federalState":{"key":"15","name":"Sachsen-Anhalt"}},{"name":"Enge Gasse","postalCode":"06542","locality":"Allstedt","municipality":{"key":"15087015","name":"Allstedt, Stadt","type":"Stadt"},"district":{"key":"15087","name":"Mansfeld-Südharz","type":"Landkreis"},"federalState":{"key":"15","name":"Sachsen-Anhalt"}},{"name":"Erdmannstr.","postalCode":"06542","locality":"Allstedt","municipality":{"key":"15087015","name":"Allstedt, Stadt","type":"Stadt"},"district":{"key":"15087","name":"Mansfeld-Südharz","type":"Landkreis"},"federalState":{"key":"15","name":"Sachsen-Anhalt"}},{"name":"Escholzgasse","postalCode":"06542","locality":"Allstedt","municipality":{"key":"15087015","name":"Allstedt, Stadt","type":"Stadt"},"district":{"key":"15087","name":"Mansfeld-Südharz","type":"Landkreis"},"federalState":{"key":"15","name":"Sachsen-Anhalt"}},{"name":"Eulenberg","postalCode":"06542","locality":"Allstedt","municipality":{"key":"15087015","name":"Allstedt, Stadt","type":"Stadt"},"district":{"key":"15087","name":"Mansfeld-Südharz","type":"Landkreis"},"federalState":{"key":"15","name":"Sachsen-Anhalt"}},{"name":"Fabrikstr.","postalCode":"06542","locality":"Allstedt","municipality":{"key":"15087015","name":"Allstedt, Stadt","type":"Stadt"},"district":{"key":"15087","name":"Mansfeld-Südharz","type":"Landkreis"},"federalState":{"key":"15","name":"Sachsen-Anhalt"}},{"name":"Feldscheunenweg","postalCode":"06542","locality":"Allstedt","municipality":{"key":"15087015","name":"Allstedt, Stadt","type":"Stadt"},"district":{"key":"15087","name":"Mansfeld-Südharz","type":"Landkreis"},"federalState":{"key":"15","name":"Sachsen-Anhalt"}},{"name":"Feldstr.","postalCode":"06542","locality":"Allstedt","municipality":{"key":"15087015","name":"Allstedt, Stadt","type":"Stadt"},"district":{"key":"15087","name":"Mansfeld-Südharz","type":"Landkreis"},"federalState":{"key":"15","name":"Sachsen-Anhalt"}},{"name":"Fleckerweg","postalCode":"06542","locality":"Allstedt","municipality":{"key":"15087015","name":"Allstedt, Stadt","type":"Stadt"},"district":{"key":"15087","name":"Mansfeld-Südharz","type":"Landkreis"},"federalState":{"key":"15","name":"Sachsen-Anhalt"}},{"name":"Forststr.","postalCode":"06542","locality":"Allstedt","municipality":{"key":"15087015","name":"Allstedt, Stadt","type":"Stadt"},"district":{"key":"15087","name":"Mansfeld-Südharz","type":"Landkreis"},"federalState":{"key":"15","name":"Sachsen-Anhalt"}},{"name":"Friedhofsallee","postalCode":"06542","locality":"Allstedt","municipality":{"key":"15087015","name":"Allstedt, Stadt","type":"Stadt"},"district":{"key":"15087","name":"Mansfeld-Südharz","type":"Landkreis"},"federalState":{"key":"15","name":"Sachsen-Anhalt"}},{"name":"Friedhofsweg","postalCode":"06542","locality":"Allstedt","municipality":{"key":"15087015","name":"Allstedt, Stadt","type":"Stadt"},"district":{"key":"15087","name":"Mansfeld-Südharz","type":"Landkreis"},"federalState":{"key":"15","name":"Sachsen-Anhalt"}},{"name":"Gartenstr.","postalCode":"06542","locality":"Allstedt","municipality":{"key":"15087015","name":"Allstedt, Stadt","type":"Stadt"},"district":{"key":"15087","name":"Mansfeld-Südharz","type":"Landkreis"},"federalState":{"key":"15","name":"Sachsen-Anhalt"}},{"name":"Gemeindegasse","postalCode":"06542","locality":"Allstedt","municipality":{"key":"15087015","name":"Allstedt, Stadt","type":"Stadt"},"district":{"key":"15087","name":"Mansfeld-Südharz","type":"Landkreis"},"federalState":{"key":"15","name":"Sachsen-Anhalt"}},{"name":"Gerstenstr.","postalCode":"06542","locality":"Allstedt","municipality":{"key":"15087015","name":"Allstedt, Stadt","type":"Stadt"},"district":{"key":"15087","name":"Mansfeld-Südharz","type":"Landkreis"},"federalState":{"key":"15","name":"Sachsen-Anhalt"}},{"name":"Goetheweg","postalCode":"06542","locality":"Allstedt","municipality":{"key":"15087015","name":"Allstedt, Stadt","type":"Stadt"},"district":{"key":"15087","name":"Mansfeld-Südharz","type":"Landkreis"},"federalState":{"key":"15","name":"Sachsen-Anhalt"}},{"name":"Große Gasse","postalCode":"06542","locality":"Allstedt","municipality":{"key":"15087015","name":"Allstedt, Stadt","type":"Stadt"},"district":{"key":"15087","name":"Mansfeld-Südharz","type":"Landkreis"},"federalState":{"key":"15","name":"Sachsen-Anhalt"}},{"name":"Grube","postalCode":"06542","locality":"Allstedt","municipality":{"key":"15087015","name":"Allstedt, Stadt","type":"Stadt"},"district":{"key":"15087","name":"Mansfeld-Südharz","type":"Landkreis"},"federalState":{"key":"15","name":"Sachsen-Anhalt"}},{"name":"Hagebachweg","postalCode":"06542","locality":"Allstedt","municipality":{"key":"15087015","name":"Allstedt, Stadt","type":"Stadt"},"district":{"key":"15087","name":"Mansfeld-Südharz","type":"Landkreis"},"federalState":{"key":"15","name":"Sachsen-Anhalt"}},{"name":"Hagenbachweg","postalCode":"06542","locality":"Allstedt","municipality":{"key":"15087015","name":"Allstedt, Stadt","type":"Stadt"},"district":{"key":"15087","name":"Mansfeld-Südharz","type":"Landkreis"},"federalState":{"key":"15","name":"Sachsen-Anhalt"}},{"name":"Hauptstr.","postalCode":"06542","locality":"Allstedt","municipality":{"key":"15087015","name":"Allstedt, Stadt","type":"Stadt"},"district":{"key":"15087","name":"Mansfeld-Südharz","type":"Landkreis"},"federalState":{"key":"15","name":"Sachsen-Anhalt"}},{"name":"Häuserreihe","postalCode":"06542","locality":"Allstedt","municipality":{"key":"15087015","name":"Allstedt, Stadt","type":"Stadt"},"district":{"key":"15087","name":"Mansfeld-Südharz","type":"Landkreis"},"federalState":{"key":"15","name":"Sachsen-Anhalt"}},{"name":"Hebe","postalCode":"06542","locality":"Allstedt","municipality":{"key":"15087015","name":"Allstedt, Stadt","type":"Stadt"},"district":{"key":"15087","name":"Mansfeld-Südharz","type":"Landkreis"},"federalState":{"key":"15","name":"Sachsen-Anhalt"}},{"name":"Heerstr.","postalCode":"06542","locality":"Allstedt","municipality":{"key":"15087015","name":"Allstedt, Stadt","type":"Stadt"},"district":{"key":"15087","name":"Mansfeld-Südharz","type":"Landkreis"},"federalState":{"key":"15","name":"Sachsen-Anhalt"}},{"name":"Heidenweg","postalCode":"06542","locality":"Allstedt","municipality":{"key":"15087015","name":"Allstedt, Stadt","type":"Stadt"},"district":{"key":"15087","name":"Mansfeld-Südharz","type":"Landkreis"},"federalState":{"key":"15","name":"Sachsen-Anhalt"}},{"name":"Heringsgasse","postalCode":"06542","locality":"Allstedt","municipality":{"key":"15087015","name":"Allstedt, Stadt","type":"Stadt"},"district":{"key":"15087","name":"Mansfeld-Südharz","type":"Landkreis"},"federalState":{"key":"15","name":"Sachsen-Anhalt"}},{"name":"Herrengasse","postalCode":"06542","locality":"Allstedt","municipality":{"key":"15087015","name":"Allstedt, Stadt","type":"Stadt"},"district":{"key":"15087","name":"Mansfeld-Südharz","type":"Landkreis"},"federalState":{"key":"15","name":"Sachsen-Anhalt"}},{"name":"Hertrain","postalCode":"06542","locality":"Allstedt","municipality":{"key":"15087015","name":"Allstedt, Stadt","type":"Stadt"},"district":{"key":"15087","name":"Mansfeld-Südharz","type":"Landkreis"},"federalState":{"key":"15","name":"Sachsen-Anhalt"}},{"name":"Hesseln","postalCode":"06542","locality":"Allstedt","municipality":{"key":"15087015","name":"Allstedt, Stadt","type":"Stadt"},"district":{"key":"15087","name":"Mansfeld-Südharz","type":"Landkreis"},"federalState":{"key":"15","name":"Sachsen-Anhalt"}},{"name":"Heuweg","postalCode":"06542","locality":"Allstedt","municipality":{"key":"15087015","name":"Allstedt, Stadt","type":"Stadt"},"district":{"key":"15087","name":"Mansfeld-Südharz","type":"Landkreis"},"federalState":{"key":"15","name":"Sachsen-Anhalt"}},{"name":"Hinter dem Dorfe","postalCode":"06542","locality":"Allstedt","municipality":{"key":"15087015","name":"Allstedt, Stadt","type":"Stadt"},"district":{"key":"15087","name":"Mansfeld-Südharz","type":"Landkreis"},"federalState":{"key":"15","name":"Sachsen-Anhalt"}},{"name":"Hirtberg","postalCode":"06542","locality":"Allstedt","municipality":{"key":"15087015","name":"Allstedt, Stadt","type":"Stadt"},"district":{"key":"15087","name":"Mansfeld-Südharz","type":"Landkreis"},"federalState":{"key":"15","name":"Sachsen-Anhalt"}},{"name":"Hof","postalCode":"06542","locality":"Allstedt","municipality":{"key":"15087015","name":"Allstedt, Stadt","type":"Stadt"},"district":{"key":"15087","name":"Mansfeld-Südharz","type":"Landkreis"},"federalState":{"key":"15","name":"Sachsen-Anhalt"}},{"name":"Holdenstedter Weg","postalCode":"06542","locality":"Allstedt","municipality":{"key":"15087015","name":"Allstedt, Stadt","type":"Stadt"},"district":{"key":"15087","name":"Mansfeld-Südharz","type":"Landkreis"},"federalState":{"key":"15","name":"Sachsen-Anhalt"}},{"name":"Hospitalweg","postalCode":"06542","locality":"Allstedt","municipality":{"key":"15087015","name":"Allstedt, Stadt","type":"Stadt"},"district":{"key":"15087","name":"Mansfeld-Südharz","type":"Landkreis"},"federalState":{"key":"15","name":"Sachsen-Anhalt"}},{"name":"Im Dorfe","postalCode":"06542","locality":"Allstedt","municipality":{"key":"15087015","name":"Allstedt, Stadt","type":"Stadt"},"district":{"key":"15087","name":"Mansfeld-Südharz","type":"Landkreis"},"federalState":{"key":"15","name":"Sachsen-Anhalt"}},{"name":"Im Dorfe","postalCode":"99439","locality":"Ballstedt","municipality":{"key":"16071005","name":"Ballstedt","type":"Kreisangehörige_Gemeinde"},"district":{"key":"16071","name":"Weimarer Land","type":"Landkreis"},"federalState":{"key":"16","name":"Thüringen"}},{"name":"Im Felde","postalCode":"06542","locality":"Allstedt","municipality":{"key":"15087015","name":"Allstedt, Stadt","type":"Stadt"},"district":{"key":"15087","name":"Mansfeld-Südharz","type":"Landkreis"},"federalState":{"key":"15","name":"Sachsen-Anhalt"}},{"name":"Im kleinen Hornfelde","postalCode":"06542","locality":"Allstedt","municipality":{"key":"15087015","name":"Allstedt, Stadt","type":"Stadt"},"district":{"key":"15087","name":"Mansfeld-Südharz","type":"Landkreis"},"federalState":{"key":"15","name":"Sachsen-Anhalt"}},{"name":"Im Tal","postalCode":"06542","locality":"Allstedt","municipality":{"key":"15087015","name":"Allstedt, Stadt","type":"Stadt"},"district":{"key":"15087","name":"Mansfeld-Südharz","type":"Landkreis"},"federalState":{"key":"15","name":"Sachsen-Anhalt"}},{"name":"Jakobsgasse","postalCode":"06542","locality":"Allstedt","municipality":{"key":"15087015","name":"Allstedt, Stadt","type":"Stadt"},"district":{"key":"15087","name":"Mansfeld-Südharz","type":"Landkreis"},"federalState":{"key":"15","name":"Sachsen-Anhalt"}},{"name":"Kaltes Tor","postalCode":"06542","locality":"Allstedt","municipality":{"key":"15087015","name":"Allstedt, Stadt","type":"Stadt"},"district":{"key":"15087","name":"Mansfeld-Südharz","type":"Landkreis"},"federalState":{"key":"15","name":"Sachsen-Anhalt"}},{"name":"Karlstr.","postalCode":"06542","locality":"Allstedt","municipality":{"key":"15087015","name":"Allstedt, Stadt","type":"Stadt"},"district":{"key":"15087","name":"Mansfeld-Südharz","type":"Landkreis"},"federalState":{"key":"15","name":"Sachsen-Anhalt"}},{"name":"Kastanienallee","postalCode":"06542","locality":"Allstedt","municipality":{"key":"15087015","name":"Allstedt, Stadt","type":"Stadt"},"district":{"key":"15087","name":"Mansfeld-Südharz","type":"Landkreis"},"federalState":{"key":"15","name":"Sachsen-Anhalt"}},{"name":"Katharinenrieth","postalCode":"06542","locality":"Allstedt","municipality":{"key":"15087015","name":"Allstedt, Stadt","type":"Stadt"},"district":{"key":"15087","name":"Mansfeld-Südharz","type":"Landkreis"},"federalState":{"key":"15","name":"Sachsen-Anhalt"}},{"name":"Kellerberg","postalCode":"06542","locality":"Allstedt","municipality":{"key":"15087015","name":"Allstedt, Stadt","type":"Stadt"},"district":{"key":"15087","name":"Mansfeld-Südharz","type":"Landkreis"},"federalState":{"key":"15","name":"Sachsen-Anhalt"}},{"name":"Kirchgasse","postalCode":"06542","locality":"Allstedt","municipality":{"key":"15087015","name":"Allstedt, Stadt","type":"Stadt"},"district":{"key":"15087","name":"Mansfeld-Südharz","type":"Landkreis"},"federalState":{"key":"15","name":"Sachsen-Anhalt"}},{"name":"Kirchhof","postalCode":"06542","locality":"Allstedt","municipality":{"key":"15087015","name":"Allstedt, Stadt","type":"Stadt"},"district":{"key":"15087","name":"Mansfeld-Südharz","type":"Landkreis"},"federalState":{"key":"15","name":"Sachsen-Anhalt"}},{"name":"Kirchplatz","postalCode":"06542","locality":"Allstedt","municipality":{"key":"15087015","name":"Allstedt, Stadt","type":"Stadt"},"district":{"key":"15087","name":"Mansfeld-Südharz","type":"Landkreis"},"federalState":{"key":"15","name":"Sachsen-Anhalt"}},{"name":"Kirchstr.","postalCode":"06542","locality":"Allstedt","municipality":{"key":"15087015","name":"Allstedt, Stadt","type":"Stadt"},"district":{"key":"15087","name":"Mansfeld-Südharz","type":"Landkreis"},"federalState":{"key":"15","name":"Sachsen-Anhalt"}},{"name":"Kleine Chaussee","postalCode":"06542","locality":"Allstedt","municipality":{"key":"15087015","name":"Allstedt, Stadt","type":"Stadt"},"district":{"key":"15087","name":"Mansfeld-Südharz","type":"Landkreis"},"federalState":{"key":"15","name":"Sachsen-Anhalt"}},{"name":"Kleine Gasse","postalCode":"06542","locality":"Allstedt","municipality":{"key":"15087015","name":"Allstedt, Stadt","type":"Stadt"},"district":{"key":"15087","name":"Mansfeld-Südharz","type":"Landkreis"},"federalState":{"key":"15","name":"Sachsen-Anhalt"}},{"name":"Kleine Str.","postalCode":"06542","locality":"Allstedt","municipality":{"key":"15087015","name":"Allstedt, Stadt","type":"Stadt"},"district":{"key":"15087","name":"Mansfeld-Südharz","type":"Landkreis"},"federalState":{"key":"15","name":"Sachsen-Anhalt"}},{"name":"Kloppgasse","postalCode":"06542","locality":"Allstedt","municipality":{"key":"15087015","name":"Allstedt, Stadt","type":"Stadt"},"district":{"key":"15087","name":"Mansfeld-Südharz","type":"Landkreis"},"federalState":{"key":"15","name":"Sachsen-Anhalt"}},{"name":"Klosternaundorf","postalCode":"06542","locality":"Allstedt","municipality":{"key":"15087015","name":"Allstedt, Stadt","type":"Stadt"},"district":{"key":"15087","name":"Mansfeld-Südharz","type":"Landkreis"},"federalState":{"key":"15","name":"Sachsen-Anhalt"}},{"name":"Kobenmühle","postalCode":"06542","locality":"Allstedt","municipality":{"key":"15087015","name":"Allstedt, Stadt","type":"Stadt"},"district":{"key":"15087","name":"Mansfeld-Südharz","type":"Landkreis"},"federalState":{"key":"15","name":"Sachsen-Anhalt"}},{"name":"Kohlenstr.","postalCode":"06542","locality":"Allstedt","municipality":{"key":"15087015","name":"Allstedt, Stadt","type":"Stadt"},"district":{"key":"15087","name":"Mansfeld-Südharz","type":"Landkreis"},"federalState":{"key":"15","name":"Sachsen-Anhalt"}},{"name":"Kohlstr.","postalCode":"06542","locality":"Allstedt","municipality":{"key":"15087015","name":"Allstedt, Stadt","type":"Stadt"},"district":{"key":"15087","name":"Mansfeld-Südharz","type":"Landkreis"},"federalState":{"key":"15","name":"Sachsen-Anhalt"}},{"name":"Kreuzberg","postalCode":"06542","locality":"Allstedt","municipality":{"key":"15087015","name":"Allstedt, Stadt","type":"Stadt"},"district":{"key":"15087","name":"Mansfeld-Südharz","type":"Landkreis"},"federalState":{"key":"15","name":"Sachsen-Anhalt"}},{"name":"Kuckucksweg","postalCode":"06542","locality":"Allstedt","municipality":{"key":"15087015","name":"Allstedt, Stadt","type":"Stadt"},"district":{"key":"15087","name":"Mansfeld-Südharz","type":"Landkreis"},"federalState":{"key":"15","name":"Sachsen-Anhalt"}},{"name":"Kurtsgehofen","postalCode":"06542","locality":"Allstedt","municipality":{"key":"15087015","name":"Allstedt, Stadt","type":"Stadt"},"district":{"key":"15087","name":"Mansfeld-Südharz","type":"Landkreis"},"federalState":{"key":"15","name":"Sachsen-Anhalt"}},{"name":"Landwehr","postalCode":"06542","locality":"Allstedt","municipality":{"key":"15087015","name":"Allstedt, Stadt","type":"Stadt"},"district":{"key":"15087","name":"Mansfeld-Südharz","type":"Landkreis"},"federalState":{"key":"15","name":"Sachsen-Anhalt"}},{"name":"Lehrpfad","postalCode":"06542","locality":"Allstedt","municipality":{"key":"15087015","name":"Allstedt, Stadt","type":"Stadt"},"district":{"key":"15087","name":"Mansfeld-Südharz","type":"Landkreis"},"federalState":{"key":"15","name":"Sachsen-Anhalt"}},{"name":"Liederdorfer Str.","postalCode":"06542","locality":"Allstedt","municipality":{"key":"15087015","name":"Allstedt, Stadt","type":"Stadt"},"district":{"key":"15087","name":"Mansfeld-Südharz","type":"Landkreis"},"federalState":{"key":"15","name":"Sachsen-Anhalt"}},{"name":"Liedersdorfer Hauptstr.","postalCode":"06542","locality":"Allstedt","municipality":{"key":"15087015","name":"Allstedt, Stadt","type":"Stadt"},"district":{"key":"15087","name":"Mansfeld-Südharz","type":"Landkreis"},"federalState":{"key":"15","name":"Sachsen-Anhalt"}},{"name":"Liedersdorfer Str.","postalCode":"06542","locality":"Allstedt","municipality":{"key":"15087015","name":"Allstedt, Stadt","type":"Stadt"},"district":{"key":"15087","name":"Mansfeld-Südharz","type":"Landkreis"},"federalState":{"key":"15","name":"Sachsen-Anhalt"}},{"name":"Lindenstr.","postalCode":"06542","locality":"Allstedt","municipality":{"key":"15087015","name":"Allstedt, Stadt","type":"Stadt"},"district":{"key":"15087","name":"Mansfeld-Südharz","type":"Landkreis"},"federalState":{"key":"15","name":"Sachsen-Anhalt"}},{"name":"Luckenweg","postalCode":"06542","locality":"Allstedt","municipality":{"key":"15087015","name":"Allstedt, Stadt","type":"Stadt"},"district":{"key":"15087","name":"Mansfeld-Südharz","type":"Landkreis"},"federalState":{"key":"15","name":"Sachsen-Anhalt"}},{"name":"Luisenstr.","postalCode":"06542","locality":"Allstedt","municipality":{"key":"15087015","name":"Allstedt, Stadt","type":"Stadt"},"district":{"key":"15087","name":"Mansfeld-Südharz","type":"Landkreis"},"federalState":{"key":"15","name":"Sachsen-Anhalt"}},{"name":"Mähdrescherweg","postalCode":"06542","locality":"Allstedt","municipality":{"key":"15087015","name":"Allstedt, Stadt","type":"Stadt"},"district":{"key":"15087","name":"Mansfeld-Südharz","type":"Landkreis"},"federalState":{"key":"15","name":"Sachsen-Anhalt"}},{"name":"Markt","postalCode":"06542","locality":"Allstedt","municipality":{"key":"15087015","name":"Allstedt, Stadt","type":"Stadt"},"district":{"key":"15087","name":"Mansfeld-Südharz","type":"Landkreis"},"federalState":{"key":"15","name":"Sachsen-Anhalt"}},{"name":"Marstallstr.","postalCode":"06542","locality":"Allstedt","municipality":{"key":"15087015","name":"Allstedt, Stadt","type":"Stadt"},"district":{"key":"15087","name":"Mansfeld-Südharz","type":"Landkreis"},"federalState":{"key":"15","name":"Sachsen-Anhalt"}},{"name":"Mittelhäuser Bäckergasse","postalCode":"06542","locality":"Allstedt","municipality":{"key":"15087015","name":"Allstedt, Stadt","type":"Stadt"},"district":{"key":"15087","name":"Mansfeld-Südharz","type":"Landkreis"},"federalState":{"key":"15","name":"Sachsen-Anhalt"}},{"name":"Mittelhäuser Dorfstr.","postalCode":"06542","locality":"Allstedt","municipality":{"key":"15087015","name":"Allstedt, Stadt","type":"Stadt"},"district":{"key":"15087","name":"Mansfeld-Südharz","type":"Landkreis"},"federalState":{"key":"15","name":"Sachsen-Anhalt"}},{"name":"Mittelhäuser Hauptstr.","postalCode":"06542","locality":"Allstedt","municipality":{"key":"15087015","name":"Allstedt, Stadt","type":"Stadt"},"district":{"key":"15087","name":"Mansfeld-Südharz","type":"Landkreis"},"federalState":{"key":"15","name":"Sachsen-Anhalt"}},{"name":"Mittelhäuser Str.","postalCode":"06542","locality":"Allstedt","municipality":{"key":"15087015","name":"Allstedt, Stadt","type":"Stadt"},"district":{"key":"15087","name":"Mansfeld-Südharz","type":"Landkreis"},"federalState":{"key":"15","name":"Sachsen-Anhalt"}},{"name":"Mittelhäuser Weg","postalCode":"06542","locality":"Allstedt","municipality":{"key":"15087015","name":"Allstedt, Stadt","type":"Stadt"},"district":{"key":"15087","name":"Mansfeld-Südharz","type":"Landkreis"},"federalState":{"key":"15","name":"Sachsen-Anhalt"}},{"name":"Mittelstr.","postalCode":"06542","locality":"Allstedt","municipality":{"key":"15087015","name":"Allstedt, Stadt","type":"Stadt"},"district":{"key":"15087","name":"Mansfeld-Südharz","type":"Landkreis"},"federalState":{"key":"15","name":"Sachsen-Anhalt"}},{"name":"Mittelweg","postalCode":"06542","locality":"Allstedt","municipality":{"key":"15087015","name":"Allstedt, Stadt","type":"Stadt"},"district":{"key":"15087","name":"Mansfeld-Südharz","type":"Landkreis"},"federalState":{"key":"15","name":"Sachsen-Anhalt"}},{"name":"Mönchpfiffeler Str.","postalCode":"06542","locality":"Allstedt","municipality":{"key":"15087015","name":"Allstedt, Stadt","type":"Stadt"},"district":{"key":"15087","name":"Mansfeld-Südharz","type":"Landkreis"},"federalState":{"key":"15","name":"Sachsen-Anhalt"}},{"name":"Mühle","postalCode":"06542","locality":"Allstedt","municipality":{"key":"15087015","name":"Allstedt, Stadt","type":"Stadt"},"district":{"key":"15087","name":"Mansfeld-Südharz","type":"Landkreis"},"federalState":{"key":"15","name":"Sachsen-Anhalt"}},{"name":"Mühlgasse","postalCode":"06542","locality":"Allstedt","municipality":{"key":"15087015","name":"Allstedt, Stadt","type":"Stadt"},"district":{"key":"15087","name":"Mansfeld-Südharz","type":"Landkreis"},"federalState":{"key":"15","name":"Sachsen-Anhalt"}},{"name":"Mühlstr.","postalCode":"06542","locality":"Allstedt","municipality":{"key":"15087015","name":"Allstedt, Stadt","type":"Stadt"},"district":{"key":"15087","name":"Mansfeld-Südharz","type":"Landkreis"},"federalState":{"key":"15","name":"Sachsen-Anhalt"}},{"name":"Neue Gartenstr.","postalCode":"06542","locality":"Allstedt","municipality":{"key":"15087015","name":"Allstedt, Stadt","type":"Stadt"},"district":{"key":"15087","name":"Mansfeld-Südharz","type":"Landkreis"},"federalState":{"key":"15","name":"Sachsen-Anhalt"}},{"name":"Neue Reihe","postalCode":"06542","locality":"Allstedt","municipality":{"key":"15087015","name":"Allstedt, Stadt","type":"Stadt"},"district":{"key":"15087","name":"Mansfeld-Südharz","type":"Landkreis"},"federalState":{"key":"15","name":"Sachsen-Anhalt"}},{"name":"Neue Riege","postalCode":"06542","locality":"Allstedt","municipality":{"key":"15087015","name":"Allstedt, Stadt","type":"Stadt"},"district":{"key":"15087","name":"Mansfeld-Südharz","type":"Landkreis"},"federalState":{"key":"15","name":"Sachsen-Anhalt"}},{"name":"Neue Siedlung","postalCode":"06542","locality":"Allstedt","municipality":{"key":"15087015","name":"Allstedt, Stadt","type":"Stadt"},"district":{"key":"15087","name":"Mansfeld-Südharz","type":"Landkreis"},"federalState":{"key":"15","name":"Sachsen-Anhalt"}},{"name":"Neue Str.","postalCode":"06542","locality":"Allstedt","municipality":{"key":"15087015","name":"Allstedt, Stadt","type":"Stadt"},"district":{"key":"15087","name":"Mansfeld-Südharz","type":"Landkreis"},"federalState":{"key":"15","name":"Sachsen-Anhalt"}},{"name":"Nienstedter Str.","postalCode":"06542","locality":"Allstedt","municipality":{"key":"15087015","name":"Allstedt, Stadt","type":"Stadt"},"district":{"key":"15087","name":"Mansfeld-Südharz","type":"Landkreis"},"federalState":{"key":"15","name":"Sachsen-Anhalt"}},{"name":"Oberdorf","postalCode":"06542","locality":"Allstedt","municipality":{"key":"15087015","name":"Allstedt, Stadt","type":"Stadt"},"district":{"key":"15087","name":"Mansfeld-Südharz","type":"Landkreis"},"federalState":{"key":"15","name":"Sachsen-Anhalt"}},{"name":"Oberröblingen – Allstedt","postalCode":"06542","locality":"Allstedt","municipality":{"key":"15087015","name":"Allstedt, Stadt","type":"Stadt"},"district":{"key":"15087","name":"Mansfeld-Südharz","type":"Landkreis"},"federalState":{"key":"15","name":"Sachsen-Anhalt"}},{"name":"Obsthof Gerd Jentsch","postalCode":"06542","locality":"Allstedt","municipality":{"key":"15087015","name":"Allstedt, Stadt","type":"Stadt"},"district":{"key":"15087","name":"Mansfeld-Südharz","type":"Landkreis"},"federalState":{"key":"15","name":"Sachsen-Anhalt"}},{"name":"Othaler Str.","postalCode":"06542","locality":"Allstedt","municipality":{"key":"15087015","name":"Allstedt, Stadt","type":"Stadt"},"district":{"key":"15087","name":"Mansfeld-Südharz","type":"Landkreis"},"federalState":{"key":"15","name":"Sachsen-Anhalt"}},{"name":"Parkstr.","postalCode":"06542","locality":"Allstedt","municipality":{"key":"15087015","name":"Allstedt, Stadt","type":"Stadt"},"district":{"key":"15087","name":"Mansfeld-Südharz","type":"Landkreis"},"federalState":{"key":"15","name":"Sachsen-Anhalt"}},{"name":"Pfarrberg","postalCode":"06542","locality":"Allstedt","municipality":{"key":"15087015","name":"Allstedt, Stadt","type":"Stadt"},"district":{"key":"15087","name":"Mansfeld-Südharz","type":"Landkreis"},"federalState":{"key":"15","name":"Sachsen-Anhalt"}},{"name":"Pfarrgasse","postalCode":"06542","locality":"Allstedt","municipality":{"key":"15087015","name":"Allstedt, Stadt","type":"Stadt"},"district":{"key":"15087","name":"Mansfeld-Südharz","type":"Landkreis"},"federalState":{"key":"15","name":"Sachsen-Anhalt"}},{"name":"Pfiffelerstr.","postalCode":"06542","locality":"Allstedt","municipality":{"key":"15087015","name":"Allstedt, Stadt","type":"Stadt"},"district":{"key":"15087","name":"Mansfeld-Südharz","type":"Landkreis"},"federalState":{"key":"15","name":"Sachsen-Anhalt"}},{"name":"Pfingsfleck","postalCode":"06542","locality":"Allstedt","municipality":{"key":"15087015","name":"Allstedt, Stadt","type":"Stadt"},"district":{"key":"15087","name":"Mansfeld-Südharz","type":"Landkreis"},"federalState":{"key":"15","name":"Sachsen-Anhalt"}},{"name":"Pfingstfleck","postalCode":"06542","locality":"Allstedt","municipality":{"key":"15087015","name":"Allstedt, Stadt","type":"Stadt"},"district":{"key":"15087","name":"Mansfeld-Südharz","type":"Landkreis"},"federalState":{"key":"15","name":"Sachsen-Anhalt"}},{"name":"Pflaumenbaumweg","postalCode":"06542","locality":"Allstedt","municipality":{"key":"15087015","name":"Allstedt, Stadt","type":"Stadt"},"district":{"key":"15087","name":"Mansfeld-Südharz","type":"Landkreis"},"federalState":{"key":"15","name":"Sachsen-Anhalt"}},{"name":"Pfortenplatz","postalCode":"06542","locality":"Allstedt","municipality":{"key":"15087015","name":"Allstedt, Stadt","type":"Stadt"},"district":{"key":"15087","name":"Mansfeld-Südharz","type":"Landkreis"},"federalState":{"key":"15","name":"Sachsen-Anhalt"}},{"name":"Pfortenstr.","postalCode":"06542","locality":"Allstedt","municipality":{"key":"15087015","name":"Allstedt, Stadt","type":"Stadt"},"district":{"key":"15087","name":"Mansfeld-Südharz","type":"Landkreis"},"federalState":{"key":"15","name":"Sachsen-Anhalt"}},{"name":"Plan","postalCode":"06542","locality":"Allstedt","municipality":{"key":"15087015","name":"Allstedt, Stadt","type":"Stadt"},"district":{"key":"15087","name":"Mansfeld-Südharz","type":"Landkreis"},"federalState":{"key":"15","name":"Sachsen-Anhalt"}},{"name":"Plangasse","postalCode":"06542","locality":"Allstedt","municipality":{"key":"15087015","name":"Allstedt, Stadt","type":"Stadt"},"district":{"key":"15087","name":"Mansfeld-Südharz","type":"Landkreis"},"federalState":{"key":"15","name":"Sachsen-Anhalt"}},{"name":"Querfurter Str.","postalCode":"06542","locality":"Allstedt","municipality":{"key":"15087015","name":"Allstedt, Stadt","type":"Stadt"},"district":{"key":"15087","name":"Mansfeld-Südharz","type":"Landkreis"},"federalState":{"key":"15","name":"Sachsen-Anhalt"}},{"name":"Querweg","postalCode":"06542","locality":"Allstedt","municipality":{"key":"15087015","name":"Allstedt, Stadt","type":"Stadt"},"district":{"key":"15087","name":"Mansfeld-Südharz","type":"Landkreis"},"federalState":{"key":"15","name":"Sachsen-Anhalt"}},{"name":"Riestedter Str.","postalCode":"06542","locality":"Allstedt","municipality":{"key":"15087015","name":"Allstedt, Stadt","type":"Stadt"},"district":{"key":"15087","name":"Mansfeld-Südharz","type":"Landkreis"},"federalState":{"key":"15","name":"Sachsen-Anhalt"}},{"name":"Ringstr.","postalCode":"06542","locality":"Allstedt","municipality":{"key":"15087015","name":"Allstedt, Stadt","type":"Stadt"},"district":{"key":"15087","name":"Mansfeld-Südharz","type":"Landkreis"},"federalState":{"key":"15","name":"Sachsen-Anhalt"}},{"name":"Rödgen","postalCode":"06542","locality":"Allstedt","municipality":{"key":"15087015","name":"Allstedt, Stadt","type":"Stadt"},"district":{"key":"15087","name":"Mansfeld-Südharz","type":"Landkreis"},"federalState":{"key":"15","name":"Sachsen-Anhalt"}},{"name":"Rosenweg","postalCode":"06542","locality":"Allstedt","municipality":{"key":"15087015","name":"Allstedt, Stadt","type":"Stadt"},"district":{"key":"15087","name":"Mansfeld-Südharz","type":"Landkreis"},"federalState":{"key":"15","name":"Sachsen-Anhalt"}},{"name":"Sackgasse","postalCode":"06542","locality":"Allstedt","municipality":{"key":"15087015","name":"Allstedt, Stadt","type":"Stadt"},"district":{"key":"15087","name":"Mansfeld-Südharz","type":"Landkreis"},"federalState":{"key":"15","name":"Sachsen-Anhalt"}},{"name":"Sangerhäuser Str.","postalCode":"06542","locality":"Allstedt","municipality":{"key":"15087015","name":"Allstedt, Stadt","type":"Stadt"},"district":{"key":"15087","name":"Mansfeld-Südharz","type":"Landkreis"},"federalState":{"key":"15","name":"Sachsen-Anhalt"}},{"name":"Schachtweg","postalCode":"06542","locality":"Allstedt","municipality":{"key":"15087015","name":"Allstedt, Stadt","type":"Stadt"},"district":{"key":"15087","name":"Mansfeld-Südharz","type":"Landkreis"},"federalState":{"key":"15","name":"Sachsen-Anhalt"}},{"name":"Schafgasse","postalCode":"06542","locality":"Allstedt","municipality":{"key":"15087015","name":"Allstedt, Stadt","type":"Stadt"},"district":{"key":"15087","name":"Mansfeld-Südharz","type":"Landkreis"},"federalState":{"key":"15","name":"Sachsen-Anhalt"}},{"name":"Scheerwinkel","postalCode":"06542","locality":"Allstedt","municipality":{"key":"15087015","name":"Allstedt, Stadt","type":"Stadt"},"district":{"key":"15087","name":"Mansfeld-Südharz","type":"Landkreis"},"federalState":{"key":"15","name":"Sachsen-Anhalt"}},{"name":"Schlag","postalCode":"06542","locality":"Allstedt","municipality":{"key":"15087015","name":"Allstedt, Stadt","type":"Stadt"},"district":{"key":"15087","name":"Mansfeld-Südharz","type":"Landkreis"},"federalState":{"key":"15","name":"Sachsen-Anhalt"}},{"name":"Schlangengäßchen","postalCode":"06542","locality":"Allstedt","municipality":{"key":"15087015","name":"Allstedt, Stadt","type":"Stadt"},"district":{"key":"15087","name":"Mansfeld-Südharz","type":"Landkreis"},"federalState":{"key":"15","name":"Sachsen-Anhalt"}},{"name":"Schloss","postalCode":"06542","locality":"Allstedt","municipality":{"key":"15087015","name":"Allstedt, Stadt","type":"Stadt"},"district":{"key":"15087","name":"Mansfeld-Südharz","type":"Landkreis"},"federalState":{"key":"15","name":"Sachsen-Anhalt"}},{"name":"Schlossberg","postalCode":"06542","locality":"Allstedt","municipality":{"key":"15087015","name":"Allstedt, Stadt","type":"Stadt"},"district":{"key":"15087","name":"Mansfeld-Südharz","type":"Landkreis"},"federalState":{"key":"15","name":"Sachsen-Anhalt"}},{"name":"Schlösschen","postalCode":"06542","locality":"Allstedt","municipality":{"key":"15087015","name":"Allstedt, Stadt","type":"Stadt"},"district":{"key":"15087","name":"Mansfeld-Südharz","type":"Landkreis"},"federalState":{"key":"15","name":"Sachsen-Anhalt"}},{"name":"Schlossstr.","postalCode":"06542","locality":"Allstedt","municipality":{"key":"15087015","name":"Allstedt, Stadt","type":"Stadt"},"district":{"key":"15087","name":"Mansfeld-Südharz","type":"Landkreis"},"federalState":{"key":"15","name":"Sachsen-Anhalt"}},{"name":"Schloßstr.","postalCode":"06542","locality":"Allstedt","municipality":{"key":"15087015","name":"Allstedt, Stadt","type":"Stadt"},"district":{"key":"15087","name":"Mansfeld-Südharz","type":"Landkreis"},"federalState":{"key":"15","name":"Sachsen-Anhalt"}},{"name":"Schulgasse","postalCode":"06542","locality":"Allstedt","municipality":{"key":"15087015","name":"Allstedt, Stadt","type":"Stadt"},"district":{"key":"15087","name":"Mansfeld-Südharz","type":"Landkreis"},"federalState":{"key":"15","name":"Sachsen-Anhalt"}},{"name":"Schulstr.","postalCode":"06542","locality":"Allstedt","municipality":{"key":"15087015","name":"Allstedt, Stadt","type":"Stadt"},"district":{"key":"15087","name":"Mansfeld-Südharz","type":"Landkreis"},"federalState":{"key":"15","name":"Sachsen-Anhalt"}},{"name":"Seitenbeutel","postalCode":"06542","locality":"Allstedt","municipality":{"key":"15087015","name":"Allstedt, Stadt","type":"Stadt"},"district":{"key":"15087","name":"Mansfeld-Südharz","type":"Landkreis"},"federalState":{"key":"15","name":"Sachsen-Anhalt"}},{"name":"Senator-Schulze-Promenade","postalCode":"06542","locality":"Allstedt","municipality":{"key":"15087015","name":"Allstedt, Stadt","type":"Stadt"},"district":{"key":"15087","name":"Mansfeld-Südharz","type":"Landkreis"},"federalState":{"key":"15","name":"Sachsen-Anhalt"}},{"name":"Siebenhitze","postalCode":"06542","locality":"Allstedt","municipality":{"key":"15087015","name":"Allstedt, Stadt","type":"Stadt"},"district":{"key":"15087","name":"Mansfeld-Südharz","type":"Landkreis"},"federalState":{"key":"15","name":"Sachsen-Anhalt"}},{"name":"Siedlerstr.","postalCode":"06542","locality":"Allstedt","municipality":{"key":"15087015","name":"Allstedt, Stadt","type":"Stadt"},"district":{"key":"15087","name":"Mansfeld-Südharz","type":"Landkreis"},"federalState":{"key":"15","name":"Sachsen-Anhalt"}},{"name":"Siedlung","postalCode":"06542","locality":"Allstedt","municipality":{"key":"15087015","name":"Allstedt, Stadt","type":"Stadt"},"district":{"key":"15087","name":"Mansfeld-Südharz","type":"Landkreis"},"federalState":{"key":"15","name":"Sachsen-Anhalt"}},{"name":"Sophienstr.","postalCode":"06542","locality":"Allstedt","municipality":{"key":"15087015","name":"Allstedt, Stadt","type":"Stadt"},"district":{"key":"15087","name":"Mansfeld-Südharz","type":"Landkreis"},"federalState":{"key":"15","name":"Sachsen-Anhalt"}},{"name":"Sophienstr.-Siedlung","postalCode":"06542","locality":"Allstedt","municipality":{"key":"15087015","name":"Allstedt, Stadt","type":"Stadt"},"district":{"key":"15087","name":"Mansfeld-Südharz","type":"Landkreis"},"federalState":{"key":"15","name":"Sachsen-Anhalt"}},{"name":"Sotterhäuser Str.","postalCode":"06542","locality":"Allstedt","municipality":{"key":"15087015","name":"Allstedt, Stadt","type":"Stadt"},"district":{"key":"15087","name":"Mansfeld-Südharz","type":"Landkreis"},"federalState":{"key":"15","name":"Sachsen-Anhalt"}},{"name":"Spritzenberg","postalCode":"06542","locality":"Allstedt","municipality":{"key":"15087015","name":"Allstedt, Stadt","type":"Stadt"},"district":{"key":"15087","name":"Mansfeld-Südharz","type":"Landkreis"},"federalState":{"key":"15","name":"Sachsen-Anhalt"}},{"name":"Spritzenplatz","postalCode":"06542","locality":"Allstedt","municipality":{"key":"15087015","name":"Allstedt, Stadt","type":"Stadt"},"district":{"key":"15087","name":"Mansfeld-Südharz","type":"Landkreis"},"federalState":{"key":"15","name":"Sachsen-Anhalt"}},{"name":"Stadtmühle","postalCode":"06542","locality":"Allstedt","municipality":{"key":"15087015","name":"Allstedt, Stadt","type":"Stadt"},"district":{"key":"15087","name":"Mansfeld-Südharz","type":"Landkreis"},"federalState":{"key":"15","name":"Sachsen-Anhalt"}},{"name":"Stadtweg","postalCode":"06542","locality":"Allstedt","municipality":{"key":"15087015","name":"Allstedt, Stadt","type":"Stadt"},"district":{"key":"15087","name":"Mansfeld-Südharz","type":"Landkreis"},"federalState":{"key":"15","name":"Sachsen-Anhalt"}},{"name":"Steinberg","postalCode":"06542","locality":"Allstedt","municipality":{"key":"15087015","name":"Allstedt, Stadt","type":"Stadt"},"district":{"key":"15087","name":"Mansfeld-Südharz","type":"Landkreis"},"federalState":{"key":"15","name":"Sachsen-Anhalt"}},{"name":"Steinweg","postalCode":"06542","locality":"Allstedt","municipality":{"key":"15087015","name":"Allstedt, Stadt","type":"Stadt"},"district":{"key":"15087","name":"Mansfeld-Südharz","type":"Landkreis"},"federalState":{"key":"15","name":"Sachsen-Anhalt"}},{"name":"Str. der Jugend","postalCode":"06542","locality":"Allstedt","municipality":{"key":"15087015","name":"Allstedt, Stadt","type":"Stadt"},"district":{"key":"15087","name":"Mansfeld-Südharz","type":"Landkreis"},"federalState":{"key":"15","name":"Sachsen-Anhalt"}},{"name":"Str. des Aufbaus","postalCode":"06542","locality":"Allstedt","municipality":{"key":"15087015","name":"Allstedt, Stadt","type":"Stadt"},"district":{"key":"15087","name":"Mansfeld-Südharz","type":"Landkreis"},"federalState":{"key":"15","name":"Sachsen-Anhalt"}},{"name":"Str. des Friedens","postalCode":"06542","locality":"Allstedt","municipality":{"key":"15087015","name":"Allstedt, Stadt","type":"Stadt"},"district":{"key":"15087","name":"Mansfeld-Südharz","type":"Landkreis"},"federalState":{"key":"15","name":"Sachsen-Anhalt"}},{"name":"Teichgasse","postalCode":"06542","locality":"Allstedt","municipality":{"key":"15087015","name":"Allstedt, Stadt","type":"Stadt"},"district":{"key":"15087","name":"Mansfeld-Südharz","type":"Landkreis"},"federalState":{"key":"15","name":"Sachsen-Anhalt"}},{"name":"Teichstr.","postalCode":"06542","locality":"Allstedt","municipality":{"key":"15087015","name":"Allstedt, Stadt","type":"Stadt"},"district":{"key":"15087","name":"Mansfeld-Südharz","type":"Landkreis"},"federalState":{"key":"15","name":"Sachsen-Anhalt"}},{"name":"Thomas-Müntzer-Str.","postalCode":"06542","locality":"Allstedt","municipality":{"key":"15087015","name":"Allstedt, Stadt","type":"Stadt"},"district":{"key":"15087","name":"Mansfeld-Südharz","type":"Landkreis"},"federalState":{"key":"15","name":"Sachsen-Anhalt"}},{"name":"Trollergäßchen","postalCode":"06542","locality":"Allstedt","municipality":{"key":"15087015","name":"Allstedt, Stadt","type":"Stadt"},"district":{"key":"15087","name":"Mansfeld-Südharz","type":"Landkreis"},"federalState":{"key":"15","name":"Sachsen-Anhalt"}},{"name":"Unter den Linden","postalCode":"06542","locality":"Allstedt","municipality":{"key":"15087015","name":"Allstedt, Stadt","type":"Stadt"},"district":{"key":"15087","name":"Mansfeld-Südharz","type":"Landkreis"},"federalState":{"key":"15","name":"Sachsen-Anhalt"}},{"name":"Vor der Stadtmauer","postalCode":"06542","locality":"Allstedt","municipality":{"key":"15087015","name":"Allstedt, Stadt","type":"Stadt"},"district":{"key":"15087","name":"Mansfeld-Südharz","type":"Landkreis"},"federalState":{"key":"15","name":"Sachsen-Anhalt"}},{"name":"Weimarische Str.","postalCode":"06542","locality":"Allstedt","municipality":{"key":"15087015","name":"Allstedt, Stadt","type":"Stadt"},"district":{"key":"15087","name":"Mansfeld-Südharz","type":"Landkreis"},"federalState":{"key":"15","name":"Sachsen-Anhalt"}},{"name":"Weiße Halde","postalCode":"06542","locality":"Allstedt","municipality":{"key":"15087015","name":"Allstedt, Stadt","type":"Stadt"},"district":{"key":"15087","name":"Mansfeld-Südharz","type":"Landkreis"},"federalState":{"key":"15","name":"Sachsen-Anhalt"}},{"name":"Winkelgasse","postalCode":"06542","locality":"Allstedt","municipality":{"key":"15087015","name":"Allstedt, Stadt","type":"Stadt"},"district":{"key":"15087","name":"Mansfeld-Südharz","type":"Landkreis"},"federalState":{"key":"15","name":"Sachsen-Anhalt"}},{"name":"Winkelstr.","postalCode":"06542","locality":"Allstedt","municipality":{"key":"15087015","name":"Allstedt, Stadt","type":"Stadt"},"district":{"key":"15087","name":"Mansfeld-Südharz","type":"Landkreis"},"federalState":{"key":"15","name":"Sachsen-Anhalt"}},{"name":"Winklische Hauptstr.","postalCode":"06542","locality":"Allstedt","municipality":{"key":"15087015","name":"Allstedt, Stadt","type":"Stadt"},"district":{"key":"15087","name":"Mansfeld-Südharz","type":"Landkreis"},"federalState":{"key":"15","name":"Sachsen-Anhalt"}},{"name":"Wüste Wolferstedt","postalCode":"06542","locality":"Allstedt","municipality":{"key":"15087015","name":"Allstedt, Stadt","type":"Stadt"},"district":{"key":"15087","name":"Mansfeld-Südharz","type":"Landkreis"},"federalState":{"key":"15","name":"Sachsen-Anhalt"}},{"name":"Zum Hasselweg","postalCode":"06542","locality":"Allstedt","municipality":{"key":"15087015","name":"Allstedt, Stadt","type":"Stadt"},"district":{"key":"15087","name":"Mansfeld-Südharz","type":"Landkreis"},"federalState":{"key":"15","name":"Sachsen-Anhalt"}},{"name":"Zum Schloss","postalCode":"06542","locality":"Allstedt","municipality":{"key":"15087015","name":"Allstedt, Stadt","type":"Stadt"},"district":{"key":"15087","name":"Mansfeld-Südharz","type":"Landkreis"},"federalState":{"key":"15","name":"Sachsen-Anhalt"}},{"name":"Zur Försterei","postalCode":"06542","locality":"Allstedt","municipality":{"key":"15087015","name":"Allstedt, Stadt","type":"Stadt"},"district":{"key":"15087","name":"Mansfeld-Südharz","type":"Landkreis"},"federalState":{"key":"15","name":"Sachsen-Anhalt"}},{"name":"Zur Ziegelei","postalCode":"06542","locality":"Allstedt","municipality":{"key":"15087015","name":"Allstedt, Stadt","type":"Stadt"},"district":{"key":"15087","name":"Mansfeld-Südharz","type":"Landkreis"},"federalState":{"key":"15","name":"Sachsen-Anhalt"}},{"name":"Zwingerstr.","postalCode":"06542","locality":"Allstedt","municipality":{"key":"15087015","name":"Allstedt, Stadt","type":"Stadt"},"district":{"key":"15087","name":"Mansfeld-Südharz","type":"Landkreis"},"federalState":{"key":"15","name":"Sachsen-Anhalt"}},]