[{"name":"Alter Bahndamm","postalCode":"56357","locality":"Niederbachheim","municipality":{"key":"07141094","name":"Niederbachheim","type":"Kreisangehörige_Gemeinde"},"district":{"key":"07141","name":"Rhein-Lahn-Kreis","type":"Landkreis"},"federalState":{"key":"07","name":"Rheinland-Pfalz"}},{"name":"Brühlstr.","postalCode":"56357","locality":"Niederbachheim","municipality":{"key":"07141094","name":"Niederbachheim","type":"Kreisangehörige_Gemeinde"},"district":{"key":"07141","name":"Rhein-Lahn-Kreis","type":"Landkreis"},"federalState":{"key":"07","name":"Rheinland-Pfalz"}},{"name":"Brunnenstr.","postalCode":"56357","locality":"Niederbachheim","municipality":{"key":"07141094","name":"Niederbachheim","type":"Kreisangehörige_Gemeinde"},"district":{"key":"07141","name":"Rhein-Lahn-Kreis","type":"Landkreis"},"federalState":{"key":"07","name":"Rheinland-Pfalz"}},{"name":"Hauptstr.","postalCode":"56357","locality":"Niederbachheim","municipality":{"key":"07141094","name":"Niederbachheim","type":"Kreisangehörige_Gemeinde"},"district":{"key":"07141","name":"Rhein-Lahn-Kreis","type":"Landkreis"},"federalState":{"key":"07","name":"Rheinland-Pfalz"}},{"name":"Im Höhlchen","postalCode":"56357","locality":"Niederbachheim","municipality":{"key":"07141094","name":"Niederbachheim","type":"Kreisangehörige_Gemeinde"},"district":{"key":"07141","name":"Rhein-Lahn-Kreis","type":"Landkreis"},"federalState":{"key":"07","name":"Rheinland-Pfalz"}},{"name":"Im Taubengraben","postalCode":"56357","locality":"Niederbachheim","municipality":{"key":"07141094","name":"Niederbachheim","type":"Kreisangehörige_Gemeinde"},"district":{"key":"07141","name":"Rhein-Lahn-Kreis","type":"Landkreis"},"federalState":{"key":"07","name":"Rheinland-Pfalz"}},{"name":"In der Zeil","postalCode":"56357","locality":"Niederbachheim","municipality":{"key":"07141094","name":"Niederbachheim","type":"Kreisangehörige_Gemeinde"},"district":{"key":"07141","name":"Rhein-Lahn-Kreis","type":"Landkreis"},"federalState":{"key":"07","name":"Rheinland-Pfalz"}},{"name":"Lindenstr.","postalCode":"56357","locality":"Niederbachheim","municipality":{"key":"07141094","name":"Niederbachheim","type":"Kreisangehörige_Gemeinde"},"district":{"key":"07141","name":"Rhein-Lahn-Kreis","type":"Landkreis"},"federalState":{"key":"07","name":"Rheinland-Pfalz"}},]