[{"key":"10175135","name":"Bachtelen","postalCode":"4232","locality":"Fehren","commune":{"key":"2613","name":"Breitenbach","shortName":"Breitenbach"},"district":{"key":"1110","name":"Bezirk Thierstein"},"canton":{"key":"11","code":"SO","name":"Solothurn"},"status":"Real"},{"key":"10136913","name":"Baschiackerstrasse","postalCode":"4232","locality":"Fehren","commune":{"key":"2613","name":"Breitenbach","shortName":"Breitenbach"},"district":{"key":"1110","name":"Bezirk Thierstein"},"canton":{"key":"11","code":"SO","name":"Solothurn"},"status":"Real"},{"key":"10068215","name":"Bölsberg","postalCode":"4232","locality":"Fehren","commune":{"key":"2613","name":"Breitenbach","shortName":"Breitenbach"},"district":{"key":"1110","name":"Bezirk Thierstein"},"canton":{"key":"11","code":"SO","name":"Solothurn"},"status":"Real"},{"key":"10026194","name":"Brunngasse","postalCode":"4232","locality":"Fehren","commune":{"key":"2613","name":"Breitenbach","shortName":"Breitenbach"},"district":{"key":"1110","name":"Bezirk Thierstein"},"canton":{"key":"11","code":"SO","name":"Solothurn"},"status":"Real"},{"key":"10136914","name":"Buchackerweg","postalCode":"4232","locality":"Fehren","commune":{"key":"2613","name":"Breitenbach","shortName":"Breitenbach"},"district":{"key":"1110","name":"Bezirk Thierstein"},"canton":{"key":"11","code":"SO","name":"Solothurn"},"status":"Real"},{"key":"10026195","name":"Büsserachstrasse","postalCode":"4232","locality":"Fehren","commune":{"key":"2613","name":"Breitenbach","shortName":"Breitenbach"},"district":{"key":"1110","name":"Bezirk Thierstein"},"canton":{"key":"11","code":"SO","name":"Solothurn"},"status":"Real"},{"key":"10149815","name":"Eichenweg","postalCode":"4232","locality":"Fehren","commune":{"key":"2613","name":"Breitenbach","shortName":"Breitenbach"},"district":{"key":"1110","name":"Bezirk Thierstein"},"canton":{"key":"11","code":"SO","name":"Solothurn"},"status":"Real"},{"key":"10089871","name":"Hauptstrasse","postalCode":"4232","locality":"Fehren","commune":{"key":"2613","name":"Breitenbach","shortName":"Breitenbach"},"district":{"key":"1110","name":"Bezirk Thierstein"},"canton":{"key":"11","code":"SO","name":"Solothurn"},"status":"Real"},{"key":"10110150","name":"Helgenmattweg","postalCode":"4232","locality":"Fehren","commune":{"key":"2613","name":"Breitenbach","shortName":"Breitenbach"},"district":{"key":"1110","name":"Bezirk Thierstein"},"canton":{"key":"11","code":"SO","name":"Solothurn"},"status":"Real"},{"key":"10068216","name":"Hof Lämmlismatt","postalCode":"4232","locality":"Fehren","commune":{"key":"2613","name":"Breitenbach","shortName":"Breitenbach"},"district":{"key":"1110","name":"Bezirk Thierstein"},"canton":{"key":"11","code":"SO","name":"Solothurn"},"status":"Real"},{"key":"10026196","name":"Hölzlistrasse","postalCode":"4232","locality":"Fehren","commune":{"key":"2613","name":"Breitenbach","shortName":"Breitenbach"},"district":{"key":"1110","name":"Bezirk Thierstein"},"canton":{"key":"11","code":"SO","name":"Solothurn"},"status":"Real"},{"key":"10116677","name":"Hügelstrasse","postalCode":"4232","locality":"Fehren","commune":{"key":"2613","name":"Breitenbach","shortName":"Breitenbach"},"district":{"key":"1110","name":"Bezirk Thierstein"},"canton":{"key":"11","code":"SO","name":"Solothurn"},"status":"Real"},{"key":"10026197","name":"Kirchstrasse","postalCode":"4232","locality":"Fehren","commune":{"key":"2613","name":"Breitenbach","shortName":"Breitenbach"},"district":{"key":"1110","name":"Bezirk Thierstein"},"canton":{"key":"11","code":"SO","name":"Solothurn"},"status":"Real"},{"key":"10191288","name":"Lämmlismattstrasse","postalCode":"4232","locality":"Fehren","commune":{"key":"2613","name":"Breitenbach","shortName":"Breitenbach"},"district":{"key":"1110","name":"Bezirk Thierstein"},"canton":{"key":"11","code":"SO","name":"Solothurn"},"status":"Real"},{"key":"10214701","name":"Lämmlismattweg","postalCode":"4232","locality":"Fehren","commune":{"key":"2613","name":"Breitenbach","shortName":"Breitenbach"},"district":{"key":"1110","name":"Bezirk Thierstein"},"canton":{"key":"11","code":"SO","name":"Solothurn"},"status":"Real"},{"key":"10214713","name":"Lehnenweg","postalCode":"4232","locality":"Fehren","commune":{"key":"2613","name":"Breitenbach","shortName":"Breitenbach"},"district":{"key":"1110","name":"Bezirk Thierstein"},"canton":{"key":"11","code":"SO","name":"Solothurn"},"status":"Real"},{"key":"10214717","name":"Listelchöpfliweg","postalCode":"4232","locality":"Fehren","commune":{"key":"2613","name":"Breitenbach","shortName":"Breitenbach"},"district":{"key":"1110","name":"Bezirk Thierstein"},"canton":{"key":"11","code":"SO","name":"Solothurn"},"status":"Real"},{"key":"10214722","name":"Listelweg","postalCode":"4232","locality":"Fehren","commune":{"key":"2613","name":"Breitenbach","shortName":"Breitenbach"},"district":{"key":"1110","name":"Bezirk Thierstein"},"canton":{"key":"11","code":"SO","name":"Solothurn"},"status":"Real"},{"key":"10136915","name":"Lixweg","postalCode":"4232","locality":"Fehren","commune":{"key":"2613","name":"Breitenbach","shortName":"Breitenbach"},"district":{"key":"1110","name":"Bezirk Thierstein"},"canton":{"key":"11","code":"SO","name":"Solothurn"},"status":"Real"},{"key":"10026198","name":"Mittlerfeldstrasse","postalCode":"4232","locality":"Fehren","commune":{"key":"2613","name":"Breitenbach","shortName":"Breitenbach"},"district":{"key":"1110","name":"Bezirk Thierstein"},"canton":{"key":"11","code":"SO","name":"Solothurn"},"status":"Real"},{"key":"10136587","name":"Oberfeld","postalCode":"4232","locality":"Fehren","commune":{"key":"2613","name":"Breitenbach","shortName":"Breitenbach"},"district":{"key":"1110","name":"Bezirk Thierstein"},"canton":{"key":"11","code":"SO","name":"Solothurn"},"status":"Real"},{"key":"10212742","name":"Plantagenweg","postalCode":"4232","locality":"Fehren","commune":{"key":"2613","name":"Breitenbach","shortName":"Breitenbach"},"district":{"key":"1110","name":"Bezirk Thierstein"},"canton":{"key":"11","code":"SO","name":"Solothurn"},"status":"Real"},{"key":"10136916","name":"Reservoirweg","postalCode":"4232","locality":"Fehren","commune":{"key":"2613","name":"Breitenbach","shortName":"Breitenbach"},"district":{"key":"1110","name":"Bezirk Thierstein"},"canton":{"key":"11","code":"SO","name":"Solothurn"},"status":"Real"},{"key":"10055181","name":"Rossgarten","postalCode":"4232","locality":"Fehren","commune":{"key":"2613","name":"Breitenbach","shortName":"Breitenbach"},"district":{"key":"1110","name":"Bezirk Thierstein"},"canton":{"key":"11","code":"SO","name":"Solothurn"},"status":"Real"},{"key":"10212771","name":"Rüchiweg","postalCode":"4232","locality":"Fehren","commune":{"key":"2613","name":"Breitenbach","shortName":"Breitenbach"},"district":{"key":"1110","name":"Bezirk Thierstein"},"canton":{"key":"11","code":"SO","name":"Solothurn"},"status":"Real"},{"key":"10212776","name":"Rüttiweg","postalCode":"4232","locality":"Fehren","commune":{"key":"2613","name":"Breitenbach","shortName":"Breitenbach"},"district":{"key":"1110","name":"Bezirk Thierstein"},"canton":{"key":"11","code":"SO","name":"Solothurn"},"status":"Real"},{"key":"10212779","name":"Sackweg","postalCode":"4232","locality":"Fehren","commune":{"key":"2613","name":"Breitenbach","shortName":"Breitenbach"},"district":{"key":"1110","name":"Bezirk Thierstein"},"canton":{"key":"11","code":"SO","name":"Solothurn"},"status":"Real"},{"key":"10026199","name":"Schimmelstrasse","postalCode":"4232","locality":"Fehren","commune":{"key":"2613","name":"Breitenbach","shortName":"Breitenbach"},"district":{"key":"1110","name":"Bezirk Thierstein"},"canton":{"key":"11","code":"SO","name":"Solothurn"},"status":"Real"},{"key":"10136260","name":"Schwilochstrasse","postalCode":"4232","locality":"Fehren","commune":{"key":"2613","name":"Breitenbach","shortName":"Breitenbach"},"district":{"key":"1110","name":"Bezirk Thierstein"},"canton":{"key":"11","code":"SO","name":"Solothurn"},"status":"Real"},{"key":"10136917","name":"Sennmattstrasse","postalCode":"4232","locality":"Fehren","commune":{"key":"2613","name":"Breitenbach","shortName":"Breitenbach"},"district":{"key":"1110","name":"Bezirk Thierstein"},"canton":{"key":"11","code":"SO","name":"Solothurn"},"status":"Real"},{"key":"10110155","name":"Spahnweg","postalCode":"4232","locality":"Fehren","commune":{"key":"2613","name":"Breitenbach","shortName":"Breitenbach"},"district":{"key":"1110","name":"Bezirk Thierstein"},"canton":{"key":"11","code":"SO","name":"Solothurn"},"status":"Real"},{"key":"10089872","name":"Spitzackerstrasse","postalCode":"4232","locality":"Fehren","commune":{"key":"2613","name":"Breitenbach","shortName":"Breitenbach"},"district":{"key":"1110","name":"Bezirk Thierstein"},"canton":{"key":"11","code":"SO","name":"Solothurn"},"status":"Real"},{"key":"10175136","name":"Steinenbühlstrasse","postalCode":"4232","locality":"Fehren","commune":{"key":"2613","name":"Breitenbach","shortName":"Breitenbach"},"district":{"key":"1110","name":"Bezirk Thierstein"},"canton":{"key":"11","code":"SO","name":"Solothurn"},"status":"Real"},{"key":"10026200","name":"Stutzmattstrasse","postalCode":"4232","locality":"Fehren","commune":{"key":"2613","name":"Breitenbach","shortName":"Breitenbach"},"district":{"key":"1110","name":"Bezirk Thierstein"},"canton":{"key":"11","code":"SO","name":"Solothurn"},"status":"Real"},{"key":"10213524","name":"Stutzweg","postalCode":"4232","locality":"Fehren","commune":{"key":"2613","name":"Breitenbach","shortName":"Breitenbach"},"district":{"key":"1110","name":"Bezirk Thierstein"},"canton":{"key":"11","code":"SO","name":"Solothurn"},"status":"Real"},{"key":"10213918","name":"Tarenmattweg","postalCode":"4232","locality":"Fehren","commune":{"key":"2613","name":"Breitenbach","shortName":"Breitenbach"},"district":{"key":"1110","name":"Bezirk Thierstein"},"canton":{"key":"11","code":"SO","name":"Solothurn"},"status":"Real"},{"key":"10089873","name":"Vorderfeldstrasse","postalCode":"4232","locality":"Fehren","commune":{"key":"2613","name":"Breitenbach","shortName":"Breitenbach"},"district":{"key":"1110","name":"Bezirk Thierstein"},"canton":{"key":"11","code":"SO","name":"Solothurn"},"status":"Real"},{"key":"10026201","name":"Weiherstrasse","postalCode":"4232","locality":"Fehren","commune":{"key":"2613","name":"Breitenbach","shortName":"Breitenbach"},"district":{"key":"1110","name":"Bezirk Thierstein"},"canton":{"key":"11","code":"SO","name":"Solothurn"},"status":"Real"},]