[{"name":"Ackerbrücke","postalCode":"34549","locality":"Edertal","municipality":{"key":"06635009","name":"Edertal, Nationalparkgemeinde","type":"Kreisangehörige_Gemeinde"},"district":{"key":"06635","name":"Waldeck-Frankenberg","type":"Landkreis"},"federalState":{"key":"06","name":"Hessen"}},{"name":"Affolderner Str.","postalCode":"34549","locality":"Edertal","municipality":{"key":"06635009","name":"Edertal, Nationalparkgemeinde","type":"Kreisangehörige_Gemeinde"},"district":{"key":"06635","name":"Waldeck-Frankenberg","type":"Landkreis"},"federalState":{"key":"06","name":"Hessen"}},{"name":"Altwildunger Str.","postalCode":"34549","locality":"Edertal","municipality":{"key":"06635009","name":"Edertal, Nationalparkgemeinde","type":"Kreisangehörige_Gemeinde"},"district":{"key":"06635","name":"Waldeck-Frankenberg","type":"Landkreis"},"federalState":{"key":"06","name":"Hessen"}},{"name":"Am Alterstein","postalCode":"34549","locality":"Edertal","municipality":{"key":"06635009","name":"Edertal, Nationalparkgemeinde","type":"Kreisangehörige_Gemeinde"},"district":{"key":"06635","name":"Waldeck-Frankenberg","type":"Landkreis"},"federalState":{"key":"06","name":"Hessen"}},{"name":"Am Bäckerrain","postalCode":"34549","locality":"Edertal","municipality":{"key":"06635009","name":"Edertal, Nationalparkgemeinde","type":"Kreisangehörige_Gemeinde"},"district":{"key":"06635","name":"Waldeck-Frankenberg","type":"Landkreis"},"federalState":{"key":"06","name":"Hessen"}},{"name":"Am Bartelsborn","postalCode":"34549","locality":"Edertal","municipality":{"key":"06635009","name":"Edertal, Nationalparkgemeinde","type":"Kreisangehörige_Gemeinde"},"district":{"key":"06635","name":"Waldeck-Frankenberg","type":"Landkreis"},"federalState":{"key":"06","name":"Hessen"}},{"name":"Am Bericher Holz","postalCode":"34549","locality":"Edertal","municipality":{"key":"06635009","name":"Edertal, Nationalparkgemeinde","type":"Kreisangehörige_Gemeinde"},"district":{"key":"06635","name":"Waldeck-Frankenberg","type":"Landkreis"},"federalState":{"key":"06","name":"Hessen"}},{"name":"Am Böhlweg","postalCode":"34549","locality":"Edertal","municipality":{"key":"06635009","name":"Edertal, Nationalparkgemeinde","type":"Kreisangehörige_Gemeinde"},"district":{"key":"06635","name":"Waldeck-Frankenberg","type":"Landkreis"},"federalState":{"key":"06","name":"Hessen"}},{"name":"Am Bruch","postalCode":"34549","locality":"Edertal","municipality":{"key":"06635009","name":"Edertal, Nationalparkgemeinde","type":"Kreisangehörige_Gemeinde"},"district":{"key":"06635","name":"Waldeck-Frankenberg","type":"Landkreis"},"federalState":{"key":"06","name":"Hessen"}},{"name":"Am Brückengraben","postalCode":"34549","locality":"Edertal","municipality":{"key":"06635009","name":"Edertal, Nationalparkgemeinde","type":"Kreisangehörige_Gemeinde"},"district":{"key":"06635","name":"Waldeck-Frankenberg","type":"Landkreis"},"federalState":{"key":"06","name":"Hessen"}},{"name":"Am Dorfplatz","postalCode":"34549","locality":"Edertal","municipality":{"key":"06635009","name":"Edertal, Nationalparkgemeinde","type":"Kreisangehörige_Gemeinde"},"district":{"key":"06635","name":"Waldeck-Frankenberg","type":"Landkreis"},"federalState":{"key":"06","name":"Hessen"}},{"name":"Am Eschelsberg","postalCode":"34549","locality":"Edertal","municipality":{"key":"06635009","name":"Edertal, Nationalparkgemeinde","type":"Kreisangehörige_Gemeinde"},"district":{"key":"06635","name":"Waldeck-Frankenberg","type":"Landkreis"},"federalState":{"key":"06","name":"Hessen"}},{"name":"Am Galgenbusch","postalCode":"34549","locality":"Edertal","municipality":{"key":"06635009","name":"Edertal, Nationalparkgemeinde","type":"Kreisangehörige_Gemeinde"},"district":{"key":"06635","name":"Waldeck-Frankenberg","type":"Landkreis"},"federalState":{"key":"06","name":"Hessen"}},{"name":"Am Gänsegraben","postalCode":"34549","locality":"Edertal","municipality":{"key":"06635009","name":"Edertal, Nationalparkgemeinde","type":"Kreisangehörige_Gemeinde"},"district":{"key":"06635","name":"Waldeck-Frankenberg","type":"Landkreis"},"federalState":{"key":"06","name":"Hessen"}},{"name":"Am Gersthof","postalCode":"34549","locality":"Edertal","municipality":{"key":"06635009","name":"Edertal, Nationalparkgemeinde","type":"Kreisangehörige_Gemeinde"},"district":{"key":"06635","name":"Waldeck-Frankenberg","type":"Landkreis"},"federalState":{"key":"06","name":"Hessen"}},{"name":"Am Gipsbruch","postalCode":"34549","locality":"Edertal","municipality":{"key":"06635009","name":"Edertal, Nationalparkgemeinde","type":"Kreisangehörige_Gemeinde"},"district":{"key":"06635","name":"Waldeck-Frankenberg","type":"Landkreis"},"federalState":{"key":"06","name":"Hessen"}},{"name":"Am Graben","postalCode":"34549","locality":"Edertal","municipality":{"key":"06635009","name":"Edertal, Nationalparkgemeinde","type":"Kreisangehörige_Gemeinde"},"district":{"key":"06635","name":"Waldeck-Frankenberg","type":"Landkreis"},"federalState":{"key":"06","name":"Hessen"}},{"name":"Am Hahndriesch","postalCode":"34549","locality":"Edertal","municipality":{"key":"06635009","name":"Edertal, Nationalparkgemeinde","type":"Kreisangehörige_Gemeinde"},"district":{"key":"06635","name":"Waldeck-Frankenberg","type":"Landkreis"},"federalState":{"key":"06","name":"Hessen"}},{"name":"Am Halben Born","postalCode":"34549","locality":"Edertal","municipality":{"key":"06635009","name":"Edertal, Nationalparkgemeinde","type":"Kreisangehörige_Gemeinde"},"district":{"key":"06635","name":"Waldeck-Frankenberg","type":"Landkreis"},"federalState":{"key":"06","name":"Hessen"}},{"name":"Am Herzberg","postalCode":"34549","locality":"Edertal","municipality":{"key":"06635009","name":"Edertal, Nationalparkgemeinde","type":"Kreisangehörige_Gemeinde"},"district":{"key":"06635","name":"Waldeck-Frankenberg","type":"Landkreis"},"federalState":{"key":"06","name":"Hessen"}},{"name":"Am Kalkrain","postalCode":"34549","locality":"Edertal","municipality":{"key":"06635009","name":"Edertal, Nationalparkgemeinde","type":"Kreisangehörige_Gemeinde"},"district":{"key":"06635","name":"Waldeck-Frankenberg","type":"Landkreis"},"federalState":{"key":"06","name":"Hessen"}},{"name":"Am Kirchacker","postalCode":"34549","locality":"Edertal","municipality":{"key":"06635009","name":"Edertal, Nationalparkgemeinde","type":"Kreisangehörige_Gemeinde"},"district":{"key":"06635","name":"Waldeck-Frankenberg","type":"Landkreis"},"federalState":{"key":"06","name":"Hessen"}},{"name":"Am Kornhaus","postalCode":"34549","locality":"Edertal","municipality":{"key":"06635009","name":"Edertal, Nationalparkgemeinde","type":"Kreisangehörige_Gemeinde"},"district":{"key":"06635","name":"Waldeck-Frankenberg","type":"Landkreis"},"federalState":{"key":"06","name":"Hessen"}},{"name":"Am Linge","postalCode":"34549","locality":"Edertal","municipality":{"key":"06635009","name":"Edertal, Nationalparkgemeinde","type":"Kreisangehörige_Gemeinde"},"district":{"key":"06635","name":"Waldeck-Frankenberg","type":"Landkreis"},"federalState":{"key":"06","name":"Hessen"}},{"name":"Am Michelskopf","postalCode":"34549","locality":"Edertal","municipality":{"key":"06635009","name":"Edertal, Nationalparkgemeinde","type":"Kreisangehörige_Gemeinde"},"district":{"key":"06635","name":"Waldeck-Frankenberg","type":"Landkreis"},"federalState":{"key":"06","name":"Hessen"}},{"name":"Am Mühlengraben","postalCode":"34549","locality":"Edertal","municipality":{"key":"06635009","name":"Edertal, Nationalparkgemeinde","type":"Kreisangehörige_Gemeinde"},"district":{"key":"06635","name":"Waldeck-Frankenberg","type":"Landkreis"},"federalState":{"key":"06","name":"Hessen"}},{"name":"Am Rabenstein","postalCode":"34549","locality":"Edertal","municipality":{"key":"06635009","name":"Edertal, Nationalparkgemeinde","type":"Kreisangehörige_Gemeinde"},"district":{"key":"06635","name":"Waldeck-Frankenberg","type":"Landkreis"},"federalState":{"key":"06","name":"Hessen"}},{"name":"Am Rabusch","postalCode":"34549","locality":"Edertal","municipality":{"key":"06635009","name":"Edertal, Nationalparkgemeinde","type":"Kreisangehörige_Gemeinde"},"district":{"key":"06635","name":"Waldeck-Frankenberg","type":"Landkreis"},"federalState":{"key":"06","name":"Hessen"}},{"name":"Am Raine","postalCode":"34549","locality":"Edertal","municipality":{"key":"06635009","name":"Edertal, Nationalparkgemeinde","type":"Kreisangehörige_Gemeinde"},"district":{"key":"06635","name":"Waldeck-Frankenberg","type":"Landkreis"},"federalState":{"key":"06","name":"Hessen"}},{"name":"Am Rehbach","postalCode":"34549","locality":"Edertal","municipality":{"key":"06635009","name":"Edertal, Nationalparkgemeinde","type":"Kreisangehörige_Gemeinde"},"district":{"key":"06635","name":"Waldeck-Frankenberg","type":"Landkreis"},"federalState":{"key":"06","name":"Hessen"}},{"name":"Am Rohracker","postalCode":"34549","locality":"Edertal","municipality":{"key":"06635009","name":"Edertal, Nationalparkgemeinde","type":"Kreisangehörige_Gemeinde"},"district":{"key":"06635","name":"Waldeck-Frankenberg","type":"Landkreis"},"federalState":{"key":"06","name":"Hessen"}},{"name":"Am Schulplan","postalCode":"34549","locality":"Edertal","municipality":{"key":"06635009","name":"Edertal, Nationalparkgemeinde","type":"Kreisangehörige_Gemeinde"},"district":{"key":"06635","name":"Waldeck-Frankenberg","type":"Landkreis"},"federalState":{"key":"06","name":"Hessen"}},{"name":"Am Spitzen Rain","postalCode":"34549","locality":"Edertal","municipality":{"key":"06635009","name":"Edertal, Nationalparkgemeinde","type":"Kreisangehörige_Gemeinde"},"district":{"key":"06635","name":"Waldeck-Frankenberg","type":"Landkreis"},"federalState":{"key":"06","name":"Hessen"}},{"name":"Am Südhang","postalCode":"34549","locality":"Edertal","municipality":{"key":"06635009","name":"Edertal, Nationalparkgemeinde","type":"Kreisangehörige_Gemeinde"},"district":{"key":"06635","name":"Waldeck-Frankenberg","type":"Landkreis"},"federalState":{"key":"06","name":"Hessen"}},{"name":"Am Wäldchen","postalCode":"34549","locality":"Edertal","municipality":{"key":"06635009","name":"Edertal, Nationalparkgemeinde","type":"Kreisangehörige_Gemeinde"},"district":{"key":"06635","name":"Waldeck-Frankenberg","type":"Landkreis"},"federalState":{"key":"06","name":"Hessen"}},{"name":"Am Wasserturm","postalCode":"34549","locality":"Edertal","municipality":{"key":"06635009","name":"Edertal, Nationalparkgemeinde","type":"Kreisangehörige_Gemeinde"},"district":{"key":"06635","name":"Waldeck-Frankenberg","type":"Landkreis"},"federalState":{"key":"06","name":"Hessen"}},{"name":"Am Weiher","postalCode":"34549","locality":"Edertal","municipality":{"key":"06635009","name":"Edertal, Nationalparkgemeinde","type":"Kreisangehörige_Gemeinde"},"district":{"key":"06635","name":"Waldeck-Frankenberg","type":"Landkreis"},"federalState":{"key":"06","name":"Hessen"}},{"name":"Am Weinberg","postalCode":"34549","locality":"Edertal","municipality":{"key":"06635009","name":"Edertal, Nationalparkgemeinde","type":"Kreisangehörige_Gemeinde"},"district":{"key":"06635","name":"Waldeck-Frankenberg","type":"Landkreis"},"federalState":{"key":"06","name":"Hessen"}},{"name":"Am Zimmerplatz","postalCode":"34549","locality":"Edertal","municipality":{"key":"06635009","name":"Edertal, Nationalparkgemeinde","type":"Kreisangehörige_Gemeinde"},"district":{"key":"06635","name":"Waldeck-Frankenberg","type":"Landkreis"},"federalState":{"key":"06","name":"Hessen"}},{"name":"Am Zollstock","postalCode":"34549","locality":"Edertal","municipality":{"key":"06635009","name":"Edertal, Nationalparkgemeinde","type":"Kreisangehörige_Gemeinde"},"district":{"key":"06635","name":"Waldeck-Frankenberg","type":"Landkreis"},"federalState":{"key":"06","name":"Hessen"}},{"name":"An den Dorfgärten","postalCode":"34549","locality":"Edertal","municipality":{"key":"06635009","name":"Edertal, Nationalparkgemeinde","type":"Kreisangehörige_Gemeinde"},"district":{"key":"06635","name":"Waldeck-Frankenberg","type":"Landkreis"},"federalState":{"key":"06","name":"Hessen"}},{"name":"An den Weiden","postalCode":"34549","locality":"Edertal","municipality":{"key":"06635009","name":"Edertal, Nationalparkgemeinde","type":"Kreisangehörige_Gemeinde"},"district":{"key":"06635","name":"Waldeck-Frankenberg","type":"Landkreis"},"federalState":{"key":"06","name":"Hessen"}},{"name":"An der Edertalschule","postalCode":"34549","locality":"Edertal","municipality":{"key":"06635009","name":"Edertal, Nationalparkgemeinde","type":"Kreisangehörige_Gemeinde"},"district":{"key":"06635","name":"Waldeck-Frankenberg","type":"Landkreis"},"federalState":{"key":"06","name":"Hessen"}},{"name":"An der Gelben Seite","postalCode":"34549","locality":"Edertal","municipality":{"key":"06635009","name":"Edertal, Nationalparkgemeinde","type":"Kreisangehörige_Gemeinde"},"district":{"key":"06635","name":"Waldeck-Frankenberg","type":"Landkreis"},"federalState":{"key":"06","name":"Hessen"}},{"name":"An der Kirche","postalCode":"34549","locality":"Edertal","municipality":{"key":"06635009","name":"Edertal, Nationalparkgemeinde","type":"Kreisangehörige_Gemeinde"},"district":{"key":"06635","name":"Waldeck-Frankenberg","type":"Landkreis"},"federalState":{"key":"06","name":"Hessen"}},{"name":"An der Lehmkaute","postalCode":"34549","locality":"Edertal","municipality":{"key":"06635009","name":"Edertal, Nationalparkgemeinde","type":"Kreisangehörige_Gemeinde"},"district":{"key":"06635","name":"Waldeck-Frankenberg","type":"Landkreis"},"federalState":{"key":"06","name":"Hessen"}},{"name":"An der Litt","postalCode":"34549","locality":"Edertal","municipality":{"key":"06635009","name":"Edertal, Nationalparkgemeinde","type":"Kreisangehörige_Gemeinde"},"district":{"key":"06635","name":"Waldeck-Frankenberg","type":"Landkreis"},"federalState":{"key":"06","name":"Hessen"}},{"name":"An der Ziegelei","postalCode":"34549","locality":"Edertal","municipality":{"key":"06635009","name":"Edertal, Nationalparkgemeinde","type":"Kreisangehörige_Gemeinde"},"district":{"key":"06635","name":"Waldeck-Frankenberg","type":"Landkreis"},"federalState":{"key":"06","name":"Hessen"}},{"name":"Anraffer Str.","postalCode":"34549","locality":"Edertal","municipality":{"key":"06635009","name":"Edertal, Nationalparkgemeinde","type":"Kreisangehörige_Gemeinde"},"district":{"key":"06635","name":"Waldeck-Frankenberg","type":"Landkreis"},"federalState":{"key":"06","name":"Hessen"}},{"name":"Aquapark","postalCode":"34549","locality":"Edertal","municipality":{"key":"06635009","name":"Edertal, Nationalparkgemeinde","type":"Kreisangehörige_Gemeinde"},"district":{"key":"06635","name":"Waldeck-Frankenberg","type":"Landkreis"},"federalState":{"key":"06","name":"Hessen"}},{"name":"Bachstr.","postalCode":"34549","locality":"Edertal","municipality":{"key":"06635009","name":"Edertal, Nationalparkgemeinde","type":"Kreisangehörige_Gemeinde"},"district":{"key":"06635","name":"Waldeck-Frankenberg","type":"Landkreis"},"federalState":{"key":"06","name":"Hessen"}},{"name":"Bahnhofstr.","postalCode":"34549","locality":"Edertal","municipality":{"key":"06635009","name":"Edertal, Nationalparkgemeinde","type":"Kreisangehörige_Gemeinde"},"district":{"key":"06635","name":"Waldeck-Frankenberg","type":"Landkreis"},"federalState":{"key":"06","name":"Hessen"}},{"name":"Banfenbreite","postalCode":"34549","locality":"Edertal","municipality":{"key":"06635009","name":"Edertal, Nationalparkgemeinde","type":"Kreisangehörige_Gemeinde"},"district":{"key":"06635","name":"Waldeck-Frankenberg","type":"Landkreis"},"federalState":{"key":"06","name":"Hessen"}},{"name":"Bärengasse","postalCode":"34549","locality":"Edertal","municipality":{"key":"06635009","name":"Edertal, Nationalparkgemeinde","type":"Kreisangehörige_Gemeinde"},"district":{"key":"06635","name":"Waldeck-Frankenberg","type":"Landkreis"},"federalState":{"key":"06","name":"Hessen"}},{"name":"Bataillonsweg","postalCode":"34549","locality":"Edertal","municipality":{"key":"06635009","name":"Edertal, Nationalparkgemeinde","type":"Kreisangehörige_Gemeinde"},"district":{"key":"06635","name":"Waldeck-Frankenberg","type":"Landkreis"},"federalState":{"key":"06","name":"Hessen"}},{"name":"Bergheimer Str.","postalCode":"34549","locality":"Edertal","municipality":{"key":"06635009","name":"Edertal, Nationalparkgemeinde","type":"Kreisangehörige_Gemeinde"},"district":{"key":"06635","name":"Waldeck-Frankenberg","type":"Landkreis"},"federalState":{"key":"06","name":"Hessen"}},{"name":"Bergpfad","postalCode":"34549","locality":"Edertal","municipality":{"key":"06635009","name":"Edertal, Nationalparkgemeinde","type":"Kreisangehörige_Gemeinde"},"district":{"key":"06635","name":"Waldeck-Frankenberg","type":"Landkreis"},"federalState":{"key":"06","name":"Hessen"}},{"name":"Bergstr.","postalCode":"34549","locality":"Edertal","municipality":{"key":"06635009","name":"Edertal, Nationalparkgemeinde","type":"Kreisangehörige_Gemeinde"},"district":{"key":"06635","name":"Waldeck-Frankenberg","type":"Landkreis"},"federalState":{"key":"06","name":"Hessen"}},{"name":"Berliner Str.","postalCode":"34549","locality":"Edertal","municipality":{"key":"06635009","name":"Edertal, Nationalparkgemeinde","type":"Kreisangehörige_Gemeinde"},"district":{"key":"06635","name":"Waldeck-Frankenberg","type":"Landkreis"},"federalState":{"key":"06","name":"Hessen"}},{"name":"Birkenstr.","postalCode":"34549","locality":"Edertal","municipality":{"key":"06635009","name":"Edertal, Nationalparkgemeinde","type":"Kreisangehörige_Gemeinde"},"district":{"key":"06635","name":"Waldeck-Frankenberg","type":"Landkreis"},"federalState":{"key":"06","name":"Hessen"}},{"name":"Blumenweg","postalCode":"34549","locality":"Edertal","municipality":{"key":"06635009","name":"Edertal, Nationalparkgemeinde","type":"Kreisangehörige_Gemeinde"},"district":{"key":"06635","name":"Waldeck-Frankenberg","type":"Landkreis"},"federalState":{"key":"06","name":"Hessen"}},{"name":"Böhner Str.","postalCode":"34549","locality":"Edertal","municipality":{"key":"06635009","name":"Edertal, Nationalparkgemeinde","type":"Kreisangehörige_Gemeinde"},"district":{"key":"06635","name":"Waldeck-Frankenberg","type":"Landkreis"},"federalState":{"key":"06","name":"Hessen"}},{"name":"Böhner Weg","postalCode":"34549","locality":"Edertal","municipality":{"key":"06635009","name":"Edertal, Nationalparkgemeinde","type":"Kreisangehörige_Gemeinde"},"district":{"key":"06635","name":"Waldeck-Frankenberg","type":"Landkreis"},"federalState":{"key":"06","name":"Hessen"}},{"name":"Bonifatiuspfad X12","postalCode":"34549","locality":"Edertal","municipality":{"key":"06635009","name":"Edertal, Nationalparkgemeinde","type":"Kreisangehörige_Gemeinde"},"district":{"key":"06635","name":"Waldeck-Frankenberg","type":"Landkreis"},"federalState":{"key":"06","name":"Hessen"}},{"name":"Bonifatiusweg","postalCode":"34549","locality":"Edertal","municipality":{"key":"06635009","name":"Edertal, Nationalparkgemeinde","type":"Kreisangehörige_Gemeinde"},"district":{"key":"06635","name":"Waldeck-Frankenberg","type":"Landkreis"},"federalState":{"key":"06","name":"Hessen"}},{"name":"Brackenwiese","postalCode":"34549","locality":"Edertal","municipality":{"key":"06635009","name":"Edertal, Nationalparkgemeinde","type":"Kreisangehörige_Gemeinde"},"district":{"key":"06635","name":"Waldeck-Frankenberg","type":"Landkreis"},"federalState":{"key":"06","name":"Hessen"}},{"name":"Bringhäuser Str.","postalCode":"34549","locality":"Edertal","municipality":{"key":"06635009","name":"Edertal, Nationalparkgemeinde","type":"Kreisangehörige_Gemeinde"},"district":{"key":"06635","name":"Waldeck-Frankenberg","type":"Landkreis"},"federalState":{"key":"06","name":"Hessen"}},{"name":"Brücke I","postalCode":"34549","locality":"Edertal","municipality":{"key":"06635009","name":"Edertal, Nationalparkgemeinde","type":"Kreisangehörige_Gemeinde"},"district":{"key":"06635","name":"Waldeck-Frankenberg","type":"Landkreis"},"federalState":{"key":"06","name":"Hessen"}},{"name":"Brücke IV","postalCode":"34549","locality":"Edertal","municipality":{"key":"06635009","name":"Edertal, Nationalparkgemeinde","type":"Kreisangehörige_Gemeinde"},"district":{"key":"06635","name":"Waldeck-Frankenberg","type":"Landkreis"},"federalState":{"key":"06","name":"Hessen"}},{"name":"Brückenstr.","postalCode":"34549","locality":"Edertal","municipality":{"key":"06635009","name":"Edertal, Nationalparkgemeinde","type":"Kreisangehörige_Gemeinde"},"district":{"key":"06635","name":"Waldeck-Frankenberg","type":"Landkreis"},"federalState":{"key":"06","name":"Hessen"}},{"name":"Buchenweg","postalCode":"34549","locality":"Edertal","municipality":{"key":"06635009","name":"Edertal, Nationalparkgemeinde","type":"Kreisangehörige_Gemeinde"},"district":{"key":"06635","name":"Waldeck-Frankenberg","type":"Landkreis"},"federalState":{"key":"06","name":"Hessen"}},{"name":"Buhlener Str.","postalCode":"34549","locality":"Edertal","municipality":{"key":"06635009","name":"Edertal, Nationalparkgemeinde","type":"Kreisangehörige_Gemeinde"},"district":{"key":"06635","name":"Waldeck-Frankenberg","type":"Landkreis"},"federalState":{"key":"06","name":"Hessen"}},{"name":"Bussardweg","postalCode":"34549","locality":"Edertal","municipality":{"key":"06635009","name":"Edertal, Nationalparkgemeinde","type":"Kreisangehörige_Gemeinde"},"district":{"key":"06635","name":"Waldeck-Frankenberg","type":"Landkreis"},"federalState":{"key":"06","name":"Hessen"}},{"name":"Christian-Fleischhauer-Str.","postalCode":"34549","locality":"Edertal","municipality":{"key":"06635009","name":"Edertal, Nationalparkgemeinde","type":"Kreisangehörige_Gemeinde"},"district":{"key":"06635","name":"Waldeck-Frankenberg","type":"Landkreis"},"federalState":{"key":"06","name":"Hessen"}},{"name":"Connection K 26 to K 28","postalCode":"34549","locality":"Edertal","municipality":{"key":"06635009","name":"Edertal, Nationalparkgemeinde","type":"Kreisangehörige_Gemeinde"},"district":{"key":"06635","name":"Waldeck-Frankenberg","type":"Landkreis"},"federalState":{"key":"06","name":"Hessen"}},{"name":"Das Kannfeld","postalCode":"34549","locality":"Edertal","municipality":{"key":"06635009","name":"Edertal, Nationalparkgemeinde","type":"Kreisangehörige_Gemeinde"},"district":{"key":"06635","name":"Waldeck-Frankenberg","type":"Landkreis"},"federalState":{"key":"06","name":"Hessen"}},{"name":"Das Mörsch","postalCode":"34549","locality":"Edertal","municipality":{"key":"06635009","name":"Edertal, Nationalparkgemeinde","type":"Kreisangehörige_Gemeinde"},"district":{"key":"06635","name":"Waldeck-Frankenberg","type":"Landkreis"},"federalState":{"key":"06","name":"Hessen"}},{"name":"Daudenbergstr.","postalCode":"34549","locality":"Edertal","municipality":{"key":"06635009","name":"Edertal, Nationalparkgemeinde","type":"Kreisangehörige_Gemeinde"},"district":{"key":"06635","name":"Waldeck-Frankenberg","type":"Landkreis"},"federalState":{"key":"06","name":"Hessen"}},{"name":"Dicker Kopf Route","postalCode":"34549","locality":"Edertal","municipality":{"key":"06635009","name":"Edertal, Nationalparkgemeinde","type":"Kreisangehörige_Gemeinde"},"district":{"key":"06635","name":"Waldeck-Frankenberg","type":"Landkreis"},"federalState":{"key":"06","name":"Hessen"}},{"name":"Die Breite","postalCode":"34549","locality":"Edertal","municipality":{"key":"06635009","name":"Edertal, Nationalparkgemeinde","type":"Kreisangehörige_Gemeinde"},"district":{"key":"06635","name":"Waldeck-Frankenberg","type":"Landkreis"},"federalState":{"key":"06","name":"Hessen"}},{"name":"Die Kolbelitt","postalCode":"34549","locality":"Edertal","municipality":{"key":"06635009","name":"Edertal, Nationalparkgemeinde","type":"Kreisangehörige_Gemeinde"},"district":{"key":"06635","name":"Waldeck-Frankenberg","type":"Landkreis"},"federalState":{"key":"06","name":"Hessen"}},{"name":"Domanialweg","postalCode":"34549","locality":"Edertal","municipality":{"key":"06635009","name":"Edertal, Nationalparkgemeinde","type":"Kreisangehörige_Gemeinde"},"district":{"key":"06635","name":"Waldeck-Frankenberg","type":"Landkreis"},"federalState":{"key":"06","name":"Hessen"}},{"name":"Ederauenweg","postalCode":"34549","locality":"Edertal","municipality":{"key":"06635009","name":"Edertal, Nationalparkgemeinde","type":"Kreisangehörige_Gemeinde"},"district":{"key":"06635","name":"Waldeck-Frankenberg","type":"Landkreis"},"federalState":{"key":"06","name":"Hessen"}},{"name":"Ederblick","postalCode":"34549","locality":"Edertal","municipality":{"key":"06635009","name":"Edertal, Nationalparkgemeinde","type":"Kreisangehörige_Gemeinde"},"district":{"key":"06635","name":"Waldeck-Frankenberg","type":"Landkreis"},"federalState":{"key":"06","name":"Hessen"}},{"name":"Ederseerandstr.","postalCode":"34549","locality":"Edertal","municipality":{"key":"06635009","name":"Edertal, Nationalparkgemeinde","type":"Kreisangehörige_Gemeinde"},"district":{"key":"06635","name":"Waldeck-Frankenberg","type":"Landkreis"},"federalState":{"key":"06","name":"Hessen"}},{"name":"Ederseeweg","postalCode":"34549","locality":"Edertal","municipality":{"key":"06635009","name":"Edertal, Nationalparkgemeinde","type":"Kreisangehörige_Gemeinde"},"district":{"key":"06635","name":"Waldeck-Frankenberg","type":"Landkreis"},"federalState":{"key":"06","name":"Hessen"}},{"name":"Ederstr.","postalCode":"34549","locality":"Edertal","municipality":{"key":"06635009","name":"Edertal, Nationalparkgemeinde","type":"Kreisangehörige_Gemeinde"},"district":{"key":"06635","name":"Waldeck-Frankenberg","type":"Landkreis"},"federalState":{"key":"06","name":"Hessen"}},{"name":"Edertalstr.","postalCode":"34549","locality":"Edertal","municipality":{"key":"06635009","name":"Edertal, Nationalparkgemeinde","type":"Kreisangehörige_Gemeinde"},"district":{"key":"06635","name":"Waldeck-Frankenberg","type":"Landkreis"},"federalState":{"key":"06","name":"Hessen"}},{"name":"Eichenweg","postalCode":"34549","locality":"Edertal","municipality":{"key":"06635009","name":"Edertal, Nationalparkgemeinde","type":"Kreisangehörige_Gemeinde"},"district":{"key":"06635","name":"Waldeck-Frankenberg","type":"Landkreis"},"federalState":{"key":"06","name":"Hessen"}},{"name":"Elmsbergstr.","postalCode":"34549","locality":"Edertal","municipality":{"key":"06635009","name":"Edertal, Nationalparkgemeinde","type":"Kreisangehörige_Gemeinde"},"district":{"key":"06635","name":"Waldeck-Frankenberg","type":"Landkreis"},"federalState":{"key":"06","name":"Hessen"}},{"name":"Fasanenweg","postalCode":"34549","locality":"Edertal","municipality":{"key":"06635009","name":"Edertal, Nationalparkgemeinde","type":"Kreisangehörige_Gemeinde"},"district":{"key":"06635","name":"Waldeck-Frankenberg","type":"Landkreis"},"federalState":{"key":"06","name":"Hessen"}},{"name":"Feldrosenweg","postalCode":"34549","locality":"Edertal","municipality":{"key":"06635009","name":"Edertal, Nationalparkgemeinde","type":"Kreisangehörige_Gemeinde"},"district":{"key":"06635","name":"Waldeck-Frankenberg","type":"Landkreis"},"federalState":{"key":"06","name":"Hessen"}},{"name":"Ferienstr.","postalCode":"34549","locality":"Edertal","municipality":{"key":"06635009","name":"Edertal, Nationalparkgemeinde","type":"Kreisangehörige_Gemeinde"},"district":{"key":"06635","name":"Waldeck-Frankenberg","type":"Landkreis"},"federalState":{"key":"06","name":"Hessen"}},{"name":"Fichtenstr.","postalCode":"34549","locality":"Edertal","municipality":{"key":"06635009","name":"Edertal, Nationalparkgemeinde","type":"Kreisangehörige_Gemeinde"},"district":{"key":"06635","name":"Waldeck-Frankenberg","type":"Landkreis"},"federalState":{"key":"06","name":"Hessen"}},{"name":"Fliederweg","postalCode":"34549","locality":"Edertal","municipality":{"key":"06635009","name":"Edertal, Nationalparkgemeinde","type":"Kreisangehörige_Gemeinde"},"district":{"key":"06635","name":"Waldeck-Frankenberg","type":"Landkreis"},"federalState":{"key":"06","name":"Hessen"}},{"name":"Flutweg","postalCode":"34549","locality":"Edertal","municipality":{"key":"06635009","name":"Edertal, Nationalparkgemeinde","type":"Kreisangehörige_Gemeinde"},"district":{"key":"06635","name":"Waldeck-Frankenberg","type":"Landkreis"},"federalState":{"key":"06","name":"Hessen"}},{"name":"Forsthausstr.","postalCode":"34549","locality":"Edertal","municipality":{"key":"06635009","name":"Edertal, Nationalparkgemeinde","type":"Kreisangehörige_Gemeinde"},"district":{"key":"06635","name":"Waldeck-Frankenberg","type":"Landkreis"},"federalState":{"key":"06","name":"Hessen"}},{"name":"Frebershäuser Str.","postalCode":"34549","locality":"Edertal","municipality":{"key":"06635009","name":"Edertal, Nationalparkgemeinde","type":"Kreisangehörige_Gemeinde"},"district":{"key":"06635","name":"Waldeck-Frankenberg","type":"Landkreis"},"federalState":{"key":"06","name":"Hessen"}},{"name":"Friedrichstr.","postalCode":"34549","locality":"Edertal","municipality":{"key":"06635009","name":"Edertal, Nationalparkgemeinde","type":"Kreisangehörige_Gemeinde"},"district":{"key":"06635","name":"Waldeck-Frankenberg","type":"Landkreis"},"federalState":{"key":"06","name":"Hessen"}},{"name":"Fuchsbaustr.","postalCode":"34549","locality":"Edertal","municipality":{"key":"06635009","name":"Edertal, Nationalparkgemeinde","type":"Kreisangehörige_Gemeinde"},"district":{"key":"06635","name":"Waldeck-Frankenberg","type":"Landkreis"},"federalState":{"key":"06","name":"Hessen"}},{"name":"Fünfseenblickstr.","postalCode":"34549","locality":"Edertal","municipality":{"key":"06635009","name":"Edertal, Nationalparkgemeinde","type":"Kreisangehörige_Gemeinde"},"district":{"key":"06635","name":"Waldeck-Frankenberg","type":"Landkreis"},"federalState":{"key":"06","name":"Hessen"}},{"name":"Gartenstr.","postalCode":"34549","locality":"Edertal","municipality":{"key":"06635009","name":"Edertal, Nationalparkgemeinde","type":"Kreisangehörige_Gemeinde"},"district":{"key":"06635","name":"Waldeck-Frankenberg","type":"Landkreis"},"federalState":{"key":"06","name":"Hessen"}},{"name":"Geismarer Str.","postalCode":"34549","locality":"Edertal","municipality":{"key":"06635009","name":"Edertal, Nationalparkgemeinde","type":"Kreisangehörige_Gemeinde"},"district":{"key":"06635","name":"Waldeck-Frankenberg","type":"Landkreis"},"federalState":{"key":"06","name":"Hessen"}},{"name":"Gemeindeweg","postalCode":"34549","locality":"Edertal","municipality":{"key":"06635009","name":"Edertal, Nationalparkgemeinde","type":"Kreisangehörige_Gemeinde"},"district":{"key":"06635","name":"Waldeck-Frankenberg","type":"Landkreis"},"federalState":{"key":"06","name":"Hessen"}},{"name":"Giflitzer Str.","postalCode":"34549","locality":"Edertal","municipality":{"key":"06635009","name":"Edertal, Nationalparkgemeinde","type":"Kreisangehörige_Gemeinde"},"district":{"key":"06635","name":"Waldeck-Frankenberg","type":"Landkreis"},"federalState":{"key":"06","name":"Hessen"}},{"name":"Goldbergstr.","postalCode":"34549","locality":"Edertal","municipality":{"key":"06635009","name":"Edertal, Nationalparkgemeinde","type":"Kreisangehörige_Gemeinde"},"district":{"key":"06635","name":"Waldeck-Frankenberg","type":"Landkreis"},"federalState":{"key":"06","name":"Hessen"}},{"name":"Goldgräberpfad","postalCode":"34549","locality":"Edertal","municipality":{"key":"06635009","name":"Edertal, Nationalparkgemeinde","type":"Kreisangehörige_Gemeinde"},"district":{"key":"06635","name":"Waldeck-Frankenberg","type":"Landkreis"},"federalState":{"key":"06","name":"Hessen"}},{"name":"Grasweg","postalCode":"34549","locality":"Edertal","municipality":{"key":"06635009","name":"Edertal, Nationalparkgemeinde","type":"Kreisangehörige_Gemeinde"},"district":{"key":"06635","name":"Waldeck-Frankenberg","type":"Landkreis"},"federalState":{"key":"06","name":"Hessen"}},{"name":"Grundmühle","postalCode":"34549","locality":"Edertal","municipality":{"key":"06635009","name":"Edertal, Nationalparkgemeinde","type":"Kreisangehörige_Gemeinde"},"district":{"key":"06635","name":"Waldeck-Frankenberg","type":"Landkreis"},"federalState":{"key":"06","name":"Hessen"}},{"name":"Grundweg","postalCode":"34549","locality":"Edertal","municipality":{"key":"06635009","name":"Edertal, Nationalparkgemeinde","type":"Kreisangehörige_Gemeinde"},"district":{"key":"06635","name":"Waldeck-Frankenberg","type":"Landkreis"},"federalState":{"key":"06","name":"Hessen"}},{"name":"Grüner Pfad","postalCode":"34549","locality":"Edertal","municipality":{"key":"06635009","name":"Edertal, Nationalparkgemeinde","type":"Kreisangehörige_Gemeinde"},"district":{"key":"06635","name":"Waldeck-Frankenberg","type":"Landkreis"},"federalState":{"key":"06","name":"Hessen"}},{"name":"Grüner Weg","postalCode":"34549","locality":"Edertal","municipality":{"key":"06635009","name":"Edertal, Nationalparkgemeinde","type":"Kreisangehörige_Gemeinde"},"district":{"key":"06635","name":"Waldeck-Frankenberg","type":"Landkreis"},"federalState":{"key":"06","name":"Hessen"}},{"name":"Hagebuttenweg","postalCode":"34549","locality":"Edertal","municipality":{"key":"06635009","name":"Edertal, Nationalparkgemeinde","type":"Kreisangehörige_Gemeinde"},"district":{"key":"06635","name":"Waldeck-Frankenberg","type":"Landkreis"},"federalState":{"key":"06","name":"Hessen"}},{"name":"Hagenstr.","postalCode":"34549","locality":"Edertal","municipality":{"key":"06635009","name":"Edertal, Nationalparkgemeinde","type":"Kreisangehörige_Gemeinde"},"district":{"key":"06635","name":"Waldeck-Frankenberg","type":"Landkreis"},"federalState":{"key":"06","name":"Hessen"}},{"name":"Hammerbergstr.","postalCode":"34549","locality":"Edertal","municipality":{"key":"06635009","name":"Edertal, Nationalparkgemeinde","type":"Kreisangehörige_Gemeinde"},"district":{"key":"06635","name":"Waldeck-Frankenberg","type":"Landkreis"},"federalState":{"key":"06","name":"Hessen"}},{"name":"Hangweg","postalCode":"34549","locality":"Edertal","municipality":{"key":"06635009","name":"Edertal, Nationalparkgemeinde","type":"Kreisangehörige_Gemeinde"},"district":{"key":"06635","name":"Waldeck-Frankenberg","type":"Landkreis"},"federalState":{"key":"06","name":"Hessen"}},{"name":"Hasengartenweg","postalCode":"34549","locality":"Edertal","municipality":{"key":"06635009","name":"Edertal, Nationalparkgemeinde","type":"Kreisangehörige_Gemeinde"},"district":{"key":"06635","name":"Waldeck-Frankenberg","type":"Landkreis"},"federalState":{"key":"06","name":"Hessen"}},{"name":"Hauptstr.","postalCode":"34549","locality":"Edertal","municipality":{"key":"06635009","name":"Edertal, Nationalparkgemeinde","type":"Kreisangehörige_Gemeinde"},"district":{"key":"06635","name":"Waldeck-Frankenberg","type":"Landkreis"},"federalState":{"key":"06","name":"Hessen"}},{"name":"Hechtweg","postalCode":"34549","locality":"Edertal","municipality":{"key":"06635009","name":"Edertal, Nationalparkgemeinde","type":"Kreisangehörige_Gemeinde"},"district":{"key":"06635","name":"Waldeck-Frankenberg","type":"Landkreis"},"federalState":{"key":"06","name":"Hessen"}},{"name":"Heidehügel","postalCode":"34549","locality":"Edertal","municipality":{"key":"06635009","name":"Edertal, Nationalparkgemeinde","type":"Kreisangehörige_Gemeinde"},"district":{"key":"06635","name":"Waldeck-Frankenberg","type":"Landkreis"},"federalState":{"key":"06","name":"Hessen"}},{"name":"Heideweg","postalCode":"34549","locality":"Edertal","municipality":{"key":"06635009","name":"Edertal, Nationalparkgemeinde","type":"Kreisangehörige_Gemeinde"},"district":{"key":"06635","name":"Waldeck-Frankenberg","type":"Landkreis"},"federalState":{"key":"06","name":"Hessen"}},{"name":"Heimbachstr.","postalCode":"34549","locality":"Edertal","municipality":{"key":"06635009","name":"Edertal, Nationalparkgemeinde","type":"Kreisangehörige_Gemeinde"},"district":{"key":"06635","name":"Waldeck-Frankenberg","type":"Landkreis"},"federalState":{"key":"06","name":"Hessen"}},{"name":"Heinrichstr.","postalCode":"34549","locality":"Edertal","municipality":{"key":"06635009","name":"Edertal, Nationalparkgemeinde","type":"Kreisangehörige_Gemeinde"},"district":{"key":"06635","name":"Waldeck-Frankenberg","type":"Landkreis"},"federalState":{"key":"06","name":"Hessen"}},{"name":"Hemfurther Str.","postalCode":"34549","locality":"Edertal","municipality":{"key":"06635009","name":"Edertal, Nationalparkgemeinde","type":"Kreisangehörige_Gemeinde"},"district":{"key":"06635","name":"Waldeck-Frankenberg","type":"Landkreis"},"federalState":{"key":"06","name":"Hessen"}},{"name":"Hermannstr.","postalCode":"34549","locality":"Edertal","municipality":{"key":"06635009","name":"Edertal, Nationalparkgemeinde","type":"Kreisangehörige_Gemeinde"},"district":{"key":"06635","name":"Waldeck-Frankenberg","type":"Landkreis"},"federalState":{"key":"06","name":"Hessen"}},{"name":"Herrenörterweg","postalCode":"34549","locality":"Edertal","municipality":{"key":"06635009","name":"Edertal, Nationalparkgemeinde","type":"Kreisangehörige_Gemeinde"},"district":{"key":"06635","name":"Waldeck-Frankenberg","type":"Landkreis"},"federalState":{"key":"06","name":"Hessen"}},{"name":"Hinter der Schule","postalCode":"34549","locality":"Edertal","municipality":{"key":"06635009","name":"Edertal, Nationalparkgemeinde","type":"Kreisangehörige_Gemeinde"},"district":{"key":"06635","name":"Waldeck-Frankenberg","type":"Landkreis"},"federalState":{"key":"06","name":"Hessen"}},{"name":"Hinter'm Dorfe","postalCode":"34549","locality":"Edertal","municipality":{"key":"06635009","name":"Edertal, Nationalparkgemeinde","type":"Kreisangehörige_Gemeinde"},"district":{"key":"06635","name":"Waldeck-Frankenberg","type":"Landkreis"},"federalState":{"key":"06","name":"Hessen"}},{"name":"Hinterste Trift","postalCode":"34549","locality":"Edertal","municipality":{"key":"06635009","name":"Edertal, Nationalparkgemeinde","type":"Kreisangehörige_Gemeinde"},"district":{"key":"06635","name":"Waldeck-Frankenberg","type":"Landkreis"},"federalState":{"key":"06","name":"Hessen"}},{"name":"Hinterstr.","postalCode":"34549","locality":"Edertal","municipality":{"key":"06635009","name":"Edertal, Nationalparkgemeinde","type":"Kreisangehörige_Gemeinde"},"district":{"key":"06635","name":"Waldeck-Frankenberg","type":"Landkreis"},"federalState":{"key":"06","name":"Hessen"}},{"name":"Hirschweg","postalCode":"34549","locality":"Edertal","municipality":{"key":"06635009","name":"Edertal, Nationalparkgemeinde","type":"Kreisangehörige_Gemeinde"},"district":{"key":"06635","name":"Waldeck-Frankenberg","type":"Landkreis"},"federalState":{"key":"06","name":"Hessen"}},{"name":"Hirtenweg","postalCode":"34549","locality":"Edertal","municipality":{"key":"06635009","name":"Edertal, Nationalparkgemeinde","type":"Kreisangehörige_Gemeinde"},"district":{"key":"06635","name":"Waldeck-Frankenberg","type":"Landkreis"},"federalState":{"key":"06","name":"Hessen"}},{"name":"Hohe Warte","postalCode":"34549","locality":"Edertal","municipality":{"key":"06635009","name":"Edertal, Nationalparkgemeinde","type":"Kreisangehörige_Gemeinde"},"district":{"key":"06635","name":"Waldeck-Frankenberg","type":"Landkreis"},"federalState":{"key":"06","name":"Hessen"}},{"name":"Hohler Weg","postalCode":"34549","locality":"Edertal","municipality":{"key":"06635009","name":"Edertal, Nationalparkgemeinde","type":"Kreisangehörige_Gemeinde"},"district":{"key":"06635","name":"Waldeck-Frankenberg","type":"Landkreis"},"federalState":{"key":"06","name":"Hessen"}},{"name":"Hopperstr.","postalCode":"34549","locality":"Edertal","municipality":{"key":"06635009","name":"Edertal, Nationalparkgemeinde","type":"Kreisangehörige_Gemeinde"},"district":{"key":"06635","name":"Waldeck-Frankenberg","type":"Landkreis"},"federalState":{"key":"06","name":"Hessen"}},{"name":"Hudenweg","postalCode":"34549","locality":"Edertal","municipality":{"key":"06635009","name":"Edertal, Nationalparkgemeinde","type":"Kreisangehörige_Gemeinde"},"district":{"key":"06635","name":"Waldeck-Frankenberg","type":"Landkreis"},"federalState":{"key":"06","name":"Hessen"}},{"name":"Im Bergblick","postalCode":"34549","locality":"Edertal","municipality":{"key":"06635009","name":"Edertal, Nationalparkgemeinde","type":"Kreisangehörige_Gemeinde"},"district":{"key":"06635","name":"Waldeck-Frankenberg","type":"Landkreis"},"federalState":{"key":"06","name":"Hessen"}},{"name":"Im Erlengrund","postalCode":"34549","locality":"Edertal","municipality":{"key":"06635009","name":"Edertal, Nationalparkgemeinde","type":"Kreisangehörige_Gemeinde"},"district":{"key":"06635","name":"Waldeck-Frankenberg","type":"Landkreis"},"federalState":{"key":"06","name":"Hessen"}},{"name":"Im Heckenfeld","postalCode":"34549","locality":"Edertal","municipality":{"key":"06635009","name":"Edertal, Nationalparkgemeinde","type":"Kreisangehörige_Gemeinde"},"district":{"key":"06635","name":"Waldeck-Frankenberg","type":"Landkreis"},"federalState":{"key":"06","name":"Hessen"}},{"name":"Im Hofe","postalCode":"34549","locality":"Edertal","municipality":{"key":"06635009","name":"Edertal, Nationalparkgemeinde","type":"Kreisangehörige_Gemeinde"},"district":{"key":"06635","name":"Waldeck-Frankenberg","type":"Landkreis"},"federalState":{"key":"06","name":"Hessen"}},{"name":"Im Kesselbachtal","postalCode":"34549","locality":"Edertal","municipality":{"key":"06635009","name":"Edertal, Nationalparkgemeinde","type":"Kreisangehörige_Gemeinde"},"district":{"key":"06635","name":"Waldeck-Frankenberg","type":"Landkreis"},"federalState":{"key":"06","name":"Hessen"}},{"name":"Im Kleegarten","postalCode":"34549","locality":"Edertal","municipality":{"key":"06635009","name":"Edertal, Nationalparkgemeinde","type":"Kreisangehörige_Gemeinde"},"district":{"key":"06635","name":"Waldeck-Frankenberg","type":"Landkreis"},"federalState":{"key":"06","name":"Hessen"}},{"name":"Im Lehmacker","postalCode":"34549","locality":"Edertal","municipality":{"key":"06635009","name":"Edertal, Nationalparkgemeinde","type":"Kreisangehörige_Gemeinde"},"district":{"key":"06635","name":"Waldeck-Frankenberg","type":"Landkreis"},"federalState":{"key":"06","name":"Hessen"}},{"name":"Im Mittelbusch","postalCode":"34549","locality":"Edertal","municipality":{"key":"06635009","name":"Edertal, Nationalparkgemeinde","type":"Kreisangehörige_Gemeinde"},"district":{"key":"06635","name":"Waldeck-Frankenberg","type":"Landkreis"},"federalState":{"key":"06","name":"Hessen"}},{"name":"Im Ranzen","postalCode":"34549","locality":"Edertal","municipality":{"key":"06635009","name":"Edertal, Nationalparkgemeinde","type":"Kreisangehörige_Gemeinde"},"district":{"key":"06635","name":"Waldeck-Frankenberg","type":"Landkreis"},"federalState":{"key":"06","name":"Hessen"}},{"name":"Im Wäschebach","postalCode":"34549","locality":"Edertal","municipality":{"key":"06635009","name":"Edertal, Nationalparkgemeinde","type":"Kreisangehörige_Gemeinde"},"district":{"key":"06635","name":"Waldeck-Frankenberg","type":"Landkreis"},"federalState":{"key":"06","name":"Hessen"}},{"name":"Im Westend","postalCode":"34549","locality":"Edertal","municipality":{"key":"06635009","name":"Edertal, Nationalparkgemeinde","type":"Kreisangehörige_Gemeinde"},"district":{"key":"06635","name":"Waldeck-Frankenberg","type":"Landkreis"},"federalState":{"key":"06","name":"Hessen"}},{"name":"Im Wiesengrunde","postalCode":"34549","locality":"Edertal","municipality":{"key":"06635009","name":"Edertal, Nationalparkgemeinde","type":"Kreisangehörige_Gemeinde"},"district":{"key":"06635","name":"Waldeck-Frankenberg","type":"Landkreis"},"federalState":{"key":"06","name":"Hessen"}},{"name":"In der Else","postalCode":"34549","locality":"Edertal","municipality":{"key":"06635009","name":"Edertal, Nationalparkgemeinde","type":"Kreisangehörige_Gemeinde"},"district":{"key":"06635","name":"Waldeck-Frankenberg","type":"Landkreis"},"federalState":{"key":"06","name":"Hessen"}},{"name":"In der Gasse","postalCode":"34549","locality":"Edertal","municipality":{"key":"06635009","name":"Edertal, Nationalparkgemeinde","type":"Kreisangehörige_Gemeinde"},"district":{"key":"06635","name":"Waldeck-Frankenberg","type":"Landkreis"},"federalState":{"key":"06","name":"Hessen"}},{"name":"In der Lücke","postalCode":"34549","locality":"Edertal","municipality":{"key":"06635009","name":"Edertal, Nationalparkgemeinde","type":"Kreisangehörige_Gemeinde"},"district":{"key":"06635","name":"Waldeck-Frankenberg","type":"Landkreis"},"federalState":{"key":"06","name":"Hessen"}},{"name":"In der Netze","postalCode":"34549","locality":"Edertal","municipality":{"key":"06635009","name":"Edertal, Nationalparkgemeinde","type":"Kreisangehörige_Gemeinde"},"district":{"key":"06635","name":"Waldeck-Frankenberg","type":"Landkreis"},"federalState":{"key":"06","name":"Hessen"}},{"name":"Jugendweg","postalCode":"34549","locality":"Edertal","municipality":{"key":"06635009","name":"Edertal, Nationalparkgemeinde","type":"Kreisangehörige_Gemeinde"},"district":{"key":"06635","name":"Waldeck-Frankenberg","type":"Landkreis"},"federalState":{"key":"06","name":"Hessen"}},{"name":"Karl-Hopf-Str.","postalCode":"34549","locality":"Edertal","municipality":{"key":"06635009","name":"Edertal, Nationalparkgemeinde","type":"Kreisangehörige_Gemeinde"},"district":{"key":"06635","name":"Waldeck-Frankenberg","type":"Landkreis"},"federalState":{"key":"06","name":"Hessen"}},{"name":"Kasseler Str.","postalCode":"34549","locality":"Edertal","municipality":{"key":"06635009","name":"Edertal, Nationalparkgemeinde","type":"Kreisangehörige_Gemeinde"},"district":{"key":"06635","name":"Waldeck-Frankenberg","type":"Landkreis"},"federalState":{"key":"06","name":"Hessen"}},{"name":"Keßbachweg","postalCode":"34549","locality":"Edertal","municipality":{"key":"06635009","name":"Edertal, Nationalparkgemeinde","type":"Kreisangehörige_Gemeinde"},"district":{"key":"06635","name":"Waldeck-Frankenberg","type":"Landkreis"},"federalState":{"key":"06","name":"Hessen"}},{"name":"Kirchplatz","postalCode":"34549","locality":"Edertal","municipality":{"key":"06635009","name":"Edertal, Nationalparkgemeinde","type":"Kreisangehörige_Gemeinde"},"district":{"key":"06635","name":"Waldeck-Frankenberg","type":"Landkreis"},"federalState":{"key":"06","name":"Hessen"}},{"name":"Kirchstr.","postalCode":"34549","locality":"Edertal","municipality":{"key":"06635009","name":"Edertal, Nationalparkgemeinde","type":"Kreisangehörige_Gemeinde"},"district":{"key":"06635","name":"Waldeck-Frankenberg","type":"Landkreis"},"federalState":{"key":"06","name":"Hessen"}},{"name":"Kirschbaumweg","postalCode":"34549","locality":"Edertal","municipality":{"key":"06635009","name":"Edertal, Nationalparkgemeinde","type":"Kreisangehörige_Gemeinde"},"district":{"key":"06635","name":"Waldeck-Frankenberg","type":"Landkreis"},"federalState":{"key":"06","name":"Hessen"}},{"name":"Kirschstr.","postalCode":"34549","locality":"Edertal","municipality":{"key":"06635009","name":"Edertal, Nationalparkgemeinde","type":"Kreisangehörige_Gemeinde"},"district":{"key":"06635","name":"Waldeck-Frankenberg","type":"Landkreis"},"federalState":{"key":"06","name":"Hessen"}},{"name":"Kißweg","postalCode":"34549","locality":"Edertal","municipality":{"key":"06635009","name":"Edertal, Nationalparkgemeinde","type":"Kreisangehörige_Gemeinde"},"district":{"key":"06635","name":"Waldeck-Frankenberg","type":"Landkreis"},"federalState":{"key":"06","name":"Hessen"}},{"name":"Klausbergstr.","postalCode":"34549","locality":"Edertal","municipality":{"key":"06635009","name":"Edertal, Nationalparkgemeinde","type":"Kreisangehörige_Gemeinde"},"district":{"key":"06635","name":"Waldeck-Frankenberg","type":"Landkreis"},"federalState":{"key":"06","name":"Hessen"}},{"name":"Kleeacker","postalCode":"34549","locality":"Edertal","municipality":{"key":"06635009","name":"Edertal, Nationalparkgemeinde","type":"Kreisangehörige_Gemeinde"},"district":{"key":"06635","name":"Waldeck-Frankenberg","type":"Landkreis"},"federalState":{"key":"06","name":"Hessen"}},{"name":"Kleiner Berg","postalCode":"34549","locality":"Edertal","municipality":{"key":"06635009","name":"Edertal, Nationalparkgemeinde","type":"Kreisangehörige_Gemeinde"},"district":{"key":"06635","name":"Waldeck-Frankenberg","type":"Landkreis"},"federalState":{"key":"06","name":"Hessen"}},{"name":"Kleinerner Str.","postalCode":"34549","locality":"Edertal","municipality":{"key":"06635009","name":"Edertal, Nationalparkgemeinde","type":"Kreisangehörige_Gemeinde"},"district":{"key":"06635","name":"Waldeck-Frankenberg","type":"Landkreis"},"federalState":{"key":"06","name":"Hessen"}},{"name":"Knippenberg","postalCode":"34549","locality":"Edertal","municipality":{"key":"06635009","name":"Edertal, Nationalparkgemeinde","type":"Kreisangehörige_Gemeinde"},"district":{"key":"06635","name":"Waldeck-Frankenberg","type":"Landkreis"},"federalState":{"key":"06","name":"Hessen"}},{"name":"Königsberger Str.","postalCode":"34549","locality":"Edertal","municipality":{"key":"06635009","name":"Edertal, Nationalparkgemeinde","type":"Kreisangehörige_Gemeinde"},"district":{"key":"06635","name":"Waldeck-Frankenberg","type":"Landkreis"},"federalState":{"key":"06","name":"Hessen"}},{"name":"Königshagener Str.","postalCode":"34549","locality":"Edertal","municipality":{"key":"06635009","name":"Edertal, Nationalparkgemeinde","type":"Kreisangehörige_Gemeinde"},"district":{"key":"06635","name":"Waldeck-Frankenberg","type":"Landkreis"},"federalState":{"key":"06","name":"Hessen"}},{"name":"Königsstr.","postalCode":"34549","locality":"Edertal","municipality":{"key":"06635009","name":"Edertal, Nationalparkgemeinde","type":"Kreisangehörige_Gemeinde"},"district":{"key":"06635","name":"Waldeck-Frankenberg","type":"Landkreis"},"federalState":{"key":"06","name":"Hessen"}},{"name":"Korbacher Str.","postalCode":"34549","locality":"Edertal","municipality":{"key":"06635009","name":"Edertal, Nationalparkgemeinde","type":"Kreisangehörige_Gemeinde"},"district":{"key":"06635","name":"Waldeck-Frankenberg","type":"Landkreis"},"federalState":{"key":"06","name":"Hessen"}},{"name":"Kornstr.","postalCode":"34549","locality":"Edertal","municipality":{"key":"06635009","name":"Edertal, Nationalparkgemeinde","type":"Kreisangehörige_Gemeinde"},"district":{"key":"06635","name":"Waldeck-Frankenberg","type":"Landkreis"},"federalState":{"key":"06","name":"Hessen"}},{"name":"Kraftwerkstr.","postalCode":"34549","locality":"Edertal","municipality":{"key":"06635009","name":"Edertal, Nationalparkgemeinde","type":"Kreisangehörige_Gemeinde"},"district":{"key":"06635","name":"Waldeck-Frankenberg","type":"Landkreis"},"federalState":{"key":"06","name":"Hessen"}},{"name":"Küferstr.","postalCode":"34549","locality":"Edertal","municipality":{"key":"06635009","name":"Edertal, Nationalparkgemeinde","type":"Kreisangehörige_Gemeinde"},"district":{"key":"06635","name":"Waldeck-Frankenberg","type":"Landkreis"},"federalState":{"key":"06","name":"Hessen"}},{"name":"Kurstr.","postalCode":"34549","locality":"Edertal","municipality":{"key":"06635009","name":"Edertal, Nationalparkgemeinde","type":"Kreisangehörige_Gemeinde"},"district":{"key":"06635","name":"Waldeck-Frankenberg","type":"Landkreis"},"federalState":{"key":"06","name":"Hessen"}},{"name":"Kurzenberg","postalCode":"34549","locality":"Edertal","municipality":{"key":"06635009","name":"Edertal, Nationalparkgemeinde","type":"Kreisangehörige_Gemeinde"},"district":{"key":"06635","name":"Waldeck-Frankenberg","type":"Landkreis"},"federalState":{"key":"06","name":"Hessen"}},{"name":"Lerchenweg","postalCode":"34549","locality":"Edertal","municipality":{"key":"06635009","name":"Edertal, Nationalparkgemeinde","type":"Kreisangehörige_Gemeinde"},"district":{"key":"06635","name":"Waldeck-Frankenberg","type":"Landkreis"},"federalState":{"key":"06","name":"Hessen"}},{"name":"Lieschensruh","postalCode":"34549","locality":"Edertal","municipality":{"key":"06635009","name":"Edertal, Nationalparkgemeinde","type":"Kreisangehörige_Gemeinde"},"district":{"key":"06635","name":"Waldeck-Frankenberg","type":"Landkreis"},"federalState":{"key":"06","name":"Hessen"}},{"name":"Lindenstr.","postalCode":"34549","locality":"Edertal","municipality":{"key":"06635009","name":"Edertal, Nationalparkgemeinde","type":"Kreisangehörige_Gemeinde"},"district":{"key":"06635","name":"Waldeck-Frankenberg","type":"Landkreis"},"federalState":{"key":"06","name":"Hessen"}},{"name":"Littweg","postalCode":"34549","locality":"Edertal","municipality":{"key":"06635009","name":"Edertal, Nationalparkgemeinde","type":"Kreisangehörige_Gemeinde"},"district":{"key":"06635","name":"Waldeck-Frankenberg","type":"Landkreis"},"federalState":{"key":"06","name":"Hessen"}},{"name":"Locheichen-Route","postalCode":"34549","locality":"Edertal","municipality":{"key":"06635009","name":"Edertal, Nationalparkgemeinde","type":"Kreisangehörige_Gemeinde"},"district":{"key":"06635","name":"Waldeck-Frankenberg","type":"Landkreis"},"federalState":{"key":"06","name":"Hessen"}},{"name":"Louisstr.","postalCode":"34549","locality":"Edertal","municipality":{"key":"06635009","name":"Edertal, Nationalparkgemeinde","type":"Kreisangehörige_Gemeinde"},"district":{"key":"06635","name":"Waldeck-Frankenberg","type":"Landkreis"},"federalState":{"key":"06","name":"Hessen"}},{"name":"Mehler Weg","postalCode":"34549","locality":"Edertal","municipality":{"key":"06635009","name":"Edertal, Nationalparkgemeinde","type":"Kreisangehörige_Gemeinde"},"district":{"key":"06635","name":"Waldeck-Frankenberg","type":"Landkreis"},"federalState":{"key":"06","name":"Hessen"}},{"name":"Mittelstr.","postalCode":"34549","locality":"Edertal","municipality":{"key":"06635009","name":"Edertal, Nationalparkgemeinde","type":"Kreisangehörige_Gemeinde"},"district":{"key":"06635","name":"Waldeck-Frankenberg","type":"Landkreis"},"federalState":{"key":"06","name":"Hessen"}},{"name":"Mühlenäckerweg","postalCode":"34549","locality":"Edertal","municipality":{"key":"06635009","name":"Edertal, Nationalparkgemeinde","type":"Kreisangehörige_Gemeinde"},"district":{"key":"06635","name":"Waldeck-Frankenberg","type":"Landkreis"},"federalState":{"key":"06","name":"Hessen"}},{"name":"Mühlenstr.","postalCode":"34549","locality":"Edertal","municipality":{"key":"06635009","name":"Edertal, Nationalparkgemeinde","type":"Kreisangehörige_Gemeinde"},"district":{"key":"06635","name":"Waldeck-Frankenberg","type":"Landkreis"},"federalState":{"key":"06","name":"Hessen"}},{"name":"Naumburger Str.","postalCode":"34549","locality":"Edertal","municipality":{"key":"06635009","name":"Edertal, Nationalparkgemeinde","type":"Kreisangehörige_Gemeinde"},"district":{"key":"06635","name":"Waldeck-Frankenberg","type":"Landkreis"},"federalState":{"key":"06","name":"Hessen"}},{"name":"Naumburger Weg","postalCode":"34549","locality":"Edertal","municipality":{"key":"06635009","name":"Edertal, Nationalparkgemeinde","type":"Kreisangehörige_Gemeinde"},"district":{"key":"06635","name":"Waldeck-Frankenberg","type":"Landkreis"},"federalState":{"key":"06","name":"Hessen"}},{"name":"Nelkenstr.","postalCode":"34549","locality":"Edertal","municipality":{"key":"06635009","name":"Edertal, Nationalparkgemeinde","type":"Kreisangehörige_Gemeinde"},"district":{"key":"06635","name":"Waldeck-Frankenberg","type":"Landkreis"},"federalState":{"key":"06","name":"Hessen"}},{"name":"Netzer Str.","postalCode":"34549","locality":"Edertal","municipality":{"key":"06635009","name":"Edertal, Nationalparkgemeinde","type":"Kreisangehörige_Gemeinde"},"district":{"key":"06635","name":"Waldeck-Frankenberg","type":"Landkreis"},"federalState":{"key":"06","name":"Hessen"}},{"name":"Neue Str.","postalCode":"34549","locality":"Edertal","municipality":{"key":"06635009","name":"Edertal, Nationalparkgemeinde","type":"Kreisangehörige_Gemeinde"},"district":{"key":"06635","name":"Waldeck-Frankenberg","type":"Landkreis"},"federalState":{"key":"06","name":"Hessen"}},{"name":"Nordstr.","postalCode":"34549","locality":"Edertal","municipality":{"key":"06635009","name":"Edertal, Nationalparkgemeinde","type":"Kreisangehörige_Gemeinde"},"district":{"key":"06635","name":"Waldeck-Frankenberg","type":"Landkreis"},"federalState":{"key":"06","name":"Hessen"}},{"name":"Obere Stiegel","postalCode":"34549","locality":"Edertal","municipality":{"key":"06635009","name":"Edertal, Nationalparkgemeinde","type":"Kreisangehörige_Gemeinde"},"district":{"key":"06635","name":"Waldeck-Frankenberg","type":"Landkreis"},"federalState":{"key":"06","name":"Hessen"}},{"name":"Obere Trift","postalCode":"34549","locality":"Edertal","municipality":{"key":"06635009","name":"Edertal, Nationalparkgemeinde","type":"Kreisangehörige_Gemeinde"},"district":{"key":"06635","name":"Waldeck-Frankenberg","type":"Landkreis"},"federalState":{"key":"06","name":"Hessen"}},{"name":"Oberstr.","postalCode":"34549","locality":"Edertal","municipality":{"key":"06635009","name":"Edertal, Nationalparkgemeinde","type":"Kreisangehörige_Gemeinde"},"district":{"key":"06635","name":"Waldeck-Frankenberg","type":"Landkreis"},"federalState":{"key":"06","name":"Hessen"}},{"name":"Peterskopfweg","postalCode":"34549","locality":"Edertal","municipality":{"key":"06635009","name":"Edertal, Nationalparkgemeinde","type":"Kreisangehörige_Gemeinde"},"district":{"key":"06635","name":"Waldeck-Frankenberg","type":"Landkreis"},"federalState":{"key":"06","name":"Hessen"}},{"name":"Pfarräcker","postalCode":"34549","locality":"Edertal","municipality":{"key":"06635009","name":"Edertal, Nationalparkgemeinde","type":"Kreisangehörige_Gemeinde"},"district":{"key":"06635","name":"Waldeck-Frankenberg","type":"Landkreis"},"federalState":{"key":"06","name":"Hessen"}},{"name":"Pfarrgartenstr.","postalCode":"34549","locality":"Edertal","municipality":{"key":"06635009","name":"Edertal, Nationalparkgemeinde","type":"Kreisangehörige_Gemeinde"},"district":{"key":"06635","name":"Waldeck-Frankenberg","type":"Landkreis"},"federalState":{"key":"06","name":"Hessen"}},{"name":"Postweg","postalCode":"34549","locality":"Edertal","municipality":{"key":"06635009","name":"Edertal, Nationalparkgemeinde","type":"Kreisangehörige_Gemeinde"},"district":{"key":"06635","name":"Waldeck-Frankenberg","type":"Landkreis"},"federalState":{"key":"06","name":"Hessen"}},{"name":"Quellenstr.","postalCode":"34549","locality":"Edertal","municipality":{"key":"06635009","name":"Edertal, Nationalparkgemeinde","type":"Kreisangehörige_Gemeinde"},"district":{"key":"06635","name":"Waldeck-Frankenberg","type":"Landkreis"},"federalState":{"key":"06","name":"Hessen"}},{"name":"Querstr.","postalCode":"34549","locality":"Edertal","municipality":{"key":"06635009","name":"Edertal, Nationalparkgemeinde","type":"Kreisangehörige_Gemeinde"},"district":{"key":"06635","name":"Waldeck-Frankenberg","type":"Landkreis"},"federalState":{"key":"06","name":"Hessen"}},{"name":"R 4","postalCode":"34549","locality":"Edertal","municipality":{"key":"06635009","name":"Edertal, Nationalparkgemeinde","type":"Kreisangehörige_Gemeinde"},"district":{"key":"06635","name":"Waldeck-Frankenberg","type":"Landkreis"},"federalState":{"key":"06","name":"Hessen"}},{"name":"Raiffeisenstr.","postalCode":"34549","locality":"Edertal","municipality":{"key":"06635009","name":"Edertal, Nationalparkgemeinde","type":"Kreisangehörige_Gemeinde"},"district":{"key":"06635","name":"Waldeck-Frankenberg","type":"Landkreis"},"federalState":{"key":"06","name":"Hessen"}},{"name":"Rainstr.","postalCode":"34549","locality":"Edertal","municipality":{"key":"06635009","name":"Edertal, Nationalparkgemeinde","type":"Kreisangehörige_Gemeinde"},"district":{"key":"06635","name":"Waldeck-Frankenberg","type":"Landkreis"},"federalState":{"key":"06","name":"Hessen"}},{"name":"Randstr.","postalCode":"34549","locality":"Edertal","municipality":{"key":"06635009","name":"Edertal, Nationalparkgemeinde","type":"Kreisangehörige_Gemeinde"},"district":{"key":"06635","name":"Waldeck-Frankenberg","type":"Landkreis"},"federalState":{"key":"06","name":"Hessen"}},{"name":"Rathausweg","postalCode":"34549","locality":"Edertal","municipality":{"key":"06635009","name":"Edertal, Nationalparkgemeinde","type":"Kreisangehörige_Gemeinde"},"district":{"key":"06635","name":"Waldeck-Frankenberg","type":"Landkreis"},"federalState":{"key":"06","name":"Hessen"}},{"name":"Ratzeburg","postalCode":"34549","locality":"Edertal","municipality":{"key":"06635009","name":"Edertal, Nationalparkgemeinde","type":"Kreisangehörige_Gemeinde"},"district":{"key":"06635","name":"Waldeck-Frankenberg","type":"Landkreis"},"federalState":{"key":"06","name":"Hessen"}},{"name":"Reelingstr.","postalCode":"34549","locality":"Edertal","municipality":{"key":"06635009","name":"Edertal, Nationalparkgemeinde","type":"Kreisangehörige_Gemeinde"},"district":{"key":"06635","name":"Waldeck-Frankenberg","type":"Landkreis"},"federalState":{"key":"06","name":"Hessen"}},{"name":"Reineckeweg","postalCode":"34549","locality":"Edertal","municipality":{"key":"06635009","name":"Edertal, Nationalparkgemeinde","type":"Kreisangehörige_Gemeinde"},"district":{"key":"06635","name":"Waldeck-Frankenberg","type":"Landkreis"},"federalState":{"key":"06","name":"Hessen"}},{"name":"Rentnerpfad","postalCode":"34549","locality":"Edertal","municipality":{"key":"06635009","name":"Edertal, Nationalparkgemeinde","type":"Kreisangehörige_Gemeinde"},"district":{"key":"06635","name":"Waldeck-Frankenberg","type":"Landkreis"},"federalState":{"key":"06","name":"Hessen"}},{"name":"Römer-Weg","postalCode":"34549","locality":"Edertal","municipality":{"key":"06635009","name":"Edertal, Nationalparkgemeinde","type":"Kreisangehörige_Gemeinde"},"district":{"key":"06635","name":"Waldeck-Frankenberg","type":"Landkreis"},"federalState":{"key":"06","name":"Hessen"}},{"name":"Rosenstr.","postalCode":"34549","locality":"Edertal","municipality":{"key":"06635009","name":"Edertal, Nationalparkgemeinde","type":"Kreisangehörige_Gemeinde"},"district":{"key":"06635","name":"Waldeck-Frankenberg","type":"Landkreis"},"federalState":{"key":"06","name":"Hessen"}},{"name":"Rübenhardt","postalCode":"34549","locality":"Edertal","municipality":{"key":"06635009","name":"Edertal, Nationalparkgemeinde","type":"Kreisangehörige_Gemeinde"},"district":{"key":"06635","name":"Waldeck-Frankenberg","type":"Landkreis"},"federalState":{"key":"06","name":"Hessen"}},{"name":"Rundweg","postalCode":"34549","locality":"Edertal","municipality":{"key":"06635009","name":"Edertal, Nationalparkgemeinde","type":"Kreisangehörige_Gemeinde"},"district":{"key":"06635","name":"Waldeck-Frankenberg","type":"Landkreis"},"federalState":{"key":"06","name":"Hessen"}},{"name":"Sandbuschweg","postalCode":"34549","locality":"Edertal","municipality":{"key":"06635009","name":"Edertal, Nationalparkgemeinde","type":"Kreisangehörige_Gemeinde"},"district":{"key":"06635","name":"Waldeck-Frankenberg","type":"Landkreis"},"federalState":{"key":"06","name":"Hessen"}},{"name":"Sängerweg","postalCode":"34549","locality":"Edertal","municipality":{"key":"06635009","name":"Edertal, Nationalparkgemeinde","type":"Kreisangehörige_Gemeinde"},"district":{"key":"06635","name":"Waldeck-Frankenberg","type":"Landkreis"},"federalState":{"key":"06","name":"Hessen"}},{"name":"Schloßblick","postalCode":"34549","locality":"Edertal","municipality":{"key":"06635009","name":"Edertal, Nationalparkgemeinde","type":"Kreisangehörige_Gemeinde"},"district":{"key":"06635","name":"Waldeck-Frankenberg","type":"Landkreis"},"federalState":{"key":"06","name":"Hessen"}},{"name":"Schlosspark Bergheim","postalCode":"34549","locality":"Edertal","municipality":{"key":"06635009","name":"Edertal, Nationalparkgemeinde","type":"Kreisangehörige_Gemeinde"},"district":{"key":"06635","name":"Waldeck-Frankenberg","type":"Landkreis"},"federalState":{"key":"06","name":"Hessen"}},{"name":"Schloßstr.","postalCode":"34549","locality":"Edertal","municipality":{"key":"06635009","name":"Edertal, Nationalparkgemeinde","type":"Kreisangehörige_Gemeinde"},"district":{"key":"06635","name":"Waldeck-Frankenberg","type":"Landkreis"},"federalState":{"key":"06","name":"Hessen"}},{"name":"Schmiedestr.","postalCode":"34549","locality":"Edertal","municipality":{"key":"06635009","name":"Edertal, Nationalparkgemeinde","type":"Kreisangehörige_Gemeinde"},"district":{"key":"06635","name":"Waldeck-Frankenberg","type":"Landkreis"},"federalState":{"key":"06","name":"Hessen"}},{"name":"Schmierseifenweg","postalCode":"34549","locality":"Edertal","municipality":{"key":"06635009","name":"Edertal, Nationalparkgemeinde","type":"Kreisangehörige_Gemeinde"},"district":{"key":"06635","name":"Waldeck-Frankenberg","type":"Landkreis"},"federalState":{"key":"06","name":"Hessen"}},{"name":"Schöne Aussicht","postalCode":"34549","locality":"Edertal","municipality":{"key":"06635009","name":"Edertal, Nationalparkgemeinde","type":"Kreisangehörige_Gemeinde"},"district":{"key":"06635","name":"Waldeck-Frankenberg","type":"Landkreis"},"federalState":{"key":"06","name":"Hessen"}},{"name":"Schulackerweg","postalCode":"34549","locality":"Edertal","municipality":{"key":"06635009","name":"Edertal, Nationalparkgemeinde","type":"Kreisangehörige_Gemeinde"},"district":{"key":"06635","name":"Waldeck-Frankenberg","type":"Landkreis"},"federalState":{"key":"06","name":"Hessen"}},{"name":"Schulstr.","postalCode":"34549","locality":"Edertal","municipality":{"key":"06635009","name":"Edertal, Nationalparkgemeinde","type":"Kreisangehörige_Gemeinde"},"district":{"key":"06635","name":"Waldeck-Frankenberg","type":"Landkreis"},"federalState":{"key":"06","name":"Hessen"}},{"name":"Seestr.","postalCode":"34549","locality":"Edertal","municipality":{"key":"06635009","name":"Edertal, Nationalparkgemeinde","type":"Kreisangehörige_Gemeinde"},"district":{"key":"06635","name":"Waldeck-Frankenberg","type":"Landkreis"},"federalState":{"key":"06","name":"Hessen"}},{"name":"Sengelsbergweg","postalCode":"34549","locality":"Edertal","municipality":{"key":"06635009","name":"Edertal, Nationalparkgemeinde","type":"Kreisangehörige_Gemeinde"},"district":{"key":"06635","name":"Waldeck-Frankenberg","type":"Landkreis"},"federalState":{"key":"06","name":"Hessen"}},{"name":"Siedlung","postalCode":"34549","locality":"Edertal","municipality":{"key":"06635009","name":"Edertal, Nationalparkgemeinde","type":"Kreisangehörige_Gemeinde"},"district":{"key":"06635","name":"Waldeck-Frankenberg","type":"Landkreis"},"federalState":{"key":"06","name":"Hessen"}},{"name":"Sonnenfeldstr.","postalCode":"34549","locality":"Edertal","municipality":{"key":"06635009","name":"Edertal, Nationalparkgemeinde","type":"Kreisangehörige_Gemeinde"},"district":{"key":"06635","name":"Waldeck-Frankenberg","type":"Landkreis"},"federalState":{"key":"06","name":"Hessen"}},{"name":"Sonnenweg","postalCode":"34549","locality":"Edertal","municipality":{"key":"06635009","name":"Edertal, Nationalparkgemeinde","type":"Kreisangehörige_Gemeinde"},"district":{"key":"06635","name":"Waldeck-Frankenberg","type":"Landkreis"},"federalState":{"key":"06","name":"Hessen"}},{"name":"Sperrmauer","postalCode":"34549","locality":"Edertal","municipality":{"key":"06635009","name":"Edertal, Nationalparkgemeinde","type":"Kreisangehörige_Gemeinde"},"district":{"key":"06635","name":"Waldeck-Frankenberg","type":"Landkreis"},"federalState":{"key":"06","name":"Hessen"}},{"name":"Steilpfad","postalCode":"34549","locality":"Edertal","municipality":{"key":"06635009","name":"Edertal, Nationalparkgemeinde","type":"Kreisangehörige_Gemeinde"},"district":{"key":"06635","name":"Waldeck-Frankenberg","type":"Landkreis"},"federalState":{"key":"06","name":"Hessen"}},{"name":"Strandweg","postalCode":"34549","locality":"Edertal","municipality":{"key":"06635009","name":"Edertal, Nationalparkgemeinde","type":"Kreisangehörige_Gemeinde"},"district":{"key":"06635","name":"Waldeck-Frankenberg","type":"Landkreis"},"federalState":{"key":"06","name":"Hessen"}},{"name":"Str. der Begegnung","postalCode":"34549","locality":"Edertal","municipality":{"key":"06635009","name":"Edertal, Nationalparkgemeinde","type":"Kreisangehörige_Gemeinde"},"district":{"key":"06635","name":"Waldeck-Frankenberg","type":"Landkreis"},"federalState":{"key":"06","name":"Hessen"}},{"name":"Südstr.","postalCode":"34549","locality":"Edertal","municipality":{"key":"06635009","name":"Edertal, Nationalparkgemeinde","type":"Kreisangehörige_Gemeinde"},"district":{"key":"06635","name":"Waldeck-Frankenberg","type":"Landkreis"},"federalState":{"key":"06","name":"Hessen"}},{"name":"Talstr.","postalCode":"34549","locality":"Edertal","municipality":{"key":"06635009","name":"Edertal, Nationalparkgemeinde","type":"Kreisangehörige_Gemeinde"},"district":{"key":"06635","name":"Waldeck-Frankenberg","type":"Landkreis"},"federalState":{"key":"06","name":"Hessen"}},{"name":"Tannenstr.","postalCode":"34549","locality":"Edertal","municipality":{"key":"06635009","name":"Edertal, Nationalparkgemeinde","type":"Kreisangehörige_Gemeinde"},"district":{"key":"06635","name":"Waldeck-Frankenberg","type":"Landkreis"},"federalState":{"key":"06","name":"Hessen"}},{"name":"Triftstr.","postalCode":"34549","locality":"Edertal","municipality":{"key":"06635009","name":"Edertal, Nationalparkgemeinde","type":"Kreisangehörige_Gemeinde"},"district":{"key":"06635","name":"Waldeck-Frankenberg","type":"Landkreis"},"federalState":{"key":"06","name":"Hessen"}},{"name":"Tulpenring","postalCode":"34549","locality":"Edertal","municipality":{"key":"06635009","name":"Edertal, Nationalparkgemeinde","type":"Kreisangehörige_Gemeinde"},"district":{"key":"06635","name":"Waldeck-Frankenberg","type":"Landkreis"},"federalState":{"key":"06","name":"Hessen"}},{"name":"Turmstr.","postalCode":"34549","locality":"Edertal","municipality":{"key":"06635009","name":"Edertal, Nationalparkgemeinde","type":"Kreisangehörige_Gemeinde"},"district":{"key":"06635","name":"Waldeck-Frankenberg","type":"Landkreis"},"federalState":{"key":"06","name":"Hessen"}},{"name":"Uferpromenade","postalCode":"34549","locality":"Edertal","municipality":{"key":"06635009","name":"Edertal, Nationalparkgemeinde","type":"Kreisangehörige_Gemeinde"},"district":{"key":"06635","name":"Waldeck-Frankenberg","type":"Landkreis"},"federalState":{"key":"06","name":"Hessen"}},{"name":"Uferstr.","postalCode":"34549","locality":"Edertal","municipality":{"key":"06635009","name":"Edertal, Nationalparkgemeinde","type":"Kreisangehörige_Gemeinde"},"district":{"key":"06635","name":"Waldeck-Frankenberg","type":"Landkreis"},"federalState":{"key":"06","name":"Hessen"}},{"name":"Untere Stiegel","postalCode":"34549","locality":"Edertal","municipality":{"key":"06635009","name":"Edertal, Nationalparkgemeinde","type":"Kreisangehörige_Gemeinde"},"district":{"key":"06635","name":"Waldeck-Frankenberg","type":"Landkreis"},"federalState":{"key":"06","name":"Hessen"}},{"name":"Unterstr.","postalCode":"34549","locality":"Edertal","municipality":{"key":"06635009","name":"Edertal, Nationalparkgemeinde","type":"Kreisangehörige_Gemeinde"},"district":{"key":"06635","name":"Waldeck-Frankenberg","type":"Landkreis"},"federalState":{"key":"06","name":"Hessen"}},{"name":"Violinenstr.","postalCode":"34549","locality":"Edertal","municipality":{"key":"06635009","name":"Edertal, Nationalparkgemeinde","type":"Kreisangehörige_Gemeinde"},"district":{"key":"06635","name":"Waldeck-Frankenberg","type":"Landkreis"},"federalState":{"key":"06","name":"Hessen"}},{"name":"Vor der Haardt","postalCode":"34549","locality":"Edertal","municipality":{"key":"06635009","name":"Edertal, Nationalparkgemeinde","type":"Kreisangehörige_Gemeinde"},"district":{"key":"06635","name":"Waldeck-Frankenberg","type":"Landkreis"},"federalState":{"key":"06","name":"Hessen"}},{"name":"Waldecker Str.","postalCode":"34549","locality":"Edertal","municipality":{"key":"06635009","name":"Edertal, Nationalparkgemeinde","type":"Kreisangehörige_Gemeinde"},"district":{"key":"06635","name":"Waldeck-Frankenberg","type":"Landkreis"},"federalState":{"key":"06","name":"Hessen"}},{"name":"Waldweg","postalCode":"34549","locality":"Edertal","municipality":{"key":"06635009","name":"Edertal, Nationalparkgemeinde","type":"Kreisangehörige_Gemeinde"},"district":{"key":"06635","name":"Waldeck-Frankenberg","type":"Landkreis"},"federalState":{"key":"06","name":"Hessen"}},{"name":"Wegaer Str.","postalCode":"34549","locality":"Edertal","municipality":{"key":"06635009","name":"Edertal, Nationalparkgemeinde","type":"Kreisangehörige_Gemeinde"},"district":{"key":"06635","name":"Waldeck-Frankenberg","type":"Landkreis"},"federalState":{"key":"06","name":"Hessen"}},{"name":"Wehrweg","postalCode":"34549","locality":"Edertal","municipality":{"key":"06635009","name":"Edertal, Nationalparkgemeinde","type":"Kreisangehörige_Gemeinde"},"district":{"key":"06635","name":"Waldeck-Frankenberg","type":"Landkreis"},"federalState":{"key":"06","name":"Hessen"}},{"name":"Weinbergstr.","postalCode":"34549","locality":"Edertal","municipality":{"key":"06635009","name":"Edertal, Nationalparkgemeinde","type":"Kreisangehörige_Gemeinde"},"district":{"key":"06635","name":"Waldeck-Frankenberg","type":"Landkreis"},"federalState":{"key":"06","name":"Hessen"}},{"name":"Weldaweg","postalCode":"34549","locality":"Edertal","municipality":{"key":"06635009","name":"Edertal, Nationalparkgemeinde","type":"Kreisangehörige_Gemeinde"},"district":{"key":"06635","name":"Waldeck-Frankenberg","type":"Landkreis"},"federalState":{"key":"06","name":"Hessen"}},{"name":"Wellener Str.","postalCode":"34549","locality":"Edertal","municipality":{"key":"06635009","name":"Edertal, Nationalparkgemeinde","type":"Kreisangehörige_Gemeinde"},"district":{"key":"06635","name":"Waldeck-Frankenberg","type":"Landkreis"},"federalState":{"key":"06","name":"Hessen"}},{"name":"Wesebachstr.","postalCode":"34549","locality":"Edertal","municipality":{"key":"06635009","name":"Edertal, Nationalparkgemeinde","type":"Kreisangehörige_Gemeinde"},"district":{"key":"06635","name":"Waldeck-Frankenberg","type":"Landkreis"},"federalState":{"key":"06","name":"Hessen"}},{"name":"Wesetalstr.","postalCode":"34549","locality":"Edertal","municipality":{"key":"06635009","name":"Edertal, Nationalparkgemeinde","type":"Kreisangehörige_Gemeinde"},"district":{"key":"06635","name":"Waldeck-Frankenberg","type":"Landkreis"},"federalState":{"key":"06","name":"Hessen"}},{"name":"Westufer","postalCode":"34549","locality":"Edertal","municipality":{"key":"06635009","name":"Edertal, Nationalparkgemeinde","type":"Kreisangehörige_Gemeinde"},"district":{"key":"06635","name":"Waldeck-Frankenberg","type":"Landkreis"},"federalState":{"key":"06","name":"Hessen"}},{"name":"Wiesenweg","postalCode":"34549","locality":"Edertal","municipality":{"key":"06635009","name":"Edertal, Nationalparkgemeinde","type":"Kreisangehörige_Gemeinde"},"district":{"key":"06635","name":"Waldeck-Frankenberg","type":"Landkreis"},"federalState":{"key":"06","name":"Hessen"}},{"name":"Wildunger Str.","postalCode":"34549","locality":"Edertal","municipality":{"key":"06635009","name":"Edertal, Nationalparkgemeinde","type":"Kreisangehörige_Gemeinde"},"district":{"key":"06635","name":"Waldeck-Frankenberg","type":"Landkreis"},"federalState":{"key":"06","name":"Hessen"}},{"name":"Willi-Tillmanns-Weg","postalCode":"34549","locality":"Edertal","municipality":{"key":"06635009","name":"Edertal, Nationalparkgemeinde","type":"Kreisangehörige_Gemeinde"},"district":{"key":"06635","name":"Waldeck-Frankenberg","type":"Landkreis"},"federalState":{"key":"06","name":"Hessen"}},{"name":"Wochenendstr.","postalCode":"34549","locality":"Edertal","municipality":{"key":"06635009","name":"Edertal, Nationalparkgemeinde","type":"Kreisangehörige_Gemeinde"},"district":{"key":"06635","name":"Waldeck-Frankenberg","type":"Landkreis"},"federalState":{"key":"06","name":"Hessen"}},{"name":"Wolfsgasse","postalCode":"34549","locality":"Edertal","municipality":{"key":"06635009","name":"Edertal, Nationalparkgemeinde","type":"Kreisangehörige_Gemeinde"},"district":{"key":"06635","name":"Waldeck-Frankenberg","type":"Landkreis"},"federalState":{"key":"06","name":"Hessen"}},{"name":"X16","postalCode":"34549","locality":"Edertal","municipality":{"key":"06635009","name":"Edertal, Nationalparkgemeinde","type":"Kreisangehörige_Gemeinde"},"district":{"key":"06635","name":"Waldeck-Frankenberg","type":"Landkreis"},"federalState":{"key":"06","name":"Hessen"}},{"name":"Ziegeleiweg","postalCode":"34549","locality":"Edertal","municipality":{"key":"06635009","name":"Edertal, Nationalparkgemeinde","type":"Kreisangehörige_Gemeinde"},"district":{"key":"06635","name":"Waldeck-Frankenberg","type":"Landkreis"},"federalState":{"key":"06","name":"Hessen"}},{"name":"Zu den Siebnacher Eichen","postalCode":"34549","locality":"Edertal","municipality":{"key":"06635009","name":"Edertal, Nationalparkgemeinde","type":"Kreisangehörige_Gemeinde"},"district":{"key":"06635","name":"Waldeck-Frankenberg","type":"Landkreis"},"federalState":{"key":"06","name":"Hessen"}},{"name":"Zum Kahlenberg","postalCode":"34549","locality":"Edertal","municipality":{"key":"06635009","name":"Edertal, Nationalparkgemeinde","type":"Kreisangehörige_Gemeinde"},"district":{"key":"06635","name":"Waldeck-Frankenberg","type":"Landkreis"},"federalState":{"key":"06","name":"Hessen"}},{"name":"Zum Roten Busch","postalCode":"34549","locality":"Edertal","municipality":{"key":"06635009","name":"Edertal, Nationalparkgemeinde","type":"Kreisangehörige_Gemeinde"},"district":{"key":"06635","name":"Waldeck-Frankenberg","type":"Landkreis"},"federalState":{"key":"06","name":"Hessen"}},{"name":"Zum Schützenhaus","postalCode":"34549","locality":"Edertal","municipality":{"key":"06635009","name":"Edertal, Nationalparkgemeinde","type":"Kreisangehörige_Gemeinde"},"district":{"key":"06635","name":"Waldeck-Frankenberg","type":"Landkreis"},"federalState":{"key":"06","name":"Hessen"}},{"name":"Zum Schwarzen Acker","postalCode":"34549","locality":"Edertal","municipality":{"key":"06635009","name":"Edertal, Nationalparkgemeinde","type":"Kreisangehörige_Gemeinde"},"district":{"key":"06635","name":"Waldeck-Frankenberg","type":"Landkreis"},"federalState":{"key":"06","name":"Hessen"}},{"name":"Zum Spichrain","postalCode":"34549","locality":"Edertal","municipality":{"key":"06635009","name":"Edertal, Nationalparkgemeinde","type":"Kreisangehörige_Gemeinde"},"district":{"key":"06635","name":"Waldeck-Frankenberg","type":"Landkreis"},"federalState":{"key":"06","name":"Hessen"}},{"name":"Zum Sportplatz","postalCode":"34549","locality":"Edertal","municipality":{"key":"06635009","name":"Edertal, Nationalparkgemeinde","type":"Kreisangehörige_Gemeinde"},"district":{"key":"06635","name":"Waldeck-Frankenberg","type":"Landkreis"},"federalState":{"key":"06","name":"Hessen"}},{"name":"Zum Steingraben","postalCode":"34549","locality":"Edertal","municipality":{"key":"06635009","name":"Edertal, Nationalparkgemeinde","type":"Kreisangehörige_Gemeinde"},"district":{"key":"06635","name":"Waldeck-Frankenberg","type":"Landkreis"},"federalState":{"key":"06","name":"Hessen"}},{"name":"Zum Wildpark","postalCode":"34549","locality":"Edertal","municipality":{"key":"06635009","name":"Edertal, Nationalparkgemeinde","type":"Kreisangehörige_Gemeinde"},"district":{"key":"06635","name":"Waldeck-Frankenberg","type":"Landkreis"},"federalState":{"key":"06","name":"Hessen"}},{"name":"Zur Hirschkammer","postalCode":"34549","locality":"Edertal","municipality":{"key":"06635009","name":"Edertal, Nationalparkgemeinde","type":"Kreisangehörige_Gemeinde"},"district":{"key":"06635","name":"Waldeck-Frankenberg","type":"Landkreis"},"federalState":{"key":"06","name":"Hessen"}},{"name":"Zur Sperrmauer","postalCode":"34549","locality":"Edertal","municipality":{"key":"06635009","name":"Edertal, Nationalparkgemeinde","type":"Kreisangehörige_Gemeinde"},"district":{"key":"06635","name":"Waldeck-Frankenberg","type":"Landkreis"},"federalState":{"key":"06","name":"Hessen"}},{"name":"Zur Spicke","postalCode":"34549","locality":"Edertal","municipality":{"key":"06635009","name":"Edertal, Nationalparkgemeinde","type":"Kreisangehörige_Gemeinde"},"district":{"key":"06635","name":"Waldeck-Frankenberg","type":"Landkreis"},"federalState":{"key":"06","name":"Hessen"}},{"name":"Züschener Str.","postalCode":"34549","locality":"Edertal","municipality":{"key":"06635009","name":"Edertal, Nationalparkgemeinde","type":"Kreisangehörige_Gemeinde"},"district":{"key":"06635","name":"Waldeck-Frankenberg","type":"Landkreis"},"federalState":{"key":"06","name":"Hessen"}},{"name":"Über dem Heckenfeld","postalCode":"34549","locality":"Edertal","municipality":{"key":"06635009","name":"Edertal, Nationalparkgemeinde","type":"Kreisangehörige_Gemeinde"},"district":{"key":"06635","name":"Waldeck-Frankenberg","type":"Landkreis"},"federalState":{"key":"06","name":"Hessen"}},]