[{"name":"Adamswalder Weg","postalCode":"16831","locality":"Rheinsberg","municipality":{"key":"12068353","name":"Rheinsberg, Stadt","type":"Stadt"},"district":{"key":"12068","name":"Ostprignitz-Ruppin","type":"Landkreis"},"federalState":{"key":"12","name":"Brandenburg"}},{"name":"Ahornweg","postalCode":"16831","locality":"Rheinsberg","municipality":{"key":"12068353","name":"Rheinsberg, Stadt","type":"Stadt"},"district":{"key":"12068","name":"Ostprignitz-Ruppin","type":"Landkreis"},"federalState":{"key":"12","name":"Brandenburg"}},{"name":"Alter Bahndamm","postalCode":"16831","locality":"Rheinsberg","municipality":{"key":"12068353","name":"Rheinsberg, Stadt","type":"Stadt"},"district":{"key":"12068","name":"Ostprignitz-Ruppin","type":"Landkreis"},"federalState":{"key":"12","name":"Brandenburg"}},{"name":"Am Backhaus","postalCode":"16837","locality":"Rheinsberg","municipality":{"key":"12068353","name":"Rheinsberg, Stadt","type":"Stadt"},"district":{"key":"12068","name":"Ostprignitz-Ruppin","type":"Landkreis"},"federalState":{"key":"12","name":"Brandenburg"}},{"name":"Am Bikowsee","postalCode":"16831","locality":"Rheinsberg","municipality":{"key":"12068353","name":"Rheinsberg, Stadt","type":"Stadt"},"district":{"key":"12068","name":"Ostprignitz-Ruppin","type":"Landkreis"},"federalState":{"key":"12","name":"Brandenburg"}},{"name":"Am Braminsee","postalCode":"16837","locality":"Rheinsberg","municipality":{"key":"12068353","name":"Rheinsberg, Stadt","type":"Stadt"},"district":{"key":"12068","name":"Ostprignitz-Ruppin","type":"Landkreis"},"federalState":{"key":"12","name":"Brandenburg"}},{"name":"Am Hain","postalCode":"16831","locality":"Rheinsberg","municipality":{"key":"12068353","name":"Rheinsberg, Stadt","type":"Stadt"},"district":{"key":"12068","name":"Ostprignitz-Ruppin","type":"Landkreis"},"federalState":{"key":"12","name":"Brandenburg"}},{"name":"Am Hasensteig","postalCode":"16837","locality":"Rheinsberg","municipality":{"key":"12068353","name":"Rheinsberg, Stadt","type":"Stadt"},"district":{"key":"12068","name":"Ostprignitz-Ruppin","type":"Landkreis"},"federalState":{"key":"12","name":"Brandenburg"}},{"name":"Am Hellsee","postalCode":"16831","locality":"Rheinsberg","municipality":{"key":"12068353","name":"Rheinsberg, Stadt","type":"Stadt"},"district":{"key":"12068","name":"Ostprignitz-Ruppin","type":"Landkreis"},"federalState":{"key":"12","name":"Brandenburg"}},{"name":"Am Jagowkanal","postalCode":"16831","locality":"Rheinsberg","municipality":{"key":"12068353","name":"Rheinsberg, Stadt","type":"Stadt"},"district":{"key":"12068","name":"Ostprignitz-Ruppin","type":"Landkreis"},"federalState":{"key":"12","name":"Brandenburg"}},{"name":"Am Kagarsee","postalCode":"16837","locality":"Rheinsberg","municipality":{"key":"12068353","name":"Rheinsberg, Stadt","type":"Stadt"},"district":{"key":"12068","name":"Ostprignitz-Ruppin","type":"Landkreis"},"federalState":{"key":"12","name":"Brandenburg"}},{"name":"Am Kunkelberg","postalCode":"16837","locality":"Rheinsberg","municipality":{"key":"12068353","name":"Rheinsberg, Stadt","type":"Stadt"},"district":{"key":"12068","name":"Ostprignitz-Ruppin","type":"Landkreis"},"federalState":{"key":"12","name":"Brandenburg"}},{"name":"Am Langen Luch","postalCode":"16831","locality":"Rheinsberg","municipality":{"key":"12068353","name":"Rheinsberg, Stadt","type":"Stadt"},"district":{"key":"12068","name":"Ostprignitz-Ruppin","type":"Landkreis"},"federalState":{"key":"12","name":"Brandenburg"}},{"name":"Am Lüttchen Luch","postalCode":"16831","locality":"Rheinsberg","municipality":{"key":"12068353","name":"Rheinsberg, Stadt","type":"Stadt"},"district":{"key":"12068","name":"Ostprignitz-Ruppin","type":"Landkreis"},"federalState":{"key":"12","name":"Brandenburg"}},{"name":"Am Markt","postalCode":"16837","locality":"Rheinsberg","municipality":{"key":"12068353","name":"Rheinsberg, Stadt","type":"Stadt"},"district":{"key":"12068","name":"Ostprignitz-Ruppin","type":"Landkreis"},"federalState":{"key":"12","name":"Brandenburg"}},{"name":"Am Mühlenbach","postalCode":"16831","locality":"Rheinsberg","municipality":{"key":"12068353","name":"Rheinsberg, Stadt","type":"Stadt"},"district":{"key":"12068","name":"Ostprignitz-Ruppin","type":"Landkreis"},"federalState":{"key":"12","name":"Brandenburg"}},{"name":"Am Mühlenberg","postalCode":"16831","locality":"Rheinsberg","municipality":{"key":"12068353","name":"Rheinsberg, Stadt","type":"Stadt"},"district":{"key":"12068","name":"Ostprignitz-Ruppin","type":"Landkreis"},"federalState":{"key":"12","name":"Brandenburg"}},{"name":"Am Mühlenteich","postalCode":"16837","locality":"Rheinsberg","municipality":{"key":"12068353","name":"Rheinsberg, Stadt","type":"Stadt"},"district":{"key":"12068","name":"Ostprignitz-Ruppin","type":"Landkreis"},"federalState":{"key":"12","name":"Brandenburg"}},{"name":"Am Nehmitz-See","postalCode":"16831","locality":"Rheinsberg","municipality":{"key":"12068353","name":"Rheinsberg, Stadt","type":"Stadt"},"district":{"key":"12068","name":"Ostprignitz-Ruppin","type":"Landkreis"},"federalState":{"key":"12","name":"Brandenburg"}},{"name":"Am Rochowsee","postalCode":"16837","locality":"Rheinsberg","municipality":{"key":"12068353","name":"Rheinsberg, Stadt","type":"Stadt"},"district":{"key":"12068","name":"Ostprignitz-Ruppin","type":"Landkreis"},"federalState":{"key":"12","name":"Brandenburg"}},{"name":"Am See","postalCode":"16831","locality":"Rheinsberg","municipality":{"key":"12068353","name":"Rheinsberg, Stadt","type":"Stadt"},"district":{"key":"12068","name":"Ostprignitz-Ruppin","type":"Landkreis"},"federalState":{"key":"12","name":"Brandenburg"}},{"name":"Am Seeufer","postalCode":"16837","locality":"Rheinsberg","municipality":{"key":"12068353","name":"Rheinsberg, Stadt","type":"Stadt"},"district":{"key":"12068","name":"Ostprignitz-Ruppin","type":"Landkreis"},"federalState":{"key":"12","name":"Brandenburg"}},{"name":"Amselweg","postalCode":"16831","locality":"Rheinsberg","municipality":{"key":"12068353","name":"Rheinsberg, Stadt","type":"Stadt"},"district":{"key":"12068","name":"Ostprignitz-Ruppin","type":"Landkreis"},"federalState":{"key":"12","name":"Brandenburg"}},{"name":"Am Sonnenberg","postalCode":"16837","locality":"Rheinsberg","municipality":{"key":"12068353","name":"Rheinsberg, Stadt","type":"Stadt"},"district":{"key":"12068","name":"Ostprignitz-Ruppin","type":"Landkreis"},"federalState":{"key":"12","name":"Brandenburg"}},{"name":"Am Stadion","postalCode":"16831","locality":"Rheinsberg","municipality":{"key":"12068353","name":"Rheinsberg, Stadt","type":"Stadt"},"district":{"key":"12068","name":"Ostprignitz-Ruppin","type":"Landkreis"},"federalState":{"key":"12","name":"Brandenburg"}},{"name":"Am Südhang","postalCode":"16831","locality":"Rheinsberg","municipality":{"key":"12068353","name":"Rheinsberg, Stadt","type":"Stadt"},"district":{"key":"12068","name":"Ostprignitz-Ruppin","type":"Landkreis"},"federalState":{"key":"12","name":"Brandenburg"}},{"name":"Amtstr.","postalCode":"16837","locality":"Rheinsberg","municipality":{"key":"12068353","name":"Rheinsberg, Stadt","type":"Stadt"},"district":{"key":"12068","name":"Ostprignitz-Ruppin","type":"Landkreis"},"federalState":{"key":"12","name":"Brandenburg"}},{"name":"Am Uhlenberg","postalCode":"16831","locality":"Rheinsberg","municipality":{"key":"12068353","name":"Rheinsberg, Stadt","type":"Stadt"},"district":{"key":"12068","name":"Ostprignitz-Ruppin","type":"Landkreis"},"federalState":{"key":"12","name":"Brandenburg"}},{"name":"Am Wald","postalCode":"16831","locality":"Rheinsberg","municipality":{"key":"12068353","name":"Rheinsberg, Stadt","type":"Stadt"},"district":{"key":"12068","name":"Ostprignitz-Ruppin","type":"Landkreis"},"federalState":{"key":"12","name":"Brandenburg"}},{"name":"Am Zootzen","postalCode":"16831","locality":"Rheinsberg","municipality":{"key":"12068353","name":"Rheinsberg, Stadt","type":"Stadt"},"district":{"key":"12068","name":"Ostprignitz-Ruppin","type":"Landkreis"},"federalState":{"key":"12","name":"Brandenburg"}},{"name":"An den Rhingärten","postalCode":"16831","locality":"Rheinsberg","municipality":{"key":"12068353","name":"Rheinsberg, Stadt","type":"Stadt"},"district":{"key":"12068","name":"Ostprignitz-Ruppin","type":"Landkreis"},"federalState":{"key":"12","name":"Brandenburg"}},{"name":"An den Wiesen","postalCode":"16831","locality":"Rheinsberg","municipality":{"key":"12068353","name":"Rheinsberg, Stadt","type":"Stadt"},"district":{"key":"12068","name":"Ostprignitz-Ruppin","type":"Landkreis"},"federalState":{"key":"12","name":"Brandenburg"}},{"name":"An der alten Pferdebahn","postalCode":"16831","locality":"Rheinsberg","municipality":{"key":"12068353","name":"Rheinsberg, Stadt","type":"Stadt"},"district":{"key":"12068","name":"Ostprignitz-Ruppin","type":"Landkreis"},"federalState":{"key":"12","name":"Brandenburg"}},{"name":"An der Junkerheide","postalCode":"16831","locality":"Rheinsberg","municipality":{"key":"12068353","name":"Rheinsberg, Stadt","type":"Stadt"},"district":{"key":"12068","name":"Ostprignitz-Ruppin","type":"Landkreis"},"federalState":{"key":"12","name":"Brandenburg"}},{"name":"An der Kirchenheide","postalCode":"16831","locality":"Rheinsberg","municipality":{"key":"12068353","name":"Rheinsberg, Stadt","type":"Stadt"},"district":{"key":"12068","name":"Ostprignitz-Ruppin","type":"Landkreis"},"federalState":{"key":"12","name":"Brandenburg"}},{"name":"Anger","postalCode":"16837","locality":"Rheinsberg","municipality":{"key":"12068353","name":"Rheinsberg, Stadt","type":"Stadt"},"district":{"key":"12068","name":"Ostprignitz-Ruppin","type":"Landkreis"},"federalState":{"key":"12","name":"Brandenburg"}},{"name":"Ascheberger Str.","postalCode":"16831","locality":"Rheinsberg","municipality":{"key":"12068353","name":"Rheinsberg, Stadt","type":"Stadt"},"district":{"key":"12068","name":"Ostprignitz-Ruppin","type":"Landkreis"},"federalState":{"key":"12","name":"Brandenburg"}},{"name":"August-Bebel-Platz","postalCode":"16831","locality":"Rheinsberg","municipality":{"key":"12068353","name":"Rheinsberg, Stadt","type":"Stadt"},"district":{"key":"12068","name":"Ostprignitz-Ruppin","type":"Landkreis"},"federalState":{"key":"12","name":"Brandenburg"}},{"name":"Auguststr.","postalCode":"16831","locality":"Rheinsberg","municipality":{"key":"12068353","name":"Rheinsberg, Stadt","type":"Stadt"},"district":{"key":"12068","name":"Ostprignitz-Ruppin","type":"Landkreis"},"federalState":{"key":"12","name":"Brandenburg"}},{"name":"Ausbau Dorf Zechlin","postalCode":"16837","locality":"Rheinsberg","municipality":{"key":"12068353","name":"Rheinsberg, Stadt","type":"Stadt"},"district":{"key":"12068","name":"Ostprignitz-Ruppin","type":"Landkreis"},"federalState":{"key":"12","name":"Brandenburg"}},{"name":"Ausbau Wallitz","postalCode":"16837","locality":"Rheinsberg","municipality":{"key":"12068353","name":"Rheinsberg, Stadt","type":"Stadt"},"district":{"key":"12068","name":"Ostprignitz-Ruppin","type":"Landkreis"},"federalState":{"key":"12","name":"Brandenburg"}},{"name":"Bahnhofstr.","postalCode":"16837","locality":"Rheinsberg","municipality":{"key":"12068353","name":"Rheinsberg, Stadt","type":"Stadt"},"district":{"key":"12068","name":"Ostprignitz-Ruppin","type":"Landkreis"},"federalState":{"key":"12","name":"Brandenburg"}},{"name":"Banzendorfer Weg","postalCode":"16835","locality":"Rheinsberg","municipality":{"key":"12068353","name":"Rheinsberg, Stadt","type":"Stadt"},"district":{"key":"12068","name":"Ostprignitz-Ruppin","type":"Landkreis"},"federalState":{"key":"12","name":"Brandenburg"}},{"name":"Beerenbuscher Damm","postalCode":"16831","locality":"Rheinsberg","municipality":{"key":"12068353","name":"Rheinsberg, Stadt","type":"Stadt"},"district":{"key":"12068","name":"Ostprignitz-Ruppin","type":"Landkreis"},"federalState":{"key":"12","name":"Brandenburg"}},{"name":"Beerenbuscher Steig","postalCode":"16831","locality":"Rheinsberg","municipality":{"key":"12068353","name":"Rheinsberg, Stadt","type":"Stadt"},"district":{"key":"12068","name":"Ostprignitz-Ruppin","type":"Landkreis"},"federalState":{"key":"12","name":"Brandenburg"}},{"name":"Bergstr.","postalCode":"16831","locality":"Rheinsberg","municipality":{"key":"12068353","name":"Rheinsberg, Stadt","type":"Stadt"},"district":{"key":"12068","name":"Ostprignitz-Ruppin","type":"Landkreis"},"federalState":{"key":"12","name":"Brandenburg"}},{"name":"Berliner Str.","postalCode":"16831","locality":"Rheinsberg","municipality":{"key":"12068353","name":"Rheinsberg, Stadt","type":"Stadt"},"district":{"key":"12068","name":"Ostprignitz-Ruppin","type":"Landkreis"},"federalState":{"key":"12","name":"Brandenburg"}},{"name":"Billardbrücke","postalCode":"16831","locality":"Rheinsberg","municipality":{"key":"12068353","name":"Rheinsberg, Stadt","type":"Stadt"},"district":{"key":"12068","name":"Ostprignitz-Ruppin","type":"Landkreis"},"federalState":{"key":"12","name":"Brandenburg"}},{"name":"Binenwalder Str.","postalCode":"16818","locality":"Rheinsberg","municipality":{"key":"12068353","name":"Rheinsberg, Stadt","type":"Stadt"},"district":{"key":"12068","name":"Ostprignitz-Ruppin","type":"Landkreis"},"federalState":{"key":"12","name":"Brandenburg"}},{"name":"Birkenweg","postalCode":"16831","locality":"Rheinsberg","municipality":{"key":"12068353","name":"Rheinsberg, Stadt","type":"Stadt"},"district":{"key":"12068","name":"Ostprignitz-Ruppin","type":"Landkreis"},"federalState":{"key":"12","name":"Brandenburg"}},{"name":"Birkenweg","postalCode":"16837","locality":"Rheinsberg","municipality":{"key":"12068353","name":"Rheinsberg, Stadt","type":"Stadt"},"district":{"key":"12068","name":"Ostprignitz-Ruppin","type":"Landkreis"},"federalState":{"key":"12","name":"Brandenburg"}},{"name":"Bogenstr.","postalCode":"16831","locality":"Rheinsberg","municipality":{"key":"12068353","name":"Rheinsberg, Stadt","type":"Stadt"},"district":{"key":"12068","name":"Ostprignitz-Ruppin","type":"Landkreis"},"federalState":{"key":"12","name":"Brandenburg"}},{"name":"Braminberg","postalCode":"16837","locality":"Rheinsberg","municipality":{"key":"12068353","name":"Rheinsberg, Stadt","type":"Stadt"},"district":{"key":"12068","name":"Ostprignitz-Ruppin","type":"Landkreis"},"federalState":{"key":"12","name":"Brandenburg"}},{"name":"Braunsberger Chaussee","postalCode":"16831","locality":"Rheinsberg","municipality":{"key":"12068353","name":"Rheinsberg, Stadt","type":"Stadt"},"district":{"key":"12068","name":"Ostprignitz-Ruppin","type":"Landkreis"},"federalState":{"key":"12","name":"Brandenburg"}},{"name":"Braunsberger Str.","postalCode":"16818","locality":"Rheinsberg","municipality":{"key":"12068353","name":"Rheinsberg, Stadt","type":"Stadt"},"district":{"key":"12068","name":"Ostprignitz-Ruppin","type":"Landkreis"},"federalState":{"key":"12","name":"Brandenburg"}},{"name":"Braunsberger Str.","postalCode":"16831","locality":"Rheinsberg","municipality":{"key":"12068353","name":"Rheinsberg, Stadt","type":"Stadt"},"district":{"key":"12068","name":"Ostprignitz-Ruppin","type":"Landkreis"},"federalState":{"key":"12","name":"Brandenburg"}},{"name":"Briesen","postalCode":"16831","locality":"Rheinsberg","municipality":{"key":"12068353","name":"Rheinsberg, Stadt","type":"Stadt"},"district":{"key":"12068","name":"Ostprignitz-Ruppin","type":"Landkreis"},"federalState":{"key":"12","name":"Brandenburg"}},{"name":"Brückenstr.","postalCode":"16831","locality":"Rheinsberg","municipality":{"key":"12068353","name":"Rheinsberg, Stadt","type":"Stadt"},"district":{"key":"12068","name":"Ostprignitz-Ruppin","type":"Landkreis"},"federalState":{"key":"12","name":"Brandenburg"}},{"name":"Buchenweg","postalCode":"16831","locality":"Rheinsberg","municipality":{"key":"12068353","name":"Rheinsberg, Stadt","type":"Stadt"},"district":{"key":"12068","name":"Ostprignitz-Ruppin","type":"Landkreis"},"federalState":{"key":"12","name":"Brandenburg"}},{"name":"Buchheide","postalCode":"16837","locality":"Rheinsberg","municipality":{"key":"12068353","name":"Rheinsberg, Stadt","type":"Stadt"},"district":{"key":"12068","name":"Ostprignitz-Ruppin","type":"Landkreis"},"federalState":{"key":"12","name":"Brandenburg"}},{"name":"Buchholzer Weg","postalCode":"16837","locality":"Rheinsberg","municipality":{"key":"12068353","name":"Rheinsberg, Stadt","type":"Stadt"},"district":{"key":"12068","name":"Ostprignitz-Ruppin","type":"Landkreis"},"federalState":{"key":"12","name":"Brandenburg"}},{"name":"Buttersteig","postalCode":"16831","locality":"Rheinsberg","municipality":{"key":"12068353","name":"Rheinsberg, Stadt","type":"Stadt"},"district":{"key":"12068","name":"Ostprignitz-Ruppin","type":"Landkreis"},"federalState":{"key":"12","name":"Brandenburg"}},{"name":"Canower Str.","postalCode":"16831","locality":"Rheinsberg","municipality":{"key":"12068353","name":"Rheinsberg, Stadt","type":"Stadt"},"district":{"key":"12068","name":"Ostprignitz-Ruppin","type":"Landkreis"},"federalState":{"key":"12","name":"Brandenburg"}},{"name":"Charlottenau","postalCode":"16831","locality":"Rheinsberg","municipality":{"key":"12068353","name":"Rheinsberg, Stadt","type":"Stadt"},"district":{"key":"12068","name":"Ostprignitz-Ruppin","type":"Landkreis"},"federalState":{"key":"12","name":"Brandenburg"}},{"name":"Chausseestr.","postalCode":"16831","locality":"Rheinsberg","municipality":{"key":"12068353","name":"Rheinsberg, Stadt","type":"Stadt"},"district":{"key":"12068","name":"Ostprignitz-Ruppin","type":"Landkreis"},"federalState":{"key":"12","name":"Brandenburg"}},{"name":"Christian-Cartsens-senior-Weg","postalCode":"16831","locality":"Rheinsberg","municipality":{"key":"12068353","name":"Rheinsberg, Stadt","type":"Stadt"},"district":{"key":"12068","name":"Ostprignitz-Ruppin","type":"Landkreis"},"federalState":{"key":"12","name":"Brandenburg"}},{"name":"Damaschkeweg","postalCode":"16831","locality":"Rheinsberg","municipality":{"key":"12068353","name":"Rheinsberg, Stadt","type":"Stadt"},"district":{"key":"12068","name":"Ostprignitz-Ruppin","type":"Landkreis"},"federalState":{"key":"12","name":"Brandenburg"}},{"name":"Dierberger Chaussee","postalCode":"16835","locality":"Rheinsberg","municipality":{"key":"12068353","name":"Rheinsberg, Stadt","type":"Stadt"},"district":{"key":"12068","name":"Ostprignitz-Ruppin","type":"Landkreis"},"federalState":{"key":"12","name":"Brandenburg"}},{"name":"Dierberger Dorfstr.","postalCode":"16835","locality":"Rheinsberg","municipality":{"key":"12068353","name":"Rheinsberg, Stadt","type":"Stadt"},"district":{"key":"12068","name":"Ostprignitz-Ruppin","type":"Landkreis"},"federalState":{"key":"12","name":"Brandenburg"}},{"name":"Dollgower Weg","postalCode":"16831","locality":"Rheinsberg","municipality":{"key":"12068353","name":"Rheinsberg, Stadt","type":"Stadt"},"district":{"key":"12068","name":"Ostprignitz-Ruppin","type":"Landkreis"},"federalState":{"key":"12","name":"Brandenburg"}},{"name":"Dorfstr.","postalCode":"16818","locality":"Rheinsberg","municipality":{"key":"12068353","name":"Rheinsberg, Stadt","type":"Stadt"},"district":{"key":"12068","name":"Ostprignitz-Ruppin","type":"Landkreis"},"federalState":{"key":"12","name":"Brandenburg"}},{"name":"Dorfstr.","postalCode":"16831","locality":"Rheinsberg","municipality":{"key":"12068353","name":"Rheinsberg, Stadt","type":"Stadt"},"district":{"key":"12068","name":"Ostprignitz-Ruppin","type":"Landkreis"},"federalState":{"key":"12","name":"Brandenburg"}},{"name":"Dorfstr.","postalCode":"16837","locality":"Rheinsberg","municipality":{"key":"12068353","name":"Rheinsberg, Stadt","type":"Stadt"},"district":{"key":"12068","name":"Ostprignitz-Ruppin","type":"Landkreis"},"federalState":{"key":"12","name":"Brandenburg"}},{"name":"Dranser Str.","postalCode":"16837","locality":"Rheinsberg","municipality":{"key":"12068353","name":"Rheinsberg, Stadt","type":"Stadt"},"district":{"key":"12068","name":"Ostprignitz-Ruppin","type":"Landkreis"},"federalState":{"key":"12","name":"Brandenburg"}},{"name":"Dr.-Martin-Henning-Str.","postalCode":"16831","locality":"Rheinsberg","municipality":{"key":"12068353","name":"Rheinsberg, Stadt","type":"Stadt"},"district":{"key":"12068","name":"Ostprignitz-Ruppin","type":"Landkreis"},"federalState":{"key":"12","name":"Brandenburg"}},{"name":"Drosselweg","postalCode":"16831","locality":"Rheinsberg","municipality":{"key":"12068353","name":"Rheinsberg, Stadt","type":"Stadt"},"district":{"key":"12068","name":"Ostprignitz-Ruppin","type":"Landkreis"},"federalState":{"key":"12","name":"Brandenburg"}},{"name":"Dubnastr.","postalCode":"16831","locality":"Rheinsberg","municipality":{"key":"12068353","name":"Rheinsberg, Stadt","type":"Stadt"},"district":{"key":"12068","name":"Ostprignitz-Ruppin","type":"Landkreis"},"federalState":{"key":"12","name":"Brandenburg"}},{"name":"Eschenweg","postalCode":"16831","locality":"Rheinsberg","municipality":{"key":"12068353","name":"Rheinsberg, Stadt","type":"Stadt"},"district":{"key":"12068","name":"Ostprignitz-Ruppin","type":"Landkreis"},"federalState":{"key":"12","name":"Brandenburg"}},{"name":"Feldmark","postalCode":"16831","locality":"Rheinsberg","municipality":{"key":"12068353","name":"Rheinsberg, Stadt","type":"Stadt"},"district":{"key":"12068","name":"Ostprignitz-Ruppin","type":"Landkreis"},"federalState":{"key":"12","name":"Brandenburg"}},{"name":"Feldstr.","postalCode":"16831","locality":"Rheinsberg","municipality":{"key":"12068353","name":"Rheinsberg, Stadt","type":"Stadt"},"district":{"key":"12068","name":"Ostprignitz-Ruppin","type":"Landkreis"},"federalState":{"key":"12","name":"Brandenburg"}},{"name":"Feldweg","postalCode":"16837","locality":"Rheinsberg","municipality":{"key":"12068353","name":"Rheinsberg, Stadt","type":"Stadt"},"district":{"key":"12068","name":"Ostprignitz-Ruppin","type":"Landkreis"},"federalState":{"key":"12","name":"Brandenburg"}},{"name":"Fontaneplatz","postalCode":"16831","locality":"Rheinsberg","municipality":{"key":"12068353","name":"Rheinsberg, Stadt","type":"Stadt"},"district":{"key":"12068","name":"Ostprignitz-Ruppin","type":"Landkreis"},"federalState":{"key":"12","name":"Brandenburg"}},{"name":"Fontanepromenade","postalCode":"16831","locality":"Rheinsberg","municipality":{"key":"12068353","name":"Rheinsberg, Stadt","type":"Stadt"},"district":{"key":"12068","name":"Ostprignitz-Ruppin","type":"Landkreis"},"federalState":{"key":"12","name":"Brandenburg"}},{"name":"Försterei Berkholzofen","postalCode":"16831","locality":"Rheinsberg","municipality":{"key":"12068353","name":"Rheinsberg, Stadt","type":"Stadt"},"district":{"key":"12068","name":"Ostprignitz-Ruppin","type":"Landkreis"},"federalState":{"key":"12","name":"Brandenburg"}},{"name":"Friedensstr.","postalCode":"16837","locality":"Rheinsberg","municipality":{"key":"12068353","name":"Rheinsberg, Stadt","type":"Stadt"},"district":{"key":"12068","name":"Ostprignitz-Ruppin","type":"Landkreis"},"federalState":{"key":"12","name":"Brandenburg"}},{"name":"Fuchs","postalCode":"16831","locality":"Rheinsberg","municipality":{"key":"12068353","name":"Rheinsberg, Stadt","type":"Stadt"},"district":{"key":"12068","name":"Ostprignitz-Ruppin","type":"Landkreis"},"federalState":{"key":"12","name":"Brandenburg"}},{"name":"Gadower Landstr.","postalCode":"16818","locality":"Rheinsberg","municipality":{"key":"12068353","name":"Rheinsberg, Stadt","type":"Stadt"},"district":{"key":"12068","name":"Ostprignitz-Ruppin","type":"Landkreis"},"federalState":{"key":"12","name":"Brandenburg"}},{"name":"Gadower Str.","postalCode":"16837","locality":"Rheinsberg","municipality":{"key":"12068353","name":"Rheinsberg, Stadt","type":"Stadt"},"district":{"key":"12068","name":"Ostprignitz-Ruppin","type":"Landkreis"},"federalState":{"key":"12","name":"Brandenburg"}},{"name":"Gartenstr.","postalCode":"16837","locality":"Rheinsberg","municipality":{"key":"12068353","name":"Rheinsberg, Stadt","type":"Stadt"},"district":{"key":"12068","name":"Ostprignitz-Ruppin","type":"Landkreis"},"federalState":{"key":"12","name":"Brandenburg"}},{"name":"Generalsweg","postalCode":"16837","locality":"Rheinsberg","municipality":{"key":"12068353","name":"Rheinsberg, Stadt","type":"Stadt"},"district":{"key":"12068","name":"Ostprignitz-Ruppin","type":"Landkreis"},"federalState":{"key":"12","name":"Brandenburg"}},{"name":"Gewerbering","postalCode":"16831","locality":"Rheinsberg","municipality":{"key":"12068353","name":"Rheinsberg, Stadt","type":"Stadt"},"district":{"key":"12068","name":"Ostprignitz-Ruppin","type":"Landkreis"},"federalState":{"key":"12","name":"Brandenburg"}},{"name":"Grävenitzstr.","postalCode":"16837","locality":"Rheinsberg","municipality":{"key":"12068353","name":"Rheinsberg, Stadt","type":"Stadt"},"district":{"key":"12068","name":"Ostprignitz-Ruppin","type":"Landkreis"},"federalState":{"key":"12","name":"Brandenburg"}},{"name":"Grenzweg","postalCode":"16818","locality":"Rheinsberg","municipality":{"key":"12068353","name":"Rheinsberg, Stadt","type":"Stadt"},"district":{"key":"12068","name":"Ostprignitz-Ruppin","type":"Landkreis"},"federalState":{"key":"12","name":"Brandenburg"}},{"name":"Großer Damm","postalCode":"16831","locality":"Rheinsberg","municipality":{"key":"12068353","name":"Rheinsberg, Stadt","type":"Stadt"},"district":{"key":"12068","name":"Ostprignitz-Ruppin","type":"Landkreis"},"federalState":{"key":"12","name":"Brandenburg"}},{"name":"Hase","postalCode":"16831","locality":"Rheinsberg","municipality":{"key":"12068353","name":"Rheinsberg, Stadt","type":"Stadt"},"district":{"key":"12068","name":"Ostprignitz-Ruppin","type":"Landkreis"},"federalState":{"key":"12","name":"Brandenburg"}},{"name":"Hase / Fuchs","postalCode":"16831","locality":"Rheinsberg","municipality":{"key":"12068353","name":"Rheinsberg, Stadt","type":"Stadt"},"district":{"key":"12068","name":"Ostprignitz-Ruppin","type":"Landkreis"},"federalState":{"key":"12","name":"Brandenburg"}},{"name":"Heerweg","postalCode":"16835","locality":"Rheinsberg","municipality":{"key":"12068353","name":"Rheinsberg, Stadt","type":"Stadt"},"district":{"key":"12068","name":"Ostprignitz-Ruppin","type":"Landkreis"},"federalState":{"key":"12","name":"Brandenburg"}},{"name":"Hegeseeweg","postalCode":"16837","locality":"Rheinsberg","municipality":{"key":"12068353","name":"Rheinsberg, Stadt","type":"Stadt"},"district":{"key":"12068","name":"Ostprignitz-Ruppin","type":"Landkreis"},"federalState":{"key":"12","name":"Brandenburg"}},{"name":"Heideweg","postalCode":"16831","locality":"Rheinsberg","municipality":{"key":"12068353","name":"Rheinsberg, Stadt","type":"Stadt"},"district":{"key":"12068","name":"Ostprignitz-Ruppin","type":"Landkreis"},"federalState":{"key":"12","name":"Brandenburg"}},{"name":"Heimländer Str.","postalCode":"16837","locality":"Rheinsberg","municipality":{"key":"12068353","name":"Rheinsberg, Stadt","type":"Stadt"},"district":{"key":"12068","name":"Ostprignitz-Ruppin","type":"Landkreis"},"federalState":{"key":"12","name":"Brandenburg"}},{"name":"Heinrichsfelder Weg","postalCode":"16831","locality":"Rheinsberg","municipality":{"key":"12068353","name":"Rheinsberg, Stadt","type":"Stadt"},"district":{"key":"12068","name":"Ostprignitz-Ruppin","type":"Landkreis"},"federalState":{"key":"12","name":"Brandenburg"}},{"name":"Hirsch","postalCode":"16831","locality":"Rheinsberg","municipality":{"key":"12068353","name":"Rheinsberg, Stadt","type":"Stadt"},"district":{"key":"12068","name":"Ostprignitz-Ruppin","type":"Landkreis"},"federalState":{"key":"12","name":"Brandenburg"}},{"name":"Hirsch / Fuchs","postalCode":"16831","locality":"Rheinsberg","municipality":{"key":"12068353","name":"Rheinsberg, Stadt","type":"Stadt"},"district":{"key":"12068","name":"Ostprignitz-Ruppin","type":"Landkreis"},"federalState":{"key":"12","name":"Brandenburg"}},{"name":"Hirsch / Fuchs / Hase","postalCode":"16831","locality":"Rheinsberg","municipality":{"key":"12068353","name":"Rheinsberg, Stadt","type":"Stadt"},"district":{"key":"12068","name":"Ostprignitz-Ruppin","type":"Landkreis"},"federalState":{"key":"12","name":"Brandenburg"}},{"name":"Hirsch / Igel","postalCode":"16831","locality":"Rheinsberg","municipality":{"key":"12068353","name":"Rheinsberg, Stadt","type":"Stadt"},"district":{"key":"12068","name":"Ostprignitz-Ruppin","type":"Landkreis"},"federalState":{"key":"12","name":"Brandenburg"}},{"name":"Hirtensteig","postalCode":"16837","locality":"Rheinsberg","municipality":{"key":"12068353","name":"Rheinsberg, Stadt","type":"Stadt"},"district":{"key":"12068","name":"Ostprignitz-Ruppin","type":"Landkreis"},"federalState":{"key":"12","name":"Brandenburg"}},{"name":"Igel / Fuchs","postalCode":"16831","locality":"Rheinsberg","municipality":{"key":"12068353","name":"Rheinsberg, Stadt","type":"Stadt"},"district":{"key":"12068","name":"Ostprignitz-Ruppin","type":"Landkreis"},"federalState":{"key":"12","name":"Brandenburg"}},{"name":"Igel / Hase","postalCode":"16831","locality":"Rheinsberg","municipality":{"key":"12068353","name":"Rheinsberg, Stadt","type":"Stadt"},"district":{"key":"12068","name":"Ostprignitz-Ruppin","type":"Landkreis"},"federalState":{"key":"12","name":"Brandenburg"}},{"name":"Igel / Hase / Fuchs","postalCode":"16831","locality":"Rheinsberg","municipality":{"key":"12068353","name":"Rheinsberg, Stadt","type":"Stadt"},"district":{"key":"12068","name":"Ostprignitz-Ruppin","type":"Landkreis"},"federalState":{"key":"12","name":"Brandenburg"}},{"name":"Im Wiesengrund","postalCode":"16831","locality":"Rheinsberg","municipality":{"key":"12068353","name":"Rheinsberg, Stadt","type":"Stadt"},"district":{"key":"12068","name":"Ostprignitz-Ruppin","type":"Landkreis"},"federalState":{"key":"12","name":"Brandenburg"}},{"name":"Joliot-Curie-Str.","postalCode":"16831","locality":"Rheinsberg","municipality":{"key":"12068353","name":"Rheinsberg, Stadt","type":"Stadt"},"district":{"key":"12068","name":"Ostprignitz-Ruppin","type":"Landkreis"},"federalState":{"key":"12","name":"Brandenburg"}},{"name":"Karlstr.","postalCode":"16831","locality":"Rheinsberg","municipality":{"key":"12068353","name":"Rheinsberg, Stadt","type":"Stadt"},"district":{"key":"12068","name":"Ostprignitz-Ruppin","type":"Landkreis"},"federalState":{"key":"12","name":"Brandenburg"}},{"name":"Kastanienweg","postalCode":"16831","locality":"Rheinsberg","municipality":{"key":"12068353","name":"Rheinsberg, Stadt","type":"Stadt"},"district":{"key":"12068","name":"Ostprignitz-Ruppin","type":"Landkreis"},"federalState":{"key":"12","name":"Brandenburg"}},{"name":"Kiefernweg","postalCode":"16831","locality":"Rheinsberg","municipality":{"key":"12068353","name":"Rheinsberg, Stadt","type":"Stadt"},"district":{"key":"12068","name":"Ostprignitz-Ruppin","type":"Landkreis"},"federalState":{"key":"12","name":"Brandenburg"}},{"name":"Kirchstr.","postalCode":"16831","locality":"Rheinsberg","municipality":{"key":"12068353","name":"Rheinsberg, Stadt","type":"Stadt"},"district":{"key":"12068","name":"Ostprignitz-Ruppin","type":"Landkreis"},"federalState":{"key":"12","name":"Brandenburg"}},{"name":"Kirschallee","postalCode":"16837","locality":"Rheinsberg","municipality":{"key":"12068353","name":"Rheinsberg, Stadt","type":"Stadt"},"district":{"key":"12068","name":"Ostprignitz-Ruppin","type":"Landkreis"},"federalState":{"key":"12","name":"Brandenburg"}},{"name":"Kirschsteig","postalCode":"16837","locality":"Rheinsberg","municipality":{"key":"12068353","name":"Rheinsberg, Stadt","type":"Stadt"},"district":{"key":"12068","name":"Ostprignitz-Ruppin","type":"Landkreis"},"federalState":{"key":"12","name":"Brandenburg"}},{"name":"Klein Eichen","postalCode":"16837","locality":"Rheinsberg","municipality":{"key":"12068353","name":"Rheinsberg, Stadt","type":"Stadt"},"district":{"key":"12068","name":"Ostprignitz-Ruppin","type":"Landkreis"},"federalState":{"key":"12","name":"Brandenburg"}},{"name":"Kölpinweg","postalCode":"16831","locality":"Rheinsberg","municipality":{"key":"12068353","name":"Rheinsberg, Stadt","type":"Stadt"},"district":{"key":"12068","name":"Ostprignitz-Ruppin","type":"Landkreis"},"federalState":{"key":"12","name":"Brandenburg"}},{"name":"Königstr.","postalCode":"16831","locality":"Rheinsberg","municipality":{"key":"12068353","name":"Rheinsberg, Stadt","type":"Stadt"},"district":{"key":"12068","name":"Ostprignitz-Ruppin","type":"Landkreis"},"federalState":{"key":"12","name":"Brandenburg"}},{"name":"Kurt-Tucholsky-Str.","postalCode":"16831","locality":"Rheinsberg","municipality":{"key":"12068353","name":"Rheinsberg, Stadt","type":"Stadt"},"district":{"key":"12068","name":"Ostprignitz-Ruppin","type":"Landkreis"},"federalState":{"key":"12","name":"Brandenburg"}},{"name":"Kyritzer Str.","postalCode":"16837","locality":"Rheinsberg","municipality":{"key":"12068353","name":"Rheinsberg, Stadt","type":"Stadt"},"district":{"key":"12068","name":"Ostprignitz-Ruppin","type":"Landkreis"},"federalState":{"key":"12","name":"Brandenburg"}},{"name":"Lange Str.","postalCode":"16831","locality":"Rheinsberg","municipality":{"key":"12068353","name":"Rheinsberg, Stadt","type":"Stadt"},"district":{"key":"12068","name":"Ostprignitz-Ruppin","type":"Landkreis"},"federalState":{"key":"12","name":"Brandenburg"}},{"name":"Lärchenweg","postalCode":"16831","locality":"Rheinsberg","municipality":{"key":"12068353","name":"Rheinsberg, Stadt","type":"Stadt"},"district":{"key":"12068","name":"Ostprignitz-Ruppin","type":"Landkreis"},"federalState":{"key":"12","name":"Brandenburg"}},{"name":"Leddernbrücke","postalCode":"16831","locality":"Rheinsberg","municipality":{"key":"12068353","name":"Rheinsberg, Stadt","type":"Stadt"},"district":{"key":"12068","name":"Ostprignitz-Ruppin","type":"Landkreis"},"federalState":{"key":"12","name":"Brandenburg"}},{"name":"Lindemannsberg","postalCode":"16837","locality":"Rheinsberg","municipality":{"key":"12068353","name":"Rheinsberg, Stadt","type":"Stadt"},"district":{"key":"12068","name":"Ostprignitz-Ruppin","type":"Landkreis"},"federalState":{"key":"12","name":"Brandenburg"}},{"name":"Lindenallee","postalCode":"16831","locality":"Rheinsberg","municipality":{"key":"12068353","name":"Rheinsberg, Stadt","type":"Stadt"},"district":{"key":"12068","name":"Ostprignitz-Ruppin","type":"Landkreis"},"federalState":{"key":"12","name":"Brandenburg"}},{"name":"Lindenpark","postalCode":"16831","locality":"Rheinsberg","municipality":{"key":"12068353","name":"Rheinsberg, Stadt","type":"Stadt"},"district":{"key":"12068","name":"Ostprignitz-Ruppin","type":"Landkreis"},"federalState":{"key":"12","name":"Brandenburg"}},{"name":"Lindenstr.","postalCode":"16837","locality":"Rheinsberg","municipality":{"key":"12068353","name":"Rheinsberg, Stadt","type":"Stadt"},"district":{"key":"12068","name":"Ostprignitz-Ruppin","type":"Landkreis"},"federalState":{"key":"12","name":"Brandenburg"}},{"name":"Lindenweg","postalCode":"16831","locality":"Rheinsberg","municipality":{"key":"12068353","name":"Rheinsberg, Stadt","type":"Stadt"},"district":{"key":"12068","name":"Ostprignitz-Ruppin","type":"Landkreis"},"federalState":{"key":"12","name":"Brandenburg"}},{"name":"Lügenbrücke","postalCode":"16831","locality":"Rheinsberg","municipality":{"key":"12068353","name":"Rheinsberg, Stadt","type":"Stadt"},"district":{"key":"12068","name":"Ostprignitz-Ruppin","type":"Landkreis"},"federalState":{"key":"12","name":"Brandenburg"}},{"name":"Luhmer Str.","postalCode":"16831","locality":"Rheinsberg","municipality":{"key":"12068353","name":"Rheinsberg, Stadt","type":"Stadt"},"district":{"key":"12068","name":"Ostprignitz-Ruppin","type":"Landkreis"},"federalState":{"key":"12","name":"Brandenburg"}},{"name":"Luhmer Str.","postalCode":"16837","locality":"Rheinsberg","municipality":{"key":"12068353","name":"Rheinsberg, Stadt","type":"Stadt"},"district":{"key":"12068","name":"Ostprignitz-Ruppin","type":"Landkreis"},"federalState":{"key":"12","name":"Brandenburg"}},{"name":"Mariefredstr.","postalCode":"16831","locality":"Rheinsberg","municipality":{"key":"12068353","name":"Rheinsberg, Stadt","type":"Stadt"},"district":{"key":"12068","name":"Ostprignitz-Ruppin","type":"Landkreis"},"federalState":{"key":"12","name":"Brandenburg"}},{"name":"Markt","postalCode":"16831","locality":"Rheinsberg","municipality":{"key":"12068353","name":"Rheinsberg, Stadt","type":"Stadt"},"district":{"key":"12068","name":"Ostprignitz-Ruppin","type":"Landkreis"},"federalState":{"key":"12","name":"Brandenburg"}},{"name":"Menzer Str.","postalCode":"16831","locality":"Rheinsberg","municipality":{"key":"12068353","name":"Rheinsberg, Stadt","type":"Stadt"},"district":{"key":"12068","name":"Ostprignitz-Ruppin","type":"Landkreis"},"federalState":{"key":"12","name":"Brandenburg"}},{"name":"Menzer Str.","postalCode":"16835","locality":"Rheinsberg","municipality":{"key":"12068353","name":"Rheinsberg, Stadt","type":"Stadt"},"district":{"key":"12068","name":"Ostprignitz-Ruppin","type":"Landkreis"},"federalState":{"key":"12","name":"Brandenburg"}},{"name":"Mirower Str.","postalCode":"16837","locality":"Rheinsberg","municipality":{"key":"12068353","name":"Rheinsberg, Stadt","type":"Stadt"},"district":{"key":"12068","name":"Ostprignitz-Ruppin","type":"Landkreis"},"federalState":{"key":"12","name":"Brandenburg"}},{"name":"Mittelstr.","postalCode":"16837","locality":"Rheinsberg","municipality":{"key":"12068353","name":"Rheinsberg, Stadt","type":"Stadt"},"district":{"key":"12068","name":"Ostprignitz-Ruppin","type":"Landkreis"},"federalState":{"key":"12","name":"Brandenburg"}},{"name":"Mückenfang","postalCode":"16831","locality":"Rheinsberg","municipality":{"key":"12068353","name":"Rheinsberg, Stadt","type":"Stadt"},"district":{"key":"12068","name":"Ostprignitz-Ruppin","type":"Landkreis"},"federalState":{"key":"12","name":"Brandenburg"}},{"name":"Mühlenblick","postalCode":"16831","locality":"Rheinsberg","municipality":{"key":"12068353","name":"Rheinsberg, Stadt","type":"Stadt"},"district":{"key":"12068","name":"Ostprignitz-Ruppin","type":"Landkreis"},"federalState":{"key":"12","name":"Brandenburg"}},{"name":"Mühlenstr.","postalCode":"16831","locality":"Rheinsberg","municipality":{"key":"12068353","name":"Rheinsberg, Stadt","type":"Stadt"},"district":{"key":"12068","name":"Ostprignitz-Ruppin","type":"Landkreis"},"federalState":{"key":"12","name":"Brandenburg"}},{"name":"Neustrelitzer Str.","postalCode":"16831","locality":"Rheinsberg","municipality":{"key":"12068353","name":"Rheinsberg, Stadt","type":"Stadt"},"district":{"key":"12068","name":"Ostprignitz-Ruppin","type":"Landkreis"},"federalState":{"key":"12","name":"Brandenburg"}},{"name":"Obere Braminseestr.","postalCode":"16837","locality":"Rheinsberg","municipality":{"key":"12068353","name":"Rheinsberg, Stadt","type":"Stadt"},"district":{"key":"12068","name":"Ostprignitz-Ruppin","type":"Landkreis"},"federalState":{"key":"12","name":"Brandenburg"}},{"name":"Pappelweg","postalCode":"16831","locality":"Rheinsberg","municipality":{"key":"12068353","name":"Rheinsberg, Stadt","type":"Stadt"},"district":{"key":"12068","name":"Ostprignitz-Ruppin","type":"Landkreis"},"federalState":{"key":"12","name":"Brandenburg"}},{"name":"Parkstr.","postalCode":"16831","locality":"Rheinsberg","municipality":{"key":"12068353","name":"Rheinsberg, Stadt","type":"Stadt"},"district":{"key":"12068","name":"Ostprignitz-Ruppin","type":"Landkreis"},"federalState":{"key":"12","name":"Brandenburg"}},{"name":"Parkstr.","postalCode":"16837","locality":"Rheinsberg","municipality":{"key":"12068353","name":"Rheinsberg, Stadt","type":"Stadt"},"district":{"key":"12068","name":"Ostprignitz-Ruppin","type":"Landkreis"},"federalState":{"key":"12","name":"Brandenburg"}},{"name":"Paulshorster Str.","postalCode":"16831","locality":"Rheinsberg","municipality":{"key":"12068353","name":"Rheinsberg, Stadt","type":"Stadt"},"district":{"key":"12068","name":"Ostprignitz-Ruppin","type":"Landkreis"},"federalState":{"key":"12","name":"Brandenburg"}},{"name":"Paulstr.","postalCode":"16831","locality":"Rheinsberg","municipality":{"key":"12068353","name":"Rheinsberg, Stadt","type":"Stadt"},"district":{"key":"12068","name":"Ostprignitz-Ruppin","type":"Landkreis"},"federalState":{"key":"12","name":"Brandenburg"}},{"name":"Peckhöbenweg","postalCode":"16831","locality":"Rheinsberg","municipality":{"key":"12068353","name":"Rheinsberg, Stadt","type":"Stadt"},"district":{"key":"12068","name":"Ostprignitz-Ruppin","type":"Landkreis"},"federalState":{"key":"12","name":"Brandenburg"}},{"name":"Poetensteig","postalCode":"16831","locality":"Rheinsberg","municipality":{"key":"12068353","name":"Rheinsberg, Stadt","type":"Stadt"},"district":{"key":"12068","name":"Ostprignitz-Ruppin","type":"Landkreis"},"federalState":{"key":"12","name":"Brandenburg"}},{"name":"Possluch","postalCode":"16831","locality":"Rheinsberg","municipality":{"key":"12068353","name":"Rheinsberg, Stadt","type":"Stadt"},"district":{"key":"12068","name":"Ostprignitz-Ruppin","type":"Landkreis"},"federalState":{"key":"12","name":"Brandenburg"}},{"name":"Poststr.","postalCode":"16831","locality":"Rheinsberg","municipality":{"key":"12068353","name":"Rheinsberg, Stadt","type":"Stadt"},"district":{"key":"12068","name":"Ostprignitz-Ruppin","type":"Landkreis"},"federalState":{"key":"12","name":"Brandenburg"}},{"name":"Prebelow","postalCode":"16831","locality":"Rheinsberg","municipality":{"key":"12068353","name":"Rheinsberg, Stadt","type":"Stadt"},"district":{"key":"12068","name":"Ostprignitz-Ruppin","type":"Landkreis"},"federalState":{"key":"12","name":"Brandenburg"}},{"name":"Querweg","postalCode":"16831","locality":"Rheinsberg","municipality":{"key":"12068353","name":"Rheinsberg, Stadt","type":"Stadt"},"district":{"key":"12068","name":"Ostprignitz-Ruppin","type":"Landkreis"},"federalState":{"key":"12","name":"Brandenburg"}},{"name":"Raucherbereich","postalCode":"16831","locality":"Rheinsberg","municipality":{"key":"12068353","name":"Rheinsberg, Stadt","type":"Stadt"},"district":{"key":"12068","name":"Ostprignitz-Ruppin","type":"Landkreis"},"federalState":{"key":"12","name":"Brandenburg"}},{"name":"Reiherholz","postalCode":"16831","locality":"Rheinsberg","municipality":{"key":"12068353","name":"Rheinsberg, Stadt","type":"Stadt"},"district":{"key":"12068","name":"Ostprignitz-Ruppin","type":"Landkreis"},"federalState":{"key":"12","name":"Brandenburg"}},{"name":"Reiherholz","postalCode":"16837","locality":"Rheinsberg","municipality":{"key":"12068353","name":"Rheinsberg, Stadt","type":"Stadt"},"district":{"key":"12068","name":"Ostprignitz-Ruppin","type":"Landkreis"},"federalState":{"key":"12","name":"Brandenburg"}},{"name":"Repenter Str.","postalCode":"16837","locality":"Rheinsberg","municipality":{"key":"12068353","name":"Rheinsberg, Stadt","type":"Stadt"},"district":{"key":"12068","name":"Ostprignitz-Ruppin","type":"Landkreis"},"federalState":{"key":"12","name":"Brandenburg"}},{"name":"Reuterpromenade","postalCode":"16831","locality":"Rheinsberg","municipality":{"key":"12068353","name":"Rheinsberg, Stadt","type":"Stadt"},"district":{"key":"12068","name":"Ostprignitz-Ruppin","type":"Landkreis"},"federalState":{"key":"12","name":"Brandenburg"}},{"name":"Rheinsberger Birkenweg","postalCode":"16831","locality":"Rheinsberg","municipality":{"key":"12068353","name":"Rheinsberg, Stadt","type":"Stadt"},"district":{"key":"12068","name":"Ostprignitz-Ruppin","type":"Landkreis"},"federalState":{"key":"12","name":"Brandenburg"}},{"name":"Rheinsberger Str.","postalCode":"16818","locality":"Rheinsberg","municipality":{"key":"12068353","name":"Rheinsberg, Stadt","type":"Stadt"},"district":{"key":"12068","name":"Ostprignitz-Ruppin","type":"Landkreis"},"federalState":{"key":"12","name":"Brandenburg"}},{"name":"Rheinsberger Str.","postalCode":"16831","locality":"Rheinsberg","municipality":{"key":"12068353","name":"Rheinsberg, Stadt","type":"Stadt"},"district":{"key":"12068","name":"Ostprignitz-Ruppin","type":"Landkreis"},"federalState":{"key":"12","name":"Brandenburg"}},{"name":"Rheinsberger Str.","postalCode":"16837","locality":"Rheinsberg","municipality":{"key":"12068353","name":"Rheinsberg, Stadt","type":"Stadt"},"district":{"key":"12068","name":"Ostprignitz-Ruppin","type":"Landkreis"},"federalState":{"key":"12","name":"Brandenburg"}},{"name":"Rheinsberger Weg","postalCode":"16831","locality":"Rheinsberg","municipality":{"key":"12068353","name":"Rheinsberg, Stadt","type":"Stadt"},"district":{"key":"12068","name":"Ostprignitz-Ruppin","type":"Landkreis"},"federalState":{"key":"12","name":"Brandenburg"}},{"name":"Rheinshagen","postalCode":"16831","locality":"Rheinsberg","municipality":{"key":"12068353","name":"Rheinsberg, Stadt","type":"Stadt"},"district":{"key":"12068","name":"Ostprignitz-Ruppin","type":"Landkreis"},"federalState":{"key":"12","name":"Brandenburg"}},{"name":"Rhinhöher Weg","postalCode":"16831","locality":"Rheinsberg","municipality":{"key":"12068353","name":"Rheinsberg, Stadt","type":"Stadt"},"district":{"key":"12068","name":"Ostprignitz-Ruppin","type":"Landkreis"},"federalState":{"key":"12","name":"Brandenburg"}},{"name":"Rhinstr.","postalCode":"16831","locality":"Rheinsberg","municipality":{"key":"12068353","name":"Rheinsberg, Stadt","type":"Stadt"},"district":{"key":"12068","name":"Ostprignitz-Ruppin","type":"Landkreis"},"federalState":{"key":"12","name":"Brandenburg"}},{"name":"Ringstr.","postalCode":"16831","locality":"Rheinsberg","municipality":{"key":"12068353","name":"Rheinsberg, Stadt","type":"Stadt"},"district":{"key":"12068","name":"Ostprignitz-Ruppin","type":"Landkreis"},"federalState":{"key":"12","name":"Brandenburg"}},{"name":"Rudolf-Breitscheid-Str.","postalCode":"16831","locality":"Rheinsberg","municipality":{"key":"12068353","name":"Rheinsberg, Stadt","type":"Stadt"},"district":{"key":"12068","name":"Ostprignitz-Ruppin","type":"Landkreis"},"federalState":{"key":"12","name":"Brandenburg"}},{"name":"Schalthaus","postalCode":"16831","locality":"Rheinsberg","municipality":{"key":"12068353","name":"Rheinsberg, Stadt","type":"Stadt"},"district":{"key":"12068","name":"Ostprignitz-Ruppin","type":"Landkreis"},"federalState":{"key":"12","name":"Brandenburg"}},{"name":"Schillerstr.","postalCode":"16831","locality":"Rheinsberg","municipality":{"key":"12068353","name":"Rheinsberg, Stadt","type":"Stadt"},"district":{"key":"12068","name":"Ostprignitz-Ruppin","type":"Landkreis"},"federalState":{"key":"12","name":"Brandenburg"}},{"name":"Schloßpark","postalCode":"16831","locality":"Rheinsberg","municipality":{"key":"12068353","name":"Rheinsberg, Stadt","type":"Stadt"},"district":{"key":"12068","name":"Ostprignitz-Ruppin","type":"Landkreis"},"federalState":{"key":"12","name":"Brandenburg"}},{"name":"Schloßstr.","postalCode":"16831","locality":"Rheinsberg","municipality":{"key":"12068353","name":"Rheinsberg, Stadt","type":"Stadt"},"district":{"key":"12068","name":"Ostprignitz-Ruppin","type":"Landkreis"},"federalState":{"key":"12","name":"Brandenburg"}},{"name":"Schookerberg","postalCode":"16837","locality":"Rheinsberg","municipality":{"key":"12068353","name":"Rheinsberg, Stadt","type":"Stadt"},"district":{"key":"12068","name":"Ostprignitz-Ruppin","type":"Landkreis"},"federalState":{"key":"12","name":"Brandenburg"}},{"name":"Schulbadestrand / Festplatz","postalCode":"16831","locality":"Rheinsberg","municipality":{"key":"12068353","name":"Rheinsberg, Stadt","type":"Stadt"},"district":{"key":"12068","name":"Ostprignitz-Ruppin","type":"Landkreis"},"federalState":{"key":"12","name":"Brandenburg"}},{"name":"Schulstr.","postalCode":"16837","locality":"Rheinsberg","municipality":{"key":"12068353","name":"Rheinsberg, Stadt","type":"Stadt"},"district":{"key":"12068","name":"Ostprignitz-Ruppin","type":"Landkreis"},"federalState":{"key":"12","name":"Brandenburg"}},{"name":"Schulzendorfer Str.","postalCode":"16835","locality":"Rheinsberg","municipality":{"key":"12068353","name":"Rheinsberg, Stadt","type":"Stadt"},"district":{"key":"12068","name":"Ostprignitz-Ruppin","type":"Landkreis"},"federalState":{"key":"12","name":"Brandenburg"}},{"name":"Schwanower Str.","postalCode":"16831","locality":"Rheinsberg","municipality":{"key":"12068353","name":"Rheinsberg, Stadt","type":"Stadt"},"district":{"key":"12068","name":"Ostprignitz-Ruppin","type":"Landkreis"},"federalState":{"key":"12","name":"Brandenburg"}},{"name":"Seestr.","postalCode":"16831","locality":"Rheinsberg","municipality":{"key":"12068353","name":"Rheinsberg, Stadt","type":"Stadt"},"district":{"key":"12068","name":"Ostprignitz-Ruppin","type":"Landkreis"},"federalState":{"key":"12","name":"Brandenburg"}},{"name":"Seestr.","postalCode":"16837","locality":"Rheinsberg","municipality":{"key":"12068353","name":"Rheinsberg, Stadt","type":"Stadt"},"district":{"key":"12068","name":"Ostprignitz-Ruppin","type":"Landkreis"},"federalState":{"key":"12","name":"Brandenburg"}},{"name":"Seeweg","postalCode":"16837","locality":"Rheinsberg","municipality":{"key":"12068353","name":"Rheinsberg, Stadt","type":"Stadt"},"district":{"key":"12068","name":"Ostprignitz-Ruppin","type":"Landkreis"},"federalState":{"key":"12","name":"Brandenburg"}},{"name":"Sellenwalder Weg","postalCode":"16831","locality":"Rheinsberg","municipality":{"key":"12068353","name":"Rheinsberg, Stadt","type":"Stadt"},"district":{"key":"12068","name":"Ostprignitz-Ruppin","type":"Landkreis"},"federalState":{"key":"12","name":"Brandenburg"}},{"name":"Siedlung","postalCode":"16831","locality":"Rheinsberg","municipality":{"key":"12068353","name":"Rheinsberg, Stadt","type":"Stadt"},"district":{"key":"12068","name":"Ostprignitz-Ruppin","type":"Landkreis"},"federalState":{"key":"12","name":"Brandenburg"}},{"name":"Sonnenufer","postalCode":"16837","locality":"Rheinsberg","municipality":{"key":"12068353","name":"Rheinsberg, Stadt","type":"Stadt"},"district":{"key":"12068","name":"Ostprignitz-Ruppin","type":"Landkreis"},"federalState":{"key":"12","name":"Brandenburg"}},{"name":"Sonnenweg","postalCode":"16831","locality":"Rheinsberg","municipality":{"key":"12068353","name":"Rheinsberg, Stadt","type":"Stadt"},"district":{"key":"12068","name":"Ostprignitz-Ruppin","type":"Landkreis"},"federalState":{"key":"12","name":"Brandenburg"}},{"name":"Sonnenweg","postalCode":"16837","locality":"Rheinsberg","municipality":{"key":"12068353","name":"Rheinsberg, Stadt","type":"Stadt"},"district":{"key":"12068","name":"Ostprignitz-Ruppin","type":"Landkreis"},"federalState":{"key":"12","name":"Brandenburg"}},{"name":"Stechliner Weg","postalCode":"16831","locality":"Rheinsberg","municipality":{"key":"12068353","name":"Rheinsberg, Stadt","type":"Stadt"},"district":{"key":"12068","name":"Ostprignitz-Ruppin","type":"Landkreis"},"federalState":{"key":"12","name":"Brandenburg"}},{"name":"Strandpromenade","postalCode":"16837","locality":"Rheinsberg","municipality":{"key":"12068353","name":"Rheinsberg, Stadt","type":"Stadt"},"district":{"key":"12068","name":"Ostprignitz-Ruppin","type":"Landkreis"},"federalState":{"key":"12","name":"Brandenburg"}},{"name":"Strandweg","postalCode":"16837","locality":"Rheinsberg","municipality":{"key":"12068353","name":"Rheinsberg, Stadt","type":"Stadt"},"district":{"key":"12068","name":"Ostprignitz-Ruppin","type":"Landkreis"},"federalState":{"key":"12","name":"Brandenburg"}},{"name":"Terrasse","postalCode":"16831","locality":"Rheinsberg","municipality":{"key":"12068353","name":"Rheinsberg, Stadt","type":"Stadt"},"district":{"key":"12068","name":"Ostprignitz-Ruppin","type":"Landkreis"},"federalState":{"key":"12","name":"Brandenburg"}},{"name":"Thälmannstr.","postalCode":"16835","locality":"Rheinsberg","municipality":{"key":"12068353","name":"Rheinsberg, Stadt","type":"Stadt"},"district":{"key":"12068","name":"Ostprignitz-Ruppin","type":"Landkreis"},"federalState":{"key":"12","name":"Brandenburg"}},{"name":"Toftlundstr.","postalCode":"16831","locality":"Rheinsberg","municipality":{"key":"12068353","name":"Rheinsberg, Stadt","type":"Stadt"},"district":{"key":"12068","name":"Ostprignitz-Ruppin","type":"Landkreis"},"federalState":{"key":"12","name":"Brandenburg"}},{"name":"Töpferweg","postalCode":"16837","locality":"Rheinsberg","municipality":{"key":"12068353","name":"Rheinsberg, Stadt","type":"Stadt"},"district":{"key":"12068","name":"Ostprignitz-Ruppin","type":"Landkreis"},"federalState":{"key":"12","name":"Brandenburg"}},{"name":"Triangelplatz","postalCode":"16831","locality":"Rheinsberg","municipality":{"key":"12068353","name":"Rheinsberg, Stadt","type":"Stadt"},"district":{"key":"12068","name":"Ostprignitz-Ruppin","type":"Landkreis"},"federalState":{"key":"12","name":"Brandenburg"}},{"name":"Uferpromenade","postalCode":"16831","locality":"Rheinsberg","municipality":{"key":"12068353","name":"Rheinsberg, Stadt","type":"Stadt"},"district":{"key":"12068","name":"Ostprignitz-Ruppin","type":"Landkreis"},"federalState":{"key":"12","name":"Brandenburg"}},{"name":"Uferweg","postalCode":"16831","locality":"Rheinsberg","municipality":{"key":"12068353","name":"Rheinsberg, Stadt","type":"Stadt"},"district":{"key":"12068","name":"Ostprignitz-Ruppin","type":"Landkreis"},"federalState":{"key":"12","name":"Brandenburg"}},{"name":"Ulmenweg","postalCode":"16831","locality":"Rheinsberg","municipality":{"key":"12068353","name":"Rheinsberg, Stadt","type":"Stadt"},"district":{"key":"12068","name":"Ostprignitz-Ruppin","type":"Landkreis"},"federalState":{"key":"12","name":"Brandenburg"}},{"name":"Untere Braminseestr.","postalCode":"16837","locality":"Rheinsberg","municipality":{"key":"12068353","name":"Rheinsberg, Stadt","type":"Stadt"},"district":{"key":"12068","name":"Ostprignitz-Ruppin","type":"Landkreis"},"federalState":{"key":"12","name":"Brandenburg"}},{"name":"Verbindungsweg","postalCode":"16831","locality":"Rheinsberg","municipality":{"key":"12068353","name":"Rheinsberg, Stadt","type":"Stadt"},"district":{"key":"12068","name":"Ostprignitz-Ruppin","type":"Landkreis"},"federalState":{"key":"12","name":"Brandenburg"}},{"name":"Vergilallee","postalCode":"16831","locality":"Rheinsberg","municipality":{"key":"12068353","name":"Rheinsberg, Stadt","type":"Stadt"},"district":{"key":"12068","name":"Ostprignitz-Ruppin","type":"Landkreis"},"federalState":{"key":"12","name":"Brandenburg"}},{"name":"Wacholderweg","postalCode":"16831","locality":"Rheinsberg","municipality":{"key":"12068353","name":"Rheinsberg, Stadt","type":"Stadt"},"district":{"key":"12068","name":"Ostprignitz-Ruppin","type":"Landkreis"},"federalState":{"key":"12","name":"Brandenburg"}},{"name":"Waldblick","postalCode":"16831","locality":"Rheinsberg","municipality":{"key":"12068353","name":"Rheinsberg, Stadt","type":"Stadt"},"district":{"key":"12068","name":"Ostprignitz-Ruppin","type":"Landkreis"},"federalState":{"key":"12","name":"Brandenburg"}},{"name":"Waldsiedlung","postalCode":"16831","locality":"Rheinsberg","municipality":{"key":"12068353","name":"Rheinsberg, Stadt","type":"Stadt"},"district":{"key":"12068","name":"Ostprignitz-Ruppin","type":"Landkreis"},"federalState":{"key":"12","name":"Brandenburg"}},{"name":"Waldsteig","postalCode":"16831","locality":"Rheinsberg","municipality":{"key":"12068353","name":"Rheinsberg, Stadt","type":"Stadt"},"district":{"key":"12068","name":"Ostprignitz-Ruppin","type":"Landkreis"},"federalState":{"key":"12","name":"Brandenburg"}},{"name":"Waldstr.","postalCode":"16831","locality":"Rheinsberg","municipality":{"key":"12068353","name":"Rheinsberg, Stadt","type":"Stadt"},"district":{"key":"12068","name":"Ostprignitz-Ruppin","type":"Landkreis"},"federalState":{"key":"12","name":"Brandenburg"}},{"name":"Wallizer Waldweg","postalCode":"16818","locality":"Rheinsberg","municipality":{"key":"12068353","name":"Rheinsberg, Stadt","type":"Stadt"},"district":{"key":"12068","name":"Ostprignitz-Ruppin","type":"Landkreis"},"federalState":{"key":"12","name":"Brandenburg"}},{"name":"Walther-Rathenau-Str.","postalCode":"16831","locality":"Rheinsberg","municipality":{"key":"12068353","name":"Rheinsberg, Stadt","type":"Stadt"},"district":{"key":"12068","name":"Ostprignitz-Ruppin","type":"Landkreis"},"federalState":{"key":"12","name":"Brandenburg"}},{"name":"Weinbergsring","postalCode":"16837","locality":"Rheinsberg","municipality":{"key":"12068353","name":"Rheinsberg, Stadt","type":"Stadt"},"district":{"key":"12068","name":"Ostprignitz-Ruppin","type":"Landkreis"},"federalState":{"key":"12","name":"Brandenburg"}},{"name":"Weinbergsteig","postalCode":"16837","locality":"Rheinsberg","municipality":{"key":"12068353","name":"Rheinsberg, Stadt","type":"Stadt"},"district":{"key":"12068","name":"Ostprignitz-Ruppin","type":"Landkreis"},"federalState":{"key":"12","name":"Brandenburg"}},{"name":"Wiesengrund","postalCode":"16835","locality":"Rheinsberg","municipality":{"key":"12068353","name":"Rheinsberg, Stadt","type":"Stadt"},"district":{"key":"12068","name":"Ostprignitz-Ruppin","type":"Landkreis"},"federalState":{"key":"12","name":"Brandenburg"}},{"name":"Wiesensteig","postalCode":"16831","locality":"Rheinsberg","municipality":{"key":"12068353","name":"Rheinsberg, Stadt","type":"Stadt"},"district":{"key":"12068","name":"Ostprignitz-Ruppin","type":"Landkreis"},"federalState":{"key":"12","name":"Brandenburg"}},{"name":"Winkel","postalCode":"16831","locality":"Rheinsberg","municipality":{"key":"12068353","name":"Rheinsberg, Stadt","type":"Stadt"},"district":{"key":"12068","name":"Ostprignitz-Ruppin","type":"Landkreis"},"federalState":{"key":"12","name":"Brandenburg"}},{"name":"Winkelstr.","postalCode":"16831","locality":"Rheinsberg","municipality":{"key":"12068353","name":"Rheinsberg, Stadt","type":"Stadt"},"district":{"key":"12068","name":"Ostprignitz-Ruppin","type":"Landkreis"},"federalState":{"key":"12","name":"Brandenburg"}},{"name":"Wittstocker Str.","postalCode":"16837","locality":"Rheinsberg","municipality":{"key":"12068353","name":"Rheinsberg, Stadt","type":"Stadt"},"district":{"key":"12068","name":"Ostprignitz-Ruppin","type":"Landkreis"},"federalState":{"key":"12","name":"Brandenburg"}},{"name":"Wolfsbruch","postalCode":"16831","locality":"Rheinsberg","municipality":{"key":"12068353","name":"Rheinsberg, Stadt","type":"Stadt"},"district":{"key":"12068","name":"Ostprignitz-Ruppin","type":"Landkreis"},"federalState":{"key":"12","name":"Brandenburg"}},{"name":"Zechliner Chaussee","postalCode":"16837","locality":"Rheinsberg","municipality":{"key":"12068353","name":"Rheinsberg, Stadt","type":"Stadt"},"district":{"key":"12068","name":"Ostprignitz-Ruppin","type":"Landkreis"},"federalState":{"key":"12","name":"Brandenburg"}},{"name":"Zechlinerhütter Landstr.","postalCode":"16831","locality":"Rheinsberg","municipality":{"key":"12068353","name":"Rheinsberg, Stadt","type":"Stadt"},"district":{"key":"12068","name":"Ostprignitz-Ruppin","type":"Landkreis"},"federalState":{"key":"12","name":"Brandenburg"}},{"name":"Zechliner Str.","postalCode":"16831","locality":"Rheinsberg","municipality":{"key":"12068353","name":"Rheinsberg, Stadt","type":"Stadt"},"district":{"key":"12068","name":"Ostprignitz-Ruppin","type":"Landkreis"},"federalState":{"key":"12","name":"Brandenburg"}},{"name":"Zechliner Str.","postalCode":"16837","locality":"Rheinsberg","municipality":{"key":"12068353","name":"Rheinsberg, Stadt","type":"Stadt"},"district":{"key":"12068","name":"Ostprignitz-Ruppin","type":"Landkreis"},"federalState":{"key":"12","name":"Brandenburg"}},{"name":"Zu den Bootshäusern","postalCode":"16831","locality":"Rheinsberg","municipality":{"key":"12068353","name":"Rheinsberg, Stadt","type":"Stadt"},"district":{"key":"12068","name":"Ostprignitz-Ruppin","type":"Landkreis"},"federalState":{"key":"12","name":"Brandenburg"}},{"name":"Zufahrt zum Zeltplatz D108","postalCode":"16837","locality":"Rheinsberg","municipality":{"key":"12068353","name":"Rheinsberg, Stadt","type":"Stadt"},"district":{"key":"12068","name":"Ostprignitz-Ruppin","type":"Landkreis"},"federalState":{"key":"12","name":"Brandenburg"}},{"name":"Zühlener Ausbau","postalCode":"16831","locality":"Rheinsberg","municipality":{"key":"12068353","name":"Rheinsberg, Stadt","type":"Stadt"},"district":{"key":"12068","name":"Ostprignitz-Ruppin","type":"Landkreis"},"federalState":{"key":"12","name":"Brandenburg"}},{"name":"Zühlener Dorfstr.","postalCode":"16831","locality":"Rheinsberg","municipality":{"key":"12068353","name":"Rheinsberg, Stadt","type":"Stadt"},"district":{"key":"12068","name":"Ostprignitz-Ruppin","type":"Landkreis"},"federalState":{"key":"12","name":"Brandenburg"}},{"name":"Zühlener Siedlung","postalCode":"16831","locality":"Rheinsberg","municipality":{"key":"12068353","name":"Rheinsberg, Stadt","type":"Stadt"},"district":{"key":"12068","name":"Ostprignitz-Ruppin","type":"Landkreis"},"federalState":{"key":"12","name":"Brandenburg"}},{"name":"Zühlener Winkel","postalCode":"16831","locality":"Rheinsberg","municipality":{"key":"12068353","name":"Rheinsberg, Stadt","type":"Stadt"},"district":{"key":"12068","name":"Ostprignitz-Ruppin","type":"Landkreis"},"federalState":{"key":"12","name":"Brandenburg"}},{"name":"Zum Badeteich","postalCode":"16837","locality":"Rheinsberg","municipality":{"key":"12068353","name":"Rheinsberg, Stadt","type":"Stadt"},"district":{"key":"12068","name":"Ostprignitz-Ruppin","type":"Landkreis"},"federalState":{"key":"12","name":"Brandenburg"}},{"name":"Zum Canowsee","postalCode":"16831","locality":"Rheinsberg","municipality":{"key":"12068353","name":"Rheinsberg, Stadt","type":"Stadt"},"district":{"key":"12068","name":"Ostprignitz-Ruppin","type":"Landkreis"},"federalState":{"key":"12","name":"Brandenburg"}},{"name":"Zum Rhin","postalCode":"16831","locality":"Rheinsberg","municipality":{"key":"12068353","name":"Rheinsberg, Stadt","type":"Stadt"},"district":{"key":"12068","name":"Ostprignitz-Ruppin","type":"Landkreis"},"federalState":{"key":"12","name":"Brandenburg"}},{"name":"Zum Seeblick","postalCode":"16837","locality":"Rheinsberg","municipality":{"key":"12068353","name":"Rheinsberg, Stadt","type":"Stadt"},"district":{"key":"12068","name":"Ostprignitz-Ruppin","type":"Landkreis"},"federalState":{"key":"12","name":"Brandenburg"}},{"name":"Zur Beckersmühle","postalCode":"16837","locality":"Rheinsberg","municipality":{"key":"12068353","name":"Rheinsberg, Stadt","type":"Stadt"},"district":{"key":"12068","name":"Ostprignitz-Ruppin","type":"Landkreis"},"federalState":{"key":"12","name":"Brandenburg"}},{"name":"Zur Bleichwiese","postalCode":"16831","locality":"Rheinsberg","municipality":{"key":"12068353","name":"Rheinsberg, Stadt","type":"Stadt"},"district":{"key":"12068","name":"Ostprignitz-Ruppin","type":"Landkreis"},"federalState":{"key":"12","name":"Brandenburg"}},{"name":"Zur Döllnitzwiese","postalCode":"16831","locality":"Rheinsberg","municipality":{"key":"12068353","name":"Rheinsberg, Stadt","type":"Stadt"},"district":{"key":"12068","name":"Ostprignitz-Ruppin","type":"Landkreis"},"federalState":{"key":"12","name":"Brandenburg"}},{"name":"Zur Fichtensiedlung","postalCode":"16831","locality":"Rheinsberg","municipality":{"key":"12068353","name":"Rheinsberg, Stadt","type":"Stadt"},"district":{"key":"12068","name":"Ostprignitz-Ruppin","type":"Landkreis"},"federalState":{"key":"12","name":"Brandenburg"}},{"name":"Zur Preußenquelle","postalCode":"16831","locality":"Rheinsberg","municipality":{"key":"12068353","name":"Rheinsberg, Stadt","type":"Stadt"},"district":{"key":"12068","name":"Ostprignitz-Ruppin","type":"Landkreis"},"federalState":{"key":"12","name":"Brandenburg"}},{"name":"Zur Rhinbrücke","postalCode":"16831","locality":"Rheinsberg","municipality":{"key":"12068353","name":"Rheinsberg, Stadt","type":"Stadt"},"district":{"key":"12068","name":"Ostprignitz-Ruppin","type":"Landkreis"},"federalState":{"key":"12","name":"Brandenburg"}},{"name":"Zur Seeidylle","postalCode":"16837","locality":"Rheinsberg","municipality":{"key":"12068353","name":"Rheinsberg, Stadt","type":"Stadt"},"district":{"key":"12068","name":"Ostprignitz-Ruppin","type":"Landkreis"},"federalState":{"key":"12","name":"Brandenburg"}},{"name":"Zur Tietzowsiedlung","postalCode":"16831","locality":"Rheinsberg","municipality":{"key":"12068353","name":"Rheinsberg, Stadt","type":"Stadt"},"district":{"key":"12068","name":"Ostprignitz-Ruppin","type":"Landkreis"},"federalState":{"key":"12","name":"Brandenburg"}},{"name":"Zur Untermühle","postalCode":"16831","locality":"Rheinsberg","municipality":{"key":"12068353","name":"Rheinsberg, Stadt","type":"Stadt"},"district":{"key":"12068","name":"Ostprignitz-Ruppin","type":"Landkreis"},"federalState":{"key":"12","name":"Brandenburg"}},]