[{"name":"Aäckerweg","postalCode":"75242","locality":"Neuhausen","municipality":{"key":"08236044","name":"Neuhausen","type":"Kreisangehörige_Gemeinde"},"district":{"key":"08236","name":"Enzkreis","type":"Landkreis"},"federalState":{"key":"08","name":"Baden-Württemberg"}},{"name":"Abladeflügel","postalCode":"09544","locality":"Neuhausen/Erzgebirge","municipality":{"key":"14522400","name":"Neuhausen/Erzgeb.","type":"Kreisangehörige_Gemeinde"},"district":{"key":"14522","name":"Mittelsachsen","type":"Landkreis"},"federalState":{"key":"14","name":"Sachsen"}},{"name":"Abteilungsweg","postalCode":"75242","locality":"Neuhausen","municipality":{"key":"08236044","name":"Neuhausen","type":"Kreisangehörige_Gemeinde"},"district":{"key":"08236","name":"Enzkreis","type":"Landkreis"},"federalState":{"key":"08","name":"Baden-Württemberg"}},{"name":"Abt-Linienweg","postalCode":"78579","locality":"Neuhausen ob Eck","municipality":{"key":"08327038","name":"Neuhausen ob Eck","type":"Kreisangehörige_Gemeinde"},"district":{"key":"08327","name":"Tuttlingen","type":"Landkreis"},"federalState":{"key":"08","name":"Baden-Württemberg"}},{"name":"Ackerstr.","postalCode":"03058","locality":"Neuhausen/Spree","municipality":{"key":"12071301","name":"Neuhausen/Spree / Kopańce/Sprjewja","type":"Kreisangehörige_Gemeinde"},"district":{"key":"12071","name":"Spree-Neiße","type":"Landkreis"},"federalState":{"key":"12","name":"Brandenburg"}},{"name":"Adenauerstr.","postalCode":"73765","locality":"Neuhausen auf den Fildern","municipality":{"key":"08116047","name":"Neuhausen auf den Fildern","type":"Kreisangehörige_Gemeinde"},"district":{"key":"08116","name":"Esslingen","type":"Landkreis"},"federalState":{"key":"08","name":"Baden-Württemberg"}},{"name":"Ahornweg","postalCode":"78579","locality":"Neuhausen ob Eck","municipality":{"key":"08327038","name":"Neuhausen ob Eck","type":"Kreisangehörige_Gemeinde"},"district":{"key":"08327","name":"Tuttlingen","type":"Landkreis"},"federalState":{"key":"08","name":"Baden-Württemberg"}},{"name":"Albstr.","postalCode":"73765","locality":"Neuhausen auf den Fildern","municipality":{"key":"08116047","name":"Neuhausen auf den Fildern","type":"Kreisangehörige_Gemeinde"},"district":{"key":"08116","name":"Esslingen","type":"Landkreis"},"federalState":{"key":"08","name":"Baden-Württemberg"}},{"name":"Albstr.","postalCode":"75242","locality":"Neuhausen","municipality":{"key":"08236044","name":"Neuhausen","type":"Kreisangehörige_Gemeinde"},"district":{"key":"08236","name":"Enzkreis","type":"Landkreis"},"federalState":{"key":"08","name":"Baden-Württemberg"}},{"name":"Alemannenstr.","postalCode":"73765","locality":"Neuhausen auf den Fildern","municipality":{"key":"08116047","name":"Neuhausen auf den Fildern","type":"Kreisangehörige_Gemeinde"},"district":{"key":"08116","name":"Esslingen","type":"Landkreis"},"federalState":{"key":"08","name":"Baden-Württemberg"}},{"name":"Alemannenstr.","postalCode":"78579","locality":"Neuhausen ob Eck","municipality":{"key":"08327038","name":"Neuhausen ob Eck","type":"Kreisangehörige_Gemeinde"},"district":{"key":"08327","name":"Tuttlingen","type":"Landkreis"},"federalState":{"key":"08","name":"Baden-Württemberg"}},{"name":"Alfons-Frick-Weg","postalCode":"73765","locality":"Neuhausen auf den Fildern","municipality":{"key":"08116047","name":"Neuhausen auf den Fildern","type":"Kreisangehörige_Gemeinde"},"district":{"key":"08116","name":"Esslingen","type":"Landkreis"},"federalState":{"key":"08","name":"Baden-Württemberg"}},{"name":"Alfred-Delp-Weg","postalCode":"73765","locality":"Neuhausen auf den Fildern","municipality":{"key":"08116047","name":"Neuhausen auf den Fildern","type":"Kreisangehörige_Gemeinde"},"district":{"key":"08116","name":"Esslingen","type":"Landkreis"},"federalState":{"key":"08","name":"Baden-Württemberg"}},{"name":"Allmendstr.","postalCode":"75242","locality":"Neuhausen","municipality":{"key":"08236044","name":"Neuhausen","type":"Kreisangehörige_Gemeinde"},"district":{"key":"08236","name":"Enzkreis","type":"Landkreis"},"federalState":{"key":"08","name":"Baden-Württemberg"}},{"name":"Alte Hauptstr.","postalCode":"09544","locality":"Neuhausen/Erzgebirge","municipality":{"key":"14522400","name":"Neuhausen/Erzgeb.","type":"Kreisangehörige_Gemeinde"},"district":{"key":"14522","name":"Mittelsachsen","type":"Landkreis"},"federalState":{"key":"14","name":"Sachsen"}},{"name":"Alte Neuhausener Str.","postalCode":"09544","locality":"Neuhausen/Erzgebirge","municipality":{"key":"14522400","name":"Neuhausen/Erzgeb.","type":"Kreisangehörige_Gemeinde"},"district":{"key":"14522","name":"Mittelsachsen","type":"Landkreis"},"federalState":{"key":"14","name":"Sachsen"}},{"name":"Alte Poststr.","postalCode":"03058","locality":"Neuhausen/Spree","municipality":{"key":"12071301","name":"Neuhausen/Spree / Kopańce/Sprjewja","type":"Kreisangehörige_Gemeinde"},"district":{"key":"12071","name":"Spree-Neiße","type":"Landkreis"},"federalState":{"key":"12","name":"Brandenburg"}},{"name":"Alte Poststr.","postalCode":"09544","locality":"Neuhausen/Erzgebirge","municipality":{"key":"14522400","name":"Neuhausen/Erzgeb.","type":"Kreisangehörige_Gemeinde"},"district":{"key":"14522","name":"Mittelsachsen","type":"Landkreis"},"federalState":{"key":"14","name":"Sachsen"}},{"name":"Alter Drebkauer Weg","postalCode":"03058","locality":"Neuhausen/Spree","municipality":{"key":"12071301","name":"Neuhausen/Spree / Kopańce/Sprjewja","type":"Kreisangehörige_Gemeinde"},"district":{"key":"12071","name":"Spree-Neiße","type":"Landkreis"},"federalState":{"key":"12","name":"Brandenburg"}},{"name":"Alter Dürrebergweg","postalCode":"09544","locality":"Neuhausen/Erzgebirge","municipality":{"key":"14522400","name":"Neuhausen/Erzgeb.","type":"Kreisangehörige_Gemeinde"},"district":{"key":"14522","name":"Mittelsachsen","type":"Landkreis"},"federalState":{"key":"14","name":"Sachsen"}},{"name":"Alter Hau","postalCode":"75242","locality":"Neuhausen","municipality":{"key":"08236044","name":"Neuhausen","type":"Kreisangehörige_Gemeinde"},"district":{"key":"08236","name":"Enzkreis","type":"Landkreis"},"federalState":{"key":"08","name":"Baden-Württemberg"}},{"name":"Alter Postweg","postalCode":"03058","locality":"Neuhausen/Spree","municipality":{"key":"12071301","name":"Neuhausen/Spree / Kopańce/Sprjewja","type":"Kreisangehörige_Gemeinde"},"district":{"key":"12071","name":"Spree-Neiße","type":"Landkreis"},"federalState":{"key":"12","name":"Brandenburg"}},{"name":"Alter Talweg","postalCode":"75242","locality":"Neuhausen","municipality":{"key":"08236044","name":"Neuhausen","type":"Kreisangehörige_Gemeinde"},"district":{"key":"08236","name":"Enzkreis","type":"Landkreis"},"federalState":{"key":"08","name":"Baden-Württemberg"}},{"name":"Alte Salzstr.","postalCode":"09544","locality":"Neuhausen/Erzgebirge","municipality":{"key":"14522400","name":"Neuhausen/Erzgeb.","type":"Kreisangehörige_Gemeinde"},"district":{"key":"14522","name":"Mittelsachsen","type":"Landkreis"},"federalState":{"key":"14","name":"Sachsen"}},{"name":"Alte Schellbronner Str.","postalCode":"75242","locality":"Neuhausen","municipality":{"key":"08236044","name":"Neuhausen","type":"Kreisangehörige_Gemeinde"},"district":{"key":"08236","name":"Enzkreis","type":"Landkreis"},"federalState":{"key":"08","name":"Baden-Württemberg"}},{"name":"Alte Schulstr.","postalCode":"03058","locality":"Neuhausen/Spree","municipality":{"key":"12071301","name":"Neuhausen/Spree / Kopańce/Sprjewja","type":"Kreisangehörige_Gemeinde"},"district":{"key":"12071","name":"Spree-Neiße","type":"Landkreis"},"federalState":{"key":"12","name":"Brandenburg"}},{"name":"Altschulmeisterweg","postalCode":"75242","locality":"Neuhausen","municipality":{"key":"08236044","name":"Neuhausen","type":"Kreisangehörige_Gemeinde"},"district":{"key":"08236","name":"Enzkreis","type":"Landkreis"},"federalState":{"key":"08","name":"Baden-Württemberg"}},{"name":"Altschulzenweg","postalCode":"75242","locality":"Neuhausen","municipality":{"key":"08236044","name":"Neuhausen","type":"Kreisangehörige_Gemeinde"},"district":{"key":"08236","name":"Enzkreis","type":"Landkreis"},"federalState":{"key":"08","name":"Baden-Württemberg"}},{"name":"Am Alten Gehau","postalCode":"09544","locality":"Neuhausen/Erzgebirge","municipality":{"key":"14522400","name":"Neuhausen/Erzgeb.","type":"Kreisangehörige_Gemeinde"},"district":{"key":"14522","name":"Mittelsachsen","type":"Landkreis"},"federalState":{"key":"14","name":"Sachsen"}},{"name":"Am Anger","postalCode":"03058","locality":"Neuhausen/Spree","municipality":{"key":"12071301","name":"Neuhausen/Spree / Kopańce/Sprjewja","type":"Kreisangehörige_Gemeinde"},"district":{"key":"12071","name":"Spree-Neiße","type":"Landkreis"},"federalState":{"key":"12","name":"Brandenburg"}},{"name":"Am Anger","postalCode":"99625","locality":"Kleinneuhausen","municipality":{"key":"16068033","name":"Kleinneuhausen","type":"Kreisangehörige_Gemeinde"},"district":{"key":"16068","name":"Sömmerda","type":"Landkreis"},"federalState":{"key":"16","name":"Thüringen"}},{"name":"Am Damm","postalCode":"03058","locality":"Neuhausen/Spree","municipality":{"key":"12071301","name":"Neuhausen/Spree / Kopańce/Sprjewja","type":"Kreisangehörige_Gemeinde"},"district":{"key":"12071","name":"Spree-Neiße","type":"Landkreis"},"federalState":{"key":"12","name":"Brandenburg"}},{"name":"Am Eichgraben","postalCode":"03058","locality":"Neuhausen/Spree","municipality":{"key":"12071301","name":"Neuhausen/Spree / Kopańce/Sprjewja","type":"Kreisangehörige_Gemeinde"},"district":{"key":"12071","name":"Spree-Neiße","type":"Landkreis"},"federalState":{"key":"12","name":"Brandenburg"}},{"name":"Am Eschenbrunnen","postalCode":"75242","locality":"Neuhausen","municipality":{"key":"08236044","name":"Neuhausen","type":"Kreisangehörige_Gemeinde"},"district":{"key":"08236","name":"Enzkreis","type":"Landkreis"},"federalState":{"key":"08","name":"Baden-Württemberg"}},{"name":"Am Feldrain","postalCode":"03058","locality":"Neuhausen/Spree","municipality":{"key":"12071301","name":"Neuhausen/Spree / Kopańce/Sprjewja","type":"Kreisangehörige_Gemeinde"},"district":{"key":"12071","name":"Spree-Neiße","type":"Landkreis"},"federalState":{"key":"12","name":"Brandenburg"}},{"name":"Am Fließ","postalCode":"03058","locality":"Neuhausen/Spree","municipality":{"key":"12071301","name":"Neuhausen/Spree / Kopańce/Sprjewja","type":"Kreisangehörige_Gemeinde"},"district":{"key":"12071","name":"Spree-Neiße","type":"Landkreis"},"federalState":{"key":"12","name":"Brandenburg"}},{"name":"Am Goldhübel","postalCode":"09544","locality":"Neuhausen/Erzgebirge","municipality":{"key":"14522400","name":"Neuhausen/Erzgeb.","type":"Kreisangehörige_Gemeinde"},"district":{"key":"14522","name":"Mittelsachsen","type":"Landkreis"},"federalState":{"key":"14","name":"Sachsen"}},{"name":"Am Golfplatz","postalCode":"03058","locality":"Neuhausen/Spree","municipality":{"key":"12071301","name":"Neuhausen/Spree / Kopańce/Sprjewja","type":"Kreisangehörige_Gemeinde"},"district":{"key":"12071","name":"Spree-Neiße","type":"Landkreis"},"federalState":{"key":"12","name":"Brandenburg"}},{"name":"Am Gutshof","postalCode":"03058","locality":"Neuhausen/Spree","municipality":{"key":"12071301","name":"Neuhausen/Spree / Kopańce/Sprjewja","type":"Kreisangehörige_Gemeinde"},"district":{"key":"12071","name":"Spree-Neiße","type":"Landkreis"},"federalState":{"key":"12","name":"Brandenburg"}},{"name":"Am Hasenwald","postalCode":"73765","locality":"Neuhausen auf den Fildern","municipality":{"key":"08116047","name":"Neuhausen auf den Fildern","type":"Kreisangehörige_Gemeinde"},"district":{"key":"08116","name":"Esslingen","type":"Landkreis"},"federalState":{"key":"08","name":"Baden-Württemberg"}},{"name":"Am Högk","postalCode":"99625","locality":"Kleinneuhausen","municipality":{"key":"16068033","name":"Kleinneuhausen","type":"Kreisangehörige_Gemeinde"},"district":{"key":"16068","name":"Sömmerda","type":"Landkreis"},"federalState":{"key":"16","name":"Thüringen"}},{"name":"Am Horber Wald","postalCode":"73765","locality":"Neuhausen auf den Fildern","municipality":{"key":"08116047","name":"Neuhausen auf den Fildern","type":"Kreisangehörige_Gemeinde"},"district":{"key":"08116","name":"Esslingen","type":"Landkreis"},"federalState":{"key":"08","name":"Baden-Württemberg"}},{"name":"Am Kirchacker","postalCode":"03058","locality":"Neuhausen/Spree","municipality":{"key":"12071301","name":"Neuhausen/Spree / Kopańce/Sprjewja","type":"Kreisangehörige_Gemeinde"},"district":{"key":"12071","name":"Spree-Neiße","type":"Landkreis"},"federalState":{"key":"12","name":"Brandenburg"}},{"name":"Am Lässigherd","postalCode":"09544","locality":"Neuhausen/Erzgebirge","municipality":{"key":"14522400","name":"Neuhausen/Erzgeb.","type":"Kreisangehörige_Gemeinde"},"district":{"key":"14522","name":"Mittelsachsen","type":"Landkreis"},"federalState":{"key":"14","name":"Sachsen"}},{"name":"Am Moor","postalCode":"03058","locality":"Neuhausen/Spree","municipality":{"key":"12071301","name":"Neuhausen/Spree / Kopańce/Sprjewja","type":"Kreisangehörige_Gemeinde"},"district":{"key":"12071","name":"Spree-Neiße","type":"Landkreis"},"federalState":{"key":"12","name":"Brandenburg"}},{"name":"Am Park","postalCode":"03058","locality":"Neuhausen/Spree","municipality":{"key":"12071301","name":"Neuhausen/Spree / Kopańce/Sprjewja","type":"Kreisangehörige_Gemeinde"},"district":{"key":"12071","name":"Spree-Neiße","type":"Landkreis"},"federalState":{"key":"12","name":"Brandenburg"}},{"name":"Am Park","postalCode":"99625","locality":"Kleinneuhausen","municipality":{"key":"16068033","name":"Kleinneuhausen","type":"Kreisangehörige_Gemeinde"},"district":{"key":"16068","name":"Sömmerda","type":"Landkreis"},"federalState":{"key":"16","name":"Thüringen"}},{"name":"Am Quellteich","postalCode":"03058","locality":"Neuhausen/Spree","municipality":{"key":"12071301","name":"Neuhausen/Spree / Kopańce/Sprjewja","type":"Kreisangehörige_Gemeinde"},"district":{"key":"12071","name":"Spree-Neiße","type":"Landkreis"},"federalState":{"key":"12","name":"Brandenburg"}},{"name":"Am Sägewerk","postalCode":"75242","locality":"Neuhausen","municipality":{"key":"08236044","name":"Neuhausen","type":"Kreisangehörige_Gemeinde"},"district":{"key":"08236","name":"Enzkreis","type":"Landkreis"},"federalState":{"key":"08","name":"Baden-Württemberg"}},{"name":"Am Schloßberg","postalCode":"09544","locality":"Neuhausen/Erzgebirge","municipality":{"key":"14522400","name":"Neuhausen/Erzgeb.","type":"Kreisangehörige_Gemeinde"},"district":{"key":"14522","name":"Mittelsachsen","type":"Landkreis"},"federalState":{"key":"14","name":"Sachsen"}},{"name":"Bacchusweg","postalCode":"03058","locality":"Neuhausen/Spree","municipality":{"key":"12071301","name":"Neuhausen/Spree / Kopańce/Sprjewja","type":"Kreisangehörige_Gemeinde"},"district":{"key":"12071","name":"Spree-Neiße","type":"Landkreis"},"federalState":{"key":"12","name":"Brandenburg"}},{"name":"Bachraer Weg","postalCode":"99625","locality":"Großneuhausen","municipality":{"key":"16068019","name":"Großneuhausen","type":"Kreisangehörige_Gemeinde"},"district":{"key":"16068","name":"Sömmerda","type":"Landkreis"},"federalState":{"key":"16","name":"Thüringen"}},{"name":"Bachstr.","postalCode":"78579","locality":"Neuhausen ob Eck","municipality":{"key":"08327038","name":"Neuhausen ob Eck","type":"Kreisangehörige_Gemeinde"},"district":{"key":"08327","name":"Tuttlingen","type":"Landkreis"},"federalState":{"key":"08","name":"Baden-Württemberg"}},{"name":"Bäckermichelsweg","postalCode":"75242","locality":"Neuhausen","municipality":{"key":"08236044","name":"Neuhausen","type":"Kreisangehörige_Gemeinde"},"district":{"key":"08236","name":"Enzkreis","type":"Landkreis"},"federalState":{"key":"08","name":"Baden-Württemberg"}},{"name":"Bäcker Michels Weg","postalCode":"75242","locality":"Neuhausen","municipality":{"key":"08236044","name":"Neuhausen","type":"Kreisangehörige_Gemeinde"},"district":{"key":"08236","name":"Enzkreis","type":"Landkreis"},"federalState":{"key":"08","name":"Baden-Württemberg"}},{"name":"Badebornweg","postalCode":"09544","locality":"Neuhausen/Erzgebirge","municipality":{"key":"14522400","name":"Neuhausen/Erzgeb.","type":"Kreisangehörige_Gemeinde"},"district":{"key":"14522","name":"Mittelsachsen","type":"Landkreis"},"federalState":{"key":"14","name":"Sachsen"}},{"name":"Bad-Einsiedler-Weg","postalCode":"09544","locality":"Neuhausen/Erzgebirge","municipality":{"key":"14522400","name":"Neuhausen/Erzgeb.","type":"Kreisangehörige_Gemeinde"},"district":{"key":"14522","name":"Mittelsachsen","type":"Landkreis"},"federalState":{"key":"14","name":"Sachsen"}},{"name":"Bäderstr.","postalCode":"73765","locality":"Neuhausen auf den Fildern","municipality":{"key":"08116047","name":"Neuhausen auf den Fildern","type":"Kreisangehörige_Gemeinde"},"district":{"key":"08116","name":"Esslingen","type":"Landkreis"},"federalState":{"key":"08","name":"Baden-Württemberg"}},{"name":"Badweg","postalCode":"09544","locality":"Neuhausen/Erzgebirge","municipality":{"key":"14522400","name":"Neuhausen/Erzgeb.","type":"Kreisangehörige_Gemeinde"},"district":{"key":"14522","name":"Mittelsachsen","type":"Landkreis"},"federalState":{"key":"14","name":"Sachsen"}},{"name":"Bagenzer Str.","postalCode":"03058","locality":"Neuhausen/Spree","municipality":{"key":"12071301","name":"Neuhausen/Spree / Kopańce/Sprjewja","type":"Kreisangehörige_Gemeinde"},"district":{"key":"12071","name":"Spree-Neiße","type":"Landkreis"},"federalState":{"key":"12","name":"Brandenburg"}},{"name":"Bagenzer Weg","postalCode":"03058","locality":"Neuhausen/Spree","municipality":{"key":"12071301","name":"Neuhausen/Spree / Kopańce/Sprjewja","type":"Kreisangehörige_Gemeinde"},"district":{"key":"12071","name":"Spree-Neiße","type":"Landkreis"},"federalState":{"key":"12","name":"Brandenburg"}},{"name":"Bahnhofstr.","postalCode":"03058","locality":"Neuhausen/Spree","municipality":{"key":"12071301","name":"Neuhausen/Spree / Kopańce/Sprjewja","type":"Kreisangehörige_Gemeinde"},"district":{"key":"12071","name":"Spree-Neiße","type":"Landkreis"},"federalState":{"key":"12","name":"Brandenburg"}},{"name":"Bahnhofstr.","postalCode":"09544","locality":"Neuhausen/Erzgebirge","municipality":{"key":"14522400","name":"Neuhausen/Erzgeb.","type":"Kreisangehörige_Gemeinde"},"district":{"key":"14522","name":"Mittelsachsen","type":"Landkreis"},"federalState":{"key":"14","name":"Sachsen"}},{"name":"Bahnhofstr.","postalCode":"73765","locality":"Neuhausen auf den Fildern","municipality":{"key":"08116047","name":"Neuhausen auf den Fildern","type":"Kreisangehörige_Gemeinde"},"district":{"key":"08116","name":"Esslingen","type":"Landkreis"},"federalState":{"key":"08","name":"Baden-Württemberg"}},{"name":"Bahnhofstr.","postalCode":"99625","locality":"Großneuhausen","municipality":{"key":"16068019","name":"Großneuhausen","type":"Kreisangehörige_Gemeinde"},"district":{"key":"16068","name":"Sömmerda","type":"Landkreis"},"federalState":{"key":"16","name":"Thüringen"}},{"name":"Bahnweg","postalCode":"03058","locality":"Neuhausen/Spree","municipality":{"key":"12071301","name":"Neuhausen/Spree / Kopańce/Sprjewja","type":"Kreisangehörige_Gemeinde"},"district":{"key":"12071","name":"Spree-Neiße","type":"Landkreis"},"federalState":{"key":"12","name":"Brandenburg"}},{"name":"Bannholzweg","postalCode":"75242","locality":"Neuhausen","municipality":{"key":"08236044","name":"Neuhausen","type":"Kreisangehörige_Gemeinde"},"district":{"key":"08236","name":"Enzkreis","type":"Landkreis"},"federalState":{"key":"08","name":"Baden-Württemberg"}},{"name":"Bärenweg","postalCode":"75242","locality":"Neuhausen","municipality":{"key":"08236044","name":"Neuhausen","type":"Kreisangehörige_Gemeinde"},"district":{"key":"08236","name":"Enzkreis","type":"Landkreis"},"federalState":{"key":"08","name":"Baden-Württemberg"}},{"name":"Baschäcker","postalCode":"75242","locality":"Neuhausen","municipality":{"key":"08236044","name":"Neuhausen","type":"Kreisangehörige_Gemeinde"},"district":{"key":"08236","name":"Enzkreis","type":"Landkreis"},"federalState":{"key":"08","name":"Baden-Württemberg"}},{"name":"Baumstr.","postalCode":"75242","locality":"Neuhausen","municipality":{"key":"08236044","name":"Neuhausen","type":"Kreisangehörige_Gemeinde"},"district":{"key":"08236","name":"Enzkreis","type":"Landkreis"},"federalState":{"key":"08","name":"Baden-Württemberg"}},{"name":"Beethovenstr.","postalCode":"73765","locality":"Neuhausen auf den Fildern","municipality":{"key":"08116047","name":"Neuhausen auf den Fildern","type":"Kreisangehörige_Gemeinde"},"district":{"key":"08116","name":"Esslingen","type":"Landkreis"},"federalState":{"key":"08","name":"Baden-Württemberg"}},{"name":"Beethovenstr.","postalCode":"75242","locality":"Neuhausen","municipality":{"key":"08236044","name":"Neuhausen","type":"Kreisangehörige_Gemeinde"},"district":{"key":"08236","name":"Enzkreis","type":"Landkreis"},"federalState":{"key":"08","name":"Baden-Württemberg"}},{"name":"Beethovenstr.","postalCode":"78579","locality":"Neuhausen ob Eck","municipality":{"key":"08327038","name":"Neuhausen ob Eck","type":"Kreisangehörige_Gemeinde"},"district":{"key":"08327","name":"Tuttlingen","type":"Landkreis"},"federalState":{"key":"08","name":"Baden-Württemberg"}},{"name":"Bei der Kirche","postalCode":"78579","locality":"Neuhausen ob Eck","municipality":{"key":"08327038","name":"Neuhausen ob Eck","type":"Kreisangehörige_Gemeinde"},"district":{"key":"08327","name":"Tuttlingen","type":"Landkreis"},"federalState":{"key":"08","name":"Baden-Württemberg"}},{"name":"Bei der Schule","postalCode":"78579","locality":"Neuhausen ob Eck","municipality":{"key":"08327038","name":"Neuhausen ob Eck","type":"Kreisangehörige_Gemeinde"},"district":{"key":"08327","name":"Tuttlingen","type":"Landkreis"},"federalState":{"key":"08","name":"Baden-Württemberg"}},{"name":"Beim Friedhof","postalCode":"78579","locality":"Neuhausen ob Eck","municipality":{"key":"08327038","name":"Neuhausen ob Eck","type":"Kreisangehörige_Gemeinde"},"district":{"key":"08327","name":"Tuttlingen","type":"Landkreis"},"federalState":{"key":"08","name":"Baden-Württemberg"}},{"name":"Beim Steinbruch","postalCode":"78579","locality":"Neuhausen ob Eck","municipality":{"key":"08327038","name":"Neuhausen ob Eck","type":"Kreisangehörige_Gemeinde"},"district":{"key":"08327","name":"Tuttlingen","type":"Landkreis"},"federalState":{"key":"08","name":"Baden-Württemberg"}},{"name":"Benzachweg","postalCode":"73765","locality":"Neuhausen auf den Fildern","municipality":{"key":"08116047","name":"Neuhausen auf den Fildern","type":"Kreisangehörige_Gemeinde"},"district":{"key":"08116","name":"Esslingen","type":"Landkreis"},"federalState":{"key":"08","name":"Baden-Württemberg"}},{"name":"Bergstr.","postalCode":"03058","locality":"Neuhausen/Spree","municipality":{"key":"12071301","name":"Neuhausen/Spree / Kopańce/Sprjewja","type":"Kreisangehörige_Gemeinde"},"district":{"key":"12071","name":"Spree-Neiße","type":"Landkreis"},"federalState":{"key":"12","name":"Brandenburg"}},{"name":"Bergstr.","postalCode":"09544","locality":"Neuhausen/Erzgebirge","municipality":{"key":"14522400","name":"Neuhausen/Erzgeb.","type":"Kreisangehörige_Gemeinde"},"district":{"key":"14522","name":"Mittelsachsen","type":"Landkreis"},"federalState":{"key":"14","name":"Sachsen"}},{"name":"Bernhäuser Str.","postalCode":"73765","locality":"Neuhausen auf den Fildern","municipality":{"key":"08116047","name":"Neuhausen auf den Fildern","type":"Kreisangehörige_Gemeinde"},"district":{"key":"08116","name":"Esslingen","type":"Landkreis"},"federalState":{"key":"08","name":"Baden-Württemberg"}},{"name":"Betzlenweg","postalCode":"78579","locality":"Neuhausen ob Eck","municipality":{"key":"08327038","name":"Neuhausen ob Eck","type":"Kreisangehörige_Gemeinde"},"district":{"key":"08327","name":"Tuttlingen","type":"Landkreis"},"federalState":{"key":"08","name":"Baden-Württemberg"}},{"name":"Bienenmühler Str.","postalCode":"09544","locality":"Neuhausen/Erzgebirge","municipality":{"key":"14522400","name":"Neuhausen/Erzgeb.","type":"Kreisangehörige_Gemeinde"},"district":{"key":"14522","name":"Mittelsachsen","type":"Landkreis"},"federalState":{"key":"14","name":"Sachsen"}},{"name":"Birkengrund","postalCode":"03058","locality":"Neuhausen/Spree","municipality":{"key":"12071301","name":"Neuhausen/Spree / Kopańce/Sprjewja","type":"Kreisangehörige_Gemeinde"},"district":{"key":"12071","name":"Spree-Neiße","type":"Landkreis"},"federalState":{"key":"12","name":"Brandenburg"}},{"name":"Birkenhain","postalCode":"03058","locality":"Neuhausen/Spree","municipality":{"key":"12071301","name":"Neuhausen/Spree / Kopańce/Sprjewja","type":"Kreisangehörige_Gemeinde"},"district":{"key":"12071","name":"Spree-Neiße","type":"Landkreis"},"federalState":{"key":"12","name":"Brandenburg"}},{"name":"Birkenhof","postalCode":"75242","locality":"Neuhausen","municipality":{"key":"08236044","name":"Neuhausen","type":"Kreisangehörige_Gemeinde"},"district":{"key":"08236","name":"Enzkreis","type":"Landkreis"},"federalState":{"key":"08","name":"Baden-Württemberg"}},{"name":"Birkenstr.","postalCode":"03058","locality":"Neuhausen/Spree","municipality":{"key":"12071301","name":"Neuhausen/Spree / Kopańce/Sprjewja","type":"Kreisangehörige_Gemeinde"},"district":{"key":"12071","name":"Spree-Neiße","type":"Landkreis"},"federalState":{"key":"12","name":"Brandenburg"}},{"name":"Birkenweg","postalCode":"03058","locality":"Neuhausen/Spree","municipality":{"key":"12071301","name":"Neuhausen/Spree / Kopańce/Sprjewja","type":"Kreisangehörige_Gemeinde"},"district":{"key":"12071","name":"Spree-Neiße","type":"Landkreis"},"federalState":{"key":"12","name":"Brandenburg"}},{"name":"Birkenweg","postalCode":"73765","locality":"Neuhausen auf den Fildern","municipality":{"key":"08116047","name":"Neuhausen auf den Fildern","type":"Kreisangehörige_Gemeinde"},"district":{"key":"08116","name":"Esslingen","type":"Landkreis"},"federalState":{"key":"08","name":"Baden-Württemberg"}},{"name":"Birkenweg","postalCode":"75242","locality":"Neuhausen","municipality":{"key":"08236044","name":"Neuhausen","type":"Kreisangehörige_Gemeinde"},"district":{"key":"08236","name":"Enzkreis","type":"Landkreis"},"federalState":{"key":"08","name":"Baden-Württemberg"}},{"name":"Birkenweg","postalCode":"78579","locality":"Neuhausen ob Eck","municipality":{"key":"08327038","name":"Neuhausen ob Eck","type":"Kreisangehörige_Gemeinde"},"district":{"key":"08327","name":"Tuttlingen","type":"Landkreis"},"federalState":{"key":"08","name":"Baden-Württemberg"}},{"name":"Birkhau","postalCode":"75242","locality":"Neuhausen","municipality":{"key":"08236044","name":"Neuhausen","type":"Kreisangehörige_Gemeinde"},"district":{"key":"08236","name":"Enzkreis","type":"Landkreis"},"federalState":{"key":"08","name":"Baden-Württemberg"}},{"name":"Birkstockweg","postalCode":"78579","locality":"Neuhausen ob Eck","municipality":{"key":"08327038","name":"Neuhausen ob Eck","type":"Kreisangehörige_Gemeinde"},"district":{"key":"08327","name":"Tuttlingen","type":"Landkreis"},"federalState":{"key":"08","name":"Baden-Württemberg"}},{"name":"Bismarckstr.","postalCode":"73765","locality":"Neuhausen auf den Fildern","municipality":{"key":"08116047","name":"Neuhausen auf den Fildern","type":"Kreisangehörige_Gemeinde"},"district":{"key":"08116","name":"Esslingen","type":"Landkreis"},"federalState":{"key":"08","name":"Baden-Württemberg"}},{"name":"Blumenstr.","postalCode":"73765","locality":"Neuhausen auf den Fildern","municipality":{"key":"08116047","name":"Neuhausen auf den Fildern","type":"Kreisangehörige_Gemeinde"},"district":{"key":"08116","name":"Esslingen","type":"Landkreis"},"federalState":{"key":"08","name":"Baden-Württemberg"}},{"name":"Blumenstr.","postalCode":"75242","locality":"Neuhausen","municipality":{"key":"08236044","name":"Neuhausen","type":"Kreisangehörige_Gemeinde"},"district":{"key":"08236","name":"Enzkreis","type":"Landkreis"},"federalState":{"key":"08","name":"Baden-Württemberg"}},{"name":"Blumenstr.","postalCode":"78579","locality":"Neuhausen ob Eck","municipality":{"key":"08327038","name":"Neuhausen ob Eck","type":"Kreisangehörige_Gemeinde"},"district":{"key":"08327","name":"Tuttlingen","type":"Landkreis"},"federalState":{"key":"08","name":"Baden-Württemberg"}},{"name":"Bohltäle","postalCode":"78579","locality":"Neuhausen ob Eck","municipality":{"key":"08327038","name":"Neuhausen ob Eck","type":"Kreisangehörige_Gemeinde"},"district":{"key":"08327","name":"Tuttlingen","type":"Landkreis"},"federalState":{"key":"08","name":"Baden-Württemberg"}},{"name":"Bohlweg","postalCode":"78579","locality":"Neuhausen ob Eck","municipality":{"key":"08327038","name":"Neuhausen ob Eck","type":"Kreisangehörige_Gemeinde"},"district":{"key":"08327","name":"Tuttlingen","type":"Landkreis"},"federalState":{"key":"08","name":"Baden-Württemberg"}},{"name":"Brahmsweg","postalCode":"73765","locality":"Neuhausen auf den Fildern","municipality":{"key":"08116047","name":"Neuhausen auf den Fildern","type":"Kreisangehörige_Gemeinde"},"district":{"key":"08116","name":"Esslingen","type":"Landkreis"},"federalState":{"key":"08","name":"Baden-Württemberg"}},{"name":"Calwer Str.","postalCode":"75242","locality":"Neuhausen","municipality":{"key":"08236044","name":"Neuhausen","type":"Kreisangehörige_Gemeinde"},"district":{"key":"08236","name":"Enzkreis","type":"Landkreis"},"federalState":{"key":"08","name":"Baden-Württemberg"}},{"name":"Cämmerswalder Weg","postalCode":"09544","locality":"Neuhausen/Erzgebirge","municipality":{"key":"14522400","name":"Neuhausen/Erzgeb.","type":"Kreisangehörige_Gemeinde"},"district":{"key":"14522","name":"Mittelsachsen","type":"Landkreis"},"federalState":{"key":"14","name":"Sachsen"}},{"name":"Carl-Benz-Str.","postalCode":"78579","locality":"Neuhausen ob Eck","municipality":{"key":"08327038","name":"Neuhausen ob Eck","type":"Kreisangehörige_Gemeinde"},"district":{"key":"08327","name":"Tuttlingen","type":"Landkreis"},"federalState":{"key":"08","name":"Baden-Württemberg"}},{"name":"Chausseestr.","postalCode":"03058","locality":"Neuhausen/Spree","municipality":{"key":"12071301","name":"Neuhausen/Spree / Kopańce/Sprjewja","type":"Kreisangehörige_Gemeinde"},"district":{"key":"12071","name":"Spree-Neiße","type":"Landkreis"},"federalState":{"key":"12","name":"Brandenburg"}},{"name":"Cottbuser Str.","postalCode":"03058","locality":"Neuhausen/Spree","municipality":{"key":"12071301","name":"Neuhausen/Spree / Kopańce/Sprjewja","type":"Kreisangehörige_Gemeinde"},"district":{"key":"12071","name":"Spree-Neiße","type":"Landkreis"},"federalState":{"key":"12","name":"Brandenburg"}},{"name":"Dahlienweg","postalCode":"73765","locality":"Neuhausen auf den Fildern","municipality":{"key":"08116047","name":"Neuhausen auf den Fildern","type":"Kreisangehörige_Gemeinde"},"district":{"key":"08116","name":"Esslingen","type":"Landkreis"},"federalState":{"key":"08","name":"Baden-Württemberg"}},{"name":"Danningen","postalCode":"78579","locality":"Neuhausen ob Eck","municipality":{"key":"08327038","name":"Neuhausen ob Eck","type":"Kreisangehörige_Gemeinde"},"district":{"key":"08327","name":"Tuttlingen","type":"Landkreis"},"federalState":{"key":"08","name":"Baden-Württemberg"}},{"name":"Denkendorfer Str.","postalCode":"73765","locality":"Neuhausen auf den Fildern","municipality":{"key":"08116047","name":"Neuhausen auf den Fildern","type":"Kreisangehörige_Gemeinde"},"district":{"key":"08116","name":"Esslingen","type":"Landkreis"},"federalState":{"key":"08","name":"Baden-Württemberg"}},{"name":"Deutscheinsiedler Weg","postalCode":"09544","locality":"Neuhausen/Erzgebirge","municipality":{"key":"14522400","name":"Neuhausen/Erzgeb.","type":"Kreisangehörige_Gemeinde"},"district":{"key":"14522","name":"Mittelsachsen","type":"Landkreis"},"federalState":{"key":"14","name":"Sachsen"}},{"name":"Deutschgeorgenthal","postalCode":"09544","locality":"Neuhausen/Erzgebirge","municipality":{"key":"14522400","name":"Neuhausen/Erzgeb.","type":"Kreisangehörige_Gemeinde"},"district":{"key":"14522","name":"Mittelsachsen","type":"Landkreis"},"federalState":{"key":"14","name":"Sachsen"}},{"name":"Dietrich-Bonhoeffer-Str.","postalCode":"73765","locality":"Neuhausen auf den Fildern","municipality":{"key":"08116047","name":"Neuhausen auf den Fildern","type":"Kreisangehörige_Gemeinde"},"district":{"key":"08116","name":"Esslingen","type":"Landkreis"},"federalState":{"key":"08","name":"Baden-Württemberg"}},{"name":"Dinkeltal","postalCode":"78579","locality":"Neuhausen ob Eck","municipality":{"key":"08327038","name":"Neuhausen ob Eck","type":"Kreisangehörige_Gemeinde"},"district":{"key":"08327","name":"Tuttlingen","type":"Landkreis"},"federalState":{"key":"08","name":"Baden-Württemberg"}},{"name":"Dissenchener Str.","postalCode":"03058","locality":"Neuhausen/Spree","municipality":{"key":"12071301","name":"Neuhausen/Spree / Kopańce/Sprjewja","type":"Kreisangehörige_Gemeinde"},"district":{"key":"12071","name":"Spree-Neiße","type":"Landkreis"},"federalState":{"key":"12","name":"Brandenburg"}},{"name":"Dittersbacher Weg","postalCode":"09544","locality":"Neuhausen/Erzgebirge","municipality":{"key":"14522400","name":"Neuhausen/Erzgeb.","type":"Kreisangehörige_Gemeinde"},"district":{"key":"14522","name":"Mittelsachsen","type":"Landkreis"},"federalState":{"key":"14","name":"Sachsen"}},{"name":"Dollbronnerstr.","postalCode":"75242","locality":"Neuhausen","municipality":{"key":"08236044","name":"Neuhausen","type":"Kreisangehörige_Gemeinde"},"district":{"key":"08236","name":"Enzkreis","type":"Landkreis"},"federalState":{"key":"08","name":"Baden-Württemberg"}},{"name":"Dorfäckerweg","postalCode":"75242","locality":"Neuhausen","municipality":{"key":"08236044","name":"Neuhausen","type":"Kreisangehörige_Gemeinde"},"district":{"key":"08236","name":"Enzkreis","type":"Landkreis"},"federalState":{"key":"08","name":"Baden-Württemberg"}},{"name":"Dorfanger","postalCode":"03058","locality":"Neuhausen/Spree","municipality":{"key":"12071301","name":"Neuhausen/Spree / Kopańce/Sprjewja","type":"Kreisangehörige_Gemeinde"},"district":{"key":"12071","name":"Spree-Neiße","type":"Landkreis"},"federalState":{"key":"12","name":"Brandenburg"}},{"name":"Dorfaue","postalCode":"03058","locality":"Neuhausen/Spree","municipality":{"key":"12071301","name":"Neuhausen/Spree / Kopańce/Sprjewja","type":"Kreisangehörige_Gemeinde"},"district":{"key":"12071","name":"Spree-Neiße","type":"Landkreis"},"federalState":{"key":"12","name":"Brandenburg"}},{"name":"Dornerstr.","postalCode":"78579","locality":"Neuhausen ob Eck","municipality":{"key":"08327038","name":"Neuhausen ob Eck","type":"Kreisangehörige_Gemeinde"},"district":{"key":"08327","name":"Tuttlingen","type":"Landkreis"},"federalState":{"key":"08","name":"Baden-Württemberg"}},{"name":"Drebkauer Str.","postalCode":"03058","locality":"Neuhausen/Spree","municipality":{"key":"12071301","name":"Neuhausen/Spree / Kopańce/Sprjewja","type":"Kreisangehörige_Gemeinde"},"district":{"key":"12071","name":"Spree-Neiße","type":"Landkreis"},"federalState":{"key":"12","name":"Brandenburg"}},{"name":"Dreckchaussee","postalCode":"09544","locality":"Neuhausen/Erzgebirge","municipality":{"key":"14522400","name":"Neuhausen/Erzgeb.","type":"Kreisangehörige_Gemeinde"},"district":{"key":"14522","name":"Mittelsachsen","type":"Landkreis"},"federalState":{"key":"14","name":"Sachsen"}},{"name":"Dreisamstr.","postalCode":"75242","locality":"Neuhausen","municipality":{"key":"08236044","name":"Neuhausen","type":"Kreisangehörige_Gemeinde"},"district":{"key":"08236","name":"Enzkreis","type":"Landkreis"},"federalState":{"key":"08","name":"Baden-Württemberg"}},{"name":"Dr.-Erwin-Fahr-Str.","postalCode":"78579","locality":"Neuhausen ob Eck","municipality":{"key":"08327038","name":"Neuhausen ob Eck","type":"Kreisangehörige_Gemeinde"},"district":{"key":"08327","name":"Tuttlingen","type":"Landkreis"},"federalState":{"key":"08","name":"Baden-Württemberg"}},{"name":"Drescherweg","postalCode":"09544","locality":"Neuhausen/Erzgebirge","municipality":{"key":"14522400","name":"Neuhausen/Erzgeb.","type":"Kreisangehörige_Gemeinde"},"district":{"key":"14522","name":"Mittelsachsen","type":"Landkreis"},"federalState":{"key":"14","name":"Sachsen"}},{"name":"Drieschnitzer Dorfstr.","postalCode":"03058","locality":"Neuhausen/Spree","municipality":{"key":"12071301","name":"Neuhausen/Spree / Kopańce/Sprjewja","type":"Kreisangehörige_Gemeinde"},"district":{"key":"12071","name":"Spree-Neiße","type":"Landkreis"},"federalState":{"key":"12","name":"Brandenburg"}},{"name":"Drieschnitz-Vorwerk","postalCode":"03058","locality":"Neuhausen/Spree","municipality":{"key":"12071301","name":"Neuhausen/Spree / Kopańce/Sprjewja","type":"Kreisangehörige_Gemeinde"},"district":{"key":"12071","name":"Spree-Neiße","type":"Landkreis"},"federalState":{"key":"12","name":"Brandenburg"}},{"name":"Drosselweg","postalCode":"73765","locality":"Neuhausen auf den Fildern","municipality":{"key":"08116047","name":"Neuhausen auf den Fildern","type":"Kreisangehörige_Gemeinde"},"district":{"key":"08116","name":"Esslingen","type":"Landkreis"},"federalState":{"key":"08","name":"Baden-Württemberg"}},{"name":"Drosselweg","postalCode":"75242","locality":"Neuhausen","municipality":{"key":"08236044","name":"Neuhausen","type":"Kreisangehörige_Gemeinde"},"district":{"key":"08236","name":"Enzkreis","type":"Landkreis"},"federalState":{"key":"08","name":"Baden-Württemberg"}},{"name":"Dr.-Sauer-Str.","postalCode":"03058","locality":"Neuhausen/Spree","municipality":{"key":"12071301","name":"Neuhausen/Spree / Kopańce/Sprjewja","type":"Kreisangehörige_Gemeinde"},"district":{"key":"12071","name":"Spree-Neiße","type":"Landkreis"},"federalState":{"key":"12","name":"Brandenburg"}},{"name":"Dr.-Walter-Lang-Weg","postalCode":"78579","locality":"Neuhausen ob Eck","municipality":{"key":"08327038","name":"Neuhausen ob Eck","type":"Kreisangehörige_Gemeinde"},"district":{"key":"08327","name":"Tuttlingen","type":"Landkreis"},"federalState":{"key":"08","name":"Baden-Württemberg"}},{"name":"Dürreflussweg","postalCode":"09544","locality":"Neuhausen/Erzgebirge","municipality":{"key":"14522400","name":"Neuhausen/Erzgeb.","type":"Kreisangehörige_Gemeinde"},"district":{"key":"14522","name":"Mittelsachsen","type":"Landkreis"},"federalState":{"key":"14","name":"Sachsen"}},{"name":"Eberhardstr.","postalCode":"73765","locality":"Neuhausen auf den Fildern","municipality":{"key":"08116047","name":"Neuhausen auf den Fildern","type":"Kreisangehörige_Gemeinde"},"district":{"key":"08116","name":"Esslingen","type":"Landkreis"},"federalState":{"key":"08","name":"Baden-Württemberg"}},{"name":"Eckstr.","postalCode":"78579","locality":"Neuhausen ob Eck","municipality":{"key":"08327038","name":"Neuhausen ob Eck","type":"Kreisangehörige_Gemeinde"},"district":{"key":"08327","name":"Tuttlingen","type":"Landkreis"},"federalState":{"key":"08","name":"Baden-Württemberg"}},{"name":"Eichendorffstr.","postalCode":"75242","locality":"Neuhausen","municipality":{"key":"08236044","name":"Neuhausen","type":"Kreisangehörige_Gemeinde"},"district":{"key":"08236","name":"Enzkreis","type":"Landkreis"},"federalState":{"key":"08","name":"Baden-Württemberg"}},{"name":"Eichendorffweg","postalCode":"73765","locality":"Neuhausen auf den Fildern","municipality":{"key":"08116047","name":"Neuhausen auf den Fildern","type":"Kreisangehörige_Gemeinde"},"district":{"key":"08116","name":"Esslingen","type":"Landkreis"},"federalState":{"key":"08","name":"Baden-Württemberg"}},{"name":"Eichenstr.","postalCode":"03058","locality":"Neuhausen/Spree","municipality":{"key":"12071301","name":"Neuhausen/Spree / Kopańce/Sprjewja","type":"Kreisangehörige_Gemeinde"},"district":{"key":"12071","name":"Spree-Neiße","type":"Landkreis"},"federalState":{"key":"12","name":"Brandenburg"}},{"name":"Eichenweg","postalCode":"03058","locality":"Neuhausen/Spree","municipality":{"key":"12071301","name":"Neuhausen/Spree / Kopańce/Sprjewja","type":"Kreisangehörige_Gemeinde"},"district":{"key":"12071","name":"Spree-Neiße","type":"Landkreis"},"federalState":{"key":"12","name":"Brandenburg"}},{"name":"Eichsträßle","postalCode":"75242","locality":"Neuhausen","municipality":{"key":"08236044","name":"Neuhausen","type":"Kreisangehörige_Gemeinde"},"district":{"key":"08236","name":"Enzkreis","type":"Landkreis"},"federalState":{"key":"08","name":"Baden-Württemberg"}},{"name":"Einserweg","postalCode":"09544","locality":"Neuhausen/Erzgebirge","municipality":{"key":"14522400","name":"Neuhausen/Erzgeb.","type":"Kreisangehörige_Gemeinde"},"district":{"key":"14522","name":"Mittelsachsen","type":"Landkreis"},"federalState":{"key":"14","name":"Sachsen"}},{"name":"Elsbeerweg","postalCode":"73765","locality":"Neuhausen auf den Fildern","municipality":{"key":"08116047","name":"Neuhausen auf den Fildern","type":"Kreisangehörige_Gemeinde"},"district":{"key":"08116","name":"Esslingen","type":"Landkreis"},"federalState":{"key":"08","name":"Baden-Württemberg"}},{"name":"Entenstr.","postalCode":"73765","locality":"Neuhausen auf den Fildern","municipality":{"key":"08116047","name":"Neuhausen auf den Fildern","type":"Kreisangehörige_Gemeinde"},"district":{"key":"08116","name":"Esslingen","type":"Landkreis"},"federalState":{"key":"08","name":"Baden-Württemberg"}},{"name":"Erlachweg","postalCode":"73765","locality":"Neuhausen auf den Fildern","municipality":{"key":"08116047","name":"Neuhausen auf den Fildern","type":"Kreisangehörige_Gemeinde"},"district":{"key":"08116","name":"Esslingen","type":"Landkreis"},"federalState":{"key":"08","name":"Baden-Württemberg"}},{"name":"Erlenbrunnenweg","postalCode":"75242","locality":"Neuhausen","municipality":{"key":"08236044","name":"Neuhausen","type":"Kreisangehörige_Gemeinde"},"district":{"key":"08236","name":"Enzkreis","type":"Landkreis"},"federalState":{"key":"08","name":"Baden-Württemberg"}},{"name":"Erlenstr.","postalCode":"75242","locality":"Neuhausen","municipality":{"key":"08236044","name":"Neuhausen","type":"Kreisangehörige_Gemeinde"},"district":{"key":"08236","name":"Enzkreis","type":"Landkreis"},"federalState":{"key":"08","name":"Baden-Württemberg"}},{"name":"Erlenweg","postalCode":"73765","locality":"Neuhausen auf den Fildern","municipality":{"key":"08116047","name":"Neuhausen auf den Fildern","type":"Kreisangehörige_Gemeinde"},"district":{"key":"08116","name":"Esslingen","type":"Landkreis"},"federalState":{"key":"08","name":"Baden-Württemberg"}},{"name":"Ernst-Arnold-Weg","postalCode":"09544","locality":"Neuhausen/Erzgebirge","municipality":{"key":"14522400","name":"Neuhausen/Erzgeb.","type":"Kreisangehörige_Gemeinde"},"district":{"key":"14522","name":"Mittelsachsen","type":"Landkreis"},"federalState":{"key":"14","name":"Sachsen"}},{"name":"Ernst-Thälmann-Str.","postalCode":"09544","locality":"Neuhausen/Erzgebirge","municipality":{"key":"14522400","name":"Neuhausen/Erzgeb.","type":"Kreisangehörige_Gemeinde"},"district":{"key":"14522","name":"Mittelsachsen","type":"Landkreis"},"federalState":{"key":"14","name":"Sachsen"}},{"name":"Eschenweg","postalCode":"09544","locality":"Neuhausen/Erzgebirge","municipality":{"key":"14522400","name":"Neuhausen/Erzgeb.","type":"Kreisangehörige_Gemeinde"},"district":{"key":"14522","name":"Mittelsachsen","type":"Landkreis"},"federalState":{"key":"14","name":"Sachsen"}},{"name":"Eschenweg","postalCode":"73765","locality":"Neuhausen auf den Fildern","municipality":{"key":"08116047","name":"Neuhausen auf den Fildern","type":"Kreisangehörige_Gemeinde"},"district":{"key":"08116","name":"Esslingen","type":"Landkreis"},"federalState":{"key":"08","name":"Baden-Württemberg"}},{"name":"Espanweg","postalCode":"78579","locality":"Neuhausen ob Eck","municipality":{"key":"08327038","name":"Neuhausen ob Eck","type":"Kreisangehörige_Gemeinde"},"district":{"key":"08327","name":"Tuttlingen","type":"Landkreis"},"federalState":{"key":"08","name":"Baden-Württemberg"}},{"name":"Esslinger Str.","postalCode":"73765","locality":"Neuhausen auf den Fildern","municipality":{"key":"08116047","name":"Neuhausen auf den Fildern","type":"Kreisangehörige_Gemeinde"},"district":{"key":"08116","name":"Esslingen","type":"Landkreis"},"federalState":{"key":"08","name":"Baden-Württemberg"}},{"name":"Eugen-Schaal-Weg","postalCode":"75242","locality":"Neuhausen","municipality":{"key":"08236044","name":"Neuhausen","type":"Kreisangehörige_Gemeinde"},"district":{"key":"08236","name":"Enzkreis","type":"Landkreis"},"federalState":{"key":"08","name":"Baden-Württemberg"}},{"name":"Eulenspiegel Weg","postalCode":"75242","locality":"Neuhausen","municipality":{"key":"08236044","name":"Neuhausen","type":"Kreisangehörige_Gemeinde"},"district":{"key":"08236","name":"Enzkreis","type":"Landkreis"},"federalState":{"key":"08","name":"Baden-Württemberg"}},{"name":"Farnackerweg","postalCode":"75242","locality":"Neuhausen","municipality":{"key":"08236044","name":"Neuhausen","type":"Kreisangehörige_Gemeinde"},"district":{"key":"08236","name":"Enzkreis","type":"Landkreis"},"federalState":{"key":"08","name":"Baden-Württemberg"}},{"name":"Feldstr.","postalCode":"03058","locality":"Neuhausen/Spree","municipality":{"key":"12071301","name":"Neuhausen/Spree / Kopańce/Sprjewja","type":"Kreisangehörige_Gemeinde"},"district":{"key":"12071","name":"Spree-Neiße","type":"Landkreis"},"federalState":{"key":"12","name":"Brandenburg"}},{"name":"Feldweg","postalCode":"03058","locality":"Neuhausen/Spree","municipality":{"key":"12071301","name":"Neuhausen/Spree / Kopańce/Sprjewja","type":"Kreisangehörige_Gemeinde"},"district":{"key":"12071","name":"Spree-Neiße","type":"Landkreis"},"federalState":{"key":"12","name":"Brandenburg"}},{"name":"Felsenweg","postalCode":"75242","locality":"Neuhausen","municipality":{"key":"08236044","name":"Neuhausen","type":"Kreisangehörige_Gemeinde"},"district":{"key":"08236","name":"Enzkreis","type":"Landkreis"},"federalState":{"key":"08","name":"Baden-Württemberg"}},{"name":"Ferdinand-Sickinger-Weg","postalCode":"75242","locality":"Neuhausen","municipality":{"key":"08236044","name":"Neuhausen","type":"Kreisangehörige_Gemeinde"},"district":{"key":"08236","name":"Enzkreis","type":"Landkreis"},"federalState":{"key":"08","name":"Baden-Württemberg"}},{"name":"Filderhöhe","postalCode":"73765","locality":"Neuhausen auf den Fildern","municipality":{"key":"08116047","name":"Neuhausen auf den Fildern","type":"Kreisangehörige_Gemeinde"},"district":{"key":"08116","name":"Esslingen","type":"Landkreis"},"federalState":{"key":"08","name":"Baden-Württemberg"}},{"name":"Filderstr.","postalCode":"73765","locality":"Neuhausen auf den Fildern","municipality":{"key":"08116047","name":"Neuhausen auf den Fildern","type":"Kreisangehörige_Gemeinde"},"district":{"key":"08116","name":"Esslingen","type":"Landkreis"},"federalState":{"key":"08","name":"Baden-Württemberg"}},{"name":"Finkenstr.","postalCode":"75242","locality":"Neuhausen","municipality":{"key":"08236044","name":"Neuhausen","type":"Kreisangehörige_Gemeinde"},"district":{"key":"08236","name":"Enzkreis","type":"Landkreis"},"federalState":{"key":"08","name":"Baden-Württemberg"}},{"name":"Finkenweg","postalCode":"73765","locality":"Neuhausen auf den Fildern","municipality":{"key":"08116047","name":"Neuhausen auf den Fildern","type":"Kreisangehörige_Gemeinde"},"district":{"key":"08116","name":"Esslingen","type":"Landkreis"},"federalState":{"key":"08","name":"Baden-Württemberg"}},{"name":"Fischweg","postalCode":"75242","locality":"Neuhausen","municipality":{"key":"08236044","name":"Neuhausen","type":"Kreisangehörige_Gemeinde"},"district":{"key":"08236","name":"Enzkreis","type":"Landkreis"},"federalState":{"key":"08","name":"Baden-Württemberg"}},{"name":"FIX ME","postalCode":"99625","locality":"Kleinneuhausen","municipality":{"key":"16068033","name":"Kleinneuhausen","type":"Kreisangehörige_Gemeinde"},"district":{"key":"16068","name":"Sömmerda","type":"Landkreis"},"federalState":{"key":"16","name":"Thüringen"}},{"name":"Fleinsbachstr.","postalCode":"73765","locality":"Neuhausen auf den Fildern","municipality":{"key":"08116047","name":"Neuhausen auf den Fildern","type":"Kreisangehörige_Gemeinde"},"district":{"key":"08116","name":"Esslingen","type":"Landkreis"},"federalState":{"key":"08","name":"Baden-Württemberg"}},{"name":"Fliederstr.","postalCode":"78579","locality":"Neuhausen ob Eck","municipality":{"key":"08327038","name":"Neuhausen ob Eck","type":"Kreisangehörige_Gemeinde"},"district":{"key":"08327","name":"Tuttlingen","type":"Landkreis"},"federalState":{"key":"08","name":"Baden-Württemberg"}},{"name":"Fliederweg","postalCode":"73765","locality":"Neuhausen auf den Fildern","municipality":{"key":"08116047","name":"Neuhausen auf den Fildern","type":"Kreisangehörige_Gemeinde"},"district":{"key":"08116","name":"Esslingen","type":"Landkreis"},"federalState":{"key":"08","name":"Baden-Württemberg"}},{"name":"Fließweg","postalCode":"03058","locality":"Neuhausen/Spree","municipality":{"key":"12071301","name":"Neuhausen/Spree / Kopańce/Sprjewja","type":"Kreisangehörige_Gemeinde"},"district":{"key":"12071","name":"Spree-Neiße","type":"Landkreis"},"federalState":{"key":"12","name":"Brandenburg"}},{"name":"Flossweg","postalCode":"75242","locality":"Neuhausen","municipality":{"key":"08236044","name":"Neuhausen","type":"Kreisangehörige_Gemeinde"},"district":{"key":"08236","name":"Enzkreis","type":"Landkreis"},"federalState":{"key":"08","name":"Baden-Württemberg"}},{"name":"Floßweg","postalCode":"75242","locality":"Neuhausen","municipality":{"key":"08236044","name":"Neuhausen","type":"Kreisangehörige_Gemeinde"},"district":{"key":"08236","name":"Enzkreis","type":"Landkreis"},"federalState":{"key":"08","name":"Baden-Württemberg"}},{"name":"Forster Str.","postalCode":"03058","locality":"Neuhausen/Spree","municipality":{"key":"12071301","name":"Neuhausen/Spree / Kopańce/Sprjewja","type":"Kreisangehörige_Gemeinde"},"district":{"key":"12071","name":"Spree-Neiße","type":"Landkreis"},"federalState":{"key":"12","name":"Brandenburg"}},{"name":"Forststr.","postalCode":"75242","locality":"Neuhausen","municipality":{"key":"08236044","name":"Neuhausen","type":"Kreisangehörige_Gemeinde"},"district":{"key":"08236","name":"Enzkreis","type":"Landkreis"},"federalState":{"key":"08","name":"Baden-Württemberg"}},{"name":"Frankenstr.","postalCode":"73765","locality":"Neuhausen auf den Fildern","municipality":{"key":"08116047","name":"Neuhausen auf den Fildern","type":"Kreisangehörige_Gemeinde"},"district":{"key":"08116","name":"Esslingen","type":"Landkreis"},"federalState":{"key":"08","name":"Baden-Württemberg"}},{"name":"Franz-Hitze-Str.","postalCode":"03058","locality":"Neuhausen/Spree","municipality":{"key":"12071301","name":"Neuhausen/Spree / Kopańce/Sprjewja","type":"Kreisangehörige_Gemeinde"},"district":{"key":"12071","name":"Spree-Neiße","type":"Landkreis"},"federalState":{"key":"12","name":"Brandenburg"}},{"name":"Franz-Holzhauer-Weg","postalCode":"75242","locality":"Neuhausen","municipality":{"key":"08236044","name":"Neuhausen","type":"Kreisangehörige_Gemeinde"},"district":{"key":"08236","name":"Enzkreis","type":"Landkreis"},"federalState":{"key":"08","name":"Baden-Württemberg"}},{"name":"Frauenbachstr.","postalCode":"09544","locality":"Neuhausen/Erzgebirge","municipality":{"key":"14522400","name":"Neuhausen/Erzgeb.","type":"Kreisangehörige_Gemeinde"},"district":{"key":"14522","name":"Mittelsachsen","type":"Landkreis"},"federalState":{"key":"14","name":"Sachsen"}},{"name":"Frauendorfer Str.","postalCode":"03058","locality":"Neuhausen/Spree","municipality":{"key":"12071301","name":"Neuhausen/Spree / Kopańce/Sprjewja","type":"Kreisangehörige_Gemeinde"},"district":{"key":"12071","name":"Spree-Neiße","type":"Landkreis"},"federalState":{"key":"12","name":"Brandenburg"}},{"name":"Frauendorfer Weg","postalCode":"03058","locality":"Neuhausen/Spree","municipality":{"key":"12071301","name":"Neuhausen/Spree / Kopańce/Sprjewja","type":"Kreisangehörige_Gemeinde"},"district":{"key":"12071","name":"Spree-Neiße","type":"Landkreis"},"federalState":{"key":"12","name":"Brandenburg"}},{"name":"Fraueneck","postalCode":"78579","locality":"Neuhausen ob Eck","municipality":{"key":"08327038","name":"Neuhausen ob Eck","type":"Kreisangehörige_Gemeinde"},"district":{"key":"08327","name":"Tuttlingen","type":"Landkreis"},"federalState":{"key":"08","name":"Baden-Württemberg"}},{"name":"Freibadweg","postalCode":"75242","locality":"Neuhausen","municipality":{"key":"08236044","name":"Neuhausen","type":"Kreisangehörige_Gemeinde"},"district":{"key":"08236","name":"Enzkreis","type":"Landkreis"},"federalState":{"key":"08","name":"Baden-Württemberg"}},{"name":"Freiberger Str.","postalCode":"09544","locality":"Neuhausen/Erzgebirge","municipality":{"key":"14522400","name":"Neuhausen/Erzgeb.","type":"Kreisangehörige_Gemeinde"},"district":{"key":"14522","name":"Mittelsachsen","type":"Landkreis"},"federalState":{"key":"14","name":"Sachsen"}},{"name":"Friedhofstr.","postalCode":"73765","locality":"Neuhausen auf den Fildern","municipality":{"key":"08116047","name":"Neuhausen auf den Fildern","type":"Kreisangehörige_Gemeinde"},"district":{"key":"08116","name":"Esslingen","type":"Landkreis"},"federalState":{"key":"08","name":"Baden-Württemberg"}},{"name":"Friedhofstr.","postalCode":"78579","locality":"Neuhausen ob Eck","municipality":{"key":"08327038","name":"Neuhausen ob Eck","type":"Kreisangehörige_Gemeinde"},"district":{"key":"08327","name":"Tuttlingen","type":"Landkreis"},"federalState":{"key":"08","name":"Baden-Württemberg"}},{"name":"Friedhofsweg","postalCode":"03058","locality":"Neuhausen/Spree","municipality":{"key":"12071301","name":"Neuhausen/Spree / Kopańce/Sprjewja","type":"Kreisangehörige_Gemeinde"},"district":{"key":"12071","name":"Spree-Neiße","type":"Landkreis"},"federalState":{"key":"12","name":"Brandenburg"}},{"name":"Friedrich-Ebert-Str.","postalCode":"09544","locality":"Neuhausen/Erzgebirge","municipality":{"key":"14522400","name":"Neuhausen/Erzgeb.","type":"Kreisangehörige_Gemeinde"},"district":{"key":"14522","name":"Mittelsachsen","type":"Landkreis"},"federalState":{"key":"14","name":"Sachsen"}},{"name":"Friedrichstr.","postalCode":"73765","locality":"Neuhausen auf den Fildern","municipality":{"key":"08116047","name":"Neuhausen auf den Fildern","type":"Kreisangehörige_Gemeinde"},"district":{"key":"08116","name":"Esslingen","type":"Landkreis"},"federalState":{"key":"08","name":"Baden-Württemberg"}},{"name":"Fronackerstr.","postalCode":"73765","locality":"Neuhausen auf den Fildern","municipality":{"key":"08116047","name":"Neuhausen auf den Fildern","type":"Kreisangehörige_Gemeinde"},"district":{"key":"08116","name":"Esslingen","type":"Landkreis"},"federalState":{"key":"08","name":"Baden-Württemberg"}},{"name":"Fronaspen","postalCode":"78579","locality":"Neuhausen ob Eck","municipality":{"key":"08327038","name":"Neuhausen ob Eck","type":"Kreisangehörige_Gemeinde"},"district":{"key":"08327","name":"Tuttlingen","type":"Landkreis"},"federalState":{"key":"08","name":"Baden-Württemberg"}},{"name":"Fuchslöcherstr.","postalCode":"73765","locality":"Neuhausen auf den Fildern","municipality":{"key":"08116047","name":"Neuhausen auf den Fildern","type":"Kreisangehörige_Gemeinde"},"district":{"key":"08116","name":"Esslingen","type":"Landkreis"},"federalState":{"key":"08","name":"Baden-Württemberg"}},{"name":"Furtstr.","postalCode":"75242","locality":"Neuhausen","municipality":{"key":"08236044","name":"Neuhausen","type":"Kreisangehörige_Gemeinde"},"district":{"key":"08236","name":"Enzkreis","type":"Landkreis"},"federalState":{"key":"08","name":"Baden-Württemberg"}},{"name":"Gablenzer Dorfstr.","postalCode":"03058","locality":"Neuhausen/Spree","municipality":{"key":"12071301","name":"Neuhausen/Spree / Kopańce/Sprjewja","type":"Kreisangehörige_Gemeinde"},"district":{"key":"12071","name":"Spree-Neiße","type":"Landkreis"},"federalState":{"key":"12","name":"Brandenburg"}},{"name":"Gablenzer Hauptstr.","postalCode":"03058","locality":"Neuhausen/Spree","municipality":{"key":"12071301","name":"Neuhausen/Spree / Kopańce/Sprjewja","type":"Kreisangehörige_Gemeinde"},"district":{"key":"12071","name":"Spree-Neiße","type":"Landkreis"},"federalState":{"key":"12","name":"Brandenburg"}},{"name":"Gablenzer Waldweg","postalCode":"03058","locality":"Neuhausen/Spree","municipality":{"key":"12071301","name":"Neuhausen/Spree / Kopańce/Sprjewja","type":"Kreisangehörige_Gemeinde"},"district":{"key":"12071","name":"Spree-Neiße","type":"Landkreis"},"federalState":{"key":"12","name":"Brandenburg"}},{"name":"Gaglower Str.","postalCode":"03058","locality":"Neuhausen/Spree","municipality":{"key":"12071301","name":"Neuhausen/Spree / Kopańce/Sprjewja","type":"Kreisangehörige_Gemeinde"},"district":{"key":"12071","name":"Spree-Neiße","type":"Landkreis"},"federalState":{"key":"12","name":"Brandenburg"}},{"name":"Galgenbergstr.","postalCode":"75242","locality":"Neuhausen","municipality":{"key":"08236044","name":"Neuhausen","type":"Kreisangehörige_Gemeinde"},"district":{"key":"08236","name":"Enzkreis","type":"Landkreis"},"federalState":{"key":"08","name":"Baden-Württemberg"}},{"name":"Gallenhaldeweg","postalCode":"78579","locality":"Neuhausen ob Eck","municipality":{"key":"08327038","name":"Neuhausen ob Eck","type":"Kreisangehörige_Gemeinde"},"district":{"key":"08327","name":"Tuttlingen","type":"Landkreis"},"federalState":{"key":"08","name":"Baden-Württemberg"}},{"name":"Gallinchener Weg","postalCode":"03058","locality":"Neuhausen/Spree","municipality":{"key":"12071301","name":"Neuhausen/Spree / Kopańce/Sprjewja","type":"Kreisangehörige_Gemeinde"},"district":{"key":"12071","name":"Spree-Neiße","type":"Landkreis"},"federalState":{"key":"12","name":"Brandenburg"}},{"name":"Gartenstr.","postalCode":"03058","locality":"Neuhausen/Spree","municipality":{"key":"12071301","name":"Neuhausen/Spree / Kopańce/Sprjewja","type":"Kreisangehörige_Gemeinde"},"district":{"key":"12071","name":"Spree-Neiße","type":"Landkreis"},"federalState":{"key":"12","name":"Brandenburg"}},{"name":"Gartenstr.","postalCode":"73765","locality":"Neuhausen auf den Fildern","municipality":{"key":"08116047","name":"Neuhausen auf den Fildern","type":"Kreisangehörige_Gemeinde"},"district":{"key":"08116","name":"Esslingen","type":"Landkreis"},"federalState":{"key":"08","name":"Baden-Württemberg"}},{"name":"Gartenstr.","postalCode":"75242","locality":"Neuhausen","municipality":{"key":"08236044","name":"Neuhausen","type":"Kreisangehörige_Gemeinde"},"district":{"key":"08236","name":"Enzkreis","type":"Landkreis"},"federalState":{"key":"08","name":"Baden-Württemberg"}},{"name":"Gartenstr.","postalCode":"78579","locality":"Neuhausen ob Eck","municipality":{"key":"08327038","name":"Neuhausen ob Eck","type":"Kreisangehörige_Gemeinde"},"district":{"key":"08327","name":"Tuttlingen","type":"Landkreis"},"federalState":{"key":"08","name":"Baden-Württemberg"}},{"name":"Gehrenstr.","postalCode":"78579","locality":"Neuhausen ob Eck","municipality":{"key":"08327038","name":"Neuhausen ob Eck","type":"Kreisangehörige_Gemeinde"},"district":{"key":"08327","name":"Tuttlingen","type":"Landkreis"},"federalState":{"key":"08","name":"Baden-Württemberg"}},{"name":"Gehrentalstr.","postalCode":"78579","locality":"Neuhausen ob Eck","municipality":{"key":"08327038","name":"Neuhausen ob Eck","type":"Kreisangehörige_Gemeinde"},"district":{"key":"08327","name":"Tuttlingen","type":"Landkreis"},"federalState":{"key":"08","name":"Baden-Württemberg"}},{"name":"Gemmingenstr.","postalCode":"75242","locality":"Neuhausen","municipality":{"key":"08236044","name":"Neuhausen","type":"Kreisangehörige_Gemeinde"},"district":{"key":"08236","name":"Enzkreis","type":"Landkreis"},"federalState":{"key":"08","name":"Baden-Württemberg"}},{"name":"Genningerweg","postalCode":"78579","locality":"Neuhausen ob Eck","municipality":{"key":"08327038","name":"Neuhausen ob Eck","type":"Kreisangehörige_Gemeinde"},"district":{"key":"08327","name":"Tuttlingen","type":"Landkreis"},"federalState":{"key":"08","name":"Baden-Württemberg"}},{"name":"Goethestr.","postalCode":"75242","locality":"Neuhausen","municipality":{"key":"08236044","name":"Neuhausen","type":"Kreisangehörige_Gemeinde"},"district":{"key":"08236","name":"Enzkreis","type":"Landkreis"},"federalState":{"key":"08","name":"Baden-Württemberg"}},{"name":"Goethestr.","postalCode":"78579","locality":"Neuhausen ob Eck","municipality":{"key":"08327038","name":"Neuhausen ob Eck","type":"Kreisangehörige_Gemeinde"},"district":{"key":"08327","name":"Tuttlingen","type":"Landkreis"},"federalState":{"key":"08","name":"Baden-Württemberg"}},{"name":"Göhrener Str.","postalCode":"09544","locality":"Neuhausen/Erzgebirge","municipality":{"key":"14522400","name":"Neuhausen/Erzgeb.","type":"Kreisangehörige_Gemeinde"},"district":{"key":"14522","name":"Mittelsachsen","type":"Landkreis"},"federalState":{"key":"14","name":"Sachsen"}},{"name":"Göhrener Weg","postalCode":"09544","locality":"Neuhausen/Erzgebirge","municipality":{"key":"14522400","name":"Neuhausen/Erzgeb.","type":"Kreisangehörige_Gemeinde"},"district":{"key":"14522","name":"Mittelsachsen","type":"Landkreis"},"federalState":{"key":"14","name":"Sachsen"}},{"name":"Golaweg","postalCode":"09544","locality":"Neuhausen/Erzgebirge","municipality":{"key":"14522400","name":"Neuhausen/Erzgeb.","type":"Kreisangehörige_Gemeinde"},"district":{"key":"14522","name":"Mittelsachsen","type":"Landkreis"},"federalState":{"key":"14","name":"Sachsen"}},{"name":"Goldschmiedstr.","postalCode":"75242","locality":"Neuhausen","municipality":{"key":"08236044","name":"Neuhausen","type":"Kreisangehörige_Gemeinde"},"district":{"key":"08236","name":"Enzkreis","type":"Landkreis"},"federalState":{"key":"08","name":"Baden-Württemberg"}},{"name":"Goldschmiedsweg","postalCode":"75242","locality":"Neuhausen","municipality":{"key":"08236044","name":"Neuhausen","type":"Kreisangehörige_Gemeinde"},"district":{"key":"08236","name":"Enzkreis","type":"Landkreis"},"federalState":{"key":"08","name":"Baden-Württemberg"}},{"name":"Gottlieb-Daimler-Str.","postalCode":"73765","locality":"Neuhausen auf den Fildern","municipality":{"key":"08116047","name":"Neuhausen auf den Fildern","type":"Kreisangehörige_Gemeinde"},"district":{"key":"08116","name":"Esslingen","type":"Landkreis"},"federalState":{"key":"08","name":"Baden-Württemberg"}},{"name":"Gottlieb-Daimler-Str.","postalCode":"78579","locality":"Neuhausen ob Eck","municipality":{"key":"08327038","name":"Neuhausen ob Eck","type":"Kreisangehörige_Gemeinde"},"district":{"key":"08327","name":"Tuttlingen","type":"Landkreis"},"federalState":{"key":"08","name":"Baden-Württemberg"}},{"name":"Grabenwiesenweg","postalCode":"73765","locality":"Neuhausen auf den Fildern","municipality":{"key":"08116047","name":"Neuhausen auf den Fildern","type":"Kreisangehörige_Gemeinde"},"district":{"key":"08116","name":"Esslingen","type":"Landkreis"},"federalState":{"key":"08","name":"Baden-Württemberg"}},{"name":"Grenzweg","postalCode":"75242","locality":"Neuhausen","municipality":{"key":"08236044","name":"Neuhausen","type":"Kreisangehörige_Gemeinde"},"district":{"key":"08236","name":"Enzkreis","type":"Landkreis"},"federalState":{"key":"08","name":"Baden-Württemberg"}},{"name":"Groß Oßniger Str.","postalCode":"03058","locality":"Neuhausen/Spree","municipality":{"key":"12071301","name":"Neuhausen/Spree / Kopańce/Sprjewja","type":"Kreisangehörige_Gemeinde"},"district":{"key":"12071","name":"Spree-Neiße","type":"Landkreis"},"federalState":{"key":"12","name":"Brandenburg"}},{"name":"Grüntal","postalCode":"03058","locality":"Neuhausen/Spree","municipality":{"key":"12071301","name":"Neuhausen/Spree / Kopańce/Sprjewja","type":"Kreisangehörige_Gemeinde"},"district":{"key":"12071","name":"Spree-Neiße","type":"Landkreis"},"federalState":{"key":"12","name":"Brandenburg"}},{"name":"Gutachstr.","postalCode":"75242","locality":"Neuhausen","municipality":{"key":"08236044","name":"Neuhausen","type":"Kreisangehörige_Gemeinde"},"district":{"key":"08236","name":"Enzkreis","type":"Landkreis"},"federalState":{"key":"08","name":"Baden-Württemberg"}},{"name":"Haasower Ausbau","postalCode":"03058","locality":"Neuhausen/Spree","municipality":{"key":"12071301","name":"Neuhausen/Spree / Kopańce/Sprjewja","type":"Kreisangehörige_Gemeinde"},"district":{"key":"12071","name":"Spree-Neiße","type":"Landkreis"},"federalState":{"key":"12","name":"Brandenburg"}},{"name":"Haasower Hauptstr.","postalCode":"03058","locality":"Neuhausen/Spree","municipality":{"key":"12071301","name":"Neuhausen/Spree / Kopańce/Sprjewja","type":"Kreisangehörige_Gemeinde"},"district":{"key":"12071","name":"Spree-Neiße","type":"Landkreis"},"federalState":{"key":"12","name":"Brandenburg"}},{"name":"Haldenweg","postalCode":"73765","locality":"Neuhausen auf den Fildern","municipality":{"key":"08116047","name":"Neuhausen auf den Fildern","type":"Kreisangehörige_Gemeinde"},"district":{"key":"08116","name":"Esslingen","type":"Landkreis"},"federalState":{"key":"08","name":"Baden-Württemberg"}},{"name":"Hamberger Str.","postalCode":"75242","locality":"Neuhausen","municipality":{"key":"08236044","name":"Neuhausen","type":"Kreisangehörige_Gemeinde"},"district":{"key":"08236","name":"Enzkreis","type":"Landkreis"},"federalState":{"key":"08","name":"Baden-Württemberg"}},{"name":"Hamberger-Tor-Weg","postalCode":"75242","locality":"Neuhausen","municipality":{"key":"08236044","name":"Neuhausen","type":"Kreisangehörige_Gemeinde"},"district":{"key":"08236","name":"Enzkreis","type":"Landkreis"},"federalState":{"key":"08","name":"Baden-Württemberg"}},{"name":"Hamberger Weg","postalCode":"75242","locality":"Neuhausen","municipality":{"key":"08236044","name":"Neuhausen","type":"Kreisangehörige_Gemeinde"},"district":{"key":"08236","name":"Enzkreis","type":"Landkreis"},"federalState":{"key":"08","name":"Baden-Württemberg"}},{"name":"Hammansteinweg","postalCode":"75242","locality":"Neuhausen","municipality":{"key":"08236044","name":"Neuhausen","type":"Kreisangehörige_Gemeinde"},"district":{"key":"08236","name":"Enzkreis","type":"Landkreis"},"federalState":{"key":"08","name":"Baden-Württemberg"}},{"name":"Handscheuerlesweg","postalCode":"75242","locality":"Neuhausen","municipality":{"key":"08236044","name":"Neuhausen","type":"Kreisangehörige_Gemeinde"},"district":{"key":"08236","name":"Enzkreis","type":"Landkreis"},"federalState":{"key":"08","name":"Baden-Württemberg"}},{"name":"Harnischdorfer Str.","postalCode":"03058","locality":"Neuhausen/Spree","municipality":{"key":"12071301","name":"Neuhausen/Spree / Kopańce/Sprjewja","type":"Kreisangehörige_Gemeinde"},"district":{"key":"12071","name":"Spree-Neiße","type":"Landkreis"},"federalState":{"key":"12","name":"Brandenburg"}},{"name":"Harthäuser Str.","postalCode":"73765","locality":"Neuhausen auf den Fildern","municipality":{"key":"08116047","name":"Neuhausen auf den Fildern","type":"Kreisangehörige_Gemeinde"},"district":{"key":"08116","name":"Esslingen","type":"Landkreis"},"federalState":{"key":"08","name":"Baden-Württemberg"}},{"name":"Hasenweg","postalCode":"03058","locality":"Neuhausen/Spree","municipality":{"key":"12071301","name":"Neuhausen/Spree / Kopańce/Sprjewja","type":"Kreisangehörige_Gemeinde"},"district":{"key":"12071","name":"Spree-Neiße","type":"Landkreis"},"federalState":{"key":"12","name":"Brandenburg"}},{"name":"Haslerweg","postalCode":"78579","locality":"Neuhausen ob Eck","municipality":{"key":"08327038","name":"Neuhausen ob Eck","type":"Kreisangehörige_Gemeinde"},"district":{"key":"08327","name":"Tuttlingen","type":"Landkreis"},"federalState":{"key":"08","name":"Baden-Württemberg"}},{"name":"Hauffstr.","postalCode":"73765","locality":"Neuhausen auf den Fildern","municipality":{"key":"08116047","name":"Neuhausen auf den Fildern","type":"Kreisangehörige_Gemeinde"},"district":{"key":"08116","name":"Esslingen","type":"Landkreis"},"federalState":{"key":"08","name":"Baden-Württemberg"}},{"name":"Hauptstr.","postalCode":"03058","locality":"Neuhausen/Spree","municipality":{"key":"12071301","name":"Neuhausen/Spree / Kopańce/Sprjewja","type":"Kreisangehörige_Gemeinde"},"district":{"key":"12071","name":"Spree-Neiße","type":"Landkreis"},"federalState":{"key":"12","name":"Brandenburg"}},{"name":"Hauptstr.","postalCode":"09544","locality":"Neuhausen/Erzgebirge","municipality":{"key":"14522400","name":"Neuhausen/Erzgeb.","type":"Kreisangehörige_Gemeinde"},"district":{"key":"14522","name":"Mittelsachsen","type":"Landkreis"},"federalState":{"key":"14","name":"Sachsen"}},{"name":"Hauptstr.","postalCode":"75242","locality":"Neuhausen","municipality":{"key":"08236044","name":"Neuhausen","type":"Kreisangehörige_Gemeinde"},"district":{"key":"08236","name":"Enzkreis","type":"Landkreis"},"federalState":{"key":"08","name":"Baden-Württemberg"}},{"name":"Hauptstr.","postalCode":"78579","locality":"Neuhausen ob Eck","municipality":{"key":"08327038","name":"Neuhausen ob Eck","type":"Kreisangehörige_Gemeinde"},"district":{"key":"08327","name":"Tuttlingen","type":"Landkreis"},"federalState":{"key":"08","name":"Baden-Württemberg"}},{"name":"Haydnstr.","postalCode":"73765","locality":"Neuhausen auf den Fildern","municipality":{"key":"08116047","name":"Neuhausen auf den Fildern","type":"Kreisangehörige_Gemeinde"},"district":{"key":"08116","name":"Esslingen","type":"Landkreis"},"federalState":{"key":"08","name":"Baden-Württemberg"}},{"name":"Haydnstr.","postalCode":"75242","locality":"Neuhausen","municipality":{"key":"08236044","name":"Neuhausen","type":"Kreisangehörige_Gemeinde"},"district":{"key":"08236","name":"Enzkreis","type":"Landkreis"},"federalState":{"key":"08","name":"Baden-Württemberg"}},{"name":"Heckenweg","postalCode":"73765","locality":"Neuhausen auf den Fildern","municipality":{"key":"08116047","name":"Neuhausen auf den Fildern","type":"Kreisangehörige_Gemeinde"},"district":{"key":"08116","name":"Esslingen","type":"Landkreis"},"federalState":{"key":"08","name":"Baden-Württemberg"}},{"name":"Hegaustr.","postalCode":"73765","locality":"Neuhausen auf den Fildern","municipality":{"key":"08116047","name":"Neuhausen auf den Fildern","type":"Kreisangehörige_Gemeinde"},"district":{"key":"08116","name":"Esslingen","type":"Landkreis"},"federalState":{"key":"08","name":"Baden-Württemberg"}},{"name":"Hegaustr.","postalCode":"78579","locality":"Neuhausen ob Eck","municipality":{"key":"08327038","name":"Neuhausen ob Eck","type":"Kreisangehörige_Gemeinde"},"district":{"key":"08327","name":"Tuttlingen","type":"Landkreis"},"federalState":{"key":"08","name":"Baden-Württemberg"}},{"name":"Heidelbach","postalCode":"09544","locality":"Neuhausen/Erzgebirge","municipality":{"key":"14522400","name":"Neuhausen/Erzgeb.","type":"Kreisangehörige_Gemeinde"},"district":{"key":"14522","name":"Mittelsachsen","type":"Landkreis"},"federalState":{"key":"14","name":"Sachsen"}},{"name":"Heideschenke","postalCode":"03058","locality":"Neuhausen/Spree","municipality":{"key":"12071301","name":"Neuhausen/Spree / Kopańce/Sprjewja","type":"Kreisangehörige_Gemeinde"},"district":{"key":"12071","name":"Spree-Neiße","type":"Landkreis"},"federalState":{"key":"12","name":"Brandenburg"}},{"name":"Heideweg","postalCode":"03058","locality":"Neuhausen/Spree","municipality":{"key":"12071301","name":"Neuhausen/Spree / Kopańce/Sprjewja","type":"Kreisangehörige_Gemeinde"},"district":{"key":"12071","name":"Spree-Neiße","type":"Landkreis"},"federalState":{"key":"12","name":"Brandenburg"}},{"name":"Heiligenbühlweg","postalCode":"78579","locality":"Neuhausen ob Eck","municipality":{"key":"08327038","name":"Neuhausen ob Eck","type":"Kreisangehörige_Gemeinde"},"district":{"key":"08327","name":"Tuttlingen","type":"Landkreis"},"federalState":{"key":"08","name":"Baden-Württemberg"}},{"name":"Heller Plattenweg","postalCode":"75242","locality":"Neuhausen","municipality":{"key":"08236044","name":"Neuhausen","type":"Kreisangehörige_Gemeinde"},"district":{"key":"08236","name":"Enzkreis","type":"Landkreis"},"federalState":{"key":"08","name":"Baden-Württemberg"}},{"name":"Henhöferstr.","postalCode":"75242","locality":"Neuhausen","municipality":{"key":"08236044","name":"Neuhausen","type":"Kreisangehörige_Gemeinde"},"district":{"key":"08236","name":"Enzkreis","type":"Landkreis"},"federalState":{"key":"08","name":"Baden-Württemberg"}},{"name":"Herdenstr.","postalCode":"75242","locality":"Neuhausen","municipality":{"key":"08236044","name":"Neuhausen","type":"Kreisangehörige_Gemeinde"},"district":{"key":"08236","name":"Enzkreis","type":"Landkreis"},"federalState":{"key":"08","name":"Baden-Württemberg"}},{"name":"Herdenweg","postalCode":"75242","locality":"Neuhausen","municipality":{"key":"08236044","name":"Neuhausen","type":"Kreisangehörige_Gemeinde"},"district":{"key":"08236","name":"Enzkreis","type":"Landkreis"},"federalState":{"key":"08","name":"Baden-Württemberg"}},{"name":"Hesselbachstr.","postalCode":"75242","locality":"Neuhausen","municipality":{"key":"08236044","name":"Neuhausen","type":"Kreisangehörige_Gemeinde"},"district":{"key":"08236","name":"Enzkreis","type":"Landkreis"},"federalState":{"key":"08","name":"Baden-Württemberg"}},{"name":"Heuflügel","postalCode":"09544","locality":"Neuhausen/Erzgebirge","municipality":{"key":"14522400","name":"Neuhausen/Erzgeb.","type":"Kreisangehörige_Gemeinde"},"district":{"key":"14522","name":"Mittelsachsen","type":"Landkreis"},"federalState":{"key":"14","name":"Sachsen"}},{"name":"Heuriger Weg","postalCode":"03058","locality":"Neuhausen/Spree","municipality":{"key":"12071301","name":"Neuhausen/Spree / Kopańce/Sprjewja","type":"Kreisangehörige_Gemeinde"},"district":{"key":"12071","name":"Spree-Neiße","type":"Landkreis"},"federalState":{"key":"12","name":"Brandenburg"}},{"name":"Heuweg","postalCode":"75242","locality":"Neuhausen","municipality":{"key":"08236044","name":"Neuhausen","type":"Kreisangehörige_Gemeinde"},"district":{"key":"08236","name":"Enzkreis","type":"Landkreis"},"federalState":{"key":"08","name":"Baden-Württemberg"}},{"name":"Hillendorf","postalCode":"78579","locality":"Neuhausen ob Eck","municipality":{"key":"08327038","name":"Neuhausen ob Eck","type":"Kreisangehörige_Gemeinde"},"district":{"key":"08327","name":"Tuttlingen","type":"Landkreis"},"federalState":{"key":"08","name":"Baden-Württemberg"}},{"name":"Hinter der Kirche","postalCode":"99625","locality":"Großneuhausen","municipality":{"key":"16068019","name":"Großneuhausen","type":"Kreisangehörige_Gemeinde"},"district":{"key":"16068","name":"Sömmerda","type":"Landkreis"},"federalState":{"key":"16","name":"Thüringen"}},{"name":"Hintere Dorfstr.","postalCode":"75242","locality":"Neuhausen","municipality":{"key":"08236044","name":"Neuhausen","type":"Kreisangehörige_Gemeinde"},"district":{"key":"08236","name":"Enzkreis","type":"Landkreis"},"federalState":{"key":"08","name":"Baden-Württemberg"}},{"name":"Hirschstangenweg","postalCode":"09544","locality":"Neuhausen/Erzgebirge","municipality":{"key":"14522400","name":"Neuhausen/Erzgeb.","type":"Kreisangehörige_Gemeinde"},"district":{"key":"14522","name":"Mittelsachsen","type":"Landkreis"},"federalState":{"key":"14","name":"Sachsen"}},{"name":"Hirtenweg","postalCode":"73765","locality":"Neuhausen auf den Fildern","municipality":{"key":"08116047","name":"Neuhausen auf den Fildern","type":"Kreisangehörige_Gemeinde"},"district":{"key":"08116","name":"Esslingen","type":"Landkreis"},"federalState":{"key":"08","name":"Baden-Württemberg"}},{"name":"Hobrischweg","postalCode":"03058","locality":"Neuhausen/Spree","municipality":{"key":"12071301","name":"Neuhausen/Spree / Kopańce/Sprjewja","type":"Kreisangehörige_Gemeinde"},"district":{"key":"12071","name":"Spree-Neiße","type":"Landkreis"},"federalState":{"key":"12","name":"Brandenburg"}},{"name":"Hochaustr.","postalCode":"73765","locality":"Neuhausen auf den Fildern","municipality":{"key":"08116047","name":"Neuhausen auf den Fildern","type":"Kreisangehörige_Gemeinde"},"district":{"key":"08116","name":"Esslingen","type":"Landkreis"},"federalState":{"key":"08","name":"Baden-Württemberg"}},{"name":"Hochbehälterweg","postalCode":"75242","locality":"Neuhausen","municipality":{"key":"08236044","name":"Neuhausen","type":"Kreisangehörige_Gemeinde"},"district":{"key":"08236","name":"Enzkreis","type":"Landkreis"},"federalState":{"key":"08","name":"Baden-Württemberg"}},{"name":"Hohegartsträßle","postalCode":"78579","locality":"Neuhausen ob Eck","municipality":{"key":"08327038","name":"Neuhausen ob Eck","type":"Kreisangehörige_Gemeinde"},"district":{"key":"08327","name":"Tuttlingen","type":"Landkreis"},"federalState":{"key":"08","name":"Baden-Württemberg"}},{"name":"Hohenstaufenstr.","postalCode":"73765","locality":"Neuhausen auf den Fildern","municipality":{"key":"08116047","name":"Neuhausen auf den Fildern","type":"Kreisangehörige_Gemeinde"},"district":{"key":"08116","name":"Esslingen","type":"Landkreis"},"federalState":{"key":"08","name":"Baden-Württemberg"}},{"name":"Höhenstr.","postalCode":"75242","locality":"Neuhausen","municipality":{"key":"08236044","name":"Neuhausen","type":"Kreisangehörige_Gemeinde"},"district":{"key":"08236","name":"Enzkreis","type":"Landkreis"},"federalState":{"key":"08","name":"Baden-Württemberg"}},{"name":"Hohenwarter Heuweg","postalCode":"75242","locality":"Neuhausen","municipality":{"key":"08236044","name":"Neuhausen","type":"Kreisangehörige_Gemeinde"},"district":{"key":"08236","name":"Enzkreis","type":"Landkreis"},"federalState":{"key":"08","name":"Baden-Württemberg"}},{"name":"Hohenwarter Str.","postalCode":"75242","locality":"Neuhausen","municipality":{"key":"08236044","name":"Neuhausen","type":"Kreisangehörige_Gemeinde"},"district":{"key":"08236","name":"Enzkreis","type":"Landkreis"},"federalState":{"key":"08","name":"Baden-Württemberg"}},{"name":"Hölderlinstr.","postalCode":"73765","locality":"Neuhausen auf den Fildern","municipality":{"key":"08116047","name":"Neuhausen auf den Fildern","type":"Kreisangehörige_Gemeinde"},"district":{"key":"08116","name":"Esslingen","type":"Landkreis"},"federalState":{"key":"08","name":"Baden-Württemberg"}},{"name":"Hölderlinweg","postalCode":"78579","locality":"Neuhausen ob Eck","municipality":{"key":"08327038","name":"Neuhausen ob Eck","type":"Kreisangehörige_Gemeinde"},"district":{"key":"08327","name":"Tuttlingen","type":"Landkreis"},"federalState":{"key":"08","name":"Baden-Württemberg"}},{"name":"Hornoer Weg","postalCode":"03058","locality":"Neuhausen/Spree","municipality":{"key":"12071301","name":"Neuhausen/Spree / Kopańce/Sprjewja","type":"Kreisangehörige_Gemeinde"},"district":{"key":"12071","name":"Spree-Neiße","type":"Landkreis"},"federalState":{"key":"12","name":"Brandenburg"}},{"name":"Ilgentaler Str.","postalCode":"78579","locality":"Neuhausen ob Eck","municipality":{"key":"08327038","name":"Neuhausen ob Eck","type":"Kreisangehörige_Gemeinde"},"district":{"key":"08327","name":"Tuttlingen","type":"Landkreis"},"federalState":{"key":"08","name":"Baden-Württemberg"}},{"name":"Im Bäumle","postalCode":"75242","locality":"Neuhausen","municipality":{"key":"08236044","name":"Neuhausen","type":"Kreisangehörige_Gemeinde"},"district":{"key":"08236","name":"Enzkreis","type":"Landkreis"},"federalState":{"key":"08","name":"Baden-Württemberg"}},{"name":"Im Brühl","postalCode":"75242","locality":"Neuhausen","municipality":{"key":"08236044","name":"Neuhausen","type":"Kreisangehörige_Gemeinde"},"district":{"key":"08236","name":"Enzkreis","type":"Landkreis"},"federalState":{"key":"08","name":"Baden-Württemberg"}},{"name":"Im Brühl","postalCode":"78579","locality":"Neuhausen ob Eck","municipality":{"key":"08327038","name":"Neuhausen ob Eck","type":"Kreisangehörige_Gemeinde"},"district":{"key":"08327","name":"Tuttlingen","type":"Landkreis"},"federalState":{"key":"08","name":"Baden-Württemberg"}},{"name":"Im Brunnenwinkel","postalCode":"78579","locality":"Neuhausen ob Eck","municipality":{"key":"08327038","name":"Neuhausen ob Eck","type":"Kreisangehörige_Gemeinde"},"district":{"key":"08327","name":"Tuttlingen","type":"Landkreis"},"federalState":{"key":"08","name":"Baden-Württemberg"}},{"name":"Im Falter","postalCode":"75242","locality":"Neuhausen","municipality":{"key":"08236044","name":"Neuhausen","type":"Kreisangehörige_Gemeinde"},"district":{"key":"08236","name":"Enzkreis","type":"Landkreis"},"federalState":{"key":"08","name":"Baden-Württemberg"}},{"name":"Im Hagelbrunnen","postalCode":"75242","locality":"Neuhausen","municipality":{"key":"08236044","name":"Neuhausen","type":"Kreisangehörige_Gemeinde"},"district":{"key":"08236","name":"Enzkreis","type":"Landkreis"},"federalState":{"key":"08","name":"Baden-Württemberg"}},{"name":"Im Holder","postalCode":"73765","locality":"Neuhausen auf den Fildern","municipality":{"key":"08116047","name":"Neuhausen auf den Fildern","type":"Kreisangehörige_Gemeinde"},"district":{"key":"08116","name":"Esslingen","type":"Landkreis"},"federalState":{"key":"08","name":"Baden-Württemberg"}},{"name":"Im Hopfengarten","postalCode":"73765","locality":"Neuhausen auf den Fildern","municipality":{"key":"08116047","name":"Neuhausen auf den Fildern","type":"Kreisangehörige_Gemeinde"},"district":{"key":"08116","name":"Esslingen","type":"Landkreis"},"federalState":{"key":"08","name":"Baden-Württemberg"}},{"name":"Im Kalkofen","postalCode":"73765","locality":"Neuhausen auf den Fildern","municipality":{"key":"08116047","name":"Neuhausen auf den Fildern","type":"Kreisangehörige_Gemeinde"},"district":{"key":"08116","name":"Esslingen","type":"Landkreis"},"federalState":{"key":"08","name":"Baden-Württemberg"}},{"name":"Im Langen Grund","postalCode":"78579","locality":"Neuhausen ob Eck","municipality":{"key":"08327038","name":"Neuhausen ob Eck","type":"Kreisangehörige_Gemeinde"},"district":{"key":"08327","name":"Tuttlingen","type":"Landkreis"},"federalState":{"key":"08","name":"Baden-Württemberg"}},{"name":"Im Morgen","postalCode":"78579","locality":"Neuhausen ob Eck","municipality":{"key":"08327038","name":"Neuhausen ob Eck","type":"Kreisangehörige_Gemeinde"},"district":{"key":"08327","name":"Tuttlingen","type":"Landkreis"},"federalState":{"key":"08","name":"Baden-Württemberg"}},{"name":"Im Stegle","postalCode":"78579","locality":"Neuhausen ob Eck","municipality":{"key":"08327038","name":"Neuhausen ob Eck","type":"Kreisangehörige_Gemeinde"},"district":{"key":"08327","name":"Tuttlingen","type":"Landkreis"},"federalState":{"key":"08","name":"Baden-Württemberg"}},{"name":"Im Täle","postalCode":"78579","locality":"Neuhausen ob Eck","municipality":{"key":"08327038","name":"Neuhausen ob Eck","type":"Kreisangehörige_Gemeinde"},"district":{"key":"08327","name":"Tuttlingen","type":"Landkreis"},"federalState":{"key":"08","name":"Baden-Württemberg"}},{"name":"Im Wingertle","postalCode":"75242","locality":"Neuhausen","municipality":{"key":"08236044","name":"Neuhausen","type":"Kreisangehörige_Gemeinde"},"district":{"key":"08236","name":"Enzkreis","type":"Landkreis"},"federalState":{"key":"08","name":"Baden-Württemberg"}},{"name":"Im Würmtal","postalCode":"75242","locality":"Neuhausen","municipality":{"key":"08236044","name":"Neuhausen","type":"Kreisangehörige_Gemeinde"},"district":{"key":"08236","name":"Enzkreis","type":"Landkreis"},"federalState":{"key":"08","name":"Baden-Württemberg"}},{"name":"Im Zeiger","postalCode":"73765","locality":"Neuhausen auf den Fildern","municipality":{"key":"08116047","name":"Neuhausen auf den Fildern","type":"Kreisangehörige_Gemeinde"},"district":{"key":"08116","name":"Esslingen","type":"Landkreis"},"federalState":{"key":"08","name":"Baden-Württemberg"}},{"name":"Im Zimmerplatz","postalCode":"75242","locality":"Neuhausen","municipality":{"key":"08236044","name":"Neuhausen","type":"Kreisangehörige_Gemeinde"},"district":{"key":"08236","name":"Enzkreis","type":"Landkreis"},"federalState":{"key":"08","name":"Baden-Württemberg"}},{"name":"In den Akademiegärten","postalCode":"73765","locality":"Neuhausen auf den Fildern","municipality":{"key":"08116047","name":"Neuhausen auf den Fildern","type":"Kreisangehörige_Gemeinde"},"district":{"key":"08116","name":"Esslingen","type":"Landkreis"},"federalState":{"key":"08","name":"Baden-Württemberg"}},{"name":"In den Dorfwiesen","postalCode":"75242","locality":"Neuhausen","municipality":{"key":"08236044","name":"Neuhausen","type":"Kreisangehörige_Gemeinde"},"district":{"key":"08236","name":"Enzkreis","type":"Landkreis"},"federalState":{"key":"08","name":"Baden-Württemberg"}},{"name":"Industriestr.","postalCode":"75242","locality":"Neuhausen","municipality":{"key":"08236044","name":"Neuhausen","type":"Kreisangehörige_Gemeinde"},"district":{"key":"08236","name":"Enzkreis","type":"Landkreis"},"federalState":{"key":"08","name":"Baden-Württemberg"}},{"name":"Industriestr.","postalCode":"78579","locality":"Neuhausen ob Eck","municipality":{"key":"08327038","name":"Neuhausen ob Eck","type":"Kreisangehörige_Gemeinde"},"district":{"key":"08327","name":"Tuttlingen","type":"Landkreis"},"federalState":{"key":"08","name":"Baden-Württemberg"}},{"name":"Insel","postalCode":"99625","locality":"Großneuhausen","municipality":{"key":"16068019","name":"Großneuhausen","type":"Kreisangehörige_Gemeinde"},"district":{"key":"16068","name":"Sömmerda","type":"Landkreis"},"federalState":{"key":"16","name":"Thüringen"}},{"name":"Inselstr.","postalCode":"03058","locality":"Neuhausen/Spree","municipality":{"key":"12071301","name":"Neuhausen/Spree / Kopańce/Sprjewja","type":"Kreisangehörige_Gemeinde"},"district":{"key":"12071","name":"Spree-Neiße","type":"Landkreis"},"federalState":{"key":"12","name":"Brandenburg"}},{"name":"Jägerstr.","postalCode":"75242","locality":"Neuhausen","municipality":{"key":"08236044","name":"Neuhausen","type":"Kreisangehörige_Gemeinde"},"district":{"key":"08236","name":"Enzkreis","type":"Landkreis"},"federalState":{"key":"08","name":"Baden-Württemberg"}},{"name":"Jägerweg","postalCode":"03058","locality":"Neuhausen/Spree","municipality":{"key":"12071301","name":"Neuhausen/Spree / Kopańce/Sprjewja","type":"Kreisangehörige_Gemeinde"},"district":{"key":"12071","name":"Spree-Neiße","type":"Landkreis"},"federalState":{"key":"12","name":"Brandenburg"}},{"name":"Jahnstr.","postalCode":"78579","locality":"Neuhausen ob Eck","municipality":{"key":"08327038","name":"Neuhausen ob Eck","type":"Kreisangehörige_Gemeinde"},"district":{"key":"08327","name":"Tuttlingen","type":"Landkreis"},"federalState":{"key":"08","name":"Baden-Württemberg"}},{"name":"Jahnweg","postalCode":"09544","locality":"Neuhausen/Erzgebirge","municipality":{"key":"14522400","name":"Neuhausen/Erzgeb.","type":"Kreisangehörige_Gemeinde"},"district":{"key":"14522","name":"Mittelsachsen","type":"Landkreis"},"federalState":{"key":"14","name":"Sachsen"}},{"name":"Jether Str.","postalCode":"03058","locality":"Neuhausen/Spree","municipality":{"key":"12071301","name":"Neuhausen/Spree / Kopańce/Sprjewja","type":"Kreisangehörige_Gemeinde"},"district":{"key":"12071","name":"Spree-Neiße","type":"Landkreis"},"federalState":{"key":"12","name":"Brandenburg"}},{"name":"Jether Weg","postalCode":"03058","locality":"Neuhausen/Spree","municipality":{"key":"12071301","name":"Neuhausen/Spree / Kopańce/Sprjewja","type":"Kreisangehörige_Gemeinde"},"district":{"key":"12071","name":"Spree-Neiße","type":"Landkreis"},"federalState":{"key":"12","name":"Brandenburg"}},{"name":"Josef Kappeler Weg","postalCode":"78579","locality":"Neuhausen ob Eck","municipality":{"key":"08327038","name":"Neuhausen ob Eck","type":"Kreisangehörige_Gemeinde"},"district":{"key":"08327","name":"Tuttlingen","type":"Landkreis"},"federalState":{"key":"08","name":"Baden-Württemberg"}},{"name":"Jugendherbergsstr.","postalCode":"03058","locality":"Neuhausen/Spree","municipality":{"key":"12071301","name":"Neuhausen/Spree / Kopańce/Sprjewja","type":"Kreisangehörige_Gemeinde"},"district":{"key":"12071","name":"Spree-Neiße","type":"Landkreis"},"federalState":{"key":"12","name":"Brandenburg"}},{"name":"Jungholzweg","postalCode":"78579","locality":"Neuhausen ob Eck","municipality":{"key":"08327038","name":"Neuhausen ob Eck","type":"Kreisangehörige_Gemeinde"},"district":{"key":"08327","name":"Tuttlingen","type":"Landkreis"},"federalState":{"key":"08","name":"Baden-Württemberg"}},{"name":"Jurastr.","postalCode":"73765","locality":"Neuhausen auf den Fildern","municipality":{"key":"08116047","name":"Neuhausen auf den Fildern","type":"Kreisangehörige_Gemeinde"},"district":{"key":"08116","name":"Esslingen","type":"Landkreis"},"federalState":{"key":"08","name":"Baden-Württemberg"}},{"name":"Kahrener Str.","postalCode":"03058","locality":"Neuhausen/Spree","municipality":{"key":"12071301","name":"Neuhausen/Spree / Kopańce/Sprjewja","type":"Kreisangehörige_Gemeinde"},"district":{"key":"12071","name":"Spree-Neiße","type":"Landkreis"},"federalState":{"key":"12","name":"Brandenburg"}},{"name":"Kahrener Weg","postalCode":"03058","locality":"Neuhausen/Spree","municipality":{"key":"12071301","name":"Neuhausen/Spree / Kopańce/Sprjewja","type":"Kreisangehörige_Gemeinde"},"district":{"key":"12071","name":"Spree-Neiße","type":"Landkreis"},"federalState":{"key":"12","name":"Brandenburg"}},{"name":"Kahseler Hauptstr.","postalCode":"03058","locality":"Neuhausen/Spree","municipality":{"key":"12071301","name":"Neuhausen/Spree / Kopańce/Sprjewja","type":"Kreisangehörige_Gemeinde"},"district":{"key":"12071","name":"Spree-Neiße","type":"Landkreis"},"federalState":{"key":"12","name":"Brandenburg"}},{"name":"Kaltenberg","postalCode":"78579","locality":"Neuhausen ob Eck","municipality":{"key":"08327038","name":"Neuhausen ob Eck","type":"Kreisangehörige_Gemeinde"},"district":{"key":"08327","name":"Tuttlingen","type":"Landkreis"},"federalState":{"key":"08","name":"Baden-Württemberg"}},{"name":"Kapellenweg","postalCode":"73765","locality":"Neuhausen auf den Fildern","municipality":{"key":"08116047","name":"Neuhausen auf den Fildern","type":"Kreisangehörige_Gemeinde"},"district":{"key":"08116","name":"Esslingen","type":"Landkreis"},"federalState":{"key":"08","name":"Baden-Württemberg"}},{"name":"Karl-Lenhardt-Str.","postalCode":"75242","locality":"Neuhausen","municipality":{"key":"08236044","name":"Neuhausen","type":"Kreisangehörige_Gemeinde"},"district":{"key":"08236","name":"Enzkreis","type":"Landkreis"},"federalState":{"key":"08","name":"Baden-Württemberg"}},{"name":"Karl-Liebknecht-Str.","postalCode":"09544","locality":"Neuhausen/Erzgebirge","municipality":{"key":"14522400","name":"Neuhausen/Erzgeb.","type":"Kreisangehörige_Gemeinde"},"district":{"key":"14522","name":"Mittelsachsen","type":"Landkreis"},"federalState":{"key":"14","name":"Sachsen"}},{"name":"Karlsplatz","postalCode":"99625","locality":"Großneuhausen","municipality":{"key":"16068019","name":"Großneuhausen","type":"Kreisangehörige_Gemeinde"},"district":{"key":"16068","name":"Sömmerda","type":"Landkreis"},"federalState":{"key":"16","name":"Thüringen"}},{"name":"Karlstr.","postalCode":"73765","locality":"Neuhausen auf den Fildern","municipality":{"key":"08116047","name":"Neuhausen auf den Fildern","type":"Kreisangehörige_Gemeinde"},"district":{"key":"08116","name":"Esslingen","type":"Landkreis"},"federalState":{"key":"08","name":"Baden-Württemberg"}},{"name":"Kastanienweg","postalCode":"03058","locality":"Neuhausen/Spree","municipality":{"key":"12071301","name":"Neuhausen/Spree / Kopańce/Sprjewja","type":"Kreisangehörige_Gemeinde"},"district":{"key":"12071","name":"Spree-Neiße","type":"Landkreis"},"federalState":{"key":"12","name":"Brandenburg"}},{"name":"Kathlower Dorfstr.","postalCode":"03058","locality":"Neuhausen/Spree","municipality":{"key":"12071301","name":"Neuhausen/Spree / Kopańce/Sprjewja","type":"Kreisangehörige_Gemeinde"},"district":{"key":"12071","name":"Spree-Neiße","type":"Landkreis"},"federalState":{"key":"12","name":"Brandenburg"}},{"name":"Kathlower Weg","postalCode":"03058","locality":"Neuhausen/Spree","municipality":{"key":"12071301","name":"Neuhausen/Spree / Kopańce/Sprjewja","type":"Kreisangehörige_Gemeinde"},"district":{"key":"12071","name":"Spree-Neiße","type":"Landkreis"},"federalState":{"key":"12","name":"Brandenburg"}},{"name":"Katzenberg","postalCode":"03058","locality":"Neuhausen/Spree","municipality":{"key":"12071301","name":"Neuhausen/Spree / Kopańce/Sprjewja","type":"Kreisangehörige_Gemeinde"},"district":{"key":"12071","name":"Spree-Neiße","type":"Landkreis"},"federalState":{"key":"12","name":"Brandenburg"}},{"name":"Kehlgasse","postalCode":"78579","locality":"Neuhausen ob Eck","municipality":{"key":"08327038","name":"Neuhausen ob Eck","type":"Kreisangehörige_Gemeinde"},"district":{"key":"08327","name":"Tuttlingen","type":"Landkreis"},"federalState":{"key":"08","name":"Baden-Württemberg"}},{"name":"Keltenstr.","postalCode":"73765","locality":"Neuhausen auf den Fildern","municipality":{"key":"08116047","name":"Neuhausen auf den Fildern","type":"Kreisangehörige_Gemeinde"},"district":{"key":"08116","name":"Esslingen","type":"Landkreis"},"federalState":{"key":"08","name":"Baden-Württemberg"}},{"name":"Kernengarten","postalCode":"75242","locality":"Neuhausen","municipality":{"key":"08236044","name":"Neuhausen","type":"Kreisangehörige_Gemeinde"},"district":{"key":"08236","name":"Enzkreis","type":"Landkreis"},"federalState":{"key":"08","name":"Baden-Württemberg"}},{"name":"Kesslerstr.","postalCode":"73765","locality":"Neuhausen auf den Fildern","municipality":{"key":"08116047","name":"Neuhausen auf den Fildern","type":"Kreisangehörige_Gemeinde"},"district":{"key":"08116","name":"Esslingen","type":"Landkreis"},"federalState":{"key":"08","name":"Baden-Württemberg"}},{"name":"Kiefernweg","postalCode":"03058","locality":"Neuhausen/Spree","municipality":{"key":"12071301","name":"Neuhausen/Spree / Kopańce/Sprjewja","type":"Kreisangehörige_Gemeinde"},"district":{"key":"12071","name":"Spree-Neiße","type":"Landkreis"},"federalState":{"key":"12","name":"Brandenburg"}},{"name":"Kinzigstr.","postalCode":"75242","locality":"Neuhausen","municipality":{"key":"08236044","name":"Neuhausen","type":"Kreisangehörige_Gemeinde"},"district":{"key":"08236","name":"Enzkreis","type":"Landkreis"},"federalState":{"key":"08","name":"Baden-Württemberg"}},{"name":"Kirchenweg","postalCode":"75242","locality":"Neuhausen","municipality":{"key":"08236044","name":"Neuhausen","type":"Kreisangehörige_Gemeinde"},"district":{"key":"08236","name":"Enzkreis","type":"Landkreis"},"federalState":{"key":"08","name":"Baden-Württemberg"}},{"name":"Kirchgasse","postalCode":"75242","locality":"Neuhausen","municipality":{"key":"08236044","name":"Neuhausen","type":"Kreisangehörige_Gemeinde"},"district":{"key":"08236","name":"Enzkreis","type":"Landkreis"},"federalState":{"key":"08","name":"Baden-Württemberg"}},{"name":"Kirchgasse","postalCode":"78579","locality":"Neuhausen ob Eck","municipality":{"key":"08327038","name":"Neuhausen ob Eck","type":"Kreisangehörige_Gemeinde"},"district":{"key":"08327","name":"Tuttlingen","type":"Landkreis"},"federalState":{"key":"08","name":"Baden-Württemberg"}},{"name":"Kirchheimer Weg","postalCode":"73765","locality":"Neuhausen auf den Fildern","municipality":{"key":"08116047","name":"Neuhausen auf den Fildern","type":"Kreisangehörige_Gemeinde"},"district":{"key":"08116","name":"Esslingen","type":"Landkreis"},"federalState":{"key":"08","name":"Baden-Württemberg"}},{"name":"Kirchhofsweg","postalCode":"03058","locality":"Neuhausen/Spree","municipality":{"key":"12071301","name":"Neuhausen/Spree / Kopańce/Sprjewja","type":"Kreisangehörige_Gemeinde"},"district":{"key":"12071","name":"Spree-Neiße","type":"Landkreis"},"federalState":{"key":"12","name":"Brandenburg"}},{"name":"Kirchplatz","postalCode":"03058","locality":"Neuhausen/Spree","municipality":{"key":"12071301","name":"Neuhausen/Spree / Kopańce/Sprjewja","type":"Kreisangehörige_Gemeinde"},"district":{"key":"12071","name":"Spree-Neiße","type":"Landkreis"},"federalState":{"key":"12","name":"Brandenburg"}},{"name":"Kirchplatz","postalCode":"99625","locality":"Großneuhausen","municipality":{"key":"16068019","name":"Großneuhausen","type":"Kreisangehörige_Gemeinde"},"district":{"key":"16068","name":"Sömmerda","type":"Landkreis"},"federalState":{"key":"16","name":"Thüringen"}},{"name":"Kirchstr.","postalCode":"03058","locality":"Neuhausen/Spree","municipality":{"key":"12071301","name":"Neuhausen/Spree / Kopańce/Sprjewja","type":"Kreisangehörige_Gemeinde"},"district":{"key":"12071","name":"Spree-Neiße","type":"Landkreis"},"federalState":{"key":"12","name":"Brandenburg"}},{"name":"Kirchstr.","postalCode":"73765","locality":"Neuhausen auf den Fildern","municipality":{"key":"08116047","name":"Neuhausen auf den Fildern","type":"Kreisangehörige_Gemeinde"},"district":{"key":"08116","name":"Esslingen","type":"Landkreis"},"federalState":{"key":"08","name":"Baden-Württemberg"}},{"name":"Kirchstr.","postalCode":"99625","locality":"Großneuhausen","municipality":{"key":"16068019","name":"Großneuhausen","type":"Kreisangehörige_Gemeinde"},"district":{"key":"16068","name":"Sömmerda","type":"Landkreis"},"federalState":{"key":"16","name":"Thüringen"}},{"name":"Kirchweg","postalCode":"03058","locality":"Neuhausen/Spree","municipality":{"key":"12071301","name":"Neuhausen/Spree / Kopańce/Sprjewja","type":"Kreisangehörige_Gemeinde"},"district":{"key":"12071","name":"Spree-Neiße","type":"Landkreis"},"federalState":{"key":"12","name":"Brandenburg"}},{"name":"Klein Döbberner Weg","postalCode":"03058","locality":"Neuhausen/Spree","municipality":{"key":"12071301","name":"Neuhausen/Spree / Kopańce/Sprjewja","type":"Kreisangehörige_Gemeinde"},"district":{"key":"12071","name":"Spree-Neiße","type":"Landkreis"},"federalState":{"key":"12","name":"Brandenburg"}},{"name":"Kleinneuhausener Str.","postalCode":"99625","locality":"Großneuhausen","municipality":{"key":"16068019","name":"Großneuhausen","type":"Kreisangehörige_Gemeinde"},"district":{"key":"16068","name":"Sömmerda","type":"Landkreis"},"federalState":{"key":"16","name":"Thüringen"}},{"name":"Kleinöschleweg","postalCode":"78579","locality":"Neuhausen ob Eck","municipality":{"key":"08327038","name":"Neuhausen ob Eck","type":"Kreisangehörige_Gemeinde"},"district":{"key":"08327","name":"Tuttlingen","type":"Landkreis"},"federalState":{"key":"08","name":"Baden-Württemberg"}},{"name":"Klemstein-Weg","postalCode":"03058","locality":"Neuhausen/Spree","municipality":{"key":"12071301","name":"Neuhausen/Spree / Kopańce/Sprjewja","type":"Kreisangehörige_Gemeinde"},"district":{"key":"12071","name":"Spree-Neiße","type":"Landkreis"},"federalState":{"key":"12","name":"Brandenburg"}},{"name":"Klingenäcker","postalCode":"73765","locality":"Neuhausen auf den Fildern","municipality":{"key":"08116047","name":"Neuhausen auf den Fildern","type":"Kreisangehörige_Gemeinde"},"district":{"key":"08116","name":"Esslingen","type":"Landkreis"},"federalState":{"key":"08","name":"Baden-Württemberg"}},{"name":"Klosterhofgasse","postalCode":"75242","locality":"Neuhausen","municipality":{"key":"08236044","name":"Neuhausen","type":"Kreisangehörige_Gemeinde"},"district":{"key":"08236","name":"Enzkreis","type":"Landkreis"},"federalState":{"key":"08","name":"Baden-Württemberg"}},{"name":"Klosterstr.","postalCode":"73765","locality":"Neuhausen auf den Fildern","municipality":{"key":"08116047","name":"Neuhausen auf den Fildern","type":"Kreisangehörige_Gemeinde"},"district":{"key":"08116","name":"Esslingen","type":"Landkreis"},"federalState":{"key":"08","name":"Baden-Württemberg"}},{"name":"Klötzerweg","postalCode":"09544","locality":"Neuhausen/Erzgebirge","municipality":{"key":"14522400","name":"Neuhausen/Erzgeb.","type":"Kreisangehörige_Gemeinde"},"district":{"key":"14522","name":"Mittelsachsen","type":"Landkreis"},"federalState":{"key":"14","name":"Sachsen"}},{"name":"Knappenstr.","postalCode":"03058","locality":"Neuhausen/Spree","municipality":{"key":"12071301","name":"Neuhausen/Spree / Kopańce/Sprjewja","type":"Kreisangehörige_Gemeinde"},"district":{"key":"12071","name":"Spree-Neiße","type":"Landkreis"},"federalState":{"key":"12","name":"Brandenburg"}},{"name":"Kohlplattenstr.","postalCode":"75242","locality":"Neuhausen","municipality":{"key":"08236044","name":"Neuhausen","type":"Kreisangehörige_Gemeinde"},"district":{"key":"08236","name":"Enzkreis","type":"Landkreis"},"federalState":{"key":"08","name":"Baden-Württemberg"}},{"name":"Komptendorfer Dorfstr.","postalCode":"03058","locality":"Neuhausen/Spree","municipality":{"key":"12071301","name":"Neuhausen/Spree / Kopańce/Sprjewja","type":"Kreisangehörige_Gemeinde"},"district":{"key":"12071","name":"Spree-Neiße","type":"Landkreis"},"federalState":{"key":"12","name":"Brandenburg"}},{"name":"Koppatzer Ausbau","postalCode":"03058","locality":"Neuhausen/Spree","municipality":{"key":"12071301","name":"Neuhausen/Spree / Kopańce/Sprjewja","type":"Kreisangehörige_Gemeinde"},"district":{"key":"12071","name":"Spree-Neiße","type":"Landkreis"},"federalState":{"key":"12","name":"Brandenburg"}},{"name":"Koppatzer Gasse","postalCode":"03058","locality":"Neuhausen/Spree","municipality":{"key":"12071301","name":"Neuhausen/Spree / Kopańce/Sprjewja","type":"Kreisangehörige_Gemeinde"},"district":{"key":"12071","name":"Spree-Neiße","type":"Landkreis"},"federalState":{"key":"12","name":"Brandenburg"}},{"name":"Koppatzer Hauptstr.","postalCode":"03058","locality":"Neuhausen/Spree","municipality":{"key":"12071301","name":"Neuhausen/Spree / Kopańce/Sprjewja","type":"Kreisangehörige_Gemeinde"},"district":{"key":"12071","name":"Spree-Neiße","type":"Landkreis"},"federalState":{"key":"12","name":"Brandenburg"}},{"name":"Koppatzer Str.","postalCode":"03058","locality":"Neuhausen/Spree","municipality":{"key":"12071301","name":"Neuhausen/Spree / Kopańce/Sprjewja","type":"Kreisangehörige_Gemeinde"},"district":{"key":"12071","name":"Spree-Neiße","type":"Landkreis"},"federalState":{"key":"12","name":"Brandenburg"}},{"name":"Koppatzer Weg","postalCode":"03058","locality":"Neuhausen/Spree","municipality":{"key":"12071301","name":"Neuhausen/Spree / Kopańce/Sprjewja","type":"Kreisangehörige_Gemeinde"},"district":{"key":"12071","name":"Spree-Neiße","type":"Landkreis"},"federalState":{"key":"12","name":"Brandenburg"}},{"name":"Körnerweg","postalCode":"73765","locality":"Neuhausen auf den Fildern","municipality":{"key":"08116047","name":"Neuhausen auf den Fildern","type":"Kreisangehörige_Gemeinde"},"district":{"key":"08116","name":"Esslingen","type":"Landkreis"},"federalState":{"key":"08","name":"Baden-Württemberg"}},{"name":"Kraichgaustr.","postalCode":"73765","locality":"Neuhausen auf den Fildern","municipality":{"key":"08116047","name":"Neuhausen auf den Fildern","type":"Kreisangehörige_Gemeinde"},"district":{"key":"08116","name":"Esslingen","type":"Landkreis"},"federalState":{"key":"08","name":"Baden-Württemberg"}},{"name":"Kreutzerstr.","postalCode":"78579","locality":"Neuhausen ob Eck","municipality":{"key":"08327038","name":"Neuhausen ob Eck","type":"Kreisangehörige_Gemeinde"},"district":{"key":"08327","name":"Tuttlingen","type":"Landkreis"},"federalState":{"key":"08","name":"Baden-Württemberg"}},{"name":"Kreuzäckerweg","postalCode":"75242","locality":"Neuhausen","municipality":{"key":"08236044","name":"Neuhausen","type":"Kreisangehörige_Gemeinde"},"district":{"key":"08236","name":"Enzkreis","type":"Landkreis"},"federalState":{"key":"08","name":"Baden-Württemberg"}},{"name":"Landesgrenzweg","postalCode":"78579","locality":"Neuhausen ob Eck","municipality":{"key":"08327038","name":"Neuhausen ob Eck","type":"Kreisangehörige_Gemeinde"},"district":{"key":"08327","name":"Tuttlingen","type":"Landkreis"},"federalState":{"key":"08","name":"Baden-Württemberg"}},{"name":"Landweg","postalCode":"09544","locality":"Neuhausen/Erzgebirge","municipality":{"key":"14522400","name":"Neuhausen/Erzgeb.","type":"Kreisangehörige_Gemeinde"},"district":{"key":"14522","name":"Mittelsachsen","type":"Landkreis"},"federalState":{"key":"14","name":"Sachsen"}},{"name":"Lange Planie","postalCode":"78579","locality":"Neuhausen ob Eck","municipality":{"key":"08327038","name":"Neuhausen ob Eck","type":"Kreisangehörige_Gemeinde"},"district":{"key":"08327","name":"Tuttlingen","type":"Landkreis"},"federalState":{"key":"08","name":"Baden-Württemberg"}},{"name":"Langer Brühlweg","postalCode":"75242","locality":"Neuhausen","municipality":{"key":"08236044","name":"Neuhausen","type":"Kreisangehörige_Gemeinde"},"district":{"key":"08236","name":"Enzkreis","type":"Landkreis"},"federalState":{"key":"08","name":"Baden-Württemberg"}},{"name":"Langer Weg","postalCode":"09544","locality":"Neuhausen/Erzgebirge","municipality":{"key":"14522400","name":"Neuhausen/Erzgeb.","type":"Kreisangehörige_Gemeinde"},"district":{"key":"14522","name":"Mittelsachsen","type":"Landkreis"},"federalState":{"key":"14","name":"Sachsen"}},{"name":"Lange Str.","postalCode":"99625","locality":"Kleinneuhausen","municipality":{"key":"16068033","name":"Kleinneuhausen","type":"Kreisangehörige_Gemeinde"},"district":{"key":"16068","name":"Sömmerda","type":"Landkreis"},"federalState":{"key":"16","name":"Thüringen"}},{"name":"Langwasengäßle","postalCode":"75242","locality":"Neuhausen","municipality":{"key":"08236044","name":"Neuhausen","type":"Kreisangehörige_Gemeinde"},"district":{"key":"08236","name":"Enzkreis","type":"Landkreis"},"federalState":{"key":"08","name":"Baden-Württemberg"}},{"name":"Lärchenweg","postalCode":"75242","locality":"Neuhausen","municipality":{"key":"08236044","name":"Neuhausen","type":"Kreisangehörige_Gemeinde"},"district":{"key":"08236","name":"Enzkreis","type":"Landkreis"},"federalState":{"key":"08","name":"Baden-Württemberg"}},{"name":"Lärchenweg","postalCode":"78579","locality":"Neuhausen ob Eck","municipality":{"key":"08327038","name":"Neuhausen ob Eck","type":"Kreisangehörige_Gemeinde"},"district":{"key":"08327","name":"Tuttlingen","type":"Landkreis"},"federalState":{"key":"08","name":"Baden-Württemberg"}},{"name":"Laubsdorfer Ausbau","postalCode":"03058","locality":"Neuhausen/Spree","municipality":{"key":"12071301","name":"Neuhausen/Spree / Kopańce/Sprjewja","type":"Kreisangehörige_Gemeinde"},"district":{"key":"12071","name":"Spree-Neiße","type":"Landkreis"},"federalState":{"key":"12","name":"Brandenburg"}},{"name":"Laubsdorfer Hauptstr.","postalCode":"03058","locality":"Neuhausen/Spree","municipality":{"key":"12071301","name":"Neuhausen/Spree / Kopańce/Sprjewja","type":"Kreisangehörige_Gemeinde"},"district":{"key":"12071","name":"Spree-Neiße","type":"Landkreis"},"federalState":{"key":"12","name":"Brandenburg"}},{"name":"Laubsdorfer Siedlung","postalCode":"03058","locality":"Neuhausen/Spree","municipality":{"key":"12071301","name":"Neuhausen/Spree / Kopańce/Sprjewja","type":"Kreisangehörige_Gemeinde"},"district":{"key":"12071","name":"Spree-Neiße","type":"Landkreis"},"federalState":{"key":"12","name":"Brandenburg"}},{"name":"Laubsdorfer Weg","postalCode":"03058","locality":"Neuhausen/Spree","municipality":{"key":"12071301","name":"Neuhausen/Spree / Kopańce/Sprjewja","type":"Kreisangehörige_Gemeinde"},"district":{"key":"12071","name":"Spree-Neiße","type":"Landkreis"},"federalState":{"key":"12","name":"Brandenburg"}},{"name":"Lauweg","postalCode":"75242","locality":"Neuhausen","municipality":{"key":"08236044","name":"Neuhausen","type":"Kreisangehörige_Gemeinde"},"district":{"key":"08236","name":"Enzkreis","type":"Landkreis"},"federalState":{"key":"08","name":"Baden-Württemberg"}},{"name":"Lauwiesen","postalCode":"75242","locality":"Neuhausen","municipality":{"key":"08236044","name":"Neuhausen","type":"Kreisangehörige_Gemeinde"},"district":{"key":"08236","name":"Enzkreis","type":"Landkreis"},"federalState":{"key":"08","name":"Baden-Württemberg"}},{"name":"Ledung","postalCode":"03058","locality":"Neuhausen/Spree","municipality":{"key":"12071301","name":"Neuhausen/Spree / Kopańce/Sprjewja","type":"Kreisangehörige_Gemeinde"},"district":{"key":"12071","name":"Spree-Neiße","type":"Landkreis"},"federalState":{"key":"12","name":"Brandenburg"}},{"name":"Legweg","postalCode":"75242","locality":"Neuhausen","municipality":{"key":"08236044","name":"Neuhausen","type":"Kreisangehörige_Gemeinde"},"district":{"key":"08236","name":"Enzkreis","type":"Landkreis"},"federalState":{"key":"08","name":"Baden-Württemberg"}},{"name":"Lehmweg","postalCode":"75242","locality":"Neuhausen","municipality":{"key":"08236044","name":"Neuhausen","type":"Kreisangehörige_Gemeinde"},"district":{"key":"08236","name":"Enzkreis","type":"Landkreis"},"federalState":{"key":"08","name":"Baden-Württemberg"}},{"name":"Lehnenweg","postalCode":"75242","locality":"Neuhausen","municipality":{"key":"08236044","name":"Neuhausen","type":"Kreisangehörige_Gemeinde"},"district":{"key":"08236","name":"Enzkreis","type":"Landkreis"},"federalState":{"key":"08","name":"Baden-Württemberg"}},{"name":"Lehninger Str.","postalCode":"75242","locality":"Neuhausen","municipality":{"key":"08236044","name":"Neuhausen","type":"Kreisangehörige_Gemeinde"},"district":{"key":"08236","name":"Enzkreis","type":"Landkreis"},"federalState":{"key":"08","name":"Baden-Württemberg"}},{"name":"Lehrenstr.","postalCode":"78579","locality":"Neuhausen ob Eck","municipality":{"key":"08327038","name":"Neuhausen ob Eck","type":"Kreisangehörige_Gemeinde"},"district":{"key":"08327","name":"Tuttlingen","type":"Landkreis"},"federalState":{"key":"08","name":"Baden-Württemberg"}},{"name":"Lehrpfad","postalCode":"03058","locality":"Neuhausen/Spree","municipality":{"key":"12071301","name":"Neuhausen/Spree / Kopańce/Sprjewja","type":"Kreisangehörige_Gemeinde"},"district":{"key":"12071","name":"Spree-Neiße","type":"Landkreis"},"federalState":{"key":"12","name":"Brandenburg"}},{"name":"Lehrstr.","postalCode":"78579","locality":"Neuhausen ob Eck","municipality":{"key":"08327038","name":"Neuhausen ob Eck","type":"Kreisangehörige_Gemeinde"},"district":{"key":"08327","name":"Tuttlingen","type":"Landkreis"},"federalState":{"key":"08","name":"Baden-Württemberg"}},{"name":"Lehrwaldweg","postalCode":"78579","locality":"Neuhausen ob Eck","municipality":{"key":"08327038","name":"Neuhausen ob Eck","type":"Kreisangehörige_Gemeinde"},"district":{"key":"08327","name":"Tuttlingen","type":"Landkreis"},"federalState":{"key":"08","name":"Baden-Württemberg"}},{"name":"Leichenweg","postalCode":"03058","locality":"Neuhausen/Spree","municipality":{"key":"12071301","name":"Neuhausen/Spree / Kopańce/Sprjewja","type":"Kreisangehörige_Gemeinde"},"district":{"key":"12071","name":"Spree-Neiße","type":"Landkreis"},"federalState":{"key":"12","name":"Brandenburg"}},{"name":"Leimenstr.","postalCode":"75242","locality":"Neuhausen","municipality":{"key":"08236044","name":"Neuhausen","type":"Kreisangehörige_Gemeinde"},"district":{"key":"08236","name":"Enzkreis","type":"Landkreis"},"federalState":{"key":"08","name":"Baden-Württemberg"}},{"name":"Lenaustr.","postalCode":"73765","locality":"Neuhausen auf den Fildern","municipality":{"key":"08116047","name":"Neuhausen auf den Fildern","type":"Kreisangehörige_Gemeinde"},"district":{"key":"08116","name":"Esslingen","type":"Landkreis"},"federalState":{"key":"08","name":"Baden-Württemberg"}},{"name":"Lettenstr.","postalCode":"73765","locality":"Neuhausen auf den Fildern","municipality":{"key":"08116047","name":"Neuhausen auf den Fildern","type":"Kreisangehörige_Gemeinde"},"district":{"key":"08116","name":"Esslingen","type":"Landkreis"},"federalState":{"key":"08","name":"Baden-Württemberg"}},{"name":"Leuchtertannenweg","postalCode":"75242","locality":"Neuhausen","municipality":{"key":"08236044","name":"Neuhausen","type":"Kreisangehörige_Gemeinde"},"district":{"key":"08236","name":"Enzkreis","type":"Landkreis"},"federalState":{"key":"08","name":"Baden-Württemberg"}},{"name":"Lichtleitungsweg","postalCode":"75242","locality":"Neuhausen","municipality":{"key":"08236044","name":"Neuhausen","type":"Kreisangehörige_Gemeinde"},"district":{"key":"08236","name":"Enzkreis","type":"Landkreis"},"federalState":{"key":"08","name":"Baden-Württemberg"}},{"name":"Liebeneckerweg","postalCode":"75242","locality":"Neuhausen","municipality":{"key":"08236044","name":"Neuhausen","type":"Kreisangehörige_Gemeinde"},"district":{"key":"08236","name":"Enzkreis","type":"Landkreis"},"federalState":{"key":"08","name":"Baden-Württemberg"}},{"name":"Liebenecker Weg","postalCode":"75242","locality":"Neuhausen","municipality":{"key":"08236044","name":"Neuhausen","type":"Kreisangehörige_Gemeinde"},"district":{"key":"08236","name":"Enzkreis","type":"Landkreis"},"federalState":{"key":"08","name":"Baden-Württemberg"}},{"name":"Liebeneckstr.","postalCode":"75242","locality":"Neuhausen","municipality":{"key":"08236044","name":"Neuhausen","type":"Kreisangehörige_Gemeinde"},"district":{"key":"08236","name":"Enzkreis","type":"Landkreis"},"federalState":{"key":"08","name":"Baden-Württemberg"}},{"name":"Liebenzeller Str.","postalCode":"75242","locality":"Neuhausen","municipality":{"key":"08236044","name":"Neuhausen","type":"Kreisangehörige_Gemeinde"},"district":{"key":"08236","name":"Enzkreis","type":"Landkreis"},"federalState":{"key":"08","name":"Baden-Württemberg"}},{"name":"Lindenstr.","postalCode":"73765","locality":"Neuhausen auf den Fildern","municipality":{"key":"08116047","name":"Neuhausen auf den Fildern","type":"Kreisangehörige_Gemeinde"},"district":{"key":"08116","name":"Esslingen","type":"Landkreis"},"federalState":{"key":"08","name":"Baden-Württemberg"}},{"name":"Lindenweg","postalCode":"78579","locality":"Neuhausen ob Eck","municipality":{"key":"08327038","name":"Neuhausen ob Eck","type":"Kreisangehörige_Gemeinde"},"district":{"key":"08327","name":"Tuttlingen","type":"Landkreis"},"federalState":{"key":"08","name":"Baden-Württemberg"}},{"name":"Linnebachweg","postalCode":"75242","locality":"Neuhausen","municipality":{"key":"08236044","name":"Neuhausen","type":"Kreisangehörige_Gemeinde"},"district":{"key":"08236","name":"Enzkreis","type":"Landkreis"},"federalState":{"key":"08","name":"Baden-Württemberg"}},{"name":"Liptinger Str.","postalCode":"78579","locality":"Neuhausen ob Eck","municipality":{"key":"08327038","name":"Neuhausen ob Eck","type":"Kreisangehörige_Gemeinde"},"district":{"key":"08327","name":"Tuttlingen","type":"Landkreis"},"federalState":{"key":"08","name":"Baden-Württemberg"}},{"name":"Liptingerweg","postalCode":"78579","locality":"Neuhausen ob Eck","municipality":{"key":"08327038","name":"Neuhausen ob Eck","type":"Kreisangehörige_Gemeinde"},"district":{"key":"08327","name":"Tuttlingen","type":"Landkreis"},"federalState":{"key":"08","name":"Baden-Württemberg"}},{"name":"Lochäckerweg","postalCode":"78579","locality":"Neuhausen ob Eck","municipality":{"key":"08327038","name":"Neuhausen ob Eck","type":"Kreisangehörige_Gemeinde"},"district":{"key":"08327","name":"Tuttlingen","type":"Landkreis"},"federalState":{"key":"08","name":"Baden-Württemberg"}},{"name":"Ludwigstr.","postalCode":"73765","locality":"Neuhausen auf den Fildern","municipality":{"key":"08116047","name":"Neuhausen auf den Fildern","type":"Kreisangehörige_Gemeinde"},"district":{"key":"08116","name":"Esslingen","type":"Landkreis"},"federalState":{"key":"08","name":"Baden-Württemberg"}},{"name":"Mähdlenweg","postalCode":"73765","locality":"Neuhausen auf den Fildern","municipality":{"key":"08116047","name":"Neuhausen auf den Fildern","type":"Kreisangehörige_Gemeinde"},"district":{"key":"08116","name":"Esslingen","type":"Landkreis"},"federalState":{"key":"08","name":"Baden-Württemberg"}},{"name":"Mainstr.","postalCode":"75242","locality":"Neuhausen","municipality":{"key":"08236044","name":"Neuhausen","type":"Kreisangehörige_Gemeinde"},"district":{"key":"08236","name":"Enzkreis","type":"Landkreis"},"federalState":{"key":"08","name":"Baden-Württemberg"}},{"name":"Mainwangerweg","postalCode":"78579","locality":"Neuhausen ob Eck","municipality":{"key":"08327038","name":"Neuhausen ob Eck","type":"Kreisangehörige_Gemeinde"},"district":{"key":"08327","name":"Tuttlingen","type":"Landkreis"},"federalState":{"key":"08","name":"Baden-Württemberg"}},{"name":"Margarete-Steiff-Str.","postalCode":"78579","locality":"Neuhausen ob Eck","municipality":{"key":"08327038","name":"Neuhausen ob Eck","type":"Kreisangehörige_Gemeinde"},"district":{"key":"08327","name":"Tuttlingen","type":"Landkreis"},"federalState":{"key":"08","name":"Baden-Württemberg"}},{"name":"Marktstr.","postalCode":"73765","locality":"Neuhausen auf den Fildern","municipality":{"key":"08116047","name":"Neuhausen auf den Fildern","type":"Kreisangehörige_Gemeinde"},"district":{"key":"08116","name":"Esslingen","type":"Landkreis"},"federalState":{"key":"08","name":"Baden-Württemberg"}},{"name":"Marktstr.","postalCode":"99625","locality":"Großneuhausen","municipality":{"key":"16068019","name":"Großneuhausen","type":"Kreisangehörige_Gemeinde"},"district":{"key":"16068","name":"Sömmerda","type":"Landkreis"},"federalState":{"key":"16","name":"Thüringen"}},{"name":"Martha-Arnold-Str.","postalCode":"73765","locality":"Neuhausen auf den Fildern","municipality":{"key":"08116047","name":"Neuhausen auf den Fildern","type":"Kreisangehörige_Gemeinde"},"district":{"key":"08116","name":"Esslingen","type":"Landkreis"},"federalState":{"key":"08","name":"Baden-Württemberg"}},{"name":"Max-Eyth-Str.","postalCode":"73765","locality":"Neuhausen auf den Fildern","municipality":{"key":"08116047","name":"Neuhausen auf den Fildern","type":"Kreisangehörige_Gemeinde"},"district":{"key":"08116","name":"Esslingen","type":"Landkreis"},"federalState":{"key":"08","name":"Baden-Württemberg"}},{"name":"Max-Planck-Weg","postalCode":"73765","locality":"Neuhausen auf den Fildern","municipality":{"key":"08116047","name":"Neuhausen auf den Fildern","type":"Kreisangehörige_Gemeinde"},"district":{"key":"08116","name":"Esslingen","type":"Landkreis"},"federalState":{"key":"08","name":"Baden-Württemberg"}},{"name":"Meßkircher Str.","postalCode":"78579","locality":"Neuhausen ob Eck","municipality":{"key":"08327038","name":"Neuhausen ob Eck","type":"Kreisangehörige_Gemeinde"},"district":{"key":"08327","name":"Tuttlingen","type":"Landkreis"},"federalState":{"key":"08","name":"Baden-Württemberg"}},{"name":"Metzentalstr.","postalCode":"78579","locality":"Neuhausen ob Eck","municipality":{"key":"08327038","name":"Neuhausen ob Eck","type":"Kreisangehörige_Gemeinde"},"district":{"key":"08327","name":"Tuttlingen","type":"Landkreis"},"federalState":{"key":"08","name":"Baden-Württemberg"}},{"name":"Millionenstr.","postalCode":"75242","locality":"Neuhausen","municipality":{"key":"08236044","name":"Neuhausen","type":"Kreisangehörige_Gemeinde"},"district":{"key":"08236","name":"Enzkreis","type":"Landkreis"},"federalState":{"key":"08","name":"Baden-Württemberg"}},{"name":"Mittelstr.","postalCode":"03058","locality":"Neuhausen/Spree","municipality":{"key":"12071301","name":"Neuhausen/Spree / Kopańce/Sprjewja","type":"Kreisangehörige_Gemeinde"},"district":{"key":"12071","name":"Spree-Neiße","type":"Landkreis"},"federalState":{"key":"12","name":"Brandenburg"}},{"name":"Mittelstr.","postalCode":"78579","locality":"Neuhausen ob Eck","municipality":{"key":"08327038","name":"Neuhausen ob Eck","type":"Kreisangehörige_Gemeinde"},"district":{"key":"08327","name":"Tuttlingen","type":"Landkreis"},"federalState":{"key":"08","name":"Baden-Württemberg"}},{"name":"Mittelstr.","postalCode":"99625","locality":"Großneuhausen","municipality":{"key":"16068019","name":"Großneuhausen","type":"Kreisangehörige_Gemeinde"},"district":{"key":"16068","name":"Sömmerda","type":"Landkreis"},"federalState":{"key":"16","name":"Thüringen"}},{"name":"Mittelweg","postalCode":"09544","locality":"Neuhausen/Erzgebirge","municipality":{"key":"14522400","name":"Neuhausen/Erzgeb.","type":"Kreisangehörige_Gemeinde"},"district":{"key":"14522","name":"Mittelsachsen","type":"Landkreis"},"federalState":{"key":"14","name":"Sachsen"}},{"name":"Mittelweg","postalCode":"75242","locality":"Neuhausen","municipality":{"key":"08236044","name":"Neuhausen","type":"Kreisangehörige_Gemeinde"},"district":{"key":"08236","name":"Enzkreis","type":"Landkreis"},"federalState":{"key":"08","name":"Baden-Württemberg"}},{"name":"Mittlerer Klebweg","postalCode":"75242","locality":"Neuhausen","municipality":{"key":"08236044","name":"Neuhausen","type":"Kreisangehörige_Gemeinde"},"district":{"key":"08236","name":"Enzkreis","type":"Landkreis"},"federalState":{"key":"08","name":"Baden-Württemberg"}},{"name":"Mittlerer Weg","postalCode":"78579","locality":"Neuhausen ob Eck","municipality":{"key":"08327038","name":"Neuhausen ob Eck","type":"Kreisangehörige_Gemeinde"},"district":{"key":"08327","name":"Tuttlingen","type":"Landkreis"},"federalState":{"key":"08","name":"Baden-Württemberg"}},{"name":"Moltkestr.","postalCode":"73765","locality":"Neuhausen auf den Fildern","municipality":{"key":"08116047","name":"Neuhausen auf den Fildern","type":"Kreisangehörige_Gemeinde"},"district":{"key":"08116","name":"Esslingen","type":"Landkreis"},"federalState":{"key":"08","name":"Baden-Württemberg"}},{"name":"Monakamer Weg","postalCode":"75242","locality":"Neuhausen","municipality":{"key":"08236044","name":"Neuhausen","type":"Kreisangehörige_Gemeinde"},"district":{"key":"08236","name":"Enzkreis","type":"Landkreis"},"federalState":{"key":"08","name":"Baden-Württemberg"}},{"name":"Monbachstr.","postalCode":"75242","locality":"Neuhausen","municipality":{"key":"08236044","name":"Neuhausen","type":"Kreisangehörige_Gemeinde"},"district":{"key":"08236","name":"Enzkreis","type":"Landkreis"},"federalState":{"key":"08","name":"Baden-Württemberg"}},{"name":"Monbachweg","postalCode":"75242","locality":"Neuhausen","municipality":{"key":"08236044","name":"Neuhausen","type":"Kreisangehörige_Gemeinde"},"district":{"key":"08236","name":"Enzkreis","type":"Landkreis"},"federalState":{"key":"08","name":"Baden-Württemberg"}},{"name":"Mooswiesenweg","postalCode":"78579","locality":"Neuhausen ob Eck","municipality":{"key":"08327038","name":"Neuhausen ob Eck","type":"Kreisangehörige_Gemeinde"},"district":{"key":"08327","name":"Tuttlingen","type":"Landkreis"},"federalState":{"key":"08","name":"Baden-Württemberg"}},{"name":"Mörikestr.","postalCode":"73765","locality":"Neuhausen auf den Fildern","municipality":{"key":"08116047","name":"Neuhausen auf den Fildern","type":"Kreisangehörige_Gemeinde"},"district":{"key":"08116","name":"Esslingen","type":"Landkreis"},"federalState":{"key":"08","name":"Baden-Württemberg"}},{"name":"Mörikestr.","postalCode":"75242","locality":"Neuhausen","municipality":{"key":"08236044","name":"Neuhausen","type":"Kreisangehörige_Gemeinde"},"district":{"key":"08236","name":"Enzkreis","type":"Landkreis"},"federalState":{"key":"08","name":"Baden-Württemberg"}},{"name":"Mozartstr.","postalCode":"73765","locality":"Neuhausen auf den Fildern","municipality":{"key":"08116047","name":"Neuhausen auf den Fildern","type":"Kreisangehörige_Gemeinde"},"district":{"key":"08116","name":"Esslingen","type":"Landkreis"},"federalState":{"key":"08","name":"Baden-Württemberg"}},{"name":"Mozartstr.","postalCode":"75242","locality":"Neuhausen","municipality":{"key":"08236044","name":"Neuhausen","type":"Kreisangehörige_Gemeinde"},"district":{"key":"08236","name":"Enzkreis","type":"Landkreis"},"federalState":{"key":"08","name":"Baden-Württemberg"}},{"name":"Mozartstr.","postalCode":"78579","locality":"Neuhausen ob Eck","municipality":{"key":"08327038","name":"Neuhausen ob Eck","type":"Kreisangehörige_Gemeinde"},"district":{"key":"08327","name":"Tuttlingen","type":"Landkreis"},"federalState":{"key":"08","name":"Baden-Württemberg"}},{"name":"Mozartweg","postalCode":"03058","locality":"Neuhausen/Spree","municipality":{"key":"12071301","name":"Neuhausen/Spree / Kopańce/Sprjewja","type":"Kreisangehörige_Gemeinde"},"district":{"key":"12071","name":"Spree-Neiße","type":"Landkreis"},"federalState":{"key":"12","name":"Brandenburg"}},{"name":"Mühlenstr.","postalCode":"03058","locality":"Neuhausen/Spree","municipality":{"key":"12071301","name":"Neuhausen/Spree / Kopańce/Sprjewja","type":"Kreisangehörige_Gemeinde"},"district":{"key":"12071","name":"Spree-Neiße","type":"Landkreis"},"federalState":{"key":"12","name":"Brandenburg"}},{"name":"Mühlenstr.","postalCode":"73765","locality":"Neuhausen auf den Fildern","municipality":{"key":"08116047","name":"Neuhausen auf den Fildern","type":"Kreisangehörige_Gemeinde"},"district":{"key":"08116","name":"Esslingen","type":"Landkreis"},"federalState":{"key":"08","name":"Baden-Württemberg"}},{"name":"Mühlenweg","postalCode":"03058","locality":"Neuhausen/Spree","municipality":{"key":"12071301","name":"Neuhausen/Spree / Kopańce/Sprjewja","type":"Kreisangehörige_Gemeinde"},"district":{"key":"12071","name":"Spree-Neiße","type":"Landkreis"},"federalState":{"key":"12","name":"Brandenburg"}},{"name":"Mühlheimer Str.","postalCode":"78579","locality":"Neuhausen ob Eck","municipality":{"key":"08327038","name":"Neuhausen ob Eck","type":"Kreisangehörige_Gemeinde"},"district":{"key":"08327","name":"Tuttlingen","type":"Landkreis"},"federalState":{"key":"08","name":"Baden-Württemberg"}},{"name":"Mühlsteig","postalCode":"75242","locality":"Neuhausen","municipality":{"key":"08236044","name":"Neuhausen","type":"Kreisangehörige_Gemeinde"},"district":{"key":"08236","name":"Enzkreis","type":"Landkreis"},"federalState":{"key":"08","name":"Baden-Württemberg"}},{"name":"Mühlstr.","postalCode":"99625","locality":"Großneuhausen","municipality":{"key":"16068019","name":"Großneuhausen","type":"Kreisangehörige_Gemeinde"},"district":{"key":"16068","name":"Sömmerda","type":"Landkreis"},"federalState":{"key":"16","name":"Thüringen"}},{"name":"Mühlweg","postalCode":"09544","locality":"Neuhausen/Erzgebirge","municipality":{"key":"14522400","name":"Neuhausen/Erzgeb.","type":"Kreisangehörige_Gemeinde"},"district":{"key":"14522","name":"Mittelsachsen","type":"Landkreis"},"federalState":{"key":"14","name":"Sachsen"}},{"name":"Münklinger Str.","postalCode":"75242","locality":"Neuhausen","municipality":{"key":"08236044","name":"Neuhausen","type":"Kreisangehörige_Gemeinde"},"district":{"key":"08236","name":"Enzkreis","type":"Landkreis"},"federalState":{"key":"08","name":"Baden-Württemberg"}},{"name":"Münzelweg","postalCode":"09544","locality":"Neuhausen/Erzgebirge","municipality":{"key":"14522400","name":"Neuhausen/Erzgeb.","type":"Kreisangehörige_Gemeinde"},"district":{"key":"14522","name":"Mittelsachsen","type":"Landkreis"},"federalState":{"key":"14","name":"Sachsen"}},{"name":"Murgstr.","postalCode":"75242","locality":"Neuhausen","municipality":{"key":"08236044","name":"Neuhausen","type":"Kreisangehörige_Gemeinde"},"district":{"key":"08236","name":"Enzkreis","type":"Landkreis"},"federalState":{"key":"08","name":"Baden-Württemberg"}},{"name":"Muskatellerweg","postalCode":"03058","locality":"Neuhausen/Spree","municipality":{"key":"12071301","name":"Neuhausen/Spree / Kopańce/Sprjewja","type":"Kreisangehörige_Gemeinde"},"district":{"key":"12071","name":"Spree-Neiße","type":"Landkreis"},"federalState":{"key":"12","name":"Brandenburg"}},{"name":"Muskauer Chaussee","postalCode":"03058","locality":"Neuhausen/Spree","municipality":{"key":"12071301","name":"Neuhausen/Spree / Kopańce/Sprjewja","type":"Kreisangehörige_Gemeinde"},"district":{"key":"12071","name":"Spree-Neiße","type":"Landkreis"},"federalState":{"key":"12","name":"Brandenburg"}},{"name":"Nagoldstr.","postalCode":"75242","locality":"Neuhausen","municipality":{"key":"08236044","name":"Neuhausen","type":"Kreisangehörige_Gemeinde"},"district":{"key":"08236","name":"Enzkreis","type":"Landkreis"},"federalState":{"key":"08","name":"Baden-Württemberg"}},{"name":"Nagoldtalweg","postalCode":"75242","locality":"Neuhausen","municipality":{"key":"08236044","name":"Neuhausen","type":"Kreisangehörige_Gemeinde"},"district":{"key":"08236","name":"Enzkreis","type":"Landkreis"},"federalState":{"key":"08","name":"Baden-Württemberg"}},{"name":"Napoleonisches Dreieck","postalCode":"78579","locality":"Neuhausen ob Eck","municipality":{"key":"08327038","name":"Neuhausen ob Eck","type":"Kreisangehörige_Gemeinde"},"district":{"key":"08327","name":"Tuttlingen","type":"Landkreis"},"federalState":{"key":"08","name":"Baden-Württemberg"}},{"name":"Nelkenweg","postalCode":"73765","locality":"Neuhausen auf den Fildern","municipality":{"key":"08116047","name":"Neuhausen auf den Fildern","type":"Kreisangehörige_Gemeinde"},"district":{"key":"08116","name":"Esslingen","type":"Landkreis"},"federalState":{"key":"08","name":"Baden-Württemberg"}},{"name":"Nellenburgstr.","postalCode":"78579","locality":"Neuhausen ob Eck","municipality":{"key":"08327038","name":"Neuhausen ob Eck","type":"Kreisangehörige_Gemeinde"},"district":{"key":"08327","name":"Tuttlingen","type":"Landkreis"},"federalState":{"key":"08","name":"Baden-Württemberg"}},{"name":"Neue Gasse","postalCode":"78579","locality":"Neuhausen ob Eck","municipality":{"key":"08327038","name":"Neuhausen ob Eck","type":"Kreisangehörige_Gemeinde"},"district":{"key":"08327","name":"Tuttlingen","type":"Landkreis"},"federalState":{"key":"08","name":"Baden-Württemberg"}},{"name":"Neuer Talweg","postalCode":"75242","locality":"Neuhausen","municipality":{"key":"08236044","name":"Neuhausen","type":"Kreisangehörige_Gemeinde"},"district":{"key":"08236","name":"Enzkreis","type":"Landkreis"},"federalState":{"key":"08","name":"Baden-Württemberg"}},{"name":"Neuer-Weg","postalCode":"75242","locality":"Neuhausen","municipality":{"key":"08236044","name":"Neuhausen","type":"Kreisangehörige_Gemeinde"},"district":{"key":"08236","name":"Enzkreis","type":"Landkreis"},"federalState":{"key":"08","name":"Baden-Württemberg"}},{"name":"Neue Siedlung","postalCode":"03058","locality":"Neuhausen/Spree","municipality":{"key":"12071301","name":"Neuhausen/Spree / Kopańce/Sprjewja","type":"Kreisangehörige_Gemeinde"},"district":{"key":"12071","name":"Spree-Neiße","type":"Landkreis"},"federalState":{"key":"12","name":"Brandenburg"}},{"name":"Neue Str.","postalCode":"99625","locality":"Großneuhausen","municipality":{"key":"16068019","name":"Großneuhausen","type":"Kreisangehörige_Gemeinde"},"district":{"key":"16068","name":"Sömmerda","type":"Landkreis"},"federalState":{"key":"16","name":"Thüringen"}},{"name":"Neue Str.","postalCode":"99625","locality":"Kleinneuhausen","municipality":{"key":"16068033","name":"Kleinneuhausen","type":"Kreisangehörige_Gemeinde"},"district":{"key":"16068","name":"Sömmerda","type":"Landkreis"},"federalState":{"key":"16","name":"Thüringen"}},{"name":"Neuffenstr.","postalCode":"73765","locality":"Neuhausen auf den Fildern","municipality":{"key":"08116047","name":"Neuhausen auf den Fildern","type":"Kreisangehörige_Gemeinde"},"district":{"key":"08116","name":"Esslingen","type":"Landkreis"},"federalState":{"key":"08","name":"Baden-Württemberg"}},{"name":"Neuhausener Str.","postalCode":"03058","locality":"Neuhausen/Spree","municipality":{"key":"12071301","name":"Neuhausen/Spree / Kopańce/Sprjewja","type":"Kreisangehörige_Gemeinde"},"district":{"key":"12071","name":"Spree-Neiße","type":"Landkreis"},"federalState":{"key":"12","name":"Brandenburg"}},{"name":"Neuhausener Str.","postalCode":"09544","locality":"Neuhausen/Erzgebirge","municipality":{"key":"14522400","name":"Neuhausen/Erzgeb.","type":"Kreisangehörige_Gemeinde"},"district":{"key":"14522","name":"Mittelsachsen","type":"Landkreis"},"federalState":{"key":"14","name":"Sachsen"}},{"name":"Neuhausener Str.","postalCode":"75242","locality":"Neuhausen","municipality":{"key":"08236044","name":"Neuhausen","type":"Kreisangehörige_Gemeinde"},"district":{"key":"08236","name":"Enzkreis","type":"Landkreis"},"federalState":{"key":"08","name":"Baden-Württemberg"}},{"name":"Neuhäuser Weg","postalCode":"09544","locality":"Neuhausen/Erzgebirge","municipality":{"key":"14522400","name":"Neuhausen/Erzgeb.","type":"Kreisangehörige_Gemeinde"},"district":{"key":"14522","name":"Mittelsachsen","type":"Landkreis"},"federalState":{"key":"14","name":"Sachsen"}},{"name":"Neuwernsdorf","postalCode":"09544","locality":"Neuhausen/Erzgebirge","municipality":{"key":"14522400","name":"Neuhausen/Erzgeb.","type":"Kreisangehörige_Gemeinde"},"district":{"key":"14522","name":"Mittelsachsen","type":"Landkreis"},"federalState":{"key":"14","name":"Sachsen"}},{"name":"Neuwernsdorfer Weg","postalCode":"09544","locality":"Neuhausen/Erzgebirge","municipality":{"key":"14522400","name":"Neuhausen/Erzgeb.","type":"Kreisangehörige_Gemeinde"},"district":{"key":"14522","name":"Mittelsachsen","type":"Landkreis"},"federalState":{"key":"14","name":"Sachsen"}},{"name":"Nikolausstr.","postalCode":"75242","locality":"Neuhausen","municipality":{"key":"08236044","name":"Neuhausen","type":"Kreisangehörige_Gemeinde"},"district":{"key":"08236","name":"Enzkreis","type":"Landkreis"},"federalState":{"key":"08","name":"Baden-Württemberg"}},{"name":"Nordstr.","postalCode":"78579","locality":"Neuhausen ob Eck","municipality":{"key":"08327038","name":"Neuhausen ob Eck","type":"Kreisangehörige_Gemeinde"},"district":{"key":"08327","name":"Tuttlingen","type":"Landkreis"},"federalState":{"key":"08","name":"Baden-Württemberg"}},{"name":"Novizenweg","postalCode":"73765","locality":"Neuhausen auf den Fildern","municipality":{"key":"08116047","name":"Neuhausen auf den Fildern","type":"Kreisangehörige_Gemeinde"},"district":{"key":"08116","name":"Esslingen","type":"Landkreis"},"federalState":{"key":"08","name":"Baden-Württemberg"}},{"name":"Ob der Ziegelhütte","postalCode":"75242","locality":"Neuhausen","municipality":{"key":"08236044","name":"Neuhausen","type":"Kreisangehörige_Gemeinde"},"district":{"key":"08236","name":"Enzkreis","type":"Landkreis"},"federalState":{"key":"08","name":"Baden-Württemberg"}},{"name":"Oberdorfstr.","postalCode":"78579","locality":"Neuhausen ob Eck","municipality":{"key":"08327038","name":"Neuhausen ob Eck","type":"Kreisangehörige_Gemeinde"},"district":{"key":"08327","name":"Tuttlingen","type":"Landkreis"},"federalState":{"key":"08","name":"Baden-Württemberg"}},{"name":"Obere Bachstr.","postalCode":"73765","locality":"Neuhausen auf den Fildern","municipality":{"key":"08116047","name":"Neuhausen auf den Fildern","type":"Kreisangehörige_Gemeinde"},"district":{"key":"08116","name":"Esslingen","type":"Landkreis"},"federalState":{"key":"08","name":"Baden-Württemberg"}},{"name":"Oberer Birklesweg","postalCode":"75242","locality":"Neuhausen","municipality":{"key":"08236044","name":"Neuhausen","type":"Kreisangehörige_Gemeinde"},"district":{"key":"08236","name":"Enzkreis","type":"Landkreis"},"federalState":{"key":"08","name":"Baden-Württemberg"}},{"name":"Oberer Dürrebergweg","postalCode":"09544","locality":"Neuhausen/Erzgebirge","municipality":{"key":"14522400","name":"Neuhausen/Erzgeb.","type":"Kreisangehörige_Gemeinde"},"district":{"key":"14522","name":"Mittelsachsen","type":"Landkreis"},"federalState":{"key":"14","name":"Sachsen"}},{"name":"Oberer Hahnenbohlweg","postalCode":"78579","locality":"Neuhausen ob Eck","municipality":{"key":"08327038","name":"Neuhausen ob Eck","type":"Kreisangehörige_Gemeinde"},"district":{"key":"08327","name":"Tuttlingen","type":"Landkreis"},"federalState":{"key":"08","name":"Baden-Württemberg"}},{"name":"Oberer Hangweg","postalCode":"75242","locality":"Neuhausen","municipality":{"key":"08236044","name":"Neuhausen","type":"Kreisangehörige_Gemeinde"},"district":{"key":"08236","name":"Enzkreis","type":"Landkreis"},"federalState":{"key":"08","name":"Baden-Württemberg"}},{"name":"Oberer Wappental Weg","postalCode":"78579","locality":"Neuhausen ob Eck","municipality":{"key":"08327038","name":"Neuhausen ob Eck","type":"Kreisangehörige_Gemeinde"},"district":{"key":"08327","name":"Tuttlingen","type":"Landkreis"},"federalState":{"key":"08","name":"Baden-Württemberg"}},{"name":"Oberer Winterhaldeweg","postalCode":"73765","locality":"Neuhausen auf den Fildern","municipality":{"key":"08116047","name":"Neuhausen auf den Fildern","type":"Kreisangehörige_Gemeinde"},"district":{"key":"08116","name":"Esslingen","type":"Landkreis"},"federalState":{"key":"08","name":"Baden-Württemberg"}},{"name":"Ochsengarten","postalCode":"73765","locality":"Neuhausen auf den Fildern","municipality":{"key":"08116047","name":"Neuhausen auf den Fildern","type":"Kreisangehörige_Gemeinde"},"district":{"key":"08116","name":"Esslingen","type":"Landkreis"},"federalState":{"key":"08","name":"Baden-Württemberg"}},{"name":"Olbernhauer Str.","postalCode":"09544","locality":"Neuhausen/Erzgebirge","municipality":{"key":"14522400","name":"Neuhausen/Erzgeb.","type":"Kreisangehörige_Gemeinde"},"district":{"key":"14522","name":"Mittelsachsen","type":"Landkreis"},"federalState":{"key":"14","name":"Sachsen"}},{"name":"Orlishausener Str.","postalCode":"99625","locality":"Großneuhausen","municipality":{"key":"16068019","name":"Großneuhausen","type":"Kreisangehörige_Gemeinde"},"district":{"key":"16068","name":"Sömmerda","type":"Landkreis"},"federalState":{"key":"16","name":"Thüringen"}},{"name":"Ortsumgehung Cottbus","postalCode":"03058","locality":"Neuhausen/Spree","municipality":{"key":"12071301","name":"Neuhausen/Spree / Kopańce/Sprjewja","type":"Kreisangehörige_Gemeinde"},"district":{"key":"12071","name":"Spree-Neiße","type":"Landkreis"},"federalState":{"key":"12","name":"Brandenburg"}},{"name":"Ortsumgehung Cottbus - Netzergänzung","postalCode":"03058","locality":"Neuhausen/Spree","municipality":{"key":"12071301","name":"Neuhausen/Spree / Kopańce/Sprjewja","type":"Kreisangehörige_Gemeinde"},"district":{"key":"12071","name":"Spree-Neiße","type":"Landkreis"},"federalState":{"key":"12","name":"Brandenburg"}},{"name":"Oßniger Dorfstr.","postalCode":"03058","locality":"Neuhausen/Spree","municipality":{"key":"12071301","name":"Neuhausen/Spree / Kopańce/Sprjewja","type":"Kreisangehörige_Gemeinde"},"district":{"key":"12071","name":"Spree-Neiße","type":"Landkreis"},"federalState":{"key":"12","name":"Brandenburg"}},{"name":"Otto-Mayer Weg","postalCode":"75242","locality":"Neuhausen","municipality":{"key":"08236044","name":"Neuhausen","type":"Kreisangehörige_Gemeinde"},"district":{"key":"08236","name":"Enzkreis","type":"Landkreis"},"federalState":{"key":"08","name":"Baden-Württemberg"}},{"name":"Pallottistr.","postalCode":"75242","locality":"Neuhausen","municipality":{"key":"08236044","name":"Neuhausen","type":"Kreisangehörige_Gemeinde"},"district":{"key":"08236","name":"Enzkreis","type":"Landkreis"},"federalState":{"key":"08","name":"Baden-Württemberg"}},{"name":"Panoramastr.","postalCode":"73765","locality":"Neuhausen auf den Fildern","municipality":{"key":"08116047","name":"Neuhausen auf den Fildern","type":"Kreisangehörige_Gemeinde"},"district":{"key":"08116","name":"Esslingen","type":"Landkreis"},"federalState":{"key":"08","name":"Baden-Württemberg"}},{"name":"Panoramaweg","postalCode":"75242","locality":"Neuhausen","municipality":{"key":"08236044","name":"Neuhausen","type":"Kreisangehörige_Gemeinde"},"district":{"key":"08236","name":"Enzkreis","type":"Landkreis"},"federalState":{"key":"08","name":"Baden-Württemberg"}},{"name":"Pappelweg","postalCode":"73765","locality":"Neuhausen auf den Fildern","municipality":{"key":"08116047","name":"Neuhausen auf den Fildern","type":"Kreisangehörige_Gemeinde"},"district":{"key":"08116","name":"Esslingen","type":"Landkreis"},"federalState":{"key":"08","name":"Baden-Württemberg"}},{"name":"Parallelstr.","postalCode":"03058","locality":"Neuhausen/Spree","municipality":{"key":"12071301","name":"Neuhausen/Spree / Kopańce/Sprjewja","type":"Kreisangehörige_Gemeinde"},"district":{"key":"12071","name":"Spree-Neiße","type":"Landkreis"},"federalState":{"key":"12","name":"Brandenburg"}},{"name":"Parkweg","postalCode":"03058","locality":"Neuhausen/Spree","municipality":{"key":"12071301","name":"Neuhausen/Spree / Kopańce/Sprjewja","type":"Kreisangehörige_Gemeinde"},"district":{"key":"12071","name":"Spree-Neiße","type":"Landkreis"},"federalState":{"key":"12","name":"Brandenburg"}},{"name":"Péronnas-Platz","postalCode":"73765","locality":"Neuhausen auf den Fildern","municipality":{"key":"08116047","name":"Neuhausen auf den Fildern","type":"Kreisangehörige_Gemeinde"},"district":{"key":"08116","name":"Esslingen","type":"Landkreis"},"federalState":{"key":"08","name":"Baden-Württemberg"}},{"name":"Pfarrgasse","postalCode":"99625","locality":"Großneuhausen","municipality":{"key":"16068019","name":"Großneuhausen","type":"Kreisangehörige_Gemeinde"},"district":{"key":"16068","name":"Sömmerda","type":"Landkreis"},"federalState":{"key":"16","name":"Thüringen"}},{"name":"Pflugbeilweg","postalCode":"09544","locality":"Neuhausen/Erzgebirge","municipality":{"key":"14522400","name":"Neuhausen/Erzgeb.","type":"Kreisangehörige_Gemeinde"},"district":{"key":"14522","name":"Mittelsachsen","type":"Landkreis"},"federalState":{"key":"14","name":"Sachsen"}},{"name":"Pforzheimer Str.","postalCode":"75242","locality":"Neuhausen","municipality":{"key":"08236044","name":"Neuhausen","type":"Kreisangehörige_Gemeinde"},"district":{"key":"08236","name":"Enzkreis","type":"Landkreis"},"federalState":{"key":"08","name":"Baden-Württemberg"}},{"name":"Plieninger Str.","postalCode":"73765","locality":"Neuhausen auf den Fildern","municipality":{"key":"08116047","name":"Neuhausen auf den Fildern","type":"Kreisangehörige_Gemeinde"},"district":{"key":"08116","name":"Esslingen","type":"Landkreis"},"federalState":{"key":"08","name":"Baden-Württemberg"}},{"name":"Poststr.","postalCode":"09544","locality":"Neuhausen/Erzgebirge","municipality":{"key":"14522400","name":"Neuhausen/Erzgeb.","type":"Kreisangehörige_Gemeinde"},"district":{"key":"14522","name":"Mittelsachsen","type":"Landkreis"},"federalState":{"key":"14","name":"Sachsen"}},{"name":"Pücklerweg","postalCode":"03058","locality":"Neuhausen/Spree","municipality":{"key":"12071301","name":"Neuhausen/Spree / Kopańce/Sprjewja","type":"Kreisangehörige_Gemeinde"},"district":{"key":"12071","name":"Spree-Neiße","type":"Landkreis"},"federalState":{"key":"12","name":"Brandenburg"}},{"name":"Purschenstein","postalCode":"09544","locality":"Neuhausen/Erzgebirge","municipality":{"key":"14522400","name":"Neuhausen/Erzgeb.","type":"Kreisangehörige_Gemeinde"},"district":{"key":"14522","name":"Mittelsachsen","type":"Landkreis"},"federalState":{"key":"14","name":"Sachsen"}},{"name":"Querstr.","postalCode":"03058","locality":"Neuhausen/Spree","municipality":{"key":"12071301","name":"Neuhausen/Spree / Kopańce/Sprjewja","type":"Kreisangehörige_Gemeinde"},"district":{"key":"12071","name":"Spree-Neiße","type":"Landkreis"},"federalState":{"key":"12","name":"Brandenburg"}},{"name":"Querstr.","postalCode":"99625","locality":"Großneuhausen","municipality":{"key":"16068019","name":"Großneuhausen","type":"Kreisangehörige_Gemeinde"},"district":{"key":"16068","name":"Sömmerda","type":"Landkreis"},"federalState":{"key":"16","name":"Thüringen"}},{"name":"Rachelbrücke","postalCode":"09544","locality":"Neuhausen/Erzgebirge","municipality":{"key":"14522400","name":"Neuhausen/Erzgeb.","type":"Kreisangehörige_Gemeinde"},"district":{"key":"14522","name":"Mittelsachsen","type":"Landkreis"},"federalState":{"key":"14","name":"Sachsen"}},{"name":"Räderäckerweg","postalCode":"73765","locality":"Neuhausen auf den Fildern","municipality":{"key":"08116047","name":"Neuhausen auf den Fildern","type":"Kreisangehörige_Gemeinde"},"district":{"key":"08116","name":"Esslingen","type":"Landkreis"},"federalState":{"key":"08","name":"Baden-Württemberg"}},{"name":"Raiffeisenweg","postalCode":"78579","locality":"Neuhausen ob Eck","municipality":{"key":"08327038","name":"Neuhausen ob Eck","type":"Kreisangehörige_Gemeinde"},"district":{"key":"08327","name":"Tuttlingen","type":"Landkreis"},"federalState":{"key":"08","name":"Baden-Württemberg"}},{"name":"Rathausplatz","postalCode":"78579","locality":"Neuhausen ob Eck","municipality":{"key":"08327038","name":"Neuhausen ob Eck","type":"Kreisangehörige_Gemeinde"},"district":{"key":"08327","name":"Tuttlingen","type":"Landkreis"},"federalState":{"key":"08","name":"Baden-Württemberg"}},{"name":"Ratzenbergrundweg","postalCode":"78579","locality":"Neuhausen ob Eck","municipality":{"key":"08327038","name":"Neuhausen ob Eck","type":"Kreisangehörige_Gemeinde"},"district":{"key":"08327","name":"Tuttlingen","type":"Landkreis"},"federalState":{"key":"08","name":"Baden-Württemberg"}},{"name":"Rauschenbach","postalCode":"09544","locality":"Neuhausen/Erzgebirge","municipality":{"key":"14522400","name":"Neuhausen/Erzgeb.","type":"Kreisangehörige_Gemeinde"},"district":{"key":"14522","name":"Mittelsachsen","type":"Landkreis"},"federalState":{"key":"14","name":"Sachsen"}},{"name":"Rauschenflussweg","postalCode":"09544","locality":"Neuhausen/Erzgebirge","municipality":{"key":"14522400","name":"Neuhausen/Erzgeb.","type":"Kreisangehörige_Gemeinde"},"district":{"key":"14522","name":"Mittelsachsen","type":"Landkreis"},"federalState":{"key":"14","name":"Sachsen"}},{"name":"Rauschenflußweg","postalCode":"09544","locality":"Neuhausen/Erzgebirge","municipality":{"key":"14522400","name":"Neuhausen/Erzgeb.","type":"Kreisangehörige_Gemeinde"},"district":{"key":"14522","name":"Mittelsachsen","type":"Landkreis"},"federalState":{"key":"14","name":"Sachsen"}},{"name":"Rebenweg","postalCode":"03058","locality":"Neuhausen/Spree","municipality":{"key":"12071301","name":"Neuhausen/Spree / Kopańce/Sprjewja","type":"Kreisangehörige_Gemeinde"},"district":{"key":"12071","name":"Spree-Neiße","type":"Landkreis"},"federalState":{"key":"12","name":"Brandenburg"}},{"name":"Reblausweg","postalCode":"03058","locality":"Neuhausen/Spree","municipality":{"key":"12071301","name":"Neuhausen/Spree / Kopańce/Sprjewja","type":"Kreisangehörige_Gemeinde"},"district":{"key":"12071","name":"Spree-Neiße","type":"Landkreis"},"federalState":{"key":"12","name":"Brandenburg"}},{"name":"Rehnsdorfer Weg","postalCode":"03058","locality":"Neuhausen/Spree","municipality":{"key":"12071301","name":"Neuhausen/Spree / Kopańce/Sprjewja","type":"Kreisangehörige_Gemeinde"},"district":{"key":"12071","name":"Spree-Neiße","type":"Landkreis"},"federalState":{"key":"12","name":"Brandenburg"}},{"name":"Rengerweg","postalCode":"03058","locality":"Neuhausen/Spree","municipality":{"key":"12071301","name":"Neuhausen/Spree / Kopańce/Sprjewja","type":"Kreisangehörige_Gemeinde"},"district":{"key":"12071","name":"Spree-Neiße","type":"Landkreis"},"federalState":{"key":"12","name":"Brandenburg"}},{"name":"Rheinstr.","postalCode":"75242","locality":"Neuhausen","municipality":{"key":"08236044","name":"Neuhausen","type":"Kreisangehörige_Gemeinde"},"district":{"key":"08236","name":"Enzkreis","type":"Landkreis"},"federalState":{"key":"08","name":"Baden-Württemberg"}},{"name":"Richard-Wagner-Str.","postalCode":"75242","locality":"Neuhausen","municipality":{"key":"08236044","name":"Neuhausen","type":"Kreisangehörige_Gemeinde"},"district":{"key":"08236","name":"Enzkreis","type":"Landkreis"},"federalState":{"key":"08","name":"Baden-Württemberg"}},{"name":"Riedbronnenweg","postalCode":"73765","locality":"Neuhausen auf den Fildern","municipality":{"key":"08116047","name":"Neuhausen auf den Fildern","type":"Kreisangehörige_Gemeinde"},"district":{"key":"08116","name":"Esslingen","type":"Landkreis"},"federalState":{"key":"08","name":"Baden-Württemberg"}},{"name":"Riesenbergerweg","postalCode":"09544","locality":"Neuhausen/Erzgebirge","municipality":{"key":"14522400","name":"Neuhausen/Erzgeb.","type":"Kreisangehörige_Gemeinde"},"district":{"key":"14522","name":"Mittelsachsen","type":"Landkreis"},"federalState":{"key":"14","name":"Sachsen"}},{"name":"Rieslingweg","postalCode":"03058","locality":"Neuhausen/Spree","municipality":{"key":"12071301","name":"Neuhausen/Spree / Kopańce/Sprjewja","type":"Kreisangehörige_Gemeinde"},"district":{"key":"12071","name":"Spree-Neiße","type":"Landkreis"},"federalState":{"key":"12","name":"Brandenburg"}},{"name":"Rietweg","postalCode":"78579","locality":"Neuhausen ob Eck","municipality":{"key":"08327038","name":"Neuhausen ob Eck","type":"Kreisangehörige_Gemeinde"},"district":{"key":"08327","name":"Tuttlingen","type":"Landkreis"},"federalState":{"key":"08","name":"Baden-Württemberg"}},{"name":"Ringstr.","postalCode":"03058","locality":"Neuhausen/Spree","municipality":{"key":"12071301","name":"Neuhausen/Spree / Kopańce/Sprjewja","type":"Kreisangehörige_Gemeinde"},"district":{"key":"12071","name":"Spree-Neiße","type":"Landkreis"},"federalState":{"key":"12","name":"Brandenburg"}},{"name":"Ringstr.","postalCode":"78579","locality":"Neuhausen ob Eck","municipality":{"key":"08327038","name":"Neuhausen ob Eck","type":"Kreisangehörige_Gemeinde"},"district":{"key":"08327","name":"Tuttlingen","type":"Landkreis"},"federalState":{"key":"08","name":"Baden-Württemberg"}},{"name":"Ringstr.","postalCode":"99625","locality":"Kleinneuhausen","municipality":{"key":"16068033","name":"Kleinneuhausen","type":"Kreisangehörige_Gemeinde"},"district":{"key":"16068","name":"Sömmerda","type":"Landkreis"},"federalState":{"key":"16","name":"Thüringen"}},{"name":"Rittweg","postalCode":"75242","locality":"Neuhausen","municipality":{"key":"08236044","name":"Neuhausen","type":"Kreisangehörige_Gemeinde"},"district":{"key":"08236","name":"Enzkreis","type":"Landkreis"},"federalState":{"key":"08","name":"Baden-Württemberg"}},{"name":"Robert-Bosch-Str.","postalCode":"73765","locality":"Neuhausen auf den Fildern","municipality":{"key":"08116047","name":"Neuhausen auf den Fildern","type":"Kreisangehörige_Gemeinde"},"district":{"key":"08116","name":"Esslingen","type":"Landkreis"},"federalState":{"key":"08","name":"Baden-Württemberg"}},{"name":"Robert-Bosch-Str.","postalCode":"78579","locality":"Neuhausen ob Eck","municipality":{"key":"08327038","name":"Neuhausen ob Eck","type":"Kreisangehörige_Gemeinde"},"district":{"key":"08327","name":"Tuttlingen","type":"Landkreis"},"federalState":{"key":"08","name":"Baden-Württemberg"}},{"name":"Robert-Schumann-Str.","postalCode":"75242","locality":"Neuhausen","municipality":{"key":"08236044","name":"Neuhausen","type":"Kreisangehörige_Gemeinde"},"district":{"key":"08236","name":"Enzkreis","type":"Landkreis"},"federalState":{"key":"08","name":"Baden-Württemberg"}},{"name":"Roggosener Hauptstr.","postalCode":"03058","locality":"Neuhausen/Spree","municipality":{"key":"12071301","name":"Neuhausen/Spree / Kopańce/Sprjewja","type":"Kreisangehörige_Gemeinde"},"district":{"key":"12071","name":"Spree-Neiße","type":"Landkreis"},"federalState":{"key":"12","name":"Brandenburg"}},{"name":"Roggosener Str.","postalCode":"03058","locality":"Neuhausen/Spree","municipality":{"key":"12071301","name":"Neuhausen/Spree / Kopańce/Sprjewja","type":"Kreisangehörige_Gemeinde"},"district":{"key":"12071","name":"Spree-Neiße","type":"Landkreis"},"federalState":{"key":"12","name":"Brandenburg"}},{"name":"Roggosener Weg","postalCode":"03058","locality":"Neuhausen/Spree","municipality":{"key":"12071301","name":"Neuhausen/Spree / Kopańce/Sprjewja","type":"Kreisangehörige_Gemeinde"},"district":{"key":"12071","name":"Spree-Neiße","type":"Landkreis"},"federalState":{"key":"12","name":"Brandenburg"}},{"name":"Rohrbachweg","postalCode":"73765","locality":"Neuhausen auf den Fildern","municipality":{"key":"08116047","name":"Neuhausen auf den Fildern","type":"Kreisangehörige_Gemeinde"},"district":{"key":"08116","name":"Esslingen","type":"Landkreis"},"federalState":{"key":"08","name":"Baden-Württemberg"}},{"name":"Römerstr.","postalCode":"73765","locality":"Neuhausen auf den Fildern","municipality":{"key":"08116047","name":"Neuhausen auf den Fildern","type":"Kreisangehörige_Gemeinde"},"district":{"key":"08116","name":"Esslingen","type":"Landkreis"},"federalState":{"key":"08","name":"Baden-Württemberg"}},{"name":"Roschitzerstr.","postalCode":"03058","locality":"Neuhausen/Spree","municipality":{"key":"12071301","name":"Neuhausen/Spree / Kopańce/Sprjewja","type":"Kreisangehörige_Gemeinde"},"district":{"key":"12071","name":"Spree-Neiße","type":"Landkreis"},"federalState":{"key":"12","name":"Brandenburg"}},{"name":"Rosenbergstr.","postalCode":"78579","locality":"Neuhausen ob Eck","municipality":{"key":"08327038","name":"Neuhausen ob Eck","type":"Kreisangehörige_Gemeinde"},"district":{"key":"08327","name":"Tuttlingen","type":"Landkreis"},"federalState":{"key":"08","name":"Baden-Württemberg"}},{"name":"Rosenstr.","postalCode":"75242","locality":"Neuhausen","municipality":{"key":"08236044","name":"Neuhausen","type":"Kreisangehörige_Gemeinde"},"district":{"key":"08236","name":"Enzkreis","type":"Landkreis"},"federalState":{"key":"08","name":"Baden-Württemberg"}},{"name":"Rosenweg","postalCode":"73765","locality":"Neuhausen auf den Fildern","municipality":{"key":"08116047","name":"Neuhausen auf den Fildern","type":"Kreisangehörige_Gemeinde"},"district":{"key":"08116","name":"Esslingen","type":"Landkreis"},"federalState":{"key":"08","name":"Baden-Württemberg"}},{"name":"Rübreuteweg","postalCode":"78579","locality":"Neuhausen ob Eck","municipality":{"key":"08327038","name":"Neuhausen ob Eck","type":"Kreisangehörige_Gemeinde"},"district":{"key":"08327","name":"Tuttlingen","type":"Landkreis"},"federalState":{"key":"08","name":"Baden-Württemberg"}},{"name":"Rudolf-Breitscheid-Str.","postalCode":"09544","locality":"Neuhausen/Erzgebirge","municipality":{"key":"14522400","name":"Neuhausen/Erzgeb.","type":"Kreisangehörige_Gemeinde"},"district":{"key":"14522","name":"Mittelsachsen","type":"Landkreis"},"federalState":{"key":"14","name":"Sachsen"}},{"name":"Rudolf-Diesel-Str.","postalCode":"73765","locality":"Neuhausen auf den Fildern","municipality":{"key":"08116047","name":"Neuhausen auf den Fildern","type":"Kreisangehörige_Gemeinde"},"district":{"key":"08116","name":"Esslingen","type":"Landkreis"},"federalState":{"key":"08","name":"Baden-Württemberg"}},{"name":"Ruibrunnenstr.","postalCode":"75242","locality":"Neuhausen","municipality":{"key":"08236044","name":"Neuhausen","type":"Kreisangehörige_Gemeinde"},"district":{"key":"08236","name":"Enzkreis","type":"Landkreis"},"federalState":{"key":"08","name":"Baden-Württemberg"}},{"name":"Rupert-Mayer-Str.","postalCode":"73765","locality":"Neuhausen auf den Fildern","municipality":{"key":"08116047","name":"Neuhausen auf den Fildern","type":"Kreisangehörige_Gemeinde"},"district":{"key":"08116","name":"Esslingen","type":"Landkreis"},"federalState":{"key":"08","name":"Baden-Württemberg"}},{"name":"Sackweg","postalCode":"75242","locality":"Neuhausen","municipality":{"key":"08236044","name":"Neuhausen","type":"Kreisangehörige_Gemeinde"},"district":{"key":"08236","name":"Enzkreis","type":"Landkreis"},"federalState":{"key":"08","name":"Baden-Württemberg"}},{"name":"Sägweg","postalCode":"75242","locality":"Neuhausen","municipality":{"key":"08236044","name":"Neuhausen","type":"Kreisangehörige_Gemeinde"},"district":{"key":"08236","name":"Enzkreis","type":"Landkreis"},"federalState":{"key":"08","name":"Baden-Württemberg"}},{"name":"Sandweg","postalCode":"75242","locality":"Neuhausen","municipality":{"key":"08236044","name":"Neuhausen","type":"Kreisangehörige_Gemeinde"},"district":{"key":"08236","name":"Enzkreis","type":"Landkreis"},"federalState":{"key":"08","name":"Baden-Württemberg"}},{"name":"Sauhagsträßle","postalCode":"73765","locality":"Neuhausen auf den Fildern","municipality":{"key":"08116047","name":"Neuhausen auf den Fildern","type":"Kreisangehörige_Gemeinde"},"district":{"key":"08116","name":"Esslingen","type":"Landkreis"},"federalState":{"key":"08","name":"Baden-Württemberg"}},{"name":"Sausträßle","postalCode":"75242","locality":"Neuhausen","municipality":{"key":"08236044","name":"Neuhausen","type":"Kreisangehörige_Gemeinde"},"district":{"key":"08236","name":"Enzkreis","type":"Landkreis"},"federalState":{"key":"08","name":"Baden-Württemberg"}},{"name":"Saydaer Weg","postalCode":"09544","locality":"Neuhausen/Erzgebirge","municipality":{"key":"14522400","name":"Neuhausen/Erzgeb.","type":"Kreisangehörige_Gemeinde"},"district":{"key":"14522","name":"Mittelsachsen","type":"Landkreis"},"federalState":{"key":"14","name":"Sachsen"}},{"name":"Schafdamm","postalCode":"03058","locality":"Neuhausen/Spree","municipality":{"key":"12071301","name":"Neuhausen/Spree / Kopańce/Sprjewja","type":"Kreisangehörige_Gemeinde"},"district":{"key":"12071","name":"Spree-Neiße","type":"Landkreis"},"federalState":{"key":"12","name":"Brandenburg"}},{"name":"Schäferberg","postalCode":"03058","locality":"Neuhausen/Spree","municipality":{"key":"12071301","name":"Neuhausen/Spree / Kopańce/Sprjewja","type":"Kreisangehörige_Gemeinde"},"district":{"key":"12071","name":"Spree-Neiße","type":"Landkreis"},"federalState":{"key":"12","name":"Brandenburg"}},{"name":"Schäferstr.","postalCode":"03058","locality":"Neuhausen/Spree","municipality":{"key":"12071301","name":"Neuhausen/Spree / Kopańce/Sprjewja","type":"Kreisangehörige_Gemeinde"},"district":{"key":"12071","name":"Spree-Neiße","type":"Landkreis"},"federalState":{"key":"12","name":"Brandenburg"}},{"name":"Scharnhäuser Str.","postalCode":"73765","locality":"Neuhausen auf den Fildern","municipality":{"key":"08116047","name":"Neuhausen auf den Fildern","type":"Kreisangehörige_Gemeinde"},"district":{"key":"08116","name":"Esslingen","type":"Landkreis"},"federalState":{"key":"08","name":"Baden-Württemberg"}},{"name":"Scharnholzweg","postalCode":"73765","locality":"Neuhausen auf den Fildern","municipality":{"key":"08116047","name":"Neuhausen auf den Fildern","type":"Kreisangehörige_Gemeinde"},"district":{"key":"08116","name":"Esslingen","type":"Landkreis"},"federalState":{"key":"08","name":"Baden-Württemberg"}},{"name":"Schauinslandstr.","postalCode":"75242","locality":"Neuhausen","municipality":{"key":"08236044","name":"Neuhausen","type":"Kreisangehörige_Gemeinde"},"district":{"key":"08236","name":"Enzkreis","type":"Landkreis"},"federalState":{"key":"08","name":"Baden-Württemberg"}},{"name":"Scheiterbergweg","postalCode":"75242","locality":"Neuhausen","municipality":{"key":"08236044","name":"Neuhausen","type":"Kreisangehörige_Gemeinde"},"district":{"key":"08236","name":"Enzkreis","type":"Landkreis"},"federalState":{"key":"08","name":"Baden-Württemberg"}},{"name":"Schellbronner Str.","postalCode":"75242","locality":"Neuhausen","municipality":{"key":"08236044","name":"Neuhausen","type":"Kreisangehörige_Gemeinde"},"district":{"key":"08236","name":"Enzkreis","type":"Landkreis"},"federalState":{"key":"08","name":"Baden-Württemberg"}},{"name":"Schelmenstr.","postalCode":"75242","locality":"Neuhausen","municipality":{"key":"08236044","name":"Neuhausen","type":"Kreisangehörige_Gemeinde"},"district":{"key":"08236","name":"Enzkreis","type":"Landkreis"},"federalState":{"key":"08","name":"Baden-Württemberg"}},{"name":"Schenkplatz","postalCode":"99625","locality":"Großneuhausen","municipality":{"key":"16068019","name":"Großneuhausen","type":"Kreisangehörige_Gemeinde"},"district":{"key":"16068","name":"Sömmerda","type":"Landkreis"},"federalState":{"key":"16","name":"Thüringen"}},{"name":"Schillerstr.","postalCode":"73765","locality":"Neuhausen auf den Fildern","municipality":{"key":"08116047","name":"Neuhausen auf den Fildern","type":"Kreisangehörige_Gemeinde"},"district":{"key":"08116","name":"Esslingen","type":"Landkreis"},"federalState":{"key":"08","name":"Baden-Württemberg"}},{"name":"Schillerstr.","postalCode":"75242","locality":"Neuhausen","municipality":{"key":"08236044","name":"Neuhausen","type":"Kreisangehörige_Gemeinde"},"district":{"key":"08236","name":"Enzkreis","type":"Landkreis"},"federalState":{"key":"08","name":"Baden-Württemberg"}},{"name":"Schillerstr.","postalCode":"78579","locality":"Neuhausen ob Eck","municipality":{"key":"08327038","name":"Neuhausen ob Eck","type":"Kreisangehörige_Gemeinde"},"district":{"key":"08327","name":"Tuttlingen","type":"Landkreis"},"federalState":{"key":"08","name":"Baden-Württemberg"}},{"name":"Schindelwaldstr.","postalCode":"78579","locality":"Neuhausen ob Eck","municipality":{"key":"08327038","name":"Neuhausen ob Eck","type":"Kreisangehörige_Gemeinde"},"district":{"key":"08327","name":"Tuttlingen","type":"Landkreis"},"federalState":{"key":"08","name":"Baden-Württemberg"}},{"name":"Schlehenweg","postalCode":"73765","locality":"Neuhausen auf den Fildern","municipality":{"key":"08116047","name":"Neuhausen auf den Fildern","type":"Kreisangehörige_Gemeinde"},"district":{"key":"08116","name":"Esslingen","type":"Landkreis"},"federalState":{"key":"08","name":"Baden-Württemberg"}},{"name":"Schlosserstr.","postalCode":"73765","locality":"Neuhausen auf den Fildern","municipality":{"key":"08116047","name":"Neuhausen auf den Fildern","type":"Kreisangehörige_Gemeinde"},"district":{"key":"08116","name":"Esslingen","type":"Landkreis"},"federalState":{"key":"08","name":"Baden-Württemberg"}},{"name":"Schloßgasse","postalCode":"09544","locality":"Neuhausen/Erzgebirge","municipality":{"key":"14522400","name":"Neuhausen/Erzgeb.","type":"Kreisangehörige_Gemeinde"},"district":{"key":"14522","name":"Mittelsachsen","type":"Landkreis"},"federalState":{"key":"14","name":"Sachsen"}},{"name":"Schlossplatz","postalCode":"73765","locality":"Neuhausen auf den Fildern","municipality":{"key":"08116047","name":"Neuhausen auf den Fildern","type":"Kreisangehörige_Gemeinde"},"district":{"key":"08116","name":"Esslingen","type":"Landkreis"},"federalState":{"key":"08","name":"Baden-Württemberg"}},{"name":"Schloßplatz","postalCode":"73765","locality":"Neuhausen auf den Fildern","municipality":{"key":"08116047","name":"Neuhausen auf den Fildern","type":"Kreisangehörige_Gemeinde"},"district":{"key":"08116","name":"Esslingen","type":"Landkreis"},"federalState":{"key":"08","name":"Baden-Württemberg"}},{"name":"Schlossstr.","postalCode":"73765","locality":"Neuhausen auf den Fildern","municipality":{"key":"08116047","name":"Neuhausen auf den Fildern","type":"Kreisangehörige_Gemeinde"},"district":{"key":"08116","name":"Esslingen","type":"Landkreis"},"federalState":{"key":"08","name":"Baden-Württemberg"}},{"name":"Schloßstr.","postalCode":"75242","locality":"Neuhausen","municipality":{"key":"08236044","name":"Neuhausen","type":"Kreisangehörige_Gemeinde"},"district":{"key":"08236","name":"Enzkreis","type":"Landkreis"},"federalState":{"key":"08","name":"Baden-Württemberg"}},{"name":"Schlossweg","postalCode":"03058","locality":"Neuhausen/Spree","municipality":{"key":"12071301","name":"Neuhausen/Spree / Kopańce/Sprjewja","type":"Kreisangehörige_Gemeinde"},"district":{"key":"12071","name":"Spree-Neiße","type":"Landkreis"},"federalState":{"key":"12","name":"Brandenburg"}},{"name":"Schmale Str.","postalCode":"78579","locality":"Neuhausen ob Eck","municipality":{"key":"08327038","name":"Neuhausen ob Eck","type":"Kreisangehörige_Gemeinde"},"district":{"key":"08327","name":"Tuttlingen","type":"Landkreis"},"federalState":{"key":"08","name":"Baden-Württemberg"}},{"name":"Schmalwegle","postalCode":"78579","locality":"Neuhausen ob Eck","municipality":{"key":"08327038","name":"Neuhausen ob Eck","type":"Kreisangehörige_Gemeinde"},"district":{"key":"08327","name":"Tuttlingen","type":"Landkreis"},"federalState":{"key":"08","name":"Baden-Württemberg"}},{"name":"Schmiedeweg","postalCode":"03058","locality":"Neuhausen/Spree","municipality":{"key":"12071301","name":"Neuhausen/Spree / Kopańce/Sprjewja","type":"Kreisangehörige_Gemeinde"},"district":{"key":"12071","name":"Spree-Neiße","type":"Landkreis"},"federalState":{"key":"12","name":"Brandenburg"}},{"name":"Schneidergasse","postalCode":"03058","locality":"Neuhausen/Spree","municipality":{"key":"12071301","name":"Neuhausen/Spree / Kopańce/Sprjewja","type":"Kreisangehörige_Gemeinde"},"district":{"key":"12071","name":"Spree-Neiße","type":"Landkreis"},"federalState":{"key":"12","name":"Brandenburg"}},{"name":"Schneidersweg","postalCode":"75242","locality":"Neuhausen","municipality":{"key":"08236044","name":"Neuhausen","type":"Kreisangehörige_Gemeinde"},"district":{"key":"08236","name":"Enzkreis","type":"Landkreis"},"federalState":{"key":"08","name":"Baden-Württemberg"}},{"name":"Schöllhauweg","postalCode":"73765","locality":"Neuhausen auf den Fildern","municipality":{"key":"08116047","name":"Neuhausen auf den Fildern","type":"Kreisangehörige_Gemeinde"},"district":{"key":"08116","name":"Esslingen","type":"Landkreis"},"federalState":{"key":"08","name":"Baden-Württemberg"}},{"name":"Schönblickstr.","postalCode":"75242","locality":"Neuhausen","municipality":{"key":"08236044","name":"Neuhausen","type":"Kreisangehörige_Gemeinde"},"district":{"key":"08236","name":"Enzkreis","type":"Landkreis"},"federalState":{"key":"08","name":"Baden-Württemberg"}},{"name":"Schönbuchstr.","postalCode":"73765","locality":"Neuhausen auf den Fildern","municipality":{"key":"08116047","name":"Neuhausen auf den Fildern","type":"Kreisangehörige_Gemeinde"},"district":{"key":"08116","name":"Esslingen","type":"Landkreis"},"federalState":{"key":"08","name":"Baden-Württemberg"}},{"name":"Schreinergasse","postalCode":"75242","locality":"Neuhausen","municipality":{"key":"08236044","name":"Neuhausen","type":"Kreisangehörige_Gemeinde"},"district":{"key":"08236","name":"Enzkreis","type":"Landkreis"},"federalState":{"key":"08","name":"Baden-Württemberg"}},{"name":"Schubertstr.","postalCode":"75242","locality":"Neuhausen","municipality":{"key":"08236044","name":"Neuhausen","type":"Kreisangehörige_Gemeinde"},"district":{"key":"08236","name":"Enzkreis","type":"Landkreis"},"federalState":{"key":"08","name":"Baden-Württemberg"}},{"name":"Schulstr.","postalCode":"03058","locality":"Neuhausen/Spree","municipality":{"key":"12071301","name":"Neuhausen/Spree / Kopańce/Sprjewja","type":"Kreisangehörige_Gemeinde"},"district":{"key":"12071","name":"Spree-Neiße","type":"Landkreis"},"federalState":{"key":"12","name":"Brandenburg"}},{"name":"Schulstr.","postalCode":"99625","locality":"Großneuhausen","municipality":{"key":"16068019","name":"Großneuhausen","type":"Kreisangehörige_Gemeinde"},"district":{"key":"16068","name":"Sömmerda","type":"Landkreis"},"federalState":{"key":"16","name":"Thüringen"}},{"name":"Schulweg","postalCode":"03058","locality":"Neuhausen/Spree","municipality":{"key":"12071301","name":"Neuhausen/Spree / Kopańce/Sprjewja","type":"Kreisangehörige_Gemeinde"},"district":{"key":"12071","name":"Spree-Neiße","type":"Landkreis"},"federalState":{"key":"12","name":"Brandenburg"}},{"name":"Schurwaldstr.","postalCode":"73765","locality":"Neuhausen auf den Fildern","municipality":{"key":"08116047","name":"Neuhausen auf den Fildern","type":"Kreisangehörige_Gemeinde"},"district":{"key":"08116","name":"Esslingen","type":"Landkreis"},"federalState":{"key":"08","name":"Baden-Württemberg"}},{"name":"Schützenhausweg","postalCode":"09544","locality":"Neuhausen/Erzgebirge","municipality":{"key":"14522400","name":"Neuhausen/Erzgeb.","type":"Kreisangehörige_Gemeinde"},"district":{"key":"14522","name":"Mittelsachsen","type":"Landkreis"},"federalState":{"key":"14","name":"Sachsen"}},{"name":"Schwandorfer Str.","postalCode":"78579","locality":"Neuhausen ob Eck","municipality":{"key":"08327038","name":"Neuhausen ob Eck","type":"Kreisangehörige_Gemeinde"},"district":{"key":"08327","name":"Tuttlingen","type":"Landkreis"},"federalState":{"key":"08","name":"Baden-Württemberg"}},{"name":"Schwartenbergweg","postalCode":"09544","locality":"Neuhausen/Erzgebirge","municipality":{"key":"14522400","name":"Neuhausen/Erzgeb.","type":"Kreisangehörige_Gemeinde"},"district":{"key":"14522","name":"Mittelsachsen","type":"Landkreis"},"federalState":{"key":"14","name":"Sachsen"}},{"name":"Schwarzer-Fluss-Weg","postalCode":"09544","locality":"Neuhausen/Erzgebirge","municipality":{"key":"14522400","name":"Neuhausen/Erzgeb.","type":"Kreisangehörige_Gemeinde"},"district":{"key":"14522","name":"Mittelsachsen","type":"Landkreis"},"federalState":{"key":"14","name":"Sachsen"}},{"name":"Schwarzwaldstr.","postalCode":"75242","locality":"Neuhausen","municipality":{"key":"08236044","name":"Neuhausen","type":"Kreisangehörige_Gemeinde"},"district":{"key":"08236","name":"Enzkreis","type":"Landkreis"},"federalState":{"key":"08","name":"Baden-Württemberg"}},{"name":"Schwerdtweg","postalCode":"09544","locality":"Neuhausen/Erzgebirge","municipality":{"key":"14522400","name":"Neuhausen/Erzgeb.","type":"Kreisangehörige_Gemeinde"},"district":{"key":"14522","name":"Mittelsachsen","type":"Landkreis"},"federalState":{"key":"14","name":"Sachsen"}},{"name":"Schwertweg","postalCode":"09544","locality":"Neuhausen/Erzgebirge","municipality":{"key":"14522400","name":"Neuhausen/Erzgeb.","type":"Kreisangehörige_Gemeinde"},"district":{"key":"14522","name":"Mittelsachsen","type":"Landkreis"},"federalState":{"key":"14","name":"Sachsen"}},{"name":"Schwester-Coronata-Weg","postalCode":"73765","locality":"Neuhausen auf den Fildern","municipality":{"key":"08116047","name":"Neuhausen auf den Fildern","type":"Kreisangehörige_Gemeinde"},"district":{"key":"08116","name":"Esslingen","type":"Landkreis"},"federalState":{"key":"08","name":"Baden-Württemberg"}},{"name":"Take-Off Gewerbepark","postalCode":"78579","locality":"Neuhausen ob Eck","municipality":{"key":"08327038","name":"Neuhausen ob Eck","type":"Kreisangehörige_Gemeinde"},"district":{"key":"08327","name":"Tuttlingen","type":"Landkreis"},"federalState":{"key":"08","name":"Baden-Württemberg"}},{"name":"Taläckerstr.","postalCode":"73765","locality":"Neuhausen auf den Fildern","municipality":{"key":"08116047","name":"Neuhausen auf den Fildern","type":"Kreisangehörige_Gemeinde"},"district":{"key":"08116","name":"Esslingen","type":"Landkreis"},"federalState":{"key":"08","name":"Baden-Württemberg"}},{"name":"Talhof","postalCode":"73765","locality":"Neuhausen auf den Fildern","municipality":{"key":"08116047","name":"Neuhausen auf den Fildern","type":"Kreisangehörige_Gemeinde"},"district":{"key":"08116","name":"Esslingen","type":"Landkreis"},"federalState":{"key":"08","name":"Baden-Württemberg"}},{"name":"Talstr.","postalCode":"09544","locality":"Neuhausen/Erzgebirge","municipality":{"key":"14522400","name":"Neuhausen/Erzgeb.","type":"Kreisangehörige_Gemeinde"},"district":{"key":"14522","name":"Mittelsachsen","type":"Landkreis"},"federalState":{"key":"14","name":"Sachsen"}},{"name":"Talstr.","postalCode":"78579","locality":"Neuhausen ob Eck","municipality":{"key":"08327038","name":"Neuhausen ob Eck","type":"Kreisangehörige_Gemeinde"},"district":{"key":"08327","name":"Tuttlingen","type":"Landkreis"},"federalState":{"key":"08","name":"Baden-Württemberg"}},{"name":"Talweg","postalCode":"75242","locality":"Neuhausen","municipality":{"key":"08236044","name":"Neuhausen","type":"Kreisangehörige_Gemeinde"},"district":{"key":"08236","name":"Enzkreis","type":"Landkreis"},"federalState":{"key":"08","name":"Baden-Württemberg"}},{"name":"Talwiesen","postalCode":"75242","locality":"Neuhausen","municipality":{"key":"08236044","name":"Neuhausen","type":"Kreisangehörige_Gemeinde"},"district":{"key":"08236","name":"Enzkreis","type":"Landkreis"},"federalState":{"key":"08","name":"Baden-Württemberg"}},{"name":"Tannenweg","postalCode":"03058","locality":"Neuhausen/Spree","municipality":{"key":"12071301","name":"Neuhausen/Spree / Kopańce/Sprjewja","type":"Kreisangehörige_Gemeinde"},"district":{"key":"12071","name":"Spree-Neiße","type":"Landkreis"},"federalState":{"key":"12","name":"Brandenburg"}},{"name":"Tannenweg","postalCode":"09544","locality":"Neuhausen/Erzgebirge","municipality":{"key":"14522400","name":"Neuhausen/Erzgeb.","type":"Kreisangehörige_Gemeinde"},"district":{"key":"14522","name":"Mittelsachsen","type":"Landkreis"},"federalState":{"key":"14","name":"Sachsen"}},{"name":"Tannenweg","postalCode":"75242","locality":"Neuhausen","municipality":{"key":"08236044","name":"Neuhausen","type":"Kreisangehörige_Gemeinde"},"district":{"key":"08236","name":"Enzkreis","type":"Landkreis"},"federalState":{"key":"08","name":"Baden-Württemberg"}},{"name":"Tanninger Str.","postalCode":"78579","locality":"Neuhausen ob Eck","municipality":{"key":"08327038","name":"Neuhausen ob Eck","type":"Kreisangehörige_Gemeinde"},"district":{"key":"08327","name":"Tuttlingen","type":"Landkreis"},"federalState":{"key":"08","name":"Baden-Württemberg"}},{"name":"Tavernenweg","postalCode":"03058","locality":"Neuhausen/Spree","municipality":{"key":"12071301","name":"Neuhausen/Spree / Kopańce/Sprjewja","type":"Kreisangehörige_Gemeinde"},"district":{"key":"12071","name":"Spree-Neiße","type":"Landkreis"},"federalState":{"key":"12","name":"Brandenburg"}},{"name":"Teckstr.","postalCode":"73765","locality":"Neuhausen auf den Fildern","municipality":{"key":"08116047","name":"Neuhausen auf den Fildern","type":"Kreisangehörige_Gemeinde"},"district":{"key":"08116","name":"Esslingen","type":"Landkreis"},"federalState":{"key":"08","name":"Baden-Württemberg"}},{"name":"Teichstr.","postalCode":"99625","locality":"Kleinneuhausen","municipality":{"key":"16068033","name":"Kleinneuhausen","type":"Kreisangehörige_Gemeinde"},"district":{"key":"16068","name":"Sömmerda","type":"Landkreis"},"federalState":{"key":"16","name":"Thüringen"}},{"name":"Teschenbachweg","postalCode":"75242","locality":"Neuhausen","municipality":{"key":"08236044","name":"Neuhausen","type":"Kreisangehörige_Gemeinde"},"district":{"key":"08236","name":"Enzkreis","type":"Landkreis"},"federalState":{"key":"08","name":"Baden-Württemberg"}},{"name":"Theodor-Gugel-Str.","postalCode":"73765","locality":"Neuhausen auf den Fildern","municipality":{"key":"08116047","name":"Neuhausen auf den Fildern","type":"Kreisangehörige_Gemeinde"},"district":{"key":"08116","name":"Esslingen","type":"Landkreis"},"federalState":{"key":"08","name":"Baden-Württemberg"}},{"name":"Tiefer-Tal-Weg","postalCode":"09544","locality":"Neuhausen/Erzgebirge","municipality":{"key":"14522400","name":"Neuhausen/Erzgeb.","type":"Kreisangehörige_Gemeinde"},"district":{"key":"14522","name":"Mittelsachsen","type":"Landkreis"},"federalState":{"key":"14","name":"Sachsen"}},{"name":"Tirolerweg","postalCode":"75242","locality":"Neuhausen","municipality":{"key":"08236044","name":"Neuhausen","type":"Kreisangehörige_Gemeinde"},"district":{"key":"08236","name":"Enzkreis","type":"Landkreis"},"federalState":{"key":"08","name":"Baden-Württemberg"}},{"name":"Todtermannsweg","postalCode":"09544","locality":"Neuhausen/Erzgebirge","municipality":{"key":"14522400","name":"Neuhausen/Erzgeb.","type":"Kreisangehörige_Gemeinde"},"district":{"key":"14522","name":"Mittelsachsen","type":"Landkreis"},"federalState":{"key":"14","name":"Sachsen"}},{"name":"Tokaier Weg","postalCode":"03058","locality":"Neuhausen/Spree","municipality":{"key":"12071301","name":"Neuhausen/Spree / Kopańce/Sprjewja","type":"Kreisangehörige_Gemeinde"},"district":{"key":"12071","name":"Spree-Neiße","type":"Landkreis"},"federalState":{"key":"12","name":"Brandenburg"}},{"name":"Torsträßle","postalCode":"75242","locality":"Neuhausen","municipality":{"key":"08236044","name":"Neuhausen","type":"Kreisangehörige_Gemeinde"},"district":{"key":"08236","name":"Enzkreis","type":"Landkreis"},"federalState":{"key":"08","name":"Baden-Württemberg"}},{"name":"Traminer Weg","postalCode":"03058","locality":"Neuhausen/Spree","municipality":{"key":"12071301","name":"Neuhausen/Spree / Kopańce/Sprjewja","type":"Kreisangehörige_Gemeinde"},"district":{"key":"12071","name":"Spree-Neiße","type":"Landkreis"},"federalState":{"key":"12","name":"Brandenburg"}},{"name":"Traubenweg","postalCode":"03058","locality":"Neuhausen/Spree","municipality":{"key":"12071301","name":"Neuhausen/Spree / Kopańce/Sprjewja","type":"Kreisangehörige_Gemeinde"},"district":{"key":"12071","name":"Spree-Neiße","type":"Landkreis"},"federalState":{"key":"12","name":"Brandenburg"}},{"name":"Tuttlinger Str.","postalCode":"78579","locality":"Neuhausen ob Eck","municipality":{"key":"08327038","name":"Neuhausen ob Eck","type":"Kreisangehörige_Gemeinde"},"district":{"key":"08327","name":"Tuttlingen","type":"Landkreis"},"federalState":{"key":"08","name":"Baden-Württemberg"}},{"name":"Uhlandstr.","postalCode":"73765","locality":"Neuhausen auf den Fildern","municipality":{"key":"08116047","name":"Neuhausen auf den Fildern","type":"Kreisangehörige_Gemeinde"},"district":{"key":"08116","name":"Esslingen","type":"Landkreis"},"federalState":{"key":"08","name":"Baden-Württemberg"}},{"name":"Uhlandstr.","postalCode":"75242","locality":"Neuhausen","municipality":{"key":"08236044","name":"Neuhausen","type":"Kreisangehörige_Gemeinde"},"district":{"key":"08236","name":"Enzkreis","type":"Landkreis"},"federalState":{"key":"08","name":"Baden-Württemberg"}},{"name":"Uhlandstr.","postalCode":"78579","locality":"Neuhausen ob Eck","municipality":{"key":"08327038","name":"Neuhausen ob Eck","type":"Kreisangehörige_Gemeinde"},"district":{"key":"08327","name":"Tuttlingen","type":"Landkreis"},"federalState":{"key":"08","name":"Baden-Württemberg"}},{"name":"Ulmenweg","postalCode":"73765","locality":"Neuhausen auf den Fildern","municipality":{"key":"08116047","name":"Neuhausen auf den Fildern","type":"Kreisangehörige_Gemeinde"},"district":{"key":"08116","name":"Esslingen","type":"Landkreis"},"federalState":{"key":"08","name":"Baden-Württemberg"}},{"name":"Untere Bachstr.","postalCode":"73765","locality":"Neuhausen auf den Fildern","municipality":{"key":"08116047","name":"Neuhausen auf den Fildern","type":"Kreisangehörige_Gemeinde"},"district":{"key":"08116","name":"Esslingen","type":"Landkreis"},"federalState":{"key":"08","name":"Baden-Württemberg"}},{"name":"Unterer Birklesweg","postalCode":"75242","locality":"Neuhausen","municipality":{"key":"08236044","name":"Neuhausen","type":"Kreisangehörige_Gemeinde"},"district":{"key":"08236","name":"Enzkreis","type":"Landkreis"},"federalState":{"key":"08","name":"Baden-Württemberg"}},{"name":"Unterer Hangweg","postalCode":"75242","locality":"Neuhausen","municipality":{"key":"08236044","name":"Neuhausen","type":"Kreisangehörige_Gemeinde"},"district":{"key":"08236","name":"Enzkreis","type":"Landkreis"},"federalState":{"key":"08","name":"Baden-Württemberg"}},{"name":"Unterer Klebweg","postalCode":"75242","locality":"Neuhausen","municipality":{"key":"08236044","name":"Neuhausen","type":"Kreisangehörige_Gemeinde"},"district":{"key":"08236","name":"Enzkreis","type":"Landkreis"},"federalState":{"key":"08","name":"Baden-Württemberg"}},{"name":"Unterer Sandweg","postalCode":"75242","locality":"Neuhausen","municipality":{"key":"08236044","name":"Neuhausen","type":"Kreisangehörige_Gemeinde"},"district":{"key":"08236","name":"Enzkreis","type":"Landkreis"},"federalState":{"key":"08","name":"Baden-Württemberg"}},{"name":"Unterer Wacholderhauweg","postalCode":"75242","locality":"Neuhausen","municipality":{"key":"08236044","name":"Neuhausen","type":"Kreisangehörige_Gemeinde"},"district":{"key":"08236","name":"Enzkreis","type":"Landkreis"},"federalState":{"key":"08","name":"Baden-Württemberg"}},{"name":"Unterer Weg","postalCode":"75242","locality":"Neuhausen","municipality":{"key":"08236044","name":"Neuhausen","type":"Kreisangehörige_Gemeinde"},"district":{"key":"08236","name":"Enzkreis","type":"Landkreis"},"federalState":{"key":"08","name":"Baden-Württemberg"}},{"name":"Unterer Winkel","postalCode":"78579","locality":"Neuhausen ob Eck","municipality":{"key":"08327038","name":"Neuhausen ob Eck","type":"Kreisangehörige_Gemeinde"},"district":{"key":"08327","name":"Tuttlingen","type":"Landkreis"},"federalState":{"key":"08","name":"Baden-Württemberg"}},{"name":"Unterer Winterhaldenweg","postalCode":"73765","locality":"Neuhausen auf den Fildern","municipality":{"key":"08116047","name":"Neuhausen auf den Fildern","type":"Kreisangehörige_Gemeinde"},"district":{"key":"08116","name":"Esslingen","type":"Landkreis"},"federalState":{"key":"08","name":"Baden-Württemberg"}},{"name":"Unterreichenbacher Str.","postalCode":"75242","locality":"Neuhausen","municipality":{"key":"08236044","name":"Neuhausen","type":"Kreisangehörige_Gemeinde"},"district":{"key":"08236","name":"Enzkreis","type":"Landkreis"},"federalState":{"key":"08","name":"Baden-Württemberg"}},{"name":"Unterschwandorf","postalCode":"78579","locality":"Neuhausen ob Eck","municipality":{"key":"08327038","name":"Neuhausen ob Eck","type":"Kreisangehörige_Gemeinde"},"district":{"key":"08327","name":"Tuttlingen","type":"Landkreis"},"federalState":{"key":"08","name":"Baden-Württemberg"}},{"name":"Unt. Hahnenbohlweg","postalCode":"78579","locality":"Neuhausen ob Eck","municipality":{"key":"08327038","name":"Neuhausen ob Eck","type":"Kreisangehörige_Gemeinde"},"district":{"key":"08327","name":"Tuttlingen","type":"Landkreis"},"federalState":{"key":"08","name":"Baden-Württemberg"}},{"name":"Vogelsangstr.","postalCode":"75242","locality":"Neuhausen","municipality":{"key":"08236044","name":"Neuhausen","type":"Kreisangehörige_Gemeinde"},"district":{"key":"08236","name":"Enzkreis","type":"Landkreis"},"federalState":{"key":"08","name":"Baden-Württemberg"}},{"name":"Volkertsweiler","postalCode":"78579","locality":"Neuhausen ob Eck","municipality":{"key":"08327038","name":"Neuhausen ob Eck","type":"Kreisangehörige_Gemeinde"},"district":{"key":"08327","name":"Tuttlingen","type":"Landkreis"},"federalState":{"key":"08","name":"Baden-Württemberg"}},{"name":"Vor dem Hau","postalCode":"75242","locality":"Neuhausen","municipality":{"key":"08236044","name":"Neuhausen","type":"Kreisangehörige_Gemeinde"},"district":{"key":"08236","name":"Enzkreis","type":"Landkreis"},"federalState":{"key":"08","name":"Baden-Württemberg"}},{"name":"Waagenbachstr.","postalCode":"73765","locality":"Neuhausen auf den Fildern","municipality":{"key":"08116047","name":"Neuhausen auf den Fildern","type":"Kreisangehörige_Gemeinde"},"district":{"key":"08116","name":"Esslingen","type":"Landkreis"},"federalState":{"key":"08","name":"Baden-Württemberg"}},{"name":"Wachholderhauweg","postalCode":"75242","locality":"Neuhausen","municipality":{"key":"08236044","name":"Neuhausen","type":"Kreisangehörige_Gemeinde"},"district":{"key":"08236","name":"Enzkreis","type":"Landkreis"},"federalState":{"key":"08","name":"Baden-Württemberg"}},{"name":"Wacholderweg","postalCode":"75242","locality":"Neuhausen","municipality":{"key":"08236044","name":"Neuhausen","type":"Kreisangehörige_Gemeinde"},"district":{"key":"08236","name":"Enzkreis","type":"Landkreis"},"federalState":{"key":"08","name":"Baden-Württemberg"}},{"name":"Wadelsdorfer Weg","postalCode":"03058","locality":"Neuhausen/Spree","municipality":{"key":"12071301","name":"Neuhausen/Spree / Kopańce/Sprjewja","type":"Kreisangehörige_Gemeinde"},"district":{"key":"12071","name":"Spree-Neiße","type":"Landkreis"},"federalState":{"key":"12","name":"Brandenburg"}},{"name":"Wagnerstr.","postalCode":"73765","locality":"Neuhausen auf den Fildern","municipality":{"key":"08116047","name":"Neuhausen auf den Fildern","type":"Kreisangehörige_Gemeinde"},"district":{"key":"08116","name":"Esslingen","type":"Landkreis"},"federalState":{"key":"08","name":"Baden-Württemberg"}},{"name":"Waidmannsruh","postalCode":"03058","locality":"Neuhausen/Spree","municipality":{"key":"12071301","name":"Neuhausen/Spree / Kopańce/Sprjewja","type":"Kreisangehörige_Gemeinde"},"district":{"key":"12071","name":"Spree-Neiße","type":"Landkreis"},"federalState":{"key":"12","name":"Brandenburg"}},{"name":"Waldblickstr.","postalCode":"75242","locality":"Neuhausen","municipality":{"key":"08236044","name":"Neuhausen","type":"Kreisangehörige_Gemeinde"},"district":{"key":"08236","name":"Enzkreis","type":"Landkreis"},"federalState":{"key":"08","name":"Baden-Württemberg"}},{"name":"Waldstr.","postalCode":"03058","locality":"Neuhausen/Spree","municipality":{"key":"12071301","name":"Neuhausen/Spree / Kopańce/Sprjewja","type":"Kreisangehörige_Gemeinde"},"district":{"key":"12071","name":"Spree-Neiße","type":"Landkreis"},"federalState":{"key":"12","name":"Brandenburg"}},{"name":"Waldstr.","postalCode":"75242","locality":"Neuhausen","municipality":{"key":"08236044","name":"Neuhausen","type":"Kreisangehörige_Gemeinde"},"district":{"key":"08236","name":"Enzkreis","type":"Landkreis"},"federalState":{"key":"08","name":"Baden-Württemberg"}},{"name":"Waldweg","postalCode":"03058","locality":"Neuhausen/Spree","municipality":{"key":"12071301","name":"Neuhausen/Spree / Kopańce/Sprjewja","type":"Kreisangehörige_Gemeinde"},"district":{"key":"12071","name":"Spree-Neiße","type":"Landkreis"},"federalState":{"key":"12","name":"Brandenburg"}},{"name":"Waldweideweg","postalCode":"75242","locality":"Neuhausen","municipality":{"key":"08236044","name":"Neuhausen","type":"Kreisangehörige_Gemeinde"},"district":{"key":"08236","name":"Enzkreis","type":"Landkreis"},"federalState":{"key":"08","name":"Baden-Württemberg"}},{"name":"Wappental","postalCode":"78579","locality":"Neuhausen ob Eck","municipality":{"key":"08327038","name":"Neuhausen ob Eck","type":"Kreisangehörige_Gemeinde"},"district":{"key":"08327","name":"Tuttlingen","type":"Landkreis"},"federalState":{"key":"08","name":"Baden-Württemberg"}},{"name":"Wasserfallweg","postalCode":"78579","locality":"Neuhausen ob Eck","municipality":{"key":"08327038","name":"Neuhausen ob Eck","type":"Kreisangehörige_Gemeinde"},"district":{"key":"08327","name":"Tuttlingen","type":"Landkreis"},"federalState":{"key":"08","name":"Baden-Württemberg"}},{"name":"Weidenweg","postalCode":"73765","locality":"Neuhausen auf den Fildern","municipality":{"key":"08116047","name":"Neuhausen auf den Fildern","type":"Kreisangehörige_Gemeinde"},"district":{"key":"08116","name":"Esslingen","type":"Landkreis"},"federalState":{"key":"08","name":"Baden-Württemberg"}},{"name":"Weilgartenstr.","postalCode":"73765","locality":"Neuhausen auf den Fildern","municipality":{"key":"08116047","name":"Neuhausen auf den Fildern","type":"Kreisangehörige_Gemeinde"},"district":{"key":"08116","name":"Esslingen","type":"Landkreis"},"federalState":{"key":"08","name":"Baden-Württemberg"}},{"name":"Weimarische Str.","postalCode":"99625","locality":"Großneuhausen","municipality":{"key":"16068019","name":"Großneuhausen","type":"Kreisangehörige_Gemeinde"},"district":{"key":"16068","name":"Sömmerda","type":"Landkreis"},"federalState":{"key":"16","name":"Thüringen"}},{"name":"Weinberghöhe","postalCode":"03058","locality":"Neuhausen/Spree","municipality":{"key":"12071301","name":"Neuhausen/Spree / Kopańce/Sprjewja","type":"Kreisangehörige_Gemeinde"},"district":{"key":"12071","name":"Spree-Neiße","type":"Landkreis"},"federalState":{"key":"12","name":"Brandenburg"}},{"name":"Weinstr.","postalCode":"03058","locality":"Neuhausen/Spree","municipality":{"key":"12071301","name":"Neuhausen/Spree / Kopańce/Sprjewja","type":"Kreisangehörige_Gemeinde"},"district":{"key":"12071","name":"Spree-Neiße","type":"Landkreis"},"federalState":{"key":"12","name":"Brandenburg"}},{"name":"Welzberggweg","postalCode":"09544","locality":"Neuhausen/Erzgebirge","municipality":{"key":"14522400","name":"Neuhausen/Erzgeb.","type":"Kreisangehörige_Gemeinde"},"district":{"key":"14522","name":"Mittelsachsen","type":"Landkreis"},"federalState":{"key":"14","name":"Sachsen"}},{"name":"Wendelinstr.","postalCode":"75242","locality":"Neuhausen","municipality":{"key":"08236044","name":"Neuhausen","type":"Kreisangehörige_Gemeinde"},"district":{"key":"08236","name":"Enzkreis","type":"Landkreis"},"federalState":{"key":"08","name":"Baden-Württemberg"}},{"name":"Werchone-Weg","postalCode":"03058","locality":"Neuhausen/Spree","municipality":{"key":"12071301","name":"Neuhausen/Spree / Kopańce/Sprjewja","type":"Kreisangehörige_Gemeinde"},"district":{"key":"12071","name":"Spree-Neiße","type":"Landkreis"},"federalState":{"key":"12","name":"Brandenburg"}},{"name":"Werner-Siemens-Str.","postalCode":"73765","locality":"Neuhausen auf den Fildern","municipality":{"key":"08116047","name":"Neuhausen auf den Fildern","type":"Kreisangehörige_Gemeinde"},"district":{"key":"08116","name":"Esslingen","type":"Landkreis"},"federalState":{"key":"08","name":"Baden-Württemberg"}},{"name":"Wernsbachweg","postalCode":"09544","locality":"Neuhausen/Erzgebirge","municipality":{"key":"14522400","name":"Neuhausen/Erzgeb.","type":"Kreisangehörige_Gemeinde"},"district":{"key":"14522","name":"Mittelsachsen","type":"Landkreis"},"federalState":{"key":"14","name":"Sachsen"}},{"name":"Westlicher Kohlbergweg","postalCode":"09544","locality":"Neuhausen/Erzgebirge","municipality":{"key":"14522400","name":"Neuhausen/Erzgeb.","type":"Kreisangehörige_Gemeinde"},"district":{"key":"14522","name":"Mittelsachsen","type":"Landkreis"},"federalState":{"key":"14","name":"Sachsen"}},{"name":"Westlicher Stangenbergweg","postalCode":"09544","locality":"Neuhausen/Erzgebirge","municipality":{"key":"14522400","name":"Neuhausen/Erzgeb.","type":"Kreisangehörige_Gemeinde"},"district":{"key":"14522","name":"Mittelsachsen","type":"Landkreis"},"federalState":{"key":"14","name":"Sachsen"}},{"name":"Wiesenstr.","postalCode":"75242","locality":"Neuhausen","municipality":{"key":"08236044","name":"Neuhausen","type":"Kreisangehörige_Gemeinde"},"district":{"key":"08236","name":"Enzkreis","type":"Landkreis"},"federalState":{"key":"08","name":"Baden-Württemberg"}},{"name":"Wiesenweg","postalCode":"03058","locality":"Neuhausen/Spree","municipality":{"key":"12071301","name":"Neuhausen/Spree / Kopańce/Sprjewja","type":"Kreisangehörige_Gemeinde"},"district":{"key":"12071","name":"Spree-Neiße","type":"Landkreis"},"federalState":{"key":"12","name":"Brandenburg"}},{"name":"Wiesenweg","postalCode":"09544","locality":"Neuhausen/Erzgebirge","municipality":{"key":"14522400","name":"Neuhausen/Erzgeb.","type":"Kreisangehörige_Gemeinde"},"district":{"key":"14522","name":"Mittelsachsen","type":"Landkreis"},"federalState":{"key":"14","name":"Sachsen"}},{"name":"Wildeweg","postalCode":"78579","locality":"Neuhausen ob Eck","municipality":{"key":"08327038","name":"Neuhausen ob Eck","type":"Kreisangehörige_Gemeinde"},"district":{"key":"08327","name":"Tuttlingen","type":"Landkreis"},"federalState":{"key":"08","name":"Baden-Württemberg"}},{"name":"Wildtalweg","postalCode":"78579","locality":"Neuhausen ob Eck","municipality":{"key":"08327038","name":"Neuhausen ob Eck","type":"Kreisangehörige_Gemeinde"},"district":{"key":"08327","name":"Tuttlingen","type":"Landkreis"},"federalState":{"key":"08","name":"Baden-Württemberg"}},{"name":"Wildwiesenweg","postalCode":"75242","locality":"Neuhausen","municipality":{"key":"08236044","name":"Neuhausen","type":"Kreisangehörige_Gemeinde"},"district":{"key":"08236","name":"Enzkreis","type":"Landkreis"},"federalState":{"key":"08","name":"Baden-Württemberg"}},{"name":"Wilhelm-Maybach-Str.","postalCode":"73765","locality":"Neuhausen auf den Fildern","municipality":{"key":"08116047","name":"Neuhausen auf den Fildern","type":"Kreisangehörige_Gemeinde"},"district":{"key":"08116","name":"Esslingen","type":"Landkreis"},"federalState":{"key":"08","name":"Baden-Württemberg"}},{"name":"Wilhelmstr.","postalCode":"73765","locality":"Neuhausen auf den Fildern","municipality":{"key":"08116047","name":"Neuhausen auf den Fildern","type":"Kreisangehörige_Gemeinde"},"district":{"key":"08116","name":"Esslingen","type":"Landkreis"},"federalState":{"key":"08","name":"Baden-Württemberg"}},{"name":"Wilhelmstr.","postalCode":"75242","locality":"Neuhausen","municipality":{"key":"08236044","name":"Neuhausen","type":"Kreisangehörige_Gemeinde"},"district":{"key":"08236","name":"Enzkreis","type":"Landkreis"},"federalState":{"key":"08","name":"Baden-Württemberg"}},{"name":"Wingertgasse","postalCode":"75242","locality":"Neuhausen","municipality":{"key":"08236044","name":"Neuhausen","type":"Kreisangehörige_Gemeinde"},"district":{"key":"08236","name":"Enzkreis","type":"Landkreis"},"federalState":{"key":"08","name":"Baden-Württemberg"}},{"name":"Winzerweg","postalCode":"03058","locality":"Neuhausen/Spree","municipality":{"key":"12071301","name":"Neuhausen/Spree / Kopańce/Sprjewja","type":"Kreisangehörige_Gemeinde"},"district":{"key":"12071","name":"Spree-Neiße","type":"Landkreis"},"federalState":{"key":"12","name":"Brandenburg"}},{"name":"Wirtschaftsweg","postalCode":"03058","locality":"Neuhausen/Spree","municipality":{"key":"12071301","name":"Neuhausen/Spree / Kopańce/Sprjewja","type":"Kreisangehörige_Gemeinde"},"district":{"key":"12071","name":"Spree-Neiße","type":"Landkreis"},"federalState":{"key":"12","name":"Brandenburg"}},{"name":"Wolfgangstr.","postalCode":"75242","locality":"Neuhausen","municipality":{"key":"08236044","name":"Neuhausen","type":"Kreisangehörige_Gemeinde"},"district":{"key":"08236","name":"Enzkreis","type":"Landkreis"},"federalState":{"key":"08","name":"Baden-Württemberg"}},{"name":"Wolfgasse","postalCode":"75242","locality":"Neuhausen","municipality":{"key":"08236044","name":"Neuhausen","type":"Kreisangehörige_Gemeinde"},"district":{"key":"08236","name":"Enzkreis","type":"Landkreis"},"federalState":{"key":"08","name":"Baden-Württemberg"}},{"name":"Wolfschluger Weg","postalCode":"73765","locality":"Neuhausen auf den Fildern","municipality":{"key":"08116047","name":"Neuhausen auf den Fildern","type":"Kreisangehörige_Gemeinde"},"district":{"key":"08116","name":"Esslingen","type":"Landkreis"},"federalState":{"key":"08","name":"Baden-Württemberg"}},{"name":"Wolschina","postalCode":"03058","locality":"Neuhausen/Spree","municipality":{"key":"12071301","name":"Neuhausen/Spree / Kopańce/Sprjewja","type":"Kreisangehörige_Gemeinde"},"district":{"key":"12071","name":"Spree-Neiße","type":"Landkreis"},"federalState":{"key":"12","name":"Brandenburg"}},{"name":"Worndorfer Str.","postalCode":"78579","locality":"Neuhausen ob Eck","municipality":{"key":"08327038","name":"Neuhausen ob Eck","type":"Kreisangehörige_Gemeinde"},"district":{"key":"08327","name":"Tuttlingen","type":"Landkreis"},"federalState":{"key":"08","name":"Baden-Württemberg"}},{"name":"Würmer Lochweg","postalCode":"75242","locality":"Neuhausen","municipality":{"key":"08236044","name":"Neuhausen","type":"Kreisangehörige_Gemeinde"},"district":{"key":"08236","name":"Enzkreis","type":"Landkreis"},"federalState":{"key":"08","name":"Baden-Württemberg"}},{"name":"Zabergäustr.","postalCode":"73765","locality":"Neuhausen auf den Fildern","municipality":{"key":"08116047","name":"Neuhausen auf den Fildern","type":"Kreisangehörige_Gemeinde"},"district":{"key":"08116","name":"Esslingen","type":"Landkreis"},"federalState":{"key":"08","name":"Baden-Württemberg"}},{"name":"Zeppelinweg","postalCode":"73765","locality":"Neuhausen auf den Fildern","municipality":{"key":"08116047","name":"Neuhausen auf den Fildern","type":"Kreisangehörige_Gemeinde"},"district":{"key":"08116","name":"Esslingen","type":"Landkreis"},"federalState":{"key":"08","name":"Baden-Württemberg"}},{"name":"Ziegelei","postalCode":"73765","locality":"Neuhausen auf den Fildern","municipality":{"key":"08116047","name":"Neuhausen auf den Fildern","type":"Kreisangehörige_Gemeinde"},"district":{"key":"08116","name":"Esslingen","type":"Landkreis"},"federalState":{"key":"08","name":"Baden-Württemberg"}},{"name":"Zigeunerweg","postalCode":"09544","locality":"Neuhausen/Erzgebirge","municipality":{"key":"14522400","name":"Neuhausen/Erzgeb.","type":"Kreisangehörige_Gemeinde"},"district":{"key":"14522","name":"Mittelsachsen","type":"Landkreis"},"federalState":{"key":"14","name":"Sachsen"}},{"name":"Zum Bahndamm","postalCode":"03058","locality":"Neuhausen/Spree","municipality":{"key":"12071301","name":"Neuhausen/Spree / Kopańce/Sprjewja","type":"Kreisangehörige_Gemeinde"},"district":{"key":"12071","name":"Spree-Neiße","type":"Landkreis"},"federalState":{"key":"12","name":"Brandenburg"}},{"name":"Zum Welzgraben","postalCode":"75242","locality":"Neuhausen","municipality":{"key":"08236044","name":"Neuhausen","type":"Kreisangehörige_Gemeinde"},"district":{"key":"08236","name":"Enzkreis","type":"Landkreis"},"federalState":{"key":"08","name":"Baden-Württemberg"}},{"name":"Zur Fischerei","postalCode":"03058","locality":"Neuhausen/Spree","municipality":{"key":"12071301","name":"Neuhausen/Spree / Kopańce/Sprjewja","type":"Kreisangehörige_Gemeinde"},"district":{"key":"12071","name":"Spree-Neiße","type":"Landkreis"},"federalState":{"key":"12","name":"Brandenburg"}},{"name":"Zur Mühle","postalCode":"03058","locality":"Neuhausen/Spree","municipality":{"key":"12071301","name":"Neuhausen/Spree / Kopańce/Sprjewja","type":"Kreisangehörige_Gemeinde"},"district":{"key":"12071","name":"Spree-Neiße","type":"Landkreis"},"federalState":{"key":"12","name":"Brandenburg"}},{"name":"Zur Schäferei","postalCode":"03058","locality":"Neuhausen/Spree","municipality":{"key":"12071301","name":"Neuhausen/Spree / Kopańce/Sprjewja","type":"Kreisangehörige_Gemeinde"},"district":{"key":"12071","name":"Spree-Neiße","type":"Landkreis"},"federalState":{"key":"12","name":"Brandenburg"}},{"name":"Zur Schmiede","postalCode":"03058","locality":"Neuhausen/Spree","municipality":{"key":"12071301","name":"Neuhausen/Spree / Kopańce/Sprjewja","type":"Kreisangehörige_Gemeinde"},"district":{"key":"12071","name":"Spree-Neiße","type":"Landkreis"},"federalState":{"key":"12","name":"Brandenburg"}},{"name":"Zwei Eichen","postalCode":"03058","locality":"Neuhausen/Spree","municipality":{"key":"12071301","name":"Neuhausen/Spree / Kopańce/Sprjewja","type":"Kreisangehörige_Gemeinde"},"district":{"key":"12071","name":"Spree-Neiße","type":"Landkreis"},"federalState":{"key":"12","name":"Brandenburg"}},{"name":"Zwölfer Schneise","postalCode":"09544","locality":"Neuhausen/Erzgebirge","municipality":{"key":"14522400","name":"Neuhausen/Erzgeb.","type":"Kreisangehörige_Gemeinde"},"district":{"key":"14522","name":"Mittelsachsen","type":"Landkreis"},"federalState":{"key":"14","name":"Sachsen"}},{"name":"Ödreuteweg","postalCode":"78579","locality":"Neuhausen ob Eck","municipality":{"key":"08327038","name":"Neuhausen ob Eck","type":"Kreisangehörige_Gemeinde"},"district":{"key":"08327","name":"Tuttlingen","type":"Landkreis"},"federalState":{"key":"08","name":"Baden-Württemberg"}},{"name":"Östlicher Kohlbergweg","postalCode":"09544","locality":"Neuhausen/Erzgebirge","municipality":{"key":"14522400","name":"Neuhausen/Erzgeb.","type":"Kreisangehörige_Gemeinde"},"district":{"key":"14522","name":"Mittelsachsen","type":"Landkreis"},"federalState":{"key":"14","name":"Sachsen"}},{"name":"Östlicher Stangenbergweg","postalCode":"09544","locality":"Neuhausen/Erzgebirge","municipality":{"key":"14522400","name":"Neuhausen/Erzgeb.","type":"Kreisangehörige_Gemeinde"},"district":{"key":"14522","name":"Mittelsachsen","type":"Landkreis"},"federalState":{"key":"14","name":"Sachsen"}},]