[{"name":"An de Greeden","postalCode":"25853","locality":"Bohmstedt","municipality":{"key":"01054012","name":"Bohmstedt","type":"Kreisangehörige_Gemeinde"},"district":{"key":"01054","name":"Nordfriesland","type":"Kreis"},"federalState":{"key":"01","name":"Schleswig-Holstein"}},{"name":"An de Lehmkuhl","postalCode":"25853","locality":"Bohmstedt","municipality":{"key":"01054012","name":"Bohmstedt","type":"Kreisangehörige_Gemeinde"},"district":{"key":"01054","name":"Nordfriesland","type":"Kreis"},"federalState":{"key":"01","name":"Schleswig-Holstein"}},{"name":"Blägeweg","postalCode":"25853","locality":"Bohmstedt","municipality":{"key":"01054012","name":"Bohmstedt","type":"Kreisangehörige_Gemeinde"},"district":{"key":"01054","name":"Nordfriesland","type":"Kreis"},"federalState":{"key":"01","name":"Schleswig-Holstein"}},{"name":"Bomtoft","postalCode":"25853","locality":"Bohmstedt","municipality":{"key":"01054012","name":"Bohmstedt","type":"Kreisangehörige_Gemeinde"},"district":{"key":"01054","name":"Nordfriesland","type":"Kreis"},"federalState":{"key":"01","name":"Schleswig-Holstein"}},{"name":"Böwerweg","postalCode":"25853","locality":"Bohmstedt","municipality":{"key":"01054012","name":"Bohmstedt","type":"Kreisangehörige_Gemeinde"},"district":{"key":"01054","name":"Nordfriesland","type":"Kreis"},"federalState":{"key":"01","name":"Schleswig-Holstein"}},{"name":"Bredegatt","postalCode":"25853","locality":"Bohmstedt","municipality":{"key":"01054012","name":"Bohmstedt","type":"Kreisangehörige_Gemeinde"},"district":{"key":"01054","name":"Nordfriesland","type":"Kreis"},"federalState":{"key":"01","name":"Schleswig-Holstein"}},{"name":"Görtzens Gaderum","postalCode":"25853","locality":"Bohmstedt","municipality":{"key":"01054012","name":"Bohmstedt","type":"Kreisangehörige_Gemeinde"},"district":{"key":"01054","name":"Nordfriesland","type":"Kreis"},"federalState":{"key":"01","name":"Schleswig-Holstein"}},{"name":"Haaks","postalCode":"25853","locality":"Bohmstedt","municipality":{"key":"01054012","name":"Bohmstedt","type":"Kreisangehörige_Gemeinde"},"district":{"key":"01054","name":"Nordfriesland","type":"Kreis"},"federalState":{"key":"01","name":"Schleswig-Holstein"}},{"name":"Hohe Luft","postalCode":"25853","locality":"Bohmstedt","municipality":{"key":"01054012","name":"Bohmstedt","type":"Kreisangehörige_Gemeinde"},"district":{"key":"01054","name":"Nordfriesland","type":"Kreis"},"federalState":{"key":"01","name":"Schleswig-Holstein"}},{"name":"Jinses Gaderum","postalCode":"25853","locality":"Bohmstedt","municipality":{"key":"01054012","name":"Bohmstedt","type":"Kreisangehörige_Gemeinde"},"district":{"key":"01054","name":"Nordfriesland","type":"Kreis"},"federalState":{"key":"01","name":"Schleswig-Holstein"}},{"name":"Kätnerweg","postalCode":"25853","locality":"Bohmstedt","municipality":{"key":"01054012","name":"Bohmstedt","type":"Kreisangehörige_Gemeinde"},"district":{"key":"01054","name":"Nordfriesland","type":"Kreis"},"federalState":{"key":"01","name":"Schleswig-Holstein"}},{"name":"Langacker","postalCode":"25853","locality":"Bohmstedt","municipality":{"key":"01054012","name":"Bohmstedt","type":"Kreisangehörige_Gemeinde"},"district":{"key":"01054","name":"Nordfriesland","type":"Kreis"},"federalState":{"key":"01","name":"Schleswig-Holstein"}},{"name":"Lassensstieg","postalCode":"25853","locality":"Bohmstedt","municipality":{"key":"01054012","name":"Bohmstedt","type":"Kreisangehörige_Gemeinde"},"district":{"key":"01054","name":"Nordfriesland","type":"Kreis"},"federalState":{"key":"01","name":"Schleswig-Holstein"}},{"name":"Liekutweg","postalCode":"25853","locality":"Bohmstedt","municipality":{"key":"01054012","name":"Bohmstedt","type":"Kreisangehörige_Gemeinde"},"district":{"key":"01054","name":"Nordfriesland","type":"Kreis"},"federalState":{"key":"01","name":"Schleswig-Holstein"}},{"name":"Norderende","postalCode":"25853","locality":"Bohmstedt","municipality":{"key":"01054012","name":"Bohmstedt","type":"Kreisangehörige_Gemeinde"},"district":{"key":"01054","name":"Nordfriesland","type":"Kreis"},"federalState":{"key":"01","name":"Schleswig-Holstein"}},{"name":"Sandbarg","postalCode":"25853","locality":"Bohmstedt","municipality":{"key":"01054012","name":"Bohmstedt","type":"Kreisangehörige_Gemeinde"},"district":{"key":"01054","name":"Nordfriesland","type":"Kreis"},"federalState":{"key":"01","name":"Schleswig-Holstein"}},{"name":"Schantoft","postalCode":"25853","locality":"Bohmstedt","municipality":{"key":"01054012","name":"Bohmstedt","type":"Kreisangehörige_Gemeinde"},"district":{"key":"01054","name":"Nordfriesland","type":"Kreis"},"federalState":{"key":"01","name":"Schleswig-Holstein"}},{"name":"Sick","postalCode":"25853","locality":"Bohmstedt","municipality":{"key":"01054012","name":"Bohmstedt","type":"Kreisangehörige_Gemeinde"},"district":{"key":"01054","name":"Nordfriesland","type":"Kreis"},"federalState":{"key":"01","name":"Schleswig-Holstein"}},{"name":"Stockstieg","postalCode":"25853","locality":"Bohmstedt","municipality":{"key":"01054012","name":"Bohmstedt","type":"Kreisangehörige_Gemeinde"},"district":{"key":"01054","name":"Nordfriesland","type":"Kreis"},"federalState":{"key":"01","name":"Schleswig-Holstein"}},{"name":"Süderende","postalCode":"25853","locality":"Bohmstedt","municipality":{"key":"01054012","name":"Bohmstedt","type":"Kreisangehörige_Gemeinde"},"district":{"key":"01054","name":"Nordfriesland","type":"Kreis"},"federalState":{"key":"01","name":"Schleswig-Holstein"}},{"name":"Timmermanns Gaderum","postalCode":"25853","locality":"Bohmstedt","municipality":{"key":"01054012","name":"Bohmstedt","type":"Kreisangehörige_Gemeinde"},"district":{"key":"01054","name":"Nordfriesland","type":"Kreis"},"federalState":{"key":"01","name":"Schleswig-Holstein"}},{"name":"Westerende","postalCode":"25853","locality":"Bohmstedt","municipality":{"key":"01054012","name":"Bohmstedt","type":"Kreisangehörige_Gemeinde"},"district":{"key":"01054","name":"Nordfriesland","type":"Kreis"},"federalState":{"key":"01","name":"Schleswig-Holstein"}},]