[{"name":"Ahornweg","postalCode":"82229","locality":"Seefeld","municipality":{"key":"09188132","name":"Seefeld","type":"Kreisangehörige_Gemeinde"},"district":{"key":"09188","name":"Starnberg","type":"Landkreis"},"federalState":{"key":"09","name":"Bayern"}},{"name":"Alte Hauptstr.","postalCode":"82229","locality":"Seefeld","municipality":{"key":"09188132","name":"Seefeld","type":"Kreisangehörige_Gemeinde"},"district":{"key":"09188","name":"Starnberg","type":"Landkreis"},"federalState":{"key":"09","name":"Bayern"}},{"name":"Am Bergl","postalCode":"82229","locality":"Seefeld","municipality":{"key":"09188132","name":"Seefeld","type":"Kreisangehörige_Gemeinde"},"district":{"key":"09188","name":"Starnberg","type":"Landkreis"},"federalState":{"key":"09","name":"Bayern"}},{"name":"Am Gassl","postalCode":"82229","locality":"Seefeld","municipality":{"key":"09188132","name":"Seefeld","type":"Kreisangehörige_Gemeinde"},"district":{"key":"09188","name":"Starnberg","type":"Landkreis"},"federalState":{"key":"09","name":"Bayern"}},{"name":"Am Gillbiger","postalCode":"82229","locality":"Seefeld","municipality":{"key":"09188132","name":"Seefeld","type":"Kreisangehörige_Gemeinde"},"district":{"key":"09188","name":"Starnberg","type":"Landkreis"},"federalState":{"key":"09","name":"Bayern"}},{"name":"Am Griesberg","postalCode":"82229","locality":"Seefeld","municipality":{"key":"09188132","name":"Seefeld","type":"Kreisangehörige_Gemeinde"},"district":{"key":"09188","name":"Starnberg","type":"Landkreis"},"federalState":{"key":"09","name":"Bayern"}},{"name":"Am Hart","postalCode":"82229","locality":"Seefeld","municipality":{"key":"09188132","name":"Seefeld","type":"Kreisangehörige_Gemeinde"},"district":{"key":"09188","name":"Starnberg","type":"Landkreis"},"federalState":{"key":"09","name":"Bayern"}},{"name":"Am Heidberg","postalCode":"25557","locality":"Seefeld","municipality":{"key":"01058151","name":"Seefeld","type":"Kreisangehörige_Gemeinde"},"district":{"key":"01058","name":"Rendsburg-Eckernförde","type":"Kreis"},"federalState":{"key":"01","name":"Schleswig-Holstein"}},{"name":"Am Höhacker","postalCode":"82229","locality":"Seefeld","municipality":{"key":"09188132","name":"Seefeld","type":"Kreisangehörige_Gemeinde"},"district":{"key":"09188","name":"Starnberg","type":"Landkreis"},"federalState":{"key":"09","name":"Bayern"}},{"name":"Am Höhenrücken","postalCode":"82229","locality":"Seefeld","municipality":{"key":"09188132","name":"Seefeld","type":"Kreisangehörige_Gemeinde"},"district":{"key":"09188","name":"Starnberg","type":"Landkreis"},"federalState":{"key":"09","name":"Bayern"}},{"name":"Am Kaiserbichl","postalCode":"82229","locality":"Seefeld","municipality":{"key":"09188132","name":"Seefeld","type":"Kreisangehörige_Gemeinde"},"district":{"key":"09188","name":"Starnberg","type":"Landkreis"},"federalState":{"key":"09","name":"Bayern"}},{"name":"Am Oberfeld","postalCode":"82229","locality":"Seefeld","municipality":{"key":"09188132","name":"Seefeld","type":"Kreisangehörige_Gemeinde"},"district":{"key":"09188","name":"Starnberg","type":"Landkreis"},"federalState":{"key":"09","name":"Bayern"}},{"name":"Am Ödenbühel","postalCode":"82229","locality":"Seefeld","municipality":{"key":"09188132","name":"Seefeld","type":"Kreisangehörige_Gemeinde"},"district":{"key":"09188","name":"Starnberg","type":"Landkreis"},"federalState":{"key":"09","name":"Bayern"}},{"name":"Am Osterfeld","postalCode":"82229","locality":"Seefeld","municipality":{"key":"09188132","name":"Seefeld","type":"Kreisangehörige_Gemeinde"},"district":{"key":"09188","name":"Starnberg","type":"Landkreis"},"federalState":{"key":"09","name":"Bayern"}},{"name":"Am Riedfeld","postalCode":"82229","locality":"Seefeld","municipality":{"key":"09188132","name":"Seefeld","type":"Kreisangehörige_Gemeinde"},"district":{"key":"09188","name":"Starnberg","type":"Landkreis"},"federalState":{"key":"09","name":"Bayern"}},{"name":"Am Technologiepark","postalCode":"82229","locality":"Seefeld","municipality":{"key":"09188132","name":"Seefeld","type":"Kreisangehörige_Gemeinde"},"district":{"key":"09188","name":"Starnberg","type":"Landkreis"},"federalState":{"key":"09","name":"Bayern"}},{"name":"Am Wasserberg","postalCode":"25557","locality":"Seefeld","municipality":{"key":"01058151","name":"Seefeld","type":"Kreisangehörige_Gemeinde"},"district":{"key":"01058","name":"Rendsburg-Eckernförde","type":"Kreis"},"federalState":{"key":"01","name":"Schleswig-Holstein"}},{"name":"Am Weiher","postalCode":"82229","locality":"Seefeld","municipality":{"key":"09188132","name":"Seefeld","type":"Kreisangehörige_Gemeinde"},"district":{"key":"09188","name":"Starnberg","type":"Landkreis"},"federalState":{"key":"09","name":"Bayern"}},{"name":"Am Ziegelstadel","postalCode":"82229","locality":"Seefeld","municipality":{"key":"09188132","name":"Seefeld","type":"Kreisangehörige_Gemeinde"},"district":{"key":"09188","name":"Starnberg","type":"Landkreis"},"federalState":{"key":"09","name":"Bayern"}},{"name":"Andechser Str.","postalCode":"82229","locality":"Seefeld","municipality":{"key":"09188132","name":"Seefeld","type":"Kreisangehörige_Gemeinde"},"district":{"key":"09188","name":"Starnberg","type":"Landkreis"},"federalState":{"key":"09","name":"Bayern"}},{"name":"An den Meisterwiesen","postalCode":"82229","locality":"Seefeld","municipality":{"key":"09188132","name":"Seefeld","type":"Kreisangehörige_Gemeinde"},"district":{"key":"09188","name":"Starnberg","type":"Landkreis"},"federalState":{"key":"09","name":"Bayern"}},{"name":"An der Beermahd","postalCode":"82229","locality":"Seefeld","municipality":{"key":"09188132","name":"Seefeld","type":"Kreisangehörige_Gemeinde"},"district":{"key":"09188","name":"Starnberg","type":"Landkreis"},"federalState":{"key":"09","name":"Bayern"}},{"name":"An der Breite","postalCode":"82229","locality":"Seefeld","municipality":{"key":"09188132","name":"Seefeld","type":"Kreisangehörige_Gemeinde"},"district":{"key":"09188","name":"Starnberg","type":"Landkreis"},"federalState":{"key":"09","name":"Bayern"}},{"name":"An der Feichten","postalCode":"82229","locality":"Seefeld","municipality":{"key":"09188132","name":"Seefeld","type":"Kreisangehörige_Gemeinde"},"district":{"key":"09188","name":"Starnberg","type":"Landkreis"},"federalState":{"key":"09","name":"Bayern"}},{"name":"An der Hartmühle","postalCode":"82229","locality":"Seefeld","municipality":{"key":"09188132","name":"Seefeld","type":"Kreisangehörige_Gemeinde"},"district":{"key":"09188","name":"Starnberg","type":"Landkreis"},"federalState":{"key":"09","name":"Bayern"}},{"name":"Anger","postalCode":"82229","locality":"Seefeld","municipality":{"key":"09188132","name":"Seefeld","type":"Kreisangehörige_Gemeinde"},"district":{"key":"09188","name":"Starnberg","type":"Landkreis"},"federalState":{"key":"09","name":"Bayern"}},{"name":"Anton-Ettmayr-Str.","postalCode":"82229","locality":"Seefeld","municipality":{"key":"09188132","name":"Seefeld","type":"Kreisangehörige_Gemeinde"},"district":{"key":"09188","name":"Starnberg","type":"Landkreis"},"federalState":{"key":"09","name":"Bayern"}},{"name":"Aubachstr.","postalCode":"82229","locality":"Seefeld","municipality":{"key":"09188132","name":"Seefeld","type":"Kreisangehörige_Gemeinde"},"district":{"key":"09188","name":"Starnberg","type":"Landkreis"},"federalState":{"key":"09","name":"Bayern"}},{"name":"Aubachweg","postalCode":"82229","locality":"Seefeld","municipality":{"key":"09188132","name":"Seefeld","type":"Kreisangehörige_Gemeinde"},"district":{"key":"09188","name":"Starnberg","type":"Landkreis"},"federalState":{"key":"09","name":"Bayern"}},{"name":"Auinger Weg","postalCode":"82229","locality":"Seefeld","municipality":{"key":"09188132","name":"Seefeld","type":"Kreisangehörige_Gemeinde"},"district":{"key":"09188","name":"Starnberg","type":"Landkreis"},"federalState":{"key":"09","name":"Bayern"}},{"name":"Bachlaich","postalCode":"82229","locality":"Seefeld","municipality":{"key":"09188132","name":"Seefeld","type":"Kreisangehörige_Gemeinde"},"district":{"key":"09188","name":"Starnberg","type":"Landkreis"},"federalState":{"key":"09","name":"Bayern"}},{"name":"Bahnhofstr.","postalCode":"82229","locality":"Seefeld","municipality":{"key":"09188132","name":"Seefeld","type":"Kreisangehörige_Gemeinde"},"district":{"key":"09188","name":"Starnberg","type":"Landkreis"},"federalState":{"key":"09","name":"Bayern"}},{"name":"Bahnweg","postalCode":"82229","locality":"Seefeld","municipality":{"key":"09188132","name":"Seefeld","type":"Kreisangehörige_Gemeinde"},"district":{"key":"09188","name":"Starnberg","type":"Landkreis"},"federalState":{"key":"09","name":"Bayern"}},{"name":"Bergstr.","postalCode":"82229","locality":"Seefeld","municipality":{"key":"09188132","name":"Seefeld","type":"Kreisangehörige_Gemeinde"},"district":{"key":"09188","name":"Starnberg","type":"Landkreis"},"federalState":{"key":"09","name":"Bayern"}},{"name":"Beringstedter Str.","postalCode":"25557","locality":"Seefeld","municipality":{"key":"01058151","name":"Seefeld","type":"Kreisangehörige_Gemeinde"},"district":{"key":"01058","name":"Rendsburg-Eckernförde","type":"Kreis"},"federalState":{"key":"01","name":"Schleswig-Holstein"}},{"name":"Birkenallee","postalCode":"82229","locality":"Seefeld","municipality":{"key":"09188132","name":"Seefeld","type":"Kreisangehörige_Gemeinde"},"district":{"key":"09188","name":"Starnberg","type":"Landkreis"},"federalState":{"key":"09","name":"Bayern"}},{"name":"Blumenweg","postalCode":"82229","locality":"Seefeld","municipality":{"key":"09188132","name":"Seefeld","type":"Kreisangehörige_Gemeinde"},"district":{"key":"09188","name":"Starnberg","type":"Landkreis"},"federalState":{"key":"09","name":"Bayern"}},{"name":"Breitbrunner Str.","postalCode":"82229","locality":"Seefeld","municipality":{"key":"09188132","name":"Seefeld","type":"Kreisangehörige_Gemeinde"},"district":{"key":"09188","name":"Starnberg","type":"Landkreis"},"federalState":{"key":"09","name":"Bayern"}},{"name":"Brunnenweg","postalCode":"82229","locality":"Seefeld","municipality":{"key":"09188132","name":"Seefeld","type":"Kreisangehörige_Gemeinde"},"district":{"key":"09188","name":"Starnberg","type":"Landkreis"},"federalState":{"key":"09","name":"Bayern"}},{"name":"Buchenhain","postalCode":"82229","locality":"Seefeld","municipality":{"key":"09188132","name":"Seefeld","type":"Kreisangehörige_Gemeinde"},"district":{"key":"09188","name":"Starnberg","type":"Landkreis"},"federalState":{"key":"09","name":"Bayern"}},{"name":"Burgstr.","postalCode":"82229","locality":"Seefeld","municipality":{"key":"09188132","name":"Seefeld","type":"Kreisangehörige_Gemeinde"},"district":{"key":"09188","name":"Starnberg","type":"Landkreis"},"federalState":{"key":"09","name":"Bayern"}},{"name":"Carolinenstr.","postalCode":"82319","locality":"Starnberg","municipality":{"key":"09188139","name":"Starnberg, St","type":"Stadt"},"district":{"key":"09188","name":"Starnberg","type":"Landkreis"},"federalState":{"key":"09","name":"Bayern"}},{"name":"Dammweg","postalCode":"82229","locality":"Seefeld","municipality":{"key":"09188132","name":"Seefeld","type":"Kreisangehörige_Gemeinde"},"district":{"key":"09188","name":"Starnberg","type":"Landkreis"},"federalState":{"key":"09","name":"Bayern"}},{"name":"Dellinger Weg","postalCode":"82229","locality":"Seefeld","municipality":{"key":"09188132","name":"Seefeld","type":"Kreisangehörige_Gemeinde"},"district":{"key":"09188","name":"Starnberg","type":"Landkreis"},"federalState":{"key":"09","name":"Bayern"}},{"name":"Dorfstr.","postalCode":"25557","locality":"Seefeld","municipality":{"key":"01058151","name":"Seefeld","type":"Kreisangehörige_Gemeinde"},"district":{"key":"01058","name":"Rendsburg-Eckernförde","type":"Kreis"},"federalState":{"key":"01","name":"Schleswig-Holstein"}},{"name":"Dorfstr.","postalCode":"82229","locality":"Seefeld","municipality":{"key":"09188132","name":"Seefeld","type":"Kreisangehörige_Gemeinde"},"district":{"key":"09188","name":"Starnberg","type":"Landkreis"},"federalState":{"key":"09","name":"Bayern"}},{"name":"Dr.-Ehrengut-Weg","postalCode":"82229","locality":"Seefeld","municipality":{"key":"09188132","name":"Seefeld","type":"Kreisangehörige_Gemeinde"},"district":{"key":"09188","name":"Starnberg","type":"Landkreis"},"federalState":{"key":"09","name":"Bayern"}},{"name":"Drößlinger Str.","postalCode":"82229","locality":"Seefeld","municipality":{"key":"09188132","name":"Seefeld","type":"Kreisangehörige_Gemeinde"},"district":{"key":"09188","name":"Starnberg","type":"Landkreis"},"federalState":{"key":"09","name":"Bayern"}},{"name":"Drozzastr.","postalCode":"82229","locality":"Seefeld","municipality":{"key":"09188132","name":"Seefeld","type":"Kreisangehörige_Gemeinde"},"district":{"key":"09188","name":"Starnberg","type":"Landkreis"},"federalState":{"key":"09","name":"Bayern"}},{"name":"Dr.-Seitner-Weg","postalCode":"82229","locality":"Seefeld","municipality":{"key":"09188132","name":"Seefeld","type":"Kreisangehörige_Gemeinde"},"district":{"key":"09188","name":"Starnberg","type":"Landkreis"},"federalState":{"key":"09","name":"Bayern"}},{"name":"Eichtalweg","postalCode":"82229","locality":"Seefeld","municipality":{"key":"09188132","name":"Seefeld","type":"Kreisangehörige_Gemeinde"},"district":{"key":"09188","name":"Starnberg","type":"Landkreis"},"federalState":{"key":"09","name":"Bayern"}},{"name":"Enterbichl","postalCode":"82229","locality":"Seefeld","municipality":{"key":"09188132","name":"Seefeld","type":"Kreisangehörige_Gemeinde"},"district":{"key":"09188","name":"Starnberg","type":"Landkreis"},"federalState":{"key":"09","name":"Bayern"}},{"name":"Erlinger Str.","postalCode":"82229","locality":"Seefeld","municipality":{"key":"09188132","name":"Seefeld","type":"Kreisangehörige_Gemeinde"},"district":{"key":"09188","name":"Starnberg","type":"Landkreis"},"federalState":{"key":"09","name":"Bayern"}},{"name":"ESPE Platz","postalCode":"82229","locality":"Seefeld","municipality":{"key":"09188132","name":"Seefeld","type":"Kreisangehörige_Gemeinde"},"district":{"key":"09188","name":"Starnberg","type":"Landkreis"},"federalState":{"key":"09","name":"Bayern"}},{"name":"Ettenhofener Str.","postalCode":"82229","locality":"Seefeld","municipality":{"key":"09188132","name":"Seefeld","type":"Kreisangehörige_Gemeinde"},"district":{"key":"09188","name":"Starnberg","type":"Landkreis"},"federalState":{"key":"09","name":"Bayern"}},{"name":"Franz-Krämer-Str.","postalCode":"82229","locality":"Seefeld","municipality":{"key":"09188132","name":"Seefeld","type":"Kreisangehörige_Gemeinde"},"district":{"key":"09188","name":"Starnberg","type":"Landkreis"},"federalState":{"key":"09","name":"Bayern"}},{"name":"Friedinger Str.","postalCode":"82229","locality":"Seefeld","municipality":{"key":"09188132","name":"Seefeld","type":"Kreisangehörige_Gemeinde"},"district":{"key":"09188","name":"Starnberg","type":"Landkreis"},"federalState":{"key":"09","name":"Bayern"}},{"name":"Fritz-Müller-Str.","postalCode":"82229","locality":"Seefeld","municipality":{"key":"09188132","name":"Seefeld","type":"Kreisangehörige_Gemeinde"},"district":{"key":"09188","name":"Starnberg","type":"Landkreis"},"federalState":{"key":"09","name":"Bayern"}},{"name":"Ganghoferstr.","postalCode":"82229","locality":"Seefeld","municipality":{"key":"09188132","name":"Seefeld","type":"Kreisangehörige_Gemeinde"},"district":{"key":"09188","name":"Starnberg","type":"Landkreis"},"federalState":{"key":"09","name":"Bayern"}},{"name":"Georg-Queri-Weg","postalCode":"82229","locality":"Seefeld","municipality":{"key":"09188132","name":"Seefeld","type":"Kreisangehörige_Gemeinde"},"district":{"key":"09188","name":"Starnberg","type":"Landkreis"},"federalState":{"key":"09","name":"Bayern"}},{"name":"Gewerbepark","postalCode":"82229","locality":"Seefeld","municipality":{"key":"09188132","name":"Seefeld","type":"Kreisangehörige_Gemeinde"},"district":{"key":"09188","name":"Starnberg","type":"Landkreis"},"federalState":{"key":"09","name":"Bayern"}},{"name":"Graf-Toerring-Seefeld-Str.","postalCode":"82229","locality":"Seefeld","municipality":{"key":"09188132","name":"Seefeld","type":"Kreisangehörige_Gemeinde"},"district":{"key":"09188","name":"Starnberg","type":"Landkreis"},"federalState":{"key":"09","name":"Bayern"}},{"name":"Graf-Toerring-Str.","postalCode":"82229","locality":"Seefeld","municipality":{"key":"09188132","name":"Seefeld","type":"Kreisangehörige_Gemeinde"},"district":{"key":"09188","name":"Starnberg","type":"Landkreis"},"federalState":{"key":"09","name":"Bayern"}},{"name":"Grubäckerweg","postalCode":"82229","locality":"Seefeld","municipality":{"key":"09188132","name":"Seefeld","type":"Kreisangehörige_Gemeinde"},"district":{"key":"09188","name":"Starnberg","type":"Landkreis"},"federalState":{"key":"09","name":"Bayern"}},{"name":"Grundberg","postalCode":"82229","locality":"Seefeld","municipality":{"key":"09188132","name":"Seefeld","type":"Kreisangehörige_Gemeinde"},"district":{"key":"09188","name":"Starnberg","type":"Landkreis"},"federalState":{"key":"09","name":"Bayern"}},{"name":"Günteringer Str.","postalCode":"82229","locality":"Seefeld","municipality":{"key":"09188132","name":"Seefeld","type":"Kreisangehörige_Gemeinde"},"district":{"key":"09188","name":"Starnberg","type":"Landkreis"},"federalState":{"key":"09","name":"Bayern"}},{"name":"Hadorfer Str.","postalCode":"82229","locality":"Seefeld","municipality":{"key":"09188132","name":"Seefeld","type":"Kreisangehörige_Gemeinde"},"district":{"key":"09188","name":"Starnberg","type":"Landkreis"},"federalState":{"key":"09","name":"Bayern"}},{"name":"Hartstr.","postalCode":"82229","locality":"Seefeld","municipality":{"key":"09188132","name":"Seefeld","type":"Kreisangehörige_Gemeinde"},"district":{"key":"09188","name":"Starnberg","type":"Landkreis"},"federalState":{"key":"09","name":"Bayern"}},{"name":"Hasenau","postalCode":"82229","locality":"Seefeld","municipality":{"key":"09188132","name":"Seefeld","type":"Kreisangehörige_Gemeinde"},"district":{"key":"09188","name":"Starnberg","type":"Landkreis"},"federalState":{"key":"09","name":"Bayern"}},{"name":"Hauptstr.","postalCode":"25557","locality":"Seefeld","municipality":{"key":"01058151","name":"Seefeld","type":"Kreisangehörige_Gemeinde"},"district":{"key":"01058","name":"Rendsburg-Eckernförde","type":"Kreis"},"federalState":{"key":"01","name":"Schleswig-Holstein"}},{"name":"Hauptstr.","postalCode":"82229","locality":"Seefeld","municipality":{"key":"09188132","name":"Seefeld","type":"Kreisangehörige_Gemeinde"},"district":{"key":"09188","name":"Starnberg","type":"Landkreis"},"federalState":{"key":"09","name":"Bayern"}},{"name":"Hedwigstr.","postalCode":"82229","locality":"Seefeld","municipality":{"key":"09188132","name":"Seefeld","type":"Kreisangehörige_Gemeinde"},"district":{"key":"09188","name":"Starnberg","type":"Landkreis"},"federalState":{"key":"09","name":"Bayern"}},{"name":"Herrschinger Str.","postalCode":"82229","locality":"Seefeld","municipality":{"key":"09188132","name":"Seefeld","type":"Kreisangehörige_Gemeinde"},"district":{"key":"09188","name":"Starnberg","type":"Landkreis"},"federalState":{"key":"09","name":"Bayern"}},{"name":"Heuweg","postalCode":"82229","locality":"Seefeld","municipality":{"key":"09188132","name":"Seefeld","type":"Kreisangehörige_Gemeinde"},"district":{"key":"09188","name":"Starnberg","type":"Landkreis"},"federalState":{"key":"09","name":"Bayern"}},{"name":"Hirtenweg","postalCode":"82229","locality":"Seefeld","municipality":{"key":"09188132","name":"Seefeld","type":"Kreisangehörige_Gemeinde"},"district":{"key":"09188","name":"Starnberg","type":"Landkreis"},"federalState":{"key":"09","name":"Bayern"}},{"name":"Hochleiten","postalCode":"82229","locality":"Seefeld","municipality":{"key":"09188132","name":"Seefeld","type":"Kreisangehörige_Gemeinde"},"district":{"key":"09188","name":"Starnberg","type":"Landkreis"},"federalState":{"key":"09","name":"Bayern"}},{"name":"Hochstadter Str.","postalCode":"82229","locality":"Seefeld","municipality":{"key":"09188132","name":"Seefeld","type":"Kreisangehörige_Gemeinde"},"district":{"key":"09188","name":"Starnberg","type":"Landkreis"},"federalState":{"key":"09","name":"Bayern"}},{"name":"Höhenstr.","postalCode":"82229","locality":"Seefeld","municipality":{"key":"09188132","name":"Seefeld","type":"Kreisangehörige_Gemeinde"},"district":{"key":"09188","name":"Starnberg","type":"Landkreis"},"federalState":{"key":"09","name":"Bayern"}},{"name":"Höhenweg","postalCode":"82229","locality":"Seefeld","municipality":{"key":"09188132","name":"Seefeld","type":"Kreisangehörige_Gemeinde"},"district":{"key":"09188","name":"Starnberg","type":"Landkreis"},"federalState":{"key":"09","name":"Bayern"}},{"name":"Horst-Wolfram-Geißler-Weg","postalCode":"82229","locality":"Seefeld","municipality":{"key":"09188132","name":"Seefeld","type":"Kreisangehörige_Gemeinde"},"district":{"key":"09188","name":"Starnberg","type":"Landkreis"},"federalState":{"key":"09","name":"Bayern"}},{"name":"Hubertusstr.","postalCode":"82229","locality":"Seefeld","municipality":{"key":"09188132","name":"Seefeld","type":"Kreisangehörige_Gemeinde"},"district":{"key":"09188","name":"Starnberg","type":"Landkreis"},"federalState":{"key":"09","name":"Bayern"}},{"name":"Im Wiesengrund","postalCode":"25557","locality":"Seefeld","municipality":{"key":"01058151","name":"Seefeld","type":"Kreisangehörige_Gemeinde"},"district":{"key":"01058","name":"Rendsburg-Eckernförde","type":"Kreis"},"federalState":{"key":"01","name":"Schleswig-Holstein"}},{"name":"In der Au","postalCode":"82229","locality":"Seefeld","municipality":{"key":"09188132","name":"Seefeld","type":"Kreisangehörige_Gemeinde"},"district":{"key":"09188","name":"Starnberg","type":"Landkreis"},"federalState":{"key":"09","name":"Bayern"}},{"name":"Inninger Str.","postalCode":"82229","locality":"Seefeld","municipality":{"key":"09188132","name":"Seefeld","type":"Kreisangehörige_Gemeinde"},"district":{"key":"09188","name":"Starnberg","type":"Landkreis"},"federalState":{"key":"09","name":"Bayern"}},{"name":"Jahnweg","postalCode":"82229","locality":"Seefeld","municipality":{"key":"09188132","name":"Seefeld","type":"Kreisangehörige_Gemeinde"},"district":{"key":"09188","name":"Starnberg","type":"Landkreis"},"federalState":{"key":"09","name":"Bayern"}},{"name":"Johann-Michael-Fischer-Weg","postalCode":"82229","locality":"Seefeld","municipality":{"key":"09188132","name":"Seefeld","type":"Kreisangehörige_Gemeinde"},"district":{"key":"09188","name":"Starnberg","type":"Landkreis"},"federalState":{"key":"09","name":"Bayern"}},{"name":"Josef-Peter-Weg","postalCode":"82229","locality":"Seefeld","municipality":{"key":"09188132","name":"Seefeld","type":"Kreisangehörige_Gemeinde"},"district":{"key":"09188","name":"Starnberg","type":"Landkreis"},"federalState":{"key":"09","name":"Bayern"}},{"name":"Kastanienweg","postalCode":"82229","locality":"Seefeld","municipality":{"key":"09188132","name":"Seefeld","type":"Kreisangehörige_Gemeinde"},"district":{"key":"09188","name":"Starnberg","type":"Landkreis"},"federalState":{"key":"09","name":"Bayern"}},{"name":"Kattenbarg","postalCode":"25557","locality":"Seefeld","municipality":{"key":"01058151","name":"Seefeld","type":"Kreisangehörige_Gemeinde"},"district":{"key":"01058","name":"Rendsburg-Eckernförde","type":"Kreis"},"federalState":{"key":"01","name":"Schleswig-Holstein"}},{"name":"Kirchenstr.","postalCode":"82229","locality":"Seefeld","municipality":{"key":"09188132","name":"Seefeld","type":"Kreisangehörige_Gemeinde"},"district":{"key":"09188","name":"Starnberg","type":"Landkreis"},"federalState":{"key":"09","name":"Bayern"}},{"name":"Kronskamp","postalCode":"25557","locality":"Seefeld","municipality":{"key":"01058151","name":"Seefeld","type":"Kreisangehörige_Gemeinde"},"district":{"key":"01058","name":"Rendsburg-Eckernförde","type":"Kreis"},"federalState":{"key":"01","name":"Schleswig-Holstein"}},{"name":"Landstettener Weg","postalCode":"82229","locality":"Seefeld","municipality":{"key":"09188132","name":"Seefeld","type":"Kreisangehörige_Gemeinde"},"district":{"key":"09188","name":"Starnberg","type":"Landkreis"},"federalState":{"key":"09","name":"Bayern"}},{"name":"Leitenhöhe","postalCode":"82229","locality":"Seefeld","municipality":{"key":"09188132","name":"Seefeld","type":"Kreisangehörige_Gemeinde"},"district":{"key":"09188","name":"Starnberg","type":"Landkreis"},"federalState":{"key":"09","name":"Bayern"}},{"name":"Leitenweg","postalCode":"82229","locality":"Seefeld","municipality":{"key":"09188132","name":"Seefeld","type":"Kreisangehörige_Gemeinde"},"district":{"key":"09188","name":"Starnberg","type":"Landkreis"},"federalState":{"key":"09","name":"Bayern"}},{"name":"Leo-Putz-Weg","postalCode":"82229","locality":"Seefeld","municipality":{"key":"09188132","name":"Seefeld","type":"Kreisangehörige_Gemeinde"},"district":{"key":"09188","name":"Starnberg","type":"Landkreis"},"federalState":{"key":"09","name":"Bayern"}},{"name":"Lindenweg","postalCode":"82229","locality":"Seefeld","municipality":{"key":"09188132","name":"Seefeld","type":"Kreisangehörige_Gemeinde"},"district":{"key":"09188","name":"Starnberg","type":"Landkreis"},"federalState":{"key":"09","name":"Bayern"}},{"name":"Linderbergweg","postalCode":"82229","locality":"Seefeld","municipality":{"key":"09188132","name":"Seefeld","type":"Kreisangehörige_Gemeinde"},"district":{"key":"09188","name":"Starnberg","type":"Landkreis"},"federalState":{"key":"09","name":"Bayern"}},{"name":"Ludwig-Thoma-Str.","postalCode":"82229","locality":"Seefeld","municipality":{"key":"09188132","name":"Seefeld","type":"Kreisangehörige_Gemeinde"},"district":{"key":"09188","name":"Starnberg","type":"Landkreis"},"federalState":{"key":"09","name":"Bayern"}},{"name":"Luierweg","postalCode":"82229","locality":"Seefeld","municipality":{"key":"09188132","name":"Seefeld","type":"Kreisangehörige_Gemeinde"},"district":{"key":"09188","name":"Starnberg","type":"Landkreis"},"federalState":{"key":"09","name":"Bayern"}},{"name":"Lütten Weg","postalCode":"25557","locality":"Seefeld","municipality":{"key":"01058151","name":"Seefeld","type":"Kreisangehörige_Gemeinde"},"district":{"key":"01058","name":"Rendsburg-Eckernförde","type":"Kreis"},"federalState":{"key":"01","name":"Schleswig-Holstein"}},{"name":"Marienplatz","postalCode":"82229","locality":"Seefeld","municipality":{"key":"09188132","name":"Seefeld","type":"Kreisangehörige_Gemeinde"},"district":{"key":"09188","name":"Starnberg","type":"Landkreis"},"federalState":{"key":"09","name":"Bayern"}},{"name":"Martin-Hebel-Weg","postalCode":"82229","locality":"Seefeld","municipality":{"key":"09188132","name":"Seefeld","type":"Kreisangehörige_Gemeinde"},"district":{"key":"09188","name":"Starnberg","type":"Landkreis"},"federalState":{"key":"09","name":"Bayern"}},{"name":"Mayrhofer Ring","postalCode":"82229","locality":"Seefeld","municipality":{"key":"09188132","name":"Seefeld","type":"Kreisangehörige_Gemeinde"},"district":{"key":"09188","name":"Starnberg","type":"Landkreis"},"federalState":{"key":"09","name":"Bayern"}},{"name":"Meilinger Weg","postalCode":"82229","locality":"Seefeld","municipality":{"key":"09188132","name":"Seefeld","type":"Kreisangehörige_Gemeinde"},"district":{"key":"09188","name":"Starnberg","type":"Landkreis"},"federalState":{"key":"09","name":"Bayern"}},{"name":"Mittelfeld","postalCode":"82229","locality":"Seefeld","municipality":{"key":"09188132","name":"Seefeld","type":"Kreisangehörige_Gemeinde"},"district":{"key":"09188","name":"Starnberg","type":"Landkreis"},"federalState":{"key":"09","name":"Bayern"}},{"name":"Moosdorfstr.","postalCode":"82229","locality":"Seefeld","municipality":{"key":"09188132","name":"Seefeld","type":"Kreisangehörige_Gemeinde"},"district":{"key":"09188","name":"Starnberg","type":"Landkreis"},"federalState":{"key":"09","name":"Bayern"}},{"name":"Mühlbachstr.","postalCode":"82229","locality":"Seefeld","municipality":{"key":"09188132","name":"Seefeld","type":"Kreisangehörige_Gemeinde"},"district":{"key":"09188","name":"Starnberg","type":"Landkreis"},"federalState":{"key":"09","name":"Bayern"}},{"name":"Mühlenstr.","postalCode":"25557","locality":"Seefeld","municipality":{"key":"01058151","name":"Seefeld","type":"Kreisangehörige_Gemeinde"},"district":{"key":"01058","name":"Rendsburg-Eckernförde","type":"Kreis"},"federalState":{"key":"01","name":"Schleswig-Holstein"}},{"name":"Mühlstr.","postalCode":"82229","locality":"Seefeld","municipality":{"key":"09188132","name":"Seefeld","type":"Kreisangehörige_Gemeinde"},"district":{"key":"09188","name":"Starnberg","type":"Landkreis"},"federalState":{"key":"09","name":"Bayern"}},{"name":"Münchner Str.","postalCode":"82229","locality":"Seefeld","municipality":{"key":"09188132","name":"Seefeld","type":"Kreisangehörige_Gemeinde"},"district":{"key":"09188","name":"Starnberg","type":"Landkreis"},"federalState":{"key":"09","name":"Bayern"}},{"name":"Neuhoffweg","postalCode":"82229","locality":"Seefeld","municipality":{"key":"09188132","name":"Seefeld","type":"Kreisangehörige_Gemeinde"},"district":{"key":"09188","name":"Starnberg","type":"Landkreis"},"federalState":{"key":"09","name":"Bayern"}},{"name":"Oberaltinger Str.","postalCode":"82229","locality":"Seefeld","municipality":{"key":"09188132","name":"Seefeld","type":"Kreisangehörige_Gemeinde"},"district":{"key":"09188","name":"Starnberg","type":"Landkreis"},"federalState":{"key":"09","name":"Bayern"}},{"name":"Oberfeld","postalCode":"82229","locality":"Seefeld","municipality":{"key":"09188132","name":"Seefeld","type":"Kreisangehörige_Gemeinde"},"district":{"key":"09188","name":"Starnberg","type":"Landkreis"},"federalState":{"key":"09","name":"Bayern"}},{"name":"Oskar-Maria-Graf-Str.","postalCode":"82229","locality":"Seefeld","municipality":{"key":"09188132","name":"Seefeld","type":"Kreisangehörige_Gemeinde"},"district":{"key":"09188","name":"Starnberg","type":"Landkreis"},"federalState":{"key":"09","name":"Bayern"}},{"name":"Perchtinger Str.","postalCode":"82229","locality":"Seefeld","municipality":{"key":"09188132","name":"Seefeld","type":"Kreisangehörige_Gemeinde"},"district":{"key":"09188","name":"Starnberg","type":"Landkreis"},"federalState":{"key":"09","name":"Bayern"}},{"name":"Pilsenseestr.","postalCode":"82229","locality":"Seefeld","municipality":{"key":"09188132","name":"Seefeld","type":"Kreisangehörige_Gemeinde"},"district":{"key":"09188","name":"Starnberg","type":"Landkreis"},"federalState":{"key":"09","name":"Bayern"}},{"name":"Pointweg","postalCode":"82229","locality":"Seefeld","municipality":{"key":"09188132","name":"Seefeld","type":"Kreisangehörige_Gemeinde"},"district":{"key":"09188","name":"Starnberg","type":"Landkreis"},"federalState":{"key":"09","name":"Bayern"}},{"name":"Pulser Str.","postalCode":"25557","locality":"Seefeld","municipality":{"key":"01058151","name":"Seefeld","type":"Kreisangehörige_Gemeinde"},"district":{"key":"01058","name":"Rendsburg-Eckernförde","type":"Kreis"},"federalState":{"key":"01","name":"Schleswig-Holstein"}},{"name":"Rainweg","postalCode":"82229","locality":"Seefeld","municipality":{"key":"09188132","name":"Seefeld","type":"Kreisangehörige_Gemeinde"},"district":{"key":"09188","name":"Starnberg","type":"Landkreis"},"federalState":{"key":"09","name":"Bayern"}},{"name":"Rassostr.","postalCode":"82229","locality":"Seefeld","municipality":{"key":"09188132","name":"Seefeld","type":"Kreisangehörige_Gemeinde"},"district":{"key":"09188","name":"Starnberg","type":"Landkreis"},"federalState":{"key":"09","name":"Bayern"}},{"name":"Rehheide","postalCode":"25557","locality":"Seefeld","municipality":{"key":"01058151","name":"Seefeld","type":"Kreisangehörige_Gemeinde"},"district":{"key":"01058","name":"Rendsburg-Eckernförde","type":"Kreis"},"federalState":{"key":"01","name":"Schleswig-Holstein"}},{"name":"Reisbichlweg","postalCode":"82229","locality":"Seefeld","municipality":{"key":"09188132","name":"Seefeld","type":"Kreisangehörige_Gemeinde"},"district":{"key":"09188","name":"Starnberg","type":"Landkreis"},"federalState":{"key":"09","name":"Bayern"}},{"name":"Reisbrünndl","postalCode":"82229","locality":"Seefeld","municipality":{"key":"09188132","name":"Seefeld","type":"Kreisangehörige_Gemeinde"},"district":{"key":"09188","name":"Starnberg","type":"Landkreis"},"federalState":{"key":"09","name":"Bayern"}},{"name":"Reiswiese","postalCode":"82229","locality":"Seefeld","municipality":{"key":"09188132","name":"Seefeld","type":"Kreisangehörige_Gemeinde"},"district":{"key":"09188","name":"Starnberg","type":"Landkreis"},"federalState":{"key":"09","name":"Bayern"}},{"name":"Riegelackerweg","postalCode":"82229","locality":"Seefeld","municipality":{"key":"09188132","name":"Seefeld","type":"Kreisangehörige_Gemeinde"},"district":{"key":"09188","name":"Starnberg","type":"Landkreis"},"federalState":{"key":"09","name":"Bayern"}},{"name":"Roseggerstr.","postalCode":"82229","locality":"Seefeld","municipality":{"key":"09188132","name":"Seefeld","type":"Kreisangehörige_Gemeinde"},"district":{"key":"09188","name":"Starnberg","type":"Landkreis"},"federalState":{"key":"09","name":"Bayern"}},{"name":"Rosenweg","postalCode":"82229","locality":"Seefeld","municipality":{"key":"09188132","name":"Seefeld","type":"Kreisangehörige_Gemeinde"},"district":{"key":"09188","name":"Starnberg","type":"Landkreis"},"federalState":{"key":"09","name":"Bayern"}},{"name":"Saganger","postalCode":"82229","locality":"Seefeld","municipality":{"key":"09188132","name":"Seefeld","type":"Kreisangehörige_Gemeinde"},"district":{"key":"09188","name":"Starnberg","type":"Landkreis"},"federalState":{"key":"09","name":"Bayern"}},{"name":"Scheidegger Weg","postalCode":"82229","locality":"Seefeld","municipality":{"key":"09188132","name":"Seefeld","type":"Kreisangehörige_Gemeinde"},"district":{"key":"09188","name":"Starnberg","type":"Landkreis"},"federalState":{"key":"09","name":"Bayern"}},{"name":"Schlagenhofener Weg","postalCode":"82229","locality":"Seefeld","municipality":{"key":"09188132","name":"Seefeld","type":"Kreisangehörige_Gemeinde"},"district":{"key":"09188","name":"Starnberg","type":"Landkreis"},"federalState":{"key":"09","name":"Bayern"}},{"name":"Schloss","postalCode":"82229","locality":"Seefeld","municipality":{"key":"09188132","name":"Seefeld","type":"Kreisangehörige_Gemeinde"},"district":{"key":"09188","name":"Starnberg","type":"Landkreis"},"federalState":{"key":"09","name":"Bayern"}},{"name":"Schloßhof","postalCode":"82229","locality":"Seefeld","municipality":{"key":"09188132","name":"Seefeld","type":"Kreisangehörige_Gemeinde"},"district":{"key":"09188","name":"Starnberg","type":"Landkreis"},"federalState":{"key":"09","name":"Bayern"}},{"name":"Schlosspark","postalCode":"82229","locality":"Seefeld","municipality":{"key":"09188132","name":"Seefeld","type":"Kreisangehörige_Gemeinde"},"district":{"key":"09188","name":"Starnberg","type":"Landkreis"},"federalState":{"key":"09","name":"Bayern"}},{"name":"Schluchtweg","postalCode":"82229","locality":"Seefeld","municipality":{"key":"09188132","name":"Seefeld","type":"Kreisangehörige_Gemeinde"},"district":{"key":"09188","name":"Starnberg","type":"Landkreis"},"federalState":{"key":"09","name":"Bayern"}},{"name":"Schmiedweg","postalCode":"82229","locality":"Seefeld","municipality":{"key":"09188132","name":"Seefeld","type":"Kreisangehörige_Gemeinde"},"district":{"key":"09188","name":"Starnberg","type":"Landkreis"},"federalState":{"key":"09","name":"Bayern"}},{"name":"Schönblickstr.","postalCode":"82229","locality":"Seefeld","municipality":{"key":"09188132","name":"Seefeld","type":"Kreisangehörige_Gemeinde"},"district":{"key":"09188","name":"Starnberg","type":"Landkreis"},"federalState":{"key":"09","name":"Bayern"}},{"name":"Schreyeggstr.","postalCode":"82229","locality":"Seefeld","municipality":{"key":"09188132","name":"Seefeld","type":"Kreisangehörige_Gemeinde"},"district":{"key":"09188","name":"Starnberg","type":"Landkreis"},"federalState":{"key":"09","name":"Bayern"}},{"name":"Schröderweg","postalCode":"82229","locality":"Seefeld","municipality":{"key":"09188132","name":"Seefeld","type":"Kreisangehörige_Gemeinde"},"district":{"key":"09188","name":"Starnberg","type":"Landkreis"},"federalState":{"key":"09","name":"Bayern"}},{"name":"Schulweg","postalCode":"82229","locality":"Seefeld","municipality":{"key":"09188132","name":"Seefeld","type":"Kreisangehörige_Gemeinde"},"district":{"key":"09188","name":"Starnberg","type":"Landkreis"},"federalState":{"key":"09","name":"Bayern"}},{"name":"Schützenstr.","postalCode":"82229","locality":"Seefeld","municipality":{"key":"09188132","name":"Seefeld","type":"Kreisangehörige_Gemeinde"},"district":{"key":"09188","name":"Starnberg","type":"Landkreis"},"federalState":{"key":"09","name":"Bayern"}},{"name":"Seefelder Str.","postalCode":"82229","locality":"Seefeld","municipality":{"key":"09188132","name":"Seefeld","type":"Kreisangehörige_Gemeinde"},"district":{"key":"09188","name":"Starnberg","type":"Landkreis"},"federalState":{"key":"09","name":"Bayern"}},{"name":"Seeleite","postalCode":"82229","locality":"Seefeld","municipality":{"key":"09188132","name":"Seefeld","type":"Kreisangehörige_Gemeinde"},"district":{"key":"09188","name":"Starnberg","type":"Landkreis"},"federalState":{"key":"09","name":"Bayern"}},{"name":"Seestr.","postalCode":"82229","locality":"Seefeld","municipality":{"key":"09188132","name":"Seefeld","type":"Kreisangehörige_Gemeinde"},"district":{"key":"09188","name":"Starnberg","type":"Landkreis"},"federalState":{"key":"09","name":"Bayern"}},{"name":"Sonneckweg","postalCode":"82229","locality":"Seefeld","municipality":{"key":"09188132","name":"Seefeld","type":"Kreisangehörige_Gemeinde"},"district":{"key":"09188","name":"Starnberg","type":"Landkreis"},"federalState":{"key":"09","name":"Bayern"}},{"name":"Spitzstr.","postalCode":"82229","locality":"Seefeld","municipality":{"key":"09188132","name":"Seefeld","type":"Kreisangehörige_Gemeinde"},"district":{"key":"09188","name":"Starnberg","type":"Landkreis"},"federalState":{"key":"09","name":"Bayern"}},{"name":"Stampfgasse","postalCode":"82229","locality":"Seefeld","municipality":{"key":"09188132","name":"Seefeld","type":"Kreisangehörige_Gemeinde"},"district":{"key":"09188","name":"Starnberg","type":"Landkreis"},"federalState":{"key":"09","name":"Bayern"}},{"name":"Starnberger Str.","postalCode":"82229","locality":"Seefeld","municipality":{"key":"09188132","name":"Seefeld","type":"Kreisangehörige_Gemeinde"},"district":{"key":"09188","name":"Starnberg","type":"Landkreis"},"federalState":{"key":"09","name":"Bayern"}},{"name":"Steebstr.","postalCode":"82229","locality":"Seefeld","municipality":{"key":"09188132","name":"Seefeld","type":"Kreisangehörige_Gemeinde"},"district":{"key":"09188","name":"Starnberg","type":"Landkreis"},"federalState":{"key":"09","name":"Bayern"}},{"name":"Steig","postalCode":"82229","locality":"Seefeld","municipality":{"key":"09188132","name":"Seefeld","type":"Kreisangehörige_Gemeinde"},"district":{"key":"09188","name":"Starnberg","type":"Landkreis"},"federalState":{"key":"09","name":"Bayern"}},{"name":"Steinebacher Str.","postalCode":"82229","locality":"Seefeld","municipality":{"key":"09188132","name":"Seefeld","type":"Kreisangehörige_Gemeinde"},"district":{"key":"09188","name":"Starnberg","type":"Landkreis"},"federalState":{"key":"09","name":"Bayern"}},{"name":"Steinebacher Weg","postalCode":"82229","locality":"Seefeld","municipality":{"key":"09188132","name":"Seefeld","type":"Kreisangehörige_Gemeinde"},"district":{"key":"09188","name":"Starnberg","type":"Landkreis"},"federalState":{"key":"09","name":"Bayern"}},{"name":"Stocketweg","postalCode":"82229","locality":"Seefeld","municipality":{"key":"09188132","name":"Seefeld","type":"Kreisangehörige_Gemeinde"},"district":{"key":"09188","name":"Starnberg","type":"Landkreis"},"federalState":{"key":"09","name":"Bayern"}},{"name":"Turmfeldweg","postalCode":"82229","locality":"Seefeld","municipality":{"key":"09188132","name":"Seefeld","type":"Kreisangehörige_Gemeinde"},"district":{"key":"09188","name":"Starnberg","type":"Landkreis"},"federalState":{"key":"09","name":"Bayern"}},{"name":"Ulrich-Haid-Str.","postalCode":"82229","locality":"Seefeld","municipality":{"key":"09188132","name":"Seefeld","type":"Kreisangehörige_Gemeinde"},"district":{"key":"09188","name":"Starnberg","type":"Landkreis"},"federalState":{"key":"09","name":"Bayern"}},{"name":"Uneringer Str.","postalCode":"82229","locality":"Seefeld","municipality":{"key":"09188132","name":"Seefeld","type":"Kreisangehörige_Gemeinde"},"district":{"key":"09188","name":"Starnberg","type":"Landkreis"},"federalState":{"key":"09","name":"Bayern"}},{"name":"Unterfeldweg","postalCode":"82229","locality":"Seefeld","municipality":{"key":"09188132","name":"Seefeld","type":"Kreisangehörige_Gemeinde"},"district":{"key":"09188","name":"Starnberg","type":"Landkreis"},"federalState":{"key":"09","name":"Bayern"}},{"name":"Vogelanger","postalCode":"82319","locality":"Starnberg","municipality":{"key":"09188139","name":"Starnberg, St","type":"Stadt"},"district":{"key":"09188","name":"Starnberg","type":"Landkreis"},"federalState":{"key":"09","name":"Bayern"}},{"name":"Voglweg","postalCode":"82319","locality":"Starnberg","municipality":{"key":"09188139","name":"Starnberg, St","type":"Stadt"},"district":{"key":"09188","name":"Starnberg","type":"Landkreis"},"federalState":{"key":"09","name":"Bayern"}},{"name":"von-Dall'Armi-Weg","postalCode":"82319","locality":"Starnberg","municipality":{"key":"09188139","name":"Starnberg, St","type":"Stadt"},"district":{"key":"09188","name":"Starnberg","type":"Landkreis"},"federalState":{"key":"09","name":"Bayern"}},{"name":"Von-der-Tann-Str.","postalCode":"82319","locality":"Starnberg","municipality":{"key":"09188139","name":"Starnberg, St","type":"Stadt"},"district":{"key":"09188","name":"Starnberg","type":"Landkreis"},"federalState":{"key":"09","name":"Bayern"}},{"name":"Vordermühlstr.","postalCode":"82319","locality":"Starnberg","municipality":{"key":"09188139","name":"Starnberg, St","type":"Stadt"},"district":{"key":"09188","name":"Starnberg","type":"Landkreis"},"federalState":{"key":"09","name":"Bayern"}},{"name":"Waldweg","postalCode":"82229","locality":"Seefeld","municipality":{"key":"09188132","name":"Seefeld","type":"Kreisangehörige_Gemeinde"},"district":{"key":"09188","name":"Starnberg","type":"Landkreis"},"federalState":{"key":"09","name":"Bayern"}},{"name":"Wassermühle","postalCode":"25557","locality":"Seefeld","municipality":{"key":"01058151","name":"Seefeld","type":"Kreisangehörige_Gemeinde"},"district":{"key":"01058","name":"Rendsburg-Eckernförde","type":"Kreis"},"federalState":{"key":"01","name":"Schleswig-Holstein"}},{"name":"Wasserweg","postalCode":"82229","locality":"Seefeld","municipality":{"key":"09188132","name":"Seefeld","type":"Kreisangehörige_Gemeinde"},"district":{"key":"09188","name":"Starnberg","type":"Landkreis"},"federalState":{"key":"09","name":"Bayern"}},{"name":"Weg an der Breiten","postalCode":"82229","locality":"Seefeld","municipality":{"key":"09188132","name":"Seefeld","type":"Kreisangehörige_Gemeinde"},"district":{"key":"09188","name":"Starnberg","type":"Landkreis"},"federalState":{"key":"09","name":"Bayern"}},{"name":"Wörthseestr.","postalCode":"82229","locality":"Seefeld","municipality":{"key":"09188132","name":"Seefeld","type":"Kreisangehörige_Gemeinde"},"district":{"key":"09188","name":"Starnberg","type":"Landkreis"},"federalState":{"key":"09","name":"Bayern"}},{"name":"Ziegeleiweg","postalCode":"25557","locality":"Seefeld","municipality":{"key":"01058151","name":"Seefeld","type":"Kreisangehörige_Gemeinde"},"district":{"key":"01058","name":"Rendsburg-Eckernförde","type":"Kreis"},"federalState":{"key":"01","name":"Schleswig-Holstein"}},{"name":"Zollschuster","postalCode":"82229","locality":"Seefeld","municipality":{"key":"09188132","name":"Seefeld","type":"Kreisangehörige_Gemeinde"},"district":{"key":"09188","name":"Starnberg","type":"Landkreis"},"federalState":{"key":"09","name":"Bayern"}},]