[{"name":"Ahornring","postalCode":"38553","locality":"Wasbüttel","municipality":{"key":"03151037","name":"Wasbüttel","type":"Kreisangehörige_Gemeinde"},"district":{"key":"03151","name":"Gifhorn","type":"Landkreis"},"federalState":{"key":"03","name":"Niedersachsen"}},{"name":"Am Bartelskamp","postalCode":"38553","locality":"Wasbüttel","municipality":{"key":"03151037","name":"Wasbüttel","type":"Kreisangehörige_Gemeinde"},"district":{"key":"03151","name":"Gifhorn","type":"Landkreis"},"federalState":{"key":"03","name":"Niedersachsen"}},{"name":"Am Gänsegrund","postalCode":"38553","locality":"Wasbüttel","municipality":{"key":"03151037","name":"Wasbüttel","type":"Kreisangehörige_Gemeinde"},"district":{"key":"03151","name":"Gifhorn","type":"Landkreis"},"federalState":{"key":"03","name":"Niedersachsen"}},{"name":"Am Köweken","postalCode":"38553","locality":"Wasbüttel","municipality":{"key":"03151037","name":"Wasbüttel","type":"Kreisangehörige_Gemeinde"},"district":{"key":"03151","name":"Gifhorn","type":"Landkreis"},"federalState":{"key":"03","name":"Niedersachsen"}},{"name":"Bauerbruch","postalCode":"38553","locality":"Wasbüttel","municipality":{"key":"03151037","name":"Wasbüttel","type":"Kreisangehörige_Gemeinde"},"district":{"key":"03151","name":"Gifhorn","type":"Landkreis"},"federalState":{"key":"03","name":"Niedersachsen"}},{"name":"Baumkampsweg","postalCode":"38553","locality":"Wasbüttel","municipality":{"key":"03151037","name":"Wasbüttel","type":"Kreisangehörige_Gemeinde"},"district":{"key":"03151","name":"Gifhorn","type":"Landkreis"},"federalState":{"key":"03","name":"Niedersachsen"}},{"name":"Beekenriede","postalCode":"38553","locality":"Wasbüttel","municipality":{"key":"03151037","name":"Wasbüttel","type":"Kreisangehörige_Gemeinde"},"district":{"key":"03151","name":"Gifhorn","type":"Landkreis"},"federalState":{"key":"03","name":"Niedersachsen"}},{"name":"Birkenweg","postalCode":"38553","locality":"Wasbüttel","municipality":{"key":"03151037","name":"Wasbüttel","type":"Kreisangehörige_Gemeinde"},"district":{"key":"03151","name":"Gifhorn","type":"Landkreis"},"federalState":{"key":"03","name":"Niedersachsen"}},{"name":"Buchenweg","postalCode":"38553","locality":"Wasbüttel","municipality":{"key":"03151037","name":"Wasbüttel","type":"Kreisangehörige_Gemeinde"},"district":{"key":"03151","name":"Gifhorn","type":"Landkreis"},"federalState":{"key":"03","name":"Niedersachsen"}},{"name":"Calberlaher Str.","postalCode":"38553","locality":"Wasbüttel","municipality":{"key":"03151037","name":"Wasbüttel","type":"Kreisangehörige_Gemeinde"},"district":{"key":"03151","name":"Gifhorn","type":"Landkreis"},"federalState":{"key":"03","name":"Niedersachsen"}},{"name":"Dachsbau","postalCode":"38518","locality":"Gifhorn","municipality":{"key":"03151009","name":"Gifhorn, Stadt","type":"Stadt"},"district":{"key":"03151","name":"Gifhorn","type":"Landkreis"},"federalState":{"key":"03","name":"Niedersachsen"}},{"name":"Dahlienweg","postalCode":"38518","locality":"Gifhorn","municipality":{"key":"03151009","name":"Gifhorn, Stadt","type":"Stadt"},"district":{"key":"03151","name":"Gifhorn","type":"Landkreis"},"federalState":{"key":"03","name":"Niedersachsen"}},{"name":"Daimlerstr.","postalCode":"38518","locality":"Gifhorn","municipality":{"key":"03151009","name":"Gifhorn, Stadt","type":"Stadt"},"district":{"key":"03151","name":"Gifhorn","type":"Landkreis"},"federalState":{"key":"03","name":"Niedersachsen"}},{"name":"Danne","postalCode":"38518","locality":"Gifhorn","municipality":{"key":"03151009","name":"Gifhorn, Stadt","type":"Stadt"},"district":{"key":"03151","name":"Gifhorn","type":"Landkreis"},"federalState":{"key":"03","name":"Niedersachsen"}},{"name":"Dannenbütteler Weg","postalCode":"38518","locality":"Gifhorn","municipality":{"key":"03151009","name":"Gifhorn, Stadt","type":"Stadt"},"district":{"key":"03151","name":"Gifhorn","type":"Landkreis"},"federalState":{"key":"03","name":"Niedersachsen"}},{"name":"Danziger Str.","postalCode":"38518","locality":"Gifhorn","municipality":{"key":"03151009","name":"Gifhorn, Stadt","type":"Stadt"},"district":{"key":"03151","name":"Gifhorn","type":"Landkreis"},"federalState":{"key":"03","name":"Niedersachsen"}},{"name":"Demminer Str.","postalCode":"38518","locality":"Gifhorn","municipality":{"key":"03151009","name":"Gifhorn, Stadt","type":"Stadt"},"district":{"key":"03151","name":"Gifhorn","type":"Landkreis"},"federalState":{"key":"03","name":"Niedersachsen"}},{"name":"Denkmalstr.","postalCode":"38518","locality":"Gifhorn","municipality":{"key":"03151009","name":"Gifhorn, Stadt","type":"Stadt"},"district":{"key":"03151","name":"Gifhorn","type":"Landkreis"},"federalState":{"key":"03","name":"Niedersachsen"}},{"name":"Dieckhorster Weg","postalCode":"38518","locality":"Gifhorn","municipality":{"key":"03151009","name":"Gifhorn, Stadt","type":"Stadt"},"district":{"key":"03151","name":"Gifhorn","type":"Landkreis"},"federalState":{"key":"03","name":"Niedersachsen"}},{"name":"Dieselstr.","postalCode":"38518","locality":"Gifhorn","municipality":{"key":"03151009","name":"Gifhorn, Stadt","type":"Stadt"},"district":{"key":"03151","name":"Gifhorn","type":"Landkreis"},"federalState":{"key":"03","name":"Niedersachsen"}},{"name":"Distelweg","postalCode":"38518","locality":"Gifhorn","municipality":{"key":"03151009","name":"Gifhorn, Stadt","type":"Stadt"},"district":{"key":"03151","name":"Gifhorn","type":"Landkreis"},"federalState":{"key":"03","name":"Niedersachsen"}},{"name":"Dorfstr.","postalCode":"38518","locality":"Gifhorn","municipality":{"key":"03151009","name":"Gifhorn, Stadt","type":"Stadt"},"district":{"key":"03151","name":"Gifhorn","type":"Landkreis"},"federalState":{"key":"03","name":"Niedersachsen"}},{"name":"Döringskamp","postalCode":"38518","locality":"Gifhorn","municipality":{"key":"03151009","name":"Gifhorn, Stadt","type":"Stadt"},"district":{"key":"03151","name":"Gifhorn","type":"Landkreis"},"federalState":{"key":"03","name":"Niedersachsen"}},{"name":"Drosselgasse","postalCode":"38518","locality":"Gifhorn","municipality":{"key":"03151009","name":"Gifhorn, Stadt","type":"Stadt"},"district":{"key":"03151","name":"Gifhorn","type":"Landkreis"},"federalState":{"key":"03","name":"Niedersachsen"}},{"name":"Drosselgasse","postalCode":"38559","locality":"Gifhorn","municipality":{"key":"03151009","name":"Gifhorn, Stadt","type":"Stadt"},"district":{"key":"03151","name":"Gifhorn","type":"Landkreis"},"federalState":{"key":"03","name":"Niedersachsen"}},{"name":"Drosselstieg","postalCode":"38518","locality":"Gifhorn","municipality":{"key":"03151009","name":"Gifhorn, Stadt","type":"Stadt"},"district":{"key":"03151","name":"Gifhorn","type":"Landkreis"},"federalState":{"key":"03","name":"Niedersachsen"}},{"name":"Drosselweg","postalCode":"38518","locality":"Gifhorn","municipality":{"key":"03151009","name":"Gifhorn, Stadt","type":"Stadt"},"district":{"key":"03151","name":"Gifhorn","type":"Landkreis"},"federalState":{"key":"03","name":"Niedersachsen"}},{"name":"Dr.-Otto-Armbrecht-Str.","postalCode":"38518","locality":"Gifhorn","municipality":{"key":"03151009","name":"Gifhorn, Stadt","type":"Stadt"},"district":{"key":"03151","name":"Gifhorn","type":"Landkreis"},"federalState":{"key":"03","name":"Niedersachsen"}},{"name":"Dr.-Ulrich-Roshop-Str.","postalCode":"38518","locality":"Gifhorn","municipality":{"key":"03151009","name":"Gifhorn, Stadt","type":"Stadt"},"district":{"key":"03151","name":"Gifhorn","type":"Landkreis"},"federalState":{"key":"03","name":"Niedersachsen"}},{"name":"Dumfrieser Ring","postalCode":"38518","locality":"Gifhorn","municipality":{"key":"03151009","name":"Gifhorn, Stadt","type":"Stadt"},"district":{"key":"03151","name":"Gifhorn","type":"Landkreis"},"federalState":{"key":"03","name":"Niedersachsen"}},{"name":"Dünenweg","postalCode":"38518","locality":"Gifhorn","municipality":{"key":"03151009","name":"Gifhorn, Stadt","type":"Stadt"},"district":{"key":"03151","name":"Gifhorn","type":"Landkreis"},"federalState":{"key":"03","name":"Niedersachsen"}},{"name":"Eichenkamp","postalCode":"38553","locality":"Wasbüttel","municipality":{"key":"03151037","name":"Wasbüttel","type":"Kreisangehörige_Gemeinde"},"district":{"key":"03151","name":"Gifhorn","type":"Landkreis"},"federalState":{"key":"03","name":"Niedersachsen"}},{"name":"Fahrenkamp","postalCode":"38553","locality":"Wasbüttel","municipality":{"key":"03151037","name":"Wasbüttel","type":"Kreisangehörige_Gemeinde"},"district":{"key":"03151","name":"Gifhorn","type":"Landkreis"},"federalState":{"key":"03","name":"Niedersachsen"}},{"name":"Fasanenweg","postalCode":"38553","locality":"Wasbüttel","municipality":{"key":"03151037","name":"Wasbüttel","type":"Kreisangehörige_Gemeinde"},"district":{"key":"03151","name":"Gifhorn","type":"Landkreis"},"federalState":{"key":"03","name":"Niedersachsen"}},{"name":"Gartenstr.","postalCode":"38553","locality":"Wasbüttel","municipality":{"key":"03151037","name":"Wasbüttel","type":"Kreisangehörige_Gemeinde"},"district":{"key":"03151","name":"Gifhorn","type":"Landkreis"},"federalState":{"key":"03","name":"Niedersachsen"}},{"name":"Haaslop","postalCode":"38553","locality":"Wasbüttel","municipality":{"key":"03151037","name":"Wasbüttel","type":"Kreisangehörige_Gemeinde"},"district":{"key":"03151","name":"Gifhorn","type":"Landkreis"},"federalState":{"key":"03","name":"Niedersachsen"}},{"name":"Hauptstr.","postalCode":"38553","locality":"Wasbüttel","municipality":{"key":"03151037","name":"Wasbüttel","type":"Kreisangehörige_Gemeinde"},"district":{"key":"03151","name":"Gifhorn","type":"Landkreis"},"federalState":{"key":"03","name":"Niedersachsen"}},{"name":"Heidkampsweg","postalCode":"38553","locality":"Wasbüttel","municipality":{"key":"03151037","name":"Wasbüttel","type":"Kreisangehörige_Gemeinde"},"district":{"key":"03151","name":"Gifhorn","type":"Landkreis"},"federalState":{"key":"03","name":"Niedersachsen"}},{"name":"Immenweg","postalCode":"38553","locality":"Wasbüttel","municipality":{"key":"03151037","name":"Wasbüttel","type":"Kreisangehörige_Gemeinde"},"district":{"key":"03151","name":"Gifhorn","type":"Landkreis"},"federalState":{"key":"03","name":"Niedersachsen"}},{"name":"Im Winkel","postalCode":"38553","locality":"Wasbüttel","municipality":{"key":"03151037","name":"Wasbüttel","type":"Kreisangehörige_Gemeinde"},"district":{"key":"03151","name":"Gifhorn","type":"Landkreis"},"federalState":{"key":"03","name":"Niedersachsen"}},{"name":"Jägerstr.","postalCode":"38518","locality":"Gifhorn","municipality":{"key":"03151009","name":"Gifhorn, Stadt","type":"Stadt"},"district":{"key":"03151","name":"Gifhorn","type":"Landkreis"},"federalState":{"key":"03","name":"Niedersachsen"}},{"name":"Jahnweg","postalCode":"38518","locality":"Gifhorn","municipality":{"key":"03151009","name":"Gifhorn, Stadt","type":"Stadt"},"district":{"key":"03151","name":"Gifhorn","type":"Landkreis"},"federalState":{"key":"03","name":"Niedersachsen"}},{"name":"Jakob-Büchel-Str.","postalCode":"38518","locality":"Gifhorn","municipality":{"key":"03151009","name":"Gifhorn, Stadt","type":"Stadt"},"district":{"key":"03151","name":"Gifhorn","type":"Landkreis"},"federalState":{"key":"03","name":"Niedersachsen"}},{"name":"Jakob-Kaiser-Weg","postalCode":"38518","locality":"Gifhorn","municipality":{"key":"03151009","name":"Gifhorn, Stadt","type":"Stadt"},"district":{"key":"03151","name":"Gifhorn","type":"Landkreis"},"federalState":{"key":"03","name":"Niedersachsen"}},{"name":"Johann-Trollmann-Weg","postalCode":"38518","locality":"Gifhorn","municipality":{"key":"03151009","name":"Gifhorn, Stadt","type":"Stadt"},"district":{"key":"03151","name":"Gifhorn","type":"Landkreis"},"federalState":{"key":"03","name":"Niedersachsen"}},{"name":"Juister Weg","postalCode":"38518","locality":"Gifhorn","municipality":{"key":"03151009","name":"Gifhorn, Stadt","type":"Stadt"},"district":{"key":"03151","name":"Gifhorn","type":"Landkreis"},"federalState":{"key":"03","name":"Niedersachsen"}},{"name":"Julius-Leber-Str.","postalCode":"38518","locality":"Gifhorn","municipality":{"key":"03151009","name":"Gifhorn, Stadt","type":"Stadt"},"district":{"key":"03151","name":"Gifhorn","type":"Landkreis"},"federalState":{"key":"03","name":"Niedersachsen"}},{"name":"Kapellenstr.","postalCode":"38553","locality":"Wasbüttel","municipality":{"key":"03151037","name":"Wasbüttel","type":"Kreisangehörige_Gemeinde"},"district":{"key":"03151","name":"Gifhorn","type":"Landkreis"},"federalState":{"key":"03","name":"Niedersachsen"}},{"name":"Kastanienweg","postalCode":"38553","locality":"Wasbüttel","municipality":{"key":"03151037","name":"Wasbüttel","type":"Kreisangehörige_Gemeinde"},"district":{"key":"03151","name":"Gifhorn","type":"Landkreis"},"federalState":{"key":"03","name":"Niedersachsen"}},{"name":"Kurze Str.","postalCode":"38553","locality":"Wasbüttel","municipality":{"key":"03151037","name":"Wasbüttel","type":"Kreisangehörige_Gemeinde"},"district":{"key":"03151","name":"Gifhorn","type":"Landkreis"},"federalState":{"key":"03","name":"Niedersachsen"}},{"name":"Lerchenweg","postalCode":"38553","locality":"Wasbüttel","municipality":{"key":"03151037","name":"Wasbüttel","type":"Kreisangehörige_Gemeinde"},"district":{"key":"03151","name":"Gifhorn","type":"Landkreis"},"federalState":{"key":"03","name":"Niedersachsen"}},{"name":"Lindenweg","postalCode":"38553","locality":"Wasbüttel","municipality":{"key":"03151037","name":"Wasbüttel","type":"Kreisangehörige_Gemeinde"},"district":{"key":"03151","name":"Gifhorn","type":"Landkreis"},"federalState":{"key":"03","name":"Niedersachsen"}},{"name":"Martinsbütteler Weg","postalCode":"38553","locality":"Wasbüttel","municipality":{"key":"03151037","name":"Wasbüttel","type":"Kreisangehörige_Gemeinde"},"district":{"key":"03151","name":"Gifhorn","type":"Landkreis"},"federalState":{"key":"03","name":"Niedersachsen"}},{"name":"Maschweg","postalCode":"38553","locality":"Wasbüttel","municipality":{"key":"03151037","name":"Wasbüttel","type":"Kreisangehörige_Gemeinde"},"district":{"key":"03151","name":"Gifhorn","type":"Landkreis"},"federalState":{"key":"03","name":"Niedersachsen"}},{"name":"Mäuerken","postalCode":"38553","locality":"Wasbüttel","municipality":{"key":"03151037","name":"Wasbüttel","type":"Kreisangehörige_Gemeinde"},"district":{"key":"03151","name":"Gifhorn","type":"Landkreis"},"federalState":{"key":"03","name":"Niedersachsen"}},{"name":"Mittelstr.","postalCode":"38553","locality":"Wasbüttel","municipality":{"key":"03151037","name":"Wasbüttel","type":"Kreisangehörige_Gemeinde"},"district":{"key":"03151","name":"Gifhorn","type":"Landkreis"},"federalState":{"key":"03","name":"Niedersachsen"}},{"name":"Neuenwiese","postalCode":"38553","locality":"Wasbüttel","municipality":{"key":"03151037","name":"Wasbüttel","type":"Kreisangehörige_Gemeinde"},"district":{"key":"03151","name":"Gifhorn","type":"Landkreis"},"federalState":{"key":"03","name":"Niedersachsen"}},{"name":"Oldaustr.","postalCode":"38518","locality":"Gifhorn","municipality":{"key":"03151009","name":"Gifhorn, Stadt","type":"Stadt"},"district":{"key":"03151","name":"Gifhorn","type":"Landkreis"},"federalState":{"key":"03","name":"Niedersachsen"}},{"name":"Orchideenweg","postalCode":"38518","locality":"Gifhorn","municipality":{"key":"03151009","name":"Gifhorn, Stadt","type":"Stadt"},"district":{"key":"03151","name":"Gifhorn","type":"Landkreis"},"federalState":{"key":"03","name":"Niedersachsen"}},{"name":"Ortfeld","postalCode":"38518","locality":"Gifhorn","municipality":{"key":"03151009","name":"Gifhorn, Stadt","type":"Stadt"},"district":{"key":"03151","name":"Gifhorn","type":"Landkreis"},"federalState":{"key":"03","name":"Niedersachsen"}},{"name":"Osterberg","postalCode":"38518","locality":"Gifhorn","municipality":{"key":"03151009","name":"Gifhorn, Stadt","type":"Stadt"},"district":{"key":"03151","name":"Gifhorn","type":"Landkreis"},"federalState":{"key":"03","name":"Niedersachsen"}},{"name":"Osttangente","postalCode":"38518","locality":"Gifhorn","municipality":{"key":"03151009","name":"Gifhorn, Stadt","type":"Stadt"},"district":{"key":"03151","name":"Gifhorn","type":"Landkreis"},"federalState":{"key":"03","name":"Niedersachsen"}},{"name":"Otto-Heuer-Str.","postalCode":"38518","locality":"Gifhorn","municipality":{"key":"03151009","name":"Gifhorn, Stadt","type":"Stadt"},"district":{"key":"03151","name":"Gifhorn","type":"Landkreis"},"federalState":{"key":"03","name":"Niedersachsen"}},{"name":"Ottostr.","postalCode":"38518","locality":"Gifhorn","municipality":{"key":"03151009","name":"Gifhorn, Stadt","type":"Stadt"},"district":{"key":"03151","name":"Gifhorn","type":"Landkreis"},"federalState":{"key":"03","name":"Niedersachsen"}},{"name":"Pommernring","postalCode":"38553","locality":"Wasbüttel","municipality":{"key":"03151037","name":"Wasbüttel","type":"Kreisangehörige_Gemeinde"},"district":{"key":"03151","name":"Gifhorn","type":"Landkreis"},"federalState":{"key":"03","name":"Niedersachsen"}},{"name":"Querkamp","postalCode":"38518","locality":"Gifhorn","municipality":{"key":"03151009","name":"Gifhorn, Stadt","type":"Stadt"},"district":{"key":"03151","name":"Gifhorn","type":"Landkreis"},"federalState":{"key":"03","name":"Niedersachsen"}},{"name":"Querweg","postalCode":"38518","locality":"Gifhorn","municipality":{"key":"03151009","name":"Gifhorn, Stadt","type":"Stadt"},"district":{"key":"03151","name":"Gifhorn","type":"Landkreis"},"federalState":{"key":"03","name":"Niedersachsen"}},{"name":"Rosenstr.","postalCode":"38553","locality":"Wasbüttel","municipality":{"key":"03151037","name":"Wasbüttel","type":"Kreisangehörige_Gemeinde"},"district":{"key":"03151","name":"Gifhorn","type":"Landkreis"},"federalState":{"key":"03","name":"Niedersachsen"}},{"name":"Rötgesbütteler Weg","postalCode":"38553","locality":"Wasbüttel","municipality":{"key":"03151037","name":"Wasbüttel","type":"Kreisangehörige_Gemeinde"},"district":{"key":"03151","name":"Gifhorn","type":"Landkreis"},"federalState":{"key":"03","name":"Niedersachsen"}},{"name":"Sandweg","postalCode":"38553","locality":"Wasbüttel","municipality":{"key":"03151037","name":"Wasbüttel","type":"Kreisangehörige_Gemeinde"},"district":{"key":"03151","name":"Gifhorn","type":"Landkreis"},"federalState":{"key":"03","name":"Niedersachsen"}},{"name":"Schlesierring","postalCode":"38553","locality":"Wasbüttel","municipality":{"key":"03151037","name":"Wasbüttel","type":"Kreisangehörige_Gemeinde"},"district":{"key":"03151","name":"Gifhorn","type":"Landkreis"},"federalState":{"key":"03","name":"Niedersachsen"}},{"name":"Schulstr.","postalCode":"38553","locality":"Wasbüttel","municipality":{"key":"03151037","name":"Wasbüttel","type":"Kreisangehörige_Gemeinde"},"district":{"key":"03151","name":"Gifhorn","type":"Landkreis"},"federalState":{"key":"03","name":"Niedersachsen"}},{"name":"Steinbruchweg","postalCode":"38553","locality":"Wasbüttel","municipality":{"key":"03151037","name":"Wasbüttel","type":"Kreisangehörige_Gemeinde"},"district":{"key":"03151","name":"Gifhorn","type":"Landkreis"},"federalState":{"key":"03","name":"Niedersachsen"}},{"name":"Tangermünder Str.","postalCode":"38518","locality":"Gifhorn","municipality":{"key":"03151009","name":"Gifhorn, Stadt","type":"Stadt"},"district":{"key":"03151","name":"Gifhorn","type":"Landkreis"},"federalState":{"key":"03","name":"Niedersachsen"}},{"name":"Tannengrund","postalCode":"38518","locality":"Gifhorn","municipality":{"key":"03151009","name":"Gifhorn, Stadt","type":"Stadt"},"district":{"key":"03151","name":"Gifhorn","type":"Landkreis"},"federalState":{"key":"03","name":"Niedersachsen"}},{"name":"Tegeler Str.","postalCode":"38518","locality":"Gifhorn","municipality":{"key":"03151009","name":"Gifhorn, Stadt","type":"Stadt"},"district":{"key":"03151","name":"Gifhorn","type":"Landkreis"},"federalState":{"key":"03","name":"Niedersachsen"}},{"name":"Teichwiesenweg","postalCode":"38518","locality":"Gifhorn","municipality":{"key":"03151009","name":"Gifhorn, Stadt","type":"Stadt"},"district":{"key":"03151","name":"Gifhorn","type":"Landkreis"},"federalState":{"key":"03","name":"Niedersachsen"}},{"name":"Tempelhofer Str.","postalCode":"38518","locality":"Gifhorn","municipality":{"key":"03151009","name":"Gifhorn, Stadt","type":"Stadt"},"district":{"key":"03151","name":"Gifhorn","type":"Landkreis"},"federalState":{"key":"03","name":"Niedersachsen"}},{"name":"Theodor-Heuss-Str.","postalCode":"38518","locality":"Gifhorn","municipality":{"key":"03151009","name":"Gifhorn, Stadt","type":"Stadt"},"district":{"key":"03151","name":"Gifhorn","type":"Landkreis"},"federalState":{"key":"03","name":"Niedersachsen"}},{"name":"Theodor-Menke-Str.","postalCode":"38518","locality":"Gifhorn","municipality":{"key":"03151009","name":"Gifhorn, Stadt","type":"Stadt"},"district":{"key":"03151","name":"Gifhorn","type":"Landkreis"},"federalState":{"key":"03","name":"Niedersachsen"}},{"name":"Tilsiter Str.","postalCode":"38518","locality":"Gifhorn","municipality":{"key":"03151009","name":"Gifhorn, Stadt","type":"Stadt"},"district":{"key":"03151","name":"Gifhorn","type":"Landkreis"},"federalState":{"key":"03","name":"Niedersachsen"}},{"name":"Tischlerstr.","postalCode":"38518","locality":"Gifhorn","municipality":{"key":"03151009","name":"Gifhorn, Stadt","type":"Stadt"},"district":{"key":"03151","name":"Gifhorn","type":"Landkreis"},"federalState":{"key":"03","name":"Niedersachsen"}},{"name":"Torstr.","postalCode":"38518","locality":"Gifhorn","municipality":{"key":"03151009","name":"Gifhorn, Stadt","type":"Stadt"},"district":{"key":"03151","name":"Gifhorn","type":"Landkreis"},"federalState":{"key":"03","name":"Niedersachsen"}},{"name":"Trakehnenweg","postalCode":"38518","locality":"Gifhorn","municipality":{"key":"03151009","name":"Gifhorn, Stadt","type":"Stadt"},"district":{"key":"03151","name":"Gifhorn","type":"Landkreis"},"federalState":{"key":"03","name":"Niedersachsen"}},{"name":"Tränkebergstr.","postalCode":"38518","locality":"Gifhorn","municipality":{"key":"03151009","name":"Gifhorn, Stadt","type":"Stadt"},"district":{"key":"03151","name":"Gifhorn","type":"Landkreis"},"federalState":{"key":"03","name":"Niedersachsen"}},{"name":"Treptower Str.","postalCode":"38518","locality":"Gifhorn","municipality":{"key":"03151009","name":"Gifhorn, Stadt","type":"Stadt"},"district":{"key":"03151","name":"Gifhorn","type":"Landkreis"},"federalState":{"key":"03","name":"Niedersachsen"}},{"name":"Trüffelweg","postalCode":"38518","locality":"Gifhorn","municipality":{"key":"03151009","name":"Gifhorn, Stadt","type":"Stadt"},"district":{"key":"03151","name":"Gifhorn","type":"Landkreis"},"federalState":{"key":"03","name":"Niedersachsen"}},{"name":"Tulpenweg","postalCode":"38518","locality":"Gifhorn","municipality":{"key":"03151009","name":"Gifhorn, Stadt","type":"Stadt"},"district":{"key":"03151","name":"Gifhorn","type":"Landkreis"},"federalState":{"key":"03","name":"Niedersachsen"}},{"name":"Tuunkamp","postalCode":"38518","locality":"Gifhorn","municipality":{"key":"03151009","name":"Gifhorn, Stadt","type":"Stadt"},"district":{"key":"03151","name":"Gifhorn","type":"Landkreis"},"federalState":{"key":"03","name":"Niedersachsen"}},{"name":"Tweete","postalCode":"38518","locality":"Gifhorn","municipality":{"key":"03151009","name":"Gifhorn, Stadt","type":"Stadt"},"district":{"key":"03151","name":"Gifhorn","type":"Landkreis"},"federalState":{"key":"03","name":"Niedersachsen"}},{"name":"Uhlandweg","postalCode":"38518","locality":"Gifhorn","municipality":{"key":"03151009","name":"Gifhorn, Stadt","type":"Stadt"},"district":{"key":"03151","name":"Gifhorn","type":"Landkreis"},"federalState":{"key":"03","name":"Niedersachsen"}},{"name":"Uhlenhorst","postalCode":"38518","locality":"Gifhorn","municipality":{"key":"03151009","name":"Gifhorn, Stadt","type":"Stadt"},"district":{"key":"03151","name":"Gifhorn","type":"Landkreis"},"federalState":{"key":"03","name":"Niedersachsen"}},{"name":"Ummersche Heerstr.","postalCode":"38518","locality":"Gifhorn","municipality":{"key":"03151009","name":"Gifhorn, Stadt","type":"Stadt"},"district":{"key":"03151","name":"Gifhorn","type":"Landkreis"},"federalState":{"key":"03","name":"Niedersachsen"}},{"name":"Vorderstes Feld","postalCode":"38553","locality":"Wasbüttel","municipality":{"key":"03151037","name":"Wasbüttel","type":"Kreisangehörige_Gemeinde"},"district":{"key":"03151","name":"Gifhorn","type":"Landkreis"},"federalState":{"key":"03","name":"Niedersachsen"}},{"name":"Waldweg","postalCode":"38553","locality":"Wasbüttel","municipality":{"key":"03151037","name":"Wasbüttel","type":"Kreisangehörige_Gemeinde"},"district":{"key":"03151","name":"Gifhorn","type":"Landkreis"},"federalState":{"key":"03","name":"Niedersachsen"}},{"name":"Westpreußenstr.","postalCode":"38553","locality":"Wasbüttel","municipality":{"key":"03151037","name":"Wasbüttel","type":"Kreisangehörige_Gemeinde"},"district":{"key":"03151","name":"Gifhorn","type":"Landkreis"},"federalState":{"key":"03","name":"Niedersachsen"}},{"name":"Xanthistr.","postalCode":"38518","locality":"Gifhorn","municipality":{"key":"03151009","name":"Gifhorn, Stadt","type":"Stadt"},"district":{"key":"03151","name":"Gifhorn","type":"Landkreis"},"federalState":{"key":"03","name":"Niedersachsen"}},{"name":"Zanderweg","postalCode":"38518","locality":"Gifhorn","municipality":{"key":"03151009","name":"Gifhorn, Stadt","type":"Stadt"},"district":{"key":"03151","name":"Gifhorn","type":"Landkreis"},"federalState":{"key":"03","name":"Niedersachsen"}},{"name":"Zeisigweg","postalCode":"38518","locality":"Gifhorn","municipality":{"key":"03151009","name":"Gifhorn, Stadt","type":"Stadt"},"district":{"key":"03151","name":"Gifhorn","type":"Landkreis"},"federalState":{"key":"03","name":"Niedersachsen"}},{"name":"Zickengasse","postalCode":"38518","locality":"Gifhorn","municipality":{"key":"03151009","name":"Gifhorn, Stadt","type":"Stadt"},"district":{"key":"03151","name":"Gifhorn","type":"Landkreis"},"federalState":{"key":"03","name":"Niedersachsen"}},{"name":"Zimmererstr.","postalCode":"38518","locality":"Gifhorn","municipality":{"key":"03151009","name":"Gifhorn, Stadt","type":"Stadt"},"district":{"key":"03151","name":"Gifhorn","type":"Landkreis"},"federalState":{"key":"03","name":"Niedersachsen"}},{"name":"Zu den Kikenfuhren","postalCode":"38518","locality":"Gifhorn","municipality":{"key":"03151009","name":"Gifhorn, Stadt","type":"Stadt"},"district":{"key":"03151","name":"Gifhorn","type":"Landkreis"},"federalState":{"key":"03","name":"Niedersachsen"}},{"name":"Zu den Mushoren","postalCode":"38518","locality":"Gifhorn","municipality":{"key":"03151009","name":"Gifhorn, Stadt","type":"Stadt"},"district":{"key":"03151","name":"Gifhorn","type":"Landkreis"},"federalState":{"key":"03","name":"Niedersachsen"}},{"name":"Zum Isetal","postalCode":"38518","locality":"Gifhorn","municipality":{"key":"03151009","name":"Gifhorn, Stadt","type":"Stadt"},"district":{"key":"03151","name":"Gifhorn","type":"Landkreis"},"federalState":{"key":"03","name":"Niedersachsen"}},{"name":"Zum Lehmbusch","postalCode":"38518","locality":"Gifhorn","municipality":{"key":"03151009","name":"Gifhorn, Stadt","type":"Stadt"},"district":{"key":"03151","name":"Gifhorn","type":"Landkreis"},"federalState":{"key":"03","name":"Niedersachsen"}},{"name":"Zum Luisenhof","postalCode":"38518","locality":"Gifhorn","municipality":{"key":"03151009","name":"Gifhorn, Stadt","type":"Stadt"},"district":{"key":"03151","name":"Gifhorn","type":"Landkreis"},"federalState":{"key":"03","name":"Niedersachsen"}},{"name":"Zur Allerwelle","postalCode":"38518","locality":"Gifhorn","municipality":{"key":"03151009","name":"Gifhorn, Stadt","type":"Stadt"},"district":{"key":"03151","name":"Gifhorn","type":"Landkreis"},"federalState":{"key":"03","name":"Niedersachsen"}},{"name":"Zur Alten Schmiede","postalCode":"38518","locality":"Gifhorn","municipality":{"key":"03151009","name":"Gifhorn, Stadt","type":"Stadt"},"district":{"key":"03151","name":"Gifhorn","type":"Landkreis"},"federalState":{"key":"03","name":"Niedersachsen"}},{"name":"Zur Dannheide","postalCode":"38518","locality":"Gifhorn","municipality":{"key":"03151009","name":"Gifhorn, Stadt","type":"Stadt"},"district":{"key":"03151","name":"Gifhorn","type":"Landkreis"},"federalState":{"key":"03","name":"Niedersachsen"}},{"name":"Zur Laage","postalCode":"38518","locality":"Gifhorn","municipality":{"key":"03151009","name":"Gifhorn, Stadt","type":"Stadt"},"district":{"key":"03151","name":"Gifhorn","type":"Landkreis"},"federalState":{"key":"03","name":"Niedersachsen"}},{"name":"Zur Lehmkuhle","postalCode":"38518","locality":"Gifhorn","municipality":{"key":"03151009","name":"Gifhorn, Stadt","type":"Stadt"},"district":{"key":"03151","name":"Gifhorn","type":"Landkreis"},"federalState":{"key":"03","name":"Niedersachsen"}},{"name":"Zur Roten Riede","postalCode":"38518","locality":"Gifhorn","municipality":{"key":"03151009","name":"Gifhorn, Stadt","type":"Stadt"},"district":{"key":"03151","name":"Gifhorn","type":"Landkreis"},"federalState":{"key":"03","name":"Niedersachsen"}},{"name":"Zur Silbereiche","postalCode":"38518","locality":"Gifhorn","municipality":{"key":"03151009","name":"Gifhorn, Stadt","type":"Stadt"},"district":{"key":"03151","name":"Gifhorn","type":"Landkreis"},"federalState":{"key":"03","name":"Niedersachsen"}},{"name":"Ährenweg","postalCode":"38518","locality":"Gifhorn","municipality":{"key":"03151009","name":"Gifhorn, Stadt","type":"Stadt"},"district":{"key":"03151","name":"Gifhorn","type":"Landkreis"},"federalState":{"key":"03","name":"Niedersachsen"}},]