[{"name":"Ahornweg","postalCode":"83558","locality":"Maitenbeth","municipality":{"key":"09183126","name":"Maitenbeth","type":"Kreisangehörige_Gemeinde"},"district":{"key":"09183","name":"Mühldorf a.Inn","type":"Landkreis"},"federalState":{"key":"09","name":"Bayern"}},{"name":"Albachinger Str.","postalCode":"83558","locality":"Maitenbeth","municipality":{"key":"09183126","name":"Maitenbeth","type":"Kreisangehörige_Gemeinde"},"district":{"key":"09183","name":"Mühldorf a.Inn","type":"Landkreis"},"federalState":{"key":"09","name":"Bayern"}},{"name":"Almbergweg","postalCode":"83558","locality":"Maitenbeth","municipality":{"key":"09183126","name":"Maitenbeth","type":"Kreisangehörige_Gemeinde"},"district":{"key":"09183","name":"Mühldorf a.Inn","type":"Landkreis"},"federalState":{"key":"09","name":"Bayern"}},{"name":"Am Breitmösl","postalCode":"83558","locality":"Maitenbeth","municipality":{"key":"09183126","name":"Maitenbeth","type":"Kreisangehörige_Gemeinde"},"district":{"key":"09183","name":"Mühldorf a.Inn","type":"Landkreis"},"federalState":{"key":"09","name":"Bayern"}},{"name":"Am Franzosenbach","postalCode":"83558","locality":"Maitenbeth","municipality":{"key":"09183126","name":"Maitenbeth","type":"Kreisangehörige_Gemeinde"},"district":{"key":"09183","name":"Mühldorf a.Inn","type":"Landkreis"},"federalState":{"key":"09","name":"Bayern"}},{"name":"Am Hölzl","postalCode":"83558","locality":"Maitenbeth","municipality":{"key":"09183126","name":"Maitenbeth","type":"Kreisangehörige_Gemeinde"},"district":{"key":"09183","name":"Mühldorf a.Inn","type":"Landkreis"},"federalState":{"key":"09","name":"Bayern"}},{"name":"Am Moränenhügel","postalCode":"83558","locality":"Maitenbeth","municipality":{"key":"09183126","name":"Maitenbeth","type":"Kreisangehörige_Gemeinde"},"district":{"key":"09183","name":"Mühldorf a.Inn","type":"Landkreis"},"federalState":{"key":"09","name":"Bayern"}},{"name":"Bäcker-Weiher-Weg","postalCode":"83558","locality":"Maitenbeth","municipality":{"key":"09183126","name":"Maitenbeth","type":"Kreisangehörige_Gemeinde"},"district":{"key":"09183","name":"Mühldorf a.Inn","type":"Landkreis"},"federalState":{"key":"09","name":"Bayern"}},{"name":"Bergholzweg","postalCode":"83558","locality":"Maitenbeth","municipality":{"key":"09183126","name":"Maitenbeth","type":"Kreisangehörige_Gemeinde"},"district":{"key":"09183","name":"Mühldorf a.Inn","type":"Landkreis"},"federalState":{"key":"09","name":"Bayern"}},{"name":"Bernreiter Weg","postalCode":"83558","locality":"Maitenbeth","municipality":{"key":"09183126","name":"Maitenbeth","type":"Kreisangehörige_Gemeinde"},"district":{"key":"09183","name":"Mühldorf a.Inn","type":"Landkreis"},"federalState":{"key":"09","name":"Bayern"}},{"name":"Birkenweg","postalCode":"83558","locality":"Maitenbeth","municipality":{"key":"09183126","name":"Maitenbeth","type":"Kreisangehörige_Gemeinde"},"district":{"key":"09183","name":"Mühldorf a.Inn","type":"Landkreis"},"federalState":{"key":"09","name":"Bayern"}},{"name":"Brand","postalCode":"83558","locality":"Maitenbeth","municipality":{"key":"09183126","name":"Maitenbeth","type":"Kreisangehörige_Gemeinde"},"district":{"key":"09183","name":"Mühldorf a.Inn","type":"Landkreis"},"federalState":{"key":"09","name":"Bayern"}},{"name":"Buchenbergweg","postalCode":"83558","locality":"Maitenbeth","municipality":{"key":"09183126","name":"Maitenbeth","type":"Kreisangehörige_Gemeinde"},"district":{"key":"09183","name":"Mühldorf a.Inn","type":"Landkreis"},"federalState":{"key":"09","name":"Bayern"}},{"name":"Buchenstr.","postalCode":"83558","locality":"Maitenbeth","municipality":{"key":"09183126","name":"Maitenbeth","type":"Kreisangehörige_Gemeinde"},"district":{"key":"09183","name":"Mühldorf a.Inn","type":"Landkreis"},"federalState":{"key":"09","name":"Bayern"}},{"name":"Dachsbaufahrtweg","postalCode":"83558","locality":"Maitenbeth","municipality":{"key":"09183126","name":"Maitenbeth","type":"Kreisangehörige_Gemeinde"},"district":{"key":"09183","name":"Mühldorf a.Inn","type":"Landkreis"},"federalState":{"key":"09","name":"Bayern"}},{"name":"Dötterlweg","postalCode":"83558","locality":"Maitenbeth","municipality":{"key":"09183126","name":"Maitenbeth","type":"Kreisangehörige_Gemeinde"},"district":{"key":"09183","name":"Mühldorf a.Inn","type":"Landkreis"},"federalState":{"key":"09","name":"Bayern"}},{"name":"Drosselweg","postalCode":"83558","locality":"Maitenbeth","municipality":{"key":"09183126","name":"Maitenbeth","type":"Kreisangehörige_Gemeinde"},"district":{"key":"09183","name":"Mühldorf a.Inn","type":"Landkreis"},"federalState":{"key":"09","name":"Bayern"}},{"name":"Eichenstr.","postalCode":"83558","locality":"Maitenbeth","municipality":{"key":"09183126","name":"Maitenbeth","type":"Kreisangehörige_Gemeinde"},"district":{"key":"09183","name":"Mühldorf a.Inn","type":"Landkreis"},"federalState":{"key":"09","name":"Bayern"}},{"name":"Erlenstr.","postalCode":"83558","locality":"Maitenbeth","municipality":{"key":"09183126","name":"Maitenbeth","type":"Kreisangehörige_Gemeinde"},"district":{"key":"09183","name":"Mühldorf a.Inn","type":"Landkreis"},"federalState":{"key":"09","name":"Bayern"}},{"name":"Erlmoosweg","postalCode":"83558","locality":"Maitenbeth","municipality":{"key":"09183126","name":"Maitenbeth","type":"Kreisangehörige_Gemeinde"},"district":{"key":"09183","name":"Mühldorf a.Inn","type":"Landkreis"},"federalState":{"key":"09","name":"Bayern"}},{"name":"Fahrnbacherweg","postalCode":"83558","locality":"Maitenbeth","municipality":{"key":"09183126","name":"Maitenbeth","type":"Kreisangehörige_Gemeinde"},"district":{"key":"09183","name":"Mühldorf a.Inn","type":"Landkreis"},"federalState":{"key":"09","name":"Bayern"}},{"name":"Falkenstr.","postalCode":"83558","locality":"Maitenbeth","municipality":{"key":"09183126","name":"Maitenbeth","type":"Kreisangehörige_Gemeinde"},"district":{"key":"09183","name":"Mühldorf a.Inn","type":"Landkreis"},"federalState":{"key":"09","name":"Bayern"}},{"name":"Fichtenstr.","postalCode":"83558","locality":"Maitenbeth","municipality":{"key":"09183126","name":"Maitenbeth","type":"Kreisangehörige_Gemeinde"},"district":{"key":"09183","name":"Mühldorf a.Inn","type":"Landkreis"},"federalState":{"key":"09","name":"Bayern"}},{"name":"Finkenstr.","postalCode":"83558","locality":"Maitenbeth","municipality":{"key":"09183126","name":"Maitenbeth","type":"Kreisangehörige_Gemeinde"},"district":{"key":"09183","name":"Mühldorf a.Inn","type":"Landkreis"},"federalState":{"key":"09","name":"Bayern"}},{"name":"Fleckweg","postalCode":"83558","locality":"Maitenbeth","municipality":{"key":"09183126","name":"Maitenbeth","type":"Kreisangehörige_Gemeinde"},"district":{"key":"09183","name":"Mühldorf a.Inn","type":"Landkreis"},"federalState":{"key":"09","name":"Bayern"}},{"name":"Föhrenweg","postalCode":"83558","locality":"Maitenbeth","municipality":{"key":"09183126","name":"Maitenbeth","type":"Kreisangehörige_Gemeinde"},"district":{"key":"09183","name":"Mühldorf a.Inn","type":"Landkreis"},"federalState":{"key":"09","name":"Bayern"}},{"name":"Friedhofstr.","postalCode":"83558","locality":"Maitenbeth","municipality":{"key":"09183126","name":"Maitenbeth","type":"Kreisangehörige_Gemeinde"},"district":{"key":"09183","name":"Mühldorf a.Inn","type":"Landkreis"},"federalState":{"key":"09","name":"Bayern"}},{"name":"Gleishüttenweg","postalCode":"83558","locality":"Maitenbeth","municipality":{"key":"09183126","name":"Maitenbeth","type":"Kreisangehörige_Gemeinde"},"district":{"key":"09183","name":"Mühldorf a.Inn","type":"Landkreis"},"federalState":{"key":"09","name":"Bayern"}},{"name":"Goldbrunnbogenweg","postalCode":"83558","locality":"Maitenbeth","municipality":{"key":"09183126","name":"Maitenbeth","type":"Kreisangehörige_Gemeinde"},"district":{"key":"09183","name":"Mühldorf a.Inn","type":"Landkreis"},"federalState":{"key":"09","name":"Bayern"}},{"name":"Goldbrunnweg","postalCode":"83558","locality":"Maitenbeth","municipality":{"key":"09183126","name":"Maitenbeth","type":"Kreisangehörige_Gemeinde"},"district":{"key":"09183","name":"Mühldorf a.Inn","type":"Landkreis"},"federalState":{"key":"09","name":"Bayern"}},{"name":"Grasstationweg","postalCode":"83558","locality":"Maitenbeth","municipality":{"key":"09183126","name":"Maitenbeth","type":"Kreisangehörige_Gemeinde"},"district":{"key":"09183","name":"Mühldorf a.Inn","type":"Landkreis"},"federalState":{"key":"09","name":"Bayern"}},{"name":"Grenz-Geräumt","postalCode":"83558","locality":"Maitenbeth","municipality":{"key":"09183126","name":"Maitenbeth","type":"Kreisangehörige_Gemeinde"},"district":{"key":"09183","name":"Mühldorf a.Inn","type":"Landkreis"},"federalState":{"key":"09","name":"Bayern"}},{"name":"Grieslweg","postalCode":"83558","locality":"Maitenbeth","municipality":{"key":"09183126","name":"Maitenbeth","type":"Kreisangehörige_Gemeinde"},"district":{"key":"09183","name":"Mühldorf a.Inn","type":"Landkreis"},"federalState":{"key":"09","name":"Bayern"}},{"name":"Hammerbergweg","postalCode":"83558","locality":"Maitenbeth","municipality":{"key":"09183126","name":"Maitenbeth","type":"Kreisangehörige_Gemeinde"},"district":{"key":"09183","name":"Mühldorf a.Inn","type":"Landkreis"},"federalState":{"key":"09","name":"Bayern"}},{"name":"Hangweg","postalCode":"83558","locality":"Maitenbeth","municipality":{"key":"09183126","name":"Maitenbeth","type":"Kreisangehörige_Gemeinde"},"district":{"key":"09183","name":"Mühldorf a.Inn","type":"Landkreis"},"federalState":{"key":"09","name":"Bayern"}},{"name":"Hauser Str.","postalCode":"83558","locality":"Maitenbeth","municipality":{"key":"09183126","name":"Maitenbeth","type":"Kreisangehörige_Gemeinde"},"district":{"key":"09183","name":"Mühldorf a.Inn","type":"Landkreis"},"federalState":{"key":"09","name":"Bayern"}},{"name":"Heilbrunner Weg","postalCode":"83558","locality":"Maitenbeth","municipality":{"key":"09183126","name":"Maitenbeth","type":"Kreisangehörige_Gemeinde"},"district":{"key":"09183","name":"Mühldorf a.Inn","type":"Landkreis"},"federalState":{"key":"09","name":"Bayern"}},{"name":"Heufahrt","postalCode":"83558","locality":"Maitenbeth","municipality":{"key":"09183126","name":"Maitenbeth","type":"Kreisangehörige_Gemeinde"},"district":{"key":"09183","name":"Mühldorf a.Inn","type":"Landkreis"},"federalState":{"key":"09","name":"Bayern"}},{"name":"Hirschweg","postalCode":"83558","locality":"Maitenbeth","municipality":{"key":"09183126","name":"Maitenbeth","type":"Kreisangehörige_Gemeinde"},"district":{"key":"09183","name":"Mühldorf a.Inn","type":"Landkreis"},"federalState":{"key":"09","name":"Bayern"}},{"name":"Hirschweglinie","postalCode":"83558","locality":"Maitenbeth","municipality":{"key":"09183126","name":"Maitenbeth","type":"Kreisangehörige_Gemeinde"},"district":{"key":"09183","name":"Mühldorf a.Inn","type":"Landkreis"},"federalState":{"key":"09","name":"Bayern"}},{"name":"Hohnerweg","postalCode":"83558","locality":"Maitenbeth","municipality":{"key":"09183126","name":"Maitenbeth","type":"Kreisangehörige_Gemeinde"},"district":{"key":"09183","name":"Mühldorf a.Inn","type":"Landkreis"},"federalState":{"key":"09","name":"Bayern"}},{"name":"Innach","postalCode":"83558","locality":"Maitenbeth","municipality":{"key":"09183126","name":"Maitenbeth","type":"Kreisangehörige_Gemeinde"},"district":{"key":"09183","name":"Mühldorf a.Inn","type":"Landkreis"},"federalState":{"key":"09","name":"Bayern"}},{"name":"Isener Str.","postalCode":"83558","locality":"Maitenbeth","municipality":{"key":"09183126","name":"Maitenbeth","type":"Kreisangehörige_Gemeinde"},"district":{"key":"09183","name":"Mühldorf a.Inn","type":"Landkreis"},"federalState":{"key":"09","name":"Bayern"}},{"name":"Kapellenweg","postalCode":"83558","locality":"Maitenbeth","municipality":{"key":"09183126","name":"Maitenbeth","type":"Kreisangehörige_Gemeinde"},"district":{"key":"09183","name":"Mühldorf a.Inn","type":"Landkreis"},"federalState":{"key":"09","name":"Bayern"}},{"name":"Kleinegelseeweg","postalCode":"83558","locality":"Maitenbeth","municipality":{"key":"09183126","name":"Maitenbeth","type":"Kreisangehörige_Gemeinde"},"district":{"key":"09183","name":"Mühldorf a.Inn","type":"Landkreis"},"federalState":{"key":"09","name":"Bayern"}},{"name":"Köhlerweg","postalCode":"83558","locality":"Maitenbeth","municipality":{"key":"09183126","name":"Maitenbeth","type":"Kreisangehörige_Gemeinde"},"district":{"key":"09183","name":"Mühldorf a.Inn","type":"Landkreis"},"federalState":{"key":"09","name":"Bayern"}},{"name":"Königslinie","postalCode":"83558","locality":"Maitenbeth","municipality":{"key":"09183126","name":"Maitenbeth","type":"Kreisangehörige_Gemeinde"},"district":{"key":"09183","name":"Mühldorf a.Inn","type":"Landkreis"},"federalState":{"key":"09","name":"Bayern"}},{"name":"Kornfeldstr.","postalCode":"83558","locality":"Maitenbeth","municipality":{"key":"09183126","name":"Maitenbeth","type":"Kreisangehörige_Gemeinde"},"district":{"key":"09183","name":"Mühldorf a.Inn","type":"Landkreis"},"federalState":{"key":"09","name":"Bayern"}},{"name":"Kramerbergweg","postalCode":"83558","locality":"Maitenbeth","municipality":{"key":"09183126","name":"Maitenbeth","type":"Kreisangehörige_Gemeinde"},"district":{"key":"09183","name":"Mühldorf a.Inn","type":"Landkreis"},"federalState":{"key":"09","name":"Bayern"}},{"name":"Lärchenstr.","postalCode":"83558","locality":"Maitenbeth","municipality":{"key":"09183126","name":"Maitenbeth","type":"Kreisangehörige_Gemeinde"},"district":{"key":"09183","name":"Mühldorf a.Inn","type":"Landkreis"},"federalState":{"key":"09","name":"Bayern"}},{"name":"Lugerweg","postalCode":"83558","locality":"Maitenbeth","municipality":{"key":"09183126","name":"Maitenbeth","type":"Kreisangehörige_Gemeinde"},"district":{"key":"09183","name":"Mühldorf a.Inn","type":"Landkreis"},"federalState":{"key":"09","name":"Bayern"}},{"name":"Neuweg","postalCode":"83558","locality":"Maitenbeth","municipality":{"key":"09183126","name":"Maitenbeth","type":"Kreisangehörige_Gemeinde"},"district":{"key":"09183","name":"Mühldorf a.Inn","type":"Landkreis"},"federalState":{"key":"09","name":"Bayern"}},{"name":"Nördlicher Grenzweg","postalCode":"83558","locality":"Maitenbeth","municipality":{"key":"09183126","name":"Maitenbeth","type":"Kreisangehörige_Gemeinde"},"district":{"key":"09183","name":"Mühldorf a.Inn","type":"Landkreis"},"federalState":{"key":"09","name":"Bayern"}},{"name":"Ottolinie","postalCode":"83558","locality":"Maitenbeth","municipality":{"key":"09183126","name":"Maitenbeth","type":"Kreisangehörige_Gemeinde"},"district":{"key":"09183","name":"Mühldorf a.Inn","type":"Landkreis"},"federalState":{"key":"09","name":"Bayern"}},{"name":"Pappelweg","postalCode":"83558","locality":"Maitenbeth","municipality":{"key":"09183126","name":"Maitenbeth","type":"Kreisangehörige_Gemeinde"},"district":{"key":"09183","name":"Mühldorf a.Inn","type":"Landkreis"},"federalState":{"key":"09","name":"Bayern"}},{"name":"Pfarranger","postalCode":"83558","locality":"Maitenbeth","municipality":{"key":"09183126","name":"Maitenbeth","type":"Kreisangehörige_Gemeinde"},"district":{"key":"09183","name":"Mühldorf a.Inn","type":"Landkreis"},"federalState":{"key":"09","name":"Bayern"}},{"name":"Pipelineweg","postalCode":"83558","locality":"Maitenbeth","municipality":{"key":"09183126","name":"Maitenbeth","type":"Kreisangehörige_Gemeinde"},"district":{"key":"09183","name":"Mühldorf a.Inn","type":"Landkreis"},"federalState":{"key":"09","name":"Bayern"}},{"name":"Quellenweg","postalCode":"83558","locality":"Maitenbeth","municipality":{"key":"09183126","name":"Maitenbeth","type":"Kreisangehörige_Gemeinde"},"district":{"key":"09183","name":"Mühldorf a.Inn","type":"Landkreis"},"federalState":{"key":"09","name":"Bayern"}},{"name":"Rankelschlagweg","postalCode":"83558","locality":"Maitenbeth","municipality":{"key":"09183126","name":"Maitenbeth","type":"Kreisangehörige_Gemeinde"},"district":{"key":"09183","name":"Mühldorf a.Inn","type":"Landkreis"},"federalState":{"key":"09","name":"Bayern"}},{"name":"Rückertsbichlweg","postalCode":"83558","locality":"Maitenbeth","municipality":{"key":"09183126","name":"Maitenbeth","type":"Kreisangehörige_Gemeinde"},"district":{"key":"09183","name":"Mühldorf a.Inn","type":"Landkreis"},"federalState":{"key":"09","name":"Bayern"}},{"name":"Rundweg","postalCode":"83558","locality":"Maitenbeth","municipality":{"key":"09183126","name":"Maitenbeth","type":"Kreisangehörige_Gemeinde"},"district":{"key":"09183","name":"Mühldorf a.Inn","type":"Landkreis"},"federalState":{"key":"09","name":"Bayern"}},{"name":"Schimmelbogenverbindungsweg","postalCode":"83558","locality":"Maitenbeth","municipality":{"key":"09183126","name":"Maitenbeth","type":"Kreisangehörige_Gemeinde"},"district":{"key":"09183","name":"Mühldorf a.Inn","type":"Landkreis"},"federalState":{"key":"09","name":"Bayern"}},{"name":"Schimmelbogenweg","postalCode":"83558","locality":"Maitenbeth","municipality":{"key":"09183126","name":"Maitenbeth","type":"Kreisangehörige_Gemeinde"},"district":{"key":"09183","name":"Mühldorf a.Inn","type":"Landkreis"},"federalState":{"key":"09","name":"Bayern"}},{"name":"Schmiedweg","postalCode":"83558","locality":"Maitenbeth","municipality":{"key":"09183126","name":"Maitenbeth","type":"Kreisangehörige_Gemeinde"},"district":{"key":"09183","name":"Mühldorf a.Inn","type":"Landkreis"},"federalState":{"key":"09","name":"Bayern"}},{"name":"Schönangerbruchweg","postalCode":"83558","locality":"Maitenbeth","municipality":{"key":"09183126","name":"Maitenbeth","type":"Kreisangehörige_Gemeinde"},"district":{"key":"09183","name":"Mühldorf a.Inn","type":"Landkreis"},"federalState":{"key":"09","name":"Bayern"}},{"name":"Schulstr.","postalCode":"83558","locality":"Maitenbeth","municipality":{"key":"09183126","name":"Maitenbeth","type":"Kreisangehörige_Gemeinde"},"district":{"key":"09183","name":"Mühldorf a.Inn","type":"Landkreis"},"federalState":{"key":"09","name":"Bayern"}},{"name":"Schwaigerweg","postalCode":"83558","locality":"Maitenbeth","municipality":{"key":"09183126","name":"Maitenbeth","type":"Kreisangehörige_Gemeinde"},"district":{"key":"09183","name":"Mühldorf a.Inn","type":"Landkreis"},"federalState":{"key":"09","name":"Bayern"}},{"name":"Sperlingweg","postalCode":"83558","locality":"Maitenbeth","municipality":{"key":"09183126","name":"Maitenbeth","type":"Kreisangehörige_Gemeinde"},"district":{"key":"09183","name":"Mühldorf a.Inn","type":"Landkreis"},"federalState":{"key":"09","name":"Bayern"}},{"name":"Steinweg","postalCode":"83558","locality":"Maitenbeth","municipality":{"key":"09183126","name":"Maitenbeth","type":"Kreisangehörige_Gemeinde"},"district":{"key":"09183","name":"Mühldorf a.Inn","type":"Landkreis"},"federalState":{"key":"09","name":"Bayern"}},{"name":"Straßmaierweg","postalCode":"83558","locality":"Maitenbeth","municipality":{"key":"09183126","name":"Maitenbeth","type":"Kreisangehörige_Gemeinde"},"district":{"key":"09183","name":"Mühldorf a.Inn","type":"Landkreis"},"federalState":{"key":"09","name":"Bayern"}},{"name":"Streufleckhüttenweg","postalCode":"83558","locality":"Maitenbeth","municipality":{"key":"09183126","name":"Maitenbeth","type":"Kreisangehörige_Gemeinde"},"district":{"key":"09183","name":"Mühldorf a.Inn","type":"Landkreis"},"federalState":{"key":"09","name":"Bayern"}},{"name":"Tannenstr.","postalCode":"83558","locality":"Maitenbeth","municipality":{"key":"09183126","name":"Maitenbeth","type":"Kreisangehörige_Gemeinde"},"district":{"key":"09183","name":"Mühldorf a.Inn","type":"Landkreis"},"federalState":{"key":"09","name":"Bayern"}},{"name":"Wagnerweg","postalCode":"83558","locality":"Maitenbeth","municipality":{"key":"09183126","name":"Maitenbeth","type":"Kreisangehörige_Gemeinde"},"district":{"key":"09183","name":"Mühldorf a.Inn","type":"Landkreis"},"federalState":{"key":"09","name":"Bayern"}},{"name":"Waldweg","postalCode":"83558","locality":"Maitenbeth","municipality":{"key":"09183126","name":"Maitenbeth","type":"Kreisangehörige_Gemeinde"},"district":{"key":"09183","name":"Mühldorf a.Inn","type":"Landkreis"},"federalState":{"key":"09","name":"Bayern"}},{"name":"Waldwinkel","postalCode":"83558","locality":"Maitenbeth","municipality":{"key":"09183126","name":"Maitenbeth","type":"Kreisangehörige_Gemeinde"},"district":{"key":"09183","name":"Mühldorf a.Inn","type":"Landkreis"},"federalState":{"key":"09","name":"Bayern"}},{"name":"Weihnachtsfütterungsweg","postalCode":"83558","locality":"Maitenbeth","municipality":{"key":"09183126","name":"Maitenbeth","type":"Kreisangehörige_Gemeinde"},"district":{"key":"09183","name":"Mühldorf a.Inn","type":"Landkreis"},"federalState":{"key":"09","name":"Bayern"}},{"name":"Weißer-Stein-Weg","postalCode":"83558","locality":"Maitenbeth","municipality":{"key":"09183126","name":"Maitenbeth","type":"Kreisangehörige_Gemeinde"},"district":{"key":"09183","name":"Mühldorf a.Inn","type":"Landkreis"},"federalState":{"key":"09","name":"Bayern"}},{"name":"Westl. Grenzweg","postalCode":"83558","locality":"Maitenbeth","municipality":{"key":"09183126","name":"Maitenbeth","type":"Kreisangehörige_Gemeinde"},"district":{"key":"09183","name":"Mühldorf a.Inn","type":"Landkreis"},"federalState":{"key":"09","name":"Bayern"}},{"name":"Wiesenweg","postalCode":"83558","locality":"Maitenbeth","municipality":{"key":"09183126","name":"Maitenbeth","type":"Kreisangehörige_Gemeinde"},"district":{"key":"09183","name":"Mühldorf a.Inn","type":"Landkreis"},"federalState":{"key":"09","name":"Bayern"}},{"name":"Wieserweg","postalCode":"83558","locality":"Maitenbeth","municipality":{"key":"09183126","name":"Maitenbeth","type":"Kreisangehörige_Gemeinde"},"district":{"key":"09183","name":"Mühldorf a.Inn","type":"Landkreis"},"federalState":{"key":"09","name":"Bayern"}},]