[{"name":"Amselweg 159 - 201","postalCode":"99189","locality":"Gebesee","municipality":{"key":"16068014","name":"Gebesee, Stadt","type":"Stadt"},"district":{"key":"16068","name":"Sömmerda","type":"Landkreis"},"federalState":{"key":"16","name":"Thüringen"}},{"name":"An der Gera","postalCode":"99189","locality":"Gebesee","municipality":{"key":"16068014","name":"Gebesee, Stadt","type":"Stadt"},"district":{"key":"16068","name":"Sömmerda","type":"Landkreis"},"federalState":{"key":"16","name":"Thüringen"}},{"name":"Andisleber Str.","postalCode":"99189","locality":"Gebesee","municipality":{"key":"16068014","name":"Gebesee, Stadt","type":"Stadt"},"district":{"key":"16068","name":"Sömmerda","type":"Landkreis"},"federalState":{"key":"16","name":"Thüringen"}},{"name":"Bahnstr.","postalCode":"99189","locality":"Gebesee","municipality":{"key":"16068014","name":"Gebesee, Stadt","type":"Stadt"},"district":{"key":"16068","name":"Sömmerda","type":"Landkreis"},"federalState":{"key":"16","name":"Thüringen"}},{"name":"Bornklingerhof","postalCode":"99189","locality":"Gebesee","municipality":{"key":"16068014","name":"Gebesee, Stadt","type":"Stadt"},"district":{"key":"16068","name":"Sömmerda","type":"Landkreis"},"federalState":{"key":"16","name":"Thüringen"}},{"name":"Burgenweg 1 - 14","postalCode":"99189","locality":"Gebesee","municipality":{"key":"16068014","name":"Gebesee, Stadt","type":"Stadt"},"district":{"key":"16068","name":"Sömmerda","type":"Landkreis"},"federalState":{"key":"16","name":"Thüringen"}},{"name":"Carl-Schleusing-Str.","postalCode":"99610","locality":"Sömmerda","municipality":{"key":"16068051","name":"Sömmerda, Stadt","type":"Stadt"},"district":{"key":"16068","name":"Sömmerda","type":"Landkreis"},"federalState":{"key":"16","name":"Thüringen"}},{"name":"Chausseegasse","postalCode":"99610","locality":"Sömmerda","municipality":{"key":"16068051","name":"Sömmerda, Stadt","type":"Stadt"},"district":{"key":"16068","name":"Sömmerda","type":"Landkreis"},"federalState":{"key":"16","name":"Thüringen"}},{"name":"Dachwiger Str.","postalCode":"99189","locality":"Gebesee","municipality":{"key":"16068014","name":"Gebesee, Stadt","type":"Stadt"},"district":{"key":"16068","name":"Sömmerda","type":"Landkreis"},"federalState":{"key":"16","name":"Thüringen"}},{"name":"Dammweg","postalCode":"99189","locality":"Gebesee","municipality":{"key":"16068014","name":"Gebesee, Stadt","type":"Stadt"},"district":{"key":"16068","name":"Sömmerda","type":"Landkreis"},"federalState":{"key":"16","name":"Thüringen"}},{"name":"Deichstr.","postalCode":"99189","locality":"Gebesee","municipality":{"key":"16068014","name":"Gebesee, Stadt","type":"Stadt"},"district":{"key":"16068","name":"Sömmerda","type":"Landkreis"},"federalState":{"key":"16","name":"Thüringen"}},{"name":"Drosselweg 251 - 295","postalCode":"99189","locality":"Gebesee","municipality":{"key":"16068014","name":"Gebesee, Stadt","type":"Stadt"},"district":{"key":"16068","name":"Sömmerda","type":"Landkreis"},"federalState":{"key":"16","name":"Thüringen"}},{"name":"Enge Gasse","postalCode":"99189","locality":"Gebesee","municipality":{"key":"16068014","name":"Gebesee, Stadt","type":"Stadt"},"district":{"key":"16068","name":"Sömmerda","type":"Landkreis"},"federalState":{"key":"16","name":"Thüringen"}},{"name":"Erfurter Str.","postalCode":"99189","locality":"Gebesee","municipality":{"key":"16068014","name":"Gebesee, Stadt","type":"Stadt"},"district":{"key":"16068","name":"Sömmerda","type":"Landkreis"},"federalState":{"key":"16","name":"Thüringen"}},{"name":"Ernst-Thälmann-Str.","postalCode":"99189","locality":"Gebesee","municipality":{"key":"16068014","name":"Gebesee, Stadt","type":"Stadt"},"district":{"key":"16068","name":"Sömmerda","type":"Landkreis"},"federalState":{"key":"16","name":"Thüringen"}},{"name":"Feldstr.","postalCode":"99189","locality":"Gebesee","municipality":{"key":"16068014","name":"Gebesee, Stadt","type":"Stadt"},"district":{"key":"16068","name":"Sömmerda","type":"Landkreis"},"federalState":{"key":"16","name":"Thüringen"}},{"name":"Finkenweg 202 - 250","postalCode":"99189","locality":"Gebesee","municipality":{"key":"16068014","name":"Gebesee, Stadt","type":"Stadt"},"district":{"key":"16068","name":"Sömmerda","type":"Landkreis"},"federalState":{"key":"16","name":"Thüringen"}},{"name":"Flur","postalCode":"99189","locality":"Gebesee","municipality":{"key":"16068014","name":"Gebesee, Stadt","type":"Stadt"},"district":{"key":"16068","name":"Sömmerda","type":"Landkreis"},"federalState":{"key":"16","name":"Thüringen"}},{"name":"Gartenstr.","postalCode":"99189","locality":"Gebesee","municipality":{"key":"16068014","name":"Gebesee, Stadt","type":"Stadt"},"district":{"key":"16068","name":"Sömmerda","type":"Landkreis"},"federalState":{"key":"16","name":"Thüringen"}},{"name":"Haßleber Str.","postalCode":"99189","locality":"Gebesee","municipality":{"key":"16068014","name":"Gebesee, Stadt","type":"Stadt"},"district":{"key":"16068","name":"Sömmerda","type":"Landkreis"},"federalState":{"key":"16","name":"Thüringen"}},{"name":"Haßlocher Str.","postalCode":"99189","locality":"Gebesee","municipality":{"key":"16068014","name":"Gebesee, Stadt","type":"Stadt"},"district":{"key":"16068","name":"Sömmerda","type":"Landkreis"},"federalState":{"key":"16","name":"Thüringen"}},{"name":"Herbslebener Weg","postalCode":"99189","locality":"Gebesee","municipality":{"key":"16068014","name":"Gebesee, Stadt","type":"Stadt"},"district":{"key":"16068","name":"Sömmerda","type":"Landkreis"},"federalState":{"key":"16","name":"Thüringen"}},{"name":"Johannesstr.","postalCode":"99189","locality":"Gebesee","municipality":{"key":"16068014","name":"Gebesee, Stadt","type":"Stadt"},"district":{"key":"16068","name":"Sömmerda","type":"Landkreis"},"federalState":{"key":"16","name":"Thüringen"}},{"name":"Karlstr.","postalCode":"99189","locality":"Gebesee","municipality":{"key":"16068014","name":"Gebesee, Stadt","type":"Stadt"},"district":{"key":"16068","name":"Sömmerda","type":"Landkreis"},"federalState":{"key":"16","name":"Thüringen"}},{"name":"Krokusweg","postalCode":"99189","locality":"Gebesee","municipality":{"key":"16068014","name":"Gebesee, Stadt","type":"Stadt"},"district":{"key":"16068","name":"Sömmerda","type":"Landkreis"},"federalState":{"key":"16","name":"Thüringen"}},{"name":"Lange Str.","postalCode":"99189","locality":"Gebesee","municipality":{"key":"16068014","name":"Gebesee, Stadt","type":"Stadt"},"district":{"key":"16068","name":"Sömmerda","type":"Landkreis"},"federalState":{"key":"16","name":"Thüringen"}},{"name":"Marktplatz","postalCode":"99189","locality":"Gebesee","municipality":{"key":"16068014","name":"Gebesee, Stadt","type":"Stadt"},"district":{"key":"16068","name":"Sömmerda","type":"Landkreis"},"federalState":{"key":"16","name":"Thüringen"}},{"name":"Marktstr.","postalCode":"99189","locality":"Gebesee","municipality":{"key":"16068014","name":"Gebesee, Stadt","type":"Stadt"},"district":{"key":"16068","name":"Sömmerda","type":"Landkreis"},"federalState":{"key":"16","name":"Thüringen"}},{"name":"Mittelstr.","postalCode":"99189","locality":"Gebesee","municipality":{"key":"16068014","name":"Gebesee, Stadt","type":"Stadt"},"district":{"key":"16068","name":"Sömmerda","type":"Landkreis"},"federalState":{"key":"16","name":"Thüringen"}},{"name":"Mühlstr.","postalCode":"99189","locality":"Gebesee","municipality":{"key":"16068014","name":"Gebesee, Stadt","type":"Stadt"},"district":{"key":"16068","name":"Sömmerda","type":"Landkreis"},"federalState":{"key":"16","name":"Thüringen"}},{"name":"Nordhäuser Str.","postalCode":"99189","locality":"Gebesee","municipality":{"key":"16068014","name":"Gebesee, Stadt","type":"Stadt"},"district":{"key":"16068","name":"Sömmerda","type":"Landkreis"},"federalState":{"key":"16","name":"Thüringen"}},{"name":"Obere Kirchgasse","postalCode":"99610","locality":"Sömmerda","municipality":{"key":"16068051","name":"Sömmerda, Stadt","type":"Stadt"},"district":{"key":"16068","name":"Sömmerda","type":"Landkreis"},"federalState":{"key":"16","name":"Thüringen"}},{"name":"Offenhainer Str.","postalCode":"99610","locality":"Sömmerda","municipality":{"key":"16068051","name":"Sömmerda, Stadt","type":"Stadt"},"district":{"key":"16068","name":"Sömmerda","type":"Landkreis"},"federalState":{"key":"16","name":"Thüringen"}},{"name":"Ortsumfahrung Sömmerda","postalCode":"99610","locality":"Sömmerda","municipality":{"key":"16068051","name":"Sömmerda, Stadt","type":"Stadt"},"district":{"key":"16068","name":"Sömmerda","type":"Landkreis"},"federalState":{"key":"16","name":"Thüringen"}},{"name":"Otto-Jessing-Str.","postalCode":"99610","locality":"Sömmerda","municipality":{"key":"16068051","name":"Sömmerda, Stadt","type":"Stadt"},"district":{"key":"16068","name":"Sömmerda","type":"Landkreis"},"federalState":{"key":"16","name":"Thüringen"}},{"name":"Pfarrgasse","postalCode":"99189","locality":"Gebesee","municipality":{"key":"16068014","name":"Gebesee, Stadt","type":"Stadt"},"district":{"key":"16068","name":"Sömmerda","type":"Landkreis"},"federalState":{"key":"16","name":"Thüringen"}},{"name":"Quergasse","postalCode":"99189","locality":"Gebesee","municipality":{"key":"16068014","name":"Gebesee, Stadt","type":"Stadt"},"district":{"key":"16068","name":"Sömmerda","type":"Landkreis"},"federalState":{"key":"16","name":"Thüringen"}},{"name":"Ringlebener Str.","postalCode":"99189","locality":"Gebesee","municipality":{"key":"16068014","name":"Gebesee, Stadt","type":"Stadt"},"district":{"key":"16068","name":"Sömmerda","type":"Landkreis"},"federalState":{"key":"16","name":"Thüringen"}},{"name":"Robert-Koch-Str.","postalCode":"99189","locality":"Gebesee","municipality":{"key":"16068014","name":"Gebesee, Stadt","type":"Stadt"},"district":{"key":"16068","name":"Sömmerda","type":"Landkreis"},"federalState":{"key":"16","name":"Thüringen"}},{"name":"Rudolfstr.","postalCode":"99189","locality":"Gebesee","municipality":{"key":"16068014","name":"Gebesee, Stadt","type":"Stadt"},"district":{"key":"16068","name":"Sömmerda","type":"Landkreis"},"federalState":{"key":"16","name":"Thüringen"}},{"name":"Scheunenweg","postalCode":"99189","locality":"Gebesee","municipality":{"key":"16068014","name":"Gebesee, Stadt","type":"Stadt"},"district":{"key":"16068","name":"Sömmerda","type":"Landkreis"},"federalState":{"key":"16","name":"Thüringen"}},{"name":"Schulstr.","postalCode":"99189","locality":"Gebesee","municipality":{"key":"16068014","name":"Gebesee, Stadt","type":"Stadt"},"district":{"key":"16068","name":"Sömmerda","type":"Landkreis"},"federalState":{"key":"16","name":"Thüringen"}},{"name":"Siedlung","postalCode":"99189","locality":"Gebesee","municipality":{"key":"16068014","name":"Gebesee, Stadt","type":"Stadt"},"district":{"key":"16068","name":"Sömmerda","type":"Landkreis"},"federalState":{"key":"16","name":"Thüringen"}},{"name":"Siedlungsweg","postalCode":"99189","locality":"Gebesee","municipality":{"key":"16068014","name":"Gebesee, Stadt","type":"Stadt"},"district":{"key":"16068","name":"Sömmerda","type":"Landkreis"},"federalState":{"key":"16","name":"Thüringen"}},{"name":"Theo-Neubauer-Str.","postalCode":"99189","locality":"Gebesee","municipality":{"key":"16068014","name":"Gebesee, Stadt","type":"Stadt"},"district":{"key":"16068","name":"Sömmerda","type":"Landkreis"},"federalState":{"key":"16","name":"Thüringen"}},{"name":"Thomas-Müntzer-Str.","postalCode":"99189","locality":"Gebesee","municipality":{"key":"16068014","name":"Gebesee, Stadt","type":"Stadt"},"district":{"key":"16068","name":"Sömmerda","type":"Landkreis"},"federalState":{"key":"16","name":"Thüringen"}},{"name":"Torwand","postalCode":"99189","locality":"Gebesee","municipality":{"key":"16068014","name":"Gebesee, Stadt","type":"Stadt"},"district":{"key":"16068","name":"Sömmerda","type":"Landkreis"},"federalState":{"key":"16","name":"Thüringen"}},{"name":"Trift","postalCode":"99189","locality":"Gebesee","municipality":{"key":"16068014","name":"Gebesee, Stadt","type":"Stadt"},"district":{"key":"16068","name":"Sömmerda","type":"Landkreis"},"federalState":{"key":"16","name":"Thüringen"}},{"name":"Uhlandstr.","postalCode":"99610","locality":"Sömmerda","municipality":{"key":"16068051","name":"Sömmerda, Stadt","type":"Stadt"},"district":{"key":"16068","name":"Sömmerda","type":"Landkreis"},"federalState":{"key":"16","name":"Thüringen"}},{"name":"Ulmenweg","postalCode":"99610","locality":"Sömmerda","municipality":{"key":"16068051","name":"Sömmerda, Stadt","type":"Stadt"},"district":{"key":"16068","name":"Sömmerda","type":"Landkreis"},"federalState":{"key":"16","name":"Thüringen"}},{"name":"Untere Brückenstr.","postalCode":"99610","locality":"Sömmerda","municipality":{"key":"16068051","name":"Sömmerda, Stadt","type":"Stadt"},"district":{"key":"16068","name":"Sömmerda","type":"Landkreis"},"federalState":{"key":"16","name":"Thüringen"}},{"name":"Untere Kirchgasse","postalCode":"99610","locality":"Sömmerda","municipality":{"key":"16068051","name":"Sömmerda, Stadt","type":"Stadt"},"district":{"key":"16068","name":"Sömmerda","type":"Landkreis"},"federalState":{"key":"16","name":"Thüringen"}},{"name":"Uthmannstr.","postalCode":"99610","locality":"Sömmerda","municipality":{"key":"16068051","name":"Sömmerda, Stadt","type":"Stadt"},"district":{"key":"16068","name":"Sömmerda","type":"Landkreis"},"federalState":{"key":"16","name":"Thüringen"}},{"name":"Vieselbacher Str.","postalCode":"99610","locality":"Sömmerda","municipality":{"key":"16068051","name":"Sömmerda, Stadt","type":"Stadt"},"district":{"key":"16068","name":"Sömmerda","type":"Landkreis"},"federalState":{"key":"16","name":"Thüringen"}},{"name":"Volkswohlstr.","postalCode":"99610","locality":"Sömmerda","municipality":{"key":"16068051","name":"Sömmerda, Stadt","type":"Stadt"},"district":{"key":"16068","name":"Sömmerda","type":"Landkreis"},"federalState":{"key":"16","name":"Thüringen"}},{"name":"Vorderstr.","postalCode":"99610","locality":"Sömmerda","municipality":{"key":"16068051","name":"Sömmerda, Stadt","type":"Stadt"},"district":{"key":"16068","name":"Sömmerda","type":"Landkreis"},"federalState":{"key":"16","name":"Thüringen"}},{"name":"Walschleber Str.","postalCode":"99189","locality":"Gebesee","municipality":{"key":"16068014","name":"Gebesee, Stadt","type":"Stadt"},"district":{"key":"16068","name":"Sömmerda","type":"Landkreis"},"federalState":{"key":"16","name":"Thüringen"}},{"name":"Zum Bahnhof","postalCode":"99610","locality":"Sömmerda","municipality":{"key":"16068051","name":"Sömmerda, Stadt","type":"Stadt"},"district":{"key":"16068","name":"Sömmerda","type":"Landkreis"},"federalState":{"key":"16","name":"Thüringen"}},{"name":"Zum Plan","postalCode":"99625","locality":"Sömmerda","municipality":{"key":"16068051","name":"Sömmerda, Stadt","type":"Stadt"},"district":{"key":"16068","name":"Sömmerda","type":"Landkreis"},"federalState":{"key":"16","name":"Thüringen"}},{"name":"Zwirnsgasse","postalCode":"99610","locality":"Sömmerda","municipality":{"key":"16068051","name":"Sömmerda, Stadt","type":"Stadt"},"district":{"key":"16068","name":"Sömmerda","type":"Landkreis"},"federalState":{"key":"16","name":"Thüringen"}},]