[{"name":"Am Dörrling","postalCode":"67273","locality":"Herxheim am Berg","municipality":{"key":"07332026","name":"Herxheim am Berg","type":"Kreisangehörige_Gemeinde"},"district":{"key":"07332","name":"Bad Dürkheim","type":"Landkreis"},"federalState":{"key":"07","name":"Rheinland-Pfalz"}},{"name":"Am Felsenberg","postalCode":"67273","locality":"Herxheim am Berg","municipality":{"key":"07332026","name":"Herxheim am Berg","type":"Kreisangehörige_Gemeinde"},"district":{"key":"07332","name":"Bad Dürkheim","type":"Landkreis"},"federalState":{"key":"07","name":"Rheinland-Pfalz"}},{"name":"Am Goldberg","postalCode":"67273","locality":"Herxheim am Berg","municipality":{"key":"07332026","name":"Herxheim am Berg","type":"Kreisangehörige_Gemeinde"},"district":{"key":"07332","name":"Bad Dürkheim","type":"Landkreis"},"federalState":{"key":"07","name":"Rheinland-Pfalz"}},{"name":"Bacchusweg","postalCode":"67098","locality":"Bad Dürkheim","municipality":{"key":"07332002","name":"Bad Dürkheim, Stadt","type":"Stadt"},"district":{"key":"07332","name":"Bad Dürkheim","type":"Landkreis"},"federalState":{"key":"07","name":"Rheinland-Pfalz"}},{"name":"Bad Dürkheim, Bahnhof","postalCode":"67098","locality":"Bad Dürkheim","municipality":{"key":"07332002","name":"Bad Dürkheim, Stadt","type":"Stadt"},"district":{"key":"07332","name":"Bad Dürkheim","type":"Landkreis"},"federalState":{"key":"07","name":"Rheinland-Pfalz"}},{"name":"Bahnhofsplatz","postalCode":"67098","locality":"Bad Dürkheim","municipality":{"key":"07332002","name":"Bad Dürkheim, Stadt","type":"Stadt"},"district":{"key":"07332","name":"Bad Dürkheim","type":"Landkreis"},"federalState":{"key":"07","name":"Rheinland-Pfalz"}},{"name":"Becher-Brücke","postalCode":"67098","locality":"Bad Dürkheim","municipality":{"key":"07332002","name":"Bad Dürkheim, Stadt","type":"Stadt"},"district":{"key":"07332","name":"Bad Dürkheim","type":"Landkreis"},"federalState":{"key":"07","name":"Rheinland-Pfalz"}},{"name":"Beethovenstr.","postalCode":"67098","locality":"Bad Dürkheim","municipality":{"key":"07332002","name":"Bad Dürkheim, Stadt","type":"Stadt"},"district":{"key":"07332","name":"Bad Dürkheim","type":"Landkreis"},"federalState":{"key":"07","name":"Rheinland-Pfalz"}},{"name":"Berliner Str.","postalCode":"67098","locality":"Bad Dürkheim","municipality":{"key":"07332002","name":"Bad Dürkheim, Stadt","type":"Stadt"},"district":{"key":"07332","name":"Bad Dürkheim","type":"Landkreis"},"federalState":{"key":"07","name":"Rheinland-Pfalz"}},{"name":"Berntal","postalCode":"67098","locality":"Bad Dürkheim","municipality":{"key":"07332002","name":"Bad Dürkheim, Stadt","type":"Stadt"},"district":{"key":"07332","name":"Bad Dürkheim","type":"Landkreis"},"federalState":{"key":"07","name":"Rheinland-Pfalz"}},{"name":"Birkental","postalCode":"67098","locality":"Bad Dürkheim","municipality":{"key":"07332002","name":"Bad Dürkheim, Stadt","type":"Stadt"},"district":{"key":"07332","name":"Bad Dürkheim","type":"Landkreis"},"federalState":{"key":"07","name":"Rheinland-Pfalz"}},{"name":"Bleicheweg","postalCode":"67098","locality":"Bad Dürkheim","municipality":{"key":"07332002","name":"Bad Dürkheim, Stadt","type":"Stadt"},"district":{"key":"07332","name":"Bad Dürkheim","type":"Landkreis"},"federalState":{"key":"07","name":"Rheinland-Pfalz"}},{"name":"Blumenbrücke","postalCode":"67098","locality":"Bad Dürkheim","municipality":{"key":"07332002","name":"Bad Dürkheim, Stadt","type":"Stadt"},"district":{"key":"07332","name":"Bad Dürkheim","type":"Landkreis"},"federalState":{"key":"07","name":"Rheinland-Pfalz"}},{"name":"Breslauer Str.","postalCode":"67098","locality":"Bad Dürkheim","municipality":{"key":"07332002","name":"Bad Dürkheim, Stadt","type":"Stadt"},"district":{"key":"07332","name":"Bad Dürkheim","type":"Landkreis"},"federalState":{"key":"07","name":"Rheinland-Pfalz"}},{"name":"Bruchstr.","postalCode":"67098","locality":"Bad Dürkheim","municipality":{"key":"07332002","name":"Bad Dürkheim, Stadt","type":"Stadt"},"district":{"key":"07332","name":"Bad Dürkheim","type":"Landkreis"},"federalState":{"key":"07","name":"Rheinland-Pfalz"}},{"name":"Brunnengasse","postalCode":"67098","locality":"Bad Dürkheim","municipality":{"key":"07332002","name":"Bad Dürkheim, Stadt","type":"Stadt"},"district":{"key":"07332","name":"Bad Dürkheim","type":"Landkreis"},"federalState":{"key":"07","name":"Rheinland-Pfalz"}},{"name":"Buchenweg","postalCode":"67098","locality":"Bad Dürkheim","municipality":{"key":"07332002","name":"Bad Dürkheim, Stadt","type":"Stadt"},"district":{"key":"07332","name":"Bad Dürkheim","type":"Landkreis"},"federalState":{"key":"07","name":"Rheinland-Pfalz"}},{"name":"Bürgermeister-Doktor-Dahlem-Str.","postalCode":"67098","locality":"Bad Dürkheim","municipality":{"key":"07332002","name":"Bad Dürkheim, Stadt","type":"Stadt"},"district":{"key":"07332","name":"Bad Dürkheim","type":"Landkreis"},"federalState":{"key":"07","name":"Rheinland-Pfalz"}},{"name":"Bürgermeister-Gropp-Str.","postalCode":"67098","locality":"Bad Dürkheim","municipality":{"key":"07332002","name":"Bad Dürkheim, Stadt","type":"Stadt"},"district":{"key":"07332","name":"Bad Dürkheim","type":"Landkreis"},"federalState":{"key":"07","name":"Rheinland-Pfalz"}},{"name":"Burgstr.","postalCode":"67098","locality":"Bad Dürkheim","municipality":{"key":"07332002","name":"Bad Dürkheim, Stadt","type":"Stadt"},"district":{"key":"07332","name":"Bad Dürkheim","type":"Landkreis"},"federalState":{"key":"07","name":"Rheinland-Pfalz"}},{"name":"Burgunderweg","postalCode":"67098","locality":"Bad Dürkheim","municipality":{"key":"07332002","name":"Bad Dürkheim, Stadt","type":"Stadt"},"district":{"key":"07332","name":"Bad Dürkheim","type":"Landkreis"},"federalState":{"key":"07","name":"Rheinland-Pfalz"}},{"name":"Carl-Korbmann-Str.","postalCode":"67098","locality":"Bad Dürkheim","municipality":{"key":"07332002","name":"Bad Dürkheim, Stadt","type":"Stadt"},"district":{"key":"07332","name":"Bad Dürkheim","type":"Landkreis"},"federalState":{"key":"07","name":"Rheinland-Pfalz"}},{"name":"Chemnitzer Str.","postalCode":"67098","locality":"Bad Dürkheim","municipality":{"key":"07332002","name":"Bad Dürkheim, Stadt","type":"Stadt"},"district":{"key":"07332","name":"Bad Dürkheim","type":"Landkreis"},"federalState":{"key":"07","name":"Rheinland-Pfalz"}},{"name":"Dackenheimer Weg","postalCode":"67273","locality":"Herxheim am Berg","municipality":{"key":"07332026","name":"Herxheim am Berg","type":"Kreisangehörige_Gemeinde"},"district":{"key":"07332","name":"Bad Dürkheim","type":"Landkreis"},"federalState":{"key":"07","name":"Rheinland-Pfalz"}},{"name":"Eduard-Jost-Str.","postalCode":"67098","locality":"Bad Dürkheim","municipality":{"key":"07332002","name":"Bad Dürkheim, Stadt","type":"Stadt"},"district":{"key":"07332","name":"Bad Dürkheim","type":"Landkreis"},"federalState":{"key":"07","name":"Rheinland-Pfalz"}},{"name":"Eichenplatz","postalCode":"67098","locality":"Bad Dürkheim","municipality":{"key":"07332002","name":"Bad Dürkheim, Stadt","type":"Stadt"},"district":{"key":"07332","name":"Bad Dürkheim","type":"Landkreis"},"federalState":{"key":"07","name":"Rheinland-Pfalz"}},{"name":"Eichstr.","postalCode":"67098","locality":"Bad Dürkheim","municipality":{"key":"07332002","name":"Bad Dürkheim, Stadt","type":"Stadt"},"district":{"key":"07332","name":"Bad Dürkheim","type":"Landkreis"},"federalState":{"key":"07","name":"Rheinland-Pfalz"}},{"name":"Entengasse","postalCode":"67098","locality":"Bad Dürkheim","municipality":{"key":"07332002","name":"Bad Dürkheim, Stadt","type":"Stadt"},"district":{"key":"07332","name":"Bad Dürkheim","type":"Landkreis"},"federalState":{"key":"07","name":"Rheinland-Pfalz"}},{"name":"Erlenweg","postalCode":"67098","locality":"Bad Dürkheim","municipality":{"key":"07332002","name":"Bad Dürkheim, Stadt","type":"Stadt"},"district":{"key":"07332","name":"Bad Dürkheim","type":"Landkreis"},"federalState":{"key":"07","name":"Rheinland-Pfalz"}},{"name":"Erpolzheimer Str.","postalCode":"67098","locality":"Bad Dürkheim","municipality":{"key":"07332002","name":"Bad Dürkheim, Stadt","type":"Stadt"},"district":{"key":"07332","name":"Bad Dürkheim","type":"Landkreis"},"federalState":{"key":"07","name":"Rheinland-Pfalz"}},{"name":"Eschenweg","postalCode":"67098","locality":"Bad Dürkheim","municipality":{"key":"07332002","name":"Bad Dürkheim, Stadt","type":"Stadt"},"district":{"key":"07332","name":"Bad Dürkheim","type":"Landkreis"},"federalState":{"key":"07","name":"Rheinland-Pfalz"}},{"name":"Friedhofstr.","postalCode":"67273","locality":"Herxheim am Berg","municipality":{"key":"07332026","name":"Herxheim am Berg","type":"Kreisangehörige_Gemeinde"},"district":{"key":"07332","name":"Bad Dürkheim","type":"Landkreis"},"federalState":{"key":"07","name":"Rheinland-Pfalz"}},{"name":"Gartenstr.","postalCode":"67273","locality":"Herxheim am Berg","municipality":{"key":"07332026","name":"Herxheim am Berg","type":"Kreisangehörige_Gemeinde"},"district":{"key":"07332","name":"Bad Dürkheim","type":"Landkreis"},"federalState":{"key":"07","name":"Rheinland-Pfalz"}},{"name":"Hauptstr.","postalCode":"67273","locality":"Herxheim am Berg","municipality":{"key":"07332026","name":"Herxheim am Berg","type":"Kreisangehörige_Gemeinde"},"district":{"key":"07332","name":"Bad Dürkheim","type":"Landkreis"},"federalState":{"key":"07","name":"Rheinland-Pfalz"}},{"name":"Im Bellengarten","postalCode":"67273","locality":"Herxheim am Berg","municipality":{"key":"07332026","name":"Herxheim am Berg","type":"Kreisangehörige_Gemeinde"},"district":{"key":"07332","name":"Bad Dürkheim","type":"Landkreis"},"federalState":{"key":"07","name":"Rheinland-Pfalz"}},{"name":"Im Eulengeschrei","postalCode":"67273","locality":"Herxheim am Berg","municipality":{"key":"07332026","name":"Herxheim am Berg","type":"Kreisangehörige_Gemeinde"},"district":{"key":"07332","name":"Bad Dürkheim","type":"Landkreis"},"federalState":{"key":"07","name":"Rheinland-Pfalz"}},{"name":"Jahnstr.","postalCode":"67098","locality":"Bad Dürkheim","municipality":{"key":"07332002","name":"Bad Dürkheim, Stadt","type":"Stadt"},"district":{"key":"07332","name":"Bad Dürkheim","type":"Landkreis"},"federalState":{"key":"07","name":"Rheinland-Pfalz"}},{"name":"Jan-Daniel-Georgens-Str.","postalCode":"67098","locality":"Bad Dürkheim","municipality":{"key":"07332002","name":"Bad Dürkheim, Stadt","type":"Stadt"},"district":{"key":"07332","name":"Bad Dürkheim","type":"Landkreis"},"federalState":{"key":"07","name":"Rheinland-Pfalz"}},{"name":"Jasminring","postalCode":"67098","locality":"Bad Dürkheim","municipality":{"key":"07332002","name":"Bad Dürkheim, Stadt","type":"Stadt"},"district":{"key":"07332","name":"Bad Dürkheim","type":"Landkreis"},"federalState":{"key":"07","name":"Rheinland-Pfalz"}},{"name":"Kaiserslauterer Str.","postalCode":"67098","locality":"Bad Dürkheim","municipality":{"key":"07332002","name":"Bad Dürkheim, Stadt","type":"Stadt"},"district":{"key":"07332","name":"Bad Dürkheim","type":"Landkreis"},"federalState":{"key":"07","name":"Rheinland-Pfalz"}},{"name":"Kallstadter Str.","postalCode":"67098","locality":"Bad Dürkheim","municipality":{"key":"07332002","name":"Bad Dürkheim, Stadt","type":"Stadt"},"district":{"key":"07332","name":"Bad Dürkheim","type":"Landkreis"},"federalState":{"key":"07","name":"Rheinland-Pfalz"}},{"name":"Kanalstr.","postalCode":"67098","locality":"Bad Dürkheim","municipality":{"key":"07332002","name":"Bad Dürkheim, Stadt","type":"Stadt"},"district":{"key":"07332","name":"Bad Dürkheim","type":"Landkreis"},"federalState":{"key":"07","name":"Rheinland-Pfalz"}},{"name":"Karl-Kück-Str.","postalCode":"67098","locality":"Bad Dürkheim","municipality":{"key":"07332002","name":"Bad Dürkheim, Stadt","type":"Stadt"},"district":{"key":"07332","name":"Bad Dürkheim","type":"Landkreis"},"federalState":{"key":"07","name":"Rheinland-Pfalz"}},{"name":"Karl-Räder-Allee","postalCode":"67098","locality":"Bad Dürkheim","municipality":{"key":"07332002","name":"Bad Dürkheim, Stadt","type":"Stadt"},"district":{"key":"07332","name":"Bad Dürkheim","type":"Landkreis"},"federalState":{"key":"07","name":"Rheinland-Pfalz"}},{"name":"Karlsweg","postalCode":"67098","locality":"Bad Dürkheim","municipality":{"key":"07332002","name":"Bad Dürkheim, Stadt","type":"Stadt"},"district":{"key":"07332","name":"Bad Dürkheim","type":"Landkreis"},"federalState":{"key":"07","name":"Rheinland-Pfalz"}},{"name":"Kastaniengasse","postalCode":"67098","locality":"Bad Dürkheim","municipality":{"key":"07332002","name":"Bad Dürkheim, Stadt","type":"Stadt"},"district":{"key":"07332","name":"Bad Dürkheim","type":"Landkreis"},"federalState":{"key":"07","name":"Rheinland-Pfalz"}},{"name":"Kastanienweg","postalCode":"67098","locality":"Bad Dürkheim","municipality":{"key":"07332002","name":"Bad Dürkheim, Stadt","type":"Stadt"},"district":{"key":"07332","name":"Bad Dürkheim","type":"Landkreis"},"federalState":{"key":"07","name":"Rheinland-Pfalz"}},{"name":"Kemptener Str.","postalCode":"67098","locality":"Bad Dürkheim","municipality":{"key":"07332002","name":"Bad Dürkheim, Stadt","type":"Stadt"},"district":{"key":"07332","name":"Bad Dürkheim","type":"Landkreis"},"federalState":{"key":"07","name":"Rheinland-Pfalz"}},{"name":"Kirchstr.","postalCode":"67098","locality":"Bad Dürkheim","municipality":{"key":"07332002","name":"Bad Dürkheim, Stadt","type":"Stadt"},"district":{"key":"07332","name":"Bad Dürkheim","type":"Landkreis"},"federalState":{"key":"07","name":"Rheinland-Pfalz"}},{"name":"Klaustal","postalCode":"67098","locality":"Bad Dürkheim","municipality":{"key":"07332002","name":"Bad Dürkheim, Stadt","type":"Stadt"},"district":{"key":"07332","name":"Bad Dürkheim","type":"Landkreis"},"federalState":{"key":"07","name":"Rheinland-Pfalz"}},{"name":"Kleines Eppental","postalCode":"67098","locality":"Bad Dürkheim","municipality":{"key":"07332002","name":"Bad Dürkheim, Stadt","type":"Stadt"},"district":{"key":"07332","name":"Bad Dürkheim","type":"Landkreis"},"federalState":{"key":"07","name":"Rheinland-Pfalz"}},{"name":"Klosterberg","postalCode":"67098","locality":"Bad Dürkheim","municipality":{"key":"07332002","name":"Bad Dürkheim, Stadt","type":"Stadt"},"district":{"key":"07332","name":"Bad Dürkheim","type":"Landkreis"},"federalState":{"key":"07","name":"Rheinland-Pfalz"}},{"name":"Klostergasse","postalCode":"67098","locality":"Bad Dürkheim","municipality":{"key":"07332002","name":"Bad Dürkheim, Stadt","type":"Stadt"},"district":{"key":"07332","name":"Bad Dürkheim","type":"Landkreis"},"federalState":{"key":"07","name":"Rheinland-Pfalz"}},{"name":"Königsberger Str.","postalCode":"67098","locality":"Bad Dürkheim","municipality":{"key":"07332002","name":"Bad Dürkheim, Stadt","type":"Stadt"},"district":{"key":"07332","name":"Bad Dürkheim","type":"Landkreis"},"federalState":{"key":"07","name":"Rheinland-Pfalz"}},{"name":"Kornblumenweg","postalCode":"67098","locality":"Bad Dürkheim","municipality":{"key":"07332002","name":"Bad Dürkheim, Stadt","type":"Stadt"},"district":{"key":"07332","name":"Bad Dürkheim","type":"Landkreis"},"federalState":{"key":"07","name":"Rheinland-Pfalz"}},{"name":"Krähhöhlenweg","postalCode":"67098","locality":"Bad Dürkheim","municipality":{"key":"07332002","name":"Bad Dürkheim, Stadt","type":"Stadt"},"district":{"key":"07332","name":"Bad Dürkheim","type":"Landkreis"},"federalState":{"key":"07","name":"Rheinland-Pfalz"}},{"name":"Kurbrunnenstr.","postalCode":"67098","locality":"Bad Dürkheim","municipality":{"key":"07332002","name":"Bad Dürkheim, Stadt","type":"Stadt"},"district":{"key":"07332","name":"Bad Dürkheim","type":"Landkreis"},"federalState":{"key":"07","name":"Rheinland-Pfalz"}},{"name":"Kurgartenstr.","postalCode":"67098","locality":"Bad Dürkheim","municipality":{"key":"07332002","name":"Bad Dürkheim, Stadt","type":"Stadt"},"district":{"key":"07332","name":"Bad Dürkheim","type":"Landkreis"},"federalState":{"key":"07","name":"Rheinland-Pfalz"}},{"name":"Kurpark","postalCode":"67098","locality":"Bad Dürkheim","municipality":{"key":"07332002","name":"Bad Dürkheim, Stadt","type":"Stadt"},"district":{"key":"07332","name":"Bad Dürkheim","type":"Landkreis"},"federalState":{"key":"07","name":"Rheinland-Pfalz"}},{"name":"Kyrill-Fahrweg","postalCode":"67098","locality":"Bad Dürkheim","municipality":{"key":"07332002","name":"Bad Dürkheim, Stadt","type":"Stadt"},"district":{"key":"07332","name":"Bad Dürkheim","type":"Landkreis"},"federalState":{"key":"07","name":"Rheinland-Pfalz"}},{"name":"Langer Krummer Weg","postalCode":"67098","locality":"Bad Dürkheim","municipality":{"key":"07332002","name":"Bad Dürkheim, Stadt","type":"Stadt"},"district":{"key":"07332","name":"Bad Dürkheim","type":"Landkreis"},"federalState":{"key":"07","name":"Rheinland-Pfalz"}},{"name":"Langer Wingert","postalCode":"67098","locality":"Bad Dürkheim","municipality":{"key":"07332002","name":"Bad Dürkheim, Stadt","type":"Stadt"},"district":{"key":"07332","name":"Bad Dürkheim","type":"Landkreis"},"federalState":{"key":"07","name":"Rheinland-Pfalz"}},{"name":"Lärchenweg","postalCode":"67098","locality":"Bad Dürkheim","municipality":{"key":"07332002","name":"Bad Dürkheim, Stadt","type":"Stadt"},"district":{"key":"07332","name":"Bad Dürkheim","type":"Landkreis"},"federalState":{"key":"07","name":"Rheinland-Pfalz"}},{"name":"Lavendelweg","postalCode":"67098","locality":"Bad Dürkheim","municipality":{"key":"07332002","name":"Bad Dürkheim, Stadt","type":"Stadt"},"district":{"key":"07332","name":"Bad Dürkheim","type":"Landkreis"},"federalState":{"key":"07","name":"Rheinland-Pfalz"}},{"name":"Leiningerstr.","postalCode":"67098","locality":"Bad Dürkheim","municipality":{"key":"07332002","name":"Bad Dürkheim, Stadt","type":"Stadt"},"district":{"key":"07332","name":"Bad Dürkheim","type":"Landkreis"},"federalState":{"key":"07","name":"Rheinland-Pfalz"}},{"name":"Leistadter Str.","postalCode":"67098","locality":"Bad Dürkheim","municipality":{"key":"07332002","name":"Bad Dürkheim, Stadt","type":"Stadt"},"district":{"key":"07332","name":"Bad Dürkheim","type":"Landkreis"},"federalState":{"key":"07","name":"Rheinland-Pfalz"}},{"name":"Leopoldstr.","postalCode":"67098","locality":"Bad Dürkheim","municipality":{"key":"07332002","name":"Bad Dürkheim, Stadt","type":"Stadt"},"district":{"key":"07332","name":"Bad Dürkheim","type":"Landkreis"},"federalState":{"key":"07","name":"Rheinland-Pfalz"}},{"name":"Limburgstr.","postalCode":"67098","locality":"Bad Dürkheim","municipality":{"key":"07332002","name":"Bad Dürkheim, Stadt","type":"Stadt"},"district":{"key":"07332","name":"Bad Dürkheim","type":"Landkreis"},"federalState":{"key":"07","name":"Rheinland-Pfalz"}},{"name":"Lindenring","postalCode":"67098","locality":"Bad Dürkheim","municipality":{"key":"07332002","name":"Bad Dürkheim, Stadt","type":"Stadt"},"district":{"key":"07332","name":"Bad Dürkheim","type":"Landkreis"},"federalState":{"key":"07","name":"Rheinland-Pfalz"}},{"name":"Lingenfelder Str.","postalCode":"67098","locality":"Bad Dürkheim","municipality":{"key":"07332002","name":"Bad Dürkheim, Stadt","type":"Stadt"},"district":{"key":"07332","name":"Bad Dürkheim","type":"Landkreis"},"federalState":{"key":"07","name":"Rheinland-Pfalz"}},{"name":"Lorbeerweg","postalCode":"67098","locality":"Bad Dürkheim","municipality":{"key":"07332002","name":"Bad Dürkheim, Stadt","type":"Stadt"},"district":{"key":"07332","name":"Bad Dürkheim","type":"Landkreis"},"federalState":{"key":"07","name":"Rheinland-Pfalz"}},{"name":"Ludwig-Strauß-Str.","postalCode":"67098","locality":"Bad Dürkheim","municipality":{"key":"07332002","name":"Bad Dürkheim, Stadt","type":"Stadt"},"district":{"key":"07332","name":"Bad Dürkheim","type":"Landkreis"},"federalState":{"key":"07","name":"Rheinland-Pfalz"}},{"name":"Magnolienring","postalCode":"67098","locality":"Bad Dürkheim","municipality":{"key":"07332002","name":"Bad Dürkheim, Stadt","type":"Stadt"},"district":{"key":"07332","name":"Bad Dürkheim","type":"Landkreis"},"federalState":{"key":"07","name":"Rheinland-Pfalz"}},{"name":"Maler-Ernst-Str.","postalCode":"67098","locality":"Bad Dürkheim","municipality":{"key":"07332002","name":"Bad Dürkheim, Stadt","type":"Stadt"},"district":{"key":"07332","name":"Bad Dürkheim","type":"Landkreis"},"federalState":{"key":"07","name":"Rheinland-Pfalz"}},{"name":"Mandelweg","postalCode":"67098","locality":"Bad Dürkheim","municipality":{"key":"07332002","name":"Bad Dürkheim, Stadt","type":"Stadt"},"district":{"key":"07332","name":"Bad Dürkheim","type":"Landkreis"},"federalState":{"key":"07","name":"Rheinland-Pfalz"}},{"name":"Mannheimer Str.","postalCode":"67098","locality":"Bad Dürkheim","municipality":{"key":"07332002","name":"Bad Dürkheim, Stadt","type":"Stadt"},"district":{"key":"07332","name":"Bad Dürkheim","type":"Landkreis"},"federalState":{"key":"07","name":"Rheinland-Pfalz"}},{"name":"Marktgasse","postalCode":"67098","locality":"Bad Dürkheim","municipality":{"key":"07332002","name":"Bad Dürkheim, Stadt","type":"Stadt"},"district":{"key":"07332","name":"Bad Dürkheim","type":"Landkreis"},"federalState":{"key":"07","name":"Rheinland-Pfalz"}},{"name":"Martin-Butzer-Str.","postalCode":"67098","locality":"Bad Dürkheim","municipality":{"key":"07332002","name":"Bad Dürkheim, Stadt","type":"Stadt"},"district":{"key":"07332","name":"Bad Dürkheim","type":"Landkreis"},"federalState":{"key":"07","name":"Rheinland-Pfalz"}},{"name":"Maxbrunnenstr.","postalCode":"67098","locality":"Bad Dürkheim","municipality":{"key":"07332002","name":"Bad Dürkheim, Stadt","type":"Stadt"},"district":{"key":"07332","name":"Bad Dürkheim","type":"Landkreis"},"federalState":{"key":"07","name":"Rheinland-Pfalz"}},{"name":"Michelsbergstr.","postalCode":"67098","locality":"Bad Dürkheim","municipality":{"key":"07332002","name":"Bad Dürkheim, Stadt","type":"Stadt"},"district":{"key":"07332","name":"Bad Dürkheim","type":"Landkreis"},"federalState":{"key":"07","name":"Rheinland-Pfalz"}},{"name":"Mittelberg","postalCode":"67098","locality":"Bad Dürkheim","municipality":{"key":"07332002","name":"Bad Dürkheim, Stadt","type":"Stadt"},"district":{"key":"07332","name":"Bad Dürkheim","type":"Landkreis"},"federalState":{"key":"07","name":"Rheinland-Pfalz"}},{"name":"Mozartstr.","postalCode":"67098","locality":"Bad Dürkheim","municipality":{"key":"07332002","name":"Bad Dürkheim, Stadt","type":"Stadt"},"district":{"key":"07332","name":"Bad Dürkheim","type":"Landkreis"},"federalState":{"key":"07","name":"Rheinland-Pfalz"}},{"name":"Mühlbergweg","postalCode":"67098","locality":"Bad Dürkheim","municipality":{"key":"07332002","name":"Bad Dürkheim, Stadt","type":"Stadt"},"district":{"key":"07332","name":"Bad Dürkheim","type":"Landkreis"},"federalState":{"key":"07","name":"Rheinland-Pfalz"}},{"name":"Mühlgasse","postalCode":"67098","locality":"Bad Dürkheim","municipality":{"key":"07332002","name":"Bad Dürkheim, Stadt","type":"Stadt"},"district":{"key":"07332","name":"Bad Dürkheim","type":"Landkreis"},"federalState":{"key":"07","name":"Rheinland-Pfalz"}},{"name":"Muskatellerweg","postalCode":"67098","locality":"Bad Dürkheim","municipality":{"key":"07332002","name":"Bad Dürkheim, Stadt","type":"Stadt"},"district":{"key":"07332","name":"Bad Dürkheim","type":"Landkreis"},"federalState":{"key":"07","name":"Rheinland-Pfalz"}},{"name":"Neugasse","postalCode":"67098","locality":"Bad Dürkheim","municipality":{"key":"07332002","name":"Bad Dürkheim, Stadt","type":"Stadt"},"district":{"key":"07332","name":"Bad Dürkheim","type":"Landkreis"},"federalState":{"key":"07","name":"Rheinland-Pfalz"}},{"name":"Nolzeruhe","postalCode":"67098","locality":"Bad Dürkheim","municipality":{"key":"07332002","name":"Bad Dürkheim, Stadt","type":"Stadt"},"district":{"key":"07332","name":"Bad Dürkheim","type":"Landkreis"},"federalState":{"key":"07","name":"Rheinland-Pfalz"}},{"name":"Oberer Finkenpfad","postalCode":"67098","locality":"Bad Dürkheim","municipality":{"key":"07332002","name":"Bad Dürkheim, Stadt","type":"Stadt"},"district":{"key":"07332","name":"Bad Dürkheim","type":"Landkreis"},"federalState":{"key":"07","name":"Rheinland-Pfalz"}},{"name":"Oberes Gaistal","postalCode":"67098","locality":"Bad Dürkheim","municipality":{"key":"07332002","name":"Bad Dürkheim, Stadt","type":"Stadt"},"district":{"key":"07332","name":"Bad Dürkheim","type":"Landkreis"},"federalState":{"key":"07","name":"Rheinland-Pfalz"}},{"name":"Obergasse","postalCode":"67098","locality":"Bad Dürkheim","municipality":{"key":"07332002","name":"Bad Dürkheim, Stadt","type":"Stadt"},"district":{"key":"07332","name":"Bad Dürkheim","type":"Landkreis"},"federalState":{"key":"07","name":"Rheinland-Pfalz"}},{"name":"Oleanderweg","postalCode":"67098","locality":"Bad Dürkheim","municipality":{"key":"07332002","name":"Bad Dürkheim, Stadt","type":"Stadt"},"district":{"key":"07332","name":"Bad Dürkheim","type":"Landkreis"},"federalState":{"key":"07","name":"Rheinland-Pfalz"}},{"name":"Otto-Schmitt-Groß-Str.","postalCode":"67098","locality":"Bad Dürkheim","municipality":{"key":"07332002","name":"Bad Dürkheim, Stadt","type":"Stadt"},"district":{"key":"07332","name":"Bad Dürkheim","type":"Landkreis"},"federalState":{"key":"07","name":"Rheinland-Pfalz"}},{"name":"Pfaffenhof","postalCode":"67273","locality":"Herxheim am Berg","municipality":{"key":"07332026","name":"Herxheim am Berg","type":"Kreisangehörige_Gemeinde"},"district":{"key":"07332","name":"Bad Dürkheim","type":"Landkreis"},"federalState":{"key":"07","name":"Rheinland-Pfalz"}},{"name":"Raiffeisenstr.","postalCode":"67273","locality":"Herxheim am Berg","municipality":{"key":"07332026","name":"Herxheim am Berg","type":"Kreisangehörige_Gemeinde"},"district":{"key":"07332","name":"Bad Dürkheim","type":"Landkreis"},"federalState":{"key":"07","name":"Rheinland-Pfalz"}},{"name":"Schlossgarten","postalCode":"67273","locality":"Herxheim am Berg","municipality":{"key":"07332026","name":"Herxheim am Berg","type":"Kreisangehörige_Gemeinde"},"district":{"key":"07332","name":"Bad Dürkheim","type":"Landkreis"},"federalState":{"key":"07","name":"Rheinland-Pfalz"}},{"name":"Speyerer Str.","postalCode":"67273","locality":"Herxheim am Berg","municipality":{"key":"07332026","name":"Herxheim am Berg","type":"Kreisangehörige_Gemeinde"},"district":{"key":"07332","name":"Bad Dürkheim","type":"Landkreis"},"federalState":{"key":"07","name":"Rheinland-Pfalz"}},{"name":"Tannenweg","postalCode":"67098","locality":"Bad Dürkheim","municipality":{"key":"07332002","name":"Bad Dürkheim, Stadt","type":"Stadt"},"district":{"key":"07332","name":"Bad Dürkheim","type":"Landkreis"},"federalState":{"key":"07","name":"Rheinland-Pfalz"}},{"name":"Thymianweg","postalCode":"67098","locality":"Bad Dürkheim","municipality":{"key":"07332002","name":"Bad Dürkheim, Stadt","type":"Stadt"},"district":{"key":"07332","name":"Bad Dürkheim","type":"Landkreis"},"federalState":{"key":"07","name":"Rheinland-Pfalz"}},{"name":"Traminerweg","postalCode":"67098","locality":"Bad Dürkheim","municipality":{"key":"07332002","name":"Bad Dürkheim, Stadt","type":"Stadt"},"district":{"key":"07332","name":"Bad Dürkheim","type":"Landkreis"},"federalState":{"key":"07","name":"Rheinland-Pfalz"}},{"name":"Trifenpfad","postalCode":"67098","locality":"Bad Dürkheim","municipality":{"key":"07332002","name":"Bad Dürkheim, Stadt","type":"Stadt"},"district":{"key":"07332","name":"Bad Dürkheim","type":"Landkreis"},"federalState":{"key":"07","name":"Rheinland-Pfalz"}},{"name":"Triftweg","postalCode":"67098","locality":"Bad Dürkheim","municipality":{"key":"07332002","name":"Bad Dürkheim, Stadt","type":"Stadt"},"district":{"key":"07332","name":"Bad Dürkheim","type":"Landkreis"},"federalState":{"key":"07","name":"Rheinland-Pfalz"}},{"name":"Unter der Hardenburg","postalCode":"67098","locality":"Bad Dürkheim","municipality":{"key":"07332002","name":"Bad Dürkheim, Stadt","type":"Stadt"},"district":{"key":"07332","name":"Bad Dürkheim","type":"Landkreis"},"federalState":{"key":"07","name":"Rheinland-Pfalz"}},{"name":"Unteres Gaistal","postalCode":"67098","locality":"Bad Dürkheim","municipality":{"key":"07332002","name":"Bad Dürkheim, Stadt","type":"Stadt"},"district":{"key":"07332","name":"Bad Dürkheim","type":"Landkreis"},"federalState":{"key":"07","name":"Rheinland-Pfalz"}},{"name":"Valentin-Ostertag-Str.","postalCode":"67098","locality":"Bad Dürkheim","municipality":{"key":"07332002","name":"Bad Dürkheim, Stadt","type":"Stadt"},"district":{"key":"07332","name":"Bad Dürkheim","type":"Landkreis"},"federalState":{"key":"07","name":"Rheinland-Pfalz"}},{"name":"Vigilienstr.","postalCode":"67098","locality":"Bad Dürkheim","municipality":{"key":"07332002","name":"Bad Dürkheim, Stadt","type":"Stadt"},"district":{"key":"07332","name":"Bad Dürkheim","type":"Landkreis"},"federalState":{"key":"07","name":"Rheinland-Pfalz"}},{"name":"Weinstr.","postalCode":"67273","locality":"Herxheim am Berg","municipality":{"key":"07332026","name":"Herxheim am Berg","type":"Kreisangehörige_Gemeinde"},"district":{"key":"07332","name":"Bad Dürkheim","type":"Landkreis"},"federalState":{"key":"07","name":"Rheinland-Pfalz"}},{"name":"Weisenheimer Str.","postalCode":"67273","locality":"Herxheim am Berg","municipality":{"key":"07332026","name":"Herxheim am Berg","type":"Kreisangehörige_Gemeinde"},"district":{"key":"07332","name":"Bad Dürkheim","type":"Landkreis"},"federalState":{"key":"07","name":"Rheinland-Pfalz"}},{"name":"Zeppelinstr.","postalCode":"67098","locality":"Bad Dürkheim","municipality":{"key":"07332002","name":"Bad Dürkheim, Stadt","type":"Stadt"},"district":{"key":"07332","name":"Bad Dürkheim","type":"Landkreis"},"federalState":{"key":"07","name":"Rheinland-Pfalz"}},{"name":"Zum Röhrig","postalCode":"67098","locality":"Bad Dürkheim","municipality":{"key":"07332002","name":"Bad Dürkheim, Stadt","type":"Stadt"},"district":{"key":"07332","name":"Bad Dürkheim","type":"Landkreis"},"federalState":{"key":"07","name":"Rheinland-Pfalz"}},{"name":"Östlicher Kurpark","postalCode":"67098","locality":"Bad Dürkheim","municipality":{"key":"07332002","name":"Bad Dürkheim, Stadt","type":"Stadt"},"district":{"key":"07332","name":"Bad Dürkheim","type":"Landkreis"},"federalState":{"key":"07","name":"Rheinland-Pfalz"}},]