[{"name":"Ahornweg","postalCode":"32694","locality":"Dörentrup","municipality":{"key":"05766024","name":"Dörentrup","type":"Kreisangehörige_Gemeinde"},"district":{"key":"05766","name":"Lippe","type":"Kreis"},"federalState":{"key":"05","name":"Nordrhein-Westfalen"}},{"name":"Altarstein","postalCode":"32694","locality":"Dörentrup","municipality":{"key":"05766024","name":"Dörentrup","type":"Kreisangehörige_Gemeinde"},"district":{"key":"05766","name":"Lippe","type":"Kreis"},"federalState":{"key":"05","name":"Nordrhein-Westfalen"}},{"name":"Alte Dorfstr.","postalCode":"32694","locality":"Dörentrup","municipality":{"key":"05766024","name":"Dörentrup","type":"Kreisangehörige_Gemeinde"},"district":{"key":"05766","name":"Lippe","type":"Kreis"},"federalState":{"key":"05","name":"Nordrhein-Westfalen"}},{"name":"Alter Kampweg","postalCode":"32694","locality":"Dörentrup","municipality":{"key":"05766024","name":"Dörentrup","type":"Kreisangehörige_Gemeinde"},"district":{"key":"05766","name":"Lippe","type":"Kreis"},"federalState":{"key":"05","name":"Nordrhein-Westfalen"}},{"name":"Alter Schulweg","postalCode":"32694","locality":"Dörentrup","municipality":{"key":"05766024","name":"Dörentrup","type":"Kreisangehörige_Gemeinde"},"district":{"key":"05766","name":"Lippe","type":"Kreis"},"federalState":{"key":"05","name":"Nordrhein-Westfalen"}},{"name":"Alverdisser Str.","postalCode":"32694","locality":"Dörentrup","municipality":{"key":"05766024","name":"Dörentrup","type":"Kreisangehörige_Gemeinde"},"district":{"key":"05766","name":"Lippe","type":"Kreis"},"federalState":{"key":"05","name":"Nordrhein-Westfalen"}},{"name":"Am Anger","postalCode":"32694","locality":"Dörentrup","municipality":{"key":"05766024","name":"Dörentrup","type":"Kreisangehörige_Gemeinde"},"district":{"key":"05766","name":"Lippe","type":"Kreis"},"federalState":{"key":"05","name":"Nordrhein-Westfalen"}},{"name":"Am Bahnhof","postalCode":"32694","locality":"Dörentrup","municipality":{"key":"05766024","name":"Dörentrup","type":"Kreisangehörige_Gemeinde"},"district":{"key":"05766","name":"Lippe","type":"Kreis"},"federalState":{"key":"05","name":"Nordrhein-Westfalen"}},{"name":"Am Eckerngarten","postalCode":"32694","locality":"Dörentrup","municipality":{"key":"05766024","name":"Dörentrup","type":"Kreisangehörige_Gemeinde"},"district":{"key":"05766","name":"Lippe","type":"Kreis"},"federalState":{"key":"05","name":"Nordrhein-Westfalen"}},{"name":"Am Fassenberg","postalCode":"32694","locality":"Dörentrup","municipality":{"key":"05766024","name":"Dörentrup","type":"Kreisangehörige_Gemeinde"},"district":{"key":"05766","name":"Lippe","type":"Kreis"},"federalState":{"key":"05","name":"Nordrhein-Westfalen"}},{"name":"Am Fetten Kampe","postalCode":"32694","locality":"Dörentrup","municipality":{"key":"05766024","name":"Dörentrup","type":"Kreisangehörige_Gemeinde"},"district":{"key":"05766","name":"Lippe","type":"Kreis"},"federalState":{"key":"05","name":"Nordrhein-Westfalen"}},{"name":"Am Friedhof","postalCode":"32694","locality":"Dörentrup","municipality":{"key":"05766024","name":"Dörentrup","type":"Kreisangehörige_Gemeinde"},"district":{"key":"05766","name":"Lippe","type":"Kreis"},"federalState":{"key":"05","name":"Nordrhein-Westfalen"}},{"name":"Am Holzplatz","postalCode":"32694","locality":"Dörentrup","municipality":{"key":"05766024","name":"Dörentrup","type":"Kreisangehörige_Gemeinde"},"district":{"key":"05766","name":"Lippe","type":"Kreis"},"federalState":{"key":"05","name":"Nordrhein-Westfalen"}},{"name":"Am Humebach","postalCode":"32694","locality":"Dörentrup","municipality":{"key":"05766024","name":"Dörentrup","type":"Kreisangehörige_Gemeinde"},"district":{"key":"05766","name":"Lippe","type":"Kreis"},"federalState":{"key":"05","name":"Nordrhein-Westfalen"}},{"name":"Am Huppigsberg","postalCode":"32694","locality":"Dörentrup","municipality":{"key":"05766024","name":"Dörentrup","type":"Kreisangehörige_Gemeinde"},"district":{"key":"05766","name":"Lippe","type":"Kreis"},"federalState":{"key":"05","name":"Nordrhein-Westfalen"}},{"name":"Am Knapp","postalCode":"32694","locality":"Dörentrup","municipality":{"key":"05766024","name":"Dörentrup","type":"Kreisangehörige_Gemeinde"},"district":{"key":"05766","name":"Lippe","type":"Kreis"},"federalState":{"key":"05","name":"Nordrhein-Westfalen"}},{"name":"Am Krügerberg","postalCode":"32694","locality":"Dörentrup","municipality":{"key":"05766024","name":"Dörentrup","type":"Kreisangehörige_Gemeinde"},"district":{"key":"05766","name":"Lippe","type":"Kreis"},"federalState":{"key":"05","name":"Nordrhein-Westfalen"}},{"name":"Am Langen Feld","postalCode":"32694","locality":"Dörentrup","municipality":{"key":"05766024","name":"Dörentrup","type":"Kreisangehörige_Gemeinde"},"district":{"key":"05766","name":"Lippe","type":"Kreis"},"federalState":{"key":"05","name":"Nordrhein-Westfalen"}},{"name":"Am Löhlberg","postalCode":"32694","locality":"Dörentrup","municipality":{"key":"05766024","name":"Dörentrup","type":"Kreisangehörige_Gemeinde"},"district":{"key":"05766","name":"Lippe","type":"Kreis"},"federalState":{"key":"05","name":"Nordrhein-Westfalen"}},{"name":"Am Mühlingsbach","postalCode":"32694","locality":"Dörentrup","municipality":{"key":"05766024","name":"Dörentrup","type":"Kreisangehörige_Gemeinde"},"district":{"key":"05766","name":"Lippe","type":"Kreis"},"federalState":{"key":"05","name":"Nordrhein-Westfalen"}},{"name":"Am Rathaus","postalCode":"32694","locality":"Dörentrup","municipality":{"key":"05766024","name":"Dörentrup","type":"Kreisangehörige_Gemeinde"},"district":{"key":"05766","name":"Lippe","type":"Kreis"},"federalState":{"key":"05","name":"Nordrhein-Westfalen"}},{"name":"Am Schloß","postalCode":"32694","locality":"Dörentrup","municipality":{"key":"05766024","name":"Dörentrup","type":"Kreisangehörige_Gemeinde"},"district":{"key":"05766","name":"Lippe","type":"Kreis"},"federalState":{"key":"05","name":"Nordrhein-Westfalen"}},{"name":"Amselweg","postalCode":"32694","locality":"Dörentrup","municipality":{"key":"05766024","name":"Dörentrup","type":"Kreisangehörige_Gemeinde"},"district":{"key":"05766","name":"Lippe","type":"Kreis"},"federalState":{"key":"05","name":"Nordrhein-Westfalen"}},{"name":"Am Siekbach","postalCode":"32694","locality":"Dörentrup","municipality":{"key":"05766024","name":"Dörentrup","type":"Kreisangehörige_Gemeinde"},"district":{"key":"05766","name":"Lippe","type":"Kreis"},"federalState":{"key":"05","name":"Nordrhein-Westfalen"}},{"name":"Am Sportplatz","postalCode":"32694","locality":"Dörentrup","municipality":{"key":"05766024","name":"Dörentrup","type":"Kreisangehörige_Gemeinde"},"district":{"key":"05766","name":"Lippe","type":"Kreis"},"federalState":{"key":"05","name":"Nordrhein-Westfalen"}},{"name":"Am Spreenland","postalCode":"32694","locality":"Dörentrup","municipality":{"key":"05766024","name":"Dörentrup","type":"Kreisangehörige_Gemeinde"},"district":{"key":"05766","name":"Lippe","type":"Kreis"},"federalState":{"key":"05","name":"Nordrhein-Westfalen"}},{"name":"Am Steinbrink","postalCode":"32694","locality":"Dörentrup","municipality":{"key":"05766024","name":"Dörentrup","type":"Kreisangehörige_Gemeinde"},"district":{"key":"05766","name":"Lippe","type":"Kreis"},"federalState":{"key":"05","name":"Nordrhein-Westfalen"}},{"name":"Am Thonwerk","postalCode":"32694","locality":"Dörentrup","municipality":{"key":"05766024","name":"Dörentrup","type":"Kreisangehörige_Gemeinde"},"district":{"key":"05766","name":"Lippe","type":"Kreis"},"federalState":{"key":"05","name":"Nordrhein-Westfalen"}},{"name":"Am Wald","postalCode":"32694","locality":"Dörentrup","municipality":{"key":"05766024","name":"Dörentrup","type":"Kreisangehörige_Gemeinde"},"district":{"key":"05766","name":"Lippe","type":"Kreis"},"federalState":{"key":"05","name":"Nordrhein-Westfalen"}},{"name":"Am Wiesenrain","postalCode":"32694","locality":"Dörentrup","municipality":{"key":"05766024","name":"Dörentrup","type":"Kreisangehörige_Gemeinde"},"district":{"key":"05766","name":"Lippe","type":"Kreis"},"federalState":{"key":"05","name":"Nordrhein-Westfalen"}},{"name":"An der Bruchmühle","postalCode":"32694","locality":"Dörentrup","municipality":{"key":"05766024","name":"Dörentrup","type":"Kreisangehörige_Gemeinde"},"district":{"key":"05766","name":"Lippe","type":"Kreis"},"federalState":{"key":"05","name":"Nordrhein-Westfalen"}},{"name":"An der Niedermühle","postalCode":"32694","locality":"Dörentrup","municipality":{"key":"05766024","name":"Dörentrup","type":"Kreisangehörige_Gemeinde"},"district":{"key":"05766","name":"Lippe","type":"Kreis"},"federalState":{"key":"05","name":"Nordrhein-Westfalen"}},{"name":"An der Schule","postalCode":"32694","locality":"Dörentrup","municipality":{"key":"05766024","name":"Dörentrup","type":"Kreisangehörige_Gemeinde"},"district":{"key":"05766","name":"Lippe","type":"Kreis"},"federalState":{"key":"05","name":"Nordrhein-Westfalen"}},{"name":"An der Siekwiese","postalCode":"32694","locality":"Dörentrup","municipality":{"key":"05766024","name":"Dörentrup","type":"Kreisangehörige_Gemeinde"},"district":{"key":"05766","name":"Lippe","type":"Kreis"},"federalState":{"key":"05","name":"Nordrhein-Westfalen"}},{"name":"An der Weide","postalCode":"32694","locality":"Dörentrup","municipality":{"key":"05766024","name":"Dörentrup","type":"Kreisangehörige_Gemeinde"},"district":{"key":"05766","name":"Lippe","type":"Kreis"},"federalState":{"key":"05","name":"Nordrhein-Westfalen"}},{"name":"Auf dem Brinke","postalCode":"32694","locality":"Dörentrup","municipality":{"key":"05766024","name":"Dörentrup","type":"Kreisangehörige_Gemeinde"},"district":{"key":"05766","name":"Lippe","type":"Kreis"},"federalState":{"key":"05","name":"Nordrhein-Westfalen"}},{"name":"Auf dem Kamp","postalCode":"32694","locality":"Dörentrup","municipality":{"key":"05766024","name":"Dörentrup","type":"Kreisangehörige_Gemeinde"},"district":{"key":"05766","name":"Lippe","type":"Kreis"},"federalState":{"key":"05","name":"Nordrhein-Westfalen"}},{"name":"Auf dem Papierkamp","postalCode":"32694","locality":"Dörentrup","municipality":{"key":"05766024","name":"Dörentrup","type":"Kreisangehörige_Gemeinde"},"district":{"key":"05766","name":"Lippe","type":"Kreis"},"federalState":{"key":"05","name":"Nordrhein-Westfalen"}},{"name":"Auf der Hufe","postalCode":"32694","locality":"Dörentrup","municipality":{"key":"05766024","name":"Dörentrup","type":"Kreisangehörige_Gemeinde"},"district":{"key":"05766","name":"Lippe","type":"Kreis"},"federalState":{"key":"05","name":"Nordrhein-Westfalen"}},{"name":"Auf der Insel","postalCode":"32694","locality":"Dörentrup","municipality":{"key":"05766024","name":"Dörentrup","type":"Kreisangehörige_Gemeinde"},"district":{"key":"05766","name":"Lippe","type":"Kreis"},"federalState":{"key":"05","name":"Nordrhein-Westfalen"}},{"name":"Auf der Wiese","postalCode":"32694","locality":"Dörentrup","municipality":{"key":"05766024","name":"Dörentrup","type":"Kreisangehörige_Gemeinde"},"district":{"key":"05766","name":"Lippe","type":"Kreis"},"federalState":{"key":"05","name":"Nordrhein-Westfalen"}},{"name":"Bahnhofstr.","postalCode":"32694","locality":"Dörentrup","municipality":{"key":"05766024","name":"Dörentrup","type":"Kreisangehörige_Gemeinde"},"district":{"key":"05766","name":"Lippe","type":"Kreis"},"federalState":{"key":"05","name":"Nordrhein-Westfalen"}},{"name":"Barntruper Str.","postalCode":"32694","locality":"Dörentrup","municipality":{"key":"05766024","name":"Dörentrup","type":"Kreisangehörige_Gemeinde"},"district":{"key":"05766","name":"Lippe","type":"Kreis"},"federalState":{"key":"05","name":"Nordrhein-Westfalen"}},{"name":"Begaer Str.","postalCode":"32694","locality":"Dörentrup","municipality":{"key":"05766024","name":"Dörentrup","type":"Kreisangehörige_Gemeinde"},"district":{"key":"05766","name":"Lippe","type":"Kreis"},"federalState":{"key":"05","name":"Nordrhein-Westfalen"}},{"name":"Bergstr.","postalCode":"32694","locality":"Dörentrup","municipality":{"key":"05766024","name":"Dörentrup","type":"Kreisangehörige_Gemeinde"},"district":{"key":"05766","name":"Lippe","type":"Kreis"},"federalState":{"key":"05","name":"Nordrhein-Westfalen"}},{"name":"Betzen","postalCode":"32694","locality":"Dörentrup","municipality":{"key":"05766024","name":"Dörentrup","type":"Kreisangehörige_Gemeinde"},"district":{"key":"05766","name":"Lippe","type":"Kreis"},"federalState":{"key":"05","name":"Nordrhein-Westfalen"}},{"name":"Betzener Str.","postalCode":"32694","locality":"Dörentrup","municipality":{"key":"05766024","name":"Dörentrup","type":"Kreisangehörige_Gemeinde"},"district":{"key":"05766","name":"Lippe","type":"Kreis"},"federalState":{"key":"05","name":"Nordrhein-Westfalen"}},{"name":"Birkenweg","postalCode":"32694","locality":"Dörentrup","municipality":{"key":"05766024","name":"Dörentrup","type":"Kreisangehörige_Gemeinde"},"district":{"key":"05766","name":"Lippe","type":"Kreis"},"federalState":{"key":"05","name":"Nordrhein-Westfalen"}},{"name":"Blomenstein","postalCode":"32694","locality":"Dörentrup","municipality":{"key":"05766024","name":"Dörentrup","type":"Kreisangehörige_Gemeinde"},"district":{"key":"05766","name":"Lippe","type":"Kreis"},"federalState":{"key":"05","name":"Nordrhein-Westfalen"}},{"name":"Brede-Ring","postalCode":"32694","locality":"Dörentrup","municipality":{"key":"05766024","name":"Dörentrup","type":"Kreisangehörige_Gemeinde"},"district":{"key":"05766","name":"Lippe","type":"Kreis"},"federalState":{"key":"05","name":"Nordrhein-Westfalen"}},{"name":"Breslauer Str.","postalCode":"32694","locality":"Dörentrup","municipality":{"key":"05766024","name":"Dörentrup","type":"Kreisangehörige_Gemeinde"},"district":{"key":"05766","name":"Lippe","type":"Kreis"},"federalState":{"key":"05","name":"Nordrhein-Westfalen"}},{"name":"Bromernkamp","postalCode":"32694","locality":"Dörentrup","municipality":{"key":"05766024","name":"Dörentrup","type":"Kreisangehörige_Gemeinde"},"district":{"key":"05766","name":"Lippe","type":"Kreis"},"federalState":{"key":"05","name":"Nordrhein-Westfalen"}},{"name":"Brüderstr.","postalCode":"32694","locality":"Dörentrup","municipality":{"key":"05766024","name":"Dörentrup","type":"Kreisangehörige_Gemeinde"},"district":{"key":"05766","name":"Lippe","type":"Kreis"},"federalState":{"key":"05","name":"Nordrhein-Westfalen"}},{"name":"Buchenweg","postalCode":"32694","locality":"Dörentrup","municipality":{"key":"05766024","name":"Dörentrup","type":"Kreisangehörige_Gemeinde"},"district":{"key":"05766","name":"Lippe","type":"Kreis"},"federalState":{"key":"05","name":"Nordrhein-Westfalen"}},{"name":"Bundesstr.","postalCode":"32694","locality":"Dörentrup","municipality":{"key":"05766024","name":"Dörentrup","type":"Kreisangehörige_Gemeinde"},"district":{"key":"05766","name":"Lippe","type":"Kreis"},"federalState":{"key":"05","name":"Nordrhein-Westfalen"}},{"name":"Dammstr.","postalCode":"32694","locality":"Dörentrup","municipality":{"key":"05766024","name":"Dörentrup","type":"Kreisangehörige_Gemeinde"},"district":{"key":"05766","name":"Lippe","type":"Kreis"},"federalState":{"key":"05","name":"Nordrhein-Westfalen"}},{"name":"Danziger Str.","postalCode":"32694","locality":"Dörentrup","municipality":{"key":"05766024","name":"Dörentrup","type":"Kreisangehörige_Gemeinde"},"district":{"key":"05766","name":"Lippe","type":"Kreis"},"federalState":{"key":"05","name":"Nordrhein-Westfalen"}},{"name":"Dockenweg","postalCode":"32694","locality":"Dörentrup","municipality":{"key":"05766024","name":"Dörentrup","type":"Kreisangehörige_Gemeinde"},"district":{"key":"05766","name":"Lippe","type":"Kreis"},"federalState":{"key":"05","name":"Nordrhein-Westfalen"}},{"name":"Domänenweg","postalCode":"32694","locality":"Dörentrup","municipality":{"key":"05766024","name":"Dörentrup","type":"Kreisangehörige_Gemeinde"},"district":{"key":"05766","name":"Lippe","type":"Kreis"},"federalState":{"key":"05","name":"Nordrhein-Westfalen"}},{"name":"Donoper Str.","postalCode":"32694","locality":"Dörentrup","municipality":{"key":"05766024","name":"Dörentrup","type":"Kreisangehörige_Gemeinde"},"district":{"key":"05766","name":"Lippe","type":"Kreis"},"federalState":{"key":"05","name":"Nordrhein-Westfalen"}},{"name":"Dörentruper Str.","postalCode":"32694","locality":"Dörentrup","municipality":{"key":"05766024","name":"Dörentrup","type":"Kreisangehörige_Gemeinde"},"district":{"key":"05766","name":"Lippe","type":"Kreis"},"federalState":{"key":"05","name":"Nordrhein-Westfalen"}},{"name":"Dornröschenweg","postalCode":"32694","locality":"Dörentrup","municipality":{"key":"05766024","name":"Dörentrup","type":"Kreisangehörige_Gemeinde"},"district":{"key":"05766","name":"Lippe","type":"Kreis"},"federalState":{"key":"05","name":"Nordrhein-Westfalen"}},{"name":"Drecken","postalCode":"32694","locality":"Dörentrup","municipality":{"key":"05766024","name":"Dörentrup","type":"Kreisangehörige_Gemeinde"},"district":{"key":"05766","name":"Lippe","type":"Kreis"},"federalState":{"key":"05","name":"Nordrhein-Westfalen"}},{"name":"Duxenberg","postalCode":"32694","locality":"Dörentrup","municipality":{"key":"05766024","name":"Dörentrup","type":"Kreisangehörige_Gemeinde"},"district":{"key":"05766","name":"Lippe","type":"Kreis"},"federalState":{"key":"05","name":"Nordrhein-Westfalen"}},{"name":"Eichenweg","postalCode":"32694","locality":"Dörentrup","municipality":{"key":"05766024","name":"Dörentrup","type":"Kreisangehörige_Gemeinde"},"district":{"key":"05766","name":"Lippe","type":"Kreis"},"federalState":{"key":"05","name":"Nordrhein-Westfalen"}},{"name":"Ellernweg","postalCode":"32694","locality":"Dörentrup","municipality":{"key":"05766024","name":"Dörentrup","type":"Kreisangehörige_Gemeinde"},"district":{"key":"05766","name":"Lippe","type":"Kreis"},"federalState":{"key":"05","name":"Nordrhein-Westfalen"}},{"name":"Energiepark","postalCode":"32694","locality":"Dörentrup","municipality":{"key":"05766024","name":"Dörentrup","type":"Kreisangehörige_Gemeinde"},"district":{"key":"05766","name":"Lippe","type":"Kreis"},"federalState":{"key":"05","name":"Nordrhein-Westfalen"}},{"name":"Erlenweg","postalCode":"32694","locality":"Dörentrup","municipality":{"key":"05766024","name":"Dörentrup","type":"Kreisangehörige_Gemeinde"},"district":{"key":"05766","name":"Lippe","type":"Kreis"},"federalState":{"key":"05","name":"Nordrhein-Westfalen"}},{"name":"Fahrenplatz","postalCode":"32694","locality":"Dörentrup","municipality":{"key":"05766024","name":"Dörentrup","type":"Kreisangehörige_Gemeinde"},"district":{"key":"05766","name":"Lippe","type":"Kreis"},"federalState":{"key":"05","name":"Nordrhein-Westfalen"}},{"name":"Farmbecker Str.","postalCode":"32694","locality":"Dörentrup","municipality":{"key":"05766024","name":"Dörentrup","type":"Kreisangehörige_Gemeinde"},"district":{"key":"05766","name":"Lippe","type":"Kreis"},"federalState":{"key":"05","name":"Nordrhein-Westfalen"}},{"name":"Fasanenweg","postalCode":"32694","locality":"Dörentrup","municipality":{"key":"05766024","name":"Dörentrup","type":"Kreisangehörige_Gemeinde"},"district":{"key":"05766","name":"Lippe","type":"Kreis"},"federalState":{"key":"05","name":"Nordrhein-Westfalen"}},{"name":"Feldstr.","postalCode":"32694","locality":"Dörentrup","municipality":{"key":"05766024","name":"Dörentrup","type":"Kreisangehörige_Gemeinde"},"district":{"key":"05766","name":"Lippe","type":"Kreis"},"federalState":{"key":"05","name":"Nordrhein-Westfalen"}},{"name":"Fermke","postalCode":"32694","locality":"Dörentrup","municipality":{"key":"05766024","name":"Dörentrup","type":"Kreisangehörige_Gemeinde"},"district":{"key":"05766","name":"Lippe","type":"Kreis"},"federalState":{"key":"05","name":"Nordrhein-Westfalen"}},{"name":"Finkenweg","postalCode":"32694","locality":"Dörentrup","municipality":{"key":"05766024","name":"Dörentrup","type":"Kreisangehörige_Gemeinde"},"district":{"key":"05766","name":"Lippe","type":"Kreis"},"federalState":{"key":"05","name":"Nordrhein-Westfalen"}},{"name":"Försterweg","postalCode":"32694","locality":"Dörentrup","municipality":{"key":"05766024","name":"Dörentrup","type":"Kreisangehörige_Gemeinde"},"district":{"key":"05766","name":"Lippe","type":"Kreis"},"federalState":{"key":"05","name":"Nordrhein-Westfalen"}},{"name":"Friedrichsfeld","postalCode":"32694","locality":"Dörentrup","municipality":{"key":"05766024","name":"Dörentrup","type":"Kreisangehörige_Gemeinde"},"district":{"key":"05766","name":"Lippe","type":"Kreis"},"federalState":{"key":"05","name":"Nordrhein-Westfalen"}},{"name":"Fuchsloch","postalCode":"32694","locality":"Dörentrup","municipality":{"key":"05766024","name":"Dörentrup","type":"Kreisangehörige_Gemeinde"},"district":{"key":"05766","name":"Lippe","type":"Kreis"},"federalState":{"key":"05","name":"Nordrhein-Westfalen"}},{"name":"Gartenstr.","postalCode":"32694","locality":"Dörentrup","municipality":{"key":"05766024","name":"Dörentrup","type":"Kreisangehörige_Gemeinde"},"district":{"key":"05766","name":"Lippe","type":"Kreis"},"federalState":{"key":"05","name":"Nordrhein-Westfalen"}},{"name":"Graben","postalCode":"32694","locality":"Dörentrup","municipality":{"key":"05766024","name":"Dörentrup","type":"Kreisangehörige_Gemeinde"},"district":{"key":"05766","name":"Lippe","type":"Kreis"},"federalState":{"key":"05","name":"Nordrhein-Westfalen"}},{"name":"Grenzstr.","postalCode":"32694","locality":"Dörentrup","municipality":{"key":"05766024","name":"Dörentrup","type":"Kreisangehörige_Gemeinde"},"district":{"key":"05766","name":"Lippe","type":"Kreis"},"federalState":{"key":"05","name":"Nordrhein-Westfalen"}},{"name":"Großes Feld","postalCode":"32694","locality":"Dörentrup","municipality":{"key":"05766024","name":"Dörentrup","type":"Kreisangehörige_Gemeinde"},"district":{"key":"05766","name":"Lippe","type":"Kreis"},"federalState":{"key":"05","name":"Nordrhein-Westfalen"}},{"name":"Hamelner Str.","postalCode":"32694","locality":"Dörentrup","municipality":{"key":"05766024","name":"Dörentrup","type":"Kreisangehörige_Gemeinde"},"district":{"key":"05766","name":"Lippe","type":"Kreis"},"federalState":{"key":"05","name":"Nordrhein-Westfalen"}},{"name":"Hasenbreite","postalCode":"32694","locality":"Dörentrup","municipality":{"key":"05766024","name":"Dörentrup","type":"Kreisangehörige_Gemeinde"},"district":{"key":"05766","name":"Lippe","type":"Kreis"},"federalState":{"key":"05","name":"Nordrhein-Westfalen"}},{"name":"Hauptstr.","postalCode":"32694","locality":"Dörentrup","municipality":{"key":"05766024","name":"Dörentrup","type":"Kreisangehörige_Gemeinde"},"district":{"key":"05766","name":"Lippe","type":"Kreis"},"federalState":{"key":"05","name":"Nordrhein-Westfalen"}},{"name":"Hellweg","postalCode":"32694","locality":"Dörentrup","municipality":{"key":"05766024","name":"Dörentrup","type":"Kreisangehörige_Gemeinde"},"district":{"key":"05766","name":"Lippe","type":"Kreis"},"federalState":{"key":"05","name":"Nordrhein-Westfalen"}},{"name":"Hofweg","postalCode":"32694","locality":"Dörentrup","municipality":{"key":"05766024","name":"Dörentrup","type":"Kreisangehörige_Gemeinde"},"district":{"key":"05766","name":"Lippe","type":"Kreis"},"federalState":{"key":"05","name":"Nordrhein-Westfalen"}},{"name":"Hohensonner Str.","postalCode":"32694","locality":"Dörentrup","municipality":{"key":"05766024","name":"Dörentrup","type":"Kreisangehörige_Gemeinde"},"district":{"key":"05766","name":"Lippe","type":"Kreis"},"federalState":{"key":"05","name":"Nordrhein-Westfalen"}},{"name":"Homeien","postalCode":"32694","locality":"Dörentrup","municipality":{"key":"05766024","name":"Dörentrup","type":"Kreisangehörige_Gemeinde"},"district":{"key":"05766","name":"Lippe","type":"Kreis"},"federalState":{"key":"05","name":"Nordrhein-Westfalen"}},{"name":"Homeiener Str.","postalCode":"32694","locality":"Dörentrup","municipality":{"key":"05766024","name":"Dörentrup","type":"Kreisangehörige_Gemeinde"},"district":{"key":"05766","name":"Lippe","type":"Kreis"},"federalState":{"key":"05","name":"Nordrhein-Westfalen"}},{"name":"Hornsiek","postalCode":"32694","locality":"Dörentrup","municipality":{"key":"05766024","name":"Dörentrup","type":"Kreisangehörige_Gemeinde"},"district":{"key":"05766","name":"Lippe","type":"Kreis"},"federalState":{"key":"05","name":"Nordrhein-Westfalen"}},{"name":"Hufering","postalCode":"32694","locality":"Dörentrup","municipality":{"key":"05766024","name":"Dörentrup","type":"Kreisangehörige_Gemeinde"},"district":{"key":"05766","name":"Lippe","type":"Kreis"},"federalState":{"key":"05","name":"Nordrhein-Westfalen"}},{"name":"Humeweg","postalCode":"32694","locality":"Dörentrup","municipality":{"key":"05766024","name":"Dörentrup","type":"Kreisangehörige_Gemeinde"},"district":{"key":"05766","name":"Lippe","type":"Kreis"},"federalState":{"key":"05","name":"Nordrhein-Westfalen"}},{"name":"Im Busch","postalCode":"32694","locality":"Dörentrup","municipality":{"key":"05766024","name":"Dörentrup","type":"Kreisangehörige_Gemeinde"},"district":{"key":"05766","name":"Lippe","type":"Kreis"},"federalState":{"key":"05","name":"Nordrhein-Westfalen"}},{"name":"Im Grund","postalCode":"32694","locality":"Dörentrup","municipality":{"key":"05766024","name":"Dörentrup","type":"Kreisangehörige_Gemeinde"},"district":{"key":"05766","name":"Lippe","type":"Kreis"},"federalState":{"key":"05","name":"Nordrhein-Westfalen"}},{"name":"Im Klee","postalCode":"32694","locality":"Dörentrup","municipality":{"key":"05766024","name":"Dörentrup","type":"Kreisangehörige_Gemeinde"},"district":{"key":"05766","name":"Lippe","type":"Kreis"},"federalState":{"key":"05","name":"Nordrhein-Westfalen"}},{"name":"Im Lala","postalCode":"32694","locality":"Dörentrup","municipality":{"key":"05766024","name":"Dörentrup","type":"Kreisangehörige_Gemeinde"},"district":{"key":"05766","name":"Lippe","type":"Kreis"},"federalState":{"key":"05","name":"Nordrhein-Westfalen"}},{"name":"Im Morgen","postalCode":"32694","locality":"Dörentrup","municipality":{"key":"05766024","name":"Dörentrup","type":"Kreisangehörige_Gemeinde"},"district":{"key":"05766","name":"Lippe","type":"Kreis"},"federalState":{"key":"05","name":"Nordrhein-Westfalen"}},{"name":"Im Reiher","postalCode":"32694","locality":"Dörentrup","municipality":{"key":"05766024","name":"Dörentrup","type":"Kreisangehörige_Gemeinde"},"district":{"key":"05766","name":"Lippe","type":"Kreis"},"federalState":{"key":"05","name":"Nordrhein-Westfalen"}},{"name":"Im Schling","postalCode":"32694","locality":"Dörentrup","municipality":{"key":"05766024","name":"Dörentrup","type":"Kreisangehörige_Gemeinde"},"district":{"key":"05766","name":"Lippe","type":"Kreis"},"federalState":{"key":"05","name":"Nordrhein-Westfalen"}},{"name":"Im Wildland","postalCode":"32694","locality":"Dörentrup","municipality":{"key":"05766024","name":"Dörentrup","type":"Kreisangehörige_Gemeinde"},"district":{"key":"05766","name":"Lippe","type":"Kreis"},"federalState":{"key":"05","name":"Nordrhein-Westfalen"}},{"name":"In der Dickte","postalCode":"32694","locality":"Dörentrup","municipality":{"key":"05766024","name":"Dörentrup","type":"Kreisangehörige_Gemeinde"},"district":{"key":"05766","name":"Lippe","type":"Kreis"},"federalState":{"key":"05","name":"Nordrhein-Westfalen"}},{"name":"Industriestr.","postalCode":"32694","locality":"Dörentrup","municipality":{"key":"05766024","name":"Dörentrup","type":"Kreisangehörige_Gemeinde"},"district":{"key":"05766","name":"Lippe","type":"Kreis"},"federalState":{"key":"05","name":"Nordrhein-Westfalen"}},{"name":"Inselweg","postalCode":"32694","locality":"Dörentrup","municipality":{"key":"05766024","name":"Dörentrup","type":"Kreisangehörige_Gemeinde"},"district":{"key":"05766","name":"Lippe","type":"Kreis"},"federalState":{"key":"05","name":"Nordrhein-Westfalen"}},{"name":"Kampstr.","postalCode":"32694","locality":"Dörentrup","municipality":{"key":"05766024","name":"Dörentrup","type":"Kreisangehörige_Gemeinde"},"district":{"key":"05766","name":"Lippe","type":"Kreis"},"federalState":{"key":"05","name":"Nordrhein-Westfalen"}},{"name":"Kassenstr.","postalCode":"32694","locality":"Dörentrup","municipality":{"key":"05766024","name":"Dörentrup","type":"Kreisangehörige_Gemeinde"},"district":{"key":"05766","name":"Lippe","type":"Kreis"},"federalState":{"key":"05","name":"Nordrhein-Westfalen"}},{"name":"Katzhagen","postalCode":"32694","locality":"Dörentrup","municipality":{"key":"05766024","name":"Dörentrup","type":"Kreisangehörige_Gemeinde"},"district":{"key":"05766","name":"Lippe","type":"Kreis"},"federalState":{"key":"05","name":"Nordrhein-Westfalen"}},{"name":"Kehmeiersweg","postalCode":"32694","locality":"Dörentrup","municipality":{"key":"05766024","name":"Dörentrup","type":"Kreisangehörige_Gemeinde"},"district":{"key":"05766","name":"Lippe","type":"Kreis"},"federalState":{"key":"05","name":"Nordrhein-Westfalen"}},{"name":"Kesselbreite","postalCode":"32694","locality":"Dörentrup","municipality":{"key":"05766024","name":"Dörentrup","type":"Kreisangehörige_Gemeinde"},"district":{"key":"05766","name":"Lippe","type":"Kreis"},"federalState":{"key":"05","name":"Nordrhein-Westfalen"}},{"name":"Kiebitzweg","postalCode":"32694","locality":"Dörentrup","municipality":{"key":"05766024","name":"Dörentrup","type":"Kreisangehörige_Gemeinde"},"district":{"key":"05766","name":"Lippe","type":"Kreis"},"federalState":{"key":"05","name":"Nordrhein-Westfalen"}},{"name":"Köllerkamp","postalCode":"32694","locality":"Dörentrup","municipality":{"key":"05766024","name":"Dörentrup","type":"Kreisangehörige_Gemeinde"},"district":{"key":"05766","name":"Lippe","type":"Kreis"},"federalState":{"key":"05","name":"Nordrhein-Westfalen"}},{"name":"Kolmarer Str.","postalCode":"32694","locality":"Dörentrup","municipality":{"key":"05766024","name":"Dörentrup","type":"Kreisangehörige_Gemeinde"},"district":{"key":"05766","name":"Lippe","type":"Kreis"},"federalState":{"key":"05","name":"Nordrhein-Westfalen"}},{"name":"Königsberger Str.","postalCode":"32694","locality":"Dörentrup","municipality":{"key":"05766024","name":"Dörentrup","type":"Kreisangehörige_Gemeinde"},"district":{"key":"05766","name":"Lippe","type":"Kreis"},"federalState":{"key":"05","name":"Nordrhein-Westfalen"}},{"name":"Königstr.","postalCode":"32694","locality":"Dörentrup","municipality":{"key":"05766024","name":"Dörentrup","type":"Kreisangehörige_Gemeinde"},"district":{"key":"05766","name":"Lippe","type":"Kreis"},"federalState":{"key":"05","name":"Nordrhein-Westfalen"}},{"name":"Kornblumenweg","postalCode":"32694","locality":"Dörentrup","municipality":{"key":"05766024","name":"Dörentrup","type":"Kreisangehörige_Gemeinde"},"district":{"key":"05766","name":"Lippe","type":"Kreis"},"federalState":{"key":"05","name":"Nordrhein-Westfalen"}},{"name":"Krubberg","postalCode":"32694","locality":"Dörentrup","municipality":{"key":"05766024","name":"Dörentrup","type":"Kreisangehörige_Gemeinde"},"district":{"key":"05766","name":"Lippe","type":"Kreis"},"federalState":{"key":"05","name":"Nordrhein-Westfalen"}},{"name":"Krumme Str.","postalCode":"32694","locality":"Dörentrup","municipality":{"key":"05766024","name":"Dörentrup","type":"Kreisangehörige_Gemeinde"},"district":{"key":"05766","name":"Lippe","type":"Kreis"},"federalState":{"key":"05","name":"Nordrhein-Westfalen"}},{"name":"Krusfeld","postalCode":"32694","locality":"Dörentrup","municipality":{"key":"05766024","name":"Dörentrup","type":"Kreisangehörige_Gemeinde"},"district":{"key":"05766","name":"Lippe","type":"Kreis"},"federalState":{"key":"05","name":"Nordrhein-Westfalen"}},{"name":"Kuckucksweg","postalCode":"32694","locality":"Dörentrup","municipality":{"key":"05766024","name":"Dörentrup","type":"Kreisangehörige_Gemeinde"},"district":{"key":"05766","name":"Lippe","type":"Kreis"},"federalState":{"key":"05","name":"Nordrhein-Westfalen"}},{"name":"Landschaftspark Pottkuhle","postalCode":"32694","locality":"Dörentrup","municipality":{"key":"05766024","name":"Dörentrup","type":"Kreisangehörige_Gemeinde"},"district":{"key":"05766","name":"Lippe","type":"Kreis"},"federalState":{"key":"05","name":"Nordrhein-Westfalen"}},{"name":"Lemgoer Str.","postalCode":"32694","locality":"Dörentrup","municipality":{"key":"05766024","name":"Dörentrup","type":"Kreisangehörige_Gemeinde"},"district":{"key":"05766","name":"Lippe","type":"Kreis"},"federalState":{"key":"05","name":"Nordrhein-Westfalen"}},{"name":"Lenzbergstr.","postalCode":"32694","locality":"Dörentrup","municipality":{"key":"05766024","name":"Dörentrup","type":"Kreisangehörige_Gemeinde"},"district":{"key":"05766","name":"Lippe","type":"Kreis"},"federalState":{"key":"05","name":"Nordrhein-Westfalen"}},{"name":"Lerchenweg","postalCode":"32694","locality":"Dörentrup","municipality":{"key":"05766024","name":"Dörentrup","type":"Kreisangehörige_Gemeinde"},"district":{"key":"05766","name":"Lippe","type":"Kreis"},"federalState":{"key":"05","name":"Nordrhein-Westfalen"}},{"name":"Ligusterweg","postalCode":"32694","locality":"Dörentrup","municipality":{"key":"05766024","name":"Dörentrup","type":"Kreisangehörige_Gemeinde"},"district":{"key":"05766","name":"Lippe","type":"Kreis"},"federalState":{"key":"05","name":"Nordrhein-Westfalen"}},{"name":"Lüdenhausener Str.","postalCode":"32694","locality":"Dörentrup","municipality":{"key":"05766024","name":"Dörentrup","type":"Kreisangehörige_Gemeinde"},"district":{"key":"05766","name":"Lippe","type":"Kreis"},"federalState":{"key":"05","name":"Nordrhein-Westfalen"}},{"name":"Lütter Str.","postalCode":"32694","locality":"Dörentrup","municipality":{"key":"05766024","name":"Dörentrup","type":"Kreisangehörige_Gemeinde"},"district":{"key":"05766","name":"Lippe","type":"Kreis"},"federalState":{"key":"05","name":"Nordrhein-Westfalen"}},{"name":"Meierhofstr.","postalCode":"32694","locality":"Dörentrup","municipality":{"key":"05766024","name":"Dörentrup","type":"Kreisangehörige_Gemeinde"},"district":{"key":"05766","name":"Lippe","type":"Kreis"},"federalState":{"key":"05","name":"Nordrhein-Westfalen"}},{"name":"Meinde","postalCode":"32694","locality":"Dörentrup","municipality":{"key":"05766024","name":"Dörentrup","type":"Kreisangehörige_Gemeinde"},"district":{"key":"05766","name":"Lippe","type":"Kreis"},"federalState":{"key":"05","name":"Nordrhein-Westfalen"}},{"name":"Meisenweg","postalCode":"32694","locality":"Dörentrup","municipality":{"key":"05766024","name":"Dörentrup","type":"Kreisangehörige_Gemeinde"},"district":{"key":"05766","name":"Lippe","type":"Kreis"},"federalState":{"key":"05","name":"Nordrhein-Westfalen"}},{"name":"Mittelstr.","postalCode":"32694","locality":"Dörentrup","municipality":{"key":"05766024","name":"Dörentrup","type":"Kreisangehörige_Gemeinde"},"district":{"key":"05766","name":"Lippe","type":"Kreis"},"federalState":{"key":"05","name":"Nordrhein-Westfalen"}},{"name":"Mühlenstr.","postalCode":"32694","locality":"Dörentrup","municipality":{"key":"05766024","name":"Dörentrup","type":"Kreisangehörige_Gemeinde"},"district":{"key":"05766","name":"Lippe","type":"Kreis"},"federalState":{"key":"05","name":"Nordrhein-Westfalen"}},{"name":"Mulsterberg","postalCode":"32694","locality":"Dörentrup","municipality":{"key":"05766024","name":"Dörentrup","type":"Kreisangehörige_Gemeinde"},"district":{"key":"05766","name":"Lippe","type":"Kreis"},"federalState":{"key":"05","name":"Nordrhein-Westfalen"}},{"name":"Nachtigallenweg","postalCode":"32694","locality":"Dörentrup","municipality":{"key":"05766024","name":"Dörentrup","type":"Kreisangehörige_Gemeinde"},"district":{"key":"05766","name":"Lippe","type":"Kreis"},"federalState":{"key":"05","name":"Nordrhein-Westfalen"}},{"name":"Neuenkamp","postalCode":"32694","locality":"Dörentrup","municipality":{"key":"05766024","name":"Dörentrup","type":"Kreisangehörige_Gemeinde"},"district":{"key":"05766","name":"Lippe","type":"Kreis"},"federalState":{"key":"05","name":"Nordrhein-Westfalen"}},{"name":"Neue Str.","postalCode":"32694","locality":"Dörentrup","municipality":{"key":"05766024","name":"Dörentrup","type":"Kreisangehörige_Gemeinde"},"district":{"key":"05766","name":"Lippe","type":"Kreis"},"federalState":{"key":"05","name":"Nordrhein-Westfalen"}},{"name":"Neustadt","postalCode":"32694","locality":"Dörentrup","municipality":{"key":"05766024","name":"Dörentrup","type":"Kreisangehörige_Gemeinde"},"district":{"key":"05766","name":"Lippe","type":"Kreis"},"federalState":{"key":"05","name":"Nordrhein-Westfalen"}},{"name":"Noltenhöferweg","postalCode":"32694","locality":"Dörentrup","municipality":{"key":"05766024","name":"Dörentrup","type":"Kreisangehörige_Gemeinde"},"district":{"key":"05766","name":"Lippe","type":"Kreis"},"federalState":{"key":"05","name":"Nordrhein-Westfalen"}},{"name":"Nordstr.","postalCode":"32694","locality":"Dörentrup","municipality":{"key":"05766024","name":"Dörentrup","type":"Kreisangehörige_Gemeinde"},"district":{"key":"05766","name":"Lippe","type":"Kreis"},"federalState":{"key":"05","name":"Nordrhein-Westfalen"}},{"name":"Obere Dorfstr.","postalCode":"32694","locality":"Dörentrup","municipality":{"key":"05766024","name":"Dörentrup","type":"Kreisangehörige_Gemeinde"},"district":{"key":"05766","name":"Lippe","type":"Kreis"},"federalState":{"key":"05","name":"Nordrhein-Westfalen"}},{"name":"Obere Str.","postalCode":"32694","locality":"Dörentrup","municipality":{"key":"05766024","name":"Dörentrup","type":"Kreisangehörige_Gemeinde"},"district":{"key":"05766","name":"Lippe","type":"Kreis"},"federalState":{"key":"05","name":"Nordrhein-Westfalen"}},{"name":"Oelentrup","postalCode":"32694","locality":"Dörentrup","municipality":{"key":"05766024","name":"Dörentrup","type":"Kreisangehörige_Gemeinde"},"district":{"key":"05766","name":"Lippe","type":"Kreis"},"federalState":{"key":"05","name":"Nordrhein-Westfalen"}},{"name":"Papenstr.","postalCode":"32694","locality":"Dörentrup","municipality":{"key":"05766024","name":"Dörentrup","type":"Kreisangehörige_Gemeinde"},"district":{"key":"05766","name":"Lippe","type":"Kreis"},"federalState":{"key":"05","name":"Nordrhein-Westfalen"}},{"name":"Pferdekamp","postalCode":"32694","locality":"Dörentrup","municipality":{"key":"05766024","name":"Dörentrup","type":"Kreisangehörige_Gemeinde"},"district":{"key":"05766","name":"Lippe","type":"Kreis"},"federalState":{"key":"05","name":"Nordrhein-Westfalen"}},{"name":"Plaß","postalCode":"32694","locality":"Dörentrup","municipality":{"key":"05766024","name":"Dörentrup","type":"Kreisangehörige_Gemeinde"},"district":{"key":"05766","name":"Lippe","type":"Kreis"},"federalState":{"key":"05","name":"Nordrhein-Westfalen"}},{"name":"Pohlkamp","postalCode":"32694","locality":"Dörentrup","municipality":{"key":"05766024","name":"Dörentrup","type":"Kreisangehörige_Gemeinde"},"district":{"key":"05766","name":"Lippe","type":"Kreis"},"federalState":{"key":"05","name":"Nordrhein-Westfalen"}},{"name":"Poststr.","postalCode":"32694","locality":"Dörentrup","municipality":{"key":"05766024","name":"Dörentrup","type":"Kreisangehörige_Gemeinde"},"district":{"key":"05766","name":"Lippe","type":"Kreis"},"federalState":{"key":"05","name":"Nordrhein-Westfalen"}},{"name":"Rawaule","postalCode":"32694","locality":"Dörentrup","municipality":{"key":"05766024","name":"Dörentrup","type":"Kreisangehörige_Gemeinde"},"district":{"key":"05766","name":"Lippe","type":"Kreis"},"federalState":{"key":"05","name":"Nordrhein-Westfalen"}},{"name":"Riedeweg","postalCode":"32694","locality":"Dörentrup","municipality":{"key":"05766024","name":"Dörentrup","type":"Kreisangehörige_Gemeinde"},"district":{"key":"05766","name":"Lippe","type":"Kreis"},"federalState":{"key":"05","name":"Nordrhein-Westfalen"}},{"name":"Röhenberg","postalCode":"32694","locality":"Dörentrup","municipality":{"key":"05766024","name":"Dörentrup","type":"Kreisangehörige_Gemeinde"},"district":{"key":"05766","name":"Lippe","type":"Kreis"},"federalState":{"key":"05","name":"Nordrhein-Westfalen"}},{"name":"Rott","postalCode":"32694","locality":"Dörentrup","municipality":{"key":"05766024","name":"Dörentrup","type":"Kreisangehörige_Gemeinde"},"district":{"key":"05766","name":"Lippe","type":"Kreis"},"federalState":{"key":"05","name":"Nordrhein-Westfalen"}},{"name":"Rümeland","postalCode":"32694","locality":"Dörentrup","municipality":{"key":"05766024","name":"Dörentrup","type":"Kreisangehörige_Gemeinde"},"district":{"key":"05766","name":"Lippe","type":"Kreis"},"federalState":{"key":"05","name":"Nordrhein-Westfalen"}},{"name":"Rundweg um die Pottkuhle","postalCode":"32694","locality":"Dörentrup","municipality":{"key":"05766024","name":"Dörentrup","type":"Kreisangehörige_Gemeinde"},"district":{"key":"05766","name":"Lippe","type":"Kreis"},"federalState":{"key":"05","name":"Nordrhein-Westfalen"}},{"name":"Sanderhof","postalCode":"32694","locality":"Dörentrup","municipality":{"key":"05766024","name":"Dörentrup","type":"Kreisangehörige_Gemeinde"},"district":{"key":"05766","name":"Lippe","type":"Kreis"},"federalState":{"key":"05","name":"Nordrhein-Westfalen"}},{"name":"Schakenberg","postalCode":"32694","locality":"Dörentrup","municipality":{"key":"05766024","name":"Dörentrup","type":"Kreisangehörige_Gemeinde"},"district":{"key":"05766","name":"Lippe","type":"Kreis"},"federalState":{"key":"05","name":"Nordrhein-Westfalen"}},{"name":"Schulstr.","postalCode":"32694","locality":"Dörentrup","municipality":{"key":"05766024","name":"Dörentrup","type":"Kreisangehörige_Gemeinde"},"district":{"key":"05766","name":"Lippe","type":"Kreis"},"federalState":{"key":"05","name":"Nordrhein-Westfalen"}},{"name":"Schwelentruper Weg","postalCode":"32694","locality":"Dörentrup","municipality":{"key":"05766024","name":"Dörentrup","type":"Kreisangehörige_Gemeinde"},"district":{"key":"05766","name":"Lippe","type":"Kreis"},"federalState":{"key":"05","name":"Nordrhein-Westfalen"}},{"name":"Sibbentrup","postalCode":"32694","locality":"Dörentrup","municipality":{"key":"05766024","name":"Dörentrup","type":"Kreisangehörige_Gemeinde"},"district":{"key":"05766","name":"Lippe","type":"Kreis"},"federalState":{"key":"05","name":"Nordrhein-Westfalen"}},{"name":"Sibbentruper Str.","postalCode":"32694","locality":"Dörentrup","municipality":{"key":"05766024","name":"Dörentrup","type":"Kreisangehörige_Gemeinde"},"district":{"key":"05766","name":"Lippe","type":"Kreis"},"federalState":{"key":"05","name":"Nordrhein-Westfalen"}},{"name":"Sommerseller Str.","postalCode":"32694","locality":"Dörentrup","municipality":{"key":"05766024","name":"Dörentrup","type":"Kreisangehörige_Gemeinde"},"district":{"key":"05766","name":"Lippe","type":"Kreis"},"federalState":{"key":"05","name":"Nordrhein-Westfalen"}},{"name":"Sporker Berg","postalCode":"32694","locality":"Dörentrup","municipality":{"key":"05766024","name":"Dörentrup","type":"Kreisangehörige_Gemeinde"},"district":{"key":"05766","name":"Lippe","type":"Kreis"},"federalState":{"key":"05","name":"Nordrhein-Westfalen"}},{"name":"Sporkhagen","postalCode":"32694","locality":"Dörentrup","municipality":{"key":"05766024","name":"Dörentrup","type":"Kreisangehörige_Gemeinde"},"district":{"key":"05766","name":"Lippe","type":"Kreis"},"federalState":{"key":"05","name":"Nordrhein-Westfalen"}},{"name":"Steinberg","postalCode":"32694","locality":"Dörentrup","municipality":{"key":"05766024","name":"Dörentrup","type":"Kreisangehörige_Gemeinde"},"district":{"key":"05766","name":"Lippe","type":"Kreis"},"federalState":{"key":"05","name":"Nordrhein-Westfalen"}},{"name":"Steinkamp","postalCode":"32694","locality":"Dörentrup","municipality":{"key":"05766024","name":"Dörentrup","type":"Kreisangehörige_Gemeinde"},"district":{"key":"05766","name":"Lippe","type":"Kreis"},"federalState":{"key":"05","name":"Nordrhein-Westfalen"}},{"name":"Steinkuhlenweg","postalCode":"32694","locality":"Dörentrup","municipality":{"key":"05766024","name":"Dörentrup","type":"Kreisangehörige_Gemeinde"},"district":{"key":"05766","name":"Lippe","type":"Kreis"},"federalState":{"key":"05","name":"Nordrhein-Westfalen"}},{"name":"Sternberger Str.","postalCode":"32694","locality":"Dörentrup","municipality":{"key":"05766024","name":"Dörentrup","type":"Kreisangehörige_Gemeinde"},"district":{"key":"05766","name":"Lippe","type":"Kreis"},"federalState":{"key":"05","name":"Nordrhein-Westfalen"}},{"name":"Stettiner Str.","postalCode":"32694","locality":"Dörentrup","municipality":{"key":"05766024","name":"Dörentrup","type":"Kreisangehörige_Gemeinde"},"district":{"key":"05766","name":"Lippe","type":"Kreis"},"federalState":{"key":"05","name":"Nordrhein-Westfalen"}},{"name":"Stumpenhagen","postalCode":"32694","locality":"Dörentrup","municipality":{"key":"05766024","name":"Dörentrup","type":"Kreisangehörige_Gemeinde"},"district":{"key":"05766","name":"Lippe","type":"Kreis"},"federalState":{"key":"05","name":"Nordrhein-Westfalen"}},{"name":"Sudetenstr.","postalCode":"32694","locality":"Dörentrup","municipality":{"key":"05766024","name":"Dörentrup","type":"Kreisangehörige_Gemeinde"},"district":{"key":"05766","name":"Lippe","type":"Kreis"},"federalState":{"key":"05","name":"Nordrhein-Westfalen"}},{"name":"Südstr.","postalCode":"32694","locality":"Dörentrup","municipality":{"key":"05766024","name":"Dörentrup","type":"Kreisangehörige_Gemeinde"},"district":{"key":"05766","name":"Lippe","type":"Kreis"},"federalState":{"key":"05","name":"Nordrhein-Westfalen"}},{"name":"Teichtwete","postalCode":"32694","locality":"Dörentrup","municipality":{"key":"05766024","name":"Dörentrup","type":"Kreisangehörige_Gemeinde"},"district":{"key":"05766","name":"Lippe","type":"Kreis"},"federalState":{"key":"05","name":"Nordrhein-Westfalen"}},{"name":"Untere Dorfstr.","postalCode":"32694","locality":"Dörentrup","municipality":{"key":"05766024","name":"Dörentrup","type":"Kreisangehörige_Gemeinde"},"district":{"key":"05766","name":"Lippe","type":"Kreis"},"federalState":{"key":"05","name":"Nordrhein-Westfalen"}},{"name":"Untere Str.","postalCode":"32694","locality":"Dörentrup","municipality":{"key":"05766024","name":"Dörentrup","type":"Kreisangehörige_Gemeinde"},"district":{"key":"05766","name":"Lippe","type":"Kreis"},"federalState":{"key":"05","name":"Nordrhein-Westfalen"}},{"name":"Unter Gehren","postalCode":"32694","locality":"Dörentrup","municipality":{"key":"05766024","name":"Dörentrup","type":"Kreisangehörige_Gemeinde"},"district":{"key":"05766","name":"Lippe","type":"Kreis"},"federalState":{"key":"05","name":"Nordrhein-Westfalen"}},{"name":"Vogtskamp","postalCode":"32694","locality":"Dörentrup","municipality":{"key":"05766024","name":"Dörentrup","type":"Kreisangehörige_Gemeinde"},"district":{"key":"05766","name":"Lippe","type":"Kreis"},"federalState":{"key":"05","name":"Nordrhein-Westfalen"}},{"name":"Voßheider Str.","postalCode":"32694","locality":"Dörentrup","municipality":{"key":"05766024","name":"Dörentrup","type":"Kreisangehörige_Gemeinde"},"district":{"key":"05766","name":"Lippe","type":"Kreis"},"federalState":{"key":"05","name":"Nordrhein-Westfalen"}},{"name":"Waldenburger Weg","postalCode":"32694","locality":"Dörentrup","municipality":{"key":"05766024","name":"Dörentrup","type":"Kreisangehörige_Gemeinde"},"district":{"key":"05766","name":"Lippe","type":"Kreis"},"federalState":{"key":"05","name":"Nordrhein-Westfalen"}},{"name":"Waldmühlenweg","postalCode":"32694","locality":"Dörentrup","municipality":{"key":"05766024","name":"Dörentrup","type":"Kreisangehörige_Gemeinde"},"district":{"key":"05766","name":"Lippe","type":"Kreis"},"federalState":{"key":"05","name":"Nordrhein-Westfalen"}},{"name":"Waldstr.","postalCode":"32694","locality":"Dörentrup","municipality":{"key":"05766024","name":"Dörentrup","type":"Kreisangehörige_Gemeinde"},"district":{"key":"05766","name":"Lippe","type":"Kreis"},"federalState":{"key":"05","name":"Nordrhein-Westfalen"}},{"name":"Waldwinkel","postalCode":"32694","locality":"Dörentrup","municipality":{"key":"05766024","name":"Dörentrup","type":"Kreisangehörige_Gemeinde"},"district":{"key":"05766","name":"Lippe","type":"Kreis"},"federalState":{"key":"05","name":"Nordrhein-Westfalen"}},{"name":"Wasserweg","postalCode":"32694","locality":"Dörentrup","municipality":{"key":"05766024","name":"Dörentrup","type":"Kreisangehörige_Gemeinde"},"district":{"key":"05766","name":"Lippe","type":"Kreis"},"federalState":{"key":"05","name":"Nordrhein-Westfalen"}},{"name":"Wiesenstr.","postalCode":"32694","locality":"Dörentrup","municipality":{"key":"05766024","name":"Dörentrup","type":"Kreisangehörige_Gemeinde"},"district":{"key":"05766","name":"Lippe","type":"Kreis"},"federalState":{"key":"05","name":"Nordrhein-Westfalen"}},{"name":"Wildpfad","postalCode":"32694","locality":"Dörentrup","municipality":{"key":"05766024","name":"Dörentrup","type":"Kreisangehörige_Gemeinde"},"district":{"key":"05766","name":"Lippe","type":"Kreis"},"federalState":{"key":"05","name":"Nordrhein-Westfalen"}},{"name":"Wilkerott","postalCode":"32694","locality":"Dörentrup","municipality":{"key":"05766024","name":"Dörentrup","type":"Kreisangehörige_Gemeinde"},"district":{"key":"05766","name":"Lippe","type":"Kreis"},"federalState":{"key":"05","name":"Nordrhein-Westfalen"}},{"name":"Wülfentrup","postalCode":"32694","locality":"Dörentrup","municipality":{"key":"05766024","name":"Dörentrup","type":"Kreisangehörige_Gemeinde"},"district":{"key":"05766","name":"Lippe","type":"Kreis"},"federalState":{"key":"05","name":"Nordrhein-Westfalen"}},{"name":"Ziegenhirtenweg","postalCode":"32694","locality":"Dörentrup","municipality":{"key":"05766024","name":"Dörentrup","type":"Kreisangehörige_Gemeinde"},"district":{"key":"05766","name":"Lippe","type":"Kreis"},"federalState":{"key":"05","name":"Nordrhein-Westfalen"}},{"name":"Zum Alten Sternberg","postalCode":"32694","locality":"Dörentrup","municipality":{"key":"05766024","name":"Dörentrup","type":"Kreisangehörige_Gemeinde"},"district":{"key":"05766","name":"Lippe","type":"Kreis"},"federalState":{"key":"05","name":"Nordrhein-Westfalen"}},{"name":"Zum Bierholz","postalCode":"32694","locality":"Dörentrup","municipality":{"key":"05766024","name":"Dörentrup","type":"Kreisangehörige_Gemeinde"},"district":{"key":"05766","name":"Lippe","type":"Kreis"},"federalState":{"key":"05","name":"Nordrhein-Westfalen"}},{"name":"Zum Hudewald","postalCode":"32694","locality":"Dörentrup","municipality":{"key":"05766024","name":"Dörentrup","type":"Kreisangehörige_Gemeinde"},"district":{"key":"05766","name":"Lippe","type":"Kreis"},"federalState":{"key":"05","name":"Nordrhein-Westfalen"}},{"name":"Zum Netling","postalCode":"32694","locality":"Dörentrup","municipality":{"key":"05766024","name":"Dörentrup","type":"Kreisangehörige_Gemeinde"},"district":{"key":"05766","name":"Lippe","type":"Kreis"},"federalState":{"key":"05","name":"Nordrhein-Westfalen"}},{"name":"Zum Schneiderkamp","postalCode":"32694","locality":"Dörentrup","municipality":{"key":"05766024","name":"Dörentrup","type":"Kreisangehörige_Gemeinde"},"district":{"key":"05766","name":"Lippe","type":"Kreis"},"federalState":{"key":"05","name":"Nordrhein-Westfalen"}},{"name":"Zur Faulen Wiese","postalCode":"32694","locality":"Dörentrup","municipality":{"key":"05766024","name":"Dörentrup","type":"Kreisangehörige_Gemeinde"},"district":{"key":"05766","name":"Lippe","type":"Kreis"},"federalState":{"key":"05","name":"Nordrhein-Westfalen"}},{"name":"Zur großen Wiese","postalCode":"32694","locality":"Dörentrup","municipality":{"key":"05766024","name":"Dörentrup","type":"Kreisangehörige_Gemeinde"},"district":{"key":"05766","name":"Lippe","type":"Kreis"},"federalState":{"key":"05","name":"Nordrhein-Westfalen"}},{"name":"Zur Maibolte","postalCode":"32694","locality":"Dörentrup","municipality":{"key":"05766024","name":"Dörentrup","type":"Kreisangehörige_Gemeinde"},"district":{"key":"05766","name":"Lippe","type":"Kreis"},"federalState":{"key":"05","name":"Nordrhein-Westfalen"}},]