[{"name":"Achillesstr.","postalCode":"56203","locality":"Höhr-Grenzhausen","municipality":{"key":"07143032","name":"Höhr-Grenzhausen, Stadt","type":"Stadt"},"district":{"key":"07143","name":"Westerwaldkreis","type":"Landkreis"},"federalState":{"key":"07","name":"Rheinland-Pfalz"}},{"name":"Alfred-Kamp-Str.","postalCode":"56203","locality":"Höhr-Grenzhausen","municipality":{"key":"07143032","name":"Höhr-Grenzhausen, Stadt","type":"Stadt"},"district":{"key":"07143","name":"Westerwaldkreis","type":"Landkreis"},"federalState":{"key":"07","name":"Rheinland-Pfalz"}},{"name":"Am Alten Bahnhof","postalCode":"56203","locality":"Höhr-Grenzhausen","municipality":{"key":"07143032","name":"Höhr-Grenzhausen, Stadt","type":"Stadt"},"district":{"key":"07143","name":"Westerwaldkreis","type":"Landkreis"},"federalState":{"key":"07","name":"Rheinland-Pfalz"}},{"name":"Am Damm","postalCode":"56203","locality":"Höhr-Grenzhausen","municipality":{"key":"07143032","name":"Höhr-Grenzhausen, Stadt","type":"Stadt"},"district":{"key":"07143","name":"Westerwaldkreis","type":"Landkreis"},"federalState":{"key":"07","name":"Rheinland-Pfalz"}},{"name":"Am Grübchen","postalCode":"56203","locality":"Höhr-Grenzhausen","municipality":{"key":"07143032","name":"Höhr-Grenzhausen, Stadt","type":"Stadt"},"district":{"key":"07143","name":"Westerwaldkreis","type":"Landkreis"},"federalState":{"key":"07","name":"Rheinland-Pfalz"}},{"name":"Am Moorsberg","postalCode":"56203","locality":"Höhr-Grenzhausen","municipality":{"key":"07143032","name":"Höhr-Grenzhausen, Stadt","type":"Stadt"},"district":{"key":"07143","name":"Westerwaldkreis","type":"Landkreis"},"federalState":{"key":"07","name":"Rheinland-Pfalz"}},{"name":"Am Quarzsprung","postalCode":"56203","locality":"Höhr-Grenzhausen","municipality":{"key":"07143032","name":"Höhr-Grenzhausen, Stadt","type":"Stadt"},"district":{"key":"07143","name":"Westerwaldkreis","type":"Landkreis"},"federalState":{"key":"07","name":"Rheinland-Pfalz"}},{"name":"Am Rathaus","postalCode":"56203","locality":"Höhr-Grenzhausen","municipality":{"key":"07143032","name":"Höhr-Grenzhausen, Stadt","type":"Stadt"},"district":{"key":"07143","name":"Westerwaldkreis","type":"Landkreis"},"federalState":{"key":"07","name":"Rheinland-Pfalz"}},{"name":"Am Scheidberg","postalCode":"56203","locality":"Höhr-Grenzhausen","municipality":{"key":"07143032","name":"Höhr-Grenzhausen, Stadt","type":"Stadt"},"district":{"key":"07143","name":"Westerwaldkreis","type":"Landkreis"},"federalState":{"key":"07","name":"Rheinland-Pfalz"}},{"name":"Am Schneeberg","postalCode":"56203","locality":"Höhr-Grenzhausen","municipality":{"key":"07143032","name":"Höhr-Grenzhausen, Stadt","type":"Stadt"},"district":{"key":"07143","name":"Westerwaldkreis","type":"Landkreis"},"federalState":{"key":"07","name":"Rheinland-Pfalz"}},{"name":"Am Sonnenhang","postalCode":"56203","locality":"Höhr-Grenzhausen","municipality":{"key":"07143032","name":"Höhr-Grenzhausen, Stadt","type":"Stadt"},"district":{"key":"07143","name":"Westerwaldkreis","type":"Landkreis"},"federalState":{"key":"07","name":"Rheinland-Pfalz"}},{"name":"Am Tonberg","postalCode":"56203","locality":"Höhr-Grenzhausen","municipality":{"key":"07143032","name":"Höhr-Grenzhausen, Stadt","type":"Stadt"},"district":{"key":"07143","name":"Westerwaldkreis","type":"Landkreis"},"federalState":{"key":"07","name":"Rheinland-Pfalz"}},{"name":"Am Vallendarer Törchen","postalCode":"56203","locality":"Höhr-Grenzhausen","municipality":{"key":"07143032","name":"Höhr-Grenzhausen, Stadt","type":"Stadt"},"district":{"key":"07143","name":"Westerwaldkreis","type":"Landkreis"},"federalState":{"key":"07","name":"Rheinland-Pfalz"}},{"name":"Am Völker","postalCode":"56203","locality":"Höhr-Grenzhausen","municipality":{"key":"07143032","name":"Höhr-Grenzhausen, Stadt","type":"Stadt"},"district":{"key":"07143","name":"Westerwaldkreis","type":"Landkreis"},"federalState":{"key":"07","name":"Rheinland-Pfalz"}},{"name":"Am Zoll","postalCode":"56203","locality":"Höhr-Grenzhausen","municipality":{"key":"07143032","name":"Höhr-Grenzhausen, Stadt","type":"Stadt"},"district":{"key":"07143","name":"Westerwaldkreis","type":"Landkreis"},"federalState":{"key":"07","name":"Rheinland-Pfalz"}},{"name":"Anno-Knütgen-Str.","postalCode":"56203","locality":"Höhr-Grenzhausen","municipality":{"key":"07143032","name":"Höhr-Grenzhausen, Stadt","type":"Stadt"},"district":{"key":"07143","name":"Westerwaldkreis","type":"Landkreis"},"federalState":{"key":"07","name":"Rheinland-Pfalz"}},{"name":"Auf dem Acker","postalCode":"56203","locality":"Höhr-Grenzhausen","municipality":{"key":"07143032","name":"Höhr-Grenzhausen, Stadt","type":"Stadt"},"district":{"key":"07143","name":"Westerwaldkreis","type":"Landkreis"},"federalState":{"key":"07","name":"Rheinland-Pfalz"}},{"name":"Auf dem Hähnchen","postalCode":"56203","locality":"Höhr-Grenzhausen","municipality":{"key":"07143032","name":"Höhr-Grenzhausen, Stadt","type":"Stadt"},"district":{"key":"07143","name":"Westerwaldkreis","type":"Landkreis"},"federalState":{"key":"07","name":"Rheinland-Pfalz"}},{"name":"Auf der Haide","postalCode":"56203","locality":"Höhr-Grenzhausen","municipality":{"key":"07143032","name":"Höhr-Grenzhausen, Stadt","type":"Stadt"},"district":{"key":"07143","name":"Westerwaldkreis","type":"Landkreis"},"federalState":{"key":"07","name":"Rheinland-Pfalz"}},{"name":"Auf der Insel","postalCode":"56203","locality":"Höhr-Grenzhausen","municipality":{"key":"07143032","name":"Höhr-Grenzhausen, Stadt","type":"Stadt"},"district":{"key":"07143","name":"Westerwaldkreis","type":"Landkreis"},"federalState":{"key":"07","name":"Rheinland-Pfalz"}},{"name":"Bahnhofstr.","postalCode":"56203","locality":"Höhr-Grenzhausen","municipality":{"key":"07143032","name":"Höhr-Grenzhausen, Stadt","type":"Stadt"},"district":{"key":"07143","name":"Westerwaldkreis","type":"Landkreis"},"federalState":{"key":"07","name":"Rheinland-Pfalz"}},{"name":"Beethovenstr.","postalCode":"56203","locality":"Höhr-Grenzhausen","municipality":{"key":"07143032","name":"Höhr-Grenzhausen, Stadt","type":"Stadt"},"district":{"key":"07143","name":"Westerwaldkreis","type":"Landkreis"},"federalState":{"key":"07","name":"Rheinland-Pfalz"}},{"name":"Bergstr.","postalCode":"56203","locality":"Höhr-Grenzhausen","municipality":{"key":"07143032","name":"Höhr-Grenzhausen, Stadt","type":"Stadt"},"district":{"key":"07143","name":"Westerwaldkreis","type":"Landkreis"},"federalState":{"key":"07","name":"Rheinland-Pfalz"}},{"name":"Birkenweg","postalCode":"56203","locality":"Höhr-Grenzhausen","municipality":{"key":"07143032","name":"Höhr-Grenzhausen, Stadt","type":"Stadt"},"district":{"key":"07143","name":"Westerwaldkreis","type":"Landkreis"},"federalState":{"key":"07","name":"Rheinland-Pfalz"}},{"name":"Böckler-Str.","postalCode":"56203","locality":"Höhr-Grenzhausen","municipality":{"key":"07143032","name":"Höhr-Grenzhausen, Stadt","type":"Stadt"},"district":{"key":"07143","name":"Westerwaldkreis","type":"Landkreis"},"federalState":{"key":"07","name":"Rheinland-Pfalz"}},{"name":"Brexbachstr.","postalCode":"56203","locality":"Höhr-Grenzhausen","municipality":{"key":"07143032","name":"Höhr-Grenzhausen, Stadt","type":"Stadt"},"district":{"key":"07143","name":"Westerwaldkreis","type":"Landkreis"},"federalState":{"key":"07","name":"Rheinland-Pfalz"}},{"name":"Brextal","postalCode":"56203","locality":"Höhr-Grenzhausen","municipality":{"key":"07143032","name":"Höhr-Grenzhausen, Stadt","type":"Stadt"},"district":{"key":"07143","name":"Westerwaldkreis","type":"Landkreis"},"federalState":{"key":"07","name":"Rheinland-Pfalz"}},{"name":"Brunnenstr.","postalCode":"56203","locality":"Höhr-Grenzhausen","municipality":{"key":"07143032","name":"Höhr-Grenzhausen, Stadt","type":"Stadt"},"district":{"key":"07143","name":"Westerwaldkreis","type":"Landkreis"},"federalState":{"key":"07","name":"Rheinland-Pfalz"}},{"name":"Buchenweg","postalCode":"56203","locality":"Höhr-Grenzhausen","municipality":{"key":"07143032","name":"Höhr-Grenzhausen, Stadt","type":"Stadt"},"district":{"key":"07143","name":"Westerwaldkreis","type":"Landkreis"},"federalState":{"key":"07","name":"Rheinland-Pfalz"}},{"name":"Bunzlauer Str.","postalCode":"56203","locality":"Höhr-Grenzhausen","municipality":{"key":"07143032","name":"Höhr-Grenzhausen, Stadt","type":"Stadt"},"district":{"key":"07143","name":"Westerwaldkreis","type":"Landkreis"},"federalState":{"key":"07","name":"Rheinland-Pfalz"}},{"name":"Burgstr.","postalCode":"56203","locality":"Höhr-Grenzhausen","municipality":{"key":"07143032","name":"Höhr-Grenzhausen, Stadt","type":"Stadt"},"district":{"key":"07143","name":"Westerwaldkreis","type":"Landkreis"},"federalState":{"key":"07","name":"Rheinland-Pfalz"}},{"name":"Dammsweg","postalCode":"56203","locality":"Höhr-Grenzhausen","municipality":{"key":"07143032","name":"Höhr-Grenzhausen, Stadt","type":"Stadt"},"district":{"key":"07143","name":"Westerwaldkreis","type":"Landkreis"},"federalState":{"key":"07","name":"Rheinland-Pfalz"}},{"name":"Delleweg","postalCode":"56203","locality":"Höhr-Grenzhausen","municipality":{"key":"07143032","name":"Höhr-Grenzhausen, Stadt","type":"Stadt"},"district":{"key":"07143","name":"Westerwaldkreis","type":"Landkreis"},"federalState":{"key":"07","name":"Rheinland-Pfalz"}},{"name":"Eduard-Berdel-Str.","postalCode":"56203","locality":"Höhr-Grenzhausen","municipality":{"key":"07143032","name":"Höhr-Grenzhausen, Stadt","type":"Stadt"},"district":{"key":"07143","name":"Westerwaldkreis","type":"Landkreis"},"federalState":{"key":"07","name":"Rheinland-Pfalz"}},{"name":"Eichendorffweg","postalCode":"56203","locality":"Höhr-Grenzhausen","municipality":{"key":"07143032","name":"Höhr-Grenzhausen, Stadt","type":"Stadt"},"district":{"key":"07143","name":"Westerwaldkreis","type":"Landkreis"},"federalState":{"key":"07","name":"Rheinland-Pfalz"}},{"name":"Emser Str.","postalCode":"56203","locality":"Höhr-Grenzhausen","municipality":{"key":"07143032","name":"Höhr-Grenzhausen, Stadt","type":"Stadt"},"district":{"key":"07143","name":"Westerwaldkreis","type":"Landkreis"},"federalState":{"key":"07","name":"Rheinland-Pfalz"}},{"name":"Erlenweg","postalCode":"56203","locality":"Höhr-Grenzhausen","municipality":{"key":"07143032","name":"Höhr-Grenzhausen, Stadt","type":"Stadt"},"district":{"key":"07143","name":"Westerwaldkreis","type":"Landkreis"},"federalState":{"key":"07","name":"Rheinland-Pfalz"}},{"name":"Eulerstr.","postalCode":"56203","locality":"Höhr-Grenzhausen","municipality":{"key":"07143032","name":"Höhr-Grenzhausen, Stadt","type":"Stadt"},"district":{"key":"07143","name":"Westerwaldkreis","type":"Landkreis"},"federalState":{"key":"07","name":"Rheinland-Pfalz"}},{"name":"Ferbachstr.","postalCode":"56203","locality":"Höhr-Grenzhausen","municipality":{"key":"07143032","name":"Höhr-Grenzhausen, Stadt","type":"Stadt"},"district":{"key":"07143","name":"Westerwaldkreis","type":"Landkreis"},"federalState":{"key":"07","name":"Rheinland-Pfalz"}},{"name":"Friedensweg","postalCode":"56203","locality":"Höhr-Grenzhausen","municipality":{"key":"07143032","name":"Höhr-Grenzhausen, Stadt","type":"Stadt"},"district":{"key":"07143","name":"Westerwaldkreis","type":"Landkreis"},"federalState":{"key":"07","name":"Rheinland-Pfalz"}},{"name":"Friedrich-Corcilius-Weg","postalCode":"56203","locality":"Höhr-Grenzhausen","municipality":{"key":"07143032","name":"Höhr-Grenzhausen, Stadt","type":"Stadt"},"district":{"key":"07143","name":"Westerwaldkreis","type":"Landkreis"},"federalState":{"key":"07","name":"Rheinland-Pfalz"}},{"name":"Friedrich-Ebert-Str.","postalCode":"56203","locality":"Höhr-Grenzhausen","municipality":{"key":"07143032","name":"Höhr-Grenzhausen, Stadt","type":"Stadt"},"district":{"key":"07143","name":"Westerwaldkreis","type":"Landkreis"},"federalState":{"key":"07","name":"Rheinland-Pfalz"}},{"name":"Friedrichstr.","postalCode":"56203","locality":"Höhr-Grenzhausen","municipality":{"key":"07143032","name":"Höhr-Grenzhausen, Stadt","type":"Stadt"},"district":{"key":"07143","name":"Westerwaldkreis","type":"Landkreis"},"federalState":{"key":"07","name":"Rheinland-Pfalz"}},{"name":"Fröbelstr.","postalCode":"56203","locality":"Höhr-Grenzhausen","municipality":{"key":"07143032","name":"Höhr-Grenzhausen, Stadt","type":"Stadt"},"district":{"key":"07143","name":"Westerwaldkreis","type":"Landkreis"},"federalState":{"key":"07","name":"Rheinland-Pfalz"}},{"name":"Gartenstr.","postalCode":"56203","locality":"Höhr-Grenzhausen","municipality":{"key":"07143032","name":"Höhr-Grenzhausen, Stadt","type":"Stadt"},"district":{"key":"07143","name":"Westerwaldkreis","type":"Landkreis"},"federalState":{"key":"07","name":"Rheinland-Pfalz"}},{"name":"Georg-Steuler-Str.","postalCode":"56203","locality":"Höhr-Grenzhausen","municipality":{"key":"07143032","name":"Höhr-Grenzhausen, Stadt","type":"Stadt"},"district":{"key":"07143","name":"Westerwaldkreis","type":"Landkreis"},"federalState":{"key":"07","name":"Rheinland-Pfalz"}},{"name":"Gerhart-Hauptmann-Str.","postalCode":"56203","locality":"Höhr-Grenzhausen","municipality":{"key":"07143032","name":"Höhr-Grenzhausen, Stadt","type":"Stadt"},"district":{"key":"07143","name":"Westerwaldkreis","type":"Landkreis"},"federalState":{"key":"07","name":"Rheinland-Pfalz"}},{"name":"Hainchenweg","postalCode":"56203","locality":"Höhr-Grenzhausen","municipality":{"key":"07143032","name":"Höhr-Grenzhausen, Stadt","type":"Stadt"},"district":{"key":"07143","name":"Westerwaldkreis","type":"Landkreis"},"federalState":{"key":"07","name":"Rheinland-Pfalz"}},{"name":"Händelstr.","postalCode":"56203","locality":"Höhr-Grenzhausen","municipality":{"key":"07143032","name":"Höhr-Grenzhausen, Stadt","type":"Stadt"},"district":{"key":"07143","name":"Westerwaldkreis","type":"Landkreis"},"federalState":{"key":"07","name":"Rheinland-Pfalz"}},{"name":"Heinrich-Meister-Str.","postalCode":"56203","locality":"Höhr-Grenzhausen","municipality":{"key":"07143032","name":"Höhr-Grenzhausen, Stadt","type":"Stadt"},"district":{"key":"07143","name":"Westerwaldkreis","type":"Landkreis"},"federalState":{"key":"07","name":"Rheinland-Pfalz"}},{"name":"Hermann-Geisen-Str.","postalCode":"56203","locality":"Höhr-Grenzhausen","municipality":{"key":"07143032","name":"Höhr-Grenzhausen, Stadt","type":"Stadt"},"district":{"key":"07143","name":"Westerwaldkreis","type":"Landkreis"},"federalState":{"key":"07","name":"Rheinland-Pfalz"}},{"name":"Hermannstr.","postalCode":"56203","locality":"Höhr-Grenzhausen","municipality":{"key":"07143032","name":"Höhr-Grenzhausen, Stadt","type":"Stadt"},"district":{"key":"07143","name":"Westerwaldkreis","type":"Landkreis"},"federalState":{"key":"07","name":"Rheinland-Pfalz"}},{"name":"HG1 HG4","postalCode":"56203","locality":"Höhr-Grenzhausen","municipality":{"key":"07143032","name":"Höhr-Grenzhausen, Stadt","type":"Stadt"},"district":{"key":"07143","name":"Westerwaldkreis","type":"Landkreis"},"federalState":{"key":"07","name":"Rheinland-Pfalz"}},{"name":"Höhenstr.","postalCode":"56203","locality":"Höhr-Grenzhausen","municipality":{"key":"07143032","name":"Höhr-Grenzhausen, Stadt","type":"Stadt"},"district":{"key":"07143","name":"Westerwaldkreis","type":"Landkreis"},"federalState":{"key":"07","name":"Rheinland-Pfalz"}},{"name":"Hollersborn","postalCode":"56203","locality":"Höhr-Grenzhausen","municipality":{"key":"07143032","name":"Höhr-Grenzhausen, Stadt","type":"Stadt"},"district":{"key":"07143","name":"Westerwaldkreis","type":"Landkreis"},"federalState":{"key":"07","name":"Rheinland-Pfalz"}},{"name":"Hubertusstr.","postalCode":"56203","locality":"Höhr-Grenzhausen","municipality":{"key":"07143032","name":"Höhr-Grenzhausen, Stadt","type":"Stadt"},"district":{"key":"07143","name":"Westerwaldkreis","type":"Landkreis"},"federalState":{"key":"07","name":"Rheinland-Pfalz"}},{"name":"Im Hinterfeld","postalCode":"56203","locality":"Höhr-Grenzhausen","municipality":{"key":"07143032","name":"Höhr-Grenzhausen, Stadt","type":"Stadt"},"district":{"key":"07143","name":"Westerwaldkreis","type":"Landkreis"},"federalState":{"key":"07","name":"Rheinland-Pfalz"}},{"name":"Im Silbertal","postalCode":"56203","locality":"Höhr-Grenzhausen","municipality":{"key":"07143032","name":"Höhr-Grenzhausen, Stadt","type":"Stadt"},"district":{"key":"07143","name":"Westerwaldkreis","type":"Landkreis"},"federalState":{"key":"07","name":"Rheinland-Pfalz"}},{"name":"Im Sohr","postalCode":"56203","locality":"Höhr-Grenzhausen","municipality":{"key":"07143032","name":"Höhr-Grenzhausen, Stadt","type":"Stadt"},"district":{"key":"07143","name":"Westerwaldkreis","type":"Landkreis"},"federalState":{"key":"07","name":"Rheinland-Pfalz"}},{"name":"Im Zipfen","postalCode":"56203","locality":"Höhr-Grenzhausen","municipality":{"key":"07143032","name":"Höhr-Grenzhausen, Stadt","type":"Stadt"},"district":{"key":"07143","name":"Westerwaldkreis","type":"Landkreis"},"federalState":{"key":"07","name":"Rheinland-Pfalz"}},{"name":"In den Baumgärten","postalCode":"56203","locality":"Höhr-Grenzhausen","municipality":{"key":"07143032","name":"Höhr-Grenzhausen, Stadt","type":"Stadt"},"district":{"key":"07143","name":"Westerwaldkreis","type":"Landkreis"},"federalState":{"key":"07","name":"Rheinland-Pfalz"}},{"name":"In der Trift","postalCode":"56203","locality":"Höhr-Grenzhausen","municipality":{"key":"07143032","name":"Höhr-Grenzhausen, Stadt","type":"Stadt"},"district":{"key":"07143","name":"Westerwaldkreis","type":"Landkreis"},"federalState":{"key":"07","name":"Rheinland-Pfalz"}},{"name":"Jacques-Remy-Str.","postalCode":"56203","locality":"Höhr-Grenzhausen","municipality":{"key":"07143032","name":"Höhr-Grenzhausen, Stadt","type":"Stadt"},"district":{"key":"07143","name":"Westerwaldkreis","type":"Landkreis"},"federalState":{"key":"07","name":"Rheinland-Pfalz"}},{"name":"Jahnplatz","postalCode":"56203","locality":"Höhr-Grenzhausen","municipality":{"key":"07143032","name":"Höhr-Grenzhausen, Stadt","type":"Stadt"},"district":{"key":"07143","name":"Westerwaldkreis","type":"Landkreis"},"federalState":{"key":"07","name":"Rheinland-Pfalz"}},{"name":"Johann-Kalb-Str.","postalCode":"56203","locality":"Höhr-Grenzhausen","municipality":{"key":"07143032","name":"Höhr-Grenzhausen, Stadt","type":"Stadt"},"district":{"key":"07143","name":"Westerwaldkreis","type":"Landkreis"},"federalState":{"key":"07","name":"Rheinland-Pfalz"}},{"name":"Juchaczstr.","postalCode":"56203","locality":"Höhr-Grenzhausen","municipality":{"key":"07143032","name":"Höhr-Grenzhausen, Stadt","type":"Stadt"},"district":{"key":"07143","name":"Westerwaldkreis","type":"Landkreis"},"federalState":{"key":"07","name":"Rheinland-Pfalz"}},{"name":"Junglasstr.","postalCode":"56203","locality":"Höhr-Grenzhausen","municipality":{"key":"07143032","name":"Höhr-Grenzhausen, Stadt","type":"Stadt"},"district":{"key":"07143","name":"Westerwaldkreis","type":"Landkreis"},"federalState":{"key":"07","name":"Rheinland-Pfalz"}},{"name":"Kasinostr.","postalCode":"56203","locality":"Höhr-Grenzhausen","municipality":{"key":"07143032","name":"Höhr-Grenzhausen, Stadt","type":"Stadt"},"district":{"key":"07143","name":"Westerwaldkreis","type":"Landkreis"},"federalState":{"key":"07","name":"Rheinland-Pfalz"}},{"name":"Kastanienweg","postalCode":"56203","locality":"Höhr-Grenzhausen","municipality":{"key":"07143032","name":"Höhr-Grenzhausen, Stadt","type":"Stadt"},"district":{"key":"07143","name":"Westerwaldkreis","type":"Landkreis"},"federalState":{"key":"07","name":"Rheinland-Pfalz"}},{"name":"Katharina-Kasper-Str.","postalCode":"56203","locality":"Höhr-Grenzhausen","municipality":{"key":"07143032","name":"Höhr-Grenzhausen, Stadt","type":"Stadt"},"district":{"key":"07143","name":"Westerwaldkreis","type":"Landkreis"},"federalState":{"key":"07","name":"Rheinland-Pfalz"}},{"name":"Katharinenstr.","postalCode":"56203","locality":"Höhr-Grenzhausen","municipality":{"key":"07143032","name":"Höhr-Grenzhausen, Stadt","type":"Stadt"},"district":{"key":"07143","name":"Westerwaldkreis","type":"Landkreis"},"federalState":{"key":"07","name":"Rheinland-Pfalz"}},{"name":"Kirchstr.","postalCode":"56203","locality":"Höhr-Grenzhausen","municipality":{"key":"07143032","name":"Höhr-Grenzhausen, Stadt","type":"Stadt"},"district":{"key":"07143","name":"Westerwaldkreis","type":"Landkreis"},"federalState":{"key":"07","name":"Rheinland-Pfalz"}},{"name":"Kirchweg","postalCode":"56203","locality":"Höhr-Grenzhausen","municipality":{"key":"07143032","name":"Höhr-Grenzhausen, Stadt","type":"Stadt"},"district":{"key":"07143","name":"Westerwaldkreis","type":"Landkreis"},"federalState":{"key":"07","name":"Rheinland-Pfalz"}},{"name":"Kleine Emser Str.","postalCode":"56203","locality":"Höhr-Grenzhausen","municipality":{"key":"07143032","name":"Höhr-Grenzhausen, Stadt","type":"Stadt"},"district":{"key":"07143","name":"Westerwaldkreis","type":"Landkreis"},"federalState":{"key":"07","name":"Rheinland-Pfalz"}},{"name":"Kleine Schützenstr.","postalCode":"56203","locality":"Höhr-Grenzhausen","municipality":{"key":"07143032","name":"Höhr-Grenzhausen, Stadt","type":"Stadt"},"district":{"key":"07143","name":"Westerwaldkreis","type":"Landkreis"},"federalState":{"key":"07","name":"Rheinland-Pfalz"}},{"name":"Kolpingweg","postalCode":"56203","locality":"Höhr-Grenzhausen","municipality":{"key":"07143032","name":"Höhr-Grenzhausen, Stadt","type":"Stadt"},"district":{"key":"07143","name":"Westerwaldkreis","type":"Landkreis"},"federalState":{"key":"07","name":"Rheinland-Pfalz"}},{"name":"Kreuzweg","postalCode":"56203","locality":"Höhr-Grenzhausen","municipality":{"key":"07143032","name":"Höhr-Grenzhausen, Stadt","type":"Stadt"},"district":{"key":"07143","name":"Westerwaldkreis","type":"Landkreis"},"federalState":{"key":"07","name":"Rheinland-Pfalz"}},{"name":"Langeheck","postalCode":"56203","locality":"Höhr-Grenzhausen","municipality":{"key":"07143032","name":"Höhr-Grenzhausen, Stadt","type":"Stadt"},"district":{"key":"07143","name":"Westerwaldkreis","type":"Landkreis"},"federalState":{"key":"07","name":"Rheinland-Pfalz"}},{"name":"Lindenstr.","postalCode":"56203","locality":"Höhr-Grenzhausen","municipality":{"key":"07143032","name":"Höhr-Grenzhausen, Stadt","type":"Stadt"},"district":{"key":"07143","name":"Westerwaldkreis","type":"Landkreis"},"federalState":{"key":"07","name":"Rheinland-Pfalz"}},{"name":"Lönsweg","postalCode":"56203","locality":"Höhr-Grenzhausen","municipality":{"key":"07143032","name":"Höhr-Grenzhausen, Stadt","type":"Stadt"},"district":{"key":"07143","name":"Westerwaldkreis","type":"Landkreis"},"federalState":{"key":"07","name":"Rheinland-Pfalz"}},{"name":"Luisenstr.","postalCode":"56203","locality":"Höhr-Grenzhausen","municipality":{"key":"07143032","name":"Höhr-Grenzhausen, Stadt","type":"Stadt"},"district":{"key":"07143","name":"Westerwaldkreis","type":"Landkreis"},"federalState":{"key":"07","name":"Rheinland-Pfalz"}},{"name":"Marienweg","postalCode":"56203","locality":"Höhr-Grenzhausen","municipality":{"key":"07143032","name":"Höhr-Grenzhausen, Stadt","type":"Stadt"},"district":{"key":"07143","name":"Westerwaldkreis","type":"Landkreis"},"federalState":{"key":"07","name":"Rheinland-Pfalz"}},{"name":"Martin-Luther-Str.","postalCode":"56203","locality":"Höhr-Grenzhausen","municipality":{"key":"07143032","name":"Höhr-Grenzhausen, Stadt","type":"Stadt"},"district":{"key":"07143","name":"Westerwaldkreis","type":"Landkreis"},"federalState":{"key":"07","name":"Rheinland-Pfalz"}},{"name":"Mittelstr.","postalCode":"56203","locality":"Höhr-Grenzhausen","municipality":{"key":"07143032","name":"Höhr-Grenzhausen, Stadt","type":"Stadt"},"district":{"key":"07143","name":"Westerwaldkreis","type":"Landkreis"},"federalState":{"key":"07","name":"Rheinland-Pfalz"}},{"name":"Moorsberg","postalCode":"56203","locality":"Höhr-Grenzhausen","municipality":{"key":"07143032","name":"Höhr-Grenzhausen, Stadt","type":"Stadt"},"district":{"key":"07143","name":"Westerwaldkreis","type":"Landkreis"},"federalState":{"key":"07","name":"Rheinland-Pfalz"}},{"name":"Neue Örter","postalCode":"56203","locality":"Höhr-Grenzhausen","municipality":{"key":"07143032","name":"Höhr-Grenzhausen, Stadt","type":"Stadt"},"district":{"key":"07143","name":"Westerwaldkreis","type":"Landkreis"},"federalState":{"key":"07","name":"Rheinland-Pfalz"}},{"name":"Neumühle","postalCode":"56203","locality":"Höhr-Grenzhausen","municipality":{"key":"07143032","name":"Höhr-Grenzhausen, Stadt","type":"Stadt"},"district":{"key":"07143","name":"Westerwaldkreis","type":"Landkreis"},"federalState":{"key":"07","name":"Rheinland-Pfalz"}},{"name":"Parkstr.","postalCode":"56203","locality":"Höhr-Grenzhausen","municipality":{"key":"07143032","name":"Höhr-Grenzhausen, Stadt","type":"Stadt"},"district":{"key":"07143","name":"Westerwaldkreis","type":"Landkreis"},"federalState":{"key":"07","name":"Rheinland-Pfalz"}},{"name":"Paul-Viehmann-Allee","postalCode":"56203","locality":"Höhr-Grenzhausen","municipality":{"key":"07143032","name":"Höhr-Grenzhausen, Stadt","type":"Stadt"},"district":{"key":"07143","name":"Westerwaldkreis","type":"Landkreis"},"federalState":{"key":"07","name":"Rheinland-Pfalz"}},{"name":"Peter-Dümler-Str.","postalCode":"56203","locality":"Höhr-Grenzhausen","municipality":{"key":"07143032","name":"Höhr-Grenzhausen, Stadt","type":"Stadt"},"district":{"key":"07143","name":"Westerwaldkreis","type":"Landkreis"},"federalState":{"key":"07","name":"Rheinland-Pfalz"}},{"name":"Rastal-Str.","postalCode":"56203","locality":"Höhr-Grenzhausen","municipality":{"key":"07143032","name":"Höhr-Grenzhausen, Stadt","type":"Stadt"},"district":{"key":"07143","name":"Westerwaldkreis","type":"Landkreis"},"federalState":{"key":"07","name":"Rheinland-Pfalz"}},{"name":"Rathausstr.","postalCode":"56203","locality":"Höhr-Grenzhausen","municipality":{"key":"07143032","name":"Höhr-Grenzhausen, Stadt","type":"Stadt"},"district":{"key":"07143","name":"Westerwaldkreis","type":"Landkreis"},"federalState":{"key":"07","name":"Rheinland-Pfalz"}},{"name":"Reinhold-Hanke-Str.","postalCode":"56203","locality":"Höhr-Grenzhausen","municipality":{"key":"07143032","name":"Höhr-Grenzhausen, Stadt","type":"Stadt"},"district":{"key":"07143","name":"Westerwaldkreis","type":"Landkreis"},"federalState":{"key":"07","name":"Rheinland-Pfalz"}},{"name":"Rheinstr.","postalCode":"56203","locality":"Höhr-Grenzhausen","municipality":{"key":"07143032","name":"Höhr-Grenzhausen, Stadt","type":"Stadt"},"district":{"key":"07143","name":"Westerwaldkreis","type":"Landkreis"},"federalState":{"key":"07","name":"Rheinland-Pfalz"}},{"name":"Ringstr.","postalCode":"56203","locality":"Höhr-Grenzhausen","municipality":{"key":"07143032","name":"Höhr-Grenzhausen, Stadt","type":"Stadt"},"district":{"key":"07143","name":"Westerwaldkreis","type":"Landkreis"},"federalState":{"key":"07","name":"Rheinland-Pfalz"}},{"name":"Robert-Koch-Str.","postalCode":"56203","locality":"Höhr-Grenzhausen","municipality":{"key":"07143032","name":"Höhr-Grenzhausen, Stadt","type":"Stadt"},"district":{"key":"07143","name":"Westerwaldkreis","type":"Landkreis"},"federalState":{"key":"07","name":"Rheinland-Pfalz"}},{"name":"Römerberg","postalCode":"56203","locality":"Höhr-Grenzhausen","municipality":{"key":"07143032","name":"Höhr-Grenzhausen, Stadt","type":"Stadt"},"district":{"key":"07143","name":"Westerwaldkreis","type":"Landkreis"},"federalState":{"key":"07","name":"Rheinland-Pfalz"}},{"name":"Sankt-Georg-Weg","postalCode":"56203","locality":"Höhr-Grenzhausen","municipality":{"key":"07143032","name":"Höhr-Grenzhausen, Stadt","type":"Stadt"},"district":{"key":"07143","name":"Westerwaldkreis","type":"Landkreis"},"federalState":{"key":"07","name":"Rheinland-Pfalz"}},{"name":"Sankt-Martin-Weg","postalCode":"56203","locality":"Höhr-Grenzhausen","municipality":{"key":"07143032","name":"Höhr-Grenzhausen, Stadt","type":"Stadt"},"district":{"key":"07143","name":"Westerwaldkreis","type":"Landkreis"},"federalState":{"key":"07","name":"Rheinland-Pfalz"}},{"name":"Scheidstr.","postalCode":"56203","locality":"Höhr-Grenzhausen","municipality":{"key":"07143032","name":"Höhr-Grenzhausen, Stadt","type":"Stadt"},"district":{"key":"07143","name":"Westerwaldkreis","type":"Landkreis"},"federalState":{"key":"07","name":"Rheinland-Pfalz"}},{"name":"Scheinbergstr.","postalCode":"56203","locality":"Höhr-Grenzhausen","municipality":{"key":"07143032","name":"Höhr-Grenzhausen, Stadt","type":"Stadt"},"district":{"key":"07143","name":"Westerwaldkreis","type":"Landkreis"},"federalState":{"key":"07","name":"Rheinland-Pfalz"}},{"name":"Schenkendorfplatz","postalCode":"56203","locality":"Höhr-Grenzhausen","municipality":{"key":"07143032","name":"Höhr-Grenzhausen, Stadt","type":"Stadt"},"district":{"key":"07143","name":"Westerwaldkreis","type":"Landkreis"},"federalState":{"key":"07","name":"Rheinland-Pfalz"}},{"name":"Schillerplatz","postalCode":"56203","locality":"Höhr-Grenzhausen","municipality":{"key":"07143032","name":"Höhr-Grenzhausen, Stadt","type":"Stadt"},"district":{"key":"07143","name":"Westerwaldkreis","type":"Landkreis"},"federalState":{"key":"07","name":"Rheinland-Pfalz"}},{"name":"Schillerstr.","postalCode":"56203","locality":"Höhr-Grenzhausen","municipality":{"key":"07143032","name":"Höhr-Grenzhausen, Stadt","type":"Stadt"},"district":{"key":"07143","name":"Westerwaldkreis","type":"Landkreis"},"federalState":{"key":"07","name":"Rheinland-Pfalz"}},{"name":"Schneebergstr.","postalCode":"56203","locality":"Höhr-Grenzhausen","municipality":{"key":"07143032","name":"Höhr-Grenzhausen, Stadt","type":"Stadt"},"district":{"key":"07143","name":"Westerwaldkreis","type":"Landkreis"},"federalState":{"key":"07","name":"Rheinland-Pfalz"}},{"name":"Schneidershöhe","postalCode":"56203","locality":"Höhr-Grenzhausen","municipality":{"key":"07143032","name":"Höhr-Grenzhausen, Stadt","type":"Stadt"},"district":{"key":"07143","name":"Westerwaldkreis","type":"Landkreis"},"federalState":{"key":"07","name":"Rheinland-Pfalz"}},{"name":"Schulstr.","postalCode":"56203","locality":"Höhr-Grenzhausen","municipality":{"key":"07143032","name":"Höhr-Grenzhausen, Stadt","type":"Stadt"},"district":{"key":"07143","name":"Westerwaldkreis","type":"Landkreis"},"federalState":{"key":"07","name":"Rheinland-Pfalz"}},{"name":"Schützenstr.","postalCode":"56203","locality":"Höhr-Grenzhausen","municipality":{"key":"07143032","name":"Höhr-Grenzhausen, Stadt","type":"Stadt"},"district":{"key":"07143","name":"Westerwaldkreis","type":"Landkreis"},"federalState":{"key":"07","name":"Rheinland-Pfalz"}},{"name":"Schweitzerstr.","postalCode":"56203","locality":"Höhr-Grenzhausen","municipality":{"key":"07143032","name":"Höhr-Grenzhausen, Stadt","type":"Stadt"},"district":{"key":"07143","name":"Westerwaldkreis","type":"Landkreis"},"federalState":{"key":"07","name":"Rheinland-Pfalz"}},{"name":"Seiferwiese","postalCode":"56203","locality":"Höhr-Grenzhausen","municipality":{"key":"07143032","name":"Höhr-Grenzhausen, Stadt","type":"Stadt"},"district":{"key":"07143","name":"Westerwaldkreis","type":"Landkreis"},"federalState":{"key":"07","name":"Rheinland-Pfalz"}},{"name":"Sonnenweg","postalCode":"56203","locality":"Höhr-Grenzhausen","municipality":{"key":"07143032","name":"Höhr-Grenzhausen, Stadt","type":"Stadt"},"district":{"key":"07143","name":"Westerwaldkreis","type":"Landkreis"},"federalState":{"key":"07","name":"Rheinland-Pfalz"}},{"name":"Stadtpark","postalCode":"56203","locality":"Höhr-Grenzhausen","municipality":{"key":"07143032","name":"Höhr-Grenzhausen, Stadt","type":"Stadt"},"district":{"key":"07143","name":"Westerwaldkreis","type":"Landkreis"},"federalState":{"key":"07","name":"Rheinland-Pfalz"}},{"name":"Stammsbitz","postalCode":"56203","locality":"Höhr-Grenzhausen","municipality":{"key":"07143032","name":"Höhr-Grenzhausen, Stadt","type":"Stadt"},"district":{"key":"07143","name":"Westerwaldkreis","type":"Landkreis"},"federalState":{"key":"07","name":"Rheinland-Pfalz"}},{"name":"Steinreuschweg","postalCode":"56203","locality":"Höhr-Grenzhausen","municipality":{"key":"07143032","name":"Höhr-Grenzhausen, Stadt","type":"Stadt"},"district":{"key":"07143","name":"Westerwaldkreis","type":"Landkreis"},"federalState":{"key":"07","name":"Rheinland-Pfalz"}},{"name":"Südallee","postalCode":"56203","locality":"Höhr-Grenzhausen","municipality":{"key":"07143032","name":"Höhr-Grenzhausen, Stadt","type":"Stadt"},"district":{"key":"07143","name":"Westerwaldkreis","type":"Landkreis"},"federalState":{"key":"07","name":"Rheinland-Pfalz"}},{"name":"Teplitz-Schönauer-Str.","postalCode":"56203","locality":"Höhr-Grenzhausen","municipality":{"key":"07143032","name":"Höhr-Grenzhausen, Stadt","type":"Stadt"},"district":{"key":"07143","name":"Westerwaldkreis","type":"Landkreis"},"federalState":{"key":"07","name":"Rheinland-Pfalz"}},{"name":"Theodor-Storm-Str.","postalCode":"56203","locality":"Höhr-Grenzhausen","municipality":{"key":"07143032","name":"Höhr-Grenzhausen, Stadt","type":"Stadt"},"district":{"key":"07143","name":"Westerwaldkreis","type":"Landkreis"},"federalState":{"key":"07","name":"Rheinland-Pfalz"}},{"name":"Töpferstr.","postalCode":"56203","locality":"Höhr-Grenzhausen","municipality":{"key":"07143032","name":"Höhr-Grenzhausen, Stadt","type":"Stadt"},"district":{"key":"07143","name":"Westerwaldkreis","type":"Landkreis"},"federalState":{"key":"07","name":"Rheinland-Pfalz"}},{"name":"Traumpfade, Waldschluchtenweg","postalCode":"56203","locality":"Höhr-Grenzhausen","municipality":{"key":"07143032","name":"Höhr-Grenzhausen, Stadt","type":"Stadt"},"district":{"key":"07143","name":"Westerwaldkreis","type":"Landkreis"},"federalState":{"key":"07","name":"Rheinland-Pfalz"}},{"name":"Turnstr.","postalCode":"56203","locality":"Höhr-Grenzhausen","municipality":{"key":"07143032","name":"Höhr-Grenzhausen, Stadt","type":"Stadt"},"district":{"key":"07143","name":"Westerwaldkreis","type":"Landkreis"},"federalState":{"key":"07","name":"Rheinland-Pfalz"}},{"name":"Wäller Weg","postalCode":"56203","locality":"Höhr-Grenzhausen","municipality":{"key":"07143032","name":"Höhr-Grenzhausen, Stadt","type":"Stadt"},"district":{"key":"07143","name":"Westerwaldkreis","type":"Landkreis"},"federalState":{"key":"07","name":"Rheinland-Pfalz"}},{"name":"Weiherstr.","postalCode":"56203","locality":"Höhr-Grenzhausen","municipality":{"key":"07143032","name":"Höhr-Grenzhausen, Stadt","type":"Stadt"},"district":{"key":"07143","name":"Westerwaldkreis","type":"Landkreis"},"federalState":{"key":"07","name":"Rheinland-Pfalz"}},{"name":"Westerwaldstr.","postalCode":"56203","locality":"Höhr-Grenzhausen","municipality":{"key":"07143032","name":"Höhr-Grenzhausen, Stadt","type":"Stadt"},"district":{"key":"07143","name":"Westerwaldkreis","type":"Landkreis"},"federalState":{"key":"07","name":"Rheinland-Pfalz"}},{"name":"Wiesenstr.","postalCode":"56203","locality":"Höhr-Grenzhausen","municipality":{"key":"07143032","name":"Höhr-Grenzhausen, Stadt","type":"Stadt"},"district":{"key":"07143","name":"Westerwaldkreis","type":"Landkreis"},"federalState":{"key":"07","name":"Rheinland-Pfalz"}},]