[{"name":"AAn der Rohrach","postalCode":"86754","locality":"Munningen","municipality":{"key":"09779188","name":"Munningen","type":"Kreisangehörige_Gemeinde"},"district":{"key":"09779","name":"Donau-Ries","type":"Landkreis"},"federalState":{"key":"09","name":"Bayern"}},{"name":"Am Mühlacker","postalCode":"86754","locality":"Munningen","municipality":{"key":"09779188","name":"Munningen","type":"Kreisangehörige_Gemeinde"},"district":{"key":"09779","name":"Donau-Ries","type":"Landkreis"},"federalState":{"key":"09","name":"Bayern"}},{"name":"Am Pfarrhof","postalCode":"86754","locality":"Munningen","municipality":{"key":"09779188","name":"Munningen","type":"Kreisangehörige_Gemeinde"},"district":{"key":"09779","name":"Donau-Ries","type":"Landkreis"},"federalState":{"key":"09","name":"Bayern"}},{"name":"Am Weiher","postalCode":"86754","locality":"Munningen","municipality":{"key":"09779188","name":"Munningen","type":"Kreisangehörige_Gemeinde"},"district":{"key":"09779","name":"Donau-Ries","type":"Landkreis"},"federalState":{"key":"09","name":"Bayern"}},{"name":"An der Hummelwiese","postalCode":"86754","locality":"Munningen","municipality":{"key":"09779188","name":"Munningen","type":"Kreisangehörige_Gemeinde"},"district":{"key":"09779","name":"Donau-Ries","type":"Landkreis"},"federalState":{"key":"09","name":"Bayern"}},{"name":"An der Lach","postalCode":"86754","locality":"Munningen","municipality":{"key":"09779188","name":"Munningen","type":"Kreisangehörige_Gemeinde"},"district":{"key":"09779","name":"Donau-Ries","type":"Landkreis"},"federalState":{"key":"09","name":"Bayern"}},{"name":"An der Rohrach","postalCode":"86754","locality":"Munningen","municipality":{"key":"09779188","name":"Munningen","type":"Kreisangehörige_Gemeinde"},"district":{"key":"09779","name":"Donau-Ries","type":"Landkreis"},"federalState":{"key":"09","name":"Bayern"}},{"name":"Binsengasse","postalCode":"86754","locality":"Munningen","municipality":{"key":"09779188","name":"Munningen","type":"Kreisangehörige_Gemeinde"},"district":{"key":"09779","name":"Donau-Ries","type":"Landkreis"},"federalState":{"key":"09","name":"Bayern"}},{"name":"Breitenäcker","postalCode":"86754","locality":"Munningen","municipality":{"key":"09779188","name":"Munningen","type":"Kreisangehörige_Gemeinde"},"district":{"key":"09779","name":"Donau-Ries","type":"Landkreis"},"federalState":{"key":"09","name":"Bayern"}},{"name":"Bugstr.","postalCode":"86754","locality":"Munningen","municipality":{"key":"09779188","name":"Munningen","type":"Kreisangehörige_Gemeinde"},"district":{"key":"09779","name":"Donau-Ries","type":"Landkreis"},"federalState":{"key":"09","name":"Bayern"}},{"name":"Bühlergasse","postalCode":"86754","locality":"Munningen","municipality":{"key":"09779188","name":"Munningen","type":"Kreisangehörige_Gemeinde"},"district":{"key":"09779","name":"Donau-Ries","type":"Landkreis"},"federalState":{"key":"09","name":"Bayern"}},{"name":"Dorfstr.","postalCode":"86754","locality":"Munningen","municipality":{"key":"09779188","name":"Munningen","type":"Kreisangehörige_Gemeinde"},"district":{"key":"09779","name":"Donau-Ries","type":"Landkreis"},"federalState":{"key":"09","name":"Bayern"}},{"name":"Eichholzweg","postalCode":"86754","locality":"Munningen","municipality":{"key":"09779188","name":"Munningen","type":"Kreisangehörige_Gemeinde"},"district":{"key":"09779","name":"Donau-Ries","type":"Landkreis"},"federalState":{"key":"09","name":"Bayern"}},{"name":"Eulenhofweg","postalCode":"86754","locality":"Munningen","municipality":{"key":"09779188","name":"Munningen","type":"Kreisangehörige_Gemeinde"},"district":{"key":"09779","name":"Donau-Ries","type":"Landkreis"},"federalState":{"key":"09","name":"Bayern"}},{"name":"Furtstr.","postalCode":"86754","locality":"Munningen","municipality":{"key":"09779188","name":"Munningen","type":"Kreisangehörige_Gemeinde"},"district":{"key":"09779","name":"Donau-Ries","type":"Landkreis"},"federalState":{"key":"09","name":"Bayern"}},{"name":"Gartenstr.","postalCode":"86754","locality":"Munningen","municipality":{"key":"09779188","name":"Munningen","type":"Kreisangehörige_Gemeinde"},"district":{"key":"09779","name":"Donau-Ries","type":"Landkreis"},"federalState":{"key":"09","name":"Bayern"}},{"name":"Hauptstr.","postalCode":"86754","locality":"Munningen","municipality":{"key":"09779188","name":"Munningen","type":"Kreisangehörige_Gemeinde"},"district":{"key":"09779","name":"Donau-Ries","type":"Landkreis"},"federalState":{"key":"09","name":"Bayern"}},{"name":"Hofbettenstr.","postalCode":"86754","locality":"Munningen","municipality":{"key":"09779188","name":"Munningen","type":"Kreisangehörige_Gemeinde"},"district":{"key":"09779","name":"Donau-Ries","type":"Landkreis"},"federalState":{"key":"09","name":"Bayern"}},{"name":"Holzveygasse","postalCode":"86754","locality":"Munningen","municipality":{"key":"09779188","name":"Munningen","type":"Kreisangehörige_Gemeinde"},"district":{"key":"09779","name":"Donau-Ries","type":"Landkreis"},"federalState":{"key":"09","name":"Bayern"}},{"name":"Hopfenweg","postalCode":"86754","locality":"Munningen","municipality":{"key":"09779188","name":"Munningen","type":"Kreisangehörige_Gemeinde"},"district":{"key":"09779","name":"Donau-Ries","type":"Landkreis"},"federalState":{"key":"09","name":"Bayern"}},{"name":"Im Gässle","postalCode":"86754","locality":"Munningen","municipality":{"key":"09779188","name":"Munningen","type":"Kreisangehörige_Gemeinde"},"district":{"key":"09779","name":"Donau-Ries","type":"Landkreis"},"federalState":{"key":"09","name":"Bayern"}},{"name":"Im Hartgarten","postalCode":"86754","locality":"Munningen","municipality":{"key":"09779188","name":"Munningen","type":"Kreisangehörige_Gemeinde"},"district":{"key":"09779","name":"Donau-Ries","type":"Landkreis"},"federalState":{"key":"09","name":"Bayern"}},{"name":"Im Wörth","postalCode":"86754","locality":"Munningen","municipality":{"key":"09779188","name":"Munningen","type":"Kreisangehörige_Gemeinde"},"district":{"key":"09779","name":"Donau-Ries","type":"Landkreis"},"federalState":{"key":"09","name":"Bayern"}},{"name":"In den Seen","postalCode":"86754","locality":"Munningen","municipality":{"key":"09779188","name":"Munningen","type":"Kreisangehörige_Gemeinde"},"district":{"key":"09779","name":"Donau-Ries","type":"Landkreis"},"federalState":{"key":"09","name":"Bayern"}},{"name":"Kapellenweg","postalCode":"86754","locality":"Munningen","municipality":{"key":"09779188","name":"Munningen","type":"Kreisangehörige_Gemeinde"},"district":{"key":"09779","name":"Donau-Ries","type":"Landkreis"},"federalState":{"key":"09","name":"Bayern"}},{"name":"Kirchstr.","postalCode":"86754","locality":"Munningen","municipality":{"key":"09779188","name":"Munningen","type":"Kreisangehörige_Gemeinde"},"district":{"key":"09779","name":"Donau-Ries","type":"Landkreis"},"federalState":{"key":"09","name":"Bayern"}},{"name":"Ledergasse","postalCode":"86754","locality":"Munningen","municipality":{"key":"09779188","name":"Munningen","type":"Kreisangehörige_Gemeinde"},"district":{"key":"09779","name":"Donau-Ries","type":"Landkreis"},"federalState":{"key":"09","name":"Bayern"}},{"name":"Lerchenring","postalCode":"86754","locality":"Munningen","municipality":{"key":"09779188","name":"Munningen","type":"Kreisangehörige_Gemeinde"},"district":{"key":"09779","name":"Donau-Ries","type":"Landkreis"},"federalState":{"key":"09","name":"Bayern"}},{"name":"Lindenweg","postalCode":"86754","locality":"Munningen","municipality":{"key":"09779188","name":"Munningen","type":"Kreisangehörige_Gemeinde"},"district":{"key":"09779","name":"Donau-Ries","type":"Landkreis"},"federalState":{"key":"09","name":"Bayern"}},{"name":"Maiergasse","postalCode":"86754","locality":"Munningen","municipality":{"key":"09779188","name":"Munningen","type":"Kreisangehörige_Gemeinde"},"district":{"key":"09779","name":"Donau-Ries","type":"Landkreis"},"federalState":{"key":"09","name":"Bayern"}},{"name":"Mönchswiese","postalCode":"86754","locality":"Munningen","municipality":{"key":"09779188","name":"Munningen","type":"Kreisangehörige_Gemeinde"},"district":{"key":"09779","name":"Donau-Ries","type":"Landkreis"},"federalState":{"key":"09","name":"Bayern"}},{"name":"Mühlbuck","postalCode":"86754","locality":"Munningen","municipality":{"key":"09779188","name":"Munningen","type":"Kreisangehörige_Gemeinde"},"district":{"key":"09779","name":"Donau-Ries","type":"Landkreis"},"federalState":{"key":"09","name":"Bayern"}},{"name":"Mühlstr.","postalCode":"86754","locality":"Munningen","municipality":{"key":"09779188","name":"Munningen","type":"Kreisangehörige_Gemeinde"},"district":{"key":"09779","name":"Donau-Ries","type":"Landkreis"},"federalState":{"key":"09","name":"Bayern"}},{"name":"Nachthaube","postalCode":"86754","locality":"Munningen","municipality":{"key":"09779188","name":"Munningen","type":"Kreisangehörige_Gemeinde"},"district":{"key":"09779","name":"Donau-Ries","type":"Landkreis"},"federalState":{"key":"09","name":"Bayern"}},{"name":"Pfarrer-Doktor-Müller-Str.","postalCode":"86754","locality":"Munningen","municipality":{"key":"09779188","name":"Munningen","type":"Kreisangehörige_Gemeinde"},"district":{"key":"09779","name":"Donau-Ries","type":"Landkreis"},"federalState":{"key":"09","name":"Bayern"}},{"name":"Pfarrer-Haas-Str.","postalCode":"86754","locality":"Munningen","municipality":{"key":"09779188","name":"Munningen","type":"Kreisangehörige_Gemeinde"},"district":{"key":"09779","name":"Donau-Ries","type":"Landkreis"},"federalState":{"key":"09","name":"Bayern"}},{"name":"Raiffeisenstr.","postalCode":"86754","locality":"Munningen","municipality":{"key":"09779188","name":"Munningen","type":"Kreisangehörige_Gemeinde"},"district":{"key":"09779","name":"Donau-Ries","type":"Landkreis"},"federalState":{"key":"09","name":"Bayern"}},{"name":"Riedstr.","postalCode":"86754","locality":"Munningen","municipality":{"key":"09779188","name":"Munningen","type":"Kreisangehörige_Gemeinde"},"district":{"key":"09779","name":"Donau-Ries","type":"Landkreis"},"federalState":{"key":"09","name":"Bayern"}},{"name":"Ringstr.","postalCode":"86754","locality":"Munningen","municipality":{"key":"09779188","name":"Munningen","type":"Kreisangehörige_Gemeinde"},"district":{"key":"09779","name":"Donau-Ries","type":"Landkreis"},"federalState":{"key":"09","name":"Bayern"}},{"name":"Sandfeld","postalCode":"86754","locality":"Munningen","municipality":{"key":"09779188","name":"Munningen","type":"Kreisangehörige_Gemeinde"},"district":{"key":"09779","name":"Donau-Ries","type":"Landkreis"},"federalState":{"key":"09","name":"Bayern"}},{"name":"Schlesierstr.","postalCode":"86754","locality":"Munningen","municipality":{"key":"09779188","name":"Munningen","type":"Kreisangehörige_Gemeinde"},"district":{"key":"09779","name":"Donau-Ries","type":"Landkreis"},"federalState":{"key":"09","name":"Bayern"}},{"name":"Schmiedgasse","postalCode":"86754","locality":"Munningen","municipality":{"key":"09779188","name":"Munningen","type":"Kreisangehörige_Gemeinde"},"district":{"key":"09779","name":"Donau-Ries","type":"Landkreis"},"federalState":{"key":"09","name":"Bayern"}},{"name":"Schulgasse","postalCode":"86754","locality":"Munningen","municipality":{"key":"09779188","name":"Munningen","type":"Kreisangehörige_Gemeinde"},"district":{"key":"09779","name":"Donau-Ries","type":"Landkreis"},"federalState":{"key":"09","name":"Bayern"}},{"name":"Schützenstr.","postalCode":"86754","locality":"Munningen","municipality":{"key":"09779188","name":"Munningen","type":"Kreisangehörige_Gemeinde"},"district":{"key":"09779","name":"Donau-Ries","type":"Landkreis"},"federalState":{"key":"09","name":"Bayern"}},{"name":"Seenweg","postalCode":"86754","locality":"Munningen","municipality":{"key":"09779188","name":"Munningen","type":"Kreisangehörige_Gemeinde"},"district":{"key":"09779","name":"Donau-Ries","type":"Landkreis"},"federalState":{"key":"09","name":"Bayern"}},{"name":"Sudetenstr.","postalCode":"86754","locality":"Munningen","municipality":{"key":"09779188","name":"Munningen","type":"Kreisangehörige_Gemeinde"},"district":{"key":"09779","name":"Donau-Ries","type":"Landkreis"},"federalState":{"key":"09","name":"Bayern"}},{"name":"Wolfsgrube","postalCode":"86754","locality":"Munningen","municipality":{"key":"09779188","name":"Munningen","type":"Kreisangehörige_Gemeinde"},"district":{"key":"09779","name":"Donau-Ries","type":"Landkreis"},"federalState":{"key":"09","name":"Bayern"}},]