[{"name":"Ahornweg","postalCode":"74653","locality":"Ingelfingen","municipality":{"key":"08126039","name":"Ingelfingen, Stadt","type":"Stadt"},"district":{"key":"08126","name":"Hohenlohekreis","type":"Landkreis"},"federalState":{"key":"08","name":"Baden-Württemberg"}},{"name":"Akazienweg","postalCode":"74653","locality":"Ingelfingen","municipality":{"key":"08126039","name":"Ingelfingen, Stadt","type":"Stadt"},"district":{"key":"08126","name":"Hohenlohekreis","type":"Landkreis"},"federalState":{"key":"08","name":"Baden-Württemberg"}},{"name":"Alte Schloßgasse","postalCode":"74653","locality":"Ingelfingen","municipality":{"key":"08126039","name":"Ingelfingen, Stadt","type":"Stadt"},"district":{"key":"08126","name":"Hohenlohekreis","type":"Landkreis"},"federalState":{"key":"08","name":"Baden-Württemberg"}},{"name":"Alte Steige","postalCode":"74653","locality":"Ingelfingen","municipality":{"key":"08126039","name":"Ingelfingen, Stadt","type":"Stadt"},"district":{"key":"08126","name":"Hohenlohekreis","type":"Landkreis"},"federalState":{"key":"08","name":"Baden-Württemberg"}},{"name":"Am Breter","postalCode":"74653","locality":"Ingelfingen","municipality":{"key":"08126039","name":"Ingelfingen, Stadt","type":"Stadt"},"district":{"key":"08126","name":"Hohenlohekreis","type":"Landkreis"},"federalState":{"key":"08","name":"Baden-Württemberg"}},{"name":"Am Brunnenberg","postalCode":"74653","locality":"Ingelfingen","municipality":{"key":"08126039","name":"Ingelfingen, Stadt","type":"Stadt"},"district":{"key":"08126","name":"Hohenlohekreis","type":"Landkreis"},"federalState":{"key":"08","name":"Baden-Württemberg"}},{"name":"Am Goldberg","postalCode":"74653","locality":"Ingelfingen","municipality":{"key":"08126039","name":"Ingelfingen, Stadt","type":"Stadt"},"district":{"key":"08126","name":"Hohenlohekreis","type":"Landkreis"},"federalState":{"key":"08","name":"Baden-Württemberg"}},{"name":"Am Hohenberg","postalCode":"74653","locality":"Ingelfingen","municipality":{"key":"08126039","name":"Ingelfingen, Stadt","type":"Stadt"},"district":{"key":"08126","name":"Hohenlohekreis","type":"Landkreis"},"federalState":{"key":"08","name":"Baden-Württemberg"}},{"name":"Am Mühlberg","postalCode":"74653","locality":"Ingelfingen","municipality":{"key":"08126039","name":"Ingelfingen, Stadt","type":"Stadt"},"district":{"key":"08126","name":"Hohenlohekreis","type":"Landkreis"},"federalState":{"key":"08","name":"Baden-Württemberg"}},{"name":"Am Wedelbach","postalCode":"74653","locality":"Ingelfingen","municipality":{"key":"08126039","name":"Ingelfingen, Stadt","type":"Stadt"},"district":{"key":"08126","name":"Hohenlohekreis","type":"Landkreis"},"federalState":{"key":"08","name":"Baden-Württemberg"}},{"name":"Am Weinberg","postalCode":"74653","locality":"Ingelfingen","municipality":{"key":"08126039","name":"Ingelfingen, Stadt","type":"Stadt"},"district":{"key":"08126","name":"Hohenlohekreis","type":"Landkreis"},"federalState":{"key":"08","name":"Baden-Württemberg"}},{"name":"An der Kelter","postalCode":"74653","locality":"Ingelfingen","municipality":{"key":"08126039","name":"Ingelfingen, Stadt","type":"Stadt"},"district":{"key":"08126","name":"Hohenlohekreis","type":"Landkreis"},"federalState":{"key":"08","name":"Baden-Württemberg"}},{"name":"An der Linde","postalCode":"74653","locality":"Ingelfingen","municipality":{"key":"08126039","name":"Ingelfingen, Stadt","type":"Stadt"},"district":{"key":"08126","name":"Hohenlohekreis","type":"Landkreis"},"federalState":{"key":"08","name":"Baden-Württemberg"}},{"name":"Austr.","postalCode":"74653","locality":"Ingelfingen","municipality":{"key":"08126039","name":"Ingelfingen, Stadt","type":"Stadt"},"district":{"key":"08126","name":"Hohenlohekreis","type":"Landkreis"},"federalState":{"key":"08","name":"Baden-Württemberg"}},{"name":"Auweg","postalCode":"74653","locality":"Ingelfingen","municipality":{"key":"08126039","name":"Ingelfingen, Stadt","type":"Stadt"},"district":{"key":"08126","name":"Hohenlohekreis","type":"Landkreis"},"federalState":{"key":"08","name":"Baden-Württemberg"}},{"name":"Bachgasse","postalCode":"74653","locality":"Ingelfingen","municipality":{"key":"08126039","name":"Ingelfingen, Stadt","type":"Stadt"},"district":{"key":"08126","name":"Hohenlohekreis","type":"Landkreis"},"federalState":{"key":"08","name":"Baden-Württemberg"}},{"name":"Bachstr.","postalCode":"74653","locality":"Ingelfingen","municipality":{"key":"08126039","name":"Ingelfingen, Stadt","type":"Stadt"},"district":{"key":"08126","name":"Hohenlohekreis","type":"Landkreis"},"federalState":{"key":"08","name":"Baden-Württemberg"}},{"name":"Baumgartenweg","postalCode":"74653","locality":"Ingelfingen","municipality":{"key":"08126039","name":"Ingelfingen, Stadt","type":"Stadt"},"district":{"key":"08126","name":"Hohenlohekreis","type":"Landkreis"},"federalState":{"key":"08","name":"Baden-Württemberg"}},{"name":"Belsenberger Str.","postalCode":"74653","locality":"Ingelfingen","municipality":{"key":"08126039","name":"Ingelfingen, Stadt","type":"Stadt"},"district":{"key":"08126","name":"Hohenlohekreis","type":"Landkreis"},"federalState":{"key":"08","name":"Baden-Württemberg"}},{"name":"Bergstr.","postalCode":"74653","locality":"Ingelfingen","municipality":{"key":"08126039","name":"Ingelfingen, Stadt","type":"Stadt"},"district":{"key":"08126","name":"Hohenlohekreis","type":"Landkreis"},"federalState":{"key":"08","name":"Baden-Württemberg"}},{"name":"Blumenweg","postalCode":"74653","locality":"Ingelfingen","municipality":{"key":"08126039","name":"Ingelfingen, Stadt","type":"Stadt"},"district":{"key":"08126","name":"Hohenlohekreis","type":"Landkreis"},"federalState":{"key":"08","name":"Baden-Württemberg"}},{"name":"Bobachshof","postalCode":"74653","locality":"Ingelfingen","municipality":{"key":"08126039","name":"Ingelfingen, Stadt","type":"Stadt"},"district":{"key":"08126","name":"Hohenlohekreis","type":"Landkreis"},"federalState":{"key":"08","name":"Baden-Württemberg"}},{"name":"Brechdarrweg","postalCode":"74653","locality":"Ingelfingen","municipality":{"key":"08126039","name":"Ingelfingen, Stadt","type":"Stadt"},"district":{"key":"08126","name":"Hohenlohekreis","type":"Landkreis"},"federalState":{"key":"08","name":"Baden-Württemberg"}},{"name":"Brühlstr.","postalCode":"74653","locality":"Ingelfingen","municipality":{"key":"08126039","name":"Ingelfingen, Stadt","type":"Stadt"},"district":{"key":"08126","name":"Hohenlohekreis","type":"Landkreis"},"federalState":{"key":"08","name":"Baden-Württemberg"}},{"name":"Brunnengasse","postalCode":"74653","locality":"Ingelfingen","municipality":{"key":"08126039","name":"Ingelfingen, Stadt","type":"Stadt"},"district":{"key":"08126","name":"Hohenlohekreis","type":"Landkreis"},"federalState":{"key":"08","name":"Baden-Württemberg"}},{"name":"Brunnenweg","postalCode":"74653","locality":"Ingelfingen","municipality":{"key":"08126039","name":"Ingelfingen, Stadt","type":"Stadt"},"district":{"key":"08126","name":"Hohenlohekreis","type":"Landkreis"},"federalState":{"key":"08","name":"Baden-Württemberg"}},{"name":"Buchweg","postalCode":"74653","locality":"Ingelfingen","municipality":{"key":"08126039","name":"Ingelfingen, Stadt","type":"Stadt"},"district":{"key":"08126","name":"Hohenlohekreis","type":"Landkreis"},"federalState":{"key":"08","name":"Baden-Württemberg"}},{"name":"Bühlhofer Str.","postalCode":"74653","locality":"Ingelfingen","municipality":{"key":"08126039","name":"Ingelfingen, Stadt","type":"Stadt"},"district":{"key":"08126","name":"Hohenlohekreis","type":"Landkreis"},"federalState":{"key":"08","name":"Baden-Württemberg"}},{"name":"Bühlhofer Weg","postalCode":"74653","locality":"Ingelfingen","municipality":{"key":"08126039","name":"Ingelfingen, Stadt","type":"Stadt"},"district":{"key":"08126","name":"Hohenlohekreis","type":"Landkreis"},"federalState":{"key":"08","name":"Baden-Württemberg"}},{"name":"Burgstallstr.","postalCode":"74653","locality":"Ingelfingen","municipality":{"key":"08126039","name":"Ingelfingen, Stadt","type":"Stadt"},"district":{"key":"08126","name":"Hohenlohekreis","type":"Landkreis"},"federalState":{"key":"08","name":"Baden-Württemberg"}},{"name":"Christian-Bürkert-Str.","postalCode":"74653","locality":"Ingelfingen","municipality":{"key":"08126039","name":"Ingelfingen, Stadt","type":"Stadt"},"district":{"key":"08126","name":"Hohenlohekreis","type":"Landkreis"},"federalState":{"key":"08","name":"Baden-Württemberg"}},{"name":"Christian-Kraft-Str.","postalCode":"74653","locality":"Ingelfingen","municipality":{"key":"08126039","name":"Ingelfingen, Stadt","type":"Stadt"},"district":{"key":"08126","name":"Hohenlohekreis","type":"Landkreis"},"federalState":{"key":"08","name":"Baden-Württemberg"}},{"name":"Criesbacher Str.","postalCode":"74653","locality":"Ingelfingen","municipality":{"key":"08126039","name":"Ingelfingen, Stadt","type":"Stadt"},"district":{"key":"08126","name":"Hohenlohekreis","type":"Landkreis"},"federalState":{"key":"08","name":"Baden-Württemberg"}},{"name":"Diebacher Str.","postalCode":"74653","locality":"Ingelfingen","municipality":{"key":"08126039","name":"Ingelfingen, Stadt","type":"Stadt"},"district":{"key":"08126","name":"Hohenlohekreis","type":"Landkreis"},"federalState":{"key":"08","name":"Baden-Württemberg"}},{"name":"Diebacher Weg","postalCode":"74653","locality":"Ingelfingen","municipality":{"key":"08126039","name":"Ingelfingen, Stadt","type":"Stadt"},"district":{"key":"08126","name":"Hohenlohekreis","type":"Landkreis"},"federalState":{"key":"08","name":"Baden-Württemberg"}},{"name":"Dorfstr.","postalCode":"74653","locality":"Ingelfingen","municipality":{"key":"08126039","name":"Ingelfingen, Stadt","type":"Stadt"},"district":{"key":"08126","name":"Hohenlohekreis","type":"Landkreis"},"federalState":{"key":"08","name":"Baden-Württemberg"}},{"name":"Dörzbacher Str.","postalCode":"74653","locality":"Ingelfingen","municipality":{"key":"08126039","name":"Ingelfingen, Stadt","type":"Stadt"},"district":{"key":"08126","name":"Hohenlohekreis","type":"Landkreis"},"federalState":{"key":"08","name":"Baden-Württemberg"}},{"name":"Drosselstr.","postalCode":"74653","locality":"Ingelfingen","municipality":{"key":"08126039","name":"Ingelfingen, Stadt","type":"Stadt"},"district":{"key":"08126","name":"Hohenlohekreis","type":"Landkreis"},"federalState":{"key":"08","name":"Baden-Württemberg"}},{"name":"Eberstaler Str.","postalCode":"74653","locality":"Ingelfingen","municipality":{"key":"08126039","name":"Ingelfingen, Stadt","type":"Stadt"},"district":{"key":"08126","name":"Hohenlohekreis","type":"Landkreis"},"federalState":{"key":"08","name":"Baden-Württemberg"}},{"name":"Egelgraben","postalCode":"74653","locality":"Ingelfingen","municipality":{"key":"08126039","name":"Ingelfingen, Stadt","type":"Stadt"},"district":{"key":"08126","name":"Hohenlohekreis","type":"Landkreis"},"federalState":{"key":"08","name":"Baden-Württemberg"}},{"name":"Eichendorffstr.","postalCode":"74653","locality":"Ingelfingen","municipality":{"key":"08126039","name":"Ingelfingen, Stadt","type":"Stadt"},"district":{"key":"08126","name":"Hohenlohekreis","type":"Landkreis"},"federalState":{"key":"08","name":"Baden-Württemberg"}},{"name":"Eichenweg","postalCode":"74653","locality":"Ingelfingen","municipality":{"key":"08126039","name":"Ingelfingen, Stadt","type":"Stadt"},"district":{"key":"08126","name":"Hohenlohekreis","type":"Landkreis"},"federalState":{"key":"08","name":"Baden-Württemberg"}},{"name":"Eichhornstr.","postalCode":"74653","locality":"Ingelfingen","municipality":{"key":"08126039","name":"Ingelfingen, Stadt","type":"Stadt"},"district":{"key":"08126","name":"Hohenlohekreis","type":"Landkreis"},"federalState":{"key":"08","name":"Baden-Württemberg"}},{"name":"Elsbeerenweg","postalCode":"74653","locality":"Ingelfingen","municipality":{"key":"08126039","name":"Ingelfingen, Stadt","type":"Stadt"},"district":{"key":"08126","name":"Hohenlohekreis","type":"Landkreis"},"federalState":{"key":"08","name":"Baden-Württemberg"}},{"name":"Endbergweg","postalCode":"74653","locality":"Ingelfingen","municipality":{"key":"08126039","name":"Ingelfingen, Stadt","type":"Stadt"},"district":{"key":"08126","name":"Hohenlohekreis","type":"Landkreis"},"federalState":{"key":"08","name":"Baden-Württemberg"}},{"name":"Eschenhofer Str.","postalCode":"74653","locality":"Ingelfingen","municipality":{"key":"08126039","name":"Ingelfingen, Stadt","type":"Stadt"},"district":{"key":"08126","name":"Hohenlohekreis","type":"Landkreis"},"federalState":{"key":"08","name":"Baden-Württemberg"}},{"name":"Eschenhofer Weg","postalCode":"74653","locality":"Ingelfingen","municipality":{"key":"08126039","name":"Ingelfingen, Stadt","type":"Stadt"},"district":{"key":"08126","name":"Hohenlohekreis","type":"Landkreis"},"federalState":{"key":"08","name":"Baden-Württemberg"}},{"name":"Eschenstr.","postalCode":"74653","locality":"Ingelfingen","municipality":{"key":"08126039","name":"Ingelfingen, Stadt","type":"Stadt"},"district":{"key":"08126","name":"Hohenlohekreis","type":"Landkreis"},"federalState":{"key":"08","name":"Baden-Württemberg"}},{"name":"Falkenstr.","postalCode":"74653","locality":"Ingelfingen","municipality":{"key":"08126039","name":"Ingelfingen, Stadt","type":"Stadt"},"district":{"key":"08126","name":"Hohenlohekreis","type":"Landkreis"},"federalState":{"key":"08","name":"Baden-Württemberg"}},{"name":"Finkenstr.","postalCode":"74653","locality":"Ingelfingen","municipality":{"key":"08126039","name":"Ingelfingen, Stadt","type":"Stadt"},"district":{"key":"08126","name":"Hohenlohekreis","type":"Landkreis"},"federalState":{"key":"08","name":"Baden-Württemberg"}},{"name":"Flaischlenstr.","postalCode":"74653","locality":"Ingelfingen","municipality":{"key":"08126039","name":"Ingelfingen, Stadt","type":"Stadt"},"district":{"key":"08126","name":"Hohenlohekreis","type":"Landkreis"},"federalState":{"key":"08","name":"Baden-Württemberg"}},{"name":"Fliederweg","postalCode":"74653","locality":"Ingelfingen","municipality":{"key":"08126039","name":"Ingelfingen, Stadt","type":"Stadt"},"district":{"key":"08126","name":"Hohenlohekreis","type":"Landkreis"},"federalState":{"key":"08","name":"Baden-Württemberg"}},{"name":"Forchenweg","postalCode":"74653","locality":"Ingelfingen","municipality":{"key":"08126039","name":"Ingelfingen, Stadt","type":"Stadt"},"district":{"key":"08126","name":"Hohenlohekreis","type":"Landkreis"},"federalState":{"key":"08","name":"Baden-Württemberg"}},{"name":"Friedhofstr.","postalCode":"74653","locality":"Ingelfingen","municipality":{"key":"08126039","name":"Ingelfingen, Stadt","type":"Stadt"},"district":{"key":"08126","name":"Hohenlohekreis","type":"Landkreis"},"federalState":{"key":"08","name":"Baden-Württemberg"}},{"name":"Friedrich-Ludwig-Str.","postalCode":"74653","locality":"Ingelfingen","municipality":{"key":"08126039","name":"Ingelfingen, Stadt","type":"Stadt"},"district":{"key":"08126","name":"Hohenlohekreis","type":"Landkreis"},"federalState":{"key":"08","name":"Baden-Württemberg"}},{"name":"Gartenstr.","postalCode":"74653","locality":"Ingelfingen","municipality":{"key":"08126039","name":"Ingelfingen, Stadt","type":"Stadt"},"district":{"key":"08126","name":"Hohenlohekreis","type":"Landkreis"},"federalState":{"key":"08","name":"Baden-Württemberg"}},{"name":"Gäßle","postalCode":"74653","locality":"Ingelfingen","municipality":{"key":"08126039","name":"Ingelfingen, Stadt","type":"Stadt"},"district":{"key":"08126","name":"Hohenlohekreis","type":"Landkreis"},"federalState":{"key":"08","name":"Baden-Württemberg"}},{"name":"Gemünderstr.","postalCode":"74653","locality":"Ingelfingen","municipality":{"key":"08126039","name":"Ingelfingen, Stadt","type":"Stadt"},"district":{"key":"08126","name":"Hohenlohekreis","type":"Landkreis"},"federalState":{"key":"08","name":"Baden-Württemberg"}},{"name":"Georg-Fahrbach-Str.","postalCode":"74653","locality":"Ingelfingen","municipality":{"key":"08126039","name":"Ingelfingen, Stadt","type":"Stadt"},"district":{"key":"08126","name":"Hohenlohekreis","type":"Landkreis"},"federalState":{"key":"08","name":"Baden-Württemberg"}},{"name":"Göckelweg","postalCode":"74653","locality":"Ingelfingen","municipality":{"key":"08126039","name":"Ingelfingen, Stadt","type":"Stadt"},"district":{"key":"08126","name":"Hohenlohekreis","type":"Landkreis"},"federalState":{"key":"08","name":"Baden-Württemberg"}},{"name":"Goethestr.","postalCode":"74653","locality":"Ingelfingen","municipality":{"key":"08126039","name":"Ingelfingen, Stadt","type":"Stadt"},"district":{"key":"08126","name":"Hohenlohekreis","type":"Landkreis"},"federalState":{"key":"08","name":"Baden-Württemberg"}},{"name":"Grabenweg","postalCode":"74653","locality":"Ingelfingen","municipality":{"key":"08126039","name":"Ingelfingen, Stadt","type":"Stadt"},"district":{"key":"08126","name":"Hohenlohekreis","type":"Landkreis"},"federalState":{"key":"08","name":"Baden-Württemberg"}},{"name":"Graf-Casimir-Str.","postalCode":"74653","locality":"Ingelfingen","municipality":{"key":"08126039","name":"Ingelfingen, Stadt","type":"Stadt"},"district":{"key":"08126","name":"Hohenlohekreis","type":"Landkreis"},"federalState":{"key":"08","name":"Baden-Württemberg"}},{"name":"Greut","postalCode":"74653","locality":"Ingelfingen","municipality":{"key":"08126039","name":"Ingelfingen, Stadt","type":"Stadt"},"district":{"key":"08126","name":"Hohenlohekreis","type":"Landkreis"},"federalState":{"key":"08","name":"Baden-Württemberg"}},{"name":"Grottenweg","postalCode":"74653","locality":"Ingelfingen","municipality":{"key":"08126039","name":"Ingelfingen, Stadt","type":"Stadt"},"district":{"key":"08126","name":"Hohenlohekreis","type":"Landkreis"},"federalState":{"key":"08","name":"Baden-Württemberg"}},{"name":"Häldenweg","postalCode":"74653","locality":"Ingelfingen","municipality":{"key":"08126039","name":"Ingelfingen, Stadt","type":"Stadt"},"district":{"key":"08126","name":"Hohenlohekreis","type":"Landkreis"},"federalState":{"key":"08","name":"Baden-Württemberg"}},{"name":"Hauptstr.","postalCode":"74653","locality":"Ingelfingen","municipality":{"key":"08126039","name":"Ingelfingen, Stadt","type":"Stadt"},"district":{"key":"08126","name":"Hohenlohekreis","type":"Landkreis"},"federalState":{"key":"08","name":"Baden-Württemberg"}},{"name":"Heidweg","postalCode":"74653","locality":"Ingelfingen","municipality":{"key":"08126039","name":"Ingelfingen, Stadt","type":"Stadt"},"district":{"key":"08126","name":"Hohenlohekreis","type":"Landkreis"},"federalState":{"key":"08","name":"Baden-Württemberg"}},{"name":"Hermuthäuser Str.","postalCode":"74653","locality":"Ingelfingen","municipality":{"key":"08126039","name":"Ingelfingen, Stadt","type":"Stadt"},"district":{"key":"08126","name":"Hohenlohekreis","type":"Landkreis"},"federalState":{"key":"08","name":"Baden-Württemberg"}},{"name":"Himmelssteige","postalCode":"74653","locality":"Ingelfingen","municipality":{"key":"08126039","name":"Ingelfingen, Stadt","type":"Stadt"},"district":{"key":"08126","name":"Hohenlohekreis","type":"Landkreis"},"federalState":{"key":"08","name":"Baden-Württemberg"}},{"name":"Hintere Gasse","postalCode":"74653","locality":"Ingelfingen","municipality":{"key":"08126039","name":"Ingelfingen, Stadt","type":"Stadt"},"district":{"key":"08126","name":"Hohenlohekreis","type":"Landkreis"},"federalState":{"key":"08","name":"Baden-Württemberg"}},{"name":"Hirschgasse","postalCode":"74653","locality":"Ingelfingen","municipality":{"key":"08126039","name":"Ingelfingen, Stadt","type":"Stadt"},"district":{"key":"08126","name":"Hohenlohekreis","type":"Landkreis"},"federalState":{"key":"08","name":"Baden-Württemberg"}},{"name":"Hofäckerweg","postalCode":"74653","locality":"Ingelfingen","municipality":{"key":"08126039","name":"Ingelfingen, Stadt","type":"Stadt"},"district":{"key":"08126","name":"Hohenlohekreis","type":"Landkreis"},"federalState":{"key":"08","name":"Baden-Württemberg"}},{"name":"Hofstr.","postalCode":"74653","locality":"Ingelfingen","municipality":{"key":"08126039","name":"Ingelfingen, Stadt","type":"Stadt"},"district":{"key":"08126","name":"Hohenlohekreis","type":"Landkreis"},"federalState":{"key":"08","name":"Baden-Württemberg"}},{"name":"Hohebacher Str.","postalCode":"74653","locality":"Ingelfingen","municipality":{"key":"08126039","name":"Ingelfingen, Stadt","type":"Stadt"},"district":{"key":"08126","name":"Hohenlohekreis","type":"Landkreis"},"federalState":{"key":"08","name":"Baden-Württemberg"}},{"name":"Hohe Str.","postalCode":"74653","locality":"Ingelfingen","municipality":{"key":"08126039","name":"Ingelfingen, Stadt","type":"Stadt"},"district":{"key":"08126","name":"Hohenlohekreis","type":"Landkreis"},"federalState":{"key":"08","name":"Baden-Württemberg"}},{"name":"Hohstr.","postalCode":"74653","locality":"Ingelfingen","municipality":{"key":"08126039","name":"Ingelfingen, Stadt","type":"Stadt"},"district":{"key":"08126","name":"Hohenlohekreis","type":"Landkreis"},"federalState":{"key":"08","name":"Baden-Württemberg"}},{"name":"Holzsteige","postalCode":"74653","locality":"Ingelfingen","municipality":{"key":"08126039","name":"Ingelfingen, Stadt","type":"Stadt"},"district":{"key":"08126","name":"Hohenlohekreis","type":"Landkreis"},"federalState":{"key":"08","name":"Baden-Württemberg"}},{"name":"Hundsbergweg","postalCode":"74653","locality":"Ingelfingen","municipality":{"key":"08126039","name":"Ingelfingen, Stadt","type":"Stadt"},"district":{"key":"08126","name":"Hohenlohekreis","type":"Landkreis"},"federalState":{"key":"08","name":"Baden-Württemberg"}},{"name":"Im Brunnenrain","postalCode":"74653","locality":"Ingelfingen","municipality":{"key":"08126039","name":"Ingelfingen, Stadt","type":"Stadt"},"district":{"key":"08126","name":"Hohenlohekreis","type":"Landkreis"},"federalState":{"key":"08","name":"Baden-Württemberg"}},{"name":"Im Büchele","postalCode":"74653","locality":"Ingelfingen","municipality":{"key":"08126039","name":"Ingelfingen, Stadt","type":"Stadt"},"district":{"key":"08126","name":"Hohenlohekreis","type":"Landkreis"},"federalState":{"key":"08","name":"Baden-Württemberg"}},{"name":"Im Fehlenweiler","postalCode":"74653","locality":"Ingelfingen","municipality":{"key":"08126039","name":"Ingelfingen, Stadt","type":"Stadt"},"district":{"key":"08126","name":"Hohenlohekreis","type":"Landkreis"},"federalState":{"key":"08","name":"Baden-Württemberg"}},{"name":"Im Feldle","postalCode":"74653","locality":"Ingelfingen","municipality":{"key":"08126039","name":"Ingelfingen, Stadt","type":"Stadt"},"district":{"key":"08126","name":"Hohenlohekreis","type":"Landkreis"},"federalState":{"key":"08","name":"Baden-Württemberg"}},{"name":"Im Fels","postalCode":"74653","locality":"Ingelfingen","municipality":{"key":"08126039","name":"Ingelfingen, Stadt","type":"Stadt"},"district":{"key":"08126","name":"Hohenlohekreis","type":"Landkreis"},"federalState":{"key":"08","name":"Baden-Württemberg"}},{"name":"Im Himmel","postalCode":"74653","locality":"Ingelfingen","municipality":{"key":"08126039","name":"Ingelfingen, Stadt","type":"Stadt"},"district":{"key":"08126","name":"Hohenlohekreis","type":"Landkreis"},"federalState":{"key":"08","name":"Baden-Württemberg"}},{"name":"Im Holland","postalCode":"74653","locality":"Ingelfingen","municipality":{"key":"08126039","name":"Ingelfingen, Stadt","type":"Stadt"},"district":{"key":"08126","name":"Hohenlohekreis","type":"Landkreis"},"federalState":{"key":"08","name":"Baden-Württemberg"}},{"name":"Im Lauf","postalCode":"74653","locality":"Ingelfingen","municipality":{"key":"08126039","name":"Ingelfingen, Stadt","type":"Stadt"},"district":{"key":"08126","name":"Hohenlohekreis","type":"Landkreis"},"federalState":{"key":"08","name":"Baden-Württemberg"}},{"name":"Im Pfad","postalCode":"74653","locality":"Ingelfingen","municipality":{"key":"08126039","name":"Ingelfingen, Stadt","type":"Stadt"},"district":{"key":"08126","name":"Hohenlohekreis","type":"Landkreis"},"federalState":{"key":"08","name":"Baden-Württemberg"}},{"name":"Im Rieth","postalCode":"74653","locality":"Ingelfingen","municipality":{"key":"08126039","name":"Ingelfingen, Stadt","type":"Stadt"},"district":{"key":"08126","name":"Hohenlohekreis","type":"Landkreis"},"federalState":{"key":"08","name":"Baden-Württemberg"}},{"name":"Im Trieb","postalCode":"74653","locality":"Ingelfingen","municipality":{"key":"08126039","name":"Ingelfingen, Stadt","type":"Stadt"},"district":{"key":"08126","name":"Hohenlohekreis","type":"Landkreis"},"federalState":{"key":"08","name":"Baden-Württemberg"}},{"name":"In den Gartenwiesen","postalCode":"74653","locality":"Ingelfingen","municipality":{"key":"08126039","name":"Ingelfingen, Stadt","type":"Stadt"},"district":{"key":"08126","name":"Hohenlohekreis","type":"Landkreis"},"federalState":{"key":"08","name":"Baden-Württemberg"}},{"name":"In den Herrenwiesen","postalCode":"74653","locality":"Ingelfingen","municipality":{"key":"08126039","name":"Ingelfingen, Stadt","type":"Stadt"},"district":{"key":"08126","name":"Hohenlohekreis","type":"Landkreis"},"federalState":{"key":"08","name":"Baden-Württemberg"}},{"name":"In den Hochhecken","postalCode":"74653","locality":"Ingelfingen","municipality":{"key":"08126039","name":"Ingelfingen, Stadt","type":"Stadt"},"district":{"key":"08126","name":"Hohenlohekreis","type":"Landkreis"},"federalState":{"key":"08","name":"Baden-Württemberg"}},{"name":"In den Mühlwiesen","postalCode":"74653","locality":"Ingelfingen","municipality":{"key":"08126039","name":"Ingelfingen, Stadt","type":"Stadt"},"district":{"key":"08126","name":"Hohenlohekreis","type":"Landkreis"},"federalState":{"key":"08","name":"Baden-Württemberg"}},{"name":"In den Steigäckern","postalCode":"74653","locality":"Ingelfingen","municipality":{"key":"08126039","name":"Ingelfingen, Stadt","type":"Stadt"},"district":{"key":"08126","name":"Hohenlohekreis","type":"Landkreis"},"federalState":{"key":"08","name":"Baden-Württemberg"}},{"name":"Ingelfinger Str.","postalCode":"74653","locality":"Ingelfingen","municipality":{"key":"08126039","name":"Ingelfingen, Stadt","type":"Stadt"},"district":{"key":"08126","name":"Hohenlohekreis","type":"Landkreis"},"federalState":{"key":"08","name":"Baden-Württemberg"}},{"name":"Innere Klinge","postalCode":"74653","locality":"Ingelfingen","municipality":{"key":"08126039","name":"Ingelfingen, Stadt","type":"Stadt"},"district":{"key":"08126","name":"Hohenlohekreis","type":"Landkreis"},"federalState":{"key":"08","name":"Baden-Württemberg"}},{"name":"Jahnstr.","postalCode":"74653","locality":"Ingelfingen","municipality":{"key":"08126039","name":"Ingelfingen, Stadt","type":"Stadt"},"district":{"key":"08126","name":"Hohenlohekreis","type":"Landkreis"},"federalState":{"key":"08","name":"Baden-Württemberg"}},{"name":"Jäuchernstr.","postalCode":"74653","locality":"Ingelfingen","municipality":{"key":"08126039","name":"Ingelfingen, Stadt","type":"Stadt"},"district":{"key":"08126","name":"Hohenlohekreis","type":"Landkreis"},"federalState":{"key":"08","name":"Baden-Württemberg"}},{"name":"Josef-Rilling-Str.","postalCode":"74653","locality":"Ingelfingen","municipality":{"key":"08126039","name":"Ingelfingen, Stadt","type":"Stadt"},"district":{"key":"08126","name":"Hohenlohekreis","type":"Landkreis"},"federalState":{"key":"08","name":"Baden-Württemberg"}},{"name":"Kapellenweg","postalCode":"74653","locality":"Ingelfingen","municipality":{"key":"08126039","name":"Ingelfingen, Stadt","type":"Stadt"},"district":{"key":"08126","name":"Hohenlohekreis","type":"Landkreis"},"federalState":{"key":"08","name":"Baden-Württemberg"}},{"name":"Karl-Schwarz-Str.","postalCode":"74653","locality":"Ingelfingen","municipality":{"key":"08126039","name":"Ingelfingen, Stadt","type":"Stadt"},"district":{"key":"08126","name":"Hohenlohekreis","type":"Landkreis"},"federalState":{"key":"08","name":"Baden-Württemberg"}},{"name":"Keltenstr.","postalCode":"74653","locality":"Ingelfingen","municipality":{"key":"08126039","name":"Ingelfingen, Stadt","type":"Stadt"},"district":{"key":"08126","name":"Hohenlohekreis","type":"Landkreis"},"federalState":{"key":"08","name":"Baden-Württemberg"}},{"name":"Keltergasse","postalCode":"74653","locality":"Ingelfingen","municipality":{"key":"08126039","name":"Ingelfingen, Stadt","type":"Stadt"},"district":{"key":"08126","name":"Hohenlohekreis","type":"Landkreis"},"federalState":{"key":"08","name":"Baden-Württemberg"}},{"name":"Kelterweg","postalCode":"74653","locality":"Ingelfingen","municipality":{"key":"08126039","name":"Ingelfingen, Stadt","type":"Stadt"},"district":{"key":"08126","name":"Hohenlohekreis","type":"Landkreis"},"federalState":{"key":"08","name":"Baden-Württemberg"}},{"name":"Kirchenweg","postalCode":"74653","locality":"Ingelfingen","municipality":{"key":"08126039","name":"Ingelfingen, Stadt","type":"Stadt"},"district":{"key":"08126","name":"Hohenlohekreis","type":"Landkreis"},"federalState":{"key":"08","name":"Baden-Württemberg"}},{"name":"Kirchplatz","postalCode":"74653","locality":"Ingelfingen","municipality":{"key":"08126039","name":"Ingelfingen, Stadt","type":"Stadt"},"district":{"key":"08126","name":"Hohenlohekreis","type":"Landkreis"},"federalState":{"key":"08","name":"Baden-Württemberg"}},{"name":"Kirschweg","postalCode":"74653","locality":"Ingelfingen","municipality":{"key":"08126039","name":"Ingelfingen, Stadt","type":"Stadt"},"district":{"key":"08126","name":"Hohenlohekreis","type":"Landkreis"},"federalState":{"key":"08","name":"Baden-Württemberg"}},{"name":"Kleine Gasse","postalCode":"74653","locality":"Ingelfingen","municipality":{"key":"08126039","name":"Ingelfingen, Stadt","type":"Stadt"},"district":{"key":"08126","name":"Hohenlohekreis","type":"Landkreis"},"federalState":{"key":"08","name":"Baden-Württemberg"}},{"name":"Klingenweg","postalCode":"74653","locality":"Ingelfingen","municipality":{"key":"08126039","name":"Ingelfingen, Stadt","type":"Stadt"},"district":{"key":"08126","name":"Hohenlohekreis","type":"Landkreis"},"federalState":{"key":"08","name":"Baden-Württemberg"}},{"name":"Kochertalstr.","postalCode":"74653","locality":"Ingelfingen","municipality":{"key":"08126039","name":"Ingelfingen, Stadt","type":"Stadt"},"district":{"key":"08126","name":"Hohenlohekreis","type":"Landkreis"},"federalState":{"key":"08","name":"Baden-Württemberg"}},{"name":"Krautheimer Str.","postalCode":"74653","locality":"Ingelfingen","municipality":{"key":"08126039","name":"Ingelfingen, Stadt","type":"Stadt"},"district":{"key":"08126","name":"Hohenlohekreis","type":"Landkreis"},"federalState":{"key":"08","name":"Baden-Württemberg"}},{"name":"Künzelsauer Str.","postalCode":"74653","locality":"Ingelfingen","municipality":{"key":"08126039","name":"Ingelfingen, Stadt","type":"Stadt"},"district":{"key":"08126","name":"Hohenlohekreis","type":"Landkreis"},"federalState":{"key":"08","name":"Baden-Württemberg"}},{"name":"Lange Äcker","postalCode":"74653","locality":"Ingelfingen","municipality":{"key":"08126039","name":"Ingelfingen, Stadt","type":"Stadt"},"district":{"key":"08126","name":"Hohenlohekreis","type":"Landkreis"},"federalState":{"key":"08","name":"Baden-Württemberg"}},{"name":"Langenbachstr.","postalCode":"74653","locality":"Ingelfingen","municipality":{"key":"08126039","name":"Ingelfingen, Stadt","type":"Stadt"},"district":{"key":"08126","name":"Hohenlohekreis","type":"Landkreis"},"federalState":{"key":"08","name":"Baden-Württemberg"}},{"name":"Leixenweg","postalCode":"74653","locality":"Ingelfingen","municipality":{"key":"08126039","name":"Ingelfingen, Stadt","type":"Stadt"},"district":{"key":"08126","name":"Hohenlohekreis","type":"Landkreis"},"federalState":{"key":"08","name":"Baden-Württemberg"}},{"name":"Lerchenstr.","postalCode":"74653","locality":"Ingelfingen","municipality":{"key":"08126039","name":"Ingelfingen, Stadt","type":"Stadt"},"district":{"key":"08126","name":"Hohenlohekreis","type":"Landkreis"},"federalState":{"key":"08","name":"Baden-Württemberg"}},{"name":"Lessingstr.","postalCode":"74653","locality":"Ingelfingen","municipality":{"key":"08126039","name":"Ingelfingen, Stadt","type":"Stadt"},"district":{"key":"08126","name":"Hohenlohekreis","type":"Landkreis"},"federalState":{"key":"08","name":"Baden-Württemberg"}},{"name":"Lichsenstr.","postalCode":"74653","locality":"Ingelfingen","municipality":{"key":"08126039","name":"Ingelfingen, Stadt","type":"Stadt"},"district":{"key":"08126","name":"Hohenlohekreis","type":"Landkreis"},"federalState":{"key":"08","name":"Baden-Württemberg"}},{"name":"Lindenstr.","postalCode":"74653","locality":"Ingelfingen","municipality":{"key":"08126039","name":"Ingelfingen, Stadt","type":"Stadt"},"district":{"key":"08126","name":"Hohenlohekreis","type":"Landkreis"},"federalState":{"key":"08","name":"Baden-Württemberg"}},{"name":"Lipfersberger Str.","postalCode":"74653","locality":"Ingelfingen","municipality":{"key":"08126039","name":"Ingelfingen, Stadt","type":"Stadt"},"district":{"key":"08126","name":"Hohenlohekreis","type":"Landkreis"},"federalState":{"key":"08","name":"Baden-Württemberg"}},{"name":"Mariannenstr.","postalCode":"74653","locality":"Ingelfingen","municipality":{"key":"08126039","name":"Ingelfingen, Stadt","type":"Stadt"},"district":{"key":"08126","name":"Hohenlohekreis","type":"Landkreis"},"federalState":{"key":"08","name":"Baden-Württemberg"}},{"name":"Mittlere Gasse","postalCode":"74653","locality":"Ingelfingen","municipality":{"key":"08126039","name":"Ingelfingen, Stadt","type":"Stadt"},"district":{"key":"08126","name":"Hohenlohekreis","type":"Landkreis"},"federalState":{"key":"08","name":"Baden-Württemberg"}},{"name":"Mörikestr.","postalCode":"74653","locality":"Ingelfingen","municipality":{"key":"08126039","name":"Ingelfingen, Stadt","type":"Stadt"},"district":{"key":"08126","name":"Hohenlohekreis","type":"Landkreis"},"federalState":{"key":"08","name":"Baden-Württemberg"}},{"name":"Mühlstr.","postalCode":"74653","locality":"Ingelfingen","municipality":{"key":"08126039","name":"Ingelfingen, Stadt","type":"Stadt"},"district":{"key":"08126","name":"Hohenlohekreis","type":"Landkreis"},"federalState":{"key":"08","name":"Baden-Württemberg"}},{"name":"Mühlweg","postalCode":"74653","locality":"Ingelfingen","municipality":{"key":"08126039","name":"Ingelfingen, Stadt","type":"Stadt"},"district":{"key":"08126","name":"Hohenlohekreis","type":"Landkreis"},"federalState":{"key":"08","name":"Baden-Württemberg"}},{"name":"Neue Str.","postalCode":"74653","locality":"Ingelfingen","municipality":{"key":"08126039","name":"Ingelfingen, Stadt","type":"Stadt"},"district":{"key":"08126","name":"Hohenlohekreis","type":"Landkreis"},"federalState":{"key":"08","name":"Baden-Württemberg"}},{"name":"Niedernhaller Str.","postalCode":"74653","locality":"Ingelfingen","municipality":{"key":"08126039","name":"Ingelfingen, Stadt","type":"Stadt"},"district":{"key":"08126","name":"Hohenlohekreis","type":"Landkreis"},"federalState":{"key":"08","name":"Baden-Württemberg"}},{"name":"Obere Gasse","postalCode":"74653","locality":"Ingelfingen","municipality":{"key":"08126039","name":"Ingelfingen, Stadt","type":"Stadt"},"district":{"key":"08126","name":"Hohenlohekreis","type":"Landkreis"},"federalState":{"key":"08","name":"Baden-Württemberg"}},{"name":"Obere Klebstr.","postalCode":"74653","locality":"Ingelfingen","municipality":{"key":"08126039","name":"Ingelfingen, Stadt","type":"Stadt"},"district":{"key":"08126","name":"Hohenlohekreis","type":"Landkreis"},"federalState":{"key":"08","name":"Baden-Württemberg"}},{"name":"Oberer Worgberg","postalCode":"74653","locality":"Ingelfingen","municipality":{"key":"08126039","name":"Ingelfingen, Stadt","type":"Stadt"},"district":{"key":"08126","name":"Hohenlohekreis","type":"Landkreis"},"federalState":{"key":"08","name":"Baden-Württemberg"}},{"name":"Obere Schulstr.","postalCode":"74653","locality":"Ingelfingen","municipality":{"key":"08126039","name":"Ingelfingen, Stadt","type":"Stadt"},"district":{"key":"08126","name":"Hohenlohekreis","type":"Landkreis"},"federalState":{"key":"08","name":"Baden-Württemberg"}},{"name":"Obere Talgasse","postalCode":"74653","locality":"Ingelfingen","municipality":{"key":"08126039","name":"Ingelfingen, Stadt","type":"Stadt"},"district":{"key":"08126","name":"Hohenlohekreis","type":"Landkreis"},"federalState":{"key":"08","name":"Baden-Württemberg"}},{"name":"Oberginsbacher Str.","postalCode":"74653","locality":"Ingelfingen","municipality":{"key":"08126039","name":"Ingelfingen, Stadt","type":"Stadt"},"district":{"key":"08126","name":"Hohenlohekreis","type":"Landkreis"},"federalState":{"key":"08","name":"Baden-Württemberg"}},{"name":"Ohrenbacher Str.","postalCode":"74653","locality":"Ingelfingen","municipality":{"key":"08126039","name":"Ingelfingen, Stadt","type":"Stadt"},"district":{"key":"08126","name":"Hohenlohekreis","type":"Landkreis"},"federalState":{"key":"08","name":"Baden-Württemberg"}},{"name":"Orbesweg","postalCode":"74653","locality":"Ingelfingen","municipality":{"key":"08126039","name":"Ingelfingen, Stadt","type":"Stadt"},"district":{"key":"08126","name":"Hohenlohekreis","type":"Landkreis"},"federalState":{"key":"08","name":"Baden-Württemberg"}},{"name":"Oststr.","postalCode":"74653","locality":"Ingelfingen","municipality":{"key":"08126039","name":"Ingelfingen, Stadt","type":"Stadt"},"district":{"key":"08126","name":"Hohenlohekreis","type":"Landkreis"},"federalState":{"key":"08","name":"Baden-Württemberg"}},{"name":"Otto-Kirschmer-Weg","postalCode":"74653","locality":"Ingelfingen","municipality":{"key":"08126039","name":"Ingelfingen, Stadt","type":"Stadt"},"district":{"key":"08126","name":"Hohenlohekreis","type":"Landkreis"},"federalState":{"key":"08","name":"Baden-Württemberg"}},{"name":"Pfannenweg","postalCode":"74653","locality":"Ingelfingen","municipality":{"key":"08126039","name":"Ingelfingen, Stadt","type":"Stadt"},"district":{"key":"08126","name":"Hohenlohekreis","type":"Landkreis"},"federalState":{"key":"08","name":"Baden-Württemberg"}},{"name":"Pfarrgasse","postalCode":"74653","locality":"Ingelfingen","municipality":{"key":"08126039","name":"Ingelfingen, Stadt","type":"Stadt"},"district":{"key":"08126","name":"Hohenlohekreis","type":"Landkreis"},"federalState":{"key":"08","name":"Baden-Württemberg"}},{"name":"Railhofer Str.","postalCode":"74653","locality":"Ingelfingen","municipality":{"key":"08126039","name":"Ingelfingen, Stadt","type":"Stadt"},"district":{"key":"08126","name":"Hohenlohekreis","type":"Landkreis"},"federalState":{"key":"08","name":"Baden-Württemberg"}},{"name":"Ratsgasse","postalCode":"74653","locality":"Ingelfingen","municipality":{"key":"08126039","name":"Ingelfingen, Stadt","type":"Stadt"},"district":{"key":"08126","name":"Hohenlohekreis","type":"Landkreis"},"federalState":{"key":"08","name":"Baden-Württemberg"}},{"name":"Rosenweg","postalCode":"74653","locality":"Ingelfingen","municipality":{"key":"08126039","name":"Ingelfingen, Stadt","type":"Stadt"},"district":{"key":"08126","name":"Hohenlohekreis","type":"Landkreis"},"federalState":{"key":"08","name":"Baden-Württemberg"}},{"name":"Sauerweg","postalCode":"74653","locality":"Ingelfingen","municipality":{"key":"08126039","name":"Ingelfingen, Stadt","type":"Stadt"},"district":{"key":"08126","name":"Hohenlohekreis","type":"Landkreis"},"federalState":{"key":"08","name":"Baden-Württemberg"}},{"name":"Schafsteige","postalCode":"74653","locality":"Ingelfingen","municipality":{"key":"08126039","name":"Ingelfingen, Stadt","type":"Stadt"},"district":{"key":"08126","name":"Hohenlohekreis","type":"Landkreis"},"federalState":{"key":"08","name":"Baden-Württemberg"}},{"name":"Scheurachshof","postalCode":"74653","locality":"Ingelfingen","municipality":{"key":"08126039","name":"Ingelfingen, Stadt","type":"Stadt"},"district":{"key":"08126","name":"Hohenlohekreis","type":"Landkreis"},"federalState":{"key":"08","name":"Baden-Württemberg"}},{"name":"Schillerstr.","postalCode":"74653","locality":"Ingelfingen","municipality":{"key":"08126039","name":"Ingelfingen, Stadt","type":"Stadt"},"district":{"key":"08126","name":"Hohenlohekreis","type":"Landkreis"},"federalState":{"key":"08","name":"Baden-Württemberg"}},{"name":"Schloßstr.","postalCode":"74653","locality":"Ingelfingen","municipality":{"key":"08126039","name":"Ingelfingen, Stadt","type":"Stadt"},"district":{"key":"08126","name":"Hohenlohekreis","type":"Landkreis"},"federalState":{"key":"08","name":"Baden-Württemberg"}},{"name":"Schmetzergasse","postalCode":"74653","locality":"Ingelfingen","municipality":{"key":"08126039","name":"Ingelfingen, Stadt","type":"Stadt"},"district":{"key":"08126","name":"Hohenlohekreis","type":"Landkreis"},"federalState":{"key":"08","name":"Baden-Württemberg"}},{"name":"Schmiedgasse","postalCode":"74653","locality":"Ingelfingen","municipality":{"key":"08126039","name":"Ingelfingen, Stadt","type":"Stadt"},"district":{"key":"08126","name":"Hohenlohekreis","type":"Landkreis"},"federalState":{"key":"08","name":"Baden-Württemberg"}},{"name":"Schönenbergstr.","postalCode":"74653","locality":"Ingelfingen","municipality":{"key":"08126039","name":"Ingelfingen, Stadt","type":"Stadt"},"district":{"key":"08126","name":"Hohenlohekreis","type":"Landkreis"},"federalState":{"key":"08","name":"Baden-Württemberg"}},{"name":"Schulklinge","postalCode":"74653","locality":"Ingelfingen","municipality":{"key":"08126039","name":"Ingelfingen, Stadt","type":"Stadt"},"district":{"key":"08126","name":"Hohenlohekreis","type":"Landkreis"},"federalState":{"key":"08","name":"Baden-Württemberg"}},{"name":"Schwalbenstr.","postalCode":"74653","locality":"Ingelfingen","municipality":{"key":"08126039","name":"Ingelfingen, Stadt","type":"Stadt"},"district":{"key":"08126","name":"Hohenlohekreis","type":"Landkreis"},"federalState":{"key":"08","name":"Baden-Württemberg"}},{"name":"Schwarzdornweg","postalCode":"74653","locality":"Ingelfingen","municipality":{"key":"08126039","name":"Ingelfingen, Stadt","type":"Stadt"},"district":{"key":"08126","name":"Hohenlohekreis","type":"Landkreis"},"federalState":{"key":"08","name":"Baden-Württemberg"}},{"name":"Seestr.","postalCode":"74653","locality":"Ingelfingen","municipality":{"key":"08126039","name":"Ingelfingen, Stadt","type":"Stadt"},"district":{"key":"08126","name":"Hohenlohekreis","type":"Landkreis"},"federalState":{"key":"08","name":"Baden-Württemberg"}},{"name":"Silcherstr.","postalCode":"74653","locality":"Ingelfingen","municipality":{"key":"08126039","name":"Ingelfingen, Stadt","type":"Stadt"},"district":{"key":"08126","name":"Hohenlohekreis","type":"Landkreis"},"federalState":{"key":"08","name":"Baden-Württemberg"}},{"name":"Sindelbachstr.","postalCode":"74653","locality":"Ingelfingen","municipality":{"key":"08126039","name":"Ingelfingen, Stadt","type":"Stadt"},"district":{"key":"08126","name":"Hohenlohekreis","type":"Landkreis"},"federalState":{"key":"08","name":"Baden-Württemberg"}},{"name":"Sperlingweg","postalCode":"74653","locality":"Ingelfingen","municipality":{"key":"08126039","name":"Ingelfingen, Stadt","type":"Stadt"},"district":{"key":"08126","name":"Hohenlohekreis","type":"Landkreis"},"federalState":{"key":"08","name":"Baden-Württemberg"}},{"name":"Stäffelesweg","postalCode":"74653","locality":"Ingelfingen","municipality":{"key":"08126039","name":"Ingelfingen, Stadt","type":"Stadt"},"district":{"key":"08126","name":"Hohenlohekreis","type":"Landkreis"},"federalState":{"key":"08","name":"Baden-Württemberg"}},{"name":"Steige","postalCode":"74653","locality":"Ingelfingen","municipality":{"key":"08126039","name":"Ingelfingen, Stadt","type":"Stadt"},"district":{"key":"08126","name":"Hohenlohekreis","type":"Landkreis"},"federalState":{"key":"08","name":"Baden-Württemberg"}},{"name":"Steiler Weg","postalCode":"74653","locality":"Ingelfingen","municipality":{"key":"08126039","name":"Ingelfingen, Stadt","type":"Stadt"},"district":{"key":"08126","name":"Hohenlohekreis","type":"Landkreis"},"federalState":{"key":"08","name":"Baden-Württemberg"}},{"name":"Steinlesweg","postalCode":"74653","locality":"Ingelfingen","municipality":{"key":"08126039","name":"Ingelfingen, Stadt","type":"Stadt"},"district":{"key":"08126","name":"Hohenlohekreis","type":"Landkreis"},"federalState":{"key":"08","name":"Baden-Württemberg"}},{"name":"Steinlückenweg","postalCode":"74653","locality":"Ingelfingen","municipality":{"key":"08126039","name":"Ingelfingen, Stadt","type":"Stadt"},"district":{"key":"08126","name":"Hohenlohekreis","type":"Landkreis"},"federalState":{"key":"08","name":"Baden-Württemberg"}},{"name":"Steinsteige","postalCode":"74653","locality":"Ingelfingen","municipality":{"key":"08126039","name":"Ingelfingen, Stadt","type":"Stadt"},"district":{"key":"08126","name":"Hohenlohekreis","type":"Landkreis"},"federalState":{"key":"08","name":"Baden-Württemberg"}},{"name":"Stifterstr.","postalCode":"74653","locality":"Ingelfingen","municipality":{"key":"08126039","name":"Ingelfingen, Stadt","type":"Stadt"},"district":{"key":"08126","name":"Hohenlohekreis","type":"Landkreis"},"federalState":{"key":"08","name":"Baden-Württemberg"}},{"name":"Teichstr.","postalCode":"74653","locality":"Ingelfingen","municipality":{"key":"08126039","name":"Ingelfingen, Stadt","type":"Stadt"},"district":{"key":"08126","name":"Hohenlohekreis","type":"Landkreis"},"federalState":{"key":"08","name":"Baden-Württemberg"}},{"name":"Triebweg","postalCode":"74653","locality":"Ingelfingen","municipality":{"key":"08126039","name":"Ingelfingen, Stadt","type":"Stadt"},"district":{"key":"08126","name":"Hohenlohekreis","type":"Landkreis"},"federalState":{"key":"08","name":"Baden-Württemberg"}},{"name":"Uhlandstr.","postalCode":"74653","locality":"Ingelfingen","municipality":{"key":"08126039","name":"Ingelfingen, Stadt","type":"Stadt"},"district":{"key":"08126","name":"Hohenlohekreis","type":"Landkreis"},"federalState":{"key":"08","name":"Baden-Württemberg"}},{"name":"Vogelsangstr.","postalCode":"74653","locality":"Ingelfingen","municipality":{"key":"08126039","name":"Ingelfingen, Stadt","type":"Stadt"},"district":{"key":"08126","name":"Hohenlohekreis","type":"Landkreis"},"federalState":{"key":"08","name":"Baden-Württemberg"}},{"name":"Vorderer Berg","postalCode":"74653","locality":"Ingelfingen","municipality":{"key":"08126039","name":"Ingelfingen, Stadt","type":"Stadt"},"district":{"key":"08126","name":"Hohenlohekreis","type":"Landkreis"},"federalState":{"key":"08","name":"Baden-Württemberg"}},{"name":"Weldingsfelder Weg","postalCode":"74653","locality":"Ingelfingen","municipality":{"key":"08126039","name":"Ingelfingen, Stadt","type":"Stadt"},"district":{"key":"08126","name":"Hohenlohekreis","type":"Landkreis"},"federalState":{"key":"08","name":"Baden-Württemberg"}},{"name":"Wiesenweg","postalCode":"74653","locality":"Ingelfingen","municipality":{"key":"08126039","name":"Ingelfingen, Stadt","type":"Stadt"},"district":{"key":"08126","name":"Hohenlohekreis","type":"Landkreis"},"federalState":{"key":"08","name":"Baden-Württemberg"}},{"name":"Wiesweg","postalCode":"74653","locality":"Ingelfingen","municipality":{"key":"08126039","name":"Ingelfingen, Stadt","type":"Stadt"},"district":{"key":"08126","name":"Hohenlohekreis","type":"Landkreis"},"federalState":{"key":"08","name":"Baden-Württemberg"}},{"name":"Worgberg","postalCode":"74653","locality":"Ingelfingen","municipality":{"key":"08126039","name":"Ingelfingen, Stadt","type":"Stadt"},"district":{"key":"08126","name":"Hohenlohekreis","type":"Landkreis"},"federalState":{"key":"08","name":"Baden-Württemberg"}},{"name":"Zur Lichteneck","postalCode":"74653","locality":"Ingelfingen","municipality":{"key":"08126039","name":"Ingelfingen, Stadt","type":"Stadt"},"district":{"key":"08126","name":"Hohenlohekreis","type":"Landkreis"},"federalState":{"key":"08","name":"Baden-Württemberg"}},{"name":"Zur Zarge","postalCode":"74653","locality":"Ingelfingen","municipality":{"key":"08126039","name":"Ingelfingen, Stadt","type":"Stadt"},"district":{"key":"08126","name":"Hohenlohekreis","type":"Landkreis"},"federalState":{"key":"08","name":"Baden-Württemberg"}},]