[{"name":"Alkersumer Stieg","postalCode":"25938","locality":"Nieblum","municipality":{"key":"01054087","name":"Nieblum","type":"Kreisangehörige_Gemeinde"},"district":{"key":"01054","name":"Nordfriesland","type":"Kreis"},"federalState":{"key":"01","name":"Schleswig-Holstein"}},{"name":"Babendörpstieg","postalCode":"25938","locality":"Nieblum","municipality":{"key":"01054087","name":"Nieblum","type":"Kreisangehörige_Gemeinde"},"district":{"key":"01054","name":"Nordfriesland","type":"Kreis"},"federalState":{"key":"01","name":"Schleswig-Holstein"}},{"name":"Bernhard-Farwer-Strat","postalCode":"25938","locality":"Nieblum","municipality":{"key":"01054087","name":"Nieblum","type":"Kreisangehörige_Gemeinde"},"district":{"key":"01054","name":"Nordfriesland","type":"Kreis"},"federalState":{"key":"01","name":"Schleswig-Holstein"}},{"name":"Bi de Meere","postalCode":"25938","locality":"Nieblum","municipality":{"key":"01054087","name":"Nieblum","type":"Kreisangehörige_Gemeinde"},"district":{"key":"01054","name":"Nordfriesland","type":"Kreis"},"federalState":{"key":"01","name":"Schleswig-Holstein"}},{"name":"Bi de Süd","postalCode":"25938","locality":"Nieblum","municipality":{"key":"01054087","name":"Nieblum","type":"Kreisangehörige_Gemeinde"},"district":{"key":"01054","name":"Nordfriesland","type":"Kreis"},"federalState":{"key":"01","name":"Schleswig-Holstein"}},{"name":"Binnendörp","postalCode":"25938","locality":"Nieblum","municipality":{"key":"01054087","name":"Nieblum","type":"Kreisangehörige_Gemeinde"},"district":{"key":"01054","name":"Nordfriesland","type":"Kreis"},"federalState":{"key":"01","name":"Schleswig-Holstein"}},{"name":"Bobdikem","postalCode":"25938","locality":"Nieblum","municipality":{"key":"01054087","name":"Nieblum","type":"Kreisangehörige_Gemeinde"},"district":{"key":"01054","name":"Nordfriesland","type":"Kreis"},"federalState":{"key":"01","name":"Schleswig-Holstein"}},{"name":"Bobmeere","postalCode":"25938","locality":"Nieblum","municipality":{"key":"01054087","name":"Nieblum","type":"Kreisangehörige_Gemeinde"},"district":{"key":"01054","name":"Nordfriesland","type":"Kreis"},"federalState":{"key":"01","name":"Schleswig-Holstein"}},{"name":"Bredland","postalCode":"25938","locality":"Nieblum","municipality":{"key":"01054087","name":"Nieblum","type":"Kreisangehörige_Gemeinde"},"district":{"key":"01054","name":"Nordfriesland","type":"Kreis"},"federalState":{"key":"01","name":"Schleswig-Holstein"}},{"name":"Brukswai","postalCode":"25938","locality":"Nieblum","municipality":{"key":"01054087","name":"Nieblum","type":"Kreisangehörige_Gemeinde"},"district":{"key":"01054","name":"Nordfriesland","type":"Kreis"},"federalState":{"key":"01","name":"Schleswig-Holstein"}},{"name":"Deelswai","postalCode":"25938","locality":"Nieblum","municipality":{"key":"01054087","name":"Nieblum","type":"Kreisangehörige_Gemeinde"},"district":{"key":"01054","name":"Nordfriesland","type":"Kreis"},"federalState":{"key":"01","name":"Schleswig-Holstein"}},{"name":"De Gröne Eck","postalCode":"25938","locality":"Nieblum","municipality":{"key":"01054087","name":"Nieblum","type":"Kreisangehörige_Gemeinde"},"district":{"key":"01054","name":"Nordfriesland","type":"Kreis"},"federalState":{"key":"01","name":"Schleswig-Holstein"}},{"name":"Dieksweg","postalCode":"25938","locality":"Nieblum","municipality":{"key":"01054087","name":"Nieblum","type":"Kreisangehörige_Gemeinde"},"district":{"key":"01054","name":"Nordfriesland","type":"Kreis"},"federalState":{"key":"01","name":"Schleswig-Holstein"}},{"name":"Drunken-Manns-Stieg","postalCode":"25938","locality":"Nieblum","municipality":{"key":"01054087","name":"Nieblum","type":"Kreisangehörige_Gemeinde"},"district":{"key":"01054","name":"Nordfriesland","type":"Kreis"},"federalState":{"key":"01","name":"Schleswig-Holstein"}},{"name":"Faskerstegelk","postalCode":"25938","locality":"Nieblum","municipality":{"key":"01054087","name":"Nieblum","type":"Kreisangehörige_Gemeinde"},"district":{"key":"01054","name":"Nordfriesland","type":"Kreis"},"federalState":{"key":"01","name":"Schleswig-Holstein"}},{"name":"Gartenstr.","postalCode":"25938","locality":"Nieblum","municipality":{"key":"01054087","name":"Nieblum","type":"Kreisangehörige_Gemeinde"},"district":{"key":"01054","name":"Nordfriesland","type":"Kreis"},"federalState":{"key":"01","name":"Schleswig-Holstein"}},{"name":"Greenwai","postalCode":"25938","locality":"Nieblum","municipality":{"key":"01054087","name":"Nieblum","type":"Kreisangehörige_Gemeinde"},"district":{"key":"01054","name":"Nordfriesland","type":"Kreis"},"federalState":{"key":"01","name":"Schleswig-Holstein"}},{"name":"Greveling","postalCode":"25938","locality":"Nieblum","municipality":{"key":"01054087","name":"Nieblum","type":"Kreisangehörige_Gemeinde"},"district":{"key":"01054","name":"Nordfriesland","type":"Kreis"},"federalState":{"key":"01","name":"Schleswig-Holstein"}},{"name":"Grevelingstieg","postalCode":"25938","locality":"Nieblum","municipality":{"key":"01054087","name":"Nieblum","type":"Kreisangehörige_Gemeinde"},"district":{"key":"01054","name":"Nordfriesland","type":"Kreis"},"federalState":{"key":"01","name":"Schleswig-Holstein"}},{"name":"Guatingwai","postalCode":"25938","locality":"Nieblum","municipality":{"key":"01054087","name":"Nieblum","type":"Kreisangehörige_Gemeinde"},"district":{"key":"01054","name":"Nordfriesland","type":"Kreis"},"federalState":{"key":"01","name":"Schleswig-Holstein"}},{"name":"Heeschweg","postalCode":"25938","locality":"Nieblum","municipality":{"key":"01054087","name":"Nieblum","type":"Kreisangehörige_Gemeinde"},"district":{"key":"01054","name":"Nordfriesland","type":"Kreis"},"federalState":{"key":"01","name":"Schleswig-Holstein"}},{"name":"Heidweg","postalCode":"25938","locality":"Nieblum","municipality":{"key":"01054087","name":"Nieblum","type":"Kreisangehörige_Gemeinde"},"district":{"key":"01054","name":"Nordfriesland","type":"Kreis"},"federalState":{"key":"01","name":"Schleswig-Holstein"}},{"name":"Hochstieg","postalCode":"25938","locality":"Nieblum","municipality":{"key":"01054087","name":"Nieblum","type":"Kreisangehörige_Gemeinde"},"district":{"key":"01054","name":"Nordfriesland","type":"Kreis"},"federalState":{"key":"01","name":"Schleswig-Holstein"}},{"name":"Jens-Jacob-Eschel-Str.","postalCode":"25938","locality":"Nieblum","municipality":{"key":"01054087","name":"Nieblum","type":"Kreisangehörige_Gemeinde"},"district":{"key":"01054","name":"Nordfriesland","type":"Kreis"},"federalState":{"key":"01","name":"Schleswig-Holstein"}},{"name":"Josias Koog","postalCode":"25938","locality":"Nieblum","municipality":{"key":"01054087","name":"Nieblum","type":"Kreisangehörige_Gemeinde"},"district":{"key":"01054","name":"Nordfriesland","type":"Kreis"},"federalState":{"key":"01","name":"Schleswig-Holstein"}},{"name":"Kapitän-Paulsen-Weg","postalCode":"25938","locality":"Nieblum","municipality":{"key":"01054087","name":"Nieblum","type":"Kreisangehörige_Gemeinde"},"district":{"key":"01054","name":"Nordfriesland","type":"Kreis"},"federalState":{"key":"01","name":"Schleswig-Holstein"}},{"name":"Karkstieg","postalCode":"25938","locality":"Nieblum","municipality":{"key":"01054087","name":"Nieblum","type":"Kreisangehörige_Gemeinde"},"district":{"key":"01054","name":"Nordfriesland","type":"Kreis"},"federalState":{"key":"01","name":"Schleswig-Holstein"}},{"name":"Kertelheinallee","postalCode":"25938","locality":"Nieblum","municipality":{"key":"01054087","name":"Nieblum","type":"Kreisangehörige_Gemeinde"},"district":{"key":"01054","name":"Nordfriesland","type":"Kreis"},"federalState":{"key":"01","name":"Schleswig-Holstein"}},{"name":"Ketwondsweg","postalCode":"25938","locality":"Nieblum","municipality":{"key":"01054087","name":"Nieblum","type":"Kreisangehörige_Gemeinde"},"district":{"key":"01054","name":"Nordfriesland","type":"Kreis"},"federalState":{"key":"01","name":"Schleswig-Holstein"}},{"name":"Klafwai","postalCode":"25938","locality":"Nieblum","municipality":{"key":"01054087","name":"Nieblum","type":"Kreisangehörige_Gemeinde"},"district":{"key":"01054","name":"Nordfriesland","type":"Kreis"},"federalState":{"key":"01","name":"Schleswig-Holstein"}},{"name":"Kliff","postalCode":"25938","locality":"Nieblum","municipality":{"key":"01054087","name":"Nieblum","type":"Kreisangehörige_Gemeinde"},"district":{"key":"01054","name":"Nordfriesland","type":"Kreis"},"federalState":{"key":"01","name":"Schleswig-Holstein"}},{"name":"Möhlenstieg","postalCode":"25938","locality":"Nieblum","municipality":{"key":"01054087","name":"Nieblum","type":"Kreisangehörige_Gemeinde"},"district":{"key":"01054","name":"Nordfriesland","type":"Kreis"},"federalState":{"key":"01","name":"Schleswig-Holstein"}},{"name":"Namine-Witt-Wai","postalCode":"25938","locality":"Nieblum","municipality":{"key":"01054087","name":"Nieblum","type":"Kreisangehörige_Gemeinde"},"district":{"key":"01054","name":"Nordfriesland","type":"Kreis"},"federalState":{"key":"01","name":"Schleswig-Holstein"}},{"name":"Osterheideweg","postalCode":"25938","locality":"Nieblum","municipality":{"key":"01054087","name":"Nieblum","type":"Kreisangehörige_Gemeinde"},"district":{"key":"01054","name":"Nordfriesland","type":"Kreis"},"federalState":{"key":"01","name":"Schleswig-Holstein"}},{"name":"Poststrat","postalCode":"25938","locality":"Nieblum","municipality":{"key":"01054087","name":"Nieblum","type":"Kreisangehörige_Gemeinde"},"district":{"key":"01054","name":"Nordfriesland","type":"Kreis"},"federalState":{"key":"01","name":"Schleswig-Holstein"}},{"name":"Rundföhrstr.","postalCode":"25938","locality":"Nieblum","municipality":{"key":"01054087","name":"Nieblum","type":"Kreisangehörige_Gemeinde"},"district":{"key":"01054","name":"Nordfriesland","type":"Kreis"},"federalState":{"key":"01","name":"Schleswig-Holstein"}},{"name":"Stichwai","postalCode":"25938","locality":"Nieblum","municipality":{"key":"01054087","name":"Nieblum","type":"Kreisangehörige_Gemeinde"},"district":{"key":"01054","name":"Nordfriesland","type":"Kreis"},"federalState":{"key":"01","name":"Schleswig-Holstein"}},{"name":"Strandstr.","postalCode":"25938","locality":"Nieblum","municipality":{"key":"01054087","name":"Nieblum","type":"Kreisangehörige_Gemeinde"},"district":{"key":"01054","name":"Nordfriesland","type":"Kreis"},"federalState":{"key":"01","name":"Schleswig-Holstein"}},{"name":"Thingwai","postalCode":"25938","locality":"Nieblum","municipality":{"key":"01054087","name":"Nieblum","type":"Kreisangehörige_Gemeinde"},"district":{"key":"01054","name":"Nordfriesland","type":"Kreis"},"federalState":{"key":"01","name":"Schleswig-Holstein"}},{"name":"Traumstr.","postalCode":"25938","locality":"Nieblum","municipality":{"key":"01054087","name":"Nieblum","type":"Kreisangehörige_Gemeinde"},"district":{"key":"01054","name":"Nordfriesland","type":"Kreis"},"federalState":{"key":"01","name":"Schleswig-Holstein"}},{"name":"Uasteranjstich","postalCode":"25938","locality":"Nieblum","municipality":{"key":"01054087","name":"Nieblum","type":"Kreisangehörige_Gemeinde"},"district":{"key":"01054","name":"Nordfriesland","type":"Kreis"},"federalState":{"key":"01","name":"Schleswig-Holstein"}},{"name":"Westerheideweg","postalCode":"25938","locality":"Nieblum","municipality":{"key":"01054087","name":"Nieblum","type":"Kreisangehörige_Gemeinde"},"district":{"key":"01054","name":"Nordfriesland","type":"Kreis"},"federalState":{"key":"01","name":"Schleswig-Holstein"}},{"name":"Westerstieg","postalCode":"25938","locality":"Nieblum","municipality":{"key":"01054087","name":"Nieblum","type":"Kreisangehörige_Gemeinde"},"district":{"key":"01054","name":"Nordfriesland","type":"Kreis"},"federalState":{"key":"01","name":"Schleswig-Holstein"}},{"name":"Wikingwai","postalCode":"25938","locality":"Nieblum","municipality":{"key":"01054087","name":"Nieblum","type":"Kreisangehörige_Gemeinde"},"district":{"key":"01054","name":"Nordfriesland","type":"Kreis"},"federalState":{"key":"01","name":"Schleswig-Holstein"}},{"name":"Wohlds Weg","postalCode":"25938","locality":"Nieblum","municipality":{"key":"01054087","name":"Nieblum","type":"Kreisangehörige_Gemeinde"},"district":{"key":"01054","name":"Nordfriesland","type":"Kreis"},"federalState":{"key":"01","name":"Schleswig-Holstein"}},]