[{"name":"Am Haldenmoos","postalCode":"88361","locality":"Altshausen","municipality":{"key":"08436005","name":"Altshausen","type":"Kreisangehörige_Gemeinde"},"district":{"key":"08436","name":"Ravensburg","type":"Landkreis"},"federalState":{"key":"08","name":"Baden-Württemberg"}},{"name":"Am Schlehenrain","postalCode":"88361","locality":"Altshausen","municipality":{"key":"08436005","name":"Altshausen","type":"Kreisangehörige_Gemeinde"},"district":{"key":"08436","name":"Ravensburg","type":"Landkreis"},"federalState":{"key":"08","name":"Baden-Württemberg"}},{"name":"Aueweg","postalCode":"88361","locality":"Altshausen","municipality":{"key":"08436005","name":"Altshausen","type":"Kreisangehörige_Gemeinde"},"district":{"key":"08436","name":"Ravensburg","type":"Landkreis"},"federalState":{"key":"08","name":"Baden-Württemberg"}},{"name":"Auf dem Loh","postalCode":"88361","locality":"Altshausen","municipality":{"key":"08436005","name":"Altshausen","type":"Kreisangehörige_Gemeinde"},"district":{"key":"08436","name":"Ravensburg","type":"Landkreis"},"federalState":{"key":"08","name":"Baden-Württemberg"}},{"name":"Bachstr.","postalCode":"88361","locality":"Altshausen","municipality":{"key":"08436005","name":"Altshausen","type":"Kreisangehörige_Gemeinde"},"district":{"key":"08436","name":"Ravensburg","type":"Landkreis"},"federalState":{"key":"08","name":"Baden-Württemberg"}},{"name":"Bagnatostr.","postalCode":"88361","locality":"Altshausen","municipality":{"key":"08436005","name":"Altshausen","type":"Kreisangehörige_Gemeinde"},"district":{"key":"08436","name":"Ravensburg","type":"Landkreis"},"federalState":{"key":"08","name":"Baden-Württemberg"}},{"name":"Bahnhofstr.","postalCode":"88361","locality":"Altshausen","municipality":{"key":"08436005","name":"Altshausen","type":"Kreisangehörige_Gemeinde"},"district":{"key":"08436","name":"Ravensburg","type":"Landkreis"},"federalState":{"key":"08","name":"Baden-Württemberg"}},{"name":"Beethovenstr.","postalCode":"88361","locality":"Altshausen","municipality":{"key":"08436005","name":"Altshausen","type":"Kreisangehörige_Gemeinde"},"district":{"key":"08436","name":"Ravensburg","type":"Landkreis"},"federalState":{"key":"08","name":"Baden-Württemberg"}},{"name":"Birkenweg","postalCode":"88361","locality":"Altshausen","municipality":{"key":"08436005","name":"Altshausen","type":"Kreisangehörige_Gemeinde"},"district":{"key":"08436","name":"Ravensburg","type":"Landkreis"},"federalState":{"key":"08","name":"Baden-Württemberg"}},{"name":"Bismarckstr.","postalCode":"88361","locality":"Altshausen","municipality":{"key":"08436005","name":"Altshausen","type":"Kreisangehörige_Gemeinde"},"district":{"key":"08436","name":"Ravensburg","type":"Landkreis"},"federalState":{"key":"08","name":"Baden-Württemberg"}},{"name":"Blönrieder Str.","postalCode":"88361","locality":"Altshausen","municipality":{"key":"08436005","name":"Altshausen","type":"Kreisangehörige_Gemeinde"},"district":{"key":"08436","name":"Ravensburg","type":"Landkreis"},"federalState":{"key":"08","name":"Baden-Württemberg"}},{"name":"Blumenstr.","postalCode":"88361","locality":"Altshausen","municipality":{"key":"08436005","name":"Altshausen","type":"Kreisangehörige_Gemeinde"},"district":{"key":"08436","name":"Ravensburg","type":"Landkreis"},"federalState":{"key":"08","name":"Baden-Württemberg"}},{"name":"Bocksberg","postalCode":"88361","locality":"Altshausen","municipality":{"key":"08436005","name":"Altshausen","type":"Kreisangehörige_Gemeinde"},"district":{"key":"08436","name":"Ravensburg","type":"Landkreis"},"federalState":{"key":"08","name":"Baden-Württemberg"}},{"name":"Breslauer Str.","postalCode":"88361","locality":"Altshausen","municipality":{"key":"08436005","name":"Altshausen","type":"Kreisangehörige_Gemeinde"},"district":{"key":"08436","name":"Ravensburg","type":"Landkreis"},"federalState":{"key":"08","name":"Baden-Württemberg"}},{"name":"Buchäckerstr.","postalCode":"88361","locality":"Altshausen","municipality":{"key":"08436005","name":"Altshausen","type":"Kreisangehörige_Gemeinde"},"district":{"key":"08436","name":"Ravensburg","type":"Landkreis"},"federalState":{"key":"08","name":"Baden-Württemberg"}},{"name":"Carl-Stauder-Str.","postalCode":"88214","locality":"Ravensburg","municipality":{"key":"08436064","name":"Ravensburg, Stadt","type":"Große_Kreisstadt"},"district":{"key":"08436","name":"Ravensburg","type":"Landkreis"},"federalState":{"key":"08","name":"Baden-Württemberg"}},{"name":"Charlottenstr.","postalCode":"88212","locality":"Ravensburg","municipality":{"key":"08436064","name":"Ravensburg, Stadt","type":"Große_Kreisstadt"},"district":{"key":"08436","name":"Ravensburg","type":"Landkreis"},"federalState":{"key":"08","name":"Baden-Württemberg"}},{"name":"Churfirstenstr.","postalCode":"88213","locality":"Ravensburg","municipality":{"key":"08436064","name":"Ravensburg, Stadt","type":"Große_Kreisstadt"},"district":{"key":"08436","name":"Ravensburg","type":"Landkreis"},"federalState":{"key":"08","name":"Baden-Württemberg"}},{"name":"Coswiger Platz","postalCode":"88212","locality":"Ravensburg","municipality":{"key":"08436064","name":"Ravensburg, Stadt","type":"Große_Kreisstadt"},"district":{"key":"08436","name":"Ravensburg","type":"Landkreis"},"federalState":{"key":"08","name":"Baden-Württemberg"}},{"name":"Danziger Str.","postalCode":"88361","locality":"Altshausen","municipality":{"key":"08436005","name":"Altshausen","type":"Kreisangehörige_Gemeinde"},"district":{"key":"08436","name":"Ravensburg","type":"Landkreis"},"federalState":{"key":"08","name":"Baden-Württemberg"}},{"name":"Deichäcker","postalCode":"88361","locality":"Altshausen","municipality":{"key":"08436005","name":"Altshausen","type":"Kreisangehörige_Gemeinde"},"district":{"key":"08436","name":"Ravensburg","type":"Landkreis"},"federalState":{"key":"08","name":"Baden-Württemberg"}},{"name":"Delippengasse","postalCode":"88361","locality":"Altshausen","municipality":{"key":"08436005","name":"Altshausen","type":"Kreisangehörige_Gemeinde"},"district":{"key":"08436","name":"Ravensburg","type":"Landkreis"},"federalState":{"key":"08","name":"Baden-Württemberg"}},{"name":"Ebenweiler Str.","postalCode":"88361","locality":"Altshausen","municipality":{"key":"08436005","name":"Altshausen","type":"Kreisangehörige_Gemeinde"},"district":{"key":"08436","name":"Ravensburg","type":"Landkreis"},"federalState":{"key":"08","name":"Baden-Württemberg"}},{"name":"Ebersbacher Str.","postalCode":"88361","locality":"Altshausen","municipality":{"key":"08436005","name":"Altshausen","type":"Kreisangehörige_Gemeinde"},"district":{"key":"08436","name":"Ravensburg","type":"Landkreis"},"federalState":{"key":"08","name":"Baden-Württemberg"}},{"name":"Eichelgarten","postalCode":"88361","locality":"Altshausen","municipality":{"key":"08436005","name":"Altshausen","type":"Kreisangehörige_Gemeinde"},"district":{"key":"08436","name":"Ravensburg","type":"Landkreis"},"federalState":{"key":"08","name":"Baden-Württemberg"}},{"name":"Eschstr.","postalCode":"88361","locality":"Altshausen","municipality":{"key":"08436005","name":"Altshausen","type":"Kreisangehörige_Gemeinde"},"district":{"key":"08436","name":"Ravensburg","type":"Landkreis"},"federalState":{"key":"08","name":"Baden-Württemberg"}},{"name":"Fliederweg","postalCode":"88361","locality":"Altshausen","municipality":{"key":"08436005","name":"Altshausen","type":"Kreisangehörige_Gemeinde"},"district":{"key":"08436","name":"Ravensburg","type":"Landkreis"},"federalState":{"key":"08","name":"Baden-Württemberg"}},{"name":"Friedenstr.","postalCode":"88361","locality":"Altshausen","municipality":{"key":"08436005","name":"Altshausen","type":"Kreisangehörige_Gemeinde"},"district":{"key":"08436","name":"Ravensburg","type":"Landkreis"},"federalState":{"key":"08","name":"Baden-Württemberg"}},{"name":"Gartenstr.","postalCode":"88361","locality":"Altshausen","municipality":{"key":"08436005","name":"Altshausen","type":"Kreisangehörige_Gemeinde"},"district":{"key":"08436","name":"Ravensburg","type":"Landkreis"},"federalState":{"key":"08","name":"Baden-Württemberg"}},{"name":"Goethestr.","postalCode":"88361","locality":"Altshausen","municipality":{"key":"08436005","name":"Altshausen","type":"Kreisangehörige_Gemeinde"},"district":{"key":"08436","name":"Ravensburg","type":"Landkreis"},"federalState":{"key":"08","name":"Baden-Württemberg"}},{"name":"Gottlieb-Daimler-Str.","postalCode":"88361","locality":"Altshausen","municipality":{"key":"08436005","name":"Altshausen","type":"Kreisangehörige_Gemeinde"},"district":{"key":"08436","name":"Ravensburg","type":"Landkreis"},"federalState":{"key":"08","name":"Baden-Württemberg"}},{"name":"Haggenmooser Str.","postalCode":"88361","locality":"Altshausen","municipality":{"key":"08436005","name":"Altshausen","type":"Kreisangehörige_Gemeinde"},"district":{"key":"08436","name":"Ravensburg","type":"Landkreis"},"federalState":{"key":"08","name":"Baden-Württemberg"}},{"name":"Haldenstr.","postalCode":"88361","locality":"Altshausen","municipality":{"key":"08436005","name":"Altshausen","type":"Kreisangehörige_Gemeinde"},"district":{"key":"08436","name":"Ravensburg","type":"Landkreis"},"federalState":{"key":"08","name":"Baden-Württemberg"}},{"name":"Hardtwaldstr.","postalCode":"88361","locality":"Altshausen","municipality":{"key":"08436005","name":"Altshausen","type":"Kreisangehörige_Gemeinde"},"district":{"key":"08436","name":"Ravensburg","type":"Landkreis"},"federalState":{"key":"08","name":"Baden-Württemberg"}},{"name":"Hauptstr.","postalCode":"88361","locality":"Altshausen","municipality":{"key":"08436005","name":"Altshausen","type":"Kreisangehörige_Gemeinde"},"district":{"key":"08436","name":"Ravensburg","type":"Landkreis"},"federalState":{"key":"08","name":"Baden-Württemberg"}},{"name":"Hermannus-Contractus-Str.","postalCode":"88361","locality":"Altshausen","municipality":{"key":"08436005","name":"Altshausen","type":"Kreisangehörige_Gemeinde"},"district":{"key":"08436","name":"Ravensburg","type":"Landkreis"},"federalState":{"key":"08","name":"Baden-Württemberg"}},{"name":"Herzog-Albrecht-Allee","postalCode":"88361","locality":"Altshausen","municipality":{"key":"08436005","name":"Altshausen","type":"Kreisangehörige_Gemeinde"},"district":{"key":"08436","name":"Ravensburg","type":"Landkreis"},"federalState":{"key":"08","name":"Baden-Württemberg"}},{"name":"Herzogin-Rosa-Str.","postalCode":"88361","locality":"Altshausen","municipality":{"key":"08436005","name":"Altshausen","type":"Kreisangehörige_Gemeinde"},"district":{"key":"08436","name":"Ravensburg","type":"Landkreis"},"federalState":{"key":"08","name":"Baden-Württemberg"}},{"name":"Heuweg","postalCode":"88361","locality":"Altshausen","municipality":{"key":"08436005","name":"Altshausen","type":"Kreisangehörige_Gemeinde"},"district":{"key":"08436","name":"Ravensburg","type":"Landkreis"},"federalState":{"key":"08","name":"Baden-Württemberg"}},{"name":"Hindenburgstr.","postalCode":"88361","locality":"Altshausen","municipality":{"key":"08436005","name":"Altshausen","type":"Kreisangehörige_Gemeinde"},"district":{"key":"08436","name":"Ravensburg","type":"Landkreis"},"federalState":{"key":"08","name":"Baden-Württemberg"}},{"name":"Hochwiese","postalCode":"88361","locality":"Altshausen","municipality":{"key":"08436005","name":"Altshausen","type":"Kreisangehörige_Gemeinde"},"district":{"key":"08436","name":"Ravensburg","type":"Landkreis"},"federalState":{"key":"08","name":"Baden-Württemberg"}},{"name":"Hölderlinstr.","postalCode":"88361","locality":"Altshausen","municipality":{"key":"08436005","name":"Altshausen","type":"Kreisangehörige_Gemeinde"},"district":{"key":"08436","name":"Ravensburg","type":"Landkreis"},"federalState":{"key":"08","name":"Baden-Württemberg"}},{"name":"Holzgasse","postalCode":"88361","locality":"Altshausen","municipality":{"key":"08436005","name":"Altshausen","type":"Kreisangehörige_Gemeinde"},"district":{"key":"08436","name":"Ravensburg","type":"Landkreis"},"federalState":{"key":"08","name":"Baden-Württemberg"}},{"name":"Hopfenstr.","postalCode":"88361","locality":"Altshausen","municipality":{"key":"08436005","name":"Altshausen","type":"Kreisangehörige_Gemeinde"},"district":{"key":"08436","name":"Ravensburg","type":"Landkreis"},"federalState":{"key":"08","name":"Baden-Württemberg"}},{"name":"Im Brühl","postalCode":"88361","locality":"Altshausen","municipality":{"key":"08436005","name":"Altshausen","type":"Kreisangehörige_Gemeinde"},"district":{"key":"08436","name":"Ravensburg","type":"Landkreis"},"federalState":{"key":"08","name":"Baden-Württemberg"}},{"name":"Im Stampf","postalCode":"88361","locality":"Altshausen","municipality":{"key":"08436005","name":"Altshausen","type":"Kreisangehörige_Gemeinde"},"district":{"key":"08436","name":"Ravensburg","type":"Landkreis"},"federalState":{"key":"08","name":"Baden-Württemberg"}},{"name":"Im Strütle","postalCode":"88361","locality":"Altshausen","municipality":{"key":"08436005","name":"Altshausen","type":"Kreisangehörige_Gemeinde"},"district":{"key":"08436","name":"Ravensburg","type":"Landkreis"},"federalState":{"key":"08","name":"Baden-Württemberg"}},{"name":"Im Teich","postalCode":"88361","locality":"Altshausen","municipality":{"key":"08436005","name":"Altshausen","type":"Kreisangehörige_Gemeinde"},"district":{"key":"08436","name":"Ravensburg","type":"Landkreis"},"federalState":{"key":"08","name":"Baden-Württemberg"}},{"name":"Im Vogelherd","postalCode":"88361","locality":"Altshausen","municipality":{"key":"08436005","name":"Altshausen","type":"Kreisangehörige_Gemeinde"},"district":{"key":"08436","name":"Ravensburg","type":"Landkreis"},"federalState":{"key":"08","name":"Baden-Württemberg"}},{"name":"Jakob-Hoch-Str.","postalCode":"88361","locality":"Altshausen","municipality":{"key":"08436005","name":"Altshausen","type":"Kreisangehörige_Gemeinde"},"district":{"key":"08436","name":"Ravensburg","type":"Landkreis"},"federalState":{"key":"08","name":"Baden-Württemberg"}},{"name":"Kaltnerweg","postalCode":"88361","locality":"Altshausen","municipality":{"key":"08436005","name":"Altshausen","type":"Kreisangehörige_Gemeinde"},"district":{"key":"08436","name":"Ravensburg","type":"Landkreis"},"federalState":{"key":"08","name":"Baden-Württemberg"}},{"name":"Kapellenstr.","postalCode":"88361","locality":"Altshausen","municipality":{"key":"08436005","name":"Altshausen","type":"Kreisangehörige_Gemeinde"},"district":{"key":"08436","name":"Ravensburg","type":"Landkreis"},"federalState":{"key":"08","name":"Baden-Württemberg"}},{"name":"Karlstr.","postalCode":"88361","locality":"Altshausen","municipality":{"key":"08436005","name":"Altshausen","type":"Kreisangehörige_Gemeinde"},"district":{"key":"08436","name":"Ravensburg","type":"Landkreis"},"federalState":{"key":"08","name":"Baden-Württemberg"}},{"name":"Kolberger Str.","postalCode":"88361","locality":"Altshausen","municipality":{"key":"08436005","name":"Altshausen","type":"Kreisangehörige_Gemeinde"},"district":{"key":"08436","name":"Ravensburg","type":"Landkreis"},"federalState":{"key":"08","name":"Baden-Württemberg"}},{"name":"Königsberger Str.","postalCode":"88361","locality":"Altshausen","municipality":{"key":"08436005","name":"Altshausen","type":"Kreisangehörige_Gemeinde"},"district":{"key":"08436","name":"Ravensburg","type":"Landkreis"},"federalState":{"key":"08","name":"Baden-Württemberg"}},{"name":"Körnerstr.","postalCode":"88361","locality":"Altshausen","municipality":{"key":"08436005","name":"Altshausen","type":"Kreisangehörige_Gemeinde"},"district":{"key":"08436","name":"Ravensburg","type":"Landkreis"},"federalState":{"key":"08","name":"Baden-Württemberg"}},{"name":"Kreuzweg","postalCode":"88361","locality":"Altshausen","municipality":{"key":"08436005","name":"Altshausen","type":"Kreisangehörige_Gemeinde"},"district":{"key":"08436","name":"Ravensburg","type":"Landkreis"},"federalState":{"key":"08","name":"Baden-Württemberg"}},{"name":"Lindenweg","postalCode":"88361","locality":"Altshausen","municipality":{"key":"08436005","name":"Altshausen","type":"Kreisangehörige_Gemeinde"},"district":{"key":"08436","name":"Ravensburg","type":"Landkreis"},"federalState":{"key":"08","name":"Baden-Württemberg"}},{"name":"Manzengasse","postalCode":"88361","locality":"Altshausen","municipality":{"key":"08436005","name":"Altshausen","type":"Kreisangehörige_Gemeinde"},"district":{"key":"08436","name":"Ravensburg","type":"Landkreis"},"federalState":{"key":"08","name":"Baden-Württemberg"}},{"name":"Marienburger Str.","postalCode":"88361","locality":"Altshausen","municipality":{"key":"08436005","name":"Altshausen","type":"Kreisangehörige_Gemeinde"},"district":{"key":"08436","name":"Ravensburg","type":"Landkreis"},"federalState":{"key":"08","name":"Baden-Württemberg"}},{"name":"Matthias-Lang-Weg","postalCode":"88361","locality":"Altshausen","municipality":{"key":"08436005","name":"Altshausen","type":"Kreisangehörige_Gemeinde"},"district":{"key":"08436","name":"Ravensburg","type":"Landkreis"},"federalState":{"key":"08","name":"Baden-Württemberg"}},{"name":"Max-Eyth-Str.","postalCode":"88361","locality":"Altshausen","municipality":{"key":"08436005","name":"Altshausen","type":"Kreisangehörige_Gemeinde"},"district":{"key":"08436","name":"Ravensburg","type":"Landkreis"},"federalState":{"key":"08","name":"Baden-Württemberg"}},{"name":"Max-Planck-Str.","postalCode":"88361","locality":"Altshausen","municipality":{"key":"08436005","name":"Altshausen","type":"Kreisangehörige_Gemeinde"},"district":{"key":"08436","name":"Ravensburg","type":"Landkreis"},"federalState":{"key":"08","name":"Baden-Württemberg"}},{"name":"Michel-Buck-Str.","postalCode":"88361","locality":"Altshausen","municipality":{"key":"08436005","name":"Altshausen","type":"Kreisangehörige_Gemeinde"},"district":{"key":"08436","name":"Ravensburg","type":"Landkreis"},"federalState":{"key":"08","name":"Baden-Württemberg"}},{"name":"Mörikestr.","postalCode":"88361","locality":"Altshausen","municipality":{"key":"08436005","name":"Altshausen","type":"Kreisangehörige_Gemeinde"},"district":{"key":"08436","name":"Ravensburg","type":"Landkreis"},"federalState":{"key":"08","name":"Baden-Württemberg"}},{"name":"Mozartstr.","postalCode":"88361","locality":"Altshausen","municipality":{"key":"08436005","name":"Altshausen","type":"Kreisangehörige_Gemeinde"},"district":{"key":"08436","name":"Ravensburg","type":"Landkreis"},"federalState":{"key":"08","name":"Baden-Württemberg"}},{"name":"Nebelhornweg","postalCode":"88212","locality":"Ravensburg","municipality":{"key":"08436064","name":"Ravensburg, Stadt","type":"Große_Kreisstadt"},"district":{"key":"08436","name":"Ravensburg","type":"Landkreis"},"federalState":{"key":"08","name":"Baden-Württemberg"}},{"name":"Neideggweg","postalCode":"88214","locality":"Ravensburg","municipality":{"key":"08436064","name":"Ravensburg, Stadt","type":"Große_Kreisstadt"},"district":{"key":"08436","name":"Ravensburg","type":"Landkreis"},"federalState":{"key":"08","name":"Baden-Württemberg"}},{"name":"Nepomukweg","postalCode":"88214","locality":"Ravensburg","municipality":{"key":"08436064","name":"Ravensburg, Stadt","type":"Große_Kreisstadt"},"district":{"key":"08436","name":"Ravensburg","type":"Landkreis"},"federalState":{"key":"08","name":"Baden-Württemberg"}},{"name":"Neuberg","postalCode":"88214","locality":"Ravensburg","municipality":{"key":"08436064","name":"Ravensburg, Stadt","type":"Große_Kreisstadt"},"district":{"key":"08436","name":"Ravensburg","type":"Landkreis"},"federalState":{"key":"08","name":"Baden-Württemberg"}},{"name":"Neubergweg","postalCode":"88214","locality":"Ravensburg","municipality":{"key":"08436064","name":"Ravensburg, Stadt","type":"Große_Kreisstadt"},"district":{"key":"08436","name":"Ravensburg","type":"Landkreis"},"federalState":{"key":"08","name":"Baden-Württemberg"}},{"name":"Neuhaldenstr.","postalCode":"88214","locality":"Ravensburg","municipality":{"key":"08436064","name":"Ravensburg, Stadt","type":"Große_Kreisstadt"},"district":{"key":"08436","name":"Ravensburg","type":"Landkreis"},"federalState":{"key":"08","name":"Baden-Württemberg"}},{"name":"Neuwiesenstr.","postalCode":"88214","locality":"Ravensburg","municipality":{"key":"08436064","name":"Ravensburg, Stadt","type":"Große_Kreisstadt"},"district":{"key":"08436","name":"Ravensburg","type":"Landkreis"},"federalState":{"key":"08","name":"Baden-Württemberg"}},{"name":"Nikolausstr.","postalCode":"88212","locality":"Ravensburg","municipality":{"key":"08436064","name":"Ravensburg, Stadt","type":"Große_Kreisstadt"},"district":{"key":"08436","name":"Ravensburg","type":"Landkreis"},"federalState":{"key":"08","name":"Baden-Württemberg"}},{"name":"Oberes Ried","postalCode":"88361","locality":"Altshausen","municipality":{"key":"08436005","name":"Altshausen","type":"Kreisangehörige_Gemeinde"},"district":{"key":"08436","name":"Ravensburg","type":"Landkreis"},"federalState":{"key":"08","name":"Baden-Württemberg"}},{"name":"Ostracher Str.","postalCode":"88361","locality":"Altshausen","municipality":{"key":"08436005","name":"Altshausen","type":"Kreisangehörige_Gemeinde"},"district":{"key":"08436","name":"Ravensburg","type":"Landkreis"},"federalState":{"key":"08","name":"Baden-Württemberg"}},{"name":"Paul-Pfaff-Str.","postalCode":"88361","locality":"Altshausen","municipality":{"key":"08436005","name":"Altshausen","type":"Kreisangehörige_Gemeinde"},"district":{"key":"08436","name":"Ravensburg","type":"Landkreis"},"federalState":{"key":"08","name":"Baden-Württemberg"}},{"name":"Pfarrstr.","postalCode":"88361","locality":"Altshausen","municipality":{"key":"08436005","name":"Altshausen","type":"Kreisangehörige_Gemeinde"},"district":{"key":"08436","name":"Ravensburg","type":"Landkreis"},"federalState":{"key":"08","name":"Baden-Württemberg"}},{"name":"Pfingstweide","postalCode":"88361","locality":"Altshausen","municipality":{"key":"08436005","name":"Altshausen","type":"Kreisangehörige_Gemeinde"},"district":{"key":"08436","name":"Ravensburg","type":"Landkreis"},"federalState":{"key":"08","name":"Baden-Württemberg"}},{"name":"Ragenreuter Weg","postalCode":"88361","locality":"Altshausen","municipality":{"key":"08436005","name":"Altshausen","type":"Kreisangehörige_Gemeinde"},"district":{"key":"08436","name":"Ravensburg","type":"Landkreis"},"federalState":{"key":"08","name":"Baden-Württemberg"}},{"name":"Ravensburger Str.","postalCode":"88361","locality":"Altshausen","municipality":{"key":"08436005","name":"Altshausen","type":"Kreisangehörige_Gemeinde"},"district":{"key":"08436","name":"Ravensburg","type":"Landkreis"},"federalState":{"key":"08","name":"Baden-Württemberg"}},{"name":"Robert-Bosch-Str.","postalCode":"88361","locality":"Altshausen","municipality":{"key":"08436005","name":"Altshausen","type":"Kreisangehörige_Gemeinde"},"district":{"key":"08436","name":"Ravensburg","type":"Landkreis"},"federalState":{"key":"08","name":"Baden-Württemberg"}},{"name":"Rosenstr.","postalCode":"88361","locality":"Altshausen","municipality":{"key":"08436005","name":"Altshausen","type":"Kreisangehörige_Gemeinde"},"district":{"key":"08436","name":"Ravensburg","type":"Landkreis"},"federalState":{"key":"08","name":"Baden-Württemberg"}},{"name":"Saulgauer Str.","postalCode":"88361","locality":"Altshausen","municipality":{"key":"08436005","name":"Altshausen","type":"Kreisangehörige_Gemeinde"},"district":{"key":"08436","name":"Ravensburg","type":"Landkreis"},"federalState":{"key":"08","name":"Baden-Württemberg"}},{"name":"Saumstr.","postalCode":"88361","locality":"Altshausen","municipality":{"key":"08436005","name":"Altshausen","type":"Kreisangehörige_Gemeinde"},"district":{"key":"08436","name":"Ravensburg","type":"Landkreis"},"federalState":{"key":"08","name":"Baden-Württemberg"}},{"name":"Schelmenwinkel","postalCode":"88361","locality":"Altshausen","municipality":{"key":"08436005","name":"Altshausen","type":"Kreisangehörige_Gemeinde"},"district":{"key":"08436","name":"Ravensburg","type":"Landkreis"},"federalState":{"key":"08","name":"Baden-Württemberg"}},{"name":"Schillerstr.","postalCode":"88361","locality":"Altshausen","municipality":{"key":"08436005","name":"Altshausen","type":"Kreisangehörige_Gemeinde"},"district":{"key":"08436","name":"Ravensburg","type":"Landkreis"},"federalState":{"key":"08","name":"Baden-Württemberg"}},{"name":"Schloss Altshausen","postalCode":"88361","locality":"Altshausen","municipality":{"key":"08436005","name":"Altshausen","type":"Kreisangehörige_Gemeinde"},"district":{"key":"08436","name":"Ravensburg","type":"Landkreis"},"federalState":{"key":"08","name":"Baden-Württemberg"}},{"name":"Schloßstr.","postalCode":"88361","locality":"Altshausen","municipality":{"key":"08436005","name":"Altshausen","type":"Kreisangehörige_Gemeinde"},"district":{"key":"08436","name":"Ravensburg","type":"Landkreis"},"federalState":{"key":"08","name":"Baden-Württemberg"}},{"name":"Schönblick","postalCode":"88361","locality":"Altshausen","municipality":{"key":"08436005","name":"Altshausen","type":"Kreisangehörige_Gemeinde"},"district":{"key":"08436","name":"Ravensburg","type":"Landkreis"},"federalState":{"key":"08","name":"Baden-Württemberg"}},{"name":"Schönenbergstr.","postalCode":"88361","locality":"Altshausen","municipality":{"key":"08436005","name":"Altshausen","type":"Kreisangehörige_Gemeinde"},"district":{"key":"08436","name":"Ravensburg","type":"Landkreis"},"federalState":{"key":"08","name":"Baden-Württemberg"}},{"name":"Schubertstr.","postalCode":"88361","locality":"Altshausen","municipality":{"key":"08436005","name":"Altshausen","type":"Kreisangehörige_Gemeinde"},"district":{"key":"08436","name":"Ravensburg","type":"Landkreis"},"federalState":{"key":"08","name":"Baden-Württemberg"}},{"name":"Schwärzbühl","postalCode":"88361","locality":"Altshausen","municipality":{"key":"08436005","name":"Altshausen","type":"Kreisangehörige_Gemeinde"},"district":{"key":"08436","name":"Ravensburg","type":"Landkreis"},"federalState":{"key":"08","name":"Baden-Württemberg"}},{"name":"Schweizer Stapfen","postalCode":"88361","locality":"Altshausen","municipality":{"key":"08436005","name":"Altshausen","type":"Kreisangehörige_Gemeinde"},"district":{"key":"08436","name":"Ravensburg","type":"Landkreis"},"federalState":{"key":"08","name":"Baden-Württemberg"}},{"name":"Senderstr.","postalCode":"88361","locality":"Altshausen","municipality":{"key":"08436005","name":"Altshausen","type":"Kreisangehörige_Gemeinde"},"district":{"key":"08436","name":"Ravensburg","type":"Landkreis"},"federalState":{"key":"08","name":"Baden-Württemberg"}},{"name":"Silcherstr.","postalCode":"88361","locality":"Altshausen","municipality":{"key":"08436005","name":"Altshausen","type":"Kreisangehörige_Gemeinde"},"district":{"key":"08436","name":"Ravensburg","type":"Landkreis"},"federalState":{"key":"08","name":"Baden-Württemberg"}},{"name":"Spitalgasse","postalCode":"88361","locality":"Altshausen","municipality":{"key":"08436005","name":"Altshausen","type":"Kreisangehörige_Gemeinde"},"district":{"key":"08436","name":"Ravensburg","type":"Landkreis"},"federalState":{"key":"08","name":"Baden-Württemberg"}},{"name":"Spitzmoos","postalCode":"88361","locality":"Altshausen","municipality":{"key":"08436005","name":"Altshausen","type":"Kreisangehörige_Gemeinde"},"district":{"key":"08436","name":"Ravensburg","type":"Landkreis"},"federalState":{"key":"08","name":"Baden-Württemberg"}},{"name":"Stettiner Str.","postalCode":"88361","locality":"Altshausen","municipality":{"key":"08436005","name":"Altshausen","type":"Kreisangehörige_Gemeinde"},"district":{"key":"08436","name":"Ravensburg","type":"Landkreis"},"federalState":{"key":"08","name":"Baden-Württemberg"}},{"name":"Stubener Str.","postalCode":"88361","locality":"Altshausen","municipality":{"key":"08436005","name":"Altshausen","type":"Kreisangehörige_Gemeinde"},"district":{"key":"08436","name":"Ravensburg","type":"Landkreis"},"federalState":{"key":"08","name":"Baden-Württemberg"}},{"name":"Tilgenstr.","postalCode":"88361","locality":"Altshausen","municipality":{"key":"08436005","name":"Altshausen","type":"Kreisangehörige_Gemeinde"},"district":{"key":"08436","name":"Ravensburg","type":"Landkreis"},"federalState":{"key":"08","name":"Baden-Württemberg"}},{"name":"Tulpenweg","postalCode":"88361","locality":"Altshausen","municipality":{"key":"08436005","name":"Altshausen","type":"Kreisangehörige_Gemeinde"},"district":{"key":"08436","name":"Ravensburg","type":"Landkreis"},"federalState":{"key":"08","name":"Baden-Württemberg"}},{"name":"Uhlandstr.","postalCode":"88361","locality":"Altshausen","municipality":{"key":"08436005","name":"Altshausen","type":"Kreisangehörige_Gemeinde"},"district":{"key":"08436","name":"Ravensburg","type":"Landkreis"},"federalState":{"key":"08","name":"Baden-Württemberg"}},{"name":"Ulrichstr.","postalCode":"88361","locality":"Altshausen","municipality":{"key":"08436005","name":"Altshausen","type":"Kreisangehörige_Gemeinde"},"district":{"key":"08436","name":"Ravensburg","type":"Landkreis"},"federalState":{"key":"08","name":"Baden-Württemberg"}},{"name":"Veitsburgstr.","postalCode":"88212","locality":"Ravensburg","municipality":{"key":"08436064","name":"Ravensburg, Stadt","type":"Große_Kreisstadt"},"district":{"key":"08436","name":"Ravensburg","type":"Landkreis"},"federalState":{"key":"08","name":"Baden-Württemberg"}},{"name":"Veit-Stoß-Weg","postalCode":"88212","locality":"Ravensburg","municipality":{"key":"08436064","name":"Ravensburg, Stadt","type":"Große_Kreisstadt"},"district":{"key":"08436","name":"Ravensburg","type":"Landkreis"},"federalState":{"key":"08","name":"Baden-Württemberg"}},{"name":"Vorarlberger Str.","postalCode":"88212","locality":"Ravensburg","municipality":{"key":"08436064","name":"Ravensburg, Stadt","type":"Große_Kreisstadt"},"district":{"key":"08436","name":"Ravensburg","type":"Landkreis"},"federalState":{"key":"08","name":"Baden-Württemberg"}},{"name":"Vordere Kirchgasse","postalCode":"88213","locality":"Ravensburg","municipality":{"key":"08436064","name":"Ravensburg, Stadt","type":"Große_Kreisstadt"},"district":{"key":"08436","name":"Ravensburg","type":"Landkreis"},"federalState":{"key":"08","name":"Baden-Württemberg"}},{"name":"Weidenstr.","postalCode":"88361","locality":"Altshausen","municipality":{"key":"08436005","name":"Altshausen","type":"Kreisangehörige_Gemeinde"},"district":{"key":"08436","name":"Ravensburg","type":"Landkreis"},"federalState":{"key":"08","name":"Baden-Württemberg"}},{"name":"Wielandstr.","postalCode":"88361","locality":"Altshausen","municipality":{"key":"08436005","name":"Altshausen","type":"Kreisangehörige_Gemeinde"},"district":{"key":"08436","name":"Ravensburg","type":"Landkreis"},"federalState":{"key":"08","name":"Baden-Württemberg"}},{"name":"Wilhelm-Hauff-Str.","postalCode":"88361","locality":"Altshausen","municipality":{"key":"08436005","name":"Altshausen","type":"Kreisangehörige_Gemeinde"},"district":{"key":"08436","name":"Ravensburg","type":"Landkreis"},"federalState":{"key":"08","name":"Baden-Württemberg"}},{"name":"Wolfsbühl","postalCode":"88361","locality":"Altshausen","municipality":{"key":"08436005","name":"Altshausen","type":"Kreisangehörige_Gemeinde"},"district":{"key":"08436","name":"Ravensburg","type":"Landkreis"},"federalState":{"key":"08","name":"Baden-Württemberg"}},{"name":"Zeppelinstr.","postalCode":"88361","locality":"Altshausen","municipality":{"key":"08436005","name":"Altshausen","type":"Kreisangehörige_Gemeinde"},"district":{"key":"08436","name":"Ravensburg","type":"Landkreis"},"federalState":{"key":"08","name":"Baden-Württemberg"}},{"name":"Ährenweg","postalCode":"88214","locality":"Ravensburg","municipality":{"key":"08436064","name":"Ravensburg, Stadt","type":"Große_Kreisstadt"},"district":{"key":"08436","name":"Ravensburg","type":"Landkreis"},"federalState":{"key":"08","name":"Baden-Württemberg"}},{"name":"Ölschwangweg","postalCode":"88212","locality":"Ravensburg","municipality":{"key":"08436064","name":"Ravensburg, Stadt","type":"Große_Kreisstadt"},"district":{"key":"08436","name":"Ravensburg","type":"Landkreis"},"federalState":{"key":"08","name":"Baden-Württemberg"}},]