[{"key":"10213923","name":"Almend","postalCode":"2545","locality":"Selzach","commune":{"key":"2556","name":"Selzach","shortName":"Selzach"},"district":{"key":"1107","name":"Bezirk Lebern"},"canton":{"key":"11","code":"SO","name":"Solothurn"},"status":"Real"},{"key":"10213927","name":"Almendweg","postalCode":"2545","locality":"Selzach","commune":{"key":"2556","name":"Selzach","shortName":"Selzach"},"district":{"key":"1107","name":"Bezirk Lebern"},"canton":{"key":"11","code":"SO","name":"Solothurn"},"status":"Real"},{"key":"10053791","name":"Althüsli","postalCode":"2545","locality":"Selzach","commune":{"key":"2556","name":"Selzach","shortName":"Selzach"},"district":{"key":"1107","name":"Bezirk Lebern"},"canton":{"key":"11","code":"SO","name":"Solothurn"},"status":"Real"},{"key":"10089979","name":"Altreustrasse","postalCode":"2545","locality":"Selzach","commune":{"key":"2556","name":"Selzach","shortName":"Selzach"},"district":{"key":"1107","name":"Bezirk Lebern"},"canton":{"key":"11","code":"SO","name":"Solothurn"},"status":"Real"},{"key":"10213929","name":"Altweg","postalCode":"2545","locality":"Selzach","commune":{"key":"2556","name":"Selzach","shortName":"Selzach"},"district":{"key":"1107","name":"Bezirk Lebern"},"canton":{"key":"11","code":"SO","name":"Solothurn"},"status":"Real"},{"key":"10027221","name":"Auf den Müren","postalCode":"2545","locality":"Selzach","commune":{"key":"2556","name":"Selzach","shortName":"Selzach"},"district":{"key":"1107","name":"Bezirk Lebern"},"canton":{"key":"11","code":"SO","name":"Solothurn"},"status":"Real"},{"key":"10213933","name":"Auf Rüttenen","postalCode":"2545","locality":"Selzach","commune":{"key":"2556","name":"Selzach","shortName":"Selzach"},"district":{"key":"1107","name":"Bezirk Lebern"},"canton":{"key":"11","code":"SO","name":"Solothurn"},"status":"Real"},{"key":"10027222","name":"Bahnhofstrasse","postalCode":"2545","locality":"Selzach","commune":{"key":"2556","name":"Selzach","shortName":"Selzach"},"district":{"key":"1107","name":"Bezirk Lebern"},"canton":{"key":"11","code":"SO","name":"Solothurn"},"status":"Real"},{"key":"10027223","name":"Bahnweg","postalCode":"2545","locality":"Selzach","commune":{"key":"2556","name":"Selzach","shortName":"Selzach"},"district":{"key":"1107","name":"Bezirk Lebern"},"canton":{"key":"11","code":"SO","name":"Solothurn"},"status":"Real"},{"key":"10213939","name":"Bangerten","postalCode":"2545","locality":"Selzach","commune":{"key":"2556","name":"Selzach","shortName":"Selzach"},"district":{"key":"1107","name":"Bezirk Lebern"},"canton":{"key":"11","code":"SO","name":"Solothurn"},"status":"Real"},{"key":"10065829","name":"Bangertengasse","postalCode":"2545","locality":"Selzach","commune":{"key":"2556","name":"Selzach","shortName":"Selzach"},"district":{"key":"1107","name":"Bezirk Lebern"},"canton":{"key":"11","code":"SO","name":"Solothurn"},"status":"Real"},{"key":"10089980","name":"Bangertenweg","postalCode":"2545","locality":"Selzach","commune":{"key":"2556","name":"Selzach","shortName":"Selzach"},"district":{"key":"1107","name":"Bezirk Lebern"},"canton":{"key":"11","code":"SO","name":"Solothurn"},"status":"Real"},{"key":"10089983","name":"Bäriswilstrasse","postalCode":"2545","locality":"Selzach","commune":{"key":"2556","name":"Selzach","shortName":"Selzach"},"district":{"key":"1107","name":"Bezirk Lebern"},"canton":{"key":"11","code":"SO","name":"Solothurn"},"status":"Real"},{"key":"10115330","name":"Baumgartenweg","postalCode":"2545","locality":"Selzach","commune":{"key":"2556","name":"Selzach","shortName":"Selzach"},"district":{"key":"1107","name":"Bezirk Lebern"},"canton":{"key":"11","code":"SO","name":"Solothurn"},"status":"Real"},{"key":"10181874","name":"Bellacherstrasse","postalCode":"2545","locality":"Selzach","commune":{"key":"2556","name":"Selzach","shortName":"Selzach"},"district":{"key":"1107","name":"Bezirk Lebern"},"canton":{"key":"11","code":"SO","name":"Solothurn"},"status":"Real"},{"key":"10089981","name":"Bettlacherstrasse","postalCode":"2545","locality":"Selzach","commune":{"key":"2556","name":"Selzach","shortName":"Selzach"},"district":{"key":"1107","name":"Bezirk Lebern"},"canton":{"key":"11","code":"SO","name":"Solothurn"},"status":"Real"},{"key":"10065830","name":"Bielstrasse","postalCode":"2545","locality":"Selzach","commune":{"key":"2556","name":"Selzach","shortName":"Selzach"},"district":{"key":"1107","name":"Bezirk Lebern"},"canton":{"key":"11","code":"SO","name":"Solothurn"},"status":"Real"},{"key":"10213943","name":"Blockweg","postalCode":"2545","locality":"Selzach","commune":{"key":"2556","name":"Selzach","shortName":"Selzach"},"district":{"key":"1107","name":"Bezirk Lebern"},"canton":{"key":"11","code":"SO","name":"Solothurn"},"status":"Real"},{"key":"10111376","name":"Bohnackerweg","postalCode":"2545","locality":"Selzach","commune":{"key":"2556","name":"Selzach","shortName":"Selzach"},"district":{"key":"1107","name":"Bezirk Lebern"},"canton":{"key":"11","code":"SO","name":"Solothurn"},"status":"Real"},{"key":"10183611","name":"Breitengässli","postalCode":"2545","locality":"Selzach","commune":{"key":"2556","name":"Selzach","shortName":"Selzach"},"district":{"key":"1107","name":"Bezirk Lebern"},"canton":{"key":"11","code":"SO","name":"Solothurn"},"status":"Real"},{"key":"10027224","name":"Breitenweg","postalCode":"2545","locality":"Selzach","commune":{"key":"2556","name":"Selzach","shortName":"Selzach"},"district":{"key":"1107","name":"Bezirk Lebern"},"canton":{"key":"11","code":"SO","name":"Solothurn"},"status":"Real"},{"key":"10027225","name":"Brüggli","postalCode":"2545","locality":"Selzach","commune":{"key":"2556","name":"Selzach","shortName":"Selzach"},"district":{"key":"1107","name":"Bezirk Lebern"},"canton":{"key":"11","code":"SO","name":"Solothurn"},"status":"Real"},{"key":"10089982","name":"Brügglistrasse","postalCode":"2545","locality":"Selzach","commune":{"key":"2556","name":"Selzach","shortName":"Selzach"},"district":{"key":"1107","name":"Bezirk Lebern"},"canton":{"key":"11","code":"SO","name":"Solothurn"},"status":"Real"},{"key":"10065831","name":"Brühlgasse","postalCode":"2545","locality":"Selzach","commune":{"key":"2556","name":"Selzach","shortName":"Selzach"},"district":{"key":"1107","name":"Bezirk Lebern"},"canton":{"key":"11","code":"SO","name":"Solothurn"},"status":"Real"},{"key":"10027226","name":"Brühlstrasse","postalCode":"2545","locality":"Selzach","commune":{"key":"2556","name":"Selzach","shortName":"Selzach"},"district":{"key":"1107","name":"Bezirk Lebern"},"canton":{"key":"11","code":"SO","name":"Solothurn"},"status":"Real"},{"key":"10121134","name":"Brünnletzgässli","postalCode":"2545","locality":"Selzach","commune":{"key":"2556","name":"Selzach","shortName":"Selzach"},"district":{"key":"1107","name":"Bezirk Lebern"},"canton":{"key":"11","code":"SO","name":"Solothurn"},"status":"Real"},{"key":"10065832","name":"Bündtenweg","postalCode":"2545","locality":"Selzach","commune":{"key":"2556","name":"Selzach","shortName":"Selzach"},"district":{"key":"1107","name":"Bezirk Lebern"},"canton":{"key":"11","code":"SO","name":"Solothurn"},"status":"Real"},{"key":"10027227","name":"Burgweg","postalCode":"2545","locality":"Selzach","commune":{"key":"2556","name":"Selzach","shortName":"Selzach"},"district":{"key":"1107","name":"Bezirk Lebern"},"canton":{"key":"11","code":"SO","name":"Solothurn"},"status":"Real"},{"key":"10027228","name":"Chappeliweg","postalCode":"2545","locality":"Selzach","commune":{"key":"2556","name":"Selzach","shortName":"Selzach"},"district":{"key":"1107","name":"Bezirk Lebern"},"canton":{"key":"11","code":"SO","name":"Solothurn"},"status":"Real"},{"key":"10117674","name":"Chäshüttli","postalCode":"2545","locality":"Selzach","commune":{"key":"2556","name":"Selzach","shortName":"Selzach"},"district":{"key":"1107","name":"Bezirk Lebern"},"canton":{"key":"11","code":"SO","name":"Solothurn"},"status":"Real"},{"key":"10213947","name":"Cholgraben","postalCode":"2545","locality":"Selzach","commune":{"key":"2556","name":"Selzach","shortName":"Selzach"},"district":{"key":"1107","name":"Bezirk Lebern"},"canton":{"key":"11","code":"SO","name":"Solothurn"},"status":"Real"},{"key":"10148676","name":"Chrummgässli","postalCode":"2545","locality":"Selzach","commune":{"key":"2556","name":"Selzach","shortName":"Selzach"},"district":{"key":"1107","name":"Bezirk Lebern"},"canton":{"key":"11","code":"SO","name":"Solothurn"},"status":"Real"},{"key":"10027229","name":"Dorfstrasse","postalCode":"2545","locality":"Selzach","commune":{"key":"2556","name":"Selzach","shortName":"Selzach"},"district":{"key":"1107","name":"Bezirk Lebern"},"canton":{"key":"11","code":"SO","name":"Solothurn"},"status":"Real"},{"key":"10143875","name":"Dr. Homer Stryker Strasse","postalCode":"2545","locality":"Selzach","commune":{"key":"2556","name":"Selzach","shortName":"Selzach"},"district":{"key":"1107","name":"Bezirk Lebern"},"canton":{"key":"11","code":"SO","name":"Solothurn"},"status":"Real"},{"key":"10027230","name":"Eggässli","postalCode":"2545","locality":"Selzach","commune":{"key":"2556","name":"Selzach","shortName":"Selzach"},"district":{"key":"1107","name":"Bezirk Lebern"},"canton":{"key":"11","code":"SO","name":"Solothurn"},"status":"Real"},{"key":"10027231","name":"Eichackerweg","postalCode":"2545","locality":"Selzach","commune":{"key":"2556","name":"Selzach","shortName":"Selzach"},"district":{"key":"1107","name":"Bezirk Lebern"},"canton":{"key":"11","code":"SO","name":"Solothurn"},"status":"Real"},{"key":"10187784","name":"Eichholzstrasse","postalCode":"2545","locality":"Selzach","commune":{"key":"2556","name":"Selzach","shortName":"Selzach"},"district":{"key":"1107","name":"Bezirk Lebern"},"canton":{"key":"11","code":"SO","name":"Solothurn"},"status":"Real"},{"key":"10089984","name":"Erlimoosweg","postalCode":"2545","locality":"Selzach","commune":{"key":"2556","name":"Selzach","shortName":"Selzach"},"district":{"key":"1107","name":"Bezirk Lebern"},"canton":{"key":"11","code":"SO","name":"Solothurn"},"status":"Real"},{"key":"10213949","name":"Eschenhof","postalCode":"2545","locality":"Selzach","commune":{"key":"2556","name":"Selzach","shortName":"Selzach"},"district":{"key":"1107","name":"Bezirk Lebern"},"canton":{"key":"11","code":"SO","name":"Solothurn"},"status":"Real"},{"key":"10181875","name":"Eschgässli","postalCode":"2545","locality":"Selzach","commune":{"key":"2556","name":"Selzach","shortName":"Selzach"},"district":{"key":"1107","name":"Bezirk Lebern"},"canton":{"key":"11","code":"SO","name":"Solothurn"},"status":"Real"},{"key":"10056016","name":"Eschtürliweg","postalCode":"2545","locality":"Selzach","commune":{"key":"2556","name":"Selzach","shortName":"Selzach"},"district":{"key":"1107","name":"Bezirk Lebern"},"canton":{"key":"11","code":"SO","name":"Solothurn"},"status":"Real"},{"key":"10027520","name":"Ettershof","postalCode":"2545","locality":"Selzach","commune":{"key":"2556","name":"Selzach","shortName":"Selzach"},"district":{"key":"1107","name":"Bezirk Lebern"},"canton":{"key":"11","code":"SO","name":"Solothurn"},"status":"Real"},{"key":"10213953","name":"Forst","postalCode":"2545","locality":"Selzach","commune":{"key":"2556","name":"Selzach","shortName":"Selzach"},"district":{"key":"1107","name":"Bezirk Lebern"},"canton":{"key":"11","code":"SO","name":"Solothurn"},"status":"Real"},{"key":"10027521","name":"Forstweg","postalCode":"2545","locality":"Selzach","commune":{"key":"2556","name":"Selzach","shortName":"Selzach"},"district":{"key":"1107","name":"Bezirk Lebern"},"canton":{"key":"11","code":"SO","name":"Solothurn"},"status":"Real"},{"key":"10213959","name":"Friedhofstrasse","postalCode":"2545","locality":"Selzach","commune":{"key":"2556","name":"Selzach","shortName":"Selzach"},"district":{"key":"1107","name":"Bezirk Lebern"},"canton":{"key":"11","code":"SO","name":"Solothurn"},"status":"Real"},{"key":"10065833","name":"Fuchsenwald","postalCode":"2545","locality":"Selzach","commune":{"key":"2556","name":"Selzach","shortName":"Selzach"},"district":{"key":"1107","name":"Bezirk Lebern"},"canton":{"key":"11","code":"SO","name":"Solothurn"},"status":"Real"},{"key":"10089985","name":"Gabelmattweg","postalCode":"2545","locality":"Selzach","commune":{"key":"2556","name":"Selzach","shortName":"Selzach"},"district":{"key":"1107","name":"Bezirk Lebern"},"canton":{"key":"11","code":"SO","name":"Solothurn"},"status":"Real"},{"key":"10054873","name":"Galgenrain","postalCode":"2545","locality":"Selzach","commune":{"key":"2556","name":"Selzach","shortName":"Selzach"},"district":{"key":"1107","name":"Bezirk Lebern"},"canton":{"key":"11","code":"SO","name":"Solothurn"},"status":"Real"},{"key":"10183612","name":"Gänsbrühlweg","postalCode":"2545","locality":"Selzach","commune":{"key":"2556","name":"Selzach","shortName":"Selzach"},"district":{"key":"1107","name":"Bezirk Lebern"},"canton":{"key":"11","code":"SO","name":"Solothurn"},"status":"Real"},{"key":"10213963","name":"Gärbhusweg","postalCode":"2545","locality":"Selzach","commune":{"key":"2556","name":"Selzach","shortName":"Selzach"},"district":{"key":"1107","name":"Bezirk Lebern"},"canton":{"key":"11","code":"SO","name":"Solothurn"},"status":"Real"},{"key":"10023966","name":"Gartenweg","postalCode":"2545","locality":"Selzach","commune":{"key":"2556","name":"Selzach","shortName":"Selzach"},"district":{"key":"1107","name":"Bezirk Lebern"},"canton":{"key":"11","code":"SO","name":"Solothurn"},"status":"Real"},{"key":"10056017","name":"Gassackerweg","postalCode":"2545","locality":"Selzach","commune":{"key":"2556","name":"Selzach","shortName":"Selzach"},"district":{"key":"1107","name":"Bezirk Lebern"},"canton":{"key":"11","code":"SO","name":"Solothurn"},"status":"Real"},{"key":"10115331","name":"Gehrliweg","postalCode":"2545","locality":"Selzach","commune":{"key":"2556","name":"Selzach","shortName":"Selzach"},"district":{"key":"1107","name":"Bezirk Lebern"},"canton":{"key":"11","code":"SO","name":"Solothurn"},"status":"Real"},{"key":"10111377","name":"Grabenweg","postalCode":"2545","locality":"Selzach","commune":{"key":"2556","name":"Selzach","shortName":"Selzach"},"district":{"key":"1107","name":"Bezirk Lebern"},"canton":{"key":"11","code":"SO","name":"Solothurn"},"status":"Real"},{"key":"10056018","name":"Grabmattweg","postalCode":"2545","locality":"Selzach","commune":{"key":"2556","name":"Selzach","shortName":"Selzach"},"district":{"key":"1107","name":"Bezirk Lebern"},"canton":{"key":"11","code":"SO","name":"Solothurn"},"status":"Real"},{"key":"10191267","name":"Grebnetgasse","postalCode":"2545","locality":"Selzach","commune":{"key":"2556","name":"Selzach","shortName":"Selzach"},"district":{"key":"1107","name":"Bezirk Lebern"},"canton":{"key":"11","code":"SO","name":"Solothurn"},"status":"Real"},{"key":"10065834","name":"Grossmattweg","postalCode":"2545","locality":"Selzach","commune":{"key":"2556","name":"Selzach","shortName":"Selzach"},"district":{"key":"1107","name":"Bezirk Lebern"},"canton":{"key":"11","code":"SO","name":"Solothurn"},"status":"Real"},{"key":"10056019","name":"Grubenweg","postalCode":"2545","locality":"Selzach","commune":{"key":"2556","name":"Selzach","shortName":"Selzach"},"district":{"key":"1107","name":"Bezirk Lebern"},"canton":{"key":"11","code":"SO","name":"Solothurn"},"status":"Real"},{"key":"10023967","name":"Haagstrasse","postalCode":"2545","locality":"Selzach","commune":{"key":"2556","name":"Selzach","shortName":"Selzach"},"district":{"key":"1107","name":"Bezirk Lebern"},"canton":{"key":"11","code":"SO","name":"Solothurn"},"status":"Real"},{"key":"10213968","name":"Hasenmatt","postalCode":"2545","locality":"Selzach","commune":{"key":"2556","name":"Selzach","shortName":"Selzach"},"district":{"key":"1107","name":"Bezirk Lebern"},"canton":{"key":"11","code":"SO","name":"Solothurn"},"status":"Real"},{"key":"10190067","name":"Hasenmattweg","postalCode":"2545","locality":"Selzach","commune":{"key":"2556","name":"Selzach","shortName":"Selzach"},"district":{"key":"1107","name":"Bezirk Lebern"},"canton":{"key":"11","code":"SO","name":"Solothurn"},"status":"Real"},{"key":"10089986","name":"Hexengässli","postalCode":"2545","locality":"Selzach","commune":{"key":"2556","name":"Selzach","shortName":"Selzach"},"district":{"key":"1107","name":"Bezirk Lebern"},"canton":{"key":"11","code":"SO","name":"Solothurn"},"status":"Real"},{"key":"10065835","name":"Himbeerenfluh","postalCode":"2545","locality":"Selzach","commune":{"key":"2556","name":"Selzach","shortName":"Selzach"},"district":{"key":"1107","name":"Bezirk Lebern"},"canton":{"key":"11","code":"SO","name":"Solothurn"},"status":"Real"},{"key":"10023968","name":"Hinterwinkelstrasse","postalCode":"2545","locality":"Selzach","commune":{"key":"2556","name":"Selzach","shortName":"Selzach"},"district":{"key":"1107","name":"Bezirk Lebern"},"canton":{"key":"11","code":"SO","name":"Solothurn"},"status":"Real"},{"key":"10056020","name":"Holzgässli","postalCode":"2545","locality":"Selzach","commune":{"key":"2556","name":"Selzach","shortName":"Selzach"},"district":{"key":"1107","name":"Bezirk Lebern"},"canton":{"key":"11","code":"SO","name":"Solothurn"},"status":"Real"},{"key":"10147808","name":"Hölzliweg","postalCode":"2545","locality":"Selzach","commune":{"key":"2556","name":"Selzach","shortName":"Selzach"},"district":{"key":"1107","name":"Bezirk Lebern"},"canton":{"key":"11","code":"SO","name":"Solothurn"},"status":"Real"},{"key":"10023969","name":"Hubacherweg","postalCode":"2545","locality":"Selzach","commune":{"key":"2556","name":"Selzach","shortName":"Selzach"},"district":{"key":"1107","name":"Bezirk Lebern"},"canton":{"key":"11","code":"SO","name":"Solothurn"},"status":"Real"},{"key":"10181876","name":"Hubmattweg","postalCode":"2545","locality":"Selzach","commune":{"key":"2556","name":"Selzach","shortName":"Selzach"},"district":{"key":"1107","name":"Bezirk Lebern"},"canton":{"key":"11","code":"SO","name":"Solothurn"},"status":"Real"},{"key":"10099206","name":"Hungersbühlweg","postalCode":"2545","locality":"Selzach","commune":{"key":"2556","name":"Selzach","shortName":"Selzach"},"district":{"key":"1107","name":"Bezirk Lebern"},"canton":{"key":"11","code":"SO","name":"Solothurn"},"status":"Real"},{"key":"10143838","name":"Im Winkel","postalCode":"2545","locality":"Selzach","commune":{"key":"2556","name":"Selzach","shortName":"Selzach"},"district":{"key":"1107","name":"Bezirk Lebern"},"canton":{"key":"11","code":"SO","name":"Solothurn"},"status":"Real"},{"key":"10138221","name":"Industriestrasse","postalCode":"2545","locality":"Selzach","commune":{"key":"2556","name":"Selzach","shortName":"Selzach"},"district":{"key":"1107","name":"Bezirk Lebern"},"canton":{"key":"11","code":"SO","name":"Solothurn"},"status":"Real"},{"key":"10089987","name":"Junkholzweg","postalCode":"2545","locality":"Selzach","commune":{"key":"2556","name":"Selzach","shortName":"Selzach"},"district":{"key":"1107","name":"Bezirk Lebern"},"canton":{"key":"11","code":"SO","name":"Solothurn"},"status":"Real"},{"key":"10089988","name":"Känelmoosstrasse","postalCode":"2545","locality":"Selzach","commune":{"key":"2556","name":"Selzach","shortName":"Selzach"},"district":{"key":"1107","name":"Bezirk Lebern"},"canton":{"key":"11","code":"SO","name":"Solothurn"},"status":"Real"},{"key":"10065836","name":"Kapellweg","postalCode":"2545","locality":"Selzach","commune":{"key":"2556","name":"Selzach","shortName":"Selzach"},"district":{"key":"1107","name":"Bezirk Lebern"},"canton":{"key":"11","code":"SO","name":"Solothurn"},"status":"Real"},{"key":"10024247","name":"Kirchgasse","postalCode":"2545","locality":"Selzach","commune":{"key":"2556","name":"Selzach","shortName":"Selzach"},"district":{"key":"1107","name":"Bezirk Lebern"},"canton":{"key":"11","code":"SO","name":"Solothurn"},"status":"Real"},{"key":"10056021","name":"Kleinbrühlgässli","postalCode":"2545","locality":"Selzach","commune":{"key":"2556","name":"Selzach","shortName":"Selzach"},"district":{"key":"1107","name":"Bezirk Lebern"},"canton":{"key":"11","code":"SO","name":"Solothurn"},"status":"Real"},{"key":"10024248","name":"Kronengasse","postalCode":"2545","locality":"Selzach","commune":{"key":"2556","name":"Selzach","shortName":"Selzach"},"district":{"key":"1107","name":"Bezirk Lebern"},"canton":{"key":"11","code":"SO","name":"Solothurn"},"status":"Real"},{"key":"10065837","name":"Ländtiweg","postalCode":"2545","locality":"Selzach","commune":{"key":"2556","name":"Selzach","shortName":"Selzach"},"district":{"key":"1107","name":"Bezirk Lebern"},"canton":{"key":"11","code":"SO","name":"Solothurn"},"status":"Real"},{"key":"10024250","name":"Längackergasse","postalCode":"2545","locality":"Selzach","commune":{"key":"2556","name":"Selzach","shortName":"Selzach"},"district":{"key":"1107","name":"Bezirk Lebern"},"canton":{"key":"11","code":"SO","name":"Solothurn"},"status":"Real"},{"key":"10024251","name":"Längackerstrasse","postalCode":"2545","locality":"Selzach","commune":{"key":"2556","name":"Selzach","shortName":"Selzach"},"district":{"key":"1107","name":"Bezirk Lebern"},"canton":{"key":"11","code":"SO","name":"Solothurn"},"status":"Real"},{"key":"10056022","name":"Länggasse","postalCode":"2545","locality":"Selzach","commune":{"key":"2556","name":"Selzach","shortName":"Selzach"},"district":{"key":"1107","name":"Bezirk Lebern"},"canton":{"key":"11","code":"SO","name":"Solothurn"},"status":"Real"},{"key":"10213972","name":"Längmatten","postalCode":"2545","locality":"Selzach","commune":{"key":"2556","name":"Selzach","shortName":"Selzach"},"district":{"key":"1107","name":"Bezirk Lebern"},"canton":{"key":"11","code":"SO","name":"Solothurn"},"status":"Real"},{"key":"10089989","name":"Längmattweg","postalCode":"2545","locality":"Selzach","commune":{"key":"2556","name":"Selzach","shortName":"Selzach"},"district":{"key":"1107","name":"Bezirk Lebern"},"canton":{"key":"11","code":"SO","name":"Solothurn"},"status":"Real"},{"key":"10213976","name":"Längstückiweg","postalCode":"2545","locality":"Selzach","commune":{"key":"2556","name":"Selzach","shortName":"Selzach"},"district":{"key":"1107","name":"Bezirk Lebern"},"canton":{"key":"11","code":"SO","name":"Solothurn"},"status":"Real"},{"key":"10213978","name":"Leinweg","postalCode":"2545","locality":"Selzach","commune":{"key":"2556","name":"Selzach","shortName":"Selzach"},"district":{"key":"1107","name":"Bezirk Lebern"},"canton":{"key":"11","code":"SO","name":"Solothurn"},"status":"Real"},{"key":"10024249","name":"Lindenhof","postalCode":"2545","locality":"Selzach","commune":{"key":"2556","name":"Selzach","shortName":"Selzach"},"district":{"key":"1107","name":"Bezirk Lebern"},"canton":{"key":"11","code":"SO","name":"Solothurn"},"status":"Real"},{"key":"10122070","name":"Lommiswilstrasse","postalCode":"2545","locality":"Selzach","commune":{"key":"2556","name":"Selzach","shortName":"Selzach"},"district":{"key":"1107","name":"Bezirk Lebern"},"canton":{"key":"11","code":"SO","name":"Solothurn"},"status":"Real"},{"key":"10024252","name":"Mannwilweg","postalCode":"2545","locality":"Selzach","commune":{"key":"2556","name":"Selzach","shortName":"Selzach"},"district":{"key":"1107","name":"Bezirk Lebern"},"canton":{"key":"11","code":"SO","name":"Solothurn"},"status":"Real"},{"key":"10167256","name":"Mässmattweg","postalCode":"2545","locality":"Selzach","commune":{"key":"2556","name":"Selzach","shortName":"Selzach"},"district":{"key":"1107","name":"Bezirk Lebern"},"canton":{"key":"11","code":"SO","name":"Solothurn"},"status":"Real"},{"key":"10065838","name":"Mittleres Brüggli","postalCode":"2545","locality":"Selzach","commune":{"key":"2556","name":"Selzach","shortName":"Selzach"},"district":{"key":"1107","name":"Bezirk Lebern"},"canton":{"key":"11","code":"SO","name":"Solothurn"},"status":"Real"},{"key":"10156942","name":"Moosbachweg","postalCode":"2545","locality":"Selzach","commune":{"key":"2556","name":"Selzach","shortName":"Selzach"},"district":{"key":"1107","name":"Bezirk Lebern"},"canton":{"key":"11","code":"SO","name":"Solothurn"},"status":"Real"},{"key":"10099207","name":"Moosgässli","postalCode":"2545","locality":"Selzach","commune":{"key":"2556","name":"Selzach","shortName":"Selzach"},"district":{"key":"1107","name":"Bezirk Lebern"},"canton":{"key":"11","code":"SO","name":"Solothurn"},"status":"Real"},{"key":"10111378","name":"Möösliweg","postalCode":"2545","locality":"Selzach","commune":{"key":"2556","name":"Selzach","shortName":"Selzach"},"district":{"key":"1107","name":"Bezirk Lebern"},"canton":{"key":"11","code":"SO","name":"Solothurn"},"status":"Real"},{"key":"10115332","name":"Moosstrasse","postalCode":"2545","locality":"Selzach","commune":{"key":"2556","name":"Selzach","shortName":"Selzach"},"district":{"key":"1107","name":"Bezirk Lebern"},"canton":{"key":"11","code":"SO","name":"Solothurn"},"status":"Real"},{"key":"10213983","name":"Mühlegässli","postalCode":"2545","locality":"Selzach","commune":{"key":"2556","name":"Selzach","shortName":"Selzach"},"district":{"key":"1107","name":"Bezirk Lebern"},"canton":{"key":"11","code":"SO","name":"Solothurn"},"status":"Real"},{"key":"10056023","name":"Mühleraingasse","postalCode":"2545","locality":"Selzach","commune":{"key":"2556","name":"Selzach","shortName":"Selzach"},"district":{"key":"1107","name":"Bezirk Lebern"},"canton":{"key":"11","code":"SO","name":"Solothurn"},"status":"Real"},{"key":"10154678","name":"Neuweg","postalCode":"2545","locality":"Selzach","commune":{"key":"2556","name":"Selzach","shortName":"Selzach"},"district":{"key":"1107","name":"Bezirk Lebern"},"canton":{"key":"11","code":"SO","name":"Solothurn"},"status":"Real"},{"key":"10089990","name":"Oberbündtengasse","postalCode":"2545","locality":"Selzach","commune":{"key":"2556","name":"Selzach","shortName":"Selzach"},"district":{"key":"1107","name":"Bezirk Lebern"},"canton":{"key":"11","code":"SO","name":"Solothurn"},"status":"Real"},{"key":"10213986","name":"Obere Alment","postalCode":"2545","locality":"Selzach","commune":{"key":"2556","name":"Selzach","shortName":"Selzach"},"district":{"key":"1107","name":"Bezirk Lebern"},"canton":{"key":"11","code":"SO","name":"Solothurn"},"status":"Real"},{"key":"10181877","name":"Oberer Baumgartenweg","postalCode":"2545","locality":"Selzach","commune":{"key":"2556","name":"Selzach","shortName":"Selzach"},"district":{"key":"1107","name":"Bezirk Lebern"},"canton":{"key":"11","code":"SO","name":"Solothurn"},"status":"Real"},{"key":"10213992","name":"Oberer Gassacker","postalCode":"2545","locality":"Selzach","commune":{"key":"2556","name":"Selzach","shortName":"Selzach"},"district":{"key":"1107","name":"Bezirk Lebern"},"canton":{"key":"11","code":"SO","name":"Solothurn"},"status":"Real"},{"key":"10213996","name":"Oberer Suracherweg","postalCode":"2545","locality":"Selzach","commune":{"key":"2556","name":"Selzach","shortName":"Selzach"},"district":{"key":"1107","name":"Bezirk Lebern"},"canton":{"key":"11","code":"SO","name":"Solothurn"},"status":"Real"},{"key":"10155319","name":"Oberer Weingartenweg","postalCode":"2545","locality":"Selzach","commune":{"key":"2556","name":"Selzach","shortName":"Selzach"},"district":{"key":"1107","name":"Bezirk Lebern"},"canton":{"key":"11","code":"SO","name":"Solothurn"},"status":"Real"},{"key":"10054874","name":"Oberes Brüggli","postalCode":"2545","locality":"Selzach","commune":{"key":"2556","name":"Selzach","shortName":"Selzach"},"district":{"key":"1107","name":"Bezirk Lebern"},"canton":{"key":"11","code":"SO","name":"Solothurn"},"status":"Real"},{"key":"10024253","name":"Oberhaagstrasse","postalCode":"2545","locality":"Selzach","commune":{"key":"2556","name":"Selzach","shortName":"Selzach"},"district":{"key":"1107","name":"Bezirk Lebern"},"canton":{"key":"11","code":"SO","name":"Solothurn"},"status":"Real"},{"key":"10214000","name":"Orgelgraben","postalCode":"2545","locality":"Selzach","commune":{"key":"2556","name":"Selzach","shortName":"Selzach"},"district":{"key":"1107","name":"Bezirk Lebern"},"canton":{"key":"11","code":"SO","name":"Solothurn"},"status":"Real"},{"key":"10056024","name":"Passionsstrasse","postalCode":"2545","locality":"Selzach","commune":{"key":"2556","name":"Selzach","shortName":"Selzach"},"district":{"key":"1107","name":"Bezirk Lebern"},"canton":{"key":"11","code":"SO","name":"Solothurn"},"status":"Real"},{"key":"10181237","name":"Postweg","postalCode":"2545","locality":"Selzach","commune":{"key":"2556","name":"Selzach","shortName":"Selzach"},"district":{"key":"1107","name":"Bezirk Lebern"},"canton":{"key":"11","code":"SO","name":"Solothurn"},"status":"Real"},{"key":"10130037","name":"Rebenweg","postalCode":"2545","locality":"Selzach","commune":{"key":"2556","name":"Selzach","shortName":"Selzach"},"district":{"key":"1107","name":"Bezirk Lebern"},"canton":{"key":"11","code":"SO","name":"Solothurn"},"status":"Real"},{"key":"10175689","name":"Riedweg","postalCode":"2545","locality":"Selzach","commune":{"key":"2556","name":"Selzach","shortName":"Selzach"},"district":{"key":"1107","name":"Bezirk Lebern"},"canton":{"key":"11","code":"SO","name":"Solothurn"},"status":"Real"},{"key":"10089991","name":"Rötiweg","postalCode":"2545","locality":"Selzach","commune":{"key":"2556","name":"Selzach","shortName":"Selzach"},"district":{"key":"1107","name":"Bezirk Lebern"},"canton":{"key":"11","code":"SO","name":"Solothurn"},"status":"Real"},{"key":"10214004","name":"Rüttenenweg","postalCode":"2545","locality":"Selzach","commune":{"key":"2556","name":"Selzach","shortName":"Selzach"},"district":{"key":"1107","name":"Bezirk Lebern"},"canton":{"key":"11","code":"SO","name":"Solothurn"},"status":"Real"},{"key":"10196574","name":"Sägeweg","postalCode":"2545","locality":"Selzach","commune":{"key":"2556","name":"Selzach","shortName":"Selzach"},"district":{"key":"1107","name":"Bezirk Lebern"},"canton":{"key":"11","code":"SO","name":"Solothurn"},"status":"Real"},{"key":"10099208","name":"Schänzlistrasse","postalCode":"2545","locality":"Selzach","commune":{"key":"2556","name":"Selzach","shortName":"Selzach"},"district":{"key":"1107","name":"Bezirk Lebern"},"canton":{"key":"11","code":"SO","name":"Solothurn"},"status":"Real"},{"key":"10024254","name":"Schauenburg","postalCode":"2545","locality":"Selzach","commune":{"key":"2556","name":"Selzach","shortName":"Selzach"},"district":{"key":"1107","name":"Bezirk Lebern"},"canton":{"key":"11","code":"SO","name":"Solothurn"},"status":"Real"},{"key":"10065839","name":"Schulhausstrasse","postalCode":"2545","locality":"Selzach","commune":{"key":"2556","name":"Selzach","shortName":"Selzach"},"district":{"key":"1107","name":"Bezirk Lebern"},"canton":{"key":"11","code":"SO","name":"Solothurn"},"status":"Real"},{"key":"10214008","name":"Schwelli","postalCode":"2545","locality":"Selzach","commune":{"key":"2556","name":"Selzach","shortName":"Selzach"},"district":{"key":"1107","name":"Bezirk Lebern"},"canton":{"key":"11","code":"SO","name":"Solothurn"},"status":"Real"},{"key":"10024255","name":"Schwendi","postalCode":"2545","locality":"Selzach","commune":{"key":"2556","name":"Selzach","shortName":"Selzach"},"district":{"key":"1107","name":"Bezirk Lebern"},"canton":{"key":"11","code":"SO","name":"Solothurn"},"status":"Real"},{"key":"10024256","name":"Selzacherstrasse","postalCode":"2545","locality":"Selzach","commune":{"key":"2556","name":"Selzach","shortName":"Selzach"},"district":{"key":"1107","name":"Bezirk Lebern"},"canton":{"key":"11","code":"SO","name":"Solothurn"},"status":"Real"},{"key":"10065840","name":"Seusethof","postalCode":"2545","locality":"Selzach","commune":{"key":"2556","name":"Selzach","shortName":"Selzach"},"district":{"key":"1107","name":"Bezirk Lebern"},"canton":{"key":"11","code":"SO","name":"Solothurn"},"status":"Real"},{"key":"10144930","name":"Seusetweg","postalCode":"2545","locality":"Selzach","commune":{"key":"2556","name":"Selzach","shortName":"Selzach"},"district":{"key":"1107","name":"Bezirk Lebern"},"canton":{"key":"11","code":"SO","name":"Solothurn"},"status":"Real"},{"key":"10214013","name":"Simbelmattweg","postalCode":"2545","locality":"Selzach","commune":{"key":"2556","name":"Selzach","shortName":"Selzach"},"district":{"key":"1107","name":"Bezirk Lebern"},"canton":{"key":"11","code":"SO","name":"Solothurn"},"status":"Real"},{"key":"10120511","name":"Solothurnstrasse","postalCode":"2545","locality":"Selzach","commune":{"key":"2556","name":"Selzach","shortName":"Selzach"},"district":{"key":"1107","name":"Bezirk Lebern"},"canton":{"key":"11","code":"SO","name":"Solothurn"},"status":"Real"},{"key":"10181878","name":"Späretweg","postalCode":"2545","locality":"Selzach","commune":{"key":"2556","name":"Selzach","shortName":"Selzach"},"district":{"key":"1107","name":"Bezirk Lebern"},"canton":{"key":"11","code":"SO","name":"Solothurn"},"status":"Real"},{"key":"10089992","name":"Spielhofweg","postalCode":"2545","locality":"Selzach","commune":{"key":"2556","name":"Selzach","shortName":"Selzach"},"district":{"key":"1107","name":"Bezirk Lebern"},"canton":{"key":"11","code":"SO","name":"Solothurn"},"status":"Real"},{"key":"10214015","name":"Stallberg","postalCode":"2545","locality":"Selzach","commune":{"key":"2556","name":"Selzach","shortName":"Selzach"},"district":{"key":"1107","name":"Bezirk Lebern"},"canton":{"key":"11","code":"SO","name":"Solothurn"},"status":"Real"},{"key":"10065841","name":"Steinackerweg","postalCode":"2545","locality":"Selzach","commune":{"key":"2556","name":"Selzach","shortName":"Selzach"},"district":{"key":"1107","name":"Bezirk Lebern"},"canton":{"key":"11","code":"SO","name":"Solothurn"},"status":"Real"},{"key":"10024258","name":"Sülshof","postalCode":"2545","locality":"Selzach","commune":{"key":"2556","name":"Selzach","shortName":"Selzach"},"district":{"key":"1107","name":"Bezirk Lebern"},"canton":{"key":"11","code":"SO","name":"Solothurn"},"status":"Real"},{"key":"10214020","name":"Sülsrain","postalCode":"2545","locality":"Selzach","commune":{"key":"2556","name":"Selzach","shortName":"Selzach"},"district":{"key":"1107","name":"Bezirk Lebern"},"canton":{"key":"11","code":"SO","name":"Solothurn"},"status":"Real"},{"key":"10214024","name":"Tannenweg","postalCode":"2545","locality":"Selzach","commune":{"key":"2556","name":"Selzach","shortName":"Selzach"},"district":{"key":"1107","name":"Bezirk Lebern"},"canton":{"key":"11","code":"SO","name":"Solothurn"},"status":"Real"},{"key":"10024259","name":"Türlihubelweg","postalCode":"2545","locality":"Selzach","commune":{"key":"2556","name":"Selzach","shortName":"Selzach"},"district":{"key":"1107","name":"Bezirk Lebern"},"canton":{"key":"11","code":"SO","name":"Solothurn"},"status":"Real"},{"key":"10089993","name":"Turnerweg","postalCode":"2545","locality":"Selzach","commune":{"key":"2556","name":"Selzach","shortName":"Selzach"},"district":{"key":"1107","name":"Bezirk Lebern"},"canton":{"key":"11","code":"SO","name":"Solothurn"},"status":"Real"},{"key":"10214028","name":"Untere Grabmatt","postalCode":"2545","locality":"Selzach","commune":{"key":"2556","name":"Selzach","shortName":"Selzach"},"district":{"key":"1107","name":"Bezirk Lebern"},"canton":{"key":"11","code":"SO","name":"Solothurn"},"status":"Real"},{"key":"10024260","name":"Unteres Brüggli","postalCode":"2545","locality":"Selzach","commune":{"key":"2556","name":"Selzach","shortName":"Selzach"},"district":{"key":"1107","name":"Bezirk Lebern"},"canton":{"key":"11","code":"SO","name":"Solothurn"},"status":"Real"},{"key":"10214031","name":"Vogtsrüti","postalCode":"2545","locality":"Selzach","commune":{"key":"2556","name":"Selzach","shortName":"Selzach"},"district":{"key":"1107","name":"Bezirk Lebern"},"canton":{"key":"11","code":"SO","name":"Solothurn"},"status":"Real"},{"key":"10214037","name":"Weiher","postalCode":"2545","locality":"Selzach","commune":{"key":"2556","name":"Selzach","shortName":"Selzach"},"district":{"key":"1107","name":"Bezirk Lebern"},"canton":{"key":"11","code":"SO","name":"Solothurn"},"status":"Real"},{"key":"10065842","name":"Weingartenweg","postalCode":"2545","locality":"Selzach","commune":{"key":"2556","name":"Selzach","shortName":"Selzach"},"district":{"key":"1107","name":"Bezirk Lebern"},"canton":{"key":"11","code":"SO","name":"Solothurn"},"status":"Real"},{"key":"10089994","name":"Weissensteinweg","postalCode":"2545","locality":"Selzach","commune":{"key":"2556","name":"Selzach","shortName":"Selzach"},"district":{"key":"1107","name":"Bezirk Lebern"},"canton":{"key":"11","code":"SO","name":"Solothurn"},"status":"Real"},{"key":"10214042","name":"Westlicher Weiher","postalCode":"2545","locality":"Selzach","commune":{"key":"2556","name":"Selzach","shortName":"Selzach"},"district":{"key":"1107","name":"Bezirk Lebern"},"canton":{"key":"11","code":"SO","name":"Solothurn"},"status":"Real"},{"key":"10214046","name":"Witi","postalCode":"2545","locality":"Selzach","commune":{"key":"2556","name":"Selzach","shortName":"Selzach"},"district":{"key":"1107","name":"Bezirk Lebern"},"canton":{"key":"11","code":"SO","name":"Solothurn"},"status":"Real"},{"key":"10054875","name":"Witihof","postalCode":"2545","locality":"Selzach","commune":{"key":"2556","name":"Selzach","shortName":"Selzach"},"district":{"key":"1107","name":"Bezirk Lebern"},"canton":{"key":"11","code":"SO","name":"Solothurn"},"status":"Real"},{"key":"10024261","name":"Zelgliweg","postalCode":"2545","locality":"Selzach","commune":{"key":"2556","name":"Selzach","shortName":"Selzach"},"district":{"key":"1107","name":"Bezirk Lebern"},"canton":{"key":"11","code":"SO","name":"Solothurn"},"status":"Real"},{"key":"10111379","name":"Zilmattweg","postalCode":"2545","locality":"Selzach","commune":{"key":"2556","name":"Selzach","shortName":"Selzach"},"district":{"key":"1107","name":"Bezirk Lebern"},"canton":{"key":"11","code":"SO","name":"Solothurn"},"status":"Real"},{"key":"10065843","name":"Zilweg","postalCode":"2545","locality":"Selzach","commune":{"key":"2556","name":"Selzach","shortName":"Selzach"},"district":{"key":"1107","name":"Bezirk Lebern"},"canton":{"key":"11","code":"SO","name":"Solothurn"},"status":"Real"},]