[{"name":"Ackerstr.","postalCode":"92699","locality":"Irchenrieth","municipality":{"key":"09374127","name":"Irchenrieth","type":"Kreisangehörige_Gemeinde"},"district":{"key":"09374","name":"Neustadt a.d.Waldnaab","type":"Landkreis"},"federalState":{"key":"09","name":"Bayern"}},{"name":"Ahornweg","postalCode":"92699","locality":"Irchenrieth","municipality":{"key":"09374127","name":"Irchenrieth","type":"Kreisangehörige_Gemeinde"},"district":{"key":"09374","name":"Neustadt a.d.Waldnaab","type":"Landkreis"},"federalState":{"key":"09","name":"Bayern"}},{"name":"Am Hennenbach","postalCode":"92699","locality":"Irchenrieth","municipality":{"key":"09374127","name":"Irchenrieth","type":"Kreisangehörige_Gemeinde"},"district":{"key":"09374","name":"Neustadt a.d.Waldnaab","type":"Landkreis"},"federalState":{"key":"09","name":"Bayern"}},{"name":"Am Kleefeld","postalCode":"92699","locality":"Irchenrieth","municipality":{"key":"09374127","name":"Irchenrieth","type":"Kreisangehörige_Gemeinde"},"district":{"key":"09374","name":"Neustadt a.d.Waldnaab","type":"Landkreis"},"federalState":{"key":"09","name":"Bayern"}},{"name":"Am Losenberg","postalCode":"92699","locality":"Irchenrieth","municipality":{"key":"09374127","name":"Irchenrieth","type":"Kreisangehörige_Gemeinde"},"district":{"key":"09374","name":"Neustadt a.d.Waldnaab","type":"Landkreis"},"federalState":{"key":"09","name":"Bayern"}},{"name":"Am Mühlberg","postalCode":"92699","locality":"Irchenrieth","municipality":{"key":"09374127","name":"Irchenrieth","type":"Kreisangehörige_Gemeinde"},"district":{"key":"09374","name":"Neustadt a.d.Waldnaab","type":"Landkreis"},"federalState":{"key":"09","name":"Bayern"}},{"name":"Am Raitenbach","postalCode":"92699","locality":"Irchenrieth","municipality":{"key":"09374127","name":"Irchenrieth","type":"Kreisangehörige_Gemeinde"},"district":{"key":"09374","name":"Neustadt a.d.Waldnaab","type":"Landkreis"},"federalState":{"key":"09","name":"Bayern"}},{"name":"Am Weiher","postalCode":"92699","locality":"Irchenrieth","municipality":{"key":"09374127","name":"Irchenrieth","type":"Kreisangehörige_Gemeinde"},"district":{"key":"09374","name":"Neustadt a.d.Waldnaab","type":"Landkreis"},"federalState":{"key":"09","name":"Bayern"}},{"name":"Birkenstr.","postalCode":"92699","locality":"Irchenrieth","municipality":{"key":"09374127","name":"Irchenrieth","type":"Kreisangehörige_Gemeinde"},"district":{"key":"09374","name":"Neustadt a.d.Waldnaab","type":"Landkreis"},"federalState":{"key":"09","name":"Bayern"}},{"name":"Blasengasse","postalCode":"92699","locality":"Irchenrieth","municipality":{"key":"09374127","name":"Irchenrieth","type":"Kreisangehörige_Gemeinde"},"district":{"key":"09374","name":"Neustadt a.d.Waldnaab","type":"Landkreis"},"federalState":{"key":"09","name":"Bayern"}},{"name":"Braugasse","postalCode":"92699","locality":"Irchenrieth","municipality":{"key":"09374127","name":"Irchenrieth","type":"Kreisangehörige_Gemeinde"},"district":{"key":"09374","name":"Neustadt a.d.Waldnaab","type":"Landkreis"},"federalState":{"key":"09","name":"Bayern"}},{"name":"Buchenstr.","postalCode":"92699","locality":"Irchenrieth","municipality":{"key":"09374127","name":"Irchenrieth","type":"Kreisangehörige_Gemeinde"},"district":{"key":"09374","name":"Neustadt a.d.Waldnaab","type":"Landkreis"},"federalState":{"key":"09","name":"Bayern"}},{"name":"Dachsweg","postalCode":"92699","locality":"Irchenrieth","municipality":{"key":"09374127","name":"Irchenrieth","type":"Kreisangehörige_Gemeinde"},"district":{"key":"09374","name":"Neustadt a.d.Waldnaab","type":"Landkreis"},"federalState":{"key":"09","name":"Bayern"}},{"name":"Eichenweg","postalCode":"92699","locality":"Irchenrieth","municipality":{"key":"09374127","name":"Irchenrieth","type":"Kreisangehörige_Gemeinde"},"district":{"key":"09374","name":"Neustadt a.d.Waldnaab","type":"Landkreis"},"federalState":{"key":"09","name":"Bayern"}},{"name":"Erlenweg","postalCode":"92699","locality":"Irchenrieth","municipality":{"key":"09374127","name":"Irchenrieth","type":"Kreisangehörige_Gemeinde"},"district":{"key":"09374","name":"Neustadt a.d.Waldnaab","type":"Landkreis"},"federalState":{"key":"09","name":"Bayern"}},{"name":"Eschenweg","postalCode":"92699","locality":"Irchenrieth","municipality":{"key":"09374127","name":"Irchenrieth","type":"Kreisangehörige_Gemeinde"},"district":{"key":"09374","name":"Neustadt a.d.Waldnaab","type":"Landkreis"},"federalState":{"key":"09","name":"Bayern"}},{"name":"Fuchsenweg","postalCode":"92699","locality":"Irchenrieth","municipality":{"key":"09374127","name":"Irchenrieth","type":"Kreisangehörige_Gemeinde"},"district":{"key":"09374","name":"Neustadt a.d.Waldnaab","type":"Landkreis"},"federalState":{"key":"09","name":"Bayern"}},{"name":"Gerberstr.","postalCode":"92699","locality":"Irchenrieth","municipality":{"key":"09374127","name":"Irchenrieth","type":"Kreisangehörige_Gemeinde"},"district":{"key":"09374","name":"Neustadt a.d.Waldnaab","type":"Landkreis"},"federalState":{"key":"09","name":"Bayern"}},{"name":"Gleitsweg","postalCode":"92699","locality":"Irchenrieth","municipality":{"key":"09374127","name":"Irchenrieth","type":"Kreisangehörige_Gemeinde"},"district":{"key":"09374","name":"Neustadt a.d.Waldnaab","type":"Landkreis"},"federalState":{"key":"09","name":"Bayern"}},{"name":"Hasenweg","postalCode":"92699","locality":"Irchenrieth","municipality":{"key":"09374127","name":"Irchenrieth","type":"Kreisangehörige_Gemeinde"},"district":{"key":"09374","name":"Neustadt a.d.Waldnaab","type":"Landkreis"},"federalState":{"key":"09","name":"Bayern"}},{"name":"Hochstr.","postalCode":"92699","locality":"Irchenrieth","municipality":{"key":"09374127","name":"Irchenrieth","type":"Kreisangehörige_Gemeinde"},"district":{"key":"09374","name":"Neustadt a.d.Waldnaab","type":"Landkreis"},"federalState":{"key":"09","name":"Bayern"}},{"name":"Hofäckerstr.","postalCode":"92699","locality":"Irchenrieth","municipality":{"key":"09374127","name":"Irchenrieth","type":"Kreisangehörige_Gemeinde"},"district":{"key":"09374","name":"Neustadt a.d.Waldnaab","type":"Landkreis"},"federalState":{"key":"09","name":"Bayern"}},{"name":"Igelweg","postalCode":"92699","locality":"Irchenrieth","municipality":{"key":"09374127","name":"Irchenrieth","type":"Kreisangehörige_Gemeinde"},"district":{"key":"09374","name":"Neustadt a.d.Waldnaab","type":"Landkreis"},"federalState":{"key":"09","name":"Bayern"}},{"name":"Jägerstr.","postalCode":"92699","locality":"Irchenrieth","municipality":{"key":"09374127","name":"Irchenrieth","type":"Kreisangehörige_Gemeinde"},"district":{"key":"09374","name":"Neustadt a.d.Waldnaab","type":"Landkreis"},"federalState":{"key":"09","name":"Bayern"}},{"name":"Kaimlinger Str.","postalCode":"92699","locality":"Irchenrieth","municipality":{"key":"09374127","name":"Irchenrieth","type":"Kreisangehörige_Gemeinde"},"district":{"key":"09374","name":"Neustadt a.d.Waldnaab","type":"Landkreis"},"federalState":{"key":"09","name":"Bayern"}},{"name":"Kapellenweg","postalCode":"92699","locality":"Irchenrieth","municipality":{"key":"09374127","name":"Irchenrieth","type":"Kreisangehörige_Gemeinde"},"district":{"key":"09374","name":"Neustadt a.d.Waldnaab","type":"Landkreis"},"federalState":{"key":"09","name":"Bayern"}},{"name":"Kastanienweg","postalCode":"92699","locality":"Irchenrieth","municipality":{"key":"09374127","name":"Irchenrieth","type":"Kreisangehörige_Gemeinde"},"district":{"key":"09374","name":"Neustadt a.d.Waldnaab","type":"Landkreis"},"federalState":{"key":"09","name":"Bayern"}},{"name":"Landrat-Christian-Kreuzer-Str.","postalCode":"92699","locality":"Irchenrieth","municipality":{"key":"09374127","name":"Irchenrieth","type":"Kreisangehörige_Gemeinde"},"district":{"key":"09374","name":"Neustadt a.d.Waldnaab","type":"Landkreis"},"federalState":{"key":"09","name":"Bayern"}},{"name":"Lärchenweg","postalCode":"92699","locality":"Irchenrieth","municipality":{"key":"09374127","name":"Irchenrieth","type":"Kreisangehörige_Gemeinde"},"district":{"key":"09374","name":"Neustadt a.d.Waldnaab","type":"Landkreis"},"federalState":{"key":"09","name":"Bayern"}},{"name":"Leuchtenberger Str.","postalCode":"92699","locality":"Irchenrieth","municipality":{"key":"09374127","name":"Irchenrieth","type":"Kreisangehörige_Gemeinde"},"district":{"key":"09374","name":"Neustadt a.d.Waldnaab","type":"Landkreis"},"federalState":{"key":"09","name":"Bayern"}},{"name":"Lindenhof","postalCode":"92699","locality":"Irchenrieth","municipality":{"key":"09374127","name":"Irchenrieth","type":"Kreisangehörige_Gemeinde"},"district":{"key":"09374","name":"Neustadt a.d.Waldnaab","type":"Landkreis"},"federalState":{"key":"09","name":"Bayern"}},{"name":"Lindenstr.","postalCode":"92699","locality":"Irchenrieth","municipality":{"key":"09374127","name":"Irchenrieth","type":"Kreisangehörige_Gemeinde"},"district":{"key":"09374","name":"Neustadt a.d.Waldnaab","type":"Landkreis"},"federalState":{"key":"09","name":"Bayern"}},{"name":"Malerweg","postalCode":"92699","locality":"Irchenrieth","municipality":{"key":"09374127","name":"Irchenrieth","type":"Kreisangehörige_Gemeinde"},"district":{"key":"09374","name":"Neustadt a.d.Waldnaab","type":"Landkreis"},"federalState":{"key":"09","name":"Bayern"}},{"name":"Ringstr.","postalCode":"92699","locality":"Irchenrieth","municipality":{"key":"09374127","name":"Irchenrieth","type":"Kreisangehörige_Gemeinde"},"district":{"key":"09374","name":"Neustadt a.d.Waldnaab","type":"Landkreis"},"federalState":{"key":"09","name":"Bayern"}},{"name":"Rosenweg","postalCode":"92699","locality":"Irchenrieth","municipality":{"key":"09374127","name":"Irchenrieth","type":"Kreisangehörige_Gemeinde"},"district":{"key":"09374","name":"Neustadt a.d.Waldnaab","type":"Landkreis"},"federalState":{"key":"09","name":"Bayern"}},{"name":"Schlossergasse","postalCode":"92699","locality":"Irchenrieth","municipality":{"key":"09374127","name":"Irchenrieth","type":"Kreisangehörige_Gemeinde"},"district":{"key":"09374","name":"Neustadt a.d.Waldnaab","type":"Landkreis"},"federalState":{"key":"09","name":"Bayern"}},{"name":"Schneiderweg","postalCode":"92699","locality":"Irchenrieth","municipality":{"key":"09374127","name":"Irchenrieth","type":"Kreisangehörige_Gemeinde"},"district":{"key":"09374","name":"Neustadt a.d.Waldnaab","type":"Landkreis"},"federalState":{"key":"09","name":"Bayern"}},{"name":"Wiesenstr.","postalCode":"92699","locality":"Irchenrieth","municipality":{"key":"09374127","name":"Irchenrieth","type":"Kreisangehörige_Gemeinde"},"district":{"key":"09374","name":"Neustadt a.d.Waldnaab","type":"Landkreis"},"federalState":{"key":"09","name":"Bayern"}},]