[{"name":"Aalener Str.","postalCode":"73457","locality":"Essingen","municipality":{"key":"08136021","name":"Essingen","type":"Kreisangehörige_Gemeinde"},"district":{"key":"08136","name":"Ostalbkreis","type":"Landkreis"},"federalState":{"key":"08","name":"Baden-Württemberg"}},{"name":"Albstr.","postalCode":"73457","locality":"Essingen","municipality":{"key":"08136021","name":"Essingen","type":"Kreisangehörige_Gemeinde"},"district":{"key":"08136","name":"Ostalbkreis","type":"Landkreis"},"federalState":{"key":"08","name":"Baden-Württemberg"}},{"name":"Albuchstr.","postalCode":"73457","locality":"Essingen","municipality":{"key":"08136021","name":"Essingen","type":"Kreisangehörige_Gemeinde"},"district":{"key":"08136","name":"Ostalbkreis","type":"Landkreis"},"federalState":{"key":"08","name":"Baden-Württemberg"}},{"name":"Alemannenstr.","postalCode":"73457","locality":"Essingen","municipality":{"key":"08136021","name":"Essingen","type":"Kreisangehörige_Gemeinde"},"district":{"key":"08136","name":"Ostalbkreis","type":"Landkreis"},"federalState":{"key":"08","name":"Baden-Württemberg"}},{"name":"Altburrenstr.","postalCode":"73457","locality":"Essingen","municipality":{"key":"08136021","name":"Essingen","type":"Kreisangehörige_Gemeinde"},"district":{"key":"08136","name":"Ostalbkreis","type":"Landkreis"},"federalState":{"key":"08","name":"Baden-Württemberg"}},{"name":"Alter Heerweg","postalCode":"73457","locality":"Essingen","municipality":{"key":"08136021","name":"Essingen","type":"Kreisangehörige_Gemeinde"},"district":{"key":"08136","name":"Ostalbkreis","type":"Landkreis"},"federalState":{"key":"08","name":"Baden-Württemberg"}},{"name":"Alte Str.","postalCode":"73457","locality":"Essingen","municipality":{"key":"08136021","name":"Essingen","type":"Kreisangehörige_Gemeinde"},"district":{"key":"08136","name":"Ostalbkreis","type":"Landkreis"},"federalState":{"key":"08","name":"Baden-Württemberg"}},{"name":"Am Alten Kamp","postalCode":"49832","locality":"Messingen","municipality":{"key":"03454036","name":"Messingen","type":"Kreisangehörige_Gemeinde"},"district":{"key":"03454","name":"Emsland","type":"Landkreis"},"federalState":{"key":"03","name":"Niedersachsen"}},{"name":"Am Anger","postalCode":"99713","locality":"Freienbessingen","municipality":{"key":"16065018","name":"Freienbessingen","type":"Kreisangehörige_Gemeinde"},"district":{"key":"16065","name":"Kyffhäuserkreis","type":"Landkreis"},"federalState":{"key":"16","name":"Thüringen"}},{"name":"Am Berg","postalCode":"73457","locality":"Essingen","municipality":{"key":"08136021","name":"Essingen","type":"Kreisangehörige_Gemeinde"},"district":{"key":"08136","name":"Ostalbkreis","type":"Landkreis"},"federalState":{"key":"08","name":"Baden-Württemberg"}},{"name":"Am Daumelbach","postalCode":"73457","locality":"Essingen","municipality":{"key":"08136021","name":"Essingen","type":"Kreisangehörige_Gemeinde"},"district":{"key":"08136","name":"Ostalbkreis","type":"Landkreis"},"federalState":{"key":"08","name":"Baden-Württemberg"}},{"name":"Am Dorfanger","postalCode":"73457","locality":"Essingen","municipality":{"key":"08136021","name":"Essingen","type":"Kreisangehörige_Gemeinde"},"district":{"key":"08136","name":"Ostalbkreis","type":"Landkreis"},"federalState":{"key":"08","name":"Baden-Württemberg"}},{"name":"Am Dörrhäusle","postalCode":"73457","locality":"Essingen","municipality":{"key":"08136021","name":"Essingen","type":"Kreisangehörige_Gemeinde"},"district":{"key":"08136","name":"Ostalbkreis","type":"Landkreis"},"federalState":{"key":"08","name":"Baden-Württemberg"}},{"name":"Am Erlenbach","postalCode":"73457","locality":"Essingen","municipality":{"key":"08136021","name":"Essingen","type":"Kreisangehörige_Gemeinde"},"district":{"key":"08136","name":"Ostalbkreis","type":"Landkreis"},"federalState":{"key":"08","name":"Baden-Württemberg"}},{"name":"Am Haardtblick","postalCode":"76879","locality":"Essingen","municipality":{"key":"07337023","name":"Essingen","type":"Kreisangehörige_Gemeinde"},"district":{"key":"07337","name":"Südliche Weinstraße","type":"Landkreis"},"federalState":{"key":"07","name":"Rheinland-Pfalz"}},{"name":"Am Herzesch","postalCode":"49832","locality":"Messingen","municipality":{"key":"03454036","name":"Messingen","type":"Kreisangehörige_Gemeinde"},"district":{"key":"03454","name":"Emsland","type":"Landkreis"},"federalState":{"key":"03","name":"Niedersachsen"}},{"name":"Am Kötteringer Esch","postalCode":"49832","locality":"Messingen","municipality":{"key":"03454036","name":"Messingen","type":"Kreisangehörige_Gemeinde"},"district":{"key":"03454","name":"Emsland","type":"Landkreis"},"federalState":{"key":"03","name":"Niedersachsen"}},{"name":"Am Lehmbrink","postalCode":"49832","locality":"Messingen","municipality":{"key":"03454036","name":"Messingen","type":"Kreisangehörige_Gemeinde"},"district":{"key":"03454","name":"Emsland","type":"Landkreis"},"federalState":{"key":"03","name":"Niedersachsen"}},{"name":"Am Messinger Esch","postalCode":"49832","locality":"Messingen","municipality":{"key":"03454036","name":"Messingen","type":"Kreisangehörige_Gemeinde"},"district":{"key":"03454","name":"Emsland","type":"Landkreis"},"federalState":{"key":"03","name":"Niedersachsen"}},{"name":"Am Mühlenberg","postalCode":"54570","locality":"Hohenfels-Essingen","municipality":{"key":"07233033","name":"Hohenfels-Essingen","type":"Kreisangehörige_Gemeinde"},"district":{"key":"07233","name":"Vulkaneifel","type":"Landkreis"},"federalState":{"key":"07","name":"Rheinland-Pfalz"}},{"name":"Am Mühlenkamp","postalCode":"49832","locality":"Messingen","municipality":{"key":"03454036","name":"Messingen","type":"Kreisangehörige_Gemeinde"},"district":{"key":"03454","name":"Emsland","type":"Landkreis"},"federalState":{"key":"03","name":"Niedersachsen"}},{"name":"Am Rasen","postalCode":"99713","locality":"Abtsbessingen","municipality":{"key":"16065001","name":"Abtsbessingen","type":"Kreisangehörige_Gemeinde"},"district":{"key":"16065","name":"Kyffhäuserkreis","type":"Landkreis"},"federalState":{"key":"16","name":"Thüringen"}},{"name":"Amselweg","postalCode":"73457","locality":"Essingen","municipality":{"key":"08136021","name":"Essingen","type":"Kreisangehörige_Gemeinde"},"district":{"key":"08136","name":"Ostalbkreis","type":"Landkreis"},"federalState":{"key":"08","name":"Baden-Württemberg"}},{"name":"Am Sportplatz","postalCode":"73457","locality":"Essingen","municipality":{"key":"08136021","name":"Essingen","type":"Kreisangehörige_Gemeinde"},"district":{"key":"08136","name":"Ostalbkreis","type":"Landkreis"},"federalState":{"key":"08","name":"Baden-Württemberg"}},{"name":"Am Steinriegel","postalCode":"73457","locality":"Essingen","municipality":{"key":"08136021","name":"Essingen","type":"Kreisangehörige_Gemeinde"},"district":{"key":"08136","name":"Ostalbkreis","type":"Landkreis"},"federalState":{"key":"08","name":"Baden-Württemberg"}},{"name":"Am Turnplatz","postalCode":"76879","locality":"Essingen","municipality":{"key":"07337023","name":"Essingen","type":"Kreisangehörige_Gemeinde"},"district":{"key":"07337","name":"Südliche Weinstraße","type":"Landkreis"},"federalState":{"key":"07","name":"Rheinland-Pfalz"}},{"name":"Am Wahlend","postalCode":"54570","locality":"Hohenfels-Essingen","municipality":{"key":"07233033","name":"Hohenfels-Essingen","type":"Kreisangehörige_Gemeinde"},"district":{"key":"07233","name":"Vulkaneifel","type":"Landkreis"},"federalState":{"key":"07","name":"Rheinland-Pfalz"}},{"name":"An den Schultenhöfen","postalCode":"49832","locality":"Messingen","municipality":{"key":"03454036","name":"Messingen","type":"Kreisangehörige_Gemeinde"},"district":{"key":"03454","name":"Emsland","type":"Landkreis"},"federalState":{"key":"03","name":"Niedersachsen"}},{"name":"An der Dreihofstr.","postalCode":"76879","locality":"Essingen","municipality":{"key":"07337023","name":"Essingen","type":"Kreisangehörige_Gemeinde"},"district":{"key":"07337","name":"Südliche Weinstraße","type":"Landkreis"},"federalState":{"key":"07","name":"Rheinland-Pfalz"}},{"name":"An der Kirschhecke","postalCode":"76879","locality":"Essingen","municipality":{"key":"07337023","name":"Essingen","type":"Kreisangehörige_Gemeinde"},"district":{"key":"07337","name":"Südliche Weinstraße","type":"Landkreis"},"federalState":{"key":"07","name":"Rheinland-Pfalz"}},{"name":"Antoniusstr.","postalCode":"49832","locality":"Messingen","municipality":{"key":"03454036","name":"Messingen","type":"Kreisangehörige_Gemeinde"},"district":{"key":"03454","name":"Emsland","type":"Landkreis"},"federalState":{"key":"03","name":"Niedersachsen"}},{"name":"Auerwangstr.","postalCode":"73457","locality":"Essingen","municipality":{"key":"08136021","name":"Essingen","type":"Kreisangehörige_Gemeinde"},"district":{"key":"08136","name":"Ostalbkreis","type":"Landkreis"},"federalState":{"key":"08","name":"Baden-Württemberg"}},{"name":"Auf dem Flaage","postalCode":"49832","locality":"Messingen","municipality":{"key":"03454036","name":"Messingen","type":"Kreisangehörige_Gemeinde"},"district":{"key":"03454","name":"Emsland","type":"Landkreis"},"federalState":{"key":"03","name":"Niedersachsen"}},{"name":"Auf der Haar","postalCode":"49832","locality":"Messingen","municipality":{"key":"03454036","name":"Messingen","type":"Kreisangehörige_Gemeinde"},"district":{"key":"03454","name":"Emsland","type":"Landkreis"},"federalState":{"key":"03","name":"Niedersachsen"}},{"name":"Auf der Horst","postalCode":"49832","locality":"Messingen","municipality":{"key":"03454036","name":"Messingen","type":"Kreisangehörige_Gemeinde"},"district":{"key":"03454","name":"Emsland","type":"Landkreis"},"federalState":{"key":"03","name":"Niedersachsen"}},{"name":"Auf der Oberburg","postalCode":"73457","locality":"Essingen","municipality":{"key":"08136021","name":"Essingen","type":"Kreisangehörige_Gemeinde"},"district":{"key":"08136","name":"Ostalbkreis","type":"Landkreis"},"federalState":{"key":"08","name":"Baden-Württemberg"}},{"name":"Bachstr.","postalCode":"73457","locality":"Essingen","municipality":{"key":"08136021","name":"Essingen","type":"Kreisangehörige_Gemeinde"},"district":{"key":"08136","name":"Ostalbkreis","type":"Landkreis"},"federalState":{"key":"08","name":"Baden-Württemberg"}},{"name":"Bäckergasse","postalCode":"73457","locality":"Essingen","municipality":{"key":"08136021","name":"Essingen","type":"Kreisangehörige_Gemeinde"},"district":{"key":"08136","name":"Ostalbkreis","type":"Landkreis"},"federalState":{"key":"08","name":"Baden-Württemberg"}},{"name":"Backhausgasse","postalCode":"99713","locality":"Freienbessingen","municipality":{"key":"16065018","name":"Freienbessingen","type":"Kreisangehörige_Gemeinde"},"district":{"key":"16065","name":"Kyffhäuserkreis","type":"Landkreis"},"federalState":{"key":"16","name":"Thüringen"}},{"name":"Bahnhofstr.","postalCode":"54570","locality":"Hohenfels-Essingen","municipality":{"key":"07233033","name":"Hohenfels-Essingen","type":"Kreisangehörige_Gemeinde"},"district":{"key":"07233","name":"Vulkaneifel","type":"Landkreis"},"federalState":{"key":"07","name":"Rheinland-Pfalz"}},{"name":"Bahnhofstr.","postalCode":"73457","locality":"Essingen","municipality":{"key":"08136021","name":"Essingen","type":"Kreisangehörige_Gemeinde"},"district":{"key":"08136","name":"Ostalbkreis","type":"Landkreis"},"federalState":{"key":"08","name":"Baden-Württemberg"}},{"name":"Baindtstr.","postalCode":"73457","locality":"Essingen","municipality":{"key":"08136021","name":"Essingen","type":"Kreisangehörige_Gemeinde"},"district":{"key":"08136","name":"Ostalbkreis","type":"Landkreis"},"federalState":{"key":"08","name":"Baden-Württemberg"}},{"name":"Barbarossastr.","postalCode":"73457","locality":"Essingen","municipality":{"key":"08136021","name":"Essingen","type":"Kreisangehörige_Gemeinde"},"district":{"key":"08136","name":"Ostalbkreis","type":"Landkreis"},"federalState":{"key":"08","name":"Baden-Württemberg"}},{"name":"Bärenbergweg","postalCode":"73457","locality":"Essingen","municipality":{"key":"08136021","name":"Essingen","type":"Kreisangehörige_Gemeinde"},"district":{"key":"08136","name":"Ostalbkreis","type":"Landkreis"},"federalState":{"key":"08","name":"Baden-Württemberg"}},{"name":"Beestener Str.","postalCode":"49832","locality":"Messingen","municipality":{"key":"03454036","name":"Messingen","type":"Kreisangehörige_Gemeinde"},"district":{"key":"03454","name":"Emsland","type":"Landkreis"},"federalState":{"key":"03","name":"Niedersachsen"}},{"name":"Beethovenweg","postalCode":"73457","locality":"Essingen","municipality":{"key":"08136021","name":"Essingen","type":"Kreisangehörige_Gemeinde"},"district":{"key":"08136","name":"Ostalbkreis","type":"Landkreis"},"federalState":{"key":"08","name":"Baden-Württemberg"}},{"name":"Beim Blümle","postalCode":"73457","locality":"Essingen","municipality":{"key":"08136021","name":"Essingen","type":"Kreisangehörige_Gemeinde"},"district":{"key":"08136","name":"Ostalbkreis","type":"Landkreis"},"federalState":{"key":"08","name":"Baden-Württemberg"}},{"name":"Bellstedter Str.","postalCode":"99713","locality":"Abtsbessingen","municipality":{"key":"16065001","name":"Abtsbessingen","type":"Kreisangehörige_Gemeinde"},"district":{"key":"16065","name":"Kyffhäuserkreis","type":"Landkreis"},"federalState":{"key":"16","name":"Thüringen"}},{"name":"Bennengässel","postalCode":"76879","locality":"Essingen","municipality":{"key":"07337023","name":"Essingen","type":"Kreisangehörige_Gemeinde"},"district":{"key":"07337","name":"Südliche Weinstraße","type":"Landkreis"},"federalState":{"key":"07","name":"Rheinland-Pfalz"}},{"name":"Bergfeldstr.","postalCode":"73457","locality":"Essingen","municipality":{"key":"08136021","name":"Essingen","type":"Kreisangehörige_Gemeinde"},"district":{"key":"08136","name":"Ostalbkreis","type":"Landkreis"},"federalState":{"key":"08","name":"Baden-Württemberg"}},{"name":"Berghäuleweg","postalCode":"73457","locality":"Essingen","municipality":{"key":"08136021","name":"Essingen","type":"Kreisangehörige_Gemeinde"},"district":{"key":"08136","name":"Ostalbkreis","type":"Landkreis"},"federalState":{"key":"08","name":"Baden-Württemberg"}},{"name":"Bergstr.","postalCode":"54570","locality":"Hohenfels-Essingen","municipality":{"key":"07233033","name":"Hohenfels-Essingen","type":"Kreisangehörige_Gemeinde"},"district":{"key":"07233","name":"Vulkaneifel","type":"Landkreis"},"federalState":{"key":"07","name":"Rheinland-Pfalz"}},{"name":"Billeber Hauptstr.","postalCode":"99713","locality":"Abtsbessingen","municipality":{"key":"16065001","name":"Abtsbessingen","type":"Kreisangehörige_Gemeinde"},"district":{"key":"16065","name":"Kyffhäuserkreis","type":"Landkreis"},"federalState":{"key":"16","name":"Thüringen"}},{"name":"Billeber Str.","postalCode":"99713","locality":"Abtsbessingen","municipality":{"key":"16065001","name":"Abtsbessingen","type":"Kreisangehörige_Gemeinde"},"district":{"key":"16065","name":"Kyffhäuserkreis","type":"Landkreis"},"federalState":{"key":"16","name":"Thüringen"}},{"name":"Birkenstr.","postalCode":"76879","locality":"Essingen","municipality":{"key":"07337023","name":"Essingen","type":"Kreisangehörige_Gemeinde"},"district":{"key":"07337","name":"Südliche Weinstraße","type":"Landkreis"},"federalState":{"key":"07","name":"Rheinland-Pfalz"}},{"name":"Birnenweg","postalCode":"73457","locality":"Essingen","municipality":{"key":"08136021","name":"Essingen","type":"Kreisangehörige_Gemeinde"},"district":{"key":"08136","name":"Ostalbkreis","type":"Landkreis"},"federalState":{"key":"08","name":"Baden-Württemberg"}},{"name":"Blümleskreisel","postalCode":"73457","locality":"Essingen","municipality":{"key":"08136021","name":"Essingen","type":"Kreisangehörige_Gemeinde"},"district":{"key":"08136","name":"Ostalbkreis","type":"Landkreis"},"federalState":{"key":"08","name":"Baden-Württemberg"}},{"name":"Böhmenkircher Weg","postalCode":"73457","locality":"Essingen","municipality":{"key":"08136021","name":"Essingen","type":"Kreisangehörige_Gemeinde"},"district":{"key":"08136","name":"Ostalbkreis","type":"Landkreis"},"federalState":{"key":"08","name":"Baden-Württemberg"}},{"name":"Bohnengasse","postalCode":"73457","locality":"Essingen","municipality":{"key":"08136021","name":"Essingen","type":"Kreisangehörige_Gemeinde"},"district":{"key":"08136","name":"Ostalbkreis","type":"Landkreis"},"federalState":{"key":"08","name":"Baden-Württemberg"}},{"name":"Bokeloher Kirchweg","postalCode":"49832","locality":"Messingen","municipality":{"key":"03454036","name":"Messingen","type":"Kreisangehörige_Gemeinde"},"district":{"key":"03454","name":"Emsland","type":"Landkreis"},"federalState":{"key":"03","name":"Niedersachsen"}},{"name":"Brahmsweg","postalCode":"73457","locality":"Essingen","municipality":{"key":"08136021","name":"Essingen","type":"Kreisangehörige_Gemeinde"},"district":{"key":"08136","name":"Ostalbkreis","type":"Landkreis"},"federalState":{"key":"08","name":"Baden-Württemberg"}},{"name":"Brenztalweg","postalCode":"73457","locality":"Essingen","municipality":{"key":"08136021","name":"Essingen","type":"Kreisangehörige_Gemeinde"},"district":{"key":"08136","name":"Ostalbkreis","type":"Landkreis"},"federalState":{"key":"08","name":"Baden-Württemberg"}},{"name":"Breslauer Str.","postalCode":"73457","locality":"Essingen","municipality":{"key":"08136021","name":"Essingen","type":"Kreisangehörige_Gemeinde"},"district":{"key":"08136","name":"Ostalbkreis","type":"Landkreis"},"federalState":{"key":"08","name":"Baden-Württemberg"}},{"name":"Brookhoffweg","postalCode":"49832","locality":"Messingen","municipality":{"key":"03454036","name":"Messingen","type":"Kreisangehörige_Gemeinde"},"district":{"key":"03454","name":"Emsland","type":"Landkreis"},"federalState":{"key":"03","name":"Niedersachsen"}},{"name":"Brühlgasse","postalCode":"73457","locality":"Essingen","municipality":{"key":"08136021","name":"Essingen","type":"Kreisangehörige_Gemeinde"},"district":{"key":"08136","name":"Ostalbkreis","type":"Landkreis"},"federalState":{"key":"08","name":"Baden-Württemberg"}},{"name":"Brühlstr.","postalCode":"76879","locality":"Essingen","municipality":{"key":"07337023","name":"Essingen","type":"Kreisangehörige_Gemeinde"},"district":{"key":"07337","name":"Südliche Weinstraße","type":"Landkreis"},"federalState":{"key":"07","name":"Rheinland-Pfalz"}},{"name":"Brümseler Damm","postalCode":"49832","locality":"Messingen","municipality":{"key":"03454036","name":"Messingen","type":"Kreisangehörige_Gemeinde"},"district":{"key":"03454","name":"Emsland","type":"Landkreis"},"federalState":{"key":"03","name":"Niedersachsen"}},{"name":"Brümseler Str.","postalCode":"49832","locality":"Messingen","municipality":{"key":"03454036","name":"Messingen","type":"Kreisangehörige_Gemeinde"},"district":{"key":"03454","name":"Emsland","type":"Landkreis"},"federalState":{"key":"03","name":"Niedersachsen"}},{"name":"Brunnenstr.","postalCode":"73457","locality":"Essingen","municipality":{"key":"08136021","name":"Essingen","type":"Kreisangehörige_Gemeinde"},"district":{"key":"08136","name":"Ostalbkreis","type":"Landkreis"},"federalState":{"key":"08","name":"Baden-Württemberg"}},{"name":"Buchenweg","postalCode":"73457","locality":"Essingen","municipality":{"key":"08136021","name":"Essingen","type":"Kreisangehörige_Gemeinde"},"district":{"key":"08136","name":"Ostalbkreis","type":"Landkreis"},"federalState":{"key":"08","name":"Baden-Württemberg"}},{"name":"Bühl","postalCode":"73457","locality":"Essingen","municipality":{"key":"08136021","name":"Essingen","type":"Kreisangehörige_Gemeinde"},"district":{"key":"08136","name":"Ostalbkreis","type":"Landkreis"},"federalState":{"key":"08","name":"Baden-Württemberg"}},{"name":"Bühläcker","postalCode":"73457","locality":"Essingen","municipality":{"key":"08136021","name":"Essingen","type":"Kreisangehörige_Gemeinde"},"district":{"key":"08136","name":"Ostalbkreis","type":"Landkreis"},"federalState":{"key":"08","name":"Baden-Württemberg"}},{"name":"Bühlweg","postalCode":"73457","locality":"Essingen","municipality":{"key":"08136021","name":"Essingen","type":"Kreisangehörige_Gemeinde"},"district":{"key":"08136","name":"Ostalbkreis","type":"Landkreis"},"federalState":{"key":"08","name":"Baden-Württemberg"}},{"name":"Burgstr.","postalCode":"73457","locality":"Essingen","municipality":{"key":"08136021","name":"Essingen","type":"Kreisangehörige_Gemeinde"},"district":{"key":"08136","name":"Ostalbkreis","type":"Landkreis"},"federalState":{"key":"08","name":"Baden-Württemberg"}},{"name":"Buttenloch","postalCode":"73457","locality":"Essingen","municipality":{"key":"08136021","name":"Essingen","type":"Kreisangehörige_Gemeinde"},"district":{"key":"08136","name":"Ostalbkreis","type":"Landkreis"},"federalState":{"key":"08","name":"Baden-Württemberg"}},{"name":"Dalbergstr.","postalCode":"76879","locality":"Essingen","municipality":{"key":"07337023","name":"Essingen","type":"Kreisangehörige_Gemeinde"},"district":{"key":"07337","name":"Südliche Weinstraße","type":"Landkreis"},"federalState":{"key":"07","name":"Rheinland-Pfalz"}},{"name":"Dallhofstr.","postalCode":"49832","locality":"Messingen","municipality":{"key":"03454036","name":"Messingen","type":"Kreisangehörige_Gemeinde"},"district":{"key":"03454","name":"Emsland","type":"Landkreis"},"federalState":{"key":"03","name":"Niedersachsen"}},{"name":"der Kirschhecke","postalCode":"76879","locality":"Essingen","municipality":{"key":"07337023","name":"Essingen","type":"Kreisangehörige_Gemeinde"},"district":{"key":"07337","name":"Südliche Weinstraße","type":"Landkreis"},"federalState":{"key":"07","name":"Rheinland-Pfalz"}},{"name":"Dewanger Str.","postalCode":"73457","locality":"Essingen","municipality":{"key":"08136021","name":"Essingen","type":"Kreisangehörige_Gemeinde"},"district":{"key":"08136","name":"Ostalbkreis","type":"Landkreis"},"federalState":{"key":"08","name":"Baden-Württemberg"}},{"name":"Dickbantelstr.","postalCode":"73457","locality":"Essingen","municipality":{"key":"08136021","name":"Essingen","type":"Kreisangehörige_Gemeinde"},"district":{"key":"08136","name":"Ostalbkreis","type":"Landkreis"},"federalState":{"key":"08","name":"Baden-Württemberg"}},{"name":"Domännelweg","postalCode":"76879","locality":"Essingen","municipality":{"key":"07337023","name":"Essingen","type":"Kreisangehörige_Gemeinde"},"district":{"key":"07337","name":"Südliche Weinstraße","type":"Landkreis"},"federalState":{"key":"07","name":"Rheinland-Pfalz"}},{"name":"Dorfplatz","postalCode":"73457","locality":"Essingen","municipality":{"key":"08136021","name":"Essingen","type":"Kreisangehörige_Gemeinde"},"district":{"key":"08136","name":"Ostalbkreis","type":"Landkreis"},"federalState":{"key":"08","name":"Baden-Württemberg"}},{"name":"Drecketerweg","postalCode":"73457","locality":"Essingen","municipality":{"key":"08136021","name":"Essingen","type":"Kreisangehörige_Gemeinde"},"district":{"key":"08136","name":"Ostalbkreis","type":"Landkreis"},"federalState":{"key":"08","name":"Baden-Württemberg"}},{"name":"Dreihof","postalCode":"76879","locality":"Essingen","municipality":{"key":"07337023","name":"Essingen","type":"Kreisangehörige_Gemeinde"},"district":{"key":"07337","name":"Südliche Weinstraße","type":"Landkreis"},"federalState":{"key":"07","name":"Rheinland-Pfalz"}},{"name":"Edelmannsgasse","postalCode":"99713","locality":"Freienbessingen","municipality":{"key":"16065018","name":"Freienbessingen","type":"Kreisangehörige_Gemeinde"},"district":{"key":"16065","name":"Kyffhäuserkreis","type":"Landkreis"},"federalState":{"key":"16","name":"Thüringen"}},{"name":"Eichertstr.","postalCode":"73457","locality":"Essingen","municipality":{"key":"08136021","name":"Essingen","type":"Kreisangehörige_Gemeinde"},"district":{"key":"08136","name":"Ostalbkreis","type":"Landkreis"},"federalState":{"key":"08","name":"Baden-Württemberg"}},{"name":"Eichertweg","postalCode":"73457","locality":"Essingen","municipality":{"key":"08136021","name":"Essingen","type":"Kreisangehörige_Gemeinde"},"district":{"key":"08136","name":"Ostalbkreis","type":"Landkreis"},"federalState":{"key":"08","name":"Baden-Württemberg"}},{"name":"Eisengrubenstr.","postalCode":"73457","locality":"Essingen","municipality":{"key":"08136021","name":"Essingen","type":"Kreisangehörige_Gemeinde"},"district":{"key":"08136","name":"Ostalbkreis","type":"Landkreis"},"federalState":{"key":"08","name":"Baden-Württemberg"}},{"name":"Erlenhalde","postalCode":"73457","locality":"Essingen","municipality":{"key":"08136021","name":"Essingen","type":"Kreisangehörige_Gemeinde"},"district":{"key":"08136","name":"Ostalbkreis","type":"Landkreis"},"federalState":{"key":"08","name":"Baden-Württemberg"}},{"name":"Eselspfad","postalCode":"76879","locality":"Essingen","municipality":{"key":"07337023","name":"Essingen","type":"Kreisangehörige_Gemeinde"},"district":{"key":"07337","name":"Südliche Weinstraße","type":"Landkreis"},"federalState":{"key":"07","name":"Rheinland-Pfalz"}},{"name":"Espentalweg","postalCode":"73457","locality":"Essingen","municipality":{"key":"08136021","name":"Essingen","type":"Kreisangehörige_Gemeinde"},"district":{"key":"08136","name":"Ostalbkreis","type":"Landkreis"},"federalState":{"key":"08","name":"Baden-Württemberg"}},{"name":"Falkenbergstr.","postalCode":"73457","locality":"Essingen","municipality":{"key":"08136021","name":"Essingen","type":"Kreisangehörige_Gemeinde"},"district":{"key":"08136","name":"Ostalbkreis","type":"Landkreis"},"federalState":{"key":"08","name":"Baden-Württemberg"}},{"name":"Falltorweg","postalCode":"76879","locality":"Essingen","municipality":{"key":"07337023","name":"Essingen","type":"Kreisangehörige_Gemeinde"},"district":{"key":"07337","name":"Südliche Weinstraße","type":"Landkreis"},"federalState":{"key":"07","name":"Rheinland-Pfalz"}},{"name":"Feldstr.","postalCode":"99713","locality":"Abtsbessingen","municipality":{"key":"16065001","name":"Abtsbessingen","type":"Kreisangehörige_Gemeinde"},"district":{"key":"16065","name":"Kyffhäuserkreis","type":"Landkreis"},"federalState":{"key":"16","name":"Thüringen"}},{"name":"Felsenäcker","postalCode":"73457","locality":"Essingen","municipality":{"key":"08136021","name":"Essingen","type":"Kreisangehörige_Gemeinde"},"district":{"key":"08136","name":"Ostalbkreis","type":"Landkreis"},"federalState":{"key":"08","name":"Baden-Württemberg"}},{"name":"Fichtenstr.","postalCode":"76879","locality":"Essingen","municipality":{"key":"07337023","name":"Essingen","type":"Kreisangehörige_Gemeinde"},"district":{"key":"07337","name":"Südliche Weinstraße","type":"Landkreis"},"federalState":{"key":"07","name":"Rheinland-Pfalz"}},{"name":"Fichtestr.","postalCode":"73457","locality":"Essingen","municipality":{"key":"08136021","name":"Essingen","type":"Kreisangehörige_Gemeinde"},"district":{"key":"08136","name":"Ostalbkreis","type":"Landkreis"},"federalState":{"key":"08","name":"Baden-Württemberg"}},{"name":"Fischlinger Str.","postalCode":"76879","locality":"Essingen","municipality":{"key":"07337023","name":"Essingen","type":"Kreisangehörige_Gemeinde"},"district":{"key":"07337","name":"Südliche Weinstraße","type":"Landkreis"},"federalState":{"key":"07","name":"Rheinland-Pfalz"}},{"name":"Fliederstr.","postalCode":"73457","locality":"Essingen","municipality":{"key":"08136021","name":"Essingen","type":"Kreisangehörige_Gemeinde"},"district":{"key":"08136","name":"Ostalbkreis","type":"Landkreis"},"federalState":{"key":"08","name":"Baden-Württemberg"}},{"name":"Fohlochweg","postalCode":"73457","locality":"Essingen","municipality":{"key":"08136021","name":"Essingen","type":"Kreisangehörige_Gemeinde"},"district":{"key":"08136","name":"Ostalbkreis","type":"Landkreis"},"federalState":{"key":"08","name":"Baden-Württemberg"}},{"name":"Frankenweg","postalCode":"76879","locality":"Essingen","municipality":{"key":"07337023","name":"Essingen","type":"Kreisangehörige_Gemeinde"},"district":{"key":"07337","name":"Südliche Weinstraße","type":"Landkreis"},"federalState":{"key":"07","name":"Rheinland-Pfalz"}},{"name":"Frerener Str.","postalCode":"49832","locality":"Messingen","municipality":{"key":"03454036","name":"Messingen","type":"Kreisangehörige_Gemeinde"},"district":{"key":"03454","name":"Emsland","type":"Landkreis"},"federalState":{"key":"03","name":"Niedersachsen"}},{"name":"Friedhofstr.","postalCode":"73457","locality":"Essingen","municipality":{"key":"08136021","name":"Essingen","type":"Kreisangehörige_Gemeinde"},"district":{"key":"08136","name":"Ostalbkreis","type":"Landkreis"},"federalState":{"key":"08","name":"Baden-Württemberg"}},{"name":"Fuchswasenstr.","postalCode":"73457","locality":"Essingen","municipality":{"key":"08136021","name":"Essingen","type":"Kreisangehörige_Gemeinde"},"district":{"key":"08136","name":"Ostalbkreis","type":"Landkreis"},"federalState":{"key":"08","name":"Baden-Württemberg"}},{"name":"Galgenweg","postalCode":"73457","locality":"Essingen","municipality":{"key":"08136021","name":"Essingen","type":"Kreisangehörige_Gemeinde"},"district":{"key":"08136","name":"Ostalbkreis","type":"Landkreis"},"federalState":{"key":"08","name":"Baden-Württemberg"}},{"name":"Gänsberg","postalCode":"73457","locality":"Essingen","municipality":{"key":"08136021","name":"Essingen","type":"Kreisangehörige_Gemeinde"},"district":{"key":"08136","name":"Ostalbkreis","type":"Landkreis"},"federalState":{"key":"08","name":"Baden-Württemberg"}},{"name":"Gänsbergweg","postalCode":"73457","locality":"Essingen","municipality":{"key":"08136021","name":"Essingen","type":"Kreisangehörige_Gemeinde"},"district":{"key":"08136","name":"Ostalbkreis","type":"Landkreis"},"federalState":{"key":"08","name":"Baden-Württemberg"}},{"name":"Gartenacker","postalCode":"73457","locality":"Essingen","municipality":{"key":"08136021","name":"Essingen","type":"Kreisangehörige_Gemeinde"},"district":{"key":"08136","name":"Ostalbkreis","type":"Landkreis"},"federalState":{"key":"08","name":"Baden-Württemberg"}},{"name":"Gartenstr.","postalCode":"49832","locality":"Messingen","municipality":{"key":"03454036","name":"Messingen","type":"Kreisangehörige_Gemeinde"},"district":{"key":"03454","name":"Emsland","type":"Landkreis"},"federalState":{"key":"03","name":"Niedersachsen"}},{"name":"Gartenstr.","postalCode":"73457","locality":"Essingen","municipality":{"key":"08136021","name":"Essingen","type":"Kreisangehörige_Gemeinde"},"district":{"key":"08136","name":"Ostalbkreis","type":"Landkreis"},"federalState":{"key":"08","name":"Baden-Württemberg"}},{"name":"Gartenstr.","postalCode":"76879","locality":"Essingen","municipality":{"key":"07337023","name":"Essingen","type":"Kreisangehörige_Gemeinde"},"district":{"key":"07337","name":"Südliche Weinstraße","type":"Landkreis"},"federalState":{"key":"07","name":"Rheinland-Pfalz"}},{"name":"Geißgasse","postalCode":"73457","locality":"Essingen","municipality":{"key":"08136021","name":"Essingen","type":"Kreisangehörige_Gemeinde"},"district":{"key":"08136","name":"Ostalbkreis","type":"Landkreis"},"federalState":{"key":"08","name":"Baden-Württemberg"}},{"name":"Gerämmestr.","postalCode":"76879","locality":"Essingen","municipality":{"key":"07337023","name":"Essingen","type":"Kreisangehörige_Gemeinde"},"district":{"key":"07337","name":"Südliche Weinstraße","type":"Landkreis"},"federalState":{"key":"07","name":"Rheinland-Pfalz"}},{"name":"Gerhart-Hauptmann-Str.","postalCode":"73457","locality":"Essingen","municipality":{"key":"08136021","name":"Essingen","type":"Kreisangehörige_Gemeinde"},"district":{"key":"08136","name":"Ostalbkreis","type":"Landkreis"},"federalState":{"key":"08","name":"Baden-Württemberg"}},{"name":"Gerokweg","postalCode":"73457","locality":"Essingen","municipality":{"key":"08136021","name":"Essingen","type":"Kreisangehörige_Gemeinde"},"district":{"key":"08136","name":"Ostalbkreis","type":"Landkreis"},"federalState":{"key":"08","name":"Baden-Württemberg"}},{"name":"Gerolsteiner Str.","postalCode":"54570","locality":"Hohenfels-Essingen","municipality":{"key":"07233033","name":"Hohenfels-Essingen","type":"Kreisangehörige_Gemeinde"},"district":{"key":"07233","name":"Vulkaneifel","type":"Landkreis"},"federalState":{"key":"07","name":"Rheinland-Pfalz"}},{"name":"Ginsterweg","postalCode":"73457","locality":"Essingen","municipality":{"key":"08136021","name":"Essingen","type":"Kreisangehörige_Gemeinde"},"district":{"key":"08136","name":"Ostalbkreis","type":"Landkreis"},"federalState":{"key":"08","name":"Baden-Württemberg"}},{"name":"Goethestr.","postalCode":"73457","locality":"Essingen","municipality":{"key":"08136021","name":"Essingen","type":"Kreisangehörige_Gemeinde"},"district":{"key":"08136","name":"Ostalbkreis","type":"Landkreis"},"federalState":{"key":"08","name":"Baden-Württemberg"}},{"name":"Grenzweg","postalCode":"49832","locality":"Messingen","municipality":{"key":"03454036","name":"Messingen","type":"Kreisangehörige_Gemeinde"},"district":{"key":"03454","name":"Emsland","type":"Landkreis"},"federalState":{"key":"03","name":"Niedersachsen"}},{"name":"Grundelhalde","postalCode":"73457","locality":"Essingen","municipality":{"key":"08136021","name":"Essingen","type":"Kreisangehörige_Gemeinde"},"district":{"key":"08136","name":"Ostalbkreis","type":"Landkreis"},"federalState":{"key":"08","name":"Baden-Württemberg"}},{"name":"Hagentalweg","postalCode":"73457","locality":"Essingen","municipality":{"key":"08136021","name":"Essingen","type":"Kreisangehörige_Gemeinde"},"district":{"key":"08136","name":"Ostalbkreis","type":"Landkreis"},"federalState":{"key":"08","name":"Baden-Württemberg"}},{"name":"Hainbachstr.","postalCode":"76879","locality":"Essingen","municipality":{"key":"07337023","name":"Essingen","type":"Kreisangehörige_Gemeinde"},"district":{"key":"07337","name":"Südliche Weinstraße","type":"Landkreis"},"federalState":{"key":"07","name":"Rheinland-Pfalz"}},{"name":"Hauptstr.","postalCode":"73457","locality":"Essingen","municipality":{"key":"08136021","name":"Essingen","type":"Kreisangehörige_Gemeinde"},"district":{"key":"08136","name":"Ostalbkreis","type":"Landkreis"},"federalState":{"key":"08","name":"Baden-Württemberg"}},{"name":"Hauptstr.","postalCode":"99713","locality":"Abtsbessingen","municipality":{"key":"16065001","name":"Abtsbessingen","type":"Kreisangehörige_Gemeinde"},"district":{"key":"16065","name":"Kyffhäuserkreis","type":"Landkreis"},"federalState":{"key":"16","name":"Thüringen"}},{"name":"Hauptstr.","postalCode":"99713","locality":"Freienbessingen","municipality":{"key":"16065018","name":"Freienbessingen","type":"Kreisangehörige_Gemeinde"},"district":{"key":"16065","name":"Kyffhäuserkreis","type":"Landkreis"},"federalState":{"key":"16","name":"Thüringen"}},{"name":"Haydnweg","postalCode":"73457","locality":"Essingen","municipality":{"key":"08136021","name":"Essingen","type":"Kreisangehörige_Gemeinde"},"district":{"key":"08136","name":"Ostalbkreis","type":"Landkreis"},"federalState":{"key":"08","name":"Baden-Württemberg"}},{"name":"Heckenweg","postalCode":"73457","locality":"Essingen","municipality":{"key":"08136021","name":"Essingen","type":"Kreisangehörige_Gemeinde"},"district":{"key":"08136","name":"Ostalbkreis","type":"Landkreis"},"federalState":{"key":"08","name":"Baden-Württemberg"}},{"name":"Heerweg","postalCode":"73457","locality":"Essingen","municipality":{"key":"08136021","name":"Essingen","type":"Kreisangehörige_Gemeinde"},"district":{"key":"08136","name":"Ostalbkreis","type":"Landkreis"},"federalState":{"key":"08","name":"Baden-Württemberg"}},{"name":"Hegelstr.","postalCode":"73457","locality":"Essingen","municipality":{"key":"08136021","name":"Essingen","type":"Kreisangehörige_Gemeinde"},"district":{"key":"08136","name":"Ostalbkreis","type":"Landkreis"},"federalState":{"key":"08","name":"Baden-Württemberg"}},{"name":"Heiligenhauweg","postalCode":"73457","locality":"Essingen","municipality":{"key":"08136021","name":"Essingen","type":"Kreisangehörige_Gemeinde"},"district":{"key":"08136","name":"Ostalbkreis","type":"Landkreis"},"federalState":{"key":"08","name":"Baden-Württemberg"}},{"name":"Hellweg","postalCode":"49832","locality":"Messingen","municipality":{"key":"03454036","name":"Messingen","type":"Kreisangehörige_Gemeinde"},"district":{"key":"03454","name":"Emsland","type":"Landkreis"},"federalState":{"key":"03","name":"Niedersachsen"}},{"name":"Hermannsfeld","postalCode":"73457","locality":"Essingen","municipality":{"key":"08136021","name":"Essingen","type":"Kreisangehörige_Gemeinde"},"district":{"key":"08136","name":"Ostalbkreis","type":"Landkreis"},"federalState":{"key":"08","name":"Baden-Württemberg"}},{"name":"Herzeschweg","postalCode":"49832","locality":"Messingen","municipality":{"key":"03454036","name":"Messingen","type":"Kreisangehörige_Gemeinde"},"district":{"key":"03454","name":"Emsland","type":"Landkreis"},"federalState":{"key":"03","name":"Niedersachsen"}},{"name":"Heubacher Weg","postalCode":"73457","locality":"Essingen","municipality":{"key":"08136021","name":"Essingen","type":"Kreisangehörige_Gemeinde"},"district":{"key":"08136","name":"Ostalbkreis","type":"Landkreis"},"federalState":{"key":"08","name":"Baden-Württemberg"}},{"name":"Heugrabenstr.","postalCode":"49832","locality":"Messingen","municipality":{"key":"03454036","name":"Messingen","type":"Kreisangehörige_Gemeinde"},"district":{"key":"03454","name":"Emsland","type":"Landkreis"},"federalState":{"key":"03","name":"Niedersachsen"}},{"name":"Heuwangweg","postalCode":"73457","locality":"Essingen","municipality":{"key":"08136021","name":"Essingen","type":"Kreisangehörige_Gemeinde"},"district":{"key":"08136","name":"Ostalbkreis","type":"Landkreis"},"federalState":{"key":"08","name":"Baden-Württemberg"}},{"name":"Hinterfeld","postalCode":"73457","locality":"Essingen","municipality":{"key":"08136021","name":"Essingen","type":"Kreisangehörige_Gemeinde"},"district":{"key":"08136","name":"Ostalbkreis","type":"Landkreis"},"federalState":{"key":"08","name":"Baden-Württemberg"}},{"name":"Hirtenteichhof","postalCode":"73457","locality":"Essingen","municipality":{"key":"08136021","name":"Essingen","type":"Kreisangehörige_Gemeinde"},"district":{"key":"08136","name":"Ostalbkreis","type":"Landkreis"},"federalState":{"key":"08","name":"Baden-Württemberg"}},{"name":"Hirtenteichstr.","postalCode":"73457","locality":"Essingen","municipality":{"key":"08136021","name":"Essingen","type":"Kreisangehörige_Gemeinde"},"district":{"key":"08136","name":"Ostalbkreis","type":"Landkreis"},"federalState":{"key":"08","name":"Baden-Württemberg"}},{"name":"Hochgasse","postalCode":"73457","locality":"Essingen","municipality":{"key":"08136021","name":"Essingen","type":"Kreisangehörige_Gemeinde"},"district":{"key":"08136","name":"Ostalbkreis","type":"Landkreis"},"federalState":{"key":"08","name":"Baden-Württemberg"}},{"name":"Hochstadter Str.","postalCode":"76879","locality":"Essingen","municipality":{"key":"07337023","name":"Essingen","type":"Kreisangehörige_Gemeinde"},"district":{"key":"07337","name":"Südliche Weinstraße","type":"Landkreis"},"federalState":{"key":"07","name":"Rheinland-Pfalz"}},{"name":"Hohenroden","postalCode":"73457","locality":"Essingen","municipality":{"key":"08136021","name":"Essingen","type":"Kreisangehörige_Gemeinde"},"district":{"key":"08136","name":"Ostalbkreis","type":"Landkreis"},"federalState":{"key":"08","name":"Baden-Württemberg"}},{"name":"Hoher Weg","postalCode":"49832","locality":"Messingen","municipality":{"key":"03454036","name":"Messingen","type":"Kreisangehörige_Gemeinde"},"district":{"key":"03454","name":"Emsland","type":"Landkreis"},"federalState":{"key":"03","name":"Niedersachsen"}},{"name":"Hohe Str.","postalCode":"73457","locality":"Essingen","municipality":{"key":"08136021","name":"Essingen","type":"Kreisangehörige_Gemeinde"},"district":{"key":"08136","name":"Ostalbkreis","type":"Landkreis"},"federalState":{"key":"08","name":"Baden-Württemberg"}},{"name":"Holunderweg","postalCode":"73457","locality":"Essingen","municipality":{"key":"08136021","name":"Essingen","type":"Kreisangehörige_Gemeinde"},"district":{"key":"08136","name":"Ostalbkreis","type":"Landkreis"},"federalState":{"key":"08","name":"Baden-Württemberg"}},{"name":"Holzhauerteich","postalCode":"73457","locality":"Essingen","municipality":{"key":"08136021","name":"Essingen","type":"Kreisangehörige_Gemeinde"},"district":{"key":"08136","name":"Ostalbkreis","type":"Landkreis"},"federalState":{"key":"08","name":"Baden-Württemberg"}},{"name":"Hülbenweg","postalCode":"73457","locality":"Essingen","municipality":{"key":"08136021","name":"Essingen","type":"Kreisangehörige_Gemeinde"},"district":{"key":"08136","name":"Ostalbkreis","type":"Landkreis"},"federalState":{"key":"08","name":"Baden-Württemberg"}},{"name":"Humboldtstr.","postalCode":"73457","locality":"Essingen","municipality":{"key":"08136021","name":"Essingen","type":"Kreisangehörige_Gemeinde"},"district":{"key":"08136","name":"Ostalbkreis","type":"Landkreis"},"federalState":{"key":"08","name":"Baden-Württemberg"}},{"name":"Hundsteichstr.","postalCode":"73457","locality":"Essingen","municipality":{"key":"08136021","name":"Essingen","type":"Kreisangehörige_Gemeinde"},"district":{"key":"08136","name":"Ostalbkreis","type":"Landkreis"},"federalState":{"key":"08","name":"Baden-Württemberg"}},{"name":"Im Brunnenfeld","postalCode":"73457","locality":"Essingen","municipality":{"key":"08136021","name":"Essingen","type":"Kreisangehörige_Gemeinde"},"district":{"key":"08136","name":"Ostalbkreis","type":"Landkreis"},"federalState":{"key":"08","name":"Baden-Württemberg"}},{"name":"Im Gründle","postalCode":"73457","locality":"Essingen","municipality":{"key":"08136021","name":"Essingen","type":"Kreisangehörige_Gemeinde"},"district":{"key":"08136","name":"Ostalbkreis","type":"Landkreis"},"federalState":{"key":"08","name":"Baden-Württemberg"}},{"name":"Im Kellerfeld","postalCode":"73457","locality":"Essingen","municipality":{"key":"08136021","name":"Essingen","type":"Kreisangehörige_Gemeinde"},"district":{"key":"08136","name":"Ostalbkreis","type":"Landkreis"},"federalState":{"key":"08","name":"Baden-Württemberg"}},{"name":"Im Wahlemd","postalCode":"54570","locality":"Hohenfels-Essingen","municipality":{"key":"07233033","name":"Hohenfels-Essingen","type":"Kreisangehörige_Gemeinde"},"district":{"key":"07233","name":"Vulkaneifel","type":"Landkreis"},"federalState":{"key":"07","name":"Rheinland-Pfalz"}},{"name":"Im Weilerfeld","postalCode":"73457","locality":"Essingen","municipality":{"key":"08136021","name":"Essingen","type":"Kreisangehörige_Gemeinde"},"district":{"key":"08136","name":"Ostalbkreis","type":"Landkreis"},"federalState":{"key":"08","name":"Baden-Württemberg"}},{"name":"In den Baumgärten","postalCode":"76879","locality":"Essingen","municipality":{"key":"07337023","name":"Essingen","type":"Kreisangehörige_Gemeinde"},"district":{"key":"07337","name":"Südliche Weinstraße","type":"Landkreis"},"federalState":{"key":"07","name":"Rheinland-Pfalz"}},{"name":"In der Koßwies","postalCode":"54570","locality":"Hohenfels-Essingen","municipality":{"key":"07233033","name":"Hohenfels-Essingen","type":"Kreisangehörige_Gemeinde"},"district":{"key":"07233","name":"Vulkaneifel","type":"Landkreis"},"federalState":{"key":"07","name":"Rheinland-Pfalz"}},{"name":"Jägerstr.","postalCode":"73457","locality":"Essingen","municipality":{"key":"08136021","name":"Essingen","type":"Kreisangehörige_Gemeinde"},"district":{"key":"08136","name":"Ostalbkreis","type":"Landkreis"},"federalState":{"key":"08","name":"Baden-Württemberg"}},{"name":"Kalmitweg","postalCode":"76879","locality":"Essingen","municipality":{"key":"07337023","name":"Essingen","type":"Kreisangehörige_Gemeinde"},"district":{"key":"07337","name":"Südliche Weinstraße","type":"Landkreis"},"federalState":{"key":"07","name":"Rheinland-Pfalz"}},{"name":"Kaminfegers-Garten","postalCode":"73457","locality":"Essingen","municipality":{"key":"08136021","name":"Essingen","type":"Kreisangehörige_Gemeinde"},"district":{"key":"08136","name":"Ostalbkreis","type":"Landkreis"},"federalState":{"key":"08","name":"Baden-Württemberg"}},{"name":"Kantstr.","postalCode":"73457","locality":"Essingen","municipality":{"key":"08136021","name":"Essingen","type":"Kreisangehörige_Gemeinde"},"district":{"key":"08136","name":"Ostalbkreis","type":"Landkreis"},"federalState":{"key":"08","name":"Baden-Württemberg"}},{"name":"Kapellenweg","postalCode":"73457","locality":"Essingen","municipality":{"key":"08136021","name":"Essingen","type":"Kreisangehörige_Gemeinde"},"district":{"key":"08136","name":"Ostalbkreis","type":"Landkreis"},"federalState":{"key":"08","name":"Baden-Württemberg"}},{"name":"Kellerweg","postalCode":"73457","locality":"Essingen","municipality":{"key":"08136021","name":"Essingen","type":"Kreisangehörige_Gemeinde"},"district":{"key":"08136","name":"Ostalbkreis","type":"Landkreis"},"federalState":{"key":"08","name":"Baden-Württemberg"}},{"name":"Keltenweg","postalCode":"73457","locality":"Essingen","municipality":{"key":"08136021","name":"Essingen","type":"Kreisangehörige_Gemeinde"},"district":{"key":"08136","name":"Ostalbkreis","type":"Landkreis"},"federalState":{"key":"08","name":"Baden-Württemberg"}},{"name":"Keltenweg","postalCode":"76879","locality":"Essingen","municipality":{"key":"07337023","name":"Essingen","type":"Kreisangehörige_Gemeinde"},"district":{"key":"07337","name":"Südliche Weinstraße","type":"Landkreis"},"federalState":{"key":"07","name":"Rheinland-Pfalz"}},{"name":"Kirchgasse","postalCode":"73457","locality":"Essingen","municipality":{"key":"08136021","name":"Essingen","type":"Kreisangehörige_Gemeinde"},"district":{"key":"08136","name":"Ostalbkreis","type":"Landkreis"},"federalState":{"key":"08","name":"Baden-Württemberg"}},{"name":"Kirchgasse","postalCode":"99713","locality":"Abtsbessingen","municipality":{"key":"16065001","name":"Abtsbessingen","type":"Kreisangehörige_Gemeinde"},"district":{"key":"16065","name":"Kyffhäuserkreis","type":"Landkreis"},"federalState":{"key":"16","name":"Thüringen"}},{"name":"Kirchgasse","postalCode":"99713","locality":"Freienbessingen","municipality":{"key":"16065018","name":"Freienbessingen","type":"Kreisangehörige_Gemeinde"},"district":{"key":"16065","name":"Kyffhäuserkreis","type":"Landkreis"},"federalState":{"key":"16","name":"Thüringen"}},{"name":"Kirchhofäcker","postalCode":"73457","locality":"Essingen","municipality":{"key":"08136021","name":"Essingen","type":"Kreisangehörige_Gemeinde"},"district":{"key":"08136","name":"Ostalbkreis","type":"Landkreis"},"federalState":{"key":"08","name":"Baden-Württemberg"}},{"name":"Kirchstr.","postalCode":"76879","locality":"Essingen","municipality":{"key":"07337023","name":"Essingen","type":"Kreisangehörige_Gemeinde"},"district":{"key":"07337","name":"Südliche Weinstraße","type":"Landkreis"},"federalState":{"key":"07","name":"Rheinland-Pfalz"}},{"name":"Kirschenweg","postalCode":"73457","locality":"Essingen","municipality":{"key":"08136021","name":"Essingen","type":"Kreisangehörige_Gemeinde"},"district":{"key":"08136","name":"Ostalbkreis","type":"Landkreis"},"federalState":{"key":"08","name":"Baden-Württemberg"}},{"name":"Kolbenbergstr.","postalCode":"73457","locality":"Essingen","municipality":{"key":"08136021","name":"Essingen","type":"Kreisangehörige_Gemeinde"},"district":{"key":"08136","name":"Ostalbkreis","type":"Landkreis"},"federalState":{"key":"08","name":"Baden-Württemberg"}},{"name":"Kolpingstr.","postalCode":"49832","locality":"Messingen","municipality":{"key":"03454036","name":"Messingen","type":"Kreisangehörige_Gemeinde"},"district":{"key":"03454","name":"Emsland","type":"Landkreis"},"federalState":{"key":"03","name":"Niedersachsen"}},{"name":"Königssträßchen","postalCode":"73457","locality":"Essingen","municipality":{"key":"08136021","name":"Essingen","type":"Kreisangehörige_Gemeinde"},"district":{"key":"08136","name":"Ostalbkreis","type":"Landkreis"},"federalState":{"key":"08","name":"Baden-Württemberg"}},{"name":"Köpflesweg","postalCode":"73457","locality":"Essingen","municipality":{"key":"08136021","name":"Essingen","type":"Kreisangehörige_Gemeinde"},"district":{"key":"08136","name":"Ostalbkreis","type":"Landkreis"},"federalState":{"key":"08","name":"Baden-Württemberg"}},{"name":"Kötteringer Str.","postalCode":"49832","locality":"Messingen","municipality":{"key":"03454036","name":"Messingen","type":"Kreisangehörige_Gemeinde"},"district":{"key":"03454","name":"Emsland","type":"Landkreis"},"federalState":{"key":"03","name":"Niedersachsen"}},{"name":"Kreuzgasse","postalCode":"99713","locality":"Abtsbessingen","municipality":{"key":"16065001","name":"Abtsbessingen","type":"Kreisangehörige_Gemeinde"},"district":{"key":"16065","name":"Kyffhäuserkreis","type":"Landkreis"},"federalState":{"key":"16","name":"Thüringen"}},{"name":"Kropsburgstr.","postalCode":"76879","locality":"Essingen","municipality":{"key":"07337023","name":"Essingen","type":"Kreisangehörige_Gemeinde"},"district":{"key":"07337","name":"Südliche Weinstraße","type":"Landkreis"},"federalState":{"key":"07","name":"Rheinland-Pfalz"}},{"name":"Krumme Gasse","postalCode":"99713","locality":"Freienbessingen","municipality":{"key":"16065018","name":"Freienbessingen","type":"Kreisangehörige_Gemeinde"},"district":{"key":"16065","name":"Kyffhäuserkreis","type":"Landkreis"},"federalState":{"key":"16","name":"Thüringen"}},{"name":"Kupferstr.","postalCode":"73457","locality":"Essingen","municipality":{"key":"08136021","name":"Essingen","type":"Kreisangehörige_Gemeinde"},"district":{"key":"08136","name":"Ostalbkreis","type":"Landkreis"},"federalState":{"key":"08","name":"Baden-Württemberg"}},{"name":"Lache","postalCode":"73457","locality":"Essingen","municipality":{"key":"08136021","name":"Essingen","type":"Kreisangehörige_Gemeinde"},"district":{"key":"08136","name":"Ostalbkreis","type":"Landkreis"},"federalState":{"key":"08","name":"Baden-Württemberg"}},{"name":"Landauer Platz","postalCode":"76879","locality":"Essingen","municipality":{"key":"07337023","name":"Essingen","type":"Kreisangehörige_Gemeinde"},"district":{"key":"07337","name":"Südliche Weinstraße","type":"Landkreis"},"federalState":{"key":"07","name":"Rheinland-Pfalz"}},{"name":"Landauer Str.","postalCode":"76879","locality":"Essingen","municipality":{"key":"07337023","name":"Essingen","type":"Kreisangehörige_Gemeinde"},"district":{"key":"07337","name":"Südliche Weinstraße","type":"Landkreis"},"federalState":{"key":"07","name":"Rheinland-Pfalz"}},{"name":"Langes-Teich","postalCode":"73457","locality":"Essingen","municipality":{"key":"08136021","name":"Essingen","type":"Kreisangehörige_Gemeinde"},"district":{"key":"08136","name":"Ostalbkreis","type":"Landkreis"},"federalState":{"key":"08","name":"Baden-Württemberg"}},{"name":"Laugengasse","postalCode":"73457","locality":"Essingen","municipality":{"key":"08136021","name":"Essingen","type":"Kreisangehörige_Gemeinde"},"district":{"key":"08136","name":"Ostalbkreis","type":"Landkreis"},"federalState":{"key":"08","name":"Baden-Württemberg"}},{"name":"Lauterburger Str.","postalCode":"73457","locality":"Essingen","municipality":{"key":"08136021","name":"Essingen","type":"Kreisangehörige_Gemeinde"},"district":{"key":"08136","name":"Ostalbkreis","type":"Landkreis"},"federalState":{"key":"08","name":"Baden-Württemberg"}},{"name":"Lehbach","postalCode":"73457","locality":"Essingen","municipality":{"key":"08136021","name":"Essingen","type":"Kreisangehörige_Gemeinde"},"district":{"key":"08136","name":"Ostalbkreis","type":"Landkreis"},"federalState":{"key":"08","name":"Baden-Württemberg"}},{"name":"Lessingweg","postalCode":"73457","locality":"Essingen","municipality":{"key":"08136021","name":"Essingen","type":"Kreisangehörige_Gemeinde"},"district":{"key":"08136","name":"Ostalbkreis","type":"Landkreis"},"federalState":{"key":"08","name":"Baden-Württemberg"}},{"name":"Ligusterweg","postalCode":"73457","locality":"Essingen","municipality":{"key":"08136021","name":"Essingen","type":"Kreisangehörige_Gemeinde"},"district":{"key":"08136","name":"Ostalbkreis","type":"Landkreis"},"federalState":{"key":"08","name":"Baden-Württemberg"}},{"name":"Limesstr.","postalCode":"73457","locality":"Essingen","municipality":{"key":"08136021","name":"Essingen","type":"Kreisangehörige_Gemeinde"},"district":{"key":"08136","name":"Ostalbkreis","type":"Landkreis"},"federalState":{"key":"08","name":"Baden-Württemberg"}},{"name":"Lindenplatz","postalCode":"99713","locality":"Abtsbessingen","municipality":{"key":"16065001","name":"Abtsbessingen","type":"Kreisangehörige_Gemeinde"},"district":{"key":"16065","name":"Kyffhäuserkreis","type":"Landkreis"},"federalState":{"key":"16","name":"Thüringen"}},{"name":"Lindensteige","postalCode":"73457","locality":"Essingen","municipality":{"key":"08136021","name":"Essingen","type":"Kreisangehörige_Gemeinde"},"district":{"key":"08136","name":"Ostalbkreis","type":"Landkreis"},"federalState":{"key":"08","name":"Baden-Württemberg"}},{"name":"Lindenstr.","postalCode":"99713","locality":"Abtsbessingen","municipality":{"key":"16065001","name":"Abtsbessingen","type":"Kreisangehörige_Gemeinde"},"district":{"key":"16065","name":"Kyffhäuserkreis","type":"Landkreis"},"federalState":{"key":"16","name":"Thüringen"}},{"name":"Lindenstr.","postalCode":"99713","locality":"Freienbessingen","municipality":{"key":"16065018","name":"Freienbessingen","type":"Kreisangehörige_Gemeinde"},"district":{"key":"16065","name":"Kyffhäuserkreis","type":"Landkreis"},"federalState":{"key":"16","name":"Thüringen"}},{"name":"Lingener Str.","postalCode":"49832","locality":"Messingen","municipality":{"key":"03454036","name":"Messingen","type":"Kreisangehörige_Gemeinde"},"district":{"key":"03454","name":"Emsland","type":"Landkreis"},"federalState":{"key":"03","name":"Niedersachsen"}},{"name":"Luitpoldstr.","postalCode":"76879","locality":"Essingen","municipality":{"key":"07337023","name":"Essingen","type":"Kreisangehörige_Gemeinde"},"district":{"key":"07337","name":"Südliche Weinstraße","type":"Landkreis"},"federalState":{"key":"07","name":"Rheinland-Pfalz"}},{"name":"Madenburgstr.","postalCode":"76879","locality":"Essingen","municipality":{"key":"07337023","name":"Essingen","type":"Kreisangehörige_Gemeinde"},"district":{"key":"07337","name":"Südliche Weinstraße","type":"Landkreis"},"federalState":{"key":"07","name":"Rheinland-Pfalz"}},{"name":"Magengäßle","postalCode":"73457","locality":"Essingen","municipality":{"key":"08136021","name":"Essingen","type":"Kreisangehörige_Gemeinde"},"district":{"key":"08136","name":"Ostalbkreis","type":"Landkreis"},"federalState":{"key":"08","name":"Baden-Württemberg"}},{"name":"Mantelhofstr.","postalCode":"73457","locality":"Essingen","municipality":{"key":"08136021","name":"Essingen","type":"Kreisangehörige_Gemeinde"},"district":{"key":"08136","name":"Ostalbkreis","type":"Landkreis"},"federalState":{"key":"08","name":"Baden-Württemberg"}},{"name":"Maxburgstr.","postalCode":"76879","locality":"Essingen","municipality":{"key":"07337023","name":"Essingen","type":"Kreisangehörige_Gemeinde"},"district":{"key":"07337","name":"Südliche Weinstraße","type":"Landkreis"},"federalState":{"key":"07","name":"Rheinland-Pfalz"}},{"name":"Mittelstr.","postalCode":"99713","locality":"Abtsbessingen","municipality":{"key":"16065001","name":"Abtsbessingen","type":"Kreisangehörige_Gemeinde"},"district":{"key":"16065","name":"Kyffhäuserkreis","type":"Landkreis"},"federalState":{"key":"16","name":"Thüringen"}},{"name":"Mozartweg","postalCode":"73457","locality":"Essingen","municipality":{"key":"08136021","name":"Essingen","type":"Kreisangehörige_Gemeinde"},"district":{"key":"08136","name":"Ostalbkreis","type":"Landkreis"},"federalState":{"key":"08","name":"Baden-Württemberg"}},{"name":"Mühlenweg","postalCode":"49832","locality":"Messingen","municipality":{"key":"03454036","name":"Messingen","type":"Kreisangehörige_Gemeinde"},"district":{"key":"03454","name":"Emsland","type":"Landkreis"},"federalState":{"key":"03","name":"Niedersachsen"}},{"name":"Mühlstr.","postalCode":"76879","locality":"Essingen","municipality":{"key":"07337023","name":"Essingen","type":"Kreisangehörige_Gemeinde"},"district":{"key":"07337","name":"Südliche Weinstraße","type":"Landkreis"},"federalState":{"key":"07","name":"Rheinland-Pfalz"}},{"name":"Mühlweg","postalCode":"73457","locality":"Essingen","municipality":{"key":"08136021","name":"Essingen","type":"Kreisangehörige_Gemeinde"},"district":{"key":"08136","name":"Ostalbkreis","type":"Landkreis"},"federalState":{"key":"08","name":"Baden-Württemberg"}},{"name":"Mundersumer Weg","postalCode":"49832","locality":"Messingen","municipality":{"key":"03454036","name":"Messingen","type":"Kreisangehörige_Gemeinde"},"district":{"key":"03454","name":"Emsland","type":"Landkreis"},"federalState":{"key":"03","name":"Niedersachsen"}},{"name":"Nelkenweg","postalCode":"73457","locality":"Essingen","municipality":{"key":"08136021","name":"Essingen","type":"Kreisangehörige_Gemeinde"},"district":{"key":"08136","name":"Ostalbkreis","type":"Landkreis"},"federalState":{"key":"08","name":"Baden-Württemberg"}},{"name":"Neue Dorfstr.","postalCode":"99713","locality":"Abtsbessingen","municipality":{"key":"16065001","name":"Abtsbessingen","type":"Kreisangehörige_Gemeinde"},"district":{"key":"16065","name":"Kyffhäuserkreis","type":"Landkreis"},"federalState":{"key":"16","name":"Thüringen"}},{"name":"Neugartenstr.","postalCode":"73457","locality":"Essingen","municipality":{"key":"08136021","name":"Essingen","type":"Kreisangehörige_Gemeinde"},"district":{"key":"08136","name":"Ostalbkreis","type":"Landkreis"},"federalState":{"key":"08","name":"Baden-Württemberg"}},{"name":"Oberburgstr.","postalCode":"73457","locality":"Essingen","municipality":{"key":"08136021","name":"Essingen","type":"Kreisangehörige_Gemeinde"},"district":{"key":"08136","name":"Ostalbkreis","type":"Landkreis"},"federalState":{"key":"08","name":"Baden-Württemberg"}},{"name":"Oberförster-Kirsch-Weg","postalCode":"73457","locality":"Essingen","municipality":{"key":"08136021","name":"Essingen","type":"Kreisangehörige_Gemeinde"},"district":{"key":"08136","name":"Ostalbkreis","type":"Landkreis"},"federalState":{"key":"08","name":"Baden-Württemberg"}},{"name":"Oberkolbenhof","postalCode":"73457","locality":"Essingen","municipality":{"key":"08136021","name":"Essingen","type":"Kreisangehörige_Gemeinde"},"district":{"key":"08136","name":"Ostalbkreis","type":"Landkreis"},"federalState":{"key":"08","name":"Baden-Württemberg"}},{"name":"Ochsensteinstr.","postalCode":"76879","locality":"Essingen","municipality":{"key":"07337023","name":"Essingen","type":"Kreisangehörige_Gemeinde"},"district":{"key":"07337","name":"Südliche Weinstraße","type":"Landkreis"},"federalState":{"key":"07","name":"Rheinland-Pfalz"}},{"name":"Oskar-Stübinger-Str.","postalCode":"76879","locality":"Essingen","municipality":{"key":"07337023","name":"Essingen","type":"Kreisangehörige_Gemeinde"},"district":{"key":"07337","name":"Südliche Weinstraße","type":"Landkreis"},"federalState":{"key":"07","name":"Rheinland-Pfalz"}},{"name":"Ossostr.","postalCode":"76879","locality":"Essingen","municipality":{"key":"07337023","name":"Essingen","type":"Kreisangehörige_Gemeinde"},"district":{"key":"07337","name":"Südliche Weinstraße","type":"Landkreis"},"federalState":{"key":"07","name":"Rheinland-Pfalz"}},{"name":"Osterbegrweg","postalCode":"76879","locality":"Essingen","municipality":{"key":"07337023","name":"Essingen","type":"Kreisangehörige_Gemeinde"},"district":{"key":"07337","name":"Südliche Weinstraße","type":"Landkreis"},"federalState":{"key":"07","name":"Rheinland-Pfalz"}},{"name":"Osterbergstr.","postalCode":"76879","locality":"Essingen","municipality":{"key":"07337023","name":"Essingen","type":"Kreisangehörige_Gemeinde"},"district":{"key":"07337","name":"Südliche Weinstraße","type":"Landkreis"},"federalState":{"key":"07","name":"Rheinland-Pfalz"}},{"name":"Osterbuchweg","postalCode":"73457","locality":"Essingen","municipality":{"key":"08136021","name":"Essingen","type":"Kreisangehörige_Gemeinde"},"district":{"key":"08136","name":"Ostalbkreis","type":"Landkreis"},"federalState":{"key":"08","name":"Baden-Württemberg"}},{"name":"Panoramastr.","postalCode":"73457","locality":"Essingen","municipality":{"key":"08136021","name":"Essingen","type":"Kreisangehörige_Gemeinde"},"district":{"key":"08136","name":"Ostalbkreis","type":"Landkreis"},"federalState":{"key":"08","name":"Baden-Württemberg"}},{"name":"Pestalozziweg","postalCode":"73457","locality":"Essingen","municipality":{"key":"08136021","name":"Essingen","type":"Kreisangehörige_Gemeinde"},"district":{"key":"08136","name":"Ostalbkreis","type":"Landkreis"},"federalState":{"key":"08","name":"Baden-Württemberg"}},{"name":"Pfählenweg","postalCode":"73457","locality":"Essingen","municipality":{"key":"08136021","name":"Essingen","type":"Kreisangehörige_Gemeinde"},"district":{"key":"08136","name":"Ostalbkreis","type":"Landkreis"},"federalState":{"key":"08","name":"Baden-Württemberg"}},{"name":"Pfarrecke","postalCode":"99713","locality":"Freienbessingen","municipality":{"key":"16065018","name":"Freienbessingen","type":"Kreisangehörige_Gemeinde"},"district":{"key":"16065","name":"Kyffhäuserkreis","type":"Landkreis"},"federalState":{"key":"16","name":"Thüringen"}},{"name":"Pfarrer-Baute-Str.","postalCode":"49832","locality":"Messingen","municipality":{"key":"03454036","name":"Messingen","type":"Kreisangehörige_Gemeinde"},"district":{"key":"03454","name":"Emsland","type":"Landkreis"},"federalState":{"key":"03","name":"Niedersachsen"}},{"name":"Pfarrgartenstr.","postalCode":"73457","locality":"Essingen","municipality":{"key":"08136021","name":"Essingen","type":"Kreisangehörige_Gemeinde"},"district":{"key":"08136","name":"Ostalbkreis","type":"Landkreis"},"federalState":{"key":"08","name":"Baden-Württemberg"}},{"name":"Pfirsichweg","postalCode":"73457","locality":"Essingen","municipality":{"key":"08136021","name":"Essingen","type":"Kreisangehörige_Gemeinde"},"district":{"key":"08136","name":"Ostalbkreis","type":"Landkreis"},"federalState":{"key":"08","name":"Baden-Württemberg"}},{"name":"Querstr.","postalCode":"99713","locality":"Abtsbessingen","municipality":{"key":"16065001","name":"Abtsbessingen","type":"Kreisangehörige_Gemeinde"},"district":{"key":"16065","name":"Kyffhäuserkreis","type":"Landkreis"},"federalState":{"key":"16","name":"Thüringen"}},{"name":"Raiffeisengasse","postalCode":"73457","locality":"Essingen","municipality":{"key":"08136021","name":"Essingen","type":"Kreisangehörige_Gemeinde"},"district":{"key":"08136","name":"Ostalbkreis","type":"Landkreis"},"federalState":{"key":"08","name":"Baden-Württemberg"}},{"name":"Raiffeisenstr.","postalCode":"76879","locality":"Essingen","municipality":{"key":"07337023","name":"Essingen","type":"Kreisangehörige_Gemeinde"},"district":{"key":"07337","name":"Südliche Weinstraße","type":"Landkreis"},"federalState":{"key":"07","name":"Rheinland-Pfalz"}},{"name":"Rathausgasse","postalCode":"73457","locality":"Essingen","municipality":{"key":"08136021","name":"Essingen","type":"Kreisangehörige_Gemeinde"},"district":{"key":"08136","name":"Ostalbkreis","type":"Landkreis"},"federalState":{"key":"08","name":"Baden-Württemberg"}},{"name":"Rechbergweg","postalCode":"73457","locality":"Essingen","municipality":{"key":"08136021","name":"Essingen","type":"Kreisangehörige_Gemeinde"},"district":{"key":"08136","name":"Ostalbkreis","type":"Landkreis"},"federalState":{"key":"08","name":"Baden-Württemberg"}},{"name":"Remsquellenweg","postalCode":"73457","locality":"Essingen","municipality":{"key":"08136021","name":"Essingen","type":"Kreisangehörige_Gemeinde"},"district":{"key":"08136","name":"Ostalbkreis","type":"Landkreis"},"federalState":{"key":"08","name":"Baden-Württemberg"}},{"name":"Remsstr.","postalCode":"73457","locality":"Essingen","municipality":{"key":"08136021","name":"Essingen","type":"Kreisangehörige_Gemeinde"},"district":{"key":"08136","name":"Ostalbkreis","type":"Landkreis"},"federalState":{"key":"08","name":"Baden-Württemberg"}},{"name":"Reutestr.","postalCode":"73457","locality":"Essingen","municipality":{"key":"08136021","name":"Essingen","type":"Kreisangehörige_Gemeinde"},"district":{"key":"08136","name":"Ostalbkreis","type":"Landkreis"},"federalState":{"key":"08","name":"Baden-Württemberg"}},{"name":"Riedweg","postalCode":"73457","locality":"Essingen","municipality":{"key":"08136021","name":"Essingen","type":"Kreisangehörige_Gemeinde"},"district":{"key":"08136","name":"Ostalbkreis","type":"Landkreis"},"federalState":{"key":"08","name":"Baden-Württemberg"}},{"name":"Riesengebirgsstr.","postalCode":"73457","locality":"Essingen","municipality":{"key":"08136021","name":"Essingen","type":"Kreisangehörige_Gemeinde"},"district":{"key":"08136","name":"Ostalbkreis","type":"Landkreis"},"federalState":{"key":"08","name":"Baden-Württemberg"}},{"name":"Rietburgstr.","postalCode":"76879","locality":"Essingen","municipality":{"key":"07337023","name":"Essingen","type":"Kreisangehörige_Gemeinde"},"district":{"key":"07337","name":"Südliche Weinstraße","type":"Landkreis"},"federalState":{"key":"07","name":"Rheinland-Pfalz"}},{"name":"Rittergasse","postalCode":"73457","locality":"Essingen","municipality":{"key":"08136021","name":"Essingen","type":"Kreisangehörige_Gemeinde"},"district":{"key":"08136","name":"Ostalbkreis","type":"Landkreis"},"federalState":{"key":"08","name":"Baden-Württemberg"}},{"name":"Römerstr.","postalCode":"73457","locality":"Essingen","municipality":{"key":"08136021","name":"Essingen","type":"Kreisangehörige_Gemeinde"},"district":{"key":"08136","name":"Ostalbkreis","type":"Landkreis"},"federalState":{"key":"08","name":"Baden-Württemberg"}},{"name":"Römerweg","postalCode":"76879","locality":"Essingen","municipality":{"key":"07337023","name":"Essingen","type":"Kreisangehörige_Gemeinde"},"district":{"key":"07337","name":"Südliche Weinstraße","type":"Landkreis"},"federalState":{"key":"07","name":"Rheinland-Pfalz"}},{"name":"Rosenbergstr.","postalCode":"76879","locality":"Essingen","municipality":{"key":"07337023","name":"Essingen","type":"Kreisangehörige_Gemeinde"},"district":{"key":"07337","name":"Südliche Weinstraße","type":"Landkreis"},"federalState":{"key":"07","name":"Rheinland-Pfalz"}},{"name":"Rosensteinblick","postalCode":"73457","locality":"Essingen","municipality":{"key":"08136021","name":"Essingen","type":"Kreisangehörige_Gemeinde"},"district":{"key":"08136","name":"Ostalbkreis","type":"Landkreis"},"federalState":{"key":"08","name":"Baden-Württemberg"}},{"name":"Rosenweg","postalCode":"73457","locality":"Essingen","municipality":{"key":"08136021","name":"Essingen","type":"Kreisangehörige_Gemeinde"},"district":{"key":"08136","name":"Ostalbkreis","type":"Landkreis"},"federalState":{"key":"08","name":"Baden-Württemberg"}},{"name":"Rossbergstr.","postalCode":"76879","locality":"Essingen","municipality":{"key":"07337023","name":"Essingen","type":"Kreisangehörige_Gemeinde"},"district":{"key":"07337","name":"Südliche Weinstraße","type":"Landkreis"},"federalState":{"key":"07","name":"Rheinland-Pfalz"}},{"name":"Roßstallstr.","postalCode":"73457","locality":"Essingen","municipality":{"key":"08136021","name":"Essingen","type":"Kreisangehörige_Gemeinde"},"district":{"key":"08136","name":"Ostalbkreis","type":"Landkreis"},"federalState":{"key":"08","name":"Baden-Württemberg"}},{"name":"Sackgasse","postalCode":"99713","locality":"Freienbessingen","municipality":{"key":"16065018","name":"Freienbessingen","type":"Kreisangehörige_Gemeinde"},"district":{"key":"16065","name":"Kyffhäuserkreis","type":"Landkreis"},"federalState":{"key":"16","name":"Thüringen"}},{"name":"Salamanderweg","postalCode":"73457","locality":"Essingen","municipality":{"key":"08136021","name":"Essingen","type":"Kreisangehörige_Gemeinde"},"district":{"key":"08136","name":"Ostalbkreis","type":"Landkreis"},"federalState":{"key":"08","name":"Baden-Württemberg"}},{"name":"Sallenhauringweg","postalCode":"73457","locality":"Essingen","municipality":{"key":"08136021","name":"Essingen","type":"Kreisangehörige_Gemeinde"},"district":{"key":"08136","name":"Ostalbkreis","type":"Landkreis"},"federalState":{"key":"08","name":"Baden-Württemberg"}},{"name":"Sallenhaustr.","postalCode":"73457","locality":"Essingen","municipality":{"key":"08136021","name":"Essingen","type":"Kreisangehörige_Gemeinde"},"district":{"key":"08136","name":"Ostalbkreis","type":"Landkreis"},"federalState":{"key":"08","name":"Baden-Württemberg"}},{"name":"Schafhalde","postalCode":"73457","locality":"Essingen","municipality":{"key":"08136021","name":"Essingen","type":"Kreisangehörige_Gemeinde"},"district":{"key":"08136","name":"Ostalbkreis","type":"Landkreis"},"federalState":{"key":"08","name":"Baden-Württemberg"}},{"name":"Schelhoppen","postalCode":"73457","locality":"Essingen","municipality":{"key":"08136021","name":"Essingen","type":"Kreisangehörige_Gemeinde"},"district":{"key":"08136","name":"Ostalbkreis","type":"Landkreis"},"federalState":{"key":"08","name":"Baden-Württemberg"}},{"name":"Schellenbach","postalCode":"73457","locality":"Essingen","municipality":{"key":"08136021","name":"Essingen","type":"Kreisangehörige_Gemeinde"},"district":{"key":"08136","name":"Ostalbkreis","type":"Landkreis"},"federalState":{"key":"08","name":"Baden-Württemberg"}},{"name":"Schillerstr.","postalCode":"73457","locality":"Essingen","municipality":{"key":"08136021","name":"Essingen","type":"Kreisangehörige_Gemeinde"},"district":{"key":"08136","name":"Ostalbkreis","type":"Landkreis"},"federalState":{"key":"08","name":"Baden-Württemberg"}},{"name":"Schlehenweg","postalCode":"73457","locality":"Essingen","municipality":{"key":"08136021","name":"Essingen","type":"Kreisangehörige_Gemeinde"},"district":{"key":"08136","name":"Ostalbkreis","type":"Landkreis"},"federalState":{"key":"08","name":"Baden-Württemberg"}},{"name":"Schloßgartenstr.","postalCode":"73457","locality":"Essingen","municipality":{"key":"08136021","name":"Essingen","type":"Kreisangehörige_Gemeinde"},"district":{"key":"08136","name":"Ostalbkreis","type":"Landkreis"},"federalState":{"key":"08","name":"Baden-Württemberg"}},{"name":"Schlosspark","postalCode":"73457","locality":"Essingen","municipality":{"key":"08136021","name":"Essingen","type":"Kreisangehörige_Gemeinde"},"district":{"key":"08136","name":"Ostalbkreis","type":"Landkreis"},"federalState":{"key":"08","name":"Baden-Württemberg"}},{"name":"Schloßstr.","postalCode":"76879","locality":"Essingen","municipality":{"key":"07337023","name":"Essingen","type":"Kreisangehörige_Gemeinde"},"district":{"key":"07337","name":"Südliche Weinstraße","type":"Landkreis"},"federalState":{"key":"07","name":"Rheinland-Pfalz"}},{"name":"Schnaitberg","postalCode":"73457","locality":"Essingen","municipality":{"key":"08136021","name":"Essingen","type":"Kreisangehörige_Gemeinde"},"district":{"key":"08136","name":"Ostalbkreis","type":"Landkreis"},"federalState":{"key":"08","name":"Baden-Württemberg"}},{"name":"Schradenbergstr.","postalCode":"73457","locality":"Essingen","municipality":{"key":"08136021","name":"Essingen","type":"Kreisangehörige_Gemeinde"},"district":{"key":"08136","name":"Ostalbkreis","type":"Landkreis"},"federalState":{"key":"08","name":"Baden-Württemberg"}},{"name":"Schranke","postalCode":"73457","locality":"Essingen","municipality":{"key":"08136021","name":"Essingen","type":"Kreisangehörige_Gemeinde"},"district":{"key":"08136","name":"Ostalbkreis","type":"Landkreis"},"federalState":{"key":"08","name":"Baden-Württemberg"}},{"name":"Schubartweg","postalCode":"73457","locality":"Essingen","municipality":{"key":"08136021","name":"Essingen","type":"Kreisangehörige_Gemeinde"},"district":{"key":"08136","name":"Ostalbkreis","type":"Landkreis"},"federalState":{"key":"08","name":"Baden-Württemberg"}},{"name":"Schulstr.","postalCode":"49832","locality":"Messingen","municipality":{"key":"03454036","name":"Messingen","type":"Kreisangehörige_Gemeinde"},"district":{"key":"03454","name":"Emsland","type":"Landkreis"},"federalState":{"key":"03","name":"Niedersachsen"}},{"name":"Schulstr.","postalCode":"54570","locality":"Hohenfels-Essingen","municipality":{"key":"07233033","name":"Hohenfels-Essingen","type":"Kreisangehörige_Gemeinde"},"district":{"key":"07233","name":"Vulkaneifel","type":"Landkreis"},"federalState":{"key":"07","name":"Rheinland-Pfalz"}},{"name":"Schulstr.","postalCode":"73457","locality":"Essingen","municipality":{"key":"08136021","name":"Essingen","type":"Kreisangehörige_Gemeinde"},"district":{"key":"08136","name":"Ostalbkreis","type":"Landkreis"},"federalState":{"key":"08","name":"Baden-Württemberg"}},{"name":"Schulstr.","postalCode":"76879","locality":"Essingen","municipality":{"key":"07337023","name":"Essingen","type":"Kreisangehörige_Gemeinde"},"district":{"key":"07337","name":"Südliche Weinstraße","type":"Landkreis"},"federalState":{"key":"07","name":"Rheinland-Pfalz"}},{"name":"Schulstr.","postalCode":"99713","locality":"Abtsbessingen","municipality":{"key":"16065001","name":"Abtsbessingen","type":"Kreisangehörige_Gemeinde"},"district":{"key":"16065","name":"Kyffhäuserkreis","type":"Landkreis"},"federalState":{"key":"16","name":"Thüringen"}},{"name":"Schulweg","postalCode":"73566","locality":"Essingen","municipality":{"key":"08136021","name":"Essingen","type":"Kreisangehörige_Gemeinde"},"district":{"key":"08136","name":"Ostalbkreis","type":"Landkreis"},"federalState":{"key":"08","name":"Baden-Württemberg"}},{"name":"Schüpfenstr.","postalCode":"76879","locality":"Essingen","municipality":{"key":"07337023","name":"Essingen","type":"Kreisangehörige_Gemeinde"},"district":{"key":"07337","name":"Südliche Weinstraße","type":"Landkreis"},"federalState":{"key":"07","name":"Rheinland-Pfalz"}},{"name":"Schwarzer Graben","postalCode":"49832","locality":"Messingen","municipality":{"key":"03454036","name":"Messingen","type":"Kreisangehörige_Gemeinde"},"district":{"key":"03454","name":"Emsland","type":"Landkreis"},"federalState":{"key":"03","name":"Niedersachsen"}},{"name":"Seltenbachstr.","postalCode":"73457","locality":"Essingen","municipality":{"key":"08136021","name":"Essingen","type":"Kreisangehörige_Gemeinde"},"district":{"key":"08136","name":"Ostalbkreis","type":"Landkreis"},"federalState":{"key":"08","name":"Baden-Württemberg"}},{"name":"Silcherstr.","postalCode":"73457","locality":"Essingen","municipality":{"key":"08136021","name":"Essingen","type":"Kreisangehörige_Gemeinde"},"district":{"key":"08136","name":"Ostalbkreis","type":"Landkreis"},"federalState":{"key":"08","name":"Baden-Württemberg"}},{"name":"Sixenhof","postalCode":"73563","locality":"Essingen","municipality":{"key":"08136021","name":"Essingen","type":"Kreisangehörige_Gemeinde"},"district":{"key":"08136","name":"Ostalbkreis","type":"Landkreis"},"federalState":{"key":"08","name":"Baden-Württemberg"}},{"name":"Snidelauchstr.","postalCode":"76879","locality":"Essingen","municipality":{"key":"07337023","name":"Essingen","type":"Kreisangehörige_Gemeinde"},"district":{"key":"07337","name":"Südliche Weinstraße","type":"Landkreis"},"federalState":{"key":"07","name":"Rheinland-Pfalz"}},{"name":"Sonnenbergstr.","postalCode":"76879","locality":"Essingen","municipality":{"key":"07337023","name":"Essingen","type":"Kreisangehörige_Gemeinde"},"district":{"key":"07337","name":"Südliche Weinstraße","type":"Landkreis"},"federalState":{"key":"07","name":"Rheinland-Pfalz"}},{"name":"Spanierstr.","postalCode":"76879","locality":"Essingen","municipality":{"key":"07337023","name":"Essingen","type":"Kreisangehörige_Gemeinde"},"district":{"key":"07337","name":"Südliche Weinstraße","type":"Landkreis"},"federalState":{"key":"07","name":"Rheinland-Pfalz"}},{"name":"Staufenstr.","postalCode":"73457","locality":"Essingen","municipality":{"key":"08136021","name":"Essingen","type":"Kreisangehörige_Gemeinde"},"district":{"key":"08136","name":"Ostalbkreis","type":"Landkreis"},"federalState":{"key":"08","name":"Baden-Württemberg"}},{"name":"Steige","postalCode":"73457","locality":"Essingen","municipality":{"key":"08136021","name":"Essingen","type":"Kreisangehörige_Gemeinde"},"district":{"key":"08136","name":"Ostalbkreis","type":"Landkreis"},"federalState":{"key":"08","name":"Baden-Württemberg"}},{"name":"Steinhauserstr.","postalCode":"76879","locality":"Essingen","municipality":{"key":"07337023","name":"Essingen","type":"Kreisangehörige_Gemeinde"},"district":{"key":"07337","name":"Südliche Weinstraße","type":"Landkreis"},"federalState":{"key":"07","name":"Rheinland-Pfalz"}},{"name":"St. Georg Str.","postalCode":"49832","locality":"Messingen","municipality":{"key":"03454036","name":"Messingen","type":"Kreisangehörige_Gemeinde"},"district":{"key":"03454","name":"Emsland","type":"Landkreis"},"federalState":{"key":"03","name":"Niedersachsen"}},{"name":"Stuifenweg","postalCode":"73457","locality":"Essingen","municipality":{"key":"08136021","name":"Essingen","type":"Kreisangehörige_Gemeinde"},"district":{"key":"08136","name":"Ostalbkreis","type":"Landkreis"},"federalState":{"key":"08","name":"Baden-Württemberg"}},{"name":"Südstr.","postalCode":"99713","locality":"Abtsbessingen","municipality":{"key":"16065001","name":"Abtsbessingen","type":"Kreisangehörige_Gemeinde"},"district":{"key":"16065","name":"Kyffhäuserkreis","type":"Landkreis"},"federalState":{"key":"16","name":"Thüringen"}},{"name":"Surdelweg","postalCode":"49832","locality":"Messingen","municipality":{"key":"03454036","name":"Messingen","type":"Kreisangehörige_Gemeinde"},"district":{"key":"03454","name":"Emsland","type":"Landkreis"},"federalState":{"key":"03","name":"Niedersachsen"}},{"name":"Talblick","postalCode":"73457","locality":"Essingen","municipality":{"key":"08136021","name":"Essingen","type":"Kreisangehörige_Gemeinde"},"district":{"key":"08136","name":"Ostalbkreis","type":"Landkreis"},"federalState":{"key":"08","name":"Baden-Württemberg"}},{"name":"Tauchenweilerstr.","postalCode":"73457","locality":"Essingen","municipality":{"key":"08136021","name":"Essingen","type":"Kreisangehörige_Gemeinde"},"district":{"key":"08136","name":"Ostalbkreis","type":"Landkreis"},"federalState":{"key":"08","name":"Baden-Württemberg"}},{"name":"Teichstr.","postalCode":"73457","locality":"Essingen","municipality":{"key":"08136021","name":"Essingen","type":"Kreisangehörige_Gemeinde"},"district":{"key":"08136","name":"Ostalbkreis","type":"Landkreis"},"federalState":{"key":"08","name":"Baden-Württemberg"}},{"name":"Teußenberg","postalCode":"73457","locality":"Essingen","municipality":{"key":"08136021","name":"Essingen","type":"Kreisangehörige_Gemeinde"},"district":{"key":"08136","name":"Ostalbkreis","type":"Landkreis"},"federalState":{"key":"08","name":"Baden-Württemberg"}},{"name":"Teußenbergweg","postalCode":"73457","locality":"Essingen","municipality":{"key":"08136021","name":"Essingen","type":"Kreisangehörige_Gemeinde"},"district":{"key":"08136","name":"Ostalbkreis","type":"Landkreis"},"federalState":{"key":"08","name":"Baden-Württemberg"}},{"name":"Thuiner Str.","postalCode":"49832","locality":"Messingen","municipality":{"key":"03454036","name":"Messingen","type":"Kreisangehörige_Gemeinde"},"district":{"key":"03454","name":"Emsland","type":"Landkreis"},"federalState":{"key":"03","name":"Niedersachsen"}},{"name":"Trifelsstr.","postalCode":"76879","locality":"Essingen","municipality":{"key":"07337023","name":"Essingen","type":"Kreisangehörige_Gemeinde"},"district":{"key":"07337","name":"Südliche Weinstraße","type":"Landkreis"},"federalState":{"key":"07","name":"Rheinland-Pfalz"}},{"name":"Triftweg","postalCode":"76879","locality":"Essingen","municipality":{"key":"07337023","name":"Essingen","type":"Kreisangehörige_Gemeinde"},"district":{"key":"07337","name":"Südliche Weinstraße","type":"Landkreis"},"federalState":{"key":"07","name":"Rheinland-Pfalz"}},{"name":"Tulpenweg","postalCode":"73457","locality":"Essingen","municipality":{"key":"08136021","name":"Essingen","type":"Kreisangehörige_Gemeinde"},"district":{"key":"08136","name":"Ostalbkreis","type":"Landkreis"},"federalState":{"key":"08","name":"Baden-Württemberg"}},{"name":"Unteres Dorf","postalCode":"73457","locality":"Essingen","municipality":{"key":"08136021","name":"Essingen","type":"Kreisangehörige_Gemeinde"},"district":{"key":"08136","name":"Ostalbkreis","type":"Landkreis"},"federalState":{"key":"08","name":"Baden-Württemberg"}},{"name":"Utzenbergblick","postalCode":"73457","locality":"Essingen","municipality":{"key":"08136021","name":"Essingen","type":"Kreisangehörige_Gemeinde"},"district":{"key":"08136","name":"Ostalbkreis","type":"Landkreis"},"federalState":{"key":"08","name":"Baden-Württemberg"}},{"name":"Veilchenweg","postalCode":"73457","locality":"Essingen","municipality":{"key":"08136021","name":"Essingen","type":"Kreisangehörige_Gemeinde"},"district":{"key":"08136","name":"Ostalbkreis","type":"Landkreis"},"federalState":{"key":"08","name":"Baden-Württemberg"}},{"name":"Volkmarsbergweg","postalCode":"73457","locality":"Essingen","municipality":{"key":"08136021","name":"Essingen","type":"Kreisangehörige_Gemeinde"},"district":{"key":"08136","name":"Ostalbkreis","type":"Landkreis"},"federalState":{"key":"08","name":"Baden-Württemberg"}},{"name":"Wacholderstr.","postalCode":"73457","locality":"Essingen","municipality":{"key":"08136021","name":"Essingen","type":"Kreisangehörige_Gemeinde"},"district":{"key":"08136","name":"Ostalbkreis","type":"Landkreis"},"federalState":{"key":"08","name":"Baden-Württemberg"}},{"name":"Weidengasse","postalCode":"99713","locality":"Abtsbessingen","municipality":{"key":"16065001","name":"Abtsbessingen","type":"Kreisangehörige_Gemeinde"},"district":{"key":"16065","name":"Kyffhäuserkreis","type":"Landkreis"},"federalState":{"key":"16","name":"Thüringen"}},{"name":"Weiherschlauch","postalCode":"73457","locality":"Essingen","municipality":{"key":"08136021","name":"Essingen","type":"Kreisangehörige_Gemeinde"},"district":{"key":"08136","name":"Ostalbkreis","type":"Landkreis"},"federalState":{"key":"08","name":"Baden-Württemberg"}},{"name":"Weißdornweg","postalCode":"73457","locality":"Essingen","municipality":{"key":"08136021","name":"Essingen","type":"Kreisangehörige_Gemeinde"},"district":{"key":"08136","name":"Ostalbkreis","type":"Landkreis"},"federalState":{"key":"08","name":"Baden-Württemberg"}},{"name":"Wendelinusweg","postalCode":"76879","locality":"Essingen","municipality":{"key":"07337023","name":"Essingen","type":"Kreisangehörige_Gemeinde"},"district":{"key":"07337","name":"Südliche Weinstraße","type":"Landkreis"},"federalState":{"key":"07","name":"Rheinland-Pfalz"}},{"name":"Wiesenstr.","postalCode":"73457","locality":"Essingen","municipality":{"key":"08136021","name":"Essingen","type":"Kreisangehörige_Gemeinde"},"district":{"key":"08136","name":"Ostalbkreis","type":"Landkreis"},"federalState":{"key":"08","name":"Baden-Württemberg"}},{"name":"Wiesenstr.","postalCode":"76879","locality":"Essingen","municipality":{"key":"07337023","name":"Essingen","type":"Kreisangehörige_Gemeinde"},"district":{"key":"07337","name":"Südliche Weinstraße","type":"Landkreis"},"federalState":{"key":"07","name":"Rheinland-Pfalz"}},{"name":"Wilhelm-Busch-Weg","postalCode":"73457","locality":"Essingen","municipality":{"key":"08136021","name":"Essingen","type":"Kreisangehörige_Gemeinde"},"district":{"key":"08136","name":"Ostalbkreis","type":"Landkreis"},"federalState":{"key":"08","name":"Baden-Württemberg"}},{"name":"Wollenbergstr.","postalCode":"73457","locality":"Essingen","municipality":{"key":"08136021","name":"Essingen","type":"Kreisangehörige_Gemeinde"},"district":{"key":"08136","name":"Ostalbkreis","type":"Landkreis"},"federalState":{"key":"08","name":"Baden-Württemberg"}},{"name":"Ziegelstr.","postalCode":"73457","locality":"Essingen","municipality":{"key":"08136021","name":"Essingen","type":"Kreisangehörige_Gemeinde"},"district":{"key":"08136","name":"Ostalbkreis","type":"Landkreis"},"federalState":{"key":"08","name":"Baden-Württemberg"}},{"name":"Zu den Höhen","postalCode":"54570","locality":"Hohenfels-Essingen","municipality":{"key":"07233033","name":"Hohenfels-Essingen","type":"Kreisangehörige_Gemeinde"},"district":{"key":"07233","name":"Vulkaneifel","type":"Landkreis"},"federalState":{"key":"07","name":"Rheinland-Pfalz"}},{"name":"Zum Schlößle","postalCode":"73457","locality":"Essingen","municipality":{"key":"08136021","name":"Essingen","type":"Kreisangehörige_Gemeinde"},"district":{"key":"08136","name":"Ostalbkreis","type":"Landkreis"},"federalState":{"key":"08","name":"Baden-Württemberg"}},{"name":"Zur Grotte","postalCode":"54570","locality":"Hohenfels-Essingen","municipality":{"key":"07233033","name":"Hohenfels-Essingen","type":"Kreisangehörige_Gemeinde"},"district":{"key":"07233","name":"Vulkaneifel","type":"Landkreis"},"federalState":{"key":"07","name":"Rheinland-Pfalz"}},{"name":"Zwetschgengässle","postalCode":"73457","locality":"Essingen","municipality":{"key":"08136021","name":"Essingen","type":"Kreisangehörige_Gemeinde"},"district":{"key":"08136","name":"Ostalbkreis","type":"Landkreis"},"federalState":{"key":"08","name":"Baden-Württemberg"}},{"name":"Östrich","postalCode":"99713","locality":"Abtsbessingen","municipality":{"key":"16065001","name":"Abtsbessingen","type":"Kreisangehörige_Gemeinde"},"district":{"key":"16065","name":"Kyffhäuserkreis","type":"Landkreis"},"federalState":{"key":"16","name":"Thüringen"}},]