[{"name":"Altenberger Str.","postalCode":"01809","locality":"Müglitztal","municipality":{"key":"14628250","name":"Müglitztal","type":"Kreisangehörige_Gemeinde"},"district":{"key":"14628","name":"Sächsische Schweiz-Osterzgebirge","type":"Landkreis"},"federalState":{"key":"14","name":"Sachsen"}},{"name":"Alter Kirchweg","postalCode":"01809","locality":"Müglitztal","municipality":{"key":"14628250","name":"Müglitztal","type":"Kreisangehörige_Gemeinde"},"district":{"key":"14628","name":"Sächsische Schweiz-Osterzgebirge","type":"Landkreis"},"federalState":{"key":"14","name":"Sachsen"}},{"name":"Alter Postweg","postalCode":"01809","locality":"Müglitztal","municipality":{"key":"14628250","name":"Müglitztal","type":"Kreisangehörige_Gemeinde"},"district":{"key":"14628","name":"Sächsische Schweiz-Osterzgebirge","type":"Landkreis"},"federalState":{"key":"14","name":"Sachsen"}},{"name":"Am Abendfrieden","postalCode":"01809","locality":"Müglitztal","municipality":{"key":"14628250","name":"Müglitztal","type":"Kreisangehörige_Gemeinde"},"district":{"key":"14628","name":"Sächsische Schweiz-Osterzgebirge","type":"Landkreis"},"federalState":{"key":"14","name":"Sachsen"}},{"name":"Am Kanitz","postalCode":"01809","locality":"Müglitztal","municipality":{"key":"14628250","name":"Müglitztal","type":"Kreisangehörige_Gemeinde"},"district":{"key":"14628","name":"Sächsische Schweiz-Osterzgebirge","type":"Landkreis"},"federalState":{"key":"14","name":"Sachsen"}},{"name":"Am Kirchsteig","postalCode":"01809","locality":"Müglitztal","municipality":{"key":"14628250","name":"Müglitztal","type":"Kreisangehörige_Gemeinde"},"district":{"key":"14628","name":"Sächsische Schweiz-Osterzgebirge","type":"Landkreis"},"federalState":{"key":"14","name":"Sachsen"}},{"name":"Am Sportplatz","postalCode":"01809","locality":"Müglitztal","municipality":{"key":"14628250","name":"Müglitztal","type":"Kreisangehörige_Gemeinde"},"district":{"key":"14628","name":"Sächsische Schweiz-Osterzgebirge","type":"Landkreis"},"federalState":{"key":"14","name":"Sachsen"}},{"name":"Am Steinhügel","postalCode":"01809","locality":"Müglitztal","municipality":{"key":"14628250","name":"Müglitztal","type":"Kreisangehörige_Gemeinde"},"district":{"key":"14628","name":"Sächsische Schweiz-Osterzgebirge","type":"Landkreis"},"federalState":{"key":"14","name":"Sachsen"}},{"name":"An der Naturbühne","postalCode":"01809","locality":"Müglitztal","municipality":{"key":"14628250","name":"Müglitztal","type":"Kreisangehörige_Gemeinde"},"district":{"key":"14628","name":"Sächsische Schweiz-Osterzgebirge","type":"Landkreis"},"federalState":{"key":"14","name":"Sachsen"}},{"name":"Bergstr.","postalCode":"01809","locality":"Müglitztal","municipality":{"key":"14628250","name":"Müglitztal","type":"Kreisangehörige_Gemeinde"},"district":{"key":"14628","name":"Sächsische Schweiz-Osterzgebirge","type":"Landkreis"},"federalState":{"key":"14","name":"Sachsen"}},{"name":"Burkhardswalder Str.","postalCode":"01809","locality":"Müglitztal","municipality":{"key":"14628250","name":"Müglitztal","type":"Kreisangehörige_Gemeinde"},"district":{"key":"14628","name":"Sächsische Schweiz-Osterzgebirge","type":"Landkreis"},"federalState":{"key":"14","name":"Sachsen"}},{"name":"Clara Schumann Weg","postalCode":"01809","locality":"Müglitztal","municipality":{"key":"14628250","name":"Müglitztal","type":"Kreisangehörige_Gemeinde"},"district":{"key":"14628","name":"Sächsische Schweiz-Osterzgebirge","type":"Landkreis"},"federalState":{"key":"14","name":"Sachsen"}},{"name":"Crotta","postalCode":"01809","locality":"Müglitztal","municipality":{"key":"14628250","name":"Müglitztal","type":"Kreisangehörige_Gemeinde"},"district":{"key":"14628","name":"Sächsische Schweiz-Osterzgebirge","type":"Landkreis"},"federalState":{"key":"14","name":"Sachsen"}},{"name":"Dahlienweg","postalCode":"01809","locality":"Müglitztal","municipality":{"key":"14628250","name":"Müglitztal","type":"Kreisangehörige_Gemeinde"},"district":{"key":"14628","name":"Sächsische Schweiz-Osterzgebirge","type":"Landkreis"},"federalState":{"key":"14","name":"Sachsen"}},{"name":"Dürrleitengrund","postalCode":"01809","locality":"Müglitztal","municipality":{"key":"14628250","name":"Müglitztal","type":"Kreisangehörige_Gemeinde"},"district":{"key":"14628","name":"Sächsische Schweiz-Osterzgebirge","type":"Landkreis"},"federalState":{"key":"14","name":"Sachsen"}},{"name":"Falkenhain","postalCode":"01809","locality":"Müglitztal","municipality":{"key":"14628250","name":"Müglitztal","type":"Kreisangehörige_Gemeinde"},"district":{"key":"14628","name":"Sächsische Schweiz-Osterzgebirge","type":"Landkreis"},"federalState":{"key":"14","name":"Sachsen"}},{"name":"Gartenstr.","postalCode":"01809","locality":"Müglitztal","municipality":{"key":"14628250","name":"Müglitztal","type":"Kreisangehörige_Gemeinde"},"district":{"key":"14628","name":"Sächsische Schweiz-Osterzgebirge","type":"Landkreis"},"federalState":{"key":"14","name":"Sachsen"}},{"name":"Großröhrsdorfer Weg","postalCode":"01809","locality":"Müglitztal","municipality":{"key":"14628250","name":"Müglitztal","type":"Kreisangehörige_Gemeinde"},"district":{"key":"14628","name":"Sächsische Schweiz-Osterzgebirge","type":"Landkreis"},"federalState":{"key":"14","name":"Sachsen"}},{"name":"III. Schlosshof","postalCode":"01809","locality":"Müglitztal","municipality":{"key":"14628250","name":"Müglitztal","type":"Kreisangehörige_Gemeinde"},"district":{"key":"14628","name":"Sächsische Schweiz-Osterzgebirge","type":"Landkreis"},"federalState":{"key":"14","name":"Sachsen"}},{"name":"Im Grunde","postalCode":"01809","locality":"Müglitztal","municipality":{"key":"14628250","name":"Müglitztal","type":"Kreisangehörige_Gemeinde"},"district":{"key":"14628","name":"Sächsische Schweiz-Osterzgebirge","type":"Landkreis"},"federalState":{"key":"14","name":"Sachsen"}},{"name":"I. Schlosshof","postalCode":"01809","locality":"Müglitztal","municipality":{"key":"14628250","name":"Müglitztal","type":"Kreisangehörige_Gemeinde"},"district":{"key":"14628","name":"Sächsische Schweiz-Osterzgebirge","type":"Landkreis"},"federalState":{"key":"14","name":"Sachsen"}},{"name":"Kanitzgrund","postalCode":"01809","locality":"Müglitztal","municipality":{"key":"14628250","name":"Müglitztal","type":"Kreisangehörige_Gemeinde"},"district":{"key":"14628","name":"Sächsische Schweiz-Osterzgebirge","type":"Landkreis"},"federalState":{"key":"14","name":"Sachsen"}},{"name":"Kirchsteig","postalCode":"01809","locality":"Müglitztal","municipality":{"key":"14628250","name":"Müglitztal","type":"Kreisangehörige_Gemeinde"},"district":{"key":"14628","name":"Sächsische Schweiz-Osterzgebirge","type":"Landkreis"},"federalState":{"key":"14","name":"Sachsen"}},{"name":"Liliensteinblick","postalCode":"01809","locality":"Müglitztal","municipality":{"key":"14628250","name":"Müglitztal","type":"Kreisangehörige_Gemeinde"},"district":{"key":"14628","name":"Sächsische Schweiz-Osterzgebirge","type":"Landkreis"},"federalState":{"key":"14","name":"Sachsen"}},{"name":"Maxener Str.","postalCode":"01809","locality":"Müglitztal","municipality":{"key":"14628250","name":"Müglitztal","type":"Kreisangehörige_Gemeinde"},"district":{"key":"14628","name":"Sächsische Schweiz-Osterzgebirge","type":"Landkreis"},"federalState":{"key":"14","name":"Sachsen"}},{"name":"Müglitztalstr.","postalCode":"01809","locality":"Müglitztal","municipality":{"key":"14628250","name":"Müglitztal","type":"Kreisangehörige_Gemeinde"},"district":{"key":"14628","name":"Sächsische Schweiz-Osterzgebirge","type":"Landkreis"},"federalState":{"key":"14","name":"Sachsen"}},{"name":"Mühlbacher Str.","postalCode":"01809","locality":"Müglitztal","municipality":{"key":"14628250","name":"Müglitztal","type":"Kreisangehörige_Gemeinde"},"district":{"key":"14628","name":"Sächsische Schweiz-Osterzgebirge","type":"Landkreis"},"federalState":{"key":"14","name":"Sachsen"}},{"name":"nach Maxen","postalCode":"01809","locality":"Müglitztal","municipality":{"key":"14628250","name":"Müglitztal","type":"Kreisangehörige_Gemeinde"},"district":{"key":"14628","name":"Sächsische Schweiz-Osterzgebirge","type":"Landkreis"},"federalState":{"key":"14","name":"Sachsen"}},{"name":"Neue Str.","postalCode":"01809","locality":"Müglitztal","municipality":{"key":"14628250","name":"Müglitztal","type":"Kreisangehörige_Gemeinde"},"district":{"key":"14628","name":"Sächsische Schweiz-Osterzgebirge","type":"Landkreis"},"federalState":{"key":"14","name":"Sachsen"}},{"name":"Ringweg","postalCode":"01809","locality":"Müglitztal","municipality":{"key":"14628250","name":"Müglitztal","type":"Kreisangehörige_Gemeinde"},"district":{"key":"14628","name":"Sächsische Schweiz-Osterzgebirge","type":"Landkreis"},"federalState":{"key":"14","name":"Sachsen"}},{"name":"Roter Weg","postalCode":"01809","locality":"Müglitztal","municipality":{"key":"14628250","name":"Müglitztal","type":"Kreisangehörige_Gemeinde"},"district":{"key":"14628","name":"Sächsische Schweiz-Osterzgebirge","type":"Landkreis"},"federalState":{"key":"14","name":"Sachsen"}},{"name":"Schlosspark Weesenstein","postalCode":"01809","locality":"Müglitztal","municipality":{"key":"14628250","name":"Müglitztal","type":"Kreisangehörige_Gemeinde"},"district":{"key":"14628","name":"Sächsische Schweiz-Osterzgebirge","type":"Landkreis"},"federalState":{"key":"14","name":"Sachsen"}},{"name":"Schmorsdorf","postalCode":"01809","locality":"Müglitztal","municipality":{"key":"14628250","name":"Müglitztal","type":"Kreisangehörige_Gemeinde"},"district":{"key":"14628","name":"Sächsische Schweiz-Osterzgebirge","type":"Landkreis"},"federalState":{"key":"14","name":"Sachsen"}},{"name":"Schulstr.","postalCode":"01809","locality":"Müglitztal","municipality":{"key":"14628250","name":"Müglitztal","type":"Kreisangehörige_Gemeinde"},"district":{"key":"14628","name":"Sächsische Schweiz-Osterzgebirge","type":"Landkreis"},"federalState":{"key":"14","name":"Sachsen"}},{"name":"Siedlung","postalCode":"01809","locality":"Müglitztal","municipality":{"key":"14628250","name":"Müglitztal","type":"Kreisangehörige_Gemeinde"},"district":{"key":"14628","name":"Sächsische Schweiz-Osterzgebirge","type":"Landkreis"},"federalState":{"key":"14","name":"Sachsen"}},{"name":"Sonnenblumenweg","postalCode":"01809","locality":"Müglitztal","municipality":{"key":"14628250","name":"Müglitztal","type":"Kreisangehörige_Gemeinde"},"district":{"key":"14628","name":"Sächsische Schweiz-Osterzgebirge","type":"Landkreis"},"federalState":{"key":"14","name":"Sachsen"}},{"name":"Sonnenscheinstr.","postalCode":"01809","locality":"Müglitztal","municipality":{"key":"14628250","name":"Müglitztal","type":"Kreisangehörige_Gemeinde"},"district":{"key":"14628","name":"Sächsische Schweiz-Osterzgebirge","type":"Landkreis"},"federalState":{"key":"14","name":"Sachsen"}},{"name":"Sportplatz","postalCode":"01809","locality":"Müglitztal","municipality":{"key":"14628250","name":"Müglitztal","type":"Kreisangehörige_Gemeinde"},"district":{"key":"14628","name":"Sächsische Schweiz-Osterzgebirge","type":"Landkreis"},"federalState":{"key":"14","name":"Sachsen"}},{"name":"Str. des 12. August","postalCode":"01809","locality":"Müglitztal","municipality":{"key":"14628250","name":"Müglitztal","type":"Kreisangehörige_Gemeinde"},"district":{"key":"14628","name":"Sächsische Schweiz-Osterzgebirge","type":"Landkreis"},"federalState":{"key":"14","name":"Sachsen"}},{"name":"Ziegenrücken","postalCode":"01809","locality":"Müglitztal","municipality":{"key":"14628250","name":"Müglitztal","type":"Kreisangehörige_Gemeinde"},"district":{"key":"14628","name":"Sächsische Schweiz-Osterzgebirge","type":"Landkreis"},"federalState":{"key":"14","name":"Sachsen"}},]