[{"key":"10064690","name":"Aengelgrabe","postalCode":"6106","locality":"Werthenstein","commune":{"key":"1098","name":"Ruswil","shortName":"Ruswil"},"district":{"key":"314","name":"Wahlkreis Sursee"},"canton":{"key":"3","code":"LU","name":"Luzern"},"status":"Real"},{"key":"10209035","name":"Aengelgrabestrasse","postalCode":"6106","locality":"Werthenstein","commune":{"key":"1098","name":"Ruswil","shortName":"Ruswil"},"district":{"key":"314","name":"Wahlkreis Sursee"},"canton":{"key":"3","code":"LU","name":"Luzern"},"status":"Real"},{"key":"10198491","name":"Bachweg","postalCode":"6106","locality":"Werthenstein","commune":{"key":"1098","name":"Ruswil","shortName":"Ruswil"},"district":{"key":"314","name":"Wahlkreis Sursee"},"canton":{"key":"3","code":"LU","name":"Luzern"},"status":"Real"},{"key":"10184357","name":"Bergidyll","postalCode":"6106","locality":"Werthenstein","commune":{"key":"1098","name":"Ruswil","shortName":"Ruswil"},"district":{"key":"314","name":"Wahlkreis Sursee"},"canton":{"key":"3","code":"LU","name":"Luzern"},"status":"Real"},{"key":"10196031","name":"Bernstrasse","postalCode":"6106","locality":"Werthenstein","commune":{"key":"1098","name":"Ruswil","shortName":"Ruswil"},"district":{"key":"314","name":"Wahlkreis Sursee"},"canton":{"key":"3","code":"LU","name":"Luzern"},"status":"Real"},{"key":"10178857","name":"Biel","postalCode":"6106","locality":"Werthenstein","commune":{"key":"1098","name":"Ruswil","shortName":"Ruswil"},"district":{"key":"314","name":"Wahlkreis Sursee"},"canton":{"key":"3","code":"LU","name":"Luzern"},"status":"Real"},{"key":"10053494","name":"Bielmüli","postalCode":"6106","locality":"Werthenstein","commune":{"key":"1098","name":"Ruswil","shortName":"Ruswil"},"district":{"key":"314","name":"Wahlkreis Sursee"},"canton":{"key":"3","code":"LU","name":"Luzern"},"status":"Real"},{"key":"10184355","name":"Blindei","postalCode":"6106","locality":"Werthenstein","commune":{"key":"1098","name":"Ruswil","shortName":"Ruswil"},"district":{"key":"314","name":"Wahlkreis Sursee"},"canton":{"key":"3","code":"LU","name":"Luzern"},"status":"Real"},{"key":"10209038","name":"Blindeistrasse","postalCode":"6106","locality":"Werthenstein","commune":{"key":"1098","name":"Ruswil","shortName":"Ruswil"},"district":{"key":"314","name":"Wahlkreis Sursee"},"canton":{"key":"3","code":"LU","name":"Luzern"},"status":"Real"},{"key":"10117311","name":"Boden","postalCode":"6106","locality":"Werthenstein","commune":{"key":"1098","name":"Ruswil","shortName":"Ruswil"},"district":{"key":"314","name":"Wahlkreis Sursee"},"canton":{"key":"3","code":"LU","name":"Luzern"},"status":"Real"},{"key":"10207365","name":"Breitlehn","postalCode":"6106","locality":"Werthenstein","commune":{"key":"1098","name":"Ruswil","shortName":"Ruswil"},"district":{"key":"314","name":"Wahlkreis Sursee"},"canton":{"key":"3","code":"LU","name":"Luzern"},"status":"Real"},{"key":"10209039","name":"Breitlehnstrasse","postalCode":"6106","locality":"Werthenstein","commune":{"key":"1098","name":"Ruswil","shortName":"Ruswil"},"district":{"key":"314","name":"Wahlkreis Sursee"},"canton":{"key":"3","code":"LU","name":"Luzern"},"status":"Real"},{"key":"10053495","name":"Buechhalde","postalCode":"6106","locality":"Werthenstein","commune":{"key":"1098","name":"Ruswil","shortName":"Ruswil"},"district":{"key":"314","name":"Wahlkreis Sursee"},"canton":{"key":"3","code":"LU","name":"Luzern"},"status":"Real"},{"key":"10115857","name":"Buechwäldlistrasse","postalCode":"6106","locality":"Werthenstein","commune":{"key":"1098","name":"Ruswil","shortName":"Ruswil"},"district":{"key":"314","name":"Wahlkreis Sursee"},"canton":{"key":"3","code":"LU","name":"Luzern"},"status":"Real"},{"key":"10017938","name":"Büel","postalCode":"6106","locality":"Werthenstein","commune":{"key":"1098","name":"Ruswil","shortName":"Ruswil"},"district":{"key":"314","name":"Wahlkreis Sursee"},"canton":{"key":"3","code":"LU","name":"Luzern"},"status":"Real"},{"key":"10123253","name":"Chächebüel","postalCode":"6106","locality":"Werthenstein","commune":{"key":"1098","name":"Ruswil","shortName":"Ruswil"},"district":{"key":"314","name":"Wahlkreis Sursee"},"canton":{"key":"3","code":"LU","name":"Luzern"},"status":"Real"},{"key":"10064694","name":"Chlistei","postalCode":"6106","locality":"Werthenstein","commune":{"key":"1098","name":"Ruswil","shortName":"Ruswil"},"district":{"key":"314","name":"Wahlkreis Sursee"},"canton":{"key":"3","code":"LU","name":"Luzern"},"status":"Real"},{"key":"10108083","name":"Chlösterli","postalCode":"6106","locality":"Werthenstein","commune":{"key":"1098","name":"Ruswil","shortName":"Ruswil"},"district":{"key":"314","name":"Wahlkreis Sursee"},"canton":{"key":"3","code":"LU","name":"Luzern"},"status":"Real"},{"key":"10252526","name":"Chlosterwald","postalCode":"6106","locality":"Werthenstein","commune":{"key":"1098","name":"Ruswil","shortName":"Ruswil"},"district":{"key":"314","name":"Wahlkreis Sursee"},"canton":{"key":"3","code":"LU","name":"Luzern"},"status":"Real"},{"key":"10015748","name":"Chüeweid","postalCode":"6106","locality":"Werthenstein","commune":{"key":"1098","name":"Ruswil","shortName":"Ruswil"},"district":{"key":"314","name":"Wahlkreis Sursee"},"canton":{"key":"3","code":"LU","name":"Luzern"},"status":"Real"},{"key":"10187300","name":"CKW Horüti","postalCode":"6106","locality":"Werthenstein","commune":{"key":"1098","name":"Ruswil","shortName":"Ruswil"},"district":{"key":"314","name":"Wahlkreis Sursee"},"canton":{"key":"3","code":"LU","name":"Luzern"},"status":"Real"},{"key":"10082323","name":"Dietenei","postalCode":"6106","locality":"Werthenstein","commune":{"key":"1098","name":"Ruswil","shortName":"Ruswil"},"district":{"key":"314","name":"Wahlkreis Sursee"},"canton":{"key":"3","code":"LU","name":"Luzern"},"status":"Real"},{"key":"10064689","name":"Dünnhirs","postalCode":"6106","locality":"Werthenstein","commune":{"key":"1098","name":"Ruswil","shortName":"Ruswil"},"district":{"key":"314","name":"Wahlkreis Sursee"},"canton":{"key":"3","code":"LU","name":"Luzern"},"status":"Real"},{"key":"10017939","name":"Ey","postalCode":"6106","locality":"Werthenstein","commune":{"key":"1098","name":"Ruswil","shortName":"Ruswil"},"district":{"key":"314","name":"Wahlkreis Sursee"},"canton":{"key":"3","code":"LU","name":"Luzern"},"status":"Real"},{"key":"10209126","name":"Farnere","postalCode":"6106","locality":"Werthenstein","commune":{"key":"1098","name":"Ruswil","shortName":"Ruswil"},"district":{"key":"314","name":"Wahlkreis Sursee"},"canton":{"key":"3","code":"LU","name":"Luzern"},"status":"Real"},{"key":"10252525","name":"Forstgarten","postalCode":"6106","locality":"Werthenstein","commune":{"key":"1098","name":"Ruswil","shortName":"Ruswil"},"district":{"key":"314","name":"Wahlkreis Sursee"},"canton":{"key":"3","code":"LU","name":"Luzern"},"status":"Real"},{"key":"10205691","name":"Forstgartenstrasse","postalCode":"6106","locality":"Werthenstein","commune":{"key":"1098","name":"Ruswil","shortName":"Ruswil"},"district":{"key":"314","name":"Wahlkreis Sursee"},"canton":{"key":"3","code":"LU","name":"Luzern"},"status":"Real"},{"key":"10205694","name":"Grindelwaldstrasse","postalCode":"6106","locality":"Werthenstein","commune":{"key":"1098","name":"Ruswil","shortName":"Ruswil"},"district":{"key":"314","name":"Wahlkreis Sursee"},"canton":{"key":"3","code":"LU","name":"Luzern"},"status":"Real"},{"key":"10073158","name":"Grofehuse","postalCode":"6106","locality":"Werthenstein","commune":{"key":"1098","name":"Ruswil","shortName":"Ruswil"},"district":{"key":"314","name":"Wahlkreis Sursee"},"canton":{"key":"3","code":"LU","name":"Luzern"},"status":"Real"},{"key":"10204842","name":"Grossstein","postalCode":"6106","locality":"Werthenstein","commune":{"key":"1098","name":"Ruswil","shortName":"Ruswil"},"district":{"key":"314","name":"Wahlkreis Sursee"},"canton":{"key":"3","code":"LU","name":"Luzern"},"status":"Real"},{"key":"10208011","name":"Grosssteinstrasse","postalCode":"6106","locality":"Werthenstein","commune":{"key":"1098","name":"Ruswil","shortName":"Ruswil"},"district":{"key":"314","name":"Wahlkreis Sursee"},"canton":{"key":"3","code":"LU","name":"Luzern"},"status":"Real"},{"key":"10082324","name":"Grütweid","postalCode":"6106","locality":"Werthenstein","commune":{"key":"1098","name":"Ruswil","shortName":"Ruswil"},"district":{"key":"314","name":"Wahlkreis Sursee"},"canton":{"key":"3","code":"LU","name":"Luzern"},"status":"Real"},{"key":"10018684","name":"Halde","postalCode":"6106","locality":"Werthenstein","commune":{"key":"1098","name":"Ruswil","shortName":"Ruswil"},"district":{"key":"314","name":"Wahlkreis Sursee"},"canton":{"key":"3","code":"LU","name":"Luzern"},"status":"Real"},{"key":"10208012","name":"Häntschenwaldstrasse","postalCode":"6106","locality":"Werthenstein","commune":{"key":"1098","name":"Ruswil","shortName":"Ruswil"},"district":{"key":"314","name":"Wahlkreis Sursee"},"canton":{"key":"3","code":"LU","name":"Luzern"},"status":"Real"},{"key":"10064692","name":"Herbrächt","postalCode":"6106","locality":"Werthenstein","commune":{"key":"1098","name":"Ruswil","shortName":"Ruswil"},"district":{"key":"314","name":"Wahlkreis Sursee"},"canton":{"key":"3","code":"LU","name":"Luzern"},"status":"Real"},{"key":"10015750","name":"Hinderhus","postalCode":"6106","locality":"Werthenstein","commune":{"key":"1098","name":"Ruswil","shortName":"Ruswil"},"district":{"key":"314","name":"Wahlkreis Sursee"},"canton":{"key":"3","code":"LU","name":"Luzern"},"status":"Real"},{"key":"10190759","name":"Höchweid","postalCode":"6106","locality":"Werthenstein","commune":{"key":"1098","name":"Ruswil","shortName":"Ruswil"},"district":{"key":"314","name":"Wahlkreis Sursee"},"canton":{"key":"3","code":"LU","name":"Luzern"},"status":"Real"},{"key":"10149510","name":"Horütifeld","postalCode":"6106","locality":"Werthenstein","commune":{"key":"1098","name":"Ruswil","shortName":"Ruswil"},"district":{"key":"314","name":"Wahlkreis Sursee"},"canton":{"key":"3","code":"LU","name":"Luzern"},"status":"Real"},{"key":"10208337","name":"K10","postalCode":"6106","locality":"Werthenstein","commune":{"key":"1098","name":"Ruswil","shortName":"Ruswil"},"district":{"key":"314","name":"Wahlkreis Sursee"},"canton":{"key":"3","code":"LU","name":"Luzern"},"status":"Real"},{"key":"10207401","name":"K33","postalCode":"6106","locality":"Werthenstein","commune":{"key":"1098","name":"Ruswil","shortName":"Ruswil"},"district":{"key":"314","name":"Wahlkreis Sursee"},"canton":{"key":"3","code":"LU","name":"Luzern"},"status":"Real"},{"key":"10207402","name":"K34","postalCode":"6106","locality":"Werthenstein","commune":{"key":"1098","name":"Ruswil","shortName":"Ruswil"},"district":{"key":"314","name":"Wahlkreis Sursee"},"canton":{"key":"3","code":"LU","name":"Luzern"},"status":"Real"},{"key":"10204843","name":"Kesslerhüsli","postalCode":"6106","locality":"Werthenstein","commune":{"key":"1098","name":"Ruswil","shortName":"Ruswil"},"district":{"key":"314","name":"Wahlkreis Sursee"},"canton":{"key":"3","code":"LU","name":"Luzern"},"status":"Real"},{"key":"10209041","name":"Kesslerhüslistrasse","postalCode":"6106","locality":"Werthenstein","commune":{"key":"1098","name":"Ruswil","shortName":"Ruswil"},"district":{"key":"314","name":"Wahlkreis Sursee"},"canton":{"key":"3","code":"LU","name":"Luzern"},"status":"Real"},{"key":"10129749","name":"Kreuzstrasse","postalCode":"6106","locality":"Werthenstein","commune":{"key":"1098","name":"Ruswil","shortName":"Ruswil"},"district":{"key":"314","name":"Wahlkreis Sursee"},"canton":{"key":"3","code":"LU","name":"Luzern"},"status":"Real"},{"key":"10173718","name":"Landfriede","postalCode":"6106","locality":"Werthenstein","commune":{"key":"1098","name":"Ruswil","shortName":"Ruswil"},"district":{"key":"314","name":"Wahlkreis Sursee"},"canton":{"key":"3","code":"LU","name":"Luzern"},"status":"Real"},{"key":"10184356","name":"Lochguet","postalCode":"6106","locality":"Werthenstein","commune":{"key":"1098","name":"Ruswil","shortName":"Ruswil"},"district":{"key":"314","name":"Wahlkreis Sursee"},"canton":{"key":"3","code":"LU","name":"Luzern"},"status":"Real"},{"key":"10208015","name":"Lochguetstrasse","postalCode":"6106","locality":"Werthenstein","commune":{"key":"1098","name":"Ruswil","shortName":"Ruswil"},"district":{"key":"314","name":"Wahlkreis Sursee"},"canton":{"key":"3","code":"LU","name":"Luzern"},"status":"Real"},{"key":"10110296","name":"Lochmüli","postalCode":"6106","locality":"Werthenstein","commune":{"key":"1098","name":"Ruswil","shortName":"Ruswil"},"district":{"key":"314","name":"Wahlkreis Sursee"},"canton":{"key":"3","code":"LU","name":"Luzern"},"status":"Real"},{"key":"10196028","name":"Luzernstrasse","postalCode":"6106","locality":"Werthenstein","commune":{"key":"1098","name":"Ruswil","shortName":"Ruswil"},"district":{"key":"314","name":"Wahlkreis Sursee"},"canton":{"key":"3","code":"LU","name":"Luzern"},"status":"Real"},{"key":"10085398","name":"Mittlerstaldig","postalCode":"6106","locality":"Werthenstein","commune":{"key":"1098","name":"Ruswil","shortName":"Ruswil"},"district":{"key":"314","name":"Wahlkreis Sursee"},"canton":{"key":"3","code":"LU","name":"Luzern"},"status":"Real"},{"key":"10018686","name":"Muffehus","postalCode":"6106","locality":"Werthenstein","commune":{"key":"1098","name":"Ruswil","shortName":"Ruswil"},"district":{"key":"314","name":"Wahlkreis Sursee"},"canton":{"key":"3","code":"LU","name":"Luzern"},"status":"Real"},{"key":"10158791","name":"Oberdorfstrasse","postalCode":"6106","locality":"Werthenstein","commune":{"key":"1098","name":"Ruswil","shortName":"Ruswil"},"district":{"key":"314","name":"Wahlkreis Sursee"},"canton":{"key":"3","code":"LU","name":"Luzern"},"status":"Real"},{"key":"10053498","name":"Ober Höchweid","postalCode":"6106","locality":"Werthenstein","commune":{"key":"1098","name":"Ruswil","shortName":"Ruswil"},"district":{"key":"314","name":"Wahlkreis Sursee"},"canton":{"key":"3","code":"LU","name":"Luzern"},"status":"Real"},{"key":"10207386","name":"Ober-Langnau","postalCode":"6106","locality":"Werthenstein","commune":{"key":"1098","name":"Ruswil","shortName":"Ruswil"},"district":{"key":"314","name":"Wahlkreis Sursee"},"canton":{"key":"3","code":"LU","name":"Luzern"},"status":"Real"},{"key":"10208018","name":"Oberlangnauerwaldstrasse","postalCode":"6106","locality":"Werthenstein","commune":{"key":"1098","name":"Ruswil","shortName":"Ruswil"},"district":{"key":"314","name":"Wahlkreis Sursee"},"canton":{"key":"3","code":"LU","name":"Luzern"},"status":"Real"},{"key":"10015751","name":"Oberstaldig","postalCode":"6106","locality":"Werthenstein","commune":{"key":"1098","name":"Ruswil","shortName":"Ruswil"},"district":{"key":"314","name":"Wahlkreis Sursee"},"canton":{"key":"3","code":"LU","name":"Luzern"},"status":"Real"},{"key":"10205123","name":"Oberstaldigwaldstrasse","postalCode":"6106","locality":"Werthenstein","commune":{"key":"1098","name":"Ruswil","shortName":"Ruswil"},"district":{"key":"314","name":"Wahlkreis Sursee"},"canton":{"key":"3","code":"LU","name":"Luzern"},"status":"Real"},{"key":"10105364","name":"Pfistermättli","postalCode":"6106","locality":"Werthenstein","commune":{"key":"1098","name":"Ruswil","shortName":"Ruswil"},"district":{"key":"314","name":"Wahlkreis Sursee"},"canton":{"key":"3","code":"LU","name":"Luzern"},"status":"Real"},{"key":"10018687","name":"Pfisterweid","postalCode":"6106","locality":"Werthenstein","commune":{"key":"1098","name":"Ruswil","shortName":"Ruswil"},"district":{"key":"314","name":"Wahlkreis Sursee"},"canton":{"key":"3","code":"LU","name":"Luzern"},"status":"Real"},{"key":"10256612","name":"Rain","postalCode":"6106","locality":"Werthenstein","commune":{"key":"1098","name":"Ruswil","shortName":"Ruswil"},"district":{"key":"314","name":"Wahlkreis Sursee"},"canton":{"key":"3","code":"LU","name":"Luzern"},"status":"Real"},{"key":"10196029","name":"Rainstrasse","postalCode":"6106","locality":"Werthenstein","commune":{"key":"1098","name":"Ruswil","shortName":"Ruswil"},"district":{"key":"314","name":"Wahlkreis Sursee"},"canton":{"key":"3","code":"LU","name":"Luzern"},"status":"Real"},{"key":"10073176","name":"Ringgei","postalCode":"6106","locality":"Werthenstein","commune":{"key":"1098","name":"Ruswil","shortName":"Ruswil"},"district":{"key":"314","name":"Wahlkreis Sursee"},"canton":{"key":"3","code":"LU","name":"Luzern"},"status":"Real"},{"key":"10018689","name":"Roppertschwand","postalCode":"6106","locality":"Werthenstein","commune":{"key":"1098","name":"Ruswil","shortName":"Ruswil"},"district":{"key":"314","name":"Wahlkreis Sursee"},"canton":{"key":"3","code":"LU","name":"Luzern"},"status":"Real"},{"key":"10051370","name":"Rossweid","postalCode":"6106","locality":"Werthenstein","commune":{"key":"1098","name":"Ruswil","shortName":"Ruswil"},"district":{"key":"314","name":"Wahlkreis Sursee"},"canton":{"key":"3","code":"LU","name":"Luzern"},"status":"Real"},{"key":"10205126","name":"Rotefluestrasse","postalCode":"6106","locality":"Werthenstein","commune":{"key":"1098","name":"Ruswil","shortName":"Ruswil"},"district":{"key":"314","name":"Wahlkreis Sursee"},"canton":{"key":"3","code":"LU","name":"Luzern"},"status":"Real"},{"key":"10064699","name":"Rotweg","postalCode":"6106","locality":"Werthenstein","commune":{"key":"1098","name":"Ruswil","shortName":"Ruswil"},"district":{"key":"314","name":"Wahlkreis Sursee"},"canton":{"key":"3","code":"LU","name":"Luzern"},"status":"Real"},{"key":"10205127","name":"Rotwegstrasse","postalCode":"6106","locality":"Werthenstein","commune":{"key":"1098","name":"Ruswil","shortName":"Ruswil"},"district":{"key":"314","name":"Wahlkreis Sursee"},"canton":{"key":"3","code":"LU","name":"Luzern"},"status":"Real"},{"key":"10196030","name":"Ruswilstrasse","postalCode":"6106","locality":"Werthenstein","commune":{"key":"1098","name":"Ruswil","shortName":"Ruswil"},"district":{"key":"314","name":"Wahlkreis Sursee"},"canton":{"key":"3","code":"LU","name":"Luzern"},"status":"Real"},{"key":"10015752","name":"Sandbode","postalCode":"6106","locality":"Werthenstein","commune":{"key":"1098","name":"Ruswil","shortName":"Ruswil"},"district":{"key":"314","name":"Wahlkreis Sursee"},"canton":{"key":"3","code":"LU","name":"Luzern"},"status":"Real"},{"key":"10205129","name":"Sandbodestrasse","postalCode":"6106","locality":"Werthenstein","commune":{"key":"1098","name":"Ruswil","shortName":"Ruswil"},"district":{"key":"314","name":"Wahlkreis Sursee"},"canton":{"key":"3","code":"LU","name":"Luzern"},"status":"Real"},{"key":"10085399","name":"Schänkematt","postalCode":"6106","locality":"Werthenstein","commune":{"key":"1098","name":"Ruswil","shortName":"Ruswil"},"district":{"key":"314","name":"Wahlkreis Sursee"},"canton":{"key":"3","code":"LU","name":"Luzern"},"status":"Real"},{"key":"10205202","name":"Schenkenmattstrasse","postalCode":"6106","locality":"Werthenstein","commune":{"key":"1098","name":"Ruswil","shortName":"Ruswil"},"district":{"key":"314","name":"Wahlkreis Sursee"},"canton":{"key":"3","code":"LU","name":"Luzern"},"status":"Real"},{"key":"10189686","name":"Schintegg","postalCode":"6106","locality":"Werthenstein","commune":{"key":"1098","name":"Ruswil","shortName":"Ruswil"},"district":{"key":"314","name":"Wahlkreis Sursee"},"canton":{"key":"3","code":"LU","name":"Luzern"},"status":"Real"},{"key":"10161582","name":"Schnüerlihüsli","postalCode":"6106","locality":"Werthenstein","commune":{"key":"1098","name":"Ruswil","shortName":"Ruswil"},"district":{"key":"314","name":"Wahlkreis Sursee"},"canton":{"key":"3","code":"LU","name":"Luzern"},"status":"Real"},{"key":"10015753","name":"Schwandegg","postalCode":"6106","locality":"Werthenstein","commune":{"key":"1098","name":"Ruswil","shortName":"Ruswil"},"district":{"key":"314","name":"Wahlkreis Sursee"},"canton":{"key":"3","code":"LU","name":"Luzern"},"status":"Real"},{"key":"10085406","name":"Schwandenstrasse","postalCode":"6106","locality":"Werthenstein","commune":{"key":"1098","name":"Ruswil","shortName":"Ruswil"},"district":{"key":"314","name":"Wahlkreis Sursee"},"canton":{"key":"3","code":"LU","name":"Luzern"},"status":"Real"},{"key":"10015754","name":"Schwandeweidli","postalCode":"6106","locality":"Werthenstein","commune":{"key":"1098","name":"Ruswil","shortName":"Ruswil"},"district":{"key":"314","name":"Wahlkreis Sursee"},"canton":{"key":"3","code":"LU","name":"Luzern"},"status":"Real"},{"key":"10085400","name":"Schwändi","postalCode":"6106","locality":"Werthenstein","commune":{"key":"1098","name":"Ruswil","shortName":"Ruswil"},"district":{"key":"314","name":"Wahlkreis Sursee"},"canton":{"key":"3","code":"LU","name":"Luzern"},"status":"Real"},{"key":"10205683","name":"Schwändistrasse","postalCode":"6106","locality":"Werthenstein","commune":{"key":"1098","name":"Ruswil","shortName":"Ruswil"},"district":{"key":"314","name":"Wahlkreis Sursee"},"canton":{"key":"3","code":"LU","name":"Luzern"},"status":"Real"},{"key":"10209448","name":"Seminarstrasse","postalCode":"6106","locality":"Werthenstein","commune":{"key":"1098","name":"Ruswil","shortName":"Ruswil"},"district":{"key":"314","name":"Wahlkreis Sursee"},"canton":{"key":"3","code":"LU","name":"Luzern"},"status":"Real"},{"key":"10127100","name":"Sigigenstrasse","postalCode":"6106","locality":"Werthenstein","commune":{"key":"1098","name":"Ruswil","shortName":"Ruswil"},"district":{"key":"314","name":"Wahlkreis Sursee"},"canton":{"key":"3","code":"LU","name":"Luzern"},"status":"Real"},{"key":"10185876","name":"Sonnmatt","postalCode":"6106","locality":"Werthenstein","commune":{"key":"1098","name":"Ruswil","shortName":"Ruswil"},"district":{"key":"314","name":"Wahlkreis Sursee"},"canton":{"key":"3","code":"LU","name":"Luzern"},"status":"Real"},{"key":"10053501","name":"Stäghüsli","postalCode":"6106","locality":"Werthenstein","commune":{"key":"1098","name":"Ruswil","shortName":"Ruswil"},"district":{"key":"314","name":"Wahlkreis Sursee"},"canton":{"key":"3","code":"LU","name":"Luzern"},"status":"Real"},{"key":"10122524","name":"Staldigmoos","postalCode":"6106","locality":"Werthenstein","commune":{"key":"1098","name":"Ruswil","shortName":"Ruswil"},"district":{"key":"314","name":"Wahlkreis Sursee"},"canton":{"key":"3","code":"LU","name":"Luzern"},"status":"Real"},{"key":"10205687","name":"Staldigmoosstrasse","postalCode":"6106","locality":"Werthenstein","commune":{"key":"1098","name":"Ruswil","shortName":"Ruswil"},"district":{"key":"314","name":"Wahlkreis Sursee"},"canton":{"key":"3","code":"LU","name":"Luzern"},"status":"Real"},{"key":"10205689","name":"Staldigstrasse","postalCode":"6106","locality":"Werthenstein","commune":{"key":"1098","name":"Ruswil","shortName":"Ruswil"},"district":{"key":"314","name":"Wahlkreis Sursee"},"canton":{"key":"3","code":"LU","name":"Luzern"},"status":"Real"},{"key":"10114663","name":"Staldigweid","postalCode":"6106","locality":"Werthenstein","commune":{"key":"1098","name":"Ruswil","shortName":"Ruswil"},"district":{"key":"314","name":"Wahlkreis Sursee"},"canton":{"key":"3","code":"LU","name":"Luzern"},"status":"Real"},{"key":"10205693","name":"Staldigweidstrasse","postalCode":"6106","locality":"Werthenstein","commune":{"key":"1098","name":"Ruswil","shortName":"Ruswil"},"district":{"key":"314","name":"Wahlkreis Sursee"},"canton":{"key":"3","code":"LU","name":"Luzern"},"status":"Real"},{"key":"10103872","name":"Stritweid","postalCode":"6106","locality":"Werthenstein","commune":{"key":"1098","name":"Ruswil","shortName":"Ruswil"},"district":{"key":"314","name":"Wahlkreis Sursee"},"canton":{"key":"3","code":"LU","name":"Luzern"},"status":"Real"},{"key":"10085401","name":"Sulzmatt","postalCode":"6106","locality":"Werthenstein","commune":{"key":"1098","name":"Ruswil","shortName":"Ruswil"},"district":{"key":"314","name":"Wahlkreis Sursee"},"canton":{"key":"3","code":"LU","name":"Luzern"},"status":"Real"},{"key":"10170213","name":"Tribschwande","postalCode":"6106","locality":"Werthenstein","commune":{"key":"1098","name":"Ruswil","shortName":"Ruswil"},"district":{"key":"314","name":"Wahlkreis Sursee"},"canton":{"key":"3","code":"LU","name":"Luzern"},"status":"Real"},{"key":"10018691","name":"Under Grüt","postalCode":"6106","locality":"Werthenstein","commune":{"key":"1098","name":"Ruswil","shortName":"Ruswil"},"district":{"key":"314","name":"Wahlkreis Sursee"},"canton":{"key":"3","code":"LU","name":"Luzern"},"status":"Real"},{"key":"10117312","name":"Under Höchweid","postalCode":"6106","locality":"Werthenstein","commune":{"key":"1098","name":"Ruswil","shortName":"Ruswil"},"district":{"key":"314","name":"Wahlkreis Sursee"},"canton":{"key":"3","code":"LU","name":"Luzern"},"status":"Real"},{"key":"10209252","name":"Unterstaldig","postalCode":"6106","locality":"Werthenstein","commune":{"key":"1098","name":"Ruswil","shortName":"Ruswil"},"district":{"key":"314","name":"Wahlkreis Sursee"},"canton":{"key":"3","code":"LU","name":"Luzern"},"status":"Real"},{"key":"10074554","name":"Vogelsang","postalCode":"6106","locality":"Werthenstein","commune":{"key":"1098","name":"Ruswil","shortName":"Ruswil"},"district":{"key":"314","name":"Wahlkreis Sursee"},"canton":{"key":"3","code":"LU","name":"Luzern"},"status":"Real"},{"key":"10015757","name":"Waldgüetli","postalCode":"6106","locality":"Werthenstein","commune":{"key":"1098","name":"Ruswil","shortName":"Ruswil"},"district":{"key":"314","name":"Wahlkreis Sursee"},"canton":{"key":"3","code":"LU","name":"Luzern"},"status":"Real"},{"key":"10205699","name":"Waldgüetlistrasse","postalCode":"6106","locality":"Werthenstein","commune":{"key":"1098","name":"Ruswil","shortName":"Ruswil"},"district":{"key":"314","name":"Wahlkreis Sursee"},"canton":{"key":"3","code":"LU","name":"Luzern"},"status":"Real"},{"key":"10018692","name":"Wandele","postalCode":"6106","locality":"Werthenstein","commune":{"key":"1098","name":"Ruswil","shortName":"Ruswil"},"district":{"key":"314","name":"Wahlkreis Sursee"},"canton":{"key":"3","code":"LU","name":"Luzern"},"status":"Real"},{"key":"10198492","name":"Wiprächtigen","postalCode":"6106","locality":"Werthenstein","commune":{"key":"1098","name":"Ruswil","shortName":"Ruswil"},"district":{"key":"314","name":"Wahlkreis Sursee"},"canton":{"key":"3","code":"LU","name":"Luzern"},"status":"Real"},]