[{"name":"Adolf-Kolping-Str.","postalCode":"92444","locality":"Rötz","municipality":{"key":"09372154","name":"Rötz, St","type":"Stadt"},"district":{"key":"09372","name":"Cham","type":"Landkreis"},"federalState":{"key":"09","name":"Bayern"}},{"name":"Alte Berliner Str.","postalCode":"15345","locality":"Prötzel","municipality":{"key":"12064393","name":"Prötzel","type":"Kreisangehörige_Gemeinde"},"district":{"key":"12064","name":"Märkisch-Oderland","type":"Landkreis"},"federalState":{"key":"12","name":"Brandenburg"}},{"name":"Am Anger","postalCode":"15345","locality":"Prötzel","municipality":{"key":"12064393","name":"Prötzel","type":"Kreisangehörige_Gemeinde"},"district":{"key":"12064","name":"Märkisch-Oderland","type":"Landkreis"},"federalState":{"key":"12","name":"Brandenburg"}},{"name":"Am Antonifeld","postalCode":"92444","locality":"Rötz","municipality":{"key":"09372154","name":"Rötz, St","type":"Stadt"},"district":{"key":"09372","name":"Cham","type":"Landkreis"},"federalState":{"key":"09","name":"Bayern"}},{"name":"Am Bahnhof","postalCode":"15345","locality":"Prötzel","municipality":{"key":"12064393","name":"Prötzel","type":"Kreisangehörige_Gemeinde"},"district":{"key":"12064","name":"Märkisch-Oderland","type":"Landkreis"},"federalState":{"key":"12","name":"Brandenburg"}},{"name":"Am Birket","postalCode":"92444","locality":"Rötz","municipality":{"key":"09372154","name":"Rötz, St","type":"Stadt"},"district":{"key":"09372","name":"Cham","type":"Landkreis"},"federalState":{"key":"09","name":"Bayern"}},{"name":"Am Buchenberg","postalCode":"92444","locality":"Rötz","municipality":{"key":"09372154","name":"Rötz, St","type":"Stadt"},"district":{"key":"09372","name":"Cham","type":"Landkreis"},"federalState":{"key":"09","name":"Bayern"}},{"name":"Am Grünen Weg","postalCode":"15345","locality":"Prötzel","municipality":{"key":"12064393","name":"Prötzel","type":"Kreisangehörige_Gemeinde"},"district":{"key":"12064","name":"Märkisch-Oderland","type":"Landkreis"},"federalState":{"key":"12","name":"Brandenburg"}},{"name":"Am Irlweiher","postalCode":"92444","locality":"Rötz","municipality":{"key":"09372154","name":"Rötz, St","type":"Stadt"},"district":{"key":"09372","name":"Cham","type":"Landkreis"},"federalState":{"key":"09","name":"Bayern"}},{"name":"Am Mühlenberg","postalCode":"15345","locality":"Prötzel","municipality":{"key":"12064393","name":"Prötzel","type":"Kreisangehörige_Gemeinde"},"district":{"key":"12064","name":"Märkisch-Oderland","type":"Landkreis"},"federalState":{"key":"12","name":"Brandenburg"}},{"name":"Am Storchennest","postalCode":"15345","locality":"Prötzel","municipality":{"key":"12064393","name":"Prötzel","type":"Kreisangehörige_Gemeinde"},"district":{"key":"12064","name":"Märkisch-Oderland","type":"Landkreis"},"federalState":{"key":"12","name":"Brandenburg"}},{"name":"Am Wald","postalCode":"15345","locality":"Prötzel","municipality":{"key":"12064393","name":"Prötzel","type":"Kreisangehörige_Gemeinde"},"district":{"key":"12064","name":"Märkisch-Oderland","type":"Landkreis"},"federalState":{"key":"12","name":"Brandenburg"}},{"name":"Am Wiesengrund","postalCode":"92444","locality":"Rötz","municipality":{"key":"09372154","name":"Rötz, St","type":"Stadt"},"district":{"key":"09372","name":"Cham","type":"Landkreis"},"federalState":{"key":"09","name":"Bayern"}},{"name":"Am Ziegelanger","postalCode":"92444","locality":"Rötz","municipality":{"key":"09372154","name":"Rötz, St","type":"Stadt"},"district":{"key":"09372","name":"Cham","type":"Landkreis"},"federalState":{"key":"09","name":"Bayern"}},{"name":"An der Weißen Brücke","postalCode":"15345","locality":"Prötzel","municipality":{"key":"12064393","name":"Prötzel","type":"Kreisangehörige_Gemeinde"},"district":{"key":"12064","name":"Märkisch-Oderland","type":"Landkreis"},"federalState":{"key":"12","name":"Brandenburg"}},{"name":"Antoniusstr.","postalCode":"92444","locality":"Rötz","municipality":{"key":"09372154","name":"Rötz, St","type":"Stadt"},"district":{"key":"09372","name":"Cham","type":"Landkreis"},"federalState":{"key":"09","name":"Bayern"}},{"name":"Augustinerstr.","postalCode":"92444","locality":"Rötz","municipality":{"key":"09372154","name":"Rötz, St","type":"Stadt"},"district":{"key":"09372","name":"Cham","type":"Landkreis"},"federalState":{"key":"09","name":"Bayern"}},{"name":"Bachweg","postalCode":"92444","locality":"Rötz","municipality":{"key":"09372154","name":"Rötz, St","type":"Stadt"},"district":{"key":"09372","name":"Cham","type":"Landkreis"},"federalState":{"key":"09","name":"Bayern"}},{"name":"Baechlstr.","postalCode":"92444","locality":"Rötz","municipality":{"key":"09372154","name":"Rötz, St","type":"Stadt"},"district":{"key":"09372","name":"Cham","type":"Landkreis"},"federalState":{"key":"09","name":"Bayern"}},{"name":"Bahnhofstr.","postalCode":"92444","locality":"Rötz","municipality":{"key":"09372154","name":"Rötz, St","type":"Stadt"},"district":{"key":"09372","name":"Cham","type":"Landkreis"},"federalState":{"key":"09","name":"Bayern"}},{"name":"Bauhof","postalCode":"92444","locality":"Rötz","municipality":{"key":"09372154","name":"Rötz, St","type":"Stadt"},"district":{"key":"09372","name":"Cham","type":"Landkreis"},"federalState":{"key":"09","name":"Bayern"}},{"name":"Biesow","postalCode":"15345","locality":"Prötzel","municipality":{"key":"12064393","name":"Prötzel","type":"Kreisangehörige_Gemeinde"},"district":{"key":"12064","name":"Märkisch-Oderland","type":"Landkreis"},"federalState":{"key":"12","name":"Brandenburg"}},{"name":"Blumentalstr.","postalCode":"92444","locality":"Rötz","municipality":{"key":"09372154","name":"Rötz, St","type":"Stadt"},"district":{"key":"09372","name":"Cham","type":"Landkreis"},"federalState":{"key":"09","name":"Bayern"}},{"name":"Böhmerstr.","postalCode":"92444","locality":"Rötz","municipality":{"key":"09372154","name":"Rötz, St","type":"Stadt"},"district":{"key":"09372","name":"Cham","type":"Landkreis"},"federalState":{"key":"09","name":"Bayern"}},{"name":"Brandlstr.","postalCode":"92444","locality":"Rötz","municipality":{"key":"09372154","name":"Rötz, St","type":"Stadt"},"district":{"key":"09372","name":"Cham","type":"Landkreis"},"federalState":{"key":"09","name":"Bayern"}},{"name":"Bräumeisterweg","postalCode":"92444","locality":"Rötz","municipality":{"key":"09372154","name":"Rötz, St","type":"Stadt"},"district":{"key":"09372","name":"Cham","type":"Landkreis"},"federalState":{"key":"09","name":"Bayern"}},{"name":"Braunmüllerstr.","postalCode":"92444","locality":"Rötz","municipality":{"key":"09372154","name":"Rötz, St","type":"Stadt"},"district":{"key":"09372","name":"Cham","type":"Landkreis"},"federalState":{"key":"09","name":"Bayern"}},{"name":"Brückenstr.","postalCode":"92444","locality":"Rötz","municipality":{"key":"09372154","name":"Rötz, St","type":"Stadt"},"district":{"key":"09372","name":"Cham","type":"Landkreis"},"federalState":{"key":"09","name":"Bayern"}},{"name":"Chamer Str.","postalCode":"92444","locality":"Rötz","municipality":{"key":"09372154","name":"Rötz, St","type":"Stadt"},"district":{"key":"09372","name":"Cham","type":"Landkreis"},"federalState":{"key":"09","name":"Bayern"}},{"name":"Dorfstr.","postalCode":"15345","locality":"Prötzel","municipality":{"key":"12064393","name":"Prötzel","type":"Kreisangehörige_Gemeinde"},"district":{"key":"12064","name":"Märkisch-Oderland","type":"Landkreis"},"federalState":{"key":"12","name":"Brandenburg"}},{"name":"Dorfstr.","postalCode":"92444","locality":"Rötz","municipality":{"key":"09372154","name":"Rötz, St","type":"Stadt"},"district":{"key":"09372","name":"Cham","type":"Landkreis"},"federalState":{"key":"09","name":"Bayern"}},{"name":"Dr.-Gillitzer-Str.","postalCode":"92444","locality":"Rötz","municipality":{"key":"09372154","name":"Rötz, St","type":"Stadt"},"district":{"key":"09372","name":"Cham","type":"Landkreis"},"federalState":{"key":"09","name":"Bayern"}},{"name":"Eberswalder Chaussee","postalCode":"15345","locality":"Prötzel","municipality":{"key":"12064393","name":"Prötzel","type":"Kreisangehörige_Gemeinde"},"district":{"key":"12064","name":"Märkisch-Oderland","type":"Landkreis"},"federalState":{"key":"12","name":"Brandenburg"}},{"name":"Eglshöfer Weg","postalCode":"92444","locality":"Rötz","municipality":{"key":"09372154","name":"Rötz, St","type":"Stadt"},"district":{"key":"09372","name":"Cham","type":"Landkreis"},"federalState":{"key":"09","name":"Bayern"}},{"name":"Frankenfelder Weg","postalCode":"15345","locality":"Prötzel","municipality":{"key":"12064393","name":"Prötzel","type":"Kreisangehörige_Gemeinde"},"district":{"key":"12064","name":"Märkisch-Oderland","type":"Landkreis"},"federalState":{"key":"12","name":"Brandenburg"}},{"name":"Franz-Kern-Str.","postalCode":"92444","locality":"Rötz","municipality":{"key":"09372154","name":"Rötz, St","type":"Stadt"},"district":{"key":"09372","name":"Cham","type":"Landkreis"},"federalState":{"key":"09","name":"Bayern"}},{"name":"Friedrichstr.","postalCode":"92444","locality":"Rötz","municipality":{"key":"09372154","name":"Rötz, St","type":"Stadt"},"district":{"key":"09372","name":"Cham","type":"Landkreis"},"federalState":{"key":"09","name":"Bayern"}},{"name":"Gartenstr.","postalCode":"92444","locality":"Rötz","municipality":{"key":"09372154","name":"Rötz, St","type":"Stadt"},"district":{"key":"09372","name":"Cham","type":"Landkreis"},"federalState":{"key":"09","name":"Bayern"}},{"name":"Gartenzell","postalCode":"92444","locality":"Rötz","municipality":{"key":"09372154","name":"Rötz, St","type":"Stadt"},"district":{"key":"09372","name":"Cham","type":"Landkreis"},"federalState":{"key":"09","name":"Bayern"}},{"name":"Gmünder Weg","postalCode":"92444","locality":"Rötz","municipality":{"key":"09372154","name":"Rötz, St","type":"Stadt"},"district":{"key":"09372","name":"Cham","type":"Landkreis"},"federalState":{"key":"09","name":"Bayern"}},{"name":"Graslerweg","postalCode":"92444","locality":"Rötz","municipality":{"key":"09372154","name":"Rötz, St","type":"Stadt"},"district":{"key":"09372","name":"Cham","type":"Landkreis"},"federalState":{"key":"09","name":"Bayern"}},{"name":"Gütlstr.","postalCode":"92444","locality":"Rötz","municipality":{"key":"09372154","name":"Rötz, St","type":"Stadt"},"district":{"key":"09372","name":"Cham","type":"Landkreis"},"federalState":{"key":"09","name":"Bayern"}},{"name":"Guttensteinerstr.","postalCode":"92444","locality":"Rötz","municipality":{"key":"09372154","name":"Rötz, St","type":"Stadt"},"district":{"key":"09372","name":"Cham","type":"Landkreis"},"federalState":{"key":"09","name":"Bayern"}},{"name":"Hadererstr.","postalCode":"92444","locality":"Rötz","municipality":{"key":"09372154","name":"Rötz, St","type":"Stadt"},"district":{"key":"09372","name":"Cham","type":"Landkreis"},"federalState":{"key":"09","name":"Bayern"}},{"name":"Hafnerstr.","postalCode":"92444","locality":"Rötz","municipality":{"key":"09372154","name":"Rötz, St","type":"Stadt"},"district":{"key":"09372","name":"Cham","type":"Landkreis"},"federalState":{"key":"09","name":"Bayern"}},{"name":"Haidackerstr.","postalCode":"92444","locality":"Rötz","municipality":{"key":"09372154","name":"Rötz, St","type":"Stadt"},"district":{"key":"09372","name":"Cham","type":"Landkreis"},"federalState":{"key":"09","name":"Bayern"}},{"name":"Haidweg","postalCode":"92444","locality":"Rötz","municipality":{"key":"09372154","name":"Rötz, St","type":"Stadt"},"district":{"key":"09372","name":"Cham","type":"Landkreis"},"federalState":{"key":"09","name":"Bayern"}},{"name":"Hauptstr.","postalCode":"15345","locality":"Prötzel","municipality":{"key":"12064393","name":"Prötzel","type":"Kreisangehörige_Gemeinde"},"district":{"key":"12064","name":"Märkisch-Oderland","type":"Landkreis"},"federalState":{"key":"12","name":"Brandenburg"}},{"name":"Herzhorner Weg","postalCode":"15345","locality":"Prötzel","municipality":{"key":"12064393","name":"Prötzel","type":"Kreisangehörige_Gemeinde"},"district":{"key":"12064","name":"Märkisch-Oderland","type":"Landkreis"},"federalState":{"key":"12","name":"Brandenburg"}},{"name":"Hillstett","postalCode":"92444","locality":"Rötz","municipality":{"key":"09372154","name":"Rötz, St","type":"Stadt"},"district":{"key":"09372","name":"Cham","type":"Landkreis"},"federalState":{"key":"09","name":"Bayern"}},{"name":"Hillstetter Str.","postalCode":"92444","locality":"Rötz","municipality":{"key":"09372154","name":"Rötz, St","type":"Stadt"},"district":{"key":"09372","name":"Cham","type":"Landkreis"},"federalState":{"key":"09","name":"Bayern"}},{"name":"Hussenstr.","postalCode":"92444","locality":"Rötz","municipality":{"key":"09372154","name":"Rötz, St","type":"Stadt"},"district":{"key":"09372","name":"Cham","type":"Landkreis"},"federalState":{"key":"09","name":"Bayern"}},{"name":"Ihlower Weg","postalCode":"15345","locality":"Prötzel","municipality":{"key":"12064393","name":"Prötzel","type":"Kreisangehörige_Gemeinde"},"district":{"key":"12064","name":"Märkisch-Oderland","type":"Landkreis"},"federalState":{"key":"12","name":"Brandenburg"}},{"name":"Im Autal","postalCode":"92444","locality":"Rötz","municipality":{"key":"09372154","name":"Rötz, St","type":"Stadt"},"district":{"key":"09372","name":"Cham","type":"Landkreis"},"federalState":{"key":"09","name":"Bayern"}},{"name":"Im Schlößl","postalCode":"92444","locality":"Rötz","municipality":{"key":"09372154","name":"Rötz, St","type":"Stadt"},"district":{"key":"09372","name":"Cham","type":"Landkreis"},"federalState":{"key":"09","name":"Bayern"}},{"name":"Irlachweg","postalCode":"92444","locality":"Rötz","municipality":{"key":"09372154","name":"Rötz, St","type":"Stadt"},"district":{"key":"09372","name":"Cham","type":"Landkreis"},"federalState":{"key":"09","name":"Bayern"}},{"name":"Jägerweg","postalCode":"93413","locality":"Cham","municipality":{"key":"09372116","name":"Cham, St","type":"Stadt"},"district":{"key":"09372","name":"Cham","type":"Landkreis"},"federalState":{"key":"09","name":"Bayern"}},{"name":"Jahnetweg","postalCode":"93413","locality":"Cham","municipality":{"key":"09372116","name":"Cham, St","type":"Stadt"},"district":{"key":"09372","name":"Cham","type":"Landkreis"},"federalState":{"key":"09","name":"Bayern"}},{"name":"Jahnstr.","postalCode":"93413","locality":"Cham","municipality":{"key":"09372116","name":"Cham, St","type":"Stadt"},"district":{"key":"09372","name":"Cham","type":"Landkreis"},"federalState":{"key":"09","name":"Bayern"}},{"name":"Jakobstr.","postalCode":"93413","locality":"Cham","municipality":{"key":"09372116","name":"Cham, St","type":"Stadt"},"district":{"key":"09372","name":"Cham","type":"Landkreis"},"federalState":{"key":"09","name":"Bayern"}},{"name":"Janahof","postalCode":"93413","locality":"Cham","municipality":{"key":"09372116","name":"Cham, St","type":"Stadt"},"district":{"key":"09372","name":"Cham","type":"Landkreis"},"federalState":{"key":"09","name":"Bayern"}},{"name":"Janahofer Str.","postalCode":"93413","locality":"Cham","municipality":{"key":"09372116","name":"Cham, St","type":"Stadt"},"district":{"key":"09372","name":"Cham","type":"Landkreis"},"federalState":{"key":"09","name":"Bayern"}},{"name":"Johann-Brunner-Str.","postalCode":"93413","locality":"Cham","municipality":{"key":"09372116","name":"Cham, St","type":"Stadt"},"district":{"key":"09372","name":"Cham","type":"Landkreis"},"federalState":{"key":"09","name":"Bayern"}},{"name":"Josef-Heilingbrunner-Str.","postalCode":"93413","locality":"Cham","municipality":{"key":"09372116","name":"Cham, St","type":"Stadt"},"district":{"key":"09372","name":"Cham","type":"Landkreis"},"federalState":{"key":"09","name":"Bayern"}},{"name":"Josef-Schlicht Str.","postalCode":"93413","locality":"Cham","municipality":{"key":"09372116","name":"Cham, St","type":"Stadt"},"district":{"key":"09372","name":"Cham","type":"Landkreis"},"federalState":{"key":"09","name":"Bayern"}},{"name":"Judenstr.","postalCode":"93413","locality":"Cham","municipality":{"key":"09372116","name":"Cham, St","type":"Stadt"},"district":{"key":"09372","name":"Cham","type":"Landkreis"},"federalState":{"key":"09","name":"Bayern"}},{"name":"Kähnsdorfer Weg","postalCode":"15345","locality":"Prötzel","municipality":{"key":"12064393","name":"Prötzel","type":"Kreisangehörige_Gemeinde"},"district":{"key":"12064","name":"Märkisch-Oderland","type":"Landkreis"},"federalState":{"key":"12","name":"Brandenburg"}},{"name":"Kalkofenweg","postalCode":"92444","locality":"Rötz","municipality":{"key":"09372154","name":"Rötz, St","type":"Stadt"},"district":{"key":"09372","name":"Cham","type":"Landkreis"},"federalState":{"key":"09","name":"Bayern"}},{"name":"Kapellenweg","postalCode":"92444","locality":"Rötz","municipality":{"key":"09372154","name":"Rötz, St","type":"Stadt"},"district":{"key":"09372","name":"Cham","type":"Landkreis"},"federalState":{"key":"09","name":"Bayern"}},{"name":"Kastanienweg","postalCode":"15345","locality":"Prötzel","municipality":{"key":"12064393","name":"Prötzel","type":"Kreisangehörige_Gemeinde"},"district":{"key":"12064","name":"Märkisch-Oderland","type":"Landkreis"},"federalState":{"key":"12","name":"Brandenburg"}},{"name":"Kiefernweg","postalCode":"15345","locality":"Prötzel","municipality":{"key":"12064393","name":"Prötzel","type":"Kreisangehörige_Gemeinde"},"district":{"key":"12064","name":"Märkisch-Oderland","type":"Landkreis"},"federalState":{"key":"12","name":"Brandenburg"}},{"name":"Kirchstr.","postalCode":"92444","locality":"Rötz","municipality":{"key":"09372154","name":"Rötz, St","type":"Stadt"},"district":{"key":"09372","name":"Cham","type":"Landkreis"},"federalState":{"key":"09","name":"Bayern"}},{"name":"Kirchweg","postalCode":"92444","locality":"Rötz","municipality":{"key":"09372154","name":"Rötz, St","type":"Stadt"},"district":{"key":"09372","name":"Cham","type":"Landkreis"},"federalState":{"key":"09","name":"Bayern"}},{"name":"Knöckerlgasse","postalCode":"92444","locality":"Rötz","municipality":{"key":"09372154","name":"Rötz, St","type":"Stadt"},"district":{"key":"09372","name":"Cham","type":"Landkreis"},"federalState":{"key":"09","name":"Bayern"}},{"name":"Kreuzstr.","postalCode":"92444","locality":"Rötz","municipality":{"key":"09372154","name":"Rötz, St","type":"Stadt"},"district":{"key":"09372","name":"Cham","type":"Landkreis"},"federalState":{"key":"09","name":"Bayern"}},{"name":"Leuchtenbergstr.","postalCode":"92444","locality":"Rötz","municipality":{"key":"09372154","name":"Rötz, St","type":"Stadt"},"district":{"key":"09372","name":"Cham","type":"Landkreis"},"federalState":{"key":"09","name":"Bayern"}},{"name":"Lindenweg","postalCode":"92444","locality":"Rötz","municipality":{"key":"09372154","name":"Rötz, St","type":"Stadt"},"district":{"key":"09372","name":"Cham","type":"Landkreis"},"federalState":{"key":"09","name":"Bayern"}},{"name":"Marktplatz","postalCode":"92444","locality":"Rötz","municipality":{"key":"09372154","name":"Rötz, St","type":"Stadt"},"district":{"key":"09372","name":"Cham","type":"Landkreis"},"federalState":{"key":"09","name":"Bayern"}},{"name":"Meigelsried","postalCode":"92444","locality":"Rötz","municipality":{"key":"09372154","name":"Rötz, St","type":"Stadt"},"district":{"key":"09372","name":"Cham","type":"Landkreis"},"federalState":{"key":"09","name":"Bayern"}},{"name":"Meigelsrieder Weg","postalCode":"92444","locality":"Rötz","municipality":{"key":"09372154","name":"Rötz, St","type":"Stadt"},"district":{"key":"09372","name":"Cham","type":"Landkreis"},"federalState":{"key":"09","name":"Bayern"}},{"name":"Mögliner Weg","postalCode":"15345","locality":"Prötzel","municipality":{"key":"12064393","name":"Prötzel","type":"Kreisangehörige_Gemeinde"},"district":{"key":"12064","name":"Märkisch-Oderland","type":"Landkreis"},"federalState":{"key":"12","name":"Brandenburg"}},{"name":"Mühltratweg","postalCode":"92444","locality":"Rötz","municipality":{"key":"09372154","name":"Rötz, St","type":"Stadt"},"district":{"key":"09372","name":"Cham","type":"Landkreis"},"federalState":{"key":"09","name":"Bayern"}},{"name":"Müncheberger Str.","postalCode":"15345","locality":"Prötzel","municipality":{"key":"12064393","name":"Prötzel","type":"Kreisangehörige_Gemeinde"},"district":{"key":"12064","name":"Märkisch-Oderland","type":"Landkreis"},"federalState":{"key":"12","name":"Brandenburg"}},{"name":"Neunburger Str.","postalCode":"92444","locality":"Rötz","municipality":{"key":"09372154","name":"Rötz, St","type":"Stadt"},"district":{"key":"09372","name":"Cham","type":"Landkreis"},"federalState":{"key":"09","name":"Bayern"}},{"name":"Ostmarkstr.","postalCode":"92444","locality":"Rötz","municipality":{"key":"09372154","name":"Rötz, St","type":"Stadt"},"district":{"key":"09372","name":"Cham","type":"Landkreis"},"federalState":{"key":"09","name":"Bayern"}},{"name":"Paul-Königer-Str.","postalCode":"92444","locality":"Rötz","municipality":{"key":"09372154","name":"Rötz, St","type":"Stadt"},"district":{"key":"09372","name":"Cham","type":"Landkreis"},"federalState":{"key":"09","name":"Bayern"}},{"name":"Pfaffenfurtweg","postalCode":"92444","locality":"Rötz","municipality":{"key":"09372154","name":"Rötz, St","type":"Stadt"},"district":{"key":"09372","name":"Cham","type":"Landkreis"},"federalState":{"key":"09","name":"Bayern"}},{"name":"Pfarrer-Baumann-Str.","postalCode":"92444","locality":"Rötz","municipality":{"key":"09372154","name":"Rötz, St","type":"Stadt"},"district":{"key":"09372","name":"Cham","type":"Landkreis"},"federalState":{"key":"09","name":"Bayern"}},{"name":"Pfarrer-Mulzer-Str.","postalCode":"92444","locality":"Rötz","municipality":{"key":"09372154","name":"Rötz, St","type":"Stadt"},"district":{"key":"09372","name":"Cham","type":"Landkreis"},"federalState":{"key":"09","name":"Bayern"}},{"name":"Pfarrer-Schreiner-Str.","postalCode":"92444","locality":"Rötz","municipality":{"key":"09372154","name":"Rötz, St","type":"Stadt"},"district":{"key":"09372","name":"Cham","type":"Landkreis"},"federalState":{"key":"09","name":"Bayern"}},{"name":"Pfarrstr.","postalCode":"92444","locality":"Rötz","municipality":{"key":"09372154","name":"Rötz, St","type":"Stadt"},"district":{"key":"09372","name":"Cham","type":"Landkreis"},"federalState":{"key":"09","name":"Bayern"}},{"name":"Pflugstr.","postalCode":"92444","locality":"Rötz","municipality":{"key":"09372154","name":"Rötz, St","type":"Stadt"},"district":{"key":"09372","name":"Cham","type":"Landkreis"},"federalState":{"key":"09","name":"Bayern"}},{"name":"Prädikower Str.","postalCode":"15345","locality":"Prötzel","municipality":{"key":"12064393","name":"Prötzel","type":"Kreisangehörige_Gemeinde"},"district":{"key":"12064","name":"Märkisch-Oderland","type":"Landkreis"},"federalState":{"key":"12","name":"Brandenburg"}},{"name":"Prötzeler Chaussee","postalCode":"15345","locality":"Prötzel","municipality":{"key":"12064393","name":"Prötzel","type":"Kreisangehörige_Gemeinde"},"district":{"key":"12064","name":"Märkisch-Oderland","type":"Landkreis"},"federalState":{"key":"12","name":"Brandenburg"}},{"name":"Prötzeler Str.","postalCode":"15345","locality":"Prötzel","municipality":{"key":"12064393","name":"Prötzel","type":"Kreisangehörige_Gemeinde"},"district":{"key":"12064","name":"Märkisch-Oderland","type":"Landkreis"},"federalState":{"key":"12","name":"Brandenburg"}},{"name":"Quadfeldmühle","postalCode":"93413","locality":"Cham","municipality":{"key":"09372116","name":"Cham, St","type":"Stadt"},"district":{"key":"09372","name":"Cham","type":"Landkreis"},"federalState":{"key":"09","name":"Bayern"}},{"name":"Raabstr.","postalCode":"92444","locality":"Rötz","municipality":{"key":"09372154","name":"Rötz, St","type":"Stadt"},"district":{"key":"09372","name":"Cham","type":"Landkreis"},"federalState":{"key":"09","name":"Bayern"}},{"name":"Rathausstr.","postalCode":"92444","locality":"Rötz","municipality":{"key":"09372154","name":"Rötz, St","type":"Stadt"},"district":{"key":"09372","name":"Cham","type":"Landkreis"},"federalState":{"key":"09","name":"Bayern"}},{"name":"Regensburger Str.","postalCode":"92444","locality":"Rötz","municipality":{"key":"09372154","name":"Rötz, St","type":"Stadt"},"district":{"key":"09372","name":"Cham","type":"Landkreis"},"federalState":{"key":"09","name":"Bayern"}},{"name":"Riedererstr.","postalCode":"92444","locality":"Rötz","municipality":{"key":"09372154","name":"Rötz, St","type":"Stadt"},"district":{"key":"09372","name":"Cham","type":"Landkreis"},"federalState":{"key":"09","name":"Bayern"}},{"name":"Rödelangerweg","postalCode":"92444","locality":"Rötz","municipality":{"key":"09372154","name":"Rötz, St","type":"Stadt"},"district":{"key":"09372","name":"Cham","type":"Landkreis"},"federalState":{"key":"09","name":"Bayern"}},{"name":"Rödelwiesweg","postalCode":"92444","locality":"Rötz","municipality":{"key":"09372154","name":"Rötz, St","type":"Stadt"},"district":{"key":"09372","name":"Cham","type":"Landkreis"},"federalState":{"key":"09","name":"Bayern"}},{"name":"Roigengasse","postalCode":"92444","locality":"Rötz","municipality":{"key":"09372154","name":"Rötz, St","type":"Stadt"},"district":{"key":"09372","name":"Cham","type":"Landkreis"},"federalState":{"key":"09","name":"Bayern"}},{"name":"Schergenstr.","postalCode":"92444","locality":"Rötz","municipality":{"key":"09372154","name":"Rötz, St","type":"Stadt"},"district":{"key":"09372","name":"Cham","type":"Landkreis"},"federalState":{"key":"09","name":"Bayern"}},{"name":"Schlesierstr.","postalCode":"92444","locality":"Rötz","municipality":{"key":"09372154","name":"Rötz, St","type":"Stadt"},"district":{"key":"09372","name":"Cham","type":"Landkreis"},"federalState":{"key":"09","name":"Bayern"}},{"name":"Schmidtlerstr.","postalCode":"92444","locality":"Rötz","municipality":{"key":"09372154","name":"Rötz, St","type":"Stadt"},"district":{"key":"09372","name":"Cham","type":"Landkreis"},"federalState":{"key":"09","name":"Bayern"}},{"name":"Schulweg","postalCode":"15345","locality":"Prötzel","municipality":{"key":"12064393","name":"Prötzel","type":"Kreisangehörige_Gemeinde"},"district":{"key":"12064","name":"Märkisch-Oderland","type":"Landkreis"},"federalState":{"key":"12","name":"Brandenburg"}},{"name":"Schwanenstr.","postalCode":"92444","locality":"Rötz","municipality":{"key":"09372154","name":"Rötz, St","type":"Stadt"},"district":{"key":"09372","name":"Cham","type":"Landkreis"},"federalState":{"key":"09","name":"Bayern"}},{"name":"Schwarzenburgstr.","postalCode":"92444","locality":"Rötz","municipality":{"key":"09372154","name":"Rötz, St","type":"Stadt"},"district":{"key":"09372","name":"Cham","type":"Landkreis"},"federalState":{"key":"09","name":"Bayern"}},{"name":"Seestr.","postalCode":"15345","locality":"Prötzel","municipality":{"key":"12064393","name":"Prötzel","type":"Kreisangehörige_Gemeinde"},"district":{"key":"12064","name":"Märkisch-Oderland","type":"Landkreis"},"federalState":{"key":"12","name":"Brandenburg"}},{"name":"Seeweg","postalCode":"15345","locality":"Prötzel","municipality":{"key":"12064393","name":"Prötzel","type":"Kreisangehörige_Gemeinde"},"district":{"key":"12064","name":"Märkisch-Oderland","type":"Landkreis"},"federalState":{"key":"12","name":"Brandenburg"}},{"name":"Siedlerstr.","postalCode":"15345","locality":"Prötzel","municipality":{"key":"12064393","name":"Prötzel","type":"Kreisangehörige_Gemeinde"},"district":{"key":"12064","name":"Märkisch-Oderland","type":"Landkreis"},"federalState":{"key":"12","name":"Brandenburg"}},{"name":"Siedlungsweg","postalCode":"15345","locality":"Prötzel","municipality":{"key":"12064393","name":"Prötzel","type":"Kreisangehörige_Gemeinde"},"district":{"key":"12064","name":"Märkisch-Oderland","type":"Landkreis"},"federalState":{"key":"12","name":"Brandenburg"}},{"name":"Spitalplatz","postalCode":"92444","locality":"Rötz","municipality":{"key":"09372154","name":"Rötz, St","type":"Stadt"},"district":{"key":"09372","name":"Cham","type":"Landkreis"},"federalState":{"key":"09","name":"Bayern"}},{"name":"Stadtstelle","postalCode":"15345","locality":"Prötzel","municipality":{"key":"12064393","name":"Prötzel","type":"Kreisangehörige_Gemeinde"},"district":{"key":"12064","name":"Märkisch-Oderland","type":"Landkreis"},"federalState":{"key":"12","name":"Brandenburg"}},{"name":"Sternebecker Dorfstr.","postalCode":"15345","locality":"Prötzel","municipality":{"key":"12064393","name":"Prötzel","type":"Kreisangehörige_Gemeinde"},"district":{"key":"12064","name":"Märkisch-Oderland","type":"Landkreis"},"federalState":{"key":"12","name":"Brandenburg"}},{"name":"Sternebecker Str.","postalCode":"15345","locality":"Prötzel","municipality":{"key":"12064393","name":"Prötzel","type":"Kreisangehörige_Gemeinde"},"district":{"key":"12064","name":"Märkisch-Oderland","type":"Landkreis"},"federalState":{"key":"12","name":"Brandenburg"}},{"name":"Strausberger Str.","postalCode":"15345","locality":"Prötzel","municipality":{"key":"12064393","name":"Prötzel","type":"Kreisangehörige_Gemeinde"},"district":{"key":"12064","name":"Märkisch-Oderland","type":"Landkreis"},"federalState":{"key":"12","name":"Brandenburg"}},{"name":"Sturmstr.","postalCode":"92444","locality":"Rötz","municipality":{"key":"09372154","name":"Rötz, St","type":"Stadt"},"district":{"key":"09372","name":"Cham","type":"Landkreis"},"federalState":{"key":"09","name":"Bayern"}},{"name":"Sudetenstr.","postalCode":"92444","locality":"Rötz","municipality":{"key":"09372154","name":"Rötz, St","type":"Stadt"},"district":{"key":"09372","name":"Cham","type":"Landkreis"},"federalState":{"key":"09","name":"Bayern"}},{"name":"Tratweg","postalCode":"92444","locality":"Rötz","municipality":{"key":"09372154","name":"Rötz, St","type":"Stadt"},"district":{"key":"09372","name":"Cham","type":"Landkreis"},"federalState":{"key":"09","name":"Bayern"}},{"name":"Trobelsdorf","postalCode":"92444","locality":"Rötz","municipality":{"key":"09372154","name":"Rötz, St","type":"Stadt"},"district":{"key":"09372","name":"Cham","type":"Landkreis"},"federalState":{"key":"09","name":"Bayern"}},{"name":"Ulmenstr.","postalCode":"93413","locality":"Cham","municipality":{"key":"09372116","name":"Cham, St","type":"Stadt"},"district":{"key":"09372","name":"Cham","type":"Landkreis"},"federalState":{"key":"09","name":"Bayern"}},{"name":"Untere Bachstr.","postalCode":"93466","locality":"Chamerau","municipality":{"key":"09372117","name":"Chamerau","type":"Kreisangehörige_Gemeinde"},"district":{"key":"09372","name":"Cham","type":"Landkreis"},"federalState":{"key":"09","name":"Bayern"}},{"name":"Unterer Altbachweg","postalCode":"93413","locality":"Cham","municipality":{"key":"09372116","name":"Cham, St","type":"Stadt"},"district":{"key":"09372","name":"Cham","type":"Landkreis"},"federalState":{"key":"09","name":"Bayern"}},{"name":"Untere Regenstr.","postalCode":"93413","locality":"Cham","municipality":{"key":"09372116","name":"Cham, St","type":"Stadt"},"district":{"key":"09372","name":"Cham","type":"Landkreis"},"federalState":{"key":"09","name":"Bayern"}},{"name":"Untere Schulstr.","postalCode":"93413","locality":"Cham","municipality":{"key":"09372116","name":"Cham, St","type":"Stadt"},"district":{"key":"09372","name":"Cham","type":"Landkreis"},"federalState":{"key":"09","name":"Bayern"}},{"name":"Untertraubenbach","postalCode":"93413","locality":"Cham","municipality":{"key":"09372116","name":"Cham, St","type":"Stadt"},"district":{"key":"09372","name":"Cham","type":"Landkreis"},"federalState":{"key":"09","name":"Bayern"}},{"name":"Urbergweg","postalCode":"93413","locality":"Cham","municipality":{"key":"09372116","name":"Cham, St","type":"Stadt"},"district":{"key":"09372","name":"Cham","type":"Landkreis"},"federalState":{"key":"09","name":"Bayern"}},{"name":"Voitsried","postalCode":"92444","locality":"Rötz","municipality":{"key":"09372154","name":"Rötz, St","type":"Stadt"},"district":{"key":"09372","name":"Cham","type":"Landkreis"},"federalState":{"key":"09","name":"Bayern"}},{"name":"Von-Plauen-Str.","postalCode":"92444","locality":"Rötz","municipality":{"key":"09372154","name":"Rötz, St","type":"Stadt"},"district":{"key":"09372","name":"Cham","type":"Landkreis"},"federalState":{"key":"09","name":"Bayern"}},{"name":"Wasserstr.","postalCode":"92444","locality":"Rötz","municipality":{"key":"09372154","name":"Rötz, St","type":"Stadt"},"district":{"key":"09372","name":"Cham","type":"Landkreis"},"federalState":{"key":"09","name":"Bayern"}},{"name":"Wenzenried","postalCode":"92444","locality":"Rötz","municipality":{"key":"09372154","name":"Rötz, St","type":"Stadt"},"district":{"key":"09372","name":"Cham","type":"Landkreis"},"federalState":{"key":"09","name":"Bayern"}},{"name":"Winklarner Str.","postalCode":"92444","locality":"Rötz","municipality":{"key":"09372154","name":"Rötz, St","type":"Stadt"},"district":{"key":"09372","name":"Cham","type":"Landkreis"},"federalState":{"key":"09","name":"Bayern"}},{"name":"Wriezener Str.","postalCode":"15345","locality":"Prötzel","municipality":{"key":"12064393","name":"Prötzel","type":"Kreisangehörige_Gemeinde"},"district":{"key":"12064","name":"Märkisch-Oderland","type":"Landkreis"},"federalState":{"key":"12","name":"Brandenburg"}},{"name":"Xaver-Winklmann-Str.","postalCode":"92444","locality":"Rötz","municipality":{"key":"09372154","name":"Rötz, St","type":"Stadt"},"district":{"key":"09372","name":"Cham","type":"Landkreis"},"federalState":{"key":"09","name":"Bayern"}},{"name":"Ziegeleistr.","postalCode":"92444","locality":"Rötz","municipality":{"key":"09372154","name":"Rötz, St","type":"Stadt"},"district":{"key":"09372","name":"Cham","type":"Landkreis"},"federalState":{"key":"09","name":"Bayern"}},{"name":"Zum Gutshof","postalCode":"15345","locality":"Prötzel","municipality":{"key":"12064393","name":"Prötzel","type":"Kreisangehörige_Gemeinde"},"district":{"key":"12064","name":"Märkisch-Oderland","type":"Landkreis"},"federalState":{"key":"12","name":"Brandenburg"}},{"name":"Zur Alten Ziegelei","postalCode":"15345","locality":"Prötzel","municipality":{"key":"12064393","name":"Prötzel","type":"Kreisangehörige_Gemeinde"},"district":{"key":"12064","name":"Märkisch-Oderland","type":"Landkreis"},"federalState":{"key":"12","name":"Brandenburg"}},]