[{"name":"Brühlstr.","postalCode":"67823","locality":"Unkenbach","municipality":{"key":"07333078","name":"Unkenbach","type":"Kreisangehörige_Gemeinde"},"district":{"key":"07333","name":"Donnersbergkreis","type":"Landkreis"},"federalState":{"key":"07","name":"Rheinland-Pfalz"}},{"name":"Bundesstr.","postalCode":"67823","locality":"Unkenbach","municipality":{"key":"07333078","name":"Unkenbach","type":"Kreisangehörige_Gemeinde"},"district":{"key":"07333","name":"Donnersbergkreis","type":"Landkreis"},"federalState":{"key":"07","name":"Rheinland-Pfalz"}},{"name":"Dreispitz","postalCode":"67823","locality":"Unkenbach","municipality":{"key":"07333078","name":"Unkenbach","type":"Kreisangehörige_Gemeinde"},"district":{"key":"07333","name":"Donnersbergkreis","type":"Landkreis"},"federalState":{"key":"07","name":"Rheinland-Pfalz"}},{"name":"Felsengasse","postalCode":"67823","locality":"Unkenbach","municipality":{"key":"07333078","name":"Unkenbach","type":"Kreisangehörige_Gemeinde"},"district":{"key":"07333","name":"Donnersbergkreis","type":"Landkreis"},"federalState":{"key":"07","name":"Rheinland-Pfalz"}},{"name":"Hauptstr.","postalCode":"67823","locality":"Unkenbach","municipality":{"key":"07333078","name":"Unkenbach","type":"Kreisangehörige_Gemeinde"},"district":{"key":"07333","name":"Donnersbergkreis","type":"Landkreis"},"federalState":{"key":"07","name":"Rheinland-Pfalz"}},{"name":"Römerpfad","postalCode":"67823","locality":"Unkenbach","municipality":{"key":"07333078","name":"Unkenbach","type":"Kreisangehörige_Gemeinde"},"district":{"key":"07333","name":"Donnersbergkreis","type":"Landkreis"},"federalState":{"key":"07","name":"Rheinland-Pfalz"}},{"name":"Römerstr.","postalCode":"67823","locality":"Unkenbach","municipality":{"key":"07333078","name":"Unkenbach","type":"Kreisangehörige_Gemeinde"},"district":{"key":"07333","name":"Donnersbergkreis","type":"Landkreis"},"federalState":{"key":"07","name":"Rheinland-Pfalz"}},{"name":"Schleifstr.","postalCode":"67823","locality":"Unkenbach","municipality":{"key":"07333078","name":"Unkenbach","type":"Kreisangehörige_Gemeinde"},"district":{"key":"07333","name":"Donnersbergkreis","type":"Landkreis"},"federalState":{"key":"07","name":"Rheinland-Pfalz"}},{"name":"Schmitthügel","postalCode":"67823","locality":"Unkenbach","municipality":{"key":"07333078","name":"Unkenbach","type":"Kreisangehörige_Gemeinde"},"district":{"key":"07333","name":"Donnersbergkreis","type":"Landkreis"},"federalState":{"key":"07","name":"Rheinland-Pfalz"}},{"name":"Schulstr.","postalCode":"67823","locality":"Unkenbach","municipality":{"key":"07333078","name":"Unkenbach","type":"Kreisangehörige_Gemeinde"},"district":{"key":"07333","name":"Donnersbergkreis","type":"Landkreis"},"federalState":{"key":"07","name":"Rheinland-Pfalz"}},{"name":"Talstr.","postalCode":"67823","locality":"Unkenbach","municipality":{"key":"07333078","name":"Unkenbach","type":"Kreisangehörige_Gemeinde"},"district":{"key":"07333","name":"Donnersbergkreis","type":"Landkreis"},"federalState":{"key":"07","name":"Rheinland-Pfalz"}},{"name":"Zur Würzhölle","postalCode":"67823","locality":"Unkenbach","municipality":{"key":"07333078","name":"Unkenbach","type":"Kreisangehörige_Gemeinde"},"district":{"key":"07333","name":"Donnersbergkreis","type":"Landkreis"},"federalState":{"key":"07","name":"Rheinland-Pfalz"}},]