[{"key":"10054342","name":"Alphof","postalCode":"8165","locality":"Schleinikon","commune":{"key":"98","name":"Schleinikon","shortName":"Schleinikon"},"district":{"key":"104","name":"Bezirk Dielsdorf"},"canton":{"key":"1","code":"ZH","name":"Zürich"},"status":"Real"},{"key":"10197252","name":"Alpstrasse","postalCode":"8165","locality":"Schleinikon","commune":{"key":"98","name":"Schleinikon","shortName":"Schleinikon"},"district":{"key":"104","name":"Bezirk Dielsdorf"},"canton":{"key":"1","code":"ZH","name":"Zürich"},"status":"Real"},{"key":"10189892","name":"Auweg","postalCode":"8165","locality":"Schleinikon","commune":{"key":"98","name":"Schleinikon","shortName":"Schleinikon"},"district":{"key":"104","name":"Bezirk Dielsdorf"},"canton":{"key":"1","code":"ZH","name":"Zürich"},"status":"Real"},{"key":"10000836","name":"Bernalten","postalCode":"8165","locality":"Schleinikon","commune":{"key":"98","name":"Schleinikon","shortName":"Schleinikon"},"district":{"key":"104","name":"Bezirk Dielsdorf"},"canton":{"key":"1","code":"ZH","name":"Zürich"},"status":"Real"},{"key":"10157700","name":"Birkenweg","postalCode":"8165","locality":"Schleinikon","commune":{"key":"98","name":"Schleinikon","shortName":"Schleinikon"},"district":{"key":"104","name":"Bezirk Dielsdorf"},"canton":{"key":"1","code":"ZH","name":"Zürich"},"status":"Real"},{"key":"10000837","name":"Bluemwis","postalCode":"8165","locality":"Schleinikon","commune":{"key":"98","name":"Schleinikon","shortName":"Schleinikon"},"district":{"key":"104","name":"Bezirk Dielsdorf"},"canton":{"key":"1","code":"ZH","name":"Zürich"},"status":"Real"},{"key":"10196635","name":"Brünndliweg","postalCode":"8165","locality":"Schleinikon","commune":{"key":"98","name":"Schleinikon","shortName":"Schleinikon"},"district":{"key":"104","name":"Bezirk Dielsdorf"},"canton":{"key":"1","code":"ZH","name":"Zürich"},"status":"Real"},{"key":"10106337","name":"Buchenhof","postalCode":"8165","locality":"Schleinikon","commune":{"key":"98","name":"Schleinikon","shortName":"Schleinikon"},"district":{"key":"104","name":"Bezirk Dielsdorf"},"canton":{"key":"1","code":"ZH","name":"Zürich"},"status":"Real"},{"key":"10196636","name":"Buchenstrasse","postalCode":"8165","locality":"Schleinikon","commune":{"key":"98","name":"Schleinikon","shortName":"Schleinikon"},"district":{"key":"104","name":"Bezirk Dielsdorf"},"canton":{"key":"1","code":"ZH","name":"Zürich"},"status":"Real"},{"key":"10197253","name":"Chalstorfstrasse","postalCode":"8165","locality":"Schleinikon","commune":{"key":"98","name":"Schleinikon","shortName":"Schleinikon"},"district":{"key":"104","name":"Bezirk Dielsdorf"},"canton":{"key":"1","code":"ZH","name":"Zürich"},"status":"Real"},{"key":"10197254","name":"Chlupflochweg","postalCode":"8165","locality":"Schleinikon","commune":{"key":"98","name":"Schleinikon","shortName":"Schleinikon"},"district":{"key":"104","name":"Bezirk Dielsdorf"},"canton":{"key":"1","code":"ZH","name":"Zürich"},"status":"Real"},{"key":"10000838","name":"Chrüzacher","postalCode":"8165","locality":"Schleinikon","commune":{"key":"98","name":"Schleinikon","shortName":"Schleinikon"},"district":{"key":"104","name":"Bezirk Dielsdorf"},"canton":{"key":"1","code":"ZH","name":"Zürich"},"status":"Real"},{"key":"10197255","name":"Dachslerenstrasse","postalCode":"8165","locality":"Schleinikon","commune":{"key":"98","name":"Schleinikon","shortName":"Schleinikon"},"district":{"key":"104","name":"Bezirk Dielsdorf"},"canton":{"key":"1","code":"ZH","name":"Zürich"},"status":"Real"},{"key":"10100890","name":"Dorfrebenweg","postalCode":"8165","locality":"Schleinikon","commune":{"key":"98","name":"Schleinikon","shortName":"Schleinikon"},"district":{"key":"104","name":"Bezirk Dielsdorf"},"canton":{"key":"1","code":"ZH","name":"Zürich"},"status":"Real"},{"key":"10078578","name":"Dorfstrasse","postalCode":"8165","locality":"Schleinikon","commune":{"key":"98","name":"Schleinikon","shortName":"Schleinikon"},"district":{"key":"104","name":"Bezirk Dielsdorf"},"canton":{"key":"1","code":"ZH","name":"Zürich"},"status":"Real"},{"key":"10197385","name":"Egghaldenstrasse","postalCode":"8165","locality":"Schleinikon","commune":{"key":"98","name":"Schleinikon","shortName":"Schleinikon"},"district":{"key":"104","name":"Bezirk Dielsdorf"},"canton":{"key":"1","code":"ZH","name":"Zürich"},"status":"Real"},{"key":"10111012","name":"Eggstrasse","postalCode":"8165","locality":"Schleinikon","commune":{"key":"98","name":"Schleinikon","shortName":"Schleinikon"},"district":{"key":"104","name":"Bezirk Dielsdorf"},"canton":{"key":"1","code":"ZH","name":"Zürich"},"status":"Real"},{"key":"10197256","name":"Erspelweg","postalCode":"8165","locality":"Schleinikon","commune":{"key":"98","name":"Schleinikon","shortName":"Schleinikon"},"district":{"key":"104","name":"Bezirk Dielsdorf"},"canton":{"key":"1","code":"ZH","name":"Zürich"},"status":"Real"},{"key":"10000839","name":"Expohof","postalCode":"8165","locality":"Schleinikon","commune":{"key":"98","name":"Schleinikon","shortName":"Schleinikon"},"district":{"key":"104","name":"Bezirk Dielsdorf"},"canton":{"key":"1","code":"ZH","name":"Zürich"},"status":"Real"},{"key":"10197257","name":"Falmenweg","postalCode":"8165","locality":"Schleinikon","commune":{"key":"98","name":"Schleinikon","shortName":"Schleinikon"},"district":{"key":"104","name":"Bezirk Dielsdorf"},"canton":{"key":"1","code":"ZH","name":"Zürich"},"status":"Real"},{"key":"10197258","name":"Gänterweg","postalCode":"8165","locality":"Schleinikon","commune":{"key":"98","name":"Schleinikon","shortName":"Schleinikon"},"district":{"key":"104","name":"Bezirk Dielsdorf"},"canton":{"key":"1","code":"ZH","name":"Zürich"},"status":"Real"},{"key":"10197259","name":"Gerliweg","postalCode":"8165","locality":"Schleinikon","commune":{"key":"98","name":"Schleinikon","shortName":"Schleinikon"},"district":{"key":"104","name":"Bezirk Dielsdorf"},"canton":{"key":"1","code":"ZH","name":"Zürich"},"status":"Real"},{"key":"10197260","name":"Ghagenweg","postalCode":"8165","locality":"Schleinikon","commune":{"key":"98","name":"Schleinikon","shortName":"Schleinikon"},"district":{"key":"104","name":"Bezirk Dielsdorf"},"canton":{"key":"1","code":"ZH","name":"Zürich"},"status":"Real"},{"key":"10197261","name":"Gigerstrasse","postalCode":"8165","locality":"Schleinikon","commune":{"key":"98","name":"Schleinikon","shortName":"Schleinikon"},"district":{"key":"104","name":"Bezirk Dielsdorf"},"canton":{"key":"1","code":"ZH","name":"Zürich"},"status":"Real"},{"key":"10196638","name":"Gizenweg","postalCode":"8165","locality":"Schleinikon","commune":{"key":"98","name":"Schleinikon","shortName":"Schleinikon"},"district":{"key":"104","name":"Bezirk Dielsdorf"},"canton":{"key":"1","code":"ZH","name":"Zürich"},"status":"Real"},{"key":"10197262","name":"Gottfried-Meier-Strasse","postalCode":"8165","locality":"Schleinikon","commune":{"key":"98","name":"Schleinikon","shortName":"Schleinikon"},"district":{"key":"104","name":"Bezirk Dielsdorf"},"canton":{"key":"1","code":"ZH","name":"Zürich"},"status":"Real"},{"key":"10197263","name":"Grossättistrasse","postalCode":"8165","locality":"Schleinikon","commune":{"key":"98","name":"Schleinikon","shortName":"Schleinikon"},"district":{"key":"104","name":"Bezirk Dielsdorf"},"canton":{"key":"1","code":"ZH","name":"Zürich"},"status":"Real"},{"key":"10197264","name":"Grundlochstrasse","postalCode":"8165","locality":"Schleinikon","commune":{"key":"98","name":"Schleinikon","shortName":"Schleinikon"},"district":{"key":"104","name":"Bezirk Dielsdorf"},"canton":{"key":"1","code":"ZH","name":"Zürich"},"status":"Real"},{"key":"10197265","name":"Grundstrasse","postalCode":"8165","locality":"Schleinikon","commune":{"key":"98","name":"Schleinikon","shortName":"Schleinikon"},"district":{"key":"104","name":"Bezirk Dielsdorf"},"canton":{"key":"1","code":"ZH","name":"Zürich"},"status":"Real"},{"key":"10060837","name":"Hafnerhüttenweg","postalCode":"8165","locality":"Schleinikon","commune":{"key":"98","name":"Schleinikon","shortName":"Schleinikon"},"district":{"key":"104","name":"Bezirk Dielsdorf"},"canton":{"key":"1","code":"ZH","name":"Zürich"},"status":"Real"},{"key":"10197266","name":"Haustrasse","postalCode":"8165","locality":"Schleinikon","commune":{"key":"98","name":"Schleinikon","shortName":"Schleinikon"},"district":{"key":"104","name":"Bezirk Dielsdorf"},"canton":{"key":"1","code":"ZH","name":"Zürich"},"status":"Real"},{"key":"10078579","name":"Hinterdorfweg","postalCode":"8165","locality":"Schleinikon","commune":{"key":"98","name":"Schleinikon","shortName":"Schleinikon"},"district":{"key":"104","name":"Bezirk Dielsdorf"},"canton":{"key":"1","code":"ZH","name":"Zürich"},"status":"Real"},{"key":"10000840","name":"Hofwis","postalCode":"8165","locality":"Schleinikon","commune":{"key":"98","name":"Schleinikon","shortName":"Schleinikon"},"district":{"key":"104","name":"Bezirk Dielsdorf"},"canton":{"key":"1","code":"ZH","name":"Zürich"},"status":"Real"},{"key":"10115754","name":"Höhweg","postalCode":"8165","locality":"Schleinikon","commune":{"key":"98","name":"Schleinikon","shortName":"Schleinikon"},"district":{"key":"104","name":"Bezirk Dielsdorf"},"canton":{"key":"1","code":"ZH","name":"Zürich"},"status":"Real"},{"key":"10054343","name":"Im Winteler","postalCode":"8165","locality":"Schleinikon","commune":{"key":"98","name":"Schleinikon","shortName":"Schleinikon"},"district":{"key":"104","name":"Bezirk Dielsdorf"},"canton":{"key":"1","code":"ZH","name":"Zürich"},"status":"Real"},{"key":"10000841","name":"In der Längg","postalCode":"8165","locality":"Schleinikon","commune":{"key":"98","name":"Schleinikon","shortName":"Schleinikon"},"district":{"key":"104","name":"Bezirk Dielsdorf"},"canton":{"key":"1","code":"ZH","name":"Zürich"},"status":"Real"},{"key":"10197267","name":"Innere Ringstrasse","postalCode":"8165","locality":"Schleinikon","commune":{"key":"98","name":"Schleinikon","shortName":"Schleinikon"},"district":{"key":"104","name":"Bezirk Dielsdorf"},"canton":{"key":"1","code":"ZH","name":"Zürich"},"status":"Real"},{"key":"10078580","name":"Lägerenstrasse","postalCode":"8165","locality":"Schleinikon","commune":{"key":"98","name":"Schleinikon","shortName":"Schleinikon"},"district":{"key":"104","name":"Bezirk Dielsdorf"},"canton":{"key":"1","code":"ZH","name":"Zürich"},"status":"Real"},{"key":"10054344","name":"Lägerenweid","postalCode":"8165","locality":"Schleinikon","commune":{"key":"98","name":"Schleinikon","shortName":"Schleinikon"},"district":{"key":"104","name":"Bezirk Dielsdorf"},"canton":{"key":"1","code":"ZH","name":"Zürich"},"status":"Real"},{"key":"10196639","name":"Lägerenweidstrasse","postalCode":"8165","locality":"Schleinikon","commune":{"key":"98","name":"Schleinikon","shortName":"Schleinikon"},"district":{"key":"104","name":"Bezirk Dielsdorf"},"canton":{"key":"1","code":"ZH","name":"Zürich"},"status":"Real"},{"key":"10196640","name":"Länggstrasse","postalCode":"8165","locality":"Schleinikon","commune":{"key":"98","name":"Schleinikon","shortName":"Schleinikon"},"district":{"key":"104","name":"Bezirk Dielsdorf"},"canton":{"key":"1","code":"ZH","name":"Zürich"},"status":"Real"},{"key":"10136789","name":"Langrüti","postalCode":"8165","locality":"Schleinikon","commune":{"key":"98","name":"Schleinikon","shortName":"Schleinikon"},"district":{"key":"104","name":"Bezirk Dielsdorf"},"canton":{"key":"1","code":"ZH","name":"Zürich"},"status":"Real"},{"key":"10196641","name":"Leeweg","postalCode":"8165","locality":"Schleinikon","commune":{"key":"98","name":"Schleinikon","shortName":"Schleinikon"},"district":{"key":"104","name":"Bezirk Dielsdorf"},"canton":{"key":"1","code":"ZH","name":"Zürich"},"status":"Real"},{"key":"10000842","name":"Leibachweg","postalCode":"8165","locality":"Schleinikon","commune":{"key":"98","name":"Schleinikon","shortName":"Schleinikon"},"district":{"key":"104","name":"Bezirk Dielsdorf"},"canton":{"key":"1","code":"ZH","name":"Zürich"},"status":"Real"},{"key":"10197269","name":"Niederweningerbach Äussere Ringstrasse","postalCode":"8165","locality":"Schleinikon","commune":{"key":"98","name":"Schleinikon","shortName":"Schleinikon"},"district":{"key":"104","name":"Bezirk Dielsdorf"},"canton":{"key":"1","code":"ZH","name":"Zürich"},"status":"Real"},{"key":"10197270","name":"Obere Lägerenweidstrasse","postalCode":"8165","locality":"Schleinikon","commune":{"key":"98","name":"Schleinikon","shortName":"Schleinikon"},"district":{"key":"104","name":"Bezirk Dielsdorf"},"canton":{"key":"1","code":"ZH","name":"Zürich"},"status":"Real"},{"key":"10197271","name":"Oberweningerbach Äussere Ringstrasse","postalCode":"8165","locality":"Schleinikon","commune":{"key":"98","name":"Schleinikon","shortName":"Schleinikon"},"district":{"key":"104","name":"Bezirk Dielsdorf"},"canton":{"key":"1","code":"ZH","name":"Zürich"},"status":"Real"},{"key":"10197272","name":"Pflanzgartenstrasse","postalCode":"8165","locality":"Schleinikon","commune":{"key":"98","name":"Schleinikon","shortName":"Schleinikon"},"district":{"key":"104","name":"Bezirk Dielsdorf"},"canton":{"key":"1","code":"ZH","name":"Zürich"},"status":"Real"},{"key":"10197488","name":"Plattenbücklistrasse","postalCode":"8165","locality":"Schleinikon","commune":{"key":"98","name":"Schleinikon","shortName":"Schleinikon"},"district":{"key":"104","name":"Bezirk Dielsdorf"},"canton":{"key":"1","code":"ZH","name":"Zürich"},"status":"Real"},{"key":"10197489","name":"Plattenstrasse","postalCode":"8165","locality":"Schleinikon","commune":{"key":"98","name":"Schleinikon","shortName":"Schleinikon"},"district":{"key":"104","name":"Bezirk Dielsdorf"},"canton":{"key":"1","code":"ZH","name":"Zürich"},"status":"Real"},{"key":"10197490","name":"Plutzrainweg","postalCode":"8165","locality":"Schleinikon","commune":{"key":"98","name":"Schleinikon","shortName":"Schleinikon"},"district":{"key":"104","name":"Bezirk Dielsdorf"},"canton":{"key":"1","code":"ZH","name":"Zürich"},"status":"Real"},{"key":"10197491","name":"Ramswinkelstrasse","postalCode":"8165","locality":"Schleinikon","commune":{"key":"98","name":"Schleinikon","shortName":"Schleinikon"},"district":{"key":"104","name":"Bezirk Dielsdorf"},"canton":{"key":"1","code":"ZH","name":"Zürich"},"status":"Real"},{"key":"10196642","name":"Rebengässliweg","postalCode":"8165","locality":"Schleinikon","commune":{"key":"98","name":"Schleinikon","shortName":"Schleinikon"},"district":{"key":"104","name":"Bezirk Dielsdorf"},"canton":{"key":"1","code":"ZH","name":"Zürich"},"status":"Real"},{"key":"10197492","name":"Risistrasse","postalCode":"8165","locality":"Schleinikon","commune":{"key":"98","name":"Schleinikon","shortName":"Schleinikon"},"district":{"key":"104","name":"Bezirk Dielsdorf"},"canton":{"key":"1","code":"ZH","name":"Zürich"},"status":"Real"},{"key":"10197493","name":"Rorweg","postalCode":"8165","locality":"Schleinikon","commune":{"key":"98","name":"Schleinikon","shortName":"Schleinikon"},"district":{"key":"104","name":"Bezirk Dielsdorf"},"canton":{"key":"1","code":"ZH","name":"Zürich"},"status":"Real"},{"key":"10111013","name":"Rotbuechstrasse","postalCode":"8165","locality":"Schleinikon","commune":{"key":"98","name":"Schleinikon","shortName":"Schleinikon"},"district":{"key":"104","name":"Bezirk Dielsdorf"},"canton":{"key":"1","code":"ZH","name":"Zürich"},"status":"Real"},{"key":"10000843","name":"Rütenen","postalCode":"8165","locality":"Schleinikon","commune":{"key":"98","name":"Schleinikon","shortName":"Schleinikon"},"district":{"key":"104","name":"Bezirk Dielsdorf"},"canton":{"key":"1","code":"ZH","name":"Zürich"},"status":"Real"},{"key":"10197494","name":"Rütenenstrasse","postalCode":"8165","locality":"Schleinikon","commune":{"key":"98","name":"Schleinikon","shortName":"Schleinikon"},"district":{"key":"104","name":"Bezirk Dielsdorf"},"canton":{"key":"1","code":"ZH","name":"Zürich"},"status":"Real"},{"key":"10197495","name":"Schleinikonerstrasse","postalCode":"8165","locality":"Schleinikon","commune":{"key":"98","name":"Schleinikon","shortName":"Schleinikon"},"district":{"key":"104","name":"Bezirk Dielsdorf"},"canton":{"key":"1","code":"ZH","name":"Zürich"},"status":"Real"},{"key":"10197496","name":"Schnötenweg","postalCode":"8165","locality":"Schleinikon","commune":{"key":"98","name":"Schleinikon","shortName":"Schleinikon"},"district":{"key":"104","name":"Bezirk Dielsdorf"},"canton":{"key":"1","code":"ZH","name":"Zürich"},"status":"Real"},{"key":"10060838","name":"Sennhüttenweg","postalCode":"8165","locality":"Schleinikon","commune":{"key":"98","name":"Schleinikon","shortName":"Schleinikon"},"district":{"key":"104","name":"Bezirk Dielsdorf"},"canton":{"key":"1","code":"ZH","name":"Zürich"},"status":"Real"},{"key":"10197497","name":"Sprängiweg","postalCode":"8165","locality":"Schleinikon","commune":{"key":"98","name":"Schleinikon","shortName":"Schleinikon"},"district":{"key":"104","name":"Bezirk Dielsdorf"},"canton":{"key":"1","code":"ZH","name":"Zürich"},"status":"Real"},{"key":"10110253","name":"Stegacherstrasse","postalCode":"8165","locality":"Schleinikon","commune":{"key":"98","name":"Schleinikon","shortName":"Schleinikon"},"district":{"key":"104","name":"Bezirk Dielsdorf"},"canton":{"key":"1","code":"ZH","name":"Zürich"},"status":"Real"},{"key":"10078581","name":"Steindlerweg","postalCode":"8165","locality":"Schleinikon","commune":{"key":"98","name":"Schleinikon","shortName":"Schleinikon"},"district":{"key":"104","name":"Bezirk Dielsdorf"},"canton":{"key":"1","code":"ZH","name":"Zürich"},"status":"Real"},{"key":"10197498","name":"Stockacherweg","postalCode":"8165","locality":"Schleinikon","commune":{"key":"98","name":"Schleinikon","shortName":"Schleinikon"},"district":{"key":"104","name":"Bezirk Dielsdorf"},"canton":{"key":"1","code":"ZH","name":"Zürich"},"status":"Real"},{"key":"10054032","name":"Talweg","postalCode":"8165","locality":"Schleinikon","commune":{"key":"98","name":"Schleinikon","shortName":"Schleinikon"},"district":{"key":"104","name":"Bezirk Dielsdorf"},"canton":{"key":"1","code":"ZH","name":"Zürich"},"status":"Real"},{"key":"10235244","name":"Ueli-Derrer Platz","postalCode":"8165","locality":"Schleinikon","commune":{"key":"98","name":"Schleinikon","shortName":"Schleinikon"},"district":{"key":"104","name":"Bezirk Dielsdorf"},"canton":{"key":"1","code":"ZH","name":"Zürich"},"status":"Real"},{"key":"10197499","name":"Untere Grossättistrasse","postalCode":"8165","locality":"Schleinikon","commune":{"key":"98","name":"Schleinikon","shortName":"Schleinikon"},"district":{"key":"104","name":"Bezirk Dielsdorf"},"canton":{"key":"1","code":"ZH","name":"Zürich"},"status":"Real"},{"key":"10197500","name":"Unterer Schnötenweg","postalCode":"8165","locality":"Schleinikon","commune":{"key":"98","name":"Schleinikon","shortName":"Schleinikon"},"district":{"key":"104","name":"Bezirk Dielsdorf"},"canton":{"key":"1","code":"ZH","name":"Zürich"},"status":"Real"},{"key":"10113656","name":"Wärterhaus","postalCode":"8165","locality":"Schleinikon","commune":{"key":"98","name":"Schleinikon","shortName":"Schleinikon"},"district":{"key":"104","name":"Bezirk Dielsdorf"},"canton":{"key":"1","code":"ZH","name":"Zürich"},"status":"Real"},{"key":"10000844","name":"Wehntalerstrasse","postalCode":"8165","locality":"Schleinikon","commune":{"key":"98","name":"Schleinikon","shortName":"Schleinikon"},"district":{"key":"104","name":"Bezirk Dielsdorf"},"canton":{"key":"1","code":"ZH","name":"Zürich"},"status":"Real"},{"key":"10197501","name":"Wigrabenweg","postalCode":"8165","locality":"Schleinikon","commune":{"key":"98","name":"Schleinikon","shortName":"Schleinikon"},"district":{"key":"104","name":"Bezirk Dielsdorf"},"canton":{"key":"1","code":"ZH","name":"Zürich"},"status":"Real"},{"key":"10196644","name":"Wintelerweg","postalCode":"8165","locality":"Schleinikon","commune":{"key":"98","name":"Schleinikon","shortName":"Schleinikon"},"district":{"key":"104","name":"Bezirk Dielsdorf"},"canton":{"key":"1","code":"ZH","name":"Zürich"},"status":"Real"},{"key":"10196645","name":"Zieglerstrasse","postalCode":"8165","locality":"Schleinikon","commune":{"key":"98","name":"Schleinikon","shortName":"Schleinikon"},"district":{"key":"104","name":"Bezirk Dielsdorf"},"canton":{"key":"1","code":"ZH","name":"Zürich"},"status":"Real"},{"key":"10197502","name":"Zopfweg","postalCode":"8165","locality":"Schleinikon","commune":{"key":"98","name":"Schleinikon","shortName":"Schleinikon"},"district":{"key":"104","name":"Bezirk Dielsdorf"},"canton":{"key":"1","code":"ZH","name":"Zürich"},"status":"Real"},{"key":"10196646","name":"Zweierweg","postalCode":"8165","locality":"Schleinikon","commune":{"key":"98","name":"Schleinikon","shortName":"Schleinikon"},"district":{"key":"104","name":"Bezirk Dielsdorf"},"canton":{"key":"1","code":"ZH","name":"Zürich"},"status":"Real"},{"key":"10120709","name":"Zythüslistrasse","postalCode":"8165","locality":"Schleinikon","commune":{"key":"98","name":"Schleinikon","shortName":"Schleinikon"},"district":{"key":"104","name":"Bezirk Dielsdorf"},"canton":{"key":"1","code":"ZH","name":"Zürich"},"status":"Real"},]