[{"key":"10258986","name":"Alpstrasse","postalCode":"7402","locality":"Bonaduz","commune":{"key":"3721","name":"Bonaduz","shortName":"Bonaduz"},"district":{"key":"1844","name":"Region Imboden"},"canton":{"key":"18","code":"GR","name":"Graubünden / Grigioni / Grischun"},"status":"Real"},{"key":"10097425","name":"Bächliweg","postalCode":"7402","locality":"Bonaduz","commune":{"key":"3721","name":"Bonaduz","shortName":"Bonaduz"},"district":{"key":"1844","name":"Region Imboden"},"canton":{"key":"18","code":"GR","name":"Graubünden / Grigioni / Grischun"},"status":"Real"},{"key":"10026924","name":"Bahnstrasse","postalCode":"7402","locality":"Bonaduz","commune":{"key":"3721","name":"Bonaduz","shortName":"Bonaduz"},"district":{"key":"1844","name":"Region Imboden"},"canton":{"key":"18","code":"GR","name":"Graubünden / Grigioni / Grischun"},"status":"Real"},{"key":"10235994","name":"Bavurtga","postalCode":"7402","locality":"Bonaduz","commune":{"key":"3721","name":"Bonaduz","shortName":"Bonaduz"},"district":{"key":"1844","name":"Region Imboden"},"canton":{"key":"18","code":"GR","name":"Graubünden / Grigioni / Grischun"},"status":"Real"},{"key":"10129410","name":"Blumenweg","postalCode":"7402","locality":"Bonaduz","commune":{"key":"3721","name":"Bonaduz","shortName":"Bonaduz"},"district":{"key":"1844","name":"Region Imboden"},"canton":{"key":"18","code":"GR","name":"Graubünden / Grigioni / Grischun"},"status":"Real"},{"key":"10216490","name":"Bürgerweg","postalCode":"7402","locality":"Bonaduz","commune":{"key":"3721","name":"Bonaduz","shortName":"Bonaduz"},"district":{"key":"1844","name":"Region Imboden"},"canton":{"key":"18","code":"GR","name":"Graubünden / Grigioni / Grischun"},"status":"Real"},{"key":"10109506","name":"Campogna","postalCode":"7402","locality":"Bonaduz","commune":{"key":"3721","name":"Bonaduz","shortName":"Bonaduz"},"district":{"key":"1844","name":"Region Imboden"},"canton":{"key":"18","code":"GR","name":"Graubünden / Grigioni / Grischun"},"status":"Real"},{"key":"10259380","name":"Chnorra","postalCode":"7402","locality":"Bonaduz","commune":{"key":"3721","name":"Bonaduz","shortName":"Bonaduz"},"district":{"key":"1844","name":"Region Imboden"},"canton":{"key":"18","code":"GR","name":"Graubünden / Grigioni / Grischun"},"status":"Real"},{"key":"10108816","name":"Dorfstrasse","postalCode":"7402","locality":"Bonaduz","commune":{"key":"3721","name":"Bonaduz","shortName":"Bonaduz"},"district":{"key":"1844","name":"Region Imboden"},"canton":{"key":"18","code":"GR","name":"Graubünden / Grigioni / Grischun"},"status":"Real"},{"key":"10097426","name":"Gartenweg","postalCode":"7402","locality":"Bonaduz","commune":{"key":"3721","name":"Bonaduz","shortName":"Bonaduz"},"district":{"key":"1844","name":"Region Imboden"},"canton":{"key":"18","code":"GR","name":"Graubünden / Grigioni / Grischun"},"status":"Real"},{"key":"10129673","name":"Gassa Casti","postalCode":"7402","locality":"Bonaduz","commune":{"key":"3721","name":"Bonaduz","shortName":"Bonaduz"},"district":{"key":"1844","name":"Region Imboden"},"canton":{"key":"18","code":"GR","name":"Graubünden / Grigioni / Grischun"},"status":"Real"},{"key":"10072153","name":"Gassa Curta","postalCode":"7402","locality":"Bonaduz","commune":{"key":"3721","name":"Bonaduz","shortName":"Bonaduz"},"district":{"key":"1844","name":"Region Imboden"},"canton":{"key":"18","code":"GR","name":"Graubünden / Grigioni / Grischun"},"status":"Real"},{"key":"10026926","name":"Gassa Ruver","postalCode":"7402","locality":"Bonaduz","commune":{"key":"3721","name":"Bonaduz","shortName":"Bonaduz"},"district":{"key":"1844","name":"Region Imboden"},"canton":{"key":"18","code":"GR","name":"Graubünden / Grigioni / Grischun"},"status":"Real"},{"key":"10191864","name":"Gassa Sableun","postalCode":"7402","locality":"Bonaduz","commune":{"key":"3721","name":"Bonaduz","shortName":"Bonaduz"},"district":{"key":"1844","name":"Region Imboden"},"canton":{"key":"18","code":"GR","name":"Graubünden / Grigioni / Grischun"},"status":"Real"},{"key":"10026927","name":"Gassa Vicrusch","postalCode":"7402","locality":"Bonaduz","commune":{"key":"3721","name":"Bonaduz","shortName":"Bonaduz"},"district":{"key":"1844","name":"Region Imboden"},"canton":{"key":"18","code":"GR","name":"Graubünden / Grigioni / Grischun"},"status":"Real"},{"key":"10026928","name":"Hauptstrasse","postalCode":"7402","locality":"Bonaduz","commune":{"key":"3721","name":"Bonaduz","shortName":"Bonaduz"},"district":{"key":"1844","name":"Region Imboden"},"canton":{"key":"18","code":"GR","name":"Graubünden / Grigioni / Grischun"},"status":"Real"},{"key":"10072154","name":"Industriestrasse","postalCode":"7402","locality":"Bonaduz","commune":{"key":"3721","name":"Bonaduz","shortName":"Bonaduz"},"district":{"key":"1844","name":"Region Imboden"},"canton":{"key":"18","code":"GR","name":"Graubünden / Grigioni / Grischun"},"status":"Real"},{"key":"10259349","name":"Innerhof","postalCode":"7402","locality":"Bonaduz","commune":{"key":"3721","name":"Bonaduz","shortName":"Bonaduz"},"district":{"key":"1844","name":"Region Imboden"},"canton":{"key":"18","code":"GR","name":"Graubünden / Grigioni / Grischun"},"status":"Real"},{"key":"10258983","name":"Isla Davon","postalCode":"7402","locality":"Bonaduz","commune":{"key":"3721","name":"Bonaduz","shortName":"Bonaduz"},"district":{"key":"1844","name":"Region Imboden"},"canton":{"key":"18","code":"GR","name":"Graubünden / Grigioni / Grischun"},"status":"Real"},{"key":"10258985","name":"Isla Davos","postalCode":"7402","locality":"Bonaduz","commune":{"key":"3721","name":"Bonaduz","shortName":"Bonaduz"},"district":{"key":"1844","name":"Region Imboden"},"canton":{"key":"18","code":"GR","name":"Graubünden / Grigioni / Grischun"},"status":"Real"},{"key":"10026929","name":"Islaweg","postalCode":"7402","locality":"Bonaduz","commune":{"key":"3721","name":"Bonaduz","shortName":"Bonaduz"},"district":{"key":"1844","name":"Region Imboden"},"canton":{"key":"18","code":"GR","name":"Graubünden / Grigioni / Grischun"},"status":"Real"},{"key":"10258984","name":"Italienische Strasse","postalCode":"7402","locality":"Bonaduz","commune":{"key":"3721","name":"Bonaduz","shortName":"Bonaduz"},"district":{"key":"1844","name":"Region Imboden"},"canton":{"key":"18","code":"GR","name":"Graubünden / Grigioni / Grischun"},"status":"Real"},{"key":"10097427","name":"Kirchgasse","postalCode":"7402","locality":"Bonaduz","commune":{"key":"3721","name":"Bonaduz","shortName":"Bonaduz"},"district":{"key":"1844","name":"Region Imboden"},"canton":{"key":"18","code":"GR","name":"Graubünden / Grigioni / Grischun"},"status":"Real"},{"key":"10176472","name":"Kirchstrasse","postalCode":"7402","locality":"Bonaduz","commune":{"key":"3721","name":"Bonaduz","shortName":"Bonaduz"},"district":{"key":"1844","name":"Region Imboden"},"canton":{"key":"18","code":"GR","name":"Graubünden / Grigioni / Grischun"},"status":"Real"},{"key":"10160294","name":"Krutgartaweg","postalCode":"7402","locality":"Bonaduz","commune":{"key":"3721","name":"Bonaduz","shortName":"Bonaduz"},"district":{"key":"1844","name":"Region Imboden"},"canton":{"key":"18","code":"GR","name":"Graubünden / Grigioni / Grischun"},"status":"Real"},{"key":"10259379","name":"Lochwaldweg","postalCode":"7402","locality":"Bonaduz","commune":{"key":"3721","name":"Bonaduz","shortName":"Bonaduz"},"district":{"key":"1844","name":"Region Imboden"},"canton":{"key":"18","code":"GR","name":"Graubünden / Grigioni / Grischun"},"status":"Real"},{"key":"10242386","name":"Löser","postalCode":"7402","locality":"Bonaduz","commune":{"key":"3721","name":"Bonaduz","shortName":"Bonaduz"},"district":{"key":"1844","name":"Region Imboden"},"canton":{"key":"18","code":"GR","name":"Graubünden / Grigioni / Grischun"},"status":"Real"},{"key":"10197275","name":"Löserweg","postalCode":"7402","locality":"Bonaduz","commune":{"key":"3721","name":"Bonaduz","shortName":"Bonaduz"},"district":{"key":"1844","name":"Region Imboden"},"canton":{"key":"18","code":"GR","name":"Graubünden / Grigioni / Grischun"},"status":"Real"},{"key":"10026930","name":"Mezvitg","postalCode":"7402","locality":"Bonaduz","commune":{"key":"3721","name":"Bonaduz","shortName":"Bonaduz"},"district":{"key":"1844","name":"Region Imboden"},"canton":{"key":"18","code":"GR","name":"Graubünden / Grigioni / Grischun"},"status":"Real"},{"key":"10026931","name":"Montalinweg","postalCode":"7402","locality":"Bonaduz","commune":{"key":"3721","name":"Bonaduz","shortName":"Bonaduz"},"district":{"key":"1844","name":"Region Imboden"},"canton":{"key":"18","code":"GR","name":"Graubünden / Grigioni / Grischun"},"status":"Real"},{"key":"10185242","name":"Oberdorfstrasse","postalCode":"7402","locality":"Bonaduz","commune":{"key":"3721","name":"Bonaduz","shortName":"Bonaduz"},"district":{"key":"1844","name":"Region Imboden"},"canton":{"key":"18","code":"GR","name":"Graubünden / Grigioni / Grischun"},"status":"Real"},{"key":"10097428","name":"Obere Bahnhofstrasse","postalCode":"7402","locality":"Bonaduz","commune":{"key":"3721","name":"Bonaduz","shortName":"Bonaduz"},"district":{"key":"1844","name":"Region Imboden"},"canton":{"key":"18","code":"GR","name":"Graubünden / Grigioni / Grischun"},"status":"Real"},{"key":"10191143","name":"Parstogn","postalCode":"7402","locality":"Bonaduz","commune":{"key":"3721","name":"Bonaduz","shortName":"Bonaduz"},"district":{"key":"1844","name":"Region Imboden"},"canton":{"key":"18","code":"GR","name":"Graubünden / Grigioni / Grischun"},"status":"Real"},{"key":"10155636","name":"Plaz","postalCode":"7402","locality":"Bonaduz","commune":{"key":"3721","name":"Bonaduz","shortName":"Bonaduz"},"district":{"key":"1844","name":"Region Imboden"},"canton":{"key":"18","code":"GR","name":"Graubünden / Grigioni / Grischun"},"status":"Real"},{"key":"10025508","name":"Porta Ginellas","postalCode":"7402","locality":"Bonaduz","commune":{"key":"3721","name":"Bonaduz","shortName":"Bonaduz"},"district":{"key":"1844","name":"Region Imboden"},"canton":{"key":"18","code":"GR","name":"Graubünden / Grigioni / Grischun"},"status":"Real"},{"key":"10025509","name":"Prau Tena","postalCode":"7402","locality":"Bonaduz","commune":{"key":"3721","name":"Bonaduz","shortName":"Bonaduz"},"district":{"key":"1844","name":"Region Imboden"},"canton":{"key":"18","code":"GR","name":"Graubünden / Grigioni / Grischun"},"status":"Real"},{"key":"10258987","name":"Salums","postalCode":"7402","locality":"Bonaduz","commune":{"key":"3721","name":"Bonaduz","shortName":"Bonaduz"},"district":{"key":"1844","name":"Region Imboden"},"canton":{"key":"18","code":"GR","name":"Graubünden / Grigioni / Grischun"},"status":"Real"},{"key":"10072155","name":"Scardanal","postalCode":"7402","locality":"Bonaduz","commune":{"key":"3721","name":"Bonaduz","shortName":"Bonaduz"},"district":{"key":"1844","name":"Region Imboden"},"canton":{"key":"18","code":"GR","name":"Graubünden / Grigioni / Grischun"},"status":"Real"},{"key":"10097429","name":"Schulhausstrasse","postalCode":"7402","locality":"Bonaduz","commune":{"key":"3721","name":"Bonaduz","shortName":"Bonaduz"},"district":{"key":"1844","name":"Region Imboden"},"canton":{"key":"18","code":"GR","name":"Graubünden / Grigioni / Grischun"},"status":"Real"},{"key":"10211274","name":"Sculmserstrasse","postalCode":"7402","locality":"Bonaduz","commune":{"key":"3721","name":"Bonaduz","shortName":"Bonaduz"},"district":{"key":"1844","name":"Region Imboden"},"canton":{"key":"18","code":"GR","name":"Graubünden / Grigioni / Grischun"},"status":"Real"},{"key":"10072156","name":"Sculmserstrasse","postalCode":"7402","locality":"Bonaduz","commune":{"key":"3721","name":"Bonaduz","shortName":"Bonaduz"},"district":{"key":"1844","name":"Region Imboden"},"canton":{"key":"18","code":"GR","name":"Graubünden / Grigioni / Grischun"},"status":"Real"},{"key":"10176473","name":"Sonnenweg","postalCode":"7402","locality":"Bonaduz","commune":{"key":"3721","name":"Bonaduz","shortName":"Bonaduz"},"district":{"key":"1844","name":"Region Imboden"},"canton":{"key":"18","code":"GR","name":"Graubünden / Grigioni / Grischun"},"status":"Real"},{"key":"10124694","name":"Untere Bahnhofstrasse","postalCode":"7402","locality":"Bonaduz","commune":{"key":"3721","name":"Bonaduz","shortName":"Bonaduz"},"district":{"key":"1844","name":"Region Imboden"},"canton":{"key":"18","code":"GR","name":"Graubünden / Grigioni / Grischun"},"status":"Real"},{"key":"10025512","name":"Val","postalCode":"7402","locality":"Bonaduz","commune":{"key":"3721","name":"Bonaduz","shortName":"Bonaduz"},"district":{"key":"1844","name":"Region Imboden"},"canton":{"key":"18","code":"GR","name":"Graubünden / Grigioni / Grischun"},"status":"Real"},{"key":"10072157","name":"Valbeuna","postalCode":"7402","locality":"Bonaduz","commune":{"key":"3721","name":"Bonaduz","shortName":"Bonaduz"},"district":{"key":"1844","name":"Region Imboden"},"canton":{"key":"18","code":"GR","name":"Graubünden / Grigioni / Grischun"},"status":"Real"},{"key":"10097430","name":"Versamerstrasse","postalCode":"7402","locality":"Bonaduz","commune":{"key":"3721","name":"Bonaduz","shortName":"Bonaduz"},"district":{"key":"1844","name":"Region Imboden"},"canton":{"key":"18","code":"GR","name":"Graubünden / Grigioni / Grischun"},"status":"Real"},{"key":"10146939","name":"Via Atria","postalCode":"7402","locality":"Bonaduz","commune":{"key":"3721","name":"Bonaduz","shortName":"Bonaduz"},"district":{"key":"1844","name":"Region Imboden"},"canton":{"key":"18","code":"GR","name":"Graubünden / Grigioni / Grischun"},"status":"Real"},{"key":"10089718","name":"Via Aulta","postalCode":"7402","locality":"Bonaduz","commune":{"key":"3721","name":"Bonaduz","shortName":"Bonaduz"},"district":{"key":"1844","name":"Region Imboden"},"canton":{"key":"18","code":"GR","name":"Graubünden / Grigioni / Grischun"},"status":"Real"},{"key":"10216506","name":"Via Campagna","postalCode":"7402","locality":"Bonaduz","commune":{"key":"3721","name":"Bonaduz","shortName":"Bonaduz"},"district":{"key":"1844","name":"Region Imboden"},"canton":{"key":"18","code":"GR","name":"Graubünden / Grigioni / Grischun"},"status":"Real"},{"key":"10192694","name":"Via Carrera","postalCode":"7402","locality":"Bonaduz","commune":{"key":"3721","name":"Bonaduz","shortName":"Bonaduz"},"district":{"key":"1844","name":"Region Imboden"},"canton":{"key":"18","code":"GR","name":"Graubünden / Grigioni / Grischun"},"status":"Real"},{"key":"10025513","name":"Via Caschners","postalCode":"7402","locality":"Bonaduz","commune":{"key":"3721","name":"Bonaduz","shortName":"Bonaduz"},"district":{"key":"1844","name":"Region Imboden"},"canton":{"key":"18","code":"GR","name":"Graubünden / Grigioni / Grischun"},"status":"Real"},{"key":"10148701","name":"Via Crest","postalCode":"7402","locality":"Bonaduz","commune":{"key":"3721","name":"Bonaduz","shortName":"Bonaduz"},"district":{"key":"1844","name":"Region Imboden"},"canton":{"key":"18","code":"GR","name":"Graubünden / Grigioni / Grischun"},"status":"Real"},{"key":"10025514","name":"Via Crusch","postalCode":"7402","locality":"Bonaduz","commune":{"key":"3721","name":"Bonaduz","shortName":"Bonaduz"},"district":{"key":"1844","name":"Region Imboden"},"canton":{"key":"18","code":"GR","name":"Graubünden / Grigioni / Grischun"},"status":"Real"},{"key":"10072158","name":"Via Danisch","postalCode":"7402","locality":"Bonaduz","commune":{"key":"3721","name":"Bonaduz","shortName":"Bonaduz"},"district":{"key":"1844","name":"Region Imboden"},"canton":{"key":"18","code":"GR","name":"Graubünden / Grigioni / Grischun"},"status":"Real"},{"key":"10258988","name":"Via Farsch","postalCode":"7402","locality":"Bonaduz","commune":{"key":"3721","name":"Bonaduz","shortName":"Bonaduz"},"district":{"key":"1844","name":"Region Imboden"},"canton":{"key":"18","code":"GR","name":"Graubünden / Grigioni / Grischun"},"status":"Real"},{"key":"10025515","name":"Via Ginellas","postalCode":"7402","locality":"Bonaduz","commune":{"key":"3721","name":"Bonaduz","shortName":"Bonaduz"},"district":{"key":"1844","name":"Region Imboden"},"canton":{"key":"18","code":"GR","name":"Graubünden / Grigioni / Grischun"},"status":"Real"},{"key":"10123767","name":"Via Lag","postalCode":"7402","locality":"Bonaduz","commune":{"key":"3721","name":"Bonaduz","shortName":"Bonaduz"},"district":{"key":"1844","name":"Region Imboden"},"canton":{"key":"18","code":"GR","name":"Graubünden / Grigioni / Grischun"},"status":"Real"},{"key":"10258989","name":"Via Nulez","postalCode":"7402","locality":"Bonaduz","commune":{"key":"3721","name":"Bonaduz","shortName":"Bonaduz"},"district":{"key":"1844","name":"Region Imboden"},"canton":{"key":"18","code":"GR","name":"Graubünden / Grigioni / Grischun"},"status":"Real"},{"key":"10025516","name":"Via Nurtal","postalCode":"7402","locality":"Bonaduz","commune":{"key":"3721","name":"Bonaduz","shortName":"Bonaduz"},"district":{"key":"1844","name":"Region Imboden"},"canton":{"key":"18","code":"GR","name":"Graubünden / Grigioni / Grischun"},"status":"Real"},{"key":"10176474","name":"Via Plazzas","postalCode":"7402","locality":"Bonaduz","commune":{"key":"3721","name":"Bonaduz","shortName":"Bonaduz"},"district":{"key":"1844","name":"Region Imboden"},"canton":{"key":"18","code":"GR","name":"Graubünden / Grigioni / Grischun"},"status":"Real"},{"key":"10072159","name":"Via Ruver","postalCode":"7402","locality":"Bonaduz","commune":{"key":"3721","name":"Bonaduz","shortName":"Bonaduz"},"district":{"key":"1844","name":"Region Imboden"},"canton":{"key":"18","code":"GR","name":"Graubünden / Grigioni / Grischun"},"status":"Real"},{"key":"10097431","name":"Via Sableun","postalCode":"7402","locality":"Bonaduz","commune":{"key":"3721","name":"Bonaduz","shortName":"Bonaduz"},"district":{"key":"1844","name":"Region Imboden"},"canton":{"key":"18","code":"GR","name":"Graubünden / Grigioni / Grischun"},"status":"Real"},{"key":"10191144","name":"Via Salens","postalCode":"7402","locality":"Bonaduz","commune":{"key":"3721","name":"Bonaduz","shortName":"Bonaduz"},"district":{"key":"1844","name":"Region Imboden"},"canton":{"key":"18","code":"GR","name":"Graubünden / Grigioni / Grischun"},"status":"Real"},{"key":"10025517","name":"Via Sera Curt","postalCode":"7402","locality":"Bonaduz","commune":{"key":"3721","name":"Bonaduz","shortName":"Bonaduz"},"district":{"key":"1844","name":"Region Imboden"},"canton":{"key":"18","code":"GR","name":"Graubünden / Grigioni / Grischun"},"status":"Real"},{"key":"10025518","name":"Via Sogn Gieri","postalCode":"7402","locality":"Bonaduz","commune":{"key":"3721","name":"Bonaduz","shortName":"Bonaduz"},"district":{"key":"1844","name":"Region Imboden"},"canton":{"key":"18","code":"GR","name":"Graubünden / Grigioni / Grischun"},"status":"Real"},{"key":"10072160","name":"Via Sut Curt","postalCode":"7402","locality":"Bonaduz","commune":{"key":"3721","name":"Bonaduz","shortName":"Bonaduz"},"district":{"key":"1844","name":"Region Imboden"},"canton":{"key":"18","code":"GR","name":"Graubünden / Grigioni / Grischun"},"status":"Real"},{"key":"10097432","name":"Via Tgivisuri","postalCode":"7402","locality":"Bonaduz","commune":{"key":"3721","name":"Bonaduz","shortName":"Bonaduz"},"district":{"key":"1844","name":"Region Imboden"},"canton":{"key":"18","code":"GR","name":"Graubünden / Grigioni / Grischun"},"status":"Real"},{"key":"10025519","name":"Via Tuleu","postalCode":"7402","locality":"Bonaduz","commune":{"key":"3721","name":"Bonaduz","shortName":"Bonaduz"},"district":{"key":"1844","name":"Region Imboden"},"canton":{"key":"18","code":"GR","name":"Graubünden / Grigioni / Grischun"},"status":"Real"},{"key":"10129802","name":"Vignel","postalCode":"7402","locality":"Bonaduz","commune":{"key":"3721","name":"Bonaduz","shortName":"Bonaduz"},"district":{"key":"1844","name":"Region Imboden"},"canton":{"key":"18","code":"GR","name":"Graubünden / Grigioni / Grischun"},"status":"Real"},{"key":"10247322","name":"Vorderhof","postalCode":"7402","locality":"Bonaduz","commune":{"key":"3721","name":"Bonaduz","shortName":"Bonaduz"},"district":{"key":"1844","name":"Region Imboden"},"canton":{"key":"18","code":"GR","name":"Graubünden / Grigioni / Grischun"},"status":"Real"},]