[{"name":"Aachener Str.","postalCode":"63628","locality":"Bad Soden-Salmünster","municipality":{"key":"06435002","name":"Bad Soden-Salmünster, Stadt","type":"Stadt"},"district":{"key":"06435","name":"Main-Kinzig-Kreis","type":"Landkreis"},"federalState":{"key":"06","name":"Hessen"}},{"name":"Adlerstr.","postalCode":"63628","locality":"Bad Soden-Salmünster","municipality":{"key":"06435002","name":"Bad Soden-Salmünster, Stadt","type":"Stadt"},"district":{"key":"06435","name":"Main-Kinzig-Kreis","type":"Landkreis"},"federalState":{"key":"06","name":"Hessen"}},{"name":"Adolf-von-Nassau-Weg","postalCode":"63628","locality":"Bad Soden-Salmünster","municipality":{"key":"06435002","name":"Bad Soden-Salmünster, Stadt","type":"Stadt"},"district":{"key":"06435","name":"Main-Kinzig-Kreis","type":"Landkreis"},"federalState":{"key":"06","name":"Hessen"}},{"name":"Ahler Str.","postalCode":"63628","locality":"Bad Soden-Salmünster","municipality":{"key":"06435002","name":"Bad Soden-Salmünster, Stadt","type":"Stadt"},"district":{"key":"06435","name":"Main-Kinzig-Kreis","type":"Landkreis"},"federalState":{"key":"06","name":"Hessen"}},{"name":"Ahornstr.","postalCode":"63628","locality":"Bad Soden-Salmünster","municipality":{"key":"06435002","name":"Bad Soden-Salmünster, Stadt","type":"Stadt"},"district":{"key":"06435","name":"Main-Kinzig-Kreis","type":"Landkreis"},"federalState":{"key":"06","name":"Hessen"}},{"name":"Ahornweg","postalCode":"63628","locality":"Bad Soden-Salmünster","municipality":{"key":"06435002","name":"Bad Soden-Salmünster, Stadt","type":"Stadt"},"district":{"key":"06435","name":"Main-Kinzig-Kreis","type":"Landkreis"},"federalState":{"key":"06","name":"Hessen"}},{"name":"Aloysius-Lauer-Str.","postalCode":"63628","locality":"Bad Soden-Salmünster","municipality":{"key":"06435002","name":"Bad Soden-Salmünster, Stadt","type":"Stadt"},"district":{"key":"06435","name":"Main-Kinzig-Kreis","type":"Landkreis"},"federalState":{"key":"06","name":"Hessen"}},{"name":"Am alten Kurhaus","postalCode":"63628","locality":"Bad Soden-Salmünster","municipality":{"key":"06435002","name":"Bad Soden-Salmünster, Stadt","type":"Stadt"},"district":{"key":"06435","name":"Main-Kinzig-Kreis","type":"Landkreis"},"federalState":{"key":"06","name":"Hessen"}},{"name":"Am Galgenbach","postalCode":"63628","locality":"Bad Soden-Salmünster","municipality":{"key":"06435002","name":"Bad Soden-Salmünster, Stadt","type":"Stadt"},"district":{"key":"06435","name":"Main-Kinzig-Kreis","type":"Landkreis"},"federalState":{"key":"06","name":"Hessen"}},{"name":"Am Hang","postalCode":"63628","locality":"Bad Soden-Salmünster","municipality":{"key":"06435002","name":"Bad Soden-Salmünster, Stadt","type":"Stadt"},"district":{"key":"06435","name":"Main-Kinzig-Kreis","type":"Landkreis"},"federalState":{"key":"06","name":"Hessen"}},{"name":"Am Hirschbach","postalCode":"63628","locality":"Bad Soden-Salmünster","municipality":{"key":"06435002","name":"Bad Soden-Salmünster, Stadt","type":"Stadt"},"district":{"key":"06435","name":"Main-Kinzig-Kreis","type":"Landkreis"},"federalState":{"key":"06","name":"Hessen"}},{"name":"Am Keilchen","postalCode":"63628","locality":"Bad Soden-Salmünster","municipality":{"key":"06435002","name":"Bad Soden-Salmünster, Stadt","type":"Stadt"},"district":{"key":"06435","name":"Main-Kinzig-Kreis","type":"Landkreis"},"federalState":{"key":"06","name":"Hessen"}},{"name":"Am Kindergarten","postalCode":"63628","locality":"Bad Soden-Salmünster","municipality":{"key":"06435002","name":"Bad Soden-Salmünster, Stadt","type":"Stadt"},"district":{"key":"06435","name":"Main-Kinzig-Kreis","type":"Landkreis"},"federalState":{"key":"06","name":"Hessen"}},{"name":"Am Krebsrain","postalCode":"63628","locality":"Bad Soden-Salmünster","municipality":{"key":"06435002","name":"Bad Soden-Salmünster, Stadt","type":"Stadt"},"district":{"key":"06435","name":"Main-Kinzig-Kreis","type":"Landkreis"},"federalState":{"key":"06","name":"Hessen"}},{"name":"Am Linnenacker","postalCode":"63628","locality":"Bad Soden-Salmünster","municipality":{"key":"06435002","name":"Bad Soden-Salmünster, Stadt","type":"Stadt"},"district":{"key":"06435","name":"Main-Kinzig-Kreis","type":"Landkreis"},"federalState":{"key":"06","name":"Hessen"}},{"name":"Am Linsenhof","postalCode":"63628","locality":"Bad Soden-Salmünster","municipality":{"key":"06435002","name":"Bad Soden-Salmünster, Stadt","type":"Stadt"},"district":{"key":"06435","name":"Main-Kinzig-Kreis","type":"Landkreis"},"federalState":{"key":"06","name":"Hessen"}},{"name":"Am Mahler","postalCode":"63628","locality":"Bad Soden-Salmünster","municipality":{"key":"06435002","name":"Bad Soden-Salmünster, Stadt","type":"Stadt"},"district":{"key":"06435","name":"Main-Kinzig-Kreis","type":"Landkreis"},"federalState":{"key":"06","name":"Hessen"}},{"name":"Am Orber Berg","postalCode":"63628","locality":"Bad Soden-Salmünster","municipality":{"key":"06435002","name":"Bad Soden-Salmünster, Stadt","type":"Stadt"},"district":{"key":"06435","name":"Main-Kinzig-Kreis","type":"Landkreis"},"federalState":{"key":"06","name":"Hessen"}},{"name":"Am Palmusacker","postalCode":"63628","locality":"Bad Soden-Salmünster","municipality":{"key":"06435002","name":"Bad Soden-Salmünster, Stadt","type":"Stadt"},"district":{"key":"06435","name":"Main-Kinzig-Kreis","type":"Landkreis"},"federalState":{"key":"06","name":"Hessen"}},{"name":"Am Quellenrain","postalCode":"63628","locality":"Bad Soden-Salmünster","municipality":{"key":"06435002","name":"Bad Soden-Salmünster, Stadt","type":"Stadt"},"district":{"key":"06435","name":"Main-Kinzig-Kreis","type":"Landkreis"},"federalState":{"key":"06","name":"Hessen"}},{"name":"Am Sandkopf","postalCode":"63628","locality":"Bad Soden-Salmünster","municipality":{"key":"06435002","name":"Bad Soden-Salmünster, Stadt","type":"Stadt"},"district":{"key":"06435","name":"Main-Kinzig-Kreis","type":"Landkreis"},"federalState":{"key":"06","name":"Hessen"}},{"name":"Amselweg","postalCode":"63628","locality":"Bad Soden-Salmünster","municipality":{"key":"06435002","name":"Bad Soden-Salmünster, Stadt","type":"Stadt"},"district":{"key":"06435","name":"Main-Kinzig-Kreis","type":"Landkreis"},"federalState":{"key":"06","name":"Hessen"}},{"name":"Am Spielplatz","postalCode":"63628","locality":"Bad Soden-Salmünster","municipality":{"key":"06435002","name":"Bad Soden-Salmünster, Stadt","type":"Stadt"},"district":{"key":"06435","name":"Main-Kinzig-Kreis","type":"Landkreis"},"federalState":{"key":"06","name":"Hessen"}},{"name":"Am Stacken","postalCode":"63628","locality":"Bad Soden-Salmünster","municipality":{"key":"06435002","name":"Bad Soden-Salmünster, Stadt","type":"Stadt"},"district":{"key":"06435","name":"Main-Kinzig-Kreis","type":"Landkreis"},"federalState":{"key":"06","name":"Hessen"}},{"name":"Am Steines","postalCode":"63628","locality":"Bad Soden-Salmünster","municipality":{"key":"06435002","name":"Bad Soden-Salmünster, Stadt","type":"Stadt"},"district":{"key":"06435","name":"Main-Kinzig-Kreis","type":"Landkreis"},"federalState":{"key":"06","name":"Hessen"}},{"name":"Amtsgasse","postalCode":"63628","locality":"Bad Soden-Salmünster","municipality":{"key":"06435002","name":"Bad Soden-Salmünster, Stadt","type":"Stadt"},"district":{"key":"06435","name":"Main-Kinzig-Kreis","type":"Landkreis"},"federalState":{"key":"06","name":"Hessen"}},{"name":"Amtshof","postalCode":"63628","locality":"Bad Soden-Salmünster","municipality":{"key":"06435002","name":"Bad Soden-Salmünster, Stadt","type":"Stadt"},"district":{"key":"06435","name":"Main-Kinzig-Kreis","type":"Landkreis"},"federalState":{"key":"06","name":"Hessen"}},{"name":"Am Wald","postalCode":"63628","locality":"Bad Soden-Salmünster","municipality":{"key":"06435002","name":"Bad Soden-Salmünster, Stadt","type":"Stadt"},"district":{"key":"06435","name":"Main-Kinzig-Kreis","type":"Landkreis"},"federalState":{"key":"06","name":"Hessen"}},{"name":"Am Weiher","postalCode":"63628","locality":"Bad Soden-Salmünster","municipality":{"key":"06435002","name":"Bad Soden-Salmünster, Stadt","type":"Stadt"},"district":{"key":"06435","name":"Main-Kinzig-Kreis","type":"Landkreis"},"federalState":{"key":"06","name":"Hessen"}},{"name":"Am Weinbach","postalCode":"63628","locality":"Bad Soden-Salmünster","municipality":{"key":"06435002","name":"Bad Soden-Salmünster, Stadt","type":"Stadt"},"district":{"key":"06435","name":"Main-Kinzig-Kreis","type":"Landkreis"},"federalState":{"key":"06","name":"Hessen"}},{"name":"Am Wiesenbach","postalCode":"63628","locality":"Bad Soden-Salmünster","municipality":{"key":"06435002","name":"Bad Soden-Salmünster, Stadt","type":"Stadt"},"district":{"key":"06435","name":"Main-Kinzig-Kreis","type":"Landkreis"},"federalState":{"key":"06","name":"Hessen"}},{"name":"Am Zehnthof","postalCode":"63628","locality":"Bad Soden-Salmünster","municipality":{"key":"06435002","name":"Bad Soden-Salmünster, Stadt","type":"Stadt"},"district":{"key":"06435","name":"Main-Kinzig-Kreis","type":"Landkreis"},"federalState":{"key":"06","name":"Hessen"}},{"name":"An den Augärten","postalCode":"63628","locality":"Bad Soden-Salmünster","municipality":{"key":"06435002","name":"Bad Soden-Salmünster, Stadt","type":"Stadt"},"district":{"key":"06435","name":"Main-Kinzig-Kreis","type":"Landkreis"},"federalState":{"key":"06","name":"Hessen"}},{"name":"An den Mitteläckern","postalCode":"63628","locality":"Bad Soden-Salmünster","municipality":{"key":"06435002","name":"Bad Soden-Salmünster, Stadt","type":"Stadt"},"district":{"key":"06435","name":"Main-Kinzig-Kreis","type":"Landkreis"},"federalState":{"key":"06","name":"Hessen"}},{"name":"An der Dornhecke","postalCode":"63628","locality":"Bad Soden-Salmünster","municipality":{"key":"06435002","name":"Bad Soden-Salmünster, Stadt","type":"Stadt"},"district":{"key":"06435","name":"Main-Kinzig-Kreis","type":"Landkreis"},"federalState":{"key":"06","name":"Hessen"}},{"name":"An der Hautzenmühle","postalCode":"63628","locality":"Bad Soden-Salmünster","municipality":{"key":"06435002","name":"Bad Soden-Salmünster, Stadt","type":"Stadt"},"district":{"key":"06435","name":"Main-Kinzig-Kreis","type":"Landkreis"},"federalState":{"key":"06","name":"Hessen"}},{"name":"An der Kirche","postalCode":"63628","locality":"Bad Soden-Salmünster","municipality":{"key":"06435002","name":"Bad Soden-Salmünster, Stadt","type":"Stadt"},"district":{"key":"06435","name":"Main-Kinzig-Kreis","type":"Landkreis"},"federalState":{"key":"06","name":"Hessen"}},{"name":"An der Pappelweide","postalCode":"63628","locality":"Bad Soden-Salmünster","municipality":{"key":"06435002","name":"Bad Soden-Salmünster, Stadt","type":"Stadt"},"district":{"key":"06435","name":"Main-Kinzig-Kreis","type":"Landkreis"},"federalState":{"key":"06","name":"Hessen"}},{"name":"An der Rolandquelle","postalCode":"63628","locality":"Bad Soden-Salmünster","municipality":{"key":"06435002","name":"Bad Soden-Salmünster, Stadt","type":"Stadt"},"district":{"key":"06435","name":"Main-Kinzig-Kreis","type":"Landkreis"},"federalState":{"key":"06","name":"Hessen"}},{"name":"An der Steinkaute","postalCode":"63628","locality":"Bad Soden-Salmünster","municipality":{"key":"06435002","name":"Bad Soden-Salmünster, Stadt","type":"Stadt"},"district":{"key":"06435","name":"Main-Kinzig-Kreis","type":"Landkreis"},"federalState":{"key":"06","name":"Hessen"}},{"name":"Auf der Hohl","postalCode":"63628","locality":"Bad Soden-Salmünster","municipality":{"key":"06435002","name":"Bad Soden-Salmünster, Stadt","type":"Stadt"},"district":{"key":"06435","name":"Main-Kinzig-Kreis","type":"Landkreis"},"federalState":{"key":"06","name":"Hessen"}},{"name":"Auweg","postalCode":"63628","locality":"Bad Soden-Salmünster","municipality":{"key":"06435002","name":"Bad Soden-Salmünster, Stadt","type":"Stadt"},"district":{"key":"06435","name":"Main-Kinzig-Kreis","type":"Landkreis"},"federalState":{"key":"06","name":"Hessen"}},{"name":"Badestr.","postalCode":"63628","locality":"Bad Soden-Salmünster","municipality":{"key":"06435002","name":"Bad Soden-Salmünster, Stadt","type":"Stadt"},"district":{"key":"06435","name":"Main-Kinzig-Kreis","type":"Landkreis"},"federalState":{"key":"06","name":"Hessen"}},{"name":"Bad Sodener Str.","postalCode":"63628","locality":"Bad Soden-Salmünster","municipality":{"key":"06435002","name":"Bad Soden-Salmünster, Stadt","type":"Stadt"},"district":{"key":"06435","name":"Main-Kinzig-Kreis","type":"Landkreis"},"federalState":{"key":"06","name":"Hessen"}},{"name":"Bahnhofstr.","postalCode":"63628","locality":"Bad Soden-Salmünster","municipality":{"key":"06435002","name":"Bad Soden-Salmünster, Stadt","type":"Stadt"},"district":{"key":"06435","name":"Main-Kinzig-Kreis","type":"Landkreis"},"federalState":{"key":"06","name":"Hessen"}},{"name":"Barbarossaweg","postalCode":"63628","locality":"Bad Soden-Salmünster","municipality":{"key":"06435002","name":"Bad Soden-Salmünster, Stadt","type":"Stadt"},"district":{"key":"06435","name":"Main-Kinzig-Kreis","type":"Landkreis"},"federalState":{"key":"06","name":"Hessen"}},{"name":"Basaltstr.","postalCode":"63628","locality":"Bad Soden-Salmünster","municipality":{"key":"06435002","name":"Bad Soden-Salmünster, Stadt","type":"Stadt"},"district":{"key":"06435","name":"Main-Kinzig-Kreis","type":"Landkreis"},"federalState":{"key":"06","name":"Hessen"}},{"name":"Beethovenstr.","postalCode":"63628","locality":"Bad Soden-Salmünster","municipality":{"key":"06435002","name":"Bad Soden-Salmünster, Stadt","type":"Stadt"},"district":{"key":"06435","name":"Main-Kinzig-Kreis","type":"Landkreis"},"federalState":{"key":"06","name":"Hessen"}},{"name":"Bergstr.","postalCode":"63628","locality":"Bad Soden-Salmünster","municipality":{"key":"06435002","name":"Bad Soden-Salmünster, Stadt","type":"Stadt"},"district":{"key":"06435","name":"Main-Kinzig-Kreis","type":"Landkreis"},"federalState":{"key":"06","name":"Hessen"}},{"name":"Bergwinkelstr.","postalCode":"63628","locality":"Bad Soden-Salmünster","municipality":{"key":"06435002","name":"Bad Soden-Salmünster, Stadt","type":"Stadt"},"district":{"key":"06435","name":"Main-Kinzig-Kreis","type":"Landkreis"},"federalState":{"key":"06","name":"Hessen"}},{"name":"Berliner Str.","postalCode":"63628","locality":"Bad Soden-Salmünster","municipality":{"key":"06435002","name":"Bad Soden-Salmünster, Stadt","type":"Stadt"},"district":{"key":"06435","name":"Main-Kinzig-Kreis","type":"Landkreis"},"federalState":{"key":"06","name":"Hessen"}},{"name":"Birkenhainer Str.","postalCode":"63628","locality":"Bad Soden-Salmünster","municipality":{"key":"06435002","name":"Bad Soden-Salmünster, Stadt","type":"Stadt"},"district":{"key":"06435","name":"Main-Kinzig-Kreis","type":"Landkreis"},"federalState":{"key":"06","name":"Hessen"}},{"name":"Birkenweg","postalCode":"63628","locality":"Bad Soden-Salmünster","municipality":{"key":"06435002","name":"Bad Soden-Salmünster, Stadt","type":"Stadt"},"district":{"key":"06435","name":"Main-Kinzig-Kreis","type":"Landkreis"},"federalState":{"key":"06","name":"Hessen"}},{"name":"Birsteiner Str.","postalCode":"63628","locality":"Bad Soden-Salmünster","municipality":{"key":"06435002","name":"Bad Soden-Salmünster, Stadt","type":"Stadt"},"district":{"key":"06435","name":"Main-Kinzig-Kreis","type":"Landkreis"},"federalState":{"key":"06","name":"Hessen"}},{"name":"Bonner Str.","postalCode":"63628","locality":"Bad Soden-Salmünster","municipality":{"key":"06435002","name":"Bad Soden-Salmünster, Stadt","type":"Stadt"},"district":{"key":"06435","name":"Main-Kinzig-Kreis","type":"Landkreis"},"federalState":{"key":"06","name":"Hessen"}},{"name":"Bornäcker","postalCode":"63628","locality":"Bad Soden-Salmünster","municipality":{"key":"06435002","name":"Bad Soden-Salmünster, Stadt","type":"Stadt"},"district":{"key":"06435","name":"Main-Kinzig-Kreis","type":"Landkreis"},"federalState":{"key":"06","name":"Hessen"}},{"name":"Bornweg","postalCode":"63628","locality":"Bad Soden-Salmünster","municipality":{"key":"06435002","name":"Bad Soden-Salmünster, Stadt","type":"Stadt"},"district":{"key":"06435","name":"Main-Kinzig-Kreis","type":"Landkreis"},"federalState":{"key":"06","name":"Hessen"}},{"name":"Bornwiesenweg","postalCode":"63628","locality":"Bad Soden-Salmünster","municipality":{"key":"06435002","name":"Bad Soden-Salmünster, Stadt","type":"Stadt"},"district":{"key":"06435","name":"Main-Kinzig-Kreis","type":"Landkreis"},"federalState":{"key":"06","name":"Hessen"}},{"name":"Brauhausgasse","postalCode":"63628","locality":"Bad Soden-Salmünster","municipality":{"key":"06435002","name":"Bad Soden-Salmünster, Stadt","type":"Stadt"},"district":{"key":"06435","name":"Main-Kinzig-Kreis","type":"Landkreis"},"federalState":{"key":"06","name":"Hessen"}},{"name":"Breslauer Str.","postalCode":"63628","locality":"Bad Soden-Salmünster","municipality":{"key":"06435002","name":"Bad Soden-Salmünster, Stadt","type":"Stadt"},"district":{"key":"06435","name":"Main-Kinzig-Kreis","type":"Landkreis"},"federalState":{"key":"06","name":"Hessen"}},{"name":"Brückenauer Str.","postalCode":"63628","locality":"Bad Soden-Salmünster","municipality":{"key":"06435002","name":"Bad Soden-Salmünster, Stadt","type":"Stadt"},"district":{"key":"06435","name":"Main-Kinzig-Kreis","type":"Landkreis"},"federalState":{"key":"06","name":"Hessen"}},{"name":"Brückenstr.","postalCode":"63628","locality":"Bad Soden-Salmünster","municipality":{"key":"06435002","name":"Bad Soden-Salmünster, Stadt","type":"Stadt"},"district":{"key":"06435","name":"Main-Kinzig-Kreis","type":"Landkreis"},"federalState":{"key":"06","name":"Hessen"}},{"name":"Brüder-Grimm-Str.","postalCode":"63628","locality":"Bad Soden-Salmünster","municipality":{"key":"06435002","name":"Bad Soden-Salmünster, Stadt","type":"Stadt"},"district":{"key":"06435","name":"Main-Kinzig-Kreis","type":"Landkreis"},"federalState":{"key":"06","name":"Hessen"}},{"name":"Brunnenstr.","postalCode":"63628","locality":"Bad Soden-Salmünster","municipality":{"key":"06435002","name":"Bad Soden-Salmünster, Stadt","type":"Stadt"},"district":{"key":"06435","name":"Main-Kinzig-Kreis","type":"Landkreis"},"federalState":{"key":"06","name":"Hessen"}},{"name":"Buchenstr.","postalCode":"63628","locality":"Bad Soden-Salmünster","municipality":{"key":"06435002","name":"Bad Soden-Salmünster, Stadt","type":"Stadt"},"district":{"key":"06435","name":"Main-Kinzig-Kreis","type":"Landkreis"},"federalState":{"key":"06","name":"Hessen"}},{"name":"Burgjosser Str.","postalCode":"63628","locality":"Bad Soden-Salmünster","municipality":{"key":"06435002","name":"Bad Soden-Salmünster, Stadt","type":"Stadt"},"district":{"key":"06435","name":"Main-Kinzig-Kreis","type":"Landkreis"},"federalState":{"key":"06","name":"Hessen"}},{"name":"Burgstr.","postalCode":"63628","locality":"Bad Soden-Salmünster","municipality":{"key":"06435002","name":"Bad Soden-Salmünster, Stadt","type":"Stadt"},"district":{"key":"06435","name":"Main-Kinzig-Kreis","type":"Landkreis"},"federalState":{"key":"06","name":"Hessen"}},{"name":"Carl-Gladitz-Str.","postalCode":"63628","locality":"Bad Soden-Salmünster","municipality":{"key":"06435002","name":"Bad Soden-Salmünster, Stadt","type":"Stadt"},"district":{"key":"06435","name":"Main-Kinzig-Kreis","type":"Landkreis"},"federalState":{"key":"06","name":"Hessen"}},{"name":"Carl-Kern-Str.","postalCode":"63628","locality":"Bad Soden-Salmünster","municipality":{"key":"06435002","name":"Bad Soden-Salmünster, Stadt","type":"Stadt"},"district":{"key":"06435","name":"Main-Kinzig-Kreis","type":"Landkreis"},"federalState":{"key":"06","name":"Hessen"}},{"name":"Damasus-Fuchs-Str.","postalCode":"63628","locality":"Bad Soden-Salmünster","municipality":{"key":"06435002","name":"Bad Soden-Salmünster, Stadt","type":"Stadt"},"district":{"key":"06435","name":"Main-Kinzig-Kreis","type":"Landkreis"},"federalState":{"key":"06","name":"Hessen"}},{"name":"Dammweg","postalCode":"63628","locality":"Bad Soden-Salmünster","municipality":{"key":"06435002","name":"Bad Soden-Salmünster, Stadt","type":"Stadt"},"district":{"key":"06435","name":"Main-Kinzig-Kreis","type":"Landkreis"},"federalState":{"key":"06","name":"Hessen"}},{"name":"Dieselstr.","postalCode":"63628","locality":"Bad Soden-Salmünster","municipality":{"key":"06435002","name":"Bad Soden-Salmünster, Stadt","type":"Stadt"},"district":{"key":"06435","name":"Main-Kinzig-Kreis","type":"Landkreis"},"federalState":{"key":"06","name":"Hessen"}},{"name":"Dippenmarkt","postalCode":"63628","locality":"Bad Soden-Salmünster","municipality":{"key":"06435002","name":"Bad Soden-Salmünster, Stadt","type":"Stadt"},"district":{"key":"06435","name":"Main-Kinzig-Kreis","type":"Landkreis"},"federalState":{"key":"06","name":"Hessen"}},{"name":"Dorfstr.","postalCode":"63628","locality":"Bad Soden-Salmünster","municipality":{"key":"06435002","name":"Bad Soden-Salmünster, Stadt","type":"Stadt"},"district":{"key":"06435","name":"Main-Kinzig-Kreis","type":"Landkreis"},"federalState":{"key":"06","name":"Hessen"}},{"name":"Dresdener Str.","postalCode":"63628","locality":"Bad Soden-Salmünster","municipality":{"key":"06435002","name":"Bad Soden-Salmünster, Stadt","type":"Stadt"},"district":{"key":"06435","name":"Main-Kinzig-Kreis","type":"Landkreis"},"federalState":{"key":"06","name":"Hessen"}},{"name":"Drosselstr.","postalCode":"63628","locality":"Bad Soden-Salmünster","municipality":{"key":"06435002","name":"Bad Soden-Salmünster, Stadt","type":"Stadt"},"district":{"key":"06435","name":"Main-Kinzig-Kreis","type":"Landkreis"},"federalState":{"key":"06","name":"Hessen"}},{"name":"Dr.-Richard-Küch-Str.","postalCode":"63628","locality":"Bad Soden-Salmünster","municipality":{"key":"06435002","name":"Bad Soden-Salmünster, Stadt","type":"Stadt"},"district":{"key":"06435","name":"Main-Kinzig-Kreis","type":"Landkreis"},"federalState":{"key":"06","name":"Hessen"}},{"name":"Eckardrother Str.","postalCode":"63628","locality":"Bad Soden-Salmünster","municipality":{"key":"06435002","name":"Bad Soden-Salmünster, Stadt","type":"Stadt"},"district":{"key":"06435","name":"Main-Kinzig-Kreis","type":"Landkreis"},"federalState":{"key":"06","name":"Hessen"}},{"name":"Egerstr.","postalCode":"63628","locality":"Bad Soden-Salmünster","municipality":{"key":"06435002","name":"Bad Soden-Salmünster, Stadt","type":"Stadt"},"district":{"key":"06435","name":"Main-Kinzig-Kreis","type":"Landkreis"},"federalState":{"key":"06","name":"Hessen"}},{"name":"Eibestr.","postalCode":"63628","locality":"Bad Soden-Salmünster","municipality":{"key":"06435002","name":"Bad Soden-Salmünster, Stadt","type":"Stadt"},"district":{"key":"06435","name":"Main-Kinzig-Kreis","type":"Landkreis"},"federalState":{"key":"06","name":"Hessen"}},{"name":"Eichgrabenstr.","postalCode":"63628","locality":"Bad Soden-Salmünster","municipality":{"key":"06435002","name":"Bad Soden-Salmünster, Stadt","type":"Stadt"},"district":{"key":"06435","name":"Main-Kinzig-Kreis","type":"Landkreis"},"federalState":{"key":"06","name":"Hessen"}},{"name":"Entengasse","postalCode":"63628","locality":"Bad Soden-Salmünster","municipality":{"key":"06435002","name":"Bad Soden-Salmünster, Stadt","type":"Stadt"},"district":{"key":"06435","name":"Main-Kinzig-Kreis","type":"Landkreis"},"federalState":{"key":"06","name":"Hessen"}},{"name":"Erfurter Str.","postalCode":"63628","locality":"Bad Soden-Salmünster","municipality":{"key":"06435002","name":"Bad Soden-Salmünster, Stadt","type":"Stadt"},"district":{"key":"06435","name":"Main-Kinzig-Kreis","type":"Landkreis"},"federalState":{"key":"06","name":"Hessen"}},{"name":"Erlenweg","postalCode":"63628","locality":"Bad Soden-Salmünster","municipality":{"key":"06435002","name":"Bad Soden-Salmünster, Stadt","type":"Stadt"},"district":{"key":"06435","name":"Main-Kinzig-Kreis","type":"Landkreis"},"federalState":{"key":"06","name":"Hessen"}},{"name":"Erlesbachstr.","postalCode":"63628","locality":"Bad Soden-Salmünster","municipality":{"key":"06435002","name":"Bad Soden-Salmünster, Stadt","type":"Stadt"},"district":{"key":"06435","name":"Main-Kinzig-Kreis","type":"Landkreis"},"federalState":{"key":"06","name":"Hessen"}},{"name":"Eschenstr.","postalCode":"63628","locality":"Bad Soden-Salmünster","municipality":{"key":"06435002","name":"Bad Soden-Salmünster, Stadt","type":"Stadt"},"district":{"key":"06435","name":"Main-Kinzig-Kreis","type":"Landkreis"},"federalState":{"key":"06","name":"Hessen"}},{"name":"Feldstr.","postalCode":"63628","locality":"Bad Soden-Salmünster","municipality":{"key":"06435002","name":"Bad Soden-Salmünster, Stadt","type":"Stadt"},"district":{"key":"06435","name":"Main-Kinzig-Kreis","type":"Landkreis"},"federalState":{"key":"06","name":"Hessen"}},{"name":"Fichtenstr.","postalCode":"63628","locality":"Bad Soden-Salmünster","municipality":{"key":"06435002","name":"Bad Soden-Salmünster, Stadt","type":"Stadt"},"district":{"key":"06435","name":"Main-Kinzig-Kreis","type":"Landkreis"},"federalState":{"key":"06","name":"Hessen"}},{"name":"Fichtenweg","postalCode":"63628","locality":"Bad Soden-Salmünster","municipality":{"key":"06435002","name":"Bad Soden-Salmünster, Stadt","type":"Stadt"},"district":{"key":"06435","name":"Main-Kinzig-Kreis","type":"Landkreis"},"federalState":{"key":"06","name":"Hessen"}},{"name":"Finkenstr.","postalCode":"63628","locality":"Bad Soden-Salmünster","municipality":{"key":"06435002","name":"Bad Soden-Salmünster, Stadt","type":"Stadt"},"district":{"key":"06435","name":"Main-Kinzig-Kreis","type":"Landkreis"},"federalState":{"key":"06","name":"Hessen"}},{"name":"Frankfurter Str.","postalCode":"63628","locality":"Bad Soden-Salmünster","municipality":{"key":"06435002","name":"Bad Soden-Salmünster, Stadt","type":"Stadt"},"district":{"key":"06435","name":"Main-Kinzig-Kreis","type":"Landkreis"},"federalState":{"key":"06","name":"Hessen"}},{"name":"Franziskanergasse","postalCode":"63628","locality":"Bad Soden-Salmünster","municipality":{"key":"06435002","name":"Bad Soden-Salmünster, Stadt","type":"Stadt"},"district":{"key":"06435","name":"Main-Kinzig-Kreis","type":"Landkreis"},"federalState":{"key":"06","name":"Hessen"}},{"name":"Franz-von-Sickingen-Str.","postalCode":"63628","locality":"Bad Soden-Salmünster","municipality":{"key":"06435002","name":"Bad Soden-Salmünster, Stadt","type":"Stadt"},"district":{"key":"06435","name":"Main-Kinzig-Kreis","type":"Landkreis"},"federalState":{"key":"06","name":"Hessen"}},{"name":"Freiherr-vom-Stein-Str.","postalCode":"63628","locality":"Bad Soden-Salmünster","municipality":{"key":"06435002","name":"Bad Soden-Salmünster, Stadt","type":"Stadt"},"district":{"key":"06435","name":"Main-Kinzig-Kreis","type":"Landkreis"},"federalState":{"key":"06","name":"Hessen"}},{"name":"Freihof","postalCode":"63628","locality":"Bad Soden-Salmünster","municipality":{"key":"06435002","name":"Bad Soden-Salmünster, Stadt","type":"Stadt"},"district":{"key":"06435","name":"Main-Kinzig-Kreis","type":"Landkreis"},"federalState":{"key":"06","name":"Hessen"}},{"name":"Friedrich-Hornfeck-Str.","postalCode":"63628","locality":"Bad Soden-Salmünster","municipality":{"key":"06435002","name":"Bad Soden-Salmünster, Stadt","type":"Stadt"},"district":{"key":"06435","name":"Main-Kinzig-Kreis","type":"Landkreis"},"federalState":{"key":"06","name":"Hessen"}},{"name":"Frowin-von-Hutten-Str.","postalCode":"63628","locality":"Bad Soden-Salmünster","municipality":{"key":"06435002","name":"Bad Soden-Salmünster, Stadt","type":"Stadt"},"district":{"key":"06435","name":"Main-Kinzig-Kreis","type":"Landkreis"},"federalState":{"key":"06","name":"Hessen"}},{"name":"Fuldaer Str.","postalCode":"63628","locality":"Bad Soden-Salmünster","municipality":{"key":"06435002","name":"Bad Soden-Salmünster, Stadt","type":"Stadt"},"district":{"key":"06435","name":"Main-Kinzig-Kreis","type":"Landkreis"},"federalState":{"key":"06","name":"Hessen"}},{"name":"Gartenstr.","postalCode":"63628","locality":"Bad Soden-Salmünster","municipality":{"key":"06435002","name":"Bad Soden-Salmünster, Stadt","type":"Stadt"},"district":{"key":"06435","name":"Main-Kinzig-Kreis","type":"Landkreis"},"federalState":{"key":"06","name":"Hessen"}},{"name":"Gelnhäuser Str.","postalCode":"63628","locality":"Bad Soden-Salmünster","municipality":{"key":"06435002","name":"Bad Soden-Salmünster, Stadt","type":"Stadt"},"district":{"key":"06435","name":"Main-Kinzig-Kreis","type":"Landkreis"},"federalState":{"key":"06","name":"Hessen"}},{"name":"Georg-Kind-Str.","postalCode":"63628","locality":"Bad Soden-Salmünster","municipality":{"key":"06435002","name":"Bad Soden-Salmünster, Stadt","type":"Stadt"},"district":{"key":"06435","name":"Main-Kinzig-Kreis","type":"Landkreis"},"federalState":{"key":"06","name":"Hessen"}},{"name":"Georg Spang Anlage","postalCode":"63628","locality":"Bad Soden-Salmünster","municipality":{"key":"06435002","name":"Bad Soden-Salmünster, Stadt","type":"Stadt"},"district":{"key":"06435","name":"Main-Kinzig-Kreis","type":"Landkreis"},"federalState":{"key":"06","name":"Hessen"}},{"name":"Georg-Spang-Str.","postalCode":"63628","locality":"Bad Soden-Salmünster","municipality":{"key":"06435002","name":"Bad Soden-Salmünster, Stadt","type":"Stadt"},"district":{"key":"06435","name":"Main-Kinzig-Kreis","type":"Landkreis"},"federalState":{"key":"06","name":"Hessen"}},{"name":"Gerhard-Radke-Str.","postalCode":"63628","locality":"Bad Soden-Salmünster","municipality":{"key":"06435002","name":"Bad Soden-Salmünster, Stadt","type":"Stadt"},"district":{"key":"06435","name":"Main-Kinzig-Kreis","type":"Landkreis"},"federalState":{"key":"06","name":"Hessen"}},{"name":"Gießener Str.","postalCode":"63628","locality":"Bad Soden-Salmünster","municipality":{"key":"06435002","name":"Bad Soden-Salmünster, Stadt","type":"Stadt"},"district":{"key":"06435","name":"Main-Kinzig-Kreis","type":"Landkreis"},"federalState":{"key":"06","name":"Hessen"}},{"name":"Ginsterweg","postalCode":"63628","locality":"Bad Soden-Salmünster","municipality":{"key":"06435002","name":"Bad Soden-Salmünster, Stadt","type":"Stadt"},"district":{"key":"06435","name":"Main-Kinzig-Kreis","type":"Landkreis"},"federalState":{"key":"06","name":"Hessen"}},{"name":"Goethestr.","postalCode":"63628","locality":"Bad Soden-Salmünster","municipality":{"key":"06435002","name":"Bad Soden-Salmünster, Stadt","type":"Stadt"},"district":{"key":"06435","name":"Main-Kinzig-Kreis","type":"Landkreis"},"federalState":{"key":"06","name":"Hessen"}},{"name":"Grabenstr.","postalCode":"63628","locality":"Bad Soden-Salmünster","municipality":{"key":"06435002","name":"Bad Soden-Salmünster, Stadt","type":"Stadt"},"district":{"key":"06435","name":"Main-Kinzig-Kreis","type":"Landkreis"},"federalState":{"key":"06","name":"Hessen"}},{"name":"Grimmelshausenstr.","postalCode":"63628","locality":"Bad Soden-Salmünster","municipality":{"key":"06435002","name":"Bad Soden-Salmünster, Stadt","type":"Stadt"},"district":{"key":"06435","name":"Main-Kinzig-Kreis","type":"Landkreis"},"federalState":{"key":"06","name":"Hessen"}},{"name":"Gustav-Kastropp-Str.","postalCode":"63628","locality":"Bad Soden-Salmünster","municipality":{"key":"06435002","name":"Bad Soden-Salmünster, Stadt","type":"Stadt"},"district":{"key":"06435","name":"Main-Kinzig-Kreis","type":"Landkreis"},"federalState":{"key":"06","name":"Hessen"}},{"name":"Gutenbergstr.","postalCode":"63628","locality":"Bad Soden-Salmünster","municipality":{"key":"06435002","name":"Bad Soden-Salmünster, Stadt","type":"Stadt"},"district":{"key":"06435","name":"Main-Kinzig-Kreis","type":"Landkreis"},"federalState":{"key":"06","name":"Hessen"}},{"name":"Haferheegstr.","postalCode":"63628","locality":"Bad Soden-Salmünster","municipality":{"key":"06435002","name":"Bad Soden-Salmünster, Stadt","type":"Stadt"},"district":{"key":"06435","name":"Main-Kinzig-Kreis","type":"Landkreis"},"federalState":{"key":"06","name":"Hessen"}},{"name":"Hammelsweg","postalCode":"63628","locality":"Bad Soden-Salmünster","municipality":{"key":"06435002","name":"Bad Soden-Salmünster, Stadt","type":"Stadt"},"district":{"key":"06435","name":"Main-Kinzig-Kreis","type":"Landkreis"},"federalState":{"key":"06","name":"Hessen"}},{"name":"Hanauer Landstr.","postalCode":"63628","locality":"Bad Soden-Salmünster","municipality":{"key":"06435002","name":"Bad Soden-Salmünster, Stadt","type":"Stadt"},"district":{"key":"06435","name":"Main-Kinzig-Kreis","type":"Landkreis"},"federalState":{"key":"06","name":"Hessen"}},{"name":"Hanfgartenstr.","postalCode":"63628","locality":"Bad Soden-Salmünster","municipality":{"key":"06435002","name":"Bad Soden-Salmünster, Stadt","type":"Stadt"},"district":{"key":"06435","name":"Main-Kinzig-Kreis","type":"Landkreis"},"federalState":{"key":"06","name":"Hessen"}},{"name":"Hans-Streif-Str.","postalCode":"63628","locality":"Bad Soden-Salmünster","municipality":{"key":"06435002","name":"Bad Soden-Salmünster, Stadt","type":"Stadt"},"district":{"key":"06435","name":"Main-Kinzig-Kreis","type":"Landkreis"},"federalState":{"key":"06","name":"Hessen"}},{"name":"Happelstr.","postalCode":"63628","locality":"Bad Soden-Salmünster","municipality":{"key":"06435002","name":"Bad Soden-Salmünster, Stadt","type":"Stadt"},"district":{"key":"06435","name":"Main-Kinzig-Kreis","type":"Landkreis"},"federalState":{"key":"06","name":"Hessen"}},{"name":"Haselstr.","postalCode":"63628","locality":"Bad Soden-Salmünster","municipality":{"key":"06435002","name":"Bad Soden-Salmünster, Stadt","type":"Stadt"},"district":{"key":"06435","name":"Main-Kinzig-Kreis","type":"Landkreis"},"federalState":{"key":"06","name":"Hessen"}},{"name":"Hauptstr.","postalCode":"63628","locality":"Bad Soden-Salmünster","municipality":{"key":"06435002","name":"Bad Soden-Salmünster, Stadt","type":"Stadt"},"district":{"key":"06435","name":"Main-Kinzig-Kreis","type":"Landkreis"},"federalState":{"key":"06","name":"Hessen"}},{"name":"Hausener Str.","postalCode":"63628","locality":"Bad Soden-Salmünster","municipality":{"key":"06435002","name":"Bad Soden-Salmünster, Stadt","type":"Stadt"},"district":{"key":"06435","name":"Main-Kinzig-Kreis","type":"Landkreis"},"federalState":{"key":"06","name":"Hessen"}},{"name":"Häuserdickstr.","postalCode":"63628","locality":"Bad Soden-Salmünster","municipality":{"key":"06435002","name":"Bad Soden-Salmünster, Stadt","type":"Stadt"},"district":{"key":"06435","name":"Main-Kinzig-Kreis","type":"Landkreis"},"federalState":{"key":"06","name":"Hessen"}},{"name":"Häuser Hohle","postalCode":"63628","locality":"Bad Soden-Salmünster","municipality":{"key":"06435002","name":"Bad Soden-Salmünster, Stadt","type":"Stadt"},"district":{"key":"06435","name":"Main-Kinzig-Kreis","type":"Landkreis"},"federalState":{"key":"06","name":"Hessen"}},{"name":"Haydnstr.","postalCode":"63628","locality":"Bad Soden-Salmünster","municipality":{"key":"06435002","name":"Bad Soden-Salmünster, Stadt","type":"Stadt"},"district":{"key":"06435","name":"Main-Kinzig-Kreis","type":"Landkreis"},"federalState":{"key":"06","name":"Hessen"}},{"name":"Hebelstr.","postalCode":"63628","locality":"Bad Soden-Salmünster","municipality":{"key":"06435002","name":"Bad Soden-Salmünster, Stadt","type":"Stadt"},"district":{"key":"06435","name":"Main-Kinzig-Kreis","type":"Landkreis"},"federalState":{"key":"06","name":"Hessen"}},{"name":"Hegelstr.","postalCode":"63628","locality":"Bad Soden-Salmünster","municipality":{"key":"06435002","name":"Bad Soden-Salmünster, Stadt","type":"Stadt"},"district":{"key":"06435","name":"Main-Kinzig-Kreis","type":"Landkreis"},"federalState":{"key":"06","name":"Hessen"}},{"name":"Heidebergstr.","postalCode":"63628","locality":"Bad Soden-Salmünster","municipality":{"key":"06435002","name":"Bad Soden-Salmünster, Stadt","type":"Stadt"},"district":{"key":"06435","name":"Main-Kinzig-Kreis","type":"Landkreis"},"federalState":{"key":"06","name":"Hessen"}},{"name":"Heinrich-Hofmann-Str.","postalCode":"63628","locality":"Bad Soden-Salmünster","municipality":{"key":"06435002","name":"Bad Soden-Salmünster, Stadt","type":"Stadt"},"district":{"key":"06435","name":"Main-Kinzig-Kreis","type":"Landkreis"},"federalState":{"key":"06","name":"Hessen"}},{"name":"Hellental","postalCode":"63628","locality":"Bad Soden-Salmünster","municipality":{"key":"06435002","name":"Bad Soden-Salmünster, Stadt","type":"Stadt"},"district":{"key":"06435","name":"Main-Kinzig-Kreis","type":"Landkreis"},"federalState":{"key":"06","name":"Hessen"}},{"name":"Henry-Harnischfeger-Str.","postalCode":"63628","locality":"Bad Soden-Salmünster","municipality":{"key":"06435002","name":"Bad Soden-Salmünster, Stadt","type":"Stadt"},"district":{"key":"06435","name":"Main-Kinzig-Kreis","type":"Landkreis"},"federalState":{"key":"06","name":"Hessen"}},{"name":"Hermesstr.","postalCode":"63628","locality":"Bad Soden-Salmünster","municipality":{"key":"06435002","name":"Bad Soden-Salmünster, Stadt","type":"Stadt"},"district":{"key":"06435","name":"Main-Kinzig-Kreis","type":"Landkreis"},"federalState":{"key":"06","name":"Hessen"}},{"name":"Heublosbrücke","postalCode":"63628","locality":"Bad Soden-Salmünster","municipality":{"key":"06435002","name":"Bad Soden-Salmünster, Stadt","type":"Stadt"},"district":{"key":"06435","name":"Main-Kinzig-Kreis","type":"Landkreis"},"federalState":{"key":"06","name":"Hessen"}},{"name":"Hirtengasse","postalCode":"63628","locality":"Bad Soden-Salmünster","municipality":{"key":"06435002","name":"Bad Soden-Salmünster, Stadt","type":"Stadt"},"district":{"key":"06435","name":"Main-Kinzig-Kreis","type":"Landkreis"},"federalState":{"key":"06","name":"Hessen"}},{"name":"Hirtenstr.","postalCode":"63628","locality":"Bad Soden-Salmünster","municipality":{"key":"06435002","name":"Bad Soden-Salmünster, Stadt","type":"Stadt"},"district":{"key":"06435","name":"Main-Kinzig-Kreis","type":"Landkreis"},"federalState":{"key":"06","name":"Hessen"}},{"name":"Hochstr.","postalCode":"63628","locality":"Bad Soden-Salmünster","municipality":{"key":"06435002","name":"Bad Soden-Salmünster, Stadt","type":"Stadt"},"district":{"key":"06435","name":"Main-Kinzig-Kreis","type":"Landkreis"},"federalState":{"key":"06","name":"Hessen"}},{"name":"Hofgasse","postalCode":"63628","locality":"Bad Soden-Salmünster","municipality":{"key":"06435002","name":"Bad Soden-Salmünster, Stadt","type":"Stadt"},"district":{"key":"06435","name":"Main-Kinzig-Kreis","type":"Landkreis"},"federalState":{"key":"06","name":"Hessen"}},{"name":"Höhenstr.","postalCode":"63628","locality":"Bad Soden-Salmünster","municipality":{"key":"06435002","name":"Bad Soden-Salmünster, Stadt","type":"Stadt"},"district":{"key":"06435","name":"Main-Kinzig-Kreis","type":"Landkreis"},"federalState":{"key":"06","name":"Hessen"}},{"name":"Hohlweg","postalCode":"63628","locality":"Bad Soden-Salmünster","municipality":{"key":"06435002","name":"Bad Soden-Salmünster, Stadt","type":"Stadt"},"district":{"key":"06435","name":"Main-Kinzig-Kreis","type":"Landkreis"},"federalState":{"key":"06","name":"Hessen"}},{"name":"Hohmühlenweg","postalCode":"63628","locality":"Bad Soden-Salmünster","municipality":{"key":"06435002","name":"Bad Soden-Salmünster, Stadt","type":"Stadt"},"district":{"key":"06435","name":"Main-Kinzig-Kreis","type":"Landkreis"},"federalState":{"key":"06","name":"Hessen"}},{"name":"Holunderweg","postalCode":"63628","locality":"Bad Soden-Salmünster","municipality":{"key":"06435002","name":"Bad Soden-Salmünster, Stadt","type":"Stadt"},"district":{"key":"06435","name":"Main-Kinzig-Kreis","type":"Landkreis"},"federalState":{"key":"06","name":"Hessen"}},{"name":"Honiggasse","postalCode":"63628","locality":"Bad Soden-Salmünster","municipality":{"key":"06435002","name":"Bad Soden-Salmünster, Stadt","type":"Stadt"},"district":{"key":"06435","name":"Main-Kinzig-Kreis","type":"Landkreis"},"federalState":{"key":"06","name":"Hessen"}},{"name":"Horthackerstr.","postalCode":"63628","locality":"Bad Soden-Salmünster","municipality":{"key":"06435002","name":"Bad Soden-Salmünster, Stadt","type":"Stadt"},"district":{"key":"06435","name":"Main-Kinzig-Kreis","type":"Landkreis"},"federalState":{"key":"06","name":"Hessen"}},{"name":"Hufeisenstr.","postalCode":"63628","locality":"Bad Soden-Salmünster","municipality":{"key":"06435002","name":"Bad Soden-Salmünster, Stadt","type":"Stadt"},"district":{"key":"06435","name":"Main-Kinzig-Kreis","type":"Landkreis"},"federalState":{"key":"06","name":"Hessen"}},{"name":"Huttengasse","postalCode":"63628","locality":"Bad Soden-Salmünster","municipality":{"key":"06435002","name":"Bad Soden-Salmünster, Stadt","type":"Stadt"},"district":{"key":"06435","name":"Main-Kinzig-Kreis","type":"Landkreis"},"federalState":{"key":"06","name":"Hessen"}},{"name":"Huttenheegstr.","postalCode":"63628","locality":"Bad Soden-Salmünster","municipality":{"key":"06435002","name":"Bad Soden-Salmünster, Stadt","type":"Stadt"},"district":{"key":"06435","name":"Main-Kinzig-Kreis","type":"Landkreis"},"federalState":{"key":"06","name":"Hessen"}},{"name":"Huttentalstr.","postalCode":"63628","locality":"Bad Soden-Salmünster","municipality":{"key":"06435002","name":"Bad Soden-Salmünster, Stadt","type":"Stadt"},"district":{"key":"06435","name":"Main-Kinzig-Kreis","type":"Landkreis"},"federalState":{"key":"06","name":"Hessen"}},{"name":"Im Eichwäldchen","postalCode":"63628","locality":"Bad Soden-Salmünster","municipality":{"key":"06435002","name":"Bad Soden-Salmünster, Stadt","type":"Stadt"},"district":{"key":"06435","name":"Main-Kinzig-Kreis","type":"Landkreis"},"federalState":{"key":"06","name":"Hessen"}},{"name":"Im Gründchen","postalCode":"63628","locality":"Bad Soden-Salmünster","municipality":{"key":"06435002","name":"Bad Soden-Salmünster, Stadt","type":"Stadt"},"district":{"key":"06435","name":"Main-Kinzig-Kreis","type":"Landkreis"},"federalState":{"key":"06","name":"Hessen"}},{"name":"Im Höfchen","postalCode":"63628","locality":"Bad Soden-Salmünster","municipality":{"key":"06435002","name":"Bad Soden-Salmünster, Stadt","type":"Stadt"},"district":{"key":"06435","name":"Main-Kinzig-Kreis","type":"Landkreis"},"federalState":{"key":"06","name":"Hessen"}},{"name":"Im Hopfengarten","postalCode":"63628","locality":"Bad Soden-Salmünster","municipality":{"key":"06435002","name":"Bad Soden-Salmünster, Stadt","type":"Stadt"},"district":{"key":"06435","name":"Main-Kinzig-Kreis","type":"Landkreis"},"federalState":{"key":"06","name":"Hessen"}},{"name":"Im Kammerfest","postalCode":"63628","locality":"Bad Soden-Salmünster","municipality":{"key":"06435002","name":"Bad Soden-Salmünster, Stadt","type":"Stadt"},"district":{"key":"06435","name":"Main-Kinzig-Kreis","type":"Landkreis"},"federalState":{"key":"06","name":"Hessen"}},{"name":"Im Kleegarten","postalCode":"63628","locality":"Bad Soden-Salmünster","municipality":{"key":"06435002","name":"Bad Soden-Salmünster, Stadt","type":"Stadt"},"district":{"key":"06435","name":"Main-Kinzig-Kreis","type":"Landkreis"},"federalState":{"key":"06","name":"Hessen"}},{"name":"Im Rausch","postalCode":"63628","locality":"Bad Soden-Salmünster","municipality":{"key":"06435002","name":"Bad Soden-Salmünster, Stadt","type":"Stadt"},"district":{"key":"06435","name":"Main-Kinzig-Kreis","type":"Landkreis"},"federalState":{"key":"06","name":"Hessen"}},{"name":"Im Wiesengrund","postalCode":"63628","locality":"Bad Soden-Salmünster","municipality":{"key":"06435002","name":"Bad Soden-Salmünster, Stadt","type":"Stadt"},"district":{"key":"06435","name":"Main-Kinzig-Kreis","type":"Landkreis"},"federalState":{"key":"06","name":"Hessen"}},{"name":"In der Salz","postalCode":"63628","locality":"Bad Soden-Salmünster","municipality":{"key":"06435002","name":"Bad Soden-Salmünster, Stadt","type":"Stadt"},"district":{"key":"06435","name":"Main-Kinzig-Kreis","type":"Landkreis"},"federalState":{"key":"06","name":"Hessen"}},{"name":"Jahnstr.","postalCode":"63628","locality":"Bad Soden-Salmünster","municipality":{"key":"06435002","name":"Bad Soden-Salmünster, Stadt","type":"Stadt"},"district":{"key":"06435","name":"Main-Kinzig-Kreis","type":"Landkreis"},"federalState":{"key":"06","name":"Hessen"}},{"name":"Jakob-Rullmann-Str.","postalCode":"63628","locality":"Bad Soden-Salmünster","municipality":{"key":"06435002","name":"Bad Soden-Salmünster, Stadt","type":"Stadt"},"district":{"key":"06435","name":"Main-Kinzig-Kreis","type":"Landkreis"},"federalState":{"key":"06","name":"Hessen"}},{"name":"Johannes-Lutz-Str.","postalCode":"63628","locality":"Bad Soden-Salmünster","municipality":{"key":"06435002","name":"Bad Soden-Salmünster, Stadt","type":"Stadt"},"district":{"key":"06435","name":"Main-Kinzig-Kreis","type":"Landkreis"},"federalState":{"key":"06","name":"Hessen"}},{"name":"Josef-Dieter-Weg","postalCode":"63628","locality":"Bad Soden-Salmünster","municipality":{"key":"06435002","name":"Bad Soden-Salmünster, Stadt","type":"Stadt"},"district":{"key":"06435","name":"Main-Kinzig-Kreis","type":"Landkreis"},"federalState":{"key":"06","name":"Hessen"}},{"name":"Josef-Leistenschneider-Str.","postalCode":"63628","locality":"Bad Soden-Salmünster","municipality":{"key":"06435002","name":"Bad Soden-Salmünster, Stadt","type":"Stadt"},"district":{"key":"06435","name":"Main-Kinzig-Kreis","type":"Landkreis"},"federalState":{"key":"06","name":"Hessen"}},{"name":"Joseph-Müller-Str.","postalCode":"63628","locality":"Bad Soden-Salmünster","municipality":{"key":"06435002","name":"Bad Soden-Salmünster, Stadt","type":"Stadt"},"district":{"key":"06435","name":"Main-Kinzig-Kreis","type":"Landkreis"},"federalState":{"key":"06","name":"Hessen"}},{"name":"Jossastr.","postalCode":"63628","locality":"Bad Soden-Salmünster","municipality":{"key":"06435002","name":"Bad Soden-Salmünster, Stadt","type":"Stadt"},"district":{"key":"06435","name":"Main-Kinzig-Kreis","type":"Landkreis"},"federalState":{"key":"06","name":"Hessen"}},{"name":"Kalkofenstr.","postalCode":"63628","locality":"Bad Soden-Salmünster","municipality":{"key":"06435002","name":"Bad Soden-Salmünster, Stadt","type":"Stadt"},"district":{"key":"06435","name":"Main-Kinzig-Kreis","type":"Landkreis"},"federalState":{"key":"06","name":"Hessen"}},{"name":"Kantstr.","postalCode":"63628","locality":"Bad Soden-Salmünster","municipality":{"key":"06435002","name":"Bad Soden-Salmünster, Stadt","type":"Stadt"},"district":{"key":"06435","name":"Main-Kinzig-Kreis","type":"Landkreis"},"federalState":{"key":"06","name":"Hessen"}},{"name":"Kapellenweg","postalCode":"63628","locality":"Bad Soden-Salmünster","municipality":{"key":"06435002","name":"Bad Soden-Salmünster, Stadt","type":"Stadt"},"district":{"key":"06435","name":"Main-Kinzig-Kreis","type":"Landkreis"},"federalState":{"key":"06","name":"Hessen"}},{"name":"Karl-Roth-Str.","postalCode":"63628","locality":"Bad Soden-Salmünster","municipality":{"key":"06435002","name":"Bad Soden-Salmünster, Stadt","type":"Stadt"},"district":{"key":"06435","name":"Main-Kinzig-Kreis","type":"Landkreis"},"federalState":{"key":"06","name":"Hessen"}},{"name":"Kastanienstr.","postalCode":"63628","locality":"Bad Soden-Salmünster","municipality":{"key":"06435002","name":"Bad Soden-Salmünster, Stadt","type":"Stadt"},"district":{"key":"06435","name":"Main-Kinzig-Kreis","type":"Landkreis"},"federalState":{"key":"06","name":"Hessen"}},{"name":"Kettelerstr.","postalCode":"63628","locality":"Bad Soden-Salmünster","municipality":{"key":"06435002","name":"Bad Soden-Salmünster, Stadt","type":"Stadt"},"district":{"key":"06435","name":"Main-Kinzig-Kreis","type":"Landkreis"},"federalState":{"key":"06","name":"Hessen"}},{"name":"Kiefernstr.","postalCode":"63628","locality":"Bad Soden-Salmünster","municipality":{"key":"06435002","name":"Bad Soden-Salmünster, Stadt","type":"Stadt"},"district":{"key":"06435","name":"Main-Kinzig-Kreis","type":"Landkreis"},"federalState":{"key":"06","name":"Hessen"}},{"name":"Kinzigstr.","postalCode":"63628","locality":"Bad Soden-Salmünster","municipality":{"key":"06435002","name":"Bad Soden-Salmünster, Stadt","type":"Stadt"},"district":{"key":"06435","name":"Main-Kinzig-Kreis","type":"Landkreis"},"federalState":{"key":"06","name":"Hessen"}},{"name":"Kirchberg","postalCode":"63628","locality":"Bad Soden-Salmünster","municipality":{"key":"06435002","name":"Bad Soden-Salmünster, Stadt","type":"Stadt"},"district":{"key":"06435","name":"Main-Kinzig-Kreis","type":"Landkreis"},"federalState":{"key":"06","name":"Hessen"}},{"name":"Kirchstr.","postalCode":"63628","locality":"Bad Soden-Salmünster","municipality":{"key":"06435002","name":"Bad Soden-Salmünster, Stadt","type":"Stadt"},"district":{"key":"06435","name":"Main-Kinzig-Kreis","type":"Landkreis"},"federalState":{"key":"06","name":"Hessen"}},{"name":"Kirschallee","postalCode":"63628","locality":"Bad Soden-Salmünster","municipality":{"key":"06435002","name":"Bad Soden-Salmünster, Stadt","type":"Stadt"},"district":{"key":"06435","name":"Main-Kinzig-Kreis","type":"Landkreis"},"federalState":{"key":"06","name":"Hessen"}},{"name":"Kleiner Brückenrain","postalCode":"63628","locality":"Bad Soden-Salmünster","municipality":{"key":"06435002","name":"Bad Soden-Salmünster, Stadt","type":"Stadt"},"district":{"key":"06435","name":"Main-Kinzig-Kreis","type":"Landkreis"},"federalState":{"key":"06","name":"Hessen"}},{"name":"Kleiststr.","postalCode":"63628","locality":"Bad Soden-Salmünster","municipality":{"key":"06435002","name":"Bad Soden-Salmünster, Stadt","type":"Stadt"},"district":{"key":"06435","name":"Main-Kinzig-Kreis","type":"Landkreis"},"federalState":{"key":"06","name":"Hessen"}},{"name":"Klingbachbrücke","postalCode":"63628","locality":"Bad Soden-Salmünster","municipality":{"key":"06435002","name":"Bad Soden-Salmünster, Stadt","type":"Stadt"},"district":{"key":"06435","name":"Main-Kinzig-Kreis","type":"Landkreis"},"federalState":{"key":"06","name":"Hessen"}},{"name":"Klingstr.","postalCode":"63628","locality":"Bad Soden-Salmünster","municipality":{"key":"06435002","name":"Bad Soden-Salmünster, Stadt","type":"Stadt"},"district":{"key":"06435","name":"Main-Kinzig-Kreis","type":"Landkreis"},"federalState":{"key":"06","name":"Hessen"}},{"name":"Klostergasse","postalCode":"63628","locality":"Bad Soden-Salmünster","municipality":{"key":"06435002","name":"Bad Soden-Salmünster, Stadt","type":"Stadt"},"district":{"key":"06435","name":"Main-Kinzig-Kreis","type":"Landkreis"},"federalState":{"key":"06","name":"Hessen"}},{"name":"Knappschaftsweg","postalCode":"63628","locality":"Bad Soden-Salmünster","municipality":{"key":"06435002","name":"Bad Soden-Salmünster, Stadt","type":"Stadt"},"district":{"key":"06435","name":"Main-Kinzig-Kreis","type":"Landkreis"},"federalState":{"key":"06","name":"Hessen"}},{"name":"Kneippsgasse","postalCode":"63628","locality":"Bad Soden-Salmünster","municipality":{"key":"06435002","name":"Bad Soden-Salmünster, Stadt","type":"Stadt"},"district":{"key":"06435","name":"Main-Kinzig-Kreis","type":"Landkreis"},"federalState":{"key":"06","name":"Hessen"}},{"name":"Kölner Str.","postalCode":"63628","locality":"Bad Soden-Salmünster","municipality":{"key":"06435002","name":"Bad Soden-Salmünster, Stadt","type":"Stadt"},"district":{"key":"06435","name":"Main-Kinzig-Kreis","type":"Landkreis"},"federalState":{"key":"06","name":"Hessen"}},{"name":"Kolpingstr.","postalCode":"63628","locality":"Bad Soden-Salmünster","municipality":{"key":"06435002","name":"Bad Soden-Salmünster, Stadt","type":"Stadt"},"district":{"key":"06435","name":"Main-Kinzig-Kreis","type":"Landkreis"},"federalState":{"key":"06","name":"Hessen"}},{"name":"König-Heinrich-Weg","postalCode":"63628","locality":"Bad Soden-Salmünster","municipality":{"key":"06435002","name":"Bad Soden-Salmünster, Stadt","type":"Stadt"},"district":{"key":"06435","name":"Main-Kinzig-Kreis","type":"Landkreis"},"federalState":{"key":"06","name":"Hessen"}},{"name":"Kurpark","postalCode":"63628","locality":"Bad Soden-Salmünster","municipality":{"key":"06435002","name":"Bad Soden-Salmünster, Stadt","type":"Stadt"},"district":{"key":"06435","name":"Main-Kinzig-Kreis","type":"Landkreis"},"federalState":{"key":"06","name":"Hessen"}},{"name":"Lange Wiese","postalCode":"63628","locality":"Bad Soden-Salmünster","municipality":{"key":"06435002","name":"Bad Soden-Salmünster, Stadt","type":"Stadt"},"district":{"key":"06435","name":"Main-Kinzig-Kreis","type":"Landkreis"},"federalState":{"key":"06","name":"Hessen"}},{"name":"Langstriegelweg","postalCode":"63628","locality":"Bad Soden-Salmünster","municipality":{"key":"06435002","name":"Bad Soden-Salmünster, Stadt","type":"Stadt"},"district":{"key":"06435","name":"Main-Kinzig-Kreis","type":"Landkreis"},"federalState":{"key":"06","name":"Hessen"}},{"name":"Lärchenweg","postalCode":"63628","locality":"Bad Soden-Salmünster","municipality":{"key":"06435002","name":"Bad Soden-Salmünster, Stadt","type":"Stadt"},"district":{"key":"06435","name":"Main-Kinzig-Kreis","type":"Landkreis"},"federalState":{"key":"06","name":"Hessen"}},{"name":"Lavendelweg","postalCode":"63628","locality":"Bad Soden-Salmünster","municipality":{"key":"06435002","name":"Bad Soden-Salmünster, Stadt","type":"Stadt"},"district":{"key":"06435","name":"Main-Kinzig-Kreis","type":"Landkreis"},"federalState":{"key":"06","name":"Hessen"}},{"name":"Leipziger Str.","postalCode":"63628","locality":"Bad Soden-Salmünster","municipality":{"key":"06435002","name":"Bad Soden-Salmünster, Stadt","type":"Stadt"},"district":{"key":"06435","name":"Main-Kinzig-Kreis","type":"Landkreis"},"federalState":{"key":"06","name":"Hessen"}},{"name":"Lessingstr.","postalCode":"63628","locality":"Bad Soden-Salmünster","municipality":{"key":"06435002","name":"Bad Soden-Salmünster, Stadt","type":"Stadt"},"district":{"key":"06435","name":"Main-Kinzig-Kreis","type":"Landkreis"},"federalState":{"key":"06","name":"Hessen"}},{"name":"Lindenstr.","postalCode":"63628","locality":"Bad Soden-Salmünster","municipality":{"key":"06435002","name":"Bad Soden-Salmünster, Stadt","type":"Stadt"},"district":{"key":"06435","name":"Main-Kinzig-Kreis","type":"Landkreis"},"federalState":{"key":"06","name":"Hessen"}},{"name":"Luftberg","postalCode":"63628","locality":"Bad Soden-Salmünster","municipality":{"key":"06435002","name":"Bad Soden-Salmünster, Stadt","type":"Stadt"},"district":{"key":"06435","name":"Main-Kinzig-Kreis","type":"Landkreis"},"federalState":{"key":"06","name":"Hessen"}},{"name":"Luzerneweg","postalCode":"63628","locality":"Bad Soden-Salmünster","municipality":{"key":"06435002","name":"Bad Soden-Salmünster, Stadt","type":"Stadt"},"district":{"key":"06435","name":"Main-Kinzig-Kreis","type":"Landkreis"},"federalState":{"key":"06","name":"Hessen"}},{"name":"Mainzer Str.","postalCode":"63628","locality":"Bad Soden-Salmünster","municipality":{"key":"06435002","name":"Bad Soden-Salmünster, Stadt","type":"Stadt"},"district":{"key":"06435","name":"Main-Kinzig-Kreis","type":"Landkreis"},"federalState":{"key":"06","name":"Hessen"}},{"name":"Major-Bedding-Str.","postalCode":"63628","locality":"Bad Soden-Salmünster","municipality":{"key":"06435002","name":"Bad Soden-Salmünster, Stadt","type":"Stadt"},"district":{"key":"06435","name":"Main-Kinzig-Kreis","type":"Landkreis"},"federalState":{"key":"06","name":"Hessen"}},{"name":"Marborner Str.","postalCode":"63628","locality":"Bad Soden-Salmünster","municipality":{"key":"06435002","name":"Bad Soden-Salmünster, Stadt","type":"Stadt"},"district":{"key":"06435","name":"Main-Kinzig-Kreis","type":"Landkreis"},"federalState":{"key":"06","name":"Hessen"}},{"name":"Marburger Str.","postalCode":"63628","locality":"Bad Soden-Salmünster","municipality":{"key":"06435002","name":"Bad Soden-Salmünster, Stadt","type":"Stadt"},"district":{"key":"06435","name":"Main-Kinzig-Kreis","type":"Landkreis"},"federalState":{"key":"06","name":"Hessen"}},{"name":"Marienbader Str.","postalCode":"63628","locality":"Bad Soden-Salmünster","municipality":{"key":"06435002","name":"Bad Soden-Salmünster, Stadt","type":"Stadt"},"district":{"key":"06435","name":"Main-Kinzig-Kreis","type":"Landkreis"},"federalState":{"key":"06","name":"Hessen"}},{"name":"Meisenweg","postalCode":"63628","locality":"Bad Soden-Salmünster","municipality":{"key":"06435002","name":"Bad Soden-Salmünster, Stadt","type":"Stadt"},"district":{"key":"06435","name":"Main-Kinzig-Kreis","type":"Landkreis"},"federalState":{"key":"06","name":"Hessen"}},{"name":"Mittelstr.","postalCode":"63628","locality":"Bad Soden-Salmünster","municipality":{"key":"06435002","name":"Bad Soden-Salmünster, Stadt","type":"Stadt"},"district":{"key":"06435","name":"Main-Kinzig-Kreis","type":"Landkreis"},"federalState":{"key":"06","name":"Hessen"}},{"name":"Mozartstr.","postalCode":"63628","locality":"Bad Soden-Salmünster","municipality":{"key":"06435002","name":"Bad Soden-Salmünster, Stadt","type":"Stadt"},"district":{"key":"06435","name":"Main-Kinzig-Kreis","type":"Landkreis"},"federalState":{"key":"06","name":"Hessen"}},{"name":"Mühlbachstr.","postalCode":"63628","locality":"Bad Soden-Salmünster","municipality":{"key":"06435002","name":"Bad Soden-Salmünster, Stadt","type":"Stadt"},"district":{"key":"06435","name":"Main-Kinzig-Kreis","type":"Landkreis"},"federalState":{"key":"06","name":"Hessen"}},{"name":"Mühlbachweg","postalCode":"63628","locality":"Bad Soden-Salmünster","municipality":{"key":"06435002","name":"Bad Soden-Salmünster, Stadt","type":"Stadt"},"district":{"key":"06435","name":"Main-Kinzig-Kreis","type":"Landkreis"},"federalState":{"key":"06","name":"Hessen"}},{"name":"Mühlberg","postalCode":"63628","locality":"Bad Soden-Salmünster","municipality":{"key":"06435002","name":"Bad Soden-Salmünster, Stadt","type":"Stadt"},"district":{"key":"06435","name":"Main-Kinzig-Kreis","type":"Landkreis"},"federalState":{"key":"06","name":"Hessen"}},{"name":"Mühlenstr.","postalCode":"63628","locality":"Bad Soden-Salmünster","municipality":{"key":"06435002","name":"Bad Soden-Salmünster, Stadt","type":"Stadt"},"district":{"key":"06435","name":"Main-Kinzig-Kreis","type":"Landkreis"},"federalState":{"key":"06","name":"Hessen"}},{"name":"Münchner Str.","postalCode":"63628","locality":"Bad Soden-Salmünster","municipality":{"key":"06435002","name":"Bad Soden-Salmünster, Stadt","type":"Stadt"},"district":{"key":"06435","name":"Main-Kinzig-Kreis","type":"Landkreis"},"federalState":{"key":"06","name":"Hessen"}},{"name":"Münsterbergstr.","postalCode":"63628","locality":"Bad Soden-Salmünster","municipality":{"key":"06435002","name":"Bad Soden-Salmünster, Stadt","type":"Stadt"},"district":{"key":"06435","name":"Main-Kinzig-Kreis","type":"Landkreis"},"federalState":{"key":"06","name":"Hessen"}},{"name":"Neue Heimat","postalCode":"63628","locality":"Bad Soden-Salmünster","municipality":{"key":"06435002","name":"Bad Soden-Salmünster, Stadt","type":"Stadt"},"district":{"key":"06435","name":"Main-Kinzig-Kreis","type":"Landkreis"},"federalState":{"key":"06","name":"Hessen"}},{"name":"Neulandstr.","postalCode":"63628","locality":"Bad Soden-Salmünster","municipality":{"key":"06435002","name":"Bad Soden-Salmünster, Stadt","type":"Stadt"},"district":{"key":"06435","name":"Main-Kinzig-Kreis","type":"Landkreis"},"federalState":{"key":"06","name":"Hessen"}},{"name":"Nussallee","postalCode":"63628","locality":"Bad Soden-Salmünster","municipality":{"key":"06435002","name":"Bad Soden-Salmünster, Stadt","type":"Stadt"},"district":{"key":"06435","name":"Main-Kinzig-Kreis","type":"Landkreis"},"federalState":{"key":"06","name":"Hessen"}},{"name":"Oberfeldstr.","postalCode":"63628","locality":"Bad Soden-Salmünster","municipality":{"key":"06435002","name":"Bad Soden-Salmünster, Stadt","type":"Stadt"},"district":{"key":"06435","name":"Main-Kinzig-Kreis","type":"Landkreis"},"federalState":{"key":"06","name":"Hessen"}},{"name":"Oberweg","postalCode":"63628","locality":"Bad Soden-Salmünster","municipality":{"key":"06435002","name":"Bad Soden-Salmünster, Stadt","type":"Stadt"},"district":{"key":"06435","name":"Main-Kinzig-Kreis","type":"Landkreis"},"federalState":{"key":"06","name":"Hessen"}},{"name":"Offenbacher Str.","postalCode":"63628","locality":"Bad Soden-Salmünster","municipality":{"key":"06435002","name":"Bad Soden-Salmünster, Stadt","type":"Stadt"},"district":{"key":"06435","name":"Main-Kinzig-Kreis","type":"Landkreis"},"federalState":{"key":"06","name":"Hessen"}},{"name":"Orbertalsweg","postalCode":"63628","locality":"Bad Soden-Salmünster","municipality":{"key":"06435002","name":"Bad Soden-Salmünster, Stadt","type":"Stadt"},"district":{"key":"06435","name":"Main-Kinzig-Kreis","type":"Landkreis"},"federalState":{"key":"06","name":"Hessen"}},{"name":"Orber Weg","postalCode":"63628","locality":"Bad Soden-Salmünster","municipality":{"key":"06435002","name":"Bad Soden-Salmünster, Stadt","type":"Stadt"},"district":{"key":"06435","name":"Main-Kinzig-Kreis","type":"Landkreis"},"federalState":{"key":"06","name":"Hessen"}},{"name":"Ostring","postalCode":"63628","locality":"Bad Soden-Salmünster","municipality":{"key":"06435002","name":"Bad Soden-Salmünster, Stadt","type":"Stadt"},"district":{"key":"06435","name":"Main-Kinzig-Kreis","type":"Landkreis"},"federalState":{"key":"06","name":"Hessen"}},{"name":"Pacificusplatz","postalCode":"63628","locality":"Bad Soden-Salmünster","municipality":{"key":"06435002","name":"Bad Soden-Salmünster, Stadt","type":"Stadt"},"district":{"key":"06435","name":"Main-Kinzig-Kreis","type":"Landkreis"},"federalState":{"key":"06","name":"Hessen"}},{"name":"Pacificusstr.","postalCode":"63628","locality":"Bad Soden-Salmünster","municipality":{"key":"06435002","name":"Bad Soden-Salmünster, Stadt","type":"Stadt"},"district":{"key":"06435","name":"Main-Kinzig-Kreis","type":"Landkreis"},"federalState":{"key":"06","name":"Hessen"}},{"name":"Pappelweg","postalCode":"63628","locality":"Bad Soden-Salmünster","municipality":{"key":"06435002","name":"Bad Soden-Salmünster, Stadt","type":"Stadt"},"district":{"key":"06435","name":"Main-Kinzig-Kreis","type":"Landkreis"},"federalState":{"key":"06","name":"Hessen"}},{"name":"Parkstr.","postalCode":"63628","locality":"Bad Soden-Salmünster","municipality":{"key":"06435002","name":"Bad Soden-Salmünster, Stadt","type":"Stadt"},"district":{"key":"06435","name":"Main-Kinzig-Kreis","type":"Landkreis"},"federalState":{"key":"06","name":"Hessen"}},{"name":"Philipp-Reis-Str.","postalCode":"63628","locality":"Bad Soden-Salmünster","municipality":{"key":"06435002","name":"Bad Soden-Salmünster, Stadt","type":"Stadt"},"district":{"key":"06435","name":"Main-Kinzig-Kreis","type":"Landkreis"},"federalState":{"key":"06","name":"Hessen"}},{"name":"Platanenstr.","postalCode":"63628","locality":"Bad Soden-Salmünster","municipality":{"key":"06435002","name":"Bad Soden-Salmünster, Stadt","type":"Stadt"},"district":{"key":"06435","name":"Main-Kinzig-Kreis","type":"Landkreis"},"federalState":{"key":"06","name":"Hessen"}},{"name":"Poststr.","postalCode":"63628","locality":"Bad Soden-Salmünster","municipality":{"key":"06435002","name":"Bad Soden-Salmünster, Stadt","type":"Stadt"},"district":{"key":"06435","name":"Main-Kinzig-Kreis","type":"Landkreis"},"federalState":{"key":"06","name":"Hessen"}},{"name":"Potsdamer Str.","postalCode":"63628","locality":"Bad Soden-Salmünster","municipality":{"key":"06435002","name":"Bad Soden-Salmünster, Stadt","type":"Stadt"},"district":{"key":"06435","name":"Main-Kinzig-Kreis","type":"Landkreis"},"federalState":{"key":"06","name":"Hessen"}},{"name":"Quellenweg","postalCode":"63628","locality":"Bad Soden-Salmünster","municipality":{"key":"06435002","name":"Bad Soden-Salmünster, Stadt","type":"Stadt"},"district":{"key":"06435","name":"Main-Kinzig-Kreis","type":"Landkreis"},"federalState":{"key":"06","name":"Hessen"}},{"name":"Rathausplatz","postalCode":"63628","locality":"Bad Soden-Salmünster","municipality":{"key":"06435002","name":"Bad Soden-Salmünster, Stadt","type":"Stadt"},"district":{"key":"06435","name":"Main-Kinzig-Kreis","type":"Landkreis"},"federalState":{"key":"06","name":"Hessen"}},{"name":"Rathausstr.","postalCode":"63628","locality":"Bad Soden-Salmünster","municipality":{"key":"06435002","name":"Bad Soden-Salmünster, Stadt","type":"Stadt"},"district":{"key":"06435","name":"Main-Kinzig-Kreis","type":"Landkreis"},"federalState":{"key":"06","name":"Hessen"}},{"name":"Reichenaustr.","postalCode":"63628","locality":"Bad Soden-Salmünster","municipality":{"key":"06435002","name":"Bad Soden-Salmünster, Stadt","type":"Stadt"},"district":{"key":"06435","name":"Main-Kinzig-Kreis","type":"Landkreis"},"federalState":{"key":"06","name":"Hessen"}},{"name":"Reichenbacher Weg","postalCode":"63628","locality":"Bad Soden-Salmünster","municipality":{"key":"06435002","name":"Bad Soden-Salmünster, Stadt","type":"Stadt"},"district":{"key":"06435","name":"Main-Kinzig-Kreis","type":"Landkreis"},"federalState":{"key":"06","name":"Hessen"}},{"name":"Reitzenberg","postalCode":"63628","locality":"Bad Soden-Salmünster","municipality":{"key":"06435002","name":"Bad Soden-Salmünster, Stadt","type":"Stadt"},"district":{"key":"06435","name":"Main-Kinzig-Kreis","type":"Landkreis"},"federalState":{"key":"06","name":"Hessen"}},{"name":"Rhönstr.","postalCode":"63628","locality":"Bad Soden-Salmünster","municipality":{"key":"06435002","name":"Bad Soden-Salmünster, Stadt","type":"Stadt"},"district":{"key":"06435","name":"Main-Kinzig-Kreis","type":"Landkreis"},"federalState":{"key":"06","name":"Hessen"}},{"name":"Richard-Wagner-Str.","postalCode":"63628","locality":"Bad Soden-Salmünster","municipality":{"key":"06435002","name":"Bad Soden-Salmünster, Stadt","type":"Stadt"},"district":{"key":"06435","name":"Main-Kinzig-Kreis","type":"Landkreis"},"federalState":{"key":"06","name":"Hessen"}},{"name":"Ringstr.","postalCode":"63628","locality":"Bad Soden-Salmünster","municipality":{"key":"06435002","name":"Bad Soden-Salmünster, Stadt","type":"Stadt"},"district":{"key":"06435","name":"Main-Kinzig-Kreis","type":"Landkreis"},"federalState":{"key":"06","name":"Hessen"}},{"name":"Romsthaler Str.","postalCode":"63628","locality":"Bad Soden-Salmünster","municipality":{"key":"06435002","name":"Bad Soden-Salmünster, Stadt","type":"Stadt"},"district":{"key":"06435","name":"Main-Kinzig-Kreis","type":"Landkreis"},"federalState":{"key":"06","name":"Hessen"}},{"name":"Röntgenweg","postalCode":"63628","locality":"Bad Soden-Salmünster","municipality":{"key":"06435002","name":"Bad Soden-Salmünster, Stadt","type":"Stadt"},"district":{"key":"06435","name":"Main-Kinzig-Kreis","type":"Landkreis"},"federalState":{"key":"06","name":"Hessen"}},{"name":"Rosenweg","postalCode":"63628","locality":"Bad Soden-Salmünster","municipality":{"key":"06435002","name":"Bad Soden-Salmünster, Stadt","type":"Stadt"},"district":{"key":"06435","name":"Main-Kinzig-Kreis","type":"Landkreis"},"federalState":{"key":"06","name":"Hessen"}},{"name":"Roter Weg","postalCode":"63628","locality":"Bad Soden-Salmünster","municipality":{"key":"06435002","name":"Bad Soden-Salmünster, Stadt","type":"Stadt"},"district":{"key":"06435","name":"Main-Kinzig-Kreis","type":"Landkreis"},"federalState":{"key":"06","name":"Hessen"}},{"name":"Rückmühlenweg","postalCode":"63628","locality":"Bad Soden-Salmünster","municipality":{"key":"06435002","name":"Bad Soden-Salmünster, Stadt","type":"Stadt"},"district":{"key":"06435","name":"Main-Kinzig-Kreis","type":"Landkreis"},"federalState":{"key":"06","name":"Hessen"}},{"name":"Rudolf-Berta-Str.","postalCode":"63628","locality":"Bad Soden-Salmünster","municipality":{"key":"06435002","name":"Bad Soden-Salmünster, Stadt","type":"Stadt"},"district":{"key":"06435","name":"Main-Kinzig-Kreis","type":"Landkreis"},"federalState":{"key":"06","name":"Hessen"}},{"name":"Sackgasse","postalCode":"63628","locality":"Bad Soden-Salmünster","municipality":{"key":"06435002","name":"Bad Soden-Salmünster, Stadt","type":"Stadt"},"district":{"key":"06435","name":"Main-Kinzig-Kreis","type":"Landkreis"},"federalState":{"key":"06","name":"Hessen"}},{"name":"Salmünsterer Str.","postalCode":"63628","locality":"Bad Soden-Salmünster","municipality":{"key":"06435002","name":"Bad Soden-Salmünster, Stadt","type":"Stadt"},"district":{"key":"06435","name":"Main-Kinzig-Kreis","type":"Landkreis"},"federalState":{"key":"06","name":"Hessen"}},{"name":"Salzstr.","postalCode":"63628","locality":"Bad Soden-Salmünster","municipality":{"key":"06435002","name":"Bad Soden-Salmünster, Stadt","type":"Stadt"},"district":{"key":"06435","name":"Main-Kinzig-Kreis","type":"Landkreis"},"federalState":{"key":"06","name":"Hessen"}},{"name":"Salztalstr.","postalCode":"63628","locality":"Bad Soden-Salmünster","municipality":{"key":"06435002","name":"Bad Soden-Salmünster, Stadt","type":"Stadt"},"district":{"key":"06435","name":"Main-Kinzig-Kreis","type":"Landkreis"},"federalState":{"key":"06","name":"Hessen"}},{"name":"Schillerstr.","postalCode":"63628","locality":"Bad Soden-Salmünster","municipality":{"key":"06435002","name":"Bad Soden-Salmünster, Stadt","type":"Stadt"},"district":{"key":"06435","name":"Main-Kinzig-Kreis","type":"Landkreis"},"federalState":{"key":"06","name":"Hessen"}},{"name":"Schlagmühlenweg","postalCode":"63628","locality":"Bad Soden-Salmünster","municipality":{"key":"06435002","name":"Bad Soden-Salmünster, Stadt","type":"Stadt"},"district":{"key":"06435","name":"Main-Kinzig-Kreis","type":"Landkreis"},"federalState":{"key":"06","name":"Hessen"}},{"name":"Schlehenweg","postalCode":"63628","locality":"Bad Soden-Salmünster","municipality":{"key":"06435002","name":"Bad Soden-Salmünster, Stadt","type":"Stadt"},"district":{"key":"06435","name":"Main-Kinzig-Kreis","type":"Landkreis"},"federalState":{"key":"06","name":"Hessen"}},{"name":"Schlesische Str.","postalCode":"63628","locality":"Bad Soden-Salmünster","municipality":{"key":"06435002","name":"Bad Soden-Salmünster, Stadt","type":"Stadt"},"district":{"key":"06435","name":"Main-Kinzig-Kreis","type":"Landkreis"},"federalState":{"key":"06","name":"Hessen"}},{"name":"Schöne Aussicht","postalCode":"63628","locality":"Bad Soden-Salmünster","municipality":{"key":"06435002","name":"Bad Soden-Salmünster, Stadt","type":"Stadt"},"district":{"key":"06435","name":"Main-Kinzig-Kreis","type":"Landkreis"},"federalState":{"key":"06","name":"Hessen"}},{"name":"Schöner Bühl","postalCode":"63628","locality":"Bad Soden-Salmünster","municipality":{"key":"06435002","name":"Bad Soden-Salmünster, Stadt","type":"Stadt"},"district":{"key":"06435","name":"Main-Kinzig-Kreis","type":"Landkreis"},"federalState":{"key":"06","name":"Hessen"}},{"name":"Schulstr.","postalCode":"63628","locality":"Bad Soden-Salmünster","municipality":{"key":"06435002","name":"Bad Soden-Salmünster, Stadt","type":"Stadt"},"district":{"key":"06435","name":"Main-Kinzig-Kreis","type":"Landkreis"},"federalState":{"key":"06","name":"Hessen"}},{"name":"Schulweg","postalCode":"63628","locality":"Bad Soden-Salmünster","municipality":{"key":"06435002","name":"Bad Soden-Salmünster, Stadt","type":"Stadt"},"district":{"key":"06435","name":"Main-Kinzig-Kreis","type":"Landkreis"},"federalState":{"key":"06","name":"Hessen"}},{"name":"Schwedengasse","postalCode":"63628","locality":"Bad Soden-Salmünster","municipality":{"key":"06435002","name":"Bad Soden-Salmünster, Stadt","type":"Stadt"},"district":{"key":"06435","name":"Main-Kinzig-Kreis","type":"Landkreis"},"federalState":{"key":"06","name":"Hessen"}},{"name":"Schwedenring","postalCode":"63628","locality":"Bad Soden-Salmünster","municipality":{"key":"06435002","name":"Bad Soden-Salmünster, Stadt","type":"Stadt"},"district":{"key":"06435","name":"Main-Kinzig-Kreis","type":"Landkreis"},"federalState":{"key":"06","name":"Hessen"}},{"name":"Sebastian-Herbst-Str.","postalCode":"63628","locality":"Bad Soden-Salmünster","municipality":{"key":"06435002","name":"Bad Soden-Salmünster, Stadt","type":"Stadt"},"district":{"key":"06435","name":"Main-Kinzig-Kreis","type":"Landkreis"},"federalState":{"key":"06","name":"Hessen"}},{"name":"Seestr.","postalCode":"63628","locality":"Bad Soden-Salmünster","municipality":{"key":"06435002","name":"Bad Soden-Salmünster, Stadt","type":"Stadt"},"district":{"key":"06435","name":"Main-Kinzig-Kreis","type":"Landkreis"},"federalState":{"key":"06","name":"Hessen"}},{"name":"Siedlung","postalCode":"63628","locality":"Bad Soden-Salmünster","municipality":{"key":"06435002","name":"Bad Soden-Salmünster, Stadt","type":"Stadt"},"district":{"key":"06435","name":"Main-Kinzig-Kreis","type":"Landkreis"},"federalState":{"key":"06","name":"Hessen"}},{"name":"Sodner Au","postalCode":"63628","locality":"Bad Soden-Salmünster","municipality":{"key":"06435002","name":"Bad Soden-Salmünster, Stadt","type":"Stadt"},"district":{"key":"06435","name":"Main-Kinzig-Kreis","type":"Landkreis"},"federalState":{"key":"06","name":"Hessen"}},{"name":"Spessart-Höhenstr.","postalCode":"63628","locality":"Bad Soden-Salmünster","municipality":{"key":"06435002","name":"Bad Soden-Salmünster, Stadt","type":"Stadt"},"district":{"key":"06435","name":"Main-Kinzig-Kreis","type":"Landkreis"},"federalState":{"key":"06","name":"Hessen"}},{"name":"Spessartstr.","postalCode":"63628","locality":"Bad Soden-Salmünster","municipality":{"key":"06435002","name":"Bad Soden-Salmünster, Stadt","type":"Stadt"},"district":{"key":"06435","name":"Main-Kinzig-Kreis","type":"Landkreis"},"federalState":{"key":"06","name":"Hessen"}},{"name":"Spinnvasen","postalCode":"63628","locality":"Bad Soden-Salmünster","municipality":{"key":"06435002","name":"Bad Soden-Salmünster, Stadt","type":"Stadt"},"district":{"key":"06435","name":"Main-Kinzig-Kreis","type":"Landkreis"},"federalState":{"key":"06","name":"Hessen"}},{"name":"Sprudelallee","postalCode":"63628","locality":"Bad Soden-Salmünster","municipality":{"key":"06435002","name":"Bad Soden-Salmünster, Stadt","type":"Stadt"},"district":{"key":"06435","name":"Main-Kinzig-Kreis","type":"Landkreis"},"federalState":{"key":"06","name":"Hessen"}},{"name":"Steinauer Str.","postalCode":"63628","locality":"Bad Soden-Salmünster","municipality":{"key":"06435002","name":"Bad Soden-Salmünster, Stadt","type":"Stadt"},"district":{"key":"06435","name":"Main-Kinzig-Kreis","type":"Landkreis"},"federalState":{"key":"06","name":"Hessen"}},{"name":"Steingarten","postalCode":"63628","locality":"Bad Soden-Salmünster","municipality":{"key":"06435002","name":"Bad Soden-Salmünster, Stadt","type":"Stadt"},"district":{"key":"06435","name":"Main-Kinzig-Kreis","type":"Landkreis"},"federalState":{"key":"06","name":"Hessen"}},{"name":"Steiniger Berg","postalCode":"63628","locality":"Bad Soden-Salmünster","municipality":{"key":"06435002","name":"Bad Soden-Salmünster, Stadt","type":"Stadt"},"district":{"key":"06435","name":"Main-Kinzig-Kreis","type":"Landkreis"},"federalState":{"key":"06","name":"Hessen"}},{"name":"Steinkautenweg","postalCode":"63628","locality":"Bad Soden-Salmünster","municipality":{"key":"06435002","name":"Bad Soden-Salmünster, Stadt","type":"Stadt"},"district":{"key":"06435","name":"Main-Kinzig-Kreis","type":"Landkreis"},"federalState":{"key":"06","name":"Hessen"}},{"name":"Steinweg","postalCode":"63628","locality":"Bad Soden-Salmünster","municipality":{"key":"06435002","name":"Bad Soden-Salmünster, Stadt","type":"Stadt"},"district":{"key":"06435","name":"Main-Kinzig-Kreis","type":"Landkreis"},"federalState":{"key":"06","name":"Hessen"}},{"name":"Stiftungsstr.","postalCode":"63628","locality":"Bad Soden-Salmünster","municipality":{"key":"06435002","name":"Bad Soden-Salmünster, Stadt","type":"Stadt"},"district":{"key":"06435","name":"Main-Kinzig-Kreis","type":"Landkreis"},"federalState":{"key":"06","name":"Hessen"}},{"name":"Stolzenthalstr.","postalCode":"63628","locality":"Bad Soden-Salmünster","municipality":{"key":"06435002","name":"Bad Soden-Salmünster, Stadt","type":"Stadt"},"district":{"key":"06435","name":"Main-Kinzig-Kreis","type":"Landkreis"},"federalState":{"key":"06","name":"Hessen"}},{"name":"Sudetenlandstr.","postalCode":"63628","locality":"Bad Soden-Salmünster","municipality":{"key":"06435002","name":"Bad Soden-Salmünster, Stadt","type":"Stadt"},"district":{"key":"06435","name":"Main-Kinzig-Kreis","type":"Landkreis"},"federalState":{"key":"06","name":"Hessen"}},{"name":"Talstr.","postalCode":"63628","locality":"Bad Soden-Salmünster","municipality":{"key":"06435002","name":"Bad Soden-Salmünster, Stadt","type":"Stadt"},"district":{"key":"06435","name":"Main-Kinzig-Kreis","type":"Landkreis"},"federalState":{"key":"06","name":"Hessen"}},{"name":"Tannenkopfstr.","postalCode":"63628","locality":"Bad Soden-Salmünster","municipality":{"key":"06435002","name":"Bad Soden-Salmünster, Stadt","type":"Stadt"},"district":{"key":"06435","name":"Main-Kinzig-Kreis","type":"Landkreis"},"federalState":{"key":"06","name":"Hessen"}},{"name":"Tannenweg","postalCode":"63628","locality":"Bad Soden-Salmünster","municipality":{"key":"06435002","name":"Bad Soden-Salmünster, Stadt","type":"Stadt"},"district":{"key":"06435","name":"Main-Kinzig-Kreis","type":"Landkreis"},"federalState":{"key":"06","name":"Hessen"}},{"name":"Thermalstr.","postalCode":"63628","locality":"Bad Soden-Salmünster","municipality":{"key":"06435002","name":"Bad Soden-Salmünster, Stadt","type":"Stadt"},"district":{"key":"06435","name":"Main-Kinzig-Kreis","type":"Landkreis"},"federalState":{"key":"06","name":"Hessen"}},{"name":"Trierer Str.","postalCode":"63628","locality":"Bad Soden-Salmünster","municipality":{"key":"06435002","name":"Bad Soden-Salmünster, Stadt","type":"Stadt"},"district":{"key":"06435","name":"Main-Kinzig-Kreis","type":"Landkreis"},"federalState":{"key":"06","name":"Hessen"}},{"name":"Tulpenweg","postalCode":"63628","locality":"Bad Soden-Salmünster","municipality":{"key":"06435002","name":"Bad Soden-Salmünster, Stadt","type":"Stadt"},"district":{"key":"06435","name":"Main-Kinzig-Kreis","type":"Landkreis"},"federalState":{"key":"06","name":"Hessen"}},{"name":"Turnerweg","postalCode":"63628","locality":"Bad Soden-Salmünster","municipality":{"key":"06435002","name":"Bad Soden-Salmünster, Stadt","type":"Stadt"},"district":{"key":"06435","name":"Main-Kinzig-Kreis","type":"Landkreis"},"federalState":{"key":"06","name":"Hessen"}},{"name":"Udenhainer Str.","postalCode":"63628","locality":"Bad Soden-Salmünster","municipality":{"key":"06435002","name":"Bad Soden-Salmünster, Stadt","type":"Stadt"},"district":{"key":"06435","name":"Main-Kinzig-Kreis","type":"Landkreis"},"federalState":{"key":"06","name":"Hessen"}},{"name":"Uferstr.","postalCode":"63628","locality":"Bad Soden-Salmünster","municipality":{"key":"06435002","name":"Bad Soden-Salmünster, Stadt","type":"Stadt"},"district":{"key":"06435","name":"Main-Kinzig-Kreis","type":"Landkreis"},"federalState":{"key":"06","name":"Hessen"}},{"name":"Ulmbacher Str.","postalCode":"63628","locality":"Bad Soden-Salmünster","municipality":{"key":"06435002","name":"Bad Soden-Salmünster, Stadt","type":"Stadt"},"district":{"key":"06435","name":"Main-Kinzig-Kreis","type":"Landkreis"},"federalState":{"key":"06","name":"Hessen"}},{"name":"Ulmenstr.","postalCode":"63628","locality":"Bad Soden-Salmünster","municipality":{"key":"06435002","name":"Bad Soden-Salmünster, Stadt","type":"Stadt"},"district":{"key":"06435","name":"Main-Kinzig-Kreis","type":"Landkreis"},"federalState":{"key":"06","name":"Hessen"}},{"name":"Untere Au","postalCode":"63628","locality":"Bad Soden-Salmünster","municipality":{"key":"06435002","name":"Bad Soden-Salmünster, Stadt","type":"Stadt"},"district":{"key":"06435","name":"Main-Kinzig-Kreis","type":"Landkreis"},"federalState":{"key":"06","name":"Hessen"}},{"name":"Unterweg","postalCode":"63628","locality":"Bad Soden-Salmünster","municipality":{"key":"06435002","name":"Bad Soden-Salmünster, Stadt","type":"Stadt"},"district":{"key":"06435","name":"Main-Kinzig-Kreis","type":"Landkreis"},"federalState":{"key":"06","name":"Hessen"}},{"name":"Vogelsbergstr.","postalCode":"63628","locality":"Bad Soden-Salmünster","municipality":{"key":"06435002","name":"Bad Soden-Salmünster, Stadt","type":"Stadt"},"district":{"key":"06435","name":"Main-Kinzig-Kreis","type":"Landkreis"},"federalState":{"key":"06","name":"Hessen"}},{"name":"Vogtgasse","postalCode":"63628","locality":"Bad Soden-Salmünster","municipality":{"key":"06435002","name":"Bad Soden-Salmünster, Stadt","type":"Stadt"},"district":{"key":"06435","name":"Main-Kinzig-Kreis","type":"Landkreis"},"federalState":{"key":"06","name":"Hessen"}},{"name":"Von-Kühlmann-Stumm-Str.","postalCode":"63628","locality":"Bad Soden-Salmünster","municipality":{"key":"06435002","name":"Bad Soden-Salmünster, Stadt","type":"Stadt"},"district":{"key":"06435","name":"Main-Kinzig-Kreis","type":"Landkreis"},"federalState":{"key":"06","name":"Hessen"}},{"name":"Voreller","postalCode":"63628","locality":"Bad Soden-Salmünster","municipality":{"key":"06435002","name":"Bad Soden-Salmünster, Stadt","type":"Stadt"},"district":{"key":"06435","name":"Main-Kinzig-Kreis","type":"Landkreis"},"federalState":{"key":"06","name":"Hessen"}},{"name":"Wahlerter Str.","postalCode":"63628","locality":"Bad Soden-Salmünster","municipality":{"key":"06435002","name":"Bad Soden-Salmünster, Stadt","type":"Stadt"},"district":{"key":"06435","name":"Main-Kinzig-Kreis","type":"Landkreis"},"federalState":{"key":"06","name":"Hessen"}},{"name":"Wahlerter Weg","postalCode":"63628","locality":"Bad Soden-Salmünster","municipality":{"key":"06435002","name":"Bad Soden-Salmünster, Stadt","type":"Stadt"},"district":{"key":"06435","name":"Main-Kinzig-Kreis","type":"Landkreis"},"federalState":{"key":"06","name":"Hessen"}},{"name":"Waldschulstr.","postalCode":"63628","locality":"Bad Soden-Salmünster","municipality":{"key":"06435002","name":"Bad Soden-Salmünster, Stadt","type":"Stadt"},"district":{"key":"06435","name":"Main-Kinzig-Kreis","type":"Landkreis"},"federalState":{"key":"06","name":"Hessen"}},{"name":"Waldstr.","postalCode":"63628","locality":"Bad Soden-Salmünster","municipality":{"key":"06435002","name":"Bad Soden-Salmünster, Stadt","type":"Stadt"},"district":{"key":"06435","name":"Main-Kinzig-Kreis","type":"Landkreis"},"federalState":{"key":"06","name":"Hessen"}},{"name":"Weilersweg","postalCode":"63628","locality":"Bad Soden-Salmünster","municipality":{"key":"06435002","name":"Bad Soden-Salmünster, Stadt","type":"Stadt"},"district":{"key":"06435","name":"Main-Kinzig-Kreis","type":"Landkreis"},"federalState":{"key":"06","name":"Hessen"}},{"name":"Weinstr.","postalCode":"63628","locality":"Bad Soden-Salmünster","municipality":{"key":"06435002","name":"Bad Soden-Salmünster, Stadt","type":"Stadt"},"district":{"key":"06435","name":"Main-Kinzig-Kreis","type":"Landkreis"},"federalState":{"key":"06","name":"Hessen"}},{"name":"Weiße Gasse","postalCode":"63628","locality":"Bad Soden-Salmünster","municipality":{"key":"06435002","name":"Bad Soden-Salmünster, Stadt","type":"Stadt"},"district":{"key":"06435","name":"Main-Kinzig-Kreis","type":"Landkreis"},"federalState":{"key":"06","name":"Hessen"}},{"name":"Werner-Reimers-Str.","postalCode":"63628","locality":"Bad Soden-Salmünster","municipality":{"key":"06435002","name":"Bad Soden-Salmünster, Stadt","type":"Stadt"},"district":{"key":"06435","name":"Main-Kinzig-Kreis","type":"Landkreis"},"federalState":{"key":"06","name":"Hessen"}},{"name":"Wiesbadener Str.","postalCode":"63628","locality":"Bad Soden-Salmünster","municipality":{"key":"06435002","name":"Bad Soden-Salmünster, Stadt","type":"Stadt"},"district":{"key":"06435","name":"Main-Kinzig-Kreis","type":"Landkreis"},"federalState":{"key":"06","name":"Hessen"}},{"name":"Wiesenauweg","postalCode":"63628","locality":"Bad Soden-Salmünster","municipality":{"key":"06435002","name":"Bad Soden-Salmünster, Stadt","type":"Stadt"},"district":{"key":"06435","name":"Main-Kinzig-Kreis","type":"Landkreis"},"federalState":{"key":"06","name":"Hessen"}},{"name":"Wilhelm-Bratfisch-Str.","postalCode":"63628","locality":"Bad Soden-Salmünster","municipality":{"key":"06435002","name":"Bad Soden-Salmünster, Stadt","type":"Stadt"},"district":{"key":"06435","name":"Main-Kinzig-Kreis","type":"Landkreis"},"federalState":{"key":"06","name":"Hessen"}},{"name":"Willenröther Str.","postalCode":"63628","locality":"Bad Soden-Salmünster","municipality":{"key":"06435002","name":"Bad Soden-Salmünster, Stadt","type":"Stadt"},"district":{"key":"06435","name":"Main-Kinzig-Kreis","type":"Landkreis"},"federalState":{"key":"06","name":"Hessen"}},{"name":"Winkelgasse","postalCode":"63628","locality":"Bad Soden-Salmünster","municipality":{"key":"06435002","name":"Bad Soden-Salmünster, Stadt","type":"Stadt"},"district":{"key":"06435","name":"Main-Kinzig-Kreis","type":"Landkreis"},"federalState":{"key":"06","name":"Hessen"}},{"name":"Wölfchesweg","postalCode":"63628","locality":"Bad Soden-Salmünster","municipality":{"key":"06435002","name":"Bad Soden-Salmünster, Stadt","type":"Stadt"},"district":{"key":"06435","name":"Main-Kinzig-Kreis","type":"Landkreis"},"federalState":{"key":"06","name":"Hessen"}},{"name":"Würzburger Str.","postalCode":"63628","locality":"Bad Soden-Salmünster","municipality":{"key":"06435002","name":"Bad Soden-Salmünster, Stadt","type":"Stadt"},"district":{"key":"06435","name":"Main-Kinzig-Kreis","type":"Landkreis"},"federalState":{"key":"06","name":"Hessen"}},{"name":"Ysenburger Str.","postalCode":"63628","locality":"Bad Soden-Salmünster","municipality":{"key":"06435002","name":"Bad Soden-Salmünster, Stadt","type":"Stadt"},"district":{"key":"06435","name":"Main-Kinzig-Kreis","type":"Landkreis"},"federalState":{"key":"06","name":"Hessen"}},{"name":"Ziegelhüttenstr.","postalCode":"63628","locality":"Bad Soden-Salmünster","municipality":{"key":"06435002","name":"Bad Soden-Salmünster, Stadt","type":"Stadt"},"district":{"key":"06435","name":"Main-Kinzig-Kreis","type":"Landkreis"},"federalState":{"key":"06","name":"Hessen"}},{"name":"Zum Heegwald","postalCode":"63628","locality":"Bad Soden-Salmünster","municipality":{"key":"06435002","name":"Bad Soden-Salmünster, Stadt","type":"Stadt"},"district":{"key":"06435","name":"Main-Kinzig-Kreis","type":"Landkreis"},"federalState":{"key":"06","name":"Hessen"}},{"name":"Zum Streufling","postalCode":"63628","locality":"Bad Soden-Salmünster","municipality":{"key":"06435002","name":"Bad Soden-Salmünster, Stadt","type":"Stadt"},"district":{"key":"06435","name":"Main-Kinzig-Kreis","type":"Landkreis"},"federalState":{"key":"06","name":"Hessen"}},{"name":"Zum Talblick","postalCode":"63628","locality":"Bad Soden-Salmünster","municipality":{"key":"06435002","name":"Bad Soden-Salmünster, Stadt","type":"Stadt"},"district":{"key":"06435","name":"Main-Kinzig-Kreis","type":"Landkreis"},"federalState":{"key":"06","name":"Hessen"}},{"name":"Zum Traroth","postalCode":"63628","locality":"Bad Soden-Salmünster","municipality":{"key":"06435002","name":"Bad Soden-Salmünster, Stadt","type":"Stadt"},"district":{"key":"06435","name":"Main-Kinzig-Kreis","type":"Landkreis"},"federalState":{"key":"06","name":"Hessen"}},]