[{"code":"60305","district":{"code":"603","name":"Deutschlandsberg","key":"603"},"federalProvince":{"name":"Steiermark","key":"6"},"postalCode":"8523","name":"Frauental an der Laßnitz","multiplePostalCodes":true,"key":"60305","status":"MarketTown"},{"code":"60318","district":{"code":"603","name":"Deutschlandsberg","key":"603"},"federalProvince":{"name":"Steiermark","key":"6"},"postalCode":"8502","name":"Lannach","multiplePostalCodes":true,"key":"60318","status":"MarketTown"},{"code":"60323","district":{"code":"603","name":"Deutschlandsberg","key":"603"},"federalProvince":{"name":"Steiermark","key":"6"},"postalCode":"8544","name":"Pölfing-Brunn","multiplePostalCodes":true,"key":"60323","status":"MarketTown"},{"code":"60324","district":{"code":"603","name":"Deutschlandsberg","key":"603"},"federalProvince":{"name":"Steiermark","key":"6"},"postalCode":"8504","name":"Preding","multiplePostalCodes":false,"key":"60324","status":"MarketTown"},{"code":"60326","district":{"code":"603","name":"Deutschlandsberg","key":"603"},"federalProvince":{"name":"Steiermark","key":"6"},"postalCode":"8503","name":"Sankt Josef (Weststeiermark)","multiplePostalCodes":true,"key":"60326","status":"None"},{"code":"60329","district":{"code":"603","name":"Deutschlandsberg","key":"603"},"federalProvince":{"name":"Steiermark","key":"6"},"postalCode":"8542","name":"Sankt Peter im Sulmtal","multiplePostalCodes":true,"key":"60329","status":"None"},{"code":"60341","district":{"code":"603","name":"Deutschlandsberg","key":"603"},"federalProvince":{"name":"Steiermark","key":"6"},"postalCode":"8521","name":"Wettmannstätten","multiplePostalCodes":true,"key":"60341","status":"MarketTown"},{"code":"60344","district":{"code":"603","name":"Deutschlandsberg","key":"603"},"federalProvince":{"name":"Steiermark","key":"6"},"postalCode":"8530","name":"Deutschlandsberg","multiplePostalCodes":true,"key":"60344","status":"UrbanMunicipality"},{"code":"60345","district":{"code":"603","name":"Deutschlandsberg","key":"603"},"federalProvince":{"name":"Steiermark","key":"6"},"postalCode":"8552","name":"Eibiswald","multiplePostalCodes":true,"key":"60345","status":"MarketTown"},{"code":"60346","district":{"code":"603","name":"Deutschlandsberg","key":"603"},"federalProvince":{"name":"Steiermark","key":"6"},"postalCode":"8522","name":"Groß Sankt Florian","multiplePostalCodes":true,"key":"60346","status":"MarketTown"},{"code":"60347","district":{"code":"603","name":"Deutschlandsberg","key":"603"},"federalProvince":{"name":"Steiermark","key":"6"},"postalCode":"8543","name":"Sankt Martin im Sulmtal","multiplePostalCodes":true,"key":"60347","status":"None"},{"code":"60348","district":{"code":"603","name":"Deutschlandsberg","key":"603"},"federalProvince":{"name":"Steiermark","key":"6"},"postalCode":"8511","name":"Sankt Stefan ob Stainz","multiplePostalCodes":true,"key":"60348","status":"None"},{"code":"60349","district":{"code":"603","name":"Deutschlandsberg","key":"603"},"federalProvince":{"name":"Steiermark","key":"6"},"postalCode":"8541","name":"Bad Schwanberg","multiplePostalCodes":true,"key":"60349","status":"MarketTown"},{"code":"60350","district":{"code":"603","name":"Deutschlandsberg","key":"603"},"federalProvince":{"name":"Steiermark","key":"6"},"postalCode":"8510","name":"Stainz","multiplePostalCodes":true,"key":"60350","status":"MarketTown"},{"code":"60351","district":{"code":"603","name":"Deutschlandsberg","key":"603"},"federalProvince":{"name":"Steiermark","key":"6"},"postalCode":"8551","name":"Wies","multiplePostalCodes":true,"key":"60351","status":"MarketTown"}]