[{"name":"Ackerring","postalCode":"59379","locality":"Selm","municipality":{"key":"05978032","name":"Selm, Stadt","type":"Stadt"},"district":{"key":"05978","name":"Unna","type":"Kreis"},"federalState":{"key":"05","name":"Nordrhein-Westfalen"}},{"name":"Ahornstr.","postalCode":"59379","locality":"Selm","municipality":{"key":"05978032","name":"Selm, Stadt","type":"Stadt"},"district":{"key":"05978","name":"Unna","type":"Kreis"},"federalState":{"key":"05","name":"Nordrhein-Westfalen"}},{"name":"Akazienweg","postalCode":"59379","locality":"Selm","municipality":{"key":"05978032","name":"Selm, Stadt","type":"Stadt"},"district":{"key":"05978","name":"Unna","type":"Kreis"},"federalState":{"key":"05","name":"Nordrhein-Westfalen"}},{"name":"Albert-Schweitzer-Str.","postalCode":"59379","locality":"Selm","municipality":{"key":"05978032","name":"Selm, Stadt","type":"Stadt"},"district":{"key":"05978","name":"Unna","type":"Kreis"},"federalState":{"key":"05","name":"Nordrhein-Westfalen"}},{"name":"Allensteiner Str.","postalCode":"59379","locality":"Selm","municipality":{"key":"05978032","name":"Selm, Stadt","type":"Stadt"},"district":{"key":"05978","name":"Unna","type":"Kreis"},"federalState":{"key":"05","name":"Nordrhein-Westfalen"}},{"name":"Alstedder Str.","postalCode":"59379","locality":"Selm","municipality":{"key":"05978032","name":"Selm, Stadt","type":"Stadt"},"district":{"key":"05978","name":"Unna","type":"Kreis"},"federalState":{"key":"05","name":"Nordrhein-Westfalen"}},{"name":"Alte Mühle","postalCode":"23923","locality":"Selmsdorf","municipality":{"key":"13074076","name":"Selmsdorf","type":"Kreisangehörige_Gemeinde"},"district":{"key":"13074","name":"Nordwestmecklenburg","type":"Landkreis"},"federalState":{"key":"13","name":"Mecklenburg-Vorpommern"}},{"name":"Alter Festplatz / Park","postalCode":"59379","locality":"Selm","municipality":{"key":"05978032","name":"Selm, Stadt","type":"Stadt"},"district":{"key":"05978","name":"Unna","type":"Kreis"},"federalState":{"key":"05","name":"Nordrhein-Westfalen"}},{"name":"Alter Kirchplatz","postalCode":"59379","locality":"Selm","municipality":{"key":"05978032","name":"Selm, Stadt","type":"Stadt"},"district":{"key":"05978","name":"Unna","type":"Kreis"},"federalState":{"key":"05","name":"Nordrhein-Westfalen"}},{"name":"Am Alten Hof","postalCode":"59379","locality":"Selm","municipality":{"key":"05978032","name":"Selm, Stadt","type":"Stadt"},"district":{"key":"05978","name":"Unna","type":"Kreis"},"federalState":{"key":"05","name":"Nordrhein-Westfalen"}},{"name":"Am Alten Teich","postalCode":"59379","locality":"Selm","municipality":{"key":"05978032","name":"Selm, Stadt","type":"Stadt"},"district":{"key":"05978","name":"Unna","type":"Kreis"},"federalState":{"key":"05","name":"Nordrhein-Westfalen"}},{"name":"Am Angelkamp","postalCode":"59379","locality":"Selm","municipality":{"key":"05978032","name":"Selm, Stadt","type":"Stadt"},"district":{"key":"05978","name":"Unna","type":"Kreis"},"federalState":{"key":"05","name":"Nordrhein-Westfalen"}},{"name":"Am Balkenbach","postalCode":"59379","locality":"Selm","municipality":{"key":"05978032","name":"Selm, Stadt","type":"Stadt"},"district":{"key":"05978","name":"Unna","type":"Kreis"},"federalState":{"key":"05","name":"Nordrhein-Westfalen"}},{"name":"Am Brauereiknapp","postalCode":"59379","locality":"Selm","municipality":{"key":"05978032","name":"Selm, Stadt","type":"Stadt"},"district":{"key":"05978","name":"Unna","type":"Kreis"},"federalState":{"key":"05","name":"Nordrhein-Westfalen"}},{"name":"Am Buddenberg","postalCode":"59379","locality":"Selm","municipality":{"key":"05978032","name":"Selm, Stadt","type":"Stadt"},"district":{"key":"05978","name":"Unna","type":"Kreis"},"federalState":{"key":"05","name":"Nordrhein-Westfalen"}},{"name":"Am Forstweg","postalCode":"23923","locality":"Selmsdorf","municipality":{"key":"13074076","name":"Selmsdorf","type":"Kreisangehörige_Gemeinde"},"district":{"key":"13074","name":"Nordwestmecklenburg","type":"Landkreis"},"federalState":{"key":"13","name":"Mecklenburg-Vorpommern"}},{"name":"Am Friedhof","postalCode":"59379","locality":"Selm","municipality":{"key":"05978032","name":"Selm, Stadt","type":"Stadt"},"district":{"key":"05978","name":"Unna","type":"Kreis"},"federalState":{"key":"05","name":"Nordrhein-Westfalen"}},{"name":"Am Haferkamp","postalCode":"59379","locality":"Selm","municipality":{"key":"05978032","name":"Selm, Stadt","type":"Stadt"},"district":{"key":"05978","name":"Unna","type":"Kreis"},"federalState":{"key":"05","name":"Nordrhein-Westfalen"}},{"name":"Am Hüttenbach","postalCode":"59379","locality":"Selm","municipality":{"key":"05978032","name":"Selm, Stadt","type":"Stadt"},"district":{"key":"05978","name":"Unna","type":"Kreis"},"federalState":{"key":"05","name":"Nordrhein-Westfalen"}},{"name":"Am Kanal","postalCode":"23923","locality":"Selmsdorf","municipality":{"key":"13074076","name":"Selmsdorf","type":"Kreisangehörige_Gemeinde"},"district":{"key":"13074","name":"Nordwestmecklenburg","type":"Landkreis"},"federalState":{"key":"13","name":"Mecklenburg-Vorpommern"}},{"name":"Am Kapellenknapp","postalCode":"59379","locality":"Selm","municipality":{"key":"05978032","name":"Selm, Stadt","type":"Stadt"},"district":{"key":"05978","name":"Unna","type":"Kreis"},"federalState":{"key":"05","name":"Nordrhein-Westfalen"}},{"name":"Am Klockenberg","postalCode":"59379","locality":"Selm","municipality":{"key":"05978032","name":"Selm, Stadt","type":"Stadt"},"district":{"key":"05978","name":"Unna","type":"Kreis"},"federalState":{"key":"05","name":"Nordrhein-Westfalen"}},{"name":"Am Kohuesholz","postalCode":"59379","locality":"Selm","municipality":{"key":"05978032","name":"Selm, Stadt","type":"Stadt"},"district":{"key":"05978","name":"Unna","type":"Kreis"},"federalState":{"key":"05","name":"Nordrhein-Westfalen"}},{"name":"Am Kreuzkamp","postalCode":"59379","locality":"Selm","municipality":{"key":"05978032","name":"Selm, Stadt","type":"Stadt"},"district":{"key":"05978","name":"Unna","type":"Kreis"},"federalState":{"key":"05","name":"Nordrhein-Westfalen"}},{"name":"Am Krummen Kamp","postalCode":"59379","locality":"Selm","municipality":{"key":"05978032","name":"Selm, Stadt","type":"Stadt"},"district":{"key":"05978","name":"Unna","type":"Kreis"},"federalState":{"key":"05","name":"Nordrhein-Westfalen"}},{"name":"Am Löwentor","postalCode":"59379","locality":"Selm","municipality":{"key":"05978032","name":"Selm, Stadt","type":"Stadt"},"district":{"key":"05978","name":"Unna","type":"Kreis"},"federalState":{"key":"05","name":"Nordrhein-Westfalen"}},{"name":"Am Park","postalCode":"23923","locality":"Selmsdorf","municipality":{"key":"13074076","name":"Selmsdorf","type":"Kreisangehörige_Gemeinde"},"district":{"key":"13074","name":"Nordwestmecklenburg","type":"Landkreis"},"federalState":{"key":"13","name":"Mecklenburg-Vorpommern"}},{"name":"Am Pastorenbusch","postalCode":"59379","locality":"Selm","municipality":{"key":"05978032","name":"Selm, Stadt","type":"Stadt"},"district":{"key":"05978","name":"Unna","type":"Kreis"},"federalState":{"key":"05","name":"Nordrhein-Westfalen"}},{"name":"Am Sandberg","postalCode":"23923","locality":"Selmsdorf","municipality":{"key":"13074076","name":"Selmsdorf","type":"Kreisangehörige_Gemeinde"},"district":{"key":"13074","name":"Nordwestmecklenburg","type":"Landkreis"},"federalState":{"key":"13","name":"Mecklenburg-Vorpommern"}},{"name":"Am Steinfeld","postalCode":"59379","locality":"Selm","municipality":{"key":"05978032","name":"Selm, Stadt","type":"Stadt"},"district":{"key":"05978","name":"Unna","type":"Kreis"},"federalState":{"key":"05","name":"Nordrhein-Westfalen"}},{"name":"Am Stierksken","postalCode":"59379","locality":"Selm","municipality":{"key":"05978032","name":"Selm, Stadt","type":"Stadt"},"district":{"key":"05978","name":"Unna","type":"Kreis"},"federalState":{"key":"05","name":"Nordrhein-Westfalen"}},{"name":"Am Struckmannsberg","postalCode":"59379","locality":"Selm","municipality":{"key":"05978032","name":"Selm, Stadt","type":"Stadt"},"district":{"key":"05978","name":"Unna","type":"Kreis"},"federalState":{"key":"05","name":"Nordrhein-Westfalen"}},{"name":"Am Ternscher See","postalCode":"59379","locality":"Selm","municipality":{"key":"05978032","name":"Selm, Stadt","type":"Stadt"},"district":{"key":"05978","name":"Unna","type":"Kreis"},"federalState":{"key":"05","name":"Nordrhein-Westfalen"}},{"name":"Am Wald","postalCode":"23923","locality":"Selmsdorf","municipality":{"key":"13074076","name":"Selmsdorf","type":"Kreisangehörige_Gemeinde"},"district":{"key":"13074","name":"Nordwestmecklenburg","type":"Landkreis"},"federalState":{"key":"13","name":"Mecklenburg-Vorpommern"}},{"name":"Am Wällchen","postalCode":"59379","locality":"Selm","municipality":{"key":"05978032","name":"Selm, Stadt","type":"Stadt"},"district":{"key":"05978","name":"Unna","type":"Kreis"},"federalState":{"key":"05","name":"Nordrhein-Westfalen"}},{"name":"Am Wasserturm","postalCode":"59379","locality":"Selm","municipality":{"key":"05978032","name":"Selm, Stadt","type":"Stadt"},"district":{"key":"05978","name":"Unna","type":"Kreis"},"federalState":{"key":"05","name":"Nordrhein-Westfalen"}},{"name":"Am Wasserwerk","postalCode":"23923","locality":"Selmsdorf","municipality":{"key":"13074076","name":"Selmsdorf","type":"Kreisangehörige_Gemeinde"},"district":{"key":"13074","name":"Nordwestmecklenburg","type":"Landkreis"},"federalState":{"key":"13","name":"Mecklenburg-Vorpommern"}},{"name":"Am Wiesengrund","postalCode":"23923","locality":"Selmsdorf","municipality":{"key":"13074076","name":"Selmsdorf","type":"Kreisangehörige_Gemeinde"},"district":{"key":"13074","name":"Nordwestmecklenburg","type":"Landkreis"},"federalState":{"key":"13","name":"Mecklenburg-Vorpommern"}},{"name":"Am Wiesenrand","postalCode":"59379","locality":"Selm","municipality":{"key":"05978032","name":"Selm, Stadt","type":"Stadt"},"district":{"key":"05978","name":"Unna","type":"Kreis"},"federalState":{"key":"05","name":"Nordrhein-Westfalen"}},{"name":"An den Heuwiesen","postalCode":"59379","locality":"Selm","municipality":{"key":"05978032","name":"Selm, Stadt","type":"Stadt"},"district":{"key":"05978","name":"Unna","type":"Kreis"},"federalState":{"key":"05","name":"Nordrhein-Westfalen"}},{"name":"An der B105 Sülsdorf","postalCode":"23923","locality":"Selmsdorf","municipality":{"key":"13074076","name":"Selmsdorf","type":"Kreisangehörige_Gemeinde"},"district":{"key":"13074","name":"Nordwestmecklenburg","type":"Landkreis"},"federalState":{"key":"13","name":"Mecklenburg-Vorpommern"}},{"name":"An der B105 Zarnewenz","postalCode":"23923","locality":"Selmsdorf","municipality":{"key":"13074076","name":"Selmsdorf","type":"Kreisangehörige_Gemeinde"},"district":{"key":"13074","name":"Nordwestmecklenburg","type":"Landkreis"},"federalState":{"key":"13","name":"Mecklenburg-Vorpommern"}},{"name":"An der Hasseler Kapelle","postalCode":"59379","locality":"Selm","municipality":{"key":"05978032","name":"Selm, Stadt","type":"Stadt"},"district":{"key":"05978","name":"Unna","type":"Kreis"},"federalState":{"key":"05","name":"Nordrhein-Westfalen"}},{"name":"An der langen Hecke","postalCode":"59379","locality":"Selm","municipality":{"key":"05978032","name":"Selm, Stadt","type":"Stadt"},"district":{"key":"05978","name":"Unna","type":"Kreis"},"federalState":{"key":"05","name":"Nordrhein-Westfalen"}},{"name":"Anne-Frank-Ring","postalCode":"59379","locality":"Selm","municipality":{"key":"05978032","name":"Selm, Stadt","type":"Stadt"},"district":{"key":"05978","name":"Unna","type":"Kreis"},"federalState":{"key":"05","name":"Nordrhein-Westfalen"}},{"name":"Anne-Frank-Str.","postalCode":"59379","locality":"Selm","municipality":{"key":"05978032","name":"Selm, Stadt","type":"Stadt"},"district":{"key":"05978","name":"Unna","type":"Kreis"},"federalState":{"key":"05","name":"Nordrhein-Westfalen"}},{"name":"Annegarnstr.","postalCode":"59379","locality":"Selm","municipality":{"key":"05978032","name":"Selm, Stadt","type":"Stadt"},"district":{"key":"05978","name":"Unna","type":"Kreis"},"federalState":{"key":"05","name":"Nordrhein-Westfalen"}},{"name":"Auf dem Sägeplatz","postalCode":"59379","locality":"Selm","municipality":{"key":"05978032","name":"Selm, Stadt","type":"Stadt"},"district":{"key":"05978","name":"Unna","type":"Kreis"},"federalState":{"key":"05","name":"Nordrhein-Westfalen"}},{"name":"Auf dem Schlackkamp","postalCode":"59379","locality":"Selm","municipality":{"key":"05978032","name":"Selm, Stadt","type":"Stadt"},"district":{"key":"05978","name":"Unna","type":"Kreis"},"federalState":{"key":"05","name":"Nordrhein-Westfalen"}},{"name":"Auf der Geist","postalCode":"59379","locality":"Selm","municipality":{"key":"05978032","name":"Selm, Stadt","type":"Stadt"},"district":{"key":"05978","name":"Unna","type":"Kreis"},"federalState":{"key":"05","name":"Nordrhein-Westfalen"}},{"name":"Bachstr.","postalCode":"59379","locality":"Selm","municipality":{"key":"05978032","name":"Selm, Stadt","type":"Stadt"},"district":{"key":"05978","name":"Unna","type":"Kreis"},"federalState":{"key":"05","name":"Nordrhein-Westfalen"}},{"name":"Badestr.","postalCode":"59379","locality":"Selm","municipality":{"key":"05978032","name":"Selm, Stadt","type":"Stadt"},"district":{"key":"05978","name":"Unna","type":"Kreis"},"federalState":{"key":"05","name":"Nordrhein-Westfalen"}},{"name":"Bahnhofstr.","postalCode":"59379","locality":"Selm","municipality":{"key":"05978032","name":"Selm, Stadt","type":"Stadt"},"district":{"key":"05978","name":"Unna","type":"Kreis"},"federalState":{"key":"05","name":"Nordrhein-Westfalen"}},{"name":"Baltimora","postalCode":"59379","locality":"Selm","municipality":{"key":"05978032","name":"Selm, Stadt","type":"Stadt"},"district":{"key":"05978","name":"Unna","type":"Kreis"},"federalState":{"key":"05","name":"Nordrhein-Westfalen"}},{"name":"Bardowieker Weg","postalCode":"23923","locality":"Selmsdorf","municipality":{"key":"13074076","name":"Selmsdorf","type":"Kreisangehörige_Gemeinde"},"district":{"key":"13074","name":"Nordwestmecklenburg","type":"Landkreis"},"federalState":{"key":"13","name":"Mecklenburg-Vorpommern"}},{"name":"Bassenwinkel","postalCode":"59379","locality":"Selm","municipality":{"key":"05978032","name":"Selm, Stadt","type":"Stadt"},"district":{"key":"05978","name":"Unna","type":"Kreis"},"federalState":{"key":"05","name":"Nordrhein-Westfalen"}},{"name":"Beethovenweg","postalCode":"59379","locality":"Selm","municipality":{"key":"05978032","name":"Selm, Stadt","type":"Stadt"},"district":{"key":"05978","name":"Unna","type":"Kreis"},"federalState":{"key":"05","name":"Nordrhein-Westfalen"}},{"name":"Beifanger Weg","postalCode":"59379","locality":"Selm","municipality":{"key":"05978032","name":"Selm, Stadt","type":"Stadt"},"district":{"key":"05978","name":"Unna","type":"Kreis"},"federalState":{"key":"05","name":"Nordrhein-Westfalen"}},{"name":"Bergstr.","postalCode":"59379","locality":"Selm","municipality":{"key":"05978032","name":"Selm, Stadt","type":"Stadt"},"district":{"key":"05978","name":"Unna","type":"Kreis"},"federalState":{"key":"05","name":"Nordrhein-Westfalen"}},{"name":"Berliner Str.","postalCode":"59379","locality":"Selm","municipality":{"key":"05978032","name":"Selm, Stadt","type":"Stadt"},"district":{"key":"05978","name":"Unna","type":"Kreis"},"federalState":{"key":"05","name":"Nordrhein-Westfalen"}},{"name":"Bernhard-Holtmann-Str.","postalCode":"59379","locality":"Selm","municipality":{"key":"05978032","name":"Selm, Stadt","type":"Stadt"},"district":{"key":"05978","name":"Unna","type":"Kreis"},"federalState":{"key":"05","name":"Nordrhein-Westfalen"}},{"name":"Bernhard-Pröbsting-Str.","postalCode":"59379","locality":"Selm","municipality":{"key":"05978032","name":"Selm, Stadt","type":"Stadt"},"district":{"key":"05978","name":"Unna","type":"Kreis"},"federalState":{"key":"05","name":"Nordrhein-Westfalen"}},{"name":"Bernhard-Sroka-Weg","postalCode":"59379","locality":"Selm","municipality":{"key":"05978032","name":"Selm, Stadt","type":"Stadt"},"district":{"key":"05978","name":"Unna","type":"Kreis"},"federalState":{"key":"05","name":"Nordrhein-Westfalen"}},{"name":"Binnhove","postalCode":"59379","locality":"Selm","municipality":{"key":"05978032","name":"Selm, Stadt","type":"Stadt"},"district":{"key":"05978","name":"Unna","type":"Kreis"},"federalState":{"key":"05","name":"Nordrhein-Westfalen"}},{"name":"Birkenstr.","postalCode":"59379","locality":"Selm","municipality":{"key":"05978032","name":"Selm, Stadt","type":"Stadt"},"district":{"key":"05978","name":"Unna","type":"Kreis"},"federalState":{"key":"05","name":"Nordrhein-Westfalen"}},{"name":"Bischof-Vieter-Str.","postalCode":"59379","locality":"Selm","municipality":{"key":"05978032","name":"Selm, Stadt","type":"Stadt"},"district":{"key":"05978","name":"Unna","type":"Kreis"},"federalState":{"key":"05","name":"Nordrhein-Westfalen"}},{"name":"Bismarckstr.","postalCode":"59379","locality":"Selm","municipality":{"key":"05978032","name":"Selm, Stadt","type":"Stadt"},"district":{"key":"05978","name":"Unna","type":"Kreis"},"federalState":{"key":"05","name":"Nordrhein-Westfalen"}},{"name":"Blumenstr.","postalCode":"59379","locality":"Selm","municipality":{"key":"05978032","name":"Selm, Stadt","type":"Stadt"},"district":{"key":"05978","name":"Unna","type":"Kreis"},"federalState":{"key":"05","name":"Nordrhein-Westfalen"}},{"name":"Bockmühlenweg","postalCode":"59379","locality":"Selm","municipality":{"key":"05978032","name":"Selm, Stadt","type":"Stadt"},"district":{"key":"05978","name":"Unna","type":"Kreis"},"federalState":{"key":"05","name":"Nordrhein-Westfalen"}},{"name":"Borker Landweg","postalCode":"59379","locality":"Selm","municipality":{"key":"05978032","name":"Selm, Stadt","type":"Stadt"},"district":{"key":"05978","name":"Unna","type":"Kreis"},"federalState":{"key":"05","name":"Nordrhein-Westfalen"}},{"name":"Borker Str.","postalCode":"59379","locality":"Selm","municipality":{"key":"05978032","name":"Selm, Stadt","type":"Stadt"},"district":{"key":"05978","name":"Unna","type":"Kreis"},"federalState":{"key":"05","name":"Nordrhein-Westfalen"}},{"name":"Botzlarstr.","postalCode":"59379","locality":"Selm","municipality":{"key":"05978032","name":"Selm, Stadt","type":"Stadt"},"district":{"key":"05978","name":"Unna","type":"Kreis"},"federalState":{"key":"05","name":"Nordrhein-Westfalen"}},{"name":"Breede","postalCode":"59379","locality":"Selm","municipality":{"key":"05978032","name":"Selm, Stadt","type":"Stadt"},"district":{"key":"05978","name":"Unna","type":"Kreis"},"federalState":{"key":"05","name":"Nordrhein-Westfalen"}},{"name":"Breite Str.","postalCode":"59379","locality":"Selm","municipality":{"key":"05978032","name":"Selm, Stadt","type":"Stadt"},"district":{"key":"05978","name":"Unna","type":"Kreis"},"federalState":{"key":"05","name":"Nordrhein-Westfalen"}},{"name":"Brentanostr.","postalCode":"59379","locality":"Selm","municipality":{"key":"05978032","name":"Selm, Stadt","type":"Stadt"},"district":{"key":"05978","name":"Unna","type":"Kreis"},"federalState":{"key":"05","name":"Nordrhein-Westfalen"}},{"name":"Breslauer Str.","postalCode":"59379","locality":"Selm","municipality":{"key":"05978032","name":"Selm, Stadt","type":"Stadt"},"district":{"key":"05978","name":"Unna","type":"Kreis"},"federalState":{"key":"05","name":"Nordrhein-Westfalen"}},{"name":"Brink","postalCode":"59379","locality":"Selm","municipality":{"key":"05978032","name":"Selm, Stadt","type":"Stadt"},"district":{"key":"05978","name":"Unna","type":"Kreis"},"federalState":{"key":"05","name":"Nordrhein-Westfalen"}},{"name":"Brückenstr.","postalCode":"59379","locality":"Selm","municipality":{"key":"05978032","name":"Selm, Stadt","type":"Stadt"},"district":{"key":"05978","name":"Unna","type":"Kreis"},"federalState":{"key":"05","name":"Nordrhein-Westfalen"}},{"name":"Buchenstr.","postalCode":"59379","locality":"Selm","municipality":{"key":"05978032","name":"Selm, Stadt","type":"Stadt"},"district":{"key":"05978","name":"Unna","type":"Kreis"},"federalState":{"key":"05","name":"Nordrhein-Westfalen"}},{"name":"Buchenwaldstr.","postalCode":"59379","locality":"Selm","municipality":{"key":"05978032","name":"Selm, Stadt","type":"Stadt"},"district":{"key":"05978","name":"Unna","type":"Kreis"},"federalState":{"key":"05","name":"Nordrhein-Westfalen"}},{"name":"Buddenbergstr.","postalCode":"59379","locality":"Selm","municipality":{"key":"05978032","name":"Selm, Stadt","type":"Stadt"},"district":{"key":"05978","name":"Unna","type":"Kreis"},"federalState":{"key":"05","name":"Nordrhein-Westfalen"}},{"name":"Buschkamp","postalCode":"59379","locality":"Selm","municipality":{"key":"05978032","name":"Selm, Stadt","type":"Stadt"},"district":{"key":"05978","name":"Unna","type":"Kreis"},"federalState":{"key":"05","name":"Nordrhein-Westfalen"}},{"name":"Cappenberger Damm","postalCode":"59379","locality":"Selm","municipality":{"key":"05978032","name":"Selm, Stadt","type":"Stadt"},"district":{"key":"05978","name":"Unna","type":"Kreis"},"federalState":{"key":"05","name":"Nordrhein-Westfalen"}},{"name":"Cappenberger Str.","postalCode":"59379","locality":"Selm","municipality":{"key":"05978032","name":"Selm, Stadt","type":"Stadt"},"district":{"key":"05978","name":"Unna","type":"Kreis"},"federalState":{"key":"05","name":"Nordrhein-Westfalen"}},{"name":"Dahler Holz","postalCode":"59379","locality":"Selm","municipality":{"key":"05978032","name":"Selm, Stadt","type":"Stadt"},"district":{"key":"05978","name":"Unna","type":"Kreis"},"federalState":{"key":"05","name":"Nordrhein-Westfalen"}},{"name":"Dahlienweg","postalCode":"59379","locality":"Selm","municipality":{"key":"05978032","name":"Selm, Stadt","type":"Stadt"},"district":{"key":"05978","name":"Unna","type":"Kreis"},"federalState":{"key":"05","name":"Nordrhein-Westfalen"}},{"name":"Danteweg","postalCode":"59379","locality":"Selm","municipality":{"key":"05978032","name":"Selm, Stadt","type":"Stadt"},"district":{"key":"05978","name":"Unna","type":"Kreis"},"federalState":{"key":"05","name":"Nordrhein-Westfalen"}},{"name":"Danziger Str.","postalCode":"59379","locality":"Selm","municipality":{"key":"05978032","name":"Selm, Stadt","type":"Stadt"},"district":{"key":"05978","name":"Unna","type":"Kreis"},"federalState":{"key":"05","name":"Nordrhein-Westfalen"}},{"name":"Didonstr.","postalCode":"59379","locality":"Selm","municipality":{"key":"05978032","name":"Selm, Stadt","type":"Stadt"},"district":{"key":"05978","name":"Unna","type":"Kreis"},"federalState":{"key":"05","name":"Nordrhein-Westfalen"}},{"name":"Dietrich-Bonhoeffer-Weg","postalCode":"59379","locality":"Selm","municipality":{"key":"05978032","name":"Selm, Stadt","type":"Stadt"},"district":{"key":"05978","name":"Unna","type":"Kreis"},"federalState":{"key":"05","name":"Nordrhein-Westfalen"}},{"name":"Doktor-Leber-Str.","postalCode":"23923","locality":"Selmsdorf","municipality":{"key":"13074076","name":"Selmsdorf","type":"Kreisangehörige_Gemeinde"},"district":{"key":"13074","name":"Nordwestmecklenburg","type":"Landkreis"},"federalState":{"key":"13","name":"Mecklenburg-Vorpommern"}},{"name":"Dorfplatz","postalCode":"23923","locality":"Selmsdorf","municipality":{"key":"13074076","name":"Selmsdorf","type":"Kreisangehörige_Gemeinde"},"district":{"key":"13074","name":"Nordwestmecklenburg","type":"Landkreis"},"federalState":{"key":"13","name":"Mecklenburg-Vorpommern"}},{"name":"Dorfstr.","postalCode":"23923","locality":"Selmsdorf","municipality":{"key":"13074076","name":"Selmsdorf","type":"Kreisangehörige_Gemeinde"},"district":{"key":"13074","name":"Nordwestmecklenburg","type":"Landkreis"},"federalState":{"key":"13","name":"Mecklenburg-Vorpommern"}},{"name":"Dorfstr.","postalCode":"59379","locality":"Selm","municipality":{"key":"05978032","name":"Selm, Stadt","type":"Stadt"},"district":{"key":"05978","name":"Unna","type":"Kreis"},"federalState":{"key":"05","name":"Nordrhein-Westfalen"}},{"name":"Dorfstr. Hof Selmsdorf","postalCode":"23923","locality":"Selmsdorf","municipality":{"key":"13074076","name":"Selmsdorf","type":"Kreisangehörige_Gemeinde"},"district":{"key":"13074","name":"Nordwestmecklenburg","type":"Landkreis"},"federalState":{"key":"13","name":"Mecklenburg-Vorpommern"}},{"name":"Dorfstr. Sülsdorf","postalCode":"23923","locality":"Selmsdorf","municipality":{"key":"13074076","name":"Selmsdorf","type":"Kreisangehörige_Gemeinde"},"district":{"key":"13074","name":"Nordwestmecklenburg","type":"Landkreis"},"federalState":{"key":"13","name":"Mecklenburg-Vorpommern"}},{"name":"Dorfstr. Zarnewenz","postalCode":"23923","locality":"Selmsdorf","municipality":{"key":"13074076","name":"Selmsdorf","type":"Kreisangehörige_Gemeinde"},"district":{"key":"13074","name":"Nordwestmecklenburg","type":"Landkreis"},"federalState":{"key":"13","name":"Mecklenburg-Vorpommern"}},{"name":"Dornenkamp","postalCode":"59379","locality":"Selm","municipality":{"key":"05978032","name":"Selm, Stadt","type":"Stadt"},"district":{"key":"05978","name":"Unna","type":"Kreis"},"federalState":{"key":"05","name":"Nordrhein-Westfalen"}},{"name":"Dreischfeld","postalCode":"59379","locality":"Selm","municipality":{"key":"05978032","name":"Selm, Stadt","type":"Stadt"},"district":{"key":"05978","name":"Unna","type":"Kreis"},"federalState":{"key":"05","name":"Nordrhein-Westfalen"}},{"name":"Dreischkamp","postalCode":"59379","locality":"Selm","municipality":{"key":"05978032","name":"Selm, Stadt","type":"Stadt"},"district":{"key":"05978","name":"Unna","type":"Kreis"},"federalState":{"key":"05","name":"Nordrhein-Westfalen"}},{"name":"Drosselweg","postalCode":"59379","locality":"Selm","municipality":{"key":"05978032","name":"Selm, Stadt","type":"Stadt"},"district":{"key":"05978","name":"Unna","type":"Kreis"},"federalState":{"key":"05","name":"Nordrhein-Westfalen"}},{"name":"Droste-Hülshoff-Str.","postalCode":"59379","locality":"Selm","municipality":{"key":"05978032","name":"Selm, Stadt","type":"Stadt"},"district":{"key":"05978","name":"Unna","type":"Kreis"},"federalState":{"key":"05","name":"Nordrhein-Westfalen"}},{"name":"Dünnebank","postalCode":"59379","locality":"Selm","municipality":{"key":"05978032","name":"Selm, Stadt","type":"Stadt"},"district":{"key":"05978","name":"Unna","type":"Kreis"},"federalState":{"key":"05","name":"Nordrhein-Westfalen"}},{"name":"Egenkamp","postalCode":"59379","locality":"Selm","municipality":{"key":"05978032","name":"Selm, Stadt","type":"Stadt"},"district":{"key":"05978","name":"Unna","type":"Kreis"},"federalState":{"key":"05","name":"Nordrhein-Westfalen"}},{"name":"Eichendorffstr.","postalCode":"59379","locality":"Selm","municipality":{"key":"05978032","name":"Selm, Stadt","type":"Stadt"},"district":{"key":"05978","name":"Unna","type":"Kreis"},"federalState":{"key":"05","name":"Nordrhein-Westfalen"}},{"name":"Eichenstr.","postalCode":"59379","locality":"Selm","municipality":{"key":"05978032","name":"Selm, Stadt","type":"Stadt"},"district":{"key":"05978","name":"Unna","type":"Kreis"},"federalState":{"key":"05","name":"Nordrhein-Westfalen"}},{"name":"Elbinger Str.","postalCode":"59379","locality":"Selm","municipality":{"key":"05978032","name":"Selm, Stadt","type":"Stadt"},"district":{"key":"05978","name":"Unna","type":"Kreis"},"federalState":{"key":"05","name":"Nordrhein-Westfalen"}},{"name":"Ellernmoor","postalCode":"23923","locality":"Selmsdorf","municipality":{"key":"13074076","name":"Selmsdorf","type":"Kreisangehörige_Gemeinde"},"district":{"key":"13074","name":"Nordwestmecklenburg","type":"Landkreis"},"federalState":{"key":"13","name":"Mecklenburg-Vorpommern"}},{"name":"Elsa-Brandström-Str.","postalCode":"59379","locality":"Selm","municipality":{"key":"05978032","name":"Selm, Stadt","type":"Stadt"},"district":{"key":"05978","name":"Unna","type":"Kreis"},"federalState":{"key":"05","name":"Nordrhein-Westfalen"}},{"name":"Emanuelstr.","postalCode":"59379","locality":"Selm","municipality":{"key":"05978032","name":"Selm, Stadt","type":"Stadt"},"district":{"key":"05978","name":"Unna","type":"Kreis"},"federalState":{"key":"05","name":"Nordrhein-Westfalen"}},{"name":"Emtingsweg","postalCode":"59379","locality":"Selm","municipality":{"key":"05978032","name":"Selm, Stadt","type":"Stadt"},"district":{"key":"05978","name":"Unna","type":"Kreis"},"federalState":{"key":"05","name":"Nordrhein-Westfalen"}},{"name":"Erich-Klausener-Str.","postalCode":"59379","locality":"Selm","municipality":{"key":"05978032","name":"Selm, Stadt","type":"Stadt"},"district":{"key":"05978","name":"Unna","type":"Kreis"},"federalState":{"key":"05","name":"Nordrhein-Westfalen"}},{"name":"Erich-Klausener-Weg","postalCode":"59379","locality":"Selm","municipality":{"key":"05978032","name":"Selm, Stadt","type":"Stadt"},"district":{"key":"05978","name":"Unna","type":"Kreis"},"federalState":{"key":"05","name":"Nordrhein-Westfalen"}},{"name":"Erlenstr.","postalCode":"59379","locality":"Selm","municipality":{"key":"05978032","name":"Selm, Stadt","type":"Stadt"},"district":{"key":"05978","name":"Unna","type":"Kreis"},"federalState":{"key":"05","name":"Nordrhein-Westfalen"}},{"name":"Ernst-Kraft-Str.","postalCode":"59379","locality":"Selm","municipality":{"key":"05978032","name":"Selm, Stadt","type":"Stadt"},"district":{"key":"05978","name":"Unna","type":"Kreis"},"federalState":{"key":"05","name":"Nordrhein-Westfalen"}},{"name":"Ernst-Thälmann-Str.","postalCode":"23923","locality":"Selmsdorf","municipality":{"key":"13074076","name":"Selmsdorf","type":"Kreisangehörige_Gemeinde"},"district":{"key":"13074","name":"Nordwestmecklenburg","type":"Landkreis"},"federalState":{"key":"13","name":"Mecklenburg-Vorpommern"}},{"name":"Eschenstr.","postalCode":"59379","locality":"Selm","municipality":{"key":"05978032","name":"Selm, Stadt","type":"Stadt"},"district":{"key":"05978","name":"Unna","type":"Kreis"},"federalState":{"key":"05","name":"Nordrhein-Westfalen"}},{"name":"Fährenkamp","postalCode":"59379","locality":"Selm","municipality":{"key":"05978032","name":"Selm, Stadt","type":"Stadt"},"district":{"key":"05978","name":"Unna","type":"Kreis"},"federalState":{"key":"05","name":"Nordrhein-Westfalen"}},{"name":"Fasanenweg","postalCode":"59379","locality":"Selm","municipality":{"key":"05978032","name":"Selm, Stadt","type":"Stadt"},"district":{"key":"05978","name":"Unna","type":"Kreis"},"federalState":{"key":"05","name":"Nordrhein-Westfalen"}},{"name":"Feldgarten","postalCode":"59379","locality":"Selm","municipality":{"key":"05978032","name":"Selm, Stadt","type":"Stadt"},"district":{"key":"05978","name":"Unna","type":"Kreis"},"federalState":{"key":"05","name":"Nordrhein-Westfalen"}},{"name":"Feldstiege","postalCode":"59379","locality":"Selm","municipality":{"key":"05978032","name":"Selm, Stadt","type":"Stadt"},"district":{"key":"05978","name":"Unna","type":"Kreis"},"federalState":{"key":"05","name":"Nordrhein-Westfalen"}},{"name":"Flöhkamp","postalCode":"23923","locality":"Selmsdorf","municipality":{"key":"13074076","name":"Selmsdorf","type":"Kreisangehörige_Gemeinde"},"district":{"key":"13074","name":"Nordwestmecklenburg","type":"Landkreis"},"federalState":{"key":"13","name":"Mecklenburg-Vorpommern"}},{"name":"Fontanestr.","postalCode":"59379","locality":"Selm","municipality":{"key":"05978032","name":"Selm, Stadt","type":"Stadt"},"district":{"key":"05978","name":"Unna","type":"Kreis"},"federalState":{"key":"05","name":"Nordrhein-Westfalen"}},{"name":"Freiherr-vom-Stein-Str.","postalCode":"59379","locality":"Selm","municipality":{"key":"05978032","name":"Selm, Stadt","type":"Stadt"},"district":{"key":"05978","name":"Unna","type":"Kreis"},"federalState":{"key":"05","name":"Nordrhein-Westfalen"}},{"name":"Friedrich-Schenk-Weg","postalCode":"59379","locality":"Selm","municipality":{"key":"05978032","name":"Selm, Stadt","type":"Stadt"},"district":{"key":"05978","name":"Unna","type":"Kreis"},"federalState":{"key":"05","name":"Nordrhein-Westfalen"}},{"name":"Funnenkampstr.","postalCode":"59379","locality":"Selm","municipality":{"key":"05978032","name":"Selm, Stadt","type":"Stadt"},"district":{"key":"05978","name":"Unna","type":"Kreis"},"federalState":{"key":"05","name":"Nordrhein-Westfalen"}},{"name":"Gartenstr.","postalCode":"59379","locality":"Selm","municipality":{"key":"05978032","name":"Selm, Stadt","type":"Stadt"},"district":{"key":"05978","name":"Unna","type":"Kreis"},"federalState":{"key":"05","name":"Nordrhein-Westfalen"}},{"name":"Geiststr.","postalCode":"59379","locality":"Selm","municipality":{"key":"05978032","name":"Selm, Stadt","type":"Stadt"},"district":{"key":"05978","name":"Unna","type":"Kreis"},"federalState":{"key":"05","name":"Nordrhein-Westfalen"}},{"name":"Gerhart-Hauptmann-Ring","postalCode":"59379","locality":"Selm","municipality":{"key":"05978032","name":"Selm, Stadt","type":"Stadt"},"district":{"key":"05978","name":"Unna","type":"Kreis"},"federalState":{"key":"05","name":"Nordrhein-Westfalen"}},{"name":"Gerhart-Hauptmann-Str.","postalCode":"59379","locality":"Selm","municipality":{"key":"05978032","name":"Selm, Stadt","type":"Stadt"},"district":{"key":"05978","name":"Unna","type":"Kreis"},"federalState":{"key":"05","name":"Nordrhein-Westfalen"}},{"name":"Gerta-Overbeck-Weg","postalCode":"59379","locality":"Selm","municipality":{"key":"05978032","name":"Selm, Stadt","type":"Stadt"},"district":{"key":"05978","name":"Unna","type":"Kreis"},"federalState":{"key":"05","name":"Nordrhein-Westfalen"}},{"name":"Goethestr.","postalCode":"59379","locality":"Selm","municipality":{"key":"05978032","name":"Selm, Stadt","type":"Stadt"},"district":{"key":"05978","name":"Unna","type":"Kreis"},"federalState":{"key":"05","name":"Nordrhein-Westfalen"}},{"name":"Gräfin-Kielmansegge-Str.","postalCode":"59379","locality":"Selm","municipality":{"key":"05978032","name":"Selm, Stadt","type":"Stadt"},"district":{"key":"05978","name":"Unna","type":"Kreis"},"federalState":{"key":"05","name":"Nordrhein-Westfalen"}},{"name":"Graf-von-Stauffenberg-Weg","postalCode":"59379","locality":"Selm","municipality":{"key":"05978032","name":"Selm, Stadt","type":"Stadt"},"district":{"key":"05978","name":"Unna","type":"Kreis"},"federalState":{"key":"05","name":"Nordrhein-Westfalen"}},{"name":"Grenzweg","postalCode":"59379","locality":"Selm","municipality":{"key":"05978032","name":"Selm, Stadt","type":"Stadt"},"district":{"key":"05978","name":"Unna","type":"Kreis"},"federalState":{"key":"05","name":"Nordrhein-Westfalen"}},{"name":"Grüner Ring","postalCode":"23923","locality":"Selmsdorf","municipality":{"key":"13074076","name":"Selmsdorf","type":"Kreisangehörige_Gemeinde"},"district":{"key":"13074","name":"Nordwestmecklenburg","type":"Landkreis"},"federalState":{"key":"13","name":"Mecklenburg-Vorpommern"}},{"name":"Grüner Weg","postalCode":"59379","locality":"Selm","municipality":{"key":"05978032","name":"Selm, Stadt","type":"Stadt"},"district":{"key":"05978","name":"Unna","type":"Kreis"},"federalState":{"key":"05","name":"Nordrhein-Westfalen"}},{"name":"Gutenbergstr.","postalCode":"59379","locality":"Selm","municipality":{"key":"05978032","name":"Selm, Stadt","type":"Stadt"},"district":{"key":"05978","name":"Unna","type":"Kreis"},"federalState":{"key":"05","name":"Nordrhein-Westfalen"}},{"name":"Hagenplatz","postalCode":"59379","locality":"Selm","municipality":{"key":"05978032","name":"Selm, Stadt","type":"Stadt"},"district":{"key":"05978","name":"Unna","type":"Kreis"},"federalState":{"key":"05","name":"Nordrhein-Westfalen"}},{"name":"Hagenstr.","postalCode":"59379","locality":"Selm","municipality":{"key":"05978032","name":"Selm, Stadt","type":"Stadt"},"district":{"key":"05978","name":"Unna","type":"Kreis"},"federalState":{"key":"05","name":"Nordrhein-Westfalen"}},{"name":"Hans-Böckler-Weg","postalCode":"59379","locality":"Selm","municipality":{"key":"05978032","name":"Selm, Stadt","type":"Stadt"},"district":{"key":"05978","name":"Unna","type":"Kreis"},"federalState":{"key":"05","name":"Nordrhein-Westfalen"}},{"name":"Hauptstr.","postalCode":"59379","locality":"Selm","municipality":{"key":"05978032","name":"Selm, Stadt","type":"Stadt"},"district":{"key":"05978","name":"Unna","type":"Kreis"},"federalState":{"key":"05","name":"Nordrhein-Westfalen"}},{"name":"Haus-Berge-Str.","postalCode":"59379","locality":"Selm","municipality":{"key":"05978032","name":"Selm, Stadt","type":"Stadt"},"district":{"key":"05978","name":"Unna","type":"Kreis"},"federalState":{"key":"05","name":"Nordrhein-Westfalen"}},{"name":"Haydnweg","postalCode":"59379","locality":"Selm","municipality":{"key":"05978032","name":"Selm, Stadt","type":"Stadt"},"district":{"key":"05978","name":"Unna","type":"Kreis"},"federalState":{"key":"05","name":"Nordrhein-Westfalen"}},{"name":"Hebbelweg","postalCode":"59379","locality":"Selm","municipality":{"key":"05978032","name":"Selm, Stadt","type":"Stadt"},"district":{"key":"05978","name":"Unna","type":"Kreis"},"federalState":{"key":"05","name":"Nordrhein-Westfalen"}},{"name":"Hegelstr.","postalCode":"59379","locality":"Selm","municipality":{"key":"05978032","name":"Selm, Stadt","type":"Stadt"},"district":{"key":"05978","name":"Unna","type":"Kreis"},"federalState":{"key":"05","name":"Nordrhein-Westfalen"}},{"name":"Heidestr.","postalCode":"59379","locality":"Selm","municipality":{"key":"05978032","name":"Selm, Stadt","type":"Stadt"},"district":{"key":"05978","name":"Unna","type":"Kreis"},"federalState":{"key":"05","name":"Nordrhein-Westfalen"}},{"name":"Heinrich-Böll-Weg","postalCode":"59379","locality":"Selm","municipality":{"key":"05978032","name":"Selm, Stadt","type":"Stadt"},"district":{"key":"05978","name":"Unna","type":"Kreis"},"federalState":{"key":"05","name":"Nordrhein-Westfalen"}},{"name":"Heinrich-Heine-Str.","postalCode":"59379","locality":"Selm","municipality":{"key":"05978032","name":"Selm, Stadt","type":"Stadt"},"district":{"key":"05978","name":"Unna","type":"Kreis"},"federalState":{"key":"05","name":"Nordrhein-Westfalen"}},{"name":"Heinrich-Kaufmann-Weg","postalCode":"59379","locality":"Selm","municipality":{"key":"05978032","name":"Selm, Stadt","type":"Stadt"},"district":{"key":"05978","name":"Unna","type":"Kreis"},"federalState":{"key":"05","name":"Nordrhein-Westfalen"}},{"name":"Heinrich-von-Kleist-Str.","postalCode":"59379","locality":"Selm","municipality":{"key":"05978032","name":"Selm, Stadt","type":"Stadt"},"district":{"key":"05978","name":"Unna","type":"Kreis"},"federalState":{"key":"05","name":"Nordrhein-Westfalen"}},{"name":"Herderweg","postalCode":"59379","locality":"Selm","municipality":{"key":"05978032","name":"Selm, Stadt","type":"Stadt"},"district":{"key":"05978","name":"Unna","type":"Kreis"},"federalState":{"key":"05","name":"Nordrhein-Westfalen"}},{"name":"Hermann-Löns-Weg","postalCode":"59379","locality":"Selm","municipality":{"key":"05978032","name":"Selm, Stadt","type":"Stadt"},"district":{"key":"05978","name":"Unna","type":"Kreis"},"federalState":{"key":"05","name":"Nordrhein-Westfalen"}},{"name":"Hermannstr.","postalCode":"59379","locality":"Selm","municipality":{"key":"05978032","name":"Selm, Stadt","type":"Stadt"},"district":{"key":"05978","name":"Unna","type":"Kreis"},"federalState":{"key":"05","name":"Nordrhein-Westfalen"}},{"name":"Herschkamp","postalCode":"59379","locality":"Selm","municipality":{"key":"05978032","name":"Selm, Stadt","type":"Stadt"},"district":{"key":"05978","name":"Unna","type":"Kreis"},"federalState":{"key":"05","name":"Nordrhein-Westfalen"}},{"name":"Hinterstr.","postalCode":"23923","locality":"Selmsdorf","municipality":{"key":"13074076","name":"Selmsdorf","type":"Kreisangehörige_Gemeinde"},"district":{"key":"13074","name":"Nordwestmecklenburg","type":"Landkreis"},"federalState":{"key":"13","name":"Mecklenburg-Vorpommern"}},{"name":"Hirschwiese","postalCode":"59379","locality":"Selm","municipality":{"key":"05978032","name":"Selm, Stadt","type":"Stadt"},"district":{"key":"05978","name":"Unna","type":"Kreis"},"federalState":{"key":"05","name":"Nordrhein-Westfalen"}},{"name":"Hölderlinweg","postalCode":"59379","locality":"Selm","municipality":{"key":"05978032","name":"Selm, Stadt","type":"Stadt"},"district":{"key":"05978","name":"Unna","type":"Kreis"},"federalState":{"key":"05","name":"Nordrhein-Westfalen"}},{"name":"Hölterweg","postalCode":"59379","locality":"Selm","municipality":{"key":"05978032","name":"Selm, Stadt","type":"Stadt"},"district":{"key":"05978","name":"Unna","type":"Kreis"},"federalState":{"key":"05","name":"Nordrhein-Westfalen"}},{"name":"Horstheide","postalCode":"59379","locality":"Selm","municipality":{"key":"05978032","name":"Selm, Stadt","type":"Stadt"},"district":{"key":"05978","name":"Unna","type":"Kreis"},"federalState":{"key":"05","name":"Nordrhein-Westfalen"}},{"name":"Hügelweg","postalCode":"59379","locality":"Selm","municipality":{"key":"05978032","name":"Selm, Stadt","type":"Stadt"},"district":{"key":"05978","name":"Unna","type":"Kreis"},"federalState":{"key":"05","name":"Nordrhein-Westfalen"}},{"name":"Humboldtstr.","postalCode":"59379","locality":"Selm","municipality":{"key":"05978032","name":"Selm, Stadt","type":"Stadt"},"district":{"key":"05978","name":"Unna","type":"Kreis"},"federalState":{"key":"05","name":"Nordrhein-Westfalen"}},{"name":"Im Blomenkamp","postalCode":"59379","locality":"Selm","municipality":{"key":"05978032","name":"Selm, Stadt","type":"Stadt"},"district":{"key":"05978","name":"Unna","type":"Kreis"},"federalState":{"key":"05","name":"Nordrhein-Westfalen"}},{"name":"Im Bram","postalCode":"59379","locality":"Selm","municipality":{"key":"05978032","name":"Selm, Stadt","type":"Stadt"},"district":{"key":"05978","name":"Unna","type":"Kreis"},"federalState":{"key":"05","name":"Nordrhein-Westfalen"}},{"name":"Im Brom","postalCode":"59379","locality":"Selm","municipality":{"key":"05978032","name":"Selm, Stadt","type":"Stadt"},"district":{"key":"05978","name":"Unna","type":"Kreis"},"federalState":{"key":"05","name":"Nordrhein-Westfalen"}},{"name":"Im Dahler Feld","postalCode":"59379","locality":"Selm","municipality":{"key":"05978032","name":"Selm, Stadt","type":"Stadt"},"district":{"key":"05978","name":"Unna","type":"Kreis"},"federalState":{"key":"05","name":"Nordrhein-Westfalen"}},{"name":"Im Grünen Grund","postalCode":"59379","locality":"Selm","municipality":{"key":"05978032","name":"Selm, Stadt","type":"Stadt"},"district":{"key":"05978","name":"Unna","type":"Kreis"},"federalState":{"key":"05","name":"Nordrhein-Westfalen"}},{"name":"Im Grünen Winkel","postalCode":"59379","locality":"Selm","municipality":{"key":"05978032","name":"Selm, Stadt","type":"Stadt"},"district":{"key":"05978","name":"Unna","type":"Kreis"},"federalState":{"key":"05","name":"Nordrhein-Westfalen"}},{"name":"Immenbrock","postalCode":"59379","locality":"Selm","municipality":{"key":"05978032","name":"Selm, Stadt","type":"Stadt"},"district":{"key":"05978","name":"Unna","type":"Kreis"},"federalState":{"key":"05","name":"Nordrhein-Westfalen"}},{"name":"Im Ort","postalCode":"59379","locality":"Selm","municipality":{"key":"05978032","name":"Selm, Stadt","type":"Stadt"},"district":{"key":"05978","name":"Unna","type":"Kreis"},"federalState":{"key":"05","name":"Nordrhein-Westfalen"}},{"name":"Im Sundern","postalCode":"59379","locality":"Selm","municipality":{"key":"05978032","name":"Selm, Stadt","type":"Stadt"},"district":{"key":"05978","name":"Unna","type":"Kreis"},"federalState":{"key":"05","name":"Nordrhein-Westfalen"}},{"name":"In den Eigen","postalCode":"59379","locality":"Selm","municipality":{"key":"05978032","name":"Selm, Stadt","type":"Stadt"},"district":{"key":"05978","name":"Unna","type":"Kreis"},"federalState":{"key":"05","name":"Nordrhein-Westfalen"}},{"name":"In den Kämpen","postalCode":"59379","locality":"Selm","municipality":{"key":"05978032","name":"Selm, Stadt","type":"Stadt"},"district":{"key":"05978","name":"Unna","type":"Kreis"},"federalState":{"key":"05","name":"Nordrhein-Westfalen"}},{"name":"Industriestr.","postalCode":"59379","locality":"Selm","municipality":{"key":"05978032","name":"Selm, Stadt","type":"Stadt"},"district":{"key":"05978","name":"Unna","type":"Kreis"},"federalState":{"key":"05","name":"Nordrhein-Westfalen"}},{"name":"Irisweg","postalCode":"59379","locality":"Selm","municipality":{"key":"05978032","name":"Selm, Stadt","type":"Stadt"},"district":{"key":"05978","name":"Unna","type":"Kreis"},"federalState":{"key":"05","name":"Nordrhein-Westfalen"}},{"name":"Jakob-Kaiser-Str.","postalCode":"59379","locality":"Selm","municipality":{"key":"05978032","name":"Selm, Stadt","type":"Stadt"},"district":{"key":"05978","name":"Unna","type":"Kreis"},"federalState":{"key":"05","name":"Nordrhein-Westfalen"}},{"name":"Josef-Mersmann-Weg","postalCode":"59379","locality":"Selm","municipality":{"key":"05978032","name":"Selm, Stadt","type":"Stadt"},"district":{"key":"05978","name":"Unna","type":"Kreis"},"federalState":{"key":"05","name":"Nordrhein-Westfalen"}},{"name":"Josefstr.","postalCode":"59379","locality":"Selm","municipality":{"key":"05978032","name":"Selm, Stadt","type":"Stadt"},"district":{"key":"05978","name":"Unna","type":"Kreis"},"federalState":{"key":"05","name":"Nordrhein-Westfalen"}},{"name":"K44n","postalCode":"59379","locality":"Selm","municipality":{"key":"05978032","name":"Selm, Stadt","type":"Stadt"},"district":{"key":"05978","name":"Unna","type":"Kreis"},"federalState":{"key":"05","name":"Nordrhein-Westfalen"}},{"name":"Kantstr.","postalCode":"59379","locality":"Selm","municipality":{"key":"05978032","name":"Selm, Stadt","type":"Stadt"},"district":{"key":"05978","name":"Unna","type":"Kreis"},"federalState":{"key":"05","name":"Nordrhein-Westfalen"}},{"name":"Kardinal-von-Galen-Str.","postalCode":"59379","locality":"Selm","municipality":{"key":"05978032","name":"Selm, Stadt","type":"Stadt"},"district":{"key":"05978","name":"Unna","type":"Kreis"},"federalState":{"key":"05","name":"Nordrhein-Westfalen"}},{"name":"Kastanienstr.","postalCode":"59379","locality":"Selm","municipality":{"key":"05978032","name":"Selm, Stadt","type":"Stadt"},"district":{"key":"05978","name":"Unna","type":"Kreis"},"federalState":{"key":"05","name":"Nordrhein-Westfalen"}},{"name":"Käthe-Kollwitz-Weg","postalCode":"59379","locality":"Selm","municipality":{"key":"05978032","name":"Selm, Stadt","type":"Stadt"},"district":{"key":"05978","name":"Unna","type":"Kreis"},"federalState":{"key":"05","name":"Nordrhein-Westfalen"}},{"name":"Kettelerstr.","postalCode":"59379","locality":"Selm","municipality":{"key":"05978032","name":"Selm, Stadt","type":"Stadt"},"district":{"key":"05978","name":"Unna","type":"Kreis"},"federalState":{"key":"05","name":"Nordrhein-Westfalen"}},{"name":"Kiefernstr.","postalCode":"59379","locality":"Selm","municipality":{"key":"05978032","name":"Selm, Stadt","type":"Stadt"},"district":{"key":"05978","name":"Unna","type":"Kreis"},"federalState":{"key":"05","name":"Nordrhein-Westfalen"}},{"name":"Kiefernweg","postalCode":"23923","locality":"Selmsdorf","municipality":{"key":"13074076","name":"Selmsdorf","type":"Kreisangehörige_Gemeinde"},"district":{"key":"13074","name":"Nordwestmecklenburg","type":"Landkreis"},"federalState":{"key":"13","name":"Mecklenburg-Vorpommern"}},{"name":"Kirchpatt","postalCode":"59379","locality":"Selm","municipality":{"key":"05978032","name":"Selm, Stadt","type":"Stadt"},"district":{"key":"05978","name":"Unna","type":"Kreis"},"federalState":{"key":"05","name":"Nordrhein-Westfalen"}},{"name":"Kirchplatz","postalCode":"59379","locality":"Selm","municipality":{"key":"05978032","name":"Selm, Stadt","type":"Stadt"},"district":{"key":"05978","name":"Unna","type":"Kreis"},"federalState":{"key":"05","name":"Nordrhein-Westfalen"}},{"name":"Kleine Hagenstr.","postalCode":"59379","locality":"Selm","municipality":{"key":"05978032","name":"Selm, Stadt","type":"Stadt"},"district":{"key":"05978","name":"Unna","type":"Kreis"},"federalState":{"key":"05","name":"Nordrhein-Westfalen"}},{"name":"Knappenweg","postalCode":"59379","locality":"Selm","municipality":{"key":"05978032","name":"Selm, Stadt","type":"Stadt"},"district":{"key":"05978","name":"Unna","type":"Kreis"},"federalState":{"key":"05","name":"Nordrhein-Westfalen"}},{"name":"Kochstr.","postalCode":"59379","locality":"Selm","municipality":{"key":"05978032","name":"Selm, Stadt","type":"Stadt"},"district":{"key":"05978","name":"Unna","type":"Kreis"},"federalState":{"key":"05","name":"Nordrhein-Westfalen"}},{"name":"Kolberger Str.","postalCode":"59379","locality":"Selm","municipality":{"key":"05978032","name":"Selm, Stadt","type":"Stadt"},"district":{"key":"05978","name":"Unna","type":"Kreis"},"federalState":{"key":"05","name":"Nordrhein-Westfalen"}},{"name":"Kolonnenweg","postalCode":"23923","locality":"Selmsdorf","municipality":{"key":"13074076","name":"Selmsdorf","type":"Kreisangehörige_Gemeinde"},"district":{"key":"13074","name":"Nordwestmecklenburg","type":"Landkreis"},"federalState":{"key":"13","name":"Mecklenburg-Vorpommern"}},{"name":"Kolpingstr.","postalCode":"59379","locality":"Selm","municipality":{"key":"05978032","name":"Selm, Stadt","type":"Stadt"},"district":{"key":"05978","name":"Unna","type":"Kreis"},"federalState":{"key":"05","name":"Nordrhein-Westfalen"}},{"name":"Königsberger Str.","postalCode":"59379","locality":"Selm","municipality":{"key":"05978032","name":"Selm, Stadt","type":"Stadt"},"district":{"key":"05978","name":"Unna","type":"Kreis"},"federalState":{"key":"05","name":"Nordrhein-Westfalen"}},{"name":"Königskamp","postalCode":"59379","locality":"Selm","municipality":{"key":"05978032","name":"Selm, Stadt","type":"Stadt"},"district":{"key":"05978","name":"Unna","type":"Kreis"},"federalState":{"key":"05","name":"Nordrhein-Westfalen"}},{"name":"Körnerstr.","postalCode":"59379","locality":"Selm","municipality":{"key":"05978032","name":"Selm, Stadt","type":"Stadt"},"district":{"key":"05978","name":"Unna","type":"Kreis"},"federalState":{"key":"05","name":"Nordrhein-Westfalen"}},{"name":"Kottendieck","postalCode":"59379","locality":"Selm","municipality":{"key":"05978032","name":"Selm, Stadt","type":"Stadt"},"district":{"key":"05978","name":"Unna","type":"Kreis"},"federalState":{"key":"05","name":"Nordrhein-Westfalen"}},{"name":"Kreisstr.","postalCode":"59379","locality":"Selm","municipality":{"key":"05978032","name":"Selm, Stadt","type":"Stadt"},"district":{"key":"05978","name":"Unna","type":"Kreis"},"federalState":{"key":"05","name":"Nordrhein-Westfalen"}},{"name":"Kreutzkampswiese","postalCode":"59379","locality":"Selm","municipality":{"key":"05978032","name":"Selm, Stadt","type":"Stadt"},"district":{"key":"05978","name":"Unna","type":"Kreis"},"federalState":{"key":"05","name":"Nordrhein-Westfalen"}},{"name":"Kurt-Schumacher-Str.","postalCode":"59379","locality":"Selm","municipality":{"key":"05978032","name":"Selm, Stadt","type":"Stadt"},"district":{"key":"05978","name":"Unna","type":"Kreis"},"federalState":{"key":"05","name":"Nordrhein-Westfalen"}},{"name":"Kurze Str.","postalCode":"59379","locality":"Selm","municipality":{"key":"05978032","name":"Selm, Stadt","type":"Stadt"},"district":{"key":"05978","name":"Unna","type":"Kreis"},"federalState":{"key":"05","name":"Nordrhein-Westfalen"}},{"name":"Küstriner Str.","postalCode":"59379","locality":"Selm","municipality":{"key":"05978032","name":"Selm, Stadt","type":"Stadt"},"district":{"key":"05978","name":"Unna","type":"Kreis"},"federalState":{"key":"05","name":"Nordrhein-Westfalen"}},{"name":"Landsbergstr.","postalCode":"59379","locality":"Selm","municipality":{"key":"05978032","name":"Selm, Stadt","type":"Stadt"},"district":{"key":"05978","name":"Unna","type":"Kreis"},"federalState":{"key":"05","name":"Nordrhein-Westfalen"}},{"name":"Langer Acker","postalCode":"59379","locality":"Selm","municipality":{"key":"05978032","name":"Selm, Stadt","type":"Stadt"},"district":{"key":"05978","name":"Unna","type":"Kreis"},"federalState":{"key":"05","name":"Nordrhein-Westfalen"}},{"name":"Lange Str.","postalCode":"59379","locality":"Selm","municipality":{"key":"05978032","name":"Selm, Stadt","type":"Stadt"},"district":{"key":"05978","name":"Unna","type":"Kreis"},"federalState":{"key":"05","name":"Nordrhein-Westfalen"}},{"name":"Lerchenweg","postalCode":"59379","locality":"Selm","municipality":{"key":"05978032","name":"Selm, Stadt","type":"Stadt"},"district":{"key":"05978","name":"Unna","type":"Kreis"},"federalState":{"key":"05","name":"Nordrhein-Westfalen"}},{"name":"Lessingstr.","postalCode":"59379","locality":"Selm","municipality":{"key":"05978032","name":"Selm, Stadt","type":"Stadt"},"district":{"key":"05978","name":"Unna","type":"Kreis"},"federalState":{"key":"05","name":"Nordrhein-Westfalen"}},{"name":"Lindenstr.","postalCode":"23923","locality":"Selmsdorf","municipality":{"key":"13074076","name":"Selmsdorf","type":"Kreisangehörige_Gemeinde"},"district":{"key":"13074","name":"Nordwestmecklenburg","type":"Landkreis"},"federalState":{"key":"13","name":"Mecklenburg-Vorpommern"}},{"name":"Lindenstr.","postalCode":"59379","locality":"Selm","municipality":{"key":"05978032","name":"Selm, Stadt","type":"Stadt"},"district":{"key":"05978","name":"Unna","type":"Kreis"},"federalState":{"key":"05","name":"Nordrhein-Westfalen"}},{"name":"Lindenstr. Ausbau","postalCode":"23923","locality":"Selmsdorf","municipality":{"key":"13074076","name":"Selmsdorf","type":"Kreisangehörige_Gemeinde"},"district":{"key":"13074","name":"Nordwestmecklenburg","type":"Landkreis"},"federalState":{"key":"13","name":"Mecklenburg-Vorpommern"}},{"name":"Lippestr.","postalCode":"59379","locality":"Selm","municipality":{"key":"05978032","name":"Selm, Stadt","type":"Stadt"},"district":{"key":"05978","name":"Unna","type":"Kreis"},"federalState":{"key":"05","name":"Nordrhein-Westfalen"}},{"name":"Lortzingstr.","postalCode":"59379","locality":"Selm","municipality":{"key":"05978032","name":"Selm, Stadt","type":"Stadt"},"district":{"key":"05978","name":"Unna","type":"Kreis"},"federalState":{"key":"05","name":"Nordrhein-Westfalen"}},{"name":"Lübecker Str.","postalCode":"23923","locality":"Selmsdorf","municipality":{"key":"13074076","name":"Selmsdorf","type":"Kreisangehörige_Gemeinde"},"district":{"key":"13074","name":"Nordwestmecklenburg","type":"Landkreis"},"federalState":{"key":"13","name":"Mecklenburg-Vorpommern"}},{"name":"Ludgeristr.","postalCode":"59379","locality":"Selm","municipality":{"key":"05978032","name":"Selm, Stadt","type":"Stadt"},"district":{"key":"05978","name":"Unna","type":"Kreis"},"federalState":{"key":"05","name":"Nordrhein-Westfalen"}},{"name":"Lüdinghausener Str.","postalCode":"59379","locality":"Selm","municipality":{"key":"05978032","name":"Selm, Stadt","type":"Stadt"},"district":{"key":"05978","name":"Unna","type":"Kreis"},"federalState":{"key":"05","name":"Nordrhein-Westfalen"}},{"name":"Luisenstr.","postalCode":"59379","locality":"Selm","municipality":{"key":"05978032","name":"Selm, Stadt","type":"Stadt"},"district":{"key":"05978","name":"Unna","type":"Kreis"},"federalState":{"key":"05","name":"Nordrhein-Westfalen"}},{"name":"Lünener Str.","postalCode":"59379","locality":"Selm","municipality":{"key":"05978032","name":"Selm, Stadt","type":"Stadt"},"district":{"key":"05978","name":"Unna","type":"Kreis"},"federalState":{"key":"05","name":"Nordrhein-Westfalen"}},{"name":"Lutherweg","postalCode":"59379","locality":"Selm","municipality":{"key":"05978032","name":"Selm, Stadt","type":"Stadt"},"district":{"key":"05978","name":"Unna","type":"Kreis"},"federalState":{"key":"05","name":"Nordrhein-Westfalen"}},{"name":"Madelstr.","postalCode":"59379","locality":"Selm","municipality":{"key":"05978032","name":"Selm, Stadt","type":"Stadt"},"district":{"key":"05978","name":"Unna","type":"Kreis"},"federalState":{"key":"05","name":"Nordrhein-Westfalen"}},{"name":"Mälzerstr.","postalCode":"59379","locality":"Selm","municipality":{"key":"05978032","name":"Selm, Stadt","type":"Stadt"},"district":{"key":"05978","name":"Unna","type":"Kreis"},"federalState":{"key":"05","name":"Nordrhein-Westfalen"}},{"name":"Marie-Curie-Weg","postalCode":"59379","locality":"Selm","municipality":{"key":"05978032","name":"Selm, Stadt","type":"Stadt"},"district":{"key":"05978","name":"Unna","type":"Kreis"},"federalState":{"key":"05","name":"Nordrhein-Westfalen"}},{"name":"Marienburger Str.","postalCode":"59379","locality":"Selm","municipality":{"key":"05978032","name":"Selm, Stadt","type":"Stadt"},"district":{"key":"05978","name":"Unna","type":"Kreis"},"federalState":{"key":"05","name":"Nordrhein-Westfalen"}},{"name":"Markland","postalCode":"59379","locality":"Selm","municipality":{"key":"05978032","name":"Selm, Stadt","type":"Stadt"},"district":{"key":"05978","name":"Unna","type":"Kreis"},"federalState":{"key":"05","name":"Nordrhein-Westfalen"}},{"name":"Meisenweg","postalCode":"59379","locality":"Selm","municipality":{"key":"05978032","name":"Selm, Stadt","type":"Stadt"},"district":{"key":"05978","name":"Unna","type":"Kreis"},"federalState":{"key":"05","name":"Nordrhein-Westfalen"}},{"name":"Memeler Str.","postalCode":"59379","locality":"Selm","municipality":{"key":"05978032","name":"Selm, Stadt","type":"Stadt"},"district":{"key":"05978","name":"Unna","type":"Kreis"},"federalState":{"key":"05","name":"Nordrhein-Westfalen"}},{"name":"Mergelkamp","postalCode":"59379","locality":"Selm","municipality":{"key":"05978032","name":"Selm, Stadt","type":"Stadt"},"district":{"key":"05978","name":"Unna","type":"Kreis"},"federalState":{"key":"05","name":"Nordrhein-Westfalen"}},{"name":"Mittelweg","postalCode":"23923","locality":"Selmsdorf","municipality":{"key":"13074076","name":"Selmsdorf","type":"Kreisangehörige_Gemeinde"},"district":{"key":"13074","name":"Nordwestmecklenburg","type":"Landkreis"},"federalState":{"key":"13","name":"Mecklenburg-Vorpommern"}},{"name":"Mozartstr.","postalCode":"59379","locality":"Selm","municipality":{"key":"05978032","name":"Selm, Stadt","type":"Stadt"},"district":{"key":"05978","name":"Unna","type":"Kreis"},"federalState":{"key":"05","name":"Nordrhein-Westfalen"}},{"name":"Mühlenkamp","postalCode":"59379","locality":"Selm","municipality":{"key":"05978032","name":"Selm, Stadt","type":"Stadt"},"district":{"key":"05978","name":"Unna","type":"Kreis"},"federalState":{"key":"05","name":"Nordrhein-Westfalen"}},{"name":"Mühlenring","postalCode":"23923","locality":"Selmsdorf","municipality":{"key":"13074076","name":"Selmsdorf","type":"Kreisangehörige_Gemeinde"},"district":{"key":"13074","name":"Nordwestmecklenburg","type":"Landkreis"},"federalState":{"key":"13","name":"Mecklenburg-Vorpommern"}},{"name":"Mühlenweg","postalCode":"59379","locality":"Selm","municipality":{"key":"05978032","name":"Selm, Stadt","type":"Stadt"},"district":{"key":"05978","name":"Unna","type":"Kreis"},"federalState":{"key":"05","name":"Nordrhein-Westfalen"}},{"name":"Münsterlandstr.","postalCode":"59379","locality":"Selm","municipality":{"key":"05978032","name":"Selm, Stadt","type":"Stadt"},"district":{"key":"05978","name":"Unna","type":"Kreis"},"federalState":{"key":"05","name":"Nordrhein-Westfalen"}},{"name":"Nelly-Sachs-Weg","postalCode":"59379","locality":"Selm","municipality":{"key":"05978032","name":"Selm, Stadt","type":"Stadt"},"district":{"key":"05978","name":"Unna","type":"Kreis"},"federalState":{"key":"05","name":"Nordrhein-Westfalen"}},{"name":"Nepomukweg","postalCode":"59379","locality":"Selm","municipality":{"key":"05978032","name":"Selm, Stadt","type":"Stadt"},"district":{"key":"05978","name":"Unna","type":"Kreis"},"federalState":{"key":"05","name":"Nordrhein-Westfalen"}},{"name":"Netteberger Str.","postalCode":"59379","locality":"Selm","municipality":{"key":"05978032","name":"Selm, Stadt","type":"Stadt"},"district":{"key":"05978","name":"Unna","type":"Kreis"},"federalState":{"key":"05","name":"Nordrhein-Westfalen"}},{"name":"Neue Nordkirchener Str.","postalCode":"59379","locality":"Selm","municipality":{"key":"05978032","name":"Selm, Stadt","type":"Stadt"},"district":{"key":"05978","name":"Unna","type":"Kreis"},"federalState":{"key":"05","name":"Nordrhein-Westfalen"}},{"name":"Neue Reihe","postalCode":"23923","locality":"Selmsdorf","municipality":{"key":"13074076","name":"Selmsdorf","type":"Kreisangehörige_Gemeinde"},"district":{"key":"13074","name":"Nordwestmecklenburg","type":"Landkreis"},"federalState":{"key":"13","name":"Mecklenburg-Vorpommern"}},{"name":"Neue Werner Str.","postalCode":"59379","locality":"Selm","municipality":{"key":"05978032","name":"Selm, Stadt","type":"Stadt"},"district":{"key":"05978","name":"Unna","type":"Kreis"},"federalState":{"key":"05","name":"Nordrhein-Westfalen"}},{"name":"Nienkamp","postalCode":"59379","locality":"Selm","municipality":{"key":"05978032","name":"Selm, Stadt","type":"Stadt"},"district":{"key":"05978","name":"Unna","type":"Kreis"},"federalState":{"key":"05","name":"Nordrhein-Westfalen"}},{"name":"Nikolaus-Groß-Weg","postalCode":"59379","locality":"Selm","municipality":{"key":"05978032","name":"Selm, Stadt","type":"Stadt"},"district":{"key":"05978","name":"Unna","type":"Kreis"},"federalState":{"key":"05","name":"Nordrhein-Westfalen"}},{"name":"Norbert-Rethmann-Platz","postalCode":"59379","locality":"Selm","municipality":{"key":"05978032","name":"Selm, Stadt","type":"Stadt"},"district":{"key":"05978","name":"Unna","type":"Kreis"},"federalState":{"key":"05","name":"Nordrhein-Westfalen"}},{"name":"Nordkirchener Str.","postalCode":"59379","locality":"Selm","municipality":{"key":"05978032","name":"Selm, Stadt","type":"Stadt"},"district":{"key":"05978","name":"Unna","type":"Kreis"},"federalState":{"key":"05","name":"Nordrhein-Westfalen"}},{"name":"Oberhof","postalCode":"59379","locality":"Selm","municipality":{"key":"05978032","name":"Selm, Stadt","type":"Stadt"},"district":{"key":"05978","name":"Unna","type":"Kreis"},"federalState":{"key":"05","name":"Nordrhein-Westfalen"}},{"name":"Olfener Str.","postalCode":"59379","locality":"Selm","municipality":{"key":"05978032","name":"Selm, Stadt","type":"Stadt"},"district":{"key":"05978","name":"Unna","type":"Kreis"},"federalState":{"key":"05","name":"Nordrhein-Westfalen"}},{"name":"Ostwall","postalCode":"59379","locality":"Selm","municipality":{"key":"05978032","name":"Selm, Stadt","type":"Stadt"},"district":{"key":"05978","name":"Unna","type":"Kreis"},"federalState":{"key":"05","name":"Nordrhein-Westfalen"}},{"name":"Otto-Hahn-Str.","postalCode":"59379","locality":"Selm","municipality":{"key":"05978032","name":"Selm, Stadt","type":"Stadt"},"district":{"key":"05978","name":"Unna","type":"Kreis"},"federalState":{"key":"05","name":"Nordrhein-Westfalen"}},{"name":"Overbergweg","postalCode":"59379","locality":"Selm","municipality":{"key":"05978032","name":"Selm, Stadt","type":"Stadt"},"district":{"key":"05978","name":"Unna","type":"Kreis"},"federalState":{"key":"05","name":"Nordrhein-Westfalen"}},{"name":"Pädagogenweg","postalCode":"59379","locality":"Selm","municipality":{"key":"05978032","name":"Selm, Stadt","type":"Stadt"},"district":{"key":"05978","name":"Unna","type":"Kreis"},"federalState":{"key":"05","name":"Nordrhein-Westfalen"}},{"name":"Pappelring","postalCode":"23923","locality":"Selmsdorf","municipality":{"key":"13074076","name":"Selmsdorf","type":"Kreisangehörige_Gemeinde"},"district":{"key":"13074","name":"Nordwestmecklenburg","type":"Landkreis"},"federalState":{"key":"13","name":"Mecklenburg-Vorpommern"}},{"name":"Pappelweg","postalCode":"59379","locality":"Selm","municipality":{"key":"05978032","name":"Selm, Stadt","type":"Stadt"},"district":{"key":"05978","name":"Unna","type":"Kreis"},"federalState":{"key":"05","name":"Nordrhein-Westfalen"}},{"name":"Park am Südfeld","postalCode":"59379","locality":"Selm","municipality":{"key":"05978032","name":"Selm, Stadt","type":"Stadt"},"district":{"key":"05978","name":"Unna","type":"Kreis"},"federalState":{"key":"05","name":"Nordrhein-Westfalen"}},{"name":"Parkanlage Selmsdorf","postalCode":"23923","locality":"Selmsdorf","municipality":{"key":"13074076","name":"Selmsdorf","type":"Kreisangehörige_Gemeinde"},"district":{"key":"13074","name":"Nordwestmecklenburg","type":"Landkreis"},"federalState":{"key":"13","name":"Mecklenburg-Vorpommern"}},{"name":"Parkweg","postalCode":"59379","locality":"Selm","municipality":{"key":"05978032","name":"Selm, Stadt","type":"Stadt"},"district":{"key":"05978","name":"Unna","type":"Kreis"},"federalState":{"key":"05","name":"Nordrhein-Westfalen"}},{"name":"Paul-Schneider-Weg","postalCode":"59379","locality":"Selm","municipality":{"key":"05978032","name":"Selm, Stadt","type":"Stadt"},"district":{"key":"05978","name":"Unna","type":"Kreis"},"federalState":{"key":"05","name":"Nordrhein-Westfalen"}},{"name":"Paulswiese","postalCode":"59379","locality":"Selm","municipality":{"key":"05978032","name":"Selm, Stadt","type":"Stadt"},"district":{"key":"05978","name":"Unna","type":"Kreis"},"federalState":{"key":"05","name":"Nordrhein-Westfalen"}},{"name":"Pestalozziweg","postalCode":"59379","locality":"Selm","municipality":{"key":"05978032","name":"Selm, Stadt","type":"Stadt"},"district":{"key":"05978","name":"Unna","type":"Kreis"},"federalState":{"key":"05","name":"Nordrhein-Westfalen"}},{"name":"Peter-Lohse-Weg","postalCode":"23923","locality":"Selmsdorf","municipality":{"key":"13074076","name":"Selmsdorf","type":"Kreisangehörige_Gemeinde"},"district":{"key":"13074","name":"Nordwestmecklenburg","type":"Landkreis"},"federalState":{"key":"13","name":"Mecklenburg-Vorpommern"}},{"name":"Püttstr.","postalCode":"59379","locality":"Selm","municipality":{"key":"05978032","name":"Selm, Stadt","type":"Stadt"},"district":{"key":"05978","name":"Unna","type":"Kreis"},"federalState":{"key":"05","name":"Nordrhein-Westfalen"}},{"name":"Quellenweg","postalCode":"59425","locality":"Unna","municipality":{"key":"05978036","name":"Unna, Stadt","type":"Stadt"},"district":{"key":"05978","name":"Unna","type":"Kreis"},"federalState":{"key":"05","name":"Nordrhein-Westfalen"}},{"name":"Querweg","postalCode":"57648","locality":"Unnau","municipality":{"key":"07143300","name":"Unnau","type":"Kreisangehörige_Gemeinde"},"district":{"key":"07143","name":"Westerwaldkreis","type":"Landkreis"},"federalState":{"key":"07","name":"Rheinland-Pfalz"}},{"name":"Raiffeisenstr.","postalCode":"59379","locality":"Selm","municipality":{"key":"05978032","name":"Selm, Stadt","type":"Stadt"},"district":{"key":"05978","name":"Unna","type":"Kreis"},"federalState":{"key":"05","name":"Nordrhein-Westfalen"}},{"name":"Rauher Busch","postalCode":"59379","locality":"Selm","municipality":{"key":"05978032","name":"Selm, Stadt","type":"Stadt"},"district":{"key":"05978","name":"Unna","type":"Kreis"},"federalState":{"key":"05","name":"Nordrhein-Westfalen"}},{"name":"Rektoratsweg","postalCode":"59379","locality":"Selm","municipality":{"key":"05978032","name":"Selm, Stadt","type":"Stadt"},"district":{"key":"05978","name":"Unna","type":"Kreis"},"federalState":{"key":"05","name":"Nordrhein-Westfalen"}},{"name":"Reuterweg","postalCode":"59379","locality":"Selm","municipality":{"key":"05978032","name":"Selm, Stadt","type":"Stadt"},"district":{"key":"05978","name":"Unna","type":"Kreis"},"federalState":{"key":"05","name":"Nordrhein-Westfalen"}},{"name":"Rieves Kamp","postalCode":"59379","locality":"Selm","municipality":{"key":"05978032","name":"Selm, Stadt","type":"Stadt"},"district":{"key":"05978","name":"Unna","type":"Kreis"},"federalState":{"key":"05","name":"Nordrhein-Westfalen"}},{"name":"Rilkeweg","postalCode":"59379","locality":"Selm","municipality":{"key":"05978032","name":"Selm, Stadt","type":"Stadt"},"district":{"key":"05978","name":"Unna","type":"Kreis"},"federalState":{"key":"05","name":"Nordrhein-Westfalen"}},{"name":"Röhrweg","postalCode":"59379","locality":"Selm","municipality":{"key":"05978032","name":"Selm, Stadt","type":"Stadt"},"district":{"key":"05978","name":"Unna","type":"Kreis"},"federalState":{"key":"05","name":"Nordrhein-Westfalen"}},{"name":"Römerstr.","postalCode":"59379","locality":"Selm","municipality":{"key":"05978032","name":"Selm, Stadt","type":"Stadt"},"district":{"key":"05978","name":"Unna","type":"Kreis"},"federalState":{"key":"05","name":"Nordrhein-Westfalen"}},{"name":"Rosenstr.","postalCode":"59379","locality":"Selm","municipality":{"key":"05978032","name":"Selm, Stadt","type":"Stadt"},"district":{"key":"05978","name":"Unna","type":"Kreis"},"federalState":{"key":"05","name":"Nordrhein-Westfalen"}},{"name":"Röttgersbank","postalCode":"59379","locality":"Selm","municipality":{"key":"05978032","name":"Selm, Stadt","type":"Stadt"},"district":{"key":"05978","name":"Unna","type":"Kreis"},"federalState":{"key":"05","name":"Nordrhein-Westfalen"}},{"name":"Rudolf-Hartmann-Str.","postalCode":"23923","locality":"Selmsdorf","municipality":{"key":"13074076","name":"Selmsdorf","type":"Kreisangehörige_Gemeinde"},"district":{"key":"13074","name":"Nordwestmecklenburg","type":"Landkreis"},"federalState":{"key":"13","name":"Mecklenburg-Vorpommern"}},{"name":"Sandforter Weg","postalCode":"59379","locality":"Selm","municipality":{"key":"05978032","name":"Selm, Stadt","type":"Stadt"},"district":{"key":"05978","name":"Unna","type":"Kreis"},"federalState":{"key":"05","name":"Nordrhein-Westfalen"}},{"name":"Sandweg","postalCode":"59379","locality":"Selm","municipality":{"key":"05978032","name":"Selm, Stadt","type":"Stadt"},"district":{"key":"05978","name":"Unna","type":"Kreis"},"federalState":{"key":"05","name":"Nordrhein-Westfalen"}},{"name":"Sarnsbank","postalCode":"59379","locality":"Selm","municipality":{"key":"05978032","name":"Selm, Stadt","type":"Stadt"},"district":{"key":"05978","name":"Unna","type":"Kreis"},"federalState":{"key":"05","name":"Nordrhein-Westfalen"}},{"name":"Schäpershof","postalCode":"59379","locality":"Selm","municipality":{"key":"05978032","name":"Selm, Stadt","type":"Stadt"},"district":{"key":"05978","name":"Unna","type":"Kreis"},"federalState":{"key":"05","name":"Nordrhein-Westfalen"}},{"name":"Schillerstr.","postalCode":"59379","locality":"Selm","municipality":{"key":"05978032","name":"Selm, Stadt","type":"Stadt"},"district":{"key":"05978","name":"Unna","type":"Kreis"},"federalState":{"key":"05","name":"Nordrhein-Westfalen"}},{"name":"Schluchtgasse","postalCode":"59379","locality":"Selm","municipality":{"key":"05978032","name":"Selm, Stadt","type":"Stadt"},"district":{"key":"05978","name":"Unna","type":"Kreis"},"federalState":{"key":"05","name":"Nordrhein-Westfalen"}},{"name":"Schmerlingstr.","postalCode":"59379","locality":"Selm","municipality":{"key":"05978032","name":"Selm, Stadt","type":"Stadt"},"district":{"key":"05978","name":"Unna","type":"Kreis"},"federalState":{"key":"05","name":"Nordrhein-Westfalen"}},{"name":"Schönauer Str.","postalCode":"59379","locality":"Selm","municipality":{"key":"05978032","name":"Selm, Stadt","type":"Stadt"},"district":{"key":"05978","name":"Unna","type":"Kreis"},"federalState":{"key":"05","name":"Nordrhein-Westfalen"}},{"name":"Schorfheide","postalCode":"59379","locality":"Selm","municipality":{"key":"05978032","name":"Selm, Stadt","type":"Stadt"},"district":{"key":"05978","name":"Unna","type":"Kreis"},"federalState":{"key":"05","name":"Nordrhein-Westfalen"}},{"name":"Schulstr.","postalCode":"23923","locality":"Selmsdorf","municipality":{"key":"13074076","name":"Selmsdorf","type":"Kreisangehörige_Gemeinde"},"district":{"key":"13074","name":"Nordwestmecklenburg","type":"Landkreis"},"federalState":{"key":"13","name":"Mecklenburg-Vorpommern"}},{"name":"Schulstr.","postalCode":"59379","locality":"Selm","municipality":{"key":"05978032","name":"Selm, Stadt","type":"Stadt"},"district":{"key":"05978","name":"Unna","type":"Kreis"},"federalState":{"key":"05","name":"Nordrhein-Westfalen"}},{"name":"Schulze-Delitzsch-Weg","postalCode":"59379","locality":"Selm","municipality":{"key":"05978032","name":"Selm, Stadt","type":"Stadt"},"district":{"key":"05978","name":"Unna","type":"Kreis"},"federalState":{"key":"05","name":"Nordrhein-Westfalen"}},{"name":"Schulze-Weischer-Weg","postalCode":"59379","locality":"Selm","municipality":{"key":"05978032","name":"Selm, Stadt","type":"Stadt"},"district":{"key":"05978","name":"Unna","type":"Kreis"},"federalState":{"key":"05","name":"Nordrhein-Westfalen"}},{"name":"Schützenweg","postalCode":"59379","locality":"Selm","municipality":{"key":"05978032","name":"Selm, Stadt","type":"Stadt"},"district":{"key":"05978","name":"Unna","type":"Kreis"},"federalState":{"key":"05","name":"Nordrhein-Westfalen"}},{"name":"Seestr.","postalCode":"23923","locality":"Selmsdorf","municipality":{"key":"13074076","name":"Selmsdorf","type":"Kreisangehörige_Gemeinde"},"district":{"key":"13074","name":"Nordwestmecklenburg","type":"Landkreis"},"federalState":{"key":"13","name":"Mecklenburg-Vorpommern"}},{"name":"Seilandstr.","postalCode":"59379","locality":"Selm","municipality":{"key":"05978032","name":"Selm, Stadt","type":"Stadt"},"district":{"key":"05978","name":"Unna","type":"Kreis"},"federalState":{"key":"05","name":"Nordrhein-Westfalen"}},{"name":"Selma-Lagerlöf-Weg","postalCode":"59379","locality":"Selm","municipality":{"key":"05978032","name":"Selm, Stadt","type":"Stadt"},"district":{"key":"05978","name":"Unna","type":"Kreis"},"federalState":{"key":"05","name":"Nordrhein-Westfalen"}},{"name":"Selm-Beifang","postalCode":"59379","locality":"Selm","municipality":{"key":"05978032","name":"Selm, Stadt","type":"Stadt"},"district":{"key":"05978","name":"Unna","type":"Kreis"},"federalState":{"key":"05","name":"Nordrhein-Westfalen"}},{"name":"Selmsdorfer Landstr.","postalCode":"23923","locality":"Selmsdorf","municipality":{"key":"13074076","name":"Selmsdorf","type":"Kreisangehörige_Gemeinde"},"district":{"key":"13074","name":"Nordwestmecklenburg","type":"Landkreis"},"federalState":{"key":"13","name":"Mecklenburg-Vorpommern"}},{"name":"Sophie-Scholl-Weg","postalCode":"59379","locality":"Selm","municipality":{"key":"05978032","name":"Selm, Stadt","type":"Stadt"},"district":{"key":"05978","name":"Unna","type":"Kreis"},"federalState":{"key":"05","name":"Nordrhein-Westfalen"}},{"name":"Steinkamp","postalCode":"59379","locality":"Selm","municipality":{"key":"05978032","name":"Selm, Stadt","type":"Stadt"},"district":{"key":"05978","name":"Unna","type":"Kreis"},"federalState":{"key":"05","name":"Nordrhein-Westfalen"}},{"name":"Steinstr.","postalCode":"59379","locality":"Selm","municipality":{"key":"05978032","name":"Selm, Stadt","type":"Stadt"},"district":{"key":"05978","name":"Unna","type":"Kreis"},"federalState":{"key":"05","name":"Nordrhein-Westfalen"}},{"name":"Stephanusweg","postalCode":"59379","locality":"Selm","municipality":{"key":"05978032","name":"Selm, Stadt","type":"Stadt"},"district":{"key":"05978","name":"Unna","type":"Kreis"},"federalState":{"key":"05","name":"Nordrhein-Westfalen"}},{"name":"Stettiner Str.","postalCode":"59379","locality":"Selm","municipality":{"key":"05978032","name":"Selm, Stadt","type":"Stadt"},"district":{"key":"05978","name":"Unna","type":"Kreis"},"federalState":{"key":"05","name":"Nordrhein-Westfalen"}},{"name":"Steverweg","postalCode":"59379","locality":"Selm","municipality":{"key":"05978032","name":"Selm, Stadt","type":"Stadt"},"district":{"key":"05978","name":"Unna","type":"Kreis"},"federalState":{"key":"05","name":"Nordrhein-Westfalen"}},{"name":"St.-Gottfried-Str.","postalCode":"59379","locality":"Selm","municipality":{"key":"05978032","name":"Selm, Stadt","type":"Stadt"},"district":{"key":"05978","name":"Unna","type":"Kreis"},"federalState":{"key":"05","name":"Nordrhein-Westfalen"}},{"name":"Stifterstr.","postalCode":"59379","locality":"Selm","municipality":{"key":"05978032","name":"Selm, Stadt","type":"Stadt"},"district":{"key":"05978","name":"Unna","type":"Kreis"},"federalState":{"key":"05","name":"Nordrhein-Westfalen"}},{"name":"Stormstr.","postalCode":"59379","locality":"Selm","municipality":{"key":"05978032","name":"Selm, Stadt","type":"Stadt"},"district":{"key":"05978","name":"Unna","type":"Kreis"},"federalState":{"key":"05","name":"Nordrhein-Westfalen"}},{"name":"Strandweg","postalCode":"59379","locality":"Selm","municipality":{"key":"05978032","name":"Selm, Stadt","type":"Stadt"},"district":{"key":"05978","name":"Unna","type":"Kreis"},"federalState":{"key":"05","name":"Nordrhein-Westfalen"}},{"name":"Str. der Freiheit","postalCode":"23923","locality":"Selmsdorf","municipality":{"key":"13074076","name":"Selmsdorf","type":"Kreisangehörige_Gemeinde"},"district":{"key":"13074","name":"Nordwestmecklenburg","type":"Landkreis"},"federalState":{"key":"13","name":"Mecklenburg-Vorpommern"}},{"name":"Str. der Technik","postalCode":"23923","locality":"Selmsdorf","municipality":{"key":"13074076","name":"Selmsdorf","type":"Kreisangehörige_Gemeinde"},"district":{"key":"13074","name":"Nordwestmecklenburg","type":"Landkreis"},"federalState":{"key":"13","name":"Mecklenburg-Vorpommern"}},{"name":"Südkirchener Str.","postalCode":"59379","locality":"Selm","municipality":{"key":"05978032","name":"Selm, Stadt","type":"Stadt"},"district":{"key":"05978","name":"Unna","type":"Kreis"},"federalState":{"key":"05","name":"Nordrhein-Westfalen"}},{"name":"Südwall","postalCode":"59379","locality":"Selm","municipality":{"key":"05978032","name":"Selm, Stadt","type":"Stadt"},"district":{"key":"05978","name":"Unna","type":"Kreis"},"federalState":{"key":"05","name":"Nordrhein-Westfalen"}},{"name":"Sundernburg","postalCode":"59379","locality":"Selm","municipality":{"key":"05978032","name":"Selm, Stadt","type":"Stadt"},"district":{"key":"05978","name":"Unna","type":"Kreis"},"federalState":{"key":"05","name":"Nordrhein-Westfalen"}},{"name":"Synagoge Bork mit Park","postalCode":"59379","locality":"Selm","municipality":{"key":"05978032","name":"Selm, Stadt","type":"Stadt"},"district":{"key":"05978","name":"Unna","type":"Kreis"},"federalState":{"key":"05","name":"Nordrhein-Westfalen"}},{"name":"Synagogenweg","postalCode":"59379","locality":"Selm","municipality":{"key":"05978032","name":"Selm, Stadt","type":"Stadt"},"district":{"key":"05978","name":"Unna","type":"Kreis"},"federalState":{"key":"05","name":"Nordrhein-Westfalen"}},{"name":"Talstr.","postalCode":"59379","locality":"Selm","municipality":{"key":"05978032","name":"Selm, Stadt","type":"Stadt"},"district":{"key":"05978","name":"Unna","type":"Kreis"},"federalState":{"key":"05","name":"Nordrhein-Westfalen"}},{"name":"Tannenweg","postalCode":"23923","locality":"Selmsdorf","municipality":{"key":"13074076","name":"Selmsdorf","type":"Kreisangehörige_Gemeinde"},"district":{"key":"13074","name":"Nordwestmecklenburg","type":"Landkreis"},"federalState":{"key":"13","name":"Mecklenburg-Vorpommern"}},{"name":"Tannenweg","postalCode":"59379","locality":"Selm","municipality":{"key":"05978032","name":"Selm, Stadt","type":"Stadt"},"district":{"key":"05978","name":"Unna","type":"Kreis"},"federalState":{"key":"05","name":"Nordrhein-Westfalen"}},{"name":"Teichstr.","postalCode":"59379","locality":"Selm","municipality":{"key":"05978032","name":"Selm, Stadt","type":"Stadt"},"district":{"key":"05978","name":"Unna","type":"Kreis"},"federalState":{"key":"05","name":"Nordrhein-Westfalen"}},{"name":"Tilsiter Str.","postalCode":"59379","locality":"Selm","municipality":{"key":"05978032","name":"Selm, Stadt","type":"Stadt"},"district":{"key":"05978","name":"Unna","type":"Kreis"},"federalState":{"key":"05","name":"Nordrhein-Westfalen"}},{"name":"Töpferstr.","postalCode":"59379","locality":"Selm","municipality":{"key":"05978032","name":"Selm, Stadt","type":"Stadt"},"district":{"key":"05978","name":"Unna","type":"Kreis"},"federalState":{"key":"05","name":"Nordrhein-Westfalen"}},{"name":"Torfmoorweg","postalCode":"23923","locality":"Selmsdorf","municipality":{"key":"13074076","name":"Selmsdorf","type":"Kreisangehörige_Gemeinde"},"district":{"key":"13074","name":"Nordwestmecklenburg","type":"Landkreis"},"federalState":{"key":"13","name":"Mecklenburg-Vorpommern"}},{"name":"Tüllinghofer Str.","postalCode":"59379","locality":"Selm","municipality":{"key":"05978032","name":"Selm, Stadt","type":"Stadt"},"district":{"key":"05978","name":"Unna","type":"Kreis"},"federalState":{"key":"05","name":"Nordrhein-Westfalen"}},{"name":"Uhlandstr.","postalCode":"59379","locality":"Selm","municipality":{"key":"05978032","name":"Selm, Stadt","type":"Stadt"},"district":{"key":"05978","name":"Unna","type":"Kreis"},"federalState":{"key":"05","name":"Nordrhein-Westfalen"}},{"name":"Ulmenstr.","postalCode":"59379","locality":"Selm","municipality":{"key":"05978032","name":"Selm, Stadt","type":"Stadt"},"district":{"key":"05978","name":"Unna","type":"Kreis"},"federalState":{"key":"05","name":"Nordrhein-Westfalen"}},{"name":"Varnhöveler Str.","postalCode":"59379","locality":"Selm","municipality":{"key":"05978032","name":"Selm, Stadt","type":"Stadt"},"district":{"key":"05978","name":"Unna","type":"Kreis"},"federalState":{"key":"05","name":"Nordrhein-Westfalen"}},{"name":"Vinnumer Str.","postalCode":"59379","locality":"Selm","municipality":{"key":"05978032","name":"Selm, Stadt","type":"Stadt"},"district":{"key":"05978","name":"Unna","type":"Kreis"},"federalState":{"key":"05","name":"Nordrhein-Westfalen"}},{"name":"Wagenfeldstr.","postalCode":"59379","locality":"Selm","municipality":{"key":"05978032","name":"Selm, Stadt","type":"Stadt"},"district":{"key":"05978","name":"Unna","type":"Kreis"},"federalState":{"key":"05","name":"Nordrhein-Westfalen"}},{"name":"Wagnerstr.","postalCode":"59379","locality":"Selm","municipality":{"key":"05978032","name":"Selm, Stadt","type":"Stadt"},"district":{"key":"05978","name":"Unna","type":"Kreis"},"federalState":{"key":"05","name":"Nordrhein-Westfalen"}},{"name":"Waldenburger Str.","postalCode":"59379","locality":"Selm","municipality":{"key":"05978032","name":"Selm, Stadt","type":"Stadt"},"district":{"key":"05978","name":"Unna","type":"Kreis"},"federalState":{"key":"05","name":"Nordrhein-Westfalen"}},{"name":"Waldweg","postalCode":"59379","locality":"Selm","municipality":{"key":"05978032","name":"Selm, Stadt","type":"Stadt"},"district":{"key":"05978","name":"Unna","type":"Kreis"},"federalState":{"key":"05","name":"Nordrhein-Westfalen"}},{"name":"Waltroper Str.","postalCode":"59379","locality":"Selm","municipality":{"key":"05978032","name":"Selm, Stadt","type":"Stadt"},"district":{"key":"05978","name":"Unna","type":"Kreis"},"federalState":{"key":"05","name":"Nordrhein-Westfalen"}},{"name":"Wassermannskamp","postalCode":"59379","locality":"Selm","municipality":{"key":"05978032","name":"Selm, Stadt","type":"Stadt"},"district":{"key":"05978","name":"Unna","type":"Kreis"},"federalState":{"key":"05","name":"Nordrhein-Westfalen"}},{"name":"Weidenstr.","postalCode":"59379","locality":"Selm","municipality":{"key":"05978032","name":"Selm, Stadt","type":"Stadt"},"district":{"key":"05978","name":"Unna","type":"Kreis"},"federalState":{"key":"05","name":"Nordrhein-Westfalen"}},{"name":"Weiherstr.","postalCode":"59379","locality":"Selm","municipality":{"key":"05978032","name":"Selm, Stadt","type":"Stadt"},"district":{"key":"05978","name":"Unna","type":"Kreis"},"federalState":{"key":"05","name":"Nordrhein-Westfalen"}},{"name":"Werner Str.","postalCode":"59379","locality":"Selm","municipality":{"key":"05978032","name":"Selm, Stadt","type":"Stadt"},"district":{"key":"05978","name":"Unna","type":"Kreis"},"federalState":{"key":"05","name":"Nordrhein-Westfalen"}},{"name":"Wibbeltstr.","postalCode":"59379","locality":"Selm","municipality":{"key":"05978032","name":"Selm, Stadt","type":"Stadt"},"district":{"key":"05978","name":"Unna","type":"Kreis"},"federalState":{"key":"05","name":"Nordrhein-Westfalen"}},{"name":"Wienacker","postalCode":"59379","locality":"Selm","municipality":{"key":"05978032","name":"Selm, Stadt","type":"Stadt"},"district":{"key":"05978","name":"Unna","type":"Kreis"},"federalState":{"key":"05","name":"Nordrhein-Westfalen"}},{"name":"Wiesenweg","postalCode":"23923","locality":"Selmsdorf","municipality":{"key":"13074076","name":"Selmsdorf","type":"Kreisangehörige_Gemeinde"},"district":{"key":"13074","name":"Nordwestmecklenburg","type":"Landkreis"},"federalState":{"key":"13","name":"Mecklenburg-Vorpommern"}},{"name":"Wilhelm-Kellermann-Weg","postalCode":"59379","locality":"Selm","municipality":{"key":"05978032","name":"Selm, Stadt","type":"Stadt"},"district":{"key":"05978","name":"Unna","type":"Kreis"},"federalState":{"key":"05","name":"Nordrhein-Westfalen"}},{"name":"Wilhelm-Liebetrau-Weg","postalCode":"59379","locality":"Selm","municipality":{"key":"05978032","name":"Selm, Stadt","type":"Stadt"},"district":{"key":"05978","name":"Unna","type":"Kreis"},"federalState":{"key":"05","name":"Nordrhein-Westfalen"}},{"name":"Wilhelm-Oldörp-Str.","postalCode":"23923","locality":"Selmsdorf","municipality":{"key":"13074076","name":"Selmsdorf","type":"Kreisangehörige_Gemeinde"},"district":{"key":"13074","name":"Nordwestmecklenburg","type":"Landkreis"},"federalState":{"key":"13","name":"Mecklenburg-Vorpommern"}},{"name":"Willy-Brandt-Platz","postalCode":"59379","locality":"Selm","municipality":{"key":"05978032","name":"Selm, Stadt","type":"Stadt"},"district":{"key":"05978","name":"Unna","type":"Kreis"},"federalState":{"key":"05","name":"Nordrhein-Westfalen"}},{"name":"Woot","postalCode":"59379","locality":"Selm","municipality":{"key":"05978032","name":"Selm, Stadt","type":"Stadt"},"district":{"key":"05978","name":"Unna","type":"Kreis"},"federalState":{"key":"05","name":"Nordrhein-Westfalen"}},{"name":"Zeche-Hermann-Wall","postalCode":"59379","locality":"Selm","municipality":{"key":"05978032","name":"Selm, Stadt","type":"Stadt"},"district":{"key":"05978","name":"Unna","type":"Kreis"},"federalState":{"key":"05","name":"Nordrhein-Westfalen"}},{"name":"Zehntweg","postalCode":"59379","locality":"Selm","municipality":{"key":"05978032","name":"Selm, Stadt","type":"Stadt"},"district":{"key":"05978","name":"Unna","type":"Kreis"},"federalState":{"key":"05","name":"Nordrhein-Westfalen"}},{"name":"Zu den Hügelgräbern","postalCode":"59379","locality":"Selm","municipality":{"key":"05978032","name":"Selm, Stadt","type":"Stadt"},"district":{"key":"05978","name":"Unna","type":"Kreis"},"federalState":{"key":"05","name":"Nordrhein-Westfalen"}},{"name":"Zum Nierfeld","postalCode":"59379","locality":"Selm","municipality":{"key":"05978032","name":"Selm, Stadt","type":"Stadt"},"district":{"key":"05978","name":"Unna","type":"Kreis"},"federalState":{"key":"05","name":"Nordrhein-Westfalen"}},{"name":"Zum Schulzenhof","postalCode":"59379","locality":"Selm","municipality":{"key":"05978032","name":"Selm, Stadt","type":"Stadt"},"district":{"key":"05978","name":"Unna","type":"Kreis"},"federalState":{"key":"05","name":"Nordrhein-Westfalen"}},{"name":"Zum See","postalCode":"23923","locality":"Selmsdorf","municipality":{"key":"13074076","name":"Selmsdorf","type":"Kreisangehörige_Gemeinde"},"district":{"key":"13074","name":"Nordwestmecklenburg","type":"Landkreis"},"federalState":{"key":"13","name":"Mecklenburg-Vorpommern"}},{"name":"Zum Sundern","postalCode":"59379","locality":"Selm","municipality":{"key":"05978032","name":"Selm, Stadt","type":"Stadt"},"district":{"key":"05978","name":"Unna","type":"Kreis"},"federalState":{"key":"05","name":"Nordrhein-Westfalen"}},{"name":"Zum Wald","postalCode":"23923","locality":"Selmsdorf","municipality":{"key":"13074076","name":"Selmsdorf","type":"Kreisangehörige_Gemeinde"},"district":{"key":"13074","name":"Nordwestmecklenburg","type":"Landkreis"},"federalState":{"key":"13","name":"Mecklenburg-Vorpommern"}},{"name":"Zum Wegebild","postalCode":"59379","locality":"Selm","municipality":{"key":"05978032","name":"Selm, Stadt","type":"Stadt"},"district":{"key":"05978","name":"Unna","type":"Kreis"},"federalState":{"key":"05","name":"Nordrhein-Westfalen"}},{"name":"Zur Alten Windmühle","postalCode":"59379","locality":"Selm","municipality":{"key":"05978032","name":"Selm, Stadt","type":"Stadt"},"district":{"key":"05978","name":"Unna","type":"Kreis"},"federalState":{"key":"05","name":"Nordrhein-Westfalen"}},{"name":"Zur Hohen Meile","postalCode":"23923","locality":"Selmsdorf","municipality":{"key":"13074076","name":"Selmsdorf","type":"Kreisangehörige_Gemeinde"},"district":{"key":"13074","name":"Nordwestmecklenburg","type":"Landkreis"},"federalState":{"key":"13","name":"Mecklenburg-Vorpommern"}},{"name":"Zur Lehmkuhle","postalCode":"59379","locality":"Selm","municipality":{"key":"05978032","name":"Selm, Stadt","type":"Stadt"},"district":{"key":"05978","name":"Unna","type":"Kreis"},"federalState":{"key":"05","name":"Nordrhein-Westfalen"}},{"name":"Zur Sandgrube","postalCode":"59379","locality":"Selm","municipality":{"key":"05978032","name":"Selm, Stadt","type":"Stadt"},"district":{"key":"05978","name":"Unna","type":"Kreis"},"federalState":{"key":"05","name":"Nordrhein-Westfalen"}},{"name":"Zur Schmiede","postalCode":"23923","locality":"Selmsdorf","municipality":{"key":"13074076","name":"Selmsdorf","type":"Kreisangehörige_Gemeinde"},"district":{"key":"13074","name":"Nordwestmecklenburg","type":"Landkreis"},"federalState":{"key":"13","name":"Mecklenburg-Vorpommern"}},{"name":"Zur Schmiede","postalCode":"59379","locality":"Selm","municipality":{"key":"05978032","name":"Selm, Stadt","type":"Stadt"},"district":{"key":"05978","name":"Unna","type":"Kreis"},"federalState":{"key":"05","name":"Nordrhein-Westfalen"}},{"name":"Übbenhagen","postalCode":"59379","locality":"Selm","municipality":{"key":"05978032","name":"Selm, Stadt","type":"Stadt"},"district":{"key":"05978","name":"Unna","type":"Kreis"},"federalState":{"key":"05","name":"Nordrhein-Westfalen"}},]