[{"key":"10217788","name":"Allmed","postalCode":"3423","locality":"Ersigen","commune":{"key":"405","name":"Ersigen","shortName":"Ersigen"},"district":{"key":"245","name":"Verwaltungskreis Emmental"},"canton":{"key":"2","code":"BE","name":"Bern / Berne"},"status":"Real"},{"key":"10087863","name":"Alpenweg","postalCode":"3423","locality":"Ersigen","commune":{"key":"405","name":"Ersigen","shortName":"Ersigen"},"district":{"key":"245","name":"Verwaltungskreis Emmental"},"canton":{"key":"2","code":"BE","name":"Bern / Berne"},"status":"Real"},{"key":"10217795","name":"Aspli","postalCode":"3423","locality":"Ersigen","commune":{"key":"405","name":"Ersigen","shortName":"Ersigen"},"district":{"key":"245","name":"Verwaltungskreis Emmental"},"canton":{"key":"2","code":"BE","name":"Bern / Berne"},"status":"Real"},{"key":"10178984","name":"Badstrasse","postalCode":"3423","locality":"Ersigen","commune":{"key":"405","name":"Ersigen","shortName":"Ersigen"},"district":{"key":"245","name":"Verwaltungskreis Emmental"},"canton":{"key":"2","code":"BE","name":"Bern / Berne"},"status":"Real"},{"key":"10005557","name":"Bärenweg","postalCode":"3423","locality":"Ersigen","commune":{"key":"405","name":"Ersigen","shortName":"Ersigen"},"district":{"key":"245","name":"Verwaltungskreis Emmental"},"canton":{"key":"2","code":"BE","name":"Bern / Berne"},"status":"Real"},{"key":"10240606","name":"Birkenweg","postalCode":"3423","locality":"Ersigen","commune":{"key":"405","name":"Ersigen","shortName":"Ersigen"},"district":{"key":"245","name":"Verwaltungskreis Emmental"},"canton":{"key":"2","code":"BE","name":"Bern / Berne"},"status":"Real"},{"key":"10159319","name":"Blumenweg","postalCode":"3423","locality":"Ersigen","commune":{"key":"405","name":"Ersigen","shortName":"Ersigen"},"district":{"key":"245","name":"Verwaltungskreis Emmental"},"canton":{"key":"2","code":"BE","name":"Bern / Berne"},"status":"Real"},{"key":"10005556","name":"Burgdorfstrasse","postalCode":"3423","locality":"Ersigen","commune":{"key":"405","name":"Ersigen","shortName":"Ersigen"},"district":{"key":"245","name":"Verwaltungskreis Emmental"},"canton":{"key":"2","code":"BE","name":"Bern / Berne"},"status":"Real"},{"key":"10063881","name":"Burgerweg","postalCode":"3423","locality":"Ersigen","commune":{"key":"405","name":"Ersigen","shortName":"Ersigen"},"district":{"key":"245","name":"Verwaltungskreis Emmental"},"canton":{"key":"2","code":"BE","name":"Bern / Berne"},"status":"Real"},{"key":"10087864","name":"Burgfeldweg","postalCode":"3423","locality":"Ersigen","commune":{"key":"405","name":"Ersigen","shortName":"Ersigen"},"district":{"key":"245","name":"Verwaltungskreis Emmental"},"canton":{"key":"2","code":"BE","name":"Bern / Berne"},"status":"Real"},{"key":"10240610","name":"Dorfstrasse","postalCode":"3423","locality":"Ersigen","commune":{"key":"405","name":"Ersigen","shortName":"Ersigen"},"district":{"key":"245","name":"Verwaltungskreis Emmental"},"canton":{"key":"2","code":"BE","name":"Bern / Berne"},"status":"Real"},{"key":"10217804","name":"Dünggetel","postalCode":"3423","locality":"Ersigen","commune":{"key":"405","name":"Ersigen","shortName":"Ersigen"},"district":{"key":"245","name":"Verwaltungskreis Emmental"},"canton":{"key":"2","code":"BE","name":"Bern / Berne"},"status":"Real"},{"key":"10005558","name":"Flueweg","postalCode":"3423","locality":"Ersigen","commune":{"key":"405","name":"Ersigen","shortName":"Ersigen"},"district":{"key":"245","name":"Verwaltungskreis Emmental"},"canton":{"key":"2","code":"BE","name":"Bern / Berne"},"status":"Real"},{"key":"10122600","name":"Furtrain","postalCode":"3423","locality":"Ersigen","commune":{"key":"405","name":"Ersigen","shortName":"Ersigen"},"district":{"key":"245","name":"Verwaltungskreis Emmental"},"canton":{"key":"2","code":"BE","name":"Bern / Berne"},"status":"Real"},{"key":"10005559","name":"Gartenstrasse","postalCode":"3423","locality":"Ersigen","commune":{"key":"405","name":"Ersigen","shortName":"Ersigen"},"district":{"key":"245","name":"Verwaltungskreis Emmental"},"canton":{"key":"2","code":"BE","name":"Bern / Berne"},"status":"Real"},{"key":"10135373","name":"Gewerbestrasse","postalCode":"3423","locality":"Ersigen","commune":{"key":"405","name":"Ersigen","shortName":"Ersigen"},"district":{"key":"245","name":"Verwaltungskreis Emmental"},"canton":{"key":"2","code":"BE","name":"Bern / Berne"},"status":"Real"},{"key":"10005560","name":"Grabneweg","postalCode":"3423","locality":"Ersigen","commune":{"key":"405","name":"Ersigen","shortName":"Ersigen"},"district":{"key":"245","name":"Verwaltungskreis Emmental"},"canton":{"key":"2","code":"BE","name":"Bern / Berne"},"status":"Real"},{"key":"10063882","name":"Gsteigweg","postalCode":"3423","locality":"Ersigen","commune":{"key":"405","name":"Ersigen","shortName":"Ersigen"},"district":{"key":"245","name":"Verwaltungskreis Emmental"},"canton":{"key":"2","code":"BE","name":"Bern / Berne"},"status":"Real"},{"key":"10087865","name":"Gumishole","postalCode":"3423","locality":"Ersigen","commune":{"key":"405","name":"Ersigen","shortName":"Ersigen"},"district":{"key":"245","name":"Verwaltungskreis Emmental"},"canton":{"key":"2","code":"BE","name":"Bern / Berne"},"status":"Real"},{"key":"10135374","name":"Gumisweg","postalCode":"3423","locality":"Ersigen","commune":{"key":"405","name":"Ersigen","shortName":"Ersigen"},"district":{"key":"245","name":"Verwaltungskreis Emmental"},"canton":{"key":"2","code":"BE","name":"Bern / Berne"},"status":"Real"},{"key":"10178985","name":"Haulenweg","postalCode":"3423","locality":"Ersigen","commune":{"key":"405","name":"Ersigen","shortName":"Ersigen"},"district":{"key":"245","name":"Verwaltungskreis Emmental"},"canton":{"key":"2","code":"BE","name":"Bern / Berne"},"status":"Real"},{"key":"10005561","name":"Hintergasse","postalCode":"3423","locality":"Ersigen","commune":{"key":"405","name":"Ersigen","shortName":"Ersigen"},"district":{"key":"245","name":"Verwaltungskreis Emmental"},"canton":{"key":"2","code":"BE","name":"Bern / Berne"},"status":"Real"},{"key":"10189785","name":"Hofacherweg","postalCode":"3423","locality":"Ersigen","commune":{"key":"405","name":"Ersigen","shortName":"Ersigen"},"district":{"key":"245","name":"Verwaltungskreis Emmental"},"canton":{"key":"2","code":"BE","name":"Bern / Berne"},"status":"Real"},{"key":"10005562","name":"Höhenweg","postalCode":"3423","locality":"Ersigen","commune":{"key":"405","name":"Ersigen","shortName":"Ersigen"},"district":{"key":"245","name":"Verwaltungskreis Emmental"},"canton":{"key":"2","code":"BE","name":"Bern / Berne"},"status":"Real"},{"key":"10217808","name":"Holzmatt","postalCode":"3423","locality":"Ersigen","commune":{"key":"405","name":"Ersigen","shortName":"Ersigen"},"district":{"key":"245","name":"Verwaltungskreis Emmental"},"canton":{"key":"2","code":"BE","name":"Bern / Berne"},"status":"Real"},{"key":"10087866","name":"Huebstrasse","postalCode":"3423","locality":"Ersigen","commune":{"key":"405","name":"Ersigen","shortName":"Ersigen"},"district":{"key":"245","name":"Verwaltungskreis Emmental"},"canton":{"key":"2","code":"BE","name":"Bern / Berne"},"status":"Real"},{"key":"10005563","name":"Juraweg","postalCode":"3423","locality":"Ersigen","commune":{"key":"405","name":"Ersigen","shortName":"Ersigen"},"district":{"key":"245","name":"Verwaltungskreis Emmental"},"canton":{"key":"2","code":"BE","name":"Bern / Berne"},"status":"Real"},{"key":"10114727","name":"Käsereiweg","postalCode":"3423","locality":"Ersigen","commune":{"key":"405","name":"Ersigen","shortName":"Ersigen"},"district":{"key":"245","name":"Verwaltungskreis Emmental"},"canton":{"key":"2","code":"BE","name":"Bern / Berne"},"status":"Real"},{"key":"10005564","name":"Kreuzweg","postalCode":"3423","locality":"Ersigen","commune":{"key":"405","name":"Ersigen","shortName":"Ersigen"},"district":{"key":"245","name":"Verwaltungskreis Emmental"},"canton":{"key":"2","code":"BE","name":"Bern / Berne"},"status":"Real"},{"key":"10063883","name":"Landstrasse","postalCode":"3423","locality":"Ersigen","commune":{"key":"405","name":"Ersigen","shortName":"Ersigen"},"district":{"key":"245","name":"Verwaltungskreis Emmental"},"canton":{"key":"2","code":"BE","name":"Bern / Berne"},"status":"Real"},{"key":"10087867","name":"Lindenmattweg","postalCode":"3423","locality":"Ersigen","commune":{"key":"405","name":"Ersigen","shortName":"Ersigen"},"district":{"key":"245","name":"Verwaltungskreis Emmental"},"canton":{"key":"2","code":"BE","name":"Bern / Berne"},"status":"Real"},{"key":"10005565","name":"Lobärgstrasse","postalCode":"3423","locality":"Ersigen","commune":{"key":"405","name":"Ersigen","shortName":"Ersigen"},"district":{"key":"245","name":"Verwaltungskreis Emmental"},"canton":{"key":"2","code":"BE","name":"Bern / Berne"},"status":"Real"},{"key":"10178986","name":"Loon","postalCode":"3423","locality":"Ersigen","commune":{"key":"405","name":"Ersigen","shortName":"Ersigen"},"district":{"key":"245","name":"Verwaltungskreis Emmental"},"canton":{"key":"2","code":"BE","name":"Bern / Berne"},"status":"Real"},{"key":"10240618","name":"Mattenweg","postalCode":"3423","locality":"Ersigen","commune":{"key":"405","name":"Ersigen","shortName":"Ersigen"},"district":{"key":"245","name":"Verwaltungskreis Emmental"},"canton":{"key":"2","code":"BE","name":"Bern / Berne"},"status":"Real"},{"key":"10063884","name":"Moosweg","postalCode":"3423","locality":"Ersigen","commune":{"key":"405","name":"Ersigen","shortName":"Ersigen"},"district":{"key":"245","name":"Verwaltungskreis Emmental"},"canton":{"key":"2","code":"BE","name":"Bern / Berne"},"status":"Real"},{"key":"10005567","name":"Obermurain","postalCode":"3423","locality":"Ersigen","commune":{"key":"405","name":"Ersigen","shortName":"Ersigen"},"district":{"key":"245","name":"Verwaltungskreis Emmental"},"canton":{"key":"2","code":"BE","name":"Bern / Berne"},"status":"Real"},{"key":"10217816","name":"Oeschgässli","postalCode":"3423","locality":"Ersigen","commune":{"key":"405","name":"Ersigen","shortName":"Ersigen"},"district":{"key":"245","name":"Verwaltungskreis Emmental"},"canton":{"key":"2","code":"BE","name":"Bern / Berne"},"status":"Real"},{"key":"10087868","name":"Osterstall","postalCode":"3423","locality":"Ersigen","commune":{"key":"405","name":"Ersigen","shortName":"Ersigen"},"district":{"key":"245","name":"Verwaltungskreis Emmental"},"canton":{"key":"2","code":"BE","name":"Bern / Berne"},"status":"Real"},{"key":"10164479","name":"Pestalozziweg","postalCode":"3423","locality":"Ersigen","commune":{"key":"405","name":"Ersigen","shortName":"Ersigen"},"district":{"key":"245","name":"Verwaltungskreis Emmental"},"canton":{"key":"2","code":"BE","name":"Bern / Berne"},"status":"Real"},{"key":"10217820","name":"Pfarrhausweg","postalCode":"3423","locality":"Ersigen","commune":{"key":"405","name":"Ersigen","shortName":"Ersigen"},"district":{"key":"245","name":"Verwaltungskreis Emmental"},"canton":{"key":"2","code":"BE","name":"Bern / Berne"},"status":"Real"},{"key":"10005568","name":"Rainacherweg","postalCode":"3423","locality":"Ersigen","commune":{"key":"405","name":"Ersigen","shortName":"Ersigen"},"district":{"key":"245","name":"Verwaltungskreis Emmental"},"canton":{"key":"2","code":"BE","name":"Bern / Berne"},"status":"Real"},{"key":"10163362","name":"Ruedswilstrasse","postalCode":"3423","locality":"Ersigen","commune":{"key":"405","name":"Ersigen","shortName":"Ersigen"},"district":{"key":"245","name":"Verwaltungskreis Emmental"},"canton":{"key":"2","code":"BE","name":"Bern / Berne"},"status":"Real"},{"key":"10240626","name":"Rumendingenstrasse","postalCode":"3423","locality":"Ersigen","commune":{"key":"405","name":"Ersigen","shortName":"Ersigen"},"district":{"key":"245","name":"Verwaltungskreis Emmental"},"canton":{"key":"2","code":"BE","name":"Bern / Berne"},"status":"Real"},{"key":"10087869","name":"Sandrütiweg","postalCode":"3423","locality":"Ersigen","commune":{"key":"405","name":"Ersigen","shortName":"Ersigen"},"district":{"key":"245","name":"Verwaltungskreis Emmental"},"canton":{"key":"2","code":"BE","name":"Bern / Berne"},"status":"Real"},{"key":"10133853","name":"Schulmatte","postalCode":"3423","locality":"Ersigen","commune":{"key":"405","name":"Ersigen","shortName":"Ersigen"},"district":{"key":"245","name":"Verwaltungskreis Emmental"},"canton":{"key":"2","code":"BE","name":"Bern / Berne"},"status":"Real"},{"key":"10005569","name":"Schulstrasse","postalCode":"3423","locality":"Ersigen","commune":{"key":"405","name":"Ersigen","shortName":"Ersigen"},"district":{"key":"245","name":"Verwaltungskreis Emmental"},"canton":{"key":"2","code":"BE","name":"Bern / Berne"},"status":"Real"},{"key":"10005570","name":"Schürgasse","postalCode":"3423","locality":"Ersigen","commune":{"key":"405","name":"Ersigen","shortName":"Ersigen"},"district":{"key":"245","name":"Verwaltungskreis Emmental"},"canton":{"key":"2","code":"BE","name":"Bern / Berne"},"status":"Real"},{"key":"10182022","name":"Sonnhalde","postalCode":"3423","locality":"Ersigen","commune":{"key":"405","name":"Ersigen","shortName":"Ersigen"},"district":{"key":"245","name":"Verwaltungskreis Emmental"},"canton":{"key":"2","code":"BE","name":"Bern / Berne"},"status":"Real"},{"key":"10188465","name":"Sonnrain","postalCode":"3423","locality":"Ersigen","commune":{"key":"405","name":"Ersigen","shortName":"Ersigen"},"district":{"key":"245","name":"Verwaltungskreis Emmental"},"canton":{"key":"2","code":"BE","name":"Bern / Berne"},"status":"Real"},{"key":"10172520","name":"Spittelweg","postalCode":"3423","locality":"Ersigen","commune":{"key":"405","name":"Ersigen","shortName":"Ersigen"},"district":{"key":"245","name":"Verwaltungskreis Emmental"},"canton":{"key":"2","code":"BE","name":"Bern / Berne"},"status":"Real"},{"key":"10242955","name":"Tannwald","postalCode":"3423","locality":"Ersigen","commune":{"key":"405","name":"Ersigen","shortName":"Ersigen"},"district":{"key":"245","name":"Verwaltungskreis Emmental"},"canton":{"key":"2","code":"BE","name":"Bern / Berne"},"status":"Real"},{"key":"10178987","name":"Töpfereistrasse","postalCode":"3423","locality":"Ersigen","commune":{"key":"405","name":"Ersigen","shortName":"Ersigen"},"district":{"key":"245","name":"Verwaltungskreis Emmental"},"canton":{"key":"2","code":"BE","name":"Bern / Berne"},"status":"Real"},{"key":"10005571","name":"Uf em Gumis","postalCode":"3423","locality":"Ersigen","commune":{"key":"405","name":"Ersigen","shortName":"Ersigen"},"district":{"key":"245","name":"Verwaltungskreis Emmental"},"canton":{"key":"2","code":"BE","name":"Bern / Berne"},"status":"Real"},{"key":"10063886","name":"Weierweg","postalCode":"3423","locality":"Ersigen","commune":{"key":"405","name":"Ersigen","shortName":"Ersigen"},"district":{"key":"245","name":"Verwaltungskreis Emmental"},"canton":{"key":"2","code":"BE","name":"Bern / Berne"},"status":"Real"},{"key":"10153707","name":"Weissensteinweg","postalCode":"3423","locality":"Ersigen","commune":{"key":"405","name":"Ersigen","shortName":"Ersigen"},"district":{"key":"245","name":"Verwaltungskreis Emmental"},"canton":{"key":"2","code":"BE","name":"Bern / Berne"},"status":"Real"},{"key":"10087870","name":"Wiesenweg","postalCode":"3423","locality":"Ersigen","commune":{"key":"405","name":"Ersigen","shortName":"Ersigen"},"district":{"key":"245","name":"Verwaltungskreis Emmental"},"canton":{"key":"2","code":"BE","name":"Bern / Berne"},"status":"Real"},]