[{"name":"Am Kellerborn","postalCode":"56814","locality":"Ediger-Eller","municipality":{"key":"07135024","name":"Ediger-Eller","type":"Kreisangehörige_Gemeinde"},"district":{"key":"07135","name":"Cochem-Zell","type":"Landkreis"},"federalState":{"key":"07","name":"Rheinland-Pfalz"}},{"name":"Am Pfirsichgarten","postalCode":"56814","locality":"Ediger-Eller","municipality":{"key":"07135024","name":"Ediger-Eller","type":"Kreisangehörige_Gemeinde"},"district":{"key":"07135","name":"Cochem-Zell","type":"Landkreis"},"federalState":{"key":"07","name":"Rheinland-Pfalz"}},{"name":"Bachstr.","postalCode":"56814","locality":"Ediger-Eller","municipality":{"key":"07135024","name":"Ediger-Eller","type":"Kreisangehörige_Gemeinde"},"district":{"key":"07135","name":"Cochem-Zell","type":"Landkreis"},"federalState":{"key":"07","name":"Rheinland-Pfalz"}},{"name":"Bergstr.","postalCode":"56814","locality":"Ediger-Eller","municipality":{"key":"07135024","name":"Ediger-Eller","type":"Kreisangehörige_Gemeinde"},"district":{"key":"07135","name":"Cochem-Zell","type":"Landkreis"},"federalState":{"key":"07","name":"Rheinland-Pfalz"}},{"name":"Bienenlay","postalCode":"56814","locality":"Ediger-Eller","municipality":{"key":"07135024","name":"Ediger-Eller","type":"Kreisangehörige_Gemeinde"},"district":{"key":"07135","name":"Cochem-Zell","type":"Landkreis"},"federalState":{"key":"07","name":"Rheinland-Pfalz"}},{"name":"Brunnenstr.","postalCode":"56814","locality":"Ediger-Eller","municipality":{"key":"07135024","name":"Ediger-Eller","type":"Kreisangehörige_Gemeinde"},"district":{"key":"07135","name":"Cochem-Zell","type":"Landkreis"},"federalState":{"key":"07","name":"Rheinland-Pfalz"}},{"name":"Edigerer Str.","postalCode":"56814","locality":"Ediger-Eller","municipality":{"key":"07135024","name":"Ediger-Eller","type":"Kreisangehörige_Gemeinde"},"district":{"key":"07135","name":"Cochem-Zell","type":"Landkreis"},"federalState":{"key":"07","name":"Rheinland-Pfalz"}},{"name":"Ellerbachweg","postalCode":"56814","locality":"Ediger-Eller","municipality":{"key":"07135024","name":"Ediger-Eller","type":"Kreisangehörige_Gemeinde"},"district":{"key":"07135","name":"Cochem-Zell","type":"Landkreis"},"federalState":{"key":"07","name":"Rheinland-Pfalz"}},{"name":"Ellerstr.","postalCode":"56814","locality":"Ediger-Eller","municipality":{"key":"07135024","name":"Ediger-Eller","type":"Kreisangehörige_Gemeinde"},"district":{"key":"07135","name":"Cochem-Zell","type":"Landkreis"},"federalState":{"key":"07","name":"Rheinland-Pfalz"}},{"name":"Elzhofbergweg","postalCode":"56814","locality":"Ediger-Eller","municipality":{"key":"07135024","name":"Ediger-Eller","type":"Kreisangehörige_Gemeinde"},"district":{"key":"07135","name":"Cochem-Zell","type":"Landkreis"},"federalState":{"key":"07","name":"Rheinland-Pfalz"}},{"name":"Eulenstr.","postalCode":"56814","locality":"Ediger-Eller","municipality":{"key":"07135024","name":"Ediger-Eller","type":"Kreisangehörige_Gemeinde"},"district":{"key":"07135","name":"Cochem-Zell","type":"Landkreis"},"federalState":{"key":"07","name":"Rheinland-Pfalz"}},{"name":"Feuerbergweg","postalCode":"56814","locality":"Ediger-Eller","municipality":{"key":"07135024","name":"Ediger-Eller","type":"Kreisangehörige_Gemeinde"},"district":{"key":"07135","name":"Cochem-Zell","type":"Landkreis"},"federalState":{"key":"07","name":"Rheinland-Pfalz"}},{"name":"Hilariusstr.","postalCode":"56814","locality":"Ediger-Eller","municipality":{"key":"07135024","name":"Ediger-Eller","type":"Kreisangehörige_Gemeinde"},"district":{"key":"07135","name":"Cochem-Zell","type":"Landkreis"},"federalState":{"key":"07","name":"Rheinland-Pfalz"}},{"name":"Hochstr.","postalCode":"56814","locality":"Ediger-Eller","municipality":{"key":"07135024","name":"Ediger-Eller","type":"Kreisangehörige_Gemeinde"},"district":{"key":"07135","name":"Cochem-Zell","type":"Landkreis"},"federalState":{"key":"07","name":"Rheinland-Pfalz"}},{"name":"In der Holl","postalCode":"56814","locality":"Ediger-Eller","municipality":{"key":"07135024","name":"Ediger-Eller","type":"Kreisangehörige_Gemeinde"},"district":{"key":"07135","name":"Cochem-Zell","type":"Landkreis"},"federalState":{"key":"07","name":"Rheinland-Pfalz"}},{"name":"Kapellenstr.","postalCode":"56814","locality":"Ediger-Eller","municipality":{"key":"07135024","name":"Ediger-Eller","type":"Kreisangehörige_Gemeinde"},"district":{"key":"07135","name":"Cochem-Zell","type":"Landkreis"},"federalState":{"key":"07","name":"Rheinland-Pfalz"}},{"name":"Keltenweg","postalCode":"56814","locality":"Ediger-Eller","municipality":{"key":"07135024","name":"Ediger-Eller","type":"Kreisangehörige_Gemeinde"},"district":{"key":"07135","name":"Cochem-Zell","type":"Landkreis"},"federalState":{"key":"07","name":"Rheinland-Pfalz"}},{"name":"Kirchstr.","postalCode":"56814","locality":"Ediger-Eller","municipality":{"key":"07135024","name":"Ediger-Eller","type":"Kreisangehörige_Gemeinde"},"district":{"key":"07135","name":"Cochem-Zell","type":"Landkreis"},"federalState":{"key":"07","name":"Rheinland-Pfalz"}},{"name":"Klepperstr.","postalCode":"56814","locality":"Ediger-Eller","municipality":{"key":"07135024","name":"Ediger-Eller","type":"Kreisangehörige_Gemeinde"},"district":{"key":"07135","name":"Cochem-Zell","type":"Landkreis"},"federalState":{"key":"07","name":"Rheinland-Pfalz"}},{"name":"Kuhgasse","postalCode":"56814","locality":"Ediger-Eller","municipality":{"key":"07135024","name":"Ediger-Eller","type":"Kreisangehörige_Gemeinde"},"district":{"key":"07135","name":"Cochem-Zell","type":"Landkreis"},"federalState":{"key":"07","name":"Rheinland-Pfalz"}},{"name":"Lohmühle","postalCode":"56814","locality":"Ediger-Eller","municipality":{"key":"07135024","name":"Ediger-Eller","type":"Kreisangehörige_Gemeinde"},"district":{"key":"07135","name":"Cochem-Zell","type":"Landkreis"},"federalState":{"key":"07","name":"Rheinland-Pfalz"}},{"name":"Martinstr.","postalCode":"56814","locality":"Ediger-Eller","municipality":{"key":"07135024","name":"Ediger-Eller","type":"Kreisangehörige_Gemeinde"},"district":{"key":"07135","name":"Cochem-Zell","type":"Landkreis"},"federalState":{"key":"07","name":"Rheinland-Pfalz"}},{"name":"Merowingerstr.","postalCode":"56814","locality":"Ediger-Eller","municipality":{"key":"07135024","name":"Ediger-Eller","type":"Kreisangehörige_Gemeinde"},"district":{"key":"07135","name":"Cochem-Zell","type":"Landkreis"},"federalState":{"key":"07","name":"Rheinland-Pfalz"}},{"name":"Michelwingertweg","postalCode":"56814","locality":"Ediger-Eller","municipality":{"key":"07135024","name":"Ediger-Eller","type":"Kreisangehörige_Gemeinde"},"district":{"key":"07135","name":"Cochem-Zell","type":"Landkreis"},"federalState":{"key":"07","name":"Rheinland-Pfalz"}},{"name":"Moselweinstr.","postalCode":"56814","locality":"Ediger-Eller","municipality":{"key":"07135024","name":"Ediger-Eller","type":"Kreisangehörige_Gemeinde"},"district":{"key":"07135","name":"Cochem-Zell","type":"Landkreis"},"federalState":{"key":"07","name":"Rheinland-Pfalz"}},{"name":"Nikolausstr.","postalCode":"56814","locality":"Ediger-Eller","municipality":{"key":"07135024","name":"Ediger-Eller","type":"Kreisangehörige_Gemeinde"},"district":{"key":"07135","name":"Cochem-Zell","type":"Landkreis"},"federalState":{"key":"07","name":"Rheinland-Pfalz"}},{"name":"Oberbachstr.","postalCode":"56814","locality":"Ediger-Eller","municipality":{"key":"07135024","name":"Ediger-Eller","type":"Kreisangehörige_Gemeinde"},"district":{"key":"07135","name":"Cochem-Zell","type":"Landkreis"},"federalState":{"key":"07","name":"Rheinland-Pfalz"}},{"name":"Osterlämmchen","postalCode":"56814","locality":"Ediger-Eller","municipality":{"key":"07135024","name":"Ediger-Eller","type":"Kreisangehörige_Gemeinde"},"district":{"key":"07135","name":"Cochem-Zell","type":"Landkreis"},"federalState":{"key":"07","name":"Rheinland-Pfalz"}},{"name":"Paulusstr.","postalCode":"56814","locality":"Ediger-Eller","municipality":{"key":"07135024","name":"Ediger-Eller","type":"Kreisangehörige_Gemeinde"},"district":{"key":"07135","name":"Cochem-Zell","type":"Landkreis"},"federalState":{"key":"07","name":"Rheinland-Pfalz"}},{"name":"Pehrstr.","postalCode":"56814","locality":"Ediger-Eller","municipality":{"key":"07135024","name":"Ediger-Eller","type":"Kreisangehörige_Gemeinde"},"district":{"key":"07135","name":"Cochem-Zell","type":"Landkreis"},"federalState":{"key":"07","name":"Rheinland-Pfalz"}},{"name":"Pelzerstr.","postalCode":"56814","locality":"Ediger-Eller","municipality":{"key":"07135024","name":"Ediger-Eller","type":"Kreisangehörige_Gemeinde"},"district":{"key":"07135","name":"Cochem-Zell","type":"Landkreis"},"federalState":{"key":"07","name":"Rheinland-Pfalz"}},{"name":"Pützstr.","postalCode":"56814","locality":"Ediger-Eller","municipality":{"key":"07135024","name":"Ediger-Eller","type":"Kreisangehörige_Gemeinde"},"district":{"key":"07135","name":"Cochem-Zell","type":"Landkreis"},"federalState":{"key":"07","name":"Rheinland-Pfalz"}},{"name":"Raiffeisenstr.","postalCode":"56814","locality":"Ediger-Eller","municipality":{"key":"07135024","name":"Ediger-Eller","type":"Kreisangehörige_Gemeinde"},"district":{"key":"07135","name":"Cochem-Zell","type":"Landkreis"},"federalState":{"key":"07","name":"Rheinland-Pfalz"}},{"name":"Rathausstr.","postalCode":"56814","locality":"Ediger-Eller","municipality":{"key":"07135024","name":"Ediger-Eller","type":"Kreisangehörige_Gemeinde"},"district":{"key":"07135","name":"Cochem-Zell","type":"Landkreis"},"federalState":{"key":"07","name":"Rheinland-Pfalz"}},{"name":"Rieslingweg","postalCode":"56814","locality":"Ediger-Eller","municipality":{"key":"07135024","name":"Ediger-Eller","type":"Kreisangehörige_Gemeinde"},"district":{"key":"07135","name":"Cochem-Zell","type":"Landkreis"},"federalState":{"key":"07","name":"Rheinland-Pfalz"}},{"name":"Römerweg","postalCode":"56814","locality":"Ediger-Eller","municipality":{"key":"07135024","name":"Ediger-Eller","type":"Kreisangehörige_Gemeinde"},"district":{"key":"07135","name":"Cochem-Zell","type":"Landkreis"},"federalState":{"key":"07","name":"Rheinland-Pfalz"}},{"name":"St. Jakobstr.","postalCode":"56814","locality":"Ediger-Eller","municipality":{"key":"07135024","name":"Ediger-Eller","type":"Kreisangehörige_Gemeinde"},"district":{"key":"07135","name":"Cochem-Zell","type":"Landkreis"},"federalState":{"key":"07","name":"Rheinland-Pfalz"}},{"name":"Theys-Külwer-Str.","postalCode":"56814","locality":"Ediger-Eller","municipality":{"key":"07135024","name":"Ediger-Eller","type":"Kreisangehörige_Gemeinde"},"district":{"key":"07135","name":"Cochem-Zell","type":"Landkreis"},"federalState":{"key":"07","name":"Rheinland-Pfalz"}},{"name":"Unterbachstr.","postalCode":"56814","locality":"Ediger-Eller","municipality":{"key":"07135024","name":"Ediger-Eller","type":"Kreisangehörige_Gemeinde"},"district":{"key":"07135","name":"Cochem-Zell","type":"Landkreis"},"federalState":{"key":"07","name":"Rheinland-Pfalz"}},]