[{"name":"Abensberger Weg","postalCode":"93326","locality":"Abensberg","municipality":{"key":"09273111","name":"Abensberg, St","type":"Stadt"},"district":{"key":"09273","name":"Kelheim","type":"Landkreis"},"federalState":{"key":"09","name":"Bayern"}},{"name":"Abensstr.","postalCode":"93326","locality":"Abensberg","municipality":{"key":"09273111","name":"Abensberg, St","type":"Stadt"},"district":{"key":"09273","name":"Kelheim","type":"Landkreis"},"federalState":{"key":"09","name":"Bayern"}},{"name":"Adalbert-Stifter-Str.","postalCode":"93326","locality":"Abensberg","municipality":{"key":"09273111","name":"Abensberg, St","type":"Stadt"},"district":{"key":"09273","name":"Kelheim","type":"Landkreis"},"federalState":{"key":"09","name":"Bayern"}},{"name":"Adlerstr.","postalCode":"93326","locality":"Abensberg","municipality":{"key":"09273111","name":"Abensberg, St","type":"Stadt"},"district":{"key":"09273","name":"Kelheim","type":"Landkreis"},"federalState":{"key":"09","name":"Bayern"}},{"name":"Adolf-Kolping-Platz","postalCode":"93326","locality":"Abensberg","municipality":{"key":"09273111","name":"Abensberg, St","type":"Stadt"},"district":{"key":"09273","name":"Kelheim","type":"Landkreis"},"federalState":{"key":"09","name":"Bayern"}},{"name":"Adolf von Braunmuehl Str.","postalCode":"93326","locality":"Abensberg","municipality":{"key":"09273111","name":"Abensberg, St","type":"Stadt"},"district":{"key":"09273","name":"Kelheim","type":"Landkreis"},"federalState":{"key":"09","name":"Bayern"}},{"name":"Ahornweg","postalCode":"93326","locality":"Abensberg","municipality":{"key":"09273111","name":"Abensberg, St","type":"Stadt"},"district":{"key":"09273","name":"Kelheim","type":"Landkreis"},"federalState":{"key":"09","name":"Bayern"}},{"name":"Alfons-Listl-Str.","postalCode":"93326","locality":"Abensberg","municipality":{"key":"09273111","name":"Abensberg, St","type":"Stadt"},"district":{"key":"09273","name":"Kelheim","type":"Landkreis"},"federalState":{"key":"09","name":"Bayern"}},{"name":"Alleestr.","postalCode":"93326","locality":"Abensberg","municipality":{"key":"09273111","name":"Abensberg, St","type":"Stadt"},"district":{"key":"09273","name":"Kelheim","type":"Landkreis"},"federalState":{"key":"09","name":"Bayern"}},{"name":"Allersdorfer Weg","postalCode":"93326","locality":"Abensberg","municipality":{"key":"09273111","name":"Abensberg, St","type":"Stadt"},"district":{"key":"09273","name":"Kelheim","type":"Landkreis"},"federalState":{"key":"09","name":"Bayern"}},{"name":"Allingerweg","postalCode":"93326","locality":"Abensberg","municipality":{"key":"09273111","name":"Abensberg, St","type":"Stadt"},"district":{"key":"09273","name":"Kelheim","type":"Landkreis"},"federalState":{"key":"09","name":"Bayern"}},{"name":"Alte Hopfenstr.","postalCode":"93326","locality":"Abensberg","municipality":{"key":"09273111","name":"Abensberg, St","type":"Stadt"},"district":{"key":"09273","name":"Kelheim","type":"Landkreis"},"federalState":{"key":"09","name":"Bayern"}},{"name":"Am Anger","postalCode":"93326","locality":"Abensberg","municipality":{"key":"09273111","name":"Abensberg, St","type":"Stadt"},"district":{"key":"09273","name":"Kelheim","type":"Landkreis"},"federalState":{"key":"09","name":"Bayern"}},{"name":"Am Bahndamm","postalCode":"93326","locality":"Abensberg","municipality":{"key":"09273111","name":"Abensberg, St","type":"Stadt"},"district":{"key":"09273","name":"Kelheim","type":"Landkreis"},"federalState":{"key":"09","name":"Bayern"}},{"name":"Am Birket","postalCode":"93326","locality":"Abensberg","municipality":{"key":"09273111","name":"Abensberg, St","type":"Stadt"},"district":{"key":"09273","name":"Kelheim","type":"Landkreis"},"federalState":{"key":"09","name":"Bayern"}},{"name":"Am Degelfeld","postalCode":"93326","locality":"Abensberg","municipality":{"key":"09273111","name":"Abensberg, St","type":"Stadt"},"district":{"key":"09273","name":"Kelheim","type":"Landkreis"},"federalState":{"key":"09","name":"Bayern"}},{"name":"Am Eichenbuckl","postalCode":"93326","locality":"Abensberg","municipality":{"key":"09273111","name":"Abensberg, St","type":"Stadt"},"district":{"key":"09273","name":"Kelheim","type":"Landkreis"},"federalState":{"key":"09","name":"Bayern"}},{"name":"Am Fürst","postalCode":"93326","locality":"Abensberg","municipality":{"key":"09273111","name":"Abensberg, St","type":"Stadt"},"district":{"key":"09273","name":"Kelheim","type":"Landkreis"},"federalState":{"key":"09","name":"Bayern"}},{"name":"Am Galgenberg","postalCode":"93326","locality":"Abensberg","municipality":{"key":"09273111","name":"Abensberg, St","type":"Stadt"},"district":{"key":"09273","name":"Kelheim","type":"Landkreis"},"federalState":{"key":"09","name":"Bayern"}},{"name":"Am Grauen Felsen","postalCode":"93326","locality":"Abensberg","municipality":{"key":"09273111","name":"Abensberg, St","type":"Stadt"},"district":{"key":"09273","name":"Kelheim","type":"Landkreis"},"federalState":{"key":"09","name":"Bayern"}},{"name":"Am Hang","postalCode":"93326","locality":"Abensberg","municipality":{"key":"09273111","name":"Abensberg, St","type":"Stadt"},"district":{"key":"09273","name":"Kelheim","type":"Landkreis"},"federalState":{"key":"09","name":"Bayern"}},{"name":"Am Herrenberg","postalCode":"93326","locality":"Abensberg","municipality":{"key":"09273111","name":"Abensberg, St","type":"Stadt"},"district":{"key":"09273","name":"Kelheim","type":"Landkreis"},"federalState":{"key":"09","name":"Bayern"}},{"name":"Am Linderfeld","postalCode":"93326","locality":"Abensberg","municipality":{"key":"09273111","name":"Abensberg, St","type":"Stadt"},"district":{"key":"09273","name":"Kelheim","type":"Landkreis"},"federalState":{"key":"09","name":"Bayern"}},{"name":"Am Schlott","postalCode":"93326","locality":"Abensberg","municipality":{"key":"09273111","name":"Abensberg, St","type":"Stadt"},"district":{"key":"09273","name":"Kelheim","type":"Landkreis"},"federalState":{"key":"09","name":"Bayern"}},{"name":"Am Schmiedweiher","postalCode":"93326","locality":"Abensberg","municipality":{"key":"09273111","name":"Abensberg, St","type":"Stadt"},"district":{"key":"09273","name":"Kelheim","type":"Landkreis"},"federalState":{"key":"09","name":"Bayern"}},{"name":"Am Seeacker","postalCode":"93326","locality":"Abensberg","municipality":{"key":"09273111","name":"Abensberg, St","type":"Stadt"},"district":{"key":"09273","name":"Kelheim","type":"Landkreis"},"federalState":{"key":"09","name":"Bayern"}},{"name":"Am Sommerkeller","postalCode":"93326","locality":"Abensberg","municipality":{"key":"09273111","name":"Abensberg, St","type":"Stadt"},"district":{"key":"09273","name":"Kelheim","type":"Landkreis"},"federalState":{"key":"09","name":"Bayern"}},{"name":"Am Sonnenhang","postalCode":"93326","locality":"Abensberg","municipality":{"key":"09273111","name":"Abensberg, St","type":"Stadt"},"district":{"key":"09273","name":"Kelheim","type":"Landkreis"},"federalState":{"key":"09","name":"Bayern"}},{"name":"Am Spielplatz","postalCode":"93326","locality":"Abensberg","municipality":{"key":"09273111","name":"Abensberg, St","type":"Stadt"},"district":{"key":"09273","name":"Kelheim","type":"Landkreis"},"federalState":{"key":"09","name":"Bayern"}},{"name":"Am Sportplatz","postalCode":"93326","locality":"Abensberg","municipality":{"key":"09273111","name":"Abensberg, St","type":"Stadt"},"district":{"key":"09273","name":"Kelheim","type":"Landkreis"},"federalState":{"key":"09","name":"Bayern"}},{"name":"Am Stadtgraben","postalCode":"93326","locality":"Abensberg","municipality":{"key":"09273111","name":"Abensberg, St","type":"Stadt"},"district":{"key":"09273","name":"Kelheim","type":"Landkreis"},"federalState":{"key":"09","name":"Bayern"}},{"name":"Am Straßfeld","postalCode":"93326","locality":"Abensberg","municipality":{"key":"09273111","name":"Abensberg, St","type":"Stadt"},"district":{"key":"09273","name":"Kelheim","type":"Landkreis"},"federalState":{"key":"09","name":"Bayern"}},{"name":"Am Wasserwerk","postalCode":"93326","locality":"Abensberg","municipality":{"key":"09273111","name":"Abensberg, St","type":"Stadt"},"district":{"key":"09273","name":"Kelheim","type":"Landkreis"},"federalState":{"key":"09","name":"Bayern"}},{"name":"An den Sandwellen","postalCode":"93326","locality":"Abensberg","municipality":{"key":"09273111","name":"Abensberg, St","type":"Stadt"},"district":{"key":"09273","name":"Kelheim","type":"Landkreis"},"federalState":{"key":"09","name":"Bayern"}},{"name":"An der Bergstr.","postalCode":"93326","locality":"Abensberg","municipality":{"key":"09273111","name":"Abensberg, St","type":"Stadt"},"district":{"key":"09273","name":"Kelheim","type":"Landkreis"},"federalState":{"key":"09","name":"Bayern"}},{"name":"An der Linde","postalCode":"93326","locality":"Abensberg","municipality":{"key":"09273111","name":"Abensberg, St","type":"Stadt"},"district":{"key":"09273","name":"Kelheim","type":"Landkreis"},"federalState":{"key":"09","name":"Bayern"}},{"name":"Anton-Guenther-Str.","postalCode":"93326","locality":"Abensberg","municipality":{"key":"09273111","name":"Abensberg, St","type":"Stadt"},"district":{"key":"09273","name":"Kelheim","type":"Landkreis"},"federalState":{"key":"09","name":"Bayern"}},{"name":"Arnhelmstr.","postalCode":"93326","locality":"Abensberg","municipality":{"key":"09273111","name":"Abensberg, St","type":"Stadt"},"district":{"key":"09273","name":"Kelheim","type":"Landkreis"},"federalState":{"key":"09","name":"Bayern"}},{"name":"Arnhofener Weg","postalCode":"93326","locality":"Abensberg","municipality":{"key":"09273111","name":"Abensberg, St","type":"Stadt"},"district":{"key":"09273","name":"Kelheim","type":"Landkreis"},"federalState":{"key":"09","name":"Bayern"}},{"name":"Arnostr.","postalCode":"93326","locality":"Abensberg","municipality":{"key":"09273111","name":"Abensberg, St","type":"Stadt"},"district":{"key":"09273","name":"Kelheim","type":"Landkreis"},"federalState":{"key":"09","name":"Bayern"}},{"name":"Aschenbrennerstr.","postalCode":"93326","locality":"Abensberg","municipality":{"key":"09273111","name":"Abensberg, St","type":"Stadt"},"district":{"key":"09273","name":"Kelheim","type":"Landkreis"},"federalState":{"key":"09","name":"Bayern"}},{"name":"Asternstr.","postalCode":"93326","locality":"Abensberg","municipality":{"key":"09273111","name":"Abensberg, St","type":"Stadt"},"district":{"key":"09273","name":"Kelheim","type":"Landkreis"},"federalState":{"key":"09","name":"Bayern"}},{"name":"Auf dem Judenbuckel","postalCode":"93326","locality":"Abensberg","municipality":{"key":"09273111","name":"Abensberg, St","type":"Stadt"},"district":{"key":"09273","name":"Kelheim","type":"Landkreis"},"federalState":{"key":"09","name":"Bayern"}},{"name":"Auf dem Weinberg","postalCode":"93326","locality":"Abensberg","municipality":{"key":"09273111","name":"Abensberg, St","type":"Stadt"},"district":{"key":"09273","name":"Kelheim","type":"Landkreis"},"federalState":{"key":"09","name":"Bayern"}},{"name":"Aumühlstr.","postalCode":"93326","locality":"Abensberg","municipality":{"key":"09273111","name":"Abensberg, St","type":"Stadt"},"district":{"key":"09273","name":"Kelheim","type":"Landkreis"},"federalState":{"key":"09","name":"Bayern"}},{"name":"Aunkofener Siedlung","postalCode":"93326","locality":"Abensberg","municipality":{"key":"09273111","name":"Abensberg, St","type":"Stadt"},"district":{"key":"09273","name":"Kelheim","type":"Landkreis"},"federalState":{"key":"09","name":"Bayern"}},{"name":"Aunkofener Str.","postalCode":"93326","locality":"Abensberg","municipality":{"key":"09273111","name":"Abensberg, St","type":"Stadt"},"district":{"key":"09273","name":"Kelheim","type":"Landkreis"},"federalState":{"key":"09","name":"Bayern"}},{"name":"Aventinusplatz","postalCode":"93326","locality":"Abensberg","municipality":{"key":"09273111","name":"Abensberg, St","type":"Stadt"},"district":{"key":"09273","name":"Kelheim","type":"Landkreis"},"federalState":{"key":"09","name":"Bayern"}},{"name":"Babostr.","postalCode":"93326","locality":"Abensberg","municipality":{"key":"09273111","name":"Abensberg, St","type":"Stadt"},"district":{"key":"09273","name":"Kelheim","type":"Landkreis"},"federalState":{"key":"09","name":"Bayern"}},{"name":"Baderstr.","postalCode":"93326","locality":"Abensberg","municipality":{"key":"09273111","name":"Abensberg, St","type":"Stadt"},"district":{"key":"09273","name":"Kelheim","type":"Landkreis"},"federalState":{"key":"09","name":"Bayern"}},{"name":"Badhausstr.","postalCode":"93326","locality":"Abensberg","municipality":{"key":"09273111","name":"Abensberg, St","type":"Stadt"},"district":{"key":"09273","name":"Kelheim","type":"Landkreis"},"federalState":{"key":"09","name":"Bayern"}},{"name":"Bahnhofstr.","postalCode":"93326","locality":"Abensberg","municipality":{"key":"09273111","name":"Abensberg, St","type":"Stadt"},"district":{"key":"09273","name":"Kelheim","type":"Landkreis"},"federalState":{"key":"09","name":"Bayern"}},{"name":"Bahnweg","postalCode":"93326","locality":"Abensberg","municipality":{"key":"09273111","name":"Abensberg, St","type":"Stadt"},"district":{"key":"09273","name":"Kelheim","type":"Landkreis"},"federalState":{"key":"09","name":"Bayern"}},{"name":"Barbaraplatz","postalCode":"93326","locality":"Abensberg","municipality":{"key":"09273111","name":"Abensberg, St","type":"Stadt"},"district":{"key":"09273","name":"Kelheim","type":"Landkreis"},"federalState":{"key":"09","name":"Bayern"}},{"name":"Bergstr.","postalCode":"93326","locality":"Abensberg","municipality":{"key":"09273111","name":"Abensberg, St","type":"Stadt"},"district":{"key":"09273","name":"Kelheim","type":"Landkreis"},"federalState":{"key":"09","name":"Bayern"}},{"name":"Birkenstr.","postalCode":"93326","locality":"Abensberg","municipality":{"key":"09273111","name":"Abensberg, St","type":"Stadt"},"district":{"key":"09273","name":"Kelheim","type":"Landkreis"},"federalState":{"key":"09","name":"Bayern"}},{"name":"Birkhahnweg","postalCode":"93326","locality":"Abensberg","municipality":{"key":"09273111","name":"Abensberg, St","type":"Stadt"},"district":{"key":"09273","name":"Kelheim","type":"Landkreis"},"federalState":{"key":"09","name":"Bayern"}},{"name":"Blumenstr.","postalCode":"93326","locality":"Abensberg","municipality":{"key":"09273111","name":"Abensberg, St","type":"Stadt"},"district":{"key":"09273","name":"Kelheim","type":"Landkreis"},"federalState":{"key":"09","name":"Bayern"}},{"name":"Bruckweg","postalCode":"93326","locality":"Abensberg","municipality":{"key":"09273111","name":"Abensberg, St","type":"Stadt"},"district":{"key":"09273","name":"Kelheim","type":"Landkreis"},"federalState":{"key":"09","name":"Bayern"}},{"name":"Brünnlweg","postalCode":"93326","locality":"Abensberg","municipality":{"key":"09273111","name":"Abensberg, St","type":"Stadt"},"district":{"key":"09273","name":"Kelheim","type":"Landkreis"},"federalState":{"key":"09","name":"Bayern"}},{"name":"Buchenstr.","postalCode":"93326","locality":"Abensberg","municipality":{"key":"09273111","name":"Abensberg, St","type":"Stadt"},"district":{"key":"09273","name":"Kelheim","type":"Landkreis"},"federalState":{"key":"09","name":"Bayern"}},{"name":"Burgunderweg","postalCode":"93326","locality":"Abensberg","municipality":{"key":"09273111","name":"Abensberg, St","type":"Stadt"},"district":{"key":"09273","name":"Kelheim","type":"Landkreis"},"federalState":{"key":"09","name":"Bayern"}},{"name":"Carl-Anton-Lang-Str.","postalCode":"93309","locality":"Kelheim","municipality":{"key":"09273137","name":"Kelheim, St","type":"Stadt"},"district":{"key":"09273","name":"Kelheim","type":"Landkreis"},"federalState":{"key":"09","name":"Bayern"}},{"name":"Cramannsdorfer Weg","postalCode":"93309","locality":"Kelheim","municipality":{"key":"09273137","name":"Kelheim, St","type":"Stadt"},"district":{"key":"09273","name":"Kelheim","type":"Landkreis"},"federalState":{"key":"09","name":"Bayern"}},{"name":"Dahlienstr.","postalCode":"93326","locality":"Abensberg","municipality":{"key":"09273111","name":"Abensberg, St","type":"Stadt"},"district":{"key":"09273","name":"Kelheim","type":"Landkreis"},"federalState":{"key":"09","name":"Bayern"}},{"name":"Degenhardtstr.","postalCode":"93326","locality":"Abensberg","municipality":{"key":"09273111","name":"Abensberg, St","type":"Stadt"},"district":{"key":"09273","name":"Kelheim","type":"Landkreis"},"federalState":{"key":"09","name":"Bayern"}},{"name":"Deisenhofener Weg","postalCode":"93326","locality":"Abensberg","municipality":{"key":"09273111","name":"Abensberg, St","type":"Stadt"},"district":{"key":"09273","name":"Kelheim","type":"Landkreis"},"federalState":{"key":"09","name":"Bayern"}},{"name":"Dollingerstr.","postalCode":"93326","locality":"Abensberg","municipality":{"key":"09273111","name":"Abensberg, St","type":"Stadt"},"district":{"key":"09273","name":"Kelheim","type":"Landkreis"},"federalState":{"key":"09","name":"Bayern"}},{"name":"Dorfstr.","postalCode":"93326","locality":"Abensberg","municipality":{"key":"09273111","name":"Abensberg, St","type":"Stadt"},"district":{"key":"09273","name":"Kelheim","type":"Landkreis"},"federalState":{"key":"09","name":"Bayern"}},{"name":"Dreifaltigkeitsweg","postalCode":"93326","locality":"Abensberg","municipality":{"key":"09273111","name":"Abensberg, St","type":"Stadt"},"district":{"key":"09273","name":"Kelheim","type":"Landkreis"},"federalState":{"key":"09","name":"Bayern"}},{"name":"Dünenweg","postalCode":"93326","locality":"Abensberg","municipality":{"key":"09273111","name":"Abensberg, St","type":"Stadt"},"district":{"key":"09273","name":"Kelheim","type":"Landkreis"},"federalState":{"key":"09","name":"Bayern"}},{"name":"Edelhardgasse","postalCode":"93326","locality":"Abensberg","municipality":{"key":"09273111","name":"Abensberg, St","type":"Stadt"},"district":{"key":"09273","name":"Kelheim","type":"Landkreis"},"federalState":{"key":"09","name":"Bayern"}},{"name":"Eibenweg","postalCode":"93326","locality":"Abensberg","municipality":{"key":"09273111","name":"Abensberg, St","type":"Stadt"},"district":{"key":"09273","name":"Kelheim","type":"Landkreis"},"federalState":{"key":"09","name":"Bayern"}},{"name":"Eichendorffstr.","postalCode":"93326","locality":"Abensberg","municipality":{"key":"09273111","name":"Abensberg, St","type":"Stadt"},"district":{"key":"09273","name":"Kelheim","type":"Landkreis"},"federalState":{"key":"09","name":"Bayern"}},{"name":"Eichenstr.","postalCode":"93326","locality":"Abensberg","municipality":{"key":"09273111","name":"Abensberg, St","type":"Stadt"},"district":{"key":"09273","name":"Kelheim","type":"Landkreis"},"federalState":{"key":"09","name":"Bayern"}},{"name":"Eisenmeierstr.","postalCode":"93326","locality":"Abensberg","municipality":{"key":"09273111","name":"Abensberg, St","type":"Stadt"},"district":{"key":"09273","name":"Kelheim","type":"Landkreis"},"federalState":{"key":"09","name":"Bayern"}},{"name":"Erikaweg","postalCode":"93326","locality":"Abensberg","municipality":{"key":"09273111","name":"Abensberg, St","type":"Stadt"},"district":{"key":"09273","name":"Kelheim","type":"Landkreis"},"federalState":{"key":"09","name":"Bayern"}},{"name":"Eschenstr.","postalCode":"93326","locality":"Abensberg","municipality":{"key":"09273111","name":"Abensberg, St","type":"Stadt"},"district":{"key":"09273","name":"Kelheim","type":"Landkreis"},"federalState":{"key":"09","name":"Bayern"}},{"name":"Eulenstr.","postalCode":"93326","locality":"Abensberg","municipality":{"key":"09273111","name":"Abensberg, St","type":"Stadt"},"district":{"key":"09273","name":"Kelheim","type":"Landkreis"},"federalState":{"key":"09","name":"Bayern"}},{"name":"Falkenstr.","postalCode":"93326","locality":"Abensberg","municipality":{"key":"09273111","name":"Abensberg, St","type":"Stadt"},"district":{"key":"09273","name":"Kelheim","type":"Landkreis"},"federalState":{"key":"09","name":"Bayern"}},{"name":"Fasanenstr.","postalCode":"93326","locality":"Abensberg","municipality":{"key":"09273111","name":"Abensberg, St","type":"Stadt"},"district":{"key":"09273","name":"Kelheim","type":"Landkreis"},"federalState":{"key":"09","name":"Bayern"}},{"name":"Fichtenweg","postalCode":"93326","locality":"Abensberg","municipality":{"key":"09273111","name":"Abensberg, St","type":"Stadt"},"district":{"key":"09273","name":"Kelheim","type":"Landkreis"},"federalState":{"key":"09","name":"Bayern"}},{"name":"Fliederweg","postalCode":"93326","locality":"Abensberg","municipality":{"key":"09273111","name":"Abensberg, St","type":"Stadt"},"district":{"key":"09273","name":"Kelheim","type":"Landkreis"},"federalState":{"key":"09","name":"Bayern"}},{"name":"Flurweg","postalCode":"93326","locality":"Abensberg","municipality":{"key":"09273111","name":"Abensberg, St","type":"Stadt"},"district":{"key":"09273","name":"Kelheim","type":"Landkreis"},"federalState":{"key":"09","name":"Bayern"}},{"name":"Frankstr.","postalCode":"93326","locality":"Abensberg","municipality":{"key":"09273111","name":"Abensberg, St","type":"Stadt"},"district":{"key":"09273","name":"Kelheim","type":"Landkreis"},"federalState":{"key":"09","name":"Bayern"}},{"name":"Freibadweg","postalCode":"93326","locality":"Abensberg","municipality":{"key":"09273111","name":"Abensberg, St","type":"Stadt"},"district":{"key":"09273","name":"Kelheim","type":"Landkreis"},"federalState":{"key":"09","name":"Bayern"}},{"name":"Friedhofweg","postalCode":"93326","locality":"Abensberg","municipality":{"key":"09273111","name":"Abensberg, St","type":"Stadt"},"district":{"key":"09273","name":"Kelheim","type":"Landkreis"},"federalState":{"key":"09","name":"Bayern"}},{"name":"Friedstr.","postalCode":"93326","locality":"Abensberg","municipality":{"key":"09273111","name":"Abensberg, St","type":"Stadt"},"district":{"key":"09273","name":"Kelheim","type":"Landkreis"},"federalState":{"key":"09","name":"Bayern"}},{"name":"Frönaustr.","postalCode":"93326","locality":"Abensberg","municipality":{"key":"09273111","name":"Abensberg, St","type":"Stadt"},"district":{"key":"09273","name":"Kelheim","type":"Landkreis"},"federalState":{"key":"09","name":"Bayern"}},{"name":"Frühlingstr.","postalCode":"93326","locality":"Abensberg","municipality":{"key":"09273111","name":"Abensberg, St","type":"Stadt"},"district":{"key":"09273","name":"Kelheim","type":"Landkreis"},"federalState":{"key":"09","name":"Bayern"}},{"name":"Gaden","postalCode":"93326","locality":"Abensberg","municipality":{"key":"09273111","name":"Abensberg, St","type":"Stadt"},"district":{"key":"09273","name":"Kelheim","type":"Landkreis"},"federalState":{"key":"09","name":"Bayern"}},{"name":"Gartenstr.","postalCode":"93326","locality":"Abensberg","municipality":{"key":"09273111","name":"Abensberg, St","type":"Stadt"},"district":{"key":"09273","name":"Kelheim","type":"Landkreis"},"federalState":{"key":"09","name":"Bayern"}},{"name":"Gerhardinger-Str.","postalCode":"93326","locality":"Abensberg","municipality":{"key":"09273111","name":"Abensberg, St","type":"Stadt"},"district":{"key":"09273","name":"Kelheim","type":"Landkreis"},"federalState":{"key":"09","name":"Bayern"}},{"name":"Goethestr.","postalCode":"93326","locality":"Abensberg","municipality":{"key":"09273111","name":"Abensberg, St","type":"Stadt"},"district":{"key":"09273","name":"Kelheim","type":"Landkreis"},"federalState":{"key":"09","name":"Bayern"}},{"name":"Graf-Niclas-Str.","postalCode":"93326","locality":"Abensberg","municipality":{"key":"09273111","name":"Abensberg, St","type":"Stadt"},"district":{"key":"09273","name":"Kelheim","type":"Landkreis"},"federalState":{"key":"09","name":"Bayern"}},{"name":"Graf-von-Tauffkirchen-Str.","postalCode":"93326","locality":"Abensberg","municipality":{"key":"09273111","name":"Abensberg, St","type":"Stadt"},"district":{"key":"09273","name":"Kelheim","type":"Landkreis"},"federalState":{"key":"09","name":"Bayern"}},{"name":"Habichtweg","postalCode":"93326","locality":"Abensberg","municipality":{"key":"09273111","name":"Abensberg, St","type":"Stadt"},"district":{"key":"09273","name":"Kelheim","type":"Landkreis"},"federalState":{"key":"09","name":"Bayern"}},{"name":"Hangweg","postalCode":"93326","locality":"Abensberg","municipality":{"key":"09273111","name":"Abensberg, St","type":"Stadt"},"district":{"key":"09273","name":"Kelheim","type":"Landkreis"},"federalState":{"key":"09","name":"Bayern"}},{"name":"Harlandener Str.","postalCode":"93326","locality":"Abensberg","municipality":{"key":"09273111","name":"Abensberg, St","type":"Stadt"},"district":{"key":"09273","name":"Kelheim","type":"Landkreis"},"federalState":{"key":"09","name":"Bayern"}},{"name":"Haslangstr.","postalCode":"93326","locality":"Abensberg","municipality":{"key":"09273111","name":"Abensberg, St","type":"Stadt"},"district":{"key":"09273","name":"Kelheim","type":"Landkreis"},"federalState":{"key":"09","name":"Bayern"}},{"name":"Heideweg","postalCode":"93326","locality":"Abensberg","municipality":{"key":"09273111","name":"Abensberg, St","type":"Stadt"},"district":{"key":"09273","name":"Kelheim","type":"Landkreis"},"federalState":{"key":"09","name":"Bayern"}},{"name":"Herrensteig","postalCode":"93326","locality":"Abensberg","municipality":{"key":"09273111","name":"Abensberg, St","type":"Stadt"},"district":{"key":"09273","name":"Kelheim","type":"Landkreis"},"federalState":{"key":"09","name":"Bayern"}},{"name":"Herrenstr.","postalCode":"93326","locality":"Abensberg","municipality":{"key":"09273111","name":"Abensberg, St","type":"Stadt"},"district":{"key":"09273","name":"Kelheim","type":"Landkreis"},"federalState":{"key":"09","name":"Bayern"}},{"name":"Hinterer Steinberg","postalCode":"93326","locality":"Abensberg","municipality":{"key":"09273111","name":"Abensberg, St","type":"Stadt"},"district":{"key":"09273","name":"Kelheim","type":"Landkreis"},"federalState":{"key":"09","name":"Bayern"}},{"name":"Hofmark","postalCode":"93326","locality":"Abensberg","municipality":{"key":"09273111","name":"Abensberg, St","type":"Stadt"},"district":{"key":"09273","name":"Kelheim","type":"Landkreis"},"federalState":{"key":"09","name":"Bayern"}},{"name":"Holzharlanden","postalCode":"93326","locality":"Abensberg","municipality":{"key":"09273111","name":"Abensberg, St","type":"Stadt"},"district":{"key":"09273","name":"Kelheim","type":"Landkreis"},"federalState":{"key":"09","name":"Bayern"}},{"name":"Hopfenstr.","postalCode":"93326","locality":"Abensberg","municipality":{"key":"09273111","name":"Abensberg, St","type":"Stadt"},"district":{"key":"09273","name":"Kelheim","type":"Landkreis"},"federalState":{"key":"09","name":"Bayern"}},{"name":"Hörlbacher Str.","postalCode":"93326","locality":"Abensberg","municipality":{"key":"09273111","name":"Abensberg, St","type":"Stadt"},"district":{"key":"09273","name":"Kelheim","type":"Landkreis"},"federalState":{"key":"09","name":"Bayern"}},{"name":"Hornsteinweg","postalCode":"93326","locality":"Abensberg","municipality":{"key":"09273111","name":"Abensberg, St","type":"Stadt"},"district":{"key":"09273","name":"Kelheim","type":"Landkreis"},"federalState":{"key":"09","name":"Bayern"}},{"name":"Im Mühltal","postalCode":"93326","locality":"Abensberg","municipality":{"key":"09273111","name":"Abensberg, St","type":"Stadt"},"district":{"key":"09273","name":"Kelheim","type":"Landkreis"},"federalState":{"key":"09","name":"Bayern"}},{"name":"Im Winkel","postalCode":"93326","locality":"Abensberg","municipality":{"key":"09273111","name":"Abensberg, St","type":"Stadt"},"district":{"key":"09273","name":"Kelheim","type":"Landkreis"},"federalState":{"key":"09","name":"Bayern"}},{"name":"In der Au","postalCode":"93326","locality":"Abensberg","municipality":{"key":"09273111","name":"Abensberg, St","type":"Stadt"},"district":{"key":"09273","name":"Kelheim","type":"Landkreis"},"federalState":{"key":"09","name":"Bayern"}},{"name":"In der Talau","postalCode":"93326","locality":"Abensberg","municipality":{"key":"09273111","name":"Abensberg, St","type":"Stadt"},"district":{"key":"09273","name":"Kelheim","type":"Landkreis"},"federalState":{"key":"09","name":"Bayern"}},{"name":"Industriestr.","postalCode":"93326","locality":"Abensberg","municipality":{"key":"09273111","name":"Abensberg, St","type":"Stadt"},"district":{"key":"09273","name":"Kelheim","type":"Landkreis"},"federalState":{"key":"09","name":"Bayern"}},{"name":"In See","postalCode":"93326","locality":"Abensberg","municipality":{"key":"09273111","name":"Abensberg, St","type":"Stadt"},"district":{"key":"09273","name":"Kelheim","type":"Landkreis"},"federalState":{"key":"09","name":"Bayern"}},{"name":"Jahnstr.","postalCode":"93326","locality":"Abensberg","municipality":{"key":"09273111","name":"Abensberg, St","type":"Stadt"},"district":{"key":"09273","name":"Kelheim","type":"Landkreis"},"federalState":{"key":"09","name":"Bayern"}},{"name":"Johann-Zimmermann-Str.","postalCode":"93326","locality":"Abensberg","municipality":{"key":"09273111","name":"Abensberg, St","type":"Stadt"},"district":{"key":"09273","name":"Kelheim","type":"Landkreis"},"federalState":{"key":"09","name":"Bayern"}},{"name":"Josef-Stanglmeier-Str.","postalCode":"93326","locality":"Abensberg","municipality":{"key":"09273111","name":"Abensberg, St","type":"Stadt"},"district":{"key":"09273","name":"Kelheim","type":"Landkreis"},"federalState":{"key":"09","name":"Bayern"}},{"name":"Kagrastr.","postalCode":"93326","locality":"Abensberg","municipality":{"key":"09273111","name":"Abensberg, St","type":"Stadt"},"district":{"key":"09273","name":"Kelheim","type":"Landkreis"},"federalState":{"key":"09","name":"Bayern"}},{"name":"Kaiserweg","postalCode":"93326","locality":"Abensberg","municipality":{"key":"09273111","name":"Abensberg, St","type":"Stadt"},"district":{"key":"09273","name":"Kelheim","type":"Landkreis"},"federalState":{"key":"09","name":"Bayern"}},{"name":"Karmelitenplatz","postalCode":"93326","locality":"Abensberg","municipality":{"key":"09273111","name":"Abensberg, St","type":"Stadt"},"district":{"key":"09273","name":"Kelheim","type":"Landkreis"},"federalState":{"key":"09","name":"Bayern"}},{"name":"Kellerbachstr.","postalCode":"93326","locality":"Abensberg","municipality":{"key":"09273111","name":"Abensberg, St","type":"Stadt"},"district":{"key":"09273","name":"Kelheim","type":"Landkreis"},"federalState":{"key":"09","name":"Bayern"}},{"name":"Kellnauweg","postalCode":"93326","locality":"Abensberg","municipality":{"key":"09273111","name":"Abensberg, St","type":"Stadt"},"district":{"key":"09273","name":"Kelheim","type":"Landkreis"},"federalState":{"key":"09","name":"Bayern"}},{"name":"Kiefernweg","postalCode":"93326","locality":"Abensberg","municipality":{"key":"09273111","name":"Abensberg, St","type":"Stadt"},"district":{"key":"09273","name":"Kelheim","type":"Landkreis"},"federalState":{"key":"09","name":"Bayern"}},{"name":"Kirchenweg","postalCode":"93326","locality":"Abensberg","municipality":{"key":"09273111","name":"Abensberg, St","type":"Stadt"},"district":{"key":"09273","name":"Kelheim","type":"Landkreis"},"federalState":{"key":"09","name":"Bayern"}},{"name":"Kirchgasse","postalCode":"93326","locality":"Abensberg","municipality":{"key":"09273111","name":"Abensberg, St","type":"Stadt"},"district":{"key":"09273","name":"Kelheim","type":"Landkreis"},"federalState":{"key":"09","name":"Bayern"}},{"name":"Kirchplatz","postalCode":"93326","locality":"Abensberg","municipality":{"key":"09273111","name":"Abensberg, St","type":"Stadt"},"district":{"key":"09273","name":"Kelheim","type":"Landkreis"},"federalState":{"key":"09","name":"Bayern"}},{"name":"Kleedorfer Str.","postalCode":"93326","locality":"Abensberg","municipality":{"key":"09273111","name":"Abensberg, St","type":"Stadt"},"district":{"key":"09273","name":"Kelheim","type":"Landkreis"},"federalState":{"key":"09","name":"Bayern"}},{"name":"Kornblumenstr.","postalCode":"93326","locality":"Abensberg","municipality":{"key":"09273111","name":"Abensberg, St","type":"Stadt"},"district":{"key":"09273","name":"Kelheim","type":"Landkreis"},"federalState":{"key":"09","name":"Bayern"}},{"name":"Kreittmayrstr.","postalCode":"93326","locality":"Abensberg","municipality":{"key":"09273111","name":"Abensberg, St","type":"Stadt"},"district":{"key":"09273","name":"Kelheim","type":"Landkreis"},"federalState":{"key":"09","name":"Bayern"}},{"name":"Kreuzeck","postalCode":"93326","locality":"Abensberg","municipality":{"key":"09273111","name":"Abensberg, St","type":"Stadt"},"district":{"key":"09273","name":"Kelheim","type":"Landkreis"},"federalState":{"key":"09","name":"Bayern"}},{"name":"Kreuz-Schwestern-Str.","postalCode":"93326","locality":"Abensberg","municipality":{"key":"09273111","name":"Abensberg, St","type":"Stadt"},"district":{"key":"09273","name":"Kelheim","type":"Landkreis"},"federalState":{"key":"09","name":"Bayern"}},{"name":"Kuhweide","postalCode":"93326","locality":"Abensberg","municipality":{"key":"09273111","name":"Abensberg, St","type":"Stadt"},"district":{"key":"09273","name":"Kelheim","type":"Landkreis"},"federalState":{"key":"09","name":"Bayern"}},{"name":"Kurze Str.","postalCode":"93326","locality":"Abensberg","municipality":{"key":"09273111","name":"Abensberg, St","type":"Stadt"},"district":{"key":"09273","name":"Kelheim","type":"Landkreis"},"federalState":{"key":"09","name":"Bayern"}},{"name":"Lärchenweg","postalCode":"93326","locality":"Abensberg","municipality":{"key":"09273111","name":"Abensberg, St","type":"Stadt"},"district":{"key":"09273","name":"Kelheim","type":"Landkreis"},"federalState":{"key":"09","name":"Bayern"}},{"name":"Laubengasse","postalCode":"93326","locality":"Abensberg","municipality":{"key":"09273111","name":"Abensberg, St","type":"Stadt"},"district":{"key":"09273","name":"Kelheim","type":"Landkreis"},"federalState":{"key":"09","name":"Bayern"}},{"name":"Lessingstr.","postalCode":"93326","locality":"Abensberg","municipality":{"key":"09273111","name":"Abensberg, St","type":"Stadt"},"district":{"key":"09273","name":"Kelheim","type":"Landkreis"},"federalState":{"key":"09","name":"Bayern"}},{"name":"Liebesinsel","postalCode":"93326","locality":"Abensberg","municipality":{"key":"09273111","name":"Abensberg, St","type":"Stadt"},"district":{"key":"09273","name":"Kelheim","type":"Landkreis"},"federalState":{"key":"09","name":"Bayern"}},{"name":"Lilienweg","postalCode":"93326","locality":"Abensberg","municipality":{"key":"09273111","name":"Abensberg, St","type":"Stadt"},"district":{"key":"09273","name":"Kelheim","type":"Landkreis"},"federalState":{"key":"09","name":"Bayern"}},{"name":"Lindensiedlung","postalCode":"93326","locality":"Abensberg","municipality":{"key":"09273111","name":"Abensberg, St","type":"Stadt"},"district":{"key":"09273","name":"Kelheim","type":"Landkreis"},"federalState":{"key":"09","name":"Bayern"}},{"name":"Lindenstr.","postalCode":"93326","locality":"Abensberg","municipality":{"key":"09273111","name":"Abensberg, St","type":"Stadt"},"district":{"key":"09273","name":"Kelheim","type":"Landkreis"},"federalState":{"key":"09","name":"Bayern"}},{"name":"Lindenweg","postalCode":"93326","locality":"Abensberg","municipality":{"key":"09273111","name":"Abensberg, St","type":"Stadt"},"district":{"key":"09273","name":"Kelheim","type":"Landkreis"},"federalState":{"key":"09","name":"Bayern"}},{"name":"Löffelholzstr.","postalCode":"93326","locality":"Abensberg","municipality":{"key":"09273111","name":"Abensberg, St","type":"Stadt"},"district":{"key":"09273","name":"Kelheim","type":"Landkreis"},"federalState":{"key":"09","name":"Bayern"}},{"name":"Ludwig-Berger-Str.","postalCode":"93326","locality":"Abensberg","municipality":{"key":"09273111","name":"Abensberg, St","type":"Stadt"},"district":{"key":"09273","name":"Kelheim","type":"Landkreis"},"federalState":{"key":"09","name":"Bayern"}},{"name":"Lusteckstr.","postalCode":"93326","locality":"Abensberg","municipality":{"key":"09273111","name":"Abensberg, St","type":"Stadt"},"district":{"key":"09273","name":"Kelheim","type":"Landkreis"},"federalState":{"key":"09","name":"Bayern"}},{"name":"Mahlergasse","postalCode":"93326","locality":"Abensberg","municipality":{"key":"09273111","name":"Abensberg, St","type":"Stadt"},"district":{"key":"09273","name":"Kelheim","type":"Landkreis"},"federalState":{"key":"09","name":"Bayern"}},{"name":"Max-Bronold-Str.","postalCode":"93326","locality":"Abensberg","municipality":{"key":"09273111","name":"Abensberg, St","type":"Stadt"},"district":{"key":"09273","name":"Kelheim","type":"Landkreis"},"federalState":{"key":"09","name":"Bayern"}},{"name":"Mayrstr.","postalCode":"93326","locality":"Abensberg","municipality":{"key":"09273111","name":"Abensberg, St","type":"Stadt"},"district":{"key":"09273","name":"Kelheim","type":"Landkreis"},"federalState":{"key":"09","name":"Bayern"}},{"name":"Mohnblumenweg","postalCode":"93326","locality":"Abensberg","municipality":{"key":"09273111","name":"Abensberg, St","type":"Stadt"},"district":{"key":"09273","name":"Kelheim","type":"Landkreis"},"federalState":{"key":"09","name":"Bayern"}},{"name":"Monsignore-Eberth-Str.","postalCode":"93326","locality":"Abensberg","municipality":{"key":"09273111","name":"Abensberg, St","type":"Stadt"},"district":{"key":"09273","name":"Kelheim","type":"Landkreis"},"federalState":{"key":"09","name":"Bayern"}},{"name":"Moststr.","postalCode":"93326","locality":"Abensberg","municipality":{"key":"09273111","name":"Abensberg, St","type":"Stadt"},"district":{"key":"09273","name":"Kelheim","type":"Landkreis"},"federalState":{"key":"09","name":"Bayern"}},{"name":"Mühlweg","postalCode":"93326","locality":"Abensberg","municipality":{"key":"09273111","name":"Abensberg, St","type":"Stadt"},"district":{"key":"09273","name":"Kelheim","type":"Landkreis"},"federalState":{"key":"09","name":"Bayern"}},{"name":"Münchener Str.","postalCode":"93326","locality":"Abensberg","municipality":{"key":"09273111","name":"Abensberg, St","type":"Stadt"},"district":{"key":"09273","name":"Kelheim","type":"Landkreis"},"federalState":{"key":"09","name":"Bayern"}},{"name":"Münstererstr.","postalCode":"93326","locality":"Abensberg","municipality":{"key":"09273111","name":"Abensberg, St","type":"Stadt"},"district":{"key":"09273","name":"Kelheim","type":"Landkreis"},"federalState":{"key":"09","name":"Bayern"}},{"name":"Nelkenstr.","postalCode":"93326","locality":"Abensberg","municipality":{"key":"09273111","name":"Abensberg, St","type":"Stadt"},"district":{"key":"09273","name":"Kelheim","type":"Landkreis"},"federalState":{"key":"09","name":"Bayern"}},{"name":"Nikolaus-Otto-Str.","postalCode":"93326","locality":"Abensberg","municipality":{"key":"09273111","name":"Abensberg, St","type":"Stadt"},"district":{"key":"09273","name":"Kelheim","type":"Landkreis"},"federalState":{"key":"09","name":"Bayern"}},{"name":"Oskar-Schlitter-Ring","postalCode":"93326","locality":"Abensberg","municipality":{"key":"09273111","name":"Abensberg, St","type":"Stadt"},"district":{"key":"09273","name":"Kelheim","type":"Landkreis"},"federalState":{"key":"09","name":"Bayern"}},{"name":"Osterriedergasse","postalCode":"93326","locality":"Abensberg","municipality":{"key":"09273111","name":"Abensberg, St","type":"Stadt"},"district":{"key":"09273","name":"Kelheim","type":"Landkreis"},"federalState":{"key":"09","name":"Bayern"}},{"name":"Pernhartstr.","postalCode":"93326","locality":"Abensberg","municipality":{"key":"09273111","name":"Abensberg, St","type":"Stadt"},"district":{"key":"09273","name":"Kelheim","type":"Landkreis"},"federalState":{"key":"09","name":"Bayern"}},{"name":"Peter-Rosegger-Str.","postalCode":"93326","locality":"Abensberg","municipality":{"key":"09273111","name":"Abensberg, St","type":"Stadt"},"district":{"key":"09273","name":"Kelheim","type":"Landkreis"},"federalState":{"key":"09","name":"Bayern"}},{"name":"Pfarrer Adam Rottler Str.","postalCode":"93326","locality":"Abensberg","municipality":{"key":"09273111","name":"Abensberg, St","type":"Stadt"},"district":{"key":"09273","name":"Kelheim","type":"Landkreis"},"federalState":{"key":"09","name":"Bayern"}},{"name":"Pfarrer Ederer Str.","postalCode":"93326","locality":"Abensberg","municipality":{"key":"09273111","name":"Abensberg, St","type":"Stadt"},"district":{"key":"09273","name":"Kelheim","type":"Landkreis"},"federalState":{"key":"09","name":"Bayern"}},{"name":"Pöglstr.","postalCode":"93326","locality":"Abensberg","municipality":{"key":"09273111","name":"Abensberg, St","type":"Stadt"},"district":{"key":"09273","name":"Kelheim","type":"Landkreis"},"federalState":{"key":"09","name":"Bayern"}},{"name":"Prälat-Thaller-Str.","postalCode":"93326","locality":"Abensberg","municipality":{"key":"09273111","name":"Abensberg, St","type":"Stadt"},"district":{"key":"09273","name":"Kelheim","type":"Landkreis"},"federalState":{"key":"09","name":"Bayern"}},{"name":"Preysingstr.","postalCode":"93326","locality":"Abensberg","municipality":{"key":"09273111","name":"Abensberg, St","type":"Stadt"},"district":{"key":"09273","name":"Kelheim","type":"Landkreis"},"federalState":{"key":"09","name":"Bayern"}},{"name":"Raiffeisenstr.","postalCode":"93326","locality":"Abensberg","municipality":{"key":"09273111","name":"Abensberg, St","type":"Stadt"},"district":{"key":"09273","name":"Kelheim","type":"Landkreis"},"federalState":{"key":"09","name":"Bayern"}},{"name":"Rebenstr.","postalCode":"93326","locality":"Abensberg","municipality":{"key":"09273111","name":"Abensberg, St","type":"Stadt"},"district":{"key":"09273","name":"Kelheim","type":"Landkreis"},"federalState":{"key":"09","name":"Bayern"}},{"name":"Rebhuhnstr.","postalCode":"93326","locality":"Abensberg","municipality":{"key":"09273111","name":"Abensberg, St","type":"Stadt"},"district":{"key":"09273","name":"Kelheim","type":"Landkreis"},"federalState":{"key":"09","name":"Bayern"}},{"name":"Regensburger Str.","postalCode":"93326","locality":"Abensberg","municipality":{"key":"09273111","name":"Abensberg, St","type":"Stadt"},"district":{"key":"09273","name":"Kelheim","type":"Landkreis"},"federalState":{"key":"09","name":"Bayern"}},{"name":"Regensburger Torplatz","postalCode":"93326","locality":"Abensberg","municipality":{"key":"09273111","name":"Abensberg, St","type":"Stadt"},"district":{"key":"09273","name":"Kelheim","type":"Landkreis"},"federalState":{"key":"09","name":"Bayern"}},{"name":"Richtstättstr.","postalCode":"93326","locality":"Abensberg","municipality":{"key":"09273111","name":"Abensberg, St","type":"Stadt"},"district":{"key":"09273","name":"Kelheim","type":"Landkreis"},"federalState":{"key":"09","name":"Bayern"}},{"name":"Riedererstr.","postalCode":"93326","locality":"Abensberg","municipality":{"key":"09273111","name":"Abensberg, St","type":"Stadt"},"district":{"key":"09273","name":"Kelheim","type":"Landkreis"},"federalState":{"key":"09","name":"Bayern"}},{"name":"Rieslingstr.","postalCode":"93326","locality":"Abensberg","municipality":{"key":"09273111","name":"Abensberg, St","type":"Stadt"},"district":{"key":"09273","name":"Kelheim","type":"Landkreis"},"federalState":{"key":"09","name":"Bayern"}},{"name":"Römerstr.","postalCode":"93326","locality":"Abensberg","municipality":{"key":"09273111","name":"Abensberg, St","type":"Stadt"},"district":{"key":"09273","name":"Kelheim","type":"Landkreis"},"federalState":{"key":"09","name":"Bayern"}},{"name":"Rosenstr.","postalCode":"93326","locality":"Abensberg","municipality":{"key":"09273111","name":"Abensberg, St","type":"Stadt"},"district":{"key":"09273","name":"Kelheim","type":"Landkreis"},"federalState":{"key":"09","name":"Bayern"}},{"name":"Rudolf-Diesel-Str.","postalCode":"93326","locality":"Abensberg","municipality":{"key":"09273111","name":"Abensberg, St","type":"Stadt"},"district":{"key":"09273","name":"Kelheim","type":"Landkreis"},"federalState":{"key":"09","name":"Bayern"}},{"name":"Sandharlandener Weg","postalCode":"93326","locality":"Abensberg","municipality":{"key":"09273111","name":"Abensberg, St","type":"Stadt"},"district":{"key":"09273","name":"Kelheim","type":"Landkreis"},"federalState":{"key":"09","name":"Bayern"}},{"name":"Sandkreppe","postalCode":"93326","locality":"Abensberg","municipality":{"key":"09273111","name":"Abensberg, St","type":"Stadt"},"district":{"key":"09273","name":"Kelheim","type":"Landkreis"},"federalState":{"key":"09","name":"Bayern"}},{"name":"Sandstr.","postalCode":"93326","locality":"Abensberg","municipality":{"key":"09273111","name":"Abensberg, St","type":"Stadt"},"district":{"key":"09273","name":"Kelheim","type":"Landkreis"},"federalState":{"key":"09","name":"Bayern"}},{"name":"Sandweg","postalCode":"93326","locality":"Abensberg","municipality":{"key":"09273111","name":"Abensberg, St","type":"Stadt"},"district":{"key":"09273","name":"Kelheim","type":"Landkreis"},"federalState":{"key":"09","name":"Bayern"}},{"name":"Schillerstr.","postalCode":"93326","locality":"Abensberg","municipality":{"key":"09273111","name":"Abensberg, St","type":"Stadt"},"district":{"key":"09273","name":"Kelheim","type":"Landkreis"},"federalState":{"key":"09","name":"Bayern"}},{"name":"Schlossgarten","postalCode":"93326","locality":"Abensberg","municipality":{"key":"09273111","name":"Abensberg, St","type":"Stadt"},"district":{"key":"09273","name":"Kelheim","type":"Landkreis"},"federalState":{"key":"09","name":"Bayern"}},{"name":"Schlosswiese","postalCode":"93326","locality":"Abensberg","municipality":{"key":"09273111","name":"Abensberg, St","type":"Stadt"},"district":{"key":"09273","name":"Kelheim","type":"Landkreis"},"federalState":{"key":"09","name":"Bayern"}},{"name":"Schlotweg","postalCode":"93326","locality":"Abensberg","municipality":{"key":"09273111","name":"Abensberg, St","type":"Stadt"},"district":{"key":"09273","name":"Kelheim","type":"Landkreis"},"federalState":{"key":"09","name":"Bayern"}},{"name":"Schmidgasse","postalCode":"93326","locality":"Abensberg","municipality":{"key":"09273111","name":"Abensberg, St","type":"Stadt"},"district":{"key":"09273","name":"Kelheim","type":"Landkreis"},"federalState":{"key":"09","name":"Bayern"}},{"name":"Schreierstr.","postalCode":"93326","locality":"Abensberg","municipality":{"key":"09273111","name":"Abensberg, St","type":"Stadt"},"district":{"key":"09273","name":"Kelheim","type":"Landkreis"},"federalState":{"key":"09","name":"Bayern"}},{"name":"Schulhausplatz","postalCode":"93326","locality":"Abensberg","municipality":{"key":"09273111","name":"Abensberg, St","type":"Stadt"},"district":{"key":"09273","name":"Kelheim","type":"Landkreis"},"federalState":{"key":"09","name":"Bayern"}},{"name":"Schulstr.","postalCode":"93326","locality":"Abensberg","municipality":{"key":"09273111","name":"Abensberg, St","type":"Stadt"},"district":{"key":"09273","name":"Kelheim","type":"Landkreis"},"federalState":{"key":"09","name":"Bayern"}},{"name":"Schustergasse","postalCode":"93326","locality":"Abensberg","municipality":{"key":"09273111","name":"Abensberg, St","type":"Stadt"},"district":{"key":"09273","name":"Kelheim","type":"Landkreis"},"federalState":{"key":"09","name":"Bayern"}},{"name":"Schwaighausener Str.","postalCode":"93326","locality":"Abensberg","municipality":{"key":"09273111","name":"Abensberg, St","type":"Stadt"},"district":{"key":"09273","name":"Kelheim","type":"Landkreis"},"federalState":{"key":"09","name":"Bayern"}},{"name":"Seeweg","postalCode":"93326","locality":"Abensberg","municipality":{"key":"09273111","name":"Abensberg, St","type":"Stadt"},"district":{"key":"09273","name":"Kelheim","type":"Landkreis"},"federalState":{"key":"09","name":"Bayern"}},{"name":"Silvanerstr.","postalCode":"93326","locality":"Abensberg","municipality":{"key":"09273111","name":"Abensberg, St","type":"Stadt"},"district":{"key":"09273","name":"Kelheim","type":"Landkreis"},"federalState":{"key":"09","name":"Bayern"}},{"name":"Sonnenhang","postalCode":"93326","locality":"Abensberg","municipality":{"key":"09273111","name":"Abensberg, St","type":"Stadt"},"district":{"key":"09273","name":"Kelheim","type":"Landkreis"},"federalState":{"key":"09","name":"Bayern"}},{"name":"Sonnenstr.","postalCode":"93326","locality":"Abensberg","municipality":{"key":"09273111","name":"Abensberg, St","type":"Stadt"},"district":{"key":"09273","name":"Kelheim","type":"Landkreis"},"federalState":{"key":"09","name":"Bayern"}},{"name":"Spargelstr.","postalCode":"93326","locality":"Abensberg","municipality":{"key":"09273111","name":"Abensberg, St","type":"Stadt"},"district":{"key":"09273","name":"Kelheim","type":"Landkreis"},"federalState":{"key":"09","name":"Bayern"}},{"name":"Spargelweg","postalCode":"93326","locality":"Abensberg","municipality":{"key":"09273111","name":"Abensberg, St","type":"Stadt"},"district":{"key":"09273","name":"Kelheim","type":"Landkreis"},"federalState":{"key":"09","name":"Bayern"}},{"name":"Stadionstr.","postalCode":"93326","locality":"Abensberg","municipality":{"key":"09273111","name":"Abensberg, St","type":"Stadt"},"district":{"key":"09273","name":"Kelheim","type":"Landkreis"},"federalState":{"key":"09","name":"Bayern"}},{"name":"Stadtplatz","postalCode":"93326","locality":"Abensberg","municipality":{"key":"09273111","name":"Abensberg, St","type":"Stadt"},"district":{"key":"09273","name":"Kelheim","type":"Landkreis"},"federalState":{"key":"09","name":"Bayern"}},{"name":"Starkstr.","postalCode":"93326","locality":"Abensberg","municipality":{"key":"09273111","name":"Abensberg, St","type":"Stadt"},"district":{"key":"09273","name":"Kelheim","type":"Landkreis"},"federalState":{"key":"09","name":"Bayern"}},{"name":"Staubinger Str.","postalCode":"93326","locality":"Abensberg","municipality":{"key":"09273111","name":"Abensberg, St","type":"Stadt"},"district":{"key":"09273","name":"Kelheim","type":"Landkreis"},"federalState":{"key":"09","name":"Bayern"}},{"name":"Steinbruchstr.","postalCode":"93326","locality":"Abensberg","municipality":{"key":"09273111","name":"Abensberg, St","type":"Stadt"},"district":{"key":"09273","name":"Kelheim","type":"Landkreis"},"federalState":{"key":"09","name":"Bayern"}},{"name":"Steinweg","postalCode":"93326","locality":"Abensberg","municipality":{"key":"09273111","name":"Abensberg, St","type":"Stadt"},"district":{"key":"09273","name":"Kelheim","type":"Landkreis"},"federalState":{"key":"09","name":"Bayern"}},{"name":"Storchenweg","postalCode":"93326","locality":"Abensberg","municipality":{"key":"09273111","name":"Abensberg, St","type":"Stadt"},"district":{"key":"09273","name":"Kelheim","type":"Landkreis"},"federalState":{"key":"09","name":"Bayern"}},{"name":"Straubinger Str.","postalCode":"93326","locality":"Abensberg","municipality":{"key":"09273111","name":"Abensberg, St","type":"Stadt"},"district":{"key":"09273","name":"Kelheim","type":"Landkreis"},"federalState":{"key":"09","name":"Bayern"}},{"name":"Sudetenstr.","postalCode":"93326","locality":"Abensberg","municipality":{"key":"09273111","name":"Abensberg, St","type":"Stadt"},"district":{"key":"09273","name":"Kelheim","type":"Landkreis"},"federalState":{"key":"09","name":"Bayern"}},{"name":"Theoderichstr.","postalCode":"93326","locality":"Abensberg","municipality":{"key":"09273111","name":"Abensberg, St","type":"Stadt"},"district":{"key":"09273","name":"Kelheim","type":"Landkreis"},"federalState":{"key":"09","name":"Bayern"}},{"name":"Theodor-Koerner-Str.","postalCode":"93326","locality":"Abensberg","municipality":{"key":"09273111","name":"Abensberg, St","type":"Stadt"},"district":{"key":"09273","name":"Kelheim","type":"Landkreis"},"federalState":{"key":"09","name":"Bayern"}},{"name":"Traubenstr.","postalCode":"93326","locality":"Abensberg","municipality":{"key":"09273111","name":"Abensberg, St","type":"Stadt"},"district":{"key":"09273","name":"Kelheim","type":"Landkreis"},"federalState":{"key":"09","name":"Bayern"}},{"name":"Tulpenstr.","postalCode":"93326","locality":"Abensberg","municipality":{"key":"09273111","name":"Abensberg, St","type":"Stadt"},"district":{"key":"09273","name":"Kelheim","type":"Landkreis"},"federalState":{"key":"09","name":"Bayern"}},{"name":"Uhlandstr.","postalCode":"93326","locality":"Abensberg","municipality":{"key":"09273111","name":"Abensberg, St","type":"Stadt"},"district":{"key":"09273","name":"Kelheim","type":"Landkreis"},"federalState":{"key":"09","name":"Bayern"}},{"name":"Ulmenstr.","postalCode":"93326","locality":"Abensberg","municipality":{"key":"09273111","name":"Abensberg, St","type":"Stadt"},"district":{"key":"09273","name":"Kelheim","type":"Landkreis"},"federalState":{"key":"09","name":"Bayern"}},{"name":"Ulrichstr.","postalCode":"93326","locality":"Abensberg","municipality":{"key":"09273111","name":"Abensberg, St","type":"Stadt"},"district":{"key":"09273","name":"Kelheim","type":"Landkreis"},"federalState":{"key":"09","name":"Bayern"}},{"name":"Vitusplatz","postalCode":"93326","locality":"Abensberg","municipality":{"key":"09273111","name":"Abensberg, St","type":"Stadt"},"district":{"key":"09273","name":"Kelheim","type":"Landkreis"},"federalState":{"key":"09","name":"Bayern"}},{"name":"Von-Hazzi-Str.","postalCode":"93326","locality":"Abensberg","municipality":{"key":"09273111","name":"Abensberg, St","type":"Stadt"},"district":{"key":"09273","name":"Kelheim","type":"Landkreis"},"federalState":{"key":"09","name":"Bayern"}},{"name":"Vorderer Steinberg","postalCode":"93326","locality":"Abensberg","municipality":{"key":"09273111","name":"Abensberg, St","type":"Stadt"},"district":{"key":"09273","name":"Kelheim","type":"Landkreis"},"federalState":{"key":"09","name":"Bayern"}},{"name":"Waldstr.","postalCode":"93326","locality":"Abensberg","municipality":{"key":"09273111","name":"Abensberg, St","type":"Stadt"},"district":{"key":"09273","name":"Kelheim","type":"Landkreis"},"federalState":{"key":"09","name":"Bayern"}},{"name":"Walterfingerstr.","postalCode":"93326","locality":"Abensberg","municipality":{"key":"09273111","name":"Abensberg, St","type":"Stadt"},"district":{"key":"09273","name":"Kelheim","type":"Landkreis"},"federalState":{"key":"09","name":"Bayern"}},{"name":"Waltkunstr.","postalCode":"93326","locality":"Abensberg","municipality":{"key":"09273111","name":"Abensberg, St","type":"Stadt"},"district":{"key":"09273","name":"Kelheim","type":"Landkreis"},"federalState":{"key":"09","name":"Bayern"}},{"name":"Weberstr.","postalCode":"93326","locality":"Abensberg","municipality":{"key":"09273111","name":"Abensberg, St","type":"Stadt"},"district":{"key":"09273","name":"Kelheim","type":"Landkreis"},"federalState":{"key":"09","name":"Bayern"}},{"name":"Weiherfeldstr.","postalCode":"93326","locality":"Abensberg","municipality":{"key":"09273111","name":"Abensberg, St","type":"Stadt"},"district":{"key":"09273","name":"Kelheim","type":"Landkreis"},"federalState":{"key":"09","name":"Bayern"}},{"name":"Weinbergerstr.","postalCode":"93326","locality":"Abensberg","municipality":{"key":"09273111","name":"Abensberg, St","type":"Stadt"},"district":{"key":"09273","name":"Kelheim","type":"Landkreis"},"federalState":{"key":"09","name":"Bayern"}},{"name":"Wiesenweg","postalCode":"93326","locality":"Abensberg","municipality":{"key":"09273111","name":"Abensberg, St","type":"Stadt"},"district":{"key":"09273","name":"Kelheim","type":"Landkreis"},"federalState":{"key":"09","name":"Bayern"}},{"name":"Windfalterstr.","postalCode":"93326","locality":"Abensberg","municipality":{"key":"09273111","name":"Abensberg, St","type":"Stadt"},"district":{"key":"09273","name":"Kelheim","type":"Landkreis"},"federalState":{"key":"09","name":"Bayern"}},{"name":"Winzerstr.","postalCode":"93326","locality":"Abensberg","municipality":{"key":"09273111","name":"Abensberg, St","type":"Stadt"},"district":{"key":"09273","name":"Kelheim","type":"Landkreis"},"federalState":{"key":"09","name":"Bayern"}},{"name":"Ziegeleistr.","postalCode":"93326","locality":"Abensberg","municipality":{"key":"09273111","name":"Abensberg, St","type":"Stadt"},"district":{"key":"09273","name":"Kelheim","type":"Landkreis"},"federalState":{"key":"09","name":"Bayern"}},{"name":"Zollnerstr.","postalCode":"93326","locality":"Abensberg","municipality":{"key":"09273111","name":"Abensberg, St","type":"Stadt"},"district":{"key":"09273","name":"Kelheim","type":"Landkreis"},"federalState":{"key":"09","name":"Bayern"}},{"name":"Zum Roten Peter","postalCode":"93326","locality":"Abensberg","municipality":{"key":"09273111","name":"Abensberg, St","type":"Stadt"},"district":{"key":"09273","name":"Kelheim","type":"Landkreis"},"federalState":{"key":"09","name":"Bayern"}},{"name":"Zur Abensfurt","postalCode":"93326","locality":"Abensberg","municipality":{"key":"09273111","name":"Abensberg, St","type":"Stadt"},"district":{"key":"09273","name":"Kelheim","type":"Landkreis"},"federalState":{"key":"09","name":"Bayern"}},{"name":"Östliche Weinstr.","postalCode":"93309","locality":"Kelheim","municipality":{"key":"09273137","name":"Kelheim, St","type":"Stadt"},"district":{"key":"09273","name":"Kelheim","type":"Landkreis"},"federalState":{"key":"09","name":"Bayern"}},]