[{"name":"Am Rechgarten","postalCode":"56858","locality":"Grenderich","municipality":{"key":"07135037","name":"Grenderich","type":"Kreisangehörige_Gemeinde"},"district":{"key":"07135","name":"Cochem-Zell","type":"Landkreis"},"federalState":{"key":"07","name":"Rheinland-Pfalz"}},{"name":"An der Großwies","postalCode":"56858","locality":"Grenderich","municipality":{"key":"07135037","name":"Grenderich","type":"Kreisangehörige_Gemeinde"},"district":{"key":"07135","name":"Cochem-Zell","type":"Landkreis"},"federalState":{"key":"07","name":"Rheinland-Pfalz"}},{"name":"Barfußpark","postalCode":"56858","locality":"Grenderich","municipality":{"key":"07135037","name":"Grenderich","type":"Kreisangehörige_Gemeinde"},"district":{"key":"07135","name":"Cochem-Zell","type":"Landkreis"},"federalState":{"key":"07","name":"Rheinland-Pfalz"}},{"name":"Bergstr.","postalCode":"56858","locality":"Grenderich","municipality":{"key":"07135037","name":"Grenderich","type":"Kreisangehörige_Gemeinde"},"district":{"key":"07135","name":"Cochem-Zell","type":"Landkreis"},"federalState":{"key":"07","name":"Rheinland-Pfalz"}},{"name":"Brunnenstr.","postalCode":"56858","locality":"Grenderich","municipality":{"key":"07135037","name":"Grenderich","type":"Kreisangehörige_Gemeinde"},"district":{"key":"07135","name":"Cochem-Zell","type":"Landkreis"},"federalState":{"key":"07","name":"Rheinland-Pfalz"}},{"name":"Forstweg","postalCode":"56858","locality":"Grenderich","municipality":{"key":"07135037","name":"Grenderich","type":"Kreisangehörige_Gemeinde"},"district":{"key":"07135","name":"Cochem-Zell","type":"Landkreis"},"federalState":{"key":"07","name":"Rheinland-Pfalz"}},{"name":"Friedhofstr.","postalCode":"56858","locality":"Grenderich","municipality":{"key":"07135037","name":"Grenderich","type":"Kreisangehörige_Gemeinde"},"district":{"key":"07135","name":"Cochem-Zell","type":"Landkreis"},"federalState":{"key":"07","name":"Rheinland-Pfalz"}},{"name":"Hauptstr.","postalCode":"56858","locality":"Grenderich","municipality":{"key":"07135037","name":"Grenderich","type":"Kreisangehörige_Gemeinde"},"district":{"key":"07135","name":"Cochem-Zell","type":"Landkreis"},"federalState":{"key":"07","name":"Rheinland-Pfalz"}},{"name":"Im Schlüftchen","postalCode":"56858","locality":"Grenderich","municipality":{"key":"07135037","name":"Grenderich","type":"Kreisangehörige_Gemeinde"},"district":{"key":"07135","name":"Cochem-Zell","type":"Landkreis"},"federalState":{"key":"07","name":"Rheinland-Pfalz"}},{"name":"Lindenstr.","postalCode":"56858","locality":"Grenderich","municipality":{"key":"07135037","name":"Grenderich","type":"Kreisangehörige_Gemeinde"},"district":{"key":"07135","name":"Cochem-Zell","type":"Landkreis"},"federalState":{"key":"07","name":"Rheinland-Pfalz"}},{"name":"Moselhöhenweg","postalCode":"56858","locality":"Grenderich","municipality":{"key":"07135037","name":"Grenderich","type":"Kreisangehörige_Gemeinde"},"district":{"key":"07135","name":"Cochem-Zell","type":"Landkreis"},"federalState":{"key":"07","name":"Rheinland-Pfalz"}},{"name":"Poststr.","postalCode":"56858","locality":"Grenderich","municipality":{"key":"07135037","name":"Grenderich","type":"Kreisangehörige_Gemeinde"},"district":{"key":"07135","name":"Cochem-Zell","type":"Landkreis"},"federalState":{"key":"07","name":"Rheinland-Pfalz"}},{"name":"Preisstr.","postalCode":"56858","locality":"Grenderich","municipality":{"key":"07135037","name":"Grenderich","type":"Kreisangehörige_Gemeinde"},"district":{"key":"07135","name":"Cochem-Zell","type":"Landkreis"},"federalState":{"key":"07","name":"Rheinland-Pfalz"}},{"name":"Quellenweg","postalCode":"56858","locality":"Grenderich","municipality":{"key":"07135037","name":"Grenderich","type":"Kreisangehörige_Gemeinde"},"district":{"key":"07135","name":"Cochem-Zell","type":"Landkreis"},"federalState":{"key":"07","name":"Rheinland-Pfalz"}},{"name":"Rosenbergstr.","postalCode":"56858","locality":"Grenderich","municipality":{"key":"07135037","name":"Grenderich","type":"Kreisangehörige_Gemeinde"},"district":{"key":"07135","name":"Cochem-Zell","type":"Landkreis"},"federalState":{"key":"07","name":"Rheinland-Pfalz"}},{"name":"Schulstr.","postalCode":"56858","locality":"Grenderich","municipality":{"key":"07135037","name":"Grenderich","type":"Kreisangehörige_Gemeinde"},"district":{"key":"07135","name":"Cochem-Zell","type":"Landkreis"},"federalState":{"key":"07","name":"Rheinland-Pfalz"}},{"name":"Südstr.","postalCode":"56858","locality":"Grenderich","municipality":{"key":"07135037","name":"Grenderich","type":"Kreisangehörige_Gemeinde"},"district":{"key":"07135","name":"Cochem-Zell","type":"Landkreis"},"federalState":{"key":"07","name":"Rheinland-Pfalz"}},]