[{"name":"Alte Bahnhofstr.","postalCode":"54343","locality":"Föhren","municipality":{"key":"07235026","name":"Föhren","type":"Kreisangehörige_Gemeinde"},"district":{"key":"07235","name":"Trier-Saarburg","type":"Landkreis"},"federalState":{"key":"07","name":"Rheinland-Pfalz"}},{"name":"Am Bartholomäus","postalCode":"54343","locality":"Föhren","municipality":{"key":"07235026","name":"Föhren","type":"Kreisangehörige_Gemeinde"},"district":{"key":"07235","name":"Trier-Saarburg","type":"Landkreis"},"federalState":{"key":"07","name":"Rheinland-Pfalz"}},{"name":"Am Bohnenfeld","postalCode":"54343","locality":"Föhren","municipality":{"key":"07235026","name":"Föhren","type":"Kreisangehörige_Gemeinde"},"district":{"key":"07235","name":"Trier-Saarburg","type":"Landkreis"},"federalState":{"key":"07","name":"Rheinland-Pfalz"}},{"name":"Am Kapellchen","postalCode":"54343","locality":"Föhren","municipality":{"key":"07235026","name":"Föhren","type":"Kreisangehörige_Gemeinde"},"district":{"key":"07235","name":"Trier-Saarburg","type":"Landkreis"},"federalState":{"key":"07","name":"Rheinland-Pfalz"}},{"name":"Am Meulenwald","postalCode":"54343","locality":"Föhren","municipality":{"key":"07235026","name":"Föhren","type":"Kreisangehörige_Gemeinde"},"district":{"key":"07235","name":"Trier-Saarburg","type":"Landkreis"},"federalState":{"key":"07","name":"Rheinland-Pfalz"}},{"name":"Am Reischelbach","postalCode":"54343","locality":"Föhren","municipality":{"key":"07235026","name":"Föhren","type":"Kreisangehörige_Gemeinde"},"district":{"key":"07235","name":"Trier-Saarburg","type":"Landkreis"},"federalState":{"key":"07","name":"Rheinland-Pfalz"}},{"name":"Am Sägewerk","postalCode":"54343","locality":"Föhren","municipality":{"key":"07235026","name":"Föhren","type":"Kreisangehörige_Gemeinde"},"district":{"key":"07235","name":"Trier-Saarburg","type":"Landkreis"},"federalState":{"key":"07","name":"Rheinland-Pfalz"}},{"name":"Auf Bobüsch","postalCode":"54343","locality":"Föhren","municipality":{"key":"07235026","name":"Föhren","type":"Kreisangehörige_Gemeinde"},"district":{"key":"07235","name":"Trier-Saarburg","type":"Landkreis"},"federalState":{"key":"07","name":"Rheinland-Pfalz"}},{"name":"Bachstr.","postalCode":"54343","locality":"Föhren","municipality":{"key":"07235026","name":"Föhren","type":"Kreisangehörige_Gemeinde"},"district":{"key":"07235","name":"Trier-Saarburg","type":"Landkreis"},"federalState":{"key":"07","name":"Rheinland-Pfalz"}},{"name":"Bekonder Str.","postalCode":"54343","locality":"Föhren","municipality":{"key":"07235026","name":"Föhren","type":"Kreisangehörige_Gemeinde"},"district":{"key":"07235","name":"Trier-Saarburg","type":"Landkreis"},"federalState":{"key":"07","name":"Rheinland-Pfalz"}},{"name":"Bergstr.","postalCode":"54343","locality":"Föhren","municipality":{"key":"07235026","name":"Föhren","type":"Kreisangehörige_Gemeinde"},"district":{"key":"07235","name":"Trier-Saarburg","type":"Landkreis"},"federalState":{"key":"07","name":"Rheinland-Pfalz"}},{"name":"Burgweg","postalCode":"54343","locality":"Föhren","municipality":{"key":"07235026","name":"Föhren","type":"Kreisangehörige_Gemeinde"},"district":{"key":"07235","name":"Trier-Saarburg","type":"Landkreis"},"federalState":{"key":"07","name":"Rheinland-Pfalz"}},{"name":"Butzengasse","postalCode":"54343","locality":"Föhren","municipality":{"key":"07235026","name":"Föhren","type":"Kreisangehörige_Gemeinde"},"district":{"key":"07235","name":"Trier-Saarburg","type":"Landkreis"},"federalState":{"key":"07","name":"Rheinland-Pfalz"}},{"name":"Clemensallee","postalCode":"54343","locality":"Föhren","municipality":{"key":"07235026","name":"Föhren","type":"Kreisangehörige_Gemeinde"},"district":{"key":"07235","name":"Trier-Saarburg","type":"Landkreis"},"federalState":{"key":"07","name":"Rheinland-Pfalz"}},{"name":"Dr. Patheiger-Str.","postalCode":"54343","locality":"Föhren","municipality":{"key":"07235026","name":"Föhren","type":"Kreisangehörige_Gemeinde"},"district":{"key":"07235","name":"Trier-Saarburg","type":"Landkreis"},"federalState":{"key":"07","name":"Rheinland-Pfalz"}},{"name":"Eitzenbachstr.","postalCode":"54343","locality":"Föhren","municipality":{"key":"07235026","name":"Föhren","type":"Kreisangehörige_Gemeinde"},"district":{"key":"07235","name":"Trier-Saarburg","type":"Landkreis"},"federalState":{"key":"07","name":"Rheinland-Pfalz"}},{"name":"Erlenbachstr.","postalCode":"54343","locality":"Föhren","municipality":{"key":"07235026","name":"Föhren","type":"Kreisangehörige_Gemeinde"},"district":{"key":"07235","name":"Trier-Saarburg","type":"Landkreis"},"federalState":{"key":"07","name":"Rheinland-Pfalz"}},{"name":"Europa-Allee","postalCode":"54343","locality":"Föhren","municipality":{"key":"07235026","name":"Föhren","type":"Kreisangehörige_Gemeinde"},"district":{"key":"07235","name":"Trier-Saarburg","type":"Landkreis"},"federalState":{"key":"07","name":"Rheinland-Pfalz"}},{"name":"Flachswiese","postalCode":"54343","locality":"Föhren","municipality":{"key":"07235026","name":"Föhren","type":"Kreisangehörige_Gemeinde"},"district":{"key":"07235","name":"Trier-Saarburg","type":"Landkreis"},"federalState":{"key":"07","name":"Rheinland-Pfalz"}},{"name":"Friedhofstr.","postalCode":"54343","locality":"Föhren","municipality":{"key":"07235026","name":"Föhren","type":"Kreisangehörige_Gemeinde"},"district":{"key":"07235","name":"Trier-Saarburg","type":"Landkreis"},"federalState":{"key":"07","name":"Rheinland-Pfalz"}},{"name":"Furnusweg","postalCode":"54343","locality":"Föhren","municipality":{"key":"07235026","name":"Föhren","type":"Kreisangehörige_Gemeinde"},"district":{"key":"07235","name":"Trier-Saarburg","type":"Landkreis"},"federalState":{"key":"07","name":"Rheinland-Pfalz"}},{"name":"Gartenfeld","postalCode":"54343","locality":"Föhren","municipality":{"key":"07235026","name":"Föhren","type":"Kreisangehörige_Gemeinde"},"district":{"key":"07235","name":"Trier-Saarburg","type":"Landkreis"},"federalState":{"key":"07","name":"Rheinland-Pfalz"}},{"name":"Gerberstr.","postalCode":"54343","locality":"Föhren","municipality":{"key":"07235026","name":"Föhren","type":"Kreisangehörige_Gemeinde"},"district":{"key":"07235","name":"Trier-Saarburg","type":"Landkreis"},"federalState":{"key":"07","name":"Rheinland-Pfalz"}},{"name":"Götteneck","postalCode":"54343","locality":"Föhren","municipality":{"key":"07235026","name":"Föhren","type":"Kreisangehörige_Gemeinde"},"district":{"key":"07235","name":"Trier-Saarburg","type":"Landkreis"},"federalState":{"key":"07","name":"Rheinland-Pfalz"}},{"name":"Graf Albrecht von Krockow-Str.","postalCode":"54343","locality":"Föhren","municipality":{"key":"07235026","name":"Föhren","type":"Kreisangehörige_Gemeinde"},"district":{"key":"07235","name":"Trier-Saarburg","type":"Landkreis"},"federalState":{"key":"07","name":"Rheinland-Pfalz"}},{"name":"Hauptstr.","postalCode":"54343","locality":"Föhren","municipality":{"key":"07235026","name":"Föhren","type":"Kreisangehörige_Gemeinde"},"district":{"key":"07235","name":"Trier-Saarburg","type":"Landkreis"},"federalState":{"key":"07","name":"Rheinland-Pfalz"}},{"name":"Hessenberg","postalCode":"54343","locality":"Föhren","municipality":{"key":"07235026","name":"Föhren","type":"Kreisangehörige_Gemeinde"},"district":{"key":"07235","name":"Trier-Saarburg","type":"Landkreis"},"federalState":{"key":"07","name":"Rheinland-Pfalz"}},{"name":"Hinter der Bahn","postalCode":"54343","locality":"Föhren","municipality":{"key":"07235026","name":"Föhren","type":"Kreisangehörige_Gemeinde"},"district":{"key":"07235","name":"Trier-Saarburg","type":"Landkreis"},"federalState":{"key":"07","name":"Rheinland-Pfalz"}},{"name":"Hofgartenstr.","postalCode":"54343","locality":"Föhren","municipality":{"key":"07235026","name":"Föhren","type":"Kreisangehörige_Gemeinde"},"district":{"key":"07235","name":"Trier-Saarburg","type":"Landkreis"},"federalState":{"key":"07","name":"Rheinland-Pfalz"}},{"name":"Hofstr.","postalCode":"54343","locality":"Föhren","municipality":{"key":"07235026","name":"Föhren","type":"Kreisangehörige_Gemeinde"},"district":{"key":"07235","name":"Trier-Saarburg","type":"Landkreis"},"federalState":{"key":"07","name":"Rheinland-Pfalz"}},{"name":"Hohlweg","postalCode":"54343","locality":"Föhren","municipality":{"key":"07235026","name":"Föhren","type":"Kreisangehörige_Gemeinde"},"district":{"key":"07235","name":"Trier-Saarburg","type":"Landkreis"},"federalState":{"key":"07","name":"Rheinland-Pfalz"}},{"name":"Im Brühl","postalCode":"54343","locality":"Föhren","municipality":{"key":"07235026","name":"Föhren","type":"Kreisangehörige_Gemeinde"},"district":{"key":"07235","name":"Trier-Saarburg","type":"Landkreis"},"federalState":{"key":"07","name":"Rheinland-Pfalz"}},{"name":"Im Käulchen","postalCode":"54343","locality":"Föhren","municipality":{"key":"07235026","name":"Föhren","type":"Kreisangehörige_Gemeinde"},"district":{"key":"07235","name":"Trier-Saarburg","type":"Landkreis"},"federalState":{"key":"07","name":"Rheinland-Pfalz"}},{"name":"Im Klostergarten","postalCode":"54343","locality":"Föhren","municipality":{"key":"07235026","name":"Föhren","type":"Kreisangehörige_Gemeinde"},"district":{"key":"07235","name":"Trier-Saarburg","type":"Landkreis"},"federalState":{"key":"07","name":"Rheinland-Pfalz"}},{"name":"In den Aspeln","postalCode":"54343","locality":"Föhren","municipality":{"key":"07235026","name":"Föhren","type":"Kreisangehörige_Gemeinde"},"district":{"key":"07235","name":"Trier-Saarburg","type":"Landkreis"},"federalState":{"key":"07","name":"Rheinland-Pfalz"}},{"name":"In der Acht","postalCode":"54343","locality":"Föhren","municipality":{"key":"07235026","name":"Föhren","type":"Kreisangehörige_Gemeinde"},"district":{"key":"07235","name":"Trier-Saarburg","type":"Landkreis"},"federalState":{"key":"07","name":"Rheinland-Pfalz"}},{"name":"In der Rotheck","postalCode":"54343","locality":"Föhren","municipality":{"key":"07235026","name":"Föhren","type":"Kreisangehörige_Gemeinde"},"district":{"key":"07235","name":"Trier-Saarburg","type":"Landkreis"},"federalState":{"key":"07","name":"Rheinland-Pfalz"}},{"name":"Karlsweg","postalCode":"54343","locality":"Föhren","municipality":{"key":"07235026","name":"Föhren","type":"Kreisangehörige_Gemeinde"},"district":{"key":"07235","name":"Trier-Saarburg","type":"Landkreis"},"federalState":{"key":"07","name":"Rheinland-Pfalz"}},{"name":"Kreuzstr.","postalCode":"54343","locality":"Föhren","municipality":{"key":"07235026","name":"Föhren","type":"Kreisangehörige_Gemeinde"},"district":{"key":"07235","name":"Trier-Saarburg","type":"Landkreis"},"federalState":{"key":"07","name":"Rheinland-Pfalz"}},{"name":"Messepfädchen","postalCode":"54343","locality":"Föhren","municipality":{"key":"07235026","name":"Föhren","type":"Kreisangehörige_Gemeinde"},"district":{"key":"07235","name":"Trier-Saarburg","type":"Landkreis"},"federalState":{"key":"07","name":"Rheinland-Pfalz"}},{"name":"Mühleneck","postalCode":"54343","locality":"Föhren","municipality":{"key":"07235026","name":"Föhren","type":"Kreisangehörige_Gemeinde"},"district":{"key":"07235","name":"Trier-Saarburg","type":"Landkreis"},"federalState":{"key":"07","name":"Rheinland-Pfalz"}},{"name":"Müllenburg","postalCode":"54343","locality":"Föhren","municipality":{"key":"07235026","name":"Föhren","type":"Kreisangehörige_Gemeinde"},"district":{"key":"07235","name":"Trier-Saarburg","type":"Landkreis"},"federalState":{"key":"07","name":"Rheinland-Pfalz"}},{"name":"Müllershübel","postalCode":"54343","locality":"Föhren","municipality":{"key":"07235026","name":"Föhren","type":"Kreisangehörige_Gemeinde"},"district":{"key":"07235","name":"Trier-Saarburg","type":"Landkreis"},"federalState":{"key":"07","name":"Rheinland-Pfalz"}},{"name":"Park Moneteau","postalCode":"54343","locality":"Föhren","municipality":{"key":"07235026","name":"Föhren","type":"Kreisangehörige_Gemeinde"},"district":{"key":"07235","name":"Trier-Saarburg","type":"Landkreis"},"federalState":{"key":"07","name":"Rheinland-Pfalz"}},{"name":"Peter-Werner-Str.","postalCode":"54343","locality":"Föhren","municipality":{"key":"07235026","name":"Föhren","type":"Kreisangehörige_Gemeinde"},"district":{"key":"07235","name":"Trier-Saarburg","type":"Landkreis"},"federalState":{"key":"07","name":"Rheinland-Pfalz"}},{"name":"Pfarrer-Oden-Str.","postalCode":"54343","locality":"Föhren","municipality":{"key":"07235026","name":"Föhren","type":"Kreisangehörige_Gemeinde"},"district":{"key":"07235","name":"Trier-Saarburg","type":"Landkreis"},"federalState":{"key":"07","name":"Rheinland-Pfalz"}},{"name":"Reilsheck","postalCode":"54343","locality":"Föhren","municipality":{"key":"07235026","name":"Föhren","type":"Kreisangehörige_Gemeinde"},"district":{"key":"07235","name":"Trier-Saarburg","type":"Landkreis"},"federalState":{"key":"07","name":"Rheinland-Pfalz"}},{"name":"Reischelplatz","postalCode":"54343","locality":"Föhren","municipality":{"key":"07235026","name":"Föhren","type":"Kreisangehörige_Gemeinde"},"district":{"key":"07235","name":"Trier-Saarburg","type":"Landkreis"},"federalState":{"key":"07","name":"Rheinland-Pfalz"}},{"name":"Ringstr.","postalCode":"54343","locality":"Föhren","municipality":{"key":"07235026","name":"Föhren","type":"Kreisangehörige_Gemeinde"},"district":{"key":"07235","name":"Trier-Saarburg","type":"Landkreis"},"federalState":{"key":"07","name":"Rheinland-Pfalz"}},{"name":"Südblick","postalCode":"54343","locality":"Föhren","municipality":{"key":"07235026","name":"Föhren","type":"Kreisangehörige_Gemeinde"},"district":{"key":"07235","name":"Trier-Saarburg","type":"Landkreis"},"federalState":{"key":"07","name":"Rheinland-Pfalz"}},{"name":"Wacholderberg","postalCode":"54343","locality":"Föhren","municipality":{"key":"07235026","name":"Föhren","type":"Kreisangehörige_Gemeinde"},"district":{"key":"07235","name":"Trier-Saarburg","type":"Landkreis"},"federalState":{"key":"07","name":"Rheinland-Pfalz"}},{"name":"Waldstr.","postalCode":"54343","locality":"Föhren","municipality":{"key":"07235026","name":"Föhren","type":"Kreisangehörige_Gemeinde"},"district":{"key":"07235","name":"Trier-Saarburg","type":"Landkreis"},"federalState":{"key":"07","name":"Rheinland-Pfalz"}},{"name":"Zum Klingelborn","postalCode":"54343","locality":"Föhren","municipality":{"key":"07235026","name":"Föhren","type":"Kreisangehörige_Gemeinde"},"district":{"key":"07235","name":"Trier-Saarburg","type":"Landkreis"},"federalState":{"key":"07","name":"Rheinland-Pfalz"}},{"name":"Zur Sternisch","postalCode":"54343","locality":"Föhren","municipality":{"key":"07235026","name":"Föhren","type":"Kreisangehörige_Gemeinde"},"district":{"key":"07235","name":"Trier-Saarburg","type":"Landkreis"},"federalState":{"key":"07","name":"Rheinland-Pfalz"}},]