[{"name":"Achternweg","postalCode":"31712","locality":"Niedernwöhren","municipality":{"key":"03257025","name":"Niedernwöhren","type":"Kreisangehörige_Gemeinde"},"district":{"key":"03257","name":"Schaumburg","type":"Landkreis"},"federalState":{"key":"03","name":"Niedersachsen"}},{"name":"Am Steinkamp","postalCode":"31712","locality":"Niedernwöhren","municipality":{"key":"03257025","name":"Niedernwöhren","type":"Kreisangehörige_Gemeinde"},"district":{"key":"03257","name":"Schaumburg","type":"Landkreis"},"federalState":{"key":"03","name":"Niedersachsen"}},{"name":"Auf der Angst","postalCode":"31712","locality":"Niedernwöhren","municipality":{"key":"03257025","name":"Niedernwöhren","type":"Kreisangehörige_Gemeinde"},"district":{"key":"03257","name":"Schaumburg","type":"Landkreis"},"federalState":{"key":"03","name":"Niedersachsen"}},{"name":"Bahnhofstr.","postalCode":"31712","locality":"Niedernwöhren","municipality":{"key":"03257025","name":"Niedernwöhren","type":"Kreisangehörige_Gemeinde"},"district":{"key":"03257","name":"Schaumburg","type":"Landkreis"},"federalState":{"key":"03","name":"Niedersachsen"}},{"name":"Beckstr.","postalCode":"31712","locality":"Niedernwöhren","municipality":{"key":"03257025","name":"Niedernwöhren","type":"Kreisangehörige_Gemeinde"},"district":{"key":"03257","name":"Schaumburg","type":"Landkreis"},"federalState":{"key":"03","name":"Niedersachsen"}},{"name":"Brunnenstr.","postalCode":"31712","locality":"Niedernwöhren","municipality":{"key":"03257025","name":"Niedernwöhren","type":"Kreisangehörige_Gemeinde"},"district":{"key":"03257","name":"Schaumburg","type":"Landkreis"},"federalState":{"key":"03","name":"Niedersachsen"}},{"name":"Dorfstr.","postalCode":"31712","locality":"Niedernwöhren","municipality":{"key":"03257025","name":"Niedernwöhren","type":"Kreisangehörige_Gemeinde"},"district":{"key":"03257","name":"Schaumburg","type":"Landkreis"},"federalState":{"key":"03","name":"Niedersachsen"}},{"name":"Falkenweg","postalCode":"31712","locality":"Niedernwöhren","municipality":{"key":"03257025","name":"Niedernwöhren","type":"Kreisangehörige_Gemeinde"},"district":{"key":"03257","name":"Schaumburg","type":"Landkreis"},"federalState":{"key":"03","name":"Niedersachsen"}},{"name":"Fasanenkamp","postalCode":"31712","locality":"Niedernwöhren","municipality":{"key":"03257025","name":"Niedernwöhren","type":"Kreisangehörige_Gemeinde"},"district":{"key":"03257","name":"Schaumburg","type":"Landkreis"},"federalState":{"key":"03","name":"Niedersachsen"}},{"name":"Feldstr.","postalCode":"31712","locality":"Niedernwöhren","municipality":{"key":"03257025","name":"Niedernwöhren","type":"Kreisangehörige_Gemeinde"},"district":{"key":"03257","name":"Schaumburg","type":"Landkreis"},"federalState":{"key":"03","name":"Niedersachsen"}},{"name":"Finanzstr.","postalCode":"31712","locality":"Niedernwöhren","municipality":{"key":"03257025","name":"Niedernwöhren","type":"Kreisangehörige_Gemeinde"},"district":{"key":"03257","name":"Schaumburg","type":"Landkreis"},"federalState":{"key":"03","name":"Niedersachsen"}},{"name":"Fleetstr.","postalCode":"31712","locality":"Niedernwöhren","municipality":{"key":"03257025","name":"Niedernwöhren","type":"Kreisangehörige_Gemeinde"},"district":{"key":"03257","name":"Schaumburg","type":"Landkreis"},"federalState":{"key":"03","name":"Niedersachsen"}},{"name":"Fürstenweg","postalCode":"31712","locality":"Niedernwöhren","municipality":{"key":"03257025","name":"Niedernwöhren","type":"Kreisangehörige_Gemeinde"},"district":{"key":"03257","name":"Schaumburg","type":"Landkreis"},"federalState":{"key":"03","name":"Niedersachsen"}},{"name":"Gartenstr.","postalCode":"31712","locality":"Niedernwöhren","municipality":{"key":"03257025","name":"Niedernwöhren","type":"Kreisangehörige_Gemeinde"},"district":{"key":"03257","name":"Schaumburg","type":"Landkreis"},"federalState":{"key":"03","name":"Niedersachsen"}},{"name":"Gerstr.","postalCode":"31712","locality":"Niedernwöhren","municipality":{"key":"03257025","name":"Niedernwöhren","type":"Kreisangehörige_Gemeinde"},"district":{"key":"03257","name":"Schaumburg","type":"Landkreis"},"federalState":{"key":"03","name":"Niedersachsen"}},{"name":"Grenzstr.","postalCode":"31712","locality":"Niedernwöhren","municipality":{"key":"03257025","name":"Niedernwöhren","type":"Kreisangehörige_Gemeinde"},"district":{"key":"03257","name":"Schaumburg","type":"Landkreis"},"federalState":{"key":"03","name":"Niedersachsen"}},{"name":"Hasenstr.","postalCode":"31712","locality":"Niedernwöhren","municipality":{"key":"03257025","name":"Niedernwöhren","type":"Kreisangehörige_Gemeinde"},"district":{"key":"03257","name":"Schaumburg","type":"Landkreis"},"federalState":{"key":"03","name":"Niedersachsen"}},{"name":"Hauptstr.","postalCode":"31712","locality":"Niedernwöhren","municipality":{"key":"03257025","name":"Niedernwöhren","type":"Kreisangehörige_Gemeinde"},"district":{"key":"03257","name":"Schaumburg","type":"Landkreis"},"federalState":{"key":"03","name":"Niedersachsen"}},{"name":"Heringsfängerweg","postalCode":"31712","locality":"Niedernwöhren","municipality":{"key":"03257025","name":"Niedernwöhren","type":"Kreisangehörige_Gemeinde"},"district":{"key":"03257","name":"Schaumburg","type":"Landkreis"},"federalState":{"key":"03","name":"Niedersachsen"}},{"name":"Holländerweg","postalCode":"31712","locality":"Niedernwöhren","municipality":{"key":"03257025","name":"Niedernwöhren","type":"Kreisangehörige_Gemeinde"},"district":{"key":"03257","name":"Schaumburg","type":"Landkreis"},"federalState":{"key":"03","name":"Niedersachsen"}},{"name":"Horsthöfe","postalCode":"31712","locality":"Niedernwöhren","municipality":{"key":"03257025","name":"Niedernwöhren","type":"Kreisangehörige_Gemeinde"},"district":{"key":"03257","name":"Schaumburg","type":"Landkreis"},"federalState":{"key":"03","name":"Niedersachsen"}},{"name":"Im Finelken","postalCode":"31712","locality":"Niedernwöhren","municipality":{"key":"03257025","name":"Niedernwöhren","type":"Kreisangehörige_Gemeinde"},"district":{"key":"03257","name":"Schaumburg","type":"Landkreis"},"federalState":{"key":"03","name":"Niedersachsen"}},{"name":"Im Flakenholz","postalCode":"31712","locality":"Niedernwöhren","municipality":{"key":"03257025","name":"Niedernwöhren","type":"Kreisangehörige_Gemeinde"},"district":{"key":"03257","name":"Schaumburg","type":"Landkreis"},"federalState":{"key":"03","name":"Niedersachsen"}},{"name":"In der Ecke","postalCode":"31712","locality":"Niedernwöhren","municipality":{"key":"03257025","name":"Niedernwöhren","type":"Kreisangehörige_Gemeinde"},"district":{"key":"03257","name":"Schaumburg","type":"Landkreis"},"federalState":{"key":"03","name":"Niedersachsen"}},{"name":"Kapitän-Suthmeier-Weg","postalCode":"31712","locality":"Niedernwöhren","municipality":{"key":"03257025","name":"Niedernwöhren","type":"Kreisangehörige_Gemeinde"},"district":{"key":"03257","name":"Schaumburg","type":"Landkreis"},"federalState":{"key":"03","name":"Niedersachsen"}},{"name":"Klosterstr.","postalCode":"31712","locality":"Niedernwöhren","municipality":{"key":"03257025","name":"Niedernwöhren","type":"Kreisangehörige_Gemeinde"},"district":{"key":"03257","name":"Schaumburg","type":"Landkreis"},"federalState":{"key":"03","name":"Niedersachsen"}},{"name":"Kornstr.","postalCode":"31712","locality":"Niedernwöhren","municipality":{"key":"03257025","name":"Niedernwöhren","type":"Kreisangehörige_Gemeinde"},"district":{"key":"03257","name":"Schaumburg","type":"Landkreis"},"federalState":{"key":"03","name":"Niedersachsen"}},{"name":"Landwehr","postalCode":"31712","locality":"Niedernwöhren","municipality":{"key":"03257025","name":"Niedernwöhren","type":"Kreisangehörige_Gemeinde"},"district":{"key":"03257","name":"Schaumburg","type":"Landkreis"},"federalState":{"key":"03","name":"Niedersachsen"}},{"name":"Landwehrallee","postalCode":"31712","locality":"Niedernwöhren","municipality":{"key":"03257025","name":"Niedernwöhren","type":"Kreisangehörige_Gemeinde"},"district":{"key":"03257","name":"Schaumburg","type":"Landkreis"},"federalState":{"key":"03","name":"Niedersachsen"}},{"name":"Loggerweg","postalCode":"31712","locality":"Niedernwöhren","municipality":{"key":"03257025","name":"Niedernwöhren","type":"Kreisangehörige_Gemeinde"},"district":{"key":"03257","name":"Schaumburg","type":"Landkreis"},"federalState":{"key":"03","name":"Niedersachsen"}},{"name":"Meerbecker Str.","postalCode":"31712","locality":"Niedernwöhren","municipality":{"key":"03257025","name":"Niedernwöhren","type":"Kreisangehörige_Gemeinde"},"district":{"key":"03257","name":"Schaumburg","type":"Landkreis"},"federalState":{"key":"03","name":"Niedersachsen"}},{"name":"Mittelbrink","postalCode":"31712","locality":"Niedernwöhren","municipality":{"key":"03257025","name":"Niedernwöhren","type":"Kreisangehörige_Gemeinde"},"district":{"key":"03257","name":"Schaumburg","type":"Landkreis"},"federalState":{"key":"03","name":"Niedersachsen"}},{"name":"Niedernwöhrener Landstr.","postalCode":"31712","locality":"Niedernwöhren","municipality":{"key":"03257025","name":"Niedernwöhren","type":"Kreisangehörige_Gemeinde"},"district":{"key":"03257","name":"Schaumburg","type":"Landkreis"},"federalState":{"key":"03","name":"Niedersachsen"}},{"name":"Querstr.","postalCode":"31712","locality":"Niedernwöhren","municipality":{"key":"03257025","name":"Niedernwöhren","type":"Kreisangehörige_Gemeinde"},"district":{"key":"03257","name":"Schaumburg","type":"Landkreis"},"federalState":{"key":"03","name":"Niedersachsen"}},{"name":"Renschenkamp","postalCode":"31712","locality":"Niedernwöhren","municipality":{"key":"03257025","name":"Niedernwöhren","type":"Kreisangehörige_Gemeinde"},"district":{"key":"03257","name":"Schaumburg","type":"Landkreis"},"federalState":{"key":"03","name":"Niedersachsen"}},{"name":"Saenkamp","postalCode":"31712","locality":"Niedernwöhren","municipality":{"key":"03257025","name":"Niedernwöhren","type":"Kreisangehörige_Gemeinde"},"district":{"key":"03257","name":"Schaumburg","type":"Landkreis"},"federalState":{"key":"03","name":"Niedersachsen"}},{"name":"Sportplatzstr.","postalCode":"31712","locality":"Niedernwöhren","municipality":{"key":"03257025","name":"Niedernwöhren","type":"Kreisangehörige_Gemeinde"},"district":{"key":"03257","name":"Schaumburg","type":"Landkreis"},"federalState":{"key":"03","name":"Niedersachsen"}},{"name":"Vor der Reihe","postalCode":"31712","locality":"Niedernwöhren","municipality":{"key":"03257025","name":"Niedernwöhren","type":"Kreisangehörige_Gemeinde"},"district":{"key":"03257","name":"Schaumburg","type":"Landkreis"},"federalState":{"key":"03","name":"Niedersachsen"}},{"name":"Waldstr.","postalCode":"31712","locality":"Niedernwöhren","municipality":{"key":"03257025","name":"Niedernwöhren","type":"Kreisangehörige_Gemeinde"},"district":{"key":"03257","name":"Schaumburg","type":"Landkreis"},"federalState":{"key":"03","name":"Niedersachsen"}},{"name":"Wiedensahler Str.","postalCode":"31712","locality":"Niedernwöhren","municipality":{"key":"03257025","name":"Niedernwöhren","type":"Kreisangehörige_Gemeinde"},"district":{"key":"03257","name":"Schaumburg","type":"Landkreis"},"federalState":{"key":"03","name":"Niedersachsen"}},{"name":"Wiehäger Weg","postalCode":"31712","locality":"Niedernwöhren","municipality":{"key":"03257025","name":"Niedernwöhren","type":"Kreisangehörige_Gemeinde"},"district":{"key":"03257","name":"Schaumburg","type":"Landkreis"},"federalState":{"key":"03","name":"Niedersachsen"}},{"name":"Wiesenstr.","postalCode":"31712","locality":"Niedernwöhren","municipality":{"key":"03257025","name":"Niedernwöhren","type":"Kreisangehörige_Gemeinde"},"district":{"key":"03257","name":"Schaumburg","type":"Landkreis"},"federalState":{"key":"03","name":"Niedersachsen"}},{"name":"Wulfhagen","postalCode":"31712","locality":"Niedernwöhren","municipality":{"key":"03257025","name":"Niedernwöhren","type":"Kreisangehörige_Gemeinde"},"district":{"key":"03257","name":"Schaumburg","type":"Landkreis"},"federalState":{"key":"03","name":"Niedersachsen"}},]