[{"name":"Adolf-Bell-Weg","postalCode":"36396","locality":"Steinau an der Straße","municipality":{"key":"06435028","name":"Steinau an der Straße, Brüder-Grimm-Stadt","type":"Stadt"},"district":{"key":"06435","name":"Main-Kinzig-Kreis","type":"Landkreis"},"federalState":{"key":"06","name":"Hessen"}},{"name":"Ahler Str.","postalCode":"36396","locality":"Steinau an der Straße","municipality":{"key":"06435028","name":"Steinau an der Straße, Brüder-Grimm-Stadt","type":"Stadt"},"district":{"key":"06435","name":"Main-Kinzig-Kreis","type":"Landkreis"},"federalState":{"key":"06","name":"Hessen"}},{"name":"Ahlstr.","postalCode":"36399","locality":"Freiensteinau","municipality":{"key":"06535004","name":"Freiensteinau","type":"Kreisangehörige_Gemeinde"},"district":{"key":"06535","name":"Vogelsbergkreis","type":"Landkreis"},"federalState":{"key":"06","name":"Hessen"}},{"name":"Ahornweg","postalCode":"36396","locality":"Steinau an der Straße","municipality":{"key":"06435028","name":"Steinau an der Straße, Brüder-Grimm-Stadt","type":"Stadt"},"district":{"key":"06435","name":"Main-Kinzig-Kreis","type":"Landkreis"},"federalState":{"key":"06","name":"Hessen"}},{"name":"Akazienweg","postalCode":"36396","locality":"Steinau an der Straße","municipality":{"key":"06435028","name":"Steinau an der Straße, Brüder-Grimm-Stadt","type":"Stadt"},"district":{"key":"06435","name":"Main-Kinzig-Kreis","type":"Landkreis"},"federalState":{"key":"06","name":"Hessen"}},{"name":"Alte Bahnhofstr.","postalCode":"36396","locality":"Steinau an der Straße","municipality":{"key":"06435028","name":"Steinau an der Straße, Brüder-Grimm-Stadt","type":"Stadt"},"district":{"key":"06435","name":"Main-Kinzig-Kreis","type":"Landkreis"},"federalState":{"key":"06","name":"Hessen"}},{"name":"Alte Hauptstr.","postalCode":"36396","locality":"Steinau an der Straße","municipality":{"key":"06435028","name":"Steinau an der Straße, Brüder-Grimm-Stadt","type":"Stadt"},"district":{"key":"06435","name":"Main-Kinzig-Kreis","type":"Landkreis"},"federalState":{"key":"06","name":"Hessen"}},{"name":"Alte Schulstr.","postalCode":"36396","locality":"Steinau an der Straße","municipality":{"key":"06435028","name":"Steinau an der Straße, Brüder-Grimm-Stadt","type":"Stadt"},"district":{"key":"06435","name":"Main-Kinzig-Kreis","type":"Landkreis"},"federalState":{"key":"06","name":"Hessen"}},{"name":"Alte Schulstr.","postalCode":"36399","locality":"Freiensteinau","municipality":{"key":"06535004","name":"Freiensteinau","type":"Kreisangehörige_Gemeinde"},"district":{"key":"06535","name":"Vogelsbergkreis","type":"Landkreis"},"federalState":{"key":"06","name":"Hessen"}},{"name":"Alte Seidenröther Str.","postalCode":"36396","locality":"Steinau an der Straße","municipality":{"key":"06435028","name":"Steinau an der Straße, Brüder-Grimm-Stadt","type":"Stadt"},"district":{"key":"06435","name":"Main-Kinzig-Kreis","type":"Landkreis"},"federalState":{"key":"06","name":"Hessen"}},{"name":"Alte Steinauer Str.","postalCode":"36396","locality":"Steinau an der Straße","municipality":{"key":"06435028","name":"Steinau an der Straße, Brüder-Grimm-Stadt","type":"Stadt"},"district":{"key":"06435","name":"Main-Kinzig-Kreis","type":"Landkreis"},"federalState":{"key":"06","name":"Hessen"}},{"name":"Alte Str.","postalCode":"36396","locality":"Steinau an der Straße","municipality":{"key":"06435028","name":"Steinau an der Straße, Brüder-Grimm-Stadt","type":"Stadt"},"district":{"key":"06435","name":"Main-Kinzig-Kreis","type":"Landkreis"},"federalState":{"key":"06","name":"Hessen"}},{"name":"Alte Weidenauer Str.","postalCode":"36399","locality":"Freiensteinau","municipality":{"key":"06535004","name":"Freiensteinau","type":"Kreisangehörige_Gemeinde"},"district":{"key":"06535","name":"Vogelsbergkreis","type":"Landkreis"},"federalState":{"key":"06","name":"Hessen"}},{"name":"Alte Weinbergstr.","postalCode":"36396","locality":"Steinau an der Straße","municipality":{"key":"06435028","name":"Steinau an der Straße, Brüder-Grimm-Stadt","type":"Stadt"},"district":{"key":"06435","name":"Main-Kinzig-Kreis","type":"Landkreis"},"federalState":{"key":"06","name":"Hessen"}},{"name":"Altvaterstr.","postalCode":"36396","locality":"Steinau an der Straße","municipality":{"key":"06435028","name":"Steinau an der Straße, Brüder-Grimm-Stadt","type":"Stadt"},"district":{"key":"06435","name":"Main-Kinzig-Kreis","type":"Landkreis"},"federalState":{"key":"06","name":"Hessen"}},{"name":"Am Bayrischen Hof","postalCode":"36396","locality":"Steinau an der Straße","municipality":{"key":"06435028","name":"Steinau an der Straße, Brüder-Grimm-Stadt","type":"Stadt"},"district":{"key":"06435","name":"Main-Kinzig-Kreis","type":"Landkreis"},"federalState":{"key":"06","name":"Hessen"}},{"name":"Am Berg","postalCode":"36396","locality":"Steinau an der Straße","municipality":{"key":"06435028","name":"Steinau an der Straße, Brüder-Grimm-Stadt","type":"Stadt"},"district":{"key":"06435","name":"Main-Kinzig-Kreis","type":"Landkreis"},"federalState":{"key":"06","name":"Hessen"}},{"name":"Am Berg","postalCode":"36399","locality":"Freiensteinau","municipality":{"key":"06535004","name":"Freiensteinau","type":"Kreisangehörige_Gemeinde"},"district":{"key":"06535","name":"Vogelsbergkreis","type":"Landkreis"},"federalState":{"key":"06","name":"Hessen"}},{"name":"Am Birkenacker","postalCode":"36396","locality":"Steinau an der Straße","municipality":{"key":"06435028","name":"Steinau an der Straße, Brüder-Grimm-Stadt","type":"Stadt"},"district":{"key":"06435","name":"Main-Kinzig-Kreis","type":"Landkreis"},"federalState":{"key":"06","name":"Hessen"}},{"name":"Am Brühl","postalCode":"36399","locality":"Freiensteinau","municipality":{"key":"06535004","name":"Freiensteinau","type":"Kreisangehörige_Gemeinde"},"district":{"key":"06535","name":"Vogelsbergkreis","type":"Landkreis"},"federalState":{"key":"06","name":"Hessen"}},{"name":"Am Camping","postalCode":"36399","locality":"Freiensteinau","municipality":{"key":"06535004","name":"Freiensteinau","type":"Kreisangehörige_Gemeinde"},"district":{"key":"06535","name":"Vogelsbergkreis","type":"Landkreis"},"federalState":{"key":"06","name":"Hessen"}},{"name":"Am Christinenberg","postalCode":"36399","locality":"Freiensteinau","municipality":{"key":"06535004","name":"Freiensteinau","type":"Kreisangehörige_Gemeinde"},"district":{"key":"06535","name":"Vogelsbergkreis","type":"Landkreis"},"federalState":{"key":"06","name":"Hessen"}},{"name":"Am Drisch","postalCode":"36399","locality":"Freiensteinau","municipality":{"key":"06535004","name":"Freiensteinau","type":"Kreisangehörige_Gemeinde"},"district":{"key":"06535","name":"Vogelsbergkreis","type":"Landkreis"},"federalState":{"key":"06","name":"Hessen"}},{"name":"Am Erlenbach","postalCode":"36396","locality":"Steinau an der Straße","municipality":{"key":"06435028","name":"Steinau an der Straße, Brüder-Grimm-Stadt","type":"Stadt"},"district":{"key":"06435","name":"Main-Kinzig-Kreis","type":"Landkreis"},"federalState":{"key":"06","name":"Hessen"}},{"name":"Am Füllbach","postalCode":"36396","locality":"Steinau an der Straße","municipality":{"key":"06435028","name":"Steinau an der Straße, Brüder-Grimm-Stadt","type":"Stadt"},"district":{"key":"06435","name":"Main-Kinzig-Kreis","type":"Landkreis"},"federalState":{"key":"06","name":"Hessen"}},{"name":"Am Galgenberg","postalCode":"36396","locality":"Steinau an der Straße","municipality":{"key":"06435028","name":"Steinau an der Straße, Brüder-Grimm-Stadt","type":"Stadt"},"district":{"key":"06435","name":"Main-Kinzig-Kreis","type":"Landkreis"},"federalState":{"key":"06","name":"Hessen"}},{"name":"Am Hang","postalCode":"36396","locality":"Steinau an der Straße","municipality":{"key":"06435028","name":"Steinau an der Straße, Brüder-Grimm-Stadt","type":"Stadt"},"district":{"key":"06435","name":"Main-Kinzig-Kreis","type":"Landkreis"},"federalState":{"key":"06","name":"Hessen"}},{"name":"Am Hausacker","postalCode":"36396","locality":"Steinau an der Straße","municipality":{"key":"06435028","name":"Steinau an der Straße, Brüder-Grimm-Stadt","type":"Stadt"},"district":{"key":"06435","name":"Main-Kinzig-Kreis","type":"Landkreis"},"federalState":{"key":"06","name":"Hessen"}},{"name":"Am Hirtsrain","postalCode":"36396","locality":"Steinau an der Straße","municipality":{"key":"06435028","name":"Steinau an der Straße, Brüder-Grimm-Stadt","type":"Stadt"},"district":{"key":"06435","name":"Main-Kinzig-Kreis","type":"Landkreis"},"federalState":{"key":"06","name":"Hessen"}},{"name":"Am Hofacker","postalCode":"36396","locality":"Steinau an der Straße","municipality":{"key":"06435028","name":"Steinau an der Straße, Brüder-Grimm-Stadt","type":"Stadt"},"district":{"key":"06435","name":"Main-Kinzig-Kreis","type":"Landkreis"},"federalState":{"key":"06","name":"Hessen"}},{"name":"Am Hollerrain","postalCode":"36396","locality":"Steinau an der Straße","municipality":{"key":"06435028","name":"Steinau an der Straße, Brüder-Grimm-Stadt","type":"Stadt"},"district":{"key":"06435","name":"Main-Kinzig-Kreis","type":"Landkreis"},"federalState":{"key":"06","name":"Hessen"}},{"name":"Am Höllgarten","postalCode":"36396","locality":"Steinau an der Straße","municipality":{"key":"06435028","name":"Steinau an der Straße, Brüder-Grimm-Stadt","type":"Stadt"},"district":{"key":"06435","name":"Main-Kinzig-Kreis","type":"Landkreis"},"federalState":{"key":"06","name":"Hessen"}},{"name":"Am Kalkofen","postalCode":"36396","locality":"Steinau an der Straße","municipality":{"key":"06435028","name":"Steinau an der Straße, Brüder-Grimm-Stadt","type":"Stadt"},"district":{"key":"06435","name":"Main-Kinzig-Kreis","type":"Landkreis"},"federalState":{"key":"06","name":"Hessen"}},{"name":"Am Katzenstein","postalCode":"36396","locality":"Steinau an der Straße","municipality":{"key":"06435028","name":"Steinau an der Straße, Brüder-Grimm-Stadt","type":"Stadt"},"district":{"key":"06435","name":"Main-Kinzig-Kreis","type":"Landkreis"},"federalState":{"key":"06","name":"Hessen"}},{"name":"Am Kiesacker","postalCode":"36399","locality":"Freiensteinau","municipality":{"key":"06535004","name":"Freiensteinau","type":"Kreisangehörige_Gemeinde"},"district":{"key":"06535","name":"Vogelsbergkreis","type":"Landkreis"},"federalState":{"key":"06","name":"Hessen"}},{"name":"Am Kirchberg","postalCode":"36396","locality":"Steinau an der Straße","municipality":{"key":"06435028","name":"Steinau an der Straße, Brüder-Grimm-Stadt","type":"Stadt"},"district":{"key":"06435","name":"Main-Kinzig-Kreis","type":"Landkreis"},"federalState":{"key":"06","name":"Hessen"}},{"name":"Am Kirchberg","postalCode":"36399","locality":"Freiensteinau","municipality":{"key":"06535004","name":"Freiensteinau","type":"Kreisangehörige_Gemeinde"},"district":{"key":"06535","name":"Vogelsbergkreis","type":"Landkreis"},"federalState":{"key":"06","name":"Hessen"}},{"name":"Am Kirchenacker","postalCode":"36396","locality":"Steinau an der Straße","municipality":{"key":"06435028","name":"Steinau an der Straße, Brüder-Grimm-Stadt","type":"Stadt"},"district":{"key":"06435","name":"Main-Kinzig-Kreis","type":"Landkreis"},"federalState":{"key":"06","name":"Hessen"}},{"name":"Am Kirchenpfad","postalCode":"36396","locality":"Steinau an der Straße","municipality":{"key":"06435028","name":"Steinau an der Straße, Brüder-Grimm-Stadt","type":"Stadt"},"district":{"key":"06435","name":"Main-Kinzig-Kreis","type":"Landkreis"},"federalState":{"key":"06","name":"Hessen"}},{"name":"Am Kirle","postalCode":"36396","locality":"Steinau an der Straße","municipality":{"key":"06435028","name":"Steinau an der Straße, Brüder-Grimm-Stadt","type":"Stadt"},"district":{"key":"06435","name":"Main-Kinzig-Kreis","type":"Landkreis"},"federalState":{"key":"06","name":"Hessen"}},{"name":"Am kleinen Hermes","postalCode":"36396","locality":"Steinau an der Straße","municipality":{"key":"06435028","name":"Steinau an der Straße, Brüder-Grimm-Stadt","type":"Stadt"},"district":{"key":"06435","name":"Main-Kinzig-Kreis","type":"Landkreis"},"federalState":{"key":"06","name":"Hessen"}},{"name":"Am Krautgarten","postalCode":"36396","locality":"Steinau an der Straße","municipality":{"key":"06435028","name":"Steinau an der Straße, Brüder-Grimm-Stadt","type":"Stadt"},"district":{"key":"06435","name":"Main-Kinzig-Kreis","type":"Landkreis"},"federalState":{"key":"06","name":"Hessen"}},{"name":"Am Kumpen","postalCode":"36396","locality":"Steinau an der Straße","municipality":{"key":"06435028","name":"Steinau an der Straße, Brüder-Grimm-Stadt","type":"Stadt"},"district":{"key":"06435","name":"Main-Kinzig-Kreis","type":"Landkreis"},"federalState":{"key":"06","name":"Hessen"}},{"name":"Am Küppel","postalCode":"36396","locality":"Steinau an der Straße","municipality":{"key":"06435028","name":"Steinau an der Straße, Brüder-Grimm-Stadt","type":"Stadt"},"district":{"key":"06435","name":"Main-Kinzig-Kreis","type":"Landkreis"},"federalState":{"key":"06","name":"Hessen"}},{"name":"Am Langen Acker","postalCode":"36396","locality":"Steinau an der Straße","municipality":{"key":"06435028","name":"Steinau an der Straße, Brüder-Grimm-Stadt","type":"Stadt"},"district":{"key":"06435","name":"Main-Kinzig-Kreis","type":"Landkreis"},"federalState":{"key":"06","name":"Hessen"}},{"name":"Am Moosbach","postalCode":"36399","locality":"Freiensteinau","municipality":{"key":"06535004","name":"Freiensteinau","type":"Kreisangehörige_Gemeinde"},"district":{"key":"06535","name":"Vogelsbergkreis","type":"Landkreis"},"federalState":{"key":"06","name":"Hessen"}},{"name":"Am Mühlacker","postalCode":"36399","locality":"Freiensteinau","municipality":{"key":"06535004","name":"Freiensteinau","type":"Kreisangehörige_Gemeinde"},"district":{"key":"06535","name":"Vogelsbergkreis","type":"Landkreis"},"federalState":{"key":"06","name":"Hessen"}},{"name":"Am Mühlberg","postalCode":"36396","locality":"Steinau an der Straße","municipality":{"key":"06435028","name":"Steinau an der Straße, Brüder-Grimm-Stadt","type":"Stadt"},"district":{"key":"06435","name":"Main-Kinzig-Kreis","type":"Landkreis"},"federalState":{"key":"06","name":"Hessen"}},{"name":"Am Oberen Kiesacker","postalCode":"36399","locality":"Freiensteinau","municipality":{"key":"06535004","name":"Freiensteinau","type":"Kreisangehörige_Gemeinde"},"district":{"key":"06535","name":"Vogelsbergkreis","type":"Landkreis"},"federalState":{"key":"06","name":"Hessen"}},{"name":"Am Pflaster","postalCode":"36399","locality":"Freiensteinau","municipality":{"key":"06535004","name":"Freiensteinau","type":"Kreisangehörige_Gemeinde"},"district":{"key":"06535","name":"Vogelsbergkreis","type":"Landkreis"},"federalState":{"key":"06","name":"Hessen"}},{"name":"Bad Orber Str.","postalCode":"36396","locality":"Steinau an der Straße","municipality":{"key":"06435028","name":"Steinau an der Straße, Brüder-Grimm-Stadt","type":"Stadt"},"district":{"key":"06435","name":"Main-Kinzig-Kreis","type":"Landkreis"},"federalState":{"key":"06","name":"Hessen"}},{"name":"Bahnhofsiedlung","postalCode":"36396","locality":"Steinau an der Straße","municipality":{"key":"06435028","name":"Steinau an der Straße, Brüder-Grimm-Stadt","type":"Stadt"},"district":{"key":"06435","name":"Main-Kinzig-Kreis","type":"Landkreis"},"federalState":{"key":"06","name":"Hessen"}},{"name":"Bahnhofstr.","postalCode":"36396","locality":"Steinau an der Straße","municipality":{"key":"06435028","name":"Steinau an der Straße, Brüder-Grimm-Stadt","type":"Stadt"},"district":{"key":"06435","name":"Main-Kinzig-Kreis","type":"Landkreis"},"federalState":{"key":"06","name":"Hessen"}},{"name":"Bahnweg","postalCode":"36396","locality":"Steinau an der Straße","municipality":{"key":"06435028","name":"Steinau an der Straße, Brüder-Grimm-Stadt","type":"Stadt"},"district":{"key":"06435","name":"Main-Kinzig-Kreis","type":"Landkreis"},"federalState":{"key":"06","name":"Hessen"}},{"name":"Bärenweg","postalCode":"36396","locality":"Steinau an der Straße","municipality":{"key":"06435028","name":"Steinau an der Straße, Brüder-Grimm-Stadt","type":"Stadt"},"district":{"key":"06435","name":"Main-Kinzig-Kreis","type":"Landkreis"},"federalState":{"key":"06","name":"Hessen"}},{"name":"Bellinger Tor","postalCode":"36396","locality":"Steinau an der Straße","municipality":{"key":"06435028","name":"Steinau an der Straße, Brüder-Grimm-Stadt","type":"Stadt"},"district":{"key":"06435","name":"Main-Kinzig-Kreis","type":"Landkreis"},"federalState":{"key":"06","name":"Hessen"}},{"name":"Berggasse","postalCode":"36399","locality":"Freiensteinau","municipality":{"key":"06535004","name":"Freiensteinau","type":"Kreisangehörige_Gemeinde"},"district":{"key":"06535","name":"Vogelsbergkreis","type":"Landkreis"},"federalState":{"key":"06","name":"Hessen"}},{"name":"Bergstr.","postalCode":"36396","locality":"Steinau an der Straße","municipality":{"key":"06435028","name":"Steinau an der Straße, Brüder-Grimm-Stadt","type":"Stadt"},"district":{"key":"06435","name":"Main-Kinzig-Kreis","type":"Landkreis"},"federalState":{"key":"06","name":"Hessen"}},{"name":"Bergweg","postalCode":"36396","locality":"Steinau an der Straße","municipality":{"key":"06435028","name":"Steinau an der Straße, Brüder-Grimm-Stadt","type":"Stadt"},"district":{"key":"06435","name":"Main-Kinzig-Kreis","type":"Landkreis"},"federalState":{"key":"06","name":"Hessen"}},{"name":"Bergweg","postalCode":"36399","locality":"Freiensteinau","municipality":{"key":"06535004","name":"Freiensteinau","type":"Kreisangehörige_Gemeinde"},"district":{"key":"06535","name":"Vogelsbergkreis","type":"Landkreis"},"federalState":{"key":"06","name":"Hessen"}},{"name":"Bergwinkelstr.","postalCode":"36396","locality":"Steinau an der Straße","municipality":{"key":"06435028","name":"Steinau an der Straße, Brüder-Grimm-Stadt","type":"Stadt"},"district":{"key":"06435","name":"Main-Kinzig-Kreis","type":"Landkreis"},"federalState":{"key":"06","name":"Hessen"}},{"name":"Bermuthshainer Str.","postalCode":"36399","locality":"Freiensteinau","municipality":{"key":"06535004","name":"Freiensteinau","type":"Kreisangehörige_Gemeinde"},"district":{"key":"06535","name":"Vogelsbergkreis","type":"Landkreis"},"federalState":{"key":"06","name":"Hessen"}},{"name":"Birkenweg","postalCode":"36396","locality":"Steinau an der Straße","municipality":{"key":"06435028","name":"Steinau an der Straße, Brüder-Grimm-Stadt","type":"Stadt"},"district":{"key":"06435","name":"Main-Kinzig-Kreis","type":"Landkreis"},"federalState":{"key":"06","name":"Hessen"}},{"name":"Birkenweg","postalCode":"36399","locality":"Freiensteinau","municipality":{"key":"06535004","name":"Freiensteinau","type":"Kreisangehörige_Gemeinde"},"district":{"key":"06535","name":"Vogelsbergkreis","type":"Landkreis"},"federalState":{"key":"06","name":"Hessen"}},{"name":"Birsteiner Str.","postalCode":"36399","locality":"Freiensteinau","municipality":{"key":"06535004","name":"Freiensteinau","type":"Kreisangehörige_Gemeinde"},"district":{"key":"06535","name":"Vogelsbergkreis","type":"Landkreis"},"federalState":{"key":"06","name":"Hessen"}},{"name":"Blumenstr.","postalCode":"36396","locality":"Steinau an der Straße","municipality":{"key":"06435028","name":"Steinau an der Straße, Brüder-Grimm-Stadt","type":"Stadt"},"district":{"key":"06435","name":"Main-Kinzig-Kreis","type":"Landkreis"},"federalState":{"key":"06","name":"Hessen"}},{"name":"Bocksgasse","postalCode":"36399","locality":"Freiensteinau","municipality":{"key":"06535004","name":"Freiensteinau","type":"Kreisangehörige_Gemeinde"},"district":{"key":"06535","name":"Vogelsbergkreis","type":"Landkreis"},"federalState":{"key":"06","name":"Hessen"}},{"name":"Borngasse","postalCode":"36399","locality":"Freiensteinau","municipality":{"key":"06535004","name":"Freiensteinau","type":"Kreisangehörige_Gemeinde"},"district":{"key":"06535","name":"Vogelsbergkreis","type":"Landkreis"},"federalState":{"key":"06","name":"Hessen"}},{"name":"Bornweg","postalCode":"36396","locality":"Steinau an der Straße","municipality":{"key":"06435028","name":"Steinau an der Straße, Brüder-Grimm-Stadt","type":"Stadt"},"district":{"key":"06435","name":"Main-Kinzig-Kreis","type":"Landkreis"},"federalState":{"key":"06","name":"Hessen"}},{"name":"Brezelgasse","postalCode":"36399","locality":"Freiensteinau","municipality":{"key":"06535004","name":"Freiensteinau","type":"Kreisangehörige_Gemeinde"},"district":{"key":"06535","name":"Vogelsbergkreis","type":"Landkreis"},"federalState":{"key":"06","name":"Hessen"}},{"name":"Briegelsweg","postalCode":"36399","locality":"Freiensteinau","municipality":{"key":"06535004","name":"Freiensteinau","type":"Kreisangehörige_Gemeinde"},"district":{"key":"06535","name":"Vogelsbergkreis","type":"Landkreis"},"federalState":{"key":"06","name":"Hessen"}},{"name":"Brückenauer Str.","postalCode":"36396","locality":"Steinau an der Straße","municipality":{"key":"06435028","name":"Steinau an der Straße, Brüder-Grimm-Stadt","type":"Stadt"},"district":{"key":"06435","name":"Main-Kinzig-Kreis","type":"Landkreis"},"federalState":{"key":"06","name":"Hessen"}},{"name":"Brückenstr.","postalCode":"36399","locality":"Freiensteinau","municipality":{"key":"06535004","name":"Freiensteinau","type":"Kreisangehörige_Gemeinde"},"district":{"key":"06535","name":"Vogelsbergkreis","type":"Landkreis"},"federalState":{"key":"06","name":"Hessen"}},{"name":"Brückentor","postalCode":"36396","locality":"Steinau an der Straße","municipality":{"key":"06435028","name":"Steinau an der Straße, Brüder-Grimm-Stadt","type":"Stadt"},"district":{"key":"06435","name":"Main-Kinzig-Kreis","type":"Landkreis"},"federalState":{"key":"06","name":"Hessen"}},{"name":"Brückenwiesenweg","postalCode":"36396","locality":"Steinau an der Straße","municipality":{"key":"06435028","name":"Steinau an der Straße, Brüder-Grimm-Stadt","type":"Stadt"},"district":{"key":"06435","name":"Main-Kinzig-Kreis","type":"Landkreis"},"federalState":{"key":"06","name":"Hessen"}},{"name":"Brüder-Grimm-Str.","postalCode":"36396","locality":"Steinau an der Straße","municipality":{"key":"06435028","name":"Steinau an der Straße, Brüder-Grimm-Stadt","type":"Stadt"},"district":{"key":"06435","name":"Main-Kinzig-Kreis","type":"Landkreis"},"federalState":{"key":"06","name":"Hessen"}},{"name":"Brunnenstr.","postalCode":"36396","locality":"Steinau an der Straße","municipality":{"key":"06435028","name":"Steinau an der Straße, Brüder-Grimm-Stadt","type":"Stadt"},"district":{"key":"06435","name":"Main-Kinzig-Kreis","type":"Landkreis"},"federalState":{"key":"06","name":"Hessen"}},{"name":"Brunnenweg","postalCode":"36396","locality":"Steinau an der Straße","municipality":{"key":"06435028","name":"Steinau an der Straße, Brüder-Grimm-Stadt","type":"Stadt"},"district":{"key":"06435","name":"Main-Kinzig-Kreis","type":"Landkreis"},"federalState":{"key":"06","name":"Hessen"}},{"name":"Buchstr.","postalCode":"36396","locality":"Steinau an der Straße","municipality":{"key":"06435028","name":"Steinau an der Straße, Brüder-Grimm-Stadt","type":"Stadt"},"district":{"key":"06435","name":"Main-Kinzig-Kreis","type":"Landkreis"},"federalState":{"key":"06","name":"Hessen"}},{"name":"Buchwaldweg","postalCode":"36399","locality":"Freiensteinau","municipality":{"key":"06535004","name":"Freiensteinau","type":"Kreisangehörige_Gemeinde"},"district":{"key":"06535","name":"Vogelsbergkreis","type":"Landkreis"},"federalState":{"key":"06","name":"Hessen"}},{"name":"Burgelsfeld","postalCode":"36396","locality":"Steinau an der Straße","municipality":{"key":"06435028","name":"Steinau an der Straße, Brüder-Grimm-Stadt","type":"Stadt"},"district":{"key":"06435","name":"Main-Kinzig-Kreis","type":"Landkreis"},"federalState":{"key":"06","name":"Hessen"}},{"name":"Burgweg","postalCode":"36396","locality":"Steinau an der Straße","municipality":{"key":"06435028","name":"Steinau an der Straße, Brüder-Grimm-Stadt","type":"Stadt"},"district":{"key":"06435","name":"Main-Kinzig-Kreis","type":"Landkreis"},"federalState":{"key":"06","name":"Hessen"}},{"name":"Crainfelder Weg","postalCode":"36399","locality":"Freiensteinau","municipality":{"key":"06535004","name":"Freiensteinau","type":"Kreisangehörige_Gemeinde"},"district":{"key":"06535","name":"Vogelsbergkreis","type":"Landkreis"},"federalState":{"key":"06","name":"Hessen"}},{"name":"Distelbachstr.","postalCode":"36396","locality":"Steinau an der Straße","municipality":{"key":"06435028","name":"Steinau an der Straße, Brüder-Grimm-Stadt","type":"Stadt"},"district":{"key":"06435","name":"Main-Kinzig-Kreis","type":"Landkreis"},"federalState":{"key":"06","name":"Hessen"}},{"name":"Dorfstr.","postalCode":"36396","locality":"Steinau an der Straße","municipality":{"key":"06435028","name":"Steinau an der Straße, Brüder-Grimm-Stadt","type":"Stadt"},"district":{"key":"06435","name":"Main-Kinzig-Kreis","type":"Landkreis"},"federalState":{"key":"06","name":"Hessen"}},{"name":"Dorfstr.","postalCode":"36399","locality":"Freiensteinau","municipality":{"key":"06535004","name":"Freiensteinau","type":"Kreisangehörige_Gemeinde"},"district":{"key":"06535","name":"Vogelsbergkreis","type":"Landkreis"},"federalState":{"key":"06","name":"Hessen"}},{"name":"Dreiturmsiedlung","postalCode":"36396","locality":"Steinau an der Straße","municipality":{"key":"06435028","name":"Steinau an der Straße, Brüder-Grimm-Stadt","type":"Stadt"},"district":{"key":"06435","name":"Main-Kinzig-Kreis","type":"Landkreis"},"federalState":{"key":"06","name":"Hessen"}},{"name":"Dreiturmstr.","postalCode":"36396","locality":"Steinau an der Straße","municipality":{"key":"06435028","name":"Steinau an der Straße, Brüder-Grimm-Stadt","type":"Stadt"},"district":{"key":"06435","name":"Main-Kinzig-Kreis","type":"Landkreis"},"federalState":{"key":"06","name":"Hessen"}},{"name":"Dr.-Rudolf-Hedler-Str.","postalCode":"36396","locality":"Steinau an der Straße","municipality":{"key":"06435028","name":"Steinau an der Straße, Brüder-Grimm-Stadt","type":"Stadt"},"district":{"key":"06435","name":"Main-Kinzig-Kreis","type":"Landkreis"},"federalState":{"key":"06","name":"Hessen"}},{"name":"Dungweg","postalCode":"36399","locality":"Freiensteinau","municipality":{"key":"06535004","name":"Freiensteinau","type":"Kreisangehörige_Gemeinde"},"district":{"key":"06535","name":"Vogelsbergkreis","type":"Landkreis"},"federalState":{"key":"06","name":"Hessen"}},{"name":"Ederweg","postalCode":"36396","locality":"Steinau an der Straße","municipality":{"key":"06435028","name":"Steinau an der Straße, Brüder-Grimm-Stadt","type":"Stadt"},"district":{"key":"06435","name":"Main-Kinzig-Kreis","type":"Landkreis"},"federalState":{"key":"06","name":"Hessen"}},{"name":"Eibenweg","postalCode":"36396","locality":"Steinau an der Straße","municipality":{"key":"06435028","name":"Steinau an der Straße, Brüder-Grimm-Stadt","type":"Stadt"},"district":{"key":"06435","name":"Main-Kinzig-Kreis","type":"Landkreis"},"federalState":{"key":"06","name":"Hessen"}},{"name":"Eichenwaldstr.","postalCode":"36396","locality":"Steinau an der Straße","municipality":{"key":"06435028","name":"Steinau an der Straße, Brüder-Grimm-Stadt","type":"Stadt"},"district":{"key":"06435","name":"Main-Kinzig-Kreis","type":"Landkreis"},"federalState":{"key":"06","name":"Hessen"}},{"name":"Eichenweg","postalCode":"36396","locality":"Steinau an der Straße","municipality":{"key":"06435028","name":"Steinau an der Straße, Brüder-Grimm-Stadt","type":"Stadt"},"district":{"key":"06435","name":"Main-Kinzig-Kreis","type":"Landkreis"},"federalState":{"key":"06","name":"Hessen"}},{"name":"Eisenbergstr.","postalCode":"36396","locality":"Steinau an der Straße","municipality":{"key":"06435028","name":"Steinau an der Straße, Brüder-Grimm-Stadt","type":"Stadt"},"district":{"key":"06435","name":"Main-Kinzig-Kreis","type":"Landkreis"},"federalState":{"key":"06","name":"Hessen"}},{"name":"Elmweg","postalCode":"36396","locality":"Steinau an der Straße","municipality":{"key":"06435028","name":"Steinau an der Straße, Brüder-Grimm-Stadt","type":"Stadt"},"district":{"key":"06435","name":"Main-Kinzig-Kreis","type":"Landkreis"},"federalState":{"key":"06","name":"Hessen"}},{"name":"Erbsengasse","postalCode":"36396","locality":"Steinau an der Straße","municipality":{"key":"06435028","name":"Steinau an der Straße, Brüder-Grimm-Stadt","type":"Stadt"},"district":{"key":"06435","name":"Main-Kinzig-Kreis","type":"Landkreis"},"federalState":{"key":"06","name":"Hessen"}},{"name":"Erlenweg","postalCode":"36396","locality":"Steinau an der Straße","municipality":{"key":"06435028","name":"Steinau an der Straße, Brüder-Grimm-Stadt","type":"Stadt"},"district":{"key":"06435","name":"Main-Kinzig-Kreis","type":"Landkreis"},"federalState":{"key":"06","name":"Hessen"}},{"name":"Feldstr.","postalCode":"36396","locality":"Steinau an der Straße","municipality":{"key":"06435028","name":"Steinau an der Straße, Brüder-Grimm-Stadt","type":"Stadt"},"district":{"key":"06435","name":"Main-Kinzig-Kreis","type":"Landkreis"},"federalState":{"key":"06","name":"Hessen"}},{"name":"Fleschenbacher Str.","postalCode":"36396","locality":"Steinau an der Straße","municipality":{"key":"06435028","name":"Steinau an der Straße, Brüder-Grimm-Stadt","type":"Stadt"},"district":{"key":"06435","name":"Main-Kinzig-Kreis","type":"Landkreis"},"federalState":{"key":"06","name":"Hessen"}},{"name":"Fleschenbacher Str.","postalCode":"36399","locality":"Freiensteinau","municipality":{"key":"06535004","name":"Freiensteinau","type":"Kreisangehörige_Gemeinde"},"district":{"key":"06535","name":"Vogelsbergkreis","type":"Landkreis"},"federalState":{"key":"06","name":"Hessen"}},{"name":"Forsthausstr.","postalCode":"36396","locality":"Steinau an der Straße","municipality":{"key":"06435028","name":"Steinau an der Straße, Brüder-Grimm-Stadt","type":"Stadt"},"district":{"key":"06435","name":"Main-Kinzig-Kreis","type":"Landkreis"},"federalState":{"key":"06","name":"Hessen"}},{"name":"Frankfurter Weg","postalCode":"36399","locality":"Freiensteinau","municipality":{"key":"06535004","name":"Freiensteinau","type":"Kreisangehörige_Gemeinde"},"district":{"key":"06535","name":"Vogelsbergkreis","type":"Landkreis"},"federalState":{"key":"06","name":"Hessen"}},{"name":"Freiensteinauer Str.","postalCode":"36396","locality":"Steinau an der Straße","municipality":{"key":"06435028","name":"Steinau an der Straße, Brüder-Grimm-Stadt","type":"Stadt"},"district":{"key":"06435","name":"Main-Kinzig-Kreis","type":"Landkreis"},"federalState":{"key":"06","name":"Hessen"}},{"name":"Friedhofstr.","postalCode":"36396","locality":"Steinau an der Straße","municipality":{"key":"06435028","name":"Steinau an der Straße, Brüder-Grimm-Stadt","type":"Stadt"},"district":{"key":"06435","name":"Main-Kinzig-Kreis","type":"Landkreis"},"federalState":{"key":"06","name":"Hessen"}},{"name":"Friedhofstr.","postalCode":"36399","locality":"Freiensteinau","municipality":{"key":"06535004","name":"Freiensteinau","type":"Kreisangehörige_Gemeinde"},"district":{"key":"06535","name":"Vogelsbergkreis","type":"Landkreis"},"federalState":{"key":"06","name":"Hessen"}},{"name":"Friedhofsweg","postalCode":"36399","locality":"Freiensteinau","municipality":{"key":"06535004","name":"Freiensteinau","type":"Kreisangehörige_Gemeinde"},"district":{"key":"06535","name":"Vogelsbergkreis","type":"Landkreis"},"federalState":{"key":"06","name":"Hessen"}},{"name":"Fuchsberg","postalCode":"36396","locality":"Steinau an der Straße","municipality":{"key":"06435028","name":"Steinau an der Straße, Brüder-Grimm-Stadt","type":"Stadt"},"district":{"key":"06435","name":"Main-Kinzig-Kreis","type":"Landkreis"},"federalState":{"key":"06","name":"Hessen"}},{"name":"Fuldaer Str.","postalCode":"36396","locality":"Steinau an der Straße","municipality":{"key":"06435028","name":"Steinau an der Straße, Brüder-Grimm-Stadt","type":"Stadt"},"district":{"key":"06435","name":"Main-Kinzig-Kreis","type":"Landkreis"},"federalState":{"key":"06","name":"Hessen"}},{"name":"Ganswiesenweg","postalCode":"36399","locality":"Freiensteinau","municipality":{"key":"06535004","name":"Freiensteinau","type":"Kreisangehörige_Gemeinde"},"district":{"key":"06535","name":"Vogelsbergkreis","type":"Landkreis"},"federalState":{"key":"06","name":"Hessen"}},{"name":"Gartenstr.","postalCode":"36396","locality":"Steinau an der Straße","municipality":{"key":"06435028","name":"Steinau an der Straße, Brüder-Grimm-Stadt","type":"Stadt"},"district":{"key":"06435","name":"Main-Kinzig-Kreis","type":"Landkreis"},"federalState":{"key":"06","name":"Hessen"}},{"name":"Gartenstr.","postalCode":"36399","locality":"Freiensteinau","municipality":{"key":"06535004","name":"Freiensteinau","type":"Kreisangehörige_Gemeinde"},"district":{"key":"06535","name":"Vogelsbergkreis","type":"Landkreis"},"federalState":{"key":"06","name":"Hessen"}},{"name":"Glind","postalCode":"21775","locality":"Steinau","municipality":{"key":"03352051","name":"Steinau","type":"Kreisangehörige_Gemeinde"},"district":{"key":"03352","name":"Cuxhaven","type":"Landkreis"},"federalState":{"key":"03","name":"Niedersachsen"}},{"name":"Gottfriedstr.","postalCode":"36399","locality":"Freiensteinau","municipality":{"key":"06535004","name":"Freiensteinau","type":"Kreisangehörige_Gemeinde"},"district":{"key":"06535","name":"Vogelsbergkreis","type":"Landkreis"},"federalState":{"key":"06","name":"Hessen"}},{"name":"Götzenweg","postalCode":"36399","locality":"Freiensteinau","municipality":{"key":"06535004","name":"Freiensteinau","type":"Kreisangehörige_Gemeinde"},"district":{"key":"06535","name":"Vogelsbergkreis","type":"Landkreis"},"federalState":{"key":"06","name":"Hessen"}},{"name":"Grabenstr.","postalCode":"36396","locality":"Steinau an der Straße","municipality":{"key":"06435028","name":"Steinau an der Straße, Brüder-Grimm-Stadt","type":"Stadt"},"district":{"key":"06435","name":"Main-Kinzig-Kreis","type":"Landkreis"},"federalState":{"key":"06","name":"Hessen"}},{"name":"Grebenhainer Str.","postalCode":"36399","locality":"Freiensteinau","municipality":{"key":"06535004","name":"Freiensteinau","type":"Kreisangehörige_Gemeinde"},"district":{"key":"06535","name":"Vogelsbergkreis","type":"Landkreis"},"federalState":{"key":"06","name":"Hessen"}},{"name":"Grundstr.","postalCode":"36396","locality":"Steinau an der Straße","municipality":{"key":"06435028","name":"Steinau an der Straße, Brüder-Grimm-Stadt","type":"Stadt"},"district":{"key":"06435","name":"Main-Kinzig-Kreis","type":"Landkreis"},"federalState":{"key":"06","name":"Hessen"}},{"name":"Grundweg","postalCode":"36399","locality":"Freiensteinau","municipality":{"key":"06535004","name":"Freiensteinau","type":"Kreisangehörige_Gemeinde"},"district":{"key":"06535","name":"Vogelsbergkreis","type":"Landkreis"},"federalState":{"key":"06","name":"Hessen"}},{"name":"Gutenbergstr.","postalCode":"36396","locality":"Steinau an der Straße","municipality":{"key":"06435028","name":"Steinau an der Straße, Brüder-Grimm-Stadt","type":"Stadt"},"district":{"key":"06435","name":"Main-Kinzig-Kreis","type":"Landkreis"},"federalState":{"key":"06","name":"Hessen"}},{"name":"Hainbergstr.","postalCode":"36396","locality":"Steinau an der Straße","municipality":{"key":"06435028","name":"Steinau an der Straße, Brüder-Grimm-Stadt","type":"Stadt"},"district":{"key":"06435","name":"Main-Kinzig-Kreis","type":"Landkreis"},"federalState":{"key":"06","name":"Hessen"}},{"name":"Hainweg","postalCode":"36396","locality":"Steinau an der Straße","municipality":{"key":"06435028","name":"Steinau an der Straße, Brüder-Grimm-Stadt","type":"Stadt"},"district":{"key":"06435","name":"Main-Kinzig-Kreis","type":"Landkreis"},"federalState":{"key":"06","name":"Hessen"}},{"name":"Hainwiesenweg","postalCode":"36396","locality":"Steinau an der Straße","municipality":{"key":"06435028","name":"Steinau an der Straße, Brüder-Grimm-Stadt","type":"Stadt"},"district":{"key":"06435","name":"Main-Kinzig-Kreis","type":"Landkreis"},"federalState":{"key":"06","name":"Hessen"}},{"name":"Harzstr.","postalCode":"36396","locality":"Steinau an der Straße","municipality":{"key":"06435028","name":"Steinau an der Straße, Brüder-Grimm-Stadt","type":"Stadt"},"district":{"key":"06435","name":"Main-Kinzig-Kreis","type":"Landkreis"},"federalState":{"key":"06","name":"Hessen"}},{"name":"Häselweg","postalCode":"36399","locality":"Freiensteinau","municipality":{"key":"06535004","name":"Freiensteinau","type":"Kreisangehörige_Gemeinde"},"district":{"key":"06535","name":"Vogelsbergkreis","type":"Landkreis"},"federalState":{"key":"06","name":"Hessen"}},{"name":"Hasenbergstr.","postalCode":"36396","locality":"Steinau an der Straße","municipality":{"key":"06435028","name":"Steinau an der Straße, Brüder-Grimm-Stadt","type":"Stadt"},"district":{"key":"06435","name":"Main-Kinzig-Kreis","type":"Landkreis"},"federalState":{"key":"06","name":"Hessen"}},{"name":"Hauptstr.","postalCode":"36396","locality":"Steinau an der Straße","municipality":{"key":"06435028","name":"Steinau an der Straße, Brüder-Grimm-Stadt","type":"Stadt"},"district":{"key":"06435","name":"Main-Kinzig-Kreis","type":"Landkreis"},"federalState":{"key":"06","name":"Hessen"}},{"name":"Hauptstr.","postalCode":"36399","locality":"Freiensteinau","municipality":{"key":"06535004","name":"Freiensteinau","type":"Kreisangehörige_Gemeinde"},"district":{"key":"06535","name":"Vogelsbergkreis","type":"Landkreis"},"federalState":{"key":"06","name":"Hessen"}},{"name":"Hauswurzer Str.","postalCode":"36396","locality":"Steinau an der Straße","municipality":{"key":"06435028","name":"Steinau an der Straße, Brüder-Grimm-Stadt","type":"Stadt"},"district":{"key":"06435","name":"Main-Kinzig-Kreis","type":"Landkreis"},"federalState":{"key":"06","name":"Hessen"}},{"name":"Heinrichstr.","postalCode":"36399","locality":"Freiensteinau","municipality":{"key":"06535004","name":"Freiensteinau","type":"Kreisangehörige_Gemeinde"},"district":{"key":"06535","name":"Vogelsbergkreis","type":"Landkreis"},"federalState":{"key":"06","name":"Hessen"}},{"name":"Heinz-Désor-Str.","postalCode":"36396","locality":"Steinau an der Straße","municipality":{"key":"06435028","name":"Steinau an der Straße, Brüder-Grimm-Stadt","type":"Stadt"},"district":{"key":"06435","name":"Main-Kinzig-Kreis","type":"Landkreis"},"federalState":{"key":"06","name":"Hessen"}},{"name":"Hellwiesenweg","postalCode":"36396","locality":"Steinau an der Straße","municipality":{"key":"06435028","name":"Steinau an der Straße, Brüder-Grimm-Stadt","type":"Stadt"},"district":{"key":"06435","name":"Main-Kinzig-Kreis","type":"Landkreis"},"federalState":{"key":"06","name":"Hessen"}},{"name":"Hermesstr.","postalCode":"36396","locality":"Steinau an der Straße","municipality":{"key":"06435028","name":"Steinau an der Straße, Brüder-Grimm-Stadt","type":"Stadt"},"district":{"key":"06435","name":"Main-Kinzig-Kreis","type":"Landkreis"},"federalState":{"key":"06","name":"Hessen"}},{"name":"Herrenheeg","postalCode":"36396","locality":"Steinau an der Straße","municipality":{"key":"06435028","name":"Steinau an der Straße, Brüder-Grimm-Stadt","type":"Stadt"},"district":{"key":"06435","name":"Main-Kinzig-Kreis","type":"Landkreis"},"federalState":{"key":"06","name":"Hessen"}},{"name":"Hinter dem Dorf","postalCode":"36399","locality":"Freiensteinau","municipality":{"key":"06535004","name":"Freiensteinau","type":"Kreisangehörige_Gemeinde"},"district":{"key":"06535","name":"Vogelsbergkreis","type":"Landkreis"},"federalState":{"key":"06","name":"Hessen"}},{"name":"Hinter der Burg","postalCode":"36396","locality":"Steinau an der Straße","municipality":{"key":"06435028","name":"Steinau an der Straße, Brüder-Grimm-Stadt","type":"Stadt"},"district":{"key":"06435","name":"Main-Kinzig-Kreis","type":"Landkreis"},"federalState":{"key":"06","name":"Hessen"}},{"name":"Hintergasse","postalCode":"36399","locality":"Freiensteinau","municipality":{"key":"06535004","name":"Freiensteinau","type":"Kreisangehörige_Gemeinde"},"district":{"key":"06535","name":"Vogelsbergkreis","type":"Landkreis"},"federalState":{"key":"06","name":"Hessen"}},{"name":"Hinterweide","postalCode":"36399","locality":"Freiensteinau","municipality":{"key":"06535004","name":"Freiensteinau","type":"Kreisangehörige_Gemeinde"},"district":{"key":"06535","name":"Vogelsbergkreis","type":"Landkreis"},"federalState":{"key":"06","name":"Hessen"}},{"name":"Hochstr.","postalCode":"36396","locality":"Steinau an der Straße","municipality":{"key":"06435028","name":"Steinau an der Straße, Brüder-Grimm-Stadt","type":"Stadt"},"district":{"key":"06435","name":"Main-Kinzig-Kreis","type":"Landkreis"},"federalState":{"key":"06","name":"Hessen"}},{"name":"Höfchen","postalCode":"36396","locality":"Steinau an der Straße","municipality":{"key":"06435028","name":"Steinau an der Straße, Brüder-Grimm-Stadt","type":"Stadt"},"district":{"key":"06435","name":"Main-Kinzig-Kreis","type":"Landkreis"},"federalState":{"key":"06","name":"Hessen"}},{"name":"Hofrasen","postalCode":"36396","locality":"Steinau an der Straße","municipality":{"key":"06435028","name":"Steinau an der Straße, Brüder-Grimm-Stadt","type":"Stadt"},"district":{"key":"06435","name":"Main-Kinzig-Kreis","type":"Landkreis"},"federalState":{"key":"06","name":"Hessen"}},{"name":"Hofweg","postalCode":"36399","locality":"Freiensteinau","municipality":{"key":"06535004","name":"Freiensteinau","type":"Kreisangehörige_Gemeinde"},"district":{"key":"06535","name":"Vogelsbergkreis","type":"Landkreis"},"federalState":{"key":"06","name":"Hessen"}},{"name":"Hofwiesenweg","postalCode":"36396","locality":"Steinau an der Straße","municipality":{"key":"06435028","name":"Steinau an der Straße, Brüder-Grimm-Stadt","type":"Stadt"},"district":{"key":"06435","name":"Main-Kinzig-Kreis","type":"Landkreis"},"federalState":{"key":"06","name":"Hessen"}},{"name":"Höhenstr.","postalCode":"36396","locality":"Steinau an der Straße","municipality":{"key":"06435028","name":"Steinau an der Straße, Brüder-Grimm-Stadt","type":"Stadt"},"district":{"key":"06435","name":"Main-Kinzig-Kreis","type":"Landkreis"},"federalState":{"key":"06","name":"Hessen"}},{"name":"Höhenstr.","postalCode":"36399","locality":"Freiensteinau","municipality":{"key":"06535004","name":"Freiensteinau","type":"Kreisangehörige_Gemeinde"},"district":{"key":"06535","name":"Vogelsbergkreis","type":"Landkreis"},"federalState":{"key":"06","name":"Hessen"}},{"name":"Hohenzeller Weg","postalCode":"36396","locality":"Steinau an der Straße","municipality":{"key":"06435028","name":"Steinau an der Straße, Brüder-Grimm-Stadt","type":"Stadt"},"district":{"key":"06435","name":"Main-Kinzig-Kreis","type":"Landkreis"},"federalState":{"key":"06","name":"Hessen"}},{"name":"Hohlweg","postalCode":"36396","locality":"Steinau an der Straße","municipality":{"key":"06435028","name":"Steinau an der Straße, Brüder-Grimm-Stadt","type":"Stadt"},"district":{"key":"06435","name":"Main-Kinzig-Kreis","type":"Landkreis"},"federalState":{"key":"06","name":"Hessen"}},{"name":"Hollerstr.","postalCode":"36396","locality":"Steinau an der Straße","municipality":{"key":"06435028","name":"Steinau an der Straße, Brüder-Grimm-Stadt","type":"Stadt"},"district":{"key":"06435","name":"Main-Kinzig-Kreis","type":"Landkreis"},"federalState":{"key":"06","name":"Hessen"}},{"name":"Hollerwiesenweg","postalCode":"36396","locality":"Steinau an der Straße","municipality":{"key":"06435028","name":"Steinau an der Straße, Brüder-Grimm-Stadt","type":"Stadt"},"district":{"key":"06435","name":"Main-Kinzig-Kreis","type":"Landkreis"},"federalState":{"key":"06","name":"Hessen"}},{"name":"Holzweg","postalCode":"36399","locality":"Freiensteinau","municipality":{"key":"06535004","name":"Freiensteinau","type":"Kreisangehörige_Gemeinde"},"district":{"key":"06535","name":"Vogelsbergkreis","type":"Landkreis"},"federalState":{"key":"06","name":"Hessen"}},{"name":"Hopfenwiesenweg","postalCode":"36399","locality":"Freiensteinau","municipality":{"key":"06535004","name":"Freiensteinau","type":"Kreisangehörige_Gemeinde"},"district":{"key":"06535","name":"Vogelsbergkreis","type":"Landkreis"},"federalState":{"key":"06","name":"Hessen"}},{"name":"Horstweg","postalCode":"36396","locality":"Steinau an der Straße","municipality":{"key":"06435028","name":"Steinau an der Straße, Brüder-Grimm-Stadt","type":"Stadt"},"district":{"key":"06435","name":"Main-Kinzig-Kreis","type":"Landkreis"},"federalState":{"key":"06","name":"Hessen"}},{"name":"Horstweg","postalCode":"36399","locality":"Freiensteinau","municipality":{"key":"06535004","name":"Freiensteinau","type":"Kreisangehörige_Gemeinde"},"district":{"key":"06535","name":"Vogelsbergkreis","type":"Landkreis"},"federalState":{"key":"06","name":"Hessen"}},{"name":"Huttengrundstr.","postalCode":"36396","locality":"Steinau an der Straße","municipality":{"key":"06435028","name":"Steinau an der Straße, Brüder-Grimm-Stadt","type":"Stadt"},"district":{"key":"06435","name":"Main-Kinzig-Kreis","type":"Landkreis"},"federalState":{"key":"06","name":"Hessen"}},{"name":"Im Grund","postalCode":"36399","locality":"Freiensteinau","municipality":{"key":"06535004","name":"Freiensteinau","type":"Kreisangehörige_Gemeinde"},"district":{"key":"06535","name":"Vogelsbergkreis","type":"Landkreis"},"federalState":{"key":"06","name":"Hessen"}},{"name":"Im Hain","postalCode":"36396","locality":"Steinau an der Straße","municipality":{"key":"06435028","name":"Steinau an der Straße, Brüder-Grimm-Stadt","type":"Stadt"},"district":{"key":"06435","name":"Main-Kinzig-Kreis","type":"Landkreis"},"federalState":{"key":"06","name":"Hessen"}},{"name":"Im Märzgrund","postalCode":"36396","locality":"Steinau an der Straße","municipality":{"key":"06435028","name":"Steinau an der Straße, Brüder-Grimm-Stadt","type":"Stadt"},"district":{"key":"06435","name":"Main-Kinzig-Kreis","type":"Landkreis"},"federalState":{"key":"06","name":"Hessen"}},{"name":"Im Mitteldorf","postalCode":"36396","locality":"Steinau an der Straße","municipality":{"key":"06435028","name":"Steinau an der Straße, Brüder-Grimm-Stadt","type":"Stadt"},"district":{"key":"06435","name":"Main-Kinzig-Kreis","type":"Landkreis"},"federalState":{"key":"06","name":"Hessen"}},{"name":"Im Mühlfeld","postalCode":"36399","locality":"Freiensteinau","municipality":{"key":"06535004","name":"Freiensteinau","type":"Kreisangehörige_Gemeinde"},"district":{"key":"06535","name":"Vogelsbergkreis","type":"Landkreis"},"federalState":{"key":"06","name":"Hessen"}},{"name":"Im Oberdorf","postalCode":"36399","locality":"Freiensteinau","municipality":{"key":"06535004","name":"Freiensteinau","type":"Kreisangehörige_Gemeinde"},"district":{"key":"06535","name":"Vogelsbergkreis","type":"Landkreis"},"federalState":{"key":"06","name":"Hessen"}},{"name":"Im Poppen","postalCode":"36396","locality":"Steinau an der Straße","municipality":{"key":"06435028","name":"Steinau an der Straße, Brüder-Grimm-Stadt","type":"Stadt"},"district":{"key":"06435","name":"Main-Kinzig-Kreis","type":"Landkreis"},"federalState":{"key":"06","name":"Hessen"}},{"name":"Im Rosengarten","postalCode":"36396","locality":"Steinau an der Straße","municipality":{"key":"06435028","name":"Steinau an der Straße, Brüder-Grimm-Stadt","type":"Stadt"},"district":{"key":"06435","name":"Main-Kinzig-Kreis","type":"Landkreis"},"federalState":{"key":"06","name":"Hessen"}},{"name":"Im Unterdorf","postalCode":"36396","locality":"Steinau an der Straße","municipality":{"key":"06435028","name":"Steinau an der Straße, Brüder-Grimm-Stadt","type":"Stadt"},"district":{"key":"06435","name":"Main-Kinzig-Kreis","type":"Landkreis"},"federalState":{"key":"06","name":"Hessen"}},{"name":"Im Wiesengrund","postalCode":"36396","locality":"Steinau an der Straße","municipality":{"key":"06435028","name":"Steinau an der Straße, Brüder-Grimm-Stadt","type":"Stadt"},"district":{"key":"06435","name":"Main-Kinzig-Kreis","type":"Landkreis"},"federalState":{"key":"06","name":"Hessen"}},{"name":"Im Wolfsgrund","postalCode":"36396","locality":"Steinau an der Straße","municipality":{"key":"06435028","name":"Steinau an der Straße, Brüder-Grimm-Stadt","type":"Stadt"},"district":{"key":"06435","name":"Main-Kinzig-Kreis","type":"Landkreis"},"federalState":{"key":"06","name":"Hessen"}},{"name":"In den Gärten","postalCode":"36396","locality":"Steinau an der Straße","municipality":{"key":"06435028","name":"Steinau an der Straße, Brüder-Grimm-Stadt","type":"Stadt"},"district":{"key":"06435","name":"Main-Kinzig-Kreis","type":"Landkreis"},"federalState":{"key":"06","name":"Hessen"}},{"name":"In den Mühlwiesen","postalCode":"36396","locality":"Steinau an der Straße","municipality":{"key":"06435028","name":"Steinau an der Straße, Brüder-Grimm-Stadt","type":"Stadt"},"district":{"key":"06435","name":"Main-Kinzig-Kreis","type":"Landkreis"},"federalState":{"key":"06","name":"Hessen"}},{"name":"In den Weihergärten","postalCode":"36396","locality":"Steinau an der Straße","municipality":{"key":"06435028","name":"Steinau an der Straße, Brüder-Grimm-Stadt","type":"Stadt"},"district":{"key":"06435","name":"Main-Kinzig-Kreis","type":"Landkreis"},"federalState":{"key":"06","name":"Hessen"}},{"name":"In der Ahle","postalCode":"36396","locality":"Steinau an der Straße","municipality":{"key":"06435028","name":"Steinau an der Straße, Brüder-Grimm-Stadt","type":"Stadt"},"district":{"key":"06435","name":"Main-Kinzig-Kreis","type":"Landkreis"},"federalState":{"key":"06","name":"Hessen"}},{"name":"In der Ährecke","postalCode":"36396","locality":"Steinau an der Straße","municipality":{"key":"06435028","name":"Steinau an der Straße, Brüder-Grimm-Stadt","type":"Stadt"},"district":{"key":"06435","name":"Main-Kinzig-Kreis","type":"Landkreis"},"federalState":{"key":"06","name":"Hessen"}},{"name":"In der Anlage","postalCode":"36396","locality":"Steinau an der Straße","municipality":{"key":"06435028","name":"Steinau an der Straße, Brüder-Grimm-Stadt","type":"Stadt"},"district":{"key":"06435","name":"Main-Kinzig-Kreis","type":"Landkreis"},"federalState":{"key":"06","name":"Hessen"}},{"name":"In der Ecke","postalCode":"36399","locality":"Freiensteinau","municipality":{"key":"06535004","name":"Freiensteinau","type":"Kreisangehörige_Gemeinde"},"district":{"key":"06535","name":"Vogelsbergkreis","type":"Landkreis"},"federalState":{"key":"06","name":"Hessen"}},{"name":"In der Wasserecke","postalCode":"36396","locality":"Steinau an der Straße","municipality":{"key":"06435028","name":"Steinau an der Straße, Brüder-Grimm-Stadt","type":"Stadt"},"district":{"key":"06435","name":"Main-Kinzig-Kreis","type":"Landkreis"},"federalState":{"key":"06","name":"Hessen"}},{"name":"Jakobshof","postalCode":"36396","locality":"Steinau an der Straße","municipality":{"key":"06435028","name":"Steinau an der Straße, Brüder-Grimm-Stadt","type":"Stadt"},"district":{"key":"06435","name":"Main-Kinzig-Kreis","type":"Landkreis"},"federalState":{"key":"06","name":"Hessen"}},{"name":"Johannes-Menge-Str.","postalCode":"36396","locality":"Steinau an der Straße","municipality":{"key":"06435028","name":"Steinau an der Straße, Brüder-Grimm-Stadt","type":"Stadt"},"district":{"key":"06435","name":"Main-Kinzig-Kreis","type":"Landkreis"},"federalState":{"key":"06","name":"Hessen"}},{"name":"Jossaer Str.","postalCode":"36399","locality":"Freiensteinau","municipality":{"key":"06535004","name":"Freiensteinau","type":"Kreisangehörige_Gemeinde"},"district":{"key":"06535","name":"Vogelsbergkreis","type":"Landkreis"},"federalState":{"key":"06","name":"Hessen"}},{"name":"Judenackerstr.","postalCode":"36396","locality":"Steinau an der Straße","municipality":{"key":"06435028","name":"Steinau an der Straße, Brüder-Grimm-Stadt","type":"Stadt"},"district":{"key":"06435","name":"Main-Kinzig-Kreis","type":"Landkreis"},"federalState":{"key":"06","name":"Hessen"}},{"name":"Judengasse","postalCode":"36396","locality":"Steinau an der Straße","municipality":{"key":"06435028","name":"Steinau an der Straße, Brüder-Grimm-Stadt","type":"Stadt"},"district":{"key":"06435","name":"Main-Kinzig-Kreis","type":"Landkreis"},"federalState":{"key":"06","name":"Hessen"}},{"name":"Junkersgartenweg","postalCode":"36396","locality":"Steinau an der Straße","municipality":{"key":"06435028","name":"Steinau an der Straße, Brüder-Grimm-Stadt","type":"Stadt"},"district":{"key":"06435","name":"Main-Kinzig-Kreis","type":"Landkreis"},"federalState":{"key":"06","name":"Hessen"}},{"name":"Junkerweg","postalCode":"36396","locality":"Steinau an der Straße","municipality":{"key":"06435028","name":"Steinau an der Straße, Brüder-Grimm-Stadt","type":"Stadt"},"district":{"key":"06435","name":"Main-Kinzig-Kreis","type":"Landkreis"},"federalState":{"key":"06","name":"Hessen"}},{"name":"Kapellenweg","postalCode":"36396","locality":"Steinau an der Straße","municipality":{"key":"06435028","name":"Steinau an der Straße, Brüder-Grimm-Stadt","type":"Stadt"},"district":{"key":"06435","name":"Main-Kinzig-Kreis","type":"Landkreis"},"federalState":{"key":"06","name":"Hessen"}},{"name":"Karlenwiesenweg","postalCode":"36399","locality":"Freiensteinau","municipality":{"key":"06535004","name":"Freiensteinau","type":"Kreisangehörige_Gemeinde"},"district":{"key":"06535","name":"Vogelsbergkreis","type":"Landkreis"},"federalState":{"key":"06","name":"Hessen"}},{"name":"Karlstr.","postalCode":"36399","locality":"Freiensteinau","municipality":{"key":"06535004","name":"Freiensteinau","type":"Kreisangehörige_Gemeinde"},"district":{"key":"06535","name":"Vogelsbergkreis","type":"Landkreis"},"federalState":{"key":"06","name":"Hessen"}},{"name":"Karl-Winnacker-Str.","postalCode":"36396","locality":"Steinau an der Straße","municipality":{"key":"06435028","name":"Steinau an der Straße, Brüder-Grimm-Stadt","type":"Stadt"},"district":{"key":"06435","name":"Main-Kinzig-Kreis","type":"Landkreis"},"federalState":{"key":"06","name":"Hessen"}},{"name":"Kastanienweg","postalCode":"36396","locality":"Steinau an der Straße","municipality":{"key":"06435028","name":"Steinau an der Straße, Brüder-Grimm-Stadt","type":"Stadt"},"district":{"key":"06435","name":"Main-Kinzig-Kreis","type":"Landkreis"},"federalState":{"key":"06","name":"Hessen"}},{"name":"Katharinenstr.","postalCode":"36396","locality":"Steinau an der Straße","municipality":{"key":"06435028","name":"Steinau an der Straße, Brüder-Grimm-Stadt","type":"Stadt"},"district":{"key":"06435","name":"Main-Kinzig-Kreis","type":"Landkreis"},"federalState":{"key":"06","name":"Hessen"}},{"name":"Katzenbrücke","postalCode":"36396","locality":"Steinau an der Straße","municipality":{"key":"06435028","name":"Steinau an der Straße, Brüder-Grimm-Stadt","type":"Stadt"},"district":{"key":"06435","name":"Main-Kinzig-Kreis","type":"Landkreis"},"federalState":{"key":"06","name":"Hessen"}},{"name":"Kerbersdorfer Weg","postalCode":"36396","locality":"Steinau an der Straße","municipality":{"key":"06435028","name":"Steinau an der Straße, Brüder-Grimm-Stadt","type":"Stadt"},"district":{"key":"06435","name":"Main-Kinzig-Kreis","type":"Landkreis"},"federalState":{"key":"06","name":"Hessen"}},{"name":"Kiesslersweg","postalCode":"36399","locality":"Freiensteinau","municipality":{"key":"06535004","name":"Freiensteinau","type":"Kreisangehörige_Gemeinde"},"district":{"key":"06535","name":"Vogelsbergkreis","type":"Landkreis"},"federalState":{"key":"06","name":"Hessen"}},{"name":"Kinzigtalstr.","postalCode":"36399","locality":"Freiensteinau","municipality":{"key":"06535004","name":"Freiensteinau","type":"Kreisangehörige_Gemeinde"},"district":{"key":"06535","name":"Vogelsbergkreis","type":"Landkreis"},"federalState":{"key":"06","name":"Hessen"}},{"name":"Kirchgasse","postalCode":"36399","locality":"Freiensteinau","municipality":{"key":"06535004","name":"Freiensteinau","type":"Kreisangehörige_Gemeinde"},"district":{"key":"06535","name":"Vogelsbergkreis","type":"Landkreis"},"federalState":{"key":"06","name":"Hessen"}},{"name":"Kirchstr.","postalCode":"36396","locality":"Steinau an der Straße","municipality":{"key":"06435028","name":"Steinau an der Straße, Brüder-Grimm-Stadt","type":"Stadt"},"district":{"key":"06435","name":"Main-Kinzig-Kreis","type":"Landkreis"},"federalState":{"key":"06","name":"Hessen"}},{"name":"Kirchstr.","postalCode":"36399","locality":"Freiensteinau","municipality":{"key":"06535004","name":"Freiensteinau","type":"Kreisangehörige_Gemeinde"},"district":{"key":"06535","name":"Vogelsbergkreis","type":"Landkreis"},"federalState":{"key":"06","name":"Hessen"}},{"name":"Kirchweg","postalCode":"36396","locality":"Steinau an der Straße","municipality":{"key":"06435028","name":"Steinau an der Straße, Brüder-Grimm-Stadt","type":"Stadt"},"district":{"key":"06435","name":"Main-Kinzig-Kreis","type":"Landkreis"},"federalState":{"key":"06","name":"Hessen"}},{"name":"Kleindienstweg","postalCode":"36396","locality":"Steinau an der Straße","municipality":{"key":"06435028","name":"Steinau an der Straße, Brüder-Grimm-Stadt","type":"Stadt"},"district":{"key":"06435","name":"Main-Kinzig-Kreis","type":"Landkreis"},"federalState":{"key":"06","name":"Hessen"}},{"name":"Klesberg","postalCode":"36396","locality":"Steinau an der Straße","municipality":{"key":"06435028","name":"Steinau an der Straße, Brüder-Grimm-Stadt","type":"Stadt"},"district":{"key":"06435","name":"Main-Kinzig-Kreis","type":"Landkreis"},"federalState":{"key":"06","name":"Hessen"}},{"name":"Klingstr.","postalCode":"36399","locality":"Freiensteinau","municipality":{"key":"06535004","name":"Freiensteinau","type":"Kreisangehörige_Gemeinde"},"district":{"key":"06535","name":"Vogelsbergkreis","type":"Landkreis"},"federalState":{"key":"06","name":"Hessen"}},{"name":"Knobigasse","postalCode":"36399","locality":"Freiensteinau","municipality":{"key":"06535004","name":"Freiensteinau","type":"Kreisangehörige_Gemeinde"},"district":{"key":"06535","name":"Vogelsbergkreis","type":"Landkreis"},"federalState":{"key":"06","name":"Hessen"}},{"name":"Knorrsweg","postalCode":"36399","locality":"Freiensteinau","municipality":{"key":"06535004","name":"Freiensteinau","type":"Kreisangehörige_Gemeinde"},"district":{"key":"06535","name":"Vogelsbergkreis","type":"Landkreis"},"federalState":{"key":"06","name":"Hessen"}},{"name":"Knüllweg","postalCode":"36396","locality":"Steinau an der Straße","municipality":{"key":"06435028","name":"Steinau an der Straße, Brüder-Grimm-Stadt","type":"Stadt"},"district":{"key":"06435","name":"Main-Kinzig-Kreis","type":"Landkreis"},"federalState":{"key":"06","name":"Hessen"}},{"name":"Köppeler Str.","postalCode":"21775","locality":"Steinau","municipality":{"key":"03352051","name":"Steinau","type":"Kreisangehörige_Gemeinde"},"district":{"key":"03352","name":"Cuxhaven","type":"Landkreis"},"federalState":{"key":"03","name":"Niedersachsen"}},{"name":"Lachenweg","postalCode":"36396","locality":"Steinau an der Straße","municipality":{"key":"06435028","name":"Steinau an der Straße, Brüder-Grimm-Stadt","type":"Stadt"},"district":{"key":"06435","name":"Main-Kinzig-Kreis","type":"Landkreis"},"federalState":{"key":"06","name":"Hessen"}},{"name":"Langenbergstr.","postalCode":"36396","locality":"Steinau an der Straße","municipality":{"key":"06435028","name":"Steinau an der Straße, Brüder-Grimm-Stadt","type":"Stadt"},"district":{"key":"06435","name":"Main-Kinzig-Kreis","type":"Landkreis"},"federalState":{"key":"06","name":"Hessen"}},{"name":"Langer Berg","postalCode":"36396","locality":"Steinau an der Straße","municipality":{"key":"06435028","name":"Steinau an der Straße, Brüder-Grimm-Stadt","type":"Stadt"},"district":{"key":"06435","name":"Main-Kinzig-Kreis","type":"Landkreis"},"federalState":{"key":"06","name":"Hessen"}},{"name":"Lauentheil","postalCode":"21775","locality":"Steinau","municipality":{"key":"03352051","name":"Steinau","type":"Kreisangehörige_Gemeinde"},"district":{"key":"03352","name":"Cuxhaven","type":"Landkreis"},"federalState":{"key":"03","name":"Niedersachsen"}},{"name":"Leinesweg","postalCode":"36396","locality":"Steinau an der Straße","municipality":{"key":"06435028","name":"Steinau an der Straße, Brüder-Grimm-Stadt","type":"Stadt"},"district":{"key":"06435","name":"Main-Kinzig-Kreis","type":"Landkreis"},"federalState":{"key":"06","name":"Hessen"}},{"name":"Leipziger Str.","postalCode":"36396","locality":"Steinau an der Straße","municipality":{"key":"06435028","name":"Steinau an der Straße, Brüder-Grimm-Stadt","type":"Stadt"},"district":{"key":"06435","name":"Main-Kinzig-Kreis","type":"Landkreis"},"federalState":{"key":"06","name":"Hessen"}},{"name":"Lerchenfeldweg","postalCode":"36396","locality":"Steinau an der Straße","municipality":{"key":"06435028","name":"Steinau an der Straße, Brüder-Grimm-Stadt","type":"Stadt"},"district":{"key":"06435","name":"Main-Kinzig-Kreis","type":"Landkreis"},"federalState":{"key":"06","name":"Hessen"}},{"name":"Lessingstr.","postalCode":"36396","locality":"Steinau an der Straße","municipality":{"key":"06435028","name":"Steinau an der Straße, Brüder-Grimm-Stadt","type":"Stadt"},"district":{"key":"06435","name":"Main-Kinzig-Kreis","type":"Landkreis"},"federalState":{"key":"06","name":"Hessen"}},{"name":"Lichenröther Weg","postalCode":"36399","locality":"Freiensteinau","municipality":{"key":"06535004","name":"Freiensteinau","type":"Kreisangehörige_Gemeinde"},"district":{"key":"06535","name":"Vogelsbergkreis","type":"Landkreis"},"federalState":{"key":"06","name":"Hessen"}},{"name":"Lindenstr.","postalCode":"36396","locality":"Steinau an der Straße","municipality":{"key":"06435028","name":"Steinau an der Straße, Brüder-Grimm-Stadt","type":"Stadt"},"district":{"key":"06435","name":"Main-Kinzig-Kreis","type":"Landkreis"},"federalState":{"key":"06","name":"Hessen"}},{"name":"Lindenstr.","postalCode":"36399","locality":"Freiensteinau","municipality":{"key":"06535004","name":"Freiensteinau","type":"Kreisangehörige_Gemeinde"},"district":{"key":"06535","name":"Vogelsbergkreis","type":"Landkreis"},"federalState":{"key":"06","name":"Hessen"}},{"name":"Linsengasse","postalCode":"36396","locality":"Steinau an der Straße","municipality":{"key":"06435028","name":"Steinau an der Straße, Brüder-Grimm-Stadt","type":"Stadt"},"district":{"key":"06435","name":"Main-Kinzig-Kreis","type":"Landkreis"},"federalState":{"key":"06","name":"Hessen"}},{"name":"Marborner Str.","postalCode":"36396","locality":"Steinau an der Straße","municipality":{"key":"06435028","name":"Steinau an der Straße, Brüder-Grimm-Stadt","type":"Stadt"},"district":{"key":"06435","name":"Main-Kinzig-Kreis","type":"Landkreis"},"federalState":{"key":"06","name":"Hessen"}},{"name":"Marienbornstr.","postalCode":"36396","locality":"Steinau an der Straße","municipality":{"key":"06435028","name":"Steinau an der Straße, Brüder-Grimm-Stadt","type":"Stadt"},"district":{"key":"06435","name":"Main-Kinzig-Kreis","type":"Landkreis"},"federalState":{"key":"06","name":"Hessen"}},{"name":"Marjosser Weg","postalCode":"36396","locality":"Steinau an der Straße","municipality":{"key":"06435028","name":"Steinau an der Straße, Brüder-Grimm-Stadt","type":"Stadt"},"district":{"key":"06435","name":"Main-Kinzig-Kreis","type":"Landkreis"},"federalState":{"key":"06","name":"Hessen"}},{"name":"Marktackerstr.","postalCode":"36396","locality":"Steinau an der Straße","municipality":{"key":"06435028","name":"Steinau an der Straße, Brüder-Grimm-Stadt","type":"Stadt"},"district":{"key":"06435","name":"Main-Kinzig-Kreis","type":"Landkreis"},"federalState":{"key":"06","name":"Hessen"}},{"name":"Märzgasse","postalCode":"36396","locality":"Steinau an der Straße","municipality":{"key":"06435028","name":"Steinau an der Straße, Brüder-Grimm-Stadt","type":"Stadt"},"district":{"key":"06435","name":"Main-Kinzig-Kreis","type":"Landkreis"},"federalState":{"key":"06","name":"Hessen"}},{"name":"Max-Foerster-Str.","postalCode":"36396","locality":"Steinau an der Straße","municipality":{"key":"06435028","name":"Steinau an der Straße, Brüder-Grimm-Stadt","type":"Stadt"},"district":{"key":"06435","name":"Main-Kinzig-Kreis","type":"Landkreis"},"federalState":{"key":"06","name":"Hessen"}},{"name":"Max Weg","postalCode":"36399","locality":"Freiensteinau","municipality":{"key":"06535004","name":"Freiensteinau","type":"Kreisangehörige_Gemeinde"},"district":{"key":"06535","name":"Vogelsbergkreis","type":"Landkreis"},"federalState":{"key":"06","name":"Hessen"}},{"name":"Max-Wolf-Str.","postalCode":"36396","locality":"Steinau an der Straße","municipality":{"key":"06435028","name":"Steinau an der Straße, Brüder-Grimm-Stadt","type":"Stadt"},"district":{"key":"06435","name":"Main-Kinzig-Kreis","type":"Landkreis"},"federalState":{"key":"06","name":"Hessen"}},{"name":"Meistergasse","postalCode":"36396","locality":"Steinau an der Straße","municipality":{"key":"06435028","name":"Steinau an der Straße, Brüder-Grimm-Stadt","type":"Stadt"},"district":{"key":"06435","name":"Main-Kinzig-Kreis","type":"Landkreis"},"federalState":{"key":"06","name":"Hessen"}},{"name":"Metzloser Str.","postalCode":"36399","locality":"Freiensteinau","municipality":{"key":"06535004","name":"Freiensteinau","type":"Kreisangehörige_Gemeinde"},"district":{"key":"06535","name":"Vogelsbergkreis","type":"Landkreis"},"federalState":{"key":"06","name":"Hessen"}},{"name":"Michael-Meyenburg-Weg","postalCode":"36396","locality":"Steinau an der Straße","municipality":{"key":"06435028","name":"Steinau an der Straße, Brüder-Grimm-Stadt","type":"Stadt"},"district":{"key":"06435","name":"Main-Kinzig-Kreis","type":"Landkreis"},"federalState":{"key":"06","name":"Hessen"}},{"name":"Mittelgasse","postalCode":"36399","locality":"Freiensteinau","municipality":{"key":"06535004","name":"Freiensteinau","type":"Kreisangehörige_Gemeinde"},"district":{"key":"06535","name":"Vogelsbergkreis","type":"Landkreis"},"federalState":{"key":"06","name":"Hessen"}},{"name":"Mittelweg","postalCode":"36399","locality":"Freiensteinau","municipality":{"key":"06535004","name":"Freiensteinau","type":"Kreisangehörige_Gemeinde"},"district":{"key":"06535","name":"Vogelsbergkreis","type":"Landkreis"},"federalState":{"key":"06","name":"Hessen"}},{"name":"Moosbachstr.","postalCode":"36399","locality":"Freiensteinau","municipality":{"key":"06535004","name":"Freiensteinau","type":"Kreisangehörige_Gemeinde"},"district":{"key":"06535","name":"Vogelsbergkreis","type":"Landkreis"},"federalState":{"key":"06","name":"Hessen"}},{"name":"Mooshecke","postalCode":"36396","locality":"Steinau an der Straße","municipality":{"key":"06435028","name":"Steinau an der Straße, Brüder-Grimm-Stadt","type":"Stadt"},"district":{"key":"06435","name":"Main-Kinzig-Kreis","type":"Landkreis"},"federalState":{"key":"06","name":"Hessen"}},{"name":"Mühedeich","postalCode":"21775","locality":"Steinau","municipality":{"key":"03352051","name":"Steinau","type":"Kreisangehörige_Gemeinde"},"district":{"key":"03352","name":"Cuxhaven","type":"Landkreis"},"federalState":{"key":"03","name":"Niedersachsen"}},{"name":"Mühlenstr.","postalCode":"36399","locality":"Freiensteinau","municipality":{"key":"06535004","name":"Freiensteinau","type":"Kreisangehörige_Gemeinde"},"district":{"key":"06535","name":"Vogelsbergkreis","type":"Landkreis"},"federalState":{"key":"06","name":"Hessen"}},{"name":"Mühlsgasse","postalCode":"36396","locality":"Steinau an der Straße","municipality":{"key":"06435028","name":"Steinau an der Straße, Brüder-Grimm-Stadt","type":"Stadt"},"district":{"key":"06435","name":"Main-Kinzig-Kreis","type":"Landkreis"},"federalState":{"key":"06","name":"Hessen"}},{"name":"Mühlweg","postalCode":"36396","locality":"Steinau an der Straße","municipality":{"key":"06435028","name":"Steinau an der Straße, Brüder-Grimm-Stadt","type":"Stadt"},"district":{"key":"06435","name":"Main-Kinzig-Kreis","type":"Landkreis"},"federalState":{"key":"06","name":"Hessen"}},{"name":"Naxburgweg","postalCode":"36399","locality":"Freiensteinau","municipality":{"key":"06535004","name":"Freiensteinau","type":"Kreisangehörige_Gemeinde"},"district":{"key":"06535","name":"Vogelsbergkreis","type":"Landkreis"},"federalState":{"key":"06","name":"Hessen"}},{"name":"Neue Trift","postalCode":"21775","locality":"Steinau","municipality":{"key":"03352051","name":"Steinau","type":"Kreisangehörige_Gemeinde"},"district":{"key":"03352","name":"Cuxhaven","type":"Landkreis"},"federalState":{"key":"03","name":"Niedersachsen"}},{"name":"Neugartenweg","postalCode":"36396","locality":"Steinau an der Straße","municipality":{"key":"06435028","name":"Steinau an der Straße, Brüder-Grimm-Stadt","type":"Stadt"},"district":{"key":"06435","name":"Main-Kinzig-Kreis","type":"Landkreis"},"federalState":{"key":"06","name":"Hessen"}},{"name":"Neugasse","postalCode":"36396","locality":"Steinau an der Straße","municipality":{"key":"06435028","name":"Steinau an der Straße, Brüder-Grimm-Stadt","type":"Stadt"},"district":{"key":"06435","name":"Main-Kinzig-Kreis","type":"Landkreis"},"federalState":{"key":"06","name":"Hessen"}},{"name":"Neustaller Weg","postalCode":"36399","locality":"Freiensteinau","municipality":{"key":"06535004","name":"Freiensteinau","type":"Kreisangehörige_Gemeinde"},"district":{"key":"06535","name":"Vogelsbergkreis","type":"Landkreis"},"federalState":{"key":"06","name":"Hessen"}},{"name":"Nieder-Mooser Str.","postalCode":"36399","locality":"Freiensteinau","municipality":{"key":"06535004","name":"Freiensteinau","type":"Kreisangehörige_Gemeinde"},"district":{"key":"06535","name":"Vogelsbergkreis","type":"Landkreis"},"federalState":{"key":"06","name":"Hessen"}},{"name":"Niederzeller Str.","postalCode":"36396","locality":"Steinau an der Straße","municipality":{"key":"06435028","name":"Steinau an der Straße, Brüder-Grimm-Stadt","type":"Stadt"},"district":{"key":"06435","name":"Main-Kinzig-Kreis","type":"Landkreis"},"federalState":{"key":"06","name":"Hessen"}},{"name":"Nordendstr.","postalCode":"36399","locality":"Freiensteinau","municipality":{"key":"06535004","name":"Freiensteinau","type":"Kreisangehörige_Gemeinde"},"district":{"key":"06535","name":"Vogelsbergkreis","type":"Landkreis"},"federalState":{"key":"06","name":"Hessen"}},{"name":"Norderwesterseite","postalCode":"21775","locality":"Steinau","municipality":{"key":"03352051","name":"Steinau","type":"Kreisangehörige_Gemeinde"},"district":{"key":"03352","name":"Cuxhaven","type":"Landkreis"},"federalState":{"key":"03","name":"Niedersachsen"}},{"name":"Nordstr.","postalCode":"36396","locality":"Steinau an der Straße","municipality":{"key":"06435028","name":"Steinau an der Straße, Brüder-Grimm-Stadt","type":"Stadt"},"district":{"key":"06435","name":"Main-Kinzig-Kreis","type":"Landkreis"},"federalState":{"key":"06","name":"Hessen"}},{"name":"Oberdorfstr.","postalCode":"36396","locality":"Steinau an der Straße","municipality":{"key":"06435028","name":"Steinau an der Straße, Brüder-Grimm-Stadt","type":"Stadt"},"district":{"key":"06435","name":"Main-Kinzig-Kreis","type":"Landkreis"},"federalState":{"key":"06","name":"Hessen"}},{"name":"Oberer Brückenweg","postalCode":"36399","locality":"Freiensteinau","municipality":{"key":"06535004","name":"Freiensteinau","type":"Kreisangehörige_Gemeinde"},"district":{"key":"06535","name":"Vogelsbergkreis","type":"Landkreis"},"federalState":{"key":"06","name":"Hessen"}},{"name":"Obergasse","postalCode":"36399","locality":"Freiensteinau","municipality":{"key":"06535004","name":"Freiensteinau","type":"Kreisangehörige_Gemeinde"},"district":{"key":"06535","name":"Vogelsbergkreis","type":"Landkreis"},"federalState":{"key":"06","name":"Hessen"}},{"name":"Ober-Mooser Str.","postalCode":"36399","locality":"Freiensteinau","municipality":{"key":"06535004","name":"Freiensteinau","type":"Kreisangehörige_Gemeinde"},"district":{"key":"06535","name":"Vogelsbergkreis","type":"Landkreis"},"federalState":{"key":"06","name":"Hessen"}},{"name":"Oberulrichsberg","postalCode":"36396","locality":"Steinau an der Straße","municipality":{"key":"06435028","name":"Steinau an der Straße, Brüder-Grimm-Stadt","type":"Stadt"},"district":{"key":"06435","name":"Main-Kinzig-Kreis","type":"Landkreis"},"federalState":{"key":"06","name":"Hessen"}},{"name":"Odenwaldstr.","postalCode":"36396","locality":"Steinau an der Straße","municipality":{"key":"06435028","name":"Steinau an der Straße, Brüder-Grimm-Stadt","type":"Stadt"},"district":{"key":"06435","name":"Main-Kinzig-Kreis","type":"Landkreis"},"federalState":{"key":"06","name":"Hessen"}},{"name":"Ohlstr.","postalCode":"36396","locality":"Steinau an der Straße","municipality":{"key":"06435028","name":"Steinau an der Straße, Brüder-Grimm-Stadt","type":"Stadt"},"district":{"key":"06435","name":"Main-Kinzig-Kreis","type":"Landkreis"},"federalState":{"key":"06","name":"Hessen"}},{"name":"Ostendstr.","postalCode":"36396","locality":"Steinau an der Straße","municipality":{"key":"06435028","name":"Steinau an der Straße, Brüder-Grimm-Stadt","type":"Stadt"},"district":{"key":"06435","name":"Main-Kinzig-Kreis","type":"Landkreis"},"federalState":{"key":"06","name":"Hessen"}},{"name":"Paul-Kuhlmann-Weg","postalCode":"36396","locality":"Steinau an der Straße","municipality":{"key":"06435028","name":"Steinau an der Straße, Brüder-Grimm-Stadt","type":"Stadt"},"district":{"key":"06435","name":"Main-Kinzig-Kreis","type":"Landkreis"},"federalState":{"key":"06","name":"Hessen"}},{"name":"Pfingstbornstr.","postalCode":"36396","locality":"Steinau an der Straße","municipality":{"key":"06435028","name":"Steinau an der Straße, Brüder-Grimm-Stadt","type":"Stadt"},"district":{"key":"06435","name":"Main-Kinzig-Kreis","type":"Landkreis"},"federalState":{"key":"06","name":"Hessen"}},{"name":"Philipp-Reis-Str.","postalCode":"36399","locality":"Freiensteinau","municipality":{"key":"06535004","name":"Freiensteinau","type":"Kreisangehörige_Gemeinde"},"district":{"key":"06535","name":"Vogelsbergkreis","type":"Landkreis"},"federalState":{"key":"06","name":"Hessen"}},{"name":"Platanenweg","postalCode":"36396","locality":"Steinau an der Straße","municipality":{"key":"06435028","name":"Steinau an der Straße, Brüder-Grimm-Stadt","type":"Stadt"},"district":{"key":"06435","name":"Main-Kinzig-Kreis","type":"Landkreis"},"federalState":{"key":"06","name":"Hessen"}},{"name":"Poststr.","postalCode":"36396","locality":"Steinau an der Straße","municipality":{"key":"06435028","name":"Steinau an der Straße, Brüder-Grimm-Stadt","type":"Stadt"},"district":{"key":"06435","name":"Main-Kinzig-Kreis","type":"Landkreis"},"federalState":{"key":"06","name":"Hessen"}},{"name":"Pudelgasse","postalCode":"36399","locality":"Freiensteinau","municipality":{"key":"06535004","name":"Freiensteinau","type":"Kreisangehörige_Gemeinde"},"district":{"key":"06535","name":"Vogelsbergkreis","type":"Landkreis"},"federalState":{"key":"06","name":"Hessen"}},{"name":"Quellenweg","postalCode":"36399","locality":"Freiensteinau","municipality":{"key":"06535004","name":"Freiensteinau","type":"Kreisangehörige_Gemeinde"},"district":{"key":"06535","name":"Vogelsbergkreis","type":"Landkreis"},"federalState":{"key":"06","name":"Hessen"}},{"name":"Quillenweg","postalCode":"36396","locality":"Steinau an der Straße","municipality":{"key":"06435028","name":"Steinau an der Straße, Brüder-Grimm-Stadt","type":"Stadt"},"district":{"key":"06435","name":"Main-Kinzig-Kreis","type":"Landkreis"},"federalState":{"key":"06","name":"Hessen"}},{"name":"Rabensteiner Str.","postalCode":"36396","locality":"Steinau an der Straße","municipality":{"key":"06435028","name":"Steinau an der Straße, Brüder-Grimm-Stadt","type":"Stadt"},"district":{"key":"06435","name":"Main-Kinzig-Kreis","type":"Landkreis"},"federalState":{"key":"06","name":"Hessen"}},{"name":"Radmühler Str.","postalCode":"36396","locality":"Steinau an der Straße","municipality":{"key":"06435028","name":"Steinau an der Straße, Brüder-Grimm-Stadt","type":"Stadt"},"district":{"key":"06435","name":"Main-Kinzig-Kreis","type":"Landkreis"},"federalState":{"key":"06","name":"Hessen"}},{"name":"Radmühler Str.","postalCode":"36399","locality":"Freiensteinau","municipality":{"key":"06535004","name":"Freiensteinau","type":"Kreisangehörige_Gemeinde"},"district":{"key":"06535","name":"Vogelsbergkreis","type":"Landkreis"},"federalState":{"key":"06","name":"Hessen"}},{"name":"Raiffeisenstr.","postalCode":"36396","locality":"Steinau an der Straße","municipality":{"key":"06435028","name":"Steinau an der Straße, Brüder-Grimm-Stadt","type":"Stadt"},"district":{"key":"06435","name":"Main-Kinzig-Kreis","type":"Landkreis"},"federalState":{"key":"06","name":"Hessen"}},{"name":"Raiffeisenstr.","postalCode":"36399","locality":"Freiensteinau","municipality":{"key":"06535004","name":"Freiensteinau","type":"Kreisangehörige_Gemeinde"},"district":{"key":"06535","name":"Vogelsbergkreis","type":"Landkreis"},"federalState":{"key":"06","name":"Hessen"}},{"name":"Rainstr.","postalCode":"36396","locality":"Steinau an der Straße","municipality":{"key":"06435028","name":"Steinau an der Straße, Brüder-Grimm-Stadt","type":"Stadt"},"district":{"key":"06435","name":"Main-Kinzig-Kreis","type":"Landkreis"},"federalState":{"key":"06","name":"Hessen"}},{"name":"Rebsdorfer Str.","postalCode":"36399","locality":"Freiensteinau","municipality":{"key":"06535004","name":"Freiensteinau","type":"Kreisangehörige_Gemeinde"},"district":{"key":"06535","name":"Vogelsbergkreis","type":"Landkreis"},"federalState":{"key":"06","name":"Hessen"}},{"name":"Reichloser Str.","postalCode":"36399","locality":"Freiensteinau","municipality":{"key":"06535004","name":"Freiensteinau","type":"Kreisangehörige_Gemeinde"},"district":{"key":"06535","name":"Vogelsbergkreis","type":"Landkreis"},"federalState":{"key":"06","name":"Hessen"}},{"name":"Rhönblick","postalCode":"36396","locality":"Steinau an der Straße","municipality":{"key":"06435028","name":"Steinau an der Straße, Brüder-Grimm-Stadt","type":"Stadt"},"district":{"key":"06435","name":"Main-Kinzig-Kreis","type":"Landkreis"},"federalState":{"key":"06","name":"Hessen"}},{"name":"Rhönstr.","postalCode":"36396","locality":"Steinau an der Straße","municipality":{"key":"06435028","name":"Steinau an der Straße, Brüder-Grimm-Stadt","type":"Stadt"},"district":{"key":"06435","name":"Main-Kinzig-Kreis","type":"Landkreis"},"federalState":{"key":"06","name":"Hessen"}},{"name":"Rhönstr.","postalCode":"36399","locality":"Freiensteinau","municipality":{"key":"06535004","name":"Freiensteinau","type":"Kreisangehörige_Gemeinde"},"district":{"key":"06535","name":"Vogelsbergkreis","type":"Landkreis"},"federalState":{"key":"06","name":"Hessen"}},{"name":"Richard-Wagner-Str.","postalCode":"36396","locality":"Steinau an der Straße","municipality":{"key":"06435028","name":"Steinau an der Straße, Brüder-Grimm-Stadt","type":"Stadt"},"district":{"key":"06435","name":"Main-Kinzig-Kreis","type":"Landkreis"},"federalState":{"key":"06","name":"Hessen"}},{"name":"Riedackerweg","postalCode":"36396","locality":"Steinau an der Straße","municipality":{"key":"06435028","name":"Steinau an der Straße, Brüder-Grimm-Stadt","type":"Stadt"},"district":{"key":"06435","name":"Main-Kinzig-Kreis","type":"Landkreis"},"federalState":{"key":"06","name":"Hessen"}},{"name":"Ringstr.","postalCode":"36396","locality":"Steinau an der Straße","municipality":{"key":"06435028","name":"Steinau an der Straße, Brüder-Grimm-Stadt","type":"Stadt"},"district":{"key":"06435","name":"Main-Kinzig-Kreis","type":"Landkreis"},"federalState":{"key":"06","name":"Hessen"}},{"name":"Ringstr.","postalCode":"36399","locality":"Freiensteinau","municipality":{"key":"06535004","name":"Freiensteinau","type":"Kreisangehörige_Gemeinde"},"district":{"key":"06535","name":"Vogelsbergkreis","type":"Landkreis"},"federalState":{"key":"06","name":"Hessen"}},{"name":"Ringweg","postalCode":"36396","locality":"Steinau an der Straße","municipality":{"key":"06435028","name":"Steinau an der Straße, Brüder-Grimm-Stadt","type":"Stadt"},"district":{"key":"06435","name":"Main-Kinzig-Kreis","type":"Landkreis"},"federalState":{"key":"06","name":"Hessen"}},{"name":"Röckwiesenweg","postalCode":"36399","locality":"Freiensteinau","municipality":{"key":"06535004","name":"Freiensteinau","type":"Kreisangehörige_Gemeinde"},"district":{"key":"06535","name":"Vogelsbergkreis","type":"Landkreis"},"federalState":{"key":"06","name":"Hessen"}},{"name":"Romsthaler Str.","postalCode":"36396","locality":"Steinau an der Straße","municipality":{"key":"06435028","name":"Steinau an der Straße, Brüder-Grimm-Stadt","type":"Stadt"},"district":{"key":"06435","name":"Main-Kinzig-Kreis","type":"Landkreis"},"federalState":{"key":"06","name":"Hessen"}},{"name":"Rosenellerweg","postalCode":"36396","locality":"Steinau an der Straße","municipality":{"key":"06435028","name":"Steinau an der Straße, Brüder-Grimm-Stadt","type":"Stadt"},"district":{"key":"06435","name":"Main-Kinzig-Kreis","type":"Landkreis"},"federalState":{"key":"06","name":"Hessen"}},{"name":"Rotdornweg","postalCode":"36396","locality":"Steinau an der Straße","municipality":{"key":"06435028","name":"Steinau an der Straße, Brüder-Grimm-Stadt","type":"Stadt"},"district":{"key":"06435","name":"Main-Kinzig-Kreis","type":"Landkreis"},"federalState":{"key":"06","name":"Hessen"}},{"name":"Rue de Tourouvre","postalCode":"36399","locality":"Freiensteinau","municipality":{"key":"06535004","name":"Freiensteinau","type":"Kreisangehörige_Gemeinde"},"district":{"key":"06535","name":"Vogelsbergkreis","type":"Landkreis"},"federalState":{"key":"06","name":"Hessen"}},{"name":"Rüllweg","postalCode":"36396","locality":"Steinau an der Straße","municipality":{"key":"06435028","name":"Steinau an der Straße, Brüder-Grimm-Stadt","type":"Stadt"},"district":{"key":"06435","name":"Main-Kinzig-Kreis","type":"Landkreis"},"federalState":{"key":"06","name":"Hessen"}},{"name":"Sachsenstr.","postalCode":"36396","locality":"Steinau an der Straße","municipality":{"key":"06435028","name":"Steinau an der Straße, Brüder-Grimm-Stadt","type":"Stadt"},"district":{"key":"06435","name":"Main-Kinzig-Kreis","type":"Landkreis"},"federalState":{"key":"06","name":"Hessen"}},{"name":"Sackgasse","postalCode":"36399","locality":"Freiensteinau","municipality":{"key":"06535004","name":"Freiensteinau","type":"Kreisangehörige_Gemeinde"},"district":{"key":"06535","name":"Vogelsbergkreis","type":"Landkreis"},"federalState":{"key":"06","name":"Hessen"}},{"name":"Salzbachstr.","postalCode":"36399","locality":"Freiensteinau","municipality":{"key":"06535004","name":"Freiensteinau","type":"Kreisangehörige_Gemeinde"},"district":{"key":"06535","name":"Vogelsbergkreis","type":"Landkreis"},"federalState":{"key":"06","name":"Hessen"}},{"name":"Salzer Str.","postalCode":"36399","locality":"Freiensteinau","municipality":{"key":"06535004","name":"Freiensteinau","type":"Kreisangehörige_Gemeinde"},"district":{"key":"06535","name":"Vogelsbergkreis","type":"Landkreis"},"federalState":{"key":"06","name":"Hessen"}},{"name":"Salztalstr.","postalCode":"36396","locality":"Steinau an der Straße","municipality":{"key":"06435028","name":"Steinau an der Straße, Brüder-Grimm-Stadt","type":"Stadt"},"district":{"key":"06435","name":"Main-Kinzig-Kreis","type":"Landkreis"},"federalState":{"key":"06","name":"Hessen"}},{"name":"Salztalstr.","postalCode":"36399","locality":"Freiensteinau","municipality":{"key":"06535004","name":"Freiensteinau","type":"Kreisangehörige_Gemeinde"},"district":{"key":"06535","name":"Vogelsbergkreis","type":"Landkreis"},"federalState":{"key":"06","name":"Hessen"}},{"name":"Sandstr.","postalCode":"36396","locality":"Steinau an der Straße","municipality":{"key":"06435028","name":"Steinau an der Straße, Brüder-Grimm-Stadt","type":"Stadt"},"district":{"key":"06435","name":"Main-Kinzig-Kreis","type":"Landkreis"},"federalState":{"key":"06","name":"Hessen"}},{"name":"Sarroder Str.","postalCode":"36396","locality":"Steinau an der Straße","municipality":{"key":"06435028","name":"Steinau an der Straße, Brüder-Grimm-Stadt","type":"Stadt"},"district":{"key":"06435","name":"Main-Kinzig-Kreis","type":"Landkreis"},"federalState":{"key":"06","name":"Hessen"}},{"name":"Schäfersgarten","postalCode":"36399","locality":"Freiensteinau","municipality":{"key":"06535004","name":"Freiensteinau","type":"Kreisangehörige_Gemeinde"},"district":{"key":"06535","name":"Vogelsbergkreis","type":"Landkreis"},"federalState":{"key":"06","name":"Hessen"}},{"name":"Schäfersgasse","postalCode":"36396","locality":"Steinau an der Straße","municipality":{"key":"06435028","name":"Steinau an der Straße, Brüder-Grimm-Stadt","type":"Stadt"},"district":{"key":"06435","name":"Main-Kinzig-Kreis","type":"Landkreis"},"federalState":{"key":"06","name":"Hessen"}},{"name":"Scheuerwaldstr.","postalCode":"36399","locality":"Freiensteinau","municipality":{"key":"06535004","name":"Freiensteinau","type":"Kreisangehörige_Gemeinde"},"district":{"key":"06535","name":"Vogelsbergkreis","type":"Landkreis"},"federalState":{"key":"06","name":"Hessen"}},{"name":"Schlehenweg","postalCode":"36396","locality":"Steinau an der Straße","municipality":{"key":"06435028","name":"Steinau an der Straße, Brüder-Grimm-Stadt","type":"Stadt"},"district":{"key":"06435","name":"Main-Kinzig-Kreis","type":"Landkreis"},"federalState":{"key":"06","name":"Hessen"}},{"name":"Schloßstr.","postalCode":"36396","locality":"Steinau an der Straße","municipality":{"key":"06435028","name":"Steinau an der Straße, Brüder-Grimm-Stadt","type":"Stadt"},"district":{"key":"06435","name":"Main-Kinzig-Kreis","type":"Landkreis"},"federalState":{"key":"06","name":"Hessen"}},{"name":"Schlüchterner Str.","postalCode":"36396","locality":"Steinau an der Straße","municipality":{"key":"06435028","name":"Steinau an der Straße, Brüder-Grimm-Stadt","type":"Stadt"},"district":{"key":"06435","name":"Main-Kinzig-Kreis","type":"Landkreis"},"federalState":{"key":"06","name":"Hessen"}},{"name":"Schmidtmühle","postalCode":"36396","locality":"Steinau an der Straße","municipality":{"key":"06435028","name":"Steinau an der Straße, Brüder-Grimm-Stadt","type":"Stadt"},"district":{"key":"06435","name":"Main-Kinzig-Kreis","type":"Landkreis"},"federalState":{"key":"06","name":"Hessen"}},{"name":"Schöne Aussicht","postalCode":"36396","locality":"Steinau an der Straße","municipality":{"key":"06435028","name":"Steinau an der Straße, Brüder-Grimm-Stadt","type":"Stadt"},"district":{"key":"06435","name":"Main-Kinzig-Kreis","type":"Landkreis"},"federalState":{"key":"06","name":"Hessen"}},{"name":"Schreinergasse","postalCode":"36399","locality":"Freiensteinau","municipality":{"key":"06535004","name":"Freiensteinau","type":"Kreisangehörige_Gemeinde"},"district":{"key":"06535","name":"Vogelsbergkreis","type":"Landkreis"},"federalState":{"key":"06","name":"Hessen"}},{"name":"Schubertstr.","postalCode":"36396","locality":"Steinau an der Straße","municipality":{"key":"06435028","name":"Steinau an der Straße, Brüder-Grimm-Stadt","type":"Stadt"},"district":{"key":"06435","name":"Main-Kinzig-Kreis","type":"Landkreis"},"federalState":{"key":"06","name":"Hessen"}},{"name":"Schulstr.","postalCode":"36396","locality":"Steinau an der Straße","municipality":{"key":"06435028","name":"Steinau an der Straße, Brüder-Grimm-Stadt","type":"Stadt"},"district":{"key":"06435","name":"Main-Kinzig-Kreis","type":"Landkreis"},"federalState":{"key":"06","name":"Hessen"}},{"name":"Schützenstr.","postalCode":"36399","locality":"Freiensteinau","municipality":{"key":"06535004","name":"Freiensteinau","type":"Kreisangehörige_Gemeinde"},"district":{"key":"06535","name":"Vogelsbergkreis","type":"Landkreis"},"federalState":{"key":"06","name":"Hessen"}},{"name":"Schwalbenstr.","postalCode":"36396","locality":"Steinau an der Straße","municipality":{"key":"06435028","name":"Steinau an der Straße, Brüder-Grimm-Stadt","type":"Stadt"},"district":{"key":"06435","name":"Main-Kinzig-Kreis","type":"Landkreis"},"federalState":{"key":"06","name":"Hessen"}},{"name":"Schwanenhalle","postalCode":"36396","locality":"Steinau an der Straße","municipality":{"key":"06435028","name":"Steinau an der Straße, Brüder-Grimm-Stadt","type":"Stadt"},"district":{"key":"06435","name":"Main-Kinzig-Kreis","type":"Landkreis"},"federalState":{"key":"06","name":"Hessen"}},{"name":"Schwarze Rolle","postalCode":"36396","locality":"Steinau an der Straße","municipality":{"key":"06435028","name":"Steinau an der Straße, Brüder-Grimm-Stadt","type":"Stadt"},"district":{"key":"06435","name":"Main-Kinzig-Kreis","type":"Landkreis"},"federalState":{"key":"06","name":"Hessen"}},{"name":"Schwarzwaldstr.","postalCode":"36396","locality":"Steinau an der Straße","municipality":{"key":"06435028","name":"Steinau an der Straße, Brüder-Grimm-Stadt","type":"Stadt"},"district":{"key":"06435","name":"Main-Kinzig-Kreis","type":"Landkreis"},"federalState":{"key":"06","name":"Hessen"}},{"name":"Sebertsweg","postalCode":"36396","locality":"Steinau an der Straße","municipality":{"key":"06435028","name":"Steinau an der Straße, Brüder-Grimm-Stadt","type":"Stadt"},"district":{"key":"06435","name":"Main-Kinzig-Kreis","type":"Landkreis"},"federalState":{"key":"06","name":"Hessen"}},{"name":"Seeblick","postalCode":"36399","locality":"Freiensteinau","municipality":{"key":"06535004","name":"Freiensteinau","type":"Kreisangehörige_Gemeinde"},"district":{"key":"06535","name":"Vogelsbergkreis","type":"Landkreis"},"federalState":{"key":"06","name":"Hessen"}},{"name":"Seestr.","postalCode":"36399","locality":"Freiensteinau","municipality":{"key":"06535004","name":"Freiensteinau","type":"Kreisangehörige_Gemeinde"},"district":{"key":"06535","name":"Vogelsbergkreis","type":"Landkreis"},"federalState":{"key":"06","name":"Hessen"}},{"name":"Seidenröther Str.","postalCode":"36396","locality":"Steinau an der Straße","municipality":{"key":"06435028","name":"Steinau an der Straße, Brüder-Grimm-Stadt","type":"Stadt"},"district":{"key":"06435","name":"Main-Kinzig-Kreis","type":"Landkreis"},"federalState":{"key":"06","name":"Hessen"}},{"name":"Sennelsbachweg","postalCode":"36396","locality":"Steinau an der Straße","municipality":{"key":"06435028","name":"Steinau an der Straße, Brüder-Grimm-Stadt","type":"Stadt"},"district":{"key":"06435","name":"Main-Kinzig-Kreis","type":"Landkreis"},"federalState":{"key":"06","name":"Hessen"}},{"name":"Siedlung","postalCode":"36396","locality":"Steinau an der Straße","municipality":{"key":"06435028","name":"Steinau an der Straße, Brüder-Grimm-Stadt","type":"Stadt"},"district":{"key":"06435","name":"Main-Kinzig-Kreis","type":"Landkreis"},"federalState":{"key":"06","name":"Hessen"}},{"name":"Siedlungsstr.","postalCode":"36399","locality":"Freiensteinau","municipality":{"key":"06535004","name":"Freiensteinau","type":"Kreisangehörige_Gemeinde"},"district":{"key":"06535","name":"Vogelsbergkreis","type":"Landkreis"},"federalState":{"key":"06","name":"Hessen"}},{"name":"Siedlungsweg","postalCode":"36396","locality":"Steinau an der Straße","municipality":{"key":"06435028","name":"Steinau an der Straße, Brüder-Grimm-Stadt","type":"Stadt"},"district":{"key":"06435","name":"Main-Kinzig-Kreis","type":"Landkreis"},"federalState":{"key":"06","name":"Hessen"}},{"name":"Sodener Weg","postalCode":"36396","locality":"Steinau an der Straße","municipality":{"key":"06435028","name":"Steinau an der Straße, Brüder-Grimm-Stadt","type":"Stadt"},"district":{"key":"06435","name":"Main-Kinzig-Kreis","type":"Landkreis"},"federalState":{"key":"06","name":"Hessen"}},{"name":"Sonnabendweg","postalCode":"36396","locality":"Steinau an der Straße","municipality":{"key":"06435028","name":"Steinau an der Straße, Brüder-Grimm-Stadt","type":"Stadt"},"district":{"key":"06435","name":"Main-Kinzig-Kreis","type":"Landkreis"},"federalState":{"key":"06","name":"Hessen"}},{"name":"Sonnenleite","postalCode":"36396","locality":"Steinau an der Straße","municipality":{"key":"06435028","name":"Steinau an der Straße, Brüder-Grimm-Stadt","type":"Stadt"},"district":{"key":"06435","name":"Main-Kinzig-Kreis","type":"Landkreis"},"federalState":{"key":"06","name":"Hessen"}},{"name":"Sonnenweg","postalCode":"36396","locality":"Steinau an der Straße","municipality":{"key":"06435028","name":"Steinau an der Straße, Brüder-Grimm-Stadt","type":"Stadt"},"district":{"key":"06435","name":"Main-Kinzig-Kreis","type":"Landkreis"},"federalState":{"key":"06","name":"Hessen"}},{"name":"Spessartblick","postalCode":"36396","locality":"Steinau an der Straße","municipality":{"key":"06435028","name":"Steinau an der Straße, Brüder-Grimm-Stadt","type":"Stadt"},"district":{"key":"06435","name":"Main-Kinzig-Kreis","type":"Landkreis"},"federalState":{"key":"06","name":"Hessen"}},{"name":"Spessart-Höhenstr.","postalCode":"36396","locality":"Steinau an der Straße","municipality":{"key":"06435028","name":"Steinau an der Straße, Brüder-Grimm-Stadt","type":"Stadt"},"district":{"key":"06435","name":"Main-Kinzig-Kreis","type":"Landkreis"},"federalState":{"key":"06","name":"Hessen"}},{"name":"Spessartring","postalCode":"36396","locality":"Steinau an der Straße","municipality":{"key":"06435028","name":"Steinau an der Straße, Brüder-Grimm-Stadt","type":"Stadt"},"district":{"key":"06435","name":"Main-Kinzig-Kreis","type":"Landkreis"},"federalState":{"key":"06","name":"Hessen"}},{"name":"Spessartstr.","postalCode":"36396","locality":"Steinau an der Straße","municipality":{"key":"06435028","name":"Steinau an der Straße, Brüder-Grimm-Stadt","type":"Stadt"},"district":{"key":"06435","name":"Main-Kinzig-Kreis","type":"Landkreis"},"federalState":{"key":"06","name":"Hessen"}},{"name":"Spessartstr.","postalCode":"36399","locality":"Freiensteinau","municipality":{"key":"06535004","name":"Freiensteinau","type":"Kreisangehörige_Gemeinde"},"district":{"key":"06535","name":"Vogelsbergkreis","type":"Landkreis"},"federalState":{"key":"06","name":"Hessen"}},{"name":"Sportplatzweg","postalCode":"36396","locality":"Steinau an der Straße","municipality":{"key":"06435028","name":"Steinau an der Straße, Brüder-Grimm-Stadt","type":"Stadt"},"district":{"key":"06435","name":"Main-Kinzig-Kreis","type":"Landkreis"},"federalState":{"key":"06","name":"Hessen"}},{"name":"Stadtborngasse","postalCode":"36396","locality":"Steinau an der Straße","municipality":{"key":"06435028","name":"Steinau an der Straße, Brüder-Grimm-Stadt","type":"Stadt"},"district":{"key":"06435","name":"Main-Kinzig-Kreis","type":"Landkreis"},"federalState":{"key":"06","name":"Hessen"}},{"name":"Steinauer Str.","postalCode":"36396","locality":"Steinau an der Straße","municipality":{"key":"06435028","name":"Steinau an der Straße, Brüder-Grimm-Stadt","type":"Stadt"},"district":{"key":"06435","name":"Main-Kinzig-Kreis","type":"Landkreis"},"federalState":{"key":"06","name":"Hessen"}},{"name":"Steinauer Str.","postalCode":"36399","locality":"Freiensteinau","municipality":{"key":"06535004","name":"Freiensteinau","type":"Kreisangehörige_Gemeinde"},"district":{"key":"06535","name":"Vogelsbergkreis","type":"Landkreis"},"federalState":{"key":"06","name":"Hessen"}},{"name":"Steinbergstr.","postalCode":"36399","locality":"Freiensteinau","municipality":{"key":"06535004","name":"Freiensteinau","type":"Kreisangehörige_Gemeinde"},"district":{"key":"06535","name":"Vogelsbergkreis","type":"Landkreis"},"federalState":{"key":"06","name":"Hessen"}},{"name":"Steingasse","postalCode":"36399","locality":"Freiensteinau","municipality":{"key":"06535004","name":"Freiensteinau","type":"Kreisangehörige_Gemeinde"},"district":{"key":"06535","name":"Vogelsbergkreis","type":"Landkreis"},"federalState":{"key":"06","name":"Hessen"}},{"name":"Stockweg","postalCode":"36396","locality":"Steinau an der Straße","municipality":{"key":"06435028","name":"Steinau an der Straße, Brüder-Grimm-Stadt","type":"Stadt"},"district":{"key":"06435","name":"Main-Kinzig-Kreis","type":"Landkreis"},"federalState":{"key":"06","name":"Hessen"}},{"name":"Stollmühlweg","postalCode":"36399","locality":"Freiensteinau","municipality":{"key":"06535004","name":"Freiensteinau","type":"Kreisangehörige_Gemeinde"},"district":{"key":"06535","name":"Vogelsbergkreis","type":"Landkreis"},"federalState":{"key":"06","name":"Hessen"}},{"name":"Stubbachweg","postalCode":"36396","locality":"Steinau an der Straße","municipality":{"key":"06435028","name":"Steinau an der Straße, Brüder-Grimm-Stadt","type":"Stadt"},"district":{"key":"06435","name":"Main-Kinzig-Kreis","type":"Landkreis"},"federalState":{"key":"06","name":"Hessen"}},{"name":"Talstr.","postalCode":"36396","locality":"Steinau an der Straße","municipality":{"key":"06435028","name":"Steinau an der Straße, Brüder-Grimm-Stadt","type":"Stadt"},"district":{"key":"06435","name":"Main-Kinzig-Kreis","type":"Landkreis"},"federalState":{"key":"06","name":"Hessen"}},{"name":"Tannenweg","postalCode":"36396","locality":"Steinau an der Straße","municipality":{"key":"06435028","name":"Steinau an der Straße, Brüder-Grimm-Stadt","type":"Stadt"},"district":{"key":"06435","name":"Main-Kinzig-Kreis","type":"Landkreis"},"federalState":{"key":"06","name":"Hessen"}},{"name":"Taubenweg","postalCode":"36396","locality":"Steinau an der Straße","municipality":{"key":"06435028","name":"Steinau an der Straße, Brüder-Grimm-Stadt","type":"Stadt"},"district":{"key":"06435","name":"Main-Kinzig-Kreis","type":"Landkreis"},"federalState":{"key":"06","name":"Hessen"}},{"name":"Taunusstr.","postalCode":"36396","locality":"Steinau an der Straße","municipality":{"key":"06435028","name":"Steinau an der Straße, Brüder-Grimm-Stadt","type":"Stadt"},"district":{"key":"06435","name":"Main-Kinzig-Kreis","type":"Landkreis"},"federalState":{"key":"06","name":"Hessen"}},{"name":"Töpferweg","postalCode":"36396","locality":"Steinau an der Straße","municipality":{"key":"06435028","name":"Steinau an der Straße, Brüder-Grimm-Stadt","type":"Stadt"},"district":{"key":"06435","name":"Main-Kinzig-Kreis","type":"Landkreis"},"federalState":{"key":"06","name":"Hessen"}},{"name":"Torweg","postalCode":"36396","locality":"Steinau an der Straße","municipality":{"key":"06435028","name":"Steinau an der Straße, Brüder-Grimm-Stadt","type":"Stadt"},"district":{"key":"06435","name":"Main-Kinzig-Kreis","type":"Landkreis"},"federalState":{"key":"06","name":"Hessen"}},{"name":"Tulpenweg","postalCode":"36396","locality":"Steinau an der Straße","municipality":{"key":"06435028","name":"Steinau an der Straße, Brüder-Grimm-Stadt","type":"Stadt"},"district":{"key":"06435","name":"Main-Kinzig-Kreis","type":"Landkreis"},"federalState":{"key":"06","name":"Hessen"}},{"name":"Turmstr.","postalCode":"36396","locality":"Steinau an der Straße","municipality":{"key":"06435028","name":"Steinau an der Straße, Brüder-Grimm-Stadt","type":"Stadt"},"district":{"key":"06435","name":"Main-Kinzig-Kreis","type":"Landkreis"},"federalState":{"key":"06","name":"Hessen"}},{"name":"Uerzeller Str.","postalCode":"36396","locality":"Steinau an der Straße","municipality":{"key":"06435028","name":"Steinau an der Straße, Brüder-Grimm-Stadt","type":"Stadt"},"district":{"key":"06435","name":"Main-Kinzig-Kreis","type":"Landkreis"},"federalState":{"key":"06","name":"Hessen"}},{"name":"Ulmbacher Str.","postalCode":"36396","locality":"Steinau an der Straße","municipality":{"key":"06435028","name":"Steinau an der Straße, Brüder-Grimm-Stadt","type":"Stadt"},"district":{"key":"06435","name":"Main-Kinzig-Kreis","type":"Landkreis"},"federalState":{"key":"06","name":"Hessen"}},{"name":"Ulmbacher Str.","postalCode":"36399","locality":"Freiensteinau","municipality":{"key":"06535004","name":"Freiensteinau","type":"Kreisangehörige_Gemeinde"},"district":{"key":"06535","name":"Vogelsbergkreis","type":"Landkreis"},"federalState":{"key":"06","name":"Hessen"}},{"name":"Ulmbacher Weg","postalCode":"36396","locality":"Steinau an der Straße","municipality":{"key":"06435028","name":"Steinau an der Straße, Brüder-Grimm-Stadt","type":"Stadt"},"district":{"key":"06435","name":"Main-Kinzig-Kreis","type":"Landkreis"},"federalState":{"key":"06","name":"Hessen"}},{"name":"Ulmenstr.","postalCode":"36396","locality":"Steinau an der Straße","municipality":{"key":"06435028","name":"Steinau an der Straße, Brüder-Grimm-Stadt","type":"Stadt"},"district":{"key":"06435","name":"Main-Kinzig-Kreis","type":"Landkreis"},"federalState":{"key":"06","name":"Hessen"}},{"name":"Unterer Brückenweg","postalCode":"36399","locality":"Freiensteinau","municipality":{"key":"06535004","name":"Freiensteinau","type":"Kreisangehörige_Gemeinde"},"district":{"key":"06535","name":"Vogelsbergkreis","type":"Landkreis"},"federalState":{"key":"06","name":"Hessen"}},{"name":"Untergasse","postalCode":"36396","locality":"Steinau an der Straße","municipality":{"key":"06435028","name":"Steinau an der Straße, Brüder-Grimm-Stadt","type":"Stadt"},"district":{"key":"06435","name":"Main-Kinzig-Kreis","type":"Landkreis"},"federalState":{"key":"06","name":"Hessen"}},{"name":"Untergasse","postalCode":"36399","locality":"Freiensteinau","municipality":{"key":"06535004","name":"Freiensteinau","type":"Kreisangehörige_Gemeinde"},"district":{"key":"06535","name":"Vogelsbergkreis","type":"Landkreis"},"federalState":{"key":"06","name":"Hessen"}},{"name":"Untermühle","postalCode":"36399","locality":"Freiensteinau","municipality":{"key":"06535004","name":"Freiensteinau","type":"Kreisangehörige_Gemeinde"},"district":{"key":"06535","name":"Vogelsbergkreis","type":"Landkreis"},"federalState":{"key":"06","name":"Hessen"}},{"name":"Unterulrichsberg","postalCode":"36396","locality":"Steinau an der Straße","municipality":{"key":"06435028","name":"Steinau an der Straße, Brüder-Grimm-Stadt","type":"Stadt"},"district":{"key":"06435","name":"Main-Kinzig-Kreis","type":"Landkreis"},"federalState":{"key":"06","name":"Hessen"}},{"name":"Uphusen","postalCode":"21775","locality":"Steinau","municipality":{"key":"03352051","name":"Steinau","type":"Kreisangehörige_Gemeinde"},"district":{"key":"03352","name":"Cuxhaven","type":"Landkreis"},"federalState":{"key":"03","name":"Niedersachsen"}},{"name":"Viehhof","postalCode":"36396","locality":"Steinau an der Straße","municipality":{"key":"06435028","name":"Steinau an der Straße, Brüder-Grimm-Stadt","type":"Stadt"},"district":{"key":"06435","name":"Main-Kinzig-Kreis","type":"Landkreis"},"federalState":{"key":"06","name":"Hessen"}},{"name":"Vogelsberger Str.","postalCode":"36396","locality":"Steinau an der Straße","municipality":{"key":"06435028","name":"Steinau an der Straße, Brüder-Grimm-Stadt","type":"Stadt"},"district":{"key":"06435","name":"Main-Kinzig-Kreis","type":"Landkreis"},"federalState":{"key":"06","name":"Hessen"}},{"name":"Vogelsbergstr.","postalCode":"36399","locality":"Freiensteinau","municipality":{"key":"06535004","name":"Freiensteinau","type":"Kreisangehörige_Gemeinde"},"district":{"key":"06535","name":"Vogelsbergkreis","type":"Landkreis"},"federalState":{"key":"06","name":"Hessen"}},{"name":"Von-Mörle-Str.","postalCode":"36396","locality":"Steinau an der Straße","municipality":{"key":"06435028","name":"Steinau an der Straße, Brüder-Grimm-Stadt","type":"Stadt"},"district":{"key":"06435","name":"Main-Kinzig-Kreis","type":"Landkreis"},"federalState":{"key":"06","name":"Hessen"}},{"name":"Von-Welsberg-Str.","postalCode":"36396","locality":"Steinau an der Straße","municipality":{"key":"06435028","name":"Steinau an der Straße, Brüder-Grimm-Stadt","type":"Stadt"},"district":{"key":"06435","name":"Main-Kinzig-Kreis","type":"Landkreis"},"federalState":{"key":"06","name":"Hessen"}},{"name":"Vor der Höhe","postalCode":"36396","locality":"Steinau an der Straße","municipality":{"key":"06435028","name":"Steinau an der Straße, Brüder-Grimm-Stadt","type":"Stadt"},"district":{"key":"06435","name":"Main-Kinzig-Kreis","type":"Landkreis"},"federalState":{"key":"06","name":"Hessen"}},{"name":"v. Welsbergstr.","postalCode":"36396","locality":"Steinau an der Straße","municipality":{"key":"06435028","name":"Steinau an der Straße, Brüder-Grimm-Stadt","type":"Stadt"},"district":{"key":"06435","name":"Main-Kinzig-Kreis","type":"Landkreis"},"federalState":{"key":"06","name":"Hessen"}},{"name":"Wächtersbacher Str.","postalCode":"36399","locality":"Freiensteinau","municipality":{"key":"06535004","name":"Freiensteinau","type":"Kreisangehörige_Gemeinde"},"district":{"key":"06535","name":"Vogelsbergkreis","type":"Landkreis"},"federalState":{"key":"06","name":"Hessen"}},{"name":"Waldarbeitersiedlung","postalCode":"36396","locality":"Steinau an der Straße","municipality":{"key":"06435028","name":"Steinau an der Straße, Brüder-Grimm-Stadt","type":"Stadt"},"district":{"key":"06435","name":"Main-Kinzig-Kreis","type":"Landkreis"},"federalState":{"key":"06","name":"Hessen"}},{"name":"Waldstr.","postalCode":"36396","locality":"Steinau an der Straße","municipality":{"key":"06435028","name":"Steinau an der Straße, Brüder-Grimm-Stadt","type":"Stadt"},"district":{"key":"06435","name":"Main-Kinzig-Kreis","type":"Landkreis"},"federalState":{"key":"06","name":"Hessen"}},{"name":"Weidenauer Str.","postalCode":"36399","locality":"Freiensteinau","municipality":{"key":"06535004","name":"Freiensteinau","type":"Kreisangehörige_Gemeinde"},"district":{"key":"06535","name":"Vogelsbergkreis","type":"Landkreis"},"federalState":{"key":"06","name":"Hessen"}},{"name":"Weidigsweg","postalCode":"36399","locality":"Freiensteinau","municipality":{"key":"06535004","name":"Freiensteinau","type":"Kreisangehörige_Gemeinde"},"district":{"key":"06535","name":"Vogelsbergkreis","type":"Landkreis"},"federalState":{"key":"06","name":"Hessen"}},{"name":"Weiherstr.","postalCode":"36399","locality":"Freiensteinau","municipality":{"key":"06535004","name":"Freiensteinau","type":"Kreisangehörige_Gemeinde"},"district":{"key":"06535","name":"Vogelsbergkreis","type":"Landkreis"},"federalState":{"key":"06","name":"Hessen"}},{"name":"Weinbergstr.","postalCode":"36396","locality":"Steinau an der Straße","municipality":{"key":"06435028","name":"Steinau an der Straße, Brüder-Grimm-Stadt","type":"Stadt"},"district":{"key":"06435","name":"Main-Kinzig-Kreis","type":"Landkreis"},"federalState":{"key":"06","name":"Hessen"}},{"name":"Weinstr.","postalCode":"36399","locality":"Freiensteinau","municipality":{"key":"06535004","name":"Freiensteinau","type":"Kreisangehörige_Gemeinde"},"district":{"key":"06535","name":"Vogelsbergkreis","type":"Landkreis"},"federalState":{"key":"06","name":"Hessen"}},{"name":"Wiesenweg","postalCode":"36396","locality":"Steinau an der Straße","municipality":{"key":"06435028","name":"Steinau an der Straße, Brüder-Grimm-Stadt","type":"Stadt"},"district":{"key":"06435","name":"Main-Kinzig-Kreis","type":"Landkreis"},"federalState":{"key":"06","name":"Hessen"}},{"name":"Wilhelm-Bode-Str.","postalCode":"36396","locality":"Steinau an der Straße","municipality":{"key":"06435028","name":"Steinau an der Straße, Brüder-Grimm-Stadt","type":"Stadt"},"district":{"key":"06435","name":"Main-Kinzig-Kreis","type":"Landkreis"},"federalState":{"key":"06","name":"Hessen"}},{"name":"Wilhelm-Ruppel-Str.","postalCode":"36396","locality":"Steinau an der Straße","municipality":{"key":"06435028","name":"Steinau an der Straße, Brüder-Grimm-Stadt","type":"Stadt"},"district":{"key":"06435","name":"Main-Kinzig-Kreis","type":"Landkreis"},"federalState":{"key":"06","name":"Hessen"}},{"name":"Wochenendweg","postalCode":"36396","locality":"Steinau an der Straße","municipality":{"key":"06435028","name":"Steinau an der Straße, Brüder-Grimm-Stadt","type":"Stadt"},"district":{"key":"06435","name":"Main-Kinzig-Kreis","type":"Landkreis"},"federalState":{"key":"06","name":"Hessen"}},{"name":"Wolfgang-Reinisch-Str.","postalCode":"36396","locality":"Steinau an der Straße","municipality":{"key":"06435028","name":"Steinau an der Straße, Brüder-Grimm-Stadt","type":"Stadt"},"district":{"key":"06435","name":"Main-Kinzig-Kreis","type":"Landkreis"},"federalState":{"key":"06","name":"Hessen"}},{"name":"Wöllbachsweg","postalCode":"36399","locality":"Freiensteinau","municipality":{"key":"06535004","name":"Freiensteinau","type":"Kreisangehörige_Gemeinde"},"district":{"key":"06535","name":"Vogelsbergkreis","type":"Landkreis"},"federalState":{"key":"06","name":"Hessen"}},{"name":"Zenthofstr.","postalCode":"36396","locality":"Steinau an der Straße","municipality":{"key":"06435028","name":"Steinau an der Straße, Brüder-Grimm-Stadt","type":"Stadt"},"district":{"key":"06435","name":"Main-Kinzig-Kreis","type":"Landkreis"},"federalState":{"key":"06","name":"Hessen"}},{"name":"Ziegelgasse","postalCode":"36396","locality":"Steinau an der Straße","municipality":{"key":"06435028","name":"Steinau an der Straße, Brüder-Grimm-Stadt","type":"Stadt"},"district":{"key":"06435","name":"Main-Kinzig-Kreis","type":"Landkreis"},"federalState":{"key":"06","name":"Hessen"}},{"name":"Zum Baumgarten","postalCode":"36399","locality":"Freiensteinau","municipality":{"key":"06535004","name":"Freiensteinau","type":"Kreisangehörige_Gemeinde"},"district":{"key":"06535","name":"Vogelsbergkreis","type":"Landkreis"},"federalState":{"key":"06","name":"Hessen"}},{"name":"Zum Diez","postalCode":"36399","locality":"Freiensteinau","municipality":{"key":"06535004","name":"Freiensteinau","type":"Kreisangehörige_Gemeinde"},"district":{"key":"06535","name":"Vogelsbergkreis","type":"Landkreis"},"federalState":{"key":"06","name":"Hessen"}},{"name":"Zum Finkenrain","postalCode":"36396","locality":"Steinau an der Straße","municipality":{"key":"06435028","name":"Steinau an der Straße, Brüder-Grimm-Stadt","type":"Stadt"},"district":{"key":"06435","name":"Main-Kinzig-Kreis","type":"Landkreis"},"federalState":{"key":"06","name":"Hessen"}},{"name":"Zum Hörner Moor","postalCode":"21775","locality":"Steinau","municipality":{"key":"03352051","name":"Steinau","type":"Kreisangehörige_Gemeinde"},"district":{"key":"03352","name":"Cuxhaven","type":"Landkreis"},"federalState":{"key":"03","name":"Niedersachsen"}},{"name":"Zum Maiborn","postalCode":"36396","locality":"Steinau an der Straße","municipality":{"key":"06435028","name":"Steinau an der Straße, Brüder-Grimm-Stadt","type":"Stadt"},"district":{"key":"06435","name":"Main-Kinzig-Kreis","type":"Landkreis"},"federalState":{"key":"06","name":"Hessen"}},{"name":"Zum Rossbach","postalCode":"36396","locality":"Steinau an der Straße","municipality":{"key":"06435028","name":"Steinau an der Straße, Brüder-Grimm-Stadt","type":"Stadt"},"district":{"key":"06435","name":"Main-Kinzig-Kreis","type":"Landkreis"},"federalState":{"key":"06","name":"Hessen"}},{"name":"Zum See","postalCode":"36399","locality":"Freiensteinau","municipality":{"key":"06535004","name":"Freiensteinau","type":"Kreisangehörige_Gemeinde"},"district":{"key":"06535","name":"Vogelsbergkreis","type":"Landkreis"},"federalState":{"key":"06","name":"Hessen"}},{"name":"Zum Steinbruch","postalCode":"36396","locality":"Steinau an der Straße","municipality":{"key":"06435028","name":"Steinau an der Straße, Brüder-Grimm-Stadt","type":"Stadt"},"district":{"key":"06435","name":"Main-Kinzig-Kreis","type":"Landkreis"},"federalState":{"key":"06","name":"Hessen"}},{"name":"Zum Storkelsgrund","postalCode":"36396","locality":"Steinau an der Straße","municipality":{"key":"06435028","name":"Steinau an der Straße, Brüder-Grimm-Stadt","type":"Stadt"},"district":{"key":"06435","name":"Main-Kinzig-Kreis","type":"Landkreis"},"federalState":{"key":"06","name":"Hessen"}},{"name":"Zum Talblick","postalCode":"36399","locality":"Freiensteinau","municipality":{"key":"06535004","name":"Freiensteinau","type":"Kreisangehörige_Gemeinde"},"district":{"key":"06535","name":"Vogelsbergkreis","type":"Landkreis"},"federalState":{"key":"06","name":"Hessen"}},{"name":"Zur Entenbucht","postalCode":"36399","locality":"Freiensteinau","municipality":{"key":"06535004","name":"Freiensteinau","type":"Kreisangehörige_Gemeinde"},"district":{"key":"06535","name":"Vogelsbergkreis","type":"Landkreis"},"federalState":{"key":"06","name":"Hessen"}},{"name":"Zur Katzenmühle","postalCode":"36399","locality":"Freiensteinau","municipality":{"key":"06535004","name":"Freiensteinau","type":"Kreisangehörige_Gemeinde"},"district":{"key":"06535","name":"Vogelsbergkreis","type":"Landkreis"},"federalState":{"key":"06","name":"Hessen"}},{"name":"Zur Steinmauer","postalCode":"36396","locality":"Steinau an der Straße","municipality":{"key":"06435028","name":"Steinau an der Straße, Brüder-Grimm-Stadt","type":"Stadt"},"district":{"key":"06435","name":"Main-Kinzig-Kreis","type":"Landkreis"},"federalState":{"key":"06","name":"Hessen"}},{"name":"Zur Warte","postalCode":"36396","locality":"Steinau an der Straße","municipality":{"key":"06435028","name":"Steinau an der Straße, Brüder-Grimm-Stadt","type":"Stadt"},"district":{"key":"06435","name":"Main-Kinzig-Kreis","type":"Landkreis"},"federalState":{"key":"06","name":"Hessen"}},{"name":"Über der Braake","postalCode":"27478","locality":"Cuxhaven","municipality":{"key":"03352011","name":"Cuxhaven, Stadt","type":"Stadt"},"district":{"key":"03352","name":"Cuxhaven","type":"Landkreis"},"federalState":{"key":"03","name":"Niedersachsen"}},]