[{"name":"Brüggenkamp","postalCode":"24358","locality":"Ahlefeld-Bistensee","municipality":{"key":"01058175","name":"Ahlefeld-Bistensee","type":"Kreisangehörige_Gemeinde"},"district":{"key":"01058","name":"Rendsburg-Eckernförde","type":"Kreis"},"federalState":{"key":"01","name":"Schleswig-Holstein"}},{"name":"Diekwiese","postalCode":"24358","locality":"Ahlefeld-Bistensee","municipality":{"key":"01058175","name":"Ahlefeld-Bistensee","type":"Kreisangehörige_Gemeinde"},"district":{"key":"01058","name":"Rendsburg-Eckernförde","type":"Kreis"},"federalState":{"key":"01","name":"Schleswig-Holstein"}},{"name":"Dorfstr.","postalCode":"24358","locality":"Ahlefeld-Bistensee","municipality":{"key":"01058175","name":"Ahlefeld-Bistensee","type":"Kreisangehörige_Gemeinde"},"district":{"key":"01058","name":"Rendsburg-Eckernförde","type":"Kreis"},"federalState":{"key":"01","name":"Schleswig-Holstein"}},{"name":"Friedrichshof","postalCode":"24358","locality":"Ahlefeld-Bistensee","municipality":{"key":"01058175","name":"Ahlefeld-Bistensee","type":"Kreisangehörige_Gemeinde"},"district":{"key":"01058","name":"Rendsburg-Eckernförde","type":"Kreis"},"federalState":{"key":"01","name":"Schleswig-Holstein"}},{"name":"Hans-Claus-Schnack-Weg","postalCode":"24358","locality":"Ahlefeld-Bistensee","municipality":{"key":"01058175","name":"Ahlefeld-Bistensee","type":"Kreisangehörige_Gemeinde"},"district":{"key":"01058","name":"Rendsburg-Eckernförde","type":"Kreis"},"federalState":{"key":"01","name":"Schleswig-Holstein"}},{"name":"Hauptstr.","postalCode":"24358","locality":"Ahlefeld-Bistensee","municipality":{"key":"01058175","name":"Ahlefeld-Bistensee","type":"Kreisangehörige_Gemeinde"},"district":{"key":"01058","name":"Rendsburg-Eckernförde","type":"Kreis"},"federalState":{"key":"01","name":"Schleswig-Holstein"}},{"name":"Hochfeld","postalCode":"24358","locality":"Ahlefeld-Bistensee","municipality":{"key":"01058175","name":"Ahlefeld-Bistensee","type":"Kreisangehörige_Gemeinde"},"district":{"key":"01058","name":"Rendsburg-Eckernförde","type":"Kreis"},"federalState":{"key":"01","name":"Schleswig-Holstein"}},{"name":"Im Winkel","postalCode":"24358","locality":"Ahlefeld-Bistensee","municipality":{"key":"01058175","name":"Ahlefeld-Bistensee","type":"Kreisangehörige_Gemeinde"},"district":{"key":"01058","name":"Rendsburg-Eckernförde","type":"Kreis"},"federalState":{"key":"01","name":"Schleswig-Holstein"}},{"name":"Meierhof","postalCode":"24358","locality":"Ahlefeld-Bistensee","municipality":{"key":"01058175","name":"Ahlefeld-Bistensee","type":"Kreisangehörige_Gemeinde"},"district":{"key":"01058","name":"Rendsburg-Eckernförde","type":"Kreis"},"federalState":{"key":"01","name":"Schleswig-Holstein"}},{"name":"Siedlungsweg","postalCode":"24358","locality":"Ahlefeld-Bistensee","municipality":{"key":"01058175","name":"Ahlefeld-Bistensee","type":"Kreisangehörige_Gemeinde"},"district":{"key":"01058","name":"Rendsburg-Eckernförde","type":"Kreis"},"federalState":{"key":"01","name":"Schleswig-Holstein"}},{"name":"Steinsieken","postalCode":"24358","locality":"Ahlefeld-Bistensee","municipality":{"key":"01058175","name":"Ahlefeld-Bistensee","type":"Kreisangehörige_Gemeinde"},"district":{"key":"01058","name":"Rendsburg-Eckernförde","type":"Kreis"},"federalState":{"key":"01","name":"Schleswig-Holstein"}},{"name":"Uferweg","postalCode":"24358","locality":"Ahlefeld-Bistensee","municipality":{"key":"01058175","name":"Ahlefeld-Bistensee","type":"Kreisangehörige_Gemeinde"},"district":{"key":"01058","name":"Rendsburg-Eckernförde","type":"Kreis"},"federalState":{"key":"01","name":"Schleswig-Holstein"}},]