[{"name":"Auschneise","postalCode":"90562","locality":"Neunhofer Forst","municipality":{"key":"09572460","name":"Neunhofer Forst","type":"Gemeindefreies_Gebiet_Unbewohnt"},"district":{"key":"09572","name":"Erlangen-Höchstadt","type":"Landkreis"},"federalState":{"key":"09","name":"Bayern"}},{"name":"Blechmarterbrücke","postalCode":"90562","locality":"Neunhofer Forst","municipality":{"key":"09572460","name":"Neunhofer Forst","type":"Gemeindefreies_Gebiet_Unbewohnt"},"district":{"key":"09572","name":"Erlangen-Höchstadt","type":"Landkreis"},"federalState":{"key":"09","name":"Bayern"}},{"name":"Dormitzer Str.","postalCode":"90562","locality":"Neunhofer Forst","municipality":{"key":"09572460","name":"Neunhofer Forst","type":"Gemeindefreies_Gebiet_Unbewohnt"},"district":{"key":"09572","name":"Erlangen-Höchstadt","type":"Landkreis"},"federalState":{"key":"09","name":"Bayern"}},{"name":"Gründlachbrücke","postalCode":"90562","locality":"Neunhofer Forst","municipality":{"key":"09572460","name":"Neunhofer Forst","type":"Gemeindefreies_Gebiet_Unbewohnt"},"district":{"key":"09572","name":"Erlangen-Höchstadt","type":"Landkreis"},"federalState":{"key":"09","name":"Bayern"}},{"name":"Heuweg","postalCode":"90562","locality":"Neunhofer Forst","municipality":{"key":"09572460","name":"Neunhofer Forst","type":"Gemeindefreies_Gebiet_Unbewohnt"},"district":{"key":"09572","name":"Erlangen-Höchstadt","type":"Landkreis"},"federalState":{"key":"09","name":"Bayern"}},{"name":"Kreuzäckerstr.","postalCode":"90562","locality":"Neunhofer Forst","municipality":{"key":"09572460","name":"Neunhofer Forst","type":"Gemeindefreies_Gebiet_Unbewohnt"},"district":{"key":"09572","name":"Erlangen-Höchstadt","type":"Landkreis"},"federalState":{"key":"09","name":"Bayern"}},{"name":"Meil-Weg","postalCode":"90562","locality":"Neunhofer Forst","municipality":{"key":"09572460","name":"Neunhofer Forst","type":"Gemeindefreies_Gebiet_Unbewohnt"},"district":{"key":"09572","name":"Erlangen-Höchstadt","type":"Landkreis"},"federalState":{"key":"09","name":"Bayern"}},{"name":"Sandweg","postalCode":"90562","locality":"Neunhofer Forst","municipality":{"key":"09572460","name":"Neunhofer Forst","type":"Gemeindefreies_Gebiet_Unbewohnt"},"district":{"key":"09572","name":"Erlangen-Höchstadt","type":"Landkreis"},"federalState":{"key":"09","name":"Bayern"}},{"name":"Weinweg","postalCode":"90562","locality":"Neunhofer Forst","municipality":{"key":"09572460","name":"Neunhofer Forst","type":"Gemeindefreies_Gebiet_Unbewohnt"},"district":{"key":"09572","name":"Erlangen-Höchstadt","type":"Landkreis"},"federalState":{"key":"09","name":"Bayern"}},{"name":"Wolfsfelder Weg","postalCode":"90562","locality":"Neunhofer Forst","municipality":{"key":"09572460","name":"Neunhofer Forst","type":"Gemeindefreies_Gebiet_Unbewohnt"},"district":{"key":"09572","name":"Erlangen-Höchstadt","type":"Landkreis"},"federalState":{"key":"09","name":"Bayern"}},{"name":"Wurzelweg","postalCode":"90562","locality":"Neunhofer Forst","municipality":{"key":"09572460","name":"Neunhofer Forst","type":"Gemeindefreies_Gebiet_Unbewohnt"},"district":{"key":"09572","name":"Erlangen-Höchstadt","type":"Landkreis"},"federalState":{"key":"09","name":"Bayern"}},]