[{"name":"Alter Sportplatz","postalCode":"24647","locality":"Ehndorf","municipality":{"key":"01058044","name":"Ehndorf","type":"Kreisangehörige_Gemeinde"},"district":{"key":"01058","name":"Rendsburg-Eckernförde","type":"Kreis"},"federalState":{"key":"01","name":"Schleswig-Holstein"}},{"name":"Barikamp","postalCode":"24647","locality":"Ehndorf","municipality":{"key":"01058044","name":"Ehndorf","type":"Kreisangehörige_Gemeinde"},"district":{"key":"01058","name":"Rendsburg-Eckernförde","type":"Kreis"},"federalState":{"key":"01","name":"Schleswig-Holstein"}},{"name":"Birkenweg","postalCode":"24647","locality":"Ehndorf","municipality":{"key":"01058044","name":"Ehndorf","type":"Kreisangehörige_Gemeinde"},"district":{"key":"01058","name":"Rendsburg-Eckernförde","type":"Kreis"},"federalState":{"key":"01","name":"Schleswig-Holstein"}},{"name":"Dorfstr.","postalCode":"24647","locality":"Ehndorf","municipality":{"key":"01058044","name":"Ehndorf","type":"Kreisangehörige_Gemeinde"},"district":{"key":"01058","name":"Rendsburg-Eckernförde","type":"Kreis"},"federalState":{"key":"01","name":"Schleswig-Holstein"}},{"name":"Ehndorfer Moor","postalCode":"24647","locality":"Ehndorf","municipality":{"key":"01058044","name":"Ehndorf","type":"Kreisangehörige_Gemeinde"},"district":{"key":"01058","name":"Rendsburg-Eckernförde","type":"Kreis"},"federalState":{"key":"01","name":"Schleswig-Holstein"}},{"name":"Großredder","postalCode":"24647","locality":"Ehndorf","municipality":{"key":"01058044","name":"Ehndorf","type":"Kreisangehörige_Gemeinde"},"district":{"key":"01058","name":"Rendsburg-Eckernförde","type":"Kreis"},"federalState":{"key":"01","name":"Schleswig-Holstein"}},{"name":"Grüner Weg","postalCode":"24647","locality":"Ehndorf","municipality":{"key":"01058044","name":"Ehndorf","type":"Kreisangehörige_Gemeinde"},"district":{"key":"01058","name":"Rendsburg-Eckernförde","type":"Kreis"},"federalState":{"key":"01","name":"Schleswig-Holstein"}},{"name":"Grünredder","postalCode":"24647","locality":"Ehndorf","municipality":{"key":"01058044","name":"Ehndorf","type":"Kreisangehörige_Gemeinde"},"district":{"key":"01058","name":"Rendsburg-Eckernförde","type":"Kreis"},"federalState":{"key":"01","name":"Schleswig-Holstein"}},{"name":"Hauptstr.","postalCode":"24647","locality":"Ehndorf","municipality":{"key":"01058044","name":"Ehndorf","type":"Kreisangehörige_Gemeinde"},"district":{"key":"01058","name":"Rendsburg-Eckernförde","type":"Kreis"},"federalState":{"key":"01","name":"Schleswig-Holstein"}},{"name":"Heidkoppelsredder","postalCode":"24647","locality":"Ehndorf","municipality":{"key":"01058044","name":"Ehndorf","type":"Kreisangehörige_Gemeinde"},"district":{"key":"01058","name":"Rendsburg-Eckernförde","type":"Kreis"},"federalState":{"key":"01","name":"Schleswig-Holstein"}},{"name":"Heischredder","postalCode":"24647","locality":"Ehndorf","municipality":{"key":"01058044","name":"Ehndorf","type":"Kreisangehörige_Gemeinde"},"district":{"key":"01058","name":"Rendsburg-Eckernförde","type":"Kreis"},"federalState":{"key":"01","name":"Schleswig-Holstein"}},{"name":"Hinter dem Aalbek","postalCode":"24647","locality":"Ehndorf","municipality":{"key":"01058044","name":"Ehndorf","type":"Kreisangehörige_Gemeinde"},"district":{"key":"01058","name":"Rendsburg-Eckernförde","type":"Kreis"},"federalState":{"key":"01","name":"Schleswig-Holstein"}},{"name":"Kleinredder","postalCode":"24647","locality":"Ehndorf","municipality":{"key":"01058044","name":"Ehndorf","type":"Kreisangehörige_Gemeinde"},"district":{"key":"01058","name":"Rendsburg-Eckernförde","type":"Kreis"},"federalState":{"key":"01","name":"Schleswig-Holstein"}},{"name":"Matzhornweg","postalCode":"24647","locality":"Ehndorf","municipality":{"key":"01058044","name":"Ehndorf","type":"Kreisangehörige_Gemeinde"},"district":{"key":"01058","name":"Rendsburg-Eckernförde","type":"Kreis"},"federalState":{"key":"01","name":"Schleswig-Holstein"}},{"name":"Ringstr.","postalCode":"24647","locality":"Ehndorf","municipality":{"key":"01058044","name":"Ehndorf","type":"Kreisangehörige_Gemeinde"},"district":{"key":"01058","name":"Rendsburg-Eckernförde","type":"Kreis"},"federalState":{"key":"01","name":"Schleswig-Holstein"}},{"name":"Störstr.","postalCode":"24647","locality":"Ehndorf","municipality":{"key":"01058044","name":"Ehndorf","type":"Kreisangehörige_Gemeinde"},"district":{"key":"01058","name":"Rendsburg-Eckernförde","type":"Kreis"},"federalState":{"key":"01","name":"Schleswig-Holstein"}},]