[{"name":"Adler Kali","postalCode":"06317","locality":"Seegebiet Mansfelder Land","municipality":{"key":"15087386","name":"Seegebiet Mansfelder Land","type":"Kreisangehörige_Gemeinde"},"district":{"key":"15087","name":"Mansfeld-Südharz","type":"Landkreis"},"federalState":{"key":"15","name":"Sachsen-Anhalt"}},{"name":"Alberstedter Str.","postalCode":"06317","locality":"Seegebiet Mansfelder Land","municipality":{"key":"15087386","name":"Seegebiet Mansfelder Land","type":"Kreisangehörige_Gemeinde"},"district":{"key":"15087","name":"Mansfeld-Südharz","type":"Landkreis"},"federalState":{"key":"15","name":"Sachsen-Anhalt"}},{"name":"Albrechtstr.","postalCode":"06343","locality":"Mansfeld","municipality":{"key":"15087275","name":"Mansfeld, Stadt","type":"Stadt"},"district":{"key":"15087","name":"Mansfeld-Südharz","type":"Landkreis"},"federalState":{"key":"15","name":"Sachsen-Anhalt"}},{"name":"Alfred-Schröder-Str.","postalCode":"06343","locality":"Mansfeld","municipality":{"key":"15087275","name":"Mansfeld, Stadt","type":"Stadt"},"district":{"key":"15087","name":"Mansfeld-Südharz","type":"Landkreis"},"federalState":{"key":"15","name":"Sachsen-Anhalt"}},{"name":"Alte Bergstr.","postalCode":"06343","locality":"Mansfeld","municipality":{"key":"15087275","name":"Mansfeld, Stadt","type":"Stadt"},"district":{"key":"15087","name":"Mansfeld-Südharz","type":"Landkreis"},"federalState":{"key":"15","name":"Sachsen-Anhalt"}},{"name":"Alte Dorfstr.","postalCode":"06317","locality":"Seegebiet Mansfelder Land","municipality":{"key":"15087386","name":"Seegebiet Mansfelder Land","type":"Kreisangehörige_Gemeinde"},"district":{"key":"15087","name":"Mansfeld-Südharz","type":"Landkreis"},"federalState":{"key":"15","name":"Sachsen-Anhalt"}},{"name":"Alte Heerstr.","postalCode":"06343","locality":"Mansfeld","municipality":{"key":"15087275","name":"Mansfeld, Stadt","type":"Stadt"},"district":{"key":"15087","name":"Mansfeld-Südharz","type":"Landkreis"},"federalState":{"key":"15","name":"Sachsen-Anhalt"}},{"name":"Alte Poststr.","postalCode":"06343","locality":"Mansfeld","municipality":{"key":"15087275","name":"Mansfeld, Stadt","type":"Stadt"},"district":{"key":"15087","name":"Mansfeld-Südharz","type":"Landkreis"},"federalState":{"key":"15","name":"Sachsen-Anhalt"}},{"name":"Alter Graben","postalCode":"06308","locality":"Klostermansfeld","municipality":{"key":"15087260","name":"Klostermansfeld","type":"Kreisangehörige_Gemeinde"},"district":{"key":"15087","name":"Mansfeld-Südharz","type":"Landkreis"},"federalState":{"key":"15","name":"Sachsen-Anhalt"}},{"name":"Alte Schulstr.","postalCode":"06317","locality":"Seegebiet Mansfelder Land","municipality":{"key":"15087386","name":"Seegebiet Mansfelder Land","type":"Kreisangehörige_Gemeinde"},"district":{"key":"15087","name":"Mansfeld-Südharz","type":"Landkreis"},"federalState":{"key":"15","name":"Sachsen-Anhalt"}},{"name":"Alte Siedlung","postalCode":"06317","locality":"Seegebiet Mansfelder Land","municipality":{"key":"15087386","name":"Seegebiet Mansfelder Land","type":"Kreisangehörige_Gemeinde"},"district":{"key":"15087","name":"Mansfeld-Südharz","type":"Landkreis"},"federalState":{"key":"15","name":"Sachsen-Anhalt"}},{"name":"Alte Stedtener Str.","postalCode":"06317","locality":"Seegebiet Mansfelder Land","municipality":{"key":"15087386","name":"Seegebiet Mansfelder Land","type":"Kreisangehörige_Gemeinde"},"district":{"key":"15087","name":"Mansfeld-Südharz","type":"Landkreis"},"federalState":{"key":"15","name":"Sachsen-Anhalt"}},{"name":"Alte Ziegelei","postalCode":"06317","locality":"Seegebiet Mansfelder Land","municipality":{"key":"15087386","name":"Seegebiet Mansfelder Land","type":"Kreisangehörige_Gemeinde"},"district":{"key":"15087","name":"Mansfeld-Südharz","type":"Landkreis"},"federalState":{"key":"15","name":"Sachsen-Anhalt"}},{"name":"Am Anger","postalCode":"06343","locality":"Mansfeld","municipality":{"key":"15087275","name":"Mansfeld, Stadt","type":"Stadt"},"district":{"key":"15087","name":"Mansfeld-Südharz","type":"Landkreis"},"federalState":{"key":"15","name":"Sachsen-Anhalt"}},{"name":"Am Archäopark","postalCode":"06343","locality":"Mansfeld","municipality":{"key":"15087275","name":"Mansfeld, Stadt","type":"Stadt"},"district":{"key":"15087","name":"Mansfeld-Südharz","type":"Landkreis"},"federalState":{"key":"15","name":"Sachsen-Anhalt"}},{"name":"Am Bahnhof","postalCode":"06317","locality":"Seegebiet Mansfelder Land","municipality":{"key":"15087386","name":"Seegebiet Mansfelder Land","type":"Kreisangehörige_Gemeinde"},"district":{"key":"15087","name":"Mansfeld-Südharz","type":"Landkreis"},"federalState":{"key":"15","name":"Sachsen-Anhalt"}},{"name":"Am Bauchgrund","postalCode":"06317","locality":"Seegebiet Mansfelder Land","municipality":{"key":"15087386","name":"Seegebiet Mansfelder Land","type":"Kreisangehörige_Gemeinde"},"district":{"key":"15087","name":"Mansfeld-Südharz","type":"Landkreis"},"federalState":{"key":"15","name":"Sachsen-Anhalt"}},{"name":"Am Bauernstein","postalCode":"06317","locality":"Seegebiet Mansfelder Land","municipality":{"key":"15087386","name":"Seegebiet Mansfelder Land","type":"Kreisangehörige_Gemeinde"},"district":{"key":"15087","name":"Mansfeld-Südharz","type":"Landkreis"},"federalState":{"key":"15","name":"Sachsen-Anhalt"}},{"name":"Am Bindersee","postalCode":"06317","locality":"Seegebiet Mansfelder Land","municipality":{"key":"15087386","name":"Seegebiet Mansfelder Land","type":"Kreisangehörige_Gemeinde"},"district":{"key":"15087","name":"Mansfeld-Südharz","type":"Landkreis"},"federalState":{"key":"15","name":"Sachsen-Anhalt"}},{"name":"Am Frankenberg","postalCode":"06343","locality":"Mansfeld","municipality":{"key":"15087275","name":"Mansfeld, Stadt","type":"Stadt"},"district":{"key":"15087","name":"Mansfeld-Südharz","type":"Landkreis"},"federalState":{"key":"15","name":"Sachsen-Anhalt"}},{"name":"Am Franzosenberg","postalCode":"06317","locality":"Seegebiet Mansfelder Land","municipality":{"key":"15087386","name":"Seegebiet Mansfelder Land","type":"Kreisangehörige_Gemeinde"},"district":{"key":"15087","name":"Mansfeld-Südharz","type":"Landkreis"},"federalState":{"key":"15","name":"Sachsen-Anhalt"}},{"name":"Am Hohlweg","postalCode":"06343","locality":"Mansfeld","municipality":{"key":"15087275","name":"Mansfeld, Stadt","type":"Stadt"},"district":{"key":"15087","name":"Mansfeld-Südharz","type":"Landkreis"},"federalState":{"key":"15","name":"Sachsen-Anhalt"}},{"name":"Am Jungholz","postalCode":"06343","locality":"Mansfeld","municipality":{"key":"15087275","name":"Mansfeld, Stadt","type":"Stadt"},"district":{"key":"15087","name":"Mansfeld-Südharz","type":"Landkreis"},"federalState":{"key":"15","name":"Sachsen-Anhalt"}},{"name":"Am kalten Born","postalCode":"06343","locality":"Mansfeld","municipality":{"key":"15087275","name":"Mansfeld, Stadt","type":"Stadt"},"district":{"key":"15087","name":"Mansfeld-Südharz","type":"Landkreis"},"federalState":{"key":"15","name":"Sachsen-Anhalt"}},{"name":"Am Kirchplatz","postalCode":"06317","locality":"Seegebiet Mansfelder Land","municipality":{"key":"15087386","name":"Seegebiet Mansfelder Land","type":"Kreisangehörige_Gemeinde"},"district":{"key":"15087","name":"Mansfeld-Südharz","type":"Landkreis"},"federalState":{"key":"15","name":"Sachsen-Anhalt"}},{"name":"Am Kirschberg","postalCode":"06343","locality":"Mansfeld","municipality":{"key":"15087275","name":"Mansfeld, Stadt","type":"Stadt"},"district":{"key":"15087","name":"Mansfeld-Südharz","type":"Landkreis"},"federalState":{"key":"15","name":"Sachsen-Anhalt"}},{"name":"Am Klausanger","postalCode":"06317","locality":"Seegebiet Mansfelder Land","municipality":{"key":"15087386","name":"Seegebiet Mansfelder Land","type":"Kreisangehörige_Gemeinde"},"district":{"key":"15087","name":"Mansfeld-Südharz","type":"Landkreis"},"federalState":{"key":"15","name":"Sachsen-Anhalt"}},{"name":"Am Krankenhaus","postalCode":"06343","locality":"Mansfeld","municipality":{"key":"15087275","name":"Mansfeld, Stadt","type":"Stadt"},"district":{"key":"15087","name":"Mansfeld-Südharz","type":"Landkreis"},"federalState":{"key":"15","name":"Sachsen-Anhalt"}},{"name":"Am Küsterberg","postalCode":"06343","locality":"Mansfeld","municipality":{"key":"15087275","name":"Mansfeld, Stadt","type":"Stadt"},"district":{"key":"15087","name":"Mansfeld-Südharz","type":"Landkreis"},"federalState":{"key":"15","name":"Sachsen-Anhalt"}},{"name":"Am Mansfelder Teich","postalCode":"06343","locality":"Mansfeld","municipality":{"key":"15087275","name":"Mansfeld, Stadt","type":"Stadt"},"district":{"key":"15087","name":"Mansfeld-Südharz","type":"Landkreis"},"federalState":{"key":"15","name":"Sachsen-Anhalt"}},{"name":"Am Mühlberg","postalCode":"06317","locality":"Seegebiet Mansfelder Land","municipality":{"key":"15087386","name":"Seegebiet Mansfelder Land","type":"Kreisangehörige_Gemeinde"},"district":{"key":"15087","name":"Mansfeld-Südharz","type":"Landkreis"},"federalState":{"key":"15","name":"Sachsen-Anhalt"}},{"name":"Am Mühlberg","postalCode":"06343","locality":"Mansfeld","municipality":{"key":"15087275","name":"Mansfeld, Stadt","type":"Stadt"},"district":{"key":"15087","name":"Mansfeld-Südharz","type":"Landkreis"},"federalState":{"key":"15","name":"Sachsen-Anhalt"}},{"name":"Am Parkplatz","postalCode":"06317","locality":"Seegebiet Mansfelder Land","municipality":{"key":"15087386","name":"Seegebiet Mansfelder Land","type":"Kreisangehörige_Gemeinde"},"district":{"key":"15087","name":"Mansfeld-Südharz","type":"Landkreis"},"federalState":{"key":"15","name":"Sachsen-Anhalt"}},{"name":"Am Pfarrhaus","postalCode":"06343","locality":"Mansfeld","municipality":{"key":"15087275","name":"Mansfeld, Stadt","type":"Stadt"},"district":{"key":"15087","name":"Mansfeld-Südharz","type":"Landkreis"},"federalState":{"key":"15","name":"Sachsen-Anhalt"}},{"name":"Am Pochwerk","postalCode":"06343","locality":"Mansfeld","municipality":{"key":"15087275","name":"Mansfeld, Stadt","type":"Stadt"},"district":{"key":"15087","name":"Mansfeld-Südharz","type":"Landkreis"},"federalState":{"key":"15","name":"Sachsen-Anhalt"}},{"name":"Am Ring","postalCode":"06343","locality":"Mansfeld","municipality":{"key":"15087275","name":"Mansfeld, Stadt","type":"Stadt"},"district":{"key":"15087","name":"Mansfeld-Südharz","type":"Landkreis"},"federalState":{"key":"15","name":"Sachsen-Anhalt"}},{"name":"Am Röhrberg","postalCode":"06317","locality":"Seegebiet Mansfelder Land","municipality":{"key":"15087386","name":"Seegebiet Mansfelder Land","type":"Kreisangehörige_Gemeinde"},"district":{"key":"15087","name":"Mansfeld-Südharz","type":"Landkreis"},"federalState":{"key":"15","name":"Sachsen-Anhalt"}},{"name":"Am Schlagbaum","postalCode":"06343","locality":"Mansfeld","municipality":{"key":"15087275","name":"Mansfeld, Stadt","type":"Stadt"},"district":{"key":"15087","name":"Mansfeld-Südharz","type":"Landkreis"},"federalState":{"key":"15","name":"Sachsen-Anhalt"}},{"name":"Am Schusterbach","postalCode":"06343","locality":"Mansfeld","municipality":{"key":"15087275","name":"Mansfeld, Stadt","type":"Stadt"},"district":{"key":"15087","name":"Mansfeld-Südharz","type":"Landkreis"},"federalState":{"key":"15","name":"Sachsen-Anhalt"}},{"name":"Amsdorfer Chaussee","postalCode":"06317","locality":"Seegebiet Mansfelder Land","municipality":{"key":"15087386","name":"Seegebiet Mansfelder Land","type":"Kreisangehörige_Gemeinde"},"district":{"key":"15087","name":"Mansfeld-Südharz","type":"Landkreis"},"federalState":{"key":"15","name":"Sachsen-Anhalt"}},{"name":"Amsdorfer Str.","postalCode":"06317","locality":"Seegebiet Mansfelder Land","municipality":{"key":"15087386","name":"Seegebiet Mansfelder Land","type":"Kreisangehörige_Gemeinde"},"district":{"key":"15087","name":"Mansfeld-Südharz","type":"Landkreis"},"federalState":{"key":"15","name":"Sachsen-Anhalt"}},{"name":"Am See","postalCode":"06317","locality":"Seegebiet Mansfelder Land","municipality":{"key":"15087386","name":"Seegebiet Mansfelder Land","type":"Kreisangehörige_Gemeinde"},"district":{"key":"15087","name":"Mansfeld-Südharz","type":"Landkreis"},"federalState":{"key":"15","name":"Sachsen-Anhalt"}},{"name":"Am Sperlingsberg","postalCode":"06317","locality":"Seegebiet Mansfelder Land","municipality":{"key":"15087386","name":"Seegebiet Mansfelder Land","type":"Kreisangehörige_Gemeinde"},"district":{"key":"15087","name":"Mansfeld-Südharz","type":"Landkreis"},"federalState":{"key":"15","name":"Sachsen-Anhalt"}},{"name":"Am Sportplatz","postalCode":"06317","locality":"Seegebiet Mansfelder Land","municipality":{"key":"15087386","name":"Seegebiet Mansfelder Land","type":"Kreisangehörige_Gemeinde"},"district":{"key":"15087","name":"Mansfeld-Südharz","type":"Landkreis"},"federalState":{"key":"15","name":"Sachsen-Anhalt"}},{"name":"Am Stein","postalCode":"06343","locality":"Mansfeld","municipality":{"key":"15087275","name":"Mansfeld, Stadt","type":"Stadt"},"district":{"key":"15087","name":"Mansfeld-Südharz","type":"Landkreis"},"federalState":{"key":"15","name":"Sachsen-Anhalt"}},{"name":"Am Theodorschacht","postalCode":"06308","locality":"Klostermansfeld","municipality":{"key":"15087260","name":"Klostermansfeld","type":"Kreisangehörige_Gemeinde"},"district":{"key":"15087","name":"Mansfeld-Südharz","type":"Landkreis"},"federalState":{"key":"15","name":"Sachsen-Anhalt"}},{"name":"Am Tonberg","postalCode":"06343","locality":"Mansfeld","municipality":{"key":"15087275","name":"Mansfeld, Stadt","type":"Stadt"},"district":{"key":"15087","name":"Mansfeld-Südharz","type":"Landkreis"},"federalState":{"key":"15","name":"Sachsen-Anhalt"}},{"name":"Am Vatteröder Teich","postalCode":"06343","locality":"Mansfeld","municipality":{"key":"15087275","name":"Mansfeld, Stadt","type":"Stadt"},"district":{"key":"15087","name":"Mansfeld-Südharz","type":"Landkreis"},"federalState":{"key":"15","name":"Sachsen-Anhalt"}},{"name":"Am Vogts Garten","postalCode":"06308","locality":"Klostermansfeld","municipality":{"key":"15087260","name":"Klostermansfeld","type":"Kreisangehörige_Gemeinde"},"district":{"key":"15087","name":"Mansfeld-Südharz","type":"Landkreis"},"federalState":{"key":"15","name":"Sachsen-Anhalt"}},{"name":"Am Wehr","postalCode":"06343","locality":"Mansfeld","municipality":{"key":"15087275","name":"Mansfeld, Stadt","type":"Stadt"},"district":{"key":"15087","name":"Mansfeld-Südharz","type":"Landkreis"},"federalState":{"key":"15","name":"Sachsen-Anhalt"}},{"name":"Bachgraben","postalCode":"06317","locality":"Seegebiet Mansfelder Land","municipality":{"key":"15087386","name":"Seegebiet Mansfelder Land","type":"Kreisangehörige_Gemeinde"},"district":{"key":"15087","name":"Mansfeld-Südharz","type":"Landkreis"},"federalState":{"key":"15","name":"Sachsen-Anhalt"}},{"name":"Bachstr.","postalCode":"06317","locality":"Seegebiet Mansfelder Land","municipality":{"key":"15087386","name":"Seegebiet Mansfelder Land","type":"Kreisangehörige_Gemeinde"},"district":{"key":"15087","name":"Mansfeld-Südharz","type":"Landkreis"},"federalState":{"key":"15","name":"Sachsen-Anhalt"}},{"name":"Bachstr.","postalCode":"06343","locality":"Mansfeld","municipality":{"key":"15087275","name":"Mansfeld, Stadt","type":"Stadt"},"district":{"key":"15087","name":"Mansfeld-Südharz","type":"Landkreis"},"federalState":{"key":"15","name":"Sachsen-Anhalt"}},{"name":"Bäckerstr.","postalCode":"06317","locality":"Seegebiet Mansfelder Land","municipality":{"key":"15087386","name":"Seegebiet Mansfelder Land","type":"Kreisangehörige_Gemeinde"},"district":{"key":"15087","name":"Mansfeld-Südharz","type":"Landkreis"},"federalState":{"key":"15","name":"Sachsen-Anhalt"}},{"name":"Badewinkel","postalCode":"06343","locality":"Mansfeld","municipality":{"key":"15087275","name":"Mansfeld, Stadt","type":"Stadt"},"district":{"key":"15087","name":"Mansfeld-Südharz","type":"Landkreis"},"federalState":{"key":"15","name":"Sachsen-Anhalt"}},{"name":"Bahnhofstr.","postalCode":"06308","locality":"Klostermansfeld","municipality":{"key":"15087260","name":"Klostermansfeld","type":"Kreisangehörige_Gemeinde"},"district":{"key":"15087","name":"Mansfeld-Südharz","type":"Landkreis"},"federalState":{"key":"15","name":"Sachsen-Anhalt"}},{"name":"Bahnhofstr.","postalCode":"06317","locality":"Seegebiet Mansfelder Land","municipality":{"key":"15087386","name":"Seegebiet Mansfelder Land","type":"Kreisangehörige_Gemeinde"},"district":{"key":"15087","name":"Mansfeld-Südharz","type":"Landkreis"},"federalState":{"key":"15","name":"Sachsen-Anhalt"}},{"name":"Bahnhofstr.","postalCode":"06343","locality":"Mansfeld","municipality":{"key":"15087275","name":"Mansfeld, Stadt","type":"Stadt"},"district":{"key":"15087","name":"Mansfeld-Südharz","type":"Landkreis"},"federalState":{"key":"15","name":"Sachsen-Anhalt"}},{"name":"Bahnhofsweg","postalCode":"06317","locality":"Seegebiet Mansfelder Land","municipality":{"key":"15087386","name":"Seegebiet Mansfelder Land","type":"Kreisangehörige_Gemeinde"},"district":{"key":"15087","name":"Mansfeld-Südharz","type":"Landkreis"},"federalState":{"key":"15","name":"Sachsen-Anhalt"}},{"name":"Banse-Steg","postalCode":"06317","locality":"Seegebiet Mansfelder Land","municipality":{"key":"15087386","name":"Seegebiet Mansfelder Land","type":"Kreisangehörige_Gemeinde"},"district":{"key":"15087","name":"Mansfeld-Südharz","type":"Landkreis"},"federalState":{"key":"15","name":"Sachsen-Anhalt"}},{"name":"Bauernsiedlung","postalCode":"06343","locality":"Mansfeld","municipality":{"key":"15087275","name":"Mansfeld, Stadt","type":"Stadt"},"district":{"key":"15087","name":"Mansfeld-Südharz","type":"Landkreis"},"federalState":{"key":"15","name":"Sachsen-Anhalt"}},{"name":"Bauernsiedlung Möllendorf","postalCode":"06343","locality":"Mansfeld","municipality":{"key":"15087275","name":"Mansfeld, Stadt","type":"Stadt"},"district":{"key":"15087","name":"Mansfeld-Südharz","type":"Landkreis"},"federalState":{"key":"15","name":"Sachsen-Anhalt"}},{"name":"Baumeröder Weg","postalCode":"06343","locality":"Mansfeld","municipality":{"key":"15087275","name":"Mansfeld, Stadt","type":"Stadt"},"district":{"key":"15087","name":"Mansfeld-Südharz","type":"Landkreis"},"federalState":{"key":"15","name":"Sachsen-Anhalt"}},{"name":"Berggasse","postalCode":"06317","locality":"Seegebiet Mansfelder Land","municipality":{"key":"15087386","name":"Seegebiet Mansfelder Land","type":"Kreisangehörige_Gemeinde"},"district":{"key":"15087","name":"Mansfeld-Südharz","type":"Landkreis"},"federalState":{"key":"15","name":"Sachsen-Anhalt"}},{"name":"Bergstr.","postalCode":"06317","locality":"Seegebiet Mansfelder Land","municipality":{"key":"15087386","name":"Seegebiet Mansfelder Land","type":"Kreisangehörige_Gemeinde"},"district":{"key":"15087","name":"Mansfeld-Südharz","type":"Landkreis"},"federalState":{"key":"15","name":"Sachsen-Anhalt"}},{"name":"Bergstr. Abberode","postalCode":"06343","locality":"Mansfeld","municipality":{"key":"15087275","name":"Mansfeld, Stadt","type":"Stadt"},"district":{"key":"15087","name":"Mansfeld-Südharz","type":"Landkreis"},"federalState":{"key":"15","name":"Sachsen-Anhalt"}},{"name":"Bergstr. Vatterode","postalCode":"06343","locality":"Mansfeld","municipality":{"key":"15087275","name":"Mansfeld, Stadt","type":"Stadt"},"district":{"key":"15087","name":"Mansfeld-Südharz","type":"Landkreis"},"federalState":{"key":"15","name":"Sachsen-Anhalt"}},{"name":"Biesenröder Str.","postalCode":"06343","locality":"Mansfeld","municipality":{"key":"15087275","name":"Mansfeld, Stadt","type":"Stadt"},"district":{"key":"15087","name":"Mansfeld-Südharz","type":"Landkreis"},"federalState":{"key":"15","name":"Sachsen-Anhalt"}},{"name":"Birkengasse","postalCode":"06317","locality":"Seegebiet Mansfelder Land","municipality":{"key":"15087386","name":"Seegebiet Mansfelder Land","type":"Kreisangehörige_Gemeinde"},"district":{"key":"15087","name":"Mansfeld-Südharz","type":"Landkreis"},"federalState":{"key":"15","name":"Sachsen-Anhalt"}},{"name":"Birkenweg","postalCode":"06317","locality":"Seegebiet Mansfelder Land","municipality":{"key":"15087386","name":"Seegebiet Mansfelder Land","type":"Kreisangehörige_Gemeinde"},"district":{"key":"15087","name":"Mansfeld-Südharz","type":"Landkreis"},"federalState":{"key":"15","name":"Sachsen-Anhalt"}},{"name":"Birkenweg","postalCode":"06343","locality":"Mansfeld","municipality":{"key":"15087275","name":"Mansfeld, Stadt","type":"Stadt"},"district":{"key":"15087","name":"Mansfeld-Südharz","type":"Landkreis"},"federalState":{"key":"15","name":"Sachsen-Anhalt"}},{"name":"Birnenweg","postalCode":"06317","locality":"Seegebiet Mansfelder Land","municipality":{"key":"15087386","name":"Seegebiet Mansfelder Land","type":"Kreisangehörige_Gemeinde"},"district":{"key":"15087","name":"Mansfeld-Südharz","type":"Landkreis"},"federalState":{"key":"15","name":"Sachsen-Anhalt"}},{"name":"Blumeröder Dorfstr.","postalCode":"06343","locality":"Mansfeld","municipality":{"key":"15087275","name":"Mansfeld, Stadt","type":"Stadt"},"district":{"key":"15087","name":"Mansfeld-Südharz","type":"Landkreis"},"federalState":{"key":"15","name":"Sachsen-Anhalt"}},{"name":"Blumeröder Str.","postalCode":"06343","locality":"Mansfeld","municipality":{"key":"15087275","name":"Mansfeld, Stadt","type":"Stadt"},"district":{"key":"15087","name":"Mansfeld-Südharz","type":"Landkreis"},"federalState":{"key":"15","name":"Sachsen-Anhalt"}},{"name":"Bockmühlenstr.","postalCode":"06308","locality":"Klostermansfeld","municipality":{"key":"15087260","name":"Klostermansfeld","type":"Kreisangehörige_Gemeinde"},"district":{"key":"15087","name":"Mansfeld-Südharz","type":"Landkreis"},"federalState":{"key":"15","name":"Sachsen-Anhalt"}},{"name":"Borngasse","postalCode":"06343","locality":"Mansfeld","municipality":{"key":"15087275","name":"Mansfeld, Stadt","type":"Stadt"},"district":{"key":"15087","name":"Mansfeld-Südharz","type":"Landkreis"},"federalState":{"key":"15","name":"Sachsen-Anhalt"}},{"name":"Braugartenstr.","postalCode":"06343","locality":"Mansfeld","municipality":{"key":"15087275","name":"Mansfeld, Stadt","type":"Stadt"},"district":{"key":"15087","name":"Mansfeld-Südharz","type":"Landkreis"},"federalState":{"key":"15","name":"Sachsen-Anhalt"}},{"name":"Brauhausplatz","postalCode":"06343","locality":"Mansfeld","municipality":{"key":"15087275","name":"Mansfeld, Stadt","type":"Stadt"},"district":{"key":"15087","name":"Mansfeld-Südharz","type":"Landkreis"},"federalState":{"key":"15","name":"Sachsen-Anhalt"}},{"name":"Brauhausstr.","postalCode":"06343","locality":"Mansfeld","municipality":{"key":"15087275","name":"Mansfeld, Stadt","type":"Stadt"},"district":{"key":"15087","name":"Mansfeld-Südharz","type":"Landkreis"},"federalState":{"key":"15","name":"Sachsen-Anhalt"}},{"name":"Brunnengasse","postalCode":"06317","locality":"Seegebiet Mansfelder Land","municipality":{"key":"15087386","name":"Seegebiet Mansfelder Land","type":"Kreisangehörige_Gemeinde"},"district":{"key":"15087","name":"Mansfeld-Südharz","type":"Landkreis"},"federalState":{"key":"15","name":"Sachsen-Anhalt"}},{"name":"Brunnenstr.","postalCode":"06343","locality":"Mansfeld","municipality":{"key":"15087275","name":"Mansfeld, Stadt","type":"Stadt"},"district":{"key":"15087","name":"Mansfeld-Südharz","type":"Landkreis"},"federalState":{"key":"15","name":"Sachsen-Anhalt"}},{"name":"Bungalowsiedlung","postalCode":"06343","locality":"Mansfeld","municipality":{"key":"15087275","name":"Mansfeld, Stadt","type":"Stadt"},"district":{"key":"15087","name":"Mansfeld-Südharz","type":"Landkreis"},"federalState":{"key":"15","name":"Sachsen-Anhalt"}},{"name":"Bunte Brücke","postalCode":"06343","locality":"Mansfeld","municipality":{"key":"15087275","name":"Mansfeld, Stadt","type":"Stadt"},"district":{"key":"15087","name":"Mansfeld-Südharz","type":"Landkreis"},"federalState":{"key":"15","name":"Sachsen-Anhalt"}},{"name":"Burgblick","postalCode":"06343","locality":"Mansfeld","municipality":{"key":"15087275","name":"Mansfeld, Stadt","type":"Stadt"},"district":{"key":"15087","name":"Mansfeld-Südharz","type":"Landkreis"},"federalState":{"key":"15","name":"Sachsen-Anhalt"}},{"name":"Burgörner Weg","postalCode":"06308","locality":"Klostermansfeld","municipality":{"key":"15087260","name":"Klostermansfeld","type":"Kreisangehörige_Gemeinde"},"district":{"key":"15087","name":"Mansfeld-Südharz","type":"Landkreis"},"federalState":{"key":"15","name":"Sachsen-Anhalt"}},{"name":"Burgsdorfer Weg","postalCode":"06317","locality":"Seegebiet Mansfelder Land","municipality":{"key":"15087386","name":"Seegebiet Mansfelder Land","type":"Kreisangehörige_Gemeinde"},"district":{"key":"15087","name":"Mansfeld-Südharz","type":"Landkreis"},"federalState":{"key":"15","name":"Sachsen-Anhalt"}},{"name":"Burgstr.","postalCode":"06308","locality":"Klostermansfeld","municipality":{"key":"15087260","name":"Klostermansfeld","type":"Kreisangehörige_Gemeinde"},"district":{"key":"15087","name":"Mansfeld-Südharz","type":"Landkreis"},"federalState":{"key":"15","name":"Sachsen-Anhalt"}},{"name":"Carl-Wentzel-Weg","postalCode":"06343","locality":"Mansfeld","municipality":{"key":"15087275","name":"Mansfeld, Stadt","type":"Stadt"},"district":{"key":"15087","name":"Mansfeld-Südharz","type":"Landkreis"},"federalState":{"key":"15","name":"Sachsen-Anhalt"}},{"name":"Car-Wentzel-Weg","postalCode":"06343","locality":"Mansfeld","municipality":{"key":"15087275","name":"Mansfeld, Stadt","type":"Stadt"},"district":{"key":"15087","name":"Mansfeld-Südharz","type":"Landkreis"},"federalState":{"key":"15","name":"Sachsen-Anhalt"}},{"name":"Chaussee","postalCode":"06317","locality":"Seegebiet Mansfelder Land","municipality":{"key":"15087386","name":"Seegebiet Mansfelder Land","type":"Kreisangehörige_Gemeinde"},"district":{"key":"15087","name":"Mansfeld-Südharz","type":"Landkreis"},"federalState":{"key":"15","name":"Sachsen-Anhalt"}},{"name":"Chausseestr.","postalCode":"06308","locality":"Klostermansfeld","municipality":{"key":"15087260","name":"Klostermansfeld","type":"Kreisangehörige_Gemeinde"},"district":{"key":"15087","name":"Mansfeld-Südharz","type":"Landkreis"},"federalState":{"key":"15","name":"Sachsen-Anhalt"}},{"name":"Chausseestr.","postalCode":"06317","locality":"Seegebiet Mansfelder Land","municipality":{"key":"15087386","name":"Seegebiet Mansfelder Land","type":"Kreisangehörige_Gemeinde"},"district":{"key":"15087","name":"Mansfeld-Südharz","type":"Landkreis"},"federalState":{"key":"15","name":"Sachsen-Anhalt"}},{"name":"Chausseestr.","postalCode":"06343","locality":"Mansfeld","municipality":{"key":"15087275","name":"Mansfeld, Stadt","type":"Stadt"},"district":{"key":"15087","name":"Mansfeld-Südharz","type":"Landkreis"},"federalState":{"key":"15","name":"Sachsen-Anhalt"}},{"name":"Clara-Zetkin-Str.","postalCode":"06317","locality":"Seegebiet Mansfelder Land","municipality":{"key":"15087386","name":"Seegebiet Mansfelder Land","type":"Kreisangehörige_Gemeinde"},"district":{"key":"15087","name":"Mansfeld-Südharz","type":"Landkreis"},"federalState":{"key":"15","name":"Sachsen-Anhalt"}},{"name":"Clausstr.","postalCode":"06343","locality":"Mansfeld","municipality":{"key":"15087275","name":"Mansfeld, Stadt","type":"Stadt"},"district":{"key":"15087","name":"Mansfeld-Südharz","type":"Landkreis"},"federalState":{"key":"15","name":"Sachsen-Anhalt"}},{"name":"Dammweg","postalCode":"06343","locality":"Mansfeld","municipality":{"key":"15087275","name":"Mansfeld, Stadt","type":"Stadt"},"district":{"key":"15087","name":"Mansfeld-Südharz","type":"Landkreis"},"federalState":{"key":"15","name":"Sachsen-Anhalt"}},{"name":"Denkmalsplatz","postalCode":"06317","locality":"Seegebiet Mansfelder Land","municipality":{"key":"15087386","name":"Seegebiet Mansfelder Land","type":"Kreisangehörige_Gemeinde"},"district":{"key":"15087","name":"Mansfeld-Südharz","type":"Landkreis"},"federalState":{"key":"15","name":"Sachsen-Anhalt"}},{"name":"Denkmalstr.","postalCode":"06317","locality":"Seegebiet Mansfelder Land","municipality":{"key":"15087386","name":"Seegebiet Mansfelder Land","type":"Kreisangehörige_Gemeinde"},"district":{"key":"15087","name":"Mansfeld-Südharz","type":"Landkreis"},"federalState":{"key":"15","name":"Sachsen-Anhalt"}},{"name":"Die Riege","postalCode":"06343","locality":"Mansfeld","municipality":{"key":"15087275","name":"Mansfeld, Stadt","type":"Stadt"},"district":{"key":"15087","name":"Mansfeld-Südharz","type":"Landkreis"},"federalState":{"key":"15","name":"Sachsen-Anhalt"}},{"name":"Dippelsbachtal","postalCode":"06343","locality":"Mansfeld","municipality":{"key":"15087275","name":"Mansfeld, Stadt","type":"Stadt"},"district":{"key":"15087","name":"Mansfeld-Südharz","type":"Landkreis"},"federalState":{"key":"15","name":"Sachsen-Anhalt"}},{"name":"Dorfplatz","postalCode":"06317","locality":"Seegebiet Mansfelder Land","municipality":{"key":"15087386","name":"Seegebiet Mansfelder Land","type":"Kreisangehörige_Gemeinde"},"district":{"key":"15087","name":"Mansfeld-Südharz","type":"Landkreis"},"federalState":{"key":"15","name":"Sachsen-Anhalt"}},{"name":"Dorfstr.","postalCode":"06317","locality":"Seegebiet Mansfelder Land","municipality":{"key":"15087386","name":"Seegebiet Mansfelder Land","type":"Kreisangehörige_Gemeinde"},"district":{"key":"15087","name":"Mansfeld-Südharz","type":"Landkreis"},"federalState":{"key":"15","name":"Sachsen-Anhalt"}},{"name":"Dorfstr.","postalCode":"06343","locality":"Mansfeld","municipality":{"key":"15087275","name":"Mansfeld, Stadt","type":"Stadt"},"district":{"key":"15087","name":"Mansfeld-Südharz","type":"Landkreis"},"federalState":{"key":"15","name":"Sachsen-Anhalt"}},{"name":"Dorfstr. Biesenrode","postalCode":"06343","locality":"Mansfeld","municipality":{"key":"15087275","name":"Mansfeld, Stadt","type":"Stadt"},"district":{"key":"15087","name":"Mansfeld-Südharz","type":"Landkreis"},"federalState":{"key":"15","name":"Sachsen-Anhalt"}},{"name":"Dorfstr. Braunschwende","postalCode":"06343","locality":"Mansfeld","municipality":{"key":"15087275","name":"Mansfeld, Stadt","type":"Stadt"},"district":{"key":"15087","name":"Mansfeld-Südharz","type":"Landkreis"},"federalState":{"key":"15","name":"Sachsen-Anhalt"}},{"name":"Dorfstr. Gräfenstuhl","postalCode":"06343","locality":"Mansfeld","municipality":{"key":"15087275","name":"Mansfeld, Stadt","type":"Stadt"},"district":{"key":"15087","name":"Mansfeld-Südharz","type":"Landkreis"},"federalState":{"key":"15","name":"Sachsen-Anhalt"}},{"name":"Dorfstr. Piskaborn","postalCode":"06343","locality":"Mansfeld","municipality":{"key":"15087275","name":"Mansfeld, Stadt","type":"Stadt"},"district":{"key":"15087","name":"Mansfeld-Südharz","type":"Landkreis"},"federalState":{"key":"15","name":"Sachsen-Anhalt"}},{"name":"Dorfstr. Vatterode","postalCode":"06343","locality":"Mansfeld","municipality":{"key":"15087275","name":"Mansfeld, Stadt","type":"Stadt"},"district":{"key":"15087","name":"Mansfeld-Südharz","type":"Landkreis"},"federalState":{"key":"15","name":"Sachsen-Anhalt"}},{"name":"Dr.-Kleinschmidt-Platz","postalCode":"06317","locality":"Seegebiet Mansfelder Land","municipality":{"key":"15087386","name":"Seegebiet Mansfelder Land","type":"Kreisangehörige_Gemeinde"},"district":{"key":"15087","name":"Mansfeld-Südharz","type":"Landkreis"},"federalState":{"key":"15","name":"Sachsen-Anhalt"}},{"name":"Dürre Wiese","postalCode":"06343","locality":"Mansfeld","municipality":{"key":"15087275","name":"Mansfeld, Stadt","type":"Stadt"},"district":{"key":"15087","name":"Mansfeld-Südharz","type":"Landkreis"},"federalState":{"key":"15","name":"Sachsen-Anhalt"}},{"name":"Einetalstr.","postalCode":"06343","locality":"Mansfeld","municipality":{"key":"15087275","name":"Mansfeld, Stadt","type":"Stadt"},"district":{"key":"15087","name":"Mansfeld-Südharz","type":"Landkreis"},"federalState":{"key":"15","name":"Sachsen-Anhalt"}},{"name":"Eisdorfer Str.","postalCode":"06317","locality":"Seegebiet Mansfelder Land","municipality":{"key":"15087386","name":"Seegebiet Mansfelder Land","type":"Kreisangehörige_Gemeinde"},"district":{"key":"15087","name":"Mansfeld-Südharz","type":"Landkreis"},"federalState":{"key":"15","name":"Sachsen-Anhalt"}},{"name":"Eislebener Str.","postalCode":"06317","locality":"Seegebiet Mansfelder Land","municipality":{"key":"15087386","name":"Seegebiet Mansfelder Land","type":"Kreisangehörige_Gemeinde"},"district":{"key":"15087","name":"Mansfeld-Südharz","type":"Landkreis"},"federalState":{"key":"15","name":"Sachsen-Anhalt"}},{"name":"Eislebener Str.","postalCode":"06343","locality":"Mansfeld","municipality":{"key":"15087275","name":"Mansfeld, Stadt","type":"Stadt"},"district":{"key":"15087","name":"Mansfeld-Südharz","type":"Landkreis"},"federalState":{"key":"15","name":"Sachsen-Anhalt"}},{"name":"Elbitzer Lange Str.","postalCode":"06317","locality":"Seegebiet Mansfelder Land","municipality":{"key":"15087386","name":"Seegebiet Mansfelder Land","type":"Kreisangehörige_Gemeinde"},"district":{"key":"15087","name":"Mansfeld-Südharz","type":"Landkreis"},"federalState":{"key":"15","name":"Sachsen-Anhalt"}},{"name":"End of the Track","postalCode":"06343","locality":"Mansfeld","municipality":{"key":"15087275","name":"Mansfeld, Stadt","type":"Stadt"},"district":{"key":"15087","name":"Mansfeld-Südharz","type":"Landkreis"},"federalState":{"key":"15","name":"Sachsen-Anhalt"}},{"name":"Erdeborner Str.","postalCode":"06317","locality":"Seegebiet Mansfelder Land","municipality":{"key":"15087386","name":"Seegebiet Mansfelder Land","type":"Kreisangehörige_Gemeinde"},"district":{"key":"15087","name":"Mansfeld-Südharz","type":"Landkreis"},"federalState":{"key":"15","name":"Sachsen-Anhalt"}},{"name":"Erdeborner Weg","postalCode":"06317","locality":"Seegebiet Mansfelder Land","municipality":{"key":"15087386","name":"Seegebiet Mansfelder Land","type":"Kreisangehörige_Gemeinde"},"district":{"key":"15087","name":"Mansfeld-Südharz","type":"Landkreis"},"federalState":{"key":"15","name":"Sachsen-Anhalt"}},{"name":"Ernst-Jacob-Str.","postalCode":"06317","locality":"Seegebiet Mansfelder Land","municipality":{"key":"15087386","name":"Seegebiet Mansfelder Land","type":"Kreisangehörige_Gemeinde"},"district":{"key":"15087","name":"Mansfeld-Südharz","type":"Landkreis"},"federalState":{"key":"15","name":"Sachsen-Anhalt"}},{"name":"Ernststr.","postalCode":"06308","locality":"Klostermansfeld","municipality":{"key":"15087260","name":"Klostermansfeld","type":"Kreisangehörige_Gemeinde"},"district":{"key":"15087","name":"Mansfeld-Südharz","type":"Landkreis"},"federalState":{"key":"15","name":"Sachsen-Anhalt"}},{"name":"Ernststr.","postalCode":"06343","locality":"Mansfeld","municipality":{"key":"15087275","name":"Mansfeld, Stadt","type":"Stadt"},"district":{"key":"15087","name":"Mansfeld-Südharz","type":"Landkreis"},"federalState":{"key":"15","name":"Sachsen-Anhalt"}},{"name":"Ernst-Thälmann-Ring","postalCode":"06317","locality":"Seegebiet Mansfelder Land","municipality":{"key":"15087386","name":"Seegebiet Mansfelder Land","type":"Kreisangehörige_Gemeinde"},"district":{"key":"15087","name":"Mansfeld-Südharz","type":"Landkreis"},"federalState":{"key":"15","name":"Sachsen-Anhalt"}},{"name":"Ernst-Thälmann-Str.","postalCode":"06308","locality":"Klostermansfeld","municipality":{"key":"15087260","name":"Klostermansfeld","type":"Kreisangehörige_Gemeinde"},"district":{"key":"15087","name":"Mansfeld-Südharz","type":"Landkreis"},"federalState":{"key":"15","name":"Sachsen-Anhalt"}},{"name":"Ernst-Thälmann-Str.","postalCode":"06317","locality":"Seegebiet Mansfelder Land","municipality":{"key":"15087386","name":"Seegebiet Mansfelder Land","type":"Kreisangehörige_Gemeinde"},"district":{"key":"15087","name":"Mansfeld-Südharz","type":"Landkreis"},"federalState":{"key":"15","name":"Sachsen-Anhalt"}},{"name":"Familienhaus","postalCode":"06308","locality":"Klostermansfeld","municipality":{"key":"15087260","name":"Klostermansfeld","type":"Kreisangehörige_Gemeinde"},"district":{"key":"15087","name":"Mansfeld-Südharz","type":"Landkreis"},"federalState":{"key":"15","name":"Sachsen-Anhalt"}},{"name":"Feldstr.","postalCode":"06308","locality":"Klostermansfeld","municipality":{"key":"15087260","name":"Klostermansfeld","type":"Kreisangehörige_Gemeinde"},"district":{"key":"15087","name":"Mansfeld-Südharz","type":"Landkreis"},"federalState":{"key":"15","name":"Sachsen-Anhalt"}},{"name":"Feldstr.","postalCode":"06343","locality":"Mansfeld","municipality":{"key":"15087275","name":"Mansfeld, Stadt","type":"Stadt"},"district":{"key":"15087","name":"Mansfeld-Südharz","type":"Landkreis"},"federalState":{"key":"15","name":"Sachsen-Anhalt"}},{"name":"Felsbergweg","postalCode":"06343","locality":"Mansfeld","municipality":{"key":"15087275","name":"Mansfeld, Stadt","type":"Stadt"},"district":{"key":"15087","name":"Mansfeld-Südharz","type":"Landkreis"},"federalState":{"key":"15","name":"Sachsen-Anhalt"}},{"name":"Fischergasse","postalCode":"06317","locality":"Seegebiet Mansfelder Land","municipality":{"key":"15087386","name":"Seegebiet Mansfelder Land","type":"Kreisangehörige_Gemeinde"},"district":{"key":"15087","name":"Mansfeld-Südharz","type":"Landkreis"},"federalState":{"key":"15","name":"Sachsen-Anhalt"}},{"name":"Fliederweg","postalCode":"06317","locality":"Seegebiet Mansfelder Land","municipality":{"key":"15087386","name":"Seegebiet Mansfelder Land","type":"Kreisangehörige_Gemeinde"},"district":{"key":"15087","name":"Mansfeld-Südharz","type":"Landkreis"},"federalState":{"key":"15","name":"Sachsen-Anhalt"}},{"name":"Fliederweg","postalCode":"06343","locality":"Mansfeld","municipality":{"key":"15087275","name":"Mansfeld, Stadt","type":"Stadt"},"district":{"key":"15087","name":"Mansfeld-Südharz","type":"Landkreis"},"federalState":{"key":"15","name":"Sachsen-Anhalt"}},{"name":"Flutgrabenstr.","postalCode":"06343","locality":"Mansfeld","municipality":{"key":"15087275","name":"Mansfeld, Stadt","type":"Stadt"},"district":{"key":"15087","name":"Mansfeld-Südharz","type":"Landkreis"},"federalState":{"key":"15","name":"Sachsen-Anhalt"}},{"name":"Försterberg","postalCode":"06343","locality":"Mansfeld","municipality":{"key":"15087275","name":"Mansfeld, Stadt","type":"Stadt"},"district":{"key":"15087","name":"Mansfeld-Südharz","type":"Landkreis"},"federalState":{"key":"15","name":"Sachsen-Anhalt"}},{"name":"Frankestr.","postalCode":"06317","locality":"Seegebiet Mansfelder Land","municipality":{"key":"15087386","name":"Seegebiet Mansfelder Land","type":"Kreisangehörige_Gemeinde"},"district":{"key":"15087","name":"Mansfeld-Südharz","type":"Landkreis"},"federalState":{"key":"15","name":"Sachsen-Anhalt"}},{"name":"Franzosenberg","postalCode":"06317","locality":"Seegebiet Mansfelder Land","municipality":{"key":"15087386","name":"Seegebiet Mansfelder Land","type":"Kreisangehörige_Gemeinde"},"district":{"key":"15087","name":"Mansfeld-Südharz","type":"Landkreis"},"federalState":{"key":"15","name":"Sachsen-Anhalt"}},{"name":"Franzosenweg","postalCode":"06317","locality":"Seegebiet Mansfelder Land","municipality":{"key":"15087386","name":"Seegebiet Mansfelder Land","type":"Kreisangehörige_Gemeinde"},"district":{"key":"15087","name":"Mansfeld-Südharz","type":"Landkreis"},"federalState":{"key":"15","name":"Sachsen-Anhalt"}},{"name":"Friedensallee","postalCode":"06343","locality":"Mansfeld","municipality":{"key":"15087275","name":"Mansfeld, Stadt","type":"Stadt"},"district":{"key":"15087","name":"Mansfeld-Südharz","type":"Landkreis"},"federalState":{"key":"15","name":"Sachsen-Anhalt"}},{"name":"Friedensstr.","postalCode":"06343","locality":"Mansfeld","municipality":{"key":"15087275","name":"Mansfeld, Stadt","type":"Stadt"},"district":{"key":"15087","name":"Mansfeld-Südharz","type":"Landkreis"},"federalState":{"key":"15","name":"Sachsen-Anhalt"}},{"name":"Friedenstr.","postalCode":"06343","locality":"Mansfeld","municipality":{"key":"15087275","name":"Mansfeld, Stadt","type":"Stadt"},"district":{"key":"15087","name":"Mansfeld-Südharz","type":"Landkreis"},"federalState":{"key":"15","name":"Sachsen-Anhalt"}},{"name":"Friedhofgasse","postalCode":"06343","locality":"Mansfeld","municipality":{"key":"15087275","name":"Mansfeld, Stadt","type":"Stadt"},"district":{"key":"15087","name":"Mansfeld-Südharz","type":"Landkreis"},"federalState":{"key":"15","name":"Sachsen-Anhalt"}},{"name":"Friedhofsallee","postalCode":"06308","locality":"Klostermansfeld","municipality":{"key":"15087260","name":"Klostermansfeld","type":"Kreisangehörige_Gemeinde"},"district":{"key":"15087","name":"Mansfeld-Südharz","type":"Landkreis"},"federalState":{"key":"15","name":"Sachsen-Anhalt"}},{"name":"Friedhofstr.","postalCode":"06317","locality":"Seegebiet Mansfelder Land","municipality":{"key":"15087386","name":"Seegebiet Mansfelder Land","type":"Kreisangehörige_Gemeinde"},"district":{"key":"15087","name":"Mansfeld-Südharz","type":"Landkreis"},"federalState":{"key":"15","name":"Sachsen-Anhalt"}},{"name":"Friedhofstr.","postalCode":"06343","locality":"Mansfeld","municipality":{"key":"15087275","name":"Mansfeld, Stadt","type":"Stadt"},"district":{"key":"15087","name":"Mansfeld-Südharz","type":"Landkreis"},"federalState":{"key":"15","name":"Sachsen-Anhalt"}},{"name":"Friedrich-Ebert-Str.","postalCode":"06308","locality":"Klostermansfeld","municipality":{"key":"15087260","name":"Klostermansfeld","type":"Kreisangehörige_Gemeinde"},"district":{"key":"15087","name":"Mansfeld-Südharz","type":"Landkreis"},"federalState":{"key":"15","name":"Sachsen-Anhalt"}},{"name":"Friedrich-Engels-Str.","postalCode":"06317","locality":"Seegebiet Mansfelder Land","municipality":{"key":"15087386","name":"Seegebiet Mansfelder Land","type":"Kreisangehörige_Gemeinde"},"district":{"key":"15087","name":"Mansfeld-Südharz","type":"Landkreis"},"federalState":{"key":"15","name":"Sachsen-Anhalt"}},{"name":"Friedrichstr.","postalCode":"06343","locality":"Mansfeld","municipality":{"key":"15087275","name":"Mansfeld, Stadt","type":"Stadt"},"district":{"key":"15087","name":"Mansfeld-Südharz","type":"Landkreis"},"federalState":{"key":"15","name":"Sachsen-Anhalt"}},{"name":"Friedrich-Wege-Str.","postalCode":"06317","locality":"Seegebiet Mansfelder Land","municipality":{"key":"15087386","name":"Seegebiet Mansfelder Land","type":"Kreisangehörige_Gemeinde"},"district":{"key":"15087","name":"Mansfeld-Südharz","type":"Landkreis"},"federalState":{"key":"15","name":"Sachsen-Anhalt"}},{"name":"Friesdorfer Anger","postalCode":"06343","locality":"Mansfeld","municipality":{"key":"15087275","name":"Mansfeld, Stadt","type":"Stadt"},"district":{"key":"15087","name":"Mansfeld-Südharz","type":"Landkreis"},"federalState":{"key":"15","name":"Sachsen-Anhalt"}},{"name":"Friesdorfer Dorfstr.","postalCode":"06343","locality":"Mansfeld","municipality":{"key":"15087275","name":"Mansfeld, Stadt","type":"Stadt"},"district":{"key":"15087","name":"Mansfeld-Südharz","type":"Landkreis"},"federalState":{"key":"15","name":"Sachsen-Anhalt"}},{"name":"Friesdorfer Hauptstr.","postalCode":"06343","locality":"Mansfeld","municipality":{"key":"15087275","name":"Mansfeld, Stadt","type":"Stadt"},"district":{"key":"15087","name":"Mansfeld-Südharz","type":"Landkreis"},"federalState":{"key":"15","name":"Sachsen-Anhalt"}},{"name":"Gartenstr.","postalCode":"06308","locality":"Klostermansfeld","municipality":{"key":"15087260","name":"Klostermansfeld","type":"Kreisangehörige_Gemeinde"},"district":{"key":"15087","name":"Mansfeld-Südharz","type":"Landkreis"},"federalState":{"key":"15","name":"Sachsen-Anhalt"}},{"name":"Gartenstr.","postalCode":"06317","locality":"Seegebiet Mansfelder Land","municipality":{"key":"15087386","name":"Seegebiet Mansfelder Land","type":"Kreisangehörige_Gemeinde"},"district":{"key":"15087","name":"Mansfeld-Südharz","type":"Landkreis"},"federalState":{"key":"15","name":"Sachsen-Anhalt"}},{"name":"Gartenstr.","postalCode":"06343","locality":"Mansfeld","municipality":{"key":"15087275","name":"Mansfeld, Stadt","type":"Stadt"},"district":{"key":"15087","name":"Mansfeld-Südharz","type":"Landkreis"},"federalState":{"key":"15","name":"Sachsen-Anhalt"}},{"name":"Gartenweg","postalCode":"06317","locality":"Seegebiet Mansfelder Land","municipality":{"key":"15087386","name":"Seegebiet Mansfelder Land","type":"Kreisangehörige_Gemeinde"},"district":{"key":"15087","name":"Mansfeld-Südharz","type":"Landkreis"},"federalState":{"key":"15","name":"Sachsen-Anhalt"}},{"name":"Gasse","postalCode":"06343","locality":"Mansfeld","municipality":{"key":"15087275","name":"Mansfeld, Stadt","type":"Stadt"},"district":{"key":"15087","name":"Mansfeld-Südharz","type":"Landkreis"},"federalState":{"key":"15","name":"Sachsen-Anhalt"}},{"name":"Gemeindegarten","postalCode":"06343","locality":"Mansfeld","municipality":{"key":"15087275","name":"Mansfeld, Stadt","type":"Stadt"},"district":{"key":"15087","name":"Mansfeld-Südharz","type":"Landkreis"},"federalState":{"key":"15","name":"Sachsen-Anhalt"}},{"name":"Geschwister-Scholl-Ring","postalCode":"06317","locality":"Seegebiet Mansfelder Land","municipality":{"key":"15087386","name":"Seegebiet Mansfelder Land","type":"Kreisangehörige_Gemeinde"},"district":{"key":"15087","name":"Mansfeld-Südharz","type":"Landkreis"},"federalState":{"key":"15","name":"Sachsen-Anhalt"}},{"name":"Geschwister-Scholl-Str.","postalCode":"06317","locality":"Seegebiet Mansfelder Land","municipality":{"key":"15087386","name":"Seegebiet Mansfelder Land","type":"Kreisangehörige_Gemeinde"},"district":{"key":"15087","name":"Mansfeld-Südharz","type":"Landkreis"},"federalState":{"key":"15","name":"Sachsen-Anhalt"}},{"name":"Glück-Auf-Siedlung","postalCode":"06317","locality":"Seegebiet Mansfelder Land","municipality":{"key":"15087386","name":"Seegebiet Mansfelder Land","type":"Kreisangehörige_Gemeinde"},"district":{"key":"15087","name":"Mansfeld-Südharz","type":"Landkreis"},"federalState":{"key":"15","name":"Sachsen-Anhalt"}},{"name":"Goethestr.","postalCode":"06343","locality":"Mansfeld","municipality":{"key":"15087275","name":"Mansfeld, Stadt","type":"Stadt"},"district":{"key":"15087","name":"Mansfeld-Südharz","type":"Landkreis"},"federalState":{"key":"15","name":"Sachsen-Anhalt"}},{"name":"Goldene Brücke","postalCode":"06343","locality":"Mansfeld","municipality":{"key":"15087275","name":"Mansfeld, Stadt","type":"Stadt"},"district":{"key":"15087","name":"Mansfeld-Südharz","type":"Landkreis"},"federalState":{"key":"15","name":"Sachsen-Anhalt"}},{"name":"Gottesackerweg","postalCode":"06317","locality":"Seegebiet Mansfelder Land","municipality":{"key":"15087386","name":"Seegebiet Mansfelder Land","type":"Kreisangehörige_Gemeinde"},"district":{"key":"15087","name":"Mansfeld-Südharz","type":"Landkreis"},"federalState":{"key":"15","name":"Sachsen-Anhalt"}},{"name":"Gottfried-August-Bürger-Str.","postalCode":"06343","locality":"Mansfeld","municipality":{"key":"15087275","name":"Mansfeld, Stadt","type":"Stadt"},"district":{"key":"15087","name":"Mansfeld-Südharz","type":"Landkreis"},"federalState":{"key":"15","name":"Sachsen-Anhalt"}},{"name":"Grabenstr.","postalCode":"06308","locality":"Klostermansfeld","municipality":{"key":"15087260","name":"Klostermansfeld","type":"Kreisangehörige_Gemeinde"},"district":{"key":"15087","name":"Mansfeld-Südharz","type":"Landkreis"},"federalState":{"key":"15","name":"Sachsen-Anhalt"}},{"name":"Grabenstr.","postalCode":"06317","locality":"Seegebiet Mansfelder Land","municipality":{"key":"15087386","name":"Seegebiet Mansfelder Land","type":"Kreisangehörige_Gemeinde"},"district":{"key":"15087","name":"Mansfeld-Südharz","type":"Landkreis"},"federalState":{"key":"15","name":"Sachsen-Anhalt"}},{"name":"Gräfenstühler Str.","postalCode":"06343","locality":"Mansfeld","municipality":{"key":"15087275","name":"Mansfeld, Stadt","type":"Stadt"},"district":{"key":"15087","name":"Mansfeld-Südharz","type":"Landkreis"},"federalState":{"key":"15","name":"Sachsen-Anhalt"}},{"name":"Grasberg","postalCode":"06317","locality":"Seegebiet Mansfelder Land","municipality":{"key":"15087386","name":"Seegebiet Mansfelder Land","type":"Kreisangehörige_Gemeinde"},"district":{"key":"15087","name":"Mansfeld-Südharz","type":"Landkreis"},"federalState":{"key":"15","name":"Sachsen-Anhalt"}},{"name":"Grasemannweg","postalCode":"06317","locality":"Seegebiet Mansfelder Land","municipality":{"key":"15087386","name":"Seegebiet Mansfelder Land","type":"Kreisangehörige_Gemeinde"},"district":{"key":"15087","name":"Mansfeld-Südharz","type":"Landkreis"},"federalState":{"key":"15","name":"Sachsen-Anhalt"}},{"name":"Grasnelkenweg","postalCode":"06317","locality":"Seegebiet Mansfelder Land","municipality":{"key":"15087386","name":"Seegebiet Mansfelder Land","type":"Kreisangehörige_Gemeinde"},"district":{"key":"15087","name":"Mansfeld-Südharz","type":"Landkreis"},"federalState":{"key":"15","name":"Sachsen-Anhalt"}},{"name":"Große Seestr.","postalCode":"06317","locality":"Seegebiet Mansfelder Land","municipality":{"key":"15087386","name":"Seegebiet Mansfelder Land","type":"Kreisangehörige_Gemeinde"},"district":{"key":"15087","name":"Mansfeld-Südharz","type":"Landkreis"},"federalState":{"key":"15","name":"Sachsen-Anhalt"}},{"name":"Hachenberg","postalCode":"06343","locality":"Mansfeld","municipality":{"key":"15087275","name":"Mansfeld, Stadt","type":"Stadt"},"district":{"key":"15087","name":"Mansfeld-Südharz","type":"Landkreis"},"federalState":{"key":"15","name":"Sachsen-Anhalt"}},{"name":"Hagenbachweg","postalCode":"06343","locality":"Mansfeld","municipality":{"key":"15087275","name":"Mansfeld, Stadt","type":"Stadt"},"district":{"key":"15087","name":"Mansfeld-Südharz","type":"Landkreis"},"federalState":{"key":"15","name":"Sachsen-Anhalt"}},{"name":"Hagenberg","postalCode":"06343","locality":"Mansfeld","municipality":{"key":"15087275","name":"Mansfeld, Stadt","type":"Stadt"},"district":{"key":"15087","name":"Mansfeld-Südharz","type":"Landkreis"},"federalState":{"key":"15","name":"Sachsen-Anhalt"}},{"name":"Hallbergstr.","postalCode":"06317","locality":"Seegebiet Mansfelder Land","municipality":{"key":"15087386","name":"Seegebiet Mansfelder Land","type":"Kreisangehörige_Gemeinde"},"district":{"key":"15087","name":"Mansfeld-Südharz","type":"Landkreis"},"federalState":{"key":"15","name":"Sachsen-Anhalt"}},{"name":"Hammeltrift","postalCode":"06343","locality":"Mansfeld","municipality":{"key":"15087275","name":"Mansfeld, Stadt","type":"Stadt"},"district":{"key":"15087","name":"Mansfeld-Südharz","type":"Landkreis"},"federalState":{"key":"15","name":"Sachsen-Anhalt"}},{"name":"Hammeltrift-Brücke","postalCode":"06343","locality":"Mansfeld","municipality":{"key":"15087275","name":"Mansfeld, Stadt","type":"Stadt"},"district":{"key":"15087","name":"Mansfeld-Südharz","type":"Landkreis"},"federalState":{"key":"15","name":"Sachsen-Anhalt"}},{"name":"Harzstr.","postalCode":"06343","locality":"Mansfeld","municipality":{"key":"15087275","name":"Mansfeld, Stadt","type":"Stadt"},"district":{"key":"15087","name":"Mansfeld-Südharz","type":"Landkreis"},"federalState":{"key":"15","name":"Sachsen-Anhalt"}},{"name":"Hasenwinkel","postalCode":"06343","locality":"Mansfeld","municipality":{"key":"15087275","name":"Mansfeld, Stadt","type":"Stadt"},"district":{"key":"15087","name":"Mansfeld-Südharz","type":"Landkreis"},"federalState":{"key":"15","name":"Sachsen-Anhalt"}},{"name":"Hauptstr.","postalCode":"06308","locality":"Klostermansfeld","municipality":{"key":"15087260","name":"Klostermansfeld","type":"Kreisangehörige_Gemeinde"},"district":{"key":"15087","name":"Mansfeld-Südharz","type":"Landkreis"},"federalState":{"key":"15","name":"Sachsen-Anhalt"}},{"name":"Hauptstr.","postalCode":"06317","locality":"Seegebiet Mansfelder Land","municipality":{"key":"15087386","name":"Seegebiet Mansfelder Land","type":"Kreisangehörige_Gemeinde"},"district":{"key":"15087","name":"Mansfeld-Südharz","type":"Landkreis"},"federalState":{"key":"15","name":"Sachsen-Anhalt"}},{"name":"Hauptstr.","postalCode":"06343","locality":"Mansfeld","municipality":{"key":"15087275","name":"Mansfeld, Stadt","type":"Stadt"},"district":{"key":"15087","name":"Mansfeld-Südharz","type":"Landkreis"},"federalState":{"key":"15","name":"Sachsen-Anhalt"}},{"name":"Hauptstr. Abberode","postalCode":"06343","locality":"Mansfeld","municipality":{"key":"15087275","name":"Mansfeld, Stadt","type":"Stadt"},"district":{"key":"15087","name":"Mansfeld-Südharz","type":"Landkreis"},"federalState":{"key":"15","name":"Sachsen-Anhalt"}},{"name":"Hauptstr. Molmerswende","postalCode":"06343","locality":"Mansfeld","municipality":{"key":"15087275","name":"Mansfeld, Stadt","type":"Stadt"},"district":{"key":"15087","name":"Mansfeld-Südharz","type":"Landkreis"},"federalState":{"key":"15","name":"Sachsen-Anhalt"}},{"name":"Hausberg","postalCode":"06343","locality":"Mansfeld","municipality":{"key":"15087275","name":"Mansfeld, Stadt","type":"Stadt"},"district":{"key":"15087","name":"Mansfeld-Südharz","type":"Landkreis"},"federalState":{"key":"15","name":"Sachsen-Anhalt"}},{"name":"Heinrich-Heine-Str.","postalCode":"06317","locality":"Seegebiet Mansfelder Land","municipality":{"key":"15087386","name":"Seegebiet Mansfelder Land","type":"Kreisangehörige_Gemeinde"},"district":{"key":"15087","name":"Mansfeld-Südharz","type":"Landkreis"},"federalState":{"key":"15","name":"Sachsen-Anhalt"}},{"name":"Helftaer Weg","postalCode":"06317","locality":"Seegebiet Mansfelder Land","municipality":{"key":"15087386","name":"Seegebiet Mansfelder Land","type":"Kreisangehörige_Gemeinde"},"district":{"key":"15087","name":"Mansfeld-Südharz","type":"Landkreis"},"federalState":{"key":"15","name":"Sachsen-Anhalt"}},{"name":"Herrenmühle","postalCode":"06343","locality":"Mansfeld","municipality":{"key":"15087275","name":"Mansfeld, Stadt","type":"Stadt"},"district":{"key":"15087","name":"Mansfeld-Südharz","type":"Landkreis"},"federalState":{"key":"15","name":"Sachsen-Anhalt"}},{"name":"Hettstedter Str.","postalCode":"06343","locality":"Mansfeld","municipality":{"key":"15087275","name":"Mansfeld, Stadt","type":"Stadt"},"district":{"key":"15087","name":"Mansfeld-Südharz","type":"Landkreis"},"federalState":{"key":"15","name":"Sachsen-Anhalt"}},{"name":"Hintere Dorfstr.","postalCode":"06343","locality":"Mansfeld","municipality":{"key":"15087275","name":"Mansfeld, Stadt","type":"Stadt"},"district":{"key":"15087","name":"Mansfeld-Südharz","type":"Landkreis"},"federalState":{"key":"15","name":"Sachsen-Anhalt"}},{"name":"Hintergasse","postalCode":"06317","locality":"Seegebiet Mansfelder Land","municipality":{"key":"15087386","name":"Seegebiet Mansfelder Land","type":"Kreisangehörige_Gemeinde"},"district":{"key":"15087","name":"Mansfeld-Südharz","type":"Landkreis"},"federalState":{"key":"15","name":"Sachsen-Anhalt"}},{"name":"Hinterm Stein","postalCode":"06343","locality":"Mansfeld","municipality":{"key":"15087275","name":"Mansfeld, Stadt","type":"Stadt"},"district":{"key":"15087","name":"Mansfeld-Südharz","type":"Landkreis"},"federalState":{"key":"15","name":"Sachsen-Anhalt"}},{"name":"Hoheleiteberg","postalCode":"06343","locality":"Mansfeld","municipality":{"key":"15087275","name":"Mansfeld, Stadt","type":"Stadt"},"district":{"key":"15087","name":"Mansfeld-Südharz","type":"Landkreis"},"federalState":{"key":"15","name":"Sachsen-Anhalt"}},{"name":"Hoheleitestr.","postalCode":"06343","locality":"Mansfeld","municipality":{"key":"15087275","name":"Mansfeld, Stadt","type":"Stadt"},"district":{"key":"15087","name":"Mansfeld-Südharz","type":"Landkreis"},"federalState":{"key":"15","name":"Sachsen-Anhalt"}},{"name":"Hohe Str.","postalCode":"06317","locality":"Seegebiet Mansfelder Land","municipality":{"key":"15087386","name":"Seegebiet Mansfelder Land","type":"Kreisangehörige_Gemeinde"},"district":{"key":"15087","name":"Mansfeld-Südharz","type":"Landkreis"},"federalState":{"key":"15","name":"Sachsen-Anhalt"}},{"name":"Hohe Str.","postalCode":"06343","locality":"Mansfeld","municipality":{"key":"15087275","name":"Mansfeld, Stadt","type":"Stadt"},"district":{"key":"15087","name":"Mansfeld-Südharz","type":"Landkreis"},"federalState":{"key":"15","name":"Sachsen-Anhalt"}},{"name":"Hohler Graben","postalCode":"06343","locality":"Mansfeld","municipality":{"key":"15087275","name":"Mansfeld, Stadt","type":"Stadt"},"district":{"key":"15087","name":"Mansfeld-Südharz","type":"Landkreis"},"federalState":{"key":"15","name":"Sachsen-Anhalt"}},{"name":"Holzzelle","postalCode":"06317","locality":"Seegebiet Mansfelder Land","municipality":{"key":"15087386","name":"Seegebiet Mansfelder Land","type":"Kreisangehörige_Gemeinde"},"district":{"key":"15087","name":"Mansfeld-Südharz","type":"Landkreis"},"federalState":{"key":"15","name":"Sachsen-Anhalt"}},{"name":"Hopfberg","postalCode":"06317","locality":"Seegebiet Mansfelder Land","municipality":{"key":"15087386","name":"Seegebiet Mansfelder Land","type":"Kreisangehörige_Gemeinde"},"district":{"key":"15087","name":"Mansfeld-Südharz","type":"Landkreis"},"federalState":{"key":"15","name":"Sachsen-Anhalt"}},{"name":"Horbeck","postalCode":"06343","locality":"Mansfeld","municipality":{"key":"15087275","name":"Mansfeld, Stadt","type":"Stadt"},"district":{"key":"15087","name":"Mansfeld-Südharz","type":"Landkreis"},"federalState":{"key":"15","name":"Sachsen-Anhalt"}},{"name":"Hornburger Str.","postalCode":"06317","locality":"Seegebiet Mansfelder Land","municipality":{"key":"15087386","name":"Seegebiet Mansfelder Land","type":"Kreisangehörige_Gemeinde"},"district":{"key":"15087","name":"Mansfeld-Südharz","type":"Landkreis"},"federalState":{"key":"15","name":"Sachsen-Anhalt"}},{"name":"Hutberg","postalCode":"06317","locality":"Seegebiet Mansfelder Land","municipality":{"key":"15087386","name":"Seegebiet Mansfelder Land","type":"Kreisangehörige_Gemeinde"},"district":{"key":"15087","name":"Mansfeld-Südharz","type":"Landkreis"},"federalState":{"key":"15","name":"Sachsen-Anhalt"}},{"name":"Hüttenstr.","postalCode":"06343","locality":"Mansfeld","municipality":{"key":"15087275","name":"Mansfeld, Stadt","type":"Stadt"},"district":{"key":"15087","name":"Mansfeld-Südharz","type":"Landkreis"},"federalState":{"key":"15","name":"Sachsen-Anhalt"}},{"name":"Ikenstr.","postalCode":"06343","locality":"Mansfeld","municipality":{"key":"15087275","name":"Mansfeld, Stadt","type":"Stadt"},"district":{"key":"15087","name":"Mansfeld-Südharz","type":"Landkreis"},"federalState":{"key":"15","name":"Sachsen-Anhalt"}},{"name":"Im Winkel","postalCode":"06343","locality":"Mansfeld","municipality":{"key":"15087275","name":"Mansfeld, Stadt","type":"Stadt"},"district":{"key":"15087","name":"Mansfeld-Südharz","type":"Landkreis"},"federalState":{"key":"15","name":"Sachsen-Anhalt"}},{"name":"In der Gasse","postalCode":"06343","locality":"Mansfeld","municipality":{"key":"15087275","name":"Mansfeld, Stadt","type":"Stadt"},"district":{"key":"15087","name":"Mansfeld-Südharz","type":"Landkreis"},"federalState":{"key":"15","name":"Sachsen-Anhalt"}},{"name":"Insel","postalCode":"06343","locality":"Mansfeld","municipality":{"key":"15087275","name":"Mansfeld, Stadt","type":"Stadt"},"district":{"key":"15087","name":"Mansfeld-Südharz","type":"Landkreis"},"federalState":{"key":"15","name":"Sachsen-Anhalt"}},{"name":"Jacobstr.","postalCode":"06308","locality":"Klostermansfeld","municipality":{"key":"15087260","name":"Klostermansfeld","type":"Kreisangehörige_Gemeinde"},"district":{"key":"15087","name":"Mansfeld-Südharz","type":"Landkreis"},"federalState":{"key":"15","name":"Sachsen-Anhalt"}},{"name":"Kajendorfstr.","postalCode":"06343","locality":"Mansfeld","municipality":{"key":"15087275","name":"Mansfeld, Stadt","type":"Stadt"},"district":{"key":"15087","name":"Mansfeld-Südharz","type":"Landkreis"},"federalState":{"key":"15","name":"Sachsen-Anhalt"}},{"name":"Kammerbachtal","postalCode":"06343","locality":"Mansfeld","municipality":{"key":"15087275","name":"Mansfeld, Stadt","type":"Stadt"},"district":{"key":"15087","name":"Mansfeld-Südharz","type":"Landkreis"},"federalState":{"key":"15","name":"Sachsen-Anhalt"}},{"name":"Karl-Hörhold-Str.","postalCode":"06317","locality":"Seegebiet Mansfelder Land","municipality":{"key":"15087386","name":"Seegebiet Mansfelder Land","type":"Kreisangehörige_Gemeinde"},"district":{"key":"15087","name":"Mansfeld-Südharz","type":"Landkreis"},"federalState":{"key":"15","name":"Sachsen-Anhalt"}},{"name":"Karl-Liebknecht-Str.","postalCode":"06317","locality":"Seegebiet Mansfelder Land","municipality":{"key":"15087386","name":"Seegebiet Mansfelder Land","type":"Kreisangehörige_Gemeinde"},"district":{"key":"15087","name":"Mansfeld-Südharz","type":"Landkreis"},"federalState":{"key":"15","name":"Sachsen-Anhalt"}},{"name":"Karl-Marx-Ring","postalCode":"06317","locality":"Seegebiet Mansfelder Land","municipality":{"key":"15087386","name":"Seegebiet Mansfelder Land","type":"Kreisangehörige_Gemeinde"},"district":{"key":"15087","name":"Mansfeld-Südharz","type":"Landkreis"},"federalState":{"key":"15","name":"Sachsen-Anhalt"}},{"name":"Karl-Marx-Str.","postalCode":"06317","locality":"Seegebiet Mansfelder Land","municipality":{"key":"15087386","name":"Seegebiet Mansfelder Land","type":"Kreisangehörige_Gemeinde"},"district":{"key":"15087","name":"Mansfeld-Südharz","type":"Landkreis"},"federalState":{"key":"15","name":"Sachsen-Anhalt"}},{"name":"Karlsberger Weg","postalCode":"06343","locality":"Mansfeld","municipality":{"key":"15087275","name":"Mansfeld, Stadt","type":"Stadt"},"district":{"key":"15087","name":"Mansfeld-Südharz","type":"Landkreis"},"federalState":{"key":"15","name":"Sachsen-Anhalt"}},{"name":"Karlstr.","postalCode":"06308","locality":"Klostermansfeld","municipality":{"key":"15087260","name":"Klostermansfeld","type":"Kreisangehörige_Gemeinde"},"district":{"key":"15087","name":"Mansfeld-Südharz","type":"Landkreis"},"federalState":{"key":"15","name":"Sachsen-Anhalt"}},{"name":"Karlstr.","postalCode":"06343","locality":"Mansfeld","municipality":{"key":"15087275","name":"Mansfeld, Stadt","type":"Stadt"},"district":{"key":"15087","name":"Mansfeld-Südharz","type":"Landkreis"},"federalState":{"key":"15","name":"Sachsen-Anhalt"}},{"name":"Karthäuser Gasse","postalCode":"06343","locality":"Mansfeld","municipality":{"key":"15087275","name":"Mansfeld, Stadt","type":"Stadt"},"district":{"key":"15087","name":"Mansfeld-Südharz","type":"Landkreis"},"federalState":{"key":"15","name":"Sachsen-Anhalt"}},{"name":"Kastanienweg","postalCode":"06317","locality":"Seegebiet Mansfelder Land","municipality":{"key":"15087386","name":"Seegebiet Mansfelder Land","type":"Kreisangehörige_Gemeinde"},"district":{"key":"15087","name":"Mansfeld-Südharz","type":"Landkreis"},"federalState":{"key":"15","name":"Sachsen-Anhalt"}},{"name":"Kastanienweg","postalCode":"06343","locality":"Mansfeld","municipality":{"key":"15087275","name":"Mansfeld, Stadt","type":"Stadt"},"district":{"key":"15087","name":"Mansfeld-Südharz","type":"Landkreis"},"federalState":{"key":"15","name":"Sachsen-Anhalt"}},{"name":"Kesselberg","postalCode":"06317","locality":"Seegebiet Mansfelder Land","municipality":{"key":"15087386","name":"Seegebiet Mansfelder Land","type":"Kreisangehörige_Gemeinde"},"district":{"key":"15087","name":"Mansfeld-Südharz","type":"Landkreis"},"federalState":{"key":"15","name":"Sachsen-Anhalt"}},{"name":"Kesselstr.","postalCode":"06317","locality":"Seegebiet Mansfelder Land","municipality":{"key":"15087386","name":"Seegebiet Mansfelder Land","type":"Kreisangehörige_Gemeinde"},"district":{"key":"15087","name":"Mansfeld-Südharz","type":"Landkreis"},"federalState":{"key":"15","name":"Sachsen-Anhalt"}},{"name":"Kinnstr.","postalCode":"06317","locality":"Seegebiet Mansfelder Land","municipality":{"key":"15087386","name":"Seegebiet Mansfelder Land","type":"Kreisangehörige_Gemeinde"},"district":{"key":"15087","name":"Mansfeld-Südharz","type":"Landkreis"},"federalState":{"key":"15","name":"Sachsen-Anhalt"}},{"name":"Kirchberg","postalCode":"06317","locality":"Seegebiet Mansfelder Land","municipality":{"key":"15087386","name":"Seegebiet Mansfelder Land","type":"Kreisangehörige_Gemeinde"},"district":{"key":"15087","name":"Mansfeld-Südharz","type":"Landkreis"},"federalState":{"key":"15","name":"Sachsen-Anhalt"}},{"name":"Kirchberg","postalCode":"06343","locality":"Mansfeld","municipality":{"key":"15087275","name":"Mansfeld, Stadt","type":"Stadt"},"district":{"key":"15087","name":"Mansfeld-Südharz","type":"Landkreis"},"federalState":{"key":"15","name":"Sachsen-Anhalt"}},{"name":"Kirchgasse","postalCode":"06317","locality":"Seegebiet Mansfelder Land","municipality":{"key":"15087386","name":"Seegebiet Mansfelder Land","type":"Kreisangehörige_Gemeinde"},"district":{"key":"15087","name":"Mansfeld-Südharz","type":"Landkreis"},"federalState":{"key":"15","name":"Sachsen-Anhalt"}},{"name":"Kirchplatz","postalCode":"06317","locality":"Seegebiet Mansfelder Land","municipality":{"key":"15087386","name":"Seegebiet Mansfelder Land","type":"Kreisangehörige_Gemeinde"},"district":{"key":"15087","name":"Mansfeld-Südharz","type":"Landkreis"},"federalState":{"key":"15","name":"Sachsen-Anhalt"}},{"name":"Kirchsiedlung","postalCode":"06317","locality":"Seegebiet Mansfelder Land","municipality":{"key":"15087386","name":"Seegebiet Mansfelder Land","type":"Kreisangehörige_Gemeinde"},"district":{"key":"15087","name":"Mansfeld-Südharz","type":"Landkreis"},"federalState":{"key":"15","name":"Sachsen-Anhalt"}},{"name":"Kirchstr.","postalCode":"06308","locality":"Klostermansfeld","municipality":{"key":"15087260","name":"Klostermansfeld","type":"Kreisangehörige_Gemeinde"},"district":{"key":"15087","name":"Mansfeld-Südharz","type":"Landkreis"},"federalState":{"key":"15","name":"Sachsen-Anhalt"}},{"name":"Kirchstr.","postalCode":"06317","locality":"Seegebiet Mansfelder Land","municipality":{"key":"15087386","name":"Seegebiet Mansfelder Land","type":"Kreisangehörige_Gemeinde"},"district":{"key":"15087","name":"Mansfeld-Südharz","type":"Landkreis"},"federalState":{"key":"15","name":"Sachsen-Anhalt"}},{"name":"Kirchstr.","postalCode":"06343","locality":"Mansfeld","municipality":{"key":"15087275","name":"Mansfeld, Stadt","type":"Stadt"},"district":{"key":"15087","name":"Mansfeld-Südharz","type":"Landkreis"},"federalState":{"key":"15","name":"Sachsen-Anhalt"}},{"name":"Kirchtal","postalCode":"06317","locality":"Seegebiet Mansfelder Land","municipality":{"key":"15087386","name":"Seegebiet Mansfelder Land","type":"Kreisangehörige_Gemeinde"},"district":{"key":"15087","name":"Mansfeld-Südharz","type":"Landkreis"},"federalState":{"key":"15","name":"Sachsen-Anhalt"}},{"name":"Kirschweg","postalCode":"06317","locality":"Seegebiet Mansfelder Land","municipality":{"key":"15087386","name":"Seegebiet Mansfelder Land","type":"Kreisangehörige_Gemeinde"},"district":{"key":"15087","name":"Mansfeld-Südharz","type":"Landkreis"},"federalState":{"key":"15","name":"Sachsen-Anhalt"}},{"name":"Klausstr.","postalCode":"06343","locality":"Mansfeld","municipality":{"key":"15087275","name":"Mansfeld, Stadt","type":"Stadt"},"district":{"key":"15087","name":"Mansfeld-Südharz","type":"Landkreis"},"federalState":{"key":"15","name":"Sachsen-Anhalt"}},{"name":"Klausstr. Saurasen","postalCode":"06343","locality":"Mansfeld","municipality":{"key":"15087275","name":"Mansfeld, Stadt","type":"Stadt"},"district":{"key":"15087","name":"Mansfeld-Südharz","type":"Landkreis"},"federalState":{"key":"15","name":"Sachsen-Anhalt"}},{"name":"Kleine Gasse","postalCode":"06317","locality":"Seegebiet Mansfelder Land","municipality":{"key":"15087386","name":"Seegebiet Mansfelder Land","type":"Kreisangehörige_Gemeinde"},"district":{"key":"15087","name":"Mansfeld-Südharz","type":"Landkreis"},"federalState":{"key":"15","name":"Sachsen-Anhalt"}},{"name":"Kleine Kesselstr.","postalCode":"06317","locality":"Seegebiet Mansfelder Land","municipality":{"key":"15087386","name":"Seegebiet Mansfelder Land","type":"Kreisangehörige_Gemeinde"},"district":{"key":"15087","name":"Mansfeld-Südharz","type":"Landkreis"},"federalState":{"key":"15","name":"Sachsen-Anhalt"}},{"name":"Kleine Schulstr.","postalCode":"06317","locality":"Seegebiet Mansfelder Land","municipality":{"key":"15087386","name":"Seegebiet Mansfelder Land","type":"Kreisangehörige_Gemeinde"},"district":{"key":"15087","name":"Mansfeld-Südharz","type":"Landkreis"},"federalState":{"key":"15","name":"Sachsen-Anhalt"}},{"name":"Kloppgasse","postalCode":"06343","locality":"Mansfeld","municipality":{"key":"15087275","name":"Mansfeld, Stadt","type":"Stadt"},"district":{"key":"15087","name":"Mansfeld-Südharz","type":"Landkreis"},"federalState":{"key":"15","name":"Sachsen-Anhalt"}},{"name":"Klosterstr.","postalCode":"06308","locality":"Klostermansfeld","municipality":{"key":"15087260","name":"Klostermansfeld","type":"Kreisangehörige_Gemeinde"},"district":{"key":"15087","name":"Mansfeld-Südharz","type":"Landkreis"},"federalState":{"key":"15","name":"Sachsen-Anhalt"}},{"name":"Köchstedter Weg","postalCode":"06317","locality":"Seegebiet Mansfelder Land","municipality":{"key":"15087386","name":"Seegebiet Mansfelder Land","type":"Kreisangehörige_Gemeinde"},"district":{"key":"15087","name":"Mansfeld-Südharz","type":"Landkreis"},"federalState":{"key":"15","name":"Sachsen-Anhalt"}},{"name":"Kohlenstr.","postalCode":"06343","locality":"Mansfeld","municipality":{"key":"15087275","name":"Mansfeld, Stadt","type":"Stadt"},"district":{"key":"15087","name":"Mansfeld-Südharz","type":"Landkreis"},"federalState":{"key":"15","name":"Sachsen-Anhalt"}},{"name":"Kohlenweg","postalCode":"06317","locality":"Seegebiet Mansfelder Land","municipality":{"key":"15087386","name":"Seegebiet Mansfelder Land","type":"Kreisangehörige_Gemeinde"},"district":{"key":"15087","name":"Mansfeld-Südharz","type":"Landkreis"},"federalState":{"key":"15","name":"Sachsen-Anhalt"}},{"name":"Köhlerstr.","postalCode":"06343","locality":"Mansfeld","municipality":{"key":"15087275","name":"Mansfeld, Stadt","type":"Stadt"},"district":{"key":"15087","name":"Mansfeld-Südharz","type":"Landkreis"},"federalState":{"key":"15","name":"Sachsen-Anhalt"}},{"name":"Kornblumenweg","postalCode":"06343","locality":"Mansfeld","municipality":{"key":"15087275","name":"Mansfeld, Stadt","type":"Stadt"},"district":{"key":"15087","name":"Mansfeld-Südharz","type":"Landkreis"},"federalState":{"key":"15","name":"Sachsen-Anhalt"}},{"name":"Krausenstr.","postalCode":"06308","locality":"Klostermansfeld","municipality":{"key":"15087260","name":"Klostermansfeld","type":"Kreisangehörige_Gemeinde"},"district":{"key":"15087","name":"Mansfeld-Südharz","type":"Landkreis"},"federalState":{"key":"15","name":"Sachsen-Anhalt"}},{"name":"Kreuzberg","postalCode":"06343","locality":"Mansfeld","municipality":{"key":"15087275","name":"Mansfeld, Stadt","type":"Stadt"},"district":{"key":"15087","name":"Mansfeld-Südharz","type":"Landkreis"},"federalState":{"key":"15","name":"Sachsen-Anhalt"}},{"name":"Kronenstr.","postalCode":"06343","locality":"Mansfeld","municipality":{"key":"15087275","name":"Mansfeld, Stadt","type":"Stadt"},"district":{"key":"15087","name":"Mansfeld-Südharz","type":"Landkreis"},"federalState":{"key":"15","name":"Sachsen-Anhalt"}},{"name":"Kuhbeekweg","postalCode":"06343","locality":"Mansfeld","municipality":{"key":"15087275","name":"Mansfeld, Stadt","type":"Stadt"},"district":{"key":"15087","name":"Mansfeld-Südharz","type":"Landkreis"},"federalState":{"key":"15","name":"Sachsen-Anhalt"}},{"name":"Kühler Morgen","postalCode":"06317","locality":"Seegebiet Mansfelder Land","municipality":{"key":"15087386","name":"Seegebiet Mansfelder Land","type":"Kreisangehörige_Gemeinde"},"district":{"key":"15087","name":"Mansfeld-Südharz","type":"Landkreis"},"federalState":{"key":"15","name":"Sachsen-Anhalt"}},{"name":"Kurze Str.","postalCode":"06308","locality":"Klostermansfeld","municipality":{"key":"15087260","name":"Klostermansfeld","type":"Kreisangehörige_Gemeinde"},"district":{"key":"15087","name":"Mansfeld-Südharz","type":"Landkreis"},"federalState":{"key":"15","name":"Sachsen-Anhalt"}},{"name":"Langenbogener Str.","postalCode":"06317","locality":"Seegebiet Mansfelder Land","municipality":{"key":"15087386","name":"Seegebiet Mansfelder Land","type":"Kreisangehörige_Gemeinde"},"district":{"key":"15087","name":"Mansfeld-Südharz","type":"Landkreis"},"federalState":{"key":"15","name":"Sachsen-Anhalt"}},{"name":"Langer Weg","postalCode":"06317","locality":"Seegebiet Mansfelder Land","municipality":{"key":"15087386","name":"Seegebiet Mansfelder Land","type":"Kreisangehörige_Gemeinde"},"district":{"key":"15087","name":"Mansfeld-Südharz","type":"Landkreis"},"federalState":{"key":"15","name":"Sachsen-Anhalt"}},{"name":"Lange Str.","postalCode":"06317","locality":"Seegebiet Mansfelder Land","municipality":{"key":"15087386","name":"Seegebiet Mansfelder Land","type":"Kreisangehörige_Gemeinde"},"district":{"key":"15087","name":"Mansfeld-Südharz","type":"Landkreis"},"federalState":{"key":"15","name":"Sachsen-Anhalt"}},{"name":"Lange Str.","postalCode":"06343","locality":"Mansfeld","municipality":{"key":"15087275","name":"Mansfeld, Stadt","type":"Stadt"},"district":{"key":"15087","name":"Mansfeld-Südharz","type":"Landkreis"},"federalState":{"key":"15","name":"Sachsen-Anhalt"}},{"name":"Lange Wiesen","postalCode":"06343","locality":"Mansfeld","municipality":{"key":"15087275","name":"Mansfeld, Stadt","type":"Stadt"},"district":{"key":"15087","name":"Mansfeld-Südharz","type":"Landkreis"},"federalState":{"key":"15","name":"Sachsen-Anhalt"}},{"name":"Lauraweg","postalCode":"06317","locality":"Seegebiet Mansfelder Land","municipality":{"key":"15087386","name":"Seegebiet Mansfelder Land","type":"Kreisangehörige_Gemeinde"},"district":{"key":"15087","name":"Mansfeld-Südharz","type":"Landkreis"},"federalState":{"key":"15","name":"Sachsen-Anhalt"}},{"name":"Lawekeweg","postalCode":"06317","locality":"Seegebiet Mansfelder Land","municipality":{"key":"15087386","name":"Seegebiet Mansfelder Land","type":"Kreisangehörige_Gemeinde"},"district":{"key":"15087","name":"Mansfeld-Südharz","type":"Landkreis"},"federalState":{"key":"15","name":"Sachsen-Anhalt"}},{"name":"Ledigenheim","postalCode":"06317","locality":"Seegebiet Mansfelder Land","municipality":{"key":"15087386","name":"Seegebiet Mansfelder Land","type":"Kreisangehörige_Gemeinde"},"district":{"key":"15087","name":"Mansfeld-Südharz","type":"Landkreis"},"federalState":{"key":"15","name":"Sachsen-Anhalt"}},{"name":"Leimbacher Feldstr.","postalCode":"06343","locality":"Mansfeld","municipality":{"key":"15087275","name":"Mansfeld, Stadt","type":"Stadt"},"district":{"key":"15087","name":"Mansfeld-Südharz","type":"Landkreis"},"federalState":{"key":"15","name":"Sachsen-Anhalt"}},{"name":"Leimbacher Gartenstr.","postalCode":"06343","locality":"Mansfeld","municipality":{"key":"15087275","name":"Mansfeld, Stadt","type":"Stadt"},"district":{"key":"15087","name":"Mansfeld-Südharz","type":"Landkreis"},"federalState":{"key":"15","name":"Sachsen-Anhalt"}},{"name":"Leimbacher Hüttenberg","postalCode":"06343","locality":"Mansfeld","municipality":{"key":"15087275","name":"Mansfeld, Stadt","type":"Stadt"},"district":{"key":"15087","name":"Mansfeld-Südharz","type":"Landkreis"},"federalState":{"key":"15","name":"Sachsen-Anhalt"}},{"name":"Leimbacher Kirchstr.","postalCode":"06343","locality":"Mansfeld","municipality":{"key":"15087275","name":"Mansfeld, Stadt","type":"Stadt"},"district":{"key":"15087","name":"Mansfeld-Südharz","type":"Landkreis"},"federalState":{"key":"15","name":"Sachsen-Anhalt"}},{"name":"Leinemühle","postalCode":"06343","locality":"Mansfeld","municipality":{"key":"15087275","name":"Mansfeld, Stadt","type":"Stadt"},"district":{"key":"15087","name":"Mansfeld-Südharz","type":"Landkreis"},"federalState":{"key":"15","name":"Sachsen-Anhalt"}},{"name":"Lindbergweg","postalCode":"06343","locality":"Mansfeld","municipality":{"key":"15087275","name":"Mansfeld, Stadt","type":"Stadt"},"district":{"key":"15087","name":"Mansfeld-Südharz","type":"Landkreis"},"federalState":{"key":"15","name":"Sachsen-Anhalt"}},{"name":"Lindenallee","postalCode":"06317","locality":"Seegebiet Mansfelder Land","municipality":{"key":"15087386","name":"Seegebiet Mansfelder Land","type":"Kreisangehörige_Gemeinde"},"district":{"key":"15087","name":"Mansfeld-Südharz","type":"Landkreis"},"federalState":{"key":"15","name":"Sachsen-Anhalt"}},{"name":"Lindenplatz","postalCode":"06317","locality":"Seegebiet Mansfelder Land","municipality":{"key":"15087386","name":"Seegebiet Mansfelder Land","type":"Kreisangehörige_Gemeinde"},"district":{"key":"15087","name":"Mansfeld-Südharz","type":"Landkreis"},"federalState":{"key":"15","name":"Sachsen-Anhalt"}},{"name":"Lindenstr.","postalCode":"06317","locality":"Seegebiet Mansfelder Land","municipality":{"key":"15087386","name":"Seegebiet Mansfelder Land","type":"Kreisangehörige_Gemeinde"},"district":{"key":"15087","name":"Mansfeld-Südharz","type":"Landkreis"},"federalState":{"key":"15","name":"Sachsen-Anhalt"}},{"name":"Lindenstr.","postalCode":"06343","locality":"Mansfeld","municipality":{"key":"15087275","name":"Mansfeld, Stadt","type":"Stadt"},"district":{"key":"15087","name":"Mansfeld-Südharz","type":"Landkreis"},"federalState":{"key":"15","name":"Sachsen-Anhalt"}},{"name":"Lindenweg","postalCode":"06317","locality":"Seegebiet Mansfelder Land","municipality":{"key":"15087386","name":"Seegebiet Mansfelder Land","type":"Kreisangehörige_Gemeinde"},"district":{"key":"15087","name":"Mansfeld-Südharz","type":"Landkreis"},"federalState":{"key":"15","name":"Sachsen-Anhalt"}},{"name":"Lochweg","postalCode":"06343","locality":"Mansfeld","municipality":{"key":"15087275","name":"Mansfeld, Stadt","type":"Stadt"},"district":{"key":"15087","name":"Mansfeld-Südharz","type":"Landkreis"},"federalState":{"key":"15","name":"Sachsen-Anhalt"}},{"name":"Lohberg","postalCode":"06343","locality":"Mansfeld","municipality":{"key":"15087275","name":"Mansfeld, Stadt","type":"Stadt"},"district":{"key":"15087","name":"Mansfeld-Südharz","type":"Landkreis"},"federalState":{"key":"15","name":"Sachsen-Anhalt"}},{"name":"Ludwig-Jahn-Str.","postalCode":"06308","locality":"Klostermansfeld","municipality":{"key":"15087260","name":"Klostermansfeld","type":"Kreisangehörige_Gemeinde"},"district":{"key":"15087","name":"Mansfeld-Südharz","type":"Landkreis"},"federalState":{"key":"15","name":"Sachsen-Anhalt"}},{"name":"Luisenstr.","postalCode":"06308","locality":"Klostermansfeld","municipality":{"key":"15087260","name":"Klostermansfeld","type":"Kreisangehörige_Gemeinde"},"district":{"key":"15087","name":"Mansfeld-Südharz","type":"Landkreis"},"federalState":{"key":"15","name":"Sachsen-Anhalt"}},{"name":"Lutherstr.","postalCode":"06343","locality":"Mansfeld","municipality":{"key":"15087275","name":"Mansfeld, Stadt","type":"Stadt"},"district":{"key":"15087","name":"Mansfeld-Südharz","type":"Landkreis"},"federalState":{"key":"15","name":"Sachsen-Anhalt"}},{"name":"Lüttchendorfer Str.","postalCode":"06317","locality":"Seegebiet Mansfelder Land","municipality":{"key":"15087386","name":"Seegebiet Mansfelder Land","type":"Kreisangehörige_Gemeinde"},"district":{"key":"15087","name":"Mansfeld-Südharz","type":"Landkreis"},"federalState":{"key":"15","name":"Sachsen-Anhalt"}},{"name":"Lutzenbornstr.","postalCode":"06317","locality":"Seegebiet Mansfelder Land","municipality":{"key":"15087386","name":"Seegebiet Mansfelder Land","type":"Kreisangehörige_Gemeinde"},"district":{"key":"15087","name":"Mansfeld-Südharz","type":"Landkreis"},"federalState":{"key":"15","name":"Sachsen-Anhalt"}},{"name":"Mansfelder Ring","postalCode":"06343","locality":"Mansfeld","municipality":{"key":"15087275","name":"Mansfeld, Stadt","type":"Stadt"},"district":{"key":"15087","name":"Mansfeld-Südharz","type":"Landkreis"},"federalState":{"key":"15","name":"Sachsen-Anhalt"}},{"name":"Mansfelder Str.","postalCode":"06308","locality":"Klostermansfeld","municipality":{"key":"15087260","name":"Klostermansfeld","type":"Kreisangehörige_Gemeinde"},"district":{"key":"15087","name":"Mansfeld-Südharz","type":"Landkreis"},"federalState":{"key":"15","name":"Sachsen-Anhalt"}},{"name":"Mansfelder Str.","postalCode":"06343","locality":"Mansfeld","municipality":{"key":"15087275","name":"Mansfeld, Stadt","type":"Stadt"},"district":{"key":"15087","name":"Mansfeld-Südharz","type":"Landkreis"},"federalState":{"key":"15","name":"Sachsen-Anhalt"}},{"name":"Martin-Deutsch-Str.","postalCode":"06317","locality":"Seegebiet Mansfelder Land","municipality":{"key":"15087386","name":"Seegebiet Mansfelder Land","type":"Kreisangehörige_Gemeinde"},"district":{"key":"15087","name":"Mansfeld-Südharz","type":"Landkreis"},"federalState":{"key":"15","name":"Sachsen-Anhalt"}},{"name":"Meisberger Str.","postalCode":"06343","locality":"Mansfeld","municipality":{"key":"15087275","name":"Mansfeld, Stadt","type":"Stadt"},"district":{"key":"15087","name":"Mansfeld-Südharz","type":"Landkreis"},"federalState":{"key":"15","name":"Sachsen-Anhalt"}},{"name":"Mittelstr.","postalCode":"06343","locality":"Mansfeld","municipality":{"key":"15087275","name":"Mansfeld, Stadt","type":"Stadt"},"district":{"key":"15087","name":"Mansfeld-Südharz","type":"Landkreis"},"federalState":{"key":"15","name":"Sachsen-Anhalt"}},{"name":"Mittelstr. Abberode","postalCode":"06343","locality":"Mansfeld","municipality":{"key":"15087275","name":"Mansfeld, Stadt","type":"Stadt"},"district":{"key":"15087","name":"Mansfeld-Südharz","type":"Landkreis"},"federalState":{"key":"15","name":"Sachsen-Anhalt"}},{"name":"Mittelstr. Großörner","postalCode":"06343","locality":"Mansfeld","municipality":{"key":"15087275","name":"Mansfeld, Stadt","type":"Stadt"},"district":{"key":"15087","name":"Mansfeld-Südharz","type":"Landkreis"},"federalState":{"key":"15","name":"Sachsen-Anhalt"}},{"name":"Mittelweg","postalCode":"06317","locality":"Seegebiet Mansfelder Land","municipality":{"key":"15087386","name":"Seegebiet Mansfelder Land","type":"Kreisangehörige_Gemeinde"},"district":{"key":"15087","name":"Mansfeld-Südharz","type":"Landkreis"},"federalState":{"key":"15","name":"Sachsen-Anhalt"}},{"name":"Möllendorfer Dorfstr.","postalCode":"06343","locality":"Mansfeld","municipality":{"key":"15087275","name":"Mansfeld, Stadt","type":"Stadt"},"district":{"key":"15087","name":"Mansfeld-Südharz","type":"Landkreis"},"federalState":{"key":"15","name":"Sachsen-Anhalt"}},{"name":"Möllendorfer Str.","postalCode":"06343","locality":"Mansfeld","municipality":{"key":"15087275","name":"Mansfeld, Stadt","type":"Stadt"},"district":{"key":"15087","name":"Mansfeld-Südharz","type":"Landkreis"},"federalState":{"key":"15","name":"Sachsen-Anhalt"}},{"name":"Möllendorfer Weg","postalCode":"06343","locality":"Mansfeld","municipality":{"key":"15087275","name":"Mansfeld, Stadt","type":"Stadt"},"district":{"key":"15087","name":"Mansfeld-Südharz","type":"Landkreis"},"federalState":{"key":"15","name":"Sachsen-Anhalt"}},{"name":"Molmecker Str.","postalCode":"06343","locality":"Mansfeld","municipality":{"key":"15087275","name":"Mansfeld, Stadt","type":"Stadt"},"district":{"key":"15087","name":"Mansfeld-Südharz","type":"Landkreis"},"federalState":{"key":"15","name":"Sachsen-Anhalt"}},{"name":"Mühlenstr.","postalCode":"06343","locality":"Mansfeld","municipality":{"key":"15087275","name":"Mansfeld, Stadt","type":"Stadt"},"district":{"key":"15087","name":"Mansfeld-Südharz","type":"Landkreis"},"federalState":{"key":"15","name":"Sachsen-Anhalt"}},{"name":"Mühlenufer","postalCode":"06343","locality":"Mansfeld","municipality":{"key":"15087275","name":"Mansfeld, Stadt","type":"Stadt"},"district":{"key":"15087","name":"Mansfeld-Südharz","type":"Landkreis"},"federalState":{"key":"15","name":"Sachsen-Anhalt"}},{"name":"Mühlgasse","postalCode":"06343","locality":"Mansfeld","municipality":{"key":"15087275","name":"Mansfeld, Stadt","type":"Stadt"},"district":{"key":"15087","name":"Mansfeld-Südharz","type":"Landkreis"},"federalState":{"key":"15","name":"Sachsen-Anhalt"}},{"name":"Mühlweg","postalCode":"06317","locality":"Seegebiet Mansfelder Land","municipality":{"key":"15087386","name":"Seegebiet Mansfelder Land","type":"Kreisangehörige_Gemeinde"},"district":{"key":"15087","name":"Mansfeld-Südharz","type":"Landkreis"},"federalState":{"key":"15","name":"Sachsen-Anhalt"}},{"name":"Mühlweg","postalCode":"06343","locality":"Mansfeld","municipality":{"key":"15087275","name":"Mansfeld, Stadt","type":"Stadt"},"district":{"key":"15087","name":"Mansfeld-Südharz","type":"Landkreis"},"federalState":{"key":"15","name":"Sachsen-Anhalt"}},{"name":"Mühlwegstr.","postalCode":"06317","locality":"Seegebiet Mansfelder Land","municipality":{"key":"15087386","name":"Seegebiet Mansfelder Land","type":"Kreisangehörige_Gemeinde"},"district":{"key":"15087","name":"Mansfeld-Südharz","type":"Landkreis"},"federalState":{"key":"15","name":"Sachsen-Anhalt"}},{"name":"Nach der Wäsche","postalCode":"06343","locality":"Mansfeld","municipality":{"key":"15087275","name":"Mansfeld, Stadt","type":"Stadt"},"district":{"key":"15087","name":"Mansfeld-Südharz","type":"Landkreis"},"federalState":{"key":"15","name":"Sachsen-Anhalt"}},{"name":"Neubauernsiedlung","postalCode":"06317","locality":"Seegebiet Mansfelder Land","municipality":{"key":"15087386","name":"Seegebiet Mansfelder Land","type":"Kreisangehörige_Gemeinde"},"district":{"key":"15087","name":"Mansfeld-Südharz","type":"Landkreis"},"federalState":{"key":"15","name":"Sachsen-Anhalt"}},{"name":"Neue Bergstr.","postalCode":"06343","locality":"Mansfeld","municipality":{"key":"15087275","name":"Mansfeld, Stadt","type":"Stadt"},"district":{"key":"15087","name":"Mansfeld-Südharz","type":"Landkreis"},"federalState":{"key":"15","name":"Sachsen-Anhalt"}},{"name":"Neue Mittelstr.","postalCode":"06343","locality":"Mansfeld","municipality":{"key":"15087275","name":"Mansfeld, Stadt","type":"Stadt"},"district":{"key":"15087","name":"Mansfeld-Südharz","type":"Landkreis"},"federalState":{"key":"15","name":"Sachsen-Anhalt"}},{"name":"Neue Siedlung","postalCode":"06317","locality":"Seegebiet Mansfelder Land","municipality":{"key":"15087386","name":"Seegebiet Mansfelder Land","type":"Kreisangehörige_Gemeinde"},"district":{"key":"15087","name":"Mansfeld-Südharz","type":"Landkreis"},"federalState":{"key":"15","name":"Sachsen-Anhalt"}},{"name":"Neue Siedlung","postalCode":"06343","locality":"Mansfeld","municipality":{"key":"15087275","name":"Mansfeld, Stadt","type":"Stadt"},"district":{"key":"15087","name":"Mansfeld-Südharz","type":"Landkreis"},"federalState":{"key":"15","name":"Sachsen-Anhalt"}},{"name":"Neue Siedlung Amsdorf","postalCode":"06317","locality":"Seegebiet Mansfelder Land","municipality":{"key":"15087386","name":"Seegebiet Mansfelder Land","type":"Kreisangehörige_Gemeinde"},"district":{"key":"15087","name":"Mansfeld-Südharz","type":"Landkreis"},"federalState":{"key":"15","name":"Sachsen-Anhalt"}},{"name":"Neue Str.","postalCode":"06308","locality":"Klostermansfeld","municipality":{"key":"15087260","name":"Klostermansfeld","type":"Kreisangehörige_Gemeinde"},"district":{"key":"15087","name":"Mansfeld-Südharz","type":"Landkreis"},"federalState":{"key":"15","name":"Sachsen-Anhalt"}},{"name":"Neue Str.","postalCode":"06317","locality":"Seegebiet Mansfelder Land","municipality":{"key":"15087386","name":"Seegebiet Mansfelder Land","type":"Kreisangehörige_Gemeinde"},"district":{"key":"15087","name":"Mansfeld-Südharz","type":"Landkreis"},"federalState":{"key":"15","name":"Sachsen-Anhalt"}},{"name":"Neue Str.","postalCode":"06343","locality":"Mansfeld","municipality":{"key":"15087275","name":"Mansfeld, Stadt","type":"Stadt"},"district":{"key":"15087","name":"Mansfeld-Südharz","type":"Landkreis"},"federalState":{"key":"15","name":"Sachsen-Anhalt"}},{"name":"Neue Str. Abberode","postalCode":"06343","locality":"Mansfeld","municipality":{"key":"15087275","name":"Mansfeld, Stadt","type":"Stadt"},"district":{"key":"15087","name":"Mansfeld-Südharz","type":"Landkreis"},"federalState":{"key":"15","name":"Sachsen-Anhalt"}},{"name":"Neumarkt","postalCode":"06317","locality":"Seegebiet Mansfelder Land","municipality":{"key":"15087386","name":"Seegebiet Mansfelder Land","type":"Kreisangehörige_Gemeinde"},"district":{"key":"15087","name":"Mansfeld-Südharz","type":"Landkreis"},"federalState":{"key":"15","name":"Sachsen-Anhalt"}},{"name":"Neumarktstr.","postalCode":"06343","locality":"Mansfeld","municipality":{"key":"15087275","name":"Mansfeld, Stadt","type":"Stadt"},"district":{"key":"15087","name":"Mansfeld-Südharz","type":"Landkreis"},"federalState":{"key":"15","name":"Sachsen-Anhalt"}},{"name":"Nonnengrund","postalCode":"06317","locality":"Seegebiet Mansfelder Land","municipality":{"key":"15087386","name":"Seegebiet Mansfelder Land","type":"Kreisangehörige_Gemeinde"},"district":{"key":"15087","name":"Mansfeld-Südharz","type":"Landkreis"},"federalState":{"key":"15","name":"Sachsen-Anhalt"}},{"name":"Nordstr.","postalCode":"06343","locality":"Mansfeld","municipality":{"key":"15087275","name":"Mansfeld, Stadt","type":"Stadt"},"district":{"key":"15087","name":"Mansfeld-Südharz","type":"Landkreis"},"federalState":{"key":"15","name":"Sachsen-Anhalt"}},{"name":"Nordstrand","postalCode":"06317","locality":"Seegebiet Mansfelder Land","municipality":{"key":"15087386","name":"Seegebiet Mansfelder Land","type":"Kreisangehörige_Gemeinde"},"district":{"key":"15087","name":"Mansfeld-Südharz","type":"Landkreis"},"federalState":{"key":"15","name":"Sachsen-Anhalt"}},{"name":"Nusspark","postalCode":"06317","locality":"Seegebiet Mansfelder Land","municipality":{"key":"15087386","name":"Seegebiet Mansfelder Land","type":"Kreisangehörige_Gemeinde"},"district":{"key":"15087","name":"Mansfeld-Südharz","type":"Landkreis"},"federalState":{"key":"15","name":"Sachsen-Anhalt"}},{"name":"Nußweg","postalCode":"06317","locality":"Seegebiet Mansfelder Land","municipality":{"key":"15087386","name":"Seegebiet Mansfelder Land","type":"Kreisangehörige_Gemeinde"},"district":{"key":"15087","name":"Mansfeld-Südharz","type":"Landkreis"},"federalState":{"key":"15","name":"Sachsen-Anhalt"}},{"name":"Obere Dorfstr.","postalCode":"06343","locality":"Mansfeld","municipality":{"key":"15087275","name":"Mansfeld, Stadt","type":"Stadt"},"district":{"key":"15087","name":"Mansfeld-Südharz","type":"Landkreis"},"federalState":{"key":"15","name":"Sachsen-Anhalt"}},{"name":"Obere Schraplauer Str.","postalCode":"06317","locality":"Seegebiet Mansfelder Land","municipality":{"key":"15087386","name":"Seegebiet Mansfelder Land","type":"Kreisangehörige_Gemeinde"},"district":{"key":"15087","name":"Mansfeld-Südharz","type":"Landkreis"},"federalState":{"key":"15","name":"Sachsen-Anhalt"}},{"name":"Oberstr.","postalCode":"06343","locality":"Mansfeld","municipality":{"key":"15087275","name":"Mansfeld, Stadt","type":"Stadt"},"district":{"key":"15087","name":"Mansfeld-Südharz","type":"Landkreis"},"federalState":{"key":"15","name":"Sachsen-Anhalt"}},{"name":"Ottilienweg","postalCode":"06317","locality":"Seegebiet Mansfelder Land","municipality":{"key":"15087386","name":"Seegebiet Mansfelder Land","type":"Kreisangehörige_Gemeinde"},"district":{"key":"15087","name":"Mansfeld-Südharz","type":"Landkreis"},"federalState":{"key":"15","name":"Sachsen-Anhalt"}},{"name":"Otto-König-Platz","postalCode":"06317","locality":"Seegebiet Mansfelder Land","municipality":{"key":"15087386","name":"Seegebiet Mansfelder Land","type":"Kreisangehörige_Gemeinde"},"district":{"key":"15087","name":"Mansfeld-Südharz","type":"Landkreis"},"federalState":{"key":"15","name":"Sachsen-Anhalt"}},{"name":"Otto-Schlag-Str.","postalCode":"06317","locality":"Seegebiet Mansfelder Land","municipality":{"key":"15087386","name":"Seegebiet Mansfelder Land","type":"Kreisangehörige_Gemeinde"},"district":{"key":"15087","name":"Mansfeld-Südharz","type":"Landkreis"},"federalState":{"key":"15","name":"Sachsen-Anhalt"}},{"name":"Ottostr.","postalCode":"06343","locality":"Mansfeld","municipality":{"key":"15087275","name":"Mansfeld, Stadt","type":"Stadt"},"district":{"key":"15087","name":"Mansfeld-Südharz","type":"Landkreis"},"federalState":{"key":"15","name":"Sachsen-Anhalt"}},{"name":"Panoramaweg","postalCode":"06343","locality":"Mansfeld","municipality":{"key":"15087275","name":"Mansfeld, Stadt","type":"Stadt"},"district":{"key":"15087","name":"Mansfeld-Südharz","type":"Landkreis"},"federalState":{"key":"15","name":"Sachsen-Anhalt"}},{"name":"Park Annarode","postalCode":"06343","locality":"Mansfeld","municipality":{"key":"15087275","name":"Mansfeld, Stadt","type":"Stadt"},"district":{"key":"15087","name":"Mansfeld-Südharz","type":"Landkreis"},"federalState":{"key":"15","name":"Sachsen-Anhalt"}},{"name":"Pepersberg","postalCode":"06343","locality":"Mansfeld","municipality":{"key":"15087275","name":"Mansfeld, Stadt","type":"Stadt"},"district":{"key":"15087","name":"Mansfeld-Südharz","type":"Landkreis"},"federalState":{"key":"15","name":"Sachsen-Anhalt"}},{"name":"Petristift","postalCode":"06317","locality":"Seegebiet Mansfelder Land","municipality":{"key":"15087386","name":"Seegebiet Mansfelder Land","type":"Kreisangehörige_Gemeinde"},"district":{"key":"15087","name":"Mansfeld-Südharz","type":"Landkreis"},"federalState":{"key":"15","name":"Sachsen-Anhalt"}},{"name":"Pfarrstr.","postalCode":"06317","locality":"Seegebiet Mansfelder Land","municipality":{"key":"15087386","name":"Seegebiet Mansfelder Land","type":"Kreisangehörige_Gemeinde"},"district":{"key":"15087","name":"Mansfeld-Südharz","type":"Landkreis"},"federalState":{"key":"15","name":"Sachsen-Anhalt"}},{"name":"Pfirsichweg","postalCode":"06317","locality":"Seegebiet Mansfelder Land","municipality":{"key":"15087386","name":"Seegebiet Mansfelder Land","type":"Kreisangehörige_Gemeinde"},"district":{"key":"15087","name":"Mansfeld-Südharz","type":"Landkreis"},"federalState":{"key":"15","name":"Sachsen-Anhalt"}},{"name":"Piekestr.","postalCode":"06317","locality":"Seegebiet Mansfelder Land","municipality":{"key":"15087386","name":"Seegebiet Mansfelder Land","type":"Kreisangehörige_Gemeinde"},"district":{"key":"15087","name":"Mansfeld-Südharz","type":"Landkreis"},"federalState":{"key":"15","name":"Sachsen-Anhalt"}},{"name":"Pionierstr.","postalCode":"06317","locality":"Seegebiet Mansfelder Land","municipality":{"key":"15087386","name":"Seegebiet Mansfelder Land","type":"Kreisangehörige_Gemeinde"},"district":{"key":"15087","name":"Mansfeld-Südharz","type":"Landkreis"},"federalState":{"key":"15","name":"Sachsen-Anhalt"}},{"name":"Plan","postalCode":"06343","locality":"Mansfeld","municipality":{"key":"15087275","name":"Mansfeld, Stadt","type":"Stadt"},"district":{"key":"15087","name":"Mansfeld-Südharz","type":"Landkreis"},"federalState":{"key":"15","name":"Sachsen-Anhalt"}},{"name":"Platz der Freundschaft","postalCode":"06317","locality":"Seegebiet Mansfelder Land","municipality":{"key":"15087386","name":"Seegebiet Mansfelder Land","type":"Kreisangehörige_Gemeinde"},"district":{"key":"15087","name":"Mansfeld-Südharz","type":"Landkreis"},"federalState":{"key":"15","name":"Sachsen-Anhalt"}},{"name":"Postplatz","postalCode":"06343","locality":"Mansfeld","municipality":{"key":"15087275","name":"Mansfeld, Stadt","type":"Stadt"},"district":{"key":"15087","name":"Mansfeld-Südharz","type":"Landkreis"},"federalState":{"key":"15","name":"Sachsen-Anhalt"}},{"name":"Poststr.","postalCode":"06317","locality":"Seegebiet Mansfelder Land","municipality":{"key":"15087386","name":"Seegebiet Mansfelder Land","type":"Kreisangehörige_Gemeinde"},"district":{"key":"15087","name":"Mansfeld-Südharz","type":"Landkreis"},"federalState":{"key":"15","name":"Sachsen-Anhalt"}},{"name":"Poststr.","postalCode":"06343","locality":"Mansfeld","municipality":{"key":"15087275","name":"Mansfeld, Stadt","type":"Stadt"},"district":{"key":"15087","name":"Mansfeld-Südharz","type":"Landkreis"},"federalState":{"key":"15","name":"Sachsen-Anhalt"}},{"name":"Postweg","postalCode":"06317","locality":"Seegebiet Mansfelder Land","municipality":{"key":"15087386","name":"Seegebiet Mansfelder Land","type":"Kreisangehörige_Gemeinde"},"district":{"key":"15087","name":"Mansfeld-Südharz","type":"Landkreis"},"federalState":{"key":"15","name":"Sachsen-Anhalt"}},{"name":"Promenade","postalCode":"06317","locality":"Seegebiet Mansfelder Land","municipality":{"key":"15087386","name":"Seegebiet Mansfelder Land","type":"Kreisangehörige_Gemeinde"},"district":{"key":"15087","name":"Mansfeld-Südharz","type":"Landkreis"},"federalState":{"key":"15","name":"Sachsen-Anhalt"}},{"name":"Promenade","postalCode":"06343","locality":"Mansfeld","municipality":{"key":"15087275","name":"Mansfeld, Stadt","type":"Stadt"},"district":{"key":"15087","name":"Mansfeld-Südharz","type":"Landkreis"},"federalState":{"key":"15","name":"Sachsen-Anhalt"}},{"name":"Pumpstation","postalCode":"06317","locality":"Seegebiet Mansfelder Land","municipality":{"key":"15087386","name":"Seegebiet Mansfelder Land","type":"Kreisangehörige_Gemeinde"},"district":{"key":"15087","name":"Mansfeld-Südharz","type":"Landkreis"},"federalState":{"key":"15","name":"Sachsen-Anhalt"}},{"name":"Quergasse","postalCode":"06308","locality":"Klostermansfeld","municipality":{"key":"15087260","name":"Klostermansfeld","type":"Kreisangehörige_Gemeinde"},"district":{"key":"15087","name":"Mansfeld-Südharz","type":"Landkreis"},"federalState":{"key":"15","name":"Sachsen-Anhalt"}},{"name":"Querstr.","postalCode":"06317","locality":"Seegebiet Mansfelder Land","municipality":{"key":"15087386","name":"Seegebiet Mansfelder Land","type":"Kreisangehörige_Gemeinde"},"district":{"key":"15087","name":"Mansfeld-Südharz","type":"Landkreis"},"federalState":{"key":"15","name":"Sachsen-Anhalt"}},{"name":"Rabentorstr.","postalCode":"06343","locality":"Mansfeld","municipality":{"key":"15087275","name":"Mansfeld, Stadt","type":"Stadt"},"district":{"key":"15087","name":"Mansfeld-Südharz","type":"Landkreis"},"federalState":{"key":"15","name":"Sachsen-Anhalt"}},{"name":"Raiffeisenweg","postalCode":"06317","locality":"Seegebiet Mansfelder Land","municipality":{"key":"15087386","name":"Seegebiet Mansfelder Land","type":"Kreisangehörige_Gemeinde"},"district":{"key":"15087","name":"Mansfeld-Südharz","type":"Landkreis"},"federalState":{"key":"15","name":"Sachsen-Anhalt"}},{"name":"Rammelburger Dorfstr.","postalCode":"06343","locality":"Mansfeld","municipality":{"key":"15087275","name":"Mansfeld, Stadt","type":"Stadt"},"district":{"key":"15087","name":"Mansfeld-Südharz","type":"Landkreis"},"federalState":{"key":"15","name":"Sachsen-Anhalt"}},{"name":"Rammelburger Hauptstr.","postalCode":"06343","locality":"Mansfeld","municipality":{"key":"15087275","name":"Mansfeld, Stadt","type":"Stadt"},"district":{"key":"15087","name":"Mansfeld-Südharz","type":"Landkreis"},"federalState":{"key":"15","name":"Sachsen-Anhalt"}},{"name":"Rammelburger Weg","postalCode":"06343","locality":"Mansfeld","municipality":{"key":"15087275","name":"Mansfeld, Stadt","type":"Stadt"},"district":{"key":"15087","name":"Mansfeld-Südharz","type":"Landkreis"},"federalState":{"key":"15","name":"Sachsen-Anhalt"}},{"name":"Randsiedlung","postalCode":"06308","locality":"Klostermansfeld","municipality":{"key":"15087260","name":"Klostermansfeld","type":"Kreisangehörige_Gemeinde"},"district":{"key":"15087","name":"Mansfeld-Südharz","type":"Landkreis"},"federalState":{"key":"15","name":"Sachsen-Anhalt"}},{"name":"Raststätte","postalCode":"06317","locality":"Seegebiet Mansfelder Land","municipality":{"key":"15087386","name":"Seegebiet Mansfelder Land","type":"Kreisangehörige_Gemeinde"},"district":{"key":"15087","name":"Mansfeld-Südharz","type":"Landkreis"},"federalState":{"key":"15","name":"Sachsen-Anhalt"}},{"name":"Reihe","postalCode":"06343","locality":"Mansfeld","municipality":{"key":"15087275","name":"Mansfeld, Stadt","type":"Stadt"},"district":{"key":"15087","name":"Mansfeld-Südharz","type":"Landkreis"},"federalState":{"key":"15","name":"Sachsen-Anhalt"}},{"name":"Richard-Haferung-Str.","postalCode":"06317","locality":"Seegebiet Mansfelder Land","municipality":{"key":"15087386","name":"Seegebiet Mansfelder Land","type":"Kreisangehörige_Gemeinde"},"district":{"key":"15087","name":"Mansfeld-Südharz","type":"Landkreis"},"federalState":{"key":"15","name":"Sachsen-Anhalt"}},{"name":"Richardshof","postalCode":"06317","locality":"Seegebiet Mansfelder Land","municipality":{"key":"15087386","name":"Seegebiet Mansfelder Land","type":"Kreisangehörige_Gemeinde"},"district":{"key":"15087","name":"Mansfeld-Südharz","type":"Landkreis"},"federalState":{"key":"15","name":"Sachsen-Anhalt"}},{"name":"Riege","postalCode":"06317","locality":"Seegebiet Mansfelder Land","municipality":{"key":"15087386","name":"Seegebiet Mansfelder Land","type":"Kreisangehörige_Gemeinde"},"district":{"key":"15087","name":"Mansfeld-Südharz","type":"Landkreis"},"federalState":{"key":"15","name":"Sachsen-Anhalt"}},{"name":"Ringstr.","postalCode":"06317","locality":"Seegebiet Mansfelder Land","municipality":{"key":"15087386","name":"Seegebiet Mansfelder Land","type":"Kreisangehörige_Gemeinde"},"district":{"key":"15087","name":"Mansfeld-Südharz","type":"Landkreis"},"federalState":{"key":"15","name":"Sachsen-Anhalt"}},{"name":"Röblingen Stedten","postalCode":"06317","locality":"Seegebiet Mansfelder Land","municipality":{"key":"15087386","name":"Seegebiet Mansfelder Land","type":"Kreisangehörige_Gemeinde"},"district":{"key":"15087","name":"Mansfeld-Südharz","type":"Landkreis"},"federalState":{"key":"15","name":"Sachsen-Anhalt"}},{"name":"Röblinger Weg","postalCode":"06317","locality":"Seegebiet Mansfelder Land","municipality":{"key":"15087386","name":"Seegebiet Mansfelder Land","type":"Kreisangehörige_Gemeinde"},"district":{"key":"15087","name":"Mansfeld-Südharz","type":"Landkreis"},"federalState":{"key":"15","name":"Sachsen-Anhalt"}},{"name":"Rodelbahn","postalCode":"06343","locality":"Mansfeld","municipality":{"key":"15087275","name":"Mansfeld, Stadt","type":"Stadt"},"district":{"key":"15087","name":"Mansfeld-Südharz","type":"Landkreis"},"federalState":{"key":"15","name":"Sachsen-Anhalt"}},{"name":"Rödgen","postalCode":"06343","locality":"Mansfeld","municipality":{"key":"15087275","name":"Mansfeld, Stadt","type":"Stadt"},"district":{"key":"15087","name":"Mansfeld-Südharz","type":"Landkreis"},"federalState":{"key":"15","name":"Sachsen-Anhalt"}},{"name":"Rödgenberg","postalCode":"06343","locality":"Mansfeld","municipality":{"key":"15087275","name":"Mansfeld, Stadt","type":"Stadt"},"district":{"key":"15087","name":"Mansfeld-Südharz","type":"Landkreis"},"federalState":{"key":"15","name":"Sachsen-Anhalt"}},{"name":"Rosa-Luxemburg-Str.","postalCode":"06317","locality":"Seegebiet Mansfelder Land","municipality":{"key":"15087386","name":"Seegebiet Mansfelder Land","type":"Kreisangehörige_Gemeinde"},"district":{"key":"15087","name":"Mansfeld-Südharz","type":"Landkreis"},"federalState":{"key":"15","name":"Sachsen-Anhalt"}},{"name":"Rosenmühle","postalCode":"06317","locality":"Seegebiet Mansfelder Land","municipality":{"key":"15087386","name":"Seegebiet Mansfelder Land","type":"Kreisangehörige_Gemeinde"},"district":{"key":"15087","name":"Mansfeld-Südharz","type":"Landkreis"},"federalState":{"key":"15","name":"Sachsen-Anhalt"}},{"name":"Rosmarienstr.","postalCode":"06343","locality":"Mansfeld","municipality":{"key":"15087275","name":"Mansfeld, Stadt","type":"Stadt"},"district":{"key":"15087","name":"Mansfeld-Südharz","type":"Landkreis"},"federalState":{"key":"15","name":"Sachsen-Anhalt"}},{"name":"Roßberg","postalCode":"06343","locality":"Mansfeld","municipality":{"key":"15087275","name":"Mansfeld, Stadt","type":"Stadt"},"district":{"key":"15087","name":"Mansfeld-Südharz","type":"Landkreis"},"federalState":{"key":"15","name":"Sachsen-Anhalt"}},{"name":"Rotackerweg","postalCode":"06343","locality":"Mansfeld","municipality":{"key":"15087275","name":"Mansfeld, Stadt","type":"Stadt"},"district":{"key":"15087","name":"Mansfeld-Südharz","type":"Landkreis"},"federalState":{"key":"15","name":"Sachsen-Anhalt"}},{"name":"Rothenschirmbacher Str.","postalCode":"06317","locality":"Seegebiet Mansfelder Land","municipality":{"key":"15087386","name":"Seegebiet Mansfelder Land","type":"Kreisangehörige_Gemeinde"},"district":{"key":"15087","name":"Mansfeld-Südharz","type":"Landkreis"},"federalState":{"key":"15","name":"Sachsen-Anhalt"}},{"name":"Rudolf-Breitscheid-Siedlung","postalCode":"06317","locality":"Seegebiet Mansfelder Land","municipality":{"key":"15087386","name":"Seegebiet Mansfelder Land","type":"Kreisangehörige_Gemeinde"},"district":{"key":"15087","name":"Mansfeld-Südharz","type":"Landkreis"},"federalState":{"key":"15","name":"Sachsen-Anhalt"}},{"name":"Rudolf-Breitscheid-Str.","postalCode":"06317","locality":"Seegebiet Mansfelder Land","municipality":{"key":"15087386","name":"Seegebiet Mansfelder Land","type":"Kreisangehörige_Gemeinde"},"district":{"key":"15087","name":"Mansfeld-Südharz","type":"Landkreis"},"federalState":{"key":"15","name":"Sachsen-Anhalt"}},{"name":"Rundweg","postalCode":"06343","locality":"Mansfeld","municipality":{"key":"15087275","name":"Mansfeld, Stadt","type":"Stadt"},"district":{"key":"15087","name":"Mansfeld-Südharz","type":"Landkreis"},"federalState":{"key":"15","name":"Sachsen-Anhalt"}},{"name":"Rüsternweg","postalCode":"06317","locality":"Seegebiet Mansfelder Land","municipality":{"key":"15087386","name":"Seegebiet Mansfelder Land","type":"Kreisangehörige_Gemeinde"},"district":{"key":"15087","name":"Mansfeld-Südharz","type":"Landkreis"},"federalState":{"key":"15","name":"Sachsen-Anhalt"}},{"name":"Salziger Seen Weg","postalCode":"06317","locality":"Seegebiet Mansfelder Land","municipality":{"key":"15087386","name":"Seegebiet Mansfelder Land","type":"Kreisangehörige_Gemeinde"},"district":{"key":"15087","name":"Mansfeld-Südharz","type":"Landkreis"},"federalState":{"key":"15","name":"Sachsen-Anhalt"}},{"name":"Sangerhäuser Str.","postalCode":"06343","locality":"Mansfeld","municipality":{"key":"15087275","name":"Mansfeld, Stadt","type":"Stadt"},"district":{"key":"15087","name":"Mansfeld-Südharz","type":"Landkreis"},"federalState":{"key":"15","name":"Sachsen-Anhalt"}},{"name":"Sangerhäuser Weg","postalCode":"06343","locality":"Mansfeld","municipality":{"key":"15087275","name":"Mansfeld, Stadt","type":"Stadt"},"district":{"key":"15087","name":"Mansfeld-Südharz","type":"Landkreis"},"federalState":{"key":"15","name":"Sachsen-Anhalt"}},{"name":"Schäferberg","postalCode":"06343","locality":"Mansfeld","municipality":{"key":"15087275","name":"Mansfeld, Stadt","type":"Stadt"},"district":{"key":"15087","name":"Mansfeld-Südharz","type":"Landkreis"},"federalState":{"key":"15","name":"Sachsen-Anhalt"}},{"name":"Schafgasse","postalCode":"06317","locality":"Seegebiet Mansfelder Land","municipality":{"key":"15087386","name":"Seegebiet Mansfelder Land","type":"Kreisangehörige_Gemeinde"},"district":{"key":"15087","name":"Mansfeld-Südharz","type":"Landkreis"},"federalState":{"key":"15","name":"Sachsen-Anhalt"}},{"name":"Scheffelweg","postalCode":"06317","locality":"Seegebiet Mansfelder Land","municipality":{"key":"15087386","name":"Seegebiet Mansfelder Land","type":"Kreisangehörige_Gemeinde"},"district":{"key":"15087","name":"Mansfeld-Südharz","type":"Landkreis"},"federalState":{"key":"15","name":"Sachsen-Anhalt"}},{"name":"Schenkplatz","postalCode":"06317","locality":"Seegebiet Mansfelder Land","municipality":{"key":"15087386","name":"Seegebiet Mansfelder Land","type":"Kreisangehörige_Gemeinde"},"district":{"key":"15087","name":"Mansfeld-Südharz","type":"Landkreis"},"federalState":{"key":"15","name":"Sachsen-Anhalt"}},{"name":"Schiefer Berg","postalCode":"06343","locality":"Mansfeld","municipality":{"key":"15087275","name":"Mansfeld, Stadt","type":"Stadt"},"district":{"key":"15087","name":"Mansfeld-Südharz","type":"Landkreis"},"federalState":{"key":"15","name":"Sachsen-Anhalt"}},{"name":"Schießberg","postalCode":"06343","locality":"Mansfeld","municipality":{"key":"15087275","name":"Mansfeld, Stadt","type":"Stadt"},"district":{"key":"15087","name":"Mansfeld-Südharz","type":"Landkreis"},"federalState":{"key":"15","name":"Sachsen-Anhalt"}},{"name":"Schillerstr.","postalCode":"06317","locality":"Seegebiet Mansfelder Land","municipality":{"key":"15087386","name":"Seegebiet Mansfelder Land","type":"Kreisangehörige_Gemeinde"},"district":{"key":"15087","name":"Mansfeld-Südharz","type":"Landkreis"},"federalState":{"key":"15","name":"Sachsen-Anhalt"}},{"name":"Schillerstr.","postalCode":"06343","locality":"Mansfeld","municipality":{"key":"15087275","name":"Mansfeld, Stadt","type":"Stadt"},"district":{"key":"15087","name":"Mansfeld-Südharz","type":"Landkreis"},"federalState":{"key":"15","name":"Sachsen-Anhalt"}},{"name":"Schlossgasse","postalCode":"06343","locality":"Mansfeld","municipality":{"key":"15087275","name":"Mansfeld, Stadt","type":"Stadt"},"district":{"key":"15087","name":"Mansfeld-Südharz","type":"Landkreis"},"federalState":{"key":"15","name":"Sachsen-Anhalt"}},{"name":"Schlossstr.","postalCode":"06317","locality":"Seegebiet Mansfelder Land","municipality":{"key":"15087386","name":"Seegebiet Mansfelder Land","type":"Kreisangehörige_Gemeinde"},"district":{"key":"15087","name":"Mansfeld-Südharz","type":"Landkreis"},"federalState":{"key":"15","name":"Sachsen-Anhalt"}},{"name":"Schloßstr.","postalCode":"06343","locality":"Mansfeld","municipality":{"key":"15087275","name":"Mansfeld, Stadt","type":"Stadt"},"district":{"key":"15087","name":"Mansfeld-Südharz","type":"Landkreis"},"federalState":{"key":"15","name":"Sachsen-Anhalt"}},{"name":"Schlossweg","postalCode":"06343","locality":"Mansfeld","municipality":{"key":"15087275","name":"Mansfeld, Stadt","type":"Stadt"},"district":{"key":"15087","name":"Mansfeld-Südharz","type":"Landkreis"},"federalState":{"key":"15","name":"Sachsen-Anhalt"}},{"name":"Schloßweg","postalCode":"06343","locality":"Mansfeld","municipality":{"key":"15087275","name":"Mansfeld, Stadt","type":"Stadt"},"district":{"key":"15087","name":"Mansfeld-Südharz","type":"Landkreis"},"federalState":{"key":"15","name":"Sachsen-Anhalt"}},{"name":"Schmidtstr.","postalCode":"06343","locality":"Mansfeld","municipality":{"key":"15087275","name":"Mansfeld, Stadt","type":"Stadt"},"district":{"key":"15087","name":"Mansfeld-Südharz","type":"Landkreis"},"federalState":{"key":"15","name":"Sachsen-Anhalt"}},{"name":"Schmiedeberg","postalCode":"06317","locality":"Seegebiet Mansfelder Land","municipality":{"key":"15087386","name":"Seegebiet Mansfelder Land","type":"Kreisangehörige_Gemeinde"},"district":{"key":"15087","name":"Mansfeld-Südharz","type":"Landkreis"},"federalState":{"key":"15","name":"Sachsen-Anhalt"}},{"name":"Schmiedestr.","postalCode":"06343","locality":"Mansfeld","municipality":{"key":"15087275","name":"Mansfeld, Stadt","type":"Stadt"},"district":{"key":"15087","name":"Mansfeld-Südharz","type":"Landkreis"},"federalState":{"key":"15","name":"Sachsen-Anhalt"}},{"name":"Schmiedeweg","postalCode":"06317","locality":"Seegebiet Mansfelder Land","municipality":{"key":"15087386","name":"Seegebiet Mansfelder Land","type":"Kreisangehörige_Gemeinde"},"district":{"key":"15087","name":"Mansfeld-Südharz","type":"Landkreis"},"federalState":{"key":"15","name":"Sachsen-Anhalt"}},{"name":"Schneiderberg","postalCode":"06317","locality":"Seegebiet Mansfelder Land","municipality":{"key":"15087386","name":"Seegebiet Mansfelder Land","type":"Kreisangehörige_Gemeinde"},"district":{"key":"15087","name":"Mansfeld-Südharz","type":"Landkreis"},"federalState":{"key":"15","name":"Sachsen-Anhalt"}},{"name":"Schochwitzer Str.","postalCode":"06317","locality":"Seegebiet Mansfelder Land","municipality":{"key":"15087386","name":"Seegebiet Mansfelder Land","type":"Kreisangehörige_Gemeinde"},"district":{"key":"15087","name":"Mansfeld-Südharz","type":"Landkreis"},"federalState":{"key":"15","name":"Sachsen-Anhalt"}},{"name":"Schöne Aussicht","postalCode":"06308","locality":"Klostermansfeld","municipality":{"key":"15087260","name":"Klostermansfeld","type":"Kreisangehörige_Gemeinde"},"district":{"key":"15087","name":"Mansfeld-Südharz","type":"Landkreis"},"federalState":{"key":"15","name":"Sachsen-Anhalt"}},{"name":"Schraplauer Str.","postalCode":"06317","locality":"Seegebiet Mansfelder Land","municipality":{"key":"15087386","name":"Seegebiet Mansfelder Land","type":"Kreisangehörige_Gemeinde"},"district":{"key":"15087","name":"Mansfeld-Südharz","type":"Landkreis"},"federalState":{"key":"15","name":"Sachsen-Anhalt"}},{"name":"Schulplatz","postalCode":"06308","locality":"Klostermansfeld","municipality":{"key":"15087260","name":"Klostermansfeld","type":"Kreisangehörige_Gemeinde"},"district":{"key":"15087","name":"Mansfeld-Südharz","type":"Landkreis"},"federalState":{"key":"15","name":"Sachsen-Anhalt"}},{"name":"Schulstr.","postalCode":"06308","locality":"Klostermansfeld","municipality":{"key":"15087260","name":"Klostermansfeld","type":"Kreisangehörige_Gemeinde"},"district":{"key":"15087","name":"Mansfeld-Südharz","type":"Landkreis"},"federalState":{"key":"15","name":"Sachsen-Anhalt"}},{"name":"Schulstr.","postalCode":"06317","locality":"Seegebiet Mansfelder Land","municipality":{"key":"15087386","name":"Seegebiet Mansfelder Land","type":"Kreisangehörige_Gemeinde"},"district":{"key":"15087","name":"Mansfeld-Südharz","type":"Landkreis"},"federalState":{"key":"15","name":"Sachsen-Anhalt"}},{"name":"Schulstr.","postalCode":"06343","locality":"Mansfeld","municipality":{"key":"15087275","name":"Mansfeld, Stadt","type":"Stadt"},"district":{"key":"15087","name":"Mansfeld-Südharz","type":"Landkreis"},"federalState":{"key":"15","name":"Sachsen-Anhalt"}},{"name":"Schulstr. Abberode","postalCode":"06343","locality":"Mansfeld","municipality":{"key":"15087275","name":"Mansfeld, Stadt","type":"Stadt"},"district":{"key":"15087","name":"Mansfeld-Südharz","type":"Landkreis"},"federalState":{"key":"15","name":"Sachsen-Anhalt"}},{"name":"Schulstr. Braunschwende","postalCode":"06343","locality":"Mansfeld","municipality":{"key":"15087275","name":"Mansfeld, Stadt","type":"Stadt"},"district":{"key":"15087","name":"Mansfeld-Südharz","type":"Landkreis"},"federalState":{"key":"15","name":"Sachsen-Anhalt"}},{"name":"Schulstr. Großörner","postalCode":"06343","locality":"Mansfeld","municipality":{"key":"15087275","name":"Mansfeld, Stadt","type":"Stadt"},"district":{"key":"15087","name":"Mansfeld-Südharz","type":"Landkreis"},"federalState":{"key":"15","name":"Sachsen-Anhalt"}},{"name":"Schulstr. Vatterode","postalCode":"06343","locality":"Mansfeld","municipality":{"key":"15087275","name":"Mansfeld, Stadt","type":"Stadt"},"district":{"key":"15087","name":"Mansfeld-Südharz","type":"Landkreis"},"federalState":{"key":"15","name":"Sachsen-Anhalt"}},{"name":"Schützenberg","postalCode":"06317","locality":"Seegebiet Mansfelder Land","municipality":{"key":"15087386","name":"Seegebiet Mansfelder Land","type":"Kreisangehörige_Gemeinde"},"district":{"key":"15087","name":"Mansfeld-Südharz","type":"Landkreis"},"federalState":{"key":"15","name":"Sachsen-Anhalt"}},{"name":"Schweinsbrücke","postalCode":"06343","locality":"Mansfeld","municipality":{"key":"15087275","name":"Mansfeld, Stadt","type":"Stadt"},"district":{"key":"15087","name":"Mansfeld-Südharz","type":"Landkreis"},"federalState":{"key":"15","name":"Sachsen-Anhalt"}},{"name":"Schweiz","postalCode":"06343","locality":"Mansfeld","municipality":{"key":"15087275","name":"Mansfeld, Stadt","type":"Stadt"},"district":{"key":"15087","name":"Mansfeld-Südharz","type":"Landkreis"},"federalState":{"key":"15","name":"Sachsen-Anhalt"}},{"name":"Schwester-Berta-Str.","postalCode":"06343","locality":"Mansfeld","municipality":{"key":"15087275","name":"Mansfeld, Stadt","type":"Stadt"},"district":{"key":"15087","name":"Mansfeld-Südharz","type":"Landkreis"},"federalState":{"key":"15","name":"Sachsen-Anhalt"}},{"name":"Seestr.","postalCode":"06317","locality":"Seegebiet Mansfelder Land","municipality":{"key":"15087386","name":"Seegebiet Mansfelder Land","type":"Kreisangehörige_Gemeinde"},"district":{"key":"15087","name":"Mansfeld-Südharz","type":"Landkreis"},"federalState":{"key":"15","name":"Sachsen-Anhalt"}},{"name":"Seeweg","postalCode":"06317","locality":"Seegebiet Mansfelder Land","municipality":{"key":"15087386","name":"Seegebiet Mansfelder Land","type":"Kreisangehörige_Gemeinde"},"district":{"key":"15087","name":"Mansfeld-Südharz","type":"Landkreis"},"federalState":{"key":"15","name":"Sachsen-Anhalt"}},{"name":"Seilergasse","postalCode":"06343","locality":"Mansfeld","municipality":{"key":"15087275","name":"Mansfeld, Stadt","type":"Stadt"},"district":{"key":"15087","name":"Mansfeld-Südharz","type":"Landkreis"},"federalState":{"key":"15","name":"Sachsen-Anhalt"}},{"name":"Sickstr.","postalCode":"06317","locality":"Seegebiet Mansfelder Land","municipality":{"key":"15087386","name":"Seegebiet Mansfelder Land","type":"Kreisangehörige_Gemeinde"},"district":{"key":"15087","name":"Mansfeld-Südharz","type":"Landkreis"},"federalState":{"key":"15","name":"Sachsen-Anhalt"}},{"name":"Siebigeröder Str.","postalCode":"06308","locality":"Klostermansfeld","municipality":{"key":"15087260","name":"Klostermansfeld","type":"Kreisangehörige_Gemeinde"},"district":{"key":"15087","name":"Mansfeld-Südharz","type":"Landkreis"},"federalState":{"key":"15","name":"Sachsen-Anhalt"}},{"name":"Siebigeröder Str.","postalCode":"06343","locality":"Mansfeld","municipality":{"key":"15087275","name":"Mansfeld, Stadt","type":"Stadt"},"district":{"key":"15087","name":"Mansfeld-Südharz","type":"Landkreis"},"federalState":{"key":"15","name":"Sachsen-Anhalt"}},{"name":"Siedlung","postalCode":"06317","locality":"Seegebiet Mansfelder Land","municipality":{"key":"15087386","name":"Seegebiet Mansfelder Land","type":"Kreisangehörige_Gemeinde"},"district":{"key":"15087","name":"Mansfeld-Südharz","type":"Landkreis"},"federalState":{"key":"15","name":"Sachsen-Anhalt"}},{"name":"Silberacker","postalCode":"06343","locality":"Mansfeld","municipality":{"key":"15087275","name":"Mansfeld, Stadt","type":"Stadt"},"district":{"key":"15087","name":"Mansfeld-Südharz","type":"Landkreis"},"federalState":{"key":"15","name":"Sachsen-Anhalt"}},{"name":"Solidaritätsstr.","postalCode":"06317","locality":"Seegebiet Mansfelder Land","municipality":{"key":"15087386","name":"Seegebiet Mansfelder Land","type":"Kreisangehörige_Gemeinde"},"district":{"key":"15087","name":"Mansfeld-Südharz","type":"Landkreis"},"federalState":{"key":"15","name":"Sachsen-Anhalt"}},{"name":"Spanweg","postalCode":"06343","locality":"Mansfeld","municipality":{"key":"15087275","name":"Mansfeld, Stadt","type":"Stadt"},"district":{"key":"15087","name":"Mansfeld-Südharz","type":"Landkreis"},"federalState":{"key":"15","name":"Sachsen-Anhalt"}},{"name":"Sperlingsberg","postalCode":"06317","locality":"Seegebiet Mansfelder Land","municipality":{"key":"15087386","name":"Seegebiet Mansfelder Land","type":"Kreisangehörige_Gemeinde"},"district":{"key":"15087","name":"Mansfeld-Südharz","type":"Landkreis"},"federalState":{"key":"15","name":"Sachsen-Anhalt"}},{"name":"Spritzenberg","postalCode":"06317","locality":"Seegebiet Mansfelder Land","municipality":{"key":"15087386","name":"Seegebiet Mansfelder Land","type":"Kreisangehörige_Gemeinde"},"district":{"key":"15087","name":"Mansfeld-Südharz","type":"Landkreis"},"federalState":{"key":"15","name":"Sachsen-Anhalt"}},{"name":"Stedtener Bahnhofstr.","postalCode":"06317","locality":"Seegebiet Mansfelder Land","municipality":{"key":"15087386","name":"Seegebiet Mansfelder Land","type":"Kreisangehörige_Gemeinde"},"district":{"key":"15087","name":"Mansfeld-Südharz","type":"Landkreis"},"federalState":{"key":"15","name":"Sachsen-Anhalt"}},{"name":"Stedtener Str.","postalCode":"06317","locality":"Seegebiet Mansfelder Land","municipality":{"key":"15087386","name":"Seegebiet Mansfelder Land","type":"Kreisangehörige_Gemeinde"},"district":{"key":"15087","name":"Mansfeld-Südharz","type":"Landkreis"},"federalState":{"key":"15","name":"Sachsen-Anhalt"}},{"name":"Talbachstr.","postalCode":"06343","locality":"Mansfeld","municipality":{"key":"15087275","name":"Mansfeld, Stadt","type":"Stadt"},"district":{"key":"15087","name":"Mansfeld-Südharz","type":"Landkreis"},"federalState":{"key":"15","name":"Sachsen-Anhalt"}},{"name":"Talwandstr.","postalCode":"06343","locality":"Mansfeld","municipality":{"key":"15087275","name":"Mansfeld, Stadt","type":"Stadt"},"district":{"key":"15087","name":"Mansfeld-Südharz","type":"Landkreis"},"federalState":{"key":"15","name":"Sachsen-Anhalt"}},{"name":"Tei","postalCode":"06343","locality":"Mansfeld","municipality":{"key":"15087275","name":"Mansfeld, Stadt","type":"Stadt"},"district":{"key":"15087","name":"Mansfeld-Südharz","type":"Landkreis"},"federalState":{"key":"15","name":"Sachsen-Anhalt"}},{"name":"Teichplatz","postalCode":"06317","locality":"Seegebiet Mansfelder Land","municipality":{"key":"15087386","name":"Seegebiet Mansfelder Land","type":"Kreisangehörige_Gemeinde"},"district":{"key":"15087","name":"Mansfeld-Südharz","type":"Landkreis"},"federalState":{"key":"15","name":"Sachsen-Anhalt"}},{"name":"Teichstr.","postalCode":"06317","locality":"Seegebiet Mansfelder Land","municipality":{"key":"15087386","name":"Seegebiet Mansfelder Land","type":"Kreisangehörige_Gemeinde"},"district":{"key":"15087","name":"Mansfeld-Südharz","type":"Landkreis"},"federalState":{"key":"15","name":"Sachsen-Anhalt"}},{"name":"Teichstr.","postalCode":"06343","locality":"Mansfeld","municipality":{"key":"15087275","name":"Mansfeld, Stadt","type":"Stadt"},"district":{"key":"15087","name":"Mansfeld-Südharz","type":"Landkreis"},"federalState":{"key":"15","name":"Sachsen-Anhalt"}},{"name":"Teichstr. Abberode","postalCode":"06343","locality":"Mansfeld","municipality":{"key":"15087275","name":"Mansfeld, Stadt","type":"Stadt"},"district":{"key":"15087","name":"Mansfeld-Südharz","type":"Landkreis"},"federalState":{"key":"15","name":"Sachsen-Anhalt"}},{"name":"Thomas-Müntzer-Plan","postalCode":"06308","locality":"Klostermansfeld","municipality":{"key":"15087260","name":"Klostermansfeld","type":"Kreisangehörige_Gemeinde"},"district":{"key":"15087","name":"Mansfeld-Südharz","type":"Landkreis"},"federalState":{"key":"15","name":"Sachsen-Anhalt"}},{"name":"Thomas-Müntzer-Str.","postalCode":"06317","locality":"Seegebiet Mansfelder Land","municipality":{"key":"15087386","name":"Seegebiet Mansfelder Land","type":"Kreisangehörige_Gemeinde"},"district":{"key":"15087","name":"Mansfeld-Südharz","type":"Landkreis"},"federalState":{"key":"15","name":"Sachsen-Anhalt"}},{"name":"Thomas-Müntzer-Str.","postalCode":"06343","locality":"Mansfeld","municipality":{"key":"15087275","name":"Mansfeld, Stadt","type":"Stadt"},"district":{"key":"15087","name":"Mansfeld-Südharz","type":"Landkreis"},"federalState":{"key":"15","name":"Sachsen-Anhalt"}},{"name":"Thondorfer Str.","postalCode":"06308","locality":"Klostermansfeld","municipality":{"key":"15087260","name":"Klostermansfeld","type":"Kreisangehörige_Gemeinde"},"district":{"key":"15087","name":"Mansfeld-Südharz","type":"Landkreis"},"federalState":{"key":"15","name":"Sachsen-Anhalt"}},{"name":"Töpferreihe","postalCode":"06343","locality":"Mansfeld","municipality":{"key":"15087275","name":"Mansfeld, Stadt","type":"Stadt"},"district":{"key":"15087","name":"Mansfeld-Südharz","type":"Landkreis"},"federalState":{"key":"15","name":"Sachsen-Anhalt"}},{"name":"Traueweg","postalCode":"06343","locality":"Mansfeld","municipality":{"key":"15087275","name":"Mansfeld, Stadt","type":"Stadt"},"district":{"key":"15087","name":"Mansfeld-Südharz","type":"Landkreis"},"federalState":{"key":"15","name":"Sachsen-Anhalt"}},{"name":"Uhuweg","postalCode":"06343","locality":"Mansfeld","municipality":{"key":"15087275","name":"Mansfeld, Stadt","type":"Stadt"},"district":{"key":"15087","name":"Mansfeld-Südharz","type":"Landkreis"},"federalState":{"key":"15","name":"Sachsen-Anhalt"}},{"name":"Ulmenhof","postalCode":"06317","locality":"Seegebiet Mansfelder Land","municipality":{"key":"15087386","name":"Seegebiet Mansfelder Land","type":"Kreisangehörige_Gemeinde"},"district":{"key":"15087","name":"Mansfeld-Südharz","type":"Landkreis"},"federalState":{"key":"15","name":"Sachsen-Anhalt"}},{"name":"Untere Dorfstr.","postalCode":"06343","locality":"Mansfeld","municipality":{"key":"15087275","name":"Mansfeld, Stadt","type":"Stadt"},"district":{"key":"15087","name":"Mansfeld-Südharz","type":"Landkreis"},"federalState":{"key":"15","name":"Sachsen-Anhalt"}},{"name":"Untere Schraplauer Str.","postalCode":"06317","locality":"Seegebiet Mansfelder Land","municipality":{"key":"15087386","name":"Seegebiet Mansfelder Land","type":"Kreisangehörige_Gemeinde"},"district":{"key":"15087","name":"Mansfeld-Südharz","type":"Landkreis"},"federalState":{"key":"15","name":"Sachsen-Anhalt"}},{"name":"Untermühle","postalCode":"06343","locality":"Mansfeld","municipality":{"key":"15087275","name":"Mansfeld, Stadt","type":"Stadt"},"district":{"key":"15087","name":"Mansfeld-Südharz","type":"Landkreis"},"federalState":{"key":"15","name":"Sachsen-Anhalt"}},{"name":"Unterrißdorfer Str.","postalCode":"06317","locality":"Seegebiet Mansfelder Land","municipality":{"key":"15087386","name":"Seegebiet Mansfelder Land","type":"Kreisangehörige_Gemeinde"},"district":{"key":"15087","name":"Mansfeld-Südharz","type":"Landkreis"},"federalState":{"key":"15","name":"Sachsen-Anhalt"}},{"name":"Unterstr.","postalCode":"06343","locality":"Mansfeld","municipality":{"key":"15087275","name":"Mansfeld, Stadt","type":"Stadt"},"district":{"key":"15087","name":"Mansfeld-Südharz","type":"Landkreis"},"federalState":{"key":"15","name":"Sachsen-Anhalt"}},{"name":"Unterstr. Abberode","postalCode":"06343","locality":"Mansfeld","municipality":{"key":"15087275","name":"Mansfeld, Stadt","type":"Stadt"},"district":{"key":"15087","name":"Mansfeld-Südharz","type":"Landkreis"},"federalState":{"key":"15","name":"Sachsen-Anhalt"}},{"name":"Unterstr. Tilkerode","postalCode":"06343","locality":"Mansfeld","municipality":{"key":"15087275","name":"Mansfeld, Stadt","type":"Stadt"},"district":{"key":"15087","name":"Mansfeld-Südharz","type":"Landkreis"},"federalState":{"key":"15","name":"Sachsen-Anhalt"}},{"name":"Vatteröder Str.","postalCode":"06343","locality":"Mansfeld","municipality":{"key":"15087275","name":"Mansfeld, Stadt","type":"Stadt"},"district":{"key":"15087","name":"Mansfeld-Südharz","type":"Landkreis"},"federalState":{"key":"15","name":"Sachsen-Anhalt"}},{"name":"Verbindungsstr.","postalCode":"06308","locality":"Klostermansfeld","municipality":{"key":"15087260","name":"Klostermansfeld","type":"Kreisangehörige_Gemeinde"},"district":{"key":"15087","name":"Mansfeld-Südharz","type":"Landkreis"},"federalState":{"key":"15","name":"Sachsen-Anhalt"}},{"name":"Verbindungsstr.","postalCode":"06317","locality":"Seegebiet Mansfelder Land","municipality":{"key":"15087386","name":"Seegebiet Mansfelder Land","type":"Kreisangehörige_Gemeinde"},"district":{"key":"15087","name":"Mansfeld-Südharz","type":"Landkreis"},"federalState":{"key":"15","name":"Sachsen-Anhalt"}},{"name":"Verbindungsstr.","postalCode":"06343","locality":"Mansfeld","municipality":{"key":"15087275","name":"Mansfeld, Stadt","type":"Stadt"},"district":{"key":"15087","name":"Mansfeld-Südharz","type":"Landkreis"},"federalState":{"key":"15","name":"Sachsen-Anhalt"}},{"name":"Verbindungsstr. Großörner","postalCode":"06343","locality":"Mansfeld","municipality":{"key":"15087275","name":"Mansfeld, Stadt","type":"Stadt"},"district":{"key":"15087","name":"Mansfeld-Südharz","type":"Landkreis"},"federalState":{"key":"15","name":"Sachsen-Anhalt"}},{"name":"Verbindungsweg","postalCode":"06343","locality":"Mansfeld","municipality":{"key":"15087275","name":"Mansfeld, Stadt","type":"Stadt"},"district":{"key":"15087","name":"Mansfeld-Südharz","type":"Landkreis"},"federalState":{"key":"15","name":"Sachsen-Anhalt"}},{"name":"Volkmaritzer Hauptstr.","postalCode":"06317","locality":"Seegebiet Mansfelder Land","municipality":{"key":"15087386","name":"Seegebiet Mansfelder Land","type":"Kreisangehörige_Gemeinde"},"district":{"key":"15087","name":"Mansfeld-Südharz","type":"Landkreis"},"federalState":{"key":"15","name":"Sachsen-Anhalt"}},{"name":"Volkstedter Weg","postalCode":"06308","locality":"Klostermansfeld","municipality":{"key":"15087260","name":"Klostermansfeld","type":"Kreisangehörige_Gemeinde"},"district":{"key":"15087","name":"Mansfeld-Südharz","type":"Landkreis"},"federalState":{"key":"15","name":"Sachsen-Anhalt"}},{"name":"Vor dem Schloß","postalCode":"06343","locality":"Mansfeld","municipality":{"key":"15087275","name":"Mansfeld, Stadt","type":"Stadt"},"district":{"key":"15087","name":"Mansfeld-Südharz","type":"Landkreis"},"federalState":{"key":"15","name":"Sachsen-Anhalt"}},{"name":"Vordere Dorfstr.","postalCode":"06343","locality":"Mansfeld","municipality":{"key":"15087275","name":"Mansfeld, Stadt","type":"Stadt"},"district":{"key":"15087","name":"Mansfeld-Südharz","type":"Landkreis"},"federalState":{"key":"15","name":"Sachsen-Anhalt"}},{"name":"Wacholderweg","postalCode":"06343","locality":"Mansfeld","municipality":{"key":"15087275","name":"Mansfeld, Stadt","type":"Stadt"},"district":{"key":"15087","name":"Mansfeld-Südharz","type":"Landkreis"},"federalState":{"key":"15","name":"Sachsen-Anhalt"}},{"name":"Waldsiedlung","postalCode":"06343","locality":"Mansfeld","municipality":{"key":"15087275","name":"Mansfeld, Stadt","type":"Stadt"},"district":{"key":"15087","name":"Mansfeld-Südharz","type":"Landkreis"},"federalState":{"key":"15","name":"Sachsen-Anhalt"}},{"name":"Waldstr.","postalCode":"06343","locality":"Mansfeld","municipality":{"key":"15087275","name":"Mansfeld, Stadt","type":"Stadt"},"district":{"key":"15087","name":"Mansfeld-Südharz","type":"Landkreis"},"federalState":{"key":"15","name":"Sachsen-Anhalt"}},{"name":"Waldstr. Abberode","postalCode":"06343","locality":"Mansfeld","municipality":{"key":"15087275","name":"Mansfeld, Stadt","type":"Stadt"},"district":{"key":"15087","name":"Mansfeld-Südharz","type":"Landkreis"},"federalState":{"key":"15","name":"Sachsen-Anhalt"}},{"name":"Waldweg","postalCode":"06343","locality":"Mansfeld","municipality":{"key":"15087275","name":"Mansfeld, Stadt","type":"Stadt"},"district":{"key":"15087","name":"Mansfeld-Südharz","type":"Landkreis"},"federalState":{"key":"15","name":"Sachsen-Anhalt"}},{"name":"Wallbergstr.","postalCode":"06317","locality":"Seegebiet Mansfelder Land","municipality":{"key":"15087386","name":"Seegebiet Mansfelder Land","type":"Kreisangehörige_Gemeinde"},"district":{"key":"15087","name":"Mansfeld-Südharz","type":"Landkreis"},"federalState":{"key":"15","name":"Sachsen-Anhalt"}},{"name":"Wallstr.","postalCode":"06317","locality":"Seegebiet Mansfelder Land","municipality":{"key":"15087386","name":"Seegebiet Mansfelder Land","type":"Kreisangehörige_Gemeinde"},"district":{"key":"15087","name":"Mansfeld-Südharz","type":"Landkreis"},"federalState":{"key":"15","name":"Sachsen-Anhalt"}},{"name":"Walter-Schneider-Str.","postalCode":"06317","locality":"Seegebiet Mansfelder Land","municipality":{"key":"15087386","name":"Seegebiet Mansfelder Land","type":"Kreisangehörige_Gemeinde"},"district":{"key":"15087","name":"Mansfeld-Südharz","type":"Landkreis"},"federalState":{"key":"15","name":"Sachsen-Anhalt"}},{"name":"Wanslebener Bahnhofstr.","postalCode":"06317","locality":"Seegebiet Mansfelder Land","municipality":{"key":"15087386","name":"Seegebiet Mansfelder Land","type":"Kreisangehörige_Gemeinde"},"district":{"key":"15087","name":"Mansfeld-Südharz","type":"Landkreis"},"federalState":{"key":"15","name":"Sachsen-Anhalt"}},{"name":"Wansleber Weg","postalCode":"06317","locality":"Seegebiet Mansfelder Land","municipality":{"key":"15087386","name":"Seegebiet Mansfelder Land","type":"Kreisangehörige_Gemeinde"},"district":{"key":"15087","name":"Mansfeld-Südharz","type":"Landkreis"},"federalState":{"key":"15","name":"Sachsen-Anhalt"}},{"name":"Wäsche","postalCode":"06343","locality":"Mansfeld","municipality":{"key":"15087275","name":"Mansfeld, Stadt","type":"Stadt"},"district":{"key":"15087","name":"Mansfeld-Südharz","type":"Landkreis"},"federalState":{"key":"15","name":"Sachsen-Anhalt"}},{"name":"Weg an der Weida","postalCode":"06317","locality":"Seegebiet Mansfelder Land","municipality":{"key":"15087386","name":"Seegebiet Mansfelder Land","type":"Kreisangehörige_Gemeinde"},"district":{"key":"15087","name":"Mansfeld-Südharz","type":"Landkreis"},"federalState":{"key":"15","name":"Sachsen-Anhalt"}},{"name":"Weg nach Amsdorf","postalCode":"06317","locality":"Seegebiet Mansfelder Land","municipality":{"key":"15087386","name":"Seegebiet Mansfelder Land","type":"Kreisangehörige_Gemeinde"},"district":{"key":"15087","name":"Mansfeld-Südharz","type":"Landkreis"},"federalState":{"key":"15","name":"Sachsen-Anhalt"}},{"name":"Weidaweg","postalCode":"06317","locality":"Seegebiet Mansfelder Land","municipality":{"key":"15087386","name":"Seegebiet Mansfelder Land","type":"Kreisangehörige_Gemeinde"},"district":{"key":"15087","name":"Mansfeld-Südharz","type":"Landkreis"},"federalState":{"key":"15","name":"Sachsen-Anhalt"}},{"name":"Weinbergstr.","postalCode":"06317","locality":"Seegebiet Mansfelder Land","municipality":{"key":"15087386","name":"Seegebiet Mansfelder Land","type":"Kreisangehörige_Gemeinde"},"district":{"key":"15087","name":"Mansfeld-Südharz","type":"Landkreis"},"federalState":{"key":"15","name":"Sachsen-Anhalt"}},{"name":"Wiese","postalCode":"06343","locality":"Mansfeld","municipality":{"key":"15087275","name":"Mansfeld, Stadt","type":"Stadt"},"district":{"key":"15087","name":"Mansfeld-Südharz","type":"Landkreis"},"federalState":{"key":"15","name":"Sachsen-Anhalt"}},{"name":"Wiesengasse","postalCode":"06343","locality":"Mansfeld","municipality":{"key":"15087275","name":"Mansfeld, Stadt","type":"Stadt"},"district":{"key":"15087","name":"Mansfeld-Südharz","type":"Landkreis"},"federalState":{"key":"15","name":"Sachsen-Anhalt"}},{"name":"Wiesenweg","postalCode":"06317","locality":"Seegebiet Mansfelder Land","municipality":{"key":"15087386","name":"Seegebiet Mansfelder Land","type":"Kreisangehörige_Gemeinde"},"district":{"key":"15087","name":"Mansfeld-Südharz","type":"Landkreis"},"federalState":{"key":"15","name":"Sachsen-Anhalt"}},{"name":"Wilhelmstr.","postalCode":"06308","locality":"Klostermansfeld","municipality":{"key":"15087260","name":"Klostermansfeld","type":"Kreisangehörige_Gemeinde"},"district":{"key":"15087","name":"Mansfeld-Südharz","type":"Landkreis"},"federalState":{"key":"15","name":"Sachsen-Anhalt"}},{"name":"Willi-Hoffmann-Str.","postalCode":"06317","locality":"Seegebiet Mansfelder Land","municipality":{"key":"15087386","name":"Seegebiet Mansfelder Land","type":"Kreisangehörige_Gemeinde"},"district":{"key":"15087","name":"Mansfeld-Südharz","type":"Landkreis"},"federalState":{"key":"15","name":"Sachsen-Anhalt"}},{"name":"Willi-Kate-Str.","postalCode":"06317","locality":"Seegebiet Mansfelder Land","municipality":{"key":"15087386","name":"Seegebiet Mansfelder Land","type":"Kreisangehörige_Gemeinde"},"district":{"key":"15087","name":"Mansfeld-Südharz","type":"Landkreis"},"federalState":{"key":"15","name":"Sachsen-Anhalt"}},{"name":"Wimmelröder Dorfstr.","postalCode":"06343","locality":"Mansfeld","municipality":{"key":"15087275","name":"Mansfeld, Stadt","type":"Stadt"},"district":{"key":"15087","name":"Mansfeld-Südharz","type":"Landkreis"},"federalState":{"key":"15","name":"Sachsen-Anhalt"}},{"name":"Wimmelröder Weg","postalCode":"06343","locality":"Mansfeld","municipality":{"key":"15087275","name":"Mansfeld, Stadt","type":"Stadt"},"district":{"key":"15087","name":"Mansfeld-Südharz","type":"Landkreis"},"federalState":{"key":"15","name":"Sachsen-Anhalt"}},{"name":"Windmühlenbreite","postalCode":"06308","locality":"Klostermansfeld","municipality":{"key":"15087260","name":"Klostermansfeld","type":"Kreisangehörige_Gemeinde"},"district":{"key":"15087","name":"Mansfeld-Südharz","type":"Landkreis"},"federalState":{"key":"15","name":"Sachsen-Anhalt"}},{"name":"Windmühlenbreite","postalCode":"06343","locality":"Mansfeld","municipality":{"key":"15087275","name":"Mansfeld, Stadt","type":"Stadt"},"district":{"key":"15087","name":"Mansfeld-Südharz","type":"Landkreis"},"federalState":{"key":"15","name":"Sachsen-Anhalt"}},{"name":"Winkel","postalCode":"06343","locality":"Mansfeld","municipality":{"key":"15087275","name":"Mansfeld, Stadt","type":"Stadt"},"district":{"key":"15087","name":"Mansfeld-Südharz","type":"Landkreis"},"federalState":{"key":"15","name":"Sachsen-Anhalt"}},{"name":"Wippergasse","postalCode":"06343","locality":"Mansfeld","municipality":{"key":"15087275","name":"Mansfeld, Stadt","type":"Stadt"},"district":{"key":"15087","name":"Mansfeld-Südharz","type":"Landkreis"},"federalState":{"key":"15","name":"Sachsen-Anhalt"}},{"name":"Wipperstr.","postalCode":"06343","locality":"Mansfeld","municipality":{"key":"15087275","name":"Mansfeld, Stadt","type":"Stadt"},"district":{"key":"15087","name":"Mansfeld-Südharz","type":"Landkreis"},"federalState":{"key":"15","name":"Sachsen-Anhalt"}},{"name":"Ziegelei","postalCode":"06317","locality":"Seegebiet Mansfelder Land","municipality":{"key":"15087386","name":"Seegebiet Mansfelder Land","type":"Kreisangehörige_Gemeinde"},"district":{"key":"15087","name":"Mansfeld-Südharz","type":"Landkreis"},"federalState":{"key":"15","name":"Sachsen-Anhalt"}},{"name":"Ziegelei","postalCode":"06343","locality":"Mansfeld","municipality":{"key":"15087275","name":"Mansfeld, Stadt","type":"Stadt"},"district":{"key":"15087","name":"Mansfeld-Südharz","type":"Landkreis"},"federalState":{"key":"15","name":"Sachsen-Anhalt"}},{"name":"Ziegenberg","postalCode":"06343","locality":"Mansfeld","municipality":{"key":"15087275","name":"Mansfeld, Stadt","type":"Stadt"},"district":{"key":"15087","name":"Mansfeld-Südharz","type":"Landkreis"},"federalState":{"key":"15","name":"Sachsen-Anhalt"}},{"name":"Zum Hasenwinkel","postalCode":"06308","locality":"Klostermansfeld","municipality":{"key":"15087260","name":"Klostermansfeld","type":"Kreisangehörige_Gemeinde"},"district":{"key":"15087","name":"Mansfeld-Südharz","type":"Landkreis"},"federalState":{"key":"15","name":"Sachsen-Anhalt"}},{"name":"Zum Osterberg","postalCode":"06317","locality":"Seegebiet Mansfelder Land","municipality":{"key":"15087386","name":"Seegebiet Mansfelder Land","type":"Kreisangehörige_Gemeinde"},"district":{"key":"15087","name":"Mansfeld-Südharz","type":"Landkreis"},"federalState":{"key":"15","name":"Sachsen-Anhalt"}},{"name":"Zum Seeweg","postalCode":"06317","locality":"Seegebiet Mansfelder Land","municipality":{"key":"15087386","name":"Seegebiet Mansfelder Land","type":"Kreisangehörige_Gemeinde"},"district":{"key":"15087","name":"Mansfeld-Südharz","type":"Landkreis"},"federalState":{"key":"15","name":"Sachsen-Anhalt"}},{"name":"Zum Sportplatz","postalCode":"06343","locality":"Mansfeld","municipality":{"key":"15087275","name":"Mansfeld, Stadt","type":"Stadt"},"district":{"key":"15087","name":"Mansfeld-Südharz","type":"Landkreis"},"federalState":{"key":"15","name":"Sachsen-Anhalt"}},{"name":"Zum Süßen See","postalCode":"06317","locality":"Seegebiet Mansfelder Land","municipality":{"key":"15087386","name":"Seegebiet Mansfelder Land","type":"Kreisangehörige_Gemeinde"},"district":{"key":"15087","name":"Mansfeld-Südharz","type":"Landkreis"},"federalState":{"key":"15","name":"Sachsen-Anhalt"}},{"name":"Zur Klippmühle","postalCode":"06343","locality":"Mansfeld","municipality":{"key":"15087275","name":"Mansfeld, Stadt","type":"Stadt"},"district":{"key":"15087","name":"Mansfeld-Südharz","type":"Landkreis"},"federalState":{"key":"15","name":"Sachsen-Anhalt"}},{"name":"Zur Lindenstr.","postalCode":"06317","locality":"Seegebiet Mansfelder Land","municipality":{"key":"15087386","name":"Seegebiet Mansfelder Land","type":"Kreisangehörige_Gemeinde"},"district":{"key":"15087","name":"Mansfeld-Südharz","type":"Landkreis"},"federalState":{"key":"15","name":"Sachsen-Anhalt"}},{"name":"Zur Schulstr.","postalCode":"06317","locality":"Seegebiet Mansfelder Land","municipality":{"key":"15087386","name":"Seegebiet Mansfelder Land","type":"Kreisangehörige_Gemeinde"},"district":{"key":"15087","name":"Mansfeld-Südharz","type":"Landkreis"},"federalState":{"key":"15","name":"Sachsen-Anhalt"}},]