[{"key":"10032466","name":"Alte Fahrwangerstrasse","postalCode":"5618","locality":"Bettwil","commune":{"key":"4227","name":"Bettwil","shortName":"Bettwil"},"district":{"key":"1908","name":"Bezirk Muri"},"canton":{"key":"19","code":"AG","name":"Aargau"},"status":"Real"},{"key":"10078508","name":"Bachstrasse","postalCode":"5618","locality":"Bettwil","commune":{"key":"4227","name":"Bettwil","shortName":"Bettwil"},"district":{"key":"1908","name":"Bezirk Muri"},"canton":{"key":"19","code":"AG","name":"Aargau"},"status":"Real"},{"key":"10052890","name":"Bergmattenstrasse","postalCode":"5618","locality":"Bettwil","commune":{"key":"4227","name":"Bettwil","shortName":"Bettwil"},"district":{"key":"1908","name":"Bezirk Muri"},"canton":{"key":"19","code":"AG","name":"Aargau"},"status":"Real"},{"key":"10032467","name":"Brunnäckerstrasse","postalCode":"5618","locality":"Bettwil","commune":{"key":"4227","name":"Bettwil","shortName":"Bettwil"},"district":{"key":"1908","name":"Bezirk Muri"},"canton":{"key":"19","code":"AG","name":"Aargau"},"status":"Real"},{"key":"10056580","name":"Brünnelihof","postalCode":"5618","locality":"Bettwil","commune":{"key":"4227","name":"Bettwil","shortName":"Bettwil"},"district":{"key":"1908","name":"Bezirk Muri"},"canton":{"key":"19","code":"AG","name":"Aargau"},"status":"Real"},{"key":"10095527","name":"Gassäckerstrasse","postalCode":"5618","locality":"Bettwil","commune":{"key":"4227","name":"Bettwil","shortName":"Bettwil"},"district":{"key":"1908","name":"Bezirk Muri"},"canton":{"key":"19","code":"AG","name":"Aargau"},"status":"Real"},{"key":"10032468","name":"Haldenhof","postalCode":"5618","locality":"Bettwil","commune":{"key":"4227","name":"Bettwil","shortName":"Bettwil"},"district":{"key":"1908","name":"Bezirk Muri"},"canton":{"key":"19","code":"AG","name":"Aargau"},"status":"Real"},{"key":"10109636","name":"Hauptstrasse","postalCode":"5618","locality":"Bettwil","commune":{"key":"4227","name":"Bettwil","shortName":"Bettwil"},"district":{"key":"1908","name":"Bezirk Muri"},"canton":{"key":"19","code":"AG","name":"Aargau"},"status":"Real"},{"key":"10051035","name":"Hinterdorfstrasse","postalCode":"5618","locality":"Bettwil","commune":{"key":"4227","name":"Bettwil","shortName":"Bettwil"},"district":{"key":"1908","name":"Bezirk Muri"},"canton":{"key":"19","code":"AG","name":"Aargau"},"status":"Real"},{"key":"10162661","name":"Im Winkel","postalCode":"5618","locality":"Bettwil","commune":{"key":"4227","name":"Bettwil","shortName":"Bettwil"},"district":{"key":"1908","name":"Bezirk Muri"},"canton":{"key":"19","code":"AG","name":"Aargau"},"status":"Real"},{"key":"10116117","name":"Königsberg","postalCode":"5618","locality":"Bettwil","commune":{"key":"4227","name":"Bettwil","shortName":"Bettwil"},"district":{"key":"1908","name":"Bezirk Muri"},"canton":{"key":"19","code":"AG","name":"Aargau"},"status":"Real"},{"key":"10032469","name":"Landjuch","postalCode":"5618","locality":"Bettwil","commune":{"key":"4227","name":"Bettwil","shortName":"Bettwil"},"district":{"key":"1908","name":"Bezirk Muri"},"canton":{"key":"19","code":"AG","name":"Aargau"},"status":"Real"},{"key":"10095528","name":"Lindenbergstrasse","postalCode":"5618","locality":"Bettwil","commune":{"key":"4227","name":"Bettwil","shortName":"Bettwil"},"district":{"key":"1908","name":"Bezirk Muri"},"canton":{"key":"19","code":"AG","name":"Aargau"},"status":"Real"},{"key":"10243206","name":"Lindenweg","postalCode":"5618","locality":"Bettwil","commune":{"key":"4227","name":"Bettwil","shortName":"Bettwil"},"district":{"key":"1908","name":"Bezirk Muri"},"canton":{"key":"19","code":"AG","name":"Aargau"},"status":"Real"},{"key":"10184536","name":"Mühlestrasse","postalCode":"5618","locality":"Bettwil","commune":{"key":"4227","name":"Bettwil","shortName":"Bettwil"},"district":{"key":"1908","name":"Bezirk Muri"},"canton":{"key":"19","code":"AG","name":"Aargau"},"status":"Real"},{"key":"10078509","name":"Muristrasse","postalCode":"5618","locality":"Bettwil","commune":{"key":"4227","name":"Bettwil","shortName":"Bettwil"},"district":{"key":"1908","name":"Bezirk Muri"},"canton":{"key":"19","code":"AG","name":"Aargau"},"status":"Real"},{"key":"10127759","name":"Niesenbergstrasse","postalCode":"5618","locality":"Bettwil","commune":{"key":"4227","name":"Bettwil","shortName":"Bettwil"},"district":{"key":"1908","name":"Bezirk Muri"},"canton":{"key":"19","code":"AG","name":"Aargau"},"status":"Real"},{"key":"10239561","name":"Ortsverbindung","postalCode":"5618","locality":"Bettwil","commune":{"key":"4227","name":"Bettwil","shortName":"Bettwil"},"district":{"key":"1908","name":"Bezirk Muri"},"canton":{"key":"19","code":"AG","name":"Aargau"},"status":"Real"},{"key":"10161916","name":"Pilatusstrasse","postalCode":"5618","locality":"Bettwil","commune":{"key":"4227","name":"Bettwil","shortName":"Bettwil"},"district":{"key":"1908","name":"Bezirk Muri"},"canton":{"key":"19","code":"AG","name":"Aargau"},"status":"Real"},{"key":"10174270","name":"Römerstrasse","postalCode":"5618","locality":"Bettwil","commune":{"key":"4227","name":"Bettwil","shortName":"Bettwil"},"district":{"key":"1908","name":"Bezirk Muri"},"canton":{"key":"19","code":"AG","name":"Aargau"},"status":"Real"},{"key":"10032470","name":"Rütihof","postalCode":"5618","locality":"Bettwil","commune":{"key":"4227","name":"Bettwil","shortName":"Bettwil"},"district":{"key":"1908","name":"Bezirk Muri"},"canton":{"key":"19","code":"AG","name":"Aargau"},"status":"Real"},{"key":"10095529","name":"Sarmenstorferstrasse","postalCode":"5618","locality":"Bettwil","commune":{"key":"4227","name":"Bettwil","shortName":"Bettwil"},"district":{"key":"1908","name":"Bezirk Muri"},"canton":{"key":"19","code":"AG","name":"Aargau"},"status":"Real"},{"key":"10032471","name":"Schongauerstrasse","postalCode":"5618","locality":"Bettwil","commune":{"key":"4227","name":"Bettwil","shortName":"Bettwil"},"district":{"key":"1908","name":"Bezirk Muri"},"canton":{"key":"19","code":"AG","name":"Aargau"},"status":"Real"},{"key":"10078510","name":"Schulhausstrasse","postalCode":"5618","locality":"Bettwil","commune":{"key":"4227","name":"Bettwil","shortName":"Bettwil"},"district":{"key":"1908","name":"Bezirk Muri"},"canton":{"key":"19","code":"AG","name":"Aargau"},"status":"Real"},{"key":"10032472","name":"Tannenhof","postalCode":"5618","locality":"Bettwil","commune":{"key":"4227","name":"Bettwil","shortName":"Bettwil"},"district":{"key":"1908","name":"Bezirk Muri"},"canton":{"key":"19","code":"AG","name":"Aargau"},"status":"Real"},{"key":"10208051","name":"Titlisblick","postalCode":"5618","locality":"Bettwil","commune":{"key":"4227","name":"Bettwil","shortName":"Bettwil"},"district":{"key":"1908","name":"Bezirk Muri"},"canton":{"key":"19","code":"AG","name":"Aargau"},"status":"Real"},{"key":"10056581","name":"Waidhof","postalCode":"5618","locality":"Bettwil","commune":{"key":"4227","name":"Bettwil","shortName":"Bettwil"},"district":{"key":"1908","name":"Bezirk Muri"},"canton":{"key":"19","code":"AG","name":"Aargau"},"status":"Real"},{"key":"10109637","name":"Zelgli","postalCode":"5618","locality":"Bettwil","commune":{"key":"4227","name":"Bettwil","shortName":"Bettwil"},"district":{"key":"1908","name":"Bezirk Muri"},"canton":{"key":"19","code":"AG","name":"Aargau"},"status":"Real"},]