[{"key":"10089639","name":"Au Saignat","postalCode":"2333","locality":"La Ferrière","commune":{"key":"435","name":"La Ferrière","shortName":"La Ferrière"},"district":{"key":"241","name":"Arrondissement administratif Jura bernois"},"canton":{"key":"2","code":"BE","name":"Bern / Berne"},"status":"Real"},{"key":"10219482","name":"Au Valanvron","postalCode":"2333","locality":"La Ferrière","commune":{"key":"435","name":"La Ferrière","shortName":"La Ferrière"},"district":{"key":"241","name":"Arrondissement administratif Jura bernois"},"canton":{"key":"2","code":"BE","name":"Bern / Berne"},"status":"Real"},{"key":"10065413","name":"Aux Pruats","postalCode":"2333","locality":"La Ferrière","commune":{"key":"435","name":"La Ferrière","shortName":"La Ferrière"},"district":{"key":"241","name":"Arrondissement administratif Jura bernois"},"canton":{"key":"2","code":"BE","name":"Bern / Berne"},"status":"Real"},{"key":"10219486","name":"Bas des Brandt","postalCode":"2333","locality":"La Ferrière","commune":{"key":"435","name":"La Ferrière","shortName":"La Ferrière"},"district":{"key":"241","name":"Arrondissement administratif Jura bernois"},"canton":{"key":"2","code":"BE","name":"Bern / Berne"},"status":"Real"},{"key":"10006240","name":"Bel-Air","postalCode":"2333","locality":"La Ferrière","commune":{"key":"435","name":"La Ferrière","shortName":"La Ferrière"},"district":{"key":"241","name":"Arrondissement administratif Jura bernois"},"canton":{"key":"2","code":"BE","name":"Bern / Berne"},"status":"Real"},{"key":"10223931","name":"Chemin des Ecoliers","postalCode":"2333","locality":"La Ferrière","commune":{"key":"435","name":"La Ferrière","shortName":"La Ferrière"},"district":{"key":"241","name":"Arrondissement administratif Jura bernois"},"canton":{"key":"2","code":"BE","name":"Bern / Berne"},"status":"Real"},{"key":"10065414","name":"Combe du Pelu","postalCode":"2333","locality":"La Ferrière","commune":{"key":"435","name":"La Ferrière","shortName":"La Ferrière"},"district":{"key":"241","name":"Arrondissement administratif Jura bernois"},"canton":{"key":"2","code":"BE","name":"Bern / Berne"},"status":"Real"},{"key":"10152240","name":"Crêt de la Borne","postalCode":"2333","locality":"La Ferrière","commune":{"key":"435","name":"La Ferrière","shortName":"La Ferrière"},"district":{"key":"241","name":"Arrondissement administratif Jura bernois"},"canton":{"key":"2","code":"BE","name":"Bern / Berne"},"status":"Real"},{"key":"10219491","name":"Creux des Rets","postalCode":"2333","locality":"La Ferrière","commune":{"key":"435","name":"La Ferrière","shortName":"La Ferrière"},"district":{"key":"241","name":"Arrondissement administratif Jura bernois"},"canton":{"key":"2","code":"BE","name":"Bern / Berne"},"status":"Real"},{"key":"10219798","name":"Cumottet","postalCode":"2333","locality":"La Ferrière","commune":{"key":"435","name":"La Ferrière","shortName":"La Ferrière"},"district":{"key":"241","name":"Arrondissement administratif Jura bernois"},"canton":{"key":"2","code":"BE","name":"Bern / Berne"},"status":"Real"},{"key":"10089640","name":"Droit de Renan","postalCode":"2333","locality":"La Ferrière","commune":{"key":"435","name":"La Ferrière","shortName":"La Ferrière"},"district":{"key":"241","name":"Arrondissement administratif Jura bernois"},"canton":{"key":"2","code":"BE","name":"Bern / Berne"},"status":"Real"},{"key":"10124907","name":"Haut des Vieilles","postalCode":"2333","locality":"La Ferrière","commune":{"key":"435","name":"La Ferrière","shortName":"La Ferrière"},"district":{"key":"241","name":"Arrondissement administratif Jura bernois"},"canton":{"key":"2","code":"BE","name":"Bern / Berne"},"status":"Real"},{"key":"10223932","name":"Impasse des Martinets","postalCode":"2333","locality":"La Ferrière","commune":{"key":"435","name":"La Ferrière","shortName":"La Ferrière"},"district":{"key":"241","name":"Arrondissement administratif Jura bernois"},"canton":{"key":"2","code":"BE","name":"Bern / Berne"},"status":"Real"},{"key":"10182033","name":"La Basse-Ferrière","postalCode":"2333","locality":"La Ferrière","commune":{"key":"435","name":"La Ferrière","shortName":"La Ferrière"},"district":{"key":"241","name":"Arrondissement administratif Jura bernois"},"canton":{"key":"2","code":"BE","name":"Bern / Berne"},"status":"Real"},{"key":"10004504","name":"La Chaux-d'Abel","postalCode":"2333","locality":"La Ferrière","commune":{"key":"435","name":"La Ferrière","shortName":"La Ferrière"},"district":{"key":"241","name":"Arrondissement administratif Jura bernois"},"canton":{"key":"2","code":"BE","name":"Bern / Berne"},"status":"Real"},{"key":"10006242","name":"La Chaux-d'Abel","postalCode":"2333","locality":"La Ferrière","commune":{"key":"435","name":"La Ferrière","shortName":"La Ferrière"},"district":{"key":"241","name":"Arrondissement administratif Jura bernois"},"canton":{"key":"2","code":"BE","name":"Bern / Berne"},"status":"Real"},{"key":"10004505","name":"La Coronelle","postalCode":"2333","locality":"La Ferrière","commune":{"key":"435","name":"La Ferrière","shortName":"La Ferrière"},"district":{"key":"241","name":"Arrondissement administratif Jura bernois"},"canton":{"key":"2","code":"BE","name":"Bern / Berne"},"status":"Real"},{"key":"10189807","name":"La Gibolette","postalCode":"2333","locality":"La Ferrière","commune":{"key":"435","name":"La Ferrière","shortName":"La Ferrière"},"district":{"key":"241","name":"Arrondissement administratif Jura bernois"},"canton":{"key":"2","code":"BE","name":"Bern / Berne"},"status":"Real"},{"key":"10105234","name":"La Large-Journée","postalCode":"2333","locality":"La Ferrière","commune":{"key":"435","name":"La Ferrière","shortName":"La Ferrière"},"district":{"key":"241","name":"Arrondissement administratif Jura bernois"},"canton":{"key":"2","code":"BE","name":"Bern / Berne"},"status":"Real"},{"key":"10089641","name":"La Puce","postalCode":"2333","locality":"La Ferrière","commune":{"key":"435","name":"La Ferrière","shortName":"La Ferrière"},"district":{"key":"241","name":"Arrondissement administratif Jura bernois"},"canton":{"key":"2","code":"BE","name":"Bern / Berne"},"status":"Real"},{"key":"10006243","name":"La Saunière","postalCode":"2333","locality":"La Ferrière","commune":{"key":"435","name":"La Ferrière","shortName":"La Ferrière"},"district":{"key":"241","name":"Arrondissement administratif Jura bernois"},"canton":{"key":"2","code":"BE","name":"Bern / Berne"},"status":"Real"},{"key":"10066586","name":"La Tuilerie","postalCode":"2333","locality":"La Ferrière","commune":{"key":"435","name":"La Ferrière","shortName":"La Ferrière"},"district":{"key":"241","name":"Arrondissement administratif Jura bernois"},"canton":{"key":"2","code":"BE","name":"Bern / Berne"},"status":"Real"},{"key":"10065416","name":"La Vigie","postalCode":"2333","locality":"La Ferrière","commune":{"key":"435","name":"La Ferrière","shortName":"La Ferrière"},"district":{"key":"241","name":"Arrondissement administratif Jura bernois"},"canton":{"key":"2","code":"BE","name":"Bern / Berne"},"status":"Real"},{"key":"10006244","name":"Le Cerisier","postalCode":"2333","locality":"La Ferrière","commune":{"key":"435","name":"La Ferrière","shortName":"La Ferrière"},"district":{"key":"241","name":"Arrondissement administratif Jura bernois"},"canton":{"key":"2","code":"BE","name":"Bern / Berne"},"status":"Real"},{"key":"10089642","name":"Le Fief","postalCode":"2333","locality":"La Ferrière","commune":{"key":"435","name":"La Ferrière","shortName":"La Ferrière"},"district":{"key":"241","name":"Arrondissement administratif Jura bernois"},"canton":{"key":"2","code":"BE","name":"Bern / Berne"},"status":"Real"},{"key":"10006245","name":"Les Rochats","postalCode":"2333","locality":"La Ferrière","commune":{"key":"435","name":"La Ferrière","shortName":"La Ferrière"},"district":{"key":"241","name":"Arrondissement administratif Jura bernois"},"canton":{"key":"2","code":"BE","name":"Bern / Berne"},"status":"Real"},{"key":"10065417","name":"Rangée des Robert","postalCode":"2333","locality":"La Ferrière","commune":{"key":"435","name":"La Ferrière","shortName":"La Ferrière"},"district":{"key":"241","name":"Arrondissement administratif Jura bernois"},"canton":{"key":"2","code":"BE","name":"Bern / Berne"},"status":"Real"},{"key":"10242576","name":"Rue de la Tangente","postalCode":"2333","locality":"La Ferrière","commune":{"key":"435","name":"La Ferrière","shortName":"La Ferrière"},"district":{"key":"241","name":"Arrondissement administratif Jura bernois"},"canton":{"key":"2","code":"BE","name":"Bern / Berne"},"status":"Real"},{"key":"10223933","name":"Rue des Bouvreuils","postalCode":"2333","locality":"La Ferrière","commune":{"key":"435","name":"La Ferrière","shortName":"La Ferrière"},"district":{"key":"241","name":"Arrondissement administratif Jura bernois"},"canton":{"key":"2","code":"BE","name":"Bern / Berne"},"status":"Real"},{"key":"10223934","name":"Rue des Quatre-Vents","postalCode":"2333","locality":"La Ferrière","commune":{"key":"435","name":"La Ferrière","shortName":"La Ferrière"},"district":{"key":"241","name":"Arrondissement administratif Jura bernois"},"canton":{"key":"2","code":"BE","name":"Bern / Berne"},"status":"Real"},{"key":"10223935","name":"Rue des Trois-Cantons","postalCode":"2333","locality":"La Ferrière","commune":{"key":"435","name":"La Ferrière","shortName":"La Ferrière"},"district":{"key":"241","name":"Arrondissement administratif Jura bernois"},"canton":{"key":"2","code":"BE","name":"Bern / Berne"},"status":"Real"},{"key":"10223936","name":"Rue du Milan-Royal","postalCode":"2333","locality":"La Ferrière","commune":{"key":"435","name":"La Ferrière","shortName":"La Ferrière"},"district":{"key":"241","name":"Arrondissement administratif Jura bernois"},"canton":{"key":"2","code":"BE","name":"Bern / Berne"},"status":"Real"},{"key":"10223937","name":"Rue du Soleil-Couchant","postalCode":"2333","locality":"La Ferrière","commune":{"key":"435","name":"La Ferrière","shortName":"La Ferrière"},"district":{"key":"241","name":"Arrondissement administratif Jura bernois"},"canton":{"key":"2","code":"BE","name":"Bern / Berne"},"status":"Real"},{"key":"10089643","name":"Sous le Crêt","postalCode":"2333","locality":"La Ferrière","commune":{"key":"435","name":"La Ferrière","shortName":"La Ferrière"},"district":{"key":"241","name":"Arrondissement administratif Jura bernois"},"canton":{"key":"2","code":"BE","name":"Bern / Berne"},"status":"Real"},{"key":"10006246","name":"Sous les Plânes","postalCode":"2333","locality":"La Ferrière","commune":{"key":"435","name":"La Ferrière","shortName":"La Ferrière"},"district":{"key":"241","name":"Arrondissement administratif Jura bernois"},"canton":{"key":"2","code":"BE","name":"Bern / Berne"},"status":"Real"},{"key":"10065418","name":"Sur le Crêt","postalCode":"2333","locality":"La Ferrière","commune":{"key":"435","name":"La Ferrière","shortName":"La Ferrière"},"district":{"key":"241","name":"Arrondissement administratif Jura bernois"},"canton":{"key":"2","code":"BE","name":"Bern / Berne"},"status":"Real"},{"key":"10089644","name":"Vers l'Eglise","postalCode":"2333","locality":"La Ferrière","commune":{"key":"435","name":"La Ferrière","shortName":"La Ferrière"},"district":{"key":"241","name":"Arrondissement administratif Jura bernois"},"canton":{"key":"2","code":"BE","name":"Bern / Berne"},"status":"Real"},]