[{"name":"Addenstorfer Weg","postalCode":"29553","locality":"Bienenbüttel","municipality":{"key":"03360004","name":"Bienenbüttel","type":"Kreisangehörige_Gemeinde"},"district":{"key":"03360","name":"Uelzen","type":"Landkreis"},"federalState":{"key":"03","name":"Niedersachsen"}},{"name":"Ahornweg","postalCode":"29553","locality":"Bienenbüttel","municipality":{"key":"03360004","name":"Bienenbüttel","type":"Kreisangehörige_Gemeinde"},"district":{"key":"03360","name":"Uelzen","type":"Landkreis"},"federalState":{"key":"03","name":"Niedersachsen"}},{"name":"Alte Dorfstr.","postalCode":"29553","locality":"Bienenbüttel","municipality":{"key":"03360004","name":"Bienenbüttel","type":"Kreisangehörige_Gemeinde"},"district":{"key":"03360","name":"Uelzen","type":"Landkreis"},"federalState":{"key":"03","name":"Niedersachsen"}},{"name":"Alter Lüneburger Stadtweg","postalCode":"29553","locality":"Bienenbüttel","municipality":{"key":"03360004","name":"Bienenbüttel","type":"Kreisangehörige_Gemeinde"},"district":{"key":"03360","name":"Uelzen","type":"Landkreis"},"federalState":{"key":"03","name":"Niedersachsen"}},{"name":"Am Beek","postalCode":"29553","locality":"Bienenbüttel","municipality":{"key":"03360004","name":"Bienenbüttel","type":"Kreisangehörige_Gemeinde"},"district":{"key":"03360","name":"Uelzen","type":"Landkreis"},"federalState":{"key":"03","name":"Niedersachsen"}},{"name":"Am Bleeken","postalCode":"29553","locality":"Bienenbüttel","municipality":{"key":"03360004","name":"Bienenbüttel","type":"Kreisangehörige_Gemeinde"},"district":{"key":"03360","name":"Uelzen","type":"Landkreis"},"federalState":{"key":"03","name":"Niedersachsen"}},{"name":"Am Bruchtorfer weg","postalCode":"29553","locality":"Bienenbüttel","municipality":{"key":"03360004","name":"Bienenbüttel","type":"Kreisangehörige_Gemeinde"},"district":{"key":"03360","name":"Uelzen","type":"Landkreis"},"federalState":{"key":"03","name":"Niedersachsen"}},{"name":"Am Butterberg","postalCode":"29553","locality":"Bienenbüttel","municipality":{"key":"03360004","name":"Bienenbüttel","type":"Kreisangehörige_Gemeinde"},"district":{"key":"03360","name":"Uelzen","type":"Landkreis"},"federalState":{"key":"03","name":"Niedersachsen"}},{"name":"Am Feuerwehrhaus","postalCode":"29553","locality":"Bienenbüttel","municipality":{"key":"03360004","name":"Bienenbüttel","type":"Kreisangehörige_Gemeinde"},"district":{"key":"03360","name":"Uelzen","type":"Landkreis"},"federalState":{"key":"03","name":"Niedersachsen"}},{"name":"Am Hang","postalCode":"29553","locality":"Bienenbüttel","municipality":{"key":"03360004","name":"Bienenbüttel","type":"Kreisangehörige_Gemeinde"},"district":{"key":"03360","name":"Uelzen","type":"Landkreis"},"federalState":{"key":"03","name":"Niedersachsen"}},{"name":"Am Heidberg","postalCode":"29553","locality":"Bienenbüttel","municipality":{"key":"03360004","name":"Bienenbüttel","type":"Kreisangehörige_Gemeinde"},"district":{"key":"03360","name":"Uelzen","type":"Landkreis"},"federalState":{"key":"03","name":"Niedersachsen"}},{"name":"Am Kirchwall","postalCode":"29553","locality":"Bienenbüttel","municipality":{"key":"03360004","name":"Bienenbüttel","type":"Kreisangehörige_Gemeinde"},"district":{"key":"03360","name":"Uelzen","type":"Landkreis"},"federalState":{"key":"03","name":"Niedersachsen"}},{"name":"Am Klaepenberg","postalCode":"29553","locality":"Bienenbüttel","municipality":{"key":"03360004","name":"Bienenbüttel","type":"Kreisangehörige_Gemeinde"},"district":{"key":"03360","name":"Uelzen","type":"Landkreis"},"federalState":{"key":"03","name":"Niedersachsen"}},{"name":"Am Kronsberg","postalCode":"29553","locality":"Bienenbüttel","municipality":{"key":"03360004","name":"Bienenbüttel","type":"Kreisangehörige_Gemeinde"},"district":{"key":"03360","name":"Uelzen","type":"Landkreis"},"federalState":{"key":"03","name":"Niedersachsen"}},{"name":"Am Krummbach","postalCode":"29553","locality":"Bienenbüttel","municipality":{"key":"03360004","name":"Bienenbüttel","type":"Kreisangehörige_Gemeinde"},"district":{"key":"03360","name":"Uelzen","type":"Landkreis"},"federalState":{"key":"03","name":"Niedersachsen"}},{"name":"Am Mühlenbach","postalCode":"29553","locality":"Bienenbüttel","municipality":{"key":"03360004","name":"Bienenbüttel","type":"Kreisangehörige_Gemeinde"},"district":{"key":"03360","name":"Uelzen","type":"Landkreis"},"federalState":{"key":"03","name":"Niedersachsen"}},{"name":"Am Paschberg","postalCode":"29553","locality":"Bienenbüttel","municipality":{"key":"03360004","name":"Bienenbüttel","type":"Kreisangehörige_Gemeinde"},"district":{"key":"03360","name":"Uelzen","type":"Landkreis"},"federalState":{"key":"03","name":"Niedersachsen"}},{"name":"Am Sandberg","postalCode":"29553","locality":"Bienenbüttel","municipality":{"key":"03360004","name":"Bienenbüttel","type":"Kreisangehörige_Gemeinde"},"district":{"key":"03360","name":"Uelzen","type":"Landkreis"},"federalState":{"key":"03","name":"Niedersachsen"}},{"name":"Amselweg","postalCode":"29553","locality":"Bienenbüttel","municipality":{"key":"03360004","name":"Bienenbüttel","type":"Kreisangehörige_Gemeinde"},"district":{"key":"03360","name":"Uelzen","type":"Landkreis"},"federalState":{"key":"03","name":"Niedersachsen"}},{"name":"Am Silberberg","postalCode":"29553","locality":"Bienenbüttel","municipality":{"key":"03360004","name":"Bienenbüttel","type":"Kreisangehörige_Gemeinde"},"district":{"key":"03360","name":"Uelzen","type":"Landkreis"},"federalState":{"key":"03","name":"Niedersachsen"}},{"name":"Am Sülzbruch","postalCode":"29553","locality":"Bienenbüttel","municipality":{"key":"03360004","name":"Bienenbüttel","type":"Kreisangehörige_Gemeinde"},"district":{"key":"03360","name":"Uelzen","type":"Landkreis"},"federalState":{"key":"03","name":"Niedersachsen"}},{"name":"Am Vogelsberg","postalCode":"29553","locality":"Bienenbüttel","municipality":{"key":"03360004","name":"Bienenbüttel","type":"Kreisangehörige_Gemeinde"},"district":{"key":"03360","name":"Uelzen","type":"Landkreis"},"federalState":{"key":"03","name":"Niedersachsen"}},{"name":"Am Walde","postalCode":"29553","locality":"Bienenbüttel","municipality":{"key":"03360004","name":"Bienenbüttel","type":"Kreisangehörige_Gemeinde"},"district":{"key":"03360","name":"Uelzen","type":"Landkreis"},"federalState":{"key":"03","name":"Niedersachsen"}},{"name":"Am Wiesenbeek","postalCode":"29553","locality":"Bienenbüttel","municipality":{"key":"03360004","name":"Bienenbüttel","type":"Kreisangehörige_Gemeinde"},"district":{"key":"03360","name":"Uelzen","type":"Landkreis"},"federalState":{"key":"03","name":"Niedersachsen"}},{"name":"An der Findorfsmühle","postalCode":"29553","locality":"Bienenbüttel","municipality":{"key":"03360004","name":"Bienenbüttel","type":"Kreisangehörige_Gemeinde"},"district":{"key":"03360","name":"Uelzen","type":"Landkreis"},"federalState":{"key":"03","name":"Niedersachsen"}},{"name":"Auf der Hofkoppel","postalCode":"29553","locality":"Bienenbüttel","municipality":{"key":"03360004","name":"Bienenbüttel","type":"Kreisangehörige_Gemeinde"},"district":{"key":"03360","name":"Uelzen","type":"Landkreis"},"federalState":{"key":"03","name":"Niedersachsen"}},{"name":"Badweg","postalCode":"29553","locality":"Bienenbüttel","municipality":{"key":"03360004","name":"Bienenbüttel","type":"Kreisangehörige_Gemeinde"},"district":{"key":"03360","name":"Uelzen","type":"Landkreis"},"federalState":{"key":"03","name":"Niedersachsen"}},{"name":"Bahnhofstr.","postalCode":"29553","locality":"Bienenbüttel","municipality":{"key":"03360004","name":"Bienenbüttel","type":"Kreisangehörige_Gemeinde"},"district":{"key":"03360","name":"Uelzen","type":"Landkreis"},"federalState":{"key":"03","name":"Niedersachsen"}},{"name":"Bahnstr.","postalCode":"29553","locality":"Bienenbüttel","municipality":{"key":"03360004","name":"Bienenbüttel","type":"Kreisangehörige_Gemeinde"},"district":{"key":"03360","name":"Uelzen","type":"Landkreis"},"federalState":{"key":"03","name":"Niedersachsen"}},{"name":"Bardenhagener Str.","postalCode":"29553","locality":"Bienenbüttel","municipality":{"key":"03360004","name":"Bienenbüttel","type":"Kreisangehörige_Gemeinde"},"district":{"key":"03360","name":"Uelzen","type":"Landkreis"},"federalState":{"key":"03","name":"Niedersachsen"}},{"name":"Bargdorfer Heide","postalCode":"29553","locality":"Bienenbüttel","municipality":{"key":"03360004","name":"Bienenbüttel","type":"Kreisangehörige_Gemeinde"},"district":{"key":"03360","name":"Uelzen","type":"Landkreis"},"federalState":{"key":"03","name":"Niedersachsen"}},{"name":"Bargdorfer Str.","postalCode":"29553","locality":"Bienenbüttel","municipality":{"key":"03360004","name":"Bienenbüttel","type":"Kreisangehörige_Gemeinde"},"district":{"key":"03360","name":"Uelzen","type":"Landkreis"},"federalState":{"key":"03","name":"Niedersachsen"}},{"name":"Barnstedter Str.","postalCode":"29553","locality":"Bienenbüttel","municipality":{"key":"03360004","name":"Bienenbüttel","type":"Kreisangehörige_Gemeinde"},"district":{"key":"03360","name":"Uelzen","type":"Landkreis"},"federalState":{"key":"03","name":"Niedersachsen"}},{"name":"Bei der Waschbeck","postalCode":"29553","locality":"Bienenbüttel","municipality":{"key":"03360004","name":"Bienenbüttel","type":"Kreisangehörige_Gemeinde"},"district":{"key":"03360","name":"Uelzen","type":"Landkreis"},"federalState":{"key":"03","name":"Niedersachsen"}},{"name":"Bergstr.","postalCode":"29553","locality":"Bienenbüttel","municipality":{"key":"03360004","name":"Bienenbüttel","type":"Kreisangehörige_Gemeinde"},"district":{"key":"03360","name":"Uelzen","type":"Landkreis"},"federalState":{"key":"03","name":"Niedersachsen"}},{"name":"Beverbecker Str.","postalCode":"29553","locality":"Bienenbüttel","municipality":{"key":"03360004","name":"Bienenbüttel","type":"Kreisangehörige_Gemeinde"},"district":{"key":"03360","name":"Uelzen","type":"Landkreis"},"federalState":{"key":"03","name":"Niedersachsen"}},{"name":"Bienenbuetteler Str.","postalCode":"29553","locality":"Bienenbüttel","municipality":{"key":"03360004","name":"Bienenbüttel","type":"Kreisangehörige_Gemeinde"},"district":{"key":"03360","name":"Uelzen","type":"Landkreis"},"federalState":{"key":"03","name":"Niedersachsen"}},{"name":"Billungstr.","postalCode":"29553","locality":"Bienenbüttel","municipality":{"key":"03360004","name":"Bienenbüttel","type":"Kreisangehörige_Gemeinde"},"district":{"key":"03360","name":"Uelzen","type":"Landkreis"},"federalState":{"key":"03","name":"Niedersachsen"}},{"name":"Birkenweg","postalCode":"29553","locality":"Bienenbüttel","municipality":{"key":"03360004","name":"Bienenbüttel","type":"Kreisangehörige_Gemeinde"},"district":{"key":"03360","name":"Uelzen","type":"Landkreis"},"federalState":{"key":"03","name":"Niedersachsen"}},{"name":"Bornsener Str.","postalCode":"29553","locality":"Bienenbüttel","municipality":{"key":"03360004","name":"Bienenbüttel","type":"Kreisangehörige_Gemeinde"},"district":{"key":"03360","name":"Uelzen","type":"Landkreis"},"federalState":{"key":"03","name":"Niedersachsen"}},{"name":"Brandenburger Weg","postalCode":"29553","locality":"Bienenbüttel","municipality":{"key":"03360004","name":"Bienenbüttel","type":"Kreisangehörige_Gemeinde"},"district":{"key":"03360","name":"Uelzen","type":"Landkreis"},"federalState":{"key":"03","name":"Niedersachsen"}},{"name":"Bröckelweg","postalCode":"29553","locality":"Bienenbüttel","municipality":{"key":"03360004","name":"Bienenbüttel","type":"Kreisangehörige_Gemeinde"},"district":{"key":"03360","name":"Uelzen","type":"Landkreis"},"federalState":{"key":"03","name":"Niedersachsen"}},{"name":"Brunnenweg","postalCode":"29553","locality":"Bienenbüttel","municipality":{"key":"03360004","name":"Bienenbüttel","type":"Kreisangehörige_Gemeinde"},"district":{"key":"03360","name":"Uelzen","type":"Landkreis"},"federalState":{"key":"03","name":"Niedersachsen"}},{"name":"Burgstr.","postalCode":"29553","locality":"Bienenbüttel","municipality":{"key":"03360004","name":"Bienenbüttel","type":"Kreisangehörige_Gemeinde"},"district":{"key":"03360","name":"Uelzen","type":"Landkreis"},"federalState":{"key":"03","name":"Niedersachsen"}},{"name":"Butterbergsweg","postalCode":"29553","locality":"Bienenbüttel","municipality":{"key":"03360004","name":"Bienenbüttel","type":"Kreisangehörige_Gemeinde"},"district":{"key":"03360","name":"Uelzen","type":"Landkreis"},"federalState":{"key":"03","name":"Niedersachsen"}},{"name":"Caspar-Lehman-Str.","postalCode":"29525","locality":"Uelzen","municipality":{"key":"03360025","name":"Uelzen, Hansestadt","type":"Stadt"},"district":{"key":"03360","name":"Uelzen","type":"Landkreis"},"federalState":{"key":"03","name":"Niedersachsen"}},{"name":"Celler Str.","postalCode":"29525","locality":"Uelzen","municipality":{"key":"03360025","name":"Uelzen, Hansestadt","type":"Stadt"},"district":{"key":"03360","name":"Uelzen","type":"Landkreis"},"federalState":{"key":"03","name":"Niedersachsen"}},{"name":"Dieksbecker Weg","postalCode":"29553","locality":"Bienenbüttel","municipality":{"key":"03360004","name":"Bienenbüttel","type":"Kreisangehörige_Gemeinde"},"district":{"key":"03360","name":"Uelzen","type":"Landkreis"},"federalState":{"key":"03","name":"Niedersachsen"}},{"name":"Dorfstr.","postalCode":"29553","locality":"Bienenbüttel","municipality":{"key":"03360004","name":"Bienenbüttel","type":"Kreisangehörige_Gemeinde"},"district":{"key":"03360","name":"Uelzen","type":"Landkreis"},"federalState":{"key":"03","name":"Niedersachsen"}},{"name":"Dr.-Kirschke-Weg","postalCode":"29553","locality":"Bienenbüttel","municipality":{"key":"03360004","name":"Bienenbüttel","type":"Kreisangehörige_Gemeinde"},"district":{"key":"03360","name":"Uelzen","type":"Landkreis"},"federalState":{"key":"03","name":"Niedersachsen"}},{"name":"Drosselweg","postalCode":"29553","locality":"Bienenbüttel","municipality":{"key":"03360004","name":"Bienenbüttel","type":"Kreisangehörige_Gemeinde"},"district":{"key":"03360","name":"Uelzen","type":"Landkreis"},"federalState":{"key":"03","name":"Niedersachsen"}},{"name":"Ebstorfer Str.","postalCode":"29553","locality":"Bienenbüttel","municipality":{"key":"03360004","name":"Bienenbüttel","type":"Kreisangehörige_Gemeinde"},"district":{"key":"03360","name":"Uelzen","type":"Landkreis"},"federalState":{"key":"03","name":"Niedersachsen"}},{"name":"Edendorfer Str.","postalCode":"29553","locality":"Bienenbüttel","municipality":{"key":"03360004","name":"Bienenbüttel","type":"Kreisangehörige_Gemeinde"},"district":{"key":"03360","name":"Uelzen","type":"Landkreis"},"federalState":{"key":"03","name":"Niedersachsen"}},{"name":"Eichenweg","postalCode":"29553","locality":"Bienenbüttel","municipality":{"key":"03360004","name":"Bienenbüttel","type":"Kreisangehörige_Gemeinde"},"district":{"key":"03360","name":"Uelzen","type":"Landkreis"},"federalState":{"key":"03","name":"Niedersachsen"}},{"name":"Eichhörnchenweg","postalCode":"29553","locality":"Bienenbüttel","municipality":{"key":"03360004","name":"Bienenbüttel","type":"Kreisangehörige_Gemeinde"},"district":{"key":"03360","name":"Uelzen","type":"Landkreis"},"federalState":{"key":"03","name":"Niedersachsen"}},{"name":"Eitzener Hauptstr.","postalCode":"29553","locality":"Bienenbüttel","municipality":{"key":"03360004","name":"Bienenbüttel","type":"Kreisangehörige_Gemeinde"},"district":{"key":"03360","name":"Uelzen","type":"Landkreis"},"federalState":{"key":"03","name":"Niedersachsen"}},{"name":"Eitzener Kirchsteig","postalCode":"29553","locality":"Bienenbüttel","municipality":{"key":"03360004","name":"Bienenbüttel","type":"Kreisangehörige_Gemeinde"},"district":{"key":"03360","name":"Uelzen","type":"Landkreis"},"federalState":{"key":"03","name":"Niedersachsen"}},{"name":"Eitzener Str.","postalCode":"29553","locality":"Bienenbüttel","municipality":{"key":"03360004","name":"Bienenbüttel","type":"Kreisangehörige_Gemeinde"},"district":{"key":"03360","name":"Uelzen","type":"Landkreis"},"federalState":{"key":"03","name":"Niedersachsen"}},{"name":"Elsternweg","postalCode":"29553","locality":"Bienenbüttel","municipality":{"key":"03360004","name":"Bienenbüttel","type":"Kreisangehörige_Gemeinde"},"district":{"key":"03360","name":"Uelzen","type":"Landkreis"},"federalState":{"key":"03","name":"Niedersachsen"}},{"name":"Erlengrund","postalCode":"29553","locality":"Bienenbüttel","municipality":{"key":"03360004","name":"Bienenbüttel","type":"Kreisangehörige_Gemeinde"},"district":{"key":"03360","name":"Uelzen","type":"Landkreis"},"federalState":{"key":"03","name":"Niedersachsen"}},{"name":"Erlenweg","postalCode":"29553","locality":"Bienenbüttel","municipality":{"key":"03360004","name":"Bienenbüttel","type":"Kreisangehörige_Gemeinde"},"district":{"key":"03360","name":"Uelzen","type":"Landkreis"},"federalState":{"key":"03","name":"Niedersachsen"}},{"name":"Fichtenweg","postalCode":"29553","locality":"Bienenbüttel","municipality":{"key":"03360004","name":"Bienenbüttel","type":"Kreisangehörige_Gemeinde"},"district":{"key":"03360","name":"Uelzen","type":"Landkreis"},"federalState":{"key":"03","name":"Niedersachsen"}},{"name":"Gänsekamp","postalCode":"29553","locality":"Bienenbüttel","municipality":{"key":"03360004","name":"Bienenbüttel","type":"Kreisangehörige_Gemeinde"},"district":{"key":"03360","name":"Uelzen","type":"Landkreis"},"federalState":{"key":"03","name":"Niedersachsen"}},{"name":"Gartenstr.","postalCode":"29553","locality":"Bienenbüttel","municipality":{"key":"03360004","name":"Bienenbüttel","type":"Kreisangehörige_Gemeinde"},"district":{"key":"03360","name":"Uelzen","type":"Landkreis"},"federalState":{"key":"03","name":"Niedersachsen"}},{"name":"Georgstr.","postalCode":"29553","locality":"Bienenbüttel","municipality":{"key":"03360004","name":"Bienenbüttel","type":"Kreisangehörige_Gemeinde"},"district":{"key":"03360","name":"Uelzen","type":"Landkreis"},"federalState":{"key":"03","name":"Niedersachsen"}},{"name":"Ginsterweg","postalCode":"29553","locality":"Bienenbüttel","municipality":{"key":"03360004","name":"Bienenbüttel","type":"Kreisangehörige_Gemeinde"},"district":{"key":"03360","name":"Uelzen","type":"Landkreis"},"federalState":{"key":"03","name":"Niedersachsen"}},{"name":"Grenzweg","postalCode":"29553","locality":"Bienenbüttel","municipality":{"key":"03360004","name":"Bienenbüttel","type":"Kreisangehörige_Gemeinde"},"district":{"key":"03360","name":"Uelzen","type":"Landkreis"},"federalState":{"key":"03","name":"Niedersachsen"}},{"name":"Große Heide","postalCode":"29553","locality":"Bienenbüttel","municipality":{"key":"03360004","name":"Bienenbüttel","type":"Kreisangehörige_Gemeinde"},"district":{"key":"03360","name":"Uelzen","type":"Landkreis"},"federalState":{"key":"03","name":"Niedersachsen"}},{"name":"Große Koppel","postalCode":"29553","locality":"Bienenbüttel","municipality":{"key":"03360004","name":"Bienenbüttel","type":"Kreisangehörige_Gemeinde"},"district":{"key":"03360","name":"Uelzen","type":"Landkreis"},"federalState":{"key":"03","name":"Niedersachsen"}},{"name":"Grüner Jaeger","postalCode":"29553","locality":"Bienenbüttel","municipality":{"key":"03360004","name":"Bienenbüttel","type":"Kreisangehörige_Gemeinde"},"district":{"key":"03360","name":"Uelzen","type":"Landkreis"},"federalState":{"key":"03","name":"Niedersachsen"}},{"name":"Grünewalder Str.","postalCode":"29553","locality":"Bienenbüttel","municipality":{"key":"03360004","name":"Bienenbüttel","type":"Kreisangehörige_Gemeinde"},"district":{"key":"03360","name":"Uelzen","type":"Landkreis"},"federalState":{"key":"03","name":"Niedersachsen"}},{"name":"Grünhagener Str.","postalCode":"29553","locality":"Bienenbüttel","municipality":{"key":"03360004","name":"Bienenbüttel","type":"Kreisangehörige_Gemeinde"},"district":{"key":"03360","name":"Uelzen","type":"Landkreis"},"federalState":{"key":"03","name":"Niedersachsen"}},{"name":"Heiderosenweg","postalCode":"29553","locality":"Bienenbüttel","municipality":{"key":"03360004","name":"Bienenbüttel","type":"Kreisangehörige_Gemeinde"},"district":{"key":"03360","name":"Uelzen","type":"Landkreis"},"federalState":{"key":"03","name":"Niedersachsen"}},{"name":"Heidweg","postalCode":"29553","locality":"Bienenbüttel","municipality":{"key":"03360004","name":"Bienenbüttel","type":"Kreisangehörige_Gemeinde"},"district":{"key":"03360","name":"Uelzen","type":"Landkreis"},"federalState":{"key":"03","name":"Niedersachsen"}},{"name":"Heinrichstr.","postalCode":"29553","locality":"Bienenbüttel","municipality":{"key":"03360004","name":"Bienenbüttel","type":"Kreisangehörige_Gemeinde"},"district":{"key":"03360","name":"Uelzen","type":"Landkreis"},"federalState":{"key":"03","name":"Niedersachsen"}},{"name":"Hoher Weg","postalCode":"29553","locality":"Bienenbüttel","municipality":{"key":"03360004","name":"Bienenbüttel","type":"Kreisangehörige_Gemeinde"},"district":{"key":"03360","name":"Uelzen","type":"Landkreis"},"federalState":{"key":"03","name":"Niedersachsen"}},{"name":"Hohnstorfer Str.","postalCode":"29553","locality":"Bienenbüttel","municipality":{"key":"03360004","name":"Bienenbüttel","type":"Kreisangehörige_Gemeinde"},"district":{"key":"03360","name":"Uelzen","type":"Landkreis"},"federalState":{"key":"03","name":"Niedersachsen"}},{"name":"Hufeisenstr.","postalCode":"29553","locality":"Bienenbüttel","municipality":{"key":"03360004","name":"Bienenbüttel","type":"Kreisangehörige_Gemeinde"},"district":{"key":"03360","name":"Uelzen","type":"Landkreis"},"federalState":{"key":"03","name":"Niedersachsen"}},{"name":"Ilmenaustr.","postalCode":"29553","locality":"Bienenbüttel","municipality":{"key":"03360004","name":"Bienenbüttel","type":"Kreisangehörige_Gemeinde"},"district":{"key":"03360","name":"Uelzen","type":"Landkreis"},"federalState":{"key":"03","name":"Niedersachsen"}},{"name":"Ilmenau-Uferweg-Wichmannsburg","postalCode":"29553","locality":"Bienenbüttel","municipality":{"key":"03360004","name":"Bienenbüttel","type":"Kreisangehörige_Gemeinde"},"district":{"key":"03360","name":"Uelzen","type":"Landkreis"},"federalState":{"key":"03","name":"Niedersachsen"}},{"name":"Ilmenauweg","postalCode":"29553","locality":"Bienenbüttel","municipality":{"key":"03360004","name":"Bienenbüttel","type":"Kreisangehörige_Gemeinde"},"district":{"key":"03360","name":"Uelzen","type":"Landkreis"},"federalState":{"key":"03","name":"Niedersachsen"}},{"name":"Im Beukenbusch","postalCode":"29553","locality":"Bienenbüttel","municipality":{"key":"03360004","name":"Bienenbüttel","type":"Kreisangehörige_Gemeinde"},"district":{"key":"03360","name":"Uelzen","type":"Landkreis"},"federalState":{"key":"03","name":"Niedersachsen"}},{"name":"Im Bruch","postalCode":"29553","locality":"Bienenbüttel","municipality":{"key":"03360004","name":"Bienenbüttel","type":"Kreisangehörige_Gemeinde"},"district":{"key":"03360","name":"Uelzen","type":"Landkreis"},"federalState":{"key":"03","name":"Niedersachsen"}},{"name":"Im Dorfe","postalCode":"29553","locality":"Bienenbüttel","municipality":{"key":"03360004","name":"Bienenbüttel","type":"Kreisangehörige_Gemeinde"},"district":{"key":"03360","name":"Uelzen","type":"Landkreis"},"federalState":{"key":"03","name":"Niedersachsen"}},{"name":"Im Grund","postalCode":"29553","locality":"Bienenbüttel","municipality":{"key":"03360004","name":"Bienenbüttel","type":"Kreisangehörige_Gemeinde"},"district":{"key":"03360","name":"Uelzen","type":"Landkreis"},"federalState":{"key":"03","name":"Niedersachsen"}},{"name":"Im Knick","postalCode":"29553","locality":"Bienenbüttel","municipality":{"key":"03360004","name":"Bienenbüttel","type":"Kreisangehörige_Gemeinde"},"district":{"key":"03360","name":"Uelzen","type":"Landkreis"},"federalState":{"key":"03","name":"Niedersachsen"}},{"name":"Im Kuhlfeld","postalCode":"29553","locality":"Bienenbüttel","municipality":{"key":"03360004","name":"Bienenbüttel","type":"Kreisangehörige_Gemeinde"},"district":{"key":"03360","name":"Uelzen","type":"Landkreis"},"federalState":{"key":"03","name":"Niedersachsen"}},{"name":"Im Weidenwinkel","postalCode":"29553","locality":"Bienenbüttel","municipality":{"key":"03360004","name":"Bienenbüttel","type":"Kreisangehörige_Gemeinde"},"district":{"key":"03360","name":"Uelzen","type":"Landkreis"},"federalState":{"key":"03","name":"Niedersachsen"}},{"name":"Im Winkel","postalCode":"29553","locality":"Bienenbüttel","municipality":{"key":"03360004","name":"Bienenbüttel","type":"Kreisangehörige_Gemeinde"},"district":{"key":"03360","name":"Uelzen","type":"Landkreis"},"federalState":{"key":"03","name":"Niedersachsen"}},{"name":"In der Dohle","postalCode":"29553","locality":"Bienenbüttel","municipality":{"key":"03360004","name":"Bienenbüttel","type":"Kreisangehörige_Gemeinde"},"district":{"key":"03360","name":"Uelzen","type":"Landkreis"},"federalState":{"key":"03","name":"Niedersachsen"}},{"name":"In der Masch","postalCode":"29553","locality":"Bienenbüttel","municipality":{"key":"03360004","name":"Bienenbüttel","type":"Kreisangehörige_Gemeinde"},"district":{"key":"03360","name":"Uelzen","type":"Landkreis"},"federalState":{"key":"03","name":"Niedersachsen"}},{"name":"Jelmstorfer Str.","postalCode":"29553","locality":"Bienenbüttel","municipality":{"key":"03360004","name":"Bienenbüttel","type":"Kreisangehörige_Gemeinde"},"district":{"key":"03360","name":"Uelzen","type":"Landkreis"},"federalState":{"key":"03","name":"Niedersachsen"}},{"name":"Kapellensteig","postalCode":"29553","locality":"Bienenbüttel","municipality":{"key":"03360004","name":"Bienenbüttel","type":"Kreisangehörige_Gemeinde"},"district":{"key":"03360","name":"Uelzen","type":"Landkreis"},"federalState":{"key":"03","name":"Niedersachsen"}},{"name":"Kiesweg","postalCode":"29553","locality":"Bienenbüttel","municipality":{"key":"03360004","name":"Bienenbüttel","type":"Kreisangehörige_Gemeinde"},"district":{"key":"03360","name":"Uelzen","type":"Landkreis"},"federalState":{"key":"03","name":"Niedersachsen"}},{"name":"Kinauweg","postalCode":"29553","locality":"Bienenbüttel","municipality":{"key":"03360004","name":"Bienenbüttel","type":"Kreisangehörige_Gemeinde"},"district":{"key":"03360","name":"Uelzen","type":"Landkreis"},"federalState":{"key":"03","name":"Niedersachsen"}},{"name":"Kirchplatz","postalCode":"29553","locality":"Bienenbüttel","municipality":{"key":"03360004","name":"Bienenbüttel","type":"Kreisangehörige_Gemeinde"},"district":{"key":"03360","name":"Uelzen","type":"Landkreis"},"federalState":{"key":"03","name":"Niedersachsen"}},{"name":"Kleine Koppel","postalCode":"29553","locality":"Bienenbüttel","municipality":{"key":"03360004","name":"Bienenbüttel","type":"Kreisangehörige_Gemeinde"},"district":{"key":"03360","name":"Uelzen","type":"Landkreis"},"federalState":{"key":"03","name":"Niedersachsen"}},{"name":"Klosterweg","postalCode":"29553","locality":"Bienenbüttel","municipality":{"key":"03360004","name":"Bienenbüttel","type":"Kreisangehörige_Gemeinde"},"district":{"key":"03360","name":"Uelzen","type":"Landkreis"},"federalState":{"key":"03","name":"Niedersachsen"}},{"name":"Klusfeld","postalCode":"29553","locality":"Bienenbüttel","municipality":{"key":"03360004","name":"Bienenbüttel","type":"Kreisangehörige_Gemeinde"},"district":{"key":"03360","name":"Uelzen","type":"Landkreis"},"federalState":{"key":"03","name":"Niedersachsen"}},{"name":"Königsberger Str.","postalCode":"29553","locality":"Bienenbüttel","municipality":{"key":"03360004","name":"Bienenbüttel","type":"Kreisangehörige_Gemeinde"},"district":{"key":"03360","name":"Uelzen","type":"Landkreis"},"federalState":{"key":"03","name":"Niedersachsen"}},{"name":"Kräutergarten","postalCode":"29553","locality":"Bienenbüttel","municipality":{"key":"03360004","name":"Bienenbüttel","type":"Kreisangehörige_Gemeinde"},"district":{"key":"03360","name":"Uelzen","type":"Landkreis"},"federalState":{"key":"03","name":"Niedersachsen"}},{"name":"Kreuzkämpe","postalCode":"29553","locality":"Bienenbüttel","municipality":{"key":"03360004","name":"Bienenbüttel","type":"Kreisangehörige_Gemeinde"},"district":{"key":"03360","name":"Uelzen","type":"Landkreis"},"federalState":{"key":"03","name":"Niedersachsen"}},{"name":"Kurze Str.","postalCode":"29553","locality":"Bienenbüttel","municipality":{"key":"03360004","name":"Bienenbüttel","type":"Kreisangehörige_Gemeinde"},"district":{"key":"03360","name":"Uelzen","type":"Landkreis"},"federalState":{"key":"03","name":"Niedersachsen"}},{"name":"Küsterberg","postalCode":"29553","locality":"Bienenbüttel","municipality":{"key":"03360004","name":"Bienenbüttel","type":"Kreisangehörige_Gemeinde"},"district":{"key":"03360","name":"Uelzen","type":"Landkreis"},"federalState":{"key":"03","name":"Niedersachsen"}},{"name":"Ladestr.","postalCode":"29553","locality":"Bienenbüttel","municipality":{"key":"03360004","name":"Bienenbüttel","type":"Kreisangehörige_Gemeinde"},"district":{"key":"03360","name":"Uelzen","type":"Landkreis"},"federalState":{"key":"03","name":"Niedersachsen"}},{"name":"Lehmweg","postalCode":"29553","locality":"Bienenbüttel","municipality":{"key":"03360004","name":"Bienenbüttel","type":"Kreisangehörige_Gemeinde"},"district":{"key":"03360","name":"Uelzen","type":"Landkreis"},"federalState":{"key":"03","name":"Niedersachsen"}},{"name":"Lerchenweg","postalCode":"29553","locality":"Bienenbüttel","municipality":{"key":"03360004","name":"Bienenbüttel","type":"Kreisangehörige_Gemeinde"},"district":{"key":"03360","name":"Uelzen","type":"Landkreis"},"federalState":{"key":"03","name":"Niedersachsen"}},{"name":"Lindenstr.","postalCode":"29553","locality":"Bienenbüttel","municipality":{"key":"03360004","name":"Bienenbüttel","type":"Kreisangehörige_Gemeinde"},"district":{"key":"03360","name":"Uelzen","type":"Landkreis"},"federalState":{"key":"03","name":"Niedersachsen"}},{"name":"Lönsstr.","postalCode":"29553","locality":"Bienenbüttel","municipality":{"key":"03360004","name":"Bienenbüttel","type":"Kreisangehörige_Gemeinde"},"district":{"key":"03360","name":"Uelzen","type":"Landkreis"},"federalState":{"key":"03","name":"Niedersachsen"}},{"name":"Lührs Koppel","postalCode":"29553","locality":"Bienenbüttel","municipality":{"key":"03360004","name":"Bienenbüttel","type":"Kreisangehörige_Gemeinde"},"district":{"key":"03360","name":"Uelzen","type":"Landkreis"},"federalState":{"key":"03","name":"Niedersachsen"}},{"name":"Lüneburger Str.","postalCode":"29553","locality":"Bienenbüttel","municipality":{"key":"03360004","name":"Bienenbüttel","type":"Kreisangehörige_Gemeinde"},"district":{"key":"03360","name":"Uelzen","type":"Landkreis"},"federalState":{"key":"03","name":"Niedersachsen"}},{"name":"Marktplatz","postalCode":"29553","locality":"Bienenbüttel","municipality":{"key":"03360004","name":"Bienenbüttel","type":"Kreisangehörige_Gemeinde"},"district":{"key":"03360","name":"Uelzen","type":"Landkreis"},"federalState":{"key":"03","name":"Niedersachsen"}},{"name":"Marktstr.","postalCode":"29553","locality":"Bienenbüttel","municipality":{"key":"03360004","name":"Bienenbüttel","type":"Kreisangehörige_Gemeinde"},"district":{"key":"03360","name":"Uelzen","type":"Landkreis"},"federalState":{"key":"03","name":"Niedersachsen"}},{"name":"Meisenweg","postalCode":"29553","locality":"Bienenbüttel","municipality":{"key":"03360004","name":"Bienenbüttel","type":"Kreisangehörige_Gemeinde"},"district":{"key":"03360","name":"Uelzen","type":"Landkreis"},"federalState":{"key":"03","name":"Niedersachsen"}},{"name":"Memeler Str.","postalCode":"29553","locality":"Bienenbüttel","municipality":{"key":"03360004","name":"Bienenbüttel","type":"Kreisangehörige_Gemeinde"},"district":{"key":"03360","name":"Uelzen","type":"Landkreis"},"federalState":{"key":"03","name":"Niedersachsen"}},{"name":"Mistelbachweg","postalCode":"29553","locality":"Bienenbüttel","municipality":{"key":"03360004","name":"Bienenbüttel","type":"Kreisangehörige_Gemeinde"},"district":{"key":"03360","name":"Uelzen","type":"Landkreis"},"federalState":{"key":"03","name":"Niedersachsen"}},{"name":"Moorkoppel","postalCode":"29553","locality":"Bienenbüttel","municipality":{"key":"03360004","name":"Bienenbüttel","type":"Kreisangehörige_Gemeinde"},"district":{"key":"03360","name":"Uelzen","type":"Landkreis"},"federalState":{"key":"03","name":"Niedersachsen"}},{"name":"Moorteichstr.","postalCode":"29553","locality":"Bienenbüttel","municipality":{"key":"03360004","name":"Bienenbüttel","type":"Kreisangehörige_Gemeinde"},"district":{"key":"03360","name":"Uelzen","type":"Landkreis"},"federalState":{"key":"03","name":"Niedersachsen"}},{"name":"Mühlenweg","postalCode":"29553","locality":"Bienenbüttel","municipality":{"key":"03360004","name":"Bienenbüttel","type":"Kreisangehörige_Gemeinde"},"district":{"key":"03360","name":"Uelzen","type":"Landkreis"},"federalState":{"key":"03","name":"Niedersachsen"}},{"name":"Nachtigallenweg","postalCode":"29553","locality":"Bienenbüttel","municipality":{"key":"03360004","name":"Bienenbüttel","type":"Kreisangehörige_Gemeinde"},"district":{"key":"03360","name":"Uelzen","type":"Landkreis"},"federalState":{"key":"03","name":"Niedersachsen"}},{"name":"Neue Siedlung","postalCode":"29553","locality":"Bienenbüttel","municipality":{"key":"03360004","name":"Bienenbüttel","type":"Kreisangehörige_Gemeinde"},"district":{"key":"03360","name":"Uelzen","type":"Landkreis"},"federalState":{"key":"03","name":"Niedersachsen"}},{"name":"Neue Str.","postalCode":"29553","locality":"Bienenbüttel","municipality":{"key":"03360004","name":"Bienenbüttel","type":"Kreisangehörige_Gemeinde"},"district":{"key":"03360","name":"Uelzen","type":"Landkreis"},"federalState":{"key":"03","name":"Niedersachsen"}},{"name":"Neu-Riester-Weg","postalCode":"29553","locality":"Bienenbüttel","municipality":{"key":"03360004","name":"Bienenbüttel","type":"Kreisangehörige_Gemeinde"},"district":{"key":"03360","name":"Uelzen","type":"Landkreis"},"federalState":{"key":"03","name":"Niedersachsen"}},{"name":"Niendorfer Hauptstr.","postalCode":"29553","locality":"Bienenbüttel","municipality":{"key":"03360004","name":"Bienenbüttel","type":"Kreisangehörige_Gemeinde"},"district":{"key":"03360","name":"Uelzen","type":"Landkreis"},"federalState":{"key":"03","name":"Niedersachsen"}},{"name":"Niendorfer Str.","postalCode":"29553","locality":"Bienenbüttel","municipality":{"key":"03360004","name":"Bienenbüttel","type":"Kreisangehörige_Gemeinde"},"district":{"key":"03360","name":"Uelzen","type":"Landkreis"},"federalState":{"key":"03","name":"Niedersachsen"}},{"name":"Oldendorfer Weg","postalCode":"29553","locality":"Bienenbüttel","municipality":{"key":"03360004","name":"Bienenbüttel","type":"Kreisangehörige_Gemeinde"},"district":{"key":"03360","name":"Uelzen","type":"Landkreis"},"federalState":{"key":"03","name":"Niedersachsen"}},{"name":"Ostpreußenweg","postalCode":"29553","locality":"Bienenbüttel","municipality":{"key":"03360004","name":"Bienenbüttel","type":"Kreisangehörige_Gemeinde"},"district":{"key":"03360","name":"Uelzen","type":"Landkreis"},"federalState":{"key":"03","name":"Niedersachsen"}},{"name":"Pastorenkoppel","postalCode":"29553","locality":"Bienenbüttel","municipality":{"key":"03360004","name":"Bienenbüttel","type":"Kreisangehörige_Gemeinde"},"district":{"key":"03360","name":"Uelzen","type":"Landkreis"},"federalState":{"key":"03","name":"Niedersachsen"}},{"name":"Pastor-Kayser-Weg","postalCode":"29553","locality":"Bienenbüttel","municipality":{"key":"03360004","name":"Bienenbüttel","type":"Kreisangehörige_Gemeinde"},"district":{"key":"03360","name":"Uelzen","type":"Landkreis"},"federalState":{"key":"03","name":"Niedersachsen"}},{"name":"Pfefferhof","postalCode":"29553","locality":"Bienenbüttel","municipality":{"key":"03360004","name":"Bienenbüttel","type":"Kreisangehörige_Gemeinde"},"district":{"key":"03360","name":"Uelzen","type":"Landkreis"},"federalState":{"key":"03","name":"Niedersachsen"}},{"name":"Pommernweg","postalCode":"29553","locality":"Bienenbüttel","municipality":{"key":"03360004","name":"Bienenbüttel","type":"Kreisangehörige_Gemeinde"},"district":{"key":"03360","name":"Uelzen","type":"Landkreis"},"federalState":{"key":"03","name":"Niedersachsen"}},{"name":"Poststr.","postalCode":"29553","locality":"Bienenbüttel","municipality":{"key":"03360004","name":"Bienenbüttel","type":"Kreisangehörige_Gemeinde"},"district":{"key":"03360","name":"Uelzen","type":"Landkreis"},"federalState":{"key":"03","name":"Niedersachsen"}},{"name":"Riester Str.","postalCode":"29553","locality":"Bienenbüttel","municipality":{"key":"03360004","name":"Bienenbüttel","type":"Kreisangehörige_Gemeinde"},"district":{"key":"03360","name":"Uelzen","type":"Landkreis"},"federalState":{"key":"03","name":"Niedersachsen"}},{"name":"Ringstr.","postalCode":"29553","locality":"Bienenbüttel","municipality":{"key":"03360004","name":"Bienenbüttel","type":"Kreisangehörige_Gemeinde"},"district":{"key":"03360","name":"Uelzen","type":"Landkreis"},"federalState":{"key":"03","name":"Niedersachsen"}},{"name":"Rockenmühler Str.","postalCode":"29553","locality":"Bienenbüttel","municipality":{"key":"03360004","name":"Bienenbüttel","type":"Kreisangehörige_Gemeinde"},"district":{"key":"03360","name":"Uelzen","type":"Landkreis"},"federalState":{"key":"03","name":"Niedersachsen"}},{"name":"Röpers Heide","postalCode":"29553","locality":"Bienenbüttel","municipality":{"key":"03360004","name":"Bienenbüttel","type":"Kreisangehörige_Gemeinde"},"district":{"key":"03360","name":"Uelzen","type":"Landkreis"},"federalState":{"key":"03","name":"Niedersachsen"}},{"name":"Rosenow-Weg","postalCode":"29553","locality":"Bienenbüttel","municipality":{"key":"03360004","name":"Bienenbüttel","type":"Kreisangehörige_Gemeinde"},"district":{"key":"03360","name":"Uelzen","type":"Landkreis"},"federalState":{"key":"03","name":"Niedersachsen"}},{"name":"Röttekuhlenweg","postalCode":"29553","locality":"Bienenbüttel","municipality":{"key":"03360004","name":"Bienenbüttel","type":"Kreisangehörige_Gemeinde"},"district":{"key":"03360","name":"Uelzen","type":"Landkreis"},"federalState":{"key":"03","name":"Niedersachsen"}},{"name":"Rübenbaum","postalCode":"29553","locality":"Bienenbüttel","municipality":{"key":"03360004","name":"Bienenbüttel","type":"Kreisangehörige_Gemeinde"},"district":{"key":"03360","name":"Uelzen","type":"Landkreis"},"federalState":{"key":"03","name":"Niedersachsen"}},{"name":"Sandberg","postalCode":"29553","locality":"Bienenbüttel","municipality":{"key":"03360004","name":"Bienenbüttel","type":"Kreisangehörige_Gemeinde"},"district":{"key":"03360","name":"Uelzen","type":"Landkreis"},"federalState":{"key":"03","name":"Niedersachsen"}},{"name":"Sandweg","postalCode":"29553","locality":"Bienenbüttel","municipality":{"key":"03360004","name":"Bienenbüttel","type":"Kreisangehörige_Gemeinde"},"district":{"key":"03360","name":"Uelzen","type":"Landkreis"},"federalState":{"key":"03","name":"Niedersachsen"}},{"name":"Schlesierweg","postalCode":"29553","locality":"Bienenbüttel","municipality":{"key":"03360004","name":"Bienenbüttel","type":"Kreisangehörige_Gemeinde"},"district":{"key":"03360","name":"Uelzen","type":"Landkreis"},"federalState":{"key":"03","name":"Niedersachsen"}},{"name":"Schmiedeweg","postalCode":"29553","locality":"Bienenbüttel","municipality":{"key":"03360004","name":"Bienenbüttel","type":"Kreisangehörige_Gemeinde"},"district":{"key":"03360","name":"Uelzen","type":"Landkreis"},"federalState":{"key":"03","name":"Niedersachsen"}},{"name":"Schmiedewinkel","postalCode":"29553","locality":"Bienenbüttel","municipality":{"key":"03360004","name":"Bienenbüttel","type":"Kreisangehörige_Gemeinde"},"district":{"key":"03360","name":"Uelzen","type":"Landkreis"},"federalState":{"key":"03","name":"Niedersachsen"}},{"name":"Schulstr.","postalCode":"29553","locality":"Bienenbüttel","municipality":{"key":"03360004","name":"Bienenbüttel","type":"Kreisangehörige_Gemeinde"},"district":{"key":"03360","name":"Uelzen","type":"Landkreis"},"federalState":{"key":"03","name":"Niedersachsen"}},{"name":"Schützenallee","postalCode":"29553","locality":"Bienenbüttel","municipality":{"key":"03360004","name":"Bienenbüttel","type":"Kreisangehörige_Gemeinde"},"district":{"key":"03360","name":"Uelzen","type":"Landkreis"},"federalState":{"key":"03","name":"Niedersachsen"}},{"name":"Schwalbenberg","postalCode":"29553","locality":"Bienenbüttel","municipality":{"key":"03360004","name":"Bienenbüttel","type":"Kreisangehörige_Gemeinde"},"district":{"key":"03360","name":"Uelzen","type":"Landkreis"},"federalState":{"key":"03","name":"Niedersachsen"}},{"name":"Seyerberg","postalCode":"29553","locality":"Bienenbüttel","municipality":{"key":"03360004","name":"Bienenbüttel","type":"Kreisangehörige_Gemeinde"},"district":{"key":"03360","name":"Uelzen","type":"Landkreis"},"federalState":{"key":"03","name":"Niedersachsen"}},{"name":"Skulpturenpfad","postalCode":"29553","locality":"Bienenbüttel","municipality":{"key":"03360004","name":"Bienenbüttel","type":"Kreisangehörige_Gemeinde"},"district":{"key":"03360","name":"Uelzen","type":"Landkreis"},"federalState":{"key":"03","name":"Niedersachsen"}},{"name":"Solchstorfer Str.","postalCode":"29553","locality":"Bienenbüttel","municipality":{"key":"03360004","name":"Bienenbüttel","type":"Kreisangehörige_Gemeinde"},"district":{"key":"03360","name":"Uelzen","type":"Landkreis"},"federalState":{"key":"03","name":"Niedersachsen"}},{"name":"Stadtberg","postalCode":"29553","locality":"Bienenbüttel","municipality":{"key":"03360004","name":"Bienenbüttel","type":"Kreisangehörige_Gemeinde"},"district":{"key":"03360","name":"Uelzen","type":"Landkreis"},"federalState":{"key":"03","name":"Niedersachsen"}},{"name":"Steddorfer Str.","postalCode":"29553","locality":"Bienenbüttel","municipality":{"key":"03360004","name":"Bienenbüttel","type":"Kreisangehörige_Gemeinde"},"district":{"key":"03360","name":"Uelzen","type":"Landkreis"},"federalState":{"key":"03","name":"Niedersachsen"}},{"name":"Talstr.","postalCode":"29553","locality":"Bienenbüttel","municipality":{"key":"03360004","name":"Bienenbüttel","type":"Kreisangehörige_Gemeinde"},"district":{"key":"03360","name":"Uelzen","type":"Landkreis"},"federalState":{"key":"03","name":"Niedersachsen"}},{"name":"Tannenweg","postalCode":"29553","locality":"Bienenbüttel","municipality":{"key":"03360004","name":"Bienenbüttel","type":"Kreisangehörige_Gemeinde"},"district":{"key":"03360","name":"Uelzen","type":"Landkreis"},"federalState":{"key":"03","name":"Niedersachsen"}},{"name":"Timpenberg","postalCode":"29553","locality":"Bienenbüttel","municipality":{"key":"03360004","name":"Bienenbüttel","type":"Kreisangehörige_Gemeinde"},"district":{"key":"03360","name":"Uelzen","type":"Landkreis"},"federalState":{"key":"03","name":"Niedersachsen"}},{"name":"Tunnelweg","postalCode":"29553","locality":"Bienenbüttel","municipality":{"key":"03360004","name":"Bienenbüttel","type":"Kreisangehörige_Gemeinde"},"district":{"key":"03360","name":"Uelzen","type":"Landkreis"},"federalState":{"key":"03","name":"Niedersachsen"}},{"name":"Twiete","postalCode":"29553","locality":"Bienenbüttel","municipality":{"key":"03360004","name":"Bienenbüttel","type":"Kreisangehörige_Gemeinde"},"district":{"key":"03360","name":"Uelzen","type":"Landkreis"},"federalState":{"key":"03","name":"Niedersachsen"}},{"name":"Uelzener Str.","postalCode":"29553","locality":"Bienenbüttel","municipality":{"key":"03360004","name":"Bienenbüttel","type":"Kreisangehörige_Gemeinde"},"district":{"key":"03360","name":"Uelzen","type":"Landkreis"},"federalState":{"key":"03","name":"Niedersachsen"}},{"name":"Uferstr.","postalCode":"29553","locality":"Bienenbüttel","municipality":{"key":"03360004","name":"Bienenbüttel","type":"Kreisangehörige_Gemeinde"},"district":{"key":"03360","name":"Uelzen","type":"Landkreis"},"federalState":{"key":"03","name":"Niedersachsen"}},{"name":"Uhlandweg","postalCode":"29553","locality":"Bienenbüttel","municipality":{"key":"03360004","name":"Bienenbüttel","type":"Kreisangehörige_Gemeinde"},"district":{"key":"03360","name":"Uelzen","type":"Landkreis"},"federalState":{"key":"03","name":"Niedersachsen"}},{"name":"Varendorfer Str.","postalCode":"29553","locality":"Bienenbüttel","municipality":{"key":"03360004","name":"Bienenbüttel","type":"Kreisangehörige_Gemeinde"},"district":{"key":"03360","name":"Uelzen","type":"Landkreis"},"federalState":{"key":"03","name":"Niedersachsen"}},{"name":"Velger Str.","postalCode":"29553","locality":"Bienenbüttel","municipality":{"key":"03360004","name":"Bienenbüttel","type":"Kreisangehörige_Gemeinde"},"district":{"key":"03360","name":"Uelzen","type":"Landkreis"},"federalState":{"key":"03","name":"Niedersachsen"}},{"name":"Vierenbachsweg","postalCode":"29553","locality":"Bienenbüttel","municipality":{"key":"03360004","name":"Bienenbüttel","type":"Kreisangehörige_Gemeinde"},"district":{"key":"03360","name":"Uelzen","type":"Landkreis"},"federalState":{"key":"03","name":"Niedersachsen"}},{"name":"Waldstr.","postalCode":"29553","locality":"Bienenbüttel","municipality":{"key":"03360004","name":"Bienenbüttel","type":"Kreisangehörige_Gemeinde"},"district":{"key":"03360","name":"Uelzen","type":"Landkreis"},"federalState":{"key":"03","name":"Niedersachsen"}},{"name":"Waschberg","postalCode":"29553","locality":"Bienenbüttel","municipality":{"key":"03360004","name":"Bienenbüttel","type":"Kreisangehörige_Gemeinde"},"district":{"key":"03360","name":"Uelzen","type":"Landkreis"},"federalState":{"key":"03","name":"Niedersachsen"}},{"name":"Weite Welt","postalCode":"29553","locality":"Bienenbüttel","municipality":{"key":"03360004","name":"Bienenbüttel","type":"Kreisangehörige_Gemeinde"},"district":{"key":"03360","name":"Uelzen","type":"Landkreis"},"federalState":{"key":"03","name":"Niedersachsen"}},{"name":"Wellbruchweg","postalCode":"29553","locality":"Bienenbüttel","municipality":{"key":"03360004","name":"Bienenbüttel","type":"Kreisangehörige_Gemeinde"},"district":{"key":"03360","name":"Uelzen","type":"Landkreis"},"federalState":{"key":"03","name":"Niedersachsen"}},{"name":"Wiesenweg","postalCode":"29553","locality":"Bienenbüttel","municipality":{"key":"03360004","name":"Bienenbüttel","type":"Kreisangehörige_Gemeinde"},"district":{"key":"03360","name":"Uelzen","type":"Landkreis"},"federalState":{"key":"03","name":"Niedersachsen"}},{"name":"Wilhelmshöhe","postalCode":"29553","locality":"Bienenbüttel","municipality":{"key":"03360004","name":"Bienenbüttel","type":"Kreisangehörige_Gemeinde"},"district":{"key":"03360","name":"Uelzen","type":"Landkreis"},"federalState":{"key":"03","name":"Niedersachsen"}},{"name":"Wulfstorfer Str.","postalCode":"29553","locality":"Bienenbüttel","municipality":{"key":"03360004","name":"Bienenbüttel","type":"Kreisangehörige_Gemeinde"},"district":{"key":"03360","name":"Uelzen","type":"Landkreis"},"federalState":{"key":"03","name":"Niedersachsen"}},{"name":"Wulfstorfer Weg","postalCode":"29553","locality":"Bienenbüttel","municipality":{"key":"03360004","name":"Bienenbüttel","type":"Kreisangehörige_Gemeinde"},"district":{"key":"03360","name":"Uelzen","type":"Landkreis"},"federalState":{"key":"03","name":"Niedersachsen"}},{"name":"Zu den Querwiesen","postalCode":"29553","locality":"Bienenbüttel","municipality":{"key":"03360004","name":"Bienenbüttel","type":"Kreisangehörige_Gemeinde"},"district":{"key":"03360","name":"Uelzen","type":"Landkreis"},"federalState":{"key":"03","name":"Niedersachsen"}},{"name":"Zum Bachfeld","postalCode":"29553","locality":"Bienenbüttel","municipality":{"key":"03360004","name":"Bienenbüttel","type":"Kreisangehörige_Gemeinde"},"district":{"key":"03360","name":"Uelzen","type":"Landkreis"},"federalState":{"key":"03","name":"Niedersachsen"}},{"name":"Zum Eitzener Bruch","postalCode":"29553","locality":"Bienenbüttel","municipality":{"key":"03360004","name":"Bienenbüttel","type":"Kreisangehörige_Gemeinde"},"district":{"key":"03360","name":"Uelzen","type":"Landkreis"},"federalState":{"key":"03","name":"Niedersachsen"}},{"name":"Zum Holzfeld","postalCode":"29553","locality":"Bienenbüttel","municipality":{"key":"03360004","name":"Bienenbüttel","type":"Kreisangehörige_Gemeinde"},"district":{"key":"03360","name":"Uelzen","type":"Landkreis"},"federalState":{"key":"03","name":"Niedersachsen"}},{"name":"Zum Lietzberg","postalCode":"29553","locality":"Bienenbüttel","municipality":{"key":"03360004","name":"Bienenbüttel","type":"Kreisangehörige_Gemeinde"},"district":{"key":"03360","name":"Uelzen","type":"Landkreis"},"federalState":{"key":"03","name":"Niedersachsen"}},{"name":"Zum Osterberg","postalCode":"29553","locality":"Bienenbüttel","municipality":{"key":"03360004","name":"Bienenbüttel","type":"Kreisangehörige_Gemeinde"},"district":{"key":"03360","name":"Uelzen","type":"Landkreis"},"federalState":{"key":"03","name":"Niedersachsen"}},{"name":"Zum Silberstein","postalCode":"29553","locality":"Bienenbüttel","municipality":{"key":"03360004","name":"Bienenbüttel","type":"Kreisangehörige_Gemeinde"},"district":{"key":"03360","name":"Uelzen","type":"Landkreis"},"federalState":{"key":"03","name":"Niedersachsen"}},{"name":"Zur Breetz","postalCode":"29553","locality":"Bienenbüttel","municipality":{"key":"03360004","name":"Bienenbüttel","type":"Kreisangehörige_Gemeinde"},"district":{"key":"03360","name":"Uelzen","type":"Landkreis"},"federalState":{"key":"03","name":"Niedersachsen"}},{"name":"Zur Lohe","postalCode":"29553","locality":"Bienenbüttel","municipality":{"key":"03360004","name":"Bienenbüttel","type":"Kreisangehörige_Gemeinde"},"district":{"key":"03360","name":"Uelzen","type":"Landkreis"},"federalState":{"key":"03","name":"Niedersachsen"}},{"name":"Zur Wasch","postalCode":"29553","locality":"Bienenbüttel","municipality":{"key":"03360004","name":"Bienenbüttel","type":"Kreisangehörige_Gemeinde"},"district":{"key":"03360","name":"Uelzen","type":"Landkreis"},"federalState":{"key":"03","name":"Niedersachsen"}},]