[{"name":"Alte Str.","postalCode":"66909","locality":"Hüffler","municipality":{"key":"07336047","name":"Hüffler","type":"Kreisangehörige_Gemeinde"},"district":{"key":"07336","name":"Kusel","type":"Landkreis"},"federalState":{"key":"07","name":"Rheinland-Pfalz"}},{"name":"Am Bäumchen","postalCode":"66909","locality":"Hüffler","municipality":{"key":"07336047","name":"Hüffler","type":"Kreisangehörige_Gemeinde"},"district":{"key":"07336","name":"Kusel","type":"Landkreis"},"federalState":{"key":"07","name":"Rheinland-Pfalz"}},{"name":"Am Pfaffengarten","postalCode":"66909","locality":"Hüffler","municipality":{"key":"07336047","name":"Hüffler","type":"Kreisangehörige_Gemeinde"},"district":{"key":"07336","name":"Kusel","type":"Landkreis"},"federalState":{"key":"07","name":"Rheinland-Pfalz"}},{"name":"Am Rindschweiler Berg","postalCode":"66909","locality":"Hüffler","municipality":{"key":"07336047","name":"Hüffler","type":"Kreisangehörige_Gemeinde"},"district":{"key":"07336","name":"Kusel","type":"Landkreis"},"federalState":{"key":"07","name":"Rheinland-Pfalz"}},{"name":"Bergstr.","postalCode":"66909","locality":"Hüffler","municipality":{"key":"07336047","name":"Hüffler","type":"Kreisangehörige_Gemeinde"},"district":{"key":"07336","name":"Kusel","type":"Landkreis"},"federalState":{"key":"07","name":"Rheinland-Pfalz"}},{"name":"Burgstr.","postalCode":"66909","locality":"Hüffler","municipality":{"key":"07336047","name":"Hüffler","type":"Kreisangehörige_Gemeinde"},"district":{"key":"07336","name":"Kusel","type":"Landkreis"},"federalState":{"key":"07","name":"Rheinland-Pfalz"}},{"name":"Christian-Böhmer-Weg","postalCode":"66869","locality":"Kusel","municipality":{"key":"07336055","name":"Kusel, Stadt","type":"Stadt"},"district":{"key":"07336","name":"Kusel","type":"Landkreis"},"federalState":{"key":"07","name":"Rheinland-Pfalz"}},{"name":"Danziger Str.","postalCode":"66869","locality":"Kusel","municipality":{"key":"07336055","name":"Kusel, Stadt","type":"Stadt"},"district":{"key":"07336","name":"Kusel","type":"Landkreis"},"federalState":{"key":"07","name":"Rheinland-Pfalz"}},{"name":"Dr.-Albert-Jung-Str.","postalCode":"66869","locality":"Kusel","municipality":{"key":"07336055","name":"Kusel, Stadt","type":"Stadt"},"district":{"key":"07336","name":"Kusel","type":"Landkreis"},"federalState":{"key":"07","name":"Rheinland-Pfalz"}},{"name":"Eckweg","postalCode":"66869","locality":"Kusel","municipality":{"key":"07336055","name":"Kusel, Stadt","type":"Stadt"},"district":{"key":"07336","name":"Kusel","type":"Landkreis"},"federalState":{"key":"07","name":"Rheinland-Pfalz"}},{"name":"Etschberger Weg","postalCode":"66869","locality":"Kusel","municipality":{"key":"07336055","name":"Kusel, Stadt","type":"Stadt"},"district":{"key":"07336","name":"Kusel","type":"Landkreis"},"federalState":{"key":"07","name":"Rheinland-Pfalz"}},{"name":"Flurstr.","postalCode":"66909","locality":"Hüffler","municipality":{"key":"07336047","name":"Hüffler","type":"Kreisangehörige_Gemeinde"},"district":{"key":"07336","name":"Kusel","type":"Landkreis"},"federalState":{"key":"07","name":"Rheinland-Pfalz"}},{"name":"Friedhofstr.","postalCode":"66909","locality":"Hüffler","municipality":{"key":"07336047","name":"Hüffler","type":"Kreisangehörige_Gemeinde"},"district":{"key":"07336","name":"Kusel","type":"Landkreis"},"federalState":{"key":"07","name":"Rheinland-Pfalz"}},{"name":"Gartenstr.","postalCode":"66869","locality":"Kusel","municipality":{"key":"07336055","name":"Kusel, Stadt","type":"Stadt"},"district":{"key":"07336","name":"Kusel","type":"Landkreis"},"federalState":{"key":"07","name":"Rheinland-Pfalz"}},{"name":"Glanstr.","postalCode":"66869","locality":"Kusel","municipality":{"key":"07336055","name":"Kusel, Stadt","type":"Stadt"},"district":{"key":"07336","name":"Kusel","type":"Landkreis"},"federalState":{"key":"07","name":"Rheinland-Pfalz"}},{"name":"Großenstein","postalCode":"66869","locality":"Kusel","municipality":{"key":"07336055","name":"Kusel, Stadt","type":"Stadt"},"district":{"key":"07336","name":"Kusel","type":"Landkreis"},"federalState":{"key":"07","name":"Rheinland-Pfalz"}},{"name":"Hauptstr.","postalCode":"66909","locality":"Hüffler","municipality":{"key":"07336047","name":"Hüffler","type":"Kreisangehörige_Gemeinde"},"district":{"key":"07336","name":"Kusel","type":"Landkreis"},"federalState":{"key":"07","name":"Rheinland-Pfalz"}},{"name":"Hohlstr.","postalCode":"66909","locality":"Hüffler","municipality":{"key":"07336047","name":"Hüffler","type":"Kreisangehörige_Gemeinde"},"district":{"key":"07336","name":"Kusel","type":"Landkreis"},"federalState":{"key":"07","name":"Rheinland-Pfalz"}},{"name":"Im Brühl","postalCode":"66869","locality":"Kusel","municipality":{"key":"07336055","name":"Kusel, Stadt","type":"Stadt"},"district":{"key":"07336","name":"Kusel","type":"Landkreis"},"federalState":{"key":"07","name":"Rheinland-Pfalz"}},{"name":"Im Flur","postalCode":"66869","locality":"Kusel","municipality":{"key":"07336055","name":"Kusel, Stadt","type":"Stadt"},"district":{"key":"07336","name":"Kusel","type":"Landkreis"},"federalState":{"key":"07","name":"Rheinland-Pfalz"}},{"name":"Im Höfchen","postalCode":"66869","locality":"Kusel","municipality":{"key":"07336055","name":"Kusel, Stadt","type":"Stadt"},"district":{"key":"07336","name":"Kusel","type":"Landkreis"},"federalState":{"key":"07","name":"Rheinland-Pfalz"}},{"name":"Im Tälchen","postalCode":"66869","locality":"Kusel","municipality":{"key":"07336055","name":"Kusel, Stadt","type":"Stadt"},"district":{"key":"07336","name":"Kusel","type":"Landkreis"},"federalState":{"key":"07","name":"Rheinland-Pfalz"}},{"name":"Industriestr.","postalCode":"66869","locality":"Kusel","municipality":{"key":"07336055","name":"Kusel, Stadt","type":"Stadt"},"district":{"key":"07336","name":"Kusel","type":"Landkreis"},"federalState":{"key":"07","name":"Rheinland-Pfalz"}},{"name":"Kirchenstr.","postalCode":"66909","locality":"Hüffler","municipality":{"key":"07336047","name":"Hüffler","type":"Kreisangehörige_Gemeinde"},"district":{"key":"07336","name":"Kusel","type":"Landkreis"},"federalState":{"key":"07","name":"Rheinland-Pfalz"}},{"name":"Konker Str.","postalCode":"66909","locality":"Hüffler","municipality":{"key":"07336047","name":"Hüffler","type":"Kreisangehörige_Gemeinde"},"district":{"key":"07336","name":"Kusel","type":"Landkreis"},"federalState":{"key":"07","name":"Rheinland-Pfalz"}},{"name":"Landschaftsstr.","postalCode":"66869","locality":"Kusel","municipality":{"key":"07336055","name":"Kusel, Stadt","type":"Stadt"},"district":{"key":"07336","name":"Kusel","type":"Landkreis"},"federalState":{"key":"07","name":"Rheinland-Pfalz"}},{"name":"Lehnstaffel","postalCode":"66869","locality":"Kusel","municipality":{"key":"07336055","name":"Kusel, Stadt","type":"Stadt"},"district":{"key":"07336","name":"Kusel","type":"Landkreis"},"federalState":{"key":"07","name":"Rheinland-Pfalz"}},{"name":"Lehnstr.","postalCode":"66869","locality":"Kusel","municipality":{"key":"07336055","name":"Kusel, Stadt","type":"Stadt"},"district":{"key":"07336","name":"Kusel","type":"Landkreis"},"federalState":{"key":"07","name":"Rheinland-Pfalz"}},{"name":"Luitpoldstr.","postalCode":"66869","locality":"Kusel","municipality":{"key":"07336055","name":"Kusel, Stadt","type":"Stadt"},"district":{"key":"07336","name":"Kusel","type":"Landkreis"},"federalState":{"key":"07","name":"Rheinland-Pfalz"}},{"name":"Mauerstr.","postalCode":"66909","locality":"Hüffler","municipality":{"key":"07336047","name":"Hüffler","type":"Kreisangehörige_Gemeinde"},"district":{"key":"07336","name":"Kusel","type":"Landkreis"},"federalState":{"key":"07","name":"Rheinland-Pfalz"}},{"name":"Niederhoferstr.","postalCode":"66869","locality":"Kusel","municipality":{"key":"07336055","name":"Kusel, Stadt","type":"Stadt"},"district":{"key":"07336","name":"Kusel","type":"Landkreis"},"federalState":{"key":"07","name":"Rheinland-Pfalz"}},{"name":"Oberer Holler","postalCode":"66869","locality":"Kusel","municipality":{"key":"07336055","name":"Kusel, Stadt","type":"Stadt"},"district":{"key":"07336","name":"Kusel","type":"Landkreis"},"federalState":{"key":"07","name":"Rheinland-Pfalz"}},{"name":"Park Toucy","postalCode":"66869","locality":"Kusel","municipality":{"key":"07336055","name":"Kusel, Stadt","type":"Stadt"},"district":{"key":"07336","name":"Kusel","type":"Landkreis"},"federalState":{"key":"07","name":"Rheinland-Pfalz"}},{"name":"Paul-Münch-Str.","postalCode":"66869","locality":"Kusel","municipality":{"key":"07336055","name":"Kusel, Stadt","type":"Stadt"},"district":{"key":"07336","name":"Kusel","type":"Landkreis"},"federalState":{"key":"07","name":"Rheinland-Pfalz"}},{"name":"Raiffeisenplatz","postalCode":"66869","locality":"Kusel","municipality":{"key":"07336055","name":"Kusel, Stadt","type":"Stadt"},"district":{"key":"07336","name":"Kusel","type":"Landkreis"},"federalState":{"key":"07","name":"Rheinland-Pfalz"}},{"name":"Reiheichen","postalCode":"66869","locality":"Kusel","municipality":{"key":"07336055","name":"Kusel, Stadt","type":"Stadt"},"district":{"key":"07336","name":"Kusel","type":"Landkreis"},"federalState":{"key":"07","name":"Rheinland-Pfalz"}},{"name":"Remigiusbergstr.","postalCode":"66869","locality":"Kusel","municipality":{"key":"07336055","name":"Kusel, Stadt","type":"Stadt"},"district":{"key":"07336","name":"Kusel","type":"Landkreis"},"federalState":{"key":"07","name":"Rheinland-Pfalz"}},{"name":"Ringstr.","postalCode":"66869","locality":"Kusel","municipality":{"key":"07336055","name":"Kusel, Stadt","type":"Stadt"},"district":{"key":"07336","name":"Kusel","type":"Landkreis"},"federalState":{"key":"07","name":"Rheinland-Pfalz"}},{"name":"Röbelweg","postalCode":"66869","locality":"Kusel","municipality":{"key":"07336055","name":"Kusel, Stadt","type":"Stadt"},"district":{"key":"07336","name":"Kusel","type":"Landkreis"},"federalState":{"key":"07","name":"Rheinland-Pfalz"}},{"name":"Römerweg","postalCode":"66869","locality":"Kusel","municipality":{"key":"07336055","name":"Kusel, Stadt","type":"Stadt"},"district":{"key":"07336","name":"Kusel","type":"Landkreis"},"federalState":{"key":"07","name":"Rheinland-Pfalz"}},{"name":"Rotenturmweg","postalCode":"66869","locality":"Kusel","municipality":{"key":"07336055","name":"Kusel, Stadt","type":"Stadt"},"district":{"key":"07336","name":"Kusel","type":"Landkreis"},"federalState":{"key":"07","name":"Rheinland-Pfalz"}},{"name":"Schulstr.","postalCode":"66909","locality":"Hüffler","municipality":{"key":"07336047","name":"Hüffler","type":"Kreisangehörige_Gemeinde"},"district":{"key":"07336","name":"Kusel","type":"Landkreis"},"federalState":{"key":"07","name":"Rheinland-Pfalz"}},{"name":"Triebstr.","postalCode":"66869","locality":"Kusel","municipality":{"key":"07336055","name":"Kusel, Stadt","type":"Stadt"},"district":{"key":"07336","name":"Kusel","type":"Landkreis"},"federalState":{"key":"07","name":"Rheinland-Pfalz"}},{"name":"Trierer Str.","postalCode":"66869","locality":"Kusel","municipality":{"key":"07336055","name":"Kusel, Stadt","type":"Stadt"},"district":{"key":"07336","name":"Kusel","type":"Landkreis"},"federalState":{"key":"07","name":"Rheinland-Pfalz"}},{"name":"Tuchrahmstr.","postalCode":"66869","locality":"Kusel","municipality":{"key":"07336055","name":"Kusel, Stadt","type":"Stadt"},"district":{"key":"07336","name":"Kusel","type":"Landkreis"},"federalState":{"key":"07","name":"Rheinland-Pfalz"}},{"name":"Tuchrahmtreppchen","postalCode":"66869","locality":"Kusel","municipality":{"key":"07336055","name":"Kusel, Stadt","type":"Stadt"},"district":{"key":"07336","name":"Kusel","type":"Landkreis"},"federalState":{"key":"07","name":"Rheinland-Pfalz"}},{"name":"Unterm Feist","postalCode":"66869","locality":"Kusel","municipality":{"key":"07336055","name":"Kusel, Stadt","type":"Stadt"},"district":{"key":"07336","name":"Kusel","type":"Landkreis"},"federalState":{"key":"07","name":"Rheinland-Pfalz"}},{"name":"Vogelsang","postalCode":"66869","locality":"Kusel","municipality":{"key":"07336055","name":"Kusel, Stadt","type":"Stadt"},"district":{"key":"07336","name":"Kusel","type":"Landkreis"},"federalState":{"key":"07","name":"Rheinland-Pfalz"}},{"name":"Walkmühlstr.","postalCode":"66869","locality":"Kusel","municipality":{"key":"07336055","name":"Kusel, Stadt","type":"Stadt"},"district":{"key":"07336","name":"Kusel","type":"Landkreis"},"federalState":{"key":"07","name":"Rheinland-Pfalz"}},{"name":"Weibergraben","postalCode":"66869","locality":"Kusel","municipality":{"key":"07336055","name":"Kusel, Stadt","type":"Stadt"},"district":{"key":"07336","name":"Kusel","type":"Landkreis"},"federalState":{"key":"07","name":"Rheinland-Pfalz"}},{"name":"Weiherhäuschen","postalCode":"66869","locality":"Kusel","municipality":{"key":"07336055","name":"Kusel, Stadt","type":"Stadt"},"district":{"key":"07336","name":"Kusel","type":"Landkreis"},"federalState":{"key":"07","name":"Rheinland-Pfalz"}},{"name":"Weiherplatz","postalCode":"66869","locality":"Kusel","municipality":{"key":"07336055","name":"Kusel, Stadt","type":"Stadt"},"district":{"key":"07336","name":"Kusel","type":"Landkreis"},"federalState":{"key":"07","name":"Rheinland-Pfalz"}},{"name":"Wingertstr.","postalCode":"66869","locality":"Kusel","municipality":{"key":"07336055","name":"Kusel, Stadt","type":"Stadt"},"district":{"key":"07336","name":"Kusel","type":"Landkreis"},"federalState":{"key":"07","name":"Rheinland-Pfalz"}},{"name":"Zur Langwiese","postalCode":"66909","locality":"Hüffler","municipality":{"key":"07336047","name":"Hüffler","type":"Kreisangehörige_Gemeinde"},"district":{"key":"07336","name":"Kusel","type":"Landkreis"},"federalState":{"key":"07","name":"Rheinland-Pfalz"}},]