[{"name":"72-Stunden-Barfußpark","postalCode":"77966","locality":"Kappel-Grafenhausen","municipality":{"key":"08317152","name":"Kappel-Grafenhausen","type":"Kreisangehörige_Gemeinde"},"district":{"key":"08317","name":"Ortenaukreis","type":"Landkreis"},"federalState":{"key":"08","name":"Baden-Württemberg"}},{"name":"Adlergasse","postalCode":"77876","locality":"Kappelrodeck","municipality":{"key":"08317056","name":"Kappelrodeck","type":"Kreisangehörige_Gemeinde"},"district":{"key":"08317","name":"Ortenaukreis","type":"Landkreis"},"federalState":{"key":"08","name":"Baden-Württemberg"}},{"name":"Adolf-Pohlmann-Str.","postalCode":"24376","locality":"Kappeln","municipality":{"key":"01059045","name":"Kappeln, Stadt","type":"Stadt"},"district":{"key":"01059","name":"Schleswig-Flensburg","type":"Kreis"},"federalState":{"key":"01","name":"Schleswig-Holstein"}},{"name":"Ahornpfad","postalCode":"37284","locality":"Waldkappel","municipality":{"key":"06636012","name":"Waldkappel, Stadt","type":"Stadt"},"district":{"key":"06636","name":"Werra-Meißner-Kreis","type":"Landkreis"},"federalState":{"key":"06","name":"Hessen"}},{"name":"Ahornweg","postalCode":"49492","locality":"Westerkappeln","municipality":{"key":"05566092","name":"Westerkappeln","type":"Kreisangehörige_Gemeinde"},"district":{"key":"05566","name":"Steinfurt","type":"Kreis"},"federalState":{"key":"05","name":"Nordrhein-Westfalen"}},{"name":"Albatrosweg","postalCode":"24376","locality":"Kappeln","municipality":{"key":"01059045","name":"Kappeln, Stadt","type":"Stadt"},"district":{"key":"01059","name":"Schleswig-Flensburg","type":"Kreis"},"federalState":{"key":"01","name":"Schleswig-Holstein"}},{"name":"Albert-Köbele-Str.","postalCode":"77966","locality":"Kappel-Grafenhausen","municipality":{"key":"08317152","name":"Kappel-Grafenhausen","type":"Kreisangehörige_Gemeinde"},"district":{"key":"08317","name":"Ortenaukreis","type":"Landkreis"},"federalState":{"key":"08","name":"Baden-Württemberg"}},{"name":"Allmendstr.","postalCode":"77966","locality":"Kappel-Grafenhausen","municipality":{"key":"08317152","name":"Kappel-Grafenhausen","type":"Kreisangehörige_Gemeinde"},"district":{"key":"08317","name":"Ortenaukreis","type":"Landkreis"},"federalState":{"key":"08","name":"Baden-Württemberg"}},{"name":"Allmendwaldweg","postalCode":"77876","locality":"Kappelrodeck","municipality":{"key":"08317056","name":"Kappelrodeck","type":"Kreisangehörige_Gemeinde"},"district":{"key":"08317","name":"Ortenaukreis","type":"Landkreis"},"federalState":{"key":"08","name":"Baden-Württemberg"}},{"name":"Alm","postalCode":"77876","locality":"Kappelrodeck","municipality":{"key":"08317056","name":"Kappelrodeck","type":"Kreisangehörige_Gemeinde"},"district":{"key":"08317","name":"Ortenaukreis","type":"Landkreis"},"federalState":{"key":"08","name":"Baden-Württemberg"}},{"name":"Alte Poststr.","postalCode":"49492","locality":"Westerkappeln","municipality":{"key":"05566092","name":"Westerkappeln","type":"Kreisangehörige_Gemeinde"},"district":{"key":"05566","name":"Steinfurt","type":"Kreis"},"federalState":{"key":"05","name":"Nordrhein-Westfalen"}},{"name":"Alter Kirchhof","postalCode":"24376","locality":"Kappeln","municipality":{"key":"01059045","name":"Kappeln, Stadt","type":"Stadt"},"district":{"key":"01059","name":"Schleswig-Flensburg","type":"Kreis"},"federalState":{"key":"01","name":"Schleswig-Holstein"}},{"name":"Alter Schulweg","postalCode":"24376","locality":"Kappeln","municipality":{"key":"01059045","name":"Kappeln, Stadt","type":"Stadt"},"district":{"key":"01059","name":"Schleswig-Flensburg","type":"Kreis"},"federalState":{"key":"01","name":"Schleswig-Holstein"}},{"name":"Alter Schulweg","postalCode":"49492","locality":"Westerkappeln","municipality":{"key":"05566092","name":"Westerkappeln","type":"Kreisangehörige_Gemeinde"},"district":{"key":"05566","name":"Steinfurt","type":"Kreis"},"federalState":{"key":"05","name":"Nordrhein-Westfalen"}},{"name":"Alter Zimmerplatz","postalCode":"24376","locality":"Kappeln","municipality":{"key":"01059045","name":"Kappeln, Stadt","type":"Stadt"},"district":{"key":"01059","name":"Schleswig-Flensburg","type":"Kreis"},"federalState":{"key":"01","name":"Schleswig-Holstein"}},{"name":"Alte Streitbergstr.","postalCode":"77955","locality":"Kappel-Grafenhausen","municipality":{"key":"08317152","name":"Kappel-Grafenhausen","type":"Kreisangehörige_Gemeinde"},"district":{"key":"08317","name":"Ortenaukreis","type":"Landkreis"},"federalState":{"key":"08","name":"Baden-Württemberg"}},{"name":"Am Bach","postalCode":"77876","locality":"Kappelrodeck","municipality":{"key":"08317056","name":"Kappelrodeck","type":"Kreisangehörige_Gemeinde"},"district":{"key":"08317","name":"Ortenaukreis","type":"Landkreis"},"federalState":{"key":"08","name":"Baden-Württemberg"}},{"name":"Am Bahnhof","postalCode":"37284","locality":"Waldkappel","municipality":{"key":"06636012","name":"Waldkappel, Stadt","type":"Stadt"},"district":{"key":"06636","name":"Werra-Meißner-Kreis","type":"Landkreis"},"federalState":{"key":"06","name":"Hessen"}},{"name":"Am Berg","postalCode":"24376","locality":"Kappeln","municipality":{"key":"01059045","name":"Kappeln, Stadt","type":"Stadt"},"district":{"key":"01059","name":"Schleswig-Flensburg","type":"Kreis"},"federalState":{"key":"01","name":"Schleswig-Holstein"}},{"name":"Am Buschengässle","postalCode":"77966","locality":"Kappel-Grafenhausen","municipality":{"key":"08317152","name":"Kappel-Grafenhausen","type":"Kreisangehörige_Gemeinde"},"district":{"key":"08317","name":"Ortenaukreis","type":"Landkreis"},"federalState":{"key":"08","name":"Baden-Württemberg"}},{"name":"Am Dölhof","postalCode":"49492","locality":"Westerkappeln","municipality":{"key":"05566092","name":"Westerkappeln","type":"Kreisangehörige_Gemeinde"},"district":{"key":"05566","name":"Steinfurt","type":"Kreis"},"federalState":{"key":"05","name":"Nordrhein-Westfalen"}},{"name":"Am Ehrenmal","postalCode":"24376","locality":"Kappeln","municipality":{"key":"01059045","name":"Kappeln, Stadt","type":"Stadt"},"district":{"key":"01059","name":"Schleswig-Flensburg","type":"Kreis"},"federalState":{"key":"01","name":"Schleswig-Holstein"}},{"name":"Am Freistuhl","postalCode":"49492","locality":"Westerkappeln","municipality":{"key":"05566092","name":"Westerkappeln","type":"Kreisangehörige_Gemeinde"},"district":{"key":"05566","name":"Steinfurt","type":"Kreis"},"federalState":{"key":"05","name":"Nordrhein-Westfalen"}},{"name":"Am Graben","postalCode":"37284","locality":"Waldkappel","municipality":{"key":"06636012","name":"Waldkappel, Stadt","type":"Stadt"},"district":{"key":"06636","name":"Werra-Meißner-Kreis","type":"Landkreis"},"federalState":{"key":"06","name":"Hessen"}},{"name":"Am Hafen","postalCode":"24376","locality":"Kappeln","municipality":{"key":"01059045","name":"Kappeln, Stadt","type":"Stadt"},"district":{"key":"01059","name":"Schleswig-Flensburg","type":"Kreis"},"federalState":{"key":"01","name":"Schleswig-Holstein"}},{"name":"Am Hang","postalCode":"49492","locality":"Westerkappeln","municipality":{"key":"05566092","name":"Westerkappeln","type":"Kreisangehörige_Gemeinde"},"district":{"key":"05566","name":"Steinfurt","type":"Kreis"},"federalState":{"key":"05","name":"Nordrhein-Westfalen"}},{"name":"Am Hassel","postalCode":"37284","locality":"Waldkappel","municipality":{"key":"06636012","name":"Waldkappel, Stadt","type":"Stadt"},"district":{"key":"06636","name":"Werra-Meißner-Kreis","type":"Landkreis"},"federalState":{"key":"06","name":"Hessen"}},{"name":"Am Höhenweg","postalCode":"37284","locality":"Waldkappel","municipality":{"key":"06636012","name":"Waldkappel, Stadt","type":"Stadt"},"district":{"key":"06636","name":"Werra-Meißner-Kreis","type":"Landkreis"},"federalState":{"key":"06","name":"Hessen"}},{"name":"Am Honigberg","postalCode":"37284","locality":"Waldkappel","municipality":{"key":"06636012","name":"Waldkappel, Stadt","type":"Stadt"},"district":{"key":"06636","name":"Werra-Meißner-Kreis","type":"Landkreis"},"federalState":{"key":"06","name":"Hessen"}},{"name":"Am Kamp","postalCode":"49492","locality":"Westerkappeln","municipality":{"key":"05566092","name":"Westerkappeln","type":"Kreisangehörige_Gemeinde"},"district":{"key":"05566","name":"Steinfurt","type":"Kreis"},"federalState":{"key":"05","name":"Nordrhein-Westfalen"}},{"name":"Am Kanal","postalCode":"77966","locality":"Kappel-Grafenhausen","municipality":{"key":"08317152","name":"Kappel-Grafenhausen","type":"Kreisangehörige_Gemeinde"},"district":{"key":"08317","name":"Ortenaukreis","type":"Landkreis"},"federalState":{"key":"08","name":"Baden-Württemberg"}},{"name":"Am Kapellenweg","postalCode":"49492","locality":"Westerkappeln","municipality":{"key":"05566092","name":"Westerkappeln","type":"Kreisangehörige_Gemeinde"},"district":{"key":"05566","name":"Steinfurt","type":"Kreis"},"federalState":{"key":"05","name":"Nordrhein-Westfalen"}},{"name":"Am Kirchplatz","postalCode":"37284","locality":"Waldkappel","municipality":{"key":"06636012","name":"Waldkappel, Stadt","type":"Stadt"},"district":{"key":"06636","name":"Werra-Meißner-Kreis","type":"Landkreis"},"federalState":{"key":"06","name":"Hessen"}},{"name":"Am Kirchplatz","postalCode":"77876","locality":"Kappelrodeck","municipality":{"key":"08317056","name":"Kappelrodeck","type":"Kreisangehörige_Gemeinde"},"district":{"key":"08317","name":"Ortenaukreis","type":"Landkreis"},"federalState":{"key":"08","name":"Baden-Württemberg"}},{"name":"Am Klee","postalCode":"49492","locality":"Westerkappeln","municipality":{"key":"05566092","name":"Westerkappeln","type":"Kreisangehörige_Gemeinde"},"district":{"key":"05566","name":"Steinfurt","type":"Kreis"},"federalState":{"key":"05","name":"Nordrhein-Westfalen"}},{"name":"Am Knick","postalCode":"24376","locality":"Kappeln","municipality":{"key":"01059045","name":"Kappeln, Stadt","type":"Stadt"},"district":{"key":"01059","name":"Schleswig-Flensburg","type":"Kreis"},"federalState":{"key":"01","name":"Schleswig-Holstein"}},{"name":"Am Königsteich","postalCode":"49492","locality":"Westerkappeln","municipality":{"key":"05566092","name":"Westerkappeln","type":"Kreisangehörige_Gemeinde"},"district":{"key":"05566","name":"Steinfurt","type":"Kreis"},"federalState":{"key":"05","name":"Nordrhein-Westfalen"}},{"name":"Am Langen Graben","postalCode":"37284","locality":"Waldkappel","municipality":{"key":"06636012","name":"Waldkappel, Stadt","type":"Stadt"},"district":{"key":"06636","name":"Werra-Meißner-Kreis","type":"Landkreis"},"federalState":{"key":"06","name":"Hessen"}},{"name":"Am Mantelsrain","postalCode":"37284","locality":"Waldkappel","municipality":{"key":"06636012","name":"Waldkappel, Stadt","type":"Stadt"},"district":{"key":"06636","name":"Werra-Meißner-Kreis","type":"Landkreis"},"federalState":{"key":"06","name":"Hessen"}},{"name":"Am Mühlbach","postalCode":"37284","locality":"Waldkappel","municipality":{"key":"06636012","name":"Waldkappel, Stadt","type":"Stadt"},"district":{"key":"06636","name":"Werra-Meißner-Kreis","type":"Landkreis"},"federalState":{"key":"06","name":"Hessen"}},{"name":"Am Raingarten","postalCode":"37284","locality":"Waldkappel","municipality":{"key":"06636012","name":"Waldkappel, Stadt","type":"Stadt"},"district":{"key":"06636","name":"Werra-Meißner-Kreis","type":"Landkreis"},"federalState":{"key":"06","name":"Hessen"}},{"name":"Am Richtergraben","postalCode":"77966","locality":"Kappel-Grafenhausen","municipality":{"key":"08317152","name":"Kappel-Grafenhausen","type":"Kreisangehörige_Gemeinde"},"district":{"key":"08317","name":"Ortenaukreis","type":"Landkreis"},"federalState":{"key":"08","name":"Baden-Württemberg"}},{"name":"Am Roßteich","postalCode":"37284","locality":"Waldkappel","municipality":{"key":"06636012","name":"Waldkappel, Stadt","type":"Stadt"},"district":{"key":"06636","name":"Werra-Meißner-Kreis","type":"Landkreis"},"federalState":{"key":"06","name":"Hessen"}},{"name":"Am Schleiwinkel","postalCode":"24376","locality":"Kappeln","municipality":{"key":"01059045","name":"Kappeln, Stadt","type":"Stadt"},"district":{"key":"01059","name":"Schleswig-Flensburg","type":"Kreis"},"federalState":{"key":"01","name":"Schleswig-Holstein"}},{"name":"Am Schützenweg","postalCode":"49492","locality":"Westerkappeln","municipality":{"key":"05566092","name":"Westerkappeln","type":"Kreisangehörige_Gemeinde"},"district":{"key":"05566","name":"Steinfurt","type":"Kreis"},"federalState":{"key":"05","name":"Nordrhein-Westfalen"}},{"name":"Am Schwimmbad","postalCode":"77876","locality":"Kappelrodeck","municipality":{"key":"08317056","name":"Kappelrodeck","type":"Kreisangehörige_Gemeinde"},"district":{"key":"08317","name":"Ortenaukreis","type":"Landkreis"},"federalState":{"key":"08","name":"Baden-Württemberg"}},{"name":"Amselweg","postalCode":"24376","locality":"Kappeln","municipality":{"key":"01059045","name":"Kappeln, Stadt","type":"Stadt"},"district":{"key":"01059","name":"Schleswig-Flensburg","type":"Kreis"},"federalState":{"key":"01","name":"Schleswig-Holstein"}},{"name":"Amselweg","postalCode":"37284","locality":"Waldkappel","municipality":{"key":"06636012","name":"Waldkappel, Stadt","type":"Stadt"},"district":{"key":"06636","name":"Werra-Meißner-Kreis","type":"Landkreis"},"federalState":{"key":"06","name":"Hessen"}},{"name":"Amselweg","postalCode":"49492","locality":"Westerkappeln","municipality":{"key":"05566092","name":"Westerkappeln","type":"Kreisangehörige_Gemeinde"},"district":{"key":"05566","name":"Steinfurt","type":"Kreis"},"federalState":{"key":"05","name":"Nordrhein-Westfalen"}},{"name":"Amselweg","postalCode":"77876","locality":"Kappelrodeck","municipality":{"key":"08317056","name":"Kappelrodeck","type":"Kreisangehörige_Gemeinde"},"district":{"key":"08317","name":"Ortenaukreis","type":"Landkreis"},"federalState":{"key":"08","name":"Baden-Württemberg"}},{"name":"Am Sengelbach","postalCode":"37284","locality":"Waldkappel","municipality":{"key":"06636012","name":"Waldkappel, Stadt","type":"Stadt"},"district":{"key":"06636","name":"Werra-Meißner-Kreis","type":"Landkreis"},"federalState":{"key":"06","name":"Hessen"}},{"name":"Bachgässle","postalCode":"77966","locality":"Kappel-Grafenhausen","municipality":{"key":"08317152","name":"Kappel-Grafenhausen","type":"Kreisangehörige_Gemeinde"},"district":{"key":"08317","name":"Ortenaukreis","type":"Landkreis"},"federalState":{"key":"08","name":"Baden-Württemberg"}},{"name":"Bahnhofstr.","postalCode":"37284","locality":"Waldkappel","municipality":{"key":"06636012","name":"Waldkappel, Stadt","type":"Stadt"},"district":{"key":"06636","name":"Werra-Meißner-Kreis","type":"Landkreis"},"federalState":{"key":"06","name":"Hessen"}},{"name":"Bahnhofstr.","postalCode":"49492","locality":"Westerkappeln","municipality":{"key":"05566092","name":"Westerkappeln","type":"Kreisangehörige_Gemeinde"},"district":{"key":"05566","name":"Steinfurt","type":"Kreis"},"federalState":{"key":"05","name":"Nordrhein-Westfalen"}},{"name":"Bahnhofsweg","postalCode":"24376","locality":"Kappeln","municipality":{"key":"01059045","name":"Kappeln, Stadt","type":"Stadt"},"district":{"key":"01059","name":"Schleswig-Flensburg","type":"Kreis"},"federalState":{"key":"01","name":"Schleswig-Holstein"}},{"name":"Bahnhofsweg","postalCode":"37284","locality":"Waldkappel","municipality":{"key":"06636012","name":"Waldkappel, Stadt","type":"Stadt"},"district":{"key":"06636","name":"Werra-Meißner-Kreis","type":"Landkreis"},"federalState":{"key":"06","name":"Hessen"}},{"name":"Barbarastr.","postalCode":"24376","locality":"Kappeln","municipality":{"key":"01059045","name":"Kappeln, Stadt","type":"Stadt"},"district":{"key":"01059","name":"Schleswig-Flensburg","type":"Kreis"},"federalState":{"key":"01","name":"Schleswig-Holstein"}},{"name":"Barbarossaweg","postalCode":"37284","locality":"Waldkappel","municipality":{"key":"06636012","name":"Waldkappel, Stadt","type":"Stadt"},"district":{"key":"06636","name":"Werra-Meißner-Kreis","type":"Landkreis"},"federalState":{"key":"06","name":"Hessen"}},{"name":"Barbarossa-Weg","postalCode":"37284","locality":"Waldkappel","municipality":{"key":"06636012","name":"Waldkappel, Stadt","type":"Stadt"},"district":{"key":"06636","name":"Werra-Meißner-Kreis","type":"Landkreis"},"federalState":{"key":"06","name":"Hessen"}},{"name":"Barth-Weg","postalCode":"49492","locality":"Westerkappeln","municipality":{"key":"05566092","name":"Westerkappeln","type":"Kreisangehörige_Gemeinde"},"district":{"key":"05566","name":"Steinfurt","type":"Kreis"},"federalState":{"key":"05","name":"Nordrhein-Westfalen"}},{"name":"Bathmener Str.","postalCode":"49492","locality":"Westerkappeln","municipality":{"key":"05566092","name":"Westerkappeln","type":"Kreisangehörige_Gemeinde"},"district":{"key":"05566","name":"Steinfurt","type":"Kreis"},"federalState":{"key":"05","name":"Nordrhein-Westfalen"}},{"name":"Bayernweg","postalCode":"37284","locality":"Waldkappel","municipality":{"key":"06636012","name":"Waldkappel, Stadt","type":"Stadt"},"district":{"key":"06636","name":"Werra-Meißner-Kreis","type":"Landkreis"},"federalState":{"key":"06","name":"Hessen"}},{"name":"Behringstr.","postalCode":"37284","locality":"Waldkappel","municipality":{"key":"06636012","name":"Waldkappel, Stadt","type":"Stadt"},"district":{"key":"06636","name":"Werra-Meißner-Kreis","type":"Landkreis"},"federalState":{"key":"06","name":"Hessen"}},{"name":"Beim Steinkauz","postalCode":"49492","locality":"Westerkappeln","municipality":{"key":"05566092","name":"Westerkappeln","type":"Kreisangehörige_Gemeinde"},"district":{"key":"05566","name":"Steinfurt","type":"Kreis"},"federalState":{"key":"05","name":"Nordrhein-Westfalen"}},{"name":"Belzackerweg","postalCode":"77876","locality":"Kappelrodeck","municipality":{"key":"08317056","name":"Kappelrodeck","type":"Kreisangehörige_Gemeinde"},"district":{"key":"08317","name":"Ortenaukreis","type":"Landkreis"},"federalState":{"key":"08","name":"Baden-Württemberg"}},{"name":"Ben-Chorin-Weg","postalCode":"49492","locality":"Westerkappeln","municipality":{"key":"05566092","name":"Westerkappeln","type":"Kreisangehörige_Gemeinde"},"district":{"key":"05566","name":"Steinfurt","type":"Kreis"},"federalState":{"key":"05","name":"Nordrhein-Westfalen"}},{"name":"Berbergweg","postalCode":"37284","locality":"Waldkappel","municipality":{"key":"06636012","name":"Waldkappel, Stadt","type":"Stadt"},"district":{"key":"06636","name":"Werra-Meißner-Kreis","type":"Landkreis"},"federalState":{"key":"06","name":"Hessen"}},{"name":"Berggasse","postalCode":"77876","locality":"Kappelrodeck","municipality":{"key":"08317056","name":"Kappelrodeck","type":"Kreisangehörige_Gemeinde"},"district":{"key":"08317","name":"Ortenaukreis","type":"Landkreis"},"federalState":{"key":"08","name":"Baden-Württemberg"}},{"name":"Bergstr.","postalCode":"37284","locality":"Waldkappel","municipality":{"key":"06636012","name":"Waldkappel, Stadt","type":"Stadt"},"district":{"key":"06636","name":"Werra-Meißner-Kreis","type":"Landkreis"},"federalState":{"key":"06","name":"Hessen"}},{"name":"Bergstr.","postalCode":"49492","locality":"Westerkappeln","municipality":{"key":"05566092","name":"Westerkappeln","type":"Kreisangehörige_Gemeinde"},"district":{"key":"05566","name":"Steinfurt","type":"Kreis"},"federalState":{"key":"05","name":"Nordrhein-Westfalen"}},{"name":"Berliner Str.","postalCode":"37284","locality":"Waldkappel","municipality":{"key":"06636012","name":"Waldkappel, Stadt","type":"Stadt"},"district":{"key":"06636","name":"Werra-Meißner-Kreis","type":"Landkreis"},"federalState":{"key":"06","name":"Hessen"}},{"name":"Bernard-Liening-Str.","postalCode":"24376","locality":"Kappeln","municipality":{"key":"01059045","name":"Kappeln, Stadt","type":"Stadt"},"district":{"key":"01059","name":"Schleswig-Flensburg","type":"Kreis"},"federalState":{"key":"01","name":"Schleswig-Holstein"}},{"name":"Bernhardshöf","postalCode":"77876","locality":"Kappelrodeck","municipality":{"key":"08317056","name":"Kappelrodeck","type":"Kreisangehörige_Gemeinde"},"district":{"key":"08317","name":"Ortenaukreis","type":"Landkreis"},"federalState":{"key":"08","name":"Baden-Württemberg"}},{"name":"Besenstiel","postalCode":"77876","locality":"Kappelrodeck","municipality":{"key":"08317056","name":"Kappelrodeck","type":"Kreisangehörige_Gemeinde"},"district":{"key":"08317","name":"Ortenaukreis","type":"Landkreis"},"federalState":{"key":"08","name":"Baden-Württemberg"}},{"name":"Bierkellerweg","postalCode":"77876","locality":"Kappelrodeck","municipality":{"key":"08317056","name":"Kappelrodeck","type":"Kreisangehörige_Gemeinde"},"district":{"key":"08317","name":"Ortenaukreis","type":"Landkreis"},"federalState":{"key":"08","name":"Baden-Württemberg"}},{"name":"Bilsteinstr.","postalCode":"37284","locality":"Waldkappel","municipality":{"key":"06636012","name":"Waldkappel, Stadt","type":"Stadt"},"district":{"key":"06636","name":"Werra-Meißner-Kreis","type":"Landkreis"},"federalState":{"key":"06","name":"Hessen"}},{"name":"Bingenkopfweg","postalCode":"77966","locality":"Kappel-Grafenhausen","municipality":{"key":"08317152","name":"Kappel-Grafenhausen","type":"Kreisangehörige_Gemeinde"},"district":{"key":"08317","name":"Ortenaukreis","type":"Landkreis"},"federalState":{"key":"08","name":"Baden-Württemberg"}},{"name":"Birkenweg","postalCode":"24376","locality":"Kappeln","municipality":{"key":"01059045","name":"Kappeln, Stadt","type":"Stadt"},"district":{"key":"01059","name":"Schleswig-Flensburg","type":"Kreis"},"federalState":{"key":"01","name":"Schleswig-Holstein"}},{"name":"Birkenweg","postalCode":"37284","locality":"Waldkappel","municipality":{"key":"06636012","name":"Waldkappel, Stadt","type":"Stadt"},"district":{"key":"06636","name":"Werra-Meißner-Kreis","type":"Landkreis"},"federalState":{"key":"06","name":"Hessen"}},{"name":"Birkenweg","postalCode":"49492","locality":"Westerkappeln","municipality":{"key":"05566092","name":"Westerkappeln","type":"Kreisangehörige_Gemeinde"},"district":{"key":"05566","name":"Steinfurt","type":"Kreis"},"federalState":{"key":"05","name":"Nordrhein-Westfalen"}},{"name":"Birkköpfel","postalCode":"77876","locality":"Kappelrodeck","municipality":{"key":"08317056","name":"Kappelrodeck","type":"Kreisangehörige_Gemeinde"},"district":{"key":"08317","name":"Ortenaukreis","type":"Landkreis"},"federalState":{"key":"08","name":"Baden-Württemberg"}},{"name":"Birnenweg","postalCode":"77966","locality":"Kappel-Grafenhausen","municipality":{"key":"08317152","name":"Kappel-Grafenhausen","type":"Kreisangehörige_Gemeinde"},"district":{"key":"08317","name":"Ortenaukreis","type":"Landkreis"},"federalState":{"key":"08","name":"Baden-Württemberg"}},{"name":"Bischhäuser Str.","postalCode":"37284","locality":"Waldkappel","municipality":{"key":"06636012","name":"Waldkappel, Stadt","type":"Stadt"},"district":{"key":"06636","name":"Werra-Meißner-Kreis","type":"Landkreis"},"federalState":{"key":"06","name":"Hessen"}},{"name":"Bischofstr.","postalCode":"37284","locality":"Waldkappel","municipality":{"key":"06636012","name":"Waldkappel, Stadt","type":"Stadt"},"district":{"key":"06636","name":"Werra-Meißner-Kreis","type":"Landkreis"},"federalState":{"key":"06","name":"Hessen"}},{"name":"Blaubronn","postalCode":"77876","locality":"Kappelrodeck","municipality":{"key":"08317056","name":"Kappelrodeck","type":"Kreisangehörige_Gemeinde"},"district":{"key":"08317","name":"Ortenaukreis","type":"Landkreis"},"federalState":{"key":"08","name":"Baden-Württemberg"}},{"name":"Blumenstr.","postalCode":"77876","locality":"Kappelrodeck","municipality":{"key":"08317056","name":"Kappelrodeck","type":"Kreisangehörige_Gemeinde"},"district":{"key":"08317","name":"Ortenaukreis","type":"Landkreis"},"federalState":{"key":"08","name":"Baden-Württemberg"}},{"name":"Bobenholzweg","postalCode":"77876","locality":"Kappelrodeck","municipality":{"key":"08317056","name":"Kappelrodeck","type":"Kreisangehörige_Gemeinde"},"district":{"key":"08317","name":"Ortenaukreis","type":"Landkreis"},"federalState":{"key":"08","name":"Baden-Württemberg"}},{"name":"Bodelschwinghstr.","postalCode":"49492","locality":"Westerkappeln","municipality":{"key":"05566092","name":"Westerkappeln","type":"Kreisangehörige_Gemeinde"},"district":{"key":"05566","name":"Steinfurt","type":"Kreis"},"federalState":{"key":"05","name":"Nordrhein-Westfalen"}},{"name":"Borkumer Str.","postalCode":"24376","locality":"Kappeln","municipality":{"key":"01059045","name":"Kappeln, Stadt","type":"Stadt"},"district":{"key":"01059","name":"Schleswig-Flensburg","type":"Kreis"},"federalState":{"key":"01","name":"Schleswig-Holstein"}},{"name":"Borkumweg","postalCode":"37284","locality":"Waldkappel","municipality":{"key":"06636012","name":"Waldkappel, Stadt","type":"Stadt"},"district":{"key":"06636","name":"Werra-Meißner-Kreis","type":"Landkreis"},"federalState":{"key":"06","name":"Hessen"}},{"name":"Boyneburger Str.","postalCode":"37284","locality":"Waldkappel","municipality":{"key":"06636012","name":"Waldkappel, Stadt","type":"Stadt"},"district":{"key":"06636","name":"Werra-Meißner-Kreis","type":"Landkreis"},"federalState":{"key":"06","name":"Hessen"}},{"name":"Boysenkoppel","postalCode":"24376","locality":"Kappeln","municipality":{"key":"01059045","name":"Kappeln, Stadt","type":"Stadt"},"district":{"key":"01059","name":"Schleswig-Flensburg","type":"Kreis"},"federalState":{"key":"01","name":"Schleswig-Holstein"}},{"name":"Bramscher Str.","postalCode":"49492","locality":"Westerkappeln","municipality":{"key":"05566092","name":"Westerkappeln","type":"Kreisangehörige_Gemeinde"},"district":{"key":"05566","name":"Steinfurt","type":"Kreis"},"federalState":{"key":"05","name":"Nordrhein-Westfalen"}},{"name":"Brandrain","postalCode":"77876","locality":"Kappelrodeck","municipality":{"key":"08317056","name":"Kappelrodeck","type":"Kreisangehörige_Gemeinde"},"district":{"key":"08317","name":"Ortenaukreis","type":"Landkreis"},"federalState":{"key":"08","name":"Baden-Württemberg"}},{"name":"Braugasse","postalCode":"37284","locality":"Waldkappel","municipality":{"key":"06636012","name":"Waldkappel, Stadt","type":"Stadt"},"district":{"key":"06636","name":"Werra-Meißner-Kreis","type":"Landkreis"},"federalState":{"key":"06","name":"Hessen"}},{"name":"Brennesch","postalCode":"49492","locality":"Westerkappeln","municipality":{"key":"05566092","name":"Westerkappeln","type":"Kreisangehörige_Gemeinde"},"district":{"key":"05566","name":"Steinfurt","type":"Kreis"},"federalState":{"key":"05","name":"Nordrhein-Westfalen"}},{"name":"Breslauer Str.","postalCode":"24376","locality":"Kappeln","municipality":{"key":"01059045","name":"Kappeln, Stadt","type":"Stadt"},"district":{"key":"01059","name":"Schleswig-Flensburg","type":"Kreis"},"federalState":{"key":"01","name":"Schleswig-Holstein"}},{"name":"Brockbachstr.","postalCode":"49492","locality":"Westerkappeln","municipality":{"key":"05566092","name":"Westerkappeln","type":"Kreisangehörige_Gemeinde"},"district":{"key":"05566","name":"Steinfurt","type":"Kreis"},"federalState":{"key":"05","name":"Nordrhein-Westfalen"}},{"name":"Brodersbyer Str.","postalCode":"24376","locality":"Kappeln","municipality":{"key":"01059045","name":"Kappeln, Stadt","type":"Stadt"},"district":{"key":"01059","name":"Schleswig-Flensburg","type":"Kreis"},"federalState":{"key":"01","name":"Schleswig-Holstein"}},{"name":"Brombeerweg","postalCode":"77876","locality":"Kappelrodeck","municipality":{"key":"08317056","name":"Kappelrodeck","type":"Kreisangehörige_Gemeinde"},"district":{"key":"08317","name":"Ortenaukreis","type":"Landkreis"},"federalState":{"key":"08","name":"Baden-Württemberg"}},{"name":"Bronnmattstr.","postalCode":"77876","locality":"Kappelrodeck","municipality":{"key":"08317056","name":"Kappelrodeck","type":"Kreisangehörige_Gemeinde"},"district":{"key":"08317","name":"Ortenaukreis","type":"Landkreis"},"federalState":{"key":"08","name":"Baden-Württemberg"}},{"name":"Claudius-Weg","postalCode":"49492","locality":"Westerkappeln","municipality":{"key":"05566092","name":"Westerkappeln","type":"Kreisangehörige_Gemeinde"},"district":{"key":"05566","name":"Steinfurt","type":"Kreis"},"federalState":{"key":"05","name":"Nordrhein-Westfalen"}},{"name":"Dahlstr.","postalCode":"49492","locality":"Westerkappeln","municipality":{"key":"05566092","name":"Westerkappeln","type":"Kreisangehörige_Gemeinde"},"district":{"key":"05566","name":"Steinfurt","type":"Kreis"},"federalState":{"key":"05","name":"Nordrhein-Westfalen"}},{"name":"Daimlerweg","postalCode":"37284","locality":"Waldkappel","municipality":{"key":"06636012","name":"Waldkappel, Stadt","type":"Stadt"},"district":{"key":"06636","name":"Werra-Meißner-Kreis","type":"Landkreis"},"federalState":{"key":"06","name":"Hessen"}},{"name":"Damm","postalCode":"67744","locality":"Kappeln","municipality":{"key":"07336049","name":"Kappeln","type":"Kreisangehörige_Gemeinde"},"district":{"key":"07336","name":"Kusel","type":"Landkreis"},"federalState":{"key":"07","name":"Rheinland-Pfalz"}},{"name":"Danebrocker Str.","postalCode":"49492","locality":"Westerkappeln","municipality":{"key":"05566092","name":"Westerkappeln","type":"Kreisangehörige_Gemeinde"},"district":{"key":"05566","name":"Steinfurt","type":"Kreis"},"federalState":{"key":"05","name":"Nordrhein-Westfalen"}},{"name":"Danziger Str.","postalCode":"24376","locality":"Kappeln","municipality":{"key":"01059045","name":"Kappeln, Stadt","type":"Stadt"},"district":{"key":"01059","name":"Schleswig-Flensburg","type":"Kreis"},"federalState":{"key":"01","name":"Schleswig-Holstein"}},{"name":"Dasensteinweg","postalCode":"77876","locality":"Kappelrodeck","municipality":{"key":"08317056","name":"Kappelrodeck","type":"Kreisangehörige_Gemeinde"},"district":{"key":"08317","name":"Ortenaukreis","type":"Landkreis"},"federalState":{"key":"08","name":"Baden-Württemberg"}},{"name":"Dehnthof","postalCode":"24376","locality":"Kappeln","municipality":{"key":"01059045","name":"Kappeln, Stadt","type":"Stadt"},"district":{"key":"01059","name":"Schleswig-Flensburg","type":"Kreis"},"federalState":{"key":"01","name":"Schleswig-Holstein"}},{"name":"Donauweg","postalCode":"37284","locality":"Waldkappel","municipality":{"key":"06636012","name":"Waldkappel, Stadt","type":"Stadt"},"district":{"key":"06636","name":"Werra-Meißner-Kreis","type":"Landkreis"},"federalState":{"key":"06","name":"Hessen"}},{"name":"Dorfbündt","postalCode":"77876","locality":"Kappelrodeck","municipality":{"key":"08317056","name":"Kappelrodeck","type":"Kreisangehörige_Gemeinde"},"district":{"key":"08317","name":"Ortenaukreis","type":"Landkreis"},"federalState":{"key":"08","name":"Baden-Württemberg"}},{"name":"Dothmarkstr.","postalCode":"24376","locality":"Kappeln","municipality":{"key":"01059045","name":"Kappeln, Stadt","type":"Stadt"},"district":{"key":"01059","name":"Schleswig-Flensburg","type":"Kreis"},"federalState":{"key":"01","name":"Schleswig-Holstein"}},{"name":"Drechslerweg","postalCode":"37284","locality":"Waldkappel","municipality":{"key":"06636012","name":"Waldkappel, Stadt","type":"Stadt"},"district":{"key":"06636","name":"Werra-Meißner-Kreis","type":"Landkreis"},"federalState":{"key":"06","name":"Hessen"}},{"name":"Drosselweg","postalCode":"37284","locality":"Waldkappel","municipality":{"key":"06636012","name":"Waldkappel, Stadt","type":"Stadt"},"district":{"key":"06636","name":"Werra-Meißner-Kreis","type":"Landkreis"},"federalState":{"key":"06","name":"Hessen"}},{"name":"Drosselweg","postalCode":"49492","locality":"Westerkappeln","municipality":{"key":"05566092","name":"Westerkappeln","type":"Kreisangehörige_Gemeinde"},"district":{"key":"05566","name":"Steinfurt","type":"Kreis"},"federalState":{"key":"05","name":"Nordrhein-Westfalen"}},{"name":"Droste-Hülshoff-Weg","postalCode":"49492","locality":"Westerkappeln","municipality":{"key":"05566092","name":"Westerkappeln","type":"Kreisangehörige_Gemeinde"},"district":{"key":"05566","name":"Steinfurt","type":"Kreis"},"federalState":{"key":"05","name":"Nordrhein-Westfalen"}},{"name":"Dürerstr.","postalCode":"37284","locality":"Waldkappel","municipality":{"key":"06636012","name":"Waldkappel, Stadt","type":"Stadt"},"district":{"key":"06636","name":"Werra-Meißner-Kreis","type":"Landkreis"},"federalState":{"key":"06","name":"Hessen"}},{"name":"Eckernförder Str.","postalCode":"24376","locality":"Kappeln","municipality":{"key":"01059045","name":"Kappeln, Stadt","type":"Stadt"},"district":{"key":"01059","name":"Schleswig-Flensburg","type":"Kreis"},"federalState":{"key":"01","name":"Schleswig-Holstein"}},{"name":"Ederweg","postalCode":"37284","locality":"Waldkappel","municipality":{"key":"06636012","name":"Waldkappel, Stadt","type":"Stadt"},"district":{"key":"06636","name":"Werra-Meißner-Kreis","type":"Landkreis"},"federalState":{"key":"06","name":"Hessen"}},{"name":"Eichendorffstr.","postalCode":"49492","locality":"Westerkappeln","municipality":{"key":"05566092","name":"Westerkappeln","type":"Kreisangehörige_Gemeinde"},"district":{"key":"05566","name":"Steinfurt","type":"Kreis"},"federalState":{"key":"05","name":"Nordrhein-Westfalen"}},{"name":"Eichendorffweg","postalCode":"37284","locality":"Waldkappel","municipality":{"key":"06636012","name":"Waldkappel, Stadt","type":"Stadt"},"district":{"key":"06636","name":"Werra-Meißner-Kreis","type":"Landkreis"},"federalState":{"key":"06","name":"Hessen"}},{"name":"Eichenpfad","postalCode":"37284","locality":"Waldkappel","municipality":{"key":"06636012","name":"Waldkappel, Stadt","type":"Stadt"},"district":{"key":"06636","name":"Werra-Meißner-Kreis","type":"Landkreis"},"federalState":{"key":"06","name":"Hessen"}},{"name":"Eichenwäldeleweg","postalCode":"77876","locality":"Kappelrodeck","municipality":{"key":"08317056","name":"Kappelrodeck","type":"Kreisangehörige_Gemeinde"},"district":{"key":"08317","name":"Ortenaukreis","type":"Landkreis"},"federalState":{"key":"08","name":"Baden-Württemberg"}},{"name":"Eichgasse","postalCode":"77876","locality":"Kappelrodeck","municipality":{"key":"08317056","name":"Kappelrodeck","type":"Kreisangehörige_Gemeinde"},"district":{"key":"08317","name":"Ortenaukreis","type":"Landkreis"},"federalState":{"key":"08","name":"Baden-Württemberg"}},{"name":"Eichholz","postalCode":"37284","locality":"Waldkappel","municipality":{"key":"06636012","name":"Waldkappel, Stadt","type":"Stadt"},"district":{"key":"06636","name":"Werra-Meißner-Kreis","type":"Landkreis"},"federalState":{"key":"06","name":"Hessen"}},{"name":"Eichholzgasse","postalCode":"37284","locality":"Waldkappel","municipality":{"key":"06636012","name":"Waldkappel, Stadt","type":"Stadt"},"district":{"key":"06636","name":"Werra-Meißner-Kreis","type":"Landkreis"},"federalState":{"key":"06","name":"Hessen"}},{"name":"Eichwaldplatz","postalCode":"24376","locality":"Kappeln","municipality":{"key":"01059045","name":"Kappeln, Stadt","type":"Stadt"},"district":{"key":"01059","name":"Schleswig-Flensburg","type":"Kreis"},"federalState":{"key":"01","name":"Schleswig-Holstein"}},{"name":"Eisenbahnstr.","postalCode":"77876","locality":"Kappelrodeck","municipality":{"key":"08317056","name":"Kappelrodeck","type":"Kreisangehörige_Gemeinde"},"district":{"key":"08317","name":"Ortenaukreis","type":"Landkreis"},"federalState":{"key":"08","name":"Baden-Württemberg"}},{"name":"Eisenbahnstr.","postalCode":"77966","locality":"Kappel-Grafenhausen","municipality":{"key":"08317152","name":"Kappel-Grafenhausen","type":"Kreisangehörige_Gemeinde"},"district":{"key":"08317","name":"Ortenaukreis","type":"Landkreis"},"federalState":{"key":"08","name":"Baden-Württemberg"}},{"name":"Eliacker","postalCode":"77876","locality":"Kappelrodeck","municipality":{"key":"08317056","name":"Kappelrodeck","type":"Kreisangehörige_Gemeinde"},"district":{"key":"08317","name":"Ortenaukreis","type":"Landkreis"},"federalState":{"key":"08","name":"Baden-Württemberg"}},{"name":"Elisabethenweg","postalCode":"37284","locality":"Waldkappel","municipality":{"key":"06636012","name":"Waldkappel, Stadt","type":"Stadt"},"district":{"key":"06636","name":"Werra-Meißner-Kreis","type":"Landkreis"},"federalState":{"key":"06","name":"Hessen"}},{"name":"Elise-Vogt-Str.","postalCode":"77876","locality":"Kappelrodeck","municipality":{"key":"08317056","name":"Kappelrodeck","type":"Kreisangehörige_Gemeinde"},"district":{"key":"08317","name":"Ortenaukreis","type":"Landkreis"},"federalState":{"key":"08","name":"Baden-Württemberg"}},{"name":"Ellenberger Str.","postalCode":"24376","locality":"Kappeln","municipality":{"key":"01059045","name":"Kappeln, Stadt","type":"Stadt"},"district":{"key":"01059","name":"Schleswig-Flensburg","type":"Kreis"},"federalState":{"key":"01","name":"Schleswig-Holstein"}},{"name":"Ellerüher Weg","postalCode":"24376","locality":"Kappeln","municipality":{"key":"01059045","name":"Kappeln, Stadt","type":"Stadt"},"district":{"key":"01059","name":"Schleswig-Flensburg","type":"Kreis"},"federalState":{"key":"01","name":"Schleswig-Holstein"}},{"name":"Elsässer Weg","postalCode":"77876","locality":"Kappelrodeck","municipality":{"key":"08317056","name":"Kappelrodeck","type":"Kreisangehörige_Gemeinde"},"district":{"key":"08317","name":"Ortenaukreis","type":"Landkreis"},"federalState":{"key":"08","name":"Baden-Württemberg"}},{"name":"Endweg","postalCode":"77966","locality":"Kappel-Grafenhausen","municipality":{"key":"08317152","name":"Kappel-Grafenhausen","type":"Kreisangehörige_Gemeinde"},"district":{"key":"08317","name":"Ortenaukreis","type":"Landkreis"},"federalState":{"key":"08","name":"Baden-Württemberg"}},{"name":"Erb","postalCode":"77876","locality":"Kappelrodeck","municipality":{"key":"08317056","name":"Kappelrodeck","type":"Kreisangehörige_Gemeinde"},"district":{"key":"08317","name":"Ortenaukreis","type":"Landkreis"},"federalState":{"key":"08","name":"Baden-Württemberg"}},{"name":"Erich-Schröer-Str.","postalCode":"49492","locality":"Westerkappeln","municipality":{"key":"05566092","name":"Westerkappeln","type":"Kreisangehörige_Gemeinde"},"district":{"key":"05566","name":"Steinfurt","type":"Kreis"},"federalState":{"key":"05","name":"Nordrhein-Westfalen"}},{"name":"Erlenpfad","postalCode":"37284","locality":"Waldkappel","municipality":{"key":"06636012","name":"Waldkappel, Stadt","type":"Stadt"},"district":{"key":"06636","name":"Werra-Meißner-Kreis","type":"Landkreis"},"federalState":{"key":"06","name":"Hessen"}},{"name":"Eschstr.","postalCode":"49492","locality":"Westerkappeln","municipality":{"key":"05566092","name":"Westerkappeln","type":"Kreisangehörige_Gemeinde"},"district":{"key":"05566","name":"Steinfurt","type":"Kreis"},"federalState":{"key":"05","name":"Nordrhein-Westfalen"}},{"name":"Eschwieser Str.","postalCode":"55483","locality":"Kappel","municipality":{"key":"07140062","name":"Kappel","type":"Kreisangehörige_Gemeinde"},"district":{"key":"07140","name":"Rhein-Hunsrück-Kreis","type":"Landkreis"},"federalState":{"key":"07","name":"Rheinland-Pfalz"}},{"name":"Espenisstr.","postalCode":"24376","locality":"Kappeln","municipality":{"key":"01059045","name":"Kappeln, Stadt","type":"Stadt"},"district":{"key":"01059","name":"Schleswig-Flensburg","type":"Kreis"},"federalState":{"key":"01","name":"Schleswig-Holstein"}},{"name":"Eulhaus","postalCode":"37284","locality":"Waldkappel","municipality":{"key":"06636012","name":"Waldkappel, Stadt","type":"Stadt"},"district":{"key":"06636","name":"Werra-Meißner-Kreis","type":"Landkreis"},"federalState":{"key":"06","name":"Hessen"}},{"name":"Europaring","postalCode":"37284","locality":"Waldkappel","municipality":{"key":"06636012","name":"Waldkappel, Stadt","type":"Stadt"},"district":{"key":"06636","name":"Werra-Meißner-Kreis","type":"Landkreis"},"federalState":{"key":"06","name":"Hessen"}},{"name":"Faaborgweg","postalCode":"24376","locality":"Kappeln","municipality":{"key":"01059045","name":"Kappeln, Stadt","type":"Stadt"},"district":{"key":"01059","name":"Schleswig-Flensburg","type":"Kreis"},"federalState":{"key":"01","name":"Schleswig-Holstein"}},{"name":"Fabrikstr.","postalCode":"24376","locality":"Kappeln","municipality":{"key":"01059045","name":"Kappeln, Stadt","type":"Stadt"},"district":{"key":"01059","name":"Schleswig-Flensburg","type":"Kreis"},"federalState":{"key":"01","name":"Schleswig-Holstein"}},{"name":"Fabrikstr.","postalCode":"77966","locality":"Kappel-Grafenhausen","municipality":{"key":"08317152","name":"Kappel-Grafenhausen","type":"Kreisangehörige_Gemeinde"},"district":{"key":"08317","name":"Ortenaukreis","type":"Landkreis"},"federalState":{"key":"08","name":"Baden-Württemberg"}},{"name":"Fahrkopfweg","postalCode":"77966","locality":"Kappel-Grafenhausen","municipality":{"key":"08317152","name":"Kappel-Grafenhausen","type":"Kreisangehörige_Gemeinde"},"district":{"key":"08317","name":"Ortenaukreis","type":"Landkreis"},"federalState":{"key":"08","name":"Baden-Württemberg"}},{"name":"Fasanenweg","postalCode":"24376","locality":"Kappeln","municipality":{"key":"01059045","name":"Kappeln, Stadt","type":"Stadt"},"district":{"key":"01059","name":"Schleswig-Flensburg","type":"Kreis"},"federalState":{"key":"01","name":"Schleswig-Holstein"}},{"name":"Fegetascher Weg","postalCode":"24376","locality":"Kappeln","municipality":{"key":"01059045","name":"Kappeln, Stadt","type":"Stadt"},"district":{"key":"01059","name":"Schleswig-Flensburg","type":"Kreis"},"federalState":{"key":"01","name":"Schleswig-Holstein"}},{"name":"Fehmarnweg","postalCode":"37284","locality":"Waldkappel","municipality":{"key":"06636012","name":"Waldkappel, Stadt","type":"Stadt"},"district":{"key":"06636","name":"Werra-Meißner-Kreis","type":"Landkreis"},"federalState":{"key":"06","name":"Hessen"}},{"name":"Feldstr.","postalCode":"24376","locality":"Kappeln","municipality":{"key":"01059045","name":"Kappeln, Stadt","type":"Stadt"},"district":{"key":"01059","name":"Schleswig-Flensburg","type":"Kreis"},"federalState":{"key":"01","name":"Schleswig-Holstein"}},{"name":"Feuerwehrstr.","postalCode":"77966","locality":"Kappel-Grafenhausen","municipality":{"key":"08317152","name":"Kappel-Grafenhausen","type":"Kreisangehörige_Gemeinde"},"district":{"key":"08317","name":"Ortenaukreis","type":"Landkreis"},"federalState":{"key":"08","name":"Baden-Württemberg"}},{"name":"Fillkampstr.","postalCode":"49492","locality":"Westerkappeln","municipality":{"key":"05566092","name":"Westerkappeln","type":"Kreisangehörige_Gemeinde"},"district":{"key":"05566","name":"Steinfurt","type":"Kreis"},"federalState":{"key":"05","name":"Nordrhein-Westfalen"}},{"name":"Finkenweg","postalCode":"37284","locality":"Waldkappel","municipality":{"key":"06636012","name":"Waldkappel, Stadt","type":"Stadt"},"district":{"key":"06636","name":"Werra-Meißner-Kreis","type":"Landkreis"},"federalState":{"key":"06","name":"Hessen"}},{"name":"Finkenweg","postalCode":"49492","locality":"Westerkappeln","municipality":{"key":"05566092","name":"Westerkappeln","type":"Kreisangehörige_Gemeinde"},"district":{"key":"05566","name":"Steinfurt","type":"Kreis"},"federalState":{"key":"05","name":"Nordrhein-Westfalen"}},{"name":"Finkenweg","postalCode":"77876","locality":"Kappelrodeck","municipality":{"key":"08317056","name":"Kappelrodeck","type":"Kreisangehörige_Gemeinde"},"district":{"key":"08317","name":"Ortenaukreis","type":"Landkreis"},"federalState":{"key":"08","name":"Baden-Württemberg"}},{"name":"Fischergang","postalCode":"24376","locality":"Kappeln","municipality":{"key":"01059045","name":"Kappeln, Stadt","type":"Stadt"},"district":{"key":"01059","name":"Schleswig-Flensburg","type":"Kreis"},"federalState":{"key":"01","name":"Schleswig-Holstein"}},{"name":"Fischersiedlung","postalCode":"24376","locality":"Kappeln","municipality":{"key":"01059045","name":"Kappeln, Stadt","type":"Stadt"},"district":{"key":"01059","name":"Schleswig-Flensburg","type":"Kreis"},"federalState":{"key":"01","name":"Schleswig-Holstein"}},{"name":"Fitzgasse","postalCode":"37284","locality":"Waldkappel","municipality":{"key":"06636012","name":"Waldkappel, Stadt","type":"Stadt"},"district":{"key":"06636","name":"Werra-Meißner-Kreis","type":"Landkreis"},"federalState":{"key":"06","name":"Hessen"}},{"name":"Flensburger Str.","postalCode":"24376","locality":"Kappeln","municipality":{"key":"01059045","name":"Kappeln, Stadt","type":"Stadt"},"district":{"key":"01059","name":"Schleswig-Flensburg","type":"Kreis"},"federalState":{"key":"01","name":"Schleswig-Holstein"}},{"name":"Fliederweg","postalCode":"77876","locality":"Kappelrodeck","municipality":{"key":"08317056","name":"Kappelrodeck","type":"Kreisangehörige_Gemeinde"},"district":{"key":"08317","name":"Ortenaukreis","type":"Landkreis"},"federalState":{"key":"08","name":"Baden-Württemberg"}},{"name":"Forststr.","postalCode":"37284","locality":"Waldkappel","municipality":{"key":"06636012","name":"Waldkappel, Stadt","type":"Stadt"},"district":{"key":"06636","name":"Werra-Meißner-Kreis","type":"Landkreis"},"federalState":{"key":"06","name":"Hessen"}},{"name":"Frankenweg","postalCode":"37284","locality":"Waldkappel","municipality":{"key":"06636012","name":"Waldkappel, Stadt","type":"Stadt"},"district":{"key":"06636","name":"Werra-Meißner-Kreis","type":"Landkreis"},"federalState":{"key":"06","name":"Hessen"}},{"name":"Franzosenstr.","postalCode":"37284","locality":"Waldkappel","municipality":{"key":"06636012","name":"Waldkappel, Stadt","type":"Stadt"},"district":{"key":"06636","name":"Werra-Meißner-Kreis","type":"Landkreis"},"federalState":{"key":"06","name":"Hessen"}},{"name":"Frau-Holle-Pfad","postalCode":"37284","locality":"Waldkappel","municipality":{"key":"06636012","name":"Waldkappel, Stadt","type":"Stadt"},"district":{"key":"06636","name":"Werra-Meißner-Kreis","type":"Landkreis"},"federalState":{"key":"06","name":"Hessen"}},{"name":"Freiamt","postalCode":"77876","locality":"Kappelrodeck","municipality":{"key":"08317056","name":"Kappelrodeck","type":"Kreisangehörige_Gemeinde"},"district":{"key":"08317","name":"Ortenaukreis","type":"Landkreis"},"federalState":{"key":"08","name":"Baden-Württemberg"}},{"name":"Friedensstr.","postalCode":"49492","locality":"Westerkappeln","municipality":{"key":"05566092","name":"Westerkappeln","type":"Kreisangehörige_Gemeinde"},"district":{"key":"05566","name":"Steinfurt","type":"Kreis"},"federalState":{"key":"05","name":"Nordrhein-Westfalen"}},{"name":"Friedenstr.","postalCode":"37284","locality":"Waldkappel","municipality":{"key":"06636012","name":"Waldkappel, Stadt","type":"Stadt"},"district":{"key":"06636","name":"Werra-Meißner-Kreis","type":"Landkreis"},"federalState":{"key":"06","name":"Hessen"}},{"name":"Friedhof","postalCode":"77876","locality":"Kappelrodeck","municipality":{"key":"08317056","name":"Kappelrodeck","type":"Kreisangehörige_Gemeinde"},"district":{"key":"08317","name":"Ortenaukreis","type":"Landkreis"},"federalState":{"key":"08","name":"Baden-Württemberg"}},{"name":"Friedhofsweg","postalCode":"37284","locality":"Waldkappel","municipality":{"key":"06636012","name":"Waldkappel, Stadt","type":"Stadt"},"district":{"key":"06636","name":"Werra-Meißner-Kreis","type":"Landkreis"},"federalState":{"key":"06","name":"Hessen"}},{"name":"Friedrich-Ebert-Str.","postalCode":"37284","locality":"Waldkappel","municipality":{"key":"06636012","name":"Waldkappel, Stadt","type":"Stadt"},"district":{"key":"06636","name":"Werra-Meißner-Kreis","type":"Landkreis"},"federalState":{"key":"06","name":"Hessen"}},{"name":"Friedrich-Hebbel-Str.","postalCode":"24376","locality":"Kappeln","municipality":{"key":"01059045","name":"Kappeln, Stadt","type":"Stadt"},"district":{"key":"01059","name":"Schleswig-Flensburg","type":"Kreis"},"federalState":{"key":"01","name":"Schleswig-Holstein"}},{"name":"Friedrich-Stehlin-Str.","postalCode":"77966","locality":"Kappel-Grafenhausen","municipality":{"key":"08317152","name":"Kappel-Grafenhausen","type":"Kreisangehörige_Gemeinde"},"district":{"key":"08317","name":"Ortenaukreis","type":"Landkreis"},"federalState":{"key":"08","name":"Baden-Württemberg"}},{"name":"Friemer Str.","postalCode":"37284","locality":"Waldkappel","municipality":{"key":"06636012","name":"Waldkappel, Stadt","type":"Stadt"},"district":{"key":"06636","name":"Werra-Meißner-Kreis","type":"Landkreis"},"federalState":{"key":"06","name":"Hessen"}},{"name":"Friesenweg","postalCode":"37284","locality":"Waldkappel","municipality":{"key":"06636012","name":"Waldkappel, Stadt","type":"Stadt"},"district":{"key":"06636","name":"Werra-Meißner-Kreis","type":"Landkreis"},"federalState":{"key":"06","name":"Hessen"}},{"name":"Friggepättken","postalCode":"49492","locality":"Westerkappeln","municipality":{"key":"05566092","name":"Westerkappeln","type":"Kreisangehörige_Gemeinde"},"district":{"key":"05566","name":"Steinfurt","type":"Kreis"},"federalState":{"key":"05","name":"Nordrhein-Westfalen"}},{"name":"Fritz-Reuter-Str.","postalCode":"24376","locality":"Kappeln","municipality":{"key":"01059045","name":"Kappeln, Stadt","type":"Stadt"},"district":{"key":"01059","name":"Schleswig-Flensburg","type":"Kreis"},"federalState":{"key":"01","name":"Schleswig-Holstein"}},{"name":"Fröbelweg","postalCode":"24376","locality":"Kappeln","municipality":{"key":"01059045","name":"Kappeln, Stadt","type":"Stadt"},"district":{"key":"01059","name":"Schleswig-Flensburg","type":"Kreis"},"federalState":{"key":"01","name":"Schleswig-Holstein"}},{"name":"Frühlingsweg","postalCode":"37284","locality":"Waldkappel","municipality":{"key":"06636012","name":"Waldkappel, Stadt","type":"Stadt"},"district":{"key":"06636","name":"Werra-Meißner-Kreis","type":"Landkreis"},"federalState":{"key":"06","name":"Hessen"}},{"name":"Fuldaweg","postalCode":"37284","locality":"Waldkappel","municipality":{"key":"06636012","name":"Waldkappel, Stadt","type":"Stadt"},"district":{"key":"06636","name":"Werra-Meißner-Kreis","type":"Landkreis"},"federalState":{"key":"06","name":"Hessen"}},{"name":"Funny World","postalCode":"77966","locality":"Kappel-Grafenhausen","municipality":{"key":"08317152","name":"Kappel-Grafenhausen","type":"Kreisangehörige_Gemeinde"},"district":{"key":"08317","name":"Ortenaukreis","type":"Landkreis"},"federalState":{"key":"08","name":"Baden-Württemberg"}},{"name":"Gabeliner Weg","postalCode":"49492","locality":"Westerkappeln","municipality":{"key":"05566092","name":"Westerkappeln","type":"Kreisangehörige_Gemeinde"},"district":{"key":"05566","name":"Steinfurt","type":"Kreis"},"federalState":{"key":"05","name":"Nordrhein-Westfalen"}},{"name":"Gartenkamp","postalCode":"49492","locality":"Westerkappeln","municipality":{"key":"05566092","name":"Westerkappeln","type":"Kreisangehörige_Gemeinde"},"district":{"key":"05566","name":"Steinfurt","type":"Kreis"},"federalState":{"key":"05","name":"Nordrhein-Westfalen"}},{"name":"Gartenstr.","postalCode":"24376","locality":"Kappeln","municipality":{"key":"01059045","name":"Kappeln, Stadt","type":"Stadt"},"district":{"key":"01059","name":"Schleswig-Flensburg","type":"Kreis"},"federalState":{"key":"01","name":"Schleswig-Holstein"}},{"name":"Gartenstr.","postalCode":"37284","locality":"Waldkappel","municipality":{"key":"06636012","name":"Waldkappel, Stadt","type":"Stadt"},"district":{"key":"06636","name":"Werra-Meißner-Kreis","type":"Landkreis"},"federalState":{"key":"06","name":"Hessen"}},{"name":"Gartenstr.","postalCode":"49492","locality":"Westerkappeln","municipality":{"key":"05566092","name":"Westerkappeln","type":"Kreisangehörige_Gemeinde"},"district":{"key":"05566","name":"Steinfurt","type":"Kreis"},"federalState":{"key":"05","name":"Nordrhein-Westfalen"}},{"name":"Gartenstr.","postalCode":"77876","locality":"Kappelrodeck","municipality":{"key":"08317056","name":"Kappelrodeck","type":"Kreisangehörige_Gemeinde"},"district":{"key":"08317","name":"Ortenaukreis","type":"Landkreis"},"federalState":{"key":"08","name":"Baden-Württemberg"}},{"name":"Gartenweg","postalCode":"24376","locality":"Kappeln","municipality":{"key":"01059045","name":"Kappeln, Stadt","type":"Stadt"},"district":{"key":"01059","name":"Schleswig-Flensburg","type":"Kreis"},"federalState":{"key":"01","name":"Schleswig-Holstein"}},{"name":"Gartenweg","postalCode":"77966","locality":"Kappel-Grafenhausen","municipality":{"key":"08317152","name":"Kappel-Grafenhausen","type":"Kreisangehörige_Gemeinde"},"district":{"key":"08317","name":"Ortenaukreis","type":"Landkreis"},"federalState":{"key":"08","name":"Baden-Württemberg"}},{"name":"Gerberweg","postalCode":"37284","locality":"Waldkappel","municipality":{"key":"06636012","name":"Waldkappel, Stadt","type":"Stadt"},"district":{"key":"06636","name":"Werra-Meißner-Kreis","type":"Landkreis"},"federalState":{"key":"06","name":"Hessen"}},{"name":"Gerichtsstr.","postalCode":"24376","locality":"Kappeln","municipality":{"key":"01059045","name":"Kappeln, Stadt","type":"Stadt"},"district":{"key":"01059","name":"Schleswig-Flensburg","type":"Kreis"},"federalState":{"key":"01","name":"Schleswig-Holstein"}},{"name":"Gerstkampstr.","postalCode":"49492","locality":"Westerkappeln","municipality":{"key":"05566092","name":"Westerkappeln","type":"Kreisangehörige_Gemeinde"},"district":{"key":"05566","name":"Steinfurt","type":"Kreis"},"federalState":{"key":"05","name":"Nordrhein-Westfalen"}},{"name":"Gewerbestr.","postalCode":"77966","locality":"Kappel-Grafenhausen","municipality":{"key":"08317152","name":"Kappel-Grafenhausen","type":"Kreisangehörige_Gemeinde"},"district":{"key":"08317","name":"Ortenaukreis","type":"Landkreis"},"federalState":{"key":"08","name":"Baden-Württemberg"}},{"name":"Glockennmoos","postalCode":"77955","locality":"Kappel-Grafenhausen","municipality":{"key":"08317152","name":"Kappel-Grafenhausen","type":"Kreisangehörige_Gemeinde"},"district":{"key":"08317","name":"Ortenaukreis","type":"Landkreis"},"federalState":{"key":"08","name":"Baden-Württemberg"}},{"name":"Glücksburger Str.","postalCode":"24376","locality":"Kappeln","municipality":{"key":"01059045","name":"Kappeln, Stadt","type":"Stadt"},"district":{"key":"01059","name":"Schleswig-Flensburg","type":"Kreis"},"federalState":{"key":"01","name":"Schleswig-Holstein"}},{"name":"Goedekingstr.","postalCode":"49492","locality":"Westerkappeln","municipality":{"key":"05566092","name":"Westerkappeln","type":"Kreisangehörige_Gemeinde"},"district":{"key":"05566","name":"Steinfurt","type":"Kreis"},"federalState":{"key":"05","name":"Nordrhein-Westfalen"}},{"name":"Goethestr.","postalCode":"37284","locality":"Waldkappel","municipality":{"key":"06636012","name":"Waldkappel, Stadt","type":"Stadt"},"district":{"key":"06636","name":"Werra-Meißner-Kreis","type":"Landkreis"},"federalState":{"key":"06","name":"Hessen"}},{"name":"Goethestr.","postalCode":"49492","locality":"Westerkappeln","municipality":{"key":"05566092","name":"Westerkappeln","type":"Kreisangehörige_Gemeinde"},"district":{"key":"05566","name":"Steinfurt","type":"Kreis"},"federalState":{"key":"05","name":"Nordrhein-Westfalen"}},{"name":"Goethestr.","postalCode":"77966","locality":"Kappel-Grafenhausen","municipality":{"key":"08317152","name":"Kappel-Grafenhausen","type":"Kreisangehörige_Gemeinde"},"district":{"key":"08317","name":"Ortenaukreis","type":"Landkreis"},"federalState":{"key":"08","name":"Baden-Württemberg"}},{"name":"Gorch-Fock-Str.","postalCode":"24376","locality":"Kappeln","municipality":{"key":"01059045","name":"Kappeln, Stadt","type":"Stadt"},"district":{"key":"01059","name":"Schleswig-Flensburg","type":"Kreis"},"federalState":{"key":"01","name":"Schleswig-Holstein"}},{"name":"Gossmannring","postalCode":"37284","locality":"Waldkappel","municipality":{"key":"06636012","name":"Waldkappel, Stadt","type":"Stadt"},"district":{"key":"06636","name":"Werra-Meißner-Kreis","type":"Landkreis"},"federalState":{"key":"06","name":"Hessen"}},{"name":"Grabengasse","postalCode":"37284","locality":"Waldkappel","municipality":{"key":"06636012","name":"Waldkappel, Stadt","type":"Stadt"},"district":{"key":"06636","name":"Werra-Meißner-Kreis","type":"Landkreis"},"federalState":{"key":"06","name":"Hessen"}},{"name":"Grauhöft","postalCode":"24376","locality":"Kappeln","municipality":{"key":"01059045","name":"Kappeln, Stadt","type":"Stadt"},"district":{"key":"01059","name":"Schleswig-Flensburg","type":"Kreis"},"federalState":{"key":"01","name":"Schleswig-Holstein"}},{"name":"Grauhöfter Weg","postalCode":"24376","locality":"Kappeln","municipality":{"key":"01059045","name":"Kappeln, Stadt","type":"Stadt"},"district":{"key":"01059","name":"Schleswig-Flensburg","type":"Kreis"},"federalState":{"key":"01","name":"Schleswig-Holstein"}},{"name":"Grimsfeld","postalCode":"24376","locality":"Kappeln","municipality":{"key":"01059045","name":"Kappeln, Stadt","type":"Stadt"},"district":{"key":"01059","name":"Schleswig-Flensburg","type":"Kreis"},"federalState":{"key":"01","name":"Schleswig-Holstein"}},{"name":"Große Str.","postalCode":"49492","locality":"Westerkappeln","municipality":{"key":"05566092","name":"Westerkappeln","type":"Kreisangehörige_Gemeinde"},"district":{"key":"05566","name":"Steinfurt","type":"Kreis"},"federalState":{"key":"05","name":"Nordrhein-Westfalen"}},{"name":"Grünbrücke","postalCode":"37284","locality":"Waldkappel","municipality":{"key":"06636012","name":"Waldkappel, Stadt","type":"Stadt"},"district":{"key":"06636","name":"Werra-Meißner-Kreis","type":"Landkreis"},"federalState":{"key":"06","name":"Hessen"}},{"name":"Grüner Weg","postalCode":"37284","locality":"Waldkappel","municipality":{"key":"06636012","name":"Waldkappel, Stadt","type":"Stadt"},"district":{"key":"06636","name":"Werra-Meißner-Kreis","type":"Landkreis"},"federalState":{"key":"06","name":"Hessen"}},{"name":"Grüner Winkel","postalCode":"77876","locality":"Kappelrodeck","municipality":{"key":"08317056","name":"Kappelrodeck","type":"Kreisangehörige_Gemeinde"},"district":{"key":"08317","name":"Ortenaukreis","type":"Landkreis"},"federalState":{"key":"08","name":"Baden-Württemberg"}},{"name":"Grüne Str.","postalCode":"24376","locality":"Kappeln","municipality":{"key":"01059045","name":"Kappeln, Stadt","type":"Stadt"},"district":{"key":"01059","name":"Schleswig-Flensburg","type":"Kreis"},"federalState":{"key":"01","name":"Schleswig-Holstein"}},{"name":"Gut Velpe","postalCode":"49492","locality":"Westerkappeln","municipality":{"key":"05566092","name":"Westerkappeln","type":"Kreisangehörige_Gemeinde"},"district":{"key":"05566","name":"Steinfurt","type":"Kreis"},"federalState":{"key":"05","name":"Nordrhein-Westfalen"}},{"name":"Hafenpromenade","postalCode":"24376","locality":"Kappeln","municipality":{"key":"01059045","name":"Kappeln, Stadt","type":"Stadt"},"district":{"key":"01059","name":"Schleswig-Flensburg","type":"Kreis"},"federalState":{"key":"01","name":"Schleswig-Holstein"}},{"name":"Hagebaustr.","postalCode":"49492","locality":"Westerkappeln","municipality":{"key":"05566092","name":"Westerkappeln","type":"Kreisangehörige_Gemeinde"},"district":{"key":"05566","name":"Steinfurt","type":"Kreis"},"federalState":{"key":"05","name":"Nordrhein-Westfalen"}},{"name":"Hagelstr.","postalCode":"49492","locality":"Westerkappeln","municipality":{"key":"05566092","name":"Westerkappeln","type":"Kreisangehörige_Gemeinde"},"district":{"key":"05566","name":"Steinfurt","type":"Kreis"},"federalState":{"key":"05","name":"Nordrhein-Westfalen"}},{"name":"Hagenbergstr.","postalCode":"49492","locality":"Westerkappeln","municipality":{"key":"05566092","name":"Westerkappeln","type":"Kreisangehörige_Gemeinde"},"district":{"key":"05566","name":"Steinfurt","type":"Kreis"},"federalState":{"key":"05","name":"Nordrhein-Westfalen"}},{"name":"Hagenbergweg","postalCode":"49492","locality":"Westerkappeln","municipality":{"key":"05566092","name":"Westerkappeln","type":"Kreisangehörige_Gemeinde"},"district":{"key":"05566","name":"Steinfurt","type":"Kreis"},"federalState":{"key":"05","name":"Nordrhein-Westfalen"}},{"name":"Halener Str.","postalCode":"49492","locality":"Westerkappeln","municipality":{"key":"05566092","name":"Westerkappeln","type":"Kreisangehörige_Gemeinde"},"district":{"key":"05566","name":"Steinfurt","type":"Kreis"},"federalState":{"key":"05","name":"Nordrhein-Westfalen"}},{"name":"Hambürener Str.","postalCode":"49492","locality":"Westerkappeln","municipality":{"key":"05566092","name":"Westerkappeln","type":"Kreisangehörige_Gemeinde"},"district":{"key":"05566","name":"Steinfurt","type":"Kreis"},"federalState":{"key":"05","name":"Nordrhein-Westfalen"}},{"name":"Hanfriedenstr.","postalCode":"49492","locality":"Westerkappeln","municipality":{"key":"05566092","name":"Westerkappeln","type":"Kreisangehörige_Gemeinde"},"district":{"key":"05566","name":"Steinfurt","type":"Kreis"},"federalState":{"key":"05","name":"Nordrhein-Westfalen"}},{"name":"Hans-Christian-Andersen-Weg","postalCode":"24376","locality":"Kappeln","municipality":{"key":"01059045","name":"Kappeln, Stadt","type":"Stadt"},"district":{"key":"01059","name":"Schleswig-Flensburg","type":"Kreis"},"federalState":{"key":"01","name":"Schleswig-Holstein"}},{"name":"Hansjakobstr.","postalCode":"77966","locality":"Kappel-Grafenhausen","municipality":{"key":"08317152","name":"Kappel-Grafenhausen","type":"Kreisangehörige_Gemeinde"},"district":{"key":"08317","name":"Ortenaukreis","type":"Landkreis"},"federalState":{"key":"08","name":"Baden-Württemberg"}},{"name":"Haselweg","postalCode":"37284","locality":"Waldkappel","municipality":{"key":"06636012","name":"Waldkappel, Stadt","type":"Stadt"},"district":{"key":"06636","name":"Werra-Meißner-Kreis","type":"Landkreis"},"federalState":{"key":"06","name":"Hessen"}},{"name":"Haubreede","postalCode":"49492","locality":"Westerkappeln","municipality":{"key":"05566092","name":"Westerkappeln","type":"Kreisangehörige_Gemeinde"},"district":{"key":"05566","name":"Steinfurt","type":"Kreis"},"federalState":{"key":"05","name":"Nordrhein-Westfalen"}},{"name":"Hauptstr.","postalCode":"67744","locality":"Kappeln","municipality":{"key":"07336049","name":"Kappeln","type":"Kreisangehörige_Gemeinde"},"district":{"key":"07336","name":"Kusel","type":"Landkreis"},"federalState":{"key":"07","name":"Rheinland-Pfalz"}},{"name":"Hauptstr.","postalCode":"77876","locality":"Kappelrodeck","municipality":{"key":"08317056","name":"Kappelrodeck","type":"Kreisangehörige_Gemeinde"},"district":{"key":"08317","name":"Ortenaukreis","type":"Landkreis"},"federalState":{"key":"08","name":"Baden-Württemberg"}},{"name":"Hauptstr.","postalCode":"77966","locality":"Kappel-Grafenhausen","municipality":{"key":"08317152","name":"Kappel-Grafenhausen","type":"Kreisangehörige_Gemeinde"},"district":{"key":"08317","name":"Ortenaukreis","type":"Landkreis"},"federalState":{"key":"08","name":"Baden-Württemberg"}},{"name":"Haus Cappeln","postalCode":"49492","locality":"Westerkappeln","municipality":{"key":"05566092","name":"Westerkappeln","type":"Kreisangehörige_Gemeinde"},"district":{"key":"05566","name":"Steinfurt","type":"Kreis"},"federalState":{"key":"05","name":"Nordrhein-Westfalen"}},{"name":"Hebelstr.","postalCode":"77966","locality":"Kappel-Grafenhausen","municipality":{"key":"08317152","name":"Kappel-Grafenhausen","type":"Kreisangehörige_Gemeinde"},"district":{"key":"08317","name":"Ortenaukreis","type":"Landkreis"},"federalState":{"key":"08","name":"Baden-Württemberg"}},{"name":"Heerstr.","postalCode":"49492","locality":"Westerkappeln","municipality":{"key":"05566092","name":"Westerkappeln","type":"Kreisangehörige_Gemeinde"},"district":{"key":"05566","name":"Steinfurt","type":"Kreis"},"federalState":{"key":"05","name":"Nordrhein-Westfalen"}},{"name":"Hegenhausen","postalCode":"37284","locality":"Waldkappel","municipality":{"key":"06636012","name":"Waldkappel, Stadt","type":"Stadt"},"district":{"key":"06636","name":"Werra-Meißner-Kreis","type":"Landkreis"},"federalState":{"key":"06","name":"Hessen"}},{"name":"Heidefeld","postalCode":"49492","locality":"Westerkappeln","municipality":{"key":"05566092","name":"Westerkappeln","type":"Kreisangehörige_Gemeinde"},"district":{"key":"05566","name":"Steinfurt","type":"Kreis"},"federalState":{"key":"05","name":"Nordrhein-Westfalen"}},{"name":"Heidenhof","postalCode":"77876","locality":"Kappelrodeck","municipality":{"key":"08317056","name":"Kappelrodeck","type":"Kreisangehörige_Gemeinde"},"district":{"key":"08317","name":"Ortenaukreis","type":"Landkreis"},"federalState":{"key":"08","name":"Baden-Württemberg"}},{"name":"Heidenhofweg","postalCode":"77876","locality":"Kappelrodeck","municipality":{"key":"08317056","name":"Kappelrodeck","type":"Kreisangehörige_Gemeinde"},"district":{"key":"08317","name":"Ortenaukreis","type":"Landkreis"},"federalState":{"key":"08","name":"Baden-Württemberg"}},{"name":"Heidesiedlung","postalCode":"24376","locality":"Kappeln","municipality":{"key":"01059045","name":"Kappeln, Stadt","type":"Stadt"},"district":{"key":"01059","name":"Schleswig-Flensburg","type":"Kreis"},"federalState":{"key":"01","name":"Schleswig-Holstein"}},{"name":"Heidkamp","postalCode":"49492","locality":"Westerkappeln","municipality":{"key":"05566092","name":"Westerkappeln","type":"Kreisangehörige_Gemeinde"},"district":{"key":"05566","name":"Steinfurt","type":"Kreis"},"federalState":{"key":"05","name":"Nordrhein-Westfalen"}},{"name":"Heinrich-Beiser-Str.","postalCode":"77966","locality":"Kappel-Grafenhausen","municipality":{"key":"08317152","name":"Kappel-Grafenhausen","type":"Kreisangehörige_Gemeinde"},"district":{"key":"08317","name":"Ortenaukreis","type":"Landkreis"},"federalState":{"key":"08","name":"Baden-Württemberg"}},{"name":"Heinrich-Heine-Str.","postalCode":"37284","locality":"Waldkappel","municipality":{"key":"06636012","name":"Waldkappel, Stadt","type":"Stadt"},"district":{"key":"06636","name":"Werra-Meißner-Kreis","type":"Landkreis"},"federalState":{"key":"06","name":"Hessen"}},{"name":"Heinrich-Köster-Str.","postalCode":"24376","locality":"Kappeln","municipality":{"key":"01059045","name":"Kappeln, Stadt","type":"Stadt"},"district":{"key":"01059","name":"Schleswig-Flensburg","type":"Kreis"},"federalState":{"key":"01","name":"Schleswig-Holstein"}},{"name":"Heinrich-Schulte-Str.","postalCode":"49492","locality":"Westerkappeln","municipality":{"key":"05566092","name":"Westerkappeln","type":"Kreisangehörige_Gemeinde"},"district":{"key":"05566","name":"Steinfurt","type":"Kreis"},"federalState":{"key":"05","name":"Nordrhein-Westfalen"}},{"name":"Helgolandstr.","postalCode":"37284","locality":"Waldkappel","municipality":{"key":"06636012","name":"Waldkappel, Stadt","type":"Stadt"},"district":{"key":"06636","name":"Werra-Meißner-Kreis","type":"Landkreis"},"federalState":{"key":"06","name":"Hessen"}},{"name":"Herderstr.","postalCode":"49492","locality":"Westerkappeln","municipality":{"key":"05566092","name":"Westerkappeln","type":"Kreisangehörige_Gemeinde"},"district":{"key":"05566","name":"Steinfurt","type":"Kreis"},"federalState":{"key":"05","name":"Nordrhein-Westfalen"}},{"name":"Herleberg","postalCode":"37284","locality":"Waldkappel","municipality":{"key":"06636012","name":"Waldkappel, Stadt","type":"Stadt"},"district":{"key":"06636","name":"Werra-Meißner-Kreis","type":"Landkreis"},"federalState":{"key":"06","name":"Hessen"}},{"name":"Hermann-Lüpping-Str.","postalCode":"49492","locality":"Westerkappeln","municipality":{"key":"05566092","name":"Westerkappeln","type":"Kreisangehörige_Gemeinde"},"district":{"key":"05566","name":"Steinfurt","type":"Kreis"},"federalState":{"key":"05","name":"Nordrhein-Westfalen"}},{"name":"Hermannstr.","postalCode":"77876","locality":"Kappelrodeck","municipality":{"key":"08317056","name":"Kappelrodeck","type":"Kreisangehörige_Gemeinde"},"district":{"key":"08317","name":"Ortenaukreis","type":"Landkreis"},"federalState":{"key":"08","name":"Baden-Württemberg"}},{"name":"Herrenmatte","postalCode":"77876","locality":"Kappelrodeck","municipality":{"key":"08317056","name":"Kappelrodeck","type":"Kreisangehörige_Gemeinde"},"district":{"key":"08317","name":"Ortenaukreis","type":"Landkreis"},"federalState":{"key":"08","name":"Baden-Württemberg"}},{"name":"Herrenmattweg","postalCode":"77876","locality":"Kappelrodeck","municipality":{"key":"08317056","name":"Kappelrodeck","type":"Kreisangehörige_Gemeinde"},"district":{"key":"08317","name":"Ortenaukreis","type":"Landkreis"},"federalState":{"key":"08","name":"Baden-Württemberg"}},{"name":"Herrenstr.","postalCode":"77876","locality":"Kappelrodeck","municipality":{"key":"08317056","name":"Kappelrodeck","type":"Kreisangehörige_Gemeinde"},"district":{"key":"08317","name":"Ortenaukreis","type":"Landkreis"},"federalState":{"key":"08","name":"Baden-Württemberg"}},{"name":"Hessenweg","postalCode":"37284","locality":"Waldkappel","municipality":{"key":"06636012","name":"Waldkappel, Stadt","type":"Stadt"},"district":{"key":"06636","name":"Werra-Meißner-Kreis","type":"Landkreis"},"federalState":{"key":"06","name":"Hessen"}},{"name":"Hiälweg","postalCode":"49492","locality":"Westerkappeln","municipality":{"key":"05566092","name":"Westerkappeln","type":"Kreisangehörige_Gemeinde"},"district":{"key":"05566","name":"Steinfurt","type":"Kreis"},"federalState":{"key":"05","name":"Nordrhein-Westfalen"}},{"name":"Hildastr.","postalCode":"77966","locality":"Kappel-Grafenhausen","municipality":{"key":"08317152","name":"Kappel-Grafenhausen","type":"Kreisangehörige_Gemeinde"},"district":{"key":"08317","name":"Ortenaukreis","type":"Landkreis"},"federalState":{"key":"08","name":"Baden-Württemberg"}},{"name":"Himbeerweg","postalCode":"77876","locality":"Kappelrodeck","municipality":{"key":"08317056","name":"Kappelrodeck","type":"Kreisangehörige_Gemeinde"},"district":{"key":"08317","name":"Ortenaukreis","type":"Landkreis"},"federalState":{"key":"08","name":"Baden-Württemberg"}},{"name":"Hindenburgstr.","postalCode":"24376","locality":"Kappeln","municipality":{"key":"01059045","name":"Kappeln, Stadt","type":"Stadt"},"district":{"key":"01059","name":"Schleswig-Flensburg","type":"Kreis"},"federalState":{"key":"01","name":"Schleswig-Holstein"}},{"name":"Hindenburgstr.","postalCode":"37284","locality":"Waldkappel","municipality":{"key":"06636012","name":"Waldkappel, Stadt","type":"Stadt"},"district":{"key":"06636","name":"Werra-Meißner-Kreis","type":"Landkreis"},"federalState":{"key":"06","name":"Hessen"}},{"name":"Hinrichsholz","postalCode":"24376","locality":"Kappeln","municipality":{"key":"01059045","name":"Kappeln, Stadt","type":"Stadt"},"district":{"key":"01059","name":"Schleswig-Flensburg","type":"Kreis"},"federalState":{"key":"01","name":"Schleswig-Holstein"}},{"name":"Hinter den Gärten","postalCode":"77966","locality":"Kappel-Grafenhausen","municipality":{"key":"08317152","name":"Kappel-Grafenhausen","type":"Kreisangehörige_Gemeinde"},"district":{"key":"08317","name":"Ortenaukreis","type":"Landkreis"},"federalState":{"key":"08","name":"Baden-Württemberg"}},{"name":"Hinter der Kirche","postalCode":"55483","locality":"Kappel","municipality":{"key":"07140062","name":"Kappel","type":"Kreisangehörige_Gemeinde"},"district":{"key":"07140","name":"Rhein-Hunsrück-Kreis","type":"Landkreis"},"federalState":{"key":"07","name":"Rheinland-Pfalz"}},{"name":"Hintermatt","postalCode":"77876","locality":"Kappelrodeck","municipality":{"key":"08317056","name":"Kappelrodeck","type":"Kreisangehörige_Gemeinde"},"district":{"key":"08317","name":"Ortenaukreis","type":"Landkreis"},"federalState":{"key":"08","name":"Baden-Württemberg"}},{"name":"Hinterm Deich","postalCode":"24376","locality":"Kappeln","municipality":{"key":"01059045","name":"Kappeln, Stadt","type":"Stadt"},"district":{"key":"01059","name":"Schleswig-Flensburg","type":"Kreis"},"federalState":{"key":"01","name":"Schleswig-Holstein"}},{"name":"Hirschbrücke","postalCode":"77876","locality":"Kappelrodeck","municipality":{"key":"08317056","name":"Kappelrodeck","type":"Kreisangehörige_Gemeinde"},"district":{"key":"08317","name":"Ortenaukreis","type":"Landkreis"},"federalState":{"key":"08","name":"Baden-Württemberg"}},{"name":"Hirschrainweg","postalCode":"77955","locality":"Kappel-Grafenhausen","municipality":{"key":"08317152","name":"Kappel-Grafenhausen","type":"Kreisangehörige_Gemeinde"},"district":{"key":"08317","name":"Ortenaukreis","type":"Landkreis"},"federalState":{"key":"08","name":"Baden-Württemberg"}},{"name":"Hirtel","postalCode":"77876","locality":"Kappelrodeck","municipality":{"key":"08317056","name":"Kappelrodeck","type":"Kreisangehörige_Gemeinde"},"district":{"key":"08317","name":"Ortenaukreis","type":"Landkreis"},"federalState":{"key":"08","name":"Baden-Württemberg"}},{"name":"Ibbenbürener Str.","postalCode":"49492","locality":"Westerkappeln","municipality":{"key":"05566092","name":"Westerkappeln","type":"Kreisangehörige_Gemeinde"},"district":{"key":"05566","name":"Steinfurt","type":"Kreis"},"federalState":{"key":"05","name":"Nordrhein-Westfalen"}},{"name":"Ibergstr.","postalCode":"77876","locality":"Kappelrodeck","municipality":{"key":"08317056","name":"Kappelrodeck","type":"Kreisangehörige_Gemeinde"},"district":{"key":"08317","name":"Ortenaukreis","type":"Landkreis"},"federalState":{"key":"08","name":"Baden-Württemberg"}},{"name":"Im Albach","postalCode":"37284","locality":"Waldkappel","municipality":{"key":"06636012","name":"Waldkappel, Stadt","type":"Stadt"},"district":{"key":"06636","name":"Werra-Meißner-Kreis","type":"Landkreis"},"federalState":{"key":"06","name":"Hessen"}},{"name":"Im Alten Dorf","postalCode":"37284","locality":"Waldkappel","municipality":{"key":"06636012","name":"Waldkappel, Stadt","type":"Stadt"},"district":{"key":"06636","name":"Werra-Meißner-Kreis","type":"Landkreis"},"federalState":{"key":"06","name":"Hessen"}},{"name":"Im Dörchen","postalCode":"55483","locality":"Kappel","municipality":{"key":"07140062","name":"Kappel","type":"Kreisangehörige_Gemeinde"},"district":{"key":"07140","name":"Rhein-Hunsrück-Kreis","type":"Landkreis"},"federalState":{"key":"07","name":"Rheinland-Pfalz"}},{"name":"Im Fang","postalCode":"49492","locality":"Westerkappeln","municipality":{"key":"05566092","name":"Westerkappeln","type":"Kreisangehörige_Gemeinde"},"district":{"key":"05566","name":"Steinfurt","type":"Kreis"},"federalState":{"key":"05","name":"Nordrhein-Westfalen"}},{"name":"Im Frohneberg","postalCode":"67744","locality":"Kappeln","municipality":{"key":"07336049","name":"Kappeln","type":"Kreisangehörige_Gemeinde"},"district":{"key":"07336","name":"Kusel","type":"Landkreis"},"federalState":{"key":"07","name":"Rheinland-Pfalz"}},{"name":"Im Gassacker","postalCode":"55483","locality":"Kappel","municipality":{"key":"07140062","name":"Kappel","type":"Kreisangehörige_Gemeinde"},"district":{"key":"07140","name":"Rhein-Hunsrück-Kreis","type":"Landkreis"},"federalState":{"key":"07","name":"Rheinland-Pfalz"}},{"name":"Im Gelltal","postalCode":"37284","locality":"Waldkappel","municipality":{"key":"06636012","name":"Waldkappel, Stadt","type":"Stadt"},"district":{"key":"06636","name":"Werra-Meißner-Kreis","type":"Landkreis"},"federalState":{"key":"06","name":"Hessen"}},{"name":"Im Heisel","postalCode":"49492","locality":"Westerkappeln","municipality":{"key":"05566092","name":"Westerkappeln","type":"Kreisangehörige_Gemeinde"},"district":{"key":"05566","name":"Steinfurt","type":"Kreis"},"federalState":{"key":"05","name":"Nordrhein-Westfalen"}},{"name":"Im Hook","postalCode":"49492","locality":"Westerkappeln","municipality":{"key":"05566092","name":"Westerkappeln","type":"Kreisangehörige_Gemeinde"},"district":{"key":"05566","name":"Steinfurt","type":"Kreis"},"federalState":{"key":"05","name":"Nordrhein-Westfalen"}},{"name":"Im Hubfeld","postalCode":"77966","locality":"Kappel-Grafenhausen","municipality":{"key":"08317152","name":"Kappel-Grafenhausen","type":"Kreisangehörige_Gemeinde"},"district":{"key":"08317","name":"Ortenaukreis","type":"Landkreis"},"federalState":{"key":"08","name":"Baden-Württemberg"}},{"name":"Im Mühlegrün","postalCode":"77966","locality":"Kappel-Grafenhausen","municipality":{"key":"08317152","name":"Kappel-Grafenhausen","type":"Kreisangehörige_Gemeinde"},"district":{"key":"08317","name":"Ortenaukreis","type":"Landkreis"},"federalState":{"key":"08","name":"Baden-Württemberg"}},{"name":"Im Neugländ","postalCode":"77966","locality":"Kappel-Grafenhausen","municipality":{"key":"08317152","name":"Kappel-Grafenhausen","type":"Kreisangehörige_Gemeinde"},"district":{"key":"08317","name":"Ortenaukreis","type":"Landkreis"},"federalState":{"key":"08","name":"Baden-Württemberg"}},{"name":"Im Oberfeld","postalCode":"77966","locality":"Kappel-Grafenhausen","municipality":{"key":"08317152","name":"Kappel-Grafenhausen","type":"Kreisangehörige_Gemeinde"},"district":{"key":"08317","name":"Ortenaukreis","type":"Landkreis"},"federalState":{"key":"08","name":"Baden-Württemberg"}},{"name":"Im Obergarten","postalCode":"77966","locality":"Kappel-Grafenhausen","municipality":{"key":"08317152","name":"Kappel-Grafenhausen","type":"Kreisangehörige_Gemeinde"},"district":{"key":"08317","name":"Ortenaukreis","type":"Landkreis"},"federalState":{"key":"08","name":"Baden-Württemberg"}},{"name":"Im Obstgarten","postalCode":"77876","locality":"Kappelrodeck","municipality":{"key":"08317056","name":"Kappelrodeck","type":"Kreisangehörige_Gemeinde"},"district":{"key":"08317","name":"Ortenaukreis","type":"Landkreis"},"federalState":{"key":"08","name":"Baden-Württemberg"}},{"name":"Im Rimbach","postalCode":"37284","locality":"Waldkappel","municipality":{"key":"06636012","name":"Waldkappel, Stadt","type":"Stadt"},"district":{"key":"06636","name":"Werra-Meißner-Kreis","type":"Landkreis"},"federalState":{"key":"06","name":"Hessen"}},{"name":"Im Schemmerfeld","postalCode":"37284","locality":"Waldkappel","municipality":{"key":"06636012","name":"Waldkappel, Stadt","type":"Stadt"},"district":{"key":"06636","name":"Werra-Meißner-Kreis","type":"Landkreis"},"federalState":{"key":"06","name":"Hessen"}},{"name":"Im Schlag","postalCode":"37284","locality":"Waldkappel","municipality":{"key":"06636012","name":"Waldkappel, Stadt","type":"Stadt"},"district":{"key":"06636","name":"Werra-Meißner-Kreis","type":"Landkreis"},"federalState":{"key":"06","name":"Hessen"}},{"name":"Im Schwengenbach","postalCode":"37284","locality":"Waldkappel","municipality":{"key":"06636012","name":"Waldkappel, Stadt","type":"Stadt"},"district":{"key":"06636","name":"Werra-Meißner-Kreis","type":"Landkreis"},"federalState":{"key":"06","name":"Hessen"}},{"name":"Im Sonnenwinkel","postalCode":"37284","locality":"Waldkappel","municipality":{"key":"06636012","name":"Waldkappel, Stadt","type":"Stadt"},"district":{"key":"06636","name":"Werra-Meißner-Kreis","type":"Landkreis"},"federalState":{"key":"06","name":"Hessen"}},{"name":"Im Teichgarten","postalCode":"37284","locality":"Waldkappel","municipality":{"key":"06636012","name":"Waldkappel, Stadt","type":"Stadt"},"district":{"key":"06636","name":"Werra-Meißner-Kreis","type":"Landkreis"},"federalState":{"key":"06","name":"Hessen"}},{"name":"In den Rittmatten","postalCode":"77966","locality":"Kappel-Grafenhausen","municipality":{"key":"08317152","name":"Kappel-Grafenhausen","type":"Kreisangehörige_Gemeinde"},"district":{"key":"08317","name":"Ortenaukreis","type":"Landkreis"},"federalState":{"key":"08","name":"Baden-Württemberg"}},{"name":"In der Farbe","postalCode":"37284","locality":"Waldkappel","municipality":{"key":"06636012","name":"Waldkappel, Stadt","type":"Stadt"},"district":{"key":"06636","name":"Werra-Meißner-Kreis","type":"Landkreis"},"federalState":{"key":"06","name":"Hessen"}},{"name":"Industriestr.","postalCode":"49492","locality":"Westerkappeln","municipality":{"key":"05566092","name":"Westerkappeln","type":"Kreisangehörige_Gemeinde"},"district":{"key":"05566","name":"Steinfurt","type":"Kreis"},"federalState":{"key":"05","name":"Nordrhein-Westfalen"}},{"name":"Industriestr.","postalCode":"55483","locality":"Kappel","municipality":{"key":"07140062","name":"Kappel","type":"Kreisangehörige_Gemeinde"},"district":{"key":"07140","name":"Rhein-Hunsrück-Kreis","type":"Landkreis"},"federalState":{"key":"07","name":"Rheinland-Pfalz"}},{"name":"Industriestr.","postalCode":"77966","locality":"Kappel-Grafenhausen","municipality":{"key":"08317152","name":"Kappel-Grafenhausen","type":"Kreisangehörige_Gemeinde"},"district":{"key":"08317","name":"Ortenaukreis","type":"Landkreis"},"federalState":{"key":"08","name":"Baden-Württemberg"}},{"name":"Innere Süeskoppel","postalCode":"24376","locality":"Kappeln","municipality":{"key":"01059045","name":"Kappeln, Stadt","type":"Stadt"},"district":{"key":"01059","name":"Schleswig-Flensburg","type":"Kreis"},"federalState":{"key":"01","name":"Schleswig-Holstein"}},{"name":"Isarweg","postalCode":"37284","locality":"Waldkappel","municipality":{"key":"06636012","name":"Waldkappel, Stadt","type":"Stadt"},"district":{"key":"06636","name":"Werra-Meißner-Kreis","type":"Landkreis"},"federalState":{"key":"06","name":"Hessen"}},{"name":"Jahnstr.","postalCode":"37284","locality":"Waldkappel","municipality":{"key":"06636012","name":"Waldkappel, Stadt","type":"Stadt"},"district":{"key":"06636","name":"Werra-Meißner-Kreis","type":"Landkreis"},"federalState":{"key":"06","name":"Hessen"}},{"name":"Jahnstr.","postalCode":"77876","locality":"Kappelrodeck","municipality":{"key":"08317056","name":"Kappelrodeck","type":"Kreisangehörige_Gemeinde"},"district":{"key":"08317","name":"Ortenaukreis","type":"Landkreis"},"federalState":{"key":"08","name":"Baden-Württemberg"}},{"name":"Johannes-Calvin-Str.","postalCode":"49492","locality":"Westerkappeln","municipality":{"key":"05566092","name":"Westerkappeln","type":"Kreisangehörige_Gemeinde"},"district":{"key":"05566","name":"Steinfurt","type":"Kreis"},"federalState":{"key":"05","name":"Nordrhein-Westfalen"}},{"name":"Johann-Peter-Hebel-Str.","postalCode":"77966","locality":"Kappel-Grafenhausen","municipality":{"key":"08317152","name":"Kappel-Grafenhausen","type":"Kreisangehörige_Gemeinde"},"district":{"key":"08317","name":"Ortenaukreis","type":"Landkreis"},"federalState":{"key":"08","name":"Baden-Württemberg"}},{"name":"Juliusstr.","postalCode":"77876","locality":"Kappelrodeck","municipality":{"key":"08317056","name":"Kappelrodeck","type":"Kreisangehörige_Gemeinde"},"district":{"key":"08317","name":"Ortenaukreis","type":"Landkreis"},"federalState":{"key":"08","name":"Baden-Württemberg"}},{"name":"Junkersweg","postalCode":"37284","locality":"Waldkappel","municipality":{"key":"06636012","name":"Waldkappel, Stadt","type":"Stadt"},"district":{"key":"06636","name":"Werra-Meißner-Kreis","type":"Landkreis"},"federalState":{"key":"06","name":"Hessen"}},{"name":"Kampstr.","postalCode":"49492","locality":"Westerkappeln","municipality":{"key":"05566092","name":"Westerkappeln","type":"Kreisangehörige_Gemeinde"},"district":{"key":"05566","name":"Steinfurt","type":"Kreis"},"federalState":{"key":"05","name":"Nordrhein-Westfalen"}},{"name":"Kandelhardtstr.","postalCode":"49492","locality":"Westerkappeln","municipality":{"key":"05566092","name":"Westerkappeln","type":"Kreisangehörige_Gemeinde"},"district":{"key":"05566","name":"Steinfurt","type":"Kreis"},"federalState":{"key":"05","name":"Nordrhein-Westfalen"}},{"name":"Kantstr.","postalCode":"49492","locality":"Westerkappeln","municipality":{"key":"05566092","name":"Westerkappeln","type":"Kreisangehörige_Gemeinde"},"district":{"key":"05566","name":"Steinfurt","type":"Kreis"},"federalState":{"key":"05","name":"Nordrhein-Westfalen"}},{"name":"Kapitänsstr.","postalCode":"24376","locality":"Kappeln","municipality":{"key":"01059045","name":"Kappeln, Stadt","type":"Stadt"},"district":{"key":"01059","name":"Schleswig-Flensburg","type":"Kreis"},"federalState":{"key":"01","name":"Schleswig-Holstein"}},{"name":"Kappelbergweg","postalCode":"77876","locality":"Kappelrodeck","municipality":{"key":"08317056","name":"Kappelrodeck","type":"Kreisangehörige_Gemeinde"},"district":{"key":"08317","name":"Ortenaukreis","type":"Landkreis"},"federalState":{"key":"08","name":"Baden-Württemberg"}},{"name":"Kappelholz","postalCode":"24376","locality":"Kappeln","municipality":{"key":"01059045","name":"Kappeln, Stadt","type":"Stadt"},"district":{"key":"01059","name":"Schleswig-Flensburg","type":"Kreis"},"federalState":{"key":"01","name":"Schleswig-Holstein"}},{"name":"Kappelmatt","postalCode":"77876","locality":"Kappelrodeck","municipality":{"key":"08317056","name":"Kappelrodeck","type":"Kreisangehörige_Gemeinde"},"district":{"key":"08317","name":"Ortenaukreis","type":"Landkreis"},"federalState":{"key":"08","name":"Baden-Württemberg"}},{"name":"Kappler Lochenweg","postalCode":"77955","locality":"Kappel-Grafenhausen","municipality":{"key":"08317152","name":"Kappel-Grafenhausen","type":"Kreisangehörige_Gemeinde"},"district":{"key":"08317","name":"Ortenaukreis","type":"Landkreis"},"federalState":{"key":"08","name":"Baden-Württemberg"}},{"name":"Karlsweg","postalCode":"37284","locality":"Waldkappel","municipality":{"key":"06636012","name":"Waldkappel, Stadt","type":"Stadt"},"district":{"key":"06636","name":"Werra-Meißner-Kreis","type":"Landkreis"},"federalState":{"key":"06","name":"Hessen"}},{"name":"Kasseler Str.","postalCode":"37284","locality":"Waldkappel","municipality":{"key":"06636012","name":"Waldkappel, Stadt","type":"Stadt"},"district":{"key":"06636","name":"Werra-Meißner-Kreis","type":"Landkreis"},"federalState":{"key":"06","name":"Hessen"}},{"name":"Kastanienallee","postalCode":"24376","locality":"Kappeln","municipality":{"key":"01059045","name":"Kappeln, Stadt","type":"Stadt"},"district":{"key":"01059","name":"Schleswig-Flensburg","type":"Kreis"},"federalState":{"key":"01","name":"Schleswig-Holstein"}},{"name":"Kastanienweg","postalCode":"37284","locality":"Waldkappel","municipality":{"key":"06636012","name":"Waldkappel, Stadt","type":"Stadt"},"district":{"key":"06636","name":"Werra-Meißner-Kreis","type":"Landkreis"},"federalState":{"key":"06","name":"Hessen"}},{"name":"Kastanienweg","postalCode":"49492","locality":"Westerkappeln","municipality":{"key":"05566092","name":"Westerkappeln","type":"Kreisangehörige_Gemeinde"},"district":{"key":"05566","name":"Steinfurt","type":"Kreis"},"federalState":{"key":"05","name":"Nordrhein-Westfalen"}},{"name":"Kastanienweg","postalCode":"77876","locality":"Kappelrodeck","municipality":{"key":"08317056","name":"Kappelrodeck","type":"Kreisangehörige_Gemeinde"},"district":{"key":"08317","name":"Ortenaukreis","type":"Landkreis"},"federalState":{"key":"08","name":"Baden-Württemberg"}},{"name":"Kastellauner Str.","postalCode":"55483","locality":"Kappel","municipality":{"key":"07140062","name":"Kappel","type":"Kreisangehörige_Gemeinde"},"district":{"key":"07140","name":"Rhein-Hunsrück-Kreis","type":"Landkreis"},"federalState":{"key":"07","name":"Rheinland-Pfalz"}},{"name":"Katzbach","postalCode":"37284","locality":"Waldkappel","municipality":{"key":"06636012","name":"Waldkappel, Stadt","type":"Stadt"},"district":{"key":"06636","name":"Werra-Meißner-Kreis","type":"Landkreis"},"federalState":{"key":"06","name":"Hessen"}},{"name":"Kay-Nebel-Weg","postalCode":"24376","locality":"Kappeln","municipality":{"key":"01059045","name":"Kappeln, Stadt","type":"Stadt"},"district":{"key":"01059","name":"Schleswig-Flensburg","type":"Kreis"},"federalState":{"key":"01","name":"Schleswig-Holstein"}},{"name":"Keltenweg","postalCode":"77966","locality":"Kappel-Grafenhausen","municipality":{"key":"08317152","name":"Kappel-Grafenhausen","type":"Kreisangehörige_Gemeinde"},"district":{"key":"08317","name":"Ortenaukreis","type":"Landkreis"},"federalState":{"key":"08","name":"Baden-Württemberg"}},{"name":"Kiärkweg","postalCode":"49492","locality":"Westerkappeln","municipality":{"key":"05566092","name":"Westerkappeln","type":"Kreisangehörige_Gemeinde"},"district":{"key":"05566","name":"Steinfurt","type":"Kreis"},"federalState":{"key":"05","name":"Nordrhein-Westfalen"}},{"name":"Kiebitzhöhe","postalCode":"24376","locality":"Kappeln","municipality":{"key":"01059045","name":"Kappeln, Stadt","type":"Stadt"},"district":{"key":"01059","name":"Schleswig-Flensburg","type":"Kreis"},"federalState":{"key":"01","name":"Schleswig-Holstein"}},{"name":"Kiekut","postalCode":"24376","locality":"Kappeln","municipality":{"key":"01059045","name":"Kappeln, Stadt","type":"Stadt"},"district":{"key":"01059","name":"Schleswig-Flensburg","type":"Kreis"},"federalState":{"key":"01","name":"Schleswig-Holstein"}},{"name":"Kieler Str.","postalCode":"24376","locality":"Kappeln","municipality":{"key":"01059045","name":"Kappeln, Stadt","type":"Stadt"},"district":{"key":"01059","name":"Schleswig-Flensburg","type":"Kreis"},"federalState":{"key":"01","name":"Schleswig-Holstein"}},{"name":"Kirchberger Str.","postalCode":"55483","locality":"Kappel","municipality":{"key":"07140062","name":"Kappel","type":"Kreisangehörige_Gemeinde"},"district":{"key":"07140","name":"Rhein-Hunsrück-Kreis","type":"Landkreis"},"federalState":{"key":"07","name":"Rheinland-Pfalz"}},{"name":"Kirchgasse","postalCode":"37284","locality":"Waldkappel","municipality":{"key":"06636012","name":"Waldkappel, Stadt","type":"Stadt"},"district":{"key":"06636","name":"Werra-Meißner-Kreis","type":"Landkreis"},"federalState":{"key":"06","name":"Hessen"}},{"name":"Kirchplatz","postalCode":"37284","locality":"Waldkappel","municipality":{"key":"06636012","name":"Waldkappel, Stadt","type":"Stadt"},"district":{"key":"06636","name":"Werra-Meißner-Kreis","type":"Landkreis"},"federalState":{"key":"06","name":"Hessen"}},{"name":"Kirchstr.","postalCode":"24376","locality":"Kappeln","municipality":{"key":"01059045","name":"Kappeln, Stadt","type":"Stadt"},"district":{"key":"01059","name":"Schleswig-Flensburg","type":"Kreis"},"federalState":{"key":"01","name":"Schleswig-Holstein"}},{"name":"Kirchstr.","postalCode":"49492","locality":"Westerkappeln","municipality":{"key":"05566092","name":"Westerkappeln","type":"Kreisangehörige_Gemeinde"},"district":{"key":"05566","name":"Steinfurt","type":"Kreis"},"federalState":{"key":"05","name":"Nordrhein-Westfalen"}},{"name":"Kirchstr.","postalCode":"77966","locality":"Kappel-Grafenhausen","municipality":{"key":"08317152","name":"Kappel-Grafenhausen","type":"Kreisangehörige_Gemeinde"},"district":{"key":"08317","name":"Ortenaukreis","type":"Landkreis"},"federalState":{"key":"08","name":"Baden-Württemberg"}},{"name":"Kirchweg","postalCode":"77876","locality":"Kappelrodeck","municipality":{"key":"08317056","name":"Kappelrodeck","type":"Kreisangehörige_Gemeinde"},"district":{"key":"08317","name":"Ortenaukreis","type":"Landkreis"},"federalState":{"key":"08","name":"Baden-Württemberg"}},{"name":"Kirschenweg","postalCode":"77876","locality":"Kappelrodeck","municipality":{"key":"08317056","name":"Kappelrodeck","type":"Kreisangehörige_Gemeinde"},"district":{"key":"08317","name":"Ortenaukreis","type":"Landkreis"},"federalState":{"key":"08","name":"Baden-Württemberg"}},{"name":"Kirschenweg","postalCode":"77966","locality":"Kappel-Grafenhausen","municipality":{"key":"08317152","name":"Kappel-Grafenhausen","type":"Kreisangehörige_Gemeinde"},"district":{"key":"08317","name":"Ortenaukreis","type":"Landkreis"},"federalState":{"key":"08","name":"Baden-Württemberg"}},{"name":"Klaus","postalCode":"77876","locality":"Kappelrodeck","municipality":{"key":"08317056","name":"Kappelrodeck","type":"Kreisangehörige_Gemeinde"},"district":{"key":"08317","name":"Ortenaukreis","type":"Landkreis"},"federalState":{"key":"08","name":"Baden-Württemberg"}},{"name":"Klaus-Groth-Str.","postalCode":"24376","locality":"Kappeln","municipality":{"key":"01059045","name":"Kappeln, Stadt","type":"Stadt"},"district":{"key":"01059","name":"Schleswig-Flensburg","type":"Kreis"},"federalState":{"key":"01","name":"Schleswig-Holstein"}},{"name":"Kleefeld","postalCode":"24376","locality":"Kappeln","municipality":{"key":"01059045","name":"Kappeln, Stadt","type":"Stadt"},"district":{"key":"01059","name":"Schleswig-Flensburg","type":"Kreis"},"federalState":{"key":"01","name":"Schleswig-Holstein"}},{"name":"Kleestr.","postalCode":"49492","locality":"Westerkappeln","municipality":{"key":"05566092","name":"Westerkappeln","type":"Kreisangehörige_Gemeinde"},"district":{"key":"05566","name":"Steinfurt","type":"Kreis"},"federalState":{"key":"05","name":"Nordrhein-Westfalen"}},{"name":"Kleinoberfeldstr.","postalCode":"77966","locality":"Kappel-Grafenhausen","municipality":{"key":"08317152","name":"Kappel-Grafenhausen","type":"Kreisangehörige_Gemeinde"},"district":{"key":"08317","name":"Ortenaukreis","type":"Landkreis"},"federalState":{"key":"08","name":"Baden-Württemberg"}},{"name":"Kleinwäldele","postalCode":"77876","locality":"Kappelrodeck","municipality":{"key":"08317056","name":"Kappelrodeck","type":"Kreisangehörige_Gemeinde"},"district":{"key":"08317","name":"Ortenaukreis","type":"Landkreis"},"federalState":{"key":"08","name":"Baden-Württemberg"}},{"name":"Kleiststr.","postalCode":"49492","locality":"Westerkappeln","municipality":{"key":"05566092","name":"Westerkappeln","type":"Kreisangehörige_Gemeinde"},"district":{"key":"05566","name":"Steinfurt","type":"Kreis"},"federalState":{"key":"05","name":"Nordrhein-Westfalen"}},{"name":"Kleistweg","postalCode":"37284","locality":"Waldkappel","municipality":{"key":"06636012","name":"Waldkappel, Stadt","type":"Stadt"},"district":{"key":"06636","name":"Werra-Meißner-Kreis","type":"Landkreis"},"federalState":{"key":"06","name":"Hessen"}},{"name":"Klepper-Weg","postalCode":"49492","locality":"Westerkappeln","municipality":{"key":"05566092","name":"Westerkappeln","type":"Kreisangehörige_Gemeinde"},"district":{"key":"05566","name":"Steinfurt","type":"Kreis"},"federalState":{"key":"05","name":"Nordrhein-Westfalen"}},{"name":"Kludenbacher Str.","postalCode":"55483","locality":"Kappel","municipality":{"key":"07140062","name":"Kappel","type":"Kreisangehörige_Gemeinde"},"district":{"key":"07140","name":"Rhein-Hunsrück-Kreis","type":"Landkreis"},"federalState":{"key":"07","name":"Rheinland-Pfalz"}},{"name":"Kohlweg","postalCode":"77955","locality":"Kappel-Grafenhausen","municipality":{"key":"08317152","name":"Kappel-Grafenhausen","type":"Kreisangehörige_Gemeinde"},"district":{"key":"08317","name":"Ortenaukreis","type":"Landkreis"},"federalState":{"key":"08","name":"Baden-Württemberg"}},{"name":"Kolpingweg","postalCode":"49492","locality":"Westerkappeln","municipality":{"key":"05566092","name":"Westerkappeln","type":"Kreisangehörige_Gemeinde"},"district":{"key":"05566","name":"Steinfurt","type":"Kreis"},"federalState":{"key":"05","name":"Nordrhein-Westfalen"}},{"name":"Königsberger Ring","postalCode":"24376","locality":"Kappeln","municipality":{"key":"01059045","name":"Kappeln, Stadt","type":"Stadt"},"district":{"key":"01059","name":"Schleswig-Flensburg","type":"Kreis"},"federalState":{"key":"01","name":"Schleswig-Holstein"}},{"name":"Königsberger Str.","postalCode":"24376","locality":"Kappeln","municipality":{"key":"01059045","name":"Kappeln, Stadt","type":"Stadt"},"district":{"key":"01059","name":"Schleswig-Flensburg","type":"Kreis"},"federalState":{"key":"01","name":"Schleswig-Holstein"}},{"name":"Königsberger Str.","postalCode":"49492","locality":"Westerkappeln","municipality":{"key":"05566092","name":"Westerkappeln","type":"Kreisangehörige_Gemeinde"},"district":{"key":"05566","name":"Steinfurt","type":"Kreis"},"federalState":{"key":"05","name":"Nordrhein-Westfalen"}},{"name":"Konrottstr.","postalCode":"49492","locality":"Westerkappeln","municipality":{"key":"05566092","name":"Westerkappeln","type":"Kreisangehörige_Gemeinde"},"district":{"key":"05566","name":"Steinfurt","type":"Kreis"},"federalState":{"key":"05","name":"Nordrhein-Westfalen"}},{"name":"Konsul-Lorentzen-Str.","postalCode":"24376","locality":"Kappeln","municipality":{"key":"01059045","name":"Kappeln, Stadt","type":"Stadt"},"district":{"key":"01059","name":"Schleswig-Flensburg","type":"Kreis"},"federalState":{"key":"01","name":"Schleswig-Holstein"}},{"name":"Korbgraben","postalCode":"37284","locality":"Waldkappel","municipality":{"key":"06636012","name":"Waldkappel, Stadt","type":"Stadt"},"district":{"key":"06636","name":"Werra-Meißner-Kreis","type":"Landkreis"},"federalState":{"key":"06","name":"Hessen"}},{"name":"Kortheider Weg","postalCode":"49492","locality":"Westerkappeln","municipality":{"key":"05566092","name":"Westerkappeln","type":"Kreisangehörige_Gemeinde"},"district":{"key":"05566","name":"Steinfurt","type":"Kreis"},"federalState":{"key":"05","name":"Nordrhein-Westfalen"}},{"name":"Laggenbecker Str.","postalCode":"49492","locality":"Westerkappeln","municipality":{"key":"05566092","name":"Westerkappeln","type":"Kreisangehörige_Gemeinde"},"district":{"key":"05566","name":"Steinfurt","type":"Kreis"},"federalState":{"key":"05","name":"Nordrhein-Westfalen"}},{"name":"Landstr.","postalCode":"37284","locality":"Waldkappel","municipality":{"key":"06636012","name":"Waldkappel, Stadt","type":"Stadt"},"district":{"key":"06636","name":"Werra-Meißner-Kreis","type":"Landkreis"},"federalState":{"key":"06","name":"Hessen"}},{"name":"Lange Gasse","postalCode":"37284","locality":"Waldkappel","municipality":{"key":"06636012","name":"Waldkappel, Stadt","type":"Stadt"},"district":{"key":"06636","name":"Werra-Meißner-Kreis","type":"Landkreis"},"federalState":{"key":"06","name":"Hessen"}},{"name":"Langeland","postalCode":"24376","locality":"Kappeln","municipality":{"key":"01059045","name":"Kappeln, Stadt","type":"Stadt"},"district":{"key":"01059","name":"Schleswig-Flensburg","type":"Kreis"},"federalState":{"key":"01","name":"Schleswig-Holstein"}},{"name":"Langenberg","postalCode":"77876","locality":"Kappelrodeck","municipality":{"key":"08317056","name":"Kappelrodeck","type":"Kreisangehörige_Gemeinde"},"district":{"key":"08317","name":"Ortenaukreis","type":"Landkreis"},"federalState":{"key":"08","name":"Baden-Württemberg"}},{"name":"Langenbrücker Str.","postalCode":"49492","locality":"Westerkappeln","municipality":{"key":"05566092","name":"Westerkappeln","type":"Kreisangehörige_Gemeinde"},"district":{"key":"05566","name":"Steinfurt","type":"Kreis"},"federalState":{"key":"05","name":"Nordrhein-Westfalen"}},{"name":"Langfurch","postalCode":"77876","locality":"Kappelrodeck","municipality":{"key":"08317056","name":"Kappelrodeck","type":"Kreisangehörige_Gemeinde"},"district":{"key":"08317","name":"Ortenaukreis","type":"Landkreis"},"federalState":{"key":"08","name":"Baden-Württemberg"}},{"name":"Lärchenweg","postalCode":"77876","locality":"Kappelrodeck","municipality":{"key":"08317056","name":"Kappelrodeck","type":"Kreisangehörige_Gemeinde"},"district":{"key":"08317","name":"Ortenaukreis","type":"Landkreis"},"federalState":{"key":"08","name":"Baden-Württemberg"}},{"name":"Lehmkaute","postalCode":"37284","locality":"Waldkappel","municipality":{"key":"06636012","name":"Waldkappel, Stadt","type":"Stadt"},"district":{"key":"06636","name":"Werra-Meißner-Kreis","type":"Landkreis"},"federalState":{"key":"06","name":"Hessen"}},{"name":"Leidenecker Str.","postalCode":"55483","locality":"Kappel","municipality":{"key":"07140062","name":"Kappel","type":"Kreisangehörige_Gemeinde"},"district":{"key":"07140","name":"Rhein-Hunsrück-Kreis","type":"Landkreis"},"federalState":{"key":"07","name":"Rheinland-Pfalz"}},{"name":"Leipziger Str.","postalCode":"37284","locality":"Waldkappel","municipality":{"key":"06636012","name":"Waldkappel, Stadt","type":"Stadt"},"district":{"key":"06636","name":"Werra-Meißner-Kreis","type":"Landkreis"},"federalState":{"key":"06","name":"Hessen"}},{"name":"Leonard-Linkow-Str.","postalCode":"77966","locality":"Kappel-Grafenhausen","municipality":{"key":"08317152","name":"Kappel-Grafenhausen","type":"Kreisangehörige_Gemeinde"},"district":{"key":"08317","name":"Ortenaukreis","type":"Landkreis"},"federalState":{"key":"08","name":"Baden-Württemberg"}},{"name":"Lerchenweg","postalCode":"24376","locality":"Kappeln","municipality":{"key":"01059045","name":"Kappeln, Stadt","type":"Stadt"},"district":{"key":"01059","name":"Schleswig-Flensburg","type":"Kreis"},"federalState":{"key":"01","name":"Schleswig-Holstein"}},{"name":"Lerchenweg","postalCode":"37284","locality":"Waldkappel","municipality":{"key":"06636012","name":"Waldkappel, Stadt","type":"Stadt"},"district":{"key":"06636","name":"Werra-Meißner-Kreis","type":"Landkreis"},"federalState":{"key":"06","name":"Hessen"}},{"name":"Lerchenweg","postalCode":"49492","locality":"Westerkappeln","municipality":{"key":"05566092","name":"Westerkappeln","type":"Kreisangehörige_Gemeinde"},"district":{"key":"05566","name":"Steinfurt","type":"Kreis"},"federalState":{"key":"05","name":"Nordrhein-Westfalen"}},{"name":"Lessingstr.","postalCode":"37284","locality":"Waldkappel","municipality":{"key":"06636012","name":"Waldkappel, Stadt","type":"Stadt"},"district":{"key":"06636","name":"Werra-Meißner-Kreis","type":"Landkreis"},"federalState":{"key":"06","name":"Hessen"}},{"name":"Lessingstr.","postalCode":"49492","locality":"Westerkappeln","municipality":{"key":"05566092","name":"Westerkappeln","type":"Kreisangehörige_Gemeinde"},"district":{"key":"05566","name":"Steinfurt","type":"Kreis"},"federalState":{"key":"05","name":"Nordrhein-Westfalen"}},{"name":"Lessingstr.","postalCode":"77966","locality":"Kappel-Grafenhausen","municipality":{"key":"08317152","name":"Kappel-Grafenhausen","type":"Kreisangehörige_Gemeinde"},"district":{"key":"08317","name":"Ortenaukreis","type":"Landkreis"},"federalState":{"key":"08","name":"Baden-Württemberg"}},{"name":"Liebermannweg","postalCode":"37284","locality":"Waldkappel","municipality":{"key":"06636012","name":"Waldkappel, Stadt","type":"Stadt"},"district":{"key":"06636","name":"Werra-Meißner-Kreis","type":"Landkreis"},"federalState":{"key":"06","name":"Hessen"}},{"name":"Liebigweg","postalCode":"37284","locality":"Waldkappel","municipality":{"key":"06636012","name":"Waldkappel, Stadt","type":"Stadt"},"district":{"key":"06636","name":"Werra-Meißner-Kreis","type":"Landkreis"},"federalState":{"key":"06","name":"Hessen"}},{"name":"Lilienstr.","postalCode":"37284","locality":"Waldkappel","municipality":{"key":"06636012","name":"Waldkappel, Stadt","type":"Stadt"},"district":{"key":"06636","name":"Werra-Meißner-Kreis","type":"Landkreis"},"federalState":{"key":"06","name":"Hessen"}},{"name":"Lindenstr.","postalCode":"49492","locality":"Westerkappeln","municipality":{"key":"05566092","name":"Westerkappeln","type":"Kreisangehörige_Gemeinde"},"district":{"key":"05566","name":"Steinfurt","type":"Kreis"},"federalState":{"key":"05","name":"Nordrhein-Westfalen"}},{"name":"Lindenweg","postalCode":"24376","locality":"Kappeln","municipality":{"key":"01059045","name":"Kappeln, Stadt","type":"Stadt"},"district":{"key":"01059","name":"Schleswig-Flensburg","type":"Kreis"},"federalState":{"key":"01","name":"Schleswig-Holstein"}},{"name":"Lindenweg","postalCode":"37284","locality":"Waldkappel","municipality":{"key":"06636012","name":"Waldkappel, Stadt","type":"Stadt"},"district":{"key":"06636","name":"Werra-Meißner-Kreis","type":"Landkreis"},"federalState":{"key":"06","name":"Hessen"}},{"name":"Lohplatz","postalCode":"37284","locality":"Waldkappel","municipality":{"key":"06636012","name":"Waldkappel, Stadt","type":"Stadt"},"district":{"key":"06636","name":"Werra-Meißner-Kreis","type":"Landkreis"},"federalState":{"key":"06","name":"Hessen"}},{"name":"Loitmarkfeld","postalCode":"24376","locality":"Kappeln","municipality":{"key":"01059045","name":"Kappeln, Stadt","type":"Stadt"},"district":{"key":"01059","name":"Schleswig-Flensburg","type":"Kreis"},"federalState":{"key":"01","name":"Schleswig-Holstein"}},{"name":"Lönsweg","postalCode":"37284","locality":"Waldkappel","municipality":{"key":"06636012","name":"Waldkappel, Stadt","type":"Stadt"},"district":{"key":"06636","name":"Werra-Meißner-Kreis","type":"Landkreis"},"federalState":{"key":"06","name":"Hessen"}},{"name":"Lotsengarten","postalCode":"24404","locality":"Kappeln","municipality":{"key":"01059045","name":"Kappeln, Stadt","type":"Stadt"},"district":{"key":"01059","name":"Schleswig-Flensburg","type":"Kreis"},"federalState":{"key":"01","name":"Schleswig-Holstein"}},{"name":"Lotsenweg","postalCode":"24376","locality":"Kappeln","municipality":{"key":"01059045","name":"Kappeln, Stadt","type":"Stadt"},"district":{"key":"01059","name":"Schleswig-Flensburg","type":"Kreis"},"federalState":{"key":"01","name":"Schleswig-Holstein"}},{"name":"Lotter Str.","postalCode":"49492","locality":"Westerkappeln","municipality":{"key":"05566092","name":"Westerkappeln","type":"Kreisangehörige_Gemeinde"},"district":{"key":"05566","name":"Steinfurt","type":"Kreis"},"federalState":{"key":"05","name":"Nordrhein-Westfalen"}},{"name":"Löwenstr.","postalCode":"77966","locality":"Kappel-Grafenhausen","municipality":{"key":"08317152","name":"Kappel-Grafenhausen","type":"Kreisangehörige_Gemeinde"},"district":{"key":"08317","name":"Ortenaukreis","type":"Landkreis"},"federalState":{"key":"08","name":"Baden-Württemberg"}},{"name":"Ludwig-Hinrichsen-Str.","postalCode":"24376","locality":"Kappeln","municipality":{"key":"01059045","name":"Kappeln, Stadt","type":"Stadt"},"district":{"key":"01059","name":"Schleswig-Flensburg","type":"Kreis"},"federalState":{"key":"01","name":"Schleswig-Holstein"}},{"name":"Luisenstr.","postalCode":"77966","locality":"Kappel-Grafenhausen","municipality":{"key":"08317152","name":"Kappel-Grafenhausen","type":"Kreisangehörige_Gemeinde"},"district":{"key":"08317","name":"Ortenaukreis","type":"Landkreis"},"federalState":{"key":"08","name":"Baden-Württemberg"}},{"name":"Lullusstr.","postalCode":"37284","locality":"Waldkappel","municipality":{"key":"06636012","name":"Waldkappel, Stadt","type":"Stadt"},"district":{"key":"06636","name":"Werra-Meißner-Kreis","type":"Landkreis"},"federalState":{"key":"06","name":"Hessen"}},{"name":"Lusthof","postalCode":"24376","locality":"Kappeln","municipality":{"key":"01059045","name":"Kappeln, Stadt","type":"Stadt"},"district":{"key":"01059","name":"Schleswig-Flensburg","type":"Kreis"},"federalState":{"key":"01","name":"Schleswig-Holstein"}},{"name":"Lüttfelder Platz","postalCode":"24376","locality":"Kappeln","municipality":{"key":"01059045","name":"Kappeln, Stadt","type":"Stadt"},"district":{"key":"01059","name":"Schleswig-Flensburg","type":"Kreis"},"federalState":{"key":"01","name":"Schleswig-Holstein"}},{"name":"Lüttfelder Ring","postalCode":"24376","locality":"Kappeln","municipality":{"key":"01059045","name":"Kappeln, Stadt","type":"Stadt"},"district":{"key":"01059","name":"Schleswig-Flensburg","type":"Kreis"},"federalState":{"key":"01","name":"Schleswig-Holstein"}},{"name":"Lüttfelder Str.","postalCode":"24376","locality":"Kappeln","municipality":{"key":"01059045","name":"Kappeln, Stadt","type":"Stadt"},"district":{"key":"01059","name":"Schleswig-Flensburg","type":"Kreis"},"federalState":{"key":"01","name":"Schleswig-Holstein"}},{"name":"Lutzenstr.","postalCode":"77876","locality":"Kappelrodeck","municipality":{"key":"08317056","name":"Kappelrodeck","type":"Kreisangehörige_Gemeinde"},"district":{"key":"08317","name":"Ortenaukreis","type":"Landkreis"},"federalState":{"key":"08","name":"Baden-Württemberg"}},{"name":"Margeritenweg","postalCode":"37284","locality":"Waldkappel","municipality":{"key":"06636012","name":"Waldkappel, Stadt","type":"Stadt"},"district":{"key":"06636","name":"Werra-Meißner-Kreis","type":"Landkreis"},"federalState":{"key":"06","name":"Hessen"}},{"name":"Marktstr.","postalCode":"24376","locality":"Kappeln","municipality":{"key":"01059045","name":"Kappeln, Stadt","type":"Stadt"},"district":{"key":"01059","name":"Schleswig-Flensburg","type":"Kreis"},"federalState":{"key":"01","name":"Schleswig-Holstein"}},{"name":"Martin-Luther-Str.","postalCode":"49492","locality":"Westerkappeln","municipality":{"key":"05566092","name":"Westerkappeln","type":"Kreisangehörige_Gemeinde"},"district":{"key":"05566","name":"Steinfurt","type":"Kreis"},"federalState":{"key":"05","name":"Nordrhein-Westfalen"}},{"name":"Max-Planck-Str.","postalCode":"37284","locality":"Waldkappel","municipality":{"key":"06636012","name":"Waldkappel, Stadt","type":"Stadt"},"district":{"key":"06636","name":"Werra-Meißner-Kreis","type":"Landkreis"},"federalState":{"key":"06","name":"Hessen"}},{"name":"Mehlbydiek","postalCode":"24376","locality":"Kappeln","municipality":{"key":"01059045","name":"Kappeln, Stadt","type":"Stadt"},"district":{"key":"01059","name":"Schleswig-Flensburg","type":"Kreis"},"federalState":{"key":"01","name":"Schleswig-Holstein"}},{"name":"Meisenweg","postalCode":"37284","locality":"Waldkappel","municipality":{"key":"06636012","name":"Waldkappel, Stadt","type":"Stadt"},"district":{"key":"06636","name":"Werra-Meißner-Kreis","type":"Landkreis"},"federalState":{"key":"06","name":"Hessen"}},{"name":"Meißnerstr.","postalCode":"37284","locality":"Waldkappel","municipality":{"key":"06636012","name":"Waldkappel, Stadt","type":"Stadt"},"district":{"key":"06636","name":"Werra-Meißner-Kreis","type":"Landkreis"},"federalState":{"key":"06","name":"Hessen"}},{"name":"Mellwiesenstr.","postalCode":"37284","locality":"Waldkappel","municipality":{"key":"06636012","name":"Waldkappel, Stadt","type":"Stadt"},"district":{"key":"06636","name":"Werra-Meißner-Kreis","type":"Landkreis"},"federalState":{"key":"06","name":"Hessen"}},{"name":"Memeler Str.","postalCode":"24376","locality":"Kappeln","municipality":{"key":"01059045","name":"Kappeln, Stadt","type":"Stadt"},"district":{"key":"01059","name":"Schleswig-Flensburg","type":"Kreis"},"federalState":{"key":"01","name":"Schleswig-Holstein"}},{"name":"Memelweg","postalCode":"37284","locality":"Waldkappel","municipality":{"key":"06636012","name":"Waldkappel, Stadt","type":"Stadt"},"district":{"key":"06636","name":"Werra-Meißner-Kreis","type":"Landkreis"},"federalState":{"key":"06","name":"Hessen"}},{"name":"Meratebogen","postalCode":"24376","locality":"Kappeln","municipality":{"key":"01059045","name":"Kappeln, Stadt","type":"Stadt"},"district":{"key":"01059","name":"Schleswig-Flensburg","type":"Kreis"},"federalState":{"key":"01","name":"Schleswig-Holstein"}},{"name":"Mettener Str.","postalCode":"49492","locality":"Westerkappeln","municipality":{"key":"05566092","name":"Westerkappeln","type":"Kreisangehörige_Gemeinde"},"district":{"key":"05566","name":"Steinfurt","type":"Kreis"},"federalState":{"key":"05","name":"Nordrhein-Westfalen"}},{"name":"Mettinger Str.","postalCode":"49492","locality":"Westerkappeln","municipality":{"key":"05566092","name":"Westerkappeln","type":"Kreisangehörige_Gemeinde"},"district":{"key":"05566","name":"Steinfurt","type":"Kreis"},"federalState":{"key":"05","name":"Nordrhein-Westfalen"}},{"name":"Mirabellenweg","postalCode":"77966","locality":"Kappel-Grafenhausen","municipality":{"key":"08317152","name":"Kappel-Grafenhausen","type":"Kreisangehörige_Gemeinde"},"district":{"key":"08317","name":"Ortenaukreis","type":"Landkreis"},"federalState":{"key":"08","name":"Baden-Württemberg"}},{"name":"Mittelgasse","postalCode":"37284","locality":"Waldkappel","municipality":{"key":"06636012","name":"Waldkappel, Stadt","type":"Stadt"},"district":{"key":"06636","name":"Werra-Meißner-Kreis","type":"Landkreis"},"federalState":{"key":"06","name":"Hessen"}},{"name":"Mittelstr.","postalCode":"24376","locality":"Kappeln","municipality":{"key":"01059045","name":"Kappeln, Stadt","type":"Stadt"},"district":{"key":"01059","name":"Schleswig-Flensburg","type":"Kreis"},"federalState":{"key":"01","name":"Schleswig-Holstein"}},{"name":"Morgensternstr.","postalCode":"49492","locality":"Westerkappeln","municipality":{"key":"05566092","name":"Westerkappeln","type":"Kreisangehörige_Gemeinde"},"district":{"key":"05566","name":"Steinfurt","type":"Kreis"},"federalState":{"key":"05","name":"Nordrhein-Westfalen"}},{"name":"Mösbacher Höf","postalCode":"77876","locality":"Kappelrodeck","municipality":{"key":"08317056","name":"Kappelrodeck","type":"Kreisangehörige_Gemeinde"},"district":{"key":"08317","name":"Ortenaukreis","type":"Landkreis"},"federalState":{"key":"08","name":"Baden-Württemberg"}},{"name":"Moselweg","postalCode":"37284","locality":"Waldkappel","municipality":{"key":"06636012","name":"Waldkappel, Stadt","type":"Stadt"},"district":{"key":"06636","name":"Werra-Meißner-Kreis","type":"Landkreis"},"federalState":{"key":"06","name":"Hessen"}},{"name":"Mühlenbach","postalCode":"77876","locality":"Kappelrodeck","municipality":{"key":"08317056","name":"Kappelrodeck","type":"Kreisangehörige_Gemeinde"},"district":{"key":"08317","name":"Ortenaukreis","type":"Landkreis"},"federalState":{"key":"08","name":"Baden-Württemberg"}},{"name":"Mühlenstr.","postalCode":"24376","locality":"Kappeln","municipality":{"key":"01059045","name":"Kappeln, Stadt","type":"Stadt"},"district":{"key":"01059","name":"Schleswig-Flensburg","type":"Kreis"},"federalState":{"key":"01","name":"Schleswig-Holstein"}},{"name":"Mühlenstr.","postalCode":"37284","locality":"Waldkappel","municipality":{"key":"06636012","name":"Waldkappel, Stadt","type":"Stadt"},"district":{"key":"06636","name":"Werra-Meißner-Kreis","type":"Landkreis"},"federalState":{"key":"06","name":"Hessen"}},{"name":"Mühlenstr.","postalCode":"77966","locality":"Kappel-Grafenhausen","municipality":{"key":"08317152","name":"Kappel-Grafenhausen","type":"Kreisangehörige_Gemeinde"},"district":{"key":"08317","name":"Ortenaukreis","type":"Landkreis"},"federalState":{"key":"08","name":"Baden-Württemberg"}},{"name":"Mühlweg","postalCode":"37284","locality":"Waldkappel","municipality":{"key":"06636012","name":"Waldkappel, Stadt","type":"Stadt"},"district":{"key":"06636","name":"Werra-Meißner-Kreis","type":"Landkreis"},"federalState":{"key":"06","name":"Hessen"}},{"name":"Münstergrabenweg","postalCode":"77955","locality":"Kappel-Grafenhausen","municipality":{"key":"08317152","name":"Kappel-Grafenhausen","type":"Kreisangehörige_Gemeinde"},"district":{"key":"08317","name":"Ortenaukreis","type":"Landkreis"},"federalState":{"key":"08","name":"Baden-Württemberg"}},{"name":"Mürwiker Str.","postalCode":"24376","locality":"Kappeln","municipality":{"key":"01059045","name":"Kappeln, Stadt","type":"Stadt"},"district":{"key":"01059","name":"Schleswig-Flensburg","type":"Kreis"},"federalState":{"key":"01","name":"Schleswig-Holstein"}},{"name":"Narzissenweg","postalCode":"37284","locality":"Waldkappel","municipality":{"key":"06636012","name":"Waldkappel, Stadt","type":"Stadt"},"district":{"key":"06636","name":"Werra-Meißner-Kreis","type":"Landkreis"},"federalState":{"key":"06","name":"Hessen"}},{"name":"Neckarweg","postalCode":"37284","locality":"Waldkappel","municipality":{"key":"06636012","name":"Waldkappel, Stadt","type":"Stadt"},"district":{"key":"06636","name":"Werra-Meißner-Kreis","type":"Landkreis"},"federalState":{"key":"06","name":"Hessen"}},{"name":"Neißeweg","postalCode":"37284","locality":"Waldkappel","municipality":{"key":"06636012","name":"Waldkappel, Stadt","type":"Stadt"},"district":{"key":"06636","name":"Werra-Meißner-Kreis","type":"Landkreis"},"federalState":{"key":"06","name":"Hessen"}},{"name":"Nelkenweg","postalCode":"37284","locality":"Waldkappel","municipality":{"key":"06636012","name":"Waldkappel, Stadt","type":"Stadt"},"district":{"key":"06636","name":"Werra-Meißner-Kreis","type":"Landkreis"},"federalState":{"key":"06","name":"Hessen"}},{"name":"Nelkenweg","postalCode":"77876","locality":"Kappelrodeck","municipality":{"key":"08317056","name":"Kappelrodeck","type":"Kreisangehörige_Gemeinde"},"district":{"key":"08317","name":"Ortenaukreis","type":"Landkreis"},"federalState":{"key":"08","name":"Baden-Württemberg"}},{"name":"Neuheim","postalCode":"24376","locality":"Kappeln","municipality":{"key":"01059045","name":"Kappeln, Stadt","type":"Stadt"},"district":{"key":"01059","name":"Schleswig-Flensburg","type":"Kreis"},"federalState":{"key":"01","name":"Schleswig-Holstein"}},{"name":"Neukappeln","postalCode":"24376","locality":"Kappeln","municipality":{"key":"01059045","name":"Kappeln, Stadt","type":"Stadt"},"district":{"key":"01059","name":"Schleswig-Flensburg","type":"Kreis"},"federalState":{"key":"01","name":"Schleswig-Holstein"}},{"name":"Neumarkt","postalCode":"24376","locality":"Kappeln","municipality":{"key":"01059045","name":"Kappeln, Stadt","type":"Stadt"},"district":{"key":"01059","name":"Schleswig-Flensburg","type":"Kreis"},"federalState":{"key":"01","name":"Schleswig-Holstein"}},{"name":"Neuritti","postalCode":"77966","locality":"Kappel-Grafenhausen","municipality":{"key":"08317152","name":"Kappel-Grafenhausen","type":"Kreisangehörige_Gemeinde"},"district":{"key":"08317","name":"Ortenaukreis","type":"Landkreis"},"federalState":{"key":"08","name":"Baden-Württemberg"}},{"name":"Neustädter Str.","postalCode":"24376","locality":"Kappeln","municipality":{"key":"01059045","name":"Kappeln, Stadt","type":"Stadt"},"district":{"key":"01059","name":"Schleswig-Flensburg","type":"Kreis"},"federalState":{"key":"01","name":"Schleswig-Holstein"}},{"name":"Neustädter Str.","postalCode":"49492","locality":"Westerkappeln","municipality":{"key":"05566092","name":"Westerkappeln","type":"Kreisangehörige_Gemeinde"},"district":{"key":"05566","name":"Steinfurt","type":"Kreis"},"federalState":{"key":"05","name":"Nordrhein-Westfalen"}},{"name":"Niederdorf","postalCode":"49492","locality":"Westerkappeln","municipality":{"key":"05566092","name":"Westerkappeln","type":"Kreisangehörige_Gemeinde"},"district":{"key":"05566","name":"Steinfurt","type":"Kreis"},"federalState":{"key":"05","name":"Nordrhein-Westfalen"}},{"name":"Nordend","postalCode":"77966","locality":"Kappel-Grafenhausen","municipality":{"key":"08317152","name":"Kappel-Grafenhausen","type":"Kreisangehörige_Gemeinde"},"district":{"key":"08317","name":"Ortenaukreis","type":"Landkreis"},"federalState":{"key":"08","name":"Baden-Württemberg"}},{"name":"Nordstr.","postalCode":"24376","locality":"Kappeln","municipality":{"key":"01059045","name":"Kappeln, Stadt","type":"Stadt"},"district":{"key":"01059","name":"Schleswig-Flensburg","type":"Kreis"},"federalState":{"key":"01","name":"Schleswig-Holstein"}},{"name":"Nordstr.","postalCode":"37284","locality":"Waldkappel","municipality":{"key":"06636012","name":"Waldkappel, Stadt","type":"Stadt"},"district":{"key":"06636","name":"Werra-Meißner-Kreis","type":"Landkreis"},"federalState":{"key":"06","name":"Hessen"}},{"name":"Oberberg","postalCode":"77876","locality":"Kappelrodeck","municipality":{"key":"08317056","name":"Kappelrodeck","type":"Kreisangehörige_Gemeinde"},"district":{"key":"08317","name":"Ortenaukreis","type":"Landkreis"},"federalState":{"key":"08","name":"Baden-Württemberg"}},{"name":"Oberdorf","postalCode":"49492","locality":"Westerkappeln","municipality":{"key":"05566092","name":"Westerkappeln","type":"Kreisangehörige_Gemeinde"},"district":{"key":"05566","name":"Steinfurt","type":"Kreis"},"federalState":{"key":"05","name":"Nordrhein-Westfalen"}},{"name":"Oberdorf","postalCode":"67744","locality":"Kappeln","municipality":{"key":"07336049","name":"Kappeln","type":"Kreisangehörige_Gemeinde"},"district":{"key":"07336","name":"Kusel","type":"Landkreis"},"federalState":{"key":"07","name":"Rheinland-Pfalz"}},{"name":"Obere Ibachgasse","postalCode":"77876","locality":"Kappelrodeck","municipality":{"key":"08317056","name":"Kappelrodeck","type":"Kreisangehörige_Gemeinde"},"district":{"key":"08317","name":"Ortenaukreis","type":"Landkreis"},"federalState":{"key":"08","name":"Baden-Württemberg"}},{"name":"Oberer Schönbühlweg","postalCode":"77955","locality":"Kappel-Grafenhausen","municipality":{"key":"08317152","name":"Kappel-Grafenhausen","type":"Kreisangehörige_Gemeinde"},"district":{"key":"08317","name":"Ortenaukreis","type":"Landkreis"},"federalState":{"key":"08","name":"Baden-Württemberg"}},{"name":"Obere Widigstr.","postalCode":"77876","locality":"Kappelrodeck","municipality":{"key":"08317056","name":"Kappelrodeck","type":"Kreisangehörige_Gemeinde"},"district":{"key":"08317","name":"Ortenaukreis","type":"Landkreis"},"federalState":{"key":"08","name":"Baden-Württemberg"}},{"name":"Obergasse","postalCode":"37284","locality":"Waldkappel","municipality":{"key":"06636012","name":"Waldkappel, Stadt","type":"Stadt"},"district":{"key":"06636","name":"Werra-Meißner-Kreis","type":"Landkreis"},"federalState":{"key":"06","name":"Hessen"}},{"name":"Oberweg","postalCode":"37284","locality":"Waldkappel","municipality":{"key":"06636012","name":"Waldkappel, Stadt","type":"Stadt"},"district":{"key":"06636","name":"Werra-Meißner-Kreis","type":"Landkreis"},"federalState":{"key":"06","name":"Hessen"}},{"name":"Obstlehrpfad","postalCode":"77876","locality":"Kappelrodeck","municipality":{"key":"08317056","name":"Kappelrodeck","type":"Kreisangehörige_Gemeinde"},"district":{"key":"08317","name":"Ortenaukreis","type":"Landkreis"},"federalState":{"key":"08","name":"Baden-Württemberg"}},{"name":"Oderweg","postalCode":"37284","locality":"Waldkappel","municipality":{"key":"06636012","name":"Waldkappel, Stadt","type":"Stadt"},"district":{"key":"06636","name":"Werra-Meißner-Kreis","type":"Landkreis"},"federalState":{"key":"06","name":"Hessen"}},{"name":"Olpenitzer Dorfstr.","postalCode":"24376","locality":"Kappeln","municipality":{"key":"01059045","name":"Kappeln, Stadt","type":"Stadt"},"district":{"key":"01059","name":"Schleswig-Flensburg","type":"Kreis"},"federalState":{"key":"01","name":"Schleswig-Holstein"}},{"name":"Olperör Weg","postalCode":"24376","locality":"Kappeln","municipality":{"key":"01059045","name":"Kappeln, Stadt","type":"Stadt"},"district":{"key":"01059","name":"Schleswig-Flensburg","type":"Kreis"},"federalState":{"key":"01","name":"Schleswig-Holstein"}},{"name":"Orschweiererweg","postalCode":"77966","locality":"Kappel-Grafenhausen","municipality":{"key":"08317152","name":"Kappel-Grafenhausen","type":"Kreisangehörige_Gemeinde"},"district":{"key":"08317","name":"Ortenaukreis","type":"Landkreis"},"federalState":{"key":"08","name":"Baden-Württemberg"}},{"name":"Ortfeld","postalCode":"49492","locality":"Westerkappeln","municipality":{"key":"05566092","name":"Westerkappeln","type":"Kreisangehörige_Gemeinde"},"district":{"key":"05566","name":"Steinfurt","type":"Kreis"},"federalState":{"key":"05","name":"Nordrhein-Westfalen"}},{"name":"Osnabrücker Str.","postalCode":"49492","locality":"Westerkappeln","municipality":{"key":"05566092","name":"Westerkappeln","type":"Kreisangehörige_Gemeinde"},"district":{"key":"05566","name":"Steinfurt","type":"Kreis"},"federalState":{"key":"05","name":"Nordrhein-Westfalen"}},{"name":"Ossenrüher Weg","postalCode":"24376","locality":"Kappeln","municipality":{"key":"01059045","name":"Kappeln, Stadt","type":"Stadt"},"district":{"key":"01059","name":"Schleswig-Flensburg","type":"Kreis"},"federalState":{"key":"01","name":"Schleswig-Holstein"}},{"name":"Ostpreußenstr.","postalCode":"49492","locality":"Westerkappeln","municipality":{"key":"05566092","name":"Westerkappeln","type":"Kreisangehörige_Gemeinde"},"district":{"key":"05566","name":"Steinfurt","type":"Kreis"},"federalState":{"key":"05","name":"Nordrhein-Westfalen"}},{"name":"Ostseeallee","postalCode":"24376","locality":"Kappeln","municipality":{"key":"01059045","name":"Kappeln, Stadt","type":"Stadt"},"district":{"key":"01059","name":"Schleswig-Flensburg","type":"Kreis"},"federalState":{"key":"01","name":"Schleswig-Holstein"}},{"name":"Ostseestr.","postalCode":"24376","locality":"Kappeln","municipality":{"key":"01059045","name":"Kappeln, Stadt","type":"Stadt"},"district":{"key":"01059","name":"Schleswig-Flensburg","type":"Kreis"},"federalState":{"key":"01","name":"Schleswig-Holstein"}},{"name":"Otto-Hahn-Str.","postalCode":"37284","locality":"Waldkappel","municipality":{"key":"06636012","name":"Waldkappel, Stadt","type":"Stadt"},"district":{"key":"06636","name":"Werra-Meißner-Kreis","type":"Landkreis"},"federalState":{"key":"06","name":"Hessen"}},{"name":"Paduaweg","postalCode":"24376","locality":"Kappeln","municipality":{"key":"01059045","name":"Kappeln, Stadt","type":"Stadt"},"district":{"key":"01059","name":"Schleswig-Flensburg","type":"Kreis"},"federalState":{"key":"01","name":"Schleswig-Holstein"}},{"name":"Pamirweg","postalCode":"24376","locality":"Kappeln","municipality":{"key":"01059045","name":"Kappeln, Stadt","type":"Stadt"},"district":{"key":"01059","name":"Schleswig-Flensburg","type":"Kreis"},"federalState":{"key":"01","name":"Schleswig-Holstein"}},{"name":"Paradiesweg","postalCode":"49492","locality":"Westerkappeln","municipality":{"key":"05566092","name":"Westerkappeln","type":"Kreisangehörige_Gemeinde"},"district":{"key":"05566","name":"Steinfurt","type":"Kreis"},"federalState":{"key":"05","name":"Nordrhein-Westfalen"}},{"name":"Passatweg","postalCode":"24376","locality":"Kappeln","municipality":{"key":"01059045","name":"Kappeln, Stadt","type":"Stadt"},"district":{"key":"01059","name":"Schleswig-Flensburg","type":"Kreis"},"federalState":{"key":"01","name":"Schleswig-Holstein"}},{"name":"Paul-Gerhardt-Str.","postalCode":"49492","locality":"Westerkappeln","municipality":{"key":"05566092","name":"Westerkappeln","type":"Kreisangehörige_Gemeinde"},"district":{"key":"05566","name":"Steinfurt","type":"Kreis"},"federalState":{"key":"05","name":"Nordrhein-Westfalen"}},{"name":"Perlbachweg","postalCode":"67744","locality":"Kappeln","municipality":{"key":"07336049","name":"Kappeln","type":"Kreisangehörige_Gemeinde"},"district":{"key":"07336","name":"Kusel","type":"Landkreis"},"federalState":{"key":"07","name":"Rheinland-Pfalz"}},{"name":"Permer Str.","postalCode":"49492","locality":"Westerkappeln","municipality":{"key":"05566092","name":"Westerkappeln","type":"Kreisangehörige_Gemeinde"},"district":{"key":"05566","name":"Steinfurt","type":"Kreis"},"federalState":{"key":"05","name":"Nordrhein-Westfalen"}},{"name":"Perthesweg","postalCode":"49492","locality":"Westerkappeln","municipality":{"key":"05566092","name":"Westerkappeln","type":"Kreisangehörige_Gemeinde"},"district":{"key":"05566","name":"Steinfurt","type":"Kreis"},"federalState":{"key":"05","name":"Nordrhein-Westfalen"}},{"name":"Peter-Grieß-Str.","postalCode":"37284","locality":"Waldkappel","municipality":{"key":"06636012","name":"Waldkappel, Stadt","type":"Stadt"},"district":{"key":"06636","name":"Werra-Meißner-Kreis","type":"Landkreis"},"federalState":{"key":"06","name":"Hessen"}},{"name":"Pfaffenbach","postalCode":"77876","locality":"Kappelrodeck","municipality":{"key":"08317056","name":"Kappelrodeck","type":"Kreisangehörige_Gemeinde"},"district":{"key":"08317","name":"Ortenaukreis","type":"Landkreis"},"federalState":{"key":"08","name":"Baden-Württemberg"}},{"name":"Pfarrberg","postalCode":"77876","locality":"Kappelrodeck","municipality":{"key":"08317056","name":"Kappelrodeck","type":"Kreisangehörige_Gemeinde"},"district":{"key":"08317","name":"Ortenaukreis","type":"Landkreis"},"federalState":{"key":"08","name":"Baden-Württemberg"}},{"name":"Pfirsichweg","postalCode":"77966","locality":"Kappel-Grafenhausen","municipality":{"key":"08317152","name":"Kappel-Grafenhausen","type":"Kreisangehörige_Gemeinde"},"district":{"key":"08317","name":"Ortenaukreis","type":"Landkreis"},"federalState":{"key":"08","name":"Baden-Württemberg"}},{"name":"Pflaumenweg","postalCode":"77966","locality":"Kappel-Grafenhausen","municipality":{"key":"08317152","name":"Kappel-Grafenhausen","type":"Kreisangehörige_Gemeinde"},"district":{"key":"08317","name":"Ortenaukreis","type":"Landkreis"},"federalState":{"key":"08","name":"Baden-Württemberg"}},{"name":"Picassoweg","postalCode":"37284","locality":"Waldkappel","municipality":{"key":"06636012","name":"Waldkappel, Stadt","type":"Stadt"},"district":{"key":"06636","name":"Werra-Meißner-Kreis","type":"Landkreis"},"federalState":{"key":"06","name":"Hessen"}},{"name":"Plätzmatte","postalCode":"77876","locality":"Kappelrodeck","municipality":{"key":"08317056","name":"Kappelrodeck","type":"Kreisangehörige_Gemeinde"},"district":{"key":"08317","name":"Ortenaukreis","type":"Landkreis"},"federalState":{"key":"08","name":"Baden-Württemberg"}},{"name":"Pommernstr.","postalCode":"49492","locality":"Westerkappeln","municipality":{"key":"05566092","name":"Westerkappeln","type":"Kreisangehörige_Gemeinde"},"district":{"key":"05566","name":"Steinfurt","type":"Kreis"},"federalState":{"key":"05","name":"Nordrhein-Westfalen"}},{"name":"Pommernweg","postalCode":"37284","locality":"Waldkappel","municipality":{"key":"06636012","name":"Waldkappel, Stadt","type":"Stadt"},"district":{"key":"06636","name":"Werra-Meißner-Kreis","type":"Landkreis"},"federalState":{"key":"06","name":"Hessen"}},{"name":"Pottkamp","postalCode":"49492","locality":"Westerkappeln","municipality":{"key":"05566092","name":"Westerkappeln","type":"Kreisangehörige_Gemeinde"},"district":{"key":"05566","name":"Steinfurt","type":"Kreis"},"federalState":{"key":"05","name":"Nordrhein-Westfalen"}},{"name":"Prinzenstr.","postalCode":"24376","locality":"Kappeln","municipality":{"key":"01059045","name":"Kappeln, Stadt","type":"Stadt"},"district":{"key":"01059","name":"Schleswig-Flensburg","type":"Kreis"},"federalState":{"key":"01","name":"Schleswig-Holstein"}},{"name":"Querstr.","postalCode":"24376","locality":"Kappeln","municipality":{"key":"01059045","name":"Kappeln, Stadt","type":"Stadt"},"district":{"key":"01059","name":"Schleswig-Flensburg","type":"Kreis"},"federalState":{"key":"01","name":"Schleswig-Holstein"}},{"name":"Querstr.","postalCode":"49492","locality":"Westerkappeln","municipality":{"key":"05566092","name":"Westerkappeln","type":"Kreisangehörige_Gemeinde"},"district":{"key":"05566","name":"Steinfurt","type":"Kreis"},"federalState":{"key":"05","name":"Nordrhein-Westfalen"}},{"name":"Rabenstr.","postalCode":"49492","locality":"Westerkappeln","municipality":{"key":"05566092","name":"Westerkappeln","type":"Kreisangehörige_Gemeinde"},"district":{"key":"05566","name":"Steinfurt","type":"Kreis"},"federalState":{"key":"05","name":"Nordrhein-Westfalen"}},{"name":"Raiffeisenstr.","postalCode":"37284","locality":"Waldkappel","municipality":{"key":"06636012","name":"Waldkappel, Stadt","type":"Stadt"},"district":{"key":"06636","name":"Werra-Meißner-Kreis","type":"Landkreis"},"federalState":{"key":"06","name":"Hessen"}},{"name":"Rathausstr.","postalCode":"77966","locality":"Kappel-Grafenhausen","municipality":{"key":"08317152","name":"Kappel-Grafenhausen","type":"Kreisangehörige_Gemeinde"},"district":{"key":"08317","name":"Ortenaukreis","type":"Landkreis"},"federalState":{"key":"08","name":"Baden-Württemberg"}},{"name":"Reeperbahn","postalCode":"24376","locality":"Kappeln","municipality":{"key":"01059045","name":"Kappeln, Stadt","type":"Stadt"},"district":{"key":"01059","name":"Schleswig-Flensburg","type":"Kreis"},"federalState":{"key":"01","name":"Schleswig-Holstein"}},{"name":"Reinhildisstr.","postalCode":"49492","locality":"Westerkappeln","municipality":{"key":"05566092","name":"Westerkappeln","type":"Kreisangehörige_Gemeinde"},"district":{"key":"05566","name":"Steinfurt","type":"Kreis"},"federalState":{"key":"05","name":"Nordrhein-Westfalen"}},{"name":"Rheindamm","postalCode":"77966","locality":"Kappel-Grafenhausen","municipality":{"key":"08317152","name":"Kappel-Grafenhausen","type":"Kreisangehörige_Gemeinde"},"district":{"key":"08317","name":"Ortenaukreis","type":"Landkreis"},"federalState":{"key":"08","name":"Baden-Württemberg"}},{"name":"Rheinstr.","postalCode":"77966","locality":"Kappel-Grafenhausen","municipality":{"key":"08317152","name":"Kappel-Grafenhausen","type":"Kreisangehörige_Gemeinde"},"district":{"key":"08317","name":"Ortenaukreis","type":"Landkreis"},"federalState":{"key":"08","name":"Baden-Württemberg"}},{"name":"Richard-Albert-Str.","postalCode":"24376","locality":"Kappeln","municipality":{"key":"01059045","name":"Kappeln, Stadt","type":"Stadt"},"district":{"key":"01059","name":"Schleswig-Flensburg","type":"Kreis"},"federalState":{"key":"01","name":"Schleswig-Holstein"}},{"name":"Richard-Lenk-Str.","postalCode":"77876","locality":"Kappelrodeck","municipality":{"key":"08317056","name":"Kappelrodeck","type":"Kreisangehörige_Gemeinde"},"district":{"key":"08317","name":"Ortenaukreis","type":"Landkreis"},"federalState":{"key":"08","name":"Baden-Württemberg"}},{"name":"Riedeweg","postalCode":"49492","locality":"Westerkappeln","municipality":{"key":"05566092","name":"Westerkappeln","type":"Kreisangehörige_Gemeinde"},"district":{"key":"05566","name":"Steinfurt","type":"Kreis"},"federalState":{"key":"05","name":"Nordrhein-Westfalen"}},{"name":"Ringstr.","postalCode":"55483","locality":"Kappel","municipality":{"key":"07140062","name":"Kappel","type":"Kreisangehörige_Gemeinde"},"district":{"key":"07140","name":"Rhein-Hunsrück-Kreis","type":"Landkreis"},"federalState":{"key":"07","name":"Rheinland-Pfalz"}},{"name":"Ringstr.","postalCode":"77966","locality":"Kappel-Grafenhausen","municipality":{"key":"08317152","name":"Kappel-Grafenhausen","type":"Kreisangehörige_Gemeinde"},"district":{"key":"08317","name":"Ortenaukreis","type":"Landkreis"},"federalState":{"key":"08","name":"Baden-Württemberg"}},{"name":"Ritterstr.","postalCode":"37284","locality":"Waldkappel","municipality":{"key":"06636012","name":"Waldkappel, Stadt","type":"Stadt"},"district":{"key":"06636","name":"Werra-Meißner-Kreis","type":"Landkreis"},"federalState":{"key":"06","name":"Hessen"}},{"name":"Rittistr.","postalCode":"77966","locality":"Kappel-Grafenhausen","municipality":{"key":"08317152","name":"Kappel-Grafenhausen","type":"Kreisangehörige_Gemeinde"},"district":{"key":"08317","name":"Ortenaukreis","type":"Landkreis"},"federalState":{"key":"08","name":"Baden-Württemberg"}},{"name":"Robert-Koch-Str.","postalCode":"37284","locality":"Waldkappel","municipality":{"key":"06636012","name":"Waldkappel, Stadt","type":"Stadt"},"district":{"key":"06636","name":"Werra-Meißner-Kreis","type":"Landkreis"},"federalState":{"key":"06","name":"Hessen"}},{"name":"Robert-Lauterborn-Str.","postalCode":"77966","locality":"Kappel-Grafenhausen","municipality":{"key":"08317152","name":"Kappel-Grafenhausen","type":"Kreisangehörige_Gemeinde"},"district":{"key":"08317","name":"Ortenaukreis","type":"Landkreis"},"federalState":{"key":"08","name":"Baden-Württemberg"}},{"name":"Rosenschule","postalCode":"24376","locality":"Kappeln","municipality":{"key":"01059045","name":"Kappeln, Stadt","type":"Stadt"},"district":{"key":"01059","name":"Schleswig-Flensburg","type":"Kreis"},"federalState":{"key":"01","name":"Schleswig-Holstein"}},{"name":"Rosenweg","postalCode":"49492","locality":"Westerkappeln","municipality":{"key":"05566092","name":"Westerkappeln","type":"Kreisangehörige_Gemeinde"},"district":{"key":"05566","name":"Steinfurt","type":"Kreis"},"federalState":{"key":"05","name":"Nordrhein-Westfalen"}},{"name":"Rosenweg","postalCode":"77876","locality":"Kappelrodeck","municipality":{"key":"08317056","name":"Kappelrodeck","type":"Kreisangehörige_Gemeinde"},"district":{"key":"08317","name":"Ortenaukreis","type":"Landkreis"},"federalState":{"key":"08","name":"Baden-Württemberg"}},{"name":"Rosenweg","postalCode":"77966","locality":"Kappel-Grafenhausen","municipality":{"key":"08317152","name":"Kappel-Grafenhausen","type":"Kreisangehörige_Gemeinde"},"district":{"key":"08317","name":"Ortenaukreis","type":"Landkreis"},"federalState":{"key":"08","name":"Baden-Württemberg"}},{"name":"Rosheimer Ring","postalCode":"77876","locality":"Kappelrodeck","municipality":{"key":"08317056","name":"Kappelrodeck","type":"Kreisangehörige_Gemeinde"},"district":{"key":"08317","name":"Ortenaukreis","type":"Landkreis"},"federalState":{"key":"08","name":"Baden-Württemberg"}},{"name":"Röthsweg","postalCode":"37284","locality":"Waldkappel","municipality":{"key":"06636012","name":"Waldkappel, Stadt","type":"Stadt"},"district":{"key":"06636","name":"Werra-Meißner-Kreis","type":"Landkreis"},"federalState":{"key":"06","name":"Hessen"}},{"name":"Rubensweg","postalCode":"37284","locality":"Waldkappel","municipality":{"key":"06636012","name":"Waldkappel, Stadt","type":"Stadt"},"district":{"key":"06636","name":"Werra-Meißner-Kreis","type":"Landkreis"},"federalState":{"key":"06","name":"Hessen"}},{"name":"Rückeberg Nord","postalCode":"24376","locality":"Kappeln","municipality":{"key":"01059045","name":"Kappeln, Stadt","type":"Stadt"},"district":{"key":"01059","name":"Schleswig-Flensburg","type":"Kreis"},"federalState":{"key":"01","name":"Schleswig-Holstein"}},{"name":"Rue de Carhaix","postalCode":"37284","locality":"Waldkappel","municipality":{"key":"06636012","name":"Waldkappel, Stadt","type":"Stadt"},"district":{"key":"06636","name":"Werra-Meißner-Kreis","type":"Landkreis"},"federalState":{"key":"06","name":"Hessen"}},{"name":"Rügenweg","postalCode":"37284","locality":"Waldkappel","municipality":{"key":"06636012","name":"Waldkappel, Stadt","type":"Stadt"},"district":{"key":"06636","name":"Werra-Meißner-Kreis","type":"Landkreis"},"federalState":{"key":"06","name":"Hessen"}},{"name":"Ruhbühlweg","postalCode":"77955","locality":"Kappel-Grafenhausen","municipality":{"key":"08317152","name":"Kappel-Grafenhausen","type":"Kreisangehörige_Gemeinde"},"district":{"key":"08317","name":"Ortenaukreis","type":"Landkreis"},"federalState":{"key":"08","name":"Baden-Württemberg"}},{"name":"Ruhmatt","postalCode":"77876","locality":"Kappelrodeck","municipality":{"key":"08317056","name":"Kappelrodeck","type":"Kreisangehörige_Gemeinde"},"district":{"key":"08317","name":"Ortenaukreis","type":"Landkreis"},"federalState":{"key":"08","name":"Baden-Württemberg"}},{"name":"Rüppelsgraben","postalCode":"37284","locality":"Waldkappel","municipality":{"key":"06636012","name":"Waldkappel, Stadt","type":"Stadt"},"district":{"key":"06636","name":"Werra-Meißner-Kreis","type":"Landkreis"},"federalState":{"key":"06","name":"Hessen"}},{"name":"Ruskastr.","postalCode":"77966","locality":"Kappel-Grafenhausen","municipality":{"key":"08317152","name":"Kappel-Grafenhausen","type":"Kreisangehörige_Gemeinde"},"district":{"key":"08317","name":"Ortenaukreis","type":"Landkreis"},"federalState":{"key":"08","name":"Baden-Württemberg"}},{"name":"Rüskenkampstr.","postalCode":"49492","locality":"Westerkappeln","municipality":{"key":"05566092","name":"Westerkappeln","type":"Kreisangehörige_Gemeinde"},"district":{"key":"05566","name":"Steinfurt","type":"Kreis"},"federalState":{"key":"05","name":"Nordrhein-Westfalen"}},{"name":"Rußhaldeweg","postalCode":"77876","locality":"Kappelrodeck","municipality":{"key":"08317056","name":"Kappelrodeck","type":"Kreisangehörige_Gemeinde"},"district":{"key":"08317","name":"Ortenaukreis","type":"Landkreis"},"federalState":{"key":"08","name":"Baden-Württemberg"}},{"name":"Sachsenring","postalCode":"37284","locality":"Waldkappel","municipality":{"key":"06636012","name":"Waldkappel, Stadt","type":"Stadt"},"district":{"key":"06636","name":"Werra-Meißner-Kreis","type":"Landkreis"},"federalState":{"key":"06","name":"Hessen"}},{"name":"Salers-Rinder-Weg","postalCode":"77966","locality":"Kappel-Grafenhausen","municipality":{"key":"08317152","name":"Kappel-Grafenhausen","type":"Kreisangehörige_Gemeinde"},"district":{"key":"08317","name":"Ortenaukreis","type":"Landkreis"},"federalState":{"key":"08","name":"Baden-Württemberg"}},{"name":"Salzwiese","postalCode":"24376","locality":"Kappeln","municipality":{"key":"01059045","name":"Kappeln, Stadt","type":"Stadt"},"district":{"key":"01059","name":"Schleswig-Flensburg","type":"Kreis"},"federalState":{"key":"01","name":"Schleswig-Holstein"}},{"name":"Sandbek-Dorfstr.","postalCode":"24376","locality":"Kappeln","municipality":{"key":"01059045","name":"Kappeln, Stadt","type":"Stadt"},"district":{"key":"01059","name":"Schleswig-Flensburg","type":"Kreis"},"federalState":{"key":"01","name":"Schleswig-Holstein"}},{"name":"Sandbek-Eulenstr.","postalCode":"24376","locality":"Kappeln","municipality":{"key":"01059045","name":"Kappeln, Stadt","type":"Stadt"},"district":{"key":"01059","name":"Schleswig-Flensburg","type":"Kreis"},"federalState":{"key":"01","name":"Schleswig-Holstein"}},{"name":"Sandbek-Meiereiweg","postalCode":"24376","locality":"Kappeln","municipality":{"key":"01059045","name":"Kappeln, Stadt","type":"Stadt"},"district":{"key":"01059","name":"Schleswig-Flensburg","type":"Kreis"},"federalState":{"key":"01","name":"Schleswig-Holstein"}},{"name":"Sandbek-Mühlenweg","postalCode":"24376","locality":"Kappeln","municipality":{"key":"01059045","name":"Kappeln, Stadt","type":"Stadt"},"district":{"key":"01059","name":"Schleswig-Flensburg","type":"Kreis"},"federalState":{"key":"01","name":"Schleswig-Holstein"}},{"name":"Sattlerstr.","postalCode":"37284","locality":"Waldkappel","municipality":{"key":"06636012","name":"Waldkappel, Stadt","type":"Stadt"},"district":{"key":"06636","name":"Werra-Meißner-Kreis","type":"Landkreis"},"federalState":{"key":"06","name":"Hessen"}},{"name":"Saukopfbrücke","postalCode":"77966","locality":"Kappel-Grafenhausen","municipality":{"key":"08317152","name":"Kappel-Grafenhausen","type":"Kreisangehörige_Gemeinde"},"district":{"key":"08317","name":"Ortenaukreis","type":"Landkreis"},"federalState":{"key":"08","name":"Baden-Württemberg"}},{"name":"Schachselstr.","postalCode":"49492","locality":"Westerkappeln","municipality":{"key":"05566092","name":"Westerkappeln","type":"Kreisangehörige_Gemeinde"},"district":{"key":"05566","name":"Steinfurt","type":"Kreis"},"federalState":{"key":"05","name":"Nordrhein-Westfalen"}},{"name":"Schafberg","postalCode":"49492","locality":"Westerkappeln","municipality":{"key":"05566092","name":"Westerkappeln","type":"Kreisangehörige_Gemeinde"},"district":{"key":"05566","name":"Steinfurt","type":"Kreis"},"federalState":{"key":"05","name":"Nordrhein-Westfalen"}},{"name":"Schanze","postalCode":"24376","locality":"Kappeln","municipality":{"key":"01059045","name":"Kappeln, Stadt","type":"Stadt"},"district":{"key":"01059","name":"Schleswig-Flensburg","type":"Kreis"},"federalState":{"key":"01","name":"Schleswig-Holstein"}},{"name":"Schellenlöchleweg","postalCode":"77955","locality":"Kappel-Grafenhausen","municipality":{"key":"08317152","name":"Kappel-Grafenhausen","type":"Kreisangehörige_Gemeinde"},"district":{"key":"08317","name":"Ortenaukreis","type":"Landkreis"},"federalState":{"key":"08","name":"Baden-Württemberg"}},{"name":"Schiffergang","postalCode":"24376","locality":"Kappeln","municipality":{"key":"01059045","name":"Kappeln, Stadt","type":"Stadt"},"district":{"key":"01059","name":"Schleswig-Flensburg","type":"Kreis"},"federalState":{"key":"01","name":"Schleswig-Holstein"}},{"name":"Schillerstr.","postalCode":"37284","locality":"Waldkappel","municipality":{"key":"06636012","name":"Waldkappel, Stadt","type":"Stadt"},"district":{"key":"06636","name":"Werra-Meißner-Kreis","type":"Landkreis"},"federalState":{"key":"06","name":"Hessen"}},{"name":"Schillerstr.","postalCode":"49492","locality":"Westerkappeln","municipality":{"key":"05566092","name":"Westerkappeln","type":"Kreisangehörige_Gemeinde"},"district":{"key":"05566","name":"Steinfurt","type":"Kreis"},"federalState":{"key":"05","name":"Nordrhein-Westfalen"}},{"name":"Schillerstr.","postalCode":"77966","locality":"Kappel-Grafenhausen","municipality":{"key":"08317152","name":"Kappel-Grafenhausen","type":"Kreisangehörige_Gemeinde"},"district":{"key":"08317","name":"Ortenaukreis","type":"Landkreis"},"federalState":{"key":"08","name":"Baden-Württemberg"}},{"name":"Schinderhaldenweg","postalCode":"77955","locality":"Kappel-Grafenhausen","municipality":{"key":"08317152","name":"Kappel-Grafenhausen","type":"Kreisangehörige_Gemeinde"},"district":{"key":"08317","name":"Ortenaukreis","type":"Landkreis"},"federalState":{"key":"08","name":"Baden-Württemberg"}},{"name":"Schlangenweg","postalCode":"37284","locality":"Waldkappel","municipality":{"key":"06636012","name":"Waldkappel, Stadt","type":"Stadt"},"district":{"key":"06636","name":"Werra-Meißner-Kreis","type":"Landkreis"},"federalState":{"key":"06","name":"Hessen"}},{"name":"Schlehenweg","postalCode":"37284","locality":"Waldkappel","municipality":{"key":"06636012","name":"Waldkappel, Stadt","type":"Stadt"},"district":{"key":"06636","name":"Werra-Meißner-Kreis","type":"Landkreis"},"federalState":{"key":"06","name":"Hessen"}},{"name":"Schleiblick","postalCode":"24376","locality":"Kappeln","municipality":{"key":"01059045","name":"Kappeln, Stadt","type":"Stadt"},"district":{"key":"01059","name":"Schleswig-Flensburg","type":"Kreis"},"federalState":{"key":"01","name":"Schleswig-Holstein"}},{"name":"Schleistr.","postalCode":"24376","locality":"Kappeln","municipality":{"key":"01059045","name":"Kappeln, Stadt","type":"Stadt"},"district":{"key":"01059","name":"Schleswig-Flensburg","type":"Kreis"},"federalState":{"key":"01","name":"Schleswig-Holstein"}},{"name":"Schlesienweg","postalCode":"37284","locality":"Waldkappel","municipality":{"key":"06636012","name":"Waldkappel, Stadt","type":"Stadt"},"district":{"key":"06636","name":"Werra-Meißner-Kreis","type":"Landkreis"},"federalState":{"key":"06","name":"Hessen"}},{"name":"Schlesierstr.","postalCode":"49492","locality":"Westerkappeln","municipality":{"key":"05566092","name":"Westerkappeln","type":"Kreisangehörige_Gemeinde"},"district":{"key":"05566","name":"Steinfurt","type":"Kreis"},"federalState":{"key":"05","name":"Nordrhein-Westfalen"}},{"name":"Schleswiger Str.","postalCode":"24376","locality":"Kappeln","municipality":{"key":"01059045","name":"Kappeln, Stadt","type":"Stadt"},"district":{"key":"01059","name":"Schleswig-Flensburg","type":"Kreis"},"federalState":{"key":"01","name":"Schleswig-Holstein"}},{"name":"Schleusenweg","postalCode":"24376","locality":"Kappeln","municipality":{"key":"01059045","name":"Kappeln, Stadt","type":"Stadt"},"district":{"key":"01059","name":"Schleswig-Flensburg","type":"Kreis"},"federalState":{"key":"01","name":"Schleswig-Holstein"}},{"name":"Schlossbergstr.","postalCode":"77876","locality":"Kappelrodeck","municipality":{"key":"08317056","name":"Kappelrodeck","type":"Kreisangehörige_Gemeinde"},"district":{"key":"08317","name":"Ortenaukreis","type":"Landkreis"},"federalState":{"key":"08","name":"Baden-Württemberg"}},{"name":"Schloßbergstr.","postalCode":"77876","locality":"Kappelrodeck","municipality":{"key":"08317056","name":"Kappelrodeck","type":"Kreisangehörige_Gemeinde"},"district":{"key":"08317","name":"Ortenaukreis","type":"Landkreis"},"federalState":{"key":"08","name":"Baden-Württemberg"}},{"name":"Schlosserweg","postalCode":"37284","locality":"Waldkappel","municipality":{"key":"06636012","name":"Waldkappel, Stadt","type":"Stadt"},"district":{"key":"06636","name":"Werra-Meißner-Kreis","type":"Landkreis"},"federalState":{"key":"06","name":"Hessen"}},{"name":"Schmiedestr.","postalCode":"24376","locality":"Kappeln","municipality":{"key":"01059045","name":"Kappeln, Stadt","type":"Stadt"},"district":{"key":"01059","name":"Schleswig-Flensburg","type":"Kreis"},"federalState":{"key":"01","name":"Schleswig-Holstein"}},{"name":"Schoolstieg","postalCode":"24376","locality":"Kappeln","municipality":{"key":"01059045","name":"Kappeln, Stadt","type":"Stadt"},"district":{"key":"01059","name":"Schleswig-Flensburg","type":"Kreis"},"federalState":{"key":"01","name":"Schleswig-Holstein"}},{"name":"Schubertstr.","postalCode":"77966","locality":"Kappel-Grafenhausen","municipality":{"key":"08317152","name":"Kappel-Grafenhausen","type":"Kreisangehörige_Gemeinde"},"district":{"key":"08317","name":"Ortenaukreis","type":"Landkreis"},"federalState":{"key":"08","name":"Baden-Württemberg"}},{"name":"Schulstr.","postalCode":"24376","locality":"Kappeln","municipality":{"key":"01059045","name":"Kappeln, Stadt","type":"Stadt"},"district":{"key":"01059","name":"Schleswig-Flensburg","type":"Kreis"},"federalState":{"key":"01","name":"Schleswig-Holstein"}},{"name":"Schulstr.","postalCode":"49492","locality":"Westerkappeln","municipality":{"key":"05566092","name":"Westerkappeln","type":"Kreisangehörige_Gemeinde"},"district":{"key":"05566","name":"Steinfurt","type":"Kreis"},"federalState":{"key":"05","name":"Nordrhein-Westfalen"}},{"name":"Schulstr.","postalCode":"77876","locality":"Kappelrodeck","municipality":{"key":"08317056","name":"Kappelrodeck","type":"Kreisangehörige_Gemeinde"},"district":{"key":"08317","name":"Ortenaukreis","type":"Landkreis"},"federalState":{"key":"08","name":"Baden-Württemberg"}},{"name":"Schulstr.","postalCode":"77966","locality":"Kappel-Grafenhausen","municipality":{"key":"08317152","name":"Kappel-Grafenhausen","type":"Kreisangehörige_Gemeinde"},"district":{"key":"08317","name":"Ortenaukreis","type":"Landkreis"},"federalState":{"key":"08","name":"Baden-Württemberg"}},{"name":"Schusterweg","postalCode":"37284","locality":"Waldkappel","municipality":{"key":"06636012","name":"Waldkappel, Stadt","type":"Stadt"},"district":{"key":"06636","name":"Werra-Meißner-Kreis","type":"Landkreis"},"federalState":{"key":"06","name":"Hessen"}},{"name":"Schützenstr.","postalCode":"24376","locality":"Kappeln","municipality":{"key":"01059045","name":"Kappeln, Stadt","type":"Stadt"},"district":{"key":"01059","name":"Schleswig-Flensburg","type":"Kreis"},"federalState":{"key":"01","name":"Schleswig-Holstein"}},{"name":"Schützenstr.","postalCode":"77966","locality":"Kappel-Grafenhausen","municipality":{"key":"08317152","name":"Kappel-Grafenhausen","type":"Kreisangehörige_Gemeinde"},"district":{"key":"08317","name":"Ortenaukreis","type":"Landkreis"},"federalState":{"key":"08","name":"Baden-Württemberg"}},{"name":"Schütz-Weg","postalCode":"49492","locality":"Westerkappeln","municipality":{"key":"05566092","name":"Westerkappeln","type":"Kreisangehörige_Gemeinde"},"district":{"key":"05566","name":"Steinfurt","type":"Kreis"},"federalState":{"key":"05","name":"Nordrhein-Westfalen"}},{"name":"Schwabenweg","postalCode":"37284","locality":"Waldkappel","municipality":{"key":"06636012","name":"Waldkappel, Stadt","type":"Stadt"},"district":{"key":"06636","name":"Werra-Meißner-Kreis","type":"Landkreis"},"federalState":{"key":"06","name":"Hessen"}},{"name":"Schwalbenweg","postalCode":"37284","locality":"Waldkappel","municipality":{"key":"06636012","name":"Waldkappel, Stadt","type":"Stadt"},"district":{"key":"06636","name":"Werra-Meißner-Kreis","type":"Landkreis"},"federalState":{"key":"06","name":"Hessen"}},{"name":"Schwarzer Weg","postalCode":"24376","locality":"Kappeln","municipality":{"key":"01059045","name":"Kappeln, Stadt","type":"Stadt"},"district":{"key":"01059","name":"Schleswig-Flensburg","type":"Kreis"},"federalState":{"key":"01","name":"Schleswig-Holstein"}},{"name":"Schwarzwaldstr.","postalCode":"77966","locality":"Kappel-Grafenhausen","municipality":{"key":"08317152","name":"Kappel-Grafenhausen","type":"Kreisangehörige_Gemeinde"},"district":{"key":"08317","name":"Ortenaukreis","type":"Landkreis"},"federalState":{"key":"08","name":"Baden-Württemberg"}},{"name":"Schwegfeldstr.","postalCode":"49492","locality":"Westerkappeln","municipality":{"key":"05566092","name":"Westerkappeln","type":"Kreisangehörige_Gemeinde"},"district":{"key":"05566","name":"Steinfurt","type":"Kreis"},"federalState":{"key":"05","name":"Nordrhein-Westfalen"}},{"name":"Schweitzer-Weg","postalCode":"49492","locality":"Westerkappeln","municipality":{"key":"05566092","name":"Westerkappeln","type":"Kreisangehörige_Gemeinde"},"district":{"key":"05566","name":"Steinfurt","type":"Kreis"},"federalState":{"key":"05","name":"Nordrhein-Westfalen"}},{"name":"Schwend","postalCode":"77876","locality":"Kappelrodeck","municipality":{"key":"08317056","name":"Kappelrodeck","type":"Kreisangehörige_Gemeinde"},"district":{"key":"08317","name":"Ortenaukreis","type":"Landkreis"},"federalState":{"key":"08","name":"Baden-Württemberg"}},{"name":"Seilerweg","postalCode":"37284","locality":"Waldkappel","municipality":{"key":"06636012","name":"Waldkappel, Stadt","type":"Stadt"},"district":{"key":"06636","name":"Werra-Meißner-Kreis","type":"Landkreis"},"federalState":{"key":"06","name":"Hessen"}},{"name":"Sendesch","postalCode":"49492","locality":"Westerkappeln","municipality":{"key":"05566092","name":"Westerkappeln","type":"Kreisangehörige_Gemeinde"},"district":{"key":"05566","name":"Steinfurt","type":"Kreis"},"federalState":{"key":"05","name":"Nordrhein-Westfalen"}},{"name":"Sennlicher Esch","postalCode":"49492","locality":"Westerkappeln","municipality":{"key":"05566092","name":"Westerkappeln","type":"Kreisangehörige_Gemeinde"},"district":{"key":"05566","name":"Steinfurt","type":"Kreis"},"federalState":{"key":"05","name":"Nordrhein-Westfalen"}},{"name":"Talstr.","postalCode":"77876","locality":"Kappelrodeck","municipality":{"key":"08317056","name":"Kappelrodeck","type":"Kreisangehörige_Gemeinde"},"district":{"key":"08317","name":"Ortenaukreis","type":"Landkreis"},"federalState":{"key":"08","name":"Baden-Württemberg"}},{"name":"Talweg","postalCode":"24376","locality":"Kappeln","municipality":{"key":"01059045","name":"Kappeln, Stadt","type":"Stadt"},"district":{"key":"01059","name":"Schleswig-Flensburg","type":"Kreis"},"federalState":{"key":"01","name":"Schleswig-Holstein"}},{"name":"Tannenweg","postalCode":"77876","locality":"Kappelrodeck","municipality":{"key":"08317056","name":"Kappelrodeck","type":"Kreisangehörige_Gemeinde"},"district":{"key":"08317","name":"Ortenaukreis","type":"Landkreis"},"federalState":{"key":"08","name":"Baden-Württemberg"}},{"name":"Tecklenburger Str.","postalCode":"49492","locality":"Westerkappeln","municipality":{"key":"05566092","name":"Westerkappeln","type":"Kreisangehörige_Gemeinde"},"district":{"key":"05566","name":"Steinfurt","type":"Kreis"},"federalState":{"key":"05","name":"Nordrhein-Westfalen"}},{"name":"Teichanlage","postalCode":"49492","locality":"Westerkappeln","municipality":{"key":"05566092","name":"Westerkappeln","type":"Kreisangehörige_Gemeinde"},"district":{"key":"05566","name":"Steinfurt","type":"Kreis"},"federalState":{"key":"05","name":"Nordrhein-Westfalen"}},{"name":"Telgte","postalCode":"49492","locality":"Westerkappeln","municipality":{"key":"05566092","name":"Westerkappeln","type":"Kreisangehörige_Gemeinde"},"district":{"key":"05566","name":"Steinfurt","type":"Kreis"},"federalState":{"key":"05","name":"Nordrhein-Westfalen"}},{"name":"Theodor-Storm-Str.","postalCode":"24376","locality":"Kappeln","municipality":{"key":"01059045","name":"Kappeln, Stadt","type":"Stadt"},"district":{"key":"01059","name":"Schleswig-Flensburg","type":"Kreis"},"federalState":{"key":"01","name":"Schleswig-Holstein"}},{"name":"Thüringer Str.","postalCode":"37284","locality":"Waldkappel","municipality":{"key":"06636012","name":"Waldkappel, Stadt","type":"Stadt"},"district":{"key":"06636","name":"Werra-Meißner-Kreis","type":"Landkreis"},"federalState":{"key":"06","name":"Hessen"}},{"name":"Timpenstr.","postalCode":"49492","locality":"Westerkappeln","municipality":{"key":"05566092","name":"Westerkappeln","type":"Kreisangehörige_Gemeinde"},"district":{"key":"05566","name":"Steinfurt","type":"Kreis"},"federalState":{"key":"05","name":"Nordrhein-Westfalen"}},{"name":"Todtsche Koppel","postalCode":"24376","locality":"Kappeln","municipality":{"key":"01059045","name":"Kappeln, Stadt","type":"Stadt"},"district":{"key":"01059","name":"Schleswig-Flensburg","type":"Kreis"},"federalState":{"key":"01","name":"Schleswig-Holstein"}},{"name":"Tramweg","postalCode":"77966","locality":"Kappel-Grafenhausen","municipality":{"key":"08317152","name":"Kappel-Grafenhausen","type":"Kreisangehörige_Gemeinde"},"district":{"key":"08317","name":"Ortenaukreis","type":"Landkreis"},"federalState":{"key":"08","name":"Baden-Württemberg"}},{"name":"Trompeterstr.","postalCode":"77876","locality":"Kappelrodeck","municipality":{"key":"08317056","name":"Kappelrodeck","type":"Kreisangehörige_Gemeinde"},"district":{"key":"08317","name":"Ortenaukreis","type":"Landkreis"},"federalState":{"key":"08","name":"Baden-Württemberg"}},{"name":"Tulpenweg","postalCode":"37284","locality":"Waldkappel","municipality":{"key":"06636012","name":"Waldkappel, Stadt","type":"Stadt"},"district":{"key":"06636","name":"Werra-Meißner-Kreis","type":"Landkreis"},"federalState":{"key":"06","name":"Hessen"}},{"name":"Tulpenweg","postalCode":"77876","locality":"Kappelrodeck","municipality":{"key":"08317056","name":"Kappelrodeck","type":"Kreisangehörige_Gemeinde"},"district":{"key":"08317","name":"Ortenaukreis","type":"Landkreis"},"federalState":{"key":"08","name":"Baden-Württemberg"}},{"name":"Tulpenweg","postalCode":"77966","locality":"Kappel-Grafenhausen","municipality":{"key":"08317152","name":"Kappel-Grafenhausen","type":"Kreisangehörige_Gemeinde"},"district":{"key":"08317","name":"Ortenaukreis","type":"Landkreis"},"federalState":{"key":"08","name":"Baden-Württemberg"}},{"name":"Turmstr.","postalCode":"77966","locality":"Kappel-Grafenhausen","municipality":{"key":"08317152","name":"Kappel-Grafenhausen","type":"Kreisangehörige_Gemeinde"},"district":{"key":"08317","name":"Ortenaukreis","type":"Landkreis"},"federalState":{"key":"08","name":"Baden-Württemberg"}},{"name":"Uferweg","postalCode":"24376","locality":"Kappeln","municipality":{"key":"01059045","name":"Kappeln, Stadt","type":"Stadt"},"district":{"key":"01059","name":"Schleswig-Flensburg","type":"Kreis"},"federalState":{"key":"01","name":"Schleswig-Holstein"}},{"name":"Uhlandweg","postalCode":"37284","locality":"Waldkappel","municipality":{"key":"06636012","name":"Waldkappel, Stadt","type":"Stadt"},"district":{"key":"06636","name":"Werra-Meißner-Kreis","type":"Landkreis"},"federalState":{"key":"06","name":"Hessen"}},{"name":"Unterbergstr.","postalCode":"77876","locality":"Kappelrodeck","municipality":{"key":"08317056","name":"Kappelrodeck","type":"Kreisangehörige_Gemeinde"},"district":{"key":"08317","name":"Ortenaukreis","type":"Landkreis"},"federalState":{"key":"08","name":"Baden-Württemberg"}},{"name":"Unterdorf","postalCode":"67744","locality":"Kappeln","municipality":{"key":"07336049","name":"Kappeln","type":"Kreisangehörige_Gemeinde"},"district":{"key":"07336","name":"Kusel","type":"Landkreis"},"federalState":{"key":"07","name":"Rheinland-Pfalz"}},{"name":"Untere Ibachgasse","postalCode":"77876","locality":"Kappelrodeck","municipality":{"key":"08317056","name":"Kappelrodeck","type":"Kreisangehörige_Gemeinde"},"district":{"key":"08317","name":"Ortenaukreis","type":"Landkreis"},"federalState":{"key":"08","name":"Baden-Württemberg"}},{"name":"Unterer Schönbühlweg","postalCode":"77955","locality":"Kappel-Grafenhausen","municipality":{"key":"08317152","name":"Kappel-Grafenhausen","type":"Kreisangehörige_Gemeinde"},"district":{"key":"08317","name":"Ortenaukreis","type":"Landkreis"},"federalState":{"key":"08","name":"Baden-Württemberg"}},{"name":"Untere Widigstr.","postalCode":"77876","locality":"Kappelrodeck","municipality":{"key":"08317056","name":"Kappelrodeck","type":"Kreisangehörige_Gemeinde"},"district":{"key":"08317","name":"Ortenaukreis","type":"Landkreis"},"federalState":{"key":"08","name":"Baden-Württemberg"}},{"name":"Untergarten","postalCode":"77966","locality":"Kappel-Grafenhausen","municipality":{"key":"08317152","name":"Kappel-Grafenhausen","type":"Kreisangehörige_Gemeinde"},"district":{"key":"08317","name":"Ortenaukreis","type":"Landkreis"},"federalState":{"key":"08","name":"Baden-Württemberg"}},{"name":"Untergasse","postalCode":"37284","locality":"Waldkappel","municipality":{"key":"06636012","name":"Waldkappel, Stadt","type":"Stadt"},"district":{"key":"06636","name":"Werra-Meißner-Kreis","type":"Landkreis"},"federalState":{"key":"06","name":"Hessen"}},{"name":"Unterweg","postalCode":"77955","locality":"Kappel-Grafenhausen","municipality":{"key":"08317152","name":"Kappel-Grafenhausen","type":"Kreisangehörige_Gemeinde"},"district":{"key":"08317","name":"Ortenaukreis","type":"Landkreis"},"federalState":{"key":"08","name":"Baden-Württemberg"}},{"name":"Urnenstr.","postalCode":"49492","locality":"Westerkappeln","municipality":{"key":"05566092","name":"Westerkappeln","type":"Kreisangehörige_Gemeinde"},"district":{"key":"05566","name":"Steinfurt","type":"Kreis"},"federalState":{"key":"05","name":"Nordrhein-Westfalen"}},{"name":"Ustkaweg","postalCode":"24376","locality":"Kappeln","municipality":{"key":"01059045","name":"Kappeln, Stadt","type":"Stadt"},"district":{"key":"01059","name":"Schleswig-Flensburg","type":"Kreis"},"federalState":{"key":"01","name":"Schleswig-Holstein"}},{"name":"Velper Esch","postalCode":"49492","locality":"Westerkappeln","municipality":{"key":"05566092","name":"Westerkappeln","type":"Kreisangehörige_Gemeinde"},"district":{"key":"05566","name":"Steinfurt","type":"Kreis"},"federalState":{"key":"05","name":"Nordrhein-Westfalen"}},{"name":"Velper Str.","postalCode":"49492","locality":"Westerkappeln","municipality":{"key":"05566092","name":"Westerkappeln","type":"Kreisangehörige_Gemeinde"},"district":{"key":"05566","name":"Steinfurt","type":"Kreis"},"federalState":{"key":"05","name":"Nordrhein-Westfalen"}},{"name":"Venedig","postalCode":"77876","locality":"Kappelrodeck","municipality":{"key":"08317056","name":"Kappelrodeck","type":"Kreisangehörige_Gemeinde"},"district":{"key":"08317","name":"Ortenaukreis","type":"Landkreis"},"federalState":{"key":"08","name":"Baden-Württemberg"}},{"name":"Verbrannter Bühlweg","postalCode":"77955","locality":"Kappel-Grafenhausen","municipality":{"key":"08317152","name":"Kappel-Grafenhausen","type":"Kreisangehörige_Gemeinde"},"district":{"key":"08317","name":"Ortenaukreis","type":"Landkreis"},"federalState":{"key":"08","name":"Baden-Württemberg"}},{"name":"Vidumstr.","postalCode":"49492","locality":"Westerkappeln","municipality":{"key":"05566092","name":"Westerkappeln","type":"Kreisangehörige_Gemeinde"},"district":{"key":"05566","name":"Steinfurt","type":"Kreis"},"federalState":{"key":"05","name":"Nordrhein-Westfalen"}},{"name":"Vitus-Burg-Str.","postalCode":"77966","locality":"Kappel-Grafenhausen","municipality":{"key":"08317152","name":"Kappel-Grafenhausen","type":"Kreisangehörige_Gemeinde"},"district":{"key":"08317","name":"Ortenaukreis","type":"Landkreis"},"federalState":{"key":"08","name":"Baden-Württemberg"}},{"name":"Von-Bora-Weg","postalCode":"49492","locality":"Westerkappeln","municipality":{"key":"05566092","name":"Westerkappeln","type":"Kreisangehörige_Gemeinde"},"district":{"key":"05566","name":"Steinfurt","type":"Kreis"},"federalState":{"key":"05","name":"Nordrhein-Westfalen"}},{"name":"Von-Loen-Str.","postalCode":"49492","locality":"Westerkappeln","municipality":{"key":"05566092","name":"Westerkappeln","type":"Kreisangehörige_Gemeinde"},"district":{"key":"05566","name":"Steinfurt","type":"Kreis"},"federalState":{"key":"05","name":"Nordrhein-Westfalen"}},{"name":"Von-Neuenstein-Weg","postalCode":"77876","locality":"Kappelrodeck","municipality":{"key":"08317056","name":"Kappelrodeck","type":"Kreisangehörige_Gemeinde"},"district":{"key":"08317","name":"Ortenaukreis","type":"Landkreis"},"federalState":{"key":"08","name":"Baden-Württemberg"}},{"name":"Vorau","postalCode":"77966","locality":"Kappel-Grafenhausen","municipality":{"key":"08317152","name":"Kappel-Grafenhausen","type":"Kreisangehörige_Gemeinde"},"district":{"key":"08317","name":"Ortenaukreis","type":"Landkreis"},"federalState":{"key":"08","name":"Baden-Württemberg"}},{"name":"Vorm Deich","postalCode":"24376","locality":"Kappeln","municipality":{"key":"01059045","name":"Kappeln, Stadt","type":"Stadt"},"district":{"key":"01059","name":"Schleswig-Flensburg","type":"Kreis"},"federalState":{"key":"01","name":"Schleswig-Holstein"}},{"name":"Wacholderweg","postalCode":"24376","locality":"Kappeln","municipality":{"key":"01059045","name":"Kappeln, Stadt","type":"Stadt"},"district":{"key":"01059","name":"Schleswig-Flensburg","type":"Kreis"},"federalState":{"key":"01","name":"Schleswig-Holstein"}},{"name":"Wacholderweg","postalCode":"37284","locality":"Waldkappel","municipality":{"key":"06636012","name":"Waldkappel, Stadt","type":"Stadt"},"district":{"key":"06636","name":"Werra-Meißner-Kreis","type":"Landkreis"},"federalState":{"key":"06","name":"Hessen"}},{"name":"Waldblick","postalCode":"24376","locality":"Kappeln","municipality":{"key":"01059045","name":"Kappeln, Stadt","type":"Stadt"},"district":{"key":"01059","name":"Schleswig-Flensburg","type":"Kreis"},"federalState":{"key":"01","name":"Schleswig-Holstein"}},{"name":"Waldgasse","postalCode":"55483","locality":"Kappel","municipality":{"key":"07140062","name":"Kappel","type":"Kreisangehörige_Gemeinde"},"district":{"key":"07140","name":"Rhein-Hunsrück-Kreis","type":"Landkreis"},"federalState":{"key":"07","name":"Rheinland-Pfalz"}},{"name":"Waldstr.","postalCode":"77876","locality":"Kappelrodeck","municipality":{"key":"08317056","name":"Kappelrodeck","type":"Kreisangehörige_Gemeinde"},"district":{"key":"08317","name":"Ortenaukreis","type":"Landkreis"},"federalState":{"key":"08","name":"Baden-Württemberg"}},{"name":"Waldulmer Str.","postalCode":"77876","locality":"Kappelrodeck","municipality":{"key":"08317056","name":"Kappelrodeck","type":"Kreisangehörige_Gemeinde"},"district":{"key":"08317","name":"Ortenaukreis","type":"Landkreis"},"federalState":{"key":"08","name":"Baden-Württemberg"}},{"name":"Waldweg","postalCode":"24376","locality":"Kappeln","municipality":{"key":"01059045","name":"Kappeln, Stadt","type":"Stadt"},"district":{"key":"01059","name":"Schleswig-Flensburg","type":"Kreis"},"federalState":{"key":"01","name":"Schleswig-Holstein"}},{"name":"Waldweg","postalCode":"49492","locality":"Westerkappeln","municipality":{"key":"05566092","name":"Westerkappeln","type":"Kreisangehörige_Gemeinde"},"district":{"key":"05566","name":"Steinfurt","type":"Kreis"},"federalState":{"key":"05","name":"Nordrhein-Westfalen"}},{"name":"Wallenbrock","postalCode":"49492","locality":"Westerkappeln","municipality":{"key":"05566092","name":"Westerkappeln","type":"Kreisangehörige_Gemeinde"},"district":{"key":"05566","name":"Steinfurt","type":"Kreis"},"federalState":{"key":"05","name":"Nordrhein-Westfalen"}},{"name":"Walter-Weg","postalCode":"49492","locality":"Westerkappeln","municipality":{"key":"05566092","name":"Westerkappeln","type":"Kreisangehörige_Gemeinde"},"district":{"key":"05566","name":"Steinfurt","type":"Kreis"},"federalState":{"key":"05","name":"Nordrhein-Westfalen"}},{"name":"Wassermühlenstr.","postalCode":"24376","locality":"Kappeln","municipality":{"key":"01059045","name":"Kappeln, Stadt","type":"Stadt"},"district":{"key":"01059","name":"Schleswig-Flensburg","type":"Kreis"},"federalState":{"key":"01","name":"Schleswig-Holstein"}},{"name":"Wasserrallenweg","postalCode":"77966","locality":"Kappel-Grafenhausen","municipality":{"key":"08317152","name":"Kappel-Grafenhausen","type":"Kreisangehörige_Gemeinde"},"district":{"key":"08317","name":"Ortenaukreis","type":"Landkreis"},"federalState":{"key":"08","name":"Baden-Württemberg"}},{"name":"Wasserstr.","postalCode":"77876","locality":"Kappelrodeck","municipality":{"key":"08317056","name":"Kappelrodeck","type":"Kreisangehörige_Gemeinde"},"district":{"key":"08317","name":"Ortenaukreis","type":"Landkreis"},"federalState":{"key":"08","name":"Baden-Württemberg"}},{"name":"Wehrgasse","postalCode":"37284","locality":"Waldkappel","municipality":{"key":"06636012","name":"Waldkappel, Stadt","type":"Stadt"},"district":{"key":"06636","name":"Werra-Meißner-Kreis","type":"Landkreis"},"federalState":{"key":"06","name":"Hessen"}},{"name":"Weidefelder Weg","postalCode":"24376","locality":"Kappeln","municipality":{"key":"01059045","name":"Kappeln, Stadt","type":"Stadt"},"district":{"key":"01059","name":"Schleswig-Flensburg","type":"Kreis"},"federalState":{"key":"01","name":"Schleswig-Holstein"}},{"name":"Weiherwiese","postalCode":"67744","locality":"Kappeln","municipality":{"key":"07336049","name":"Kappeln","type":"Kreisangehörige_Gemeinde"},"district":{"key":"07336","name":"Kusel","type":"Landkreis"},"federalState":{"key":"07","name":"Rheinland-Pfalz"}},{"name":"Weinbergweg","postalCode":"77876","locality":"Kappelrodeck","municipality":{"key":"08317056","name":"Kappelrodeck","type":"Kreisangehörige_Gemeinde"},"district":{"key":"08317","name":"Ortenaukreis","type":"Landkreis"},"federalState":{"key":"08","name":"Baden-Württemberg"}},{"name":"Weinstr.","postalCode":"77876","locality":"Kappelrodeck","municipality":{"key":"08317056","name":"Kappelrodeck","type":"Kreisangehörige_Gemeinde"},"district":{"key":"08317","name":"Ortenaukreis","type":"Landkreis"},"federalState":{"key":"08","name":"Baden-Württemberg"}},{"name":"Werenfriedplatz","postalCode":"37284","locality":"Waldkappel","municipality":{"key":"06636012","name":"Waldkappel, Stadt","type":"Stadt"},"district":{"key":"06636","name":"Werra-Meißner-Kreis","type":"Landkreis"},"federalState":{"key":"06","name":"Hessen"}},{"name":"Werraweg","postalCode":"37284","locality":"Waldkappel","municipality":{"key":"06636012","name":"Waldkappel, Stadt","type":"Stadt"},"district":{"key":"06636","name":"Werra-Meißner-Kreis","type":"Landkreis"},"federalState":{"key":"06","name":"Hessen"}},{"name":"Weserstr.","postalCode":"37284","locality":"Waldkappel","municipality":{"key":"06636012","name":"Waldkappel, Stadt","type":"Stadt"},"district":{"key":"06636","name":"Werra-Meißner-Kreis","type":"Landkreis"},"federalState":{"key":"06","name":"Hessen"}},{"name":"Westend","postalCode":"77966","locality":"Kappel-Grafenhausen","municipality":{"key":"08317152","name":"Kappel-Grafenhausen","type":"Kreisangehörige_Gemeinde"},"district":{"key":"08317","name":"Ortenaukreis","type":"Landkreis"},"federalState":{"key":"08","name":"Baden-Württemberg"}},{"name":"Westerbecker Str.","postalCode":"49492","locality":"Westerkappeln","municipality":{"key":"05566092","name":"Westerkappeln","type":"Kreisangehörige_Gemeinde"},"district":{"key":"05566","name":"Steinfurt","type":"Kreis"},"federalState":{"key":"05","name":"Nordrhein-Westfalen"}},{"name":"Westremweg","postalCode":"37284","locality":"Waldkappel","municipality":{"key":"06636012","name":"Waldkappel, Stadt","type":"Stadt"},"district":{"key":"06636","name":"Werra-Meißner-Kreis","type":"Landkreis"},"federalState":{"key":"06","name":"Hessen"}},{"name":"Westring","postalCode":"77876","locality":"Kappelrodeck","municipality":{"key":"08317056","name":"Kappelrodeck","type":"Kreisangehörige_Gemeinde"},"district":{"key":"08317","name":"Ortenaukreis","type":"Landkreis"},"federalState":{"key":"08","name":"Baden-Württemberg"}},{"name":"Wichern-Weg","postalCode":"49492","locality":"Westerkappeln","municipality":{"key":"05566092","name":"Westerkappeln","type":"Kreisangehörige_Gemeinde"},"district":{"key":"05566","name":"Steinfurt","type":"Kreis"},"federalState":{"key":"05","name":"Nordrhein-Westfalen"}},{"name":"Wiesengasse","postalCode":"37284","locality":"Waldkappel","municipality":{"key":"06636012","name":"Waldkappel, Stadt","type":"Stadt"},"district":{"key":"06636","name":"Werra-Meißner-Kreis","type":"Landkreis"},"federalState":{"key":"06","name":"Hessen"}},{"name":"Wiesengrund","postalCode":"24376","locality":"Kappeln","municipality":{"key":"01059045","name":"Kappeln, Stadt","type":"Stadt"},"district":{"key":"01059","name":"Schleswig-Flensburg","type":"Kreis"},"federalState":{"key":"01","name":"Schleswig-Holstein"}},{"name":"Wiesenweg","postalCode":"49492","locality":"Westerkappeln","municipality":{"key":"05566092","name":"Westerkappeln","type":"Kreisangehörige_Gemeinde"},"district":{"key":"05566","name":"Steinfurt","type":"Kreis"},"federalState":{"key":"05","name":"Nordrhein-Westfalen"}},{"name":"Wiker Str.","postalCode":"24376","locality":"Kappeln","municipality":{"key":"01059045","name":"Kappeln, Stadt","type":"Stadt"},"district":{"key":"01059","name":"Schleswig-Flensburg","type":"Kreis"},"federalState":{"key":"01","name":"Schleswig-Holstein"}},{"name":"Wilhelm-Keller-Str.","postalCode":"77966","locality":"Kappel-Grafenhausen","municipality":{"key":"08317152","name":"Kappel-Grafenhausen","type":"Kreisangehörige_Gemeinde"},"district":{"key":"08317","name":"Ortenaukreis","type":"Landkreis"},"federalState":{"key":"08","name":"Baden-Württemberg"}},{"name":"Wilhelmshöhe","postalCode":"49492","locality":"Westerkappeln","municipality":{"key":"05566092","name":"Westerkappeln","type":"Kreisangehörige_Gemeinde"},"district":{"key":"05566","name":"Steinfurt","type":"Kreis"},"federalState":{"key":"05","name":"Nordrhein-Westfalen"}},{"name":"Wilkenkampstr.","postalCode":"49492","locality":"Westerkappeln","municipality":{"key":"05566092","name":"Westerkappeln","type":"Kreisangehörige_Gemeinde"},"district":{"key":"05566","name":"Steinfurt","type":"Kreis"},"federalState":{"key":"05","name":"Nordrhein-Westfalen"}},{"name":"Winterbürg","postalCode":"77876","locality":"Kappelrodeck","municipality":{"key":"08317056","name":"Kappelrodeck","type":"Kreisangehörige_Gemeinde"},"district":{"key":"08317","name":"Ortenaukreis","type":"Landkreis"},"federalState":{"key":"08","name":"Baden-Württemberg"}},{"name":"Wittenweierstr.","postalCode":"77966","locality":"Kappel-Grafenhausen","municipality":{"key":"08317152","name":"Kappel-Grafenhausen","type":"Kreisangehörige_Gemeinde"},"district":{"key":"08317","name":"Ortenaukreis","type":"Landkreis"},"federalState":{"key":"08","name":"Baden-Württemberg"}},{"name":"Wolfskaute","postalCode":"37284","locality":"Waldkappel","municipality":{"key":"06636012","name":"Waldkappel, Stadt","type":"Stadt"},"district":{"key":"06636","name":"Werra-Meißner-Kreis","type":"Landkreis"},"federalState":{"key":"06","name":"Hessen"}},{"name":"Zaunkönigweg","postalCode":"24376","locality":"Kappeln","municipality":{"key":"01059045","name":"Kappeln, Stadt","type":"Stadt"},"district":{"key":"01059","name":"Schleswig-Flensburg","type":"Kreis"},"federalState":{"key":"01","name":"Schleswig-Holstein"}},{"name":"Zeller Str.","postalCode":"55483","locality":"Kappel","municipality":{"key":"07140062","name":"Kappel","type":"Kreisangehörige_Gemeinde"},"district":{"key":"07140","name":"Rhein-Hunsrück-Kreis","type":"Landkreis"},"federalState":{"key":"07","name":"Rheinland-Pfalz"}},{"name":"Ziegeleiweg","postalCode":"24376","locality":"Kappeln","municipality":{"key":"01059045","name":"Kappeln, Stadt","type":"Stadt"},"district":{"key":"01059","name":"Schleswig-Flensburg","type":"Kreis"},"federalState":{"key":"01","name":"Schleswig-Holstein"}},{"name":"Ziegelhof","postalCode":"77876","locality":"Kappelrodeck","municipality":{"key":"08317056","name":"Kappelrodeck","type":"Kreisangehörige_Gemeinde"},"district":{"key":"08317","name":"Ortenaukreis","type":"Landkreis"},"federalState":{"key":"08","name":"Baden-Württemberg"}},{"name":"Ziegelstr.","postalCode":"77966","locality":"Kappel-Grafenhausen","municipality":{"key":"08317152","name":"Kappel-Grafenhausen","type":"Kreisangehörige_Gemeinde"},"district":{"key":"08317","name":"Ortenaukreis","type":"Landkreis"},"federalState":{"key":"08","name":"Baden-Württemberg"}},{"name":"Zimmergasse","postalCode":"77966","locality":"Kappel-Grafenhausen","municipality":{"key":"08317152","name":"Kappel-Grafenhausen","type":"Kreisangehörige_Gemeinde"},"district":{"key":"08317","name":"Ortenaukreis","type":"Landkreis"},"federalState":{"key":"08","name":"Baden-Württemberg"}},{"name":"Zufahrt zum Löschteich","postalCode":"49492","locality":"Westerkappeln","municipality":{"key":"05566092","name":"Westerkappeln","type":"Kreisangehörige_Gemeinde"},"district":{"key":"05566","name":"Steinfurt","type":"Kreis"},"federalState":{"key":"05","name":"Nordrhein-Westfalen"}},{"name":"Zum Düsterdiek","postalCode":"49492","locality":"Westerkappeln","municipality":{"key":"05566092","name":"Westerkappeln","type":"Kreisangehörige_Gemeinde"},"district":{"key":"05566","name":"Steinfurt","type":"Kreis"},"federalState":{"key":"05","name":"Nordrhein-Westfalen"}},{"name":"Zum Habichtswald","postalCode":"49492","locality":"Westerkappeln","municipality":{"key":"05566092","name":"Westerkappeln","type":"Kreisangehörige_Gemeinde"},"district":{"key":"05566","name":"Steinfurt","type":"Kreis"},"federalState":{"key":"05","name":"Nordrhein-Westfalen"}},{"name":"Zum Junkerhof","postalCode":"37284","locality":"Waldkappel","municipality":{"key":"06636012","name":"Waldkappel, Stadt","type":"Stadt"},"district":{"key":"06636","name":"Werra-Meißner-Kreis","type":"Landkreis"},"federalState":{"key":"06","name":"Hessen"}},{"name":"Zum Lotter Bahnhof","postalCode":"49492","locality":"Westerkappeln","municipality":{"key":"05566092","name":"Westerkappeln","type":"Kreisangehörige_Gemeinde"},"district":{"key":"05566","name":"Steinfurt","type":"Kreis"},"federalState":{"key":"05","name":"Nordrhein-Westfalen"}},{"name":"Zum Rückeberg","postalCode":"24376","locality":"Kappeln","municipality":{"key":"01059045","name":"Kappeln, Stadt","type":"Stadt"},"district":{"key":"01059","name":"Schleswig-Flensburg","type":"Kreis"},"federalState":{"key":"01","name":"Schleswig-Holstein"}},{"name":"Zwingli-Weg","postalCode":"49492","locality":"Westerkappeln","municipality":{"key":"05566092","name":"Westerkappeln","type":"Kreisangehörige_Gemeinde"},"district":{"key":"05566","name":"Steinfurt","type":"Kreis"},"federalState":{"key":"05","name":"Nordrhein-Westfalen"}},]