[{"name":"Alte Dorfstr.","postalCode":"17406","locality":"Stolpe auf Usedom","municipality":{"key":"13075129","name":"Stolpe auf Usedom","type":"Kreisangehörige_Gemeinde"},"district":{"key":"13075","name":"Vorpommern-Greifswald","type":"Landkreis"},"federalState":{"key":"13","name":"Mecklenburg-Vorpommern"}},{"name":"Am Schloss","postalCode":"17406","locality":"Stolpe auf Usedom","municipality":{"key":"13075129","name":"Stolpe auf Usedom","type":"Kreisangehörige_Gemeinde"},"district":{"key":"13075","name":"Vorpommern-Greifswald","type":"Landkreis"},"federalState":{"key":"13","name":"Mecklenburg-Vorpommern"}},{"name":"Anklamer Str.","postalCode":"17406","locality":"Usedom","municipality":{"key":"13075137","name":"Usedom, Stadt","type":"Stadt"},"district":{"key":"13075","name":"Vorpommern-Greifswald","type":"Landkreis"},"federalState":{"key":"13","name":"Mecklenburg-Vorpommern"}},{"name":"Ausbau","postalCode":"17406","locality":"Stolpe auf Usedom","municipality":{"key":"13075129","name":"Stolpe auf Usedom","type":"Kreisangehörige_Gemeinde"},"district":{"key":"13075","name":"Vorpommern-Greifswald","type":"Landkreis"},"federalState":{"key":"13","name":"Mecklenburg-Vorpommern"}},{"name":"Bäderstr.","postalCode":"17406","locality":"Usedom","municipality":{"key":"13075137","name":"Usedom, Stadt","type":"Stadt"},"district":{"key":"13075","name":"Vorpommern-Greifswald","type":"Landkreis"},"federalState":{"key":"13","name":"Mecklenburg-Vorpommern"}},{"name":"Bauhof","postalCode":"17406","locality":"Usedom","municipality":{"key":"13075137","name":"Usedom, Stadt","type":"Stadt"},"district":{"key":"13075","name":"Vorpommern-Greifswald","type":"Landkreis"},"federalState":{"key":"13","name":"Mecklenburg-Vorpommern"}},{"name":"Dorfstr.","postalCode":"17406","locality":"Stolpe auf Usedom","municipality":{"key":"13075129","name":"Stolpe auf Usedom","type":"Kreisangehörige_Gemeinde"},"district":{"key":"13075","name":"Vorpommern-Greifswald","type":"Landkreis"},"federalState":{"key":"13","name":"Mecklenburg-Vorpommern"}},{"name":"Fliederweg","postalCode":"17406","locality":"Usedom","municipality":{"key":"13075137","name":"Usedom, Stadt","type":"Stadt"},"district":{"key":"13075","name":"Vorpommern-Greifswald","type":"Landkreis"},"federalState":{"key":"13","name":"Mecklenburg-Vorpommern"}},{"name":"Gellenthin","postalCode":"17406","locality":"Usedom","municipality":{"key":"13075137","name":"Usedom, Stadt","type":"Stadt"},"district":{"key":"13075","name":"Vorpommern-Greifswald","type":"Landkreis"},"federalState":{"key":"13","name":"Mecklenburg-Vorpommern"}},{"name":"Geschwister-Scholl-Str.","postalCode":"17406","locality":"Usedom","municipality":{"key":"13075137","name":"Usedom, Stadt","type":"Stadt"},"district":{"key":"13075","name":"Vorpommern-Greifswald","type":"Landkreis"},"federalState":{"key":"13","name":"Mecklenburg-Vorpommern"}},{"name":"Gneventhin","postalCode":"17406","locality":"Usedom","municipality":{"key":"13075137","name":"Usedom, Stadt","type":"Stadt"},"district":{"key":"13075","name":"Vorpommern-Greifswald","type":"Landkreis"},"federalState":{"key":"13","name":"Mecklenburg-Vorpommern"}},{"name":"Goethestr.","postalCode":"17406","locality":"Usedom","municipality":{"key":"13075137","name":"Usedom, Stadt","type":"Stadt"},"district":{"key":"13075","name":"Vorpommern-Greifswald","type":"Landkreis"},"federalState":{"key":"13","name":"Mecklenburg-Vorpommern"}},{"name":"Grafenweg","postalCode":"17406","locality":"Stolpe auf Usedom","municipality":{"key":"13075129","name":"Stolpe auf Usedom","type":"Kreisangehörige_Gemeinde"},"district":{"key":"13075","name":"Vorpommern-Greifswald","type":"Landkreis"},"federalState":{"key":"13","name":"Mecklenburg-Vorpommern"}},{"name":"Hafenpromenade","postalCode":"17406","locality":"Usedom","municipality":{"key":"13075137","name":"Usedom, Stadt","type":"Stadt"},"district":{"key":"13075","name":"Vorpommern-Greifswald","type":"Landkreis"},"federalState":{"key":"13","name":"Mecklenburg-Vorpommern"}},{"name":"Henstedt-Ulzburg-Ring","postalCode":"17406","locality":"Usedom","municipality":{"key":"13075137","name":"Usedom, Stadt","type":"Stadt"},"district":{"key":"13075","name":"Vorpommern-Greifswald","type":"Landkreis"},"federalState":{"key":"13","name":"Mecklenburg-Vorpommern"}},{"name":"Karnin","postalCode":"17406","locality":"Usedom","municipality":{"key":"13075137","name":"Usedom, Stadt","type":"Stadt"},"district":{"key":"13075","name":"Vorpommern-Greifswald","type":"Landkreis"},"federalState":{"key":"13","name":"Mecklenburg-Vorpommern"}},{"name":"Karniner Str.","postalCode":"17406","locality":"Usedom","municipality":{"key":"13075137","name":"Usedom, Stadt","type":"Stadt"},"district":{"key":"13075","name":"Vorpommern-Greifswald","type":"Landkreis"},"federalState":{"key":"13","name":"Mecklenburg-Vorpommern"}},{"name":"Kirchstr.","postalCode":"17406","locality":"Stolpe auf Usedom","municipality":{"key":"13075129","name":"Stolpe auf Usedom","type":"Kreisangehörige_Gemeinde"},"district":{"key":"13075","name":"Vorpommern-Greifswald","type":"Landkreis"},"federalState":{"key":"13","name":"Mecklenburg-Vorpommern"}},{"name":"Kölpin","postalCode":"17406","locality":"Usedom","municipality":{"key":"13075137","name":"Usedom, Stadt","type":"Stadt"},"district":{"key":"13075","name":"Vorpommern-Greifswald","type":"Landkreis"},"federalState":{"key":"13","name":"Mecklenburg-Vorpommern"}},{"name":"Markt","postalCode":"17406","locality":"Usedom","municipality":{"key":"13075137","name":"Usedom, Stadt","type":"Stadt"},"district":{"key":"13075","name":"Vorpommern-Greifswald","type":"Landkreis"},"federalState":{"key":"13","name":"Mecklenburg-Vorpommern"}},{"name":"Mönchow","postalCode":"17406","locality":"Usedom","municipality":{"key":"13075137","name":"Usedom, Stadt","type":"Stadt"},"district":{"key":"13075","name":"Vorpommern-Greifswald","type":"Landkreis"},"federalState":{"key":"13","name":"Mecklenburg-Vorpommern"}},{"name":"Neubau","postalCode":"17406","locality":"Stolpe auf Usedom","municipality":{"key":"13075129","name":"Stolpe auf Usedom","type":"Kreisangehörige_Gemeinde"},"district":{"key":"13075","name":"Vorpommern-Greifswald","type":"Landkreis"},"federalState":{"key":"13","name":"Mecklenburg-Vorpommern"}},{"name":"Ostklüne","postalCode":"17406","locality":"Usedom","municipality":{"key":"13075137","name":"Usedom, Stadt","type":"Stadt"},"district":{"key":"13075","name":"Vorpommern-Greifswald","type":"Landkreis"},"federalState":{"key":"13","name":"Mecklenburg-Vorpommern"}},{"name":"Paske","postalCode":"17406","locality":"Usedom","municipality":{"key":"13075137","name":"Usedom, Stadt","type":"Stadt"},"district":{"key":"13075","name":"Vorpommern-Greifswald","type":"Landkreis"},"federalState":{"key":"13","name":"Mecklenburg-Vorpommern"}},{"name":"Pasker Brücke","postalCode":"17406","locality":"Usedom","municipality":{"key":"13075137","name":"Usedom, Stadt","type":"Stadt"},"district":{"key":"13075","name":"Vorpommern-Greifswald","type":"Landkreis"},"federalState":{"key":"13","name":"Mecklenburg-Vorpommern"}},{"name":"Pasker Weg","postalCode":"17406","locality":"Usedom","municipality":{"key":"13075137","name":"Usedom, Stadt","type":"Stadt"},"district":{"key":"13075","name":"Vorpommern-Greifswald","type":"Landkreis"},"federalState":{"key":"13","name":"Mecklenburg-Vorpommern"}},{"name":"Peenestr.","postalCode":"17406","locality":"Usedom","municipality":{"key":"13075137","name":"Usedom, Stadt","type":"Stadt"},"district":{"key":"13075","name":"Vorpommern-Greifswald","type":"Landkreis"},"federalState":{"key":"13","name":"Mecklenburg-Vorpommern"}},{"name":"Priesterstr.","postalCode":"17406","locality":"Usedom","municipality":{"key":"13075137","name":"Usedom, Stadt","type":"Stadt"},"district":{"key":"13075","name":"Vorpommern-Greifswald","type":"Landkreis"},"federalState":{"key":"13","name":"Mecklenburg-Vorpommern"}},{"name":"Randowstr.","postalCode":"17406","locality":"Usedom","municipality":{"key":"13075137","name":"Usedom, Stadt","type":"Stadt"},"district":{"key":"13075","name":"Vorpommern-Greifswald","type":"Landkreis"},"federalState":{"key":"13","name":"Mecklenburg-Vorpommern"}},{"name":"Reihe","postalCode":"17406","locality":"Stolpe auf Usedom","municipality":{"key":"13075129","name":"Stolpe auf Usedom","type":"Kreisangehörige_Gemeinde"},"district":{"key":"13075","name":"Vorpommern-Greifswald","type":"Landkreis"},"federalState":{"key":"13","name":"Mecklenburg-Vorpommern"}},{"name":"Rosenstr.","postalCode":"17406","locality":"Usedom","municipality":{"key":"13075137","name":"Usedom, Stadt","type":"Stadt"},"district":{"key":"13075","name":"Vorpommern-Greifswald","type":"Landkreis"},"federalState":{"key":"13","name":"Mecklenburg-Vorpommern"}},{"name":"Ruhewald- Weg","postalCode":"17406","locality":"Usedom","municipality":{"key":"13075137","name":"Usedom, Stadt","type":"Stadt"},"district":{"key":"13075","name":"Vorpommern-Greifswald","type":"Landkreis"},"federalState":{"key":"13","name":"Mecklenburg-Vorpommern"}},{"name":"Schloss","postalCode":"17406","locality":"Stolpe auf Usedom","municipality":{"key":"13075129","name":"Stolpe auf Usedom","type":"Kreisangehörige_Gemeinde"},"district":{"key":"13075","name":"Vorpommern-Greifswald","type":"Landkreis"},"federalState":{"key":"13","name":"Mecklenburg-Vorpommern"}},{"name":"Seeadler-Damm","postalCode":"17406","locality":"Usedom","municipality":{"key":"13075137","name":"Usedom, Stadt","type":"Stadt"},"district":{"key":"13075","name":"Vorpommern-Greifswald","type":"Landkreis"},"federalState":{"key":"13","name":"Mecklenburg-Vorpommern"}},{"name":"Stolper Str.","postalCode":"17406","locality":"Stolpe auf Usedom","municipality":{"key":"13075129","name":"Stolpe auf Usedom","type":"Kreisangehörige_Gemeinde"},"district":{"key":"13075","name":"Vorpommern-Greifswald","type":"Landkreis"},"federalState":{"key":"13","name":"Mecklenburg-Vorpommern"}},{"name":"Stolper Str.","postalCode":"17406","locality":"Usedom","municipality":{"key":"13075137","name":"Usedom, Stadt","type":"Stadt"},"district":{"key":"13075","name":"Vorpommern-Greifswald","type":"Landkreis"},"federalState":{"key":"13","name":"Mecklenburg-Vorpommern"}},{"name":"Swinemünder Str.","postalCode":"17406","locality":"Usedom","municipality":{"key":"13075137","name":"Usedom, Stadt","type":"Stadt"},"district":{"key":"13075","name":"Vorpommern-Greifswald","type":"Landkreis"},"federalState":{"key":"13","name":"Mecklenburg-Vorpommern"}},{"name":"Waldweg","postalCode":"17406","locality":"Usedom","municipality":{"key":"13075137","name":"Usedom, Stadt","type":"Stadt"},"district":{"key":"13075","name":"Vorpommern-Greifswald","type":"Landkreis"},"federalState":{"key":"13","name":"Mecklenburg-Vorpommern"}},{"name":"Wallstr.","postalCode":"17406","locality":"Usedom","municipality":{"key":"13075137","name":"Usedom, Stadt","type":"Stadt"},"district":{"key":"13075","name":"Vorpommern-Greifswald","type":"Landkreis"},"federalState":{"key":"13","name":"Mecklenburg-Vorpommern"}},{"name":"Weg zur Badestelle","postalCode":"17406","locality":"Usedom","municipality":{"key":"13075137","name":"Usedom, Stadt","type":"Stadt"},"district":{"key":"13075","name":"Vorpommern-Greifswald","type":"Landkreis"},"federalState":{"key":"13","name":"Mecklenburg-Vorpommern"}},{"name":"Weißer Berg","postalCode":"17406","locality":"Usedom","municipality":{"key":"13075137","name":"Usedom, Stadt","type":"Stadt"},"district":{"key":"13075","name":"Vorpommern-Greifswald","type":"Landkreis"},"federalState":{"key":"13","name":"Mecklenburg-Vorpommern"}},{"name":"Welzin","postalCode":"17406","locality":"Usedom","municipality":{"key":"13075137","name":"Usedom, Stadt","type":"Stadt"},"district":{"key":"13075","name":"Vorpommern-Greifswald","type":"Landkreis"},"federalState":{"key":"13","name":"Mecklenburg-Vorpommern"}},{"name":"Westklüne","postalCode":"17406","locality":"Usedom","municipality":{"key":"13075137","name":"Usedom, Stadt","type":"Stadt"},"district":{"key":"13075","name":"Vorpommern-Greifswald","type":"Landkreis"},"federalState":{"key":"13","name":"Mecklenburg-Vorpommern"}},{"name":"Wieckstr.","postalCode":"17406","locality":"Usedom","municipality":{"key":"13075137","name":"Usedom, Stadt","type":"Stadt"},"district":{"key":"13075","name":"Vorpommern-Greifswald","type":"Landkreis"},"federalState":{"key":"13","name":"Mecklenburg-Vorpommern"}},{"name":"Wilhelmsfelde","postalCode":"17406","locality":"Usedom","municipality":{"key":"13075137","name":"Usedom, Stadt","type":"Stadt"},"district":{"key":"13075","name":"Vorpommern-Greifswald","type":"Landkreis"},"federalState":{"key":"13","name":"Mecklenburg-Vorpommern"}},{"name":"Wilhelmshof","postalCode":"17406","locality":"Usedom","municipality":{"key":"13075137","name":"Usedom, Stadt","type":"Stadt"},"district":{"key":"13075","name":"Vorpommern-Greifswald","type":"Landkreis"},"federalState":{"key":"13","name":"Mecklenburg-Vorpommern"}},{"name":"Zecherin","postalCode":"17406","locality":"Usedom","municipality":{"key":"13075137","name":"Usedom, Stadt","type":"Stadt"},"district":{"key":"13075","name":"Vorpommern-Greifswald","type":"Landkreis"},"federalState":{"key":"13","name":"Mecklenburg-Vorpommern"}},{"name":"Zecheriner Dorfstr.","postalCode":"17406","locality":"Usedom","municipality":{"key":"13075137","name":"Usedom, Stadt","type":"Stadt"},"district":{"key":"13075","name":"Vorpommern-Greifswald","type":"Landkreis"},"federalState":{"key":"13","name":"Mecklenburg-Vorpommern"}},{"name":"Ziegeleiweg","postalCode":"17406","locality":"Stolpe auf Usedom","municipality":{"key":"13075129","name":"Stolpe auf Usedom","type":"Kreisangehörige_Gemeinde"},"district":{"key":"13075","name":"Vorpommern-Greifswald","type":"Landkreis"},"federalState":{"key":"13","name":"Mecklenburg-Vorpommern"}},{"name":"Zum Borken","postalCode":"17406","locality":"Stolpe auf Usedom","municipality":{"key":"13075129","name":"Stolpe auf Usedom","type":"Kreisangehörige_Gemeinde"},"district":{"key":"13075","name":"Vorpommern-Greifswald","type":"Landkreis"},"federalState":{"key":"13","name":"Mecklenburg-Vorpommern"}},{"name":"Zum Haff","postalCode":"17406","locality":"Stolpe auf Usedom","municipality":{"key":"13075129","name":"Stolpe auf Usedom","type":"Kreisangehörige_Gemeinde"},"district":{"key":"13075","name":"Vorpommern-Greifswald","type":"Landkreis"},"federalState":{"key":"13","name":"Mecklenburg-Vorpommern"}},{"name":"Zur Trift","postalCode":"17406","locality":"Stolpe auf Usedom","municipality":{"key":"13075129","name":"Stolpe auf Usedom","type":"Kreisangehörige_Gemeinde"},"district":{"key":"13075","name":"Vorpommern-Greifswald","type":"Landkreis"},"federalState":{"key":"13","name":"Mecklenburg-Vorpommern"}},{"name":"Zur Wolfsschlucht","postalCode":"17406","locality":"Stolpe auf Usedom","municipality":{"key":"13075129","name":"Stolpe auf Usedom","type":"Kreisangehörige_Gemeinde"},"district":{"key":"13075","name":"Vorpommern-Greifswald","type":"Landkreis"},"federalState":{"key":"13","name":"Mecklenburg-Vorpommern"}},]