[{"name":"Aachener Str.","postalCode":"52477","locality":"Alsdorf","municipality":{"key":"05334004","name":"Alsdorf, Stadt","type":"Stadt"},"district":{"key":"05334","name":"Städteregion Aachen","type":"Kreis"},"federalState":{"key":"05","name":"Nordrhein-Westfalen"}},{"name":"Abraham-Lucas-Str.","postalCode":"52477","locality":"Alsdorf","municipality":{"key":"05334004","name":"Alsdorf, Stadt","type":"Stadt"},"district":{"key":"05334","name":"Städteregion Aachen","type":"Kreis"},"federalState":{"key":"05","name":"Nordrhein-Westfalen"}},{"name":"Ackerstr.","postalCode":"52477","locality":"Alsdorf","municipality":{"key":"05334004","name":"Alsdorf, Stadt","type":"Stadt"},"district":{"key":"05334","name":"Städteregion Aachen","type":"Kreis"},"federalState":{"key":"05","name":"Nordrhein-Westfalen"}},{"name":"Adenauerring","postalCode":"52477","locality":"Alsdorf","municipality":{"key":"05334004","name":"Alsdorf, Stadt","type":"Stadt"},"district":{"key":"05334","name":"Städteregion Aachen","type":"Kreis"},"federalState":{"key":"05","name":"Nordrhein-Westfalen"}},{"name":"Adlerweg","postalCode":"52477","locality":"Alsdorf","municipality":{"key":"05334004","name":"Alsdorf, Stadt","type":"Stadt"},"district":{"key":"05334","name":"Städteregion Aachen","type":"Kreis"},"federalState":{"key":"05","name":"Nordrhein-Westfalen"}},{"name":"Adolf-Kolping-Str.","postalCode":"52477","locality":"Alsdorf","municipality":{"key":"05334004","name":"Alsdorf, Stadt","type":"Stadt"},"district":{"key":"05334","name":"Städteregion Aachen","type":"Kreis"},"federalState":{"key":"05","name":"Nordrhein-Westfalen"}},{"name":"Ahornstr.","postalCode":"52477","locality":"Alsdorf","municipality":{"key":"05334004","name":"Alsdorf, Stadt","type":"Stadt"},"district":{"key":"05334","name":"Städteregion Aachen","type":"Kreis"},"federalState":{"key":"05","name":"Nordrhein-Westfalen"}},{"name":"Ahornweg","postalCode":"54578","locality":"Walsdorf","municipality":{"key":"07233080","name":"Walsdorf","type":"Kreisangehörige_Gemeinde"},"district":{"key":"07233","name":"Vulkaneifel","type":"Landkreis"},"federalState":{"key":"07","name":"Rheinland-Pfalz"}},{"name":"Ahornweg","postalCode":"57518","locality":"Alsdorf","municipality":{"key":"07132002","name":"Alsdorf","type":"Kreisangehörige_Gemeinde"},"district":{"key":"07132","name":"Altenkirchen (Westerwald)","type":"Landkreis"},"federalState":{"key":"07","name":"Rheinland-Pfalz"}},{"name":"Ahrweg","postalCode":"52477","locality":"Alsdorf","municipality":{"key":"05334004","name":"Alsdorf, Stadt","type":"Stadt"},"district":{"key":"05334","name":"Städteregion Aachen","type":"Kreis"},"federalState":{"key":"05","name":"Nordrhein-Westfalen"}},{"name":"Akazienweg","postalCode":"52477","locality":"Alsdorf","municipality":{"key":"05334004","name":"Alsdorf, Stadt","type":"Stadt"},"district":{"key":"05334","name":"Städteregion Aachen","type":"Kreis"},"federalState":{"key":"05","name":"Nordrhein-Westfalen"}},{"name":"Akeleiweg","postalCode":"52477","locality":"Alsdorf","municipality":{"key":"05334004","name":"Alsdorf, Stadt","type":"Stadt"},"district":{"key":"05334","name":"Städteregion Aachen","type":"Kreis"},"federalState":{"key":"05","name":"Nordrhein-Westfalen"}},{"name":"Albert-Schweitzer-Str.","postalCode":"52477","locality":"Alsdorf","municipality":{"key":"05334004","name":"Alsdorf, Stadt","type":"Stadt"},"district":{"key":"05334","name":"Städteregion Aachen","type":"Kreis"},"federalState":{"key":"05","name":"Nordrhein-Westfalen"}},{"name":"Albertstr.","postalCode":"52477","locality":"Alsdorf","municipality":{"key":"05334004","name":"Alsdorf, Stadt","type":"Stadt"},"district":{"key":"05334","name":"Städteregion Aachen","type":"Kreis"},"federalState":{"key":"05","name":"Nordrhein-Westfalen"}},{"name":"Albrecht-Dürer-Str.","postalCode":"52477","locality":"Alsdorf","municipality":{"key":"05334004","name":"Alsdorf, Stadt","type":"Stadt"},"district":{"key":"05334","name":"Städteregion Aachen","type":"Kreis"},"federalState":{"key":"05","name":"Nordrhein-Westfalen"}},{"name":"Aldenhovener Str.","postalCode":"52477","locality":"Alsdorf","municipality":{"key":"05334004","name":"Alsdorf, Stadt","type":"Stadt"},"district":{"key":"05334","name":"Städteregion Aachen","type":"Kreis"},"federalState":{"key":"05","name":"Nordrhein-Westfalen"}},{"name":"Alfred-Brehm-Str.","postalCode":"52477","locality":"Alsdorf","municipality":{"key":"05334004","name":"Alsdorf, Stadt","type":"Stadt"},"district":{"key":"05334","name":"Städteregion Aachen","type":"Kreis"},"federalState":{"key":"05","name":"Nordrhein-Westfalen"}},{"name":"Algenweg","postalCode":"52477","locality":"Alsdorf","municipality":{"key":"05334004","name":"Alsdorf, Stadt","type":"Stadt"},"district":{"key":"05334","name":"Städteregion Aachen","type":"Kreis"},"federalState":{"key":"05","name":"Nordrhein-Westfalen"}},{"name":"Alleestr.","postalCode":"52477","locality":"Alsdorf","municipality":{"key":"05334004","name":"Alsdorf, Stadt","type":"Stadt"},"district":{"key":"05334","name":"Städteregion Aachen","type":"Kreis"},"federalState":{"key":"05","name":"Nordrhein-Westfalen"}},{"name":"Allensteiner Str.","postalCode":"52477","locality":"Alsdorf","municipality":{"key":"05334004","name":"Alsdorf, Stadt","type":"Stadt"},"district":{"key":"05334","name":"Städteregion Aachen","type":"Kreis"},"federalState":{"key":"05","name":"Nordrhein-Westfalen"}},{"name":"Alsbergweg","postalCode":"57518","locality":"Alsdorf","municipality":{"key":"07132002","name":"Alsdorf","type":"Kreisangehörige_Gemeinde"},"district":{"key":"07132","name":"Altenkirchen (Westerwald)","type":"Landkreis"},"federalState":{"key":"07","name":"Rheinland-Pfalz"}},{"name":"Alte Aachener Str.","postalCode":"52477","locality":"Alsdorf","municipality":{"key":"05334004","name":"Alsdorf, Stadt","type":"Stadt"},"district":{"key":"05334","name":"Städteregion Aachen","type":"Kreis"},"federalState":{"key":"05","name":"Nordrhein-Westfalen"}},{"name":"Alte Luisenstr.","postalCode":"52477","locality":"Alsdorf","municipality":{"key":"05334004","name":"Alsdorf, Stadt","type":"Stadt"},"district":{"key":"05334","name":"Städteregion Aachen","type":"Kreis"},"federalState":{"key":"05","name":"Nordrhein-Westfalen"}},{"name":"Alter Römerweg","postalCode":"52477","locality":"Alsdorf","municipality":{"key":"05334004","name":"Alsdorf, Stadt","type":"Stadt"},"district":{"key":"05334","name":"Städteregion Aachen","type":"Kreis"},"federalState":{"key":"05","name":"Nordrhein-Westfalen"}},{"name":"Altes Sägewerk","postalCode":"96194","locality":"Walsdorf","municipality":{"key":"09471208","name":"Walsdorf","type":"Kreisangehörige_Gemeinde"},"district":{"key":"09471","name":"Bamberg","type":"Landkreis"},"federalState":{"key":"09","name":"Bayern"}},{"name":"Alte Str.","postalCode":"96194","locality":"Walsdorf","municipality":{"key":"09471208","name":"Walsdorf","type":"Kreisangehörige_Gemeinde"},"district":{"key":"09471","name":"Bamberg","type":"Landkreis"},"federalState":{"key":"09","name":"Bayern"}},{"name":"Alte Wardener Str.","postalCode":"52477","locality":"Alsdorf","municipality":{"key":"05334004","name":"Alsdorf, Stadt","type":"Stadt"},"district":{"key":"05334","name":"Städteregion Aachen","type":"Kreis"},"federalState":{"key":"05","name":"Nordrhein-Westfalen"}},{"name":"Altstr.","postalCode":"54578","locality":"Walsdorf","municipality":{"key":"07233080","name":"Walsdorf","type":"Kreisangehörige_Gemeinde"},"district":{"key":"07233","name":"Vulkaneifel","type":"Landkreis"},"federalState":{"key":"07","name":"Rheinland-Pfalz"}},{"name":"Am alten DJK-Sportplatz","postalCode":"52477","locality":"Alsdorf","municipality":{"key":"05334004","name":"Alsdorf, Stadt","type":"Stadt"},"district":{"key":"05334","name":"Städteregion Aachen","type":"Kreis"},"federalState":{"key":"05","name":"Nordrhein-Westfalen"}},{"name":"Am Alten Gericht","postalCode":"52477","locality":"Alsdorf","municipality":{"key":"05334004","name":"Alsdorf, Stadt","type":"Stadt"},"district":{"key":"05334","name":"Städteregion Aachen","type":"Kreis"},"federalState":{"key":"05","name":"Nordrhein-Westfalen"}},{"name":"Am Anger","postalCode":"52477","locality":"Alsdorf","municipality":{"key":"05334004","name":"Alsdorf, Stadt","type":"Stadt"},"district":{"key":"05334","name":"Städteregion Aachen","type":"Kreis"},"federalState":{"key":"05","name":"Nordrhein-Westfalen"}},{"name":"Am Arsberg","postalCode":"57518","locality":"Alsdorf","municipality":{"key":"07132002","name":"Alsdorf","type":"Kreisangehörige_Gemeinde"},"district":{"key":"07132","name":"Altenkirchen (Westerwald)","type":"Landkreis"},"federalState":{"key":"07","name":"Rheinland-Pfalz"}},{"name":"Am Bahndamm","postalCode":"52477","locality":"Alsdorf","municipality":{"key":"05334004","name":"Alsdorf, Stadt","type":"Stadt"},"district":{"key":"05334","name":"Städteregion Aachen","type":"Kreis"},"federalState":{"key":"05","name":"Nordrhein-Westfalen"}},{"name":"Am Bahnhof Schutzbach","postalCode":"57518","locality":"Alsdorf","municipality":{"key":"07132002","name":"Alsdorf","type":"Kreisangehörige_Gemeinde"},"district":{"key":"07132","name":"Altenkirchen (Westerwald)","type":"Landkreis"},"federalState":{"key":"07","name":"Rheinland-Pfalz"}},{"name":"Am Baumgarten","postalCode":"96194","locality":"Walsdorf","municipality":{"key":"09471208","name":"Walsdorf","type":"Kreisangehörige_Gemeinde"},"district":{"key":"09471","name":"Bamberg","type":"Landkreis"},"federalState":{"key":"09","name":"Bayern"}},{"name":"Am Bürgerhof","postalCode":"52477","locality":"Alsdorf","municipality":{"key":"05334004","name":"Alsdorf, Stadt","type":"Stadt"},"district":{"key":"05334","name":"Städteregion Aachen","type":"Kreis"},"federalState":{"key":"05","name":"Nordrhein-Westfalen"}},{"name":"Am Driesch","postalCode":"52477","locality":"Alsdorf","municipality":{"key":"05334004","name":"Alsdorf, Stadt","type":"Stadt"},"district":{"key":"05334","name":"Städteregion Aachen","type":"Kreis"},"federalState":{"key":"05","name":"Nordrhein-Westfalen"}},{"name":"Am Ehrenmal","postalCode":"52477","locality":"Alsdorf","municipality":{"key":"05334004","name":"Alsdorf, Stadt","type":"Stadt"},"district":{"key":"05334","name":"Städteregion Aachen","type":"Kreis"},"federalState":{"key":"05","name":"Nordrhein-Westfalen"}},{"name":"Am Falter","postalCode":"52477","locality":"Alsdorf","municipality":{"key":"05334004","name":"Alsdorf, Stadt","type":"Stadt"},"district":{"key":"05334","name":"Städteregion Aachen","type":"Kreis"},"federalState":{"key":"05","name":"Nordrhein-Westfalen"}},{"name":"Am Feldrain","postalCode":"52477","locality":"Alsdorf","municipality":{"key":"05334004","name":"Alsdorf, Stadt","type":"Stadt"},"district":{"key":"05334","name":"Städteregion Aachen","type":"Kreis"},"federalState":{"key":"05","name":"Nordrhein-Westfalen"}},{"name":"Am Feuerwehrhaus","postalCode":"52477","locality":"Alsdorf","municipality":{"key":"05334004","name":"Alsdorf, Stadt","type":"Stadt"},"district":{"key":"05334","name":"Städteregion Aachen","type":"Kreis"},"federalState":{"key":"05","name":"Nordrhein-Westfalen"}},{"name":"Am Frankenhaus","postalCode":"52477","locality":"Alsdorf","municipality":{"key":"05334004","name":"Alsdorf, Stadt","type":"Stadt"},"district":{"key":"05334","name":"Städteregion Aachen","type":"Kreis"},"federalState":{"key":"05","name":"Nordrhein-Westfalen"}},{"name":"Am Ginsterberg","postalCode":"52477","locality":"Alsdorf","municipality":{"key":"05334004","name":"Alsdorf, Stadt","type":"Stadt"},"district":{"key":"05334","name":"Städteregion Aachen","type":"Kreis"},"federalState":{"key":"05","name":"Nordrhein-Westfalen"}},{"name":"Am Güterbahnhof","postalCode":"52477","locality":"Alsdorf","municipality":{"key":"05334004","name":"Alsdorf, Stadt","type":"Stadt"},"district":{"key":"05334","name":"Städteregion Aachen","type":"Kreis"},"federalState":{"key":"05","name":"Nordrhein-Westfalen"}},{"name":"Am Hagfeld","postalCode":"52477","locality":"Alsdorf","municipality":{"key":"05334004","name":"Alsdorf, Stadt","type":"Stadt"},"district":{"key":"05334","name":"Städteregion Aachen","type":"Kreis"},"federalState":{"key":"05","name":"Nordrhein-Westfalen"}},{"name":"Am Hang","postalCode":"52477","locality":"Alsdorf","municipality":{"key":"05334004","name":"Alsdorf, Stadt","type":"Stadt"},"district":{"key":"05334","name":"Städteregion Aachen","type":"Kreis"},"federalState":{"key":"05","name":"Nordrhein-Westfalen"}},{"name":"Am Höfchen","postalCode":"52477","locality":"Alsdorf","municipality":{"key":"05334004","name":"Alsdorf, Stadt","type":"Stadt"},"district":{"key":"05334","name":"Städteregion Aachen","type":"Kreis"},"federalState":{"key":"05","name":"Nordrhein-Westfalen"}},{"name":"Am Holzplatz","postalCode":"52477","locality":"Alsdorf","municipality":{"key":"05334004","name":"Alsdorf, Stadt","type":"Stadt"},"district":{"key":"05334","name":"Städteregion Aachen","type":"Kreis"},"federalState":{"key":"05","name":"Nordrhein-Westfalen"}},{"name":"Am Kellersberg","postalCode":"52477","locality":"Alsdorf","municipality":{"key":"05334004","name":"Alsdorf, Stadt","type":"Stadt"},"district":{"key":"05334","name":"Städteregion Aachen","type":"Kreis"},"federalState":{"key":"05","name":"Nordrhein-Westfalen"}},{"name":"Am Kiesschacht","postalCode":"52477","locality":"Alsdorf","municipality":{"key":"05334004","name":"Alsdorf, Stadt","type":"Stadt"},"district":{"key":"05334","name":"Städteregion Aachen","type":"Kreis"},"federalState":{"key":"05","name":"Nordrhein-Westfalen"}},{"name":"Bachstelzenweg","postalCode":"52477","locality":"Alsdorf","municipality":{"key":"05334004","name":"Alsdorf, Stadt","type":"Stadt"},"district":{"key":"05334","name":"Städteregion Aachen","type":"Kreis"},"federalState":{"key":"05","name":"Nordrhein-Westfalen"}},{"name":"Bachstr.","postalCode":"54578","locality":"Walsdorf","municipality":{"key":"07233080","name":"Walsdorf","type":"Kreisangehörige_Gemeinde"},"district":{"key":"07233","name":"Vulkaneifel","type":"Landkreis"},"federalState":{"key":"07","name":"Rheinland-Pfalz"}},{"name":"Bachstr.","postalCode":"96194","locality":"Walsdorf","municipality":{"key":"09471208","name":"Walsdorf","type":"Kreisangehörige_Gemeinde"},"district":{"key":"09471","name":"Bamberg","type":"Landkreis"},"federalState":{"key":"09","name":"Bayern"}},{"name":"Bachweg","postalCode":"54578","locality":"Walsdorf","municipality":{"key":"07233080","name":"Walsdorf","type":"Kreisangehörige_Gemeinde"},"district":{"key":"07233","name":"Vulkaneifel","type":"Landkreis"},"federalState":{"key":"07","name":"Rheinland-Pfalz"}},{"name":"Backesweg","postalCode":"57518","locality":"Alsdorf","municipality":{"key":"07132002","name":"Alsdorf","type":"Kreisangehörige_Gemeinde"},"district":{"key":"07132","name":"Altenkirchen (Westerwald)","type":"Landkreis"},"federalState":{"key":"07","name":"Rheinland-Pfalz"}},{"name":"Baesweilerstr.","postalCode":"52477","locality":"Alsdorf","municipality":{"key":"05334004","name":"Alsdorf, Stadt","type":"Stadt"},"district":{"key":"05334","name":"Städteregion Aachen","type":"Kreis"},"federalState":{"key":"05","name":"Nordrhein-Westfalen"}},{"name":"Bahnhofsplatz","postalCode":"52477","locality":"Alsdorf","municipality":{"key":"05334004","name":"Alsdorf, Stadt","type":"Stadt"},"district":{"key":"05334","name":"Städteregion Aachen","type":"Kreis"},"federalState":{"key":"05","name":"Nordrhein-Westfalen"}},{"name":"Bahnhofstr.","postalCode":"52477","locality":"Alsdorf","municipality":{"key":"05334004","name":"Alsdorf, Stadt","type":"Stadt"},"district":{"key":"05334","name":"Städteregion Aachen","type":"Kreis"},"federalState":{"key":"05","name":"Nordrhein-Westfalen"}},{"name":"Bahnstr.","postalCode":"52477","locality":"Alsdorf","municipality":{"key":"05334004","name":"Alsdorf, Stadt","type":"Stadt"},"district":{"key":"05334","name":"Städteregion Aachen","type":"Kreis"},"federalState":{"key":"05","name":"Nordrhein-Westfalen"}},{"name":"Bamberger Str.","postalCode":"96194","locality":"Walsdorf","municipality":{"key":"09471208","name":"Walsdorf","type":"Kreisangehörige_Gemeinde"},"district":{"key":"09471","name":"Bamberg","type":"Landkreis"},"federalState":{"key":"09","name":"Bayern"}},{"name":"Barbarastr.","postalCode":"52477","locality":"Alsdorf","municipality":{"key":"05334004","name":"Alsdorf, Stadt","type":"Stadt"},"district":{"key":"05334","name":"Städteregion Aachen","type":"Kreis"},"federalState":{"key":"05","name":"Nordrhein-Westfalen"}},{"name":"Basaltstr.","postalCode":"54578","locality":"Walsdorf","municipality":{"key":"07233080","name":"Walsdorf","type":"Kreisangehörige_Gemeinde"},"district":{"key":"07233","name":"Vulkaneifel","type":"Landkreis"},"federalState":{"key":"07","name":"Rheinland-Pfalz"}},{"name":"Baumhof","postalCode":"52477","locality":"Alsdorf","municipality":{"key":"05334004","name":"Alsdorf, Stadt","type":"Stadt"},"district":{"key":"05334","name":"Städteregion Aachen","type":"Kreis"},"federalState":{"key":"05","name":"Nordrhein-Westfalen"}},{"name":"Baurstr.","postalCode":"52477","locality":"Alsdorf","municipality":{"key":"05334004","name":"Alsdorf, Stadt","type":"Stadt"},"district":{"key":"05334","name":"Städteregion Aachen","type":"Kreis"},"federalState":{"key":"05","name":"Nordrhein-Westfalen"}},{"name":"Beethovenstr.","postalCode":"52477","locality":"Alsdorf","municipality":{"key":"05334004","name":"Alsdorf, Stadt","type":"Stadt"},"district":{"key":"05334","name":"Städteregion Aachen","type":"Kreis"},"federalState":{"key":"05","name":"Nordrhein-Westfalen"}},{"name":"Begaustr.","postalCode":"52477","locality":"Alsdorf","municipality":{"key":"05334004","name":"Alsdorf, Stadt","type":"Stadt"},"district":{"key":"05334","name":"Städteregion Aachen","type":"Kreis"},"federalState":{"key":"05","name":"Nordrhein-Westfalen"}},{"name":"Begonienweg","postalCode":"52477","locality":"Alsdorf","municipality":{"key":"05334004","name":"Alsdorf, Stadt","type":"Stadt"},"district":{"key":"05334","name":"Städteregion Aachen","type":"Kreis"},"federalState":{"key":"05","name":"Nordrhein-Westfalen"}},{"name":"Behringstr.","postalCode":"52477","locality":"Alsdorf","municipality":{"key":"05334004","name":"Alsdorf, Stadt","type":"Stadt"},"district":{"key":"05334","name":"Städteregion Aachen","type":"Kreis"},"federalState":{"key":"05","name":"Nordrhein-Westfalen"}},{"name":"Bei der alten Kirche","postalCode":"54646","locality":"Halsdorf","municipality":{"key":"07232045","name":"Halsdorf","type":"Kreisangehörige_Gemeinde"},"district":{"key":"07232","name":"Eifelkreis Bitburg-Prüm","type":"Landkreis"},"federalState":{"key":"07","name":"Rheinland-Pfalz"}},{"name":"Bellisweg","postalCode":"52477","locality":"Alsdorf","municipality":{"key":"05334004","name":"Alsdorf, Stadt","type":"Stadt"},"district":{"key":"05334","name":"Städteregion Aachen","type":"Kreis"},"federalState":{"key":"05","name":"Nordrhein-Westfalen"}},{"name":"Bendenstr.","postalCode":"52477","locality":"Alsdorf","municipality":{"key":"05334004","name":"Alsdorf, Stadt","type":"Stadt"},"district":{"key":"05334","name":"Städteregion Aachen","type":"Kreis"},"federalState":{"key":"05","name":"Nordrhein-Westfalen"}},{"name":"Berberitzenweg","postalCode":"52477","locality":"Alsdorf","municipality":{"key":"05334004","name":"Alsdorf, Stadt","type":"Stadt"},"district":{"key":"05334","name":"Städteregion Aachen","type":"Kreis"},"federalState":{"key":"05","name":"Nordrhein-Westfalen"}},{"name":"Bergstr.","postalCode":"52477","locality":"Alsdorf","municipality":{"key":"05334004","name":"Alsdorf, Stadt","type":"Stadt"},"district":{"key":"05334","name":"Städteregion Aachen","type":"Kreis"},"federalState":{"key":"05","name":"Nordrhein-Westfalen"}},{"name":"Bergstr.","postalCode":"54578","locality":"Walsdorf","municipality":{"key":"07233080","name":"Walsdorf","type":"Kreisangehörige_Gemeinde"},"district":{"key":"07233","name":"Vulkaneifel","type":"Landkreis"},"federalState":{"key":"07","name":"Rheinland-Pfalz"}},{"name":"Bergstr.","postalCode":"54668","locality":"Alsdorf","municipality":{"key":"07232002","name":"Alsdorf","type":"Kreisangehörige_Gemeinde"},"district":{"key":"07232","name":"Eifelkreis Bitburg-Prüm","type":"Landkreis"},"federalState":{"key":"07","name":"Rheinland-Pfalz"}},{"name":"Bergstr.","postalCode":"57518","locality":"Alsdorf","municipality":{"key":"07132002","name":"Alsdorf","type":"Kreisangehörige_Gemeinde"},"district":{"key":"07132","name":"Altenkirchen (Westerwald)","type":"Landkreis"},"federalState":{"key":"07","name":"Rheinland-Pfalz"}},{"name":"Bergweg","postalCode":"96194","locality":"Walsdorf","municipality":{"key":"09471208","name":"Walsdorf","type":"Kreisangehörige_Gemeinde"},"district":{"key":"09471","name":"Bamberg","type":"Landkreis"},"federalState":{"key":"09","name":"Bayern"}},{"name":"Berliner Platz","postalCode":"52477","locality":"Alsdorf","municipality":{"key":"05334004","name":"Alsdorf, Stadt","type":"Stadt"},"district":{"key":"05334","name":"Städteregion Aachen","type":"Kreis"},"federalState":{"key":"05","name":"Nordrhein-Westfalen"}},{"name":"Bettendorfer Str.","postalCode":"52477","locality":"Alsdorf","municipality":{"key":"05334004","name":"Alsdorf, Stadt","type":"Stadt"},"district":{"key":"05334","name":"Städteregion Aachen","type":"Kreis"},"federalState":{"key":"05","name":"Nordrhein-Westfalen"}},{"name":"Biberweg","postalCode":"52477","locality":"Alsdorf","municipality":{"key":"05334004","name":"Alsdorf, Stadt","type":"Stadt"},"district":{"key":"05334","name":"Städteregion Aachen","type":"Kreis"},"federalState":{"key":"05","name":"Nordrhein-Westfalen"}},{"name":"Binsenweg","postalCode":"52477","locality":"Alsdorf","municipality":{"key":"05334004","name":"Alsdorf, Stadt","type":"Stadt"},"district":{"key":"05334","name":"Städteregion Aachen","type":"Kreis"},"federalState":{"key":"05","name":"Nordrhein-Westfalen"}},{"name":"Birkenhof","postalCode":"52477","locality":"Alsdorf","municipality":{"key":"05334004","name":"Alsdorf, Stadt","type":"Stadt"},"district":{"key":"05334","name":"Städteregion Aachen","type":"Kreis"},"federalState":{"key":"05","name":"Nordrhein-Westfalen"}},{"name":"Birkenstr.","postalCode":"52477","locality":"Alsdorf","municipality":{"key":"05334004","name":"Alsdorf, Stadt","type":"Stadt"},"district":{"key":"05334","name":"Städteregion Aachen","type":"Kreis"},"federalState":{"key":"05","name":"Nordrhein-Westfalen"}},{"name":"Birkenstr.","postalCode":"54578","locality":"Walsdorf","municipality":{"key":"07233080","name":"Walsdorf","type":"Kreisangehörige_Gemeinde"},"district":{"key":"07233","name":"Vulkaneifel","type":"Landkreis"},"federalState":{"key":"07","name":"Rheinland-Pfalz"}},{"name":"Birkenstr.","postalCode":"96194","locality":"Walsdorf","municipality":{"key":"09471208","name":"Walsdorf","type":"Kreisangehörige_Gemeinde"},"district":{"key":"09471","name":"Bamberg","type":"Landkreis"},"federalState":{"key":"09","name":"Bayern"}},{"name":"Birkenweg","postalCode":"57518","locality":"Alsdorf","municipality":{"key":"07132002","name":"Alsdorf","type":"Kreisangehörige_Gemeinde"},"district":{"key":"07132","name":"Altenkirchen (Westerwald)","type":"Landkreis"},"federalState":{"key":"07","name":"Rheinland-Pfalz"}},{"name":"Blumenrather Str.","postalCode":"52477","locality":"Alsdorf","municipality":{"key":"05334004","name":"Alsdorf, Stadt","type":"Stadt"},"district":{"key":"05334","name":"Städteregion Aachen","type":"Kreis"},"federalState":{"key":"05","name":"Nordrhein-Westfalen"}},{"name":"Blumenstr.","postalCode":"52477","locality":"Alsdorf","municipality":{"key":"05334004","name":"Alsdorf, Stadt","type":"Stadt"},"district":{"key":"05334","name":"Städteregion Aachen","type":"Kreis"},"federalState":{"key":"05","name":"Nordrhein-Westfalen"}},{"name":"Blumenstr.","postalCode":"57518","locality":"Alsdorf","municipality":{"key":"07132002","name":"Alsdorf","type":"Kreisangehörige_Gemeinde"},"district":{"key":"07132","name":"Altenkirchen (Westerwald)","type":"Landkreis"},"federalState":{"key":"07","name":"Rheinland-Pfalz"}},{"name":"Blumenstr.","postalCode":"96194","locality":"Walsdorf","municipality":{"key":"09471208","name":"Walsdorf","type":"Kreisangehörige_Gemeinde"},"district":{"key":"09471","name":"Bamberg","type":"Landkreis"},"federalState":{"key":"09","name":"Bayern"}},{"name":"Böckerweg","postalCode":"52477","locality":"Alsdorf","municipality":{"key":"05334004","name":"Alsdorf, Stadt","type":"Stadt"},"district":{"key":"05334","name":"Städteregion Aachen","type":"Kreis"},"federalState":{"key":"05","name":"Nordrhein-Westfalen"}},{"name":"Bodelschwinghweg","postalCode":"52477","locality":"Alsdorf","municipality":{"key":"05334004","name":"Alsdorf, Stadt","type":"Stadt"},"district":{"key":"05334","name":"Städteregion Aachen","type":"Kreis"},"federalState":{"key":"05","name":"Nordrhein-Westfalen"}},{"name":"Boelstr.","postalCode":"57518","locality":"Alsdorf","municipality":{"key":"07132002","name":"Alsdorf","type":"Kreisangehörige_Gemeinde"},"district":{"key":"07132","name":"Altenkirchen (Westerwald)","type":"Landkreis"},"federalState":{"key":"07","name":"Rheinland-Pfalz"}},{"name":"Bonhoefferstr.","postalCode":"52477","locality":"Alsdorf","municipality":{"key":"05334004","name":"Alsdorf, Stadt","type":"Stadt"},"district":{"key":"05334","name":"Städteregion Aachen","type":"Kreis"},"federalState":{"key":"05","name":"Nordrhein-Westfalen"}},{"name":"Brahmsstr.","postalCode":"52477","locality":"Alsdorf","municipality":{"key":"05334004","name":"Alsdorf, Stadt","type":"Stadt"},"district":{"key":"05334","name":"Städteregion Aachen","type":"Kreis"},"federalState":{"key":"05","name":"Nordrhein-Westfalen"}},{"name":"Brandenburger Str.","postalCode":"52477","locality":"Alsdorf","municipality":{"key":"05334004","name":"Alsdorf, Stadt","type":"Stadt"},"district":{"key":"05334","name":"Städteregion Aachen","type":"Kreis"},"federalState":{"key":"05","name":"Nordrhein-Westfalen"}},{"name":"Brassertstr.","postalCode":"52477","locality":"Alsdorf","municipality":{"key":"05334004","name":"Alsdorf, Stadt","type":"Stadt"},"district":{"key":"05334","name":"Städteregion Aachen","type":"Kreis"},"federalState":{"key":"05","name":"Nordrhein-Westfalen"}},{"name":"Brentanostr.","postalCode":"52477","locality":"Alsdorf","municipality":{"key":"05334004","name":"Alsdorf, Stadt","type":"Stadt"},"district":{"key":"05334","name":"Städteregion Aachen","type":"Kreis"},"federalState":{"key":"05","name":"Nordrhein-Westfalen"}},{"name":"Breslauer Str.","postalCode":"52477","locality":"Alsdorf","municipality":{"key":"05334004","name":"Alsdorf, Stadt","type":"Stadt"},"district":{"key":"05334","name":"Städteregion Aachen","type":"Kreis"},"federalState":{"key":"05","name":"Nordrhein-Westfalen"}},{"name":"Broicher Str.","postalCode":"52477","locality":"Alsdorf","municipality":{"key":"05334004","name":"Alsdorf, Stadt","type":"Stadt"},"district":{"key":"05334","name":"Städteregion Aachen","type":"Kreis"},"federalState":{"key":"05","name":"Nordrhein-Westfalen"}},{"name":"Cäcilienstr.","postalCode":"52477","locality":"Alsdorf","municipality":{"key":"05334004","name":"Alsdorf, Stadt","type":"Stadt"},"district":{"key":"05334","name":"Städteregion Aachen","type":"Kreis"},"federalState":{"key":"05","name":"Nordrhein-Westfalen"}},{"name":"Carl-Zeiss-Str.","postalCode":"52477","locality":"Alsdorf","municipality":{"key":"05334004","name":"Alsdorf, Stadt","type":"Stadt"},"district":{"key":"05334","name":"Städteregion Aachen","type":"Kreis"},"federalState":{"key":"05","name":"Nordrhein-Westfalen"}},{"name":"Castorstr.","postalCode":"52477","locality":"Alsdorf","municipality":{"key":"05334004","name":"Alsdorf, Stadt","type":"Stadt"},"district":{"key":"05334","name":"Städteregion Aachen","type":"Kreis"},"federalState":{"key":"05","name":"Nordrhein-Westfalen"}},{"name":"Christ-König-Str.","postalCode":"52477","locality":"Alsdorf","municipality":{"key":"05334004","name":"Alsdorf, Stadt","type":"Stadt"},"district":{"key":"05334","name":"Städteregion Aachen","type":"Kreis"},"federalState":{"key":"05","name":"Nordrhein-Westfalen"}},{"name":"Corneliusstr.","postalCode":"52477","locality":"Alsdorf","municipality":{"key":"05334004","name":"Alsdorf, Stadt","type":"Stadt"},"district":{"key":"05334","name":"Städteregion Aachen","type":"Kreis"},"federalState":{"key":"05","name":"Nordrhein-Westfalen"}},{"name":"Dachsweg","postalCode":"52477","locality":"Alsdorf","municipality":{"key":"05334004","name":"Alsdorf, Stadt","type":"Stadt"},"district":{"key":"05334","name":"Städteregion Aachen","type":"Kreis"},"federalState":{"key":"05","name":"Nordrhein-Westfalen"}},{"name":"Dahlienweg","postalCode":"52477","locality":"Alsdorf","municipality":{"key":"05334004","name":"Alsdorf, Stadt","type":"Stadt"},"district":{"key":"05334","name":"Städteregion Aachen","type":"Kreis"},"federalState":{"key":"05","name":"Nordrhein-Westfalen"}},{"name":"Dämmstr.","postalCode":"52477","locality":"Alsdorf","municipality":{"key":"05334004","name":"Alsdorf, Stadt","type":"Stadt"},"district":{"key":"05334","name":"Städteregion Aachen","type":"Kreis"},"federalState":{"key":"05","name":"Nordrhein-Westfalen"}},{"name":"Daniel-Schreber-Str.","postalCode":"52477","locality":"Alsdorf","municipality":{"key":"05334004","name":"Alsdorf, Stadt","type":"Stadt"},"district":{"key":"05334","name":"Städteregion Aachen","type":"Kreis"},"federalState":{"key":"05","name":"Nordrhein-Westfalen"}},{"name":"Danziger Str.","postalCode":"52477","locality":"Alsdorf","municipality":{"key":"05334004","name":"Alsdorf, Stadt","type":"Stadt"},"district":{"key":"05334","name":"Städteregion Aachen","type":"Kreis"},"federalState":{"key":"05","name":"Nordrhein-Westfalen"}},{"name":"Denkmalplatz","postalCode":"52477","locality":"Alsdorf","municipality":{"key":"05334004","name":"Alsdorf, Stadt","type":"Stadt"},"district":{"key":"05334","name":"Städteregion Aachen","type":"Kreis"},"federalState":{"key":"05","name":"Nordrhein-Westfalen"}},{"name":"Distelweg","postalCode":"52477","locality":"Alsdorf","municipality":{"key":"05334004","name":"Alsdorf, Stadt","type":"Stadt"},"district":{"key":"05334","name":"Städteregion Aachen","type":"Kreis"},"federalState":{"key":"05","name":"Nordrhein-Westfalen"}},{"name":"Dohlenweg","postalCode":"52477","locality":"Alsdorf","municipality":{"key":"05334004","name":"Alsdorf, Stadt","type":"Stadt"},"district":{"key":"05334","name":"Städteregion Aachen","type":"Kreis"},"federalState":{"key":"05","name":"Nordrhein-Westfalen"}},{"name":"Dorfstr.","postalCode":"52477","locality":"Alsdorf","municipality":{"key":"05334004","name":"Alsdorf, Stadt","type":"Stadt"},"district":{"key":"05334","name":"Städteregion Aachen","type":"Kreis"},"federalState":{"key":"05","name":"Nordrhein-Westfalen"}},{"name":"Dorfwiese","postalCode":"57518","locality":"Alsdorf","municipality":{"key":"07132002","name":"Alsdorf","type":"Kreisangehörige_Gemeinde"},"district":{"key":"07132","name":"Altenkirchen (Westerwald)","type":"Landkreis"},"federalState":{"key":"07","name":"Rheinland-Pfalz"}},{"name":"Dornbuschweg","postalCode":"52477","locality":"Alsdorf","municipality":{"key":"05334004","name":"Alsdorf, Stadt","type":"Stadt"},"district":{"key":"05334","name":"Städteregion Aachen","type":"Kreis"},"federalState":{"key":"05","name":"Nordrhein-Westfalen"}},{"name":"Dresdener Str.","postalCode":"52477","locality":"Alsdorf","municipality":{"key":"05334004","name":"Alsdorf, Stadt","type":"Stadt"},"district":{"key":"05334","name":"Städteregion Aachen","type":"Kreis"},"federalState":{"key":"05","name":"Nordrhein-Westfalen"}},{"name":"Dr.-Helmut-Eckert-Str.","postalCode":"52477","locality":"Alsdorf","municipality":{"key":"05334004","name":"Alsdorf, Stadt","type":"Stadt"},"district":{"key":"05334","name":"Städteregion Aachen","type":"Kreis"},"federalState":{"key":"05","name":"Nordrhein-Westfalen"}},{"name":"Dr.-Lausberg-Str.","postalCode":"52477","locality":"Alsdorf","municipality":{"key":"05334004","name":"Alsdorf, Stadt","type":"Stadt"},"district":{"key":"05334","name":"Städteregion Aachen","type":"Kreis"},"federalState":{"key":"05","name":"Nordrhein-Westfalen"}},{"name":"Drosselweg","postalCode":"52477","locality":"Alsdorf","municipality":{"key":"05334004","name":"Alsdorf, Stadt","type":"Stadt"},"district":{"key":"05334","name":"Städteregion Aachen","type":"Kreis"},"federalState":{"key":"05","name":"Nordrhein-Westfalen"}},{"name":"Duckweilerstr.","postalCode":"52477","locality":"Alsdorf","municipality":{"key":"05334004","name":"Alsdorf, Stadt","type":"Stadt"},"district":{"key":"05334","name":"Städteregion Aachen","type":"Kreis"},"federalState":{"key":"05","name":"Nordrhein-Westfalen"}},{"name":"Duffesheider Weg","postalCode":"52477","locality":"Alsdorf","municipality":{"key":"05334004","name":"Alsdorf, Stadt","type":"Stadt"},"district":{"key":"05334","name":"Städteregion Aachen","type":"Kreis"},"federalState":{"key":"05","name":"Nordrhein-Westfalen"}},{"name":"Düppeler Str.","postalCode":"52477","locality":"Alsdorf","municipality":{"key":"05334004","name":"Alsdorf, Stadt","type":"Stadt"},"district":{"key":"05334","name":"Städteregion Aachen","type":"Kreis"},"federalState":{"key":"05","name":"Nordrhein-Westfalen"}},{"name":"Eckstr.","postalCode":"52477","locality":"Alsdorf","municipality":{"key":"05334004","name":"Alsdorf, Stadt","type":"Stadt"},"district":{"key":"05334","name":"Städteregion Aachen","type":"Kreis"},"federalState":{"key":"05","name":"Nordrhein-Westfalen"}},{"name":"Edelstr.","postalCode":"52477","locality":"Alsdorf","municipality":{"key":"05334004","name":"Alsdorf, Stadt","type":"Stadt"},"district":{"key":"05334","name":"Städteregion Aachen","type":"Kreis"},"federalState":{"key":"05","name":"Nordrhein-Westfalen"}},{"name":"Edelweißstr.","postalCode":"52477","locality":"Alsdorf","municipality":{"key":"05334004","name":"Alsdorf, Stadt","type":"Stadt"},"district":{"key":"05334","name":"Städteregion Aachen","type":"Kreis"},"federalState":{"key":"05","name":"Nordrhein-Westfalen"}},{"name":"Edith-Stein-Str.","postalCode":"52477","locality":"Alsdorf","municipality":{"key":"05334004","name":"Alsdorf, Stadt","type":"Stadt"},"district":{"key":"05334","name":"Städteregion Aachen","type":"Kreis"},"federalState":{"key":"05","name":"Nordrhein-Westfalen"}},{"name":"Eduardschacht","postalCode":"52477","locality":"Alsdorf","municipality":{"key":"05334004","name":"Alsdorf, Stadt","type":"Stadt"},"district":{"key":"05334","name":"Städteregion Aachen","type":"Kreis"},"federalState":{"key":"05","name":"Nordrhein-Westfalen"}},{"name":"Ehrenstr.","postalCode":"52477","locality":"Alsdorf","municipality":{"key":"05334004","name":"Alsdorf, Stadt","type":"Stadt"},"district":{"key":"05334","name":"Städteregion Aachen","type":"Kreis"},"federalState":{"key":"05","name":"Nordrhein-Westfalen"}},{"name":"Eibenstr.","postalCode":"52477","locality":"Alsdorf","municipality":{"key":"05334004","name":"Alsdorf, Stadt","type":"Stadt"},"district":{"key":"05334","name":"Städteregion Aachen","type":"Kreis"},"federalState":{"key":"05","name":"Nordrhein-Westfalen"}},{"name":"Eichendorffstr.","postalCode":"52477","locality":"Alsdorf","municipality":{"key":"05334004","name":"Alsdorf, Stadt","type":"Stadt"},"district":{"key":"05334","name":"Städteregion Aachen","type":"Kreis"},"federalState":{"key":"05","name":"Nordrhein-Westfalen"}},{"name":"Eichenstr.","postalCode":"52477","locality":"Alsdorf","municipality":{"key":"05334004","name":"Alsdorf, Stadt","type":"Stadt"},"district":{"key":"05334","name":"Städteregion Aachen","type":"Kreis"},"federalState":{"key":"05","name":"Nordrhein-Westfalen"}},{"name":"Eichhörnchenweg","postalCode":"52477","locality":"Alsdorf","municipality":{"key":"05334004","name":"Alsdorf, Stadt","type":"Stadt"},"district":{"key":"05334","name":"Städteregion Aachen","type":"Kreis"},"federalState":{"key":"05","name":"Nordrhein-Westfalen"}},{"name":"Eidechsenstr.","postalCode":"52477","locality":"Alsdorf","municipality":{"key":"05334004","name":"Alsdorf, Stadt","type":"Stadt"},"district":{"key":"05334","name":"Städteregion Aachen","type":"Kreis"},"federalState":{"key":"05","name":"Nordrhein-Westfalen"}},{"name":"Eifelstr.","postalCode":"52477","locality":"Alsdorf","municipality":{"key":"05334004","name":"Alsdorf, Stadt","type":"Stadt"},"district":{"key":"05334","name":"Städteregion Aachen","type":"Kreis"},"federalState":{"key":"05","name":"Nordrhein-Westfalen"}},{"name":"Eisenbahnstr.","postalCode":"52477","locality":"Alsdorf","municipality":{"key":"05334004","name":"Alsdorf, Stadt","type":"Stadt"},"district":{"key":"05334","name":"Städteregion Aachen","type":"Kreis"},"federalState":{"key":"05","name":"Nordrhein-Westfalen"}},{"name":"Elbinger Str.","postalCode":"52477","locality":"Alsdorf","municipality":{"key":"05334004","name":"Alsdorf, Stadt","type":"Stadt"},"district":{"key":"05334","name":"Städteregion Aachen","type":"Kreis"},"federalState":{"key":"05","name":"Nordrhein-Westfalen"}},{"name":"Elisabeth-Selbert-Str.","postalCode":"52477","locality":"Alsdorf","municipality":{"key":"05334004","name":"Alsdorf, Stadt","type":"Stadt"},"district":{"key":"05334","name":"Städteregion Aachen","type":"Kreis"},"federalState":{"key":"05","name":"Nordrhein-Westfalen"}},{"name":"Elisabethstr.","postalCode":"52477","locality":"Alsdorf","municipality":{"key":"05334004","name":"Alsdorf, Stadt","type":"Stadt"},"district":{"key":"05334","name":"Städteregion Aachen","type":"Kreis"},"federalState":{"key":"05","name":"Nordrhein-Westfalen"}},{"name":"Elsa-Brändström-Str.","postalCode":"52477","locality":"Alsdorf","municipality":{"key":"05334004","name":"Alsdorf, Stadt","type":"Stadt"},"district":{"key":"05334","name":"Städteregion Aachen","type":"Kreis"},"federalState":{"key":"05","name":"Nordrhein-Westfalen"}},{"name":"Elsterweg","postalCode":"52477","locality":"Alsdorf","municipality":{"key":"05334004","name":"Alsdorf, Stadt","type":"Stadt"},"district":{"key":"05334","name":"Städteregion Aachen","type":"Kreis"},"federalState":{"key":"05","name":"Nordrhein-Westfalen"}},{"name":"Emundtsgäßchen","postalCode":"52477","locality":"Alsdorf","municipality":{"key":"05334004","name":"Alsdorf, Stadt","type":"Stadt"},"district":{"key":"05334","name":"Städteregion Aachen","type":"Kreis"},"federalState":{"key":"05","name":"Nordrhein-Westfalen"}},{"name":"Endstr.","postalCode":"52477","locality":"Alsdorf","municipality":{"key":"05334004","name":"Alsdorf, Stadt","type":"Stadt"},"district":{"key":"05334","name":"Städteregion Aachen","type":"Kreis"},"federalState":{"key":"05","name":"Nordrhein-Westfalen"}},{"name":"Engelstr.","postalCode":"52477","locality":"Alsdorf","municipality":{"key":"05334004","name":"Alsdorf, Stadt","type":"Stadt"},"district":{"key":"05334","name":"Städteregion Aachen","type":"Kreis"},"federalState":{"key":"05","name":"Nordrhein-Westfalen"}},{"name":"Englerthring","postalCode":"52477","locality":"Alsdorf","municipality":{"key":"05334004","name":"Alsdorf, Stadt","type":"Stadt"},"district":{"key":"05334","name":"Städteregion Aachen","type":"Kreis"},"federalState":{"key":"05","name":"Nordrhein-Westfalen"}},{"name":"Entenweg","postalCode":"52477","locality":"Alsdorf","municipality":{"key":"05334004","name":"Alsdorf, Stadt","type":"Stadt"},"district":{"key":"05334","name":"Städteregion Aachen","type":"Kreis"},"federalState":{"key":"05","name":"Nordrhein-Westfalen"}},{"name":"Enzianstr.","postalCode":"52477","locality":"Alsdorf","municipality":{"key":"05334004","name":"Alsdorf, Stadt","type":"Stadt"},"district":{"key":"05334","name":"Städteregion Aachen","type":"Kreis"},"federalState":{"key":"05","name":"Nordrhein-Westfalen"}},{"name":"Erholungsstr.","postalCode":"52477","locality":"Alsdorf","municipality":{"key":"05334004","name":"Alsdorf, Stadt","type":"Stadt"},"district":{"key":"05334","name":"Städteregion Aachen","type":"Kreis"},"federalState":{"key":"05","name":"Nordrhein-Westfalen"}},{"name":"Erikaweg","postalCode":"52477","locality":"Alsdorf","municipality":{"key":"05334004","name":"Alsdorf, Stadt","type":"Stadt"},"district":{"key":"05334","name":"Städteregion Aachen","type":"Kreis"},"federalState":{"key":"05","name":"Nordrhein-Westfalen"}},{"name":"Erlauer Weg","postalCode":"96194","locality":"Walsdorf","municipality":{"key":"09471208","name":"Walsdorf","type":"Kreisangehörige_Gemeinde"},"district":{"key":"09471","name":"Bamberg","type":"Landkreis"},"federalState":{"key":"09","name":"Bayern"}},{"name":"Erlenstr.","postalCode":"52477","locality":"Alsdorf","municipality":{"key":"05334004","name":"Alsdorf, Stadt","type":"Stadt"},"district":{"key":"05334","name":"Städteregion Aachen","type":"Kreis"},"federalState":{"key":"05","name":"Nordrhein-Westfalen"}},{"name":"Erlenweg","postalCode":"96194","locality":"Walsdorf","municipality":{"key":"09471208","name":"Walsdorf","type":"Kreisangehörige_Gemeinde"},"district":{"key":"09471","name":"Bamberg","type":"Landkreis"},"federalState":{"key":"09","name":"Bayern"}},{"name":"Ernst-Abbe-Str.","postalCode":"52477","locality":"Alsdorf","municipality":{"key":"05334004","name":"Alsdorf, Stadt","type":"Stadt"},"district":{"key":"05334","name":"Städteregion Aachen","type":"Kreis"},"federalState":{"key":"05","name":"Nordrhein-Westfalen"}},{"name":"Erzbergerstr.","postalCode":"52477","locality":"Alsdorf","municipality":{"key":"05334004","name":"Alsdorf, Stadt","type":"Stadt"},"district":{"key":"05334","name":"Städteregion Aachen","type":"Kreis"},"federalState":{"key":"05","name":"Nordrhein-Westfalen"}},{"name":"Eschenweg","postalCode":"52477","locality":"Alsdorf","municipality":{"key":"05334004","name":"Alsdorf, Stadt","type":"Stadt"},"district":{"key":"05334","name":"Städteregion Aachen","type":"Kreis"},"federalState":{"key":"05","name":"Nordrhein-Westfalen"}},{"name":"Eschweiler Str.","postalCode":"52477","locality":"Alsdorf","municipality":{"key":"05334004","name":"Alsdorf, Stadt","type":"Stadt"},"district":{"key":"05334","name":"Städteregion Aachen","type":"Kreis"},"federalState":{"key":"05","name":"Nordrhein-Westfalen"}},{"name":"Euchener Str.","postalCode":"52477","locality":"Alsdorf","municipality":{"key":"05334004","name":"Alsdorf, Stadt","type":"Stadt"},"district":{"key":"05334","name":"Städteregion Aachen","type":"Kreis"},"federalState":{"key":"05","name":"Nordrhein-Westfalen"}},{"name":"Eulenweg","postalCode":"52477","locality":"Alsdorf","municipality":{"key":"05334004","name":"Alsdorf, Stadt","type":"Stadt"},"district":{"key":"05334","name":"Städteregion Aachen","type":"Kreis"},"federalState":{"key":"05","name":"Nordrhein-Westfalen"}},{"name":"Falkenweg","postalCode":"52477","locality":"Alsdorf","municipality":{"key":"05334004","name":"Alsdorf, Stadt","type":"Stadt"},"district":{"key":"05334","name":"Städteregion Aachen","type":"Kreis"},"federalState":{"key":"05","name":"Nordrhein-Westfalen"}},{"name":"Falterstr.","postalCode":"52477","locality":"Alsdorf","municipality":{"key":"05334004","name":"Alsdorf, Stadt","type":"Stadt"},"district":{"key":"05334","name":"Städteregion Aachen","type":"Kreis"},"federalState":{"key":"05","name":"Nordrhein-Westfalen"}},{"name":"Farnkrautweg","postalCode":"52477","locality":"Alsdorf","municipality":{"key":"05334004","name":"Alsdorf, Stadt","type":"Stadt"},"district":{"key":"05334","name":"Städteregion Aachen","type":"Kreis"},"federalState":{"key":"05","name":"Nordrhein-Westfalen"}},{"name":"Fasanenweg","postalCode":"52477","locality":"Alsdorf","municipality":{"key":"05334004","name":"Alsdorf, Stadt","type":"Stadt"},"district":{"key":"05334","name":"Städteregion Aachen","type":"Kreis"},"federalState":{"key":"05","name":"Nordrhein-Westfalen"}},{"name":"Feldstr.","postalCode":"52477","locality":"Alsdorf","municipality":{"key":"05334004","name":"Alsdorf, Stadt","type":"Stadt"},"district":{"key":"05334","name":"Städteregion Aachen","type":"Kreis"},"federalState":{"key":"05","name":"Nordrhein-Westfalen"}},{"name":"Feldstr.","postalCode":"57518","locality":"Alsdorf","municipality":{"key":"07132002","name":"Alsdorf","type":"Kreisangehörige_Gemeinde"},"district":{"key":"07132","name":"Altenkirchen (Westerwald)","type":"Landkreis"},"federalState":{"key":"07","name":"Rheinland-Pfalz"}},{"name":"Felsbachstr.","postalCode":"54578","locality":"Walsdorf","municipality":{"key":"07233080","name":"Walsdorf","type":"Kreisangehörige_Gemeinde"},"district":{"key":"07233","name":"Vulkaneifel","type":"Landkreis"},"federalState":{"key":"07","name":"Rheinland-Pfalz"}},{"name":"Fenchelweg","postalCode":"52477","locality":"Alsdorf","municipality":{"key":"05334004","name":"Alsdorf, Stadt","type":"Stadt"},"district":{"key":"05334","name":"Städteregion Aachen","type":"Kreis"},"federalState":{"key":"05","name":"Nordrhein-Westfalen"}},{"name":"Fichtenweg","postalCode":"52477","locality":"Alsdorf","municipality":{"key":"05334004","name":"Alsdorf, Stadt","type":"Stadt"},"district":{"key":"05334","name":"Städteregion Aachen","type":"Kreis"},"federalState":{"key":"05","name":"Nordrhein-Westfalen"}},{"name":"Finkenweg","postalCode":"52477","locality":"Alsdorf","municipality":{"key":"05334004","name":"Alsdorf, Stadt","type":"Stadt"},"district":{"key":"05334","name":"Städteregion Aachen","type":"Kreis"},"federalState":{"key":"05","name":"Nordrhein-Westfalen"}},{"name":"Finkenweg","postalCode":"54578","locality":"Walsdorf","municipality":{"key":"07233080","name":"Walsdorf","type":"Kreisangehörige_Gemeinde"},"district":{"key":"07233","name":"Vulkaneifel","type":"Landkreis"},"federalState":{"key":"07","name":"Rheinland-Pfalz"}},{"name":"Finkenweg","postalCode":"57518","locality":"Alsdorf","municipality":{"key":"07132002","name":"Alsdorf","type":"Kreisangehörige_Gemeinde"},"district":{"key":"07132","name":"Altenkirchen (Westerwald)","type":"Landkreis"},"federalState":{"key":"07","name":"Rheinland-Pfalz"}},{"name":"Flachsweg","postalCode":"52477","locality":"Alsdorf","municipality":{"key":"05334004","name":"Alsdorf, Stadt","type":"Stadt"},"district":{"key":"05334","name":"Städteregion Aachen","type":"Kreis"},"federalState":{"key":"05","name":"Nordrhein-Westfalen"}},{"name":"Fliederstr.","postalCode":"52477","locality":"Alsdorf","municipality":{"key":"05334004","name":"Alsdorf, Stadt","type":"Stadt"},"district":{"key":"05334","name":"Städteregion Aachen","type":"Kreis"},"federalState":{"key":"05","name":"Nordrhein-Westfalen"}},{"name":"Fliederweg","postalCode":"96194","locality":"Walsdorf","municipality":{"key":"09471208","name":"Walsdorf","type":"Kreisangehörige_Gemeinde"},"district":{"key":"09471","name":"Bamberg","type":"Landkreis"},"federalState":{"key":"09","name":"Bayern"}},{"name":"Florianstr.","postalCode":"52477","locality":"Alsdorf","municipality":{"key":"05334004","name":"Alsdorf, Stadt","type":"Stadt"},"district":{"key":"05334","name":"Städteregion Aachen","type":"Kreis"},"federalState":{"key":"05","name":"Nordrhein-Westfalen"}},{"name":"Flözstr.","postalCode":"52477","locality":"Alsdorf","municipality":{"key":"05334004","name":"Alsdorf, Stadt","type":"Stadt"},"district":{"key":"05334","name":"Städteregion Aachen","type":"Kreis"},"federalState":{"key":"05","name":"Nordrhein-Westfalen"}},{"name":"Flurweg","postalCode":"52477","locality":"Alsdorf","municipality":{"key":"05334004","name":"Alsdorf, Stadt","type":"Stadt"},"district":{"key":"05334","name":"Städteregion Aachen","type":"Kreis"},"federalState":{"key":"05","name":"Nordrhein-Westfalen"}},{"name":"Fohlenweg","postalCode":"52477","locality":"Alsdorf","municipality":{"key":"05334004","name":"Alsdorf, Stadt","type":"Stadt"},"district":{"key":"05334","name":"Städteregion Aachen","type":"Kreis"},"federalState":{"key":"05","name":"Nordrhein-Westfalen"}},{"name":"Fontanestr.","postalCode":"52477","locality":"Alsdorf","municipality":{"key":"05334004","name":"Alsdorf, Stadt","type":"Stadt"},"district":{"key":"05334","name":"Städteregion Aachen","type":"Kreis"},"federalState":{"key":"05","name":"Nordrhein-Westfalen"}},{"name":"Forellenweg","postalCode":"52477","locality":"Alsdorf","municipality":{"key":"05334004","name":"Alsdorf, Stadt","type":"Stadt"},"district":{"key":"05334","name":"Städteregion Aachen","type":"Kreis"},"federalState":{"key":"05","name":"Nordrhein-Westfalen"}},{"name":"Frankenstr.","postalCode":"52477","locality":"Alsdorf","municipality":{"key":"05334004","name":"Alsdorf, Stadt","type":"Stadt"},"district":{"key":"05334","name":"Städteregion Aachen","type":"Kreis"},"federalState":{"key":"05","name":"Nordrhein-Westfalen"}},{"name":"Franz-Engländer-Str.","postalCode":"52477","locality":"Alsdorf","municipality":{"key":"05334004","name":"Alsdorf, Stadt","type":"Stadt"},"district":{"key":"05334","name":"Städteregion Aachen","type":"Kreis"},"federalState":{"key":"05","name":"Nordrhein-Westfalen"}},{"name":"Franz-Herbst-Str.","postalCode":"52477","locality":"Alsdorf","municipality":{"key":"05334004","name":"Alsdorf, Stadt","type":"Stadt"},"district":{"key":"05334","name":"Städteregion Aachen","type":"Kreis"},"federalState":{"key":"05","name":"Nordrhein-Westfalen"}},{"name":"Franz-Rotthäuser-Str.","postalCode":"52477","locality":"Alsdorf","municipality":{"key":"05334004","name":"Alsdorf, Stadt","type":"Stadt"},"district":{"key":"05334","name":"Städteregion Aachen","type":"Kreis"},"federalState":{"key":"05","name":"Nordrhein-Westfalen"}},{"name":"Franzstr.","postalCode":"52477","locality":"Alsdorf","municipality":{"key":"05334004","name":"Alsdorf, Stadt","type":"Stadt"},"district":{"key":"05334","name":"Städteregion Aachen","type":"Kreis"},"federalState":{"key":"05","name":"Nordrhein-Westfalen"}},{"name":"Freiheitsstr.","postalCode":"52477","locality":"Alsdorf","municipality":{"key":"05334004","name":"Alsdorf, Stadt","type":"Stadt"},"district":{"key":"05334","name":"Städteregion Aachen","type":"Kreis"},"federalState":{"key":"05","name":"Nordrhein-Westfalen"}},{"name":"Fridtjof-Nansen-Ring","postalCode":"52477","locality":"Alsdorf","municipality":{"key":"05334004","name":"Alsdorf, Stadt","type":"Stadt"},"district":{"key":"05334","name":"Städteregion Aachen","type":"Kreis"},"federalState":{"key":"05","name":"Nordrhein-Westfalen"}},{"name":"Friedensplatz","postalCode":"52477","locality":"Alsdorf","municipality":{"key":"05334004","name":"Alsdorf, Stadt","type":"Stadt"},"district":{"key":"05334","name":"Städteregion Aachen","type":"Kreis"},"federalState":{"key":"05","name":"Nordrhein-Westfalen"}},{"name":"Friedensstr.","postalCode":"52477","locality":"Alsdorf","municipality":{"key":"05334004","name":"Alsdorf, Stadt","type":"Stadt"},"district":{"key":"05334","name":"Städteregion Aachen","type":"Kreis"},"federalState":{"key":"05","name":"Nordrhein-Westfalen"}},{"name":"Friedhofstr.","postalCode":"96194","locality":"Walsdorf","municipality":{"key":"09471208","name":"Walsdorf","type":"Kreisangehörige_Gemeinde"},"district":{"key":"09471","name":"Bamberg","type":"Landkreis"},"federalState":{"key":"09","name":"Bayern"}},{"name":"Friedhofweg","postalCode":"54578","locality":"Walsdorf","municipality":{"key":"07233080","name":"Walsdorf","type":"Kreisangehörige_Gemeinde"},"district":{"key":"07233","name":"Vulkaneifel","type":"Landkreis"},"federalState":{"key":"07","name":"Rheinland-Pfalz"}},{"name":"Friedrich-Ebert-Platz","postalCode":"52477","locality":"Alsdorf","municipality":{"key":"05334004","name":"Alsdorf, Stadt","type":"Stadt"},"district":{"key":"05334","name":"Städteregion Aachen","type":"Kreis"},"federalState":{"key":"05","name":"Nordrhein-Westfalen"}},{"name":"Friedrich-Ebert-Str.","postalCode":"52477","locality":"Alsdorf","municipality":{"key":"05334004","name":"Alsdorf, Stadt","type":"Stadt"},"district":{"key":"05334","name":"Städteregion Aachen","type":"Kreis"},"federalState":{"key":"05","name":"Nordrhein-Westfalen"}},{"name":"Fuchsweg","postalCode":"52477","locality":"Alsdorf","municipality":{"key":"05334004","name":"Alsdorf, Stadt","type":"Stadt"},"district":{"key":"05334","name":"Städteregion Aachen","type":"Kreis"},"federalState":{"key":"05","name":"Nordrhein-Westfalen"}},{"name":"Gartenstr.","postalCode":"52477","locality":"Alsdorf","municipality":{"key":"05334004","name":"Alsdorf, Stadt","type":"Stadt"},"district":{"key":"05334","name":"Städteregion Aachen","type":"Kreis"},"federalState":{"key":"05","name":"Nordrhein-Westfalen"}},{"name":"Gartenstr.","postalCode":"54578","locality":"Walsdorf","municipality":{"key":"07233080","name":"Walsdorf","type":"Kreisangehörige_Gemeinde"},"district":{"key":"07233","name":"Vulkaneifel","type":"Landkreis"},"federalState":{"key":"07","name":"Rheinland-Pfalz"}},{"name":"Gartenweg","postalCode":"57518","locality":"Alsdorf","municipality":{"key":"07132002","name":"Alsdorf","type":"Kreisangehörige_Gemeinde"},"district":{"key":"07132","name":"Altenkirchen (Westerwald)","type":"Landkreis"},"federalState":{"key":"07","name":"Rheinland-Pfalz"}},{"name":"Gartenweg","postalCode":"96194","locality":"Walsdorf","municipality":{"key":"09471208","name":"Walsdorf","type":"Kreisangehörige_Gemeinde"},"district":{"key":"09471","name":"Bamberg","type":"Landkreis"},"federalState":{"key":"09","name":"Bayern"}},{"name":"Gaußstr.","postalCode":"52477","locality":"Alsdorf","municipality":{"key":"05334004","name":"Alsdorf, Stadt","type":"Stadt"},"district":{"key":"05334","name":"Städteregion Aachen","type":"Kreis"},"federalState":{"key":"05","name":"Nordrhein-Westfalen"}},{"name":"Geilenkirchener Str.","postalCode":"52477","locality":"Alsdorf","municipality":{"key":"05334004","name":"Alsdorf, Stadt","type":"Stadt"},"district":{"key":"05334","name":"Städteregion Aachen","type":"Kreis"},"federalState":{"key":"05","name":"Nordrhein-Westfalen"}},{"name":"Geishardtstr.","postalCode":"57518","locality":"Alsdorf","municipality":{"key":"07132002","name":"Alsdorf","type":"Kreisangehörige_Gemeinde"},"district":{"key":"07132","name":"Altenkirchen (Westerwald)","type":"Landkreis"},"federalState":{"key":"07","name":"Rheinland-Pfalz"}},{"name":"Genuitstr.","postalCode":"52477","locality":"Alsdorf","municipality":{"key":"05334004","name":"Alsdorf, Stadt","type":"Stadt"},"district":{"key":"05334","name":"Städteregion Aachen","type":"Kreis"},"federalState":{"key":"05","name":"Nordrhein-Westfalen"}},{"name":"Georgstr.","postalCode":"52477","locality":"Alsdorf","municipality":{"key":"05334004","name":"Alsdorf, Stadt","type":"Stadt"},"district":{"key":"05334","name":"Städteregion Aachen","type":"Kreis"},"federalState":{"key":"05","name":"Nordrhein-Westfalen"}},{"name":"Geranienweg","postalCode":"52477","locality":"Alsdorf","municipality":{"key":"05334004","name":"Alsdorf, Stadt","type":"Stadt"},"district":{"key":"05334","name":"Städteregion Aachen","type":"Kreis"},"federalState":{"key":"05","name":"Nordrhein-Westfalen"}},{"name":"Gerhart-Hauptmann-Platz","postalCode":"52477","locality":"Alsdorf","municipality":{"key":"05334004","name":"Alsdorf, Stadt","type":"Stadt"},"district":{"key":"05334","name":"Städteregion Aachen","type":"Kreis"},"federalState":{"key":"05","name":"Nordrhein-Westfalen"}},{"name":"Gertrudstr.","postalCode":"52477","locality":"Alsdorf","municipality":{"key":"05334004","name":"Alsdorf, Stadt","type":"Stadt"},"district":{"key":"05334","name":"Städteregion Aachen","type":"Kreis"},"federalState":{"key":"05","name":"Nordrhein-Westfalen"}},{"name":"Gladiolenweg","postalCode":"52477","locality":"Alsdorf","municipality":{"key":"05334004","name":"Alsdorf, Stadt","type":"Stadt"},"district":{"key":"05334","name":"Städteregion Aachen","type":"Kreis"},"federalState":{"key":"05","name":"Nordrhein-Westfalen"}},{"name":"Gleiwitzer Str.","postalCode":"52477","locality":"Alsdorf","municipality":{"key":"05334004","name":"Alsdorf, Stadt","type":"Stadt"},"district":{"key":"05334","name":"Städteregion Aachen","type":"Kreis"},"federalState":{"key":"05","name":"Nordrhein-Westfalen"}},{"name":"Glück-Auf-Park","postalCode":"52477","locality":"Alsdorf","municipality":{"key":"05334004","name":"Alsdorf, Stadt","type":"Stadt"},"district":{"key":"05334","name":"Städteregion Aachen","type":"Kreis"},"federalState":{"key":"05","name":"Nordrhein-Westfalen"}},{"name":"Glück-Auf-Park Josef Thelen","postalCode":"52477","locality":"Alsdorf","municipality":{"key":"05334004","name":"Alsdorf, Stadt","type":"Stadt"},"district":{"key":"05334","name":"Städteregion Aachen","type":"Kreis"},"federalState":{"key":"05","name":"Nordrhein-Westfalen"}},{"name":"Glück-Auf-Str.","postalCode":"52477","locality":"Alsdorf","municipality":{"key":"05334004","name":"Alsdorf, Stadt","type":"Stadt"},"district":{"key":"05334","name":"Städteregion Aachen","type":"Kreis"},"federalState":{"key":"05","name":"Nordrhein-Westfalen"}},{"name":"Goethestr.","postalCode":"52477","locality":"Alsdorf","municipality":{"key":"05334004","name":"Alsdorf, Stadt","type":"Stadt"},"district":{"key":"05334","name":"Städteregion Aachen","type":"Kreis"},"federalState":{"key":"05","name":"Nordrhein-Westfalen"}},{"name":"Goldlackweg","postalCode":"52477","locality":"Alsdorf","municipality":{"key":"05334004","name":"Alsdorf, Stadt","type":"Stadt"},"district":{"key":"05334","name":"Städteregion Aachen","type":"Kreis"},"federalState":{"key":"05","name":"Nordrhein-Westfalen"}},{"name":"Görlitzer Str.","postalCode":"52477","locality":"Alsdorf","municipality":{"key":"05334004","name":"Alsdorf, Stadt","type":"Stadt"},"district":{"key":"05334","name":"Städteregion Aachen","type":"Kreis"},"federalState":{"key":"05","name":"Nordrhein-Westfalen"}},{"name":"Goßbergstr.","postalCode":"54578","locality":"Walsdorf","municipality":{"key":"07233080","name":"Walsdorf","type":"Kreisangehörige_Gemeinde"},"district":{"key":"07233","name":"Vulkaneifel","type":"Landkreis"},"federalState":{"key":"07","name":"Rheinland-Pfalz"}},{"name":"Gottfried-Wacker-Str.","postalCode":"52477","locality":"Alsdorf","municipality":{"key":"05334004","name":"Alsdorf, Stadt","type":"Stadt"},"district":{"key":"05334","name":"Städteregion Aachen","type":"Kreis"},"federalState":{"key":"05","name":"Nordrhein-Westfalen"}},{"name":"Grabenstr.","postalCode":"52477","locality":"Alsdorf","municipality":{"key":"05334004","name":"Alsdorf, Stadt","type":"Stadt"},"district":{"key":"05334","name":"Städteregion Aachen","type":"Kreis"},"federalState":{"key":"05","name":"Nordrhein-Westfalen"}},{"name":"Graeserstr.","postalCode":"52477","locality":"Alsdorf","municipality":{"key":"05334004","name":"Alsdorf, Stadt","type":"Stadt"},"district":{"key":"05334","name":"Städteregion Aachen","type":"Kreis"},"federalState":{"key":"05","name":"Nordrhein-Westfalen"}},{"name":"Greifswalder Str.","postalCode":"52477","locality":"Alsdorf","municipality":{"key":"05334004","name":"Alsdorf, Stadt","type":"Stadt"},"district":{"key":"05334","name":"Städteregion Aachen","type":"Kreis"},"federalState":{"key":"05","name":"Nordrhein-Westfalen"}},{"name":"Grenzweg","postalCode":"52477","locality":"Alsdorf","municipality":{"key":"05334004","name":"Alsdorf, Stadt","type":"Stadt"},"district":{"key":"05334","name":"Städteregion Aachen","type":"Kreis"},"federalState":{"key":"05","name":"Nordrhein-Westfalen"}},{"name":"Grillenweg","postalCode":"52477","locality":"Alsdorf","municipality":{"key":"05334004","name":"Alsdorf, Stadt","type":"Stadt"},"district":{"key":"05334","name":"Städteregion Aachen","type":"Kreis"},"federalState":{"key":"05","name":"Nordrhein-Westfalen"}},{"name":"Gronsfeldweg","postalCode":"52477","locality":"Alsdorf","municipality":{"key":"05334004","name":"Alsdorf, Stadt","type":"Stadt"},"district":{"key":"05334","name":"Städteregion Aachen","type":"Kreis"},"federalState":{"key":"05","name":"Nordrhein-Westfalen"}},{"name":"Großstr.","postalCode":"52477","locality":"Alsdorf","municipality":{"key":"05334004","name":"Alsdorf, Stadt","type":"Stadt"},"district":{"key":"05334","name":"Städteregion Aachen","type":"Kreis"},"federalState":{"key":"05","name":"Nordrhein-Westfalen"}},{"name":"Großstr.","postalCode":"54578","locality":"Walsdorf","municipality":{"key":"07233080","name":"Walsdorf","type":"Kreisangehörige_Gemeinde"},"district":{"key":"07233","name":"Vulkaneifel","type":"Landkreis"},"federalState":{"key":"07","name":"Rheinland-Pfalz"}},{"name":"Grüner Platz","postalCode":"52477","locality":"Alsdorf","municipality":{"key":"05334004","name":"Alsdorf, Stadt","type":"Stadt"},"district":{"key":"05334","name":"Städteregion Aachen","type":"Kreis"},"federalState":{"key":"05","name":"Nordrhein-Westfalen"}},{"name":"Grünstr.","postalCode":"52477","locality":"Alsdorf","municipality":{"key":"05334004","name":"Alsdorf, Stadt","type":"Stadt"},"district":{"key":"05334","name":"Städteregion Aachen","type":"Kreis"},"federalState":{"key":"05","name":"Nordrhein-Westfalen"}},{"name":"Habichtweg","postalCode":"52477","locality":"Alsdorf","municipality":{"key":"05334004","name":"Alsdorf, Stadt","type":"Stadt"},"district":{"key":"05334","name":"Städteregion Aachen","type":"Kreis"},"federalState":{"key":"05","name":"Nordrhein-Westfalen"}},{"name":"Hahnengasse","postalCode":"52477","locality":"Alsdorf","municipality":{"key":"05334004","name":"Alsdorf, Stadt","type":"Stadt"},"district":{"key":"05334","name":"Städteregion Aachen","type":"Kreis"},"federalState":{"key":"05","name":"Nordrhein-Westfalen"}},{"name":"Haichera","postalCode":"96194","locality":"Walsdorf","municipality":{"key":"09471208","name":"Walsdorf","type":"Kreisangehörige_Gemeinde"},"district":{"key":"09471","name":"Bamberg","type":"Landkreis"},"federalState":{"key":"09","name":"Bayern"}},{"name":"Halsdorfer Str.","postalCode":"54646","locality":"Halsdorf","municipality":{"key":"07232045","name":"Halsdorf","type":"Kreisangehörige_Gemeinde"},"district":{"key":"07232","name":"Eifelkreis Bitburg-Prüm","type":"Landkreis"},"federalState":{"key":"07","name":"Rheinland-Pfalz"}},{"name":"Hamsterweg","postalCode":"52477","locality":"Alsdorf","municipality":{"key":"05334004","name":"Alsdorf, Stadt","type":"Stadt"},"district":{"key":"05334","name":"Städteregion Aachen","type":"Kreis"},"federalState":{"key":"05","name":"Nordrhein-Westfalen"}},{"name":"Hängebrücke","postalCode":"52477","locality":"Alsdorf","municipality":{"key":"05334004","name":"Alsdorf, Stadt","type":"Stadt"},"district":{"key":"05334","name":"Städteregion Aachen","type":"Kreis"},"federalState":{"key":"05","name":"Nordrhein-Westfalen"}},{"name":"Hans-Böckler-Str.","postalCode":"52477","locality":"Alsdorf","municipality":{"key":"05334004","name":"Alsdorf, Stadt","type":"Stadt"},"district":{"key":"05334","name":"Städteregion Aachen","type":"Kreis"},"federalState":{"key":"05","name":"Nordrhein-Westfalen"}},{"name":"Hasenweg","postalCode":"52477","locality":"Alsdorf","municipality":{"key":"05334004","name":"Alsdorf, Stadt","type":"Stadt"},"district":{"key":"05334","name":"Städteregion Aachen","type":"Kreis"},"federalState":{"key":"05","name":"Nordrhein-Westfalen"}},{"name":"Hauptstr.","postalCode":"52477","locality":"Alsdorf","municipality":{"key":"05334004","name":"Alsdorf, Stadt","type":"Stadt"},"district":{"key":"05334","name":"Städteregion Aachen","type":"Kreis"},"federalState":{"key":"05","name":"Nordrhein-Westfalen"}},{"name":"Hauptstr.","postalCode":"54578","locality":"Walsdorf","municipality":{"key":"07233080","name":"Walsdorf","type":"Kreisangehörige_Gemeinde"},"district":{"key":"07233","name":"Vulkaneifel","type":"Landkreis"},"federalState":{"key":"07","name":"Rheinland-Pfalz"}},{"name":"Hauptstr.","postalCode":"54646","locality":"Halsdorf","municipality":{"key":"07232045","name":"Halsdorf","type":"Kreisangehörige_Gemeinde"},"district":{"key":"07232","name":"Eifelkreis Bitburg-Prüm","type":"Landkreis"},"federalState":{"key":"07","name":"Rheinland-Pfalz"}},{"name":"Hauptstr.","postalCode":"54668","locality":"Alsdorf","municipality":{"key":"07232002","name":"Alsdorf","type":"Kreisangehörige_Gemeinde"},"district":{"key":"07232","name":"Eifelkreis Bitburg-Prüm","type":"Landkreis"},"federalState":{"key":"07","name":"Rheinland-Pfalz"}},{"name":"Hauptstr.","postalCode":"57518","locality":"Alsdorf","municipality":{"key":"07132002","name":"Alsdorf","type":"Kreisangehörige_Gemeinde"},"district":{"key":"07132","name":"Altenkirchen (Westerwald)","type":"Landkreis"},"federalState":{"key":"07","name":"Rheinland-Pfalz"}},{"name":"Hebbelstr.","postalCode":"52477","locality":"Alsdorf","municipality":{"key":"05334004","name":"Alsdorf, Stadt","type":"Stadt"},"district":{"key":"05334","name":"Städteregion Aachen","type":"Kreis"},"federalState":{"key":"05","name":"Nordrhein-Westfalen"}},{"name":"Heckenstr.","postalCode":"52477","locality":"Alsdorf","municipality":{"key":"05334004","name":"Alsdorf, Stadt","type":"Stadt"},"district":{"key":"05334","name":"Städteregion Aachen","type":"Kreis"},"federalState":{"key":"05","name":"Nordrhein-Westfalen"}},{"name":"Hedwigstr.","postalCode":"52477","locality":"Alsdorf","municipality":{"key":"05334004","name":"Alsdorf, Stadt","type":"Stadt"},"district":{"key":"05334","name":"Städteregion Aachen","type":"Kreis"},"federalState":{"key":"05","name":"Nordrhein-Westfalen"}},{"name":"Hegelstr.","postalCode":"52477","locality":"Alsdorf","municipality":{"key":"05334004","name":"Alsdorf, Stadt","type":"Stadt"},"district":{"key":"05334","name":"Städteregion Aachen","type":"Kreis"},"federalState":{"key":"05","name":"Nordrhein-Westfalen"}},{"name":"Heidestr.","postalCode":"52477","locality":"Alsdorf","municipality":{"key":"05334004","name":"Alsdorf, Stadt","type":"Stadt"},"district":{"key":"05334","name":"Städteregion Aachen","type":"Kreis"},"federalState":{"key":"05","name":"Nordrhein-Westfalen"}},{"name":"Heidweg","postalCode":"52477","locality":"Alsdorf","municipality":{"key":"05334004","name":"Alsdorf, Stadt","type":"Stadt"},"district":{"key":"05334","name":"Städteregion Aachen","type":"Kreis"},"federalState":{"key":"05","name":"Nordrhein-Westfalen"}},{"name":"Heimstr.","postalCode":"52477","locality":"Alsdorf","municipality":{"key":"05334004","name":"Alsdorf, Stadt","type":"Stadt"},"district":{"key":"05334","name":"Städteregion Aachen","type":"Kreis"},"federalState":{"key":"05","name":"Nordrhein-Westfalen"}},{"name":"Heinrich-Heine-Str.","postalCode":"52477","locality":"Alsdorf","municipality":{"key":"05334004","name":"Alsdorf, Stadt","type":"Stadt"},"district":{"key":"05334","name":"Städteregion Aachen","type":"Kreis"},"federalState":{"key":"05","name":"Nordrhein-Westfalen"}},{"name":"Heinrich-von-Stephan-Str.","postalCode":"52477","locality":"Alsdorf","municipality":{"key":"05334004","name":"Alsdorf, Stadt","type":"Stadt"},"district":{"key":"05334","name":"Städteregion Aachen","type":"Kreis"},"federalState":{"key":"05","name":"Nordrhein-Westfalen"}},{"name":"Heinz-Sauer-Str.","postalCode":"52477","locality":"Alsdorf","municipality":{"key":"05334004","name":"Alsdorf, Stadt","type":"Stadt"},"district":{"key":"05334","name":"Städteregion Aachen","type":"Kreis"},"federalState":{"key":"05","name":"Nordrhein-Westfalen"}},{"name":"Hellerstr.","postalCode":"57518","locality":"Alsdorf","municipality":{"key":"07132002","name":"Alsdorf","type":"Kreisangehörige_Gemeinde"},"district":{"key":"07132","name":"Altenkirchen (Westerwald)","type":"Landkreis"},"federalState":{"key":"07","name":"Rheinland-Pfalz"}},{"name":"Helmut-Schmidt-Str.","postalCode":"52477","locality":"Alsdorf","municipality":{"key":"05334004","name":"Alsdorf, Stadt","type":"Stadt"},"district":{"key":"05334","name":"Städteregion Aachen","type":"Kreis"},"federalState":{"key":"05","name":"Nordrhein-Westfalen"}},{"name":"Henri-Dunant-Str.","postalCode":"52477","locality":"Alsdorf","municipality":{"key":"05334004","name":"Alsdorf, Stadt","type":"Stadt"},"district":{"key":"05334","name":"Städteregion Aachen","type":"Kreis"},"federalState":{"key":"05","name":"Nordrhein-Westfalen"}},{"name":"Herderstr.","postalCode":"52477","locality":"Alsdorf","municipality":{"key":"05334004","name":"Alsdorf, Stadt","type":"Stadt"},"district":{"key":"05334","name":"Städteregion Aachen","type":"Kreis"},"federalState":{"key":"05","name":"Nordrhein-Westfalen"}},{"name":"Hermann-Josef-Str.","postalCode":"52477","locality":"Alsdorf","municipality":{"key":"05334004","name":"Alsdorf, Stadt","type":"Stadt"},"district":{"key":"05334","name":"Städteregion Aachen","type":"Kreis"},"federalState":{"key":"05","name":"Nordrhein-Westfalen"}},{"name":"Hermann-Löns-Str.","postalCode":"52477","locality":"Alsdorf","municipality":{"key":"05334004","name":"Alsdorf, Stadt","type":"Stadt"},"district":{"key":"05334","name":"Städteregion Aachen","type":"Kreis"},"federalState":{"key":"05","name":"Nordrhein-Westfalen"}},{"name":"Hermannstr.","postalCode":"52477","locality":"Alsdorf","municipality":{"key":"05334004","name":"Alsdorf, Stadt","type":"Stadt"},"district":{"key":"05334","name":"Städteregion Aachen","type":"Kreis"},"federalState":{"key":"05","name":"Nordrhein-Westfalen"}},{"name":"Herrenweg","postalCode":"52477","locality":"Alsdorf","municipality":{"key":"05334004","name":"Alsdorf, Stadt","type":"Stadt"},"district":{"key":"05334","name":"Städteregion Aachen","type":"Kreis"},"federalState":{"key":"05","name":"Nordrhein-Westfalen"}},{"name":"Hertzstr.","postalCode":"52477","locality":"Alsdorf","municipality":{"key":"05334004","name":"Alsdorf, Stadt","type":"Stadt"},"district":{"key":"05334","name":"Städteregion Aachen","type":"Kreis"},"federalState":{"key":"05","name":"Nordrhein-Westfalen"}},{"name":"Herzogenrather Str.","postalCode":"52477","locality":"Alsdorf","municipality":{"key":"05334004","name":"Alsdorf, Stadt","type":"Stadt"},"district":{"key":"05334","name":"Städteregion Aachen","type":"Kreis"},"federalState":{"key":"05","name":"Nordrhein-Westfalen"}},{"name":"Hetzentännig","postalCode":"96194","locality":"Walsdorf","municipality":{"key":"09471208","name":"Walsdorf","type":"Kreisangehörige_Gemeinde"},"district":{"key":"09471","name":"Bamberg","type":"Landkreis"},"federalState":{"key":"09","name":"Bayern"}},{"name":"Himmelschlüsselweg","postalCode":"52477","locality":"Alsdorf","municipality":{"key":"05334004","name":"Alsdorf, Stadt","type":"Stadt"},"district":{"key":"05334","name":"Städteregion Aachen","type":"Kreis"},"federalState":{"key":"05","name":"Nordrhein-Westfalen"}},{"name":"Hoengener Str.","postalCode":"52477","locality":"Alsdorf","municipality":{"key":"05334004","name":"Alsdorf, Stadt","type":"Stadt"},"district":{"key":"05334","name":"Städteregion Aachen","type":"Kreis"},"federalState":{"key":"05","name":"Nordrhein-Westfalen"}},{"name":"Hofacker","postalCode":"57518","locality":"Alsdorf","municipality":{"key":"07132002","name":"Alsdorf","type":"Kreisangehörige_Gemeinde"},"district":{"key":"07132","name":"Altenkirchen (Westerwald)","type":"Landkreis"},"federalState":{"key":"07","name":"Rheinland-Pfalz"}},{"name":"Höhenstr.","postalCode":"96194","locality":"Walsdorf","municipality":{"key":"09471208","name":"Walsdorf","type":"Kreisangehörige_Gemeinde"},"district":{"key":"09471","name":"Bamberg","type":"Landkreis"},"federalState":{"key":"09","name":"Bayern"}},{"name":"Hohlweg","postalCode":"54646","locality":"Halsdorf","municipality":{"key":"07232045","name":"Halsdorf","type":"Kreisangehörige_Gemeinde"},"district":{"key":"07232","name":"Eifelkreis Bitburg-Prüm","type":"Landkreis"},"federalState":{"key":"07","name":"Rheinland-Pfalz"}},{"name":"Hohlweg","postalCode":"54668","locality":"Alsdorf","municipality":{"key":"07232002","name":"Alsdorf","type":"Kreisangehörige_Gemeinde"},"district":{"key":"07232","name":"Eifelkreis Bitburg-Prüm","type":"Landkreis"},"federalState":{"key":"07","name":"Rheinland-Pfalz"}},{"name":"Holbeinstr.","postalCode":"52477","locality":"Alsdorf","municipality":{"key":"05334004","name":"Alsdorf, Stadt","type":"Stadt"},"district":{"key":"05334","name":"Städteregion Aachen","type":"Kreis"},"federalState":{"key":"05","name":"Nordrhein-Westfalen"}},{"name":"Hollerweg","postalCode":"96194","locality":"Walsdorf","municipality":{"key":"09471208","name":"Walsdorf","type":"Kreisangehörige_Gemeinde"},"district":{"key":"09471","name":"Bamberg","type":"Landkreis"},"federalState":{"key":"09","name":"Bayern"}},{"name":"Holunderstr.","postalCode":"52477","locality":"Alsdorf","municipality":{"key":"05334004","name":"Alsdorf, Stadt","type":"Stadt"},"district":{"key":"05334","name":"Städteregion Aachen","type":"Kreis"},"federalState":{"key":"05","name":"Nordrhein-Westfalen"}},{"name":"Holunderweg","postalCode":"54578","locality":"Walsdorf","municipality":{"key":"07233080","name":"Walsdorf","type":"Kreisangehörige_Gemeinde"},"district":{"key":"07233","name":"Vulkaneifel","type":"Landkreis"},"federalState":{"key":"07","name":"Rheinland-Pfalz"}},{"name":"Hölzerne Ecke","postalCode":"57518","locality":"Alsdorf","municipality":{"key":"07132002","name":"Alsdorf","type":"Kreisangehörige_Gemeinde"},"district":{"key":"07132","name":"Altenkirchen (Westerwald)","type":"Landkreis"},"federalState":{"key":"07","name":"Rheinland-Pfalz"}},{"name":"Hubertusstr.","postalCode":"52477","locality":"Alsdorf","municipality":{"key":"05334004","name":"Alsdorf, Stadt","type":"Stadt"},"district":{"key":"05334","name":"Städteregion Aachen","type":"Kreis"},"federalState":{"key":"05","name":"Nordrhein-Westfalen"}},{"name":"Hubertusweg","postalCode":"57518","locality":"Alsdorf","municipality":{"key":"07132002","name":"Alsdorf","type":"Kreisangehörige_Gemeinde"},"district":{"key":"07132","name":"Altenkirchen (Westerwald)","type":"Landkreis"},"federalState":{"key":"07","name":"Rheinland-Pfalz"}},{"name":"Hunsrückstr.","postalCode":"52477","locality":"Alsdorf","municipality":{"key":"05334004","name":"Alsdorf, Stadt","type":"Stadt"},"district":{"key":"05334","name":"Städteregion Aachen","type":"Kreis"},"federalState":{"key":"05","name":"Nordrhein-Westfalen"}},{"name":"Husemannstr.","postalCode":"52477","locality":"Alsdorf","municipality":{"key":"05334004","name":"Alsdorf, Stadt","type":"Stadt"},"district":{"key":"05334","name":"Städteregion Aachen","type":"Kreis"},"federalState":{"key":"05","name":"Nordrhein-Westfalen"}},{"name":"Im Bachgarten","postalCode":"57518","locality":"Alsdorf","municipality":{"key":"07132002","name":"Alsdorf","type":"Kreisangehörige_Gemeinde"},"district":{"key":"07132","name":"Altenkirchen (Westerwald)","type":"Landkreis"},"federalState":{"key":"07","name":"Rheinland-Pfalz"}},{"name":"Im Birnbaumswinkel","postalCode":"52477","locality":"Alsdorf","municipality":{"key":"05334004","name":"Alsdorf, Stadt","type":"Stadt"},"district":{"key":"05334","name":"Städteregion Aachen","type":"Kreis"},"federalState":{"key":"05","name":"Nordrhein-Westfalen"}},{"name":"Im Blumenfeld","postalCode":"52477","locality":"Alsdorf","municipality":{"key":"05334004","name":"Alsdorf, Stadt","type":"Stadt"},"district":{"key":"05334","name":"Städteregion Aachen","type":"Kreis"},"federalState":{"key":"05","name":"Nordrhein-Westfalen"}},{"name":"Im Broichtal","postalCode":"52477","locality":"Alsdorf","municipality":{"key":"05334004","name":"Alsdorf, Stadt","type":"Stadt"},"district":{"key":"05334","name":"Städteregion Aachen","type":"Kreis"},"federalState":{"key":"05","name":"Nordrhein-Westfalen"}},{"name":"Im Brühl","postalCode":"52477","locality":"Alsdorf","municipality":{"key":"05334004","name":"Alsdorf, Stadt","type":"Stadt"},"district":{"key":"05334","name":"Städteregion Aachen","type":"Kreis"},"federalState":{"key":"05","name":"Nordrhein-Westfalen"}},{"name":"Im Brühl","postalCode":"54578","locality":"Walsdorf","municipality":{"key":"07233080","name":"Walsdorf","type":"Kreisangehörige_Gemeinde"},"district":{"key":"07233","name":"Vulkaneifel","type":"Landkreis"},"federalState":{"key":"07","name":"Rheinland-Pfalz"}},{"name":"Im Brühl","postalCode":"54668","locality":"Alsdorf","municipality":{"key":"07232002","name":"Alsdorf","type":"Kreisangehörige_Gemeinde"},"district":{"key":"07232","name":"Eifelkreis Bitburg-Prüm","type":"Landkreis"},"federalState":{"key":"07","name":"Rheinland-Pfalz"}},{"name":"Im Brühlsgraben","postalCode":"54668","locality":"Alsdorf","municipality":{"key":"07232002","name":"Alsdorf","type":"Kreisangehörige_Gemeinde"},"district":{"key":"07232","name":"Eifelkreis Bitburg-Prüm","type":"Landkreis"},"federalState":{"key":"07","name":"Rheinland-Pfalz"}},{"name":"Im Busch","postalCode":"52477","locality":"Alsdorf","municipality":{"key":"05334004","name":"Alsdorf, Stadt","type":"Stadt"},"district":{"key":"05334","name":"Städteregion Aachen","type":"Kreis"},"federalState":{"key":"05","name":"Nordrhein-Westfalen"}},{"name":"Im Dahlerrain","postalCode":"57518","locality":"Alsdorf","municipality":{"key":"07132002","name":"Alsdorf","type":"Kreisangehörige_Gemeinde"},"district":{"key":"07132","name":"Altenkirchen (Westerwald)","type":"Landkreis"},"federalState":{"key":"07","name":"Rheinland-Pfalz"}},{"name":"Im Feldchen","postalCode":"52477","locality":"Alsdorf","municipality":{"key":"05334004","name":"Alsdorf, Stadt","type":"Stadt"},"district":{"key":"05334","name":"Städteregion Aachen","type":"Kreis"},"federalState":{"key":"05","name":"Nordrhein-Westfalen"}},{"name":"Im Franchsfeld","postalCode":"52477","locality":"Alsdorf","municipality":{"key":"05334004","name":"Alsdorf, Stadt","type":"Stadt"},"district":{"key":"05334","name":"Städteregion Aachen","type":"Kreis"},"federalState":{"key":"05","name":"Nordrhein-Westfalen"}},{"name":"Im Grüngürtel","postalCode":"52477","locality":"Alsdorf","municipality":{"key":"05334004","name":"Alsdorf, Stadt","type":"Stadt"},"district":{"key":"05334","name":"Städteregion Aachen","type":"Kreis"},"federalState":{"key":"05","name":"Nordrhein-Westfalen"}},{"name":"Im Haag","postalCode":"52477","locality":"Alsdorf","municipality":{"key":"05334004","name":"Alsdorf, Stadt","type":"Stadt"},"district":{"key":"05334","name":"Städteregion Aachen","type":"Kreis"},"federalState":{"key":"05","name":"Nordrhein-Westfalen"}},{"name":"Imhäuserhof","postalCode":"57518","locality":"Alsdorf","municipality":{"key":"07132002","name":"Alsdorf","type":"Kreisangehörige_Gemeinde"},"district":{"key":"07132","name":"Altenkirchen (Westerwald)","type":"Landkreis"},"federalState":{"key":"07","name":"Rheinland-Pfalz"}},{"name":"Im Heidchesgarten","postalCode":"57518","locality":"Alsdorf","municipality":{"key":"07132002","name":"Alsdorf","type":"Kreisangehörige_Gemeinde"},"district":{"key":"07132","name":"Altenkirchen (Westerwald)","type":"Landkreis"},"federalState":{"key":"07","name":"Rheinland-Pfalz"}},{"name":"Imigstr.","postalCode":"52477","locality":"Alsdorf","municipality":{"key":"05334004","name":"Alsdorf, Stadt","type":"Stadt"},"district":{"key":"05334","name":"Städteregion Aachen","type":"Kreis"},"federalState":{"key":"05","name":"Nordrhein-Westfalen"}},{"name":"Im Kleefeld","postalCode":"52477","locality":"Alsdorf","municipality":{"key":"05334004","name":"Alsdorf, Stadt","type":"Stadt"},"district":{"key":"05334","name":"Städteregion Aachen","type":"Kreis"},"federalState":{"key":"05","name":"Nordrhein-Westfalen"}},{"name":"Im Kranental","postalCode":"52477","locality":"Alsdorf","municipality":{"key":"05334004","name":"Alsdorf, Stadt","type":"Stadt"},"district":{"key":"05334","name":"Städteregion Aachen","type":"Kreis"},"federalState":{"key":"05","name":"Nordrhein-Westfalen"}},{"name":"Immergrünweg","postalCode":"52477","locality":"Alsdorf","municipality":{"key":"05334004","name":"Alsdorf, Stadt","type":"Stadt"},"district":{"key":"05334","name":"Städteregion Aachen","type":"Kreis"},"federalState":{"key":"05","name":"Nordrhein-Westfalen"}},{"name":"Im Reuland","postalCode":"54646","locality":"Halsdorf","municipality":{"key":"07232045","name":"Halsdorf","type":"Kreisangehörige_Gemeinde"},"district":{"key":"07232","name":"Eifelkreis Bitburg-Prüm","type":"Landkreis"},"federalState":{"key":"07","name":"Rheinland-Pfalz"}},{"name":"Im Rosenhain","postalCode":"52477","locality":"Alsdorf","municipality":{"key":"05334004","name":"Alsdorf, Stadt","type":"Stadt"},"district":{"key":"05334","name":"Städteregion Aachen","type":"Kreis"},"federalState":{"key":"05","name":"Nordrhein-Westfalen"}},{"name":"Im Rosenhof","postalCode":"52477","locality":"Alsdorf","municipality":{"key":"05334004","name":"Alsdorf, Stadt","type":"Stadt"},"district":{"key":"05334","name":"Städteregion Aachen","type":"Kreis"},"federalState":{"key":"05","name":"Nordrhein-Westfalen"}},{"name":"Im Rübenstück","postalCode":"54578","locality":"Walsdorf","municipality":{"key":"07233080","name":"Walsdorf","type":"Kreisangehörige_Gemeinde"},"district":{"key":"07233","name":"Vulkaneifel","type":"Landkreis"},"federalState":{"key":"07","name":"Rheinland-Pfalz"}},{"name":"Im Sommer","postalCode":"57518","locality":"Alsdorf","municipality":{"key":"07132002","name":"Alsdorf","type":"Kreisangehörige_Gemeinde"},"district":{"key":"07132","name":"Altenkirchen (Westerwald)","type":"Landkreis"},"federalState":{"key":"07","name":"Rheinland-Pfalz"}},{"name":"Im Vogelsang","postalCode":"52477","locality":"Alsdorf","municipality":{"key":"05334004","name":"Alsdorf, Stadt","type":"Stadt"},"district":{"key":"05334","name":"Städteregion Aachen","type":"Kreis"},"federalState":{"key":"05","name":"Nordrhein-Westfalen"}},{"name":"Im Winkel","postalCode":"52477","locality":"Alsdorf","municipality":{"key":"05334004","name":"Alsdorf, Stadt","type":"Stadt"},"district":{"key":"05334","name":"Städteregion Aachen","type":"Kreis"},"federalState":{"key":"05","name":"Nordrhein-Westfalen"}},{"name":"In der Burgweid","postalCode":"52477","locality":"Alsdorf","municipality":{"key":"05334004","name":"Alsdorf, Stadt","type":"Stadt"},"district":{"key":"05334","name":"Städteregion Aachen","type":"Kreis"},"federalState":{"key":"05","name":"Nordrhein-Westfalen"}},{"name":"In der Käf","postalCode":"54578","locality":"Walsdorf","municipality":{"key":"07233080","name":"Walsdorf","type":"Kreisangehörige_Gemeinde"},"district":{"key":"07233","name":"Vulkaneifel","type":"Landkreis"},"federalState":{"key":"07","name":"Rheinland-Pfalz"}},{"name":"In der Wies","postalCode":"54578","locality":"Walsdorf","municipality":{"key":"07233080","name":"Walsdorf","type":"Kreisangehörige_Gemeinde"},"district":{"key":"07233","name":"Vulkaneifel","type":"Landkreis"},"federalState":{"key":"07","name":"Rheinland-Pfalz"}},{"name":"Industriestr.","postalCode":"52477","locality":"Alsdorf","municipality":{"key":"05334004","name":"Alsdorf, Stadt","type":"Stadt"},"district":{"key":"05334","name":"Städteregion Aachen","type":"Kreis"},"federalState":{"key":"05","name":"Nordrhein-Westfalen"}},{"name":"Industriestr.","postalCode":"57518","locality":"Alsdorf","municipality":{"key":"07132002","name":"Alsdorf","type":"Kreisangehörige_Gemeinde"},"district":{"key":"07132","name":"Altenkirchen (Westerwald)","type":"Landkreis"},"federalState":{"key":"07","name":"Rheinland-Pfalz"}},{"name":"Jägerweg","postalCode":"52477","locality":"Alsdorf","municipality":{"key":"05334004","name":"Alsdorf, Stadt","type":"Stadt"},"district":{"key":"05334","name":"Städteregion Aachen","type":"Kreis"},"federalState":{"key":"05","name":"Nordrhein-Westfalen"}},{"name":"Jahnstr.","postalCode":"52477","locality":"Alsdorf","municipality":{"key":"05334004","name":"Alsdorf, Stadt","type":"Stadt"},"district":{"key":"05334","name":"Städteregion Aachen","type":"Kreis"},"federalState":{"key":"05","name":"Nordrhein-Westfalen"}},{"name":"Jakobstr.","postalCode":"52477","locality":"Alsdorf","municipality":{"key":"05334004","name":"Alsdorf, Stadt","type":"Stadt"},"district":{"key":"05334","name":"Städteregion Aachen","type":"Kreis"},"federalState":{"key":"05","name":"Nordrhein-Westfalen"}},{"name":"Jasminstr.","postalCode":"52477","locality":"Alsdorf","municipality":{"key":"05334004","name":"Alsdorf, Stadt","type":"Stadt"},"district":{"key":"05334","name":"Städteregion Aachen","type":"Kreis"},"federalState":{"key":"05","name":"Nordrhein-Westfalen"}},{"name":"Johann-Kayen-Str.","postalCode":"52477","locality":"Alsdorf","municipality":{"key":"05334004","name":"Alsdorf, Stadt","type":"Stadt"},"district":{"key":"05334","name":"Städteregion Aachen","type":"Kreis"},"federalState":{"key":"05","name":"Nordrhein-Westfalen"}},{"name":"Johann-Klinkenberg-Str.","postalCode":"52477","locality":"Alsdorf","municipality":{"key":"05334004","name":"Alsdorf, Stadt","type":"Stadt"},"district":{"key":"05334","name":"Städteregion Aachen","type":"Kreis"},"federalState":{"key":"05","name":"Nordrhein-Westfalen"}},{"name":"Johann-Lütter-Str.","postalCode":"52477","locality":"Alsdorf","municipality":{"key":"05334004","name":"Alsdorf, Stadt","type":"Stadt"},"district":{"key":"05334","name":"Städteregion Aachen","type":"Kreis"},"federalState":{"key":"05","name":"Nordrhein-Westfalen"}},{"name":"Josefstr.","postalCode":"52477","locality":"Alsdorf","municipality":{"key":"05334004","name":"Alsdorf, Stadt","type":"Stadt"},"district":{"key":"05334","name":"Städteregion Aachen","type":"Kreis"},"federalState":{"key":"05","name":"Nordrhein-Westfalen"}},{"name":"Jülicher Str.","postalCode":"52477","locality":"Alsdorf","municipality":{"key":"05334004","name":"Alsdorf, Stadt","type":"Stadt"},"district":{"key":"05334","name":"Städteregion Aachen","type":"Kreis"},"federalState":{"key":"05","name":"Nordrhein-Westfalen"}},{"name":"Juliusstr.","postalCode":"52477","locality":"Alsdorf","municipality":{"key":"05334004","name":"Alsdorf, Stadt","type":"Stadt"},"district":{"key":"05334","name":"Städteregion Aachen","type":"Kreis"},"federalState":{"key":"05","name":"Nordrhein-Westfalen"}},{"name":"Kalkofenstr.","postalCode":"96194","locality":"Walsdorf","municipality":{"key":"09471208","name":"Walsdorf","type":"Kreisangehörige_Gemeinde"},"district":{"key":"09471","name":"Bamberg","type":"Landkreis"},"federalState":{"key":"09","name":"Bayern"}},{"name":"Kantgasse","postalCode":"52477","locality":"Alsdorf","municipality":{"key":"05334004","name":"Alsdorf, Stadt","type":"Stadt"},"district":{"key":"05334","name":"Städteregion Aachen","type":"Kreis"},"federalState":{"key":"05","name":"Nordrhein-Westfalen"}},{"name":"Kapellenstr.","postalCode":"52477","locality":"Alsdorf","municipality":{"key":"05334004","name":"Alsdorf, Stadt","type":"Stadt"},"district":{"key":"05334","name":"Städteregion Aachen","type":"Kreis"},"federalState":{"key":"05","name":"Nordrhein-Westfalen"}},{"name":"Kapellenweg","postalCode":"54646","locality":"Halsdorf","municipality":{"key":"07232045","name":"Halsdorf","type":"Kreisangehörige_Gemeinde"},"district":{"key":"07232","name":"Eifelkreis Bitburg-Prüm","type":"Landkreis"},"federalState":{"key":"07","name":"Rheinland-Pfalz"}},{"name":"Karlstr.","postalCode":"52477","locality":"Alsdorf","municipality":{"key":"05334004","name":"Alsdorf, Stadt","type":"Stadt"},"district":{"key":"05334","name":"Städteregion Aachen","type":"Kreis"},"federalState":{"key":"05","name":"Nordrhein-Westfalen"}},{"name":"Karl-van-Berk-Park","postalCode":"52477","locality":"Alsdorf","municipality":{"key":"05334004","name":"Alsdorf, Stadt","type":"Stadt"},"district":{"key":"05334","name":"Städteregion Aachen","type":"Kreis"},"federalState":{"key":"05","name":"Nordrhein-Westfalen"}},{"name":"Kastanienstr.","postalCode":"52477","locality":"Alsdorf","municipality":{"key":"05334004","name":"Alsdorf, Stadt","type":"Stadt"},"district":{"key":"05334","name":"Städteregion Aachen","type":"Kreis"},"federalState":{"key":"05","name":"Nordrhein-Westfalen"}},{"name":"Käthe-Kollwitz-Str.","postalCode":"52477","locality":"Alsdorf","municipality":{"key":"05334004","name":"Alsdorf, Stadt","type":"Stadt"},"district":{"key":"05334","name":"Städteregion Aachen","type":"Kreis"},"federalState":{"key":"05","name":"Nordrhein-Westfalen"}},{"name":"Kellerberg","postalCode":"96194","locality":"Walsdorf","municipality":{"key":"09471208","name":"Walsdorf","type":"Kreisangehörige_Gemeinde"},"district":{"key":"09471","name":"Bamberg","type":"Landkreis"},"federalState":{"key":"09","name":"Bayern"}},{"name":"Kellersberger Gracht","postalCode":"52477","locality":"Alsdorf","municipality":{"key":"05334004","name":"Alsdorf, Stadt","type":"Stadt"},"district":{"key":"05334","name":"Städteregion Aachen","type":"Kreis"},"federalState":{"key":"05","name":"Nordrhein-Westfalen"}},{"name":"Kellersberger Hof","postalCode":"52477","locality":"Alsdorf","municipality":{"key":"05334004","name":"Alsdorf, Stadt","type":"Stadt"},"district":{"key":"05334","name":"Städteregion Aachen","type":"Kreis"},"federalState":{"key":"05","name":"Nordrhein-Westfalen"}},{"name":"Kellersberger Str.","postalCode":"52477","locality":"Alsdorf","municipality":{"key":"05334004","name":"Alsdorf, Stadt","type":"Stadt"},"district":{"key":"05334","name":"Städteregion Aachen","type":"Kreis"},"federalState":{"key":"05","name":"Nordrhein-Westfalen"}},{"name":"Keltenweg","postalCode":"52477","locality":"Alsdorf","municipality":{"key":"05334004","name":"Alsdorf, Stadt","type":"Stadt"},"district":{"key":"05334","name":"Städteregion Aachen","type":"Kreis"},"federalState":{"key":"05","name":"Nordrhein-Westfalen"}},{"name":"Kiebitzweg","postalCode":"52477","locality":"Alsdorf","municipality":{"key":"05334004","name":"Alsdorf, Stadt","type":"Stadt"},"district":{"key":"05334","name":"Städteregion Aachen","type":"Kreis"},"federalState":{"key":"05","name":"Nordrhein-Westfalen"}},{"name":"Kiefernweg","postalCode":"52477","locality":"Alsdorf","municipality":{"key":"05334004","name":"Alsdorf, Stadt","type":"Stadt"},"district":{"key":"05334","name":"Städteregion Aachen","type":"Kreis"},"federalState":{"key":"05","name":"Nordrhein-Westfalen"}},{"name":"Kimbernstr.","postalCode":"52477","locality":"Alsdorf","municipality":{"key":"05334004","name":"Alsdorf, Stadt","type":"Stadt"},"district":{"key":"05334","name":"Städteregion Aachen","type":"Kreis"},"federalState":{"key":"05","name":"Nordrhein-Westfalen"}},{"name":"Kinzweilerstr.","postalCode":"52477","locality":"Alsdorf","municipality":{"key":"05334004","name":"Alsdorf, Stadt","type":"Stadt"},"district":{"key":"05334","name":"Städteregion Aachen","type":"Kreis"},"federalState":{"key":"05","name":"Nordrhein-Westfalen"}},{"name":"Kirchgäßchen","postalCode":"52477","locality":"Alsdorf","municipality":{"key":"05334004","name":"Alsdorf, Stadt","type":"Stadt"},"district":{"key":"05334","name":"Städteregion Aachen","type":"Kreis"},"federalState":{"key":"05","name":"Nordrhein-Westfalen"}},{"name":"Kirchstr.","postalCode":"52477","locality":"Alsdorf","municipality":{"key":"05334004","name":"Alsdorf, Stadt","type":"Stadt"},"district":{"key":"05334","name":"Städteregion Aachen","type":"Kreis"},"federalState":{"key":"05","name":"Nordrhein-Westfalen"}},{"name":"Kirchstr.","postalCode":"54578","locality":"Walsdorf","municipality":{"key":"07233080","name":"Walsdorf","type":"Kreisangehörige_Gemeinde"},"district":{"key":"07233","name":"Vulkaneifel","type":"Landkreis"},"federalState":{"key":"07","name":"Rheinland-Pfalz"}},{"name":"Kirchstr.","postalCode":"57518","locality":"Alsdorf","municipality":{"key":"07132002","name":"Alsdorf","type":"Kreisangehörige_Gemeinde"},"district":{"key":"07132","name":"Altenkirchen (Westerwald)","type":"Landkreis"},"federalState":{"key":"07","name":"Rheinland-Pfalz"}},{"name":"Kirchweg","postalCode":"54578","locality":"Walsdorf","municipality":{"key":"07233080","name":"Walsdorf","type":"Kreisangehörige_Gemeinde"},"district":{"key":"07233","name":"Vulkaneifel","type":"Landkreis"},"federalState":{"key":"07","name":"Rheinland-Pfalz"}},{"name":"Kleegasse","postalCode":"54578","locality":"Walsdorf","municipality":{"key":"07233080","name":"Walsdorf","type":"Kreisangehörige_Gemeinde"},"district":{"key":"07233","name":"Vulkaneifel","type":"Landkreis"},"federalState":{"key":"07","name":"Rheinland-Pfalz"}},{"name":"Kleiberstr.","postalCode":"52477","locality":"Alsdorf","municipality":{"key":"05334004","name":"Alsdorf, Stadt","type":"Stadt"},"district":{"key":"05334","name":"Städteregion Aachen","type":"Kreis"},"federalState":{"key":"05","name":"Nordrhein-Westfalen"}},{"name":"Kleine Tröt","postalCode":"52477","locality":"Alsdorf","municipality":{"key":"05334004","name":"Alsdorf, Stadt","type":"Stadt"},"district":{"key":"05334","name":"Städteregion Aachen","type":"Kreis"},"federalState":{"key":"05","name":"Nordrhein-Westfalen"}},{"name":"Kleiststr.","postalCode":"52477","locality":"Alsdorf","municipality":{"key":"05334004","name":"Alsdorf, Stadt","type":"Stadt"},"district":{"key":"05334","name":"Städteregion Aachen","type":"Kreis"},"federalState":{"key":"05","name":"Nordrhein-Westfalen"}},{"name":"Knappenweg","postalCode":"52477","locality":"Alsdorf","municipality":{"key":"05334004","name":"Alsdorf, Stadt","type":"Stadt"},"district":{"key":"05334","name":"Städteregion Aachen","type":"Kreis"},"federalState":{"key":"05","name":"Nordrhein-Westfalen"}},{"name":"Koblenzer Str.","postalCode":"54578","locality":"Walsdorf","municipality":{"key":"07233080","name":"Walsdorf","type":"Kreisangehörige_Gemeinde"},"district":{"key":"07233","name":"Vulkaneifel","type":"Landkreis"},"federalState":{"key":"07","name":"Rheinland-Pfalz"}},{"name":"Kolberger Str.","postalCode":"52477","locality":"Alsdorf","municipality":{"key":"05334004","name":"Alsdorf, Stadt","type":"Stadt"},"district":{"key":"05334","name":"Städteregion Aachen","type":"Kreis"},"federalState":{"key":"05","name":"Nordrhein-Westfalen"}},{"name":"Kolmsdorfer Hauptstr.","postalCode":"96194","locality":"Walsdorf","municipality":{"key":"09471208","name":"Walsdorf","type":"Kreisangehörige_Gemeinde"},"district":{"key":"09471","name":"Bamberg","type":"Landkreis"},"federalState":{"key":"09","name":"Bayern"}},{"name":"Kölner Str.","postalCode":"54578","locality":"Walsdorf","municipality":{"key":"07233080","name":"Walsdorf","type":"Kreisangehörige_Gemeinde"},"district":{"key":"07233","name":"Vulkaneifel","type":"Landkreis"},"federalState":{"key":"07","name":"Rheinland-Pfalz"}},{"name":"Königsberger Str.","postalCode":"52477","locality":"Alsdorf","municipality":{"key":"05334004","name":"Alsdorf, Stadt","type":"Stadt"},"district":{"key":"05334","name":"Städteregion Aachen","type":"Kreis"},"federalState":{"key":"05","name":"Nordrhein-Westfalen"}},{"name":"Konrad-Adenauer-Allee","postalCode":"52477","locality":"Alsdorf","municipality":{"key":"05334004","name":"Alsdorf, Stadt","type":"Stadt"},"district":{"key":"05334","name":"Städteregion Aachen","type":"Kreis"},"federalState":{"key":"05","name":"Nordrhein-Westfalen"}},{"name":"Konsumstr.","postalCode":"52477","locality":"Alsdorf","municipality":{"key":"05334004","name":"Alsdorf, Stadt","type":"Stadt"},"district":{"key":"05334","name":"Städteregion Aachen","type":"Kreis"},"federalState":{"key":"05","name":"Nordrhein-Westfalen"}},{"name":"Kopernikusstr.","postalCode":"52477","locality":"Alsdorf","municipality":{"key":"05334004","name":"Alsdorf, Stadt","type":"Stadt"},"district":{"key":"05334","name":"Städteregion Aachen","type":"Kreis"},"federalState":{"key":"05","name":"Nordrhein-Westfalen"}},{"name":"Kornblumenweg","postalCode":"52477","locality":"Alsdorf","municipality":{"key":"05334004","name":"Alsdorf, Stadt","type":"Stadt"},"district":{"key":"05334","name":"Städteregion Aachen","type":"Kreis"},"federalState":{"key":"05","name":"Nordrhein-Westfalen"}},{"name":"Körnerstr.","postalCode":"52477","locality":"Alsdorf","municipality":{"key":"05334004","name":"Alsdorf, Stadt","type":"Stadt"},"district":{"key":"05334","name":"Städteregion Aachen","type":"Kreis"},"federalState":{"key":"05","name":"Nordrhein-Westfalen"}},{"name":"Kösliner Str.","postalCode":"52477","locality":"Alsdorf","municipality":{"key":"05334004","name":"Alsdorf, Stadt","type":"Stadt"},"district":{"key":"05334","name":"Städteregion Aachen","type":"Kreis"},"federalState":{"key":"05","name":"Nordrhein-Westfalen"}},{"name":"Kranentalsmühle","postalCode":"52477","locality":"Alsdorf","municipality":{"key":"05334004","name":"Alsdorf, Stadt","type":"Stadt"},"district":{"key":"05334","name":"Städteregion Aachen","type":"Kreis"},"federalState":{"key":"05","name":"Nordrhein-Westfalen"}},{"name":"Kranichstr.","postalCode":"52477","locality":"Alsdorf","municipality":{"key":"05334004","name":"Alsdorf, Stadt","type":"Stadt"},"district":{"key":"05334","name":"Städteregion Aachen","type":"Kreis"},"federalState":{"key":"05","name":"Nordrhein-Westfalen"}},{"name":"Kressenweg","postalCode":"52477","locality":"Alsdorf","municipality":{"key":"05334004","name":"Alsdorf, Stadt","type":"Stadt"},"district":{"key":"05334","name":"Städteregion Aachen","type":"Kreis"},"federalState":{"key":"05","name":"Nordrhein-Westfalen"}},{"name":"Kreuzstr.","postalCode":"52477","locality":"Alsdorf","municipality":{"key":"05334004","name":"Alsdorf, Stadt","type":"Stadt"},"district":{"key":"05334","name":"Städteregion Aachen","type":"Kreis"},"federalState":{"key":"05","name":"Nordrhein-Westfalen"}},{"name":"Krickelsberg","postalCode":"52477","locality":"Alsdorf","municipality":{"key":"05334004","name":"Alsdorf, Stadt","type":"Stadt"},"district":{"key":"05334","name":"Städteregion Aachen","type":"Kreis"},"federalState":{"key":"05","name":"Nordrhein-Westfalen"}},{"name":"Kroetchensweiden","postalCode":"52477","locality":"Alsdorf","municipality":{"key":"05334004","name":"Alsdorf, Stadt","type":"Stadt"},"district":{"key":"05334","name":"Städteregion Aachen","type":"Kreis"},"federalState":{"key":"05","name":"Nordrhein-Westfalen"}},{"name":"Kumbachstr.","postalCode":"96194","locality":"Walsdorf","municipality":{"key":"09471208","name":"Walsdorf","type":"Kreisangehörige_Gemeinde"},"district":{"key":"09471","name":"Bamberg","type":"Landkreis"},"federalState":{"key":"09","name":"Bayern"}},{"name":"Kupferhütte","postalCode":"57518","locality":"Alsdorf","municipality":{"key":"07132002","name":"Alsdorf","type":"Kreisangehörige_Gemeinde"},"district":{"key":"07132","name":"Altenkirchen (Westerwald)","type":"Landkreis"},"federalState":{"key":"07","name":"Rheinland-Pfalz"}},{"name":"Kurt-Koblitz-Ring","postalCode":"52477","locality":"Alsdorf","municipality":{"key":"05334004","name":"Alsdorf, Stadt","type":"Stadt"},"district":{"key":"05334","name":"Städteregion Aachen","type":"Kreis"},"federalState":{"key":"05","name":"Nordrhein-Westfalen"}},{"name":"Kurzer Weg","postalCode":"52477","locality":"Alsdorf","municipality":{"key":"05334004","name":"Alsdorf, Stadt","type":"Stadt"},"district":{"key":"05334","name":"Städteregion Aachen","type":"Kreis"},"federalState":{"key":"05","name":"Nordrhein-Westfalen"}},{"name":"Lahnweg","postalCode":"52477","locality":"Alsdorf","municipality":{"key":"05334004","name":"Alsdorf, Stadt","type":"Stadt"},"district":{"key":"05334","name":"Städteregion Aachen","type":"Kreis"},"federalState":{"key":"05","name":"Nordrhein-Westfalen"}},{"name":"Langermoos","postalCode":"96194","locality":"Walsdorf","municipality":{"key":"09471208","name":"Walsdorf","type":"Kreisangehörige_Gemeinde"},"district":{"key":"09471","name":"Bamberg","type":"Landkreis"},"federalState":{"key":"09","name":"Bayern"}},{"name":"Lange Str.","postalCode":"96194","locality":"Walsdorf","municipality":{"key":"09471208","name":"Walsdorf","type":"Kreisangehörige_Gemeinde"},"district":{"key":"09471","name":"Bamberg","type":"Landkreis"},"federalState":{"key":"09","name":"Bayern"}},{"name":"Langstr.","postalCode":"52477","locality":"Alsdorf","municipality":{"key":"05334004","name":"Alsdorf, Stadt","type":"Stadt"},"district":{"key":"05334","name":"Städteregion Aachen","type":"Kreis"},"federalState":{"key":"05","name":"Nordrhein-Westfalen"}},{"name":"Langweilerstr.","postalCode":"52477","locality":"Alsdorf","municipality":{"key":"05334004","name":"Alsdorf, Stadt","type":"Stadt"},"district":{"key":"05334","name":"Städteregion Aachen","type":"Kreis"},"federalState":{"key":"05","name":"Nordrhein-Westfalen"}},{"name":"Lärchenweg","postalCode":"54578","locality":"Walsdorf","municipality":{"key":"07233080","name":"Walsdorf","type":"Kreisangehörige_Gemeinde"},"district":{"key":"07233","name":"Vulkaneifel","type":"Landkreis"},"federalState":{"key":"07","name":"Rheinland-Pfalz"}},{"name":"Lassallestr.","postalCode":"52477","locality":"Alsdorf","municipality":{"key":"05334004","name":"Alsdorf, Stadt","type":"Stadt"},"district":{"key":"05334","name":"Städteregion Aachen","type":"Kreis"},"federalState":{"key":"05","name":"Nordrhein-Westfalen"}},{"name":"Lausitzer Str.","postalCode":"52477","locality":"Alsdorf","municipality":{"key":"05334004","name":"Alsdorf, Stadt","type":"Stadt"},"district":{"key":"05334","name":"Städteregion Aachen","type":"Kreis"},"federalState":{"key":"05","name":"Nordrhein-Westfalen"}},{"name":"Lavastr.","postalCode":"54578","locality":"Walsdorf","municipality":{"key":"07233080","name":"Walsdorf","type":"Kreisangehörige_Gemeinde"},"district":{"key":"07233","name":"Vulkaneifel","type":"Landkreis"},"federalState":{"key":"07","name":"Rheinland-Pfalz"}},{"name":"Lavendelweg","postalCode":"52477","locality":"Alsdorf","municipality":{"key":"05334004","name":"Alsdorf, Stadt","type":"Stadt"},"district":{"key":"05334","name":"Städteregion Aachen","type":"Kreis"},"federalState":{"key":"05","name":"Nordrhein-Westfalen"}},{"name":"Leibnitzstr.","postalCode":"52477","locality":"Alsdorf","municipality":{"key":"05334004","name":"Alsdorf, Stadt","type":"Stadt"},"district":{"key":"05334","name":"Städteregion Aachen","type":"Kreis"},"federalState":{"key":"05","name":"Nordrhein-Westfalen"}},{"name":"Leidesheimer Weiden","postalCode":"52477","locality":"Alsdorf","municipality":{"key":"05334004","name":"Alsdorf, Stadt","type":"Stadt"},"district":{"key":"05334","name":"Städteregion Aachen","type":"Kreis"},"federalState":{"key":"05","name":"Nordrhein-Westfalen"}},{"name":"Leipziger Str.","postalCode":"52477","locality":"Alsdorf","municipality":{"key":"05334004","name":"Alsdorf, Stadt","type":"Stadt"},"district":{"key":"05334","name":"Städteregion Aachen","type":"Kreis"},"federalState":{"key":"05","name":"Nordrhein-Westfalen"}},{"name":"Leo-Meurer-Weg","postalCode":"52477","locality":"Alsdorf","municipality":{"key":"05334004","name":"Alsdorf, Stadt","type":"Stadt"},"district":{"key":"05334","name":"Städteregion Aachen","type":"Kreis"},"federalState":{"key":"05","name":"Nordrhein-Westfalen"}},{"name":"Leostr.","postalCode":"52477","locality":"Alsdorf","municipality":{"key":"05334004","name":"Alsdorf, Stadt","type":"Stadt"},"district":{"key":"05334","name":"Städteregion Aachen","type":"Kreis"},"federalState":{"key":"05","name":"Nordrhein-Westfalen"}},{"name":"Lerchenweg","postalCode":"52477","locality":"Alsdorf","municipality":{"key":"05334004","name":"Alsdorf, Stadt","type":"Stadt"},"district":{"key":"05334","name":"Städteregion Aachen","type":"Kreis"},"federalState":{"key":"05","name":"Nordrhein-Westfalen"}},{"name":"Lerchenweg","postalCode":"57518","locality":"Alsdorf","municipality":{"key":"07132002","name":"Alsdorf","type":"Kreisangehörige_Gemeinde"},"district":{"key":"07132","name":"Altenkirchen (Westerwald)","type":"Landkreis"},"federalState":{"key":"07","name":"Rheinland-Pfalz"}},{"name":"Lessingstr.","postalCode":"52477","locality":"Alsdorf","municipality":{"key":"05334004","name":"Alsdorf, Stadt","type":"Stadt"},"district":{"key":"05334","name":"Städteregion Aachen","type":"Kreis"},"federalState":{"key":"05","name":"Nordrhein-Westfalen"}},{"name":"Liebigstr.","postalCode":"52477","locality":"Alsdorf","municipality":{"key":"05334004","name":"Alsdorf, Stadt","type":"Stadt"},"district":{"key":"05334","name":"Städteregion Aachen","type":"Kreis"},"federalState":{"key":"05","name":"Nordrhein-Westfalen"}},{"name":"Liegnitzer Str.","postalCode":"52477","locality":"Alsdorf","municipality":{"key":"05334004","name":"Alsdorf, Stadt","type":"Stadt"},"district":{"key":"05334","name":"Städteregion Aachen","type":"Kreis"},"federalState":{"key":"05","name":"Nordrhein-Westfalen"}},{"name":"Ligusterweg","postalCode":"52477","locality":"Alsdorf","municipality":{"key":"05334004","name":"Alsdorf, Stadt","type":"Stadt"},"district":{"key":"05334","name":"Städteregion Aachen","type":"Kreis"},"federalState":{"key":"05","name":"Nordrhein-Westfalen"}},{"name":"Lilienstr.","postalCode":"52477","locality":"Alsdorf","municipality":{"key":"05334004","name":"Alsdorf, Stadt","type":"Stadt"},"district":{"key":"05334","name":"Städteregion Aachen","type":"Kreis"},"federalState":{"key":"05","name":"Nordrhein-Westfalen"}},{"name":"Lindenplatz","postalCode":"52477","locality":"Alsdorf","municipality":{"key":"05334004","name":"Alsdorf, Stadt","type":"Stadt"},"district":{"key":"05334","name":"Städteregion Aachen","type":"Kreis"},"federalState":{"key":"05","name":"Nordrhein-Westfalen"}},{"name":"Lindenstr.","postalCode":"52477","locality":"Alsdorf","municipality":{"key":"05334004","name":"Alsdorf, Stadt","type":"Stadt"},"district":{"key":"05334","name":"Städteregion Aachen","type":"Kreis"},"federalState":{"key":"05","name":"Nordrhein-Westfalen"}},{"name":"Lindenstr.","postalCode":"57518","locality":"Alsdorf","municipality":{"key":"07132002","name":"Alsdorf","type":"Kreisangehörige_Gemeinde"},"district":{"key":"07132","name":"Altenkirchen (Westerwald)","type":"Landkreis"},"federalState":{"key":"07","name":"Rheinland-Pfalz"}},{"name":"Lindenweg","postalCode":"96194","locality":"Walsdorf","municipality":{"key":"09471208","name":"Walsdorf","type":"Kreisangehörige_Gemeinde"},"district":{"key":"09471","name":"Bamberg","type":"Landkreis"},"federalState":{"key":"09","name":"Bayern"}},{"name":"Linnicher Str.","postalCode":"52477","locality":"Alsdorf","municipality":{"key":"05334004","name":"Alsdorf, Stadt","type":"Stadt"},"district":{"key":"05334","name":"Städteregion Aachen","type":"Kreis"},"federalState":{"key":"05","name":"Nordrhein-Westfalen"}},{"name":"Lobelienweg","postalCode":"52477","locality":"Alsdorf","municipality":{"key":"05334004","name":"Alsdorf, Stadt","type":"Stadt"},"district":{"key":"05334","name":"Städteregion Aachen","type":"Kreis"},"federalState":{"key":"05","name":"Nordrhein-Westfalen"}},{"name":"Lortzingstr.","postalCode":"52477","locality":"Alsdorf","municipality":{"key":"05334004","name":"Alsdorf, Stadt","type":"Stadt"},"district":{"key":"05334","name":"Städteregion Aachen","type":"Kreis"},"federalState":{"key":"05","name":"Nordrhein-Westfalen"}},{"name":"Lotusweg","postalCode":"52477","locality":"Alsdorf","municipality":{"key":"05334004","name":"Alsdorf, Stadt","type":"Stadt"},"district":{"key":"05334","name":"Städteregion Aachen","type":"Kreis"},"federalState":{"key":"05","name":"Nordrhein-Westfalen"}},{"name":"Ludwig-Kessing-Str.","postalCode":"52477","locality":"Alsdorf","municipality":{"key":"05334004","name":"Alsdorf, Stadt","type":"Stadt"},"district":{"key":"05334","name":"Städteregion Aachen","type":"Kreis"},"federalState":{"key":"05","name":"Nordrhein-Westfalen"}},{"name":"Ludwig-Schaffrath-Str.","postalCode":"52477","locality":"Alsdorf","municipality":{"key":"05334004","name":"Alsdorf, Stadt","type":"Stadt"},"district":{"key":"05334","name":"Städteregion Aachen","type":"Kreis"},"federalState":{"key":"05","name":"Nordrhein-Westfalen"}},{"name":"Luisenhof","postalCode":"52477","locality":"Alsdorf","municipality":{"key":"05334004","name":"Alsdorf, Stadt","type":"Stadt"},"district":{"key":"05334","name":"Städteregion Aachen","type":"Kreis"},"federalState":{"key":"05","name":"Nordrhein-Westfalen"}},{"name":"Luisenstr.","postalCode":"52477","locality":"Alsdorf","municipality":{"key":"05334004","name":"Alsdorf, Stadt","type":"Stadt"},"district":{"key":"05334","name":"Städteregion Aachen","type":"Kreis"},"federalState":{"key":"05","name":"Nordrhein-Westfalen"}},{"name":"Lupinenweg","postalCode":"52477","locality":"Alsdorf","municipality":{"key":"05334004","name":"Alsdorf, Stadt","type":"Stadt"},"district":{"key":"05334","name":"Städteregion Aachen","type":"Kreis"},"federalState":{"key":"05","name":"Nordrhein-Westfalen"}},{"name":"Luxgartenstr.","postalCode":"54578","locality":"Walsdorf","municipality":{"key":"07233080","name":"Walsdorf","type":"Kreisangehörige_Gemeinde"},"district":{"key":"07233","name":"Vulkaneifel","type":"Landkreis"},"federalState":{"key":"07","name":"Rheinland-Pfalz"}},{"name":"Maiglöckchenweg","postalCode":"52477","locality":"Alsdorf","municipality":{"key":"05334004","name":"Alsdorf, Stadt","type":"Stadt"},"district":{"key":"05334","name":"Städteregion Aachen","type":"Kreis"},"federalState":{"key":"05","name":"Nordrhein-Westfalen"}},{"name":"Mainleite","postalCode":"96194","locality":"Walsdorf","municipality":{"key":"09471208","name":"Walsdorf","type":"Kreisangehörige_Gemeinde"},"district":{"key":"09471","name":"Bamberg","type":"Landkreis"},"federalState":{"key":"09","name":"Bayern"}},{"name":"Malvenweg","postalCode":"52477","locality":"Alsdorf","municipality":{"key":"05334004","name":"Alsdorf, Stadt","type":"Stadt"},"district":{"key":"05334","name":"Städteregion Aachen","type":"Kreis"},"federalState":{"key":"05","name":"Nordrhein-Westfalen"}},{"name":"Margarethe-Kreitz-Str.","postalCode":"52477","locality":"Alsdorf","municipality":{"key":"05334004","name":"Alsdorf, Stadt","type":"Stadt"},"district":{"key":"05334","name":"Städteregion Aachen","type":"Kreis"},"federalState":{"key":"05","name":"Nordrhein-Westfalen"}},{"name":"Margeritenweg","postalCode":"52477","locality":"Alsdorf","municipality":{"key":"05334004","name":"Alsdorf, Stadt","type":"Stadt"},"district":{"key":"05334","name":"Städteregion Aachen","type":"Kreis"},"federalState":{"key":"05","name":"Nordrhein-Westfalen"}},{"name":"Mariadorfer Str.","postalCode":"52477","locality":"Alsdorf","municipality":{"key":"05334004","name":"Alsdorf, Stadt","type":"Stadt"},"district":{"key":"05334","name":"Städteregion Aachen","type":"Kreis"},"federalState":{"key":"05","name":"Nordrhein-Westfalen"}},{"name":"Marie-Juchacz-Str.","postalCode":"52477","locality":"Alsdorf","municipality":{"key":"05334004","name":"Alsdorf, Stadt","type":"Stadt"},"district":{"key":"05334","name":"Städteregion Aachen","type":"Kreis"},"federalState":{"key":"05","name":"Nordrhein-Westfalen"}},{"name":"Marienburger Str.","postalCode":"52477","locality":"Alsdorf","municipality":{"key":"05334004","name":"Alsdorf, Stadt","type":"Stadt"},"district":{"key":"05334","name":"Städteregion Aachen","type":"Kreis"},"federalState":{"key":"05","name":"Nordrhein-Westfalen"}},{"name":"Marienstr.","postalCode":"52477","locality":"Alsdorf","municipality":{"key":"05334004","name":"Alsdorf, Stadt","type":"Stadt"},"district":{"key":"05334","name":"Städteregion Aachen","type":"Kreis"},"federalState":{"key":"05","name":"Nordrhein-Westfalen"}},{"name":"Marktstr.","postalCode":"52477","locality":"Alsdorf","municipality":{"key":"05334004","name":"Alsdorf, Stadt","type":"Stadt"},"district":{"key":"05334","name":"Städteregion Aachen","type":"Kreis"},"federalState":{"key":"05","name":"Nordrhein-Westfalen"}},{"name":"Martin-Luther-Str.","postalCode":"52477","locality":"Alsdorf","municipality":{"key":"05334004","name":"Alsdorf, Stadt","type":"Stadt"},"district":{"key":"05334","name":"Städteregion Aachen","type":"Kreis"},"federalState":{"key":"05","name":"Nordrhein-Westfalen"}},{"name":"Martinstr.","postalCode":"52477","locality":"Alsdorf","municipality":{"key":"05334004","name":"Alsdorf, Stadt","type":"Stadt"},"district":{"key":"05334","name":"Städteregion Aachen","type":"Kreis"},"federalState":{"key":"05","name":"Nordrhein-Westfalen"}},{"name":"Martin-Struff-Str.","postalCode":"52477","locality":"Alsdorf","municipality":{"key":"05334004","name":"Alsdorf, Stadt","type":"Stadt"},"district":{"key":"05334","name":"Städteregion Aachen","type":"Kreis"},"federalState":{"key":"05","name":"Nordrhein-Westfalen"}},{"name":"Maurerstr.","postalCode":"52477","locality":"Alsdorf","municipality":{"key":"05334004","name":"Alsdorf, Stadt","type":"Stadt"},"district":{"key":"05334","name":"Städteregion Aachen","type":"Kreis"},"federalState":{"key":"05","name":"Nordrhein-Westfalen"}},{"name":"Max-Planck-Str.","postalCode":"52477","locality":"Alsdorf","municipality":{"key":"05334004","name":"Alsdorf, Stadt","type":"Stadt"},"district":{"key":"05334","name":"Städteregion Aachen","type":"Kreis"},"federalState":{"key":"05","name":"Nordrhein-Westfalen"}},{"name":"Max-Reger-Str.","postalCode":"52477","locality":"Alsdorf","municipality":{"key":"05334004","name":"Alsdorf, Stadt","type":"Stadt"},"district":{"key":"05334","name":"Städteregion Aachen","type":"Kreis"},"federalState":{"key":"05","name":"Nordrhein-Westfalen"}},{"name":"Meisenstr.","postalCode":"96194","locality":"Walsdorf","municipality":{"key":"09471208","name":"Walsdorf","type":"Kreisangehörige_Gemeinde"},"district":{"key":"09471","name":"Bamberg","type":"Landkreis"},"federalState":{"key":"09","name":"Bayern"}},{"name":"Meisenweg","postalCode":"52477","locality":"Alsdorf","municipality":{"key":"05334004","name":"Alsdorf, Stadt","type":"Stadt"},"district":{"key":"05334","name":"Städteregion Aachen","type":"Kreis"},"federalState":{"key":"05","name":"Nordrhein-Westfalen"}},{"name":"Michael-Büttgen-Str.","postalCode":"52477","locality":"Alsdorf","municipality":{"key":"05334004","name":"Alsdorf, Stadt","type":"Stadt"},"district":{"key":"05334","name":"Städteregion Aachen","type":"Kreis"},"federalState":{"key":"05","name":"Nordrhein-Westfalen"}},{"name":"Michaelstr.","postalCode":"52477","locality":"Alsdorf","municipality":{"key":"05334004","name":"Alsdorf, Stadt","type":"Stadt"},"district":{"key":"05334","name":"Städteregion Aachen","type":"Kreis"},"federalState":{"key":"05","name":"Nordrhein-Westfalen"}},{"name":"Michelsberger Weg","postalCode":"96194","locality":"Walsdorf","municipality":{"key":"09471208","name":"Walsdorf","type":"Kreisangehörige_Gemeinde"},"district":{"key":"09471","name":"Bamberg","type":"Landkreis"},"federalState":{"key":"09","name":"Bayern"}},{"name":"Mittelplatz","postalCode":"52477","locality":"Alsdorf","municipality":{"key":"05334004","name":"Alsdorf, Stadt","type":"Stadt"},"district":{"key":"05334","name":"Städteregion Aachen","type":"Kreis"},"federalState":{"key":"05","name":"Nordrhein-Westfalen"}},{"name":"Mittelstr.","postalCode":"52477","locality":"Alsdorf","municipality":{"key":"05334004","name":"Alsdorf, Stadt","type":"Stadt"},"district":{"key":"05334","name":"Städteregion Aachen","type":"Kreis"},"federalState":{"key":"05","name":"Nordrhein-Westfalen"}},{"name":"Mittelstr.","postalCode":"57518","locality":"Alsdorf","municipality":{"key":"07132002","name":"Alsdorf","type":"Kreisangehörige_Gemeinde"},"district":{"key":"07132","name":"Altenkirchen (Westerwald)","type":"Landkreis"},"federalState":{"key":"07","name":"Rheinland-Pfalz"}},{"name":"Mittelstr.","postalCode":"96194","locality":"Walsdorf","municipality":{"key":"09471208","name":"Walsdorf","type":"Kreisangehörige_Gemeinde"},"district":{"key":"09471","name":"Bamberg","type":"Landkreis"},"federalState":{"key":"09","name":"Bayern"}},{"name":"Mittelweg","postalCode":"54578","locality":"Walsdorf","municipality":{"key":"07233080","name":"Walsdorf","type":"Kreisangehörige_Gemeinde"},"district":{"key":"07233","name":"Vulkaneifel","type":"Landkreis"},"federalState":{"key":"07","name":"Rheinland-Pfalz"}},{"name":"Moerstorper Str.","postalCode":"52477","locality":"Alsdorf","municipality":{"key":"05334004","name":"Alsdorf, Stadt","type":"Stadt"},"district":{"key":"05334","name":"Städteregion Aachen","type":"Kreis"},"federalState":{"key":"05","name":"Nordrhein-Westfalen"}},{"name":"Montanstr.","postalCode":"52477","locality":"Alsdorf","municipality":{"key":"05334004","name":"Alsdorf, Stadt","type":"Stadt"},"district":{"key":"05334","name":"Städteregion Aachen","type":"Kreis"},"federalState":{"key":"05","name":"Nordrhein-Westfalen"}},{"name":"Moorhof","postalCode":"54646","locality":"Halsdorf","municipality":{"key":"07232045","name":"Halsdorf","type":"Kreisangehörige_Gemeinde"},"district":{"key":"07232","name":"Eifelkreis Bitburg-Prüm","type":"Landkreis"},"federalState":{"key":"07","name":"Rheinland-Pfalz"}},{"name":"Moosweg","postalCode":"54578","locality":"Walsdorf","municipality":{"key":"07233080","name":"Walsdorf","type":"Kreisangehörige_Gemeinde"},"district":{"key":"07233","name":"Vulkaneifel","type":"Landkreis"},"federalState":{"key":"07","name":"Rheinland-Pfalz"}},{"name":"Mörikestr.","postalCode":"52477","locality":"Alsdorf","municipality":{"key":"05334004","name":"Alsdorf, Stadt","type":"Stadt"},"district":{"key":"05334","name":"Städteregion Aachen","type":"Kreis"},"federalState":{"key":"05","name":"Nordrhein-Westfalen"}},{"name":"Moselstr.","postalCode":"52477","locality":"Alsdorf","municipality":{"key":"05334004","name":"Alsdorf, Stadt","type":"Stadt"},"district":{"key":"05334","name":"Städteregion Aachen","type":"Kreis"},"federalState":{"key":"05","name":"Nordrhein-Westfalen"}},{"name":"Mühlengracht","postalCode":"52477","locality":"Alsdorf","municipality":{"key":"05334004","name":"Alsdorf, Stadt","type":"Stadt"},"district":{"key":"05334","name":"Städteregion Aachen","type":"Kreis"},"federalState":{"key":"05","name":"Nordrhein-Westfalen"}},{"name":"Mühlenstr.","postalCode":"54668","locality":"Alsdorf","municipality":{"key":"07232002","name":"Alsdorf","type":"Kreisangehörige_Gemeinde"},"district":{"key":"07232","name":"Eifelkreis Bitburg-Prüm","type":"Landkreis"},"federalState":{"key":"07","name":"Rheinland-Pfalz"}},{"name":"Mühlenweg","postalCode":"52477","locality":"Alsdorf","municipality":{"key":"05334004","name":"Alsdorf, Stadt","type":"Stadt"},"district":{"key":"05334","name":"Städteregion Aachen","type":"Kreis"},"federalState":{"key":"05","name":"Nordrhein-Westfalen"}},{"name":"Mühlenweg","postalCode":"54578","locality":"Walsdorf","municipality":{"key":"07233080","name":"Walsdorf","type":"Kreisangehörige_Gemeinde"},"district":{"key":"07233","name":"Vulkaneifel","type":"Landkreis"},"federalState":{"key":"07","name":"Rheinland-Pfalz"}},{"name":"Mühlweg","postalCode":"96194","locality":"Walsdorf","municipality":{"key":"09471208","name":"Walsdorf","type":"Kreisangehörige_Gemeinde"},"district":{"key":"09471","name":"Bamberg","type":"Landkreis"},"federalState":{"key":"09","name":"Bayern"}},{"name":"Nachtigallenweg","postalCode":"52477","locality":"Alsdorf","municipality":{"key":"05334004","name":"Alsdorf, Stadt","type":"Stadt"},"district":{"key":"05334","name":"Städteregion Aachen","type":"Kreis"},"federalState":{"key":"05","name":"Nordrhein-Westfalen"}},{"name":"Naheweg","postalCode":"52477","locality":"Alsdorf","municipality":{"key":"05334004","name":"Alsdorf, Stadt","type":"Stadt"},"district":{"key":"05334","name":"Städteregion Aachen","type":"Kreis"},"federalState":{"key":"05","name":"Nordrhein-Westfalen"}},{"name":"Narzissenstr.","postalCode":"52477","locality":"Alsdorf","municipality":{"key":"05334004","name":"Alsdorf, Stadt","type":"Stadt"},"district":{"key":"05334","name":"Städteregion Aachen","type":"Kreis"},"federalState":{"key":"05","name":"Nordrhein-Westfalen"}},{"name":"Nelkenstr.","postalCode":"52477","locality":"Alsdorf","municipality":{"key":"05334004","name":"Alsdorf, Stadt","type":"Stadt"},"district":{"key":"05334","name":"Städteregion Aachen","type":"Kreis"},"federalState":{"key":"05","name":"Nordrhein-Westfalen"}},{"name":"Neuer Weg","postalCode":"57518","locality":"Alsdorf","municipality":{"key":"07132002","name":"Alsdorf","type":"Kreisangehörige_Gemeinde"},"district":{"key":"07132","name":"Altenkirchen (Westerwald)","type":"Landkreis"},"federalState":{"key":"07","name":"Rheinland-Pfalz"}},{"name":"Neulütticher Str.","postalCode":"52477","locality":"Alsdorf","municipality":{"key":"05334004","name":"Alsdorf, Stadt","type":"Stadt"},"district":{"key":"05334","name":"Städteregion Aachen","type":"Kreis"},"federalState":{"key":"05","name":"Nordrhein-Westfalen"}},{"name":"Neusener Str.","postalCode":"52477","locality":"Alsdorf","municipality":{"key":"05334004","name":"Alsdorf, Stadt","type":"Stadt"},"district":{"key":"05334","name":"Städteregion Aachen","type":"Kreis"},"federalState":{"key":"05","name":"Nordrhein-Westfalen"}},{"name":"Neustr.","postalCode":"52477","locality":"Alsdorf","municipality":{"key":"05334004","name":"Alsdorf, Stadt","type":"Stadt"},"district":{"key":"05334","name":"Städteregion Aachen","type":"Kreis"},"federalState":{"key":"05","name":"Nordrhein-Westfalen"}},{"name":"Neustr.","postalCode":"54668","locality":"Alsdorf","municipality":{"key":"07232002","name":"Alsdorf","type":"Kreisangehörige_Gemeinde"},"district":{"key":"07232","name":"Eifelkreis Bitburg-Prüm","type":"Landkreis"},"federalState":{"key":"07","name":"Rheinland-Pfalz"}},{"name":"Neuweilerstr.","postalCode":"52477","locality":"Alsdorf","municipality":{"key":"05334004","name":"Alsdorf, Stadt","type":"Stadt"},"district":{"key":"05334","name":"Städteregion Aachen","type":"Kreis"},"federalState":{"key":"05","name":"Nordrhein-Westfalen"}},{"name":"Nievelsteiner Weg","postalCode":"52477","locality":"Alsdorf","municipality":{"key":"05334004","name":"Alsdorf, Stadt","type":"Stadt"},"district":{"key":"05334","name":"Städteregion Aachen","type":"Kreis"},"federalState":{"key":"05","name":"Nordrhein-Westfalen"}},{"name":"Nikolaus-Cüpper-Str.","postalCode":"52477","locality":"Alsdorf","municipality":{"key":"05334004","name":"Alsdorf, Stadt","type":"Stadt"},"district":{"key":"05334","name":"Städteregion Aachen","type":"Kreis"},"federalState":{"key":"05","name":"Nordrhein-Westfalen"}},{"name":"Nordring","postalCode":"52477","locality":"Alsdorf","municipality":{"key":"05334004","name":"Alsdorf, Stadt","type":"Stadt"},"district":{"key":"05334","name":"Städteregion Aachen","type":"Kreis"},"federalState":{"key":"05","name":"Nordrhein-Westfalen"}},{"name":"Nordsternweg","postalCode":"52477","locality":"Alsdorf","municipality":{"key":"05334004","name":"Alsdorf, Stadt","type":"Stadt"},"district":{"key":"05334","name":"Städteregion Aachen","type":"Kreis"},"federalState":{"key":"05","name":"Nordrhein-Westfalen"}},{"name":"Nordstr.","postalCode":"52477","locality":"Alsdorf","municipality":{"key":"05334004","name":"Alsdorf, Stadt","type":"Stadt"},"district":{"key":"05334","name":"Städteregion Aachen","type":"Kreis"},"federalState":{"key":"05","name":"Nordrhein-Westfalen"}},{"name":"Nordstr.","postalCode":"96194","locality":"Walsdorf","municipality":{"key":"09471208","name":"Walsdorf","type":"Kreisangehörige_Gemeinde"},"district":{"key":"09471","name":"Bamberg","type":"Landkreis"},"federalState":{"key":"09","name":"Bayern"}},{"name":"Obereckener Str.","postalCode":"54668","locality":"Alsdorf","municipality":{"key":"07232002","name":"Alsdorf","type":"Kreisangehörige_Gemeinde"},"district":{"key":"07232","name":"Eifelkreis Bitburg-Prüm","type":"Landkreis"},"federalState":{"key":"07","name":"Rheinland-Pfalz"}},{"name":"Oberer Heidweg","postalCode":"52477","locality":"Alsdorf","municipality":{"key":"05334004","name":"Alsdorf, Stadt","type":"Stadt"},"district":{"key":"05334","name":"Städteregion Aachen","type":"Kreis"},"federalState":{"key":"05","name":"Nordrhein-Westfalen"}},{"name":"Ofdener Gracht","postalCode":"52477","locality":"Alsdorf","municipality":{"key":"05334004","name":"Alsdorf, Stadt","type":"Stadt"},"district":{"key":"05334","name":"Städteregion Aachen","type":"Kreis"},"federalState":{"key":"05","name":"Nordrhein-Westfalen"}},{"name":"Ohligsweg","postalCode":"52477","locality":"Alsdorf","municipality":{"key":"05334004","name":"Alsdorf, Stadt","type":"Stadt"},"district":{"key":"05334","name":"Städteregion Aachen","type":"Kreis"},"federalState":{"key":"05","name":"Nordrhein-Westfalen"}},{"name":"Oidtweilerweg","postalCode":"52477","locality":"Alsdorf","municipality":{"key":"05334004","name":"Alsdorf, Stadt","type":"Stadt"},"district":{"key":"05334","name":"Städteregion Aachen","type":"Kreis"},"federalState":{"key":"05","name":"Nordrhein-Westfalen"}},{"name":"Olefstr.","postalCode":"52477","locality":"Alsdorf","municipality":{"key":"05334004","name":"Alsdorf, Stadt","type":"Stadt"},"district":{"key":"05334","name":"Städteregion Aachen","type":"Kreis"},"federalState":{"key":"05","name":"Nordrhein-Westfalen"}},{"name":"Ophovenstr.","postalCode":"52477","locality":"Alsdorf","municipality":{"key":"05334004","name":"Alsdorf, Stadt","type":"Stadt"},"district":{"key":"05334","name":"Städteregion Aachen","type":"Kreis"},"federalState":{"key":"05","name":"Nordrhein-Westfalen"}},{"name":"Oppelner Str.","postalCode":"52477","locality":"Alsdorf","municipality":{"key":"05334004","name":"Alsdorf, Stadt","type":"Stadt"},"district":{"key":"05334","name":"Städteregion Aachen","type":"Kreis"},"federalState":{"key":"05","name":"Nordrhein-Westfalen"}},{"name":"Orchideenweg","postalCode":"52477","locality":"Alsdorf","municipality":{"key":"05334004","name":"Alsdorf, Stadt","type":"Stadt"},"district":{"key":"05334","name":"Städteregion Aachen","type":"Kreis"},"federalState":{"key":"05","name":"Nordrhein-Westfalen"}},{"name":"Osterfeldstr.","postalCode":"52477","locality":"Alsdorf","municipality":{"key":"05334004","name":"Alsdorf, Stadt","type":"Stadt"},"district":{"key":"05334","name":"Städteregion Aachen","type":"Kreis"},"federalState":{"key":"05","name":"Nordrhein-Westfalen"}},{"name":"Ostlandstr.","postalCode":"52477","locality":"Alsdorf","municipality":{"key":"05334004","name":"Alsdorf, Stadt","type":"Stadt"},"district":{"key":"05334","name":"Städteregion Aachen","type":"Kreis"},"federalState":{"key":"05","name":"Nordrhein-Westfalen"}},{"name":"Ostpreußenstr.","postalCode":"52477","locality":"Alsdorf","municipality":{"key":"05334004","name":"Alsdorf, Stadt","type":"Stadt"},"district":{"key":"05334","name":"Städteregion Aachen","type":"Kreis"},"federalState":{"key":"05","name":"Nordrhein-Westfalen"}},{"name":"Ostring","postalCode":"52477","locality":"Alsdorf","municipality":{"key":"05334004","name":"Alsdorf, Stadt","type":"Stadt"},"district":{"key":"05334","name":"Städteregion Aachen","type":"Kreis"},"federalState":{"key":"05","name":"Nordrhein-Westfalen"}},{"name":"Oststr.","postalCode":"52477","locality":"Alsdorf","municipality":{"key":"05334004","name":"Alsdorf, Stadt","type":"Stadt"},"district":{"key":"05334","name":"Städteregion Aachen","type":"Kreis"},"federalState":{"key":"05","name":"Nordrhein-Westfalen"}},{"name":"Othbergstr.","postalCode":"52477","locality":"Alsdorf","municipality":{"key":"05334004","name":"Alsdorf, Stadt","type":"Stadt"},"district":{"key":"05334","name":"Städteregion Aachen","type":"Kreis"},"federalState":{"key":"05","name":"Nordrhein-Westfalen"}},{"name":"Ottenfelder Str.","postalCode":"52477","locality":"Alsdorf","municipality":{"key":"05334004","name":"Alsdorf, Stadt","type":"Stadt"},"district":{"key":"05334","name":"Städteregion Aachen","type":"Kreis"},"federalState":{"key":"05","name":"Nordrhein-Westfalen"}},{"name":"Otto-Brenner-Str.","postalCode":"52477","locality":"Alsdorf","municipality":{"key":"05334004","name":"Alsdorf, Stadt","type":"Stadt"},"district":{"key":"05334","name":"Städteregion Aachen","type":"Kreis"},"federalState":{"key":"05","name":"Nordrhein-Westfalen"}},{"name":"Otto-Hahn-Str.","postalCode":"52477","locality":"Alsdorf","municipality":{"key":"05334004","name":"Alsdorf, Stadt","type":"Stadt"},"district":{"key":"05334","name":"Städteregion Aachen","type":"Kreis"},"federalState":{"key":"05","name":"Nordrhein-Westfalen"}},{"name":"Otto-Wels-Str.","postalCode":"52477","locality":"Alsdorf","municipality":{"key":"05334004","name":"Alsdorf, Stadt","type":"Stadt"},"district":{"key":"05334","name":"Städteregion Aachen","type":"Kreis"},"federalState":{"key":"05","name":"Nordrhein-Westfalen"}},{"name":"Pappelstr.","postalCode":"52477","locality":"Alsdorf","municipality":{"key":"05334004","name":"Alsdorf, Stadt","type":"Stadt"},"district":{"key":"05334","name":"Städteregion Aachen","type":"Kreis"},"federalState":{"key":"05","name":"Nordrhein-Westfalen"}},{"name":"Pappelweg","postalCode":"54578","locality":"Walsdorf","municipality":{"key":"07233080","name":"Walsdorf","type":"Kreisangehörige_Gemeinde"},"district":{"key":"07233","name":"Vulkaneifel","type":"Landkreis"},"federalState":{"key":"07","name":"Rheinland-Pfalz"}},{"name":"Pastor-Josef-Borgmann-Str.","postalCode":"52477","locality":"Alsdorf","municipality":{"key":"05334004","name":"Alsdorf, Stadt","type":"Stadt"},"district":{"key":"05334","name":"Städteregion Aachen","type":"Kreis"},"federalState":{"key":"05","name":"Nordrhein-Westfalen"}},{"name":"Paul-Dorn-Str.","postalCode":"52477","locality":"Alsdorf","municipality":{"key":"05334004","name":"Alsdorf, Stadt","type":"Stadt"},"district":{"key":"05334","name":"Städteregion Aachen","type":"Kreis"},"federalState":{"key":"05","name":"Nordrhein-Westfalen"}},{"name":"Paul-Gerhardt-Str.","postalCode":"52477","locality":"Alsdorf","municipality":{"key":"05334004","name":"Alsdorf, Stadt","type":"Stadt"},"district":{"key":"05334","name":"Städteregion Aachen","type":"Kreis"},"federalState":{"key":"05","name":"Nordrhein-Westfalen"}},{"name":"Paul-Kaußen-Str.","postalCode":"52477","locality":"Alsdorf","municipality":{"key":"05334004","name":"Alsdorf, Stadt","type":"Stadt"},"district":{"key":"05334","name":"Städteregion Aachen","type":"Kreis"},"federalState":{"key":"05","name":"Nordrhein-Westfalen"}},{"name":"Paulstr.","postalCode":"52477","locality":"Alsdorf","municipality":{"key":"05334004","name":"Alsdorf, Stadt","type":"Stadt"},"district":{"key":"05334","name":"Städteregion Aachen","type":"Kreis"},"federalState":{"key":"05","name":"Nordrhein-Westfalen"}},{"name":"Pestalozzistr.","postalCode":"52477","locality":"Alsdorf","municipality":{"key":"05334004","name":"Alsdorf, Stadt","type":"Stadt"},"district":{"key":"05334","name":"Städteregion Aachen","type":"Kreis"},"federalState":{"key":"05","name":"Nordrhein-Westfalen"}},{"name":"Peterstr.","postalCode":"52477","locality":"Alsdorf","municipality":{"key":"05334004","name":"Alsdorf, Stadt","type":"Stadt"},"district":{"key":"05334","name":"Städteregion Aachen","type":"Kreis"},"federalState":{"key":"05","name":"Nordrhein-Westfalen"}},{"name":"Pfarrgasse","postalCode":"96194","locality":"Walsdorf","municipality":{"key":"09471208","name":"Walsdorf","type":"Kreisangehörige_Gemeinde"},"district":{"key":"09471","name":"Bamberg","type":"Landkreis"},"federalState":{"key":"09","name":"Bayern"}},{"name":"Pirolweg","postalCode":"52477","locality":"Alsdorf","municipality":{"key":"05334004","name":"Alsdorf, Stadt","type":"Stadt"},"district":{"key":"05334","name":"Städteregion Aachen","type":"Kreis"},"federalState":{"key":"05","name":"Nordrhein-Westfalen"}},{"name":"Platanenstr.","postalCode":"52477","locality":"Alsdorf","municipality":{"key":"05334004","name":"Alsdorf, Stadt","type":"Stadt"},"district":{"key":"05334","name":"Städteregion Aachen","type":"Kreis"},"federalState":{"key":"05","name":"Nordrhein-Westfalen"}},{"name":"Pommernstr.","postalCode":"52477","locality":"Alsdorf","municipality":{"key":"05334004","name":"Alsdorf, Stadt","type":"Stadt"},"district":{"key":"05334","name":"Städteregion Aachen","type":"Kreis"},"federalState":{"key":"05","name":"Nordrhein-Westfalen"}},{"name":"Posener Str.","postalCode":"52477","locality":"Alsdorf","municipality":{"key":"05334004","name":"Alsdorf, Stadt","type":"Stadt"},"district":{"key":"05334","name":"Städteregion Aachen","type":"Kreis"},"federalState":{"key":"05","name":"Nordrhein-Westfalen"}},{"name":"Poststr.","postalCode":"52477","locality":"Alsdorf","municipality":{"key":"05334004","name":"Alsdorf, Stadt","type":"Stadt"},"district":{"key":"05334","name":"Städteregion Aachen","type":"Kreis"},"federalState":{"key":"05","name":"Nordrhein-Westfalen"}},{"name":"Potsdamer Str.","postalCode":"52477","locality":"Alsdorf","municipality":{"key":"05334004","name":"Alsdorf, Stadt","type":"Stadt"},"district":{"key":"05334","name":"Städteregion Aachen","type":"Kreis"},"federalState":{"key":"05","name":"Nordrhein-Westfalen"}},{"name":"Pottgießers Pfad","postalCode":"52477","locality":"Alsdorf","municipality":{"key":"05334004","name":"Alsdorf, Stadt","type":"Stadt"},"district":{"key":"05334","name":"Städteregion Aachen","type":"Kreis"},"federalState":{"key":"05","name":"Nordrhein-Westfalen"}},{"name":"Prämienstr.","postalCode":"52477","locality":"Alsdorf","municipality":{"key":"05334004","name":"Alsdorf, Stadt","type":"Stadt"},"district":{"key":"05334","name":"Städteregion Aachen","type":"Kreis"},"federalState":{"key":"05","name":"Nordrhein-Westfalen"}},{"name":"Primelweg","postalCode":"52477","locality":"Alsdorf","municipality":{"key":"05334004","name":"Alsdorf, Stadt","type":"Stadt"},"district":{"key":"05334","name":"Städteregion Aachen","type":"Kreis"},"federalState":{"key":"05","name":"Nordrhein-Westfalen"}},{"name":"Purzelgraben","postalCode":"96194","locality":"Walsdorf","municipality":{"key":"09471208","name":"Walsdorf","type":"Kreisangehörige_Gemeinde"},"district":{"key":"09471","name":"Bamberg","type":"Landkreis"},"federalState":{"key":"09","name":"Bayern"}},{"name":"Pützbruchstr.","postalCode":"52477","locality":"Alsdorf","municipality":{"key":"05334004","name":"Alsdorf, Stadt","type":"Stadt"},"district":{"key":"05334","name":"Städteregion Aachen","type":"Kreis"},"federalState":{"key":"05","name":"Nordrhein-Westfalen"}},{"name":"Pützdrieschstr.","postalCode":"52477","locality":"Alsdorf","municipality":{"key":"05334004","name":"Alsdorf, Stadt","type":"Stadt"},"district":{"key":"05334","name":"Städteregion Aachen","type":"Kreis"},"federalState":{"key":"05","name":"Nordrhein-Westfalen"}},{"name":"Pützweg","postalCode":"52477","locality":"Alsdorf","municipality":{"key":"05334004","name":"Alsdorf, Stadt","type":"Stadt"},"district":{"key":"05334","name":"Städteregion Aachen","type":"Kreis"},"federalState":{"key":"05","name":"Nordrhein-Westfalen"}},{"name":"Quellenstr.","postalCode":"52477","locality":"Alsdorf","municipality":{"key":"05334004","name":"Alsdorf, Stadt","type":"Stadt"},"district":{"key":"05334","name":"Städteregion Aachen","type":"Kreis"},"federalState":{"key":"05","name":"Nordrhein-Westfalen"}},{"name":"Quellgasse","postalCode":"54578","locality":"Walsdorf","municipality":{"key":"07233080","name":"Walsdorf","type":"Kreisangehörige_Gemeinde"},"district":{"key":"07233","name":"Vulkaneifel","type":"Landkreis"},"federalState":{"key":"07","name":"Rheinland-Pfalz"}},{"name":"Querstr.","postalCode":"52477","locality":"Alsdorf","municipality":{"key":"05334004","name":"Alsdorf, Stadt","type":"Stadt"},"district":{"key":"05334","name":"Städteregion Aachen","type":"Kreis"},"federalState":{"key":"05","name":"Nordrhein-Westfalen"}},{"name":"Rabenweg","postalCode":"52477","locality":"Alsdorf","municipality":{"key":"05334004","name":"Alsdorf, Stadt","type":"Stadt"},"district":{"key":"05334","name":"Städteregion Aachen","type":"Kreis"},"federalState":{"key":"05","name":"Nordrhein-Westfalen"}},{"name":"Raderstr.","postalCode":"52477","locality":"Alsdorf","municipality":{"key":"05334004","name":"Alsdorf, Stadt","type":"Stadt"},"district":{"key":"05334","name":"Städteregion Aachen","type":"Kreis"},"federalState":{"key":"05","name":"Nordrhein-Westfalen"}},{"name":"Radsberg","postalCode":"52477","locality":"Alsdorf","municipality":{"key":"05334004","name":"Alsdorf, Stadt","type":"Stadt"},"district":{"key":"05334","name":"Städteregion Aachen","type":"Kreis"},"federalState":{"key":"05","name":"Nordrhein-Westfalen"}},{"name":"Randstr.","postalCode":"52477","locality":"Alsdorf","municipality":{"key":"05334004","name":"Alsdorf, Stadt","type":"Stadt"},"district":{"key":"05334","name":"Städteregion Aachen","type":"Kreis"},"federalState":{"key":"05","name":"Nordrhein-Westfalen"}},{"name":"Rathausstr.","postalCode":"52477","locality":"Alsdorf","municipality":{"key":"05334004","name":"Alsdorf, Stadt","type":"Stadt"},"district":{"key":"05334","name":"Städteregion Aachen","type":"Kreis"},"federalState":{"key":"05","name":"Nordrhein-Westfalen"}},{"name":"Rathenaustr.","postalCode":"52477","locality":"Alsdorf","municipality":{"key":"05334004","name":"Alsdorf, Stadt","type":"Stadt"},"district":{"key":"05334","name":"Städteregion Aachen","type":"Kreis"},"federalState":{"key":"05","name":"Nordrhein-Westfalen"}},{"name":"Rebenstr.","postalCode":"52477","locality":"Alsdorf","municipality":{"key":"05334004","name":"Alsdorf, Stadt","type":"Stadt"},"district":{"key":"05334","name":"Städteregion Aachen","type":"Kreis"},"federalState":{"key":"05","name":"Nordrhein-Westfalen"}},{"name":"Reifeld","postalCode":"52477","locality":"Alsdorf","municipality":{"key":"05334004","name":"Alsdorf, Stadt","type":"Stadt"},"district":{"key":"05334","name":"Städteregion Aachen","type":"Kreis"},"federalState":{"key":"05","name":"Nordrhein-Westfalen"}},{"name":"Rembrandtstr.","postalCode":"52477","locality":"Alsdorf","municipality":{"key":"05334004","name":"Alsdorf, Stadt","type":"Stadt"},"district":{"key":"05334","name":"Städteregion Aachen","type":"Kreis"},"federalState":{"key":"05","name":"Nordrhein-Westfalen"}},{"name":"Resedaweg","postalCode":"52477","locality":"Alsdorf","municipality":{"key":"05334004","name":"Alsdorf, Stadt","type":"Stadt"},"district":{"key":"05334","name":"Städteregion Aachen","type":"Kreis"},"federalState":{"key":"05","name":"Nordrhein-Westfalen"}},{"name":"Resi-Quint-Str.","postalCode":"52477","locality":"Alsdorf","municipality":{"key":"05334004","name":"Alsdorf, Stadt","type":"Stadt"},"district":{"key":"05334","name":"Städteregion Aachen","type":"Kreis"},"federalState":{"key":"05","name":"Nordrhein-Westfalen"}},{"name":"Rethelstr.","postalCode":"52477","locality":"Alsdorf","municipality":{"key":"05334004","name":"Alsdorf, Stadt","type":"Stadt"},"district":{"key":"05334","name":"Städteregion Aachen","type":"Kreis"},"federalState":{"key":"05","name":"Nordrhein-Westfalen"}},{"name":"Rhönweg","postalCode":"52477","locality":"Alsdorf","municipality":{"key":"05334004","name":"Alsdorf, Stadt","type":"Stadt"},"district":{"key":"05334","name":"Städteregion Aachen","type":"Kreis"},"federalState":{"key":"05","name":"Nordrhein-Westfalen"}},{"name":"Riedleite","postalCode":"96194","locality":"Walsdorf","municipality":{"key":"09471208","name":"Walsdorf","type":"Kreisangehörige_Gemeinde"},"district":{"key":"09471","name":"Bamberg","type":"Landkreis"},"federalState":{"key":"09","name":"Bayern"}},{"name":"Rilkestr.","postalCode":"52477","locality":"Alsdorf","municipality":{"key":"05334004","name":"Alsdorf, Stadt","type":"Stadt"},"district":{"key":"05334","name":"Städteregion Aachen","type":"Kreis"},"federalState":{"key":"05","name":"Nordrhein-Westfalen"}},{"name":"Ringstr.","postalCode":"52477","locality":"Alsdorf","municipality":{"key":"05334004","name":"Alsdorf, Stadt","type":"Stadt"},"district":{"key":"05334","name":"Städteregion Aachen","type":"Kreis"},"federalState":{"key":"05","name":"Nordrhein-Westfalen"}},{"name":"Ringstr.","postalCode":"54578","locality":"Walsdorf","municipality":{"key":"07233080","name":"Walsdorf","type":"Kreisangehörige_Gemeinde"},"district":{"key":"07233","name":"Vulkaneifel","type":"Landkreis"},"federalState":{"key":"07","name":"Rheinland-Pfalz"}},{"name":"Ringweg","postalCode":"96194","locality":"Walsdorf","municipality":{"key":"09471208","name":"Walsdorf","type":"Kreisangehörige_Gemeinde"},"district":{"key":"09471","name":"Bamberg","type":"Landkreis"},"federalState":{"key":"09","name":"Bayern"}},{"name":"Ritterspornweg","postalCode":"52477","locality":"Alsdorf","municipality":{"key":"05334004","name":"Alsdorf, Stadt","type":"Stadt"},"district":{"key":"05334","name":"Städteregion Aachen","type":"Kreis"},"federalState":{"key":"05","name":"Nordrhein-Westfalen"}},{"name":"Robert-Koch-Str.","postalCode":"52477","locality":"Alsdorf","municipality":{"key":"05334004","name":"Alsdorf, Stadt","type":"Stadt"},"district":{"key":"05334","name":"Städteregion Aachen","type":"Kreis"},"federalState":{"key":"05","name":"Nordrhein-Westfalen"}},{"name":"Rolandstr.","postalCode":"52477","locality":"Alsdorf","municipality":{"key":"05334004","name":"Alsdorf, Stadt","type":"Stadt"},"district":{"key":"05334","name":"Städteregion Aachen","type":"Kreis"},"federalState":{"key":"05","name":"Nordrhein-Westfalen"}},{"name":"Römerstr.","postalCode":"52477","locality":"Alsdorf","municipality":{"key":"05334004","name":"Alsdorf, Stadt","type":"Stadt"},"district":{"key":"05334","name":"Städteregion Aachen","type":"Kreis"},"federalState":{"key":"05","name":"Nordrhein-Westfalen"}},{"name":"Römerstr.","postalCode":"54578","locality":"Walsdorf","municipality":{"key":"07233080","name":"Walsdorf","type":"Kreisangehörige_Gemeinde"},"district":{"key":"07233","name":"Vulkaneifel","type":"Landkreis"},"federalState":{"key":"07","name":"Rheinland-Pfalz"}},{"name":"Röntgenweg","postalCode":"52477","locality":"Alsdorf","municipality":{"key":"05334004","name":"Alsdorf, Stadt","type":"Stadt"},"district":{"key":"05334","name":"Städteregion Aachen","type":"Kreis"},"federalState":{"key":"05","name":"Nordrhein-Westfalen"}},{"name":"Roseggerstr.","postalCode":"52477","locality":"Alsdorf","municipality":{"key":"05334004","name":"Alsdorf, Stadt","type":"Stadt"},"district":{"key":"05334","name":"Städteregion Aachen","type":"Kreis"},"federalState":{"key":"05","name":"Nordrhein-Westfalen"}},{"name":"Rosenstr.","postalCode":"52477","locality":"Alsdorf","municipality":{"key":"05334004","name":"Alsdorf, Stadt","type":"Stadt"},"district":{"key":"05334","name":"Städteregion Aachen","type":"Kreis"},"federalState":{"key":"05","name":"Nordrhein-Westfalen"}},{"name":"Rosenstr.","postalCode":"54578","locality":"Walsdorf","municipality":{"key":"07233080","name":"Walsdorf","type":"Kreisangehörige_Gemeinde"},"district":{"key":"07233","name":"Vulkaneifel","type":"Landkreis"},"federalState":{"key":"07","name":"Rheinland-Pfalz"}},{"name":"Rosenweg","postalCode":"96194","locality":"Walsdorf","municipality":{"key":"09471208","name":"Walsdorf","type":"Kreisangehörige_Gemeinde"},"district":{"key":"09471","name":"Bamberg","type":"Landkreis"},"federalState":{"key":"09","name":"Bayern"}},{"name":"Rostocker Str.","postalCode":"52477","locality":"Alsdorf","municipality":{"key":"05334004","name":"Alsdorf, Stadt","type":"Stadt"},"district":{"key":"05334","name":"Städteregion Aachen","type":"Kreis"},"federalState":{"key":"05","name":"Nordrhein-Westfalen"}},{"name":"Rotdornweg","postalCode":"52477","locality":"Alsdorf","municipality":{"key":"05334004","name":"Alsdorf, Stadt","type":"Stadt"},"district":{"key":"05334","name":"Städteregion Aachen","type":"Kreis"},"federalState":{"key":"05","name":"Nordrhein-Westfalen"}},{"name":"Röthenweg","postalCode":"96194","locality":"Walsdorf","municipality":{"key":"09471208","name":"Walsdorf","type":"Kreisangehörige_Gemeinde"},"district":{"key":"09471","name":"Bamberg","type":"Landkreis"},"federalState":{"key":"09","name":"Bayern"}},{"name":"Rotkehlchenweg","postalCode":"52477","locality":"Alsdorf","municipality":{"key":"05334004","name":"Alsdorf, Stadt","type":"Stadt"},"district":{"key":"05334","name":"Städteregion Aachen","type":"Kreis"},"federalState":{"key":"05","name":"Nordrhein-Westfalen"}},{"name":"Rudolfstr.","postalCode":"52477","locality":"Alsdorf","municipality":{"key":"05334004","name":"Alsdorf, Stadt","type":"Stadt"},"district":{"key":"05334","name":"Städteregion Aachen","type":"Kreis"},"federalState":{"key":"05","name":"Nordrhein-Westfalen"}},{"name":"Rue de Wattrelos","postalCode":"52477","locality":"Alsdorf","municipality":{"key":"05334004","name":"Alsdorf, Stadt","type":"Stadt"},"district":{"key":"05334","name":"Städteregion Aachen","type":"Kreis"},"federalState":{"key":"05","name":"Nordrhein-Westfalen"}},{"name":"Saarstr.","postalCode":"52477","locality":"Alsdorf","municipality":{"key":"05334004","name":"Alsdorf, Stadt","type":"Stadt"},"district":{"key":"05334","name":"Städteregion Aachen","type":"Kreis"},"federalState":{"key":"05","name":"Nordrhein-Westfalen"}},{"name":"Safranweg","postalCode":"52477","locality":"Alsdorf","municipality":{"key":"05334004","name":"Alsdorf, Stadt","type":"Stadt"},"district":{"key":"05334","name":"Städteregion Aachen","type":"Kreis"},"federalState":{"key":"05","name":"Nordrhein-Westfalen"}},{"name":"Saint-Brieuc-Platz","postalCode":"52477","locality":"Alsdorf","municipality":{"key":"05334004","name":"Alsdorf, Stadt","type":"Stadt"},"district":{"key":"05334","name":"Städteregion Aachen","type":"Kreis"},"federalState":{"key":"05","name":"Nordrhein-Westfalen"}},{"name":"Salbeiweg","postalCode":"52477","locality":"Alsdorf","municipality":{"key":"05334004","name":"Alsdorf, Stadt","type":"Stadt"},"district":{"key":"05334","name":"Städteregion Aachen","type":"Kreis"},"federalState":{"key":"05","name":"Nordrhein-Westfalen"}},{"name":"Sandberg","postalCode":"96194","locality":"Walsdorf","municipality":{"key":"09471208","name":"Walsdorf","type":"Kreisangehörige_Gemeinde"},"district":{"key":"09471","name":"Bamberg","type":"Landkreis"},"federalState":{"key":"09","name":"Bayern"}},{"name":"Sandstr.","postalCode":"96194","locality":"Walsdorf","municipality":{"key":"09471208","name":"Walsdorf","type":"Kreisangehörige_Gemeinde"},"district":{"key":"09471","name":"Bamberg","type":"Landkreis"},"federalState":{"key":"09","name":"Bayern"}},{"name":"Sankt-Jöris-Str.","postalCode":"52477","locality":"Alsdorf","municipality":{"key":"05334004","name":"Alsdorf, Stadt","type":"Stadt"},"district":{"key":"05334","name":"Städteregion Aachen","type":"Kreis"},"federalState":{"key":"05","name":"Nordrhein-Westfalen"}},{"name":"Sassenbergstr.","postalCode":"52477","locality":"Alsdorf","municipality":{"key":"05334004","name":"Alsdorf, Stadt","type":"Stadt"},"district":{"key":"05334","name":"Städteregion Aachen","type":"Kreis"},"federalState":{"key":"05","name":"Nordrhein-Westfalen"}},{"name":"Schachtstr.","postalCode":"52477","locality":"Alsdorf","municipality":{"key":"05334004","name":"Alsdorf, Stadt","type":"Stadt"},"district":{"key":"05334","name":"Städteregion Aachen","type":"Kreis"},"federalState":{"key":"05","name":"Nordrhein-Westfalen"}},{"name":"Schaufenberger Str.","postalCode":"52477","locality":"Alsdorf","municipality":{"key":"05334004","name":"Alsdorf, Stadt","type":"Stadt"},"district":{"key":"05334","name":"Städteregion Aachen","type":"Kreis"},"federalState":{"key":"05","name":"Nordrhein-Westfalen"}},{"name":"Scheidemannstr.","postalCode":"52477","locality":"Alsdorf","municipality":{"key":"05334004","name":"Alsdorf, Stadt","type":"Stadt"},"district":{"key":"05334","name":"Städteregion Aachen","type":"Kreis"},"federalState":{"key":"05","name":"Nordrhein-Westfalen"}},{"name":"Scheidfuhr","postalCode":"52477","locality":"Alsdorf","municipality":{"key":"05334004","name":"Alsdorf, Stadt","type":"Stadt"},"district":{"key":"05334","name":"Städteregion Aachen","type":"Kreis"},"federalState":{"key":"05","name":"Nordrhein-Westfalen"}},{"name":"Schillerstr.","postalCode":"52477","locality":"Alsdorf","municipality":{"key":"05334004","name":"Alsdorf, Stadt","type":"Stadt"},"district":{"key":"05334","name":"Städteregion Aachen","type":"Kreis"},"federalState":{"key":"05","name":"Nordrhein-Westfalen"}},{"name":"Schindholzweg","postalCode":"96194","locality":"Walsdorf","municipality":{"key":"09471208","name":"Walsdorf","type":"Kreisangehörige_Gemeinde"},"district":{"key":"09471","name":"Bamberg","type":"Landkreis"},"federalState":{"key":"09","name":"Bayern"}},{"name":"Schleibacher Weg","postalCode":"52477","locality":"Alsdorf","municipality":{"key":"05334004","name":"Alsdorf, Stadt","type":"Stadt"},"district":{"key":"05334","name":"Städteregion Aachen","type":"Kreis"},"federalState":{"key":"05","name":"Nordrhein-Westfalen"}},{"name":"Schleidener Str.","postalCode":"52477","locality":"Alsdorf","municipality":{"key":"05334004","name":"Alsdorf, Stadt","type":"Stadt"},"district":{"key":"05334","name":"Städteregion Aachen","type":"Kreis"},"federalState":{"key":"05","name":"Nordrhein-Westfalen"}},{"name":"Schlesische Str.","postalCode":"52477","locality":"Alsdorf","municipality":{"key":"05334004","name":"Alsdorf, Stadt","type":"Stadt"},"district":{"key":"05334","name":"Städteregion Aachen","type":"Kreis"},"federalState":{"key":"05","name":"Nordrhein-Westfalen"}},{"name":"Schlosserstr.","postalCode":"52477","locality":"Alsdorf","municipality":{"key":"05334004","name":"Alsdorf, Stadt","type":"Stadt"},"district":{"key":"05334","name":"Städteregion Aachen","type":"Kreis"},"federalState":{"key":"05","name":"Nordrhein-Westfalen"}},{"name":"Schloßstr.","postalCode":"52477","locality":"Alsdorf","municipality":{"key":"05334004","name":"Alsdorf, Stadt","type":"Stadt"},"district":{"key":"05334","name":"Städteregion Aachen","type":"Kreis"},"federalState":{"key":"05","name":"Nordrhein-Westfalen"}},{"name":"Schmiedstr.","postalCode":"52477","locality":"Alsdorf","municipality":{"key":"05334004","name":"Alsdorf, Stadt","type":"Stadt"},"district":{"key":"05334","name":"Städteregion Aachen","type":"Kreis"},"federalState":{"key":"05","name":"Nordrhein-Westfalen"}},{"name":"Schneeglöckchenweg","postalCode":"52477","locality":"Alsdorf","municipality":{"key":"05334004","name":"Alsdorf, Stadt","type":"Stadt"},"district":{"key":"05334","name":"Städteregion Aachen","type":"Kreis"},"federalState":{"key":"05","name":"Nordrhein-Westfalen"}},{"name":"Schopenhauerstr.","postalCode":"52477","locality":"Alsdorf","municipality":{"key":"05334004","name":"Alsdorf, Stadt","type":"Stadt"},"district":{"key":"05334","name":"Städteregion Aachen","type":"Kreis"},"federalState":{"key":"05","name":"Nordrhein-Westfalen"}},{"name":"Schubertstr.","postalCode":"52477","locality":"Alsdorf","municipality":{"key":"05334004","name":"Alsdorf, Stadt","type":"Stadt"},"district":{"key":"05334","name":"Städteregion Aachen","type":"Kreis"},"federalState":{"key":"05","name":"Nordrhein-Westfalen"}},{"name":"Schulgasse","postalCode":"54578","locality":"Walsdorf","municipality":{"key":"07233080","name":"Walsdorf","type":"Kreisangehörige_Gemeinde"},"district":{"key":"07233","name":"Vulkaneifel","type":"Landkreis"},"federalState":{"key":"07","name":"Rheinland-Pfalz"}},{"name":"Schulstr.","postalCode":"52477","locality":"Alsdorf","municipality":{"key":"05334004","name":"Alsdorf, Stadt","type":"Stadt"},"district":{"key":"05334","name":"Städteregion Aachen","type":"Kreis"},"federalState":{"key":"05","name":"Nordrhein-Westfalen"}},{"name":"Schulstr.","postalCode":"54646","locality":"Halsdorf","municipality":{"key":"07232045","name":"Halsdorf","type":"Kreisangehörige_Gemeinde"},"district":{"key":"07232","name":"Eifelkreis Bitburg-Prüm","type":"Landkreis"},"federalState":{"key":"07","name":"Rheinland-Pfalz"}},{"name":"Schulstr.","postalCode":"54668","locality":"Alsdorf","municipality":{"key":"07232002","name":"Alsdorf","type":"Kreisangehörige_Gemeinde"},"district":{"key":"07232","name":"Eifelkreis Bitburg-Prüm","type":"Landkreis"},"federalState":{"key":"07","name":"Rheinland-Pfalz"}},{"name":"Schulstr.","postalCode":"96194","locality":"Walsdorf","municipality":{"key":"09471208","name":"Walsdorf","type":"Kreisangehörige_Gemeinde"},"district":{"key":"09471","name":"Bamberg","type":"Landkreis"},"federalState":{"key":"09","name":"Bayern"}},{"name":"Schutzbacher Weg","postalCode":"57518","locality":"Alsdorf","municipality":{"key":"07132002","name":"Alsdorf","type":"Kreisangehörige_Gemeinde"},"district":{"key":"07132","name":"Altenkirchen (Westerwald)","type":"Landkreis"},"federalState":{"key":"07","name":"Rheinland-Pfalz"}},{"name":"Schützenstr.","postalCode":"52477","locality":"Alsdorf","municipality":{"key":"05334004","name":"Alsdorf, Stadt","type":"Stadt"},"district":{"key":"05334","name":"Städteregion Aachen","type":"Kreis"},"federalState":{"key":"05","name":"Nordrhein-Westfalen"}},{"name":"Schützenstr.","postalCode":"57518","locality":"Alsdorf","municipality":{"key":"07132002","name":"Alsdorf","type":"Kreisangehörige_Gemeinde"},"district":{"key":"07132","name":"Altenkirchen (Westerwald)","type":"Landkreis"},"federalState":{"key":"07","name":"Rheinland-Pfalz"}},{"name":"Schwalbenweg","postalCode":"52477","locality":"Alsdorf","municipality":{"key":"05334004","name":"Alsdorf, Stadt","type":"Stadt"},"district":{"key":"05334","name":"Städteregion Aachen","type":"Kreis"},"federalState":{"key":"05","name":"Nordrhein-Westfalen"}},{"name":"Schweriner Str.","postalCode":"52477","locality":"Alsdorf","municipality":{"key":"05334004","name":"Alsdorf, Stadt","type":"Stadt"},"district":{"key":"05334","name":"Städteregion Aachen","type":"Kreis"},"federalState":{"key":"05","name":"Nordrhein-Westfalen"}},{"name":"Seerosenweg","postalCode":"52477","locality":"Alsdorf","municipality":{"key":"05334004","name":"Alsdorf, Stadt","type":"Stadt"},"district":{"key":"05334","name":"Städteregion Aachen","type":"Kreis"},"federalState":{"key":"05","name":"Nordrhein-Westfalen"}},{"name":"Seidelbastweg","postalCode":"52477","locality":"Alsdorf","municipality":{"key":"05334004","name":"Alsdorf, Stadt","type":"Stadt"},"district":{"key":"05334","name":"Städteregion Aachen","type":"Kreis"},"federalState":{"key":"05","name":"Nordrhein-Westfalen"}},{"name":"Siedlerweg","postalCode":"52477","locality":"Alsdorf","municipality":{"key":"05334004","name":"Alsdorf, Stadt","type":"Stadt"},"district":{"key":"05334","name":"Städteregion Aachen","type":"Kreis"},"federalState":{"key":"05","name":"Nordrhein-Westfalen"}},{"name":"Siersdorfer Str.","postalCode":"52477","locality":"Alsdorf","municipality":{"key":"05334004","name":"Alsdorf, Stadt","type":"Stadt"},"district":{"key":"05334","name":"Städteregion Aachen","type":"Kreis"},"federalState":{"key":"05","name":"Nordrhein-Westfalen"}},{"name":"Sonnenblumenweg","postalCode":"52477","locality":"Alsdorf","municipality":{"key":"05334004","name":"Alsdorf, Stadt","type":"Stadt"},"district":{"key":"05334","name":"Städteregion Aachen","type":"Kreis"},"federalState":{"key":"05","name":"Nordrhein-Westfalen"}},{"name":"Sonnengässchen","postalCode":"52477","locality":"Alsdorf","municipality":{"key":"05334004","name":"Alsdorf, Stadt","type":"Stadt"},"district":{"key":"05334","name":"Städteregion Aachen","type":"Kreis"},"federalState":{"key":"05","name":"Nordrhein-Westfalen"}},{"name":"Sonnenleite","postalCode":"96194","locality":"Walsdorf","municipality":{"key":"09471208","name":"Walsdorf","type":"Kreisangehörige_Gemeinde"},"district":{"key":"09471","name":"Bamberg","type":"Landkreis"},"federalState":{"key":"09","name":"Bayern"}},{"name":"Sophie-Scholl-Str.","postalCode":"52477","locality":"Alsdorf","municipality":{"key":"05334004","name":"Alsdorf, Stadt","type":"Stadt"},"district":{"key":"05334","name":"Städteregion Aachen","type":"Kreis"},"federalState":{"key":"05","name":"Nordrhein-Westfalen"}},{"name":"Sperberstr.","postalCode":"52477","locality":"Alsdorf","municipality":{"key":"05334004","name":"Alsdorf, Stadt","type":"Stadt"},"district":{"key":"05334","name":"Städteregion Aachen","type":"Kreis"},"federalState":{"key":"05","name":"Nordrhein-Westfalen"}},{"name":"Sperlingsweg","postalCode":"52477","locality":"Alsdorf","municipality":{"key":"05334004","name":"Alsdorf, Stadt","type":"Stadt"},"district":{"key":"05334","name":"Städteregion Aachen","type":"Kreis"},"federalState":{"key":"05","name":"Nordrhein-Westfalen"}},{"name":"Spessartstr.","postalCode":"52477","locality":"Alsdorf","municipality":{"key":"05334004","name":"Alsdorf, Stadt","type":"Stadt"},"district":{"key":"05334","name":"Städteregion Aachen","type":"Kreis"},"federalState":{"key":"05","name":"Nordrhein-Westfalen"}},{"name":"Starenweg","postalCode":"52477","locality":"Alsdorf","municipality":{"key":"05334004","name":"Alsdorf, Stadt","type":"Stadt"},"district":{"key":"05334","name":"Städteregion Aachen","type":"Kreis"},"federalState":{"key":"05","name":"Nordrhein-Westfalen"}},{"name":"Steigerwaldstr.","postalCode":"96194","locality":"Walsdorf","municipality":{"key":"09471208","name":"Walsdorf","type":"Kreisangehörige_Gemeinde"},"district":{"key":"09471","name":"Bamberg","type":"Landkreis"},"federalState":{"key":"09","name":"Bayern"}},{"name":"Steinleite","postalCode":"96194","locality":"Walsdorf","municipality":{"key":"09471208","name":"Walsdorf","type":"Kreisangehörige_Gemeinde"},"district":{"key":"09471","name":"Bamberg","type":"Landkreis"},"federalState":{"key":"09","name":"Bayern"}},{"name":"Steinsdorfer Str.","postalCode":"96194","locality":"Walsdorf","municipality":{"key":"09471208","name":"Walsdorf","type":"Kreisangehörige_Gemeinde"},"district":{"key":"09471","name":"Bamberg","type":"Landkreis"},"federalState":{"key":"09","name":"Bayern"}},{"name":"Stettiner Str.","postalCode":"52477","locality":"Alsdorf","municipality":{"key":"05334004","name":"Alsdorf, Stadt","type":"Stadt"},"district":{"key":"05334","name":"Städteregion Aachen","type":"Kreis"},"federalState":{"key":"05","name":"Nordrhein-Westfalen"}},{"name":"Straßburger Str.","postalCode":"52477","locality":"Alsdorf","municipality":{"key":"05334004","name":"Alsdorf, Stadt","type":"Stadt"},"district":{"key":"05334","name":"Städteregion Aachen","type":"Kreis"},"federalState":{"key":"05","name":"Nordrhein-Westfalen"}},{"name":"Talblick","postalCode":"96194","locality":"Walsdorf","municipality":{"key":"09471208","name":"Walsdorf","type":"Kreisangehörige_Gemeinde"},"district":{"key":"09471","name":"Bamberg","type":"Landkreis"},"federalState":{"key":"09","name":"Bayern"}},{"name":"Talstr.","postalCode":"52477","locality":"Alsdorf","municipality":{"key":"05334004","name":"Alsdorf, Stadt","type":"Stadt"},"district":{"key":"05334","name":"Städteregion Aachen","type":"Kreis"},"federalState":{"key":"05","name":"Nordrhein-Westfalen"}},{"name":"Talstr.","postalCode":"54578","locality":"Walsdorf","municipality":{"key":"07233080","name":"Walsdorf","type":"Kreisangehörige_Gemeinde"},"district":{"key":"07233","name":"Vulkaneifel","type":"Landkreis"},"federalState":{"key":"07","name":"Rheinland-Pfalz"}},{"name":"Tannenstr.","postalCode":"52477","locality":"Alsdorf","municipality":{"key":"05334004","name":"Alsdorf, Stadt","type":"Stadt"},"district":{"key":"05334","name":"Städteregion Aachen","type":"Kreis"},"federalState":{"key":"05","name":"Nordrhein-Westfalen"}},{"name":"Tannenweg","postalCode":"54578","locality":"Walsdorf","municipality":{"key":"07233080","name":"Walsdorf","type":"Kreisangehörige_Gemeinde"},"district":{"key":"07233","name":"Vulkaneifel","type":"Landkreis"},"federalState":{"key":"07","name":"Rheinland-Pfalz"}},{"name":"Tannenweg","postalCode":"57518","locality":"Alsdorf","municipality":{"key":"07132002","name":"Alsdorf","type":"Kreisangehörige_Gemeinde"},"district":{"key":"07132","name":"Altenkirchen (Westerwald)","type":"Landkreis"},"federalState":{"key":"07","name":"Rheinland-Pfalz"}},{"name":"Taubenweg","postalCode":"52477","locality":"Alsdorf","municipality":{"key":"05334004","name":"Alsdorf, Stadt","type":"Stadt"},"district":{"key":"05334","name":"Städteregion Aachen","type":"Kreis"},"federalState":{"key":"05","name":"Nordrhein-Westfalen"}},{"name":"Teutonenstr.","postalCode":"52477","locality":"Alsdorf","municipality":{"key":"05334004","name":"Alsdorf, Stadt","type":"Stadt"},"district":{"key":"05334","name":"Städteregion Aachen","type":"Kreis"},"federalState":{"key":"05","name":"Nordrhein-Westfalen"}},{"name":"Theodor-Seipp-Str.","postalCode":"52477","locality":"Alsdorf","municipality":{"key":"05334004","name":"Alsdorf, Stadt","type":"Stadt"},"district":{"key":"05334","name":"Städteregion Aachen","type":"Kreis"},"federalState":{"key":"05","name":"Nordrhein-Westfalen"}},{"name":"Theodor-Storm-Str.","postalCode":"52477","locality":"Alsdorf","municipality":{"key":"05334004","name":"Alsdorf, Stadt","type":"Stadt"},"district":{"key":"05334","name":"Städteregion Aachen","type":"Kreis"},"federalState":{"key":"05","name":"Nordrhein-Westfalen"}},{"name":"Thomas-Mann-Str.","postalCode":"52477","locality":"Alsdorf","municipality":{"key":"05334004","name":"Alsdorf, Stadt","type":"Stadt"},"district":{"key":"05334","name":"Städteregion Aachen","type":"Kreis"},"federalState":{"key":"05","name":"Nordrhein-Westfalen"}},{"name":"Thorner Str.","postalCode":"52477","locality":"Alsdorf","municipality":{"key":"05334004","name":"Alsdorf, Stadt","type":"Stadt"},"district":{"key":"05334","name":"Städteregion Aachen","type":"Kreis"},"federalState":{"key":"05","name":"Nordrhein-Westfalen"}},{"name":"Tiergartenstr.","postalCode":"54578","locality":"Walsdorf","municipality":{"key":"07233080","name":"Walsdorf","type":"Kreisangehörige_Gemeinde"},"district":{"key":"07233","name":"Vulkaneifel","type":"Landkreis"},"federalState":{"key":"07","name":"Rheinland-Pfalz"}},{"name":"Tilsiter Str.","postalCode":"52477","locality":"Alsdorf","municipality":{"key":"05334004","name":"Alsdorf, Stadt","type":"Stadt"},"district":{"key":"05334","name":"Städteregion Aachen","type":"Kreis"},"federalState":{"key":"05","name":"Nordrhein-Westfalen"}},{"name":"Tischelkauler Weg","postalCode":"52477","locality":"Alsdorf","municipality":{"key":"05334004","name":"Alsdorf, Stadt","type":"Stadt"},"district":{"key":"05334","name":"Städteregion Aachen","type":"Kreis"},"federalState":{"key":"05","name":"Nordrhein-Westfalen"}},{"name":"Toni-André-Str.","postalCode":"52477","locality":"Alsdorf","municipality":{"key":"05334004","name":"Alsdorf, Stadt","type":"Stadt"},"district":{"key":"05334","name":"Städteregion Aachen","type":"Kreis"},"federalState":{"key":"05","name":"Nordrhein-Westfalen"}},{"name":"Toni-Baumanns-Str.","postalCode":"52477","locality":"Alsdorf","municipality":{"key":"05334004","name":"Alsdorf, Stadt","type":"Stadt"},"district":{"key":"05334","name":"Städteregion Aachen","type":"Kreis"},"federalState":{"key":"05","name":"Nordrhein-Westfalen"}},{"name":"Tröter Weg","postalCode":"52477","locality":"Alsdorf","municipality":{"key":"05334004","name":"Alsdorf, Stadt","type":"Stadt"},"district":{"key":"05334","name":"Städteregion Aachen","type":"Kreis"},"federalState":{"key":"05","name":"Nordrhein-Westfalen"}},{"name":"Tulpenweg","postalCode":"52477","locality":"Alsdorf","municipality":{"key":"05334004","name":"Alsdorf, Stadt","type":"Stadt"},"district":{"key":"05334","name":"Städteregion Aachen","type":"Kreis"},"federalState":{"key":"05","name":"Nordrhein-Westfalen"}},{"name":"Tütschengereuther Str.","postalCode":"96194","locality":"Walsdorf","municipality":{"key":"09471208","name":"Walsdorf","type":"Kreisangehörige_Gemeinde"},"district":{"key":"09471","name":"Bamberg","type":"Landkreis"},"federalState":{"key":"09","name":"Bayern"}},{"name":"Uhlandstr.","postalCode":"52477","locality":"Alsdorf","municipality":{"key":"05334004","name":"Alsdorf, Stadt","type":"Stadt"},"district":{"key":"05334","name":"Städteregion Aachen","type":"Kreis"},"federalState":{"key":"05","name":"Nordrhein-Westfalen"}},{"name":"Ulmenstr.","postalCode":"52477","locality":"Alsdorf","municipality":{"key":"05334004","name":"Alsdorf, Stadt","type":"Stadt"},"district":{"key":"05334","name":"Städteregion Aachen","type":"Kreis"},"federalState":{"key":"05","name":"Nordrhein-Westfalen"}},{"name":"Untere Steinleite","postalCode":"96194","locality":"Walsdorf","municipality":{"key":"09471208","name":"Walsdorf","type":"Kreisangehörige_Gemeinde"},"district":{"key":"09471","name":"Bamberg","type":"Landkreis"},"federalState":{"key":"09","name":"Bayern"}},{"name":"Unterm Hang","postalCode":"52477","locality":"Alsdorf","municipality":{"key":"05334004","name":"Alsdorf, Stadt","type":"Stadt"},"district":{"key":"05334","name":"Städteregion Aachen","type":"Kreis"},"federalState":{"key":"05","name":"Nordrhein-Westfalen"}},{"name":"Urftstr.","postalCode":"52477","locality":"Alsdorf","municipality":{"key":"05334004","name":"Alsdorf, Stadt","type":"Stadt"},"district":{"key":"05334","name":"Städteregion Aachen","type":"Kreis"},"federalState":{"key":"05","name":"Nordrhein-Westfalen"}},{"name":"Veilchenstr.","postalCode":"52477","locality":"Alsdorf","municipality":{"key":"05334004","name":"Alsdorf, Stadt","type":"Stadt"},"district":{"key":"05334","name":"Städteregion Aachen","type":"Kreis"},"federalState":{"key":"05","name":"Nordrhein-Westfalen"}},{"name":"Vennweg","postalCode":"52477","locality":"Alsdorf","municipality":{"key":"05334004","name":"Alsdorf, Stadt","type":"Stadt"},"district":{"key":"05334","name":"Städteregion Aachen","type":"Kreis"},"federalState":{"key":"05","name":"Nordrhein-Westfalen"}},{"name":"Verbindungsstr.","postalCode":"52477","locality":"Alsdorf","municipality":{"key":"05334004","name":"Alsdorf, Stadt","type":"Stadt"},"district":{"key":"05334","name":"Städteregion Aachen","type":"Kreis"},"federalState":{"key":"05","name":"Nordrhein-Westfalen"}},{"name":"Viehaustr.","postalCode":"52477","locality":"Alsdorf","municipality":{"key":"05334004","name":"Alsdorf, Stadt","type":"Stadt"},"district":{"key":"05334","name":"Städteregion Aachen","type":"Kreis"},"federalState":{"key":"05","name":"Nordrhein-Westfalen"}},{"name":"Vierzechenblick","postalCode":"52477","locality":"Alsdorf","municipality":{"key":"05334004","name":"Alsdorf, Stadt","type":"Stadt"},"district":{"key":"05334","name":"Städteregion Aachen","type":"Kreis"},"federalState":{"key":"05","name":"Nordrhein-Westfalen"}},{"name":"Virchowstr.","postalCode":"52477","locality":"Alsdorf","municipality":{"key":"05334004","name":"Alsdorf, Stadt","type":"Stadt"},"district":{"key":"05334","name":"Städteregion Aachen","type":"Kreis"},"federalState":{"key":"05","name":"Nordrhein-Westfalen"}},{"name":"Von-Beust-Str.","postalCode":"52477","locality":"Alsdorf","municipality":{"key":"05334004","name":"Alsdorf, Stadt","type":"Stadt"},"district":{"key":"05334","name":"Städteregion Aachen","type":"Kreis"},"federalState":{"key":"05","name":"Nordrhein-Westfalen"}},{"name":"Von-Blanckart-Str.","postalCode":"52477","locality":"Alsdorf","municipality":{"key":"05334004","name":"Alsdorf, Stadt","type":"Stadt"},"district":{"key":"05334","name":"Städteregion Aachen","type":"Kreis"},"federalState":{"key":"05","name":"Nordrhein-Westfalen"}},{"name":"Von-Harff-Str.","postalCode":"52477","locality":"Alsdorf","municipality":{"key":"05334004","name":"Alsdorf, Stadt","type":"Stadt"},"district":{"key":"05334","name":"Städteregion Aachen","type":"Kreis"},"federalState":{"key":"05","name":"Nordrhein-Westfalen"}},{"name":"Von-Ketteler-Str.","postalCode":"52477","locality":"Alsdorf","municipality":{"key":"05334004","name":"Alsdorf, Stadt","type":"Stadt"},"district":{"key":"05334","name":"Städteregion Aachen","type":"Kreis"},"federalState":{"key":"05","name":"Nordrhein-Westfalen"}},{"name":"Voßpfädchen","postalCode":"52477","locality":"Alsdorf","municipality":{"key":"05334004","name":"Alsdorf, Stadt","type":"Stadt"},"district":{"key":"05334","name":"Städteregion Aachen","type":"Kreis"},"federalState":{"key":"05","name":"Nordrhein-Westfalen"}},{"name":"Wacholderweg","postalCode":"52477","locality":"Alsdorf","municipality":{"key":"05334004","name":"Alsdorf, Stadt","type":"Stadt"},"district":{"key":"05334","name":"Städteregion Aachen","type":"Kreis"},"federalState":{"key":"05","name":"Nordrhein-Westfalen"}},{"name":"Wachtelweg","postalCode":"52477","locality":"Alsdorf","municipality":{"key":"05334004","name":"Alsdorf, Stadt","type":"Stadt"},"district":{"key":"05334","name":"Städteregion Aachen","type":"Kreis"},"federalState":{"key":"05","name":"Nordrhein-Westfalen"}},{"name":"Wagnerstr.","postalCode":"52477","locality":"Alsdorf","municipality":{"key":"05334004","name":"Alsdorf, Stadt","type":"Stadt"},"district":{"key":"05334","name":"Städteregion Aachen","type":"Kreis"},"federalState":{"key":"05","name":"Nordrhein-Westfalen"}},{"name":"Waldmeisterweg","postalCode":"52477","locality":"Alsdorf","municipality":{"key":"05334004","name":"Alsdorf, Stadt","type":"Stadt"},"district":{"key":"05334","name":"Städteregion Aachen","type":"Kreis"},"federalState":{"key":"05","name":"Nordrhein-Westfalen"}},{"name":"Waldstr.","postalCode":"52477","locality":"Alsdorf","municipality":{"key":"05334004","name":"Alsdorf, Stadt","type":"Stadt"},"district":{"key":"05334","name":"Städteregion Aachen","type":"Kreis"},"federalState":{"key":"05","name":"Nordrhein-Westfalen"}},{"name":"Waldstr.","postalCode":"54668","locality":"Alsdorf","municipality":{"key":"07232002","name":"Alsdorf","type":"Kreisangehörige_Gemeinde"},"district":{"key":"07232","name":"Eifelkreis Bitburg-Prüm","type":"Landkreis"},"federalState":{"key":"07","name":"Rheinland-Pfalz"}},{"name":"Waldstr.","postalCode":"57518","locality":"Alsdorf","municipality":{"key":"07132002","name":"Alsdorf","type":"Kreisangehörige_Gemeinde"},"district":{"key":"07132","name":"Altenkirchen (Westerwald)","type":"Landkreis"},"federalState":{"key":"07","name":"Rheinland-Pfalz"}},{"name":"Waldweg","postalCode":"54578","locality":"Walsdorf","municipality":{"key":"07233080","name":"Walsdorf","type":"Kreisangehörige_Gemeinde"},"district":{"key":"07233","name":"Vulkaneifel","type":"Landkreis"},"federalState":{"key":"07","name":"Rheinland-Pfalz"}},{"name":"Walterstr.","postalCode":"52477","locality":"Alsdorf","municipality":{"key":"05334004","name":"Alsdorf, Stadt","type":"Stadt"},"district":{"key":"05334","name":"Städteregion Aachen","type":"Kreis"},"federalState":{"key":"05","name":"Nordrhein-Westfalen"}},{"name":"Wardener Str.","postalCode":"52477","locality":"Alsdorf","municipality":{"key":"05334004","name":"Alsdorf, Stadt","type":"Stadt"},"district":{"key":"05334","name":"Städteregion Aachen","type":"Kreis"},"federalState":{"key":"05","name":"Nordrhein-Westfalen"}},{"name":"Weberstr.","postalCode":"52477","locality":"Alsdorf","municipality":{"key":"05334004","name":"Alsdorf, Stadt","type":"Stadt"},"district":{"key":"05334","name":"Städteregion Aachen","type":"Kreis"},"federalState":{"key":"05","name":"Nordrhein-Westfalen"}},{"name":"Weidenhof","postalCode":"52477","locality":"Alsdorf","municipality":{"key":"05334004","name":"Alsdorf, Stadt","type":"Stadt"},"district":{"key":"05334","name":"Städteregion Aachen","type":"Kreis"},"federalState":{"key":"05","name":"Nordrhein-Westfalen"}},{"name":"Weidenweg","postalCode":"54578","locality":"Walsdorf","municipality":{"key":"07233080","name":"Walsdorf","type":"Kreisangehörige_Gemeinde"},"district":{"key":"07233","name":"Vulkaneifel","type":"Landkreis"},"federalState":{"key":"07","name":"Rheinland-Pfalz"}},{"name":"Weidgenstr.","postalCode":"52477","locality":"Alsdorf","municipality":{"key":"05334004","name":"Alsdorf, Stadt","type":"Stadt"},"district":{"key":"05334","name":"Städteregion Aachen","type":"Kreis"},"federalState":{"key":"05","name":"Nordrhein-Westfalen"}},{"name":"Weiherstr.","postalCode":"57518","locality":"Alsdorf","municipality":{"key":"07132002","name":"Alsdorf","type":"Kreisangehörige_Gemeinde"},"district":{"key":"07132","name":"Altenkirchen (Westerwald)","type":"Landkreis"},"federalState":{"key":"07","name":"Rheinland-Pfalz"}},{"name":"Weiherweg","postalCode":"96194","locality":"Walsdorf","municipality":{"key":"09471208","name":"Walsdorf","type":"Kreisangehörige_Gemeinde"},"district":{"key":"09471","name":"Bamberg","type":"Landkreis"},"federalState":{"key":"09","name":"Bayern"}},{"name":"Weilerstr.","postalCode":"52477","locality":"Alsdorf","municipality":{"key":"05334004","name":"Alsdorf, Stadt","type":"Stadt"},"district":{"key":"05334","name":"Städteregion Aachen","type":"Kreis"},"federalState":{"key":"05","name":"Nordrhein-Westfalen"}},{"name":"Weimarer Str.","postalCode":"52477","locality":"Alsdorf","municipality":{"key":"05334004","name":"Alsdorf, Stadt","type":"Stadt"},"district":{"key":"05334","name":"Städteregion Aachen","type":"Kreis"},"federalState":{"key":"05","name":"Nordrhein-Westfalen"}},{"name":"Weinstr.","postalCode":"52477","locality":"Alsdorf","municipality":{"key":"05334004","name":"Alsdorf, Stadt","type":"Stadt"},"district":{"key":"05334","name":"Städteregion Aachen","type":"Kreis"},"federalState":{"key":"05","name":"Nordrhein-Westfalen"}},{"name":"Weipelsdorfer Str.","postalCode":"96194","locality":"Walsdorf","municipality":{"key":"09471208","name":"Walsdorf","type":"Kreisangehörige_Gemeinde"},"district":{"key":"09471","name":"Bamberg","type":"Landkreis"},"federalState":{"key":"09","name":"Bayern"}},{"name":"Weißleite","postalCode":"96194","locality":"Walsdorf","municipality":{"key":"09471208","name":"Walsdorf","type":"Kreisangehörige_Gemeinde"},"district":{"key":"09471","name":"Bamberg","type":"Landkreis"},"federalState":{"key":"09","name":"Bayern"}},{"name":"Weitefelder Garten","postalCode":"57518","locality":"Alsdorf","municipality":{"key":"07132002","name":"Alsdorf","type":"Kreisangehörige_Gemeinde"},"district":{"key":"07132","name":"Altenkirchen (Westerwald)","type":"Landkreis"},"federalState":{"key":"07","name":"Rheinland-Pfalz"}},{"name":"Wendelinusstr.","postalCode":"52477","locality":"Alsdorf","municipality":{"key":"05334004","name":"Alsdorf, Stadt","type":"Stadt"},"district":{"key":"05334","name":"Städteregion Aachen","type":"Kreis"},"federalState":{"key":"05","name":"Nordrhein-Westfalen"}},{"name":"Werthmannstr.","postalCode":"52477","locality":"Alsdorf","municipality":{"key":"05334004","name":"Alsdorf, Stadt","type":"Stadt"},"district":{"key":"05334","name":"Städteregion Aachen","type":"Kreis"},"federalState":{"key":"05","name":"Nordrhein-Westfalen"}},{"name":"Westring","postalCode":"52477","locality":"Alsdorf","municipality":{"key":"05334004","name":"Alsdorf, Stadt","type":"Stadt"},"district":{"key":"05334","name":"Städteregion Aachen","type":"Kreis"},"federalState":{"key":"05","name":"Nordrhein-Westfalen"}},{"name":"Weststr.","postalCode":"52477","locality":"Alsdorf","municipality":{"key":"05334004","name":"Alsdorf, Stadt","type":"Stadt"},"district":{"key":"05334","name":"Städteregion Aachen","type":"Kreis"},"federalState":{"key":"05","name":"Nordrhein-Westfalen"}},{"name":"Wichernstr.","postalCode":"52477","locality":"Alsdorf","municipality":{"key":"05334004","name":"Alsdorf, Stadt","type":"Stadt"},"district":{"key":"05334","name":"Städteregion Aachen","type":"Kreis"},"federalState":{"key":"05","name":"Nordrhein-Westfalen"}},{"name":"Wiesenstr.","postalCode":"52477","locality":"Alsdorf","municipality":{"key":"05334004","name":"Alsdorf, Stadt","type":"Stadt"},"district":{"key":"05334","name":"Städteregion Aachen","type":"Kreis"},"federalState":{"key":"05","name":"Nordrhein-Westfalen"}},{"name":"Wiesenstr.","postalCode":"57518","locality":"Alsdorf","municipality":{"key":"07132002","name":"Alsdorf","type":"Kreisangehörige_Gemeinde"},"district":{"key":"07132","name":"Altenkirchen (Westerwald)","type":"Landkreis"},"federalState":{"key":"07","name":"Rheinland-Pfalz"}},{"name":"Wiesenweg","postalCode":"96194","locality":"Walsdorf","municipality":{"key":"09471208","name":"Walsdorf","type":"Kreisangehörige_Gemeinde"},"district":{"key":"09471","name":"Bamberg","type":"Landkreis"},"federalState":{"key":"09","name":"Bayern"}},{"name":"Wilhelmschacht","postalCode":"52477","locality":"Alsdorf","municipality":{"key":"05334004","name":"Alsdorf, Stadt","type":"Stadt"},"district":{"key":"05334","name":"Städteregion Aachen","type":"Kreis"},"federalState":{"key":"05","name":"Nordrhein-Westfalen"}},{"name":"Wilhelmstr.","postalCode":"52477","locality":"Alsdorf","municipality":{"key":"05334004","name":"Alsdorf, Stadt","type":"Stadt"},"district":{"key":"05334","name":"Städteregion Aachen","type":"Kreis"},"federalState":{"key":"05","name":"Nordrhein-Westfalen"}},{"name":"William-Prym-Str.","postalCode":"52477","locality":"Alsdorf","municipality":{"key":"05334004","name":"Alsdorf, Stadt","type":"Stadt"},"district":{"key":"05334","name":"Städteregion Aachen","type":"Kreis"},"federalState":{"key":"05","name":"Nordrhein-Westfalen"}},{"name":"Willy-Brandt-Ring","postalCode":"52477","locality":"Alsdorf","municipality":{"key":"05334004","name":"Alsdorf, Stadt","type":"Stadt"},"district":{"key":"05334","name":"Städteregion Aachen","type":"Kreis"},"federalState":{"key":"05","name":"Nordrhein-Westfalen"}},{"name":"Winkelweg","postalCode":"52477","locality":"Alsdorf","municipality":{"key":"05334004","name":"Alsdorf, Stadt","type":"Stadt"},"district":{"key":"05334","name":"Städteregion Aachen","type":"Kreis"},"federalState":{"key":"05","name":"Nordrhein-Westfalen"}},{"name":"Wirthstr.","postalCode":"52477","locality":"Alsdorf","municipality":{"key":"05334004","name":"Alsdorf, Stadt","type":"Stadt"},"district":{"key":"05334","name":"Städteregion Aachen","type":"Kreis"},"federalState":{"key":"05","name":"Nordrhein-Westfalen"}},{"name":"Würselener Str.","postalCode":"52477","locality":"Alsdorf","municipality":{"key":"05334004","name":"Alsdorf, Stadt","type":"Stadt"},"district":{"key":"05334","name":"Städteregion Aachen","type":"Kreis"},"federalState":{"key":"05","name":"Nordrhein-Westfalen"}},{"name":"Zedernstr.","postalCode":"52477","locality":"Alsdorf","municipality":{"key":"05334004","name":"Alsdorf, Stadt","type":"Stadt"},"district":{"key":"05334","name":"Städteregion Aachen","type":"Kreis"},"federalState":{"key":"05","name":"Nordrhein-Westfalen"}},{"name":"Zedernweg","postalCode":"54578","locality":"Walsdorf","municipality":{"key":"07233080","name":"Walsdorf","type":"Kreisangehörige_Gemeinde"},"district":{"key":"07233","name":"Vulkaneifel","type":"Landkreis"},"federalState":{"key":"07","name":"Rheinland-Pfalz"}},{"name":"Zeisigstr.","postalCode":"52477","locality":"Alsdorf","municipality":{"key":"05334004","name":"Alsdorf, Stadt","type":"Stadt"},"district":{"key":"05334","name":"Städteregion Aachen","type":"Kreis"},"federalState":{"key":"05","name":"Nordrhein-Westfalen"}},{"name":"Zettelsdorf","postalCode":"96194","locality":"Walsdorf","municipality":{"key":"09471208","name":"Walsdorf","type":"Kreisangehörige_Gemeinde"},"district":{"key":"09471","name":"Bamberg","type":"Landkreis"},"federalState":{"key":"09","name":"Bayern"}},{"name":"Zollernstr.","postalCode":"52477","locality":"Alsdorf","municipality":{"key":"05334004","name":"Alsdorf, Stadt","type":"Stadt"},"district":{"key":"05334","name":"Städteregion Aachen","type":"Kreis"},"federalState":{"key":"05","name":"Nordrhein-Westfalen"}},{"name":"Zum Beginnental","postalCode":"52477","locality":"Alsdorf","municipality":{"key":"05334004","name":"Alsdorf, Stadt","type":"Stadt"},"district":{"key":"05334","name":"Städteregion Aachen","type":"Kreis"},"federalState":{"key":"05","name":"Nordrhein-Westfalen"}},{"name":"Zum Maria-Hauptschacht","postalCode":"52477","locality":"Alsdorf","municipality":{"key":"05334004","name":"Alsdorf, Stadt","type":"Stadt"},"district":{"key":"05334","name":"Städteregion Aachen","type":"Kreis"},"federalState":{"key":"05","name":"Nordrhein-Westfalen"}},{"name":"Zum Sonnenhof","postalCode":"54646","locality":"Halsdorf","municipality":{"key":"07232045","name":"Halsdorf","type":"Kreisangehörige_Gemeinde"},"district":{"key":"07232","name":"Eifelkreis Bitburg-Prüm","type":"Landkreis"},"federalState":{"key":"07","name":"Rheinland-Pfalz"}},{"name":"Zum Steinigt","postalCode":"96194","locality":"Walsdorf","municipality":{"key":"09471208","name":"Walsdorf","type":"Kreisangehörige_Gemeinde"},"district":{"key":"09471","name":"Bamberg","type":"Landkreis"},"federalState":{"key":"09","name":"Bayern"}},{"name":"Zum Weinbach","postalCode":"96194","locality":"Walsdorf","municipality":{"key":"09471208","name":"Walsdorf","type":"Kreisangehörige_Gemeinde"},"district":{"key":"09471","name":"Bamberg","type":"Landkreis"},"federalState":{"key":"09","name":"Bayern"}},{"name":"Zur Alten Gießerei","postalCode":"52477","locality":"Alsdorf","municipality":{"key":"05334004","name":"Alsdorf, Stadt","type":"Stadt"},"district":{"key":"05334","name":"Städteregion Aachen","type":"Kreis"},"federalState":{"key":"05","name":"Nordrhein-Westfalen"}},{"name":"Zur kalten Klinge","postalCode":"96194","locality":"Walsdorf","municipality":{"key":"09471208","name":"Walsdorf","type":"Kreisangehörige_Gemeinde"},"district":{"key":"09471","name":"Bamberg","type":"Landkreis"},"federalState":{"key":"09","name":"Bayern"}},{"name":"Zur Lay","postalCode":"54578","locality":"Walsdorf","municipality":{"key":"07233080","name":"Walsdorf","type":"Kreisangehörige_Gemeinde"},"district":{"key":"07233","name":"Vulkaneifel","type":"Landkreis"},"federalState":{"key":"07","name":"Rheinland-Pfalz"}},{"name":"Zur Schäferei","postalCode":"96194","locality":"Walsdorf","municipality":{"key":"09471208","name":"Walsdorf","type":"Kreisangehörige_Gemeinde"},"district":{"key":"09471","name":"Bamberg","type":"Landkreis"},"federalState":{"key":"09","name":"Bayern"}},{"name":"Zur Weihwiese","postalCode":"57518","locality":"Alsdorf","municipality":{"key":"07132002","name":"Alsdorf","type":"Kreisangehörige_Gemeinde"},"district":{"key":"07132","name":"Altenkirchen (Westerwald)","type":"Landkreis"},"federalState":{"key":"07","name":"Rheinland-Pfalz"}},{"name":"Änni-Keller-Str.","postalCode":"52477","locality":"Alsdorf","municipality":{"key":"05334004","name":"Alsdorf, Stadt","type":"Stadt"},"district":{"key":"05334","name":"Städteregion Aachen","type":"Kreis"},"federalState":{"key":"05","name":"Nordrhein-Westfalen"}},{"name":"Übacher Weg","postalCode":"52477","locality":"Alsdorf","municipality":{"key":"05334004","name":"Alsdorf, Stadt","type":"Stadt"},"district":{"key":"05334","name":"Städteregion Aachen","type":"Kreis"},"federalState":{"key":"05","name":"Nordrhein-Westfalen"}},]