[{"name":"3C-Ring","postalCode":"86899","locality":"Landsberg am Lech","municipality":{"key":"09181130","name":"Landsberg am Lech, GKSt","type":"Große_Kreisstadt"},"district":{"key":"09181","name":"Landsberg am Lech","type":"Landkreis"},"federalState":{"key":"09","name":"Bayern"}},{"name":"Am Schloßanger","postalCode":"86974","locality":"Apfeldorf","municipality":{"key":"09181111","name":"Apfeldorf","type":"Kreisangehörige_Gemeinde"},"district":{"key":"09181","name":"Landsberg am Lech","type":"Landkreis"},"federalState":{"key":"09","name":"Bayern"}},{"name":"An der Breite","postalCode":"86974","locality":"Apfeldorf","municipality":{"key":"09181111","name":"Apfeldorf","type":"Kreisangehörige_Gemeinde"},"district":{"key":"09181","name":"Landsberg am Lech","type":"Landkreis"},"federalState":{"key":"09","name":"Bayern"}},{"name":"Annenbergstr.","postalCode":"86974","locality":"Apfeldorf","municipality":{"key":"09181111","name":"Apfeldorf","type":"Kreisangehörige_Gemeinde"},"district":{"key":"09181","name":"Landsberg am Lech","type":"Landkreis"},"federalState":{"key":"09","name":"Bayern"}},{"name":"Bachfeldstr.","postalCode":"86899","locality":"Landsberg am Lech","municipality":{"key":"09181130","name":"Landsberg am Lech, GKSt","type":"Große_Kreisstadt"},"district":{"key":"09181","name":"Landsberg am Lech","type":"Landkreis"},"federalState":{"key":"09","name":"Bayern"}},{"name":"Bahnhofsplatz","postalCode":"86899","locality":"Landsberg am Lech","municipality":{"key":"09181130","name":"Landsberg am Lech, GKSt","type":"Große_Kreisstadt"},"district":{"key":"09181","name":"Landsberg am Lech","type":"Landkreis"},"federalState":{"key":"09","name":"Bayern"}},{"name":"Balserstr.","postalCode":"86899","locality":"Landsberg am Lech","municipality":{"key":"09181130","name":"Landsberg am Lech, GKSt","type":"Große_Kreisstadt"},"district":{"key":"09181","name":"Landsberg am Lech","type":"Landkreis"},"federalState":{"key":"09","name":"Bayern"}},{"name":"Bayerfeldstr.","postalCode":"86899","locality":"Landsberg am Lech","municipality":{"key":"09181130","name":"Landsberg am Lech, GKSt","type":"Große_Kreisstadt"},"district":{"key":"09181","name":"Landsberg am Lech","type":"Landkreis"},"federalState":{"key":"09","name":"Bayern"}},{"name":"Benediktenwandstr.","postalCode":"86899","locality":"Landsberg am Lech","municipality":{"key":"09181130","name":"Landsberg am Lech, GKSt","type":"Große_Kreisstadt"},"district":{"key":"09181","name":"Landsberg am Lech","type":"Landkreis"},"federalState":{"key":"09","name":"Bayern"}},{"name":"Benedikt-Hagg-Str.","postalCode":"86899","locality":"Landsberg am Lech","municipality":{"key":"09181130","name":"Landsberg am Lech, GKSt","type":"Große_Kreisstadt"},"district":{"key":"09181","name":"Landsberg am Lech","type":"Landkreis"},"federalState":{"key":"09","name":"Bayern"}},{"name":"Birkenstr.","postalCode":"86899","locality":"Landsberg am Lech","municipality":{"key":"09181130","name":"Landsberg am Lech, GKSt","type":"Große_Kreisstadt"},"district":{"key":"09181","name":"Landsberg am Lech","type":"Landkreis"},"federalState":{"key":"09","name":"Bayern"}},{"name":"Bischof-Riegg-Str.","postalCode":"86899","locality":"Landsberg am Lech","municipality":{"key":"09181130","name":"Landsberg am Lech, GKSt","type":"Große_Kreisstadt"},"district":{"key":"09181","name":"Landsberg am Lech","type":"Landkreis"},"federalState":{"key":"09","name":"Bayern"}},{"name":"Brendelstr.","postalCode":"86899","locality":"Landsberg am Lech","municipality":{"key":"09181130","name":"Landsberg am Lech, GKSt","type":"Große_Kreisstadt"},"district":{"key":"09181","name":"Landsberg am Lech","type":"Landkreis"},"federalState":{"key":"09","name":"Bayern"}},{"name":"Breslauer Str.","postalCode":"86899","locality":"Landsberg am Lech","municipality":{"key":"09181130","name":"Landsberg am Lech, GKSt","type":"Große_Kreisstadt"},"district":{"key":"09181","name":"Landsberg am Lech","type":"Landkreis"},"federalState":{"key":"09","name":"Bayern"}},{"name":"Bronner Weg","postalCode":"86899","locality":"Landsberg am Lech","municipality":{"key":"09181130","name":"Landsberg am Lech, GKSt","type":"Große_Kreisstadt"},"district":{"key":"09181","name":"Landsberg am Lech","type":"Landkreis"},"federalState":{"key":"09","name":"Bayern"}},{"name":"Brudergasse","postalCode":"86899","locality":"Landsberg am Lech","municipality":{"key":"09181130","name":"Landsberg am Lech, GKSt","type":"Große_Kreisstadt"},"district":{"key":"09181","name":"Landsberg am Lech","type":"Landkreis"},"federalState":{"key":"09","name":"Bayern"}},{"name":"Buchloer Str.","postalCode":"86899","locality":"Landsberg am Lech","municipality":{"key":"09181130","name":"Landsberg am Lech, GKSt","type":"Große_Kreisstadt"},"district":{"key":"09181","name":"Landsberg am Lech","type":"Landkreis"},"federalState":{"key":"09","name":"Bayern"}},{"name":"Bürgermeister-Doktor-Hartmann-Str.","postalCode":"86899","locality":"Landsberg am Lech","municipality":{"key":"09181130","name":"Landsberg am Lech, GKSt","type":"Große_Kreisstadt"},"district":{"key":"09181","name":"Landsberg am Lech","type":"Landkreis"},"federalState":{"key":"09","name":"Bayern"}},{"name":"Bussardstr.","postalCode":"86899","locality":"Landsberg am Lech","municipality":{"key":"09181130","name":"Landsberg am Lech, GKSt","type":"Große_Kreisstadt"},"district":{"key":"09181","name":"Landsberg am Lech","type":"Landkreis"},"federalState":{"key":"09","name":"Bayern"}},{"name":"Carl-Friedrich-Benz-Str.","postalCode":"86899","locality":"Landsberg am Lech","municipality":{"key":"09181130","name":"Landsberg am Lech, GKSt","type":"Große_Kreisstadt"},"district":{"key":"09181","name":"Landsberg am Lech","type":"Landkreis"},"federalState":{"key":"09","name":"Bayern"}},{"name":"Christoph-Thomas-Scheffler-Str.","postalCode":"86899","locality":"Landsberg am Lech","municipality":{"key":"09181130","name":"Landsberg am Lech, GKSt","type":"Große_Kreisstadt"},"district":{"key":"09181","name":"Landsberg am Lech","type":"Landkreis"},"federalState":{"key":"09","name":"Bayern"}},{"name":"Diessener Str.","postalCode":"86974","locality":"Apfeldorf","municipality":{"key":"09181111","name":"Apfeldorf","type":"Kreisangehörige_Gemeinde"},"district":{"key":"09181","name":"Landsberg am Lech","type":"Landkreis"},"federalState":{"key":"09","name":"Bayern"}},{"name":"Esele","postalCode":"86974","locality":"Apfeldorf","municipality":{"key":"09181111","name":"Apfeldorf","type":"Kreisangehörige_Gemeinde"},"district":{"key":"09181","name":"Landsberg am Lech","type":"Landkreis"},"federalState":{"key":"09","name":"Bayern"}},{"name":"Eselering","postalCode":"86974","locality":"Apfeldorf","municipality":{"key":"09181111","name":"Apfeldorf","type":"Kreisangehörige_Gemeinde"},"district":{"key":"09181","name":"Landsberg am Lech","type":"Landkreis"},"federalState":{"key":"09","name":"Bayern"}},{"name":"Failsworthweg","postalCode":"86899","locality":"Landsberg am Lech","municipality":{"key":"09181130","name":"Landsberg am Lech, GKSt","type":"Große_Kreisstadt"},"district":{"key":"09181","name":"Landsberg am Lech","type":"Landkreis"},"federalState":{"key":"09","name":"Bayern"}},{"name":"Falkenstr.","postalCode":"86899","locality":"Landsberg am Lech","municipality":{"key":"09181130","name":"Landsberg am Lech, GKSt","type":"Große_Kreisstadt"},"district":{"key":"09181","name":"Landsberg am Lech","type":"Landkreis"},"federalState":{"key":"09","name":"Bayern"}},{"name":"Fichtenstr.","postalCode":"86899","locality":"Landsberg am Lech","municipality":{"key":"09181130","name":"Landsberg am Lech, GKSt","type":"Große_Kreisstadt"},"district":{"key":"09181","name":"Landsberg am Lech","type":"Landkreis"},"federalState":{"key":"09","name":"Bayern"}},{"name":"Fliederweg","postalCode":"86899","locality":"Landsberg am Lech","municipality":{"key":"09181130","name":"Landsberg am Lech, GKSt","type":"Große_Kreisstadt"},"district":{"key":"09181","name":"Landsberg am Lech","type":"Landkreis"},"federalState":{"key":"09","name":"Bayern"}},{"name":"Floßgassenweg","postalCode":"86899","locality":"Landsberg am Lech","municipality":{"key":"09181130","name":"Landsberg am Lech, GKSt","type":"Große_Kreisstadt"},"district":{"key":"09181","name":"Landsberg am Lech","type":"Landkreis"},"federalState":{"key":"09","name":"Bayern"}},{"name":"Forststr.","postalCode":"86899","locality":"Landsberg am Lech","municipality":{"key":"09181130","name":"Landsberg am Lech, GKSt","type":"Große_Kreisstadt"},"district":{"key":"09181","name":"Landsberg am Lech","type":"Landkreis"},"federalState":{"key":"09","name":"Bayern"}},{"name":"Franz-Xaver-Altegger-Str.","postalCode":"86899","locality":"Landsberg am Lech","municipality":{"key":"09181130","name":"Landsberg am Lech, GKSt","type":"Große_Kreisstadt"},"district":{"key":"09181","name":"Landsberg am Lech","type":"Landkreis"},"federalState":{"key":"09","name":"Bayern"}},{"name":"Freienfeldweg","postalCode":"86899","locality":"Landsberg am Lech","municipality":{"key":"09181130","name":"Landsberg am Lech, GKSt","type":"Große_Kreisstadt"},"district":{"key":"09181","name":"Landsberg am Lech","type":"Landkreis"},"federalState":{"key":"09","name":"Bayern"}},{"name":"Frieda-Weber-Str.","postalCode":"86899","locality":"Landsberg am Lech","municipality":{"key":"09181130","name":"Landsberg am Lech, GKSt","type":"Große_Kreisstadt"},"district":{"key":"09181","name":"Landsberg am Lech","type":"Landkreis"},"federalState":{"key":"09","name":"Bayern"}},{"name":"Friedensstr.","postalCode":"86899","locality":"Landsberg am Lech","municipality":{"key":"09181130","name":"Landsberg am Lech, GKSt","type":"Große_Kreisstadt"},"district":{"key":"09181","name":"Landsberg am Lech","type":"Landkreis"},"federalState":{"key":"09","name":"Bayern"}},{"name":"Friedheimer Str.","postalCode":"86899","locality":"Landsberg am Lech","municipality":{"key":"09181130","name":"Landsberg am Lech, GKSt","type":"Große_Kreisstadt"},"district":{"key":"09181","name":"Landsberg am Lech","type":"Landkreis"},"federalState":{"key":"09","name":"Bayern"}},{"name":"Friedheimer Waldweg","postalCode":"86899","locality":"Landsberg am Lech","municipality":{"key":"09181130","name":"Landsberg am Lech, GKSt","type":"Große_Kreisstadt"},"district":{"key":"09181","name":"Landsberg am Lech","type":"Landkreis"},"federalState":{"key":"09","name":"Bayern"}},{"name":"Friedheimer Weg","postalCode":"86899","locality":"Landsberg am Lech","municipality":{"key":"09181130","name":"Landsberg am Lech, GKSt","type":"Große_Kreisstadt"},"district":{"key":"09181","name":"Landsberg am Lech","type":"Landkreis"},"federalState":{"key":"09","name":"Bayern"}},{"name":"Fritz-Beck-Str.","postalCode":"86899","locality":"Landsberg am Lech","municipality":{"key":"09181130","name":"Landsberg am Lech, GKSt","type":"Große_Kreisstadt"},"district":{"key":"09181","name":"Landsberg am Lech","type":"Landkreis"},"federalState":{"key":"09","name":"Bayern"}},{"name":"Frühlingsstr.","postalCode":"86899","locality":"Landsberg am Lech","municipality":{"key":"09181130","name":"Landsberg am Lech, GKSt","type":"Große_Kreisstadt"},"district":{"key":"09181","name":"Landsberg am Lech","type":"Landkreis"},"federalState":{"key":"09","name":"Bayern"}},{"name":"Frühlingsweg","postalCode":"86899","locality":"Landsberg am Lech","municipality":{"key":"09181130","name":"Landsberg am Lech, GKSt","type":"Große_Kreisstadt"},"district":{"key":"09181","name":"Landsberg am Lech","type":"Landkreis"},"federalState":{"key":"09","name":"Bayern"}},{"name":"Fuchsbergstr.","postalCode":"86899","locality":"Landsberg am Lech","municipality":{"key":"09181130","name":"Landsberg am Lech, GKSt","type":"Große_Kreisstadt"},"district":{"key":"09181","name":"Landsberg am Lech","type":"Landkreis"},"federalState":{"key":"09","name":"Bayern"}},{"name":"Fuchstalstr.","postalCode":"86899","locality":"Landsberg am Lech","municipality":{"key":"09181130","name":"Landsberg am Lech, GKSt","type":"Große_Kreisstadt"},"district":{"key":"09181","name":"Landsberg am Lech","type":"Landkreis"},"federalState":{"key":"09","name":"Bayern"}},{"name":"Gäßele","postalCode":"86974","locality":"Apfeldorf","municipality":{"key":"09181111","name":"Apfeldorf","type":"Kreisangehörige_Gemeinde"},"district":{"key":"09181","name":"Landsberg am Lech","type":"Landkreis"},"federalState":{"key":"09","name":"Bayern"}},{"name":"Grafenstr.","postalCode":"86974","locality":"Apfeldorf","municipality":{"key":"09181111","name":"Apfeldorf","type":"Kreisangehörige_Gemeinde"},"district":{"key":"09181","name":"Landsberg am Lech","type":"Landkreis"},"federalState":{"key":"09","name":"Bayern"}},{"name":"Hauptstr.","postalCode":"86974","locality":"Apfeldorf","municipality":{"key":"09181111","name":"Apfeldorf","type":"Kreisangehörige_Gemeinde"},"district":{"key":"09181","name":"Landsberg am Lech","type":"Landkreis"},"federalState":{"key":"09","name":"Bayern"}},{"name":"Hohenstaufenweg","postalCode":"86974","locality":"Apfeldorf","municipality":{"key":"09181111","name":"Apfeldorf","type":"Kreisangehörige_Gemeinde"},"district":{"key":"09181","name":"Landsberg am Lech","type":"Landkreis"},"federalState":{"key":"09","name":"Bayern"}},{"name":"Im Filzle","postalCode":"86974","locality":"Apfeldorf","municipality":{"key":"09181111","name":"Apfeldorf","type":"Kreisangehörige_Gemeinde"},"district":{"key":"09181","name":"Landsberg am Lech","type":"Landkreis"},"federalState":{"key":"09","name":"Bayern"}},{"name":"Jahnstr.","postalCode":"86899","locality":"Landsberg am Lech","municipality":{"key":"09181130","name":"Landsberg am Lech, GKSt","type":"Große_Kreisstadt"},"district":{"key":"09181","name":"Landsberg am Lech","type":"Landkreis"},"federalState":{"key":"09","name":"Bayern"}},{"name":"Johann-Arnold-Str.","postalCode":"86899","locality":"Landsberg am Lech","municipality":{"key":"09181130","name":"Landsberg am Lech, GKSt","type":"Große_Kreisstadt"},"district":{"key":"09181","name":"Landsberg am Lech","type":"Landkreis"},"federalState":{"key":"09","name":"Bayern"}},{"name":"Johann-Ferstl-Str.","postalCode":"86899","locality":"Landsberg am Lech","municipality":{"key":"09181130","name":"Landsberg am Lech, GKSt","type":"Große_Kreisstadt"},"district":{"key":"09181","name":"Landsberg am Lech","type":"Landkreis"},"federalState":{"key":"09","name":"Bayern"}},{"name":"Johann-Kobrich-Str.","postalCode":"86899","locality":"Landsberg am Lech","municipality":{"key":"09181130","name":"Landsberg am Lech, GKSt","type":"Große_Kreisstadt"},"district":{"key":"09181","name":"Landsberg am Lech","type":"Landkreis"},"federalState":{"key":"09","name":"Bayern"}},{"name":"Johann-Mutter-Str.","postalCode":"86899","locality":"Landsberg am Lech","municipality":{"key":"09181130","name":"Landsberg am Lech, GKSt","type":"Große_Kreisstadt"},"district":{"key":"09181","name":"Landsberg am Lech","type":"Landkreis"},"federalState":{"key":"09","name":"Bayern"}},{"name":"Johann-Schmidt-Str.","postalCode":"86899","locality":"Landsberg am Lech","municipality":{"key":"09181130","name":"Landsberg am Lech, GKSt","type":"Große_Kreisstadt"},"district":{"key":"09181","name":"Landsberg am Lech","type":"Landkreis"},"federalState":{"key":"09","name":"Bayern"}},{"name":"Johann-Wechsler-Str.","postalCode":"86899","locality":"Landsberg am Lech","municipality":{"key":"09181130","name":"Landsberg am Lech, GKSt","type":"Große_Kreisstadt"},"district":{"key":"09181","name":"Landsberg am Lech","type":"Landkreis"},"federalState":{"key":"09","name":"Bayern"}},{"name":"Josef-Kloo-Str.","postalCode":"86899","locality":"Landsberg am Lech","municipality":{"key":"09181130","name":"Landsberg am Lech, GKSt","type":"Große_Kreisstadt"},"district":{"key":"09181","name":"Landsberg am Lech","type":"Landkreis"},"federalState":{"key":"09","name":"Bayern"}},{"name":"Josef-Schober-Str.","postalCode":"86899","locality":"Landsberg am Lech","municipality":{"key":"09181130","name":"Landsberg am Lech, GKSt","type":"Große_Kreisstadt"},"district":{"key":"09181","name":"Landsberg am Lech","type":"Landkreis"},"federalState":{"key":"09","name":"Bayern"}},{"name":"Justus-von-Liebig-Str.","postalCode":"86899","locality":"Landsberg am Lech","municipality":{"key":"09181130","name":"Landsberg am Lech, GKSt","type":"Große_Kreisstadt"},"district":{"key":"09181","name":"Landsberg am Lech","type":"Landkreis"},"federalState":{"key":"09","name":"Bayern"}},{"name":"Kapellenweg","postalCode":"86974","locality":"Apfeldorf","municipality":{"key":"09181111","name":"Apfeldorf","type":"Kreisangehörige_Gemeinde"},"district":{"key":"09181","name":"Landsberg am Lech","type":"Landkreis"},"federalState":{"key":"09","name":"Bayern"}},{"name":"Keltenstr.","postalCode":"86974","locality":"Apfeldorf","municipality":{"key":"09181111","name":"Apfeldorf","type":"Kreisangehörige_Gemeinde"},"district":{"key":"09181","name":"Landsberg am Lech","type":"Landkreis"},"federalState":{"key":"09","name":"Bayern"}},{"name":"Kinsauer Str.","postalCode":"86974","locality":"Apfeldorf","municipality":{"key":"09181111","name":"Apfeldorf","type":"Kreisangehörige_Gemeinde"},"district":{"key":"09181","name":"Landsberg am Lech","type":"Landkreis"},"federalState":{"key":"09","name":"Bayern"}},{"name":"Kirchplatz","postalCode":"86974","locality":"Apfeldorf","municipality":{"key":"09181111","name":"Apfeldorf","type":"Kreisangehörige_Gemeinde"},"district":{"key":"09181","name":"Landsberg am Lech","type":"Landkreis"},"federalState":{"key":"09","name":"Bayern"}},{"name":"Kirchweg","postalCode":"86974","locality":"Apfeldorf","municipality":{"key":"09181111","name":"Apfeldorf","type":"Kreisangehörige_Gemeinde"},"district":{"key":"09181","name":"Landsberg am Lech","type":"Landkreis"},"federalState":{"key":"09","name":"Bayern"}},{"name":"Klausenweg","postalCode":"86974","locality":"Apfeldorf","municipality":{"key":"09181111","name":"Apfeldorf","type":"Kreisangehörige_Gemeinde"},"district":{"key":"09181","name":"Landsberg am Lech","type":"Landkreis"},"federalState":{"key":"09","name":"Bayern"}},{"name":"Lechrainstr.","postalCode":"86974","locality":"Apfeldorf","municipality":{"key":"09181111","name":"Apfeldorf","type":"Kreisangehörige_Gemeinde"},"district":{"key":"09181","name":"Landsberg am Lech","type":"Landkreis"},"federalState":{"key":"09","name":"Bayern"}},{"name":"Malteser-Passage","postalCode":"86899","locality":"Landsberg am Lech","municipality":{"key":"09181130","name":"Landsberg am Lech, GKSt","type":"Große_Kreisstadt"},"district":{"key":"09181","name":"Landsberg am Lech","type":"Landkreis"},"federalState":{"key":"09","name":"Bayern"}},{"name":"Malteserstr.","postalCode":"86899","locality":"Landsberg am Lech","municipality":{"key":"09181130","name":"Landsberg am Lech, GKSt","type":"Große_Kreisstadt"},"district":{"key":"09181","name":"Landsberg am Lech","type":"Landkreis"},"federalState":{"key":"09","name":"Bayern"}},{"name":"Margaritenweg","postalCode":"86899","locality":"Landsberg am Lech","municipality":{"key":"09181130","name":"Landsberg am Lech, GKSt","type":"Große_Kreisstadt"},"district":{"key":"09181","name":"Landsberg am Lech","type":"Landkreis"},"federalState":{"key":"09","name":"Bayern"}},{"name":"Marie-Curie-Str.","postalCode":"86899","locality":"Landsberg am Lech","municipality":{"key":"09181130","name":"Landsberg am Lech, GKSt","type":"Große_Kreisstadt"},"district":{"key":"09181","name":"Landsberg am Lech","type":"Landkreis"},"federalState":{"key":"09","name":"Bayern"}},{"name":"Martin-Kolmsperger-Str.","postalCode":"86899","locality":"Landsberg am Lech","municipality":{"key":"09181130","name":"Landsberg am Lech, GKSt","type":"Große_Kreisstadt"},"district":{"key":"09181","name":"Landsberg am Lech","type":"Landkreis"},"federalState":{"key":"09","name":"Bayern"}},{"name":"Max-Friesenegger-Str.","postalCode":"86899","locality":"Landsberg am Lech","municipality":{"key":"09181130","name":"Landsberg am Lech, GKSt","type":"Große_Kreisstadt"},"district":{"key":"09181","name":"Landsberg am Lech","type":"Landkreis"},"federalState":{"key":"09","name":"Bayern"}},{"name":"Mehlbeerenstr.","postalCode":"86899","locality":"Landsberg am Lech","municipality":{"key":"09181130","name":"Landsberg am Lech, GKSt","type":"Große_Kreisstadt"},"district":{"key":"09181","name":"Landsberg am Lech","type":"Landkreis"},"federalState":{"key":"09","name":"Bayern"}},{"name":"Michael-Nocker-Str.","postalCode":"86899","locality":"Landsberg am Lech","municipality":{"key":"09181130","name":"Landsberg am Lech, GKSt","type":"Große_Kreisstadt"},"district":{"key":"09181","name":"Landsberg am Lech","type":"Landkreis"},"federalState":{"key":"09","name":"Bayern"}},{"name":"Milanstr.","postalCode":"86899","locality":"Landsberg am Lech","municipality":{"key":"09181130","name":"Landsberg am Lech, GKSt","type":"Große_Kreisstadt"},"district":{"key":"09181","name":"Landsberg am Lech","type":"Landkreis"},"federalState":{"key":"09","name":"Bayern"}},{"name":"Mittelfeldstr.","postalCode":"86899","locality":"Landsberg am Lech","municipality":{"key":"09181130","name":"Landsberg am Lech, GKSt","type":"Große_Kreisstadt"},"district":{"key":"09181","name":"Landsberg am Lech","type":"Landkreis"},"federalState":{"key":"09","name":"Bayern"}},{"name":"Mittelstetter Str.","postalCode":"86899","locality":"Landsberg am Lech","municipality":{"key":"09181130","name":"Landsberg am Lech, GKSt","type":"Große_Kreisstadt"},"district":{"key":"09181","name":"Landsberg am Lech","type":"Landkreis"},"federalState":{"key":"09","name":"Bayern"}},{"name":"Mohnblumenring","postalCode":"86899","locality":"Landsberg am Lech","municipality":{"key":"09181130","name":"Landsberg am Lech, GKSt","type":"Große_Kreisstadt"},"district":{"key":"09181","name":"Landsberg am Lech","type":"Landkreis"},"federalState":{"key":"09","name":"Bayern"}},{"name":"Moosstr.","postalCode":"86899","locality":"Landsberg am Lech","municipality":{"key":"09181130","name":"Landsberg am Lech, GKSt","type":"Große_Kreisstadt"},"district":{"key":"09181","name":"Landsberg am Lech","type":"Landkreis"},"federalState":{"key":"09","name":"Bayern"}},{"name":"Mühlweg","postalCode":"86899","locality":"Landsberg am Lech","municipality":{"key":"09181130","name":"Landsberg am Lech, GKSt","type":"Große_Kreisstadt"},"district":{"key":"09181","name":"Landsberg am Lech","type":"Landkreis"},"federalState":{"key":"09","name":"Bayern"}},{"name":"Münchener Str.","postalCode":"86899","locality":"Landsberg am Lech","municipality":{"key":"09181130","name":"Landsberg am Lech, GKSt","type":"Große_Kreisstadt"},"district":{"key":"09181","name":"Landsberg am Lech","type":"Landkreis"},"federalState":{"key":"09","name":"Bayern"}},{"name":"Museumstr.","postalCode":"86899","locality":"Landsberg am Lech","municipality":{"key":"09181130","name":"Landsberg am Lech, GKSt","type":"Große_Kreisstadt"},"district":{"key":"09181","name":"Landsberg am Lech","type":"Landkreis"},"federalState":{"key":"09","name":"Bayern"}},{"name":"Narzigäßchen","postalCode":"86899","locality":"Landsberg am Lech","municipality":{"key":"09181130","name":"Landsberg am Lech, GKSt","type":"Große_Kreisstadt"},"district":{"key":"09181","name":"Landsberg am Lech","type":"Landkreis"},"federalState":{"key":"09","name":"Bayern"}},{"name":"Neue Bergstr.","postalCode":"86899","locality":"Landsberg am Lech","municipality":{"key":"09181130","name":"Landsberg am Lech, GKSt","type":"Große_Kreisstadt"},"district":{"key":"09181","name":"Landsberg am Lech","type":"Landkreis"},"federalState":{"key":"09","name":"Bayern"}},{"name":"Neuteilweg","postalCode":"86899","locality":"Landsberg am Lech","municipality":{"key":"09181130","name":"Landsberg am Lech, GKSt","type":"Große_Kreisstadt"},"district":{"key":"09181","name":"Landsberg am Lech","type":"Landkreis"},"federalState":{"key":"09","name":"Bayern"}},{"name":"Nikolaus-Mangold-Str.","postalCode":"86899","locality":"Landsberg am Lech","municipality":{"key":"09181130","name":"Landsberg am Lech, GKSt","type":"Große_Kreisstadt"},"district":{"key":"09181","name":"Landsberg am Lech","type":"Landkreis"},"federalState":{"key":"09","name":"Bayern"}},{"name":"Nikolsburger Str.","postalCode":"86899","locality":"Landsberg am Lech","municipality":{"key":"09181130","name":"Landsberg am Lech, GKSt","type":"Große_Kreisstadt"},"district":{"key":"09181","name":"Landsberg am Lech","type":"Landkreis"},"federalState":{"key":"09","name":"Bayern"}},{"name":"Nordfeldstr.","postalCode":"86899","locality":"Landsberg am Lech","municipality":{"key":"09181130","name":"Landsberg am Lech, GKSt","type":"Große_Kreisstadt"},"district":{"key":"09181","name":"Landsberg am Lech","type":"Landkreis"},"federalState":{"key":"09","name":"Bayern"}},{"name":"Nordring","postalCode":"86899","locality":"Landsberg am Lech","municipality":{"key":"09181130","name":"Landsberg am Lech, GKSt","type":"Große_Kreisstadt"},"district":{"key":"09181","name":"Landsberg am Lech","type":"Landkreis"},"federalState":{"key":"09","name":"Bayern"}},{"name":"Nordstr.","postalCode":"86899","locality":"Landsberg am Lech","municipality":{"key":"09181130","name":"Landsberg am Lech, GKSt","type":"Große_Kreisstadt"},"district":{"key":"09181","name":"Landsberg am Lech","type":"Landkreis"},"federalState":{"key":"09","name":"Bayern"}},{"name":"Oberbürgermeister-Dr.-Engshuber-Str.","postalCode":"86899","locality":"Landsberg am Lech","municipality":{"key":"09181130","name":"Landsberg am Lech, GKSt","type":"Große_Kreisstadt"},"district":{"key":"09181","name":"Landsberg am Lech","type":"Landkreis"},"federalState":{"key":"09","name":"Bayern"}},{"name":"Oberbürgermeister-Thoma-Str.","postalCode":"86899","locality":"Landsberg am Lech","municipality":{"key":"09181130","name":"Landsberg am Lech, GKSt","type":"Große_Kreisstadt"},"district":{"key":"09181","name":"Landsberg am Lech","type":"Landkreis"},"federalState":{"key":"09","name":"Bayern"}},{"name":"Obere Ringstr.","postalCode":"86899","locality":"Landsberg am Lech","municipality":{"key":"09181130","name":"Landsberg am Lech, GKSt","type":"Große_Kreisstadt"},"district":{"key":"09181","name":"Landsberg am Lech","type":"Landkreis"},"federalState":{"key":"09","name":"Bayern"}},{"name":"Obere Wiesen","postalCode":"86899","locality":"Landsberg am Lech","municipality":{"key":"09181130","name":"Landsberg am Lech, GKSt","type":"Große_Kreisstadt"},"district":{"key":"09181","name":"Landsberg am Lech","type":"Landkreis"},"federalState":{"key":"09","name":"Bayern"}},{"name":"Ohmstr.","postalCode":"86899","locality":"Landsberg am Lech","municipality":{"key":"09181130","name":"Landsberg am Lech, GKSt","type":"Große_Kreisstadt"},"district":{"key":"09181","name":"Landsberg am Lech","type":"Landkreis"},"federalState":{"key":"09","name":"Bayern"}},{"name":"Otto-Leybold-Str.","postalCode":"86899","locality":"Landsberg am Lech","municipality":{"key":"09181130","name":"Landsberg am Lech, GKSt","type":"Große_Kreisstadt"},"district":{"key":"09181","name":"Landsberg am Lech","type":"Landkreis"},"federalState":{"key":"09","name":"Bayern"}},{"name":"Otto-Lilienthal-Str.","postalCode":"86899","locality":"Landsberg am Lech","municipality":{"key":"09181130","name":"Landsberg am Lech, GKSt","type":"Große_Kreisstadt"},"district":{"key":"09181","name":"Landsberg am Lech","type":"Landkreis"},"federalState":{"key":"09","name":"Bayern"}},{"name":"Pappelstr.","postalCode":"86899","locality":"Landsberg am Lech","municipality":{"key":"09181130","name":"Landsberg am Lech, GKSt","type":"Große_Kreisstadt"},"district":{"key":"09181","name":"Landsberg am Lech","type":"Landkreis"},"federalState":{"key":"09","name":"Bayern"}},{"name":"Pater-Rupert-Mayer-Str.","postalCode":"86899","locality":"Landsberg am Lech","municipality":{"key":"09181130","name":"Landsberg am Lech, GKSt","type":"Große_Kreisstadt"},"district":{"key":"09181","name":"Landsberg am Lech","type":"Landkreis"},"federalState":{"key":"09","name":"Bayern"}},{"name":"Peter-Dörfler-Weg","postalCode":"86899","locality":"Landsberg am Lech","municipality":{"key":"09181130","name":"Landsberg am Lech, GKSt","type":"Große_Kreisstadt"},"district":{"key":"09181","name":"Landsberg am Lech","type":"Landkreis"},"federalState":{"key":"09","name":"Bayern"}},{"name":"Peter-Rosegger-Str.","postalCode":"86899","locality":"Landsberg am Lech","municipality":{"key":"09181130","name":"Landsberg am Lech, GKSt","type":"Große_Kreisstadt"},"district":{"key":"09181","name":"Landsberg am Lech","type":"Landkreis"},"federalState":{"key":"09","name":"Bayern"}},{"name":"Pfannenstieler Weg","postalCode":"86899","locality":"Landsberg am Lech","municipality":{"key":"09181130","name":"Landsberg am Lech, GKSt","type":"Große_Kreisstadt"},"district":{"key":"09181","name":"Landsberg am Lech","type":"Landkreis"},"federalState":{"key":"09","name":"Bayern"}},{"name":"Pfettenstr.","postalCode":"86899","locality":"Landsberg am Lech","municipality":{"key":"09181130","name":"Landsberg am Lech, GKSt","type":"Große_Kreisstadt"},"district":{"key":"09181","name":"Landsberg am Lech","type":"Landkreis"},"federalState":{"key":"09","name":"Bayern"}},{"name":"Platanenstr.","postalCode":"86899","locality":"Landsberg am Lech","municipality":{"key":"09181130","name":"Landsberg am Lech, GKSt","type":"Große_Kreisstadt"},"district":{"key":"09181","name":"Landsberg am Lech","type":"Landkreis"},"federalState":{"key":"09","name":"Bayern"}},{"name":"Pöringer Str.","postalCode":"86899","locality":"Landsberg am Lech","municipality":{"key":"09181130","name":"Landsberg am Lech, GKSt","type":"Große_Kreisstadt"},"district":{"key":"09181","name":"Landsberg am Lech","type":"Landkreis"},"federalState":{"key":"09","name":"Bayern"}},{"name":"Pössinger Str.","postalCode":"86899","locality":"Landsberg am Lech","municipality":{"key":"09181130","name":"Landsberg am Lech, GKSt","type":"Große_Kreisstadt"},"district":{"key":"09181","name":"Landsberg am Lech","type":"Landkreis"},"federalState":{"key":"09","name":"Bayern"}},{"name":"Pürgener Schleif-Weg","postalCode":"86899","locality":"Landsberg am Lech","municipality":{"key":"09181130","name":"Landsberg am Lech, GKSt","type":"Große_Kreisstadt"},"district":{"key":"09181","name":"Landsberg am Lech","type":"Landkreis"},"federalState":{"key":"09","name":"Bayern"}},{"name":"Raiffeisenstr.","postalCode":"86974","locality":"Apfeldorf","municipality":{"key":"09181111","name":"Apfeldorf","type":"Kreisangehörige_Gemeinde"},"district":{"key":"09181","name":"Landsberg am Lech","type":"Landkreis"},"federalState":{"key":"09","name":"Bayern"}},{"name":"Riesenfeldweg","postalCode":"86974","locality":"Apfeldorf","municipality":{"key":"09181111","name":"Apfeldorf","type":"Kreisangehörige_Gemeinde"},"district":{"key":"09181","name":"Landsberg am Lech","type":"Landkreis"},"federalState":{"key":"09","name":"Bayern"}},{"name":"Rochusstr.","postalCode":"86974","locality":"Apfeldorf","municipality":{"key":"09181111","name":"Apfeldorf","type":"Kreisangehörige_Gemeinde"},"district":{"key":"09181","name":"Landsberg am Lech","type":"Landkreis"},"federalState":{"key":"09","name":"Bayern"}},{"name":"Römerring","postalCode":"86974","locality":"Apfeldorf","municipality":{"key":"09181111","name":"Apfeldorf","type":"Kreisangehörige_Gemeinde"},"district":{"key":"09181","name":"Landsberg am Lech","type":"Landkreis"},"federalState":{"key":"09","name":"Bayern"}},{"name":"Rothenfelsweg","postalCode":"86974","locality":"Apfeldorf","municipality":{"key":"09181111","name":"Apfeldorf","type":"Kreisangehörige_Gemeinde"},"district":{"key":"09181","name":"Landsberg am Lech","type":"Landkreis"},"federalState":{"key":"09","name":"Bayern"}},{"name":"Schelmengraben","postalCode":"86974","locality":"Apfeldorf","municipality":{"key":"09181111","name":"Apfeldorf","type":"Kreisangehörige_Gemeinde"},"district":{"key":"09181","name":"Landsberg am Lech","type":"Landkreis"},"federalState":{"key":"09","name":"Bayern"}},{"name":"Schulstr.","postalCode":"86974","locality":"Apfeldorf","municipality":{"key":"09181111","name":"Apfeldorf","type":"Kreisangehörige_Gemeinde"},"district":{"key":"09181","name":"Landsberg am Lech","type":"Landkreis"},"federalState":{"key":"09","name":"Bayern"}},{"name":"Sinkweg","postalCode":"86974","locality":"Apfeldorf","municipality":{"key":"09181111","name":"Apfeldorf","type":"Kreisangehörige_Gemeinde"},"district":{"key":"09181","name":"Landsberg am Lech","type":"Landkreis"},"federalState":{"key":"09","name":"Bayern"}},{"name":"Sonnenhang","postalCode":"86974","locality":"Apfeldorf","municipality":{"key":"09181111","name":"Apfeldorf","type":"Kreisangehörige_Gemeinde"},"district":{"key":"09181","name":"Landsberg am Lech","type":"Landkreis"},"federalState":{"key":"09","name":"Bayern"}},{"name":"Tannheimer Weg","postalCode":"86899","locality":"Landsberg am Lech","municipality":{"key":"09181130","name":"Landsberg am Lech, GKSt","type":"Große_Kreisstadt"},"district":{"key":"09181","name":"Landsberg am Lech","type":"Landkreis"},"federalState":{"key":"09","name":"Bayern"}},{"name":"Tegelbergstr.","postalCode":"86899","locality":"Landsberg am Lech","municipality":{"key":"09181130","name":"Landsberg am Lech, GKSt","type":"Große_Kreisstadt"},"district":{"key":"09181","name":"Landsberg am Lech","type":"Landkreis"},"federalState":{"key":"09","name":"Bayern"}},{"name":"Thalerseestr.","postalCode":"86899","locality":"Landsberg am Lech","municipality":{"key":"09181130","name":"Landsberg am Lech, GKSt","type":"Große_Kreisstadt"},"district":{"key":"09181","name":"Landsberg am Lech","type":"Landkreis"},"federalState":{"key":"09","name":"Bayern"}},{"name":"Thalhofener Weg","postalCode":"86899","locality":"Landsberg am Lech","municipality":{"key":"09181130","name":"Landsberg am Lech, GKSt","type":"Große_Kreisstadt"},"district":{"key":"09181","name":"Landsberg am Lech","type":"Landkreis"},"federalState":{"key":"09","name":"Bayern"}},{"name":"Thalhofstr.","postalCode":"86899","locality":"Landsberg am Lech","municipality":{"key":"09181130","name":"Landsberg am Lech, GKSt","type":"Große_Kreisstadt"},"district":{"key":"09181","name":"Landsberg am Lech","type":"Landkreis"},"federalState":{"key":"09","name":"Bayern"}},{"name":"Tobias-Unfried-Str.","postalCode":"86899","locality":"Landsberg am Lech","municipality":{"key":"09181130","name":"Landsberg am Lech, GKSt","type":"Große_Kreisstadt"},"district":{"key":"09181","name":"Landsberg am Lech","type":"Landkreis"},"federalState":{"key":"09","name":"Bayern"}},{"name":"Trautweinstr.","postalCode":"86899","locality":"Landsberg am Lech","municipality":{"key":"09181130","name":"Landsberg am Lech, GKSt","type":"Große_Kreisstadt"},"district":{"key":"09181","name":"Landsberg am Lech","type":"Landkreis"},"federalState":{"key":"09","name":"Bayern"}},{"name":"Ulmenstr.","postalCode":"86899","locality":"Landsberg am Lech","municipality":{"key":"09181130","name":"Landsberg am Lech, GKSt","type":"Große_Kreisstadt"},"district":{"key":"09181","name":"Landsberg am Lech","type":"Landkreis"},"federalState":{"key":"09","name":"Bayern"}},{"name":"Ulrich-Kiffhaber-Str.","postalCode":"86899","locality":"Landsberg am Lech","municipality":{"key":"09181130","name":"Landsberg am Lech, GKSt","type":"Große_Kreisstadt"},"district":{"key":"09181","name":"Landsberg am Lech","type":"Landkreis"},"federalState":{"key":"09","name":"Bayern"}},{"name":"Ulrich-Veist-Str.","postalCode":"86899","locality":"Landsberg am Lech","municipality":{"key":"09181130","name":"Landsberg am Lech, GKSt","type":"Große_Kreisstadt"},"district":{"key":"09181","name":"Landsberg am Lech","type":"Landkreis"},"federalState":{"key":"09","name":"Bayern"}},{"name":"Umhausener Str.","postalCode":"86899","locality":"Landsberg am Lech","municipality":{"key":"09181130","name":"Landsberg am Lech, GKSt","type":"Große_Kreisstadt"},"district":{"key":"09181","name":"Landsberg am Lech","type":"Landkreis"},"federalState":{"key":"09","name":"Bayern"}},{"name":"Ummendorfer Feld","postalCode":"86899","locality":"Landsberg am Lech","municipality":{"key":"09181130","name":"Landsberg am Lech, GKSt","type":"Große_Kreisstadt"},"district":{"key":"09181","name":"Landsberg am Lech","type":"Landkreis"},"federalState":{"key":"09","name":"Bayern"}},{"name":"Ummendorfer Str.","postalCode":"86899","locality":"Landsberg am Lech","municipality":{"key":"09181130","name":"Landsberg am Lech, GKSt","type":"Große_Kreisstadt"},"district":{"key":"09181","name":"Landsberg am Lech","type":"Landkreis"},"federalState":{"key":"09","name":"Bayern"}},{"name":"Untere Ringstr.","postalCode":"86899","locality":"Landsberg am Lech","municipality":{"key":"09181130","name":"Landsberg am Lech, GKSt","type":"Große_Kreisstadt"},"district":{"key":"09181","name":"Landsberg am Lech","type":"Landkreis"},"federalState":{"key":"09","name":"Bayern"}},{"name":"Valentin-Kindlin-Str.","postalCode":"86899","locality":"Landsberg am Lech","municipality":{"key":"09181130","name":"Landsberg am Lech, GKSt","type":"Große_Kreisstadt"},"district":{"key":"09181","name":"Landsberg am Lech","type":"Landkreis"},"federalState":{"key":"09","name":"Bayern"}},{"name":"Veilchenweg","postalCode":"86899","locality":"Landsberg am Lech","municipality":{"key":"09181130","name":"Landsberg am Lech, GKSt","type":"Große_Kreisstadt"},"district":{"key":"09181","name":"Landsberg am Lech","type":"Landkreis"},"federalState":{"key":"09","name":"Bayern"}},{"name":"Viktor-Frankl-Str.","postalCode":"86899","locality":"Landsberg am Lech","municipality":{"key":"09181130","name":"Landsberg am Lech, GKSt","type":"Große_Kreisstadt"},"district":{"key":"09181","name":"Landsberg am Lech","type":"Landkreis"},"federalState":{"key":"09","name":"Bayern"}},{"name":"Vogelkirschenstr.","postalCode":"86899","locality":"Landsberg am Lech","municipality":{"key":"09181130","name":"Landsberg am Lech, GKSt","type":"Große_Kreisstadt"},"district":{"key":"09181","name":"Landsberg am Lech","type":"Landkreis"},"federalState":{"key":"09","name":"Bayern"}},{"name":"Von-den-Hoff-Platz","postalCode":"86899","locality":"Landsberg am Lech","municipality":{"key":"09181130","name":"Landsberg am Lech, GKSt","type":"Große_Kreisstadt"},"district":{"key":"09181","name":"Landsberg am Lech","type":"Landkreis"},"federalState":{"key":"09","name":"Bayern"}},{"name":"Von-den-Hoff-Str.","postalCode":"86899","locality":"Landsberg am Lech","municipality":{"key":"09181130","name":"Landsberg am Lech, GKSt","type":"Große_Kreisstadt"},"district":{"key":"09181","name":"Landsberg am Lech","type":"Landkreis"},"federalState":{"key":"09","name":"Bayern"}},{"name":"Von-Eichendorff-Str.","postalCode":"86899","locality":"Landsberg am Lech","municipality":{"key":"09181130","name":"Landsberg am Lech, GKSt","type":"Große_Kreisstadt"},"district":{"key":"09181","name":"Landsberg am Lech","type":"Landkreis"},"federalState":{"key":"09","name":"Bayern"}},{"name":"Von-Eichendorff-Weg","postalCode":"86899","locality":"Landsberg am Lech","municipality":{"key":"09181130","name":"Landsberg am Lech, GKSt","type":"Große_Kreisstadt"},"district":{"key":"09181","name":"Landsberg am Lech","type":"Landkreis"},"federalState":{"key":"09","name":"Bayern"}},{"name":"Von-Kühlmann-Str.","postalCode":"86899","locality":"Landsberg am Lech","municipality":{"key":"09181130","name":"Landsberg am Lech, GKSt","type":"Große_Kreisstadt"},"district":{"key":"09181","name":"Landsberg am Lech","type":"Landkreis"},"federalState":{"key":"09","name":"Bayern"}},{"name":"Von-Leoprechting-Str.","postalCode":"86899","locality":"Landsberg am Lech","municipality":{"key":"09181130","name":"Landsberg am Lech, GKSt","type":"Große_Kreisstadt"},"district":{"key":"09181","name":"Landsberg am Lech","type":"Landkreis"},"federalState":{"key":"09","name":"Bayern"}},{"name":"Vordere Malteserstiege","postalCode":"86899","locality":"Landsberg am Lech","municipality":{"key":"09181130","name":"Landsberg am Lech, GKSt","type":"Große_Kreisstadt"},"district":{"key":"09181","name":"Landsberg am Lech","type":"Landkreis"},"federalState":{"key":"09","name":"Bayern"}},{"name":"Vordere Mühlgasse","postalCode":"86899","locality":"Landsberg am Lech","municipality":{"key":"09181130","name":"Landsberg am Lech, GKSt","type":"Große_Kreisstadt"},"district":{"key":"09181","name":"Landsberg am Lech","type":"Landkreis"},"federalState":{"key":"09","name":"Bayern"}},{"name":"Vorderer Anger","postalCode":"86899","locality":"Landsberg am Lech","municipality":{"key":"09181130","name":"Landsberg am Lech, GKSt","type":"Große_Kreisstadt"},"district":{"key":"09181","name":"Landsberg am Lech","type":"Landkreis"},"federalState":{"key":"09","name":"Bayern"}},{"name":"Welfenring","postalCode":"86974","locality":"Apfeldorf","municipality":{"key":"09181111","name":"Apfeldorf","type":"Kreisangehörige_Gemeinde"},"district":{"key":"09181","name":"Landsberg am Lech","type":"Landkreis"},"federalState":{"key":"09","name":"Bayern"}},{"name":"Wiesenweg","postalCode":"86974","locality":"Apfeldorf","municipality":{"key":"09181111","name":"Apfeldorf","type":"Kreisangehörige_Gemeinde"},"district":{"key":"09181","name":"Landsberg am Lech","type":"Landkreis"},"federalState":{"key":"09","name":"Bayern"}},{"name":"Zederbräupassage","postalCode":"86899","locality":"Landsberg am Lech","municipality":{"key":"09181130","name":"Landsberg am Lech, GKSt","type":"Große_Kreisstadt"},"district":{"key":"09181","name":"Landsberg am Lech","type":"Landkreis"},"federalState":{"key":"09","name":"Bayern"}},{"name":"Zehnerweg","postalCode":"86899","locality":"Landsberg am Lech","municipality":{"key":"09181130","name":"Landsberg am Lech, GKSt","type":"Große_Kreisstadt"},"district":{"key":"09181","name":"Landsberg am Lech","type":"Landkreis"},"federalState":{"key":"09","name":"Bayern"}},{"name":"Ziegeleistr.","postalCode":"86899","locality":"Landsberg am Lech","municipality":{"key":"09181130","name":"Landsberg am Lech, GKSt","type":"Große_Kreisstadt"},"district":{"key":"09181","name":"Landsberg am Lech","type":"Landkreis"},"federalState":{"key":"09","name":"Bayern"}},{"name":"Zugspitzweg","postalCode":"86899","locality":"Landsberg am Lech","municipality":{"key":"09181130","name":"Landsberg am Lech, GKSt","type":"Große_Kreisstadt"},"district":{"key":"09181","name":"Landsberg am Lech","type":"Landkreis"},"federalState":{"key":"09","name":"Bayern"}},{"name":"Zum Angeracker","postalCode":"86899","locality":"Landsberg am Lech","municipality":{"key":"09181130","name":"Landsberg am Lech, GKSt","type":"Große_Kreisstadt"},"district":{"key":"09181","name":"Landsberg am Lech","type":"Landkreis"},"federalState":{"key":"09","name":"Bayern"}},]