[{"name":"Ackerstr.","postalCode":"15732","locality":"Schulzendorf","municipality":{"key":"12061444","name":"Schulzendorf","type":"Kreisangehörige_Gemeinde"},"district":{"key":"12061","name":"Dahme-Spreewald","type":"Landkreis"},"federalState":{"key":"12","name":"Brandenburg"}},{"name":"Ahornstr.","postalCode":"15732","locality":"Schulzendorf","municipality":{"key":"12061444","name":"Schulzendorf","type":"Kreisangehörige_Gemeinde"},"district":{"key":"12061","name":"Dahme-Spreewald","type":"Landkreis"},"federalState":{"key":"12","name":"Brandenburg"}},{"name":"Akazienweg","postalCode":"15732","locality":"Schulzendorf","municipality":{"key":"12061444","name":"Schulzendorf","type":"Kreisangehörige_Gemeinde"},"district":{"key":"12061","name":"Dahme-Spreewald","type":"Landkreis"},"federalState":{"key":"12","name":"Brandenburg"}},{"name":"Albrecht-Dürer-Str.","postalCode":"15732","locality":"Schulzendorf","municipality":{"key":"12061444","name":"Schulzendorf","type":"Kreisangehörige_Gemeinde"},"district":{"key":"12061","name":"Dahme-Spreewald","type":"Landkreis"},"federalState":{"key":"12","name":"Brandenburg"}},{"name":"Am Abhang","postalCode":"15732","locality":"Schulzendorf","municipality":{"key":"12061444","name":"Schulzendorf","type":"Kreisangehörige_Gemeinde"},"district":{"key":"12061","name":"Dahme-Spreewald","type":"Landkreis"},"federalState":{"key":"12","name":"Brandenburg"}},{"name":"Am Grabensprung","postalCode":"15732","locality":"Schulzendorf","municipality":{"key":"12061444","name":"Schulzendorf","type":"Kreisangehörige_Gemeinde"},"district":{"key":"12061","name":"Dahme-Spreewald","type":"Landkreis"},"federalState":{"key":"12","name":"Brandenburg"}},{"name":"Am Kirschgarten","postalCode":"15732","locality":"Schulzendorf","municipality":{"key":"12061444","name":"Schulzendorf","type":"Kreisangehörige_Gemeinde"},"district":{"key":"12061","name":"Dahme-Spreewald","type":"Landkreis"},"federalState":{"key":"12","name":"Brandenburg"}},{"name":"Am Luch","postalCode":"15732","locality":"Schulzendorf","municipality":{"key":"12061444","name":"Schulzendorf","type":"Kreisangehörige_Gemeinde"},"district":{"key":"12061","name":"Dahme-Spreewald","type":"Landkreis"},"federalState":{"key":"12","name":"Brandenburg"}},{"name":"Am Schwarzen Weg","postalCode":"15732","locality":"Schulzendorf","municipality":{"key":"12061444","name":"Schulzendorf","type":"Kreisangehörige_Gemeinde"},"district":{"key":"12061","name":"Dahme-Spreewald","type":"Landkreis"},"federalState":{"key":"12","name":"Brandenburg"}},{"name":"Am Zeuthener Winkel","postalCode":"15732","locality":"Schulzendorf","municipality":{"key":"12061444","name":"Schulzendorf","type":"Kreisangehörige_Gemeinde"},"district":{"key":"12061","name":"Dahme-Spreewald","type":"Landkreis"},"federalState":{"key":"12","name":"Brandenburg"}},{"name":"An der Aue","postalCode":"15732","locality":"Schulzendorf","municipality":{"key":"12061444","name":"Schulzendorf","type":"Kreisangehörige_Gemeinde"},"district":{"key":"12061","name":"Dahme-Spreewald","type":"Landkreis"},"federalState":{"key":"12","name":"Brandenburg"}},{"name":"An der Koppel","postalCode":"15732","locality":"Schulzendorf","municipality":{"key":"12061444","name":"Schulzendorf","type":"Kreisangehörige_Gemeinde"},"district":{"key":"12061","name":"Dahme-Spreewald","type":"Landkreis"},"federalState":{"key":"12","name":"Brandenburg"}},{"name":"Asternring","postalCode":"15732","locality":"Schulzendorf","municipality":{"key":"12061444","name":"Schulzendorf","type":"Kreisangehörige_Gemeinde"},"district":{"key":"12061","name":"Dahme-Spreewald","type":"Landkreis"},"federalState":{"key":"12","name":"Brandenburg"}},{"name":"Auf dem Ritterfleck","postalCode":"15732","locality":"Schulzendorf","municipality":{"key":"12061444","name":"Schulzendorf","type":"Kreisangehörige_Gemeinde"},"district":{"key":"12061","name":"Dahme-Spreewald","type":"Landkreis"},"federalState":{"key":"12","name":"Brandenburg"}},{"name":"Auf der Höhe","postalCode":"15732","locality":"Schulzendorf","municipality":{"key":"12061444","name":"Schulzendorf","type":"Kreisangehörige_Gemeinde"},"district":{"key":"12061","name":"Dahme-Spreewald","type":"Landkreis"},"federalState":{"key":"12","name":"Brandenburg"}},{"name":"August-Bebel-Allee","postalCode":"15732","locality":"Schulzendorf","municipality":{"key":"12061444","name":"Schulzendorf","type":"Kreisangehörige_Gemeinde"},"district":{"key":"12061","name":"Dahme-Spreewald","type":"Landkreis"},"federalState":{"key":"12","name":"Brandenburg"}},{"name":"August-Bebel-Str.","postalCode":"15732","locality":"Schulzendorf","municipality":{"key":"12061444","name":"Schulzendorf","type":"Kreisangehörige_Gemeinde"},"district":{"key":"12061","name":"Dahme-Spreewald","type":"Landkreis"},"federalState":{"key":"12","name":"Brandenburg"}},{"name":"Bergstr.","postalCode":"15732","locality":"Schulzendorf","municipality":{"key":"12061444","name":"Schulzendorf","type":"Kreisangehörige_Gemeinde"},"district":{"key":"12061","name":"Dahme-Spreewald","type":"Landkreis"},"federalState":{"key":"12","name":"Brandenburg"}},{"name":"Bergweg","postalCode":"15732","locality":"Schulzendorf","municipality":{"key":"12061444","name":"Schulzendorf","type":"Kreisangehörige_Gemeinde"},"district":{"key":"12061","name":"Dahme-Spreewald","type":"Landkreis"},"federalState":{"key":"12","name":"Brandenburg"}},{"name":"Birkenweg","postalCode":"15732","locality":"Schulzendorf","municipality":{"key":"12061444","name":"Schulzendorf","type":"Kreisangehörige_Gemeinde"},"district":{"key":"12061","name":"Dahme-Spreewald","type":"Landkreis"},"federalState":{"key":"12","name":"Brandenburg"}},{"name":"Brandenburger Str.","postalCode":"15732","locality":"Schulzendorf","municipality":{"key":"12061444","name":"Schulzendorf","type":"Kreisangehörige_Gemeinde"},"district":{"key":"12061","name":"Dahme-Spreewald","type":"Landkreis"},"federalState":{"key":"12","name":"Brandenburg"}},{"name":"Braunschweiger Str.","postalCode":"15732","locality":"Schulzendorf","municipality":{"key":"12061444","name":"Schulzendorf","type":"Kreisangehörige_Gemeinde"},"district":{"key":"12061","name":"Dahme-Spreewald","type":"Landkreis"},"federalState":{"key":"12","name":"Brandenburg"}},{"name":"Bremer Str.","postalCode":"15732","locality":"Schulzendorf","municipality":{"key":"12061444","name":"Schulzendorf","type":"Kreisangehörige_Gemeinde"},"district":{"key":"12061","name":"Dahme-Spreewald","type":"Landkreis"},"federalState":{"key":"12","name":"Brandenburg"}},{"name":"Brückenstr.","postalCode":"15732","locality":"Schulzendorf","municipality":{"key":"12061444","name":"Schulzendorf","type":"Kreisangehörige_Gemeinde"},"district":{"key":"12061","name":"Dahme-Spreewald","type":"Landkreis"},"federalState":{"key":"12","name":"Brandenburg"}},{"name":"Buchenallee","postalCode":"15732","locality":"Schulzendorf","municipality":{"key":"12061444","name":"Schulzendorf","type":"Kreisangehörige_Gemeinde"},"district":{"key":"12061","name":"Dahme-Spreewald","type":"Landkreis"},"federalState":{"key":"12","name":"Brandenburg"}},{"name":"Chemnitzer Str.","postalCode":"15732","locality":"Schulzendorf","municipality":{"key":"12061444","name":"Schulzendorf","type":"Kreisangehörige_Gemeinde"},"district":{"key":"12061","name":"Dahme-Spreewald","type":"Landkreis"},"federalState":{"key":"12","name":"Brandenburg"}},{"name":"Clara-Zetkin-Str.","postalCode":"15732","locality":"Schulzendorf","municipality":{"key":"12061444","name":"Schulzendorf","type":"Kreisangehörige_Gemeinde"},"district":{"key":"12061","name":"Dahme-Spreewald","type":"Landkreis"},"federalState":{"key":"12","name":"Brandenburg"}},{"name":"Coburger Str.","postalCode":"15732","locality":"Schulzendorf","municipality":{"key":"12061444","name":"Schulzendorf","type":"Kreisangehörige_Gemeinde"},"district":{"key":"12061","name":"Dahme-Spreewald","type":"Landkreis"},"federalState":{"key":"12","name":"Brandenburg"}},{"name":"Dahlewitzer Chaussee","postalCode":"15732","locality":"Schulzendorf","municipality":{"key":"12061444","name":"Schulzendorf","type":"Kreisangehörige_Gemeinde"},"district":{"key":"12061","name":"Dahme-Spreewald","type":"Landkreis"},"federalState":{"key":"12","name":"Brandenburg"}},{"name":"Distelweg","postalCode":"15732","locality":"Schulzendorf","municipality":{"key":"12061444","name":"Schulzendorf","type":"Kreisangehörige_Gemeinde"},"district":{"key":"12061","name":"Dahme-Spreewald","type":"Landkreis"},"federalState":{"key":"12","name":"Brandenburg"}},{"name":"Dohlenstieg","postalCode":"15732","locality":"Schulzendorf","municipality":{"key":"12061444","name":"Schulzendorf","type":"Kreisangehörige_Gemeinde"},"district":{"key":"12061","name":"Dahme-Spreewald","type":"Landkreis"},"federalState":{"key":"12","name":"Brandenburg"}},{"name":"Dorfstr.","postalCode":"15732","locality":"Schulzendorf","municipality":{"key":"12061444","name":"Schulzendorf","type":"Kreisangehörige_Gemeinde"},"district":{"key":"12061","name":"Dahme-Spreewald","type":"Landkreis"},"federalState":{"key":"12","name":"Brandenburg"}},{"name":"Dresdener Str.","postalCode":"15732","locality":"Schulzendorf","municipality":{"key":"12061444","name":"Schulzendorf","type":"Kreisangehörige_Gemeinde"},"district":{"key":"12061","name":"Dahme-Spreewald","type":"Landkreis"},"federalState":{"key":"12","name":"Brandenburg"}},{"name":"Egelsteg","postalCode":"15732","locality":"Schulzendorf","municipality":{"key":"12061444","name":"Schulzendorf","type":"Kreisangehörige_Gemeinde"},"district":{"key":"12061","name":"Dahme-Spreewald","type":"Landkreis"},"federalState":{"key":"12","name":"Brandenburg"}},{"name":"Eichenallee","postalCode":"15732","locality":"Schulzendorf","municipality":{"key":"12061444","name":"Schulzendorf","type":"Kreisangehörige_Gemeinde"},"district":{"key":"12061","name":"Dahme-Spreewald","type":"Landkreis"},"federalState":{"key":"12","name":"Brandenburg"}},{"name":"Erfurter Str.","postalCode":"15732","locality":"Schulzendorf","municipality":{"key":"12061444","name":"Schulzendorf","type":"Kreisangehörige_Gemeinde"},"district":{"key":"12061","name":"Dahme-Spreewald","type":"Landkreis"},"federalState":{"key":"12","name":"Brandenburg"}},{"name":"Erlenweg","postalCode":"15732","locality":"Schulzendorf","municipality":{"key":"12061444","name":"Schulzendorf","type":"Kreisangehörige_Gemeinde"},"district":{"key":"12061","name":"Dahme-Spreewald","type":"Landkreis"},"federalState":{"key":"12","name":"Brandenburg"}},{"name":"Ernst-Thälmann-Str.","postalCode":"15732","locality":"Schulzendorf","municipality":{"key":"12061444","name":"Schulzendorf","type":"Kreisangehörige_Gemeinde"},"district":{"key":"12061","name":"Dahme-Spreewald","type":"Landkreis"},"federalState":{"key":"12","name":"Brandenburg"}},{"name":"Ernteweg","postalCode":"15732","locality":"Schulzendorf","municipality":{"key":"12061444","name":"Schulzendorf","type":"Kreisangehörige_Gemeinde"},"district":{"key":"12061","name":"Dahme-Spreewald","type":"Landkreis"},"federalState":{"key":"12","name":"Brandenburg"}},{"name":"Eschenweg","postalCode":"15732","locality":"Schulzendorf","municipality":{"key":"12061444","name":"Schulzendorf","type":"Kreisangehörige_Gemeinde"},"district":{"key":"12061","name":"Dahme-Spreewald","type":"Landkreis"},"federalState":{"key":"12","name":"Brandenburg"}},{"name":"Fasanensteg","postalCode":"15732","locality":"Schulzendorf","municipality":{"key":"12061444","name":"Schulzendorf","type":"Kreisangehörige_Gemeinde"},"district":{"key":"12061","name":"Dahme-Spreewald","type":"Landkreis"},"federalState":{"key":"12","name":"Brandenburg"}},{"name":"Finkenweg","postalCode":"15732","locality":"Schulzendorf","municipality":{"key":"12061444","name":"Schulzendorf","type":"Kreisangehörige_Gemeinde"},"district":{"key":"12061","name":"Dahme-Spreewald","type":"Landkreis"},"federalState":{"key":"12","name":"Brandenburg"}},{"name":"Fließsteig","postalCode":"15732","locality":"Schulzendorf","municipality":{"key":"12061444","name":"Schulzendorf","type":"Kreisangehörige_Gemeinde"},"district":{"key":"12061","name":"Dahme-Spreewald","type":"Landkreis"},"federalState":{"key":"12","name":"Brandenburg"}},{"name":"Fontanestr.","postalCode":"15732","locality":"Schulzendorf","municipality":{"key":"12061444","name":"Schulzendorf","type":"Kreisangehörige_Gemeinde"},"district":{"key":"12061","name":"Dahme-Spreewald","type":"Landkreis"},"federalState":{"key":"12","name":"Brandenburg"}},{"name":"Forstweg","postalCode":"15732","locality":"Schulzendorf","municipality":{"key":"12061444","name":"Schulzendorf","type":"Kreisangehörige_Gemeinde"},"district":{"key":"12061","name":"Dahme-Spreewald","type":"Landkreis"},"federalState":{"key":"12","name":"Brandenburg"}},{"name":"Freiligrathstr.","postalCode":"15732","locality":"Schulzendorf","municipality":{"key":"12061444","name":"Schulzendorf","type":"Kreisangehörige_Gemeinde"},"district":{"key":"12061","name":"Dahme-Spreewald","type":"Landkreis"},"federalState":{"key":"12","name":"Brandenburg"}},{"name":"Fritz-Reuter-Str.","postalCode":"15732","locality":"Schulzendorf","municipality":{"key":"12061444","name":"Schulzendorf","type":"Kreisangehörige_Gemeinde"},"district":{"key":"12061","name":"Dahme-Spreewald","type":"Landkreis"},"federalState":{"key":"12","name":"Brandenburg"}},{"name":"Fürstenberger Str.","postalCode":"15732","locality":"Schulzendorf","municipality":{"key":"12061444","name":"Schulzendorf","type":"Kreisangehörige_Gemeinde"},"district":{"key":"12061","name":"Dahme-Spreewald","type":"Landkreis"},"federalState":{"key":"12","name":"Brandenburg"}},{"name":"Gartenstr.","postalCode":"15732","locality":"Schulzendorf","municipality":{"key":"12061444","name":"Schulzendorf","type":"Kreisangehörige_Gemeinde"},"district":{"key":"12061","name":"Dahme-Spreewald","type":"Landkreis"},"federalState":{"key":"12","name":"Brandenburg"}},{"name":"Gerstenweg","postalCode":"15732","locality":"Schulzendorf","municipality":{"key":"12061444","name":"Schulzendorf","type":"Kreisangehörige_Gemeinde"},"district":{"key":"12061","name":"Dahme-Spreewald","type":"Landkreis"},"federalState":{"key":"12","name":"Brandenburg"}},{"name":"Getreidegasse","postalCode":"15732","locality":"Schulzendorf","municipality":{"key":"12061444","name":"Schulzendorf","type":"Kreisangehörige_Gemeinde"},"district":{"key":"12061","name":"Dahme-Spreewald","type":"Landkreis"},"federalState":{"key":"12","name":"Brandenburg"}},{"name":"Goethestr.","postalCode":"15732","locality":"Schulzendorf","municipality":{"key":"12061444","name":"Schulzendorf","type":"Kreisangehörige_Gemeinde"},"district":{"key":"12061","name":"Dahme-Spreewald","type":"Landkreis"},"federalState":{"key":"12","name":"Brandenburg"}},{"name":"Grenzstr.","postalCode":"15732","locality":"Schulzendorf","municipality":{"key":"12061444","name":"Schulzendorf","type":"Kreisangehörige_Gemeinde"},"district":{"key":"12061","name":"Dahme-Spreewald","type":"Landkreis"},"federalState":{"key":"12","name":"Brandenburg"}},{"name":"Grüne Trift","postalCode":"15732","locality":"Schulzendorf","municipality":{"key":"12061444","name":"Schulzendorf","type":"Kreisangehörige_Gemeinde"},"district":{"key":"12061","name":"Dahme-Spreewald","type":"Landkreis"},"federalState":{"key":"12","name":"Brandenburg"}},{"name":"Hafergasse","postalCode":"15732","locality":"Schulzendorf","municipality":{"key":"12061444","name":"Schulzendorf","type":"Kreisangehörige_Gemeinde"},"district":{"key":"12061","name":"Dahme-Spreewald","type":"Landkreis"},"federalState":{"key":"12","name":"Brandenburg"}},{"name":"Hamburger Str.","postalCode":"15732","locality":"Schulzendorf","municipality":{"key":"12061444","name":"Schulzendorf","type":"Kreisangehörige_Gemeinde"},"district":{"key":"12061","name":"Dahme-Spreewald","type":"Landkreis"},"federalState":{"key":"12","name":"Brandenburg"}},{"name":"Hans-Sachs-Str.","postalCode":"15732","locality":"Schulzendorf","municipality":{"key":"12061444","name":"Schulzendorf","type":"Kreisangehörige_Gemeinde"},"district":{"key":"12061","name":"Dahme-Spreewald","type":"Landkreis"},"federalState":{"key":"12","name":"Brandenburg"}},{"name":"Hebbelstr.","postalCode":"15732","locality":"Schulzendorf","municipality":{"key":"12061444","name":"Schulzendorf","type":"Kreisangehörige_Gemeinde"},"district":{"key":"12061","name":"Dahme-Spreewald","type":"Landkreis"},"federalState":{"key":"12","name":"Brandenburg"}},{"name":"Heinrich-Heine-Str.","postalCode":"15732","locality":"Schulzendorf","municipality":{"key":"12061444","name":"Schulzendorf","type":"Kreisangehörige_Gemeinde"},"district":{"key":"12061","name":"Dahme-Spreewald","type":"Landkreis"},"federalState":{"key":"12","name":"Brandenburg"}},{"name":"Heinrich-Zille-Str.","postalCode":"15732","locality":"Schulzendorf","municipality":{"key":"12061444","name":"Schulzendorf","type":"Kreisangehörige_Gemeinde"},"district":{"key":"12061","name":"Dahme-Spreewald","type":"Landkreis"},"federalState":{"key":"12","name":"Brandenburg"}},{"name":"Helgolandstr.","postalCode":"15732","locality":"Schulzendorf","municipality":{"key":"12061444","name":"Schulzendorf","type":"Kreisangehörige_Gemeinde"},"district":{"key":"12061","name":"Dahme-Spreewald","type":"Landkreis"},"federalState":{"key":"12","name":"Brandenburg"}},{"name":"Hennigsdorfer Str.","postalCode":"15732","locality":"Schulzendorf","municipality":{"key":"12061444","name":"Schulzendorf","type":"Kreisangehörige_Gemeinde"},"district":{"key":"12061","name":"Dahme-Spreewald","type":"Landkreis"},"federalState":{"key":"12","name":"Brandenburg"}},{"name":"Herweghstr.","postalCode":"15732","locality":"Schulzendorf","municipality":{"key":"12061444","name":"Schulzendorf","type":"Kreisangehörige_Gemeinde"},"district":{"key":"12061","name":"Dahme-Spreewald","type":"Landkreis"},"federalState":{"key":"12","name":"Brandenburg"}},{"name":"Hirsesteig","postalCode":"15732","locality":"Schulzendorf","municipality":{"key":"12061444","name":"Schulzendorf","type":"Kreisangehörige_Gemeinde"},"district":{"key":"12061","name":"Dahme-Spreewald","type":"Landkreis"},"federalState":{"key":"12","name":"Brandenburg"}},{"name":"Humboldtring","postalCode":"15732","locality":"Schulzendorf","municipality":{"key":"12061444","name":"Schulzendorf","type":"Kreisangehörige_Gemeinde"},"district":{"key":"12061","name":"Dahme-Spreewald","type":"Landkreis"},"federalState":{"key":"12","name":"Brandenburg"}},{"name":"Illgenstr.","postalCode":"15732","locality":"Schulzendorf","municipality":{"key":"12061444","name":"Schulzendorf","type":"Kreisangehörige_Gemeinde"},"district":{"key":"12061","name":"Dahme-Spreewald","type":"Landkreis"},"federalState":{"key":"12","name":"Brandenburg"}},{"name":"Im Gehölz","postalCode":"15732","locality":"Schulzendorf","municipality":{"key":"12061444","name":"Schulzendorf","type":"Kreisangehörige_Gemeinde"},"district":{"key":"12061","name":"Dahme-Spreewald","type":"Landkreis"},"federalState":{"key":"12","name":"Brandenburg"}},{"name":"Im Ritterschlag","postalCode":"15732","locality":"Schulzendorf","municipality":{"key":"12061444","name":"Schulzendorf","type":"Kreisangehörige_Gemeinde"},"district":{"key":"12061","name":"Dahme-Spreewald","type":"Landkreis"},"federalState":{"key":"12","name":"Brandenburg"}},{"name":"Jahnstr.","postalCode":"15732","locality":"Schulzendorf","municipality":{"key":"12061444","name":"Schulzendorf","type":"Kreisangehörige_Gemeinde"},"district":{"key":"12061","name":"Dahme-Spreewald","type":"Landkreis"},"federalState":{"key":"12","name":"Brandenburg"}},{"name":"Kantstr.","postalCode":"15732","locality":"Schulzendorf","municipality":{"key":"12061444","name":"Schulzendorf","type":"Kreisangehörige_Gemeinde"},"district":{"key":"12061","name":"Dahme-Spreewald","type":"Landkreis"},"federalState":{"key":"12","name":"Brandenburg"}},{"name":"Karl-Liebknecht-Str.","postalCode":"15732","locality":"Schulzendorf","municipality":{"key":"12061444","name":"Schulzendorf","type":"Kreisangehörige_Gemeinde"},"district":{"key":"12061","name":"Dahme-Spreewald","type":"Landkreis"},"federalState":{"key":"12","name":"Brandenburg"}},{"name":"Karl-Marx-Str.","postalCode":"15732","locality":"Schulzendorf","municipality":{"key":"12061444","name":"Schulzendorf","type":"Kreisangehörige_Gemeinde"},"district":{"key":"12061","name":"Dahme-Spreewald","type":"Landkreis"},"federalState":{"key":"12","name":"Brandenburg"}},{"name":"Kastanienweg","postalCode":"15732","locality":"Schulzendorf","municipality":{"key":"12061444","name":"Schulzendorf","type":"Kreisangehörige_Gemeinde"},"district":{"key":"12061","name":"Dahme-Spreewald","type":"Landkreis"},"federalState":{"key":"12","name":"Brandenburg"}},{"name":"Käthe-Kollwitz-Str.","postalCode":"15732","locality":"Schulzendorf","municipality":{"key":"12061444","name":"Schulzendorf","type":"Kreisangehörige_Gemeinde"},"district":{"key":"12061","name":"Dahme-Spreewald","type":"Landkreis"},"federalState":{"key":"12","name":"Brandenburg"}},{"name":"Kiefernweg","postalCode":"15732","locality":"Schulzendorf","municipality":{"key":"12061444","name":"Schulzendorf","type":"Kreisangehörige_Gemeinde"},"district":{"key":"12061","name":"Dahme-Spreewald","type":"Landkreis"},"federalState":{"key":"12","name":"Brandenburg"}},{"name":"Kieler Str.","postalCode":"15732","locality":"Schulzendorf","municipality":{"key":"12061444","name":"Schulzendorf","type":"Kreisangehörige_Gemeinde"},"district":{"key":"12061","name":"Dahme-Spreewald","type":"Landkreis"},"federalState":{"key":"12","name":"Brandenburg"}},{"name":"Kleiststr.","postalCode":"15732","locality":"Schulzendorf","municipality":{"key":"12061444","name":"Schulzendorf","type":"Kreisangehörige_Gemeinde"},"district":{"key":"12061","name":"Dahme-Spreewald","type":"Landkreis"},"federalState":{"key":"12","name":"Brandenburg"}},{"name":"Kölner Str.","postalCode":"15732","locality":"Schulzendorf","municipality":{"key":"12061444","name":"Schulzendorf","type":"Kreisangehörige_Gemeinde"},"district":{"key":"12061","name":"Dahme-Spreewald","type":"Landkreis"},"federalState":{"key":"12","name":"Brandenburg"}},{"name":"Kornblumenweg","postalCode":"15732","locality":"Schulzendorf","municipality":{"key":"12061444","name":"Schulzendorf","type":"Kreisangehörige_Gemeinde"},"district":{"key":"12061","name":"Dahme-Spreewald","type":"Landkreis"},"federalState":{"key":"12","name":"Brandenburg"}},{"name":"Kranichstr.","postalCode":"15732","locality":"Schulzendorf","municipality":{"key":"12061444","name":"Schulzendorf","type":"Kreisangehörige_Gemeinde"},"district":{"key":"12061","name":"Dahme-Spreewald","type":"Landkreis"},"federalState":{"key":"12","name":"Brandenburg"}},{"name":"Kräuterplatz","postalCode":"15732","locality":"Schulzendorf","municipality":{"key":"12061444","name":"Schulzendorf","type":"Kreisangehörige_Gemeinde"},"district":{"key":"12061","name":"Dahme-Spreewald","type":"Landkreis"},"federalState":{"key":"12","name":"Brandenburg"}},{"name":"Leipziger Platz","postalCode":"15732","locality":"Schulzendorf","municipality":{"key":"12061444","name":"Schulzendorf","type":"Kreisangehörige_Gemeinde"},"district":{"key":"12061","name":"Dahme-Spreewald","type":"Landkreis"},"federalState":{"key":"12","name":"Brandenburg"}},{"name":"Leipziger Str.","postalCode":"15732","locality":"Schulzendorf","municipality":{"key":"12061444","name":"Schulzendorf","type":"Kreisangehörige_Gemeinde"},"district":{"key":"12061","name":"Dahme-Spreewald","type":"Landkreis"},"federalState":{"key":"12","name":"Brandenburg"}},{"name":"Lessingstr.","postalCode":"15732","locality":"Schulzendorf","municipality":{"key":"12061444","name":"Schulzendorf","type":"Kreisangehörige_Gemeinde"},"district":{"key":"12061","name":"Dahme-Spreewald","type":"Landkreis"},"federalState":{"key":"12","name":"Brandenburg"}},{"name":"Lilienweg","postalCode":"15732","locality":"Schulzendorf","municipality":{"key":"12061444","name":"Schulzendorf","type":"Kreisangehörige_Gemeinde"},"district":{"key":"12061","name":"Dahme-Spreewald","type":"Landkreis"},"federalState":{"key":"12","name":"Brandenburg"}},{"name":"Lindenstr.","postalCode":"15732","locality":"Schulzendorf","municipality":{"key":"12061444","name":"Schulzendorf","type":"Kreisangehörige_Gemeinde"},"district":{"key":"12061","name":"Dahme-Spreewald","type":"Landkreis"},"federalState":{"key":"12","name":"Brandenburg"}},{"name":"Luisenstr.","postalCode":"15732","locality":"Schulzendorf","municipality":{"key":"12061444","name":"Schulzendorf","type":"Kreisangehörige_Gemeinde"},"district":{"key":"12061","name":"Dahme-Spreewald","type":"Landkreis"},"federalState":{"key":"12","name":"Brandenburg"}},{"name":"Lupinenweg","postalCode":"15732","locality":"Schulzendorf","municipality":{"key":"12061444","name":"Schulzendorf","type":"Kreisangehörige_Gemeinde"},"district":{"key":"12061","name":"Dahme-Spreewald","type":"Landkreis"},"federalState":{"key":"12","name":"Brandenburg"}},{"name":"Malvenweg","postalCode":"15732","locality":"Schulzendorf","municipality":{"key":"12061444","name":"Schulzendorf","type":"Kreisangehörige_Gemeinde"},"district":{"key":"12061","name":"Dahme-Spreewald","type":"Landkreis"},"federalState":{"key":"12","name":"Brandenburg"}},{"name":"Max-John-Str.","postalCode":"15732","locality":"Schulzendorf","municipality":{"key":"12061444","name":"Schulzendorf","type":"Kreisangehörige_Gemeinde"},"district":{"key":"12061","name":"Dahme-Spreewald","type":"Landkreis"},"federalState":{"key":"12","name":"Brandenburg"}},{"name":"Merlinring","postalCode":"15732","locality":"Schulzendorf","municipality":{"key":"12061444","name":"Schulzendorf","type":"Kreisangehörige_Gemeinde"},"district":{"key":"12061","name":"Dahme-Spreewald","type":"Landkreis"},"federalState":{"key":"12","name":"Brandenburg"}},{"name":"Miersdorfer Str.","postalCode":"15732","locality":"Schulzendorf","municipality":{"key":"12061444","name":"Schulzendorf","type":"Kreisangehörige_Gemeinde"},"district":{"key":"12061","name":"Dahme-Spreewald","type":"Landkreis"},"federalState":{"key":"12","name":"Brandenburg"}},{"name":"Mittenwalder Weg","postalCode":"15732","locality":"Schulzendorf","municipality":{"key":"12061444","name":"Schulzendorf","type":"Kreisangehörige_Gemeinde"},"district":{"key":"12061","name":"Dahme-Spreewald","type":"Landkreis"},"federalState":{"key":"12","name":"Brandenburg"}},{"name":"Mohnblumenweg","postalCode":"15732","locality":"Schulzendorf","municipality":{"key":"12061444","name":"Schulzendorf","type":"Kreisangehörige_Gemeinde"},"district":{"key":"12061","name":"Dahme-Spreewald","type":"Landkreis"},"federalState":{"key":"12","name":"Brandenburg"}},{"name":"Münchener Str.","postalCode":"15732","locality":"Schulzendorf","municipality":{"key":"12061444","name":"Schulzendorf","type":"Kreisangehörige_Gemeinde"},"district":{"key":"12061","name":"Dahme-Spreewald","type":"Landkreis"},"federalState":{"key":"12","name":"Brandenburg"}},{"name":"Otto-Krien-Platz","postalCode":"15732","locality":"Schulzendorf","municipality":{"key":"12061444","name":"Schulzendorf","type":"Kreisangehörige_Gemeinde"},"district":{"key":"12061","name":"Dahme-Spreewald","type":"Landkreis"},"federalState":{"key":"12","name":"Brandenburg"}},{"name":"Otto-Krien-Str.","postalCode":"15732","locality":"Schulzendorf","municipality":{"key":"12061444","name":"Schulzendorf","type":"Kreisangehörige_Gemeinde"},"district":{"key":"12061","name":"Dahme-Spreewald","type":"Landkreis"},"federalState":{"key":"12","name":"Brandenburg"}},{"name":"Paarmannstr.","postalCode":"15732","locality":"Schulzendorf","municipality":{"key":"12061444","name":"Schulzendorf","type":"Kreisangehörige_Gemeinde"},"district":{"key":"12061","name":"Dahme-Spreewald","type":"Landkreis"},"federalState":{"key":"12","name":"Brandenburg"}},{"name":"Puschkinstr.","postalCode":"15732","locality":"Schulzendorf","municipality":{"key":"12061444","name":"Schulzendorf","type":"Kreisangehörige_Gemeinde"},"district":{"key":"12061","name":"Dahme-Spreewald","type":"Landkreis"},"federalState":{"key":"12","name":"Brandenburg"}},{"name":"Rapsweg","postalCode":"15732","locality":"Schulzendorf","municipality":{"key":"12061444","name":"Schulzendorf","type":"Kreisangehörige_Gemeinde"},"district":{"key":"12061","name":"Dahme-Spreewald","type":"Landkreis"},"federalState":{"key":"12","name":"Brandenburg"}},{"name":"Richard-Israel-Str.","postalCode":"15732","locality":"Schulzendorf","municipality":{"key":"12061444","name":"Schulzendorf","type":"Kreisangehörige_Gemeinde"},"district":{"key":"12061","name":"Dahme-Spreewald","type":"Landkreis"},"federalState":{"key":"12","name":"Brandenburg"}},{"name":"Richard-Wagner-Str.","postalCode":"15732","locality":"Schulzendorf","municipality":{"key":"12061444","name":"Schulzendorf","type":"Kreisangehörige_Gemeinde"},"district":{"key":"12061","name":"Dahme-Spreewald","type":"Landkreis"},"federalState":{"key":"12","name":"Brandenburg"}},{"name":"Riesaer Str.","postalCode":"15732","locality":"Schulzendorf","municipality":{"key":"12061444","name":"Schulzendorf","type":"Kreisangehörige_Gemeinde"},"district":{"key":"12061","name":"Dahme-Spreewald","type":"Landkreis"},"federalState":{"key":"12","name":"Brandenburg"}},{"name":"Riesaer Strasse","postalCode":"15732","locality":"Schulzendorf","municipality":{"key":"12061444","name":"Schulzendorf","type":"Kreisangehörige_Gemeinde"},"district":{"key":"12061","name":"Dahme-Spreewald","type":"Landkreis"},"federalState":{"key":"12","name":"Brandenburg"}},{"name":"Rispenweg","postalCode":"15732","locality":"Schulzendorf","municipality":{"key":"12061444","name":"Schulzendorf","type":"Kreisangehörige_Gemeinde"},"district":{"key":"12061","name":"Dahme-Spreewald","type":"Landkreis"},"federalState":{"key":"12","name":"Brandenburg"}},{"name":"Rosa-Luxemburg-Str.","postalCode":"15732","locality":"Schulzendorf","municipality":{"key":"12061444","name":"Schulzendorf","type":"Kreisangehörige_Gemeinde"},"district":{"key":"12061","name":"Dahme-Spreewald","type":"Landkreis"},"federalState":{"key":"12","name":"Brandenburg"}},{"name":"Rudolf-Breitscheid-Str.","postalCode":"15732","locality":"Schulzendorf","municipality":{"key":"12061444","name":"Schulzendorf","type":"Kreisangehörige_Gemeinde"},"district":{"key":"12061","name":"Dahme-Spreewald","type":"Landkreis"},"federalState":{"key":"12","name":"Brandenburg"}},{"name":"Salzgitter Str.","postalCode":"15732","locality":"Schulzendorf","municipality":{"key":"12061444","name":"Schulzendorf","type":"Kreisangehörige_Gemeinde"},"district":{"key":"12061","name":"Dahme-Spreewald","type":"Landkreis"},"federalState":{"key":"12","name":"Brandenburg"}},{"name":"Schilfweg","postalCode":"15732","locality":"Schulzendorf","municipality":{"key":"12061444","name":"Schulzendorf","type":"Kreisangehörige_Gemeinde"},"district":{"key":"12061","name":"Dahme-Spreewald","type":"Landkreis"},"federalState":{"key":"12","name":"Brandenburg"}},{"name":"Schillerstr.","postalCode":"15732","locality":"Schulzendorf","municipality":{"key":"12061444","name":"Schulzendorf","type":"Kreisangehörige_Gemeinde"},"district":{"key":"12061","name":"Dahme-Spreewald","type":"Landkreis"},"federalState":{"key":"12","name":"Brandenburg"}},{"name":"Schloßstr.","postalCode":"15732","locality":"Schulzendorf","municipality":{"key":"12061444","name":"Schulzendorf","type":"Kreisangehörige_Gemeinde"},"district":{"key":"12061","name":"Dahme-Spreewald","type":"Landkreis"},"federalState":{"key":"12","name":"Brandenburg"}},{"name":"Sonnenblumenweg","postalCode":"15732","locality":"Schulzendorf","municipality":{"key":"12061444","name":"Schulzendorf","type":"Kreisangehörige_Gemeinde"},"district":{"key":"12061","name":"Dahme-Spreewald","type":"Landkreis"},"federalState":{"key":"12","name":"Brandenburg"}},{"name":"Sophienstr.","postalCode":"15732","locality":"Schulzendorf","municipality":{"key":"12061444","name":"Schulzendorf","type":"Kreisangehörige_Gemeinde"},"district":{"key":"12061","name":"Dahme-Spreewald","type":"Landkreis"},"federalState":{"key":"12","name":"Brandenburg"}},{"name":"Spartakusstr.","postalCode":"15732","locality":"Schulzendorf","municipality":{"key":"12061444","name":"Schulzendorf","type":"Kreisangehörige_Gemeinde"},"district":{"key":"12061","name":"Dahme-Spreewald","type":"Landkreis"},"federalState":{"key":"12","name":"Brandenburg"}},{"name":"Uhlandring","postalCode":"15732","locality":"Schulzendorf","municipality":{"key":"12061444","name":"Schulzendorf","type":"Kreisangehörige_Gemeinde"},"district":{"key":"12061","name":"Dahme-Spreewald","type":"Landkreis"},"federalState":{"key":"12","name":"Brandenburg"}},{"name":"Ulmenweg","postalCode":"15732","locality":"Schulzendorf","municipality":{"key":"12061444","name":"Schulzendorf","type":"Kreisangehörige_Gemeinde"},"district":{"key":"12061","name":"Dahme-Spreewald","type":"Landkreis"},"federalState":{"key":"12","name":"Brandenburg"}},{"name":"Wachtelweg","postalCode":"15732","locality":"Schulzendorf","municipality":{"key":"12061444","name":"Schulzendorf","type":"Kreisangehörige_Gemeinde"},"district":{"key":"12061","name":"Dahme-Spreewald","type":"Landkreis"},"federalState":{"key":"12","name":"Brandenburg"}},{"name":"Waldstr.","postalCode":"15732","locality":"Schulzendorf","municipality":{"key":"12061444","name":"Schulzendorf","type":"Kreisangehörige_Gemeinde"},"district":{"key":"12061","name":"Dahme-Spreewald","type":"Landkreis"},"federalState":{"key":"12","name":"Brandenburg"}},{"name":"Waltersdorfer Chaussee","postalCode":"15732","locality":"Schulzendorf","municipality":{"key":"12061444","name":"Schulzendorf","type":"Kreisangehörige_Gemeinde"},"district":{"key":"12061","name":"Dahme-Spreewald","type":"Landkreis"},"federalState":{"key":"12","name":"Brandenburg"}},{"name":"Walther-Rathenau-Str.","postalCode":"15732","locality":"Schulzendorf","municipality":{"key":"12061444","name":"Schulzendorf","type":"Kreisangehörige_Gemeinde"},"district":{"key":"12061","name":"Dahme-Spreewald","type":"Landkreis"},"federalState":{"key":"12","name":"Brandenburg"}},{"name":"Weimarer Str.","postalCode":"15732","locality":"Schulzendorf","municipality":{"key":"12061444","name":"Schulzendorf","type":"Kreisangehörige_Gemeinde"},"district":{"key":"12061","name":"Dahme-Spreewald","type":"Landkreis"},"federalState":{"key":"12","name":"Brandenburg"}},{"name":"Weizengasse","postalCode":"15732","locality":"Schulzendorf","municipality":{"key":"12061444","name":"Schulzendorf","type":"Kreisangehörige_Gemeinde"},"district":{"key":"12061","name":"Dahme-Spreewald","type":"Landkreis"},"federalState":{"key":"12","name":"Brandenburg"}},{"name":"Wiesenweg","postalCode":"15732","locality":"Schulzendorf","municipality":{"key":"12061444","name":"Schulzendorf","type":"Kreisangehörige_Gemeinde"},"district":{"key":"12061","name":"Dahme-Spreewald","type":"Landkreis"},"federalState":{"key":"12","name":"Brandenburg"}},{"name":"Wilhelm-Busch-Str.","postalCode":"15732","locality":"Schulzendorf","municipality":{"key":"12061444","name":"Schulzendorf","type":"Kreisangehörige_Gemeinde"},"district":{"key":"12061","name":"Dahme-Spreewald","type":"Landkreis"},"federalState":{"key":"12","name":"Brandenburg"}},{"name":"Wilhelm-Raabe-Str.","postalCode":"15732","locality":"Schulzendorf","municipality":{"key":"12061444","name":"Schulzendorf","type":"Kreisangehörige_Gemeinde"},"district":{"key":"12061","name":"Dahme-Spreewald","type":"Landkreis"},"federalState":{"key":"12","name":"Brandenburg"}},{"name":"Wüstemarker Weg","postalCode":"15732","locality":"Schulzendorf","municipality":{"key":"12061444","name":"Schulzendorf","type":"Kreisangehörige_Gemeinde"},"district":{"key":"12061","name":"Dahme-Spreewald","type":"Landkreis"},"federalState":{"key":"12","name":"Brandenburg"}},{"name":"Zum Mühlenschlag","postalCode":"15732","locality":"Schulzendorf","municipality":{"key":"12061444","name":"Schulzendorf","type":"Kreisangehörige_Gemeinde"},"district":{"key":"12061","name":"Dahme-Spreewald","type":"Landkreis"},"federalState":{"key":"12","name":"Brandenburg"}},]