[{"name":"Am Hagelberg","postalCode":"72356","locality":"Dautmergen","municipality":{"key":"08417014","name":"Dautmergen","type":"Kreisangehörige_Gemeinde"},"district":{"key":"08417","name":"Zollernalbkreis","type":"Landkreis"},"federalState":{"key":"08","name":"Baden-Württemberg"}},{"name":"Amselstr.","postalCode":"72356","locality":"Dautmergen","municipality":{"key":"08417014","name":"Dautmergen","type":"Kreisangehörige_Gemeinde"},"district":{"key":"08417","name":"Zollernalbkreis","type":"Landkreis"},"federalState":{"key":"08","name":"Baden-Württemberg"}},{"name":"Balinger Weg","postalCode":"72356","locality":"Dautmergen","municipality":{"key":"08417014","name":"Dautmergen","type":"Kreisangehörige_Gemeinde"},"district":{"key":"08417","name":"Zollernalbkreis","type":"Landkreis"},"federalState":{"key":"08","name":"Baden-Württemberg"}},{"name":"Blumenhalde","postalCode":"72356","locality":"Dautmergen","municipality":{"key":"08417014","name":"Dautmergen","type":"Kreisangehörige_Gemeinde"},"district":{"key":"08417","name":"Zollernalbkreis","type":"Landkreis"},"federalState":{"key":"08","name":"Baden-Württemberg"}},{"name":"Blumenstr.","postalCode":"72356","locality":"Dautmergen","municipality":{"key":"08417014","name":"Dautmergen","type":"Kreisangehörige_Gemeinde"},"district":{"key":"08417","name":"Zollernalbkreis","type":"Landkreis"},"federalState":{"key":"08","name":"Baden-Württemberg"}},{"name":"Dagelsbergweg","postalCode":"72356","locality":"Dautmergen","municipality":{"key":"08417014","name":"Dautmergen","type":"Kreisangehörige_Gemeinde"},"district":{"key":"08417","name":"Zollernalbkreis","type":"Landkreis"},"federalState":{"key":"08","name":"Baden-Württemberg"}},{"name":"Dormettinger Str.","postalCode":"72356","locality":"Dautmergen","municipality":{"key":"08417014","name":"Dautmergen","type":"Kreisangehörige_Gemeinde"},"district":{"key":"08417","name":"Zollernalbkreis","type":"Landkreis"},"federalState":{"key":"08","name":"Baden-Württemberg"}},{"name":"Finkenweg","postalCode":"72356","locality":"Dautmergen","municipality":{"key":"08417014","name":"Dautmergen","type":"Kreisangehörige_Gemeinde"},"district":{"key":"08417","name":"Zollernalbkreis","type":"Landkreis"},"federalState":{"key":"08","name":"Baden-Württemberg"}},{"name":"Gartenstr.","postalCode":"72356","locality":"Dautmergen","municipality":{"key":"08417014","name":"Dautmergen","type":"Kreisangehörige_Gemeinde"},"district":{"key":"08417","name":"Zollernalbkreis","type":"Landkreis"},"federalState":{"key":"08","name":"Baden-Württemberg"}},{"name":"Grabenstr.","postalCode":"72356","locality":"Dautmergen","municipality":{"key":"08417014","name":"Dautmergen","type":"Kreisangehörige_Gemeinde"},"district":{"key":"08417","name":"Zollernalbkreis","type":"Landkreis"},"federalState":{"key":"08","name":"Baden-Württemberg"}},{"name":"Hinter Hagel","postalCode":"72356","locality":"Dautmergen","municipality":{"key":"08417014","name":"Dautmergen","type":"Kreisangehörige_Gemeinde"},"district":{"key":"08417","name":"Zollernalbkreis","type":"Landkreis"},"federalState":{"key":"08","name":"Baden-Württemberg"}},{"name":"Kirchweg","postalCode":"72356","locality":"Dautmergen","municipality":{"key":"08417014","name":"Dautmergen","type":"Kreisangehörige_Gemeinde"},"district":{"key":"08417","name":"Zollernalbkreis","type":"Landkreis"},"federalState":{"key":"08","name":"Baden-Württemberg"}},{"name":"Leidringer Str.","postalCode":"72356","locality":"Dautmergen","municipality":{"key":"08417014","name":"Dautmergen","type":"Kreisangehörige_Gemeinde"},"district":{"key":"08417","name":"Zollernalbkreis","type":"Landkreis"},"federalState":{"key":"08","name":"Baden-Württemberg"}},{"name":"Meisenstr.","postalCode":"72356","locality":"Dautmergen","municipality":{"key":"08417014","name":"Dautmergen","type":"Kreisangehörige_Gemeinde"},"district":{"key":"08417","name":"Zollernalbkreis","type":"Landkreis"},"federalState":{"key":"08","name":"Baden-Württemberg"}},{"name":"Nelkenstr.","postalCode":"72356","locality":"Dautmergen","municipality":{"key":"08417014","name":"Dautmergen","type":"Kreisangehörige_Gemeinde"},"district":{"key":"08417","name":"Zollernalbkreis","type":"Landkreis"},"federalState":{"key":"08","name":"Baden-Württemberg"}},{"name":"Rosenstr.","postalCode":"72356","locality":"Dautmergen","municipality":{"key":"08417014","name":"Dautmergen","type":"Kreisangehörige_Gemeinde"},"district":{"key":"08417","name":"Zollernalbkreis","type":"Landkreis"},"federalState":{"key":"08","name":"Baden-Württemberg"}},{"name":"Schlichemstr.","postalCode":"72356","locality":"Dautmergen","municipality":{"key":"08417014","name":"Dautmergen","type":"Kreisangehörige_Gemeinde"},"district":{"key":"08417","name":"Zollernalbkreis","type":"Landkreis"},"federalState":{"key":"08","name":"Baden-Württemberg"}},{"name":"Schömberger Str.","postalCode":"72356","locality":"Dautmergen","municipality":{"key":"08417014","name":"Dautmergen","type":"Kreisangehörige_Gemeinde"},"district":{"key":"08417","name":"Zollernalbkreis","type":"Landkreis"},"federalState":{"key":"08","name":"Baden-Württemberg"}},{"name":"Schulstr.","postalCode":"72356","locality":"Dautmergen","municipality":{"key":"08417014","name":"Dautmergen","type":"Kreisangehörige_Gemeinde"},"district":{"key":"08417","name":"Zollernalbkreis","type":"Landkreis"},"federalState":{"key":"08","name":"Baden-Württemberg"}},{"name":"Sonnenstr.","postalCode":"72356","locality":"Dautmergen","municipality":{"key":"08417014","name":"Dautmergen","type":"Kreisangehörige_Gemeinde"},"district":{"key":"08417","name":"Zollernalbkreis","type":"Landkreis"},"federalState":{"key":"08","name":"Baden-Württemberg"}},{"name":"Steigäcker","postalCode":"72356","locality":"Dautmergen","municipality":{"key":"08417014","name":"Dautmergen","type":"Kreisangehörige_Gemeinde"},"district":{"key":"08417","name":"Zollernalbkreis","type":"Landkreis"},"federalState":{"key":"08","name":"Baden-Württemberg"}},{"name":"Täbinger Str.","postalCode":"72356","locality":"Dautmergen","municipality":{"key":"08417014","name":"Dautmergen","type":"Kreisangehörige_Gemeinde"},"district":{"key":"08417","name":"Zollernalbkreis","type":"Landkreis"},"federalState":{"key":"08","name":"Baden-Württemberg"}},{"name":"Unterer Giersbergweg","postalCode":"72356","locality":"Dautmergen","municipality":{"key":"08417014","name":"Dautmergen","type":"Kreisangehörige_Gemeinde"},"district":{"key":"08417","name":"Zollernalbkreis","type":"Landkreis"},"federalState":{"key":"08","name":"Baden-Württemberg"}},{"name":"Vollochweg","postalCode":"72356","locality":"Dautmergen","municipality":{"key":"08417014","name":"Dautmergen","type":"Kreisangehörige_Gemeinde"},"district":{"key":"08417","name":"Zollernalbkreis","type":"Landkreis"},"federalState":{"key":"08","name":"Baden-Württemberg"}},]