[{"key":"10144665","name":"Am Passwang","postalCode":"4229","locality":"Beinwil SO","commune":{"key":"2612","name":"Beinwil (SO)","shortName":"Beinwil (SO)"},"district":{"key":"1110","name":"Bezirk Thierstein"},"canton":{"key":"11","code":"SO","name":"Solothurn"},"status":"Real"},{"key":"10213541","name":"Bachmättli","postalCode":"4229","locality":"Beinwil SO","commune":{"key":"2612","name":"Beinwil (SO)","shortName":"Beinwil (SO)"},"district":{"key":"1110","name":"Bezirk Thierstein"},"canton":{"key":"11","code":"SO","name":"Solothurn"},"status":"Real"},{"key":"10054888","name":"Birchmatt","postalCode":"4229","locality":"Beinwil SO","commune":{"key":"2612","name":"Beinwil (SO)","shortName":"Beinwil (SO)"},"district":{"key":"1110","name":"Bezirk Thierstein"},"canton":{"key":"11","code":"SO","name":"Solothurn"},"status":"Real"},{"key":"10110148","name":"Breite","postalCode":"4229","locality":"Beinwil SO","commune":{"key":"2612","name":"Beinwil (SO)","shortName":"Beinwil (SO)"},"district":{"key":"1110","name":"Bezirk Thierstein"},"canton":{"key":"11","code":"SO","name":"Solothurn"},"status":"Real"},{"key":"10213545","name":"Brünnliweg","postalCode":"4229","locality":"Beinwil SO","commune":{"key":"2612","name":"Beinwil (SO)","shortName":"Beinwil (SO)"},"district":{"key":"1110","name":"Bezirk Thierstein"},"canton":{"key":"11","code":"SO","name":"Solothurn"},"status":"Real"},{"key":"10213549","name":"Chienfluhweg","postalCode":"4229","locality":"Beinwil SO","commune":{"key":"2612","name":"Beinwil (SO)","shortName":"Beinwil (SO)"},"district":{"key":"1110","name":"Bezirk Thierstein"},"canton":{"key":"11","code":"SO","name":"Solothurn"},"status":"Real"},{"key":"10175123","name":"Chratten","postalCode":"4229","locality":"Beinwil SO","commune":{"key":"2612","name":"Beinwil (SO)","shortName":"Beinwil (SO)"},"district":{"key":"1110","name":"Bezirk Thierstein"},"canton":{"key":"11","code":"SO","name":"Solothurn"},"status":"Real"},{"key":"10187913","name":"Drehersgut","postalCode":"4229","locality":"Beinwil SO","commune":{"key":"2612","name":"Beinwil (SO)","shortName":"Beinwil (SO)"},"district":{"key":"1110","name":"Bezirk Thierstein"},"canton":{"key":"11","code":"SO","name":"Solothurn"},"status":"Real"},{"key":"10213553","name":"Ebnet","postalCode":"4229","locality":"Beinwil SO","commune":{"key":"2612","name":"Beinwil (SO)","shortName":"Beinwil (SO)"},"district":{"key":"1110","name":"Bezirk Thierstein"},"canton":{"key":"11","code":"SO","name":"Solothurn"},"status":"Real"},{"key":"10213557","name":"Ebnetweg","postalCode":"4229","locality":"Beinwil SO","commune":{"key":"2612","name":"Beinwil (SO)","shortName":"Beinwil (SO)"},"district":{"key":"1110","name":"Bezirk Thierstein"},"canton":{"key":"11","code":"SO","name":"Solothurn"},"status":"Real"},{"key":"10213561","name":"Fenningerweg","postalCode":"4229","locality":"Beinwil SO","commune":{"key":"2612","name":"Beinwil (SO)","shortName":"Beinwil (SO)"},"district":{"key":"1110","name":"Bezirk Thierstein"},"canton":{"key":"11","code":"SO","name":"Solothurn"},"status":"Real"},{"key":"10213565","name":"Frenen","postalCode":"4229","locality":"Beinwil SO","commune":{"key":"2612","name":"Beinwil (SO)","shortName":"Beinwil (SO)"},"district":{"key":"1110","name":"Bezirk Thierstein"},"canton":{"key":"11","code":"SO","name":"Solothurn"},"status":"Real"},{"key":"10026155","name":"Glashütte","postalCode":"4229","locality":"Beinwil SO","commune":{"key":"2612","name":"Beinwil (SO)","shortName":"Beinwil (SO)"},"district":{"key":"1110","name":"Bezirk Thierstein"},"canton":{"key":"11","code":"SO","name":"Solothurn"},"status":"Real"},{"key":"10122728","name":"Grosser Kasten","postalCode":"4229","locality":"Beinwil SO","commune":{"key":"2612","name":"Beinwil (SO)","shortName":"Beinwil (SO)"},"district":{"key":"1110","name":"Bezirk Thierstein"},"canton":{"key":"11","code":"SO","name":"Solothurn"},"status":"Real"},{"key":"10026156","name":"Hagmatt","postalCode":"4229","locality":"Beinwil SO","commune":{"key":"2612","name":"Beinwil (SO)","shortName":"Beinwil (SO)"},"district":{"key":"1110","name":"Bezirk Thierstein"},"canton":{"key":"11","code":"SO","name":"Solothurn"},"status":"Real"},{"key":"10213569","name":"Hammerschmiede","postalCode":"4229","locality":"Beinwil SO","commune":{"key":"2612","name":"Beinwil (SO)","shortName":"Beinwil (SO)"},"district":{"key":"1110","name":"Bezirk Thierstein"},"canton":{"key":"11","code":"SO","name":"Solothurn"},"status":"Real"},{"key":"10214805","name":"Heueli","postalCode":"4229","locality":"Beinwil SO","commune":{"key":"2612","name":"Beinwil (SO)","shortName":"Beinwil (SO)"},"district":{"key":"1110","name":"Bezirk Thierstein"},"canton":{"key":"11","code":"SO","name":"Solothurn"},"status":"Real"},{"key":"10213574","name":"Heueli","postalCode":"4229","locality":"Beinwil SO","commune":{"key":"2612","name":"Beinwil (SO)","shortName":"Beinwil (SO)"},"district":{"key":"1110","name":"Bezirk Thierstein"},"canton":{"key":"11","code":"SO","name":"Solothurn"},"status":"Real"},{"key":"10054889","name":"Hinter Erzberg","postalCode":"4229","locality":"Beinwil SO","commune":{"key":"2612","name":"Beinwil (SO)","shortName":"Beinwil (SO)"},"district":{"key":"1110","name":"Bezirk Thierstein"},"canton":{"key":"11","code":"SO","name":"Solothurn"},"status":"Real"},{"key":"10213577","name":"Hof Bilstein","postalCode":"4229","locality":"Beinwil SO","commune":{"key":"2612","name":"Beinwil (SO)","shortName":"Beinwil (SO)"},"district":{"key":"1110","name":"Bezirk Thierstein"},"canton":{"key":"11","code":"SO","name":"Solothurn"},"status":"Real"},{"key":"10213581","name":"Hof Birtisgraben","postalCode":"4229","locality":"Beinwil SO","commune":{"key":"2612","name":"Beinwil (SO)","shortName":"Beinwil (SO)"},"district":{"key":"1110","name":"Bezirk Thierstein"},"canton":{"key":"11","code":"SO","name":"Solothurn"},"status":"Real"},{"key":"10088841","name":"Hof Bodenschür","postalCode":"4229","locality":"Beinwil SO","commune":{"key":"2612","name":"Beinwil (SO)","shortName":"Beinwil (SO)"},"district":{"key":"1110","name":"Bezirk Thierstein"},"canton":{"key":"11","code":"SO","name":"Solothurn"},"status":"Real"},{"key":"10163106","name":"Hof Bogenthal","postalCode":"4229","locality":"Beinwil SO","commune":{"key":"2612","name":"Beinwil (SO)","shortName":"Beinwil (SO)"},"district":{"key":"1110","name":"Bezirk Thierstein"},"canton":{"key":"11","code":"SO","name":"Solothurn"},"status":"Real"},{"key":"10213585","name":"Hof Chratten","postalCode":"4229","locality":"Beinwil SO","commune":{"key":"2612","name":"Beinwil (SO)","shortName":"Beinwil (SO)"},"district":{"key":"1110","name":"Bezirk Thierstein"},"canton":{"key":"11","code":"SO","name":"Solothurn"},"status":"Real"},{"key":"10054890","name":"Hof Dürrenast","postalCode":"4229","locality":"Beinwil SO","commune":{"key":"2612","name":"Beinwil (SO)","shortName":"Beinwil (SO)"},"district":{"key":"1110","name":"Bezirk Thierstein"},"canton":{"key":"11","code":"SO","name":"Solothurn"},"status":"Real"},{"key":"10213589","name":"Hof Girlang","postalCode":"4229","locality":"Beinwil SO","commune":{"key":"2612","name":"Beinwil (SO)","shortName":"Beinwil (SO)"},"district":{"key":"1110","name":"Bezirk Thierstein"},"canton":{"key":"11","code":"SO","name":"Solothurn"},"status":"Real"},{"key":"10026158","name":"Hof Gritt","postalCode":"4229","locality":"Beinwil SO","commune":{"key":"2612","name":"Beinwil (SO)","shortName":"Beinwil (SO)"},"district":{"key":"1110","name":"Bezirk Thierstein"},"canton":{"key":"11","code":"SO","name":"Solothurn"},"status":"Real"},{"key":"10213596","name":"Hof Grosser Kasten","postalCode":"4229","locality":"Beinwil SO","commune":{"key":"2612","name":"Beinwil (SO)","shortName":"Beinwil (SO)"},"district":{"key":"1110","name":"Bezirk Thierstein"},"canton":{"key":"11","code":"SO","name":"Solothurn"},"status":"Real"},{"key":"10213600","name":"Hof Güpfi","postalCode":"4229","locality":"Beinwil SO","commune":{"key":"2612","name":"Beinwil (SO)","shortName":"Beinwil (SO)"},"district":{"key":"1110","name":"Bezirk Thierstein"},"canton":{"key":"11","code":"SO","name":"Solothurn"},"status":"Real"},{"key":"10213604","name":"Hof Hinter Birtis","postalCode":"4229","locality":"Beinwil SO","commune":{"key":"2612","name":"Beinwil (SO)","shortName":"Beinwil (SO)"},"district":{"key":"1110","name":"Bezirk Thierstein"},"canton":{"key":"11","code":"SO","name":"Solothurn"},"status":"Real"},{"key":"10213608","name":"Hof Hirni","postalCode":"4229","locality":"Beinwil SO","commune":{"key":"2612","name":"Beinwil (SO)","shortName":"Beinwil (SO)"},"district":{"key":"1110","name":"Bezirk Thierstein"},"canton":{"key":"11","code":"SO","name":"Solothurn"},"status":"Real"},{"key":"10213612","name":"Hof Mittlere Rotmatt","postalCode":"4229","locality":"Beinwil SO","commune":{"key":"2612","name":"Beinwil (SO)","shortName":"Beinwil (SO)"},"district":{"key":"1110","name":"Bezirk Thierstein"},"canton":{"key":"11","code":"SO","name":"Solothurn"},"status":"Real"},{"key":"10175124","name":"Hof Nieder Möschbach","postalCode":"4229","locality":"Beinwil SO","commune":{"key":"2612","name":"Beinwil (SO)","shortName":"Beinwil (SO)"},"district":{"key":"1110","name":"Bezirk Thierstein"},"canton":{"key":"11","code":"SO","name":"Solothurn"},"status":"Real"},{"key":"10213616","name":"Hof Ober Bös","postalCode":"4229","locality":"Beinwil SO","commune":{"key":"2612","name":"Beinwil (SO)","shortName":"Beinwil (SO)"},"district":{"key":"1110","name":"Bezirk Thierstein"},"canton":{"key":"11","code":"SO","name":"Solothurn"},"status":"Real"},{"key":"10213620","name":"Hof Obere Buche","postalCode":"4229","locality":"Beinwil SO","commune":{"key":"2612","name":"Beinwil (SO)","shortName":"Beinwil (SO)"},"district":{"key":"1110","name":"Bezirk Thierstein"},"canton":{"key":"11","code":"SO","name":"Solothurn"},"status":"Real"},{"key":"10063746","name":"Hof Ober Rattis","postalCode":"4229","locality":"Beinwil SO","commune":{"key":"2612","name":"Beinwil (SO)","shortName":"Beinwil (SO)"},"district":{"key":"1110","name":"Bezirk Thierstein"},"canton":{"key":"11","code":"SO","name":"Solothurn"},"status":"Real"},{"key":"10214529","name":"Hof Rain","postalCode":"4229","locality":"Beinwil SO","commune":{"key":"2612","name":"Beinwil (SO)","shortName":"Beinwil (SO)"},"district":{"key":"1110","name":"Bezirk Thierstein"},"canton":{"key":"11","code":"SO","name":"Solothurn"},"status":"Real"},{"key":"10103413","name":"Hof Rempis","postalCode":"4229","locality":"Beinwil SO","commune":{"key":"2612","name":"Beinwil (SO)","shortName":"Beinwil (SO)"},"district":{"key":"1110","name":"Bezirk Thierstein"},"canton":{"key":"11","code":"SO","name":"Solothurn"},"status":"Real"},{"key":"10181466","name":"Hof Säge","postalCode":"4229","locality":"Beinwil SO","commune":{"key":"2612","name":"Beinwil (SO)","shortName":"Beinwil (SO)"},"district":{"key":"1110","name":"Bezirk Thierstein"},"canton":{"key":"11","code":"SO","name":"Solothurn"},"status":"Real"},{"key":"10214536","name":"Hof Schachen","postalCode":"4229","locality":"Beinwil SO","commune":{"key":"2612","name":"Beinwil (SO)","shortName":"Beinwil (SO)"},"district":{"key":"1110","name":"Bezirk Thierstein"},"canton":{"key":"11","code":"SO","name":"Solothurn"},"status":"Real"},{"key":"10214541","name":"Hof Schiltloch","postalCode":"4229","locality":"Beinwil SO","commune":{"key":"2612","name":"Beinwil (SO)","shortName":"Beinwil (SO)"},"district":{"key":"1110","name":"Bezirk Thierstein"},"canton":{"key":"11","code":"SO","name":"Solothurn"},"status":"Real"},{"key":"10026159","name":"Hof Sonnenhalb","postalCode":"4229","locality":"Beinwil SO","commune":{"key":"2612","name":"Beinwil (SO)","shortName":"Beinwil (SO)"},"district":{"key":"1110","name":"Bezirk Thierstein"},"canton":{"key":"11","code":"SO","name":"Solothurn"},"status":"Real"},{"key":"10088842","name":"Hof Sonnmatt","postalCode":"4229","locality":"Beinwil SO","commune":{"key":"2612","name":"Beinwil (SO)","shortName":"Beinwil (SO)"},"district":{"key":"1110","name":"Bezirk Thierstein"},"canton":{"key":"11","code":"SO","name":"Solothurn"},"status":"Real"},{"key":"10214544","name":"Hof Stucketen","postalCode":"4229","locality":"Beinwil SO","commune":{"key":"2612","name":"Beinwil (SO)","shortName":"Beinwil (SO)"},"district":{"key":"1110","name":"Bezirk Thierstein"},"canton":{"key":"11","code":"SO","name":"Solothurn"},"status":"Real"},{"key":"10026160","name":"Hof Trogberg","postalCode":"4229","locality":"Beinwil SO","commune":{"key":"2612","name":"Beinwil (SO)","shortName":"Beinwil (SO)"},"district":{"key":"1110","name":"Bezirk Thierstein"},"canton":{"key":"11","code":"SO","name":"Solothurn"},"status":"Real"},{"key":"10214549","name":"Hof Unter Bös","postalCode":"4229","locality":"Beinwil SO","commune":{"key":"2612","name":"Beinwil (SO)","shortName":"Beinwil (SO)"},"district":{"key":"1110","name":"Bezirk Thierstein"},"canton":{"key":"11","code":"SO","name":"Solothurn"},"status":"Real"},{"key":"10214555","name":"Hof Untere Buche","postalCode":"4229","locality":"Beinwil SO","commune":{"key":"2612","name":"Beinwil (SO)","shortName":"Beinwil (SO)"},"district":{"key":"1110","name":"Bezirk Thierstein"},"canton":{"key":"11","code":"SO","name":"Solothurn"},"status":"Real"},{"key":"10214558","name":"Hof Vorder Birtis","postalCode":"4229","locality":"Beinwil SO","commune":{"key":"2612","name":"Beinwil (SO)","shortName":"Beinwil (SO)"},"district":{"key":"1110","name":"Bezirk Thierstein"},"canton":{"key":"11","code":"SO","name":"Solothurn"},"status":"Real"},{"key":"10214563","name":"Hof Vorder Erzberg","postalCode":"4229","locality":"Beinwil SO","commune":{"key":"2612","name":"Beinwil (SO)","shortName":"Beinwil (SO)"},"district":{"key":"1110","name":"Bezirk Thierstein"},"canton":{"key":"11","code":"SO","name":"Solothurn"},"status":"Real"},{"key":"10214565","name":"Hof Waldenstein","postalCode":"4229","locality":"Beinwil SO","commune":{"key":"2612","name":"Beinwil (SO)","shortName":"Beinwil (SO)"},"district":{"key":"1110","name":"Bezirk Thierstein"},"canton":{"key":"11","code":"SO","name":"Solothurn"},"status":"Real"},{"key":"10214835","name":"Hohe Winde","postalCode":"4229","locality":"Beinwil SO","commune":{"key":"2612","name":"Beinwil (SO)","shortName":"Beinwil (SO)"},"district":{"key":"1110","name":"Bezirk Thierstein"},"canton":{"key":"11","code":"SO","name":"Solothurn"},"status":"Real"},{"key":"10212842","name":"Hüttebodenweg","postalCode":"4229","locality":"Beinwil SO","commune":{"key":"2612","name":"Beinwil (SO)","shortName":"Beinwil (SO)"},"district":{"key":"1110","name":"Bezirk Thierstein"},"canton":{"key":"11","code":"SO","name":"Solothurn"},"status":"Real"},{"key":"10026161","name":"Joggenhus","postalCode":"4229","locality":"Beinwil SO","commune":{"key":"2612","name":"Beinwil (SO)","shortName":"Beinwil (SO)"},"district":{"key":"1110","name":"Bezirk Thierstein"},"canton":{"key":"11","code":"SO","name":"Solothurn"},"status":"Real"},{"key":"10054891","name":"Kirchmatt","postalCode":"4229","locality":"Beinwil SO","commune":{"key":"2612","name":"Beinwil (SO)","shortName":"Beinwil (SO)"},"district":{"key":"1110","name":"Bezirk Thierstein"},"canton":{"key":"11","code":"SO","name":"Solothurn"},"status":"Real"},{"key":"10212847","name":"Klein Geissberg","postalCode":"4229","locality":"Beinwil SO","commune":{"key":"2612","name":"Beinwil (SO)","shortName":"Beinwil (SO)"},"district":{"key":"1110","name":"Bezirk Thierstein"},"canton":{"key":"11","code":"SO","name":"Solothurn"},"status":"Real"},{"key":"10063747","name":"Kloster","postalCode":"4229","locality":"Beinwil SO","commune":{"key":"2612","name":"Beinwil (SO)","shortName":"Beinwil (SO)"},"district":{"key":"1110","name":"Bezirk Thierstein"},"canton":{"key":"11","code":"SO","name":"Solothurn"},"status":"Real"},{"key":"10110149","name":"Klosterhof","postalCode":"4229","locality":"Beinwil SO","commune":{"key":"2612","name":"Beinwil (SO)","shortName":"Beinwil (SO)"},"district":{"key":"1110","name":"Bezirk Thierstein"},"canton":{"key":"11","code":"SO","name":"Solothurn"},"status":"Real"},{"key":"10212851","name":"Lüsselweg","postalCode":"4229","locality":"Beinwil SO","commune":{"key":"2612","name":"Beinwil (SO)","shortName":"Beinwil (SO)"},"district":{"key":"1110","name":"Bezirk Thierstein"},"canton":{"key":"11","code":"SO","name":"Solothurn"},"status":"Real"},{"key":"10026162","name":"Mittler Möschbach","postalCode":"4229","locality":"Beinwil SO","commune":{"key":"2612","name":"Beinwil (SO)","shortName":"Beinwil (SO)"},"district":{"key":"1110","name":"Bezirk Thierstein"},"canton":{"key":"11","code":"SO","name":"Solothurn"},"status":"Real"},{"key":"10214862","name":"Möschbachweg","postalCode":"4229","locality":"Beinwil SO","commune":{"key":"2612","name":"Beinwil (SO)","shortName":"Beinwil (SO)"},"district":{"key":"1110","name":"Bezirk Thierstein"},"canton":{"key":"11","code":"SO","name":"Solothurn"},"status":"Real"},{"key":"10124518","name":"Nägelirain","postalCode":"4229","locality":"Beinwil SO","commune":{"key":"2612","name":"Beinwil (SO)","shortName":"Beinwil (SO)"},"district":{"key":"1110","name":"Bezirk Thierstein"},"canton":{"key":"11","code":"SO","name":"Solothurn"},"status":"Real"},{"key":"10121146","name":"Neuhof","postalCode":"4229","locality":"Beinwil SO","commune":{"key":"2612","name":"Beinwil (SO)","shortName":"Beinwil (SO)"},"district":{"key":"1110","name":"Bezirk Thierstein"},"canton":{"key":"11","code":"SO","name":"Solothurn"},"status":"Real"},{"key":"10212856","name":"Neuhüsli","postalCode":"4229","locality":"Beinwil SO","commune":{"key":"2612","name":"Beinwil (SO)","shortName":"Beinwil (SO)"},"district":{"key":"1110","name":"Bezirk Thierstein"},"canton":{"key":"11","code":"SO","name":"Solothurn"},"status":"Real"},{"key":"10212860","name":"Neuhüslischürli","postalCode":"4229","locality":"Beinwil SO","commune":{"key":"2612","name":"Beinwil (SO)","shortName":"Beinwil (SO)"},"district":{"key":"1110","name":"Bezirk Thierstein"},"canton":{"key":"11","code":"SO","name":"Solothurn"},"status":"Real"},{"key":"10054893","name":"Nüselboden","postalCode":"4229","locality":"Beinwil SO","commune":{"key":"2612","name":"Beinwil (SO)","shortName":"Beinwil (SO)"},"district":{"key":"1110","name":"Bezirk Thierstein"},"canton":{"key":"11","code":"SO","name":"Solothurn"},"status":"Real"},{"key":"10212864","name":"Ober Chratten","postalCode":"4229","locality":"Beinwil SO","commune":{"key":"2612","name":"Beinwil (SO)","shortName":"Beinwil (SO)"},"district":{"key":"1110","name":"Bezirk Thierstein"},"canton":{"key":"11","code":"SO","name":"Solothurn"},"status":"Real"},{"key":"10103414","name":"Obere Käserei","postalCode":"4229","locality":"Beinwil SO","commune":{"key":"2612","name":"Beinwil (SO)","shortName":"Beinwil (SO)"},"district":{"key":"1110","name":"Bezirk Thierstein"},"canton":{"key":"11","code":"SO","name":"Solothurn"},"status":"Real"},{"key":"10249560","name":"Ofenhölzli","postalCode":"4229","locality":"Beinwil SO","commune":{"key":"2612","name":"Beinwil (SO)","shortName":"Beinwil (SO)"},"district":{"key":"1110","name":"Bezirk Thierstein"},"canton":{"key":"11","code":"SO","name":"Solothurn"},"status":"Real"},{"key":"10063749","name":"Passwangstrasse","postalCode":"4229","locality":"Beinwil SO","commune":{"key":"2612","name":"Beinwil (SO)","shortName":"Beinwil (SO)"},"district":{"key":"1110","name":"Bezirk Thierstein"},"canton":{"key":"11","code":"SO","name":"Solothurn"},"status":"Real"},{"key":"10212868","name":"Rappenbodenweg","postalCode":"4229","locality":"Beinwil SO","commune":{"key":"2612","name":"Beinwil (SO)","shortName":"Beinwil (SO)"},"district":{"key":"1110","name":"Bezirk Thierstein"},"canton":{"key":"11","code":"SO","name":"Solothurn"},"status":"Real"},{"key":"10212873","name":"Rattisweg","postalCode":"4229","locality":"Beinwil SO","commune":{"key":"2612","name":"Beinwil (SO)","shortName":"Beinwil (SO)"},"district":{"key":"1110","name":"Bezirk Thierstein"},"canton":{"key":"11","code":"SO","name":"Solothurn"},"status":"Real"},{"key":"10214866","name":"Ricola Kräutergarten","postalCode":"4229","locality":"Beinwil SO","commune":{"key":"2612","name":"Beinwil (SO)","shortName":"Beinwil (SO)"},"district":{"key":"1110","name":"Bezirk Thierstein"},"canton":{"key":"11","code":"SO","name":"Solothurn"},"status":"Real"},{"key":"10026165","name":"Rossboden","postalCode":"4229","locality":"Beinwil SO","commune":{"key":"2612","name":"Beinwil (SO)","shortName":"Beinwil (SO)"},"district":{"key":"1110","name":"Bezirk Thierstein"},"canton":{"key":"11","code":"SO","name":"Solothurn"},"status":"Real"},{"key":"10212882","name":"Rossweidli","postalCode":"4229","locality":"Beinwil SO","commune":{"key":"2612","name":"Beinwil (SO)","shortName":"Beinwil (SO)"},"district":{"key":"1110","name":"Bezirk Thierstein"},"canton":{"key":"11","code":"SO","name":"Solothurn"},"status":"Real"},{"key":"10214613","name":"Rüttibödeliweg","postalCode":"4229","locality":"Beinwil SO","commune":{"key":"2612","name":"Beinwil (SO)","shortName":"Beinwil (SO)"},"district":{"key":"1110","name":"Bezirk Thierstein"},"canton":{"key":"11","code":"SO","name":"Solothurn"},"status":"Real"},{"key":"10212891","name":"Schachenweid","postalCode":"4229","locality":"Beinwil SO","commune":{"key":"2612","name":"Beinwil (SO)","shortName":"Beinwil (SO)"},"district":{"key":"1110","name":"Bezirk Thierstein"},"canton":{"key":"11","code":"SO","name":"Solothurn"},"status":"Real"},{"key":"10088846","name":"Schänzli","postalCode":"4229","locality":"Beinwil SO","commune":{"key":"2612","name":"Beinwil (SO)","shortName":"Beinwil (SO)"},"district":{"key":"1110","name":"Bezirk Thierstein"},"canton":{"key":"11","code":"SO","name":"Solothurn"},"status":"Real"},{"key":"10214621","name":"Schattenbergweg","postalCode":"4229","locality":"Beinwil SO","commune":{"key":"2612","name":"Beinwil (SO)","shortName":"Beinwil (SO)"},"district":{"key":"1110","name":"Bezirk Thierstein"},"canton":{"key":"11","code":"SO","name":"Solothurn"},"status":"Real"},{"key":"10214625","name":"Scheltenstrasse","postalCode":"4229","locality":"Beinwil SO","commune":{"key":"2612","name":"Beinwil (SO)","shortName":"Beinwil (SO)"},"district":{"key":"1110","name":"Bezirk Thierstein"},"canton":{"key":"11","code":"SO","name":"Solothurn"},"status":"Real"},{"key":"10175125","name":"Schemelhof","postalCode":"4229","locality":"Beinwil SO","commune":{"key":"2612","name":"Beinwil (SO)","shortName":"Beinwil (SO)"},"district":{"key":"1110","name":"Bezirk Thierstein"},"canton":{"key":"11","code":"SO","name":"Solothurn"},"status":"Real"},{"key":"10055128","name":"Schilt","postalCode":"4229","locality":"Beinwil SO","commune":{"key":"2612","name":"Beinwil (SO)","shortName":"Beinwil (SO)"},"district":{"key":"1110","name":"Bezirk Thierstein"},"canton":{"key":"11","code":"SO","name":"Solothurn"},"status":"Real"},{"key":"10054895","name":"Schlegel","postalCode":"4229","locality":"Beinwil SO","commune":{"key":"2612","name":"Beinwil (SO)","shortName":"Beinwil (SO)"},"district":{"key":"1110","name":"Bezirk Thierstein"},"canton":{"key":"11","code":"SO","name":"Solothurn"},"status":"Real"},{"key":"10063750","name":"Schlössli","postalCode":"4229","locality":"Beinwil SO","commune":{"key":"2612","name":"Beinwil (SO)","shortName":"Beinwil (SO)"},"district":{"key":"1110","name":"Bezirk Thierstein"},"canton":{"key":"11","code":"SO","name":"Solothurn"},"status":"Real"},{"key":"10214627","name":"Schmittli","postalCode":"4229","locality":"Beinwil SO","commune":{"key":"2612","name":"Beinwil (SO)","shortName":"Beinwil (SO)"},"district":{"key":"1110","name":"Bezirk Thierstein"},"canton":{"key":"11","code":"SO","name":"Solothurn"},"status":"Real"},{"key":"10144664","name":"Schulhaus","postalCode":"4229","locality":"Beinwil SO","commune":{"key":"2612","name":"Beinwil (SO)","shortName":"Beinwil (SO)"},"district":{"key":"1110","name":"Bezirk Thierstein"},"canton":{"key":"11","code":"SO","name":"Solothurn"},"status":"Real"},{"key":"10214631","name":"Schürli","postalCode":"4229","locality":"Beinwil SO","commune":{"key":"2612","name":"Beinwil (SO)","shortName":"Beinwil (SO)"},"district":{"key":"1110","name":"Bezirk Thierstein"},"canton":{"key":"11","code":"SO","name":"Solothurn"},"status":"Real"},{"key":"10026167","name":"Schwang","postalCode":"4229","locality":"Beinwil SO","commune":{"key":"2612","name":"Beinwil (SO)","shortName":"Beinwil (SO)"},"district":{"key":"1110","name":"Bezirk Thierstein"},"canton":{"key":"11","code":"SO","name":"Solothurn"},"status":"Real"},{"key":"10054896","name":"Schwängi","postalCode":"4229","locality":"Beinwil SO","commune":{"key":"2612","name":"Beinwil (SO)","shortName":"Beinwil (SO)"},"district":{"key":"1110","name":"Bezirk Thierstein"},"canton":{"key":"11","code":"SO","name":"Solothurn"},"status":"Real"},{"key":"10214635","name":"Sennhütteweg","postalCode":"4229","locality":"Beinwil SO","commune":{"key":"2612","name":"Beinwil (SO)","shortName":"Beinwil (SO)"},"district":{"key":"1110","name":"Bezirk Thierstein"},"canton":{"key":"11","code":"SO","name":"Solothurn"},"status":"Real"},{"key":"10026168","name":"Sonnenheim","postalCode":"4229","locality":"Beinwil SO","commune":{"key":"2612","name":"Beinwil (SO)","shortName":"Beinwil (SO)"},"district":{"key":"1110","name":"Bezirk Thierstein"},"canton":{"key":"11","code":"SO","name":"Solothurn"},"status":"Real"},{"key":"10054897","name":"Sonnenrain","postalCode":"4229","locality":"Beinwil SO","commune":{"key":"2612","name":"Beinwil (SO)","shortName":"Beinwil (SO)"},"district":{"key":"1110","name":"Bezirk Thierstein"},"canton":{"key":"11","code":"SO","name":"Solothurn"},"status":"Real"},{"key":"10124073","name":"Sonnenschein","postalCode":"4229","locality":"Beinwil SO","commune":{"key":"2612","name":"Beinwil (SO)","shortName":"Beinwil (SO)"},"district":{"key":"1110","name":"Bezirk Thierstein"},"canton":{"key":"11","code":"SO","name":"Solothurn"},"status":"Real"},{"key":"10214639","name":"Trogberg","postalCode":"4229","locality":"Beinwil SO","commune":{"key":"2612","name":"Beinwil (SO)","shortName":"Beinwil (SO)"},"district":{"key":"1110","name":"Bezirk Thierstein"},"canton":{"key":"11","code":"SO","name":"Solothurn"},"status":"Real"},{"key":"10214643","name":"Truembergweg","postalCode":"4229","locality":"Beinwil SO","commune":{"key":"2612","name":"Beinwil (SO)","shortName":"Beinwil (SO)"},"district":{"key":"1110","name":"Bezirk Thierstein"},"canton":{"key":"11","code":"SO","name":"Solothurn"},"status":"Real"},{"key":"10214647","name":"Unter Chratten","postalCode":"4229","locality":"Beinwil SO","commune":{"key":"2612","name":"Beinwil (SO)","shortName":"Beinwil (SO)"},"district":{"key":"1110","name":"Bezirk Thierstein"},"canton":{"key":"11","code":"SO","name":"Solothurn"},"status":"Real"},{"key":"10089849","name":"Untere Buche","postalCode":"4229","locality":"Beinwil SO","commune":{"key":"2612","name":"Beinwil (SO)","shortName":"Beinwil (SO)"},"district":{"key":"1110","name":"Bezirk Thierstein"},"canton":{"key":"11","code":"SO","name":"Solothurn"},"status":"Real"},{"key":"10181458","name":"Unteres Schilt","postalCode":"4229","locality":"Beinwil SO","commune":{"key":"2612","name":"Beinwil (SO)","shortName":"Beinwil (SO)"},"district":{"key":"1110","name":"Bezirk Thierstein"},"canton":{"key":"11","code":"SO","name":"Solothurn"},"status":"Real"},{"key":"10122550","name":"Unter Rattis","postalCode":"4229","locality":"Beinwil SO","commune":{"key":"2612","name":"Beinwil (SO)","shortName":"Beinwil (SO)"},"district":{"key":"1110","name":"Bezirk Thierstein"},"canton":{"key":"11","code":"SO","name":"Solothurn"},"status":"Real"},{"key":"10214651","name":"Weidschürli","postalCode":"4229","locality":"Beinwil SO","commune":{"key":"2612","name":"Beinwil (SO)","shortName":"Beinwil (SO)"},"district":{"key":"1110","name":"Bezirk Thierstein"},"canton":{"key":"11","code":"SO","name":"Solothurn"},"status":"Real"},{"key":"10214655","name":"Windegrabenweg","postalCode":"4229","locality":"Beinwil SO","commune":{"key":"2612","name":"Beinwil (SO)","shortName":"Beinwil (SO)"},"district":{"key":"1110","name":"Bezirk Thierstein"},"canton":{"key":"11","code":"SO","name":"Solothurn"},"status":"Real"},{"key":"10214659","name":"Ziegelhütteweg","postalCode":"4229","locality":"Beinwil SO","commune":{"key":"2612","name":"Beinwil (SO)","shortName":"Beinwil (SO)"},"district":{"key":"1110","name":"Bezirk Thierstein"},"canton":{"key":"11","code":"SO","name":"Solothurn"},"status":"Real"},]