[{"name":"Am Mühlberg","postalCode":"18249","locality":"Tarnow","municipality":{"key":"13072104","name":"Tarnow","type":"Kreisangehörige_Gemeinde"},"district":{"key":"13072","name":"Landkreis Rostock","type":"Landkreis"},"federalState":{"key":"13","name":"Mecklenburg-Vorpommern"}},{"name":"Ausbau Süd","postalCode":"18249","locality":"Tarnow","municipality":{"key":"13072104","name":"Tarnow","type":"Kreisangehörige_Gemeinde"},"district":{"key":"13072","name":"Landkreis Rostock","type":"Landkreis"},"federalState":{"key":"13","name":"Mecklenburg-Vorpommern"}},{"name":"Boitiner Str.","postalCode":"18249","locality":"Tarnow","municipality":{"key":"13072104","name":"Tarnow","type":"Kreisangehörige_Gemeinde"},"district":{"key":"13072","name":"Landkreis Rostock","type":"Landkreis"},"federalState":{"key":"13","name":"Mecklenburg-Vorpommern"}},{"name":"Bützower Str.","postalCode":"18249","locality":"Tarnow","municipality":{"key":"13072104","name":"Tarnow","type":"Kreisangehörige_Gemeinde"},"district":{"key":"13072","name":"Landkreis Rostock","type":"Landkreis"},"federalState":{"key":"13","name":"Mecklenburg-Vorpommern"}},{"name":"Dorfstr.","postalCode":"18249","locality":"Tarnow","municipality":{"key":"13072104","name":"Tarnow","type":"Kreisangehörige_Gemeinde"},"district":{"key":"13072","name":"Landkreis Rostock","type":"Landkreis"},"federalState":{"key":"13","name":"Mecklenburg-Vorpommern"}},{"name":"Gartenstr.","postalCode":"18249","locality":"Tarnow","municipality":{"key":"13072104","name":"Tarnow","type":"Kreisangehörige_Gemeinde"},"district":{"key":"13072","name":"Landkreis Rostock","type":"Landkreis"},"federalState":{"key":"13","name":"Mecklenburg-Vorpommern"}},{"name":"Gillhorstschneise","postalCode":"18249","locality":"Tarnow","municipality":{"key":"13072104","name":"Tarnow","type":"Kreisangehörige_Gemeinde"},"district":{"key":"13072","name":"Landkreis Rostock","type":"Landkreis"},"federalState":{"key":"13","name":"Mecklenburg-Vorpommern"}},{"name":"Grüner Winkel","postalCode":"18249","locality":"Tarnow","municipality":{"key":"13072104","name":"Tarnow","type":"Kreisangehörige_Gemeinde"},"district":{"key":"13072","name":"Landkreis Rostock","type":"Landkreis"},"federalState":{"key":"13","name":"Mecklenburg-Vorpommern"}},{"name":"Hauptstr.","postalCode":"18249","locality":"Tarnow","municipality":{"key":"13072104","name":"Tarnow","type":"Kreisangehörige_Gemeinde"},"district":{"key":"13072","name":"Landkreis Rostock","type":"Landkreis"},"federalState":{"key":"13","name":"Mecklenburg-Vorpommern"}},{"name":"Hofstr.","postalCode":"18249","locality":"Tarnow","municipality":{"key":"13072104","name":"Tarnow","type":"Kreisangehörige_Gemeinde"},"district":{"key":"13072","name":"Landkreis Rostock","type":"Landkreis"},"federalState":{"key":"13","name":"Mecklenburg-Vorpommern"}},{"name":"Im Eck","postalCode":"18249","locality":"Tarnow","municipality":{"key":"13072104","name":"Tarnow","type":"Kreisangehörige_Gemeinde"},"district":{"key":"13072","name":"Landkreis Rostock","type":"Landkreis"},"federalState":{"key":"13","name":"Mecklenburg-Vorpommern"}},{"name":"Klosterstr.","postalCode":"18249","locality":"Tarnow","municipality":{"key":"13072104","name":"Tarnow","type":"Kreisangehörige_Gemeinde"},"district":{"key":"13072","name":"Landkreis Rostock","type":"Landkreis"},"federalState":{"key":"13","name":"Mecklenburg-Vorpommern"}},{"name":"Lindenberg","postalCode":"18249","locality":"Tarnow","municipality":{"key":"13072104","name":"Tarnow","type":"Kreisangehörige_Gemeinde"},"district":{"key":"13072","name":"Landkreis Rostock","type":"Landkreis"},"federalState":{"key":"13","name":"Mecklenburg-Vorpommern"}},{"name":"Pappelallee","postalCode":"18249","locality":"Tarnow","municipality":{"key":"13072104","name":"Tarnow","type":"Kreisangehörige_Gemeinde"},"district":{"key":"13072","name":"Landkreis Rostock","type":"Landkreis"},"federalState":{"key":"13","name":"Mecklenburg-Vorpommern"}},{"name":"Schulgang","postalCode":"18249","locality":"Tarnow","municipality":{"key":"13072104","name":"Tarnow","type":"Kreisangehörige_Gemeinde"},"district":{"key":"13072","name":"Landkreis Rostock","type":"Landkreis"},"federalState":{"key":"13","name":"Mecklenburg-Vorpommern"}},{"name":"Seestr.","postalCode":"18249","locality":"Tarnow","municipality":{"key":"13072104","name":"Tarnow","type":"Kreisangehörige_Gemeinde"},"district":{"key":"13072","name":"Landkreis Rostock","type":"Landkreis"},"federalState":{"key":"13","name":"Mecklenburg-Vorpommern"}},{"name":"Tarnower Weg","postalCode":"18249","locality":"Tarnow","municipality":{"key":"13072104","name":"Tarnow","type":"Kreisangehörige_Gemeinde"},"district":{"key":"13072","name":"Landkreis Rostock","type":"Landkreis"},"federalState":{"key":"13","name":"Mecklenburg-Vorpommern"}},{"name":"Warnower Schneise","postalCode":"18249","locality":"Tarnow","municipality":{"key":"13072104","name":"Tarnow","type":"Kreisangehörige_Gemeinde"},"district":{"key":"13072","name":"Landkreis Rostock","type":"Landkreis"},"federalState":{"key":"13","name":"Mecklenburg-Vorpommern"}},{"name":"Warnower Str.","postalCode":"18249","locality":"Tarnow","municipality":{"key":"13072104","name":"Tarnow","type":"Kreisangehörige_Gemeinde"},"district":{"key":"13072","name":"Landkreis Rostock","type":"Landkreis"},"federalState":{"key":"13","name":"Mecklenburg-Vorpommern"}},{"name":"Zur Heuring","postalCode":"18249","locality":"Tarnow","municipality":{"key":"13072104","name":"Tarnow","type":"Kreisangehörige_Gemeinde"},"district":{"key":"13072","name":"Landkreis Rostock","type":"Landkreis"},"federalState":{"key":"13","name":"Mecklenburg-Vorpommern"}},]