[{"name":"Am Neuen Weiher","postalCode":"54662","locality":"Herforst","municipality":{"key":"07232050","name":"Herforst","type":"Kreisangehörige_Gemeinde"},"district":{"key":"07232","name":"Eifelkreis Bitburg-Prüm","type":"Landkreis"},"federalState":{"key":"07","name":"Rheinland-Pfalz"}},{"name":"Buchenweg","postalCode":"54662","locality":"Herforst","municipality":{"key":"07232050","name":"Herforst","type":"Kreisangehörige_Gemeinde"},"district":{"key":"07232","name":"Eifelkreis Bitburg-Prüm","type":"Landkreis"},"federalState":{"key":"07","name":"Rheinland-Pfalz"}},{"name":"Erlenweg","postalCode":"54662","locality":"Herforst","municipality":{"key":"07232050","name":"Herforst","type":"Kreisangehörige_Gemeinde"},"district":{"key":"07232","name":"Eifelkreis Bitburg-Prüm","type":"Landkreis"},"federalState":{"key":"07","name":"Rheinland-Pfalz"}},{"name":"Gartenstr.","postalCode":"54662","locality":"Herforst","municipality":{"key":"07232050","name":"Herforst","type":"Kreisangehörige_Gemeinde"},"district":{"key":"07232","name":"Eifelkreis Bitburg-Prüm","type":"Landkreis"},"federalState":{"key":"07","name":"Rheinland-Pfalz"}},{"name":"Grünstr.","postalCode":"54662","locality":"Herforst","municipality":{"key":"07232050","name":"Herforst","type":"Kreisangehörige_Gemeinde"},"district":{"key":"07232","name":"Eifelkreis Bitburg-Prüm","type":"Landkreis"},"federalState":{"key":"07","name":"Rheinland-Pfalz"}},{"name":"Im Dietzengarten","postalCode":"54662","locality":"Herforst","municipality":{"key":"07232050","name":"Herforst","type":"Kreisangehörige_Gemeinde"},"district":{"key":"07232","name":"Eifelkreis Bitburg-Prüm","type":"Landkreis"},"federalState":{"key":"07","name":"Rheinland-Pfalz"}},{"name":"Johannisstr.","postalCode":"54662","locality":"Herforst","municipality":{"key":"07232050","name":"Herforst","type":"Kreisangehörige_Gemeinde"},"district":{"key":"07232","name":"Eifelkreis Bitburg-Prüm","type":"Landkreis"},"federalState":{"key":"07","name":"Rheinland-Pfalz"}},{"name":"Katzstr.","postalCode":"54662","locality":"Herforst","municipality":{"key":"07232050","name":"Herforst","type":"Kreisangehörige_Gemeinde"},"district":{"key":"07232","name":"Eifelkreis Bitburg-Prüm","type":"Landkreis"},"federalState":{"key":"07","name":"Rheinland-Pfalz"}},{"name":"Kiefernweg","postalCode":"54662","locality":"Herforst","municipality":{"key":"07232050","name":"Herforst","type":"Kreisangehörige_Gemeinde"},"district":{"key":"07232","name":"Eifelkreis Bitburg-Prüm","type":"Landkreis"},"federalState":{"key":"07","name":"Rheinland-Pfalz"}},{"name":"Leimerts Heck","postalCode":"54662","locality":"Herforst","municipality":{"key":"07232050","name":"Herforst","type":"Kreisangehörige_Gemeinde"},"district":{"key":"07232","name":"Eifelkreis Bitburg-Prüm","type":"Landkreis"},"federalState":{"key":"07","name":"Rheinland-Pfalz"}},{"name":"Lindenstr.","postalCode":"54662","locality":"Herforst","municipality":{"key":"07232050","name":"Herforst","type":"Kreisangehörige_Gemeinde"},"district":{"key":"07232","name":"Eifelkreis Bitburg-Prüm","type":"Landkreis"},"federalState":{"key":"07","name":"Rheinland-Pfalz"}},{"name":"Margaritenstr.","postalCode":"54662","locality":"Herforst","municipality":{"key":"07232050","name":"Herforst","type":"Kreisangehörige_Gemeinde"},"district":{"key":"07232","name":"Eifelkreis Bitburg-Prüm","type":"Landkreis"},"federalState":{"key":"07","name":"Rheinland-Pfalz"}},{"name":"Peter-Meier-Str.","postalCode":"54662","locality":"Herforst","municipality":{"key":"07232050","name":"Herforst","type":"Kreisangehörige_Gemeinde"},"district":{"key":"07232","name":"Eifelkreis Bitburg-Prüm","type":"Landkreis"},"federalState":{"key":"07","name":"Rheinland-Pfalz"}},{"name":"Poststr.","postalCode":"54662","locality":"Herforst","municipality":{"key":"07232050","name":"Herforst","type":"Kreisangehörige_Gemeinde"},"district":{"key":"07232","name":"Eifelkreis Bitburg-Prüm","type":"Landkreis"},"federalState":{"key":"07","name":"Rheinland-Pfalz"}},{"name":"Ringstr.","postalCode":"54662","locality":"Herforst","municipality":{"key":"07232050","name":"Herforst","type":"Kreisangehörige_Gemeinde"},"district":{"key":"07232","name":"Eifelkreis Bitburg-Prüm","type":"Landkreis"},"federalState":{"key":"07","name":"Rheinland-Pfalz"}},{"name":"Römerstr.","postalCode":"54662","locality":"Herforst","municipality":{"key":"07232050","name":"Herforst","type":"Kreisangehörige_Gemeinde"},"district":{"key":"07232","name":"Eifelkreis Bitburg-Prüm","type":"Landkreis"},"federalState":{"key":"07","name":"Rheinland-Pfalz"}},{"name":"Rosenstr.","postalCode":"54662","locality":"Herforst","municipality":{"key":"07232050","name":"Herforst","type":"Kreisangehörige_Gemeinde"},"district":{"key":"07232","name":"Eifelkreis Bitburg-Prüm","type":"Landkreis"},"federalState":{"key":"07","name":"Rheinland-Pfalz"}},{"name":"Schulweg","postalCode":"54662","locality":"Herforst","municipality":{"key":"07232050","name":"Herforst","type":"Kreisangehörige_Gemeinde"},"district":{"key":"07232","name":"Eifelkreis Bitburg-Prüm","type":"Landkreis"},"federalState":{"key":"07","name":"Rheinland-Pfalz"}},{"name":"St.-Eligiusstr.","postalCode":"54662","locality":"Herforst","municipality":{"key":"07232050","name":"Herforst","type":"Kreisangehörige_Gemeinde"},"district":{"key":"07232","name":"Eifelkreis Bitburg-Prüm","type":"Landkreis"},"federalState":{"key":"07","name":"Rheinland-Pfalz"}},{"name":"Tannenstr.","postalCode":"54662","locality":"Herforst","municipality":{"key":"07232050","name":"Herforst","type":"Kreisangehörige_Gemeinde"},"district":{"key":"07232","name":"Eifelkreis Bitburg-Prüm","type":"Landkreis"},"federalState":{"key":"07","name":"Rheinland-Pfalz"}},{"name":"Waldstr.","postalCode":"54662","locality":"Herforst","municipality":{"key":"07232050","name":"Herforst","type":"Kreisangehörige_Gemeinde"},"district":{"key":"07232","name":"Eifelkreis Bitburg-Prüm","type":"Landkreis"},"federalState":{"key":"07","name":"Rheinland-Pfalz"}},{"name":"Wenzelhausener Weg","postalCode":"54662","locality":"Herforst","municipality":{"key":"07232050","name":"Herforst","type":"Kreisangehörige_Gemeinde"},"district":{"key":"07232","name":"Eifelkreis Bitburg-Prüm","type":"Landkreis"},"federalState":{"key":"07","name":"Rheinland-Pfalz"}},{"name":"Zum Wolfskreuz","postalCode":"54662","locality":"Herforst","municipality":{"key":"07232050","name":"Herforst","type":"Kreisangehörige_Gemeinde"},"district":{"key":"07232","name":"Eifelkreis Bitburg-Prüm","type":"Landkreis"},"federalState":{"key":"07","name":"Rheinland-Pfalz"}},]