[{"name":"Auf dem Kornfeld","postalCode":"57612","locality":"Eichelhardt","municipality":{"key":"07132022","name":"Eichelhardt","type":"Kreisangehörige_Gemeinde"},"district":{"key":"07132","name":"Altenkirchen (Westerwald)","type":"Landkreis"},"federalState":{"key":"07","name":"Rheinland-Pfalz"}},{"name":"Dr. Heinrich-Stein-Str.","postalCode":"57612","locality":"Eichelhardt","municipality":{"key":"07132022","name":"Eichelhardt","type":"Kreisangehörige_Gemeinde"},"district":{"key":"07132","name":"Altenkirchen (Westerwald)","type":"Landkreis"},"federalState":{"key":"07","name":"Rheinland-Pfalz"}},{"name":"Gartenstr.","postalCode":"57612","locality":"Eichelhardt","municipality":{"key":"07132022","name":"Eichelhardt","type":"Kreisangehörige_Gemeinde"},"district":{"key":"07132","name":"Altenkirchen (Westerwald)","type":"Landkreis"},"federalState":{"key":"07","name":"Rheinland-Pfalz"}},{"name":"Goldwiese","postalCode":"57612","locality":"Eichelhardt","municipality":{"key":"07132022","name":"Eichelhardt","type":"Kreisangehörige_Gemeinde"},"district":{"key":"07132","name":"Altenkirchen (Westerwald)","type":"Landkreis"},"federalState":{"key":"07","name":"Rheinland-Pfalz"}},{"name":"Hauptstr.","postalCode":"57612","locality":"Eichelhardt","municipality":{"key":"07132022","name":"Eichelhardt","type":"Kreisangehörige_Gemeinde"},"district":{"key":"07132","name":"Altenkirchen (Westerwald)","type":"Landkreis"},"federalState":{"key":"07","name":"Rheinland-Pfalz"}},{"name":"Hofstr.","postalCode":"57612","locality":"Eichelhardt","municipality":{"key":"07132022","name":"Eichelhardt","type":"Kreisangehörige_Gemeinde"},"district":{"key":"07132","name":"Altenkirchen (Westerwald)","type":"Landkreis"},"federalState":{"key":"07","name":"Rheinland-Pfalz"}},{"name":"Im alten Garten","postalCode":"57612","locality":"Eichelhardt","municipality":{"key":"07132022","name":"Eichelhardt","type":"Kreisangehörige_Gemeinde"},"district":{"key":"07132","name":"Altenkirchen (Westerwald)","type":"Landkreis"},"federalState":{"key":"07","name":"Rheinland-Pfalz"}},{"name":"Kirchstr.","postalCode":"57612","locality":"Eichelhardt","municipality":{"key":"07132022","name":"Eichelhardt","type":"Kreisangehörige_Gemeinde"},"district":{"key":"07132","name":"Altenkirchen (Westerwald)","type":"Landkreis"},"federalState":{"key":"07","name":"Rheinland-Pfalz"}},{"name":"Mittelstr.","postalCode":"57612","locality":"Eichelhardt","municipality":{"key":"07132022","name":"Eichelhardt","type":"Kreisangehörige_Gemeinde"},"district":{"key":"07132","name":"Altenkirchen (Westerwald)","type":"Landkreis"},"federalState":{"key":"07","name":"Rheinland-Pfalz"}},{"name":"Petersbacher Str.","postalCode":"57612","locality":"Eichelhardt","municipality":{"key":"07132022","name":"Eichelhardt","type":"Kreisangehörige_Gemeinde"},"district":{"key":"07132","name":"Altenkirchen (Westerwald)","type":"Landkreis"},"federalState":{"key":"07","name":"Rheinland-Pfalz"}},{"name":"Raiffeisenstr.","postalCode":"57612","locality":"Eichelhardt","municipality":{"key":"07132022","name":"Eichelhardt","type":"Kreisangehörige_Gemeinde"},"district":{"key":"07132","name":"Altenkirchen (Westerwald)","type":"Landkreis"},"federalState":{"key":"07","name":"Rheinland-Pfalz"}},{"name":"Schulstr.","postalCode":"57612","locality":"Eichelhardt","municipality":{"key":"07132022","name":"Eichelhardt","type":"Kreisangehörige_Gemeinde"},"district":{"key":"07132","name":"Altenkirchen (Westerwald)","type":"Landkreis"},"federalState":{"key":"07","name":"Rheinland-Pfalz"}},{"name":"Siegener Str.","postalCode":"57612","locality":"Eichelhardt","municipality":{"key":"07132022","name":"Eichelhardt","type":"Kreisangehörige_Gemeinde"},"district":{"key":"07132","name":"Altenkirchen (Westerwald)","type":"Landkreis"},"federalState":{"key":"07","name":"Rheinland-Pfalz"}},{"name":"Silberstr.","postalCode":"57612","locality":"Eichelhardt","municipality":{"key":"07132022","name":"Eichelhardt","type":"Kreisangehörige_Gemeinde"},"district":{"key":"07132","name":"Altenkirchen (Westerwald)","type":"Landkreis"},"federalState":{"key":"07","name":"Rheinland-Pfalz"}},{"name":"Volkerzer Weg","postalCode":"57612","locality":"Eichelhardt","municipality":{"key":"07132022","name":"Eichelhardt","type":"Kreisangehörige_Gemeinde"},"district":{"key":"07132","name":"Altenkirchen (Westerwald)","type":"Landkreis"},"federalState":{"key":"07","name":"Rheinland-Pfalz"}},{"name":"Zum Hasenborn","postalCode":"57612","locality":"Eichelhardt","municipality":{"key":"07132022","name":"Eichelhardt","type":"Kreisangehörige_Gemeinde"},"district":{"key":"07132","name":"Altenkirchen (Westerwald)","type":"Landkreis"},"federalState":{"key":"07","name":"Rheinland-Pfalz"}},]