[{"name":"Adolf-Ahlers-Str.","postalCode":"26427","locality":"Esens","municipality":{"key":"03462003","name":"Esens, Stadt","type":"Stadt"},"district":{"key":"03462","name":"Wittmund","type":"Landkreis"},"federalState":{"key":"03","name":"Niedersachsen"}},{"name":"Agnes-von-Bentheim-Str.","postalCode":"26427","locality":"Esens","municipality":{"key":"03462003","name":"Esens, Stadt","type":"Stadt"},"district":{"key":"03462","name":"Wittmund","type":"Landkreis"},"federalState":{"key":"03","name":"Niedersachsen"}},{"name":"Alte Gasthausstr.","postalCode":"26427","locality":"Esens","municipality":{"key":"03462003","name":"Esens, Stadt","type":"Stadt"},"district":{"key":"03462","name":"Wittmund","type":"Landkreis"},"federalState":{"key":"03","name":"Niedersachsen"}},{"name":"Alter Postweg","postalCode":"26427","locality":"Esens","municipality":{"key":"03462003","name":"Esens, Stadt","type":"Stadt"},"district":{"key":"03462","name":"Wittmund","type":"Landkreis"},"federalState":{"key":"03","name":"Niedersachsen"}},{"name":"Alter Sielweg","postalCode":"26427","locality":"Esens","municipality":{"key":"03462003","name":"Esens, Stadt","type":"Stadt"},"district":{"key":"03462","name":"Wittmund","type":"Landkreis"},"federalState":{"key":"03","name":"Niedersachsen"}},{"name":"Alte Steige","postalCode":"73349","locality":"Wiesensteig","municipality":{"key":"08117058","name":"Wiesensteig, Stadt","type":"Stadt"},"district":{"key":"08117","name":"Göppingen","type":"Landkreis"},"federalState":{"key":"08","name":"Baden-Württemberg"}},{"name":"Am alten Amtshaus","postalCode":"26427","locality":"Esens","municipality":{"key":"03462003","name":"Esens, Stadt","type":"Stadt"},"district":{"key":"03462","name":"Wittmund","type":"Landkreis"},"federalState":{"key":"03","name":"Niedersachsen"}},{"name":"Am Bahnhof","postalCode":"26427","locality":"Esens","municipality":{"key":"03462003","name":"Esens, Stadt","type":"Stadt"},"district":{"key":"03462","name":"Wittmund","type":"Landkreis"},"federalState":{"key":"03","name":"Niedersachsen"}},{"name":"Am Hafen","postalCode":"26427","locality":"Esens","municipality":{"key":"03462003","name":"Esens, Stadt","type":"Stadt"},"district":{"key":"03462","name":"Wittmund","type":"Landkreis"},"federalState":{"key":"03","name":"Niedersachsen"}},{"name":"Am Kajedeich","postalCode":"26427","locality":"Esens","municipality":{"key":"03462003","name":"Esens, Stadt","type":"Stadt"},"district":{"key":"03462","name":"Wittmund","type":"Landkreis"},"federalState":{"key":"03","name":"Niedersachsen"}},{"name":"Am Krankenhaus","postalCode":"26427","locality":"Esens","municipality":{"key":"03462003","name":"Esens, Stadt","type":"Stadt"},"district":{"key":"03462","name":"Wittmund","type":"Landkreis"},"federalState":{"key":"03","name":"Niedersachsen"}},{"name":"Am Markt","postalCode":"26427","locality":"Esens","municipality":{"key":"03462003","name":"Esens, Stadt","type":"Stadt"},"district":{"key":"03462","name":"Wittmund","type":"Landkreis"},"federalState":{"key":"03","name":"Niedersachsen"}},{"name":"Am Sportplatz","postalCode":"26427","locality":"Esens","municipality":{"key":"03462003","name":"Esens, Stadt","type":"Stadt"},"district":{"key":"03462","name":"Wittmund","type":"Landkreis"},"federalState":{"key":"03","name":"Niedersachsen"}},{"name":"Am Steinham","postalCode":"26427","locality":"Esens","municipality":{"key":"03462003","name":"Esens, Stadt","type":"Stadt"},"district":{"key":"03462","name":"Wittmund","type":"Landkreis"},"federalState":{"key":"03","name":"Niedersachsen"}},{"name":"Am Teich","postalCode":"23909","locality":"Giesensdorf","municipality":{"key":"01053033","name":"Giesensdorf","type":"Kreisangehörige_Gemeinde"},"district":{"key":"01053","name":"Herzogtum Lauenburg","type":"Kreis"},"federalState":{"key":"01","name":"Schleswig-Holstein"}},{"name":"Am Wattenmeer","postalCode":"26427","locality":"Esens","municipality":{"key":"03462003","name":"Esens, Stadt","type":"Stadt"},"district":{"key":"03462","name":"Wittmund","type":"Landkreis"},"federalState":{"key":"03","name":"Niedersachsen"}},{"name":"An den Wermutsgärten","postalCode":"26427","locality":"Esens","municipality":{"key":"03462003","name":"Esens, Stadt","type":"Stadt"},"district":{"key":"03462","name":"Wittmund","type":"Landkreis"},"federalState":{"key":"03","name":"Niedersachsen"}},{"name":"An der Bücke","postalCode":"26427","locality":"Esens","municipality":{"key":"03462003","name":"Esens, Stadt","type":"Stadt"},"district":{"key":"03462","name":"Wittmund","type":"Landkreis"},"federalState":{"key":"03","name":"Niedersachsen"}},{"name":"An der Eisenbahn","postalCode":"26427","locality":"Esens","municipality":{"key":"03462003","name":"Esens, Stadt","type":"Stadt"},"district":{"key":"03462","name":"Wittmund","type":"Landkreis"},"federalState":{"key":"03","name":"Niedersachsen"}},{"name":"Anton-Esen-Str.","postalCode":"26427","locality":"Esens","municipality":{"key":"03462003","name":"Esens, Stadt","type":"Stadt"},"district":{"key":"03462","name":"Wittmund","type":"Landkreis"},"federalState":{"key":"03","name":"Niedersachsen"}},{"name":"Auf der Breite","postalCode":"73349","locality":"Wiesensteig","municipality":{"key":"08117058","name":"Wiesensteig, Stadt","type":"Stadt"},"district":{"key":"08117","name":"Göppingen","type":"Landkreis"},"federalState":{"key":"08","name":"Baden-Württemberg"}},{"name":"Auricher Str.","postalCode":"26427","locality":"Esens","municipality":{"key":"03462003","name":"Esens, Stadt","type":"Stadt"},"district":{"key":"03462","name":"Wittmund","type":"Landkreis"},"federalState":{"key":"03","name":"Niedersachsen"}},{"name":"Bahnhofstr.","postalCode":"26427","locality":"Esens","municipality":{"key":"03462003","name":"Esens, Stadt","type":"Stadt"},"district":{"key":"03462","name":"Wittmund","type":"Landkreis"},"federalState":{"key":"03","name":"Niedersachsen"}},{"name":"Bahnhofstr.","postalCode":"73349","locality":"Wiesensteig","municipality":{"key":"08117058","name":"Wiesensteig, Stadt","type":"Stadt"},"district":{"key":"08117","name":"Göppingen","type":"Landkreis"},"federalState":{"key":"08","name":"Baden-Württemberg"}},{"name":"Barkelweg","postalCode":"26427","locality":"Esens","municipality":{"key":"03462003","name":"Esens, Stadt","type":"Stadt"},"district":{"key":"03462","name":"Wittmund","type":"Landkreis"},"federalState":{"key":"03","name":"Niedersachsen"}},{"name":"Bensersieler Str.","postalCode":"26427","locality":"Esens","municipality":{"key":"03462003","name":"Esens, Stadt","type":"Stadt"},"district":{"key":"03462","name":"Wittmund","type":"Landkreis"},"federalState":{"key":"03","name":"Niedersachsen"}},{"name":"Bergstr.","postalCode":"56459","locality":"Stahlhofen am Wiesensee","municipality":{"key":"07143293","name":"Stahlhofen am Wiesensee","type":"Kreisangehörige_Gemeinde"},"district":{"key":"07143","name":"Westerwaldkreis","type":"Landkreis"},"federalState":{"key":"07","name":"Rheinland-Pfalz"}},{"name":"Bergstr.","postalCode":"73349","locality":"Wiesensteig","municipality":{"key":"08117058","name":"Wiesensteig, Stadt","type":"Stadt"},"district":{"key":"08117","name":"Göppingen","type":"Landkreis"},"federalState":{"key":"08","name":"Baden-Württemberg"}},{"name":"Berliner Str.","postalCode":"26427","locality":"Esens","municipality":{"key":"03462003","name":"Esens, Stadt","type":"Stadt"},"district":{"key":"03462","name":"Wittmund","type":"Landkreis"},"federalState":{"key":"03","name":"Niedersachsen"}},{"name":"Birkholzweg","postalCode":"73349","locality":"Wiesensteig","municipality":{"key":"08117058","name":"Wiesensteig, Stadt","type":"Stadt"},"district":{"key":"08117","name":"Göppingen","type":"Landkreis"},"federalState":{"key":"08","name":"Baden-Württemberg"}},{"name":"Bläsihöfe","postalCode":"73349","locality":"Wiesensteig","municipality":{"key":"08117058","name":"Wiesensteig, Stadt","type":"Stadt"},"district":{"key":"08117","name":"Göppingen","type":"Landkreis"},"federalState":{"key":"08","name":"Baden-Württemberg"}},{"name":"Bokumer Weg","postalCode":"26427","locality":"Esens","municipality":{"key":"03462003","name":"Esens, Stadt","type":"Stadt"},"district":{"key":"03462","name":"Wittmund","type":"Landkreis"},"federalState":{"key":"03","name":"Niedersachsen"}},{"name":"Borngass","postalCode":"56459","locality":"Stahlhofen am Wiesensee","municipality":{"key":"07143293","name":"Stahlhofen am Wiesensee","type":"Kreisangehörige_Gemeinde"},"district":{"key":"07143","name":"Westerwaldkreis","type":"Landkreis"},"federalState":{"key":"07","name":"Rheinland-Pfalz"}},{"name":"Böttcherstr.","postalCode":"26427","locality":"Esens","municipality":{"key":"03462003","name":"Esens, Stadt","type":"Stadt"},"district":{"key":"03462","name":"Wittmund","type":"Landkreis"},"federalState":{"key":"03","name":"Niedersachsen"}},{"name":"Breslauer Str.","postalCode":"26427","locality":"Esens","municipality":{"key":"03462003","name":"Esens, Stadt","type":"Stadt"},"district":{"key":"03462","name":"Wittmund","type":"Landkreis"},"federalState":{"key":"03","name":"Niedersachsen"}},{"name":"Bronnensträßle,Rudertälesweg","postalCode":"73349","locality":"Wiesensteig","municipality":{"key":"08117058","name":"Wiesensteig, Stadt","type":"Stadt"},"district":{"key":"08117","name":"Göppingen","type":"Landkreis"},"federalState":{"key":"08","name":"Baden-Württemberg"}},{"name":"Brunnengärten","postalCode":"73349","locality":"Wiesensteig","municipality":{"key":"08117058","name":"Wiesensteig, Stadt","type":"Stadt"},"district":{"key":"08117","name":"Göppingen","type":"Landkreis"},"federalState":{"key":"08","name":"Baden-Württemberg"}},{"name":"Brunnenstr.","postalCode":"73349","locality":"Wiesensteig","municipality":{"key":"08117058","name":"Wiesensteig, Stadt","type":"Stadt"},"district":{"key":"08117","name":"Göppingen","type":"Landkreis"},"federalState":{"key":"08","name":"Baden-Württemberg"}},{"name":"Buchenweg","postalCode":"56459","locality":"Stahlhofen am Wiesensee","municipality":{"key":"07143293","name":"Stahlhofen am Wiesensee","type":"Kreisangehörige_Gemeinde"},"district":{"key":"07143","name":"Westerwaldkreis","type":"Landkreis"},"federalState":{"key":"07","name":"Rheinland-Pfalz"}},{"name":"Bürgermeister-Becker-Str.","postalCode":"26427","locality":"Esens","municipality":{"key":"03462003","name":"Esens, Stadt","type":"Stadt"},"district":{"key":"03462","name":"Wittmund","type":"Landkreis"},"federalState":{"key":"03","name":"Niedersachsen"}},{"name":"Burgstr.","postalCode":"26427","locality":"Esens","municipality":{"key":"03462003","name":"Esens, Stadt","type":"Stadt"},"district":{"key":"03462","name":"Wittmund","type":"Landkreis"},"federalState":{"key":"03","name":"Niedersachsen"}},{"name":"Butterstr.","postalCode":"26427","locality":"Esens","municipality":{"key":"03462003","name":"Esens, Stadt","type":"Stadt"},"district":{"key":"03462","name":"Wittmund","type":"Landkreis"},"federalState":{"key":"03","name":"Niedersachsen"}},{"name":"Carl-Gittermann-Str.","postalCode":"26427","locality":"Esens","municipality":{"key":"03462003","name":"Esens, Stadt","type":"Stadt"},"district":{"key":"03462","name":"Wittmund","type":"Landkreis"},"federalState":{"key":"03","name":"Niedersachsen"}},{"name":"Cirksenastr.","postalCode":"26427","locality":"Esens","municipality":{"key":"03462003","name":"Esens, Stadt","type":"Stadt"},"district":{"key":"03462","name":"Wittmund","type":"Landkreis"},"federalState":{"key":"03","name":"Niedersachsen"}},{"name":"Cornelius-Apken-Str.","postalCode":"26427","locality":"Esens","municipality":{"key":"03462003","name":"Esens, Stadt","type":"Stadt"},"district":{"key":"03462","name":"Wittmund","type":"Landkreis"},"federalState":{"key":"03","name":"Niedersachsen"}},{"name":"Danziger Str.","postalCode":"26427","locality":"Esens","municipality":{"key":"03462003","name":"Esens, Stadt","type":"Stadt"},"district":{"key":"03462","name":"Wittmund","type":"Landkreis"},"federalState":{"key":"03","name":"Niedersachsen"}},{"name":"Deichstrich","postalCode":"26427","locality":"Esens","municipality":{"key":"03462003","name":"Esens, Stadt","type":"Stadt"},"district":{"key":"03462","name":"Wittmund","type":"Landkreis"},"federalState":{"key":"03","name":"Niedersachsen"}},{"name":"Diedrich-Müller-Str.","postalCode":"26427","locality":"Esens","municipality":{"key":"03462003","name":"Esens, Stadt","type":"Stadt"},"district":{"key":"03462","name":"Wittmund","type":"Landkreis"},"federalState":{"key":"03","name":"Niedersachsen"}},{"name":"Dietrich-Rohlfs-Str.","postalCode":"26427","locality":"Esens","municipality":{"key":"03462003","name":"Esens, Stadt","type":"Stadt"},"district":{"key":"03462","name":"Wittmund","type":"Landkreis"},"federalState":{"key":"03","name":"Niedersachsen"}},{"name":"Dorfstr.","postalCode":"56459","locality":"Stahlhofen am Wiesensee","municipality":{"key":"07143293","name":"Stahlhofen am Wiesensee","type":"Kreisangehörige_Gemeinde"},"district":{"key":"07143","name":"Westerwaldkreis","type":"Landkreis"},"federalState":{"key":"07","name":"Rheinland-Pfalz"}},{"name":"Dornumer Str.","postalCode":"26427","locality":"Esens","municipality":{"key":"03462003","name":"Esens, Stadt","type":"Stadt"},"district":{"key":"03462","name":"Wittmund","type":"Landkreis"},"federalState":{"key":"03","name":"Niedersachsen"}},{"name":"Drosselweg","postalCode":"26427","locality":"Esens","municipality":{"key":"03462003","name":"Esens, Stadt","type":"Stadt"},"district":{"key":"03462","name":"Wittmund","type":"Landkreis"},"federalState":{"key":"03","name":"Niedersachsen"}},{"name":"Emder Str.","postalCode":"26427","locality":"Esens","municipality":{"key":"03462003","name":"Esens, Stadt","type":"Stadt"},"district":{"key":"03462","name":"Wittmund","type":"Landkreis"},"federalState":{"key":"03","name":"Niedersachsen"}},{"name":"Enno-Hector-Str.","postalCode":"26427","locality":"Esens","municipality":{"key":"03462003","name":"Esens, Stadt","type":"Stadt"},"district":{"key":"03462","name":"Wittmund","type":"Landkreis"},"federalState":{"key":"03","name":"Niedersachsen"}},{"name":"Erfurter Str.","postalCode":"26427","locality":"Esens","municipality":{"key":"03462003","name":"Esens, Stadt","type":"Stadt"},"district":{"key":"03462","name":"Wittmund","type":"Landkreis"},"federalState":{"key":"03","name":"Niedersachsen"}},{"name":"Erlebachstr.","postalCode":"26427","locality":"Esens","municipality":{"key":"03462003","name":"Esens, Stadt","type":"Stadt"},"district":{"key":"03462","name":"Wittmund","type":"Landkreis"},"federalState":{"key":"03","name":"Niedersachsen"}},{"name":"Erlenweg","postalCode":"26427","locality":"Esens","municipality":{"key":"03462003","name":"Esens, Stadt","type":"Stadt"},"district":{"key":"03462","name":"Wittmund","type":"Landkreis"},"federalState":{"key":"03","name":"Niedersachsen"}},{"name":"Erwin-Bensing-Allee","postalCode":"56459","locality":"Stahlhofen am Wiesensee","municipality":{"key":"07143293","name":"Stahlhofen am Wiesensee","type":"Kreisangehörige_Gemeinde"},"district":{"key":"07143","name":"Westerwaldkreis","type":"Landkreis"},"federalState":{"key":"07","name":"Rheinland-Pfalz"}},{"name":"Fabriciusweg","postalCode":"26427","locality":"Esens","municipality":{"key":"03462003","name":"Esens, Stadt","type":"Stadt"},"district":{"key":"03462","name":"Wittmund","type":"Landkreis"},"federalState":{"key":"03","name":"Niedersachsen"}},{"name":"Falkenhammerweg","postalCode":"26427","locality":"Esens","municipality":{"key":"03462003","name":"Esens, Stadt","type":"Stadt"},"district":{"key":"03462","name":"Wittmund","type":"Landkreis"},"federalState":{"key":"03","name":"Niedersachsen"}},{"name":"Fasanenweg","postalCode":"26427","locality":"Esens","municipality":{"key":"03462003","name":"Esens, Stadt","type":"Stadt"},"district":{"key":"03462","name":"Wittmund","type":"Landkreis"},"federalState":{"key":"03","name":"Niedersachsen"}},{"name":"Filsstr.","postalCode":"73349","locality":"Wiesensteig","municipality":{"key":"08117058","name":"Wiesensteig, Stadt","type":"Stadt"},"district":{"key":"08117","name":"Göppingen","type":"Landkreis"},"federalState":{"key":"08","name":"Baden-Württemberg"}},{"name":"Flack","postalCode":"26427","locality":"Esens","municipality":{"key":"03462003","name":"Esens, Stadt","type":"Stadt"},"district":{"key":"03462","name":"Wittmund","type":"Landkreis"},"federalState":{"key":"03","name":"Niedersachsen"}},{"name":"Folkertweg","postalCode":"26427","locality":"Esens","municipality":{"key":"03462003","name":"Esens, Stadt","type":"Stadt"},"district":{"key":"03462","name":"Wittmund","type":"Landkreis"},"federalState":{"key":"03","name":"Niedersachsen"}},{"name":"Fraukeweg","postalCode":"26427","locality":"Esens","municipality":{"key":"03462003","name":"Esens, Stadt","type":"Stadt"},"district":{"key":"03462","name":"Wittmund","type":"Landkreis"},"federalState":{"key":"03","name":"Niedersachsen"}},{"name":"Frerich-Oldewurtel-Str.","postalCode":"26427","locality":"Esens","municipality":{"key":"03462003","name":"Esens, Stadt","type":"Stadt"},"district":{"key":"03462","name":"Wittmund","type":"Landkreis"},"federalState":{"key":"03","name":"Niedersachsen"}},{"name":"Friesenstr.","postalCode":"26427","locality":"Esens","municipality":{"key":"03462003","name":"Esens, Stadt","type":"Stadt"},"district":{"key":"03462","name":"Wittmund","type":"Landkreis"},"federalState":{"key":"03","name":"Niedersachsen"}},{"name":"Fürstin-Christine-Str.","postalCode":"26427","locality":"Esens","municipality":{"key":"03462003","name":"Esens, Stadt","type":"Stadt"},"district":{"key":"03462","name":"Wittmund","type":"Landkreis"},"federalState":{"key":"03","name":"Niedersachsen"}},{"name":"Gartenstr.","postalCode":"26427","locality":"Esens","municipality":{"key":"03462003","name":"Esens, Stadt","type":"Stadt"},"district":{"key":"03462","name":"Wittmund","type":"Landkreis"},"federalState":{"key":"03","name":"Niedersachsen"}},{"name":"Gartenstr.","postalCode":"56459","locality":"Stahlhofen am Wiesensee","municipality":{"key":"07143293","name":"Stahlhofen am Wiesensee","type":"Kreisangehörige_Gemeinde"},"district":{"key":"07143","name":"Westerwaldkreis","type":"Landkreis"},"federalState":{"key":"07","name":"Rheinland-Pfalz"}},{"name":"Gartenstr.","postalCode":"73349","locality":"Wiesensteig","municipality":{"key":"08117058","name":"Wiesensteig, Stadt","type":"Stadt"},"district":{"key":"08117","name":"Göppingen","type":"Landkreis"},"federalState":{"key":"08","name":"Baden-Württemberg"}},{"name":"Gießbachstr.","postalCode":"73349","locality":"Wiesensteig","municipality":{"key":"08117058","name":"Wiesensteig, Stadt","type":"Stadt"},"district":{"key":"08117","name":"Göppingen","type":"Landkreis"},"federalState":{"key":"08","name":"Baden-Württemberg"}},{"name":"Glatzer Str.","postalCode":"26427","locality":"Esens","municipality":{"key":"03462003","name":"Esens, Stadt","type":"Stadt"},"district":{"key":"03462","name":"Wittmund","type":"Landkreis"},"federalState":{"key":"03","name":"Niedersachsen"}},{"name":"Goldenort","postalCode":"26427","locality":"Esens","municipality":{"key":"03462003","name":"Esens, Stadt","type":"Stadt"},"district":{"key":"03462","name":"Wittmund","type":"Landkreis"},"federalState":{"key":"03","name":"Niedersachsen"}},{"name":"Görlitzer Str.","postalCode":"26427","locality":"Esens","municipality":{"key":"03462003","name":"Esens, Stadt","type":"Stadt"},"district":{"key":"03462","name":"Wittmund","type":"Landkreis"},"federalState":{"key":"03","name":"Niedersachsen"}},{"name":"Grabenstr.","postalCode":"73349","locality":"Wiesensteig","municipality":{"key":"08117058","name":"Wiesensteig, Stadt","type":"Stadt"},"district":{"key":"08117","name":"Göppingen","type":"Landkreis"},"federalState":{"key":"08","name":"Baden-Württemberg"}},{"name":"Graf-Edzard-Str.","postalCode":"26427","locality":"Esens","municipality":{"key":"03462003","name":"Esens, Stadt","type":"Stadt"},"district":{"key":"03462","name":"Wittmund","type":"Landkreis"},"federalState":{"key":"03","name":"Niedersachsen"}},{"name":"Graf-Enno-Str.","postalCode":"26427","locality":"Esens","municipality":{"key":"03462003","name":"Esens, Stadt","type":"Stadt"},"district":{"key":"03462","name":"Wittmund","type":"Landkreis"},"federalState":{"key":"03","name":"Niedersachsen"}},{"name":"Graftegge","postalCode":"26427","locality":"Esens","municipality":{"key":"03462003","name":"Esens, Stadt","type":"Stadt"},"district":{"key":"03462","name":"Wittmund","type":"Landkreis"},"federalState":{"key":"03","name":"Niedersachsen"}},{"name":"Grashauser Flage","postalCode":"26427","locality":"Esens","municipality":{"key":"03462003","name":"Esens, Stadt","type":"Stadt"},"district":{"key":"03462","name":"Wittmund","type":"Landkreis"},"federalState":{"key":"03","name":"Niedersachsen"}},{"name":"Gründeich","postalCode":"26427","locality":"Esens","municipality":{"key":"03462003","name":"Esens, Stadt","type":"Stadt"},"district":{"key":"03462","name":"Wittmund","type":"Landkreis"},"federalState":{"key":"03","name":"Niedersachsen"}},{"name":"Grüner Weg","postalCode":"26427","locality":"Esens","municipality":{"key":"03462003","name":"Esens, Stadt","type":"Stadt"},"district":{"key":"03462","name":"Wittmund","type":"Landkreis"},"federalState":{"key":"03","name":"Niedersachsen"}},{"name":"Grüner Winkel","postalCode":"26427","locality":"Esens","municipality":{"key":"03462003","name":"Esens, Stadt","type":"Stadt"},"district":{"key":"03462","name":"Wittmund","type":"Landkreis"},"federalState":{"key":"03","name":"Niedersachsen"}},{"name":"Hans-Baumeister-Weg","postalCode":"73349","locality":"Wiesensteig","municipality":{"key":"08117058","name":"Wiesensteig, Stadt","type":"Stadt"},"district":{"key":"08117","name":"Göppingen","type":"Landkreis"},"federalState":{"key":"08","name":"Baden-Württemberg"}},{"name":"Hartwarder Str.","postalCode":"26427","locality":"Esens","municipality":{"key":"03462003","name":"Esens, Stadt","type":"Stadt"},"district":{"key":"03462","name":"Wittmund","type":"Landkreis"},"federalState":{"key":"03","name":"Niedersachsen"}},{"name":"Hauptstr.","postalCode":"26427","locality":"Esens","municipality":{"key":"03462003","name":"Esens, Stadt","type":"Stadt"},"district":{"key":"03462","name":"Wittmund","type":"Landkreis"},"federalState":{"key":"03","name":"Niedersachsen"}},{"name":"Hauptstr.","postalCode":"56459","locality":"Stahlhofen am Wiesensee","municipality":{"key":"07143293","name":"Stahlhofen am Wiesensee","type":"Kreisangehörige_Gemeinde"},"district":{"key":"07143","name":"Westerwaldkreis","type":"Landkreis"},"federalState":{"key":"07","name":"Rheinland-Pfalz"}},{"name":"Hauptstr.","postalCode":"73349","locality":"Wiesensteig","municipality":{"key":"08117058","name":"Wiesensteig, Stadt","type":"Stadt"},"district":{"key":"08117","name":"Göppingen","type":"Landkreis"},"federalState":{"key":"08","name":"Baden-Württemberg"}},{"name":"Hayungshauser Weg","postalCode":"26427","locality":"Esens","municipality":{"key":"03462003","name":"Esens, Stadt","type":"Stadt"},"district":{"key":"03462","name":"Wittmund","type":"Landkreis"},"federalState":{"key":"03","name":"Niedersachsen"}},{"name":"Helfensteinstr.","postalCode":"73349","locality":"Wiesensteig","municipality":{"key":"08117058","name":"Wiesensteig, Stadt","type":"Stadt"},"district":{"key":"08117","name":"Göppingen","type":"Landkreis"},"federalState":{"key":"08","name":"Baden-Württemberg"}},{"name":"Herdetor","postalCode":"26427","locality":"Esens","municipality":{"key":"03462003","name":"Esens, Stadt","type":"Stadt"},"district":{"key":"03462","name":"Wittmund","type":"Landkreis"},"federalState":{"key":"03","name":"Niedersachsen"}},{"name":"Hermann- Allmers-Str.","postalCode":"26427","locality":"Esens","municipality":{"key":"03462003","name":"Esens, Stadt","type":"Stadt"},"district":{"key":"03462","name":"Wittmund","type":"Landkreis"},"federalState":{"key":"03","name":"Niedersachsen"}},{"name":"Hermann-Ruge-Str.","postalCode":"26427","locality":"Esens","municipality":{"key":"03462003","name":"Esens, Stadt","type":"Stadt"},"district":{"key":"03462","name":"Wittmund","type":"Landkreis"},"federalState":{"key":"03","name":"Niedersachsen"}},{"name":"Herrenwall","postalCode":"26427","locality":"Esens","municipality":{"key":"03462003","name":"Esens, Stadt","type":"Stadt"},"district":{"key":"03462","name":"Wittmund","type":"Landkreis"},"federalState":{"key":"03","name":"Niedersachsen"}},{"name":"Himmelriekspad","postalCode":"26427","locality":"Esens","municipality":{"key":"03462003","name":"Esens, Stadt","type":"Stadt"},"district":{"key":"03462","name":"Wittmund","type":"Landkreis"},"federalState":{"key":"03","name":"Niedersachsen"}},{"name":"Hirschgasse","postalCode":"73349","locality":"Wiesensteig","municipality":{"key":"08117058","name":"Wiesensteig, Stadt","type":"Stadt"},"district":{"key":"08117","name":"Göppingen","type":"Landkreis"},"federalState":{"key":"08","name":"Baden-Württemberg"}},{"name":"Hohekamp","postalCode":"26427","locality":"Esens","municipality":{"key":"03462003","name":"Esens, Stadt","type":"Stadt"},"district":{"key":"03462","name":"Wittmund","type":"Landkreis"},"federalState":{"key":"03","name":"Niedersachsen"}},{"name":"Hohenstaufenstr.","postalCode":"73349","locality":"Wiesensteig","municipality":{"key":"08117058","name":"Wiesensteig, Stadt","type":"Stadt"},"district":{"key":"08117","name":"Göppingen","type":"Landkreis"},"federalState":{"key":"08","name":"Baden-Württemberg"}},{"name":"Ihnoweg","postalCode":"26427","locality":"Esens","municipality":{"key":"03462003","name":"Esens, Stadt","type":"Stadt"},"district":{"key":"03462","name":"Wittmund","type":"Landkreis"},"federalState":{"key":"03","name":"Niedersachsen"}},{"name":"Im Burggrund","postalCode":"26427","locality":"Esens","municipality":{"key":"03462003","name":"Esens, Stadt","type":"Stadt"},"district":{"key":"03462","name":"Wittmund","type":"Landkreis"},"federalState":{"key":"03","name":"Niedersachsen"}},{"name":"Im Eichengrund","postalCode":"26427","locality":"Esens","municipality":{"key":"03462003","name":"Esens, Stadt","type":"Stadt"},"district":{"key":"03462","name":"Wittmund","type":"Landkreis"},"federalState":{"key":"03","name":"Niedersachsen"}},{"name":"Im Gräble","postalCode":"73349","locality":"Wiesensteig","municipality":{"key":"08117058","name":"Wiesensteig, Stadt","type":"Stadt"},"district":{"key":"08117","name":"Göppingen","type":"Landkreis"},"federalState":{"key":"08","name":"Baden-Württemberg"}},{"name":"Im Wiesengrund","postalCode":"26427","locality":"Esens","municipality":{"key":"03462003","name":"Esens, Stadt","type":"Stadt"},"district":{"key":"03462","name":"Wittmund","type":"Landkreis"},"federalState":{"key":"03","name":"Niedersachsen"}},{"name":"Im Wiesengrund","postalCode":"56459","locality":"Stahlhofen am Wiesensee","municipality":{"key":"07143293","name":"Stahlhofen am Wiesensee","type":"Kreisangehörige_Gemeinde"},"district":{"key":"07143","name":"Westerwaldkreis","type":"Landkreis"},"federalState":{"key":"07","name":"Rheinland-Pfalz"}},{"name":"In den Schützengärten","postalCode":"26427","locality":"Esens","municipality":{"key":"03462003","name":"Esens, Stadt","type":"Stadt"},"district":{"key":"03462","name":"Wittmund","type":"Landkreis"},"federalState":{"key":"03","name":"Niedersachsen"}},{"name":"Insaweg","postalCode":"26427","locality":"Esens","municipality":{"key":"03462003","name":"Esens, Stadt","type":"Stadt"},"district":{"key":"03462","name":"Wittmund","type":"Landkreis"},"federalState":{"key":"03","name":"Niedersachsen"}},{"name":"Insenkreuz","postalCode":"26427","locality":"Esens","municipality":{"key":"03462003","name":"Esens, Stadt","type":"Stadt"},"district":{"key":"03462","name":"Wittmund","type":"Landkreis"},"federalState":{"key":"03","name":"Niedersachsen"}},{"name":"Jahnstr.","postalCode":"26427","locality":"Esens","municipality":{"key":"03462003","name":"Esens, Stadt","type":"Stadt"},"district":{"key":"03462","name":"Wittmund","type":"Landkreis"},"federalState":{"key":"03","name":"Niedersachsen"}},{"name":"Jann-Berghaus-Str.","postalCode":"26427","locality":"Esens","municipality":{"key":"03462003","name":"Esens, Stadt","type":"Stadt"},"district":{"key":"03462","name":"Wittmund","type":"Landkreis"},"federalState":{"key":"03","name":"Niedersachsen"}},{"name":"Jeverstr.","postalCode":"26427","locality":"Esens","municipality":{"key":"03462003","name":"Esens, Stadt","type":"Stadt"},"district":{"key":"03462","name":"Wittmund","type":"Landkreis"},"federalState":{"key":"03","name":"Niedersachsen"}},{"name":"Johann-Andree-Str.","postalCode":"26427","locality":"Esens","municipality":{"key":"03462003","name":"Esens, Stadt","type":"Stadt"},"district":{"key":"03462","name":"Wittmund","type":"Landkreis"},"federalState":{"key":"03","name":"Niedersachsen"}},{"name":"Jücher Flage","postalCode":"26427","locality":"Esens","municipality":{"key":"03462003","name":"Esens, Stadt","type":"Stadt"},"district":{"key":"03462","name":"Wittmund","type":"Landkreis"},"federalState":{"key":"03","name":"Niedersachsen"}},{"name":"Jücherstr.","postalCode":"26427","locality":"Esens","municipality":{"key":"03462003","name":"Esens, Stadt","type":"Stadt"},"district":{"key":"03462","name":"Wittmund","type":"Landkreis"},"federalState":{"key":"03","name":"Niedersachsen"}},{"name":"Jüchertor","postalCode":"26427","locality":"Esens","municipality":{"key":"03462003","name":"Esens, Stadt","type":"Stadt"},"district":{"key":"03462","name":"Wittmund","type":"Landkreis"},"federalState":{"key":"03","name":"Niedersachsen"}},{"name":"Junker-Balthasar-Str.","postalCode":"26427","locality":"Esens","municipality":{"key":"03462003","name":"Esens, Stadt","type":"Stadt"},"district":{"key":"03462","name":"Wittmund","type":"Landkreis"},"federalState":{"key":"03","name":"Niedersachsen"}},{"name":"Junkerweg","postalCode":"26427","locality":"Esens","municipality":{"key":"03462003","name":"Esens, Stadt","type":"Stadt"},"district":{"key":"03462","name":"Wittmund","type":"Landkreis"},"federalState":{"key":"03","name":"Niedersachsen"}},{"name":"Kapitän-Focken-Weg","postalCode":"26427","locality":"Esens","municipality":{"key":"03462003","name":"Esens, Stadt","type":"Stadt"},"district":{"key":"03462","name":"Wittmund","type":"Landkreis"},"federalState":{"key":"03","name":"Niedersachsen"}},{"name":"Kirchgasse","postalCode":"73349","locality":"Wiesensteig","municipality":{"key":"08117058","name":"Wiesensteig, Stadt","type":"Stadt"},"district":{"key":"08117","name":"Göppingen","type":"Landkreis"},"federalState":{"key":"08","name":"Baden-Württemberg"}},{"name":"Kirchheimer Str.","postalCode":"73349","locality":"Wiesensteig","municipality":{"key":"08117058","name":"Wiesensteig, Stadt","type":"Stadt"},"district":{"key":"08117","name":"Göppingen","type":"Landkreis"},"federalState":{"key":"08","name":"Baden-Württemberg"}},{"name":"Kirchplatz","postalCode":"26427","locality":"Esens","municipality":{"key":"03462003","name":"Esens, Stadt","type":"Stadt"},"district":{"key":"03462","name":"Wittmund","type":"Landkreis"},"federalState":{"key":"03","name":"Niedersachsen"}},{"name":"Kirchstr.","postalCode":"26427","locality":"Esens","municipality":{"key":"03462003","name":"Esens, Stadt","type":"Stadt"},"district":{"key":"03462","name":"Wittmund","type":"Landkreis"},"federalState":{"key":"03","name":"Niedersachsen"}},{"name":"Kleiner Barkel","postalCode":"26427","locality":"Esens","municipality":{"key":"03462003","name":"Esens, Stadt","type":"Stadt"},"district":{"key":"03462","name":"Wittmund","type":"Landkreis"},"federalState":{"key":"03","name":"Niedersachsen"}},{"name":"Knakenbörg","postalCode":"26427","locality":"Esens","municipality":{"key":"03462003","name":"Esens, Stadt","type":"Stadt"},"district":{"key":"03462","name":"Wittmund","type":"Landkreis"},"federalState":{"key":"03","name":"Niedersachsen"}},{"name":"Königsberger Str.","postalCode":"26427","locality":"Esens","municipality":{"key":"03462003","name":"Esens, Stadt","type":"Stadt"},"district":{"key":"03462","name":"Wittmund","type":"Landkreis"},"federalState":{"key":"03","name":"Niedersachsen"}},{"name":"Kraunhof","postalCode":"23909","locality":"Giesensdorf","municipality":{"key":"01053033","name":"Giesensdorf","type":"Kreisangehörige_Gemeinde"},"district":{"key":"01053","name":"Herzogtum Lauenburg","type":"Kreis"},"federalState":{"key":"01","name":"Schleswig-Holstein"}},{"name":"Krummer Barkel","postalCode":"26427","locality":"Esens","municipality":{"key":"03462003","name":"Esens, Stadt","type":"Stadt"},"district":{"key":"03462","name":"Wittmund","type":"Landkreis"},"federalState":{"key":"03","name":"Niedersachsen"}},{"name":"Kulpiner Weg","postalCode":"23909","locality":"Giesensdorf","municipality":{"key":"01053033","name":"Giesensdorf","type":"Kreisangehörige_Gemeinde"},"district":{"key":"01053","name":"Herzogtum Lauenburg","type":"Kreis"},"federalState":{"key":"01","name":"Schleswig-Holstein"}},{"name":"Kurzer Weg","postalCode":"26427","locality":"Esens","municipality":{"key":"03462003","name":"Esens, Stadt","type":"Stadt"},"district":{"key":"03462","name":"Wittmund","type":"Landkreis"},"federalState":{"key":"03","name":"Niedersachsen"}},{"name":"Küstriner Str.","postalCode":"26427","locality":"Esens","municipality":{"key":"03462003","name":"Esens, Stadt","type":"Stadt"},"district":{"key":"03462","name":"Wittmund","type":"Landkreis"},"federalState":{"key":"03","name":"Niedersachsen"}},{"name":"Lammertshörn","postalCode":"26427","locality":"Esens","municipality":{"key":"03462003","name":"Esens, Stadt","type":"Stadt"},"district":{"key":"03462","name":"Wittmund","type":"Landkreis"},"federalState":{"key":"03","name":"Niedersachsen"}},{"name":"Lammgasse","postalCode":"73349","locality":"Wiesensteig","municipality":{"key":"08117058","name":"Wiesensteig, Stadt","type":"Stadt"},"district":{"key":"08117","name":"Göppingen","type":"Landkreis"},"federalState":{"key":"08","name":"Baden-Württemberg"}},{"name":"Leonhardsweg","postalCode":"73349","locality":"Wiesensteig","municipality":{"key":"08117058","name":"Wiesensteig, Stadt","type":"Stadt"},"district":{"key":"08117","name":"Göppingen","type":"Landkreis"},"federalState":{"key":"08","name":"Baden-Württemberg"}},{"name":"Liegnitzer Str.","postalCode":"26427","locality":"Esens","municipality":{"key":"03462003","name":"Esens, Stadt","type":"Stadt"},"district":{"key":"03462","name":"Wittmund","type":"Landkreis"},"federalState":{"key":"03","name":"Niedersachsen"}},{"name":"Lohwarf","postalCode":"26427","locality":"Esens","municipality":{"key":"03462003","name":"Esens, Stadt","type":"Stadt"},"district":{"key":"03462","name":"Wittmund","type":"Landkreis"},"federalState":{"key":"03","name":"Niedersachsen"}},{"name":"Lulu Park","postalCode":"26427","locality":"Esens","municipality":{"key":"03462003","name":"Esens, Stadt","type":"Stadt"},"district":{"key":"03462","name":"Wittmund","type":"Landkreis"},"federalState":{"key":"03","name":"Niedersachsen"}},{"name":"Maikeweg","postalCode":"26427","locality":"Esens","municipality":{"key":"03462003","name":"Esens, Stadt","type":"Stadt"},"district":{"key":"03462","name":"Wittmund","type":"Landkreis"},"federalState":{"key":"03","name":"Niedersachsen"}},{"name":"Malakoffstr.","postalCode":"73349","locality":"Wiesensteig","municipality":{"key":"08117058","name":"Wiesensteig, Stadt","type":"Stadt"},"district":{"key":"08117","name":"Göppingen","type":"Landkreis"},"federalState":{"key":"08","name":"Baden-Württemberg"}},{"name":"Mamburger Weg","postalCode":"26427","locality":"Esens","municipality":{"key":"03462003","name":"Esens, Stadt","type":"Stadt"},"district":{"key":"03462","name":"Wittmund","type":"Landkreis"},"federalState":{"key":"03","name":"Niedersachsen"}},{"name":"Marienburger Str.","postalCode":"26427","locality":"Esens","municipality":{"key":"03462003","name":"Esens, Stadt","type":"Stadt"},"district":{"key":"03462","name":"Wittmund","type":"Landkreis"},"federalState":{"key":"03","name":"Niedersachsen"}},{"name":"Marienkamper Str.","postalCode":"26427","locality":"Esens","municipality":{"key":"03462003","name":"Esens, Stadt","type":"Stadt"},"district":{"key":"03462","name":"Wittmund","type":"Landkreis"},"federalState":{"key":"03","name":"Niedersachsen"}},{"name":"Marklerkreisel","postalCode":"26427","locality":"Esens","municipality":{"key":"03462003","name":"Esens, Stadt","type":"Stadt"},"district":{"key":"03462","name":"Wittmund","type":"Landkreis"},"federalState":{"key":"03","name":"Niedersachsen"}},{"name":"Marktplatz","postalCode":"26427","locality":"Esens","municipality":{"key":"03462003","name":"Esens, Stadt","type":"Stadt"},"district":{"key":"03462","name":"Wittmund","type":"Landkreis"},"federalState":{"key":"03","name":"Niedersachsen"}},{"name":"Marktstr.","postalCode":"26427","locality":"Esens","municipality":{"key":"03462003","name":"Esens, Stadt","type":"Stadt"},"district":{"key":"03462","name":"Wittmund","type":"Landkreis"},"federalState":{"key":"03","name":"Niedersachsen"}},{"name":"Meerdammweg","postalCode":"26427","locality":"Esens","municipality":{"key":"03462003","name":"Esens, Stadt","type":"Stadt"},"district":{"key":"03462","name":"Wittmund","type":"Landkreis"},"federalState":{"key":"03","name":"Niedersachsen"}},{"name":"Molkereistr.","postalCode":"26427","locality":"Esens","municipality":{"key":"03462003","name":"Esens, Stadt","type":"Stadt"},"district":{"key":"03462","name":"Wittmund","type":"Landkreis"},"federalState":{"key":"03","name":"Niedersachsen"}},{"name":"Mühlenweg","postalCode":"26427","locality":"Esens","municipality":{"key":"03462003","name":"Esens, Stadt","type":"Stadt"},"district":{"key":"03462","name":"Wittmund","type":"Landkreis"},"federalState":{"key":"03","name":"Niedersachsen"}},{"name":"Müller-Bogena-Ring","postalCode":"26427","locality":"Esens","municipality":{"key":"03462003","name":"Esens, Stadt","type":"Stadt"},"district":{"key":"03462","name":"Wittmund","type":"Landkreis"},"federalState":{"key":"03","name":"Niedersachsen"}},{"name":"Müller-Gerdes-Str.","postalCode":"26427","locality":"Esens","municipality":{"key":"03462003","name":"Esens, Stadt","type":"Stadt"},"district":{"key":"03462","name":"Wittmund","type":"Landkreis"},"federalState":{"key":"03","name":"Niedersachsen"}},{"name":"Müller-Post-Ring","postalCode":"26427","locality":"Esens","municipality":{"key":"03462003","name":"Esens, Stadt","type":"Stadt"},"district":{"key":"03462","name":"Wittmund","type":"Landkreis"},"federalState":{"key":"03","name":"Niedersachsen"}},{"name":"Müller-Tjarks-Str.","postalCode":"26427","locality":"Esens","municipality":{"key":"03462003","name":"Esens, Stadt","type":"Stadt"},"district":{"key":"03462","name":"Wittmund","type":"Landkreis"},"federalState":{"key":"03","name":"Niedersachsen"}},{"name":"Münkenlander Weg","postalCode":"26427","locality":"Esens","municipality":{"key":"03462003","name":"Esens, Stadt","type":"Stadt"},"district":{"key":"03462","name":"Wittmund","type":"Landkreis"},"federalState":{"key":"03","name":"Niedersachsen"}},{"name":"Neuharlingersieler Str.","postalCode":"26427","locality":"Esens","municipality":{"key":"03462003","name":"Esens, Stadt","type":"Stadt"},"district":{"key":"03462","name":"Wittmund","type":"Landkreis"},"federalState":{"key":"03","name":"Niedersachsen"}},{"name":"Neustädter Str.","postalCode":"26427","locality":"Esens","municipality":{"key":"03462003","name":"Esens, Stadt","type":"Stadt"},"district":{"key":"03462","name":"Wittmund","type":"Landkreis"},"federalState":{"key":"03","name":"Niedersachsen"}},{"name":"Neustädter Wall","postalCode":"26427","locality":"Esens","municipality":{"key":"03462003","name":"Esens, Stadt","type":"Stadt"},"district":{"key":"03462","name":"Wittmund","type":"Landkreis"},"federalState":{"key":"03","name":"Niedersachsen"}},{"name":"Nobiskruger Weg","postalCode":"26427","locality":"Esens","municipality":{"key":"03462003","name":"Esens, Stadt","type":"Stadt"},"district":{"key":"03462","name":"Wittmund","type":"Landkreis"},"federalState":{"key":"03","name":"Niedersachsen"}},{"name":"Norder Str.","postalCode":"26427","locality":"Esens","municipality":{"key":"03462003","name":"Esens, Stadt","type":"Stadt"},"district":{"key":"03462","name":"Wittmund","type":"Landkreis"},"federalState":{"key":"03","name":"Niedersachsen"}},{"name":"Norderwall","postalCode":"26427","locality":"Esens","municipality":{"key":"03462003","name":"Esens, Stadt","type":"Stadt"},"district":{"key":"03462","name":"Wittmund","type":"Landkreis"},"federalState":{"key":"03","name":"Niedersachsen"}},{"name":"Nordring","postalCode":"26427","locality":"Esens","municipality":{"key":"03462003","name":"Esens, Stadt","type":"Stadt"},"district":{"key":"03462","name":"Wittmund","type":"Landkreis"},"federalState":{"key":"03","name":"Niedersachsen"}},{"name":"Oberes Jüchen","postalCode":"26427","locality":"Esens","municipality":{"key":"03462003","name":"Esens, Stadt","type":"Stadt"},"district":{"key":"03462","name":"Wittmund","type":"Landkreis"},"federalState":{"key":"03","name":"Niedersachsen"}},{"name":"Oellinger Str.","postalCode":"56459","locality":"Stahlhofen am Wiesensee","municipality":{"key":"07143293","name":"Stahlhofen am Wiesensee","type":"Kreisangehörige_Gemeinde"},"district":{"key":"07143","name":"Westerwaldkreis","type":"Landkreis"},"federalState":{"key":"07","name":"Rheinland-Pfalz"}},{"name":"Oll Deep","postalCode":"26427","locality":"Esens","municipality":{"key":"03462003","name":"Esens, Stadt","type":"Stadt"},"district":{"key":"03462","name":"Wittmund","type":"Landkreis"},"federalState":{"key":"03","name":"Niedersachsen"}},{"name":"Ommoweg","postalCode":"26427","locality":"Esens","municipality":{"key":"03462003","name":"Esens, Stadt","type":"Stadt"},"district":{"key":"03462","name":"Wittmund","type":"Landkreis"},"federalState":{"key":"03","name":"Niedersachsen"}},{"name":"Ostlandstr.","postalCode":"26427","locality":"Esens","municipality":{"key":"03462003","name":"Esens, Stadt","type":"Stadt"},"district":{"key":"03462","name":"Wittmund","type":"Landkreis"},"federalState":{"key":"03","name":"Niedersachsen"}},{"name":"Parkstr.","postalCode":"56459","locality":"Stahlhofen am Wiesensee","municipality":{"key":"07143293","name":"Stahlhofen am Wiesensee","type":"Kreisangehörige_Gemeinde"},"district":{"key":"07143","name":"Westerwaldkreis","type":"Landkreis"},"federalState":{"key":"07","name":"Rheinland-Pfalz"}},{"name":"Plattenweg","postalCode":"26427","locality":"Esens","municipality":{"key":"03462003","name":"Esens, Stadt","type":"Stadt"},"district":{"key":"03462","name":"Wittmund","type":"Landkreis"},"federalState":{"key":"03","name":"Niedersachsen"}},{"name":"Radbodstr.","postalCode":"26427","locality":"Esens","municipality":{"key":"03462003","name":"Esens, Stadt","type":"Stadt"},"district":{"key":"03462","name":"Wittmund","type":"Landkreis"},"federalState":{"key":"03","name":"Niedersachsen"}},{"name":"Raiffeisenstr.","postalCode":"26427","locality":"Esens","municipality":{"key":"03462003","name":"Esens, Stadt","type":"Stadt"},"district":{"key":"03462","name":"Wittmund","type":"Landkreis"},"federalState":{"key":"03","name":"Niedersachsen"}},{"name":"Rechbergweg","postalCode":"73349","locality":"Wiesensteig","municipality":{"key":"08117058","name":"Wiesensteig, Stadt","type":"Stadt"},"district":{"key":"08117","name":"Göppingen","type":"Landkreis"},"federalState":{"key":"08","name":"Baden-Württemberg"}},{"name":"Riffweg","postalCode":"26427","locality":"Esens","municipality":{"key":"03462003","name":"Esens, Stadt","type":"Stadt"},"district":{"key":"03462","name":"Wittmund","type":"Landkreis"},"federalState":{"key":"03","name":"Niedersachsen"}},{"name":"Ringstr.","postalCode":"56459","locality":"Stahlhofen am Wiesensee","municipality":{"key":"07143293","name":"Stahlhofen am Wiesensee","type":"Kreisangehörige_Gemeinde"},"district":{"key":"07143","name":"Westerwaldkreis","type":"Landkreis"},"federalState":{"key":"07","name":"Rheinland-Pfalz"}},{"name":"Rosenstr.","postalCode":"26427","locality":"Esens","municipality":{"key":"03462003","name":"Esens, Stadt","type":"Stadt"},"district":{"key":"03462","name":"Wittmund","type":"Landkreis"},"federalState":{"key":"03","name":"Niedersachsen"}},{"name":"Rotzmense","postalCode":"26427","locality":"Esens","municipality":{"key":"03462003","name":"Esens, Stadt","type":"Stadt"},"district":{"key":"03462","name":"Wittmund","type":"Landkreis"},"federalState":{"key":"03","name":"Niedersachsen"}},{"name":"Rudertälesweg","postalCode":"73349","locality":"Wiesensteig","municipality":{"key":"08117058","name":"Wiesensteig, Stadt","type":"Stadt"},"district":{"key":"08117","name":"Göppingen","type":"Landkreis"},"federalState":{"key":"08","name":"Baden-Württemberg"}},{"name":"Rudolf-Eucken-Str.","postalCode":"26427","locality":"Esens","municipality":{"key":"03462003","name":"Esens, Stadt","type":"Stadt"},"district":{"key":"03462","name":"Wittmund","type":"Landkreis"},"federalState":{"key":"03","name":"Niedersachsen"}},{"name":"Saatschulweg","postalCode":"73349","locality":"Wiesensteig","municipality":{"key":"08117058","name":"Wiesensteig, Stadt","type":"Stadt"},"district":{"key":"08117","name":"Göppingen","type":"Landkreis"},"federalState":{"key":"08","name":"Baden-Württemberg"}},{"name":"Sara-Oppenheimer-Str.","postalCode":"26427","locality":"Esens","municipality":{"key":"03462003","name":"Esens, Stadt","type":"Stadt"},"district":{"key":"03462","name":"Wittmund","type":"Landkreis"},"federalState":{"key":"03","name":"Niedersachsen"}},{"name":"Sattlerstr.","postalCode":"26427","locality":"Esens","municipality":{"key":"03462003","name":"Esens, Stadt","type":"Stadt"},"district":{"key":"03462","name":"Wittmund","type":"Landkreis"},"federalState":{"key":"03","name":"Niedersachsen"}},{"name":"Schafhauser Weg","postalCode":"26427","locality":"Esens","municipality":{"key":"03462003","name":"Esens, Stadt","type":"Stadt"},"district":{"key":"03462","name":"Wittmund","type":"Landkreis"},"federalState":{"key":"03","name":"Niedersachsen"}},{"name":"Schakentalstr.","postalCode":"73349","locality":"Wiesensteig","municipality":{"key":"08117058","name":"Wiesensteig, Stadt","type":"Stadt"},"district":{"key":"08117","name":"Göppingen","type":"Landkreis"},"federalState":{"key":"08","name":"Baden-Württemberg"}},{"name":"Schlossergasse","postalCode":"73349","locality":"Wiesensteig","municipality":{"key":"08117058","name":"Wiesensteig, Stadt","type":"Stadt"},"district":{"key":"08117","name":"Göppingen","type":"Landkreis"},"federalState":{"key":"08","name":"Baden-Württemberg"}},{"name":"Schloßgartenstr.","postalCode":"73349","locality":"Wiesensteig","municipality":{"key":"08117058","name":"Wiesensteig, Stadt","type":"Stadt"},"district":{"key":"08117","name":"Göppingen","type":"Landkreis"},"federalState":{"key":"08","name":"Baden-Württemberg"}},{"name":"Schmiedestr.","postalCode":"26427","locality":"Esens","municipality":{"key":"03462003","name":"Esens, Stadt","type":"Stadt"},"district":{"key":"03462","name":"Wittmund","type":"Landkreis"},"federalState":{"key":"03","name":"Niedersachsen"}},{"name":"Schmiedeweg","postalCode":"26427","locality":"Esens","municipality":{"key":"03462003","name":"Esens, Stadt","type":"Stadt"},"district":{"key":"03462","name":"Wittmund","type":"Landkreis"},"federalState":{"key":"03","name":"Niedersachsen"}},{"name":"Schmiedgasse","postalCode":"73349","locality":"Wiesensteig","municipality":{"key":"08117058","name":"Wiesensteig, Stadt","type":"Stadt"},"district":{"key":"08117","name":"Göppingen","type":"Landkreis"},"federalState":{"key":"08","name":"Baden-Württemberg"}},{"name":"Schöntalweg","postalCode":"73349","locality":"Wiesensteig","municipality":{"key":"08117058","name":"Wiesensteig, Stadt","type":"Stadt"},"district":{"key":"08117","name":"Göppingen","type":"Landkreis"},"federalState":{"key":"08","name":"Baden-Württemberg"}},{"name":"Schulstr.","postalCode":"26427","locality":"Esens","municipality":{"key":"03462003","name":"Esens, Stadt","type":"Stadt"},"district":{"key":"03462","name":"Wittmund","type":"Landkreis"},"federalState":{"key":"03","name":"Niedersachsen"}},{"name":"Schützenplatz","postalCode":"26427","locality":"Esens","municipality":{"key":"03462003","name":"Esens, Stadt","type":"Stadt"},"district":{"key":"03462","name":"Wittmund","type":"Landkreis"},"federalState":{"key":"03","name":"Niedersachsen"}},{"name":"Schwedengraben","postalCode":"73349","locality":"Wiesensteig","municipality":{"key":"08117058","name":"Wiesensteig, Stadt","type":"Stadt"},"district":{"key":"08117","name":"Göppingen","type":"Landkreis"},"federalState":{"key":"08","name":"Baden-Württemberg"}},{"name":"Seestr.","postalCode":"26427","locality":"Esens","municipality":{"key":"03462003","name":"Esens, Stadt","type":"Stadt"},"district":{"key":"03462","name":"Wittmund","type":"Landkreis"},"federalState":{"key":"03","name":"Niedersachsen"}},{"name":"Seestr.","postalCode":"56459","locality":"Stahlhofen am Wiesensee","municipality":{"key":"07143293","name":"Stahlhofen am Wiesensee","type":"Kreisangehörige_Gemeinde"},"district":{"key":"07143","name":"Westerwaldkreis","type":"Landkreis"},"federalState":{"key":"07","name":"Rheinland-Pfalz"}},{"name":"Seestr.","postalCode":"73349","locality":"Wiesensteig","municipality":{"key":"08117058","name":"Wiesensteig, Stadt","type":"Stadt"},"district":{"key":"08117","name":"Göppingen","type":"Landkreis"},"federalState":{"key":"08","name":"Baden-Württemberg"}},{"name":"Seilerstr.","postalCode":"26427","locality":"Esens","municipality":{"key":"03462003","name":"Esens, Stadt","type":"Stadt"},"district":{"key":"03462","name":"Wittmund","type":"Landkreis"},"federalState":{"key":"03","name":"Niedersachsen"}},{"name":"Seltelstr.","postalCode":"73349","locality":"Wiesensteig","municipality":{"key":"08117058","name":"Wiesensteig, Stadt","type":"Stadt"},"district":{"key":"08117","name":"Göppingen","type":"Landkreis"},"federalState":{"key":"08","name":"Baden-Württemberg"}},{"name":"Siebet-Attena-Str.","postalCode":"26427","locality":"Esens","municipality":{"key":"03462003","name":"Esens, Stadt","type":"Stadt"},"district":{"key":"03462","name":"Wittmund","type":"Landkreis"},"federalState":{"key":"03","name":"Niedersachsen"}},{"name":"Siedlung","postalCode":"26427","locality":"Esens","municipality":{"key":"03462003","name":"Esens, Stadt","type":"Stadt"},"district":{"key":"03462","name":"Wittmund","type":"Landkreis"},"federalState":{"key":"03","name":"Niedersachsen"}},{"name":"Siegfried-Herz-Lohne","postalCode":"26427","locality":"Esens","municipality":{"key":"03462003","name":"Esens, Stadt","type":"Stadt"},"district":{"key":"03462","name":"Wittmund","type":"Landkreis"},"federalState":{"key":"03","name":"Niedersachsen"}},{"name":"Sommerbergstr.","postalCode":"73349","locality":"Wiesensteig","municipality":{"key":"08117058","name":"Wiesensteig, Stadt","type":"Stadt"},"district":{"key":"08117","name":"Göppingen","type":"Landkreis"},"federalState":{"key":"08","name":"Baden-Württemberg"}},{"name":"Sommerhalde","postalCode":"73349","locality":"Wiesensteig","municipality":{"key":"08117058","name":"Wiesensteig, Stadt","type":"Stadt"},"district":{"key":"08117","name":"Göppingen","type":"Landkreis"},"federalState":{"key":"08","name":"Baden-Württemberg"}},{"name":"Sonnenstr.","postalCode":"56459","locality":"Stahlhofen am Wiesensee","municipality":{"key":"07143293","name":"Stahlhofen am Wiesensee","type":"Kreisangehörige_Gemeinde"},"district":{"key":"07143","name":"Westerwaldkreis","type":"Landkreis"},"federalState":{"key":"07","name":"Rheinland-Pfalz"}},{"name":"Spitalgasse","postalCode":"73349","locality":"Wiesensteig","municipality":{"key":"08117058","name":"Wiesensteig, Stadt","type":"Stadt"},"district":{"key":"08117","name":"Göppingen","type":"Landkreis"},"federalState":{"key":"08","name":"Baden-Württemberg"}},{"name":"Stadtdirektor-Neemann-Platz","postalCode":"26427","locality":"Esens","municipality":{"key":"03462003","name":"Esens, Stadt","type":"Stadt"},"district":{"key":"03462","name":"Wittmund","type":"Landkreis"},"federalState":{"key":"03","name":"Niedersachsen"}},{"name":"Stadt-Schkür-Pad","postalCode":"26427","locality":"Esens","municipality":{"key":"03462003","name":"Esens, Stadt","type":"Stadt"},"district":{"key":"03462","name":"Wittmund","type":"Landkreis"},"federalState":{"key":"03","name":"Niedersachsen"}},{"name":"Steigleshauweg","postalCode":"73349","locality":"Wiesensteig","municipality":{"key":"08117058","name":"Wiesensteig, Stadt","type":"Stadt"},"district":{"key":"08117","name":"Göppingen","type":"Landkreis"},"federalState":{"key":"08","name":"Baden-Württemberg"}},{"name":"Steinstr.","postalCode":"26427","locality":"Esens","municipality":{"key":"03462003","name":"Esens, Stadt","type":"Stadt"},"district":{"key":"03462","name":"Wittmund","type":"Landkreis"},"federalState":{"key":"03","name":"Niedersachsen"}},{"name":"Steinweg","postalCode":"73349","locality":"Wiesensteig","municipality":{"key":"08117058","name":"Wiesensteig, Stadt","type":"Stadt"},"district":{"key":"08117","name":"Göppingen","type":"Landkreis"},"federalState":{"key":"08","name":"Baden-Württemberg"}},{"name":"Sterburer Weg","postalCode":"26427","locality":"Esens","municipality":{"key":"03462003","name":"Esens, Stadt","type":"Stadt"},"district":{"key":"03462","name":"Wittmund","type":"Landkreis"},"federalState":{"key":"03","name":"Niedersachsen"}},{"name":"Sterneckbergstr.","postalCode":"73349","locality":"Wiesensteig","municipality":{"key":"08117058","name":"Wiesensteig, Stadt","type":"Stadt"},"district":{"key":"08117","name":"Göppingen","type":"Landkreis"},"federalState":{"key":"08","name":"Baden-Württemberg"}},{"name":"Stettiner Str.","postalCode":"26427","locality":"Esens","municipality":{"key":"03462003","name":"Esens, Stadt","type":"Stadt"},"district":{"key":"03462","name":"Wittmund","type":"Landkreis"},"federalState":{"key":"03","name":"Niedersachsen"}},{"name":"Störtebeker Weg","postalCode":"26427","locality":"Esens","municipality":{"key":"03462003","name":"Esens, Stadt","type":"Stadt"},"district":{"key":"03462","name":"Wittmund","type":"Landkreis"},"federalState":{"key":"03","name":"Niedersachsen"}},{"name":"Stuifenweg","postalCode":"73349","locality":"Wiesensteig","municipality":{"key":"08117058","name":"Wiesensteig, Stadt","type":"Stadt"},"district":{"key":"08117","name":"Göppingen","type":"Landkreis"},"federalState":{"key":"08","name":"Baden-Württemberg"}},{"name":"Süchtenkamp","postalCode":"26427","locality":"Esens","municipality":{"key":"03462003","name":"Esens, Stadt","type":"Stadt"},"district":{"key":"03462","name":"Wittmund","type":"Landkreis"},"federalState":{"key":"03","name":"Niedersachsen"}},{"name":"Süderwall","postalCode":"26427","locality":"Esens","municipality":{"key":"03462003","name":"Esens, Stadt","type":"Stadt"},"district":{"key":"03462","name":"Wittmund","type":"Landkreis"},"federalState":{"key":"03","name":"Niedersachsen"}},{"name":"Taddigshörn","postalCode":"26427","locality":"Esens","municipality":{"key":"03462003","name":"Esens, Stadt","type":"Stadt"},"district":{"key":"03462","name":"Wittmund","type":"Landkreis"},"federalState":{"key":"03","name":"Niedersachsen"}},{"name":"Taddigsweg","postalCode":"26427","locality":"Esens","municipality":{"key":"03462003","name":"Esens, Stadt","type":"Stadt"},"district":{"key":"03462","name":"Wittmund","type":"Landkreis"},"federalState":{"key":"03","name":"Niedersachsen"}},{"name":"Tannensweg","postalCode":"26427","locality":"Esens","municipality":{"key":"03462003","name":"Esens, Stadt","type":"Stadt"},"district":{"key":"03462","name":"Wittmund","type":"Landkreis"},"federalState":{"key":"03","name":"Niedersachsen"}},{"name":"Taubenkamp","postalCode":"26427","locality":"Esens","municipality":{"key":"03462003","name":"Esens, Stadt","type":"Stadt"},"district":{"key":"03462","name":"Wittmund","type":"Landkreis"},"federalState":{"key":"03","name":"Niedersachsen"}},{"name":"Thedaweg","postalCode":"26427","locality":"Esens","municipality":{"key":"03462003","name":"Esens, Stadt","type":"Stadt"},"district":{"key":"03462","name":"Wittmund","type":"Landkreis"},"federalState":{"key":"03","name":"Niedersachsen"}},{"name":"Theodor-Thomas-Str.","postalCode":"26427","locality":"Esens","municipality":{"key":"03462003","name":"Esens, Stadt","type":"Stadt"},"district":{"key":"03462","name":"Wittmund","type":"Landkreis"},"federalState":{"key":"03","name":"Niedersachsen"}},{"name":"Thunumer Weg","postalCode":"26427","locality":"Esens","municipality":{"key":"03462003","name":"Esens, Stadt","type":"Stadt"},"district":{"key":"03462","name":"Wittmund","type":"Landkreis"},"federalState":{"key":"03","name":"Niedersachsen"}},{"name":"Tilsiter Str.","postalCode":"26427","locality":"Esens","municipality":{"key":"03462003","name":"Esens, Stadt","type":"Stadt"},"district":{"key":"03462","name":"Wittmund","type":"Landkreis"},"federalState":{"key":"03","name":"Niedersachsen"}},{"name":"Tonnenkamper Weg","postalCode":"26427","locality":"Esens","municipality":{"key":"03462003","name":"Esens, Stadt","type":"Stadt"},"district":{"key":"03462","name":"Wittmund","type":"Landkreis"},"federalState":{"key":"03","name":"Niedersachsen"}},{"name":"Unteres Jüchen","postalCode":"26427","locality":"Esens","municipality":{"key":"03462003","name":"Esens, Stadt","type":"Stadt"},"district":{"key":"03462","name":"Wittmund","type":"Landkreis"},"federalState":{"key":"03","name":"Niedersachsen"}},{"name":"Vierhäuser Str.","postalCode":"26427","locality":"Esens","municipality":{"key":"03462003","name":"Esens, Stadt","type":"Stadt"},"district":{"key":"03462","name":"Wittmund","type":"Landkreis"},"federalState":{"key":"03","name":"Niedersachsen"}},{"name":"Von Thünen-Park","postalCode":"26427","locality":"Esens","municipality":{"key":"03462003","name":"Esens, Stadt","type":"Stadt"},"district":{"key":"03462","name":"Wittmund","type":"Landkreis"},"federalState":{"key":"03","name":"Niedersachsen"}},{"name":"Vor dem Drostentor","postalCode":"26427","locality":"Esens","municipality":{"key":"03462003","name":"Esens, Stadt","type":"Stadt"},"district":{"key":"03462","name":"Wittmund","type":"Landkreis"},"federalState":{"key":"03","name":"Niedersachsen"}},{"name":"Waisengasse","postalCode":"73349","locality":"Wiesensteig","municipality":{"key":"08117058","name":"Wiesensteig, Stadt","type":"Stadt"},"district":{"key":"08117","name":"Göppingen","type":"Landkreis"},"federalState":{"key":"08","name":"Baden-Württemberg"}},{"name":"Waldstr.","postalCode":"56459","locality":"Stahlhofen am Wiesensee","municipality":{"key":"07143293","name":"Stahlhofen am Wiesensee","type":"Kreisangehörige_Gemeinde"},"district":{"key":"07143","name":"Westerwaldkreis","type":"Landkreis"},"federalState":{"key":"07","name":"Rheinland-Pfalz"}},{"name":"Walpurgisstr.","postalCode":"26427","locality":"Esens","municipality":{"key":"03462003","name":"Esens, Stadt","type":"Stadt"},"district":{"key":"03462","name":"Wittmund","type":"Landkreis"},"federalState":{"key":"03","name":"Niedersachsen"}},{"name":"Warfsweg","postalCode":"26427","locality":"Esens","municipality":{"key":"03462003","name":"Esens, Stadt","type":"Stadt"},"district":{"key":"03462","name":"Wittmund","type":"Landkreis"},"federalState":{"key":"03","name":"Niedersachsen"}},{"name":"Weinthalslohne","postalCode":"26427","locality":"Esens","municipality":{"key":"03462003","name":"Esens, Stadt","type":"Stadt"},"district":{"key":"03462","name":"Wittmund","type":"Landkreis"},"federalState":{"key":"03","name":"Niedersachsen"}},{"name":"Westbense","postalCode":"26427","locality":"Esens","municipality":{"key":"03462003","name":"Esens, Stadt","type":"Stadt"},"district":{"key":"03462","name":"Wittmund","type":"Landkreis"},"federalState":{"key":"03","name":"Niedersachsen"}},{"name":"Westerheimer Str.","postalCode":"73349","locality":"Wiesensteig","municipality":{"key":"08117058","name":"Wiesensteig, Stadt","type":"Stadt"},"district":{"key":"08117","name":"Göppingen","type":"Landkreis"},"federalState":{"key":"08","name":"Baden-Württemberg"}},{"name":"Westerstr.","postalCode":"26427","locality":"Esens","municipality":{"key":"03462003","name":"Esens, Stadt","type":"Stadt"},"district":{"key":"03462","name":"Wittmund","type":"Landkreis"},"federalState":{"key":"03","name":"Niedersachsen"}},{"name":"Wiard-Lüpkes-Str.","postalCode":"26427","locality":"Esens","municipality":{"key":"03462003","name":"Esens, Stadt","type":"Stadt"},"district":{"key":"03462","name":"Wittmund","type":"Landkreis"},"federalState":{"key":"03","name":"Niedersachsen"}},{"name":"Wiebkeweg","postalCode":"26427","locality":"Esens","municipality":{"key":"03462003","name":"Esens, Stadt","type":"Stadt"},"district":{"key":"03462","name":"Wittmund","type":"Landkreis"},"federalState":{"key":"03","name":"Niedersachsen"}},{"name":"Wiesenweg","postalCode":"26427","locality":"Esens","municipality":{"key":"03462003","name":"Esens, Stadt","type":"Stadt"},"district":{"key":"03462","name":"Wittmund","type":"Landkreis"},"federalState":{"key":"03","name":"Niedersachsen"}},{"name":"Willehadstr.","postalCode":"26427","locality":"Esens","municipality":{"key":"03462003","name":"Esens, Stadt","type":"Stadt"},"district":{"key":"03462","name":"Wittmund","type":"Landkreis"},"federalState":{"key":"03","name":"Niedersachsen"}},{"name":"Wittmunder Str.","postalCode":"26427","locality":"Esens","municipality":{"key":"03462003","name":"Esens, Stadt","type":"Stadt"},"district":{"key":"03462","name":"Wittmund","type":"Landkreis"},"federalState":{"key":"03","name":"Niedersachsen"}},{"name":"Wold","postalCode":"26427","locality":"Esens","municipality":{"key":"03462003","name":"Esens, Stadt","type":"Stadt"},"district":{"key":"03462","name":"Wittmund","type":"Landkreis"},"federalState":{"key":"03","name":"Niedersachsen"}},{"name":"Wolder Flage","postalCode":"26427","locality":"Esens","municipality":{"key":"03462003","name":"Esens, Stadt","type":"Stadt"},"district":{"key":"03462","name":"Wittmund","type":"Landkreis"},"federalState":{"key":"03","name":"Niedersachsen"}},{"name":"Wolder Weg","postalCode":"26427","locality":"Esens","municipality":{"key":"03462003","name":"Esens, Stadt","type":"Stadt"},"district":{"key":"03462","name":"Wittmund","type":"Landkreis"},"federalState":{"key":"03","name":"Niedersachsen"}},{"name":"Zweigbahn","postalCode":"73349","locality":"Wiesensteig","municipality":{"key":"08117058","name":"Wiesensteig, Stadt","type":"Stadt"},"district":{"key":"08117","name":"Göppingen","type":"Landkreis"},"federalState":{"key":"08","name":"Baden-Württemberg"}},{"name":"Ülkegatt","postalCode":"26409","locality":"Wittmund","municipality":{"key":"03462019","name":"Wittmund, Stadt","type":"Stadt"},"district":{"key":"03462","name":"Wittmund","type":"Landkreis"},"federalState":{"key":"03","name":"Niedersachsen"}},]