[{"name":"Adalbert-Stifter-Str.","postalCode":"90584","locality":"Allersberg","municipality":{"key":"09576113","name":"Allersberg, M","type":"Markt"},"district":{"key":"09576","name":"Roth","type":"Landkreis"},"federalState":{"key":"09","name":"Bayern"}},{"name":"Ahornstr.","postalCode":"90584","locality":"Allersberg","municipality":{"key":"09576113","name":"Allersberg, M","type":"Markt"},"district":{"key":"09576","name":"Roth","type":"Landkreis"},"federalState":{"key":"09","name":"Bayern"}},{"name":"Albrechtstr.","postalCode":"90584","locality":"Allersberg","municipality":{"key":"09576113","name":"Allersberg, M","type":"Markt"},"district":{"key":"09576","name":"Roth","type":"Landkreis"},"federalState":{"key":"09","name":"Bayern"}},{"name":"Altenfeldener Str.","postalCode":"90584","locality":"Allersberg","municipality":{"key":"09576113","name":"Allersberg, M","type":"Markt"},"district":{"key":"09576","name":"Roth","type":"Landkreis"},"federalState":{"key":"09","name":"Bayern"}},{"name":"Am Kieselgraben","postalCode":"90584","locality":"Allersberg","municipality":{"key":"09576113","name":"Allersberg, M","type":"Markt"},"district":{"key":"09576","name":"Roth","type":"Landkreis"},"federalState":{"key":"09","name":"Bayern"}},{"name":"Am Spitalwald","postalCode":"90584","locality":"Allersberg","municipality":{"key":"09576113","name":"Allersberg, M","type":"Markt"},"district":{"key":"09576","name":"Roth","type":"Landkreis"},"federalState":{"key":"09","name":"Bayern"}},{"name":"Am Steigbühl","postalCode":"90584","locality":"Allersberg","municipality":{"key":"09576113","name":"Allersberg, M","type":"Markt"},"district":{"key":"09576","name":"Roth","type":"Landkreis"},"federalState":{"key":"09","name":"Bayern"}},{"name":"Am Wachtgraben","postalCode":"90584","locality":"Allersberg","municipality":{"key":"09576113","name":"Allersberg, M","type":"Markt"},"district":{"key":"09576","name":"Roth","type":"Landkreis"},"federalState":{"key":"09","name":"Bayern"}},{"name":"Am Wehr","postalCode":"90584","locality":"Allersberg","municipality":{"key":"09576113","name":"Allersberg, M","type":"Markt"},"district":{"key":"09576","name":"Roth","type":"Landkreis"},"federalState":{"key":"09","name":"Bayern"}},{"name":"Am Weinberg","postalCode":"90584","locality":"Allersberg","municipality":{"key":"09576113","name":"Allersberg, M","type":"Markt"},"district":{"key":"09576","name":"Roth","type":"Landkreis"},"federalState":{"key":"09","name":"Bayern"}},{"name":"Am Wiesengrund","postalCode":"90584","locality":"Allersberg","municipality":{"key":"09576113","name":"Allersberg, M","type":"Markt"},"district":{"key":"09576","name":"Roth","type":"Landkreis"},"federalState":{"key":"09","name":"Bayern"}},{"name":"Anton-Günther-Str.","postalCode":"90584","locality":"Allersberg","municipality":{"key":"09576113","name":"Allersberg, M","type":"Markt"},"district":{"key":"09576","name":"Roth","type":"Landkreis"},"federalState":{"key":"09","name":"Bayern"}},{"name":"Badstr.","postalCode":"90584","locality":"Allersberg","municipality":{"key":"09576113","name":"Allersberg, M","type":"Markt"},"district":{"key":"09576","name":"Roth","type":"Landkreis"},"federalState":{"key":"09","name":"Bayern"}},{"name":"Bahnhofstr.","postalCode":"90584","locality":"Allersberg","municipality":{"key":"09576113","name":"Allersberg, M","type":"Markt"},"district":{"key":"09576","name":"Roth","type":"Landkreis"},"federalState":{"key":"09","name":"Bayern"}},{"name":"Balthasar-Neumann-Str.","postalCode":"90584","locality":"Allersberg","municipality":{"key":"09576113","name":"Allersberg, M","type":"Markt"},"district":{"key":"09576","name":"Roth","type":"Landkreis"},"federalState":{"key":"09","name":"Bayern"}},{"name":"Bayernstr.","postalCode":"90584","locality":"Allersberg","municipality":{"key":"09576113","name":"Allersberg, M","type":"Markt"},"district":{"key":"09576","name":"Roth","type":"Landkreis"},"federalState":{"key":"09","name":"Bayern"}},{"name":"Birkenstr.","postalCode":"90584","locality":"Allersberg","municipality":{"key":"09576113","name":"Allersberg, M","type":"Markt"},"district":{"key":"09576","name":"Roth","type":"Landkreis"},"federalState":{"key":"09","name":"Bayern"}},{"name":"Brunnau","postalCode":"90584","locality":"Allersberg","municipality":{"key":"09576113","name":"Allersberg, M","type":"Markt"},"district":{"key":"09576","name":"Roth","type":"Landkreis"},"federalState":{"key":"09","name":"Bayern"}},{"name":"Brunnenstr.","postalCode":"90584","locality":"Allersberg","municipality":{"key":"09576113","name":"Allersberg, M","type":"Markt"},"district":{"key":"09576","name":"Roth","type":"Landkreis"},"federalState":{"key":"09","name":"Bayern"}},{"name":"Carl-Benz-Str.","postalCode":"89284","locality":"Pfaffenhofen an der Roth","municipality":{"key":"09775143","name":"Pfaffenhofen a.d.Roth, M","type":"Markt"},"district":{"key":"09775","name":"Neu-Ulm","type":"Landkreis"},"federalState":{"key":"09","name":"Bayern"}},{"name":"Clausenburgstr.","postalCode":"57578","locality":"Elkenroth","municipality":{"key":"07132025","name":"Elkenroth","type":"Kreisangehörige_Gemeinde"},"district":{"key":"07132","name":"Altenkirchen (Westerwald)","type":"Landkreis"},"federalState":{"key":"07","name":"Rheinland-Pfalz"}},{"name":"Conrad-Eberhard-Str.","postalCode":"91541","locality":"Rothenburg ob der Tauber","municipality":{"key":"09571193","name":"Rothenburg ob der Tauber, GKSt","type":"Große_Kreisstadt"},"district":{"key":"09571","name":"Ansbach","type":"Landkreis"},"federalState":{"key":"09","name":"Bayern"}},{"name":"Creglinger Str.","postalCode":"91541","locality":"Rothenburg ob der Tauber","municipality":{"key":"09571193","name":"Rothenburg ob der Tauber, GKSt","type":"Große_Kreisstadt"},"district":{"key":"09571","name":"Ansbach","type":"Landkreis"},"federalState":{"key":"09","name":"Bayern"}},{"name":"Cristalstr.","postalCode":"97705","locality":"Burkardroth","municipality":{"key":"09672117","name":"Burkardroth, M","type":"Markt"},"district":{"key":"09672","name":"Bad Kissingen","type":"Landkreis"},"federalState":{"key":"09","name":"Bayern"}},{"name":"Drosselstr.","postalCode":"90584","locality":"Allersberg","municipality":{"key":"09576113","name":"Allersberg, M","type":"Markt"},"district":{"key":"09576","name":"Roth","type":"Landkreis"},"federalState":{"key":"09","name":"Bayern"}},{"name":"Ebenried","postalCode":"90584","locality":"Allersberg","municipality":{"key":"09576113","name":"Allersberg, M","type":"Markt"},"district":{"key":"09576","name":"Roth","type":"Landkreis"},"federalState":{"key":"09","name":"Bayern"}},{"name":"Ebenrieder Str.","postalCode":"90584","locality":"Allersberg","municipality":{"key":"09576113","name":"Allersberg, M","type":"Markt"},"district":{"key":"09576","name":"Roth","type":"Landkreis"},"federalState":{"key":"09","name":"Bayern"}},{"name":"Ebenseestr.","postalCode":"90584","locality":"Allersberg","municipality":{"key":"09576113","name":"Allersberg, M","type":"Markt"},"district":{"key":"09576","name":"Roth","type":"Landkreis"},"federalState":{"key":"09","name":"Bayern"}},{"name":"Eismannsdorf","postalCode":"90584","locality":"Allersberg","municipality":{"key":"09576113","name":"Allersberg, M","type":"Markt"},"district":{"key":"09576","name":"Roth","type":"Landkreis"},"federalState":{"key":"09","name":"Bayern"}},{"name":"Eppersdorf","postalCode":"90584","locality":"Allersberg","municipality":{"key":"09576113","name":"Allersberg, M","type":"Markt"},"district":{"key":"09576","name":"Roth","type":"Landkreis"},"federalState":{"key":"09","name":"Bayern"}},{"name":"Eppersdorfer Str.","postalCode":"90584","locality":"Allersberg","municipality":{"key":"09576113","name":"Allersberg, M","type":"Markt"},"district":{"key":"09576","name":"Roth","type":"Landkreis"},"federalState":{"key":"09","name":"Bayern"}},{"name":"Erik-Geiershoefer-Str.","postalCode":"90584","locality":"Allersberg","municipality":{"key":"09576113","name":"Allersberg, M","type":"Markt"},"district":{"key":"09576","name":"Roth","type":"Landkreis"},"federalState":{"key":"09","name":"Bayern"}},{"name":"Eulenhofer Str.","postalCode":"90584","locality":"Allersberg","municipality":{"key":"09576113","name":"Allersberg, M","type":"Markt"},"district":{"key":"09576","name":"Roth","type":"Landkreis"},"federalState":{"key":"09","name":"Bayern"}},{"name":"Festplatz","postalCode":"90584","locality":"Allersberg","municipality":{"key":"09576113","name":"Allersberg, M","type":"Markt"},"district":{"key":"09576","name":"Roth","type":"Landkreis"},"federalState":{"key":"09","name":"Bayern"}},{"name":"Finkenstr.","postalCode":"90584","locality":"Allersberg","municipality":{"key":"09576113","name":"Allersberg, M","type":"Markt"},"district":{"key":"09576","name":"Roth","type":"Landkreis"},"federalState":{"key":"09","name":"Bayern"}},{"name":"Flurstr.","postalCode":"90584","locality":"Allersberg","municipality":{"key":"09576113","name":"Allersberg, M","type":"Markt"},"district":{"key":"09576","name":"Roth","type":"Landkreis"},"federalState":{"key":"09","name":"Bayern"}},{"name":"Frankenstr.","postalCode":"90584","locality":"Allersberg","municipality":{"key":"09576113","name":"Allersberg, M","type":"Markt"},"district":{"key":"09576","name":"Roth","type":"Landkreis"},"federalState":{"key":"09","name":"Bayern"}},{"name":"Freystädter Str.","postalCode":"90584","locality":"Allersberg","municipality":{"key":"09576113","name":"Allersberg, M","type":"Markt"},"district":{"key":"09576","name":"Roth","type":"Landkreis"},"federalState":{"key":"09","name":"Bayern"}},{"name":"Gabrielistr.","postalCode":"90584","locality":"Allersberg","municipality":{"key":"09576113","name":"Allersberg, M","type":"Markt"},"district":{"key":"09576","name":"Roth","type":"Landkreis"},"federalState":{"key":"09","name":"Bayern"}},{"name":"Gartenstr.","postalCode":"90584","locality":"Allersberg","municipality":{"key":"09576113","name":"Allersberg, M","type":"Markt"},"district":{"key":"09576","name":"Roth","type":"Landkreis"},"federalState":{"key":"09","name":"Bayern"}},{"name":"Gilardistr.","postalCode":"90584","locality":"Allersberg","municipality":{"key":"09576113","name":"Allersberg, M","type":"Markt"},"district":{"key":"09576","name":"Roth","type":"Landkreis"},"federalState":{"key":"09","name":"Bayern"}},{"name":"Göggelsbucher Hauptstr.","postalCode":"90584","locality":"Allersberg","municipality":{"key":"09576113","name":"Allersberg, M","type":"Markt"},"district":{"key":"09576","name":"Roth","type":"Landkreis"},"federalState":{"key":"09","name":"Bayern"}},{"name":"Göggelsbucher Westring","postalCode":"90584","locality":"Allersberg","municipality":{"key":"09576113","name":"Allersberg, M","type":"Markt"},"district":{"key":"09576","name":"Roth","type":"Landkreis"},"federalState":{"key":"09","name":"Bayern"}},{"name":"Grashofer Str.","postalCode":"90584","locality":"Allersberg","municipality":{"key":"09576113","name":"Allersberg, M","type":"Markt"},"district":{"key":"09576","name":"Roth","type":"Landkreis"},"federalState":{"key":"09","name":"Bayern"}},{"name":"Guggenmühle","postalCode":"90584","locality":"Allersberg","municipality":{"key":"09576113","name":"Allersberg, M","type":"Markt"},"district":{"key":"09576","name":"Roth","type":"Landkreis"},"federalState":{"key":"09","name":"Bayern"}},{"name":"Gundekarstr.","postalCode":"90584","locality":"Allersberg","municipality":{"key":"09576113","name":"Allersberg, M","type":"Markt"},"district":{"key":"09576","name":"Roth","type":"Landkreis"},"federalState":{"key":"09","name":"Bayern"}},{"name":"Hainstr.","postalCode":"90584","locality":"Allersberg","municipality":{"key":"09576113","name":"Allersberg, M","type":"Markt"},"district":{"key":"09576","name":"Roth","type":"Landkreis"},"federalState":{"key":"09","name":"Bayern"}},{"name":"Harrhof","postalCode":"90584","locality":"Allersberg","municipality":{"key":"09576113","name":"Allersberg, M","type":"Markt"},"district":{"key":"09576","name":"Roth","type":"Landkreis"},"federalState":{"key":"09","name":"Bayern"}},{"name":"Haselweg","postalCode":"90584","locality":"Allersberg","municipality":{"key":"09576113","name":"Allersberg, M","type":"Markt"},"district":{"key":"09576","name":"Roth","type":"Landkreis"},"federalState":{"key":"09","name":"Bayern"}},{"name":"Heblesrichter Str.","postalCode":"90584","locality":"Allersberg","municipality":{"key":"09576113","name":"Allersberg, M","type":"Markt"},"district":{"key":"09576","name":"Roth","type":"Landkreis"},"federalState":{"key":"09","name":"Bayern"}},{"name":"Heckelstr.","postalCode":"90584","locality":"Allersberg","municipality":{"key":"09576113","name":"Allersberg, M","type":"Markt"},"district":{"key":"09576","name":"Roth","type":"Landkreis"},"federalState":{"key":"09","name":"Bayern"}},{"name":"Heugasse","postalCode":"90584","locality":"Allersberg","municipality":{"key":"09576113","name":"Allersberg, M","type":"Markt"},"district":{"key":"09576","name":"Roth","type":"Landkreis"},"federalState":{"key":"09","name":"Bayern"}},{"name":"Hilpoltsteiner Str.","postalCode":"90584","locality":"Allersberg","municipality":{"key":"09576113","name":"Allersberg, M","type":"Markt"},"district":{"key":"09576","name":"Roth","type":"Landkreis"},"federalState":{"key":"09","name":"Bayern"}},{"name":"Hinterer Markt","postalCode":"90584","locality":"Allersberg","municipality":{"key":"09576113","name":"Allersberg, M","type":"Markt"},"district":{"key":"09576","name":"Roth","type":"Landkreis"},"federalState":{"key":"09","name":"Bayern"}},{"name":"Hirschbergerstr.","postalCode":"90584","locality":"Allersberg","municipality":{"key":"09576113","name":"Allersberg, M","type":"Markt"},"district":{"key":"09576","name":"Roth","type":"Landkreis"},"federalState":{"key":"09","name":"Bayern"}},{"name":"Hopfengartenstr.","postalCode":"90584","locality":"Allersberg","municipality":{"key":"09576113","name":"Allersberg, M","type":"Markt"},"district":{"key":"09576","name":"Roth","type":"Landkreis"},"federalState":{"key":"09","name":"Bayern"}},{"name":"Im Himmelreich","postalCode":"90584","locality":"Allersberg","municipality":{"key":"09576113","name":"Allersberg, M","type":"Markt"},"district":{"key":"09576","name":"Roth","type":"Landkreis"},"federalState":{"key":"09","name":"Bayern"}},{"name":"Im Tiefen Weg","postalCode":"90584","locality":"Allersberg","municipality":{"key":"09576113","name":"Allersberg, M","type":"Markt"},"district":{"key":"09576","name":"Roth","type":"Landkreis"},"federalState":{"key":"09","name":"Bayern"}},{"name":"In der Windstube","postalCode":"90584","locality":"Allersberg","municipality":{"key":"09576113","name":"Allersberg, M","type":"Markt"},"district":{"key":"09576","name":"Roth","type":"Landkreis"},"federalState":{"key":"09","name":"Bayern"}},{"name":"Industriestr.","postalCode":"90584","locality":"Allersberg","municipality":{"key":"09576113","name":"Allersberg, M","type":"Markt"},"district":{"key":"09576","name":"Roth","type":"Landkreis"},"federalState":{"key":"09","name":"Bayern"}},{"name":"Johannisstr.","postalCode":"90584","locality":"Allersberg","municipality":{"key":"09576113","name":"Allersberg, M","type":"Markt"},"district":{"key":"09576","name":"Roth","type":"Landkreis"},"federalState":{"key":"09","name":"Bayern"}},{"name":"Josef-Bauer-Str.","postalCode":"90584","locality":"Allersberg","municipality":{"key":"09576113","name":"Allersberg, M","type":"Markt"},"district":{"key":"09576","name":"Roth","type":"Landkreis"},"federalState":{"key":"09","name":"Bayern"}},{"name":"Kellerstr.","postalCode":"90584","locality":"Allersberg","municipality":{"key":"09576113","name":"Allersberg, M","type":"Markt"},"district":{"key":"09576","name":"Roth","type":"Landkreis"},"federalState":{"key":"09","name":"Bayern"}},{"name":"Kirchstr.","postalCode":"90584","locality":"Allersberg","municipality":{"key":"09576113","name":"Allersberg, M","type":"Markt"},"district":{"key":"09576","name":"Roth","type":"Landkreis"},"federalState":{"key":"09","name":"Bayern"}},{"name":"Kolpingstr.","postalCode":"90584","locality":"Allersberg","municipality":{"key":"09576113","name":"Allersberg, M","type":"Markt"},"district":{"key":"09576","name":"Roth","type":"Landkreis"},"federalState":{"key":"09","name":"Bayern"}},{"name":"Lampersdorfer Str.","postalCode":"90584","locality":"Allersberg","municipality":{"key":"09576113","name":"Allersberg, M","type":"Markt"},"district":{"key":"09576","name":"Roth","type":"Landkreis"},"federalState":{"key":"09","name":"Bayern"}},{"name":"Langweidstr.","postalCode":"90584","locality":"Allersberg","municipality":{"key":"09576113","name":"Allersberg, M","type":"Markt"},"district":{"key":"09576","name":"Roth","type":"Landkreis"},"federalState":{"key":"09","name":"Bayern"}},{"name":"Leo-Hämmerle-Str.","postalCode":"90584","locality":"Allersberg","municipality":{"key":"09576113","name":"Allersberg, M","type":"Markt"},"district":{"key":"09576","name":"Roth","type":"Landkreis"},"federalState":{"key":"09","name":"Bayern"}},{"name":"Leopoldstr.","postalCode":"90584","locality":"Allersberg","municipality":{"key":"09576113","name":"Allersberg, M","type":"Markt"},"district":{"key":"09576","name":"Roth","type":"Landkreis"},"federalState":{"key":"09","name":"Bayern"}},{"name":"Lerchenfeldstr.","postalCode":"90584","locality":"Allersberg","municipality":{"key":"09576113","name":"Allersberg, M","type":"Markt"},"district":{"key":"09576","name":"Roth","type":"Landkreis"},"federalState":{"key":"09","name":"Bayern"}},{"name":"Lindenstr.","postalCode":"90584","locality":"Allersberg","municipality":{"key":"09576113","name":"Allersberg, M","type":"Markt"},"district":{"key":"09576","name":"Roth","type":"Landkreis"},"federalState":{"key":"09","name":"Bayern"}},{"name":"Marktplatz","postalCode":"90584","locality":"Allersberg","municipality":{"key":"09576113","name":"Allersberg, M","type":"Markt"},"district":{"key":"09576","name":"Roth","type":"Landkreis"},"federalState":{"key":"09","name":"Bayern"}},{"name":"Neuburger Str.","postalCode":"90584","locality":"Allersberg","municipality":{"key":"09576113","name":"Allersberg, M","type":"Markt"},"district":{"key":"09576","name":"Roth","type":"Landkreis"},"federalState":{"key":"09","name":"Bayern"}},{"name":"Neumarkter Str.","postalCode":"90584","locality":"Allersberg","municipality":{"key":"09576113","name":"Allersberg, M","type":"Markt"},"district":{"key":"09576","name":"Roth","type":"Landkreis"},"federalState":{"key":"09","name":"Bayern"}},{"name":"Nürnberger Str.","postalCode":"90584","locality":"Allersberg","municipality":{"key":"09576113","name":"Allersberg, M","type":"Markt"},"district":{"key":"09576","name":"Roth","type":"Landkreis"},"federalState":{"key":"09","name":"Bayern"}},{"name":"Ober der Kirch","postalCode":"56290","locality":"Gödenroth","municipality":{"key":"07140042","name":"Gödenroth","type":"Kreisangehörige_Gemeinde"},"district":{"key":"07140","name":"Rhein-Hunsrück-Kreis","type":"Landkreis"},"federalState":{"key":"07","name":"Rheinland-Pfalz"}},{"name":"Ober der Schmitte","postalCode":"53809","locality":"Ruppichteroth","municipality":{"key":"05382052","name":"Ruppichteroth","type":"Kreisangehörige_Gemeinde"},"district":{"key":"05382","name":"Rhein-Sieg-Kreis","type":"Kreis"},"federalState":{"key":"05","name":"Nordrhein-Westfalen"}},{"name":"Oberdorfstr.","postalCode":"56244","locality":"Rückeroth","municipality":{"key":"07143064","name":"Rückeroth","type":"Kreisangehörige_Gemeinde"},"district":{"key":"07143","name":"Westerwaldkreis","type":"Landkreis"},"federalState":{"key":"07","name":"Rheinland-Pfalz"}},{"name":"Obere Bahnhofstr.","postalCode":"91541","locality":"Rothenburg ob der Tauber","municipality":{"key":"09571193","name":"Rothenburg ob der Tauber, GKSt","type":"Große_Kreisstadt"},"district":{"key":"09571","name":"Ansbach","type":"Landkreis"},"federalState":{"key":"09","name":"Bayern"}},{"name":"Obere Dick","postalCode":"97705","locality":"Burkardroth","municipality":{"key":"09672117","name":"Burkardroth, M","type":"Markt"},"district":{"key":"09672","name":"Bad Kissingen","type":"Landkreis"},"federalState":{"key":"09","name":"Bayern"}},{"name":"Obere Föhr","postalCode":"54570","locality":"Neroth","municipality":{"key":"07233050","name":"Neroth","type":"Kreisangehörige_Gemeinde"},"district":{"key":"07233","name":"Vulkaneifel","type":"Landkreis"},"federalState":{"key":"07","name":"Rheinland-Pfalz"}},{"name":"Obere Gartenstr.","postalCode":"56457","locality":"Hergenroth","municipality":{"key":"07143238","name":"Hergenroth","type":"Kreisangehörige_Gemeinde"},"district":{"key":"07143","name":"Westerwaldkreis","type":"Landkreis"},"federalState":{"key":"07","name":"Rheinland-Pfalz"}},{"name":"Obere Gasse","postalCode":"97618","locality":"Hohenroth","municipality":{"key":"09673135","name":"Hohenroth","type":"Kreisangehörige_Gemeinde"},"district":{"key":"09673","name":"Rhön-Grabfeld","type":"Landkreis"},"federalState":{"key":"09","name":"Bayern"}},{"name":"Obere Gasse","postalCode":"97851","locality":"Rothenfels","municipality":{"key":"09677181","name":"Rothenfels, St","type":"Stadt"},"district":{"key":"09677","name":"Main-Spessart","type":"Landkreis"},"federalState":{"key":"09","name":"Bayern"}},{"name":"Obere Glasschleife","postalCode":"91154","locality":"Roth","municipality":{"key":"09576143","name":"Roth, St","type":"Stadt"},"district":{"key":"09576","name":"Roth","type":"Landkreis"},"federalState":{"key":"09","name":"Bayern"}},{"name":"Obere Heeg","postalCode":"63594","locality":"Hasselroth","municipality":{"key":"06435015","name":"Hasselroth","type":"Kreisangehörige_Gemeinde"},"district":{"key":"06435","name":"Main-Kinzig-Kreis","type":"Landkreis"},"federalState":{"key":"06","name":"Hessen"}},{"name":"Obere Hirschbitze","postalCode":"53809","locality":"Ruppichteroth","municipality":{"key":"05382052","name":"Ruppichteroth","type":"Kreisangehörige_Gemeinde"},"district":{"key":"05382","name":"Rhein-Sieg-Kreis","type":"Kreis"},"federalState":{"key":"05","name":"Nordrhein-Westfalen"}},{"name":"Obere Illbach","postalCode":"56412","locality":"Heiligenroth","municipality":{"key":"07143027","name":"Heiligenroth","type":"Kreisangehörige_Gemeinde"},"district":{"key":"07143","name":"Westerwaldkreis","type":"Landkreis"},"federalState":{"key":"07","name":"Rheinland-Pfalz"}},{"name":"Obere Marktstr.","postalCode":"97705","locality":"Burkardroth","municipality":{"key":"09672117","name":"Burkardroth, M","type":"Markt"},"district":{"key":"09672","name":"Bad Kissingen","type":"Landkreis"},"federalState":{"key":"09","name":"Bayern"}},{"name":"Obere Mühle","postalCode":"91154","locality":"Roth","municipality":{"key":"09576143","name":"Roth, St","type":"Stadt"},"district":{"key":"09576","name":"Roth","type":"Landkreis"},"federalState":{"key":"09","name":"Bayern"}},{"name":"Oberer Eschachweg","postalCode":"89284","locality":"Pfaffenhofen an der Roth","municipality":{"key":"09775143","name":"Pfaffenhofen a.d.Roth, M","type":"Markt"},"district":{"key":"09775","name":"Neu-Ulm","type":"Landkreis"},"federalState":{"key":"09","name":"Bayern"}},{"name":"Oberer Kaiserweg","postalCode":"91541","locality":"Rothenburg ob der Tauber","municipality":{"key":"09571193","name":"Rothenburg ob der Tauber, GKSt","type":"Große_Kreisstadt"},"district":{"key":"09571","name":"Ansbach","type":"Landkreis"},"federalState":{"key":"09","name":"Bayern"}},{"name":"Oberer Stockweg","postalCode":"91154","locality":"Roth","municipality":{"key":"09576143","name":"Roth, St","type":"Stadt"},"district":{"key":"09576","name":"Roth","type":"Landkreis"},"federalState":{"key":"09","name":"Bayern"}},{"name":"Obere Schmiedgasse","postalCode":"91541","locality":"Rothenburg ob der Tauber","municipality":{"key":"09571193","name":"Rothenburg ob der Tauber, GKSt","type":"Große_Kreisstadt"},"district":{"key":"09571","name":"Ansbach","type":"Landkreis"},"federalState":{"key":"09","name":"Bayern"}},{"name":"Oberförsterdamm","postalCode":"17379","locality":"Rothemühl","municipality":{"key":"13075118","name":"Rothemühl","type":"Kreisangehörige_Gemeinde"},"district":{"key":"13075","name":"Vorpommern-Greifswald","type":"Landkreis"},"federalState":{"key":"13","name":"Mecklenburg-Vorpommern"}},{"name":"Oberhauser Weg","postalCode":"89284","locality":"Pfaffenhofen an der Roth","municipality":{"key":"09775143","name":"Pfaffenhofen a.d.Roth, M","type":"Markt"},"district":{"key":"09775","name":"Neu-Ulm","type":"Landkreis"},"federalState":{"key":"09","name":"Bayern"}},{"name":"Oberriedweg","postalCode":"89294","locality":"Oberroth","municipality":{"key":"09775141","name":"Oberroth","type":"Kreisangehörige_Gemeinde"},"district":{"key":"09775","name":"Neu-Ulm","type":"Landkreis"},"federalState":{"key":"09","name":"Bayern"}},{"name":"Oberrother Str.","postalCode":"89299","locality":"Unterroth","municipality":{"key":"09775161","name":"Unterroth","type":"Kreisangehörige_Gemeinde"},"district":{"key":"09775","name":"Neu-Ulm","type":"Landkreis"},"federalState":{"key":"09","name":"Bayern"}},{"name":"Obersayn","postalCode":"56459","locality":"Rothenbach","municipality":{"key":"07143289","name":"Rothenbach","type":"Kreisangehörige_Gemeinde"},"district":{"key":"07143","name":"Westerwaldkreis","type":"Landkreis"},"federalState":{"key":"07","name":"Rheinland-Pfalz"}},{"name":"Obersinner Str.","postalCode":"97797","locality":"Wartmannsroth","municipality":{"key":"09672161","name":"Wartmannsroth","type":"Kreisangehörige_Gemeinde"},"district":{"key":"09672","name":"Bad Kissingen","type":"Landkreis"},"federalState":{"key":"09","name":"Bayern"}},{"name":"Oberstr.","postalCode":"56414","locality":"Weroth","municipality":{"key":"07143080","name":"Weroth","type":"Kreisangehörige_Gemeinde"},"district":{"key":"07143","name":"Westerwaldkreis","type":"Landkreis"},"federalState":{"key":"07","name":"Rheinland-Pfalz"}},{"name":"Oberstr.","postalCode":"56459","locality":"Girkenroth","municipality":{"key":"07143226","name":"Girkenroth","type":"Kreisangehörige_Gemeinde"},"district":{"key":"07143","name":"Westerwaldkreis","type":"Landkreis"},"federalState":{"key":"07","name":"Rheinland-Pfalz"}},{"name":"Obersundernweg","postalCode":"49214","locality":"Bad Rothenfelde","municipality":{"key":"03459006","name":"Bad Rothenfelde","type":"Kreisangehörige_Gemeinde"},"district":{"key":"03459","name":"Osnabrück","type":"Landkreis"},"federalState":{"key":"03","name":"Niedersachsen"}},{"name":"Obstgarten","postalCode":"97618","locality":"Hohenroth","municipality":{"key":"09673135","name":"Hohenroth","type":"Kreisangehörige_Gemeinde"},"district":{"key":"09673","name":"Rhön-Grabfeld","type":"Landkreis"},"federalState":{"key":"09","name":"Bayern"}},{"name":"Odenwaldstr.","postalCode":"63594","locality":"Hasselroth","municipality":{"key":"06435015","name":"Hasselroth","type":"Kreisangehörige_Gemeinde"},"district":{"key":"06435","name":"Main-Kinzig-Kreis","type":"Landkreis"},"federalState":{"key":"06","name":"Hessen"}},{"name":"Oelbermannstr.","postalCode":"54570","locality":"Neroth","municipality":{"key":"07233050","name":"Neroth","type":"Kreisangehörige_Gemeinde"},"district":{"key":"07233","name":"Vulkaneifel","type":"Landkreis"},"federalState":{"key":"07","name":"Rheinland-Pfalz"}},{"name":"Oelerother Str.","postalCode":"53809","locality":"Ruppichteroth","municipality":{"key":"05382052","name":"Ruppichteroth","type":"Kreisangehörige_Gemeinde"},"district":{"key":"05382","name":"Rhein-Sieg-Kreis","type":"Kreis"},"federalState":{"key":"05","name":"Nordrhein-Westfalen"}},{"name":"Oelknitzer Grund","postalCode":"07751","locality":"Rothenstein","municipality":{"key":"16074079","name":"Rothenstein","type":"Kreisangehörige_Gemeinde"},"district":{"key":"16074","name":"Saale-Holzland-Kreis","type":"Landkreis"},"federalState":{"key":"16","name":"Thüringen"}},{"name":"Ohmayerstr.","postalCode":"91541","locality":"Rothenburg ob der Tauber","municipality":{"key":"09571193","name":"Rothenburg ob der Tauber, GKSt","type":"Große_Kreisstadt"},"district":{"key":"09571","name":"Ansbach","type":"Landkreis"},"federalState":{"key":"09","name":"Bayern"}},{"name":"Ohmstr.","postalCode":"91154","locality":"Roth","municipality":{"key":"09576143","name":"Roth, St","type":"Stadt"},"district":{"key":"09576","name":"Roth","type":"Landkreis"},"federalState":{"key":"09","name":"Bayern"}},{"name":"Ohne Namen","postalCode":"97705","locality":"Burkardroth","municipality":{"key":"09672117","name":"Burkardroth, M","type":"Markt"},"district":{"key":"09672","name":"Bad Kissingen","type":"Landkreis"},"federalState":{"key":"09","name":"Bayern"}},{"name":"Ortsplatz","postalCode":"94356","locality":"Kirchroth","municipality":{"key":"09278141","name":"Kirchroth","type":"Kreisangehörige_Gemeinde"},"district":{"key":"09278","name":"Straubing-Bogen","type":"Landkreis"},"federalState":{"key":"09","name":"Bayern"}},{"name":"Osnabrücker Str.","postalCode":"49214","locality":"Bad Rothenfelde","municipality":{"key":"03459006","name":"Bad Rothenfelde","type":"Kreisangehörige_Gemeinde"},"district":{"key":"03459","name":"Osnabrück","type":"Landkreis"},"federalState":{"key":"03","name":"Niedersachsen"}},{"name":"Osniweg","postalCode":"49214","locality":"Bad Rothenfelde","municipality":{"key":"03459006","name":"Bad Rothenfelde","type":"Kreisangehörige_Gemeinde"},"district":{"key":"03459","name":"Osnabrück","type":"Landkreis"},"federalState":{"key":"03","name":"Niedersachsen"}},{"name":"Osterberger Str.","postalCode":"89294","locality":"Oberroth","municipality":{"key":"09775141","name":"Oberroth","type":"Kreisangehörige_Gemeinde"},"district":{"key":"09775","name":"Neu-Ulm","type":"Landkreis"},"federalState":{"key":"09","name":"Bayern"}},{"name":"Osterfeld","postalCode":"49214","locality":"Bad Rothenfelde","municipality":{"key":"03459006","name":"Bad Rothenfelde","type":"Kreisangehörige_Gemeinde"},"district":{"key":"03459","name":"Osnabrück","type":"Landkreis"},"federalState":{"key":"03","name":"Niedersachsen"}},{"name":"Osterholzstr.","postalCode":"89284","locality":"Pfaffenhofen an der Roth","municipality":{"key":"09775143","name":"Pfaffenhofen a.d.Roth, M","type":"Markt"},"district":{"key":"09775","name":"Neu-Ulm","type":"Landkreis"},"federalState":{"key":"09","name":"Bayern"}},{"name":"Oststr.","postalCode":"56244","locality":"Rückeroth","municipality":{"key":"07143064","name":"Rückeroth","type":"Kreisangehörige_Gemeinde"},"district":{"key":"07143","name":"Westerwaldkreis","type":"Landkreis"},"federalState":{"key":"07","name":"Rheinland-Pfalz"}},{"name":"Oststr.","postalCode":"57539","locality":"Roth","municipality":{"key":"07132096","name":"Roth","type":"Kreisangehörige_Gemeinde"},"district":{"key":"07132","name":"Altenkirchen (Westerwald)","type":"Landkreis"},"federalState":{"key":"07","name":"Rheinland-Pfalz"}},{"name":"Oststr.","postalCode":"57578","locality":"Elkenroth","municipality":{"key":"07132025","name":"Elkenroth","type":"Kreisangehörige_Gemeinde"},"district":{"key":"07132","name":"Altenkirchen (Westerwald)","type":"Landkreis"},"federalState":{"key":"07","name":"Rheinland-Pfalz"}},{"name":"Oststr.","postalCode":"89294","locality":"Oberroth","municipality":{"key":"09775141","name":"Oberroth","type":"Kreisangehörige_Gemeinde"},"district":{"key":"09775","name":"Neu-Ulm","type":"Landkreis"},"federalState":{"key":"09","name":"Bayern"}},{"name":"Otto-Hahn-Str.","postalCode":"91154","locality":"Roth","municipality":{"key":"09576143","name":"Roth, St","type":"Stadt"},"district":{"key":"09576","name":"Roth","type":"Landkreis"},"federalState":{"key":"09","name":"Bayern"}},{"name":"Otto-Hiendl-Str.","postalCode":"94356","locality":"Kirchroth","municipality":{"key":"09278141","name":"Kirchroth","type":"Kreisangehörige_Gemeinde"},"district":{"key":"09278","name":"Straubing-Bogen","type":"Landkreis"},"federalState":{"key":"09","name":"Bayern"}},{"name":"Otto-Kanzler-Weg","postalCode":"49214","locality":"Bad Rothenfelde","municipality":{"key":"03459006","name":"Bad Rothenfelde","type":"Kreisangehörige_Gemeinde"},"district":{"key":"03459","name":"Osnabrück","type":"Landkreis"},"federalState":{"key":"03","name":"Niedersachsen"}},{"name":"Otto-Lilienthal-Kaserne","postalCode":"91154","locality":"Roth","municipality":{"key":"09576143","name":"Roth, St","type":"Stadt"},"district":{"key":"09576","name":"Roth","type":"Landkreis"},"federalState":{"key":"09","name":"Bayern"}},{"name":"Peter-Köferler-Str.","postalCode":"90584","locality":"Allersberg","municipality":{"key":"09576113","name":"Allersberg, M","type":"Markt"},"district":{"key":"09576","name":"Roth","type":"Landkreis"},"federalState":{"key":"09","name":"Bayern"}},{"name":"Polsdorf","postalCode":"90584","locality":"Allersberg","municipality":{"key":"09576113","name":"Allersberg, M","type":"Markt"},"district":{"key":"09576","name":"Roth","type":"Landkreis"},"federalState":{"key":"09","name":"Bayern"}},{"name":"Polsdorfer Str.","postalCode":"90584","locality":"Allersberg","municipality":{"key":"09576113","name":"Allersberg, M","type":"Markt"},"district":{"key":"09576","name":"Roth","type":"Landkreis"},"federalState":{"key":"09","name":"Bayern"}},{"name":"Pyrbaumer Str.","postalCode":"90584","locality":"Allersberg","municipality":{"key":"09576113","name":"Allersberg, M","type":"Markt"},"district":{"key":"09576","name":"Roth","type":"Landkreis"},"federalState":{"key":"09","name":"Bayern"}},{"name":"Quellengasse","postalCode":"97797","locality":"Wartmannsroth","municipality":{"key":"09672161","name":"Wartmannsroth","type":"Kreisangehörige_Gemeinde"},"district":{"key":"09672","name":"Bad Kissingen","type":"Landkreis"},"federalState":{"key":"09","name":"Bayern"}},{"name":"Quellenweg","postalCode":"49214","locality":"Bad Rothenfelde","municipality":{"key":"03459006","name":"Bad Rothenfelde","type":"Kreisangehörige_Gemeinde"},"district":{"key":"03459","name":"Osnabrück","type":"Landkreis"},"federalState":{"key":"03","name":"Niedersachsen"}},{"name":"Quellenweg","postalCode":"53809","locality":"Ruppichteroth","municipality":{"key":"05382052","name":"Ruppichteroth","type":"Kreisangehörige_Gemeinde"},"district":{"key":"05382","name":"Rhein-Sieg-Kreis","type":"Kreis"},"federalState":{"key":"05","name":"Nordrhein-Westfalen"}},{"name":"Quellgrund","postalCode":"49214","locality":"Bad Rothenfelde","municipality":{"key":"03459006","name":"Bad Rothenfelde","type":"Kreisangehörige_Gemeinde"},"district":{"key":"03459","name":"Osnabrück","type":"Landkreis"},"federalState":{"key":"03","name":"Niedersachsen"}},{"name":"Querbachshof","postalCode":"97618","locality":"Hohenroth","municipality":{"key":"09673135","name":"Hohenroth","type":"Kreisangehörige_Gemeinde"},"district":{"key":"09673","name":"Rhön-Grabfeld","type":"Landkreis"},"federalState":{"key":"09","name":"Bayern"}},{"name":"Querbachshofer Str.","postalCode":"97618","locality":"Hohenroth","municipality":{"key":"09673135","name":"Hohenroth","type":"Kreisangehörige_Gemeinde"},"district":{"key":"09673","name":"Rhön-Grabfeld","type":"Landkreis"},"federalState":{"key":"09","name":"Bayern"}},{"name":"querfeldein","postalCode":"53809","locality":"Ruppichteroth","municipality":{"key":"05382052","name":"Ruppichteroth","type":"Kreisangehörige_Gemeinde"},"district":{"key":"05382","name":"Rhein-Sieg-Kreis","type":"Kreis"},"federalState":{"key":"05","name":"Nordrhein-Westfalen"}},{"name":"Reckenricht","postalCode":"90584","locality":"Allersberg","municipality":{"key":"09576113","name":"Allersberg, M","type":"Markt"},"district":{"key":"09576","name":"Roth","type":"Landkreis"},"federalState":{"key":"09","name":"Bayern"}},{"name":"Reckenstetten","postalCode":"90584","locality":"Allersberg","municipality":{"key":"09576113","name":"Allersberg, M","type":"Markt"},"district":{"key":"09576","name":"Roth","type":"Landkreis"},"federalState":{"key":"09","name":"Bayern"}},{"name":"Riedstr.","postalCode":"90584","locality":"Allersberg","municipality":{"key":"09576113","name":"Allersberg, M","type":"Markt"},"district":{"key":"09576","name":"Roth","type":"Landkreis"},"federalState":{"key":"09","name":"Bayern"}},{"name":"Ringstr.","postalCode":"90584","locality":"Allersberg","municipality":{"key":"09576113","name":"Allersberg, M","type":"Markt"},"district":{"key":"09576","name":"Roth","type":"Landkreis"},"federalState":{"key":"09","name":"Bayern"}},{"name":"Rother Str.","postalCode":"90584","locality":"Allersberg","municipality":{"key":"09576113","name":"Allersberg, M","type":"Markt"},"district":{"key":"09576","name":"Roth","type":"Landkreis"},"federalState":{"key":"09","name":"Bayern"}},{"name":"Rotkreuzgasse","postalCode":"90584","locality":"Allersberg","municipality":{"key":"09576113","name":"Allersberg, M","type":"Markt"},"district":{"key":"09576","name":"Roth","type":"Landkreis"},"federalState":{"key":"09","name":"Bayern"}},{"name":"Saint-Céré-Platz","postalCode":"90584","locality":"Allersberg","municipality":{"key":"09576113","name":"Allersberg, M","type":"Markt"},"district":{"key":"09576","name":"Roth","type":"Landkreis"},"federalState":{"key":"09","name":"Bayern"}},{"name":"Sandstr.","postalCode":"90584","locality":"Allersberg","municipality":{"key":"09576113","name":"Allersberg, M","type":"Markt"},"district":{"key":"09576","name":"Roth","type":"Landkreis"},"federalState":{"key":"09","name":"Bayern"}},{"name":"Schloßstr.","postalCode":"90584","locality":"Allersberg","municipality":{"key":"09576113","name":"Allersberg, M","type":"Markt"},"district":{"key":"09576","name":"Roth","type":"Landkreis"},"federalState":{"key":"09","name":"Bayern"}},{"name":"Schönbrunner Str.","postalCode":"90584","locality":"Allersberg","municipality":{"key":"09576113","name":"Allersberg, M","type":"Markt"},"district":{"key":"09576","name":"Roth","type":"Landkreis"},"federalState":{"key":"09","name":"Bayern"}},{"name":"Schulstr.","postalCode":"90584","locality":"Allersberg","municipality":{"key":"09576113","name":"Allersberg, M","type":"Markt"},"district":{"key":"09576","name":"Roth","type":"Landkreis"},"federalState":{"key":"09","name":"Bayern"}},{"name":"Schwabengasse","postalCode":"90584","locality":"Allersberg","municipality":{"key":"09576113","name":"Allersberg, M","type":"Markt"},"district":{"key":"09576","name":"Roth","type":"Landkreis"},"federalState":{"key":"09","name":"Bayern"}},{"name":"Schwarzgrabenweg","postalCode":"90584","locality":"Allersberg","municipality":{"key":"09576113","name":"Allersberg, M","type":"Markt"},"district":{"key":"09576","name":"Roth","type":"Landkreis"},"federalState":{"key":"09","name":"Bayern"}},{"name":"Seligenportener Str.","postalCode":"90584","locality":"Allersberg","municipality":{"key":"09576113","name":"Allersberg, M","type":"Markt"},"district":{"key":"09576","name":"Roth","type":"Landkreis"},"federalState":{"key":"09","name":"Bayern"}},{"name":"Sperlingstr.","postalCode":"90584","locality":"Allersberg","municipality":{"key":"09576113","name":"Allersberg, M","type":"Markt"},"district":{"key":"09576","name":"Roth","type":"Landkreis"},"federalState":{"key":"09","name":"Bayern"}},{"name":"Sudetenstr.","postalCode":"90584","locality":"Allersberg","municipality":{"key":"09576113","name":"Allersberg, M","type":"Markt"},"district":{"key":"09576","name":"Roth","type":"Landkreis"},"federalState":{"key":"09","name":"Bayern"}},{"name":"Sybilla-Maurer-Allee","postalCode":"90584","locality":"Allersberg","municipality":{"key":"09576113","name":"Allersberg, M","type":"Markt"},"district":{"key":"09576","name":"Roth","type":"Landkreis"},"federalState":{"key":"09","name":"Bayern"}},{"name":"Thannstr.","postalCode":"90584","locality":"Allersberg","municipality":{"key":"09576113","name":"Allersberg, M","type":"Markt"},"district":{"key":"09576","name":"Roth","type":"Landkreis"},"federalState":{"key":"09","name":"Bayern"}},{"name":"Traubenstr.","postalCode":"90584","locality":"Allersberg","municipality":{"key":"09576113","name":"Allersberg, M","type":"Markt"},"district":{"key":"09576","name":"Roth","type":"Landkreis"},"federalState":{"key":"09","name":"Bayern"}},{"name":"Ulmenstr.","postalCode":"90584","locality":"Allersberg","municipality":{"key":"09576113","name":"Allersberg, M","type":"Markt"},"district":{"key":"09576","name":"Roth","type":"Landkreis"},"federalState":{"key":"09","name":"Bayern"}},{"name":"Unter der Harbruck","postalCode":"90584","locality":"Allersberg","municipality":{"key":"09576113","name":"Allersberg, M","type":"Markt"},"district":{"key":"09576","name":"Roth","type":"Landkreis"},"federalState":{"key":"09","name":"Bayern"}},{"name":"Vinzenz-Krick-Str.","postalCode":"90584","locality":"Allersberg","municipality":{"key":"09576113","name":"Allersberg, M","type":"Markt"},"district":{"key":"09576","name":"Roth","type":"Landkreis"},"federalState":{"key":"09","name":"Bayern"}},{"name":"Vorstadt","postalCode":"90584","locality":"Allersberg","municipality":{"key":"09576113","name":"Allersberg, M","type":"Markt"},"district":{"key":"09576","name":"Roth","type":"Landkreis"},"federalState":{"key":"09","name":"Bayern"}},{"name":"Waldstr.","postalCode":"90584","locality":"Allersberg","municipality":{"key":"09576113","name":"Allersberg, M","type":"Markt"},"district":{"key":"09576","name":"Roth","type":"Landkreis"},"federalState":{"key":"09","name":"Bayern"}},{"name":"Weihergasse","postalCode":"90584","locality":"Allersberg","municipality":{"key":"09576113","name":"Allersberg, M","type":"Markt"},"district":{"key":"09576","name":"Roth","type":"Landkreis"},"federalState":{"key":"09","name":"Bayern"}},{"name":"Wiesenstr.","postalCode":"90584","locality":"Allersberg","municipality":{"key":"09576113","name":"Allersberg, M","type":"Markt"},"district":{"key":"09576","name":"Roth","type":"Landkreis"},"federalState":{"key":"09","name":"Bayern"}},{"name":"Wittelsbacherstr.","postalCode":"90584","locality":"Allersberg","municipality":{"key":"09576113","name":"Allersberg, M","type":"Markt"},"district":{"key":"09576","name":"Roth","type":"Landkreis"},"federalState":{"key":"09","name":"Bayern"}},{"name":"Wolfsteiner Str.","postalCode":"90584","locality":"Allersberg","municipality":{"key":"09576113","name":"Allersberg, M","type":"Markt"},"district":{"key":"09576","name":"Roth","type":"Landkreis"},"federalState":{"key":"09","name":"Bayern"}},{"name":"Xaver-Meisinger-Str.","postalCode":"91154","locality":"Roth","municipality":{"key":"09576143","name":"Roth, St","type":"Stadt"},"district":{"key":"09576","name":"Roth","type":"Landkreis"},"federalState":{"key":"09","name":"Bayern"}},{"name":"Zwischenmarkt","postalCode":"90584","locality":"Allersberg","municipality":{"key":"09576113","name":"Allersberg, M","type":"Markt"},"district":{"key":"09576","name":"Roth","type":"Landkreis"},"federalState":{"key":"09","name":"Bayern"}},{"name":"Äckerleinsweg","postalCode":"97705","locality":"Burkardroth","municipality":{"key":"09672117","name":"Burkardroth, M","type":"Markt"},"district":{"key":"09672","name":"Bad Kissingen","type":"Landkreis"},"federalState":{"key":"09","name":"Bayern"}},{"name":"Äußere Abenberger Str.","postalCode":"91154","locality":"Roth","municipality":{"key":"09576143","name":"Roth, St","type":"Stadt"},"district":{"key":"09576","name":"Roth","type":"Landkreis"},"federalState":{"key":"09","name":"Bayern"}},{"name":"Äußere Belmbracher Str.","postalCode":"91154","locality":"Roth","municipality":{"key":"09576143","name":"Roth, St","type":"Stadt"},"district":{"key":"09576","name":"Roth","type":"Landkreis"},"federalState":{"key":"09","name":"Bayern"}},{"name":"Äußere Nürnberger Str.","postalCode":"91154","locality":"Roth","municipality":{"key":"09576143","name":"Roth, St","type":"Stadt"},"district":{"key":"09576","name":"Roth","type":"Landkreis"},"federalState":{"key":"09","name":"Bayern"}},{"name":"Ölberg","postalCode":"63860","locality":"Rothenbuch","municipality":{"key":"09671148","name":"Rothenbuch","type":"Kreisangehörige_Gemeinde"},"district":{"key":"09671","name":"Aschaffenburg","type":"Landkreis"},"federalState":{"key":"09","name":"Bayern"}},]