[{"name":"Albersdorfer Str.","postalCode":"25767","locality":"Bunsoh","municipality":{"key":"01051015","name":"Bunsoh","type":"Kreisangehörige_Gemeinde"},"district":{"key":"01051","name":"Dithmarschen","type":"Kreis"},"federalState":{"key":"01","name":"Schleswig-Holstein"}},{"name":"Am Bödjebarg","postalCode":"25767","locality":"Bunsoh","municipality":{"key":"01051015","name":"Bunsoh","type":"Kreisangehörige_Gemeinde"},"district":{"key":"01051","name":"Dithmarschen","type":"Kreis"},"federalState":{"key":"01","name":"Schleswig-Holstein"}},{"name":"Am Schalenstein","postalCode":"25767","locality":"Bunsoh","municipality":{"key":"01051015","name":"Bunsoh","type":"Kreisangehörige_Gemeinde"},"district":{"key":"01051","name":"Dithmarschen","type":"Kreis"},"federalState":{"key":"01","name":"Schleswig-Holstein"}},{"name":"Bergstr.","postalCode":"25767","locality":"Bunsoh","municipality":{"key":"01051015","name":"Bunsoh","type":"Kreisangehörige_Gemeinde"},"district":{"key":"01051","name":"Dithmarschen","type":"Kreis"},"federalState":{"key":"01","name":"Schleswig-Holstein"}},{"name":"Blöckenweg","postalCode":"25767","locality":"Bunsoh","municipality":{"key":"01051015","name":"Bunsoh","type":"Kreisangehörige_Gemeinde"},"district":{"key":"01051","name":"Dithmarschen","type":"Kreis"},"federalState":{"key":"01","name":"Schleswig-Holstein"}},{"name":"Bürgermeister-Hasberg-Str.","postalCode":"25767","locality":"Bunsoh","municipality":{"key":"01051015","name":"Bunsoh","type":"Kreisangehörige_Gemeinde"},"district":{"key":"01051","name":"Dithmarschen","type":"Kreis"},"federalState":{"key":"01","name":"Schleswig-Holstein"}},{"name":"Buurstruckweg","postalCode":"25767","locality":"Bunsoh","municipality":{"key":"01051015","name":"Bunsoh","type":"Kreisangehörige_Gemeinde"},"district":{"key":"01051","name":"Dithmarschen","type":"Kreis"},"federalState":{"key":"01","name":"Schleswig-Holstein"}},{"name":"Dorfstr.","postalCode":"25767","locality":"Bunsoh","municipality":{"key":"01051015","name":"Bunsoh","type":"Kreisangehörige_Gemeinde"},"district":{"key":"01051","name":"Dithmarschen","type":"Kreis"},"federalState":{"key":"01","name":"Schleswig-Holstein"}},{"name":"Eichstr.","postalCode":"25767","locality":"Bunsoh","municipality":{"key":"01051015","name":"Bunsoh","type":"Kreisangehörige_Gemeinde"},"district":{"key":"01051","name":"Dithmarschen","type":"Kreis"},"federalState":{"key":"01","name":"Schleswig-Holstein"}},{"name":"Ellingstedter Weg","postalCode":"25767","locality":"Bunsoh","municipality":{"key":"01051015","name":"Bunsoh","type":"Kreisangehörige_Gemeinde"},"district":{"key":"01051","name":"Dithmarschen","type":"Kreis"},"federalState":{"key":"01","name":"Schleswig-Holstein"}},{"name":"Fähre-Süd","postalCode":"25572","locality":"Burg (Dithmarschen)","municipality":{"key":"01051016","name":"Burg (Dithmarschen)","type":"Kreisangehörige_Gemeinde"},"district":{"key":"01051","name":"Dithmarschen","type":"Kreis"},"federalState":{"key":"01","name":"Schleswig-Holstein"}},{"name":"Fähre-Süd","postalCode":"25712","locality":"Burg (Dithmarschen)","municipality":{"key":"01051016","name":"Burg (Dithmarschen)","type":"Kreisangehörige_Gemeinde"},"district":{"key":"01051","name":"Dithmarschen","type":"Kreis"},"federalState":{"key":"01","name":"Schleswig-Holstein"}},{"name":"Fasanenweg","postalCode":"25712","locality":"Burg (Dithmarschen)","municipality":{"key":"01051016","name":"Burg (Dithmarschen)","type":"Kreisangehörige_Gemeinde"},"district":{"key":"01051","name":"Dithmarschen","type":"Kreis"},"federalState":{"key":"01","name":"Schleswig-Holstein"}},{"name":"Feldstr.","postalCode":"25712","locality":"Burg (Dithmarschen)","municipality":{"key":"01051016","name":"Burg (Dithmarschen)","type":"Kreisangehörige_Gemeinde"},"district":{"key":"01051","name":"Dithmarschen","type":"Kreis"},"federalState":{"key":"01","name":"Schleswig-Holstein"}},{"name":"Finkenweg","postalCode":"25712","locality":"Burg (Dithmarschen)","municipality":{"key":"01051016","name":"Burg (Dithmarschen)","type":"Kreisangehörige_Gemeinde"},"district":{"key":"01051","name":"Dithmarschen","type":"Kreis"},"federalState":{"key":"01","name":"Schleswig-Holstein"}},{"name":"Friedrich-Hebbel-Weg","postalCode":"25712","locality":"Burg (Dithmarschen)","municipality":{"key":"01051016","name":"Burg (Dithmarschen)","type":"Kreisangehörige_Gemeinde"},"district":{"key":"01051","name":"Dithmarschen","type":"Kreis"},"federalState":{"key":"01","name":"Schleswig-Holstein"}},{"name":"Gartenstr.","postalCode":"25712","locality":"Burg (Dithmarschen)","municipality":{"key":"01051016","name":"Burg (Dithmarschen)","type":"Kreisangehörige_Gemeinde"},"district":{"key":"01051","name":"Dithmarschen","type":"Kreis"},"federalState":{"key":"01","name":"Schleswig-Holstein"}},{"name":"Große Bergstr.","postalCode":"25712","locality":"Burg (Dithmarschen)","municipality":{"key":"01051016","name":"Burg (Dithmarschen)","type":"Kreisangehörige_Gemeinde"},"district":{"key":"01051","name":"Dithmarschen","type":"Kreis"},"federalState":{"key":"01","name":"Schleswig-Holstein"}},{"name":"Große Mühlenstr.","postalCode":"25712","locality":"Burg (Dithmarschen)","municipality":{"key":"01051016","name":"Burg (Dithmarschen)","type":"Kreisangehörige_Gemeinde"},"district":{"key":"01051","name":"Dithmarschen","type":"Kreis"},"federalState":{"key":"01","name":"Schleswig-Holstein"}},{"name":"Große Schulstr.","postalCode":"25712","locality":"Burg (Dithmarschen)","municipality":{"key":"01051016","name":"Burg (Dithmarschen)","type":"Kreisangehörige_Gemeinde"},"district":{"key":"01051","name":"Dithmarschen","type":"Kreis"},"federalState":{"key":"01","name":"Schleswig-Holstein"}},{"name":"Gustav-Frenssen-Weg","postalCode":"25712","locality":"Burg (Dithmarschen)","municipality":{"key":"01051016","name":"Burg (Dithmarschen)","type":"Kreisangehörige_Gemeinde"},"district":{"key":"01051","name":"Dithmarschen","type":"Kreis"},"federalState":{"key":"01","name":"Schleswig-Holstein"}},{"name":"Hafenstr.","postalCode":"25712","locality":"Burg (Dithmarschen)","municipality":{"key":"01051016","name":"Burg (Dithmarschen)","type":"Kreisangehörige_Gemeinde"},"district":{"key":"01051","name":"Dithmarschen","type":"Kreis"},"federalState":{"key":"01","name":"Schleswig-Holstein"}},{"name":"Hinter der Hohen Burg","postalCode":"25712","locality":"Burg (Dithmarschen)","municipality":{"key":"01051016","name":"Burg (Dithmarschen)","type":"Kreisangehörige_Gemeinde"},"district":{"key":"01051","name":"Dithmarschen","type":"Kreis"},"federalState":{"key":"01","name":"Schleswig-Holstein"}},{"name":"Hochdonner Chaussee","postalCode":"25712","locality":"Burg (Dithmarschen)","municipality":{"key":"01051016","name":"Burg (Dithmarschen)","type":"Kreisangehörige_Gemeinde"},"district":{"key":"01051","name":"Dithmarschen","type":"Kreis"},"federalState":{"key":"01","name":"Schleswig-Holstein"}},{"name":"Hochstr.","postalCode":"25712","locality":"Burg (Dithmarschen)","municipality":{"key":"01051016","name":"Burg (Dithmarschen)","type":"Kreisangehörige_Gemeinde"},"district":{"key":"01051","name":"Dithmarschen","type":"Kreis"},"federalState":{"key":"01","name":"Schleswig-Holstein"}},{"name":"Holzmarkt","postalCode":"25712","locality":"Burg (Dithmarschen)","municipality":{"key":"01051016","name":"Burg (Dithmarschen)","type":"Kreisangehörige_Gemeinde"},"district":{"key":"01051","name":"Dithmarschen","type":"Kreis"},"federalState":{"key":"01","name":"Schleswig-Holstein"}},{"name":"Johannes-Kuhrt-Str.","postalCode":"25712","locality":"Burg (Dithmarschen)","municipality":{"key":"01051016","name":"Burg (Dithmarschen)","type":"Kreisangehörige_Gemeinde"},"district":{"key":"01051","name":"Dithmarschen","type":"Kreis"},"federalState":{"key":"01","name":"Schleswig-Holstein"}},{"name":"Kanalweg","postalCode":"25767","locality":"Bunsoh","municipality":{"key":"01051015","name":"Bunsoh","type":"Kreisangehörige_Gemeinde"},"district":{"key":"01051","name":"Dithmarschen","type":"Kreis"},"federalState":{"key":"01","name":"Schleswig-Holstein"}},{"name":"Lunenlieth","postalCode":"25767","locality":"Bunsoh","municipality":{"key":"01051015","name":"Bunsoh","type":"Kreisangehörige_Gemeinde"},"district":{"key":"01051","name":"Dithmarschen","type":"Kreis"},"federalState":{"key":"01","name":"Schleswig-Holstein"}},{"name":"Meisenweg","postalCode":"25712","locality":"Burg (Dithmarschen)","municipality":{"key":"01051016","name":"Burg (Dithmarschen)","type":"Kreisangehörige_Gemeinde"},"district":{"key":"01051","name":"Dithmarschen","type":"Kreis"},"federalState":{"key":"01","name":"Schleswig-Holstein"}},{"name":"Meldorfer Str.","postalCode":"25712","locality":"Burg (Dithmarschen)","municipality":{"key":"01051016","name":"Burg (Dithmarschen)","type":"Kreisangehörige_Gemeinde"},"district":{"key":"01051","name":"Dithmarschen","type":"Kreis"},"federalState":{"key":"01","name":"Schleswig-Holstein"}},{"name":"Michaelisweg","postalCode":"25712","locality":"Burg (Dithmarschen)","municipality":{"key":"01051016","name":"Burg (Dithmarschen)","type":"Kreisangehörige_Gemeinde"},"district":{"key":"01051","name":"Dithmarschen","type":"Kreis"},"federalState":{"key":"01","name":"Schleswig-Holstein"}},{"name":"Möwenweg","postalCode":"25712","locality":"Burg (Dithmarschen)","municipality":{"key":"01051016","name":"Burg (Dithmarschen)","type":"Kreisangehörige_Gemeinde"},"district":{"key":"01051","name":"Dithmarschen","type":"Kreis"},"federalState":{"key":"01","name":"Schleswig-Holstein"}},{"name":"Neue Anlagen","postalCode":"25767","locality":"Bunsoh","municipality":{"key":"01051015","name":"Bunsoh","type":"Kreisangehörige_Gemeinde"},"district":{"key":"01051","name":"Dithmarschen","type":"Kreis"},"federalState":{"key":"01","name":"Schleswig-Holstein"}},{"name":"Ohlen-Dieks-Weg","postalCode":"25767","locality":"Bunsoh","municipality":{"key":"01051015","name":"Bunsoh","type":"Kreisangehörige_Gemeinde"},"district":{"key":"01051","name":"Dithmarschen","type":"Kreis"},"federalState":{"key":"01","name":"Schleswig-Holstein"}},{"name":"Parallelstr.","postalCode":"25712","locality":"Burg (Dithmarschen)","municipality":{"key":"01051016","name":"Burg (Dithmarschen)","type":"Kreisangehörige_Gemeinde"},"district":{"key":"01051","name":"Dithmarschen","type":"Kreis"},"federalState":{"key":"01","name":"Schleswig-Holstein"}},{"name":"Peter-Göttsche-Str.","postalCode":"25712","locality":"Burg (Dithmarschen)","municipality":{"key":"01051016","name":"Burg (Dithmarschen)","type":"Kreisangehörige_Gemeinde"},"district":{"key":"01051","name":"Dithmarschen","type":"Kreis"},"federalState":{"key":"01","name":"Schleswig-Holstein"}},{"name":"Rotkehlchenweg","postalCode":"25712","locality":"Burg (Dithmarschen)","municipality":{"key":"01051016","name":"Burg (Dithmarschen)","type":"Kreisangehörige_Gemeinde"},"district":{"key":"01051","name":"Dithmarschen","type":"Kreis"},"federalState":{"key":"01","name":"Schleswig-Holstein"}},{"name":"Schulstr.","postalCode":"25767","locality":"Bunsoh","municipality":{"key":"01051015","name":"Bunsoh","type":"Kreisangehörige_Gemeinde"},"district":{"key":"01051","name":"Dithmarschen","type":"Kreis"},"federalState":{"key":"01","name":"Schleswig-Holstein"}},{"name":"Siebenstern","postalCode":"25767","locality":"Bunsoh","municipality":{"key":"01051015","name":"Bunsoh","type":"Kreisangehörige_Gemeinde"},"district":{"key":"01051","name":"Dithmarschen","type":"Kreis"},"federalState":{"key":"01","name":"Schleswig-Holstein"}},{"name":"Snethhorstweg","postalCode":"25767","locality":"Bunsoh","municipality":{"key":"01051015","name":"Bunsoh","type":"Kreisangehörige_Gemeinde"},"district":{"key":"01051","name":"Dithmarschen","type":"Kreis"},"federalState":{"key":"01","name":"Schleswig-Holstein"}},{"name":"Südermoorweg","postalCode":"25767","locality":"Bunsoh","municipality":{"key":"01051015","name":"Bunsoh","type":"Kreisangehörige_Gemeinde"},"district":{"key":"01051","name":"Dithmarschen","type":"Kreis"},"federalState":{"key":"01","name":"Schleswig-Holstein"}},{"name":"Süderstr.","postalCode":"25767","locality":"Bunsoh","municipality":{"key":"01051015","name":"Bunsoh","type":"Kreisangehörige_Gemeinde"},"district":{"key":"01051","name":"Dithmarschen","type":"Kreis"},"federalState":{"key":"01","name":"Schleswig-Holstein"}},{"name":"Südhang","postalCode":"25767","locality":"Bunsoh","municipality":{"key":"01051015","name":"Bunsoh","type":"Kreisangehörige_Gemeinde"},"district":{"key":"01051","name":"Dithmarschen","type":"Kreis"},"federalState":{"key":"01","name":"Schleswig-Holstein"}},{"name":"Tannenbergallee","postalCode":"25712","locality":"Burg (Dithmarschen)","municipality":{"key":"01051016","name":"Burg (Dithmarschen)","type":"Kreisangehörige_Gemeinde"},"district":{"key":"01051","name":"Dithmarschen","type":"Kreis"},"federalState":{"key":"01","name":"Schleswig-Holstein"}},{"name":"Theodor-Storm-Weg","postalCode":"25712","locality":"Burg (Dithmarschen)","municipality":{"key":"01051016","name":"Burg (Dithmarschen)","type":"Kreisangehörige_Gemeinde"},"district":{"key":"01051","name":"Dithmarschen","type":"Kreis"},"federalState":{"key":"01","name":"Schleswig-Holstein"}},{"name":"Voßallee","postalCode":"25712","locality":"Burg (Dithmarschen)","municipality":{"key":"01051016","name":"Burg (Dithmarschen)","type":"Kreisangehörige_Gemeinde"},"district":{"key":"01051","name":"Dithmarschen","type":"Kreis"},"federalState":{"key":"01","name":"Schleswig-Holstein"}},{"name":"Voßweg","postalCode":"25712","locality":"Burg (Dithmarschen)","municipality":{"key":"01051016","name":"Burg (Dithmarschen)","type":"Kreisangehörige_Gemeinde"},"district":{"key":"01051","name":"Dithmarschen","type":"Kreis"},"federalState":{"key":"01","name":"Schleswig-Holstein"}},{"name":"Waldstr.","postalCode":"25767","locality":"Bunsoh","municipality":{"key":"01051015","name":"Bunsoh","type":"Kreisangehörige_Gemeinde"},"district":{"key":"01051","name":"Dithmarschen","type":"Kreis"},"federalState":{"key":"01","name":"Schleswig-Holstein"}},{"name":"Zaunkönigweg","postalCode":"25712","locality":"Burg (Dithmarschen)","municipality":{"key":"01051016","name":"Burg (Dithmarschen)","type":"Kreisangehörige_Gemeinde"},"district":{"key":"01051","name":"Dithmarschen","type":"Kreis"},"federalState":{"key":"01","name":"Schleswig-Holstein"}},]