[{"code":"61203","district":{"code":"612","name":"Liezen","key":"612"},"federalProvince":{"name":"Steiermark","key":"6"},"postalCode":"8943","name":"Aigen im Ennstal","multiplePostalCodes":false,"key":"61203","status":"None"},{"code":"61204","district":{"code":"612","name":"Liezen","key":"612"},"federalProvince":{"name":"Steiermark","key":"6"},"postalCode":"8992","name":"Altaussee","multiplePostalCodes":false,"key":"61204","status":"None"},{"code":"61205","district":{"code":"612","name":"Liezen","key":"612"},"federalProvince":{"name":"Steiermark","key":"6"},"postalCode":"8934","name":"Altenmarkt bei Sankt Gallen","multiplePostalCodes":false,"key":"61205","status":"MarketTown"},{"code":"61206","district":{"code":"612","name":"Liezen","key":"612"},"federalProvince":{"name":"Steiermark","key":"6"},"postalCode":"8904","name":"Ardning","multiplePostalCodes":false,"key":"61206","status":"None"},{"code":"61207","district":{"code":"612","name":"Liezen","key":"612"},"federalProvince":{"name":"Steiermark","key":"6"},"postalCode":"8990","name":"Bad Aussee","multiplePostalCodes":false,"key":"61207","status":"UrbanMunicipality"},{"code":"61213","district":{"code":"612","name":"Liezen","key":"612"},"federalProvince":{"name":"Steiermark","key":"6"},"postalCode":"8962","name":"Gröbming","multiplePostalCodes":false,"key":"61213","status":"MarketTown"},{"code":"61215","district":{"code":"612","name":"Liezen","key":"612"},"federalProvince":{"name":"Steiermark","key":"6"},"postalCode":"8993","name":"Grundlsee","multiplePostalCodes":false,"key":"61215","status":"None"},{"code":"61217","district":{"code":"612","name":"Liezen","key":"612"},"federalProvince":{"name":"Steiermark","key":"6"},"postalCode":"8967","name":"Haus","multiplePostalCodes":true,"key":"61217","status":"MarketTown"},{"code":"61222","district":{"code":"612","name":"Liezen","key":"612"},"federalProvince":{"name":"Steiermark","key":"6"},"postalCode":"8903","name":"Lassing","multiplePostalCodes":true,"key":"61222","status":"None"},{"code":"61236","district":{"code":"612","name":"Liezen","key":"612"},"federalProvince":{"name":"Steiermark","key":"6"},"postalCode":"8972","name":"Ramsau am Dachstein","multiplePostalCodes":false,"key":"61236","status":"None"},{"code":"61243","district":{"code":"612","name":"Liezen","key":"612"},"federalProvince":{"name":"Steiermark","key":"6"},"postalCode":"8900","name":"Selzthal","multiplePostalCodes":false,"key":"61243","status":"None"},{"code":"61247","district":{"code":"612","name":"Liezen","key":"612"},"federalProvince":{"name":"Steiermark","key":"6"},"postalCode":"8784","name":"Trieben","multiplePostalCodes":false,"key":"61247","status":"UrbanMunicipality"},{"code":"61251","district":{"code":"612","name":"Liezen","key":"612"},"federalProvince":{"name":"Steiermark","key":"6"},"postalCode":"8924","name":"Wildalpen","multiplePostalCodes":false,"key":"61251","status":"None"},{"code":"61252","district":{"code":"612","name":"Liezen","key":"612"},"federalProvince":{"name":"Steiermark","key":"6"},"postalCode":"8942","name":"Wörschach","multiplePostalCodes":false,"key":"61252","status":"None"},{"code":"61253","district":{"code":"612","name":"Liezen","key":"612"},"federalProvince":{"name":"Steiermark","key":"6"},"postalCode":"8911","name":"Admont","multiplePostalCodes":true,"key":"61253","status":"MarketTown"},{"code":"61254","district":{"code":"612","name":"Liezen","key":"612"},"federalProvince":{"name":"Steiermark","key":"6"},"postalCode":"8966","name":"Aich","multiplePostalCodes":true,"key":"61254","status":"None"},{"code":"61255","district":{"code":"612","name":"Liezen","key":"612"},"federalProvince":{"name":"Steiermark","key":"6"},"postalCode":"8983","name":"Bad Mitterndorf","multiplePostalCodes":true,"key":"61255","status":"MarketTown"},{"code":"61256","district":{"code":"612","name":"Liezen","key":"612"},"federalProvince":{"name":"Steiermark","key":"6"},"postalCode":"8783","name":"Gaishorn am See","multiplePostalCodes":true,"key":"61256","status":"MarketTown"},{"code":"61257","district":{"code":"612","name":"Liezen","key":"612"},"federalProvince":{"name":"Steiermark","key":"6"},"postalCode":"8952","name":"Irdning-Donnersbachtal","multiplePostalCodes":true,"key":"61257","status":"MarketTown"},{"code":"61258","district":{"code":"612","name":"Liezen","key":"612"},"federalProvince":{"name":"Steiermark","key":"6"},"postalCode":"8931","name":"Landl","multiplePostalCodes":true,"key":"61258","status":"None"},{"code":"61259","district":{"code":"612","name":"Liezen","key":"612"},"federalProvince":{"name":"Steiermark","key":"6"},"postalCode":"8940","name":"Liezen","multiplePostalCodes":true,"key":"61259","status":"UrbanMunicipality"},{"code":"61260","district":{"code":"612","name":"Liezen","key":"612"},"federalProvince":{"name":"Steiermark","key":"6"},"postalCode":"8965","name":"Michaelerberg-Pruggern","multiplePostalCodes":true,"key":"61260","status":"None"},{"code":"61261","district":{"code":"612","name":"Liezen","key":"612"},"federalProvince":{"name":"Steiermark","key":"6"},"postalCode":"8962","name":"Mitterberg-Sankt Martin","multiplePostalCodes":true,"key":"61261","status":"None"},{"code":"61262","district":{"code":"612","name":"Liezen","key":"612"},"federalProvince":{"name":"Steiermark","key":"6"},"postalCode":"8960","name":"Öblarn","multiplePostalCodes":false,"key":"61262","status":"MarketTown"},{"code":"61263","district":{"code":"612","name":"Liezen","key":"612"},"federalProvince":{"name":"Steiermark","key":"6"},"postalCode":"8786","name":"Rottenmann","multiplePostalCodes":true,"key":"61263","status":"UrbanMunicipality"},{"code":"61264","district":{"code":"612","name":"Liezen","key":"612"},"federalProvince":{"name":"Steiermark","key":"6"},"postalCode":"8933","name":"Sankt Gallen","multiplePostalCodes":true,"key":"61264","status":"MarketTown"},{"code":"61265","district":{"code":"612","name":"Liezen","key":"612"},"federalProvince":{"name":"Steiermark","key":"6"},"postalCode":"8970","name":"Schladming","multiplePostalCodes":true,"key":"61265","status":"UrbanMunicipality"},{"code":"61266","district":{"code":"612","name":"Liezen","key":"612"},"federalProvince":{"name":"Steiermark","key":"6"},"postalCode":"8961","name":"Sölk","multiplePostalCodes":false,"key":"61266","status":"None"},{"code":"61267","district":{"code":"612","name":"Liezen","key":"612"},"federalProvince":{"name":"Steiermark","key":"6"},"postalCode":"8950","name":"Stainach-Pürgg","multiplePostalCodes":true,"key":"61267","status":"MarketTown"}]