[{"name":"Achtern Hoff","postalCode":"21449","locality":"Radbruch","municipality":{"key":"03355028","name":"Radbruch","type":"Kreisangehörige_Gemeinde"},"district":{"key":"03355","name":"Lüneburg","type":"Landkreis"},"federalState":{"key":"03","name":"Niedersachsen"}},{"name":"Am Alten Schulgarten","postalCode":"21449","locality":"Radbruch","municipality":{"key":"03355028","name":"Radbruch","type":"Kreisangehörige_Gemeinde"},"district":{"key":"03355","name":"Lüneburg","type":"Landkreis"},"federalState":{"key":"03","name":"Niedersachsen"}},{"name":"Am Felde","postalCode":"21449","locality":"Radbruch","municipality":{"key":"03355028","name":"Radbruch","type":"Kreisangehörige_Gemeinde"},"district":{"key":"03355","name":"Lüneburg","type":"Landkreis"},"federalState":{"key":"03","name":"Niedersachsen"}},{"name":"Am Hausbach","postalCode":"21449","locality":"Radbruch","municipality":{"key":"03355028","name":"Radbruch","type":"Kreisangehörige_Gemeinde"},"district":{"key":"03355","name":"Lüneburg","type":"Landkreis"},"federalState":{"key":"03","name":"Niedersachsen"}},{"name":"Am Pferdeteich","postalCode":"21449","locality":"Radbruch","municipality":{"key":"03355028","name":"Radbruch","type":"Kreisangehörige_Gemeinde"},"district":{"key":"03355","name":"Lüneburg","type":"Landkreis"},"federalState":{"key":"03","name":"Niedersachsen"}},{"name":"Am Rüdel","postalCode":"21449","locality":"Radbruch","municipality":{"key":"03355028","name":"Radbruch","type":"Kreisangehörige_Gemeinde"},"district":{"key":"03355","name":"Lüneburg","type":"Landkreis"},"federalState":{"key":"03","name":"Niedersachsen"}},{"name":"Am Tannenkamp","postalCode":"21449","locality":"Radbruch","municipality":{"key":"03355028","name":"Radbruch","type":"Kreisangehörige_Gemeinde"},"district":{"key":"03355","name":"Lüneburg","type":"Landkreis"},"federalState":{"key":"03","name":"Niedersachsen"}},{"name":"An der Roddau","postalCode":"21449","locality":"Radbruch","municipality":{"key":"03355028","name":"Radbruch","type":"Kreisangehörige_Gemeinde"},"district":{"key":"03355","name":"Lüneburg","type":"Landkreis"},"federalState":{"key":"03","name":"Niedersachsen"}},{"name":"Bahneck","postalCode":"21449","locality":"Radbruch","municipality":{"key":"03355028","name":"Radbruch","type":"Kreisangehörige_Gemeinde"},"district":{"key":"03355","name":"Lüneburg","type":"Landkreis"},"federalState":{"key":"03","name":"Niedersachsen"}},{"name":"Bardowicker Str.","postalCode":"21449","locality":"Radbruch","municipality":{"key":"03355028","name":"Radbruch","type":"Kreisangehörige_Gemeinde"},"district":{"key":"03355","name":"Lüneburg","type":"Landkreis"},"federalState":{"key":"03","name":"Niedersachsen"}},{"name":"Bei den Eichen","postalCode":"21449","locality":"Radbruch","municipality":{"key":"03355028","name":"Radbruch","type":"Kreisangehörige_Gemeinde"},"district":{"key":"03355","name":"Lüneburg","type":"Landkreis"},"federalState":{"key":"03","name":"Niedersachsen"}},{"name":"Bei den Linden","postalCode":"21449","locality":"Radbruch","municipality":{"key":"03355028","name":"Radbruch","type":"Kreisangehörige_Gemeinde"},"district":{"key":"03355","name":"Lüneburg","type":"Landkreis"},"federalState":{"key":"03","name":"Niedersachsen"}},{"name":"Bi de Forstkoppeln","postalCode":"21449","locality":"Radbruch","municipality":{"key":"03355028","name":"Radbruch","type":"Kreisangehörige_Gemeinde"},"district":{"key":"03355","name":"Lüneburg","type":"Landkreis"},"federalState":{"key":"03","name":"Niedersachsen"}},{"name":"Bürgerwald Radbruch","postalCode":"21449","locality":"Radbruch","municipality":{"key":"03355028","name":"Radbruch","type":"Kreisangehörige_Gemeinde"},"district":{"key":"03355","name":"Lüneburg","type":"Landkreis"},"federalState":{"key":"03","name":"Niedersachsen"}},{"name":"Carl-Friedrich-Goerdeler-Str.","postalCode":"21337","locality":"Lüneburg","municipality":{"key":"03355022","name":"Lüneburg, Hansestadt","type":"Stadt"},"district":{"key":"03355","name":"Lüneburg","type":"Landkreis"},"federalState":{"key":"03","name":"Niedersachsen"}},{"name":"Carl-Gottlieb-Scharff-Str.","postalCode":"21337","locality":"Lüneburg","municipality":{"key":"03355022","name":"Lüneburg, Hansestadt","type":"Stadt"},"district":{"key":"03355","name":"Lüneburg","type":"Landkreis"},"federalState":{"key":"03","name":"Niedersachsen"}},{"name":"Carl-von-Ossietzky-Str.","postalCode":"21335","locality":"Lüneburg","municipality":{"key":"03355022","name":"Lüneburg, Hansestadt","type":"Stadt"},"district":{"key":"03355","name":"Lüneburg","type":"Landkreis"},"federalState":{"key":"03","name":"Niedersachsen"}},{"name":"Chamissostr.","postalCode":"21337","locality":"Lüneburg","municipality":{"key":"03355022","name":"Lüneburg, Hansestadt","type":"Stadt"},"district":{"key":"03355","name":"Lüneburg","type":"Landkreis"},"federalState":{"key":"03","name":"Niedersachsen"}},{"name":"Charlotte-Huhn-Str.","postalCode":"21339","locality":"Lüneburg","municipality":{"key":"03355022","name":"Lüneburg, Hansestadt","type":"Stadt"},"district":{"key":"03355","name":"Lüneburg","type":"Landkreis"},"federalState":{"key":"03","name":"Niedersachsen"}},{"name":"Christel-Rebbin-Str.","postalCode":"21337","locality":"Lüneburg","municipality":{"key":"03355022","name":"Lüneburg, Hansestadt","type":"Stadt"},"district":{"key":"03355","name":"Lüneburg","type":"Landkreis"},"federalState":{"key":"03","name":"Niedersachsen"}},{"name":"Christian-Herbst-Str.","postalCode":"21339","locality":"Lüneburg","municipality":{"key":"03355022","name":"Lüneburg, Hansestadt","type":"Stadt"},"district":{"key":"03355","name":"Lüneburg","type":"Landkreis"},"federalState":{"key":"03","name":"Niedersachsen"}},{"name":"Christianiweg","postalCode":"21339","locality":"Lüneburg","municipality":{"key":"03355022","name":"Lüneburg, Hansestadt","type":"Stadt"},"district":{"key":"03355","name":"Lüneburg","type":"Landkreis"},"federalState":{"key":"03","name":"Niedersachsen"}},{"name":"Christian-Lindemann-Str.","postalCode":"21335","locality":"Lüneburg","municipality":{"key":"03355022","name":"Lüneburg, Hansestadt","type":"Stadt"},"district":{"key":"03355","name":"Lüneburg","type":"Landkreis"},"federalState":{"key":"03","name":"Niedersachsen"}},{"name":"Clamart-Park","postalCode":"21335","locality":"Lüneburg","municipality":{"key":"03355022","name":"Lüneburg, Hansestadt","type":"Stadt"},"district":{"key":"03355","name":"Lüneburg","type":"Landkreis"},"federalState":{"key":"03","name":"Niedersachsen"}},{"name":"Claudiusweg","postalCode":"21337","locality":"Lüneburg","municipality":{"key":"03355022","name":"Lüneburg, Hansestadt","type":"Stadt"},"district":{"key":"03355","name":"Lüneburg","type":"Landkreis"},"federalState":{"key":"03","name":"Niedersachsen"}},{"name":"Conventstr.","postalCode":"21335","locality":"Lüneburg","municipality":{"key":"03355022","name":"Lüneburg, Hansestadt","type":"Stadt"},"district":{"key":"03355","name":"Lüneburg","type":"Landkreis"},"federalState":{"key":"03","name":"Niedersachsen"}},{"name":"Curiostr.","postalCode":"21339","locality":"Lüneburg","municipality":{"key":"03355022","name":"Lüneburg, Hansestadt","type":"Stadt"},"district":{"key":"03355","name":"Lüneburg","type":"Landkreis"},"federalState":{"key":"03","name":"Niedersachsen"}},{"name":"Dorfmitte","postalCode":"21449","locality":"Radbruch","municipality":{"key":"03355028","name":"Radbruch","type":"Kreisangehörige_Gemeinde"},"district":{"key":"03355","name":"Lüneburg","type":"Landkreis"},"federalState":{"key":"03","name":"Niedersachsen"}},{"name":"Eckernkoppel","postalCode":"21449","locality":"Radbruch","municipality":{"key":"03355028","name":"Radbruch","type":"Kreisangehörige_Gemeinde"},"district":{"key":"03355","name":"Lüneburg","type":"Landkreis"},"federalState":{"key":"03","name":"Niedersachsen"}},{"name":"Eilshoop","postalCode":"21449","locality":"Radbruch","municipality":{"key":"03355028","name":"Radbruch","type":"Kreisangehörige_Gemeinde"},"district":{"key":"03355","name":"Lüneburg","type":"Landkreis"},"federalState":{"key":"03","name":"Niedersachsen"}},{"name":"Einemhofer Str.","postalCode":"21449","locality":"Radbruch","municipality":{"key":"03355028","name":"Radbruch","type":"Kreisangehörige_Gemeinde"},"district":{"key":"03355","name":"Lüneburg","type":"Landkreis"},"federalState":{"key":"03","name":"Niedersachsen"}},{"name":"Forsteck","postalCode":"21449","locality":"Radbruch","municipality":{"key":"03355028","name":"Radbruch","type":"Kreisangehörige_Gemeinde"},"district":{"key":"03355","name":"Lüneburg","type":"Landkreis"},"federalState":{"key":"03","name":"Niedersachsen"}},{"name":"Forstweg","postalCode":"21449","locality":"Radbruch","municipality":{"key":"03355028","name":"Radbruch","type":"Kreisangehörige_Gemeinde"},"district":{"key":"03355","name":"Lüneburg","type":"Landkreis"},"federalState":{"key":"03","name":"Niedersachsen"}},{"name":"Ginsterweg","postalCode":"21449","locality":"Radbruch","municipality":{"key":"03355028","name":"Radbruch","type":"Kreisangehörige_Gemeinde"},"district":{"key":"03355","name":"Lüneburg","type":"Landkreis"},"federalState":{"key":"03","name":"Niedersachsen"}},{"name":"Glockenheide","postalCode":"21449","locality":"Radbruch","municipality":{"key":"03355028","name":"Radbruch","type":"Kreisangehörige_Gemeinde"},"district":{"key":"03355","name":"Lüneburg","type":"Landkreis"},"federalState":{"key":"03","name":"Niedersachsen"}},{"name":"Hans-Eidig-Weg","postalCode":"21449","locality":"Radbruch","municipality":{"key":"03355028","name":"Radbruch","type":"Kreisangehörige_Gemeinde"},"district":{"key":"03355","name":"Lüneburg","type":"Landkreis"},"federalState":{"key":"03","name":"Niedersachsen"}},{"name":"Heideweg","postalCode":"21449","locality":"Radbruch","municipality":{"key":"03355028","name":"Radbruch","type":"Kreisangehörige_Gemeinde"},"district":{"key":"03355","name":"Lüneburg","type":"Landkreis"},"federalState":{"key":"03","name":"Niedersachsen"}},{"name":"Heidlandsweg","postalCode":"21449","locality":"Radbruch","municipality":{"key":"03355028","name":"Radbruch","type":"Kreisangehörige_Gemeinde"},"district":{"key":"03355","name":"Lüneburg","type":"Landkreis"},"federalState":{"key":"03","name":"Niedersachsen"}},{"name":"Hermann-Löns-Weg","postalCode":"21449","locality":"Radbruch","municipality":{"key":"03355028","name":"Radbruch","type":"Kreisangehörige_Gemeinde"},"district":{"key":"03355","name":"Lüneburg","type":"Landkreis"},"federalState":{"key":"03","name":"Niedersachsen"}},{"name":"Im Bienenkorb","postalCode":"21449","locality":"Radbruch","municipality":{"key":"03355028","name":"Radbruch","type":"Kreisangehörige_Gemeinde"},"district":{"key":"03355","name":"Lüneburg","type":"Landkreis"},"federalState":{"key":"03","name":"Niedersachsen"}},{"name":"Im Brook","postalCode":"21449","locality":"Radbruch","municipality":{"key":"03355028","name":"Radbruch","type":"Kreisangehörige_Gemeinde"},"district":{"key":"03355","name":"Lüneburg","type":"Landkreis"},"federalState":{"key":"03","name":"Niedersachsen"}},{"name":"Im Heidewinkel","postalCode":"21449","locality":"Radbruch","municipality":{"key":"03355028","name":"Radbruch","type":"Kreisangehörige_Gemeinde"},"district":{"key":"03355","name":"Lüneburg","type":"Landkreis"},"federalState":{"key":"03","name":"Niedersachsen"}},{"name":"Immenweg","postalCode":"21449","locality":"Radbruch","municipality":{"key":"03355028","name":"Radbruch","type":"Kreisangehörige_Gemeinde"},"district":{"key":"03355","name":"Lüneburg","type":"Landkreis"},"federalState":{"key":"03","name":"Niedersachsen"}},{"name":"Jägerstr.","postalCode":"21339","locality":"Lüneburg","municipality":{"key":"03355022","name":"Lüneburg, Hansestadt","type":"Stadt"},"district":{"key":"03355","name":"Lüneburg","type":"Landkreis"},"federalState":{"key":"03","name":"Niedersachsen"}},{"name":"Jakob-Kaiser-Str.","postalCode":"21337","locality":"Lüneburg","municipality":{"key":"03355022","name":"Lüneburg, Hansestadt","type":"Stadt"},"district":{"key":"03355","name":"Lüneburg","type":"Landkreis"},"federalState":{"key":"03","name":"Niedersachsen"}},{"name":"Jean-Leppien-Str.","postalCode":"21339","locality":"Lüneburg","municipality":{"key":"03355022","name":"Lüneburg, Hansestadt","type":"Stadt"},"district":{"key":"03355","name":"Lüneburg","type":"Landkreis"},"federalState":{"key":"03","name":"Niedersachsen"}},{"name":"Jens-Schreiber-Str.","postalCode":"21337","locality":"Lüneburg","municipality":{"key":"03355022","name":"Lüneburg, Hansestadt","type":"Stadt"},"district":{"key":"03355","name":"Lüneburg","type":"Landkreis"},"federalState":{"key":"03","name":"Niedersachsen"}},{"name":"Johanna-Kirchner-Str.","postalCode":"21337","locality":"Lüneburg","municipality":{"key":"03355022","name":"Lüneburg, Hansestadt","type":"Stadt"},"district":{"key":"03355","name":"Lüneburg","type":"Landkreis"},"federalState":{"key":"03","name":"Niedersachsen"}},{"name":"Johanna-Stegen-Str.","postalCode":"21339","locality":"Lüneburg","municipality":{"key":"03355022","name":"Lüneburg, Hansestadt","type":"Stadt"},"district":{"key":"03355","name":"Lüneburg","type":"Landkreis"},"federalState":{"key":"03","name":"Niedersachsen"}},{"name":"Johannes-Gutenberg-Str.","postalCode":"21337","locality":"Lüneburg","municipality":{"key":"03355022","name":"Lüneburg, Hansestadt","type":"Stadt"},"district":{"key":"03355","name":"Lüneburg","type":"Landkreis"},"federalState":{"key":"03","name":"Niedersachsen"}},{"name":"Johannisburger Str.","postalCode":"21337","locality":"Lüneburg","municipality":{"key":"03355022","name":"Lüneburg, Hansestadt","type":"Stadt"},"district":{"key":"03355","name":"Lüneburg","type":"Landkreis"},"federalState":{"key":"03","name":"Niedersachsen"}},{"name":"Johannisstr.","postalCode":"21335","locality":"Lüneburg","municipality":{"key":"03355022","name":"Lüneburg, Hansestadt","type":"Stadt"},"district":{"key":"03355","name":"Lüneburg","type":"Landkreis"},"federalState":{"key":"03","name":"Niedersachsen"}},{"name":"Johann-Sebastian-Bach-Platz","postalCode":"21335","locality":"Lüneburg","municipality":{"key":"03355022","name":"Lüneburg, Hansestadt","type":"Stadt"},"district":{"key":"03355","name":"Lüneburg","type":"Landkreis"},"federalState":{"key":"03","name":"Niedersachsen"}},{"name":"Julius-Leber-Str.","postalCode":"21337","locality":"Lüneburg","municipality":{"key":"03355022","name":"Lüneburg, Hansestadt","type":"Stadt"},"district":{"key":"03355","name":"Lüneburg","type":"Landkreis"},"federalState":{"key":"03","name":"Niedersachsen"}},{"name":"Julius-Wolff-Str.","postalCode":"21335","locality":"Lüneburg","municipality":{"key":"03355022","name":"Lüneburg, Hansestadt","type":"Stadt"},"district":{"key":"03355","name":"Lüneburg","type":"Landkreis"},"federalState":{"key":"03","name":"Niedersachsen"}},{"name":"Jürgen-Backhaus-Str.","postalCode":"21337","locality":"Lüneburg","municipality":{"key":"03355022","name":"Lüneburg, Hansestadt","type":"Stadt"},"district":{"key":"03355","name":"Lüneburg","type":"Landkreis"},"federalState":{"key":"03","name":"Niedersachsen"}},{"name":"Jüttkenmoor","postalCode":"21339","locality":"Lüneburg","municipality":{"key":"03355022","name":"Lüneburg, Hansestadt","type":"Stadt"},"district":{"key":"03355","name":"Lüneburg","type":"Landkreis"},"federalState":{"key":"03","name":"Niedersachsen"}},{"name":"Kehrwieder","postalCode":"21449","locality":"Radbruch","municipality":{"key":"03355028","name":"Radbruch","type":"Kreisangehörige_Gemeinde"},"district":{"key":"03355","name":"Lüneburg","type":"Landkreis"},"federalState":{"key":"03","name":"Niedersachsen"}},{"name":"Kickbusch","postalCode":"21449","locality":"Radbruch","municipality":{"key":"03355028","name":"Radbruch","type":"Kreisangehörige_Gemeinde"},"district":{"key":"03355","name":"Lüneburg","type":"Landkreis"},"federalState":{"key":"03","name":"Niedersachsen"}},{"name":"Koppelweg","postalCode":"21449","locality":"Radbruch","municipality":{"key":"03355028","name":"Radbruch","type":"Kreisangehörige_Gemeinde"},"district":{"key":"03355","name":"Lüneburg","type":"Landkreis"},"federalState":{"key":"03","name":"Niedersachsen"}},{"name":"Luhdorfer Str.","postalCode":"21449","locality":"Radbruch","municipality":{"key":"03355028","name":"Radbruch","type":"Kreisangehörige_Gemeinde"},"district":{"key":"03355","name":"Lüneburg","type":"Landkreis"},"federalState":{"key":"03","name":"Niedersachsen"}},{"name":"Lührs Weg","postalCode":"21449","locality":"Radbruch","municipality":{"key":"03355028","name":"Radbruch","type":"Kreisangehörige_Gemeinde"},"district":{"key":"03355","name":"Lüneburg","type":"Landkreis"},"federalState":{"key":"03","name":"Niedersachsen"}},{"name":"Meyerhofweg","postalCode":"21449","locality":"Radbruch","municipality":{"key":"03355028","name":"Radbruch","type":"Kreisangehörige_Gemeinde"},"district":{"key":"03355","name":"Lüneburg","type":"Landkreis"},"federalState":{"key":"03","name":"Niedersachsen"}},{"name":"Nachtigallenweg","postalCode":"21339","locality":"Lüneburg","municipality":{"key":"03355022","name":"Lüneburg, Hansestadt","type":"Stadt"},"district":{"key":"03355","name":"Lüneburg","type":"Landkreis"},"federalState":{"key":"03","name":"Niedersachsen"}},{"name":"Naruto-Str.","postalCode":"21339","locality":"Lüneburg","municipality":{"key":"03355022","name":"Lüneburg, Hansestadt","type":"Stadt"},"district":{"key":"03355","name":"Lüneburg","type":"Landkreis"},"federalState":{"key":"03","name":"Niedersachsen"}},{"name":"Narzissenweg","postalCode":"21339","locality":"Lüneburg","municipality":{"key":"03355022","name":"Lüneburg, Hansestadt","type":"Stadt"},"district":{"key":"03355","name":"Lüneburg","type":"Landkreis"},"federalState":{"key":"03","name":"Niedersachsen"}},{"name":"Nelkenweg","postalCode":"21339","locality":"Lüneburg","municipality":{"key":"03355022","name":"Lüneburg, Hansestadt","type":"Stadt"},"district":{"key":"03355","name":"Lüneburg","type":"Landkreis"},"federalState":{"key":"03","name":"Niedersachsen"}},{"name":"Nelly-Sachs-Str.","postalCode":"21335","locality":"Lüneburg","municipality":{"key":"03355022","name":"Lüneburg, Hansestadt","type":"Stadt"},"district":{"key":"03355","name":"Lüneburg","type":"Landkreis"},"federalState":{"key":"03","name":"Niedersachsen"}},{"name":"Neue Str.","postalCode":"21335","locality":"Lüneburg","municipality":{"key":"03355022","name":"Lüneburg, Hansestadt","type":"Stadt"},"district":{"key":"03355","name":"Lüneburg","type":"Landkreis"},"federalState":{"key":"03","name":"Niedersachsen"}},{"name":"Neue Sülze","postalCode":"21335","locality":"Lüneburg","municipality":{"key":"03355022","name":"Lüneburg, Hansestadt","type":"Stadt"},"district":{"key":"03355","name":"Lüneburg","type":"Landkreis"},"federalState":{"key":"03","name":"Niedersachsen"}},{"name":"Neuetorstr.","postalCode":"21335","locality":"Lüneburg","municipality":{"key":"03355022","name":"Lüneburg, Hansestadt","type":"Stadt"},"district":{"key":"03355","name":"Lüneburg","type":"Landkreis"},"federalState":{"key":"03","name":"Niedersachsen"}},{"name":"Neuetorstr.","postalCode":"21339","locality":"Lüneburg","municipality":{"key":"03355022","name":"Lüneburg, Hansestadt","type":"Stadt"},"district":{"key":"03355","name":"Lüneburg","type":"Landkreis"},"federalState":{"key":"03","name":"Niedersachsen"}},{"name":"Neu-Häcklingen","postalCode":"21335","locality":"Lüneburg","municipality":{"key":"03355022","name":"Lüneburg, Hansestadt","type":"Stadt"},"district":{"key":"03355","name":"Lüneburg","type":"Landkreis"},"federalState":{"key":"03","name":"Niedersachsen"}},{"name":"Neuhauser Str.","postalCode":"21339","locality":"Lüneburg","municipality":{"key":"03355022","name":"Lüneburg, Hansestadt","type":"Stadt"},"district":{"key":"03355","name":"Lüneburg","type":"Landkreis"},"federalState":{"key":"03","name":"Niedersachsen"}},{"name":"Niklas-Luhmann-Str.","postalCode":"21339","locality":"Lüneburg","municipality":{"key":"03355022","name":"Lüneburg, Hansestadt","type":"Stadt"},"district":{"key":"03355","name":"Lüneburg","type":"Landkreis"},"federalState":{"key":"03","name":"Niedersachsen"}},{"name":"Novalisstr.","postalCode":"21337","locality":"Lüneburg","municipality":{"key":"03355022","name":"Lüneburg, Hansestadt","type":"Stadt"},"district":{"key":"03355","name":"Lüneburg","type":"Landkreis"},"federalState":{"key":"03","name":"Niedersachsen"}},{"name":"Nutzfelder Weg","postalCode":"21337","locality":"Lüneburg","municipality":{"key":"03355022","name":"Lüneburg, Hansestadt","type":"Stadt"},"district":{"key":"03355","name":"Lüneburg","type":"Landkreis"},"federalState":{"key":"03","name":"Niedersachsen"}},{"name":"Op 'n Barweg","postalCode":"21449","locality":"Radbruch","municipality":{"key":"03355028","name":"Radbruch","type":"Kreisangehörige_Gemeinde"},"district":{"key":"03355","name":"Lüneburg","type":"Landkreis"},"federalState":{"key":"03","name":"Niedersachsen"}},{"name":"Op'n Donnerloh","postalCode":"21449","locality":"Radbruch","municipality":{"key":"03355028","name":"Radbruch","type":"Kreisangehörige_Gemeinde"},"district":{"key":"03355","name":"Lüneburg","type":"Landkreis"},"federalState":{"key":"03","name":"Niedersachsen"}},{"name":"Peerort","postalCode":"21449","locality":"Radbruch","municipality":{"key":"03355028","name":"Radbruch","type":"Kreisangehörige_Gemeinde"},"district":{"key":"03355","name":"Lüneburg","type":"Landkreis"},"federalState":{"key":"03","name":"Niedersachsen"}},{"name":"Quellenweg","postalCode":"21339","locality":"Lüneburg","municipality":{"key":"03355022","name":"Lüneburg, Hansestadt","type":"Stadt"},"district":{"key":"03355","name":"Lüneburg","type":"Landkreis"},"federalState":{"key":"03","name":"Niedersachsen"}},{"name":"Quickbaumweg","postalCode":"21339","locality":"Lüneburg","municipality":{"key":"03355022","name":"Lüneburg, Hansestadt","type":"Stadt"},"district":{"key":"03355","name":"Lüneburg","type":"Landkreis"},"federalState":{"key":"03","name":"Niedersachsen"}},{"name":"Roddauweg","postalCode":"21449","locality":"Radbruch","municipality":{"key":"03355028","name":"Radbruch","type":"Kreisangehörige_Gemeinde"},"district":{"key":"03355","name":"Lüneburg","type":"Landkreis"},"federalState":{"key":"03","name":"Niedersachsen"}},{"name":"Rottorfer Str.","postalCode":"21449","locality":"Radbruch","municipality":{"key":"03355028","name":"Radbruch","type":"Kreisangehörige_Gemeinde"},"district":{"key":"03355","name":"Lüneburg","type":"Landkreis"},"federalState":{"key":"03","name":"Niedersachsen"}},{"name":"Schäfer-Ast-Str.","postalCode":"21449","locality":"Radbruch","municipality":{"key":"03355028","name":"Radbruch","type":"Kreisangehörige_Gemeinde"},"district":{"key":"03355","name":"Lüneburg","type":"Landkreis"},"federalState":{"key":"03","name":"Niedersachsen"}},{"name":"Schmiedekoppel","postalCode":"21449","locality":"Radbruch","municipality":{"key":"03355028","name":"Radbruch","type":"Kreisangehörige_Gemeinde"},"district":{"key":"03355","name":"Lüneburg","type":"Landkreis"},"federalState":{"key":"03","name":"Niedersachsen"}},{"name":"Schnellenberger Weg","postalCode":"21449","locality":"Radbruch","municipality":{"key":"03355028","name":"Radbruch","type":"Kreisangehörige_Gemeinde"},"district":{"key":"03355","name":"Lüneburg","type":"Landkreis"},"federalState":{"key":"03","name":"Niedersachsen"}},{"name":"Schoolkoppel","postalCode":"21449","locality":"Radbruch","municipality":{"key":"03355028","name":"Radbruch","type":"Kreisangehörige_Gemeinde"},"district":{"key":"03355","name":"Lüneburg","type":"Landkreis"},"federalState":{"key":"03","name":"Niedersachsen"}},{"name":"Steins Weg","postalCode":"21449","locality":"Radbruch","municipality":{"key":"03355028","name":"Radbruch","type":"Kreisangehörige_Gemeinde"},"district":{"key":"03355","name":"Lüneburg","type":"Landkreis"},"federalState":{"key":"03","name":"Niedersachsen"}},{"name":"Tannenweg","postalCode":"21339","locality":"Lüneburg","municipality":{"key":"03355022","name":"Lüneburg, Hansestadt","type":"Stadt"},"district":{"key":"03355","name":"Lüneburg","type":"Landkreis"},"federalState":{"key":"03","name":"Niedersachsen"}},{"name":"Tartuer Str.","postalCode":"21337","locality":"Lüneburg","municipality":{"key":"03355022","name":"Lüneburg, Hansestadt","type":"Stadt"},"district":{"key":"03355","name":"Lüneburg","type":"Landkreis"},"federalState":{"key":"03","name":"Niedersachsen"}},{"name":"Teichwiesenweg","postalCode":"21335","locality":"Lüneburg","municipality":{"key":"03355022","name":"Lüneburg, Hansestadt","type":"Stadt"},"district":{"key":"03355","name":"Lüneburg","type":"Landkreis"},"federalState":{"key":"03","name":"Niedersachsen"}},{"name":"Teigelhus","postalCode":"21339","locality":"Lüneburg","municipality":{"key":"03355022","name":"Lüneburg, Hansestadt","type":"Stadt"},"district":{"key":"03355","name":"Lüneburg","type":"Landkreis"},"federalState":{"key":"03","name":"Niedersachsen"}},{"name":"Teilfeld","postalCode":"21339","locality":"Lüneburg","municipality":{"key":"03355022","name":"Lüneburg, Hansestadt","type":"Stadt"},"district":{"key":"03355","name":"Lüneburg","type":"Landkreis"},"federalState":{"key":"03","name":"Niedersachsen"}},{"name":"Theodor-Haubach-Str.","postalCode":"21337","locality":"Lüneburg","municipality":{"key":"03355022","name":"Lüneburg, Hansestadt","type":"Stadt"},"district":{"key":"03355","name":"Lüneburg","type":"Landkreis"},"federalState":{"key":"03","name":"Niedersachsen"}},{"name":"Theodor-Heuss-Str.","postalCode":"21337","locality":"Lüneburg","municipality":{"key":"03355022","name":"Lüneburg, Hansestadt","type":"Stadt"},"district":{"key":"03355","name":"Lüneburg","type":"Landkreis"},"federalState":{"key":"03","name":"Niedersachsen"}},{"name":"Theodor-Marwitz-Str.","postalCode":"21337","locality":"Lüneburg","municipality":{"key":"03355022","name":"Lüneburg, Hansestadt","type":"Stadt"},"district":{"key":"03355","name":"Lüneburg","type":"Landkreis"},"federalState":{"key":"03","name":"Niedersachsen"}},{"name":"Theodor-Storm-Str.","postalCode":"21337","locality":"Lüneburg","municipality":{"key":"03355022","name":"Lüneburg, Hansestadt","type":"Stadt"},"district":{"key":"03355","name":"Lüneburg","type":"Landkreis"},"federalState":{"key":"03","name":"Niedersachsen"}},{"name":"Thorner Str.","postalCode":"21339","locality":"Lüneburg","municipality":{"key":"03355022","name":"Lüneburg, Hansestadt","type":"Stadt"},"district":{"key":"03355","name":"Lüneburg","type":"Landkreis"},"federalState":{"key":"03","name":"Niedersachsen"}},{"name":"Tilsiter Str.","postalCode":"21337","locality":"Lüneburg","municipality":{"key":"03355022","name":"Lüneburg, Hansestadt","type":"Stadt"},"district":{"key":"03355","name":"Lüneburg","type":"Landkreis"},"federalState":{"key":"03","name":"Niedersachsen"}},{"name":"Tobakskamp","postalCode":"21339","locality":"Lüneburg","municipality":{"key":"03355022","name":"Lüneburg, Hansestadt","type":"Stadt"},"district":{"key":"03355","name":"Lüneburg","type":"Landkreis"},"federalState":{"key":"03","name":"Niedersachsen"}},{"name":"Töbingstr.","postalCode":"21339","locality":"Lüneburg","municipality":{"key":"03355022","name":"Lüneburg, Hansestadt","type":"Stadt"},"district":{"key":"03355","name":"Lüneburg","type":"Landkreis"},"federalState":{"key":"03","name":"Niedersachsen"}},{"name":"Töpferstr.","postalCode":"21335","locality":"Lüneburg","municipality":{"key":"03355022","name":"Lüneburg, Hansestadt","type":"Stadt"},"district":{"key":"03355","name":"Lüneburg","type":"Landkreis"},"federalState":{"key":"03","name":"Niedersachsen"}},{"name":"Triftweg","postalCode":"21335","locality":"Lüneburg","municipality":{"key":"03355022","name":"Lüneburg, Hansestadt","type":"Stadt"},"district":{"key":"03355","name":"Lüneburg","type":"Landkreis"},"federalState":{"key":"03","name":"Niedersachsen"}},{"name":"Tulpenweg","postalCode":"21339","locality":"Lüneburg","municipality":{"key":"03355022","name":"Lüneburg, Hansestadt","type":"Stadt"},"district":{"key":"03355","name":"Lüneburg","type":"Landkreis"},"federalState":{"key":"03","name":"Niedersachsen"}},{"name":"Tüner Berg","postalCode":"21335","locality":"Lüneburg","municipality":{"key":"03355022","name":"Lüneburg, Hansestadt","type":"Stadt"},"district":{"key":"03355","name":"Lüneburg","type":"Landkreis"},"federalState":{"key":"03","name":"Niedersachsen"}},{"name":"Uelzener Str.","postalCode":"21335","locality":"Lüneburg","municipality":{"key":"03355022","name":"Lüneburg, Hansestadt","type":"Stadt"},"district":{"key":"03355","name":"Lüneburg","type":"Landkreis"},"federalState":{"key":"03","name":"Niedersachsen"}},{"name":"Uhlandstr.","postalCode":"21337","locality":"Lüneburg","municipality":{"key":"03355022","name":"Lüneburg, Hansestadt","type":"Stadt"},"district":{"key":"03355","name":"Lüneburg","type":"Landkreis"},"federalState":{"key":"03","name":"Niedersachsen"}},{"name":"Ulmenweg","postalCode":"21337","locality":"Lüneburg","municipality":{"key":"03355022","name":"Lüneburg, Hansestadt","type":"Stadt"},"district":{"key":"03355","name":"Lüneburg","type":"Landkreis"},"federalState":{"key":"03","name":"Niedersachsen"}},{"name":"Universitätsallee","postalCode":"21335","locality":"Lüneburg","municipality":{"key":"03355022","name":"Lüneburg, Hansestadt","type":"Stadt"},"district":{"key":"03355","name":"Lüneburg","type":"Landkreis"},"federalState":{"key":"03","name":"Niedersachsen"}},{"name":"Unter der Burg","postalCode":"21339","locality":"Lüneburg","municipality":{"key":"03355022","name":"Lüneburg, Hansestadt","type":"Stadt"},"district":{"key":"03355","name":"Lüneburg","type":"Landkreis"},"federalState":{"key":"03","name":"Niedersachsen"}},{"name":"Untere Ohlingerstr.","postalCode":"21335","locality":"Lüneburg","municipality":{"key":"03355022","name":"Lüneburg, Hansestadt","type":"Stadt"},"district":{"key":"03355","name":"Lüneburg","type":"Landkreis"},"federalState":{"key":"03","name":"Niedersachsen"}},{"name":"Van-der-Mölen-Str.","postalCode":"21339","locality":"Lüneburg","municipality":{"key":"03355022","name":"Lüneburg, Hansestadt","type":"Stadt"},"district":{"key":"03355","name":"Lüneburg","type":"Landkreis"},"federalState":{"key":"03","name":"Niedersachsen"}},{"name":"Veilchenring","postalCode":"21335","locality":"Lüneburg","municipality":{"key":"03355022","name":"Lüneburg, Hansestadt","type":"Stadt"},"district":{"key":"03355","name":"Lüneburg","type":"Landkreis"},"federalState":{"key":"03","name":"Niedersachsen"}},{"name":"Vickenteich","postalCode":"21339","locality":"Lüneburg","municipality":{"key":"03355022","name":"Lüneburg, Hansestadt","type":"Stadt"},"district":{"key":"03355","name":"Lüneburg","type":"Landkreis"},"federalState":{"key":"03","name":"Niedersachsen"}},{"name":"Virchowstr.","postalCode":"21335","locality":"Lüneburg","municipality":{"key":"03355022","name":"Lüneburg, Hansestadt","type":"Stadt"},"district":{"key":"03355","name":"Lüneburg","type":"Landkreis"},"federalState":{"key":"03","name":"Niedersachsen"}},{"name":"Viskulenhof","postalCode":"21335","locality":"Lüneburg","municipality":{"key":"03355022","name":"Lüneburg, Hansestadt","type":"Stadt"},"district":{"key":"03355","name":"Lüneburg","type":"Landkreis"},"federalState":{"key":"03","name":"Niedersachsen"}},{"name":"Vögelser Str.","postalCode":"21339","locality":"Lüneburg","municipality":{"key":"03355022","name":"Lüneburg, Hansestadt","type":"Stadt"},"district":{"key":"03355","name":"Lüneburg","type":"Landkreis"},"federalState":{"key":"03","name":"Niedersachsen"}},{"name":"Volgershall","postalCode":"21339","locality":"Lüneburg","municipality":{"key":"03355022","name":"Lüneburg, Hansestadt","type":"Stadt"},"district":{"key":"03355","name":"Lüneburg","type":"Landkreis"},"federalState":{"key":"03","name":"Niedersachsen"}},{"name":"Volgerstr.","postalCode":"21335","locality":"Lüneburg","municipality":{"key":"03355022","name":"Lüneburg, Hansestadt","type":"Stadt"},"district":{"key":"03355","name":"Lüneburg","type":"Landkreis"},"federalState":{"key":"03","name":"Niedersachsen"}},{"name":"Von-Dassel-Str.","postalCode":"21339","locality":"Lüneburg","municipality":{"key":"03355022","name":"Lüneburg, Hansestadt","type":"Stadt"},"district":{"key":"03355","name":"Lüneburg","type":"Landkreis"},"federalState":{"key":"03","name":"Niedersachsen"}},{"name":"Von-Döring-Weg","postalCode":"21339","locality":"Lüneburg","municipality":{"key":"03355022","name":"Lüneburg, Hansestadt","type":"Stadt"},"district":{"key":"03355","name":"Lüneburg","type":"Landkreis"},"federalState":{"key":"03","name":"Niedersachsen"}},{"name":"Von-Kleist-Str.","postalCode":"21337","locality":"Lüneburg","municipality":{"key":"03355022","name":"Lüneburg, Hansestadt","type":"Stadt"},"district":{"key":"03355","name":"Lüneburg","type":"Landkreis"},"federalState":{"key":"03","name":"Niedersachsen"}},{"name":"Vor dem Bardowicker Tore","postalCode":"21335","locality":"Lüneburg","municipality":{"key":"03355022","name":"Lüneburg, Hansestadt","type":"Stadt"},"district":{"key":"03355","name":"Lüneburg","type":"Landkreis"},"federalState":{"key":"03","name":"Niedersachsen"}},{"name":"Vor dem Bardowicker Tore","postalCode":"21339","locality":"Lüneburg","municipality":{"key":"03355022","name":"Lüneburg, Hansestadt","type":"Stadt"},"district":{"key":"03355","name":"Lüneburg","type":"Landkreis"},"federalState":{"key":"03","name":"Niedersachsen"}},{"name":"Vor dem Neuen Tore","postalCode":"21339","locality":"Lüneburg","municipality":{"key":"03355022","name":"Lüneburg, Hansestadt","type":"Stadt"},"district":{"key":"03355","name":"Lüneburg","type":"Landkreis"},"federalState":{"key":"03","name":"Niedersachsen"}},{"name":"Vor dem Roten Tore","postalCode":"21335","locality":"Lüneburg","municipality":{"key":"03355022","name":"Lüneburg, Hansestadt","type":"Stadt"},"district":{"key":"03355","name":"Lüneburg","type":"Landkreis"},"federalState":{"key":"03","name":"Niedersachsen"}},{"name":"Vor dem Weißen Berge","postalCode":"21339","locality":"Lüneburg","municipality":{"key":"03355022","name":"Lüneburg, Hansestadt","type":"Stadt"},"district":{"key":"03355","name":"Lüneburg","type":"Landkreis"},"federalState":{"key":"03","name":"Niedersachsen"}},{"name":"Vor der Heide","postalCode":"21339","locality":"Lüneburg","municipality":{"key":"03355022","name":"Lüneburg, Hansestadt","type":"Stadt"},"district":{"key":"03355","name":"Lüneburg","type":"Landkreis"},"federalState":{"key":"03","name":"Niedersachsen"}},{"name":"Vor der Sülze","postalCode":"21335","locality":"Lüneburg","municipality":{"key":"03355022","name":"Lüneburg, Hansestadt","type":"Stadt"},"district":{"key":"03355","name":"Lüneburg","type":"Landkreis"},"federalState":{"key":"03","name":"Niedersachsen"}},{"name":"Vor Mönchsgarten","postalCode":"21339","locality":"Lüneburg","municipality":{"key":"03355022","name":"Lüneburg, Hansestadt","type":"Stadt"},"district":{"key":"03355","name":"Lüneburg","type":"Landkreis"},"federalState":{"key":"03","name":"Niedersachsen"}},{"name":"Vrestorfer Weg","postalCode":"21339","locality":"Lüneburg","municipality":{"key":"03355022","name":"Lüneburg, Hansestadt","type":"Stadt"},"district":{"key":"03355","name":"Lüneburg","type":"Landkreis"},"federalState":{"key":"03","name":"Niedersachsen"}},{"name":"Wacholderweg","postalCode":"21449","locality":"Radbruch","municipality":{"key":"03355028","name":"Radbruch","type":"Kreisangehörige_Gemeinde"},"district":{"key":"03355","name":"Lüneburg","type":"Landkreis"},"federalState":{"key":"03","name":"Niedersachsen"}},{"name":"Wittorfer Weg","postalCode":"21449","locality":"Radbruch","municipality":{"key":"03355028","name":"Radbruch","type":"Kreisangehörige_Gemeinde"},"district":{"key":"03355","name":"Lüneburg","type":"Landkreis"},"federalState":{"key":"03","name":"Niedersachsen"}},{"name":"Yorckstr.","postalCode":"21335","locality":"Lüneburg","municipality":{"key":"03355022","name":"Lüneburg, Hansestadt","type":"Stadt"},"district":{"key":"03355","name":"Lüneburg","type":"Landkreis"},"federalState":{"key":"03","name":"Niedersachsen"}},{"name":"Zechlinstr.","postalCode":"21335","locality":"Lüneburg","municipality":{"key":"03355022","name":"Lüneburg, Hansestadt","type":"Stadt"},"district":{"key":"03355","name":"Lüneburg","type":"Landkreis"},"federalState":{"key":"03","name":"Niedersachsen"}},{"name":"Zeltberg","postalCode":"21339","locality":"Lüneburg","municipality":{"key":"03355022","name":"Lüneburg, Hansestadt","type":"Stadt"},"district":{"key":"03355","name":"Lüneburg","type":"Landkreis"},"federalState":{"key":"03","name":"Niedersachsen"}},{"name":"Zeppelinstr.","postalCode":"21337","locality":"Lüneburg","municipality":{"key":"03355022","name":"Lüneburg, Hansestadt","type":"Stadt"},"district":{"key":"03355","name":"Lüneburg","type":"Landkreis"},"federalState":{"key":"03","name":"Niedersachsen"}},{"name":"Ziegelkamp","postalCode":"21337","locality":"Lüneburg","municipality":{"key":"03355022","name":"Lüneburg, Hansestadt","type":"Stadt"},"district":{"key":"03355","name":"Lüneburg","type":"Landkreis"},"federalState":{"key":"03","name":"Niedersachsen"}},{"name":"Zum Elfenbruch","postalCode":"21335","locality":"Lüneburg","municipality":{"key":"03355022","name":"Lüneburg, Hansestadt","type":"Stadt"},"district":{"key":"03355","name":"Lüneburg","type":"Landkreis"},"federalState":{"key":"03","name":"Niedersachsen"}},{"name":"Zum Lackfeld","postalCode":"21335","locality":"Lüneburg","municipality":{"key":"03355022","name":"Lüneburg, Hansestadt","type":"Stadt"},"district":{"key":"03355","name":"Lüneburg","type":"Landkreis"},"federalState":{"key":"03","name":"Niedersachsen"}},{"name":"Zum Moorbruch","postalCode":"21335","locality":"Lüneburg","municipality":{"key":"03355022","name":"Lüneburg, Hansestadt","type":"Stadt"},"district":{"key":"03355","name":"Lüneburg","type":"Landkreis"},"federalState":{"key":"03","name":"Niedersachsen"}},{"name":"Zur Ohe","postalCode":"21337","locality":"Lüneburg","municipality":{"key":"03355022","name":"Lüneburg, Hansestadt","type":"Stadt"},"district":{"key":"03355","name":"Lüneburg","type":"Landkreis"},"federalState":{"key":"03","name":"Niedersachsen"}},]