[{"name":"Abbe-David-Str.","postalCode":"38315","locality":"Schladen-Werla","municipality":{"key":"03158039","name":"Schladen-Werla","type":"Kreisangehörige_Gemeinde"},"district":{"key":"03158","name":"Wolfenbüttel","type":"Landkreis"},"federalState":{"key":"03","name":"Niedersachsen"}},{"name":"Adolph-Kolping-Str.","postalCode":"38315","locality":"Schladen-Werla","municipality":{"key":"03158039","name":"Schladen-Werla","type":"Kreisangehörige_Gemeinde"},"district":{"key":"03158","name":"Wolfenbüttel","type":"Landkreis"},"federalState":{"key":"03","name":"Niedersachsen"}},{"name":"Ahornweg","postalCode":"38315","locality":"Schladen-Werla","municipality":{"key":"03158039","name":"Schladen-Werla","type":"Kreisangehörige_Gemeinde"},"district":{"key":"03158","name":"Wolfenbüttel","type":"Landkreis"},"federalState":{"key":"03","name":"Niedersachsen"}},{"name":"Alte Dorfstr.","postalCode":"38315","locality":"Schladen-Werla","municipality":{"key":"03158039","name":"Schladen-Werla","type":"Kreisangehörige_Gemeinde"},"district":{"key":"03158","name":"Wolfenbüttel","type":"Landkreis"},"federalState":{"key":"03","name":"Niedersachsen"}},{"name":"Alte Mühle","postalCode":"38315","locality":"Schladen-Werla","municipality":{"key":"03158039","name":"Schladen-Werla","type":"Kreisangehörige_Gemeinde"},"district":{"key":"03158","name":"Wolfenbüttel","type":"Landkreis"},"federalState":{"key":"03","name":"Niedersachsen"}},{"name":"Am Badeteich","postalCode":"38315","locality":"Schladen-Werla","municipality":{"key":"03158039","name":"Schladen-Werla","type":"Kreisangehörige_Gemeinde"},"district":{"key":"03158","name":"Wolfenbüttel","type":"Landkreis"},"federalState":{"key":"03","name":"Niedersachsen"}},{"name":"Am Bahnhof","postalCode":"38315","locality":"Schladen-Werla","municipality":{"key":"03158039","name":"Schladen-Werla","type":"Kreisangehörige_Gemeinde"},"district":{"key":"03158","name":"Wolfenbüttel","type":"Landkreis"},"federalState":{"key":"03","name":"Niedersachsen"}},{"name":"Am Beek","postalCode":"38315","locality":"Schladen-Werla","municipality":{"key":"03158039","name":"Schladen-Werla","type":"Kreisangehörige_Gemeinde"},"district":{"key":"03158","name":"Wolfenbüttel","type":"Landkreis"},"federalState":{"key":"03","name":"Niedersachsen"}},{"name":"Am Berg","postalCode":"38315","locality":"Schladen-Werla","municipality":{"key":"03158039","name":"Schladen-Werla","type":"Kreisangehörige_Gemeinde"},"district":{"key":"03158","name":"Wolfenbüttel","type":"Landkreis"},"federalState":{"key":"03","name":"Niedersachsen"}},{"name":"Am Eichberg","postalCode":"38315","locality":"Schladen-Werla","municipality":{"key":"03158039","name":"Schladen-Werla","type":"Kreisangehörige_Gemeinde"},"district":{"key":"03158","name":"Wolfenbüttel","type":"Landkreis"},"federalState":{"key":"03","name":"Niedersachsen"}},{"name":"Am Hagenberg","postalCode":"38315","locality":"Schladen-Werla","municipality":{"key":"03158039","name":"Schladen-Werla","type":"Kreisangehörige_Gemeinde"},"district":{"key":"03158","name":"Wolfenbüttel","type":"Landkreis"},"federalState":{"key":"03","name":"Niedersachsen"}},{"name":"Am Hauptgraben","postalCode":"38315","locality":"Schladen-Werla","municipality":{"key":"03158039","name":"Schladen-Werla","type":"Kreisangehörige_Gemeinde"},"district":{"key":"03158","name":"Wolfenbüttel","type":"Landkreis"},"federalState":{"key":"03","name":"Niedersachsen"}},{"name":"Am Iberg","postalCode":"38315","locality":"Schladen-Werla","municipality":{"key":"03158039","name":"Schladen-Werla","type":"Kreisangehörige_Gemeinde"},"district":{"key":"03158","name":"Wolfenbüttel","type":"Landkreis"},"federalState":{"key":"03","name":"Niedersachsen"}},{"name":"Am Sportplatz","postalCode":"38315","locality":"Schladen-Werla","municipality":{"key":"03158039","name":"Schladen-Werla","type":"Kreisangehörige_Gemeinde"},"district":{"key":"03158","name":"Wolfenbüttel","type":"Landkreis"},"federalState":{"key":"03","name":"Niedersachsen"}},{"name":"Am Stadtbad","postalCode":"38315","locality":"Schladen-Werla","municipality":{"key":"03158039","name":"Schladen-Werla","type":"Kreisangehörige_Gemeinde"},"district":{"key":"03158","name":"Wolfenbüttel","type":"Landkreis"},"federalState":{"key":"03","name":"Niedersachsen"}},{"name":"Am Steinberg","postalCode":"38315","locality":"Schladen-Werla","municipality":{"key":"03158039","name":"Schladen-Werla","type":"Kreisangehörige_Gemeinde"},"district":{"key":"03158","name":"Wolfenbüttel","type":"Landkreis"},"federalState":{"key":"03","name":"Niedersachsen"}},{"name":"Am Vorderbruch","postalCode":"38315","locality":"Schladen-Werla","municipality":{"key":"03158039","name":"Schladen-Werla","type":"Kreisangehörige_Gemeinde"},"district":{"key":"03158","name":"Wolfenbüttel","type":"Landkreis"},"federalState":{"key":"03","name":"Niedersachsen"}},{"name":"Am Wannekop","postalCode":"38315","locality":"Schladen-Werla","municipality":{"key":"03158039","name":"Schladen-Werla","type":"Kreisangehörige_Gemeinde"},"district":{"key":"03158","name":"Wolfenbüttel","type":"Landkreis"},"federalState":{"key":"03","name":"Niedersachsen"}},{"name":"Am Weinberg","postalCode":"38315","locality":"Schladen-Werla","municipality":{"key":"03158039","name":"Schladen-Werla","type":"Kreisangehörige_Gemeinde"},"district":{"key":"03158","name":"Wolfenbüttel","type":"Landkreis"},"federalState":{"key":"03","name":"Niedersachsen"}},{"name":"An den Gärten","postalCode":"38315","locality":"Schladen-Werla","municipality":{"key":"03158039","name":"Schladen-Werla","type":"Kreisangehörige_Gemeinde"},"district":{"key":"03158","name":"Wolfenbüttel","type":"Landkreis"},"federalState":{"key":"03","name":"Niedersachsen"}},{"name":"An der Kirche","postalCode":"38315","locality":"Schladen-Werla","municipality":{"key":"03158039","name":"Schladen-Werla","type":"Kreisangehörige_Gemeinde"},"district":{"key":"03158","name":"Wolfenbüttel","type":"Landkreis"},"federalState":{"key":"03","name":"Niedersachsen"}},{"name":"An der Mühlenilse","postalCode":"38315","locality":"Schladen-Werla","municipality":{"key":"03158039","name":"Schladen-Werla","type":"Kreisangehörige_Gemeinde"},"district":{"key":"03158","name":"Wolfenbüttel","type":"Landkreis"},"federalState":{"key":"03","name":"Niedersachsen"}},{"name":"Anemonenweg","postalCode":"38315","locality":"Schladen-Werla","municipality":{"key":"03158039","name":"Schladen-Werla","type":"Kreisangehörige_Gemeinde"},"district":{"key":"03158","name":"Wolfenbüttel","type":"Landkreis"},"federalState":{"key":"03","name":"Niedersachsen"}},{"name":"Anna-Landmann-Str.","postalCode":"38315","locality":"Schladen-Werla","municipality":{"key":"03158039","name":"Schladen-Werla","type":"Kreisangehörige_Gemeinde"},"district":{"key":"03158","name":"Wolfenbüttel","type":"Landkreis"},"federalState":{"key":"03","name":"Niedersachsen"}},{"name":"Appenroder Str.","postalCode":"38315","locality":"Schladen-Werla","municipality":{"key":"03158039","name":"Schladen-Werla","type":"Kreisangehörige_Gemeinde"},"district":{"key":"03158","name":"Wolfenbüttel","type":"Landkreis"},"federalState":{"key":"03","name":"Niedersachsen"}},{"name":"Appenröder Str.","postalCode":"38315","locality":"Schladen-Werla","municipality":{"key":"03158039","name":"Schladen-Werla","type":"Kreisangehörige_Gemeinde"},"district":{"key":"03158","name":"Wolfenbüttel","type":"Landkreis"},"federalState":{"key":"03","name":"Niedersachsen"}},{"name":"Asseburger Str.","postalCode":"38315","locality":"Schladen-Werla","municipality":{"key":"03158039","name":"Schladen-Werla","type":"Kreisangehörige_Gemeinde"},"district":{"key":"03158","name":"Wolfenbüttel","type":"Landkreis"},"federalState":{"key":"03","name":"Niedersachsen"}},{"name":"Auf dem Hagenberg","postalCode":"38315","locality":"Schladen-Werla","municipality":{"key":"03158039","name":"Schladen-Werla","type":"Kreisangehörige_Gemeinde"},"district":{"key":"03158","name":"Wolfenbüttel","type":"Landkreis"},"federalState":{"key":"03","name":"Niedersachsen"}},{"name":"Auf dem Horn","postalCode":"38315","locality":"Schladen-Werla","municipality":{"key":"03158039","name":"Schladen-Werla","type":"Kreisangehörige_Gemeinde"},"district":{"key":"03158","name":"Wolfenbüttel","type":"Landkreis"},"federalState":{"key":"03","name":"Niedersachsen"}},{"name":"Auf dem Kamp","postalCode":"38315","locality":"Schladen-Werla","municipality":{"key":"03158039","name":"Schladen-Werla","type":"Kreisangehörige_Gemeinde"},"district":{"key":"03158","name":"Wolfenbüttel","type":"Landkreis"},"federalState":{"key":"03","name":"Niedersachsen"}},{"name":"Bäckerstr.","postalCode":"38315","locality":"Schladen-Werla","municipality":{"key":"03158039","name":"Schladen-Werla","type":"Kreisangehörige_Gemeinde"},"district":{"key":"03158","name":"Wolfenbüttel","type":"Landkreis"},"federalState":{"key":"03","name":"Niedersachsen"}},{"name":"Bahnhofstr.","postalCode":"38315","locality":"Schladen-Werla","municipality":{"key":"03158039","name":"Schladen-Werla","type":"Kreisangehörige_Gemeinde"},"district":{"key":"03158","name":"Wolfenbüttel","type":"Landkreis"},"federalState":{"key":"03","name":"Niedersachsen"}},{"name":"Bärengasse","postalCode":"38315","locality":"Schladen-Werla","municipality":{"key":"03158039","name":"Schladen-Werla","type":"Kreisangehörige_Gemeinde"},"district":{"key":"03158","name":"Wolfenbüttel","type":"Landkreis"},"federalState":{"key":"03","name":"Niedersachsen"}},{"name":"Bergstr.","postalCode":"38315","locality":"Schladen-Werla","municipality":{"key":"03158039","name":"Schladen-Werla","type":"Kreisangehörige_Gemeinde"},"district":{"key":"03158","name":"Wolfenbüttel","type":"Landkreis"},"federalState":{"key":"03","name":"Niedersachsen"}},{"name":"Beuchter Str.","postalCode":"38315","locality":"Schladen-Werla","municipality":{"key":"03158039","name":"Schladen-Werla","type":"Kreisangehörige_Gemeinde"},"district":{"key":"03158","name":"Wolfenbüttel","type":"Landkreis"},"federalState":{"key":"03","name":"Niedersachsen"}},{"name":"Birkenweg","postalCode":"38315","locality":"Schladen-Werla","municipality":{"key":"03158039","name":"Schladen-Werla","type":"Kreisangehörige_Gemeinde"},"district":{"key":"03158","name":"Wolfenbüttel","type":"Landkreis"},"federalState":{"key":"03","name":"Niedersachsen"}},{"name":"Bismarckstr.","postalCode":"38315","locality":"Schladen-Werla","municipality":{"key":"03158039","name":"Schladen-Werla","type":"Kreisangehörige_Gemeinde"},"district":{"key":"03158","name":"Wolfenbüttel","type":"Landkreis"},"federalState":{"key":"03","name":"Niedersachsen"}},{"name":"Bleiche","postalCode":"38315","locality":"Schladen-Werla","municipality":{"key":"03158039","name":"Schladen-Werla","type":"Kreisangehörige_Gemeinde"},"district":{"key":"03158","name":"Wolfenbüttel","type":"Landkreis"},"federalState":{"key":"03","name":"Niedersachsen"}},{"name":"Blumenweg","postalCode":"38315","locality":"Schladen-Werla","municipality":{"key":"03158039","name":"Schladen-Werla","type":"Kreisangehörige_Gemeinde"},"district":{"key":"03158","name":"Wolfenbüttel","type":"Landkreis"},"federalState":{"key":"03","name":"Niedersachsen"}},{"name":"Börßumer Str.","postalCode":"38315","locality":"Schladen-Werla","municipality":{"key":"03158039","name":"Schladen-Werla","type":"Kreisangehörige_Gemeinde"},"district":{"key":"03158","name":"Wolfenbüttel","type":"Landkreis"},"federalState":{"key":"03","name":"Niedersachsen"}},{"name":"Brauerwinkel","postalCode":"38315","locality":"Schladen-Werla","municipality":{"key":"03158039","name":"Schladen-Werla","type":"Kreisangehörige_Gemeinde"},"district":{"key":"03158","name":"Wolfenbüttel","type":"Landkreis"},"federalState":{"key":"03","name":"Niedersachsen"}},{"name":"Brauner Schlag","postalCode":"38315","locality":"Schladen-Werla","municipality":{"key":"03158039","name":"Schladen-Werla","type":"Kreisangehörige_Gemeinde"},"district":{"key":"03158","name":"Wolfenbüttel","type":"Landkreis"},"federalState":{"key":"03","name":"Niedersachsen"}},{"name":"Braunschweiger Str.","postalCode":"38315","locality":"Schladen-Werla","municipality":{"key":"03158039","name":"Schladen-Werla","type":"Kreisangehörige_Gemeinde"},"district":{"key":"03158","name":"Wolfenbüttel","type":"Landkreis"},"federalState":{"key":"03","name":"Niedersachsen"}},{"name":"Breslauer Str.","postalCode":"38315","locality":"Schladen-Werla","municipality":{"key":"03158039","name":"Schladen-Werla","type":"Kreisangehörige_Gemeinde"},"district":{"key":"03158","name":"Wolfenbüttel","type":"Landkreis"},"federalState":{"key":"03","name":"Niedersachsen"}},{"name":"Brotwinkel","postalCode":"38315","locality":"Schladen-Werla","municipality":{"key":"03158039","name":"Schladen-Werla","type":"Kreisangehörige_Gemeinde"},"district":{"key":"03158","name":"Wolfenbüttel","type":"Landkreis"},"federalState":{"key":"03","name":"Niedersachsen"}},{"name":"Bruchweg","postalCode":"38315","locality":"Schladen-Werla","municipality":{"key":"03158039","name":"Schladen-Werla","type":"Kreisangehörige_Gemeinde"},"district":{"key":"03158","name":"Wolfenbüttel","type":"Landkreis"},"federalState":{"key":"03","name":"Niedersachsen"}},{"name":"Bruhlsweg","postalCode":"38315","locality":"Schladen-Werla","municipality":{"key":"03158039","name":"Schladen-Werla","type":"Kreisangehörige_Gemeinde"},"district":{"key":"03158","name":"Wolfenbüttel","type":"Landkreis"},"federalState":{"key":"03","name":"Niedersachsen"}},{"name":"Buchladener Beeke","postalCode":"38315","locality":"Schladen-Werla","municipality":{"key":"03158039","name":"Schladen-Werla","type":"Kreisangehörige_Gemeinde"},"district":{"key":"03158","name":"Wolfenbüttel","type":"Landkreis"},"federalState":{"key":"03","name":"Niedersachsen"}},{"name":"Burggraben","postalCode":"38315","locality":"Schladen-Werla","municipality":{"key":"03158039","name":"Schladen-Werla","type":"Kreisangehörige_Gemeinde"},"district":{"key":"03158","name":"Wolfenbüttel","type":"Landkreis"},"federalState":{"key":"03","name":"Niedersachsen"}},{"name":"Burglahweg","postalCode":"38315","locality":"Schladen-Werla","municipality":{"key":"03158039","name":"Schladen-Werla","type":"Kreisangehörige_Gemeinde"},"district":{"key":"03158","name":"Wolfenbüttel","type":"Landkreis"},"federalState":{"key":"03","name":"Niedersachsen"}},{"name":"Cammerer Str.","postalCode":"38315","locality":"Schladen-Werla","municipality":{"key":"03158039","name":"Schladen-Werla","type":"Kreisangehörige_Gemeinde"},"district":{"key":"03158","name":"Wolfenbüttel","type":"Landkreis"},"federalState":{"key":"03","name":"Niedersachsen"}},{"name":"Dahlienweg","postalCode":"38315","locality":"Schladen-Werla","municipality":{"key":"03158039","name":"Schladen-Werla","type":"Kreisangehörige_Gemeinde"},"district":{"key":"03158","name":"Wolfenbüttel","type":"Landkreis"},"federalState":{"key":"03","name":"Niedersachsen"}},{"name":"Damm","postalCode":"38315","locality":"Schladen-Werla","municipality":{"key":"03158039","name":"Schladen-Werla","type":"Kreisangehörige_Gemeinde"},"district":{"key":"03158","name":"Wolfenbüttel","type":"Landkreis"},"federalState":{"key":"03","name":"Niedersachsen"}},{"name":"Dammstr.","postalCode":"38315","locality":"Schladen-Werla","municipality":{"key":"03158039","name":"Schladen-Werla","type":"Kreisangehörige_Gemeinde"},"district":{"key":"03158","name":"Wolfenbüttel","type":"Landkreis"},"federalState":{"key":"03","name":"Niedersachsen"}},{"name":"Döhrener Weg","postalCode":"38315","locality":"Schladen-Werla","municipality":{"key":"03158039","name":"Schladen-Werla","type":"Kreisangehörige_Gemeinde"},"district":{"key":"03158","name":"Wolfenbüttel","type":"Landkreis"},"federalState":{"key":"03","name":"Niedersachsen"}},{"name":"Dorfstr.","postalCode":"38315","locality":"Schladen-Werla","municipality":{"key":"03158039","name":"Schladen-Werla","type":"Kreisangehörige_Gemeinde"},"district":{"key":"03158","name":"Wolfenbüttel","type":"Landkreis"},"federalState":{"key":"03","name":"Niedersachsen"}},{"name":"Eckerweg","postalCode":"38315","locality":"Schladen-Werla","municipality":{"key":"03158039","name":"Schladen-Werla","type":"Kreisangehörige_Gemeinde"},"district":{"key":"03158","name":"Wolfenbüttel","type":"Landkreis"},"federalState":{"key":"03","name":"Niedersachsen"}},{"name":"Eichenweg","postalCode":"38315","locality":"Schladen-Werla","municipality":{"key":"03158039","name":"Schladen-Werla","type":"Kreisangehörige_Gemeinde"},"district":{"key":"03158","name":"Wolfenbüttel","type":"Landkreis"},"federalState":{"key":"03","name":"Niedersachsen"}},{"name":"Eichkamp","postalCode":"38315","locality":"Schladen-Werla","municipality":{"key":"03158039","name":"Schladen-Werla","type":"Kreisangehörige_Gemeinde"},"district":{"key":"03158","name":"Wolfenbüttel","type":"Landkreis"},"federalState":{"key":"03","name":"Niedersachsen"}},{"name":"Erlenweg","postalCode":"38315","locality":"Schladen-Werla","municipality":{"key":"03158039","name":"Schladen-Werla","type":"Kreisangehörige_Gemeinde"},"district":{"key":"03158","name":"Wolfenbüttel","type":"Landkreis"},"federalState":{"key":"03","name":"Niedersachsen"}},{"name":"Ernst-Reuter-Str.","postalCode":"38315","locality":"Schladen-Werla","municipality":{"key":"03158039","name":"Schladen-Werla","type":"Kreisangehörige_Gemeinde"},"district":{"key":"03158","name":"Wolfenbüttel","type":"Landkreis"},"federalState":{"key":"03","name":"Niedersachsen"}},{"name":"Eschenweg","postalCode":"38315","locality":"Schladen-Werla","municipality":{"key":"03158039","name":"Schladen-Werla","type":"Kreisangehörige_Gemeinde"},"district":{"key":"03158","name":"Wolfenbüttel","type":"Landkreis"},"federalState":{"key":"03","name":"Niedersachsen"}},{"name":"Fallsteinblick","postalCode":"38315","locality":"Schladen-Werla","municipality":{"key":"03158039","name":"Schladen-Werla","type":"Kreisangehörige_Gemeinde"},"district":{"key":"03158","name":"Wolfenbüttel","type":"Landkreis"},"federalState":{"key":"03","name":"Niedersachsen"}},{"name":"Fastweg","postalCode":"38315","locality":"Schladen-Werla","municipality":{"key":"03158039","name":"Schladen-Werla","type":"Kreisangehörige_Gemeinde"},"district":{"key":"03158","name":"Wolfenbüttel","type":"Landkreis"},"federalState":{"key":"03","name":"Niedersachsen"}},{"name":"Fendtstr.","postalCode":"38315","locality":"Schladen-Werla","municipality":{"key":"03158039","name":"Schladen-Werla","type":"Kreisangehörige_Gemeinde"},"district":{"key":"03158","name":"Wolfenbüttel","type":"Landkreis"},"federalState":{"key":"03","name":"Niedersachsen"}},{"name":"Finkenweg","postalCode":"38315","locality":"Schladen-Werla","municipality":{"key":"03158039","name":"Schladen-Werla","type":"Kreisangehörige_Gemeinde"},"district":{"key":"03158","name":"Wolfenbüttel","type":"Landkreis"},"federalState":{"key":"03","name":"Niedersachsen"}},{"name":"Fischerstr.","postalCode":"38315","locality":"Schladen-Werla","municipality":{"key":"03158039","name":"Schladen-Werla","type":"Kreisangehörige_Gemeinde"},"district":{"key":"03158","name":"Wolfenbüttel","type":"Landkreis"},"federalState":{"key":"03","name":"Niedersachsen"}},{"name":"Flachsrottenweg","postalCode":"38315","locality":"Schladen-Werla","municipality":{"key":"03158039","name":"Schladen-Werla","type":"Kreisangehörige_Gemeinde"},"district":{"key":"03158","name":"Wolfenbüttel","type":"Landkreis"},"federalState":{"key":"03","name":"Niedersachsen"}},{"name":"Franz-Kaufmann-Str.","postalCode":"38315","locality":"Schladen-Werla","municipality":{"key":"03158039","name":"Schladen-Werla","type":"Kreisangehörige_Gemeinde"},"district":{"key":"03158","name":"Wolfenbüttel","type":"Landkreis"},"federalState":{"key":"03","name":"Niedersachsen"}},{"name":"Friedrich-Ebert-Platz","postalCode":"38315","locality":"Schladen-Werla","municipality":{"key":"03158039","name":"Schladen-Werla","type":"Kreisangehörige_Gemeinde"},"district":{"key":"03158","name":"Wolfenbüttel","type":"Landkreis"},"federalState":{"key":"03","name":"Niedersachsen"}},{"name":"Friedrich-Ebert-Str.","postalCode":"38315","locality":"Schladen-Werla","municipality":{"key":"03158039","name":"Schladen-Werla","type":"Kreisangehörige_Gemeinde"},"district":{"key":"03158","name":"Wolfenbüttel","type":"Landkreis"},"federalState":{"key":"03","name":"Niedersachsen"}},{"name":"Gartenstr.","postalCode":"38315","locality":"Schladen-Werla","municipality":{"key":"03158039","name":"Schladen-Werla","type":"Kreisangehörige_Gemeinde"},"district":{"key":"03158","name":"Wolfenbüttel","type":"Landkreis"},"federalState":{"key":"03","name":"Niedersachsen"}},{"name":"Geaseweg","postalCode":"38315","locality":"Schladen-Werla","municipality":{"key":"03158039","name":"Schladen-Werla","type":"Kreisangehörige_Gemeinde"},"district":{"key":"03158","name":"Wolfenbüttel","type":"Landkreis"},"federalState":{"key":"03","name":"Niedersachsen"}},{"name":"Ginsterweg","postalCode":"38315","locality":"Schladen-Werla","municipality":{"key":"03158039","name":"Schladen-Werla","type":"Kreisangehörige_Gemeinde"},"district":{"key":"03158","name":"Wolfenbüttel","type":"Landkreis"},"federalState":{"key":"03","name":"Niedersachsen"}},{"name":"Göddeckenroder Str.","postalCode":"38315","locality":"Schladen-Werla","municipality":{"key":"03158039","name":"Schladen-Werla","type":"Kreisangehörige_Gemeinde"},"district":{"key":"03158","name":"Wolfenbüttel","type":"Landkreis"},"federalState":{"key":"03","name":"Niedersachsen"}},{"name":"Goldgasse","postalCode":"38315","locality":"Schladen-Werla","municipality":{"key":"03158039","name":"Schladen-Werla","type":"Kreisangehörige_Gemeinde"},"district":{"key":"03158","name":"Wolfenbüttel","type":"Landkreis"},"federalState":{"key":"03","name":"Niedersachsen"}},{"name":"Goslarsche Str.","postalCode":"38315","locality":"Schladen-Werla","municipality":{"key":"03158039","name":"Schladen-Werla","type":"Kreisangehörige_Gemeinde"},"district":{"key":"03158","name":"Wolfenbüttel","type":"Landkreis"},"federalState":{"key":"03","name":"Niedersachsen"}},{"name":"Graseweg","postalCode":"38315","locality":"Schladen-Werla","municipality":{"key":"03158039","name":"Schladen-Werla","type":"Kreisangehörige_Gemeinde"},"district":{"key":"03158","name":"Wolfenbüttel","type":"Landkreis"},"federalState":{"key":"03","name":"Niedersachsen"}},{"name":"Grünstr.","postalCode":"38315","locality":"Schladen-Werla","municipality":{"key":"03158039","name":"Schladen-Werla","type":"Kreisangehörige_Gemeinde"},"district":{"key":"03158","name":"Wolfenbüttel","type":"Landkreis"},"federalState":{"key":"03","name":"Niedersachsen"}},{"name":"Guitres Str.","postalCode":"38315","locality":"Schladen-Werla","municipality":{"key":"03158039","name":"Schladen-Werla","type":"Kreisangehörige_Gemeinde"},"district":{"key":"03158","name":"Wolfenbüttel","type":"Landkreis"},"federalState":{"key":"03","name":"Niedersachsen"}},{"name":"Hagenbergweg","postalCode":"38315","locality":"Schladen-Werla","municipality":{"key":"03158039","name":"Schladen-Werla","type":"Kreisangehörige_Gemeinde"},"district":{"key":"03158","name":"Wolfenbüttel","type":"Landkreis"},"federalState":{"key":"03","name":"Niedersachsen"}},{"name":"Hagenstr.","postalCode":"38315","locality":"Schladen-Werla","municipality":{"key":"03158039","name":"Schladen-Werla","type":"Kreisangehörige_Gemeinde"},"district":{"key":"03158","name":"Wolfenbüttel","type":"Landkreis"},"federalState":{"key":"03","name":"Niedersachsen"}},{"name":"Harlyweg","postalCode":"38315","locality":"Schladen-Werla","municipality":{"key":"03158039","name":"Schladen-Werla","type":"Kreisangehörige_Gemeinde"},"district":{"key":"03158","name":"Wolfenbüttel","type":"Landkreis"},"federalState":{"key":"03","name":"Niedersachsen"}},{"name":"Harzblick","postalCode":"38315","locality":"Schladen-Werla","municipality":{"key":"03158039","name":"Schladen-Werla","type":"Kreisangehörige_Gemeinde"},"district":{"key":"03158","name":"Wolfenbüttel","type":"Landkreis"},"federalState":{"key":"03","name":"Niedersachsen"}},{"name":"Harzburger Str.","postalCode":"38315","locality":"Schladen-Werla","municipality":{"key":"03158039","name":"Schladen-Werla","type":"Kreisangehörige_Gemeinde"},"district":{"key":"03158","name":"Wolfenbüttel","type":"Landkreis"},"federalState":{"key":"03","name":"Niedersachsen"}},{"name":"Harzstr.","postalCode":"38315","locality":"Schladen-Werla","municipality":{"key":"03158039","name":"Schladen-Werla","type":"Kreisangehörige_Gemeinde"},"district":{"key":"03158","name":"Wolfenbüttel","type":"Landkreis"},"federalState":{"key":"03","name":"Niedersachsen"}},{"name":"Hasenspring","postalCode":"38315","locality":"Schladen-Werla","municipality":{"key":"03158039","name":"Schladen-Werla","type":"Kreisangehörige_Gemeinde"},"district":{"key":"03158","name":"Wolfenbüttel","type":"Landkreis"},"federalState":{"key":"03","name":"Niedersachsen"}},{"name":"Hasenwinkelgrund","postalCode":"38315","locality":"Schladen-Werla","municipality":{"key":"03158039","name":"Schladen-Werla","type":"Kreisangehörige_Gemeinde"},"district":{"key":"03158","name":"Wolfenbüttel","type":"Landkreis"},"federalState":{"key":"03","name":"Niedersachsen"}},{"name":"Hauptstr.","postalCode":"38315","locality":"Schladen-Werla","municipality":{"key":"03158039","name":"Schladen-Werla","type":"Kreisangehörige_Gemeinde"},"district":{"key":"03158","name":"Wolfenbüttel","type":"Landkreis"},"federalState":{"key":"03","name":"Niedersachsen"}},{"name":"Heerberg","postalCode":"38315","locality":"Schladen-Werla","municipality":{"key":"03158039","name":"Schladen-Werla","type":"Kreisangehörige_Gemeinde"},"district":{"key":"03158","name":"Wolfenbüttel","type":"Landkreis"},"federalState":{"key":"03","name":"Niedersachsen"}},{"name":"Heininger Weg","postalCode":"38315","locality":"Schladen-Werla","municipality":{"key":"03158039","name":"Schladen-Werla","type":"Kreisangehörige_Gemeinde"},"district":{"key":"03158","name":"Wolfenbüttel","type":"Landkreis"},"federalState":{"key":"03","name":"Niedersachsen"}},{"name":"Heinrich-Bäthmann-Str.","postalCode":"38315","locality":"Schladen-Werla","municipality":{"key":"03158039","name":"Schladen-Werla","type":"Kreisangehörige_Gemeinde"},"district":{"key":"03158","name":"Wolfenbüttel","type":"Landkreis"},"federalState":{"key":"03","name":"Niedersachsen"}},{"name":"Hermann-Löns-Str.","postalCode":"38315","locality":"Schladen-Werla","municipality":{"key":"03158039","name":"Schladen-Werla","type":"Kreisangehörige_Gemeinde"},"district":{"key":"03158","name":"Wolfenbüttel","type":"Landkreis"},"federalState":{"key":"03","name":"Niedersachsen"}},{"name":"Hermann-Müller-Str.","postalCode":"38315","locality":"Schladen-Werla","municipality":{"key":"03158039","name":"Schladen-Werla","type":"Kreisangehörige_Gemeinde"},"district":{"key":"03158","name":"Wolfenbüttel","type":"Landkreis"},"federalState":{"key":"03","name":"Niedersachsen"}},{"name":"Hertelweg","postalCode":"38315","locality":"Schladen-Werla","municipality":{"key":"03158039","name":"Schladen-Werla","type":"Kreisangehörige_Gemeinde"},"district":{"key":"03158","name":"Wolfenbüttel","type":"Landkreis"},"federalState":{"key":"03","name":"Niedersachsen"}},{"name":"Hildesheimer Str.","postalCode":"38315","locality":"Schladen-Werla","municipality":{"key":"03158039","name":"Schladen-Werla","type":"Kreisangehörige_Gemeinde"},"district":{"key":"03158","name":"Wolfenbüttel","type":"Landkreis"},"federalState":{"key":"03","name":"Niedersachsen"}},{"name":"Hinter dem Hagenberg","postalCode":"38315","locality":"Schladen-Werla","municipality":{"key":"03158039","name":"Schladen-Werla","type":"Kreisangehörige_Gemeinde"},"district":{"key":"03158","name":"Wolfenbüttel","type":"Landkreis"},"federalState":{"key":"03","name":"Niedersachsen"}},{"name":"Hinter dem Krühgarten","postalCode":"38315","locality":"Schladen-Werla","municipality":{"key":"03158039","name":"Schladen-Werla","type":"Kreisangehörige_Gemeinde"},"district":{"key":"03158","name":"Wolfenbüttel","type":"Landkreis"},"federalState":{"key":"03","name":"Niedersachsen"}},{"name":"Hinter dem Sportplatz","postalCode":"38315","locality":"Schladen-Werla","municipality":{"key":"03158039","name":"Schladen-Werla","type":"Kreisangehörige_Gemeinde"},"district":{"key":"03158","name":"Wolfenbüttel","type":"Landkreis"},"federalState":{"key":"03","name":"Niedersachsen"}},{"name":"Hinter der Mariengasse","postalCode":"38315","locality":"Schladen-Werla","municipality":{"key":"03158039","name":"Schladen-Werla","type":"Kreisangehörige_Gemeinde"},"district":{"key":"03158","name":"Wolfenbüttel","type":"Landkreis"},"federalState":{"key":"03","name":"Niedersachsen"}},{"name":"Hinter der Schmiede","postalCode":"38315","locality":"Schladen-Werla","municipality":{"key":"03158039","name":"Schladen-Werla","type":"Kreisangehörige_Gemeinde"},"district":{"key":"03158","name":"Wolfenbüttel","type":"Landkreis"},"federalState":{"key":"03","name":"Niedersachsen"}},{"name":"Hohlweg","postalCode":"38315","locality":"Schladen-Werla","municipality":{"key":"03158039","name":"Schladen-Werla","type":"Kreisangehörige_Gemeinde"},"district":{"key":"03158","name":"Wolfenbüttel","type":"Landkreis"},"federalState":{"key":"03","name":"Niedersachsen"}},{"name":"Hopfengarten","postalCode":"38315","locality":"Schladen-Werla","municipality":{"key":"03158039","name":"Schladen-Werla","type":"Kreisangehörige_Gemeinde"},"district":{"key":"03158","name":"Wolfenbüttel","type":"Landkreis"},"federalState":{"key":"03","name":"Niedersachsen"}},{"name":"Hopfengasse","postalCode":"38315","locality":"Schladen-Werla","municipality":{"key":"03158039","name":"Schladen-Werla","type":"Kreisangehörige_Gemeinde"},"district":{"key":"03158","name":"Wolfenbüttel","type":"Landkreis"},"federalState":{"key":"03","name":"Niedersachsen"}},{"name":"Hopfenstr.","postalCode":"38315","locality":"Schladen-Werla","municipality":{"key":"03158039","name":"Schladen-Werla","type":"Kreisangehörige_Gemeinde"},"district":{"key":"03158","name":"Wolfenbüttel","type":"Landkreis"},"federalState":{"key":"03","name":"Niedersachsen"}},{"name":"Hopfenweg","postalCode":"38315","locality":"Schladen-Werla","municipality":{"key":"03158039","name":"Schladen-Werla","type":"Kreisangehörige_Gemeinde"},"district":{"key":"03158","name":"Wolfenbüttel","type":"Landkreis"},"federalState":{"key":"03","name":"Niedersachsen"}},{"name":"Hortensienweg","postalCode":"38315","locality":"Schladen-Werla","municipality":{"key":"03158039","name":"Schladen-Werla","type":"Kreisangehörige_Gemeinde"},"district":{"key":"03158","name":"Wolfenbüttel","type":"Landkreis"},"federalState":{"key":"03","name":"Niedersachsen"}},{"name":"Igelskamp","postalCode":"38315","locality":"Schladen-Werla","municipality":{"key":"03158039","name":"Schladen-Werla","type":"Kreisangehörige_Gemeinde"},"district":{"key":"03158","name":"Wolfenbüttel","type":"Landkreis"},"federalState":{"key":"03","name":"Niedersachsen"}},{"name":"Im Alten Winkel","postalCode":"38315","locality":"Schladen-Werla","municipality":{"key":"03158039","name":"Schladen-Werla","type":"Kreisangehörige_Gemeinde"},"district":{"key":"03158","name":"Wolfenbüttel","type":"Landkreis"},"federalState":{"key":"03","name":"Niedersachsen"}},{"name":"Im Funkenkamp","postalCode":"38315","locality":"Schladen-Werla","municipality":{"key":"03158039","name":"Schladen-Werla","type":"Kreisangehörige_Gemeinde"},"district":{"key":"03158","name":"Wolfenbüttel","type":"Landkreis"},"federalState":{"key":"03","name":"Niedersachsen"}},{"name":"Im Gehrk","postalCode":"38315","locality":"Schladen-Werla","municipality":{"key":"03158039","name":"Schladen-Werla","type":"Kreisangehörige_Gemeinde"},"district":{"key":"03158","name":"Wolfenbüttel","type":"Landkreis"},"federalState":{"key":"03","name":"Niedersachsen"}},{"name":"Im Gewerbegebiet","postalCode":"38315","locality":"Schladen-Werla","municipality":{"key":"03158039","name":"Schladen-Werla","type":"Kreisangehörige_Gemeinde"},"district":{"key":"03158","name":"Wolfenbüttel","type":"Landkreis"},"federalState":{"key":"03","name":"Niedersachsen"}},{"name":"Im Hammelkring","postalCode":"38315","locality":"Schladen-Werla","municipality":{"key":"03158039","name":"Schladen-Werla","type":"Kreisangehörige_Gemeinde"},"district":{"key":"03158","name":"Wolfenbüttel","type":"Landkreis"},"federalState":{"key":"03","name":"Niedersachsen"}},{"name":"Im Krähenfelde","postalCode":"38315","locality":"Schladen-Werla","municipality":{"key":"03158039","name":"Schladen-Werla","type":"Kreisangehörige_Gemeinde"},"district":{"key":"03158","name":"Wolfenbüttel","type":"Landkreis"},"federalState":{"key":"03","name":"Niedersachsen"}},{"name":"Im Winkel","postalCode":"38315","locality":"Schladen-Werla","municipality":{"key":"03158039","name":"Schladen-Werla","type":"Kreisangehörige_Gemeinde"},"district":{"key":"03158","name":"Wolfenbüttel","type":"Landkreis"},"federalState":{"key":"03","name":"Niedersachsen"}},{"name":"In der Siedlung","postalCode":"38315","locality":"Schladen-Werla","municipality":{"key":"03158039","name":"Schladen-Werla","type":"Kreisangehörige_Gemeinde"},"district":{"key":"03158","name":"Wolfenbüttel","type":"Landkreis"},"federalState":{"key":"03","name":"Niedersachsen"}},{"name":"Inselweg","postalCode":"38315","locality":"Schladen-Werla","municipality":{"key":"03158039","name":"Schladen-Werla","type":"Kreisangehörige_Gemeinde"},"district":{"key":"03158","name":"Wolfenbüttel","type":"Landkreis"},"federalState":{"key":"03","name":"Niedersachsen"}},{"name":"Isingeröder Str.","postalCode":"38315","locality":"Schladen-Werla","municipality":{"key":"03158039","name":"Schladen-Werla","type":"Kreisangehörige_Gemeinde"},"district":{"key":"03158","name":"Wolfenbüttel","type":"Landkreis"},"federalState":{"key":"03","name":"Niedersachsen"}},{"name":"Jahnstr.","postalCode":"38315","locality":"Schladen-Werla","municipality":{"key":"03158039","name":"Schladen-Werla","type":"Kreisangehörige_Gemeinde"},"district":{"key":"03158","name":"Wolfenbüttel","type":"Landkreis"},"federalState":{"key":"03","name":"Niedersachsen"}},{"name":"Judengasse","postalCode":"38315","locality":"Schladen-Werla","municipality":{"key":"03158039","name":"Schladen-Werla","type":"Kreisangehörige_Gemeinde"},"district":{"key":"03158","name":"Wolfenbüttel","type":"Landkreis"},"federalState":{"key":"03","name":"Niedersachsen"}},{"name":"Kampwiesenweg","postalCode":"38315","locality":"Schladen-Werla","municipality":{"key":"03158039","name":"Schladen-Werla","type":"Kreisangehörige_Gemeinde"},"district":{"key":"03158","name":"Wolfenbüttel","type":"Landkreis"},"federalState":{"key":"03","name":"Niedersachsen"}},{"name":"Kapellenweg","postalCode":"38315","locality":"Schladen-Werla","municipality":{"key":"03158039","name":"Schladen-Werla","type":"Kreisangehörige_Gemeinde"},"district":{"key":"03158","name":"Wolfenbüttel","type":"Landkreis"},"federalState":{"key":"03","name":"Niedersachsen"}},{"name":"Kirchplatz","postalCode":"38315","locality":"Schladen-Werla","municipality":{"key":"03158039","name":"Schladen-Werla","type":"Kreisangehörige_Gemeinde"},"district":{"key":"03158","name":"Wolfenbüttel","type":"Landkreis"},"federalState":{"key":"03","name":"Niedersachsen"}},{"name":"Kirchstr.","postalCode":"38315","locality":"Schladen-Werla","municipality":{"key":"03158039","name":"Schladen-Werla","type":"Kreisangehörige_Gemeinde"},"district":{"key":"03158","name":"Wolfenbüttel","type":"Landkreis"},"federalState":{"key":"03","name":"Niedersachsen"}},{"name":"Klausenstr.","postalCode":"38315","locality":"Schladen-Werla","municipality":{"key":"03158039","name":"Schladen-Werla","type":"Kreisangehörige_Gemeinde"},"district":{"key":"03158","name":"Wolfenbüttel","type":"Landkreis"},"federalState":{"key":"03","name":"Niedersachsen"}},{"name":"Klausenweg","postalCode":"38315","locality":"Schladen-Werla","municipality":{"key":"03158039","name":"Schladen-Werla","type":"Kreisangehörige_Gemeinde"},"district":{"key":"03158","name":"Wolfenbüttel","type":"Landkreis"},"federalState":{"key":"03","name":"Niedersachsen"}},{"name":"Klinkberg","postalCode":"38315","locality":"Schladen-Werla","municipality":{"key":"03158039","name":"Schladen-Werla","type":"Kreisangehörige_Gemeinde"},"district":{"key":"03158","name":"Wolfenbüttel","type":"Landkreis"},"federalState":{"key":"03","name":"Niedersachsen"}},{"name":"Knick","postalCode":"38315","locality":"Schladen-Werla","municipality":{"key":"03158039","name":"Schladen-Werla","type":"Kreisangehörige_Gemeinde"},"district":{"key":"03158","name":"Wolfenbüttel","type":"Landkreis"},"federalState":{"key":"03","name":"Niedersachsen"}},{"name":"Königsberger Str.","postalCode":"38315","locality":"Schladen-Werla","municipality":{"key":"03158039","name":"Schladen-Werla","type":"Kreisangehörige_Gemeinde"},"district":{"key":"03158","name":"Wolfenbüttel","type":"Landkreis"},"federalState":{"key":"03","name":"Niedersachsen"}},{"name":"Krugstr.","postalCode":"38315","locality":"Schladen-Werla","municipality":{"key":"03158039","name":"Schladen-Werla","type":"Kreisangehörige_Gemeinde"},"district":{"key":"03158","name":"Wolfenbüttel","type":"Landkreis"},"federalState":{"key":"03","name":"Niedersachsen"}},{"name":"Krumme Str.","postalCode":"38315","locality":"Schladen-Werla","municipality":{"key":"03158039","name":"Schladen-Werla","type":"Kreisangehörige_Gemeinde"},"district":{"key":"03158","name":"Wolfenbüttel","type":"Landkreis"},"federalState":{"key":"03","name":"Niedersachsen"}},{"name":"Kurt-Sattler-Str.","postalCode":"38315","locality":"Schladen-Werla","municipality":{"key":"03158039","name":"Schladen-Werla","type":"Kreisangehörige_Gemeinde"},"district":{"key":"03158","name":"Wolfenbüttel","type":"Landkreis"},"federalState":{"key":"03","name":"Niedersachsen"}},{"name":"Lahberg","postalCode":"38315","locality":"Schladen-Werla","municipality":{"key":"03158039","name":"Schladen-Werla","type":"Kreisangehörige_Gemeinde"},"district":{"key":"03158","name":"Wolfenbüttel","type":"Landkreis"},"federalState":{"key":"03","name":"Niedersachsen"}},{"name":"Lehmkuhle","postalCode":"38315","locality":"Schladen-Werla","municipality":{"key":"03158039","name":"Schladen-Werla","type":"Kreisangehörige_Gemeinde"},"district":{"key":"03158","name":"Wolfenbüttel","type":"Landkreis"},"federalState":{"key":"03","name":"Niedersachsen"}},{"name":"Lengder Str.","postalCode":"38315","locality":"Schladen-Werla","municipality":{"key":"03158039","name":"Schladen-Werla","type":"Kreisangehörige_Gemeinde"},"district":{"key":"03158","name":"Wolfenbüttel","type":"Landkreis"},"federalState":{"key":"03","name":"Niedersachsen"}},{"name":"Leo-von-Klenze-Str.","postalCode":"38315","locality":"Schladen-Werla","municipality":{"key":"03158039","name":"Schladen-Werla","type":"Kreisangehörige_Gemeinde"},"district":{"key":"03158","name":"Wolfenbüttel","type":"Landkreis"},"federalState":{"key":"03","name":"Niedersachsen"}},{"name":"Lilienweg","postalCode":"38315","locality":"Schladen-Werla","municipality":{"key":"03158039","name":"Schladen-Werla","type":"Kreisangehörige_Gemeinde"},"district":{"key":"03158","name":"Wolfenbüttel","type":"Landkreis"},"federalState":{"key":"03","name":"Niedersachsen"}},{"name":"Lindendamm","postalCode":"38315","locality":"Schladen-Werla","municipality":{"key":"03158039","name":"Schladen-Werla","type":"Kreisangehörige_Gemeinde"},"district":{"key":"03158","name":"Wolfenbüttel","type":"Landkreis"},"federalState":{"key":"03","name":"Niedersachsen"}},{"name":"Loeperweg","postalCode":"38315","locality":"Schladen-Werla","municipality":{"key":"03158039","name":"Schladen-Werla","type":"Kreisangehörige_Gemeinde"},"district":{"key":"03158","name":"Wolfenbüttel","type":"Landkreis"},"federalState":{"key":"03","name":"Niedersachsen"}},{"name":"Lüderoder Str.","postalCode":"38315","locality":"Schladen-Werla","municipality":{"key":"03158039","name":"Schladen-Werla","type":"Kreisangehörige_Gemeinde"},"district":{"key":"03158","name":"Wolfenbüttel","type":"Landkreis"},"federalState":{"key":"03","name":"Niedersachsen"}},{"name":"Lüderoder Weg","postalCode":"38315","locality":"Schladen-Werla","municipality":{"key":"03158039","name":"Schladen-Werla","type":"Kreisangehörige_Gemeinde"},"district":{"key":"03158","name":"Wolfenbüttel","type":"Landkreis"},"federalState":{"key":"03","name":"Niedersachsen"}},{"name":"Malerwinkel","postalCode":"38315","locality":"Schladen-Werla","municipality":{"key":"03158039","name":"Schladen-Werla","type":"Kreisangehörige_Gemeinde"},"district":{"key":"03158","name":"Wolfenbüttel","type":"Landkreis"},"federalState":{"key":"03","name":"Niedersachsen"}},{"name":"Mariengasse","postalCode":"38315","locality":"Schladen-Werla","municipality":{"key":"03158039","name":"Schladen-Werla","type":"Kreisangehörige_Gemeinde"},"district":{"key":"03158","name":"Wolfenbüttel","type":"Landkreis"},"federalState":{"key":"03","name":"Niedersachsen"}},{"name":"Markt","postalCode":"38315","locality":"Schladen-Werla","municipality":{"key":"03158039","name":"Schladen-Werla","type":"Kreisangehörige_Gemeinde"},"district":{"key":"03158","name":"Wolfenbüttel","type":"Landkreis"},"federalState":{"key":"03","name":"Niedersachsen"}},{"name":"Marktstr.","postalCode":"38315","locality":"Schladen-Werla","municipality":{"key":"03158039","name":"Schladen-Werla","type":"Kreisangehörige_Gemeinde"},"district":{"key":"03158","name":"Wolfenbüttel","type":"Landkreis"},"federalState":{"key":"03","name":"Niedersachsen"}},{"name":"Marktteichweg","postalCode":"38315","locality":"Schladen-Werla","municipality":{"key":"03158039","name":"Schladen-Werla","type":"Kreisangehörige_Gemeinde"},"district":{"key":"03158","name":"Wolfenbüttel","type":"Landkreis"},"federalState":{"key":"03","name":"Niedersachsen"}},{"name":"Martin-Luther-Str.","postalCode":"38315","locality":"Schladen-Werla","municipality":{"key":"03158039","name":"Schladen-Werla","type":"Kreisangehörige_Gemeinde"},"district":{"key":"03158","name":"Wolfenbüttel","type":"Landkreis"},"federalState":{"key":"03","name":"Niedersachsen"}},{"name":"Meesche","postalCode":"38315","locality":"Schladen-Werla","municipality":{"key":"03158039","name":"Schladen-Werla","type":"Kreisangehörige_Gemeinde"},"district":{"key":"03158","name":"Wolfenbüttel","type":"Landkreis"},"federalState":{"key":"03","name":"Niedersachsen"}},{"name":"Meeschesteg","postalCode":"38315","locality":"Schladen-Werla","municipality":{"key":"03158039","name":"Schladen-Werla","type":"Kreisangehörige_Gemeinde"},"district":{"key":"03158","name":"Wolfenbüttel","type":"Landkreis"},"federalState":{"key":"03","name":"Niedersachsen"}},{"name":"M.-Luther-Weg","postalCode":"38315","locality":"Schladen-Werla","municipality":{"key":"03158039","name":"Schladen-Werla","type":"Kreisangehörige_Gemeinde"},"district":{"key":"03158","name":"Wolfenbüttel","type":"Landkreis"},"federalState":{"key":"03","name":"Niedersachsen"}},{"name":"Montelabbateplatz","postalCode":"38315","locality":"Schladen-Werla","municipality":{"key":"03158039","name":"Schladen-Werla","type":"Kreisangehörige_Gemeinde"},"district":{"key":"03158","name":"Wolfenbüttel","type":"Landkreis"},"federalState":{"key":"03","name":"Niedersachsen"}},{"name":"Mühlenstr.","postalCode":"38315","locality":"Schladen-Werla","municipality":{"key":"03158039","name":"Schladen-Werla","type":"Kreisangehörige_Gemeinde"},"district":{"key":"03158","name":"Wolfenbüttel","type":"Landkreis"},"federalState":{"key":"03","name":"Niedersachsen"}},{"name":"Mühlenweg","postalCode":"38315","locality":"Schladen-Werla","municipality":{"key":"03158039","name":"Schladen-Werla","type":"Kreisangehörige_Gemeinde"},"district":{"key":"03158","name":"Wolfenbüttel","type":"Landkreis"},"federalState":{"key":"03","name":"Niedersachsen"}},{"name":"Mühlenwiese","postalCode":"38315","locality":"Schladen-Werla","municipality":{"key":"03158039","name":"Schladen-Werla","type":"Kreisangehörige_Gemeinde"},"district":{"key":"03158","name":"Wolfenbüttel","type":"Landkreis"},"federalState":{"key":"03","name":"Niedersachsen"}},{"name":"Narzissenweg","postalCode":"38315","locality":"Schladen-Werla","municipality":{"key":"03158039","name":"Schladen-Werla","type":"Kreisangehörige_Gemeinde"},"district":{"key":"03158","name":"Wolfenbüttel","type":"Landkreis"},"federalState":{"key":"03","name":"Niedersachsen"}},{"name":"Nelkenweg","postalCode":"38315","locality":"Schladen-Werla","municipality":{"key":"03158039","name":"Schladen-Werla","type":"Kreisangehörige_Gemeinde"},"district":{"key":"03158","name":"Wolfenbüttel","type":"Landkreis"},"federalState":{"key":"03","name":"Niedersachsen"}},{"name":"Neue Dorfstr.","postalCode":"38315","locality":"Schladen-Werla","municipality":{"key":"03158039","name":"Schladen-Werla","type":"Kreisangehörige_Gemeinde"},"district":{"key":"03158","name":"Wolfenbüttel","type":"Landkreis"},"federalState":{"key":"03","name":"Niedersachsen"}},{"name":"Neuenkirchener Weg","postalCode":"38315","locality":"Schladen-Werla","municipality":{"key":"03158039","name":"Schladen-Werla","type":"Kreisangehörige_Gemeinde"},"district":{"key":"03158","name":"Wolfenbüttel","type":"Landkreis"},"federalState":{"key":"03","name":"Niedersachsen"}},{"name":"Neue Reihe","postalCode":"38315","locality":"Schladen-Werla","municipality":{"key":"03158039","name":"Schladen-Werla","type":"Kreisangehörige_Gemeinde"},"district":{"key":"03158","name":"Wolfenbüttel","type":"Landkreis"},"federalState":{"key":"03","name":"Niedersachsen"}},{"name":"Neue Str.","postalCode":"38315","locality":"Schladen-Werla","municipality":{"key":"03158039","name":"Schladen-Werla","type":"Kreisangehörige_Gemeinde"},"district":{"key":"03158","name":"Wolfenbüttel","type":"Landkreis"},"federalState":{"key":"03","name":"Niedersachsen"}},{"name":"Neue Wiese","postalCode":"38315","locality":"Schladen-Werla","municipality":{"key":"03158039","name":"Schladen-Werla","type":"Kreisangehörige_Gemeinde"},"district":{"key":"03158","name":"Wolfenbüttel","type":"Landkreis"},"federalState":{"key":"03","name":"Niedersachsen"}},{"name":"Obere Landwehr","postalCode":"38315","locality":"Schladen-Werla","municipality":{"key":"03158039","name":"Schladen-Werla","type":"Kreisangehörige_Gemeinde"},"district":{"key":"03158","name":"Wolfenbüttel","type":"Landkreis"},"federalState":{"key":"03","name":"Niedersachsen"}},{"name":"Oberer Meerbergsweg","postalCode":"38315","locality":"Schladen-Werla","municipality":{"key":"03158039","name":"Schladen-Werla","type":"Kreisangehörige_Gemeinde"},"district":{"key":"03158","name":"Wolfenbüttel","type":"Landkreis"},"federalState":{"key":"03","name":"Niedersachsen"}},{"name":"Okerfurt","postalCode":"38315","locality":"Schladen-Werla","municipality":{"key":"03158039","name":"Schladen-Werla","type":"Kreisangehörige_Gemeinde"},"district":{"key":"03158","name":"Wolfenbüttel","type":"Landkreis"},"federalState":{"key":"03","name":"Niedersachsen"}},{"name":"Okerstr.","postalCode":"38315","locality":"Schladen-Werla","municipality":{"key":"03158039","name":"Schladen-Werla","type":"Kreisangehörige_Gemeinde"},"district":{"key":"03158","name":"Wolfenbüttel","type":"Landkreis"},"federalState":{"key":"03","name":"Niedersachsen"}},{"name":"Osterwiecker Str.","postalCode":"38315","locality":"Schladen-Werla","municipality":{"key":"03158039","name":"Schladen-Werla","type":"Kreisangehörige_Gemeinde"},"district":{"key":"03158","name":"Wolfenbüttel","type":"Landkreis"},"federalState":{"key":"03","name":"Niedersachsen"}},{"name":"Ostlandstr.","postalCode":"38315","locality":"Schladen-Werla","municipality":{"key":"03158039","name":"Schladen-Werla","type":"Kreisangehörige_Gemeinde"},"district":{"key":"03158","name":"Wolfenbüttel","type":"Landkreis"},"federalState":{"key":"03","name":"Niedersachsen"}},{"name":"Oststr.","postalCode":"38315","locality":"Schladen-Werla","municipality":{"key":"03158039","name":"Schladen-Werla","type":"Kreisangehörige_Gemeinde"},"district":{"key":"03158","name":"Wolfenbüttel","type":"Landkreis"},"federalState":{"key":"03","name":"Niedersachsen"}},{"name":"Parkstr.","postalCode":"38315","locality":"Schladen-Werla","municipality":{"key":"03158039","name":"Schladen-Werla","type":"Kreisangehörige_Gemeinde"},"district":{"key":"03158","name":"Wolfenbüttel","type":"Landkreis"},"federalState":{"key":"03","name":"Niedersachsen"}},{"name":"Pastor-Beckmann-Weg","postalCode":"38315","locality":"Schladen-Werla","municipality":{"key":"03158039","name":"Schladen-Werla","type":"Kreisangehörige_Gemeinde"},"district":{"key":"03158","name":"Wolfenbüttel","type":"Landkreis"},"federalState":{"key":"03","name":"Niedersachsen"}},{"name":"Pastorenwiesenweg","postalCode":"38315","locality":"Schladen-Werla","municipality":{"key":"03158039","name":"Schladen-Werla","type":"Kreisangehörige_Gemeinde"},"district":{"key":"03158","name":"Wolfenbüttel","type":"Landkreis"},"federalState":{"key":"03","name":"Niedersachsen"}},{"name":"Pfarrgasse","postalCode":"38315","locality":"Schladen-Werla","municipality":{"key":"03158039","name":"Schladen-Werla","type":"Kreisangehörige_Gemeinde"},"district":{"key":"03158","name":"Wolfenbüttel","type":"Landkreis"},"federalState":{"key":"03","name":"Niedersachsen"}},{"name":"Pfarrhofsgasse","postalCode":"38315","locality":"Schladen-Werla","municipality":{"key":"03158039","name":"Schladen-Werla","type":"Kreisangehörige_Gemeinde"},"district":{"key":"03158","name":"Wolfenbüttel","type":"Landkreis"},"federalState":{"key":"03","name":"Niedersachsen"}},{"name":"Pfarrhofstr.","postalCode":"38315","locality":"Schladen-Werla","municipality":{"key":"03158039","name":"Schladen-Werla","type":"Kreisangehörige_Gemeinde"},"district":{"key":"03158","name":"Wolfenbüttel","type":"Landkreis"},"federalState":{"key":"03","name":"Niedersachsen"}},{"name":"Pfarrhofswinkel","postalCode":"38315","locality":"Schladen-Werla","municipality":{"key":"03158039","name":"Schladen-Werla","type":"Kreisangehörige_Gemeinde"},"district":{"key":"03158","name":"Wolfenbüttel","type":"Landkreis"},"federalState":{"key":"03","name":"Niedersachsen"}},{"name":"Quellenweg","postalCode":"38302","locality":"Wolfenbüttel","municipality":{"key":"03158037","name":"Wolfenbüttel, Stadt","type":"Stadt"},"district":{"key":"03158","name":"Wolfenbüttel","type":"Landkreis"},"federalState":{"key":"03","name":"Niedersachsen"}},{"name":"Rhodener Str.","postalCode":"38315","locality":"Schladen-Werla","municipality":{"key":"03158039","name":"Schladen-Werla","type":"Kreisangehörige_Gemeinde"},"district":{"key":"03158","name":"Wolfenbüttel","type":"Landkreis"},"federalState":{"key":"03","name":"Niedersachsen"}},{"name":"Riekehof","postalCode":"38315","locality":"Schladen-Werla","municipality":{"key":"03158039","name":"Schladen-Werla","type":"Kreisangehörige_Gemeinde"},"district":{"key":"03158","name":"Wolfenbüttel","type":"Landkreis"},"federalState":{"key":"03","name":"Niedersachsen"}},{"name":"Rimbecker Str.","postalCode":"38315","locality":"Schladen-Werla","municipality":{"key":"03158039","name":"Schladen-Werla","type":"Kreisangehörige_Gemeinde"},"district":{"key":"03158","name":"Wolfenbüttel","type":"Landkreis"},"federalState":{"key":"03","name":"Niedersachsen"}},{"name":"Rittergut Altenrode","postalCode":"38315","locality":"Schladen-Werla","municipality":{"key":"03158039","name":"Schladen-Werla","type":"Kreisangehörige_Gemeinde"},"district":{"key":"03158","name":"Wolfenbüttel","type":"Landkreis"},"federalState":{"key":"03","name":"Niedersachsen"}},{"name":"Rosenweg","postalCode":"38315","locality":"Schladen-Werla","municipality":{"key":"03158039","name":"Schladen-Werla","type":"Kreisangehörige_Gemeinde"},"district":{"key":"03158","name":"Wolfenbüttel","type":"Landkreis"},"federalState":{"key":"03","name":"Niedersachsen"}},{"name":"Rottestr.","postalCode":"38315","locality":"Schladen-Werla","municipality":{"key":"03158039","name":"Schladen-Werla","type":"Kreisangehörige_Gemeinde"},"district":{"key":"03158","name":"Wolfenbüttel","type":"Landkreis"},"federalState":{"key":"03","name":"Niedersachsen"}},{"name":"Sackstr.","postalCode":"38315","locality":"Schladen-Werla","municipality":{"key":"03158039","name":"Schladen-Werla","type":"Kreisangehörige_Gemeinde"},"district":{"key":"03158","name":"Wolfenbüttel","type":"Landkreis"},"federalState":{"key":"03","name":"Niedersachsen"}},{"name":"Schäferkamp","postalCode":"38315","locality":"Schladen-Werla","municipality":{"key":"03158039","name":"Schladen-Werla","type":"Kreisangehörige_Gemeinde"},"district":{"key":"03158","name":"Wolfenbüttel","type":"Landkreis"},"federalState":{"key":"03","name":"Niedersachsen"}},{"name":"Schierksmühlenweg","postalCode":"38315","locality":"Schladen-Werla","municipality":{"key":"03158039","name":"Schladen-Werla","type":"Kreisangehörige_Gemeinde"},"district":{"key":"03158","name":"Wolfenbüttel","type":"Landkreis"},"federalState":{"key":"03","name":"Niedersachsen"}},{"name":"Schladener Str.","postalCode":"38315","locality":"Schladen-Werla","municipality":{"key":"03158039","name":"Schladen-Werla","type":"Kreisangehörige_Gemeinde"},"district":{"key":"03158","name":"Wolfenbüttel","type":"Landkreis"},"federalState":{"key":"03","name":"Niedersachsen"}},{"name":"Schladener Weg","postalCode":"38315","locality":"Schladen-Werla","municipality":{"key":"03158039","name":"Schladen-Werla","type":"Kreisangehörige_Gemeinde"},"district":{"key":"03158","name":"Wolfenbüttel","type":"Landkreis"},"federalState":{"key":"03","name":"Niedersachsen"}},{"name":"Schlesierweg","postalCode":"38315","locality":"Schladen-Werla","municipality":{"key":"03158039","name":"Schladen-Werla","type":"Kreisangehörige_Gemeinde"},"district":{"key":"03158","name":"Wolfenbüttel","type":"Landkreis"},"federalState":{"key":"03","name":"Niedersachsen"}},{"name":"Schloßbergstr.","postalCode":"38315","locality":"Schladen-Werla","municipality":{"key":"03158039","name":"Schladen-Werla","type":"Kreisangehörige_Gemeinde"},"district":{"key":"03158","name":"Wolfenbüttel","type":"Landkreis"},"federalState":{"key":"03","name":"Niedersachsen"}},{"name":"Schmiedestr.","postalCode":"38315","locality":"Schladen-Werla","municipality":{"key":"03158039","name":"Schladen-Werla","type":"Kreisangehörige_Gemeinde"},"district":{"key":"03158","name":"Wolfenbüttel","type":"Landkreis"},"federalState":{"key":"03","name":"Niedersachsen"}},{"name":"Schulstr.","postalCode":"38315","locality":"Schladen-Werla","municipality":{"key":"03158039","name":"Schladen-Werla","type":"Kreisangehörige_Gemeinde"},"district":{"key":"03158","name":"Wolfenbüttel","type":"Landkreis"},"federalState":{"key":"03","name":"Niedersachsen"}},{"name":"Schützenallee","postalCode":"38315","locality":"Schladen-Werla","municipality":{"key":"03158039","name":"Schladen-Werla","type":"Kreisangehörige_Gemeinde"},"district":{"key":"03158","name":"Wolfenbüttel","type":"Landkreis"},"federalState":{"key":"03","name":"Niedersachsen"}},{"name":"Schützenplatz","postalCode":"38315","locality":"Schladen-Werla","municipality":{"key":"03158039","name":"Schladen-Werla","type":"Kreisangehörige_Gemeinde"},"district":{"key":"03158","name":"Wolfenbüttel","type":"Landkreis"},"federalState":{"key":"03","name":"Niedersachsen"}},{"name":"Sellhof","postalCode":"38315","locality":"Schladen-Werla","municipality":{"key":"03158039","name":"Schladen-Werla","type":"Kreisangehörige_Gemeinde"},"district":{"key":"03158","name":"Wolfenbüttel","type":"Landkreis"},"federalState":{"key":"03","name":"Niedersachsen"}},{"name":"Siedlerstr.","postalCode":"38315","locality":"Schladen-Werla","municipality":{"key":"03158039","name":"Schladen-Werla","type":"Kreisangehörige_Gemeinde"},"district":{"key":"03158","name":"Wolfenbüttel","type":"Landkreis"},"federalState":{"key":"03","name":"Niedersachsen"}},{"name":"Steinfelder Mühle","postalCode":"38315","locality":"Schladen-Werla","municipality":{"key":"03158039","name":"Schladen-Werla","type":"Kreisangehörige_Gemeinde"},"district":{"key":"03158","name":"Wolfenbüttel","type":"Landkreis"},"federalState":{"key":"03","name":"Niedersachsen"}},{"name":"Steinfelder Zolln","postalCode":"38315","locality":"Schladen-Werla","municipality":{"key":"03158039","name":"Schladen-Werla","type":"Kreisangehörige_Gemeinde"},"district":{"key":"03158","name":"Wolfenbüttel","type":"Landkreis"},"federalState":{"key":"03","name":"Niedersachsen"}},{"name":"Steinweg","postalCode":"38315","locality":"Schladen-Werla","municipality":{"key":"03158039","name":"Schladen-Werla","type":"Kreisangehörige_Gemeinde"},"district":{"key":"03158","name":"Wolfenbüttel","type":"Landkreis"},"federalState":{"key":"03","name":"Niedersachsen"}},{"name":"Stettiner Str.","postalCode":"38315","locality":"Schladen-Werla","municipality":{"key":"03158039","name":"Schladen-Werla","type":"Kreisangehörige_Gemeinde"},"district":{"key":"03158","name":"Wolfenbüttel","type":"Landkreis"},"federalState":{"key":"03","name":"Niedersachsen"}},{"name":"Sudholz Mittelweg","postalCode":"38315","locality":"Schladen-Werla","municipality":{"key":"03158039","name":"Schladen-Werla","type":"Kreisangehörige_Gemeinde"},"district":{"key":"03158","name":"Wolfenbüttel","type":"Landkreis"},"federalState":{"key":"03","name":"Niedersachsen"}},{"name":"Sudholzweg","postalCode":"38315","locality":"Schladen-Werla","municipality":{"key":"03158039","name":"Schladen-Werla","type":"Kreisangehörige_Gemeinde"},"district":{"key":"03158","name":"Wolfenbüttel","type":"Landkreis"},"federalState":{"key":"03","name":"Niedersachsen"}},{"name":"Südstr.","postalCode":"38315","locality":"Schladen-Werla","municipality":{"key":"03158039","name":"Schladen-Werla","type":"Kreisangehörige_Gemeinde"},"district":{"key":"03158","name":"Wolfenbüttel","type":"Landkreis"},"federalState":{"key":"03","name":"Niedersachsen"}},{"name":"Teichstr.","postalCode":"38315","locality":"Schladen-Werla","municipality":{"key":"03158039","name":"Schladen-Werla","type":"Kreisangehörige_Gemeinde"},"district":{"key":"03158","name":"Wolfenbüttel","type":"Landkreis"},"federalState":{"key":"03","name":"Niedersachsen"}},{"name":"Teichwiese","postalCode":"38315","locality":"Schladen-Werla","municipality":{"key":"03158039","name":"Schladen-Werla","type":"Kreisangehörige_Gemeinde"},"district":{"key":"03158","name":"Wolfenbüttel","type":"Landkreis"},"federalState":{"key":"03","name":"Niedersachsen"}},{"name":"Teufelsbergweg","postalCode":"38315","locality":"Schladen-Werla","municipality":{"key":"03158039","name":"Schladen-Werla","type":"Kreisangehörige_Gemeinde"},"district":{"key":"03158","name":"Wolfenbüttel","type":"Landkreis"},"federalState":{"key":"03","name":"Niedersachsen"}},{"name":"Texasweg","postalCode":"38315","locality":"Schladen-Werla","municipality":{"key":"03158039","name":"Schladen-Werla","type":"Kreisangehörige_Gemeinde"},"district":{"key":"03158","name":"Wolfenbüttel","type":"Landkreis"},"federalState":{"key":"03","name":"Niedersachsen"}},{"name":"Trift","postalCode":"38315","locality":"Schladen-Werla","municipality":{"key":"03158039","name":"Schladen-Werla","type":"Kreisangehörige_Gemeinde"},"district":{"key":"03158","name":"Wolfenbüttel","type":"Landkreis"},"federalState":{"key":"03","name":"Niedersachsen"}},{"name":"Triftbergweg","postalCode":"38315","locality":"Schladen-Werla","municipality":{"key":"03158039","name":"Schladen-Werla","type":"Kreisangehörige_Gemeinde"},"district":{"key":"03158","name":"Wolfenbüttel","type":"Landkreis"},"federalState":{"key":"03","name":"Niedersachsen"}},{"name":"Triftweg","postalCode":"38315","locality":"Schladen-Werla","municipality":{"key":"03158039","name":"Schladen-Werla","type":"Kreisangehörige_Gemeinde"},"district":{"key":"03158","name":"Wolfenbüttel","type":"Landkreis"},"federalState":{"key":"03","name":"Niedersachsen"}},{"name":"Tulpenweg","postalCode":"38315","locality":"Schladen-Werla","municipality":{"key":"03158039","name":"Schladen-Werla","type":"Kreisangehörige_Gemeinde"},"district":{"key":"03158","name":"Wolfenbüttel","type":"Landkreis"},"federalState":{"key":"03","name":"Niedersachsen"}},{"name":"Untere Landwehr","postalCode":"38315","locality":"Schladen-Werla","municipality":{"key":"03158039","name":"Schladen-Werla","type":"Kreisangehörige_Gemeinde"},"district":{"key":"03158","name":"Wolfenbüttel","type":"Landkreis"},"federalState":{"key":"03","name":"Niedersachsen"}},{"name":"Unterer Meerbergsweg","postalCode":"38315","locality":"Schladen-Werla","municipality":{"key":"03158039","name":"Schladen-Werla","type":"Kreisangehörige_Gemeinde"},"district":{"key":"03158","name":"Wolfenbüttel","type":"Landkreis"},"federalState":{"key":"03","name":"Niedersachsen"}},{"name":"Unterpfarrwinkel","postalCode":"38315","locality":"Schladen-Werla","municipality":{"key":"03158039","name":"Schladen-Werla","type":"Kreisangehörige_Gemeinde"},"district":{"key":"03158","name":"Wolfenbüttel","type":"Landkreis"},"federalState":{"key":"03","name":"Niedersachsen"}},{"name":"Vor dem Braunschweiger Tor","postalCode":"38315","locality":"Schladen-Werla","municipality":{"key":"03158039","name":"Schladen-Werla","type":"Kreisangehörige_Gemeinde"},"district":{"key":"03158","name":"Wolfenbüttel","type":"Landkreis"},"federalState":{"key":"03","name":"Niedersachsen"}},{"name":"Vor dem Dammtor","postalCode":"38315","locality":"Schladen-Werla","municipality":{"key":"03158039","name":"Schladen-Werla","type":"Kreisangehörige_Gemeinde"},"district":{"key":"03158","name":"Wolfenbüttel","type":"Landkreis"},"federalState":{"key":"03","name":"Niedersachsen"}},{"name":"Vor dem Halberstädter Tor","postalCode":"38315","locality":"Schladen-Werla","municipality":{"key":"03158039","name":"Schladen-Werla","type":"Kreisangehörige_Gemeinde"},"district":{"key":"03158","name":"Wolfenbüttel","type":"Landkreis"},"federalState":{"key":"03","name":"Niedersachsen"}},{"name":"Vor dem Vorwerkstor","postalCode":"38315","locality":"Schladen-Werla","municipality":{"key":"03158039","name":"Schladen-Werla","type":"Kreisangehörige_Gemeinde"},"district":{"key":"03158","name":"Wolfenbüttel","type":"Landkreis"},"federalState":{"key":"03","name":"Niedersachsen"}},{"name":"Vorwerk","postalCode":"38315","locality":"Schladen-Werla","municipality":{"key":"03158039","name":"Schladen-Werla","type":"Kreisangehörige_Gemeinde"},"district":{"key":"03158","name":"Wolfenbüttel","type":"Landkreis"},"federalState":{"key":"03","name":"Niedersachsen"}},{"name":"Vorwerkswinkel","postalCode":"38315","locality":"Schladen-Werla","municipality":{"key":"03158039","name":"Schladen-Werla","type":"Kreisangehörige_Gemeinde"},"district":{"key":"03158","name":"Wolfenbüttel","type":"Landkreis"},"federalState":{"key":"03","name":"Niedersachsen"}},{"name":"Wacholderweg","postalCode":"38315","locality":"Schladen-Werla","municipality":{"key":"03158039","name":"Schladen-Werla","type":"Kreisangehörige_Gemeinde"},"district":{"key":"03158","name":"Wolfenbüttel","type":"Landkreis"},"federalState":{"key":"03","name":"Niedersachsen"}},{"name":"Warnestr.","postalCode":"38315","locality":"Schladen-Werla","municipality":{"key":"03158039","name":"Schladen-Werla","type":"Kreisangehörige_Gemeinde"},"district":{"key":"03158","name":"Wolfenbüttel","type":"Landkreis"},"federalState":{"key":"03","name":"Niedersachsen"}},{"name":"Wasserstr.","postalCode":"38315","locality":"Schladen-Werla","municipality":{"key":"03158039","name":"Schladen-Werla","type":"Kreisangehörige_Gemeinde"},"district":{"key":"03158","name":"Wolfenbüttel","type":"Landkreis"},"federalState":{"key":"03","name":"Niedersachsen"}},{"name":"Wasserweg","postalCode":"38315","locality":"Schladen-Werla","municipality":{"key":"03158039","name":"Schladen-Werla","type":"Kreisangehörige_Gemeinde"},"district":{"key":"03158","name":"Wolfenbüttel","type":"Landkreis"},"federalState":{"key":"03","name":"Niedersachsen"}},{"name":"Wehrer Str.","postalCode":"38315","locality":"Schladen-Werla","municipality":{"key":"03158039","name":"Schladen-Werla","type":"Kreisangehörige_Gemeinde"},"district":{"key":"03158","name":"Wolfenbüttel","type":"Landkreis"},"federalState":{"key":"03","name":"Niedersachsen"}},{"name":"Westendorf","postalCode":"38315","locality":"Schladen-Werla","municipality":{"key":"03158039","name":"Schladen-Werla","type":"Kreisangehörige_Gemeinde"},"district":{"key":"03158","name":"Wolfenbüttel","type":"Landkreis"},"federalState":{"key":"03","name":"Niedersachsen"}},{"name":"Weststr.","postalCode":"38315","locality":"Schladen-Werla","municipality":{"key":"03158039","name":"Schladen-Werla","type":"Kreisangehörige_Gemeinde"},"district":{"key":"03158","name":"Wolfenbüttel","type":"Landkreis"},"federalState":{"key":"03","name":"Niedersachsen"}},{"name":"Wiesenweg","postalCode":"38315","locality":"Schladen-Werla","municipality":{"key":"03158039","name":"Schladen-Werla","type":"Kreisangehörige_Gemeinde"},"district":{"key":"03158","name":"Wolfenbüttel","type":"Landkreis"},"federalState":{"key":"03","name":"Niedersachsen"}},{"name":"Wildenhofgasse","postalCode":"38315","locality":"Schladen-Werla","municipality":{"key":"03158039","name":"Schladen-Werla","type":"Kreisangehörige_Gemeinde"},"district":{"key":"03158","name":"Wolfenbüttel","type":"Landkreis"},"federalState":{"key":"03","name":"Niedersachsen"}},{"name":"Wilhelm-Busch-Str.","postalCode":"38315","locality":"Schladen-Werla","municipality":{"key":"03158039","name":"Schladen-Werla","type":"Kreisangehörige_Gemeinde"},"district":{"key":"03158","name":"Wolfenbüttel","type":"Landkreis"},"federalState":{"key":"03","name":"Niedersachsen"}},{"name":"Wilhelm-Engel-Str.","postalCode":"38315","locality":"Schladen-Werla","municipality":{"key":"03158039","name":"Schladen-Werla","type":"Kreisangehörige_Gemeinde"},"district":{"key":"03158","name":"Wolfenbüttel","type":"Landkreis"},"federalState":{"key":"03","name":"Niedersachsen"}},{"name":"Wilhelm-Raabe-Str.","postalCode":"38315","locality":"Schladen-Werla","municipality":{"key":"03158039","name":"Schladen-Werla","type":"Kreisangehörige_Gemeinde"},"district":{"key":"03158","name":"Wolfenbüttel","type":"Landkreis"},"federalState":{"key":"03","name":"Niedersachsen"}},{"name":"Winkel","postalCode":"38315","locality":"Schladen-Werla","municipality":{"key":"03158039","name":"Schladen-Werla","type":"Kreisangehörige_Gemeinde"},"district":{"key":"03158","name":"Wolfenbüttel","type":"Landkreis"},"federalState":{"key":"03","name":"Niedersachsen"}},{"name":"Wolfenbütteler Str.","postalCode":"38315","locality":"Schladen-Werla","municipality":{"key":"03158039","name":"Schladen-Werla","type":"Kreisangehörige_Gemeinde"},"district":{"key":"03158","name":"Wolfenbüttel","type":"Landkreis"},"federalState":{"key":"03","name":"Niedersachsen"}},{"name":"Wolfswinkel","postalCode":"38315","locality":"Schladen-Werla","municipality":{"key":"03158039","name":"Schladen-Werla","type":"Kreisangehörige_Gemeinde"},"district":{"key":"03158","name":"Wolfenbüttel","type":"Landkreis"},"federalState":{"key":"03","name":"Niedersachsen"}},{"name":"Zehntstr.","postalCode":"38315","locality":"Schladen-Werla","municipality":{"key":"03158039","name":"Schladen-Werla","type":"Kreisangehörige_Gemeinde"},"district":{"key":"03158","name":"Wolfenbüttel","type":"Landkreis"},"federalState":{"key":"03","name":"Niedersachsen"}},{"name":"Ziegeleiweg","postalCode":"38315","locality":"Schladen-Werla","municipality":{"key":"03158039","name":"Schladen-Werla","type":"Kreisangehörige_Gemeinde"},"district":{"key":"03158","name":"Wolfenbüttel","type":"Landkreis"},"federalState":{"key":"03","name":"Niedersachsen"}},{"name":"Zieselbachstr.","postalCode":"38315","locality":"Schladen-Werla","municipality":{"key":"03158039","name":"Schladen-Werla","type":"Kreisangehörige_Gemeinde"},"district":{"key":"03158","name":"Wolfenbüttel","type":"Landkreis"},"federalState":{"key":"03","name":"Niedersachsen"}},{"name":"Zissickenwinkel","postalCode":"38315","locality":"Schladen-Werla","municipality":{"key":"03158039","name":"Schladen-Werla","type":"Kreisangehörige_Gemeinde"},"district":{"key":"03158","name":"Wolfenbüttel","type":"Landkreis"},"federalState":{"key":"03","name":"Niedersachsen"}},{"name":"Zum Osterberg","postalCode":"38315","locality":"Schladen-Werla","municipality":{"key":"03158039","name":"Schladen-Werla","type":"Kreisangehörige_Gemeinde"},"district":{"key":"03158","name":"Wolfenbüttel","type":"Landkreis"},"federalState":{"key":"03","name":"Niedersachsen"}},{"name":"Öselblick","postalCode":"38300","locality":"Wolfenbüttel","municipality":{"key":"03158037","name":"Wolfenbüttel, Stadt","type":"Stadt"},"district":{"key":"03158","name":"Wolfenbüttel","type":"Landkreis"},"federalState":{"key":"03","name":"Niedersachsen"}},{"name":"Öselweg","postalCode":"38302","locality":"Wolfenbüttel","municipality":{"key":"03158037","name":"Wolfenbüttel, Stadt","type":"Stadt"},"district":{"key":"03158","name":"Wolfenbüttel","type":"Landkreis"},"federalState":{"key":"03","name":"Niedersachsen"}},{"name":"Über dem Dorf","postalCode":"38315","locality":"Schladen-Werla","municipality":{"key":"03158039","name":"Schladen-Werla","type":"Kreisangehörige_Gemeinde"},"district":{"key":"03158","name":"Wolfenbüttel","type":"Landkreis"},"federalState":{"key":"03","name":"Niedersachsen"}},{"name":"Über dem Dorfe","postalCode":"38315","locality":"Schladen-Werla","municipality":{"key":"03158039","name":"Schladen-Werla","type":"Kreisangehörige_Gemeinde"},"district":{"key":"03158","name":"Wolfenbüttel","type":"Landkreis"},"federalState":{"key":"03","name":"Niedersachsen"}},]