[{"name":"Abt-Petto-Str.","postalCode":"82041","locality":"Oberhaching","municipality":{"key":"09184134","name":"Oberhaching","type":"Kreisangehörige_Gemeinde"},"district":{"key":"09184","name":"München","type":"Landkreis"},"federalState":{"key":"09","name":"Bayern"}},{"name":"Ahornstr.","postalCode":"82041","locality":"Oberhaching","municipality":{"key":"09184134","name":"Oberhaching","type":"Kreisangehörige_Gemeinde"},"district":{"key":"09184","name":"München","type":"Landkreis"},"federalState":{"key":"09","name":"Bayern"}},{"name":"Alpenstr.","postalCode":"82041","locality":"Oberhaching","municipality":{"key":"09184134","name":"Oberhaching","type":"Kreisangehörige_Gemeinde"},"district":{"key":"09184","name":"München","type":"Landkreis"},"federalState":{"key":"09","name":"Bayern"}},{"name":"Alpspitzstr.","postalCode":"82041","locality":"Oberhaching","municipality":{"key":"09184134","name":"Oberhaching","type":"Kreisangehörige_Gemeinde"},"district":{"key":"09184","name":"München","type":"Landkreis"},"federalState":{"key":"09","name":"Bayern"}},{"name":"Alte Oberbiberger Str.","postalCode":"82041","locality":"Oberhaching","municipality":{"key":"09184134","name":"Oberhaching","type":"Kreisangehörige_Gemeinde"},"district":{"key":"09184","name":"München","type":"Landkreis"},"federalState":{"key":"09","name":"Bayern"}},{"name":"Alter Münchner Weg","postalCode":"82041","locality":"Oberhaching","municipality":{"key":"09184134","name":"Oberhaching","type":"Kreisangehörige_Gemeinde"},"district":{"key":"09184","name":"München","type":"Landkreis"},"federalState":{"key":"09","name":"Bayern"}},{"name":"Alte Schießstätt","postalCode":"82041","locality":"Oberhaching","municipality":{"key":"09184134","name":"Oberhaching","type":"Kreisangehörige_Gemeinde"},"district":{"key":"09184","name":"München","type":"Landkreis"},"federalState":{"key":"09","name":"Bayern"}},{"name":"Altkirchner Str.","postalCode":"82041","locality":"Oberhaching","municipality":{"key":"09184134","name":"Oberhaching","type":"Kreisangehörige_Gemeinde"},"district":{"key":"09184","name":"München","type":"Landkreis"},"federalState":{"key":"09","name":"Bayern"}},{"name":"Altkirchner Weg","postalCode":"82041","locality":"Oberhaching","municipality":{"key":"09184134","name":"Oberhaching","type":"Kreisangehörige_Gemeinde"},"district":{"key":"09184","name":"München","type":"Landkreis"},"federalState":{"key":"09","name":"Bayern"}},{"name":"Am Alten Weg","postalCode":"82041","locality":"Oberhaching","municipality":{"key":"09184134","name":"Oberhaching","type":"Kreisangehörige_Gemeinde"},"district":{"key":"09184","name":"München","type":"Landkreis"},"federalState":{"key":"09","name":"Bayern"}},{"name":"Am Bachfeld","postalCode":"82041","locality":"Oberhaching","municipality":{"key":"09184134","name":"Oberhaching","type":"Kreisangehörige_Gemeinde"},"district":{"key":"09184","name":"München","type":"Landkreis"},"federalState":{"key":"09","name":"Bayern"}},{"name":"Am Berg","postalCode":"82041","locality":"Oberhaching","municipality":{"key":"09184134","name":"Oberhaching","type":"Kreisangehörige_Gemeinde"},"district":{"key":"09184","name":"München","type":"Landkreis"},"federalState":{"key":"09","name":"Bayern"}},{"name":"Am Büchl","postalCode":"82041","locality":"Oberhaching","municipality":{"key":"09184134","name":"Oberhaching","type":"Kreisangehörige_Gemeinde"},"district":{"key":"09184","name":"München","type":"Landkreis"},"federalState":{"key":"09","name":"Bayern"}},{"name":"Am Dölling","postalCode":"82041","locality":"Oberhaching","municipality":{"key":"09184134","name":"Oberhaching","type":"Kreisangehörige_Gemeinde"},"district":{"key":"09184","name":"München","type":"Landkreis"},"federalState":{"key":"09","name":"Bayern"}},{"name":"Am Eschtor","postalCode":"82041","locality":"Oberhaching","municipality":{"key":"09184134","name":"Oberhaching","type":"Kreisangehörige_Gemeinde"},"district":{"key":"09184","name":"München","type":"Landkreis"},"federalState":{"key":"09","name":"Bayern"}},{"name":"Am Floßsteig","postalCode":"82041","locality":"Oberhaching","municipality":{"key":"09184134","name":"Oberhaching","type":"Kreisangehörige_Gemeinde"},"district":{"key":"09184","name":"München","type":"Landkreis"},"federalState":{"key":"09","name":"Bayern"}},{"name":"Am Forstanger","postalCode":"82041","locality":"Oberhaching","municipality":{"key":"09184134","name":"Oberhaching","type":"Kreisangehörige_Gemeinde"},"district":{"key":"09184","name":"München","type":"Landkreis"},"federalState":{"key":"09","name":"Bayern"}},{"name":"Am Gries","postalCode":"82041","locality":"Oberhaching","municipality":{"key":"09184134","name":"Oberhaching","type":"Kreisangehörige_Gemeinde"},"district":{"key":"09184","name":"München","type":"Landkreis"},"federalState":{"key":"09","name":"Bayern"}},{"name":"Am Hag","postalCode":"82041","locality":"Oberhaching","municipality":{"key":"09184134","name":"Oberhaching","type":"Kreisangehörige_Gemeinde"},"district":{"key":"09184","name":"München","type":"Landkreis"},"federalState":{"key":"09","name":"Bayern"}},{"name":"Am neuen Weg","postalCode":"82041","locality":"Oberhaching","municipality":{"key":"09184134","name":"Oberhaching","type":"Kreisangehörige_Gemeinde"},"district":{"key":"09184","name":"München","type":"Landkreis"},"federalState":{"key":"09","name":"Bayern"}},{"name":"Am Rain","postalCode":"82041","locality":"Oberhaching","municipality":{"key":"09184134","name":"Oberhaching","type":"Kreisangehörige_Gemeinde"},"district":{"key":"09184","name":"München","type":"Landkreis"},"federalState":{"key":"09","name":"Bayern"}},{"name":"Am Schelleberg","postalCode":"82041","locality":"Oberhaching","municipality":{"key":"09184134","name":"Oberhaching","type":"Kreisangehörige_Gemeinde"},"district":{"key":"09184","name":"München","type":"Landkreis"},"federalState":{"key":"09","name":"Bayern"}},{"name":"Am Sportplatz","postalCode":"82041","locality":"Oberhaching","municipality":{"key":"09184134","name":"Oberhaching","type":"Kreisangehörige_Gemeinde"},"district":{"key":"09184","name":"München","type":"Landkreis"},"federalState":{"key":"09","name":"Bayern"}},{"name":"Am Steig","postalCode":"82041","locality":"Oberhaching","municipality":{"key":"09184134","name":"Oberhaching","type":"Kreisangehörige_Gemeinde"},"district":{"key":"09184","name":"München","type":"Landkreis"},"federalState":{"key":"09","name":"Bayern"}},{"name":"Am Wildzaun","postalCode":"82041","locality":"Oberhaching","municipality":{"key":"09184134","name":"Oberhaching","type":"Kreisangehörige_Gemeinde"},"district":{"key":"09184","name":"München","type":"Landkreis"},"federalState":{"key":"09","name":"Bayern"}},{"name":"Andechser Weg","postalCode":"82041","locality":"Oberhaching","municipality":{"key":"09184134","name":"Oberhaching","type":"Kreisangehörige_Gemeinde"},"district":{"key":"09184","name":"München","type":"Landkreis"},"federalState":{"key":"09","name":"Bayern"}},{"name":"Anderl Geräumt","postalCode":"82041","locality":"Oberhaching","municipality":{"key":"09184134","name":"Oberhaching","type":"Kreisangehörige_Gemeinde"},"district":{"key":"09184","name":"München","type":"Landkreis"},"federalState":{"key":"09","name":"Bayern"}},{"name":"An der Römerstr.","postalCode":"82041","locality":"Oberhaching","municipality":{"key":"09184134","name":"Oberhaching","type":"Kreisangehörige_Gemeinde"},"district":{"key":"09184","name":"München","type":"Landkreis"},"federalState":{"key":"09","name":"Bayern"}},{"name":"Angerweg","postalCode":"82041","locality":"Oberhaching","municipality":{"key":"09184134","name":"Oberhaching","type":"Kreisangehörige_Gemeinde"},"district":{"key":"09184","name":"München","type":"Landkreis"},"federalState":{"key":"09","name":"Bayern"}},{"name":"Auf dem Kyberg","postalCode":"82041","locality":"Oberhaching","municipality":{"key":"09184134","name":"Oberhaching","type":"Kreisangehörige_Gemeinde"},"district":{"key":"09184","name":"München","type":"Landkreis"},"federalState":{"key":"09","name":"Bayern"}},{"name":"Auf der Wies","postalCode":"82041","locality":"Oberhaching","municipality":{"key":"09184134","name":"Oberhaching","type":"Kreisangehörige_Gemeinde"},"district":{"key":"09184","name":"München","type":"Landkreis"},"federalState":{"key":"09","name":"Bayern"}},{"name":"Bachweg","postalCode":"82041","locality":"Oberhaching","municipality":{"key":"09184134","name":"Oberhaching","type":"Kreisangehörige_Gemeinde"},"district":{"key":"09184","name":"München","type":"Landkreis"},"federalState":{"key":"09","name":"Bayern"}},{"name":"Bahnhofsplatz","postalCode":"82041","locality":"Oberhaching","municipality":{"key":"09184134","name":"Oberhaching","type":"Kreisangehörige_Gemeinde"},"district":{"key":"09184","name":"München","type":"Landkreis"},"federalState":{"key":"09","name":"Bayern"}},{"name":"Bahnhofstr.","postalCode":"82041","locality":"Oberhaching","municipality":{"key":"09184134","name":"Oberhaching","type":"Kreisangehörige_Gemeinde"},"district":{"key":"09184","name":"München","type":"Landkreis"},"federalState":{"key":"09","name":"Bayern"}},{"name":"Bailweg","postalCode":"82041","locality":"Oberhaching","municipality":{"key":"09184134","name":"Oberhaching","type":"Kreisangehörige_Gemeinde"},"district":{"key":"09184","name":"München","type":"Landkreis"},"federalState":{"key":"09","name":"Bayern"}},{"name":"Bajuwarenring","postalCode":"82041","locality":"Oberhaching","municipality":{"key":"09184134","name":"Oberhaching","type":"Kreisangehörige_Gemeinde"},"district":{"key":"09184","name":"München","type":"Landkreis"},"federalState":{"key":"09","name":"Bayern"}},{"name":"Bannzaunweg","postalCode":"82041","locality":"Oberhaching","municipality":{"key":"09184134","name":"Oberhaching","type":"Kreisangehörige_Gemeinde"},"district":{"key":"09184","name":"München","type":"Landkreis"},"federalState":{"key":"09","name":"Bayern"}},{"name":"Bauernweg","postalCode":"82041","locality":"Oberhaching","municipality":{"key":"09184134","name":"Oberhaching","type":"Kreisangehörige_Gemeinde"},"district":{"key":"09184","name":"München","type":"Landkreis"},"federalState":{"key":"09","name":"Bayern"}},{"name":"Bergstr.","postalCode":"82041","locality":"Oberhaching","municipality":{"key":"09184134","name":"Oberhaching","type":"Kreisangehörige_Gemeinde"},"district":{"key":"09184","name":"München","type":"Landkreis"},"federalState":{"key":"09","name":"Bayern"}},{"name":"Birkenstr.","postalCode":"82041","locality":"Oberhaching","municipality":{"key":"09184134","name":"Oberhaching","type":"Kreisangehörige_Gemeinde"},"district":{"key":"09184","name":"München","type":"Landkreis"},"federalState":{"key":"09","name":"Bayern"}},{"name":"Blumenweg","postalCode":"82041","locality":"Oberhaching","municipality":{"key":"09184134","name":"Oberhaching","type":"Kreisangehörige_Gemeinde"},"district":{"key":"09184","name":"München","type":"Landkreis"},"federalState":{"key":"09","name":"Bayern"}},{"name":"Bolzweg","postalCode":"82041","locality":"Oberhaching","municipality":{"key":"09184134","name":"Oberhaching","type":"Kreisangehörige_Gemeinde"},"district":{"key":"09184","name":"München","type":"Landkreis"},"federalState":{"key":"09","name":"Bayern"}},{"name":"Brachfeld","postalCode":"82041","locality":"Oberhaching","municipality":{"key":"09184134","name":"Oberhaching","type":"Kreisangehörige_Gemeinde"},"district":{"key":"09184","name":"München","type":"Landkreis"},"federalState":{"key":"09","name":"Bayern"}},{"name":"Brandweg","postalCode":"82041","locality":"Oberhaching","municipality":{"key":"09184134","name":"Oberhaching","type":"Kreisangehörige_Gemeinde"},"district":{"key":"09184","name":"München","type":"Landkreis"},"federalState":{"key":"09","name":"Bayern"}},{"name":"Bruckmeierweg","postalCode":"82041","locality":"Oberhaching","municipality":{"key":"09184134","name":"Oberhaching","type":"Kreisangehörige_Gemeinde"},"district":{"key":"09184","name":"München","type":"Landkreis"},"federalState":{"key":"09","name":"Bayern"}},{"name":"Buchenstr.","postalCode":"82041","locality":"Oberhaching","municipality":{"key":"09184134","name":"Oberhaching","type":"Kreisangehörige_Gemeinde"},"district":{"key":"09184","name":"München","type":"Landkreis"},"federalState":{"key":"09","name":"Bayern"}},{"name":"Büchlweg","postalCode":"82041","locality":"Oberhaching","municipality":{"key":"09184134","name":"Oberhaching","type":"Kreisangehörige_Gemeinde"},"district":{"key":"09184","name":"München","type":"Landkreis"},"federalState":{"key":"09","name":"Bayern"}},{"name":"Camerloherstr.","postalCode":"80686","locality":"München","municipality":{"key":"09162000","name":"München, Landeshauptstadt","type":"Kreisfreie_Stadt"},"district":{"key":"09162","name":"München, Landeshauptstadt","type":"Kreisfreie_Stadt"},"federalState":{"key":"09","name":"Bayern"}},{"name":"Camerloherstr.","postalCode":"80689","locality":"München","municipality":{"key":"09162000","name":"München, Landeshauptstadt","type":"Kreisfreie_Stadt"},"district":{"key":"09162","name":"München, Landeshauptstadt","type":"Kreisfreie_Stadt"},"federalState":{"key":"09","name":"Bayern"}},{"name":"Canalettostr.","postalCode":"80638","locality":"München","municipality":{"key":"09162000","name":"München, Landeshauptstadt","type":"Kreisfreie_Stadt"},"district":{"key":"09162","name":"München, Landeshauptstadt","type":"Kreisfreie_Stadt"},"federalState":{"key":"09","name":"Bayern"}},{"name":"Candidstr.","postalCode":"81539","locality":"München","municipality":{"key":"09162000","name":"München, Landeshauptstadt","type":"Kreisfreie_Stadt"},"district":{"key":"09162","name":"München, Landeshauptstadt","type":"Kreisfreie_Stadt"},"federalState":{"key":"09","name":"Bayern"}},{"name":"Candidstr.","postalCode":"81543","locality":"München","municipality":{"key":"09162000","name":"München, Landeshauptstadt","type":"Kreisfreie_Stadt"},"district":{"key":"09162","name":"München, Landeshauptstadt","type":"Kreisfreie_Stadt"},"federalState":{"key":"09","name":"Bayern"}},{"name":"Candidstr.","postalCode":"81547","locality":"München","municipality":{"key":"09162000","name":"München, Landeshauptstadt","type":"Kreisfreie_Stadt"},"district":{"key":"09162","name":"München, Landeshauptstadt","type":"Kreisfreie_Stadt"},"federalState":{"key":"09","name":"Bayern"}},{"name":"Canisiusplatz","postalCode":"81377","locality":"München","municipality":{"key":"09162000","name":"München, Landeshauptstadt","type":"Kreisfreie_Stadt"},"district":{"key":"09162","name":"München, Landeshauptstadt","type":"Kreisfreie_Stadt"},"federalState":{"key":"09","name":"Bayern"}},{"name":"Canisiusstr.","postalCode":"81377","locality":"München","municipality":{"key":"09162000","name":"München, Landeshauptstadt","type":"Kreisfreie_Stadt"},"district":{"key":"09162","name":"München, Landeshauptstadt","type":"Kreisfreie_Stadt"},"federalState":{"key":"09","name":"Bayern"}},{"name":"Cannabichstr.","postalCode":"81543","locality":"München","municipality":{"key":"09162000","name":"München, Landeshauptstadt","type":"Kreisfreie_Stadt"},"district":{"key":"09162","name":"München, Landeshauptstadt","type":"Kreisfreie_Stadt"},"federalState":{"key":"09","name":"Bayern"}},{"name":"Caracciolastr.","postalCode":"80935","locality":"München","municipality":{"key":"09162000","name":"München, Landeshauptstadt","type":"Kreisfreie_Stadt"},"district":{"key":"09162","name":"München, Landeshauptstadt","type":"Kreisfreie_Stadt"},"federalState":{"key":"09","name":"Bayern"}},{"name":"Caramanicostr.","postalCode":"85551","locality":"Kirchheim bei München","municipality":{"key":"09184131","name":"Kirchheim b.München","type":"Kreisangehörige_Gemeinde"},"district":{"key":"09184","name":"München","type":"Landkreis"},"federalState":{"key":"09","name":"Bayern"}},{"name":"Carlamaria-Heim-Str.","postalCode":"80339","locality":"München","municipality":{"key":"09162000","name":"München, Landeshauptstadt","type":"Kreisfreie_Stadt"},"district":{"key":"09162","name":"München, Landeshauptstadt","type":"Kreisfreie_Stadt"},"federalState":{"key":"09","name":"Bayern"}},{"name":"Carl-Amery-Platz","postalCode":"81541","locality":"München","municipality":{"key":"09162000","name":"München, Landeshauptstadt","type":"Kreisfreie_Stadt"},"district":{"key":"09162","name":"München, Landeshauptstadt","type":"Kreisfreie_Stadt"},"federalState":{"key":"09","name":"Bayern"}},{"name":"Carl-August-Sckell-Weg","postalCode":"80538","locality":"München","municipality":{"key":"09162000","name":"München, Landeshauptstadt","type":"Kreisfreie_Stadt"},"district":{"key":"09162","name":"München, Landeshauptstadt","type":"Kreisfreie_Stadt"},"federalState":{"key":"09","name":"Bayern"}},{"name":"Carl-Baierl-Bogen","postalCode":"81739","locality":"München","municipality":{"key":"09162000","name":"München, Landeshauptstadt","type":"Kreisfreie_Stadt"},"district":{"key":"09162","name":"München, Landeshauptstadt","type":"Kreisfreie_Stadt"},"federalState":{"key":"09","name":"Bayern"}},{"name":"Carl-Hanser-Str.","postalCode":"81247","locality":"München","municipality":{"key":"09162000","name":"München, Landeshauptstadt","type":"Kreisfreie_Stadt"},"district":{"key":"09162","name":"München, Landeshauptstadt","type":"Kreisfreie_Stadt"},"federalState":{"key":"09","name":"Bayern"}},{"name":"Carl-Orff-Bogen","postalCode":"80939","locality":"München","municipality":{"key":"09162000","name":"München, Landeshauptstadt","type":"Kreisfreie_Stadt"},"district":{"key":"09162","name":"München, Landeshauptstadt","type":"Kreisfreie_Stadt"},"federalState":{"key":"09","name":"Bayern"}},{"name":"Carl-Orff-Str.","postalCode":"85551","locality":"Kirchheim bei München","municipality":{"key":"09184131","name":"Kirchheim b.München","type":"Kreisangehörige_Gemeinde"},"district":{"key":"09184","name":"München","type":"Landkreis"},"federalState":{"key":"09","name":"Bayern"}},{"name":"Carlo-Schmid-Str.","postalCode":"81739","locality":"München","municipality":{"key":"09162000","name":"München, Landeshauptstadt","type":"Kreisfreie_Stadt"},"district":{"key":"09162","name":"München, Landeshauptstadt","type":"Kreisfreie_Stadt"},"federalState":{"key":"09","name":"Bayern"}},{"name":"Carl-Sternheim-Weg","postalCode":"81927","locality":"München","municipality":{"key":"09162000","name":"München, Landeshauptstadt","type":"Kreisfreie_Stadt"},"district":{"key":"09162","name":"München, Landeshauptstadt","type":"Kreisfreie_Stadt"},"federalState":{"key":"09","name":"Bayern"}},{"name":"Carl-Wery-Str.","postalCode":"81739","locality":"München","municipality":{"key":"09162000","name":"München, Landeshauptstadt","type":"Kreisfreie_Stadt"},"district":{"key":"09162","name":"München, Landeshauptstadt","type":"Kreisfreie_Stadt"},"federalState":{"key":"09","name":"Bayern"}},{"name":"Carl-Zuckmayer-Str.","postalCode":"81927","locality":"München","municipality":{"key":"09162000","name":"München, Landeshauptstadt","type":"Kreisfreie_Stadt"},"district":{"key":"09162","name":"München, Landeshauptstadt","type":"Kreisfreie_Stadt"},"federalState":{"key":"09","name":"Bayern"}},{"name":"Carola-Neher-Str.","postalCode":"81379","locality":"München","municipality":{"key":"09162000","name":"München, Landeshauptstadt","type":"Kreisfreie_Stadt"},"district":{"key":"09162","name":"München, Landeshauptstadt","type":"Kreisfreie_Stadt"},"federalState":{"key":"09","name":"Bayern"}},{"name":"Caroline-Herschel-Str.","postalCode":"81829","locality":"München","municipality":{"key":"09162000","name":"München, Landeshauptstadt","type":"Kreisfreie_Stadt"},"district":{"key":"09162","name":"München, Landeshauptstadt","type":"Kreisfreie_Stadt"},"federalState":{"key":"09","name":"Bayern"}},{"name":"Carossastr.","postalCode":"81245","locality":"München","municipality":{"key":"09162000","name":"München, Landeshauptstadt","type":"Kreisfreie_Stadt"},"district":{"key":"09162","name":"München, Landeshauptstadt","type":"Kreisfreie_Stadt"},"federalState":{"key":"09","name":"Bayern"}},{"name":"Carrierestr.","postalCode":"80999","locality":"München","municipality":{"key":"09162000","name":"München, Landeshauptstadt","type":"Kreisfreie_Stadt"},"district":{"key":"09162","name":"München, Landeshauptstadt","type":"Kreisfreie_Stadt"},"federalState":{"key":"09","name":"Bayern"}},{"name":"Carusoweg","postalCode":"81479","locality":"München","municipality":{"key":"09162000","name":"München, Landeshauptstadt","type":"Kreisfreie_Stadt"},"district":{"key":"09162","name":"München, Landeshauptstadt","type":"Kreisfreie_Stadt"},"federalState":{"key":"09","name":"Bayern"}},{"name":"Caubstr.","postalCode":"80993","locality":"München","municipality":{"key":"09162000","name":"München, Landeshauptstadt","type":"Kreisfreie_Stadt"},"district":{"key":"09162","name":"München, Landeshauptstadt","type":"Kreisfreie_Stadt"},"federalState":{"key":"09","name":"Bayern"}},{"name":"Celibidacheforum","postalCode":"81667","locality":"München","municipality":{"key":"09162000","name":"München, Landeshauptstadt","type":"Kreisfreie_Stadt"},"district":{"key":"09162","name":"München, Landeshauptstadt","type":"Kreisfreie_Stadt"},"federalState":{"key":"09","name":"Bayern"}},{"name":"Centa-Hafenbrädl-Str.","postalCode":"81249","locality":"München","municipality":{"key":"09162000","name":"München, Landeshauptstadt","type":"Kreisfreie_Stadt"},"district":{"key":"09162","name":"München, Landeshauptstadt","type":"Kreisfreie_Stadt"},"federalState":{"key":"09","name":"Bayern"}},{"name":"Centa-Herker-Bogen","postalCode":"80797","locality":"München","municipality":{"key":"09162000","name":"München, Landeshauptstadt","type":"Kreisfreie_Stadt"},"district":{"key":"09162","name":"München, Landeshauptstadt","type":"Kreisfreie_Stadt"},"federalState":{"key":"09","name":"Bayern"}},{"name":"Cerebotanistr.","postalCode":"80992","locality":"München","municipality":{"key":"09162000","name":"München, Landeshauptstadt","type":"Kreisfreie_Stadt"},"district":{"key":"09162","name":"München, Landeshauptstadt","type":"Kreisfreie_Stadt"},"federalState":{"key":"09","name":"Bayern"}},{"name":"Cervantesstr.","postalCode":"81241","locality":"München","municipality":{"key":"09162000","name":"München, Landeshauptstadt","type":"Kreisfreie_Stadt"},"district":{"key":"09162","name":"München, Landeshauptstadt","type":"Kreisfreie_Stadt"},"federalState":{"key":"09","name":"Bayern"}},{"name":"Chamissostr.","postalCode":"81925","locality":"München","municipality":{"key":"09162000","name":"München, Landeshauptstadt","type":"Kreisfreie_Stadt"},"district":{"key":"09162","name":"München, Landeshauptstadt","type":"Kreisfreie_Stadt"},"federalState":{"key":"09","name":"Bayern"}},{"name":"Chammünsterstr.","postalCode":"81827","locality":"München","municipality":{"key":"09162000","name":"München, Landeshauptstadt","type":"Kreisfreie_Stadt"},"district":{"key":"09162","name":"München, Landeshauptstadt","type":"Kreisfreie_Stadt"},"federalState":{"key":"09","name":"Bayern"}},{"name":"Charles-de-Gaulle-Str.","postalCode":"81737","locality":"München","municipality":{"key":"09162000","name":"München, Landeshauptstadt","type":"Kreisfreie_Stadt"},"district":{"key":"09162","name":"München, Landeshauptstadt","type":"Kreisfreie_Stadt"},"federalState":{"key":"09","name":"Bayern"}},{"name":"Chemnitzer Platz","postalCode":"80992","locality":"München","municipality":{"key":"09162000","name":"München, Landeshauptstadt","type":"Kreisfreie_Stadt"},"district":{"key":"09162","name":"München, Landeshauptstadt","type":"Kreisfreie_Stadt"},"federalState":{"key":"09","name":"Bayern"}},{"name":"Cherubinistr.","postalCode":"80803","locality":"München","municipality":{"key":"09162000","name":"München, Landeshauptstadt","type":"Kreisfreie_Stadt"},"district":{"key":"09162","name":"München, Landeshauptstadt","type":"Kreisfreie_Stadt"},"federalState":{"key":"09","name":"Bayern"}},{"name":"Chiemgaustr.","postalCode":"81539","locality":"München","municipality":{"key":"09162000","name":"München, Landeshauptstadt","type":"Kreisfreie_Stadt"},"district":{"key":"09162","name":"München, Landeshauptstadt","type":"Kreisfreie_Stadt"},"federalState":{"key":"09","name":"Bayern"}},{"name":"Chiemgaustr.","postalCode":"81549","locality":"München","municipality":{"key":"09162000","name":"München, Landeshauptstadt","type":"Kreisfreie_Stadt"},"district":{"key":"09162","name":"München, Landeshauptstadt","type":"Kreisfreie_Stadt"},"federalState":{"key":"09","name":"Bayern"}},{"name":"Chiemseering","postalCode":"85551","locality":"Kirchheim bei München","municipality":{"key":"09184131","name":"Kirchheim b.München","type":"Kreisangehörige_Gemeinde"},"district":{"key":"09184","name":"München","type":"Landkreis"},"federalState":{"key":"09","name":"Bayern"}},{"name":"China-Garten","postalCode":"81377","locality":"München","municipality":{"key":"09162000","name":"München, Landeshauptstadt","type":"Kreisfreie_Stadt"},"district":{"key":"09162","name":"München, Landeshauptstadt","type":"Kreisfreie_Stadt"},"federalState":{"key":"09","name":"Bayern"}},{"name":"Chopinstr.","postalCode":"81245","locality":"München","municipality":{"key":"09162000","name":"München, Landeshauptstadt","type":"Kreisfreie_Stadt"},"district":{"key":"09162","name":"München, Landeshauptstadt","type":"Kreisfreie_Stadt"},"federalState":{"key":"09","name":"Bayern"}},{"name":"Chorherrstr.","postalCode":"81667","locality":"München","municipality":{"key":"09162000","name":"München, Landeshauptstadt","type":"Kreisfreie_Stadt"},"district":{"key":"09162","name":"München, Landeshauptstadt","type":"Kreisfreie_Stadt"},"federalState":{"key":"09","name":"Bayern"}},{"name":"Christel-Küpper-Platz","postalCode":"81379","locality":"München","municipality":{"key":"09162000","name":"München, Landeshauptstadt","type":"Kreisfreie_Stadt"},"district":{"key":"09162","name":"München, Landeshauptstadt","type":"Kreisfreie_Stadt"},"federalState":{"key":"09","name":"Bayern"}},{"name":"Christel-Sembach-Krone-Str.","postalCode":"81248","locality":"München","municipality":{"key":"09162000","name":"München, Landeshauptstadt","type":"Kreisfreie_Stadt"},"district":{"key":"09162","name":"München, Landeshauptstadt","type":"Kreisfreie_Stadt"},"federalState":{"key":"09","name":"Bayern"}},{"name":"Christl-Cranz-Str.","postalCode":"85551","locality":"Kirchheim bei München","municipality":{"key":"09184131","name":"Kirchheim b.München","type":"Kreisangehörige_Gemeinde"},"district":{"key":"09184","name":"München","type":"Landkreis"},"federalState":{"key":"09","name":"Bayern"}},{"name":"Christoph-Probst-Str.","postalCode":"80805","locality":"München","municipality":{"key":"09162000","name":"München, Landeshauptstadt","type":"Kreisfreie_Stadt"},"district":{"key":"09162","name":"München, Landeshauptstadt","type":"Kreisfreie_Stadt"},"federalState":{"key":"09","name":"Bayern"}},{"name":"Christoph-Rapparini-Bogen","postalCode":"80639","locality":"München","municipality":{"key":"09162000","name":"München, Landeshauptstadt","type":"Kreisfreie_Stadt"},"district":{"key":"09162","name":"München, Landeshauptstadt","type":"Kreisfreie_Stadt"},"federalState":{"key":"09","name":"Bayern"}},{"name":"Christoph-Schmid-Str.","postalCode":"80807","locality":"München","municipality":{"key":"09162000","name":"München, Landeshauptstadt","type":"Kreisfreie_Stadt"},"district":{"key":"09162","name":"München, Landeshauptstadt","type":"Kreisfreie_Stadt"},"federalState":{"key":"09","name":"Bayern"}},{"name":"Dietramszeller Str.","postalCode":"82041","locality":"Oberhaching","municipality":{"key":"09184134","name":"Oberhaching","type":"Kreisangehörige_Gemeinde"},"district":{"key":"09184","name":"München","type":"Landkreis"},"federalState":{"key":"09","name":"Bayern"}},{"name":"Doktorbäuerinweg","postalCode":"82041","locality":"Oberhaching","municipality":{"key":"09184134","name":"Oberhaching","type":"Kreisangehörige_Gemeinde"},"district":{"key":"09184","name":"München","type":"Landkreis"},"federalState":{"key":"09","name":"Bayern"}},{"name":"Edmund-Müller-Str.","postalCode":"82041","locality":"Oberhaching","municipality":{"key":"09184134","name":"Oberhaching","type":"Kreisangehörige_Gemeinde"},"district":{"key":"09184","name":"München","type":"Landkreis"},"federalState":{"key":"09","name":"Bayern"}},{"name":"Einfang-Geräumt","postalCode":"82041","locality":"Oberhaching","municipality":{"key":"09184134","name":"Oberhaching","type":"Kreisangehörige_Gemeinde"},"district":{"key":"09184","name":"München","type":"Landkreis"},"federalState":{"key":"09","name":"Bayern"}},{"name":"Erich-Stegmann-Weg","postalCode":"82041","locality":"Oberhaching","municipality":{"key":"09184134","name":"Oberhaching","type":"Kreisangehörige_Gemeinde"},"district":{"key":"09184","name":"München","type":"Landkreis"},"federalState":{"key":"09","name":"Bayern"}},{"name":"Ertlweg","postalCode":"82041","locality":"Oberhaching","municipality":{"key":"09184134","name":"Oberhaching","type":"Kreisangehörige_Gemeinde"},"district":{"key":"09184","name":"München","type":"Landkreis"},"federalState":{"key":"09","name":"Bayern"}},{"name":"Falkenweg","postalCode":"82041","locality":"Oberhaching","municipality":{"key":"09184134","name":"Oberhaching","type":"Kreisangehörige_Gemeinde"},"district":{"key":"09184","name":"München","type":"Landkreis"},"federalState":{"key":"09","name":"Bayern"}},{"name":"Fichtenstr.","postalCode":"82041","locality":"Oberhaching","municipality":{"key":"09184134","name":"Oberhaching","type":"Kreisangehörige_Gemeinde"},"district":{"key":"09184","name":"München","type":"Landkreis"},"federalState":{"key":"09","name":"Bayern"}},{"name":"Fischhaberweg","postalCode":"82041","locality":"Oberhaching","municipality":{"key":"09184134","name":"Oberhaching","type":"Kreisangehörige_Gemeinde"},"district":{"key":"09184","name":"München","type":"Landkreis"},"federalState":{"key":"09","name":"Bayern"}},{"name":"Flößerweg","postalCode":"82041","locality":"Oberhaching","municipality":{"key":"09184134","name":"Oberhaching","type":"Kreisangehörige_Gemeinde"},"district":{"key":"09184","name":"München","type":"Landkreis"},"federalState":{"key":"09","name":"Bayern"}},{"name":"Flurstr.","postalCode":"82041","locality":"Oberhaching","municipality":{"key":"09184134","name":"Oberhaching","type":"Kreisangehörige_Gemeinde"},"district":{"key":"09184","name":"München","type":"Landkreis"},"federalState":{"key":"09","name":"Bayern"}},{"name":"Försterstr.","postalCode":"82041","locality":"Oberhaching","municipality":{"key":"09184134","name":"Oberhaching","type":"Kreisangehörige_Gemeinde"},"district":{"key":"09184","name":"München","type":"Landkreis"},"federalState":{"key":"09","name":"Bayern"}},{"name":"Forstweg","postalCode":"82041","locality":"Oberhaching","municipality":{"key":"09184134","name":"Oberhaching","type":"Kreisangehörige_Gemeinde"},"district":{"key":"09184","name":"München","type":"Landkreis"},"federalState":{"key":"09","name":"Bayern"}},{"name":"Franz-Josef-Strauß-Str.","postalCode":"82041","locality":"Oberhaching","municipality":{"key":"09184134","name":"Oberhaching","type":"Kreisangehörige_Gemeinde"},"district":{"key":"09184","name":"München","type":"Landkreis"},"federalState":{"key":"09","name":"Bayern"}},{"name":"Fritz-König-Weg","postalCode":"82041","locality":"Oberhaching","municipality":{"key":"09184134","name":"Oberhaching","type":"Kreisangehörige_Gemeinde"},"district":{"key":"09184","name":"München","type":"Landkreis"},"federalState":{"key":"09","name":"Bayern"}},{"name":"Fuchs Geräumt","postalCode":"82041","locality":"Oberhaching","municipality":{"key":"09184134","name":"Oberhaching","type":"Kreisangehörige_Gemeinde"},"district":{"key":"09184","name":"München","type":"Landkreis"},"federalState":{"key":"09","name":"Bayern"}},{"name":"Further-Bahnhof-Str.","postalCode":"82041","locality":"Oberhaching","municipality":{"key":"09184134","name":"Oberhaching","type":"Kreisangehörige_Gemeinde"},"district":{"key":"09184","name":"München","type":"Landkreis"},"federalState":{"key":"09","name":"Bayern"}},{"name":"Ganghoferstr.","postalCode":"82041","locality":"Oberhaching","municipality":{"key":"09184134","name":"Oberhaching","type":"Kreisangehörige_Gemeinde"},"district":{"key":"09184","name":"München","type":"Landkreis"},"federalState":{"key":"09","name":"Bayern"}},{"name":"Gänslerweg","postalCode":"82041","locality":"Oberhaching","municipality":{"key":"09184134","name":"Oberhaching","type":"Kreisangehörige_Gemeinde"},"district":{"key":"09184","name":"München","type":"Landkreis"},"federalState":{"key":"09","name":"Bayern"}},{"name":"Gartenstr.","postalCode":"82041","locality":"Oberhaching","municipality":{"key":"09184134","name":"Oberhaching","type":"Kreisangehörige_Gemeinde"},"district":{"key":"09184","name":"München","type":"Landkreis"},"federalState":{"key":"09","name":"Bayern"}},{"name":"Gärtnerweg","postalCode":"82041","locality":"Oberhaching","municipality":{"key":"09184134","name":"Oberhaching","type":"Kreisangehörige_Gemeinde"},"district":{"key":"09184","name":"München","type":"Landkreis"},"federalState":{"key":"09","name":"Bayern"}},{"name":"Gaugrafenstr.","postalCode":"82041","locality":"Oberhaching","municipality":{"key":"09184134","name":"Oberhaching","type":"Kreisangehörige_Gemeinde"},"district":{"key":"09184","name":"München","type":"Landkreis"},"federalState":{"key":"09","name":"Bayern"}},{"name":"Gebrüder-Batscheider-Str.","postalCode":"82041","locality":"Oberhaching","municipality":{"key":"09184134","name":"Oberhaching","type":"Kreisangehörige_Gemeinde"},"district":{"key":"09184","name":"München","type":"Landkreis"},"federalState":{"key":"09","name":"Bayern"}},{"name":"Gerblinghauser Weg","postalCode":"82041","locality":"Oberhaching","municipality":{"key":"09184134","name":"Oberhaching","type":"Kreisangehörige_Gemeinde"},"district":{"key":"09184","name":"München","type":"Landkreis"},"federalState":{"key":"09","name":"Bayern"}},{"name":"Gerstäckerstr.","postalCode":"82041","locality":"Oberhaching","municipality":{"key":"09184134","name":"Oberhaching","type":"Kreisangehörige_Gemeinde"},"district":{"key":"09184","name":"München","type":"Landkreis"},"federalState":{"key":"09","name":"Bayern"}},{"name":"Glasbauerweg","postalCode":"82041","locality":"Oberhaching","municipality":{"key":"09184134","name":"Oberhaching","type":"Kreisangehörige_Gemeinde"},"district":{"key":"09184","name":"München","type":"Landkreis"},"federalState":{"key":"09","name":"Bayern"}},{"name":"Gleißental","postalCode":"82041","locality":"Oberhaching","municipality":{"key":"09184134","name":"Oberhaching","type":"Kreisangehörige_Gemeinde"},"district":{"key":"09184","name":"München","type":"Landkreis"},"federalState":{"key":"09","name":"Bayern"}},{"name":"Gleißental","postalCode":"82064","locality":"Oberhaching","municipality":{"key":"09184134","name":"Oberhaching","type":"Kreisangehörige_Gemeinde"},"district":{"key":"09184","name":"München","type":"Landkreis"},"federalState":{"key":"09","name":"Bayern"}},{"name":"Gleißentalstr.","postalCode":"82041","locality":"Oberhaching","municipality":{"key":"09184134","name":"Oberhaching","type":"Kreisangehörige_Gemeinde"},"district":{"key":"09184","name":"München","type":"Landkreis"},"federalState":{"key":"09","name":"Bayern"}},{"name":"Goristraßl","postalCode":"82041","locality":"Oberhaching","municipality":{"key":"09184134","name":"Oberhaching","type":"Kreisangehörige_Gemeinde"},"district":{"key":"09184","name":"München","type":"Landkreis"},"federalState":{"key":"09","name":"Bayern"}},{"name":"Gramacher Weg","postalCode":"82041","locality":"Oberhaching","municipality":{"key":"09184134","name":"Oberhaching","type":"Kreisangehörige_Gemeinde"},"district":{"key":"09184","name":"München","type":"Landkreis"},"federalState":{"key":"09","name":"Bayern"}},{"name":"Grillen Geräumt","postalCode":"82041","locality":"Oberhaching","municipality":{"key":"09184134","name":"Oberhaching","type":"Kreisangehörige_Gemeinde"},"district":{"key":"09184","name":"München","type":"Landkreis"},"federalState":{"key":"09","name":"Bayern"}},{"name":"Grünwalder Weg","postalCode":"82041","locality":"Oberhaching","municipality":{"key":"09184134","name":"Oberhaching","type":"Kreisangehörige_Gemeinde"},"district":{"key":"09184","name":"München","type":"Landkreis"},"federalState":{"key":"09","name":"Bayern"}},{"name":"Hahilingastr.","postalCode":"82041","locality":"Oberhaching","municipality":{"key":"09184134","name":"Oberhaching","type":"Kreisangehörige_Gemeinde"},"district":{"key":"09184","name":"München","type":"Landkreis"},"federalState":{"key":"09","name":"Bayern"}},{"name":"Hasen Geräumt","postalCode":"82041","locality":"Oberhaching","municipality":{"key":"09184134","name":"Oberhaching","type":"Kreisangehörige_Gemeinde"},"district":{"key":"09184","name":"München","type":"Landkreis"},"federalState":{"key":"09","name":"Bayern"}},{"name":"Helfrichstr.","postalCode":"82041","locality":"Oberhaching","municipality":{"key":"09184134","name":"Oberhaching","type":"Kreisangehörige_Gemeinde"},"district":{"key":"09184","name":"München","type":"Landkreis"},"federalState":{"key":"09","name":"Bayern"}},{"name":"Hinteres Gleißental","postalCode":"82041","locality":"Oberhaching","municipality":{"key":"09184134","name":"Oberhaching","type":"Kreisangehörige_Gemeinde"},"district":{"key":"09184","name":"München","type":"Landkreis"},"federalState":{"key":"09","name":"Bayern"}},{"name":"Hirsch Geräumt","postalCode":"82041","locality":"Oberhaching","municipality":{"key":"09184134","name":"Oberhaching","type":"Kreisangehörige_Gemeinde"},"district":{"key":"09184","name":"München","type":"Landkreis"},"federalState":{"key":"09","name":"Bayern"}},{"name":"Hirtenweg","postalCode":"82041","locality":"Oberhaching","municipality":{"key":"09184134","name":"Oberhaching","type":"Kreisangehörige_Gemeinde"},"district":{"key":"09184","name":"München","type":"Landkreis"},"federalState":{"key":"09","name":"Bayern"}},{"name":"Hochäckerstr.","postalCode":"82041","locality":"Oberhaching","municipality":{"key":"09184134","name":"Oberhaching","type":"Kreisangehörige_Gemeinde"},"district":{"key":"09184","name":"München","type":"Landkreis"},"federalState":{"key":"09","name":"Bayern"}},{"name":"Hoffmannsteig","postalCode":"82041","locality":"Oberhaching","municipality":{"key":"09184134","name":"Oberhaching","type":"Kreisangehörige_Gemeinde"},"district":{"key":"09184","name":"München","type":"Landkreis"},"federalState":{"key":"09","name":"Bayern"}},{"name":"Hofmarkstr.","postalCode":"82041","locality":"Oberhaching","municipality":{"key":"09184134","name":"Oberhaching","type":"Kreisangehörige_Gemeinde"},"district":{"key":"09184","name":"München","type":"Landkreis"},"federalState":{"key":"09","name":"Bayern"}},{"name":"Hohenwaldstr.","postalCode":"82041","locality":"Oberhaching","municipality":{"key":"09184134","name":"Oberhaching","type":"Kreisangehörige_Gemeinde"},"district":{"key":"09184","name":"München","type":"Landkreis"},"federalState":{"key":"09","name":"Bayern"}},{"name":"Holzstr.","postalCode":"82041","locality":"Oberhaching","municipality":{"key":"09184134","name":"Oberhaching","type":"Kreisangehörige_Gemeinde"},"district":{"key":"09184","name":"München","type":"Landkreis"},"federalState":{"key":"09","name":"Bayern"}},{"name":"Holzwiesenweg","postalCode":"82041","locality":"Oberhaching","municipality":{"key":"09184134","name":"Oberhaching","type":"Kreisangehörige_Gemeinde"},"district":{"key":"09184","name":"München","type":"Landkreis"},"federalState":{"key":"09","name":"Bayern"}},{"name":"Hompesch-Geräumt","postalCode":"82041","locality":"Oberhaching","municipality":{"key":"09184134","name":"Oberhaching","type":"Kreisangehörige_Gemeinde"},"district":{"key":"09184","name":"München","type":"Landkreis"},"federalState":{"key":"09","name":"Bayern"}},{"name":"Hopfgartenweg","postalCode":"82041","locality":"Oberhaching","municipality":{"key":"09184134","name":"Oberhaching","type":"Kreisangehörige_Gemeinde"},"district":{"key":"09184","name":"München","type":"Landkreis"},"federalState":{"key":"09","name":"Bayern"}},{"name":"Hubertusplatz","postalCode":"82041","locality":"Oberhaching","municipality":{"key":"09184134","name":"Oberhaching","type":"Kreisangehörige_Gemeinde"},"district":{"key":"09184","name":"München","type":"Landkreis"},"federalState":{"key":"09","name":"Bayern"}},{"name":"Hubertusstr.","postalCode":"82041","locality":"Oberhaching","municipality":{"key":"09184134","name":"Oberhaching","type":"Kreisangehörige_Gemeinde"},"district":{"key":"09184","name":"München","type":"Landkreis"},"federalState":{"key":"09","name":"Bayern"}},{"name":"Ilse-Weitsch-Weg","postalCode":"82041","locality":"Oberhaching","municipality":{"key":"09184134","name":"Oberhaching","type":"Kreisangehörige_Gemeinde"},"district":{"key":"09184","name":"München","type":"Landkreis"},"federalState":{"key":"09","name":"Bayern"}},{"name":"Im Winkel","postalCode":"82041","locality":"Oberhaching","municipality":{"key":"09184134","name":"Oberhaching","type":"Kreisangehörige_Gemeinde"},"district":{"key":"09184","name":"München","type":"Landkreis"},"federalState":{"key":"09","name":"Bayern"}},{"name":"In der Eich","postalCode":"82041","locality":"Oberhaching","municipality":{"key":"09184134","name":"Oberhaching","type":"Kreisangehörige_Gemeinde"},"district":{"key":"09184","name":"München","type":"Landkreis"},"federalState":{"key":"09","name":"Bayern"}},{"name":"Innerer Stockweg","postalCode":"82041","locality":"Oberhaching","municipality":{"key":"09184134","name":"Oberhaching","type":"Kreisangehörige_Gemeinde"},"district":{"key":"09184","name":"München","type":"Landkreis"},"federalState":{"key":"09","name":"Bayern"}},{"name":"Jagdweg","postalCode":"82041","locality":"Oberhaching","municipality":{"key":"09184134","name":"Oberhaching","type":"Kreisangehörige_Gemeinde"},"district":{"key":"09184","name":"München","type":"Landkreis"},"federalState":{"key":"09","name":"Bayern"}},{"name":"Jägerstr.","postalCode":"82041","locality":"Oberhaching","municipality":{"key":"09184134","name":"Oberhaching","type":"Kreisangehörige_Gemeinde"},"district":{"key":"09184","name":"München","type":"Landkreis"},"federalState":{"key":"09","name":"Bayern"}},{"name":"Jettenhauser Str.","postalCode":"82041","locality":"Oberhaching","municipality":{"key":"09184134","name":"Oberhaching","type":"Kreisangehörige_Gemeinde"},"district":{"key":"09184","name":"München","type":"Landkreis"},"federalState":{"key":"09","name":"Bayern"}},{"name":"Josefstr.","postalCode":"82041","locality":"Oberhaching","municipality":{"key":"09184134","name":"Oberhaching","type":"Kreisangehörige_Gemeinde"},"district":{"key":"09184","name":"München","type":"Landkreis"},"federalState":{"key":"09","name":"Bayern"}},{"name":"Josef-Weigl-Str.","postalCode":"82041","locality":"Oberhaching","municipality":{"key":"09184134","name":"Oberhaching","type":"Kreisangehörige_Gemeinde"},"district":{"key":"09184","name":"München","type":"Landkreis"},"federalState":{"key":"09","name":"Bayern"}},{"name":"Kanapee Geräumt","postalCode":"82041","locality":"Oberhaching","municipality":{"key":"09184134","name":"Oberhaching","type":"Kreisangehörige_Gemeinde"},"district":{"key":"09184","name":"München","type":"Landkreis"},"federalState":{"key":"09","name":"Bayern"}},{"name":"Karlstr.","postalCode":"82041","locality":"Oberhaching","municipality":{"key":"09184134","name":"Oberhaching","type":"Kreisangehörige_Gemeinde"},"district":{"key":"09184","name":"München","type":"Landkreis"},"federalState":{"key":"09","name":"Bayern"}},{"name":"Karwendelstr.","postalCode":"82041","locality":"Oberhaching","municipality":{"key":"09184134","name":"Oberhaching","type":"Kreisangehörige_Gemeinde"},"district":{"key":"09184","name":"München","type":"Landkreis"},"federalState":{"key":"09","name":"Bayern"}},{"name":"Kastanienallee","postalCode":"82041","locality":"Oberhaching","municipality":{"key":"09184134","name":"Oberhaching","type":"Kreisangehörige_Gemeinde"},"district":{"key":"09184","name":"München","type":"Landkreis"},"federalState":{"key":"09","name":"Bayern"}},{"name":"Keltenring","postalCode":"82041","locality":"Oberhaching","municipality":{"key":"09184134","name":"Oberhaching","type":"Kreisangehörige_Gemeinde"},"district":{"key":"09184","name":"München","type":"Landkreis"},"federalState":{"key":"09","name":"Bayern"}},{"name":"Kettnerweg","postalCode":"82041","locality":"Oberhaching","municipality":{"key":"09184134","name":"Oberhaching","type":"Kreisangehörige_Gemeinde"},"district":{"key":"09184","name":"München","type":"Landkreis"},"federalState":{"key":"09","name":"Bayern"}},{"name":"Kiefernstr.","postalCode":"82041","locality":"Oberhaching","municipality":{"key":"09184134","name":"Oberhaching","type":"Kreisangehörige_Gemeinde"},"district":{"key":"09184","name":"München","type":"Landkreis"},"federalState":{"key":"09","name":"Bayern"}},{"name":"Kirchplatz","postalCode":"82041","locality":"Oberhaching","municipality":{"key":"09184134","name":"Oberhaching","type":"Kreisangehörige_Gemeinde"},"district":{"key":"09184","name":"München","type":"Landkreis"},"federalState":{"key":"09","name":"Bayern"}},{"name":"Kirchweg","postalCode":"82041","locality":"Oberhaching","municipality":{"key":"09184134","name":"Oberhaching","type":"Kreisangehörige_Gemeinde"},"district":{"key":"09184","name":"München","type":"Landkreis"},"federalState":{"key":"09","name":"Bayern"}},{"name":"Kohlstattstr.","postalCode":"82041","locality":"Oberhaching","municipality":{"key":"09184134","name":"Oberhaching","type":"Kreisangehörige_Gemeinde"},"district":{"key":"09184","name":"München","type":"Landkreis"},"federalState":{"key":"09","name":"Bayern"}},{"name":"Kolpingring","postalCode":"82041","locality":"Oberhaching","municipality":{"key":"09184134","name":"Oberhaching","type":"Kreisangehörige_Gemeinde"},"district":{"key":"09184","name":"München","type":"Landkreis"},"federalState":{"key":"09","name":"Bayern"}},{"name":"Königs-Geräumt","postalCode":"82041","locality":"Oberhaching","municipality":{"key":"09184134","name":"Oberhaching","type":"Kreisangehörige_Gemeinde"},"district":{"key":"09184","name":"München","type":"Landkreis"},"federalState":{"key":"09","name":"Bayern"}},{"name":"Kreuzenstr.","postalCode":"82041","locality":"Oberhaching","municipality":{"key":"09184134","name":"Oberhaching","type":"Kreisangehörige_Gemeinde"},"district":{"key":"09184","name":"München","type":"Landkreis"},"federalState":{"key":"09","name":"Bayern"}},{"name":"Kreuzpullach","postalCode":"82041","locality":"Oberhaching","municipality":{"key":"09184134","name":"Oberhaching","type":"Kreisangehörige_Gemeinde"},"district":{"key":"09184","name":"München","type":"Landkreis"},"federalState":{"key":"09","name":"Bayern"}},{"name":"Kreuzpullacher Weg","postalCode":"82041","locality":"Oberhaching","municipality":{"key":"09184134","name":"Oberhaching","type":"Kreisangehörige_Gemeinde"},"district":{"key":"09184","name":"München","type":"Landkreis"},"federalState":{"key":"09","name":"Bayern"}},{"name":"Kronprinz Geräumt","postalCode":"82041","locality":"Oberhaching","municipality":{"key":"09184134","name":"Oberhaching","type":"Kreisangehörige_Gemeinde"},"district":{"key":"09184","name":"München","type":"Landkreis"},"federalState":{"key":"09","name":"Bayern"}},{"name":"Kybergstr.","postalCode":"82041","locality":"Oberhaching","municipality":{"key":"09184134","name":"Oberhaching","type":"Kreisangehörige_Gemeinde"},"district":{"key":"09184","name":"München","type":"Landkreis"},"federalState":{"key":"09","name":"Bayern"}},{"name":"Landweg","postalCode":"82041","locality":"Oberhaching","municipality":{"key":"09184134","name":"Oberhaching","type":"Kreisangehörige_Gemeinde"},"district":{"key":"09184","name":"München","type":"Landkreis"},"federalState":{"key":"09","name":"Bayern"}},{"name":"Lanzenhaarer Str.","postalCode":"82041","locality":"Oberhaching","municipality":{"key":"09184134","name":"Oberhaching","type":"Kreisangehörige_Gemeinde"},"district":{"key":"09184","name":"München","type":"Landkreis"},"federalState":{"key":"09","name":"Bayern"}},{"name":"Lärchenstr.","postalCode":"82041","locality":"Oberhaching","municipality":{"key":"09184134","name":"Oberhaching","type":"Kreisangehörige_Gemeinde"},"district":{"key":"09184","name":"München","type":"Landkreis"},"federalState":{"key":"09","name":"Bayern"}},{"name":"Laufzorner Str.","postalCode":"82041","locality":"Oberhaching","municipality":{"key":"09184134","name":"Oberhaching","type":"Kreisangehörige_Gemeinde"},"district":{"key":"09184","name":"München","type":"Landkreis"},"federalState":{"key":"09","name":"Bayern"}},{"name":"Leonhardiweg","postalCode":"82041","locality":"Oberhaching","municipality":{"key":"09184134","name":"Oberhaching","type":"Kreisangehörige_Gemeinde"},"district":{"key":"09184","name":"München","type":"Landkreis"},"federalState":{"key":"09","name":"Bayern"}},{"name":"Lichtinger Weg","postalCode":"82041","locality":"Oberhaching","municipality":{"key":"09184134","name":"Oberhaching","type":"Kreisangehörige_Gemeinde"},"district":{"key":"09184","name":"München","type":"Landkreis"},"federalState":{"key":"09","name":"Bayern"}},{"name":"Lindenallee","postalCode":"82041","locality":"Oberhaching","municipality":{"key":"09184134","name":"Oberhaching","type":"Kreisangehörige_Gemeinde"},"district":{"key":"09184","name":"München","type":"Landkreis"},"federalState":{"key":"09","name":"Bayern"}},{"name":"Linienstr.","postalCode":"82041","locality":"Oberhaching","municipality":{"key":"09184134","name":"Oberhaching","type":"Kreisangehörige_Gemeinde"},"district":{"key":"09184","name":"München","type":"Landkreis"},"federalState":{"key":"09","name":"Bayern"}},{"name":"Linienstr.","postalCode":"82064","locality":"Oberhaching","municipality":{"key":"09184134","name":"Oberhaching","type":"Kreisangehörige_Gemeinde"},"district":{"key":"09184","name":"München","type":"Landkreis"},"federalState":{"key":"09","name":"Bayern"}},{"name":"Ludwig-Thoma-Str.","postalCode":"82041","locality":"Oberhaching","municipality":{"key":"09184134","name":"Oberhaching","type":"Kreisangehörige_Gemeinde"},"district":{"key":"09184","name":"München","type":"Landkreis"},"federalState":{"key":"09","name":"Bayern"}},{"name":"Marienplatz","postalCode":"82041","locality":"Oberhaching","municipality":{"key":"09184134","name":"Oberhaching","type":"Kreisangehörige_Gemeinde"},"district":{"key":"09184","name":"München","type":"Landkreis"},"federalState":{"key":"09","name":"Bayern"}},{"name":"Mathieslweg","postalCode":"82041","locality":"Oberhaching","municipality":{"key":"09184134","name":"Oberhaching","type":"Kreisangehörige_Gemeinde"},"district":{"key":"09184","name":"München","type":"Landkreis"},"federalState":{"key":"09","name":"Bayern"}},{"name":"Meilerweg","postalCode":"82041","locality":"Oberhaching","municipality":{"key":"09184134","name":"Oberhaching","type":"Kreisangehörige_Gemeinde"},"district":{"key":"09184","name":"München","type":"Landkreis"},"federalState":{"key":"09","name":"Bayern"}},{"name":"Münchner Str.","postalCode":"82041","locality":"Oberhaching","municipality":{"key":"09184134","name":"Oberhaching","type":"Kreisangehörige_Gemeinde"},"district":{"key":"09184","name":"München","type":"Landkreis"},"federalState":{"key":"09","name":"Bayern"}},{"name":"Mutznerweg","postalCode":"82041","locality":"Oberhaching","municipality":{"key":"09184134","name":"Oberhaching","type":"Kreisangehörige_Gemeinde"},"district":{"key":"09184","name":"München","type":"Landkreis"},"federalState":{"key":"09","name":"Bayern"}},{"name":"Nacht Geräumt","postalCode":"82041","locality":"Oberhaching","municipality":{"key":"09184134","name":"Oberhaching","type":"Kreisangehörige_Gemeinde"},"district":{"key":"09184","name":"München","type":"Landkreis"},"federalState":{"key":"09","name":"Bayern"}},{"name":"Oberanger","postalCode":"82041","locality":"Oberhaching","municipality":{"key":"09184134","name":"Oberhaching","type":"Kreisangehörige_Gemeinde"},"district":{"key":"09184","name":"München","type":"Landkreis"},"federalState":{"key":"09","name":"Bayern"}},{"name":"Oberbiberger Str.","postalCode":"82041","locality":"Oberhaching","municipality":{"key":"09184134","name":"Oberhaching","type":"Kreisangehörige_Gemeinde"},"district":{"key":"09184","name":"München","type":"Landkreis"},"federalState":{"key":"09","name":"Bayern"}},{"name":"Oetz-Geräumt","postalCode":"82041","locality":"Oberhaching","municipality":{"key":"09184134","name":"Oberhaching","type":"Kreisangehörige_Gemeinde"},"district":{"key":"09184","name":"München","type":"Landkreis"},"federalState":{"key":"09","name":"Bayern"}},{"name":"Pestalozzistr.","postalCode":"82041","locality":"Oberhaching","municipality":{"key":"09184134","name":"Oberhaching","type":"Kreisangehörige_Gemeinde"},"district":{"key":"09184","name":"München","type":"Landkreis"},"federalState":{"key":"09","name":"Bayern"}},{"name":"Pfaffensteig","postalCode":"82041","locality":"Oberhaching","municipality":{"key":"09184134","name":"Oberhaching","type":"Kreisangehörige_Gemeinde"},"district":{"key":"09184","name":"München","type":"Landkreis"},"federalState":{"key":"09","name":"Bayern"}},{"name":"Pfarrer-Hobmair-Weg","postalCode":"82041","locality":"Oberhaching","municipality":{"key":"09184134","name":"Oberhaching","type":"Kreisangehörige_Gemeinde"},"district":{"key":"09184","name":"München","type":"Landkreis"},"federalState":{"key":"09","name":"Bayern"}},{"name":"Pfarrer-Socher-Str.","postalCode":"82041","locality":"Oberhaching","municipality":{"key":"09184134","name":"Oberhaching","type":"Kreisangehörige_Gemeinde"},"district":{"key":"09184","name":"München","type":"Landkreis"},"federalState":{"key":"09","name":"Bayern"}},{"name":"Pfarrweg","postalCode":"82041","locality":"Oberhaching","municipality":{"key":"09184134","name":"Oberhaching","type":"Kreisangehörige_Gemeinde"},"district":{"key":"09184","name":"München","type":"Landkreis"},"federalState":{"key":"09","name":"Bayern"}},{"name":"Pullacher Kirchweg","postalCode":"82041","locality":"Oberhaching","municipality":{"key":"09184134","name":"Oberhaching","type":"Kreisangehörige_Gemeinde"},"district":{"key":"09184","name":"München","type":"Landkreis"},"federalState":{"key":"09","name":"Bayern"}},{"name":"Puppenspielerweg","postalCode":"82041","locality":"Oberhaching","municipality":{"key":"09184134","name":"Oberhaching","type":"Kreisangehörige_Gemeinde"},"district":{"key":"09184","name":"München","type":"Landkreis"},"federalState":{"key":"09","name":"Bayern"}},{"name":"Quagliostr.","postalCode":"81543","locality":"München","municipality":{"key":"09162000","name":"München, Landeshauptstadt","type":"Kreisfreie_Stadt"},"district":{"key":"09162","name":"München, Landeshauptstadt","type":"Kreisfreie_Stadt"},"federalState":{"key":"09","name":"Bayern"}},{"name":"Quedlinburger Str.","postalCode":"80992","locality":"München","municipality":{"key":"09162000","name":"München, Landeshauptstadt","type":"Kreisfreie_Stadt"},"district":{"key":"09162","name":"München, Landeshauptstadt","type":"Kreisfreie_Stadt"},"federalState":{"key":"09","name":"Bayern"}},{"name":"Quellweg","postalCode":"85551","locality":"Kirchheim bei München","municipality":{"key":"09184131","name":"Kirchheim b.München","type":"Kreisangehörige_Gemeinde"},"district":{"key":"09184","name":"München","type":"Landkreis"},"federalState":{"key":"09","name":"Bayern"}},{"name":"Queristr.","postalCode":"80689","locality":"München","municipality":{"key":"09162000","name":"München, Landeshauptstadt","type":"Kreisfreie_Stadt"},"district":{"key":"09162","name":"München, Landeshauptstadt","type":"Kreisfreie_Stadt"},"federalState":{"key":"09","name":"Bayern"}},{"name":"Querstr.","postalCode":"07589","locality":"Münchenbernsdorf","municipality":{"key":"16076049","name":"Münchenbernsdorf, Stadt","type":"Stadt"},"district":{"key":"16076","name":"Greiz","type":"Landkreis"},"federalState":{"key":"16","name":"Thüringen"}},{"name":"Quiddestr.","postalCode":"81735","locality":"München","municipality":{"key":"09162000","name":"München, Landeshauptstadt","type":"Kreisfreie_Stadt"},"district":{"key":"09162","name":"München, Landeshauptstadt","type":"Kreisfreie_Stadt"},"federalState":{"key":"09","name":"Bayern"}},{"name":"Quiddestr.","postalCode":"81737","locality":"München","municipality":{"key":"09162000","name":"München, Landeshauptstadt","type":"Kreisfreie_Stadt"},"district":{"key":"09162","name":"München, Landeshauptstadt","type":"Kreisfreie_Stadt"},"federalState":{"key":"09","name":"Bayern"}},{"name":"Raiffeisenallee","postalCode":"82041","locality":"Oberhaching","municipality":{"key":"09184134","name":"Oberhaching","type":"Kreisangehörige_Gemeinde"},"district":{"key":"09184","name":"München","type":"Landkreis"},"federalState":{"key":"09","name":"Bayern"}},{"name":"Ramsauer Weg","postalCode":"82041","locality":"Oberhaching","municipality":{"key":"09184134","name":"Oberhaching","type":"Kreisangehörige_Gemeinde"},"district":{"key":"09184","name":"München","type":"Landkreis"},"federalState":{"key":"09","name":"Bayern"}},{"name":"Reh Geräumt","postalCode":"82041","locality":"Oberhaching","municipality":{"key":"09184134","name":"Oberhaching","type":"Kreisangehörige_Gemeinde"},"district":{"key":"09184","name":"München","type":"Landkreis"},"federalState":{"key":"09","name":"Bayern"}},{"name":"Ringstr.","postalCode":"82041","locality":"Oberhaching","municipality":{"key":"09184134","name":"Oberhaching","type":"Kreisangehörige_Gemeinde"},"district":{"key":"09184","name":"München","type":"Landkreis"},"federalState":{"key":"09","name":"Bayern"}},{"name":"Rodung","postalCode":"82041","locality":"Oberhaching","municipality":{"key":"09184134","name":"Oberhaching","type":"Kreisangehörige_Gemeinde"},"district":{"key":"09184","name":"München","type":"Landkreis"},"federalState":{"key":"09","name":"Bayern"}},{"name":"Römerstr.","postalCode":"82041","locality":"Oberhaching","municipality":{"key":"09184134","name":"Oberhaching","type":"Kreisangehörige_Gemeinde"},"district":{"key":"09184","name":"München","type":"Landkreis"},"federalState":{"key":"09","name":"Bayern"}},{"name":"Rotwandstr.","postalCode":"82041","locality":"Oberhaching","municipality":{"key":"09184134","name":"Oberhaching","type":"Kreisangehörige_Gemeinde"},"district":{"key":"09184","name":"München","type":"Landkreis"},"federalState":{"key":"09","name":"Bayern"}},{"name":"Sankt-Rita-Weg","postalCode":"82041","locality":"Oberhaching","municipality":{"key":"09184134","name":"Oberhaching","type":"Kreisangehörige_Gemeinde"},"district":{"key":"09184","name":"München","type":"Landkreis"},"federalState":{"key":"09","name":"Bayern"}},{"name":"Sankt-Stephan-Weg","postalCode":"82041","locality":"Oberhaching","municipality":{"key":"09184134","name":"Oberhaching","type":"Kreisangehörige_Gemeinde"},"district":{"key":"09184","name":"München","type":"Landkreis"},"federalState":{"key":"09","name":"Bayern"}},{"name":"Sauerlacher Str.","postalCode":"82041","locality":"Oberhaching","municipality":{"key":"09184134","name":"Oberhaching","type":"Kreisangehörige_Gemeinde"},"district":{"key":"09184","name":"München","type":"Landkreis"},"federalState":{"key":"09","name":"Bayern"}},{"name":"Schäftlarner Weg","postalCode":"82041","locality":"Oberhaching","municipality":{"key":"09184134","name":"Oberhaching","type":"Kreisangehörige_Gemeinde"},"district":{"key":"09184","name":"München","type":"Landkreis"},"federalState":{"key":"09","name":"Bayern"}},{"name":"Schanzenweg","postalCode":"82041","locality":"Oberhaching","municipality":{"key":"09184134","name":"Oberhaching","type":"Kreisangehörige_Gemeinde"},"district":{"key":"09184","name":"München","type":"Landkreis"},"federalState":{"key":"09","name":"Bayern"}},{"name":"Schilcher Geräumt","postalCode":"82041","locality":"Oberhaching","municipality":{"key":"09184134","name":"Oberhaching","type":"Kreisangehörige_Gemeinde"},"district":{"key":"09184","name":"München","type":"Landkreis"},"federalState":{"key":"09","name":"Bayern"}},{"name":"Schulstr.","postalCode":"82041","locality":"Oberhaching","municipality":{"key":"09184134","name":"Oberhaching","type":"Kreisangehörige_Gemeinde"},"district":{"key":"09184","name":"München","type":"Landkreis"},"federalState":{"key":"09","name":"Bayern"}},{"name":"Schwaigerweg","postalCode":"82041","locality":"Oberhaching","municipality":{"key":"09184134","name":"Oberhaching","type":"Kreisangehörige_Gemeinde"},"district":{"key":"09184","name":"München","type":"Landkreis"},"federalState":{"key":"09","name":"Bayern"}},{"name":"Simerbauernweg","postalCode":"82041","locality":"Oberhaching","municipality":{"key":"09184134","name":"Oberhaching","type":"Kreisangehörige_Gemeinde"},"district":{"key":"09184","name":"München","type":"Landkreis"},"federalState":{"key":"09","name":"Bayern"}},{"name":"Sommerfeld","postalCode":"82041","locality":"Oberhaching","municipality":{"key":"09184134","name":"Oberhaching","type":"Kreisangehörige_Gemeinde"},"district":{"key":"09184","name":"München","type":"Landkreis"},"federalState":{"key":"09","name":"Bayern"}},{"name":"Sonnenläng","postalCode":"82041","locality":"Oberhaching","municipality":{"key":"09184134","name":"Oberhaching","type":"Kreisangehörige_Gemeinde"},"district":{"key":"09184","name":"München","type":"Landkreis"},"federalState":{"key":"09","name":"Bayern"}},{"name":"Stauchartinger Weg","postalCode":"82041","locality":"Oberhaching","municipality":{"key":"09184134","name":"Oberhaching","type":"Kreisangehörige_Gemeinde"},"district":{"key":"09184","name":"München","type":"Landkreis"},"federalState":{"key":"09","name":"Bayern"}},{"name":"Stefanienstr.","postalCode":"82041","locality":"Oberhaching","municipality":{"key":"09184134","name":"Oberhaching","type":"Kreisangehörige_Gemeinde"},"district":{"key":"09184","name":"München","type":"Landkreis"},"federalState":{"key":"09","name":"Bayern"}},{"name":"Streicherweg","postalCode":"82041","locality":"Oberhaching","municipality":{"key":"09184134","name":"Oberhaching","type":"Kreisangehörige_Gemeinde"},"district":{"key":"09184","name":"München","type":"Landkreis"},"federalState":{"key":"09","name":"Bayern"}},{"name":"Sulz Geräumt","postalCode":"82041","locality":"Oberhaching","municipality":{"key":"09184134","name":"Oberhaching","type":"Kreisangehörige_Gemeinde"},"district":{"key":"09184","name":"München","type":"Landkreis"},"federalState":{"key":"09","name":"Bayern"}},{"name":"Talanger","postalCode":"82041","locality":"Oberhaching","municipality":{"key":"09184134","name":"Oberhaching","type":"Kreisangehörige_Gemeinde"},"district":{"key":"09184","name":"München","type":"Landkreis"},"federalState":{"key":"09","name":"Bayern"}},{"name":"Tannenstr.","postalCode":"82041","locality":"Oberhaching","municipality":{"key":"09184134","name":"Oberhaching","type":"Kreisangehörige_Gemeinde"},"district":{"key":"09184","name":"München","type":"Landkreis"},"federalState":{"key":"09","name":"Bayern"}},{"name":"Tegernseer Weg","postalCode":"82041","locality":"Oberhaching","municipality":{"key":"09184134","name":"Oberhaching","type":"Kreisangehörige_Gemeinde"},"district":{"key":"09184","name":"München","type":"Landkreis"},"federalState":{"key":"09","name":"Bayern"}},{"name":"Thalerweg","postalCode":"82041","locality":"Oberhaching","municipality":{"key":"09184134","name":"Oberhaching","type":"Kreisangehörige_Gemeinde"},"district":{"key":"09184","name":"München","type":"Landkreis"},"federalState":{"key":"09","name":"Bayern"}},{"name":"Thingstr.","postalCode":"82041","locality":"Oberhaching","municipality":{"key":"09184134","name":"Oberhaching","type":"Kreisangehörige_Gemeinde"},"district":{"key":"09184","name":"München","type":"Landkreis"},"federalState":{"key":"09","name":"Bayern"}},{"name":"Tisinstr.","postalCode":"82041","locality":"Oberhaching","municipality":{"key":"09184134","name":"Oberhaching","type":"Kreisangehörige_Gemeinde"},"district":{"key":"09184","name":"München","type":"Landkreis"},"federalState":{"key":"09","name":"Bayern"}},{"name":"Tölzer Str.","postalCode":"82041","locality":"Oberhaching","municipality":{"key":"09184134","name":"Oberhaching","type":"Kreisangehörige_Gemeinde"},"district":{"key":"09184","name":"München","type":"Landkreis"},"federalState":{"key":"09","name":"Bayern"}},{"name":"Unteranger","postalCode":"82041","locality":"Oberhaching","municipality":{"key":"09184134","name":"Oberhaching","type":"Kreisangehörige_Gemeinde"},"district":{"key":"09184","name":"München","type":"Landkreis"},"federalState":{"key":"09","name":"Bayern"}},{"name":"Unterfeld","postalCode":"82041","locality":"Oberhaching","municipality":{"key":"09184134","name":"Oberhaching","type":"Kreisangehörige_Gemeinde"},"district":{"key":"09184","name":"München","type":"Landkreis"},"federalState":{"key":"09","name":"Bayern"}},{"name":"Vogelanger","postalCode":"82041","locality":"Oberhaching","municipality":{"key":"09184134","name":"Oberhaching","type":"Kreisangehörige_Gemeinde"},"district":{"key":"09184","name":"München","type":"Landkreis"},"federalState":{"key":"09","name":"Bayern"}},{"name":"Vogelherdweg","postalCode":"82041","locality":"Oberhaching","municipality":{"key":"09184134","name":"Oberhaching","type":"Kreisangehörige_Gemeinde"},"district":{"key":"09184","name":"München","type":"Landkreis"},"federalState":{"key":"09","name":"Bayern"}},{"name":"Vorderes Gleißental","postalCode":"82041","locality":"Oberhaching","municipality":{"key":"09184134","name":"Oberhaching","type":"Kreisangehörige_Gemeinde"},"district":{"key":"09184","name":"München","type":"Landkreis"},"federalState":{"key":"09","name":"Bayern"}},{"name":"Wagnerweg","postalCode":"82041","locality":"Oberhaching","municipality":{"key":"09184134","name":"Oberhaching","type":"Kreisangehörige_Gemeinde"},"district":{"key":"09184","name":"München","type":"Landkreis"},"federalState":{"key":"09","name":"Bayern"}},{"name":"Waldsiedlung","postalCode":"82041","locality":"Oberhaching","municipality":{"key":"09184134","name":"Oberhaching","type":"Kreisangehörige_Gemeinde"},"district":{"key":"09184","name":"München","type":"Landkreis"},"federalState":{"key":"09","name":"Bayern"}},{"name":"Waldstr.","postalCode":"82041","locality":"Oberhaching","municipality":{"key":"09184134","name":"Oberhaching","type":"Kreisangehörige_Gemeinde"},"district":{"key":"09184","name":"München","type":"Landkreis"},"federalState":{"key":"09","name":"Bayern"}},{"name":"Wallbergstr.","postalCode":"82041","locality":"Oberhaching","municipality":{"key":"09184134","name":"Oberhaching","type":"Kreisangehörige_Gemeinde"},"district":{"key":"09184","name":"München","type":"Landkreis"},"federalState":{"key":"09","name":"Bayern"}},{"name":"Weber Geräumt","postalCode":"82041","locality":"Oberhaching","municipality":{"key":"09184134","name":"Oberhaching","type":"Kreisangehörige_Gemeinde"},"district":{"key":"09184","name":"München","type":"Landkreis"},"federalState":{"key":"09","name":"Bayern"}},{"name":"Wendelsteinstr.","postalCode":"82041","locality":"Oberhaching","municipality":{"key":"09184134","name":"Oberhaching","type":"Kreisangehörige_Gemeinde"},"district":{"key":"09184","name":"München","type":"Landkreis"},"federalState":{"key":"09","name":"Bayern"}},{"name":"Wendenstr.","postalCode":"82041","locality":"Oberhaching","municipality":{"key":"09184134","name":"Oberhaching","type":"Kreisangehörige_Gemeinde"},"district":{"key":"09184","name":"München","type":"Landkreis"},"federalState":{"key":"09","name":"Bayern"}},{"name":"Winterfeld","postalCode":"82041","locality":"Oberhaching","municipality":{"key":"09184134","name":"Oberhaching","type":"Kreisangehörige_Gemeinde"},"district":{"key":"09184","name":"München","type":"Landkreis"},"federalState":{"key":"09","name":"Bayern"}},{"name":"Wolfzorner Str.","postalCode":"82041","locality":"Oberhaching","municipality":{"key":"09184134","name":"Oberhaching","type":"Kreisangehörige_Gemeinde"},"district":{"key":"09184","name":"München","type":"Landkreis"},"federalState":{"key":"09","name":"Bayern"}},{"name":"Wörnbrunner Str.","postalCode":"82041","locality":"Oberhaching","municipality":{"key":"09184134","name":"Oberhaching","type":"Kreisangehörige_Gemeinde"},"district":{"key":"09184","name":"München","type":"Landkreis"},"federalState":{"key":"09","name":"Bayern"}},{"name":"Xaver-Weismor-Str.","postalCode":"81829","locality":"München","municipality":{"key":"09162000","name":"München, Landeshauptstadt","type":"Kreisfreie_Stadt"},"district":{"key":"09162","name":"München, Landeshauptstadt","type":"Kreisfreie_Stadt"},"federalState":{"key":"09","name":"Bayern"}},{"name":"Yorckstr.","postalCode":"80637","locality":"München","municipality":{"key":"09162000","name":"München, Landeshauptstadt","type":"Kreisfreie_Stadt"},"district":{"key":"09162","name":"München, Landeshauptstadt","type":"Kreisfreie_Stadt"},"federalState":{"key":"09","name":"Bayern"}},{"name":"Ysenburgstr.","postalCode":"80634","locality":"München","municipality":{"key":"09162000","name":"München, Landeshauptstadt","type":"Kreisfreie_Stadt"},"district":{"key":"09162","name":"München, Landeshauptstadt","type":"Kreisfreie_Stadt"},"federalState":{"key":"09","name":"Bayern"}},{"name":"Zugspitzstr.","postalCode":"82041","locality":"Oberhaching","municipality":{"key":"09184134","name":"Oberhaching","type":"Kreisangehörige_Gemeinde"},"district":{"key":"09184","name":"München","type":"Landkreis"},"federalState":{"key":"09","name":"Bayern"}},{"name":"Äußerer Stockweg","postalCode":"82041","locality":"Oberhaching","municipality":{"key":"09184134","name":"Oberhaching","type":"Kreisangehörige_Gemeinde"},"district":{"key":"09184","name":"München","type":"Landkreis"},"federalState":{"key":"09","name":"Bayern"}},{"name":"Ödenpullach","postalCode":"82041","locality":"Oberhaching","municipality":{"key":"09184134","name":"Oberhaching","type":"Kreisangehörige_Gemeinde"},"district":{"key":"09184","name":"München","type":"Landkreis"},"federalState":{"key":"09","name":"Bayern"}},{"name":"Ödenpullacher Str.","postalCode":"82041","locality":"Oberhaching","municipality":{"key":"09184134","name":"Oberhaching","type":"Kreisangehörige_Gemeinde"},"district":{"key":"09184","name":"München","type":"Landkreis"},"federalState":{"key":"09","name":"Bayern"}},{"name":"Über der Klause","postalCode":"81545","locality":"München","municipality":{"key":"09162000","name":"München, Landeshauptstadt","type":"Kreisfreie_Stadt"},"district":{"key":"09162","name":"München, Landeshauptstadt","type":"Kreisfreie_Stadt"},"federalState":{"key":"09","name":"Bayern"}},{"name":"Überlinger Weg","postalCode":"81243","locality":"München","municipality":{"key":"09162000","name":"München, Landeshauptstadt","type":"Kreisfreie_Stadt"},"district":{"key":"09162","name":"München, Landeshauptstadt","type":"Kreisfreie_Stadt"},"federalState":{"key":"09","name":"Bayern"}},{"name":"Überreiterstr.","postalCode":"81247","locality":"München","municipality":{"key":"09162000","name":"München, Landeshauptstadt","type":"Kreisfreie_Stadt"},"district":{"key":"09162","name":"München, Landeshauptstadt","type":"Kreisfreie_Stadt"},"federalState":{"key":"09","name":"Bayern"}},{"name":"Überreiterweg","postalCode":"85748","locality":"Garching bei München","municipality":{"key":"09184119","name":"Garching b.München, St","type":"Stadt"},"district":{"key":"09184","name":"München","type":"Landkreis"},"federalState":{"key":"09","name":"Bayern"}},{"name":"Überrheinerstr.","postalCode":"85551","locality":"Kirchheim bei München","municipality":{"key":"09184131","name":"Kirchheim b.München","type":"Kreisangehörige_Gemeinde"},"district":{"key":"09184","name":"München","type":"Landkreis"},"federalState":{"key":"09","name":"Bayern"}},{"name":"Überseeplatz","postalCode":"81825","locality":"München","municipality":{"key":"09162000","name":"München, Landeshauptstadt","type":"Kreisfreie_Stadt"},"district":{"key":"09162","name":"München, Landeshauptstadt","type":"Kreisfreie_Stadt"},"federalState":{"key":"09","name":"Bayern"}},]