[{"name":"Adlerwarte","postalCode":"31020","locality":"Salzhemmendorf","municipality":{"key":"03252008","name":"Salzhemmendorf, Flecken","type":"Kreisangehörige_Gemeinde"},"district":{"key":"03252","name":"Hameln-Pyrmont","type":"Landkreis"},"federalState":{"key":"03","name":"Niedersachsen"}},{"name":"Ahornweg","postalCode":"31020","locality":"Salzhemmendorf","municipality":{"key":"03252008","name":"Salzhemmendorf, Flecken","type":"Kreisangehörige_Gemeinde"},"district":{"key":"03252","name":"Hameln-Pyrmont","type":"Landkreis"},"federalState":{"key":"03","name":"Niedersachsen"}},{"name":"Ahrenfelder Str.","postalCode":"31020","locality":"Salzhemmendorf","municipality":{"key":"03252008","name":"Salzhemmendorf, Flecken","type":"Kreisangehörige_Gemeinde"},"district":{"key":"03252","name":"Hameln-Pyrmont","type":"Landkreis"},"federalState":{"key":"03","name":"Niedersachsen"}},{"name":"Alleestr.","postalCode":"31020","locality":"Salzhemmendorf","municipality":{"key":"03252008","name":"Salzhemmendorf, Flecken","type":"Kreisangehörige_Gemeinde"},"district":{"key":"03252","name":"Hameln-Pyrmont","type":"Landkreis"},"federalState":{"key":"03","name":"Niedersachsen"}},{"name":"Alte Dorfstr.","postalCode":"29579","locality":"Emmendorf","municipality":{"key":"03360008","name":"Emmendorf","type":"Kreisangehörige_Gemeinde"},"district":{"key":"03360","name":"Uelzen","type":"Landkreis"},"federalState":{"key":"03","name":"Niedersachsen"}},{"name":"Alte Heerstr.","postalCode":"31020","locality":"Salzhemmendorf","municipality":{"key":"03252008","name":"Salzhemmendorf, Flecken","type":"Kreisangehörige_Gemeinde"},"district":{"key":"03252","name":"Hameln-Pyrmont","type":"Landkreis"},"federalState":{"key":"03","name":"Niedersachsen"}},{"name":"Alter Graben","postalCode":"31020","locality":"Salzhemmendorf","municipality":{"key":"03252008","name":"Salzhemmendorf, Flecken","type":"Kreisangehörige_Gemeinde"},"district":{"key":"03252","name":"Hameln-Pyrmont","type":"Landkreis"},"federalState":{"key":"03","name":"Niedersachsen"}},{"name":"Alter Kirchweg","postalCode":"31020","locality":"Salzhemmendorf","municipality":{"key":"03252008","name":"Salzhemmendorf, Flecken","type":"Kreisangehörige_Gemeinde"},"district":{"key":"03252","name":"Hameln-Pyrmont","type":"Landkreis"},"federalState":{"key":"03","name":"Niedersachsen"}},{"name":"Alter Pfarrgarten","postalCode":"31020","locality":"Salzhemmendorf","municipality":{"key":"03252008","name":"Salzhemmendorf, Flecken","type":"Kreisangehörige_Gemeinde"},"district":{"key":"03252","name":"Hameln-Pyrmont","type":"Landkreis"},"federalState":{"key":"03","name":"Niedersachsen"}},{"name":"Alter Schulbrink","postalCode":"31020","locality":"Salzhemmendorf","municipality":{"key":"03252008","name":"Salzhemmendorf, Flecken","type":"Kreisangehörige_Gemeinde"},"district":{"key":"03252","name":"Hameln-Pyrmont","type":"Landkreis"},"federalState":{"key":"03","name":"Niedersachsen"}},{"name":"Alte Salzstr.","postalCode":"29579","locality":"Emmendorf","municipality":{"key":"03360008","name":"Emmendorf","type":"Kreisangehörige_Gemeinde"},"district":{"key":"03360","name":"Uelzen","type":"Landkreis"},"federalState":{"key":"03","name":"Niedersachsen"}},{"name":"Alte Str.","postalCode":"31020","locality":"Salzhemmendorf","municipality":{"key":"03252008","name":"Salzhemmendorf, Flecken","type":"Kreisangehörige_Gemeinde"},"district":{"key":"03252","name":"Hameln-Pyrmont","type":"Landkreis"},"federalState":{"key":"03","name":"Niedersachsen"}},{"name":"Am Anhalt","postalCode":"31020","locality":"Salzhemmendorf","municipality":{"key":"03252008","name":"Salzhemmendorf, Flecken","type":"Kreisangehörige_Gemeinde"},"district":{"key":"03252","name":"Hameln-Pyrmont","type":"Landkreis"},"federalState":{"key":"03","name":"Niedersachsen"}},{"name":"Am Bahnhof","postalCode":"31020","locality":"Salzhemmendorf","municipality":{"key":"03252008","name":"Salzhemmendorf, Flecken","type":"Kreisangehörige_Gemeinde"},"district":{"key":"03252","name":"Hameln-Pyrmont","type":"Landkreis"},"federalState":{"key":"03","name":"Niedersachsen"}},{"name":"Am Brunnen","postalCode":"31020","locality":"Salzhemmendorf","municipality":{"key":"03252008","name":"Salzhemmendorf, Flecken","type":"Kreisangehörige_Gemeinde"},"district":{"key":"03252","name":"Hameln-Pyrmont","type":"Landkreis"},"federalState":{"key":"03","name":"Niedersachsen"}},{"name":"Am Dreisch","postalCode":"31020","locality":"Salzhemmendorf","municipality":{"key":"03252008","name":"Salzhemmendorf, Flecken","type":"Kreisangehörige_Gemeinde"},"district":{"key":"03252","name":"Hameln-Pyrmont","type":"Landkreis"},"federalState":{"key":"03","name":"Niedersachsen"}},{"name":"Am Freibad","postalCode":"31020","locality":"Salzhemmendorf","municipality":{"key":"03252008","name":"Salzhemmendorf, Flecken","type":"Kreisangehörige_Gemeinde"},"district":{"key":"03252","name":"Hameln-Pyrmont","type":"Landkreis"},"federalState":{"key":"03","name":"Niedersachsen"}},{"name":"Am Hagenbrink","postalCode":"31020","locality":"Salzhemmendorf","municipality":{"key":"03252008","name":"Salzhemmendorf, Flecken","type":"Kreisangehörige_Gemeinde"},"district":{"key":"03252","name":"Hameln-Pyrmont","type":"Landkreis"},"federalState":{"key":"03","name":"Niedersachsen"}},{"name":"Am Harzenberg","postalCode":"29579","locality":"Emmendorf","municipality":{"key":"03360008","name":"Emmendorf","type":"Kreisangehörige_Gemeinde"},"district":{"key":"03360","name":"Uelzen","type":"Landkreis"},"federalState":{"key":"03","name":"Niedersachsen"}},{"name":"Am Hüttentor","postalCode":"31020","locality":"Salzhemmendorf","municipality":{"key":"03252008","name":"Salzhemmendorf, Flecken","type":"Kreisangehörige_Gemeinde"},"district":{"key":"03252","name":"Hameln-Pyrmont","type":"Landkreis"},"federalState":{"key":"03","name":"Niedersachsen"}},{"name":"Am Katzenbrink","postalCode":"31020","locality":"Salzhemmendorf","municipality":{"key":"03252008","name":"Salzhemmendorf, Flecken","type":"Kreisangehörige_Gemeinde"},"district":{"key":"03252","name":"Hameln-Pyrmont","type":"Landkreis"},"federalState":{"key":"03","name":"Niedersachsen"}},{"name":"Am Kindergarten","postalCode":"31020","locality":"Salzhemmendorf","municipality":{"key":"03252008","name":"Salzhemmendorf, Flecken","type":"Kreisangehörige_Gemeinde"},"district":{"key":"03252","name":"Hameln-Pyrmont","type":"Landkreis"},"federalState":{"key":"03","name":"Niedersachsen"}},{"name":"Am Kirchsteig","postalCode":"31020","locality":"Salzhemmendorf","municipality":{"key":"03252008","name":"Salzhemmendorf, Flecken","type":"Kreisangehörige_Gemeinde"},"district":{"key":"03252","name":"Hameln-Pyrmont","type":"Landkreis"},"federalState":{"key":"03","name":"Niedersachsen"}},{"name":"Am Knickbrink","postalCode":"31020","locality":"Salzhemmendorf","municipality":{"key":"03252008","name":"Salzhemmendorf, Flecken","type":"Kreisangehörige_Gemeinde"},"district":{"key":"03252","name":"Hameln-Pyrmont","type":"Landkreis"},"federalState":{"key":"03","name":"Niedersachsen"}},{"name":"Am Knübel","postalCode":"31020","locality":"Salzhemmendorf","municipality":{"key":"03252008","name":"Salzhemmendorf, Flecken","type":"Kreisangehörige_Gemeinde"},"district":{"key":"03252","name":"Hameln-Pyrmont","type":"Landkreis"},"federalState":{"key":"03","name":"Niedersachsen"}},{"name":"Am Kohlenberg","postalCode":"31020","locality":"Salzhemmendorf","municipality":{"key":"03252008","name":"Salzhemmendorf, Flecken","type":"Kreisangehörige_Gemeinde"},"district":{"key":"03252","name":"Hameln-Pyrmont","type":"Landkreis"},"federalState":{"key":"03","name":"Niedersachsen"}},{"name":"Am Mühlenbach","postalCode":"31020","locality":"Salzhemmendorf","municipality":{"key":"03252008","name":"Salzhemmendorf, Flecken","type":"Kreisangehörige_Gemeinde"},"district":{"key":"03252","name":"Hameln-Pyrmont","type":"Landkreis"},"federalState":{"key":"03","name":"Niedersachsen"}},{"name":"Am Mühlengraben","postalCode":"31020","locality":"Salzhemmendorf","municipality":{"key":"03252008","name":"Salzhemmendorf, Flecken","type":"Kreisangehörige_Gemeinde"},"district":{"key":"03252","name":"Hameln-Pyrmont","type":"Landkreis"},"federalState":{"key":"03","name":"Niedersachsen"}},{"name":"Am Osterbrink","postalCode":"31020","locality":"Salzhemmendorf","municipality":{"key":"03252008","name":"Salzhemmendorf, Flecken","type":"Kreisangehörige_Gemeinde"},"district":{"key":"03252","name":"Hameln-Pyrmont","type":"Landkreis"},"federalState":{"key":"03","name":"Niedersachsen"}},{"name":"Am Pfingstanger","postalCode":"31020","locality":"Salzhemmendorf","municipality":{"key":"03252008","name":"Salzhemmendorf, Flecken","type":"Kreisangehörige_Gemeinde"},"district":{"key":"03252","name":"Hameln-Pyrmont","type":"Landkreis"},"federalState":{"key":"03","name":"Niedersachsen"}},{"name":"Am Querfeld","postalCode":"31020","locality":"Salzhemmendorf","municipality":{"key":"03252008","name":"Salzhemmendorf, Flecken","type":"Kreisangehörige_Gemeinde"},"district":{"key":"03252","name":"Hameln-Pyrmont","type":"Landkreis"},"federalState":{"key":"03","name":"Niedersachsen"}},{"name":"Am Rischkamp","postalCode":"31020","locality":"Salzhemmendorf","municipality":{"key":"03252008","name":"Salzhemmendorf, Flecken","type":"Kreisangehörige_Gemeinde"},"district":{"key":"03252","name":"Hameln-Pyrmont","type":"Landkreis"},"federalState":{"key":"03","name":"Niedersachsen"}},{"name":"Am Schmiedebrink","postalCode":"31020","locality":"Salzhemmendorf","municipality":{"key":"03252008","name":"Salzhemmendorf, Flecken","type":"Kreisangehörige_Gemeinde"},"district":{"key":"03252","name":"Hameln-Pyrmont","type":"Landkreis"},"federalState":{"key":"03","name":"Niedersachsen"}},{"name":"Amselweg","postalCode":"29579","locality":"Emmendorf","municipality":{"key":"03360008","name":"Emmendorf","type":"Kreisangehörige_Gemeinde"},"district":{"key":"03360","name":"Uelzen","type":"Landkreis"},"federalState":{"key":"03","name":"Niedersachsen"}},{"name":"Amselweg","postalCode":"31020","locality":"Salzhemmendorf","municipality":{"key":"03252008","name":"Salzhemmendorf, Flecken","type":"Kreisangehörige_Gemeinde"},"district":{"key":"03252","name":"Hameln-Pyrmont","type":"Landkreis"},"federalState":{"key":"03","name":"Niedersachsen"}},{"name":"Am Sportplatz","postalCode":"31020","locality":"Salzhemmendorf","municipality":{"key":"03252008","name":"Salzhemmendorf, Flecken","type":"Kreisangehörige_Gemeinde"},"district":{"key":"03252","name":"Hameln-Pyrmont","type":"Landkreis"},"federalState":{"key":"03","name":"Niedersachsen"}},{"name":"Am Steinhof","postalCode":"31020","locality":"Salzhemmendorf","municipality":{"key":"03252008","name":"Salzhemmendorf, Flecken","type":"Kreisangehörige_Gemeinde"},"district":{"key":"03252","name":"Hameln-Pyrmont","type":"Landkreis"},"federalState":{"key":"03","name":"Niedersachsen"}},{"name":"Am Wasserstollen","postalCode":"31020","locality":"Salzhemmendorf","municipality":{"key":"03252008","name":"Salzhemmendorf, Flecken","type":"Kreisangehörige_Gemeinde"},"district":{"key":"03252","name":"Hameln-Pyrmont","type":"Landkreis"},"federalState":{"key":"03","name":"Niedersachsen"}},{"name":"Am Wehr","postalCode":"31020","locality":"Salzhemmendorf","municipality":{"key":"03252008","name":"Salzhemmendorf, Flecken","type":"Kreisangehörige_Gemeinde"},"district":{"key":"03252","name":"Hameln-Pyrmont","type":"Landkreis"},"federalState":{"key":"03","name":"Niedersachsen"}},{"name":"Am Weinberg","postalCode":"29579","locality":"Emmendorf","municipality":{"key":"03360008","name":"Emmendorf","type":"Kreisangehörige_Gemeinde"},"district":{"key":"03360","name":"Uelzen","type":"Landkreis"},"federalState":{"key":"03","name":"Niedersachsen"}},{"name":"Am Wellenbache","postalCode":"31020","locality":"Salzhemmendorf","municipality":{"key":"03252008","name":"Salzhemmendorf, Flecken","type":"Kreisangehörige_Gemeinde"},"district":{"key":"03252","name":"Hameln-Pyrmont","type":"Landkreis"},"federalState":{"key":"03","name":"Niedersachsen"}},{"name":"An den Eichen","postalCode":"31020","locality":"Salzhemmendorf","municipality":{"key":"03252008","name":"Salzhemmendorf, Flecken","type":"Kreisangehörige_Gemeinde"},"district":{"key":"03252","name":"Hameln-Pyrmont","type":"Landkreis"},"federalState":{"key":"03","name":"Niedersachsen"}},{"name":"An den Fichten","postalCode":"31020","locality":"Salzhemmendorf","municipality":{"key":"03252008","name":"Salzhemmendorf, Flecken","type":"Kreisangehörige_Gemeinde"},"district":{"key":"03252","name":"Hameln-Pyrmont","type":"Landkreis"},"federalState":{"key":"03","name":"Niedersachsen"}},{"name":"An den Flachsrotten","postalCode":"31020","locality":"Salzhemmendorf","municipality":{"key":"03252008","name":"Salzhemmendorf, Flecken","type":"Kreisangehörige_Gemeinde"},"district":{"key":"03252","name":"Hameln-Pyrmont","type":"Landkreis"},"federalState":{"key":"03","name":"Niedersachsen"}},{"name":"An der Aue","postalCode":"31020","locality":"Salzhemmendorf","municipality":{"key":"03252008","name":"Salzhemmendorf, Flecken","type":"Kreisangehörige_Gemeinde"},"district":{"key":"03252","name":"Hameln-Pyrmont","type":"Landkreis"},"federalState":{"key":"03","name":"Niedersachsen"}},{"name":"An der Bimmelglocke","postalCode":"31020","locality":"Salzhemmendorf","municipality":{"key":"03252008","name":"Salzhemmendorf, Flecken","type":"Kreisangehörige_Gemeinde"},"district":{"key":"03252","name":"Hameln-Pyrmont","type":"Landkreis"},"federalState":{"key":"03","name":"Niedersachsen"}},{"name":"An der Freilichtbühne","postalCode":"31020","locality":"Salzhemmendorf","municipality":{"key":"03252008","name":"Salzhemmendorf, Flecken","type":"Kreisangehörige_Gemeinde"},"district":{"key":"03252","name":"Hameln-Pyrmont","type":"Landkreis"},"federalState":{"key":"03","name":"Niedersachsen"}},{"name":"An der Höhe","postalCode":"31020","locality":"Salzhemmendorf","municipality":{"key":"03252008","name":"Salzhemmendorf, Flecken","type":"Kreisangehörige_Gemeinde"},"district":{"key":"03252","name":"Hameln-Pyrmont","type":"Landkreis"},"federalState":{"key":"03","name":"Niedersachsen"}},{"name":"An der Ilmenau","postalCode":"29579","locality":"Emmendorf","municipality":{"key":"03360008","name":"Emmendorf","type":"Kreisangehörige_Gemeinde"},"district":{"key":"03360","name":"Uelzen","type":"Landkreis"},"federalState":{"key":"03","name":"Niedersachsen"}},{"name":"An der Jägerhütte","postalCode":"31020","locality":"Salzhemmendorf","municipality":{"key":"03252008","name":"Salzhemmendorf, Flecken","type":"Kreisangehörige_Gemeinde"},"district":{"key":"03252","name":"Hameln-Pyrmont","type":"Landkreis"},"federalState":{"key":"03","name":"Niedersachsen"}},{"name":"Bachstr.","postalCode":"31020","locality":"Salzhemmendorf","municipality":{"key":"03252008","name":"Salzhemmendorf, Flecken","type":"Kreisangehörige_Gemeinde"},"district":{"key":"03252","name":"Hameln-Pyrmont","type":"Landkreis"},"federalState":{"key":"03","name":"Niedersachsen"}},{"name":"Badestr.","postalCode":"31020","locality":"Salzhemmendorf","municipality":{"key":"03252008","name":"Salzhemmendorf, Flecken","type":"Kreisangehörige_Gemeinde"},"district":{"key":"03252","name":"Hameln-Pyrmont","type":"Landkreis"},"federalState":{"key":"03","name":"Niedersachsen"}},{"name":"Bahnhofstr.","postalCode":"29579","locality":"Emmendorf","municipality":{"key":"03360008","name":"Emmendorf","type":"Kreisangehörige_Gemeinde"},"district":{"key":"03360","name":"Uelzen","type":"Landkreis"},"federalState":{"key":"03","name":"Niedersachsen"}},{"name":"Bahnhofstr.","postalCode":"31020","locality":"Salzhemmendorf","municipality":{"key":"03252008","name":"Salzhemmendorf, Flecken","type":"Kreisangehörige_Gemeinde"},"district":{"key":"03252","name":"Hameln-Pyrmont","type":"Landkreis"},"federalState":{"key":"03","name":"Niedersachsen"}},{"name":"Bahnhofsweg","postalCode":"31020","locality":"Salzhemmendorf","municipality":{"key":"03252008","name":"Salzhemmendorf, Flecken","type":"Kreisangehörige_Gemeinde"},"district":{"key":"03252","name":"Hameln-Pyrmont","type":"Landkreis"},"federalState":{"key":"03","name":"Niedersachsen"}},{"name":"Bärlauchweg","postalCode":"31020","locality":"Salzhemmendorf","municipality":{"key":"03252008","name":"Salzhemmendorf, Flecken","type":"Kreisangehörige_Gemeinde"},"district":{"key":"03252","name":"Hameln-Pyrmont","type":"Landkreis"},"federalState":{"key":"03","name":"Niedersachsen"}},{"name":"Beekstr.","postalCode":"31020","locality":"Salzhemmendorf","municipality":{"key":"03252008","name":"Salzhemmendorf, Flecken","type":"Kreisangehörige_Gemeinde"},"district":{"key":"03252","name":"Hameln-Pyrmont","type":"Landkreis"},"federalState":{"key":"03","name":"Niedersachsen"}},{"name":"Bergmannssiedlung","postalCode":"31020","locality":"Salzhemmendorf","municipality":{"key":"03252008","name":"Salzhemmendorf, Flecken","type":"Kreisangehörige_Gemeinde"},"district":{"key":"03252","name":"Hameln-Pyrmont","type":"Landkreis"},"federalState":{"key":"03","name":"Niedersachsen"}},{"name":"Bergstr.","postalCode":"31020","locality":"Salzhemmendorf","municipality":{"key":"03252008","name":"Salzhemmendorf, Flecken","type":"Kreisangehörige_Gemeinde"},"district":{"key":"03252","name":"Hameln-Pyrmont","type":"Landkreis"},"federalState":{"key":"03","name":"Niedersachsen"}},{"name":"Berliner Str.","postalCode":"31020","locality":"Salzhemmendorf","municipality":{"key":"03252008","name":"Salzhemmendorf, Flecken","type":"Kreisangehörige_Gemeinde"},"district":{"key":"03252","name":"Hameln-Pyrmont","type":"Landkreis"},"federalState":{"key":"03","name":"Niedersachsen"}},{"name":"Bernhard-Flemes-Str.","postalCode":"31020","locality":"Salzhemmendorf","municipality":{"key":"03252008","name":"Salzhemmendorf, Flecken","type":"Kreisangehörige_Gemeinde"},"district":{"key":"03252","name":"Hameln-Pyrmont","type":"Landkreis"},"federalState":{"key":"03","name":"Niedersachsen"}},{"name":"Besenbinderstr.","postalCode":"31020","locality":"Salzhemmendorf","municipality":{"key":"03252008","name":"Salzhemmendorf, Flecken","type":"Kreisangehörige_Gemeinde"},"district":{"key":"03252","name":"Hameln-Pyrmont","type":"Landkreis"},"federalState":{"key":"03","name":"Niedersachsen"}},{"name":"Bevenser Str.","postalCode":"29579","locality":"Emmendorf","municipality":{"key":"03360008","name":"Emmendorf","type":"Kreisangehörige_Gemeinde"},"district":{"key":"03360","name":"Uelzen","type":"Landkreis"},"federalState":{"key":"03","name":"Niedersachsen"}},{"name":"Birkenkamp","postalCode":"31020","locality":"Salzhemmendorf","municipality":{"key":"03252008","name":"Salzhemmendorf, Flecken","type":"Kreisangehörige_Gemeinde"},"district":{"key":"03252","name":"Hameln-Pyrmont","type":"Landkreis"},"federalState":{"key":"03","name":"Niedersachsen"}},{"name":"Birkenweg","postalCode":"31020","locality":"Salzhemmendorf","municipality":{"key":"03252008","name":"Salzhemmendorf, Flecken","type":"Kreisangehörige_Gemeinde"},"district":{"key":"03252","name":"Hameln-Pyrmont","type":"Landkreis"},"federalState":{"key":"03","name":"Niedersachsen"}},{"name":"Blumenstr.","postalCode":"31020","locality":"Salzhemmendorf","municipality":{"key":"03252008","name":"Salzhemmendorf, Flecken","type":"Kreisangehörige_Gemeinde"},"district":{"key":"03252","name":"Hameln-Pyrmont","type":"Landkreis"},"federalState":{"key":"03","name":"Niedersachsen"}},{"name":"Braunschweiger Str.","postalCode":"31020","locality":"Salzhemmendorf","municipality":{"key":"03252008","name":"Salzhemmendorf, Flecken","type":"Kreisangehörige_Gemeinde"},"district":{"key":"03252","name":"Hameln-Pyrmont","type":"Landkreis"},"federalState":{"key":"03","name":"Niedersachsen"}},{"name":"Breiter Weg","postalCode":"31020","locality":"Salzhemmendorf","municipality":{"key":"03252008","name":"Salzhemmendorf, Flecken","type":"Kreisangehörige_Gemeinde"},"district":{"key":"03252","name":"Hameln-Pyrmont","type":"Landkreis"},"federalState":{"key":"03","name":"Niedersachsen"}},{"name":"Breslauer Str.","postalCode":"31020","locality":"Salzhemmendorf","municipality":{"key":"03252008","name":"Salzhemmendorf, Flecken","type":"Kreisangehörige_Gemeinde"},"district":{"key":"03252","name":"Hameln-Pyrmont","type":"Landkreis"},"federalState":{"key":"03","name":"Niedersachsen"}},{"name":"Bruchweg","postalCode":"31020","locality":"Salzhemmendorf","municipality":{"key":"03252008","name":"Salzhemmendorf, Flecken","type":"Kreisangehörige_Gemeinde"},"district":{"key":"03252","name":"Hameln-Pyrmont","type":"Landkreis"},"federalState":{"key":"03","name":"Niedersachsen"}},{"name":"Brückenstr.","postalCode":"29579","locality":"Emmendorf","municipality":{"key":"03360008","name":"Emmendorf","type":"Kreisangehörige_Gemeinde"},"district":{"key":"03360","name":"Uelzen","type":"Landkreis"},"federalState":{"key":"03","name":"Niedersachsen"}},{"name":"Brückenstr.","postalCode":"31020","locality":"Salzhemmendorf","municipality":{"key":"03252008","name":"Salzhemmendorf, Flecken","type":"Kreisangehörige_Gemeinde"},"district":{"key":"03252","name":"Hameln-Pyrmont","type":"Landkreis"},"federalState":{"key":"03","name":"Niedersachsen"}},{"name":"Brunnenstr.","postalCode":"31020","locality":"Salzhemmendorf","municipality":{"key":"03252008","name":"Salzhemmendorf, Flecken","type":"Kreisangehörige_Gemeinde"},"district":{"key":"03252","name":"Hameln-Pyrmont","type":"Landkreis"},"federalState":{"key":"03","name":"Niedersachsen"}},{"name":"Brunnenweg","postalCode":"31020","locality":"Salzhemmendorf","municipality":{"key":"03252008","name":"Salzhemmendorf, Flecken","type":"Kreisangehörige_Gemeinde"},"district":{"key":"03252","name":"Hameln-Pyrmont","type":"Landkreis"},"federalState":{"key":"03","name":"Niedersachsen"}},{"name":"Bürgermeister-Marahrens-Str.","postalCode":"31020","locality":"Salzhemmendorf","municipality":{"key":"03252008","name":"Salzhemmendorf, Flecken","type":"Kreisangehörige_Gemeinde"},"district":{"key":"03252","name":"Hameln-Pyrmont","type":"Landkreis"},"federalState":{"key":"03","name":"Niedersachsen"}},{"name":"Bürgerpark","postalCode":"31020","locality":"Salzhemmendorf","municipality":{"key":"03252008","name":"Salzhemmendorf, Flecken","type":"Kreisangehörige_Gemeinde"},"district":{"key":"03252","name":"Hameln-Pyrmont","type":"Landkreis"},"federalState":{"key":"03","name":"Niedersachsen"}},{"name":"Burgstr.","postalCode":"31020","locality":"Salzhemmendorf","municipality":{"key":"03252008","name":"Salzhemmendorf, Flecken","type":"Kreisangehörige_Gemeinde"},"district":{"key":"03252","name":"Hameln-Pyrmont","type":"Landkreis"},"federalState":{"key":"03","name":"Niedersachsen"}},{"name":"Burgweg","postalCode":"31020","locality":"Salzhemmendorf","municipality":{"key":"03252008","name":"Salzhemmendorf, Flecken","type":"Kreisangehörige_Gemeinde"},"district":{"key":"03252","name":"Hameln-Pyrmont","type":"Landkreis"},"federalState":{"key":"03","name":"Niedersachsen"}},{"name":"Calenberger Allee","postalCode":"31020","locality":"Salzhemmendorf","municipality":{"key":"03252008","name":"Salzhemmendorf, Flecken","type":"Kreisangehörige_Gemeinde"},"district":{"key":"03252","name":"Hameln-Pyrmont","type":"Landkreis"},"federalState":{"key":"03","name":"Niedersachsen"}},{"name":"Chemnitzer Str.","postalCode":"31020","locality":"Salzhemmendorf","municipality":{"key":"03252008","name":"Salzhemmendorf, Flecken","type":"Kreisangehörige_Gemeinde"},"district":{"key":"03252","name":"Hameln-Pyrmont","type":"Landkreis"},"federalState":{"key":"03","name":"Niedersachsen"}},{"name":"Dachsgang","postalCode":"31020","locality":"Salzhemmendorf","municipality":{"key":"03252008","name":"Salzhemmendorf, Flecken","type":"Kreisangehörige_Gemeinde"},"district":{"key":"03252","name":"Hameln-Pyrmont","type":"Landkreis"},"federalState":{"key":"03","name":"Niedersachsen"}},{"name":"Dahlienweg","postalCode":"31020","locality":"Salzhemmendorf","municipality":{"key":"03252008","name":"Salzhemmendorf, Flecken","type":"Kreisangehörige_Gemeinde"},"district":{"key":"03252","name":"Hameln-Pyrmont","type":"Landkreis"},"federalState":{"key":"03","name":"Niedersachsen"}},{"name":"Dammstr.","postalCode":"31020","locality":"Salzhemmendorf","municipality":{"key":"03252008","name":"Salzhemmendorf, Flecken","type":"Kreisangehörige_Gemeinde"},"district":{"key":"03252","name":"Hameln-Pyrmont","type":"Landkreis"},"federalState":{"key":"03","name":"Niedersachsen"}},{"name":"Dehne","postalCode":"31020","locality":"Salzhemmendorf","municipality":{"key":"03252008","name":"Salzhemmendorf, Flecken","type":"Kreisangehörige_Gemeinde"},"district":{"key":"03252","name":"Hameln-Pyrmont","type":"Landkreis"},"federalState":{"key":"03","name":"Niedersachsen"}},{"name":"Dorfstr.","postalCode":"31020","locality":"Salzhemmendorf","municipality":{"key":"03252008","name":"Salzhemmendorf, Flecken","type":"Kreisangehörige_Gemeinde"},"district":{"key":"03252","name":"Hameln-Pyrmont","type":"Landkreis"},"federalState":{"key":"03","name":"Niedersachsen"}},{"name":"Dr.-Ebeling-Str.","postalCode":"31020","locality":"Salzhemmendorf","municipality":{"key":"03252008","name":"Salzhemmendorf, Flecken","type":"Kreisangehörige_Gemeinde"},"district":{"key":"03252","name":"Hameln-Pyrmont","type":"Landkreis"},"federalState":{"key":"03","name":"Niedersachsen"}},{"name":"Drei-Linden-Str.","postalCode":"31020","locality":"Salzhemmendorf","municipality":{"key":"03252008","name":"Salzhemmendorf, Flecken","type":"Kreisangehörige_Gemeinde"},"district":{"key":"03252","name":"Hameln-Pyrmont","type":"Landkreis"},"federalState":{"key":"03","name":"Niedersachsen"}},{"name":"Drosselweg","postalCode":"31020","locality":"Salzhemmendorf","municipality":{"key":"03252008","name":"Salzhemmendorf, Flecken","type":"Kreisangehörige_Gemeinde"},"district":{"key":"03252","name":"Hameln-Pyrmont","type":"Landkreis"},"federalState":{"key":"03","name":"Niedersachsen"}},{"name":"Eggerser Str.","postalCode":"31020","locality":"Salzhemmendorf","municipality":{"key":"03252008","name":"Salzhemmendorf, Flecken","type":"Kreisangehörige_Gemeinde"},"district":{"key":"03252","name":"Hameln-Pyrmont","type":"Landkreis"},"federalState":{"key":"03","name":"Niedersachsen"}},{"name":"Eichbreite","postalCode":"31020","locality":"Salzhemmendorf","municipality":{"key":"03252008","name":"Salzhemmendorf, Flecken","type":"Kreisangehörige_Gemeinde"},"district":{"key":"03252","name":"Hameln-Pyrmont","type":"Landkreis"},"federalState":{"key":"03","name":"Niedersachsen"}},{"name":"Elbinger Str.","postalCode":"31020","locality":"Salzhemmendorf","municipality":{"key":"03252008","name":"Salzhemmendorf, Flecken","type":"Kreisangehörige_Gemeinde"},"district":{"key":"03252","name":"Hameln-Pyrmont","type":"Landkreis"},"federalState":{"key":"03","name":"Niedersachsen"}},{"name":"Enziangasse","postalCode":"31020","locality":"Salzhemmendorf","municipality":{"key":"03252008","name":"Salzhemmendorf, Flecken","type":"Kreisangehörige_Gemeinde"},"district":{"key":"03252","name":"Hameln-Pyrmont","type":"Landkreis"},"federalState":{"key":"03","name":"Niedersachsen"}},{"name":"Erlenweg","postalCode":"31020","locality":"Salzhemmendorf","municipality":{"key":"03252008","name":"Salzhemmendorf, Flecken","type":"Kreisangehörige_Gemeinde"},"district":{"key":"03252","name":"Hameln-Pyrmont","type":"Landkreis"},"federalState":{"key":"03","name":"Niedersachsen"}},{"name":"Ernst-Siegling-Weg","postalCode":"31020","locality":"Salzhemmendorf","municipality":{"key":"03252008","name":"Salzhemmendorf, Flecken","type":"Kreisangehörige_Gemeinde"},"district":{"key":"03252","name":"Hameln-Pyrmont","type":"Landkreis"},"federalState":{"key":"03","name":"Niedersachsen"}},{"name":"Esbecker Str.","postalCode":"31020","locality":"Salzhemmendorf","municipality":{"key":"03252008","name":"Salzhemmendorf, Flecken","type":"Kreisangehörige_Gemeinde"},"district":{"key":"03252","name":"Hameln-Pyrmont","type":"Landkreis"},"federalState":{"key":"03","name":"Niedersachsen"}},{"name":"Eschenweg","postalCode":"31020","locality":"Salzhemmendorf","municipality":{"key":"03252008","name":"Salzhemmendorf, Flecken","type":"Kreisangehörige_Gemeinde"},"district":{"key":"03252","name":"Hameln-Pyrmont","type":"Landkreis"},"federalState":{"key":"03","name":"Niedersachsen"}},{"name":"Feldstr.","postalCode":"31020","locality":"Salzhemmendorf","municipality":{"key":"03252008","name":"Salzhemmendorf, Flecken","type":"Kreisangehörige_Gemeinde"},"district":{"key":"03252","name":"Hameln-Pyrmont","type":"Landkreis"},"federalState":{"key":"03","name":"Niedersachsen"}},{"name":"Felsenkellerweg","postalCode":"31020","locality":"Salzhemmendorf","municipality":{"key":"03252008","name":"Salzhemmendorf, Flecken","type":"Kreisangehörige_Gemeinde"},"district":{"key":"03252","name":"Hameln-Pyrmont","type":"Landkreis"},"federalState":{"key":"03","name":"Niedersachsen"}},{"name":"Finkenweg","postalCode":"31020","locality":"Salzhemmendorf","municipality":{"key":"03252008","name":"Salzhemmendorf, Flecken","type":"Kreisangehörige_Gemeinde"},"district":{"key":"03252","name":"Hameln-Pyrmont","type":"Landkreis"},"federalState":{"key":"03","name":"Niedersachsen"}},{"name":"Fliederweg","postalCode":"31020","locality":"Salzhemmendorf","municipality":{"key":"03252008","name":"Salzhemmendorf, Flecken","type":"Kreisangehörige_Gemeinde"},"district":{"key":"03252","name":"Hameln-Pyrmont","type":"Landkreis"},"federalState":{"key":"03","name":"Niedersachsen"}},{"name":"Flöthstr.","postalCode":"31020","locality":"Salzhemmendorf","municipality":{"key":"03252008","name":"Salzhemmendorf, Flecken","type":"Kreisangehörige_Gemeinde"},"district":{"key":"03252","name":"Hameln-Pyrmont","type":"Landkreis"},"federalState":{"key":"03","name":"Niedersachsen"}},{"name":"Flutstr.","postalCode":"31020","locality":"Salzhemmendorf","municipality":{"key":"03252008","name":"Salzhemmendorf, Flecken","type":"Kreisangehörige_Gemeinde"},"district":{"key":"03252","name":"Hameln-Pyrmont","type":"Landkreis"},"federalState":{"key":"03","name":"Niedersachsen"}},{"name":"Försterweg","postalCode":"31020","locality":"Salzhemmendorf","municipality":{"key":"03252008","name":"Salzhemmendorf, Flecken","type":"Kreisangehörige_Gemeinde"},"district":{"key":"03252","name":"Hameln-Pyrmont","type":"Landkreis"},"federalState":{"key":"03","name":"Niedersachsen"}},{"name":"Friedhofsweg","postalCode":"31020","locality":"Salzhemmendorf","municipality":{"key":"03252008","name":"Salzhemmendorf, Flecken","type":"Kreisangehörige_Gemeinde"},"district":{"key":"03252","name":"Hameln-Pyrmont","type":"Landkreis"},"federalState":{"key":"03","name":"Niedersachsen"}},{"name":"Fuchsbau","postalCode":"31020","locality":"Salzhemmendorf","municipality":{"key":"03252008","name":"Salzhemmendorf, Flecken","type":"Kreisangehörige_Gemeinde"},"district":{"key":"03252","name":"Hameln-Pyrmont","type":"Landkreis"},"federalState":{"key":"03","name":"Niedersachsen"}},{"name":"Fuhrenkamp","postalCode":"29579","locality":"Emmendorf","municipality":{"key":"03360008","name":"Emmendorf","type":"Kreisangehörige_Gemeinde"},"district":{"key":"03360","name":"Uelzen","type":"Landkreis"},"federalState":{"key":"03","name":"Niedersachsen"}},{"name":"Gartenstr.","postalCode":"31020","locality":"Salzhemmendorf","municipality":{"key":"03252008","name":"Salzhemmendorf, Flecken","type":"Kreisangehörige_Gemeinde"},"district":{"key":"03252","name":"Hameln-Pyrmont","type":"Landkreis"},"federalState":{"key":"03","name":"Niedersachsen"}},{"name":"Gladiolenweg","postalCode":"31020","locality":"Salzhemmendorf","municipality":{"key":"03252008","name":"Salzhemmendorf, Flecken","type":"Kreisangehörige_Gemeinde"},"district":{"key":"03252","name":"Hameln-Pyrmont","type":"Landkreis"},"federalState":{"key":"03","name":"Niedersachsen"}},{"name":"Glückauf","postalCode":"31020","locality":"Salzhemmendorf","municipality":{"key":"03252008","name":"Salzhemmendorf, Flecken","type":"Kreisangehörige_Gemeinde"},"district":{"key":"03252","name":"Hameln-Pyrmont","type":"Landkreis"},"federalState":{"key":"03","name":"Niedersachsen"}},{"name":"Görlitzer Str.","postalCode":"31020","locality":"Salzhemmendorf","municipality":{"key":"03252008","name":"Salzhemmendorf, Flecken","type":"Kreisangehörige_Gemeinde"},"district":{"key":"03252","name":"Hameln-Pyrmont","type":"Landkreis"},"federalState":{"key":"03","name":"Niedersachsen"}},{"name":"Grabenstr.","postalCode":"31020","locality":"Salzhemmendorf","municipality":{"key":"03252008","name":"Salzhemmendorf, Flecken","type":"Kreisangehörige_Gemeinde"},"district":{"key":"03252","name":"Hameln-Pyrmont","type":"Landkreis"},"federalState":{"key":"03","name":"Niedersachsen"}},{"name":"Grafschaft","postalCode":"31020","locality":"Salzhemmendorf","municipality":{"key":"03252008","name":"Salzhemmendorf, Flecken","type":"Kreisangehörige_Gemeinde"},"district":{"key":"03252","name":"Hameln-Pyrmont","type":"Landkreis"},"federalState":{"key":"03","name":"Niedersachsen"}},{"name":"Grasweg","postalCode":"31020","locality":"Salzhemmendorf","municipality":{"key":"03252008","name":"Salzhemmendorf, Flecken","type":"Kreisangehörige_Gemeinde"},"district":{"key":"03252","name":"Hameln-Pyrmont","type":"Landkreis"},"federalState":{"key":"03","name":"Niedersachsen"}},{"name":"Großer Lahweg","postalCode":"31020","locality":"Salzhemmendorf","municipality":{"key":"03252008","name":"Salzhemmendorf, Flecken","type":"Kreisangehörige_Gemeinde"},"district":{"key":"03252","name":"Hameln-Pyrmont","type":"Landkreis"},"federalState":{"key":"03","name":"Niedersachsen"}},{"name":"Grundweg","postalCode":"31020","locality":"Salzhemmendorf","municipality":{"key":"03252008","name":"Salzhemmendorf, Flecken","type":"Kreisangehörige_Gemeinde"},"district":{"key":"03252","name":"Hameln-Pyrmont","type":"Landkreis"},"federalState":{"key":"03","name":"Niedersachsen"}},{"name":"Hagenbrink","postalCode":"31020","locality":"Salzhemmendorf","municipality":{"key":"03252008","name":"Salzhemmendorf, Flecken","type":"Kreisangehörige_Gemeinde"},"district":{"key":"03252","name":"Hameln-Pyrmont","type":"Landkreis"},"federalState":{"key":"03","name":"Niedersachsen"}},{"name":"Hagenstr.","postalCode":"31020","locality":"Salzhemmendorf","municipality":{"key":"03252008","name":"Salzhemmendorf, Flecken","type":"Kreisangehörige_Gemeinde"},"district":{"key":"03252","name":"Hameln-Pyrmont","type":"Landkreis"},"federalState":{"key":"03","name":"Niedersachsen"}},{"name":"Hakenroder Str.","postalCode":"31020","locality":"Salzhemmendorf","municipality":{"key":"03252008","name":"Salzhemmendorf, Flecken","type":"Kreisangehörige_Gemeinde"},"district":{"key":"03252","name":"Hameln-Pyrmont","type":"Landkreis"},"federalState":{"key":"03","name":"Niedersachsen"}},{"name":"Hasenanger","postalCode":"31020","locality":"Salzhemmendorf","municipality":{"key":"03252008","name":"Salzhemmendorf, Flecken","type":"Kreisangehörige_Gemeinde"},"district":{"key":"03252","name":"Hameln-Pyrmont","type":"Landkreis"},"federalState":{"key":"03","name":"Niedersachsen"}},{"name":"Hauptstr.","postalCode":"31020","locality":"Salzhemmendorf","municipality":{"key":"03252008","name":"Salzhemmendorf, Flecken","type":"Kreisangehörige_Gemeinde"},"district":{"key":"03252","name":"Hameln-Pyrmont","type":"Landkreis"},"federalState":{"key":"03","name":"Niedersachsen"}},{"name":"Heerstr.","postalCode":"31020","locality":"Salzhemmendorf","municipality":{"key":"03252008","name":"Salzhemmendorf, Flecken","type":"Kreisangehörige_Gemeinde"},"district":{"key":"03252","name":"Hameln-Pyrmont","type":"Landkreis"},"federalState":{"key":"03","name":"Niedersachsen"}},{"name":"Heidestr.","postalCode":"31020","locality":"Salzhemmendorf","municipality":{"key":"03252008","name":"Salzhemmendorf, Flecken","type":"Kreisangehörige_Gemeinde"},"district":{"key":"03252","name":"Hameln-Pyrmont","type":"Landkreis"},"federalState":{"key":"03","name":"Niedersachsen"}},{"name":"Heinrich-Heine-Weg","postalCode":"31020","locality":"Salzhemmendorf","municipality":{"key":"03252008","name":"Salzhemmendorf, Flecken","type":"Kreisangehörige_Gemeinde"},"district":{"key":"03252","name":"Hameln-Pyrmont","type":"Landkreis"},"federalState":{"key":"03","name":"Niedersachsen"}},{"name":"Heinrich-von-Homburg-Str.","postalCode":"31020","locality":"Salzhemmendorf","municipality":{"key":"03252008","name":"Salzhemmendorf, Flecken","type":"Kreisangehörige_Gemeinde"},"district":{"key":"03252","name":"Hameln-Pyrmont","type":"Landkreis"},"federalState":{"key":"03","name":"Niedersachsen"}},{"name":"Heinrich-Wöhler-Str.","postalCode":"31020","locality":"Salzhemmendorf","municipality":{"key":"03252008","name":"Salzhemmendorf, Flecken","type":"Kreisangehörige_Gemeinde"},"district":{"key":"03252","name":"Hameln-Pyrmont","type":"Landkreis"},"federalState":{"key":"03","name":"Niedersachsen"}},{"name":"Heinser Str.","postalCode":"31020","locality":"Salzhemmendorf","municipality":{"key":"03252008","name":"Salzhemmendorf, Flecken","type":"Kreisangehörige_Gemeinde"},"district":{"key":"03252","name":"Hameln-Pyrmont","type":"Landkreis"},"federalState":{"key":"03","name":"Niedersachsen"}},{"name":"Hemmendorfer Landstr.","postalCode":"31020","locality":"Salzhemmendorf","municipality":{"key":"03252008","name":"Salzhemmendorf, Flecken","type":"Kreisangehörige_Gemeinde"},"district":{"key":"03252","name":"Hameln-Pyrmont","type":"Landkreis"},"federalState":{"key":"03","name":"Niedersachsen"}},{"name":"Hemmendorfer Str.","postalCode":"31020","locality":"Salzhemmendorf","municipality":{"key":"03252008","name":"Salzhemmendorf, Flecken","type":"Kreisangehörige_Gemeinde"},"district":{"key":"03252","name":"Hameln-Pyrmont","type":"Landkreis"},"federalState":{"key":"03","name":"Niedersachsen"}},{"name":"Hermann-Löns-Weg","postalCode":"31020","locality":"Salzhemmendorf","municipality":{"key":"03252008","name":"Salzhemmendorf, Flecken","type":"Kreisangehörige_Gemeinde"},"district":{"key":"03252","name":"Hameln-Pyrmont","type":"Landkreis"},"federalState":{"key":"03","name":"Niedersachsen"}},{"name":"Hilsweg","postalCode":"31020","locality":"Salzhemmendorf","municipality":{"key":"03252008","name":"Salzhemmendorf, Flecken","type":"Kreisangehörige_Gemeinde"},"district":{"key":"03252","name":"Hameln-Pyrmont","type":"Landkreis"},"federalState":{"key":"03","name":"Niedersachsen"}},{"name":"Hinter dem Meierhofe","postalCode":"31020","locality":"Salzhemmendorf","municipality":{"key":"03252008","name":"Salzhemmendorf, Flecken","type":"Kreisangehörige_Gemeinde"},"district":{"key":"03252","name":"Hameln-Pyrmont","type":"Landkreis"},"federalState":{"key":"03","name":"Niedersachsen"}},{"name":"Hinter der Burg","postalCode":"31020","locality":"Salzhemmendorf","municipality":{"key":"03252008","name":"Salzhemmendorf, Flecken","type":"Kreisangehörige_Gemeinde"},"district":{"key":"03252","name":"Hameln-Pyrmont","type":"Landkreis"},"federalState":{"key":"03","name":"Niedersachsen"}},{"name":"Hinterm Knick","postalCode":"31020","locality":"Salzhemmendorf","municipality":{"key":"03252008","name":"Salzhemmendorf, Flecken","type":"Kreisangehörige_Gemeinde"},"district":{"key":"03252","name":"Hameln-Pyrmont","type":"Landkreis"},"federalState":{"key":"03","name":"Niedersachsen"}},{"name":"Hirschberger Str.","postalCode":"31020","locality":"Salzhemmendorf","municipality":{"key":"03252008","name":"Salzhemmendorf, Flecken","type":"Kreisangehörige_Gemeinde"},"district":{"key":"03252","name":"Hameln-Pyrmont","type":"Landkreis"},"federalState":{"key":"03","name":"Niedersachsen"}},{"name":"Hirschbrink","postalCode":"31020","locality":"Salzhemmendorf","municipality":{"key":"03252008","name":"Salzhemmendorf, Flecken","type":"Kreisangehörige_Gemeinde"},"district":{"key":"03252","name":"Hameln-Pyrmont","type":"Landkreis"},"federalState":{"key":"03","name":"Niedersachsen"}},{"name":"Hirtengasse","postalCode":"31020","locality":"Salzhemmendorf","municipality":{"key":"03252008","name":"Salzhemmendorf, Flecken","type":"Kreisangehörige_Gemeinde"},"district":{"key":"03252","name":"Hameln-Pyrmont","type":"Landkreis"},"federalState":{"key":"03","name":"Niedersachsen"}},{"name":"Hoher Brink","postalCode":"31020","locality":"Salzhemmendorf","municipality":{"key":"03252008","name":"Salzhemmendorf, Flecken","type":"Kreisangehörige_Gemeinde"},"district":{"key":"03252","name":"Hameln-Pyrmont","type":"Landkreis"},"federalState":{"key":"03","name":"Niedersachsen"}},{"name":"Hohe-Warte-Str.","postalCode":"31020","locality":"Salzhemmendorf","municipality":{"key":"03252008","name":"Salzhemmendorf, Flecken","type":"Kreisangehörige_Gemeinde"},"district":{"key":"03252","name":"Hameln-Pyrmont","type":"Landkreis"},"federalState":{"key":"03","name":"Niedersachsen"}},{"name":"Humboldtstr.","postalCode":"31020","locality":"Salzhemmendorf","municipality":{"key":"03252008","name":"Salzhemmendorf, Flecken","type":"Kreisangehörige_Gemeinde"},"district":{"key":"03252","name":"Hameln-Pyrmont","type":"Landkreis"},"federalState":{"key":"03","name":"Niedersachsen"}},{"name":"Im Bergfeld","postalCode":"31020","locality":"Salzhemmendorf","municipality":{"key":"03252008","name":"Salzhemmendorf, Flecken","type":"Kreisangehörige_Gemeinde"},"district":{"key":"03252","name":"Hameln-Pyrmont","type":"Landkreis"},"federalState":{"key":"03","name":"Niedersachsen"}},{"name":"Im Brinkfeld","postalCode":"31020","locality":"Salzhemmendorf","municipality":{"key":"03252008","name":"Salzhemmendorf, Flecken","type":"Kreisangehörige_Gemeinde"},"district":{"key":"03252","name":"Hameln-Pyrmont","type":"Landkreis"},"federalState":{"key":"03","name":"Niedersachsen"}},{"name":"Im Flecken","postalCode":"31020","locality":"Salzhemmendorf","municipality":{"key":"03252008","name":"Salzhemmendorf, Flecken","type":"Kreisangehörige_Gemeinde"},"district":{"key":"03252","name":"Hameln-Pyrmont","type":"Landkreis"},"federalState":{"key":"03","name":"Niedersachsen"}},{"name":"Im Gänsebrunnen","postalCode":"31020","locality":"Salzhemmendorf","municipality":{"key":"03252008","name":"Salzhemmendorf, Flecken","type":"Kreisangehörige_Gemeinde"},"district":{"key":"03252","name":"Hameln-Pyrmont","type":"Landkreis"},"federalState":{"key":"03","name":"Niedersachsen"}},{"name":"Im Güldenen Winkel","postalCode":"31020","locality":"Salzhemmendorf","municipality":{"key":"03252008","name":"Salzhemmendorf, Flecken","type":"Kreisangehörige_Gemeinde"},"district":{"key":"03252","name":"Hameln-Pyrmont","type":"Landkreis"},"federalState":{"key":"03","name":"Niedersachsen"}},{"name":"Im Hasenwinkel","postalCode":"31020","locality":"Salzhemmendorf","municipality":{"key":"03252008","name":"Salzhemmendorf, Flecken","type":"Kreisangehörige_Gemeinde"},"district":{"key":"03252","name":"Hameln-Pyrmont","type":"Landkreis"},"federalState":{"key":"03","name":"Niedersachsen"}},{"name":"Im Hohen Feld","postalCode":"31020","locality":"Salzhemmendorf","municipality":{"key":"03252008","name":"Salzhemmendorf, Flecken","type":"Kreisangehörige_Gemeinde"},"district":{"key":"03252","name":"Hameln-Pyrmont","type":"Landkreis"},"federalState":{"key":"03","name":"Niedersachsen"}},{"name":"Im Kleinen Kampe","postalCode":"31020","locality":"Salzhemmendorf","municipality":{"key":"03252008","name":"Salzhemmendorf, Flecken","type":"Kreisangehörige_Gemeinde"},"district":{"key":"03252","name":"Hameln-Pyrmont","type":"Landkreis"},"federalState":{"key":"03","name":"Niedersachsen"}},{"name":"Im Oberen Winkel","postalCode":"31020","locality":"Salzhemmendorf","municipality":{"key":"03252008","name":"Salzhemmendorf, Flecken","type":"Kreisangehörige_Gemeinde"},"district":{"key":"03252","name":"Hameln-Pyrmont","type":"Landkreis"},"federalState":{"key":"03","name":"Niedersachsen"}},{"name":"Im Schwalenkamp","postalCode":"31020","locality":"Salzhemmendorf","municipality":{"key":"03252008","name":"Salzhemmendorf, Flecken","type":"Kreisangehörige_Gemeinde"},"district":{"key":"03252","name":"Hameln-Pyrmont","type":"Landkreis"},"federalState":{"key":"03","name":"Niedersachsen"}},{"name":"Im Turme","postalCode":"31020","locality":"Salzhemmendorf","municipality":{"key":"03252008","name":"Salzhemmendorf, Flecken","type":"Kreisangehörige_Gemeinde"},"district":{"key":"03252","name":"Hameln-Pyrmont","type":"Landkreis"},"federalState":{"key":"03","name":"Niedersachsen"}},{"name":"Im Winkel","postalCode":"31020","locality":"Salzhemmendorf","municipality":{"key":"03252008","name":"Salzhemmendorf, Flecken","type":"Kreisangehörige_Gemeinde"},"district":{"key":"03252","name":"Hameln-Pyrmont","type":"Landkreis"},"federalState":{"key":"03","name":"Niedersachsen"}},{"name":"In der Meisterei","postalCode":"31020","locality":"Salzhemmendorf","municipality":{"key":"03252008","name":"Salzhemmendorf, Flecken","type":"Kreisangehörige_Gemeinde"},"district":{"key":"03252","name":"Hameln-Pyrmont","type":"Landkreis"},"federalState":{"key":"03","name":"Niedersachsen"}},{"name":"In der Stockbreite","postalCode":"31020","locality":"Salzhemmendorf","municipality":{"key":"03252008","name":"Salzhemmendorf, Flecken","type":"Kreisangehörige_Gemeinde"},"district":{"key":"03252","name":"Hameln-Pyrmont","type":"Landkreis"},"federalState":{"key":"03","name":"Niedersachsen"}},{"name":"Industriestr.","postalCode":"31020","locality":"Salzhemmendorf","municipality":{"key":"03252008","name":"Salzhemmendorf, Flecken","type":"Kreisangehörige_Gemeinde"},"district":{"key":"03252","name":"Hameln-Pyrmont","type":"Landkreis"},"federalState":{"key":"03","name":"Niedersachsen"}},{"name":"Irisweg","postalCode":"31020","locality":"Salzhemmendorf","municipality":{"key":"03252008","name":"Salzhemmendorf, Flecken","type":"Kreisangehörige_Gemeinde"},"district":{"key":"03252","name":"Hameln-Pyrmont","type":"Landkreis"},"federalState":{"key":"03","name":"Niedersachsen"}},{"name":"Ithblick","postalCode":"31020","locality":"Salzhemmendorf","municipality":{"key":"03252008","name":"Salzhemmendorf, Flecken","type":"Kreisangehörige_Gemeinde"},"district":{"key":"03252","name":"Hameln-Pyrmont","type":"Landkreis"},"federalState":{"key":"03","name":"Niedersachsen"}},{"name":"Ithstr.","postalCode":"31020","locality":"Salzhemmendorf","municipality":{"key":"03252008","name":"Salzhemmendorf, Flecken","type":"Kreisangehörige_Gemeinde"},"district":{"key":"03252","name":"Hameln-Pyrmont","type":"Landkreis"},"federalState":{"key":"03","name":"Niedersachsen"}},{"name":"Ithweg","postalCode":"31020","locality":"Salzhemmendorf","municipality":{"key":"03252008","name":"Salzhemmendorf, Flecken","type":"Kreisangehörige_Gemeinde"},"district":{"key":"03252","name":"Hameln-Pyrmont","type":"Landkreis"},"federalState":{"key":"03","name":"Niedersachsen"}},{"name":"Jürgensweg","postalCode":"31020","locality":"Salzhemmendorf","municipality":{"key":"03252008","name":"Salzhemmendorf, Flecken","type":"Kreisangehörige_Gemeinde"},"district":{"key":"03252","name":"Hameln-Pyrmont","type":"Landkreis"},"federalState":{"key":"03","name":"Niedersachsen"}},{"name":"Kaiserstr.","postalCode":"31020","locality":"Salzhemmendorf","municipality":{"key":"03252008","name":"Salzhemmendorf, Flecken","type":"Kreisangehörige_Gemeinde"},"district":{"key":"03252","name":"Hameln-Pyrmont","type":"Landkreis"},"federalState":{"key":"03","name":"Niedersachsen"}},{"name":"Kampstr.","postalCode":"31020","locality":"Salzhemmendorf","municipality":{"key":"03252008","name":"Salzhemmendorf, Flecken","type":"Kreisangehörige_Gemeinde"},"district":{"key":"03252","name":"Hameln-Pyrmont","type":"Landkreis"},"federalState":{"key":"03","name":"Niedersachsen"}},{"name":"Kansteinblick","postalCode":"31020","locality":"Salzhemmendorf","municipality":{"key":"03252008","name":"Salzhemmendorf, Flecken","type":"Kreisangehörige_Gemeinde"},"district":{"key":"03252","name":"Hameln-Pyrmont","type":"Landkreis"},"federalState":{"key":"03","name":"Niedersachsen"}},{"name":"Kantstr.","postalCode":"31020","locality":"Salzhemmendorf","municipality":{"key":"03252008","name":"Salzhemmendorf, Flecken","type":"Kreisangehörige_Gemeinde"},"district":{"key":"03252","name":"Hameln-Pyrmont","type":"Landkreis"},"federalState":{"key":"03","name":"Niedersachsen"}},{"name":"Kastanienweg","postalCode":"31020","locality":"Salzhemmendorf","municipality":{"key":"03252008","name":"Salzhemmendorf, Flecken","type":"Kreisangehörige_Gemeinde"},"district":{"key":"03252","name":"Hameln-Pyrmont","type":"Landkreis"},"federalState":{"key":"03","name":"Niedersachsen"}},{"name":"Kiebitzweg","postalCode":"31020","locality":"Salzhemmendorf","municipality":{"key":"03252008","name":"Salzhemmendorf, Flecken","type":"Kreisangehörige_Gemeinde"},"district":{"key":"03252","name":"Hameln-Pyrmont","type":"Landkreis"},"federalState":{"key":"03","name":"Niedersachsen"}},{"name":"Kirchbrink","postalCode":"31020","locality":"Salzhemmendorf","municipality":{"key":"03252008","name":"Salzhemmendorf, Flecken","type":"Kreisangehörige_Gemeinde"},"district":{"key":"03252","name":"Hameln-Pyrmont","type":"Landkreis"},"federalState":{"key":"03","name":"Niedersachsen"}},{"name":"Kirchgraben","postalCode":"31020","locality":"Salzhemmendorf","municipality":{"key":"03252008","name":"Salzhemmendorf, Flecken","type":"Kreisangehörige_Gemeinde"},"district":{"key":"03252","name":"Hameln-Pyrmont","type":"Landkreis"},"federalState":{"key":"03","name":"Niedersachsen"}},{"name":"Kirchhofstr.","postalCode":"31020","locality":"Salzhemmendorf","municipality":{"key":"03252008","name":"Salzhemmendorf, Flecken","type":"Kreisangehörige_Gemeinde"},"district":{"key":"03252","name":"Hameln-Pyrmont","type":"Landkreis"},"federalState":{"key":"03","name":"Niedersachsen"}},{"name":"Kirchplatz","postalCode":"31020","locality":"Salzhemmendorf","municipality":{"key":"03252008","name":"Salzhemmendorf, Flecken","type":"Kreisangehörige_Gemeinde"},"district":{"key":"03252","name":"Hameln-Pyrmont","type":"Landkreis"},"federalState":{"key":"03","name":"Niedersachsen"}},{"name":"Kirchweg","postalCode":"31020","locality":"Salzhemmendorf","municipality":{"key":"03252008","name":"Salzhemmendorf, Flecken","type":"Kreisangehörige_Gemeinde"},"district":{"key":"03252","name":"Hameln-Pyrmont","type":"Landkreis"},"federalState":{"key":"03","name":"Niedersachsen"}},{"name":"Kleine Gasse","postalCode":"31020","locality":"Salzhemmendorf","municipality":{"key":"03252008","name":"Salzhemmendorf, Flecken","type":"Kreisangehörige_Gemeinde"},"district":{"key":"03252","name":"Hameln-Pyrmont","type":"Landkreis"},"federalState":{"key":"03","name":"Niedersachsen"}},{"name":"Kleiner Lahweg","postalCode":"31020","locality":"Salzhemmendorf","municipality":{"key":"03252008","name":"Salzhemmendorf, Flecken","type":"Kreisangehörige_Gemeinde"},"district":{"key":"03252","name":"Hameln-Pyrmont","type":"Landkreis"},"federalState":{"key":"03","name":"Niedersachsen"}},{"name":"Knappenweg","postalCode":"31020","locality":"Salzhemmendorf","municipality":{"key":"03252008","name":"Salzhemmendorf, Flecken","type":"Kreisangehörige_Gemeinde"},"district":{"key":"03252","name":"Hameln-Pyrmont","type":"Landkreis"},"federalState":{"key":"03","name":"Niedersachsen"}},{"name":"Königsberger Str.","postalCode":"31020","locality":"Salzhemmendorf","municipality":{"key":"03252008","name":"Salzhemmendorf, Flecken","type":"Kreisangehörige_Gemeinde"},"district":{"key":"03252","name":"Hameln-Pyrmont","type":"Landkreis"},"federalState":{"key":"03","name":"Niedersachsen"}},{"name":"Krebsbrink","postalCode":"31020","locality":"Salzhemmendorf","municipality":{"key":"03252008","name":"Salzhemmendorf, Flecken","type":"Kreisangehörige_Gemeinde"},"district":{"key":"03252","name":"Hameln-Pyrmont","type":"Landkreis"},"federalState":{"key":"03","name":"Niedersachsen"}},{"name":"Kruggasse","postalCode":"31020","locality":"Salzhemmendorf","municipality":{"key":"03252008","name":"Salzhemmendorf, Flecken","type":"Kreisangehörige_Gemeinde"},"district":{"key":"03252","name":"Hameln-Pyrmont","type":"Landkreis"},"federalState":{"key":"03","name":"Niedersachsen"}},{"name":"Kummerstr.","postalCode":"31020","locality":"Salzhemmendorf","municipality":{"key":"03252008","name":"Salzhemmendorf, Flecken","type":"Kreisangehörige_Gemeinde"},"district":{"key":"03252","name":"Hameln-Pyrmont","type":"Landkreis"},"federalState":{"key":"03","name":"Niedersachsen"}},{"name":"Kurhausbrink","postalCode":"31020","locality":"Salzhemmendorf","municipality":{"key":"03252008","name":"Salzhemmendorf, Flecken","type":"Kreisangehörige_Gemeinde"},"district":{"key":"03252","name":"Hameln-Pyrmont","type":"Landkreis"},"federalState":{"key":"03","name":"Niedersachsen"}},{"name":"Kurze Str.","postalCode":"31020","locality":"Salzhemmendorf","municipality":{"key":"03252008","name":"Salzhemmendorf, Flecken","type":"Kreisangehörige_Gemeinde"},"district":{"key":"03252","name":"Hameln-Pyrmont","type":"Landkreis"},"federalState":{"key":"03","name":"Niedersachsen"}},{"name":"Landwehr","postalCode":"31020","locality":"Salzhemmendorf","municipality":{"key":"03252008","name":"Salzhemmendorf, Flecken","type":"Kreisangehörige_Gemeinde"},"district":{"key":"03252","name":"Hameln-Pyrmont","type":"Landkreis"},"federalState":{"key":"03","name":"Niedersachsen"}},{"name":"Lange Str.","postalCode":"31020","locality":"Salzhemmendorf","municipality":{"key":"03252008","name":"Salzhemmendorf, Flecken","type":"Kreisangehörige_Gemeinde"},"district":{"key":"03252","name":"Hameln-Pyrmont","type":"Landkreis"},"federalState":{"key":"03","name":"Niedersachsen"}},{"name":"Lauensteiner Weg","postalCode":"31020","locality":"Salzhemmendorf","municipality":{"key":"03252008","name":"Salzhemmendorf, Flecken","type":"Kreisangehörige_Gemeinde"},"district":{"key":"03252","name":"Hameln-Pyrmont","type":"Landkreis"},"federalState":{"key":"03","name":"Niedersachsen"}},{"name":"Lauenteichweg","postalCode":"31020","locality":"Salzhemmendorf","municipality":{"key":"03252008","name":"Salzhemmendorf, Flecken","type":"Kreisangehörige_Gemeinde"},"district":{"key":"03252","name":"Hameln-Pyrmont","type":"Landkreis"},"federalState":{"key":"03","name":"Niedersachsen"}},{"name":"Lerchenspornweg","postalCode":"31020","locality":"Salzhemmendorf","municipality":{"key":"03252008","name":"Salzhemmendorf, Flecken","type":"Kreisangehörige_Gemeinde"},"district":{"key":"03252","name":"Hameln-Pyrmont","type":"Landkreis"},"federalState":{"key":"03","name":"Niedersachsen"}},{"name":"Lerchenweg","postalCode":"31020","locality":"Salzhemmendorf","municipality":{"key":"03252008","name":"Salzhemmendorf, Flecken","type":"Kreisangehörige_Gemeinde"},"district":{"key":"03252","name":"Hameln-Pyrmont","type":"Landkreis"},"federalState":{"key":"03","name":"Niedersachsen"}},{"name":"Ligusterweg","postalCode":"31020","locality":"Salzhemmendorf","municipality":{"key":"03252008","name":"Salzhemmendorf, Flecken","type":"Kreisangehörige_Gemeinde"},"district":{"key":"03252","name":"Hameln-Pyrmont","type":"Landkreis"},"federalState":{"key":"03","name":"Niedersachsen"}},{"name":"Lilienstr.","postalCode":"31020","locality":"Salzhemmendorf","municipality":{"key":"03252008","name":"Salzhemmendorf, Flecken","type":"Kreisangehörige_Gemeinde"},"district":{"key":"03252","name":"Hameln-Pyrmont","type":"Landkreis"},"federalState":{"key":"03","name":"Niedersachsen"}},{"name":"Limberger Weg","postalCode":"31020","locality":"Salzhemmendorf","municipality":{"key":"03252008","name":"Salzhemmendorf, Flecken","type":"Kreisangehörige_Gemeinde"},"district":{"key":"03252","name":"Hameln-Pyrmont","type":"Landkreis"},"federalState":{"key":"03","name":"Niedersachsen"}},{"name":"Linnenbrunnen","postalCode":"31020","locality":"Salzhemmendorf","municipality":{"key":"03252008","name":"Salzhemmendorf, Flecken","type":"Kreisangehörige_Gemeinde"},"district":{"key":"03252","name":"Hameln-Pyrmont","type":"Landkreis"},"federalState":{"key":"03","name":"Niedersachsen"}},{"name":"Magdeburger Str.","postalCode":"31020","locality":"Salzhemmendorf","municipality":{"key":"03252008","name":"Salzhemmendorf, Flecken","type":"Kreisangehörige_Gemeinde"},"district":{"key":"03252","name":"Hameln-Pyrmont","type":"Landkreis"},"federalState":{"key":"03","name":"Niedersachsen"}},{"name":"Marderpfad","postalCode":"31020","locality":"Salzhemmendorf","municipality":{"key":"03252008","name":"Salzhemmendorf, Flecken","type":"Kreisangehörige_Gemeinde"},"district":{"key":"03252","name":"Hameln-Pyrmont","type":"Landkreis"},"federalState":{"key":"03","name":"Niedersachsen"}},{"name":"Marienwalder Str.","postalCode":"31020","locality":"Salzhemmendorf","municipality":{"key":"03252008","name":"Salzhemmendorf, Flecken","type":"Kreisangehörige_Gemeinde"},"district":{"key":"03252","name":"Hameln-Pyrmont","type":"Landkreis"},"federalState":{"key":"03","name":"Niedersachsen"}},{"name":"Marktplatz","postalCode":"31020","locality":"Salzhemmendorf","municipality":{"key":"03252008","name":"Salzhemmendorf, Flecken","type":"Kreisangehörige_Gemeinde"},"district":{"key":"03252","name":"Hameln-Pyrmont","type":"Landkreis"},"federalState":{"key":"03","name":"Niedersachsen"}},{"name":"Marktstr.","postalCode":"31020","locality":"Salzhemmendorf","municipality":{"key":"03252008","name":"Salzhemmendorf, Flecken","type":"Kreisangehörige_Gemeinde"},"district":{"key":"03252","name":"Hameln-Pyrmont","type":"Landkreis"},"federalState":{"key":"03","name":"Niedersachsen"}},{"name":"Meisenweg","postalCode":"31020","locality":"Salzhemmendorf","municipality":{"key":"03252008","name":"Salzhemmendorf, Flecken","type":"Kreisangehörige_Gemeinde"},"district":{"key":"03252","name":"Hameln-Pyrmont","type":"Landkreis"},"federalState":{"key":"03","name":"Niedersachsen"}},{"name":"Mühlenbreite","postalCode":"31020","locality":"Salzhemmendorf","municipality":{"key":"03252008","name":"Salzhemmendorf, Flecken","type":"Kreisangehörige_Gemeinde"},"district":{"key":"03252","name":"Hameln-Pyrmont","type":"Landkreis"},"federalState":{"key":"03","name":"Niedersachsen"}},{"name":"Mühlenstr.","postalCode":"31020","locality":"Salzhemmendorf","municipality":{"key":"03252008","name":"Salzhemmendorf, Flecken","type":"Kreisangehörige_Gemeinde"},"district":{"key":"03252","name":"Hameln-Pyrmont","type":"Landkreis"},"federalState":{"key":"03","name":"Niedersachsen"}},{"name":"Mühlenwall","postalCode":"31020","locality":"Salzhemmendorf","municipality":{"key":"03252008","name":"Salzhemmendorf, Flecken","type":"Kreisangehörige_Gemeinde"},"district":{"key":"03252","name":"Hameln-Pyrmont","type":"Landkreis"},"federalState":{"key":"03","name":"Niedersachsen"}},{"name":"Multhöpen","postalCode":"31020","locality":"Salzhemmendorf","municipality":{"key":"03252008","name":"Salzhemmendorf, Flecken","type":"Kreisangehörige_Gemeinde"},"district":{"key":"03252","name":"Hameln-Pyrmont","type":"Landkreis"},"federalState":{"key":"03","name":"Niedersachsen"}},{"name":"Musbrink","postalCode":"31020","locality":"Salzhemmendorf","municipality":{"key":"03252008","name":"Salzhemmendorf, Flecken","type":"Kreisangehörige_Gemeinde"},"district":{"key":"03252","name":"Hameln-Pyrmont","type":"Landkreis"},"federalState":{"key":"03","name":"Niedersachsen"}},{"name":"Nelkenstr.","postalCode":"31020","locality":"Salzhemmendorf","municipality":{"key":"03252008","name":"Salzhemmendorf, Flecken","type":"Kreisangehörige_Gemeinde"},"district":{"key":"03252","name":"Hameln-Pyrmont","type":"Landkreis"},"federalState":{"key":"03","name":"Niedersachsen"}},{"name":"Nesselweg","postalCode":"31020","locality":"Salzhemmendorf","municipality":{"key":"03252008","name":"Salzhemmendorf, Flecken","type":"Kreisangehörige_Gemeinde"},"district":{"key":"03252","name":"Hameln-Pyrmont","type":"Landkreis"},"federalState":{"key":"03","name":"Niedersachsen"}},{"name":"Neuer Weg","postalCode":"31020","locality":"Salzhemmendorf","municipality":{"key":"03252008","name":"Salzhemmendorf, Flecken","type":"Kreisangehörige_Gemeinde"},"district":{"key":"03252","name":"Hameln-Pyrmont","type":"Landkreis"},"federalState":{"key":"03","name":"Niedersachsen"}},{"name":"Niedertor","postalCode":"31020","locality":"Salzhemmendorf","municipality":{"key":"03252008","name":"Salzhemmendorf, Flecken","type":"Kreisangehörige_Gemeinde"},"district":{"key":"03252","name":"Hameln-Pyrmont","type":"Landkreis"},"federalState":{"key":"03","name":"Niedersachsen"}},{"name":"Nordstr.","postalCode":"31020","locality":"Salzhemmendorf","municipality":{"key":"03252008","name":"Salzhemmendorf, Flecken","type":"Kreisangehörige_Gemeinde"},"district":{"key":"03252","name":"Hameln-Pyrmont","type":"Landkreis"},"federalState":{"key":"03","name":"Niedersachsen"}},{"name":"Obertor","postalCode":"31020","locality":"Salzhemmendorf","municipality":{"key":"03252008","name":"Salzhemmendorf, Flecken","type":"Kreisangehörige_Gemeinde"},"district":{"key":"03252","name":"Hameln-Pyrmont","type":"Landkreis"},"federalState":{"key":"03","name":"Niedersachsen"}},{"name":"Oldendorfer Str.","postalCode":"31020","locality":"Salzhemmendorf","municipality":{"key":"03252008","name":"Salzhemmendorf, Flecken","type":"Kreisangehörige_Gemeinde"},"district":{"key":"03252","name":"Hameln-Pyrmont","type":"Landkreis"},"federalState":{"key":"03","name":"Niedersachsen"}},{"name":"Osterstr.","postalCode":"31020","locality":"Salzhemmendorf","municipality":{"key":"03252008","name":"Salzhemmendorf, Flecken","type":"Kreisangehörige_Gemeinde"},"district":{"key":"03252","name":"Hameln-Pyrmont","type":"Landkreis"},"federalState":{"key":"03","name":"Niedersachsen"}},{"name":"Osterwalder Str.","postalCode":"31020","locality":"Salzhemmendorf","municipality":{"key":"03252008","name":"Salzhemmendorf, Flecken","type":"Kreisangehörige_Gemeinde"},"district":{"key":"03252","name":"Hameln-Pyrmont","type":"Landkreis"},"federalState":{"key":"03","name":"Niedersachsen"}},{"name":"Ostlandstr.","postalCode":"31020","locality":"Salzhemmendorf","municipality":{"key":"03252008","name":"Salzhemmendorf, Flecken","type":"Kreisangehörige_Gemeinde"},"district":{"key":"03252","name":"Hameln-Pyrmont","type":"Landkreis"},"federalState":{"key":"03","name":"Niedersachsen"}},{"name":"Otto-Hesse-Weg","postalCode":"31020","locality":"Salzhemmendorf","municipality":{"key":"03252008","name":"Salzhemmendorf, Flecken","type":"Kreisangehörige_Gemeinde"},"district":{"key":"03252","name":"Hameln-Pyrmont","type":"Landkreis"},"federalState":{"key":"03","name":"Niedersachsen"}},{"name":"Otto-Kreibaum-Str.","postalCode":"31020","locality":"Salzhemmendorf","municipality":{"key":"03252008","name":"Salzhemmendorf, Flecken","type":"Kreisangehörige_Gemeinde"},"district":{"key":"03252","name":"Hameln-Pyrmont","type":"Landkreis"},"federalState":{"key":"03","name":"Niedersachsen"}},{"name":"Pagenberg","postalCode":"29579","locality":"Emmendorf","municipality":{"key":"03360008","name":"Emmendorf","type":"Kreisangehörige_Gemeinde"},"district":{"key":"03360","name":"Uelzen","type":"Landkreis"},"federalState":{"key":"03","name":"Niedersachsen"}},{"name":"Pfarrlandstr.","postalCode":"31020","locality":"Salzhemmendorf","municipality":{"key":"03252008","name":"Salzhemmendorf, Flecken","type":"Kreisangehörige_Gemeinde"},"district":{"key":"03252","name":"Hameln-Pyrmont","type":"Landkreis"},"federalState":{"key":"03","name":"Niedersachsen"}},{"name":"Postturmweg","postalCode":"31020","locality":"Salzhemmendorf","municipality":{"key":"03252008","name":"Salzhemmendorf, Flecken","type":"Kreisangehörige_Gemeinde"},"district":{"key":"03252","name":"Hameln-Pyrmont","type":"Landkreis"},"federalState":{"key":"03","name":"Niedersachsen"}},{"name":"Postweg","postalCode":"31020","locality":"Salzhemmendorf","municipality":{"key":"03252008","name":"Salzhemmendorf, Flecken","type":"Kreisangehörige_Gemeinde"},"district":{"key":"03252","name":"Hameln-Pyrmont","type":"Landkreis"},"federalState":{"key":"03","name":"Niedersachsen"}},{"name":"Potsdamer Platz","postalCode":"31020","locality":"Salzhemmendorf","municipality":{"key":"03252008","name":"Salzhemmendorf, Flecken","type":"Kreisangehörige_Gemeinde"},"district":{"key":"03252","name":"Hameln-Pyrmont","type":"Landkreis"},"federalState":{"key":"03","name":"Niedersachsen"}},{"name":"Potsdamer Str.","postalCode":"31020","locality":"Salzhemmendorf","municipality":{"key":"03252008","name":"Salzhemmendorf, Flecken","type":"Kreisangehörige_Gemeinde"},"district":{"key":"03252","name":"Hameln-Pyrmont","type":"Landkreis"},"federalState":{"key":"03","name":"Niedersachsen"}},{"name":"Pottkuhlenweg","postalCode":"31020","locality":"Salzhemmendorf","municipality":{"key":"03252008","name":"Salzhemmendorf, Flecken","type":"Kreisangehörige_Gemeinde"},"district":{"key":"03252","name":"Hameln-Pyrmont","type":"Landkreis"},"federalState":{"key":"03","name":"Niedersachsen"}},{"name":"Quanthof","postalCode":"31020","locality":"Salzhemmendorf","municipality":{"key":"03252008","name":"Salzhemmendorf, Flecken","type":"Kreisangehörige_Gemeinde"},"district":{"key":"03252","name":"Hameln-Pyrmont","type":"Landkreis"},"federalState":{"key":"03","name":"Niedersachsen"}},{"name":"Quanthofer Str.","postalCode":"31020","locality":"Salzhemmendorf","municipality":{"key":"03252008","name":"Salzhemmendorf, Flecken","type":"Kreisangehörige_Gemeinde"},"district":{"key":"03252","name":"Hameln-Pyrmont","type":"Landkreis"},"federalState":{"key":"03","name":"Niedersachsen"}},{"name":"Quellweg","postalCode":"31020","locality":"Salzhemmendorf","municipality":{"key":"03252008","name":"Salzhemmendorf, Flecken","type":"Kreisangehörige_Gemeinde"},"district":{"key":"03252","name":"Hameln-Pyrmont","type":"Landkreis"},"federalState":{"key":"03","name":"Niedersachsen"}},{"name":"Rehwechsel","postalCode":"31020","locality":"Salzhemmendorf","municipality":{"key":"03252008","name":"Salzhemmendorf, Flecken","type":"Kreisangehörige_Gemeinde"},"district":{"key":"03252","name":"Hameln-Pyrmont","type":"Landkreis"},"federalState":{"key":"03","name":"Niedersachsen"}},{"name":"Rennenberg","postalCode":"31020","locality":"Salzhemmendorf","municipality":{"key":"03252008","name":"Salzhemmendorf, Flecken","type":"Kreisangehörige_Gemeinde"},"district":{"key":"03252","name":"Hameln-Pyrmont","type":"Landkreis"},"federalState":{"key":"03","name":"Niedersachsen"}},{"name":"Ringstr.","postalCode":"31020","locality":"Salzhemmendorf","municipality":{"key":"03252008","name":"Salzhemmendorf, Flecken","type":"Kreisangehörige_Gemeinde"},"district":{"key":"03252","name":"Hameln-Pyrmont","type":"Landkreis"},"federalState":{"key":"03","name":"Niedersachsen"}},{"name":"Röderweg","postalCode":"31020","locality":"Salzhemmendorf","municipality":{"key":"03252008","name":"Salzhemmendorf, Flecken","type":"Kreisangehörige_Gemeinde"},"district":{"key":"03252","name":"Hameln-Pyrmont","type":"Landkreis"},"federalState":{"key":"03","name":"Niedersachsen"}},{"name":"Rosenstr.","postalCode":"31020","locality":"Salzhemmendorf","municipality":{"key":"03252008","name":"Salzhemmendorf, Flecken","type":"Kreisangehörige_Gemeinde"},"district":{"key":"03252","name":"Hameln-Pyrmont","type":"Landkreis"},"federalState":{"key":"03","name":"Niedersachsen"}},{"name":"Rosenweg","postalCode":"31020","locality":"Salzhemmendorf","municipality":{"key":"03252008","name":"Salzhemmendorf, Flecken","type":"Kreisangehörige_Gemeinde"},"district":{"key":"03252","name":"Hameln-Pyrmont","type":"Landkreis"},"federalState":{"key":"03","name":"Niedersachsen"}},{"name":"Rotdornweg","postalCode":"31020","locality":"Salzhemmendorf","municipality":{"key":"03252008","name":"Salzhemmendorf, Flecken","type":"Kreisangehörige_Gemeinde"},"district":{"key":"03252","name":"Hameln-Pyrmont","type":"Landkreis"},"federalState":{"key":"03","name":"Niedersachsen"}},{"name":"Rudolf-Hartung-Weg","postalCode":"31020","locality":"Salzhemmendorf","municipality":{"key":"03252008","name":"Salzhemmendorf, Flecken","type":"Kreisangehörige_Gemeinde"},"district":{"key":"03252","name":"Hameln-Pyrmont","type":"Landkreis"},"federalState":{"key":"03","name":"Niedersachsen"}},{"name":"Rudorff-Str.","postalCode":"31020","locality":"Salzhemmendorf","municipality":{"key":"03252008","name":"Salzhemmendorf, Flecken","type":"Kreisangehörige_Gemeinde"},"district":{"key":"03252","name":"Hameln-Pyrmont","type":"Landkreis"},"federalState":{"key":"03","name":"Niedersachsen"}},{"name":"Rundweg","postalCode":"31020","locality":"Salzhemmendorf","municipality":{"key":"03252008","name":"Salzhemmendorf, Flecken","type":"Kreisangehörige_Gemeinde"},"district":{"key":"03252","name":"Hameln-Pyrmont","type":"Landkreis"},"federalState":{"key":"03","name":"Niedersachsen"}},{"name":"Saalestr.","postalCode":"31020","locality":"Salzhemmendorf","municipality":{"key":"03252008","name":"Salzhemmendorf, Flecken","type":"Kreisangehörige_Gemeinde"},"district":{"key":"03252","name":"Hameln-Pyrmont","type":"Landkreis"},"federalState":{"key":"03","name":"Niedersachsen"}},{"name":"Sackstr.","postalCode":"31020","locality":"Salzhemmendorf","municipality":{"key":"03252008","name":"Salzhemmendorf, Flecken","type":"Kreisangehörige_Gemeinde"},"district":{"key":"03252","name":"Hameln-Pyrmont","type":"Landkreis"},"federalState":{"key":"03","name":"Niedersachsen"}},{"name":"Salzburger Str.","postalCode":"31020","locality":"Salzhemmendorf","municipality":{"key":"03252008","name":"Salzhemmendorf, Flecken","type":"Kreisangehörige_Gemeinde"},"district":{"key":"03252","name":"Hameln-Pyrmont","type":"Landkreis"},"federalState":{"key":"03","name":"Niedersachsen"}},{"name":"Salzhemmendorfer Str.","postalCode":"31020","locality":"Salzhemmendorf","municipality":{"key":"03252008","name":"Salzhemmendorf, Flecken","type":"Kreisangehörige_Gemeinde"},"district":{"key":"03252","name":"Hameln-Pyrmont","type":"Landkreis"},"federalState":{"key":"03","name":"Niedersachsen"}},{"name":"Salzhemmendorfer Weg","postalCode":"31020","locality":"Salzhemmendorf","municipality":{"key":"03252008","name":"Salzhemmendorf, Flecken","type":"Kreisangehörige_Gemeinde"},"district":{"key":"03252","name":"Hameln-Pyrmont","type":"Landkreis"},"federalState":{"key":"03","name":"Niedersachsen"}},{"name":"Sandstr.","postalCode":"31020","locality":"Salzhemmendorf","municipality":{"key":"03252008","name":"Salzhemmendorf, Flecken","type":"Kreisangehörige_Gemeinde"},"district":{"key":"03252","name":"Hameln-Pyrmont","type":"Landkreis"},"federalState":{"key":"03","name":"Niedersachsen"}},{"name":"Schlagbaumstr.","postalCode":"31020","locality":"Salzhemmendorf","municipality":{"key":"03252008","name":"Salzhemmendorf, Flecken","type":"Kreisangehörige_Gemeinde"},"district":{"key":"03252","name":"Hameln-Pyrmont","type":"Landkreis"},"federalState":{"key":"03","name":"Niedersachsen"}},{"name":"Schmiedeweg","postalCode":"31020","locality":"Salzhemmendorf","municipality":{"key":"03252008","name":"Salzhemmendorf, Flecken","type":"Kreisangehörige_Gemeinde"},"district":{"key":"03252","name":"Hameln-Pyrmont","type":"Landkreis"},"federalState":{"key":"03","name":"Niedersachsen"}},{"name":"Schulstr.","postalCode":"31020","locality":"Salzhemmendorf","municipality":{"key":"03252008","name":"Salzhemmendorf, Flecken","type":"Kreisangehörige_Gemeinde"},"district":{"key":"03252","name":"Hameln-Pyrmont","type":"Landkreis"},"federalState":{"key":"03","name":"Niedersachsen"}},{"name":"Schulweg","postalCode":"31020","locality":"Salzhemmendorf","municipality":{"key":"03252008","name":"Salzhemmendorf, Flecken","type":"Kreisangehörige_Gemeinde"},"district":{"key":"03252","name":"Hameln-Pyrmont","type":"Landkreis"},"federalState":{"key":"03","name":"Niedersachsen"}},{"name":"Schützenplatzweg","postalCode":"31020","locality":"Salzhemmendorf","municipality":{"key":"03252008","name":"Salzhemmendorf, Flecken","type":"Kreisangehörige_Gemeinde"},"district":{"key":"03252","name":"Hameln-Pyrmont","type":"Landkreis"},"federalState":{"key":"03","name":"Niedersachsen"}},{"name":"Schwarzer Weg","postalCode":"29579","locality":"Emmendorf","municipality":{"key":"03360008","name":"Emmendorf","type":"Kreisangehörige_Gemeinde"},"district":{"key":"03360","name":"Uelzen","type":"Landkreis"},"federalState":{"key":"03","name":"Niedersachsen"}},{"name":"Schwarzer Weg","postalCode":"31020","locality":"Salzhemmendorf","municipality":{"key":"03252008","name":"Salzhemmendorf, Flecken","type":"Kreisangehörige_Gemeinde"},"district":{"key":"03252","name":"Hameln-Pyrmont","type":"Landkreis"},"federalState":{"key":"03","name":"Niedersachsen"}},{"name":"Seebaums Mühle","postalCode":"31020","locality":"Salzhemmendorf","municipality":{"key":"03252008","name":"Salzhemmendorf, Flecken","type":"Kreisangehörige_Gemeinde"},"district":{"key":"03252","name":"Hameln-Pyrmont","type":"Landkreis"},"federalState":{"key":"03","name":"Niedersachsen"}},{"name":"Sperlingsgasse","postalCode":"31020","locality":"Salzhemmendorf","municipality":{"key":"03252008","name":"Salzhemmendorf, Flecken","type":"Kreisangehörige_Gemeinde"},"district":{"key":"03252","name":"Hameln-Pyrmont","type":"Landkreis"},"federalState":{"key":"03","name":"Niedersachsen"}},{"name":"Spiegelberg","postalCode":"31020","locality":"Salzhemmendorf","municipality":{"key":"03252008","name":"Salzhemmendorf, Flecken","type":"Kreisangehörige_Gemeinde"},"district":{"key":"03252","name":"Hameln-Pyrmont","type":"Landkreis"},"federalState":{"key":"03","name":"Niedersachsen"}},{"name":"Springbrunnengrund","postalCode":"31020","locality":"Salzhemmendorf","municipality":{"key":"03252008","name":"Salzhemmendorf, Flecken","type":"Kreisangehörige_Gemeinde"},"district":{"key":"03252","name":"Hameln-Pyrmont","type":"Landkreis"},"federalState":{"key":"03","name":"Niedersachsen"}},{"name":"Spritzenturm","postalCode":"31020","locality":"Salzhemmendorf","municipality":{"key":"03252008","name":"Salzhemmendorf, Flecken","type":"Kreisangehörige_Gemeinde"},"district":{"key":"03252","name":"Hameln-Pyrmont","type":"Landkreis"},"federalState":{"key":"03","name":"Niedersachsen"}},{"name":"Steigerbrink","postalCode":"31020","locality":"Salzhemmendorf","municipality":{"key":"03252008","name":"Salzhemmendorf, Flecken","type":"Kreisangehörige_Gemeinde"},"district":{"key":"03252","name":"Hameln-Pyrmont","type":"Landkreis"},"federalState":{"key":"03","name":"Niedersachsen"}},{"name":"Steinweg","postalCode":"31020","locality":"Salzhemmendorf","municipality":{"key":"03252008","name":"Salzhemmendorf, Flecken","type":"Kreisangehörige_Gemeinde"},"district":{"key":"03252","name":"Hameln-Pyrmont","type":"Landkreis"},"federalState":{"key":"03","name":"Niedersachsen"}},{"name":"Stettiner Str.","postalCode":"31020","locality":"Salzhemmendorf","municipality":{"key":"03252008","name":"Salzhemmendorf, Flecken","type":"Kreisangehörige_Gemeinde"},"district":{"key":"03252","name":"Hameln-Pyrmont","type":"Landkreis"},"federalState":{"key":"03","name":"Niedersachsen"}},{"name":"Teichstr.","postalCode":"31020","locality":"Salzhemmendorf","municipality":{"key":"03252008","name":"Salzhemmendorf, Flecken","type":"Kreisangehörige_Gemeinde"},"district":{"key":"03252","name":"Hameln-Pyrmont","type":"Landkreis"},"federalState":{"key":"03","name":"Niedersachsen"}},{"name":"Tulpenweg","postalCode":"31020","locality":"Salzhemmendorf","municipality":{"key":"03252008","name":"Salzhemmendorf, Flecken","type":"Kreisangehörige_Gemeinde"},"district":{"key":"03252","name":"Hameln-Pyrmont","type":"Landkreis"},"federalState":{"key":"03","name":"Niedersachsen"}},{"name":"Uelzener Str.","postalCode":"29579","locality":"Emmendorf","municipality":{"key":"03360008","name":"Emmendorf","type":"Kreisangehörige_Gemeinde"},"district":{"key":"03360","name":"Uelzen","type":"Landkreis"},"federalState":{"key":"03","name":"Niedersachsen"}},{"name":"Ulmenweg","postalCode":"31020","locality":"Salzhemmendorf","municipality":{"key":"03252008","name":"Salzhemmendorf, Flecken","type":"Kreisangehörige_Gemeinde"},"district":{"key":"03252","name":"Hameln-Pyrmont","type":"Landkreis"},"federalState":{"key":"03","name":"Niedersachsen"}},{"name":"Unter dem Hagenbrink","postalCode":"31020","locality":"Salzhemmendorf","municipality":{"key":"03252008","name":"Salzhemmendorf, Flecken","type":"Kreisangehörige_Gemeinde"},"district":{"key":"03252","name":"Hameln-Pyrmont","type":"Landkreis"},"federalState":{"key":"03","name":"Niedersachsen"}},{"name":"Unter den Eichen","postalCode":"31020","locality":"Salzhemmendorf","municipality":{"key":"03252008","name":"Salzhemmendorf, Flecken","type":"Kreisangehörige_Gemeinde"},"district":{"key":"03252","name":"Hameln-Pyrmont","type":"Landkreis"},"federalState":{"key":"03","name":"Niedersachsen"}},{"name":"Unter den Tannen","postalCode":"31020","locality":"Salzhemmendorf","municipality":{"key":"03252008","name":"Salzhemmendorf, Flecken","type":"Kreisangehörige_Gemeinde"},"district":{"key":"03252","name":"Hameln-Pyrmont","type":"Landkreis"},"federalState":{"key":"03","name":"Niedersachsen"}},{"name":"Veilchengasse","postalCode":"31020","locality":"Salzhemmendorf","municipality":{"key":"03252008","name":"Salzhemmendorf, Flecken","type":"Kreisangehörige_Gemeinde"},"district":{"key":"03252","name":"Hameln-Pyrmont","type":"Landkreis"},"federalState":{"key":"03","name":"Niedersachsen"}},{"name":"Vogelsang","postalCode":"31020","locality":"Salzhemmendorf","municipality":{"key":"03252008","name":"Salzhemmendorf, Flecken","type":"Kreisangehörige_Gemeinde"},"district":{"key":"03252","name":"Hameln-Pyrmont","type":"Landkreis"},"federalState":{"key":"03","name":"Niedersachsen"}},{"name":"Vor dem Heisterberg","postalCode":"29579","locality":"Emmendorf","municipality":{"key":"03360008","name":"Emmendorf","type":"Kreisangehörige_Gemeinde"},"district":{"key":"03360","name":"Uelzen","type":"Landkreis"},"federalState":{"key":"03","name":"Niedersachsen"}},{"name":"Vor dem Tore","postalCode":"31020","locality":"Salzhemmendorf","municipality":{"key":"03252008","name":"Salzhemmendorf, Flecken","type":"Kreisangehörige_Gemeinde"},"district":{"key":"03252","name":"Hameln-Pyrmont","type":"Landkreis"},"federalState":{"key":"03","name":"Niedersachsen"}},{"name":"Wallbaumstr.","postalCode":"31020","locality":"Salzhemmendorf","municipality":{"key":"03252008","name":"Salzhemmendorf, Flecken","type":"Kreisangehörige_Gemeinde"},"district":{"key":"03252","name":"Hameln-Pyrmont","type":"Landkreis"},"federalState":{"key":"03","name":"Niedersachsen"}},{"name":"Wallstr.","postalCode":"31020","locality":"Salzhemmendorf","municipality":{"key":"03252008","name":"Salzhemmendorf, Flecken","type":"Kreisangehörige_Gemeinde"},"district":{"key":"03252","name":"Hameln-Pyrmont","type":"Landkreis"},"federalState":{"key":"03","name":"Niedersachsen"}},{"name":"Wellerweg","postalCode":"31020","locality":"Salzhemmendorf","municipality":{"key":"03252008","name":"Salzhemmendorf, Flecken","type":"Kreisangehörige_Gemeinde"},"district":{"key":"03252","name":"Hameln-Pyrmont","type":"Landkreis"},"federalState":{"key":"03","name":"Niedersachsen"}},{"name":"Wilhelm-Bonin-Str.","postalCode":"31020","locality":"Salzhemmendorf","municipality":{"key":"03252008","name":"Salzhemmendorf, Flecken","type":"Kreisangehörige_Gemeinde"},"district":{"key":"03252","name":"Hameln-Pyrmont","type":"Landkreis"},"federalState":{"key":"03","name":"Niedersachsen"}},{"name":"Wilhelm-Busch-Str.","postalCode":"31020","locality":"Salzhemmendorf","municipality":{"key":"03252008","name":"Salzhemmendorf, Flecken","type":"Kreisangehörige_Gemeinde"},"district":{"key":"03252","name":"Hameln-Pyrmont","type":"Landkreis"},"federalState":{"key":"03","name":"Niedersachsen"}},{"name":"Wilhelm-Henze-Str.","postalCode":"31020","locality":"Salzhemmendorf","municipality":{"key":"03252008","name":"Salzhemmendorf, Flecken","type":"Kreisangehörige_Gemeinde"},"district":{"key":"03252","name":"Hameln-Pyrmont","type":"Landkreis"},"federalState":{"key":"03","name":"Niedersachsen"}},{"name":"Wilhelm-Raabe-Str.","postalCode":"31020","locality":"Salzhemmendorf","municipality":{"key":"03252008","name":"Salzhemmendorf, Flecken","type":"Kreisangehörige_Gemeinde"},"district":{"key":"03252","name":"Hameln-Pyrmont","type":"Landkreis"},"federalState":{"key":"03","name":"Niedersachsen"}},{"name":"Zum Reuteranger","postalCode":"31020","locality":"Salzhemmendorf","municipality":{"key":"03252008","name":"Salzhemmendorf, Flecken","type":"Kreisangehörige_Gemeinde"},"district":{"key":"03252","name":"Hameln-Pyrmont","type":"Landkreis"},"federalState":{"key":"03","name":"Niedersachsen"}},{"name":"Zum Wasserbaum","postalCode":"31020","locality":"Salzhemmendorf","municipality":{"key":"03252008","name":"Salzhemmendorf, Flecken","type":"Kreisangehörige_Gemeinde"},"district":{"key":"03252","name":"Hameln-Pyrmont","type":"Landkreis"},"federalState":{"key":"03","name":"Niedersachsen"}},{"name":"Zur Kräuterwiese","postalCode":"31020","locality":"Salzhemmendorf","municipality":{"key":"03252008","name":"Salzhemmendorf, Flecken","type":"Kreisangehörige_Gemeinde"},"district":{"key":"03252","name":"Hameln-Pyrmont","type":"Landkreis"},"federalState":{"key":"03","name":"Niedersachsen"}},{"name":"Zur Sporthalle","postalCode":"31020","locality":"Salzhemmendorf","municipality":{"key":"03252008","name":"Salzhemmendorf, Flecken","type":"Kreisangehörige_Gemeinde"},"district":{"key":"03252","name":"Hameln-Pyrmont","type":"Landkreis"},"federalState":{"key":"03","name":"Niedersachsen"}},{"name":"Über dem Hagen","postalCode":"31020","locality":"Salzhemmendorf","municipality":{"key":"03252008","name":"Salzhemmendorf, Flecken","type":"Kreisangehörige_Gemeinde"},"district":{"key":"03252","name":"Hameln-Pyrmont","type":"Landkreis"},"federalState":{"key":"03","name":"Niedersachsen"}},]