[{"name":"Am Gries","postalCode":"98693","locality":"Martinroda","municipality":{"key":"16070034","name":"Martinroda","type":"Kreisangehörige_Gemeinde"},"district":{"key":"16070","name":"Ilm-Kreis","type":"Landkreis"},"federalState":{"key":"16","name":"Thüringen"}},{"name":"Am Liebensteiner Weg","postalCode":"99338","locality":"Martinroda","municipality":{"key":"16070034","name":"Martinroda","type":"Kreisangehörige_Gemeinde"},"district":{"key":"16070","name":"Ilm-Kreis","type":"Landkreis"},"federalState":{"key":"16","name":"Thüringen"}},{"name":"Am Maiholz","postalCode":"99338","locality":"Martinroda","municipality":{"key":"16070034","name":"Martinroda","type":"Kreisangehörige_Gemeinde"},"district":{"key":"16070","name":"Ilm-Kreis","type":"Landkreis"},"federalState":{"key":"16","name":"Thüringen"}},{"name":"Am Sportplatz","postalCode":"99338","locality":"Martinroda","municipality":{"key":"16070034","name":"Martinroda","type":"Kreisangehörige_Gemeinde"},"district":{"key":"16070","name":"Ilm-Kreis","type":"Landkreis"},"federalState":{"key":"16","name":"Thüringen"}},{"name":"An der Lehmgrube","postalCode":"99338","locality":"Martinroda","municipality":{"key":"16070034","name":"Martinroda","type":"Kreisangehörige_Gemeinde"},"district":{"key":"16070","name":"Ilm-Kreis","type":"Landkreis"},"federalState":{"key":"16","name":"Thüringen"}},{"name":"Arnstädter Str.","postalCode":"98693","locality":"Martinroda","municipality":{"key":"16070034","name":"Martinroda","type":"Kreisangehörige_Gemeinde"},"district":{"key":"16070","name":"Ilm-Kreis","type":"Landkreis"},"federalState":{"key":"16","name":"Thüringen"}},{"name":"Auf dem Bühl","postalCode":"98693","locality":"Martinroda","municipality":{"key":"16070034","name":"Martinroda","type":"Kreisangehörige_Gemeinde"},"district":{"key":"16070","name":"Ilm-Kreis","type":"Landkreis"},"federalState":{"key":"16","name":"Thüringen"}},{"name":"Bergstr.","postalCode":"99338","locality":"Martinroda","municipality":{"key":"16070034","name":"Martinroda","type":"Kreisangehörige_Gemeinde"},"district":{"key":"16070","name":"Ilm-Kreis","type":"Landkreis"},"federalState":{"key":"16","name":"Thüringen"}},{"name":"Der Mühlweg","postalCode":"98693","locality":"Martinroda","municipality":{"key":"16070034","name":"Martinroda","type":"Kreisangehörige_Gemeinde"},"district":{"key":"16070","name":"Ilm-Kreis","type":"Landkreis"},"federalState":{"key":"16","name":"Thüringen"}},{"name":"Elgersburger Str.","postalCode":"98693","locality":"Martinroda","municipality":{"key":"16070034","name":"Martinroda","type":"Kreisangehörige_Gemeinde"},"district":{"key":"16070","name":"Ilm-Kreis","type":"Landkreis"},"federalState":{"key":"16","name":"Thüringen"}},{"name":"Eselsgasse","postalCode":"98693","locality":"Martinroda","municipality":{"key":"16070034","name":"Martinroda","type":"Kreisangehörige_Gemeinde"},"district":{"key":"16070","name":"Ilm-Kreis","type":"Landkreis"},"federalState":{"key":"16","name":"Thüringen"}},{"name":"Feldstr.","postalCode":"98693","locality":"Martinroda","municipality":{"key":"16070034","name":"Martinroda","type":"Kreisangehörige_Gemeinde"},"district":{"key":"16070","name":"Ilm-Kreis","type":"Landkreis"},"federalState":{"key":"16","name":"Thüringen"}},{"name":"Festplatz am Paradiesrand","postalCode":"98693","locality":"Martinroda","municipality":{"key":"16070034","name":"Martinroda","type":"Kreisangehörige_Gemeinde"},"district":{"key":"16070","name":"Ilm-Kreis","type":"Landkreis"},"federalState":{"key":"16","name":"Thüringen"}},{"name":"Gartenstr.","postalCode":"98693","locality":"Martinroda","municipality":{"key":"16070034","name":"Martinroda","type":"Kreisangehörige_Gemeinde"},"district":{"key":"16070","name":"Ilm-Kreis","type":"Landkreis"},"federalState":{"key":"16","name":"Thüringen"}},{"name":"Geraberger Weg","postalCode":"99338","locality":"Martinroda","municipality":{"key":"16070034","name":"Martinroda","type":"Kreisangehörige_Gemeinde"},"district":{"key":"16070","name":"Ilm-Kreis","type":"Landkreis"},"federalState":{"key":"16","name":"Thüringen"}},{"name":"Geschwendaer Str.","postalCode":"99338","locality":"Martinroda","municipality":{"key":"16070034","name":"Martinroda","type":"Kreisangehörige_Gemeinde"},"district":{"key":"16070","name":"Ilm-Kreis","type":"Landkreis"},"federalState":{"key":"16","name":"Thüringen"}},{"name":"Große Gasse","postalCode":"99338","locality":"Martinroda","municipality":{"key":"16070034","name":"Martinroda","type":"Kreisangehörige_Gemeinde"},"district":{"key":"16070","name":"Ilm-Kreis","type":"Landkreis"},"federalState":{"key":"16","name":"Thüringen"}},{"name":"Hauptstr.","postalCode":"99338","locality":"Martinroda","municipality":{"key":"16070034","name":"Martinroda","type":"Kreisangehörige_Gemeinde"},"district":{"key":"16070","name":"Ilm-Kreis","type":"Landkreis"},"federalState":{"key":"16","name":"Thüringen"}},{"name":"Heidegarten","postalCode":"98693","locality":"Martinroda","municipality":{"key":"16070034","name":"Martinroda","type":"Kreisangehörige_Gemeinde"},"district":{"key":"16070","name":"Ilm-Kreis","type":"Landkreis"},"federalState":{"key":"16","name":"Thüringen"}},{"name":"Heydaer Str.","postalCode":"98693","locality":"Martinroda","municipality":{"key":"16070034","name":"Martinroda","type":"Kreisangehörige_Gemeinde"},"district":{"key":"16070","name":"Ilm-Kreis","type":"Landkreis"},"federalState":{"key":"16","name":"Thüringen"}},{"name":"Ilmenauer Fußweg","postalCode":"98693","locality":"Martinroda","municipality":{"key":"16070034","name":"Martinroda","type":"Kreisangehörige_Gemeinde"},"district":{"key":"16070","name":"Ilm-Kreis","type":"Landkreis"},"federalState":{"key":"16","name":"Thüringen"}},{"name":"Kirchberg","postalCode":"98693","locality":"Martinroda","municipality":{"key":"16070034","name":"Martinroda","type":"Kreisangehörige_Gemeinde"},"district":{"key":"16070","name":"Ilm-Kreis","type":"Landkreis"},"federalState":{"key":"16","name":"Thüringen"}},{"name":"Kleine Gasse","postalCode":"99338","locality":"Martinroda","municipality":{"key":"16070034","name":"Martinroda","type":"Kreisangehörige_Gemeinde"},"district":{"key":"16070","name":"Ilm-Kreis","type":"Landkreis"},"federalState":{"key":"16","name":"Thüringen"}},{"name":"Lindenplatz","postalCode":"99338","locality":"Martinroda","municipality":{"key":"16070034","name":"Martinroda","type":"Kreisangehörige_Gemeinde"},"district":{"key":"16070","name":"Ilm-Kreis","type":"Landkreis"},"federalState":{"key":"16","name":"Thüringen"}},{"name":"Marienstr.","postalCode":"98693","locality":"Martinroda","municipality":{"key":"16070034","name":"Martinroda","type":"Kreisangehörige_Gemeinde"},"district":{"key":"16070","name":"Ilm-Kreis","type":"Landkreis"},"federalState":{"key":"16","name":"Thüringen"}},{"name":"Martinrodaer Weg","postalCode":"99338","locality":"Martinroda","municipality":{"key":"16070034","name":"Martinroda","type":"Kreisangehörige_Gemeinde"},"district":{"key":"16070","name":"Ilm-Kreis","type":"Landkreis"},"federalState":{"key":"16","name":"Thüringen"}},{"name":"Neue Länder","postalCode":"98693","locality":"Martinroda","municipality":{"key":"16070034","name":"Martinroda","type":"Kreisangehörige_Gemeinde"},"district":{"key":"16070","name":"Ilm-Kreis","type":"Landkreis"},"federalState":{"key":"16","name":"Thüringen"}},{"name":"Neue Str.","postalCode":"99338","locality":"Martinroda","municipality":{"key":"16070034","name":"Martinroda","type":"Kreisangehörige_Gemeinde"},"district":{"key":"16070","name":"Ilm-Kreis","type":"Landkreis"},"federalState":{"key":"16","name":"Thüringen"}},{"name":"Pinienweg","postalCode":"98693","locality":"Martinroda","municipality":{"key":"16070034","name":"Martinroda","type":"Kreisangehörige_Gemeinde"},"district":{"key":"16070","name":"Ilm-Kreis","type":"Landkreis"},"federalState":{"key":"16","name":"Thüringen"}},{"name":"Querstr.","postalCode":"98693","locality":"Martinroda","municipality":{"key":"16070034","name":"Martinroda","type":"Kreisangehörige_Gemeinde"},"district":{"key":"16070","name":"Ilm-Kreis","type":"Landkreis"},"federalState":{"key":"16","name":"Thüringen"}},{"name":"Schulstr.","postalCode":"98693","locality":"Martinroda","municipality":{"key":"16070034","name":"Martinroda","type":"Kreisangehörige_Gemeinde"},"district":{"key":"16070","name":"Ilm-Kreis","type":"Landkreis"},"federalState":{"key":"16","name":"Thüringen"}},{"name":"Stollenstr.","postalCode":"98693","locality":"Martinroda","municipality":{"key":"16070034","name":"Martinroda","type":"Kreisangehörige_Gemeinde"},"district":{"key":"16070","name":"Ilm-Kreis","type":"Landkreis"},"federalState":{"key":"16","name":"Thüringen"}},{"name":"Veronikaberg","postalCode":"98693","locality":"Martinroda","municipality":{"key":"16070034","name":"Martinroda","type":"Kreisangehörige_Gemeinde"},"district":{"key":"16070","name":"Ilm-Kreis","type":"Landkreis"},"federalState":{"key":"16","name":"Thüringen"}},{"name":"Waldstr.","postalCode":"98693","locality":"Martinroda","municipality":{"key":"16070034","name":"Martinroda","type":"Kreisangehörige_Gemeinde"},"district":{"key":"16070","name":"Ilm-Kreis","type":"Landkreis"},"federalState":{"key":"16","name":"Thüringen"}},{"name":"Waldstr.","postalCode":"99338","locality":"Martinroda","municipality":{"key":"16070034","name":"Martinroda","type":"Kreisangehörige_Gemeinde"},"district":{"key":"16070","name":"Ilm-Kreis","type":"Landkreis"},"federalState":{"key":"16","name":"Thüringen"}},{"name":"Wiesenstr.","postalCode":"98693","locality":"Martinroda","municipality":{"key":"16070034","name":"Martinroda","type":"Kreisangehörige_Gemeinde"},"district":{"key":"16070","name":"Ilm-Kreis","type":"Landkreis"},"federalState":{"key":"16","name":"Thüringen"}},]