[{"key":"10225900","name":"Alfred Lienhard Strasse","postalCode":"9113","locality":"Degersheim","commune":{"key":"3004","name":"Schwellbrunn","shortName":"Schwellbrunn"},"district":{"key":"1501","name":"Bezirk Hinterland"},"canton":{"key":"15","code":"AR","name":"Appenzell Ausserrhoden"},"status":"Real"},{"key":"10225908","name":"Alterswilerstrasse","postalCode":"9113","locality":"Degersheim","commune":{"key":"3004","name":"Schwellbrunn","shortName":"Schwellbrunn"},"district":{"key":"1501","name":"Bezirk Hinterland"},"canton":{"key":"15","code":"AR","name":"Appenzell Ausserrhoden"},"status":"Real"},{"key":"10191342","name":"Amselstrasse","postalCode":"9113","locality":"Degersheim","commune":{"key":"3004","name":"Schwellbrunn","shortName":"Schwellbrunn"},"district":{"key":"1501","name":"Bezirk Hinterland"},"canton":{"key":"15","code":"AR","name":"Appenzell Ausserrhoden"},"status":"Real"},{"key":"10225912","name":"Armbrustschützenweg","postalCode":"9113","locality":"Degersheim","commune":{"key":"3004","name":"Schwellbrunn","shortName":"Schwellbrunn"},"district":{"key":"1501","name":"Bezirk Hinterland"},"canton":{"key":"15","code":"AR","name":"Appenzell Ausserrhoden"},"status":"Real"},{"key":"10092737","name":"Bachstrasse","postalCode":"9113","locality":"Degersheim","commune":{"key":"3004","name":"Schwellbrunn","shortName":"Schwellbrunn"},"district":{"key":"1501","name":"Bezirk Hinterland"},"canton":{"key":"15","code":"AR","name":"Appenzell Ausserrhoden"},"status":"Real"},{"key":"10225920","name":"Bachweg","postalCode":"9113","locality":"Degersheim","commune":{"key":"3004","name":"Schwellbrunn","shortName":"Schwellbrunn"},"district":{"key":"1501","name":"Bezirk Hinterland"},"canton":{"key":"15","code":"AR","name":"Appenzell Ausserrhoden"},"status":"Real"},{"key":"10025431","name":"Bachwies","postalCode":"9113","locality":"Degersheim","commune":{"key":"3004","name":"Schwellbrunn","shortName":"Schwellbrunn"},"district":{"key":"1501","name":"Bezirk Hinterland"},"canton":{"key":"15","code":"AR","name":"Appenzell Ausserrhoden"},"status":"Real"},{"key":"10225924","name":"Bachwiesweg","postalCode":"9113","locality":"Degersheim","commune":{"key":"3004","name":"Schwellbrunn","shortName":"Schwellbrunn"},"district":{"key":"1501","name":"Bezirk Hinterland"},"canton":{"key":"15","code":"AR","name":"Appenzell Ausserrhoden"},"status":"Real"},{"key":"10025432","name":"Bahnhofstrasse","postalCode":"9113","locality":"Degersheim","commune":{"key":"3004","name":"Schwellbrunn","shortName":"Schwellbrunn"},"district":{"key":"1501","name":"Bezirk Hinterland"},"canton":{"key":"15","code":"AR","name":"Appenzell Ausserrhoden"},"status":"Real"},{"key":"10068978","name":"Bahnhofweg","postalCode":"9113","locality":"Degersheim","commune":{"key":"3004","name":"Schwellbrunn","shortName":"Schwellbrunn"},"district":{"key":"1501","name":"Bezirk Hinterland"},"canton":{"key":"15","code":"AR","name":"Appenzell Ausserrhoden"},"status":"Real"},{"key":"10025433","name":"Berg","postalCode":"9113","locality":"Degersheim","commune":{"key":"3004","name":"Schwellbrunn","shortName":"Schwellbrunn"},"district":{"key":"1501","name":"Bezirk Hinterland"},"canton":{"key":"15","code":"AR","name":"Appenzell Ausserrhoden"},"status":"Real"},{"key":"10227536","name":"Bergliweg","postalCode":"9113","locality":"Degersheim","commune":{"key":"3004","name":"Schwellbrunn","shortName":"Schwellbrunn"},"district":{"key":"1501","name":"Bezirk Hinterland"},"canton":{"key":"15","code":"AR","name":"Appenzell Ausserrhoden"},"status":"Real"},{"key":"10092738","name":"Bergstrasse","postalCode":"9113","locality":"Degersheim","commune":{"key":"3004","name":"Schwellbrunn","shortName":"Schwellbrunn"},"district":{"key":"1501","name":"Bezirk Hinterland"},"canton":{"key":"15","code":"AR","name":"Appenzell Ausserrhoden"},"status":"Real"},{"key":"10227540","name":"Bergweg","postalCode":"9113","locality":"Degersheim","commune":{"key":"3004","name":"Schwellbrunn","shortName":"Schwellbrunn"},"district":{"key":"1501","name":"Bezirk Hinterland"},"canton":{"key":"15","code":"AR","name":"Appenzell Ausserrhoden"},"status":"Real"},{"key":"10227544","name":"Berg-Wolfensbergstrasse","postalCode":"9113","locality":"Degersheim","commune":{"key":"3004","name":"Schwellbrunn","shortName":"Schwellbrunn"},"district":{"key":"1501","name":"Bezirk Hinterland"},"canton":{"key":"15","code":"AR","name":"Appenzell Ausserrhoden"},"status":"Real"},{"key":"10227549","name":"Bleimoosweg","postalCode":"9113","locality":"Degersheim","commune":{"key":"3004","name":"Schwellbrunn","shortName":"Schwellbrunn"},"district":{"key":"1501","name":"Bezirk Hinterland"},"canton":{"key":"15","code":"AR","name":"Appenzell Ausserrhoden"},"status":"Real"},{"key":"10068979","name":"Blumenstrasse","postalCode":"9113","locality":"Degersheim","commune":{"key":"3004","name":"Schwellbrunn","shortName":"Schwellbrunn"},"district":{"key":"1501","name":"Bezirk Hinterland"},"canton":{"key":"15","code":"AR","name":"Appenzell Ausserrhoden"},"status":"Real"},{"key":"10227553","name":"Blumenstrasse ab Kehrplatz","postalCode":"9113","locality":"Degersheim","commune":{"key":"3004","name":"Schwellbrunn","shortName":"Schwellbrunn"},"district":{"key":"1501","name":"Bezirk Hinterland"},"canton":{"key":"15","code":"AR","name":"Appenzell Ausserrhoden"},"status":"Real"},{"key":"10025434","name":"Blumenweg","postalCode":"9113","locality":"Degersheim","commune":{"key":"3004","name":"Schwellbrunn","shortName":"Schwellbrunn"},"district":{"key":"1501","name":"Bezirk Hinterland"},"canton":{"key":"15","code":"AR","name":"Appenzell Ausserrhoden"},"status":"Real"},{"key":"10227558","name":"Bruederwald","postalCode":"9113","locality":"Degersheim","commune":{"key":"3004","name":"Schwellbrunn","shortName":"Schwellbrunn"},"district":{"key":"1501","name":"Bezirk Hinterland"},"canton":{"key":"15","code":"AR","name":"Appenzell Ausserrhoden"},"status":"Real"},{"key":"10228424","name":"Buchenstrasse","postalCode":"9113","locality":"Degersheim","commune":{"key":"3004","name":"Schwellbrunn","shortName":"Schwellbrunn"},"district":{"key":"1501","name":"Bezirk Hinterland"},"canton":{"key":"15","code":"AR","name":"Appenzell Ausserrhoden"},"status":"Real"},{"key":"10025435","name":"Büel","postalCode":"9113","locality":"Degersheim","commune":{"key":"3004","name":"Schwellbrunn","shortName":"Schwellbrunn"},"district":{"key":"1501","name":"Bezirk Hinterland"},"canton":{"key":"15","code":"AR","name":"Appenzell Ausserrhoden"},"status":"Real"},{"key":"10102908","name":"Büelberg","postalCode":"9113","locality":"Degersheim","commune":{"key":"3004","name":"Schwellbrunn","shortName":"Schwellbrunn"},"district":{"key":"1501","name":"Bezirk Hinterland"},"canton":{"key":"15","code":"AR","name":"Appenzell Ausserrhoden"},"status":"Real"},{"key":"10228440","name":"Buel-Fuchsacker","postalCode":"9113","locality":"Degersheim","commune":{"key":"3004","name":"Schwellbrunn","shortName":"Schwellbrunn"},"district":{"key":"1501","name":"Bezirk Hinterland"},"canton":{"key":"15","code":"AR","name":"Appenzell Ausserrhoden"},"status":"Real"},{"key":"10228444","name":"Bühlbergstrasse","postalCode":"9113","locality":"Degersheim","commune":{"key":"3004","name":"Schwellbrunn","shortName":"Schwellbrunn"},"district":{"key":"1501","name":"Bezirk Hinterland"},"canton":{"key":"15","code":"AR","name":"Appenzell Ausserrhoden"},"status":"Real"},{"key":"10228448","name":"Bühlbergweg","postalCode":"9113","locality":"Degersheim","commune":{"key":"3004","name":"Schwellbrunn","shortName":"Schwellbrunn"},"district":{"key":"1501","name":"Bezirk Hinterland"},"canton":{"key":"15","code":"AR","name":"Appenzell Ausserrhoden"},"status":"Real"},{"key":"10181680","name":"Bühlstrasse","postalCode":"9113","locality":"Degersheim","commune":{"key":"3004","name":"Schwellbrunn","shortName":"Schwellbrunn"},"district":{"key":"1501","name":"Bezirk Hinterland"},"canton":{"key":"15","code":"AR","name":"Appenzell Ausserrhoden"},"status":"Real"},{"key":"10233669","name":"Bühl-Talweg","postalCode":"9113","locality":"Degersheim","commune":{"key":"3004","name":"Schwellbrunn","shortName":"Schwellbrunn"},"district":{"key":"1501","name":"Bezirk Hinterland"},"canton":{"key":"15","code":"AR","name":"Appenzell Ausserrhoden"},"status":"Real"},{"key":"10092739","name":"Chalberstadel","postalCode":"9113","locality":"Degersheim","commune":{"key":"3004","name":"Schwellbrunn","shortName":"Schwellbrunn"},"district":{"key":"1501","name":"Bezirk Hinterland"},"canton":{"key":"15","code":"AR","name":"Appenzell Ausserrhoden"},"status":"Real"},{"key":"10233673","name":"Chalberstadelstrasse","postalCode":"9113","locality":"Degersheim","commune":{"key":"3004","name":"Schwellbrunn","shortName":"Schwellbrunn"},"district":{"key":"1501","name":"Bezirk Hinterland"},"canton":{"key":"15","code":"AR","name":"Appenzell Ausserrhoden"},"status":"Real"},{"key":"10227614","name":"Chalberstadelweg","postalCode":"9113","locality":"Degersheim","commune":{"key":"3004","name":"Schwellbrunn","shortName":"Schwellbrunn"},"district":{"key":"1501","name":"Bezirk Hinterland"},"canton":{"key":"15","code":"AR","name":"Appenzell Ausserrhoden"},"status":"Real"},{"key":"10228464","name":"Chapfweg","postalCode":"9113","locality":"Degersheim","commune":{"key":"3004","name":"Schwellbrunn","shortName":"Schwellbrunn"},"district":{"key":"1501","name":"Bezirk Hinterland"},"canton":{"key":"15","code":"AR","name":"Appenzell Ausserrhoden"},"status":"Real"},{"key":"10068980","name":"Chrüzstrass","postalCode":"9113","locality":"Degersheim","commune":{"key":"3004","name":"Schwellbrunn","shortName":"Schwellbrunn"},"district":{"key":"1501","name":"Bezirk Hinterland"},"canton":{"key":"15","code":"AR","name":"Appenzell Ausserrhoden"},"status":"Real"},{"key":"10227509","name":"Chrüzweg","postalCode":"9113","locality":"Degersheim","commune":{"key":"3004","name":"Schwellbrunn","shortName":"Schwellbrunn"},"district":{"key":"1501","name":"Bezirk Hinterland"},"canton":{"key":"15","code":"AR","name":"Appenzell Ausserrhoden"},"status":"Real"},{"key":"10233688","name":"Dorfplatzweg","postalCode":"9113","locality":"Degersheim","commune":{"key":"3004","name":"Schwellbrunn","shortName":"Schwellbrunn"},"district":{"key":"1501","name":"Bezirk Hinterland"},"canton":{"key":"15","code":"AR","name":"Appenzell Ausserrhoden"},"status":"Real"},{"key":"10224838","name":"Eggstrasse","postalCode":"9113","locality":"Degersheim","commune":{"key":"3004","name":"Schwellbrunn","shortName":"Schwellbrunn"},"district":{"key":"1501","name":"Bezirk Hinterland"},"canton":{"key":"15","code":"AR","name":"Appenzell Ausserrhoden"},"status":"Real"},{"key":"10233695","name":"Eggstrasse","postalCode":"9113","locality":"Degersheim","commune":{"key":"3004","name":"Schwellbrunn","shortName":"Schwellbrunn"},"district":{"key":"1501","name":"Bezirk Hinterland"},"canton":{"key":"15","code":"AR","name":"Appenzell Ausserrhoden"},"status":"Real"},{"key":"10146460","name":"Eschenhof","postalCode":"9113","locality":"Degersheim","commune":{"key":"3004","name":"Schwellbrunn","shortName":"Schwellbrunn"},"district":{"key":"1501","name":"Bezirk Hinterland"},"canton":{"key":"15","code":"AR","name":"Appenzell Ausserrhoden"},"status":"Real"},{"key":"10233707","name":"Eschenstrasse","postalCode":"9113","locality":"Degersheim","commune":{"key":"3004","name":"Schwellbrunn","shortName":"Schwellbrunn"},"district":{"key":"1501","name":"Bezirk Hinterland"},"canton":{"key":"15","code":"AR","name":"Appenzell Ausserrhoden"},"status":"Real"},{"key":"10025436","name":"Feldeggstrasse","postalCode":"9113","locality":"Degersheim","commune":{"key":"3004","name":"Schwellbrunn","shortName":"Schwellbrunn"},"district":{"key":"1501","name":"Bezirk Hinterland"},"canton":{"key":"15","code":"AR","name":"Appenzell Ausserrhoden"},"status":"Real"},{"key":"10025437","name":"Feldstrasse","postalCode":"9113","locality":"Degersheim","commune":{"key":"3004","name":"Schwellbrunn","shortName":"Schwellbrunn"},"district":{"key":"1501","name":"Bezirk Hinterland"},"canton":{"key":"15","code":"AR","name":"Appenzell Ausserrhoden"},"status":"Real"},{"key":"10233711","name":"Feldweg","postalCode":"9113","locality":"Degersheim","commune":{"key":"3004","name":"Schwellbrunn","shortName":"Schwellbrunn"},"district":{"key":"1501","name":"Bezirk Hinterland"},"canton":{"key":"15","code":"AR","name":"Appenzell Ausserrhoden"},"status":"Real"},{"key":"10233715","name":"Fischenlochweg","postalCode":"9113","locality":"Degersheim","commune":{"key":"3004","name":"Schwellbrunn","shortName":"Schwellbrunn"},"district":{"key":"1501","name":"Bezirk Hinterland"},"canton":{"key":"15","code":"AR","name":"Appenzell Ausserrhoden"},"status":"Real"},{"key":"10251130","name":"Flawilerstrasse","postalCode":"9113","locality":"Degersheim","commune":{"key":"3004","name":"Schwellbrunn","shortName":"Schwellbrunn"},"district":{"key":"1501","name":"Bezirk Hinterland"},"canton":{"key":"15","code":"AR","name":"Appenzell Ausserrhoden"},"status":"Real"},{"key":"10109159","name":"Föhrenstrasse","postalCode":"9113","locality":"Degersheim","commune":{"key":"3004","name":"Schwellbrunn","shortName":"Schwellbrunn"},"district":{"key":"1501","name":"Bezirk Hinterland"},"canton":{"key":"15","code":"AR","name":"Appenzell Ausserrhoden"},"status":"Real"},{"key":"10233719","name":"Föhrenwäldli","postalCode":"9113","locality":"Degersheim","commune":{"key":"3004","name":"Schwellbrunn","shortName":"Schwellbrunn"},"district":{"key":"1501","name":"Bezirk Hinterland"},"canton":{"key":"15","code":"AR","name":"Appenzell Ausserrhoden"},"status":"Real"},{"key":"10249878","name":"Föhrenwäldliweg","postalCode":"9113","locality":"Degersheim","commune":{"key":"3004","name":"Schwellbrunn","shortName":"Schwellbrunn"},"district":{"key":"1501","name":"Bezirk Hinterland"},"canton":{"key":"15","code":"AR","name":"Appenzell Ausserrhoden"},"status":"Real"},{"key":"10184851","name":"Freudenberg","postalCode":"9113","locality":"Degersheim","commune":{"key":"3004","name":"Schwellbrunn","shortName":"Schwellbrunn"},"district":{"key":"1501","name":"Bezirk Hinterland"},"canton":{"key":"15","code":"AR","name":"Appenzell Ausserrhoden"},"status":"Real"},{"key":"10068982","name":"Freudenbergstrasse","postalCode":"9113","locality":"Degersheim","commune":{"key":"3004","name":"Schwellbrunn","shortName":"Schwellbrunn"},"district":{"key":"1501","name":"Bezirk Hinterland"},"canton":{"key":"15","code":"AR","name":"Appenzell Ausserrhoden"},"status":"Real"},{"key":"10233712","name":"Freudenbergweg","postalCode":"9113","locality":"Degersheim","commune":{"key":"3004","name":"Schwellbrunn","shortName":"Schwellbrunn"},"district":{"key":"1501","name":"Bezirk Hinterland"},"canton":{"key":"15","code":"AR","name":"Appenzell Ausserrhoden"},"status":"Real"},{"key":"10025438","name":"Friedbergstrasse","postalCode":"9113","locality":"Degersheim","commune":{"key":"3004","name":"Schwellbrunn","shortName":"Schwellbrunn"},"district":{"key":"1501","name":"Bezirk Hinterland"},"canton":{"key":"15","code":"AR","name":"Appenzell Ausserrhoden"},"status":"Real"},{"key":"10090116","name":"Fuchsacker","postalCode":"9113","locality":"Degersheim","commune":{"key":"3004","name":"Schwellbrunn","shortName":"Schwellbrunn"},"district":{"key":"1501","name":"Bezirk Hinterland"},"canton":{"key":"15","code":"AR","name":"Appenzell Ausserrhoden"},"status":"Real"},{"key":"10092740","name":"Fuchsackerstrasse","postalCode":"9113","locality":"Degersheim","commune":{"key":"3004","name":"Schwellbrunn","shortName":"Schwellbrunn"},"district":{"key":"1501","name":"Bezirk Hinterland"},"canton":{"key":"15","code":"AR","name":"Appenzell Ausserrhoden"},"status":"Real"},{"key":"10233731","name":"Gägelhofweg","postalCode":"9113","locality":"Degersheim","commune":{"key":"3004","name":"Schwellbrunn","shortName":"Schwellbrunn"},"district":{"key":"1501","name":"Bezirk Hinterland"},"canton":{"key":"15","code":"AR","name":"Appenzell Ausserrhoden"},"status":"Real"},{"key":"10191051","name":"Gotthardstrasse","postalCode":"9113","locality":"Degersheim","commune":{"key":"3004","name":"Schwellbrunn","shortName":"Schwellbrunn"},"district":{"key":"1501","name":"Bezirk Hinterland"},"canton":{"key":"15","code":"AR","name":"Appenzell Ausserrhoden"},"status":"Real"},{"key":"10174549","name":"Grüenaustrasse","postalCode":"9113","locality":"Degersheim","commune":{"key":"3004","name":"Schwellbrunn","shortName":"Schwellbrunn"},"district":{"key":"1501","name":"Bezirk Hinterland"},"canton":{"key":"15","code":"AR","name":"Appenzell Ausserrhoden"},"status":"Real"},{"key":"10025439","name":"Gschwend","postalCode":"9113","locality":"Degersheim","commune":{"key":"3004","name":"Schwellbrunn","shortName":"Schwellbrunn"},"district":{"key":"1501","name":"Bezirk Hinterland"},"canton":{"key":"15","code":"AR","name":"Appenzell Ausserrhoden"},"status":"Real"},{"key":"10233739","name":"Gschwendstrasse","postalCode":"9113","locality":"Degersheim","commune":{"key":"3004","name":"Schwellbrunn","shortName":"Schwellbrunn"},"district":{"key":"1501","name":"Bezirk Hinterland"},"canton":{"key":"15","code":"AR","name":"Appenzell Ausserrhoden"},"status":"Real"},{"key":"10092741","name":"Haslen","postalCode":"9113","locality":"Degersheim","commune":{"key":"3004","name":"Schwellbrunn","shortName":"Schwellbrunn"},"district":{"key":"1501","name":"Bezirk Hinterland"},"canton":{"key":"15","code":"AR","name":"Appenzell Ausserrhoden"},"status":"Real"},{"key":"10251358","name":"Hauptstrasse","postalCode":"9113","locality":"Degersheim","commune":{"key":"3004","name":"Schwellbrunn","shortName":"Schwellbrunn"},"district":{"key":"1501","name":"Bezirk Hinterland"},"canton":{"key":"15","code":"AR","name":"Appenzell Ausserrhoden"},"status":"Real"},{"key":"10250935","name":"Hauptstrasse","postalCode":"9113","locality":"Degersheim","commune":{"key":"3004","name":"Schwellbrunn","shortName":"Schwellbrunn"},"district":{"key":"1501","name":"Bezirk Hinterland"},"canton":{"key":"15","code":"AR","name":"Appenzell Ausserrhoden"},"status":"Real"},{"key":"10025440","name":"Heimet","postalCode":"9113","locality":"Degersheim","commune":{"key":"3004","name":"Schwellbrunn","shortName":"Schwellbrunn"},"district":{"key":"1501","name":"Bezirk Hinterland"},"canton":{"key":"15","code":"AR","name":"Appenzell Ausserrhoden"},"status":"Real"},{"key":"10233743","name":"Heimetweg","postalCode":"9113","locality":"Degersheim","commune":{"key":"3004","name":"Schwellbrunn","shortName":"Schwellbrunn"},"district":{"key":"1501","name":"Bezirk Hinterland"},"canton":{"key":"15","code":"AR","name":"Appenzell Ausserrhoden"},"status":"Real"},{"key":"10057185","name":"Hengelen","postalCode":"9113","locality":"Degersheim","commune":{"key":"3004","name":"Schwellbrunn","shortName":"Schwellbrunn"},"district":{"key":"1501","name":"Bezirk Hinterland"},"canton":{"key":"15","code":"AR","name":"Appenzell Ausserrhoden"},"status":"Real"},{"key":"10233746","name":"Hengelen-Müliweid","postalCode":"9113","locality":"Degersheim","commune":{"key":"3004","name":"Schwellbrunn","shortName":"Schwellbrunn"},"district":{"key":"1501","name":"Bezirk Hinterland"},"canton":{"key":"15","code":"AR","name":"Appenzell Ausserrhoden"},"status":"Real"},{"key":"10233750","name":"Hengelenstrasse","postalCode":"9113","locality":"Degersheim","commune":{"key":"3004","name":"Schwellbrunn","shortName":"Schwellbrunn"},"district":{"key":"1501","name":"Bezirk Hinterland"},"canton":{"key":"15","code":"AR","name":"Appenzell Ausserrhoden"},"status":"Real"},{"key":"10181681","name":"Hengelenweg","postalCode":"9113","locality":"Degersheim","commune":{"key":"3004","name":"Schwellbrunn","shortName":"Schwellbrunn"},"district":{"key":"1501","name":"Bezirk Hinterland"},"canton":{"key":"15","code":"AR","name":"Appenzell Ausserrhoden"},"status":"Real"},{"key":"10233754","name":"Herisauerstrasse","postalCode":"9113","locality":"Degersheim","commune":{"key":"3004","name":"Schwellbrunn","shortName":"Schwellbrunn"},"district":{"key":"1501","name":"Bezirk Hinterland"},"canton":{"key":"15","code":"AR","name":"Appenzell Ausserrhoden"},"status":"Real"},{"key":"10093829","name":"Hintere Dorfstrasse","postalCode":"9113","locality":"Degersheim","commune":{"key":"3004","name":"Schwellbrunn","shortName":"Schwellbrunn"},"district":{"key":"1501","name":"Bezirk Hinterland"},"canton":{"key":"15","code":"AR","name":"Appenzell Ausserrhoden"},"status":"Real"},{"key":"10233767","name":"Hintere Feldstrasse","postalCode":"9113","locality":"Degersheim","commune":{"key":"3004","name":"Schwellbrunn","shortName":"Schwellbrunn"},"district":{"key":"1501","name":"Bezirk Hinterland"},"canton":{"key":"15","code":"AR","name":"Appenzell Ausserrhoden"},"status":"Real"},{"key":"10067413","name":"Hintere Löschwendi","postalCode":"9113","locality":"Degersheim","commune":{"key":"3004","name":"Schwellbrunn","shortName":"Schwellbrunn"},"district":{"key":"1501","name":"Bezirk Hinterland"},"canton":{"key":"15","code":"AR","name":"Appenzell Ausserrhoden"},"status":"Real"},{"key":"10233770","name":"Hinterer Postweg","postalCode":"9113","locality":"Degersheim","commune":{"key":"3004","name":"Schwellbrunn","shortName":"Schwellbrunn"},"district":{"key":"1501","name":"Bezirk Hinterland"},"canton":{"key":"15","code":"AR","name":"Appenzell Ausserrhoden"},"status":"Real"},{"key":"10025441","name":"Hintertschwil","postalCode":"9113","locality":"Degersheim","commune":{"key":"3004","name":"Schwellbrunn","shortName":"Schwellbrunn"},"district":{"key":"1501","name":"Bezirk Hinterland"},"canton":{"key":"15","code":"AR","name":"Appenzell Ausserrhoden"},"status":"Real"},{"key":"10233774","name":"Hintertschwilweg","postalCode":"9113","locality":"Degersheim","commune":{"key":"3004","name":"Schwellbrunn","shortName":"Schwellbrunn"},"district":{"key":"1501","name":"Bezirk Hinterland"},"canton":{"key":"15","code":"AR","name":"Appenzell Ausserrhoden"},"status":"Real"},{"key":"10069247","name":"Hörenstrasse","postalCode":"9113","locality":"Degersheim","commune":{"key":"3004","name":"Schwellbrunn","shortName":"Schwellbrunn"},"district":{"key":"1501","name":"Bezirk Hinterland"},"canton":{"key":"15","code":"AR","name":"Appenzell Ausserrhoden"},"status":"Real"},{"key":"10024030","name":"Hörenweg","postalCode":"9113","locality":"Degersheim","commune":{"key":"3004","name":"Schwellbrunn","shortName":"Schwellbrunn"},"district":{"key":"1501","name":"Bezirk Hinterland"},"canton":{"key":"15","code":"AR","name":"Appenzell Ausserrhoden"},"status":"Real"},{"key":"10233066","name":"Hornbergstrasse","postalCode":"9113","locality":"Degersheim","commune":{"key":"3004","name":"Schwellbrunn","shortName":"Schwellbrunn"},"district":{"key":"1501","name":"Bezirk Hinterland"},"canton":{"key":"15","code":"AR","name":"Appenzell Ausserrhoden"},"status":"Real"},{"key":"10024031","name":"Hügelstrasse","postalCode":"9113","locality":"Degersheim","commune":{"key":"3004","name":"Schwellbrunn","shortName":"Schwellbrunn"},"district":{"key":"1501","name":"Bezirk Hinterland"},"canton":{"key":"15","code":"AR","name":"Appenzell Ausserrhoden"},"status":"Real"},{"key":"10024032","name":"Hügelweg","postalCode":"9113","locality":"Degersheim","commune":{"key":"3004","name":"Schwellbrunn","shortName":"Schwellbrunn"},"district":{"key":"1501","name":"Bezirk Hinterland"},"canton":{"key":"15","code":"AR","name":"Appenzell Ausserrhoden"},"status":"Real"},{"key":"10024033","name":"Ifang","postalCode":"9113","locality":"Degersheim","commune":{"key":"3004","name":"Schwellbrunn","shortName":"Schwellbrunn"},"district":{"key":"1501","name":"Bezirk Hinterland"},"canton":{"key":"15","code":"AR","name":"Appenzell Ausserrhoden"},"status":"Real"},{"key":"10228081","name":"Ifang-Chalberstadel","postalCode":"9113","locality":"Degersheim","commune":{"key":"3004","name":"Schwellbrunn","shortName":"Schwellbrunn"},"district":{"key":"1501","name":"Bezirk Hinterland"},"canton":{"key":"15","code":"AR","name":"Appenzell Ausserrhoden"},"status":"Real"},{"key":"10233799","name":"Ifang-Langenetschwil","postalCode":"9113","locality":"Degersheim","commune":{"key":"3004","name":"Schwellbrunn","shortName":"Schwellbrunn"},"district":{"key":"1501","name":"Bezirk Hinterland"},"canton":{"key":"15","code":"AR","name":"Appenzell Ausserrhoden"},"status":"Real"},{"key":"10069248","name":"Ilgenstrasse","postalCode":"9113","locality":"Degersheim","commune":{"key":"3004","name":"Schwellbrunn","shortName":"Schwellbrunn"},"district":{"key":"1501","name":"Bezirk Hinterland"},"canton":{"key":"15","code":"AR","name":"Appenzell Ausserrhoden"},"status":"Real"},{"key":"10233803","name":"Im Waldstrasse","postalCode":"9113","locality":"Degersheim","commune":{"key":"3004","name":"Schwellbrunn","shortName":"Schwellbrunn"},"district":{"key":"1501","name":"Bezirk Hinterland"},"canton":{"key":"15","code":"AR","name":"Appenzell Ausserrhoden"},"status":"Real"},{"key":"10233807","name":"Inzenbergstrasse","postalCode":"9113","locality":"Degersheim","commune":{"key":"3004","name":"Schwellbrunn","shortName":"Schwellbrunn"},"district":{"key":"1501","name":"Bezirk Hinterland"},"canton":{"key":"15","code":"AR","name":"Appenzell Ausserrhoden"},"status":"Real"},{"key":"10181682","name":"Käh","postalCode":"9113","locality":"Degersheim","commune":{"key":"3004","name":"Schwellbrunn","shortName":"Schwellbrunn"},"district":{"key":"1501","name":"Bezirk Hinterland"},"canton":{"key":"15","code":"AR","name":"Appenzell Ausserrhoden"},"status":"Real"},{"key":"10153785","name":"Kähbachstrasse","postalCode":"9113","locality":"Degersheim","commune":{"key":"3004","name":"Schwellbrunn","shortName":"Schwellbrunn"},"district":{"key":"1501","name":"Bezirk Hinterland"},"canton":{"key":"15","code":"AR","name":"Appenzell Ausserrhoden"},"status":"Real"},{"key":"10233815","name":"Käh-Fischenloch-Strasse","postalCode":"9113","locality":"Degersheim","commune":{"key":"3004","name":"Schwellbrunn","shortName":"Schwellbrunn"},"district":{"key":"1501","name":"Bezirk Hinterland"},"canton":{"key":"15","code":"AR","name":"Appenzell Ausserrhoden"},"status":"Real"},{"key":"10233819","name":"Käh-Heimet-Strasse","postalCode":"9113","locality":"Degersheim","commune":{"key":"3004","name":"Schwellbrunn","shortName":"Schwellbrunn"},"district":{"key":"1501","name":"Bezirk Hinterland"},"canton":{"key":"15","code":"AR","name":"Appenzell Ausserrhoden"},"status":"Real"},{"key":"10024035","name":"Kähstrasse","postalCode":"9113","locality":"Degersheim","commune":{"key":"3004","name":"Schwellbrunn","shortName":"Schwellbrunn"},"district":{"key":"1501","name":"Bezirk Hinterland"},"canton":{"key":"15","code":"AR","name":"Appenzell Ausserrhoden"},"status":"Real"},{"key":"10227749","name":"Kapf","postalCode":"9113","locality":"Degersheim","commune":{"key":"3004","name":"Schwellbrunn","shortName":"Schwellbrunn"},"district":{"key":"1501","name":"Bezirk Hinterland"},"canton":{"key":"15","code":"AR","name":"Appenzell Ausserrhoden"},"status":"Real"},{"key":"10093830","name":"Kirchstrasse","postalCode":"9113","locality":"Degersheim","commune":{"key":"3004","name":"Schwellbrunn","shortName":"Schwellbrunn"},"district":{"key":"1501","name":"Bezirk Hinterland"},"canton":{"key":"15","code":"AR","name":"Appenzell Ausserrhoden"},"status":"Real"},{"key":"10250939","name":"Kirchweg","postalCode":"9113","locality":"Degersheim","commune":{"key":"3004","name":"Schwellbrunn","shortName":"Schwellbrunn"},"district":{"key":"1501","name":"Bezirk Hinterland"},"canton":{"key":"15","code":"AR","name":"Appenzell Ausserrhoden"},"status":"Real"},{"key":"10232557","name":"Kurhausweg","postalCode":"9113","locality":"Degersheim","commune":{"key":"3004","name":"Schwellbrunn","shortName":"Schwellbrunn"},"district":{"key":"1501","name":"Bezirk Hinterland"},"canton":{"key":"15","code":"AR","name":"Appenzell Ausserrhoden"},"status":"Real"},{"key":"10110895","name":"Lerchenstrasse","postalCode":"9113","locality":"Degersheim","commune":{"key":"3004","name":"Schwellbrunn","shortName":"Schwellbrunn"},"district":{"key":"1501","name":"Bezirk Hinterland"},"canton":{"key":"15","code":"AR","name":"Appenzell Ausserrhoden"},"status":"Real"},{"key":"10132564","name":"Lindenhof","postalCode":"9113","locality":"Degersheim","commune":{"key":"3004","name":"Schwellbrunn","shortName":"Schwellbrunn"},"district":{"key":"1501","name":"Bezirk Hinterland"},"canton":{"key":"15","code":"AR","name":"Appenzell Ausserrhoden"},"status":"Real"},{"key":"10233847","name":"Lindenhoftäliweg","postalCode":"9113","locality":"Degersheim","commune":{"key":"3004","name":"Schwellbrunn","shortName":"Schwellbrunn"},"district":{"key":"1501","name":"Bezirk Hinterland"},"canton":{"key":"15","code":"AR","name":"Appenzell Ausserrhoden"},"status":"Real"},{"key":"10093831","name":"Lindenhofweg","postalCode":"9113","locality":"Degersheim","commune":{"key":"3004","name":"Schwellbrunn","shortName":"Schwellbrunn"},"district":{"key":"1501","name":"Bezirk Hinterland"},"canton":{"key":"15","code":"AR","name":"Appenzell Ausserrhoden"},"status":"Real"},{"key":"10024036","name":"Lindenstrasse","postalCode":"9113","locality":"Degersheim","commune":{"key":"3004","name":"Schwellbrunn","shortName":"Schwellbrunn"},"district":{"key":"1501","name":"Bezirk Hinterland"},"canton":{"key":"15","code":"AR","name":"Appenzell Ausserrhoden"},"status":"Real"},{"key":"10228137","name":"Luftbad-Inzenberg","postalCode":"9113","locality":"Degersheim","commune":{"key":"3004","name":"Schwellbrunn","shortName":"Schwellbrunn"},"district":{"key":"1501","name":"Bezirk Hinterland"},"canton":{"key":"15","code":"AR","name":"Appenzell Ausserrhoden"},"status":"Real"},{"key":"10228141","name":"Luftbadweg","postalCode":"9113","locality":"Degersheim","commune":{"key":"3004","name":"Schwellbrunn","shortName":"Schwellbrunn"},"district":{"key":"1501","name":"Bezirk Hinterland"},"canton":{"key":"15","code":"AR","name":"Appenzell Ausserrhoden"},"status":"Real"},{"key":"10086155","name":"Mämetschwil","postalCode":"9113","locality":"Degersheim","commune":{"key":"3004","name":"Schwellbrunn","shortName":"Schwellbrunn"},"district":{"key":"1501","name":"Bezirk Hinterland"},"canton":{"key":"15","code":"AR","name":"Appenzell Ausserrhoden"},"status":"Real"},{"key":"10233173","name":"Mämetschwilerstrasse","postalCode":"9113","locality":"Degersheim","commune":{"key":"3004","name":"Schwellbrunn","shortName":"Schwellbrunn"},"district":{"key":"1501","name":"Bezirk Hinterland"},"canton":{"key":"15","code":"AR","name":"Appenzell Ausserrhoden"},"status":"Real"},{"key":"10187481","name":"Matt","postalCode":"9113","locality":"Degersheim","commune":{"key":"3004","name":"Schwellbrunn","shortName":"Schwellbrunn"},"district":{"key":"1501","name":"Bezirk Hinterland"},"canton":{"key":"15","code":"AR","name":"Appenzell Ausserrhoden"},"status":"Real"},{"key":"10114412","name":"Meisenstrasse","postalCode":"9113","locality":"Degersheim","commune":{"key":"3004","name":"Schwellbrunn","shortName":"Schwellbrunn"},"district":{"key":"1501","name":"Bezirk Hinterland"},"canton":{"key":"15","code":"AR","name":"Appenzell Ausserrhoden"},"status":"Real"},{"key":"10228659","name":"Mittlere Feldstrasse","postalCode":"9113","locality":"Degersheim","commune":{"key":"3004","name":"Schwellbrunn","shortName":"Schwellbrunn"},"district":{"key":"1501","name":"Bezirk Hinterland"},"canton":{"key":"15","code":"AR","name":"Appenzell Ausserrhoden"},"status":"Real"},{"key":"10191052","name":"Mühlefeldstrasse","postalCode":"9113","locality":"Degersheim","commune":{"key":"3004","name":"Schwellbrunn","shortName":"Schwellbrunn"},"district":{"key":"1501","name":"Bezirk Hinterland"},"canton":{"key":"15","code":"AR","name":"Appenzell Ausserrhoden"},"status":"Real"},{"key":"10228663","name":"Mühlefeldweg","postalCode":"9113","locality":"Degersheim","commune":{"key":"3004","name":"Schwellbrunn","shortName":"Schwellbrunn"},"district":{"key":"1501","name":"Bezirk Hinterland"},"canton":{"key":"15","code":"AR","name":"Appenzell Ausserrhoden"},"status":"Real"},{"key":"10093832","name":"Mühlegasse","postalCode":"9113","locality":"Degersheim","commune":{"key":"3004","name":"Schwellbrunn","shortName":"Schwellbrunn"},"district":{"key":"1501","name":"Bezirk Hinterland"},"canton":{"key":"15","code":"AR","name":"Appenzell Ausserrhoden"},"status":"Real"},{"key":"10228667","name":"Mühliweidweg","postalCode":"9113","locality":"Degersheim","commune":{"key":"3004","name":"Schwellbrunn","shortName":"Schwellbrunn"},"district":{"key":"1501","name":"Bezirk Hinterland"},"canton":{"key":"15","code":"AR","name":"Appenzell Ausserrhoden"},"status":"Real"},{"key":"10228671","name":"Müli","postalCode":"9113","locality":"Degersheim","commune":{"key":"3004","name":"Schwellbrunn","shortName":"Schwellbrunn"},"district":{"key":"1501","name":"Bezirk Hinterland"},"canton":{"key":"15","code":"AR","name":"Appenzell Ausserrhoden"},"status":"Real"},{"key":"10228675","name":"Müliweid","postalCode":"9113","locality":"Degersheim","commune":{"key":"3004","name":"Schwellbrunn","shortName":"Schwellbrunn"},"district":{"key":"1501","name":"Bezirk Hinterland"},"canton":{"key":"15","code":"AR","name":"Appenzell Ausserrhoden"},"status":"Real"},{"key":"10181683","name":"Nelkenstrasse","postalCode":"9113","locality":"Degersheim","commune":{"key":"3004","name":"Schwellbrunn","shortName":"Schwellbrunn"},"district":{"key":"1501","name":"Bezirk Hinterland"},"canton":{"key":"15","code":"AR","name":"Appenzell Ausserrhoden"},"status":"Real"},{"key":"10024037","name":"Neugasse","postalCode":"9113","locality":"Degersheim","commune":{"key":"3004","name":"Schwellbrunn","shortName":"Schwellbrunn"},"district":{"key":"1501","name":"Bezirk Hinterland"},"canton":{"key":"15","code":"AR","name":"Appenzell Ausserrhoden"},"status":"Real"},{"key":"10228679","name":"Neugasse-Bachstrasse","postalCode":"9113","locality":"Degersheim","commune":{"key":"3004","name":"Schwellbrunn","shortName":"Schwellbrunn"},"district":{"key":"1501","name":"Bezirk Hinterland"},"canton":{"key":"15","code":"AR","name":"Appenzell Ausserrhoden"},"status":"Real"},{"key":"10227841","name":"Oberdorfweg","postalCode":"9113","locality":"Degersheim","commune":{"key":"3004","name":"Schwellbrunn","shortName":"Schwellbrunn"},"district":{"key":"1501","name":"Bezirk Hinterland"},"canton":{"key":"15","code":"AR","name":"Appenzell Ausserrhoden"},"status":"Real"},{"key":"10024038","name":"Obergampen","postalCode":"9113","locality":"Degersheim","commune":{"key":"3004","name":"Schwellbrunn","shortName":"Schwellbrunn"},"district":{"key":"1501","name":"Bezirk Hinterland"},"canton":{"key":"15","code":"AR","name":"Appenzell Ausserrhoden"},"status":"Real"},{"key":"10227845","name":"Obergampen-Fuchsacker","postalCode":"9113","locality":"Degersheim","commune":{"key":"3004","name":"Schwellbrunn","shortName":"Schwellbrunn"},"district":{"key":"1501","name":"Bezirk Hinterland"},"canton":{"key":"15","code":"AR","name":"Appenzell Ausserrhoden"},"status":"Real"},{"key":"10069252","name":"Palmenstrasse","postalCode":"9113","locality":"Degersheim","commune":{"key":"3004","name":"Schwellbrunn","shortName":"Schwellbrunn"},"district":{"key":"1501","name":"Bezirk Hinterland"},"canton":{"key":"15","code":"AR","name":"Appenzell Ausserrhoden"},"status":"Real"},{"key":"10250643","name":"Postplatzstrasse","postalCode":"9113","locality":"Degersheim","commune":{"key":"3004","name":"Schwellbrunn","shortName":"Schwellbrunn"},"district":{"key":"1501","name":"Bezirk Hinterland"},"canton":{"key":"15","code":"AR","name":"Appenzell Ausserrhoden"},"status":"Real"},{"key":"10093833","name":"Poststrasse","postalCode":"9113","locality":"Degersheim","commune":{"key":"3004","name":"Schwellbrunn","shortName":"Schwellbrunn"},"district":{"key":"1501","name":"Bezirk Hinterland"},"canton":{"key":"15","code":"AR","name":"Appenzell Ausserrhoden"},"status":"Real"},{"key":"10024039","name":"Postweg","postalCode":"9113","locality":"Degersheim","commune":{"key":"3004","name":"Schwellbrunn","shortName":"Schwellbrunn"},"district":{"key":"1501","name":"Bezirk Hinterland"},"canton":{"key":"15","code":"AR","name":"Appenzell Ausserrhoden"},"status":"Real"},{"key":"10227861","name":"Quellenstrasse","postalCode":"9113","locality":"Degersheim","commune":{"key":"3004","name":"Schwellbrunn","shortName":"Schwellbrunn"},"district":{"key":"1501","name":"Bezirk Hinterland"},"canton":{"key":"15","code":"AR","name":"Appenzell Ausserrhoden"},"status":"Real"},{"key":"10187702","name":"Quellenwiesweg","postalCode":"9113","locality":"Degersheim","commune":{"key":"3004","name":"Schwellbrunn","shortName":"Schwellbrunn"},"district":{"key":"1501","name":"Bezirk Hinterland"},"canton":{"key":"15","code":"AR","name":"Appenzell Ausserrhoden"},"status":"Real"},{"key":"10024040","name":"Rosenstrasse","postalCode":"9113","locality":"Degersheim","commune":{"key":"3004","name":"Schwellbrunn","shortName":"Schwellbrunn"},"district":{"key":"1501","name":"Bezirk Hinterland"},"canton":{"key":"15","code":"AR","name":"Appenzell Ausserrhoden"},"status":"Real"},{"key":"10232776","name":"Rossmoosstrasse","postalCode":"9113","locality":"Degersheim","commune":{"key":"3004","name":"Schwellbrunn","shortName":"Schwellbrunn"},"district":{"key":"1501","name":"Bezirk Hinterland"},"canton":{"key":"15","code":"AR","name":"Appenzell Ausserrhoden"},"status":"Real"},{"key":"10232800","name":"Ruermülistrasse","postalCode":"9113","locality":"Degersheim","commune":{"key":"3004","name":"Schwellbrunn","shortName":"Schwellbrunn"},"district":{"key":"1501","name":"Bezirk Hinterland"},"canton":{"key":"15","code":"AR","name":"Appenzell Ausserrhoden"},"status":"Real"},{"key":"10224529","name":"Ruerwaldweg","postalCode":"9113","locality":"Degersheim","commune":{"key":"3004","name":"Schwellbrunn","shortName":"Schwellbrunn"},"district":{"key":"1501","name":"Bezirk Hinterland"},"canton":{"key":"15","code":"AR","name":"Appenzell Ausserrhoden"},"status":"Real"},{"key":"10224656","name":"Ruerwaldweg","postalCode":"9113","locality":"Degersheim","commune":{"key":"3004","name":"Schwellbrunn","shortName":"Schwellbrunn"},"district":{"key":"1501","name":"Bezirk Hinterland"},"canton":{"key":"15","code":"AR","name":"Appenzell Ausserrhoden"},"status":"Real"},{"key":"10024041","name":"Sackboden","postalCode":"9113","locality":"Degersheim","commune":{"key":"3004","name":"Schwellbrunn","shortName":"Schwellbrunn"},"district":{"key":"1501","name":"Bezirk Hinterland"},"canton":{"key":"15","code":"AR","name":"Appenzell Ausserrhoden"},"status":"Real"},{"key":"10224533","name":"Sackbodenstrasse","postalCode":"9113","locality":"Degersheim","commune":{"key":"3004","name":"Schwellbrunn","shortName":"Schwellbrunn"},"district":{"key":"1501","name":"Bezirk Hinterland"},"canton":{"key":"15","code":"AR","name":"Appenzell Ausserrhoden"},"status":"Real"},{"key":"10224537","name":"Sackboden-Talholz","postalCode":"9113","locality":"Degersheim","commune":{"key":"3004","name":"Schwellbrunn","shortName":"Schwellbrunn"},"district":{"key":"1501","name":"Bezirk Hinterland"},"canton":{"key":"15","code":"AR","name":"Appenzell Ausserrhoden"},"status":"Real"},{"key":"10224540","name":"Sackhueb","postalCode":"9113","locality":"Degersheim","commune":{"key":"3004","name":"Schwellbrunn","shortName":"Schwellbrunn"},"district":{"key":"1501","name":"Bezirk Hinterland"},"canton":{"key":"15","code":"AR","name":"Appenzell Ausserrhoden"},"status":"Real"},{"key":"10224544","name":"Sackhuebstrasse","postalCode":"9113","locality":"Degersheim","commune":{"key":"3004","name":"Schwellbrunn","shortName":"Schwellbrunn"},"district":{"key":"1501","name":"Bezirk Hinterland"},"canton":{"key":"15","code":"AR","name":"Appenzell Ausserrhoden"},"status":"Real"},{"key":"10181685","name":"Säntisstrasse","postalCode":"9113","locality":"Degersheim","commune":{"key":"3004","name":"Schwellbrunn","shortName":"Schwellbrunn"},"district":{"key":"1501","name":"Bezirk Hinterland"},"canton":{"key":"15","code":"AR","name":"Appenzell Ausserrhoden"},"status":"Real"},{"key":"10024042","name":"Schäflistrasse","postalCode":"9113","locality":"Degersheim","commune":{"key":"3004","name":"Schwellbrunn","shortName":"Schwellbrunn"},"district":{"key":"1501","name":"Bezirk Hinterland"},"canton":{"key":"15","code":"AR","name":"Appenzell Ausserrhoden"},"status":"Real"},{"key":"10109161","name":"Schäfliweg","postalCode":"9113","locality":"Degersheim","commune":{"key":"3004","name":"Schwellbrunn","shortName":"Schwellbrunn"},"district":{"key":"1501","name":"Bezirk Hinterland"},"canton":{"key":"15","code":"AR","name":"Appenzell Ausserrhoden"},"status":"Real"},{"key":"10057186","name":"Schöllen","postalCode":"9113","locality":"Degersheim","commune":{"key":"3004","name":"Schwellbrunn","shortName":"Schwellbrunn"},"district":{"key":"1501","name":"Bezirk Hinterland"},"canton":{"key":"15","code":"AR","name":"Appenzell Ausserrhoden"},"status":"Real"},{"key":"10228276","name":"Schöllen-Langmoos","postalCode":"9113","locality":"Degersheim","commune":{"key":"3004","name":"Schwellbrunn","shortName":"Schwellbrunn"},"district":{"key":"1501","name":"Bezirk Hinterland"},"canton":{"key":"15","code":"AR","name":"Appenzell Ausserrhoden"},"status":"Real"},{"key":"10228280","name":"Schöllen-Tal","postalCode":"9113","locality":"Degersheim","commune":{"key":"3004","name":"Schwellbrunn","shortName":"Schwellbrunn"},"district":{"key":"1501","name":"Bezirk Hinterland"},"canton":{"key":"15","code":"AR","name":"Appenzell Ausserrhoden"},"status":"Real"},{"key":"10228284","name":"Schöllenweg","postalCode":"9113","locality":"Degersheim","commune":{"key":"3004","name":"Schwellbrunn","shortName":"Schwellbrunn"},"district":{"key":"1501","name":"Bezirk Hinterland"},"canton":{"key":"15","code":"AR","name":"Appenzell Ausserrhoden"},"status":"Real"},{"key":"10069253","name":"Schulstrasse","postalCode":"9113","locality":"Degersheim","commune":{"key":"3004","name":"Schwellbrunn","shortName":"Schwellbrunn"},"district":{"key":"1501","name":"Bezirk Hinterland"},"canton":{"key":"15","code":"AR","name":"Appenzell Ausserrhoden"},"status":"Real"},{"key":"10228288","name":"Schulweg","postalCode":"9113","locality":"Degersheim","commune":{"key":"3004","name":"Schwellbrunn","shortName":"Schwellbrunn"},"district":{"key":"1501","name":"Bezirk Hinterland"},"canton":{"key":"15","code":"AR","name":"Appenzell Ausserrhoden"},"status":"Real"},{"key":"10024043","name":"Schützenweg","postalCode":"9113","locality":"Degersheim","commune":{"key":"3004","name":"Schwellbrunn","shortName":"Schwellbrunn"},"district":{"key":"1501","name":"Bezirk Hinterland"},"canton":{"key":"15","code":"AR","name":"Appenzell Ausserrhoden"},"status":"Real"},{"key":"10093834","name":"Schwalbenstrasse","postalCode":"9113","locality":"Degersheim","commune":{"key":"3004","name":"Schwellbrunn","shortName":"Schwellbrunn"},"district":{"key":"1501","name":"Bezirk Hinterland"},"canton":{"key":"15","code":"AR","name":"Appenzell Ausserrhoden"},"status":"Real"},{"key":"10228292","name":"Schwalmentöbeliweg","postalCode":"9113","locality":"Degersheim","commune":{"key":"3004","name":"Schwellbrunn","shortName":"Schwellbrunn"},"district":{"key":"1501","name":"Bezirk Hinterland"},"canton":{"key":"15","code":"AR","name":"Appenzell Ausserrhoden"},"status":"Real"},{"key":"10251292","name":"Schwendi","postalCode":"9113","locality":"Degersheim","commune":{"key":"3004","name":"Schwellbrunn","shortName":"Schwellbrunn"},"district":{"key":"1501","name":"Bezirk Hinterland"},"canton":{"key":"15","code":"AR","name":"Appenzell Ausserrhoden"},"status":"Real"},{"key":"10251057","name":"Schwendistrasse","postalCode":"9113","locality":"Degersheim","commune":{"key":"3004","name":"Schwellbrunn","shortName":"Schwellbrunn"},"district":{"key":"1501","name":"Bezirk Hinterland"},"canton":{"key":"15","code":"AR","name":"Appenzell Ausserrhoden"},"status":"Real"},{"key":"10228296","name":"Schwimmbadweg","postalCode":"9113","locality":"Degersheim","commune":{"key":"3004","name":"Schwellbrunn","shortName":"Schwellbrunn"},"district":{"key":"1501","name":"Bezirk Hinterland"},"canton":{"key":"15","code":"AR","name":"Appenzell Ausserrhoden"},"status":"Real"},{"key":"10191344","name":"Seeblickstrasse","postalCode":"9113","locality":"Degersheim","commune":{"key":"3004","name":"Schwellbrunn","shortName":"Schwellbrunn"},"district":{"key":"1501","name":"Bezirk Hinterland"},"canton":{"key":"15","code":"AR","name":"Appenzell Ausserrhoden"},"status":"Real"},{"key":"10190479","name":"Seeblickweg","postalCode":"9113","locality":"Degersheim","commune":{"key":"3004","name":"Schwellbrunn","shortName":"Schwellbrunn"},"district":{"key":"1501","name":"Bezirk Hinterland"},"canton":{"key":"15","code":"AR","name":"Appenzell Ausserrhoden"},"status":"Real"},{"key":"10181684","name":"Selenwilen","postalCode":"9113","locality":"Degersheim","commune":{"key":"3004","name":"Schwellbrunn","shortName":"Schwellbrunn"},"district":{"key":"1501","name":"Bezirk Hinterland"},"canton":{"key":"15","code":"AR","name":"Appenzell Ausserrhoden"},"status":"Real"},{"key":"10228300","name":"Selenwilenstrasse","postalCode":"9113","locality":"Degersheim","commune":{"key":"3004","name":"Schwellbrunn","shortName":"Schwellbrunn"},"district":{"key":"1501","name":"Bezirk Hinterland"},"canton":{"key":"15","code":"AR","name":"Appenzell Ausserrhoden"},"status":"Real"},{"key":"10228304","name":"Selenwilenweg","postalCode":"9113","locality":"Degersheim","commune":{"key":"3004","name":"Schwellbrunn","shortName":"Schwellbrunn"},"district":{"key":"1501","name":"Bezirk Hinterland"},"canton":{"key":"15","code":"AR","name":"Appenzell Ausserrhoden"},"status":"Real"},{"key":"10069254","name":"Sennhof","postalCode":"9113","locality":"Degersheim","commune":{"key":"3004","name":"Schwellbrunn","shortName":"Schwellbrunn"},"district":{"key":"1501","name":"Bezirk Hinterland"},"canton":{"key":"15","code":"AR","name":"Appenzell Ausserrhoden"},"status":"Real"},{"key":"10228308","name":"Sennhofstrasse","postalCode":"9113","locality":"Degersheim","commune":{"key":"3004","name":"Schwellbrunn","shortName":"Schwellbrunn"},"district":{"key":"1501","name":"Bezirk Hinterland"},"canton":{"key":"15","code":"AR","name":"Appenzell Ausserrhoden"},"status":"Real"},{"key":"10228312","name":"Sennhofweg","postalCode":"9113","locality":"Degersheim","commune":{"key":"3004","name":"Schwellbrunn","shortName":"Schwellbrunn"},"district":{"key":"1501","name":"Bezirk Hinterland"},"canton":{"key":"15","code":"AR","name":"Appenzell Ausserrhoden"},"status":"Real"},{"key":"10024044","name":"Sennrütistrasse","postalCode":"9113","locality":"Degersheim","commune":{"key":"3004","name":"Schwellbrunn","shortName":"Schwellbrunn"},"district":{"key":"1501","name":"Bezirk Hinterland"},"canton":{"key":"15","code":"AR","name":"Appenzell Ausserrhoden"},"status":"Real"},{"key":"10093835","name":"Sonneggstrasse","postalCode":"9113","locality":"Degersheim","commune":{"key":"3004","name":"Schwellbrunn","shortName":"Schwellbrunn"},"district":{"key":"1501","name":"Bezirk Hinterland"},"canton":{"key":"15","code":"AR","name":"Appenzell Ausserrhoden"},"status":"Real"},{"key":"10024045","name":"Sonneggweg","postalCode":"9113","locality":"Degersheim","commune":{"key":"3004","name":"Schwellbrunn","shortName":"Schwellbrunn"},"district":{"key":"1501","name":"Bezirk Hinterland"},"canton":{"key":"15","code":"AR","name":"Appenzell Ausserrhoden"},"status":"Real"},{"key":"10069255","name":"Sonnenbergstrasse","postalCode":"9113","locality":"Degersheim","commune":{"key":"3004","name":"Schwellbrunn","shortName":"Schwellbrunn"},"district":{"key":"1501","name":"Bezirk Hinterland"},"canton":{"key":"15","code":"AR","name":"Appenzell Ausserrhoden"},"status":"Real"},{"key":"10228320","name":"Sonnenbergweg","postalCode":"9113","locality":"Degersheim","commune":{"key":"3004","name":"Schwellbrunn","shortName":"Schwellbrunn"},"district":{"key":"1501","name":"Bezirk Hinterland"},"canton":{"key":"15","code":"AR","name":"Appenzell Ausserrhoden"},"status":"Real"},{"key":"10192807","name":"Sonnenrainstrasse","postalCode":"9113","locality":"Degersheim","commune":{"key":"3004","name":"Schwellbrunn","shortName":"Schwellbrunn"},"district":{"key":"1501","name":"Bezirk Hinterland"},"canton":{"key":"15","code":"AR","name":"Appenzell Ausserrhoden"},"status":"Real"},{"key":"10024046","name":"Sonnental","postalCode":"9113","locality":"Degersheim","commune":{"key":"3004","name":"Schwellbrunn","shortName":"Schwellbrunn"},"district":{"key":"1501","name":"Bezirk Hinterland"},"canton":{"key":"15","code":"AR","name":"Appenzell Ausserrhoden"},"status":"Real"},{"key":"10024047","name":"Sonnhaldenstrasse","postalCode":"9113","locality":"Degersheim","commune":{"key":"3004","name":"Schwellbrunn","shortName":"Schwellbrunn"},"district":{"key":"1501","name":"Bezirk Hinterland"},"canton":{"key":"15","code":"AR","name":"Appenzell Ausserrhoden"},"status":"Real"},{"key":"10228328","name":"Sonnhaldenweg","postalCode":"9113","locality":"Degersheim","commune":{"key":"3004","name":"Schwellbrunn","shortName":"Schwellbrunn"},"district":{"key":"1501","name":"Bezirk Hinterland"},"canton":{"key":"15","code":"AR","name":"Appenzell Ausserrhoden"},"status":"Real"},{"key":"10232875","name":"Spechtbodenstrasse","postalCode":"9113","locality":"Degersheim","commune":{"key":"3004","name":"Schwellbrunn","shortName":"Schwellbrunn"},"district":{"key":"1501","name":"Bezirk Hinterland"},"canton":{"key":"15","code":"AR","name":"Appenzell Ausserrhoden"},"status":"Real"},{"key":"10114466","name":"Sportplatzstrasse","postalCode":"9113","locality":"Degersheim","commune":{"key":"3004","name":"Schwellbrunn","shortName":"Schwellbrunn"},"district":{"key":"1501","name":"Bezirk Hinterland"},"canton":{"key":"15","code":"AR","name":"Appenzell Ausserrhoden"},"status":"Real"},{"key":"10046489","name":"Steinegggasse","postalCode":"9113","locality":"Degersheim","commune":{"key":"3004","name":"Schwellbrunn","shortName":"Schwellbrunn"},"district":{"key":"1501","name":"Bezirk Hinterland"},"canton":{"key":"15","code":"AR","name":"Appenzell Ausserrhoden"},"status":"Real"},{"key":"10024048","name":"Steineggstrasse","postalCode":"9113","locality":"Degersheim","commune":{"key":"3004","name":"Schwellbrunn","shortName":"Schwellbrunn"},"district":{"key":"1501","name":"Bezirk Hinterland"},"canton":{"key":"15","code":"AR","name":"Appenzell Ausserrhoden"},"status":"Real"},{"key":"10191053","name":"Steineggweg","postalCode":"9113","locality":"Degersheim","commune":{"key":"3004","name":"Schwellbrunn","shortName":"Schwellbrunn"},"district":{"key":"1501","name":"Bezirk Hinterland"},"canton":{"key":"15","code":"AR","name":"Appenzell Ausserrhoden"},"status":"Real"},{"key":"10046490","name":"Sternenstrasse","postalCode":"9113","locality":"Degersheim","commune":{"key":"3004","name":"Schwellbrunn","shortName":"Schwellbrunn"},"district":{"key":"1501","name":"Bezirk Hinterland"},"canton":{"key":"15","code":"AR","name":"Appenzell Ausserrhoden"},"status":"Real"},{"key":"10069257","name":"Stickerstrasse","postalCode":"9113","locality":"Degersheim","commune":{"key":"3004","name":"Schwellbrunn","shortName":"Schwellbrunn"},"district":{"key":"1501","name":"Bezirk Hinterland"},"canton":{"key":"15","code":"AR","name":"Appenzell Ausserrhoden"},"status":"Real"},{"key":"10234447","name":"Stollenstrasse","postalCode":"9113","locality":"Degersheim","commune":{"key":"3004","name":"Schwellbrunn","shortName":"Schwellbrunn"},"district":{"key":"1501","name":"Bezirk Hinterland"},"canton":{"key":"15","code":"AR","name":"Appenzell Ausserrhoden"},"status":"Real"},{"key":"10228356","name":"Taa","postalCode":"9113","locality":"Degersheim","commune":{"key":"3004","name":"Schwellbrunn","shortName":"Schwellbrunn"},"district":{"key":"1501","name":"Bezirk Hinterland"},"canton":{"key":"15","code":"AR","name":"Appenzell Ausserrhoden"},"status":"Real"},{"key":"10093836","name":"Taastrasse","postalCode":"9113","locality":"Degersheim","commune":{"key":"3004","name":"Schwellbrunn","shortName":"Schwellbrunn"},"district":{"key":"1501","name":"Bezirk Hinterland"},"canton":{"key":"15","code":"AR","name":"Appenzell Ausserrhoden"},"status":"Real"},{"key":"10153784","name":"Taaweg","postalCode":"9113","locality":"Degersheim","commune":{"key":"3004","name":"Schwellbrunn","shortName":"Schwellbrunn"},"district":{"key":"1501","name":"Bezirk Hinterland"},"canton":{"key":"15","code":"AR","name":"Appenzell Ausserrhoden"},"status":"Real"},{"key":"10024049","name":"Tal","postalCode":"9113","locality":"Degersheim","commune":{"key":"3004","name":"Schwellbrunn","shortName":"Schwellbrunn"},"district":{"key":"1501","name":"Bezirk Hinterland"},"canton":{"key":"15","code":"AR","name":"Appenzell Ausserrhoden"},"status":"Real"},{"key":"10228360","name":"Talbachweg","postalCode":"9113","locality":"Degersheim","commune":{"key":"3004","name":"Schwellbrunn","shortName":"Schwellbrunn"},"district":{"key":"1501","name":"Bezirk Hinterland"},"canton":{"key":"15","code":"AR","name":"Appenzell Ausserrhoden"},"status":"Real"},{"key":"10024050","name":"Talholz","postalCode":"9113","locality":"Degersheim","commune":{"key":"3004","name":"Schwellbrunn","shortName":"Schwellbrunn"},"district":{"key":"1501","name":"Bezirk Hinterland"},"canton":{"key":"15","code":"AR","name":"Appenzell Ausserrhoden"},"status":"Real"},{"key":"10091383","name":"Talhüsli","postalCode":"9113","locality":"Degersheim","commune":{"key":"3004","name":"Schwellbrunn","shortName":"Schwellbrunn"},"district":{"key":"1501","name":"Bezirk Hinterland"},"canton":{"key":"15","code":"AR","name":"Appenzell Ausserrhoden"},"status":"Real"},{"key":"10057197","name":"Talmühle","postalCode":"9113","locality":"Degersheim","commune":{"key":"3004","name":"Schwellbrunn","shortName":"Schwellbrunn"},"district":{"key":"1501","name":"Bezirk Hinterland"},"canton":{"key":"15","code":"AR","name":"Appenzell Ausserrhoden"},"status":"Real"},{"key":"10230880","name":"Talmüliweg","postalCode":"9113","locality":"Degersheim","commune":{"key":"3004","name":"Schwellbrunn","shortName":"Schwellbrunn"},"district":{"key":"1501","name":"Bezirk Hinterland"},"canton":{"key":"15","code":"AR","name":"Appenzell Ausserrhoden"},"status":"Real"},{"key":"10250647","name":"Talstrasse","postalCode":"9113","locality":"Degersheim","commune":{"key":"3004","name":"Schwellbrunn","shortName":"Schwellbrunn"},"district":{"key":"1501","name":"Bezirk Hinterland"},"canton":{"key":"15","code":"AR","name":"Appenzell Ausserrhoden"},"status":"Real"},{"key":"10228364","name":"Talweg","postalCode":"9113","locality":"Degersheim","commune":{"key":"3004","name":"Schwellbrunn","shortName":"Schwellbrunn"},"district":{"key":"1501","name":"Bezirk Hinterland"},"canton":{"key":"15","code":"AR","name":"Appenzell Ausserrhoden"},"status":"Real"},{"key":"10233524","name":"Tanne-Baldenwil","postalCode":"9113","locality":"Degersheim","commune":{"key":"3004","name":"Schwellbrunn","shortName":"Schwellbrunn"},"district":{"key":"1501","name":"Bezirk Hinterland"},"canton":{"key":"15","code":"AR","name":"Appenzell Ausserrhoden"},"status":"Real"},{"key":"10114533","name":"Tannen","postalCode":"9113","locality":"Degersheim","commune":{"key":"3004","name":"Schwellbrunn","shortName":"Schwellbrunn"},"district":{"key":"1501","name":"Bezirk Hinterland"},"canton":{"key":"15","code":"AR","name":"Appenzell Ausserrhoden"},"status":"Real"},{"key":"10132570","name":"Tannen","postalCode":"9113","locality":"Degersheim","commune":{"key":"3004","name":"Schwellbrunn","shortName":"Schwellbrunn"},"district":{"key":"1501","name":"Bezirk Hinterland"},"canton":{"key":"15","code":"AR","name":"Appenzell Ausserrhoden"},"status":"Real"},{"key":"10160195","name":"Tannenstrasse","postalCode":"9113","locality":"Degersheim","commune":{"key":"3004","name":"Schwellbrunn","shortName":"Schwellbrunn"},"district":{"key":"1501","name":"Bezirk Hinterland"},"canton":{"key":"15","code":"AR","name":"Appenzell Ausserrhoden"},"status":"Real"},{"key":"10149363","name":"Tannenstrasse","postalCode":"9113","locality":"Degersheim","commune":{"key":"3004","name":"Schwellbrunn","shortName":"Schwellbrunn"},"district":{"key":"1501","name":"Bezirk Hinterland"},"canton":{"key":"15","code":"AR","name":"Appenzell Ausserrhoden"},"status":"Real"},{"key":"10163692","name":"Taubenstrasse","postalCode":"9113","locality":"Degersheim","commune":{"key":"3004","name":"Schwellbrunn","shortName":"Schwellbrunn"},"district":{"key":"1501","name":"Bezirk Hinterland"},"canton":{"key":"15","code":"AR","name":"Appenzell Ausserrhoden"},"status":"Real"},{"key":"10224663","name":"Toggenburgsteig","postalCode":"9113","locality":"Degersheim","commune":{"key":"3004","name":"Schwellbrunn","shortName":"Schwellbrunn"},"district":{"key":"1501","name":"Bezirk Hinterland"},"canton":{"key":"15","code":"AR","name":"Appenzell Ausserrhoden"},"status":"Real"},{"key":"10046491","name":"Toggenburgstrasse","postalCode":"9113","locality":"Degersheim","commune":{"key":"3004","name":"Schwellbrunn","shortName":"Schwellbrunn"},"district":{"key":"1501","name":"Bezirk Hinterland"},"canton":{"key":"15","code":"AR","name":"Appenzell Ausserrhoden"},"status":"Real"},{"key":"10024051","name":"Turnplatzweg","postalCode":"9113","locality":"Degersheim","commune":{"key":"3004","name":"Schwellbrunn","shortName":"Schwellbrunn"},"district":{"key":"1501","name":"Bezirk Hinterland"},"canton":{"key":"15","code":"AR","name":"Appenzell Ausserrhoden"},"status":"Real"},{"key":"10024052","name":"Unterberg","postalCode":"9113","locality":"Degersheim","commune":{"key":"3004","name":"Schwellbrunn","shortName":"Schwellbrunn"},"district":{"key":"1501","name":"Bezirk Hinterland"},"canton":{"key":"15","code":"AR","name":"Appenzell Ausserrhoden"},"status":"Real"},{"key":"10251213","name":"Unterdorfstrasse","postalCode":"9113","locality":"Degersheim","commune":{"key":"3004","name":"Schwellbrunn","shortName":"Schwellbrunn"},"district":{"key":"1501","name":"Bezirk Hinterland"},"canton":{"key":"15","code":"AR","name":"Appenzell Ausserrhoden"},"status":"Real"},{"key":"10046492","name":"Unterdorfweg","postalCode":"9113","locality":"Degersheim","commune":{"key":"3004","name":"Schwellbrunn","shortName":"Schwellbrunn"},"district":{"key":"1501","name":"Bezirk Hinterland"},"canton":{"key":"15","code":"AR","name":"Appenzell Ausserrhoden"},"status":"Real"},{"key":"10131537","name":"Unter Fuchsacker","postalCode":"9113","locality":"Degersheim","commune":{"key":"3004","name":"Schwellbrunn","shortName":"Schwellbrunn"},"district":{"key":"1501","name":"Bezirk Hinterland"},"canton":{"key":"15","code":"AR","name":"Appenzell Ausserrhoden"},"status":"Real"},{"key":"10057187","name":"Untergampen","postalCode":"9113","locality":"Degersheim","commune":{"key":"3004","name":"Schwellbrunn","shortName":"Schwellbrunn"},"district":{"key":"1501","name":"Bezirk Hinterland"},"canton":{"key":"15","code":"AR","name":"Appenzell Ausserrhoden"},"status":"Real"},{"key":"10224667","name":"Untergampen-Waldweg","postalCode":"9113","locality":"Degersheim","commune":{"key":"3004","name":"Schwellbrunn","shortName":"Schwellbrunn"},"district":{"key":"1501","name":"Bezirk Hinterland"},"canton":{"key":"15","code":"AR","name":"Appenzell Ausserrhoden"},"status":"Real"},{"key":"10224671","name":"Untergampenweg","postalCode":"9113","locality":"Degersheim","commune":{"key":"3004","name":"Schwellbrunn","shortName":"Schwellbrunn"},"district":{"key":"1501","name":"Bezirk Hinterland"},"canton":{"key":"15","code":"AR","name":"Appenzell Ausserrhoden"},"status":"Real"},{"key":"10224675","name":"Vorderer Feldweg","postalCode":"9113","locality":"Degersheim","commune":{"key":"3004","name":"Schwellbrunn","shortName":"Schwellbrunn"},"district":{"key":"1501","name":"Bezirk Hinterland"},"canton":{"key":"15","code":"AR","name":"Appenzell Ausserrhoden"},"status":"Real"},{"key":"10109162","name":"Wald","postalCode":"9113","locality":"Degersheim","commune":{"key":"3004","name":"Schwellbrunn","shortName":"Schwellbrunn"},"district":{"key":"1501","name":"Bezirk Hinterland"},"canton":{"key":"15","code":"AR","name":"Appenzell Ausserrhoden"},"status":"Real"},{"key":"10024053","name":"Waldhof","postalCode":"9113","locality":"Degersheim","commune":{"key":"3004","name":"Schwellbrunn","shortName":"Schwellbrunn"},"district":{"key":"1501","name":"Bezirk Hinterland"},"canton":{"key":"15","code":"AR","name":"Appenzell Ausserrhoden"},"status":"Real"},{"key":"10224679","name":"Waldhofstrasse","postalCode":"9113","locality":"Degersheim","commune":{"key":"3004","name":"Schwellbrunn","shortName":"Schwellbrunn"},"district":{"key":"1501","name":"Bezirk Hinterland"},"canton":{"key":"15","code":"AR","name":"Appenzell Ausserrhoden"},"status":"Real"},{"key":"10228400","name":"Waldhofweg","postalCode":"9113","locality":"Degersheim","commune":{"key":"3004","name":"Schwellbrunn","shortName":"Schwellbrunn"},"district":{"key":"1501","name":"Bezirk Hinterland"},"canton":{"key":"15","code":"AR","name":"Appenzell Ausserrhoden"},"status":"Real"},{"key":"10228404","name":"Wanne-Hintertschwil","postalCode":"9113","locality":"Degersheim","commune":{"key":"3004","name":"Schwellbrunn","shortName":"Schwellbrunn"},"district":{"key":"1501","name":"Bezirk Hinterland"},"canton":{"key":"15","code":"AR","name":"Appenzell Ausserrhoden"},"status":"Real"},{"key":"10125600","name":"Wannen","postalCode":"9113","locality":"Degersheim","commune":{"key":"3004","name":"Schwellbrunn","shortName":"Schwellbrunn"},"district":{"key":"1501","name":"Bezirk Hinterland"},"canton":{"key":"15","code":"AR","name":"Appenzell Ausserrhoden"},"status":"Real"},{"key":"10250651","name":"Wannenstrasse","postalCode":"9113","locality":"Degersheim","commune":{"key":"3004","name":"Schwellbrunn","shortName":"Schwellbrunn"},"district":{"key":"1501","name":"Bezirk Hinterland"},"canton":{"key":"15","code":"AR","name":"Appenzell Ausserrhoden"},"status":"Real"},{"key":"10228408","name":"Wannenwaldweg","postalCode":"9113","locality":"Degersheim","commune":{"key":"3004","name":"Schwellbrunn","shortName":"Schwellbrunn"},"district":{"key":"1501","name":"Bezirk Hinterland"},"canton":{"key":"15","code":"AR","name":"Appenzell Ausserrhoden"},"status":"Real"},{"key":"10025147","name":"Weid","postalCode":"9113","locality":"Degersheim","commune":{"key":"3004","name":"Schwellbrunn","shortName":"Schwellbrunn"},"district":{"key":"1501","name":"Bezirk Hinterland"},"canton":{"key":"15","code":"AR","name":"Appenzell Ausserrhoden"},"status":"Real"},{"key":"10250822","name":"Weid","postalCode":"9113","locality":"Degersheim","commune":{"key":"3004","name":"Schwellbrunn","shortName":"Schwellbrunn"},"district":{"key":"1501","name":"Bezirk Hinterland"},"canton":{"key":"15","code":"AR","name":"Appenzell Ausserrhoden"},"status":"Real"},{"key":"10225870","name":"Weidstrasse","postalCode":"9113","locality":"Degersheim","commune":{"key":"3004","name":"Schwellbrunn","shortName":"Schwellbrunn"},"district":{"key":"1501","name":"Bezirk Hinterland"},"canton":{"key":"15","code":"AR","name":"Appenzell Ausserrhoden"},"status":"Real"},{"key":"10069258","name":"Weierwiesstrasse","postalCode":"9113","locality":"Degersheim","commune":{"key":"3004","name":"Schwellbrunn","shortName":"Schwellbrunn"},"district":{"key":"1501","name":"Bezirk Hinterland"},"canton":{"key":"15","code":"AR","name":"Appenzell Ausserrhoden"},"status":"Real"},{"key":"10228416","name":"Weierwiesweg","postalCode":"9113","locality":"Degersheim","commune":{"key":"3004","name":"Schwellbrunn","shortName":"Schwellbrunn"},"district":{"key":"1501","name":"Bezirk Hinterland"},"canton":{"key":"15","code":"AR","name":"Appenzell Ausserrhoden"},"status":"Real"},{"key":"10228420","name":"Westliche Obergampen-Strasse","postalCode":"9113","locality":"Degersheim","commune":{"key":"3004","name":"Schwellbrunn","shortName":"Schwellbrunn"},"district":{"key":"1501","name":"Bezirk Hinterland"},"canton":{"key":"15","code":"AR","name":"Appenzell Ausserrhoden"},"status":"Real"},{"key":"10025148","name":"Windeggstrasse","postalCode":"9113","locality":"Degersheim","commune":{"key":"3004","name":"Schwellbrunn","shortName":"Schwellbrunn"},"district":{"key":"1501","name":"Bezirk Hinterland"},"canton":{"key":"15","code":"AR","name":"Appenzell Ausserrhoden"},"status":"Real"},{"key":"10091353","name":"Winterhaldenstrasse","postalCode":"9113","locality":"Degersheim","commune":{"key":"3004","name":"Schwellbrunn","shortName":"Schwellbrunn"},"district":{"key":"1501","name":"Bezirk Hinterland"},"canton":{"key":"15","code":"AR","name":"Appenzell Ausserrhoden"},"status":"Real"},{"key":"10096402","name":"Winterhaldenweg","postalCode":"9113","locality":"Degersheim","commune":{"key":"3004","name":"Schwellbrunn","shortName":"Schwellbrunn"},"district":{"key":"1501","name":"Bezirk Hinterland"},"canton":{"key":"15","code":"AR","name":"Appenzell Ausserrhoden"},"status":"Real"},{"key":"10024876","name":"Wolfensberg","postalCode":"9113","locality":"Degersheim","commune":{"key":"3004","name":"Schwellbrunn","shortName":"Schwellbrunn"},"district":{"key":"1501","name":"Bezirk Hinterland"},"canton":{"key":"15","code":"AR","name":"Appenzell Ausserrhoden"},"status":"Real"},{"key":"10181686","name":"Wolfensbergstrasse","postalCode":"9113","locality":"Degersheim","commune":{"key":"3004","name":"Schwellbrunn","shortName":"Schwellbrunn"},"district":{"key":"1501","name":"Bezirk Hinterland"},"canton":{"key":"15","code":"AR","name":"Appenzell Ausserrhoden"},"status":"Real"},{"key":"10191354","name":"Wolfensbergstrasse","postalCode":"9113","locality":"Degersheim","commune":{"key":"3004","name":"Schwellbrunn","shortName":"Schwellbrunn"},"district":{"key":"1501","name":"Bezirk Hinterland"},"canton":{"key":"15","code":"AR","name":"Appenzell Ausserrhoden"},"status":"Real"},{"key":"10086156","name":"Wolfensbergweg","postalCode":"9113","locality":"Degersheim","commune":{"key":"3004","name":"Schwellbrunn","shortName":"Schwellbrunn"},"district":{"key":"1501","name":"Bezirk Hinterland"},"canton":{"key":"15","code":"AR","name":"Appenzell Ausserrhoden"},"status":"Real"},{"key":"10229948","name":"Wolfertswilerstrasse","postalCode":"9113","locality":"Degersheim","commune":{"key":"3004","name":"Schwellbrunn","shortName":"Schwellbrunn"},"district":{"key":"1501","name":"Bezirk Hinterland"},"canton":{"key":"15","code":"AR","name":"Appenzell Ausserrhoden"},"status":"Real"},{"key":"10161174","name":"Wolfhag","postalCode":"9113","locality":"Degersheim","commune":{"key":"3004","name":"Schwellbrunn","shortName":"Schwellbrunn"},"district":{"key":"1501","name":"Bezirk Hinterland"},"canton":{"key":"15","code":"AR","name":"Appenzell Ausserrhoden"},"status":"Real"},{"key":"10025149","name":"Wolfhag","postalCode":"9113","locality":"Degersheim","commune":{"key":"3004","name":"Schwellbrunn","shortName":"Schwellbrunn"},"district":{"key":"1501","name":"Bezirk Hinterland"},"canton":{"key":"15","code":"AR","name":"Appenzell Ausserrhoden"},"status":"Real"},{"key":"10229952","name":"Wolfhag-Käh","postalCode":"9113","locality":"Degersheim","commune":{"key":"3004","name":"Schwellbrunn","shortName":"Schwellbrunn"},"district":{"key":"1501","name":"Bezirk Hinterland"},"canton":{"key":"15","code":"AR","name":"Appenzell Ausserrhoden"},"status":"Real"},{"key":"10069259","name":"Wolfhagstrasse","postalCode":"9113","locality":"Degersheim","commune":{"key":"3004","name":"Schwellbrunn","shortName":"Schwellbrunn"},"district":{"key":"1501","name":"Bezirk Hinterland"},"canton":{"key":"15","code":"AR","name":"Appenzell Ausserrhoden"},"status":"Real"},{"key":"10225913","name":"Wolfhagstrasse","postalCode":"9113","locality":"Degersheim","commune":{"key":"3004","name":"Schwellbrunn","shortName":"Schwellbrunn"},"district":{"key":"1501","name":"Bezirk Hinterland"},"canton":{"key":"15","code":"AR","name":"Appenzell Ausserrhoden"},"status":"Real"},{"key":"10162658","name":"Wolfhagweg","postalCode":"9113","locality":"Degersheim","commune":{"key":"3004","name":"Schwellbrunn","shortName":"Schwellbrunn"},"district":{"key":"1501","name":"Bezirk Hinterland"},"canton":{"key":"15","code":"AR","name":"Appenzell Ausserrhoden"},"status":"Real"},{"key":"10147491","name":"Zeisigstrasse","postalCode":"9113","locality":"Degersheim","commune":{"key":"3004","name":"Schwellbrunn","shortName":"Schwellbrunn"},"district":{"key":"1501","name":"Bezirk Hinterland"},"canton":{"key":"15","code":"AR","name":"Appenzell Ausserrhoden"},"status":"Real"},{"key":"10227857","name":"Östliche Obergampen-Strasse","postalCode":"9113","locality":"Degersheim","commune":{"key":"3004","name":"Schwellbrunn","shortName":"Schwellbrunn"},"district":{"key":"1501","name":"Bezirk Hinterland"},"canton":{"key":"15","code":"AR","name":"Appenzell Ausserrhoden"},"status":"Real"},]