[{"name":"Adam-Pfeuffer-Str.","postalCode":"97631","locality":"Bad Königshofen im Grabfeld","municipality":{"key":"09673141","name":"Bad Königshofen i.Grabfeld, St","type":"Stadt"},"district":{"key":"09673","name":"Rhön-Grabfeld","type":"Landkreis"},"federalState":{"key":"09","name":"Bayern"}},{"name":"Almweg","postalCode":"98631","locality":"Grabfeld","municipality":{"key":"16066094","name":"Grabfeld","type":"Kreisangehörige_Gemeinde"},"district":{"key":"16066","name":"Schmalkalden-Meiningen","type":"Landkreis"},"federalState":{"key":"16","name":"Thüringen"}},{"name":"Alte Postgasse","postalCode":"98631","locality":"Grabfeld","municipality":{"key":"16066094","name":"Grabfeld","type":"Kreisangehörige_Gemeinde"},"district":{"key":"16066","name":"Schmalkalden-Meiningen","type":"Landkreis"},"federalState":{"key":"16","name":"Thüringen"}},{"name":"Alte Schmiede","postalCode":"97631","locality":"Bad Königshofen im Grabfeld","municipality":{"key":"09673141","name":"Bad Königshofen i.Grabfeld, St","type":"Stadt"},"district":{"key":"09673","name":"Rhön-Grabfeld","type":"Landkreis"},"federalState":{"key":"09","name":"Bayern"}},{"name":"Alte Weinstr.","postalCode":"98631","locality":"Grabfeld","municipality":{"key":"16066094","name":"Grabfeld","type":"Kreisangehörige_Gemeinde"},"district":{"key":"16066","name":"Schmalkalden-Meiningen","type":"Landkreis"},"federalState":{"key":"16","name":"Thüringen"}},{"name":"Am Altenaugraben","postalCode":"97631","locality":"Bad Königshofen im Grabfeld","municipality":{"key":"09673141","name":"Bad Königshofen i.Grabfeld, St","type":"Stadt"},"district":{"key":"09673","name":"Rhön-Grabfeld","type":"Landkreis"},"federalState":{"key":"09","name":"Bayern"}},{"name":"Am Althäuser Weg","postalCode":"97631","locality":"Bad Königshofen im Grabfeld","municipality":{"key":"09673141","name":"Bad Königshofen i.Grabfeld, St","type":"Stadt"},"district":{"key":"09673","name":"Rhön-Grabfeld","type":"Landkreis"},"federalState":{"key":"09","name":"Bayern"}},{"name":"Am Anger","postalCode":"97631","locality":"Bad Königshofen im Grabfeld","municipality":{"key":"09673141","name":"Bad Königshofen i.Grabfeld, St","type":"Stadt"},"district":{"key":"09673","name":"Rhön-Grabfeld","type":"Landkreis"},"federalState":{"key":"09","name":"Bayern"}},{"name":"Am Arnsberg","postalCode":"98631","locality":"Grabfeld","municipality":{"key":"16066094","name":"Grabfeld","type":"Kreisangehörige_Gemeinde"},"district":{"key":"16066","name":"Schmalkalden-Meiningen","type":"Landkreis"},"federalState":{"key":"16","name":"Thüringen"}},{"name":"Am Bahnhof","postalCode":"97631","locality":"Bad Königshofen im Grabfeld","municipality":{"key":"09673141","name":"Bad Königshofen i.Grabfeld, St","type":"Stadt"},"district":{"key":"09673","name":"Rhön-Grabfeld","type":"Landkreis"},"federalState":{"key":"09","name":"Bayern"}},{"name":"Am Bartelsacker","postalCode":"97631","locality":"Bad Königshofen im Grabfeld","municipality":{"key":"09673141","name":"Bad Königshofen i.Grabfeld, St","type":"Stadt"},"district":{"key":"09673","name":"Rhön-Grabfeld","type":"Landkreis"},"federalState":{"key":"09","name":"Bayern"}},{"name":"Am Berglein","postalCode":"98631","locality":"Grabfeld","municipality":{"key":"16066094","name":"Grabfeld","type":"Kreisangehörige_Gemeinde"},"district":{"key":"16066","name":"Schmalkalden-Meiningen","type":"Landkreis"},"federalState":{"key":"16","name":"Thüringen"}},{"name":"Am Bieberlein","postalCode":"98631","locality":"Grabfeld","municipality":{"key":"16066094","name":"Grabfeld","type":"Kreisangehörige_Gemeinde"},"district":{"key":"16066","name":"Schmalkalden-Meiningen","type":"Landkreis"},"federalState":{"key":"16","name":"Thüringen"}},{"name":"Am Blankenrain","postalCode":"98631","locality":"Grabfeld","municipality":{"key":"16066094","name":"Grabfeld","type":"Kreisangehörige_Gemeinde"},"district":{"key":"16066","name":"Schmalkalden-Meiningen","type":"Landkreis"},"federalState":{"key":"16","name":"Thüringen"}},{"name":"Am Brühl","postalCode":"98631","locality":"Grabfeld","municipality":{"key":"16066094","name":"Grabfeld","type":"Kreisangehörige_Gemeinde"},"district":{"key":"16066","name":"Schmalkalden-Meiningen","type":"Landkreis"},"federalState":{"key":"16","name":"Thüringen"}},{"name":"Am Brunkelt","postalCode":"98631","locality":"Grabfeld","municipality":{"key":"16066094","name":"Grabfeld","type":"Kreisangehörige_Gemeinde"},"district":{"key":"16066","name":"Schmalkalden-Meiningen","type":"Landkreis"},"federalState":{"key":"16","name":"Thüringen"}},{"name":"Am Büchelberg","postalCode":"98631","locality":"Grabfeld","municipality":{"key":"16066094","name":"Grabfeld","type":"Kreisangehörige_Gemeinde"},"district":{"key":"16066","name":"Schmalkalden-Meiningen","type":"Landkreis"},"federalState":{"key":"16","name":"Thüringen"}},{"name":"Am Christengarten","postalCode":"98631","locality":"Grabfeld","municipality":{"key":"16066094","name":"Grabfeld","type":"Kreisangehörige_Gemeinde"},"district":{"key":"16066","name":"Schmalkalden-Meiningen","type":"Landkreis"},"federalState":{"key":"16","name":"Thüringen"}},{"name":"Am Denkmal","postalCode":"98631","locality":"Grabfeld","municipality":{"key":"16066094","name":"Grabfeld","type":"Kreisangehörige_Gemeinde"},"district":{"key":"16066","name":"Schmalkalden-Meiningen","type":"Landkreis"},"federalState":{"key":"16","name":"Thüringen"}},{"name":"Am Erb","postalCode":"97631","locality":"Bad Königshofen im Grabfeld","municipality":{"key":"09673141","name":"Bad Königshofen i.Grabfeld, St","type":"Stadt"},"district":{"key":"09673","name":"Rhön-Grabfeld","type":"Landkreis"},"federalState":{"key":"09","name":"Bayern"}},{"name":"Am Gänsegarten","postalCode":"98631","locality":"Grabfeld","municipality":{"key":"16066094","name":"Grabfeld","type":"Kreisangehörige_Gemeinde"},"district":{"key":"16066","name":"Schmalkalden-Meiningen","type":"Landkreis"},"federalState":{"key":"16","name":"Thüringen"}},{"name":"Am Großeibstädter Weg","postalCode":"97631","locality":"Bad Königshofen im Grabfeld","municipality":{"key":"09673141","name":"Bad Königshofen i.Grabfeld, St","type":"Stadt"},"district":{"key":"09673","name":"Rhön-Grabfeld","type":"Landkreis"},"federalState":{"key":"09","name":"Bayern"}},{"name":"Am Haag","postalCode":"97631","locality":"Bad Königshofen im Grabfeld","municipality":{"key":"09673141","name":"Bad Königshofen i.Grabfeld, St","type":"Stadt"},"district":{"key":"09673","name":"Rhön-Grabfeld","type":"Landkreis"},"federalState":{"key":"09","name":"Bayern"}},{"name":"Am Herrenhof","postalCode":"97631","locality":"Bad Königshofen im Grabfeld","municipality":{"key":"09673141","name":"Bad Königshofen i.Grabfeld, St","type":"Stadt"},"district":{"key":"09673","name":"Rhön-Grabfeld","type":"Landkreis"},"federalState":{"key":"09","name":"Bayern"}},{"name":"Am Hochgericht","postalCode":"97631","locality":"Bad Königshofen im Grabfeld","municipality":{"key":"09673141","name":"Bad Königshofen i.Grabfeld, St","type":"Stadt"},"district":{"key":"09673","name":"Rhön-Grabfeld","type":"Landkreis"},"federalState":{"key":"09","name":"Bayern"}},{"name":"Am Honigberg","postalCode":"98631","locality":"Grabfeld","municipality":{"key":"16066094","name":"Grabfeld","type":"Kreisangehörige_Gemeinde"},"district":{"key":"16066","name":"Schmalkalden-Meiningen","type":"Landkreis"},"federalState":{"key":"16","name":"Thüringen"}},{"name":"Am Hopfengarten","postalCode":"97631","locality":"Bad Königshofen im Grabfeld","municipality":{"key":"09673141","name":"Bad Königshofen i.Grabfeld, St","type":"Stadt"},"district":{"key":"09673","name":"Rhön-Grabfeld","type":"Landkreis"},"federalState":{"key":"09","name":"Bayern"}},{"name":"Am Hopfengarten","postalCode":"98631","locality":"Grabfeld","municipality":{"key":"16066094","name":"Grabfeld","type":"Kreisangehörige_Gemeinde"},"district":{"key":"16066","name":"Schmalkalden-Meiningen","type":"Landkreis"},"federalState":{"key":"16","name":"Thüringen"}},{"name":"Am Hopfenkreuzlein","postalCode":"97631","locality":"Bad Königshofen im Grabfeld","municipality":{"key":"09673141","name":"Bad Königshofen i.Grabfeld, St","type":"Stadt"},"district":{"key":"09673","name":"Rhön-Grabfeld","type":"Landkreis"},"federalState":{"key":"09","name":"Bayern"}},{"name":"Am Judenfriedhof","postalCode":"97631","locality":"Bad Königshofen im Grabfeld","municipality":{"key":"09673141","name":"Bad Königshofen i.Grabfeld, St","type":"Stadt"},"district":{"key":"09673","name":"Rhön-Grabfeld","type":"Landkreis"},"federalState":{"key":"09","name":"Bayern"}},{"name":"Am Katzenberg","postalCode":"98631","locality":"Grabfeld","municipality":{"key":"16066094","name":"Grabfeld","type":"Kreisangehörige_Gemeinde"},"district":{"key":"16066","name":"Schmalkalden-Meiningen","type":"Landkreis"},"federalState":{"key":"16","name":"Thüringen"}},{"name":"Am Kirchbrunnen","postalCode":"98631","locality":"Grabfeld","municipality":{"key":"16066094","name":"Grabfeld","type":"Kreisangehörige_Gemeinde"},"district":{"key":"16066","name":"Schmalkalden-Meiningen","type":"Landkreis"},"federalState":{"key":"16","name":"Thüringen"}},{"name":"Am Kirchleinsgrund","postalCode":"97631","locality":"Bad Königshofen im Grabfeld","municipality":{"key":"09673141","name":"Bad Königshofen i.Grabfeld, St","type":"Stadt"},"district":{"key":"09673","name":"Rhön-Grabfeld","type":"Landkreis"},"federalState":{"key":"09","name":"Bayern"}},{"name":"Am Kleinfeld","postalCode":"97631","locality":"Bad Königshofen im Grabfeld","municipality":{"key":"09673141","name":"Bad Königshofen i.Grabfeld, St","type":"Stadt"},"district":{"key":"09673","name":"Rhön-Grabfeld","type":"Landkreis"},"federalState":{"key":"09","name":"Bayern"}},{"name":"Am Kulturhaus","postalCode":"98631","locality":"Grabfeld","municipality":{"key":"16066094","name":"Grabfeld","type":"Kreisangehörige_Gemeinde"},"district":{"key":"16066","name":"Schmalkalden-Meiningen","type":"Landkreis"},"federalState":{"key":"16","name":"Thüringen"}},{"name":"Am Kurzentrum","postalCode":"97631","locality":"Bad Königshofen im Grabfeld","municipality":{"key":"09673141","name":"Bad Königshofen i.Grabfeld, St","type":"Stadt"},"district":{"key":"09673","name":"Rhön-Grabfeld","type":"Landkreis"},"federalState":{"key":"09","name":"Bayern"}},{"name":"Am Langen Rasen","postalCode":"98631","locality":"Grabfeld","municipality":{"key":"16066094","name":"Grabfeld","type":"Kreisangehörige_Gemeinde"},"district":{"key":"16066","name":"Schmalkalden-Meiningen","type":"Landkreis"},"federalState":{"key":"16","name":"Thüringen"}},{"name":"Am Lindenplan","postalCode":"97631","locality":"Bad Königshofen im Grabfeld","municipality":{"key":"09673141","name":"Bad Königshofen i.Grabfeld, St","type":"Stadt"},"district":{"key":"09673","name":"Rhön-Grabfeld","type":"Landkreis"},"federalState":{"key":"09","name":"Bayern"}},{"name":"Am Manger","postalCode":"98631","locality":"Grabfeld","municipality":{"key":"16066094","name":"Grabfeld","type":"Kreisangehörige_Gemeinde"},"district":{"key":"16066","name":"Schmalkalden-Meiningen","type":"Landkreis"},"federalState":{"key":"16","name":"Thüringen"}},{"name":"Am Mittelbrühl","postalCode":"98631","locality":"Grabfeld","municipality":{"key":"16066094","name":"Grabfeld","type":"Kreisangehörige_Gemeinde"},"district":{"key":"16066","name":"Schmalkalden-Meiningen","type":"Landkreis"},"federalState":{"key":"16","name":"Thüringen"}},{"name":"Am Mühlweg","postalCode":"97631","locality":"Bad Königshofen im Grabfeld","municipality":{"key":"09673141","name":"Bad Königshofen i.Grabfeld, St","type":"Stadt"},"district":{"key":"09673","name":"Rhön-Grabfeld","type":"Landkreis"},"federalState":{"key":"09","name":"Bayern"}},{"name":"Am Obertor","postalCode":"97631","locality":"Bad Königshofen im Grabfeld","municipality":{"key":"09673141","name":"Bad Königshofen i.Grabfeld, St","type":"Stadt"},"district":{"key":"09673","name":"Rhön-Grabfeld","type":"Landkreis"},"federalState":{"key":"09","name":"Bayern"}},{"name":"Am Pfarrgarten","postalCode":"98631","locality":"Grabfeld","municipality":{"key":"16066094","name":"Grabfeld","type":"Kreisangehörige_Gemeinde"},"district":{"key":"16066","name":"Schmalkalden-Meiningen","type":"Landkreis"},"federalState":{"key":"16","name":"Thüringen"}},{"name":"Am Pfarrhaus","postalCode":"98631","locality":"Grabfeld","municipality":{"key":"16066094","name":"Grabfeld","type":"Kreisangehörige_Gemeinde"},"district":{"key":"16066","name":"Schmalkalden-Meiningen","type":"Landkreis"},"federalState":{"key":"16","name":"Thüringen"}},{"name":"Am Point","postalCode":"97631","locality":"Bad Königshofen im Grabfeld","municipality":{"key":"09673141","name":"Bad Königshofen i.Grabfeld, St","type":"Stadt"},"district":{"key":"09673","name":"Rhön-Grabfeld","type":"Landkreis"},"federalState":{"key":"09","name":"Bayern"}},{"name":"Am Rangenberg","postalCode":"98631","locality":"Grabfeld","municipality":{"key":"16066094","name":"Grabfeld","type":"Kreisangehörige_Gemeinde"},"district":{"key":"16066","name":"Schmalkalden-Meiningen","type":"Landkreis"},"federalState":{"key":"16","name":"Thüringen"}},{"name":"Am Rennweg","postalCode":"97631","locality":"Bad Königshofen im Grabfeld","municipality":{"key":"09673141","name":"Bad Königshofen i.Grabfeld, St","type":"Stadt"},"district":{"key":"09673","name":"Rhön-Grabfeld","type":"Landkreis"},"federalState":{"key":"09","name":"Bayern"}},{"name":"Am Rosenhügel","postalCode":"98631","locality":"Grabfeld","municipality":{"key":"16066094","name":"Grabfeld","type":"Kreisangehörige_Gemeinde"},"district":{"key":"16066","name":"Schmalkalden-Meiningen","type":"Landkreis"},"federalState":{"key":"16","name":"Thüringen"}},{"name":"Am Roßbach","postalCode":"98631","locality":"Grabfeld","municipality":{"key":"16066094","name":"Grabfeld","type":"Kreisangehörige_Gemeinde"},"district":{"key":"16066","name":"Schmalkalden-Meiningen","type":"Landkreis"},"federalState":{"key":"16","name":"Thüringen"}},{"name":"Am Sägewerk","postalCode":"98631","locality":"Grabfeld","municipality":{"key":"16066094","name":"Grabfeld","type":"Kreisangehörige_Gemeinde"},"district":{"key":"16066","name":"Schmalkalden-Meiningen","type":"Landkreis"},"federalState":{"key":"16","name":"Thüringen"}},{"name":"Bachgasse","postalCode":"98631","locality":"Grabfeld","municipality":{"key":"16066094","name":"Grabfeld","type":"Kreisangehörige_Gemeinde"},"district":{"key":"16066","name":"Schmalkalden-Meiningen","type":"Landkreis"},"federalState":{"key":"16","name":"Thüringen"}},{"name":"Backgasse","postalCode":"98631","locality":"Grabfeld","municipality":{"key":"16066094","name":"Grabfeld","type":"Kreisangehörige_Gemeinde"},"district":{"key":"16066","name":"Schmalkalden-Meiningen","type":"Landkreis"},"federalState":{"key":"16","name":"Thüringen"}},{"name":"Backhausgasse","postalCode":"98631","locality":"Grabfeld","municipality":{"key":"16066094","name":"Grabfeld","type":"Kreisangehörige_Gemeinde"},"district":{"key":"16066","name":"Schmalkalden-Meiningen","type":"Landkreis"},"federalState":{"key":"16","name":"Thüringen"}},{"name":"Bahnhofstr.","postalCode":"97631","locality":"Bad Königshofen im Grabfeld","municipality":{"key":"09673141","name":"Bad Königshofen i.Grabfeld, St","type":"Stadt"},"district":{"key":"09673","name":"Rhön-Grabfeld","type":"Landkreis"},"federalState":{"key":"09","name":"Bayern"}},{"name":"Bahnhofstr.","postalCode":"98631","locality":"Grabfeld","municipality":{"key":"16066094","name":"Grabfeld","type":"Kreisangehörige_Gemeinde"},"district":{"key":"16066","name":"Schmalkalden-Meiningen","type":"Landkreis"},"federalState":{"key":"16","name":"Thüringen"}},{"name":"Bahrastr.","postalCode":"98631","locality":"Grabfeld","municipality":{"key":"16066094","name":"Grabfeld","type":"Kreisangehörige_Gemeinde"},"district":{"key":"16066","name":"Schmalkalden-Meiningen","type":"Landkreis"},"federalState":{"key":"16","name":"Thüringen"}},{"name":"Bamberger Str.","postalCode":"97631","locality":"Bad Königshofen im Grabfeld","municipality":{"key":"09673141","name":"Bad Königshofen i.Grabfeld, St","type":"Stadt"},"district":{"key":"09673","name":"Rhön-Grabfeld","type":"Landkreis"},"federalState":{"key":"09","name":"Bayern"}},{"name":"Behrunger Weg","postalCode":"98631","locality":"Grabfeld","municipality":{"key":"16066094","name":"Grabfeld","type":"Kreisangehörige_Gemeinde"},"district":{"key":"16066","name":"Schmalkalden-Meiningen","type":"Landkreis"},"federalState":{"key":"16","name":"Thüringen"}},{"name":"Berghäuschen-Trail","postalCode":"97631","locality":"Bad Königshofen im Grabfeld","municipality":{"key":"09673141","name":"Bad Königshofen i.Grabfeld, St","type":"Stadt"},"district":{"key":"09673","name":"Rhön-Grabfeld","type":"Landkreis"},"federalState":{"key":"09","name":"Bayern"}},{"name":"Berkacher Hauptstr.","postalCode":"98631","locality":"Grabfeld","municipality":{"key":"16066094","name":"Grabfeld","type":"Kreisangehörige_Gemeinde"},"district":{"key":"16066","name":"Schmalkalden-Meiningen","type":"Landkreis"},"federalState":{"key":"16","name":"Thüringen"}},{"name":"Berkacher Str.","postalCode":"98631","locality":"Grabfeld","municipality":{"key":"16066094","name":"Grabfeld","type":"Kreisangehörige_Gemeinde"},"district":{"key":"16066","name":"Schmalkalden-Meiningen","type":"Landkreis"},"federalState":{"key":"16","name":"Thüringen"}},{"name":"Berkacher Weg","postalCode":"98631","locality":"Grabfeld","municipality":{"key":"16066094","name":"Grabfeld","type":"Kreisangehörige_Gemeinde"},"district":{"key":"16066","name":"Schmalkalden-Meiningen","type":"Landkreis"},"federalState":{"key":"16","name":"Thüringen"}},{"name":"Bibraer Str.","postalCode":"98631","locality":"Grabfeld","municipality":{"key":"16066094","name":"Grabfeld","type":"Kreisangehörige_Gemeinde"},"district":{"key":"16066","name":"Schmalkalden-Meiningen","type":"Landkreis"},"federalState":{"key":"16","name":"Thüringen"}},{"name":"Blankenberghof","postalCode":"97631","locality":"Bad Königshofen im Grabfeld","municipality":{"key":"09673141","name":"Bad Königshofen i.Grabfeld, St","type":"Stadt"},"district":{"key":"09673","name":"Rhön-Grabfeld","type":"Landkreis"},"federalState":{"key":"09","name":"Bayern"}},{"name":"Braugasse","postalCode":"98631","locality":"Grabfeld","municipality":{"key":"16066094","name":"Grabfeld","type":"Kreisangehörige_Gemeinde"},"district":{"key":"16066","name":"Schmalkalden-Meiningen","type":"Landkreis"},"federalState":{"key":"16","name":"Thüringen"}},{"name":"Brauhausstr.","postalCode":"97631","locality":"Bad Königshofen im Grabfeld","municipality":{"key":"09673141","name":"Bad Königshofen i.Grabfeld, St","type":"Stadt"},"district":{"key":"09673","name":"Rhön-Grabfeld","type":"Landkreis"},"federalState":{"key":"09","name":"Bayern"}},{"name":"Brunnengasse","postalCode":"97631","locality":"Bad Königshofen im Grabfeld","municipality":{"key":"09673141","name":"Bad Königshofen i.Grabfeld, St","type":"Stadt"},"district":{"key":"09673","name":"Rhön-Grabfeld","type":"Landkreis"},"federalState":{"key":"09","name":"Bayern"}},{"name":"Bürgermeister-Eschenbach-Allee","postalCode":"97631","locality":"Bad Königshofen im Grabfeld","municipality":{"key":"09673141","name":"Bad Königshofen i.Grabfeld, St","type":"Stadt"},"district":{"key":"09673","name":"Rhön-Grabfeld","type":"Landkreis"},"federalState":{"key":"09","name":"Bayern"}},{"name":"Burgweg","postalCode":"98631","locality":"Grabfeld","municipality":{"key":"16066094","name":"Grabfeld","type":"Kreisangehörige_Gemeinde"},"district":{"key":"16066","name":"Schmalkalden-Meiningen","type":"Landkreis"},"federalState":{"key":"16","name":"Thüringen"}},{"name":"Cronlachstr.","postalCode":"98631","locality":"Grabfeld","municipality":{"key":"16066094","name":"Grabfeld","type":"Kreisangehörige_Gemeinde"},"district":{"key":"16066","name":"Schmalkalden-Meiningen","type":"Landkreis"},"federalState":{"key":"16","name":"Thüringen"}},{"name":"Dingslebener Weg","postalCode":"98631","locality":"Grabfeld","municipality":{"key":"16066094","name":"Grabfeld","type":"Kreisangehörige_Gemeinde"},"district":{"key":"16066","name":"Schmalkalden-Meiningen","type":"Landkreis"},"federalState":{"key":"16","name":"Thüringen"}},{"name":"Dorfblick","postalCode":"98631","locality":"Grabfeld","municipality":{"key":"16066094","name":"Grabfeld","type":"Kreisangehörige_Gemeinde"},"district":{"key":"16066","name":"Schmalkalden-Meiningen","type":"Landkreis"},"federalState":{"key":"16","name":"Thüringen"}},{"name":"Dorfstr.","postalCode":"98631","locality":"Grabfeld","municipality":{"key":"16066094","name":"Grabfeld","type":"Kreisangehörige_Gemeinde"},"district":{"key":"16066","name":"Schmalkalden-Meiningen","type":"Landkreis"},"federalState":{"key":"16","name":"Thüringen"}},{"name":"Dr.-Ernst-Weber-Str.","postalCode":"97631","locality":"Bad Königshofen im Grabfeld","municipality":{"key":"09673141","name":"Bad Königshofen i.Grabfeld, St","type":"Stadt"},"district":{"key":"09673","name":"Rhön-Grabfeld","type":"Landkreis"},"federalState":{"key":"09","name":"Bayern"}},{"name":"Dr.-Eva-Elsner-Str.","postalCode":"98631","locality":"Grabfeld","municipality":{"key":"16066094","name":"Grabfeld","type":"Kreisangehörige_Gemeinde"},"district":{"key":"16066","name":"Schmalkalden-Meiningen","type":"Landkreis"},"federalState":{"key":"16","name":"Thüringen"}},{"name":"Dr.-Hans-Kentmann-Weg","postalCode":"97631","locality":"Bad Königshofen im Grabfeld","municipality":{"key":"09673141","name":"Bad Königshofen i.Grabfeld, St","type":"Stadt"},"district":{"key":"09673","name":"Rhön-Grabfeld","type":"Landkreis"},"federalState":{"key":"09","name":"Bayern"}},{"name":"Dr.-Karl-Grünewald-Str.","postalCode":"97631","locality":"Bad Königshofen im Grabfeld","municipality":{"key":"09673141","name":"Bad Königshofen i.Grabfeld, St","type":"Stadt"},"district":{"key":"09673","name":"Rhön-Grabfeld","type":"Landkreis"},"federalState":{"key":"09","name":"Bayern"}},{"name":"Dürnhag","postalCode":"97631","locality":"Bad Königshofen im Grabfeld","municipality":{"key":"09673141","name":"Bad Königshofen i.Grabfeld, St","type":"Stadt"},"district":{"key":"09673","name":"Rhön-Grabfeld","type":"Landkreis"},"federalState":{"key":"09","name":"Bayern"}},{"name":"Ecke","postalCode":"98631","locality":"Grabfeld","municipality":{"key":"16066094","name":"Grabfeld","type":"Kreisangehörige_Gemeinde"},"district":{"key":"16066","name":"Schmalkalden-Meiningen","type":"Landkreis"},"federalState":{"key":"16","name":"Thüringen"}},{"name":"Einödhäuser Str.","postalCode":"98631","locality":"Grabfeld","municipality":{"key":"16066094","name":"Grabfeld","type":"Kreisangehörige_Gemeinde"},"district":{"key":"16066","name":"Schmalkalden-Meiningen","type":"Landkreis"},"federalState":{"key":"16","name":"Thüringen"}},{"name":"Elisabethastr.","postalCode":"97631","locality":"Bad Königshofen im Grabfeld","municipality":{"key":"09673141","name":"Bad Königshofen i.Grabfeld, St","type":"Stadt"},"district":{"key":"09673","name":"Rhön-Grabfeld","type":"Landkreis"},"federalState":{"key":"09","name":"Bayern"}},{"name":"Eschenbachstr.","postalCode":"97631","locality":"Bad Königshofen im Grabfeld","municipality":{"key":"09673141","name":"Bad Königshofen i.Grabfeld, St","type":"Stadt"},"district":{"key":"09673","name":"Rhön-Grabfeld","type":"Landkreis"},"federalState":{"key":"09","name":"Bayern"}},{"name":"Eßfelder Str.","postalCode":"97631","locality":"Bad Königshofen im Grabfeld","municipality":{"key":"09673141","name":"Bad Königshofen i.Grabfeld, St","type":"Stadt"},"district":{"key":"09673","name":"Rhön-Grabfeld","type":"Landkreis"},"federalState":{"key":"09","name":"Bayern"}},{"name":"Festungsstr.","postalCode":"97631","locality":"Bad Königshofen im Grabfeld","municipality":{"key":"09673141","name":"Bad Königshofen i.Grabfeld, St","type":"Stadt"},"district":{"key":"09673","name":"Rhön-Grabfeld","type":"Landkreis"},"federalState":{"key":"09","name":"Bayern"}},{"name":"Fleischgasse","postalCode":"98631","locality":"Grabfeld","municipality":{"key":"16066094","name":"Grabfeld","type":"Kreisangehörige_Gemeinde"},"district":{"key":"16066","name":"Schmalkalden-Meiningen","type":"Landkreis"},"federalState":{"key":"16","name":"Thüringen"}},{"name":"Floriansweg","postalCode":"98631","locality":"Grabfeld","municipality":{"key":"16066094","name":"Grabfeld","type":"Kreisangehörige_Gemeinde"},"district":{"key":"16066","name":"Schmalkalden-Meiningen","type":"Landkreis"},"federalState":{"key":"16","name":"Thüringen"}},{"name":"Frankengasse","postalCode":"98631","locality":"Grabfeld","municipality":{"key":"16066094","name":"Grabfeld","type":"Kreisangehörige_Gemeinde"},"district":{"key":"16066","name":"Schmalkalden-Meiningen","type":"Landkreis"},"federalState":{"key":"16","name":"Thüringen"}},{"name":"Franzosengraben","postalCode":"97631","locality":"Bad Königshofen im Grabfeld","municipality":{"key":"09673141","name":"Bad Königshofen i.Grabfeld, St","type":"Stadt"},"district":{"key":"09673","name":"Rhön-Grabfeld","type":"Landkreis"},"federalState":{"key":"09","name":"Bayern"}},{"name":"Friedhofsweg","postalCode":"98631","locality":"Grabfeld","municipality":{"key":"16066094","name":"Grabfeld","type":"Kreisangehörige_Gemeinde"},"district":{"key":"16066","name":"Schmalkalden-Meiningen","type":"Landkreis"},"federalState":{"key":"16","name":"Thüringen"}},{"name":"Friedhofweg","postalCode":"97631","locality":"Bad Königshofen im Grabfeld","municipality":{"key":"09673141","name":"Bad Königshofen i.Grabfeld, St","type":"Stadt"},"district":{"key":"09673","name":"Rhön-Grabfeld","type":"Landkreis"},"federalState":{"key":"09","name":"Bayern"}},{"name":"Friedrich-Schiller-Str.","postalCode":"98631","locality":"Grabfeld","municipality":{"key":"16066094","name":"Grabfeld","type":"Kreisangehörige_Gemeinde"},"district":{"key":"16066","name":"Schmalkalden-Meiningen","type":"Landkreis"},"federalState":{"key":"16","name":"Thüringen"}},{"name":"Froschgasse","postalCode":"98631","locality":"Grabfeld","municipality":{"key":"16066094","name":"Grabfeld","type":"Kreisangehörige_Gemeinde"},"district":{"key":"16066","name":"Schmalkalden-Meiningen","type":"Landkreis"},"federalState":{"key":"16","name":"Thüringen"}},{"name":"Gartenstr.","postalCode":"98631","locality":"Grabfeld","municipality":{"key":"16066094","name":"Grabfeld","type":"Kreisangehörige_Gemeinde"},"district":{"key":"16066","name":"Schmalkalden-Meiningen","type":"Landkreis"},"federalState":{"key":"16","name":"Thüringen"}},{"name":"Gartenweg","postalCode":"97631","locality":"Bad Königshofen im Grabfeld","municipality":{"key":"09673141","name":"Bad Königshofen i.Grabfeld, St","type":"Stadt"},"district":{"key":"09673","name":"Rhön-Grabfeld","type":"Landkreis"},"federalState":{"key":"09","name":"Bayern"}},{"name":"Gasse","postalCode":"98631","locality":"Grabfeld","municipality":{"key":"16066094","name":"Grabfeld","type":"Kreisangehörige_Gemeinde"},"district":{"key":"16066","name":"Schmalkalden-Meiningen","type":"Landkreis"},"federalState":{"key":"16","name":"Thüringen"}},{"name":"Gewend","postalCode":"97631","locality":"Bad Königshofen im Grabfeld","municipality":{"key":"09673141","name":"Bad Königshofen i.Grabfeld, St","type":"Stadt"},"district":{"key":"09673","name":"Rhön-Grabfeld","type":"Landkreis"},"federalState":{"key":"09","name":"Bayern"}},{"name":"Goethestr.","postalCode":"98631","locality":"Grabfeld","municipality":{"key":"16066094","name":"Grabfeld","type":"Kreisangehörige_Gemeinde"},"district":{"key":"16066","name":"Schmalkalden-Meiningen","type":"Landkreis"},"federalState":{"key":"16","name":"Thüringen"}},{"name":"Grauer Hag","postalCode":"98631","locality":"Grabfeld","municipality":{"key":"16066094","name":"Grabfeld","type":"Kreisangehörige_Gemeinde"},"district":{"key":"16066","name":"Schmalkalden-Meiningen","type":"Landkreis"},"federalState":{"key":"16","name":"Thüringen"}},{"name":"Großeibstädter Str.","postalCode":"97631","locality":"Bad Königshofen im Grabfeld","municipality":{"key":"09673141","name":"Bad Königshofen i.Grabfeld, St","type":"Stadt"},"district":{"key":"09673","name":"Rhön-Grabfeld","type":"Landkreis"},"federalState":{"key":"09","name":"Bayern"}},{"name":"Große Keh","postalCode":"98631","locality":"Grabfeld","municipality":{"key":"16066094","name":"Grabfeld","type":"Kreisangehörige_Gemeinde"},"district":{"key":"16066","name":"Schmalkalden-Meiningen","type":"Landkreis"},"federalState":{"key":"16","name":"Thüringen"}},{"name":"Gutsstr.","postalCode":"98631","locality":"Grabfeld","municipality":{"key":"16066094","name":"Grabfeld","type":"Kreisangehörige_Gemeinde"},"district":{"key":"16066","name":"Schmalkalden-Meiningen","type":"Landkreis"},"federalState":{"key":"16","name":"Thüringen"}},{"name":"Hallenweg","postalCode":"97631","locality":"Bad Königshofen im Grabfeld","municipality":{"key":"09673141","name":"Bad Königshofen i.Grabfeld, St","type":"Stadt"},"district":{"key":"09673","name":"Rhön-Grabfeld","type":"Landkreis"},"federalState":{"key":"09","name":"Bayern"}},{"name":"Hans-Dietrich-Str.","postalCode":"97631","locality":"Bad Königshofen im Grabfeld","municipality":{"key":"09673141","name":"Bad Königshofen i.Grabfeld, St","type":"Stadt"},"district":{"key":"09673","name":"Rhön-Grabfeld","type":"Landkreis"},"federalState":{"key":"09","name":"Bayern"}},{"name":"Haumühle","postalCode":"97631","locality":"Bad Königshofen im Grabfeld","municipality":{"key":"09673141","name":"Bad Königshofen i.Grabfeld, St","type":"Stadt"},"district":{"key":"09673","name":"Rhön-Grabfeld","type":"Landkreis"},"federalState":{"key":"09","name":"Bayern"}},{"name":"Hauptstr.","postalCode":"97631","locality":"Bad Königshofen im Grabfeld","municipality":{"key":"09673141","name":"Bad Königshofen i.Grabfeld, St","type":"Stadt"},"district":{"key":"09673","name":"Rhön-Grabfeld","type":"Landkreis"},"federalState":{"key":"09","name":"Bayern"}},{"name":"Hauptstr.","postalCode":"98631","locality":"Grabfeld","municipality":{"key":"16066094","name":"Grabfeld","type":"Kreisangehörige_Gemeinde"},"district":{"key":"16066","name":"Schmalkalden-Meiningen","type":"Landkreis"},"federalState":{"key":"16","name":"Thüringen"}},{"name":"Heinrich-Heine-Str.","postalCode":"98631","locality":"Grabfeld","municipality":{"key":"16066094","name":"Grabfeld","type":"Kreisangehörige_Gemeinde"},"district":{"key":"16066","name":"Schmalkalden-Meiningen","type":"Landkreis"},"federalState":{"key":"16","name":"Thüringen"}},{"name":"Hennebergerstr.","postalCode":"97631","locality":"Bad Königshofen im Grabfeld","municipality":{"key":"09673141","name":"Bad Königshofen i.Grabfeld, St","type":"Stadt"},"district":{"key":"09673","name":"Rhön-Grabfeld","type":"Landkreis"},"federalState":{"key":"09","name":"Bayern"}},{"name":"Henneberger Str.","postalCode":"98631","locality":"Grabfeld","municipality":{"key":"16066094","name":"Grabfeld","type":"Kreisangehörige_Gemeinde"},"district":{"key":"16066","name":"Schmalkalden-Meiningen","type":"Landkreis"},"federalState":{"key":"16","name":"Thüringen"}},{"name":"Herbstädter Str.","postalCode":"97631","locality":"Bad Königshofen im Grabfeld","municipality":{"key":"09673141","name":"Bad Königshofen i.Grabfeld, St","type":"Stadt"},"district":{"key":"09673","name":"Rhön-Grabfeld","type":"Landkreis"},"federalState":{"key":"09","name":"Bayern"}},{"name":"Herrengasse","postalCode":"97631","locality":"Bad Königshofen im Grabfeld","municipality":{"key":"09673141","name":"Bad Königshofen i.Grabfeld, St","type":"Stadt"},"district":{"key":"09673","name":"Rhön-Grabfeld","type":"Landkreis"},"federalState":{"key":"09","name":"Bayern"}},{"name":"Herrenhausweg","postalCode":"98631","locality":"Grabfeld","municipality":{"key":"16066094","name":"Grabfeld","type":"Kreisangehörige_Gemeinde"},"district":{"key":"16066","name":"Schmalkalden-Meiningen","type":"Landkreis"},"federalState":{"key":"16","name":"Thüringen"}},{"name":"Herrleinstr.","postalCode":"97631","locality":"Bad Königshofen im Grabfeld","municipality":{"key":"09673141","name":"Bad Königshofen i.Grabfeld, St","type":"Stadt"},"district":{"key":"09673","name":"Rhön-Grabfeld","type":"Landkreis"},"federalState":{"key":"09","name":"Bayern"}},{"name":"Herrmannsgasse","postalCode":"97631","locality":"Bad Königshofen im Grabfeld","municipality":{"key":"09673141","name":"Bad Königshofen i.Grabfeld, St","type":"Stadt"},"district":{"key":"09673","name":"Rhön-Grabfeld","type":"Landkreis"},"federalState":{"key":"09","name":"Bayern"}},{"name":"Heurichstr.","postalCode":"98631","locality":"Grabfeld","municipality":{"key":"16066094","name":"Grabfeld","type":"Kreisangehörige_Gemeinde"},"district":{"key":"16066","name":"Schmalkalden-Meiningen","type":"Landkreis"},"federalState":{"key":"16","name":"Thüringen"}},{"name":"Hindenburgstr.","postalCode":"97631","locality":"Bad Königshofen im Grabfeld","municipality":{"key":"09673141","name":"Bad Königshofen i.Grabfeld, St","type":"Stadt"},"district":{"key":"09673","name":"Rhön-Grabfeld","type":"Landkreis"},"federalState":{"key":"09","name":"Bayern"}},{"name":"Hinter dem Forsthaus","postalCode":"98631","locality":"Grabfeld","municipality":{"key":"16066094","name":"Grabfeld","type":"Kreisangehörige_Gemeinde"},"district":{"key":"16066","name":"Schmalkalden-Meiningen","type":"Landkreis"},"federalState":{"key":"16","name":"Thüringen"}},{"name":"Hinter den Gärten","postalCode":"98631","locality":"Grabfeld","municipality":{"key":"16066094","name":"Grabfeld","type":"Kreisangehörige_Gemeinde"},"district":{"key":"16066","name":"Schmalkalden-Meiningen","type":"Landkreis"},"federalState":{"key":"16","name":"Thüringen"}},{"name":"Hinter der Kirche","postalCode":"98631","locality":"Grabfeld","municipality":{"key":"16066094","name":"Grabfeld","type":"Kreisangehörige_Gemeinde"},"district":{"key":"16066","name":"Schmalkalden-Meiningen","type":"Landkreis"},"federalState":{"key":"16","name":"Thüringen"}},{"name":"Hinterdorf","postalCode":"98631","locality":"Grabfeld","municipality":{"key":"16066094","name":"Grabfeld","type":"Kreisangehörige_Gemeinde"},"district":{"key":"16066","name":"Schmalkalden-Meiningen","type":"Landkreis"},"federalState":{"key":"16","name":"Thüringen"}},{"name":"Hirtentor","postalCode":"98631","locality":"Grabfeld","municipality":{"key":"16066094","name":"Grabfeld","type":"Kreisangehörige_Gemeinde"},"district":{"key":"16066","name":"Schmalkalden-Meiningen","type":"Landkreis"},"federalState":{"key":"16","name":"Thüringen"}},{"name":"Hofgasse","postalCode":"97631","locality":"Bad Königshofen im Grabfeld","municipality":{"key":"09673141","name":"Bad Königshofen i.Grabfeld, St","type":"Stadt"},"district":{"key":"09673","name":"Rhön-Grabfeld","type":"Landkreis"},"federalState":{"key":"09","name":"Bayern"}},{"name":"Hoher Markstein","postalCode":"97631","locality":"Bad Königshofen im Grabfeld","municipality":{"key":"09673141","name":"Bad Königshofen i.Grabfeld, St","type":"Stadt"},"district":{"key":"09673","name":"Rhön-Grabfeld","type":"Landkreis"},"federalState":{"key":"09","name":"Bayern"}},{"name":"Holzhaufenweg","postalCode":"97631","locality":"Bad Königshofen im Grabfeld","municipality":{"key":"09673141","name":"Bad Königshofen i.Grabfeld, St","type":"Stadt"},"district":{"key":"09673","name":"Rhön-Grabfeld","type":"Landkreis"},"federalState":{"key":"09","name":"Bayern"}},{"name":"Hopfengarten","postalCode":"98631","locality":"Grabfeld","municipality":{"key":"16066094","name":"Grabfeld","type":"Kreisangehörige_Gemeinde"},"district":{"key":"16066","name":"Schmalkalden-Meiningen","type":"Landkreis"},"federalState":{"key":"16","name":"Thüringen"}},{"name":"Hummelgasse","postalCode":"97631","locality":"Bad Königshofen im Grabfeld","municipality":{"key":"09673141","name":"Bad Königshofen i.Grabfeld, St","type":"Stadt"},"district":{"key":"09673","name":"Rhön-Grabfeld","type":"Landkreis"},"federalState":{"key":"09","name":"Bayern"}},{"name":"Hunnenburg","postalCode":"97631","locality":"Bad Königshofen im Grabfeld","municipality":{"key":"09673141","name":"Bad Königshofen i.Grabfeld, St","type":"Stadt"},"district":{"key":"09673","name":"Rhön-Grabfeld","type":"Landkreis"},"federalState":{"key":"09","name":"Bayern"}},{"name":"Im Baumgarten","postalCode":"98631","locality":"Grabfeld","municipality":{"key":"16066094","name":"Grabfeld","type":"Kreisangehörige_Gemeinde"},"district":{"key":"16066","name":"Schmalkalden-Meiningen","type":"Landkreis"},"federalState":{"key":"16","name":"Thüringen"}},{"name":"Im Fleck","postalCode":"98631","locality":"Grabfeld","municipality":{"key":"16066094","name":"Grabfeld","type":"Kreisangehörige_Gemeinde"},"district":{"key":"16066","name":"Schmalkalden-Meiningen","type":"Landkreis"},"federalState":{"key":"16","name":"Thüringen"}},{"name":"Im langen Gewend","postalCode":"98631","locality":"Grabfeld","municipality":{"key":"16066094","name":"Grabfeld","type":"Kreisangehörige_Gemeinde"},"district":{"key":"16066","name":"Schmalkalden-Meiningen","type":"Landkreis"},"federalState":{"key":"16","name":"Thüringen"}},{"name":"Im Oberen Weidig","postalCode":"98631","locality":"Grabfeld","municipality":{"key":"16066094","name":"Grabfeld","type":"Kreisangehörige_Gemeinde"},"district":{"key":"16066","name":"Schmalkalden-Meiningen","type":"Landkreis"},"federalState":{"key":"16","name":"Thüringen"}},{"name":"In den Marleswiesen","postalCode":"98631","locality":"Grabfeld","municipality":{"key":"16066094","name":"Grabfeld","type":"Kreisangehörige_Gemeinde"},"district":{"key":"16066","name":"Schmalkalden-Meiningen","type":"Landkreis"},"federalState":{"key":"16","name":"Thüringen"}},{"name":"In den Zeilen","postalCode":"98631","locality":"Grabfeld","municipality":{"key":"16066094","name":"Grabfeld","type":"Kreisangehörige_Gemeinde"},"district":{"key":"16066","name":"Schmalkalden-Meiningen","type":"Landkreis"},"federalState":{"key":"16","name":"Thüringen"}},{"name":"Jahnpromenade","postalCode":"97631","locality":"Bad Königshofen im Grabfeld","municipality":{"key":"09673141","name":"Bad Königshofen i.Grabfeld, St","type":"Stadt"},"district":{"key":"09673","name":"Rhön-Grabfeld","type":"Landkreis"},"federalState":{"key":"09","name":"Bayern"}},{"name":"Judenpfad","postalCode":"97631","locality":"Bad Königshofen im Grabfeld","municipality":{"key":"09673141","name":"Bad Königshofen i.Grabfeld, St","type":"Stadt"},"district":{"key":"09673","name":"Rhön-Grabfeld","type":"Landkreis"},"federalState":{"key":"09","name":"Bayern"}},{"name":"Juliusstr.","postalCode":"97631","locality":"Bad Königshofen im Grabfeld","municipality":{"key":"09673141","name":"Bad Königshofen i.Grabfeld, St","type":"Stadt"},"district":{"key":"09673","name":"Rhön-Grabfeld","type":"Landkreis"},"federalState":{"key":"09","name":"Bayern"}},{"name":"Kalkhof","postalCode":"98631","locality":"Grabfeld","municipality":{"key":"16066094","name":"Grabfeld","type":"Kreisangehörige_Gemeinde"},"district":{"key":"16066","name":"Schmalkalden-Meiningen","type":"Landkreis"},"federalState":{"key":"16","name":"Thüringen"}},{"name":"Kämpfergasse","postalCode":"98631","locality":"Grabfeld","municipality":{"key":"16066094","name":"Grabfeld","type":"Kreisangehörige_Gemeinde"},"district":{"key":"16066","name":"Schmalkalden-Meiningen","type":"Landkreis"},"federalState":{"key":"16","name":"Thüringen"}},{"name":"Kapelleinsweg","postalCode":"97631","locality":"Bad Königshofen im Grabfeld","municipality":{"key":"09673141","name":"Bad Königshofen i.Grabfeld, St","type":"Stadt"},"district":{"key":"09673","name":"Rhön-Grabfeld","type":"Landkreis"},"federalState":{"key":"09","name":"Bayern"}},{"name":"Karl-Merz-Str.","postalCode":"97631","locality":"Bad Königshofen im Grabfeld","municipality":{"key":"09673141","name":"Bad Königshofen i.Grabfeld, St","type":"Stadt"},"district":{"key":"09673","name":"Rhön-Grabfeld","type":"Landkreis"},"federalState":{"key":"09","name":"Bayern"}},{"name":"Kasernenhofgasse","postalCode":"97631","locality":"Bad Königshofen im Grabfeld","municipality":{"key":"09673141","name":"Bad Königshofen i.Grabfeld, St","type":"Stadt"},"district":{"key":"09673","name":"Rhön-Grabfeld","type":"Landkreis"},"federalState":{"key":"09","name":"Bayern"}},{"name":"Kätzeroder Weg","postalCode":"98631","locality":"Grabfeld","municipality":{"key":"16066094","name":"Grabfeld","type":"Kreisangehörige_Gemeinde"},"district":{"key":"16066","name":"Schmalkalden-Meiningen","type":"Landkreis"},"federalState":{"key":"16","name":"Thüringen"}},{"name":"Kellereistr.","postalCode":"97631","locality":"Bad Königshofen im Grabfeld","municipality":{"key":"09673141","name":"Bad Königshofen i.Grabfeld, St","type":"Stadt"},"district":{"key":"09673","name":"Rhön-Grabfeld","type":"Landkreis"},"federalState":{"key":"09","name":"Bayern"}},{"name":"Keßlerstr.","postalCode":"97631","locality":"Bad Königshofen im Grabfeld","municipality":{"key":"09673141","name":"Bad Königshofen i.Grabfeld, St","type":"Stadt"},"district":{"key":"09673","name":"Rhön-Grabfeld","type":"Landkreis"},"federalState":{"key":"09","name":"Bayern"}},{"name":"Kirche","postalCode":"97631","locality":"Bad Königshofen im Grabfeld","municipality":{"key":"09673141","name":"Bad Königshofen i.Grabfeld, St","type":"Stadt"},"district":{"key":"09673","name":"Rhön-Grabfeld","type":"Landkreis"},"federalState":{"key":"09","name":"Bayern"}},{"name":"Kirchgasse","postalCode":"97631","locality":"Bad Königshofen im Grabfeld","municipality":{"key":"09673141","name":"Bad Königshofen i.Grabfeld, St","type":"Stadt"},"district":{"key":"09673","name":"Rhön-Grabfeld","type":"Landkreis"},"federalState":{"key":"09","name":"Bayern"}},{"name":"Kirchgasse","postalCode":"98631","locality":"Grabfeld","municipality":{"key":"16066094","name":"Grabfeld","type":"Kreisangehörige_Gemeinde"},"district":{"key":"16066","name":"Schmalkalden-Meiningen","type":"Landkreis"},"federalState":{"key":"16","name":"Thüringen"}},{"name":"Kirchplatz","postalCode":"97631","locality":"Bad Königshofen im Grabfeld","municipality":{"key":"09673141","name":"Bad Königshofen i.Grabfeld, St","type":"Stadt"},"district":{"key":"09673","name":"Rhön-Grabfeld","type":"Landkreis"},"federalState":{"key":"09","name":"Bayern"}},{"name":"Kirchplatz","postalCode":"98631","locality":"Grabfeld","municipality":{"key":"16066094","name":"Grabfeld","type":"Kreisangehörige_Gemeinde"},"district":{"key":"16066","name":"Schmalkalden-Meiningen","type":"Landkreis"},"federalState":{"key":"16","name":"Thüringen"}},{"name":"Kirchstr.","postalCode":"97631","locality":"Bad Königshofen im Grabfeld","municipality":{"key":"09673141","name":"Bad Königshofen i.Grabfeld, St","type":"Stadt"},"district":{"key":"09673","name":"Rhön-Grabfeld","type":"Landkreis"},"federalState":{"key":"09","name":"Bayern"}},{"name":"Kirchweg","postalCode":"97631","locality":"Bad Königshofen im Grabfeld","municipality":{"key":"09673141","name":"Bad Königshofen i.Grabfeld, St","type":"Stadt"},"district":{"key":"09673","name":"Rhön-Grabfeld","type":"Landkreis"},"federalState":{"key":"09","name":"Bayern"}},{"name":"Kirchweg","postalCode":"98631","locality":"Grabfeld","municipality":{"key":"16066094","name":"Grabfeld","type":"Kreisangehörige_Gemeinde"},"district":{"key":"16066","name":"Schmalkalden-Meiningen","type":"Landkreis"},"federalState":{"key":"16","name":"Thüringen"}},{"name":"Kirchwiesen","postalCode":"98631","locality":"Grabfeld","municipality":{"key":"16066094","name":"Grabfeld","type":"Kreisangehörige_Gemeinde"},"district":{"key":"16066","name":"Schmalkalden-Meiningen","type":"Landkreis"},"federalState":{"key":"16","name":"Thüringen"}},{"name":"Kleinbardorfer Str.","postalCode":"97631","locality":"Bad Königshofen im Grabfeld","municipality":{"key":"09673141","name":"Bad Königshofen i.Grabfeld, St","type":"Stadt"},"district":{"key":"09673","name":"Rhön-Grabfeld","type":"Landkreis"},"federalState":{"key":"09","name":"Bayern"}},{"name":"Kleine Keh","postalCode":"98631","locality":"Grabfeld","municipality":{"key":"16066094","name":"Grabfeld","type":"Kreisangehörige_Gemeinde"},"district":{"key":"16066","name":"Schmalkalden-Meiningen","type":"Landkreis"},"federalState":{"key":"16","name":"Thüringen"}},{"name":"Kleines Dorf","postalCode":"97631","locality":"Bad Königshofen im Grabfeld","municipality":{"key":"09673141","name":"Bad Königshofen i.Grabfeld, St","type":"Stadt"},"district":{"key":"09673","name":"Rhön-Grabfeld","type":"Landkreis"},"federalState":{"key":"09","name":"Bayern"}},{"name":"Klostergarten","postalCode":"97631","locality":"Bad Königshofen im Grabfeld","municipality":{"key":"09673141","name":"Bad Königshofen i.Grabfeld, St","type":"Stadt"},"district":{"key":"09673","name":"Rhön-Grabfeld","type":"Landkreis"},"federalState":{"key":"09","name":"Bayern"}},{"name":"Klostergasse","postalCode":"97631","locality":"Bad Königshofen im Grabfeld","municipality":{"key":"09673141","name":"Bad Königshofen i.Grabfeld, St","type":"Stadt"},"district":{"key":"09673","name":"Rhön-Grabfeld","type":"Landkreis"},"federalState":{"key":"09","name":"Bayern"}},{"name":"Klosterstr.","postalCode":"97631","locality":"Bad Königshofen im Grabfeld","municipality":{"key":"09673141","name":"Bad Königshofen i.Grabfeld, St","type":"Stadt"},"district":{"key":"09673","name":"Rhön-Grabfeld","type":"Landkreis"},"federalState":{"key":"09","name":"Bayern"}},{"name":"Kolonnenweg","postalCode":"98631","locality":"Grabfeld","municipality":{"key":"16066094","name":"Grabfeld","type":"Kreisangehörige_Gemeinde"},"district":{"key":"16066","name":"Schmalkalden-Meiningen","type":"Landkreis"},"federalState":{"key":"16","name":"Thüringen"}},{"name":"Kolpingstr.","postalCode":"97631","locality":"Bad Königshofen im Grabfeld","municipality":{"key":"09673141","name":"Bad Königshofen i.Grabfeld, St","type":"Stadt"},"district":{"key":"09673","name":"Rhön-Grabfeld","type":"Landkreis"},"federalState":{"key":"09","name":"Bayern"}},{"name":"Kriegergasse","postalCode":"97631","locality":"Bad Königshofen im Grabfeld","municipality":{"key":"09673141","name":"Bad Königshofen i.Grabfeld, St","type":"Stadt"},"district":{"key":"09673","name":"Rhön-Grabfeld","type":"Landkreis"},"federalState":{"key":"09","name":"Bayern"}},{"name":"Kronenkellerweg","postalCode":"97631","locality":"Bad Königshofen im Grabfeld","municipality":{"key":"09673141","name":"Bad Königshofen i.Grabfeld, St","type":"Stadt"},"district":{"key":"09673","name":"Rhön-Grabfeld","type":"Landkreis"},"federalState":{"key":"09","name":"Bayern"}},{"name":"Kurze Bünd","postalCode":"97631","locality":"Bad Königshofen im Grabfeld","municipality":{"key":"09673141","name":"Bad Königshofen i.Grabfeld, St","type":"Stadt"},"district":{"key":"09673","name":"Rhön-Grabfeld","type":"Landkreis"},"federalState":{"key":"09","name":"Bayern"}},{"name":"Ladestr.","postalCode":"98631","locality":"Grabfeld","municipality":{"key":"16066094","name":"Grabfeld","type":"Kreisangehörige_Gemeinde"},"district":{"key":"16066","name":"Schmalkalden-Meiningen","type":"Landkreis"},"federalState":{"key":"16","name":"Thüringen"}},{"name":"Lahnbergblick","postalCode":"97631","locality":"Bad Königshofen im Grabfeld","municipality":{"key":"09673141","name":"Bad Königshofen i.Grabfeld, St","type":"Stadt"},"district":{"key":"09673","name":"Rhön-Grabfeld","type":"Landkreis"},"federalState":{"key":"09","name":"Bayern"}},{"name":"Lämmergarten","postalCode":"97631","locality":"Bad Königshofen im Grabfeld","municipality":{"key":"09673141","name":"Bad Königshofen i.Grabfeld, St","type":"Stadt"},"district":{"key":"09673","name":"Rhön-Grabfeld","type":"Landkreis"},"federalState":{"key":"09","name":"Bayern"}},{"name":"Landgrafengasse","postalCode":"98631","locality":"Grabfeld","municipality":{"key":"16066094","name":"Grabfeld","type":"Kreisangehörige_Gemeinde"},"district":{"key":"16066","name":"Schmalkalden-Meiningen","type":"Landkreis"},"federalState":{"key":"16","name":"Thüringen"}},{"name":"Lange Bünd","postalCode":"97631","locality":"Bad Königshofen im Grabfeld","municipality":{"key":"09673141","name":"Bad Königshofen i.Grabfeld, St","type":"Stadt"},"district":{"key":"09673","name":"Rhön-Grabfeld","type":"Landkreis"},"federalState":{"key":"09","name":"Bayern"}},{"name":"Laukentor","postalCode":"98631","locality":"Grabfeld","municipality":{"key":"16066094","name":"Grabfeld","type":"Kreisangehörige_Gemeinde"},"district":{"key":"16066","name":"Schmalkalden-Meiningen","type":"Landkreis"},"federalState":{"key":"16","name":"Thüringen"}},{"name":"Leckersgasse","postalCode":"98631","locality":"Grabfeld","municipality":{"key":"16066094","name":"Grabfeld","type":"Kreisangehörige_Gemeinde"},"district":{"key":"16066","name":"Schmalkalden-Meiningen","type":"Landkreis"},"federalState":{"key":"16","name":"Thüringen"}},{"name":"Lehmgrubengasse","postalCode":"98631","locality":"Grabfeld","municipality":{"key":"16066094","name":"Grabfeld","type":"Kreisangehörige_Gemeinde"},"district":{"key":"16066","name":"Schmalkalden-Meiningen","type":"Landkreis"},"federalState":{"key":"16","name":"Thüringen"}},{"name":"Lessingstr.","postalCode":"98631","locality":"Grabfeld","municipality":{"key":"16066094","name":"Grabfeld","type":"Kreisangehörige_Gemeinde"},"district":{"key":"16066","name":"Schmalkalden-Meiningen","type":"Landkreis"},"federalState":{"key":"16","name":"Thüringen"}},{"name":"Linde","postalCode":"97631","locality":"Bad Königshofen im Grabfeld","municipality":{"key":"09673141","name":"Bad Königshofen i.Grabfeld, St","type":"Stadt"},"district":{"key":"09673","name":"Rhön-Grabfeld","type":"Landkreis"},"federalState":{"key":"09","name":"Bayern"}},{"name":"Linsengasse","postalCode":"97631","locality":"Bad Königshofen im Grabfeld","municipality":{"key":"09673141","name":"Bad Königshofen i.Grabfeld, St","type":"Stadt"},"district":{"key":"09673","name":"Rhön-Grabfeld","type":"Landkreis"},"federalState":{"key":"09","name":"Bayern"}},{"name":"Löleinweg","postalCode":"98631","locality":"Grabfeld","municipality":{"key":"16066094","name":"Grabfeld","type":"Kreisangehörige_Gemeinde"},"district":{"key":"16066","name":"Schmalkalden-Meiningen","type":"Landkreis"},"federalState":{"key":"16","name":"Thüringen"}},{"name":"Lorenzengasse","postalCode":"98631","locality":"Grabfeld","municipality":{"key":"16066094","name":"Grabfeld","type":"Kreisangehörige_Gemeinde"},"district":{"key":"16066","name":"Schmalkalden-Meiningen","type":"Landkreis"},"federalState":{"key":"16","name":"Thüringen"}},{"name":"Lustmühle","postalCode":"97631","locality":"Bad Königshofen im Grabfeld","municipality":{"key":"09673141","name":"Bad Königshofen i.Grabfeld, St","type":"Stadt"},"district":{"key":"09673","name":"Rhön-Grabfeld","type":"Landkreis"},"federalState":{"key":"09","name":"Bayern"}},{"name":"Maria-Weigand-Platz","postalCode":"97631","locality":"Bad Königshofen im Grabfeld","municipality":{"key":"09673141","name":"Bad Königshofen i.Grabfeld, St","type":"Stadt"},"district":{"key":"09673","name":"Rhön-Grabfeld","type":"Landkreis"},"federalState":{"key":"09","name":"Bayern"}},{"name":"Marienstr.","postalCode":"98631","locality":"Grabfeld","municipality":{"key":"16066094","name":"Grabfeld","type":"Kreisangehörige_Gemeinde"},"district":{"key":"16066","name":"Schmalkalden-Meiningen","type":"Landkreis"},"federalState":{"key":"16","name":"Thüringen"}},{"name":"Markt","postalCode":"98631","locality":"Grabfeld","municipality":{"key":"16066094","name":"Grabfeld","type":"Kreisangehörige_Gemeinde"},"district":{"key":"16066","name":"Schmalkalden-Meiningen","type":"Landkreis"},"federalState":{"key":"16","name":"Thüringen"}},{"name":"Marktplatz","postalCode":"97631","locality":"Bad Königshofen im Grabfeld","municipality":{"key":"09673141","name":"Bad Königshofen i.Grabfeld, St","type":"Stadt"},"district":{"key":"09673","name":"Rhön-Grabfeld","type":"Landkreis"},"federalState":{"key":"09","name":"Bayern"}},{"name":"Martin-Luther-Str.","postalCode":"97631","locality":"Bad Königshofen im Grabfeld","municipality":{"key":"09673141","name":"Bad Königshofen i.Grabfeld, St","type":"Stadt"},"district":{"key":"09673","name":"Rhön-Grabfeld","type":"Landkreis"},"federalState":{"key":"09","name":"Bayern"}},{"name":"Martin-Reinhard-Str.","postalCode":"97631","locality":"Bad Königshofen im Grabfeld","municipality":{"key":"09673141","name":"Bad Königshofen i.Grabfeld, St","type":"Stadt"},"district":{"key":"09673","name":"Rhön-Grabfeld","type":"Landkreis"},"federalState":{"key":"09","name":"Bayern"}},{"name":"Maßbergstr.","postalCode":"97631","locality":"Bad Königshofen im Grabfeld","municipality":{"key":"09673141","name":"Bad Königshofen i.Grabfeld, St","type":"Stadt"},"district":{"key":"09673","name":"Rhön-Grabfeld","type":"Landkreis"},"federalState":{"key":"09","name":"Bayern"}},{"name":"Max-Josef-Str.","postalCode":"97631","locality":"Bad Königshofen im Grabfeld","municipality":{"key":"09673141","name":"Bad Königshofen i.Grabfeld, St","type":"Stadt"},"district":{"key":"09673","name":"Rhön-Grabfeld","type":"Landkreis"},"federalState":{"key":"09","name":"Bayern"}},{"name":"Meininger Str.","postalCode":"98631","locality":"Grabfeld","municipality":{"key":"16066094","name":"Grabfeld","type":"Kreisangehörige_Gemeinde"},"district":{"key":"16066","name":"Schmalkalden-Meiningen","type":"Landkreis"},"federalState":{"key":"16","name":"Thüringen"}},{"name":"Mendhäuser Str.","postalCode":"98631","locality":"Grabfeld","municipality":{"key":"16066094","name":"Grabfeld","type":"Kreisangehörige_Gemeinde"},"district":{"key":"16066","name":"Schmalkalden-Meiningen","type":"Landkreis"},"federalState":{"key":"16","name":"Thüringen"}},{"name":"Merklach","postalCode":"97631","locality":"Bad Königshofen im Grabfeld","municipality":{"key":"09673141","name":"Bad Königshofen i.Grabfeld, St","type":"Stadt"},"district":{"key":"09673","name":"Rhön-Grabfeld","type":"Landkreis"},"federalState":{"key":"09","name":"Bayern"}},{"name":"Mittelberg","postalCode":"97631","locality":"Bad Königshofen im Grabfeld","municipality":{"key":"09673141","name":"Bad Königshofen i.Grabfeld, St","type":"Stadt"},"district":{"key":"09673","name":"Rhön-Grabfeld","type":"Landkreis"},"federalState":{"key":"09","name":"Bayern"}},{"name":"Mittelbrühlweg","postalCode":"98631","locality":"Grabfeld","municipality":{"key":"16066094","name":"Grabfeld","type":"Kreisangehörige_Gemeinde"},"district":{"key":"16066","name":"Schmalkalden-Meiningen","type":"Landkreis"},"federalState":{"key":"16","name":"Thüringen"}},{"name":"Mittelmühle","postalCode":"98631","locality":"Grabfeld","municipality":{"key":"16066094","name":"Grabfeld","type":"Kreisangehörige_Gemeinde"},"district":{"key":"16066","name":"Schmalkalden-Meiningen","type":"Landkreis"},"federalState":{"key":"16","name":"Thüringen"}},{"name":"Mittlere Gasse","postalCode":"97631","locality":"Bad Königshofen im Grabfeld","municipality":{"key":"09673141","name":"Bad Königshofen i.Grabfeld, St","type":"Stadt"},"district":{"key":"09673","name":"Rhön-Grabfeld","type":"Landkreis"},"federalState":{"key":"09","name":"Bayern"}},{"name":"Mönchstr.","postalCode":"98631","locality":"Grabfeld","municipality":{"key":"16066094","name":"Grabfeld","type":"Kreisangehörige_Gemeinde"},"district":{"key":"16066","name":"Schmalkalden-Meiningen","type":"Landkreis"},"federalState":{"key":"16","name":"Thüringen"}},{"name":"Mühlfelder Str.","postalCode":"98631","locality":"Grabfeld","municipality":{"key":"16066094","name":"Grabfeld","type":"Kreisangehörige_Gemeinde"},"district":{"key":"16066","name":"Schmalkalden-Meiningen","type":"Landkreis"},"federalState":{"key":"16","name":"Thüringen"}},{"name":"Mühlgraben","postalCode":"97631","locality":"Bad Königshofen im Grabfeld","municipality":{"key":"09673141","name":"Bad Königshofen i.Grabfeld, St","type":"Stadt"},"district":{"key":"09673","name":"Rhön-Grabfeld","type":"Landkreis"},"federalState":{"key":"09","name":"Bayern"}},{"name":"Mühlhügelgasse","postalCode":"97631","locality":"Bad Königshofen im Grabfeld","municipality":{"key":"09673141","name":"Bad Königshofen i.Grabfeld, St","type":"Stadt"},"district":{"key":"09673","name":"Rhön-Grabfeld","type":"Landkreis"},"federalState":{"key":"09","name":"Bayern"}},{"name":"Mühlrangen","postalCode":"97631","locality":"Bad Königshofen im Grabfeld","municipality":{"key":"09673141","name":"Bad Königshofen i.Grabfeld, St","type":"Stadt"},"district":{"key":"09673","name":"Rhön-Grabfeld","type":"Landkreis"},"federalState":{"key":"09","name":"Bayern"}},{"name":"Neubrunner Str.","postalCode":"98631","locality":"Grabfeld","municipality":{"key":"16066094","name":"Grabfeld","type":"Kreisangehörige_Gemeinde"},"district":{"key":"16066","name":"Schmalkalden-Meiningen","type":"Landkreis"},"federalState":{"key":"16","name":"Thüringen"}},{"name":"Neue Str.","postalCode":"98631","locality":"Grabfeld","municipality":{"key":"16066094","name":"Grabfeld","type":"Kreisangehörige_Gemeinde"},"district":{"key":"16066","name":"Schmalkalden-Meiningen","type":"Landkreis"},"federalState":{"key":"16","name":"Thüringen"}},{"name":"Nordheimer Str.","postalCode":"98631","locality":"Grabfeld","municipality":{"key":"16066094","name":"Grabfeld","type":"Kreisangehörige_Gemeinde"},"district":{"key":"16066","name":"Schmalkalden-Meiningen","type":"Landkreis"},"federalState":{"key":"16","name":"Thüringen"}},{"name":"Obendorfer Str.","postalCode":"98631","locality":"Grabfeld","municipality":{"key":"16066094","name":"Grabfeld","type":"Kreisangehörige_Gemeinde"},"district":{"key":"16066","name":"Schmalkalden-Meiningen","type":"Landkreis"},"federalState":{"key":"16","name":"Thüringen"}},{"name":"Oberdorf","postalCode":"97631","locality":"Bad Königshofen im Grabfeld","municipality":{"key":"09673141","name":"Bad Königshofen i.Grabfeld, St","type":"Stadt"},"district":{"key":"09673","name":"Rhön-Grabfeld","type":"Landkreis"},"federalState":{"key":"09","name":"Bayern"}},{"name":"Obere Alm","postalCode":"98631","locality":"Grabfeld","municipality":{"key":"16066094","name":"Grabfeld","type":"Kreisangehörige_Gemeinde"},"district":{"key":"16066","name":"Schmalkalden-Meiningen","type":"Landkreis"},"federalState":{"key":"16","name":"Thüringen"}},{"name":"Obere Dorfstr.","postalCode":"98631","locality":"Grabfeld","municipality":{"key":"16066094","name":"Grabfeld","type":"Kreisangehörige_Gemeinde"},"district":{"key":"16066","name":"Schmalkalden-Meiningen","type":"Landkreis"},"federalState":{"key":"16","name":"Thüringen"}},{"name":"Obere Gasse","postalCode":"97631","locality":"Bad Königshofen im Grabfeld","municipality":{"key":"09673141","name":"Bad Königshofen i.Grabfeld, St","type":"Stadt"},"district":{"key":"09673","name":"Rhön-Grabfeld","type":"Landkreis"},"federalState":{"key":"09","name":"Bayern"}},{"name":"Oberer Rosengarten","postalCode":"97631","locality":"Bad Königshofen im Grabfeld","municipality":{"key":"09673141","name":"Bad Königshofen i.Grabfeld, St","type":"Stadt"},"district":{"key":"09673","name":"Rhön-Grabfeld","type":"Landkreis"},"federalState":{"key":"09","name":"Bayern"}},{"name":"Oberer Schmalgarten","postalCode":"97631","locality":"Bad Königshofen im Grabfeld","municipality":{"key":"09673141","name":"Bad Königshofen i.Grabfeld, St","type":"Stadt"},"district":{"key":"09673","name":"Rhön-Grabfeld","type":"Landkreis"},"federalState":{"key":"09","name":"Bayern"}},{"name":"Oberer Weihersrain","postalCode":"98631","locality":"Grabfeld","municipality":{"key":"16066094","name":"Grabfeld","type":"Kreisangehörige_Gemeinde"},"district":{"key":"16066","name":"Schmalkalden-Meiningen","type":"Landkreis"},"federalState":{"key":"16","name":"Thüringen"}},{"name":"Oberes Berglein","postalCode":"98631","locality":"Grabfeld","municipality":{"key":"16066094","name":"Grabfeld","type":"Kreisangehörige_Gemeinde"},"district":{"key":"16066","name":"Schmalkalden-Meiningen","type":"Landkreis"},"federalState":{"key":"16","name":"Thüringen"}},{"name":"Oskar-Meyer-Platz","postalCode":"98631","locality":"Grabfeld","municipality":{"key":"16066094","name":"Grabfeld","type":"Kreisangehörige_Gemeinde"},"district":{"key":"16066","name":"Schmalkalden-Meiningen","type":"Landkreis"},"federalState":{"key":"16","name":"Thüringen"}},{"name":"Ottelmannshäuser Str.","postalCode":"97631","locality":"Bad Königshofen im Grabfeld","municipality":{"key":"09673141","name":"Bad Königshofen i.Grabfeld, St","type":"Stadt"},"district":{"key":"09673","name":"Rhön-Grabfeld","type":"Landkreis"},"federalState":{"key":"09","name":"Bayern"}},{"name":"Pfarrgasse","postalCode":"98631","locality":"Grabfeld","municipality":{"key":"16066094","name":"Grabfeld","type":"Kreisangehörige_Gemeinde"},"district":{"key":"16066","name":"Schmalkalden-Meiningen","type":"Landkreis"},"federalState":{"key":"16","name":"Thüringen"}},{"name":"Pförtweg","postalCode":"98631","locality":"Grabfeld","municipality":{"key":"16066094","name":"Grabfeld","type":"Kreisangehörige_Gemeinde"},"district":{"key":"16066","name":"Schmalkalden-Meiningen","type":"Landkreis"},"federalState":{"key":"16","name":"Thüringen"}},{"name":"Posthalterstr.","postalCode":"97631","locality":"Bad Königshofen im Grabfeld","municipality":{"key":"09673141","name":"Bad Königshofen i.Grabfeld, St","type":"Stadt"},"district":{"key":"09673","name":"Rhön-Grabfeld","type":"Landkreis"},"federalState":{"key":"09","name":"Bayern"}},{"name":"Poststr.","postalCode":"98631","locality":"Grabfeld","municipality":{"key":"16066094","name":"Grabfeld","type":"Kreisangehörige_Gemeinde"},"district":{"key":"16066","name":"Schmalkalden-Meiningen","type":"Landkreis"},"federalState":{"key":"16","name":"Thüringen"}},{"name":"Queckgasse","postalCode":"98631","locality":"Grabfeld","municipality":{"key":"16066094","name":"Grabfeld","type":"Kreisangehörige_Gemeinde"},"district":{"key":"16066","name":"Schmalkalden-Meiningen","type":"Landkreis"},"federalState":{"key":"16","name":"Thüringen"}},{"name":"Queienfelder Str.","postalCode":"98631","locality":"Grabfeld","municipality":{"key":"16066094","name":"Grabfeld","type":"Kreisangehörige_Gemeinde"},"district":{"key":"16066","name":"Schmalkalden-Meiningen","type":"Landkreis"},"federalState":{"key":"16","name":"Thüringen"}},{"name":"Raiffeisenstr.","postalCode":"97631","locality":"Bad Königshofen im Grabfeld","municipality":{"key":"09673141","name":"Bad Königshofen i.Grabfeld, St","type":"Stadt"},"district":{"key":"09673","name":"Rhön-Grabfeld","type":"Landkreis"},"federalState":{"key":"09","name":"Bayern"}},{"name":"Rappershäuser Str.","postalCode":"98631","locality":"Grabfeld","municipality":{"key":"16066094","name":"Grabfeld","type":"Kreisangehörige_Gemeinde"},"district":{"key":"16066","name":"Schmalkalden-Meiningen","type":"Landkreis"},"federalState":{"key":"16","name":"Thüringen"}},{"name":"Rathausstr.","postalCode":"97631","locality":"Bad Königshofen im Grabfeld","municipality":{"key":"09673141","name":"Bad Königshofen i.Grabfeld, St","type":"Stadt"},"district":{"key":"09673","name":"Rhön-Grabfeld","type":"Landkreis"},"federalState":{"key":"09","name":"Bayern"}},{"name":"Rathausstr.","postalCode":"98631","locality":"Grabfeld","municipality":{"key":"16066094","name":"Grabfeld","type":"Kreisangehörige_Gemeinde"},"district":{"key":"16066","name":"Schmalkalden-Meiningen","type":"Landkreis"},"federalState":{"key":"16","name":"Thüringen"}},{"name":"Rauschengasse","postalCode":"98631","locality":"Grabfeld","municipality":{"key":"16066094","name":"Grabfeld","type":"Kreisangehörige_Gemeinde"},"district":{"key":"16066","name":"Schmalkalden-Meiningen","type":"Landkreis"},"federalState":{"key":"16","name":"Thüringen"}},{"name":"Rentamtstr.","postalCode":"97631","locality":"Bad Königshofen im Grabfeld","municipality":{"key":"09673141","name":"Bad Königshofen i.Grabfeld, St","type":"Stadt"},"district":{"key":"09673","name":"Rhön-Grabfeld","type":"Landkreis"},"federalState":{"key":"09","name":"Bayern"}},{"name":"Rentwertshäuser Str.","postalCode":"98631","locality":"Grabfeld","municipality":{"key":"16066094","name":"Grabfeld","type":"Kreisangehörige_Gemeinde"},"district":{"key":"16066","name":"Schmalkalden-Meiningen","type":"Landkreis"},"federalState":{"key":"16","name":"Thüringen"}},{"name":"Ringgasse","postalCode":"97631","locality":"Bad Königshofen im Grabfeld","municipality":{"key":"09673141","name":"Bad Königshofen i.Grabfeld, St","type":"Stadt"},"district":{"key":"09673","name":"Rhön-Grabfeld","type":"Landkreis"},"federalState":{"key":"09","name":"Bayern"}},{"name":"Ritschenhäuser Str.","postalCode":"98631","locality":"Grabfeld","municipality":{"key":"16066094","name":"Grabfeld","type":"Kreisangehörige_Gemeinde"},"district":{"key":"16066","name":"Schmalkalden-Meiningen","type":"Landkreis"},"federalState":{"key":"16","name":"Thüringen"}},{"name":"Robert-Koch-Str.","postalCode":"98631","locality":"Grabfeld","municipality":{"key":"16066094","name":"Grabfeld","type":"Kreisangehörige_Gemeinde"},"district":{"key":"16066","name":"Schmalkalden-Meiningen","type":"Landkreis"},"federalState":{"key":"16","name":"Thüringen"}},{"name":"Römhilder Str.","postalCode":"98631","locality":"Grabfeld","municipality":{"key":"16066094","name":"Grabfeld","type":"Kreisangehörige_Gemeinde"},"district":{"key":"16066","name":"Schmalkalden-Meiningen","type":"Landkreis"},"federalState":{"key":"16","name":"Thüringen"}},{"name":"Roßbachstr.","postalCode":"98631","locality":"Grabfeld","municipality":{"key":"16066094","name":"Grabfeld","type":"Kreisangehörige_Gemeinde"},"district":{"key":"16066","name":"Schmalkalden-Meiningen","type":"Landkreis"},"federalState":{"key":"16","name":"Thüringen"}},{"name":"Ruckgasse","postalCode":"98631","locality":"Grabfeld","municipality":{"key":"16066094","name":"Grabfeld","type":"Kreisangehörige_Gemeinde"},"district":{"key":"16066","name":"Schmalkalden-Meiningen","type":"Landkreis"},"federalState":{"key":"16","name":"Thüringen"}},{"name":"Rusthügel","postalCode":"98631","locality":"Grabfeld","municipality":{"key":"16066094","name":"Grabfeld","type":"Kreisangehörige_Gemeinde"},"district":{"key":"16066","name":"Schmalkalden-Meiningen","type":"Landkreis"},"federalState":{"key":"16","name":"Thüringen"}},{"name":"Saaleweg","postalCode":"97631","locality":"Bad Königshofen im Grabfeld","municipality":{"key":"09673141","name":"Bad Königshofen i.Grabfeld, St","type":"Stadt"},"district":{"key":"09673","name":"Rhön-Grabfeld","type":"Landkreis"},"federalState":{"key":"09","name":"Bayern"}},{"name":"Sambachspfad","postalCode":"97631","locality":"Bad Königshofen im Grabfeld","municipality":{"key":"09673141","name":"Bad Königshofen i.Grabfeld, St","type":"Stadt"},"district":{"key":"09673","name":"Rhön-Grabfeld","type":"Landkreis"},"federalState":{"key":"09","name":"Bayern"}},{"name":"Sambachstr.","postalCode":"97631","locality":"Bad Königshofen im Grabfeld","municipality":{"key":"09673141","name":"Bad Königshofen i.Grabfeld, St","type":"Stadt"},"district":{"key":"09673","name":"Rhön-Grabfeld","type":"Landkreis"},"federalState":{"key":"09","name":"Bayern"}},{"name":"Sankt-Leo-Str.","postalCode":"98631","locality":"Grabfeld","municipality":{"key":"16066094","name":"Grabfeld","type":"Kreisangehörige_Gemeinde"},"district":{"key":"16066","name":"Schmalkalden-Meiningen","type":"Landkreis"},"federalState":{"key":"16","name":"Thüringen"}},{"name":"Schafgasse","postalCode":"98631","locality":"Grabfeld","municipality":{"key":"16066094","name":"Grabfeld","type":"Kreisangehörige_Gemeinde"},"district":{"key":"16066","name":"Schmalkalden-Meiningen","type":"Landkreis"},"federalState":{"key":"16","name":"Thüringen"}},{"name":"Schaufelhammer","postalCode":"98631","locality":"Grabfeld","municipality":{"key":"16066094","name":"Grabfeld","type":"Kreisangehörige_Gemeinde"},"district":{"key":"16066","name":"Schmalkalden-Meiningen","type":"Landkreis"},"federalState":{"key":"16","name":"Thüringen"}},{"name":"Scherenbergweg","postalCode":"97631","locality":"Bad Königshofen im Grabfeld","municipality":{"key":"09673141","name":"Bad Königshofen i.Grabfeld, St","type":"Stadt"},"district":{"key":"09673","name":"Rhön-Grabfeld","type":"Landkreis"},"federalState":{"key":"09","name":"Bayern"}},{"name":"Schießgraben","postalCode":"98631","locality":"Grabfeld","municipality":{"key":"16066094","name":"Grabfeld","type":"Kreisangehörige_Gemeinde"},"district":{"key":"16066","name":"Schmalkalden-Meiningen","type":"Landkreis"},"federalState":{"key":"16","name":"Thüringen"}},{"name":"Schillerstr.","postalCode":"98631","locality":"Grabfeld","municipality":{"key":"16066094","name":"Grabfeld","type":"Kreisangehörige_Gemeinde"},"district":{"key":"16066","name":"Schmalkalden-Meiningen","type":"Landkreis"},"federalState":{"key":"16","name":"Thüringen"}},{"name":"Schillerweg","postalCode":"98631","locality":"Grabfeld","municipality":{"key":"16066094","name":"Grabfeld","type":"Kreisangehörige_Gemeinde"},"district":{"key":"16066","name":"Schmalkalden-Meiningen","type":"Landkreis"},"federalState":{"key":"16","name":"Thüringen"}},{"name":"Schlesierstr.","postalCode":"97631","locality":"Bad Königshofen im Grabfeld","municipality":{"key":"09673141","name":"Bad Königshofen i.Grabfeld, St","type":"Stadt"},"district":{"key":"09673","name":"Rhön-Grabfeld","type":"Landkreis"},"federalState":{"key":"09","name":"Bayern"}},{"name":"Schloßgarten","postalCode":"98631","locality":"Grabfeld","municipality":{"key":"16066094","name":"Grabfeld","type":"Kreisangehörige_Gemeinde"},"district":{"key":"16066","name":"Schmalkalden-Meiningen","type":"Landkreis"},"federalState":{"key":"16","name":"Thüringen"}},{"name":"Schloßgartenweg","postalCode":"98631","locality":"Grabfeld","municipality":{"key":"16066094","name":"Grabfeld","type":"Kreisangehörige_Gemeinde"},"district":{"key":"16066","name":"Schmalkalden-Meiningen","type":"Landkreis"},"federalState":{"key":"16","name":"Thüringen"}},{"name":"Schloßgasse","postalCode":"98631","locality":"Grabfeld","municipality":{"key":"16066094","name":"Grabfeld","type":"Kreisangehörige_Gemeinde"},"district":{"key":"16066","name":"Schmalkalden-Meiningen","type":"Landkreis"},"federalState":{"key":"16","name":"Thüringen"}},{"name":"Schloßweg","postalCode":"98631","locality":"Grabfeld","municipality":{"key":"16066094","name":"Grabfeld","type":"Kreisangehörige_Gemeinde"},"district":{"key":"16066","name":"Schmalkalden-Meiningen","type":"Landkreis"},"federalState":{"key":"16","name":"Thüringen"}},{"name":"Schlundstr.","postalCode":"97631","locality":"Bad Königshofen im Grabfeld","municipality":{"key":"09673141","name":"Bad Königshofen i.Grabfeld, St","type":"Stadt"},"district":{"key":"09673","name":"Rhön-Grabfeld","type":"Landkreis"},"federalState":{"key":"09","name":"Bayern"}},{"name":"Schmiedegasse","postalCode":"98631","locality":"Grabfeld","municipality":{"key":"16066094","name":"Grabfeld","type":"Kreisangehörige_Gemeinde"},"district":{"key":"16066","name":"Schmalkalden-Meiningen","type":"Landkreis"},"federalState":{"key":"16","name":"Thüringen"}},{"name":"Schmiedsgasse","postalCode":"97631","locality":"Bad Königshofen im Grabfeld","municipality":{"key":"09673141","name":"Bad Königshofen i.Grabfeld, St","type":"Stadt"},"district":{"key":"09673","name":"Rhön-Grabfeld","type":"Landkreis"},"federalState":{"key":"09","name":"Bayern"}},{"name":"Schmiedsgäßlein","postalCode":"97631","locality":"Bad Königshofen im Grabfeld","municipality":{"key":"09673141","name":"Bad Königshofen i.Grabfeld, St","type":"Stadt"},"district":{"key":"09673","name":"Rhön-Grabfeld","type":"Landkreis"},"federalState":{"key":"09","name":"Bayern"}},{"name":"Schnellerstr.","postalCode":"97631","locality":"Bad Königshofen im Grabfeld","municipality":{"key":"09673141","name":"Bad Königshofen i.Grabfeld, St","type":"Stadt"},"district":{"key":"09673","name":"Rhön-Grabfeld","type":"Landkreis"},"federalState":{"key":"09","name":"Bayern"}},{"name":"Schottstr.","postalCode":"97631","locality":"Bad Königshofen im Grabfeld","municipality":{"key":"09673141","name":"Bad Königshofen i.Grabfeld, St","type":"Stadt"},"district":{"key":"09673","name":"Rhön-Grabfeld","type":"Landkreis"},"federalState":{"key":"09","name":"Bayern"}},{"name":"Schulstr.","postalCode":"97631","locality":"Bad Königshofen im Grabfeld","municipality":{"key":"09673141","name":"Bad Königshofen i.Grabfeld, St","type":"Stadt"},"district":{"key":"09673","name":"Rhön-Grabfeld","type":"Landkreis"},"federalState":{"key":"09","name":"Bayern"}},{"name":"Schulstr.","postalCode":"98631","locality":"Grabfeld","municipality":{"key":"16066094","name":"Grabfeld","type":"Kreisangehörige_Gemeinde"},"district":{"key":"16066","name":"Schmalkalden-Meiningen","type":"Landkreis"},"federalState":{"key":"16","name":"Thüringen"}},{"name":"Schützenweg","postalCode":"97631","locality":"Bad Königshofen im Grabfeld","municipality":{"key":"09673141","name":"Bad Königshofen i.Grabfeld, St","type":"Stadt"},"district":{"key":"09673","name":"Rhön-Grabfeld","type":"Landkreis"},"federalState":{"key":"09","name":"Bayern"}},{"name":"Schweinfurter Str.","postalCode":"97631","locality":"Bad Königshofen im Grabfeld","municipality":{"key":"09673141","name":"Bad Königshofen i.Grabfeld, St","type":"Stadt"},"district":{"key":"09673","name":"Rhön-Grabfeld","type":"Landkreis"},"federalState":{"key":"09","name":"Bayern"}},{"name":"Schwickershäuser Str.","postalCode":"98631","locality":"Grabfeld","municipality":{"key":"16066094","name":"Grabfeld","type":"Kreisangehörige_Gemeinde"},"district":{"key":"16066","name":"Schmalkalden-Meiningen","type":"Landkreis"},"federalState":{"key":"16","name":"Thüringen"}},{"name":"Seegasse","postalCode":"98631","locality":"Grabfeld","municipality":{"key":"16066094","name":"Grabfeld","type":"Kreisangehörige_Gemeinde"},"district":{"key":"16066","name":"Schmalkalden-Meiningen","type":"Landkreis"},"federalState":{"key":"16","name":"Thüringen"}},{"name":"Seeleinstr.","postalCode":"97631","locality":"Bad Königshofen im Grabfeld","municipality":{"key":"09673141","name":"Bad Königshofen i.Grabfeld, St","type":"Stadt"},"district":{"key":"09673","name":"Rhön-Grabfeld","type":"Landkreis"},"federalState":{"key":"09","name":"Bayern"}},{"name":"Seeweg","postalCode":"97631","locality":"Bad Königshofen im Grabfeld","municipality":{"key":"09673141","name":"Bad Königshofen i.Grabfeld, St","type":"Stadt"},"district":{"key":"09673","name":"Rhön-Grabfeld","type":"Landkreis"},"federalState":{"key":"09","name":"Bayern"}},{"name":"Semmern","postalCode":"97631","locality":"Bad Königshofen im Grabfeld","municipality":{"key":"09673141","name":"Bad Königshofen i.Grabfeld, St","type":"Stadt"},"district":{"key":"09673","name":"Rhön-Grabfeld","type":"Landkreis"},"federalState":{"key":"09","name":"Bayern"}},{"name":"Senefelderstr.","postalCode":"97631","locality":"Bad Königshofen im Grabfeld","municipality":{"key":"09673141","name":"Bad Königshofen i.Grabfeld, St","type":"Stadt"},"district":{"key":"09673","name":"Rhön-Grabfeld","type":"Landkreis"},"federalState":{"key":"09","name":"Bayern"}},{"name":"Siedlerstr.","postalCode":"98631","locality":"Grabfeld","municipality":{"key":"16066094","name":"Grabfeld","type":"Kreisangehörige_Gemeinde"},"district":{"key":"16066","name":"Schmalkalden-Meiningen","type":"Landkreis"},"federalState":{"key":"16","name":"Thüringen"}},{"name":"Siedlungsweg","postalCode":"97631","locality":"Bad Königshofen im Grabfeld","municipality":{"key":"09673141","name":"Bad Königshofen i.Grabfeld, St","type":"Stadt"},"district":{"key":"09673","name":"Rhön-Grabfeld","type":"Landkreis"},"federalState":{"key":"09","name":"Bayern"}},{"name":"Sondheimer Str.","postalCode":"98631","locality":"Grabfeld","municipality":{"key":"16066094","name":"Grabfeld","type":"Kreisangehörige_Gemeinde"},"district":{"key":"16066","name":"Schmalkalden-Meiningen","type":"Landkreis"},"federalState":{"key":"16","name":"Thüringen"}},{"name":"Sonnenleite","postalCode":"97631","locality":"Bad Königshofen im Grabfeld","municipality":{"key":"09673141","name":"Bad Königshofen i.Grabfeld, St","type":"Stadt"},"district":{"key":"09673","name":"Rhön-Grabfeld","type":"Landkreis"},"federalState":{"key":"09","name":"Bayern"}},{"name":"Sorge","postalCode":"98631","locality":"Grabfeld","municipality":{"key":"16066094","name":"Grabfeld","type":"Kreisangehörige_Gemeinde"},"district":{"key":"16066","name":"Schmalkalden-Meiningen","type":"Landkreis"},"federalState":{"key":"16","name":"Thüringen"}},{"name":"Spangraben","postalCode":"97631","locality":"Bad Königshofen im Grabfeld","municipality":{"key":"09673141","name":"Bad Königshofen i.Grabfeld, St","type":"Stadt"},"district":{"key":"09673","name":"Rhön-Grabfeld","type":"Landkreis"},"federalState":{"key":"09","name":"Bayern"}},{"name":"Sparkassenstr.","postalCode":"97631","locality":"Bad Königshofen im Grabfeld","municipality":{"key":"09673141","name":"Bad Königshofen i.Grabfeld, St","type":"Stadt"},"district":{"key":"09673","name":"Rhön-Grabfeld","type":"Landkreis"},"federalState":{"key":"09","name":"Bayern"}},{"name":"Spitalhofgasse","postalCode":"97631","locality":"Bad Königshofen im Grabfeld","municipality":{"key":"09673141","name":"Bad Königshofen i.Grabfeld, St","type":"Stadt"},"district":{"key":"09673","name":"Rhön-Grabfeld","type":"Landkreis"},"federalState":{"key":"09","name":"Bayern"}},{"name":"Spitalwaldstr.","postalCode":"97631","locality":"Bad Königshofen im Grabfeld","municipality":{"key":"09673141","name":"Bad Königshofen i.Grabfeld, St","type":"Stadt"},"district":{"key":"09673","name":"Rhön-Grabfeld","type":"Landkreis"},"federalState":{"key":"09","name":"Bayern"}},{"name":"St.-Bernhard-Str.","postalCode":"98631","locality":"Grabfeld","municipality":{"key":"16066094","name":"Grabfeld","type":"Kreisangehörige_Gemeinde"},"district":{"key":"16066","name":"Schmalkalden-Meiningen","type":"Landkreis"},"federalState":{"key":"16","name":"Thüringen"}},{"name":"Steinellerweg","postalCode":"98631","locality":"Grabfeld","municipality":{"key":"16066094","name":"Grabfeld","type":"Kreisangehörige_Gemeinde"},"district":{"key":"16066","name":"Schmalkalden-Meiningen","type":"Landkreis"},"federalState":{"key":"16","name":"Thüringen"}},{"name":"Steinigweg","postalCode":"97631","locality":"Bad Königshofen im Grabfeld","municipality":{"key":"09673141","name":"Bad Königshofen i.Grabfeld, St","type":"Stadt"},"district":{"key":"09673","name":"Rhön-Grabfeld","type":"Landkreis"},"federalState":{"key":"09","name":"Bayern"}},{"name":"Steinmühle","postalCode":"98631","locality":"Grabfeld","municipality":{"key":"16066094","name":"Grabfeld","type":"Kreisangehörige_Gemeinde"},"district":{"key":"16066","name":"Schmalkalden-Meiningen","type":"Landkreis"},"federalState":{"key":"16","name":"Thüringen"}},{"name":"Steinweg","postalCode":"98631","locality":"Grabfeld","municipality":{"key":"16066094","name":"Grabfeld","type":"Kreisangehörige_Gemeinde"},"district":{"key":"16066","name":"Schmalkalden-Meiningen","type":"Landkreis"},"federalState":{"key":"16","name":"Thüringen"}},{"name":"Steinwiese","postalCode":"98631","locality":"Grabfeld","municipality":{"key":"16066094","name":"Grabfeld","type":"Kreisangehörige_Gemeinde"},"district":{"key":"16066","name":"Schmalkalden-Meiningen","type":"Landkreis"},"federalState":{"key":"16","name":"Thüringen"}},{"name":"Stiegel","postalCode":"97631","locality":"Bad Königshofen im Grabfeld","municipality":{"key":"09673141","name":"Bad Königshofen i.Grabfeld, St","type":"Stadt"},"district":{"key":"09673","name":"Rhön-Grabfeld","type":"Landkreis"},"federalState":{"key":"09","name":"Bayern"}},{"name":"Stiegelweg","postalCode":"97631","locality":"Bad Königshofen im Grabfeld","municipality":{"key":"09673141","name":"Bad Königshofen i.Grabfeld, St","type":"Stadt"},"district":{"key":"09673","name":"Rhön-Grabfeld","type":"Landkreis"},"federalState":{"key":"09","name":"Bayern"}},{"name":"Stockenberg","postalCode":"98631","locality":"Grabfeld","municipality":{"key":"16066094","name":"Grabfeld","type":"Kreisangehörige_Gemeinde"},"district":{"key":"16066","name":"Schmalkalden-Meiningen","type":"Landkreis"},"federalState":{"key":"16","name":"Thüringen"}},{"name":"Str. des Friedens","postalCode":"98631","locality":"Grabfeld","municipality":{"key":"16066094","name":"Grabfeld","type":"Kreisangehörige_Gemeinde"},"district":{"key":"16066","name":"Schmalkalden-Meiningen","type":"Landkreis"},"federalState":{"key":"16","name":"Thüringen"}},{"name":"Tannenberg","postalCode":"98631","locality":"Grabfeld","municipality":{"key":"16066094","name":"Grabfeld","type":"Kreisangehörige_Gemeinde"},"district":{"key":"16066","name":"Schmalkalden-Meiningen","type":"Landkreis"},"federalState":{"key":"16","name":"Thüringen"}},{"name":"Telle","postalCode":"98631","locality":"Grabfeld","municipality":{"key":"16066094","name":"Grabfeld","type":"Kreisangehörige_Gemeinde"},"district":{"key":"16066","name":"Schmalkalden-Meiningen","type":"Landkreis"},"federalState":{"key":"16","name":"Thüringen"}},{"name":"Thüringer Str.","postalCode":"97631","locality":"Bad Königshofen im Grabfeld","municipality":{"key":"09673141","name":"Bad Königshofen i.Grabfeld, St","type":"Stadt"},"district":{"key":"09673","name":"Rhön-Grabfeld","type":"Landkreis"},"federalState":{"key":"09","name":"Bayern"}},{"name":"Torstr.","postalCode":"97631","locality":"Bad Königshofen im Grabfeld","municipality":{"key":"09673141","name":"Bad Königshofen i.Grabfeld, St","type":"Stadt"},"district":{"key":"09673","name":"Rhön-Grabfeld","type":"Landkreis"},"federalState":{"key":"09","name":"Bayern"}},{"name":"Trail \"Burgen- und Schlösserweg\"","postalCode":"97631","locality":"Bad Königshofen im Grabfeld","municipality":{"key":"09673141","name":"Bad Königshofen i.Grabfeld, St","type":"Stadt"},"district":{"key":"09673","name":"Rhön-Grabfeld","type":"Landkreis"},"federalState":{"key":"09","name":"Bayern"}},{"name":"Triebweg","postalCode":"98631","locality":"Grabfeld","municipality":{"key":"16066094","name":"Grabfeld","type":"Kreisangehörige_Gemeinde"},"district":{"key":"16066","name":"Schmalkalden-Meiningen","type":"Landkreis"},"federalState":{"key":"16","name":"Thüringen"}},{"name":"Trockengasse","postalCode":"98631","locality":"Grabfeld","municipality":{"key":"16066094","name":"Grabfeld","type":"Kreisangehörige_Gemeinde"},"district":{"key":"16066","name":"Schmalkalden-Meiningen","type":"Landkreis"},"federalState":{"key":"16","name":"Thüringen"}},{"name":"Tuchbleiche","postalCode":"97631","locality":"Bad Königshofen im Grabfeld","municipality":{"key":"09673141","name":"Bad Königshofen i.Grabfeld, St","type":"Stadt"},"district":{"key":"09673","name":"Rhön-Grabfeld","type":"Landkreis"},"federalState":{"key":"09","name":"Bayern"}},{"name":"Unterdorf","postalCode":"98631","locality":"Grabfeld","municipality":{"key":"16066094","name":"Grabfeld","type":"Kreisangehörige_Gemeinde"},"district":{"key":"16066","name":"Schmalkalden-Meiningen","type":"Landkreis"},"federalState":{"key":"16","name":"Thüringen"}},{"name":"Untere Alm","postalCode":"98631","locality":"Grabfeld","municipality":{"key":"16066094","name":"Grabfeld","type":"Kreisangehörige_Gemeinde"},"district":{"key":"16066","name":"Schmalkalden-Meiningen","type":"Landkreis"},"federalState":{"key":"16","name":"Thüringen"}},{"name":"Untere Dorfstr.","postalCode":"98631","locality":"Grabfeld","municipality":{"key":"16066094","name":"Grabfeld","type":"Kreisangehörige_Gemeinde"},"district":{"key":"16066","name":"Schmalkalden-Meiningen","type":"Landkreis"},"federalState":{"key":"16","name":"Thüringen"}},{"name":"Untere Mühle","postalCode":"98631","locality":"Grabfeld","municipality":{"key":"16066094","name":"Grabfeld","type":"Kreisangehörige_Gemeinde"},"district":{"key":"16066","name":"Schmalkalden-Meiningen","type":"Landkreis"},"federalState":{"key":"16","name":"Thüringen"}},{"name":"Unterer Rosengarten","postalCode":"97631","locality":"Bad Königshofen im Grabfeld","municipality":{"key":"09673141","name":"Bad Königshofen i.Grabfeld, St","type":"Stadt"},"district":{"key":"09673","name":"Rhön-Grabfeld","type":"Landkreis"},"federalState":{"key":"09","name":"Bayern"}},{"name":"Unterer Schmalgarten","postalCode":"97631","locality":"Bad Königshofen im Grabfeld","municipality":{"key":"09673141","name":"Bad Königshofen i.Grabfeld, St","type":"Stadt"},"district":{"key":"09673","name":"Rhön-Grabfeld","type":"Landkreis"},"federalState":{"key":"09","name":"Bayern"}},{"name":"Unterer Weihersrain","postalCode":"98631","locality":"Grabfeld","municipality":{"key":"16066094","name":"Grabfeld","type":"Kreisangehörige_Gemeinde"},"district":{"key":"16066","name":"Schmalkalden-Meiningen","type":"Landkreis"},"federalState":{"key":"16","name":"Thüringen"}},{"name":"Unterm Blankenrain","postalCode":"98631","locality":"Grabfeld","municipality":{"key":"16066094","name":"Grabfeld","type":"Kreisangehörige_Gemeinde"},"district":{"key":"16066","name":"Schmalkalden-Meiningen","type":"Landkreis"},"federalState":{"key":"16","name":"Thüringen"}},{"name":"Vachdorfer Str.","postalCode":"98631","locality":"Grabfeld","municipality":{"key":"16066094","name":"Grabfeld","type":"Kreisangehörige_Gemeinde"},"district":{"key":"16066","name":"Schmalkalden-Meiningen","type":"Landkreis"},"federalState":{"key":"16","name":"Thüringen"}},{"name":"Veitsmühle","postalCode":"97631","locality":"Bad Königshofen im Grabfeld","municipality":{"key":"09673141","name":"Bad Königshofen i.Grabfeld, St","type":"Stadt"},"district":{"key":"09673","name":"Rhön-Grabfeld","type":"Landkreis"},"federalState":{"key":"09","name":"Bayern"}},{"name":"Vogelgasse","postalCode":"97631","locality":"Bad Königshofen im Grabfeld","municipality":{"key":"09673141","name":"Bad Königshofen i.Grabfeld, St","type":"Stadt"},"district":{"key":"09673","name":"Rhön-Grabfeld","type":"Landkreis"},"federalState":{"key":"09","name":"Bayern"}},{"name":"Vorderer Rangenberg","postalCode":"98631","locality":"Grabfeld","municipality":{"key":"16066094","name":"Grabfeld","type":"Kreisangehörige_Gemeinde"},"district":{"key":"16066","name":"Schmalkalden-Meiningen","type":"Landkreis"},"federalState":{"key":"16","name":"Thüringen"}},{"name":"Vorstadt","postalCode":"97631","locality":"Bad Königshofen im Grabfeld","municipality":{"key":"09673141","name":"Bad Königshofen i.Grabfeld, St","type":"Stadt"},"district":{"key":"09673","name":"Rhön-Grabfeld","type":"Landkreis"},"federalState":{"key":"09","name":"Bayern"}},{"name":"Waldblick","postalCode":"98631","locality":"Grabfeld","municipality":{"key":"16066094","name":"Grabfeld","type":"Kreisangehörige_Gemeinde"},"district":{"key":"16066","name":"Schmalkalden-Meiningen","type":"Landkreis"},"federalState":{"key":"16","name":"Thüringen"}},{"name":"Walderlebnispfad","postalCode":"97631","locality":"Bad Königshofen im Grabfeld","municipality":{"key":"09673141","name":"Bad Königshofen i.Grabfeld, St","type":"Stadt"},"district":{"key":"09673","name":"Rhön-Grabfeld","type":"Landkreis"},"federalState":{"key":"09","name":"Bayern"}},{"name":"Waldstr.","postalCode":"97631","locality":"Bad Königshofen im Grabfeld","municipality":{"key":"09673141","name":"Bad Königshofen i.Grabfeld, St","type":"Stadt"},"district":{"key":"09673","name":"Rhön-Grabfeld","type":"Landkreis"},"federalState":{"key":"09","name":"Bayern"}},{"name":"Waldweg","postalCode":"97631","locality":"Bad Königshofen im Grabfeld","municipality":{"key":"09673141","name":"Bad Königshofen i.Grabfeld, St","type":"Stadt"},"district":{"key":"09673","name":"Rhön-Grabfeld","type":"Landkreis"},"federalState":{"key":"09","name":"Bayern"}},{"name":"Wallstr.","postalCode":"97631","locality":"Bad Königshofen im Grabfeld","municipality":{"key":"09673141","name":"Bad Königshofen i.Grabfeld, St","type":"Stadt"},"district":{"key":"09673","name":"Rhön-Grabfeld","type":"Landkreis"},"federalState":{"key":"09","name":"Bayern"}},{"name":"Wassergasse","postalCode":"98631","locality":"Grabfeld","municipality":{"key":"16066094","name":"Grabfeld","type":"Kreisangehörige_Gemeinde"},"district":{"key":"16066","name":"Schmalkalden-Meiningen","type":"Landkreis"},"federalState":{"key":"16","name":"Thüringen"}},{"name":"Weißbach","postalCode":"97631","locality":"Bad Königshofen im Grabfeld","municipality":{"key":"09673141","name":"Bad Königshofen i.Grabfeld, St","type":"Stadt"},"district":{"key":"09673","name":"Rhön-Grabfeld","type":"Landkreis"},"federalState":{"key":"09","name":"Bayern"}},{"name":"Westenfelder Str.","postalCode":"98631","locality":"Grabfeld","municipality":{"key":"16066094","name":"Grabfeld","type":"Kreisangehörige_Gemeinde"},"district":{"key":"16066","name":"Schmalkalden-Meiningen","type":"Landkreis"},"federalState":{"key":"16","name":"Thüringen"}},{"name":"Wethgasse","postalCode":"97631","locality":"Bad Königshofen im Grabfeld","municipality":{"key":"09673141","name":"Bad Königshofen i.Grabfeld, St","type":"Stadt"},"district":{"key":"09673","name":"Rhön-Grabfeld","type":"Landkreis"},"federalState":{"key":"09","name":"Bayern"}},{"name":"Wiesenweg","postalCode":"97631","locality":"Bad Königshofen im Grabfeld","municipality":{"key":"09673141","name":"Bad Königshofen i.Grabfeld, St","type":"Stadt"},"district":{"key":"09673","name":"Rhön-Grabfeld","type":"Landkreis"},"federalState":{"key":"09","name":"Bayern"}},{"name":"Wirthsrangen","postalCode":"97631","locality":"Bad Königshofen im Grabfeld","municipality":{"key":"09673141","name":"Bad Königshofen i.Grabfeld, St","type":"Stadt"},"district":{"key":"09673","name":"Rhön-Grabfeld","type":"Landkreis"},"federalState":{"key":"09","name":"Bayern"}},{"name":"Wirtsgasse","postalCode":"97631","locality":"Bad Königshofen im Grabfeld","municipality":{"key":"09673141","name":"Bad Königshofen i.Grabfeld, St","type":"Stadt"},"district":{"key":"09673","name":"Rhön-Grabfeld","type":"Landkreis"},"federalState":{"key":"09","name":"Bayern"}},{"name":"Witte","postalCode":"98631","locality":"Grabfeld","municipality":{"key":"16066094","name":"Grabfeld","type":"Kreisangehörige_Gemeinde"},"district":{"key":"16066","name":"Schmalkalden-Meiningen","type":"Landkreis"},"federalState":{"key":"16","name":"Thüringen"}},{"name":"Wölfershäuser Str.","postalCode":"98631","locality":"Grabfeld","municipality":{"key":"16066094","name":"Grabfeld","type":"Kreisangehörige_Gemeinde"},"district":{"key":"16066","name":"Schmalkalden-Meiningen","type":"Landkreis"},"federalState":{"key":"16","name":"Thüringen"}},{"name":"Wolfmannshäuser Str.","postalCode":"98631","locality":"Grabfeld","municipality":{"key":"16066094","name":"Grabfeld","type":"Kreisangehörige_Gemeinde"},"district":{"key":"16066","name":"Schmalkalden-Meiningen","type":"Landkreis"},"federalState":{"key":"16","name":"Thüringen"}},{"name":"Wüstegasse","postalCode":"98631","locality":"Grabfeld","municipality":{"key":"16066094","name":"Grabfeld","type":"Kreisangehörige_Gemeinde"},"district":{"key":"16066","name":"Schmalkalden-Meiningen","type":"Landkreis"},"federalState":{"key":"16","name":"Thüringen"}},{"name":"Zehntstr.","postalCode":"97631","locality":"Bad Königshofen im Grabfeld","municipality":{"key":"09673141","name":"Bad Königshofen i.Grabfeld, St","type":"Stadt"},"district":{"key":"09673","name":"Rhön-Grabfeld","type":"Landkreis"},"federalState":{"key":"09","name":"Bayern"}},{"name":"Zeughausstr.","postalCode":"97631","locality":"Bad Königshofen im Grabfeld","municipality":{"key":"09673141","name":"Bad Königshofen i.Grabfeld, St","type":"Stadt"},"district":{"key":"09673","name":"Rhön-Grabfeld","type":"Landkreis"},"federalState":{"key":"09","name":"Bayern"}},{"name":"Zum Birkenpfad","postalCode":"97631","locality":"Bad Königshofen im Grabfeld","municipality":{"key":"09673141","name":"Bad Königshofen i.Grabfeld, St","type":"Stadt"},"district":{"key":"09673","name":"Rhön-Grabfeld","type":"Landkreis"},"federalState":{"key":"09","name":"Bayern"}},{"name":"Zum Queienberg","postalCode":"98631","locality":"Grabfeld","municipality":{"key":"16066094","name":"Grabfeld","type":"Kreisangehörige_Gemeinde"},"district":{"key":"16066","name":"Schmalkalden-Meiningen","type":"Landkreis"},"federalState":{"key":"16","name":"Thüringen"}},{"name":"Zum Rodeland","postalCode":"98631","locality":"Grabfeld","municipality":{"key":"16066094","name":"Grabfeld","type":"Kreisangehörige_Gemeinde"},"district":{"key":"16066","name":"Schmalkalden-Meiningen","type":"Landkreis"},"federalState":{"key":"16","name":"Thüringen"}},{"name":"Zum Rosengarten","postalCode":"98631","locality":"Grabfeld","municipality":{"key":"16066094","name":"Grabfeld","type":"Kreisangehörige_Gemeinde"},"district":{"key":"16066","name":"Schmalkalden-Meiningen","type":"Landkreis"},"federalState":{"key":"16","name":"Thüringen"}},{"name":"Zum Schwanberg","postalCode":"98631","locality":"Grabfeld","municipality":{"key":"16066094","name":"Grabfeld","type":"Kreisangehörige_Gemeinde"},"district":{"key":"16066","name":"Schmalkalden-Meiningen","type":"Landkreis"},"federalState":{"key":"16","name":"Thüringen"}},{"name":"Zum Töpfermarkt","postalCode":"98631","locality":"Grabfeld","municipality":{"key":"16066094","name":"Grabfeld","type":"Kreisangehörige_Gemeinde"},"district":{"key":"16066","name":"Schmalkalden-Meiningen","type":"Landkreis"},"federalState":{"key":"16","name":"Thüringen"}},{"name":"Zum Wiesengrund","postalCode":"98631","locality":"Grabfeld","municipality":{"key":"16066094","name":"Grabfeld","type":"Kreisangehörige_Gemeinde"},"district":{"key":"16066","name":"Schmalkalden-Meiningen","type":"Landkreis"},"federalState":{"key":"16","name":"Thüringen"}},{"name":"Zur Gartenstr.","postalCode":"98631","locality":"Grabfeld","municipality":{"key":"16066094","name":"Grabfeld","type":"Kreisangehörige_Gemeinde"},"district":{"key":"16066","name":"Schmalkalden-Meiningen","type":"Landkreis"},"federalState":{"key":"16","name":"Thüringen"}},{"name":"Zur Grotte","postalCode":"97631","locality":"Bad Königshofen im Grabfeld","municipality":{"key":"09673141","name":"Bad Königshofen i.Grabfeld, St","type":"Stadt"},"district":{"key":"09673","name":"Rhön-Grabfeld","type":"Landkreis"},"federalState":{"key":"09","name":"Bayern"}},{"name":"Zur Mittelgasse","postalCode":"97631","locality":"Bad Königshofen im Grabfeld","municipality":{"key":"09673141","name":"Bad Königshofen i.Grabfeld, St","type":"Stadt"},"district":{"key":"09673","name":"Rhön-Grabfeld","type":"Landkreis"},"federalState":{"key":"09","name":"Bayern"}},{"name":"Zur Rothöhe","postalCode":"97631","locality":"Bad Königshofen im Grabfeld","municipality":{"key":"09673141","name":"Bad Königshofen i.Grabfeld, St","type":"Stadt"},"district":{"key":"09673","name":"Rhön-Grabfeld","type":"Landkreis"},"federalState":{"key":"09","name":"Bayern"}},]