[{"name":"Am Großborn","postalCode":"76835","locality":"Flemlingen","municipality":{"key":"07337025","name":"Flemlingen","type":"Kreisangehörige_Gemeinde"},"district":{"key":"07337","name":"Südliche Weinstraße","type":"Landkreis"},"federalState":{"key":"07","name":"Rheinland-Pfalz"}},{"name":"Am weißen Kreuz","postalCode":"76835","locality":"Flemlingen","municipality":{"key":"07337025","name":"Flemlingen","type":"Kreisangehörige_Gemeinde"},"district":{"key":"07337","name":"Südliche Weinstraße","type":"Landkreis"},"federalState":{"key":"07","name":"Rheinland-Pfalz"}},{"name":"Bachstr.","postalCode":"76835","locality":"Flemlingen","municipality":{"key":"07337025","name":"Flemlingen","type":"Kreisangehörige_Gemeinde"},"district":{"key":"07337","name":"Südliche Weinstraße","type":"Landkreis"},"federalState":{"key":"07","name":"Rheinland-Pfalz"}},{"name":"Haardtblick","postalCode":"76835","locality":"Flemlingen","municipality":{"key":"07337025","name":"Flemlingen","type":"Kreisangehörige_Gemeinde"},"district":{"key":"07337","name":"Südliche Weinstraße","type":"Landkreis"},"federalState":{"key":"07","name":"Rheinland-Pfalz"}},{"name":"Hainfelder Str.","postalCode":"76835","locality":"Flemlingen","municipality":{"key":"07337025","name":"Flemlingen","type":"Kreisangehörige_Gemeinde"},"district":{"key":"07337","name":"Südliche Weinstraße","type":"Landkreis"},"federalState":{"key":"07","name":"Rheinland-Pfalz"}},{"name":"Hauptstr.","postalCode":"76835","locality":"Flemlingen","municipality":{"key":"07337025","name":"Flemlingen","type":"Kreisangehörige_Gemeinde"},"district":{"key":"07337","name":"Südliche Weinstraße","type":"Landkreis"},"federalState":{"key":"07","name":"Rheinland-Pfalz"}},{"name":"In den Kapellenäckern","postalCode":"76835","locality":"Flemlingen","municipality":{"key":"07337025","name":"Flemlingen","type":"Kreisangehörige_Gemeinde"},"district":{"key":"07337","name":"Südliche Weinstraße","type":"Landkreis"},"federalState":{"key":"07","name":"Rheinland-Pfalz"}},{"name":"Kirchstr.","postalCode":"76835","locality":"Flemlingen","municipality":{"key":"07337025","name":"Flemlingen","type":"Kreisangehörige_Gemeinde"},"district":{"key":"07337","name":"Südliche Weinstraße","type":"Landkreis"},"federalState":{"key":"07","name":"Rheinland-Pfalz"}},{"name":"Maxstr.","postalCode":"76835","locality":"Flemlingen","municipality":{"key":"07337025","name":"Flemlingen","type":"Kreisangehörige_Gemeinde"},"district":{"key":"07337","name":"Südliche Weinstraße","type":"Landkreis"},"federalState":{"key":"07","name":"Rheinland-Pfalz"}},{"name":"Oberdorfstr.","postalCode":"76835","locality":"Flemlingen","municipality":{"key":"07337025","name":"Flemlingen","type":"Kreisangehörige_Gemeinde"},"district":{"key":"07337","name":"Südliche Weinstraße","type":"Landkreis"},"federalState":{"key":"07","name":"Rheinland-Pfalz"}},{"name":"Roschbacher Str.","postalCode":"76835","locality":"Flemlingen","municipality":{"key":"07337025","name":"Flemlingen","type":"Kreisangehörige_Gemeinde"},"district":{"key":"07337","name":"Südliche Weinstraße","type":"Landkreis"},"federalState":{"key":"07","name":"Rheinland-Pfalz"}},{"name":"Vogelsprung","postalCode":"76835","locality":"Flemlingen","municipality":{"key":"07337025","name":"Flemlingen","type":"Kreisangehörige_Gemeinde"},"district":{"key":"07337","name":"Südliche Weinstraße","type":"Landkreis"},"federalState":{"key":"07","name":"Rheinland-Pfalz"}},]