[{"name":"Adenauerstr.","postalCode":"97232","locality":"Giebelstadt","municipality":{"key":"09679138","name":"Giebelstadt, M","type":"Markt"},"district":{"key":"09679","name":"Würzburg","type":"Landkreis"},"federalState":{"key":"09","name":"Bayern"}},{"name":"Ahornweg","postalCode":"97232","locality":"Giebelstadt","municipality":{"key":"09679138","name":"Giebelstadt, M","type":"Markt"},"district":{"key":"09679","name":"Würzburg","type":"Landkreis"},"federalState":{"key":"09","name":"Bayern"}},{"name":"Akazienweg","postalCode":"97232","locality":"Giebelstadt","municipality":{"key":"09679138","name":"Giebelstadt, M","type":"Markt"},"district":{"key":"09679","name":"Würzburg","type":"Landkreis"},"federalState":{"key":"09","name":"Bayern"}},{"name":"Allersheimer Str.","postalCode":"97232","locality":"Giebelstadt","municipality":{"key":"09679138","name":"Giebelstadt, M","type":"Markt"},"district":{"key":"09679","name":"Würzburg","type":"Landkreis"},"federalState":{"key":"09","name":"Bayern"}},{"name":"Alter Dorfgrabenweg","postalCode":"97232","locality":"Giebelstadt","municipality":{"key":"09679138","name":"Giebelstadt, M","type":"Markt"},"district":{"key":"09679","name":"Würzburg","type":"Landkreis"},"federalState":{"key":"09","name":"Bayern"}},{"name":"Am Bach","postalCode":"97232","locality":"Giebelstadt","municipality":{"key":"09679138","name":"Giebelstadt, M","type":"Markt"},"district":{"key":"09679","name":"Würzburg","type":"Landkreis"},"federalState":{"key":"09","name":"Bayern"}},{"name":"Am Berg","postalCode":"97232","locality":"Giebelstadt","municipality":{"key":"09679138","name":"Giebelstadt, M","type":"Markt"},"district":{"key":"09679","name":"Würzburg","type":"Landkreis"},"federalState":{"key":"09","name":"Bayern"}},{"name":"Am Geyerschloß","postalCode":"97232","locality":"Giebelstadt","municipality":{"key":"09679138","name":"Giebelstadt, M","type":"Markt"},"district":{"key":"09679","name":"Würzburg","type":"Landkreis"},"federalState":{"key":"09","name":"Bayern"}},{"name":"Am Gießgraben","postalCode":"97232","locality":"Giebelstadt","municipality":{"key":"09679138","name":"Giebelstadt, M","type":"Markt"},"district":{"key":"09679","name":"Würzburg","type":"Landkreis"},"federalState":{"key":"09","name":"Bayern"}},{"name":"Am Herrschaftsacker","postalCode":"97232","locality":"Giebelstadt","municipality":{"key":"09679138","name":"Giebelstadt, M","type":"Markt"},"district":{"key":"09679","name":"Würzburg","type":"Landkreis"},"federalState":{"key":"09","name":"Bayern"}},{"name":"Am Hofacker","postalCode":"97232","locality":"Giebelstadt","municipality":{"key":"09679138","name":"Giebelstadt, M","type":"Markt"},"district":{"key":"09679","name":"Würzburg","type":"Landkreis"},"federalState":{"key":"09","name":"Bayern"}},{"name":"Am See","postalCode":"97232","locality":"Giebelstadt","municipality":{"key":"09679138","name":"Giebelstadt, M","type":"Markt"},"district":{"key":"09679","name":"Würzburg","type":"Landkreis"},"federalState":{"key":"09","name":"Bayern"}},{"name":"Amselweg","postalCode":"97232","locality":"Giebelstadt","municipality":{"key":"09679138","name":"Giebelstadt, M","type":"Markt"},"district":{"key":"09679","name":"Würzburg","type":"Landkreis"},"federalState":{"key":"09","name":"Bayern"}},{"name":"Am Sonnenhang","postalCode":"97232","locality":"Giebelstadt","municipality":{"key":"09679138","name":"Giebelstadt, M","type":"Markt"},"district":{"key":"09679","name":"Würzburg","type":"Landkreis"},"federalState":{"key":"09","name":"Bayern"}},{"name":"Am Sportplatz","postalCode":"97232","locality":"Giebelstadt","municipality":{"key":"09679138","name":"Giebelstadt, M","type":"Markt"},"district":{"key":"09679","name":"Würzburg","type":"Landkreis"},"federalState":{"key":"09","name":"Bayern"}},{"name":"Am Trieb","postalCode":"97232","locality":"Giebelstadt","municipality":{"key":"09679138","name":"Giebelstadt, M","type":"Markt"},"district":{"key":"09679","name":"Würzburg","type":"Landkreis"},"federalState":{"key":"09","name":"Bayern"}},{"name":"Am Wiesenbach","postalCode":"97232","locality":"Giebelstadt","municipality":{"key":"09679138","name":"Giebelstadt, M","type":"Markt"},"district":{"key":"09679","name":"Würzburg","type":"Landkreis"},"federalState":{"key":"09","name":"Bayern"}},{"name":"An der Brunnenstube","postalCode":"97232","locality":"Giebelstadt","municipality":{"key":"09679138","name":"Giebelstadt, M","type":"Markt"},"district":{"key":"09679","name":"Würzburg","type":"Landkreis"},"federalState":{"key":"09","name":"Bayern"}},{"name":"An der Point","postalCode":"97232","locality":"Giebelstadt","municipality":{"key":"09679138","name":"Giebelstadt, M","type":"Markt"},"district":{"key":"09679","name":"Würzburg","type":"Landkreis"},"federalState":{"key":"09","name":"Bayern"}},{"name":"Andreas-Hermes-Str.","postalCode":"97232","locality":"Giebelstadt","municipality":{"key":"09679138","name":"Giebelstadt, M","type":"Markt"},"district":{"key":"09679","name":"Würzburg","type":"Landkreis"},"federalState":{"key":"09","name":"Bayern"}},{"name":"Asternweg","postalCode":"97232","locality":"Giebelstadt","municipality":{"key":"09679138","name":"Giebelstadt, M","type":"Markt"},"district":{"key":"09679","name":"Würzburg","type":"Landkreis"},"federalState":{"key":"09","name":"Bayern"}},{"name":"Bachgasse","postalCode":"97232","locality":"Giebelstadt","municipality":{"key":"09679138","name":"Giebelstadt, M","type":"Markt"},"district":{"key":"09679","name":"Würzburg","type":"Landkreis"},"federalState":{"key":"09","name":"Bayern"}},{"name":"Bachstr.","postalCode":"97232","locality":"Giebelstadt","municipality":{"key":"09679138","name":"Giebelstadt, M","type":"Markt"},"district":{"key":"09679","name":"Würzburg","type":"Landkreis"},"federalState":{"key":"09","name":"Bayern"}},{"name":"Bayernstr.","postalCode":"97232","locality":"Giebelstadt","municipality":{"key":"09679138","name":"Giebelstadt, M","type":"Markt"},"district":{"key":"09679","name":"Würzburg","type":"Landkreis"},"federalState":{"key":"09","name":"Bayern"}},{"name":"Bei den Linden","postalCode":"97232","locality":"Giebelstadt","municipality":{"key":"09679138","name":"Giebelstadt, M","type":"Markt"},"district":{"key":"09679","name":"Würzburg","type":"Landkreis"},"federalState":{"key":"09","name":"Bayern"}},{"name":"Beim Friedhof","postalCode":"97232","locality":"Giebelstadt","municipality":{"key":"09679138","name":"Giebelstadt, M","type":"Markt"},"district":{"key":"09679","name":"Würzburg","type":"Landkreis"},"federalState":{"key":"09","name":"Bayern"}},{"name":"Bergstr.","postalCode":"97232","locality":"Giebelstadt","municipality":{"key":"09679138","name":"Giebelstadt, M","type":"Markt"},"district":{"key":"09679","name":"Würzburg","type":"Landkreis"},"federalState":{"key":"09","name":"Bayern"}},{"name":"Birkenstr.","postalCode":"97232","locality":"Giebelstadt","municipality":{"key":"09679138","name":"Giebelstadt, M","type":"Markt"},"district":{"key":"09679","name":"Würzburg","type":"Landkreis"},"federalState":{"key":"09","name":"Bayern"}},{"name":"Bisamstr.","postalCode":"97232","locality":"Giebelstadt","municipality":{"key":"09679138","name":"Giebelstadt, M","type":"Markt"},"district":{"key":"09679","name":"Würzburg","type":"Landkreis"},"federalState":{"key":"09","name":"Bayern"}},{"name":"Bischof-Reissmann-Platz","postalCode":"97232","locality":"Giebelstadt","municipality":{"key":"09679138","name":"Giebelstadt, M","type":"Markt"},"district":{"key":"09679","name":"Würzburg","type":"Landkreis"},"federalState":{"key":"09","name":"Bayern"}},{"name":"Blumenstr.","postalCode":"97232","locality":"Giebelstadt","municipality":{"key":"09679138","name":"Giebelstadt, M","type":"Markt"},"district":{"key":"09679","name":"Würzburg","type":"Landkreis"},"federalState":{"key":"09","name":"Bayern"}},{"name":"Blütenstr.","postalCode":"97232","locality":"Giebelstadt","municipality":{"key":"09679138","name":"Giebelstadt, M","type":"Markt"},"district":{"key":"09679","name":"Würzburg","type":"Landkreis"},"federalState":{"key":"09","name":"Bayern"}},{"name":"Brunnengasse","postalCode":"97232","locality":"Giebelstadt","municipality":{"key":"09679138","name":"Giebelstadt, M","type":"Markt"},"district":{"key":"09679","name":"Würzburg","type":"Landkreis"},"federalState":{"key":"09","name":"Bayern"}},{"name":"Buchenhain","postalCode":"97232","locality":"Giebelstadt","municipality":{"key":"09679138","name":"Giebelstadt, M","type":"Markt"},"district":{"key":"09679","name":"Würzburg","type":"Landkreis"},"federalState":{"key":"09","name":"Bayern"}},{"name":"Carl-Orff-Str.","postalCode":"97076","locality":"Würzburg","municipality":{"key":"09663000","name":"Würzburg","type":"Kreisfreie_Stadt"},"district":{"key":"09663","name":"Würzburg","type":"Kreisfreie_Stadt"},"federalState":{"key":"09","name":"Bayern"}},{"name":"Christlsteige","postalCode":"97074","locality":"Würzburg","municipality":{"key":"09663000","name":"Würzburg","type":"Kreisfreie_Stadt"},"district":{"key":"09663","name":"Würzburg","type":"Kreisfreie_Stadt"},"federalState":{"key":"09","name":"Bayern"}},{"name":"Christoph-Mayer-Weg","postalCode":"97082","locality":"Würzburg","municipality":{"key":"09663000","name":"Würzburg","type":"Kreisfreie_Stadt"},"district":{"key":"09663","name":"Würzburg","type":"Kreisfreie_Stadt"},"federalState":{"key":"09","name":"Bayern"}},{"name":"Conradisteg","postalCode":"97072","locality":"Würzburg","municipality":{"key":"09663000","name":"Würzburg","type":"Kreisfreie_Stadt"},"district":{"key":"09663","name":"Würzburg","type":"Kreisfreie_Stadt"},"federalState":{"key":"09","name":"Bayern"}},{"name":"Conradistr.","postalCode":"97072","locality":"Würzburg","municipality":{"key":"09663000","name":"Würzburg","type":"Kreisfreie_Stadt"},"district":{"key":"09663","name":"Würzburg","type":"Kreisfreie_Stadt"},"federalState":{"key":"09","name":"Bayern"}},{"name":"Crevennastr.","postalCode":"97072","locality":"Würzburg","municipality":{"key":"09663000","name":"Würzburg","type":"Kreisfreie_Stadt"},"district":{"key":"09663","name":"Würzburg","type":"Kreisfreie_Stadt"},"federalState":{"key":"09","name":"Bayern"}},{"name":"Cronthalstr.","postalCode":"97074","locality":"Würzburg","municipality":{"key":"09663000","name":"Würzburg","type":"Kreisfreie_Stadt"},"district":{"key":"09663","name":"Würzburg","type":"Kreisfreie_Stadt"},"federalState":{"key":"09","name":"Bayern"}},{"name":"Danziger Weg","postalCode":"97232","locality":"Giebelstadt","municipality":{"key":"09679138","name":"Giebelstadt, M","type":"Markt"},"district":{"key":"09679","name":"Würzburg","type":"Landkreis"},"federalState":{"key":"09","name":"Bayern"}},{"name":"Dorfberg","postalCode":"97232","locality":"Giebelstadt","municipality":{"key":"09679138","name":"Giebelstadt, M","type":"Markt"},"district":{"key":"09679","name":"Würzburg","type":"Landkreis"},"federalState":{"key":"09","name":"Bayern"}},{"name":"Dorfstr.","postalCode":"97232","locality":"Giebelstadt","municipality":{"key":"09679138","name":"Giebelstadt, M","type":"Markt"},"district":{"key":"09679","name":"Würzburg","type":"Landkreis"},"federalState":{"key":"09","name":"Bayern"}},{"name":"Dr.-Amrhein-Str.","postalCode":"97232","locality":"Giebelstadt","municipality":{"key":"09679138","name":"Giebelstadt, M","type":"Markt"},"district":{"key":"09679","name":"Würzburg","type":"Landkreis"},"federalState":{"key":"09","name":"Bayern"}},{"name":"Dreibrunnenstr.","postalCode":"97232","locality":"Giebelstadt","municipality":{"key":"09679138","name":"Giebelstadt, M","type":"Markt"},"district":{"key":"09679","name":"Würzburg","type":"Landkreis"},"federalState":{"key":"09","name":"Bayern"}},{"name":"Dr.-Heim-Str.","postalCode":"97232","locality":"Giebelstadt","municipality":{"key":"09679138","name":"Giebelstadt, M","type":"Markt"},"district":{"key":"09679","name":"Würzburg","type":"Landkreis"},"federalState":{"key":"09","name":"Bayern"}},{"name":"Eichhornstr.","postalCode":"97232","locality":"Giebelstadt","municipality":{"key":"09679138","name":"Giebelstadt, M","type":"Markt"},"district":{"key":"09679","name":"Würzburg","type":"Landkreis"},"federalState":{"key":"09","name":"Bayern"}},{"name":"Fasanenring","postalCode":"97232","locality":"Giebelstadt","municipality":{"key":"09679138","name":"Giebelstadt, M","type":"Markt"},"district":{"key":"09679","name":"Würzburg","type":"Landkreis"},"federalState":{"key":"09","name":"Bayern"}},{"name":"Finkenstr.","postalCode":"97232","locality":"Giebelstadt","municipality":{"key":"09679138","name":"Giebelstadt, M","type":"Markt"},"district":{"key":"09679","name":"Würzburg","type":"Landkreis"},"federalState":{"key":"09","name":"Bayern"}},{"name":"Fliederweg","postalCode":"97232","locality":"Giebelstadt","municipality":{"key":"09679138","name":"Giebelstadt, M","type":"Markt"},"district":{"key":"09679","name":"Würzburg","type":"Landkreis"},"federalState":{"key":"09","name":"Bayern"}},{"name":"Florian-Geyer-Str.","postalCode":"97232","locality":"Giebelstadt","municipality":{"key":"09679138","name":"Giebelstadt, M","type":"Markt"},"district":{"key":"09679","name":"Würzburg","type":"Landkreis"},"federalState":{"key":"09","name":"Bayern"}},{"name":"Flugplatzstr.","postalCode":"97232","locality":"Giebelstadt","municipality":{"key":"09679138","name":"Giebelstadt, M","type":"Markt"},"district":{"key":"09679","name":"Würzburg","type":"Landkreis"},"federalState":{"key":"09","name":"Bayern"}},{"name":"Fontaneweg","postalCode":"97232","locality":"Giebelstadt","municipality":{"key":"09679138","name":"Giebelstadt, M","type":"Markt"},"district":{"key":"09679","name":"Würzburg","type":"Landkreis"},"federalState":{"key":"09","name":"Bayern"}},{"name":"Frankenstr.","postalCode":"97232","locality":"Giebelstadt","municipality":{"key":"09679138","name":"Giebelstadt, M","type":"Markt"},"district":{"key":"09679","name":"Würzburg","type":"Landkreis"},"federalState":{"key":"09","name":"Bayern"}},{"name":"Franz-Josef-Strauß-Str.","postalCode":"97232","locality":"Giebelstadt","municipality":{"key":"09679138","name":"Giebelstadt, M","type":"Markt"},"district":{"key":"09679","name":"Würzburg","type":"Landkreis"},"federalState":{"key":"09","name":"Bayern"}},{"name":"Friedenstr.","postalCode":"97232","locality":"Giebelstadt","municipality":{"key":"09679138","name":"Giebelstadt, M","type":"Markt"},"district":{"key":"09679","name":"Würzburg","type":"Landkreis"},"federalState":{"key":"09","name":"Bayern"}},{"name":"Froschgasse","postalCode":"97232","locality":"Giebelstadt","municipality":{"key":"09679138","name":"Giebelstadt, M","type":"Markt"},"district":{"key":"09679","name":"Würzburg","type":"Landkreis"},"federalState":{"key":"09","name":"Bayern"}},{"name":"Frühlingstr.","postalCode":"97232","locality":"Giebelstadt","municipality":{"key":"09679138","name":"Giebelstadt, M","type":"Markt"},"district":{"key":"09679","name":"Würzburg","type":"Landkreis"},"federalState":{"key":"09","name":"Bayern"}},{"name":"Gartenstr.","postalCode":"97232","locality":"Giebelstadt","municipality":{"key":"09679138","name":"Giebelstadt, M","type":"Markt"},"district":{"key":"09679","name":"Würzburg","type":"Landkreis"},"federalState":{"key":"09","name":"Bayern"}},{"name":"Gartenweg","postalCode":"97232","locality":"Giebelstadt","municipality":{"key":"09679138","name":"Giebelstadt, M","type":"Markt"},"district":{"key":"09679","name":"Würzburg","type":"Landkreis"},"federalState":{"key":"09","name":"Bayern"}},{"name":"Gaubüttelbrunner Str.","postalCode":"97232","locality":"Giebelstadt","municipality":{"key":"09679138","name":"Giebelstadt, M","type":"Markt"},"district":{"key":"09679","name":"Würzburg","type":"Landkreis"},"federalState":{"key":"09","name":"Bayern"}},{"name":"Geroldshäuser Str.","postalCode":"97232","locality":"Giebelstadt","municipality":{"key":"09679138","name":"Giebelstadt, M","type":"Markt"},"district":{"key":"09679","name":"Würzburg","type":"Landkreis"},"federalState":{"key":"09","name":"Bayern"}},{"name":"Goethestr.","postalCode":"97232","locality":"Giebelstadt","municipality":{"key":"09679138","name":"Giebelstadt, M","type":"Markt"},"district":{"key":"09679","name":"Würzburg","type":"Landkreis"},"federalState":{"key":"09","name":"Bayern"}},{"name":"Gützinger Weg","postalCode":"97232","locality":"Giebelstadt","municipality":{"key":"09679138","name":"Giebelstadt, M","type":"Markt"},"district":{"key":"09679","name":"Würzburg","type":"Landkreis"},"federalState":{"key":"09","name":"Bayern"}},{"name":"Hahnenhof","postalCode":"97232","locality":"Giebelstadt","municipality":{"key":"09679138","name":"Giebelstadt, M","type":"Markt"},"district":{"key":"09679","name":"Würzburg","type":"Landkreis"},"federalState":{"key":"09","name":"Bayern"}},{"name":"Hamsterweg","postalCode":"97232","locality":"Giebelstadt","municipality":{"key":"09679138","name":"Giebelstadt, M","type":"Markt"},"district":{"key":"09679","name":"Würzburg","type":"Landkreis"},"federalState":{"key":"09","name":"Bayern"}},{"name":"Hauptstr.","postalCode":"97232","locality":"Giebelstadt","municipality":{"key":"09679138","name":"Giebelstadt, M","type":"Markt"},"district":{"key":"09679","name":"Würzburg","type":"Landkreis"},"federalState":{"key":"09","name":"Bayern"}},{"name":"Heinestr.","postalCode":"97232","locality":"Giebelstadt","municipality":{"key":"09679138","name":"Giebelstadt, M","type":"Markt"},"district":{"key":"09679","name":"Würzburg","type":"Landkreis"},"federalState":{"key":"09","name":"Bayern"}},{"name":"Heinrich-Lanz-Str.","postalCode":"97232","locality":"Giebelstadt","municipality":{"key":"09679138","name":"Giebelstadt, M","type":"Markt"},"district":{"key":"09679","name":"Würzburg","type":"Landkreis"},"federalState":{"key":"09","name":"Bayern"}},{"name":"Herchsheimer Weg","postalCode":"97232","locality":"Giebelstadt","municipality":{"key":"09679138","name":"Giebelstadt, M","type":"Markt"},"district":{"key":"09679","name":"Würzburg","type":"Landkreis"},"federalState":{"key":"09","name":"Bayern"}},{"name":"Holzäckerweg","postalCode":"97232","locality":"Giebelstadt","municipality":{"key":"09679138","name":"Giebelstadt, M","type":"Markt"},"district":{"key":"09679","name":"Würzburg","type":"Landkreis"},"federalState":{"key":"09","name":"Bayern"}},{"name":"Hugo-von-Zobel-Str.","postalCode":"97232","locality":"Giebelstadt","municipality":{"key":"09679138","name":"Giebelstadt, M","type":"Markt"},"district":{"key":"09679","name":"Würzburg","type":"Landkreis"},"federalState":{"key":"09","name":"Bayern"}},{"name":"Igelweg","postalCode":"97232","locality":"Giebelstadt","municipality":{"key":"09679138","name":"Giebelstadt, M","type":"Markt"},"district":{"key":"09679","name":"Würzburg","type":"Landkreis"},"federalState":{"key":"09","name":"Bayern"}},{"name":"Industriestr.","postalCode":"97232","locality":"Giebelstadt","municipality":{"key":"09679138","name":"Giebelstadt, M","type":"Markt"},"district":{"key":"09679","name":"Würzburg","type":"Landkreis"},"federalState":{"key":"09","name":"Bayern"}},{"name":"Ingolstadter Str.","postalCode":"97232","locality":"Giebelstadt","municipality":{"key":"09679138","name":"Giebelstadt, M","type":"Markt"},"district":{"key":"09679","name":"Würzburg","type":"Landkreis"},"federalState":{"key":"09","name":"Bayern"}},{"name":"Julius-Echter-Str.","postalCode":"97232","locality":"Giebelstadt","municipality":{"key":"09679138","name":"Giebelstadt, M","type":"Markt"},"district":{"key":"09679","name":"Würzburg","type":"Landkreis"},"federalState":{"key":"09","name":"Bayern"}},{"name":"Kapellenberg","postalCode":"97232","locality":"Giebelstadt","municipality":{"key":"09679138","name":"Giebelstadt, M","type":"Markt"},"district":{"key":"09679","name":"Würzburg","type":"Landkreis"},"federalState":{"key":"09","name":"Bayern"}},{"name":"Kästnerweg","postalCode":"97232","locality":"Giebelstadt","municipality":{"key":"09679138","name":"Giebelstadt, M","type":"Markt"},"district":{"key":"09679","name":"Würzburg","type":"Landkreis"},"federalState":{"key":"09","name":"Bayern"}},{"name":"Kautzenstr.","postalCode":"97232","locality":"Giebelstadt","municipality":{"key":"09679138","name":"Giebelstadt, M","type":"Markt"},"district":{"key":"09679","name":"Würzburg","type":"Landkreis"},"federalState":{"key":"09","name":"Bayern"}},{"name":"Kindergartenstr.","postalCode":"97232","locality":"Giebelstadt","municipality":{"key":"09679138","name":"Giebelstadt, M","type":"Markt"},"district":{"key":"09679","name":"Würzburg","type":"Landkreis"},"federalState":{"key":"09","name":"Bayern"}},{"name":"Kirchheimer Str.","postalCode":"97232","locality":"Giebelstadt","municipality":{"key":"09679138","name":"Giebelstadt, M","type":"Markt"},"district":{"key":"09679","name":"Würzburg","type":"Landkreis"},"federalState":{"key":"09","name":"Bayern"}},{"name":"Kirchplatz","postalCode":"97232","locality":"Giebelstadt","municipality":{"key":"09679138","name":"Giebelstadt, M","type":"Markt"},"district":{"key":"09679","name":"Würzburg","type":"Landkreis"},"federalState":{"key":"09","name":"Bayern"}},{"name":"Kirschenweg","postalCode":"97232","locality":"Giebelstadt","municipality":{"key":"09679138","name":"Giebelstadt, M","type":"Markt"},"district":{"key":"09679","name":"Würzburg","type":"Landkreis"},"federalState":{"key":"09","name":"Bayern"}},{"name":"Kräuterweg","postalCode":"97232","locality":"Giebelstadt","municipality":{"key":"09679138","name":"Giebelstadt, M","type":"Markt"},"district":{"key":"09679","name":"Würzburg","type":"Landkreis"},"federalState":{"key":"09","name":"Bayern"}},{"name":"Kurt-Hepperlin-Str.","postalCode":"97232","locality":"Giebelstadt","municipality":{"key":"09679138","name":"Giebelstadt, M","type":"Markt"},"district":{"key":"09679","name":"Würzburg","type":"Landkreis"},"federalState":{"key":"09","name":"Bayern"}},{"name":"Kurze Gasse","postalCode":"97232","locality":"Giebelstadt","municipality":{"key":"09679138","name":"Giebelstadt, M","type":"Markt"},"district":{"key":"09679","name":"Würzburg","type":"Landkreis"},"federalState":{"key":"09","name":"Bayern"}},{"name":"Lange Gasse","postalCode":"97232","locality":"Giebelstadt","municipality":{"key":"09679138","name":"Giebelstadt, M","type":"Markt"},"district":{"key":"09679","name":"Würzburg","type":"Landkreis"},"federalState":{"key":"09","name":"Bayern"}},{"name":"Lehmgrubenweg","postalCode":"97232","locality":"Giebelstadt","municipality":{"key":"09679138","name":"Giebelstadt, M","type":"Markt"},"district":{"key":"09679","name":"Würzburg","type":"Landkreis"},"federalState":{"key":"09","name":"Bayern"}},{"name":"Lerchenweg","postalCode":"97232","locality":"Giebelstadt","municipality":{"key":"09679138","name":"Giebelstadt, M","type":"Markt"},"district":{"key":"09679","name":"Würzburg","type":"Landkreis"},"federalState":{"key":"09","name":"Bayern"}},{"name":"Levi-Strauss-Str.","postalCode":"97232","locality":"Giebelstadt","municipality":{"key":"09679138","name":"Giebelstadt, M","type":"Markt"},"district":{"key":"09679","name":"Würzburg","type":"Landkreis"},"federalState":{"key":"09","name":"Bayern"}},{"name":"Lindenstr.","postalCode":"97232","locality":"Giebelstadt","municipality":{"key":"09679138","name":"Giebelstadt, M","type":"Markt"},"district":{"key":"09679","name":"Würzburg","type":"Landkreis"},"federalState":{"key":"09","name":"Bayern"}},{"name":"Ludwig-Bauer-Str.","postalCode":"97232","locality":"Giebelstadt","municipality":{"key":"09679138","name":"Giebelstadt, M","type":"Markt"},"district":{"key":"09679","name":"Würzburg","type":"Landkreis"},"federalState":{"key":"09","name":"Bayern"}},{"name":"Ludwig-Pfeuffer-Ring","postalCode":"97232","locality":"Giebelstadt","municipality":{"key":"09679138","name":"Giebelstadt, M","type":"Markt"},"district":{"key":"09679","name":"Würzburg","type":"Landkreis"},"federalState":{"key":"09","name":"Bayern"}},{"name":"Marktplatz","postalCode":"97232","locality":"Giebelstadt","municipality":{"key":"09679138","name":"Giebelstadt, M","type":"Markt"},"district":{"key":"09679","name":"Würzburg","type":"Landkreis"},"federalState":{"key":"09","name":"Bayern"}},{"name":"Marktring","postalCode":"97232","locality":"Giebelstadt","municipality":{"key":"09679138","name":"Giebelstadt, M","type":"Markt"},"district":{"key":"09679","name":"Würzburg","type":"Landkreis"},"federalState":{"key":"09","name":"Bayern"}},{"name":"Marktstr.","postalCode":"97232","locality":"Giebelstadt","municipality":{"key":"09679138","name":"Giebelstadt, M","type":"Markt"},"district":{"key":"09679","name":"Würzburg","type":"Landkreis"},"federalState":{"key":"09","name":"Bayern"}},{"name":"Max-Eyth-Str.","postalCode":"97232","locality":"Giebelstadt","municipality":{"key":"09679138","name":"Giebelstadt, M","type":"Markt"},"district":{"key":"09679","name":"Würzburg","type":"Landkreis"},"federalState":{"key":"09","name":"Bayern"}},{"name":"Meisenweg","postalCode":"97232","locality":"Giebelstadt","municipality":{"key":"09679138","name":"Giebelstadt, M","type":"Markt"},"district":{"key":"09679","name":"Würzburg","type":"Landkreis"},"federalState":{"key":"09","name":"Bayern"}},{"name":"Mergentheimer Str.","postalCode":"97232","locality":"Giebelstadt","municipality":{"key":"09679138","name":"Giebelstadt, M","type":"Markt"},"district":{"key":"09679","name":"Würzburg","type":"Landkreis"},"federalState":{"key":"09","name":"Bayern"}},{"name":"Michelsberg","postalCode":"97232","locality":"Giebelstadt","municipality":{"key":"09679138","name":"Giebelstadt, M","type":"Markt"},"district":{"key":"09679","name":"Würzburg","type":"Landkreis"},"federalState":{"key":"09","name":"Bayern"}},{"name":"Mittlere Kirchgasse","postalCode":"97232","locality":"Giebelstadt","municipality":{"key":"09679138","name":"Giebelstadt, M","type":"Markt"},"district":{"key":"09679","name":"Würzburg","type":"Landkreis"},"federalState":{"key":"09","name":"Bayern"}},{"name":"Mooser Weg","postalCode":"97232","locality":"Giebelstadt","municipality":{"key":"09679138","name":"Giebelstadt, M","type":"Markt"},"district":{"key":"09679","name":"Würzburg","type":"Landkreis"},"federalState":{"key":"09","name":"Bayern"}},{"name":"Mozartstr.","postalCode":"97232","locality":"Giebelstadt","municipality":{"key":"09679138","name":"Giebelstadt, M","type":"Markt"},"district":{"key":"09679","name":"Würzburg","type":"Landkreis"},"federalState":{"key":"09","name":"Bayern"}},{"name":"Nelkenstr.","postalCode":"97232","locality":"Giebelstadt","municipality":{"key":"09679138","name":"Giebelstadt, M","type":"Markt"},"district":{"key":"09679","name":"Würzburg","type":"Landkreis"},"federalState":{"key":"09","name":"Bayern"}},{"name":"Neubaustr.","postalCode":"97232","locality":"Giebelstadt","municipality":{"key":"09679138","name":"Giebelstadt, M","type":"Markt"},"district":{"key":"09679","name":"Würzburg","type":"Landkreis"},"federalState":{"key":"09","name":"Bayern"}},{"name":"Neuer Weg","postalCode":"97232","locality":"Giebelstadt","municipality":{"key":"09679138","name":"Giebelstadt, M","type":"Markt"},"district":{"key":"09679","name":"Würzburg","type":"Landkreis"},"federalState":{"key":"09","name":"Bayern"}},{"name":"Nikolaus-Fey-Str.","postalCode":"97232","locality":"Giebelstadt","municipality":{"key":"09679138","name":"Giebelstadt, M","type":"Markt"},"district":{"key":"09679","name":"Würzburg","type":"Landkreis"},"federalState":{"key":"09","name":"Bayern"}},{"name":"Nikolausweg","postalCode":"97232","locality":"Giebelstadt","municipality":{"key":"09679138","name":"Giebelstadt, M","type":"Markt"},"district":{"key":"09679","name":"Würzburg","type":"Landkreis"},"federalState":{"key":"09","name":"Bayern"}},{"name":"Obere Kirchgasse","postalCode":"97232","locality":"Giebelstadt","municipality":{"key":"09679138","name":"Giebelstadt, M","type":"Markt"},"district":{"key":"09679","name":"Würzburg","type":"Landkreis"},"federalState":{"key":"09","name":"Bayern"}},{"name":"Ochsenfurter Str.","postalCode":"97232","locality":"Giebelstadt","municipality":{"key":"09679138","name":"Giebelstadt, M","type":"Markt"},"district":{"key":"09679","name":"Würzburg","type":"Landkreis"},"federalState":{"key":"09","name":"Bayern"}},{"name":"Ostauweg","postalCode":"97232","locality":"Giebelstadt","municipality":{"key":"09679138","name":"Giebelstadt, M","type":"Markt"},"district":{"key":"09679","name":"Würzburg","type":"Landkreis"},"federalState":{"key":"09","name":"Bayern"}},{"name":"Otterstr.","postalCode":"97232","locality":"Giebelstadt","municipality":{"key":"09679138","name":"Giebelstadt, M","type":"Markt"},"district":{"key":"09679","name":"Würzburg","type":"Landkreis"},"federalState":{"key":"09","name":"Bayern"}},{"name":"Pfarrgasse","postalCode":"97232","locality":"Giebelstadt","municipality":{"key":"09679138","name":"Giebelstadt, M","type":"Markt"},"district":{"key":"09679","name":"Würzburg","type":"Landkreis"},"federalState":{"key":"09","name":"Bayern"}},{"name":"Raiffeisenweg","postalCode":"97232","locality":"Giebelstadt","municipality":{"key":"09679138","name":"Giebelstadt, M","type":"Markt"},"district":{"key":"09679","name":"Würzburg","type":"Landkreis"},"federalState":{"key":"09","name":"Bayern"}},{"name":"Riedweg","postalCode":"97232","locality":"Giebelstadt","municipality":{"key":"09679138","name":"Giebelstadt, M","type":"Markt"},"district":{"key":"09679","name":"Würzburg","type":"Landkreis"},"federalState":{"key":"09","name":"Bayern"}},{"name":"Riemenschneiderstr.","postalCode":"97232","locality":"Giebelstadt","municipality":{"key":"09679138","name":"Giebelstadt, M","type":"Markt"},"district":{"key":"09679","name":"Würzburg","type":"Landkreis"},"federalState":{"key":"09","name":"Bayern"}},{"name":"Ringstr.","postalCode":"97232","locality":"Giebelstadt","municipality":{"key":"09679138","name":"Giebelstadt, M","type":"Markt"},"district":{"key":"09679","name":"Würzburg","type":"Landkreis"},"federalState":{"key":"09","name":"Bayern"}},{"name":"Rosengarten","postalCode":"97232","locality":"Giebelstadt","municipality":{"key":"09679138","name":"Giebelstadt, M","type":"Markt"},"district":{"key":"09679","name":"Würzburg","type":"Landkreis"},"federalState":{"key":"09","name":"Bayern"}},{"name":"Rosenweg","postalCode":"97232","locality":"Giebelstadt","municipality":{"key":"09679138","name":"Giebelstadt, M","type":"Markt"},"district":{"key":"09679","name":"Würzburg","type":"Landkreis"},"federalState":{"key":"09","name":"Bayern"}},{"name":"Rührgasse","postalCode":"97232","locality":"Giebelstadt","municipality":{"key":"09679138","name":"Giebelstadt, M","type":"Markt"},"district":{"key":"09679","name":"Würzburg","type":"Landkreis"},"federalState":{"key":"09","name":"Bayern"}},{"name":"Salamanderstr.","postalCode":"97232","locality":"Giebelstadt","municipality":{"key":"09679138","name":"Giebelstadt, M","type":"Markt"},"district":{"key":"09679","name":"Würzburg","type":"Landkreis"},"federalState":{"key":"09","name":"Bayern"}},{"name":"Schillerstr.","postalCode":"97232","locality":"Giebelstadt","municipality":{"key":"09679138","name":"Giebelstadt, M","type":"Markt"},"district":{"key":"09679","name":"Würzburg","type":"Landkreis"},"federalState":{"key":"09","name":"Bayern"}},{"name":"Schleifweg","postalCode":"97232","locality":"Giebelstadt","municipality":{"key":"09679138","name":"Giebelstadt, M","type":"Markt"},"district":{"key":"09679","name":"Würzburg","type":"Landkreis"},"federalState":{"key":"09","name":"Bayern"}},{"name":"Schlesierstr.","postalCode":"97232","locality":"Giebelstadt","municipality":{"key":"09679138","name":"Giebelstadt, M","type":"Markt"},"district":{"key":"09679","name":"Würzburg","type":"Landkreis"},"federalState":{"key":"09","name":"Bayern"}},{"name":"Schloßstr.","postalCode":"97232","locality":"Giebelstadt","municipality":{"key":"09679138","name":"Giebelstadt, M","type":"Markt"},"district":{"key":"09679","name":"Würzburg","type":"Landkreis"},"federalState":{"key":"09","name":"Bayern"}},{"name":"Schulstr.","postalCode":"97232","locality":"Giebelstadt","municipality":{"key":"09679138","name":"Giebelstadt, M","type":"Markt"},"district":{"key":"09679","name":"Würzburg","type":"Landkreis"},"federalState":{"key":"09","name":"Bayern"}},{"name":"Schützenweg","postalCode":"97232","locality":"Giebelstadt","municipality":{"key":"09679138","name":"Giebelstadt, M","type":"Markt"},"district":{"key":"09679","name":"Würzburg","type":"Landkreis"},"federalState":{"key":"09","name":"Bayern"}},{"name":"Schwester-Assumpta-Weg","postalCode":"97232","locality":"Giebelstadt","municipality":{"key":"09679138","name":"Giebelstadt, M","type":"Markt"},"district":{"key":"09679","name":"Würzburg","type":"Landkreis"},"federalState":{"key":"09","name":"Bayern"}},{"name":"Seebachweg","postalCode":"97232","locality":"Giebelstadt","municipality":{"key":"09679138","name":"Giebelstadt, M","type":"Markt"},"district":{"key":"09679","name":"Würzburg","type":"Landkreis"},"federalState":{"key":"09","name":"Bayern"}},{"name":"Seewiese","postalCode":"97232","locality":"Giebelstadt","municipality":{"key":"09679138","name":"Giebelstadt, M","type":"Markt"},"district":{"key":"09679","name":"Würzburg","type":"Landkreis"},"federalState":{"key":"09","name":"Bayern"}},{"name":"Siebenbürgenstr.","postalCode":"97232","locality":"Giebelstadt","municipality":{"key":"09679138","name":"Giebelstadt, M","type":"Markt"},"district":{"key":"09679","name":"Würzburg","type":"Landkreis"},"federalState":{"key":"09","name":"Bayern"}},{"name":"Siedlungsstr.","postalCode":"97232","locality":"Giebelstadt","municipality":{"key":"09679138","name":"Giebelstadt, M","type":"Markt"},"district":{"key":"09679","name":"Würzburg","type":"Landkreis"},"federalState":{"key":"09","name":"Bayern"}},{"name":"Sommerleitenweg","postalCode":"97232","locality":"Giebelstadt","municipality":{"key":"09679138","name":"Giebelstadt, M","type":"Markt"},"district":{"key":"09679","name":"Würzburg","type":"Landkreis"},"federalState":{"key":"09","name":"Bayern"}},{"name":"Spiegelstr.","postalCode":"97232","locality":"Giebelstadt","municipality":{"key":"09679138","name":"Giebelstadt, M","type":"Markt"},"district":{"key":"09679","name":"Würzburg","type":"Landkreis"},"federalState":{"key":"09","name":"Bayern"}},{"name":"Sudetenstr.","postalCode":"97232","locality":"Giebelstadt","municipality":{"key":"09679138","name":"Giebelstadt, M","type":"Markt"},"district":{"key":"09679","name":"Würzburg","type":"Landkreis"},"federalState":{"key":"09","name":"Bayern"}},{"name":"Sulzdorfer Weg","postalCode":"97232","locality":"Giebelstadt","municipality":{"key":"09679138","name":"Giebelstadt, M","type":"Markt"},"district":{"key":"09679","name":"Würzburg","type":"Landkreis"},"federalState":{"key":"09","name":"Bayern"}},{"name":"Thüringer Str.","postalCode":"97232","locality":"Giebelstadt","municipality":{"key":"09679138","name":"Giebelstadt, M","type":"Markt"},"district":{"key":"09679","name":"Würzburg","type":"Landkreis"},"federalState":{"key":"09","name":"Bayern"}},{"name":"Torstr.","postalCode":"97232","locality":"Giebelstadt","municipality":{"key":"09679138","name":"Giebelstadt, M","type":"Markt"},"district":{"key":"09679","name":"Würzburg","type":"Landkreis"},"federalState":{"key":"09","name":"Bayern"}},{"name":"Tulpenstr.","postalCode":"97232","locality":"Giebelstadt","municipality":{"key":"09679138","name":"Giebelstadt, M","type":"Markt"},"district":{"key":"09679","name":"Würzburg","type":"Landkreis"},"federalState":{"key":"09","name":"Bayern"}},{"name":"Untere Kirchgasse","postalCode":"97232","locality":"Giebelstadt","municipality":{"key":"09679138","name":"Giebelstadt, M","type":"Markt"},"district":{"key":"09679","name":"Würzburg","type":"Landkreis"},"federalState":{"key":"09","name":"Bayern"}},{"name":"Vogelstr.","postalCode":"97232","locality":"Giebelstadt","municipality":{"key":"09679138","name":"Giebelstadt, M","type":"Markt"},"district":{"key":"09679","name":"Würzburg","type":"Landkreis"},"federalState":{"key":"09","name":"Bayern"}},{"name":"Von-Zweter-Weg","postalCode":"97232","locality":"Giebelstadt","municipality":{"key":"09679138","name":"Giebelstadt, M","type":"Markt"},"district":{"key":"09679","name":"Würzburg","type":"Landkreis"},"federalState":{"key":"09","name":"Bayern"}},{"name":"Weidenmühle","postalCode":"97232","locality":"Giebelstadt","municipality":{"key":"09679138","name":"Giebelstadt, M","type":"Markt"},"district":{"key":"09679","name":"Würzburg","type":"Landkreis"},"federalState":{"key":"09","name":"Bayern"}},{"name":"Weidenweg","postalCode":"97232","locality":"Giebelstadt","municipality":{"key":"09679138","name":"Giebelstadt, M","type":"Markt"},"district":{"key":"09679","name":"Würzburg","type":"Landkreis"},"federalState":{"key":"09","name":"Bayern"}},{"name":"Weiherweg","postalCode":"97232","locality":"Giebelstadt","municipality":{"key":"09679138","name":"Giebelstadt, M","type":"Markt"},"district":{"key":"09679","name":"Würzburg","type":"Landkreis"},"federalState":{"key":"09","name":"Bayern"}},{"name":"Wiesenweg","postalCode":"97232","locality":"Giebelstadt","municipality":{"key":"09679138","name":"Giebelstadt, M","type":"Markt"},"district":{"key":"09679","name":"Würzburg","type":"Landkreis"},"federalState":{"key":"09","name":"Bayern"}},{"name":"Wolkshäuser Str.","postalCode":"97232","locality":"Giebelstadt","municipality":{"key":"09679138","name":"Giebelstadt, M","type":"Markt"},"district":{"key":"09679","name":"Würzburg","type":"Landkreis"},"federalState":{"key":"09","name":"Bayern"}},{"name":"Würzburger Str.","postalCode":"97232","locality":"Giebelstadt","municipality":{"key":"09679138","name":"Giebelstadt, M","type":"Markt"},"district":{"key":"09679","name":"Würzburg","type":"Landkreis"},"federalState":{"key":"09","name":"Bayern"}},{"name":"Ysenburgstr.","postalCode":"97082","locality":"Würzburg","municipality":{"key":"09663000","name":"Würzburg","type":"Kreisfreie_Stadt"},"district":{"key":"09663","name":"Würzburg","type":"Kreisfreie_Stadt"},"federalState":{"key":"09","name":"Bayern"}},{"name":"Y-Spange","postalCode":"97084","locality":"Würzburg","municipality":{"key":"09663000","name":"Würzburg","type":"Kreisfreie_Stadt"},"district":{"key":"09663","name":"Würzburg","type":"Kreisfreie_Stadt"},"federalState":{"key":"09","name":"Bayern"}},{"name":"Zehntgasse","postalCode":"97084","locality":"Würzburg","municipality":{"key":"09663000","name":"Würzburg","type":"Kreisfreie_Stadt"},"district":{"key":"09663","name":"Würzburg","type":"Kreisfreie_Stadt"},"federalState":{"key":"09","name":"Bayern"}},{"name":"Zehnthofstr.","postalCode":"97080","locality":"Würzburg","municipality":{"key":"09663000","name":"Würzburg","type":"Kreisfreie_Stadt"},"district":{"key":"09663","name":"Würzburg","type":"Kreisfreie_Stadt"},"federalState":{"key":"09","name":"Bayern"}},{"name":"Zellerauer Marktplatz","postalCode":"97082","locality":"Würzburg","municipality":{"key":"09663000","name":"Würzburg","type":"Kreisfreie_Stadt"},"district":{"key":"09663","name":"Würzburg","type":"Kreisfreie_Stadt"},"federalState":{"key":"09","name":"Bayern"}},{"name":"Zeller Str.","postalCode":"97082","locality":"Würzburg","municipality":{"key":"09663000","name":"Würzburg","type":"Kreisfreie_Stadt"},"district":{"key":"09663","name":"Würzburg","type":"Kreisfreie_Stadt"},"federalState":{"key":"09","name":"Bayern"}},{"name":"Zeppelinstr.","postalCode":"97074","locality":"Würzburg","municipality":{"key":"09663000","name":"Würzburg","type":"Kreisfreie_Stadt"},"district":{"key":"09663","name":"Würzburg","type":"Kreisfreie_Stadt"},"federalState":{"key":"09","name":"Bayern"}},{"name":"Ziegelaustr.","postalCode":"97080","locality":"Würzburg","municipality":{"key":"09663000","name":"Würzburg","type":"Kreisfreie_Stadt"},"district":{"key":"09663","name":"Würzburg","type":"Kreisfreie_Stadt"},"federalState":{"key":"09","name":"Bayern"}},{"name":"Ziegelhütte","postalCode":"97080","locality":"Würzburg","municipality":{"key":"09663000","name":"Würzburg","type":"Kreisfreie_Stadt"},"district":{"key":"09663","name":"Würzburg","type":"Kreisfreie_Stadt"},"federalState":{"key":"09","name":"Bayern"}},{"name":"Zindelgasse","postalCode":"97084","locality":"Würzburg","municipality":{"key":"09663000","name":"Würzburg","type":"Kreisfreie_Stadt"},"district":{"key":"09663","name":"Würzburg","type":"Kreisfreie_Stadt"},"federalState":{"key":"09","name":"Bayern"}},{"name":"Zinkhof","postalCode":"97070","locality":"Würzburg","municipality":{"key":"09663000","name":"Würzburg","type":"Kreisfreie_Stadt"},"district":{"key":"09663","name":"Würzburg","type":"Kreisfreie_Stadt"},"federalState":{"key":"09","name":"Bayern"}},{"name":"Zinklesweg","postalCode":"97078","locality":"Würzburg","municipality":{"key":"09663000","name":"Würzburg","type":"Kreisfreie_Stadt"},"district":{"key":"09663","name":"Würzburg","type":"Kreisfreie_Stadt"},"federalState":{"key":"09","name":"Bayern"}},{"name":"Zobelweg","postalCode":"97084","locality":"Würzburg","municipality":{"key":"09663000","name":"Würzburg","type":"Kreisfreie_Stadt"},"district":{"key":"09663","name":"Würzburg","type":"Kreisfreie_Stadt"},"federalState":{"key":"09","name":"Bayern"}},{"name":"Zugang: Marktgarage","postalCode":"97070","locality":"Würzburg","municipality":{"key":"09663000","name":"Würzburg","type":"Kreisfreie_Stadt"},"district":{"key":"09663","name":"Würzburg","type":"Kreisfreie_Stadt"},"federalState":{"key":"09","name":"Bayern"}},{"name":"Zülbsgasse","postalCode":"97084","locality":"Würzburg","municipality":{"key":"09663000","name":"Würzburg","type":"Kreisfreie_Stadt"},"district":{"key":"09663","name":"Würzburg","type":"Kreisfreie_Stadt"},"federalState":{"key":"09","name":"Bayern"}},{"name":"Zum Himmelreich","postalCode":"97084","locality":"Würzburg","municipality":{"key":"09663000","name":"Würzburg","type":"Kreisfreie_Stadt"},"district":{"key":"09663","name":"Würzburg","type":"Kreisfreie_Stadt"},"federalState":{"key":"09","name":"Bayern"}},{"name":"Zum Scheibental","postalCode":"97076","locality":"Würzburg","municipality":{"key":"09663000","name":"Würzburg","type":"Kreisfreie_Stadt"},"district":{"key":"09663","name":"Würzburg","type":"Kreisfreie_Stadt"},"federalState":{"key":"09","name":"Bayern"}},{"name":"Zum Sportplatz","postalCode":"97080","locality":"Würzburg","municipality":{"key":"09663000","name":"Würzburg","type":"Kreisfreie_Stadt"},"district":{"key":"09663","name":"Würzburg","type":"Kreisfreie_Stadt"},"federalState":{"key":"09","name":"Bayern"}},{"name":"Zum Storchenbrünnlein","postalCode":"97084","locality":"Würzburg","municipality":{"key":"09663000","name":"Würzburg","type":"Kreisfreie_Stadt"},"district":{"key":"09663","name":"Würzburg","type":"Kreisfreie_Stadt"},"federalState":{"key":"09","name":"Bayern"}},{"name":"Zum Tännig","postalCode":"97078","locality":"Würzburg","municipality":{"key":"09663000","name":"Würzburg","type":"Kreisfreie_Stadt"},"district":{"key":"09663","name":"Würzburg","type":"Kreisfreie_Stadt"},"federalState":{"key":"09","name":"Bayern"}},{"name":"Zu-Rhein-Str.","postalCode":"97074","locality":"Würzburg","municipality":{"key":"09663000","name":"Würzburg","type":"Kreisfreie_Stadt"},"district":{"key":"09663","name":"Würzburg","type":"Kreisfreie_Stadt"},"federalState":{"key":"09","name":"Bayern"}},{"name":"Zürnstr.","postalCode":"97074","locality":"Würzburg","municipality":{"key":"09663000","name":"Würzburg","type":"Kreisfreie_Stadt"},"district":{"key":"09663","name":"Würzburg","type":"Kreisfreie_Stadt"},"federalState":{"key":"09","name":"Bayern"}},{"name":"zur schönen Aussicht","postalCode":"97082","locality":"Würzburg","municipality":{"key":"09663000","name":"Würzburg","type":"Kreisfreie_Stadt"},"district":{"key":"09663","name":"Würzburg","type":"Kreisfreie_Stadt"},"federalState":{"key":"09","name":"Bayern"}},{"name":"Zur Würzburger Mehle","postalCode":"97084","locality":"Würzburg","municipality":{"key":"09663000","name":"Würzburg","type":"Kreisfreie_Stadt"},"district":{"key":"09663","name":"Würzburg","type":"Kreisfreie_Stadt"},"federalState":{"key":"09","name":"Bayern"}},{"name":"Zweierweg","postalCode":"97074","locality":"Würzburg","municipality":{"key":"09663000","name":"Würzburg","type":"Kreisfreie_Stadt"},"district":{"key":"09663","name":"Würzburg","type":"Kreisfreie_Stadt"},"federalState":{"key":"09","name":"Bayern"}},{"name":"Zweite Felsengasse","postalCode":"97082","locality":"Würzburg","municipality":{"key":"09663000","name":"Würzburg","type":"Kreisfreie_Stadt"},"district":{"key":"09663","name":"Würzburg","type":"Kreisfreie_Stadt"},"federalState":{"key":"09","name":"Bayern"}},{"name":"Zweiter Siedlungsweg","postalCode":"97082","locality":"Würzburg","municipality":{"key":"09663000","name":"Würzburg","type":"Kreisfreie_Stadt"},"district":{"key":"09663","name":"Würzburg","type":"Kreisfreie_Stadt"},"federalState":{"key":"09","name":"Bayern"}},{"name":"Zwerchgraben","postalCode":"97074","locality":"Würzburg","municipality":{"key":"09663000","name":"Würzburg","type":"Kreisfreie_Stadt"},"district":{"key":"09663","name":"Würzburg","type":"Kreisfreie_Stadt"},"federalState":{"key":"09","name":"Bayern"}},{"name":"Zwinger","postalCode":"97070","locality":"Würzburg","municipality":{"key":"09663000","name":"Würzburg","type":"Kreisfreie_Stadt"},"district":{"key":"09663","name":"Würzburg","type":"Kreisfreie_Stadt"},"federalState":{"key":"09","name":"Bayern"}},{"name":"Äußere Aumühlstr.","postalCode":"97076","locality":"Würzburg","municipality":{"key":"09663000","name":"Würzburg","type":"Kreisfreie_Stadt"},"district":{"key":"09663","name":"Würzburg","type":"Kreisfreie_Stadt"},"federalState":{"key":"09","name":"Bayern"}},{"name":"Äußerer Hublandweg","postalCode":"97074","locality":"Würzburg","municipality":{"key":"09663000","name":"Würzburg","type":"Kreisfreie_Stadt"},"district":{"key":"09663","name":"Würzburg","type":"Kreisfreie_Stadt"},"federalState":{"key":"09","name":"Bayern"}},{"name":"Äußerer Neubergweg","postalCode":"97074","locality":"Würzburg","municipality":{"key":"09663000","name":"Würzburg","type":"Kreisfreie_Stadt"},"district":{"key":"09663","name":"Würzburg","type":"Kreisfreie_Stadt"},"federalState":{"key":"09","name":"Bayern"}},{"name":"Äußerer Tränkeweg","postalCode":"97074","locality":"Würzburg","municipality":{"key":"09663000","name":"Würzburg","type":"Kreisfreie_Stadt"},"district":{"key":"09663","name":"Würzburg","type":"Kreisfreie_Stadt"},"federalState":{"key":"09","name":"Bayern"}},{"name":"Öhlberg","postalCode":"97080","locality":"Würzburg","municipality":{"key":"09663000","name":"Würzburg","type":"Kreisfreie_Stadt"},"district":{"key":"09663","name":"Würzburg","type":"Kreisfreie_Stadt"},"federalState":{"key":"09","name":"Bayern"}},]