[{"name":"10th Avenue","postalCode":"67661","locality":"Kaiserslautern","municipality":{"key":"07312000","name":"Kaiserslautern, Stadt","type":"Kreisfreie_Stadt"},"district":{"key":"07312","name":"Kaiserslautern, kreisfreie Stadt","type":"Kreisfreie_Stadt"},"federalState":{"key":"07","name":"Rheinland-Pfalz"}},{"name":"5th Avenue","postalCode":"67661","locality":"Kaiserslautern","municipality":{"key":"07312000","name":"Kaiserslautern, Stadt","type":"Kreisfreie_Stadt"},"district":{"key":"07312","name":"Kaiserslautern, kreisfreie Stadt","type":"Kreisfreie_Stadt"},"federalState":{"key":"07","name":"Rheinland-Pfalz"}},{"name":"6th Avenue","postalCode":"67661","locality":"Kaiserslautern","municipality":{"key":"07312000","name":"Kaiserslautern, Stadt","type":"Kreisfreie_Stadt"},"district":{"key":"07312","name":"Kaiserslautern, kreisfreie Stadt","type":"Kreisfreie_Stadt"},"federalState":{"key":"07","name":"Rheinland-Pfalz"}},{"name":"Am Fahrenbühl","postalCode":"66862","locality":"Kindsbach","municipality":{"key":"07335018","name":"Kindsbach","type":"Kreisangehörige_Gemeinde"},"district":{"key":"07335","name":"Kaiserslautern","type":"Landkreis"},"federalState":{"key":"07","name":"Rheinland-Pfalz"}},{"name":"Am Kindsberg","postalCode":"66862","locality":"Kindsbach","municipality":{"key":"07335018","name":"Kindsbach","type":"Kreisangehörige_Gemeinde"},"district":{"key":"07335","name":"Kaiserslautern","type":"Landkreis"},"federalState":{"key":"07","name":"Rheinland-Pfalz"}},{"name":"Am Kirchhübel","postalCode":"66862","locality":"Kindsbach","municipality":{"key":"07335018","name":"Kindsbach","type":"Kreisangehörige_Gemeinde"},"district":{"key":"07335","name":"Kaiserslautern","type":"Landkreis"},"federalState":{"key":"07","name":"Rheinland-Pfalz"}},{"name":"Am Mühlwald","postalCode":"66862","locality":"Kindsbach","municipality":{"key":"07335018","name":"Kindsbach","type":"Kreisangehörige_Gemeinde"},"district":{"key":"07335","name":"Kaiserslautern","type":"Landkreis"},"federalState":{"key":"07","name":"Rheinland-Pfalz"}},{"name":"Am Roßgarten","postalCode":"66862","locality":"Kindsbach","municipality":{"key":"07335018","name":"Kindsbach","type":"Kreisangehörige_Gemeinde"},"district":{"key":"07335","name":"Kaiserslautern","type":"Landkreis"},"federalState":{"key":"07","name":"Rheinland-Pfalz"}},{"name":"Am Wingertshübel","postalCode":"66862","locality":"Kindsbach","municipality":{"key":"07335018","name":"Kindsbach","type":"Kreisangehörige_Gemeinde"},"district":{"key":"07335","name":"Kaiserslautern","type":"Landkreis"},"federalState":{"key":"07","name":"Rheinland-Pfalz"}},{"name":"Austeg","postalCode":"66862","locality":"Kindsbach","municipality":{"key":"07335018","name":"Kindsbach","type":"Kreisangehörige_Gemeinde"},"district":{"key":"07335","name":"Kaiserslautern","type":"Landkreis"},"federalState":{"key":"07","name":"Rheinland-Pfalz"}},{"name":"Bärendellstr.","postalCode":"66862","locality":"Kindsbach","municipality":{"key":"07335018","name":"Kindsbach","type":"Kreisangehörige_Gemeinde"},"district":{"key":"07335","name":"Kaiserslautern","type":"Landkreis"},"federalState":{"key":"07","name":"Rheinland-Pfalz"}},{"name":"Beethovenstr.","postalCode":"66862","locality":"Kindsbach","municipality":{"key":"07335018","name":"Kindsbach","type":"Kreisangehörige_Gemeinde"},"district":{"key":"07335","name":"Kaiserslautern","type":"Landkreis"},"federalState":{"key":"07","name":"Rheinland-Pfalz"}},{"name":"Breslauer Str.","postalCode":"66862","locality":"Kindsbach","municipality":{"key":"07335018","name":"Kindsbach","type":"Kreisangehörige_Gemeinde"},"district":{"key":"07335","name":"Kaiserslautern","type":"Landkreis"},"federalState":{"key":"07","name":"Rheinland-Pfalz"}},{"name":"California Avenue","postalCode":"67661","locality":"Kaiserslautern","municipality":{"key":"07312000","name":"Kaiserslautern, Stadt","type":"Kreisfreie_Stadt"},"district":{"key":"07312","name":"Kaiserslautern, kreisfreie Stadt","type":"Kreisfreie_Stadt"},"federalState":{"key":"07","name":"Rheinland-Pfalz"}},{"name":"Carl-Billand-Str.","postalCode":"67661","locality":"Kaiserslautern","municipality":{"key":"07312000","name":"Kaiserslautern, Stadt","type":"Kreisfreie_Stadt"},"district":{"key":"07312","name":"Kaiserslautern, kreisfreie Stadt","type":"Kreisfreie_Stadt"},"federalState":{"key":"07","name":"Rheinland-Pfalz"}},{"name":"Carl-Diem-Str.","postalCode":"67659","locality":"Kaiserslautern","municipality":{"key":"07312000","name":"Kaiserslautern, Stadt","type":"Kreisfreie_Stadt"},"district":{"key":"07312","name":"Kaiserslautern, kreisfreie Stadt","type":"Kreisfreie_Stadt"},"federalState":{"key":"07","name":"Rheinland-Pfalz"}},{"name":"Carl-Euler-Str.","postalCode":"67663","locality":"Kaiserslautern","municipality":{"key":"07312000","name":"Kaiserslautern, Stadt","type":"Kreisfreie_Stadt"},"district":{"key":"07312","name":"Kaiserslautern, kreisfreie Stadt","type":"Kreisfreie_Stadt"},"federalState":{"key":"07","name":"Rheinland-Pfalz"}},{"name":"Carl-F.-Benz-Str.","postalCode":"67657","locality":"Kaiserslautern","municipality":{"key":"07312000","name":"Kaiserslautern, Stadt","type":"Kreisfreie_Stadt"},"district":{"key":"07312","name":"Kaiserslautern, kreisfreie Stadt","type":"Kreisfreie_Stadt"},"federalState":{"key":"07","name":"Rheinland-Pfalz"}},{"name":"Carl-Jacob-Str.","postalCode":"67659","locality":"Kaiserslautern","municipality":{"key":"07312000","name":"Kaiserslautern, Stadt","type":"Kreisfreie_Stadt"},"district":{"key":"07312","name":"Kaiserslautern, kreisfreie Stadt","type":"Kreisfreie_Stadt"},"federalState":{"key":"07","name":"Rheinland-Pfalz"}},{"name":"Carlo-Schmid-Str.","postalCode":"67663","locality":"Kaiserslautern","municipality":{"key":"07312000","name":"Kaiserslautern, Stadt","type":"Kreisfreie_Stadt"},"district":{"key":"07312","name":"Kaiserslautern, kreisfreie Stadt","type":"Kreisfreie_Stadt"},"federalState":{"key":"07","name":"Rheinland-Pfalz"}},{"name":"Carl-Reichert-Str.","postalCode":"67655","locality":"Kaiserslautern","municipality":{"key":"07312000","name":"Kaiserslautern, Stadt","type":"Kreisfreie_Stadt"},"district":{"key":"07312","name":"Kaiserslautern, kreisfreie Stadt","type":"Kreisfreie_Stadt"},"federalState":{"key":"07","name":"Rheinland-Pfalz"}},{"name":"Carl-Schurz-Str.","postalCode":"67659","locality":"Kaiserslautern","municipality":{"key":"07312000","name":"Kaiserslautern, Stadt","type":"Kreisfreie_Stadt"},"district":{"key":"07312","name":"Kaiserslautern, kreisfreie Stadt","type":"Kreisfreie_Stadt"},"federalState":{"key":"07","name":"Rheinland-Pfalz"}},{"name":"Carl-Sonnenschein-Str.","postalCode":"67663","locality":"Kaiserslautern","municipality":{"key":"07312000","name":"Kaiserslautern, Stadt","type":"Kreisfreie_Stadt"},"district":{"key":"07312","name":"Kaiserslautern, kreisfreie Stadt","type":"Kreisfreie_Stadt"},"federalState":{"key":"07","name":"Rheinland-Pfalz"}},{"name":"Carmerstr.","postalCode":"67661","locality":"Kaiserslautern","municipality":{"key":"07312000","name":"Kaiserslautern, Stadt","type":"Kreisfreie_Stadt"},"district":{"key":"07312","name":"Kaiserslautern, kreisfreie Stadt","type":"Kreisfreie_Stadt"},"federalState":{"key":"07","name":"Rheinland-Pfalz"}},{"name":"Carola-Dauber-Str.","postalCode":"67663","locality":"Kaiserslautern","municipality":{"key":"07312000","name":"Kaiserslautern, Stadt","type":"Kreisfreie_Stadt"},"district":{"key":"07312","name":"Kaiserslautern, kreisfreie Stadt","type":"Kreisfreie_Stadt"},"federalState":{"key":"07","name":"Rheinland-Pfalz"}},{"name":"Carolina Avenue","postalCode":"67661","locality":"Kaiserslautern","municipality":{"key":"07312000","name":"Kaiserslautern, Stadt","type":"Kreisfreie_Stadt"},"district":{"key":"07312","name":"Kaiserslautern, kreisfreie Stadt","type":"Kreisfreie_Stadt"},"federalState":{"key":"07","name":"Rheinland-Pfalz"}},{"name":"Casimirring","postalCode":"67663","locality":"Kaiserslautern","municipality":{"key":"07312000","name":"Kaiserslautern, Stadt","type":"Kreisfreie_Stadt"},"district":{"key":"07312","name":"Kaiserslautern, kreisfreie Stadt","type":"Kreisfreie_Stadt"},"federalState":{"key":"07","name":"Rheinland-Pfalz"}},{"name":"Clara-Immerwahr-Str.","postalCode":"67661","locality":"Kaiserslautern","municipality":{"key":"07312000","name":"Kaiserslautern, Stadt","type":"Kreisfreie_Stadt"},"district":{"key":"07312","name":"Kaiserslautern, kreisfreie Stadt","type":"Kreisfreie_Stadt"},"federalState":{"key":"07","name":"Rheinland-Pfalz"}},{"name":"Colorado Avenue","postalCode":"67661","locality":"Kaiserslautern","municipality":{"key":"07312000","name":"Kaiserslautern, Stadt","type":"Kreisfreie_Stadt"},"district":{"key":"07312","name":"Kaiserslautern, kreisfreie Stadt","type":"Kreisfreie_Stadt"},"federalState":{"key":"07","name":"Rheinland-Pfalz"}},{"name":"Columbia-Str.","postalCode":"67663","locality":"Kaiserslautern","municipality":{"key":"07312000","name":"Kaiserslautern, Stadt","type":"Kreisfreie_Stadt"},"district":{"key":"07312","name":"Kaiserslautern, kreisfreie Stadt","type":"Kreisfreie_Stadt"},"federalState":{"key":"07","name":"Rheinland-Pfalz"}},{"name":"Connecticut Avenue","postalCode":"67661","locality":"Kaiserslautern","municipality":{"key":"07312000","name":"Kaiserslautern, Stadt","type":"Kreisfreie_Stadt"},"district":{"key":"07312","name":"Kaiserslautern, kreisfreie Stadt","type":"Kreisfreie_Stadt"},"federalState":{"key":"07","name":"Rheinland-Pfalz"}},{"name":"Conradstr.","postalCode":"67655","locality":"Kaiserslautern","municipality":{"key":"07312000","name":"Kaiserslautern, Stadt","type":"Kreisfreie_Stadt"},"district":{"key":"07312","name":"Kaiserslautern, kreisfreie Stadt","type":"Kreisfreie_Stadt"},"federalState":{"key":"07","name":"Rheinland-Pfalz"}},{"name":"Cusanusstr.","postalCode":"67663","locality":"Kaiserslautern","municipality":{"key":"07312000","name":"Kaiserslautern, Stadt","type":"Kreisfreie_Stadt"},"district":{"key":"07312","name":"Kaiserslautern, kreisfreie Stadt","type":"Kreisfreie_Stadt"},"federalState":{"key":"07","name":"Rheinland-Pfalz"}},{"name":"Dämmchenweg","postalCode":"66862","locality":"Kindsbach","municipality":{"key":"07335018","name":"Kindsbach","type":"Kreisangehörige_Gemeinde"},"district":{"key":"07335","name":"Kaiserslautern","type":"Landkreis"},"federalState":{"key":"07","name":"Rheinland-Pfalz"}},{"name":"Danziger Str.","postalCode":"66862","locality":"Kindsbach","municipality":{"key":"07335018","name":"Kindsbach","type":"Kreisangehörige_Gemeinde"},"district":{"key":"07335","name":"Kaiserslautern","type":"Landkreis"},"federalState":{"key":"07","name":"Rheinland-Pfalz"}},{"name":"Dorfplatz","postalCode":"66862","locality":"Kindsbach","municipality":{"key":"07335018","name":"Kindsbach","type":"Kreisangehörige_Gemeinde"},"district":{"key":"07335","name":"Kaiserslautern","type":"Landkreis"},"federalState":{"key":"07","name":"Rheinland-Pfalz"}},{"name":"Eisenbahnstr.","postalCode":"66862","locality":"Kindsbach","municipality":{"key":"07335018","name":"Kindsbach","type":"Kreisangehörige_Gemeinde"},"district":{"key":"07335","name":"Kaiserslautern","type":"Landkreis"},"federalState":{"key":"07","name":"Rheinland-Pfalz"}},{"name":"Friedhofstr.","postalCode":"66862","locality":"Kindsbach","municipality":{"key":"07335018","name":"Kindsbach","type":"Kreisangehörige_Gemeinde"},"district":{"key":"07335","name":"Kaiserslautern","type":"Landkreis"},"federalState":{"key":"07","name":"Rheinland-Pfalz"}},{"name":"Gartenstr.","postalCode":"66862","locality":"Kindsbach","municipality":{"key":"07335018","name":"Kindsbach","type":"Kreisangehörige_Gemeinde"},"district":{"key":"07335","name":"Kaiserslautern","type":"Landkreis"},"federalState":{"key":"07","name":"Rheinland-Pfalz"}},{"name":"Gasstr.","postalCode":"66862","locality":"Kindsbach","municipality":{"key":"07335018","name":"Kindsbach","type":"Kreisangehörige_Gemeinde"},"district":{"key":"07335","name":"Kaiserslautern","type":"Landkreis"},"federalState":{"key":"07","name":"Rheinland-Pfalz"}},{"name":"Hanfstr.","postalCode":"66862","locality":"Kindsbach","municipality":{"key":"07335018","name":"Kindsbach","type":"Kreisangehörige_Gemeinde"},"district":{"key":"07335","name":"Kaiserslautern","type":"Landkreis"},"federalState":{"key":"07","name":"Rheinland-Pfalz"}},{"name":"Haydnstr.","postalCode":"66862","locality":"Kindsbach","municipality":{"key":"07335018","name":"Kindsbach","type":"Kreisangehörige_Gemeinde"},"district":{"key":"07335","name":"Kaiserslautern","type":"Landkreis"},"federalState":{"key":"07","name":"Rheinland-Pfalz"}},{"name":"Hirtenpfad","postalCode":"66862","locality":"Kindsbach","municipality":{"key":"07335018","name":"Kindsbach","type":"Kreisangehörige_Gemeinde"},"district":{"key":"07335","name":"Kaiserslautern","type":"Landkreis"},"federalState":{"key":"07","name":"Rheinland-Pfalz"}},{"name":"Hopfengärten","postalCode":"66862","locality":"Kindsbach","municipality":{"key":"07335018","name":"Kindsbach","type":"Kreisangehörige_Gemeinde"},"district":{"key":"07335","name":"Kaiserslautern","type":"Landkreis"},"federalState":{"key":"07","name":"Rheinland-Pfalz"}},{"name":"Hörnchenstr.","postalCode":"66862","locality":"Kindsbach","municipality":{"key":"07335018","name":"Kindsbach","type":"Kreisangehörige_Gemeinde"},"district":{"key":"07335","name":"Kaiserslautern","type":"Landkreis"},"federalState":{"key":"07","name":"Rheinland-Pfalz"}},{"name":"Im Fellwoog","postalCode":"66862","locality":"Kindsbach","municipality":{"key":"07335018","name":"Kindsbach","type":"Kreisangehörige_Gemeinde"},"district":{"key":"07335","name":"Kaiserslautern","type":"Landkreis"},"federalState":{"key":"07","name":"Rheinland-Pfalz"}},{"name":"Im Kandeltal","postalCode":"66862","locality":"Kindsbach","municipality":{"key":"07335018","name":"Kindsbach","type":"Kreisangehörige_Gemeinde"},"district":{"key":"07335","name":"Kaiserslautern","type":"Landkreis"},"federalState":{"key":"07","name":"Rheinland-Pfalz"}},{"name":"Im Schindelacker","postalCode":"66862","locality":"Kindsbach","municipality":{"key":"07335018","name":"Kindsbach","type":"Kreisangehörige_Gemeinde"},"district":{"key":"07335","name":"Kaiserslautern","type":"Landkreis"},"federalState":{"key":"07","name":"Rheinland-Pfalz"}},{"name":"Im Stockwoog","postalCode":"66862","locality":"Kindsbach","municipality":{"key":"07335018","name":"Kindsbach","type":"Kreisangehörige_Gemeinde"},"district":{"key":"07335","name":"Kaiserslautern","type":"Landkreis"},"federalState":{"key":"07","name":"Rheinland-Pfalz"}},{"name":"In den Erlenwiesen","postalCode":"66862","locality":"Kindsbach","municipality":{"key":"07335018","name":"Kindsbach","type":"Kreisangehörige_Gemeinde"},"district":{"key":"07335","name":"Kaiserslautern","type":"Landkreis"},"federalState":{"key":"07","name":"Rheinland-Pfalz"}},{"name":"Industriestr.","postalCode":"66862","locality":"Kindsbach","municipality":{"key":"07335018","name":"Kindsbach","type":"Kreisangehörige_Gemeinde"},"district":{"key":"07335","name":"Kaiserslautern","type":"Landkreis"},"federalState":{"key":"07","name":"Rheinland-Pfalz"}},{"name":"Jacob Diehl Str.","postalCode":"67659","locality":"Kaiserslautern","municipality":{"key":"07312000","name":"Kaiserslautern, Stadt","type":"Kreisfreie_Stadt"},"district":{"key":"07312","name":"Kaiserslautern, kreisfreie Stadt","type":"Kreisfreie_Stadt"},"federalState":{"key":"07","name":"Rheinland-Pfalz"}},{"name":"Jacob-Pfeiffer-Str.","postalCode":"67661","locality":"Kaiserslautern","municipality":{"key":"07312000","name":"Kaiserslautern, Stadt","type":"Kreisfreie_Stadt"},"district":{"key":"07312","name":"Kaiserslautern, kreisfreie Stadt","type":"Kreisfreie_Stadt"},"federalState":{"key":"07","name":"Rheinland-Pfalz"}},{"name":"Jacobstr.","postalCode":"67655","locality":"Kaiserslautern","municipality":{"key":"07312000","name":"Kaiserslautern, Stadt","type":"Kreisfreie_Stadt"},"district":{"key":"07312","name":"Kaiserslautern, kreisfreie Stadt","type":"Kreisfreie_Stadt"},"federalState":{"key":"07","name":"Rheinland-Pfalz"}},{"name":"Jägerstr.","postalCode":"67655","locality":"Kaiserslautern","municipality":{"key":"07312000","name":"Kaiserslautern, Stadt","type":"Kreisfreie_Stadt"},"district":{"key":"07312","name":"Kaiserslautern, kreisfreie Stadt","type":"Kreisfreie_Stadt"},"federalState":{"key":"07","name":"Rheinland-Pfalz"}},{"name":"Jahnstr.","postalCode":"67659","locality":"Kaiserslautern","municipality":{"key":"07312000","name":"Kaiserslautern, Stadt","type":"Kreisfreie_Stadt"},"district":{"key":"07312","name":"Kaiserslautern, kreisfreie Stadt","type":"Kreisfreie_Stadt"},"federalState":{"key":"07","name":"Rheinland-Pfalz"}},{"name":"Jakob-Blenk-Str.","postalCode":"67659","locality":"Kaiserslautern","municipality":{"key":"07312000","name":"Kaiserslautern, Stadt","type":"Kreisfreie_Stadt"},"district":{"key":"07312","name":"Kaiserslautern, kreisfreie Stadt","type":"Kreisfreie_Stadt"},"federalState":{"key":"07","name":"Rheinland-Pfalz"}},{"name":"Japanischer Garten","postalCode":"67657","locality":"Kaiserslautern","municipality":{"key":"07312000","name":"Kaiserslautern, Stadt","type":"Kreisfreie_Stadt"},"district":{"key":"07312","name":"Kaiserslautern, kreisfreie Stadt","type":"Kreisfreie_Stadt"},"federalState":{"key":"07","name":"Rheinland-Pfalz"}},{"name":"Jean-Schoen-Park","postalCode":"67659","locality":"Kaiserslautern","municipality":{"key":"07312000","name":"Kaiserslautern, Stadt","type":"Kreisfreie_Stadt"},"district":{"key":"07312","name":"Kaiserslautern, kreisfreie Stadt","type":"Kreisfreie_Stadt"},"federalState":{"key":"07","name":"Rheinland-Pfalz"}},{"name":"Jenaer Str.","postalCode":"67663","locality":"Kaiserslautern","municipality":{"key":"07312000","name":"Kaiserslautern, Stadt","type":"Kreisfreie_Stadt"},"district":{"key":"07312","name":"Kaiserslautern, kreisfreie Stadt","type":"Kreisfreie_Stadt"},"federalState":{"key":"07","name":"Rheinland-Pfalz"}},{"name":"Johanniskreuzer Str.","postalCode":"67661","locality":"Kaiserslautern","municipality":{"key":"07312000","name":"Kaiserslautern, Stadt","type":"Kreisfreie_Stadt"},"district":{"key":"07312","name":"Kaiserslautern, kreisfreie Stadt","type":"Kreisfreie_Stadt"},"federalState":{"key":"07","name":"Rheinland-Pfalz"}},{"name":"Josefstr.","postalCode":"67655","locality":"Kaiserslautern","municipality":{"key":"07312000","name":"Kaiserslautern, Stadt","type":"Kreisfreie_Stadt"},"district":{"key":"07312","name":"Kaiserslautern, kreisfreie Stadt","type":"Kreisfreie_Stadt"},"federalState":{"key":"07","name":"Rheinland-Pfalz"}},{"name":"Joseph-Neumayer-Str.","postalCode":"67657","locality":"Kaiserslautern","municipality":{"key":"07312000","name":"Kaiserslautern, Stadt","type":"Kreisfreie_Stadt"},"district":{"key":"07312","name":"Kaiserslautern, kreisfreie Stadt","type":"Kreisfreie_Stadt"},"federalState":{"key":"07","name":"Rheinland-Pfalz"}},{"name":"Julius-Gravius-Weg","postalCode":"67657","locality":"Kaiserslautern","municipality":{"key":"07312000","name":"Kaiserslautern, Stadt","type":"Kreisfreie_Stadt"},"district":{"key":"07312","name":"Kaiserslautern, kreisfreie Stadt","type":"Kreisfreie_Stadt"},"federalState":{"key":"07","name":"Rheinland-Pfalz"}},{"name":"Julius-Krieger-Str.","postalCode":"67659","locality":"Kaiserslautern","municipality":{"key":"07312000","name":"Kaiserslautern, Stadt","type":"Kreisfreie_Stadt"},"district":{"key":"07312","name":"Kaiserslautern, kreisfreie Stadt","type":"Kreisfreie_Stadt"},"federalState":{"key":"07","name":"Rheinland-Pfalz"}},{"name":"Julius-Küchler-Str.","postalCode":"67659","locality":"Kaiserslautern","municipality":{"key":"07312000","name":"Kaiserslautern, Stadt","type":"Kreisfreie_Stadt"},"district":{"key":"07312","name":"Kaiserslautern, kreisfreie Stadt","type":"Kreisfreie_Stadt"},"federalState":{"key":"07","name":"Rheinland-Pfalz"}},{"name":"Jung-Stilling-Str.","postalCode":"67663","locality":"Kaiserslautern","municipality":{"key":"07312000","name":"Kaiserslautern, Stadt","type":"Kreisfreie_Stadt"},"district":{"key":"07312","name":"Kaiserslautern, kreisfreie Stadt","type":"Kreisfreie_Stadt"},"federalState":{"key":"07","name":"Rheinland-Pfalz"}},{"name":"Kaiserstr.","postalCode":"66862","locality":"Kindsbach","municipality":{"key":"07335018","name":"Kindsbach","type":"Kreisangehörige_Gemeinde"},"district":{"key":"07335","name":"Kaiserslautern","type":"Landkreis"},"federalState":{"key":"07","name":"Rheinland-Pfalz"}},{"name":"Kandeltalerweg","postalCode":"66862","locality":"Kindsbach","municipality":{"key":"07335018","name":"Kindsbach","type":"Kreisangehörige_Gemeinde"},"district":{"key":"07335","name":"Kaiserslautern","type":"Landkreis"},"federalState":{"key":"07","name":"Rheinland-Pfalz"}},{"name":"Kolpingstr.","postalCode":"66862","locality":"Kindsbach","municipality":{"key":"07335018","name":"Kindsbach","type":"Kreisangehörige_Gemeinde"},"district":{"key":"07335","name":"Kaiserslautern","type":"Landkreis"},"federalState":{"key":"07","name":"Rheinland-Pfalz"}},{"name":"Kreuzstr.","postalCode":"66862","locality":"Kindsbach","municipality":{"key":"07335018","name":"Kindsbach","type":"Kreisangehörige_Gemeinde"},"district":{"key":"07335","name":"Kaiserslautern","type":"Landkreis"},"federalState":{"key":"07","name":"Rheinland-Pfalz"}},{"name":"Ludwig-Mohrbacher-Str.","postalCode":"66862","locality":"Kindsbach","municipality":{"key":"07335018","name":"Kindsbach","type":"Kreisangehörige_Gemeinde"},"district":{"key":"07335","name":"Kaiserslautern","type":"Landkreis"},"federalState":{"key":"07","name":"Rheinland-Pfalz"}},{"name":"Marktstr.","postalCode":"66862","locality":"Kindsbach","municipality":{"key":"07335018","name":"Kindsbach","type":"Kreisangehörige_Gemeinde"},"district":{"key":"07335","name":"Kaiserslautern","type":"Landkreis"},"federalState":{"key":"07","name":"Rheinland-Pfalz"}},{"name":"Mozartstr.","postalCode":"66862","locality":"Kindsbach","municipality":{"key":"07335018","name":"Kindsbach","type":"Kreisangehörige_Gemeinde"},"district":{"key":"07335","name":"Kaiserslautern","type":"Landkreis"},"federalState":{"key":"07","name":"Rheinland-Pfalz"}},{"name":"Mühlweg","postalCode":"66862","locality":"Kindsbach","municipality":{"key":"07335018","name":"Kindsbach","type":"Kreisangehörige_Gemeinde"},"district":{"key":"07335","name":"Kaiserslautern","type":"Landkreis"},"federalState":{"key":"07","name":"Rheinland-Pfalz"}},{"name":"Nadelstr.","postalCode":"67655","locality":"Kaiserslautern","municipality":{"key":"07312000","name":"Kaiserslautern, Stadt","type":"Kreisfreie_Stadt"},"district":{"key":"07312","name":"Kaiserslautern, kreisfreie Stadt","type":"Kreisfreie_Stadt"},"federalState":{"key":"07","name":"Rheinland-Pfalz"}},{"name":"Naumburger Str.","postalCode":"67663","locality":"Kaiserslautern","municipality":{"key":"07312000","name":"Kaiserslautern, Stadt","type":"Kreisfreie_Stadt"},"district":{"key":"07312","name":"Kaiserslautern, kreisfreie Stadt","type":"Kreisfreie_Stadt"},"federalState":{"key":"07","name":"Rheinland-Pfalz"}},{"name":"Nelkenstr.","postalCode":"67659","locality":"Kaiserslautern","municipality":{"key":"07312000","name":"Kaiserslautern, Stadt","type":"Kreisfreie_Stadt"},"district":{"key":"07312","name":"Kaiserslautern, kreisfreie Stadt","type":"Kreisfreie_Stadt"},"federalState":{"key":"07","name":"Rheinland-Pfalz"}},{"name":"Neue Str.","postalCode":"67659","locality":"Kaiserslautern","municipality":{"key":"07312000","name":"Kaiserslautern, Stadt","type":"Kreisfreie_Stadt"},"district":{"key":"07312","name":"Kaiserslautern, kreisfreie Stadt","type":"Kreisfreie_Stadt"},"federalState":{"key":"07","name":"Rheinland-Pfalz"}},{"name":"Newhamstr.","postalCode":"67663","locality":"Kaiserslautern","municipality":{"key":"07312000","name":"Kaiserslautern, Stadt","type":"Kreisfreie_Stadt"},"district":{"key":"07312","name":"Kaiserslautern, kreisfreie Stadt","type":"Kreisfreie_Stadt"},"federalState":{"key":"07","name":"Rheinland-Pfalz"}},{"name":"Nordbahnstr.","postalCode":"67657","locality":"Kaiserslautern","municipality":{"key":"07312000","name":"Kaiserslautern, Stadt","type":"Kreisfreie_Stadt"},"district":{"key":"07312","name":"Kaiserslautern, kreisfreie Stadt","type":"Kreisfreie_Stadt"},"federalState":{"key":"07","name":"Rheinland-Pfalz"}},{"name":"Obere Triftstr.","postalCode":"66862","locality":"Kindsbach","municipality":{"key":"07335018","name":"Kindsbach","type":"Kreisangehörige_Gemeinde"},"district":{"key":"07335","name":"Kaiserslautern","type":"Landkreis"},"federalState":{"key":"07","name":"Rheinland-Pfalz"}},{"name":"Papiermühlstr.","postalCode":"67655","locality":"Kaiserslautern","municipality":{"key":"07312000","name":"Kaiserslautern, Stadt","type":"Kreisfreie_Stadt"},"district":{"key":"07312","name":"Kaiserslautern, kreisfreie Stadt","type":"Kreisfreie_Stadt"},"federalState":{"key":"07","name":"Rheinland-Pfalz"}},{"name":"Pariser Str.","postalCode":"67655","locality":"Kaiserslautern","municipality":{"key":"07312000","name":"Kaiserslautern, Stadt","type":"Kreisfreie_Stadt"},"district":{"key":"07312","name":"Kaiserslautern, kreisfreie Stadt","type":"Kreisfreie_Stadt"},"federalState":{"key":"07","name":"Rheinland-Pfalz"}},{"name":"Pariser Str.","postalCode":"67659","locality":"Kaiserslautern","municipality":{"key":"07312000","name":"Kaiserslautern, Stadt","type":"Kreisfreie_Stadt"},"district":{"key":"07312","name":"Kaiserslautern, kreisfreie Stadt","type":"Kreisfreie_Stadt"},"federalState":{"key":"07","name":"Rheinland-Pfalz"}},{"name":"Pariser Str.","postalCode":"67661","locality":"Kaiserslautern","municipality":{"key":"07312000","name":"Kaiserslautern, Stadt","type":"Kreisfreie_Stadt"},"district":{"key":"07312","name":"Kaiserslautern, kreisfreie Stadt","type":"Kreisfreie_Stadt"},"federalState":{"key":"07","name":"Rheinland-Pfalz"}},{"name":"Pariser Str.","postalCode":"67663","locality":"Kaiserslautern","municipality":{"key":"07312000","name":"Kaiserslautern, Stadt","type":"Kreisfreie_Stadt"},"district":{"key":"07312","name":"Kaiserslautern, kreisfreie Stadt","type":"Kreisfreie_Stadt"},"federalState":{"key":"07","name":"Rheinland-Pfalz"}},{"name":"Parkstr.","postalCode":"67655","locality":"Kaiserslautern","municipality":{"key":"07312000","name":"Kaiserslautern, Stadt","type":"Kreisfreie_Stadt"},"district":{"key":"07312","name":"Kaiserslautern, kreisfreie Stadt","type":"Kreisfreie_Stadt"},"federalState":{"key":"07","name":"Rheinland-Pfalz"}},{"name":"Pascalstr.","postalCode":"67663","locality":"Kaiserslautern","municipality":{"key":"07312000","name":"Kaiserslautern, Stadt","type":"Kreisfreie_Stadt"},"district":{"key":"07312","name":"Kaiserslautern, kreisfreie Stadt","type":"Kreisfreie_Stadt"},"federalState":{"key":"07","name":"Rheinland-Pfalz"}},{"name":"Passage B","postalCode":"67655","locality":"Kaiserslautern","municipality":{"key":"07312000","name":"Kaiserslautern, Stadt","type":"Kreisfreie_Stadt"},"district":{"key":"07312","name":"Kaiserslautern, kreisfreie Stadt","type":"Kreisfreie_Stadt"},"federalState":{"key":"07","name":"Rheinland-Pfalz"}},{"name":"Paul-Ehrlich-Str.","postalCode":"67663","locality":"Kaiserslautern","municipality":{"key":"07312000","name":"Kaiserslautern, Stadt","type":"Kreisfreie_Stadt"},"district":{"key":"07312","name":"Kaiserslautern, kreisfreie Stadt","type":"Kreisfreie_Stadt"},"federalState":{"key":"07","name":"Rheinland-Pfalz"}},{"name":"Paul-Münch-Str.","postalCode":"67663","locality":"Kaiserslautern","municipality":{"key":"07312000","name":"Kaiserslautern, Stadt","type":"Kreisfreie_Stadt"},"district":{"key":"07312","name":"Kaiserslautern, kreisfreie Stadt","type":"Kreisfreie_Stadt"},"federalState":{"key":"07","name":"Rheinland-Pfalz"}},{"name":"Paulstr.","postalCode":"67655","locality":"Kaiserslautern","municipality":{"key":"07312000","name":"Kaiserslautern, Stadt","type":"Kreisfreie_Stadt"},"district":{"key":"07312","name":"Kaiserslautern, kreisfreie Stadt","type":"Kreisfreie_Stadt"},"federalState":{"key":"07","name":"Rheinland-Pfalz"}},{"name":"Pelderweg","postalCode":"67661","locality":"Kaiserslautern","municipality":{"key":"07312000","name":"Kaiserslautern, Stadt","type":"Kreisfreie_Stadt"},"district":{"key":"07312","name":"Kaiserslautern, kreisfreie Stadt","type":"Kreisfreie_Stadt"},"federalState":{"key":"07","name":"Rheinland-Pfalz"}},{"name":"Perlenbergstr.","postalCode":"67663","locality":"Kaiserslautern","municipality":{"key":"07312000","name":"Kaiserslautern, Stadt","type":"Kreisfreie_Stadt"},"district":{"key":"07312","name":"Kaiserslautern, kreisfreie Stadt","type":"Kreisfreie_Stadt"},"federalState":{"key":"07","name":"Rheinland-Pfalz"}},{"name":"Peter-Bardens-Str.","postalCode":"67661","locality":"Kaiserslautern","municipality":{"key":"07312000","name":"Kaiserslautern, Stadt","type":"Kreisfreie_Stadt"},"district":{"key":"07312","name":"Kaiserslautern, kreisfreie Stadt","type":"Kreisfreie_Stadt"},"federalState":{"key":"07","name":"Rheinland-Pfalz"}},{"name":"Peterstr.","postalCode":"67655","locality":"Kaiserslautern","municipality":{"key":"07312000","name":"Kaiserslautern, Stadt","type":"Kreisfreie_Stadt"},"district":{"key":"07312","name":"Kaiserslautern, kreisfreie Stadt","type":"Kreisfreie_Stadt"},"federalState":{"key":"07","name":"Rheinland-Pfalz"}},{"name":"Pfaffenbergstr.","postalCode":"67663","locality":"Kaiserslautern","municipality":{"key":"07312000","name":"Kaiserslautern, Stadt","type":"Kreisfreie_Stadt"},"district":{"key":"07312","name":"Kaiserslautern, kreisfreie Stadt","type":"Kreisfreie_Stadt"},"federalState":{"key":"07","name":"Rheinland-Pfalz"}},{"name":"Pfaffenwoogstr.","postalCode":"67661","locality":"Kaiserslautern","municipality":{"key":"07312000","name":"Kaiserslautern, Stadt","type":"Kreisfreie_Stadt"},"district":{"key":"07312","name":"Kaiserslautern, kreisfreie Stadt","type":"Kreisfreie_Stadt"},"federalState":{"key":"07","name":"Rheinland-Pfalz"}},{"name":"Pfaffplatz","postalCode":"67655","locality":"Kaiserslautern","municipality":{"key":"07312000","name":"Kaiserslautern, Stadt","type":"Kreisfreie_Stadt"},"district":{"key":"07312","name":"Kaiserslautern, kreisfreie Stadt","type":"Kreisfreie_Stadt"},"federalState":{"key":"07","name":"Rheinland-Pfalz"}},{"name":"Pfaffstr.","postalCode":"67655","locality":"Kaiserslautern","municipality":{"key":"07312000","name":"Kaiserslautern, Stadt","type":"Kreisfreie_Stadt"},"district":{"key":"07312","name":"Kaiserslautern, kreisfreie Stadt","type":"Kreisfreie_Stadt"},"federalState":{"key":"07","name":"Rheinland-Pfalz"}},{"name":"Pfalzgalerie-Park","postalCode":"67657","locality":"Kaiserslautern","municipality":{"key":"07312000","name":"Kaiserslautern, Stadt","type":"Kreisfreie_Stadt"},"district":{"key":"07312","name":"Kaiserslautern, kreisfreie Stadt","type":"Kreisfreie_Stadt"},"federalState":{"key":"07","name":"Rheinland-Pfalz"}},{"name":"Pfeifertälchen","postalCode":"67659","locality":"Kaiserslautern","municipality":{"key":"07312000","name":"Kaiserslautern, Stadt","type":"Kreisfreie_Stadt"},"district":{"key":"07312","name":"Kaiserslautern, kreisfreie Stadt","type":"Kreisfreie_Stadt"},"federalState":{"key":"07","name":"Rheinland-Pfalz"}},{"name":"Pfründnerstr.","postalCode":"67659","locality":"Kaiserslautern","municipality":{"key":"07312000","name":"Kaiserslautern, Stadt","type":"Kreisfreie_Stadt"},"district":{"key":"07312","name":"Kaiserslautern, kreisfreie Stadt","type":"Kreisfreie_Stadt"},"federalState":{"key":"07","name":"Rheinland-Pfalz"}},{"name":"Philipp-Hepp-Str.","postalCode":"67659","locality":"Kaiserslautern","municipality":{"key":"07312000","name":"Kaiserslautern, Stadt","type":"Kreisfreie_Stadt"},"district":{"key":"07312","name":"Kaiserslautern, kreisfreie Stadt","type":"Kreisfreie_Stadt"},"federalState":{"key":"07","name":"Rheinland-Pfalz"}},{"name":"Philipp-Mees-Platz","postalCode":"67655","locality":"Kaiserslautern","municipality":{"key":"07312000","name":"Kaiserslautern, Stadt","type":"Kreisfreie_Stadt"},"district":{"key":"07312","name":"Kaiserslautern, kreisfreie Stadt","type":"Kreisfreie_Stadt"},"federalState":{"key":"07","name":"Rheinland-Pfalz"}},{"name":"Philippstr.","postalCode":"67655","locality":"Kaiserslautern","municipality":{"key":"07312000","name":"Kaiserslautern, Stadt","type":"Kreisfreie_Stadt"},"district":{"key":"07312","name":"Kaiserslautern, kreisfreie Stadt","type":"Kreisfreie_Stadt"},"federalState":{"key":"07","name":"Rheinland-Pfalz"}},{"name":"Pirmannsgarten","postalCode":"67661","locality":"Kaiserslautern","municipality":{"key":"07312000","name":"Kaiserslautern, Stadt","type":"Kreisfreie_Stadt"},"district":{"key":"07312","name":"Kaiserslautern, kreisfreie Stadt","type":"Kreisfreie_Stadt"},"federalState":{"key":"07","name":"Rheinland-Pfalz"}},{"name":"Pirmasenser Str.","postalCode":"67655","locality":"Kaiserslautern","municipality":{"key":"07312000","name":"Kaiserslautern, Stadt","type":"Kreisfreie_Stadt"},"district":{"key":"07312","name":"Kaiserslautern, kreisfreie Stadt","type":"Kreisfreie_Stadt"},"federalState":{"key":"07","name":"Rheinland-Pfalz"}},{"name":"Platanenweg","postalCode":"67661","locality":"Kaiserslautern","municipality":{"key":"07312000","name":"Kaiserslautern, Stadt","type":"Kreisfreie_Stadt"},"district":{"key":"07312","name":"Kaiserslautern, kreisfreie Stadt","type":"Kreisfreie_Stadt"},"federalState":{"key":"07","name":"Rheinland-Pfalz"}},{"name":"Plauener Str.","postalCode":"67663","locality":"Kaiserslautern","municipality":{"key":"07312000","name":"Kaiserslautern, Stadt","type":"Kreisfreie_Stadt"},"district":{"key":"07312","name":"Kaiserslautern, kreisfreie Stadt","type":"Kreisfreie_Stadt"},"federalState":{"key":"07","name":"Rheinland-Pfalz"}},{"name":"Pollichstr.","postalCode":"67655","locality":"Kaiserslautern","municipality":{"key":"07312000","name":"Kaiserslautern, Stadt","type":"Kreisfreie_Stadt"},"district":{"key":"07312","name":"Kaiserslautern, kreisfreie Stadt","type":"Kreisfreie_Stadt"},"federalState":{"key":"07","name":"Rheinland-Pfalz"}},{"name":"Posener Str.","postalCode":"67659","locality":"Kaiserslautern","municipality":{"key":"07312000","name":"Kaiserslautern, Stadt","type":"Kreisfreie_Stadt"},"district":{"key":"07312","name":"Kaiserslautern, kreisfreie Stadt","type":"Kreisfreie_Stadt"},"federalState":{"key":"07","name":"Rheinland-Pfalz"}},{"name":"Possendell","postalCode":"67661","locality":"Kaiserslautern","municipality":{"key":"07312000","name":"Kaiserslautern, Stadt","type":"Kreisfreie_Stadt"},"district":{"key":"07312","name":"Kaiserslautern, kreisfreie Stadt","type":"Kreisfreie_Stadt"},"federalState":{"key":"07","name":"Rheinland-Pfalz"}},{"name":"Quellenstr.","postalCode":"67655","locality":"Kaiserslautern","municipality":{"key":"07312000","name":"Kaiserslautern, Stadt","type":"Kreisfreie_Stadt"},"district":{"key":"07312","name":"Kaiserslautern, kreisfreie Stadt","type":"Kreisfreie_Stadt"},"federalState":{"key":"07","name":"Rheinland-Pfalz"}},{"name":"Rosenanlage","postalCode":"66862","locality":"Kindsbach","municipality":{"key":"07335018","name":"Kindsbach","type":"Kreisangehörige_Gemeinde"},"district":{"key":"07335","name":"Kaiserslautern","type":"Landkreis"},"federalState":{"key":"07","name":"Rheinland-Pfalz"}},{"name":"Rosenstr.","postalCode":"66862","locality":"Kindsbach","municipality":{"key":"07335018","name":"Kindsbach","type":"Kreisangehörige_Gemeinde"},"district":{"key":"07335","name":"Kaiserslautern","type":"Landkreis"},"federalState":{"key":"07","name":"Rheinland-Pfalz"}},{"name":"Schubertstr.","postalCode":"66862","locality":"Kindsbach","municipality":{"key":"07335018","name":"Kindsbach","type":"Kreisangehörige_Gemeinde"},"district":{"key":"07335","name":"Kaiserslautern","type":"Landkreis"},"federalState":{"key":"07","name":"Rheinland-Pfalz"}},{"name":"Schulstr.","postalCode":"66862","locality":"Kindsbach","municipality":{"key":"07335018","name":"Kindsbach","type":"Kreisangehörige_Gemeinde"},"district":{"key":"07335","name":"Kaiserslautern","type":"Landkreis"},"federalState":{"key":"07","name":"Rheinland-Pfalz"}},{"name":"Steigstr.","postalCode":"66862","locality":"Kindsbach","municipality":{"key":"07335018","name":"Kindsbach","type":"Kreisangehörige_Gemeinde"},"district":{"key":"07335","name":"Kaiserslautern","type":"Landkreis"},"federalState":{"key":"07","name":"Rheinland-Pfalz"}},{"name":"Talstr.","postalCode":"66862","locality":"Kindsbach","municipality":{"key":"07335018","name":"Kindsbach","type":"Kreisangehörige_Gemeinde"},"district":{"key":"07335","name":"Kaiserslautern","type":"Landkreis"},"federalState":{"key":"07","name":"Rheinland-Pfalz"}},{"name":"Triftstr.","postalCode":"66862","locality":"Kindsbach","municipality":{"key":"07335018","name":"Kindsbach","type":"Kreisangehörige_Gemeinde"},"district":{"key":"07335","name":"Kaiserslautern","type":"Landkreis"},"federalState":{"key":"07","name":"Rheinland-Pfalz"}},{"name":"Uhlandstr.","postalCode":"67661","locality":"Kaiserslautern","municipality":{"key":"07312000","name":"Kaiserslautern, Stadt","type":"Kreisfreie_Stadt"},"district":{"key":"07312","name":"Kaiserslautern, kreisfreie Stadt","type":"Kreisfreie_Stadt"},"federalState":{"key":"07","name":"Rheinland-Pfalz"}},{"name":"Ulker-Gass","postalCode":"67657","locality":"Kaiserslautern","municipality":{"key":"07312000","name":"Kaiserslautern, Stadt","type":"Kreisfreie_Stadt"},"district":{"key":"07312","name":"Kaiserslautern, kreisfreie Stadt","type":"Kreisfreie_Stadt"},"federalState":{"key":"07","name":"Rheinland-Pfalz"}},{"name":"Ulmenstr.","postalCode":"67661","locality":"Kaiserslautern","municipality":{"key":"07312000","name":"Kaiserslautern, Stadt","type":"Kreisfreie_Stadt"},"district":{"key":"07312","name":"Kaiserslautern, kreisfreie Stadt","type":"Kreisfreie_Stadt"},"federalState":{"key":"07","name":"Rheinland-Pfalz"}},{"name":"Unter den 30 Morgen","postalCode":"67657","locality":"Kaiserslautern","municipality":{"key":"07312000","name":"Kaiserslautern, Stadt","type":"Kreisfreie_Stadt"},"district":{"key":"07312","name":"Kaiserslautern, kreisfreie Stadt","type":"Kreisfreie_Stadt"},"federalState":{"key":"07","name":"Rheinland-Pfalz"}},{"name":"Unterer Rossrück","postalCode":"67661","locality":"Kaiserslautern","municipality":{"key":"07312000","name":"Kaiserslautern, Stadt","type":"Kreisfreie_Stadt"},"district":{"key":"07312","name":"Kaiserslautern, kreisfreie Stadt","type":"Kreisfreie_Stadt"},"federalState":{"key":"07","name":"Rheinland-Pfalz"}},{"name":"Von-Stauffenberg-Str.","postalCode":"66862","locality":"Kindsbach","municipality":{"key":"07335018","name":"Kindsbach","type":"Kreisangehörige_Gemeinde"},"district":{"key":"07335","name":"Kaiserslautern","type":"Landkreis"},"federalState":{"key":"07","name":"Rheinland-Pfalz"}},{"name":"Waldstr.","postalCode":"66862","locality":"Kindsbach","municipality":{"key":"07335018","name":"Kindsbach","type":"Kreisangehörige_Gemeinde"},"district":{"key":"07335","name":"Kaiserslautern","type":"Landkreis"},"federalState":{"key":"07","name":"Rheinland-Pfalz"}},{"name":"Weberstr.","postalCode":"66862","locality":"Kindsbach","municipality":{"key":"07335018","name":"Kindsbach","type":"Kreisangehörige_Gemeinde"},"district":{"key":"07335","name":"Kaiserslautern","type":"Landkreis"},"federalState":{"key":"07","name":"Rheinland-Pfalz"}},{"name":"Weiherstr.","postalCode":"66862","locality":"Kindsbach","municipality":{"key":"07335018","name":"Kindsbach","type":"Kreisangehörige_Gemeinde"},"district":{"key":"07335","name":"Kaiserslautern","type":"Landkreis"},"federalState":{"key":"07","name":"Rheinland-Pfalz"}},{"name":"Wiesenstr.","postalCode":"66862","locality":"Kindsbach","municipality":{"key":"07335018","name":"Kindsbach","type":"Kreisangehörige_Gemeinde"},"district":{"key":"07335","name":"Kaiserslautern","type":"Landkreis"},"federalState":{"key":"07","name":"Rheinland-Pfalz"}},{"name":"Ziegelhütte","postalCode":"66862","locality":"Kindsbach","municipality":{"key":"07335018","name":"Kindsbach","type":"Kreisangehörige_Gemeinde"},"district":{"key":"07335","name":"Kaiserslautern","type":"Landkreis"},"federalState":{"key":"07","name":"Rheinland-Pfalz"}},{"name":"Ätzweide","postalCode":"67659","locality":"Kaiserslautern","municipality":{"key":"07312000","name":"Kaiserslautern, Stadt","type":"Kreisfreie_Stadt"},"district":{"key":"07312","name":"Kaiserslautern, kreisfreie Stadt","type":"Kreisfreie_Stadt"},"federalState":{"key":"07","name":"Rheinland-Pfalz"}},]