[{"name":"Adalbert-Stifter-Str.","postalCode":"83059","locality":"Kolbermoor","municipality":{"key":"09187150","name":"Kolbermoor, St","type":"Stadt"},"district":{"key":"09187","name":"Rosenheim","type":"Landkreis"},"federalState":{"key":"09","name":"Bayern"}},{"name":"Aiblinger Au","postalCode":"83059","locality":"Kolbermoor","municipality":{"key":"09187150","name":"Kolbermoor, St","type":"Stadt"},"district":{"key":"09187","name":"Rosenheim","type":"Landkreis"},"federalState":{"key":"09","name":"Bayern"}},{"name":"Aiblinger Str.","postalCode":"83059","locality":"Kolbermoor","municipality":{"key":"09187150","name":"Kolbermoor, St","type":"Stadt"},"district":{"key":"09187","name":"Rosenheim","type":"Landkreis"},"federalState":{"key":"09","name":"Bayern"}},{"name":"Albert-Loher-Str.","postalCode":"83059","locality":"Kolbermoor","municipality":{"key":"09187150","name":"Kolbermoor, St","type":"Stadt"},"district":{"key":"09187","name":"Rosenheim","type":"Landkreis"},"federalState":{"key":"09","name":"Bayern"}},{"name":"Albert-Schalper-Str.","postalCode":"83059","locality":"Kolbermoor","municipality":{"key":"09187150","name":"Kolbermoor, St","type":"Stadt"},"district":{"key":"09187","name":"Rosenheim","type":"Landkreis"},"federalState":{"key":"09","name":"Bayern"}},{"name":"Am Alpenblick","postalCode":"83059","locality":"Kolbermoor","municipality":{"key":"09187150","name":"Kolbermoor, St","type":"Stadt"},"district":{"key":"09187","name":"Rosenheim","type":"Landkreis"},"federalState":{"key":"09","name":"Bayern"}},{"name":"Am Anger","postalCode":"83059","locality":"Kolbermoor","municipality":{"key":"09187150","name":"Kolbermoor, St","type":"Stadt"},"district":{"key":"09187","name":"Rosenheim","type":"Landkreis"},"federalState":{"key":"09","name":"Bayern"}},{"name":"Am Brand","postalCode":"83059","locality":"Kolbermoor","municipality":{"key":"09187150","name":"Kolbermoor, St","type":"Stadt"},"district":{"key":"09187","name":"Rosenheim","type":"Landkreis"},"federalState":{"key":"09","name":"Bayern"}},{"name":"Am Eglsee","postalCode":"83059","locality":"Kolbermoor","municipality":{"key":"09187150","name":"Kolbermoor, St","type":"Stadt"},"district":{"key":"09187","name":"Rosenheim","type":"Landkreis"},"federalState":{"key":"09","name":"Bayern"}},{"name":"Am Gangsteig","postalCode":"83059","locality":"Kolbermoor","municipality":{"key":"09187150","name":"Kolbermoor, St","type":"Stadt"},"district":{"key":"09187","name":"Rosenheim","type":"Landkreis"},"federalState":{"key":"09","name":"Bayern"}},{"name":"Am Graben","postalCode":"83059","locality":"Kolbermoor","municipality":{"key":"09187150","name":"Kolbermoor, St","type":"Stadt"},"district":{"key":"09187","name":"Rosenheim","type":"Landkreis"},"federalState":{"key":"09","name":"Bayern"}},{"name":"Am Groweg","postalCode":"83059","locality":"Kolbermoor","municipality":{"key":"09187150","name":"Kolbermoor, St","type":"Stadt"},"district":{"key":"09187","name":"Rosenheim","type":"Landkreis"},"federalState":{"key":"09","name":"Bayern"}},{"name":"Am Kochanger","postalCode":"83059","locality":"Kolbermoor","municipality":{"key":"09187150","name":"Kolbermoor, St","type":"Stadt"},"district":{"key":"09187","name":"Rosenheim","type":"Landkreis"},"federalState":{"key":"09","name":"Bayern"}},{"name":"Am Kolberg","postalCode":"83059","locality":"Kolbermoor","municipality":{"key":"09187150","name":"Kolbermoor, St","type":"Stadt"},"district":{"key":"09187","name":"Rosenheim","type":"Landkreis"},"federalState":{"key":"09","name":"Bayern"}},{"name":"Am Markholz","postalCode":"83059","locality":"Kolbermoor","municipality":{"key":"09187150","name":"Kolbermoor, St","type":"Stadt"},"district":{"key":"09187","name":"Rosenheim","type":"Landkreis"},"federalState":{"key":"09","name":"Bayern"}},{"name":"Ammerseestr.","postalCode":"83059","locality":"Kolbermoor","municipality":{"key":"09187150","name":"Kolbermoor, St","type":"Stadt"},"district":{"key":"09187","name":"Rosenheim","type":"Landkreis"},"federalState":{"key":"09","name":"Bayern"}},{"name":"Am Moorgarten","postalCode":"83059","locality":"Kolbermoor","municipality":{"key":"09187150","name":"Kolbermoor, St","type":"Stadt"},"district":{"key":"09187","name":"Rosenheim","type":"Landkreis"},"federalState":{"key":"09","name":"Bayern"}},{"name":"Am Oberwöhr","postalCode":"83059","locality":"Kolbermoor","municipality":{"key":"09187150","name":"Kolbermoor, St","type":"Stadt"},"district":{"key":"09187","name":"Rosenheim","type":"Landkreis"},"federalState":{"key":"09","name":"Bayern"}},{"name":"Am Quellbach","postalCode":"83059","locality":"Kolbermoor","municipality":{"key":"09187150","name":"Kolbermoor, St","type":"Stadt"},"district":{"key":"09187","name":"Rosenheim","type":"Landkreis"},"federalState":{"key":"09","name":"Bayern"}},{"name":"Am Rothbachl","postalCode":"83059","locality":"Kolbermoor","municipality":{"key":"09187150","name":"Kolbermoor, St","type":"Stadt"},"district":{"key":"09187","name":"Rosenheim","type":"Landkreis"},"federalState":{"key":"09","name":"Bayern"}},{"name":"Am Schlosspark","postalCode":"83059","locality":"Kolbermoor","municipality":{"key":"09187150","name":"Kolbermoor, St","type":"Stadt"},"district":{"key":"09187","name":"Rosenheim","type":"Landkreis"},"federalState":{"key":"09","name":"Bayern"}},{"name":"Amselweg","postalCode":"83059","locality":"Kolbermoor","municipality":{"key":"09187150","name":"Kolbermoor, St","type":"Stadt"},"district":{"key":"09187","name":"Rosenheim","type":"Landkreis"},"federalState":{"key":"09","name":"Bayern"}},{"name":"Am Tonwerk","postalCode":"83059","locality":"Kolbermoor","municipality":{"key":"09187150","name":"Kolbermoor, St","type":"Stadt"},"district":{"key":"09187","name":"Rosenheim","type":"Landkreis"},"federalState":{"key":"09","name":"Bayern"}},{"name":"Am Waldrand","postalCode":"83059","locality":"Kolbermoor","municipality":{"key":"09187150","name":"Kolbermoor, St","type":"Stadt"},"district":{"key":"09187","name":"Rosenheim","type":"Landkreis"},"federalState":{"key":"09","name":"Bayern"}},{"name":"Am Wiesengrund","postalCode":"83059","locality":"Kolbermoor","municipality":{"key":"09187150","name":"Kolbermoor, St","type":"Stadt"},"district":{"key":"09187","name":"Rosenheim","type":"Landkreis"},"federalState":{"key":"09","name":"Bayern"}},{"name":"An der Alten Spinnerei","postalCode":"83059","locality":"Kolbermoor","municipality":{"key":"09187150","name":"Kolbermoor, St","type":"Stadt"},"district":{"key":"09187","name":"Rosenheim","type":"Landkreis"},"federalState":{"key":"09","name":"Bayern"}},{"name":"Anemonenstr.","postalCode":"83059","locality":"Kolbermoor","municipality":{"key":"09187150","name":"Kolbermoor, St","type":"Stadt"},"district":{"key":"09187","name":"Rosenheim","type":"Landkreis"},"federalState":{"key":"09","name":"Bayern"}},{"name":"Angerbauerstr.","postalCode":"83059","locality":"Kolbermoor","municipality":{"key":"09187150","name":"Kolbermoor, St","type":"Stadt"},"district":{"key":"09187","name":"Rosenheim","type":"Landkreis"},"federalState":{"key":"09","name":"Bayern"}},{"name":"Anton-Elsperger-Platz","postalCode":"83059","locality":"Kolbermoor","municipality":{"key":"09187150","name":"Kolbermoor, St","type":"Stadt"},"district":{"key":"09187","name":"Rosenheim","type":"Landkreis"},"federalState":{"key":"09","name":"Bayern"}},{"name":"Anton-Fahrner-Str.","postalCode":"83059","locality":"Kolbermoor","municipality":{"key":"09187150","name":"Kolbermoor, St","type":"Stadt"},"district":{"key":"09187","name":"Rosenheim","type":"Landkreis"},"federalState":{"key":"09","name":"Bayern"}},{"name":"Anzengruberstr.","postalCode":"83059","locality":"Kolbermoor","municipality":{"key":"09187150","name":"Kolbermoor, St","type":"Stadt"},"district":{"key":"09187","name":"Rosenheim","type":"Landkreis"},"federalState":{"key":"09","name":"Bayern"}},{"name":"Asternweg","postalCode":"83059","locality":"Kolbermoor","municipality":{"key":"09187150","name":"Kolbermoor, St","type":"Stadt"},"district":{"key":"09187","name":"Rosenheim","type":"Landkreis"},"federalState":{"key":"09","name":"Bayern"}},{"name":"Austr.","postalCode":"83059","locality":"Kolbermoor","municipality":{"key":"09187150","name":"Kolbermoor, St","type":"Stadt"},"district":{"key":"09187","name":"Rosenheim","type":"Landkreis"},"federalState":{"key":"09","name":"Bayern"}},{"name":"Bahnhofstr.","postalCode":"83059","locality":"Kolbermoor","municipality":{"key":"09187150","name":"Kolbermoor, St","type":"Stadt"},"district":{"key":"09187","name":"Rosenheim","type":"Landkreis"},"federalState":{"key":"09","name":"Bayern"}},{"name":"Baierstr.","postalCode":"83059","locality":"Kolbermoor","municipality":{"key":"09187150","name":"Kolbermoor, St","type":"Stadt"},"district":{"key":"09187","name":"Rosenheim","type":"Landkreis"},"federalState":{"key":"09","name":"Bayern"}},{"name":"Balthasar-Bichler-Str.","postalCode":"83059","locality":"Kolbermoor","municipality":{"key":"09187150","name":"Kolbermoor, St","type":"Stadt"},"district":{"key":"09187","name":"Rosenheim","type":"Landkreis"},"federalState":{"key":"09","name":"Bayern"}},{"name":"Barbara-Strell-Weg","postalCode":"83059","locality":"Kolbermoor","municipality":{"key":"09187150","name":"Kolbermoor, St","type":"Stadt"},"district":{"key":"09187","name":"Rosenheim","type":"Landkreis"},"federalState":{"key":"09","name":"Bayern"}},{"name":"Bergsiedlung","postalCode":"83059","locality":"Kolbermoor","municipality":{"key":"09187150","name":"Kolbermoor, St","type":"Stadt"},"district":{"key":"09187","name":"Rosenheim","type":"Landkreis"},"federalState":{"key":"09","name":"Bayern"}},{"name":"Bergstr.","postalCode":"83059","locality":"Kolbermoor","municipality":{"key":"09187150","name":"Kolbermoor, St","type":"Stadt"},"district":{"key":"09187","name":"Rosenheim","type":"Landkreis"},"federalState":{"key":"09","name":"Bayern"}},{"name":"Birkenstr.","postalCode":"83059","locality":"Kolbermoor","municipality":{"key":"09187150","name":"Kolbermoor, St","type":"Stadt"},"district":{"key":"09187","name":"Rosenheim","type":"Landkreis"},"federalState":{"key":"09","name":"Bayern"}},{"name":"Blumenstr.","postalCode":"83059","locality":"Kolbermoor","municipality":{"key":"09187150","name":"Kolbermoor, St","type":"Stadt"},"district":{"key":"09187","name":"Rosenheim","type":"Landkreis"},"federalState":{"key":"09","name":"Bayern"}},{"name":"Bodenseestr.","postalCode":"83059","locality":"Kolbermoor","municipality":{"key":"09187150","name":"Kolbermoor, St","type":"Stadt"},"district":{"key":"09187","name":"Rosenheim","type":"Landkreis"},"federalState":{"key":"09","name":"Bayern"}},{"name":"Breitensteinstr.","postalCode":"83059","locality":"Kolbermoor","municipality":{"key":"09187150","name":"Kolbermoor, St","type":"Stadt"},"district":{"key":"09187","name":"Rosenheim","type":"Landkreis"},"federalState":{"key":"09","name":"Bayern"}},{"name":"Breslauer Str.","postalCode":"83059","locality":"Kolbermoor","municipality":{"key":"09187150","name":"Kolbermoor, St","type":"Stadt"},"district":{"key":"09187","name":"Rosenheim","type":"Landkreis"},"federalState":{"key":"09","name":"Bayern"}},{"name":"Brückenstr.","postalCode":"83059","locality":"Kolbermoor","municipality":{"key":"09187150","name":"Kolbermoor, St","type":"Stadt"},"district":{"key":"09187","name":"Rosenheim","type":"Landkreis"},"federalState":{"key":"09","name":"Bayern"}},{"name":"Brünnsteinstr.","postalCode":"83059","locality":"Kolbermoor","municipality":{"key":"09187150","name":"Kolbermoor, St","type":"Stadt"},"district":{"key":"09187","name":"Rosenheim","type":"Landkreis"},"federalState":{"key":"09","name":"Bayern"}},{"name":"Carl-Jordan-Str.","postalCode":"83059","locality":"Kolbermoor","municipality":{"key":"09187150","name":"Kolbermoor, St","type":"Stadt"},"district":{"key":"09187","name":"Rosenheim","type":"Landkreis"},"federalState":{"key":"09","name":"Bayern"}},{"name":"Chiemseestr.","postalCode":"83059","locality":"Kolbermoor","municipality":{"key":"09187150","name":"Kolbermoor, St","type":"Stadt"},"district":{"key":"09187","name":"Rosenheim","type":"Landkreis"},"federalState":{"key":"09","name":"Bayern"}},{"name":"Dismas-Reheis-Str.","postalCode":"83059","locality":"Kolbermoor","municipality":{"key":"09187150","name":"Kolbermoor, St","type":"Stadt"},"district":{"key":"09187","name":"Rosenheim","type":"Landkreis"},"federalState":{"key":"09","name":"Bayern"}},{"name":"Doktor-Hans-Jakob-Str.","postalCode":"83059","locality":"Kolbermoor","municipality":{"key":"09187150","name":"Kolbermoor, St","type":"Stadt"},"district":{"key":"09187","name":"Rosenheim","type":"Landkreis"},"federalState":{"key":"09","name":"Bayern"}},{"name":"Dr.-Christian-Junkenitz-Str.","postalCode":"83059","locality":"Kolbermoor","municipality":{"key":"09187150","name":"Kolbermoor, St","type":"Stadt"},"district":{"key":"09187","name":"Rosenheim","type":"Landkreis"},"federalState":{"key":"09","name":"Bayern"}},{"name":"Dr.-Max-Hofmann-Str.","postalCode":"83059","locality":"Kolbermoor","municipality":{"key":"09187150","name":"Kolbermoor, St","type":"Stadt"},"district":{"key":"09187","name":"Rosenheim","type":"Landkreis"},"federalState":{"key":"09","name":"Bayern"}},{"name":"Dr.-Thann-Str.","postalCode":"83059","locality":"Kolbermoor","municipality":{"key":"09187150","name":"Kolbermoor, St","type":"Stadt"},"district":{"key":"09187","name":"Rosenheim","type":"Landkreis"},"federalState":{"key":"09","name":"Bayern"}},{"name":"Edmund-Bergmann-Platz","postalCode":"83059","locality":"Kolbermoor","municipality":{"key":"09187150","name":"Kolbermoor, St","type":"Stadt"},"district":{"key":"09187","name":"Rosenheim","type":"Landkreis"},"federalState":{"key":"09","name":"Bayern"}},{"name":"Eibseestr.","postalCode":"83059","locality":"Kolbermoor","municipality":{"key":"09187150","name":"Kolbermoor, St","type":"Stadt"},"district":{"key":"09187","name":"Rosenheim","type":"Landkreis"},"federalState":{"key":"09","name":"Bayern"}},{"name":"Eichendorffstr.","postalCode":"83059","locality":"Kolbermoor","municipality":{"key":"09187150","name":"Kolbermoor, St","type":"Stadt"},"district":{"key":"09187","name":"Rosenheim","type":"Landkreis"},"federalState":{"key":"09","name":"Bayern"}},{"name":"Eichenstr.","postalCode":"83059","locality":"Kolbermoor","municipality":{"key":"09187150","name":"Kolbermoor, St","type":"Stadt"},"district":{"key":"09187","name":"Rosenheim","type":"Landkreis"},"federalState":{"key":"09","name":"Bayern"}},{"name":"Einsteinstr.","postalCode":"83059","locality":"Kolbermoor","municipality":{"key":"09187150","name":"Kolbermoor, St","type":"Stadt"},"district":{"key":"09187","name":"Rosenheim","type":"Landkreis"},"federalState":{"key":"09","name":"Bayern"}},{"name":"Eschenweg","postalCode":"83059","locality":"Kolbermoor","municipality":{"key":"09187150","name":"Kolbermoor, St","type":"Stadt"},"district":{"key":"09187","name":"Rosenheim","type":"Landkreis"},"federalState":{"key":"09","name":"Bayern"}},{"name":"Fabrikstr.","postalCode":"83059","locality":"Kolbermoor","municipality":{"key":"09187150","name":"Kolbermoor, St","type":"Stadt"},"district":{"key":"09187","name":"Rosenheim","type":"Landkreis"},"federalState":{"key":"09","name":"Bayern"}},{"name":"Farrenpointstr.","postalCode":"83059","locality":"Kolbermoor","municipality":{"key":"09187150","name":"Kolbermoor, St","type":"Stadt"},"district":{"key":"09187","name":"Rosenheim","type":"Landkreis"},"federalState":{"key":"09","name":"Bayern"}},{"name":"Fasanenweg","postalCode":"83059","locality":"Kolbermoor","municipality":{"key":"09187150","name":"Kolbermoor, St","type":"Stadt"},"district":{"key":"09187","name":"Rosenheim","type":"Landkreis"},"federalState":{"key":"09","name":"Bayern"}},{"name":"Feldstr.","postalCode":"83059","locality":"Kolbermoor","municipality":{"key":"09187150","name":"Kolbermoor, St","type":"Stadt"},"district":{"key":"09187","name":"Rosenheim","type":"Landkreis"},"federalState":{"key":"09","name":"Bayern"}},{"name":"Filzenstr.","postalCode":"83059","locality":"Kolbermoor","municipality":{"key":"09187150","name":"Kolbermoor, St","type":"Stadt"},"district":{"key":"09187","name":"Rosenheim","type":"Landkreis"},"federalState":{"key":"09","name":"Bayern"}},{"name":"Fischerstr.","postalCode":"83059","locality":"Kolbermoor","municipality":{"key":"09187150","name":"Kolbermoor, St","type":"Stadt"},"district":{"key":"09187","name":"Rosenheim","type":"Landkreis"},"federalState":{"key":"09","name":"Bayern"}},{"name":"Föhrenweg","postalCode":"83059","locality":"Kolbermoor","municipality":{"key":"09187150","name":"Kolbermoor, St","type":"Stadt"},"district":{"key":"09187","name":"Rosenheim","type":"Landkreis"},"federalState":{"key":"09","name":"Bayern"}},{"name":"Försterstr.","postalCode":"83059","locality":"Kolbermoor","municipality":{"key":"09187150","name":"Kolbermoor, St","type":"Stadt"},"district":{"key":"09187","name":"Rosenheim","type":"Landkreis"},"federalState":{"key":"09","name":"Bayern"}},{"name":"Forststr.","postalCode":"83059","locality":"Kolbermoor","municipality":{"key":"09187150","name":"Kolbermoor, St","type":"Stadt"},"district":{"key":"09187","name":"Rosenheim","type":"Landkreis"},"federalState":{"key":"09","name":"Bayern"}},{"name":"Franz-Hertle-Str.","postalCode":"83059","locality":"Kolbermoor","municipality":{"key":"09187150","name":"Kolbermoor, St","type":"Stadt"},"district":{"key":"09187","name":"Rosenheim","type":"Landkreis"},"federalState":{"key":"09","name":"Bayern"}},{"name":"Franz-Sperber-Str.","postalCode":"83059","locality":"Kolbermoor","municipality":{"key":"09187150","name":"Kolbermoor, St","type":"Stadt"},"district":{"key":"09187","name":"Rosenheim","type":"Landkreis"},"federalState":{"key":"09","name":"Bayern"}},{"name":"Fraunhoferstr.","postalCode":"83059","locality":"Kolbermoor","municipality":{"key":"09187150","name":"Kolbermoor, St","type":"Stadt"},"district":{"key":"09187","name":"Rosenheim","type":"Landkreis"},"federalState":{"key":"09","name":"Bayern"}},{"name":"Friedenstr.","postalCode":"83059","locality":"Kolbermoor","municipality":{"key":"09187150","name":"Kolbermoor, St","type":"Stadt"},"district":{"key":"09187","name":"Rosenheim","type":"Landkreis"},"federalState":{"key":"09","name":"Bayern"}},{"name":"Friedrich-Ebert-Str.","postalCode":"83059","locality":"Kolbermoor","municipality":{"key":"09187150","name":"Kolbermoor, St","type":"Stadt"},"district":{"key":"09187","name":"Rosenheim","type":"Landkreis"},"federalState":{"key":"09","name":"Bayern"}},{"name":"Friedrich-Hebbel-Str.","postalCode":"83059","locality":"Kolbermoor","municipality":{"key":"09187150","name":"Kolbermoor, St","type":"Stadt"},"district":{"key":"09187","name":"Rosenheim","type":"Landkreis"},"federalState":{"key":"09","name":"Bayern"}},{"name":"Fürstätter Str.","postalCode":"83059","locality":"Kolbermoor","municipality":{"key":"09187150","name":"Kolbermoor, St","type":"Stadt"},"district":{"key":"09187","name":"Rosenheim","type":"Landkreis"},"federalState":{"key":"09","name":"Bayern"}},{"name":"Ganghoferstr.","postalCode":"83059","locality":"Kolbermoor","municipality":{"key":"09187150","name":"Kolbermoor, St","type":"Stadt"},"district":{"key":"09187","name":"Rosenheim","type":"Landkreis"},"federalState":{"key":"09","name":"Bayern"}},{"name":"Gärtnerstr.","postalCode":"83059","locality":"Kolbermoor","municipality":{"key":"09187150","name":"Kolbermoor, St","type":"Stadt"},"district":{"key":"09187","name":"Rosenheim","type":"Landkreis"},"federalState":{"key":"09","name":"Bayern"}},{"name":"Gehrerstr.","postalCode":"83059","locality":"Kolbermoor","municipality":{"key":"09187150","name":"Kolbermoor, St","type":"Stadt"},"district":{"key":"09187","name":"Rosenheim","type":"Landkreis"},"federalState":{"key":"09","name":"Bayern"}},{"name":"Geigelsteinstr.","postalCode":"83059","locality":"Kolbermoor","municipality":{"key":"09187150","name":"Kolbermoor, St","type":"Stadt"},"district":{"key":"09187","name":"Rosenheim","type":"Landkreis"},"federalState":{"key":"09","name":"Bayern"}},{"name":"Georg-Müller-Str.","postalCode":"83059","locality":"Kolbermoor","municipality":{"key":"09187150","name":"Kolbermoor, St","type":"Stadt"},"district":{"key":"09187","name":"Rosenheim","type":"Landkreis"},"federalState":{"key":"09","name":"Bayern"}},{"name":"Glasberg","postalCode":"83059","locality":"Kolbermoor","municipality":{"key":"09187150","name":"Kolbermoor, St","type":"Stadt"},"district":{"key":"09187","name":"Rosenheim","type":"Landkreis"},"federalState":{"key":"09","name":"Bayern"}},{"name":"Glückstr.","postalCode":"83059","locality":"Kolbermoor","municipality":{"key":"09187150","name":"Kolbermoor, St","type":"Stadt"},"district":{"key":"09187","name":"Rosenheim","type":"Landkreis"},"federalState":{"key":"09","name":"Bayern"}},{"name":"Gottfried-Keller-Str.","postalCode":"83059","locality":"Kolbermoor","municipality":{"key":"09187150","name":"Kolbermoor, St","type":"Stadt"},"district":{"key":"09187","name":"Rosenheim","type":"Landkreis"},"federalState":{"key":"09","name":"Bayern"}},{"name":"Grillparzerstr.","postalCode":"83059","locality":"Kolbermoor","municipality":{"key":"09187150","name":"Kolbermoor, St","type":"Stadt"},"district":{"key":"09187","name":"Rosenheim","type":"Landkreis"},"federalState":{"key":"09","name":"Bayern"}},{"name":"Grubholzer Str.","postalCode":"83059","locality":"Kolbermoor","municipality":{"key":"09187150","name":"Kolbermoor, St","type":"Stadt"},"district":{"key":"09187","name":"Rosenheim","type":"Landkreis"},"federalState":{"key":"09","name":"Bayern"}},{"name":"Hanns-Weigl-Str.","postalCode":"83059","locality":"Kolbermoor","municipality":{"key":"09187150","name":"Kolbermoor, St","type":"Stadt"},"district":{"key":"09187","name":"Rosenheim","type":"Landkreis"},"federalState":{"key":"09","name":"Bayern"}},{"name":"Hans-Ernst-Str.","postalCode":"83059","locality":"Kolbermoor","municipality":{"key":"09187150","name":"Kolbermoor, St","type":"Stadt"},"district":{"key":"09187","name":"Rosenheim","type":"Landkreis"},"federalState":{"key":"09","name":"Bayern"}},{"name":"Hans-Lorenz-Str.","postalCode":"83059","locality":"Kolbermoor","municipality":{"key":"09187150","name":"Kolbermoor, St","type":"Stadt"},"district":{"key":"09187","name":"Rosenheim","type":"Landkreis"},"federalState":{"key":"09","name":"Bayern"}},{"name":"Harthausener Str.","postalCode":"83059","locality":"Kolbermoor","municipality":{"key":"09187150","name":"Kolbermoor, St","type":"Stadt"},"district":{"key":"09187","name":"Rosenheim","type":"Landkreis"},"federalState":{"key":"09","name":"Bayern"}},{"name":"Haßlerstr.","postalCode":"83059","locality":"Kolbermoor","municipality":{"key":"09187150","name":"Kolbermoor, St","type":"Stadt"},"district":{"key":"09187","name":"Rosenheim","type":"Landkreis"},"federalState":{"key":"09","name":"Bayern"}},{"name":"Hechtseestr.","postalCode":"83059","locality":"Kolbermoor","municipality":{"key":"09187150","name":"Kolbermoor, St","type":"Stadt"},"district":{"key":"09187","name":"Rosenheim","type":"Landkreis"},"federalState":{"key":"09","name":"Bayern"}},{"name":"Hermann-Löns-Str.","postalCode":"83059","locality":"Kolbermoor","municipality":{"key":"09187150","name":"Kolbermoor, St","type":"Stadt"},"district":{"key":"09187","name":"Rosenheim","type":"Landkreis"},"federalState":{"key":"09","name":"Bayern"}},{"name":"Heubergstr.","postalCode":"83059","locality":"Kolbermoor","municipality":{"key":"09187150","name":"Kolbermoor, St","type":"Stadt"},"district":{"key":"09187","name":"Rosenheim","type":"Landkreis"},"federalState":{"key":"09","name":"Bayern"}},{"name":"Hochriesstr.","postalCode":"83059","locality":"Kolbermoor","municipality":{"key":"09187150","name":"Kolbermoor, St","type":"Stadt"},"district":{"key":"09187","name":"Rosenheim","type":"Landkreis"},"federalState":{"key":"09","name":"Bayern"}},{"name":"Hölderlinstr.","postalCode":"83059","locality":"Kolbermoor","municipality":{"key":"09187150","name":"Kolbermoor, St","type":"Stadt"},"district":{"key":"09187","name":"Rosenheim","type":"Landkreis"},"federalState":{"key":"09","name":"Bayern"}},{"name":"Inselbachstr.","postalCode":"83059","locality":"Kolbermoor","municipality":{"key":"09187150","name":"Kolbermoor, St","type":"Stadt"},"district":{"key":"09187","name":"Rosenheim","type":"Landkreis"},"federalState":{"key":"09","name":"Bayern"}},{"name":"Jackelbergstr.","postalCode":"83059","locality":"Kolbermoor","municipality":{"key":"09187150","name":"Kolbermoor, St","type":"Stadt"},"district":{"key":"09187","name":"Rosenheim","type":"Landkreis"},"federalState":{"key":"09","name":"Bayern"}},{"name":"Jägerkampstr.","postalCode":"83059","locality":"Kolbermoor","municipality":{"key":"09187150","name":"Kolbermoor, St","type":"Stadt"},"district":{"key":"09187","name":"Rosenheim","type":"Landkreis"},"federalState":{"key":"09","name":"Bayern"}},{"name":"Jägerstr.","postalCode":"83059","locality":"Kolbermoor","municipality":{"key":"09187150","name":"Kolbermoor, St","type":"Stadt"},"district":{"key":"09187","name":"Rosenheim","type":"Landkreis"},"federalState":{"key":"09","name":"Bayern"}},{"name":"Jahnstr.","postalCode":"83059","locality":"Kolbermoor","municipality":{"key":"09187150","name":"Kolbermoor, St","type":"Stadt"},"district":{"key":"09187","name":"Rosenheim","type":"Landkreis"},"federalState":{"key":"09","name":"Bayern"}},{"name":"Johann-Wipper-Str.","postalCode":"83059","locality":"Kolbermoor","municipality":{"key":"09187150","name":"Kolbermoor, St","type":"Stadt"},"district":{"key":"09187","name":"Rosenheim","type":"Landkreis"},"federalState":{"key":"09","name":"Bayern"}},{"name":"Josef-Hamberger-Str.","postalCode":"83059","locality":"Kolbermoor","municipality":{"key":"09187150","name":"Kolbermoor, St","type":"Stadt"},"district":{"key":"09187","name":"Rosenheim","type":"Landkreis"},"federalState":{"key":"09","name":"Bayern"}},{"name":"Josef-Koch-Str.","postalCode":"83059","locality":"Kolbermoor","municipality":{"key":"09187150","name":"Kolbermoor, St","type":"Stadt"},"district":{"key":"09187","name":"Rosenheim","type":"Landkreis"},"federalState":{"key":"09","name":"Bayern"}},{"name":"Josef-Legath-Str.","postalCode":"83059","locality":"Kolbermoor","municipality":{"key":"09187150","name":"Kolbermoor, St","type":"Stadt"},"district":{"key":"09187","name":"Rosenheim","type":"Landkreis"},"federalState":{"key":"09","name":"Bayern"}},{"name":"Kampenwandstr.","postalCode":"83059","locality":"Kolbermoor","municipality":{"key":"09187150","name":"Kolbermoor, St","type":"Stadt"},"district":{"key":"09187","name":"Rosenheim","type":"Landkreis"},"federalState":{"key":"09","name":"Bayern"}},{"name":"Karl-Daniels-Platz","postalCode":"83059","locality":"Kolbermoor","municipality":{"key":"09187150","name":"Kolbermoor, St","type":"Stadt"},"district":{"key":"09187","name":"Rosenheim","type":"Landkreis"},"federalState":{"key":"09","name":"Bayern"}},{"name":"Karl-Rager-Str.","postalCode":"83059","locality":"Kolbermoor","municipality":{"key":"09187150","name":"Kolbermoor, St","type":"Stadt"},"district":{"key":"09187","name":"Rosenheim","type":"Landkreis"},"federalState":{"key":"09","name":"Bayern"}},{"name":"Karlstr.","postalCode":"83059","locality":"Kolbermoor","municipality":{"key":"09187150","name":"Kolbermoor, St","type":"Stadt"},"district":{"key":"09187","name":"Rosenheim","type":"Landkreis"},"federalState":{"key":"09","name":"Bayern"}},{"name":"Karl-Unsin-Str.","postalCode":"83059","locality":"Kolbermoor","municipality":{"key":"09187150","name":"Kolbermoor, St","type":"Stadt"},"district":{"key":"09187","name":"Rosenheim","type":"Landkreis"},"federalState":{"key":"09","name":"Bayern"}},{"name":"Karolinenhöhe","postalCode":"83059","locality":"Kolbermoor","municipality":{"key":"09187150","name":"Kolbermoor, St","type":"Stadt"},"district":{"key":"09187","name":"Rosenheim","type":"Landkreis"},"federalState":{"key":"09","name":"Bayern"}},{"name":"Karolinenstr.","postalCode":"83059","locality":"Kolbermoor","municipality":{"key":"09187150","name":"Kolbermoor, St","type":"Stadt"},"district":{"key":"09187","name":"Rosenheim","type":"Landkreis"},"federalState":{"key":"09","name":"Bayern"}},{"name":"Kochelseestr.","postalCode":"83059","locality":"Kolbermoor","municipality":{"key":"09187150","name":"Kolbermoor, St","type":"Stadt"},"district":{"key":"09187","name":"Rosenheim","type":"Landkreis"},"federalState":{"key":"09","name":"Bayern"}},{"name":"Kolberstr.","postalCode":"83059","locality":"Kolbermoor","municipality":{"key":"09187150","name":"Kolbermoor, St","type":"Stadt"},"district":{"key":"09187","name":"Rosenheim","type":"Landkreis"},"federalState":{"key":"09","name":"Bayern"}},{"name":"Königsseestr.","postalCode":"83059","locality":"Kolbermoor","municipality":{"key":"09187150","name":"Kolbermoor, St","type":"Stadt"},"district":{"key":"09187","name":"Rosenheim","type":"Landkreis"},"federalState":{"key":"09","name":"Bayern"}},{"name":"Kranzhornstr.","postalCode":"83059","locality":"Kolbermoor","municipality":{"key":"09187150","name":"Kolbermoor, St","type":"Stadt"},"district":{"key":"09187","name":"Rosenheim","type":"Landkreis"},"federalState":{"key":"09","name":"Bayern"}},{"name":"Kutterlinger Weg","postalCode":"83059","locality":"Kolbermoor","municipality":{"key":"09187150","name":"Kolbermoor, St","type":"Stadt"},"district":{"key":"09187","name":"Rosenheim","type":"Landkreis"},"federalState":{"key":"09","name":"Bayern"}},{"name":"Lena-Christ-Str.","postalCode":"83059","locality":"Kolbermoor","municipality":{"key":"09187150","name":"Kolbermoor, St","type":"Stadt"},"district":{"key":"09187","name":"Rosenheim","type":"Landkreis"},"federalState":{"key":"09","name":"Bayern"}},{"name":"Ludwig-Prager-Str.","postalCode":"83059","locality":"Kolbermoor","municipality":{"key":"09187150","name":"Kolbermoor, St","type":"Stadt"},"district":{"key":"09187","name":"Rosenheim","type":"Landkreis"},"federalState":{"key":"09","name":"Bayern"}},{"name":"Ludwigstr.","postalCode":"83059","locality":"Kolbermoor","municipality":{"key":"09187150","name":"Kolbermoor, St","type":"Stadt"},"district":{"key":"09187","name":"Rosenheim","type":"Landkreis"},"federalState":{"key":"09","name":"Bayern"}},{"name":"Ludwig-Thoma-Weg","postalCode":"83059","locality":"Kolbermoor","municipality":{"key":"09187150","name":"Kolbermoor, St","type":"Stadt"},"district":{"key":"09187","name":"Rosenheim","type":"Landkreis"},"federalState":{"key":"09","name":"Bayern"}},{"name":"Ludwig-Uhland-Str.","postalCode":"83059","locality":"Kolbermoor","municipality":{"key":"09187150","name":"Kolbermoor, St","type":"Stadt"},"district":{"key":"09187","name":"Rosenheim","type":"Landkreis"},"federalState":{"key":"09","name":"Bayern"}},{"name":"Luxstr.","postalCode":"83059","locality":"Kolbermoor","municipality":{"key":"09187150","name":"Kolbermoor, St","type":"Stadt"},"district":{"key":"09187","name":"Rosenheim","type":"Landkreis"},"federalState":{"key":"09","name":"Bayern"}},{"name":"Mangfallring","postalCode":"83059","locality":"Kolbermoor","municipality":{"key":"09187150","name":"Kolbermoor, St","type":"Stadt"},"district":{"key":"09187","name":"Rosenheim","type":"Landkreis"},"federalState":{"key":"09","name":"Bayern"}},{"name":"Martin-Luther-Str.","postalCode":"83059","locality":"Kolbermoor","municipality":{"key":"09187150","name":"Kolbermoor, St","type":"Stadt"},"district":{"key":"09187","name":"Rosenheim","type":"Landkreis"},"federalState":{"key":"09","name":"Bayern"}},{"name":"Martin-Stangl-Str.","postalCode":"83059","locality":"Kolbermoor","municipality":{"key":"09187150","name":"Kolbermoor, St","type":"Stadt"},"district":{"key":"09187","name":"Rosenheim","type":"Landkreis"},"federalState":{"key":"09","name":"Bayern"}},{"name":"Mattinastr.","postalCode":"83059","locality":"Kolbermoor","municipality":{"key":"09187150","name":"Kolbermoor, St","type":"Stadt"},"district":{"key":"09187","name":"Rosenheim","type":"Landkreis"},"federalState":{"key":"09","name":"Bayern"}},{"name":"Max-Baier-Weg","postalCode":"83059","locality":"Kolbermoor","municipality":{"key":"09187150","name":"Kolbermoor, St","type":"Stadt"},"district":{"key":"09187","name":"Rosenheim","type":"Landkreis"},"federalState":{"key":"09","name":"Bayern"}},{"name":"Maxstr.","postalCode":"83059","locality":"Kolbermoor","municipality":{"key":"09187150","name":"Kolbermoor, St","type":"Stadt"},"district":{"key":"09187","name":"Rosenheim","type":"Landkreis"},"federalState":{"key":"09","name":"Bayern"}},{"name":"Mietrachinger Str.","postalCode":"83059","locality":"Kolbermoor","municipality":{"key":"09187150","name":"Kolbermoor, St","type":"Stadt"},"district":{"key":"09187","name":"Rosenheim","type":"Landkreis"},"federalState":{"key":"09","name":"Bayern"}},{"name":"Mina-Helfer-Str.","postalCode":"83059","locality":"Kolbermoor","municipality":{"key":"09187150","name":"Kolbermoor, St","type":"Stadt"},"district":{"key":"09187","name":"Rosenheim","type":"Landkreis"},"federalState":{"key":"09","name":"Bayern"}},{"name":"Mitterharter Str.","postalCode":"83059","locality":"Kolbermoor","municipality":{"key":"09187150","name":"Kolbermoor, St","type":"Stadt"},"district":{"key":"09187","name":"Rosenheim","type":"Landkreis"},"federalState":{"key":"09","name":"Bayern"}},{"name":"Moorkultur","postalCode":"83059","locality":"Kolbermoor","municipality":{"key":"09187150","name":"Kolbermoor, St","type":"Stadt"},"district":{"key":"09187","name":"Rosenheim","type":"Landkreis"},"federalState":{"key":"09","name":"Bayern"}},{"name":"Moosstr.","postalCode":"83059","locality":"Kolbermoor","municipality":{"key":"09187150","name":"Kolbermoor, St","type":"Stadt"},"district":{"key":"09187","name":"Rosenheim","type":"Landkreis"},"federalState":{"key":"09","name":"Bayern"}},{"name":"Mörikestr.","postalCode":"83059","locality":"Kolbermoor","municipality":{"key":"09187150","name":"Kolbermoor, St","type":"Stadt"},"district":{"key":"09187","name":"Rosenheim","type":"Landkreis"},"federalState":{"key":"09","name":"Bayern"}},{"name":"Naabstr.","postalCode":"83026","locality":"Rosenheim","municipality":{"key":"09163000","name":"Rosenheim","type":"Kreisfreie_Stadt"},"district":{"key":"09163","name":"Rosenheim","type":"Kreisfreie_Stadt"},"federalState":{"key":"09","name":"Bayern"}},{"name":"Naurother Str.","postalCode":"57520","locality":"Rosenheim","municipality":{"key":"07132095","name":"Rosenheim (Landkreis Altenkirchen)","type":"Kreisangehörige_Gemeinde"},"district":{"key":"07132","name":"Altenkirchen (Westerwald)","type":"Landkreis"},"federalState":{"key":"07","name":"Rheinland-Pfalz"}},{"name":"Nelkenweg","postalCode":"83022","locality":"Rosenheim","municipality":{"key":"09163000","name":"Rosenheim","type":"Kreisfreie_Stadt"},"district":{"key":"09163","name":"Rosenheim","type":"Kreisfreie_Stadt"},"federalState":{"key":"09","name":"Bayern"}},{"name":"Neubeuerer Str.","postalCode":"83026","locality":"Rosenheim","municipality":{"key":"09163000","name":"Rosenheim","type":"Kreisfreie_Stadt"},"district":{"key":"09163","name":"Rosenheim","type":"Kreisfreie_Stadt"},"federalState":{"key":"09","name":"Bayern"}},{"name":"Neue Heimat","postalCode":"83024","locality":"Rosenheim","municipality":{"key":"09163000","name":"Rosenheim","type":"Kreisfreie_Stadt"},"district":{"key":"09163","name":"Rosenheim","type":"Kreisfreie_Stadt"},"federalState":{"key":"09","name":"Bayern"}},{"name":"Niederdonauweg","postalCode":"83024","locality":"Rosenheim","municipality":{"key":"09163000","name":"Rosenheim","type":"Kreisfreie_Stadt"},"district":{"key":"09163","name":"Rosenheim","type":"Kreisfreie_Stadt"},"federalState":{"key":"09","name":"Bayern"}},{"name":"Niederschlesienstr.","postalCode":"83024","locality":"Rosenheim","municipality":{"key":"09163000","name":"Rosenheim","type":"Kreisfreie_Stadt"},"district":{"key":"09163","name":"Rosenheim","type":"Kreisfreie_Stadt"},"federalState":{"key":"09","name":"Bayern"}},{"name":"Nikolaistr.","postalCode":"83022","locality":"Rosenheim","municipality":{"key":"09163000","name":"Rosenheim","type":"Kreisfreie_Stadt"},"district":{"key":"09163","name":"Rosenheim","type":"Kreisfreie_Stadt"},"federalState":{"key":"09","name":"Bayern"}},{"name":"Nördliche Grubholzer Str.","postalCode":"83026","locality":"Rosenheim","municipality":{"key":"09163000","name":"Rosenheim","type":"Kreisfreie_Stadt"},"district":{"key":"09163","name":"Rosenheim","type":"Kreisfreie_Stadt"},"federalState":{"key":"09","name":"Bayern"}},{"name":"Notburgastr.","postalCode":"83024","locality":"Rosenheim","municipality":{"key":"09163000","name":"Rosenheim","type":"Kreisfreie_Stadt"},"district":{"key":"09163","name":"Rosenheim","type":"Kreisfreie_Stadt"},"federalState":{"key":"09","name":"Bayern"}},{"name":"Nußbaumstr.","postalCode":"83026","locality":"Rosenheim","municipality":{"key":"09163000","name":"Rosenheim","type":"Kreisfreie_Stadt"},"district":{"key":"09163","name":"Rosenheim","type":"Kreisfreie_Stadt"},"federalState":{"key":"09","name":"Bayern"}},{"name":"Nußdorfer Str.","postalCode":"83026","locality":"Rosenheim","municipality":{"key":"09163000","name":"Rosenheim","type":"Kreisfreie_Stadt"},"district":{"key":"09163","name":"Rosenheim","type":"Kreisfreie_Stadt"},"federalState":{"key":"09","name":"Bayern"}},{"name":"Obere Breitensteinstr.","postalCode":"83059","locality":"Kolbermoor","municipality":{"key":"09187150","name":"Kolbermoor, St","type":"Stadt"},"district":{"key":"09187","name":"Rosenheim","type":"Landkreis"},"federalState":{"key":"09","name":"Bayern"}},{"name":"Obere Mangfallstr.","postalCode":"83059","locality":"Kolbermoor","municipality":{"key":"09187150","name":"Kolbermoor, St","type":"Stadt"},"district":{"key":"09187","name":"Rosenheim","type":"Landkreis"},"federalState":{"key":"09","name":"Bayern"}},{"name":"Ottostr.","postalCode":"83059","locality":"Kolbermoor","municipality":{"key":"09187150","name":"Kolbermoor, St","type":"Stadt"},"district":{"key":"09187","name":"Rosenheim","type":"Landkreis"},"federalState":{"key":"09","name":"Bayern"}},{"name":"Peter-Rosegger-Str.","postalCode":"83059","locality":"Kolbermoor","municipality":{"key":"09187150","name":"Kolbermoor, St","type":"Stadt"},"district":{"key":"09187","name":"Rosenheim","type":"Landkreis"},"federalState":{"key":"09","name":"Bayern"}},{"name":"Petersbergstr.","postalCode":"83059","locality":"Kolbermoor","municipality":{"key":"09187150","name":"Kolbermoor, St","type":"Stadt"},"district":{"key":"09187","name":"Rosenheim","type":"Landkreis"},"federalState":{"key":"09","name":"Bayern"}},{"name":"Pfarrer-Birnkammer-Str.","postalCode":"83059","locality":"Kolbermoor","municipality":{"key":"09187150","name":"Kolbermoor, St","type":"Stadt"},"district":{"key":"09187","name":"Rosenheim","type":"Landkreis"},"federalState":{"key":"09","name":"Bayern"}},{"name":"Pfarrer-Klaas-Str.","postalCode":"83059","locality":"Kolbermoor","municipality":{"key":"09187150","name":"Kolbermoor, St","type":"Stadt"},"district":{"key":"09187","name":"Rosenheim","type":"Landkreis"},"federalState":{"key":"09","name":"Bayern"}},{"name":"Pfarrer-Moosleitner-Str.","postalCode":"83059","locality":"Kolbermoor","municipality":{"key":"09187150","name":"Kolbermoor, St","type":"Stadt"},"district":{"key":"09187","name":"Rosenheim","type":"Landkreis"},"federalState":{"key":"09","name":"Bayern"}},{"name":"Pommernstr.","postalCode":"83059","locality":"Kolbermoor","municipality":{"key":"09187150","name":"Kolbermoor, St","type":"Stadt"},"district":{"key":"09187","name":"Rosenheim","type":"Landkreis"},"federalState":{"key":"09","name":"Bayern"}},{"name":"Pullach","postalCode":"83059","locality":"Kolbermoor","municipality":{"key":"09187150","name":"Kolbermoor, St","type":"Stadt"},"district":{"key":"09187","name":"Rosenheim","type":"Landkreis"},"federalState":{"key":"09","name":"Bayern"}},{"name":"Pullacher Au","postalCode":"83059","locality":"Kolbermoor","municipality":{"key":"09187150","name":"Kolbermoor, St","type":"Stadt"},"district":{"key":"09187","name":"Rosenheim","type":"Landkreis"},"federalState":{"key":"09","name":"Bayern"}},{"name":"Pullacher Kreisel","postalCode":"83059","locality":"Kolbermoor","municipality":{"key":"09187150","name":"Kolbermoor, St","type":"Stadt"},"district":{"key":"09187","name":"Rosenheim","type":"Landkreis"},"federalState":{"key":"09","name":"Bayern"}},{"name":"Quirinstr.","postalCode":"83024","locality":"Rosenheim","municipality":{"key":"09163000","name":"Rosenheim","type":"Kreisfreie_Stadt"},"district":{"key":"09163","name":"Rosenheim","type":"Kreisfreie_Stadt"},"federalState":{"key":"09","name":"Bayern"}},{"name":"Rackermoosstr.","postalCode":"83059","locality":"Kolbermoor","municipality":{"key":"09187150","name":"Kolbermoor, St","type":"Stadt"},"district":{"key":"09187","name":"Rosenheim","type":"Landkreis"},"federalState":{"key":"09","name":"Bayern"}},{"name":"Rainerstr.","postalCode":"83059","locality":"Kolbermoor","municipality":{"key":"09187150","name":"Kolbermoor, St","type":"Stadt"},"district":{"key":"09187","name":"Rosenheim","type":"Landkreis"},"federalState":{"key":"09","name":"Bayern"}},{"name":"Rathauspark","postalCode":"83059","locality":"Kolbermoor","municipality":{"key":"09187150","name":"Kolbermoor, St","type":"Stadt"},"district":{"key":"09187","name":"Rosenheim","type":"Landkreis"},"federalState":{"key":"09","name":"Bayern"}},{"name":"Rebhuhnweg","postalCode":"83059","locality":"Kolbermoor","municipality":{"key":"09187150","name":"Kolbermoor, St","type":"Stadt"},"district":{"key":"09187","name":"Rosenheim","type":"Landkreis"},"federalState":{"key":"09","name":"Bayern"}},{"name":"Reichenbachstr.","postalCode":"83059","locality":"Kolbermoor","municipality":{"key":"09187150","name":"Kolbermoor, St","type":"Stadt"},"district":{"key":"09187","name":"Rosenheim","type":"Landkreis"},"federalState":{"key":"09","name":"Bayern"}},{"name":"Rilkestr.","postalCode":"83059","locality":"Kolbermoor","municipality":{"key":"09187150","name":"Kolbermoor, St","type":"Stadt"},"district":{"key":"09187","name":"Rosenheim","type":"Landkreis"},"federalState":{"key":"09","name":"Bayern"}},{"name":"Ritschstr.","postalCode":"83059","locality":"Kolbermoor","municipality":{"key":"09187150","name":"Kolbermoor, St","type":"Stadt"},"district":{"key":"09187","name":"Rosenheim","type":"Landkreis"},"federalState":{"key":"09","name":"Bayern"}},{"name":"Rosenheimer Str.","postalCode":"83059","locality":"Kolbermoor","municipality":{"key":"09187150","name":"Kolbermoor, St","type":"Stadt"},"district":{"key":"09187","name":"Rosenheim","type":"Landkreis"},"federalState":{"key":"09","name":"Bayern"}},{"name":"Rudolf-Hausenblas-Str.","postalCode":"83059","locality":"Kolbermoor","municipality":{"key":"09187150","name":"Kolbermoor, St","type":"Stadt"},"district":{"key":"09187","name":"Rosenheim","type":"Landkreis"},"federalState":{"key":"09","name":"Bayern"}},{"name":"Schäfersiedlung","postalCode":"83059","locality":"Kolbermoor","municipality":{"key":"09187150","name":"Kolbermoor, St","type":"Stadt"},"district":{"key":"09187","name":"Rosenheim","type":"Landkreis"},"federalState":{"key":"09","name":"Bayern"}},{"name":"Schlarbhofener Str.","postalCode":"83059","locality":"Kolbermoor","municipality":{"key":"09187150","name":"Kolbermoor, St","type":"Stadt"},"district":{"key":"09187","name":"Rosenheim","type":"Landkreis"},"federalState":{"key":"09","name":"Bayern"}},{"name":"Schlesierstr.","postalCode":"83059","locality":"Kolbermoor","municipality":{"key":"09187150","name":"Kolbermoor, St","type":"Stadt"},"district":{"key":"09187","name":"Rosenheim","type":"Landkreis"},"federalState":{"key":"09","name":"Bayern"}},{"name":"Schlierseestr.","postalCode":"83059","locality":"Kolbermoor","municipality":{"key":"09187150","name":"Kolbermoor, St","type":"Stadt"},"district":{"key":"09187","name":"Rosenheim","type":"Landkreis"},"federalState":{"key":"09","name":"Bayern"}},{"name":"Schmiedestr.","postalCode":"83059","locality":"Kolbermoor","municipality":{"key":"09187150","name":"Kolbermoor, St","type":"Stadt"},"district":{"key":"09187","name":"Rosenheim","type":"Landkreis"},"federalState":{"key":"09","name":"Bayern"}},{"name":"Schuhmannstr.","postalCode":"83059","locality":"Kolbermoor","municipality":{"key":"09187150","name":"Kolbermoor, St","type":"Stadt"},"district":{"key":"09187","name":"Rosenheim","type":"Landkreis"},"federalState":{"key":"09","name":"Bayern"}},{"name":"Schwarzenbergstr.","postalCode":"83059","locality":"Kolbermoor","municipality":{"key":"09187150","name":"Kolbermoor, St","type":"Stadt"},"district":{"key":"09187","name":"Rosenheim","type":"Landkreis"},"federalState":{"key":"09","name":"Bayern"}},{"name":"Sepp-Straßberger-Str.","postalCode":"83059","locality":"Kolbermoor","municipality":{"key":"09187150","name":"Kolbermoor, St","type":"Stadt"},"district":{"key":"09187","name":"Rosenheim","type":"Landkreis"},"federalState":{"key":"09","name":"Bayern"}},{"name":"Siedlerplatz","postalCode":"83059","locality":"Kolbermoor","municipality":{"key":"09187150","name":"Kolbermoor, St","type":"Stadt"},"district":{"key":"09187","name":"Rosenheim","type":"Landkreis"},"federalState":{"key":"09","name":"Bayern"}},{"name":"Sigmund-Fischer-Str.","postalCode":"83059","locality":"Kolbermoor","municipality":{"key":"09187150","name":"Kolbermoor, St","type":"Stadt"},"district":{"key":"09187","name":"Rosenheim","type":"Landkreis"},"federalState":{"key":"09","name":"Bayern"}},{"name":"Simsseestr.","postalCode":"83059","locality":"Kolbermoor","municipality":{"key":"09187150","name":"Kolbermoor, St","type":"Stadt"},"district":{"key":"09187","name":"Rosenheim","type":"Landkreis"},"federalState":{"key":"09","name":"Bayern"}},{"name":"Spielhahnstr.","postalCode":"83059","locality":"Kolbermoor","municipality":{"key":"09187150","name":"Kolbermoor, St","type":"Stadt"},"district":{"key":"09187","name":"Rosenheim","type":"Landkreis"},"federalState":{"key":"09","name":"Bayern"}},{"name":"Spinnereiinsel","postalCode":"83059","locality":"Kolbermoor","municipality":{"key":"09187150","name":"Kolbermoor, St","type":"Stadt"},"district":{"key":"09187","name":"Rosenheim","type":"Landkreis"},"federalState":{"key":"09","name":"Bayern"}},{"name":"Spitzingseestr.","postalCode":"83059","locality":"Kolbermoor","municipality":{"key":"09187150","name":"Kolbermoor, St","type":"Stadt"},"district":{"key":"09187","name":"Rosenheim","type":"Landkreis"},"federalState":{"key":"09","name":"Bayern"}},{"name":"Spitzsteinstr.","postalCode":"83059","locality":"Kolbermoor","municipality":{"key":"09187150","name":"Kolbermoor, St","type":"Stadt"},"district":{"key":"09187","name":"Rosenheim","type":"Landkreis"},"federalState":{"key":"09","name":"Bayern"}},{"name":"Staatsstr.","postalCode":"83059","locality":"Kolbermoor","municipality":{"key":"09187150","name":"Kolbermoor, St","type":"Stadt"},"district":{"key":"09187","name":"Rosenheim","type":"Landkreis"},"federalState":{"key":"09","name":"Bayern"}},{"name":"Stadlerstr.","postalCode":"83059","locality":"Kolbermoor","municipality":{"key":"09187150","name":"Kolbermoor, St","type":"Stadt"},"district":{"key":"09187","name":"Rosenheim","type":"Landkreis"},"federalState":{"key":"09","name":"Bayern"}},{"name":"Staffelseestr.","postalCode":"83059","locality":"Kolbermoor","municipality":{"key":"09187150","name":"Kolbermoor, St","type":"Stadt"},"district":{"key":"09187","name":"Rosenheim","type":"Landkreis"},"federalState":{"key":"09","name":"Bayern"}},{"name":"Stettnerstr.","postalCode":"83059","locality":"Kolbermoor","municipality":{"key":"09187150","name":"Kolbermoor, St","type":"Stadt"},"district":{"key":"09187","name":"Rosenheim","type":"Landkreis"},"federalState":{"key":"09","name":"Bayern"}},{"name":"Sudetenstr.","postalCode":"83059","locality":"Kolbermoor","municipality":{"key":"09187150","name":"Kolbermoor, St","type":"Stadt"},"district":{"key":"09187","name":"Rosenheim","type":"Landkreis"},"federalState":{"key":"09","name":"Bayern"}},{"name":"Sulzbergstr.","postalCode":"83059","locality":"Kolbermoor","municipality":{"key":"09187150","name":"Kolbermoor, St","type":"Stadt"},"district":{"key":"09187","name":"Rosenheim","type":"Landkreis"},"federalState":{"key":"09","name":"Bayern"}},{"name":"Tegernseestr.","postalCode":"83059","locality":"Kolbermoor","municipality":{"key":"09187150","name":"Kolbermoor, St","type":"Stadt"},"district":{"key":"09187","name":"Rosenheim","type":"Landkreis"},"federalState":{"key":"09","name":"Bayern"}},{"name":"Theodor-Fontane-Str.","postalCode":"83059","locality":"Kolbermoor","municipality":{"key":"09187150","name":"Kolbermoor, St","type":"Stadt"},"district":{"key":"09187","name":"Rosenheim","type":"Landkreis"},"federalState":{"key":"09","name":"Bayern"}},{"name":"Theodor-Körner-Str.","postalCode":"83059","locality":"Kolbermoor","municipality":{"key":"09187150","name":"Kolbermoor, St","type":"Stadt"},"district":{"key":"09187","name":"Rosenheim","type":"Landkreis"},"federalState":{"key":"09","name":"Bayern"}},{"name":"Theodor-Mayer-Str.","postalCode":"83059","locality":"Kolbermoor","municipality":{"key":"09187150","name":"Kolbermoor, St","type":"Stadt"},"district":{"key":"09187","name":"Rosenheim","type":"Landkreis"},"federalState":{"key":"09","name":"Bayern"}},{"name":"Theodor-Storm-Str.","postalCode":"83059","locality":"Kolbermoor","municipality":{"key":"09187150","name":"Kolbermoor, St","type":"Stadt"},"district":{"key":"09187","name":"Rosenheim","type":"Landkreis"},"federalState":{"key":"09","name":"Bayern"}},{"name":"Traithenstr.","postalCode":"83059","locality":"Kolbermoor","municipality":{"key":"09187150","name":"Kolbermoor, St","type":"Stadt"},"district":{"key":"09187","name":"Rosenheim","type":"Landkreis"},"federalState":{"key":"09","name":"Bayern"}},{"name":"Untere Mangfallstr.","postalCode":"83059","locality":"Kolbermoor","municipality":{"key":"09187150","name":"Kolbermoor, St","type":"Stadt"},"district":{"key":"09187","name":"Rosenheim","type":"Landkreis"},"federalState":{"key":"09","name":"Bayern"}},{"name":"VdK-Siedlung","postalCode":"83059","locality":"Kolbermoor","municipality":{"key":"09187150","name":"Kolbermoor, St","type":"Stadt"},"district":{"key":"09187","name":"Rosenheim","type":"Landkreis"},"federalState":{"key":"09","name":"Bayern"}},{"name":"Von-Bippen-Str.","postalCode":"83059","locality":"Kolbermoor","municipality":{"key":"09187150","name":"Kolbermoor, St","type":"Stadt"},"district":{"key":"09187","name":"Rosenheim","type":"Landkreis"},"federalState":{"key":"09","name":"Bayern"}},{"name":"Von-Kleist-Str.","postalCode":"83059","locality":"Kolbermoor","municipality":{"key":"09187150","name":"Kolbermoor, St","type":"Stadt"},"district":{"key":"09187","name":"Rosenheim","type":"Landkreis"},"federalState":{"key":"09","name":"Bayern"}},{"name":"Wachtelstr.","postalCode":"83059","locality":"Kolbermoor","municipality":{"key":"09187150","name":"Kolbermoor, St","type":"Stadt"},"district":{"key":"09187","name":"Rosenheim","type":"Landkreis"},"federalState":{"key":"09","name":"Bayern"}},{"name":"Walchenseestr.","postalCode":"83059","locality":"Kolbermoor","municipality":{"key":"09187150","name":"Kolbermoor, St","type":"Stadt"},"district":{"key":"09187","name":"Rosenheim","type":"Landkreis"},"federalState":{"key":"09","name":"Bayern"}},{"name":"Wendelsteinstr.","postalCode":"83059","locality":"Kolbermoor","municipality":{"key":"09187150","name":"Kolbermoor, St","type":"Stadt"},"district":{"key":"09187","name":"Rosenheim","type":"Landkreis"},"federalState":{"key":"09","name":"Bayern"}},{"name":"Werkstr.","postalCode":"83059","locality":"Kolbermoor","municipality":{"key":"09187150","name":"Kolbermoor, St","type":"Stadt"},"district":{"key":"09187","name":"Rosenheim","type":"Landkreis"},"federalState":{"key":"09","name":"Bayern"}},{"name":"Wiedehopfstr.","postalCode":"83059","locality":"Kolbermoor","municipality":{"key":"09187150","name":"Kolbermoor, St","type":"Stadt"},"district":{"key":"09187","name":"Rosenheim","type":"Landkreis"},"federalState":{"key":"09","name":"Bayern"}},{"name":"Wiesenstr.","postalCode":"83059","locality":"Kolbermoor","municipality":{"key":"09187150","name":"Kolbermoor, St","type":"Stadt"},"district":{"key":"09187","name":"Rosenheim","type":"Landkreis"},"federalState":{"key":"09","name":"Bayern"}},{"name":"Wilhelm-Busch-Weg","postalCode":"83059","locality":"Kolbermoor","municipality":{"key":"09187150","name":"Kolbermoor, St","type":"Stadt"},"district":{"key":"09187","name":"Rosenheim","type":"Landkreis"},"federalState":{"key":"09","name":"Bayern"}},{"name":"Wilhelm-Zerr-Str.","postalCode":"83059","locality":"Kolbermoor","municipality":{"key":"09187150","name":"Kolbermoor, St","type":"Stadt"},"district":{"key":"09187","name":"Rosenheim","type":"Landkreis"},"federalState":{"key":"09","name":"Bayern"}},{"name":"Willinger Str.","postalCode":"83059","locality":"Kolbermoor","municipality":{"key":"09187150","name":"Kolbermoor, St","type":"Stadt"},"district":{"key":"09187","name":"Rosenheim","type":"Landkreis"},"federalState":{"key":"09","name":"Bayern"}},{"name":"Zeppelinstr.","postalCode":"83059","locality":"Kolbermoor","municipality":{"key":"09187150","name":"Kolbermoor, St","type":"Stadt"},"district":{"key":"09187","name":"Rosenheim","type":"Landkreis"},"federalState":{"key":"09","name":"Bayern"}},{"name":"Zugspitzstr.","postalCode":"83059","locality":"Kolbermoor","municipality":{"key":"09187150","name":"Kolbermoor, St","type":"Stadt"},"district":{"key":"09187","name":"Rosenheim","type":"Landkreis"},"federalState":{"key":"09","name":"Bayern"}},{"name":"Zur Tafel","postalCode":"83059","locality":"Kolbermoor","municipality":{"key":"09187150","name":"Kolbermoor, St","type":"Stadt"},"district":{"key":"09187","name":"Rosenheim","type":"Landkreis"},"federalState":{"key":"09","name":"Bayern"}},{"name":"Äußere Münchener Str.","postalCode":"83022","locality":"Rosenheim","municipality":{"key":"09163000","name":"Rosenheim","type":"Kreisfreie_Stadt"},"district":{"key":"09163","name":"Rosenheim","type":"Kreisfreie_Stadt"},"federalState":{"key":"09","name":"Bayern"}},{"name":"Äußere Münchener Str.","postalCode":"83026","locality":"Rosenheim","municipality":{"key":"09163000","name":"Rosenheim","type":"Kreisfreie_Stadt"},"district":{"key":"09163","name":"Rosenheim","type":"Kreisfreie_Stadt"},"federalState":{"key":"09","name":"Bayern"}},{"name":"Äußere Oberaustr.","postalCode":"83026","locality":"Rosenheim","municipality":{"key":"09163000","name":"Rosenheim","type":"Kreisfreie_Stadt"},"district":{"key":"09163","name":"Rosenheim","type":"Kreisfreie_Stadt"},"federalState":{"key":"09","name":"Bayern"}},]