[{"name":"Altdorf","postalCode":"23795","locality":"Schackendorf","municipality":{"key":"01060070","name":"Schackendorf","type":"Kreisangehörige_Gemeinde"},"district":{"key":"01060","name":"Segeberg","type":"Kreis"},"federalState":{"key":"01","name":"Schleswig-Holstein"}},{"name":"Am Bornkamp","postalCode":"23795","locality":"Schackendorf","municipality":{"key":"01060070","name":"Schackendorf","type":"Kreisangehörige_Gemeinde"},"district":{"key":"01060","name":"Segeberg","type":"Kreis"},"federalState":{"key":"01","name":"Schleswig-Holstein"}},{"name":"Am Sportplatz","postalCode":"23795","locality":"Schackendorf","municipality":{"key":"01060070","name":"Schackendorf","type":"Kreisangehörige_Gemeinde"},"district":{"key":"01060","name":"Segeberg","type":"Kreis"},"federalState":{"key":"01","name":"Schleswig-Holstein"}},{"name":"Am Wanderweg","postalCode":"23795","locality":"Schackendorf","municipality":{"key":"01060070","name":"Schackendorf","type":"Kreisangehörige_Gemeinde"},"district":{"key":"01060","name":"Segeberg","type":"Kreis"},"federalState":{"key":"01","name":"Schleswig-Holstein"}},{"name":"Bergstr.","postalCode":"23795","locality":"Schackendorf","municipality":{"key":"01060070","name":"Schackendorf","type":"Kreisangehörige_Gemeinde"},"district":{"key":"01060","name":"Segeberg","type":"Kreis"},"federalState":{"key":"01","name":"Schleswig-Holstein"}},{"name":"Birkenhof","postalCode":"23795","locality":"Schackendorf","municipality":{"key":"01060070","name":"Schackendorf","type":"Kreisangehörige_Gemeinde"},"district":{"key":"01060","name":"Segeberg","type":"Kreis"},"federalState":{"key":"01","name":"Schleswig-Holstein"}},{"name":"Bramstedter Landstr.","postalCode":"23795","locality":"Schackendorf","municipality":{"key":"01060070","name":"Schackendorf","type":"Kreisangehörige_Gemeinde"},"district":{"key":"01060","name":"Segeberg","type":"Kreis"},"federalState":{"key":"01","name":"Schleswig-Holstein"}},{"name":"Carl-Stämmler-Weg","postalCode":"23795","locality":"Bad Segeberg","municipality":{"key":"01060005","name":"Bad Segeberg, Stadt","type":"Stadt"},"district":{"key":"01060","name":"Segeberg","type":"Kreis"},"federalState":{"key":"01","name":"Schleswig-Holstein"}},{"name":"Christian-Rohlfs-Str.","postalCode":"23795","locality":"Bad Segeberg","municipality":{"key":"01060005","name":"Bad Segeberg, Stadt","type":"Stadt"},"district":{"key":"01060","name":"Segeberg","type":"Kreis"},"federalState":{"key":"01","name":"Schleswig-Holstein"}},{"name":"Christiansfelde","postalCode":"23795","locality":"Bad Segeberg","municipality":{"key":"01060005","name":"Bad Segeberg, Stadt","type":"Stadt"},"district":{"key":"01060","name":"Segeberg","type":"Kreis"},"federalState":{"key":"01","name":"Schleswig-Holstein"}},{"name":"David-Kropff-Weg","postalCode":"23795","locality":"Bad Segeberg","municipality":{"key":"01060005","name":"Bad Segeberg, Stadt","type":"Stadt"},"district":{"key":"01060","name":"Segeberg","type":"Kreis"},"federalState":{"key":"01","name":"Schleswig-Holstein"}},{"name":"Doktor-Helmut-Lemke-Str.","postalCode":"23795","locality":"Bad Segeberg","municipality":{"key":"01060005","name":"Bad Segeberg, Stadt","type":"Stadt"},"district":{"key":"01060","name":"Segeberg","type":"Kreis"},"federalState":{"key":"01","name":"Schleswig-Holstein"}},{"name":"Dorfstr.","postalCode":"23795","locality":"Bad Segeberg","municipality":{"key":"01060005","name":"Bad Segeberg, Stadt","type":"Stadt"},"district":{"key":"01060","name":"Segeberg","type":"Kreis"},"federalState":{"key":"01","name":"Schleswig-Holstein"}},{"name":"Drosselweg","postalCode":"23795","locality":"Bad Segeberg","municipality":{"key":"01060005","name":"Bad Segeberg, Stadt","type":"Stadt"},"district":{"key":"01060","name":"Segeberg","type":"Kreis"},"federalState":{"key":"01","name":"Schleswig-Holstein"}},{"name":"Eichhorst","postalCode":"23795","locality":"Schackendorf","municipality":{"key":"01060070","name":"Schackendorf","type":"Kreisangehörige_Gemeinde"},"district":{"key":"01060","name":"Segeberg","type":"Kreis"},"federalState":{"key":"01","name":"Schleswig-Holstein"}},{"name":"Fahrenkruger Weg","postalCode":"23795","locality":"Schackendorf","municipality":{"key":"01060070","name":"Schackendorf","type":"Kreisangehörige_Gemeinde"},"district":{"key":"01060","name":"Segeberg","type":"Kreis"},"federalState":{"key":"01","name":"Schleswig-Holstein"}},{"name":"Gänsekamp","postalCode":"23795","locality":"Bad Segeberg","municipality":{"key":"01060005","name":"Bad Segeberg, Stadt","type":"Stadt"},"district":{"key":"01060","name":"Segeberg","type":"Kreis"},"federalState":{"key":"01","name":"Schleswig-Holstein"}},{"name":"Gartenstr.","postalCode":"23795","locality":"Bad Segeberg","municipality":{"key":"01060005","name":"Bad Segeberg, Stadt","type":"Stadt"},"district":{"key":"01060","name":"Segeberg","type":"Kreis"},"federalState":{"key":"01","name":"Schleswig-Holstein"}},{"name":"Geschwister-Scholl-Str.","postalCode":"23795","locality":"Bad Segeberg","municipality":{"key":"01060005","name":"Bad Segeberg, Stadt","type":"Stadt"},"district":{"key":"01060","name":"Segeberg","type":"Kreis"},"federalState":{"key":"01","name":"Schleswig-Holstein"}},{"name":"Gieschenhagen","postalCode":"23795","locality":"Bad Segeberg","municipality":{"key":"01060005","name":"Bad Segeberg, Stadt","type":"Stadt"},"district":{"key":"01060","name":"Segeberg","type":"Kreis"},"federalState":{"key":"01","name":"Schleswig-Holstein"}},{"name":"Gieselkamp","postalCode":"23795","locality":"Bad Segeberg","municipality":{"key":"01060005","name":"Bad Segeberg, Stadt","type":"Stadt"},"district":{"key":"01060","name":"Segeberg","type":"Kreis"},"federalState":{"key":"01","name":"Schleswig-Holstein"}},{"name":"Ginsterweg","postalCode":"23795","locality":"Bad Segeberg","municipality":{"key":"01060005","name":"Bad Segeberg, Stadt","type":"Stadt"},"district":{"key":"01060","name":"Segeberg","type":"Kreis"},"federalState":{"key":"01","name":"Schleswig-Holstein"}},{"name":"Glindenberg","postalCode":"23795","locality":"Bad Segeberg","municipality":{"key":"01060005","name":"Bad Segeberg, Stadt","type":"Stadt"},"district":{"key":"01060","name":"Segeberg","type":"Kreis"},"federalState":{"key":"01","name":"Schleswig-Holstein"}},{"name":"Graf-Gerhard-Str.","postalCode":"23795","locality":"Bad Segeberg","municipality":{"key":"01060005","name":"Bad Segeberg, Stadt","type":"Stadt"},"district":{"key":"01060","name":"Segeberg","type":"Kreis"},"federalState":{"key":"01","name":"Schleswig-Holstein"}},{"name":"Große Seestr.","postalCode":"23795","locality":"Bad Segeberg","municipality":{"key":"01060005","name":"Bad Segeberg, Stadt","type":"Stadt"},"district":{"key":"01060","name":"Segeberg","type":"Kreis"},"federalState":{"key":"01","name":"Schleswig-Holstein"}},{"name":"Hamdorfer Weg","postalCode":"23795","locality":"Schackendorf","municipality":{"key":"01060070","name":"Schackendorf","type":"Kreisangehörige_Gemeinde"},"district":{"key":"01060","name":"Segeberg","type":"Kreis"},"federalState":{"key":"01","name":"Schleswig-Holstein"}},{"name":"Hauptstr.","postalCode":"23795","locality":"Schackendorf","municipality":{"key":"01060070","name":"Schackendorf","type":"Kreisangehörige_Gemeinde"},"district":{"key":"01060","name":"Segeberg","type":"Kreis"},"federalState":{"key":"01","name":"Schleswig-Holstein"}},{"name":"Im Winkel","postalCode":"23795","locality":"Schackendorf","municipality":{"key":"01060070","name":"Schackendorf","type":"Kreisangehörige_Gemeinde"},"district":{"key":"01060","name":"Segeberg","type":"Kreis"},"federalState":{"key":"01","name":"Schleswig-Holstein"}},{"name":"Jasminstr.","postalCode":"23795","locality":"Bad Segeberg","municipality":{"key":"01060005","name":"Bad Segeberg, Stadt","type":"Stadt"},"district":{"key":"01060","name":"Segeberg","type":"Kreis"},"federalState":{"key":"01","name":"Schleswig-Holstein"}},{"name":"Julius-Leber-Str.","postalCode":"23795","locality":"Bad Segeberg","municipality":{"key":"01060005","name":"Bad Segeberg, Stadt","type":"Stadt"},"district":{"key":"01060","name":"Segeberg","type":"Kreis"},"federalState":{"key":"01","name":"Schleswig-Holstein"}},{"name":"Jürgensweg","postalCode":"23795","locality":"Bad Segeberg","municipality":{"key":"01060005","name":"Bad Segeberg, Stadt","type":"Stadt"},"district":{"key":"01060","name":"Segeberg","type":"Kreis"},"federalState":{"key":"01","name":"Schleswig-Holstein"}},{"name":"Kaiser-Lothar-Allee","postalCode":"23795","locality":"Bad Segeberg","municipality":{"key":"01060005","name":"Bad Segeberg, Stadt","type":"Stadt"},"district":{"key":"01060","name":"Segeberg","type":"Kreis"},"federalState":{"key":"01","name":"Schleswig-Holstein"}},{"name":"Kalkberg","postalCode":"23795","locality":"Bad Segeberg","municipality":{"key":"01060005","name":"Bad Segeberg, Stadt","type":"Stadt"},"district":{"key":"01060","name":"Segeberg","type":"Kreis"},"federalState":{"key":"01","name":"Schleswig-Holstein"}},{"name":"Kalkberg Passage","postalCode":"23795","locality":"Bad Segeberg","municipality":{"key":"01060005","name":"Bad Segeberg, Stadt","type":"Stadt"},"district":{"key":"01060","name":"Segeberg","type":"Kreis"},"federalState":{"key":"01","name":"Schleswig-Holstein"}},{"name":"Kanaltwiete","postalCode":"23795","locality":"Bad Segeberg","municipality":{"key":"01060005","name":"Bad Segeberg, Stadt","type":"Stadt"},"district":{"key":"01060","name":"Segeberg","type":"Kreis"},"federalState":{"key":"01","name":"Schleswig-Holstein"}},{"name":"Karl-Storch-Str.","postalCode":"23795","locality":"Bad Segeberg","municipality":{"key":"01060005","name":"Bad Segeberg, Stadt","type":"Stadt"},"district":{"key":"01060","name":"Segeberg","type":"Kreis"},"federalState":{"key":"01","name":"Schleswig-Holstein"}},{"name":"Kastanienweg","postalCode":"23795","locality":"Bad Segeberg","municipality":{"key":"01060005","name":"Bad Segeberg, Stadt","type":"Stadt"},"district":{"key":"01060","name":"Segeberg","type":"Kreis"},"federalState":{"key":"01","name":"Schleswig-Holstein"}},{"name":"Kattberg","postalCode":"23795","locality":"Bad Segeberg","municipality":{"key":"01060005","name":"Bad Segeberg, Stadt","type":"Stadt"},"district":{"key":"01060","name":"Segeberg","type":"Kreis"},"federalState":{"key":"01","name":"Schleswig-Holstein"}},{"name":"Keltingstr.","postalCode":"23795","locality":"Bad Segeberg","municipality":{"key":"01060005","name":"Bad Segeberg, Stadt","type":"Stadt"},"district":{"key":"01060","name":"Segeberg","type":"Kreis"},"federalState":{"key":"01","name":"Schleswig-Holstein"}},{"name":"Kiekut","postalCode":"23795","locality":"Bad Segeberg","municipality":{"key":"01060005","name":"Bad Segeberg, Stadt","type":"Stadt"},"district":{"key":"01060","name":"Segeberg","type":"Kreis"},"federalState":{"key":"01","name":"Schleswig-Holstein"}},{"name":"Kirchstr.","postalCode":"23795","locality":"Bad Segeberg","municipality":{"key":"01060005","name":"Bad Segeberg, Stadt","type":"Stadt"},"district":{"key":"01060","name":"Segeberg","type":"Kreis"},"federalState":{"key":"01","name":"Schleswig-Holstein"}},{"name":"Klaus-Groth-Weg","postalCode":"23795","locality":"Bad Segeberg","municipality":{"key":"01060005","name":"Bad Segeberg, Stadt","type":"Stadt"},"district":{"key":"01060","name":"Segeberg","type":"Kreis"},"federalState":{"key":"01","name":"Schleswig-Holstein"}},{"name":"Kleine Seestr.","postalCode":"23795","locality":"Bad Segeberg","municipality":{"key":"01060005","name":"Bad Segeberg, Stadt","type":"Stadt"},"district":{"key":"01060","name":"Segeberg","type":"Kreis"},"federalState":{"key":"01","name":"Schleswig-Holstein"}},{"name":"Klein Niendorfer Weg","postalCode":"23795","locality":"Bad Segeberg","municipality":{"key":"01060005","name":"Bad Segeberg, Stadt","type":"Stadt"},"district":{"key":"01060","name":"Segeberg","type":"Kreis"},"federalState":{"key":"01","name":"Schleswig-Holstein"}},{"name":"Klosterkamp","postalCode":"23795","locality":"Bad Segeberg","municipality":{"key":"01060005","name":"Bad Segeberg, Stadt","type":"Stadt"},"district":{"key":"01060","name":"Segeberg","type":"Kreis"},"federalState":{"key":"01","name":"Schleswig-Holstein"}},{"name":"Königsberger Str.","postalCode":"23795","locality":"Bad Segeberg","municipality":{"key":"01060005","name":"Bad Segeberg, Stadt","type":"Stadt"},"district":{"key":"01060","name":"Segeberg","type":"Kreis"},"federalState":{"key":"01","name":"Schleswig-Holstein"}},{"name":"Konrad-Adenauer-Ring","postalCode":"23795","locality":"Bad Segeberg","municipality":{"key":"01060005","name":"Bad Segeberg, Stadt","type":"Stadt"},"district":{"key":"01060","name":"Segeberg","type":"Kreis"},"federalState":{"key":"01","name":"Schleswig-Holstein"}},{"name":"Krankenhausstr.","postalCode":"23795","locality":"Bad Segeberg","municipality":{"key":"01060005","name":"Bad Segeberg, Stadt","type":"Stadt"},"district":{"key":"01060","name":"Segeberg","type":"Kreis"},"federalState":{"key":"01","name":"Schleswig-Holstein"}},{"name":"Kreutzkamp","postalCode":"23795","locality":"Bad Segeberg","municipality":{"key":"01060005","name":"Bad Segeberg, Stadt","type":"Stadt"},"district":{"key":"01060","name":"Segeberg","type":"Kreis"},"federalState":{"key":"01","name":"Schleswig-Holstein"}},{"name":"Kuckucksbarg","postalCode":"23795","locality":"Bad Segeberg","municipality":{"key":"01060005","name":"Bad Segeberg, Stadt","type":"Stadt"},"district":{"key":"01060","name":"Segeberg","type":"Kreis"},"federalState":{"key":"01","name":"Schleswig-Holstein"}},{"name":"Kuhkamp","postalCode":"23795","locality":"Bad Segeberg","municipality":{"key":"01060005","name":"Bad Segeberg, Stadt","type":"Stadt"},"district":{"key":"01060","name":"Segeberg","type":"Kreis"},"federalState":{"key":"01","name":"Schleswig-Holstein"}},{"name":"Kuhlkamp","postalCode":"23795","locality":"Bad Segeberg","municipality":{"key":"01060005","name":"Bad Segeberg, Stadt","type":"Stadt"},"district":{"key":"01060","name":"Segeberg","type":"Kreis"},"federalState":{"key":"01","name":"Schleswig-Holstein"}},{"name":"Kühneweg","postalCode":"23795","locality":"Bad Segeberg","municipality":{"key":"01060005","name":"Bad Segeberg, Stadt","type":"Stadt"},"district":{"key":"01060","name":"Segeberg","type":"Kreis"},"federalState":{"key":"01","name":"Schleswig-Holstein"}},{"name":"Kurhausstr.","postalCode":"23795","locality":"Bad Segeberg","municipality":{"key":"01060005","name":"Bad Segeberg, Stadt","type":"Stadt"},"district":{"key":"01060","name":"Segeberg","type":"Kreis"},"federalState":{"key":"01","name":"Schleswig-Holstein"}},{"name":"Kurt-Schumacher-Ring","postalCode":"23795","locality":"Bad Segeberg","municipality":{"key":"01060005","name":"Bad Segeberg, Stadt","type":"Stadt"},"district":{"key":"01060","name":"Segeberg","type":"Kreis"},"federalState":{"key":"01","name":"Schleswig-Holstein"}},{"name":"Lilienweg","postalCode":"23795","locality":"Schackendorf","municipality":{"key":"01060070","name":"Schackendorf","type":"Kreisangehörige_Gemeinde"},"district":{"key":"01060","name":"Segeberg","type":"Kreis"},"federalState":{"key":"01","name":"Schleswig-Holstein"}},{"name":"Marienstr.","postalCode":"23795","locality":"Bad Segeberg","municipality":{"key":"01060005","name":"Bad Segeberg, Stadt","type":"Stadt"},"district":{"key":"01060","name":"Segeberg","type":"Kreis"},"federalState":{"key":"01","name":"Schleswig-Holstein"}},{"name":"Matthias-Claudius-Weg","postalCode":"23795","locality":"Bad Segeberg","municipality":{"key":"01060005","name":"Bad Segeberg, Stadt","type":"Stadt"},"district":{"key":"01060","name":"Segeberg","type":"Kreis"},"federalState":{"key":"01","name":"Schleswig-Holstein"}},{"name":"Mecklenburger Str.","postalCode":"23795","locality":"Bad Segeberg","municipality":{"key":"01060005","name":"Bad Segeberg, Stadt","type":"Stadt"},"district":{"key":"01060","name":"Segeberg","type":"Kreis"},"federalState":{"key":"01","name":"Schleswig-Holstein"}},{"name":"Meisenweg","postalCode":"23795","locality":"Bad Segeberg","municipality":{"key":"01060005","name":"Bad Segeberg, Stadt","type":"Stadt"},"district":{"key":"01060","name":"Segeberg","type":"Kreis"},"federalState":{"key":"01","name":"Schleswig-Holstein"}},{"name":"Moltkestr.","postalCode":"23795","locality":"Bad Segeberg","municipality":{"key":"01060005","name":"Bad Segeberg, Stadt","type":"Stadt"},"district":{"key":"01060","name":"Segeberg","type":"Kreis"},"federalState":{"key":"01","name":"Schleswig-Holstein"}},{"name":"Mozartweg","postalCode":"23795","locality":"Bad Segeberg","municipality":{"key":"01060005","name":"Bad Segeberg, Stadt","type":"Stadt"},"district":{"key":"01060","name":"Segeberg","type":"Kreis"},"federalState":{"key":"01","name":"Schleswig-Holstein"}},{"name":"Mühlenkamp","postalCode":"23795","locality":"Bad Segeberg","municipality":{"key":"01060005","name":"Bad Segeberg, Stadt","type":"Stadt"},"district":{"key":"01060","name":"Segeberg","type":"Kreis"},"federalState":{"key":"01","name":"Schleswig-Holstein"}},{"name":"Neukoppel","postalCode":"23795","locality":"Schackendorf","municipality":{"key":"01060070","name":"Schackendorf","type":"Kreisangehörige_Gemeinde"},"district":{"key":"01060","name":"Segeberg","type":"Kreis"},"federalState":{"key":"01","name":"Schleswig-Holstein"}},{"name":"Oberbergstr.","postalCode":"23795","locality":"Bad Segeberg","municipality":{"key":"01060005","name":"Bad Segeberg, Stadt","type":"Stadt"},"district":{"key":"01060","name":"Segeberg","type":"Kreis"},"federalState":{"key":"01","name":"Schleswig-Holstein"}},{"name":"Oldesloer Str.","postalCode":"23795","locality":"Bad Segeberg","municipality":{"key":"01060005","name":"Bad Segeberg, Stadt","type":"Stadt"},"district":{"key":"01060","name":"Segeberg","type":"Kreis"},"federalState":{"key":"01","name":"Schleswig-Holstein"}},{"name":"Ostlandstr.","postalCode":"23795","locality":"Bad Segeberg","municipality":{"key":"01060005","name":"Bad Segeberg, Stadt","type":"Stadt"},"district":{"key":"01060","name":"Segeberg","type":"Kreis"},"federalState":{"key":"01","name":"Schleswig-Holstein"}},{"name":"Ostpreußenstr.","postalCode":"23795","locality":"Bad Segeberg","municipality":{"key":"01060005","name":"Bad Segeberg, Stadt","type":"Stadt"},"district":{"key":"01060","name":"Segeberg","type":"Kreis"},"federalState":{"key":"01","name":"Schleswig-Holstein"}},{"name":"Otto-Flath-Str.","postalCode":"23795","locality":"Bad Segeberg","municipality":{"key":"01060005","name":"Bad Segeberg, Stadt","type":"Stadt"},"district":{"key":"01060","name":"Segeberg","type":"Kreis"},"federalState":{"key":"01","name":"Schleswig-Holstein"}},{"name":"Parkstr.","postalCode":"23795","locality":"Bad Segeberg","municipality":{"key":"01060005","name":"Bad Segeberg, Stadt","type":"Stadt"},"district":{"key":"01060","name":"Segeberg","type":"Kreis"},"federalState":{"key":"01","name":"Schleswig-Holstein"}},{"name":"Pommernstr.","postalCode":"23795","locality":"Bad Segeberg","municipality":{"key":"01060005","name":"Bad Segeberg, Stadt","type":"Stadt"},"district":{"key":"01060","name":"Segeberg","type":"Kreis"},"federalState":{"key":"01","name":"Schleswig-Holstein"}},{"name":"Rantzaustr.","postalCode":"23795","locality":"Bad Segeberg","municipality":{"key":"01060005","name":"Bad Segeberg, Stadt","type":"Stadt"},"district":{"key":"01060","name":"Segeberg","type":"Kreis"},"federalState":{"key":"01","name":"Schleswig-Holstein"}},{"name":"Redderblecken","postalCode":"23795","locality":"Bad Segeberg","municipality":{"key":"01060005","name":"Bad Segeberg, Stadt","type":"Stadt"},"district":{"key":"01060","name":"Segeberg","type":"Kreis"},"federalState":{"key":"01","name":"Schleswig-Holstein"}},{"name":"Riihimäkistr.","postalCode":"23795","locality":"Bad Segeberg","municipality":{"key":"01060005","name":"Bad Segeberg, Stadt","type":"Stadt"},"district":{"key":"01060","name":"Segeberg","type":"Kreis"},"federalState":{"key":"01","name":"Schleswig-Holstein"}},{"name":"Rosenstr.","postalCode":"23795","locality":"Bad Segeberg","municipality":{"key":"01060005","name":"Bad Segeberg, Stadt","type":"Stadt"},"district":{"key":"01060","name":"Segeberg","type":"Kreis"},"federalState":{"key":"01","name":"Schleswig-Holstein"}},{"name":"Rugenberg","postalCode":"23795","locality":"Bad Segeberg","municipality":{"key":"01060005","name":"Bad Segeberg, Stadt","type":"Stadt"},"district":{"key":"01060","name":"Segeberg","type":"Kreis"},"federalState":{"key":"01","name":"Schleswig-Holstein"}},{"name":"Segeberger Str.","postalCode":"23795","locality":"Schackendorf","municipality":{"key":"01060070","name":"Schackendorf","type":"Kreisangehörige_Gemeinde"},"district":{"key":"01060","name":"Segeberg","type":"Kreis"},"federalState":{"key":"01","name":"Schleswig-Holstein"}},{"name":"Twiete","postalCode":"23795","locality":"Schackendorf","municipality":{"key":"01060070","name":"Schackendorf","type":"Kreisangehörige_Gemeinde"},"district":{"key":"01060","name":"Segeberg","type":"Kreis"},"federalState":{"key":"01","name":"Schleswig-Holstein"}},{"name":"Vogtkamp","postalCode":"23795","locality":"Bad Segeberg","municipality":{"key":"01060005","name":"Bad Segeberg, Stadt","type":"Stadt"},"district":{"key":"01060","name":"Segeberg","type":"Kreis"},"federalState":{"key":"01","name":"Schleswig-Holstein"}},{"name":"Wanderweg: Bad Segeberg/Schackendorf","postalCode":"23795","locality":"Schackendorf","municipality":{"key":"01060070","name":"Schackendorf","type":"Kreisangehörige_Gemeinde"},"district":{"key":"01060","name":"Segeberg","type":"Kreis"},"federalState":{"key":"01","name":"Schleswig-Holstein"}},{"name":"Wurth","postalCode":"23795","locality":"Schackendorf","municipality":{"key":"01060070","name":"Schackendorf","type":"Kreisangehörige_Gemeinde"},"district":{"key":"01060","name":"Segeberg","type":"Kreis"},"federalState":{"key":"01","name":"Schleswig-Holstein"}},{"name":"Zur Trave","postalCode":"23795","locality":"Schackendorf","municipality":{"key":"01060070","name":"Schackendorf","type":"Kreisangehörige_Gemeinde"},"district":{"key":"01060","name":"Segeberg","type":"Kreis"},"federalState":{"key":"01","name":"Schleswig-Holstein"}},]