[{"name":"Adenauerplatz","postalCode":"97523","locality":"Schwanfeld","municipality":{"key":"09678175","name":"Schwanfeld","type":"Kreisangehörige_Gemeinde"},"district":{"key":"09678","name":"Schweinfurt","type":"Landkreis"},"federalState":{"key":"09","name":"Bayern"}},{"name":"Am Weiherlein","postalCode":"97523","locality":"Schwanfeld","municipality":{"key":"09678175","name":"Schwanfeld","type":"Kreisangehörige_Gemeinde"},"district":{"key":"09678","name":"Schweinfurt","type":"Landkreis"},"federalState":{"key":"09","name":"Bayern"}},{"name":"Ansbachring","postalCode":"97523","locality":"Schwanfeld","municipality":{"key":"09678175","name":"Schwanfeld","type":"Kreisangehörige_Gemeinde"},"district":{"key":"09678","name":"Schweinfurt","type":"Landkreis"},"federalState":{"key":"09","name":"Bayern"}},{"name":"Bismarckstr.","postalCode":"97523","locality":"Schwanfeld","municipality":{"key":"09678175","name":"Schwanfeld","type":"Kreisangehörige_Gemeinde"},"district":{"key":"09678","name":"Schweinfurt","type":"Landkreis"},"federalState":{"key":"09","name":"Bayern"}},{"name":"Carl-Orff-Str.","postalCode":"97421","locality":"Schweinfurt","municipality":{"key":"09662000","name":"Schweinfurt","type":"Kreisfreie_Stadt"},"district":{"key":"09662","name":"Schweinfurt","type":"Kreisfreie_Stadt"},"federalState":{"key":"09","name":"Bayern"}},{"name":"Carl-Spitzweg-Str.","postalCode":"97422","locality":"Schweinfurt","municipality":{"key":"09662000","name":"Schweinfurt","type":"Kreisfreie_Stadt"},"district":{"key":"09662","name":"Schweinfurt","type":"Kreisfreie_Stadt"},"federalState":{"key":"09","name":"Bayern"}},{"name":"Celtesstr.","postalCode":"97422","locality":"Schweinfurt","municipality":{"key":"09662000","name":"Schweinfurt","type":"Kreisfreie_Stadt"},"district":{"key":"09662","name":"Schweinfurt","type":"Kreisfreie_Stadt"},"federalState":{"key":"09","name":"Bayern"}},{"name":"Châteaudun-Park","postalCode":"97421","locality":"Schweinfurt","municipality":{"key":"09662000","name":"Schweinfurt","type":"Kreisfreie_Stadt"},"district":{"key":"09662","name":"Schweinfurt","type":"Kreisfreie_Stadt"},"federalState":{"key":"09","name":"Bayern"}},{"name":"Christoph-Krebs-Str.","postalCode":"97422","locality":"Schweinfurt","municipality":{"key":"09662000","name":"Schweinfurt","type":"Kreisfreie_Stadt"},"district":{"key":"09662","name":"Schweinfurt","type":"Kreisfreie_Stadt"},"federalState":{"key":"09","name":"Bayern"}},{"name":"Coloradostr.","postalCode":"97424","locality":"Schweinfurt","municipality":{"key":"09662000","name":"Schweinfurt","type":"Kreisfreie_Stadt"},"district":{"key":"09662","name":"Schweinfurt","type":"Kreisfreie_Stadt"},"federalState":{"key":"09","name":"Bayern"}},{"name":"Cramerstr.","postalCode":"97421","locality":"Schweinfurt","municipality":{"key":"09662000","name":"Schweinfurt","type":"Kreisfreie_Stadt"},"district":{"key":"09662","name":"Schweinfurt","type":"Kreisfreie_Stadt"},"federalState":{"key":"09","name":"Bayern"}},{"name":"Cuspinianstr.","postalCode":"97422","locality":"Schweinfurt","municipality":{"key":"09662000","name":"Schweinfurt","type":"Kreisfreie_Stadt"},"district":{"key":"09662","name":"Schweinfurt","type":"Kreisfreie_Stadt"},"federalState":{"key":"09","name":"Bayern"}},{"name":"Dorfstr.","postalCode":"97523","locality":"Schwanfeld","municipality":{"key":"09678175","name":"Schwanfeld","type":"Kreisangehörige_Gemeinde"},"district":{"key":"09678","name":"Schweinfurt","type":"Landkreis"},"federalState":{"key":"09","name":"Bayern"}},{"name":"Ebersbergstr.","postalCode":"97422","locality":"Schweinfurt","municipality":{"key":"09662000","name":"Schweinfurt","type":"Kreisfreie_Stadt"},"district":{"key":"09662","name":"Schweinfurt","type":"Kreisfreie_Stadt"},"federalState":{"key":"09","name":"Bayern"}},{"name":"Ebrachweg","postalCode":"97422","locality":"Schweinfurt","municipality":{"key":"09662000","name":"Schweinfurt","type":"Kreisfreie_Stadt"},"district":{"key":"09662","name":"Schweinfurt","type":"Kreisfreie_Stadt"},"federalState":{"key":"09","name":"Bayern"}},{"name":"Edmund-Habermann-Str.","postalCode":"97422","locality":"Schweinfurt","municipality":{"key":"09662000","name":"Schweinfurt","type":"Kreisfreie_Stadt"},"district":{"key":"09662","name":"Schweinfurt","type":"Kreisfreie_Stadt"},"federalState":{"key":"09","name":"Bayern"}},{"name":"Edmund-Hornung-Str.","postalCode":"97424","locality":"Schweinfurt","municipality":{"key":"09662000","name":"Schweinfurt","type":"Kreisfreie_Stadt"},"district":{"key":"09662","name":"Schweinfurt","type":"Kreisfreie_Stadt"},"federalState":{"key":"09","name":"Bayern"}},{"name":"Eichendorffstr.","postalCode":"97422","locality":"Schweinfurt","municipality":{"key":"09662000","name":"Schweinfurt","type":"Kreisfreie_Stadt"},"district":{"key":"09662","name":"Schweinfurt","type":"Kreisfreie_Stadt"},"federalState":{"key":"09","name":"Bayern"}},{"name":"Eilastr.","postalCode":"97422","locality":"Schweinfurt","municipality":{"key":"09662000","name":"Schweinfurt","type":"Kreisfreie_Stadt"},"district":{"key":"09662","name":"Schweinfurt","type":"Kreisfreie_Stadt"},"federalState":{"key":"09","name":"Bayern"}},{"name":"Einsteinstr.","postalCode":"97424","locality":"Schweinfurt","municipality":{"key":"09662000","name":"Schweinfurt","type":"Kreisfreie_Stadt"},"district":{"key":"09662","name":"Schweinfurt","type":"Kreisfreie_Stadt"},"federalState":{"key":"09","name":"Bayern"}},{"name":"Elsa-Brändström-Str.","postalCode":"97422","locality":"Schweinfurt","municipality":{"key":"09662000","name":"Schweinfurt","type":"Kreisfreie_Stadt"},"district":{"key":"09662","name":"Schweinfurt","type":"Kreisfreie_Stadt"},"federalState":{"key":"09","name":"Bayern"}},{"name":"Elsterstr.","postalCode":"97422","locality":"Schweinfurt","municipality":{"key":"09662000","name":"Schweinfurt","type":"Kreisfreie_Stadt"},"district":{"key":"09662","name":"Schweinfurt","type":"Kreisfreie_Stadt"},"federalState":{"key":"09","name":"Bayern"}},{"name":"Engelbert-Fries-Str.","postalCode":"97424","locality":"Schweinfurt","municipality":{"key":"09662000","name":"Schweinfurt","type":"Kreisfreie_Stadt"},"district":{"key":"09662","name":"Schweinfurt","type":"Kreisfreie_Stadt"},"federalState":{"key":"09","name":"Bayern"}},{"name":"Erich-Kästner-Str.","postalCode":"97422","locality":"Schweinfurt","municipality":{"key":"09662000","name":"Schweinfurt","type":"Kreisfreie_Stadt"},"district":{"key":"09662","name":"Schweinfurt","type":"Kreisfreie_Stadt"},"federalState":{"key":"09","name":"Bayern"}},{"name":"Ernst-Herrmann-Str.","postalCode":"97422","locality":"Schweinfurt","municipality":{"key":"09662000","name":"Schweinfurt","type":"Kreisfreie_Stadt"},"district":{"key":"09662","name":"Schweinfurt","type":"Kreisfreie_Stadt"},"federalState":{"key":"09","name":"Bayern"}},{"name":"Ernst-Reuter-Str.","postalCode":"97424","locality":"Schweinfurt","municipality":{"key":"09662000","name":"Schweinfurt","type":"Kreisfreie_Stadt"},"district":{"key":"09662","name":"Schweinfurt","type":"Kreisfreie_Stadt"},"federalState":{"key":"09","name":"Bayern"}},{"name":"Ernst-Sachs-Str.","postalCode":"97424","locality":"Schweinfurt","municipality":{"key":"09662000","name":"Schweinfurt","type":"Kreisfreie_Stadt"},"district":{"key":"09662","name":"Schweinfurt","type":"Kreisfreie_Stadt"},"federalState":{"key":"09","name":"Bayern"}},{"name":"Eschenweg","postalCode":"97422","locality":"Schweinfurt","municipality":{"key":"09662000","name":"Schweinfurt","type":"Kreisfreie_Stadt"},"district":{"key":"09662","name":"Schweinfurt","type":"Kreisfreie_Stadt"},"federalState":{"key":"09","name":"Bayern"}},{"name":"Euerbacher Str.","postalCode":"97424","locality":"Schweinfurt","municipality":{"key":"09662000","name":"Schweinfurt","type":"Kreisfreie_Stadt"},"district":{"key":"09662","name":"Schweinfurt","type":"Kreisfreie_Stadt"},"federalState":{"key":"09","name":"Bayern"}},{"name":"Europa-Allee","postalCode":"97424","locality":"Schweinfurt","municipality":{"key":"09662000","name":"Schweinfurt","type":"Kreisfreie_Stadt"},"district":{"key":"09662","name":"Schweinfurt","type":"Kreisfreie_Stadt"},"federalState":{"key":"09","name":"Bayern"}},{"name":"Friedhofstr.","postalCode":"97523","locality":"Schwanfeld","municipality":{"key":"09678175","name":"Schwanfeld","type":"Kreisangehörige_Gemeinde"},"district":{"key":"09678","name":"Schweinfurt","type":"Landkreis"},"federalState":{"key":"09","name":"Bayern"}},{"name":"Gabelsbergerstr.","postalCode":"97421","locality":"Schweinfurt","municipality":{"key":"09662000","name":"Schweinfurt","type":"Kreisfreie_Stadt"},"district":{"key":"09662","name":"Schweinfurt","type":"Kreisfreie_Stadt"},"federalState":{"key":"09","name":"Bayern"}},{"name":"Galgenleite","postalCode":"97421","locality":"Schweinfurt","municipality":{"key":"09662000","name":"Schweinfurt","type":"Kreisfreie_Stadt"},"district":{"key":"09662","name":"Schweinfurt","type":"Kreisfreie_Stadt"},"federalState":{"key":"09","name":"Bayern"}},{"name":"Galgenleite","postalCode":"97424","locality":"Schweinfurt","municipality":{"key":"09662000","name":"Schweinfurt","type":"Kreisfreie_Stadt"},"district":{"key":"09662","name":"Schweinfurt","type":"Kreisfreie_Stadt"},"federalState":{"key":"09","name":"Bayern"}},{"name":"Gangolfsbergstr.","postalCode":"97422","locality":"Schweinfurt","municipality":{"key":"09662000","name":"Schweinfurt","type":"Kreisfreie_Stadt"},"district":{"key":"09662","name":"Schweinfurt","type":"Kreisfreie_Stadt"},"federalState":{"key":"09","name":"Bayern"}},{"name":"Gartenpfad","postalCode":"97421","locality":"Schweinfurt","municipality":{"key":"09662000","name":"Schweinfurt","type":"Kreisfreie_Stadt"},"district":{"key":"09662","name":"Schweinfurt","type":"Kreisfreie_Stadt"},"federalState":{"key":"09","name":"Bayern"}},{"name":"Gartenstadtstr.","postalCode":"97424","locality":"Schweinfurt","municipality":{"key":"09662000","name":"Schweinfurt","type":"Kreisfreie_Stadt"},"district":{"key":"09662","name":"Schweinfurt","type":"Kreisfreie_Stadt"},"federalState":{"key":"09","name":"Bayern"}},{"name":"Gartenstr.","postalCode":"97422","locality":"Schweinfurt","municipality":{"key":"09662000","name":"Schweinfurt","type":"Kreisfreie_Stadt"},"district":{"key":"09662","name":"Schweinfurt","type":"Kreisfreie_Stadt"},"federalState":{"key":"09","name":"Bayern"}},{"name":"Geiersbergstr.","postalCode":"97422","locality":"Schweinfurt","municipality":{"key":"09662000","name":"Schweinfurt","type":"Kreisfreie_Stadt"},"district":{"key":"09662","name":"Schweinfurt","type":"Kreisfreie_Stadt"},"federalState":{"key":"09","name":"Bayern"}},{"name":"Geldersheimer Str.","postalCode":"97424","locality":"Schweinfurt","municipality":{"key":"09662000","name":"Schweinfurt","type":"Kreisfreie_Stadt"},"district":{"key":"09662","name":"Schweinfurt","type":"Kreisfreie_Stadt"},"federalState":{"key":"09","name":"Bayern"}},{"name":"Georg-Groha-Str.","postalCode":"97424","locality":"Schweinfurt","municipality":{"key":"09662000","name":"Schweinfurt","type":"Kreisfreie_Stadt"},"district":{"key":"09662","name":"Schweinfurt","type":"Kreisfreie_Stadt"},"federalState":{"key":"09","name":"Bayern"}},{"name":"Georg-Schäfer-Str.","postalCode":"97421","locality":"Schweinfurt","municipality":{"key":"09662000","name":"Schweinfurt","type":"Kreisfreie_Stadt"},"district":{"key":"09662","name":"Schweinfurt","type":"Kreisfreie_Stadt"},"federalState":{"key":"09","name":"Bayern"}},{"name":"Georg-Schwarz-Str.","postalCode":"97424","locality":"Schweinfurt","municipality":{"key":"09662000","name":"Schweinfurt","type":"Kreisfreie_Stadt"},"district":{"key":"09662","name":"Schweinfurt","type":"Kreisfreie_Stadt"},"federalState":{"key":"09","name":"Bayern"}},{"name":"Georg-Spohn-Str.","postalCode":"97422","locality":"Schweinfurt","municipality":{"key":"09662000","name":"Schweinfurt","type":"Kreisfreie_Stadt"},"district":{"key":"09662","name":"Schweinfurt","type":"Kreisfreie_Stadt"},"federalState":{"key":"09","name":"Bayern"}},{"name":"Georg-Wichtermann-Platz","postalCode":"97421","locality":"Schweinfurt","municipality":{"key":"09662000","name":"Schweinfurt","type":"Kreisfreie_Stadt"},"district":{"key":"09662","name":"Schweinfurt","type":"Kreisfreie_Stadt"},"federalState":{"key":"09","name":"Bayern"}},{"name":"Gerhart-Hauptmann-Str.","postalCode":"97421","locality":"Schweinfurt","municipality":{"key":"09662000","name":"Schweinfurt","type":"Kreisfreie_Stadt"},"district":{"key":"09662","name":"Schweinfurt","type":"Kreisfreie_Stadt"},"federalState":{"key":"09","name":"Bayern"}},{"name":"Gertrud-Herz-Str.","postalCode":"97422","locality":"Schweinfurt","municipality":{"key":"09662000","name":"Schweinfurt","type":"Kreisfreie_Stadt"},"district":{"key":"09662","name":"Schweinfurt","type":"Kreisfreie_Stadt"},"federalState":{"key":"09","name":"Bayern"}},{"name":"G.-Hubert-Neidhart-Str.","postalCode":"97424","locality":"Schweinfurt","municipality":{"key":"09662000","name":"Schweinfurt","type":"Kreisfreie_Stadt"},"district":{"key":"09662","name":"Schweinfurt","type":"Kreisfreie_Stadt"},"federalState":{"key":"09","name":"Bayern"}},{"name":"Giegler-Pascha-Str.","postalCode":"97421","locality":"Schweinfurt","municipality":{"key":"09662000","name":"Schweinfurt","type":"Kreisfreie_Stadt"},"district":{"key":"09662","name":"Schweinfurt","type":"Kreisfreie_Stadt"},"federalState":{"key":"09","name":"Bayern"}},{"name":"Gleiwitzstr.","postalCode":"97424","locality":"Schweinfurt","municipality":{"key":"09662000","name":"Schweinfurt","type":"Kreisfreie_Stadt"},"district":{"key":"09662","name":"Schweinfurt","type":"Kreisfreie_Stadt"},"federalState":{"key":"09","name":"Bayern"}},{"name":"Glockenhof","postalCode":"97424","locality":"Schweinfurt","municipality":{"key":"09662000","name":"Schweinfurt","type":"Kreisfreie_Stadt"},"district":{"key":"09662","name":"Schweinfurt","type":"Kreisfreie_Stadt"},"federalState":{"key":"09","name":"Bayern"}},{"name":"Glogaustr.","postalCode":"97424","locality":"Schweinfurt","municipality":{"key":"09662000","name":"Schweinfurt","type":"Kreisfreie_Stadt"},"district":{"key":"09662","name":"Schweinfurt","type":"Kreisfreie_Stadt"},"federalState":{"key":"09","name":"Bayern"}},{"name":"Goethestr.","postalCode":"97421","locality":"Schweinfurt","municipality":{"key":"09662000","name":"Schweinfurt","type":"Kreisfreie_Stadt"},"district":{"key":"09662","name":"Schweinfurt","type":"Kreisfreie_Stadt"},"federalState":{"key":"09","name":"Bayern"}},{"name":"Gorch-Fock-Str.","postalCode":"97421","locality":"Schweinfurt","municipality":{"key":"09662000","name":"Schweinfurt","type":"Kreisfreie_Stadt"},"district":{"key":"09662","name":"Schweinfurt","type":"Kreisfreie_Stadt"},"federalState":{"key":"09","name":"Bayern"}},{"name":"Göteborgstr.","postalCode":"97422","locality":"Schweinfurt","municipality":{"key":"09662000","name":"Schweinfurt","type":"Kreisfreie_Stadt"},"district":{"key":"09662","name":"Schweinfurt","type":"Kreisfreie_Stadt"},"federalState":{"key":"09","name":"Bayern"}},{"name":"Graben","postalCode":"97421","locality":"Schweinfurt","municipality":{"key":"09662000","name":"Schweinfurt","type":"Kreisfreie_Stadt"},"district":{"key":"09662","name":"Schweinfurt","type":"Kreisfreie_Stadt"},"federalState":{"key":"09","name":"Bayern"}},{"name":"Graf-Berthold-Str.","postalCode":"97422","locality":"Schweinfurt","municipality":{"key":"09662000","name":"Schweinfurt","type":"Kreisfreie_Stadt"},"district":{"key":"09662","name":"Schweinfurt","type":"Kreisfreie_Stadt"},"federalState":{"key":"09","name":"Bayern"}},{"name":"Grasmückenweg","postalCode":"97422","locality":"Schweinfurt","municipality":{"key":"09662000","name":"Schweinfurt","type":"Kreisfreie_Stadt"},"district":{"key":"09662","name":"Schweinfurt","type":"Kreisfreie_Stadt"},"federalState":{"key":"09","name":"Bayern"}},{"name":"Gretel-Baumbach-Str.","postalCode":"97424","locality":"Schweinfurt","municipality":{"key":"09662000","name":"Schweinfurt","type":"Kreisfreie_Stadt"},"district":{"key":"09662","name":"Schweinfurt","type":"Kreisfreie_Stadt"},"federalState":{"key":"09","name":"Bayern"}},{"name":"Greulstr.","postalCode":"97422","locality":"Schweinfurt","municipality":{"key":"09662000","name":"Schweinfurt","type":"Kreisfreie_Stadt"},"district":{"key":"09662","name":"Schweinfurt","type":"Kreisfreie_Stadt"},"federalState":{"key":"09","name":"Bayern"}},{"name":"Gunnar-Wester-Str.","postalCode":"97421","locality":"Schweinfurt","municipality":{"key":"09662000","name":"Schweinfurt","type":"Kreisfreie_Stadt"},"district":{"key":"09662","name":"Schweinfurt","type":"Kreisfreie_Stadt"},"federalState":{"key":"09","name":"Bayern"}},{"name":"Gunnar-Wester-Str.","postalCode":"97424","locality":"Schweinfurt","municipality":{"key":"09662000","name":"Schweinfurt","type":"Kreisfreie_Stadt"},"district":{"key":"09662","name":"Schweinfurt","type":"Kreisfreie_Stadt"},"federalState":{"key":"09","name":"Bayern"}},{"name":"Gustav-Adolf-Str.","postalCode":"97422","locality":"Schweinfurt","municipality":{"key":"09662000","name":"Schweinfurt","type":"Kreisfreie_Stadt"},"district":{"key":"09662","name":"Schweinfurt","type":"Kreisfreie_Stadt"},"federalState":{"key":"09","name":"Bayern"}},{"name":"Gustav-Heusinger-Str.","postalCode":"97424","locality":"Schweinfurt","municipality":{"key":"09662000","name":"Schweinfurt","type":"Kreisfreie_Stadt"},"district":{"key":"09662","name":"Schweinfurt","type":"Kreisfreie_Stadt"},"federalState":{"key":"09","name":"Bayern"}},{"name":"Gustav-Mahler-Weg","postalCode":"97421","locality":"Schweinfurt","municipality":{"key":"09662000","name":"Schweinfurt","type":"Kreisfreie_Stadt"},"district":{"key":"09662","name":"Schweinfurt","type":"Kreisfreie_Stadt"},"federalState":{"key":"09","name":"Bayern"}},{"name":"Gustl-Kirchner-Str.","postalCode":"97424","locality":"Schweinfurt","municipality":{"key":"09662000","name":"Schweinfurt","type":"Kreisfreie_Stadt"},"district":{"key":"09662","name":"Schweinfurt","type":"Kreisfreie_Stadt"},"federalState":{"key":"09","name":"Bayern"}},{"name":"Gutermann-Promenade","postalCode":"97421","locality":"Schweinfurt","municipality":{"key":"09662000","name":"Schweinfurt","type":"Kreisfreie_Stadt"},"district":{"key":"09662","name":"Schweinfurt","type":"Kreisfreie_Stadt"},"federalState":{"key":"09","name":"Bayern"}},{"name":"Gymnasiumstr.","postalCode":"97421","locality":"Schweinfurt","municipality":{"key":"09662000","name":"Schweinfurt","type":"Kreisfreie_Stadt"},"district":{"key":"09662","name":"Schweinfurt","type":"Kreisfreie_Stadt"},"federalState":{"key":"09","name":"Bayern"}},{"name":"Hauptstr.","postalCode":"97523","locality":"Schwanfeld","municipality":{"key":"09678175","name":"Schwanfeld","type":"Kreisangehörige_Gemeinde"},"district":{"key":"09678","name":"Schweinfurt","type":"Landkreis"},"federalState":{"key":"09","name":"Bayern"}},{"name":"Heiligenthaler Str.","postalCode":"97523","locality":"Schwanfeld","municipality":{"key":"09678175","name":"Schwanfeld","type":"Kreisangehörige_Gemeinde"},"district":{"key":"09678","name":"Schweinfurt","type":"Landkreis"},"federalState":{"key":"09","name":"Bayern"}},{"name":"Ignaz-Schön-Str.","postalCode":"97421","locality":"Schweinfurt","municipality":{"key":"09662000","name":"Schweinfurt","type":"Kreisfreie_Stadt"},"district":{"key":"09662","name":"Schweinfurt","type":"Kreisfreie_Stadt"},"federalState":{"key":"09","name":"Bayern"}},{"name":"Ilmenbergstr.","postalCode":"97422","locality":"Schweinfurt","municipality":{"key":"09662000","name":"Schweinfurt","type":"Kreisfreie_Stadt"},"district":{"key":"09662","name":"Schweinfurt","type":"Kreisfreie_Stadt"},"federalState":{"key":"09","name":"Bayern"}},{"name":"Im Grund","postalCode":"97422","locality":"Schweinfurt","municipality":{"key":"09662000","name":"Schweinfurt","type":"Kreisfreie_Stadt"},"district":{"key":"09662","name":"Schweinfurt","type":"Kreisfreie_Stadt"},"federalState":{"key":"09","name":"Bayern"}},{"name":"Im II. Wehr","postalCode":"97424","locality":"Schweinfurt","municipality":{"key":"09662000","name":"Schweinfurt","type":"Kreisfreie_Stadt"},"district":{"key":"09662","name":"Schweinfurt","type":"Kreisfreie_Stadt"},"federalState":{"key":"09","name":"Bayern"}},{"name":"Im I. Wehr","postalCode":"97424","locality":"Schweinfurt","municipality":{"key":"09662000","name":"Schweinfurt","type":"Kreisfreie_Stadt"},"district":{"key":"09662","name":"Schweinfurt","type":"Kreisfreie_Stadt"},"federalState":{"key":"09","name":"Bayern"}},{"name":"Im Steinach","postalCode":"97424","locality":"Schweinfurt","municipality":{"key":"09662000","name":"Schweinfurt","type":"Kreisfreie_Stadt"},"district":{"key":"09662","name":"Schweinfurt","type":"Kreisfreie_Stadt"},"federalState":{"key":"09","name":"Bayern"}},{"name":"Ina-Seidel-Str.","postalCode":"97422","locality":"Schweinfurt","municipality":{"key":"09662000","name":"Schweinfurt","type":"Kreisfreie_Stadt"},"district":{"key":"09662","name":"Schweinfurt","type":"Kreisfreie_Stadt"},"federalState":{"key":"09","name":"Bayern"}},{"name":"In den Maingärten","postalCode":"97422","locality":"Schweinfurt","municipality":{"key":"09662000","name":"Schweinfurt","type":"Kreisfreie_Stadt"},"district":{"key":"09662","name":"Schweinfurt","type":"Kreisfreie_Stadt"},"federalState":{"key":"09","name":"Bayern"}},{"name":"Isi-Huber-Str.","postalCode":"97424","locality":"Schweinfurt","municipality":{"key":"09662000","name":"Schweinfurt","type":"Kreisfreie_Stadt"},"district":{"key":"09662","name":"Schweinfurt","type":"Kreisfreie_Stadt"},"federalState":{"key":"09","name":"Bayern"}},{"name":"Jägersbrunnen","postalCode":"97421","locality":"Schweinfurt","municipality":{"key":"09662000","name":"Schweinfurt","type":"Kreisfreie_Stadt"},"district":{"key":"09662","name":"Schweinfurt","type":"Kreisfreie_Stadt"},"federalState":{"key":"09","name":"Bayern"}},{"name":"Jägerstr.","postalCode":"97422","locality":"Schweinfurt","municipality":{"key":"09662000","name":"Schweinfurt","type":"Kreisfreie_Stadt"},"district":{"key":"09662","name":"Schweinfurt","type":"Kreisfreie_Stadt"},"federalState":{"key":"09","name":"Bayern"}},{"name":"Jagstweg","postalCode":"97422","locality":"Schweinfurt","municipality":{"key":"09662000","name":"Schweinfurt","type":"Kreisfreie_Stadt"},"district":{"key":"09662","name":"Schweinfurt","type":"Kreisfreie_Stadt"},"federalState":{"key":"09","name":"Bayern"}},{"name":"Jahnstr.","postalCode":"97422","locality":"Schweinfurt","municipality":{"key":"09662000","name":"Schweinfurt","type":"Kreisfreie_Stadt"},"district":{"key":"09662","name":"Schweinfurt","type":"Kreisfreie_Stadt"},"federalState":{"key":"09","name":"Bayern"}},{"name":"Jehlestr.","postalCode":"97421","locality":"Schweinfurt","municipality":{"key":"09662000","name":"Schweinfurt","type":"Kreisfreie_Stadt"},"district":{"key":"09662","name":"Schweinfurt","type":"Kreisfreie_Stadt"},"federalState":{"key":"09","name":"Bayern"}},{"name":"Joachim-Ringelnatz-Str.","postalCode":"97422","locality":"Schweinfurt","municipality":{"key":"09662000","name":"Schweinfurt","type":"Kreisfreie_Stadt"},"district":{"key":"09662","name":"Schweinfurt","type":"Kreisfreie_Stadt"},"federalState":{"key":"09","name":"Bayern"}},{"name":"Joachim-Ringelnatz-Str.","postalCode":"97424","locality":"Schweinfurt","municipality":{"key":"09662000","name":"Schweinfurt","type":"Kreisfreie_Stadt"},"district":{"key":"09662","name":"Schweinfurt","type":"Kreisfreie_Stadt"},"federalState":{"key":"09","name":"Bayern"}},{"name":"Johann-Georg-Gademann-Str.","postalCode":"97424","locality":"Schweinfurt","municipality":{"key":"09662000","name":"Schweinfurt","type":"Kreisfreie_Stadt"},"district":{"key":"09662","name":"Schweinfurt","type":"Kreisfreie_Stadt"},"federalState":{"key":"09","name":"Bayern"}},{"name":"Johannisgasse","postalCode":"97421","locality":"Schweinfurt","municipality":{"key":"09662000","name":"Schweinfurt","type":"Kreisfreie_Stadt"},"district":{"key":"09662","name":"Schweinfurt","type":"Kreisfreie_Stadt"},"federalState":{"key":"09","name":"Bayern"}},{"name":"Johann-Modler-Weg","postalCode":"97424","locality":"Schweinfurt","municipality":{"key":"09662000","name":"Schweinfurt","type":"Kreisfreie_Stadt"},"district":{"key":"09662","name":"Schweinfurt","type":"Kreisfreie_Stadt"},"federalState":{"key":"09","name":"Bayern"}},{"name":"Johann-Riedel-Str.","postalCode":"97424","locality":"Schweinfurt","municipality":{"key":"09662000","name":"Schweinfurt","type":"Kreisfreie_Stadt"},"district":{"key":"09662","name":"Schweinfurt","type":"Kreisfreie_Stadt"},"federalState":{"key":"09","name":"Bayern"}},{"name":"Johann-Schirmer-Str.","postalCode":"97424","locality":"Schweinfurt","municipality":{"key":"09662000","name":"Schweinfurt","type":"Kreisfreie_Stadt"},"district":{"key":"09662","name":"Schweinfurt","type":"Kreisfreie_Stadt"},"federalState":{"key":"09","name":"Bayern"}},{"name":"Johann-Sebastian-Bach-Str.","postalCode":"97421","locality":"Schweinfurt","municipality":{"key":"09662000","name":"Schweinfurt","type":"Kreisfreie_Stadt"},"district":{"key":"09662","name":"Schweinfurt","type":"Kreisfreie_Stadt"},"federalState":{"key":"09","name":"Bayern"}},{"name":"John-F.-Kennedy-Ring","postalCode":"97421","locality":"Schweinfurt","municipality":{"key":"09662000","name":"Schweinfurt","type":"Kreisfreie_Stadt"},"district":{"key":"09662","name":"Schweinfurt","type":"Kreisfreie_Stadt"},"federalState":{"key":"09","name":"Bayern"}},{"name":"John-F.-Kennedy-Ring","postalCode":"97424","locality":"Schweinfurt","municipality":{"key":"09662000","name":"Schweinfurt","type":"Kreisfreie_Stadt"},"district":{"key":"09662","name":"Schweinfurt","type":"Kreisfreie_Stadt"},"federalState":{"key":"09","name":"Bayern"}},{"name":"Jonas-Wehner-Str.","postalCode":"97422","locality":"Schweinfurt","municipality":{"key":"09662000","name":"Schweinfurt","type":"Kreisfreie_Stadt"},"district":{"key":"09662","name":"Schweinfurt","type":"Kreisfreie_Stadt"},"federalState":{"key":"09","name":"Bayern"}},{"name":"Josef-Reuß-Str.","postalCode":"97424","locality":"Schweinfurt","municipality":{"key":"09662000","name":"Schweinfurt","type":"Kreisfreie_Stadt"},"district":{"key":"09662","name":"Schweinfurt","type":"Kreisfreie_Stadt"},"federalState":{"key":"09","name":"Bayern"}},{"name":"Josef-Säckler-Str.","postalCode":"97424","locality":"Schweinfurt","municipality":{"key":"09662000","name":"Schweinfurt","type":"Kreisfreie_Stadt"},"district":{"key":"09662","name":"Schweinfurt","type":"Kreisfreie_Stadt"},"federalState":{"key":"09","name":"Bayern"}},{"name":"Josef-Werner-Str.","postalCode":"97422","locality":"Schweinfurt","municipality":{"key":"09662000","name":"Schweinfurt","type":"Kreisfreie_Stadt"},"district":{"key":"09662","name":"Schweinfurt","type":"Kreisfreie_Stadt"},"federalState":{"key":"09","name":"Bayern"}},{"name":"Jossaweg","postalCode":"97422","locality":"Schweinfurt","municipality":{"key":"09662000","name":"Schweinfurt","type":"Kreisfreie_Stadt"},"district":{"key":"09662","name":"Schweinfurt","type":"Kreisfreie_Stadt"},"federalState":{"key":"09","name":"Bayern"}},{"name":"Judengasse","postalCode":"97421","locality":"Schweinfurt","municipality":{"key":"09662000","name":"Schweinfurt","type":"Kreisfreie_Stadt"},"district":{"key":"09662","name":"Schweinfurt","type":"Kreisfreie_Stadt"},"federalState":{"key":"09","name":"Bayern"}},{"name":"Judithstr.","postalCode":"97422","locality":"Schweinfurt","municipality":{"key":"09662000","name":"Schweinfurt","type":"Kreisfreie_Stadt"},"district":{"key":"09662","name":"Schweinfurt","type":"Kreisfreie_Stadt"},"federalState":{"key":"09","name":"Bayern"}},{"name":"Kembachstr.","postalCode":"97523","locality":"Schwanfeld","municipality":{"key":"09678175","name":"Schwanfeld","type":"Kreisangehörige_Gemeinde"},"district":{"key":"09678","name":"Schweinfurt","type":"Landkreis"},"federalState":{"key":"09","name":"Bayern"}},{"name":"Kembachweg","postalCode":"97523","locality":"Schwanfeld","municipality":{"key":"09678175","name":"Schwanfeld","type":"Kreisangehörige_Gemeinde"},"district":{"key":"09678","name":"Schweinfurt","type":"Landkreis"},"federalState":{"key":"09","name":"Bayern"}},{"name":"Kirchgasse","postalCode":"97523","locality":"Schwanfeld","municipality":{"key":"09678175","name":"Schwanfeld","type":"Kreisangehörige_Gemeinde"},"district":{"key":"09678","name":"Schweinfurt","type":"Landkreis"},"federalState":{"key":"09","name":"Bayern"}},{"name":"Ludwig-Gutmann-Weg","postalCode":"97523","locality":"Schwanfeld","municipality":{"key":"09678175","name":"Schwanfeld","type":"Kreisangehörige_Gemeinde"},"district":{"key":"09678","name":"Schweinfurt","type":"Landkreis"},"federalState":{"key":"09","name":"Bayern"}},{"name":"Maibacher Str.","postalCode":"97422","locality":"Schweinfurt","municipality":{"key":"09662000","name":"Schweinfurt","type":"Kreisfreie_Stadt"},"district":{"key":"09662","name":"Schweinfurt","type":"Kreisfreie_Stadt"},"federalState":{"key":"09","name":"Bayern"}},{"name":"Maibacher Str.","postalCode":"97424","locality":"Schweinfurt","municipality":{"key":"09662000","name":"Schweinfurt","type":"Kreisfreie_Stadt"},"district":{"key":"09662","name":"Schweinfurt","type":"Kreisfreie_Stadt"},"federalState":{"key":"09","name":"Bayern"}},{"name":"Mainaussicht","postalCode":"97421","locality":"Schweinfurt","municipality":{"key":"09662000","name":"Schweinfurt","type":"Kreisfreie_Stadt"},"district":{"key":"09662","name":"Schweinfurt","type":"Kreisfreie_Stadt"},"federalState":{"key":"09","name":"Bayern"}},{"name":"Mainberger Str.","postalCode":"97421","locality":"Schweinfurt","municipality":{"key":"09662000","name":"Schweinfurt","type":"Kreisfreie_Stadt"},"district":{"key":"09662","name":"Schweinfurt","type":"Kreisfreie_Stadt"},"federalState":{"key":"09","name":"Bayern"}},{"name":"Mainberger Str.","postalCode":"97422","locality":"Schweinfurt","municipality":{"key":"09662000","name":"Schweinfurt","type":"Kreisfreie_Stadt"},"district":{"key":"09662","name":"Schweinfurt","type":"Kreisfreie_Stadt"},"federalState":{"key":"09","name":"Bayern"}},{"name":"Maingasse","postalCode":"97424","locality":"Schweinfurt","municipality":{"key":"09662000","name":"Schweinfurt","type":"Kreisfreie_Stadt"},"district":{"key":"09662","name":"Schweinfurt","type":"Kreisfreie_Stadt"},"federalState":{"key":"09","name":"Bayern"}},{"name":"Maininsel","postalCode":"97424","locality":"Schweinfurt","municipality":{"key":"09662000","name":"Schweinfurt","type":"Kreisfreie_Stadt"},"district":{"key":"09662","name":"Schweinfurt","type":"Kreisfreie_Stadt"},"federalState":{"key":"09","name":"Bayern"}},{"name":"Margarete-Kallmann-Str.","postalCode":"97422","locality":"Schweinfurt","municipality":{"key":"09662000","name":"Schweinfurt","type":"Kreisfreie_Stadt"},"district":{"key":"09662","name":"Schweinfurt","type":"Kreisfreie_Stadt"},"federalState":{"key":"09","name":"Bayern"}},{"name":"Margarethe-Geiger-Str.","postalCode":"97424","locality":"Schweinfurt","municipality":{"key":"09662000","name":"Schweinfurt","type":"Kreisfreie_Stadt"},"district":{"key":"09662","name":"Schweinfurt","type":"Kreisfreie_Stadt"},"federalState":{"key":"09","name":"Bayern"}},{"name":"Margarita-Calvary-Str.","postalCode":"97424","locality":"Schweinfurt","municipality":{"key":"09662000","name":"Schweinfurt","type":"Kreisfreie_Stadt"},"district":{"key":"09662","name":"Schweinfurt","type":"Kreisfreie_Stadt"},"federalState":{"key":"09","name":"Bayern"}},{"name":"Marie-Curie-Platz","postalCode":"97424","locality":"Schweinfurt","municipality":{"key":"09662000","name":"Schweinfurt","type":"Kreisfreie_Stadt"},"district":{"key":"09662","name":"Schweinfurt","type":"Kreisfreie_Stadt"},"federalState":{"key":"09","name":"Bayern"}},{"name":"Marie-Elisabeth-Lüders-Str.","postalCode":"97422","locality":"Schweinfurt","municipality":{"key":"09662000","name":"Schweinfurt","type":"Kreisfreie_Stadt"},"district":{"key":"09662","name":"Schweinfurt","type":"Kreisfreie_Stadt"},"federalState":{"key":"09","name":"Bayern"}},{"name":"Marie-Juchacz-Str.","postalCode":"97422","locality":"Schweinfurt","municipality":{"key":"09662000","name":"Schweinfurt","type":"Kreisfreie_Stadt"},"district":{"key":"09662","name":"Schweinfurt","type":"Kreisfreie_Stadt"},"federalState":{"key":"09","name":"Bayern"}},{"name":"Marienbrücke","postalCode":"97424","locality":"Schweinfurt","municipality":{"key":"09662000","name":"Schweinfurt","type":"Kreisfreie_Stadt"},"district":{"key":"09662","name":"Schweinfurt","type":"Kreisfreie_Stadt"},"federalState":{"key":"09","name":"Bayern"}},{"name":"Markgrafenstr.","postalCode":"97422","locality":"Schweinfurt","municipality":{"key":"09662000","name":"Schweinfurt","type":"Kreisfreie_Stadt"},"district":{"key":"09662","name":"Schweinfurt","type":"Kreisfreie_Stadt"},"federalState":{"key":"09","name":"Bayern"}},{"name":"Marsstr.","postalCode":"97421","locality":"Schweinfurt","municipality":{"key":"09662000","name":"Schweinfurt","type":"Kreisfreie_Stadt"},"district":{"key":"09662","name":"Schweinfurt","type":"Kreisfreie_Stadt"},"federalState":{"key":"09","name":"Bayern"}},{"name":"Martin-Luther-Platz","postalCode":"97421","locality":"Schweinfurt","municipality":{"key":"09662000","name":"Schweinfurt","type":"Kreisfreie_Stadt"},"district":{"key":"09662","name":"Schweinfurt","type":"Kreisfreie_Stadt"},"federalState":{"key":"09","name":"Bayern"}},{"name":"Matthäus-Stäblein-Str.","postalCode":"97424","locality":"Schweinfurt","municipality":{"key":"09662000","name":"Schweinfurt","type":"Kreisfreie_Stadt"},"district":{"key":"09662","name":"Schweinfurt","type":"Kreisfreie_Stadt"},"federalState":{"key":"09","name":"Bayern"}},{"name":"Matthias-Grünewald-Ring","postalCode":"97422","locality":"Schweinfurt","municipality":{"key":"09662000","name":"Schweinfurt","type":"Kreisfreie_Stadt"},"district":{"key":"09662","name":"Schweinfurt","type":"Kreisfreie_Stadt"},"federalState":{"key":"09","name":"Bayern"}},{"name":"Maxbrücke","postalCode":"97424","locality":"Schweinfurt","municipality":{"key":"09662000","name":"Schweinfurt","type":"Kreisfreie_Stadt"},"district":{"key":"09662","name":"Schweinfurt","type":"Kreisfreie_Stadt"},"federalState":{"key":"09","name":"Bayern"}},{"name":"Max-Kaiser-Str.","postalCode":"97424","locality":"Schweinfurt","municipality":{"key":"09662000","name":"Schweinfurt","type":"Kreisfreie_Stadt"},"district":{"key":"09662","name":"Schweinfurt","type":"Kreisfreie_Stadt"},"federalState":{"key":"09","name":"Bayern"}},{"name":"Max-Planck-Str.","postalCode":"97424","locality":"Schweinfurt","municipality":{"key":"09662000","name":"Schweinfurt","type":"Kreisfreie_Stadt"},"district":{"key":"09662","name":"Schweinfurt","type":"Kreisfreie_Stadt"},"federalState":{"key":"09","name":"Bayern"}},{"name":"Max-Reger-Str.","postalCode":"97421","locality":"Schweinfurt","municipality":{"key":"09662000","name":"Schweinfurt","type":"Kreisfreie_Stadt"},"district":{"key":"09662","name":"Schweinfurt","type":"Kreisfreie_Stadt"},"federalState":{"key":"09","name":"Bayern"}},{"name":"Mechwartstr.","postalCode":"97424","locality":"Schweinfurt","municipality":{"key":"09662000","name":"Schweinfurt","type":"Kreisfreie_Stadt"},"district":{"key":"09662","name":"Schweinfurt","type":"Kreisfreie_Stadt"},"federalState":{"key":"09","name":"Bayern"}},{"name":"Meisenweg","postalCode":"97422","locality":"Schweinfurt","municipality":{"key":"09662000","name":"Schweinfurt","type":"Kreisfreie_Stadt"},"district":{"key":"09662","name":"Schweinfurt","type":"Kreisfreie_Stadt"},"federalState":{"key":"09","name":"Bayern"}},{"name":"Memelstr.","postalCode":"97424","locality":"Schweinfurt","municipality":{"key":"09662000","name":"Schweinfurt","type":"Kreisfreie_Stadt"},"district":{"key":"09662","name":"Schweinfurt","type":"Kreisfreie_Stadt"},"federalState":{"key":"09","name":"Bayern"}},{"name":"Merckstr.","postalCode":"97421","locality":"Schweinfurt","municipality":{"key":"09662000","name":"Schweinfurt","type":"Kreisfreie_Stadt"},"district":{"key":"09662","name":"Schweinfurt","type":"Kreisfreie_Stadt"},"federalState":{"key":"09","name":"Bayern"}},{"name":"Metzgergasse","postalCode":"97421","locality":"Schweinfurt","municipality":{"key":"09662000","name":"Schweinfurt","type":"Kreisfreie_Stadt"},"district":{"key":"09662","name":"Schweinfurt","type":"Kreisfreie_Stadt"},"federalState":{"key":"09","name":"Bayern"}},{"name":"Montanastr.","postalCode":"97424","locality":"Schweinfurt","municipality":{"key":"09662000","name":"Schweinfurt","type":"Kreisfreie_Stadt"},"district":{"key":"09662","name":"Schweinfurt","type":"Kreisfreie_Stadt"},"federalState":{"key":"09","name":"Bayern"}},{"name":"Moritz-Fischer-Str.","postalCode":"97421","locality":"Schweinfurt","municipality":{"key":"09662000","name":"Schweinfurt","type":"Kreisfreie_Stadt"},"district":{"key":"09662","name":"Schweinfurt","type":"Kreisfreie_Stadt"},"federalState":{"key":"09","name":"Bayern"}},{"name":"Motherwell-Park","postalCode":"97421","locality":"Schweinfurt","municipality":{"key":"09662000","name":"Schweinfurt","type":"Kreisfreie_Stadt"},"district":{"key":"09662","name":"Schweinfurt","type":"Kreisfreie_Stadt"},"federalState":{"key":"09","name":"Bayern"}},{"name":"Mozartstr.","postalCode":"97421","locality":"Schweinfurt","municipality":{"key":"09662000","name":"Schweinfurt","type":"Kreisfreie_Stadt"},"district":{"key":"09662","name":"Schweinfurt","type":"Kreisfreie_Stadt"},"federalState":{"key":"09","name":"Bayern"}},{"name":"Nibelungenstr.","postalCode":"97523","locality":"Schwanfeld","municipality":{"key":"09678175","name":"Schwanfeld","type":"Kreisangehörige_Gemeinde"},"district":{"key":"09678","name":"Schweinfurt","type":"Landkreis"},"federalState":{"key":"09","name":"Bayern"}},{"name":"Obereisenheimer Str.","postalCode":"97523","locality":"Schwanfeld","municipality":{"key":"09678175","name":"Schwanfeld","type":"Kreisangehörige_Gemeinde"},"district":{"key":"09678","name":"Schweinfurt","type":"Landkreis"},"federalState":{"key":"09","name":"Bayern"}},{"name":"Opferbaumer Str.","postalCode":"97523","locality":"Schwanfeld","municipality":{"key":"09678175","name":"Schwanfeld","type":"Kreisangehörige_Gemeinde"},"district":{"key":"09678","name":"Schweinfurt","type":"Landkreis"},"federalState":{"key":"09","name":"Bayern"}},{"name":"Pfarrgasse","postalCode":"97523","locality":"Schwanfeld","municipality":{"key":"09678175","name":"Schwanfeld","type":"Kreisangehörige_Gemeinde"},"district":{"key":"09678","name":"Schweinfurt","type":"Landkreis"},"federalState":{"key":"09","name":"Bayern"}},{"name":"Quellenweg","postalCode":"97422","locality":"Schweinfurt","municipality":{"key":"09662000","name":"Schweinfurt","type":"Kreisfreie_Stadt"},"district":{"key":"09662","name":"Schweinfurt","type":"Kreisfreie_Stadt"},"federalState":{"key":"09","name":"Bayern"}},{"name":"Raiffeisenstr.","postalCode":"97523","locality":"Schwanfeld","municipality":{"key":"09678175","name":"Schwanfeld","type":"Kreisangehörige_Gemeinde"},"district":{"key":"09678","name":"Schweinfurt","type":"Landkreis"},"federalState":{"key":"09","name":"Bayern"}},{"name":"Reiterswiese","postalCode":"97523","locality":"Schwanfeld","municipality":{"key":"09678175","name":"Schwanfeld","type":"Kreisangehörige_Gemeinde"},"district":{"key":"09678","name":"Schweinfurt","type":"Landkreis"},"federalState":{"key":"09","name":"Bayern"}},{"name":"Röthenweg","postalCode":"97523","locality":"Schwanfeld","municipality":{"key":"09678175","name":"Schwanfeld","type":"Kreisangehörige_Gemeinde"},"district":{"key":"09678","name":"Schweinfurt","type":"Landkreis"},"federalState":{"key":"09","name":"Bayern"}},{"name":"Schillerstr.","postalCode":"97523","locality":"Schwanfeld","municipality":{"key":"09678175","name":"Schwanfeld","type":"Kreisangehörige_Gemeinde"},"district":{"key":"09678","name":"Schweinfurt","type":"Landkreis"},"federalState":{"key":"09","name":"Bayern"}},{"name":"Schulstr.","postalCode":"97523","locality":"Schwanfeld","municipality":{"key":"09678175","name":"Schwanfeld","type":"Kreisangehörige_Gemeinde"},"district":{"key":"09678","name":"Schweinfurt","type":"Landkreis"},"federalState":{"key":"09","name":"Bayern"}},{"name":"Schutzbarstr.","postalCode":"97523","locality":"Schwanfeld","municipality":{"key":"09678175","name":"Schwanfeld","type":"Kreisangehörige_Gemeinde"},"district":{"key":"09678","name":"Schweinfurt","type":"Landkreis"},"federalState":{"key":"09","name":"Bayern"}},{"name":"Theodor-Heuss-Str.","postalCode":"97523","locality":"Schwanfeld","municipality":{"key":"09678175","name":"Schwanfeld","type":"Kreisangehörige_Gemeinde"},"district":{"key":"09678","name":"Schweinfurt","type":"Landkreis"},"federalState":{"key":"09","name":"Bayern"}},{"name":"Uhlandstr.","postalCode":"97421","locality":"Schweinfurt","municipality":{"key":"09662000","name":"Schweinfurt","type":"Kreisfreie_Stadt"},"district":{"key":"09662","name":"Schweinfurt","type":"Kreisfreie_Stadt"},"federalState":{"key":"09","name":"Bayern"}},{"name":"Ulmenweg","postalCode":"97422","locality":"Schweinfurt","municipality":{"key":"09662000","name":"Schweinfurt","type":"Kreisfreie_Stadt"},"district":{"key":"09662","name":"Schweinfurt","type":"Kreisfreie_Stadt"},"federalState":{"key":"09","name":"Bayern"}},{"name":"Unterer Kiliansberg","postalCode":"97422","locality":"Schweinfurt","municipality":{"key":"09662000","name":"Schweinfurt","type":"Kreisfreie_Stadt"},"district":{"key":"09662","name":"Schweinfurt","type":"Kreisfreie_Stadt"},"federalState":{"key":"09","name":"Bayern"}},{"name":"Unterer Kleinflürleinsweg","postalCode":"97424","locality":"Schweinfurt","municipality":{"key":"09662000","name":"Schweinfurt","type":"Kreisfreie_Stadt"},"district":{"key":"09662","name":"Schweinfurt","type":"Kreisfreie_Stadt"},"federalState":{"key":"09","name":"Bayern"}},{"name":"Vogelweidestr.","postalCode":"97523","locality":"Schwanfeld","municipality":{"key":"09678175","name":"Schwanfeld","type":"Kreisangehörige_Gemeinde"},"district":{"key":"09678","name":"Schweinfurt","type":"Landkreis"},"federalState":{"key":"09","name":"Bayern"}},{"name":"Wengertspfad","postalCode":"97523","locality":"Schwanfeld","municipality":{"key":"09678175","name":"Schwanfeld","type":"Kreisangehörige_Gemeinde"},"district":{"key":"09678","name":"Schweinfurt","type":"Landkreis"},"federalState":{"key":"09","name":"Bayern"}},{"name":"Wipfelder Str.","postalCode":"97523","locality":"Schwanfeld","municipality":{"key":"09678175","name":"Schwanfeld","type":"Kreisangehörige_Gemeinde"},"district":{"key":"09678","name":"Schweinfurt","type":"Landkreis"},"federalState":{"key":"09","name":"Bayern"}},{"name":"Zabelsteinstr.","postalCode":"97422","locality":"Schweinfurt","municipality":{"key":"09662000","name":"Schweinfurt","type":"Kreisfreie_Stadt"},"district":{"key":"09662","name":"Schweinfurt","type":"Kreisfreie_Stadt"},"federalState":{"key":"09","name":"Bayern"}},{"name":"Zehntstr.","postalCode":"97421","locality":"Schweinfurt","municipality":{"key":"09662000","name":"Schweinfurt","type":"Kreisfreie_Stadt"},"district":{"key":"09662","name":"Schweinfurt","type":"Kreisfreie_Stadt"},"federalState":{"key":"09","name":"Bayern"}},{"name":"Zeisigstr.","postalCode":"97422","locality":"Schweinfurt","municipality":{"key":"09662000","name":"Schweinfurt","type":"Kreisfreie_Stadt"},"district":{"key":"09662","name":"Schweinfurt","type":"Kreisfreie_Stadt"},"federalState":{"key":"09","name":"Bayern"}},{"name":"Zeller Str.","postalCode":"97422","locality":"Schweinfurt","municipality":{"key":"09662000","name":"Schweinfurt","type":"Kreisfreie_Stadt"},"district":{"key":"09662","name":"Schweinfurt","type":"Kreisfreie_Stadt"},"federalState":{"key":"09","name":"Bayern"}},{"name":"Zeppelinstr.","postalCode":"97424","locality":"Schweinfurt","municipality":{"key":"09662000","name":"Schweinfurt","type":"Kreisfreie_Stadt"},"district":{"key":"09662","name":"Schweinfurt","type":"Kreisfreie_Stadt"},"federalState":{"key":"09","name":"Bayern"}},{"name":"Zigeunerlandwehr","postalCode":"97424","locality":"Schweinfurt","municipality":{"key":"09662000","name":"Schweinfurt","type":"Kreisfreie_Stadt"},"district":{"key":"09662","name":"Schweinfurt","type":"Kreisfreie_Stadt"},"federalState":{"key":"09","name":"Bayern"}},{"name":"Zürch","postalCode":"97421","locality":"Schweinfurt","municipality":{"key":"09662000","name":"Schweinfurt","type":"Kreisfreie_Stadt"},"district":{"key":"09662","name":"Schweinfurt","type":"Kreisfreie_Stadt"},"federalState":{"key":"09","name":"Bayern"}},{"name":"Zur Hölle","postalCode":"97422","locality":"Schweinfurt","municipality":{"key":"09662000","name":"Schweinfurt","type":"Kreisfreie_Stadt"},"district":{"key":"09662","name":"Schweinfurt","type":"Kreisfreie_Stadt"},"federalState":{"key":"09","name":"Bayern"}},{"name":"Zur Wasserleitung","postalCode":"97422","locality":"Schweinfurt","municipality":{"key":"09662000","name":"Schweinfurt","type":"Kreisfreie_Stadt"},"district":{"key":"09662","name":"Schweinfurt","type":"Kreisfreie_Stadt"},"federalState":{"key":"09","name":"Bayern"}},{"name":"Zwinger","postalCode":"97421","locality":"Schweinfurt","municipality":{"key":"09662000","name":"Schweinfurt","type":"Kreisfreie_Stadt"},"district":{"key":"09662","name":"Schweinfurt","type":"Kreisfreie_Stadt"},"federalState":{"key":"09","name":"Bayern"}},]