[{"key":"10219922","name":"Alter Hurniweg","postalCode":"3267","locality":"Seedorf BE","commune":{"key":"312","name":"Seedorf (BE)","shortName":"Seedorf (BE)"},"district":{"key":"243","name":"Verwaltungskreis Seeland"},"canton":{"key":"2","code":"BE","name":"Bern / Berne"},"status":"Real"},{"key":"10219925","name":"Alter Wahlendorfweg","postalCode":"3267","locality":"Seedorf BE","commune":{"key":"312","name":"Seedorf (BE)","shortName":"Seedorf (BE)"},"district":{"key":"243","name":"Verwaltungskreis Seeland"},"canton":{"key":"2","code":"BE","name":"Bern / Berne"},"status":"Real"},{"key":"10130553","name":"Amselweg","postalCode":"3267","locality":"Seedorf BE","commune":{"key":"312","name":"Seedorf (BE)","shortName":"Seedorf (BE)"},"district":{"key":"243","name":"Verwaltungskreis Seeland"},"canton":{"key":"2","code":"BE","name":"Bern / Berne"},"status":"Real"},{"key":"10219931","name":"Bächliweg","postalCode":"3267","locality":"Seedorf BE","commune":{"key":"312","name":"Seedorf (BE)","shortName":"Seedorf (BE)"},"district":{"key":"243","name":"Verwaltungskreis Seeland"},"canton":{"key":"2","code":"BE","name":"Bern / Berne"},"status":"Real"},{"key":"10062254","name":"Baggwilgraben","postalCode":"3267","locality":"Seedorf BE","commune":{"key":"312","name":"Seedorf (BE)","shortName":"Seedorf (BE)"},"district":{"key":"243","name":"Verwaltungskreis Seeland"},"canton":{"key":"2","code":"BE","name":"Bern / Berne"},"status":"Real"},{"key":"10130561","name":"Baggwilstrasse","postalCode":"3267","locality":"Seedorf BE","commune":{"key":"312","name":"Seedorf (BE)","shortName":"Seedorf (BE)"},"district":{"key":"243","name":"Verwaltungskreis Seeland"},"canton":{"key":"2","code":"BE","name":"Bern / Berne"},"status":"Real"},{"key":"10130822","name":"Bärenmatte","postalCode":"3267","locality":"Seedorf BE","commune":{"key":"312","name":"Seedorf (BE)","shortName":"Seedorf (BE)"},"district":{"key":"243","name":"Verwaltungskreis Seeland"},"canton":{"key":"2","code":"BE","name":"Bern / Berne"},"status":"Real"},{"key":"10083290","name":"Bernstrasse","postalCode":"3267","locality":"Seedorf BE","commune":{"key":"312","name":"Seedorf (BE)","shortName":"Seedorf (BE)"},"district":{"key":"243","name":"Verwaltungskreis Seeland"},"canton":{"key":"2","code":"BE","name":"Bern / Berne"},"status":"Real"},{"key":"10219935","name":"Bernwegrampe","postalCode":"3267","locality":"Seedorf BE","commune":{"key":"312","name":"Seedorf (BE)","shortName":"Seedorf (BE)"},"district":{"key":"243","name":"Verwaltungskreis Seeland"},"canton":{"key":"2","code":"BE","name":"Bern / Berne"},"status":"Real"},{"key":"10130823","name":"Bifang","postalCode":"3267","locality":"Seedorf BE","commune":{"key":"312","name":"Seedorf (BE)","shortName":"Seedorf (BE)"},"district":{"key":"243","name":"Verwaltungskreis Seeland"},"canton":{"key":"2","code":"BE","name":"Bern / Berne"},"status":"Real"},{"key":"10109078","name":"Birkenweg","postalCode":"3267","locality":"Seedorf BE","commune":{"key":"312","name":"Seedorf (BE)","shortName":"Seedorf (BE)"},"district":{"key":"243","name":"Verwaltungskreis Seeland"},"canton":{"key":"2","code":"BE","name":"Bern / Berne"},"status":"Real"},{"key":"10219939","name":"Bösenkehrweg","postalCode":"3267","locality":"Seedorf BE","commune":{"key":"312","name":"Seedorf (BE)","shortName":"Seedorf (BE)"},"district":{"key":"243","name":"Verwaltungskreis Seeland"},"canton":{"key":"2","code":"BE","name":"Bern / Berne"},"status":"Real"},{"key":"10219944","name":"Brüelgasse","postalCode":"3267","locality":"Seedorf BE","commune":{"key":"312","name":"Seedorf (BE)","shortName":"Seedorf (BE)"},"district":{"key":"243","name":"Verwaltungskreis Seeland"},"canton":{"key":"2","code":"BE","name":"Bern / Berne"},"status":"Real"},{"key":"10218838","name":"Bründliweg","postalCode":"3267","locality":"Seedorf BE","commune":{"key":"312","name":"Seedorf (BE)","shortName":"Seedorf (BE)"},"district":{"key":"243","name":"Verwaltungskreis Seeland"},"canton":{"key":"2","code":"BE","name":"Bern / Berne"},"status":"Real"},{"key":"10130826","name":"Chüsseberg","postalCode":"3267","locality":"Seedorf BE","commune":{"key":"312","name":"Seedorf (BE)","shortName":"Seedorf (BE)"},"district":{"key":"243","name":"Verwaltungskreis Seeland"},"canton":{"key":"2","code":"BE","name":"Bern / Berne"},"status":"Real"},{"key":"10218842","name":"Chutzenhüttenweg","postalCode":"3267","locality":"Seedorf BE","commune":{"key":"312","name":"Seedorf (BE)","shortName":"Seedorf (BE)"},"district":{"key":"243","name":"Verwaltungskreis Seeland"},"canton":{"key":"2","code":"BE","name":"Bern / Berne"},"status":"Real"},{"key":"10218845","name":"Chutzenturm","postalCode":"3267","locality":"Seedorf BE","commune":{"key":"312","name":"Seedorf (BE)","shortName":"Seedorf (BE)"},"district":{"key":"243","name":"Verwaltungskreis Seeland"},"canton":{"key":"2","code":"BE","name":"Bern / Berne"},"status":"Real"},{"key":"10130827","name":"Chutzenweg","postalCode":"3267","locality":"Seedorf BE","commune":{"key":"312","name":"Seedorf (BE)","shortName":"Seedorf (BE)"},"district":{"key":"243","name":"Verwaltungskreis Seeland"},"canton":{"key":"2","code":"BE","name":"Bern / Berne"},"status":"Real"},{"key":"10219964","name":"Dammweg","postalCode":"3267","locality":"Seedorf BE","commune":{"key":"312","name":"Seedorf (BE)","shortName":"Seedorf (BE)"},"district":{"key":"243","name":"Verwaltungskreis Seeland"},"canton":{"key":"2","code":"BE","name":"Bern / Berne"},"status":"Real"},{"key":"10130832","name":"Eichgässli","postalCode":"3267","locality":"Seedorf BE","commune":{"key":"312","name":"Seedorf (BE)","shortName":"Seedorf (BE)"},"district":{"key":"243","name":"Verwaltungskreis Seeland"},"canton":{"key":"2","code":"BE","name":"Bern / Berne"},"status":"Real"},{"key":"10175278","name":"Eichi","postalCode":"3267","locality":"Seedorf BE","commune":{"key":"312","name":"Seedorf (BE)","shortName":"Seedorf (BE)"},"district":{"key":"243","name":"Verwaltungskreis Seeland"},"canton":{"key":"2","code":"BE","name":"Bern / Berne"},"status":"Real"},{"key":"10210278","name":"Eichiweg","postalCode":"3267","locality":"Seedorf BE","commune":{"key":"312","name":"Seedorf (BE)","shortName":"Seedorf (BE)"},"district":{"key":"243","name":"Verwaltungskreis Seeland"},"canton":{"key":"2","code":"BE","name":"Bern / Berne"},"status":"Real"},{"key":"10130834","name":"Elemoosstrasse","postalCode":"3267","locality":"Seedorf BE","commune":{"key":"312","name":"Seedorf (BE)","shortName":"Seedorf (BE)"},"district":{"key":"243","name":"Verwaltungskreis Seeland"},"canton":{"key":"2","code":"BE","name":"Bern / Berne"},"status":"Real"},{"key":"10219985","name":"FAD-Weg","postalCode":"3267","locality":"Seedorf BE","commune":{"key":"312","name":"Seedorf (BE)","shortName":"Seedorf (BE)"},"district":{"key":"243","name":"Verwaltungskreis Seeland"},"canton":{"key":"2","code":"BE","name":"Bern / Berne"},"status":"Real"},{"key":"10130835","name":"Finkenweg","postalCode":"3267","locality":"Seedorf BE","commune":{"key":"312","name":"Seedorf (BE)","shortName":"Seedorf (BE)"},"district":{"key":"243","name":"Verwaltungskreis Seeland"},"canton":{"key":"2","code":"BE","name":"Bern / Berne"},"status":"Real"},{"key":"10219989","name":"Finstergässli","postalCode":"3267","locality":"Seedorf BE","commune":{"key":"312","name":"Seedorf (BE)","shortName":"Seedorf (BE)"},"district":{"key":"243","name":"Verwaltungskreis Seeland"},"canton":{"key":"2","code":"BE","name":"Bern / Berne"},"status":"Real"},{"key":"10130836","name":"Flüeliweg","postalCode":"3267","locality":"Seedorf BE","commune":{"key":"312","name":"Seedorf (BE)","shortName":"Seedorf (BE)"},"district":{"key":"243","name":"Verwaltungskreis Seeland"},"canton":{"key":"2","code":"BE","name":"Bern / Berne"},"status":"Real"},{"key":"10004146","name":"Föhrenweg","postalCode":"3267","locality":"Seedorf BE","commune":{"key":"312","name":"Seedorf (BE)","shortName":"Seedorf (BE)"},"district":{"key":"243","name":"Verwaltungskreis Seeland"},"canton":{"key":"2","code":"BE","name":"Bern / Berne"},"status":"Real"},{"key":"10130837","name":"Försterweg","postalCode":"3267","locality":"Seedorf BE","commune":{"key":"312","name":"Seedorf (BE)","shortName":"Seedorf (BE)"},"district":{"key":"243","name":"Verwaltungskreis Seeland"},"canton":{"key":"2","code":"BE","name":"Bern / Berne"},"status":"Real"},{"key":"10240727","name":"Gässli","postalCode":"3267","locality":"Seedorf BE","commune":{"key":"312","name":"Seedorf (BE)","shortName":"Seedorf (BE)"},"district":{"key":"243","name":"Verwaltungskreis Seeland"},"canton":{"key":"2","code":"BE","name":"Bern / Berne"},"status":"Real"},{"key":"10218874","name":"Geraderweg","postalCode":"3267","locality":"Seedorf BE","commune":{"key":"312","name":"Seedorf (BE)","shortName":"Seedorf (BE)"},"district":{"key":"243","name":"Verwaltungskreis Seeland"},"canton":{"key":"2","code":"BE","name":"Bern / Berne"},"status":"Real"},{"key":"10130841","name":"Graben","postalCode":"3267","locality":"Seedorf BE","commune":{"key":"312","name":"Seedorf (BE)","shortName":"Seedorf (BE)"},"district":{"key":"243","name":"Verwaltungskreis Seeland"},"canton":{"key":"2","code":"BE","name":"Bern / Berne"},"status":"Real"},{"key":"10218884","name":"Grubenweg","postalCode":"3267","locality":"Seedorf BE","commune":{"key":"312","name":"Seedorf (BE)","shortName":"Seedorf (BE)"},"district":{"key":"243","name":"Verwaltungskreis Seeland"},"canton":{"key":"2","code":"BE","name":"Bern / Berne"},"status":"Real"},{"key":"10218888","name":"Guggisachersaumweg","postalCode":"3267","locality":"Seedorf BE","commune":{"key":"312","name":"Seedorf (BE)","shortName":"Seedorf (BE)"},"district":{"key":"243","name":"Verwaltungskreis Seeland"},"canton":{"key":"2","code":"BE","name":"Bern / Berne"},"status":"Real"},{"key":"10130843","name":"Haltiweg","postalCode":"3267","locality":"Seedorf BE","commune":{"key":"312","name":"Seedorf (BE)","shortName":"Seedorf (BE)"},"district":{"key":"243","name":"Verwaltungskreis Seeland"},"canton":{"key":"2","code":"BE","name":"Bern / Berne"},"status":"Real"},{"key":"10130844","name":"Haslimattweg","postalCode":"3267","locality":"Seedorf BE","commune":{"key":"312","name":"Seedorf (BE)","shortName":"Seedorf (BE)"},"district":{"key":"243","name":"Verwaltungskreis Seeland"},"canton":{"key":"2","code":"BE","name":"Bern / Berne"},"status":"Real"},{"key":"10218894","name":"Hauptweg","postalCode":"3267","locality":"Seedorf BE","commune":{"key":"312","name":"Seedorf (BE)","shortName":"Seedorf (BE)"},"district":{"key":"243","name":"Verwaltungskreis Seeland"},"canton":{"key":"2","code":"BE","name":"Bern / Berne"},"status":"Real"},{"key":"10130848","name":"Hirschenweg","postalCode":"3267","locality":"Seedorf BE","commune":{"key":"312","name":"Seedorf (BE)","shortName":"Seedorf (BE)"},"district":{"key":"243","name":"Verwaltungskreis Seeland"},"canton":{"key":"2","code":"BE","name":"Bern / Berne"},"status":"Real"},{"key":"10166493","name":"Hohmattweg","postalCode":"3267","locality":"Seedorf BE","commune":{"key":"312","name":"Seedorf (BE)","shortName":"Seedorf (BE)"},"district":{"key":"243","name":"Verwaltungskreis Seeland"},"canton":{"key":"2","code":"BE","name":"Bern / Berne"},"status":"Real"},{"key":"10130851","name":"Holzmatt","postalCode":"3267","locality":"Seedorf BE","commune":{"key":"312","name":"Seedorf (BE)","shortName":"Seedorf (BE)"},"district":{"key":"243","name":"Verwaltungskreis Seeland"},"canton":{"key":"2","code":"BE","name":"Bern / Berne"},"status":"Real"},{"key":"10004147","name":"Hübeliweg","postalCode":"3267","locality":"Seedorf BE","commune":{"key":"312","name":"Seedorf (BE)","shortName":"Seedorf (BE)"},"district":{"key":"243","name":"Verwaltungskreis Seeland"},"canton":{"key":"2","code":"BE","name":"Bern / Berne"},"status":"Real"},{"key":"10205201","name":"Hubelweg","postalCode":"3267","locality":"Seedorf BE","commune":{"key":"312","name":"Seedorf (BE)","shortName":"Seedorf (BE)"},"district":{"key":"243","name":"Verwaltungskreis Seeland"},"canton":{"key":"2","code":"BE","name":"Bern / Berne"},"status":"Real"},{"key":"10220029","name":"Huppenweg","postalCode":"3267","locality":"Seedorf BE","commune":{"key":"312","name":"Seedorf (BE)","shortName":"Seedorf (BE)"},"district":{"key":"243","name":"Verwaltungskreis Seeland"},"canton":{"key":"2","code":"BE","name":"Bern / Berne"},"status":"Real"},{"key":"10220032","name":"Hurniweg","postalCode":"3267","locality":"Seedorf BE","commune":{"key":"312","name":"Seedorf (BE)","shortName":"Seedorf (BE)"},"district":{"key":"243","name":"Verwaltungskreis Seeland"},"canton":{"key":"2","code":"BE","name":"Bern / Berne"},"status":"Real"},{"key":"10221169","name":"Ischlagweg","postalCode":"3267","locality":"Seedorf BE","commune":{"key":"312","name":"Seedorf (BE)","shortName":"Seedorf (BE)"},"district":{"key":"243","name":"Verwaltungskreis Seeland"},"canton":{"key":"2","code":"BE","name":"Bern / Berne"},"status":"Real"},{"key":"10221172","name":"Jägerhüttliweg","postalCode":"3267","locality":"Seedorf BE","commune":{"key":"312","name":"Seedorf (BE)","shortName":"Seedorf (BE)"},"district":{"key":"243","name":"Verwaltungskreis Seeland"},"canton":{"key":"2","code":"BE","name":"Bern / Berne"},"status":"Real"},{"key":"10130854","name":"Juraweg","postalCode":"3267","locality":"Seedorf BE","commune":{"key":"312","name":"Seedorf (BE)","shortName":"Seedorf (BE)"},"district":{"key":"243","name":"Verwaltungskreis Seeland"},"canton":{"key":"2","code":"BE","name":"Bern / Berne"},"status":"Real"},{"key":"10221176","name":"Kastelweg","postalCode":"3267","locality":"Seedorf BE","commune":{"key":"312","name":"Seedorf (BE)","shortName":"Seedorf (BE)"},"district":{"key":"243","name":"Verwaltungskreis Seeland"},"canton":{"key":"2","code":"BE","name":"Bern / Berne"},"status":"Real"},{"key":"10221180","name":"Kielegrabenweg","postalCode":"3267","locality":"Seedorf BE","commune":{"key":"312","name":"Seedorf (BE)","shortName":"Seedorf (BE)"},"district":{"key":"243","name":"Verwaltungskreis Seeland"},"canton":{"key":"2","code":"BE","name":"Bern / Berne"},"status":"Real"},{"key":"10130839","name":"Kirchgasse","postalCode":"3267","locality":"Seedorf BE","commune":{"key":"312","name":"Seedorf (BE)","shortName":"Seedorf (BE)"},"district":{"key":"243","name":"Verwaltungskreis Seeland"},"canton":{"key":"2","code":"BE","name":"Bern / Berne"},"status":"Real"},{"key":"10221192","name":"Klosterweg","postalCode":"3267","locality":"Seedorf BE","commune":{"key":"312","name":"Seedorf (BE)","shortName":"Seedorf (BE)"},"district":{"key":"243","name":"Verwaltungskreis Seeland"},"canton":{"key":"2","code":"BE","name":"Bern / Berne"},"status":"Real"},{"key":"10221200","name":"Kuppenweg","postalCode":"3267","locality":"Seedorf BE","commune":{"key":"312","name":"Seedorf (BE)","shortName":"Seedorf (BE)"},"district":{"key":"243","name":"Verwaltungskreis Seeland"},"canton":{"key":"2","code":"BE","name":"Bern / Berne"},"status":"Real"},{"key":"10241128","name":"Lärchenweg","postalCode":"3267","locality":"Seedorf BE","commune":{"key":"312","name":"Seedorf (BE)","shortName":"Seedorf (BE)"},"district":{"key":"243","name":"Verwaltungskreis Seeland"},"canton":{"key":"2","code":"BE","name":"Bern / Berne"},"status":"Real"},{"key":"10122904","name":"Lerchenweg","postalCode":"3267","locality":"Seedorf BE","commune":{"key":"312","name":"Seedorf (BE)","shortName":"Seedorf (BE)"},"district":{"key":"243","name":"Verwaltungskreis Seeland"},"canton":{"key":"2","code":"BE","name":"Bern / Berne"},"status":"Real"},{"key":"10122906","name":"Löhrstrasse","postalCode":"3267","locality":"Seedorf BE","commune":{"key":"312","name":"Seedorf (BE)","shortName":"Seedorf (BE)"},"district":{"key":"243","name":"Verwaltungskreis Seeland"},"canton":{"key":"2","code":"BE","name":"Bern / Berne"},"status":"Real"},{"key":"10122908","name":"Lyssstrasse","postalCode":"3267","locality":"Seedorf BE","commune":{"key":"312","name":"Seedorf (BE)","shortName":"Seedorf (BE)"},"district":{"key":"243","name":"Verwaltungskreis Seeland"},"canton":{"key":"2","code":"BE","name":"Bern / Berne"},"status":"Real"},{"key":"10122909","name":"Meisenweg","postalCode":"3267","locality":"Seedorf BE","commune":{"key":"312","name":"Seedorf (BE)","shortName":"Seedorf (BE)"},"district":{"key":"243","name":"Verwaltungskreis Seeland"},"canton":{"key":"2","code":"BE","name":"Bern / Berne"},"status":"Real"},{"key":"10221211","name":"Mieschhubelweg","postalCode":"3267","locality":"Seedorf BE","commune":{"key":"312","name":"Seedorf (BE)","shortName":"Seedorf (BE)"},"district":{"key":"243","name":"Verwaltungskreis Seeland"},"canton":{"key":"2","code":"BE","name":"Bern / Berne"},"status":"Real"},{"key":"10218752","name":"Oberer Kastelweg","postalCode":"3267","locality":"Seedorf BE","commune":{"key":"312","name":"Seedorf (BE)","shortName":"Seedorf (BE)"},"district":{"key":"243","name":"Verwaltungskreis Seeland"},"canton":{"key":"2","code":"BE","name":"Bern / Berne"},"status":"Real"},{"key":"10122912","name":"Pfarrmatt","postalCode":"3267","locality":"Seedorf BE","commune":{"key":"312","name":"Seedorf (BE)","shortName":"Seedorf (BE)"},"district":{"key":"243","name":"Verwaltungskreis Seeland"},"canton":{"key":"2","code":"BE","name":"Bern / Berne"},"status":"Real"},{"key":"10004148","name":"Platanenweg","postalCode":"3267","locality":"Seedorf BE","commune":{"key":"312","name":"Seedorf (BE)","shortName":"Seedorf (BE)"},"district":{"key":"243","name":"Verwaltungskreis Seeland"},"canton":{"key":"2","code":"BE","name":"Bern / Berne"},"status":"Real"},{"key":"10218756","name":"Querweg","postalCode":"3267","locality":"Seedorf BE","commune":{"key":"312","name":"Seedorf (BE)","shortName":"Seedorf (BE)"},"district":{"key":"243","name":"Verwaltungskreis Seeland"},"canton":{"key":"2","code":"BE","name":"Bern / Berne"},"status":"Real"},{"key":"10218764","name":"Räbhale","postalCode":"3267","locality":"Seedorf BE","commune":{"key":"312","name":"Seedorf (BE)","shortName":"Seedorf (BE)"},"district":{"key":"243","name":"Verwaltungskreis Seeland"},"canton":{"key":"2","code":"BE","name":"Bern / Berne"},"status":"Real"},{"key":"10083291","name":"Rättlifeld","postalCode":"3267","locality":"Seedorf BE","commune":{"key":"312","name":"Seedorf (BE)","shortName":"Seedorf (BE)"},"district":{"key":"243","name":"Verwaltungskreis Seeland"},"canton":{"key":"2","code":"BE","name":"Bern / Berne"},"status":"Real"},{"key":"10118241","name":"Rättlistrasse","postalCode":"3267","locality":"Seedorf BE","commune":{"key":"312","name":"Seedorf (BE)","shortName":"Seedorf (BE)"},"district":{"key":"243","name":"Verwaltungskreis Seeland"},"canton":{"key":"2","code":"BE","name":"Bern / Berne"},"status":"Real"},{"key":"10218768","name":"Rehliweg","postalCode":"3267","locality":"Seedorf BE","commune":{"key":"312","name":"Seedorf (BE)","shortName":"Seedorf (BE)"},"district":{"key":"243","name":"Verwaltungskreis Seeland"},"canton":{"key":"2","code":"BE","name":"Bern / Berne"},"status":"Real"},{"key":"10122914","name":"Riedweg","postalCode":"3267","locality":"Seedorf BE","commune":{"key":"312","name":"Seedorf (BE)","shortName":"Seedorf (BE)"},"district":{"key":"243","name":"Verwaltungskreis Seeland"},"canton":{"key":"2","code":"BE","name":"Bern / Berne"},"status":"Real"},{"key":"10218782","name":"Ringweg","postalCode":"3267","locality":"Seedorf BE","commune":{"key":"312","name":"Seedorf (BE)","shortName":"Seedorf (BE)"},"district":{"key":"243","name":"Verwaltungskreis Seeland"},"canton":{"key":"2","code":"BE","name":"Bern / Berne"},"status":"Real"},{"key":"10004143","name":"Rotholzstrasse","postalCode":"3267","locality":"Seedorf BE","commune":{"key":"312","name":"Seedorf (BE)","shortName":"Seedorf (BE)"},"district":{"key":"243","name":"Verwaltungskreis Seeland"},"canton":{"key":"2","code":"BE","name":"Bern / Berne"},"status":"Real"},{"key":"10122915","name":"Rungelenbaum","postalCode":"3267","locality":"Seedorf BE","commune":{"key":"312","name":"Seedorf (BE)","shortName":"Seedorf (BE)"},"district":{"key":"243","name":"Verwaltungskreis Seeland"},"canton":{"key":"2","code":"BE","name":"Bern / Berne"},"status":"Real"},{"key":"10122917","name":"Saumweg","postalCode":"3267","locality":"Seedorf BE","commune":{"key":"312","name":"Seedorf (BE)","shortName":"Seedorf (BE)"},"district":{"key":"243","name":"Verwaltungskreis Seeland"},"canton":{"key":"2","code":"BE","name":"Bern / Berne"},"status":"Real"},{"key":"10122913","name":"Scheuerackerweg","postalCode":"3267","locality":"Seedorf BE","commune":{"key":"312","name":"Seedorf (BE)","shortName":"Seedorf (BE)"},"district":{"key":"243","name":"Verwaltungskreis Seeland"},"canton":{"key":"2","code":"BE","name":"Bern / Berne"},"status":"Real"},{"key":"10218790","name":"Schlachthausweg","postalCode":"3267","locality":"Seedorf BE","commune":{"key":"312","name":"Seedorf (BE)","shortName":"Seedorf (BE)"},"district":{"key":"243","name":"Verwaltungskreis Seeland"},"canton":{"key":"2","code":"BE","name":"Bern / Berne"},"status":"Real"},{"key":"10218798","name":"Schoriweg","postalCode":"3267","locality":"Seedorf BE","commune":{"key":"312","name":"Seedorf (BE)","shortName":"Seedorf (BE)"},"district":{"key":"243","name":"Verwaltungskreis Seeland"},"canton":{"key":"2","code":"BE","name":"Bern / Berne"},"status":"Real"},{"key":"10122920","name":"Schüpfenstrasse","postalCode":"3267","locality":"Seedorf BE","commune":{"key":"312","name":"Seedorf (BE)","shortName":"Seedorf (BE)"},"district":{"key":"243","name":"Verwaltungskreis Seeland"},"canton":{"key":"2","code":"BE","name":"Bern / Berne"},"status":"Real"},{"key":"10062539","name":"Schützenmatte","postalCode":"3267","locality":"Seedorf BE","commune":{"key":"312","name":"Seedorf (BE)","shortName":"Seedorf (BE)"},"district":{"key":"243","name":"Verwaltungskreis Seeland"},"canton":{"key":"2","code":"BE","name":"Bern / Berne"},"status":"Real"},{"key":"10122921","name":"Schwalbenweg","postalCode":"3267","locality":"Seedorf BE","commune":{"key":"312","name":"Seedorf (BE)","shortName":"Seedorf (BE)"},"district":{"key":"243","name":"Verwaltungskreis Seeland"},"canton":{"key":"2","code":"BE","name":"Bern / Berne"},"status":"Real"},{"key":"10218802","name":"Seedorfstrasse","postalCode":"3267","locality":"Seedorf BE","commune":{"key":"312","name":"Seedorf (BE)","shortName":"Seedorf (BE)"},"district":{"key":"243","name":"Verwaltungskreis Seeland"},"canton":{"key":"2","code":"BE","name":"Bern / Berne"},"status":"Real"},{"key":"10122924","name":"Steingrüebliweg","postalCode":"3267","locality":"Seedorf BE","commune":{"key":"312","name":"Seedorf (BE)","shortName":"Seedorf (BE)"},"district":{"key":"243","name":"Verwaltungskreis Seeland"},"canton":{"key":"2","code":"BE","name":"Bern / Berne"},"status":"Real"},{"key":"10122925","name":"Stöckliweg","postalCode":"3267","locality":"Seedorf BE","commune":{"key":"312","name":"Seedorf (BE)","shortName":"Seedorf (BE)"},"district":{"key":"243","name":"Verwaltungskreis Seeland"},"canton":{"key":"2","code":"BE","name":"Bern / Berne"},"status":"Real"},{"key":"10122927","name":"Stutz","postalCode":"3267","locality":"Seedorf BE","commune":{"key":"312","name":"Seedorf (BE)","shortName":"Seedorf (BE)"},"district":{"key":"243","name":"Verwaltungskreis Seeland"},"canton":{"key":"2","code":"BE","name":"Bern / Berne"},"status":"Real"},{"key":"10104208","name":"Tannenhof","postalCode":"3267","locality":"Seedorf BE","commune":{"key":"312","name":"Seedorf (BE)","shortName":"Seedorf (BE)"},"district":{"key":"243","name":"Verwaltungskreis Seeland"},"canton":{"key":"2","code":"BE","name":"Bern / Berne"},"status":"Real"},{"key":"10083292","name":"Tannenmatte","postalCode":"3267","locality":"Seedorf BE","commune":{"key":"312","name":"Seedorf (BE)","shortName":"Seedorf (BE)"},"district":{"key":"243","name":"Verwaltungskreis Seeland"},"canton":{"key":"2","code":"BE","name":"Bern / Berne"},"status":"Real"},{"key":"10004149","name":"Tannenweg","postalCode":"3267","locality":"Seedorf BE","commune":{"key":"312","name":"Seedorf (BE)","shortName":"Seedorf (BE)"},"district":{"key":"243","name":"Verwaltungskreis Seeland"},"canton":{"key":"2","code":"BE","name":"Bern / Berne"},"status":"Real"},{"key":"10218810","name":"Ueliweg","postalCode":"3267","locality":"Seedorf BE","commune":{"key":"312","name":"Seedorf (BE)","shortName":"Seedorf (BE)"},"district":{"key":"243","name":"Verwaltungskreis Seeland"},"canton":{"key":"2","code":"BE","name":"Bern / Berne"},"status":"Real"},{"key":"10062540","name":"Unterdorf","postalCode":"3267","locality":"Seedorf BE","commune":{"key":"312","name":"Seedorf (BE)","shortName":"Seedorf (BE)"},"district":{"key":"243","name":"Verwaltungskreis Seeland"},"canton":{"key":"2","code":"BE","name":"Bern / Berne"},"status":"Real"},{"key":"10218814","name":"Verbindungsweg","postalCode":"3267","locality":"Seedorf BE","commune":{"key":"312","name":"Seedorf (BE)","shortName":"Seedorf (BE)"},"district":{"key":"243","name":"Verwaltungskreis Seeland"},"canton":{"key":"2","code":"BE","name":"Bern / Berne"},"status":"Real"},{"key":"10240573","name":"Wahlendorfweg","postalCode":"3267","locality":"Seedorf BE","commune":{"key":"312","name":"Seedorf (BE)","shortName":"Seedorf (BE)"},"district":{"key":"243","name":"Verwaltungskreis Seeland"},"canton":{"key":"2","code":"BE","name":"Bern / Berne"},"status":"Real"},{"key":"10004144","name":"Waldhöheweg","postalCode":"3267","locality":"Seedorf BE","commune":{"key":"312","name":"Seedorf (BE)","shortName":"Seedorf (BE)"},"district":{"key":"243","name":"Verwaltungskreis Seeland"},"canton":{"key":"2","code":"BE","name":"Bern / Berne"},"status":"Real"},{"key":"10218821","name":"Weichelweg","postalCode":"3267","locality":"Seedorf BE","commune":{"key":"312","name":"Seedorf (BE)","shortName":"Seedorf (BE)"},"district":{"key":"243","name":"Verwaltungskreis Seeland"},"canton":{"key":"2","code":"BE","name":"Bern / Berne"},"status":"Real"},{"key":"10122931","name":"Weiherweg","postalCode":"3267","locality":"Seedorf BE","commune":{"key":"312","name":"Seedorf (BE)","shortName":"Seedorf (BE)"},"district":{"key":"243","name":"Verwaltungskreis Seeland"},"canton":{"key":"2","code":"BE","name":"Bern / Berne"},"status":"Real"},{"key":"10122932","name":"Wilerstrasse","postalCode":"3267","locality":"Seedorf BE","commune":{"key":"312","name":"Seedorf (BE)","shortName":"Seedorf (BE)"},"district":{"key":"243","name":"Verwaltungskreis Seeland"},"canton":{"key":"2","code":"BE","name":"Bern / Berne"},"status":"Real"},{"key":"10218825","name":"Wislezesaumweg","postalCode":"3267","locality":"Seedorf BE","commune":{"key":"312","name":"Seedorf (BE)","shortName":"Seedorf (BE)"},"district":{"key":"243","name":"Verwaltungskreis Seeland"},"canton":{"key":"2","code":"BE","name":"Bern / Berne"},"status":"Real"},{"key":"10122933","name":"Zelgliweg","postalCode":"3267","locality":"Seedorf BE","commune":{"key":"312","name":"Seedorf (BE)","shortName":"Seedorf (BE)"},"district":{"key":"243","name":"Verwaltungskreis Seeland"},"canton":{"key":"2","code":"BE","name":"Bern / Berne"},"status":"Real"},]