[{"name":"Am Zollstock","postalCode":"55288","locality":"Spiesheim","municipality":{"key":"07331061","name":"Spiesheim","type":"Kreisangehörige_Gemeinde"},"district":{"key":"07331","name":"Alzey-Worms","type":"Landkreis"},"federalState":{"key":"07","name":"Rheinland-Pfalz"}},{"name":"An der Gänsweide","postalCode":"55288","locality":"Spiesheim","municipality":{"key":"07331061","name":"Spiesheim","type":"Kreisangehörige_Gemeinde"},"district":{"key":"07331","name":"Alzey-Worms","type":"Landkreis"},"federalState":{"key":"07","name":"Rheinland-Pfalz"}},{"name":"Armsheimer Weg","postalCode":"55288","locality":"Spiesheim","municipality":{"key":"07331061","name":"Spiesheim","type":"Kreisangehörige_Gemeinde"},"district":{"key":"07331","name":"Alzey-Worms","type":"Landkreis"},"federalState":{"key":"07","name":"Rheinland-Pfalz"}},{"name":"Berggäßchen","postalCode":"55288","locality":"Spiesheim","municipality":{"key":"07331061","name":"Spiesheim","type":"Kreisangehörige_Gemeinde"},"district":{"key":"07331","name":"Alzey-Worms","type":"Landkreis"},"federalState":{"key":"07","name":"Rheinland-Pfalz"}},{"name":"Frankenhöhe","postalCode":"55288","locality":"Spiesheim","municipality":{"key":"07331061","name":"Spiesheim","type":"Kreisangehörige_Gemeinde"},"district":{"key":"07331","name":"Alzey-Worms","type":"Landkreis"},"federalState":{"key":"07","name":"Rheinland-Pfalz"}},{"name":"Heuerstr.","postalCode":"55288","locality":"Spiesheim","municipality":{"key":"07331061","name":"Spiesheim","type":"Kreisangehörige_Gemeinde"},"district":{"key":"07331","name":"Alzey-Worms","type":"Landkreis"},"federalState":{"key":"07","name":"Rheinland-Pfalz"}},{"name":"Hinter dem Rathaus","postalCode":"55288","locality":"Spiesheim","municipality":{"key":"07331061","name":"Spiesheim","type":"Kreisangehörige_Gemeinde"},"district":{"key":"07331","name":"Alzey-Worms","type":"Landkreis"},"federalState":{"key":"07","name":"Rheinland-Pfalz"}},{"name":"Im Holzweg","postalCode":"55288","locality":"Spiesheim","municipality":{"key":"07331061","name":"Spiesheim","type":"Kreisangehörige_Gemeinde"},"district":{"key":"07331","name":"Alzey-Worms","type":"Landkreis"},"federalState":{"key":"07","name":"Rheinland-Pfalz"}},{"name":"Im Wiesengarten","postalCode":"55288","locality":"Spiesheim","municipality":{"key":"07331061","name":"Spiesheim","type":"Kreisangehörige_Gemeinde"},"district":{"key":"07331","name":"Alzey-Worms","type":"Landkreis"},"federalState":{"key":"07","name":"Rheinland-Pfalz"}},{"name":"Keltenring","postalCode":"55288","locality":"Spiesheim","municipality":{"key":"07331061","name":"Spiesheim","type":"Kreisangehörige_Gemeinde"},"district":{"key":"07331","name":"Alzey-Worms","type":"Landkreis"},"federalState":{"key":"07","name":"Rheinland-Pfalz"}},{"name":"Kirchstr.","postalCode":"55288","locality":"Spiesheim","municipality":{"key":"07331061","name":"Spiesheim","type":"Kreisangehörige_Gemeinde"},"district":{"key":"07331","name":"Alzey-Worms","type":"Landkreis"},"federalState":{"key":"07","name":"Rheinland-Pfalz"}},{"name":"Küfergässchen","postalCode":"55288","locality":"Spiesheim","municipality":{"key":"07331061","name":"Spiesheim","type":"Kreisangehörige_Gemeinde"},"district":{"key":"07331","name":"Alzey-Worms","type":"Landkreis"},"federalState":{"key":"07","name":"Rheinland-Pfalz"}},{"name":"Lidingstr.","postalCode":"55288","locality":"Spiesheim","municipality":{"key":"07331061","name":"Spiesheim","type":"Kreisangehörige_Gemeinde"},"district":{"key":"07331","name":"Alzey-Worms","type":"Landkreis"},"federalState":{"key":"07","name":"Rheinland-Pfalz"}},{"name":"Mittelstr.","postalCode":"55288","locality":"Spiesheim","municipality":{"key":"07331061","name":"Spiesheim","type":"Kreisangehörige_Gemeinde"},"district":{"key":"07331","name":"Alzey-Worms","type":"Landkreis"},"federalState":{"key":"07","name":"Rheinland-Pfalz"}},{"name":"Neustr.","postalCode":"55288","locality":"Spiesheim","municipality":{"key":"07331061","name":"Spiesheim","type":"Kreisangehörige_Gemeinde"},"district":{"key":"07331","name":"Alzey-Worms","type":"Landkreis"},"federalState":{"key":"07","name":"Rheinland-Pfalz"}},{"name":"Niederstr.","postalCode":"55288","locality":"Spiesheim","municipality":{"key":"07331061","name":"Spiesheim","type":"Kreisangehörige_Gemeinde"},"district":{"key":"07331","name":"Alzey-Worms","type":"Landkreis"},"federalState":{"key":"07","name":"Rheinland-Pfalz"}},{"name":"Oberstr.","postalCode":"55288","locality":"Spiesheim","municipality":{"key":"07331061","name":"Spiesheim","type":"Kreisangehörige_Gemeinde"},"district":{"key":"07331","name":"Alzey-Worms","type":"Landkreis"},"federalState":{"key":"07","name":"Rheinland-Pfalz"}},{"name":"Schmiedstr.","postalCode":"55288","locality":"Spiesheim","municipality":{"key":"07331061","name":"Spiesheim","type":"Kreisangehörige_Gemeinde"},"district":{"key":"07331","name":"Alzey-Worms","type":"Landkreis"},"federalState":{"key":"07","name":"Rheinland-Pfalz"}},{"name":"Untergasse","postalCode":"55288","locality":"Spiesheim","municipality":{"key":"07331061","name":"Spiesheim","type":"Kreisangehörige_Gemeinde"},"district":{"key":"07331","name":"Alzey-Worms","type":"Landkreis"},"federalState":{"key":"07","name":"Rheinland-Pfalz"}},]