[{"name":"Alsenstr.","postalCode":"57537","locality":"Wissen","municipality":{"key":"07132117","name":"Wissen, Stadt","type":"Stadt"},"district":{"key":"07132","name":"Altenkirchen (Westerwald)","type":"Landkreis"},"federalState":{"key":"07","name":"Rheinland-Pfalz"}},{"name":"Alte Poststr.","postalCode":"57537","locality":"Wissen","municipality":{"key":"07132117","name":"Wissen, Stadt","type":"Stadt"},"district":{"key":"07132","name":"Altenkirchen (Westerwald)","type":"Landkreis"},"federalState":{"key":"07","name":"Rheinland-Pfalz"}},{"name":"Alter Fürstenweg","postalCode":"57537","locality":"Wissen","municipality":{"key":"07132117","name":"Wissen, Stadt","type":"Stadt"},"district":{"key":"07132","name":"Altenkirchen (Westerwald)","type":"Landkreis"},"federalState":{"key":"07","name":"Rheinland-Pfalz"}},{"name":"Am Acker","postalCode":"57537","locality":"Wissen","municipality":{"key":"07132117","name":"Wissen, Stadt","type":"Stadt"},"district":{"key":"07132","name":"Altenkirchen (Westerwald)","type":"Landkreis"},"federalState":{"key":"07","name":"Rheinland-Pfalz"}},{"name":"Am Biesem","postalCode":"57537","locality":"Wissen","municipality":{"key":"07132117","name":"Wissen, Stadt","type":"Stadt"},"district":{"key":"07132","name":"Altenkirchen (Westerwald)","type":"Landkreis"},"federalState":{"key":"07","name":"Rheinland-Pfalz"}},{"name":"Am Mühlengraben","postalCode":"57537","locality":"Wissen","municipality":{"key":"07132117","name":"Wissen, Stadt","type":"Stadt"},"district":{"key":"07132","name":"Altenkirchen (Westerwald)","type":"Landkreis"},"federalState":{"key":"07","name":"Rheinland-Pfalz"}},{"name":"Am Schützenplatz","postalCode":"57537","locality":"Wissen","municipality":{"key":"07132117","name":"Wissen, Stadt","type":"Stadt"},"district":{"key":"07132","name":"Altenkirchen (Westerwald)","type":"Landkreis"},"federalState":{"key":"07","name":"Rheinland-Pfalz"}},{"name":"Amselstr.","postalCode":"57537","locality":"Wissen","municipality":{"key":"07132117","name":"Wissen, Stadt","type":"Stadt"},"district":{"key":"07132","name":"Altenkirchen (Westerwald)","type":"Landkreis"},"federalState":{"key":"07","name":"Rheinland-Pfalz"}},{"name":"Am Steimel","postalCode":"57537","locality":"Wissen","municipality":{"key":"07132117","name":"Wissen, Stadt","type":"Stadt"},"district":{"key":"07132","name":"Altenkirchen (Westerwald)","type":"Landkreis"},"federalState":{"key":"07","name":"Rheinland-Pfalz"}},{"name":"Am Steingarten","postalCode":"57537","locality":"Wissen","municipality":{"key":"07132117","name":"Wissen, Stadt","type":"Stadt"},"district":{"key":"07132","name":"Altenkirchen (Westerwald)","type":"Landkreis"},"federalState":{"key":"07","name":"Rheinland-Pfalz"}},{"name":"Am Zollhaus","postalCode":"57537","locality":"Wissen","municipality":{"key":"07132117","name":"Wissen, Stadt","type":"Stadt"},"district":{"key":"07132","name":"Altenkirchen (Westerwald)","type":"Landkreis"},"federalState":{"key":"07","name":"Rheinland-Pfalz"}},{"name":"An der Baumschule","postalCode":"57537","locality":"Wissen","municipality":{"key":"07132117","name":"Wissen, Stadt","type":"Stadt"},"district":{"key":"07132","name":"Altenkirchen (Westerwald)","type":"Landkreis"},"federalState":{"key":"07","name":"Rheinland-Pfalz"}},{"name":"Asternweg","postalCode":"57537","locality":"Wissen","municipality":{"key":"07132117","name":"Wissen, Stadt","type":"Stadt"},"district":{"key":"07132","name":"Altenkirchen (Westerwald)","type":"Landkreis"},"federalState":{"key":"07","name":"Rheinland-Pfalz"}},{"name":"Auf dem Brüchelchen","postalCode":"57537","locality":"Wissen","municipality":{"key":"07132117","name":"Wissen, Stadt","type":"Stadt"},"district":{"key":"07132","name":"Altenkirchen (Westerwald)","type":"Landkreis"},"federalState":{"key":"07","name":"Rheinland-Pfalz"}},{"name":"Auf dem Küppel","postalCode":"57537","locality":"Wissen","municipality":{"key":"07132117","name":"Wissen, Stadt","type":"Stadt"},"district":{"key":"07132","name":"Altenkirchen (Westerwald)","type":"Landkreis"},"federalState":{"key":"07","name":"Rheinland-Pfalz"}},{"name":"Auf dem Statt","postalCode":"57537","locality":"Wissen","municipality":{"key":"07132117","name":"Wissen, Stadt","type":"Stadt"},"district":{"key":"07132","name":"Altenkirchen (Westerwald)","type":"Landkreis"},"federalState":{"key":"07","name":"Rheinland-Pfalz"}},{"name":"Auf den Hüllen","postalCode":"57537","locality":"Wissen","municipality":{"key":"07132117","name":"Wissen, Stadt","type":"Stadt"},"district":{"key":"07132","name":"Altenkirchen (Westerwald)","type":"Landkreis"},"federalState":{"key":"07","name":"Rheinland-Pfalz"}},{"name":"Auf den Stöcken","postalCode":"57537","locality":"Wissen","municipality":{"key":"07132117","name":"Wissen, Stadt","type":"Stadt"},"district":{"key":"07132","name":"Altenkirchen (Westerwald)","type":"Landkreis"},"federalState":{"key":"07","name":"Rheinland-Pfalz"}},{"name":"Auf der Bornscheidt","postalCode":"57537","locality":"Wissen","municipality":{"key":"07132117","name":"Wissen, Stadt","type":"Stadt"},"district":{"key":"07132","name":"Altenkirchen (Westerwald)","type":"Landkreis"},"federalState":{"key":"07","name":"Rheinland-Pfalz"}},{"name":"Auf der Rahm","postalCode":"57537","locality":"Wissen","municipality":{"key":"07132117","name":"Wissen, Stadt","type":"Stadt"},"district":{"key":"07132","name":"Altenkirchen (Westerwald)","type":"Landkreis"},"federalState":{"key":"07","name":"Rheinland-Pfalz"}},{"name":"Bahnhofstr.","postalCode":"57537","locality":"Wissen","municipality":{"key":"07132117","name":"Wissen, Stadt","type":"Stadt"},"district":{"key":"07132","name":"Altenkirchen (Westerwald)","type":"Landkreis"},"federalState":{"key":"07","name":"Rheinland-Pfalz"}},{"name":"Beethovenstr.","postalCode":"57537","locality":"Wissen","municipality":{"key":"07132117","name":"Wissen, Stadt","type":"Stadt"},"district":{"key":"07132","name":"Altenkirchen (Westerwald)","type":"Landkreis"},"federalState":{"key":"07","name":"Rheinland-Pfalz"}},{"name":"Behringstr.","postalCode":"57537","locality":"Wissen","municipality":{"key":"07132117","name":"Wissen, Stadt","type":"Stadt"},"district":{"key":"07132","name":"Altenkirchen (Westerwald)","type":"Landkreis"},"federalState":{"key":"07","name":"Rheinland-Pfalz"}},{"name":"Bergfeldstr.","postalCode":"57537","locality":"Wissen","municipality":{"key":"07132117","name":"Wissen, Stadt","type":"Stadt"},"district":{"key":"07132","name":"Altenkirchen (Westerwald)","type":"Landkreis"},"federalState":{"key":"07","name":"Rheinland-Pfalz"}},{"name":"Bergstr.","postalCode":"57537","locality":"Wissen","municipality":{"key":"07132117","name":"Wissen, Stadt","type":"Stadt"},"district":{"key":"07132","name":"Altenkirchen (Westerwald)","type":"Landkreis"},"federalState":{"key":"07","name":"Rheinland-Pfalz"}},{"name":"Betzdorfer Landstr.","postalCode":"57537","locality":"Wissen","municipality":{"key":"07132117","name":"Wissen, Stadt","type":"Stadt"},"district":{"key":"07132","name":"Altenkirchen (Westerwald)","type":"Landkreis"},"federalState":{"key":"07","name":"Rheinland-Pfalz"}},{"name":"Birkener Str.","postalCode":"57537","locality":"Wissen","municipality":{"key":"07132117","name":"Wissen, Stadt","type":"Stadt"},"district":{"key":"07132","name":"Altenkirchen (Westerwald)","type":"Landkreis"},"federalState":{"key":"07","name":"Rheinland-Pfalz"}},{"name":"Blähaustr.","postalCode":"57537","locality":"Wissen","municipality":{"key":"07132117","name":"Wissen, Stadt","type":"Stadt"},"district":{"key":"07132","name":"Altenkirchen (Westerwald)","type":"Landkreis"},"federalState":{"key":"07","name":"Rheinland-Pfalz"}},{"name":"Blumenstr.","postalCode":"57537","locality":"Wissen","municipality":{"key":"07132117","name":"Wissen, Stadt","type":"Stadt"},"district":{"key":"07132","name":"Altenkirchen (Westerwald)","type":"Landkreis"},"federalState":{"key":"07","name":"Rheinland-Pfalz"}},{"name":"Bogenstr.","postalCode":"57537","locality":"Wissen","municipality":{"key":"07132117","name":"Wissen, Stadt","type":"Stadt"},"district":{"key":"07132","name":"Altenkirchen (Westerwald)","type":"Landkreis"},"federalState":{"key":"07","name":"Rheinland-Pfalz"}},{"name":"Böhmerstr.","postalCode":"57537","locality":"Wissen","municipality":{"key":"07132117","name":"Wissen, Stadt","type":"Stadt"},"district":{"key":"07132","name":"Altenkirchen (Westerwald)","type":"Landkreis"},"federalState":{"key":"07","name":"Rheinland-Pfalz"}},{"name":"Borsigstr.","postalCode":"57537","locality":"Wissen","municipality":{"key":"07132117","name":"Wissen, Stadt","type":"Stadt"},"district":{"key":"07132","name":"Altenkirchen (Westerwald)","type":"Landkreis"},"federalState":{"key":"07","name":"Rheinland-Pfalz"}},{"name":"Brixiusstr.","postalCode":"57537","locality":"Wissen","municipality":{"key":"07132117","name":"Wissen, Stadt","type":"Stadt"},"district":{"key":"07132","name":"Altenkirchen (Westerwald)","type":"Landkreis"},"federalState":{"key":"07","name":"Rheinland-Pfalz"}},{"name":"Bröhltalstr.","postalCode":"57537","locality":"Wissen","municipality":{"key":"07132117","name":"Wissen, Stadt","type":"Stadt"},"district":{"key":"07132","name":"Altenkirchen (Westerwald)","type":"Landkreis"},"federalState":{"key":"07","name":"Rheinland-Pfalz"}},{"name":"Bruchstr.","postalCode":"57537","locality":"Wissen","municipality":{"key":"07132117","name":"Wissen, Stadt","type":"Stadt"},"district":{"key":"07132","name":"Altenkirchen (Westerwald)","type":"Landkreis"},"federalState":{"key":"07","name":"Rheinland-Pfalz"}},{"name":"Brückwiese","postalCode":"57537","locality":"Wissen","municipality":{"key":"07132117","name":"Wissen, Stadt","type":"Stadt"},"district":{"key":"07132","name":"Altenkirchen (Westerwald)","type":"Landkreis"},"federalState":{"key":"07","name":"Rheinland-Pfalz"}},{"name":"Brunnenweg","postalCode":"57537","locality":"Wissen","municipality":{"key":"07132117","name":"Wissen, Stadt","type":"Stadt"},"district":{"key":"07132","name":"Altenkirchen (Westerwald)","type":"Landkreis"},"federalState":{"key":"07","name":"Rheinland-Pfalz"}},{"name":"Buchenstr.","postalCode":"57537","locality":"Wissen","municipality":{"key":"07132117","name":"Wissen, Stadt","type":"Stadt"},"district":{"key":"07132","name":"Altenkirchen (Westerwald)","type":"Landkreis"},"federalState":{"key":"07","name":"Rheinland-Pfalz"}},{"name":"Burgunder Str.","postalCode":"57537","locality":"Wissen","municipality":{"key":"07132117","name":"Wissen, Stadt","type":"Stadt"},"district":{"key":"07132","name":"Altenkirchen (Westerwald)","type":"Landkreis"},"federalState":{"key":"07","name":"Rheinland-Pfalz"}},{"name":"Chagnyer Str.","postalCode":"57537","locality":"Wissen","municipality":{"key":"07132117","name":"Wissen, Stadt","type":"Stadt"},"district":{"key":"07132","name":"Altenkirchen (Westerwald)","type":"Landkreis"},"federalState":{"key":"07","name":"Rheinland-Pfalz"}},{"name":"Dörnerstr.","postalCode":"57537","locality":"Wissen","municipality":{"key":"07132117","name":"Wissen, Stadt","type":"Stadt"},"district":{"key":"07132","name":"Altenkirchen (Westerwald)","type":"Landkreis"},"federalState":{"key":"07","name":"Rheinland-Pfalz"}},{"name":"Drosselstr.","postalCode":"57537","locality":"Wissen","municipality":{"key":"07132117","name":"Wissen, Stadt","type":"Stadt"},"district":{"key":"07132","name":"Altenkirchen (Westerwald)","type":"Landkreis"},"federalState":{"key":"07","name":"Rheinland-Pfalz"}},{"name":"Efeuweg","postalCode":"57537","locality":"Wissen","municipality":{"key":"07132117","name":"Wissen, Stadt","type":"Stadt"},"district":{"key":"07132","name":"Altenkirchen (Westerwald)","type":"Landkreis"},"federalState":{"key":"07","name":"Rheinland-Pfalz"}},{"name":"Eichendorffstr.","postalCode":"57537","locality":"Wissen","municipality":{"key":"07132117","name":"Wissen, Stadt","type":"Stadt"},"district":{"key":"07132","name":"Altenkirchen (Westerwald)","type":"Landkreis"},"federalState":{"key":"07","name":"Rheinland-Pfalz"}},{"name":"Einsteinstr.","postalCode":"57537","locality":"Wissen","municipality":{"key":"07132117","name":"Wissen, Stadt","type":"Stadt"},"district":{"key":"07132","name":"Altenkirchen (Westerwald)","type":"Landkreis"},"federalState":{"key":"07","name":"Rheinland-Pfalz"}},{"name":"Eisenstr.","postalCode":"57537","locality":"Wissen","municipality":{"key":"07132117","name":"Wissen, Stadt","type":"Stadt"},"district":{"key":"07132","name":"Altenkirchen (Westerwald)","type":"Landkreis"},"federalState":{"key":"07","name":"Rheinland-Pfalz"}},{"name":"Ende","postalCode":"57537","locality":"Wissen","municipality":{"key":"07132117","name":"Wissen, Stadt","type":"Stadt"},"district":{"key":"07132","name":"Altenkirchen (Westerwald)","type":"Landkreis"},"federalState":{"key":"07","name":"Rheinland-Pfalz"}},{"name":"Endepfuhl","postalCode":"57537","locality":"Wissen","municipality":{"key":"07132117","name":"Wissen, Stadt","type":"Stadt"},"district":{"key":"07132","name":"Altenkirchen (Westerwald)","type":"Landkreis"},"federalState":{"key":"07","name":"Rheinland-Pfalz"}},{"name":"Feldstr.","postalCode":"57537","locality":"Wissen","municipality":{"key":"07132117","name":"Wissen, Stadt","type":"Stadt"},"district":{"key":"07132","name":"Altenkirchen (Westerwald)","type":"Landkreis"},"federalState":{"key":"07","name":"Rheinland-Pfalz"}},{"name":"Felsenweg","postalCode":"57537","locality":"Wissen","municipality":{"key":"07132117","name":"Wissen, Stadt","type":"Stadt"},"district":{"key":"07132","name":"Altenkirchen (Westerwald)","type":"Landkreis"},"federalState":{"key":"07","name":"Rheinland-Pfalz"}},{"name":"Fichtenstr.","postalCode":"57537","locality":"Wissen","municipality":{"key":"07132117","name":"Wissen, Stadt","type":"Stadt"},"district":{"key":"07132","name":"Altenkirchen (Westerwald)","type":"Landkreis"},"federalState":{"key":"07","name":"Rheinland-Pfalz"}},{"name":"Finkenstr.","postalCode":"57537","locality":"Wissen","municipality":{"key":"07132117","name":"Wissen, Stadt","type":"Stadt"},"district":{"key":"07132","name":"Altenkirchen (Westerwald)","type":"Landkreis"},"federalState":{"key":"07","name":"Rheinland-Pfalz"}},{"name":"Flachsstr.","postalCode":"57537","locality":"Wissen","municipality":{"key":"07132117","name":"Wissen, Stadt","type":"Stadt"},"district":{"key":"07132","name":"Altenkirchen (Westerwald)","type":"Landkreis"},"federalState":{"key":"07","name":"Rheinland-Pfalz"}},{"name":"Flachsweg","postalCode":"57537","locality":"Wissen","municipality":{"key":"07132117","name":"Wissen, Stadt","type":"Stadt"},"district":{"key":"07132","name":"Altenkirchen (Westerwald)","type":"Landkreis"},"federalState":{"key":"07","name":"Rheinland-Pfalz"}},{"name":"Fürst-Hatzfeldt-Str.","postalCode":"57537","locality":"Wissen","municipality":{"key":"07132117","name":"Wissen, Stadt","type":"Stadt"},"district":{"key":"07132","name":"Altenkirchen (Westerwald)","type":"Landkreis"},"federalState":{"key":"07","name":"Rheinland-Pfalz"}},{"name":"Gartenstr.","postalCode":"57537","locality":"Wissen","municipality":{"key":"07132117","name":"Wissen, Stadt","type":"Stadt"},"district":{"key":"07132","name":"Altenkirchen (Westerwald)","type":"Landkreis"},"federalState":{"key":"07","name":"Rheinland-Pfalz"}},{"name":"Gaußstr.","postalCode":"57537","locality":"Wissen","municipality":{"key":"07132117","name":"Wissen, Stadt","type":"Stadt"},"district":{"key":"07132","name":"Altenkirchen (Westerwald)","type":"Landkreis"},"federalState":{"key":"07","name":"Rheinland-Pfalz"}},{"name":"Gerichtsstr.","postalCode":"57537","locality":"Wissen","municipality":{"key":"07132117","name":"Wissen, Stadt","type":"Stadt"},"district":{"key":"07132","name":"Altenkirchen (Westerwald)","type":"Landkreis"},"federalState":{"key":"07","name":"Rheinland-Pfalz"}},{"name":"Ginsterweg","postalCode":"57537","locality":"Wissen","municipality":{"key":"07132117","name":"Wissen, Stadt","type":"Stadt"},"district":{"key":"07132","name":"Altenkirchen (Westerwald)","type":"Landkreis"},"federalState":{"key":"07","name":"Rheinland-Pfalz"}},{"name":"Glatteneichener Weg","postalCode":"57537","locality":"Wissen","municipality":{"key":"07132117","name":"Wissen, Stadt","type":"Stadt"},"district":{"key":"07132","name":"Altenkirchen (Westerwald)","type":"Landkreis"},"federalState":{"key":"07","name":"Rheinland-Pfalz"}},{"name":"Grüner Weg","postalCode":"57537","locality":"Wissen","municipality":{"key":"07132117","name":"Wissen, Stadt","type":"Stadt"},"district":{"key":"07132","name":"Altenkirchen (Westerwald)","type":"Landkreis"},"federalState":{"key":"07","name":"Rheinland-Pfalz"}},{"name":"Gutenbergstr.","postalCode":"57537","locality":"Wissen","municipality":{"key":"07132117","name":"Wissen, Stadt","type":"Stadt"},"district":{"key":"07132","name":"Altenkirchen (Westerwald)","type":"Landkreis"},"federalState":{"key":"07","name":"Rheinland-Pfalz"}},{"name":"Güterbahnhof","postalCode":"57537","locality":"Wissen","municipality":{"key":"07132117","name":"Wissen, Stadt","type":"Stadt"},"district":{"key":"07132","name":"Altenkirchen (Westerwald)","type":"Landkreis"},"federalState":{"key":"07","name":"Rheinland-Pfalz"}},{"name":"Gymnasialstr.","postalCode":"57537","locality":"Wissen","municipality":{"key":"07132117","name":"Wissen, Stadt","type":"Stadt"},"district":{"key":"07132","name":"Altenkirchen (Westerwald)","type":"Landkreis"},"federalState":{"key":"07","name":"Rheinland-Pfalz"}},{"name":"Hachenburger Str.","postalCode":"57537","locality":"Wissen","municipality":{"key":"07132117","name":"Wissen, Stadt","type":"Stadt"},"district":{"key":"07132","name":"Altenkirchen (Westerwald)","type":"Landkreis"},"federalState":{"key":"07","name":"Rheinland-Pfalz"}},{"name":"Hämmerbergstr.","postalCode":"57537","locality":"Wissen","municipality":{"key":"07132117","name":"Wissen, Stadt","type":"Stadt"},"district":{"key":"07132","name":"Altenkirchen (Westerwald)","type":"Landkreis"},"federalState":{"key":"07","name":"Rheinland-Pfalz"}},{"name":"Häuserweg","postalCode":"57537","locality":"Wissen","municipality":{"key":"07132117","name":"Wissen, Stadt","type":"Stadt"},"district":{"key":"07132","name":"Altenkirchen (Westerwald)","type":"Landkreis"},"federalState":{"key":"07","name":"Rheinland-Pfalz"}},{"name":"Haydnstr.","postalCode":"57537","locality":"Wissen","municipality":{"key":"07132117","name":"Wissen, Stadt","type":"Stadt"},"district":{"key":"07132","name":"Altenkirchen (Westerwald)","type":"Landkreis"},"federalState":{"key":"07","name":"Rheinland-Pfalz"}},{"name":"Heisterstr.","postalCode":"57537","locality":"Wissen","municipality":{"key":"07132117","name":"Wissen, Stadt","type":"Stadt"},"district":{"key":"07132","name":"Altenkirchen (Westerwald)","type":"Landkreis"},"federalState":{"key":"07","name":"Rheinland-Pfalz"}},{"name":"Hermannstr.","postalCode":"57537","locality":"Wissen","municipality":{"key":"07132117","name":"Wissen, Stadt","type":"Stadt"},"district":{"key":"07132","name":"Altenkirchen (Westerwald)","type":"Landkreis"},"federalState":{"key":"07","name":"Rheinland-Pfalz"}},{"name":"Herrenhain","postalCode":"57537","locality":"Wissen","municipality":{"key":"07132117","name":"Wissen, Stadt","type":"Stadt"},"district":{"key":"07132","name":"Altenkirchen (Westerwald)","type":"Landkreis"},"federalState":{"key":"07","name":"Rheinland-Pfalz"}},{"name":"Hirtenseifen","postalCode":"57537","locality":"Wissen","municipality":{"key":"07132117","name":"Wissen, Stadt","type":"Stadt"},"district":{"key":"07132","name":"Altenkirchen (Westerwald)","type":"Landkreis"},"federalState":{"key":"07","name":"Rheinland-Pfalz"}},{"name":"Hockelbachstr.","postalCode":"57537","locality":"Wissen","municipality":{"key":"07132117","name":"Wissen, Stadt","type":"Stadt"},"district":{"key":"07132","name":"Altenkirchen (Westerwald)","type":"Landkreis"},"federalState":{"key":"07","name":"Rheinland-Pfalz"}},{"name":"Hohe Fuhr","postalCode":"57537","locality":"Wissen","municipality":{"key":"07132117","name":"Wissen, Stadt","type":"Stadt"},"district":{"key":"07132","name":"Altenkirchen (Westerwald)","type":"Landkreis"},"federalState":{"key":"07","name":"Rheinland-Pfalz"}},{"name":"Höhenweg","postalCode":"57537","locality":"Wissen","municipality":{"key":"07132117","name":"Wissen, Stadt","type":"Stadt"},"district":{"key":"07132","name":"Altenkirchen (Westerwald)","type":"Landkreis"},"federalState":{"key":"07","name":"Rheinland-Pfalz"}},{"name":"Holschbacher Str.","postalCode":"57537","locality":"Wissen","municipality":{"key":"07132117","name":"Wissen, Stadt","type":"Stadt"},"district":{"key":"07132","name":"Altenkirchen (Westerwald)","type":"Landkreis"},"federalState":{"key":"07","name":"Rheinland-Pfalz"}},{"name":"Holunderweg","postalCode":"57537","locality":"Wissen","municipality":{"key":"07132117","name":"Wissen, Stadt","type":"Stadt"},"district":{"key":"07132","name":"Altenkirchen (Westerwald)","type":"Landkreis"},"federalState":{"key":"07","name":"Rheinland-Pfalz"}},{"name":"Hügelstr.","postalCode":"57537","locality":"Wissen","municipality":{"key":"07132117","name":"Wissen, Stadt","type":"Stadt"},"district":{"key":"07132","name":"Altenkirchen (Westerwald)","type":"Landkreis"},"federalState":{"key":"07","name":"Rheinland-Pfalz"}},{"name":"Hüttenstr.","postalCode":"57537","locality":"Wissen","municipality":{"key":"07132117","name":"Wissen, Stadt","type":"Stadt"},"district":{"key":"07132","name":"Altenkirchen (Westerwald)","type":"Landkreis"},"federalState":{"key":"07","name":"Rheinland-Pfalz"}},{"name":"Im Alten Garten","postalCode":"57537","locality":"Wissen","municipality":{"key":"07132117","name":"Wissen, Stadt","type":"Stadt"},"district":{"key":"07132","name":"Altenkirchen (Westerwald)","type":"Landkreis"},"federalState":{"key":"07","name":"Rheinland-Pfalz"}},{"name":"Im Buschkamp","postalCode":"57537","locality":"Wissen","municipality":{"key":"07132117","name":"Wissen, Stadt","type":"Stadt"},"district":{"key":"07132","name":"Altenkirchen (Westerwald)","type":"Landkreis"},"federalState":{"key":"07","name":"Rheinland-Pfalz"}},{"name":"Im Hutzenthal","postalCode":"57537","locality":"Wissen","municipality":{"key":"07132117","name":"Wissen, Stadt","type":"Stadt"},"district":{"key":"07132","name":"Altenkirchen (Westerwald)","type":"Landkreis"},"federalState":{"key":"07","name":"Rheinland-Pfalz"}},{"name":"Im Kreuztal","postalCode":"57537","locality":"Wissen","municipality":{"key":"07132117","name":"Wissen, Stadt","type":"Stadt"},"district":{"key":"07132","name":"Altenkirchen (Westerwald)","type":"Landkreis"},"federalState":{"key":"07","name":"Rheinland-Pfalz"}},{"name":"Im Schmittchen","postalCode":"57537","locality":"Wissen","municipality":{"key":"07132117","name":"Wissen, Stadt","type":"Stadt"},"district":{"key":"07132","name":"Altenkirchen (Westerwald)","type":"Landkreis"},"federalState":{"key":"07","name":"Rheinland-Pfalz"}},{"name":"Im Wiesengrund","postalCode":"57537","locality":"Wissen","municipality":{"key":"07132117","name":"Wissen, Stadt","type":"Stadt"},"district":{"key":"07132","name":"Altenkirchen (Westerwald)","type":"Landkreis"},"federalState":{"key":"07","name":"Rheinland-Pfalz"}},{"name":"In den Brückeichen","postalCode":"57537","locality":"Wissen","municipality":{"key":"07132117","name":"Wissen, Stadt","type":"Stadt"},"district":{"key":"07132","name":"Altenkirchen (Westerwald)","type":"Landkreis"},"federalState":{"key":"07","name":"Rheinland-Pfalz"}},{"name":"In den Jungeichen","postalCode":"57537","locality":"Wissen","municipality":{"key":"07132117","name":"Wissen, Stadt","type":"Stadt"},"district":{"key":"07132","name":"Altenkirchen (Westerwald)","type":"Landkreis"},"federalState":{"key":"07","name":"Rheinland-Pfalz"}},{"name":"In der Deubach","postalCode":"57537","locality":"Wissen","municipality":{"key":"07132117","name":"Wissen, Stadt","type":"Stadt"},"district":{"key":"07132","name":"Altenkirchen (Westerwald)","type":"Landkreis"},"federalState":{"key":"07","name":"Rheinland-Pfalz"}},{"name":"In der Hüll","postalCode":"57537","locality":"Wissen","municipality":{"key":"07132117","name":"Wissen, Stadt","type":"Stadt"},"district":{"key":"07132","name":"Altenkirchen (Westerwald)","type":"Landkreis"},"federalState":{"key":"07","name":"Rheinland-Pfalz"}},{"name":"Kantstr.","postalCode":"57537","locality":"Wissen","municipality":{"key":"07132117","name":"Wissen, Stadt","type":"Stadt"},"district":{"key":"07132","name":"Altenkirchen (Westerwald)","type":"Landkreis"},"federalState":{"key":"07","name":"Rheinland-Pfalz"}},{"name":"Karl-Rohr-Str.","postalCode":"57537","locality":"Wissen","municipality":{"key":"07132117","name":"Wissen, Stadt","type":"Stadt"},"district":{"key":"07132","name":"Altenkirchen (Westerwald)","type":"Landkreis"},"federalState":{"key":"07","name":"Rheinland-Pfalz"}},{"name":"Karweg","postalCode":"57537","locality":"Wissen","municipality":{"key":"07132117","name":"Wissen, Stadt","type":"Stadt"},"district":{"key":"07132","name":"Altenkirchen (Westerwald)","type":"Landkreis"},"federalState":{"key":"07","name":"Rheinland-Pfalz"}},{"name":"Kastanienstr.","postalCode":"57537","locality":"Wissen","municipality":{"key":"07132117","name":"Wissen, Stadt","type":"Stadt"},"district":{"key":"07132","name":"Altenkirchen (Westerwald)","type":"Landkreis"},"federalState":{"key":"07","name":"Rheinland-Pfalz"}},{"name":"Katzenthaler Str.","postalCode":"57537","locality":"Wissen","municipality":{"key":"07132117","name":"Wissen, Stadt","type":"Stadt"},"district":{"key":"07132","name":"Altenkirchen (Westerwald)","type":"Landkreis"},"federalState":{"key":"07","name":"Rheinland-Pfalz"}},{"name":"Kiefernstr.","postalCode":"57537","locality":"Wissen","municipality":{"key":"07132117","name":"Wissen, Stadt","type":"Stadt"},"district":{"key":"07132","name":"Altenkirchen (Westerwald)","type":"Landkreis"},"federalState":{"key":"07","name":"Rheinland-Pfalz"}},{"name":"Kirchweg","postalCode":"57537","locality":"Wissen","municipality":{"key":"07132117","name":"Wissen, Stadt","type":"Stadt"},"district":{"key":"07132","name":"Altenkirchen (Westerwald)","type":"Landkreis"},"federalState":{"key":"07","name":"Rheinland-Pfalz"}},{"name":"Kleinstr.","postalCode":"57537","locality":"Wissen","municipality":{"key":"07132117","name":"Wissen, Stadt","type":"Stadt"},"district":{"key":"07132","name":"Altenkirchen (Westerwald)","type":"Landkreis"},"federalState":{"key":"07","name":"Rheinland-Pfalz"}},{"name":"Koblenzer Str.","postalCode":"57537","locality":"Wissen","municipality":{"key":"07132117","name":"Wissen, Stadt","type":"Stadt"},"district":{"key":"07132","name":"Altenkirchen (Westerwald)","type":"Landkreis"},"federalState":{"key":"07","name":"Rheinland-Pfalz"}},{"name":"Kolpingstr.","postalCode":"57537","locality":"Wissen","municipality":{"key":"07132117","name":"Wissen, Stadt","type":"Stadt"},"district":{"key":"07132","name":"Altenkirchen (Westerwald)","type":"Landkreis"},"federalState":{"key":"07","name":"Rheinland-Pfalz"}},{"name":"Köttinger Weg","postalCode":"57537","locality":"Wissen","municipality":{"key":"07132117","name":"Wissen, Stadt","type":"Stadt"},"district":{"key":"07132","name":"Altenkirchen (Westerwald)","type":"Landkreis"},"federalState":{"key":"07","name":"Rheinland-Pfalz"}},{"name":"Köttingsbachstr.","postalCode":"57537","locality":"Wissen","municipality":{"key":"07132117","name":"Wissen, Stadt","type":"Stadt"},"district":{"key":"07132","name":"Altenkirchen (Westerwald)","type":"Landkreis"},"federalState":{"key":"07","name":"Rheinland-Pfalz"}},{"name":"Kumpstr.","postalCode":"57537","locality":"Wissen","municipality":{"key":"07132117","name":"Wissen, Stadt","type":"Stadt"},"district":{"key":"07132","name":"Altenkirchen (Westerwald)","type":"Landkreis"},"federalState":{"key":"07","name":"Rheinland-Pfalz"}},{"name":"Langstr.","postalCode":"57537","locality":"Wissen","municipality":{"key":"07132117","name":"Wissen, Stadt","type":"Stadt"},"district":{"key":"07132","name":"Altenkirchen (Westerwald)","type":"Landkreis"},"federalState":{"key":"07","name":"Rheinland-Pfalz"}},{"name":"Leibnizstr.","postalCode":"57537","locality":"Wissen","municipality":{"key":"07132117","name":"Wissen, Stadt","type":"Stadt"},"district":{"key":"07132","name":"Altenkirchen (Westerwald)","type":"Landkreis"},"federalState":{"key":"07","name":"Rheinland-Pfalz"}},{"name":"Lenzstr.","postalCode":"57537","locality":"Wissen","municipality":{"key":"07132117","name":"Wissen, Stadt","type":"Stadt"},"district":{"key":"07132","name":"Altenkirchen (Westerwald)","type":"Landkreis"},"federalState":{"key":"07","name":"Rheinland-Pfalz"}},{"name":"Lerchenstr.","postalCode":"57537","locality":"Wissen","municipality":{"key":"07132117","name":"Wissen, Stadt","type":"Stadt"},"district":{"key":"07132","name":"Altenkirchen (Westerwald)","type":"Landkreis"},"federalState":{"key":"07","name":"Rheinland-Pfalz"}},{"name":"Liebigstr.","postalCode":"57537","locality":"Wissen","municipality":{"key":"07132117","name":"Wissen, Stadt","type":"Stadt"},"district":{"key":"07132","name":"Altenkirchen (Westerwald)","type":"Landkreis"},"federalState":{"key":"07","name":"Rheinland-Pfalz"}},{"name":"Lisztstr.","postalCode":"57537","locality":"Wissen","municipality":{"key":"07132117","name":"Wissen, Stadt","type":"Stadt"},"district":{"key":"07132","name":"Altenkirchen (Westerwald)","type":"Landkreis"},"federalState":{"key":"07","name":"Rheinland-Pfalz"}},{"name":"Löhgartenstr.","postalCode":"57537","locality":"Wissen","municipality":{"key":"07132117","name":"Wissen, Stadt","type":"Stadt"},"district":{"key":"07132","name":"Altenkirchen (Westerwald)","type":"Landkreis"},"federalState":{"key":"07","name":"Rheinland-Pfalz"}},{"name":"Lupinenweg","postalCode":"57537","locality":"Wissen","municipality":{"key":"07132117","name":"Wissen, Stadt","type":"Stadt"},"district":{"key":"07132","name":"Altenkirchen (Westerwald)","type":"Landkreis"},"federalState":{"key":"07","name":"Rheinland-Pfalz"}},{"name":"Maarstr.","postalCode":"57537","locality":"Wissen","municipality":{"key":"07132117","name":"Wissen, Stadt","type":"Stadt"},"district":{"key":"07132","name":"Altenkirchen (Westerwald)","type":"Landkreis"},"federalState":{"key":"07","name":"Rheinland-Pfalz"}},{"name":"Mantelfeld","postalCode":"57537","locality":"Wissen","municipality":{"key":"07132117","name":"Wissen, Stadt","type":"Stadt"},"district":{"key":"07132","name":"Altenkirchen (Westerwald)","type":"Landkreis"},"federalState":{"key":"07","name":"Rheinland-Pfalz"}},{"name":"Marktstr.","postalCode":"57537","locality":"Wissen","municipality":{"key":"07132117","name":"Wissen, Stadt","type":"Stadt"},"district":{"key":"07132","name":"Altenkirchen (Westerwald)","type":"Landkreis"},"federalState":{"key":"07","name":"Rheinland-Pfalz"}},{"name":"Max-Planck-Str.","postalCode":"57537","locality":"Wissen","municipality":{"key":"07132117","name":"Wissen, Stadt","type":"Stadt"},"district":{"key":"07132","name":"Altenkirchen (Westerwald)","type":"Landkreis"},"federalState":{"key":"07","name":"Rheinland-Pfalz"}},{"name":"Max-von-Laue-Str.","postalCode":"57537","locality":"Wissen","municipality":{"key":"07132117","name":"Wissen, Stadt","type":"Stadt"},"district":{"key":"07132","name":"Altenkirchen (Westerwald)","type":"Landkreis"},"federalState":{"key":"07","name":"Rheinland-Pfalz"}},{"name":"Meisenstr.","postalCode":"57537","locality":"Wissen","municipality":{"key":"07132117","name":"Wissen, Stadt","type":"Stadt"},"district":{"key":"07132","name":"Altenkirchen (Westerwald)","type":"Landkreis"},"federalState":{"key":"07","name":"Rheinland-Pfalz"}},{"name":"Morsbacher Str.","postalCode":"57537","locality":"Wissen","municipality":{"key":"07132117","name":"Wissen, Stadt","type":"Stadt"},"district":{"key":"07132","name":"Altenkirchen (Westerwald)","type":"Landkreis"},"federalState":{"key":"07","name":"Rheinland-Pfalz"}},{"name":"Mozartstr.","postalCode":"57537","locality":"Wissen","municipality":{"key":"07132117","name":"Wissen, Stadt","type":"Stadt"},"district":{"key":"07132","name":"Altenkirchen (Westerwald)","type":"Landkreis"},"federalState":{"key":"07","name":"Rheinland-Pfalz"}},{"name":"Mühlenhardt","postalCode":"57537","locality":"Wissen","municipality":{"key":"07132117","name":"Wissen, Stadt","type":"Stadt"},"district":{"key":"07132","name":"Altenkirchen (Westerwald)","type":"Landkreis"},"federalState":{"key":"07","name":"Rheinland-Pfalz"}},{"name":"Nachtigallenstr.","postalCode":"57537","locality":"Wissen","municipality":{"key":"07132117","name":"Wissen, Stadt","type":"Stadt"},"district":{"key":"07132","name":"Altenkirchen (Westerwald)","type":"Landkreis"},"federalState":{"key":"07","name":"Rheinland-Pfalz"}},{"name":"Narzissenweg","postalCode":"57537","locality":"Wissen","municipality":{"key":"07132117","name":"Wissen, Stadt","type":"Stadt"},"district":{"key":"07132","name":"Altenkirchen (Westerwald)","type":"Landkreis"},"federalState":{"key":"07","name":"Rheinland-Pfalz"}},{"name":"Nassauer Str.","postalCode":"57537","locality":"Wissen","municipality":{"key":"07132117","name":"Wissen, Stadt","type":"Stadt"},"district":{"key":"07132","name":"Altenkirchen (Westerwald)","type":"Landkreis"},"federalState":{"key":"07","name":"Rheinland-Pfalz"}},{"name":"Nelkenweg","postalCode":"57537","locality":"Wissen","municipality":{"key":"07132117","name":"Wissen, Stadt","type":"Stadt"},"district":{"key":"07132","name":"Altenkirchen (Westerwald)","type":"Landkreis"},"federalState":{"key":"07","name":"Rheinland-Pfalz"}},{"name":"Neuer Weg","postalCode":"57537","locality":"Wissen","municipality":{"key":"07132117","name":"Wissen, Stadt","type":"Stadt"},"district":{"key":"07132","name":"Altenkirchen (Westerwald)","type":"Landkreis"},"federalState":{"key":"07","name":"Rheinland-Pfalz"}},{"name":"Nisterstr.","postalCode":"57537","locality":"Wissen","municipality":{"key":"07132117","name":"Wissen, Stadt","type":"Stadt"},"district":{"key":"07132","name":"Altenkirchen (Westerwald)","type":"Landkreis"},"federalState":{"key":"07","name":"Rheinland-Pfalz"}},{"name":"Nistertalstr.","postalCode":"57537","locality":"Wissen","municipality":{"key":"07132117","name":"Wissen, Stadt","type":"Stadt"},"district":{"key":"07132","name":"Altenkirchen (Westerwald)","type":"Landkreis"},"federalState":{"key":"07","name":"Rheinland-Pfalz"}},{"name":"Nobelstr.","postalCode":"57537","locality":"Wissen","municipality":{"key":"07132117","name":"Wissen, Stadt","type":"Stadt"},"district":{"key":"07132","name":"Altenkirchen (Westerwald)","type":"Landkreis"},"federalState":{"key":"07","name":"Rheinland-Pfalz"}},{"name":"Nordstr.","postalCode":"57537","locality":"Wissen","municipality":{"key":"07132117","name":"Wissen, Stadt","type":"Stadt"},"district":{"key":"07132","name":"Altenkirchen (Westerwald)","type":"Landkreis"},"federalState":{"key":"07","name":"Rheinland-Pfalz"}},{"name":"Orchideenweg","postalCode":"57537","locality":"Wissen","municipality":{"key":"07132117","name":"Wissen, Stadt","type":"Stadt"},"district":{"key":"07132","name":"Altenkirchen (Westerwald)","type":"Landkreis"},"federalState":{"key":"07","name":"Rheinland-Pfalz"}},{"name":"Oststr.","postalCode":"57537","locality":"Wissen","municipality":{"key":"07132117","name":"Wissen, Stadt","type":"Stadt"},"district":{"key":"07132","name":"Altenkirchen (Westerwald)","type":"Landkreis"},"federalState":{"key":"07","name":"Rheinland-Pfalz"}},{"name":"Otto-Hahn-Str.","postalCode":"57537","locality":"Wissen","municipality":{"key":"07132117","name":"Wissen, Stadt","type":"Stadt"},"district":{"key":"07132","name":"Altenkirchen (Westerwald)","type":"Landkreis"},"federalState":{"key":"07","name":"Rheinland-Pfalz"}},{"name":"Paffrath","postalCode":"57537","locality":"Wissen","municipality":{"key":"07132117","name":"Wissen, Stadt","type":"Stadt"},"district":{"key":"07132","name":"Altenkirchen (Westerwald)","type":"Landkreis"},"federalState":{"key":"07","name":"Rheinland-Pfalz"}},{"name":"Paffrather Str.","postalCode":"57537","locality":"Wissen","municipality":{"key":"07132117","name":"Wissen, Stadt","type":"Stadt"},"district":{"key":"07132","name":"Altenkirchen (Westerwald)","type":"Landkreis"},"federalState":{"key":"07","name":"Rheinland-Pfalz"}},{"name":"Parkstr.","postalCode":"57537","locality":"Wissen","municipality":{"key":"07132117","name":"Wissen, Stadt","type":"Stadt"},"district":{"key":"07132","name":"Altenkirchen (Westerwald)","type":"Landkreis"},"federalState":{"key":"07","name":"Rheinland-Pfalz"}},{"name":"Pirzenthaler Str.","postalCode":"57537","locality":"Wissen","municipality":{"key":"07132117","name":"Wissen, Stadt","type":"Stadt"},"district":{"key":"07132","name":"Altenkirchen (Westerwald)","type":"Landkreis"},"federalState":{"key":"07","name":"Rheinland-Pfalz"}},{"name":"Rathausstr.","postalCode":"57537","locality":"Wissen","municipality":{"key":"07132117","name":"Wissen, Stadt","type":"Stadt"},"district":{"key":"07132","name":"Altenkirchen (Westerwald)","type":"Landkreis"},"federalState":{"key":"07","name":"Rheinland-Pfalz"}},{"name":"Richtweg","postalCode":"57537","locality":"Wissen","municipality":{"key":"07132117","name":"Wissen, Stadt","type":"Stadt"},"district":{"key":"07132","name":"Altenkirchen (Westerwald)","type":"Landkreis"},"federalState":{"key":"07","name":"Rheinland-Pfalz"}},{"name":"Robert-Kochstr.","postalCode":"57537","locality":"Wissen","municipality":{"key":"07132117","name":"Wissen, Stadt","type":"Stadt"},"district":{"key":"07132","name":"Altenkirchen (Westerwald)","type":"Landkreis"},"federalState":{"key":"07","name":"Rheinland-Pfalz"}},{"name":"Röntgenstr.","postalCode":"57537","locality":"Wissen","municipality":{"key":"07132117","name":"Wissen, Stadt","type":"Stadt"},"district":{"key":"07132","name":"Altenkirchen (Westerwald)","type":"Landkreis"},"federalState":{"key":"07","name":"Rheinland-Pfalz"}},{"name":"Rosenweg","postalCode":"57537","locality":"Wissen","municipality":{"key":"07132117","name":"Wissen, Stadt","type":"Stadt"},"district":{"key":"07132","name":"Altenkirchen (Westerwald)","type":"Landkreis"},"federalState":{"key":"07","name":"Rheinland-Pfalz"}},{"name":"Sankt-Sebastianus-Str.","postalCode":"57537","locality":"Wissen","municipality":{"key":"07132117","name":"Wissen, Stadt","type":"Stadt"},"district":{"key":"07132","name":"Altenkirchen (Westerwald)","type":"Landkreis"},"federalState":{"key":"07","name":"Rheinland-Pfalz"}},{"name":"Sauerbruchstr.","postalCode":"57537","locality":"Wissen","municipality":{"key":"07132117","name":"Wissen, Stadt","type":"Stadt"},"district":{"key":"07132","name":"Altenkirchen (Westerwald)","type":"Landkreis"},"federalState":{"key":"07","name":"Rheinland-Pfalz"}},{"name":"Schloßstr.","postalCode":"57537","locality":"Wissen","municipality":{"key":"07132117","name":"Wissen, Stadt","type":"Stadt"},"district":{"key":"07132","name":"Altenkirchen (Westerwald)","type":"Landkreis"},"federalState":{"key":"07","name":"Rheinland-Pfalz"}},{"name":"Schubertstr.","postalCode":"57537","locality":"Wissen","municipality":{"key":"07132117","name":"Wissen, Stadt","type":"Stadt"},"district":{"key":"07132","name":"Altenkirchen (Westerwald)","type":"Landkreis"},"federalState":{"key":"07","name":"Rheinland-Pfalz"}},{"name":"Schulstr.","postalCode":"57537","locality":"Wissen","municipality":{"key":"07132117","name":"Wissen, Stadt","type":"Stadt"},"district":{"key":"07132","name":"Altenkirchen (Westerwald)","type":"Landkreis"},"federalState":{"key":"07","name":"Rheinland-Pfalz"}},{"name":"Schützenstr.","postalCode":"57537","locality":"Wissen","municipality":{"key":"07132117","name":"Wissen, Stadt","type":"Stadt"},"district":{"key":"07132","name":"Altenkirchen (Westerwald)","type":"Landkreis"},"federalState":{"key":"07","name":"Rheinland-Pfalz"}},{"name":"Schwalbenstr.","postalCode":"57537","locality":"Wissen","municipality":{"key":"07132117","name":"Wissen, Stadt","type":"Stadt"},"district":{"key":"07132","name":"Altenkirchen (Westerwald)","type":"Landkreis"},"federalState":{"key":"07","name":"Rheinland-Pfalz"}},{"name":"Siegstr.","postalCode":"57537","locality":"Wissen","municipality":{"key":"07132117","name":"Wissen, Stadt","type":"Stadt"},"district":{"key":"07132","name":"Altenkirchen (Westerwald)","type":"Landkreis"},"federalState":{"key":"07","name":"Rheinland-Pfalz"}},{"name":"Siemensstr.","postalCode":"57537","locality":"Wissen","municipality":{"key":"07132117","name":"Wissen, Stadt","type":"Stadt"},"district":{"key":"07132","name":"Altenkirchen (Westerwald)","type":"Landkreis"},"federalState":{"key":"07","name":"Rheinland-Pfalz"}},{"name":"Sonneckweg","postalCode":"57537","locality":"Wissen","municipality":{"key":"07132117","name":"Wissen, Stadt","type":"Stadt"},"district":{"key":"07132","name":"Altenkirchen (Westerwald)","type":"Landkreis"},"federalState":{"key":"07","name":"Rheinland-Pfalz"}},{"name":"Sperberstr.","postalCode":"57537","locality":"Wissen","municipality":{"key":"07132117","name":"Wissen, Stadt","type":"Stadt"},"district":{"key":"07132","name":"Altenkirchen (Westerwald)","type":"Landkreis"},"federalState":{"key":"07","name":"Rheinland-Pfalz"}},{"name":"Sperlingstr.","postalCode":"57537","locality":"Wissen","municipality":{"key":"07132117","name":"Wissen, Stadt","type":"Stadt"},"district":{"key":"07132","name":"Altenkirchen (Westerwald)","type":"Landkreis"},"federalState":{"key":"07","name":"Rheinland-Pfalz"}},{"name":"Stadionstr.","postalCode":"57537","locality":"Wissen","municipality":{"key":"07132117","name":"Wissen, Stadt","type":"Stadt"},"district":{"key":"07132","name":"Altenkirchen (Westerwald)","type":"Landkreis"},"federalState":{"key":"07","name":"Rheinland-Pfalz"}},{"name":"Steinbusch Anlagen","postalCode":"57537","locality":"Wissen","municipality":{"key":"07132117","name":"Wissen, Stadt","type":"Stadt"},"district":{"key":"07132","name":"Altenkirchen (Westerwald)","type":"Landkreis"},"federalState":{"key":"07","name":"Rheinland-Pfalz"}},{"name":"Steinbuschstr.","postalCode":"57537","locality":"Wissen","municipality":{"key":"07132117","name":"Wissen, Stadt","type":"Stadt"},"district":{"key":"07132","name":"Altenkirchen (Westerwald)","type":"Landkreis"},"federalState":{"key":"07","name":"Rheinland-Pfalz"}},{"name":"Steinweg","postalCode":"57537","locality":"Wissen","municipality":{"key":"07132117","name":"Wissen, Stadt","type":"Stadt"},"district":{"key":"07132","name":"Altenkirchen (Westerwald)","type":"Landkreis"},"federalState":{"key":"07","name":"Rheinland-Pfalz"}},{"name":"Streitholz","postalCode":"57537","locality":"Wissen","municipality":{"key":"07132117","name":"Wissen, Stadt","type":"Stadt"},"district":{"key":"07132","name":"Altenkirchen (Westerwald)","type":"Landkreis"},"federalState":{"key":"07","name":"Rheinland-Pfalz"}},{"name":"Südstr.","postalCode":"57537","locality":"Wissen","municipality":{"key":"07132117","name":"Wissen, Stadt","type":"Stadt"},"district":{"key":"07132","name":"Altenkirchen (Westerwald)","type":"Landkreis"},"federalState":{"key":"07","name":"Rheinland-Pfalz"}},{"name":"Talstr.","postalCode":"57537","locality":"Wissen","municipality":{"key":"07132117","name":"Wissen, Stadt","type":"Stadt"},"district":{"key":"07132","name":"Altenkirchen (Westerwald)","type":"Landkreis"},"federalState":{"key":"07","name":"Rheinland-Pfalz"}},{"name":"Tannenstr.","postalCode":"57537","locality":"Wissen","municipality":{"key":"07132117","name":"Wissen, Stadt","type":"Stadt"},"district":{"key":"07132","name":"Altenkirchen (Westerwald)","type":"Landkreis"},"federalState":{"key":"07","name":"Rheinland-Pfalz"}},{"name":"Taubenstr.","postalCode":"57537","locality":"Wissen","municipality":{"key":"07132117","name":"Wissen, Stadt","type":"Stadt"},"district":{"key":"07132","name":"Altenkirchen (Westerwald)","type":"Landkreis"},"federalState":{"key":"07","name":"Rheinland-Pfalz"}},{"name":"Tulpenweg","postalCode":"57537","locality":"Wissen","municipality":{"key":"07132117","name":"Wissen, Stadt","type":"Stadt"},"district":{"key":"07132","name":"Altenkirchen (Westerwald)","type":"Landkreis"},"federalState":{"key":"07","name":"Rheinland-Pfalz"}},{"name":"Veilchenweg","postalCode":"57537","locality":"Wissen","municipality":{"key":"07132117","name":"Wissen, Stadt","type":"Stadt"},"district":{"key":"07132","name":"Altenkirchen (Westerwald)","type":"Landkreis"},"federalState":{"key":"07","name":"Rheinland-Pfalz"}},{"name":"Von-Ketteler-Str.","postalCode":"57537","locality":"Wissen","municipality":{"key":"07132117","name":"Wissen, Stadt","type":"Stadt"},"district":{"key":"07132","name":"Altenkirchen (Westerwald)","type":"Landkreis"},"federalState":{"key":"07","name":"Rheinland-Pfalz"}},{"name":"Von-Zeppelin-Str.","postalCode":"57537","locality":"Wissen","municipality":{"key":"07132117","name":"Wissen, Stadt","type":"Stadt"},"district":{"key":"07132","name":"Altenkirchen (Westerwald)","type":"Landkreis"},"federalState":{"key":"07","name":"Rheinland-Pfalz"}},{"name":"Vor der Hohnert","postalCode":"57537","locality":"Wissen","municipality":{"key":"07132117","name":"Wissen, Stadt","type":"Stadt"},"district":{"key":"07132","name":"Altenkirchen (Westerwald)","type":"Landkreis"},"federalState":{"key":"07","name":"Rheinland-Pfalz"}},{"name":"Wacholderweg","postalCode":"57537","locality":"Wissen","municipality":{"key":"07132117","name":"Wissen, Stadt","type":"Stadt"},"district":{"key":"07132","name":"Altenkirchen (Westerwald)","type":"Landkreis"},"federalState":{"key":"07","name":"Rheinland-Pfalz"}},{"name":"Waldweg","postalCode":"57537","locality":"Wissen","municipality":{"key":"07132117","name":"Wissen, Stadt","type":"Stadt"},"district":{"key":"07132","name":"Altenkirchen (Westerwald)","type":"Landkreis"},"federalState":{"key":"07","name":"Rheinland-Pfalz"}},{"name":"Walzwerkstr.","postalCode":"57537","locality":"Wissen","municipality":{"key":"07132117","name":"Wissen, Stadt","type":"Stadt"},"district":{"key":"07132","name":"Altenkirchen (Westerwald)","type":"Landkreis"},"federalState":{"key":"07","name":"Rheinland-Pfalz"}},{"name":"Weidenweg","postalCode":"57537","locality":"Wissen","municipality":{"key":"07132117","name":"Wissen, Stadt","type":"Stadt"},"district":{"key":"07132","name":"Altenkirchen (Westerwald)","type":"Landkreis"},"federalState":{"key":"07","name":"Rheinland-Pfalz"}},{"name":"Werkstr.","postalCode":"57537","locality":"Wissen","municipality":{"key":"07132117","name":"Wissen, Stadt","type":"Stadt"},"district":{"key":"07132","name":"Altenkirchen (Westerwald)","type":"Landkreis"},"federalState":{"key":"07","name":"Rheinland-Pfalz"}},{"name":"Weststr.","postalCode":"57537","locality":"Wissen","municipality":{"key":"07132117","name":"Wissen, Stadt","type":"Stadt"},"district":{"key":"07132","name":"Altenkirchen (Westerwald)","type":"Landkreis"},"federalState":{"key":"07","name":"Rheinland-Pfalz"}},{"name":"Weyershardt","postalCode":"57537","locality":"Wissen","municipality":{"key":"07132117","name":"Wissen, Stadt","type":"Stadt"},"district":{"key":"07132","name":"Altenkirchen (Westerwald)","type":"Landkreis"},"federalState":{"key":"07","name":"Rheinland-Pfalz"}},{"name":"Wickenweg","postalCode":"57537","locality":"Wissen","municipality":{"key":"07132117","name":"Wissen, Stadt","type":"Stadt"},"district":{"key":"07132","name":"Altenkirchen (Westerwald)","type":"Landkreis"},"federalState":{"key":"07","name":"Rheinland-Pfalz"}},{"name":"Wiesenstr.","postalCode":"57537","locality":"Wissen","municipality":{"key":"07132117","name":"Wissen, Stadt","type":"Stadt"},"district":{"key":"07132","name":"Altenkirchen (Westerwald)","type":"Landkreis"},"federalState":{"key":"07","name":"Rheinland-Pfalz"}},{"name":"Ziegelstr.","postalCode":"57537","locality":"Wissen","municipality":{"key":"07132117","name":"Wissen, Stadt","type":"Stadt"},"district":{"key":"07132","name":"Altenkirchen (Westerwald)","type":"Landkreis"},"federalState":{"key":"07","name":"Rheinland-Pfalz"}},]