[{"name":"Alte Str.","postalCode":"97650","locality":"Fladungen","municipality":{"key":"09673123","name":"Fladungen, St","type":"Stadt"},"district":{"key":"09673","name":"Rhön-Grabfeld","type":"Landkreis"},"federalState":{"key":"09","name":"Bayern"}},{"name":"Am Heidweg","postalCode":"97650","locality":"Fladungen","municipality":{"key":"09673123","name":"Fladungen, St","type":"Stadt"},"district":{"key":"09673","name":"Rhön-Grabfeld","type":"Landkreis"},"federalState":{"key":"09","name":"Bayern"}},{"name":"Am Heiligenpfad","postalCode":"97650","locality":"Fladungen","municipality":{"key":"09673123","name":"Fladungen, St","type":"Stadt"},"district":{"key":"09673","name":"Rhön-Grabfeld","type":"Landkreis"},"federalState":{"key":"09","name":"Bayern"}},{"name":"Am Kirschgraben","postalCode":"97650","locality":"Fladungen","municipality":{"key":"09673123","name":"Fladungen, St","type":"Stadt"},"district":{"key":"09673","name":"Rhön-Grabfeld","type":"Landkreis"},"federalState":{"key":"09","name":"Bayern"}},{"name":"Am Leubach","postalCode":"97650","locality":"Fladungen","municipality":{"key":"09673123","name":"Fladungen, St","type":"Stadt"},"district":{"key":"09673","name":"Rhön-Grabfeld","type":"Landkreis"},"federalState":{"key":"09","name":"Bayern"}},{"name":"Am Mauergraben","postalCode":"97650","locality":"Fladungen","municipality":{"key":"09673123","name":"Fladungen, St","type":"Stadt"},"district":{"key":"09673","name":"Rhön-Grabfeld","type":"Landkreis"},"federalState":{"key":"09","name":"Bayern"}},{"name":"Am Mühlbach","postalCode":"97650","locality":"Fladungen","municipality":{"key":"09673123","name":"Fladungen, St","type":"Stadt"},"district":{"key":"09673","name":"Rhön-Grabfeld","type":"Landkreis"},"federalState":{"key":"09","name":"Bayern"}},{"name":"Am Schöpfenfleck","postalCode":"97650","locality":"Fladungen","municipality":{"key":"09673123","name":"Fladungen, St","type":"Stadt"},"district":{"key":"09673","name":"Rhön-Grabfeld","type":"Landkreis"},"federalState":{"key":"09","name":"Bayern"}},{"name":"Am Teich","postalCode":"97650","locality":"Fladungen","municipality":{"key":"09673123","name":"Fladungen, St","type":"Stadt"},"district":{"key":"09673","name":"Rhön-Grabfeld","type":"Landkreis"},"federalState":{"key":"09","name":"Bayern"}},{"name":"An den Gärten","postalCode":"97650","locality":"Fladungen","municipality":{"key":"09673123","name":"Fladungen, St","type":"Stadt"},"district":{"key":"09673","name":"Rhön-Grabfeld","type":"Landkreis"},"federalState":{"key":"09","name":"Bayern"}},{"name":"Anton-Rausch-Str.","postalCode":"97650","locality":"Fladungen","municipality":{"key":"09673123","name":"Fladungen, St","type":"Stadt"},"district":{"key":"09673","name":"Rhön-Grabfeld","type":"Landkreis"},"federalState":{"key":"09","name":"Bayern"}},{"name":"Aumühlweg","postalCode":"97650","locality":"Fladungen","municipality":{"key":"09673123","name":"Fladungen, St","type":"Stadt"},"district":{"key":"09673","name":"Rhön-Grabfeld","type":"Landkreis"},"federalState":{"key":"09","name":"Bayern"}},{"name":"Backhausgasse","postalCode":"97650","locality":"Fladungen","municipality":{"key":"09673123","name":"Fladungen, St","type":"Stadt"},"district":{"key":"09673","name":"Rhön-Grabfeld","type":"Landkreis"},"federalState":{"key":"09","name":"Bayern"}},{"name":"Badergasse","postalCode":"97650","locality":"Fladungen","municipality":{"key":"09673123","name":"Fladungen, St","type":"Stadt"},"district":{"key":"09673","name":"Rhön-Grabfeld","type":"Landkreis"},"federalState":{"key":"09","name":"Bayern"}},{"name":"Bahnhofstr.","postalCode":"97650","locality":"Fladungen","municipality":{"key":"09673123","name":"Fladungen, St","type":"Stadt"},"district":{"key":"09673","name":"Rhön-Grabfeld","type":"Landkreis"},"federalState":{"key":"09","name":"Bayern"}},{"name":"Bahnhofweg","postalCode":"97650","locality":"Fladungen","municipality":{"key":"09673123","name":"Fladungen, St","type":"Stadt"},"district":{"key":"09673","name":"Rhön-Grabfeld","type":"Landkreis"},"federalState":{"key":"09","name":"Bayern"}},{"name":"Berghofstr.","postalCode":"97650","locality":"Fladungen","municipality":{"key":"09673123","name":"Fladungen, St","type":"Stadt"},"district":{"key":"09673","name":"Rhön-Grabfeld","type":"Landkreis"},"federalState":{"key":"09","name":"Bayern"}},{"name":"Berghulweg","postalCode":"97650","locality":"Fladungen","municipality":{"key":"09673123","name":"Fladungen, St","type":"Stadt"},"district":{"key":"09673","name":"Rhön-Grabfeld","type":"Landkreis"},"federalState":{"key":"09","name":"Bayern"}},{"name":"Berghutweg","postalCode":"97650","locality":"Fladungen","municipality":{"key":"09673123","name":"Fladungen, St","type":"Stadt"},"district":{"key":"09673","name":"Rhön-Grabfeld","type":"Landkreis"},"federalState":{"key":"09","name":"Bayern"}},{"name":"Bergstr.","postalCode":"97650","locality":"Fladungen","municipality":{"key":"09673123","name":"Fladungen, St","type":"Stadt"},"district":{"key":"09673","name":"Rhön-Grabfeld","type":"Landkreis"},"federalState":{"key":"09","name":"Bayern"}},{"name":"Bischof-Stumpf-Weg","postalCode":"97650","locality":"Fladungen","municipality":{"key":"09673123","name":"Fladungen, St","type":"Stadt"},"district":{"key":"09673","name":"Rhön-Grabfeld","type":"Landkreis"},"federalState":{"key":"09","name":"Bayern"}},{"name":"Bischof-Wagenhauber-Str.","postalCode":"97650","locality":"Fladungen","municipality":{"key":"09673123","name":"Fladungen, St","type":"Stadt"},"district":{"key":"09673","name":"Rhön-Grabfeld","type":"Landkreis"},"federalState":{"key":"09","name":"Bayern"}},{"name":"Böhmengasse","postalCode":"97650","locality":"Fladungen","municipality":{"key":"09673123","name":"Fladungen, St","type":"Stadt"},"district":{"key":"09673","name":"Rhön-Grabfeld","type":"Landkreis"},"federalState":{"key":"09","name":"Bayern"}},{"name":"Breite Str.","postalCode":"97650","locality":"Fladungen","municipality":{"key":"09673123","name":"Fladungen, St","type":"Stadt"},"district":{"key":"09673","name":"Rhön-Grabfeld","type":"Landkreis"},"federalState":{"key":"09","name":"Bayern"}},{"name":"Bromberg","postalCode":"97650","locality":"Fladungen","municipality":{"key":"09673123","name":"Fladungen, St","type":"Stadt"},"district":{"key":"09673","name":"Rhön-Grabfeld","type":"Landkreis"},"federalState":{"key":"09","name":"Bayern"}},{"name":"Brüchser Str.","postalCode":"97650","locality":"Fladungen","municipality":{"key":"09673123","name":"Fladungen, St","type":"Stadt"},"district":{"key":"09673","name":"Rhön-Grabfeld","type":"Landkreis"},"federalState":{"key":"09","name":"Bayern"}},{"name":"Brunnengasse","postalCode":"97650","locality":"Fladungen","municipality":{"key":"09673123","name":"Fladungen, St","type":"Stadt"},"district":{"key":"09673","name":"Rhön-Grabfeld","type":"Landkreis"},"federalState":{"key":"09","name":"Bayern"}},{"name":"Carl-Josef-Sauer-Str.","postalCode":"97650","locality":"Fladungen","municipality":{"key":"09673123","name":"Fladungen, St","type":"Stadt"},"district":{"key":"09673","name":"Rhön-Grabfeld","type":"Landkreis"},"federalState":{"key":"09","name":"Bayern"}},{"name":"Dr.-Höffling-Str.","postalCode":"97650","locality":"Fladungen","municipality":{"key":"09673123","name":"Fladungen, St","type":"Stadt"},"district":{"key":"09673","name":"Rhön-Grabfeld","type":"Landkreis"},"federalState":{"key":"09","name":"Bayern"}},{"name":"Eisenacher Str.","postalCode":"97650","locality":"Fladungen","municipality":{"key":"09673123","name":"Fladungen, St","type":"Stadt"},"district":{"key":"09673","name":"Rhön-Grabfeld","type":"Landkreis"},"federalState":{"key":"09","name":"Bayern"}},{"name":"Finkenweg","postalCode":"97650","locality":"Fladungen","municipality":{"key":"09673123","name":"Fladungen, St","type":"Stadt"},"district":{"key":"09673","name":"Rhön-Grabfeld","type":"Landkreis"},"federalState":{"key":"09","name":"Bayern"}},{"name":"Flurstr.","postalCode":"97650","locality":"Fladungen","municipality":{"key":"09673123","name":"Fladungen, St","type":"Stadt"},"district":{"key":"09673","name":"Rhön-Grabfeld","type":"Landkreis"},"federalState":{"key":"09","name":"Bayern"}},{"name":"Forellenweg","postalCode":"97650","locality":"Fladungen","municipality":{"key":"09673123","name":"Fladungen, St","type":"Stadt"},"district":{"key":"09673","name":"Rhön-Grabfeld","type":"Landkreis"},"federalState":{"key":"09","name":"Bayern"}},{"name":"Frankenheimer Str.","postalCode":"97650","locality":"Fladungen","municipality":{"key":"09673123","name":"Fladungen, St","type":"Stadt"},"district":{"key":"09673","name":"Rhön-Grabfeld","type":"Landkreis"},"federalState":{"key":"09","name":"Bayern"}},{"name":"Frankenstr.","postalCode":"97650","locality":"Fladungen","municipality":{"key":"09673123","name":"Fladungen, St","type":"Stadt"},"district":{"key":"09673","name":"Rhön-Grabfeld","type":"Landkreis"},"federalState":{"key":"09","name":"Bayern"}},{"name":"Friedensweg","postalCode":"97650","locality":"Fladungen","municipality":{"key":"09673123","name":"Fladungen, St","type":"Stadt"},"district":{"key":"09673","name":"Rhön-Grabfeld","type":"Landkreis"},"federalState":{"key":"09","name":"Bayern"}},{"name":"Friedhofstr.","postalCode":"97650","locality":"Fladungen","municipality":{"key":"09673123","name":"Fladungen, St","type":"Stadt"},"district":{"key":"09673","name":"Rhön-Grabfeld","type":"Landkreis"},"federalState":{"key":"09","name":"Bayern"}},{"name":"Gartenstr.","postalCode":"97650","locality":"Fladungen","municipality":{"key":"09673123","name":"Fladungen, St","type":"Stadt"},"district":{"key":"09673","name":"Rhön-Grabfeld","type":"Landkreis"},"federalState":{"key":"09","name":"Bayern"}},{"name":"Guckasweg","postalCode":"97650","locality":"Fladungen","municipality":{"key":"09673123","name":"Fladungen, St","type":"Stadt"},"district":{"key":"09673","name":"Rhön-Grabfeld","type":"Landkreis"},"federalState":{"key":"09","name":"Bayern"}},{"name":"Gustav-Heß-Str.","postalCode":"97650","locality":"Fladungen","municipality":{"key":"09673123","name":"Fladungen, St","type":"Stadt"},"district":{"key":"09673","name":"Rhön-Grabfeld","type":"Landkreis"},"federalState":{"key":"09","name":"Bayern"}},{"name":"Gutsstr.","postalCode":"97650","locality":"Fladungen","municipality":{"key":"09673123","name":"Fladungen, St","type":"Stadt"},"district":{"key":"09673","name":"Rhön-Grabfeld","type":"Landkreis"},"federalState":{"key":"09","name":"Bayern"}},{"name":"Hangweg","postalCode":"97650","locality":"Fladungen","municipality":{"key":"09673123","name":"Fladungen, St","type":"Stadt"},"district":{"key":"09673","name":"Rhön-Grabfeld","type":"Landkreis"},"federalState":{"key":"09","name":"Bayern"}},{"name":"Hauptstr.","postalCode":"97650","locality":"Fladungen","municipality":{"key":"09673123","name":"Fladungen, St","type":"Stadt"},"district":{"key":"09673","name":"Rhön-Grabfeld","type":"Landkreis"},"federalState":{"key":"09","name":"Bayern"}},{"name":"Hausener Str.","postalCode":"97650","locality":"Fladungen","municipality":{"key":"09673123","name":"Fladungen, St","type":"Stadt"},"district":{"key":"09673","name":"Rhön-Grabfeld","type":"Landkreis"},"federalState":{"key":"09","name":"Bayern"}},{"name":"Heckenweg","postalCode":"97650","locality":"Fladungen","municipality":{"key":"09673123","name":"Fladungen, St","type":"Stadt"},"district":{"key":"09673","name":"Rhön-Grabfeld","type":"Landkreis"},"federalState":{"key":"09","name":"Bayern"}},{"name":"Heidgasse","postalCode":"97650","locality":"Fladungen","municipality":{"key":"09673123","name":"Fladungen, St","type":"Stadt"},"district":{"key":"09673","name":"Rhön-Grabfeld","type":"Landkreis"},"federalState":{"key":"09","name":"Bayern"}},{"name":"Henneberger Str.","postalCode":"97650","locality":"Fladungen","municipality":{"key":"09673123","name":"Fladungen, St","type":"Stadt"},"district":{"key":"09673","name":"Rhön-Grabfeld","type":"Landkreis"},"federalState":{"key":"09","name":"Bayern"}},{"name":"Hinter dem Feuerwehrhaus","postalCode":"97650","locality":"Fladungen","municipality":{"key":"09673123","name":"Fladungen, St","type":"Stadt"},"district":{"key":"09673","name":"Rhön-Grabfeld","type":"Landkreis"},"federalState":{"key":"09","name":"Bayern"}},{"name":"Hochrhönstr.","postalCode":"97650","locality":"Fladungen","municipality":{"key":"09673123","name":"Fladungen, St","type":"Stadt"},"district":{"key":"09673","name":"Rhön-Grabfeld","type":"Landkreis"},"federalState":{"key":"09","name":"Bayern"}},{"name":"Hohe Str. ((blauer Keil))","postalCode":"97650","locality":"Fladungen","municipality":{"key":"09673123","name":"Fladungen, St","type":"Stadt"},"district":{"key":"09673","name":"Rhön-Grabfeld","type":"Landkreis"},"federalState":{"key":"09","name":"Bayern"}},{"name":"Hohlweg","postalCode":"97650","locality":"Fladungen","municipality":{"key":"09673123","name":"Fladungen, St","type":"Stadt"},"district":{"key":"09673","name":"Rhön-Grabfeld","type":"Landkreis"},"federalState":{"key":"09","name":"Bayern"}},{"name":"Huflar","postalCode":"97650","locality":"Fladungen","municipality":{"key":"09673123","name":"Fladungen, St","type":"Stadt"},"district":{"key":"09673","name":"Rhön-Grabfeld","type":"Landkreis"},"federalState":{"key":"09","name":"Bayern"}},{"name":"Huflarer Weg","postalCode":"97650","locality":"Fladungen","municipality":{"key":"09673123","name":"Fladungen, St","type":"Stadt"},"district":{"key":"09673","name":"Rhön-Grabfeld","type":"Landkreis"},"federalState":{"key":"09","name":"Bayern"}},{"name":"Industriestr.","postalCode":"97650","locality":"Fladungen","municipality":{"key":"09673123","name":"Fladungen, St","type":"Stadt"},"district":{"key":"09673","name":"Rhön-Grabfeld","type":"Landkreis"},"federalState":{"key":"09","name":"Bayern"}},{"name":"Jakobusstr.","postalCode":"97650","locality":"Fladungen","municipality":{"key":"09673123","name":"Fladungen, St","type":"Stadt"},"district":{"key":"09673","name":"Rhön-Grabfeld","type":"Landkreis"},"federalState":{"key":"09","name":"Bayern"}},{"name":"Kapellenberg","postalCode":"97650","locality":"Fladungen","municipality":{"key":"09673123","name":"Fladungen, St","type":"Stadt"},"district":{"key":"09673","name":"Rhön-Grabfeld","type":"Landkreis"},"federalState":{"key":"09","name":"Bayern"}},{"name":"Katharinenweg","postalCode":"97650","locality":"Fladungen","municipality":{"key":"09673123","name":"Fladungen, St","type":"Stadt"},"district":{"key":"09673","name":"Rhön-Grabfeld","type":"Landkreis"},"federalState":{"key":"09","name":"Bayern"}},{"name":"Kirchberg","postalCode":"97650","locality":"Fladungen","municipality":{"key":"09673123","name":"Fladungen, St","type":"Stadt"},"district":{"key":"09673","name":"Rhön-Grabfeld","type":"Landkreis"},"federalState":{"key":"09","name":"Bayern"}},{"name":"Kolonnenweg","postalCode":"97650","locality":"Fladungen","municipality":{"key":"09673123","name":"Fladungen, St","type":"Stadt"},"district":{"key":"09673","name":"Rhön-Grabfeld","type":"Landkreis"},"federalState":{"key":"09","name":"Bayern"}},{"name":"Leiboldstr.","postalCode":"97650","locality":"Fladungen","municipality":{"key":"09673123","name":"Fladungen, St","type":"Stadt"},"district":{"key":"09673","name":"Rhön-Grabfeld","type":"Landkreis"},"federalState":{"key":"09","name":"Bayern"}},{"name":"Lerchenweg","postalCode":"97650","locality":"Fladungen","municipality":{"key":"09673123","name":"Fladungen, St","type":"Stadt"},"district":{"key":"09673","name":"Rhön-Grabfeld","type":"Landkreis"},"federalState":{"key":"09","name":"Bayern"}},{"name":"Lindenstr.","postalCode":"97650","locality":"Fladungen","municipality":{"key":"09673123","name":"Fladungen, St","type":"Stadt"},"district":{"key":"09673","name":"Rhön-Grabfeld","type":"Landkreis"},"federalState":{"key":"09","name":"Bayern"}},{"name":"Ludwigstr.","postalCode":"97650","locality":"Fladungen","municipality":{"key":"09673123","name":"Fladungen, St","type":"Stadt"},"district":{"key":"09673","name":"Rhön-Grabfeld","type":"Landkreis"},"federalState":{"key":"09","name":"Bayern"}},{"name":"Marktplatz","postalCode":"97650","locality":"Fladungen","municipality":{"key":"09673123","name":"Fladungen, St","type":"Stadt"},"district":{"key":"09673","name":"Rhön-Grabfeld","type":"Landkreis"},"federalState":{"key":"09","name":"Bayern"}},{"name":"Mühlgasse","postalCode":"97650","locality":"Fladungen","municipality":{"key":"09673123","name":"Fladungen, St","type":"Stadt"},"district":{"key":"09673","name":"Rhön-Grabfeld","type":"Landkreis"},"federalState":{"key":"09","name":"Bayern"}},{"name":"Mühlweg","postalCode":"97650","locality":"Fladungen","municipality":{"key":"09673123","name":"Fladungen, St","type":"Stadt"},"district":{"key":"09673","name":"Rhön-Grabfeld","type":"Landkreis"},"federalState":{"key":"09","name":"Bayern"}},{"name":"Mußmächerstr.","postalCode":"97650","locality":"Fladungen","municipality":{"key":"09673123","name":"Fladungen, St","type":"Stadt"},"district":{"key":"09673","name":"Rhön-Grabfeld","type":"Landkreis"},"federalState":{"key":"09","name":"Bayern"}},{"name":"Neustädtleser Weg","postalCode":"97650","locality":"Fladungen","municipality":{"key":"09673123","name":"Fladungen, St","type":"Stadt"},"district":{"key":"09673","name":"Rhön-Grabfeld","type":"Landkreis"},"federalState":{"key":"09","name":"Bayern"}},{"name":"Nikolausstr.","postalCode":"97650","locality":"Fladungen","municipality":{"key":"09673123","name":"Fladungen, St","type":"Stadt"},"district":{"key":"09673","name":"Rhön-Grabfeld","type":"Landkreis"},"federalState":{"key":"09","name":"Bayern"}},{"name":"Obere Brückengasse","postalCode":"97650","locality":"Fladungen","municipality":{"key":"09673123","name":"Fladungen, St","type":"Stadt"},"district":{"key":"09673","name":"Rhön-Grabfeld","type":"Landkreis"},"federalState":{"key":"09","name":"Bayern"}},{"name":"Obere Dorfgasse","postalCode":"97650","locality":"Fladungen","municipality":{"key":"09673123","name":"Fladungen, St","type":"Stadt"},"district":{"key":"09673","name":"Rhön-Grabfeld","type":"Landkreis"},"federalState":{"key":"09","name":"Bayern"}},{"name":"Obere Pforte","postalCode":"97650","locality":"Fladungen","municipality":{"key":"09673123","name":"Fladungen, St","type":"Stadt"},"district":{"key":"09673","name":"Rhön-Grabfeld","type":"Landkreis"},"federalState":{"key":"09","name":"Bayern"}},{"name":"Oberfladunger Str.","postalCode":"97650","locality":"Fladungen","municipality":{"key":"09673123","name":"Fladungen, St","type":"Stadt"},"district":{"key":"09673","name":"Rhön-Grabfeld","type":"Landkreis"},"federalState":{"key":"09","name":"Bayern"}},{"name":"Pfützweg","postalCode":"97650","locality":"Fladungen","municipality":{"key":"09673123","name":"Fladungen, St","type":"Stadt"},"district":{"key":"09673","name":"Rhön-Grabfeld","type":"Landkreis"},"federalState":{"key":"09","name":"Bayern"}},{"name":"Quellenstr.","postalCode":"97650","locality":"Fladungen","municipality":{"key":"09673123","name":"Fladungen, St","type":"Stadt"},"district":{"key":"09673","name":"Rhön-Grabfeld","type":"Landkreis"},"federalState":{"key":"09","name":"Bayern"}},{"name":"Rhönblick","postalCode":"97650","locality":"Fladungen","municipality":{"key":"09673123","name":"Fladungen, St","type":"Stadt"},"district":{"key":"09673","name":"Rhön-Grabfeld","type":"Landkreis"},"federalState":{"key":"09","name":"Bayern"}},{"name":"Rhönstr.","postalCode":"97650","locality":"Fladungen","municipality":{"key":"09673123","name":"Fladungen, St","type":"Stadt"},"district":{"key":"09673","name":"Rhön-Grabfeld","type":"Landkreis"},"federalState":{"key":"09","name":"Bayern"}},{"name":"Röllweg","postalCode":"97650","locality":"Fladungen","municipality":{"key":"09673123","name":"Fladungen, St","type":"Stadt"},"district":{"key":"09673","name":"Rhön-Grabfeld","type":"Landkreis"},"federalState":{"key":"09","name":"Bayern"}},{"name":"Rüdenschwinder Str.","postalCode":"97650","locality":"Fladungen","municipality":{"key":"09673123","name":"Fladungen, St","type":"Stadt"},"district":{"key":"09673","name":"Rhön-Grabfeld","type":"Landkreis"},"federalState":{"key":"09","name":"Bayern"}},{"name":"Sandser Str.","postalCode":"97650","locality":"Fladungen","municipality":{"key":"09673123","name":"Fladungen, St","type":"Stadt"},"district":{"key":"09673","name":"Rhön-Grabfeld","type":"Landkreis"},"federalState":{"key":"09","name":"Bayern"}},{"name":"Sankt-Gangolfs-Weg","postalCode":"97650","locality":"Fladungen","municipality":{"key":"09673123","name":"Fladungen, St","type":"Stadt"},"district":{"key":"09673","name":"Rhön-Grabfeld","type":"Landkreis"},"federalState":{"key":"09","name":"Bayern"}},{"name":"Sankt-Vitus-Weg","postalCode":"97650","locality":"Fladungen","municipality":{"key":"09673123","name":"Fladungen, St","type":"Stadt"},"district":{"key":"09673","name":"Rhön-Grabfeld","type":"Landkreis"},"federalState":{"key":"09","name":"Bayern"}},{"name":"Schleichgasse","postalCode":"97650","locality":"Fladungen","municipality":{"key":"09673123","name":"Fladungen, St","type":"Stadt"},"district":{"key":"09673","name":"Rhön-Grabfeld","type":"Landkreis"},"federalState":{"key":"09","name":"Bayern"}},{"name":"Schloßweg","postalCode":"97650","locality":"Fladungen","municipality":{"key":"09673123","name":"Fladungen, St","type":"Stadt"},"district":{"key":"09673","name":"Rhön-Grabfeld","type":"Landkreis"},"federalState":{"key":"09","name":"Bayern"}},{"name":"Schmiedegasse","postalCode":"97650","locality":"Fladungen","municipality":{"key":"09673123","name":"Fladungen, St","type":"Stadt"},"district":{"key":"09673","name":"Rhön-Grabfeld","type":"Landkreis"},"federalState":{"key":"09","name":"Bayern"}},{"name":"Schulgasse","postalCode":"97650","locality":"Fladungen","municipality":{"key":"09673123","name":"Fladungen, St","type":"Stadt"},"district":{"key":"09673","name":"Rhön-Grabfeld","type":"Landkreis"},"federalState":{"key":"09","name":"Bayern"}},{"name":"Siedlungsstr.","postalCode":"97650","locality":"Fladungen","municipality":{"key":"09673123","name":"Fladungen, St","type":"Stadt"},"district":{"key":"09673","name":"Rhön-Grabfeld","type":"Landkreis"},"federalState":{"key":"09","name":"Bayern"}},{"name":"Sonnenstr.","postalCode":"97650","locality":"Fladungen","municipality":{"key":"09673123","name":"Fladungen, St","type":"Stadt"},"district":{"key":"09673","name":"Rhön-Grabfeld","type":"Landkreis"},"federalState":{"key":"09","name":"Bayern"}},{"name":"Steige","postalCode":"97650","locality":"Fladungen","municipality":{"key":"09673123","name":"Fladungen, St","type":"Stadt"},"district":{"key":"09673","name":"Rhön-Grabfeld","type":"Landkreis"},"federalState":{"key":"09","name":"Bayern"}},{"name":"Steinweg","postalCode":"97650","locality":"Fladungen","municipality":{"key":"09673123","name":"Fladungen, St","type":"Stadt"},"district":{"key":"09673","name":"Rhön-Grabfeld","type":"Landkreis"},"federalState":{"key":"09","name":"Bayern"}},{"name":"St.-Kilian-Str.","postalCode":"97650","locality":"Fladungen","municipality":{"key":"09673123","name":"Fladungen, St","type":"Stadt"},"district":{"key":"09673","name":"Rhön-Grabfeld","type":"Landkreis"},"federalState":{"key":"09","name":"Bayern"}},{"name":"Streuweg","postalCode":"97650","locality":"Fladungen","municipality":{"key":"09673123","name":"Fladungen, St","type":"Stadt"},"district":{"key":"09673","name":"Rhön-Grabfeld","type":"Landkreis"},"federalState":{"key":"09","name":"Bayern"}},{"name":"Sudetenstr.","postalCode":"97650","locality":"Fladungen","municipality":{"key":"09673123","name":"Fladungen, St","type":"Stadt"},"district":{"key":"09673","name":"Rhön-Grabfeld","type":"Landkreis"},"federalState":{"key":"09","name":"Bayern"}},{"name":"Talblick","postalCode":"97650","locality":"Fladungen","municipality":{"key":"09673123","name":"Fladungen, St","type":"Stadt"},"district":{"key":"09673","name":"Rhön-Grabfeld","type":"Landkreis"},"federalState":{"key":"09","name":"Bayern"}},{"name":"Talstr.","postalCode":"97650","locality":"Fladungen","municipality":{"key":"09673123","name":"Fladungen, St","type":"Stadt"},"district":{"key":"09673","name":"Rhön-Grabfeld","type":"Landkreis"},"federalState":{"key":"09","name":"Bayern"}},{"name":"Thorgartenweg","postalCode":"97650","locality":"Fladungen","municipality":{"key":"09673123","name":"Fladungen, St","type":"Stadt"},"district":{"key":"09673","name":"Rhön-Grabfeld","type":"Landkreis"},"federalState":{"key":"09","name":"Bayern"}},{"name":"Thüringer Str.","postalCode":"97650","locality":"Fladungen","municipality":{"key":"09673123","name":"Fladungen, St","type":"Stadt"},"district":{"key":"09673","name":"Rhön-Grabfeld","type":"Landkreis"},"federalState":{"key":"09","name":"Bayern"}},{"name":"Untere Pforte","postalCode":"97650","locality":"Fladungen","municipality":{"key":"09673123","name":"Fladungen, St","type":"Stadt"},"district":{"key":"09673","name":"Rhön-Grabfeld","type":"Landkreis"},"federalState":{"key":"09","name":"Bayern"}},{"name":"Unterhofstattweg","postalCode":"97650","locality":"Fladungen","municipality":{"key":"09673123","name":"Fladungen, St","type":"Stadt"},"district":{"key":"09673","name":"Rhön-Grabfeld","type":"Landkreis"},"federalState":{"key":"09","name":"Bayern"}},{"name":"Waldstr.","postalCode":"97650","locality":"Fladungen","municipality":{"key":"09673123","name":"Fladungen, St","type":"Stadt"},"district":{"key":"09673","name":"Rhön-Grabfeld","type":"Landkreis"},"federalState":{"key":"09","name":"Bayern"}},{"name":"Webergasse","postalCode":"97650","locality":"Fladungen","municipality":{"key":"09673123","name":"Fladungen, St","type":"Stadt"},"district":{"key":"09673","name":"Rhön-Grabfeld","type":"Landkreis"},"federalState":{"key":"09","name":"Bayern"}},{"name":"Wegscheide","postalCode":"97650","locality":"Fladungen","municipality":{"key":"09673123","name":"Fladungen, St","type":"Stadt"},"district":{"key":"09673","name":"Rhön-Grabfeld","type":"Landkreis"},"federalState":{"key":"09","name":"Bayern"}},{"name":"Wehrgang","postalCode":"97650","locality":"Fladungen","municipality":{"key":"09673123","name":"Fladungen, St","type":"Stadt"},"district":{"key":"09673","name":"Rhön-Grabfeld","type":"Landkreis"},"federalState":{"key":"09","name":"Bayern"}},{"name":"Weihersweg","postalCode":"97650","locality":"Fladungen","municipality":{"key":"09673123","name":"Fladungen, St","type":"Stadt"},"district":{"key":"09673","name":"Rhön-Grabfeld","type":"Landkreis"},"federalState":{"key":"09","name":"Bayern"}},{"name":"Weinbergstr.","postalCode":"97650","locality":"Fladungen","municipality":{"key":"09673123","name":"Fladungen, St","type":"Stadt"},"district":{"key":"09673","name":"Rhön-Grabfeld","type":"Landkreis"},"federalState":{"key":"09","name":"Bayern"}},{"name":"Wendelinusweg","postalCode":"97650","locality":"Fladungen","municipality":{"key":"09673123","name":"Fladungen, St","type":"Stadt"},"district":{"key":"09673","name":"Rhön-Grabfeld","type":"Landkreis"},"federalState":{"key":"09","name":"Bayern"}},{"name":"Wendelstr.","postalCode":"97650","locality":"Fladungen","municipality":{"key":"09673123","name":"Fladungen, St","type":"Stadt"},"district":{"key":"09673","name":"Rhön-Grabfeld","type":"Landkreis"},"federalState":{"key":"09","name":"Bayern"}},{"name":"Wurmbergstr.","postalCode":"97650","locality":"Fladungen","municipality":{"key":"09673123","name":"Fladungen, St","type":"Stadt"},"district":{"key":"09673","name":"Rhön-Grabfeld","type":"Landkreis"},"federalState":{"key":"09","name":"Bayern"}},{"name":"Zollstr.","postalCode":"97650","locality":"Fladungen","municipality":{"key":"09673123","name":"Fladungen, St","type":"Stadt"},"district":{"key":"09673","name":"Rhön-Grabfeld","type":"Landkreis"},"federalState":{"key":"09","name":"Bayern"}},]