[{"name":"Am Schopp","postalCode":"56237","locality":"Sessenbach","municipality":{"key":"07143068","name":"Sessenbach","type":"Kreisangehörige_Gemeinde"},"district":{"key":"07143","name":"Westerwaldkreis","type":"Landkreis"},"federalState":{"key":"07","name":"Rheinland-Pfalz"}},{"name":"Auf der Trift","postalCode":"56237","locality":"Sessenbach","municipality":{"key":"07143068","name":"Sessenbach","type":"Kreisangehörige_Gemeinde"},"district":{"key":"07143","name":"Westerwaldkreis","type":"Landkreis"},"federalState":{"key":"07","name":"Rheinland-Pfalz"}},{"name":"Gartenstr.","postalCode":"56237","locality":"Sessenbach","municipality":{"key":"07143068","name":"Sessenbach","type":"Kreisangehörige_Gemeinde"},"district":{"key":"07143","name":"Westerwaldkreis","type":"Landkreis"},"federalState":{"key":"07","name":"Rheinland-Pfalz"}},{"name":"Hauptstr.","postalCode":"56237","locality":"Sessenbach","municipality":{"key":"07143068","name":"Sessenbach","type":"Kreisangehörige_Gemeinde"},"district":{"key":"07143","name":"Westerwaldkreis","type":"Landkreis"},"federalState":{"key":"07","name":"Rheinland-Pfalz"}},{"name":"Herschberg","postalCode":"56237","locality":"Sessenbach","municipality":{"key":"07143068","name":"Sessenbach","type":"Kreisangehörige_Gemeinde"},"district":{"key":"07143","name":"Westerwaldkreis","type":"Landkreis"},"federalState":{"key":"07","name":"Rheinland-Pfalz"}},{"name":"Hofhaide","postalCode":"56237","locality":"Sessenbach","municipality":{"key":"07143068","name":"Sessenbach","type":"Kreisangehörige_Gemeinde"},"district":{"key":"07143","name":"Westerwaldkreis","type":"Landkreis"},"federalState":{"key":"07","name":"Rheinland-Pfalz"}},{"name":"Im Hofgarten","postalCode":"56237","locality":"Sessenbach","municipality":{"key":"07143068","name":"Sessenbach","type":"Kreisangehörige_Gemeinde"},"district":{"key":"07143","name":"Westerwaldkreis","type":"Landkreis"},"federalState":{"key":"07","name":"Rheinland-Pfalz"}},{"name":"Im Wiesengrund","postalCode":"56237","locality":"Sessenbach","municipality":{"key":"07143068","name":"Sessenbach","type":"Kreisangehörige_Gemeinde"},"district":{"key":"07143","name":"Westerwaldkreis","type":"Landkreis"},"federalState":{"key":"07","name":"Rheinland-Pfalz"}},{"name":"In der Hohl","postalCode":"56237","locality":"Sessenbach","municipality":{"key":"07143068","name":"Sessenbach","type":"Kreisangehörige_Gemeinde"},"district":{"key":"07143","name":"Westerwaldkreis","type":"Landkreis"},"federalState":{"key":"07","name":"Rheinland-Pfalz"}},{"name":"Kirchstr.","postalCode":"56237","locality":"Sessenbach","municipality":{"key":"07143068","name":"Sessenbach","type":"Kreisangehörige_Gemeinde"},"district":{"key":"07143","name":"Westerwaldkreis","type":"Landkreis"},"federalState":{"key":"07","name":"Rheinland-Pfalz"}},{"name":"Kreisstr.","postalCode":"56237","locality":"Sessenbach","municipality":{"key":"07143068","name":"Sessenbach","type":"Kreisangehörige_Gemeinde"},"district":{"key":"07143","name":"Westerwaldkreis","type":"Landkreis"},"federalState":{"key":"07","name":"Rheinland-Pfalz"}},{"name":"Sayntalstr.","postalCode":"56237","locality":"Sessenbach","municipality":{"key":"07143068","name":"Sessenbach","type":"Kreisangehörige_Gemeinde"},"district":{"key":"07143","name":"Westerwaldkreis","type":"Landkreis"},"federalState":{"key":"07","name":"Rheinland-Pfalz"}},{"name":"Schulstr.","postalCode":"56237","locality":"Sessenbach","municipality":{"key":"07143068","name":"Sessenbach","type":"Kreisangehörige_Gemeinde"},"district":{"key":"07143","name":"Westerwaldkreis","type":"Landkreis"},"federalState":{"key":"07","name":"Rheinland-Pfalz"}},{"name":"Vorm Arheckengarten","postalCode":"56237","locality":"Sessenbach","municipality":{"key":"07143068","name":"Sessenbach","type":"Kreisangehörige_Gemeinde"},"district":{"key":"07143","name":"Westerwaldkreis","type":"Landkreis"},"federalState":{"key":"07","name":"Rheinland-Pfalz"}},{"name":"Waldstr.","postalCode":"56237","locality":"Sessenbach","municipality":{"key":"07143068","name":"Sessenbach","type":"Kreisangehörige_Gemeinde"},"district":{"key":"07143","name":"Westerwaldkreis","type":"Landkreis"},"federalState":{"key":"07","name":"Rheinland-Pfalz"}},{"name":"Weststr.","postalCode":"56237","locality":"Sessenbach","municipality":{"key":"07143068","name":"Sessenbach","type":"Kreisangehörige_Gemeinde"},"district":{"key":"07143","name":"Westerwaldkreis","type":"Landkreis"},"federalState":{"key":"07","name":"Rheinland-Pfalz"}},]