[{"name":"Alte Hohe Str.","postalCode":"07768","locality":"Altenberga","municipality":{"key":"16074002","name":"Altenberga","type":"Kreisangehörige_Gemeinde"},"district":{"key":"16074","name":"Saale-Holzland-Kreis","type":"Landkreis"},"federalState":{"key":"16","name":"Thüringen"}},{"name":"Altendorf","postalCode":"07768","locality":"Altenberga","municipality":{"key":"16074002","name":"Altenberga","type":"Kreisangehörige_Gemeinde"},"district":{"key":"16074","name":"Saale-Holzland-Kreis","type":"Landkreis"},"federalState":{"key":"16","name":"Thüringen"}},{"name":"Baumlehrpfad","postalCode":"07768","locality":"Altenberga","municipality":{"key":"16074002","name":"Altenberga","type":"Kreisangehörige_Gemeinde"},"district":{"key":"16074","name":"Saale-Holzland-Kreis","type":"Landkreis"},"federalState":{"key":"16","name":"Thüringen"}},{"name":"Borntal / Schirnewitzer Grund","postalCode":"07768","locality":"Altenberga","municipality":{"key":"16074002","name":"Altenberga","type":"Kreisangehörige_Gemeinde"},"district":{"key":"16074","name":"Saale-Holzland-Kreis","type":"Landkreis"},"federalState":{"key":"16","name":"Thüringen"}},{"name":"Dorfstr.","postalCode":"07768","locality":"Altenberga","municipality":{"key":"16074002","name":"Altenberga","type":"Kreisangehörige_Gemeinde"},"district":{"key":"16074","name":"Saale-Holzland-Kreis","type":"Landkreis"},"federalState":{"key":"16","name":"Thüringen"}},{"name":"Frankengrund","postalCode":"07768","locality":"Altenberga","municipality":{"key":"16074002","name":"Altenberga","type":"Kreisangehörige_Gemeinde"},"district":{"key":"16074","name":"Saale-Holzland-Kreis","type":"Landkreis"},"federalState":{"key":"16","name":"Thüringen"}},{"name":"Greuda","postalCode":"07768","locality":"Altenberga","municipality":{"key":"16074002","name":"Altenberga","type":"Kreisangehörige_Gemeinde"},"district":{"key":"16074","name":"Saale-Holzland-Kreis","type":"Landkreis"},"federalState":{"key":"16","name":"Thüringen"}},{"name":"Hohe Str.","postalCode":"07768","locality":"Altenberga","municipality":{"key":"16074002","name":"Altenberga","type":"Kreisangehörige_Gemeinde"},"district":{"key":"16074","name":"Saale-Holzland-Kreis","type":"Landkreis"},"federalState":{"key":"16","name":"Thüringen"}},{"name":"Im Preuschig","postalCode":"07768","locality":"Altenberga","municipality":{"key":"16074002","name":"Altenberga","type":"Kreisangehörige_Gemeinde"},"district":{"key":"16074","name":"Saale-Holzland-Kreis","type":"Landkreis"},"federalState":{"key":"16","name":"Thüringen"}},{"name":"Koberstrebe","postalCode":"07768","locality":"Altenberga","municipality":{"key":"16074002","name":"Altenberga","type":"Kreisangehörige_Gemeinde"},"district":{"key":"16074","name":"Saale-Holzland-Kreis","type":"Landkreis"},"federalState":{"key":"16","name":"Thüringen"}},{"name":"Krebsel","postalCode":"07768","locality":"Altenberga","municipality":{"key":"16074002","name":"Altenberga","type":"Kreisangehörige_Gemeinde"},"district":{"key":"16074","name":"Saale-Holzland-Kreis","type":"Landkreis"},"federalState":{"key":"16","name":"Thüringen"}},{"name":"Neue Hohe Str.","postalCode":"07768","locality":"Altenberga","municipality":{"key":"16074002","name":"Altenberga","type":"Kreisangehörige_Gemeinde"},"district":{"key":"16074","name":"Saale-Holzland-Kreis","type":"Landkreis"},"federalState":{"key":"16","name":"Thüringen"}},{"name":"Preusch","postalCode":"07768","locality":"Altenberga","municipality":{"key":"16074002","name":"Altenberga","type":"Kreisangehörige_Gemeinde"},"district":{"key":"16074","name":"Saale-Holzland-Kreis","type":"Landkreis"},"federalState":{"key":"16","name":"Thüringen"}},{"name":"Totengrund","postalCode":"07768","locality":"Altenberga","municipality":{"key":"16074002","name":"Altenberga","type":"Kreisangehörige_Gemeinde"},"district":{"key":"16074","name":"Saale-Holzland-Kreis","type":"Landkreis"},"federalState":{"key":"16","name":"Thüringen"}},]