[{"key":"10097630","name":"Chemin de la Sauge","postalCode":"1041","locality":"Poliez-Pittet","commune":{"key":"5533","name":"Poliez-Pittet","shortName":"Poliez-Pittet"},"district":{"key":"2223","name":"District du Gros-de-Vaud"},"canton":{"key":"22","code":"VD","name":"Vaud"},"status":"Real"},{"key":"10190420","name":"Chemin des Essillaz","postalCode":"1041","locality":"Poliez-Pittet","commune":{"key":"5533","name":"Poliez-Pittet","shortName":"Poliez-Pittet"},"district":{"key":"2223","name":"District du Gros-de-Vaud"},"canton":{"key":"22","code":"VD","name":"Vaud"},"status":"Real"},{"key":"10041466","name":"Chemin des Essinges","postalCode":"1041","locality":"Poliez-Pittet","commune":{"key":"5533","name":"Poliez-Pittet","shortName":"Poliez-Pittet"},"district":{"key":"2223","name":"District du Gros-de-Vaud"},"canton":{"key":"22","code":"VD","name":"Vaud"},"status":"Real"},{"key":"10041468","name":"Chemin de Vernaugi","postalCode":"1041","locality":"Poliez-Pittet","commune":{"key":"5533","name":"Poliez-Pittet","shortName":"Poliez-Pittet"},"district":{"key":"2223","name":"District du Gros-de-Vaud"},"canton":{"key":"22","code":"VD","name":"Vaud"},"status":"Real"},{"key":"10181845","name":"Chemin du Creux","postalCode":"1041","locality":"Poliez-Pittet","commune":{"key":"5533","name":"Poliez-Pittet","shortName":"Poliez-Pittet"},"district":{"key":"2223","name":"District du Gros-de-Vaud"},"canton":{"key":"22","code":"VD","name":"Vaud"},"status":"Real"},{"key":"10097631","name":"Chemin du Flamy","postalCode":"1041","locality":"Poliez-Pittet","commune":{"key":"5533","name":"Poliez-Pittet","shortName":"Poliez-Pittet"},"district":{"key":"2223","name":"District du Gros-de-Vaud"},"canton":{"key":"22","code":"VD","name":"Vaud"},"status":"Real"},{"key":"10041473","name":"Chemin du Méregniau","postalCode":"1041","locality":"Poliez-Pittet","commune":{"key":"5533","name":"Poliez-Pittet","shortName":"Poliez-Pittet"},"district":{"key":"2223","name":"District du Gros-de-Vaud"},"canton":{"key":"22","code":"VD","name":"Vaud"},"status":"Real"},{"key":"10041467","name":"Chemin du Pay","postalCode":"1041","locality":"Poliez-Pittet","commune":{"key":"5533","name":"Poliez-Pittet","shortName":"Poliez-Pittet"},"district":{"key":"2223","name":"District du Gros-de-Vaud"},"canton":{"key":"22","code":"VD","name":"Vaud"},"status":"Real"},{"key":"10041474","name":"Chemin du Rategniau","postalCode":"1041","locality":"Poliez-Pittet","commune":{"key":"5533","name":"Poliez-Pittet","shortName":"Poliez-Pittet"},"district":{"key":"2223","name":"District du Gros-de-Vaud"},"canton":{"key":"22","code":"VD","name":"Vaud"},"status":"Real"},{"key":"10157116","name":"Chemin du Stade","postalCode":"1041","locality":"Poliez-Pittet","commune":{"key":"5533","name":"Poliez-Pittet","shortName":"Poliez-Pittet"},"district":{"key":"2223","name":"District du Gros-de-Vaud"},"canton":{"key":"22","code":"VD","name":"Vaud"},"status":"Real"},{"key":"10075769","name":"La Tuilière","postalCode":"1041","locality":"Poliez-Pittet","commune":{"key":"5533","name":"Poliez-Pittet","shortName":"Poliez-Pittet"},"district":{"key":"2223","name":"District du Gros-de-Vaud"},"canton":{"key":"22","code":"VD","name":"Vaud"},"status":"Real"},{"key":"10041470","name":"Les Adélins","postalCode":"1041","locality":"Poliez-Pittet","commune":{"key":"5533","name":"Poliez-Pittet","shortName":"Poliez-Pittet"},"district":{"key":"2223","name":"District du Gros-de-Vaud"},"canton":{"key":"22","code":"VD","name":"Vaud"},"status":"Real"},{"key":"10097632","name":"Les Grands-Champs","postalCode":"1041","locality":"Poliez-Pittet","commune":{"key":"5533","name":"Poliez-Pittet","shortName":"Poliez-Pittet"},"district":{"key":"2223","name":"District du Gros-de-Vaud"},"canton":{"key":"22","code":"VD","name":"Vaud"},"status":"Real"},{"key":"10041472","name":"Route d'Echallens","postalCode":"1041","locality":"Poliez-Pittet","commune":{"key":"5533","name":"Poliez-Pittet","shortName":"Poliez-Pittet"},"district":{"key":"2223","name":"District du Gros-de-Vaud"},"canton":{"key":"22","code":"VD","name":"Vaud"},"status":"Real"},{"key":"10097633","name":"Route de Lausanne","postalCode":"1041","locality":"Poliez-Pittet","commune":{"key":"5533","name":"Poliez-Pittet","shortName":"Poliez-Pittet"},"district":{"key":"2223","name":"District du Gros-de-Vaud"},"canton":{"key":"22","code":"VD","name":"Vaud"},"status":"Real"},{"key":"10075770","name":"Route d'Oron","postalCode":"1041","locality":"Poliez-Pittet","commune":{"key":"5533","name":"Poliez-Pittet","shortName":"Poliez-Pittet"},"district":{"key":"2223","name":"District du Gros-de-Vaud"},"canton":{"key":"22","code":"VD","name":"Vaud"},"status":"Real"},{"key":"10181846","name":"Route du Turlet","postalCode":"1041","locality":"Poliez-Pittet","commune":{"key":"5533","name":"Poliez-Pittet","shortName":"Poliez-Pittet"},"district":{"key":"2223","name":"District du Gros-de-Vaud"},"canton":{"key":"22","code":"VD","name":"Vaud"},"status":"Real"},{"key":"10097634","name":"Rue de la Poste","postalCode":"1041","locality":"Poliez-Pittet","commune":{"key":"5533","name":"Poliez-Pittet","shortName":"Poliez-Pittet"},"district":{"key":"2223","name":"District du Gros-de-Vaud"},"canton":{"key":"22","code":"VD","name":"Vaud"},"status":"Real"},{"key":"10075771","name":"Rue du Village","postalCode":"1041","locality":"Poliez-Pittet","commune":{"key":"5533","name":"Poliez-Pittet","shortName":"Poliez-Pittet"},"district":{"key":"2223","name":"District du Gros-de-Vaud"},"canton":{"key":"22","code":"VD","name":"Vaud"},"status":"Real"},]