[{"name":"Am Kupferberg","postalCode":"67817","locality":"Imsbach","municipality":{"key":"07333033","name":"Imsbach","type":"Kreisangehörige_Gemeinde"},"district":{"key":"07333","name":"Donnersbergkreis","type":"Landkreis"},"federalState":{"key":"07","name":"Rheinland-Pfalz"}},{"name":"Am Sonnenberg","postalCode":"67817","locality":"Imsbach","municipality":{"key":"07333033","name":"Imsbach","type":"Kreisangehörige_Gemeinde"},"district":{"key":"07333","name":"Donnersbergkreis","type":"Landkreis"},"federalState":{"key":"07","name":"Rheinland-Pfalz"}},{"name":"Bergschmiedestr.","postalCode":"67817","locality":"Imsbach","municipality":{"key":"07333033","name":"Imsbach","type":"Kreisangehörige_Gemeinde"},"district":{"key":"07333","name":"Donnersbergkreis","type":"Landkreis"},"federalState":{"key":"07","name":"Rheinland-Pfalz"}},{"name":"Bergstr.","postalCode":"67817","locality":"Imsbach","municipality":{"key":"07333033","name":"Imsbach","type":"Kreisangehörige_Gemeinde"},"district":{"key":"07333","name":"Donnersbergkreis","type":"Landkreis"},"federalState":{"key":"07","name":"Rheinland-Pfalz"}},{"name":"Flurstr.","postalCode":"67817","locality":"Imsbach","municipality":{"key":"07333033","name":"Imsbach","type":"Kreisangehörige_Gemeinde"},"district":{"key":"07333","name":"Donnersbergkreis","type":"Landkreis"},"federalState":{"key":"07","name":"Rheinland-Pfalz"}},{"name":"Gartenstr.","postalCode":"67817","locality":"Imsbach","municipality":{"key":"07333033","name":"Imsbach","type":"Kreisangehörige_Gemeinde"},"district":{"key":"07333","name":"Donnersbergkreis","type":"Landkreis"},"federalState":{"key":"07","name":"Rheinland-Pfalz"}},{"name":"Gienanthstr.","postalCode":"67817","locality":"Imsbach","municipality":{"key":"07333033","name":"Imsbach","type":"Kreisangehörige_Gemeinde"},"district":{"key":"07333","name":"Donnersbergkreis","type":"Landkreis"},"federalState":{"key":"07","name":"Rheinland-Pfalz"}},{"name":"Gümbel Weg","postalCode":"67817","locality":"Imsbach","municipality":{"key":"07333033","name":"Imsbach","type":"Kreisangehörige_Gemeinde"},"district":{"key":"07333","name":"Donnersbergkreis","type":"Landkreis"},"federalState":{"key":"07","name":"Rheinland-Pfalz"}},{"name":"Hohlstr.","postalCode":"67817","locality":"Imsbach","municipality":{"key":"07333033","name":"Imsbach","type":"Kreisangehörige_Gemeinde"},"district":{"key":"07333","name":"Donnersbergkreis","type":"Landkreis"},"federalState":{"key":"07","name":"Rheinland-Pfalz"}},{"name":"Im Behl","postalCode":"67817","locality":"Imsbach","municipality":{"key":"07333033","name":"Imsbach","type":"Kreisangehörige_Gemeinde"},"district":{"key":"07333","name":"Donnersbergkreis","type":"Landkreis"},"federalState":{"key":"07","name":"Rheinland-Pfalz"}},{"name":"In der Roth Dell","postalCode":"67817","locality":"Imsbach","municipality":{"key":"07333033","name":"Imsbach","type":"Kreisangehörige_Gemeinde"},"district":{"key":"07333","name":"Donnersbergkreis","type":"Landkreis"},"federalState":{"key":"07","name":"Rheinland-Pfalz"}},{"name":"Katharinental","postalCode":"67817","locality":"Imsbach","municipality":{"key":"07333033","name":"Imsbach","type":"Kreisangehörige_Gemeinde"},"district":{"key":"07333","name":"Donnersbergkreis","type":"Landkreis"},"federalState":{"key":"07","name":"Rheinland-Pfalz"}},{"name":"Keiperweg","postalCode":"67817","locality":"Imsbach","municipality":{"key":"07333033","name":"Imsbach","type":"Kreisangehörige_Gemeinde"},"district":{"key":"07333","name":"Donnersbergkreis","type":"Landkreis"},"federalState":{"key":"07","name":"Rheinland-Pfalz"}},{"name":"Kirchgasse","postalCode":"67817","locality":"Imsbach","municipality":{"key":"07333033","name":"Imsbach","type":"Kreisangehörige_Gemeinde"},"district":{"key":"07333","name":"Donnersbergkreis","type":"Landkreis"},"federalState":{"key":"07","name":"Rheinland-Pfalz"}},{"name":"Krummkehr-Kronbuche","postalCode":"67817","locality":"Imsbach","municipality":{"key":"07333033","name":"Imsbach","type":"Kreisangehörige_Gemeinde"},"district":{"key":"07333","name":"Donnersbergkreis","type":"Landkreis"},"federalState":{"key":"07","name":"Rheinland-Pfalz"}},{"name":"Langental","postalCode":"67817","locality":"Imsbach","municipality":{"key":"07333033","name":"Imsbach","type":"Kreisangehörige_Gemeinde"},"district":{"key":"07333","name":"Donnersbergkreis","type":"Landkreis"},"federalState":{"key":"07","name":"Rheinland-Pfalz"}},{"name":"Lützelbachstr.","postalCode":"67817","locality":"Imsbach","municipality":{"key":"07333033","name":"Imsbach","type":"Kreisangehörige_Gemeinde"},"district":{"key":"07333","name":"Donnersbergkreis","type":"Landkreis"},"federalState":{"key":"07","name":"Rheinland-Pfalz"}},{"name":"Ortsstr.","postalCode":"67817","locality":"Imsbach","municipality":{"key":"07333033","name":"Imsbach","type":"Kreisangehörige_Gemeinde"},"district":{"key":"07333","name":"Donnersbergkreis","type":"Landkreis"},"federalState":{"key":"07","name":"Rheinland-Pfalz"}},{"name":"Raiffeisenstr.","postalCode":"67817","locality":"Imsbach","municipality":{"key":"07333033","name":"Imsbach","type":"Kreisangehörige_Gemeinde"},"district":{"key":"07333","name":"Donnersbergkreis","type":"Landkreis"},"federalState":{"key":"07","name":"Rheinland-Pfalz"}},{"name":"Röderhof","postalCode":"67725","locality":"Imsbach","municipality":{"key":"07333033","name":"Imsbach","type":"Kreisangehörige_Gemeinde"},"district":{"key":"07333","name":"Donnersbergkreis","type":"Landkreis"},"federalState":{"key":"07","name":"Rheinland-Pfalz"}},{"name":"Rollbahn","postalCode":"67817","locality":"Imsbach","municipality":{"key":"07333033","name":"Imsbach","type":"Kreisangehörige_Gemeinde"},"district":{"key":"07333","name":"Donnersbergkreis","type":"Landkreis"},"federalState":{"key":"07","name":"Rheinland-Pfalz"}},{"name":"Schweinstal","postalCode":"67817","locality":"Imsbach","municipality":{"key":"07333033","name":"Imsbach","type":"Kreisangehörige_Gemeinde"},"district":{"key":"07333","name":"Donnersbergkreis","type":"Landkreis"},"federalState":{"key":"07","name":"Rheinland-Pfalz"}},{"name":"Triftstr.","postalCode":"67817","locality":"Imsbach","municipality":{"key":"07333033","name":"Imsbach","type":"Kreisangehörige_Gemeinde"},"district":{"key":"07333","name":"Donnersbergkreis","type":"Landkreis"},"federalState":{"key":"07","name":"Rheinland-Pfalz"}},]