[{"key":"10179075","name":"Alte Rieder","postalCode":"3238","locality":"Gals","commune":{"key":"494","name":"Gals","shortName":"Gals"},"district":{"key":"243","name":"Verwaltungskreis Seeland"},"canton":{"key":"2","code":"BE","name":"Bern / Berne"},"status":"Real"},{"key":"10139748","name":"Bernstrasse","postalCode":"3238","locality":"Gals","commune":{"key":"494","name":"Gals","shortName":"Gals"},"district":{"key":"243","name":"Verwaltungskreis Seeland"},"canton":{"key":"2","code":"BE","name":"Bern / Berne"},"status":"Real"},{"key":"10009454","name":"Bethlehemstrasse","postalCode":"3238","locality":"Gals","commune":{"key":"494","name":"Gals","shortName":"Gals"},"district":{"key":"243","name":"Verwaltungskreis Seeland"},"canton":{"key":"2","code":"BE","name":"Bern / Berne"},"status":"Real"},{"key":"10066259","name":"Breitenackerweg","postalCode":"3238","locality":"Gals","commune":{"key":"494","name":"Gals","shortName":"Gals"},"district":{"key":"243","name":"Verwaltungskreis Seeland"},"canton":{"key":"2","code":"BE","name":"Bern / Berne"},"status":"Real"},{"key":"10082483","name":"Britschenmattstrasse","postalCode":"3238","locality":"Gals","commune":{"key":"494","name":"Gals","shortName":"Gals"},"district":{"key":"243","name":"Verwaltungskreis Seeland"},"canton":{"key":"2","code":"BE","name":"Bern / Berne"},"status":"Real"},{"key":"10221094","name":"Br체hlweg","postalCode":"3238","locality":"Gals","commune":{"key":"494","name":"Gals","shortName":"Gals"},"district":{"key":"243","name":"Verwaltungskreis Seeland"},"canton":{"key":"2","code":"BE","name":"Bern / Berne"},"status":"Real"},{"key":"10009455","name":"Burgerweg","postalCode":"3238","locality":"Gals","commune":{"key":"494","name":"Gals","shortName":"Gals"},"district":{"key":"243","name":"Verwaltungskreis Seeland"},"canton":{"key":"2","code":"BE","name":"Bern / Berne"},"status":"Real"},{"key":"10221098","name":"Chlosterwald","postalCode":"3238","locality":"Gals","commune":{"key":"494","name":"Gals","shortName":"Gals"},"district":{"key":"243","name":"Verwaltungskreis Seeland"},"canton":{"key":"2","code":"BE","name":"Bern / Berne"},"status":"Real"},{"key":"10009456","name":"Dorfstrasse","postalCode":"3238","locality":"Gals","commune":{"key":"494","name":"Gals","shortName":"Gals"},"district":{"key":"243","name":"Verwaltungskreis Seeland"},"canton":{"key":"2","code":"BE","name":"Bern / Berne"},"status":"Real"},{"key":"10009457","name":"Entscherzweg","postalCode":"3238","locality":"Gals","commune":{"key":"494","name":"Gals","shortName":"Gals"},"district":{"key":"243","name":"Verwaltungskreis Seeland"},"canton":{"key":"2","code":"BE","name":"Bern / Berne"},"status":"Real"},{"key":"10009458","name":"Erlachweg","postalCode":"3238","locality":"Gals","commune":{"key":"494","name":"Gals","shortName":"Gals"},"district":{"key":"243","name":"Verwaltungskreis Seeland"},"canton":{"key":"2","code":"BE","name":"Bern / Berne"},"status":"Real"},{"key":"10066260","name":"Galsbergweg","postalCode":"3238","locality":"Gals","commune":{"key":"494","name":"Gals","shortName":"Gals"},"district":{"key":"243","name":"Verwaltungskreis Seeland"},"canton":{"key":"2","code":"BE","name":"Bern / Berne"},"status":"Real"},{"key":"10045574","name":"Grissachmoos","postalCode":"3238","locality":"Gals","commune":{"key":"494","name":"Gals","shortName":"Gals"},"district":{"key":"243","name":"Verwaltungskreis Seeland"},"canton":{"key":"2","code":"BE","name":"Bern / Berne"},"status":"Real"},{"key":"10082484","name":"Hofackerweg","postalCode":"3238","locality":"Gals","commune":{"key":"494","name":"Gals","shortName":"Gals"},"district":{"key":"243","name":"Verwaltungskreis Seeland"},"canton":{"key":"2","code":"BE","name":"Bern / Berne"},"status":"Real"},{"key":"10009459","name":"Hohlenrain","postalCode":"3238","locality":"Gals","commune":{"key":"494","name":"Gals","shortName":"Gals"},"district":{"key":"243","name":"Verwaltungskreis Seeland"},"canton":{"key":"2","code":"BE","name":"Bern / Berne"},"status":"Real"},{"key":"10179076","name":"Holzackerweg","postalCode":"3238","locality":"Gals","commune":{"key":"494","name":"Gals","shortName":"Gals"},"district":{"key":"243","name":"Verwaltungskreis Seeland"},"canton":{"key":"2","code":"BE","name":"Bern / Berne"},"status":"Real"},{"key":"10009460","name":"Kapellenweg","postalCode":"3238","locality":"Gals","commune":{"key":"494","name":"Gals","shortName":"Gals"},"district":{"key":"243","name":"Verwaltungskreis Seeland"},"canton":{"key":"2","code":"BE","name":"Bern / Berne"},"status":"Real"},{"key":"10082485","name":"Kreuzweg","postalCode":"3238","locality":"Gals","commune":{"key":"494","name":"Gals","shortName":"Gals"},"district":{"key":"243","name":"Verwaltungskreis Seeland"},"canton":{"key":"2","code":"BE","name":"Bern / Berne"},"status":"Real"},{"key":"10112121","name":"L채tscheletweg","postalCode":"3238","locality":"Gals","commune":{"key":"494","name":"Gals","shortName":"Gals"},"district":{"key":"243","name":"Verwaltungskreis Seeland"},"canton":{"key":"2","code":"BE","name":"Bern / Berne"},"status":"Real"},{"key":"10221102","name":"Moosg채rten","postalCode":"3238","locality":"Gals","commune":{"key":"494","name":"Gals","shortName":"Gals"},"district":{"key":"243","name":"Verwaltungskreis Seeland"},"canton":{"key":"2","code":"BE","name":"Bern / Berne"},"status":"Real"},{"key":"10009461","name":"Neuenburgstrasse","postalCode":"3238","locality":"Gals","commune":{"key":"494","name":"Gals","shortName":"Gals"},"district":{"key":"243","name":"Verwaltungskreis Seeland"},"canton":{"key":"2","code":"BE","name":"Bern / Berne"},"status":"Real"},{"key":"10114458","name":"Neue Rieder","postalCode":"3238","locality":"Gals","commune":{"key":"494","name":"Gals","shortName":"Gals"},"district":{"key":"243","name":"Verwaltungskreis Seeland"},"canton":{"key":"2","code":"BE","name":"Bern / Berne"},"status":"Real"},{"key":"10164747","name":"Neuhaus","postalCode":"3238","locality":"Gals","commune":{"key":"494","name":"Gals","shortName":"Gals"},"district":{"key":"243","name":"Verwaltungskreis Seeland"},"canton":{"key":"2","code":"BE","name":"Bern / Berne"},"status":"Real"},{"key":"10009462","name":"Rothausweg","postalCode":"3238","locality":"Gals","commune":{"key":"494","name":"Gals","shortName":"Gals"},"district":{"key":"243","name":"Verwaltungskreis Seeland"},"canton":{"key":"2","code":"BE","name":"Bern / Berne"},"status":"Real"},{"key":"10221105","name":"Ruefgumme","postalCode":"3238","locality":"Gals","commune":{"key":"494","name":"Gals","shortName":"Gals"},"district":{"key":"243","name":"Verwaltungskreis Seeland"},"canton":{"key":"2","code":"BE","name":"Bern / Berne"},"status":"Real"},{"key":"10221109","name":"Rutschiacher","postalCode":"3238","locality":"Gals","commune":{"key":"494","name":"Gals","shortName":"Gals"},"district":{"key":"243","name":"Verwaltungskreis Seeland"},"canton":{"key":"2","code":"BE","name":"Bern / Berne"},"status":"Real"},{"key":"10066261","name":"Sandackerweg","postalCode":"3238","locality":"Gals","commune":{"key":"494","name":"Gals","shortName":"Gals"},"district":{"key":"243","name":"Verwaltungskreis Seeland"},"canton":{"key":"2","code":"BE","name":"Bern / Berne"},"status":"Real"},{"key":"10082487","name":"Schlossmattenweg","postalCode":"3238","locality":"Gals","commune":{"key":"494","name":"Gals","shortName":"Gals"},"district":{"key":"243","name":"Verwaltungskreis Seeland"},"canton":{"key":"2","code":"BE","name":"Bern / Berne"},"status":"Real"},{"key":"10009463","name":"Stangenweg","postalCode":"3238","locality":"Gals","commune":{"key":"494","name":"Gals","shortName":"Gals"},"district":{"key":"243","name":"Verwaltungskreis Seeland"},"canton":{"key":"2","code":"BE","name":"Bern / Berne"},"status":"Real"},{"key":"10139747","name":"Thiellestrasse","postalCode":"3238","locality":"Gals","commune":{"key":"494","name":"Gals","shortName":"Gals"},"district":{"key":"243","name":"Verwaltungskreis Seeland"},"canton":{"key":"2","code":"BE","name":"Bern / Berne"},"status":"Real"},{"key":"10124926","name":"Tscholetenweg","postalCode":"3238","locality":"Gals","commune":{"key":"494","name":"Gals","shortName":"Gals"},"district":{"key":"243","name":"Verwaltungskreis Seeland"},"canton":{"key":"2","code":"BE","name":"Bern / Berne"},"status":"Real"},{"key":"10221114","name":"Uesseri Allmele","postalCode":"3238","locality":"Gals","commune":{"key":"494","name":"Gals","shortName":"Gals"},"district":{"key":"243","name":"Verwaltungskreis Seeland"},"canton":{"key":"2","code":"BE","name":"Bern / Berne"},"status":"Real"},{"key":"10066262","name":"Weg zum guten Brunnen","postalCode":"3238","locality":"Gals","commune":{"key":"494","name":"Gals","shortName":"Gals"},"district":{"key":"243","name":"Verwaltungskreis Seeland"},"canton":{"key":"2","code":"BE","name":"Bern / Berne"},"status":"Real"},{"key":"10009464","name":"Wydenweg","postalCode":"3238","locality":"Gals","commune":{"key":"494","name":"Gals","shortName":"Gals"},"district":{"key":"243","name":"Verwaltungskreis Seeland"},"canton":{"key":"2","code":"BE","name":"Bern / Berne"},"status":"Real"},{"key":"10082488","name":"Zihlbr체cke","postalCode":"3238","locality":"Gals","commune":{"key":"494","name":"Gals","shortName":"Gals"},"district":{"key":"243","name":"Verwaltungskreis Seeland"},"canton":{"key":"2","code":"BE","name":"Bern / Berne"},"status":"Real"},{"key":"10173741","name":"Zihlhof","postalCode":"3238","locality":"Gals","commune":{"key":"494","name":"Gals","shortName":"Gals"},"district":{"key":"243","name":"Verwaltungskreis Seeland"},"canton":{"key":"2","code":"BE","name":"Bern / Berne"},"status":"Real"},]