[{"name":"Almweg","postalCode":"77799","locality":"Ortenberg","municipality":{"key":"08317100","name":"Ortenberg","type":"Kreisangehörige_Gemeinde"},"district":{"key":"08317","name":"Ortenaukreis","type":"Landkreis"},"federalState":{"key":"08","name":"Baden-Württemberg"}},{"name":"Alte Chaussee","postalCode":"63683","locality":"Ortenberg","municipality":{"key":"06440019","name":"Ortenberg, Stadt","type":"Stadt"},"district":{"key":"06440","name":"Wetteraukreis","type":"Landkreis"},"federalState":{"key":"06","name":"Hessen"}},{"name":"Alte Marktstr.","postalCode":"63683","locality":"Ortenberg","municipality":{"key":"06440019","name":"Ortenberg, Stadt","type":"Stadt"},"district":{"key":"06440","name":"Wetteraukreis","type":"Landkreis"},"federalState":{"key":"06","name":"Hessen"}},{"name":"Alter Markt","postalCode":"63683","locality":"Ortenberg","municipality":{"key":"06440019","name":"Ortenberg, Stadt","type":"Stadt"},"district":{"key":"06440","name":"Wetteraukreis","type":"Landkreis"},"federalState":{"key":"06","name":"Hessen"}},{"name":"Am Alten Hof","postalCode":"63683","locality":"Ortenberg","municipality":{"key":"06440019","name":"Ortenberg, Stadt","type":"Stadt"},"district":{"key":"06440","name":"Wetteraukreis","type":"Landkreis"},"federalState":{"key":"06","name":"Hessen"}},{"name":"Am Bahnhof","postalCode":"63683","locality":"Ortenberg","municipality":{"key":"06440019","name":"Ortenberg, Stadt","type":"Stadt"},"district":{"key":"06440","name":"Wetteraukreis","type":"Landkreis"},"federalState":{"key":"06","name":"Hessen"}},{"name":"Am Berg","postalCode":"63683","locality":"Ortenberg","municipality":{"key":"06440019","name":"Ortenberg, Stadt","type":"Stadt"},"district":{"key":"06440","name":"Wetteraukreis","type":"Landkreis"},"federalState":{"key":"06","name":"Hessen"}},{"name":"Am Borngarten","postalCode":"63683","locality":"Ortenberg","municipality":{"key":"06440019","name":"Ortenberg, Stadt","type":"Stadt"},"district":{"key":"06440","name":"Wetteraukreis","type":"Landkreis"},"federalState":{"key":"06","name":"Hessen"}},{"name":"Am Dürren Berg","postalCode":"63683","locality":"Ortenberg","municipality":{"key":"06440019","name":"Ortenberg, Stadt","type":"Stadt"},"district":{"key":"06440","name":"Wetteraukreis","type":"Landkreis"},"federalState":{"key":"06","name":"Hessen"}},{"name":"Am Eichacker","postalCode":"63683","locality":"Ortenberg","municipality":{"key":"06440019","name":"Ortenberg, Stadt","type":"Stadt"},"district":{"key":"06440","name":"Wetteraukreis","type":"Landkreis"},"federalState":{"key":"06","name":"Hessen"}},{"name":"Am Frauenberg","postalCode":"63683","locality":"Ortenberg","municipality":{"key":"06440019","name":"Ortenberg, Stadt","type":"Stadt"},"district":{"key":"06440","name":"Wetteraukreis","type":"Landkreis"},"federalState":{"key":"06","name":"Hessen"}},{"name":"Am Frauenfeld","postalCode":"63683","locality":"Ortenberg","municipality":{"key":"06440019","name":"Ortenberg, Stadt","type":"Stadt"},"district":{"key":"06440","name":"Wetteraukreis","type":"Landkreis"},"federalState":{"key":"06","name":"Hessen"}},{"name":"Am Fuchsfeld","postalCode":"63683","locality":"Ortenberg","municipality":{"key":"06440019","name":"Ortenberg, Stadt","type":"Stadt"},"district":{"key":"06440","name":"Wetteraukreis","type":"Landkreis"},"federalState":{"key":"06","name":"Hessen"}},{"name":"Am Galgenberg","postalCode":"63683","locality":"Ortenberg","municipality":{"key":"06440019","name":"Ortenberg, Stadt","type":"Stadt"},"district":{"key":"06440","name":"Wetteraukreis","type":"Landkreis"},"federalState":{"key":"06","name":"Hessen"}},{"name":"Am Gansacker","postalCode":"63683","locality":"Ortenberg","municipality":{"key":"06440019","name":"Ortenberg, Stadt","type":"Stadt"},"district":{"key":"06440","name":"Wetteraukreis","type":"Landkreis"},"federalState":{"key":"06","name":"Hessen"}},{"name":"Am Grundrain","postalCode":"63683","locality":"Ortenberg","municipality":{"key":"06440019","name":"Ortenberg, Stadt","type":"Stadt"},"district":{"key":"06440","name":"Wetteraukreis","type":"Landkreis"},"federalState":{"key":"06","name":"Hessen"}},{"name":"Am Hardwald","postalCode":"63683","locality":"Ortenberg","municipality":{"key":"06440019","name":"Ortenberg, Stadt","type":"Stadt"},"district":{"key":"06440","name":"Wetteraukreis","type":"Landkreis"},"federalState":{"key":"06","name":"Hessen"}},{"name":"Am Kalkofen","postalCode":"63683","locality":"Ortenberg","municipality":{"key":"06440019","name":"Ortenberg, Stadt","type":"Stadt"},"district":{"key":"06440","name":"Wetteraukreis","type":"Landkreis"},"federalState":{"key":"06","name":"Hessen"}},{"name":"Am Klee-Eck","postalCode":"63683","locality":"Ortenberg","municipality":{"key":"06440019","name":"Ortenberg, Stadt","type":"Stadt"},"district":{"key":"06440","name":"Wetteraukreis","type":"Landkreis"},"federalState":{"key":"06","name":"Hessen"}},{"name":"Am Kloster","postalCode":"63683","locality":"Ortenberg","municipality":{"key":"06440019","name":"Ortenberg, Stadt","type":"Stadt"},"district":{"key":"06440","name":"Wetteraukreis","type":"Landkreis"},"federalState":{"key":"06","name":"Hessen"}},{"name":"Am Klosterwald","postalCode":"63683","locality":"Ortenberg","municipality":{"key":"06440019","name":"Ortenberg, Stadt","type":"Stadt"},"district":{"key":"06440","name":"Wetteraukreis","type":"Landkreis"},"federalState":{"key":"06","name":"Hessen"}},{"name":"Am Kreuzweg","postalCode":"63683","locality":"Ortenberg","municipality":{"key":"06440019","name":"Ortenberg, Stadt","type":"Stadt"},"district":{"key":"06440","name":"Wetteraukreis","type":"Landkreis"},"federalState":{"key":"06","name":"Hessen"}},{"name":"Am Langen Strich","postalCode":"63683","locality":"Ortenberg","municipality":{"key":"06440019","name":"Ortenberg, Stadt","type":"Stadt"},"district":{"key":"06440","name":"Wetteraukreis","type":"Landkreis"},"federalState":{"key":"06","name":"Hessen"}},{"name":"Am Lindenrain","postalCode":"63683","locality":"Ortenberg","municipality":{"key":"06440019","name":"Ortenberg, Stadt","type":"Stadt"},"district":{"key":"06440","name":"Wetteraukreis","type":"Landkreis"},"federalState":{"key":"06","name":"Hessen"}},{"name":"Am Lustgarten","postalCode":"63683","locality":"Ortenberg","municipality":{"key":"06440019","name":"Ortenberg, Stadt","type":"Stadt"},"district":{"key":"06440","name":"Wetteraukreis","type":"Landkreis"},"federalState":{"key":"06","name":"Hessen"}},{"name":"Am Marktplatz","postalCode":"77799","locality":"Ortenberg","municipality":{"key":"08317100","name":"Ortenberg","type":"Kreisangehörige_Gemeinde"},"district":{"key":"08317","name":"Ortenaukreis","type":"Landkreis"},"federalState":{"key":"08","name":"Baden-Württemberg"}},{"name":"Am Mühltor","postalCode":"63683","locality":"Ortenberg","municipality":{"key":"06440019","name":"Ortenberg, Stadt","type":"Stadt"},"district":{"key":"06440","name":"Wetteraukreis","type":"Landkreis"},"federalState":{"key":"06","name":"Hessen"}},{"name":"Am Peters Nußbaum","postalCode":"63683","locality":"Ortenberg","municipality":{"key":"06440019","name":"Ortenberg, Stadt","type":"Stadt"},"district":{"key":"06440","name":"Wetteraukreis","type":"Landkreis"},"federalState":{"key":"06","name":"Hessen"}},{"name":"Am Pfarrberg","postalCode":"63683","locality":"Ortenberg","municipality":{"key":"06440019","name":"Ortenberg, Stadt","type":"Stadt"},"district":{"key":"06440","name":"Wetteraukreis","type":"Landkreis"},"federalState":{"key":"06","name":"Hessen"}},{"name":"Am Scheuerberg","postalCode":"63683","locality":"Ortenberg","municipality":{"key":"06440019","name":"Ortenberg, Stadt","type":"Stadt"},"district":{"key":"06440","name":"Wetteraukreis","type":"Landkreis"},"federalState":{"key":"06","name":"Hessen"}},{"name":"Am Schloßberg","postalCode":"63683","locality":"Ortenberg","municipality":{"key":"06440019","name":"Ortenberg, Stadt","type":"Stadt"},"district":{"key":"06440","name":"Wetteraukreis","type":"Landkreis"},"federalState":{"key":"06","name":"Hessen"}},{"name":"Am Schloßberg","postalCode":"77799","locality":"Ortenberg","municipality":{"key":"08317100","name":"Ortenberg","type":"Kreisangehörige_Gemeinde"},"district":{"key":"08317","name":"Ortenaukreis","type":"Landkreis"},"federalState":{"key":"08","name":"Baden-Württemberg"}},{"name":"Am Sonnenhang","postalCode":"63683","locality":"Ortenberg","municipality":{"key":"06440019","name":"Ortenberg, Stadt","type":"Stadt"},"district":{"key":"06440","name":"Wetteraukreis","type":"Landkreis"},"federalState":{"key":"06","name":"Hessen"}},{"name":"Am Sportfeld","postalCode":"63683","locality":"Ortenberg","municipality":{"key":"06440019","name":"Ortenberg, Stadt","type":"Stadt"},"district":{"key":"06440","name":"Wetteraukreis","type":"Landkreis"},"federalState":{"key":"06","name":"Hessen"}},{"name":"Am St. Andreas","postalCode":"77799","locality":"Ortenberg","municipality":{"key":"08317100","name":"Ortenberg","type":"Kreisangehörige_Gemeinde"},"district":{"key":"08317","name":"Ortenaukreis","type":"Landkreis"},"federalState":{"key":"08","name":"Baden-Württemberg"}},{"name":"Am Stockberg","postalCode":"63683","locality":"Ortenberg","municipality":{"key":"06440019","name":"Ortenberg, Stadt","type":"Stadt"},"district":{"key":"06440","name":"Wetteraukreis","type":"Landkreis"},"federalState":{"key":"06","name":"Hessen"}},{"name":"Am Triesch","postalCode":"63683","locality":"Ortenberg","municipality":{"key":"06440019","name":"Ortenberg, Stadt","type":"Stadt"},"district":{"key":"06440","name":"Wetteraukreis","type":"Landkreis"},"federalState":{"key":"06","name":"Hessen"}},{"name":"Am Weidboden","postalCode":"63683","locality":"Ortenberg","municipality":{"key":"06440019","name":"Ortenberg, Stadt","type":"Stadt"},"district":{"key":"06440","name":"Wetteraukreis","type":"Landkreis"},"federalState":{"key":"06","name":"Hessen"}},{"name":"An der Hardt","postalCode":"63683","locality":"Ortenberg","municipality":{"key":"06440019","name":"Ortenberg, Stadt","type":"Stadt"},"district":{"key":"06440","name":"Wetteraukreis","type":"Landkreis"},"federalState":{"key":"06","name":"Hessen"}},{"name":"An der Sandkaute","postalCode":"63683","locality":"Ortenberg","municipality":{"key":"06440019","name":"Ortenberg, Stadt","type":"Stadt"},"district":{"key":"06440","name":"Wetteraukreis","type":"Landkreis"},"federalState":{"key":"06","name":"Hessen"}},{"name":"An der Ziegenwiese","postalCode":"63683","locality":"Ortenberg","municipality":{"key":"06440019","name":"Ortenberg, Stadt","type":"Stadt"},"district":{"key":"06440","name":"Wetteraukreis","type":"Landkreis"},"federalState":{"key":"06","name":"Hessen"}},{"name":"Auf dem Boden","postalCode":"63683","locality":"Ortenberg","municipality":{"key":"06440019","name":"Ortenberg, Stadt","type":"Stadt"},"district":{"key":"06440","name":"Wetteraukreis","type":"Landkreis"},"federalState":{"key":"06","name":"Hessen"}},{"name":"Auf den Krautgärten","postalCode":"63683","locality":"Ortenberg","municipality":{"key":"06440019","name":"Ortenberg, Stadt","type":"Stadt"},"district":{"key":"06440","name":"Wetteraukreis","type":"Landkreis"},"federalState":{"key":"06","name":"Hessen"}},{"name":"Außenliegend","postalCode":"63683","locality":"Ortenberg","municipality":{"key":"06440019","name":"Ortenberg, Stadt","type":"Stadt"},"district":{"key":"06440","name":"Wetteraukreis","type":"Landkreis"},"federalState":{"key":"06","name":"Hessen"}},{"name":"Bachweg","postalCode":"63683","locality":"Ortenberg","municipality":{"key":"06440019","name":"Ortenberg, Stadt","type":"Stadt"},"district":{"key":"06440","name":"Wetteraukreis","type":"Landkreis"},"federalState":{"key":"06","name":"Hessen"}},{"name":"Bahnhofstr.","postalCode":"63683","locality":"Ortenberg","municipality":{"key":"06440019","name":"Ortenberg, Stadt","type":"Stadt"},"district":{"key":"06440","name":"Wetteraukreis","type":"Landkreis"},"federalState":{"key":"06","name":"Hessen"}},{"name":"Bergheimer Str.","postalCode":"63683","locality":"Ortenberg","municipality":{"key":"06440019","name":"Ortenberg, Stadt","type":"Stadt"},"district":{"key":"06440","name":"Wetteraukreis","type":"Landkreis"},"federalState":{"key":"06","name":"Hessen"}},{"name":"Bergstr.","postalCode":"63683","locality":"Ortenberg","municipality":{"key":"06440019","name":"Ortenberg, Stadt","type":"Stadt"},"district":{"key":"06440","name":"Wetteraukreis","type":"Landkreis"},"federalState":{"key":"06","name":"Hessen"}},{"name":"Berliner Str.","postalCode":"63683","locality":"Ortenberg","municipality":{"key":"06440019","name":"Ortenberg, Stadt","type":"Stadt"},"district":{"key":"06440","name":"Wetteraukreis","type":"Landkreis"},"federalState":{"key":"06","name":"Hessen"}},{"name":"Berliner Str.;Am Peters-Nußbaum","postalCode":"63683","locality":"Ortenberg","municipality":{"key":"06440019","name":"Ortenberg, Stadt","type":"Stadt"},"district":{"key":"06440","name":"Wetteraukreis","type":"Landkreis"},"federalState":{"key":"06","name":"Hessen"}},{"name":"Bettenstr.","postalCode":"63683","locality":"Ortenberg","municipality":{"key":"06440019","name":"Ortenberg, Stadt","type":"Stadt"},"district":{"key":"06440","name":"Wetteraukreis","type":"Landkreis"},"federalState":{"key":"06","name":"Hessen"}},{"name":"Beuneweg","postalCode":"63683","locality":"Ortenberg","municipality":{"key":"06440019","name":"Ortenberg, Stadt","type":"Stadt"},"district":{"key":"06440","name":"Wetteraukreis","type":"Landkreis"},"federalState":{"key":"06","name":"Hessen"}},{"name":"Bierwegle","postalCode":"77799","locality":"Ortenberg","municipality":{"key":"08317100","name":"Ortenberg","type":"Kreisangehörige_Gemeinde"},"district":{"key":"08317","name":"Ortenaukreis","type":"Landkreis"},"federalState":{"key":"08","name":"Baden-Württemberg"}},{"name":"Bindsachser Str.","postalCode":"63683","locality":"Ortenberg","municipality":{"key":"06440019","name":"Ortenberg, Stadt","type":"Stadt"},"district":{"key":"06440","name":"Wetteraukreis","type":"Landkreis"},"federalState":{"key":"06","name":"Hessen"}},{"name":"Bleichenbacher Str.","postalCode":"63683","locality":"Ortenberg","municipality":{"key":"06440019","name":"Ortenberg, Stadt","type":"Stadt"},"district":{"key":"06440","name":"Wetteraukreis","type":"Landkreis"},"federalState":{"key":"06","name":"Hessen"}},{"name":"Bleichstr.","postalCode":"63683","locality":"Ortenberg","municipality":{"key":"06440019","name":"Ortenberg, Stadt","type":"Stadt"},"district":{"key":"06440","name":"Wetteraukreis","type":"Landkreis"},"federalState":{"key":"06","name":"Hessen"}},{"name":"Borngasse","postalCode":"63683","locality":"Ortenberg","municipality":{"key":"06440019","name":"Ortenberg, Stadt","type":"Stadt"},"district":{"key":"06440","name":"Wetteraukreis","type":"Landkreis"},"federalState":{"key":"06","name":"Hessen"}},{"name":"Bornwiesenweg","postalCode":"63683","locality":"Ortenberg","municipality":{"key":"06440019","name":"Ortenberg, Stadt","type":"Stadt"},"district":{"key":"06440","name":"Wetteraukreis","type":"Landkreis"},"federalState":{"key":"06","name":"Hessen"}},{"name":"Breitehaidsweg","postalCode":"63683","locality":"Ortenberg","municipality":{"key":"06440019","name":"Ortenberg, Stadt","type":"Stadt"},"district":{"key":"06440","name":"Wetteraukreis","type":"Landkreis"},"federalState":{"key":"06","name":"Hessen"}},{"name":"Breslauer Str.","postalCode":"63683","locality":"Ortenberg","municipality":{"key":"06440019","name":"Ortenberg, Stadt","type":"Stadt"},"district":{"key":"06440","name":"Wetteraukreis","type":"Landkreis"},"federalState":{"key":"06","name":"Hessen"}},{"name":"Bruchstr.","postalCode":"77799","locality":"Ortenberg","municipality":{"key":"08317100","name":"Ortenberg","type":"Kreisangehörige_Gemeinde"},"district":{"key":"08317","name":"Ortenaukreis","type":"Landkreis"},"federalState":{"key":"08","name":"Baden-Württemberg"}},{"name":"Brunnenstr.","postalCode":"63683","locality":"Ortenberg","municipality":{"key":"06440019","name":"Ortenberg, Stadt","type":"Stadt"},"district":{"key":"06440","name":"Wetteraukreis","type":"Landkreis"},"federalState":{"key":"06","name":"Hessen"}},{"name":"Buchenweg","postalCode":"63683","locality":"Ortenberg","municipality":{"key":"06440019","name":"Ortenberg, Stadt","type":"Stadt"},"district":{"key":"06440","name":"Wetteraukreis","type":"Landkreis"},"federalState":{"key":"06","name":"Hessen"}},{"name":"Bühlweg","postalCode":"77799","locality":"Ortenberg","municipality":{"key":"08317100","name":"Ortenberg","type":"Kreisangehörige_Gemeinde"},"district":{"key":"08317","name":"Ortenaukreis","type":"Landkreis"},"federalState":{"key":"08","name":"Baden-Württemberg"}},{"name":"Burgstr.","postalCode":"63683","locality":"Ortenberg","municipality":{"key":"06440019","name":"Ortenberg, Stadt","type":"Stadt"},"district":{"key":"06440","name":"Wetteraukreis","type":"Landkreis"},"federalState":{"key":"06","name":"Hessen"}},{"name":"Burgweg","postalCode":"77799","locality":"Ortenberg","municipality":{"key":"08317100","name":"Ortenberg","type":"Kreisangehörige_Gemeinde"},"district":{"key":"08317","name":"Ortenaukreis","type":"Landkreis"},"federalState":{"key":"08","name":"Baden-Württemberg"}},{"name":"Carl-Fries-Platz","postalCode":"63683","locality":"Ortenberg","municipality":{"key":"06440019","name":"Ortenberg, Stadt","type":"Stadt"},"district":{"key":"06440","name":"Wetteraukreis","type":"Landkreis"},"federalState":{"key":"06","name":"Hessen"}},{"name":"Danziger Str.","postalCode":"63683","locality":"Ortenberg","municipality":{"key":"06440019","name":"Ortenberg, Stadt","type":"Stadt"},"district":{"key":"06440","name":"Wetteraukreis","type":"Landkreis"},"federalState":{"key":"06","name":"Hessen"}},{"name":"Dorfplatz","postalCode":"77799","locality":"Ortenberg","municipality":{"key":"08317100","name":"Ortenberg","type":"Kreisangehörige_Gemeinde"},"district":{"key":"08317","name":"Ortenaukreis","type":"Landkreis"},"federalState":{"key":"08","name":"Baden-Württemberg"}},{"name":"Dr.-Hermann-Künanz-Str.","postalCode":"63683","locality":"Ortenberg","municipality":{"key":"06440019","name":"Ortenberg, Stadt","type":"Stadt"},"district":{"key":"06440","name":"Wetteraukreis","type":"Landkreis"},"federalState":{"key":"06","name":"Hessen"}},{"name":"Egerlandstr.","postalCode":"63683","locality":"Ortenberg","municipality":{"key":"06440019","name":"Ortenberg, Stadt","type":"Stadt"},"district":{"key":"06440","name":"Wetteraukreis","type":"Landkreis"},"federalState":{"key":"06","name":"Hessen"}},{"name":"Eichenweg","postalCode":"63683","locality":"Ortenberg","municipality":{"key":"06440019","name":"Ortenberg, Stadt","type":"Stadt"},"district":{"key":"06440","name":"Wetteraukreis","type":"Landkreis"},"federalState":{"key":"06","name":"Hessen"}},{"name":"Eichfeldstr.","postalCode":"63683","locality":"Ortenberg","municipality":{"key":"06440019","name":"Ortenberg, Stadt","type":"Stadt"},"district":{"key":"06440","name":"Wetteraukreis","type":"Landkreis"},"federalState":{"key":"06","name":"Hessen"}},{"name":"Ellenriederstr.","postalCode":"77799","locality":"Ortenberg","municipality":{"key":"08317100","name":"Ortenberg","type":"Kreisangehörige_Gemeinde"},"district":{"key":"08317","name":"Ortenaukreis","type":"Landkreis"},"federalState":{"key":"08","name":"Baden-Württemberg"}},{"name":"Erbsengasse","postalCode":"63683","locality":"Ortenberg","municipality":{"key":"06440019","name":"Ortenberg, Stadt","type":"Stadt"},"district":{"key":"06440","name":"Wetteraukreis","type":"Landkreis"},"federalState":{"key":"06","name":"Hessen"}},{"name":"Eschbachstr.","postalCode":"77799","locality":"Ortenberg","municipality":{"key":"08317100","name":"Ortenberg","type":"Kreisangehörige_Gemeinde"},"district":{"key":"08317","name":"Ortenaukreis","type":"Landkreis"},"federalState":{"key":"08","name":"Baden-Württemberg"}},{"name":"Eselsgasse","postalCode":"63683","locality":"Ortenberg","municipality":{"key":"06440019","name":"Ortenberg, Stadt","type":"Stadt"},"district":{"key":"06440","name":"Wetteraukreis","type":"Landkreis"},"federalState":{"key":"06","name":"Hessen"}},{"name":"Espenweg","postalCode":"63683","locality":"Ortenberg","municipality":{"key":"06440019","name":"Ortenberg, Stadt","type":"Stadt"},"district":{"key":"06440","name":"Wetteraukreis","type":"Landkreis"},"federalState":{"key":"06","name":"Hessen"}},{"name":"Eubertsweg","postalCode":"63683","locality":"Ortenberg","municipality":{"key":"06440019","name":"Ortenberg, Stadt","type":"Stadt"},"district":{"key":"06440","name":"Wetteraukreis","type":"Landkreis"},"federalState":{"key":"06","name":"Hessen"}},{"name":"Farrengasse","postalCode":"77799","locality":"Ortenberg","municipality":{"key":"08317100","name":"Ortenberg","type":"Kreisangehörige_Gemeinde"},"district":{"key":"08317","name":"Ortenaukreis","type":"Landkreis"},"federalState":{"key":"08","name":"Baden-Württemberg"}},{"name":"Felix-Burda-Park","postalCode":"77799","locality":"Ortenberg","municipality":{"key":"08317100","name":"Ortenberg","type":"Kreisangehörige_Gemeinde"},"district":{"key":"08317","name":"Ortenaukreis","type":"Landkreis"},"federalState":{"key":"08","name":"Baden-Württemberg"}},{"name":"Fessenbacher Weg","postalCode":"77799","locality":"Ortenberg","municipality":{"key":"08317100","name":"Ortenberg","type":"Kreisangehörige_Gemeinde"},"district":{"key":"08317","name":"Ortenaukreis","type":"Landkreis"},"federalState":{"key":"08","name":"Baden-Württemberg"}},{"name":"Forsthausstr.","postalCode":"63683","locality":"Ortenberg","municipality":{"key":"06440019","name":"Ortenberg, Stadt","type":"Stadt"},"district":{"key":"06440","name":"Wetteraukreis","type":"Landkreis"},"federalState":{"key":"06","name":"Hessen"}},{"name":"Forststr.","postalCode":"63683","locality":"Ortenberg","municipality":{"key":"06440019","name":"Ortenberg, Stadt","type":"Stadt"},"district":{"key":"06440","name":"Wetteraukreis","type":"Landkreis"},"federalState":{"key":"06","name":"Hessen"}},{"name":"Frankfurter Str.","postalCode":"63683","locality":"Ortenberg","municipality":{"key":"06440019","name":"Ortenberg, Stadt","type":"Stadt"},"district":{"key":"06440","name":"Wetteraukreis","type":"Landkreis"},"federalState":{"key":"06","name":"Hessen"}},{"name":"Freudental","postalCode":"77799","locality":"Ortenberg","municipality":{"key":"08317100","name":"Ortenberg","type":"Kreisangehörige_Gemeinde"},"district":{"key":"08317","name":"Ortenaukreis","type":"Landkreis"},"federalState":{"key":"08","name":"Baden-Württemberg"}},{"name":"Friederike-Renata Weg","postalCode":"63683","locality":"Ortenberg","municipality":{"key":"06440019","name":"Ortenberg, Stadt","type":"Stadt"},"district":{"key":"06440","name":"Wetteraukreis","type":"Landkreis"},"federalState":{"key":"06","name":"Hessen"}},{"name":"Friedhofstr.","postalCode":"63683","locality":"Ortenberg","municipality":{"key":"06440019","name":"Ortenberg, Stadt","type":"Stadt"},"district":{"key":"06440","name":"Wetteraukreis","type":"Landkreis"},"federalState":{"key":"06","name":"Hessen"}},{"name":"Fröschlach","postalCode":"77799","locality":"Ortenberg","municipality":{"key":"08317100","name":"Ortenberg","type":"Kreisangehörige_Gemeinde"},"district":{"key":"08317","name":"Ortenaukreis","type":"Landkreis"},"federalState":{"key":"08","name":"Baden-Württemberg"}},{"name":"Gartenstr.","postalCode":"63683","locality":"Ortenberg","municipality":{"key":"06440019","name":"Ortenberg, Stadt","type":"Stadt"},"district":{"key":"06440","name":"Wetteraukreis","type":"Landkreis"},"federalState":{"key":"06","name":"Hessen"}},{"name":"Gartenstr.","postalCode":"77799","locality":"Ortenberg","municipality":{"key":"08317100","name":"Ortenberg","type":"Kreisangehörige_Gemeinde"},"district":{"key":"08317","name":"Ortenaukreis","type":"Landkreis"},"federalState":{"key":"08","name":"Baden-Württemberg"}},{"name":"Gartenweg","postalCode":"63683","locality":"Ortenberg","municipality":{"key":"06440019","name":"Ortenberg, Stadt","type":"Stadt"},"district":{"key":"06440","name":"Wetteraukreis","type":"Landkreis"},"federalState":{"key":"06","name":"Hessen"}},{"name":"Geröllstr.","postalCode":"63683","locality":"Ortenberg","municipality":{"key":"06440019","name":"Ortenberg, Stadt","type":"Stadt"},"district":{"key":"06440","name":"Wetteraukreis","type":"Landkreis"},"federalState":{"key":"06","name":"Hessen"}},{"name":"Glauburgstr.","postalCode":"63683","locality":"Ortenberg","municipality":{"key":"06440019","name":"Ortenberg, Stadt","type":"Stadt"},"district":{"key":"06440","name":"Wetteraukreis","type":"Landkreis"},"federalState":{"key":"06","name":"Hessen"}},{"name":"Gräfenortstr.","postalCode":"63683","locality":"Ortenberg","municipality":{"key":"06440019","name":"Ortenberg, Stadt","type":"Stadt"},"district":{"key":"06440","name":"Wetteraukreis","type":"Landkreis"},"federalState":{"key":"06","name":"Hessen"}},{"name":"Hammerweg","postalCode":"63683","locality":"Ortenberg","municipality":{"key":"06440019","name":"Ortenberg, Stadt","type":"Stadt"},"district":{"key":"06440","name":"Wetteraukreis","type":"Landkreis"},"federalState":{"key":"06","name":"Hessen"}},{"name":"Hanauer Str.","postalCode":"63683","locality":"Ortenberg","municipality":{"key":"06440019","name":"Ortenberg, Stadt","type":"Stadt"},"district":{"key":"06440","name":"Wetteraukreis","type":"Landkreis"},"federalState":{"key":"06","name":"Hessen"}},{"name":"Hangstr.","postalCode":"63683","locality":"Ortenberg","municipality":{"key":"06440019","name":"Ortenberg, Stadt","type":"Stadt"},"district":{"key":"06440","name":"Wetteraukreis","type":"Landkreis"},"federalState":{"key":"06","name":"Hessen"}},{"name":"Haselecke","postalCode":"63683","locality":"Ortenberg","municipality":{"key":"06440019","name":"Ortenberg, Stadt","type":"Stadt"},"district":{"key":"06440","name":"Wetteraukreis","type":"Landkreis"},"federalState":{"key":"06","name":"Hessen"}},{"name":"Hauptstr.","postalCode":"63683","locality":"Ortenberg","municipality":{"key":"06440019","name":"Ortenberg, Stadt","type":"Stadt"},"district":{"key":"06440","name":"Wetteraukreis","type":"Landkreis"},"federalState":{"key":"06","name":"Hessen"}},{"name":"Hauptstr.","postalCode":"77799","locality":"Ortenberg","municipality":{"key":"08317100","name":"Ortenberg","type":"Kreisangehörige_Gemeinde"},"district":{"key":"08317","name":"Ortenaukreis","type":"Landkreis"},"federalState":{"key":"08","name":"Baden-Württemberg"}},{"name":"Heidengasse","postalCode":"77799","locality":"Ortenberg","municipality":{"key":"08317100","name":"Ortenberg","type":"Kreisangehörige_Gemeinde"},"district":{"key":"08317","name":"Ortenaukreis","type":"Landkreis"},"federalState":{"key":"08","name":"Baden-Württemberg"}},{"name":"Hellergasse","postalCode":"63683","locality":"Ortenberg","municipality":{"key":"06440019","name":"Ortenberg, Stadt","type":"Stadt"},"district":{"key":"06440","name":"Wetteraukreis","type":"Landkreis"},"federalState":{"key":"06","name":"Hessen"}},{"name":"Herrngartenweg","postalCode":"63683","locality":"Ortenberg","municipality":{"key":"06440019","name":"Ortenberg, Stadt","type":"Stadt"},"district":{"key":"06440","name":"Wetteraukreis","type":"Landkreis"},"federalState":{"key":"06","name":"Hessen"}},{"name":"Hessleweg","postalCode":"77799","locality":"Ortenberg","municipality":{"key":"08317100","name":"Ortenberg","type":"Kreisangehörige_Gemeinde"},"district":{"key":"08317","name":"Ortenaukreis","type":"Landkreis"},"federalState":{"key":"08","name":"Baden-Württemberg"}},{"name":"Hillersbachstr.","postalCode":"63683","locality":"Ortenberg","municipality":{"key":"06440019","name":"Ortenberg, Stadt","type":"Stadt"},"district":{"key":"06440","name":"Wetteraukreis","type":"Landkreis"},"federalState":{"key":"06","name":"Hessen"}},{"name":"Hinterer Burgweg","postalCode":"77799","locality":"Ortenberg","municipality":{"key":"08317100","name":"Ortenberg","type":"Kreisangehörige_Gemeinde"},"district":{"key":"08317","name":"Ortenaukreis","type":"Landkreis"},"federalState":{"key":"08","name":"Baden-Württemberg"}},{"name":"Hirzenhainer Str.","postalCode":"63683","locality":"Ortenberg","municipality":{"key":"06440019","name":"Ortenberg, Stadt","type":"Stadt"},"district":{"key":"06440","name":"Wetteraukreis","type":"Landkreis"},"federalState":{"key":"06","name":"Hessen"}},{"name":"Höhenstr.","postalCode":"63683","locality":"Ortenberg","municipality":{"key":"06440019","name":"Ortenberg, Stadt","type":"Stadt"},"district":{"key":"06440","name":"Wetteraukreis","type":"Landkreis"},"federalState":{"key":"06","name":"Hessen"}},{"name":"Hundweg","postalCode":"77799","locality":"Ortenberg","municipality":{"key":"08317100","name":"Ortenberg","type":"Kreisangehörige_Gemeinde"},"district":{"key":"08317","name":"Ortenaukreis","type":"Landkreis"},"federalState":{"key":"08","name":"Baden-Württemberg"}},{"name":"Im Bleichetal","postalCode":"63683","locality":"Ortenberg","municipality":{"key":"06440019","name":"Ortenberg, Stadt","type":"Stadt"},"district":{"key":"06440","name":"Wetteraukreis","type":"Landkreis"},"federalState":{"key":"06","name":"Hessen"}},{"name":"Im Buchwald","postalCode":"63683","locality":"Ortenberg","municipality":{"key":"06440019","name":"Ortenberg, Stadt","type":"Stadt"},"district":{"key":"06440","name":"Wetteraukreis","type":"Landkreis"},"federalState":{"key":"06","name":"Hessen"}},{"name":"Im Griesacker","postalCode":"77799","locality":"Ortenberg","municipality":{"key":"08317100","name":"Ortenberg","type":"Kreisangehörige_Gemeinde"},"district":{"key":"08317","name":"Ortenaukreis","type":"Landkreis"},"federalState":{"key":"08","name":"Baden-Württemberg"}},{"name":"Im Kleinen Weinberg","postalCode":"63683","locality":"Ortenberg","municipality":{"key":"06440019","name":"Ortenberg, Stadt","type":"Stadt"},"district":{"key":"06440","name":"Wetteraukreis","type":"Landkreis"},"federalState":{"key":"06","name":"Hessen"}},{"name":"Im Lindle","postalCode":"77799","locality":"Ortenberg","municipality":{"key":"08317100","name":"Ortenberg","type":"Kreisangehörige_Gemeinde"},"district":{"key":"08317","name":"Ortenaukreis","type":"Landkreis"},"federalState":{"key":"08","name":"Baden-Württemberg"}},{"name":"Im Muhrfeld","postalCode":"77799","locality":"Ortenberg","municipality":{"key":"08317100","name":"Ortenberg","type":"Kreisangehörige_Gemeinde"},"district":{"key":"08317","name":"Ortenaukreis","type":"Landkreis"},"federalState":{"key":"08","name":"Baden-Württemberg"}},{"name":"Im Oberdorf","postalCode":"63683","locality":"Ortenberg","municipality":{"key":"06440019","name":"Ortenberg, Stadt","type":"Stadt"},"district":{"key":"06440","name":"Wetteraukreis","type":"Landkreis"},"federalState":{"key":"06","name":"Hessen"}},{"name":"Im Pfad","postalCode":"77799","locality":"Ortenberg","municipality":{"key":"08317100","name":"Ortenberg","type":"Kreisangehörige_Gemeinde"},"district":{"key":"08317","name":"Ortenaukreis","type":"Landkreis"},"federalState":{"key":"08","name":"Baden-Württemberg"}},{"name":"Im Pfannenstiel","postalCode":"77799","locality":"Ortenberg","municipality":{"key":"08317100","name":"Ortenberg","type":"Kreisangehörige_Gemeinde"},"district":{"key":"08317","name":"Ortenaukreis","type":"Landkreis"},"federalState":{"key":"08","name":"Baden-Württemberg"}},{"name":"Im Schafgarten","postalCode":"63683","locality":"Ortenberg","municipality":{"key":"06440019","name":"Ortenberg, Stadt","type":"Stadt"},"district":{"key":"06440","name":"Wetteraukreis","type":"Landkreis"},"federalState":{"key":"06","name":"Hessen"}},{"name":"Im Sommerhäldele","postalCode":"77799","locality":"Ortenberg","municipality":{"key":"08317100","name":"Ortenberg","type":"Kreisangehörige_Gemeinde"},"district":{"key":"08317","name":"Ortenaukreis","type":"Landkreis"},"federalState":{"key":"08","name":"Baden-Württemberg"}},{"name":"Im Thorgarten","postalCode":"63683","locality":"Ortenberg","municipality":{"key":"06440019","name":"Ortenberg, Stadt","type":"Stadt"},"district":{"key":"06440","name":"Wetteraukreis","type":"Landkreis"},"federalState":{"key":"06","name":"Hessen"}},{"name":"Im Unterdorf","postalCode":"63683","locality":"Ortenberg","municipality":{"key":"06440019","name":"Ortenberg, Stadt","type":"Stadt"},"district":{"key":"06440","name":"Wetteraukreis","type":"Landkreis"},"federalState":{"key":"06","name":"Hessen"}},{"name":"Im Völlchen","postalCode":"63683","locality":"Ortenberg","municipality":{"key":"06440019","name":"Ortenberg, Stadt","type":"Stadt"},"district":{"key":"06440","name":"Wetteraukreis","type":"Landkreis"},"federalState":{"key":"06","name":"Hessen"}},{"name":"Im Weizenfeld","postalCode":"77799","locality":"Ortenberg","municipality":{"key":"08317100","name":"Ortenberg","type":"Kreisangehörige_Gemeinde"},"district":{"key":"08317","name":"Ortenaukreis","type":"Landkreis"},"federalState":{"key":"08","name":"Baden-Württemberg"}},{"name":"Im Winkel","postalCode":"77799","locality":"Ortenberg","municipality":{"key":"08317100","name":"Ortenberg","type":"Kreisangehörige_Gemeinde"},"district":{"key":"08317","name":"Ortenaukreis","type":"Landkreis"},"federalState":{"key":"08","name":"Baden-Württemberg"}},{"name":"In den Bangertsgärten","postalCode":"63683","locality":"Ortenberg","municipality":{"key":"06440019","name":"Ortenberg, Stadt","type":"Stadt"},"district":{"key":"06440","name":"Wetteraukreis","type":"Landkreis"},"federalState":{"key":"06","name":"Hessen"}},{"name":"In den Hebegärten","postalCode":"63683","locality":"Ortenberg","municipality":{"key":"06440019","name":"Ortenberg, Stadt","type":"Stadt"},"district":{"key":"06440","name":"Wetteraukreis","type":"Landkreis"},"federalState":{"key":"06","name":"Hessen"}},{"name":"In den Rosengärten","postalCode":"63683","locality":"Ortenberg","municipality":{"key":"06440019","name":"Ortenberg, Stadt","type":"Stadt"},"district":{"key":"06440","name":"Wetteraukreis","type":"Landkreis"},"federalState":{"key":"06","name":"Hessen"}},{"name":"In den Sandwiesen","postalCode":"63683","locality":"Ortenberg","municipality":{"key":"06440019","name":"Ortenberg, Stadt","type":"Stadt"},"district":{"key":"06440","name":"Wetteraukreis","type":"Landkreis"},"federalState":{"key":"06","name":"Hessen"}},{"name":"In den St. Wendelsgärten","postalCode":"63683","locality":"Ortenberg","municipality":{"key":"06440019","name":"Ortenberg, Stadt","type":"Stadt"},"district":{"key":"06440","name":"Wetteraukreis","type":"Landkreis"},"federalState":{"key":"06","name":"Hessen"}},{"name":"In den Wiesengärten","postalCode":"63683","locality":"Ortenberg","municipality":{"key":"06440019","name":"Ortenberg, Stadt","type":"Stadt"},"district":{"key":"06440","name":"Wetteraukreis","type":"Landkreis"},"federalState":{"key":"06","name":"Hessen"}},{"name":"In den Wingerten","postalCode":"63683","locality":"Ortenberg","municipality":{"key":"06440019","name":"Ortenberg, Stadt","type":"Stadt"},"district":{"key":"06440","name":"Wetteraukreis","type":"Landkreis"},"federalState":{"key":"06","name":"Hessen"}},{"name":"In der Burg","postalCode":"63683","locality":"Ortenberg","municipality":{"key":"06440019","name":"Ortenberg, Stadt","type":"Stadt"},"district":{"key":"06440","name":"Wetteraukreis","type":"Landkreis"},"federalState":{"key":"06","name":"Hessen"}},{"name":"In der Gründ","postalCode":"77799","locality":"Ortenberg","municipality":{"key":"08317100","name":"Ortenberg","type":"Kreisangehörige_Gemeinde"},"district":{"key":"08317","name":"Ortenaukreis","type":"Landkreis"},"federalState":{"key":"08","name":"Baden-Württemberg"}},{"name":"In der Hahnbach","postalCode":"63683","locality":"Ortenberg","municipality":{"key":"06440019","name":"Ortenberg, Stadt","type":"Stadt"},"district":{"key":"06440","name":"Wetteraukreis","type":"Landkreis"},"federalState":{"key":"06","name":"Hessen"}},{"name":"In der Lache","postalCode":"63683","locality":"Ortenberg","municipality":{"key":"06440019","name":"Ortenberg, Stadt","type":"Stadt"},"district":{"key":"06440","name":"Wetteraukreis","type":"Landkreis"},"federalState":{"key":"06","name":"Hessen"}},{"name":"In der Mark","postalCode":"63683","locality":"Ortenberg","municipality":{"key":"06440019","name":"Ortenberg, Stadt","type":"Stadt"},"district":{"key":"06440","name":"Wetteraukreis","type":"Landkreis"},"federalState":{"key":"06","name":"Hessen"}},{"name":"Jahnstr.","postalCode":"63683","locality":"Ortenberg","municipality":{"key":"06440019","name":"Ortenberg, Stadt","type":"Stadt"},"district":{"key":"06440","name":"Wetteraukreis","type":"Landkreis"},"federalState":{"key":"06","name":"Hessen"}},{"name":"Joseph-Vollmer-Str.","postalCode":"77799","locality":"Ortenberg","municipality":{"key":"08317100","name":"Ortenberg","type":"Kreisangehörige_Gemeinde"},"district":{"key":"08317","name":"Ortenaukreis","type":"Landkreis"},"federalState":{"key":"08","name":"Baden-Württemberg"}},{"name":"Käfersbergweg","postalCode":"77799","locality":"Ortenberg","municipality":{"key":"08317100","name":"Ortenberg","type":"Kreisangehörige_Gemeinde"},"district":{"key":"08317","name":"Ortenaukreis","type":"Landkreis"},"federalState":{"key":"08","name":"Baden-Württemberg"}},{"name":"Kaiserweg","postalCode":"63683","locality":"Ortenberg","municipality":{"key":"06440019","name":"Ortenberg, Stadt","type":"Stadt"},"district":{"key":"06440","name":"Wetteraukreis","type":"Landkreis"},"federalState":{"key":"06","name":"Hessen"}},{"name":"Karl-Hofmann-Str.","postalCode":"63683","locality":"Ortenberg","municipality":{"key":"06440019","name":"Ortenberg, Stadt","type":"Stadt"},"district":{"key":"06440","name":"Wetteraukreis","type":"Landkreis"},"federalState":{"key":"06","name":"Hessen"}},{"name":"Kasinostr.","postalCode":"63683","locality":"Ortenberg","municipality":{"key":"06440019","name":"Ortenberg, Stadt","type":"Stadt"},"district":{"key":"06440","name":"Wetteraukreis","type":"Landkreis"},"federalState":{"key":"06","name":"Hessen"}},{"name":"Kinzigdamm","postalCode":"77799","locality":"Ortenberg","municipality":{"key":"08317100","name":"Ortenberg","type":"Kreisangehörige_Gemeinde"},"district":{"key":"08317","name":"Ortenaukreis","type":"Landkreis"},"federalState":{"key":"08","name":"Baden-Württemberg"}},{"name":"Kinzigtalstr.","postalCode":"77799","locality":"Ortenberg","municipality":{"key":"08317100","name":"Ortenberg","type":"Kreisangehörige_Gemeinde"},"district":{"key":"08317","name":"Ortenaukreis","type":"Landkreis"},"federalState":{"key":"08","name":"Baden-Württemberg"}},{"name":"Kirchgasse","postalCode":"63683","locality":"Ortenberg","municipality":{"key":"06440019","name":"Ortenberg, Stadt","type":"Stadt"},"district":{"key":"06440","name":"Wetteraukreis","type":"Landkreis"},"federalState":{"key":"06","name":"Hessen"}},{"name":"Kleine Gasse","postalCode":"77799","locality":"Ortenberg","municipality":{"key":"08317100","name":"Ortenberg","type":"Kreisangehörige_Gemeinde"},"district":{"key":"08317","name":"Ortenaukreis","type":"Landkreis"},"federalState":{"key":"08","name":"Baden-Württemberg"}},{"name":"Kleine Mühlgasse","postalCode":"63683","locality":"Ortenberg","municipality":{"key":"06440019","name":"Ortenberg, Stadt","type":"Stadt"},"district":{"key":"06440","name":"Wetteraukreis","type":"Landkreis"},"federalState":{"key":"06","name":"Hessen"}},{"name":"Kleiner Hundweg","postalCode":"77799","locality":"Ortenberg","municipality":{"key":"08317100","name":"Ortenberg","type":"Kreisangehörige_Gemeinde"},"district":{"key":"08317","name":"Ortenaukreis","type":"Landkreis"},"federalState":{"key":"08","name":"Baden-Württemberg"}},{"name":"Klostergasse","postalCode":"63683","locality":"Ortenberg","municipality":{"key":"06440019","name":"Ortenberg, Stadt","type":"Stadt"},"district":{"key":"06440","name":"Wetteraukreis","type":"Landkreis"},"federalState":{"key":"06","name":"Hessen"}},{"name":"Klosterstr.","postalCode":"63683","locality":"Ortenberg","municipality":{"key":"06440019","name":"Ortenberg, Stadt","type":"Stadt"},"district":{"key":"06440","name":"Wetteraukreis","type":"Landkreis"},"federalState":{"key":"06","name":"Hessen"}},{"name":"Kneippstr.","postalCode":"63683","locality":"Ortenberg","municipality":{"key":"06440019","name":"Ortenberg, Stadt","type":"Stadt"},"district":{"key":"06440","name":"Wetteraukreis","type":"Landkreis"},"federalState":{"key":"06","name":"Hessen"}},{"name":"Kochgässle","postalCode":"77799","locality":"Ortenberg","municipality":{"key":"08317100","name":"Ortenberg","type":"Kreisangehörige_Gemeinde"},"district":{"key":"08317","name":"Ortenaukreis","type":"Landkreis"},"federalState":{"key":"08","name":"Baden-Württemberg"}},{"name":"Köhlerstr.","postalCode":"63683","locality":"Ortenberg","municipality":{"key":"06440019","name":"Ortenberg, Stadt","type":"Stadt"},"district":{"key":"06440","name":"Wetteraukreis","type":"Landkreis"},"federalState":{"key":"06","name":"Hessen"}},{"name":"Konradsdorfer Str.","postalCode":"63683","locality":"Ortenberg","municipality":{"key":"06440019","name":"Ortenberg, Stadt","type":"Stadt"},"district":{"key":"06440","name":"Wetteraukreis","type":"Landkreis"},"federalState":{"key":"06","name":"Hessen"}},{"name":"Köppelweg","postalCode":"63683","locality":"Ortenberg","municipality":{"key":"06440019","name":"Ortenberg, Stadt","type":"Stadt"},"district":{"key":"06440","name":"Wetteraukreis","type":"Landkreis"},"federalState":{"key":"06","name":"Hessen"}},{"name":"Kronen Kreisel","postalCode":"77799","locality":"Ortenberg","municipality":{"key":"08317100","name":"Ortenberg","type":"Kreisangehörige_Gemeinde"},"district":{"key":"08317","name":"Ortenaukreis","type":"Landkreis"},"federalState":{"key":"08","name":"Baden-Württemberg"}},{"name":"Kurze Gasse","postalCode":"63683","locality":"Ortenberg","municipality":{"key":"06440019","name":"Ortenberg, Stadt","type":"Stadt"},"district":{"key":"06440","name":"Wetteraukreis","type":"Landkreis"},"federalState":{"key":"06","name":"Hessen"}},{"name":"Lauterbacher Str.","postalCode":"63683","locality":"Ortenberg","municipality":{"key":"06440019","name":"Ortenberg, Stadt","type":"Stadt"},"district":{"key":"06440","name":"Wetteraukreis","type":"Landkreis"},"federalState":{"key":"06","name":"Hessen"}},{"name":"Lindenweg","postalCode":"63683","locality":"Ortenberg","municipality":{"key":"06440019","name":"Ortenberg, Stadt","type":"Stadt"},"district":{"key":"06440","name":"Wetteraukreis","type":"Landkreis"},"federalState":{"key":"06","name":"Hessen"}},{"name":"Lißberger Str.","postalCode":"63683","locality":"Ortenberg","municipality":{"key":"06440019","name":"Ortenberg, Stadt","type":"Stadt"},"district":{"key":"06440","name":"Wetteraukreis","type":"Landkreis"},"federalState":{"key":"06","name":"Hessen"}},{"name":"Ludwig-Pfeiffer-Str.","postalCode":"63683","locality":"Ortenberg","municipality":{"key":"06440019","name":"Ortenberg, Stadt","type":"Stadt"},"district":{"key":"06440","name":"Wetteraukreis","type":"Landkreis"},"federalState":{"key":"06","name":"Hessen"}},{"name":"Ludwigstr.","postalCode":"63683","locality":"Ortenberg","municipality":{"key":"06440019","name":"Ortenberg, Stadt","type":"Stadt"},"district":{"key":"06440","name":"Wetteraukreis","type":"Landkreis"},"federalState":{"key":"06","name":"Hessen"}},{"name":"Marien-Kirchgasse","postalCode":"63683","locality":"Ortenberg","municipality":{"key":"06440019","name":"Ortenberg, Stadt","type":"Stadt"},"district":{"key":"06440","name":"Wetteraukreis","type":"Landkreis"},"federalState":{"key":"06","name":"Hessen"}},{"name":"Marktmeister-Zahn-Brücke","postalCode":"63683","locality":"Ortenberg","municipality":{"key":"06440019","name":"Ortenberg, Stadt","type":"Stadt"},"district":{"key":"06440","name":"Wetteraukreis","type":"Landkreis"},"federalState":{"key":"06","name":"Hessen"}},{"name":"Merzbergstr.","postalCode":"63683","locality":"Ortenberg","municipality":{"key":"06440019","name":"Ortenberg, Stadt","type":"Stadt"},"district":{"key":"06440","name":"Wetteraukreis","type":"Landkreis"},"federalState":{"key":"06","name":"Hessen"}},{"name":"Millionenweg","postalCode":"63683","locality":"Ortenberg","municipality":{"key":"06440019","name":"Ortenberg, Stadt","type":"Stadt"},"district":{"key":"06440","name":"Wetteraukreis","type":"Landkreis"},"federalState":{"key":"06","name":"Hessen"}},{"name":"Mittelgasse","postalCode":"63683","locality":"Ortenberg","municipality":{"key":"06440019","name":"Ortenberg, Stadt","type":"Stadt"},"district":{"key":"06440","name":"Wetteraukreis","type":"Landkreis"},"federalState":{"key":"06","name":"Hessen"}},{"name":"Mittelstr.","postalCode":"63683","locality":"Ortenberg","municipality":{"key":"06440019","name":"Ortenberg, Stadt","type":"Stadt"},"district":{"key":"06440","name":"Wetteraukreis","type":"Landkreis"},"federalState":{"key":"06","name":"Hessen"}},{"name":"Mittlere Mark","postalCode":"63683","locality":"Ortenberg","municipality":{"key":"06440019","name":"Ortenberg, Stadt","type":"Stadt"},"district":{"key":"06440","name":"Wetteraukreis","type":"Landkreis"},"federalState":{"key":"06","name":"Hessen"}},{"name":"Mühlenweg","postalCode":"63683","locality":"Ortenberg","municipality":{"key":"06440019","name":"Ortenberg, Stadt","type":"Stadt"},"district":{"key":"06440","name":"Wetteraukreis","type":"Landkreis"},"federalState":{"key":"06","name":"Hessen"}},{"name":"Mühlgasse","postalCode":"63683","locality":"Ortenberg","municipality":{"key":"06440019","name":"Ortenberg, Stadt","type":"Stadt"},"district":{"key":"06440","name":"Wetteraukreis","type":"Landkreis"},"federalState":{"key":"06","name":"Hessen"}},{"name":"Neudorfweg","postalCode":"63683","locality":"Ortenberg","municipality":{"key":"06440019","name":"Ortenberg, Stadt","type":"Stadt"},"district":{"key":"06440","name":"Wetteraukreis","type":"Landkreis"},"federalState":{"key":"06","name":"Hessen"}},{"name":"Neue Hanauer Str.","postalCode":"63683","locality":"Ortenberg","municipality":{"key":"06440019","name":"Ortenberg, Stadt","type":"Stadt"},"district":{"key":"06440","name":"Wetteraukreis","type":"Landkreis"},"federalState":{"key":"06","name":"Hessen"}},{"name":"Neuer Markt","postalCode":"63683","locality":"Ortenberg","municipality":{"key":"06440019","name":"Ortenberg, Stadt","type":"Stadt"},"district":{"key":"06440","name":"Wetteraukreis","type":"Landkreis"},"federalState":{"key":"06","name":"Hessen"}},{"name":"Neuer Weg","postalCode":"63683","locality":"Ortenberg","municipality":{"key":"06440019","name":"Ortenberg, Stadt","type":"Stadt"},"district":{"key":"06440","name":"Wetteraukreis","type":"Landkreis"},"federalState":{"key":"06","name":"Hessen"}},{"name":"Neuer Weg","postalCode":"77799","locality":"Ortenberg","municipality":{"key":"08317100","name":"Ortenberg","type":"Kreisangehörige_Gemeinde"},"district":{"key":"08317","name":"Ortenaukreis","type":"Landkreis"},"federalState":{"key":"08","name":"Baden-Württemberg"}},{"name":"Neue Schulstr.","postalCode":"63683","locality":"Ortenberg","municipality":{"key":"06440019","name":"Ortenberg, Stadt","type":"Stadt"},"district":{"key":"06440","name":"Wetteraukreis","type":"Landkreis"},"federalState":{"key":"06","name":"Hessen"}},{"name":"Neue Str.","postalCode":"63683","locality":"Ortenberg","municipality":{"key":"06440019","name":"Ortenberg, Stadt","type":"Stadt"},"district":{"key":"06440","name":"Wetteraukreis","type":"Landkreis"},"federalState":{"key":"06","name":"Hessen"}},{"name":"Nidderstr.","postalCode":"63683","locality":"Ortenberg","municipality":{"key":"06440019","name":"Ortenberg, Stadt","type":"Stadt"},"district":{"key":"06440","name":"Wetteraukreis","type":"Landkreis"},"federalState":{"key":"06","name":"Hessen"}},{"name":"Niddertalstr.","postalCode":"63683","locality":"Ortenberg","municipality":{"key":"06440019","name":"Ortenberg, Stadt","type":"Stadt"},"district":{"key":"06440","name":"Wetteraukreis","type":"Landkreis"},"federalState":{"key":"06","name":"Hessen"}},{"name":"Oberdorfstr.","postalCode":"63683","locality":"Ortenberg","municipality":{"key":"06440019","name":"Ortenberg, Stadt","type":"Stadt"},"district":{"key":"06440","name":"Wetteraukreis","type":"Landkreis"},"federalState":{"key":"06","name":"Hessen"}},{"name":"Obere Lache","postalCode":"63683","locality":"Ortenberg","municipality":{"key":"06440019","name":"Ortenberg, Stadt","type":"Stadt"},"district":{"key":"06440","name":"Wetteraukreis","type":"Landkreis"},"federalState":{"key":"06","name":"Hessen"}},{"name":"Obere Mark","postalCode":"63683","locality":"Ortenberg","municipality":{"key":"06440019","name":"Ortenberg, Stadt","type":"Stadt"},"district":{"key":"06440","name":"Wetteraukreis","type":"Landkreis"},"federalState":{"key":"06","name":"Hessen"}},{"name":"Obere Matt","postalCode":"77799","locality":"Ortenberg","municipality":{"key":"08317100","name":"Ortenberg","type":"Kreisangehörige_Gemeinde"},"district":{"key":"08317","name":"Ortenaukreis","type":"Landkreis"},"federalState":{"key":"08","name":"Baden-Württemberg"}},{"name":"Obere Steine","postalCode":"77799","locality":"Ortenberg","municipality":{"key":"08317100","name":"Ortenberg","type":"Kreisangehörige_Gemeinde"},"district":{"key":"08317","name":"Ortenaukreis","type":"Landkreis"},"federalState":{"key":"08","name":"Baden-Württemberg"}},{"name":"Obergasse","postalCode":"63683","locality":"Ortenberg","municipality":{"key":"06440019","name":"Ortenberg, Stadt","type":"Stadt"},"district":{"key":"06440","name":"Wetteraukreis","type":"Landkreis"},"federalState":{"key":"06","name":"Hessen"}},{"name":"Offenburger Str.","postalCode":"77799","locality":"Ortenberg","municipality":{"key":"08317100","name":"Ortenberg","type":"Kreisangehörige_Gemeinde"},"district":{"key":"08317","name":"Ortenaukreis","type":"Landkreis"},"federalState":{"key":"08","name":"Baden-Württemberg"}},{"name":"Ortenberger Str.","postalCode":"63683","locality":"Ortenberg","municipality":{"key":"06440019","name":"Ortenberg, Stadt","type":"Stadt"},"district":{"key":"06440","name":"Wetteraukreis","type":"Landkreis"},"federalState":{"key":"06","name":"Hessen"}},{"name":"Pfarrer-Koch-Str.","postalCode":"63683","locality":"Ortenberg","municipality":{"key":"06440019","name":"Ortenberg, Stadt","type":"Stadt"},"district":{"key":"06440","name":"Wetteraukreis","type":"Landkreis"},"federalState":{"key":"06","name":"Hessen"}},{"name":"Pfarrgasse","postalCode":"63683","locality":"Ortenberg","municipality":{"key":"06440019","name":"Ortenberg, Stadt","type":"Stadt"},"district":{"key":"06440","name":"Wetteraukreis","type":"Landkreis"},"federalState":{"key":"06","name":"Hessen"}},{"name":"Pfarrstr.","postalCode":"63683","locality":"Ortenberg","municipality":{"key":"06440019","name":"Ortenberg, Stadt","type":"Stadt"},"district":{"key":"06440","name":"Wetteraukreis","type":"Landkreis"},"federalState":{"key":"06","name":"Hessen"}},{"name":"Pflanzenländer Weg","postalCode":"63683","locality":"Ortenberg","municipality":{"key":"06440019","name":"Ortenberg, Stadt","type":"Stadt"},"district":{"key":"06440","name":"Wetteraukreis","type":"Landkreis"},"federalState":{"key":"06","name":"Hessen"}},{"name":"Pflasterweg","postalCode":"63683","locality":"Ortenberg","municipality":{"key":"06440019","name":"Ortenberg, Stadt","type":"Stadt"},"district":{"key":"06440","name":"Wetteraukreis","type":"Landkreis"},"federalState":{"key":"06","name":"Hessen"}},{"name":"Philipp-Glenz-Str.","postalCode":"63683","locality":"Ortenberg","municipality":{"key":"06440019","name":"Ortenberg, Stadt","type":"Stadt"},"district":{"key":"06440","name":"Wetteraukreis","type":"Landkreis"},"federalState":{"key":"06","name":"Hessen"}},{"name":"Plattenstr.","postalCode":"63683","locality":"Ortenberg","municipality":{"key":"06440019","name":"Ortenberg, Stadt","type":"Stadt"},"district":{"key":"06440","name":"Wetteraukreis","type":"Landkreis"},"federalState":{"key":"06","name":"Hessen"}},{"name":"Plattenweg","postalCode":"63683","locality":"Ortenberg","municipality":{"key":"06440019","name":"Ortenberg, Stadt","type":"Stadt"},"district":{"key":"06440","name":"Wetteraukreis","type":"Landkreis"},"federalState":{"key":"06","name":"Hessen"}},{"name":"Rathausgasse","postalCode":"63683","locality":"Ortenberg","municipality":{"key":"06440019","name":"Ortenberg, Stadt","type":"Stadt"},"district":{"key":"06440","name":"Wetteraukreis","type":"Landkreis"},"federalState":{"key":"06","name":"Hessen"}},{"name":"Reinhardsweg","postalCode":"63683","locality":"Ortenberg","municipality":{"key":"06440019","name":"Ortenberg, Stadt","type":"Stadt"},"district":{"key":"06440","name":"Wetteraukreis","type":"Landkreis"},"federalState":{"key":"06","name":"Hessen"}},{"name":"Riegelweg","postalCode":"63683","locality":"Ortenberg","municipality":{"key":"06440019","name":"Ortenberg, Stadt","type":"Stadt"},"district":{"key":"06440","name":"Wetteraukreis","type":"Landkreis"},"federalState":{"key":"06","name":"Hessen"}},{"name":"Ringstr.","postalCode":"63683","locality":"Ortenberg","municipality":{"key":"06440019","name":"Ortenberg, Stadt","type":"Stadt"},"district":{"key":"06440","name":"Wetteraukreis","type":"Landkreis"},"federalState":{"key":"06","name":"Hessen"}},{"name":"Rosengarten","postalCode":"77799","locality":"Ortenberg","municipality":{"key":"08317100","name":"Ortenberg","type":"Kreisangehörige_Gemeinde"},"district":{"key":"08317","name":"Ortenaukreis","type":"Landkreis"},"federalState":{"key":"08","name":"Baden-Württemberg"}},{"name":"Rothgasse","postalCode":"77799","locality":"Ortenberg","municipality":{"key":"08317100","name":"Ortenberg","type":"Kreisangehörige_Gemeinde"},"district":{"key":"08317","name":"Ortenaukreis","type":"Landkreis"},"federalState":{"key":"08","name":"Baden-Württemberg"}},{"name":"Rotlippstr.","postalCode":"63683","locality":"Ortenberg","municipality":{"key":"06440019","name":"Ortenberg, Stadt","type":"Stadt"},"district":{"key":"06440","name":"Wetteraukreis","type":"Landkreis"},"federalState":{"key":"06","name":"Hessen"}},{"name":"Sackgasse","postalCode":"63683","locality":"Ortenberg","municipality":{"key":"06440019","name":"Ortenberg, Stadt","type":"Stadt"},"district":{"key":"06440","name":"Wetteraukreis","type":"Landkreis"},"federalState":{"key":"06","name":"Hessen"}},{"name":"Sandra-Minnert-Weg","postalCode":"63683","locality":"Ortenberg","municipality":{"key":"06440019","name":"Ortenberg, Stadt","type":"Stadt"},"district":{"key":"06440","name":"Wetteraukreis","type":"Landkreis"},"federalState":{"key":"06","name":"Hessen"}},{"name":"Schlauchstr.","postalCode":"77799","locality":"Ortenberg","municipality":{"key":"08317100","name":"Ortenberg","type":"Kreisangehörige_Gemeinde"},"district":{"key":"08317","name":"Ortenaukreis","type":"Landkreis"},"federalState":{"key":"08","name":"Baden-Württemberg"}},{"name":"Schleifwiesenweg","postalCode":"63683","locality":"Ortenberg","municipality":{"key":"06440019","name":"Ortenberg, Stadt","type":"Stadt"},"district":{"key":"06440","name":"Wetteraukreis","type":"Landkreis"},"federalState":{"key":"06","name":"Hessen"}},{"name":"Schloßblick","postalCode":"77799","locality":"Ortenberg","municipality":{"key":"08317100","name":"Ortenberg","type":"Kreisangehörige_Gemeinde"},"district":{"key":"08317","name":"Ortenaukreis","type":"Landkreis"},"federalState":{"key":"08","name":"Baden-Württemberg"}},{"name":"Schloßgasse","postalCode":"63683","locality":"Ortenberg","municipality":{"key":"06440019","name":"Ortenberg, Stadt","type":"Stadt"},"district":{"key":"06440","name":"Wetteraukreis","type":"Landkreis"},"federalState":{"key":"06","name":"Hessen"}},{"name":"Schloßplatz","postalCode":"63683","locality":"Ortenberg","municipality":{"key":"06440019","name":"Ortenberg, Stadt","type":"Stadt"},"district":{"key":"06440","name":"Wetteraukreis","type":"Landkreis"},"federalState":{"key":"06","name":"Hessen"}},{"name":"Schloßstr.","postalCode":"63683","locality":"Ortenberg","municipality":{"key":"06440019","name":"Ortenberg, Stadt","type":"Stadt"},"district":{"key":"06440","name":"Wetteraukreis","type":"Landkreis"},"federalState":{"key":"06","name":"Hessen"}},{"name":"Schulstr.","postalCode":"63683","locality":"Ortenberg","municipality":{"key":"06440019","name":"Ortenberg, Stadt","type":"Stadt"},"district":{"key":"06440","name":"Wetteraukreis","type":"Landkreis"},"federalState":{"key":"06","name":"Hessen"}},{"name":"Schwickartshäuser Str.","postalCode":"63683","locality":"Ortenberg","municipality":{"key":"06440019","name":"Ortenberg, Stadt","type":"Stadt"},"district":{"key":"06440","name":"Wetteraukreis","type":"Landkreis"},"federalState":{"key":"06","name":"Hessen"}},{"name":"Selterser Hohl","postalCode":"63683","locality":"Ortenberg","municipality":{"key":"06440019","name":"Ortenberg, Stadt","type":"Stadt"},"district":{"key":"06440","name":"Wetteraukreis","type":"Landkreis"},"federalState":{"key":"06","name":"Hessen"}},{"name":"Selterser Str.","postalCode":"63683","locality":"Ortenberg","municipality":{"key":"06440019","name":"Ortenberg, Stadt","type":"Stadt"},"district":{"key":"06440","name":"Wetteraukreis","type":"Landkreis"},"federalState":{"key":"06","name":"Hessen"}},{"name":"Senator-Burda-Str.","postalCode":"77799","locality":"Ortenberg","municipality":{"key":"08317100","name":"Ortenberg","type":"Kreisangehörige_Gemeinde"},"district":{"key":"08317","name":"Ortenaukreis","type":"Landkreis"},"federalState":{"key":"08","name":"Baden-Württemberg"}},{"name":"Siedlerstr.","postalCode":"77799","locality":"Ortenberg","municipality":{"key":"08317100","name":"Ortenberg","type":"Kreisangehörige_Gemeinde"},"district":{"key":"08317","name":"Ortenaukreis","type":"Landkreis"},"federalState":{"key":"08","name":"Baden-Württemberg"}},{"name":"Sonnengasse","postalCode":"77799","locality":"Ortenberg","municipality":{"key":"08317100","name":"Ortenberg","type":"Kreisangehörige_Gemeinde"},"district":{"key":"08317","name":"Ortenaukreis","type":"Landkreis"},"federalState":{"key":"08","name":"Baden-Württemberg"}},{"name":"Sprudelstr.","postalCode":"63683","locality":"Ortenberg","municipality":{"key":"06440019","name":"Ortenberg, Stadt","type":"Stadt"},"district":{"key":"06440","name":"Wetteraukreis","type":"Landkreis"},"federalState":{"key":"06","name":"Hessen"}},{"name":"Steinbergstr.","postalCode":"63683","locality":"Ortenberg","municipality":{"key":"06440019","name":"Ortenberg, Stadt","type":"Stadt"},"district":{"key":"06440","name":"Wetteraukreis","type":"Landkreis"},"federalState":{"key":"06","name":"Hessen"}},{"name":"Steingasse","postalCode":"63683","locality":"Ortenberg","municipality":{"key":"06440019","name":"Ortenberg, Stadt","type":"Stadt"},"district":{"key":"06440","name":"Wetteraukreis","type":"Landkreis"},"federalState":{"key":"06","name":"Hessen"}},{"name":"Steingrube","postalCode":"77799","locality":"Ortenberg","municipality":{"key":"08317100","name":"Ortenberg","type":"Kreisangehörige_Gemeinde"},"district":{"key":"08317","name":"Ortenaukreis","type":"Landkreis"},"federalState":{"key":"08","name":"Baden-Württemberg"}},{"name":"Stockheimer Str.","postalCode":"63683","locality":"Ortenberg","municipality":{"key":"06440019","name":"Ortenberg, Stadt","type":"Stadt"},"district":{"key":"06440","name":"Wetteraukreis","type":"Landkreis"},"federalState":{"key":"06","name":"Hessen"}},{"name":"Stolberger Str.","postalCode":"63683","locality":"Ortenberg","municipality":{"key":"06440019","name":"Ortenberg, Stadt","type":"Stadt"},"district":{"key":"06440","name":"Wetteraukreis","type":"Landkreis"},"federalState":{"key":"06","name":"Hessen"}},{"name":"Stotzheimer Str.","postalCode":"77799","locality":"Ortenberg","municipality":{"key":"08317100","name":"Ortenberg","type":"Kreisangehörige_Gemeinde"},"district":{"key":"08317","name":"Ortenaukreis","type":"Landkreis"},"federalState":{"key":"08","name":"Baden-Württemberg"}},{"name":"Sudetenstr.","postalCode":"63683","locality":"Ortenberg","municipality":{"key":"06440019","name":"Ortenberg, Stadt","type":"Stadt"},"district":{"key":"06440","name":"Wetteraukreis","type":"Landkreis"},"federalState":{"key":"06","name":"Hessen"}},{"name":"Tannenweg","postalCode":"63683","locality":"Ortenberg","municipality":{"key":"06440019","name":"Ortenberg, Stadt","type":"Stadt"},"district":{"key":"06440","name":"Wetteraukreis","type":"Landkreis"},"federalState":{"key":"06","name":"Hessen"}},{"name":"Totenweg","postalCode":"63683","locality":"Ortenberg","municipality":{"key":"06440019","name":"Ortenberg, Stadt","type":"Stadt"},"district":{"key":"06440","name":"Wetteraukreis","type":"Landkreis"},"federalState":{"key":"06","name":"Hessen"}},{"name":"Tunnelstr.","postalCode":"63683","locality":"Ortenberg","municipality":{"key":"06440019","name":"Ortenberg, Stadt","type":"Stadt"},"district":{"key":"06440","name":"Wetteraukreis","type":"Landkreis"},"federalState":{"key":"06","name":"Hessen"}},{"name":"Turmstr.","postalCode":"63683","locality":"Ortenberg","municipality":{"key":"06440019","name":"Ortenberg, Stadt","type":"Stadt"},"district":{"key":"06440","name":"Wetteraukreis","type":"Landkreis"},"federalState":{"key":"06","name":"Hessen"}},{"name":"Unterdorfstr.","postalCode":"63683","locality":"Ortenberg","municipality":{"key":"06440019","name":"Ortenberg, Stadt","type":"Stadt"},"district":{"key":"06440","name":"Wetteraukreis","type":"Landkreis"},"federalState":{"key":"06","name":"Hessen"}},{"name":"Untere Matt","postalCode":"77799","locality":"Ortenberg","municipality":{"key":"08317100","name":"Ortenberg","type":"Kreisangehörige_Gemeinde"},"district":{"key":"08317","name":"Ortenaukreis","type":"Landkreis"},"federalState":{"key":"08","name":"Baden-Württemberg"}},{"name":"Untergasse","postalCode":"63683","locality":"Ortenberg","municipality":{"key":"06440019","name":"Ortenberg, Stadt","type":"Stadt"},"district":{"key":"06440","name":"Wetteraukreis","type":"Landkreis"},"federalState":{"key":"06","name":"Hessen"}},{"name":"Usenborner Str.","postalCode":"63683","locality":"Ortenberg","municipality":{"key":"06440019","name":"Ortenberg, Stadt","type":"Stadt"},"district":{"key":"06440","name":"Wetteraukreis","type":"Landkreis"},"federalState":{"key":"06","name":"Hessen"}},{"name":"Vogelsbergstr.","postalCode":"63683","locality":"Ortenberg","municipality":{"key":"06440019","name":"Ortenberg, Stadt","type":"Stadt"},"district":{"key":"06440","name":"Wetteraukreis","type":"Landkreis"},"federalState":{"key":"06","name":"Hessen"}},{"name":"Von-Berckholtz-Str.","postalCode":"77799","locality":"Ortenberg","municipality":{"key":"08317100","name":"Ortenberg","type":"Kreisangehörige_Gemeinde"},"district":{"key":"08317","name":"Ortenaukreis","type":"Landkreis"},"federalState":{"key":"08","name":"Baden-Württemberg"}},{"name":"Von-Hirsch-Weg","postalCode":"77799","locality":"Ortenberg","municipality":{"key":"08317100","name":"Ortenberg","type":"Kreisangehörige_Gemeinde"},"district":{"key":"08317","name":"Ortenaukreis","type":"Landkreis"},"federalState":{"key":"08","name":"Baden-Württemberg"}},{"name":"Wacholderweg","postalCode":"63683","locality":"Ortenberg","municipality":{"key":"06440019","name":"Ortenberg, Stadt","type":"Stadt"},"district":{"key":"06440","name":"Wetteraukreis","type":"Landkreis"},"federalState":{"key":"06","name":"Hessen"}},{"name":"Waldgasse","postalCode":"77799","locality":"Ortenberg","municipality":{"key":"08317100","name":"Ortenberg","type":"Kreisangehörige_Gemeinde"},"district":{"key":"08317","name":"Ortenaukreis","type":"Landkreis"},"federalState":{"key":"08","name":"Baden-Württemberg"}},{"name":"Waldpfad mit kleiner Brücke","postalCode":"63683","locality":"Ortenberg","municipality":{"key":"06440019","name":"Ortenberg, Stadt","type":"Stadt"},"district":{"key":"06440","name":"Wetteraukreis","type":"Landkreis"},"federalState":{"key":"06","name":"Hessen"}},{"name":"Waldstr.","postalCode":"63683","locality":"Ortenberg","municipality":{"key":"06440019","name":"Ortenberg, Stadt","type":"Stadt"},"district":{"key":"06440","name":"Wetteraukreis","type":"Landkreis"},"federalState":{"key":"06","name":"Hessen"}},{"name":"Wannengasse","postalCode":"77799","locality":"Ortenberg","municipality":{"key":"08317100","name":"Ortenberg","type":"Kreisangehörige_Gemeinde"},"district":{"key":"08317","name":"Ortenaukreis","type":"Landkreis"},"federalState":{"key":"08","name":"Baden-Württemberg"}},{"name":"Wasenstr.","postalCode":"63683","locality":"Ortenberg","municipality":{"key":"06440019","name":"Ortenberg, Stadt","type":"Stadt"},"district":{"key":"06440","name":"Wetteraukreis","type":"Landkreis"},"federalState":{"key":"06","name":"Hessen"}},{"name":"Weberstr.","postalCode":"63683","locality":"Ortenberg","municipality":{"key":"06440019","name":"Ortenberg, Stadt","type":"Stadt"},"district":{"key":"06440","name":"Wetteraukreis","type":"Landkreis"},"federalState":{"key":"06","name":"Hessen"}},{"name":"Weidmühlenweg","postalCode":"63683","locality":"Ortenberg","municipality":{"key":"06440019","name":"Ortenberg, Stadt","type":"Stadt"},"district":{"key":"06440","name":"Wetteraukreis","type":"Landkreis"},"federalState":{"key":"06","name":"Hessen"}},{"name":"Weiherstr.","postalCode":"63683","locality":"Ortenberg","municipality":{"key":"06440019","name":"Ortenberg, Stadt","type":"Stadt"},"district":{"key":"06440","name":"Wetteraukreis","type":"Landkreis"},"federalState":{"key":"06","name":"Hessen"}},{"name":"Weinbergstr.","postalCode":"63683","locality":"Ortenberg","municipality":{"key":"06440019","name":"Ortenberg, Stadt","type":"Stadt"},"district":{"key":"06440","name":"Wetteraukreis","type":"Landkreis"},"federalState":{"key":"06","name":"Hessen"}},{"name":"Weingartenstr.","postalCode":"63683","locality":"Ortenberg","municipality":{"key":"06440019","name":"Ortenberg, Stadt","type":"Stadt"},"district":{"key":"06440","name":"Wetteraukreis","type":"Landkreis"},"federalState":{"key":"06","name":"Hessen"}},{"name":"Weißer Weg","postalCode":"63683","locality":"Ortenberg","municipality":{"key":"06440019","name":"Ortenberg, Stadt","type":"Stadt"},"district":{"key":"06440","name":"Wetteraukreis","type":"Landkreis"},"federalState":{"key":"06","name":"Hessen"}},{"name":"Weningser Str.","postalCode":"63683","locality":"Ortenberg","municipality":{"key":"06440019","name":"Ortenberg, Stadt","type":"Stadt"},"district":{"key":"06440","name":"Wetteraukreis","type":"Landkreis"},"federalState":{"key":"06","name":"Hessen"}},{"name":"Wiesenstr.","postalCode":"63683","locality":"Ortenberg","municipality":{"key":"06440019","name":"Ortenberg, Stadt","type":"Stadt"},"district":{"key":"06440","name":"Wetteraukreis","type":"Landkreis"},"federalState":{"key":"06","name":"Hessen"}},{"name":"Wilhelm-Leuschner-Str.","postalCode":"63683","locality":"Ortenberg","municipality":{"key":"06440019","name":"Ortenberg, Stadt","type":"Stadt"},"district":{"key":"06440","name":"Wetteraukreis","type":"Landkreis"},"federalState":{"key":"06","name":"Hessen"}},{"name":"Wilhelmstr.","postalCode":"77799","locality":"Ortenberg","municipality":{"key":"08317100","name":"Ortenberg","type":"Kreisangehörige_Gemeinde"},"district":{"key":"08317","name":"Ortenaukreis","type":"Landkreis"},"federalState":{"key":"08","name":"Baden-Württemberg"}},{"name":"Winzerkellerweg","postalCode":"77799","locality":"Ortenberg","municipality":{"key":"08317100","name":"Ortenberg","type":"Kreisangehörige_Gemeinde"},"district":{"key":"08317","name":"Ortenaukreis","type":"Landkreis"},"federalState":{"key":"08","name":"Baden-Württemberg"}},{"name":"Wippenbacher Str.","postalCode":"63683","locality":"Ortenberg","municipality":{"key":"06440019","name":"Ortenberg, Stadt","type":"Stadt"},"district":{"key":"06440","name":"Wetteraukreis","type":"Landkreis"},"federalState":{"key":"06","name":"Hessen"}},{"name":"Ysenburger Str.","postalCode":"63683","locality":"Ortenberg","municipality":{"key":"06440019","name":"Ortenberg, Stadt","type":"Stadt"},"district":{"key":"06440","name":"Wetteraukreis","type":"Landkreis"},"federalState":{"key":"06","name":"Hessen"}},{"name":"Zehntfreistr.","postalCode":"77799","locality":"Ortenberg","municipality":{"key":"08317100","name":"Ortenberg","type":"Kreisangehörige_Gemeinde"},"district":{"key":"08317","name":"Ortenaukreis","type":"Landkreis"},"federalState":{"key":"08","name":"Baden-Württemberg"}},{"name":"Zum Lutherhof","postalCode":"63683","locality":"Ortenberg","municipality":{"key":"06440019","name":"Ortenberg, Stadt","type":"Stadt"},"district":{"key":"06440","name":"Wetteraukreis","type":"Landkreis"},"federalState":{"key":"06","name":"Hessen"}},{"name":"Zum Sportfeld","postalCode":"63683","locality":"Ortenberg","municipality":{"key":"06440019","name":"Ortenberg, Stadt","type":"Stadt"},"district":{"key":"06440","name":"Wetteraukreis","type":"Landkreis"},"federalState":{"key":"06","name":"Hessen"}},]