[{"name":"Achterkamp","postalCode":"49835","locality":"Wietmarschen","municipality":{"key":"03456025","name":"Wietmarschen","type":"Kreisangehörige_Gemeinde"},"district":{"key":"03456","name":"Grafschaft Bentheim","type":"Landkreis"},"federalState":{"key":"03","name":"Niedersachsen"}},{"name":"Achterort","postalCode":"49835","locality":"Wietmarschen","municipality":{"key":"03456025","name":"Wietmarschen","type":"Kreisangehörige_Gemeinde"},"district":{"key":"03456","name":"Grafschaft Bentheim","type":"Landkreis"},"federalState":{"key":"03","name":"Niedersachsen"}},{"name":"Adlerstr.","postalCode":"49835","locality":"Wietmarschen","municipality":{"key":"03456025","name":"Wietmarschen","type":"Kreisangehörige_Gemeinde"},"district":{"key":"03456","name":"Grafschaft Bentheim","type":"Landkreis"},"federalState":{"key":"03","name":"Niedersachsen"}},{"name":"Ahornstr.","postalCode":"49835","locality":"Wietmarschen","municipality":{"key":"03456025","name":"Wietmarschen","type":"Kreisangehörige_Gemeinde"},"district":{"key":"03456","name":"Grafschaft Bentheim","type":"Landkreis"},"federalState":{"key":"03","name":"Niedersachsen"}},{"name":"Alexanderstr.","postalCode":"49835","locality":"Wietmarschen","municipality":{"key":"03456025","name":"Wietmarschen","type":"Kreisangehörige_Gemeinde"},"district":{"key":"03456","name":"Grafschaft Bentheim","type":"Landkreis"},"federalState":{"key":"03","name":"Niedersachsen"}},{"name":"Alte Nordhorner Str.","postalCode":"49835","locality":"Wietmarschen","municipality":{"key":"03456025","name":"Wietmarschen","type":"Kreisangehörige_Gemeinde"},"district":{"key":"03456","name":"Grafschaft Bentheim","type":"Landkreis"},"federalState":{"key":"03","name":"Niedersachsen"}},{"name":"Alter Diek","postalCode":"49835","locality":"Wietmarschen","municipality":{"key":"03456025","name":"Wietmarschen","type":"Kreisangehörige_Gemeinde"},"district":{"key":"03456","name":"Grafschaft Bentheim","type":"Landkreis"},"federalState":{"key":"03","name":"Niedersachsen"}},{"name":"Am Bramkamp","postalCode":"49835","locality":"Wietmarschen","municipality":{"key":"03456025","name":"Wietmarschen","type":"Kreisangehörige_Gemeinde"},"district":{"key":"03456","name":"Grafschaft Bentheim","type":"Landkreis"},"federalState":{"key":"03","name":"Niedersachsen"}},{"name":"Am Brook","postalCode":"49835","locality":"Wietmarschen","municipality":{"key":"03456025","name":"Wietmarschen","type":"Kreisangehörige_Gemeinde"},"district":{"key":"03456","name":"Grafschaft Bentheim","type":"Landkreis"},"federalState":{"key":"03","name":"Niedersachsen"}},{"name":"Am Elsebruch","postalCode":"49835","locality":"Wietmarschen","municipality":{"key":"03456025","name":"Wietmarschen","type":"Kreisangehörige_Gemeinde"},"district":{"key":"03456","name":"Grafschaft Bentheim","type":"Landkreis"},"federalState":{"key":"03","name":"Niedersachsen"}},{"name":"Am Eschkamp","postalCode":"49835","locality":"Wietmarschen","municipality":{"key":"03456025","name":"Wietmarschen","type":"Kreisangehörige_Gemeinde"},"district":{"key":"03456","name":"Grafschaft Bentheim","type":"Landkreis"},"federalState":{"key":"03","name":"Niedersachsen"}},{"name":"Am Geestkamp","postalCode":"49835","locality":"Wietmarschen","municipality":{"key":"03456025","name":"Wietmarschen","type":"Kreisangehörige_Gemeinde"},"district":{"key":"03456","name":"Grafschaft Bentheim","type":"Landkreis"},"federalState":{"key":"03","name":"Niedersachsen"}},{"name":"Am Hermelinghof","postalCode":"49835","locality":"Wietmarschen","municipality":{"key":"03456025","name":"Wietmarschen","type":"Kreisangehörige_Gemeinde"},"district":{"key":"03456","name":"Grafschaft Bentheim","type":"Landkreis"},"federalState":{"key":"03","name":"Niedersachsen"}},{"name":"Am Hillenhof","postalCode":"49835","locality":"Wietmarschen","municipality":{"key":"03456025","name":"Wietmarschen","type":"Kreisangehörige_Gemeinde"},"district":{"key":"03456","name":"Grafschaft Bentheim","type":"Landkreis"},"federalState":{"key":"03","name":"Niedersachsen"}},{"name":"Am Kirmesplatz","postalCode":"49835","locality":"Wietmarschen","municipality":{"key":"03456025","name":"Wietmarschen","type":"Kreisangehörige_Gemeinde"},"district":{"key":"03456","name":"Grafschaft Bentheim","type":"Landkreis"},"federalState":{"key":"03","name":"Niedersachsen"}},{"name":"Am Klostergarten","postalCode":"49835","locality":"Wietmarschen","municipality":{"key":"03456025","name":"Wietmarschen","type":"Kreisangehörige_Gemeinde"},"district":{"key":"03456","name":"Grafschaft Bentheim","type":"Landkreis"},"federalState":{"key":"03","name":"Niedersachsen"}},{"name":"Am Langen Graben","postalCode":"49835","locality":"Wietmarschen","municipality":{"key":"03456025","name":"Wietmarschen","type":"Kreisangehörige_Gemeinde"},"district":{"key":"03456","name":"Grafschaft Bentheim","type":"Landkreis"},"federalState":{"key":"03","name":"Niedersachsen"}},{"name":"Am Lohner Bach","postalCode":"49835","locality":"Wietmarschen","municipality":{"key":"03456025","name":"Wietmarschen","type":"Kreisangehörige_Gemeinde"},"district":{"key":"03456","name":"Grafschaft Bentheim","type":"Landkreis"},"federalState":{"key":"03","name":"Niedersachsen"}},{"name":"Am Markt","postalCode":"49835","locality":"Wietmarschen","municipality":{"key":"03456025","name":"Wietmarschen","type":"Kreisangehörige_Gemeinde"},"district":{"key":"03456","name":"Grafschaft Bentheim","type":"Landkreis"},"federalState":{"key":"03","name":"Niedersachsen"}},{"name":"Am Moersfeld","postalCode":"49835","locality":"Wietmarschen","municipality":{"key":"03456025","name":"Wietmarschen","type":"Kreisangehörige_Gemeinde"},"district":{"key":"03456","name":"Grafschaft Bentheim","type":"Landkreis"},"federalState":{"key":"03","name":"Niedersachsen"}},{"name":"Am Nundiek","postalCode":"49835","locality":"Wietmarschen","municipality":{"key":"03456025","name":"Wietmarschen","type":"Kreisangehörige_Gemeinde"},"district":{"key":"03456","name":"Grafschaft Bentheim","type":"Landkreis"},"federalState":{"key":"03","name":"Niedersachsen"}},{"name":"Am Park","postalCode":"49835","locality":"Wietmarschen","municipality":{"key":"03456025","name":"Wietmarschen","type":"Kreisangehörige_Gemeinde"},"district":{"key":"03456","name":"Grafschaft Bentheim","type":"Landkreis"},"federalState":{"key":"03","name":"Niedersachsen"}},{"name":"Am Richtergraben","postalCode":"49835","locality":"Wietmarschen","municipality":{"key":"03456025","name":"Wietmarschen","type":"Kreisangehörige_Gemeinde"},"district":{"key":"03456","name":"Grafschaft Bentheim","type":"Landkreis"},"federalState":{"key":"03","name":"Niedersachsen"}},{"name":"Am Ruhning","postalCode":"49835","locality":"Wietmarschen","municipality":{"key":"03456025","name":"Wietmarschen","type":"Kreisangehörige_Gemeinde"},"district":{"key":"03456","name":"Grafschaft Bentheim","type":"Landkreis"},"federalState":{"key":"03","name":"Niedersachsen"}},{"name":"Amselweg","postalCode":"49835","locality":"Wietmarschen","municipality":{"key":"03456025","name":"Wietmarschen","type":"Kreisangehörige_Gemeinde"},"district":{"key":"03456","name":"Grafschaft Bentheim","type":"Landkreis"},"federalState":{"key":"03","name":"Niedersachsen"}},{"name":"Am Soermannsbach","postalCode":"49835","locality":"Wietmarschen","municipality":{"key":"03456025","name":"Wietmarschen","type":"Kreisangehörige_Gemeinde"},"district":{"key":"03456","name":"Grafschaft Bentheim","type":"Landkreis"},"federalState":{"key":"03","name":"Niedersachsen"}},{"name":"Am Stiftsbusch","postalCode":"49835","locality":"Wietmarschen","municipality":{"key":"03456025","name":"Wietmarschen","type":"Kreisangehörige_Gemeinde"},"district":{"key":"03456","name":"Grafschaft Bentheim","type":"Landkreis"},"federalState":{"key":"03","name":"Niedersachsen"}},{"name":"Am Vahrenhorstkamp","postalCode":"49835","locality":"Wietmarschen","municipality":{"key":"03456025","name":"Wietmarschen","type":"Kreisangehörige_Gemeinde"},"district":{"key":"03456","name":"Grafschaft Bentheim","type":"Landkreis"},"federalState":{"key":"03","name":"Niedersachsen"}},{"name":"Am Waldrand","postalCode":"49835","locality":"Wietmarschen","municipality":{"key":"03456025","name":"Wietmarschen","type":"Kreisangehörige_Gemeinde"},"district":{"key":"03456","name":"Grafschaft Bentheim","type":"Landkreis"},"federalState":{"key":"03","name":"Niedersachsen"}},{"name":"Am Wiesengrund","postalCode":"49835","locality":"Wietmarschen","municipality":{"key":"03456025","name":"Wietmarschen","type":"Kreisangehörige_Gemeinde"},"district":{"key":"03456","name":"Grafschaft Bentheim","type":"Landkreis"},"federalState":{"key":"03","name":"Niedersachsen"}},{"name":"Am Wildwechsel","postalCode":"49835","locality":"Wietmarschen","municipality":{"key":"03456025","name":"Wietmarschen","type":"Kreisangehörige_Gemeinde"},"district":{"key":"03456","name":"Grafschaft Bentheim","type":"Landkreis"},"federalState":{"key":"03","name":"Niedersachsen"}},{"name":"An der Alexishütte","postalCode":"49835","locality":"Wietmarschen","municipality":{"key":"03456025","name":"Wietmarschen","type":"Kreisangehörige_Gemeinde"},"district":{"key":"03456","name":"Grafschaft Bentheim","type":"Landkreis"},"federalState":{"key":"03","name":"Niedersachsen"}},{"name":"An der Lichtung","postalCode":"49835","locality":"Wietmarschen","municipality":{"key":"03456025","name":"Wietmarschen","type":"Kreisangehörige_Gemeinde"},"district":{"key":"03456","name":"Grafschaft Bentheim","type":"Landkreis"},"federalState":{"key":"03","name":"Niedersachsen"}},{"name":"Annastr.","postalCode":"49835","locality":"Wietmarschen","municipality":{"key":"03456025","name":"Wietmarschen","type":"Kreisangehörige_Gemeinde"},"district":{"key":"03456","name":"Grafschaft Bentheim","type":"Landkreis"},"federalState":{"key":"03","name":"Niedersachsen"}},{"name":"Antoniusstr.","postalCode":"49835","locality":"Wietmarschen","municipality":{"key":"03456025","name":"Wietmarschen","type":"Kreisangehörige_Gemeinde"},"district":{"key":"03456","name":"Grafschaft Bentheim","type":"Landkreis"},"federalState":{"key":"03","name":"Niedersachsen"}},{"name":"Asternstr.","postalCode":"49835","locality":"Wietmarschen","municipality":{"key":"03456025","name":"Wietmarschen","type":"Kreisangehörige_Gemeinde"},"district":{"key":"03456","name":"Grafschaft Bentheim","type":"Landkreis"},"federalState":{"key":"03","name":"Niedersachsen"}},{"name":"Auf der Haare","postalCode":"49835","locality":"Wietmarschen","municipality":{"key":"03456025","name":"Wietmarschen","type":"Kreisangehörige_Gemeinde"},"district":{"key":"03456","name":"Grafschaft Bentheim","type":"Landkreis"},"federalState":{"key":"03","name":"Niedersachsen"}},{"name":"Bachstelzenweg","postalCode":"49835","locality":"Wietmarschen","municipality":{"key":"03456025","name":"Wietmarschen","type":"Kreisangehörige_Gemeinde"},"district":{"key":"03456","name":"Grafschaft Bentheim","type":"Landkreis"},"federalState":{"key":"03","name":"Niedersachsen"}},{"name":"Bachstr.","postalCode":"49835","locality":"Wietmarschen","municipality":{"key":"03456025","name":"Wietmarschen","type":"Kreisangehörige_Gemeinde"},"district":{"key":"03456","name":"Grafschaft Bentheim","type":"Landkreis"},"federalState":{"key":"03","name":"Niedersachsen"}},{"name":"Badener Str.","postalCode":"49835","locality":"Wietmarschen","municipality":{"key":"03456025","name":"Wietmarschen","type":"Kreisangehörige_Gemeinde"},"district":{"key":"03456","name":"Grafschaft Bentheim","type":"Landkreis"},"federalState":{"key":"03","name":"Niedersachsen"}},{"name":"Baierort","postalCode":"49835","locality":"Wietmarschen","municipality":{"key":"03456025","name":"Wietmarschen","type":"Kreisangehörige_Gemeinde"},"district":{"key":"03456","name":"Grafschaft Bentheim","type":"Landkreis"},"federalState":{"key":"03","name":"Niedersachsen"}},{"name":"Baus Blick","postalCode":"49835","locality":"Wietmarschen","municipality":{"key":"03456025","name":"Wietmarschen","type":"Kreisangehörige_Gemeinde"},"district":{"key":"03456","name":"Grafschaft Bentheim","type":"Landkreis"},"federalState":{"key":"03","name":"Niedersachsen"}},{"name":"Bayernweg","postalCode":"49835","locality":"Wietmarschen","municipality":{"key":"03456025","name":"Wietmarschen","type":"Kreisangehörige_Gemeinde"},"district":{"key":"03456","name":"Grafschaft Bentheim","type":"Landkreis"},"federalState":{"key":"03","name":"Niedersachsen"}},{"name":"Beethovenring","postalCode":"49835","locality":"Wietmarschen","municipality":{"key":"03456025","name":"Wietmarschen","type":"Kreisangehörige_Gemeinde"},"district":{"key":"03456","name":"Grafschaft Bentheim","type":"Landkreis"},"federalState":{"key":"03","name":"Niedersachsen"}},{"name":"Benzstr.","postalCode":"49835","locality":"Wietmarschen","municipality":{"key":"03456025","name":"Wietmarschen","type":"Kreisangehörige_Gemeinde"},"district":{"key":"03456","name":"Grafschaft Bentheim","type":"Landkreis"},"federalState":{"key":"03","name":"Niedersachsen"}},{"name":"Bergstr.","postalCode":"49835","locality":"Wietmarschen","municipality":{"key":"03456025","name":"Wietmarschen","type":"Kreisangehörige_Gemeinde"},"district":{"key":"03456","name":"Grafschaft Bentheim","type":"Landkreis"},"federalState":{"key":"03","name":"Niedersachsen"}},{"name":"Berliner Str.","postalCode":"49835","locality":"Wietmarschen","municipality":{"key":"03456025","name":"Wietmarschen","type":"Kreisangehörige_Gemeinde"},"district":{"key":"03456","name":"Grafschaft Bentheim","type":"Landkreis"},"federalState":{"key":"03","name":"Niedersachsen"}},{"name":"Binsengasse","postalCode":"49835","locality":"Wietmarschen","municipality":{"key":"03456025","name":"Wietmarschen","type":"Kreisangehörige_Gemeinde"},"district":{"key":"03456","name":"Grafschaft Bentheim","type":"Landkreis"},"federalState":{"key":"03","name":"Niedersachsen"}},{"name":"Birkenstr.","postalCode":"49835","locality":"Wietmarschen","municipality":{"key":"03456025","name":"Wietmarschen","type":"Kreisangehörige_Gemeinde"},"district":{"key":"03456","name":"Grafschaft Bentheim","type":"Landkreis"},"federalState":{"key":"03","name":"Niedersachsen"}},{"name":"Birkhuhnstr.","postalCode":"49835","locality":"Wietmarschen","municipality":{"key":"03456025","name":"Wietmarschen","type":"Kreisangehörige_Gemeinde"},"district":{"key":"03456","name":"Grafschaft Bentheim","type":"Landkreis"},"federalState":{"key":"03","name":"Niedersachsen"}},{"name":"Böttcherstr.","postalCode":"49835","locality":"Wietmarschen","municipality":{"key":"03456025","name":"Wietmarschen","type":"Kreisangehörige_Gemeinde"},"district":{"key":"03456","name":"Grafschaft Bentheim","type":"Landkreis"},"federalState":{"key":"03","name":"Niedersachsen"}},{"name":"Brandenburger Str.","postalCode":"49835","locality":"Wietmarschen","municipality":{"key":"03456025","name":"Wietmarschen","type":"Kreisangehörige_Gemeinde"},"district":{"key":"03456","name":"Grafschaft Bentheim","type":"Landkreis"},"federalState":{"key":"03","name":"Niedersachsen"}},{"name":"Breden Pohl","postalCode":"49835","locality":"Wietmarschen","municipality":{"key":"03456025","name":"Wietmarschen","type":"Kreisangehörige_Gemeinde"},"district":{"key":"03456","name":"Grafschaft Bentheim","type":"Landkreis"},"federalState":{"key":"03","name":"Niedersachsen"}},{"name":"Breslauer Str.","postalCode":"49835","locality":"Wietmarschen","municipality":{"key":"03456025","name":"Wietmarschen","type":"Kreisangehörige_Gemeinde"},"district":{"key":"03456","name":"Grafschaft Bentheim","type":"Landkreis"},"federalState":{"key":"03","name":"Niedersachsen"}},{"name":"Brookweg","postalCode":"49835","locality":"Wietmarschen","municipality":{"key":"03456025","name":"Wietmarschen","type":"Kreisangehörige_Gemeinde"},"district":{"key":"03456","name":"Grafschaft Bentheim","type":"Landkreis"},"federalState":{"key":"03","name":"Niedersachsen"}},{"name":"Bruegelstr.","postalCode":"49835","locality":"Wietmarschen","municipality":{"key":"03456025","name":"Wietmarschen","type":"Kreisangehörige_Gemeinde"},"district":{"key":"03456","name":"Grafschaft Bentheim","type":"Landkreis"},"federalState":{"key":"03","name":"Niedersachsen"}},{"name":"Brunnenstr.","postalCode":"49835","locality":"Wietmarschen","municipality":{"key":"03456025","name":"Wietmarschen","type":"Kreisangehörige_Gemeinde"},"district":{"key":"03456","name":"Grafschaft Bentheim","type":"Landkreis"},"federalState":{"key":"03","name":"Niedersachsen"}},{"name":"Buchenstr.","postalCode":"49835","locality":"Wietmarschen","municipality":{"key":"03456025","name":"Wietmarschen","type":"Kreisangehörige_Gemeinde"},"district":{"key":"03456","name":"Grafschaft Bentheim","type":"Landkreis"},"federalState":{"key":"03","name":"Niedersachsen"}},{"name":"Buddendiek","postalCode":"49835","locality":"Wietmarschen","municipality":{"key":"03456025","name":"Wietmarschen","type":"Kreisangehörige_Gemeinde"},"district":{"key":"03456","name":"Grafschaft Bentheim","type":"Landkreis"},"federalState":{"key":"03","name":"Niedersachsen"}},{"name":"Bussardstr.","postalCode":"49835","locality":"Wietmarschen","municipality":{"key":"03456025","name":"Wietmarschen","type":"Kreisangehörige_Gemeinde"},"district":{"key":"03456","name":"Grafschaft Bentheim","type":"Landkreis"},"federalState":{"key":"03","name":"Niedersachsen"}},{"name":"Chagallstr.","postalCode":"49835","locality":"Wietmarschen","municipality":{"key":"03456025","name":"Wietmarschen","type":"Kreisangehörige_Gemeinde"},"district":{"key":"03456","name":"Grafschaft Bentheim","type":"Landkreis"},"federalState":{"key":"03","name":"Niedersachsen"}},{"name":"Cranachstr.","postalCode":"49835","locality":"Wietmarschen","municipality":{"key":"03456025","name":"Wietmarschen","type":"Kreisangehörige_Gemeinde"},"district":{"key":"03456","name":"Grafschaft Bentheim","type":"Landkreis"},"federalState":{"key":"03","name":"Niedersachsen"}},{"name":"Dachsweg","postalCode":"49835","locality":"Wietmarschen","municipality":{"key":"03456025","name":"Wietmarschen","type":"Kreisangehörige_Gemeinde"},"district":{"key":"03456","name":"Grafschaft Bentheim","type":"Landkreis"},"federalState":{"key":"03","name":"Niedersachsen"}},{"name":"Dalumer Allee","postalCode":"49835","locality":"Wietmarschen","municipality":{"key":"03456025","name":"Wietmarschen","type":"Kreisangehörige_Gemeinde"},"district":{"key":"03456","name":"Grafschaft Bentheim","type":"Landkreis"},"federalState":{"key":"03","name":"Niedersachsen"}},{"name":"Danziger Str.","postalCode":"49835","locality":"Wietmarschen","municipality":{"key":"03456025","name":"Wietmarschen","type":"Kreisangehörige_Gemeinde"},"district":{"key":"03456","name":"Grafschaft Bentheim","type":"Landkreis"},"federalState":{"key":"03","name":"Niedersachsen"}},{"name":"Darpe","postalCode":"49835","locality":"Wietmarschen","municipality":{"key":"03456025","name":"Wietmarschen","type":"Kreisangehörige_Gemeinde"},"district":{"key":"03456","name":"Grafschaft Bentheim","type":"Landkreis"},"federalState":{"key":"03","name":"Niedersachsen"}},{"name":"Dietrich-Bonhoeffer-Str.","postalCode":"49835","locality":"Wietmarschen","municipality":{"key":"03456025","name":"Wietmarschen","type":"Kreisangehörige_Gemeinde"},"district":{"key":"03456","name":"Grafschaft Bentheim","type":"Landkreis"},"federalState":{"key":"03","name":"Niedersachsen"}},{"name":"Dohlenweg","postalCode":"49835","locality":"Wietmarschen","municipality":{"key":"03456025","name":"Wietmarschen","type":"Kreisangehörige_Gemeinde"},"district":{"key":"03456","name":"Grafschaft Bentheim","type":"Landkreis"},"federalState":{"key":"03","name":"Niedersachsen"}},{"name":"Dompfaffstr.","postalCode":"49835","locality":"Wietmarschen","municipality":{"key":"03456025","name":"Wietmarschen","type":"Kreisangehörige_Gemeinde"},"district":{"key":"03456","name":"Grafschaft Bentheim","type":"Landkreis"},"federalState":{"key":"03","name":"Niedersachsen"}},{"name":"Drechslergasse","postalCode":"49835","locality":"Wietmarschen","municipality":{"key":"03456025","name":"Wietmarschen","type":"Kreisangehörige_Gemeinde"},"district":{"key":"03456","name":"Grafschaft Bentheim","type":"Landkreis"},"federalState":{"key":"03","name":"Niedersachsen"}},{"name":"Dresdner Str.","postalCode":"49835","locality":"Wietmarschen","municipality":{"key":"03456025","name":"Wietmarschen","type":"Kreisangehörige_Gemeinde"},"district":{"key":"03456","name":"Grafschaft Bentheim","type":"Landkreis"},"federalState":{"key":"03","name":"Niedersachsen"}},{"name":"Drosselstr.","postalCode":"49835","locality":"Wietmarschen","municipality":{"key":"03456025","name":"Wietmarschen","type":"Kreisangehörige_Gemeinde"},"district":{"key":"03456","name":"Grafschaft Bentheim","type":"Landkreis"},"federalState":{"key":"03","name":"Niedersachsen"}},{"name":"Dürerstr.","postalCode":"49835","locality":"Wietmarschen","municipality":{"key":"03456025","name":"Wietmarschen","type":"Kreisangehörige_Gemeinde"},"district":{"key":"03456","name":"Grafschaft Bentheim","type":"Landkreis"},"federalState":{"key":"03","name":"Niedersachsen"}},{"name":"Eichendorffstr.","postalCode":"49835","locality":"Wietmarschen","municipality":{"key":"03456025","name":"Wietmarschen","type":"Kreisangehörige_Gemeinde"},"district":{"key":"03456","name":"Grafschaft Bentheim","type":"Landkreis"},"federalState":{"key":"03","name":"Niedersachsen"}},{"name":"Eichenstr.","postalCode":"49835","locality":"Wietmarschen","municipality":{"key":"03456025","name":"Wietmarschen","type":"Kreisangehörige_Gemeinde"},"district":{"key":"03456","name":"Grafschaft Bentheim","type":"Landkreis"},"federalState":{"key":"03","name":"Niedersachsen"}},{"name":"Eierhorn","postalCode":"49835","locality":"Wietmarschen","municipality":{"key":"03456025","name":"Wietmarschen","type":"Kreisangehörige_Gemeinde"},"district":{"key":"03456","name":"Grafschaft Bentheim","type":"Landkreis"},"federalState":{"key":"03","name":"Niedersachsen"}},{"name":"Eifelweg","postalCode":"49835","locality":"Wietmarschen","municipality":{"key":"03456025","name":"Wietmarschen","type":"Kreisangehörige_Gemeinde"},"district":{"key":"03456","name":"Grafschaft Bentheim","type":"Landkreis"},"federalState":{"key":"03","name":"Niedersachsen"}},{"name":"Einsteinstr.","postalCode":"49835","locality":"Wietmarschen","municipality":{"key":"03456025","name":"Wietmarschen","type":"Kreisangehörige_Gemeinde"},"district":{"key":"03456","name":"Grafschaft Bentheim","type":"Landkreis"},"federalState":{"key":"03","name":"Niedersachsen"}},{"name":"Elisabethstr.","postalCode":"49835","locality":"Wietmarschen","municipality":{"key":"03456025","name":"Wietmarschen","type":"Kreisangehörige_Gemeinde"},"district":{"key":"03456","name":"Grafschaft Bentheim","type":"Landkreis"},"federalState":{"key":"03","name":"Niedersachsen"}},{"name":"Elsterweg","postalCode":"49835","locality":"Wietmarschen","municipality":{"key":"03456025","name":"Wietmarschen","type":"Kreisangehörige_Gemeinde"},"district":{"key":"03456","name":"Grafschaft Bentheim","type":"Landkreis"},"federalState":{"key":"03","name":"Niedersachsen"}},{"name":"Erfurter Str.","postalCode":"49835","locality":"Wietmarschen","municipality":{"key":"03456025","name":"Wietmarschen","type":"Kreisangehörige_Gemeinde"},"district":{"key":"03456","name":"Grafschaft Bentheim","type":"Landkreis"},"federalState":{"key":"03","name":"Niedersachsen"}},{"name":"Erikastr.","postalCode":"49835","locality":"Wietmarschen","municipality":{"key":"03456025","name":"Wietmarschen","type":"Kreisangehörige_Gemeinde"},"district":{"key":"03456","name":"Grafschaft Bentheim","type":"Landkreis"},"federalState":{"key":"03","name":"Niedersachsen"}},{"name":"Erlenstr.","postalCode":"49835","locality":"Wietmarschen","municipality":{"key":"03456025","name":"Wietmarschen","type":"Kreisangehörige_Gemeinde"},"district":{"key":"03456","name":"Grafschaft Bentheim","type":"Landkreis"},"federalState":{"key":"03","name":"Niedersachsen"}},{"name":"Eschstr.","postalCode":"49835","locality":"Wietmarschen","municipality":{"key":"03456025","name":"Wietmarschen","type":"Kreisangehörige_Gemeinde"},"district":{"key":"03456","name":"Grafschaft Bentheim","type":"Landkreis"},"federalState":{"key":"03","name":"Niedersachsen"}},{"name":"Eulenweg","postalCode":"49835","locality":"Wietmarschen","municipality":{"key":"03456025","name":"Wietmarschen","type":"Kreisangehörige_Gemeinde"},"district":{"key":"03456","name":"Grafschaft Bentheim","type":"Landkreis"},"federalState":{"key":"03","name":"Niedersachsen"}},{"name":"Falkenstr.","postalCode":"49835","locality":"Wietmarschen","municipality":{"key":"03456025","name":"Wietmarschen","type":"Kreisangehörige_Gemeinde"},"district":{"key":"03456","name":"Grafschaft Bentheim","type":"Landkreis"},"federalState":{"key":"03","name":"Niedersachsen"}},{"name":"Fasanenweg","postalCode":"49835","locality":"Wietmarschen","municipality":{"key":"03456025","name":"Wietmarschen","type":"Kreisangehörige_Gemeinde"},"district":{"key":"03456","name":"Grafschaft Bentheim","type":"Landkreis"},"federalState":{"key":"03","name":"Niedersachsen"}},{"name":"Federgrasweg","postalCode":"49835","locality":"Wietmarschen","municipality":{"key":"03456025","name":"Wietmarschen","type":"Kreisangehörige_Gemeinde"},"district":{"key":"03456","name":"Grafschaft Bentheim","type":"Landkreis"},"federalState":{"key":"03","name":"Niedersachsen"}},{"name":"Feldmannskamp","postalCode":"49835","locality":"Wietmarschen","municipality":{"key":"03456025","name":"Wietmarschen","type":"Kreisangehörige_Gemeinde"},"district":{"key":"03456","name":"Grafschaft Bentheim","type":"Landkreis"},"federalState":{"key":"03","name":"Niedersachsen"}},{"name":"Feldstr.","postalCode":"49835","locality":"Wietmarschen","municipality":{"key":"03456025","name":"Wietmarschen","type":"Kreisangehörige_Gemeinde"},"district":{"key":"03456","name":"Grafschaft Bentheim","type":"Landkreis"},"federalState":{"key":"03","name":"Niedersachsen"}},{"name":"Finkenstr.","postalCode":"49835","locality":"Wietmarschen","municipality":{"key":"03456025","name":"Wietmarschen","type":"Kreisangehörige_Gemeinde"},"district":{"key":"03456","name":"Grafschaft Bentheim","type":"Landkreis"},"federalState":{"key":"03","name":"Niedersachsen"}},{"name":"Fledderstr.","postalCode":"49835","locality":"Wietmarschen","municipality":{"key":"03456025","name":"Wietmarschen","type":"Kreisangehörige_Gemeinde"},"district":{"key":"03456","name":"Grafschaft Bentheim","type":"Landkreis"},"federalState":{"key":"03","name":"Niedersachsen"}},{"name":"Franz-Josef-Str.","postalCode":"49835","locality":"Wietmarschen","municipality":{"key":"03456025","name":"Wietmarschen","type":"Kreisangehörige_Gemeinde"},"district":{"key":"03456","name":"Grafschaft Bentheim","type":"Landkreis"},"federalState":{"key":"03","name":"Niedersachsen"}},{"name":"Friedensweg","postalCode":"49835","locality":"Wietmarschen","municipality":{"key":"03456025","name":"Wietmarschen","type":"Kreisangehörige_Gemeinde"},"district":{"key":"03456","name":"Grafschaft Bentheim","type":"Landkreis"},"federalState":{"key":"03","name":"Niedersachsen"}},{"name":"Friedrich-Hellmann-Str.","postalCode":"49835","locality":"Wietmarschen","municipality":{"key":"03456025","name":"Wietmarschen","type":"Kreisangehörige_Gemeinde"},"district":{"key":"03456","name":"Grafschaft Bentheim","type":"Landkreis"},"federalState":{"key":"03","name":"Niedersachsen"}},{"name":"Friesenweg","postalCode":"49835","locality":"Wietmarschen","municipality":{"key":"03456025","name":"Wietmarschen","type":"Kreisangehörige_Gemeinde"},"district":{"key":"03456","name":"Grafschaft Bentheim","type":"Landkreis"},"federalState":{"key":"03","name":"Niedersachsen"}},{"name":"Fuchsweg","postalCode":"49835","locality":"Wietmarschen","municipality":{"key":"03456025","name":"Wietmarschen","type":"Kreisangehörige_Gemeinde"},"district":{"key":"03456","name":"Grafschaft Bentheim","type":"Landkreis"},"federalState":{"key":"03","name":"Niedersachsen"}},{"name":"Füchtenfelder Str.","postalCode":"49835","locality":"Wietmarschen","municipality":{"key":"03456025","name":"Wietmarschen","type":"Kreisangehörige_Gemeinde"},"district":{"key":"03456","name":"Grafschaft Bentheim","type":"Landkreis"},"federalState":{"key":"03","name":"Niedersachsen"}},{"name":"Fuhrmannsweg","postalCode":"49835","locality":"Wietmarschen","municipality":{"key":"03456025","name":"Wietmarschen","type":"Kreisangehörige_Gemeinde"},"district":{"key":"03456","name":"Grafschaft Bentheim","type":"Landkreis"},"federalState":{"key":"03","name":"Niedersachsen"}},{"name":"Fürstenring","postalCode":"49835","locality":"Wietmarschen","municipality":{"key":"03456025","name":"Wietmarschen","type":"Kreisangehörige_Gemeinde"},"district":{"key":"03456","name":"Grafschaft Bentheim","type":"Landkreis"},"federalState":{"key":"03","name":"Niedersachsen"}},{"name":"Genegelstr.","postalCode":"49835","locality":"Wietmarschen","municipality":{"key":"03456025","name":"Wietmarschen","type":"Kreisangehörige_Gemeinde"},"district":{"key":"03456","name":"Grafschaft Bentheim","type":"Landkreis"},"federalState":{"key":"03","name":"Niedersachsen"}},{"name":"Georgsdorfer Str.","postalCode":"49835","locality":"Wietmarschen","municipality":{"key":"03456025","name":"Wietmarschen","type":"Kreisangehörige_Gemeinde"},"district":{"key":"03456","name":"Grafschaft Bentheim","type":"Landkreis"},"federalState":{"key":"03","name":"Niedersachsen"}},{"name":"Gerhard-Hilling-Str.","postalCode":"49835","locality":"Wietmarschen","municipality":{"key":"03456025","name":"Wietmarschen","type":"Kreisangehörige_Gemeinde"},"district":{"key":"03456","name":"Grafschaft Bentheim","type":"Landkreis"},"federalState":{"key":"03","name":"Niedersachsen"}},{"name":"Gerhart-Hauptmann-Str.","postalCode":"49835","locality":"Wietmarschen","municipality":{"key":"03456025","name":"Wietmarschen","type":"Kreisangehörige_Gemeinde"},"district":{"key":"03456","name":"Grafschaft Bentheim","type":"Landkreis"},"federalState":{"key":"03","name":"Niedersachsen"}},{"name":"Ginsterweg","postalCode":"49835","locality":"Wietmarschen","municipality":{"key":"03456025","name":"Wietmarschen","type":"Kreisangehörige_Gemeinde"},"district":{"key":"03456","name":"Grafschaft Bentheim","type":"Landkreis"},"federalState":{"key":"03","name":"Niedersachsen"}},{"name":"Glaubensweg","postalCode":"49835","locality":"Wietmarschen","municipality":{"key":"03456025","name":"Wietmarschen","type":"Kreisangehörige_Gemeinde"},"district":{"key":"03456","name":"Grafschaft Bentheim","type":"Landkreis"},"federalState":{"key":"03","name":"Niedersachsen"}},{"name":"Görlitzer Str.","postalCode":"49835","locality":"Wietmarschen","municipality":{"key":"03456025","name":"Wietmarschen","type":"Kreisangehörige_Gemeinde"},"district":{"key":"03456","name":"Grafschaft Bentheim","type":"Landkreis"},"federalState":{"key":"03","name":"Niedersachsen"}},{"name":"Grenzweg","postalCode":"49835","locality":"Wietmarschen","municipality":{"key":"03456025","name":"Wietmarschen","type":"Kreisangehörige_Gemeinde"},"district":{"key":"03456","name":"Grafschaft Bentheim","type":"Landkreis"},"federalState":{"key":"03","name":"Niedersachsen"}},{"name":"Grotenfehl","postalCode":"49835","locality":"Wietmarschen","municipality":{"key":"03456025","name":"Wietmarschen","type":"Kreisangehörige_Gemeinde"},"district":{"key":"03456","name":"Grafschaft Bentheim","type":"Landkreis"},"federalState":{"key":"03","name":"Niedersachsen"}},{"name":"Grünewaldstr.","postalCode":"49835","locality":"Wietmarschen","municipality":{"key":"03456025","name":"Wietmarschen","type":"Kreisangehörige_Gemeinde"},"district":{"key":"03456","name":"Grafschaft Bentheim","type":"Landkreis"},"federalState":{"key":"03","name":"Niedersachsen"}},{"name":"Gustav-Heinemann-Str.","postalCode":"49835","locality":"Wietmarschen","municipality":{"key":"03456025","name":"Wietmarschen","type":"Kreisangehörige_Gemeinde"},"district":{"key":"03456","name":"Grafschaft Bentheim","type":"Landkreis"},"federalState":{"key":"03","name":"Niedersachsen"}},{"name":"Gutenbergstr.","postalCode":"49835","locality":"Wietmarschen","municipality":{"key":"03456025","name":"Wietmarschen","type":"Kreisangehörige_Gemeinde"},"district":{"key":"03456","name":"Grafschaft Bentheim","type":"Landkreis"},"federalState":{"key":"03","name":"Niedersachsen"}},{"name":"Habichtstr.","postalCode":"49835","locality":"Wietmarschen","municipality":{"key":"03456025","name":"Wietmarschen","type":"Kreisangehörige_Gemeinde"},"district":{"key":"03456","name":"Grafschaft Bentheim","type":"Landkreis"},"federalState":{"key":"03","name":"Niedersachsen"}},{"name":"Häherweg","postalCode":"49835","locality":"Wietmarschen","municipality":{"key":"03456025","name":"Wietmarschen","type":"Kreisangehörige_Gemeinde"},"district":{"key":"03456","name":"Grafschaft Bentheim","type":"Landkreis"},"federalState":{"key":"03","name":"Niedersachsen"}},{"name":"Hahnstr.","postalCode":"49835","locality":"Wietmarschen","municipality":{"key":"03456025","name":"Wietmarschen","type":"Kreisangehörige_Gemeinde"},"district":{"key":"03456","name":"Grafschaft Bentheim","type":"Landkreis"},"federalState":{"key":"03","name":"Niedersachsen"}},{"name":"Haingortstr.","postalCode":"49835","locality":"Wietmarschen","municipality":{"key":"03456025","name":"Wietmarschen","type":"Kreisangehörige_Gemeinde"},"district":{"key":"03456","name":"Grafschaft Bentheim","type":"Landkreis"},"federalState":{"key":"03","name":"Niedersachsen"}},{"name":"Hammweg","postalCode":"49835","locality":"Wietmarschen","municipality":{"key":"03456025","name":"Wietmarschen","type":"Kreisangehörige_Gemeinde"},"district":{"key":"03456","name":"Grafschaft Bentheim","type":"Landkreis"},"federalState":{"key":"03","name":"Niedersachsen"}},{"name":"Hasenstr.","postalCode":"49835","locality":"Wietmarschen","municipality":{"key":"03456025","name":"Wietmarschen","type":"Kreisangehörige_Gemeinde"},"district":{"key":"03456","name":"Grafschaft Bentheim","type":"Landkreis"},"federalState":{"key":"03","name":"Niedersachsen"}},{"name":"Hauptstr.","postalCode":"49835","locality":"Wietmarschen","municipality":{"key":"03456025","name":"Wietmarschen","type":"Kreisangehörige_Gemeinde"},"district":{"key":"03456","name":"Grafschaft Bentheim","type":"Landkreis"},"federalState":{"key":"03","name":"Niedersachsen"}},{"name":"Heckelstr.","postalCode":"49835","locality":"Wietmarschen","municipality":{"key":"03456025","name":"Wietmarschen","type":"Kreisangehörige_Gemeinde"},"district":{"key":"03456","name":"Grafschaft Bentheim","type":"Landkreis"},"federalState":{"key":"03","name":"Niedersachsen"}},{"name":"Heidberg","postalCode":"49835","locality":"Wietmarschen","municipality":{"key":"03456025","name":"Wietmarschen","type":"Kreisangehörige_Gemeinde"},"district":{"key":"03456","name":"Grafschaft Bentheim","type":"Landkreis"},"federalState":{"key":"03","name":"Niedersachsen"}},{"name":"Heideweg","postalCode":"49835","locality":"Wietmarschen","municipality":{"key":"03456025","name":"Wietmarschen","type":"Kreisangehörige_Gemeinde"},"district":{"key":"03456","name":"Grafschaft Bentheim","type":"Landkreis"},"federalState":{"key":"03","name":"Niedersachsen"}},{"name":"Heilkers Diek","postalCode":"49835","locality":"Wietmarschen","municipality":{"key":"03456025","name":"Wietmarschen","type":"Kreisangehörige_Gemeinde"},"district":{"key":"03456","name":"Grafschaft Bentheim","type":"Landkreis"},"federalState":{"key":"03","name":"Niedersachsen"}},{"name":"Heinrich-Lübke-Str.","postalCode":"49835","locality":"Wietmarschen","municipality":{"key":"03456025","name":"Wietmarschen","type":"Kreisangehörige_Gemeinde"},"district":{"key":"03456","name":"Grafschaft Bentheim","type":"Landkreis"},"federalState":{"key":"03","name":"Niedersachsen"}},{"name":"Heinrichstr.","postalCode":"49835","locality":"Wietmarschen","municipality":{"key":"03456025","name":"Wietmarschen","type":"Kreisangehörige_Gemeinde"},"district":{"key":"03456","name":"Grafschaft Bentheim","type":"Landkreis"},"federalState":{"key":"03","name":"Niedersachsen"}},{"name":"Hermann-Lange-Str.","postalCode":"49835","locality":"Wietmarschen","municipality":{"key":"03456025","name":"Wietmarschen","type":"Kreisangehörige_Gemeinde"},"district":{"key":"03456","name":"Grafschaft Bentheim","type":"Landkreis"},"federalState":{"key":"03","name":"Niedersachsen"}},{"name":"Hermannstr.","postalCode":"49835","locality":"Wietmarschen","municipality":{"key":"03456025","name":"Wietmarschen","type":"Kreisangehörige_Gemeinde"},"district":{"key":"03456","name":"Grafschaft Bentheim","type":"Landkreis"},"federalState":{"key":"03","name":"Niedersachsen"}},{"name":"Hermelingdiek","postalCode":"49835","locality":"Wietmarschen","municipality":{"key":"03456025","name":"Wietmarschen","type":"Kreisangehörige_Gemeinde"},"district":{"key":"03456","name":"Grafschaft Bentheim","type":"Landkreis"},"federalState":{"key":"03","name":"Niedersachsen"}},{"name":"Herzforder Moor","postalCode":"49835","locality":"Wietmarschen","municipality":{"key":"03456025","name":"Wietmarschen","type":"Kreisangehörige_Gemeinde"},"district":{"key":"03456","name":"Grafschaft Bentheim","type":"Landkreis"},"federalState":{"key":"03","name":"Niedersachsen"}},{"name":"Hessenweg","postalCode":"49835","locality":"Wietmarschen","municipality":{"key":"03456025","name":"Wietmarschen","type":"Kreisangehörige_Gemeinde"},"district":{"key":"03456","name":"Grafschaft Bentheim","type":"Landkreis"},"federalState":{"key":"03","name":"Niedersachsen"}},{"name":"Hirschberger Str.","postalCode":"49835","locality":"Wietmarschen","municipality":{"key":"03456025","name":"Wietmarschen","type":"Kreisangehörige_Gemeinde"},"district":{"key":"03456","name":"Grafschaft Bentheim","type":"Landkreis"},"federalState":{"key":"03","name":"Niedersachsen"}},{"name":"Hof Buschel","postalCode":"49835","locality":"Wietmarschen","municipality":{"key":"03456025","name":"Wietmarschen","type":"Kreisangehörige_Gemeinde"},"district":{"key":"03456","name":"Grafschaft Bentheim","type":"Landkreis"},"federalState":{"key":"03","name":"Niedersachsen"}},{"name":"Hof Tegeder","postalCode":"49835","locality":"Wietmarschen","municipality":{"key":"03456025","name":"Wietmarschen","type":"Kreisangehörige_Gemeinde"},"district":{"key":"03456","name":"Grafschaft Bentheim","type":"Landkreis"},"federalState":{"key":"03","name":"Niedersachsen"}},{"name":"Hohnerberg","postalCode":"49835","locality":"Wietmarschen","municipality":{"key":"03456025","name":"Wietmarschen","type":"Kreisangehörige_Gemeinde"},"district":{"key":"03456","name":"Grafschaft Bentheim","type":"Landkreis"},"federalState":{"key":"03","name":"Niedersachsen"}},{"name":"Holbeinstr.","postalCode":"49835","locality":"Wietmarschen","municipality":{"key":"03456025","name":"Wietmarschen","type":"Kreisangehörige_Gemeinde"},"district":{"key":"03456","name":"Grafschaft Bentheim","type":"Landkreis"},"federalState":{"key":"03","name":"Niedersachsen"}},{"name":"Hollandstr.","postalCode":"49835","locality":"Wietmarschen","municipality":{"key":"03456025","name":"Wietmarschen","type":"Kreisangehörige_Gemeinde"},"district":{"key":"03456","name":"Grafschaft Bentheim","type":"Landkreis"},"federalState":{"key":"03","name":"Niedersachsen"}},{"name":"Holsteiner Str.","postalCode":"49835","locality":"Wietmarschen","municipality":{"key":"03456025","name":"Wietmarschen","type":"Kreisangehörige_Gemeinde"},"district":{"key":"03456","name":"Grafschaft Bentheim","type":"Landkreis"},"federalState":{"key":"03","name":"Niedersachsen"}},{"name":"Holunderweg","postalCode":"49835","locality":"Wietmarschen","municipality":{"key":"03456025","name":"Wietmarschen","type":"Kreisangehörige_Gemeinde"},"district":{"key":"03456","name":"Grafschaft Bentheim","type":"Landkreis"},"federalState":{"key":"03","name":"Niedersachsen"}},{"name":"Honiggrasweg","postalCode":"49835","locality":"Wietmarschen","municipality":{"key":"03456025","name":"Wietmarschen","type":"Kreisangehörige_Gemeinde"},"district":{"key":"03456","name":"Grafschaft Bentheim","type":"Landkreis"},"federalState":{"key":"03","name":"Niedersachsen"}},{"name":"Hüberskamp","postalCode":"49835","locality":"Wietmarschen","municipality":{"key":"03456025","name":"Wietmarschen","type":"Kreisangehörige_Gemeinde"},"district":{"key":"03456","name":"Grafschaft Bentheim","type":"Landkreis"},"federalState":{"key":"03","name":"Niedersachsen"}},{"name":"Hummelweg","postalCode":"49835","locality":"Wietmarschen","municipality":{"key":"03456025","name":"Wietmarschen","type":"Kreisangehörige_Gemeinde"},"district":{"key":"03456","name":"Grafschaft Bentheim","type":"Landkreis"},"federalState":{"key":"03","name":"Niedersachsen"}},{"name":"Hüttenweg","postalCode":"49835","locality":"Wietmarschen","municipality":{"key":"03456025","name":"Wietmarschen","type":"Kreisangehörige_Gemeinde"},"district":{"key":"03456","name":"Grafschaft Bentheim","type":"Landkreis"},"federalState":{"key":"03","name":"Niedersachsen"}},{"name":"Igelweg","postalCode":"49835","locality":"Wietmarschen","municipality":{"key":"03456025","name":"Wietmarschen","type":"Kreisangehörige_Gemeinde"},"district":{"key":"03456","name":"Grafschaft Bentheim","type":"Landkreis"},"federalState":{"key":"03","name":"Niedersachsen"}},{"name":"Iltisweg","postalCode":"49835","locality":"Wietmarschen","municipality":{"key":"03456025","name":"Wietmarschen","type":"Kreisangehörige_Gemeinde"},"district":{"key":"03456","name":"Grafschaft Bentheim","type":"Landkreis"},"federalState":{"key":"03","name":"Niedersachsen"}},{"name":"Im Alten Dorf","postalCode":"49835","locality":"Wietmarschen","municipality":{"key":"03456025","name":"Wietmarschen","type":"Kreisangehörige_Gemeinde"},"district":{"key":"03456","name":"Grafschaft Bentheim","type":"Landkreis"},"federalState":{"key":"03","name":"Niedersachsen"}},{"name":"Immenhof","postalCode":"49835","locality":"Wietmarschen","municipality":{"key":"03456025","name":"Wietmarschen","type":"Kreisangehörige_Gemeinde"},"district":{"key":"03456","name":"Grafschaft Bentheim","type":"Landkreis"},"federalState":{"key":"03","name":"Niedersachsen"}},{"name":"Im Schwatten","postalCode":"49835","locality":"Wietmarschen","municipality":{"key":"03456025","name":"Wietmarschen","type":"Kreisangehörige_Gemeinde"},"district":{"key":"03456","name":"Grafschaft Bentheim","type":"Landkreis"},"federalState":{"key":"03","name":"Niedersachsen"}},{"name":"Im Strubbenfeld","postalCode":"49835","locality":"Wietmarschen","municipality":{"key":"03456025","name":"Wietmarschen","type":"Kreisangehörige_Gemeinde"},"district":{"key":"03456","name":"Grafschaft Bentheim","type":"Landkreis"},"federalState":{"key":"03","name":"Niedersachsen"}},{"name":"In der Schanze","postalCode":"49835","locality":"Wietmarschen","municipality":{"key":"03456025","name":"Wietmarschen","type":"Kreisangehörige_Gemeinde"},"district":{"key":"03456","name":"Grafschaft Bentheim","type":"Landkreis"},"federalState":{"key":"03","name":"Niedersachsen"}},{"name":"Jahnstr.","postalCode":"49835","locality":"Wietmarschen","municipality":{"key":"03456025","name":"Wietmarschen","type":"Kreisangehörige_Gemeinde"},"district":{"key":"03456","name":"Grafschaft Bentheim","type":"Landkreis"},"federalState":{"key":"03","name":"Niedersachsen"}},{"name":"Kampstr.","postalCode":"49835","locality":"Wietmarschen","municipality":{"key":"03456025","name":"Wietmarschen","type":"Kreisangehörige_Gemeinde"},"district":{"key":"03456","name":"Grafschaft Bentheim","type":"Landkreis"},"federalState":{"key":"03","name":"Niedersachsen"}},{"name":"Kanälchen","postalCode":"49835","locality":"Wietmarschen","municipality":{"key":"03456025","name":"Wietmarschen","type":"Kreisangehörige_Gemeinde"},"district":{"key":"03456","name":"Grafschaft Bentheim","type":"Landkreis"},"federalState":{"key":"03","name":"Niedersachsen"}},{"name":"Karl-Carstens-Str.","postalCode":"49835","locality":"Wietmarschen","municipality":{"key":"03456025","name":"Wietmarschen","type":"Kreisangehörige_Gemeinde"},"district":{"key":"03456","name":"Grafschaft Bentheim","type":"Landkreis"},"federalState":{"key":"03","name":"Niedersachsen"}},{"name":"Kastanienweg","postalCode":"49835","locality":"Wietmarschen","municipality":{"key":"03456025","name":"Wietmarschen","type":"Kreisangehörige_Gemeinde"},"district":{"key":"03456","name":"Grafschaft Bentheim","type":"Landkreis"},"federalState":{"key":"03","name":"Niedersachsen"}},{"name":"Kiebitzweg","postalCode":"49835","locality":"Wietmarschen","municipality":{"key":"03456025","name":"Wietmarschen","type":"Kreisangehörige_Gemeinde"},"district":{"key":"03456","name":"Grafschaft Bentheim","type":"Landkreis"},"federalState":{"key":"03","name":"Niedersachsen"}},{"name":"Kiesbergstr.","postalCode":"49835","locality":"Wietmarschen","municipality":{"key":"03456025","name":"Wietmarschen","type":"Kreisangehörige_Gemeinde"},"district":{"key":"03456","name":"Grafschaft Bentheim","type":"Landkreis"},"federalState":{"key":"03","name":"Niedersachsen"}},{"name":"Kirchnerstr.","postalCode":"49835","locality":"Wietmarschen","municipality":{"key":"03456025","name":"Wietmarschen","type":"Kreisangehörige_Gemeinde"},"district":{"key":"03456","name":"Grafschaft Bentheim","type":"Landkreis"},"federalState":{"key":"03","name":"Niedersachsen"}},{"name":"Klarastr.","postalCode":"49835","locality":"Wietmarschen","municipality":{"key":"03456025","name":"Wietmarschen","type":"Kreisangehörige_Gemeinde"},"district":{"key":"03456","name":"Grafschaft Bentheim","type":"Landkreis"},"federalState":{"key":"03","name":"Niedersachsen"}},{"name":"Klausheider Str.","postalCode":"49835","locality":"Wietmarschen","municipality":{"key":"03456025","name":"Wietmarschen","type":"Kreisangehörige_Gemeinde"},"district":{"key":"03456","name":"Grafschaft Bentheim","type":"Landkreis"},"federalState":{"key":"03","name":"Niedersachsen"}},{"name":"Kleestr.","postalCode":"49835","locality":"Wietmarschen","municipality":{"key":"03456025","name":"Wietmarschen","type":"Kreisangehörige_Gemeinde"},"district":{"key":"03456","name":"Grafschaft Bentheim","type":"Landkreis"},"federalState":{"key":"03","name":"Niedersachsen"}},{"name":"Kleiberweg","postalCode":"49835","locality":"Wietmarschen","municipality":{"key":"03456025","name":"Wietmarschen","type":"Kreisangehörige_Gemeinde"},"district":{"key":"03456","name":"Grafschaft Bentheim","type":"Landkreis"},"federalState":{"key":"03","name":"Niedersachsen"}},{"name":"Klostergang","postalCode":"49835","locality":"Wietmarschen","municipality":{"key":"03456025","name":"Wietmarschen","type":"Kreisangehörige_Gemeinde"},"district":{"key":"03456","name":"Grafschaft Bentheim","type":"Landkreis"},"federalState":{"key":"03","name":"Niedersachsen"}},{"name":"Kolbestr.","postalCode":"49835","locality":"Wietmarschen","municipality":{"key":"03456025","name":"Wietmarschen","type":"Kreisangehörige_Gemeinde"},"district":{"key":"03456","name":"Grafschaft Bentheim","type":"Landkreis"},"federalState":{"key":"03","name":"Niedersachsen"}},{"name":"Kollwitzstr.","postalCode":"49835","locality":"Wietmarschen","municipality":{"key":"03456025","name":"Wietmarschen","type":"Kreisangehörige_Gemeinde"},"district":{"key":"03456","name":"Grafschaft Bentheim","type":"Landkreis"},"federalState":{"key":"03","name":"Niedersachsen"}},{"name":"Kolpingstr.","postalCode":"49835","locality":"Wietmarschen","municipality":{"key":"03456025","name":"Wietmarschen","type":"Kreisangehörige_Gemeinde"},"district":{"key":"03456","name":"Grafschaft Bentheim","type":"Landkreis"},"federalState":{"key":"03","name":"Niedersachsen"}},{"name":"Königsberger Str.","postalCode":"49835","locality":"Wietmarschen","municipality":{"key":"03456025","name":"Wietmarschen","type":"Kreisangehörige_Gemeinde"},"district":{"key":"03456","name":"Grafschaft Bentheim","type":"Landkreis"},"federalState":{"key":"03","name":"Niedersachsen"}},{"name":"Korbmacherstr.","postalCode":"49835","locality":"Wietmarschen","municipality":{"key":"03456025","name":"Wietmarschen","type":"Kreisangehörige_Gemeinde"},"district":{"key":"03456","name":"Grafschaft Bentheim","type":"Landkreis"},"federalState":{"key":"03","name":"Niedersachsen"}},{"name":"Krähenweg","postalCode":"49835","locality":"Wietmarschen","municipality":{"key":"03456025","name":"Wietmarschen","type":"Kreisangehörige_Gemeinde"},"district":{"key":"03456","name":"Grafschaft Bentheim","type":"Landkreis"},"federalState":{"key":"03","name":"Niedersachsen"}},{"name":"Kranichstr.","postalCode":"49835","locality":"Wietmarschen","municipality":{"key":"03456025","name":"Wietmarschen","type":"Kreisangehörige_Gemeinde"},"district":{"key":"03456","name":"Grafschaft Bentheim","type":"Landkreis"},"federalState":{"key":"03","name":"Niedersachsen"}},{"name":"Kruppstr.","postalCode":"49835","locality":"Wietmarschen","municipality":{"key":"03456025","name":"Wietmarschen","type":"Kreisangehörige_Gemeinde"},"district":{"key":"03456","name":"Grafschaft Bentheim","type":"Landkreis"},"federalState":{"key":"03","name":"Niedersachsen"}},{"name":"Kuckuckstr.","postalCode":"49835","locality":"Wietmarschen","municipality":{"key":"03456025","name":"Wietmarschen","type":"Kreisangehörige_Gemeinde"},"district":{"key":"03456","name":"Grafschaft Bentheim","type":"Landkreis"},"federalState":{"key":"03","name":"Niedersachsen"}},{"name":"Kurze Str.","postalCode":"49835","locality":"Wietmarschen","municipality":{"key":"03456025","name":"Wietmarschen","type":"Kreisangehörige_Gemeinde"},"district":{"key":"03456","name":"Grafschaft Bentheim","type":"Landkreis"},"federalState":{"key":"03","name":"Niedersachsen"}},{"name":"Lagemannstr.","postalCode":"49835","locality":"Wietmarschen","municipality":{"key":"03456025","name":"Wietmarschen","type":"Kreisangehörige_Gemeinde"},"district":{"key":"03456","name":"Grafschaft Bentheim","type":"Landkreis"},"federalState":{"key":"03","name":"Niedersachsen"}},{"name":"Lanzstr.","postalCode":"49835","locality":"Wietmarschen","municipality":{"key":"03456025","name":"Wietmarschen","type":"Kreisangehörige_Gemeinde"},"district":{"key":"03456","name":"Grafschaft Bentheim","type":"Landkreis"},"federalState":{"key":"03","name":"Niedersachsen"}},{"name":"Leinenweberpfad","postalCode":"49835","locality":"Wietmarschen","municipality":{"key":"03456025","name":"Wietmarschen","type":"Kreisangehörige_Gemeinde"},"district":{"key":"03456","name":"Grafschaft Bentheim","type":"Landkreis"},"federalState":{"key":"03","name":"Niedersachsen"}},{"name":"Leipziger Str.","postalCode":"49835","locality":"Wietmarschen","municipality":{"key":"03456025","name":"Wietmarschen","type":"Kreisangehörige_Gemeinde"},"district":{"key":"03456","name":"Grafschaft Bentheim","type":"Landkreis"},"federalState":{"key":"03","name":"Niedersachsen"}},{"name":"Lerchenstr.","postalCode":"49835","locality":"Wietmarschen","municipality":{"key":"03456025","name":"Wietmarschen","type":"Kreisangehörige_Gemeinde"},"district":{"key":"03456","name":"Grafschaft Bentheim","type":"Landkreis"},"federalState":{"key":"03","name":"Niedersachsen"}},{"name":"Libellenweg","postalCode":"49835","locality":"Wietmarschen","municipality":{"key":"03456025","name":"Wietmarschen","type":"Kreisangehörige_Gemeinde"},"district":{"key":"03456","name":"Grafschaft Bentheim","type":"Landkreis"},"federalState":{"key":"03","name":"Niedersachsen"}},{"name":"Lilienthalstr.","postalCode":"49835","locality":"Wietmarschen","municipality":{"key":"03456025","name":"Wietmarschen","type":"Kreisangehörige_Gemeinde"},"district":{"key":"03456","name":"Grafschaft Bentheim","type":"Landkreis"},"federalState":{"key":"03","name":"Niedersachsen"}},{"name":"Lindenstr.","postalCode":"49835","locality":"Wietmarschen","municipality":{"key":"03456025","name":"Wietmarschen","type":"Kreisangehörige_Gemeinde"},"district":{"key":"03456","name":"Grafschaft Bentheim","type":"Landkreis"},"federalState":{"key":"03","name":"Niedersachsen"}},{"name":"Lingener Str.","postalCode":"49835","locality":"Wietmarschen","municipality":{"key":"03456025","name":"Wietmarschen","type":"Kreisangehörige_Gemeinde"},"district":{"key":"03456","name":"Grafschaft Bentheim","type":"Landkreis"},"federalState":{"key":"03","name":"Niedersachsen"}},{"name":"Lohner Flugplatzstr.","postalCode":"49835","locality":"Wietmarschen","municipality":{"key":"03456025","name":"Wietmarschen","type":"Kreisangehörige_Gemeinde"},"district":{"key":"03456","name":"Grafschaft Bentheim","type":"Landkreis"},"federalState":{"key":"03","name":"Niedersachsen"}},{"name":"Lohner Str.","postalCode":"49835","locality":"Wietmarschen","municipality":{"key":"03456025","name":"Wietmarschen","type":"Kreisangehörige_Gemeinde"},"district":{"key":"03456","name":"Grafschaft Bentheim","type":"Landkreis"},"federalState":{"key":"03","name":"Niedersachsen"}},{"name":"Lönsweg","postalCode":"49835","locality":"Wietmarschen","municipality":{"key":"03456025","name":"Wietmarschen","type":"Kreisangehörige_Gemeinde"},"district":{"key":"03456","name":"Grafschaft Bentheim","type":"Landkreis"},"federalState":{"key":"03","name":"Niedersachsen"}},{"name":"Ludgerusstr.","postalCode":"49835","locality":"Wietmarschen","municipality":{"key":"03456025","name":"Wietmarschen","type":"Kreisangehörige_Gemeinde"},"district":{"key":"03456","name":"Grafschaft Bentheim","type":"Landkreis"},"federalState":{"key":"03","name":"Niedersachsen"}},{"name":"Lutherstr.","postalCode":"49835","locality":"Wietmarschen","municipality":{"key":"03456025","name":"Wietmarschen","type":"Kreisangehörige_Gemeinde"},"district":{"key":"03456","name":"Grafschaft Bentheim","type":"Landkreis"},"federalState":{"key":"03","name":"Niedersachsen"}},{"name":"Magdeburger Str.","postalCode":"49835","locality":"Wietmarschen","municipality":{"key":"03456025","name":"Wietmarschen","type":"Kreisangehörige_Gemeinde"},"district":{"key":"03456","name":"Grafschaft Bentheim","type":"Landkreis"},"federalState":{"key":"03","name":"Niedersachsen"}},{"name":"Marderweg","postalCode":"49835","locality":"Wietmarschen","municipality":{"key":"03456025","name":"Wietmarschen","type":"Kreisangehörige_Gemeinde"},"district":{"key":"03456","name":"Grafschaft Bentheim","type":"Landkreis"},"federalState":{"key":"03","name":"Niedersachsen"}},{"name":"Markenkoppel","postalCode":"49835","locality":"Wietmarschen","municipality":{"key":"03456025","name":"Wietmarschen","type":"Kreisangehörige_Gemeinde"},"district":{"key":"03456","name":"Grafschaft Bentheim","type":"Landkreis"},"federalState":{"key":"03","name":"Niedersachsen"}},{"name":"Marktstr.","postalCode":"49835","locality":"Wietmarschen","municipality":{"key":"03456025","name":"Wietmarschen","type":"Kreisangehörige_Gemeinde"},"district":{"key":"03456","name":"Grafschaft Bentheim","type":"Landkreis"},"federalState":{"key":"03","name":"Niedersachsen"}},{"name":"Matthias-Rosemann-Str.","postalCode":"49835","locality":"Wietmarschen","municipality":{"key":"03456025","name":"Wietmarschen","type":"Kreisangehörige_Gemeinde"},"district":{"key":"03456","name":"Grafschaft Bentheim","type":"Landkreis"},"federalState":{"key":"03","name":"Niedersachsen"}},{"name":"Meisenstr.","postalCode":"49835","locality":"Wietmarschen","municipality":{"key":"03456025","name":"Wietmarschen","type":"Kreisangehörige_Gemeinde"},"district":{"key":"03456","name":"Grafschaft Bentheim","type":"Landkreis"},"federalState":{"key":"03","name":"Niedersachsen"}},{"name":"Meitnerstr.","postalCode":"49835","locality":"Wietmarschen","municipality":{"key":"03456025","name":"Wietmarschen","type":"Kreisangehörige_Gemeinde"},"district":{"key":"03456","name":"Grafschaft Bentheim","type":"Landkreis"},"federalState":{"key":"03","name":"Niedersachsen"}},{"name":"Menzelstr.","postalCode":"49835","locality":"Wietmarschen","municipality":{"key":"03456025","name":"Wietmarschen","type":"Kreisangehörige_Gemeinde"},"district":{"key":"03456","name":"Grafschaft Bentheim","type":"Landkreis"},"federalState":{"key":"03","name":"Niedersachsen"}},{"name":"Milanweg","postalCode":"49835","locality":"Wietmarschen","municipality":{"key":"03456025","name":"Wietmarschen","type":"Kreisangehörige_Gemeinde"},"district":{"key":"03456","name":"Grafschaft Bentheim","type":"Landkreis"},"federalState":{"key":"03","name":"Niedersachsen"}},{"name":"Möllendiek","postalCode":"49835","locality":"Wietmarschen","municipality":{"key":"03456025","name":"Wietmarschen","type":"Kreisangehörige_Gemeinde"},"district":{"key":"03456","name":"Grafschaft Bentheim","type":"Landkreis"},"federalState":{"key":"03","name":"Niedersachsen"}},{"name":"Monetstr.","postalCode":"49835","locality":"Wietmarschen","municipality":{"key":"03456025","name":"Wietmarschen","type":"Kreisangehörige_Gemeinde"},"district":{"key":"03456","name":"Grafschaft Bentheim","type":"Landkreis"},"federalState":{"key":"03","name":"Niedersachsen"}},{"name":"Monikastr.","postalCode":"49835","locality":"Wietmarschen","municipality":{"key":"03456025","name":"Wietmarschen","type":"Kreisangehörige_Gemeinde"},"district":{"key":"03456","name":"Grafschaft Bentheim","type":"Landkreis"},"federalState":{"key":"03","name":"Niedersachsen"}},{"name":"Möwenweg","postalCode":"49835","locality":"Wietmarschen","municipality":{"key":"03456025","name":"Wietmarschen","type":"Kreisangehörige_Gemeinde"},"district":{"key":"03456","name":"Grafschaft Bentheim","type":"Landkreis"},"federalState":{"key":"03","name":"Niedersachsen"}},{"name":"Mozartstr.","postalCode":"49835","locality":"Wietmarschen","municipality":{"key":"03456025","name":"Wietmarschen","type":"Kreisangehörige_Gemeinde"},"district":{"key":"03456","name":"Grafschaft Bentheim","type":"Landkreis"},"federalState":{"key":"03","name":"Niedersachsen"}},{"name":"Münsterlandstr.","postalCode":"49835","locality":"Wietmarschen","municipality":{"key":"03456025","name":"Wietmarschen","type":"Kreisangehörige_Gemeinde"},"district":{"key":"03456","name":"Grafschaft Bentheim","type":"Landkreis"},"federalState":{"key":"03","name":"Niedersachsen"}},{"name":"Nachtigallenstr.","postalCode":"49835","locality":"Wietmarschen","municipality":{"key":"03456025","name":"Wietmarschen","type":"Kreisangehörige_Gemeinde"},"district":{"key":"03456","name":"Grafschaft Bentheim","type":"Landkreis"},"federalState":{"key":"03","name":"Niedersachsen"}},{"name":"Nelkenstr.","postalCode":"49835","locality":"Wietmarschen","municipality":{"key":"03456025","name":"Wietmarschen","type":"Kreisangehörige_Gemeinde"},"district":{"key":"03456","name":"Grafschaft Bentheim","type":"Landkreis"},"federalState":{"key":"03","name":"Niedersachsen"}},{"name":"Neuenhauser Str.","postalCode":"49835","locality":"Wietmarschen","municipality":{"key":"03456025","name":"Wietmarschen","type":"Kreisangehörige_Gemeinde"},"district":{"key":"03456","name":"Grafschaft Bentheim","type":"Landkreis"},"federalState":{"key":"03","name":"Niedersachsen"}},{"name":"Niels-Stensen-Str.","postalCode":"49835","locality":"Wietmarschen","municipality":{"key":"03456025","name":"Wietmarschen","type":"Kreisangehörige_Gemeinde"},"district":{"key":"03456","name":"Grafschaft Bentheim","type":"Landkreis"},"federalState":{"key":"03","name":"Niedersachsen"}},{"name":"Nobelstr.","postalCode":"49835","locality":"Wietmarschen","municipality":{"key":"03456025","name":"Wietmarschen","type":"Kreisangehörige_Gemeinde"},"district":{"key":"03456","name":"Grafschaft Bentheim","type":"Landkreis"},"federalState":{"key":"03","name":"Niedersachsen"}},{"name":"Nordhorner Str.","postalCode":"49835","locality":"Wietmarschen","municipality":{"key":"03456025","name":"Wietmarschen","type":"Kreisangehörige_Gemeinde"},"district":{"key":"03456","name":"Grafschaft Bentheim","type":"Landkreis"},"federalState":{"key":"03","name":"Niedersachsen"}},{"name":"Nordkampstr.","postalCode":"49835","locality":"Wietmarschen","municipality":{"key":"03456025","name":"Wietmarschen","type":"Kreisangehörige_Gemeinde"},"district":{"key":"03456","name":"Grafschaft Bentheim","type":"Landkreis"},"federalState":{"key":"03","name":"Niedersachsen"}},{"name":"Nordstr.","postalCode":"49835","locality":"Wietmarschen","municipality":{"key":"03456025","name":"Wietmarschen","type":"Kreisangehörige_Gemeinde"},"district":{"key":"03456","name":"Grafschaft Bentheim","type":"Landkreis"},"federalState":{"key":"03","name":"Niedersachsen"}},{"name":"Nord-Süd-Str.","postalCode":"49835","locality":"Wietmarschen","municipality":{"key":"03456025","name":"Wietmarschen","type":"Kreisangehörige_Gemeinde"},"district":{"key":"03456","name":"Grafschaft Bentheim","type":"Landkreis"},"federalState":{"key":"03","name":"Niedersachsen"}},{"name":"Osterkamp","postalCode":"49835","locality":"Wietmarschen","municipality":{"key":"03456025","name":"Wietmarschen","type":"Kreisangehörige_Gemeinde"},"district":{"key":"03456","name":"Grafschaft Bentheim","type":"Landkreis"},"federalState":{"key":"03","name":"Niedersachsen"}},{"name":"Pfälzer Weg","postalCode":"49835","locality":"Wietmarschen","municipality":{"key":"03456025","name":"Wietmarschen","type":"Kreisangehörige_Gemeinde"},"district":{"key":"03456","name":"Grafschaft Bentheim","type":"Landkreis"},"federalState":{"key":"03","name":"Niedersachsen"}},{"name":"Picassostr.","postalCode":"49835","locality":"Wietmarschen","municipality":{"key":"03456025","name":"Wietmarschen","type":"Kreisangehörige_Gemeinde"},"district":{"key":"03456","name":"Grafschaft Bentheim","type":"Landkreis"},"federalState":{"key":"03","name":"Niedersachsen"}},{"name":"Piccardiestr.","postalCode":"49835","locality":"Wietmarschen","municipality":{"key":"03456025","name":"Wietmarschen","type":"Kreisangehörige_Gemeinde"},"district":{"key":"03456","name":"Grafschaft Bentheim","type":"Landkreis"},"federalState":{"key":"03","name":"Niedersachsen"}},{"name":"Piggendiek","postalCode":"49835","locality":"Wietmarschen","municipality":{"key":"03456025","name":"Wietmarschen","type":"Kreisangehörige_Gemeinde"},"district":{"key":"03456","name":"Grafschaft Bentheim","type":"Landkreis"},"federalState":{"key":"03","name":"Niedersachsen"}},{"name":"Pirolweg","postalCode":"49835","locality":"Wietmarschen","municipality":{"key":"03456025","name":"Wietmarschen","type":"Kreisangehörige_Gemeinde"},"district":{"key":"03456","name":"Grafschaft Bentheim","type":"Landkreis"},"federalState":{"key":"03","name":"Niedersachsen"}},{"name":"Posener Str.","postalCode":"49835","locality":"Wietmarschen","municipality":{"key":"03456025","name":"Wietmarschen","type":"Kreisangehörige_Gemeinde"},"district":{"key":"03456","name":"Grafschaft Bentheim","type":"Landkreis"},"federalState":{"key":"03","name":"Niedersachsen"}},{"name":"Poststr.","postalCode":"49835","locality":"Wietmarschen","municipality":{"key":"03456025","name":"Wietmarschen","type":"Kreisangehörige_Gemeinde"},"district":{"key":"03456","name":"Grafschaft Bentheim","type":"Landkreis"},"federalState":{"key":"03","name":"Niedersachsen"}},{"name":"Potsdamer Str.","postalCode":"49835","locality":"Wietmarschen","municipality":{"key":"03456025","name":"Wietmarschen","type":"Kreisangehörige_Gemeinde"},"district":{"key":"03456","name":"Grafschaft Bentheim","type":"Landkreis"},"federalState":{"key":"03","name":"Niedersachsen"}},{"name":"Püttkuhle","postalCode":"49835","locality":"Wietmarschen","municipality":{"key":"03456025","name":"Wietmarschen","type":"Kreisangehörige_Gemeinde"},"district":{"key":"03456","name":"Grafschaft Bentheim","type":"Landkreis"},"federalState":{"key":"03","name":"Niedersachsen"}},{"name":"Rakers Kamp","postalCode":"49835","locality":"Wietmarschen","municipality":{"key":"03456025","name":"Wietmarschen","type":"Kreisangehörige_Gemeinde"},"district":{"key":"03456","name":"Grafschaft Bentheim","type":"Landkreis"},"federalState":{"key":"03","name":"Niedersachsen"}},{"name":"Rebhuhnstr.","postalCode":"49835","locality":"Wietmarschen","municipality":{"key":"03456025","name":"Wietmarschen","type":"Kreisangehörige_Gemeinde"},"district":{"key":"03456","name":"Grafschaft Bentheim","type":"Landkreis"},"federalState":{"key":"03","name":"Niedersachsen"}},{"name":"Reichenberger Str.","postalCode":"49835","locality":"Wietmarschen","municipality":{"key":"03456025","name":"Wietmarschen","type":"Kreisangehörige_Gemeinde"},"district":{"key":"03456","name":"Grafschaft Bentheim","type":"Landkreis"},"federalState":{"key":"03","name":"Niedersachsen"}},{"name":"Reiherweg","postalCode":"49835","locality":"Wietmarschen","municipality":{"key":"03456025","name":"Wietmarschen","type":"Kreisangehörige_Gemeinde"},"district":{"key":"03456","name":"Grafschaft Bentheim","type":"Landkreis"},"federalState":{"key":"03","name":"Niedersachsen"}},{"name":"Remarquestr.","postalCode":"49835","locality":"Wietmarschen","municipality":{"key":"03456025","name":"Wietmarschen","type":"Kreisangehörige_Gemeinde"},"district":{"key":"03456","name":"Grafschaft Bentheim","type":"Landkreis"},"federalState":{"key":"03","name":"Niedersachsen"}},{"name":"Rembrandtstr.","postalCode":"49835","locality":"Wietmarschen","municipality":{"key":"03456025","name":"Wietmarschen","type":"Kreisangehörige_Gemeinde"},"district":{"key":"03456","name":"Grafschaft Bentheim","type":"Landkreis"},"federalState":{"key":"03","name":"Niedersachsen"}},{"name":"Rheinlandstr.","postalCode":"49835","locality":"Wietmarschen","municipality":{"key":"03456025","name":"Wietmarschen","type":"Kreisangehörige_Gemeinde"},"district":{"key":"03456","name":"Grafschaft Bentheim","type":"Landkreis"},"federalState":{"key":"03","name":"Niedersachsen"}},{"name":"Rosenstr.","postalCode":"49835","locality":"Wietmarschen","municipality":{"key":"03456025","name":"Wietmarschen","type":"Kreisangehörige_Gemeinde"},"district":{"key":"03456","name":"Grafschaft Bentheim","type":"Landkreis"},"federalState":{"key":"03","name":"Niedersachsen"}},{"name":"Rubensstr.","postalCode":"49835","locality":"Wietmarschen","municipality":{"key":"03456025","name":"Wietmarschen","type":"Kreisangehörige_Gemeinde"},"district":{"key":"03456","name":"Grafschaft Bentheim","type":"Landkreis"},"federalState":{"key":"03","name":"Niedersachsen"}},{"name":"Ruisdaelstr.","postalCode":"49835","locality":"Wietmarschen","municipality":{"key":"03456025","name":"Wietmarschen","type":"Kreisangehörige_Gemeinde"},"district":{"key":"03456","name":"Grafschaft Bentheim","type":"Landkreis"},"federalState":{"key":"03","name":"Niedersachsen"}},{"name":"Rükelstr.","postalCode":"49835","locality":"Wietmarschen","municipality":{"key":"03456025","name":"Wietmarschen","type":"Kreisangehörige_Gemeinde"},"district":{"key":"03456","name":"Grafschaft Bentheim","type":"Landkreis"},"federalState":{"key":"03","name":"Niedersachsen"}},{"name":"Rupingdiek","postalCode":"49835","locality":"Wietmarschen","municipality":{"key":"03456025","name":"Wietmarschen","type":"Kreisangehörige_Gemeinde"},"district":{"key":"03456","name":"Grafschaft Bentheim","type":"Landkreis"},"federalState":{"key":"03","name":"Niedersachsen"}},{"name":"Saarländer Str.","postalCode":"49835","locality":"Wietmarschen","municipality":{"key":"03456025","name":"Wietmarschen","type":"Kreisangehörige_Gemeinde"},"district":{"key":"03456","name":"Grafschaft Bentheim","type":"Landkreis"},"federalState":{"key":"03","name":"Niedersachsen"}},{"name":"Sandkuhle","postalCode":"49835","locality":"Wietmarschen","municipality":{"key":"03456025","name":"Wietmarschen","type":"Kreisangehörige_Gemeinde"},"district":{"key":"03456","name":"Grafschaft Bentheim","type":"Landkreis"},"federalState":{"key":"03","name":"Niedersachsen"}},{"name":"Sandstiege","postalCode":"49835","locality":"Wietmarschen","municipality":{"key":"03456025","name":"Wietmarschen","type":"Kreisangehörige_Gemeinde"},"district":{"key":"03456","name":"Grafschaft Bentheim","type":"Landkreis"},"federalState":{"key":"03","name":"Niedersachsen"}},{"name":"Sandstr.","postalCode":"49835","locality":"Wietmarschen","municipality":{"key":"03456025","name":"Wietmarschen","type":"Kreisangehörige_Gemeinde"},"district":{"key":"03456","name":"Grafschaft Bentheim","type":"Landkreis"},"federalState":{"key":"03","name":"Niedersachsen"}},{"name":"Schafweg","postalCode":"49835","locality":"Wietmarschen","municipality":{"key":"03456025","name":"Wietmarschen","type":"Kreisangehörige_Gemeinde"},"district":{"key":"03456","name":"Grafschaft Bentheim","type":"Landkreis"},"federalState":{"key":"03","name":"Niedersachsen"}},{"name":"Schillerstr.","postalCode":"49835","locality":"Wietmarschen","municipality":{"key":"03456025","name":"Wietmarschen","type":"Kreisangehörige_Gemeinde"},"district":{"key":"03456","name":"Grafschaft Bentheim","type":"Landkreis"},"federalState":{"key":"03","name":"Niedersachsen"}},{"name":"Schoolpatt","postalCode":"49835","locality":"Wietmarschen","municipality":{"key":"03456025","name":"Wietmarschen","type":"Kreisangehörige_Gemeinde"},"district":{"key":"03456","name":"Grafschaft Bentheim","type":"Landkreis"},"federalState":{"key":"03","name":"Niedersachsen"}},{"name":"Schulstr.","postalCode":"49835","locality":"Wietmarschen","municipality":{"key":"03456025","name":"Wietmarschen","type":"Kreisangehörige_Gemeinde"},"district":{"key":"03456","name":"Grafschaft Bentheim","type":"Landkreis"},"federalState":{"key":"03","name":"Niedersachsen"}},{"name":"Schützenplatz","postalCode":"49835","locality":"Wietmarschen","municipality":{"key":"03456025","name":"Wietmarschen","type":"Kreisangehörige_Gemeinde"},"district":{"key":"03456","name":"Grafschaft Bentheim","type":"Landkreis"},"federalState":{"key":"03","name":"Niedersachsen"}},{"name":"Schützenstr.","postalCode":"49835","locality":"Wietmarschen","municipality":{"key":"03456025","name":"Wietmarschen","type":"Kreisangehörige_Gemeinde"},"district":{"key":"03456","name":"Grafschaft Bentheim","type":"Landkreis"},"federalState":{"key":"03","name":"Niedersachsen"}},{"name":"Schwalbenweg","postalCode":"49835","locality":"Wietmarschen","municipality":{"key":"03456025","name":"Wietmarschen","type":"Kreisangehörige_Gemeinde"},"district":{"key":"03456","name":"Grafschaft Bentheim","type":"Landkreis"},"federalState":{"key":"03","name":"Niedersachsen"}},{"name":"Schwanenborg","postalCode":"49835","locality":"Wietmarschen","municipality":{"key":"03456025","name":"Wietmarschen","type":"Kreisangehörige_Gemeinde"},"district":{"key":"03456","name":"Grafschaft Bentheim","type":"Landkreis"},"federalState":{"key":"03","name":"Niedersachsen"}},{"name":"Schwartenpohler Str.","postalCode":"49835","locality":"Wietmarschen","municipality":{"key":"03456025","name":"Wietmarschen","type":"Kreisangehörige_Gemeinde"},"district":{"key":"03456","name":"Grafschaft Bentheim","type":"Landkreis"},"federalState":{"key":"03","name":"Niedersachsen"}},{"name":"Seggenweg","postalCode":"49835","locality":"Wietmarschen","municipality":{"key":"03456025","name":"Wietmarschen","type":"Kreisangehörige_Gemeinde"},"district":{"key":"03456","name":"Grafschaft Bentheim","type":"Landkreis"},"federalState":{"key":"03","name":"Niedersachsen"}},{"name":"Siedlerstr.","postalCode":"49835","locality":"Wietmarschen","municipality":{"key":"03456025","name":"Wietmarschen","type":"Kreisangehörige_Gemeinde"},"district":{"key":"03456","name":"Grafschaft Bentheim","type":"Landkreis"},"federalState":{"key":"03","name":"Niedersachsen"}},{"name":"Siemensstr.","postalCode":"49835","locality":"Wietmarschen","municipality":{"key":"03456025","name":"Wietmarschen","type":"Kreisangehörige_Gemeinde"},"district":{"key":"03456","name":"Grafschaft Bentheim","type":"Landkreis"},"federalState":{"key":"03","name":"Niedersachsen"}},{"name":"Spechtweg","postalCode":"49835","locality":"Wietmarschen","municipality":{"key":"03456025","name":"Wietmarschen","type":"Kreisangehörige_Gemeinde"},"district":{"key":"03456","name":"Grafschaft Bentheim","type":"Landkreis"},"federalState":{"key":"03","name":"Niedersachsen"}},{"name":"Sperberweg","postalCode":"49835","locality":"Wietmarschen","municipality":{"key":"03456025","name":"Wietmarschen","type":"Kreisangehörige_Gemeinde"},"district":{"key":"03456","name":"Grafschaft Bentheim","type":"Landkreis"},"federalState":{"key":"03","name":"Niedersachsen"}},{"name":"Starenweg","postalCode":"49835","locality":"Wietmarschen","municipality":{"key":"03456025","name":"Wietmarschen","type":"Kreisangehörige_Gemeinde"},"district":{"key":"03456","name":"Grafschaft Bentheim","type":"Landkreis"},"federalState":{"key":"03","name":"Niedersachsen"}},{"name":"Steinhaar","postalCode":"49835","locality":"Wietmarschen","municipality":{"key":"03456025","name":"Wietmarschen","type":"Kreisangehörige_Gemeinde"},"district":{"key":"03456","name":"Grafschaft Bentheim","type":"Landkreis"},"federalState":{"key":"03","name":"Niedersachsen"}},{"name":"Stellmacherstr.","postalCode":"49835","locality":"Wietmarschen","municipality":{"key":"03456025","name":"Wietmarschen","type":"Kreisangehörige_Gemeinde"},"district":{"key":"03456","name":"Grafschaft Bentheim","type":"Landkreis"},"federalState":{"key":"03","name":"Niedersachsen"}},{"name":"Stettiner Str.","postalCode":"49835","locality":"Wietmarschen","municipality":{"key":"03456025","name":"Wietmarschen","type":"Kreisangehörige_Gemeinde"},"district":{"key":"03456","name":"Grafschaft Bentheim","type":"Landkreis"},"federalState":{"key":"03","name":"Niedersachsen"}},{"name":"Stevens Kamp","postalCode":"49835","locality":"Wietmarschen","municipality":{"key":"03456025","name":"Wietmarschen","type":"Kreisangehörige_Gemeinde"},"district":{"key":"03456","name":"Grafschaft Bentheim","type":"Landkreis"},"federalState":{"key":"03","name":"Niedersachsen"}},{"name":"Stieglitzstr.","postalCode":"49835","locality":"Wietmarschen","municipality":{"key":"03456025","name":"Wietmarschen","type":"Kreisangehörige_Gemeinde"},"district":{"key":"03456","name":"Grafschaft Bentheim","type":"Landkreis"},"federalState":{"key":"03","name":"Niedersachsen"}},{"name":"Storchenweg","postalCode":"49835","locality":"Wietmarschen","municipality":{"key":"03456025","name":"Wietmarschen","type":"Kreisangehörige_Gemeinde"},"district":{"key":"03456","name":"Grafschaft Bentheim","type":"Landkreis"},"federalState":{"key":"03","name":"Niedersachsen"}},{"name":"Sudmoor","postalCode":"49835","locality":"Wietmarschen","municipality":{"key":"03456025","name":"Wietmarschen","type":"Kreisangehörige_Gemeinde"},"district":{"key":"03456","name":"Grafschaft Bentheim","type":"Landkreis"},"federalState":{"key":"03","name":"Niedersachsen"}},{"name":"Südstr.","postalCode":"49835","locality":"Wietmarschen","municipality":{"key":"03456025","name":"Wietmarschen","type":"Kreisangehörige_Gemeinde"},"district":{"key":"03456","name":"Grafschaft Bentheim","type":"Landkreis"},"federalState":{"key":"03","name":"Niedersachsen"}},{"name":"Taubenweg","postalCode":"49835","locality":"Wietmarschen","municipality":{"key":"03456025","name":"Wietmarschen","type":"Kreisangehörige_Gemeinde"},"district":{"key":"03456","name":"Grafschaft Bentheim","type":"Landkreis"},"federalState":{"key":"03","name":"Niedersachsen"}},{"name":"Theodor-Heuss-Str.","postalCode":"49835","locality":"Wietmarschen","municipality":{"key":"03456025","name":"Wietmarschen","type":"Kreisangehörige_Gemeinde"},"district":{"key":"03456","name":"Grafschaft Bentheim","type":"Landkreis"},"federalState":{"key":"03","name":"Niedersachsen"}},{"name":"Tulpenstr.","postalCode":"49835","locality":"Wietmarschen","municipality":{"key":"03456025","name":"Wietmarschen","type":"Kreisangehörige_Gemeinde"},"district":{"key":"03456","name":"Grafschaft Bentheim","type":"Landkreis"},"federalState":{"key":"03","name":"Niedersachsen"}},{"name":"Uhuweg","postalCode":"49835","locality":"Wietmarschen","municipality":{"key":"03456025","name":"Wietmarschen","type":"Kreisangehörige_Gemeinde"},"district":{"key":"03456","name":"Grafschaft Bentheim","type":"Landkreis"},"federalState":{"key":"03","name":"Niedersachsen"}},{"name":"Ulmenweg","postalCode":"49835","locality":"Wietmarschen","municipality":{"key":"03456025","name":"Wietmarschen","type":"Kreisangehörige_Gemeinde"},"district":{"key":"03456","name":"Grafschaft Bentheim","type":"Landkreis"},"federalState":{"key":"03","name":"Niedersachsen"}},{"name":"Unter den Buchen","postalCode":"49835","locality":"Wietmarschen","municipality":{"key":"03456025","name":"Wietmarschen","type":"Kreisangehörige_Gemeinde"},"district":{"key":"03456","name":"Grafschaft Bentheim","type":"Landkreis"},"federalState":{"key":"03","name":"Niedersachsen"}},{"name":"Urbrecherweg","postalCode":"49835","locality":"Wietmarschen","municipality":{"key":"03456025","name":"Wietmarschen","type":"Kreisangehörige_Gemeinde"},"district":{"key":"03456","name":"Grafschaft Bentheim","type":"Landkreis"},"federalState":{"key":"03","name":"Niedersachsen"}},{"name":"Vermeerstr.","postalCode":"49835","locality":"Wietmarschen","municipality":{"key":"03456025","name":"Wietmarschen","type":"Kreisangehörige_Gemeinde"},"district":{"key":"03456","name":"Grafschaft Bentheim","type":"Landkreis"},"federalState":{"key":"03","name":"Niedersachsen"}},{"name":"Vom-Stein-Str.","postalCode":"49835","locality":"Wietmarschen","municipality":{"key":"03456025","name":"Wietmarschen","type":"Kreisangehörige_Gemeinde"},"district":{"key":"03456","name":"Grafschaft Bentheim","type":"Landkreis"},"federalState":{"key":"03","name":"Niedersachsen"}},{"name":"Von-Büren-Str.","postalCode":"49835","locality":"Wietmarschen","municipality":{"key":"03456025","name":"Wietmarschen","type":"Kreisangehörige_Gemeinde"},"district":{"key":"03456","name":"Grafschaft Bentheim","type":"Landkreis"},"federalState":{"key":"03","name":"Niedersachsen"}},{"name":"Von-Galen-Str.","postalCode":"49835","locality":"Wietmarschen","municipality":{"key":"03456025","name":"Wietmarschen","type":"Kreisangehörige_Gemeinde"},"district":{"key":"03456","name":"Grafschaft Bentheim","type":"Landkreis"},"federalState":{"key":"03","name":"Niedersachsen"}},{"name":"Von-Hardenberg-Str.","postalCode":"49835","locality":"Wietmarschen","municipality":{"key":"03456025","name":"Wietmarschen","type":"Kreisangehörige_Gemeinde"},"district":{"key":"03456","name":"Grafschaft Bentheim","type":"Landkreis"},"federalState":{"key":"03","name":"Niedersachsen"}},{"name":"Von-Humboldt-Str.","postalCode":"49835","locality":"Wietmarschen","municipality":{"key":"03456025","name":"Wietmarschen","type":"Kreisangehörige_Gemeinde"},"district":{"key":"03456","name":"Grafschaft Bentheim","type":"Landkreis"},"federalState":{"key":"03","name":"Niedersachsen"}},{"name":"Von-Ketteler-Str.","postalCode":"49835","locality":"Wietmarschen","municipality":{"key":"03456025","name":"Wietmarschen","type":"Kreisangehörige_Gemeinde"},"district":{"key":"03456","name":"Grafschaft Bentheim","type":"Landkreis"},"federalState":{"key":"03","name":"Niedersachsen"}},{"name":"Von-Twickel-Str.","postalCode":"49835","locality":"Wietmarschen","municipality":{"key":"03456025","name":"Wietmarschen","type":"Kreisangehörige_Gemeinde"},"district":{"key":"03456","name":"Grafschaft Bentheim","type":"Landkreis"},"federalState":{"key":"03","name":"Niedersachsen"}},{"name":"Vorgartenstr.","postalCode":"49835","locality":"Wietmarschen","municipality":{"key":"03456025","name":"Wietmarschen","type":"Kreisangehörige_Gemeinde"},"district":{"key":"03456","name":"Grafschaft Bentheim","type":"Landkreis"},"federalState":{"key":"03","name":"Niedersachsen"}},{"name":"Vosshaar","postalCode":"49835","locality":"Wietmarschen","municipality":{"key":"03456025","name":"Wietmarschen","type":"Kreisangehörige_Gemeinde"},"district":{"key":"03456","name":"Grafschaft Bentheim","type":"Landkreis"},"federalState":{"key":"03","name":"Niedersachsen"}},{"name":"Wachtelweg","postalCode":"49835","locality":"Wietmarschen","municipality":{"key":"03456025","name":"Wietmarschen","type":"Kreisangehörige_Gemeinde"},"district":{"key":"03456","name":"Grafschaft Bentheim","type":"Landkreis"},"federalState":{"key":"03","name":"Niedersachsen"}},{"name":"Wagnerstr.","postalCode":"49835","locality":"Wietmarschen","municipality":{"key":"03456025","name":"Wietmarschen","type":"Kreisangehörige_Gemeinde"},"district":{"key":"03456","name":"Grafschaft Bentheim","type":"Landkreis"},"federalState":{"key":"03","name":"Niedersachsen"}},{"name":"Waldenburger Str.","postalCode":"49835","locality":"Wietmarschen","municipality":{"key":"03456025","name":"Wietmarschen","type":"Kreisangehörige_Gemeinde"},"district":{"key":"03456","name":"Grafschaft Bentheim","type":"Landkreis"},"federalState":{"key":"03","name":"Niedersachsen"}},{"name":"Walter-Scheel-Str.","postalCode":"49835","locality":"Wietmarschen","municipality":{"key":"03456025","name":"Wietmarschen","type":"Kreisangehörige_Gemeinde"},"district":{"key":"03456","name":"Grafschaft Bentheim","type":"Landkreis"},"federalState":{"key":"03","name":"Niedersachsen"}},{"name":"Wartburgstr.","postalCode":"49835","locality":"Wietmarschen","municipality":{"key":"03456025","name":"Wietmarschen","type":"Kreisangehörige_Gemeinde"},"district":{"key":"03456","name":"Grafschaft Bentheim","type":"Landkreis"},"federalState":{"key":"03","name":"Niedersachsen"}},{"name":"Weidelgrasweg","postalCode":"49835","locality":"Wietmarschen","municipality":{"key":"03456025","name":"Wietmarschen","type":"Kreisangehörige_Gemeinde"},"district":{"key":"03456","name":"Grafschaft Bentheim","type":"Landkreis"},"federalState":{"key":"03","name":"Niedersachsen"}},{"name":"Weidenstr.","postalCode":"49835","locality":"Wietmarschen","municipality":{"key":"03456025","name":"Wietmarschen","type":"Kreisangehörige_Gemeinde"},"district":{"key":"03456","name":"Grafschaft Bentheim","type":"Landkreis"},"federalState":{"key":"03","name":"Niedersachsen"}},{"name":"Westfalenstr.","postalCode":"49835","locality":"Wietmarschen","municipality":{"key":"03456025","name":"Wietmarschen","type":"Kreisangehörige_Gemeinde"},"district":{"key":"03456","name":"Grafschaft Bentheim","type":"Landkreis"},"federalState":{"key":"03","name":"Niedersachsen"}},{"name":"Westring","postalCode":"49835","locality":"Wietmarschen","municipality":{"key":"03456025","name":"Wietmarschen","type":"Kreisangehörige_Gemeinde"},"district":{"key":"03456","name":"Grafschaft Bentheim","type":"Landkreis"},"federalState":{"key":"03","name":"Niedersachsen"}},{"name":"Wieselweg","postalCode":"49835","locality":"Wietmarschen","municipality":{"key":"03456025","name":"Wietmarschen","type":"Kreisangehörige_Gemeinde"},"district":{"key":"03456","name":"Grafschaft Bentheim","type":"Landkreis"},"federalState":{"key":"03","name":"Niedersachsen"}},{"name":"Wietmarscher Str.","postalCode":"49835","locality":"Wietmarschen","municipality":{"key":"03456025","name":"Wietmarschen","type":"Kreisangehörige_Gemeinde"},"district":{"key":"03456","name":"Grafschaft Bentheim","type":"Landkreis"},"federalState":{"key":"03","name":"Niedersachsen"}},{"name":"Wilhelm-Berning-Str.","postalCode":"49835","locality":"Wietmarschen","municipality":{"key":"03456025","name":"Wietmarschen","type":"Kreisangehörige_Gemeinde"},"district":{"key":"03456","name":"Grafschaft Bentheim","type":"Landkreis"},"federalState":{"key":"03","name":"Niedersachsen"}},{"name":"Wilhelmstr.","postalCode":"49835","locality":"Wietmarschen","municipality":{"key":"03456025","name":"Wietmarschen","type":"Kreisangehörige_Gemeinde"},"district":{"key":"03456","name":"Grafschaft Bentheim","type":"Landkreis"},"federalState":{"key":"03","name":"Niedersachsen"}},{"name":"Windusstr.","postalCode":"49835","locality":"Wietmarschen","municipality":{"key":"03456025","name":"Wietmarschen","type":"Kreisangehörige_Gemeinde"},"district":{"key":"03456","name":"Grafschaft Bentheim","type":"Landkreis"},"federalState":{"key":"03","name":"Niedersachsen"}},{"name":"Wollgrasweg","postalCode":"49835","locality":"Wietmarschen","municipality":{"key":"03456025","name":"Wietmarschen","type":"Kreisangehörige_Gemeinde"},"district":{"key":"03456","name":"Grafschaft Bentheim","type":"Landkreis"},"federalState":{"key":"03","name":"Niedersachsen"}},{"name":"Württemberger Str.","postalCode":"49835","locality":"Wietmarschen","municipality":{"key":"03456025","name":"Wietmarschen","type":"Kreisangehörige_Gemeinde"},"district":{"key":"03456","name":"Grafschaft Bentheim","type":"Landkreis"},"federalState":{"key":"03","name":"Niedersachsen"}},{"name":"Zaunkönigstr.","postalCode":"49835","locality":"Wietmarschen","municipality":{"key":"03456025","name":"Wietmarschen","type":"Kreisangehörige_Gemeinde"},"district":{"key":"03456","name":"Grafschaft Bentheim","type":"Landkreis"},"federalState":{"key":"03","name":"Niedersachsen"}},{"name":"Zeisigstr.","postalCode":"49835","locality":"Wietmarschen","municipality":{"key":"03456025","name":"Wietmarschen","type":"Kreisangehörige_Gemeinde"},"district":{"key":"03456","name":"Grafschaft Bentheim","type":"Landkreis"},"federalState":{"key":"03","name":"Niedersachsen"}},{"name":"Zeiss-Str.","postalCode":"49835","locality":"Wietmarschen","municipality":{"key":"03456025","name":"Wietmarschen","type":"Kreisangehörige_Gemeinde"},"district":{"key":"03456","name":"Grafschaft Bentheim","type":"Landkreis"},"federalState":{"key":"03","name":"Niedersachsen"}},{"name":"Zeppelinstr.","postalCode":"49835","locality":"Wietmarschen","municipality":{"key":"03456025","name":"Wietmarschen","type":"Kreisangehörige_Gemeinde"},"district":{"key":"03456","name":"Grafschaft Bentheim","type":"Landkreis"},"federalState":{"key":"03","name":"Niedersachsen"}},{"name":"Zu den Schorten","postalCode":"49835","locality":"Wietmarschen","municipality":{"key":"03456025","name":"Wietmarschen","type":"Kreisangehörige_Gemeinde"},"district":{"key":"03456","name":"Grafschaft Bentheim","type":"Landkreis"},"federalState":{"key":"03","name":"Niedersachsen"}},{"name":"Zum Fürstenholz","postalCode":"49835","locality":"Wietmarschen","municipality":{"key":"03456025","name":"Wietmarschen","type":"Kreisangehörige_Gemeinde"},"district":{"key":"03456","name":"Grafschaft Bentheim","type":"Landkreis"},"federalState":{"key":"03","name":"Niedersachsen"}},{"name":"Zum Lehmformer","postalCode":"49835","locality":"Wietmarschen","municipality":{"key":"03456025","name":"Wietmarschen","type":"Kreisangehörige_Gemeinde"},"district":{"key":"03456","name":"Grafschaft Bentheim","type":"Landkreis"},"federalState":{"key":"03","name":"Niedersachsen"}},{"name":"Zum Schlackenbölt","postalCode":"49835","locality":"Wietmarschen","municipality":{"key":"03456025","name":"Wietmarschen","type":"Kreisangehörige_Gemeinde"},"district":{"key":"03456","name":"Grafschaft Bentheim","type":"Landkreis"},"federalState":{"key":"03","name":"Niedersachsen"}},{"name":"Zum Untermoor","postalCode":"49835","locality":"Wietmarschen","municipality":{"key":"03456025","name":"Wietmarschen","type":"Kreisangehörige_Gemeinde"},"district":{"key":"03456","name":"Grafschaft Bentheim","type":"Landkreis"},"federalState":{"key":"03","name":"Niedersachsen"}},{"name":"Zum Wirkrieg","postalCode":"49835","locality":"Wietmarschen","municipality":{"key":"03456025","name":"Wietmarschen","type":"Kreisangehörige_Gemeinde"},"district":{"key":"03456","name":"Grafschaft Bentheim","type":"Landkreis"},"federalState":{"key":"03","name":"Niedersachsen"}},{"name":"Zur Schanze","postalCode":"49835","locality":"Wietmarschen","municipality":{"key":"03456025","name":"Wietmarschen","type":"Kreisangehörige_Gemeinde"},"district":{"key":"03456","name":"Grafschaft Bentheim","type":"Landkreis"},"federalState":{"key":"03","name":"Niedersachsen"}},]