[{"name":"Achtern Dörp","postalCode":"25599","locality":"Wewelsfleth","municipality":{"key":"01061110","name":"Wewelsfleth","type":"Kreisangehörige_Gemeinde"},"district":{"key":"01061","name":"Steinburg","type":"Kreis"},"federalState":{"key":"01","name":"Schleswig-Holstein"}},{"name":"Achterstr.","postalCode":"26931","locality":"Elsfleth","municipality":{"key":"03461004","name":"Elsfleth, Stadt","type":"Stadt"},"district":{"key":"03461","name":"Wesermarsch","type":"Landkreis"},"federalState":{"key":"03","name":"Niedersachsen"}},{"name":"Ackerweg","postalCode":"26931","locality":"Elsfleth","municipality":{"key":"03461004","name":"Elsfleth, Stadt","type":"Stadt"},"district":{"key":"03461","name":"Wesermarsch","type":"Landkreis"},"federalState":{"key":"03","name":"Niedersachsen"}},{"name":"Albert-Gräper-Str.","postalCode":"26931","locality":"Elsfleth","municipality":{"key":"03461004","name":"Elsfleth, Stadt","type":"Stadt"},"district":{"key":"03461","name":"Wesermarsch","type":"Landkreis"},"federalState":{"key":"03","name":"Niedersachsen"}},{"name":"Alte Liene","postalCode":"26931","locality":"Elsfleth","municipality":{"key":"03461004","name":"Elsfleth, Stadt","type":"Stadt"},"district":{"key":"03461","name":"Wesermarsch","type":"Landkreis"},"federalState":{"key":"03","name":"Niedersachsen"}},{"name":"Alter Deich","postalCode":"26931","locality":"Elsfleth","municipality":{"key":"03461004","name":"Elsfleth, Stadt","type":"Stadt"},"district":{"key":"03461","name":"Wesermarsch","type":"Landkreis"},"federalState":{"key":"03","name":"Niedersachsen"}},{"name":"Alte Str.","postalCode":"26931","locality":"Elsfleth","municipality":{"key":"03461004","name":"Elsfleth, Stadt","type":"Stadt"},"district":{"key":"03461","name":"Wesermarsch","type":"Landkreis"},"federalState":{"key":"03","name":"Niedersachsen"}},{"name":"Am alten Schulhof","postalCode":"25599","locality":"Wewelsfleth","municipality":{"key":"01061110","name":"Wewelsfleth","type":"Kreisangehörige_Gemeinde"},"district":{"key":"01061","name":"Steinburg","type":"Kreis"},"federalState":{"key":"01","name":"Schleswig-Holstein"}},{"name":"Amazonasstr.","postalCode":"26931","locality":"Elsfleth","municipality":{"key":"03461004","name":"Elsfleth, Stadt","type":"Stadt"},"district":{"key":"03461","name":"Wesermarsch","type":"Landkreis"},"federalState":{"key":"03","name":"Niedersachsen"}},{"name":"Am Dorfrand","postalCode":"25599","locality":"Wewelsfleth","municipality":{"key":"01061110","name":"Wewelsfleth","type":"Kreisangehörige_Gemeinde"},"district":{"key":"01061","name":"Steinburg","type":"Kreis"},"federalState":{"key":"01","name":"Schleswig-Holstein"}},{"name":"Am Hafen","postalCode":"25599","locality":"Wewelsfleth","municipality":{"key":"01061110","name":"Wewelsfleth","type":"Kreisangehörige_Gemeinde"},"district":{"key":"01061","name":"Steinburg","type":"Kreis"},"federalState":{"key":"01","name":"Schleswig-Holstein"}},{"name":"Am Huntebrücker Deich","postalCode":"26931","locality":"Elsfleth","municipality":{"key":"03461004","name":"Elsfleth, Stadt","type":"Stadt"},"district":{"key":"03461","name":"Wesermarsch","type":"Landkreis"},"federalState":{"key":"03","name":"Niedersachsen"}},{"name":"Am Liener Deich","postalCode":"26931","locality":"Elsfleth","municipality":{"key":"03461004","name":"Elsfleth, Stadt","type":"Stadt"},"district":{"key":"03461","name":"Wesermarsch","type":"Landkreis"},"federalState":{"key":"03","name":"Niedersachsen"}},{"name":"Am Liener Hörn","postalCode":"26931","locality":"Elsfleth","municipality":{"key":"03461004","name":"Elsfleth, Stadt","type":"Stadt"},"district":{"key":"03461","name":"Wesermarsch","type":"Landkreis"},"federalState":{"key":"03","name":"Niedersachsen"}},{"name":"Am Schiffahrtsmuseum","postalCode":"26931","locality":"Elsfleth","municipality":{"key":"03461004","name":"Elsfleth, Stadt","type":"Stadt"},"district":{"key":"03461","name":"Wesermarsch","type":"Landkreis"},"federalState":{"key":"03","name":"Niedersachsen"}},{"name":"Amselstr.","postalCode":"26931","locality":"Elsfleth","municipality":{"key":"03461004","name":"Elsfleth, Stadt","type":"Stadt"},"district":{"key":"03461","name":"Wesermarsch","type":"Landkreis"},"federalState":{"key":"03","name":"Niedersachsen"}},{"name":"Am Teich","postalCode":"25599","locality":"Wewelsfleth","municipality":{"key":"01061110","name":"Wewelsfleth","type":"Kreisangehörige_Gemeinde"},"district":{"key":"01061","name":"Steinburg","type":"Kreis"},"federalState":{"key":"01","name":"Schleswig-Holstein"}},{"name":"Am Tennisplatz","postalCode":"26931","locality":"Elsfleth","municipality":{"key":"03461004","name":"Elsfleth, Stadt","type":"Stadt"},"district":{"key":"03461","name":"Wesermarsch","type":"Landkreis"},"federalState":{"key":"03","name":"Niedersachsen"}},{"name":"Am Tidehafen","postalCode":"26931","locality":"Elsfleth","municipality":{"key":"03461004","name":"Elsfleth, Stadt","type":"Stadt"},"district":{"key":"03461","name":"Wesermarsch","type":"Landkreis"},"federalState":{"key":"03","name":"Niedersachsen"}},{"name":"Am Weserdeich","postalCode":"26931","locality":"Elsfleth","municipality":{"key":"03461004","name":"Elsfleth, Stadt","type":"Stadt"},"district":{"key":"03461","name":"Wesermarsch","type":"Landkreis"},"federalState":{"key":"03","name":"Niedersachsen"}},{"name":"Am Weserufer","postalCode":"26931","locality":"Elsfleth","municipality":{"key":"03461004","name":"Elsfleth, Stadt","type":"Stadt"},"district":{"key":"03461","name":"Wesermarsch","type":"Landkreis"},"federalState":{"key":"03","name":"Niedersachsen"}},{"name":"Am Yachthafen","postalCode":"26931","locality":"Elsfleth","municipality":{"key":"03461004","name":"Elsfleth, Stadt","type":"Stadt"},"district":{"key":"03461","name":"Wesermarsch","type":"Landkreis"},"federalState":{"key":"03","name":"Niedersachsen"}},{"name":"An der Kaje","postalCode":"26931","locality":"Elsfleth","municipality":{"key":"03461004","name":"Elsfleth, Stadt","type":"Stadt"},"district":{"key":"03461","name":"Wesermarsch","type":"Landkreis"},"federalState":{"key":"03","name":"Niedersachsen"}},{"name":"An der Stadthalle","postalCode":"26931","locality":"Elsfleth","municipality":{"key":"03461004","name":"Elsfleth, Stadt","type":"Stadt"},"district":{"key":"03461","name":"Wesermarsch","type":"Landkreis"},"federalState":{"key":"03","name":"Niedersachsen"}},{"name":"An der Weinkaje","postalCode":"26931","locality":"Elsfleth","municipality":{"key":"03461004","name":"Elsfleth, Stadt","type":"Stadt"},"district":{"key":"03461","name":"Wesermarsch","type":"Landkreis"},"federalState":{"key":"03","name":"Niedersachsen"}},{"name":"An der Wettern","postalCode":"25599","locality":"Wewelsfleth","municipality":{"key":"01061110","name":"Wewelsfleth","type":"Kreisangehörige_Gemeinde"},"district":{"key":"01061","name":"Steinburg","type":"Kreis"},"federalState":{"key":"01","name":"Schleswig-Holstein"}},{"name":"Armsünderweg","postalCode":"26931","locality":"Elsfleth","municipality":{"key":"03461004","name":"Elsfleth, Stadt","type":"Stadt"},"district":{"key":"03461","name":"Wesermarsch","type":"Landkreis"},"federalState":{"key":"03","name":"Niedersachsen"}},{"name":"Atlantikstr.","postalCode":"26931","locality":"Elsfleth","municipality":{"key":"03461004","name":"Elsfleth, Stadt","type":"Stadt"},"district":{"key":"03461","name":"Wesermarsch","type":"Landkreis"},"federalState":{"key":"03","name":"Niedersachsen"}},{"name":"Auf dem Berge","postalCode":"25599","locality":"Wewelsfleth","municipality":{"key":"01061110","name":"Wewelsfleth","type":"Kreisangehörige_Gemeinde"},"district":{"key":"01061","name":"Steinburg","type":"Kreis"},"federalState":{"key":"01","name":"Schleswig-Holstein"}},{"name":"Auf der Wiese","postalCode":"26931","locality":"Elsfleth","municipality":{"key":"03461004","name":"Elsfleth, Stadt","type":"Stadt"},"district":{"key":"03461","name":"Wesermarsch","type":"Landkreis"},"federalState":{"key":"03","name":"Niedersachsen"}},{"name":"Bahnhofsplatz","postalCode":"26931","locality":"Elsfleth","municipality":{"key":"03461004","name":"Elsfleth, Stadt","type":"Stadt"},"district":{"key":"03461","name":"Wesermarsch","type":"Landkreis"},"federalState":{"key":"03","name":"Niedersachsen"}},{"name":"Bahnhofstr.","postalCode":"26931","locality":"Elsfleth","municipality":{"key":"03461004","name":"Elsfleth, Stadt","type":"Stadt"},"district":{"key":"03461","name":"Wesermarsch","type":"Landkreis"},"federalState":{"key":"03","name":"Niedersachsen"}},{"name":"Bardenfleth","postalCode":"26931","locality":"Elsfleth","municipality":{"key":"03461004","name":"Elsfleth, Stadt","type":"Stadt"},"district":{"key":"03461","name":"Wesermarsch","type":"Landkreis"},"federalState":{"key":"03","name":"Niedersachsen"}},{"name":"Bardenflether Kuhweidenweg","postalCode":"26931","locality":"Elsfleth","municipality":{"key":"03461004","name":"Elsfleth, Stadt","type":"Stadt"},"district":{"key":"03461","name":"Wesermarsch","type":"Landkreis"},"federalState":{"key":"03","name":"Niedersachsen"}},{"name":"Battermanns Busch","postalCode":"26931","locality":"Elsfleth","municipality":{"key":"03461004","name":"Elsfleth, Stadt","type":"Stadt"},"district":{"key":"03461","name":"Wesermarsch","type":"Landkreis"},"federalState":{"key":"03","name":"Niedersachsen"}},{"name":"Bei der Eiche","postalCode":"26931","locality":"Elsfleth","municipality":{"key":"03461004","name":"Elsfleth, Stadt","type":"Stadt"},"district":{"key":"03461","name":"Wesermarsch","type":"Landkreis"},"federalState":{"key":"03","name":"Niedersachsen"}},{"name":"Beringstr.","postalCode":"26931","locality":"Elsfleth","municipality":{"key":"03461004","name":"Elsfleth, Stadt","type":"Stadt"},"district":{"key":"03461","name":"Wesermarsch","type":"Landkreis"},"federalState":{"key":"03","name":"Niedersachsen"}},{"name":"Bermudastr.","postalCode":"26931","locality":"Elsfleth","municipality":{"key":"03461004","name":"Elsfleth, Stadt","type":"Stadt"},"district":{"key":"03461","name":"Wesermarsch","type":"Landkreis"},"federalState":{"key":"03","name":"Niedersachsen"}},{"name":"Birkenheide","postalCode":"26931","locality":"Elsfleth","municipality":{"key":"03461004","name":"Elsfleth, Stadt","type":"Stadt"},"district":{"key":"03461","name":"Wesermarsch","type":"Landkreis"},"federalState":{"key":"03","name":"Niedersachsen"}},{"name":"Birkenstr.","postalCode":"26931","locality":"Elsfleth","municipality":{"key":"03461004","name":"Elsfleth, Stadt","type":"Stadt"},"district":{"key":"03461","name":"Wesermarsch","type":"Landkreis"},"federalState":{"key":"03","name":"Niedersachsen"}},{"name":"Biskayastr.","postalCode":"26931","locality":"Elsfleth","municipality":{"key":"03461004","name":"Elsfleth, Stadt","type":"Stadt"},"district":{"key":"03461","name":"Wesermarsch","type":"Landkreis"},"federalState":{"key":"03","name":"Niedersachsen"}},{"name":"Bismarckstr.","postalCode":"26931","locality":"Elsfleth","municipality":{"key":"03461004","name":"Elsfleth, Stadt","type":"Stadt"},"district":{"key":"03461","name":"Wesermarsch","type":"Landkreis"},"federalState":{"key":"03","name":"Niedersachsen"}},{"name":"Blömerstr.","postalCode":"26931","locality":"Elsfleth","municipality":{"key":"03461004","name":"Elsfleth, Stadt","type":"Stadt"},"district":{"key":"03461","name":"Wesermarsch","type":"Landkreis"},"federalState":{"key":"03","name":"Niedersachsen"}},{"name":"Brodpad","postalCode":"26931","locality":"Elsfleth","municipality":{"key":"03461004","name":"Elsfleth, Stadt","type":"Stadt"},"district":{"key":"03461","name":"Wesermarsch","type":"Landkreis"},"federalState":{"key":"03","name":"Niedersachsen"}},{"name":"Brootpatt","postalCode":"26931","locality":"Elsfleth","municipality":{"key":"03461004","name":"Elsfleth, Stadt","type":"Stadt"},"district":{"key":"03461","name":"Wesermarsch","type":"Landkreis"},"federalState":{"key":"03","name":"Niedersachsen"}},{"name":"Buchenweg","postalCode":"26931","locality":"Elsfleth","municipality":{"key":"03461004","name":"Elsfleth, Stadt","type":"Stadt"},"district":{"key":"03461","name":"Wesermarsch","type":"Landkreis"},"federalState":{"key":"03","name":"Niedersachsen"}},{"name":"Bürgermeister-Ehlers-Str.","postalCode":"26931","locality":"Elsfleth","municipality":{"key":"03461004","name":"Elsfleth, Stadt","type":"Stadt"},"district":{"key":"03461","name":"Wesermarsch","type":"Landkreis"},"federalState":{"key":"03","name":"Niedersachsen"}},{"name":"Bürgermeister-Ekkehard-Sachse-Platz","postalCode":"25599","locality":"Wewelsfleth","municipality":{"key":"01061110","name":"Wewelsfleth","type":"Kreisangehörige_Gemeinde"},"district":{"key":"01061","name":"Steinburg","type":"Kreis"},"federalState":{"key":"01","name":"Schleswig-Holstein"}},{"name":"Burwinkel","postalCode":"26931","locality":"Elsfleth","municipality":{"key":"03461004","name":"Elsfleth, Stadt","type":"Stadt"},"district":{"key":"03461","name":"Wesermarsch","type":"Landkreis"},"federalState":{"key":"03","name":"Niedersachsen"}},{"name":"Burwinkler Hellmer","postalCode":"26931","locality":"Elsfleth","municipality":{"key":"03461004","name":"Elsfleth, Stadt","type":"Stadt"},"district":{"key":"03461","name":"Wesermarsch","type":"Landkreis"},"federalState":{"key":"03","name":"Niedersachsen"}},{"name":"Burwinkler Moorweg","postalCode":"26931","locality":"Elsfleth","municipality":{"key":"03461004","name":"Elsfleth, Stadt","type":"Stadt"},"district":{"key":"03461","name":"Wesermarsch","type":"Landkreis"},"federalState":{"key":"03","name":"Niedersachsen"}},{"name":"Butteldorf","postalCode":"26931","locality":"Elsfleth","municipality":{"key":"03461004","name":"Elsfleth, Stadt","type":"Stadt"},"district":{"key":"03461","name":"Wesermarsch","type":"Landkreis"},"federalState":{"key":"03","name":"Niedersachsen"}},{"name":"Butteldorfer Damm","postalCode":"26931","locality":"Elsfleth","municipality":{"key":"03461004","name":"Elsfleth, Stadt","type":"Stadt"},"district":{"key":"03461","name":"Wesermarsch","type":"Landkreis"},"federalState":{"key":"03","name":"Niedersachsen"}},{"name":"Butteldorfer Hellmer","postalCode":"26931","locality":"Elsfleth","municipality":{"key":"03461004","name":"Elsfleth, Stadt","type":"Stadt"},"district":{"key":"03461","name":"Wesermarsch","type":"Landkreis"},"federalState":{"key":"03","name":"Niedersachsen"}},{"name":"Butteldorfer Querweg","postalCode":"26931","locality":"Elsfleth","municipality":{"key":"03461004","name":"Elsfleth, Stadt","type":"Stadt"},"district":{"key":"03461","name":"Wesermarsch","type":"Landkreis"},"federalState":{"key":"03","name":"Niedersachsen"}},{"name":"Cap-Hoorn-Str.","postalCode":"26931","locality":"Elsfleth","municipality":{"key":"03461004","name":"Elsfleth, Stadt","type":"Stadt"},"district":{"key":"03461","name":"Wesermarsch","type":"Landkreis"},"federalState":{"key":"03","name":"Niedersachsen"}},{"name":"Dalsper","postalCode":"26931","locality":"Elsfleth","municipality":{"key":"03461004","name":"Elsfleth, Stadt","type":"Stadt"},"district":{"key":"03461","name":"Wesermarsch","type":"Landkreis"},"federalState":{"key":"03","name":"Niedersachsen"}},{"name":"Dalsper Hellmer","postalCode":"26931","locality":"Elsfleth","municipality":{"key":"03461004","name":"Elsfleth, Stadt","type":"Stadt"},"district":{"key":"03461","name":"Wesermarsch","type":"Landkreis"},"federalState":{"key":"03","name":"Niedersachsen"}},{"name":"Dammducht","postalCode":"25599","locality":"Wewelsfleth","municipality":{"key":"01061110","name":"Wewelsfleth","type":"Kreisangehörige_Gemeinde"},"district":{"key":"01061","name":"Steinburg","type":"Kreis"},"federalState":{"key":"01","name":"Schleswig-Holstein"}},{"name":"Danziger Weg","postalCode":"26931","locality":"Elsfleth","municipality":{"key":"03461004","name":"Elsfleth, Stadt","type":"Stadt"},"district":{"key":"03461","name":"Wesermarsch","type":"Landkreis"},"federalState":{"key":"03","name":"Niedersachsen"}},{"name":"Deichreihe","postalCode":"25599","locality":"Wewelsfleth","municipality":{"key":"01061110","name":"Wewelsfleth","type":"Kreisangehörige_Gemeinde"},"district":{"key":"01061","name":"Steinburg","type":"Kreis"},"federalState":{"key":"01","name":"Schleswig-Holstein"}},{"name":"Deichstr.","postalCode":"26931","locality":"Elsfleth","municipality":{"key":"03461004","name":"Elsfleth, Stadt","type":"Stadt"},"district":{"key":"03461","name":"Wesermarsch","type":"Landkreis"},"federalState":{"key":"03","name":"Niedersachsen"}},{"name":"Deichstücken","postalCode":"26931","locality":"Elsfleth","municipality":{"key":"03461004","name":"Elsfleth, Stadt","type":"Stadt"},"district":{"key":"03461","name":"Wesermarsch","type":"Landkreis"},"federalState":{"key":"03","name":"Niedersachsen"}},{"name":"Dorfstr.","postalCode":"25599","locality":"Wewelsfleth","municipality":{"key":"01061110","name":"Wewelsfleth","type":"Kreisangehörige_Gemeinde"},"district":{"key":"01061","name":"Steinburg","type":"Kreis"},"federalState":{"key":"01","name":"Schleswig-Holstein"}},{"name":"Doris-Heye-Str.","postalCode":"26931","locality":"Elsfleth","municipality":{"key":"03461004","name":"Elsfleth, Stadt","type":"Stadt"},"district":{"key":"03461","name":"Wesermarsch","type":"Landkreis"},"federalState":{"key":"03","name":"Niedersachsen"}},{"name":"Drosselweg","postalCode":"26931","locality":"Elsfleth","municipality":{"key":"03461004","name":"Elsfleth, Stadt","type":"Stadt"},"district":{"key":"03461","name":"Wesermarsch","type":"Landkreis"},"federalState":{"key":"03","name":"Niedersachsen"}},{"name":"Eckfleth","postalCode":"26931","locality":"Elsfleth","municipality":{"key":"03461004","name":"Elsfleth, Stadt","type":"Stadt"},"district":{"key":"03461","name":"Wesermarsch","type":"Landkreis"},"federalState":{"key":"03","name":"Niedersachsen"}},{"name":"Eckflether Damm","postalCode":"26931","locality":"Elsfleth","municipality":{"key":"03461004","name":"Elsfleth, Stadt","type":"Stadt"},"district":{"key":"03461","name":"Wesermarsch","type":"Landkreis"},"federalState":{"key":"03","name":"Niedersachsen"}},{"name":"Eckflether Hellmer","postalCode":"26931","locality":"Elsfleth","municipality":{"key":"03461004","name":"Elsfleth, Stadt","type":"Stadt"},"district":{"key":"03461","name":"Wesermarsch","type":"Landkreis"},"federalState":{"key":"03","name":"Niedersachsen"}},{"name":"Eckflether Helmer","postalCode":"26931","locality":"Elsfleth","municipality":{"key":"03461004","name":"Elsfleth, Stadt","type":"Stadt"},"district":{"key":"03461","name":"Wesermarsch","type":"Landkreis"},"federalState":{"key":"03","name":"Niedersachsen"}},{"name":"Elbuferweg","postalCode":"25599","locality":"Wewelsfleth","municipality":{"key":"01061110","name":"Wewelsfleth","type":"Kreisangehörige_Gemeinde"},"district":{"key":"01061","name":"Steinburg","type":"Kreis"},"federalState":{"key":"01","name":"Schleswig-Holstein"}},{"name":"Elsflether Str.","postalCode":"26931","locality":"Elsfleth","municipality":{"key":"03461004","name":"Elsfleth, Stadt","type":"Stadt"},"district":{"key":"03461","name":"Wesermarsch","type":"Landkreis"},"federalState":{"key":"03","name":"Niedersachsen"}},{"name":"Erlenteich","postalCode":"26931","locality":"Elsfleth","municipality":{"key":"03461004","name":"Elsfleth, Stadt","type":"Stadt"},"district":{"key":"03461","name":"Wesermarsch","type":"Landkreis"},"federalState":{"key":"03","name":"Niedersachsen"}},{"name":"Erlenweg","postalCode":"26931","locality":"Elsfleth","municipality":{"key":"03461004","name":"Elsfleth, Stadt","type":"Stadt"},"district":{"key":"03461","name":"Wesermarsch","type":"Landkreis"},"federalState":{"key":"03","name":"Niedersachsen"}},{"name":"Fichtenstr.","postalCode":"26931","locality":"Elsfleth","municipality":{"key":"03461004","name":"Elsfleth, Stadt","type":"Stadt"},"district":{"key":"03461","name":"Wesermarsch","type":"Landkreis"},"federalState":{"key":"03","name":"Niedersachsen"}},{"name":"Fielweg","postalCode":"25599","locality":"Wewelsfleth","municipality":{"key":"01061110","name":"Wewelsfleth","type":"Kreisangehörige_Gemeinde"},"district":{"key":"01061","name":"Steinburg","type":"Kreis"},"federalState":{"key":"01","name":"Schleswig-Holstein"}},{"name":"Finkenweg","postalCode":"26931","locality":"Elsfleth","municipality":{"key":"03461004","name":"Elsfleth, Stadt","type":"Stadt"},"district":{"key":"03461","name":"Wesermarsch","type":"Landkreis"},"federalState":{"key":"03","name":"Niedersachsen"}},{"name":"Fliederstr.","postalCode":"26931","locality":"Elsfleth","municipality":{"key":"03461004","name":"Elsfleth, Stadt","type":"Stadt"},"district":{"key":"03461","name":"Wesermarsch","type":"Landkreis"},"federalState":{"key":"03","name":"Niedersachsen"}},{"name":"Floridastr.","postalCode":"26931","locality":"Elsfleth","municipality":{"key":"03461004","name":"Elsfleth, Stadt","type":"Stadt"},"district":{"key":"03461","name":"Wesermarsch","type":"Landkreis"},"federalState":{"key":"03","name":"Niedersachsen"}},{"name":"Friedrich-August-Str.","postalCode":"26931","locality":"Elsfleth","municipality":{"key":"03461004","name":"Elsfleth, Stadt","type":"Stadt"},"district":{"key":"03461","name":"Wesermarsch","type":"Landkreis"},"federalState":{"key":"03","name":"Niedersachsen"}},{"name":"Fünfhauser Str.","postalCode":"26931","locality":"Elsfleth","municipality":{"key":"03461004","name":"Elsfleth, Stadt","type":"Stadt"},"district":{"key":"03461","name":"Wesermarsch","type":"Landkreis"},"federalState":{"key":"03","name":"Niedersachsen"}},{"name":"Fünfhauser Wurpstr.","postalCode":"26931","locality":"Elsfleth","municipality":{"key":"03461004","name":"Elsfleth, Stadt","type":"Stadt"},"district":{"key":"03461","name":"Wesermarsch","type":"Landkreis"},"federalState":{"key":"03","name":"Niedersachsen"}},{"name":"Garten Moorriem","postalCode":"26931","locality":"Elsfleth","municipality":{"key":"03461004","name":"Elsfleth, Stadt","type":"Stadt"},"district":{"key":"03461","name":"Wesermarsch","type":"Landkreis"},"federalState":{"key":"03","name":"Niedersachsen"}},{"name":"Gartenstr.","postalCode":"26931","locality":"Elsfleth","municipality":{"key":"03461004","name":"Elsfleth, Stadt","type":"Stadt"},"district":{"key":"03461","name":"Wesermarsch","type":"Landkreis"},"federalState":{"key":"03","name":"Niedersachsen"}},{"name":"Gellener Damm","postalCode":"26931","locality":"Elsfleth","municipality":{"key":"03461004","name":"Elsfleth, Stadt","type":"Stadt"},"district":{"key":"03461","name":"Wesermarsch","type":"Landkreis"},"federalState":{"key":"03","name":"Niedersachsen"}},{"name":"Gellener Helmer","postalCode":"26931","locality":"Elsfleth","municipality":{"key":"03461004","name":"Elsfleth, Stadt","type":"Stadt"},"district":{"key":"03461","name":"Wesermarsch","type":"Landkreis"},"federalState":{"key":"03","name":"Niedersachsen"}},{"name":"Gellener Str.","postalCode":"26931","locality":"Elsfleth","municipality":{"key":"03461004","name":"Elsfleth, Stadt","type":"Stadt"},"district":{"key":"03461","name":"Wesermarsch","type":"Landkreis"},"federalState":{"key":"03","name":"Niedersachsen"}},{"name":"Georgstr.","postalCode":"26931","locality":"Elsfleth","municipality":{"key":"03461004","name":"Elsfleth, Stadt","type":"Stadt"},"district":{"key":"03461","name":"Wesermarsch","type":"Landkreis"},"federalState":{"key":"03","name":"Niedersachsen"}},{"name":"Gibraltarstr.","postalCode":"26931","locality":"Elsfleth","municipality":{"key":"03461004","name":"Elsfleth, Stadt","type":"Stadt"},"district":{"key":"03461","name":"Wesermarsch","type":"Landkreis"},"federalState":{"key":"03","name":"Niedersachsen"}},{"name":"Gorch-Fock-Str.","postalCode":"26931","locality":"Elsfleth","municipality":{"key":"03461004","name":"Elsfleth, Stadt","type":"Stadt"},"district":{"key":"03461","name":"Wesermarsch","type":"Landkreis"},"federalState":{"key":"03","name":"Niedersachsen"}},{"name":"Graf-Anton-Günther-Str.","postalCode":"26931","locality":"Elsfleth","municipality":{"key":"03461004","name":"Elsfleth, Stadt","type":"Stadt"},"district":{"key":"03461","name":"Wesermarsch","type":"Landkreis"},"federalState":{"key":"03","name":"Niedersachsen"}},{"name":"Graskämpeweg","postalCode":"26931","locality":"Elsfleth","municipality":{"key":"03461004","name":"Elsfleth, Stadt","type":"Stadt"},"district":{"key":"03461","name":"Wesermarsch","type":"Landkreis"},"federalState":{"key":"03","name":"Niedersachsen"}},{"name":"Grasmoorweg","postalCode":"26931","locality":"Elsfleth","municipality":{"key":"03461004","name":"Elsfleth, Stadt","type":"Stadt"},"district":{"key":"03461","name":"Wesermarsch","type":"Landkreis"},"federalState":{"key":"03","name":"Niedersachsen"}},{"name":"Grasmörtenweg Nord","postalCode":"26931","locality":"Elsfleth","municipality":{"key":"03461004","name":"Elsfleth, Stadt","type":"Stadt"},"district":{"key":"03461","name":"Wesermarsch","type":"Landkreis"},"federalState":{"key":"03","name":"Niedersachsen"}},{"name":"Grasmörte Weg - Süd","postalCode":"26931","locality":"Elsfleth","municipality":{"key":"03461004","name":"Elsfleth, Stadt","type":"Stadt"},"district":{"key":"03461","name":"Wesermarsch","type":"Landkreis"},"federalState":{"key":"03","name":"Niedersachsen"}},{"name":"Gröne Werfmittelweg","postalCode":"26931","locality":"Elsfleth","municipality":{"key":"03461004","name":"Elsfleth, Stadt","type":"Stadt"},"district":{"key":"03461","name":"Wesermarsch","type":"Landkreis"},"federalState":{"key":"03","name":"Niedersachsen"}},{"name":"Grönewertweg","postalCode":"26931","locality":"Elsfleth","municipality":{"key":"03461004","name":"Elsfleth, Stadt","type":"Stadt"},"district":{"key":"03461","name":"Wesermarsch","type":"Landkreis"},"federalState":{"key":"03","name":"Niedersachsen"}},{"name":"Große Hellmer","postalCode":"26931","locality":"Elsfleth","municipality":{"key":"03461004","name":"Elsfleth, Stadt","type":"Stadt"},"district":{"key":"03461","name":"Wesermarsch","type":"Landkreis"},"federalState":{"key":"03","name":"Niedersachsen"}},{"name":"Großwisch","postalCode":"25599","locality":"Wewelsfleth","municipality":{"key":"01061110","name":"Wewelsfleth","type":"Kreisangehörige_Gemeinde"},"district":{"key":"01061","name":"Steinburg","type":"Kreis"},"federalState":{"key":"01","name":"Schleswig-Holstein"}},{"name":"Grüne Str.","postalCode":"26931","locality":"Elsfleth","municipality":{"key":"03461004","name":"Elsfleth, Stadt","type":"Stadt"},"district":{"key":"03461","name":"Wesermarsch","type":"Landkreis"},"federalState":{"key":"03","name":"Niedersachsen"}},{"name":"Haaksweg","postalCode":"26931","locality":"Elsfleth","municipality":{"key":"03461004","name":"Elsfleth, Stadt","type":"Stadt"},"district":{"key":"03461","name":"Wesermarsch","type":"Landkreis"},"federalState":{"key":"03","name":"Niedersachsen"}},{"name":"Haberkamp","postalCode":"25599","locality":"Wewelsfleth","municipality":{"key":"01061110","name":"Wewelsfleth","type":"Kreisangehörige_Gemeinde"},"district":{"key":"01061","name":"Steinburg","type":"Kreis"},"federalState":{"key":"01","name":"Schleswig-Holstein"}},{"name":"Hafenstr.","postalCode":"26931","locality":"Elsfleth","municipality":{"key":"03461004","name":"Elsfleth, Stadt","type":"Stadt"},"district":{"key":"03461","name":"Wesermarsch","type":"Landkreis"},"federalState":{"key":"03","name":"Niedersachsen"}},{"name":"Hagebuttenweg","postalCode":"26931","locality":"Elsfleth","municipality":{"key":"03461004","name":"Elsfleth, Stadt","type":"Stadt"},"district":{"key":"03461","name":"Wesermarsch","type":"Landkreis"},"federalState":{"key":"03","name":"Niedersachsen"}},{"name":"Heiddeich","postalCode":"26931","locality":"Elsfleth","municipality":{"key":"03461004","name":"Elsfleth, Stadt","type":"Stadt"},"district":{"key":"03461","name":"Wesermarsch","type":"Landkreis"},"federalState":{"key":"03","name":"Niedersachsen"}},{"name":"Henneke-Wulf-Str.","postalCode":"25599","locality":"Wewelsfleth","municipality":{"key":"01061110","name":"Wewelsfleth","type":"Kreisangehörige_Gemeinde"},"district":{"key":"01061","name":"Steinburg","type":"Kreis"},"federalState":{"key":"01","name":"Schleswig-Holstein"}},{"name":"Henriettenstr.","postalCode":"26931","locality":"Elsfleth","municipality":{"key":"03461004","name":"Elsfleth, Stadt","type":"Stadt"},"district":{"key":"03461","name":"Wesermarsch","type":"Landkreis"},"federalState":{"key":"03","name":"Niedersachsen"}},{"name":"Hermann-Allmers-Str.","postalCode":"26931","locality":"Elsfleth","municipality":{"key":"03461004","name":"Elsfleth, Stadt","type":"Stadt"},"district":{"key":"03461","name":"Wesermarsch","type":"Landkreis"},"federalState":{"key":"03","name":"Niedersachsen"}},{"name":"Hermann-Löns-Str.","postalCode":"26931","locality":"Elsfleth","municipality":{"key":"03461004","name":"Elsfleth, Stadt","type":"Stadt"},"district":{"key":"03461","name":"Wesermarsch","type":"Landkreis"},"federalState":{"key":"03","name":"Niedersachsen"}},{"name":"Heuland Mittelweg","postalCode":"26931","locality":"Elsfleth","municipality":{"key":"03461004","name":"Elsfleth, Stadt","type":"Stadt"},"district":{"key":"03461","name":"Wesermarsch","type":"Landkreis"},"federalState":{"key":"03","name":"Niedersachsen"}},{"name":"Heulandsmoorweg","postalCode":"26931","locality":"Elsfleth","municipality":{"key":"03461004","name":"Elsfleth, Stadt","type":"Stadt"},"district":{"key":"03461","name":"Wesermarsch","type":"Landkreis"},"federalState":{"key":"03","name":"Niedersachsen"}},{"name":"Hinterm Hof","postalCode":"25599","locality":"Wewelsfleth","municipality":{"key":"01061110","name":"Wewelsfleth","type":"Kreisangehörige_Gemeinde"},"district":{"key":"01061","name":"Steinburg","type":"Kreis"},"federalState":{"key":"01","name":"Schleswig-Holstein"}},{"name":"Höfeweg","postalCode":"26931","locality":"Elsfleth","municipality":{"key":"03461004","name":"Elsfleth, Stadt","type":"Stadt"},"district":{"key":"03461","name":"Wesermarsch","type":"Landkreis"},"federalState":{"key":"03","name":"Niedersachsen"}},{"name":"Hohendeich","postalCode":"25599","locality":"Wewelsfleth","municipality":{"key":"01061110","name":"Wewelsfleth","type":"Kreisangehörige_Gemeinde"},"district":{"key":"01061","name":"Steinburg","type":"Kreis"},"federalState":{"key":"01","name":"Schleswig-Holstein"}},{"name":"Hollerwettern","postalCode":"25599","locality":"Wewelsfleth","municipality":{"key":"01061110","name":"Wewelsfleth","type":"Kreisangehörige_Gemeinde"},"district":{"key":"01061","name":"Steinburg","type":"Kreis"},"federalState":{"key":"01","name":"Schleswig-Holstein"}},{"name":"Holzkontor","postalCode":"26931","locality":"Elsfleth","municipality":{"key":"03461004","name":"Elsfleth, Stadt","type":"Stadt"},"district":{"key":"03461","name":"Wesermarsch","type":"Landkreis"},"federalState":{"key":"03","name":"Niedersachsen"}},{"name":"Hudsonstr.","postalCode":"26931","locality":"Elsfleth","municipality":{"key":"03461004","name":"Elsfleth, Stadt","type":"Stadt"},"district":{"key":"03461","name":"Wesermarsch","type":"Landkreis"},"federalState":{"key":"03","name":"Niedersachsen"}},{"name":"Humsterdorf","postalCode":"25599","locality":"Wewelsfleth","municipality":{"key":"01061110","name":"Wewelsfleth","type":"Kreisangehörige_Gemeinde"},"district":{"key":"01061","name":"Steinburg","type":"Kreis"},"federalState":{"key":"01","name":"Schleswig-Holstein"}},{"name":"Huntebrück","postalCode":"26931","locality":"Elsfleth","municipality":{"key":"03461004","name":"Elsfleth, Stadt","type":"Stadt"},"district":{"key":"03461","name":"Wesermarsch","type":"Landkreis"},"federalState":{"key":"03","name":"Niedersachsen"}},{"name":"Huntestr.","postalCode":"26931","locality":"Elsfleth","municipality":{"key":"03461004","name":"Elsfleth, Stadt","type":"Stadt"},"district":{"key":"03461","name":"Wesermarsch","type":"Landkreis"},"federalState":{"key":"03","name":"Niedersachsen"}},{"name":"Huntorf","postalCode":"26931","locality":"Elsfleth","municipality":{"key":"03461004","name":"Elsfleth, Stadt","type":"Stadt"},"district":{"key":"03461","name":"Wesermarsch","type":"Landkreis"},"federalState":{"key":"03","name":"Niedersachsen"}},{"name":"Huntorfer Hellmer","postalCode":"26931","locality":"Elsfleth","municipality":{"key":"03461004","name":"Elsfleth, Stadt","type":"Stadt"},"district":{"key":"03461","name":"Wesermarsch","type":"Landkreis"},"federalState":{"key":"03","name":"Niedersachsen"}},{"name":"Huntorfer Querweg","postalCode":"26931","locality":"Elsfleth","municipality":{"key":"03461004","name":"Elsfleth, Stadt","type":"Stadt"},"district":{"key":"03461","name":"Wesermarsch","type":"Landkreis"},"federalState":{"key":"03","name":"Niedersachsen"}},{"name":"Huntorfer Weg","postalCode":"26931","locality":"Elsfleth","municipality":{"key":"03461004","name":"Elsfleth, Stadt","type":"Stadt"},"district":{"key":"03461","name":"Wesermarsch","type":"Landkreis"},"federalState":{"key":"03","name":"Niedersachsen"}},{"name":"In den Wiesen","postalCode":"25599","locality":"Wewelsfleth","municipality":{"key":"01061110","name":"Wewelsfleth","type":"Kreisangehörige_Gemeinde"},"district":{"key":"01061","name":"Steinburg","type":"Kreis"},"federalState":{"key":"01","name":"Schleswig-Holstein"}},{"name":"Karibikstr.","postalCode":"26931","locality":"Elsfleth","municipality":{"key":"03461004","name":"Elsfleth, Stadt","type":"Stadt"},"district":{"key":"03461","name":"Wesermarsch","type":"Landkreis"},"federalState":{"key":"03","name":"Niedersachsen"}},{"name":"Kasernenstr.","postalCode":"26931","locality":"Elsfleth","municipality":{"key":"03461004","name":"Elsfleth, Stadt","type":"Stadt"},"district":{"key":"03461","name":"Wesermarsch","type":"Landkreis"},"federalState":{"key":"03","name":"Niedersachsen"}},{"name":"Kastanienweg","postalCode":"26931","locality":"Elsfleth","municipality":{"key":"03461004","name":"Elsfleth, Stadt","type":"Stadt"},"district":{"key":"03461","name":"Wesermarsch","type":"Landkreis"},"federalState":{"key":"03","name":"Niedersachsen"}},{"name":"Kattegatstr.","postalCode":"26931","locality":"Elsfleth","municipality":{"key":"03461004","name":"Elsfleth, Stadt","type":"Stadt"},"district":{"key":"03461","name":"Wesermarsch","type":"Landkreis"},"federalState":{"key":"03","name":"Niedersachsen"}},{"name":"Kiek Ut","postalCode":"25599","locality":"Wewelsfleth","municipality":{"key":"01061110","name":"Wewelsfleth","type":"Kreisangehörige_Gemeinde"},"district":{"key":"01061","name":"Steinburg","type":"Kreis"},"federalState":{"key":"01","name":"Schleswig-Holstein"}},{"name":"Kirchweg","postalCode":"26931","locality":"Elsfleth","municipality":{"key":"03461004","name":"Elsfleth, Stadt","type":"Stadt"},"district":{"key":"03461","name":"Wesermarsch","type":"Landkreis"},"federalState":{"key":"03","name":"Niedersachsen"}},{"name":"Kleiner Nordermoorer Hellmer","postalCode":"26931","locality":"Elsfleth","municipality":{"key":"03461004","name":"Elsfleth, Stadt","type":"Stadt"},"district":{"key":"03461","name":"Wesermarsch","type":"Landkreis"},"federalState":{"key":"03","name":"Niedersachsen"}},{"name":"Kortendorf","postalCode":"26931","locality":"Elsfleth","municipality":{"key":"03461004","name":"Elsfleth, Stadt","type":"Stadt"},"district":{"key":"03461","name":"Wesermarsch","type":"Landkreis"},"federalState":{"key":"03","name":"Niedersachsen"}},{"name":"Kuhlendamm","postalCode":"26931","locality":"Elsfleth","municipality":{"key":"03461004","name":"Elsfleth, Stadt","type":"Stadt"},"district":{"key":"03461","name":"Wesermarsch","type":"Landkreis"},"federalState":{"key":"03","name":"Niedersachsen"}},{"name":"Kuhweide","postalCode":"26931","locality":"Elsfleth","municipality":{"key":"03461004","name":"Elsfleth, Stadt","type":"Stadt"},"district":{"key":"03461","name":"Wesermarsch","type":"Landkreis"},"federalState":{"key":"03","name":"Niedersachsen"}},{"name":"Langenmoorweg","postalCode":"26931","locality":"Elsfleth","municipality":{"key":"03461004","name":"Elsfleth, Stadt","type":"Stadt"},"district":{"key":"03461","name":"Wesermarsch","type":"Landkreis"},"federalState":{"key":"03","name":"Niedersachsen"}},{"name":"Langepatt","postalCode":"26931","locality":"Elsfleth","municipality":{"key":"03461004","name":"Elsfleth, Stadt","type":"Stadt"},"district":{"key":"03461","name":"Wesermarsch","type":"Landkreis"},"federalState":{"key":"03","name":"Niedersachsen"}},{"name":"Lange Wendt Weg","postalCode":"26931","locality":"Elsfleth","municipality":{"key":"03461004","name":"Elsfleth, Stadt","type":"Stadt"},"district":{"key":"03461","name":"Wesermarsch","type":"Landkreis"},"federalState":{"key":"03","name":"Niedersachsen"}},{"name":"Lerchenstr.","postalCode":"26931","locality":"Elsfleth","municipality":{"key":"03461004","name":"Elsfleth, Stadt","type":"Stadt"},"district":{"key":"03461","name":"Wesermarsch","type":"Landkreis"},"federalState":{"key":"03","name":"Niedersachsen"}},{"name":"Lesumstr.","postalCode":"26931","locality":"Elsfleth","municipality":{"key":"03461004","name":"Elsfleth, Stadt","type":"Stadt"},"district":{"key":"03461","name":"Wesermarsch","type":"Landkreis"},"federalState":{"key":"03","name":"Niedersachsen"}},{"name":"Lichtenberg","postalCode":"26931","locality":"Elsfleth","municipality":{"key":"03461004","name":"Elsfleth, Stadt","type":"Stadt"},"district":{"key":"03461","name":"Wesermarsch","type":"Landkreis"},"federalState":{"key":"03","name":"Niedersachsen"}},{"name":"Lichtenberger Weg","postalCode":"26931","locality":"Elsfleth","municipality":{"key":"03461004","name":"Elsfleth, Stadt","type":"Stadt"},"district":{"key":"03461","name":"Wesermarsch","type":"Landkreis"},"federalState":{"key":"03","name":"Niedersachsen"}},{"name":"Lienen","postalCode":"26931","locality":"Elsfleth","municipality":{"key":"03461004","name":"Elsfleth, Stadt","type":"Stadt"},"district":{"key":"03461","name":"Wesermarsch","type":"Landkreis"},"federalState":{"key":"03","name":"Niedersachsen"}},{"name":"Lienestr.","postalCode":"26931","locality":"Elsfleth","municipality":{"key":"03461004","name":"Elsfleth, Stadt","type":"Stadt"},"district":{"key":"03461","name":"Wesermarsch","type":"Landkreis"},"federalState":{"key":"03","name":"Niedersachsen"}},{"name":"Lindenstr.","postalCode":"26931","locality":"Elsfleth","municipality":{"key":"03461004","name":"Elsfleth, Stadt","type":"Stadt"},"district":{"key":"03461","name":"Wesermarsch","type":"Landkreis"},"federalState":{"key":"03","name":"Niedersachsen"}},{"name":"Magellanstr.","postalCode":"26931","locality":"Elsfleth","municipality":{"key":"03461004","name":"Elsfleth, Stadt","type":"Stadt"},"district":{"key":"03461","name":"Wesermarsch","type":"Landkreis"},"federalState":{"key":"03","name":"Niedersachsen"}},{"name":"Marschenblick","postalCode":"25599","locality":"Wewelsfleth","municipality":{"key":"01061110","name":"Wewelsfleth","type":"Kreisangehörige_Gemeinde"},"district":{"key":"01061","name":"Steinburg","type":"Kreis"},"federalState":{"key":"01","name":"Schleswig-Holstein"}},{"name":"Marschenweg","postalCode":"26931","locality":"Elsfleth","municipality":{"key":"03461004","name":"Elsfleth, Stadt","type":"Stadt"},"district":{"key":"03461","name":"Wesermarsch","type":"Landkreis"},"federalState":{"key":"03","name":"Niedersachsen"}},{"name":"Meisterstr.","postalCode":"26931","locality":"Elsfleth","municipality":{"key":"03461004","name":"Elsfleth, Stadt","type":"Stadt"},"district":{"key":"03461","name":"Wesermarsch","type":"Landkreis"},"federalState":{"key":"03","name":"Niedersachsen"}},{"name":"Menkestr.","postalCode":"26931","locality":"Elsfleth","municipality":{"key":"03461004","name":"Elsfleth, Stadt","type":"Stadt"},"district":{"key":"03461","name":"Wesermarsch","type":"Landkreis"},"federalState":{"key":"03","name":"Niedersachsen"}},{"name":"Milchstr.","postalCode":"26931","locality":"Elsfleth","municipality":{"key":"03461004","name":"Elsfleth, Stadt","type":"Stadt"},"district":{"key":"03461","name":"Wesermarsch","type":"Landkreis"},"federalState":{"key":"03","name":"Niedersachsen"}},{"name":"Mitteldeich","postalCode":"26931","locality":"Elsfleth","municipality":{"key":"03461004","name":"Elsfleth, Stadt","type":"Stadt"},"district":{"key":"03461","name":"Wesermarsch","type":"Landkreis"},"federalState":{"key":"03","name":"Niedersachsen"}},{"name":"Mittelstr.","postalCode":"26931","locality":"Elsfleth","municipality":{"key":"03461004","name":"Elsfleth, Stadt","type":"Stadt"},"district":{"key":"03461","name":"Wesermarsch","type":"Landkreis"},"federalState":{"key":"03","name":"Niedersachsen"}},{"name":"Mittelweg","postalCode":"26931","locality":"Elsfleth","municipality":{"key":"03461004","name":"Elsfleth, Stadt","type":"Stadt"},"district":{"key":"03461","name":"Wesermarsch","type":"Landkreis"},"federalState":{"key":"03","name":"Niedersachsen"}},{"name":"Molkereistr.","postalCode":"26931","locality":"Elsfleth","municipality":{"key":"03461004","name":"Elsfleth, Stadt","type":"Stadt"},"district":{"key":"03461","name":"Wesermarsch","type":"Landkreis"},"federalState":{"key":"03","name":"Niedersachsen"}},{"name":"Moordorfer Hellmer","postalCode":"26931","locality":"Elsfleth","municipality":{"key":"03461004","name":"Elsfleth, Stadt","type":"Stadt"},"district":{"key":"03461","name":"Wesermarsch","type":"Landkreis"},"federalState":{"key":"03","name":"Niedersachsen"}},{"name":"Moorhauser Helmer","postalCode":"26931","locality":"Elsfleth","municipality":{"key":"03461004","name":"Elsfleth, Stadt","type":"Stadt"},"district":{"key":"03461","name":"Wesermarsch","type":"Landkreis"},"federalState":{"key":"03","name":"Niedersachsen"}},{"name":"Moorstr.","postalCode":"26931","locality":"Elsfleth","municipality":{"key":"03461004","name":"Elsfleth, Stadt","type":"Stadt"},"district":{"key":"03461","name":"Wesermarsch","type":"Landkreis"},"federalState":{"key":"03","name":"Niedersachsen"}},{"name":"Möwenstr.","postalCode":"26931","locality":"Elsfleth","municipality":{"key":"03461004","name":"Elsfleth, Stadt","type":"Stadt"},"district":{"key":"03461","name":"Wesermarsch","type":"Landkreis"},"federalState":{"key":"03","name":"Niedersachsen"}},{"name":"Mühlenstr.","postalCode":"26931","locality":"Elsfleth","municipality":{"key":"03461004","name":"Elsfleth, Stadt","type":"Stadt"},"district":{"key":"03461","name":"Wesermarsch","type":"Landkreis"},"federalState":{"key":"03","name":"Niedersachsen"}},{"name":"Mühlenweg","postalCode":"26931","locality":"Elsfleth","municipality":{"key":"03461004","name":"Elsfleth, Stadt","type":"Stadt"},"district":{"key":"03461","name":"Wesermarsch","type":"Landkreis"},"federalState":{"key":"03","name":"Niedersachsen"}},{"name":"Mühlenweide","postalCode":"25599","locality":"Wewelsfleth","municipality":{"key":"01061110","name":"Wewelsfleth","type":"Kreisangehörige_Gemeinde"},"district":{"key":"01061","name":"Steinburg","type":"Kreis"},"federalState":{"key":"01","name":"Schleswig-Holstein"}},{"name":"Neddenkamp","postalCode":"26931","locality":"Elsfleth","municipality":{"key":"03461004","name":"Elsfleth, Stadt","type":"Stadt"},"district":{"key":"03461","name":"Wesermarsch","type":"Landkreis"},"federalState":{"key":"03","name":"Niedersachsen"}},{"name":"Nelkenstr.","postalCode":"26931","locality":"Elsfleth","municipality":{"key":"03461004","name":"Elsfleth, Stadt","type":"Stadt"},"district":{"key":"03461","name":"Wesermarsch","type":"Landkreis"},"federalState":{"key":"03","name":"Niedersachsen"}},{"name":"Neue Hellmer","postalCode":"26931","locality":"Elsfleth","municipality":{"key":"03461004","name":"Elsfleth, Stadt","type":"Stadt"},"district":{"key":"03461","name":"Wesermarsch","type":"Landkreis"},"federalState":{"key":"03","name":"Niedersachsen"}},{"name":"Neuenbroker Verbindungsweg","postalCode":"26931","locality":"Elsfleth","municipality":{"key":"03461004","name":"Elsfleth, Stadt","type":"Stadt"},"district":{"key":"03461","name":"Wesermarsch","type":"Landkreis"},"federalState":{"key":"03","name":"Niedersachsen"}},{"name":"Neuenfelde","postalCode":"26931","locality":"Elsfleth","municipality":{"key":"03461004","name":"Elsfleth, Stadt","type":"Stadt"},"district":{"key":"03461","name":"Wesermarsch","type":"Landkreis"},"federalState":{"key":"03","name":"Niedersachsen"}},{"name":"Neuenfeldweg","postalCode":"26931","locality":"Elsfleth","municipality":{"key":"03461004","name":"Elsfleth, Stadt","type":"Stadt"},"district":{"key":"03461","name":"Wesermarsch","type":"Landkreis"},"federalState":{"key":"03","name":"Niedersachsen"}},{"name":"Neuenwege","postalCode":"26931","locality":"Elsfleth","municipality":{"key":"03461004","name":"Elsfleth, Stadt","type":"Stadt"},"district":{"key":"03461","name":"Wesermarsch","type":"Landkreis"},"federalState":{"key":"03","name":"Niedersachsen"}},{"name":"Neufundlandstr.","postalCode":"26931","locality":"Elsfleth","municipality":{"key":"03461004","name":"Elsfleth, Stadt","type":"Stadt"},"district":{"key":"03461","name":"Wesermarsch","type":"Landkreis"},"federalState":{"key":"03","name":"Niedersachsen"}},{"name":"Niederhörne","postalCode":"26931","locality":"Elsfleth","municipality":{"key":"03461004","name":"Elsfleth, Stadt","type":"Stadt"},"district":{"key":"03461","name":"Wesermarsch","type":"Landkreis"},"federalState":{"key":"03","name":"Niedersachsen"}},{"name":"Niederhörner Damm","postalCode":"26931","locality":"Elsfleth","municipality":{"key":"03461004","name":"Elsfleth, Stadt","type":"Stadt"},"district":{"key":"03461","name":"Wesermarsch","type":"Landkreis"},"federalState":{"key":"03","name":"Niedersachsen"}},{"name":"Niederhörner Hellmer","postalCode":"26931","locality":"Elsfleth","municipality":{"key":"03461004","name":"Elsfleth, Stadt","type":"Stadt"},"district":{"key":"03461","name":"Wesermarsch","type":"Landkreis"},"federalState":{"key":"03","name":"Niedersachsen"}},{"name":"Niederhörner Weg","postalCode":"26931","locality":"Elsfleth","municipality":{"key":"03461004","name":"Elsfleth, Stadt","type":"Stadt"},"district":{"key":"03461","name":"Wesermarsch","type":"Landkreis"},"federalState":{"key":"03","name":"Niedersachsen"}},{"name":"Niederorter Str.","postalCode":"26931","locality":"Elsfleth","municipality":{"key":"03461004","name":"Elsfleth, Stadt","type":"Stadt"},"district":{"key":"03461","name":"Wesermarsch","type":"Landkreis"},"federalState":{"key":"03","name":"Niedersachsen"}},{"name":"Niederstr.","postalCode":"26931","locality":"Elsfleth","municipality":{"key":"03461004","name":"Elsfleth, Stadt","type":"Stadt"},"district":{"key":"03461","name":"Wesermarsch","type":"Landkreis"},"federalState":{"key":"03","name":"Niedersachsen"}},{"name":"Nilstr.","postalCode":"26931","locality":"Elsfleth","municipality":{"key":"03461004","name":"Elsfleth, Stadt","type":"Stadt"},"district":{"key":"03461","name":"Wesermarsch","type":"Landkreis"},"federalState":{"key":"03","name":"Niedersachsen"}},{"name":"Nordermoor","postalCode":"26931","locality":"Elsfleth","municipality":{"key":"03461004","name":"Elsfleth, Stadt","type":"Stadt"},"district":{"key":"03461","name":"Wesermarsch","type":"Landkreis"},"federalState":{"key":"03","name":"Niedersachsen"}},{"name":"Nordermoorer Hellmer","postalCode":"26931","locality":"Elsfleth","municipality":{"key":"03461004","name":"Elsfleth, Stadt","type":"Stadt"},"district":{"key":"03461","name":"Wesermarsch","type":"Landkreis"},"federalState":{"key":"03","name":"Niedersachsen"}},{"name":"Nordermoorer Weg","postalCode":"26931","locality":"Elsfleth","municipality":{"key":"03461004","name":"Elsfleth, Stadt","type":"Stadt"},"district":{"key":"03461","name":"Wesermarsch","type":"Landkreis"},"federalState":{"key":"03","name":"Niedersachsen"}},{"name":"Nordseestr.","postalCode":"26931","locality":"Elsfleth","municipality":{"key":"03461004","name":"Elsfleth, Stadt","type":"Stadt"},"district":{"key":"03461","name":"Wesermarsch","type":"Landkreis"},"federalState":{"key":"03","name":"Niedersachsen"}},{"name":"Nordstr.","postalCode":"26931","locality":"Elsfleth","municipality":{"key":"03461004","name":"Elsfleth, Stadt","type":"Stadt"},"district":{"key":"03461","name":"Wesermarsch","type":"Landkreis"},"federalState":{"key":"03","name":"Niedersachsen"}},{"name":"Oberhammelwarder Str.","postalCode":"26931","locality":"Elsfleth","municipality":{"key":"03461004","name":"Elsfleth, Stadt","type":"Stadt"},"district":{"key":"03461","name":"Wesermarsch","type":"Landkreis"},"federalState":{"key":"03","name":"Niedersachsen"}},{"name":"Oberhörne","postalCode":"26931","locality":"Elsfleth","municipality":{"key":"03461004","name":"Elsfleth, Stadt","type":"Stadt"},"district":{"key":"03461","name":"Wesermarsch","type":"Landkreis"},"federalState":{"key":"03","name":"Niedersachsen"}},{"name":"Oberhörner Hellmer","postalCode":"26931","locality":"Elsfleth","municipality":{"key":"03461004","name":"Elsfleth, Stadt","type":"Stadt"},"district":{"key":"03461","name":"Wesermarsch","type":"Landkreis"},"federalState":{"key":"03","name":"Niedersachsen"}},{"name":"Oberrege","postalCode":"26931","locality":"Elsfleth","municipality":{"key":"03461004","name":"Elsfleth, Stadt","type":"Stadt"},"district":{"key":"03461","name":"Wesermarsch","type":"Landkreis"},"federalState":{"key":"03","name":"Niedersachsen"}},{"name":"Ochtumstr.","postalCode":"26931","locality":"Elsfleth","municipality":{"key":"03461004","name":"Elsfleth, Stadt","type":"Stadt"},"district":{"key":"03461","name":"Wesermarsch","type":"Landkreis"},"federalState":{"key":"03","name":"Niedersachsen"}},{"name":"Odamm","postalCode":"26931","locality":"Elsfleth","municipality":{"key":"03461004","name":"Elsfleth, Stadt","type":"Stadt"},"district":{"key":"03461","name":"Wesermarsch","type":"Landkreis"},"federalState":{"key":"03","name":"Niedersachsen"}},{"name":"Ortsstr.","postalCode":"26931","locality":"Elsfleth","municipality":{"key":"03461004","name":"Elsfleth, Stadt","type":"Stadt"},"district":{"key":"03461","name":"Wesermarsch","type":"Landkreis"},"federalState":{"key":"03","name":"Niedersachsen"}},{"name":"Osterende","postalCode":"25599","locality":"Wewelsfleth","municipality":{"key":"01061110","name":"Wewelsfleth","type":"Kreisangehörige_Gemeinde"},"district":{"key":"01061","name":"Steinburg","type":"Kreis"},"federalState":{"key":"01","name":"Schleswig-Holstein"}},{"name":"Ostpreußenstr.","postalCode":"26931","locality":"Elsfleth","municipality":{"key":"03461004","name":"Elsfleth, Stadt","type":"Stadt"},"district":{"key":"03461","name":"Wesermarsch","type":"Landkreis"},"federalState":{"key":"03","name":"Niedersachsen"}},{"name":"Ostseestr.","postalCode":"26931","locality":"Elsfleth","municipality":{"key":"03461004","name":"Elsfleth, Stadt","type":"Stadt"},"district":{"key":"03461","name":"Wesermarsch","type":"Landkreis"},"federalState":{"key":"03","name":"Niedersachsen"}},{"name":"Ostweg","postalCode":"26931","locality":"Elsfleth","municipality":{"key":"03461004","name":"Elsfleth, Stadt","type":"Stadt"},"district":{"key":"03461","name":"Wesermarsch","type":"Landkreis"},"federalState":{"key":"03","name":"Niedersachsen"}},{"name":"Panamastr.","postalCode":"26931","locality":"Elsfleth","municipality":{"key":"03461004","name":"Elsfleth, Stadt","type":"Stadt"},"district":{"key":"03461","name":"Wesermarsch","type":"Landkreis"},"federalState":{"key":"03","name":"Niedersachsen"}},{"name":"Pappelweg","postalCode":"26931","locality":"Elsfleth","municipality":{"key":"03461004","name":"Elsfleth, Stadt","type":"Stadt"},"district":{"key":"03461","name":"Wesermarsch","type":"Landkreis"},"federalState":{"key":"03","name":"Niedersachsen"}},{"name":"Parkstr.","postalCode":"26931","locality":"Elsfleth","municipality":{"key":"03461004","name":"Elsfleth, Stadt","type":"Stadt"},"district":{"key":"03461","name":"Wesermarsch","type":"Landkreis"},"federalState":{"key":"03","name":"Niedersachsen"}},{"name":"Pazifikstr.","postalCode":"26931","locality":"Elsfleth","municipality":{"key":"03461004","name":"Elsfleth, Stadt","type":"Stadt"},"district":{"key":"03461","name":"Wesermarsch","type":"Landkreis"},"federalState":{"key":"03","name":"Niedersachsen"}},{"name":"Peterstr.","postalCode":"26931","locality":"Elsfleth","municipality":{"key":"03461004","name":"Elsfleth, Stadt","type":"Stadt"},"district":{"key":"03461","name":"Wesermarsch","type":"Landkreis"},"federalState":{"key":"03","name":"Niedersachsen"}},{"name":"Pfarrkämpe","postalCode":"26931","locality":"Elsfleth","municipality":{"key":"03461004","name":"Elsfleth, Stadt","type":"Stadt"},"district":{"key":"03461","name":"Wesermarsch","type":"Landkreis"},"federalState":{"key":"03","name":"Niedersachsen"}},{"name":"Polderweg","postalCode":"26931","locality":"Elsfleth","municipality":{"key":"03461004","name":"Elsfleth, Stadt","type":"Stadt"},"district":{"key":"03461","name":"Wesermarsch","type":"Landkreis"},"federalState":{"key":"03","name":"Niedersachsen"}},{"name":"Pommernweg","postalCode":"26931","locality":"Elsfleth","municipality":{"key":"03461004","name":"Elsfleth, Stadt","type":"Stadt"},"district":{"key":"03461","name":"Wesermarsch","type":"Landkreis"},"federalState":{"key":"03","name":"Niedersachsen"}},{"name":"Professor-Bernhard-Winter-Str.","postalCode":"26931","locality":"Elsfleth","municipality":{"key":"03461004","name":"Elsfleth, Stadt","type":"Stadt"},"district":{"key":"03461","name":"Wesermarsch","type":"Landkreis"},"federalState":{"key":"03","name":"Niedersachsen"}},{"name":"Raiffeisenstr.","postalCode":"26931","locality":"Elsfleth","municipality":{"key":"03461004","name":"Elsfleth, Stadt","type":"Stadt"},"district":{"key":"03461","name":"Wesermarsch","type":"Landkreis"},"federalState":{"key":"03","name":"Niedersachsen"}},{"name":"Rathausplatz","postalCode":"26931","locality":"Elsfleth","municipality":{"key":"03461004","name":"Elsfleth, Stadt","type":"Stadt"},"district":{"key":"03461","name":"Wesermarsch","type":"Landkreis"},"federalState":{"key":"03","name":"Niedersachsen"}},{"name":"Reeder-Ramien-Str.","postalCode":"26931","locality":"Elsfleth","municipality":{"key":"03461004","name":"Elsfleth, Stadt","type":"Stadt"},"district":{"key":"03461","name":"Wesermarsch","type":"Landkreis"},"federalState":{"key":"03","name":"Niedersachsen"}},{"name":"Reeder-Schiff-Str.","postalCode":"26931","locality":"Elsfleth","municipality":{"key":"03461004","name":"Elsfleth, Stadt","type":"Stadt"},"district":{"key":"03461","name":"Wesermarsch","type":"Landkreis"},"federalState":{"key":"03","name":"Niedersachsen"}},{"name":"Reeder-tom-Dieck-Str.","postalCode":"26931","locality":"Elsfleth","municipality":{"key":"03461004","name":"Elsfleth, Stadt","type":"Stadt"},"district":{"key":"03461","name":"Wesermarsch","type":"Landkreis"},"federalState":{"key":"03","name":"Niedersachsen"}},{"name":"Reeder-Wempe-Str.","postalCode":"26931","locality":"Elsfleth","municipality":{"key":"03461004","name":"Elsfleth, Stadt","type":"Stadt"},"district":{"key":"03461","name":"Wesermarsch","type":"Landkreis"},"federalState":{"key":"03","name":"Niedersachsen"}},{"name":"Reepschlägerweg","postalCode":"26931","locality":"Elsfleth","municipality":{"key":"03461004","name":"Elsfleth, Stadt","type":"Stadt"},"district":{"key":"03461","name":"Wesermarsch","type":"Landkreis"},"federalState":{"key":"03","name":"Niedersachsen"}},{"name":"Rehmenhellmer","postalCode":"26931","locality":"Elsfleth","municipality":{"key":"03461004","name":"Elsfleth, Stadt","type":"Stadt"},"district":{"key":"03461","name":"Wesermarsch","type":"Landkreis"},"federalState":{"key":"03","name":"Niedersachsen"}},{"name":"Rittersweg","postalCode":"26931","locality":"Elsfleth","municipality":{"key":"03461004","name":"Elsfleth, Stadt","type":"Stadt"},"district":{"key":"03461","name":"Wesermarsch","type":"Landkreis"},"federalState":{"key":"03","name":"Niedersachsen"}},{"name":"Rosengartenmittelweg","postalCode":"26931","locality":"Elsfleth","municipality":{"key":"03461004","name":"Elsfleth, Stadt","type":"Stadt"},"district":{"key":"03461","name":"Wesermarsch","type":"Landkreis"},"federalState":{"key":"03","name":"Niedersachsen"}},{"name":"Rosenstr.","postalCode":"26931","locality":"Elsfleth","municipality":{"key":"03461004","name":"Elsfleth, Stadt","type":"Stadt"},"district":{"key":"03461","name":"Wesermarsch","type":"Landkreis"},"federalState":{"key":"03","name":"Niedersachsen"}},{"name":"Roßkopp","postalCode":"25599","locality":"Wewelsfleth","municipality":{"key":"01061110","name":"Wewelsfleth","type":"Kreisangehörige_Gemeinde"},"district":{"key":"01061","name":"Steinburg","type":"Kreis"},"federalState":{"key":"01","name":"Schleswig-Holstein"}},{"name":"Ruschkampweg","postalCode":"26931","locality":"Elsfleth","municipality":{"key":"03461004","name":"Elsfleth, Stadt","type":"Stadt"},"district":{"key":"03461","name":"Wesermarsch","type":"Landkreis"},"federalState":{"key":"03","name":"Niedersachsen"}},{"name":"Sandfelder Str.","postalCode":"26931","locality":"Elsfleth","municipality":{"key":"03461004","name":"Elsfleth, Stadt","type":"Stadt"},"district":{"key":"03461","name":"Wesermarsch","type":"Landkreis"},"federalState":{"key":"03","name":"Niedersachsen"}},{"name":"Schaartweg","postalCode":"26931","locality":"Elsfleth","municipality":{"key":"03461004","name":"Elsfleth, Stadt","type":"Stadt"},"district":{"key":"03461","name":"Wesermarsch","type":"Landkreis"},"federalState":{"key":"03","name":"Niedersachsen"}},{"name":"Schäfereiweg","postalCode":"26931","locality":"Elsfleth","municipality":{"key":"03461004","name":"Elsfleth, Stadt","type":"Stadt"},"district":{"key":"03461","name":"Wesermarsch","type":"Landkreis"},"federalState":{"key":"03","name":"Niedersachsen"}},{"name":"Schlesierstr.","postalCode":"26931","locality":"Elsfleth","municipality":{"key":"03461004","name":"Elsfleth, Stadt","type":"Stadt"},"district":{"key":"03461","name":"Wesermarsch","type":"Landkreis"},"federalState":{"key":"03","name":"Niedersachsen"}},{"name":"Schröderskamp","postalCode":"25599","locality":"Wewelsfleth","municipality":{"key":"01061110","name":"Wewelsfleth","type":"Kreisangehörige_Gemeinde"},"district":{"key":"01061","name":"Steinburg","type":"Kreis"},"federalState":{"key":"01","name":"Schleswig-Holstein"}},{"name":"Schulstr.","postalCode":"25599","locality":"Wewelsfleth","municipality":{"key":"01061110","name":"Wewelsfleth","type":"Kreisangehörige_Gemeinde"},"district":{"key":"01061","name":"Steinburg","type":"Kreis"},"federalState":{"key":"01","name":"Schleswig-Holstein"}},{"name":"Schulstr.","postalCode":"26931","locality":"Elsfleth","municipality":{"key":"03461004","name":"Elsfleth, Stadt","type":"Stadt"},"district":{"key":"03461","name":"Wesermarsch","type":"Landkreis"},"federalState":{"key":"03","name":"Niedersachsen"}},{"name":"Schützenweg","postalCode":"26931","locality":"Elsfleth","municipality":{"key":"03461004","name":"Elsfleth, Stadt","type":"Stadt"},"district":{"key":"03461","name":"Wesermarsch","type":"Landkreis"},"federalState":{"key":"03","name":"Niedersachsen"}},{"name":"Segelmacherweg","postalCode":"26931","locality":"Elsfleth","municipality":{"key":"03461004","name":"Elsfleth, Stadt","type":"Stadt"},"district":{"key":"03461","name":"Wesermarsch","type":"Landkreis"},"federalState":{"key":"03","name":"Niedersachsen"}},{"name":"Sieben-Bösen-Weg","postalCode":"26931","locality":"Elsfleth","municipality":{"key":"03461004","name":"Elsfleth, Stadt","type":"Stadt"},"district":{"key":"03461","name":"Wesermarsch","type":"Landkreis"},"federalState":{"key":"03","name":"Niedersachsen"}},{"name":"Siedenkampsweg","postalCode":"26931","locality":"Elsfleth","municipality":{"key":"03461004","name":"Elsfleth, Stadt","type":"Stadt"},"district":{"key":"03461","name":"Wesermarsch","type":"Landkreis"},"federalState":{"key":"03","name":"Niedersachsen"}},{"name":"Sieltiefskämpenweg","postalCode":"26931","locality":"Elsfleth","municipality":{"key":"03461004","name":"Elsfleth, Stadt","type":"Stadt"},"district":{"key":"03461","name":"Wesermarsch","type":"Landkreis"},"federalState":{"key":"03","name":"Niedersachsen"}},{"name":"Sielweg","postalCode":"26931","locality":"Elsfleth","municipality":{"key":"03461004","name":"Elsfleth, Stadt","type":"Stadt"},"district":{"key":"03461","name":"Wesermarsch","type":"Landkreis"},"federalState":{"key":"03","name":"Niedersachsen"}},{"name":"Skagerrakstr.","postalCode":"26931","locality":"Elsfleth","municipality":{"key":"03461004","name":"Elsfleth, Stadt","type":"Stadt"},"district":{"key":"03461","name":"Wesermarsch","type":"Landkreis"},"federalState":{"key":"03","name":"Niedersachsen"}},{"name":"Sperlingsweg","postalCode":"26931","locality":"Elsfleth","municipality":{"key":"03461004","name":"Elsfleth, Stadt","type":"Stadt"},"district":{"key":"03461","name":"Wesermarsch","type":"Landkreis"},"federalState":{"key":"03","name":"Niedersachsen"}},{"name":"Steinstr.","postalCode":"26931","locality":"Elsfleth","municipality":{"key":"03461004","name":"Elsfleth, Stadt","type":"Stadt"},"district":{"key":"03461","name":"Wesermarsch","type":"Landkreis"},"federalState":{"key":"03","name":"Niedersachsen"}},{"name":"Stichweg südl. Alte Liene","postalCode":"26931","locality":"Elsfleth","municipality":{"key":"03461004","name":"Elsfleth, Stadt","type":"Stadt"},"district":{"key":"03461","name":"Wesermarsch","type":"Landkreis"},"federalState":{"key":"03","name":"Niedersachsen"}},{"name":"Störort","postalCode":"25599","locality":"Wewelsfleth","municipality":{"key":"01061110","name":"Wewelsfleth","type":"Kreisangehörige_Gemeinde"},"district":{"key":"01061","name":"Steinburg","type":"Kreis"},"federalState":{"key":"01","name":"Schleswig-Holstein"}},{"name":"Suezstr.","postalCode":"26931","locality":"Elsfleth","municipality":{"key":"03461004","name":"Elsfleth, Stadt","type":"Stadt"},"district":{"key":"03461","name":"Wesermarsch","type":"Landkreis"},"federalState":{"key":"03","name":"Niedersachsen"}},{"name":"Tannenstr.","postalCode":"26931","locality":"Elsfleth","municipality":{"key":"03461004","name":"Elsfleth, Stadt","type":"Stadt"},"district":{"key":"03461","name":"Wesermarsch","type":"Landkreis"},"federalState":{"key":"03","name":"Niedersachsen"}},{"name":"Theodor-Storm-Str.","postalCode":"26931","locality":"Elsfleth","municipality":{"key":"03461004","name":"Elsfleth, Stadt","type":"Stadt"},"district":{"key":"03461","name":"Wesermarsch","type":"Landkreis"},"federalState":{"key":"03","name":"Niedersachsen"}},{"name":"Thießenstr.","postalCode":"25599","locality":"Wewelsfleth","municipality":{"key":"01061110","name":"Wewelsfleth","type":"Kreisangehörige_Gemeinde"},"district":{"key":"01061","name":"Steinburg","type":"Kreis"},"federalState":{"key":"01","name":"Schleswig-Holstein"}},{"name":"Timpen","postalCode":"26931","locality":"Elsfleth","municipality":{"key":"03461004","name":"Elsfleth, Stadt","type":"Stadt"},"district":{"key":"03461","name":"Wesermarsch","type":"Landkreis"},"federalState":{"key":"03","name":"Niedersachsen"}},{"name":"To'n Diek","postalCode":"25599","locality":"Wewelsfleth","municipality":{"key":"01061110","name":"Wewelsfleth","type":"Kreisangehörige_Gemeinde"},"district":{"key":"01061","name":"Steinburg","type":"Kreis"},"federalState":{"key":"01","name":"Schleswig-Holstein"}},{"name":"Tulpenstr.","postalCode":"26931","locality":"Elsfleth","municipality":{"key":"03461004","name":"Elsfleth, Stadt","type":"Stadt"},"district":{"key":"03461","name":"Wesermarsch","type":"Landkreis"},"federalState":{"key":"03","name":"Niedersachsen"}},{"name":"Turmweg","postalCode":"26931","locality":"Elsfleth","municipality":{"key":"03461004","name":"Elsfleth, Stadt","type":"Stadt"},"district":{"key":"03461","name":"Wesermarsch","type":"Landkreis"},"federalState":{"key":"03","name":"Niedersachsen"}},{"name":"Uhlenbusch","postalCode":"26931","locality":"Elsfleth","municipality":{"key":"03461004","name":"Elsfleth, Stadt","type":"Stadt"},"district":{"key":"03461","name":"Wesermarsch","type":"Landkreis"},"federalState":{"key":"03","name":"Niedersachsen"}},{"name":"Uhlenbuscher Damm","postalCode":"26931","locality":"Elsfleth","municipality":{"key":"03461004","name":"Elsfleth, Stadt","type":"Stadt"},"district":{"key":"03461","name":"Wesermarsch","type":"Landkreis"},"federalState":{"key":"03","name":"Niedersachsen"}},{"name":"Uhrendorf","postalCode":"25599","locality":"Wewelsfleth","municipality":{"key":"01061110","name":"Wewelsfleth","type":"Kreisangehörige_Gemeinde"},"district":{"key":"01061","name":"Steinburg","type":"Kreis"},"federalState":{"key":"01","name":"Schleswig-Holstein"}},{"name":"Ulmenstr.","postalCode":"26931","locality":"Elsfleth","municipality":{"key":"03461004","name":"Elsfleth, Stadt","type":"Stadt"},"district":{"key":"03461","name":"Wesermarsch","type":"Landkreis"},"federalState":{"key":"03","name":"Niedersachsen"}},{"name":"Vierhaushellmer","postalCode":"26931","locality":"Elsfleth","municipality":{"key":"03461004","name":"Elsfleth, Stadt","type":"Stadt"},"district":{"key":"03461","name":"Wesermarsch","type":"Landkreis"},"federalState":{"key":"03","name":"Niedersachsen"}},{"name":"Vogelsangweg","postalCode":"26931","locality":"Elsfleth","municipality":{"key":"03461004","name":"Elsfleth, Stadt","type":"Stadt"},"district":{"key":"03461","name":"Wesermarsch","type":"Landkreis"},"federalState":{"key":"03","name":"Niedersachsen"}},{"name":"Vorwerkshof","postalCode":"26931","locality":"Elsfleth","municipality":{"key":"03461004","name":"Elsfleth, Stadt","type":"Stadt"},"district":{"key":"03461","name":"Wesermarsch","type":"Landkreis"},"federalState":{"key":"03","name":"Niedersachsen"}},{"name":"Warfeweg","postalCode":"26931","locality":"Elsfleth","municipality":{"key":"03461004","name":"Elsfleth, Stadt","type":"Stadt"},"district":{"key":"03461","name":"Wesermarsch","type":"Landkreis"},"federalState":{"key":"03","name":"Niedersachsen"}},{"name":"Watkenstr.","postalCode":"26931","locality":"Elsfleth","municipality":{"key":"03461004","name":"Elsfleth, Stadt","type":"Stadt"},"district":{"key":"03461","name":"Wesermarsch","type":"Landkreis"},"federalState":{"key":"03","name":"Niedersachsen"}},{"name":"Weetenkamp","postalCode":"25599","locality":"Wewelsfleth","municipality":{"key":"01061110","name":"Wewelsfleth","type":"Kreisangehörige_Gemeinde"},"district":{"key":"01061","name":"Steinburg","type":"Kreis"},"federalState":{"key":"01","name":"Schleswig-Holstein"}},{"name":"Weg an der Grasmörte","postalCode":"26931","locality":"Elsfleth","municipality":{"key":"03461004","name":"Elsfleth, Stadt","type":"Stadt"},"district":{"key":"03461","name":"Wesermarsch","type":"Landkreis"},"federalState":{"key":"03","name":"Niedersachsen"}},{"name":"Weg im alten Feld","postalCode":"26931","locality":"Elsfleth","municipality":{"key":"03461004","name":"Elsfleth, Stadt","type":"Stadt"},"district":{"key":"03461","name":"Wesermarsch","type":"Landkreis"},"federalState":{"key":"03","name":"Niedersachsen"}},{"name":"Wehrder","postalCode":"26931","locality":"Elsfleth","municipality":{"key":"03461004","name":"Elsfleth, Stadt","type":"Stadt"},"district":{"key":"03461","name":"Wesermarsch","type":"Landkreis"},"federalState":{"key":"03","name":"Niedersachsen"}},{"name":"Weidenstr.","postalCode":"26931","locality":"Elsfleth","municipality":{"key":"03461004","name":"Elsfleth, Stadt","type":"Stadt"},"district":{"key":"03461","name":"Wesermarsch","type":"Landkreis"},"federalState":{"key":"03","name":"Niedersachsen"}},{"name":"Werftstr.","postalCode":"26931","locality":"Elsfleth","municipality":{"key":"03461004","name":"Elsfleth, Stadt","type":"Stadt"},"district":{"key":"03461","name":"Wesermarsch","type":"Landkreis"},"federalState":{"key":"03","name":"Niedersachsen"}},{"name":"Weserstr.","postalCode":"26931","locality":"Elsfleth","municipality":{"key":"03461004","name":"Elsfleth, Stadt","type":"Stadt"},"district":{"key":"03461","name":"Wesermarsch","type":"Landkreis"},"federalState":{"key":"03","name":"Niedersachsen"}},{"name":"Weststr.","postalCode":"26931","locality":"Elsfleth","municipality":{"key":"03461004","name":"Elsfleth, Stadt","type":"Stadt"},"district":{"key":"03461","name":"Wesermarsch","type":"Landkreis"},"federalState":{"key":"03","name":"Niedersachsen"}},{"name":"Wiesengrund","postalCode":"25599","locality":"Wewelsfleth","municipality":{"key":"01061110","name":"Wewelsfleth","type":"Kreisangehörige_Gemeinde"},"district":{"key":"01061","name":"Steinburg","type":"Kreis"},"federalState":{"key":"01","name":"Schleswig-Holstein"}},{"name":"Wiesenstr.","postalCode":"26931","locality":"Elsfleth","municipality":{"key":"03461004","name":"Elsfleth, Stadt","type":"Stadt"},"district":{"key":"03461","name":"Wesermarsch","type":"Landkreis"},"federalState":{"key":"03","name":"Niedersachsen"}},{"name":"Ziegeleiweg","postalCode":"26931","locality":"Elsfleth","municipality":{"key":"03461004","name":"Elsfleth, Stadt","type":"Stadt"},"district":{"key":"03461","name":"Wesermarsch","type":"Landkreis"},"federalState":{"key":"03","name":"Niedersachsen"}},{"name":"Zum Buschplatz","postalCode":"26931","locality":"Elsfleth","municipality":{"key":"03461004","name":"Elsfleth, Stadt","type":"Stadt"},"district":{"key":"03461","name":"Wesermarsch","type":"Landkreis"},"federalState":{"key":"03","name":"Niedersachsen"}},{"name":"Zum Deichschaart","postalCode":"26931","locality":"Elsfleth","municipality":{"key":"03461004","name":"Elsfleth, Stadt","type":"Stadt"},"district":{"key":"03461","name":"Wesermarsch","type":"Landkreis"},"federalState":{"key":"03","name":"Niedersachsen"}},{"name":"Zur Alten Schule","postalCode":"26931","locality":"Elsfleth","municipality":{"key":"03461004","name":"Elsfleth, Stadt","type":"Stadt"},"district":{"key":"03461","name":"Wesermarsch","type":"Landkreis"},"federalState":{"key":"03","name":"Niedersachsen"}},]