[{"name":"Am Käfernberg","postalCode":"76833","locality":"Frankweiler","municipality":{"key":"07337026","name":"Frankweiler","type":"Kreisangehörige_Gemeinde"},"district":{"key":"07337","name":"Südliche Weinstraße","type":"Landkreis"},"federalState":{"key":"07","name":"Rheinland-Pfalz"}},{"name":"Am Kastanienbusch","postalCode":"76833","locality":"Frankweiler","municipality":{"key":"07337026","name":"Frankweiler","type":"Kreisangehörige_Gemeinde"},"district":{"key":"07337","name":"Südliche Weinstraße","type":"Landkreis"},"federalState":{"key":"07","name":"Rheinland-Pfalz"}},{"name":"Am Ringelsberg","postalCode":"76833","locality":"Frankweiler","municipality":{"key":"07337026","name":"Frankweiler","type":"Kreisangehörige_Gemeinde"},"district":{"key":"07337","name":"Südliche Weinstraße","type":"Landkreis"},"federalState":{"key":"07","name":"Rheinland-Pfalz"}},{"name":"An der Kalkgrube","postalCode":"76833","locality":"Frankweiler","municipality":{"key":"07337026","name":"Frankweiler","type":"Kreisangehörige_Gemeinde"},"district":{"key":"07337","name":"Südliche Weinstraße","type":"Landkreis"},"federalState":{"key":"07","name":"Rheinland-Pfalz"}},{"name":"Bergbornstr.","postalCode":"76833","locality":"Frankweiler","municipality":{"key":"07337026","name":"Frankweiler","type":"Kreisangehörige_Gemeinde"},"district":{"key":"07337","name":"Südliche Weinstraße","type":"Landkreis"},"federalState":{"key":"07","name":"Rheinland-Pfalz"}},{"name":"Dagobertstr.","postalCode":"76833","locality":"Frankweiler","municipality":{"key":"07337026","name":"Frankweiler","type":"Kreisangehörige_Gemeinde"},"district":{"key":"07337","name":"Südliche Weinstraße","type":"Landkreis"},"federalState":{"key":"07","name":"Rheinland-Pfalz"}},{"name":"Dorfbornstr.","postalCode":"76833","locality":"Frankweiler","municipality":{"key":"07337026","name":"Frankweiler","type":"Kreisangehörige_Gemeinde"},"district":{"key":"07337","name":"Südliche Weinstraße","type":"Landkreis"},"federalState":{"key":"07","name":"Rheinland-Pfalz"}},{"name":"Dr. Eckerle-Str.","postalCode":"76833","locality":"Frankweiler","municipality":{"key":"07337026","name":"Frankweiler","type":"Kreisangehörige_Gemeinde"},"district":{"key":"07337","name":"Südliche Weinstraße","type":"Landkreis"},"federalState":{"key":"07","name":"Rheinland-Pfalz"}},{"name":"Frankenburgstr.","postalCode":"76833","locality":"Frankweiler","municipality":{"key":"07337026","name":"Frankweiler","type":"Kreisangehörige_Gemeinde"},"district":{"key":"07337","name":"Südliche Weinstraße","type":"Landkreis"},"federalState":{"key":"07","name":"Rheinland-Pfalz"}},{"name":"Hochstr.","postalCode":"76857","locality":"Frankweiler","municipality":{"key":"07337026","name":"Frankweiler","type":"Kreisangehörige_Gemeinde"},"district":{"key":"07337","name":"Südliche Weinstraße","type":"Landkreis"},"federalState":{"key":"07","name":"Rheinland-Pfalz"}},{"name":"Königsgasse","postalCode":"76833","locality":"Frankweiler","municipality":{"key":"07337026","name":"Frankweiler","type":"Kreisangehörige_Gemeinde"},"district":{"key":"07337","name":"Südliche Weinstraße","type":"Landkreis"},"federalState":{"key":"07","name":"Rheinland-Pfalz"}},{"name":"Lettenpfad","postalCode":"76833","locality":"Frankweiler","municipality":{"key":"07337026","name":"Frankweiler","type":"Kreisangehörige_Gemeinde"},"district":{"key":"07337","name":"Südliche Weinstraße","type":"Landkreis"},"federalState":{"key":"07","name":"Rheinland-Pfalz"}},{"name":"Müllergasse","postalCode":"76833","locality":"Frankweiler","municipality":{"key":"07337026","name":"Frankweiler","type":"Kreisangehörige_Gemeinde"},"district":{"key":"07337","name":"Südliche Weinstraße","type":"Landkreis"},"federalState":{"key":"07","name":"Rheinland-Pfalz"}},{"name":"Orensfelsstr.","postalCode":"76833","locality":"Frankweiler","municipality":{"key":"07337026","name":"Frankweiler","type":"Kreisangehörige_Gemeinde"},"district":{"key":"07337","name":"Südliche Weinstraße","type":"Landkreis"},"federalState":{"key":"07","name":"Rheinland-Pfalz"}},{"name":"Raiffeisenstr.","postalCode":"76833","locality":"Frankweiler","municipality":{"key":"07337026","name":"Frankweiler","type":"Kreisangehörige_Gemeinde"},"district":{"key":"07337","name":"Südliche Weinstraße","type":"Landkreis"},"federalState":{"key":"07","name":"Rheinland-Pfalz"}},{"name":"Ringelsbergstr.","postalCode":"76833","locality":"Frankweiler","municipality":{"key":"07337026","name":"Frankweiler","type":"Kreisangehörige_Gemeinde"},"district":{"key":"07337","name":"Südliche Weinstraße","type":"Landkreis"},"federalState":{"key":"07","name":"Rheinland-Pfalz"}},{"name":"Scharfeneckstr.","postalCode":"76833","locality":"Frankweiler","municipality":{"key":"07337026","name":"Frankweiler","type":"Kreisangehörige_Gemeinde"},"district":{"key":"07337","name":"Südliche Weinstraße","type":"Landkreis"},"federalState":{"key":"07","name":"Rheinland-Pfalz"}},{"name":"Steigerter Hof","postalCode":"76833","locality":"Frankweiler","municipality":{"key":"07337026","name":"Frankweiler","type":"Kreisangehörige_Gemeinde"},"district":{"key":"07337","name":"Südliche Weinstraße","type":"Landkreis"},"federalState":{"key":"07","name":"Rheinland-Pfalz"}},{"name":"Steingasse","postalCode":"76833","locality":"Frankweiler","municipality":{"key":"07337026","name":"Frankweiler","type":"Kreisangehörige_Gemeinde"},"district":{"key":"07337","name":"Südliche Weinstraße","type":"Landkreis"},"federalState":{"key":"07","name":"Rheinland-Pfalz"}},{"name":"Trifelsstr.","postalCode":"76833","locality":"Frankweiler","municipality":{"key":"07337026","name":"Frankweiler","type":"Kreisangehörige_Gemeinde"},"district":{"key":"07337","name":"Südliche Weinstraße","type":"Landkreis"},"federalState":{"key":"07","name":"Rheinland-Pfalz"}},{"name":"Weinstr.","postalCode":"76833","locality":"Frankweiler","municipality":{"key":"07337026","name":"Frankweiler","type":"Kreisangehörige_Gemeinde"},"district":{"key":"07337","name":"Südliche Weinstraße","type":"Landkreis"},"federalState":{"key":"07","name":"Rheinland-Pfalz"}},{"name":"Weinstrasse","postalCode":"76833","locality":"Frankweiler","municipality":{"key":"07337026","name":"Frankweiler","type":"Kreisangehörige_Gemeinde"},"district":{"key":"07337","name":"Südliche Weinstraße","type":"Landkreis"},"federalState":{"key":"07","name":"Rheinland-Pfalz"}},{"name":"Zum Kunststück","postalCode":"76833","locality":"Frankweiler","municipality":{"key":"07337026","name":"Frankweiler","type":"Kreisangehörige_Gemeinde"},"district":{"key":"07337","name":"Südliche Weinstraße","type":"Landkreis"},"federalState":{"key":"07","name":"Rheinland-Pfalz"}},]