[{"key":"10155106","name":"Ahornweg","postalCode":"5525","locality":"Fischbach-Göslikon","commune":{"key":"4067","name":"Fischbach-Göslikon","shortName":"Fischbach-Göslikon"},"district":{"key":"1903","name":"Bezirk Bremgarten"},"canton":{"key":"19","code":"AG","name":"Aargau"},"status":"Real"},{"key":"10035325","name":"Alte Landstrasse","postalCode":"5525","locality":"Fischbach-Göslikon","commune":{"key":"4067","name":"Fischbach-Göslikon","shortName":"Fischbach-Göslikon"},"district":{"key":"1903","name":"Bezirk Bremgarten"},"canton":{"key":"19","code":"AG","name":"Aargau"},"status":"Real"},{"key":"10093597","name":"Bodenackerstrasse","postalCode":"5525","locality":"Fischbach-Göslikon","commune":{"key":"4067","name":"Fischbach-Göslikon","shortName":"Fischbach-Göslikon"},"district":{"key":"1903","name":"Bezirk Bremgarten"},"canton":{"key":"19","code":"AG","name":"Aargau"},"status":"Real"},{"key":"10070235","name":"Breitestrasse","postalCode":"5525","locality":"Fischbach-Göslikon","commune":{"key":"4067","name":"Fischbach-Göslikon","shortName":"Fischbach-Göslikon"},"district":{"key":"1903","name":"Bezirk Bremgarten"},"canton":{"key":"19","code":"AG","name":"Aargau"},"status":"Real"},{"key":"10189971","name":"Breiteweg","postalCode":"5525","locality":"Fischbach-Göslikon","commune":{"key":"4067","name":"Fischbach-Göslikon","shortName":"Fischbach-Göslikon"},"district":{"key":"1903","name":"Bezirk Bremgarten"},"canton":{"key":"19","code":"AG","name":"Aargau"},"status":"Real"},{"key":"10093598","name":"Bremgarterstrasse","postalCode":"5525","locality":"Fischbach-Göslikon","commune":{"key":"4067","name":"Fischbach-Göslikon","shortName":"Fischbach-Göslikon"},"district":{"key":"1903","name":"Bezirk Bremgarten"},"canton":{"key":"19","code":"AG","name":"Aargau"},"status":"Real"},{"key":"10035326","name":"Brühlmattenstrasse","postalCode":"5525","locality":"Fischbach-Göslikon","commune":{"key":"4067","name":"Fischbach-Göslikon","shortName":"Fischbach-Göslikon"},"district":{"key":"1903","name":"Bezirk Bremgarten"},"canton":{"key":"19","code":"AG","name":"Aargau"},"status":"Real"},{"key":"10070236","name":"Bungartweg","postalCode":"5525","locality":"Fischbach-Göslikon","commune":{"key":"4067","name":"Fischbach-Göslikon","shortName":"Fischbach-Göslikon"},"district":{"key":"1903","name":"Bezirk Bremgarten"},"canton":{"key":"19","code":"AG","name":"Aargau"},"status":"Real"},{"key":"10035327","name":"Eggstrasse","postalCode":"5525","locality":"Fischbach-Göslikon","commune":{"key":"4067","name":"Fischbach-Göslikon","shortName":"Fischbach-Göslikon"},"district":{"key":"1903","name":"Bezirk Bremgarten"},"canton":{"key":"19","code":"AG","name":"Aargau"},"status":"Real"},{"key":"10035328","name":"Fohlenweidstrasse","postalCode":"5525","locality":"Fischbach-Göslikon","commune":{"key":"4067","name":"Fischbach-Göslikon","shortName":"Fischbach-Göslikon"},"district":{"key":"1903","name":"Bezirk Bremgarten"},"canton":{"key":"19","code":"AG","name":"Aargau"},"status":"Real"},{"key":"10191291","name":"Glärnischweg","postalCode":"5525","locality":"Fischbach-Göslikon","commune":{"key":"4067","name":"Fischbach-Göslikon","shortName":"Fischbach-Göslikon"},"district":{"key":"1903","name":"Bezirk Bremgarten"},"canton":{"key":"19","code":"AG","name":"Aargau"},"status":"Real"},{"key":"10035329","name":"Grenzstrasse","postalCode":"5525","locality":"Fischbach-Göslikon","commune":{"key":"4067","name":"Fischbach-Göslikon","shortName":"Fischbach-Göslikon"},"district":{"key":"1903","name":"Bezirk Bremgarten"},"canton":{"key":"19","code":"AG","name":"Aargau"},"status":"Real"},{"key":"10070237","name":"Guggeriweg","postalCode":"5525","locality":"Fischbach-Göslikon","commune":{"key":"4067","name":"Fischbach-Göslikon","shortName":"Fischbach-Göslikon"},"district":{"key":"1903","name":"Bezirk Bremgarten"},"canton":{"key":"19","code":"AG","name":"Aargau"},"status":"Real"},{"key":"10135162","name":"Haldenstrasse","postalCode":"5525","locality":"Fischbach-Göslikon","commune":{"key":"4067","name":"Fischbach-Göslikon","shortName":"Fischbach-Göslikon"},"district":{"key":"1903","name":"Bezirk Bremgarten"},"canton":{"key":"19","code":"AG","name":"Aargau"},"status":"Real"},{"key":"10185661","name":"Hambelächerstrasse","postalCode":"5525","locality":"Fischbach-Göslikon","commune":{"key":"4067","name":"Fischbach-Göslikon","shortName":"Fischbach-Göslikon"},"district":{"key":"1903","name":"Bezirk Bremgarten"},"canton":{"key":"19","code":"AG","name":"Aargau"},"status":"Real"},{"key":"10093599","name":"Hinterdorfstrasse","postalCode":"5525","locality":"Fischbach-Göslikon","commune":{"key":"4067","name":"Fischbach-Göslikon","shortName":"Fischbach-Göslikon"},"district":{"key":"1903","name":"Bezirk Bremgarten"},"canton":{"key":"19","code":"AG","name":"Aargau"},"status":"Real"},{"key":"10039798","name":"Höhenweg","postalCode":"5525","locality":"Fischbach-Göslikon","commune":{"key":"4067","name":"Fischbach-Göslikon","shortName":"Fischbach-Göslikon"},"district":{"key":"1903","name":"Bezirk Bremgarten"},"canton":{"key":"19","code":"AG","name":"Aargau"},"status":"Real"},{"key":"10128085","name":"Ifangstrasse","postalCode":"5525","locality":"Fischbach-Göslikon","commune":{"key":"4067","name":"Fischbach-Göslikon","shortName":"Fischbach-Göslikon"},"district":{"key":"1903","name":"Bezirk Bremgarten"},"canton":{"key":"19","code":"AG","name":"Aargau"},"status":"Real"},{"key":"10114000","name":"Kilchmattenweg","postalCode":"5525","locality":"Fischbach-Göslikon","commune":{"key":"4067","name":"Fischbach-Göslikon","shortName":"Fischbach-Göslikon"},"district":{"key":"1903","name":"Bezirk Bremgarten"},"canton":{"key":"19","code":"AG","name":"Aargau"},"status":"Real"},{"key":"10188298","name":"Kirchenackerstrasse","postalCode":"5525","locality":"Fischbach-Göslikon","commune":{"key":"4067","name":"Fischbach-Göslikon","shortName":"Fischbach-Göslikon"},"district":{"key":"1903","name":"Bezirk Bremgarten"},"canton":{"key":"19","code":"AG","name":"Aargau"},"status":"Real"},{"key":"10039799","name":"Klausenstrasse","postalCode":"5525","locality":"Fischbach-Göslikon","commune":{"key":"4067","name":"Fischbach-Göslikon","shortName":"Fischbach-Göslikon"},"district":{"key":"1903","name":"Bezirk Bremgarten"},"canton":{"key":"19","code":"AG","name":"Aargau"},"status":"Real"},{"key":"10093600","name":"Klingelmattweg","postalCode":"5525","locality":"Fischbach-Göslikon","commune":{"key":"4067","name":"Fischbach-Göslikon","shortName":"Fischbach-Göslikon"},"district":{"key":"1903","name":"Bezirk Bremgarten"},"canton":{"key":"19","code":"AG","name":"Aargau"},"status":"Real"},{"key":"10039800","name":"Langfohrenstrasse","postalCode":"5525","locality":"Fischbach-Göslikon","commune":{"key":"4067","name":"Fischbach-Göslikon","shortName":"Fischbach-Göslikon"},"district":{"key":"1903","name":"Bezirk Bremgarten"},"canton":{"key":"19","code":"AG","name":"Aargau"},"status":"Real"},{"key":"10142112","name":"Lerchenweg","postalCode":"5525","locality":"Fischbach-Göslikon","commune":{"key":"4067","name":"Fischbach-Göslikon","shortName":"Fischbach-Göslikon"},"district":{"key":"1903","name":"Bezirk Bremgarten"},"canton":{"key":"19","code":"AG","name":"Aargau"},"status":"Real"},{"key":"10039801","name":"Lohrenstrasse","postalCode":"5525","locality":"Fischbach-Göslikon","commune":{"key":"4067","name":"Fischbach-Göslikon","shortName":"Fischbach-Göslikon"},"district":{"key":"1903","name":"Bezirk Bremgarten"},"canton":{"key":"19","code":"AG","name":"Aargau"},"status":"Real"},{"key":"10150098","name":"Lohrenweidstrasse","postalCode":"5525","locality":"Fischbach-Göslikon","commune":{"key":"4067","name":"Fischbach-Göslikon","shortName":"Fischbach-Göslikon"},"district":{"key":"1903","name":"Bezirk Bremgarten"},"canton":{"key":"19","code":"AG","name":"Aargau"},"status":"Real"},{"key":"10093601","name":"Mellingerstrasse","postalCode":"5525","locality":"Fischbach-Göslikon","commune":{"key":"4067","name":"Fischbach-Göslikon","shortName":"Fischbach-Göslikon"},"district":{"key":"1903","name":"Bezirk Bremgarten"},"canton":{"key":"19","code":"AG","name":"Aargau"},"status":"Real"},{"key":"10135163","name":"Niederwilerstrasse","postalCode":"5525","locality":"Fischbach-Göslikon","commune":{"key":"4067","name":"Fischbach-Göslikon","shortName":"Fischbach-Göslikon"},"district":{"key":"1903","name":"Bezirk Bremgarten"},"canton":{"key":"19","code":"AG","name":"Aargau"},"status":"Real"},{"key":"10039802","name":"Oberdorfstrasse","postalCode":"5525","locality":"Fischbach-Göslikon","commune":{"key":"4067","name":"Fischbach-Göslikon","shortName":"Fischbach-Göslikon"},"district":{"key":"1903","name":"Bezirk Bremgarten"},"canton":{"key":"19","code":"AG","name":"Aargau"},"status":"Real"},{"key":"10070238","name":"Panoramaweg","postalCode":"5525","locality":"Fischbach-Göslikon","commune":{"key":"4067","name":"Fischbach-Göslikon","shortName":"Fischbach-Göslikon"},"district":{"key":"1903","name":"Bezirk Bremgarten"},"canton":{"key":"19","code":"AG","name":"Aargau"},"status":"Real"},{"key":"10189972","name":"Reussblickweg","postalCode":"5525","locality":"Fischbach-Göslikon","commune":{"key":"4067","name":"Fischbach-Göslikon","shortName":"Fischbach-Göslikon"},"district":{"key":"1903","name":"Bezirk Bremgarten"},"canton":{"key":"19","code":"AG","name":"Aargau"},"status":"Real"},{"key":"10039803","name":"Rosenweg","postalCode":"5525","locality":"Fischbach-Göslikon","commune":{"key":"4067","name":"Fischbach-Göslikon","shortName":"Fischbach-Göslikon"},"district":{"key":"1903","name":"Bezirk Bremgarten"},"canton":{"key":"19","code":"AG","name":"Aargau"},"status":"Real"},{"key":"10056840","name":"Ruppliweg","postalCode":"5525","locality":"Fischbach-Göslikon","commune":{"key":"4067","name":"Fischbach-Göslikon","shortName":"Fischbach-Göslikon"},"district":{"key":"1903","name":"Bezirk Bremgarten"},"canton":{"key":"19","code":"AG","name":"Aargau"},"status":"Real"},{"key":"10093602","name":"Schmittenstrasse","postalCode":"5525","locality":"Fischbach-Göslikon","commune":{"key":"4067","name":"Fischbach-Göslikon","shortName":"Fischbach-Göslikon"},"district":{"key":"1903","name":"Bezirk Bremgarten"},"canton":{"key":"19","code":"AG","name":"Aargau"},"status":"Real"},{"key":"10039804","name":"Schulstrasse","postalCode":"5525","locality":"Fischbach-Göslikon","commune":{"key":"4067","name":"Fischbach-Göslikon","shortName":"Fischbach-Göslikon"},"district":{"key":"1903","name":"Bezirk Bremgarten"},"canton":{"key":"19","code":"AG","name":"Aargau"},"status":"Real"},{"key":"10186848","name":"Schweielstrasse","postalCode":"5525","locality":"Fischbach-Göslikon","commune":{"key":"4067","name":"Fischbach-Göslikon","shortName":"Fischbach-Göslikon"},"district":{"key":"1903","name":"Bezirk Bremgarten"},"canton":{"key":"19","code":"AG","name":"Aargau"},"status":"Real"},{"key":"10196799","name":"Sternenrain","postalCode":"5525","locality":"Fischbach-Göslikon","commune":{"key":"4067","name":"Fischbach-Göslikon","shortName":"Fischbach-Göslikon"},"district":{"key":"1903","name":"Bezirk Bremgarten"},"canton":{"key":"19","code":"AG","name":"Aargau"},"status":"Real"},{"key":"10135164","name":"Tannholzstrasse","postalCode":"5525","locality":"Fischbach-Göslikon","commune":{"key":"4067","name":"Fischbach-Göslikon","shortName":"Fischbach-Göslikon"},"district":{"key":"1903","name":"Bezirk Bremgarten"},"canton":{"key":"19","code":"AG","name":"Aargau"},"status":"Real"},{"key":"10070239","name":"Tobeläckerstrasse","postalCode":"5525","locality":"Fischbach-Göslikon","commune":{"key":"4067","name":"Fischbach-Göslikon","shortName":"Fischbach-Göslikon"},"district":{"key":"1903","name":"Bezirk Bremgarten"},"canton":{"key":"19","code":"AG","name":"Aargau"},"status":"Real"},{"key":"10185662","name":"Unterdorfstrasse","postalCode":"5525","locality":"Fischbach-Göslikon","commune":{"key":"4067","name":"Fischbach-Göslikon","shortName":"Fischbach-Göslikon"},"district":{"key":"1903","name":"Bezirk Bremgarten"},"canton":{"key":"19","code":"AG","name":"Aargau"},"status":"Real"},{"key":"10255016","name":"Unterer Widacher","postalCode":"5525","locality":"Fischbach-Göslikon","commune":{"key":"4067","name":"Fischbach-Göslikon","shortName":"Fischbach-Göslikon"},"district":{"key":"1903","name":"Bezirk Bremgarten"},"canton":{"key":"19","code":"AG","name":"Aargau"},"status":"Real"},{"key":"10101617","name":"Weidstrasse","postalCode":"5525","locality":"Fischbach-Göslikon","commune":{"key":"4067","name":"Fischbach-Göslikon","shortName":"Fischbach-Göslikon"},"district":{"key":"1903","name":"Bezirk Bremgarten"},"canton":{"key":"19","code":"AG","name":"Aargau"},"status":"Real"},{"key":"10039805","name":"Wiedmattenstrasse","postalCode":"5525","locality":"Fischbach-Göslikon","commune":{"key":"4067","name":"Fischbach-Göslikon","shortName":"Fischbach-Göslikon"},"district":{"key":"1903","name":"Bezirk Bremgarten"},"canton":{"key":"19","code":"AG","name":"Aargau"},"status":"Real"},{"key":"10093603","name":"Wohlerstrasse","postalCode":"5525","locality":"Fischbach-Göslikon","commune":{"key":"4067","name":"Fischbach-Göslikon","shortName":"Fischbach-Göslikon"},"district":{"key":"1903","name":"Bezirk Bremgarten"},"canton":{"key":"19","code":"AG","name":"Aargau"},"status":"Real"},{"key":"10056841","name":"Wygartenstrasse","postalCode":"5525","locality":"Fischbach-Göslikon","commune":{"key":"4067","name":"Fischbach-Göslikon","shortName":"Fischbach-Göslikon"},"district":{"key":"1903","name":"Bezirk Bremgarten"},"canton":{"key":"19","code":"AG","name":"Aargau"},"status":"Real"},{"key":"10039806","name":"Zelgliacherweg","postalCode":"5525","locality":"Fischbach-Göslikon","commune":{"key":"4067","name":"Fischbach-Göslikon","shortName":"Fischbach-Göslikon"},"district":{"key":"1903","name":"Bezirk Bremgarten"},"canton":{"key":"19","code":"AG","name":"Aargau"},"status":"Real"},{"key":"10039807","name":"Zelglistrasse","postalCode":"5525","locality":"Fischbach-Göslikon","commune":{"key":"4067","name":"Fischbach-Göslikon","shortName":"Fischbach-Göslikon"},"district":{"key":"1903","name":"Bezirk Bremgarten"},"canton":{"key":"19","code":"AG","name":"Aargau"},"status":"Real"},{"key":"10070240","name":"Zentrumstrasse","postalCode":"5525","locality":"Fischbach-Göslikon","commune":{"key":"4067","name":"Fischbach-Göslikon","shortName":"Fischbach-Göslikon"},"district":{"key":"1903","name":"Bezirk Bremgarten"},"canton":{"key":"19","code":"AG","name":"Aargau"},"status":"Real"},{"key":"10056842","name":"Zimmerrainstrasse","postalCode":"5525","locality":"Fischbach-Göslikon","commune":{"key":"4067","name":"Fischbach-Göslikon","shortName":"Fischbach-Göslikon"},"district":{"key":"1903","name":"Bezirk Bremgarten"},"canton":{"key":"19","code":"AG","name":"Aargau"},"status":"Real"},]