[{"name":"Am Gedenkstein","postalCode":"24247","locality":"Rodenbek","municipality":{"key":"01058138","name":"Rodenbek","type":"Kreisangehörige_Gemeinde"},"district":{"key":"01058","name":"Rendsburg-Eckernförde","type":"Kreis"},"federalState":{"key":"01","name":"Schleswig-Holstein"}},{"name":"An den Döllen","postalCode":"24247","locality":"Rodenbek","municipality":{"key":"01058138","name":"Rodenbek","type":"Kreisangehörige_Gemeinde"},"district":{"key":"01058","name":"Rendsburg-Eckernförde","type":"Kreis"},"federalState":{"key":"01","name":"Schleswig-Holstein"}},{"name":"Annenhofer Katen","postalCode":"24247","locality":"Rodenbek","municipality":{"key":"01058138","name":"Rodenbek","type":"Kreisangehörige_Gemeinde"},"district":{"key":"01058","name":"Rendsburg-Eckernförde","type":"Kreis"},"federalState":{"key":"01","name":"Schleswig-Holstein"}},{"name":"Buchenweg","postalCode":"24247","locality":"Rodenbek","municipality":{"key":"01058138","name":"Rodenbek","type":"Kreisangehörige_Gemeinde"},"district":{"key":"01058","name":"Rendsburg-Eckernförde","type":"Kreis"},"federalState":{"key":"01","name":"Schleswig-Holstein"}},{"name":"Dorfstr.","postalCode":"24247","locality":"Rodenbek","municipality":{"key":"01058138","name":"Rodenbek","type":"Kreisangehörige_Gemeinde"},"district":{"key":"01058","name":"Rendsburg-Eckernförde","type":"Kreis"},"federalState":{"key":"01","name":"Schleswig-Holstein"}},{"name":"Lang't Dörp","postalCode":"24247","locality":"Rodenbek","municipality":{"key":"01058138","name":"Rodenbek","type":"Kreisangehörige_Gemeinde"},"district":{"key":"01058","name":"Rendsburg-Eckernförde","type":"Kreis"},"federalState":{"key":"01","name":"Schleswig-Holstein"}},{"name":"Moorredder","postalCode":"24247","locality":"Rodenbek","municipality":{"key":"01058138","name":"Rodenbek","type":"Kreisangehörige_Gemeinde"},"district":{"key":"01058","name":"Rendsburg-Eckernförde","type":"Kreis"},"federalState":{"key":"01","name":"Schleswig-Holstein"}},{"name":"Petersburger Weg","postalCode":"24247","locality":"Rodenbek","municipality":{"key":"01058138","name":"Rodenbek","type":"Kreisangehörige_Gemeinde"},"district":{"key":"01058","name":"Rendsburg-Eckernförde","type":"Kreis"},"federalState":{"key":"01","name":"Schleswig-Holstein"}},{"name":"Ruhm","postalCode":"24247","locality":"Rodenbek","municipality":{"key":"01058138","name":"Rodenbek","type":"Kreisangehörige_Gemeinde"},"district":{"key":"01058","name":"Rendsburg-Eckernförde","type":"Kreis"},"federalState":{"key":"01","name":"Schleswig-Holstein"}},{"name":"Schulredder","postalCode":"24247","locality":"Rodenbek","municipality":{"key":"01058138","name":"Rodenbek","type":"Kreisangehörige_Gemeinde"},"district":{"key":"01058","name":"Rendsburg-Eckernförde","type":"Kreis"},"federalState":{"key":"01","name":"Schleswig-Holstein"}},]