[{"name":"Alte Poststr.","postalCode":"54570","locality":"Bleckhausen","municipality":{"key":"07233008","name":"Bleckhausen","type":"Kreisangehörige_Gemeinde"},"district":{"key":"07233","name":"Vulkaneifel","type":"Landkreis"},"federalState":{"key":"07","name":"Rheinland-Pfalz"}},{"name":"Auf der Held","postalCode":"54570","locality":"Bleckhausen","municipality":{"key":"07233008","name":"Bleckhausen","type":"Kreisangehörige_Gemeinde"},"district":{"key":"07233","name":"Vulkaneifel","type":"Landkreis"},"federalState":{"key":"07","name":"Rheinland-Pfalz"}},{"name":"Brunnenstr.","postalCode":"54570","locality":"Bleckhausen","municipality":{"key":"07233008","name":"Bleckhausen","type":"Kreisangehörige_Gemeinde"},"district":{"key":"07233","name":"Vulkaneifel","type":"Landkreis"},"federalState":{"key":"07","name":"Rheinland-Pfalz"}},{"name":"Eichenpesch","postalCode":"54570","locality":"Bleckhausen","municipality":{"key":"07233008","name":"Bleckhausen","type":"Kreisangehörige_Gemeinde"},"district":{"key":"07233","name":"Vulkaneifel","type":"Landkreis"},"federalState":{"key":"07","name":"Rheinland-Pfalz"}},{"name":"Friedhofsweg","postalCode":"54570","locality":"Bleckhausen","municipality":{"key":"07233008","name":"Bleckhausen","type":"Kreisangehörige_Gemeinde"},"district":{"key":"07233","name":"Vulkaneifel","type":"Landkreis"},"federalState":{"key":"07","name":"Rheinland-Pfalz"}},{"name":"Gartenstr.","postalCode":"54570","locality":"Bleckhausen","municipality":{"key":"07233008","name":"Bleckhausen","type":"Kreisangehörige_Gemeinde"},"district":{"key":"07233","name":"Vulkaneifel","type":"Landkreis"},"federalState":{"key":"07","name":"Rheinland-Pfalz"}},{"name":"Hauptstr.","postalCode":"54570","locality":"Bleckhausen","municipality":{"key":"07233008","name":"Bleckhausen","type":"Kreisangehörige_Gemeinde"},"district":{"key":"07233","name":"Vulkaneifel","type":"Landkreis"},"federalState":{"key":"07","name":"Rheinland-Pfalz"}},{"name":"Im Altenberg","postalCode":"54570","locality":"Bleckhausen","municipality":{"key":"07233008","name":"Bleckhausen","type":"Kreisangehörige_Gemeinde"},"district":{"key":"07233","name":"Vulkaneifel","type":"Landkreis"},"federalState":{"key":"07","name":"Rheinland-Pfalz"}},{"name":"Im Ewertstal","postalCode":"54570","locality":"Bleckhausen","municipality":{"key":"07233008","name":"Bleckhausen","type":"Kreisangehörige_Gemeinde"},"district":{"key":"07233","name":"Vulkaneifel","type":"Landkreis"},"federalState":{"key":"07","name":"Rheinland-Pfalz"}},{"name":"Im Hasen","postalCode":"54570","locality":"Bleckhausen","municipality":{"key":"07233008","name":"Bleckhausen","type":"Kreisangehörige_Gemeinde"},"district":{"key":"07233","name":"Vulkaneifel","type":"Landkreis"},"federalState":{"key":"07","name":"Rheinland-Pfalz"}},{"name":"In der Dorfwies","postalCode":"54570","locality":"Bleckhausen","municipality":{"key":"07233008","name":"Bleckhausen","type":"Kreisangehörige_Gemeinde"},"district":{"key":"07233","name":"Vulkaneifel","type":"Landkreis"},"federalState":{"key":"07","name":"Rheinland-Pfalz"}},{"name":"Reihenpesch","postalCode":"54570","locality":"Bleckhausen","municipality":{"key":"07233008","name":"Bleckhausen","type":"Kreisangehörige_Gemeinde"},"district":{"key":"07233","name":"Vulkaneifel","type":"Landkreis"},"federalState":{"key":"07","name":"Rheinland-Pfalz"}},{"name":"Trombachweg","postalCode":"54570","locality":"Bleckhausen","municipality":{"key":"07233008","name":"Bleckhausen","type":"Kreisangehörige_Gemeinde"},"district":{"key":"07233","name":"Vulkaneifel","type":"Landkreis"},"federalState":{"key":"07","name":"Rheinland-Pfalz"}},]