[{"name":"Ahornweg","postalCode":"49638","locality":"Nortrup","municipality":{"key":"03459028","name":"Nortrup","type":"Kreisangehörige_Gemeinde"},"district":{"key":"03459","name":"Osnabrück","type":"Landkreis"},"federalState":{"key":"03","name":"Niedersachsen"}},{"name":"Alte Pferdekoppel","postalCode":"49638","locality":"Nortrup","municipality":{"key":"03459028","name":"Nortrup","type":"Kreisangehörige_Gemeinde"},"district":{"key":"03459","name":"Osnabrück","type":"Landkreis"},"federalState":{"key":"03","name":"Niedersachsen"}},{"name":"Alte Poststr.","postalCode":"49638","locality":"Nortrup","municipality":{"key":"03459028","name":"Nortrup","type":"Kreisangehörige_Gemeinde"},"district":{"key":"03459","name":"Osnabrück","type":"Landkreis"},"federalState":{"key":"03","name":"Niedersachsen"}},{"name":"Am Alten Sportplatz","postalCode":"49638","locality":"Nortrup","municipality":{"key":"03459028","name":"Nortrup","type":"Kreisangehörige_Gemeinde"},"district":{"key":"03459","name":"Osnabrück","type":"Landkreis"},"federalState":{"key":"03","name":"Niedersachsen"}},{"name":"Am Bauland","postalCode":"49638","locality":"Nortrup","municipality":{"key":"03459028","name":"Nortrup","type":"Kreisangehörige_Gemeinde"},"district":{"key":"03459","name":"Osnabrück","type":"Landkreis"},"federalState":{"key":"03","name":"Niedersachsen"}},{"name":"Am Brink","postalCode":"49638","locality":"Nortrup","municipality":{"key":"03459028","name":"Nortrup","type":"Kreisangehörige_Gemeinde"},"district":{"key":"03459","name":"Osnabrück","type":"Landkreis"},"federalState":{"key":"03","name":"Niedersachsen"}},{"name":"Am Eickhoff","postalCode":"49638","locality":"Nortrup","municipality":{"key":"03459028","name":"Nortrup","type":"Kreisangehörige_Gemeinde"},"district":{"key":"03459","name":"Osnabrück","type":"Landkreis"},"federalState":{"key":"03","name":"Niedersachsen"}},{"name":"Am Esch","postalCode":"49638","locality":"Nortrup","municipality":{"key":"03459028","name":"Nortrup","type":"Kreisangehörige_Gemeinde"},"district":{"key":"03459","name":"Osnabrück","type":"Landkreis"},"federalState":{"key":"03","name":"Niedersachsen"}},{"name":"Am Poggenkamp","postalCode":"49638","locality":"Nortrup","municipality":{"key":"03459028","name":"Nortrup","type":"Kreisangehörige_Gemeinde"},"district":{"key":"03459","name":"Osnabrück","type":"Landkreis"},"federalState":{"key":"03","name":"Niedersachsen"}},{"name":"Am Reitbach","postalCode":"49638","locality":"Nortrup","municipality":{"key":"03459028","name":"Nortrup","type":"Kreisangehörige_Gemeinde"},"district":{"key":"03459","name":"Osnabrück","type":"Landkreis"},"federalState":{"key":"03","name":"Niedersachsen"}},{"name":"Am Sportplatz","postalCode":"49638","locality":"Nortrup","municipality":{"key":"03459028","name":"Nortrup","type":"Kreisangehörige_Gemeinde"},"district":{"key":"03459","name":"Osnabrück","type":"Landkreis"},"federalState":{"key":"03","name":"Niedersachsen"}},{"name":"Am Steinbrink","postalCode":"49638","locality":"Nortrup","municipality":{"key":"03459028","name":"Nortrup","type":"Kreisangehörige_Gemeinde"},"district":{"key":"03459","name":"Osnabrück","type":"Landkreis"},"federalState":{"key":"03","name":"Niedersachsen"}},{"name":"Am Triangel","postalCode":"49638","locality":"Nortrup","municipality":{"key":"03459028","name":"Nortrup","type":"Kreisangehörige_Gemeinde"},"district":{"key":"03459","name":"Osnabrück","type":"Landkreis"},"federalState":{"key":"03","name":"Niedersachsen"}},{"name":"Ankumer Str.","postalCode":"49638","locality":"Nortrup","municipality":{"key":"03459028","name":"Nortrup","type":"Kreisangehörige_Gemeinde"},"district":{"key":"03459","name":"Osnabrück","type":"Landkreis"},"federalState":{"key":"03","name":"Niedersachsen"}},{"name":"Auf dem Esch","postalCode":"49638","locality":"Nortrup","municipality":{"key":"03459028","name":"Nortrup","type":"Kreisangehörige_Gemeinde"},"district":{"key":"03459","name":"Osnabrück","type":"Landkreis"},"federalState":{"key":"03","name":"Niedersachsen"}},{"name":"Badberger Str.","postalCode":"49638","locality":"Nortrup","municipality":{"key":"03459028","name":"Nortrup","type":"Kreisangehörige_Gemeinde"},"district":{"key":"03459","name":"Osnabrück","type":"Landkreis"},"federalState":{"key":"03","name":"Niedersachsen"}},{"name":"Bahnhofstr.","postalCode":"49638","locality":"Nortrup","municipality":{"key":"03459028","name":"Nortrup","type":"Kreisangehörige_Gemeinde"},"district":{"key":"03459","name":"Osnabrück","type":"Landkreis"},"federalState":{"key":"03","name":"Niedersachsen"}},{"name":"Birkenweg","postalCode":"49638","locality":"Nortrup","municipality":{"key":"03459028","name":"Nortrup","type":"Kreisangehörige_Gemeinde"},"district":{"key":"03459","name":"Osnabrück","type":"Landkreis"},"federalState":{"key":"03","name":"Niedersachsen"}},{"name":"Börslage","postalCode":"49638","locality":"Nortrup","municipality":{"key":"03459028","name":"Nortrup","type":"Kreisangehörige_Gemeinde"},"district":{"key":"03459","name":"Osnabrück","type":"Landkreis"},"federalState":{"key":"03","name":"Niedersachsen"}},{"name":"Buchenweg","postalCode":"49638","locality":"Nortrup","municipality":{"key":"03459028","name":"Nortrup","type":"Kreisangehörige_Gemeinde"},"district":{"key":"03459","name":"Osnabrück","type":"Landkreis"},"federalState":{"key":"03","name":"Niedersachsen"}},{"name":"Cafe am Gertrudenberg","postalCode":"49088","locality":"Osnabrück","municipality":{"key":"03404000","name":"Osnabrück, Stadt","type":"Kreisfreie_Stadt"},"district":{"key":"03404","name":"Osnabrück, Stadt","type":"Kreisfreie_Stadt"},"federalState":{"key":"03","name":"Niedersachsen"}},{"name":"Caprivistr.","postalCode":"49076","locality":"Osnabrück","municipality":{"key":"03404000","name":"Osnabrück, Stadt","type":"Kreisfreie_Stadt"},"district":{"key":"03404","name":"Osnabrück, Stadt","type":"Kreisfreie_Stadt"},"federalState":{"key":"03","name":"Niedersachsen"}},{"name":"Cardiffring","postalCode":"49090","locality":"Osnabrück","municipality":{"key":"03404000","name":"Osnabrück, Stadt","type":"Kreisfreie_Stadt"},"district":{"key":"03404","name":"Osnabrück, Stadt","type":"Kreisfreie_Stadt"},"federalState":{"key":"03","name":"Niedersachsen"}},{"name":"Carla-Woldering-Str.","postalCode":"49088","locality":"Osnabrück","municipality":{"key":"03404000","name":"Osnabrück, Stadt","type":"Kreisfreie_Stadt"},"district":{"key":"03404","name":"Osnabrück, Stadt","type":"Kreisfreie_Stadt"},"federalState":{"key":"03","name":"Niedersachsen"}},{"name":"Carl-Dütting-Str.","postalCode":"49090","locality":"Osnabrück","municipality":{"key":"03404000","name":"Osnabrück, Stadt","type":"Kreisfreie_Stadt"},"district":{"key":"03404","name":"Osnabrück, Stadt","type":"Kreisfreie_Stadt"},"federalState":{"key":"03","name":"Niedersachsen"}},{"name":"Carl-Fischer-Str.","postalCode":"49084","locality":"Osnabrück","municipality":{"key":"03404000","name":"Osnabrück, Stadt","type":"Kreisfreie_Stadt"},"district":{"key":"03404","name":"Osnabrück, Stadt","type":"Kreisfreie_Stadt"},"federalState":{"key":"03","name":"Niedersachsen"}},{"name":"Carl-Hermann-Gosling-Platz","postalCode":"49078","locality":"Osnabrück","municipality":{"key":"03404000","name":"Osnabrück, Stadt","type":"Kreisfreie_Stadt"},"district":{"key":"03404","name":"Osnabrück, Stadt","type":"Kreisfreie_Stadt"},"federalState":{"key":"03","name":"Niedersachsen"}},{"name":"Carl-Legien-Str.","postalCode":"49084","locality":"Osnabrück","municipality":{"key":"03404000","name":"Osnabrück, Stadt","type":"Kreisfreie_Stadt"},"district":{"key":"03404","name":"Osnabrück, Stadt","type":"Kreisfreie_Stadt"},"federalState":{"key":"03","name":"Niedersachsen"}},{"name":"Carl-Lüer-Str.","postalCode":"49084","locality":"Osnabrück","municipality":{"key":"03404000","name":"Osnabrück, Stadt","type":"Kreisfreie_Stadt"},"district":{"key":"03404","name":"Osnabrück, Stadt","type":"Kreisfreie_Stadt"},"federalState":{"key":"03","name":"Niedersachsen"}},{"name":"Carl-Philipson-Weg","postalCode":"49076","locality":"Osnabrück","municipality":{"key":"03404000","name":"Osnabrück, Stadt","type":"Kreisfreie_Stadt"},"district":{"key":"03404","name":"Osnabrück, Stadt","type":"Kreisfreie_Stadt"},"federalState":{"key":"03","name":"Niedersachsen"}},{"name":"Carl-Stolcke-Str.","postalCode":"49090","locality":"Osnabrück","municipality":{"key":"03404000","name":"Osnabrück, Stadt","type":"Kreisfreie_Stadt"},"district":{"key":"03404","name":"Osnabrück, Stadt","type":"Kreisfreie_Stadt"},"federalState":{"key":"03","name":"Niedersachsen"}},{"name":"Carl-von-Ossietzky-Str.","postalCode":"49082","locality":"Osnabrück","municipality":{"key":"03404000","name":"Osnabrück, Stadt","type":"Kreisfreie_Stadt"},"district":{"key":"03404","name":"Osnabrück, Stadt","type":"Kreisfreie_Stadt"},"federalState":{"key":"03","name":"Niedersachsen"}},{"name":"Charlottenburger Str.","postalCode":"49088","locality":"Osnabrück","municipality":{"key":"03404000","name":"Osnabrück, Stadt","type":"Kreisfreie_Stadt"},"district":{"key":"03404","name":"Osnabrück, Stadt","type":"Kreisfreie_Stadt"},"federalState":{"key":"03","name":"Niedersachsen"}},{"name":"Chemnitzer Str.","postalCode":"49078","locality":"Osnabrück","municipality":{"key":"03404000","name":"Osnabrück, Stadt","type":"Kreisfreie_Stadt"},"district":{"key":"03404","name":"Osnabrück, Stadt","type":"Kreisfreie_Stadt"},"federalState":{"key":"03","name":"Niedersachsen"}},{"name":"Cheruskerweg","postalCode":"49086","locality":"Osnabrück","municipality":{"key":"03404000","name":"Osnabrück, Stadt","type":"Kreisfreie_Stadt"},"district":{"key":"03404","name":"Osnabrück, Stadt","type":"Kreisfreie_Stadt"},"federalState":{"key":"03","name":"Niedersachsen"}},{"name":"Claire-Goll-Str.","postalCode":"49086","locality":"Osnabrück","municipality":{"key":"03404000","name":"Osnabrück, Stadt","type":"Kreisfreie_Stadt"},"district":{"key":"03404","name":"Osnabrück, Stadt","type":"Kreisfreie_Stadt"},"federalState":{"key":"03","name":"Niedersachsen"}},{"name":"Clarenbachstr.","postalCode":"49082","locality":"Osnabrück","municipality":{"key":"03404000","name":"Osnabrück, Stadt","type":"Kreisfreie_Stadt"},"district":{"key":"03404","name":"Osnabrück, Stadt","type":"Kreisfreie_Stadt"},"federalState":{"key":"03","name":"Niedersachsen"}},{"name":"Clausewitzweg","postalCode":"49076","locality":"Osnabrück","municipality":{"key":"03404000","name":"Osnabrück, Stadt","type":"Kreisfreie_Stadt"},"district":{"key":"03404","name":"Osnabrück, Stadt","type":"Kreisfreie_Stadt"},"federalState":{"key":"03","name":"Niedersachsen"}},{"name":"Clemensstr.","postalCode":"49090","locality":"Osnabrück","municipality":{"key":"03404000","name":"Osnabrück, Stadt","type":"Kreisfreie_Stadt"},"district":{"key":"03404","name":"Osnabrück, Stadt","type":"Kreisfreie_Stadt"},"federalState":{"key":"03","name":"Niedersachsen"}},{"name":"Cloppenburger Str.","postalCode":"49088","locality":"Osnabrück","municipality":{"key":"03404000","name":"Osnabrück, Stadt","type":"Kreisfreie_Stadt"},"district":{"key":"03404","name":"Osnabrück, Stadt","type":"Kreisfreie_Stadt"},"federalState":{"key":"03","name":"Niedersachsen"}},{"name":"Conrad-Bäumer-Weg","postalCode":"49074","locality":"Osnabrück","municipality":{"key":"03404000","name":"Osnabrück, Stadt","type":"Kreisfreie_Stadt"},"district":{"key":"03404","name":"Osnabrück, Stadt","type":"Kreisfreie_Stadt"},"federalState":{"key":"03","name":"Niedersachsen"}},{"name":"Corneliusweg","postalCode":"49076","locality":"Osnabrück","municipality":{"key":"03404000","name":"Osnabrück, Stadt","type":"Kreisfreie_Stadt"},"district":{"key":"03404","name":"Osnabrück, Stadt","type":"Kreisfreie_Stadt"},"federalState":{"key":"03","name":"Niedersachsen"}},{"name":"Corsicaskamp","postalCode":"49076","locality":"Osnabrück","municipality":{"key":"03404000","name":"Osnabrück, Stadt","type":"Kreisfreie_Stadt"},"district":{"key":"03404","name":"Osnabrück, Stadt","type":"Kreisfreie_Stadt"},"federalState":{"key":"03","name":"Niedersachsen"}},{"name":"Corthausstr.","postalCode":"49084","locality":"Osnabrück","municipality":{"key":"03404000","name":"Osnabrück, Stadt","type":"Kreisfreie_Stadt"},"district":{"key":"03404","name":"Osnabrück, Stadt","type":"Kreisfreie_Stadt"},"federalState":{"key":"03","name":"Niedersachsen"}},{"name":"Crispinsburg","postalCode":"49084","locality":"Osnabrück","municipality":{"key":"03404000","name":"Osnabrück, Stadt","type":"Kreisfreie_Stadt"},"district":{"key":"03404","name":"Osnabrück, Stadt","type":"Kreisfreie_Stadt"},"federalState":{"key":"03","name":"Niedersachsen"}},{"name":"Dahlorter Weg","postalCode":"49638","locality":"Nortrup","municipality":{"key":"03459028","name":"Nortrup","type":"Kreisangehörige_Gemeinde"},"district":{"key":"03459","name":"Osnabrück","type":"Landkreis"},"federalState":{"key":"03","name":"Niedersachsen"}},{"name":"Druchhorner Str.","postalCode":"49638","locality":"Nortrup","municipality":{"key":"03459028","name":"Nortrup","type":"Kreisangehörige_Gemeinde"},"district":{"key":"03459","name":"Osnabrück","type":"Landkreis"},"federalState":{"key":"03","name":"Niedersachsen"}},{"name":"Eichenweg","postalCode":"49638","locality":"Nortrup","municipality":{"key":"03459028","name":"Nortrup","type":"Kreisangehörige_Gemeinde"},"district":{"key":"03459","name":"Osnabrück","type":"Landkreis"},"federalState":{"key":"03","name":"Niedersachsen"}},{"name":"Erlenweg","postalCode":"49638","locality":"Nortrup","municipality":{"key":"03459028","name":"Nortrup","type":"Kreisangehörige_Gemeinde"},"district":{"key":"03459","name":"Osnabrück","type":"Landkreis"},"federalState":{"key":"03","name":"Niedersachsen"}},{"name":"Farwickstr.","postalCode":"49638","locality":"Nortrup","municipality":{"key":"03459028","name":"Nortrup","type":"Kreisangehörige_Gemeinde"},"district":{"key":"03459","name":"Osnabrück","type":"Landkreis"},"federalState":{"key":"03","name":"Niedersachsen"}},{"name":"Fasanenweg","postalCode":"49638","locality":"Nortrup","municipality":{"key":"03459028","name":"Nortrup","type":"Kreisangehörige_Gemeinde"},"district":{"key":"03459","name":"Osnabrück","type":"Landkreis"},"federalState":{"key":"03","name":"Niedersachsen"}},{"name":"Fichtenweg","postalCode":"49638","locality":"Nortrup","municipality":{"key":"03459028","name":"Nortrup","type":"Kreisangehörige_Gemeinde"},"district":{"key":"03459","name":"Osnabrück","type":"Landkreis"},"federalState":{"key":"03","name":"Niedersachsen"}},{"name":"Fissenpad","postalCode":"49638","locality":"Nortrup","municipality":{"key":"03459028","name":"Nortrup","type":"Kreisangehörige_Gemeinde"},"district":{"key":"03459","name":"Osnabrück","type":"Landkreis"},"federalState":{"key":"03","name":"Niedersachsen"}},{"name":"Friedhofstr.","postalCode":"49638","locality":"Nortrup","municipality":{"key":"03459028","name":"Nortrup","type":"Kreisangehörige_Gemeinde"},"district":{"key":"03459","name":"Osnabrück","type":"Landkreis"},"federalState":{"key":"03","name":"Niedersachsen"}},{"name":"Gartenstr.","postalCode":"49638","locality":"Nortrup","municipality":{"key":"03459028","name":"Nortrup","type":"Kreisangehörige_Gemeinde"},"district":{"key":"03459","name":"Osnabrück","type":"Landkreis"},"federalState":{"key":"03","name":"Niedersachsen"}},{"name":"Greßwinkel","postalCode":"49638","locality":"Nortrup","municipality":{"key":"03459028","name":"Nortrup","type":"Kreisangehörige_Gemeinde"},"district":{"key":"03459","name":"Osnabrück","type":"Landkreis"},"federalState":{"key":"03","name":"Niedersachsen"}},{"name":"Hammermanns Weg","postalCode":"49638","locality":"Nortrup","municipality":{"key":"03459028","name":"Nortrup","type":"Kreisangehörige_Gemeinde"},"district":{"key":"03459","name":"Osnabrück","type":"Landkreis"},"federalState":{"key":"03","name":"Niedersachsen"}},{"name":"Hauptstr.","postalCode":"49638","locality":"Nortrup","municipality":{"key":"03459028","name":"Nortrup","type":"Kreisangehörige_Gemeinde"},"district":{"key":"03459","name":"Osnabrück","type":"Landkreis"},"federalState":{"key":"03","name":"Niedersachsen"}},{"name":"Hermann-Kemper Str.","postalCode":"49638","locality":"Nortrup","municipality":{"key":"03459028","name":"Nortrup","type":"Kreisangehörige_Gemeinde"},"district":{"key":"03459","name":"Osnabrück","type":"Landkreis"},"federalState":{"key":"03","name":"Niedersachsen"}},{"name":"Im Jordan","postalCode":"49638","locality":"Nortrup","municipality":{"key":"03459028","name":"Nortrup","type":"Kreisangehörige_Gemeinde"},"district":{"key":"03459","name":"Osnabrück","type":"Landkreis"},"federalState":{"key":"03","name":"Niedersachsen"}},{"name":"Jack-West-Weg","postalCode":"49090","locality":"Osnabrück","municipality":{"key":"03404000","name":"Osnabrück, Stadt","type":"Kreisfreie_Stadt"},"district":{"key":"03404","name":"Osnabrück, Stadt","type":"Kreisfreie_Stadt"},"federalState":{"key":"03","name":"Niedersachsen"}},{"name":"Jägerstr.","postalCode":"49084","locality":"Osnabrück","municipality":{"key":"03404000","name":"Osnabrück, Stadt","type":"Kreisfreie_Stadt"},"district":{"key":"03404","name":"Osnabrück, Stadt","type":"Kreisfreie_Stadt"},"federalState":{"key":"03","name":"Niedersachsen"}},{"name":"Jahnplatz","postalCode":"49080","locality":"Osnabrück","municipality":{"key":"03404000","name":"Osnabrück, Stadt","type":"Kreisfreie_Stadt"},"district":{"key":"03404","name":"Osnabrück, Stadt","type":"Kreisfreie_Stadt"},"federalState":{"key":"03","name":"Niedersachsen"}},{"name":"Jahnstr.","postalCode":"49080","locality":"Osnabrück","municipality":{"key":"03404000","name":"Osnabrück, Stadt","type":"Kreisfreie_Stadt"},"district":{"key":"03404","name":"Osnabrück, Stadt","type":"Kreisfreie_Stadt"},"federalState":{"key":"03","name":"Niedersachsen"}},{"name":"Jakob-Kaiser-Str.","postalCode":"49088","locality":"Osnabrück","municipality":{"key":"03404000","name":"Osnabrück, Stadt","type":"Kreisfreie_Stadt"},"district":{"key":"03404","name":"Osnabrück, Stadt","type":"Kreisfreie_Stadt"},"federalState":{"key":"03","name":"Niedersachsen"}},{"name":"Jäneckestr.","postalCode":"49084","locality":"Osnabrück","municipality":{"key":"03404000","name":"Osnabrück, Stadt","type":"Kreisfreie_Stadt"},"district":{"key":"03404","name":"Osnabrück, Stadt","type":"Kreisfreie_Stadt"},"federalState":{"key":"03","name":"Niedersachsen"}},{"name":"Jeggener Weg","postalCode":"49084","locality":"Osnabrück","municipality":{"key":"03404000","name":"Osnabrück, Stadt","type":"Kreisfreie_Stadt"},"district":{"key":"03404","name":"Osnabrück, Stadt","type":"Kreisfreie_Stadt"},"federalState":{"key":"03","name":"Niedersachsen"}},{"name":"Jellinghausstr.","postalCode":"49082","locality":"Osnabrück","municipality":{"key":"03404000","name":"Osnabrück, Stadt","type":"Kreisfreie_Stadt"},"district":{"key":"03404","name":"Osnabrück, Stadt","type":"Kreisfreie_Stadt"},"federalState":{"key":"03","name":"Niedersachsen"}},{"name":"Jenaer Str.","postalCode":"49086","locality":"Osnabrück","municipality":{"key":"03404000","name":"Osnabrück, Stadt","type":"Kreisfreie_Stadt"},"district":{"key":"03404","name":"Osnabrück, Stadt","type":"Kreisfreie_Stadt"},"federalState":{"key":"03","name":"Niedersachsen"}},{"name":"Jenaer Weg","postalCode":"49080","locality":"Osnabrück","municipality":{"key":"03404000","name":"Osnabrück, Stadt","type":"Kreisfreie_Stadt"},"district":{"key":"03404","name":"Osnabrück, Stadt","type":"Kreisfreie_Stadt"},"federalState":{"key":"03","name":"Niedersachsen"}},{"name":"Jenny-von-Voigts-Str.","postalCode":"49086","locality":"Osnabrück","municipality":{"key":"03404000","name":"Osnabrück, Stadt","type":"Kreisfreie_Stadt"},"district":{"key":"03404","name":"Osnabrück, Stadt","type":"Kreisfreie_Stadt"},"federalState":{"key":"03","name":"Niedersachsen"}},{"name":"Johann-Domann-Str.","postalCode":"49080","locality":"Osnabrück","municipality":{"key":"03404000","name":"Osnabrück, Stadt","type":"Kreisfreie_Stadt"},"district":{"key":"03404","name":"Osnabrück, Stadt","type":"Kreisfreie_Stadt"},"federalState":{"key":"03","name":"Niedersachsen"}},{"name":"Johannisfreiheit","postalCode":"49074","locality":"Osnabrück","municipality":{"key":"03404000","name":"Osnabrück, Stadt","type":"Kreisfreie_Stadt"},"district":{"key":"03404","name":"Osnabrück, Stadt","type":"Kreisfreie_Stadt"},"federalState":{"key":"03","name":"Niedersachsen"}},{"name":"Johannisstr.","postalCode":"49074","locality":"Osnabrück","municipality":{"key":"03404000","name":"Osnabrück, Stadt","type":"Kreisfreie_Stadt"},"district":{"key":"03404","name":"Osnabrück, Stadt","type":"Kreisfreie_Stadt"},"federalState":{"key":"03","name":"Niedersachsen"}},{"name":"Johannistorwall","postalCode":"49074","locality":"Osnabrück","municipality":{"key":"03404000","name":"Osnabrück, Stadt","type":"Kreisfreie_Stadt"},"district":{"key":"03404","name":"Osnabrück, Stadt","type":"Kreisfreie_Stadt"},"federalState":{"key":"03","name":"Niedersachsen"}},{"name":"Johann-Sebastian-Bach-Str.","postalCode":"49076","locality":"Osnabrück","municipality":{"key":"03404000","name":"Osnabrück, Stadt","type":"Kreisfreie_Stadt"},"district":{"key":"03404","name":"Osnabrück, Stadt","type":"Kreisfreie_Stadt"},"federalState":{"key":"03","name":"Niedersachsen"}},{"name":"Josef-Schwetje-Str.","postalCode":"49080","locality":"Osnabrück","municipality":{"key":"03404000","name":"Osnabrück, Stadt","type":"Kreisfreie_Stadt"},"district":{"key":"03404","name":"Osnabrück, Stadt","type":"Kreisfreie_Stadt"},"federalState":{"key":"03","name":"Niedersachsen"}},{"name":"Josefstr.","postalCode":"49082","locality":"Osnabrück","municipality":{"key":"03404000","name":"Osnabrück, Stadt","type":"Kreisfreie_Stadt"},"district":{"key":"03404","name":"Osnabrück, Stadt","type":"Kreisfreie_Stadt"},"federalState":{"key":"03","name":"Niedersachsen"}},{"name":"Jostesweg","postalCode":"49080","locality":"Osnabrück","municipality":{"key":"03404000","name":"Osnabrück, Stadt","type":"Kreisfreie_Stadt"},"district":{"key":"03404","name":"Osnabrück, Stadt","type":"Kreisfreie_Stadt"},"federalState":{"key":"03","name":"Niedersachsen"}},{"name":"Julius-Heywinkel-Weg","postalCode":"49076","locality":"Osnabrück","municipality":{"key":"03404000","name":"Osnabrück, Stadt","type":"Kreisfreie_Stadt"},"district":{"key":"03404","name":"Osnabrück, Stadt","type":"Kreisfreie_Stadt"},"federalState":{"key":"03","name":"Niedersachsen"}},{"name":"Julius-Leber-Str.","postalCode":"49090","locality":"Osnabrück","municipality":{"key":"03404000","name":"Osnabrück, Stadt","type":"Kreisfreie_Stadt"},"district":{"key":"03404","name":"Osnabrück, Stadt","type":"Kreisfreie_Stadt"},"federalState":{"key":"03","name":"Niedersachsen"}},{"name":"Julius-Schurig-Str.","postalCode":"49088","locality":"Osnabrück","municipality":{"key":"03404000","name":"Osnabrück, Stadt","type":"Kreisfreie_Stadt"},"district":{"key":"03404","name":"Osnabrück, Stadt","type":"Kreisfreie_Stadt"},"federalState":{"key":"03","name":"Niedersachsen"}},{"name":"Kastanienweg","postalCode":"49638","locality":"Nortrup","municipality":{"key":"03459028","name":"Nortrup","type":"Kreisangehörige_Gemeinde"},"district":{"key":"03459","name":"Osnabrück","type":"Landkreis"},"federalState":{"key":"03","name":"Niedersachsen"}},{"name":"Kettenkamper Str.","postalCode":"49638","locality":"Nortrup","municipality":{"key":"03459028","name":"Nortrup","type":"Kreisangehörige_Gemeinde"},"district":{"key":"03459","name":"Osnabrück","type":"Landkreis"},"federalState":{"key":"03","name":"Niedersachsen"}},{"name":"Kirchstr.","postalCode":"49638","locality":"Nortrup","municipality":{"key":"03459028","name":"Nortrup","type":"Kreisangehörige_Gemeinde"},"district":{"key":"03459","name":"Osnabrück","type":"Landkreis"},"federalState":{"key":"03","name":"Niedersachsen"}},{"name":"Kleine Heide","postalCode":"49638","locality":"Nortrup","municipality":{"key":"03459028","name":"Nortrup","type":"Kreisangehörige_Gemeinde"},"district":{"key":"03459","name":"Osnabrück","type":"Landkreis"},"federalState":{"key":"03","name":"Niedersachsen"}},{"name":"Kollriedenweg","postalCode":"49638","locality":"Nortrup","municipality":{"key":"03459028","name":"Nortrup","type":"Kreisangehörige_Gemeinde"},"district":{"key":"03459","name":"Osnabrück","type":"Landkreis"},"federalState":{"key":"03","name":"Niedersachsen"}},{"name":"Landwehrstr.","postalCode":"49638","locality":"Nortrup","municipality":{"key":"03459028","name":"Nortrup","type":"Kreisangehörige_Gemeinde"},"district":{"key":"03459","name":"Osnabrück","type":"Landkreis"},"federalState":{"key":"03","name":"Niedersachsen"}},{"name":"Lange Wand","postalCode":"49638","locality":"Nortrup","municipality":{"key":"03459028","name":"Nortrup","type":"Kreisangehörige_Gemeinde"},"district":{"key":"03459","name":"Osnabrück","type":"Landkreis"},"federalState":{"key":"03","name":"Niedersachsen"}},{"name":"Lärchenweg","postalCode":"49638","locality":"Nortrup","municipality":{"key":"03459028","name":"Nortrup","type":"Kreisangehörige_Gemeinde"},"district":{"key":"03459","name":"Osnabrück","type":"Landkreis"},"federalState":{"key":"03","name":"Niedersachsen"}},{"name":"Lindenweg","postalCode":"49638","locality":"Nortrup","municipality":{"key":"03459028","name":"Nortrup","type":"Kreisangehörige_Gemeinde"},"district":{"key":"03459","name":"Osnabrück","type":"Landkreis"},"federalState":{"key":"03","name":"Niedersachsen"}},{"name":"Menslager Str.","postalCode":"49638","locality":"Nortrup","municipality":{"key":"03459028","name":"Nortrup","type":"Kreisangehörige_Gemeinde"},"district":{"key":"03459","name":"Osnabrück","type":"Landkreis"},"federalState":{"key":"03","name":"Niedersachsen"}},{"name":"Merschstrich","postalCode":"49638","locality":"Nortrup","municipality":{"key":"03459028","name":"Nortrup","type":"Kreisangehörige_Gemeinde"},"district":{"key":"03459","name":"Osnabrück","type":"Landkreis"},"federalState":{"key":"03","name":"Niedersachsen"}},{"name":"Mittelstr.","postalCode":"49638","locality":"Nortrup","municipality":{"key":"03459028","name":"Nortrup","type":"Kreisangehörige_Gemeinde"},"district":{"key":"03459","name":"Osnabrück","type":"Landkreis"},"federalState":{"key":"03","name":"Niedersachsen"}},{"name":"Mühlenstr.","postalCode":"49638","locality":"Nortrup","municipality":{"key":"03459028","name":"Nortrup","type":"Kreisangehörige_Gemeinde"},"district":{"key":"03459","name":"Osnabrück","type":"Landkreis"},"federalState":{"key":"03","name":"Niedersachsen"}},{"name":"Mühlenweg","postalCode":"49638","locality":"Nortrup","municipality":{"key":"03459028","name":"Nortrup","type":"Kreisangehörige_Gemeinde"},"district":{"key":"03459","name":"Osnabrück","type":"Landkreis"},"federalState":{"key":"03","name":"Niedersachsen"}},{"name":"Nachtigallenweg","postalCode":"49088","locality":"Osnabrück","municipality":{"key":"03404000","name":"Osnabrück, Stadt","type":"Kreisfreie_Stadt"},"district":{"key":"03404","name":"Osnabrück, Stadt","type":"Kreisfreie_Stadt"},"federalState":{"key":"03","name":"Niedersachsen"}},{"name":"Nahner Kirchplatz","postalCode":"49082","locality":"Osnabrück","municipality":{"key":"03404000","name":"Osnabrück, Stadt","type":"Kreisfreie_Stadt"},"district":{"key":"03404","name":"Osnabrück, Stadt","type":"Kreisfreie_Stadt"},"federalState":{"key":"03","name":"Niedersachsen"}},{"name":"Nahner Landwehr","postalCode":"49082","locality":"Osnabrück","municipality":{"key":"03404000","name":"Osnabrück, Stadt","type":"Kreisfreie_Stadt"},"district":{"key":"03404","name":"Osnabrück, Stadt","type":"Kreisfreie_Stadt"},"federalState":{"key":"03","name":"Niedersachsen"}},{"name":"Nahner Weg","postalCode":"49082","locality":"Osnabrück","municipality":{"key":"03404000","name":"Osnabrück, Stadt","type":"Kreisfreie_Stadt"},"district":{"key":"03404","name":"Osnabrück, Stadt","type":"Kreisfreie_Stadt"},"federalState":{"key":"03","name":"Niedersachsen"}},{"name":"Narupstr.","postalCode":"49084","locality":"Osnabrück","municipality":{"key":"03404000","name":"Osnabrück, Stadt","type":"Kreisfreie_Stadt"},"district":{"key":"03404","name":"Osnabrück, Stadt","type":"Kreisfreie_Stadt"},"federalState":{"key":"03","name":"Niedersachsen"}},{"name":"Nasse Heide","postalCode":"49090","locality":"Osnabrück","municipality":{"key":"03404000","name":"Osnabrück, Stadt","type":"Kreisfreie_Stadt"},"district":{"key":"03404","name":"Osnabrück, Stadt","type":"Kreisfreie_Stadt"},"federalState":{"key":"03","name":"Niedersachsen"}},{"name":"Natbergerweg","postalCode":"49086","locality":"Osnabrück","municipality":{"key":"03404000","name":"Osnabrück, Stadt","type":"Kreisfreie_Stadt"},"district":{"key":"03404","name":"Osnabrück, Stadt","type":"Kreisfreie_Stadt"},"federalState":{"key":"03","name":"Niedersachsen"}},{"name":"Natruper Str.","postalCode":"49076","locality":"Osnabrück","municipality":{"key":"03404000","name":"Osnabrück, Stadt","type":"Kreisfreie_Stadt"},"district":{"key":"03404","name":"Osnabrück, Stadt","type":"Kreisfreie_Stadt"},"federalState":{"key":"03","name":"Niedersachsen"}},{"name":"Natruper Str.","postalCode":"49090","locality":"Osnabrück","municipality":{"key":"03404000","name":"Osnabrück, Stadt","type":"Kreisfreie_Stadt"},"district":{"key":"03404","name":"Osnabrück, Stadt","type":"Kreisfreie_Stadt"},"federalState":{"key":"03","name":"Niedersachsen"}},{"name":"Natruper-Tor-Wall","postalCode":"49074","locality":"Osnabrück","municipality":{"key":"03404000","name":"Osnabrück, Stadt","type":"Kreisfreie_Stadt"},"district":{"key":"03404","name":"Osnabrück, Stadt","type":"Kreisfreie_Stadt"},"federalState":{"key":"03","name":"Niedersachsen"}},{"name":"Natruper-Tor-Wall","postalCode":"49076","locality":"Osnabrück","municipality":{"key":"03404000","name":"Osnabrück, Stadt","type":"Kreisfreie_Stadt"},"district":{"key":"03404","name":"Osnabrück, Stadt","type":"Kreisfreie_Stadt"},"federalState":{"key":"03","name":"Niedersachsen"}},{"name":"Natruper-Tor-Wall","postalCode":"49078","locality":"Osnabrück","municipality":{"key":"03404000","name":"Osnabrück, Stadt","type":"Kreisfreie_Stadt"},"district":{"key":"03404","name":"Osnabrück, Stadt","type":"Kreisfreie_Stadt"},"federalState":{"key":"03","name":"Niedersachsen"}},{"name":"Neelmeyerstr.","postalCode":"49082","locality":"Osnabrück","municipality":{"key":"03404000","name":"Osnabrück, Stadt","type":"Kreisfreie_Stadt"},"district":{"key":"03404","name":"Osnabrück, Stadt","type":"Kreisfreie_Stadt"},"federalState":{"key":"03","name":"Niedersachsen"}},{"name":"Nelkenstr.","postalCode":"49084","locality":"Osnabrück","municipality":{"key":"03404000","name":"Osnabrück, Stadt","type":"Kreisfreie_Stadt"},"district":{"key":"03404","name":"Osnabrück, Stadt","type":"Kreisfreie_Stadt"},"federalState":{"key":"03","name":"Niedersachsen"}},{"name":"Nelly-Sachs-Str.","postalCode":"49086","locality":"Osnabrück","municipality":{"key":"03404000","name":"Osnabrück, Stadt","type":"Kreisfreie_Stadt"},"district":{"key":"03404","name":"Osnabrück, Stadt","type":"Kreisfreie_Stadt"},"federalState":{"key":"03","name":"Niedersachsen"}},{"name":"Nelson-Mandela-Platz","postalCode":"49076","locality":"Osnabrück","municipality":{"key":"03404000","name":"Osnabrück, Stadt","type":"Kreisfreie_Stadt"},"district":{"key":"03404","name":"Osnabrück, Stadt","type":"Kreisfreie_Stadt"},"federalState":{"key":"03","name":"Niedersachsen"}},{"name":"Nelson-Mandela-Str.","postalCode":"49076","locality":"Osnabrück","municipality":{"key":"03404000","name":"Osnabrück, Stadt","type":"Kreisfreie_Stadt"},"district":{"key":"03404","name":"Osnabrück, Stadt","type":"Kreisfreie_Stadt"},"federalState":{"key":"03","name":"Niedersachsen"}},{"name":"Netteweg","postalCode":"49090","locality":"Osnabrück","municipality":{"key":"03404000","name":"Osnabrück, Stadt","type":"Kreisfreie_Stadt"},"district":{"key":"03404","name":"Osnabrück, Stadt","type":"Kreisfreie_Stadt"},"federalState":{"key":"03","name":"Niedersachsen"}},{"name":"Neuer Graben","postalCode":"49074","locality":"Osnabrück","municipality":{"key":"03404000","name":"Osnabrück, Stadt","type":"Kreisfreie_Stadt"},"district":{"key":"03404","name":"Osnabrück, Stadt","type":"Kreisfreie_Stadt"},"federalState":{"key":"03","name":"Niedersachsen"}},{"name":"Neue Str.","postalCode":"49074","locality":"Osnabrück","municipality":{"key":"03404000","name":"Osnabrück, Stadt","type":"Kreisfreie_Stadt"},"district":{"key":"03404","name":"Osnabrück, Stadt","type":"Kreisfreie_Stadt"},"federalState":{"key":"03","name":"Niedersachsen"}},{"name":"Neulandstr.","postalCode":"49084","locality":"Osnabrück","municipality":{"key":"03404000","name":"Osnabrück, Stadt","type":"Kreisfreie_Stadt"},"district":{"key":"03404","name":"Osnabrück, Stadt","type":"Kreisfreie_Stadt"},"federalState":{"key":"03","name":"Niedersachsen"}},{"name":"Neumarkt","postalCode":"49074","locality":"Osnabrück","municipality":{"key":"03404000","name":"Osnabrück, Stadt","type":"Kreisfreie_Stadt"},"district":{"key":"03404","name":"Osnabrück, Stadt","type":"Kreisfreie_Stadt"},"federalState":{"key":"03","name":"Niedersachsen"}},{"name":"Neumarkter Str.","postalCode":"49076","locality":"Osnabrück","municipality":{"key":"03404000","name":"Osnabrück, Stadt","type":"Kreisfreie_Stadt"},"district":{"key":"03404","name":"Osnabrück, Stadt","type":"Kreisfreie_Stadt"},"federalState":{"key":"03","name":"Niedersachsen"}},{"name":"Newtonstr.","postalCode":"49088","locality":"Osnabrück","municipality":{"key":"03404000","name":"Osnabrück, Stadt","type":"Kreisfreie_Stadt"},"district":{"key":"03404","name":"Osnabrück, Stadt","type":"Kreisfreie_Stadt"},"federalState":{"key":"03","name":"Niedersachsen"}},{"name":"Niedersachsenhof","postalCode":"49078","locality":"Osnabrück","municipality":{"key":"03404000","name":"Osnabrück, Stadt","type":"Kreisfreie_Stadt"},"district":{"key":"03404","name":"Osnabrück, Stadt","type":"Kreisfreie_Stadt"},"federalState":{"key":"03","name":"Niedersachsen"}},{"name":"Niedersachsenstr.","postalCode":"49074","locality":"Osnabrück","municipality":{"key":"03404000","name":"Osnabrück, Stadt","type":"Kreisfreie_Stadt"},"district":{"key":"03404","name":"Osnabrück, Stadt","type":"Kreisfreie_Stadt"},"federalState":{"key":"03","name":"Niedersachsen"}},{"name":"Nienburger Str.","postalCode":"49088","locality":"Osnabrück","municipality":{"key":"03404000","name":"Osnabrück, Stadt","type":"Kreisfreie_Stadt"},"district":{"key":"03404","name":"Osnabrück, Stadt","type":"Kreisfreie_Stadt"},"federalState":{"key":"03","name":"Niedersachsen"}},{"name":"Nienort","postalCode":"49086","locality":"Osnabrück","municipality":{"key":"03404000","name":"Osnabrück, Stadt","type":"Kreisfreie_Stadt"},"district":{"key":"03404","name":"Osnabrück, Stadt","type":"Kreisfreie_Stadt"},"federalState":{"key":"03","name":"Niedersachsen"}},{"name":"Nikolaiort","postalCode":"49074","locality":"Osnabrück","municipality":{"key":"03404000","name":"Osnabrück, Stadt","type":"Kreisfreie_Stadt"},"district":{"key":"03404","name":"Osnabrück, Stadt","type":"Kreisfreie_Stadt"},"federalState":{"key":"03","name":"Niedersachsen"}},{"name":"Nitzestr.","postalCode":"49090","locality":"Osnabrück","municipality":{"key":"03404000","name":"Osnabrück, Stadt","type":"Kreisfreie_Stadt"},"district":{"key":"03404","name":"Osnabrück, Stadt","type":"Kreisfreie_Stadt"},"federalState":{"key":"03","name":"Niedersachsen"}},{"name":"Nobbenburger Str.","postalCode":"49076","locality":"Osnabrück","municipality":{"key":"03404000","name":"Osnabrück, Stadt","type":"Kreisfreie_Stadt"},"district":{"key":"03404","name":"Osnabrück, Stadt","type":"Kreisfreie_Stadt"},"federalState":{"key":"03","name":"Niedersachsen"}},{"name":"Nobelstr.","postalCode":"49088","locality":"Osnabrück","municipality":{"key":"03404000","name":"Osnabrück, Stadt","type":"Kreisfreie_Stadt"},"district":{"key":"03404","name":"Osnabrück, Stadt","type":"Kreisfreie_Stadt"},"federalState":{"key":"03","name":"Niedersachsen"}},{"name":"Nonnenpfad","postalCode":"49074","locality":"Osnabrück","municipality":{"key":"03404000","name":"Osnabrück, Stadt","type":"Kreisfreie_Stadt"},"district":{"key":"03404","name":"Osnabrück, Stadt","type":"Kreisfreie_Stadt"},"federalState":{"key":"03","name":"Niedersachsen"}},{"name":"Nordalbingerweg","postalCode":"49086","locality":"Osnabrück","municipality":{"key":"03404000","name":"Osnabrück, Stadt","type":"Kreisfreie_Stadt"},"district":{"key":"03404","name":"Osnabrück, Stadt","type":"Kreisfreie_Stadt"},"federalState":{"key":"03","name":"Niedersachsen"}},{"name":"Nordhausweg","postalCode":"49078","locality":"Osnabrück","municipality":{"key":"03404000","name":"Osnabrück, Stadt","type":"Kreisfreie_Stadt"},"district":{"key":"03404","name":"Osnabrück, Stadt","type":"Kreisfreie_Stadt"},"federalState":{"key":"03","name":"Niedersachsen"}},{"name":"Nordhausweg","postalCode":"49080","locality":"Osnabrück","municipality":{"key":"03404000","name":"Osnabrück, Stadt","type":"Kreisfreie_Stadt"},"district":{"key":"03404","name":"Osnabrück, Stadt","type":"Kreisfreie_Stadt"},"federalState":{"key":"03","name":"Niedersachsen"}},{"name":"Nordstr.","postalCode":"49084","locality":"Osnabrück","municipality":{"key":"03404000","name":"Osnabrück, Stadt","type":"Kreisfreie_Stadt"},"district":{"key":"03404","name":"Osnabrück, Stadt","type":"Kreisfreie_Stadt"},"federalState":{"key":"03","name":"Niedersachsen"}},{"name":"Nordstr.","postalCode":"49086","locality":"Osnabrück","municipality":{"key":"03404000","name":"Osnabrück, Stadt","type":"Kreisfreie_Stadt"},"district":{"key":"03404","name":"Osnabrück, Stadt","type":"Kreisfreie_Stadt"},"federalState":{"key":"03","name":"Niedersachsen"}},{"name":"Nürenburgstr.","postalCode":"49088","locality":"Osnabrück","municipality":{"key":"03404000","name":"Osnabrück, Stadt","type":"Kreisfreie_Stadt"},"district":{"key":"03404","name":"Osnabrück, Stadt","type":"Kreisfreie_Stadt"},"federalState":{"key":"03","name":"Niedersachsen"}},{"name":"Ortsstr.","postalCode":"49638","locality":"Nortrup","municipality":{"key":"03459028","name":"Nortrup","type":"Kreisangehörige_Gemeinde"},"district":{"key":"03459","name":"Osnabrück","type":"Landkreis"},"federalState":{"key":"03","name":"Niedersachsen"}},{"name":"Postweg","postalCode":"49638","locality":"Nortrup","municipality":{"key":"03459028","name":"Nortrup","type":"Kreisangehörige_Gemeinde"},"district":{"key":"03459","name":"Osnabrück","type":"Landkreis"},"federalState":{"key":"03","name":"Niedersachsen"}},{"name":"Quakenbrücker Str.","postalCode":"49638","locality":"Nortrup","municipality":{"key":"03459028","name":"Nortrup","type":"Kreisangehörige_Gemeinde"},"district":{"key":"03459","name":"Osnabrück","type":"Landkreis"},"federalState":{"key":"03","name":"Niedersachsen"}},{"name":"Rebhuhnweg","postalCode":"49638","locality":"Nortrup","municipality":{"key":"03459028","name":"Nortrup","type":"Kreisangehörige_Gemeinde"},"district":{"key":"03459","name":"Osnabrück","type":"Landkreis"},"federalState":{"key":"03","name":"Niedersachsen"}},{"name":"Rodberdingstr.","postalCode":"49638","locality":"Nortrup","municipality":{"key":"03459028","name":"Nortrup","type":"Kreisangehörige_Gemeinde"},"district":{"key":"03459","name":"Osnabrück","type":"Landkreis"},"federalState":{"key":"03","name":"Niedersachsen"}},{"name":"Rosenweg","postalCode":"49638","locality":"Nortrup","municipality":{"key":"03459028","name":"Nortrup","type":"Kreisangehörige_Gemeinde"},"district":{"key":"03459","name":"Osnabrück","type":"Landkreis"},"federalState":{"key":"03","name":"Niedersachsen"}},{"name":"Schulstr.","postalCode":"49638","locality":"Nortrup","municipality":{"key":"03459028","name":"Nortrup","type":"Kreisangehörige_Gemeinde"},"district":{"key":"03459","name":"Osnabrück","type":"Landkreis"},"federalState":{"key":"03","name":"Niedersachsen"}},{"name":"Schwenninger Damm","postalCode":"49638","locality":"Nortrup","municipality":{"key":"03459028","name":"Nortrup","type":"Kreisangehörige_Gemeinde"},"district":{"key":"03459","name":"Osnabrück","type":"Landkreis"},"federalState":{"key":"03","name":"Niedersachsen"}},{"name":"Spiekerkamp","postalCode":"49638","locality":"Nortrup","municipality":{"key":"03459028","name":"Nortrup","type":"Kreisangehörige_Gemeinde"},"district":{"key":"03459","name":"Osnabrück","type":"Landkreis"},"federalState":{"key":"03","name":"Niedersachsen"}},{"name":"Tannenweg","postalCode":"49638","locality":"Nortrup","municipality":{"key":"03459028","name":"Nortrup","type":"Kreisangehörige_Gemeinde"},"district":{"key":"03459","name":"Osnabrück","type":"Landkreis"},"federalState":{"key":"03","name":"Niedersachsen"}},{"name":"Tulpenweg","postalCode":"49638","locality":"Nortrup","municipality":{"key":"03459028","name":"Nortrup","type":"Kreisangehörige_Gemeinde"},"district":{"key":"03459","name":"Osnabrück","type":"Landkreis"},"federalState":{"key":"03","name":"Niedersachsen"}},{"name":"Uhlandstr.","postalCode":"49078","locality":"Osnabrück","municipality":{"key":"03404000","name":"Osnabrück, Stadt","type":"Kreisfreie_Stadt"},"district":{"key":"03404","name":"Osnabrück, Stadt","type":"Kreisfreie_Stadt"},"federalState":{"key":"03","name":"Niedersachsen"}},{"name":"Uhlandstr.","postalCode":"49080","locality":"Osnabrück","municipality":{"key":"03404000","name":"Osnabrück, Stadt","type":"Kreisfreie_Stadt"},"district":{"key":"03404","name":"Osnabrück, Stadt","type":"Kreisfreie_Stadt"},"federalState":{"key":"03","name":"Niedersachsen"}},{"name":"Uhlhornstr.","postalCode":"49080","locality":"Osnabrück","municipality":{"key":"03404000","name":"Osnabrück, Stadt","type":"Kreisfreie_Stadt"},"district":{"key":"03404","name":"Osnabrück, Stadt","type":"Kreisfreie_Stadt"},"federalState":{"key":"03","name":"Niedersachsen"}},{"name":"Uhlmannskamp","postalCode":"49086","locality":"Osnabrück","municipality":{"key":"03404000","name":"Osnabrück, Stadt","type":"Kreisfreie_Stadt"},"district":{"key":"03404","name":"Osnabrück, Stadt","type":"Kreisfreie_Stadt"},"federalState":{"key":"03","name":"Niedersachsen"}},{"name":"Ulmenstr.","postalCode":"49088","locality":"Osnabrück","municipality":{"key":"03404000","name":"Osnabrück, Stadt","type":"Kreisfreie_Stadt"},"district":{"key":"03404","name":"Osnabrück, Stadt","type":"Kreisfreie_Stadt"},"federalState":{"key":"03","name":"Niedersachsen"}},{"name":"Ulrichstr.","postalCode":"49076","locality":"Osnabrück","municipality":{"key":"03404000","name":"Osnabrück, Stadt","type":"Kreisfreie_Stadt"},"district":{"key":"03404","name":"Osnabrück, Stadt","type":"Kreisfreie_Stadt"},"federalState":{"key":"03","name":"Niedersachsen"}},{"name":"Untere Waldstr.","postalCode":"49090","locality":"Osnabrück","municipality":{"key":"03404000","name":"Osnabrück, Stadt","type":"Kreisfreie_Stadt"},"district":{"key":"03404","name":"Osnabrück, Stadt","type":"Kreisfreie_Stadt"},"federalState":{"key":"03","name":"Niedersachsen"}},{"name":"Unterm Berge","postalCode":"49082","locality":"Osnabrück","municipality":{"key":"03404000","name":"Osnabrück, Stadt","type":"Kreisfreie_Stadt"},"district":{"key":"03404","name":"Osnabrück, Stadt","type":"Kreisfreie_Stadt"},"federalState":{"key":"03","name":"Niedersachsen"}},{"name":"Ursula-Flick-Str.","postalCode":"49076","locality":"Osnabrück","municipality":{"key":"03404000","name":"Osnabrück, Stadt","type":"Kreisfreie_Stadt"},"district":{"key":"03404","name":"Osnabrück, Stadt","type":"Kreisfreie_Stadt"},"federalState":{"key":"03","name":"Niedersachsen"}},{"name":"Ursula-Karmann-Weg","postalCode":"49076","locality":"Osnabrück","municipality":{"key":"03404000","name":"Osnabrück, Stadt","type":"Kreisfreie_Stadt"},"district":{"key":"03404","name":"Osnabrück, Stadt","type":"Kreisfreie_Stadt"},"federalState":{"key":"03","name":"Niedersachsen"}},{"name":"Vaterlandsweg","postalCode":"49086","locality":"Osnabrück","municipality":{"key":"03404000","name":"Osnabrück, Stadt","type":"Kreisfreie_Stadt"},"district":{"key":"03404","name":"Osnabrück, Stadt","type":"Kreisfreie_Stadt"},"federalState":{"key":"03","name":"Niedersachsen"}},{"name":"Vechtaer Hof","postalCode":"49088","locality":"Osnabrück","municipality":{"key":"03404000","name":"Osnabrück, Stadt","type":"Kreisfreie_Stadt"},"district":{"key":"03404","name":"Osnabrück, Stadt","type":"Kreisfreie_Stadt"},"federalState":{"key":"03","name":"Niedersachsen"}},{"name":"Vehrter Landstr.","postalCode":"49088","locality":"Osnabrück","municipality":{"key":"03404000","name":"Osnabrück, Stadt","type":"Kreisfreie_Stadt"},"district":{"key":"03404","name":"Osnabrück, Stadt","type":"Kreisfreie_Stadt"},"federalState":{"key":"03","name":"Niedersachsen"}},{"name":"Vehrter Landstr.","postalCode":"49090","locality":"Osnabrück","municipality":{"key":"03404000","name":"Osnabrück, Stadt","type":"Kreisfreie_Stadt"},"district":{"key":"03404","name":"Osnabrück, Stadt","type":"Kreisfreie_Stadt"},"federalState":{"key":"03","name":"Niedersachsen"}},{"name":"Veilchenstr.","postalCode":"49088","locality":"Osnabrück","municipality":{"key":"03404000","name":"Osnabrück, Stadt","type":"Kreisfreie_Stadt"},"district":{"key":"03404","name":"Osnabrück, Stadt","type":"Kreisfreie_Stadt"},"federalState":{"key":"03","name":"Niedersachsen"}},{"name":"Venloer Str.","postalCode":"49084","locality":"Osnabrück","municipality":{"key":"03404000","name":"Osnabrück, Stadt","type":"Kreisfreie_Stadt"},"district":{"key":"03404","name":"Osnabrück, Stadt","type":"Kreisfreie_Stadt"},"federalState":{"key":"03","name":"Niedersachsen"}},{"name":"Venner Weg","postalCode":"49086","locality":"Osnabrück","municipality":{"key":"03404000","name":"Osnabrück, Stadt","type":"Kreisfreie_Stadt"},"district":{"key":"03404","name":"Osnabrück, Stadt","type":"Kreisfreie_Stadt"},"federalState":{"key":"03","name":"Niedersachsen"}},{"name":"Vinckestr.","postalCode":"49086","locality":"Osnabrück","municipality":{"key":"03404000","name":"Osnabrück, Stadt","type":"Kreisfreie_Stadt"},"district":{"key":"03404","name":"Osnabrück, Stadt","type":"Kreisfreie_Stadt"},"federalState":{"key":"03","name":"Niedersachsen"}},{"name":"Virchowstr.","postalCode":"49088","locality":"Osnabrück","municipality":{"key":"03404000","name":"Osnabrück, Stadt","type":"Kreisfreie_Stadt"},"district":{"key":"03404","name":"Osnabrück, Stadt","type":"Kreisfreie_Stadt"},"federalState":{"key":"03","name":"Niedersachsen"}},{"name":"Vitihof","postalCode":"49074","locality":"Osnabrück","municipality":{"key":"03404000","name":"Osnabrück, Stadt","type":"Kreisfreie_Stadt"},"district":{"key":"03404","name":"Osnabrück, Stadt","type":"Kreisfreie_Stadt"},"federalState":{"key":"03","name":"Niedersachsen"}},{"name":"Vogelerstr.","postalCode":"49080","locality":"Osnabrück","municipality":{"key":"03404000","name":"Osnabrück, Stadt","type":"Kreisfreie_Stadt"},"district":{"key":"03404","name":"Osnabrück, Stadt","type":"Kreisfreie_Stadt"},"federalState":{"key":"03","name":"Niedersachsen"}},{"name":"Vogelsangweg","postalCode":"49086","locality":"Osnabrück","municipality":{"key":"03404000","name":"Osnabrück, Stadt","type":"Kreisfreie_Stadt"},"district":{"key":"03404","name":"Osnabrück, Stadt","type":"Kreisfreie_Stadt"},"federalState":{"key":"03","name":"Niedersachsen"}},{"name":"Voigts-Rhetz-Str.","postalCode":"49076","locality":"Osnabrück","municipality":{"key":"03404000","name":"Osnabrück, Stadt","type":"Kreisfreie_Stadt"},"district":{"key":"03404","name":"Osnabrück, Stadt","type":"Kreisfreie_Stadt"},"federalState":{"key":"03","name":"Niedersachsen"}},{"name":"Voltstr.","postalCode":"49084","locality":"Osnabrück","municipality":{"key":"03404000","name":"Osnabrück, Stadt","type":"Kreisfreie_Stadt"},"district":{"key":"03404","name":"Osnabrück, Stadt","type":"Kreisfreie_Stadt"},"federalState":{"key":"03","name":"Niedersachsen"}},{"name":"Vom-Stein-Str.","postalCode":"49084","locality":"Osnabrück","municipality":{"key":"03404000","name":"Osnabrück, Stadt","type":"Kreisfreie_Stadt"},"district":{"key":"03404","name":"Osnabrück, Stadt","type":"Kreisfreie_Stadt"},"federalState":{"key":"03","name":"Niedersachsen"}},{"name":"Von-Bodelschwingh-Str.","postalCode":"49088","locality":"Osnabrück","municipality":{"key":"03404000","name":"Osnabrück, Stadt","type":"Kreisfreie_Stadt"},"district":{"key":"03404","name":"Osnabrück, Stadt","type":"Kreisfreie_Stadt"},"federalState":{"key":"03","name":"Niedersachsen"}},{"name":"Von-Kerssenbrock-Allee","postalCode":"49090","locality":"Osnabrück","municipality":{"key":"03404000","name":"Osnabrück, Stadt","type":"Kreisfreie_Stadt"},"district":{"key":"03404","name":"Osnabrück, Stadt","type":"Kreisfreie_Stadt"},"federalState":{"key":"03","name":"Niedersachsen"}},{"name":"Von-Scheffel-Str.","postalCode":"49084","locality":"Osnabrück","municipality":{"key":"03404000","name":"Osnabrück, Stadt","type":"Kreisfreie_Stadt"},"district":{"key":"03404","name":"Osnabrück, Stadt","type":"Kreisfreie_Stadt"},"federalState":{"key":"03","name":"Niedersachsen"}},{"name":"Vordembergestr.","postalCode":"49082","locality":"Osnabrück","municipality":{"key":"03404000","name":"Osnabrück, Stadt","type":"Kreisfreie_Stadt"},"district":{"key":"03404","name":"Osnabrück, Stadt","type":"Kreisfreie_Stadt"},"federalState":{"key":"03","name":"Niedersachsen"}},{"name":"Vor dem Wiggert","postalCode":"49078","locality":"Osnabrück","municipality":{"key":"03404000","name":"Osnabrück, Stadt","type":"Kreisfreie_Stadt"},"district":{"key":"03404","name":"Osnabrück, Stadt","type":"Kreisfreie_Stadt"},"federalState":{"key":"03","name":"Niedersachsen"}},{"name":"Vor der Goldbreede","postalCode":"49078","locality":"Osnabrück","municipality":{"key":"03404000","name":"Osnabrück, Stadt","type":"Kreisfreie_Stadt"},"district":{"key":"03404","name":"Osnabrück, Stadt","type":"Kreisfreie_Stadt"},"federalState":{"key":"03","name":"Niedersachsen"}},{"name":"Vorderhall","postalCode":"49088","locality":"Osnabrück","municipality":{"key":"03404000","name":"Osnabrück, Stadt","type":"Kreisfreie_Stadt"},"district":{"key":"03404","name":"Osnabrück, Stadt","type":"Kreisfreie_Stadt"},"federalState":{"key":"03","name":"Niedersachsen"}},{"name":"Voßkamp","postalCode":"49078","locality":"Osnabrück","municipality":{"key":"03404000","name":"Osnabrück, Stadt","type":"Kreisfreie_Stadt"},"district":{"key":"03404","name":"Osnabrück, Stadt","type":"Kreisfreie_Stadt"},"federalState":{"key":"03","name":"Niedersachsen"}},{"name":"Voßkuhlen","postalCode":"49090","locality":"Osnabrück","municipality":{"key":"03404000","name":"Osnabrück, Stadt","type":"Kreisfreie_Stadt"},"district":{"key":"03404","name":"Osnabrück, Stadt","type":"Kreisfreie_Stadt"},"federalState":{"key":"03","name":"Niedersachsen"}},{"name":"Voxtruper Str.","postalCode":"49082","locality":"Osnabrück","municipality":{"key":"03404000","name":"Osnabrück, Stadt","type":"Kreisfreie_Stadt"},"district":{"key":"03404","name":"Osnabrück, Stadt","type":"Kreisfreie_Stadt"},"federalState":{"key":"03","name":"Niedersachsen"}},{"name":"Vromelo","postalCode":"49084","locality":"Osnabrück","municipality":{"key":"03404000","name":"Osnabrück, Stadt","type":"Kreisfreie_Stadt"},"district":{"key":"03404","name":"Osnabrück, Stadt","type":"Kreisfreie_Stadt"},"federalState":{"key":"03","name":"Niedersachsen"}},{"name":"Wellinghorster Str.","postalCode":"49638","locality":"Nortrup","municipality":{"key":"03459028","name":"Nortrup","type":"Kreisangehörige_Gemeinde"},"district":{"key":"03459","name":"Osnabrück","type":"Landkreis"},"federalState":{"key":"03","name":"Niedersachsen"}},{"name":"Wellmanns Kamp","postalCode":"49638","locality":"Nortrup","municipality":{"key":"03459028","name":"Nortrup","type":"Kreisangehörige_Gemeinde"},"district":{"key":"03459","name":"Osnabrück","type":"Landkreis"},"federalState":{"key":"03","name":"Niedersachsen"}},{"name":"Wellmanns Weg","postalCode":"49638","locality":"Nortrup","municipality":{"key":"03459028","name":"Nortrup","type":"Kreisangehörige_Gemeinde"},"district":{"key":"03459","name":"Osnabrück","type":"Landkreis"},"federalState":{"key":"03","name":"Niedersachsen"}},{"name":"Wolthauser Damm","postalCode":"49638","locality":"Nortrup","municipality":{"key":"03459028","name":"Nortrup","type":"Kreisangehörige_Gemeinde"},"district":{"key":"03459","name":"Osnabrück","type":"Landkreis"},"federalState":{"key":"03","name":"Niedersachsen"}},{"name":"Yorkring","postalCode":"49090","locality":"Osnabrück","municipality":{"key":"03404000","name":"Osnabrück, Stadt","type":"Kreisfreie_Stadt"},"district":{"key":"03404","name":"Osnabrück, Stadt","type":"Kreisfreie_Stadt"},"federalState":{"key":"03","name":"Niedersachsen"}},{"name":"Zuschlag","postalCode":"49638","locality":"Nortrup","municipality":{"key":"03459028","name":"Nortrup","type":"Kreisangehörige_Gemeinde"},"district":{"key":"03459","name":"Osnabrück","type":"Landkreis"},"federalState":{"key":"03","name":"Niedersachsen"}},{"name":"Ölweg","postalCode":"49084","locality":"Osnabrück","municipality":{"key":"03404000","name":"Osnabrück, Stadt","type":"Kreisfreie_Stadt"},"district":{"key":"03404","name":"Osnabrück, Stadt","type":"Kreisfreie_Stadt"},"federalState":{"key":"03","name":"Niedersachsen"}},{"name":"Östringer Weg","postalCode":"49090","locality":"Osnabrück","municipality":{"key":"03404000","name":"Osnabrück, Stadt","type":"Kreisfreie_Stadt"},"district":{"key":"03404","name":"Osnabrück, Stadt","type":"Kreisfreie_Stadt"},"federalState":{"key":"03","name":"Niedersachsen"}},{"name":"Öwer de Hase","postalCode":"49074","locality":"Osnabrück","municipality":{"key":"03404000","name":"Osnabrück, Stadt","type":"Kreisfreie_Stadt"},"district":{"key":"03404","name":"Osnabrück, Stadt","type":"Kreisfreie_Stadt"},"federalState":{"key":"03","name":"Niedersachsen"}},{"name":"Übergang zum Freibad","postalCode":"49090","locality":"Osnabrück","municipality":{"key":"03404000","name":"Osnabrück, Stadt","type":"Kreisfreie_Stadt"},"district":{"key":"03404","name":"Osnabrück, Stadt","type":"Kreisfreie_Stadt"},"federalState":{"key":"03","name":"Niedersachsen"}},{"name":"Übergang zur Liegewiese","postalCode":"49090","locality":"Osnabrück","municipality":{"key":"03404000","name":"Osnabrück, Stadt","type":"Kreisfreie_Stadt"},"district":{"key":"03404","name":"Osnabrück, Stadt","type":"Kreisfreie_Stadt"},"federalState":{"key":"03","name":"Niedersachsen"}},]