[{"name":"Ahornstr.","postalCode":"98646","locality":"Hildburghausen","municipality":{"key":"16069024","name":"Hildburghausen, Stadt","type":"Stadt"},"district":{"key":"16069","name":"Hildburghausen","type":"Landkreis"},"federalState":{"key":"16","name":"Thüringen"}},{"name":"Ahornweg","postalCode":"98646","locality":"Hildburghausen","municipality":{"key":"16069024","name":"Hildburghausen, Stadt","type":"Stadt"},"district":{"key":"16069","name":"Hildburghausen","type":"Landkreis"},"federalState":{"key":"16","name":"Thüringen"}},{"name":"Akazienweg","postalCode":"98646","locality":"Hildburghausen","municipality":{"key":"16069024","name":"Hildburghausen, Stadt","type":"Stadt"},"district":{"key":"16069","name":"Hildburghausen","type":"Landkreis"},"federalState":{"key":"16","name":"Thüringen"}},{"name":"Am Backsteinfeld","postalCode":"98646","locality":"Hildburghausen","municipality":{"key":"16069024","name":"Hildburghausen, Stadt","type":"Stadt"},"district":{"key":"16069","name":"Hildburghausen","type":"Landkreis"},"federalState":{"key":"16","name":"Thüringen"}},{"name":"Am Braurangen","postalCode":"98646","locality":"Hildburghausen","municipality":{"key":"16069024","name":"Hildburghausen, Stadt","type":"Stadt"},"district":{"key":"16069","name":"Hildburghausen","type":"Landkreis"},"federalState":{"key":"16","name":"Thüringen"}},{"name":"Am Buchweg","postalCode":"98646","locality":"Hildburghausen","municipality":{"key":"16069024","name":"Hildburghausen, Stadt","type":"Stadt"},"district":{"key":"16069","name":"Hildburghausen","type":"Landkreis"},"federalState":{"key":"16","name":"Thüringen"}},{"name":"Am Feldrain","postalCode":"98646","locality":"Hildburghausen","municipality":{"key":"16069024","name":"Hildburghausen, Stadt","type":"Stadt"},"district":{"key":"16069","name":"Hildburghausen","type":"Landkreis"},"federalState":{"key":"16","name":"Thüringen"}},{"name":"Am Feuerteich","postalCode":"98646","locality":"Hildburghausen","municipality":{"key":"16069024","name":"Hildburghausen, Stadt","type":"Stadt"},"district":{"key":"16069","name":"Hildburghausen","type":"Landkreis"},"federalState":{"key":"16","name":"Thüringen"}},{"name":"Am Friedhof","postalCode":"98646","locality":"Hildburghausen","municipality":{"key":"16069024","name":"Hildburghausen, Stadt","type":"Stadt"},"district":{"key":"16069","name":"Hildburghausen","type":"Landkreis"},"federalState":{"key":"16","name":"Thüringen"}},{"name":"Am Gemeindeberg","postalCode":"98646","locality":"Hildburghausen","municipality":{"key":"16069024","name":"Hildburghausen, Stadt","type":"Stadt"},"district":{"key":"16069","name":"Hildburghausen","type":"Landkreis"},"federalState":{"key":"16","name":"Thüringen"}},{"name":"Am Georgeneck","postalCode":"98646","locality":"Hildburghausen","municipality":{"key":"16069024","name":"Hildburghausen, Stadt","type":"Stadt"},"district":{"key":"16069","name":"Hildburghausen","type":"Landkreis"},"federalState":{"key":"16","name":"Thüringen"}},{"name":"Am Goldbach","postalCode":"98646","locality":"Hildburghausen","municipality":{"key":"16069024","name":"Hildburghausen, Stadt","type":"Stadt"},"district":{"key":"16069","name":"Hildburghausen","type":"Landkreis"},"federalState":{"key":"16","name":"Thüringen"}},{"name":"Am Gries","postalCode":"98646","locality":"Hildburghausen","municipality":{"key":"16069024","name":"Hildburghausen, Stadt","type":"Stadt"},"district":{"key":"16069","name":"Hildburghausen","type":"Landkreis"},"federalState":{"key":"16","name":"Thüringen"}},{"name":"Am Hang","postalCode":"98646","locality":"Hildburghausen","municipality":{"key":"16069024","name":"Hildburghausen, Stadt","type":"Stadt"},"district":{"key":"16069","name":"Hildburghausen","type":"Landkreis"},"federalState":{"key":"16","name":"Thüringen"}},{"name":"Am Hechtteich","postalCode":"98646","locality":"Hildburghausen","municipality":{"key":"16069024","name":"Hildburghausen, Stadt","type":"Stadt"},"district":{"key":"16069","name":"Hildburghausen","type":"Landkreis"},"federalState":{"key":"16","name":"Thüringen"}},{"name":"Am Hofweg","postalCode":"98646","locality":"Hildburghausen","municipality":{"key":"16069024","name":"Hildburghausen, Stadt","type":"Stadt"},"district":{"key":"16069","name":"Hildburghausen","type":"Landkreis"},"federalState":{"key":"16","name":"Thüringen"}},{"name":"Am Hohen Gericht","postalCode":"98646","locality":"Hildburghausen","municipality":{"key":"16069024","name":"Hildburghausen, Stadt","type":"Stadt"},"district":{"key":"16069","name":"Hildburghausen","type":"Landkreis"},"federalState":{"key":"16","name":"Thüringen"}},{"name":"Am Judelsrain","postalCode":"98646","locality":"Hildburghausen","municipality":{"key":"16069024","name":"Hildburghausen, Stadt","type":"Stadt"},"district":{"key":"16069","name":"Hildburghausen","type":"Landkreis"},"federalState":{"key":"16","name":"Thüringen"}},{"name":"Am Kleinodsfeld","postalCode":"98646","locality":"Hildburghausen","municipality":{"key":"16069024","name":"Hildburghausen, Stadt","type":"Stadt"},"district":{"key":"16069","name":"Hildburghausen","type":"Landkreis"},"federalState":{"key":"16","name":"Thüringen"}},{"name":"Am Krautberg","postalCode":"98646","locality":"Hildburghausen","municipality":{"key":"16069024","name":"Hildburghausen, Stadt","type":"Stadt"},"district":{"key":"16069","name":"Hildburghausen","type":"Landkreis"},"federalState":{"key":"16","name":"Thüringen"}},{"name":"Am Kreuz","postalCode":"98646","locality":"Hildburghausen","municipality":{"key":"16069024","name":"Hildburghausen, Stadt","type":"Stadt"},"district":{"key":"16069","name":"Hildburghausen","type":"Landkreis"},"federalState":{"key":"16","name":"Thüringen"}},{"name":"Am Kümmelhag","postalCode":"98646","locality":"Hildburghausen","municipality":{"key":"16069024","name":"Hildburghausen, Stadt","type":"Stadt"},"district":{"key":"16069","name":"Hildburghausen","type":"Landkreis"},"federalState":{"key":"16","name":"Thüringen"}},{"name":"Am Poststück","postalCode":"98646","locality":"Hildburghausen","municipality":{"key":"16069024","name":"Hildburghausen, Stadt","type":"Stadt"},"district":{"key":"16069","name":"Hildburghausen","type":"Landkreis"},"federalState":{"key":"16","name":"Thüringen"}},{"name":"Am Römersbach","postalCode":"98646","locality":"Hildburghausen","municipality":{"key":"16069024","name":"Hildburghausen, Stadt","type":"Stadt"},"district":{"key":"16069","name":"Hildburghausen","type":"Landkreis"},"federalState":{"key":"16","name":"Thüringen"}},{"name":"Am Ruhgarten","postalCode":"98646","locality":"Hildburghausen","municipality":{"key":"16069024","name":"Hildburghausen, Stadt","type":"Stadt"},"district":{"key":"16069","name":"Hildburghausen","type":"Landkreis"},"federalState":{"key":"16","name":"Thüringen"}},{"name":"Am Sandberg","postalCode":"98646","locality":"Hildburghausen","municipality":{"key":"16069024","name":"Hildburghausen, Stadt","type":"Stadt"},"district":{"key":"16069","name":"Hildburghausen","type":"Landkreis"},"federalState":{"key":"16","name":"Thüringen"}},{"name":"Am Schloßberg","postalCode":"98646","locality":"Hildburghausen","municipality":{"key":"16069024","name":"Hildburghausen, Stadt","type":"Stadt"},"district":{"key":"16069","name":"Hildburghausen","type":"Landkreis"},"federalState":{"key":"16","name":"Thüringen"}},{"name":"Am Schwanenteich","postalCode":"98646","locality":"Hildburghausen","municipality":{"key":"16069024","name":"Hildburghausen, Stadt","type":"Stadt"},"district":{"key":"16069","name":"Hildburghausen","type":"Landkreis"},"federalState":{"key":"16","name":"Thüringen"}},{"name":"Amselweg","postalCode":"98646","locality":"Hildburghausen","municipality":{"key":"16069024","name":"Hildburghausen, Stadt","type":"Stadt"},"district":{"key":"16069","name":"Hildburghausen","type":"Landkreis"},"federalState":{"key":"16","name":"Thüringen"}},{"name":"Am Spittelbach","postalCode":"98646","locality":"Hildburghausen","municipality":{"key":"16069024","name":"Hildburghausen, Stadt","type":"Stadt"},"district":{"key":"16069","name":"Hildburghausen","type":"Landkreis"},"federalState":{"key":"16","name":"Thüringen"}},{"name":"Am Stadtberg","postalCode":"98646","locality":"Hildburghausen","municipality":{"key":"16069024","name":"Hildburghausen, Stadt","type":"Stadt"},"district":{"key":"16069","name":"Hildburghausen","type":"Landkreis"},"federalState":{"key":"16","name":"Thüringen"}},{"name":"Am Stadtrand","postalCode":"98646","locality":"Hildburghausen","municipality":{"key":"16069024","name":"Hildburghausen, Stadt","type":"Stadt"},"district":{"key":"16069","name":"Hildburghausen","type":"Landkreis"},"federalState":{"key":"16","name":"Thüringen"}},{"name":"Am Stirnberg","postalCode":"98646","locality":"Hildburghausen","municipality":{"key":"16069024","name":"Hildburghausen, Stadt","type":"Stadt"},"district":{"key":"16069","name":"Hildburghausen","type":"Landkreis"},"federalState":{"key":"16","name":"Thüringen"}},{"name":"Am Torbogen","postalCode":"98646","locality":"Hildburghausen","municipality":{"key":"16069024","name":"Hildburghausen, Stadt","type":"Stadt"},"district":{"key":"16069","name":"Hildburghausen","type":"Landkreis"},"federalState":{"key":"16","name":"Thüringen"}},{"name":"An den Bläuwiesen","postalCode":"98646","locality":"Hildburghausen","municipality":{"key":"16069024","name":"Hildburghausen, Stadt","type":"Stadt"},"district":{"key":"16069","name":"Hildburghausen","type":"Landkreis"},"federalState":{"key":"16","name":"Thüringen"}},{"name":"An der Alten Gärtnerei","postalCode":"98646","locality":"Hildburghausen","municipality":{"key":"16069024","name":"Hildburghausen, Stadt","type":"Stadt"},"district":{"key":"16069","name":"Hildburghausen","type":"Landkreis"},"federalState":{"key":"16","name":"Thüringen"}},{"name":"An der Galgenspitze","postalCode":"98646","locality":"Hildburghausen","municipality":{"key":"16069024","name":"Hildburghausen, Stadt","type":"Stadt"},"district":{"key":"16069","name":"Hildburghausen","type":"Landkreis"},"federalState":{"key":"16","name":"Thüringen"}},{"name":"An der Tongrube","postalCode":"98646","locality":"Hildburghausen","municipality":{"key":"16069024","name":"Hildburghausen, Stadt","type":"Stadt"},"district":{"key":"16069","name":"Hildburghausen","type":"Landkreis"},"federalState":{"key":"16","name":"Thüringen"}},{"name":"Armin-Human-Str.","postalCode":"98646","locality":"Hildburghausen","municipality":{"key":"16069024","name":"Hildburghausen, Stadt","type":"Stadt"},"district":{"key":"16069","name":"Hildburghausen","type":"Landkreis"},"federalState":{"key":"16","name":"Thüringen"}},{"name":"Asternweg","postalCode":"98646","locality":"Hildburghausen","municipality":{"key":"16069024","name":"Hildburghausen, Stadt","type":"Stadt"},"district":{"key":"16069","name":"Hildburghausen","type":"Landkreis"},"federalState":{"key":"16","name":"Thüringen"}},{"name":"August Bebel Str.","postalCode":"98646","locality":"Hildburghausen","municipality":{"key":"16069024","name":"Hildburghausen, Stadt","type":"Stadt"},"district":{"key":"16069","name":"Hildburghausen","type":"Landkreis"},"federalState":{"key":"16","name":"Thüringen"}},{"name":"August-Bebel-Str.","postalCode":"98646","locality":"Hildburghausen","municipality":{"key":"16069024","name":"Hildburghausen, Stadt","type":"Stadt"},"district":{"key":"16069","name":"Hildburghausen","type":"Landkreis"},"federalState":{"key":"16","name":"Thüringen"}},{"name":"Bahnhofstr.","postalCode":"98646","locality":"Reurieth","municipality":{"key":"16069037","name":"Reurieth","type":"Kreisangehörige_Gemeinde"},"district":{"key":"16069","name":"Hildburghausen","type":"Landkreis"},"federalState":{"key":"16","name":"Thüringen"}},{"name":"Clara-Zetkin-Str.","postalCode":"98646","locality":"Hildburghausen","municipality":{"key":"16069024","name":"Hildburghausen, Stadt","type":"Stadt"},"district":{"key":"16069","name":"Hildburghausen","type":"Landkreis"},"federalState":{"key":"16","name":"Thüringen"}},{"name":"Coburger Str.","postalCode":"98646","locality":"Hildburghausen","municipality":{"key":"16069024","name":"Hildburghausen, Stadt","type":"Stadt"},"district":{"key":"16069","name":"Hildburghausen","type":"Landkreis"},"federalState":{"key":"16","name":"Thüringen"}},{"name":"Dachsweg","postalCode":"98646","locality":"Hildburghausen","municipality":{"key":"16069024","name":"Hildburghausen, Stadt","type":"Stadt"},"district":{"key":"16069","name":"Hildburghausen","type":"Landkreis"},"federalState":{"key":"16","name":"Thüringen"}},{"name":"Dammstr.","postalCode":"98646","locality":"Hildburghausen","municipality":{"key":"16069024","name":"Hildburghausen, Stadt","type":"Stadt"},"district":{"key":"16069","name":"Hildburghausen","type":"Landkreis"},"federalState":{"key":"16","name":"Thüringen"}},{"name":"Dorfplatz","postalCode":"98646","locality":"Hildburghausen","municipality":{"key":"16069024","name":"Hildburghausen, Stadt","type":"Stadt"},"district":{"key":"16069","name":"Hildburghausen","type":"Landkreis"},"federalState":{"key":"16","name":"Thüringen"}},{"name":"Dorfstr.","postalCode":"98646","locality":"Hildburghausen","municipality":{"key":"16069024","name":"Hildburghausen, Stadt","type":"Stadt"},"district":{"key":"16069","name":"Hildburghausen","type":"Landkreis"},"federalState":{"key":"16","name":"Thüringen"}},{"name":"Dr.-Moritz-Mitzenheim-Str.","postalCode":"98646","locality":"Hildburghausen","municipality":{"key":"16069024","name":"Hildburghausen, Stadt","type":"Stadt"},"district":{"key":"16069","name":"Hildburghausen","type":"Landkreis"},"federalState":{"key":"16","name":"Thüringen"}},{"name":"Drosselweg","postalCode":"98646","locality":"Hildburghausen","municipality":{"key":"16069024","name":"Hildburghausen, Stadt","type":"Stadt"},"district":{"key":"16069","name":"Hildburghausen","type":"Landkreis"},"federalState":{"key":"16","name":"Thüringen"}},{"name":"Dr.-Theodor-Neubauer-Str.","postalCode":"98646","locality":"Hildburghausen","municipality":{"key":"16069024","name":"Hildburghausen, Stadt","type":"Stadt"},"district":{"key":"16069","name":"Hildburghausen","type":"Landkreis"},"federalState":{"key":"16","name":"Thüringen"}},{"name":"Dr.-Wilhelm-Külz-Str.","postalCode":"98646","locality":"Hildburghausen","municipality":{"key":"16069024","name":"Hildburghausen, Stadt","type":"Stadt"},"district":{"key":"16069","name":"Hildburghausen","type":"Landkreis"},"federalState":{"key":"16","name":"Thüringen"}},{"name":"Eckstr.","postalCode":"98646","locality":"Reurieth","municipality":{"key":"16069037","name":"Reurieth","type":"Kreisangehörige_Gemeinde"},"district":{"key":"16069","name":"Hildburghausen","type":"Landkreis"},"federalState":{"key":"16","name":"Thüringen"}},{"name":"Froschgasse","postalCode":"98646","locality":"Reurieth","municipality":{"key":"16069037","name":"Reurieth","type":"Kreisangehörige_Gemeinde"},"district":{"key":"16069","name":"Hildburghausen","type":"Landkreis"},"federalState":{"key":"16","name":"Thüringen"}},{"name":"Gartenstr.","postalCode":"98646","locality":"Hildburghausen","municipality":{"key":"16069024","name":"Hildburghausen, Stadt","type":"Stadt"},"district":{"key":"16069","name":"Hildburghausen","type":"Landkreis"},"federalState":{"key":"16","name":"Thüringen"}},{"name":"Gerbergasse","postalCode":"98646","locality":"Hildburghausen","municipality":{"key":"16069024","name":"Hildburghausen, Stadt","type":"Stadt"},"district":{"key":"16069","name":"Hildburghausen","type":"Landkreis"},"federalState":{"key":"16","name":"Thüringen"}},{"name":"Geschwister-Scholl-Str.","postalCode":"98646","locality":"Hildburghausen","municipality":{"key":"16069024","name":"Hildburghausen, Stadt","type":"Stadt"},"district":{"key":"16069","name":"Hildburghausen","type":"Landkreis"},"federalState":{"key":"16","name":"Thüringen"}},{"name":"Goldbachstr.","postalCode":"98646","locality":"Hildburghausen","municipality":{"key":"16069024","name":"Hildburghausen, Stadt","type":"Stadt"},"district":{"key":"16069","name":"Hildburghausen","type":"Landkreis"},"federalState":{"key":"16","name":"Thüringen"}},{"name":"Goldbergweg","postalCode":"98646","locality":"Hildburghausen","municipality":{"key":"16069024","name":"Hildburghausen, Stadt","type":"Stadt"},"district":{"key":"16069","name":"Hildburghausen","type":"Landkreis"},"federalState":{"key":"16","name":"Thüringen"}},{"name":"Hohle Gasse","postalCode":"98646","locality":"Reurieth","municipality":{"key":"16069037","name":"Reurieth","type":"Kreisangehörige_Gemeinde"},"district":{"key":"16069","name":"Hildburghausen","type":"Landkreis"},"federalState":{"key":"16","name":"Thüringen"}},{"name":"Igelweg","postalCode":"98646","locality":"Hildburghausen","municipality":{"key":"16069024","name":"Hildburghausen, Stadt","type":"Stadt"},"district":{"key":"16069","name":"Hildburghausen","type":"Landkreis"},"federalState":{"key":"16","name":"Thüringen"}},{"name":"Iltisweg","postalCode":"98646","locality":"Hildburghausen","municipality":{"key":"16069024","name":"Hildburghausen, Stadt","type":"Stadt"},"district":{"key":"16069","name":"Hildburghausen","type":"Landkreis"},"federalState":{"key":"16","name":"Thüringen"}},{"name":"Immanuel-Kant-Platz","postalCode":"98646","locality":"Hildburghausen","municipality":{"key":"16069024","name":"Hildburghausen, Stadt","type":"Stadt"},"district":{"key":"16069","name":"Hildburghausen","type":"Landkreis"},"federalState":{"key":"16","name":"Thüringen"}},{"name":"Johann-Sebastian-Bach-Platz","postalCode":"98646","locality":"Hildburghausen","municipality":{"key":"16069024","name":"Hildburghausen, Stadt","type":"Stadt"},"district":{"key":"16069","name":"Hildburghausen","type":"Landkreis"},"federalState":{"key":"16","name":"Thüringen"}},{"name":"Johann-Sebastian-Bach-Str.","postalCode":"98646","locality":"Hildburghausen","municipality":{"key":"16069024","name":"Hildburghausen, Stadt","type":"Stadt"},"district":{"key":"16069","name":"Hildburghausen","type":"Landkreis"},"federalState":{"key":"16","name":"Thüringen"}},{"name":"Joseph-Meyer-Str.","postalCode":"98646","locality":"Hildburghausen","municipality":{"key":"16069024","name":"Hildburghausen, Stadt","type":"Stadt"},"district":{"key":"16069","name":"Hildburghausen","type":"Landkreis"},"federalState":{"key":"16","name":"Thüringen"}},{"name":"Kirchgasse","postalCode":"98646","locality":"Reurieth","municipality":{"key":"16069037","name":"Reurieth","type":"Kreisangehörige_Gemeinde"},"district":{"key":"16069","name":"Hildburghausen","type":"Landkreis"},"federalState":{"key":"16","name":"Thüringen"}},{"name":"Langer Steg","postalCode":"98646","locality":"Hildburghausen","municipality":{"key":"16069024","name":"Hildburghausen, Stadt","type":"Stadt"},"district":{"key":"16069","name":"Hildburghausen","type":"Landkreis"},"federalState":{"key":"16","name":"Thüringen"}},{"name":"Lärchenweg","postalCode":"98646","locality":"Hildburghausen","municipality":{"key":"16069024","name":"Hildburghausen, Stadt","type":"Stadt"},"district":{"key":"16069","name":"Hildburghausen","type":"Landkreis"},"federalState":{"key":"16","name":"Thüringen"}},{"name":"Leimriether Dorfstr.","postalCode":"98646","locality":"Hildburghausen","municipality":{"key":"16069024","name":"Hildburghausen, Stadt","type":"Stadt"},"district":{"key":"16069","name":"Hildburghausen","type":"Landkreis"},"federalState":{"key":"16","name":"Thüringen"}},{"name":"Leimriether Hauptstr.","postalCode":"98646","locality":"Hildburghausen","municipality":{"key":"16069024","name":"Hildburghausen, Stadt","type":"Stadt"},"district":{"key":"16069","name":"Hildburghausen","type":"Landkreis"},"federalState":{"key":"16","name":"Thüringen"}},{"name":"Ligustergasse","postalCode":"98646","locality":"Hildburghausen","municipality":{"key":"16069024","name":"Hildburghausen, Stadt","type":"Stadt"},"district":{"key":"16069","name":"Hildburghausen","type":"Landkreis"},"federalState":{"key":"16","name":"Thüringen"}},{"name":"Ludwig-Jahn-Str.","postalCode":"98646","locality":"Hildburghausen","municipality":{"key":"16069024","name":"Hildburghausen, Stadt","type":"Stadt"},"district":{"key":"16069","name":"Hildburghausen","type":"Landkreis"},"federalState":{"key":"16","name":"Thüringen"}},{"name":"Marderwiesen","postalCode":"98646","locality":"Hildburghausen","municipality":{"key":"16069024","name":"Hildburghausen, Stadt","type":"Stadt"},"district":{"key":"16069","name":"Hildburghausen","type":"Landkreis"},"federalState":{"key":"16","name":"Thüringen"}},{"name":"Marienstr.","postalCode":"98646","locality":"Hildburghausen","municipality":{"key":"16069024","name":"Hildburghausen, Stadt","type":"Stadt"},"district":{"key":"16069","name":"Hildburghausen","type":"Landkreis"},"federalState":{"key":"16","name":"Thüringen"}},{"name":"Martin-Luther-Str.","postalCode":"98646","locality":"Hildburghausen","municipality":{"key":"16069024","name":"Hildburghausen, Stadt","type":"Stadt"},"district":{"key":"16069","name":"Hildburghausen","type":"Landkreis"},"federalState":{"key":"16","name":"Thüringen"}},{"name":"Massenhäuser Str.","postalCode":"98646","locality":"Hildburghausen","municipality":{"key":"16069024","name":"Hildburghausen, Stadt","type":"Stadt"},"district":{"key":"16069","name":"Hildburghausen","type":"Landkreis"},"federalState":{"key":"16","name":"Thüringen"}},{"name":"Max-Michaelis-Str.","postalCode":"98646","locality":"Hildburghausen","municipality":{"key":"16069024","name":"Hildburghausen, Stadt","type":"Stadt"},"district":{"key":"16069","name":"Hildburghausen","type":"Landkreis"},"federalState":{"key":"16","name":"Thüringen"}},{"name":"Mohnhäcksweg","postalCode":"98646","locality":"Hildburghausen","municipality":{"key":"16069024","name":"Hildburghausen, Stadt","type":"Stadt"},"district":{"key":"16069","name":"Hildburghausen","type":"Landkreis"},"federalState":{"key":"16","name":"Thüringen"}},{"name":"Mühlrangen","postalCode":"98646","locality":"Hildburghausen","municipality":{"key":"16069024","name":"Hildburghausen, Stadt","type":"Stadt"},"district":{"key":"16069","name":"Hildburghausen","type":"Landkreis"},"federalState":{"key":"16","name":"Thüringen"}},{"name":"Neufeldlein","postalCode":"98646","locality":"Reurieth","municipality":{"key":"16069037","name":"Reurieth","type":"Kreisangehörige_Gemeinde"},"district":{"key":"16069","name":"Hildburghausen","type":"Landkreis"},"federalState":{"key":"16","name":"Thüringen"}},{"name":"Obere Allee","postalCode":"98646","locality":"Hildburghausen","municipality":{"key":"16069024","name":"Hildburghausen, Stadt","type":"Stadt"},"district":{"key":"16069","name":"Hildburghausen","type":"Landkreis"},"federalState":{"key":"16","name":"Thüringen"}},{"name":"Obere Braugasse","postalCode":"98646","locality":"Hildburghausen","municipality":{"key":"16069024","name":"Hildburghausen, Stadt","type":"Stadt"},"district":{"key":"16069","name":"Hildburghausen","type":"Landkreis"},"federalState":{"key":"16","name":"Thüringen"}},{"name":"Obere Dorfstr.","postalCode":"98646","locality":"Hildburghausen","municipality":{"key":"16069024","name":"Hildburghausen, Stadt","type":"Stadt"},"district":{"key":"16069","name":"Hildburghausen","type":"Landkreis"},"federalState":{"key":"16","name":"Thüringen"}},{"name":"Obere Gasse","postalCode":"98646","locality":"Hildburghausen","municipality":{"key":"16069024","name":"Hildburghausen, Stadt","type":"Stadt"},"district":{"key":"16069","name":"Hildburghausen","type":"Landkreis"},"federalState":{"key":"16","name":"Thüringen"}},{"name":"Obere Marktstr.","postalCode":"98646","locality":"Hildburghausen","municipality":{"key":"16069024","name":"Hildburghausen, Stadt","type":"Stadt"},"district":{"key":"16069","name":"Hildburghausen","type":"Landkreis"},"federalState":{"key":"16","name":"Thüringen"}},{"name":"Oberer Weinberg","postalCode":"98646","locality":"Hildburghausen","municipality":{"key":"16069024","name":"Hildburghausen, Stadt","type":"Stadt"},"district":{"key":"16069","name":"Hildburghausen","type":"Landkreis"},"federalState":{"key":"16","name":"Thüringen"}},{"name":"Oberes Kleinodsfeld","postalCode":"98646","locality":"Hildburghausen","municipality":{"key":"16069024","name":"Hildburghausen, Stadt","type":"Stadt"},"district":{"key":"16069","name":"Hildburghausen","type":"Landkreis"},"federalState":{"key":"16","name":"Thüringen"}},{"name":"Papendicksgäßchen","postalCode":"98646","locality":"Hildburghausen","municipality":{"key":"16069024","name":"Hildburghausen, Stadt","type":"Stadt"},"district":{"key":"16069","name":"Hildburghausen","type":"Landkreis"},"federalState":{"key":"16","name":"Thüringen"}},{"name":"Parkgelände der Helios Fachklinik","postalCode":"98646","locality":"Hildburghausen","municipality":{"key":"16069024","name":"Hildburghausen, Stadt","type":"Stadt"},"district":{"key":"16069","name":"Hildburghausen","type":"Landkreis"},"federalState":{"key":"16","name":"Thüringen"}},{"name":"Pehlrimover Str.","postalCode":"98646","locality":"Hildburghausen","municipality":{"key":"16069024","name":"Hildburghausen, Stadt","type":"Stadt"},"district":{"key":"16069","name":"Hildburghausen","type":"Landkreis"},"federalState":{"key":"16","name":"Thüringen"}},{"name":"Pfersdorfer Anspann","postalCode":"98646","locality":"Hildburghausen","municipality":{"key":"16069024","name":"Hildburghausen, Stadt","type":"Stadt"},"district":{"key":"16069","name":"Hildburghausen","type":"Landkreis"},"federalState":{"key":"16","name":"Thüringen"}},{"name":"Pfersdorfer Gries","postalCode":"98646","locality":"Hildburghausen","municipality":{"key":"16069024","name":"Hildburghausen, Stadt","type":"Stadt"},"district":{"key":"16069","name":"Hildburghausen","type":"Landkreis"},"federalState":{"key":"16","name":"Thüringen"}},{"name":"Pfersdorfer Hauptstr.","postalCode":"98646","locality":"Hildburghausen","municipality":{"key":"16069024","name":"Hildburghausen, Stadt","type":"Stadt"},"district":{"key":"16069","name":"Hildburghausen","type":"Landkreis"},"federalState":{"key":"16","name":"Thüringen"}},{"name":"Pfersdorfer Str.","postalCode":"98646","locality":"Hildburghausen","municipality":{"key":"16069024","name":"Hildburghausen, Stadt","type":"Stadt"},"district":{"key":"16069","name":"Hildburghausen","type":"Landkreis"},"federalState":{"key":"16","name":"Thüringen"}},{"name":"Pfersdorfer Untere Dorfstr.","postalCode":"98646","locality":"Hildburghausen","municipality":{"key":"16069024","name":"Hildburghausen, Stadt","type":"Stadt"},"district":{"key":"16069","name":"Hildburghausen","type":"Landkreis"},"federalState":{"key":"16","name":"Thüringen"}},{"name":"Pulvermühlenweg","postalCode":"98646","locality":"Hildburghausen","municipality":{"key":"16069024","name":"Hildburghausen, Stadt","type":"Stadt"},"district":{"key":"16069","name":"Hildburghausen","type":"Landkreis"},"federalState":{"key":"16","name":"Thüringen"}},{"name":"Puschkinplatz","postalCode":"98646","locality":"Hildburghausen","municipality":{"key":"16069024","name":"Hildburghausen, Stadt","type":"Stadt"},"district":{"key":"16069","name":"Hildburghausen","type":"Landkreis"},"federalState":{"key":"16","name":"Thüringen"}},{"name":"Reuriether Dorfstr.","postalCode":"98646","locality":"Reurieth","municipality":{"key":"16069037","name":"Reurieth","type":"Kreisangehörige_Gemeinde"},"district":{"key":"16069","name":"Hildburghausen","type":"Landkreis"},"federalState":{"key":"16","name":"Thüringen"}},{"name":"Schneidergasse","postalCode":"98646","locality":"Reurieth","municipality":{"key":"16069037","name":"Reurieth","type":"Kreisangehörige_Gemeinde"},"district":{"key":"16069","name":"Hildburghausen","type":"Landkreis"},"federalState":{"key":"16","name":"Thüringen"}},{"name":"Siegritzer Dorfstr.","postalCode":"98646","locality":"Reurieth","municipality":{"key":"16069037","name":"Reurieth","type":"Kreisangehörige_Gemeinde"},"district":{"key":"16069","name":"Hildburghausen","type":"Landkreis"},"federalState":{"key":"16","name":"Thüringen"}},{"name":"Trostädter Dorfstr.","postalCode":"98646","locality":"Reurieth","municipality":{"key":"16069037","name":"Reurieth","type":"Kreisangehörige_Gemeinde"},"district":{"key":"16069","name":"Hildburghausen","type":"Landkreis"},"federalState":{"key":"16","name":"Thüringen"}},{"name":"Ulmenweg","postalCode":"98646","locality":"Hildburghausen","municipality":{"key":"16069024","name":"Hildburghausen, Stadt","type":"Stadt"},"district":{"key":"16069","name":"Hildburghausen","type":"Landkreis"},"federalState":{"key":"16","name":"Thüringen"}},{"name":"Unter den Weinbergen","postalCode":"98646","locality":"Hildburghausen","municipality":{"key":"16069024","name":"Hildburghausen, Stadt","type":"Stadt"},"district":{"key":"16069","name":"Hildburghausen","type":"Landkreis"},"federalState":{"key":"16","name":"Thüringen"}},{"name":"Untere Allee","postalCode":"98646","locality":"Hildburghausen","municipality":{"key":"16069024","name":"Hildburghausen, Stadt","type":"Stadt"},"district":{"key":"16069","name":"Hildburghausen","type":"Landkreis"},"federalState":{"key":"16","name":"Thüringen"}},{"name":"Untere Braugasse","postalCode":"98646","locality":"Hildburghausen","municipality":{"key":"16069024","name":"Hildburghausen, Stadt","type":"Stadt"},"district":{"key":"16069","name":"Hildburghausen","type":"Landkreis"},"federalState":{"key":"16","name":"Thüringen"}},{"name":"Untere Dorfstr.","postalCode":"98646","locality":"Hildburghausen","municipality":{"key":"16069024","name":"Hildburghausen, Stadt","type":"Stadt"},"district":{"key":"16069","name":"Hildburghausen","type":"Landkreis"},"federalState":{"key":"16","name":"Thüringen"}},{"name":"Untere Marktstr.","postalCode":"98646","locality":"Hildburghausen","municipality":{"key":"16069024","name":"Hildburghausen, Stadt","type":"Stadt"},"district":{"key":"16069","name":"Hildburghausen","type":"Landkreis"},"federalState":{"key":"16","name":"Thüringen"}},{"name":"Unterer Gemeindeberg","postalCode":"98646","locality":"Hildburghausen","municipality":{"key":"16069024","name":"Hildburghausen, Stadt","type":"Stadt"},"district":{"key":"16069","name":"Hildburghausen","type":"Landkreis"},"federalState":{"key":"16","name":"Thüringen"}},{"name":"Unterer Gries","postalCode":"98646","locality":"Hildburghausen","municipality":{"key":"16069024","name":"Hildburghausen, Stadt","type":"Stadt"},"district":{"key":"16069","name":"Hildburghausen","type":"Landkreis"},"federalState":{"key":"16","name":"Thüringen"}},{"name":"Unterer Weinberg","postalCode":"98646","locality":"Hildburghausen","municipality":{"key":"16069024","name":"Hildburghausen, Stadt","type":"Stadt"},"district":{"key":"16069","name":"Hildburghausen","type":"Landkreis"},"federalState":{"key":"16","name":"Thüringen"}},{"name":"Unteres Kleinodsfeld","postalCode":"98646","locality":"Hildburghausen","municipality":{"key":"16069024","name":"Hildburghausen, Stadt","type":"Stadt"},"district":{"key":"16069","name":"Hildburghausen","type":"Landkreis"},"federalState":{"key":"16","name":"Thüringen"}},{"name":"Vorderer Steig","postalCode":"98646","locality":"Hildburghausen","municipality":{"key":"16069024","name":"Hildburghausen, Stadt","type":"Stadt"},"district":{"key":"16069","name":"Hildburghausen","type":"Landkreis"},"federalState":{"key":"16","name":"Thüringen"}},{"name":"Werra-Burgen-Steig","postalCode":"98646","locality":"Reurieth","municipality":{"key":"16069037","name":"Reurieth","type":"Kreisangehörige_Gemeinde"},"district":{"key":"16069","name":"Hildburghausen","type":"Landkreis"},"federalState":{"key":"16","name":"Thüringen"}},{"name":"Zeilfelder Str.","postalCode":"98646","locality":"Reurieth","municipality":{"key":"16069037","name":"Reurieth","type":"Kreisangehörige_Gemeinde"},"district":{"key":"16069","name":"Hildburghausen","type":"Landkreis"},"federalState":{"key":"16","name":"Thüringen"}},]