[{"name":"1. Siedlungsweg","postalCode":"17335","locality":"Strasburg (Uckermark)","municipality":{"key":"13075130","name":"Strasburg (Uckermark), Stadt","type":"Stadt"},"district":{"key":"13075","name":"Vorpommern-Greifswald","type":"Landkreis"},"federalState":{"key":"13","name":"Mecklenburg-Vorpommern"}},{"name":"2. Siedlungsweg","postalCode":"17335","locality":"Strasburg (Uckermark)","municipality":{"key":"13075130","name":"Strasburg (Uckermark), Stadt","type":"Stadt"},"district":{"key":"13075","name":"Vorpommern-Greifswald","type":"Landkreis"},"federalState":{"key":"13","name":"Mecklenburg-Vorpommern"}},{"name":"3. Siedlungsweg","postalCode":"17335","locality":"Strasburg (Uckermark)","municipality":{"key":"13075130","name":"Strasburg (Uckermark), Stadt","type":"Stadt"},"district":{"key":"13075","name":"Vorpommern-Greifswald","type":"Landkreis"},"federalState":{"key":"13","name":"Mecklenburg-Vorpommern"}},{"name":"Abzweigung","postalCode":"15749","locality":"Mittenwalde","municipality":{"key":"12061332","name":"Mittenwalde, Stadt","type":"Stadt"},"district":{"key":"12061","name":"Dahme-Spreewald","type":"Landkreis"},"federalState":{"key":"12","name":"Brandenburg"}},{"name":"Ackerrain","postalCode":"15749","locality":"Mittenwalde","municipality":{"key":"12061332","name":"Mittenwalde, Stadt","type":"Stadt"},"district":{"key":"12061","name":"Dahme-Spreewald","type":"Landkreis"},"federalState":{"key":"12","name":"Brandenburg"}},{"name":"Ahornhof","postalCode":"15749","locality":"Mittenwalde","municipality":{"key":"12061332","name":"Mittenwalde, Stadt","type":"Stadt"},"district":{"key":"12061","name":"Dahme-Spreewald","type":"Landkreis"},"federalState":{"key":"12","name":"Brandenburg"}},{"name":"Ahornring","postalCode":"15749","locality":"Mittenwalde","municipality":{"key":"12061332","name":"Mittenwalde, Stadt","type":"Stadt"},"district":{"key":"12061","name":"Dahme-Spreewald","type":"Landkreis"},"federalState":{"key":"12","name":"Brandenburg"}},{"name":"Ahornweg","postalCode":"15749","locality":"Mittenwalde","municipality":{"key":"12061332","name":"Mittenwalde, Stadt","type":"Stadt"},"district":{"key":"12061","name":"Dahme-Spreewald","type":"Landkreis"},"federalState":{"key":"12","name":"Brandenburg"}},{"name":"Akazienallee","postalCode":"15749","locality":"Mittenwalde","municipality":{"key":"12061332","name":"Mittenwalde, Stadt","type":"Stadt"},"district":{"key":"12061","name":"Dahme-Spreewald","type":"Landkreis"},"federalState":{"key":"12","name":"Brandenburg"}},{"name":"Akazienweg","postalCode":"15749","locality":"Mittenwalde","municipality":{"key":"12061332","name":"Mittenwalde, Stadt","type":"Stadt"},"district":{"key":"12061","name":"Dahme-Spreewald","type":"Landkreis"},"federalState":{"key":"12","name":"Brandenburg"}},{"name":"Alte Mittenwalder Str.","postalCode":"15749","locality":"Mittenwalde","municipality":{"key":"12061332","name":"Mittenwalde, Stadt","type":"Stadt"},"district":{"key":"12061","name":"Dahme-Spreewald","type":"Landkreis"},"federalState":{"key":"12","name":"Brandenburg"}},{"name":"Am Bruch","postalCode":"15749","locality":"Mittenwalde","municipality":{"key":"12061332","name":"Mittenwalde, Stadt","type":"Stadt"},"district":{"key":"12061","name":"Dahme-Spreewald","type":"Landkreis"},"federalState":{"key":"12","name":"Brandenburg"}},{"name":"Am Busch","postalCode":"15749","locality":"Mittenwalde","municipality":{"key":"12061332","name":"Mittenwalde, Stadt","type":"Stadt"},"district":{"key":"12061","name":"Dahme-Spreewald","type":"Landkreis"},"federalState":{"key":"12","name":"Brandenburg"}},{"name":"Am Feldrain","postalCode":"15749","locality":"Mittenwalde","municipality":{"key":"12061332","name":"Mittenwalde, Stadt","type":"Stadt"},"district":{"key":"12061","name":"Dahme-Spreewald","type":"Landkreis"},"federalState":{"key":"12","name":"Brandenburg"}},{"name":"Am Fließ","postalCode":"15749","locality":"Mittenwalde","municipality":{"key":"12061332","name":"Mittenwalde, Stadt","type":"Stadt"},"district":{"key":"12061","name":"Dahme-Spreewald","type":"Landkreis"},"federalState":{"key":"12","name":"Brandenburg"}},{"name":"Am Frauenbuschacker","postalCode":"15749","locality":"Mittenwalde","municipality":{"key":"12061332","name":"Mittenwalde, Stadt","type":"Stadt"},"district":{"key":"12061","name":"Dahme-Spreewald","type":"Landkreis"},"federalState":{"key":"12","name":"Brandenburg"}},{"name":"Am Graben","postalCode":"15749","locality":"Mittenwalde","municipality":{"key":"12061332","name":"Mittenwalde, Stadt","type":"Stadt"},"district":{"key":"12061","name":"Dahme-Spreewald","type":"Landkreis"},"federalState":{"key":"12","name":"Brandenburg"}},{"name":"Am Grünen Weg","postalCode":"15749","locality":"Mittenwalde","municipality":{"key":"12061332","name":"Mittenwalde, Stadt","type":"Stadt"},"district":{"key":"12061","name":"Dahme-Spreewald","type":"Landkreis"},"federalState":{"key":"12","name":"Brandenburg"}},{"name":"Am Hang","postalCode":"15749","locality":"Mittenwalde","municipality":{"key":"12061332","name":"Mittenwalde, Stadt","type":"Stadt"},"district":{"key":"12061","name":"Dahme-Spreewald","type":"Landkreis"},"federalState":{"key":"12","name":"Brandenburg"}},{"name":"Am Heukenberg","postalCode":"15749","locality":"Mittenwalde","municipality":{"key":"12061332","name":"Mittenwalde, Stadt","type":"Stadt"},"district":{"key":"12061","name":"Dahme-Spreewald","type":"Landkreis"},"federalState":{"key":"12","name":"Brandenburg"}},{"name":"Am Kanal","postalCode":"15749","locality":"Mittenwalde","municipality":{"key":"12061332","name":"Mittenwalde, Stadt","type":"Stadt"},"district":{"key":"12061","name":"Dahme-Spreewald","type":"Landkreis"},"federalState":{"key":"12","name":"Brandenburg"}},{"name":"Am Mühlenberg","postalCode":"15749","locality":"Mittenwalde","municipality":{"key":"12061332","name":"Mittenwalde, Stadt","type":"Stadt"},"district":{"key":"12061","name":"Dahme-Spreewald","type":"Landkreis"},"federalState":{"key":"12","name":"Brandenburg"}},{"name":"Am Ostbahnhof","postalCode":"15749","locality":"Mittenwalde","municipality":{"key":"12061332","name":"Mittenwalde, Stadt","type":"Stadt"},"district":{"key":"12061","name":"Dahme-Spreewald","type":"Landkreis"},"federalState":{"key":"12","name":"Brandenburg"}},{"name":"Am Pritzelgraben","postalCode":"15749","locality":"Mittenwalde","municipality":{"key":"12061332","name":"Mittenwalde, Stadt","type":"Stadt"},"district":{"key":"12061","name":"Dahme-Spreewald","type":"Landkreis"},"federalState":{"key":"12","name":"Brandenburg"}},{"name":"Am Pulverturm","postalCode":"15749","locality":"Mittenwalde","municipality":{"key":"12061332","name":"Mittenwalde, Stadt","type":"Stadt"},"district":{"key":"12061","name":"Dahme-Spreewald","type":"Landkreis"},"federalState":{"key":"12","name":"Brandenburg"}},{"name":"Am Rohr","postalCode":"15749","locality":"Mittenwalde","municipality":{"key":"12061332","name":"Mittenwalde, Stadt","type":"Stadt"},"district":{"key":"12061","name":"Dahme-Spreewald","type":"Landkreis"},"federalState":{"key":"12","name":"Brandenburg"}},{"name":"Am Scheunenviertel","postalCode":"15749","locality":"Mittenwalde","municipality":{"key":"12061332","name":"Mittenwalde, Stadt","type":"Stadt"},"district":{"key":"12061","name":"Dahme-Spreewald","type":"Landkreis"},"federalState":{"key":"12","name":"Brandenburg"}},{"name":"Amselweg","postalCode":"15749","locality":"Mittenwalde","municipality":{"key":"12061332","name":"Mittenwalde, Stadt","type":"Stadt"},"district":{"key":"12061","name":"Dahme-Spreewald","type":"Landkreis"},"federalState":{"key":"12","name":"Brandenburg"}},{"name":"Am Sportplatz","postalCode":"15749","locality":"Mittenwalde","municipality":{"key":"12061332","name":"Mittenwalde, Stadt","type":"Stadt"},"district":{"key":"12061","name":"Dahme-Spreewald","type":"Landkreis"},"federalState":{"key":"12","name":"Brandenburg"}},{"name":"Am Tonsee","postalCode":"15749","locality":"Mittenwalde","municipality":{"key":"12061332","name":"Mittenwalde, Stadt","type":"Stadt"},"district":{"key":"12061","name":"Dahme-Spreewald","type":"Landkreis"},"federalState":{"key":"12","name":"Brandenburg"}},{"name":"Am Wald","postalCode":"15749","locality":"Mittenwalde","municipality":{"key":"12061332","name":"Mittenwalde, Stadt","type":"Stadt"},"district":{"key":"12061","name":"Dahme-Spreewald","type":"Landkreis"},"federalState":{"key":"12","name":"Brandenburg"}},{"name":"Am Wäldchen","postalCode":"15749","locality":"Mittenwalde","municipality":{"key":"12061332","name":"Mittenwalde, Stadt","type":"Stadt"},"district":{"key":"12061","name":"Dahme-Spreewald","type":"Landkreis"},"federalState":{"key":"12","name":"Brandenburg"}},{"name":"Am Waldschlößchen","postalCode":"15749","locality":"Mittenwalde","municipality":{"key":"12061332","name":"Mittenwalde, Stadt","type":"Stadt"},"district":{"key":"12061","name":"Dahme-Spreewald","type":"Landkreis"},"federalState":{"key":"12","name":"Brandenburg"}},{"name":"Am Wall","postalCode":"15749","locality":"Mittenwalde","municipality":{"key":"12061332","name":"Mittenwalde, Stadt","type":"Stadt"},"district":{"key":"12061","name":"Dahme-Spreewald","type":"Landkreis"},"federalState":{"key":"12","name":"Brandenburg"}},{"name":"Am Weinberg","postalCode":"15749","locality":"Mittenwalde","municipality":{"key":"12061332","name":"Mittenwalde, Stadt","type":"Stadt"},"district":{"key":"12061","name":"Dahme-Spreewald","type":"Landkreis"},"federalState":{"key":"12","name":"Brandenburg"}},{"name":"Am Wiesenrain","postalCode":"15749","locality":"Mittenwalde","municipality":{"key":"12061332","name":"Mittenwalde, Stadt","type":"Stadt"},"district":{"key":"12061","name":"Dahme-Spreewald","type":"Landkreis"},"federalState":{"key":"12","name":"Brandenburg"}},{"name":"An den Eiskuten","postalCode":"15749","locality":"Mittenwalde","municipality":{"key":"12061332","name":"Mittenwalde, Stadt","type":"Stadt"},"district":{"key":"12061","name":"Dahme-Spreewald","type":"Landkreis"},"federalState":{"key":"12","name":"Brandenburg"}},{"name":"An den Erlen","postalCode":"15749","locality":"Mittenwalde","municipality":{"key":"12061332","name":"Mittenwalde, Stadt","type":"Stadt"},"district":{"key":"12061","name":"Dahme-Spreewald","type":"Landkreis"},"federalState":{"key":"12","name":"Brandenburg"}},{"name":"An den Pappeln","postalCode":"15749","locality":"Mittenwalde","municipality":{"key":"12061332","name":"Mittenwalde, Stadt","type":"Stadt"},"district":{"key":"12061","name":"Dahme-Spreewald","type":"Landkreis"},"federalState":{"key":"12","name":"Brandenburg"}},{"name":"An den Wiesen","postalCode":"15749","locality":"Mittenwalde","municipality":{"key":"12061332","name":"Mittenwalde, Stadt","type":"Stadt"},"district":{"key":"12061","name":"Dahme-Spreewald","type":"Landkreis"},"federalState":{"key":"12","name":"Brandenburg"}},{"name":"An der Eisenbahn","postalCode":"15749","locality":"Mittenwalde","municipality":{"key":"12061332","name":"Mittenwalde, Stadt","type":"Stadt"},"district":{"key":"12061","name":"Dahme-Spreewald","type":"Landkreis"},"federalState":{"key":"12","name":"Brandenburg"}},{"name":"An der Feuerwehr","postalCode":"15749","locality":"Mittenwalde","municipality":{"key":"12061332","name":"Mittenwalde, Stadt","type":"Stadt"},"district":{"key":"12061","name":"Dahme-Spreewald","type":"Landkreis"},"federalState":{"key":"12","name":"Brandenburg"}},{"name":"An der Heide","postalCode":"15749","locality":"Mittenwalde","municipality":{"key":"12061332","name":"Mittenwalde, Stadt","type":"Stadt"},"district":{"key":"12061","name":"Dahme-Spreewald","type":"Landkreis"},"federalState":{"key":"12","name":"Brandenburg"}},{"name":"An der Koppel","postalCode":"15749","locality":"Mittenwalde","municipality":{"key":"12061332","name":"Mittenwalde, Stadt","type":"Stadt"},"district":{"key":"12061","name":"Dahme-Spreewald","type":"Landkreis"},"federalState":{"key":"12","name":"Brandenburg"}},{"name":"Anemonenweg","postalCode":"15749","locality":"Mittenwalde","municipality":{"key":"12061332","name":"Mittenwalde, Stadt","type":"Stadt"},"district":{"key":"12061","name":"Dahme-Spreewald","type":"Landkreis"},"federalState":{"key":"12","name":"Brandenburg"}},{"name":"Angerweg","postalCode":"15749","locality":"Mittenwalde","municipality":{"key":"12061332","name":"Mittenwalde, Stadt","type":"Stadt"},"district":{"key":"12061","name":"Dahme-Spreewald","type":"Landkreis"},"federalState":{"key":"12","name":"Brandenburg"}},{"name":"Apothekerstr.","postalCode":"15749","locality":"Mittenwalde","municipality":{"key":"12061332","name":"Mittenwalde, Stadt","type":"Stadt"},"district":{"key":"12061","name":"Dahme-Spreewald","type":"Landkreis"},"federalState":{"key":"12","name":"Brandenburg"}},{"name":"Backgarten","postalCode":"15749","locality":"Mittenwalde","municipality":{"key":"12061332","name":"Mittenwalde, Stadt","type":"Stadt"},"district":{"key":"12061","name":"Dahme-Spreewald","type":"Landkreis"},"federalState":{"key":"12","name":"Brandenburg"}},{"name":"Bahndamm","postalCode":"15749","locality":"Mittenwalde","municipality":{"key":"12061332","name":"Mittenwalde, Stadt","type":"Stadt"},"district":{"key":"12061","name":"Dahme-Spreewald","type":"Landkreis"},"federalState":{"key":"12","name":"Brandenburg"}},{"name":"Bahnhofstr.","postalCode":"15749","locality":"Mittenwalde","municipality":{"key":"12061332","name":"Mittenwalde, Stadt","type":"Stadt"},"district":{"key":"12061","name":"Dahme-Spreewald","type":"Landkreis"},"federalState":{"key":"12","name":"Brandenburg"}},{"name":"Bahnhofstr.","postalCode":"17268","locality":"Mittenwalde","municipality":{"key":"12073404","name":"Mittenwalde","type":"Kreisangehörige_Gemeinde"},"district":{"key":"12073","name":"Uckermark","type":"Landkreis"},"federalState":{"key":"12","name":"Brandenburg"}},{"name":"Baruther Str.","postalCode":"15749","locality":"Mittenwalde","municipality":{"key":"12061332","name":"Mittenwalde, Stadt","type":"Stadt"},"district":{"key":"12061","name":"Dahme-Spreewald","type":"Landkreis"},"federalState":{"key":"12","name":"Brandenburg"}},{"name":"Baruther Vorstadt","postalCode":"15749","locality":"Mittenwalde","municipality":{"key":"12061332","name":"Mittenwalde, Stadt","type":"Stadt"},"district":{"key":"12061","name":"Dahme-Spreewald","type":"Landkreis"},"federalState":{"key":"12","name":"Brandenburg"}},{"name":"Bauernreihe","postalCode":"15749","locality":"Mittenwalde","municipality":{"key":"12061332","name":"Mittenwalde, Stadt","type":"Stadt"},"district":{"key":"12061","name":"Dahme-Spreewald","type":"Landkreis"},"federalState":{"key":"12","name":"Brandenburg"}},{"name":"Bergstr.","postalCode":"15749","locality":"Mittenwalde","municipality":{"key":"12061332","name":"Mittenwalde, Stadt","type":"Stadt"},"district":{"key":"12061","name":"Dahme-Spreewald","type":"Landkreis"},"federalState":{"key":"12","name":"Brandenburg"}},{"name":"Bergweg","postalCode":"15749","locality":"Mittenwalde","municipality":{"key":"12061332","name":"Mittenwalde, Stadt","type":"Stadt"},"district":{"key":"12061","name":"Dahme-Spreewald","type":"Landkreis"},"federalState":{"key":"12","name":"Brandenburg"}},{"name":"Berliner Chaussee","postalCode":"15749","locality":"Mittenwalde","municipality":{"key":"12061332","name":"Mittenwalde, Stadt","type":"Stadt"},"district":{"key":"12061","name":"Dahme-Spreewald","type":"Landkreis"},"federalState":{"key":"12","name":"Brandenburg"}},{"name":"Berliner Vorstadt","postalCode":"15749","locality":"Mittenwalde","municipality":{"key":"12061332","name":"Mittenwalde, Stadt","type":"Stadt"},"district":{"key":"12061","name":"Dahme-Spreewald","type":"Landkreis"},"federalState":{"key":"12","name":"Brandenburg"}},{"name":"Berliner Weg","postalCode":"15749","locality":"Mittenwalde","municipality":{"key":"12061332","name":"Mittenwalde, Stadt","type":"Stadt"},"district":{"key":"12061","name":"Dahme-Spreewald","type":"Landkreis"},"federalState":{"key":"12","name":"Brandenburg"}},{"name":"Bestenseer Chaussee","postalCode":"15749","locality":"Mittenwalde","municipality":{"key":"12061332","name":"Mittenwalde, Stadt","type":"Stadt"},"district":{"key":"12061","name":"Dahme-Spreewald","type":"Landkreis"},"federalState":{"key":"12","name":"Brandenburg"}},{"name":"Bestenseer Str.","postalCode":"15749","locality":"Mittenwalde","municipality":{"key":"12061332","name":"Mittenwalde, Stadt","type":"Stadt"},"district":{"key":"12061","name":"Dahme-Spreewald","type":"Landkreis"},"federalState":{"key":"12","name":"Brandenburg"}},{"name":"Birkenring","postalCode":"15749","locality":"Mittenwalde","municipality":{"key":"12061332","name":"Mittenwalde, Stadt","type":"Stadt"},"district":{"key":"12061","name":"Dahme-Spreewald","type":"Landkreis"},"federalState":{"key":"12","name":"Brandenburg"}},{"name":"Birkenwäldchen","postalCode":"15749","locality":"Mittenwalde","municipality":{"key":"12061332","name":"Mittenwalde, Stadt","type":"Stadt"},"district":{"key":"12061","name":"Dahme-Spreewald","type":"Landkreis"},"federalState":{"key":"12","name":"Brandenburg"}},{"name":"Birkenweg","postalCode":"15749","locality":"Mittenwalde","municipality":{"key":"12061332","name":"Mittenwalde, Stadt","type":"Stadt"},"district":{"key":"12061","name":"Dahme-Spreewald","type":"Landkreis"},"federalState":{"key":"12","name":"Brandenburg"}},{"name":"Blankensee","postalCode":"17268","locality":"Mittenwalde","municipality":{"key":"12073404","name":"Mittenwalde","type":"Kreisangehörige_Gemeinde"},"district":{"key":"12073","name":"Uckermark","type":"Landkreis"},"federalState":{"key":"12","name":"Brandenburg"}},{"name":"Blankenseer Str.","postalCode":"17268","locality":"Mittenwalde","municipality":{"key":"12073404","name":"Mittenwalde","type":"Kreisangehörige_Gemeinde"},"district":{"key":"12073","name":"Uckermark","type":"Landkreis"},"federalState":{"key":"12","name":"Brandenburg"}},{"name":"Boddinsfelder Eck","postalCode":"15749","locality":"Mittenwalde","municipality":{"key":"12061332","name":"Mittenwalde, Stadt","type":"Stadt"},"district":{"key":"12061","name":"Dahme-Spreewald","type":"Landkreis"},"federalState":{"key":"12","name":"Brandenburg"}},{"name":"Brombeerenweg","postalCode":"15749","locality":"Mittenwalde","municipality":{"key":"12061332","name":"Mittenwalde, Stadt","type":"Stadt"},"district":{"key":"12061","name":"Dahme-Spreewald","type":"Landkreis"},"federalState":{"key":"12","name":"Brandenburg"}},{"name":"Brusendorfer Str.","postalCode":"15749","locality":"Mittenwalde","municipality":{"key":"12061332","name":"Mittenwalde, Stadt","type":"Stadt"},"district":{"key":"12061","name":"Dahme-Spreewald","type":"Landkreis"},"federalState":{"key":"12","name":"Brandenburg"}},{"name":"Burgstr.","postalCode":"15749","locality":"Mittenwalde","municipality":{"key":"12061332","name":"Mittenwalde, Stadt","type":"Stadt"},"district":{"key":"12061","name":"Dahme-Spreewald","type":"Landkreis"},"federalState":{"key":"12","name":"Brandenburg"}},{"name":"Chausseestr.","postalCode":"15749","locality":"Mittenwalde","municipality":{"key":"12061332","name":"Mittenwalde, Stadt","type":"Stadt"},"district":{"key":"12061","name":"Dahme-Spreewald","type":"Landkreis"},"federalState":{"key":"12","name":"Brandenburg"}},{"name":"Dahmestr.","postalCode":"15749","locality":"Mittenwalde","municipality":{"key":"12061332","name":"Mittenwalde, Stadt","type":"Stadt"},"district":{"key":"12061","name":"Dahme-Spreewald","type":"Landkreis"},"federalState":{"key":"12","name":"Brandenburg"}},{"name":"Dorfaue","postalCode":"15749","locality":"Mittenwalde","municipality":{"key":"12061332","name":"Mittenwalde, Stadt","type":"Stadt"},"district":{"key":"12061","name":"Dahme-Spreewald","type":"Landkreis"},"federalState":{"key":"12","name":"Brandenburg"}},{"name":"Dorfplatz","postalCode":"15749","locality":"Mittenwalde","municipality":{"key":"12061332","name":"Mittenwalde, Stadt","type":"Stadt"},"district":{"key":"12061","name":"Dahme-Spreewald","type":"Landkreis"},"federalState":{"key":"12","name":"Brandenburg"}},{"name":"Dorfstr.","postalCode":"15749","locality":"Mittenwalde","municipality":{"key":"12061332","name":"Mittenwalde, Stadt","type":"Stadt"},"district":{"key":"12061","name":"Dahme-Spreewald","type":"Landkreis"},"federalState":{"key":"12","name":"Brandenburg"}},{"name":"Dorfstr.","postalCode":"17268","locality":"Mittenwalde","municipality":{"key":"12073404","name":"Mittenwalde","type":"Kreisangehörige_Gemeinde"},"district":{"key":"12073","name":"Uckermark","type":"Landkreis"},"federalState":{"key":"12","name":"Brandenburg"}},{"name":"Drosselweg","postalCode":"15749","locality":"Mittenwalde","municipality":{"key":"12061332","name":"Mittenwalde, Stadt","type":"Stadt"},"district":{"key":"12061","name":"Dahme-Spreewald","type":"Landkreis"},"federalState":{"key":"12","name":"Brandenburg"}},{"name":"Dünenweg","postalCode":"15749","locality":"Mittenwalde","municipality":{"key":"12061332","name":"Mittenwalde, Stadt","type":"Stadt"},"district":{"key":"12061","name":"Dahme-Spreewald","type":"Landkreis"},"federalState":{"key":"12","name":"Brandenburg"}},{"name":"Egsdorfer Str.","postalCode":"15749","locality":"Mittenwalde","municipality":{"key":"12061332","name":"Mittenwalde, Stadt","type":"Stadt"},"district":{"key":"12061","name":"Dahme-Spreewald","type":"Landkreis"},"federalState":{"key":"12","name":"Brandenburg"}},{"name":"ehem. Neukölln-Mittenwalder Eisenbahn","postalCode":"15749","locality":"Mittenwalde","municipality":{"key":"12061332","name":"Mittenwalde, Stadt","type":"Stadt"},"district":{"key":"12061","name":"Dahme-Spreewald","type":"Landkreis"},"federalState":{"key":"12","name":"Brandenburg"}},{"name":"Eichenallee","postalCode":"15749","locality":"Mittenwalde","municipality":{"key":"12061332","name":"Mittenwalde, Stadt","type":"Stadt"},"district":{"key":"12061","name":"Dahme-Spreewald","type":"Landkreis"},"federalState":{"key":"12","name":"Brandenburg"}},{"name":"Eichenring","postalCode":"15749","locality":"Mittenwalde","municipality":{"key":"12061332","name":"Mittenwalde, Stadt","type":"Stadt"},"district":{"key":"12061","name":"Dahme-Spreewald","type":"Landkreis"},"federalState":{"key":"12","name":"Brandenburg"}},{"name":"Eichenstich","postalCode":"15749","locality":"Mittenwalde","municipality":{"key":"12061332","name":"Mittenwalde, Stadt","type":"Stadt"},"district":{"key":"12061","name":"Dahme-Spreewald","type":"Landkreis"},"federalState":{"key":"12","name":"Brandenburg"}},{"name":"Eichenweg","postalCode":"15749","locality":"Mittenwalde","municipality":{"key":"12061332","name":"Mittenwalde, Stadt","type":"Stadt"},"district":{"key":"12061","name":"Dahme-Spreewald","type":"Landkreis"},"federalState":{"key":"12","name":"Brandenburg"}},{"name":"Eisenbahnweg","postalCode":"15749","locality":"Mittenwalde","municipality":{"key":"12061332","name":"Mittenwalde, Stadt","type":"Stadt"},"district":{"key":"12061","name":"Dahme-Spreewald","type":"Landkreis"},"federalState":{"key":"12","name":"Brandenburg"}},{"name":"Erikaweg","postalCode":"15749","locality":"Mittenwalde","municipality":{"key":"12061332","name":"Mittenwalde, Stadt","type":"Stadt"},"district":{"key":"12061","name":"Dahme-Spreewald","type":"Landkreis"},"federalState":{"key":"12","name":"Brandenburg"}},{"name":"Fasanenweg","postalCode":"15749","locality":"Mittenwalde","municipality":{"key":"12061332","name":"Mittenwalde, Stadt","type":"Stadt"},"district":{"key":"12061","name":"Dahme-Spreewald","type":"Landkreis"},"federalState":{"key":"12","name":"Brandenburg"}},{"name":"Feldstr.","postalCode":"15749","locality":"Mittenwalde","municipality":{"key":"12061332","name":"Mittenwalde, Stadt","type":"Stadt"},"district":{"key":"12061","name":"Dahme-Spreewald","type":"Landkreis"},"federalState":{"key":"12","name":"Brandenburg"}},{"name":"Feldweg","postalCode":"17268","locality":"Mittenwalde","municipality":{"key":"12073404","name":"Mittenwalde","type":"Kreisangehörige_Gemeinde"},"district":{"key":"12073","name":"Uckermark","type":"Landkreis"},"federalState":{"key":"12","name":"Brandenburg"}},{"name":"Finkenweg","postalCode":"15749","locality":"Mittenwalde","municipality":{"key":"12061332","name":"Mittenwalde, Stadt","type":"Stadt"},"district":{"key":"12061","name":"Dahme-Spreewald","type":"Landkreis"},"federalState":{"key":"12","name":"Brandenburg"}},{"name":"Fliederweg","postalCode":"15749","locality":"Mittenwalde","municipality":{"key":"12061332","name":"Mittenwalde, Stadt","type":"Stadt"},"district":{"key":"12061","name":"Dahme-Spreewald","type":"Landkreis"},"federalState":{"key":"12","name":"Brandenburg"}},{"name":"Fontanestr.","postalCode":"15749","locality":"Mittenwalde","municipality":{"key":"12061332","name":"Mittenwalde, Stadt","type":"Stadt"},"district":{"key":"12061","name":"Dahme-Spreewald","type":"Landkreis"},"federalState":{"key":"12","name":"Brandenburg"}},{"name":"Fontaneweg","postalCode":"15749","locality":"Mittenwalde","municipality":{"key":"12061332","name":"Mittenwalde, Stadt","type":"Stadt"},"district":{"key":"12061","name":"Dahme-Spreewald","type":"Landkreis"},"federalState":{"key":"12","name":"Brandenburg"}},{"name":"Forsthaus","postalCode":"17268","locality":"Mittenwalde","municipality":{"key":"12073404","name":"Mittenwalde","type":"Kreisangehörige_Gemeinde"},"district":{"key":"12073","name":"Uckermark","type":"Landkreis"},"federalState":{"key":"12","name":"Brandenburg"}},{"name":"Freiherr-von-Loeben-Str.","postalCode":"15749","locality":"Mittenwalde","municipality":{"key":"12061332","name":"Mittenwalde, Stadt","type":"Stadt"},"district":{"key":"12061","name":"Dahme-Spreewald","type":"Landkreis"},"federalState":{"key":"12","name":"Brandenburg"}},{"name":"Galluner Chaussee","postalCode":"15749","locality":"Mittenwalde","municipality":{"key":"12061332","name":"Mittenwalde, Stadt","type":"Stadt"},"district":{"key":"12061","name":"Dahme-Spreewald","type":"Landkreis"},"federalState":{"key":"12","name":"Brandenburg"}},{"name":"Galluner Müllerhaus","postalCode":"15749","locality":"Mittenwalde","municipality":{"key":"12061332","name":"Mittenwalde, Stadt","type":"Stadt"},"district":{"key":"12061","name":"Dahme-Spreewald","type":"Landkreis"},"federalState":{"key":"12","name":"Brandenburg"}},{"name":"Galluner Str.","postalCode":"15749","locality":"Mittenwalde","municipality":{"key":"12061332","name":"Mittenwalde, Stadt","type":"Stadt"},"district":{"key":"12061","name":"Dahme-Spreewald","type":"Landkreis"},"federalState":{"key":"12","name":"Brandenburg"}},{"name":"Gartenstr.","postalCode":"15749","locality":"Mittenwalde","municipality":{"key":"12061332","name":"Mittenwalde, Stadt","type":"Stadt"},"district":{"key":"12061","name":"Dahme-Spreewald","type":"Landkreis"},"federalState":{"key":"12","name":"Brandenburg"}},{"name":"Gartenweg","postalCode":"15749","locality":"Mittenwalde","municipality":{"key":"12061332","name":"Mittenwalde, Stadt","type":"Stadt"},"district":{"key":"12061","name":"Dahme-Spreewald","type":"Landkreis"},"federalState":{"key":"12","name":"Brandenburg"}},{"name":"Gewerbestr.","postalCode":"15749","locality":"Mittenwalde","municipality":{"key":"12061332","name":"Mittenwalde, Stadt","type":"Stadt"},"district":{"key":"12061","name":"Dahme-Spreewald","type":"Landkreis"},"federalState":{"key":"12","name":"Brandenburg"}},{"name":"Grüner Weg","postalCode":"15749","locality":"Mittenwalde","municipality":{"key":"12061332","name":"Mittenwalde, Stadt","type":"Stadt"},"district":{"key":"12061","name":"Dahme-Spreewald","type":"Landkreis"},"federalState":{"key":"12","name":"Brandenburg"}},{"name":"Grüne Trift","postalCode":"15749","locality":"Mittenwalde","municipality":{"key":"12061332","name":"Mittenwalde, Stadt","type":"Stadt"},"district":{"key":"12061","name":"Dahme-Spreewald","type":"Landkreis"},"federalState":{"key":"12","name":"Brandenburg"}},{"name":"Gustav-Hensel-Str.","postalCode":"15749","locality":"Mittenwalde","municipality":{"key":"12061332","name":"Mittenwalde, Stadt","type":"Stadt"},"district":{"key":"12061","name":"Dahme-Spreewald","type":"Landkreis"},"federalState":{"key":"12","name":"Brandenburg"}},{"name":"Gutshof","postalCode":"15749","locality":"Mittenwalde","municipality":{"key":"12061332","name":"Mittenwalde, Stadt","type":"Stadt"},"district":{"key":"12061","name":"Dahme-Spreewald","type":"Landkreis"},"federalState":{"key":"12","name":"Brandenburg"}},{"name":"Hafenallee","postalCode":"15749","locality":"Mittenwalde","municipality":{"key":"12061332","name":"Mittenwalde, Stadt","type":"Stadt"},"district":{"key":"12061","name":"Dahme-Spreewald","type":"Landkreis"},"federalState":{"key":"12","name":"Brandenburg"}},{"name":"Haselnußweg","postalCode":"15749","locality":"Mittenwalde","municipality":{"key":"12061332","name":"Mittenwalde, Stadt","type":"Stadt"},"district":{"key":"12061","name":"Dahme-Spreewald","type":"Landkreis"},"federalState":{"key":"12","name":"Brandenburg"}},{"name":"Hasensteg","postalCode":"15749","locality":"Mittenwalde","municipality":{"key":"12061332","name":"Mittenwalde, Stadt","type":"Stadt"},"district":{"key":"12061","name":"Dahme-Spreewald","type":"Landkreis"},"federalState":{"key":"12","name":"Brandenburg"}},{"name":"Hauptstr.","postalCode":"15749","locality":"Mittenwalde","municipality":{"key":"12061332","name":"Mittenwalde, Stadt","type":"Stadt"},"district":{"key":"12061","name":"Dahme-Spreewald","type":"Landkreis"},"federalState":{"key":"12","name":"Brandenburg"}},{"name":"Havellandstr.","postalCode":"15749","locality":"Mittenwalde","municipality":{"key":"12061332","name":"Mittenwalde, Stadt","type":"Stadt"},"district":{"key":"12061","name":"Dahme-Spreewald","type":"Landkreis"},"federalState":{"key":"12","name":"Brandenburg"}},{"name":"Herzfelder Str.","postalCode":"17268","locality":"Mittenwalde","municipality":{"key":"12073404","name":"Mittenwalde","type":"Kreisangehörige_Gemeinde"},"district":{"key":"12073","name":"Uckermark","type":"Landkreis"},"federalState":{"key":"12","name":"Brandenburg"}},{"name":"Hinter der Mauer","postalCode":"15749","locality":"Mittenwalde","municipality":{"key":"12061332","name":"Mittenwalde, Stadt","type":"Stadt"},"district":{"key":"12061","name":"Dahme-Spreewald","type":"Landkreis"},"federalState":{"key":"12","name":"Brandenburg"}},{"name":"Hohe Birke","postalCode":"15749","locality":"Mittenwalde","municipality":{"key":"12061332","name":"Mittenwalde, Stadt","type":"Stadt"},"district":{"key":"12061","name":"Dahme-Spreewald","type":"Landkreis"},"federalState":{"key":"12","name":"Brandenburg"}},{"name":"Höhenweg","postalCode":"15749","locality":"Mittenwalde","municipality":{"key":"12061332","name":"Mittenwalde, Stadt","type":"Stadt"},"district":{"key":"12061","name":"Dahme-Spreewald","type":"Landkreis"},"federalState":{"key":"12","name":"Brandenburg"}},{"name":"Hohes Holz","postalCode":"15749","locality":"Mittenwalde","municipality":{"key":"12061332","name":"Mittenwalde, Stadt","type":"Stadt"},"district":{"key":"12061","name":"Dahme-Spreewald","type":"Landkreis"},"federalState":{"key":"12","name":"Brandenburg"}},{"name":"Hohe Tannen","postalCode":"15749","locality":"Mittenwalde","municipality":{"key":"12061332","name":"Mittenwalde, Stadt","type":"Stadt"},"district":{"key":"12061","name":"Dahme-Spreewald","type":"Landkreis"},"federalState":{"key":"12","name":"Brandenburg"}},{"name":"Holunderweg","postalCode":"15749","locality":"Mittenwalde","municipality":{"key":"12061332","name":"Mittenwalde, Stadt","type":"Stadt"},"district":{"key":"12061","name":"Dahme-Spreewald","type":"Landkreis"},"federalState":{"key":"12","name":"Brandenburg"}},{"name":"Im Grund","postalCode":"15749","locality":"Mittenwalde","municipality":{"key":"12061332","name":"Mittenwalde, Stadt","type":"Stadt"},"district":{"key":"12061","name":"Dahme-Spreewald","type":"Landkreis"},"federalState":{"key":"12","name":"Brandenburg"}},{"name":"Im Luch","postalCode":"15749","locality":"Mittenwalde","municipality":{"key":"12061332","name":"Mittenwalde, Stadt","type":"Stadt"},"district":{"key":"12061","name":"Dahme-Spreewald","type":"Landkreis"},"federalState":{"key":"12","name":"Brandenburg"}},{"name":"Im Mühlengrund","postalCode":"15749","locality":"Mittenwalde","municipality":{"key":"12061332","name":"Mittenwalde, Stadt","type":"Stadt"},"district":{"key":"12061","name":"Dahme-Spreewald","type":"Landkreis"},"federalState":{"key":"12","name":"Brandenburg"}},{"name":"Im Ring","postalCode":"15749","locality":"Mittenwalde","municipality":{"key":"12061332","name":"Mittenwalde, Stadt","type":"Stadt"},"district":{"key":"12061","name":"Dahme-Spreewald","type":"Landkreis"},"federalState":{"key":"12","name":"Brandenburg"}},{"name":"Im Süßen Grund","postalCode":"15749","locality":"Mittenwalde","municipality":{"key":"12061332","name":"Mittenwalde, Stadt","type":"Stadt"},"district":{"key":"12061","name":"Dahme-Spreewald","type":"Landkreis"},"federalState":{"key":"12","name":"Brandenburg"}},{"name":"In den Hecken","postalCode":"15749","locality":"Mittenwalde","municipality":{"key":"12061332","name":"Mittenwalde, Stadt","type":"Stadt"},"district":{"key":"12061","name":"Dahme-Spreewald","type":"Landkreis"},"federalState":{"key":"12","name":"Brandenburg"}},{"name":"In der Muna","postalCode":"15749","locality":"Mittenwalde","municipality":{"key":"12061332","name":"Mittenwalde, Stadt","type":"Stadt"},"district":{"key":"12061","name":"Dahme-Spreewald","type":"Landkreis"},"federalState":{"key":"12","name":"Brandenburg"}},{"name":"Jüdenstr.","postalCode":"15749","locality":"Mittenwalde","municipality":{"key":"12061332","name":"Mittenwalde, Stadt","type":"Stadt"},"district":{"key":"12061","name":"Dahme-Spreewald","type":"Landkreis"},"federalState":{"key":"12","name":"Brandenburg"}},{"name":"Kallinchener Chaussee","postalCode":"15749","locality":"Mittenwalde","municipality":{"key":"12061332","name":"Mittenwalde, Stadt","type":"Stadt"},"district":{"key":"12061","name":"Dahme-Spreewald","type":"Landkreis"},"federalState":{"key":"12","name":"Brandenburg"}},{"name":"Kallinchener Str.","postalCode":"15749","locality":"Mittenwalde","municipality":{"key":"12061332","name":"Mittenwalde, Stadt","type":"Stadt"},"district":{"key":"12061","name":"Dahme-Spreewald","type":"Landkreis"},"federalState":{"key":"12","name":"Brandenburg"}},{"name":"Karl-Marx-Str.","postalCode":"15749","locality":"Mittenwalde","municipality":{"key":"12061332","name":"Mittenwalde, Stadt","type":"Stadt"},"district":{"key":"12061","name":"Dahme-Spreewald","type":"Landkreis"},"federalState":{"key":"12","name":"Brandenburg"}},{"name":"Kastanienallee","postalCode":"15749","locality":"Mittenwalde","municipality":{"key":"12061332","name":"Mittenwalde, Stadt","type":"Stadt"},"district":{"key":"12061","name":"Dahme-Spreewald","type":"Landkreis"},"federalState":{"key":"12","name":"Brandenburg"}},{"name":"Kastanienhof","postalCode":"15749","locality":"Mittenwalde","municipality":{"key":"12061332","name":"Mittenwalde, Stadt","type":"Stadt"},"district":{"key":"12061","name":"Dahme-Spreewald","type":"Landkreis"},"federalState":{"key":"12","name":"Brandenburg"}},{"name":"Kastanienweg","postalCode":"15749","locality":"Mittenwalde","municipality":{"key":"12061332","name":"Mittenwalde, Stadt","type":"Stadt"},"district":{"key":"12061","name":"Dahme-Spreewald","type":"Landkreis"},"federalState":{"key":"12","name":"Brandenburg"}},{"name":"Katharinenstr.","postalCode":"15749","locality":"Mittenwalde","municipality":{"key":"12061332","name":"Mittenwalde, Stadt","type":"Stadt"},"district":{"key":"12061","name":"Dahme-Spreewald","type":"Landkreis"},"federalState":{"key":"12","name":"Brandenburg"}},{"name":"Kiefernring","postalCode":"15749","locality":"Mittenwalde","municipality":{"key":"12061332","name":"Mittenwalde, Stadt","type":"Stadt"},"district":{"key":"12061","name":"Dahme-Spreewald","type":"Landkreis"},"federalState":{"key":"12","name":"Brandenburg"}},{"name":"Kiefernsteg","postalCode":"15749","locality":"Mittenwalde","municipality":{"key":"12061332","name":"Mittenwalde, Stadt","type":"Stadt"},"district":{"key":"12061","name":"Dahme-Spreewald","type":"Landkreis"},"federalState":{"key":"12","name":"Brandenburg"}},{"name":"Kiefernwaldstr.","postalCode":"15749","locality":"Mittenwalde","municipality":{"key":"12061332","name":"Mittenwalde, Stadt","type":"Stadt"},"district":{"key":"12061","name":"Dahme-Spreewald","type":"Landkreis"},"federalState":{"key":"12","name":"Brandenburg"}},{"name":"Kiefernweg","postalCode":"15749","locality":"Mittenwalde","municipality":{"key":"12061332","name":"Mittenwalde, Stadt","type":"Stadt"},"district":{"key":"12061","name":"Dahme-Spreewald","type":"Landkreis"},"federalState":{"key":"12","name":"Brandenburg"}},{"name":"Kienwerder","postalCode":"17268","locality":"Mittenwalde","municipality":{"key":"12073404","name":"Mittenwalde","type":"Kreisangehörige_Gemeinde"},"district":{"key":"12073","name":"Uckermark","type":"Landkreis"},"federalState":{"key":"12","name":"Brandenburg"}},{"name":"Kienwerder Str.","postalCode":"17268","locality":"Mittenwalde","municipality":{"key":"12073404","name":"Mittenwalde","type":"Kreisangehörige_Gemeinde"},"district":{"key":"12073","name":"Uckermark","type":"Landkreis"},"federalState":{"key":"12","name":"Brandenburg"}},{"name":"Kirchsteig","postalCode":"15749","locality":"Mittenwalde","municipality":{"key":"12061332","name":"Mittenwalde, Stadt","type":"Stadt"},"district":{"key":"12061","name":"Dahme-Spreewald","type":"Landkreis"},"federalState":{"key":"12","name":"Brandenburg"}},{"name":"Kirchstr.","postalCode":"15749","locality":"Mittenwalde","municipality":{"key":"12061332","name":"Mittenwalde, Stadt","type":"Stadt"},"district":{"key":"12061","name":"Dahme-Spreewald","type":"Landkreis"},"federalState":{"key":"12","name":"Brandenburg"}},{"name":"Kirchweg","postalCode":"15749","locality":"Mittenwalde","municipality":{"key":"12061332","name":"Mittenwalde, Stadt","type":"Stadt"},"district":{"key":"12061","name":"Dahme-Spreewald","type":"Landkreis"},"federalState":{"key":"12","name":"Brandenburg"}},{"name":"Kleine Potsdamer Str.","postalCode":"15749","locality":"Mittenwalde","municipality":{"key":"12061332","name":"Mittenwalde, Stadt","type":"Stadt"},"district":{"key":"12061","name":"Dahme-Spreewald","type":"Landkreis"},"federalState":{"key":"12","name":"Brandenburg"}},{"name":"Kleiner Berg","postalCode":"15749","locality":"Mittenwalde","municipality":{"key":"12061332","name":"Mittenwalde, Stadt","type":"Stadt"},"district":{"key":"12061","name":"Dahme-Spreewald","type":"Landkreis"},"federalState":{"key":"12","name":"Brandenburg"}},{"name":"Kleiner Ring","postalCode":"15749","locality":"Mittenwalde","municipality":{"key":"12061332","name":"Mittenwalde, Stadt","type":"Stadt"},"district":{"key":"12061","name":"Dahme-Spreewald","type":"Landkreis"},"federalState":{"key":"12","name":"Brandenburg"}},{"name":"Klippweg","postalCode":"15749","locality":"Mittenwalde","municipality":{"key":"12061332","name":"Mittenwalde, Stadt","type":"Stadt"},"district":{"key":"12061","name":"Dahme-Spreewald","type":"Landkreis"},"federalState":{"key":"12","name":"Brandenburg"}},{"name":"Köpenicker Str.","postalCode":"15749","locality":"Mittenwalde","municipality":{"key":"12061332","name":"Mittenwalde, Stadt","type":"Stadt"},"district":{"key":"12061","name":"Dahme-Spreewald","type":"Landkreis"},"federalState":{"key":"12","name":"Brandenburg"}},{"name":"Köriser Str.","postalCode":"15749","locality":"Mittenwalde","municipality":{"key":"12061332","name":"Mittenwalde, Stadt","type":"Stadt"},"district":{"key":"12061","name":"Dahme-Spreewald","type":"Landkreis"},"federalState":{"key":"12","name":"Brandenburg"}},{"name":"Kossätenweg","postalCode":"15749","locality":"Mittenwalde","municipality":{"key":"12061332","name":"Mittenwalde, Stadt","type":"Stadt"},"district":{"key":"12061","name":"Dahme-Spreewald","type":"Landkreis"},"federalState":{"key":"12","name":"Brandenburg"}},{"name":"Kranichweg","postalCode":"15749","locality":"Mittenwalde","municipality":{"key":"12061332","name":"Mittenwalde, Stadt","type":"Stadt"},"district":{"key":"12061","name":"Dahme-Spreewald","type":"Landkreis"},"federalState":{"key":"12","name":"Brandenburg"}},{"name":"Krummenseer Dorfstr.","postalCode":"15749","locality":"Mittenwalde","municipality":{"key":"12061332","name":"Mittenwalde, Stadt","type":"Stadt"},"district":{"key":"12061","name":"Dahme-Spreewald","type":"Landkreis"},"federalState":{"key":"12","name":"Brandenburg"}},{"name":"Krummenseer Str.","postalCode":"15749","locality":"Mittenwalde","municipality":{"key":"12061332","name":"Mittenwalde, Stadt","type":"Stadt"},"district":{"key":"12061","name":"Dahme-Spreewald","type":"Landkreis"},"federalState":{"key":"12","name":"Brandenburg"}},{"name":"Küstergasse","postalCode":"15749","locality":"Mittenwalde","municipality":{"key":"12061332","name":"Mittenwalde, Stadt","type":"Stadt"},"district":{"key":"12061","name":"Dahme-Spreewald","type":"Landkreis"},"federalState":{"key":"12","name":"Brandenburg"}},{"name":"Lerchenweg","postalCode":"15749","locality":"Mittenwalde","municipality":{"key":"12061332","name":"Mittenwalde, Stadt","type":"Stadt"},"district":{"key":"12061","name":"Dahme-Spreewald","type":"Landkreis"},"federalState":{"key":"12","name":"Brandenburg"}},{"name":"Lindenallee","postalCode":"15749","locality":"Mittenwalde","municipality":{"key":"12061332","name":"Mittenwalde, Stadt","type":"Stadt"},"district":{"key":"12061","name":"Dahme-Spreewald","type":"Landkreis"},"federalState":{"key":"12","name":"Brandenburg"}},{"name":"Lindenhof","postalCode":"15749","locality":"Mittenwalde","municipality":{"key":"12061332","name":"Mittenwalde, Stadt","type":"Stadt"},"district":{"key":"12061","name":"Dahme-Spreewald","type":"Landkreis"},"federalState":{"key":"12","name":"Brandenburg"}},{"name":"Lindenring","postalCode":"15749","locality":"Mittenwalde","municipality":{"key":"12061332","name":"Mittenwalde, Stadt","type":"Stadt"},"district":{"key":"12061","name":"Dahme-Spreewald","type":"Landkreis"},"federalState":{"key":"12","name":"Brandenburg"}},{"name":"Lindenstr.","postalCode":"15749","locality":"Mittenwalde","municipality":{"key":"12061332","name":"Mittenwalde, Stadt","type":"Stadt"},"district":{"key":"12061","name":"Dahme-Spreewald","type":"Landkreis"},"federalState":{"key":"12","name":"Brandenburg"}},{"name":"Loickstr.","postalCode":"15749","locality":"Mittenwalde","municipality":{"key":"12061332","name":"Mittenwalde, Stadt","type":"Stadt"},"district":{"key":"12061","name":"Dahme-Spreewald","type":"Landkreis"},"federalState":{"key":"12","name":"Brandenburg"}},{"name":"Machnower Str.","postalCode":"15749","locality":"Mittenwalde","municipality":{"key":"12061332","name":"Mittenwalde, Stadt","type":"Stadt"},"district":{"key":"12061","name":"Dahme-Spreewald","type":"Landkreis"},"federalState":{"key":"12","name":"Brandenburg"}},{"name":"Maisweg","postalCode":"15749","locality":"Mittenwalde","municipality":{"key":"12061332","name":"Mittenwalde, Stadt","type":"Stadt"},"district":{"key":"12061","name":"Dahme-Spreewald","type":"Landkreis"},"federalState":{"key":"12","name":"Brandenburg"}},{"name":"Märkischer Weg","postalCode":"15749","locality":"Mittenwalde","municipality":{"key":"12061332","name":"Mittenwalde, Stadt","type":"Stadt"},"district":{"key":"12061","name":"Dahme-Spreewald","type":"Landkreis"},"federalState":{"key":"12","name":"Brandenburg"}},{"name":"Märkische Str.","postalCode":"15749","locality":"Mittenwalde","municipality":{"key":"12061332","name":"Mittenwalde, Stadt","type":"Stadt"},"district":{"key":"12061","name":"Dahme-Spreewald","type":"Landkreis"},"federalState":{"key":"12","name":"Brandenburg"}},{"name":"Mauerstr.","postalCode":"15749","locality":"Mittenwalde","municipality":{"key":"12061332","name":"Mittenwalde, Stadt","type":"Stadt"},"district":{"key":"12061","name":"Dahme-Spreewald","type":"Landkreis"},"federalState":{"key":"12","name":"Brandenburg"}},{"name":"Millingsweg","postalCode":"15749","locality":"Mittenwalde","municipality":{"key":"12061332","name":"Mittenwalde, Stadt","type":"Stadt"},"district":{"key":"12061","name":"Dahme-Spreewald","type":"Landkreis"},"federalState":{"key":"12","name":"Brandenburg"}},{"name":"Mittelstr.","postalCode":"15749","locality":"Mittenwalde","municipality":{"key":"12061332","name":"Mittenwalde, Stadt","type":"Stadt"},"district":{"key":"12061","name":"Dahme-Spreewald","type":"Landkreis"},"federalState":{"key":"12","name":"Brandenburg"}},{"name":"Mittelweg","postalCode":"15749","locality":"Mittenwalde","municipality":{"key":"12061332","name":"Mittenwalde, Stadt","type":"Stadt"},"district":{"key":"12061","name":"Dahme-Spreewald","type":"Landkreis"},"federalState":{"key":"12","name":"Brandenburg"}},{"name":"Mittenwalder Allee","postalCode":"15749","locality":"Mittenwalde","municipality":{"key":"12061332","name":"Mittenwalde, Stadt","type":"Stadt"},"district":{"key":"12061","name":"Dahme-Spreewald","type":"Landkreis"},"federalState":{"key":"12","name":"Brandenburg"}},{"name":"Mittenwalder Aue","postalCode":"15749","locality":"Mittenwalde","municipality":{"key":"12061332","name":"Mittenwalde, Stadt","type":"Stadt"},"district":{"key":"12061","name":"Dahme-Spreewald","type":"Landkreis"},"federalState":{"key":"12","name":"Brandenburg"}},{"name":"Mittenwalder Chaussee","postalCode":"15749","locality":"Mittenwalde","municipality":{"key":"12061332","name":"Mittenwalde, Stadt","type":"Stadt"},"district":{"key":"12061","name":"Dahme-Spreewald","type":"Landkreis"},"federalState":{"key":"12","name":"Brandenburg"}},{"name":"Mittenwalder Str.","postalCode":"15749","locality":"Mittenwalde","municipality":{"key":"12061332","name":"Mittenwalde, Stadt","type":"Stadt"},"district":{"key":"12061","name":"Dahme-Spreewald","type":"Landkreis"},"federalState":{"key":"12","name":"Brandenburg"}},{"name":"Mittenwalder Weg","postalCode":"15749","locality":"Mittenwalde","municipality":{"key":"12061332","name":"Mittenwalde, Stadt","type":"Stadt"},"district":{"key":"12061","name":"Dahme-Spreewald","type":"Landkreis"},"federalState":{"key":"12","name":"Brandenburg"}},{"name":"Motzener Str.","postalCode":"15749","locality":"Mittenwalde","municipality":{"key":"12061332","name":"Mittenwalde, Stadt","type":"Stadt"},"district":{"key":"12061","name":"Dahme-Spreewald","type":"Landkreis"},"federalState":{"key":"12","name":"Brandenburg"}},{"name":"Mühlenweg","postalCode":"15749","locality":"Mittenwalde","municipality":{"key":"12061332","name":"Mittenwalde, Stadt","type":"Stadt"},"district":{"key":"12061","name":"Dahme-Spreewald","type":"Landkreis"},"federalState":{"key":"12","name":"Brandenburg"}},{"name":"Müllerweg","postalCode":"15749","locality":"Mittenwalde","municipality":{"key":"12061332","name":"Mittenwalde, Stadt","type":"Stadt"},"district":{"key":"12061","name":"Dahme-Spreewald","type":"Landkreis"},"federalState":{"key":"12","name":"Brandenburg"}},{"name":"Neue Kastanienallee","postalCode":"15749","locality":"Mittenwalde","municipality":{"key":"12061332","name":"Mittenwalde, Stadt","type":"Stadt"},"district":{"key":"12061","name":"Dahme-Spreewald","type":"Landkreis"},"federalState":{"key":"12","name":"Brandenburg"}},{"name":"Nottestr.","postalCode":"15749","locality":"Mittenwalde","municipality":{"key":"12061332","name":"Mittenwalde, Stadt","type":"Stadt"},"district":{"key":"12061","name":"Dahme-Spreewald","type":"Landkreis"},"federalState":{"key":"12","name":"Brandenburg"}},{"name":"Nuthestr.","postalCode":"15749","locality":"Mittenwalde","municipality":{"key":"12061332","name":"Mittenwalde, Stadt","type":"Stadt"},"district":{"key":"12061","name":"Dahme-Spreewald","type":"Landkreis"},"federalState":{"key":"12","name":"Brandenburg"}},{"name":"Oderlandstr.","postalCode":"15749","locality":"Mittenwalde","municipality":{"key":"12061332","name":"Mittenwalde, Stadt","type":"Stadt"},"district":{"key":"12061","name":"Dahme-Spreewald","type":"Landkreis"},"federalState":{"key":"12","name":"Brandenburg"}},{"name":"Otto-Grotewohl-Str.","postalCode":"15749","locality":"Mittenwalde","municipality":{"key":"12061332","name":"Mittenwalde, Stadt","type":"Stadt"},"district":{"key":"12061","name":"Dahme-Spreewald","type":"Landkreis"},"federalState":{"key":"12","name":"Brandenburg"}},{"name":"Otto-Nuschke-Str.","postalCode":"15749","locality":"Mittenwalde","municipality":{"key":"12061332","name":"Mittenwalde, Stadt","type":"Stadt"},"district":{"key":"12061","name":"Dahme-Spreewald","type":"Landkreis"},"federalState":{"key":"12","name":"Brandenburg"}},{"name":"Pappelallee","postalCode":"15749","locality":"Mittenwalde","municipality":{"key":"12061332","name":"Mittenwalde, Stadt","type":"Stadt"},"district":{"key":"12061","name":"Dahme-Spreewald","type":"Landkreis"},"federalState":{"key":"12","name":"Brandenburg"}},{"name":"Paul-Gerhardt-Str.","postalCode":"15749","locality":"Mittenwalde","municipality":{"key":"12061332","name":"Mittenwalde, Stadt","type":"Stadt"},"district":{"key":"12061","name":"Dahme-Spreewald","type":"Landkreis"},"federalState":{"key":"12","name":"Brandenburg"}},{"name":"Platanenhof","postalCode":"15749","locality":"Mittenwalde","municipality":{"key":"12061332","name":"Mittenwalde, Stadt","type":"Stadt"},"district":{"key":"12061","name":"Dahme-Spreewald","type":"Landkreis"},"federalState":{"key":"12","name":"Brandenburg"}},{"name":"Platanenring","postalCode":"15749","locality":"Mittenwalde","municipality":{"key":"12061332","name":"Mittenwalde, Stadt","type":"Stadt"},"district":{"key":"12061","name":"Dahme-Spreewald","type":"Landkreis"},"federalState":{"key":"12","name":"Brandenburg"}},{"name":"Potsdamer Str.","postalCode":"15749","locality":"Mittenwalde","municipality":{"key":"12061332","name":"Mittenwalde, Stadt","type":"Stadt"},"district":{"key":"12061","name":"Dahme-Spreewald","type":"Landkreis"},"federalState":{"key":"12","name":"Brandenburg"}},{"name":"Quillowstr.","postalCode":"17291","locality":"Nordwestuckermark","municipality":{"key":"12073429","name":"Nordwestuckermark","type":"Kreisangehörige_Gemeinde"},"district":{"key":"12073","name":"Uckermark","type":"Landkreis"},"federalState":{"key":"12","name":"Brandenburg"}},{"name":"Ragower Str.","postalCode":"15749","locality":"Mittenwalde","municipality":{"key":"12061332","name":"Mittenwalde, Stadt","type":"Stadt"},"district":{"key":"12061","name":"Dahme-Spreewald","type":"Landkreis"},"federalState":{"key":"12","name":"Brandenburg"}},{"name":"Rathausstr.","postalCode":"15749","locality":"Mittenwalde","municipality":{"key":"12061332","name":"Mittenwalde, Stadt","type":"Stadt"},"district":{"key":"12061","name":"Dahme-Spreewald","type":"Landkreis"},"federalState":{"key":"12","name":"Brandenburg"}},{"name":"Reiherweg","postalCode":"15749","locality":"Mittenwalde","municipality":{"key":"12061332","name":"Mittenwalde, Stadt","type":"Stadt"},"district":{"key":"12061","name":"Dahme-Spreewald","type":"Landkreis"},"federalState":{"key":"12","name":"Brandenburg"}},{"name":"Rieselstr.","postalCode":"15749","locality":"Mittenwalde","municipality":{"key":"12061332","name":"Mittenwalde, Stadt","type":"Stadt"},"district":{"key":"12061","name":"Dahme-Spreewald","type":"Landkreis"},"federalState":{"key":"12","name":"Brandenburg"}},{"name":"Ringallee","postalCode":"15749","locality":"Mittenwalde","municipality":{"key":"12061332","name":"Mittenwalde, Stadt","type":"Stadt"},"district":{"key":"12061","name":"Dahme-Spreewald","type":"Landkreis"},"federalState":{"key":"12","name":"Brandenburg"}},{"name":"Rotdornallee","postalCode":"15749","locality":"Mittenwalde","municipality":{"key":"12061332","name":"Mittenwalde, Stadt","type":"Stadt"},"district":{"key":"12061","name":"Dahme-Spreewald","type":"Landkreis"},"federalState":{"key":"12","name":"Brandenburg"}},{"name":"Ruppinstr.","postalCode":"15749","locality":"Mittenwalde","municipality":{"key":"12061332","name":"Mittenwalde, Stadt","type":"Stadt"},"district":{"key":"12061","name":"Dahme-Spreewald","type":"Landkreis"},"federalState":{"key":"12","name":"Brandenburg"}},{"name":"Salzmarkt","postalCode":"15749","locality":"Mittenwalde","municipality":{"key":"12061332","name":"Mittenwalde, Stadt","type":"Stadt"},"district":{"key":"12061","name":"Dahme-Spreewald","type":"Landkreis"},"federalState":{"key":"12","name":"Brandenburg"}},{"name":"Schäfereiplatz","postalCode":"15749","locality":"Mittenwalde","municipality":{"key":"12061332","name":"Mittenwalde, Stadt","type":"Stadt"},"district":{"key":"12061","name":"Dahme-Spreewald","type":"Landkreis"},"federalState":{"key":"12","name":"Brandenburg"}},{"name":"Schenkendorfer Chaussee","postalCode":"15749","locality":"Mittenwalde","municipality":{"key":"12061332","name":"Mittenwalde, Stadt","type":"Stadt"},"district":{"key":"12061","name":"Dahme-Spreewald","type":"Landkreis"},"federalState":{"key":"12","name":"Brandenburg"}},{"name":"Scheunenweg","postalCode":"15749","locality":"Mittenwalde","municipality":{"key":"12061332","name":"Mittenwalde, Stadt","type":"Stadt"},"district":{"key":"12061","name":"Dahme-Spreewald","type":"Landkreis"},"federalState":{"key":"12","name":"Brandenburg"}},{"name":"Schulgarten","postalCode":"15749","locality":"Mittenwalde","municipality":{"key":"12061332","name":"Mittenwalde, Stadt","type":"Stadt"},"district":{"key":"12061","name":"Dahme-Spreewald","type":"Landkreis"},"federalState":{"key":"12","name":"Brandenburg"}},{"name":"Schulstr.","postalCode":"15749","locality":"Mittenwalde","municipality":{"key":"12061332","name":"Mittenwalde, Stadt","type":"Stadt"},"district":{"key":"12061","name":"Dahme-Spreewald","type":"Landkreis"},"federalState":{"key":"12","name":"Brandenburg"}},{"name":"Schützenplatz","postalCode":"15749","locality":"Mittenwalde","municipality":{"key":"12061332","name":"Mittenwalde, Stadt","type":"Stadt"},"district":{"key":"12061","name":"Dahme-Spreewald","type":"Landkreis"},"federalState":{"key":"12","name":"Brandenburg"}},{"name":"Schützenstr.","postalCode":"15749","locality":"Mittenwalde","municipality":{"key":"12061332","name":"Mittenwalde, Stadt","type":"Stadt"},"district":{"key":"12061","name":"Dahme-Spreewald","type":"Landkreis"},"federalState":{"key":"12","name":"Brandenburg"}},{"name":"Seebadallee","postalCode":"15749","locality":"Mittenwalde","municipality":{"key":"12061332","name":"Mittenwalde, Stadt","type":"Stadt"},"district":{"key":"12061","name":"Dahme-Spreewald","type":"Landkreis"},"federalState":{"key":"12","name":"Brandenburg"}},{"name":"Seeblick","postalCode":"15749","locality":"Mittenwalde","municipality":{"key":"12061332","name":"Mittenwalde, Stadt","type":"Stadt"},"district":{"key":"12061","name":"Dahme-Spreewald","type":"Landkreis"},"federalState":{"key":"12","name":"Brandenburg"}},{"name":"Seeburg","postalCode":"17268","locality":"Mittenwalde","municipality":{"key":"12073404","name":"Mittenwalde","type":"Kreisangehörige_Gemeinde"},"district":{"key":"12073","name":"Uckermark","type":"Landkreis"},"federalState":{"key":"12","name":"Brandenburg"}},{"name":"Siedlerpfad","postalCode":"15749","locality":"Mittenwalde","municipality":{"key":"12061332","name":"Mittenwalde, Stadt","type":"Stadt"},"district":{"key":"12061","name":"Dahme-Spreewald","type":"Landkreis"},"federalState":{"key":"12","name":"Brandenburg"}},{"name":"Siedlerweg","postalCode":"15749","locality":"Mittenwalde","municipality":{"key":"12061332","name":"Mittenwalde, Stadt","type":"Stadt"},"district":{"key":"12061","name":"Dahme-Spreewald","type":"Landkreis"},"federalState":{"key":"12","name":"Brandenburg"}},{"name":"Siedlung","postalCode":"15749","locality":"Mittenwalde","municipality":{"key":"12061332","name":"Mittenwalde, Stadt","type":"Stadt"},"district":{"key":"12061","name":"Dahme-Spreewald","type":"Landkreis"},"federalState":{"key":"12","name":"Brandenburg"}},{"name":"Siedlungsweg","postalCode":"15749","locality":"Mittenwalde","municipality":{"key":"12061332","name":"Mittenwalde, Stadt","type":"Stadt"},"district":{"key":"12061","name":"Dahme-Spreewald","type":"Landkreis"},"federalState":{"key":"12","name":"Brandenburg"}},{"name":"Sonnenallee","postalCode":"15749","locality":"Mittenwalde","municipality":{"key":"12061332","name":"Mittenwalde, Stadt","type":"Stadt"},"district":{"key":"12061","name":"Dahme-Spreewald","type":"Landkreis"},"federalState":{"key":"12","name":"Brandenburg"}},{"name":"Sonnenweg","postalCode":"15749","locality":"Mittenwalde","municipality":{"key":"12061332","name":"Mittenwalde, Stadt","type":"Stadt"},"district":{"key":"12061","name":"Dahme-Spreewald","type":"Landkreis"},"federalState":{"key":"12","name":"Brandenburg"}},{"name":"Spreelandstr.","postalCode":"15749","locality":"Mittenwalde","municipality":{"key":"12061332","name":"Mittenwalde, Stadt","type":"Stadt"},"district":{"key":"12061","name":"Dahme-Spreewald","type":"Landkreis"},"federalState":{"key":"12","name":"Brandenburg"}},{"name":"Stadthausplatz","postalCode":"15749","locality":"Mittenwalde","municipality":{"key":"12061332","name":"Mittenwalde, Stadt","type":"Stadt"},"district":{"key":"12061","name":"Dahme-Spreewald","type":"Landkreis"},"federalState":{"key":"12","name":"Brandenburg"}},{"name":"St. Moritz-Kirchstr.","postalCode":"15749","locality":"Mittenwalde","municipality":{"key":"12061332","name":"Mittenwalde, Stadt","type":"Stadt"},"district":{"key":"12061","name":"Dahme-Spreewald","type":"Landkreis"},"federalState":{"key":"12","name":"Brandenburg"}},{"name":"Storkower Str.","postalCode":"15749","locality":"Mittenwalde","municipality":{"key":"12061332","name":"Mittenwalde, Stadt","type":"Stadt"},"district":{"key":"12061","name":"Dahme-Spreewald","type":"Landkreis"},"federalState":{"key":"12","name":"Brandenburg"}},{"name":"Str. der Einheit","postalCode":"15749","locality":"Mittenwalde","municipality":{"key":"12061332","name":"Mittenwalde, Stadt","type":"Stadt"},"district":{"key":"12061","name":"Dahme-Spreewald","type":"Landkreis"},"federalState":{"key":"12","name":"Brandenburg"}},{"name":"Telzer Siedlung","postalCode":"15749","locality":"Mittenwalde","municipality":{"key":"12061332","name":"Mittenwalde, Stadt","type":"Stadt"},"district":{"key":"12061","name":"Dahme-Spreewald","type":"Landkreis"},"federalState":{"key":"12","name":"Brandenburg"}},{"name":"Thomas-Müntzer-Str.","postalCode":"15749","locality":"Mittenwalde","municipality":{"key":"12061332","name":"Mittenwalde, Stadt","type":"Stadt"},"district":{"key":"12061","name":"Dahme-Spreewald","type":"Landkreis"},"federalState":{"key":"12","name":"Brandenburg"}},{"name":"Töpchiner Str.","postalCode":"15749","locality":"Mittenwalde","municipality":{"key":"12061332","name":"Mittenwalde, Stadt","type":"Stadt"},"district":{"key":"12061","name":"Dahme-Spreewald","type":"Landkreis"},"federalState":{"key":"12","name":"Brandenburg"}},{"name":"Trappenweg","postalCode":"15749","locality":"Mittenwalde","municipality":{"key":"12061332","name":"Mittenwalde, Stadt","type":"Stadt"},"district":{"key":"12061","name":"Dahme-Spreewald","type":"Landkreis"},"federalState":{"key":"12","name":"Brandenburg"}},{"name":"Turudenweg","postalCode":"15749","locality":"Mittenwalde","municipality":{"key":"12061332","name":"Mittenwalde, Stadt","type":"Stadt"},"district":{"key":"12061","name":"Dahme-Spreewald","type":"Landkreis"},"federalState":{"key":"12","name":"Brandenburg"}},{"name":"Uckerblick","postalCode":"17291","locality":"Nordwestuckermark","municipality":{"key":"12073429","name":"Nordwestuckermark","type":"Kreisangehörige_Gemeinde"},"district":{"key":"12073","name":"Uckermark","type":"Landkreis"},"federalState":{"key":"12","name":"Brandenburg"}},{"name":"Uferzone","postalCode":"17291","locality":"Nordwestuckermark","municipality":{"key":"12073429","name":"Nordwestuckermark","type":"Kreisangehörige_Gemeinde"},"district":{"key":"12073","name":"Uckermark","type":"Landkreis"},"federalState":{"key":"12","name":"Brandenburg"}},{"name":"Unkengrund","postalCode":"17291","locality":"Nordwestuckermark","municipality":{"key":"12073429","name":"Nordwestuckermark","type":"Kreisangehörige_Gemeinde"},"district":{"key":"12073","name":"Uckermark","type":"Landkreis"},"federalState":{"key":"12","name":"Brandenburg"}},{"name":"Unner Enn","postalCode":"17291","locality":"Nordwestuckermark","municipality":{"key":"12073429","name":"Nordwestuckermark","type":"Kreisangehörige_Gemeinde"},"district":{"key":"12073","name":"Uckermark","type":"Landkreis"},"federalState":{"key":"12","name":"Brandenburg"}},{"name":"Verlängerte Kallinchener Str.","postalCode":"15749","locality":"Mittenwalde","municipality":{"key":"12061332","name":"Mittenwalde, Stadt","type":"Stadt"},"district":{"key":"12061","name":"Dahme-Spreewald","type":"Landkreis"},"federalState":{"key":"12","name":"Brandenburg"}},{"name":"Vogelsang","postalCode":"15749","locality":"Mittenwalde","municipality":{"key":"12061332","name":"Mittenwalde, Stadt","type":"Stadt"},"district":{"key":"12061","name":"Dahme-Spreewald","type":"Landkreis"},"federalState":{"key":"12","name":"Brandenburg"}},{"name":"Waldecker Str.","postalCode":"15749","locality":"Mittenwalde","municipality":{"key":"12061332","name":"Mittenwalde, Stadt","type":"Stadt"},"district":{"key":"12061","name":"Dahme-Spreewald","type":"Landkreis"},"federalState":{"key":"12","name":"Brandenburg"}},{"name":"Waldring","postalCode":"15749","locality":"Mittenwalde","municipality":{"key":"12061332","name":"Mittenwalde, Stadt","type":"Stadt"},"district":{"key":"12061","name":"Dahme-Spreewald","type":"Landkreis"},"federalState":{"key":"12","name":"Brandenburg"}},{"name":"Waldstr.","postalCode":"15749","locality":"Mittenwalde","municipality":{"key":"12061332","name":"Mittenwalde, Stadt","type":"Stadt"},"district":{"key":"12061","name":"Dahme-Spreewald","type":"Landkreis"},"federalState":{"key":"12","name":"Brandenburg"}},{"name":"Waldweg","postalCode":"15749","locality":"Mittenwalde","municipality":{"key":"12061332","name":"Mittenwalde, Stadt","type":"Stadt"},"district":{"key":"12061","name":"Dahme-Spreewald","type":"Landkreis"},"federalState":{"key":"12","name":"Brandenburg"}},{"name":"Weg zum Mühlenfließ","postalCode":"15749","locality":"Mittenwalde","municipality":{"key":"12061332","name":"Mittenwalde, Stadt","type":"Stadt"},"district":{"key":"12061","name":"Dahme-Spreewald","type":"Landkreis"},"federalState":{"key":"12","name":"Brandenburg"}},{"name":"Weg zum Urlauberdorf","postalCode":"15749","locality":"Mittenwalde","municipality":{"key":"12061332","name":"Mittenwalde, Stadt","type":"Stadt"},"district":{"key":"12061","name":"Dahme-Spreewald","type":"Landkreis"},"federalState":{"key":"12","name":"Brandenburg"}},{"name":"Weg zum Weinberg","postalCode":"15749","locality":"Mittenwalde","municipality":{"key":"12061332","name":"Mittenwalde, Stadt","type":"Stadt"},"district":{"key":"12061","name":"Dahme-Spreewald","type":"Landkreis"},"federalState":{"key":"12","name":"Brandenburg"}},{"name":"Weißdornallee","postalCode":"15749","locality":"Mittenwalde","municipality":{"key":"12061332","name":"Mittenwalde, Stadt","type":"Stadt"},"district":{"key":"12061","name":"Dahme-Spreewald","type":"Landkreis"},"federalState":{"key":"12","name":"Brandenburg"}},{"name":"Weizenweg","postalCode":"15749","locality":"Mittenwalde","municipality":{"key":"12061332","name":"Mittenwalde, Stadt","type":"Stadt"},"district":{"key":"12061","name":"Dahme-Spreewald","type":"Landkreis"},"federalState":{"key":"12","name":"Brandenburg"}},{"name":"Wiesensteg","postalCode":"15749","locality":"Mittenwalde","municipality":{"key":"12061332","name":"Mittenwalde, Stadt","type":"Stadt"},"district":{"key":"12061","name":"Dahme-Spreewald","type":"Landkreis"},"federalState":{"key":"12","name":"Brandenburg"}},{"name":"Wiesenweg","postalCode":"15749","locality":"Mittenwalde","municipality":{"key":"12061332","name":"Mittenwalde, Stadt","type":"Stadt"},"district":{"key":"12061","name":"Dahme-Spreewald","type":"Landkreis"},"federalState":{"key":"12","name":"Brandenburg"}},{"name":"Wilhelm-Pieck-Str.","postalCode":"15749","locality":"Mittenwalde","municipality":{"key":"12061332","name":"Mittenwalde, Stadt","type":"Stadt"},"district":{"key":"12061","name":"Dahme-Spreewald","type":"Landkreis"},"federalState":{"key":"12","name":"Brandenburg"}},{"name":"Wünsdorfer Str.","postalCode":"15749","locality":"Mittenwalde","municipality":{"key":"12061332","name":"Mittenwalde, Stadt","type":"Stadt"},"district":{"key":"12061","name":"Dahme-Spreewald","type":"Landkreis"},"federalState":{"key":"12","name":"Brandenburg"}},{"name":"Yorckstr.","postalCode":"15749","locality":"Mittenwalde","municipality":{"key":"12061332","name":"Mittenwalde, Stadt","type":"Stadt"},"district":{"key":"12061","name":"Dahme-Spreewald","type":"Landkreis"},"federalState":{"key":"12","name":"Brandenburg"}},{"name":"Zeisigweg","postalCode":"15749","locality":"Mittenwalde","municipality":{"key":"12061332","name":"Mittenwalde, Stadt","type":"Stadt"},"district":{"key":"12061","name":"Dahme-Spreewald","type":"Landkreis"},"federalState":{"key":"12","name":"Brandenburg"}},{"name":"Zeppelinring","postalCode":"15749","locality":"Mittenwalde","municipality":{"key":"12061332","name":"Mittenwalde, Stadt","type":"Stadt"},"district":{"key":"12061","name":"Dahme-Spreewald","type":"Landkreis"},"federalState":{"key":"12","name":"Brandenburg"}},{"name":"Ziegelweg","postalCode":"15749","locality":"Mittenwalde","municipality":{"key":"12061332","name":"Mittenwalde, Stadt","type":"Stadt"},"district":{"key":"12061","name":"Dahme-Spreewald","type":"Landkreis"},"federalState":{"key":"12","name":"Brandenburg"}},{"name":"Zossener Chaussee","postalCode":"15749","locality":"Mittenwalde","municipality":{"key":"12061332","name":"Mittenwalde, Stadt","type":"Stadt"},"district":{"key":"12061","name":"Dahme-Spreewald","type":"Landkreis"},"federalState":{"key":"12","name":"Brandenburg"}},{"name":"Zossener Str.","postalCode":"15749","locality":"Mittenwalde","municipality":{"key":"12061332","name":"Mittenwalde, Stadt","type":"Stadt"},"district":{"key":"12061","name":"Dahme-Spreewald","type":"Landkreis"},"federalState":{"key":"12","name":"Brandenburg"}},{"name":"Zossener Weg","postalCode":"15749","locality":"Mittenwalde","municipality":{"key":"12061332","name":"Mittenwalde, Stadt","type":"Stadt"},"district":{"key":"12061","name":"Dahme-Spreewald","type":"Landkreis"},"federalState":{"key":"12","name":"Brandenburg"}},{"name":"Zu den Scheunen","postalCode":"15749","locality":"Mittenwalde","municipality":{"key":"12061332","name":"Mittenwalde, Stadt","type":"Stadt"},"district":{"key":"12061","name":"Dahme-Spreewald","type":"Landkreis"},"federalState":{"key":"12","name":"Brandenburg"}},{"name":"Zülowkanal","postalCode":"15749","locality":"Mittenwalde","municipality":{"key":"12061332","name":"Mittenwalde, Stadt","type":"Stadt"},"district":{"key":"12061","name":"Dahme-Spreewald","type":"Landkreis"},"federalState":{"key":"12","name":"Brandenburg"}},{"name":"Zülowstr.","postalCode":"15749","locality":"Mittenwalde","municipality":{"key":"12061332","name":"Mittenwalde, Stadt","type":"Stadt"},"district":{"key":"12061","name":"Dahme-Spreewald","type":"Landkreis"},"federalState":{"key":"12","name":"Brandenburg"}},{"name":"Zum Forsthaus","postalCode":"15749","locality":"Mittenwalde","municipality":{"key":"12061332","name":"Mittenwalde, Stadt","type":"Stadt"},"district":{"key":"12061","name":"Dahme-Spreewald","type":"Landkreis"},"federalState":{"key":"12","name":"Brandenburg"}},{"name":"Zum Hang","postalCode":"15749","locality":"Mittenwalde","municipality":{"key":"12061332","name":"Mittenwalde, Stadt","type":"Stadt"},"district":{"key":"12061","name":"Dahme-Spreewald","type":"Landkreis"},"federalState":{"key":"12","name":"Brandenburg"}},{"name":"Zum Mühlenberg","postalCode":"15749","locality":"Mittenwalde","municipality":{"key":"12061332","name":"Mittenwalde, Stadt","type":"Stadt"},"district":{"key":"12061","name":"Dahme-Spreewald","type":"Landkreis"},"federalState":{"key":"12","name":"Brandenburg"}},{"name":"Zum Stegepfuhl","postalCode":"15749","locality":"Mittenwalde","municipality":{"key":"12061332","name":"Mittenwalde, Stadt","type":"Stadt"},"district":{"key":"12061","name":"Dahme-Spreewald","type":"Landkreis"},"federalState":{"key":"12","name":"Brandenburg"}},{"name":"Zur Kohlengrube","postalCode":"15749","locality":"Mittenwalde","municipality":{"key":"12061332","name":"Mittenwalde, Stadt","type":"Stadt"},"district":{"key":"12061","name":"Dahme-Spreewald","type":"Landkreis"},"federalState":{"key":"12","name":"Brandenburg"}},]