[{"key":"10151223","name":"A3","postalCode":"8805","locality":"Richterswil","commune":{"key":"138","name":"Richterswil","shortName":"Richterswil"},"district":{"key":"106","name":"Bezirk Horgen"},"canton":{"key":"1","code":"ZH","name":"Zürich"},"status":"Real"},{"key":"10181924","name":"Adlergass","postalCode":"8805","locality":"Richterswil","commune":{"key":"138","name":"Richterswil","shortName":"Richterswil"},"district":{"key":"106","name":"Bezirk Horgen"},"canton":{"key":"1","code":"ZH","name":"Zürich"},"status":"Real"},{"key":"10002996","name":"Alte Landstrasse","postalCode":"8805","locality":"Richterswil","commune":{"key":"138","name":"Richterswil","shortName":"Richterswil"},"district":{"key":"106","name":"Bezirk Horgen"},"canton":{"key":"1","code":"ZH","name":"Zürich"},"status":"Real"},{"key":"10168359","name":"Alte Mülibachstrasse","postalCode":"8805","locality":"Richterswil","commune":{"key":"138","name":"Richterswil","shortName":"Richterswil"},"district":{"key":"106","name":"Bezirk Horgen"},"canton":{"key":"1","code":"ZH","name":"Zürich"},"status":"Real"},{"key":"10245100","name":"Alter Landweg","postalCode":"8805","locality":"Richterswil","commune":{"key":"138","name":"Richterswil","shortName":"Richterswil"},"district":{"key":"106","name":"Bezirk Horgen"},"canton":{"key":"1","code":"ZH","name":"Zürich"},"status":"Real"},{"key":"10099189","name":"Alte Wollerauerstrasse","postalCode":"8805","locality":"Richterswil","commune":{"key":"138","name":"Richterswil","shortName":"Richterswil"},"district":{"key":"106","name":"Bezirk Horgen"},"canton":{"key":"1","code":"ZH","name":"Zürich"},"status":"Real"},{"key":"10066989","name":"Althus","postalCode":"8805","locality":"Richterswil","commune":{"key":"138","name":"Richterswil","shortName":"Richterswil"},"district":{"key":"106","name":"Bezirk Horgen"},"canton":{"key":"1","code":"ZH","name":"Zürich"},"status":"Real"},{"key":"10165362","name":"Altschloss-Allee","postalCode":"8805","locality":"Richterswil","commune":{"key":"138","name":"Richterswil","shortName":"Richterswil"},"district":{"key":"106","name":"Bezirk Horgen"},"canton":{"key":"1","code":"ZH","name":"Zürich"},"status":"Real"},{"key":"10076134","name":"Altschlossstrasse","postalCode":"8805","locality":"Richterswil","commune":{"key":"138","name":"Richterswil","shortName":"Richterswil"},"district":{"key":"106","name":"Bezirk Horgen"},"canton":{"key":"1","code":"ZH","name":"Zürich"},"status":"Real"},{"key":"10172297","name":"Altschlossweg","postalCode":"8805","locality":"Richterswil","commune":{"key":"138","name":"Richterswil","shortName":"Richterswil"},"district":{"key":"106","name":"Bezirk Horgen"},"canton":{"key":"1","code":"ZH","name":"Zürich"},"status":"Real"},{"key":"10002997","name":"Am Bächli","postalCode":"8805","locality":"Richterswil","commune":{"key":"138","name":"Richterswil","shortName":"Richterswil"},"district":{"key":"106","name":"Bezirk Horgen"},"canton":{"key":"1","code":"ZH","name":"Zürich"},"status":"Real"},{"key":"10173806","name":"Am Neuhusbächli","postalCode":"8805","locality":"Richterswil","commune":{"key":"138","name":"Richterswil","shortName":"Richterswil"},"district":{"key":"106","name":"Bezirk Horgen"},"canton":{"key":"1","code":"ZH","name":"Zürich"},"status":"Real"},{"key":"10054475","name":"Bächlistrasse","postalCode":"8805","locality":"Richterswil","commune":{"key":"138","name":"Richterswil","shortName":"Richterswil"},"district":{"key":"106","name":"Bezirk Horgen"},"canton":{"key":"1","code":"ZH","name":"Zürich"},"status":"Real"},{"key":"10147357","name":"Bachtelblick","postalCode":"8805","locality":"Richterswil","commune":{"key":"138","name":"Richterswil","shortName":"Richterswil"},"district":{"key":"106","name":"Bezirk Horgen"},"canton":{"key":"1","code":"ZH","name":"Zürich"},"status":"Real"},{"key":"10066990","name":"Bachtelstrasse","postalCode":"8805","locality":"Richterswil","commune":{"key":"138","name":"Richterswil","shortName":"Richterswil"},"district":{"key":"106","name":"Bezirk Horgen"},"canton":{"key":"1","code":"ZH","name":"Zürich"},"status":"Real"},{"key":"10151240","name":"Bahnhofstrasse","postalCode":"8805","locality":"Richterswil","commune":{"key":"138","name":"Richterswil","shortName":"Richterswil"},"district":{"key":"106","name":"Bezirk Horgen"},"canton":{"key":"1","code":"ZH","name":"Zürich"},"status":"Real"},{"key":"10002998","name":"Bergstrasse","postalCode":"8805","locality":"Richterswil","commune":{"key":"138","name":"Richterswil","shortName":"Richterswil"},"district":{"key":"106","name":"Bezirk Horgen"},"canton":{"key":"1","code":"ZH","name":"Zürich"},"status":"Real"},{"key":"10002999","name":"Bodenstrasse","postalCode":"8805","locality":"Richterswil","commune":{"key":"138","name":"Richterswil","shortName":"Richterswil"},"district":{"key":"106","name":"Bezirk Horgen"},"canton":{"key":"1","code":"ZH","name":"Zürich"},"status":"Real"},{"key":"10054474","name":"Breitenstrasse","postalCode":"8805","locality":"Richterswil","commune":{"key":"138","name":"Richterswil","shortName":"Richterswil"},"district":{"key":"106","name":"Bezirk Horgen"},"canton":{"key":"1","code":"ZH","name":"Zürich"},"status":"Real"},{"key":"10200108","name":"Brunnenhofstrasse","postalCode":"8805","locality":"Richterswil","commune":{"key":"138","name":"Richterswil","shortName":"Richterswil"},"district":{"key":"106","name":"Bezirk Horgen"},"canton":{"key":"1","code":"ZH","name":"Zürich"},"status":"Real"},{"key":"10076135","name":"Buechlenweg","postalCode":"8805","locality":"Richterswil","commune":{"key":"138","name":"Richterswil","shortName":"Richterswil"},"district":{"key":"106","name":"Bezirk Horgen"},"canton":{"key":"1","code":"ZH","name":"Zürich"},"status":"Real"},{"key":"10125645","name":"Burghaldenstrasse","postalCode":"8805","locality":"Richterswil","commune":{"key":"138","name":"Richterswil","shortName":"Richterswil"},"district":{"key":"106","name":"Bezirk Horgen"},"canton":{"key":"1","code":"ZH","name":"Zürich"},"status":"Real"},{"key":"10003000","name":"Bürgliweg","postalCode":"8805","locality":"Richterswil","commune":{"key":"138","name":"Richterswil","shortName":"Richterswil"},"district":{"key":"106","name":"Bezirk Horgen"},"canton":{"key":"1","code":"ZH","name":"Zürich"},"status":"Real"},{"key":"10200109","name":"Burgstrasse","postalCode":"8805","locality":"Richterswil","commune":{"key":"138","name":"Richterswil","shortName":"Richterswil"},"district":{"key":"106","name":"Bezirk Horgen"},"canton":{"key":"1","code":"ZH","name":"Zürich"},"status":"Real"},{"key":"10151225","name":"Burgweg","postalCode":"8805","locality":"Richterswil","commune":{"key":"138","name":"Richterswil","shortName":"Richterswil"},"district":{"key":"106","name":"Bezirk Horgen"},"canton":{"key":"1","code":"ZH","name":"Zürich"},"status":"Real"},{"key":"10066991","name":"Chalchbüel","postalCode":"8805","locality":"Richterswil","commune":{"key":"138","name":"Richterswil","shortName":"Richterswil"},"district":{"key":"106","name":"Bezirk Horgen"},"canton":{"key":"1","code":"ZH","name":"Zürich"},"status":"Real"},{"key":"10076136","name":"Chrummbächliweg","postalCode":"8805","locality":"Richterswil","commune":{"key":"138","name":"Richterswil","shortName":"Richterswil"},"district":{"key":"106","name":"Bezirk Horgen"},"canton":{"key":"1","code":"ZH","name":"Zürich"},"status":"Real"},{"key":"10003001","name":"Chrüzweg","postalCode":"8805","locality":"Richterswil","commune":{"key":"138","name":"Richterswil","shortName":"Richterswil"},"district":{"key":"106","name":"Bezirk Horgen"},"canton":{"key":"1","code":"ZH","name":"Zürich"},"status":"Real"},{"key":"10109736","name":"Chüngengass","postalCode":"8805","locality":"Richterswil","commune":{"key":"138","name":"Richterswil","shortName":"Richterswil"},"district":{"key":"106","name":"Bezirk Horgen"},"canton":{"key":"1","code":"ZH","name":"Zürich"},"status":"Real"},{"key":"10175573","name":"Dorfbachstrasse","postalCode":"8805","locality":"Richterswil","commune":{"key":"138","name":"Richterswil","shortName":"Richterswil"},"district":{"key":"106","name":"Bezirk Horgen"},"canton":{"key":"1","code":"ZH","name":"Zürich"},"status":"Real"},{"key":"10108445","name":"Dorfstrasse","postalCode":"8805","locality":"Richterswil","commune":{"key":"138","name":"Richterswil","shortName":"Richterswil"},"district":{"key":"106","name":"Bezirk Horgen"},"canton":{"key":"1","code":"ZH","name":"Zürich"},"status":"Real"},{"key":"10151228","name":"Einsiedlerstrasse","postalCode":"8805","locality":"Richterswil","commune":{"key":"138","name":"Richterswil","shortName":"Richterswil"},"district":{"key":"106","name":"Bezirk Horgen"},"canton":{"key":"1","code":"ZH","name":"Zürich"},"status":"Real"},{"key":"10105398","name":"Erlenstrasse","postalCode":"8805","locality":"Richterswil","commune":{"key":"138","name":"Richterswil","shortName":"Richterswil"},"district":{"key":"106","name":"Bezirk Horgen"},"canton":{"key":"1","code":"ZH","name":"Zürich"},"status":"Real"},{"key":"10054476","name":"Etzelstrasse","postalCode":"8805","locality":"Richterswil","commune":{"key":"138","name":"Richterswil","shortName":"Richterswil"},"district":{"key":"106","name":"Bezirk Horgen"},"canton":{"key":"1","code":"ZH","name":"Zürich"},"status":"Real"},{"key":"10003002","name":"Farbweg","postalCode":"8805","locality":"Richterswil","commune":{"key":"138","name":"Richterswil","shortName":"Richterswil"},"district":{"key":"106","name":"Bezirk Horgen"},"canton":{"key":"1","code":"ZH","name":"Zürich"},"status":"Real"},{"key":"10117563","name":"Feldstrasse","postalCode":"8805","locality":"Richterswil","commune":{"key":"138","name":"Richterswil","shortName":"Richterswil"},"district":{"key":"106","name":"Bezirk Horgen"},"canton":{"key":"1","code":"ZH","name":"Zürich"},"status":"Real"},{"key":"10076137","name":"Försterstrasse","postalCode":"8805","locality":"Richterswil","commune":{"key":"138","name":"Richterswil","shortName":"Richterswil"},"district":{"key":"106","name":"Bezirk Horgen"},"canton":{"key":"1","code":"ZH","name":"Zürich"},"status":"Real"},{"key":"10003003","name":"Freiestrasse","postalCode":"8805","locality":"Richterswil","commune":{"key":"138","name":"Richterswil","shortName":"Richterswil"},"district":{"key":"106","name":"Bezirk Horgen"},"canton":{"key":"1","code":"ZH","name":"Zürich"},"status":"Real"},{"key":"10054477","name":"Freiherrenstrasse","postalCode":"8805","locality":"Richterswil","commune":{"key":"138","name":"Richterswil","shortName":"Richterswil"},"district":{"key":"106","name":"Bezirk Horgen"},"canton":{"key":"1","code":"ZH","name":"Zürich"},"status":"Real"},{"key":"10152182","name":"Freihofweg","postalCode":"8805","locality":"Richterswil","commune":{"key":"138","name":"Richterswil","shortName":"Richterswil"},"district":{"key":"106","name":"Bezirk Horgen"},"canton":{"key":"1","code":"ZH","name":"Zürich"},"status":"Real"},{"key":"10141936","name":"Friedaustrasse","postalCode":"8805","locality":"Richterswil","commune":{"key":"138","name":"Richterswil","shortName":"Richterswil"},"district":{"key":"106","name":"Bezirk Horgen"},"canton":{"key":"1","code":"ZH","name":"Zürich"},"status":"Real"},{"key":"10003004","name":"Friedenstrasse","postalCode":"8805","locality":"Richterswil","commune":{"key":"138","name":"Richterswil","shortName":"Richterswil"},"district":{"key":"106","name":"Bezirk Horgen"},"canton":{"key":"1","code":"ZH","name":"Zürich"},"status":"Real"},{"key":"10099190","name":"Gartenstrasse","postalCode":"8805","locality":"Richterswil","commune":{"key":"138","name":"Richterswil","shortName":"Richterswil"},"district":{"key":"106","name":"Bezirk Horgen"},"canton":{"key":"1","code":"ZH","name":"Zürich"},"status":"Real"},{"key":"10003006","name":"Gerbestrasse","postalCode":"8805","locality":"Richterswil","commune":{"key":"138","name":"Richterswil","shortName":"Richterswil"},"district":{"key":"106","name":"Bezirk Horgen"},"canton":{"key":"1","code":"ZH","name":"Zürich"},"status":"Real"},{"key":"10003007","name":"Glarnerstrasse","postalCode":"8805","locality":"Richterswil","commune":{"key":"138","name":"Richterswil","shortName":"Richterswil"},"district":{"key":"106","name":"Bezirk Horgen"},"canton":{"key":"1","code":"ZH","name":"Zürich"},"status":"Real"},{"key":"10148334","name":"Glärnischsteig","postalCode":"8805","locality":"Richterswil","commune":{"key":"138","name":"Richterswil","shortName":"Richterswil"},"district":{"key":"106","name":"Bezirk Horgen"},"canton":{"key":"1","code":"ZH","name":"Zürich"},"status":"Real"},{"key":"10054478","name":"Glärnischstrasse","postalCode":"8805","locality":"Richterswil","commune":{"key":"138","name":"Richterswil","shortName":"Richterswil"},"district":{"key":"106","name":"Bezirk Horgen"},"canton":{"key":"1","code":"ZH","name":"Zürich"},"status":"Real"},{"key":"10106613","name":"Göldisteig","postalCode":"8805","locality":"Richterswil","commune":{"key":"138","name":"Richterswil","shortName":"Richterswil"},"district":{"key":"106","name":"Bezirk Horgen"},"canton":{"key":"1","code":"ZH","name":"Zürich"},"status":"Real"},{"key":"10003008","name":"Göldistrasse","postalCode":"8805","locality":"Richterswil","commune":{"key":"138","name":"Richterswil","shortName":"Richterswil"},"district":{"key":"106","name":"Bezirk Horgen"},"canton":{"key":"1","code":"ZH","name":"Zürich"},"status":"Real"},{"key":"10151230","name":"Gölditobelweg","postalCode":"8805","locality":"Richterswil","commune":{"key":"138","name":"Richterswil","shortName":"Richterswil"},"district":{"key":"106","name":"Bezirk Horgen"},"canton":{"key":"1","code":"ZH","name":"Zürich"},"status":"Real"},{"key":"10066994","name":"Grenzbachstrasse","postalCode":"8805","locality":"Richterswil","commune":{"key":"138","name":"Richterswil","shortName":"Richterswil"},"district":{"key":"106","name":"Bezirk Horgen"},"canton":{"key":"1","code":"ZH","name":"Zürich"},"status":"Real"},{"key":"10109737","name":"Grüt","postalCode":"8805","locality":"Richterswil","commune":{"key":"138","name":"Richterswil","shortName":"Richterswil"},"district":{"key":"106","name":"Bezirk Horgen"},"canton":{"key":"1","code":"ZH","name":"Zürich"},"status":"Real"},{"key":"10152184","name":"Grütliweg","postalCode":"8805","locality":"Richterswil","commune":{"key":"138","name":"Richterswil","shortName":"Richterswil"},"district":{"key":"106","name":"Bezirk Horgen"},"canton":{"key":"1","code":"ZH","name":"Zürich"},"status":"Real"},{"key":"10076138","name":"Grütrain","postalCode":"8805","locality":"Richterswil","commune":{"key":"138","name":"Richterswil","shortName":"Richterswil"},"district":{"key":"106","name":"Bezirk Horgen"},"canton":{"key":"1","code":"ZH","name":"Zürich"},"status":"Real"},{"key":"10151231","name":"Gummerrainweg","postalCode":"8805","locality":"Richterswil","commune":{"key":"138","name":"Richterswil","shortName":"Richterswil"},"district":{"key":"106","name":"Bezirk Horgen"},"canton":{"key":"1","code":"ZH","name":"Zürich"},"status":"Real"},{"key":"10003009","name":"Haberächerliweg","postalCode":"8805","locality":"Richterswil","commune":{"key":"138","name":"Richterswil","shortName":"Richterswil"},"district":{"key":"106","name":"Bezirk Horgen"},"canton":{"key":"1","code":"ZH","name":"Zürich"},"status":"Real"},{"key":"10054479","name":"Hafengüterstrasse","postalCode":"8805","locality":"Richterswil","commune":{"key":"138","name":"Richterswil","shortName":"Richterswil"},"district":{"key":"106","name":"Bezirk Horgen"},"canton":{"key":"1","code":"ZH","name":"Zürich"},"status":"Real"},{"key":"10180227","name":"Hirtenstallweg","postalCode":"8805","locality":"Richterswil","commune":{"key":"138","name":"Richterswil","shortName":"Richterswil"},"district":{"key":"106","name":"Bezirk Horgen"},"canton":{"key":"1","code":"ZH","name":"Zürich"},"status":"Real"},{"key":"10076139","name":"Hirzen","postalCode":"8805","locality":"Richterswil","commune":{"key":"138","name":"Richterswil","shortName":"Richterswil"},"district":{"key":"106","name":"Bezirk Horgen"},"canton":{"key":"1","code":"ZH","name":"Zürich"},"status":"Real"},{"key":"10109323","name":"Hirzlistrasse","postalCode":"8805","locality":"Richterswil","commune":{"key":"138","name":"Richterswil","shortName":"Richterswil"},"district":{"key":"106","name":"Bezirk Horgen"},"canton":{"key":"1","code":"ZH","name":"Zürich"},"status":"Real"},{"key":"10152185","name":"Hofweg","postalCode":"8805","locality":"Richterswil","commune":{"key":"138","name":"Richterswil","shortName":"Richterswil"},"district":{"key":"106","name":"Bezirk Horgen"},"canton":{"key":"1","code":"ZH","name":"Zürich"},"status":"Real"},{"key":"10003010","name":"Hornstrasse","postalCode":"8805","locality":"Richterswil","commune":{"key":"138","name":"Richterswil","shortName":"Richterswil"},"district":{"key":"106","name":"Bezirk Horgen"},"canton":{"key":"1","code":"ZH","name":"Zürich"},"status":"Real"},{"key":"10076140","name":"Hotzestrasse","postalCode":"8805","locality":"Richterswil","commune":{"key":"138","name":"Richterswil","shortName":"Richterswil"},"district":{"key":"106","name":"Bezirk Horgen"},"canton":{"key":"1","code":"ZH","name":"Zürich"},"status":"Real"},{"key":"10200110","name":"Im Chratz","postalCode":"8805","locality":"Richterswil","commune":{"key":"138","name":"Richterswil","shortName":"Richterswil"},"district":{"key":"106","name":"Bezirk Horgen"},"canton":{"key":"1","code":"ZH","name":"Zürich"},"status":"Real"},{"key":"10003011","name":"Im Chrummbächli","postalCode":"8805","locality":"Richterswil","commune":{"key":"138","name":"Richterswil","shortName":"Richterswil"},"district":{"key":"106","name":"Bezirk Horgen"},"canton":{"key":"1","code":"ZH","name":"Zürich"},"status":"Real"},{"key":"10066995","name":"Im Grüt","postalCode":"8805","locality":"Richterswil","commune":{"key":"138","name":"Richterswil","shortName":"Richterswil"},"district":{"key":"106","name":"Bezirk Horgen"},"canton":{"key":"1","code":"ZH","name":"Zürich"},"status":"Real"},{"key":"10003012","name":"Im Hirtenstall","postalCode":"8805","locality":"Richterswil","commune":{"key":"138","name":"Richterswil","shortName":"Richterswil"},"district":{"key":"106","name":"Bezirk Horgen"},"canton":{"key":"1","code":"ZH","name":"Zürich"},"status":"Real"},{"key":"10114446","name":"Im Langacher","postalCode":"8805","locality":"Richterswil","commune":{"key":"138","name":"Richterswil","shortName":"Richterswil"},"district":{"key":"106","name":"Bezirk Horgen"},"canton":{"key":"1","code":"ZH","name":"Zürich"},"status":"Real"},{"key":"10076141","name":"Im Leemann","postalCode":"8805","locality":"Richterswil","commune":{"key":"138","name":"Richterswil","shortName":"Richterswil"},"district":{"key":"106","name":"Bezirk Horgen"},"canton":{"key":"1","code":"ZH","name":"Zürich"},"status":"Real"},{"key":"10108446","name":"Im Wisli","postalCode":"8805","locality":"Richterswil","commune":{"key":"138","name":"Richterswil","shortName":"Richterswil"},"district":{"key":"106","name":"Bezirk Horgen"},"canton":{"key":"1","code":"ZH","name":"Zürich"},"status":"Real"},{"key":"10200111","name":"Johannitersteig","postalCode":"8805","locality":"Richterswil","commune":{"key":"138","name":"Richterswil","shortName":"Richterswil"},"district":{"key":"106","name":"Bezirk Horgen"},"canton":{"key":"1","code":"ZH","name":"Zürich"},"status":"Real"},{"key":"10125646","name":"Johanniterstrasse","postalCode":"8805","locality":"Richterswil","commune":{"key":"138","name":"Richterswil","shortName":"Richterswil"},"district":{"key":"106","name":"Bezirk Horgen"},"canton":{"key":"1","code":"ZH","name":"Zürich"},"status":"Real"},{"key":"10066996","name":"Juchmattstrasse","postalCode":"8805","locality":"Richterswil","commune":{"key":"138","name":"Richterswil","shortName":"Richterswil"},"district":{"key":"106","name":"Bezirk Horgen"},"canton":{"key":"1","code":"ZH","name":"Zürich"},"status":"Real"},{"key":"10099191","name":"Kirchstrasse","postalCode":"8805","locality":"Richterswil","commune":{"key":"138","name":"Richterswil","shortName":"Richterswil"},"district":{"key":"106","name":"Bezirk Horgen"},"canton":{"key":"1","code":"ZH","name":"Zürich"},"status":"Real"},{"key":"10119041","name":"Kirchweg","postalCode":"8805","locality":"Richterswil","commune":{"key":"138","name":"Richterswil","shortName":"Richterswil"},"district":{"key":"106","name":"Bezirk Horgen"},"canton":{"key":"1","code":"ZH","name":"Zürich"},"status":"Real"},{"key":"10076142","name":"Leigrubenstrasse","postalCode":"8805","locality":"Richterswil","commune":{"key":"138","name":"Richterswil","shortName":"Richterswil"},"district":{"key":"106","name":"Bezirk Horgen"},"canton":{"key":"1","code":"ZH","name":"Zürich"},"status":"Real"},{"key":"10200112","name":"Mettlenweg","postalCode":"8805","locality":"Richterswil","commune":{"key":"138","name":"Richterswil","shortName":"Richterswil"},"district":{"key":"106","name":"Bezirk Horgen"},"canton":{"key":"1","code":"ZH","name":"Zürich"},"status":"Real"},{"key":"10077654","name":"Mittlere Schwandenstrasse","postalCode":"8805","locality":"Richterswil","commune":{"key":"138","name":"Richterswil","shortName":"Richterswil"},"district":{"key":"106","name":"Bezirk Horgen"},"canton":{"key":"1","code":"ZH","name":"Zürich"},"status":"Real"},{"key":"10141338","name":"Mülenen","postalCode":"8805","locality":"Richterswil","commune":{"key":"138","name":"Richterswil","shortName":"Richterswil"},"district":{"key":"106","name":"Bezirk Horgen"},"canton":{"key":"1","code":"ZH","name":"Zürich"},"status":"Real"},{"key":"10054480","name":"Mülibachstrasse","postalCode":"8805","locality":"Richterswil","commune":{"key":"138","name":"Richterswil","shortName":"Richterswil"},"district":{"key":"106","name":"Bezirk Horgen"},"canton":{"key":"1","code":"ZH","name":"Zürich"},"status":"Real"},{"key":"10141339","name":"Mülibachweg","postalCode":"8805","locality":"Richterswil","commune":{"key":"138","name":"Richterswil","shortName":"Richterswil"},"district":{"key":"106","name":"Bezirk Horgen"},"canton":{"key":"1","code":"ZH","name":"Zürich"},"status":"Real"},{"key":"10190238","name":"Mülitobelweg","postalCode":"8805","locality":"Richterswil","commune":{"key":"138","name":"Richterswil","shortName":"Richterswil"},"district":{"key":"106","name":"Bezirk Horgen"},"canton":{"key":"1","code":"ZH","name":"Zürich"},"status":"Real"},{"key":"10053342","name":"Neuhus","postalCode":"8805","locality":"Richterswil","commune":{"key":"138","name":"Richterswil","shortName":"Richterswil"},"district":{"key":"106","name":"Bezirk Horgen"},"canton":{"key":"1","code":"ZH","name":"Zürich"},"status":"Real"},{"key":"10117628","name":"Neuhusrain","postalCode":"8805","locality":"Richterswil","commune":{"key":"138","name":"Richterswil","shortName":"Richterswil"},"district":{"key":"106","name":"Bezirk Horgen"},"canton":{"key":"1","code":"ZH","name":"Zürich"},"status":"Real"},{"key":"10076143","name":"Neuhusweg","postalCode":"8805","locality":"Richterswil","commune":{"key":"138","name":"Richterswil","shortName":"Richterswil"},"district":{"key":"106","name":"Bezirk Horgen"},"canton":{"key":"1","code":"ZH","name":"Zürich"},"status":"Real"},{"key":"10109739","name":"Obermatt","postalCode":"8805","locality":"Richterswil","commune":{"key":"138","name":"Richterswil","shortName":"Richterswil"},"district":{"key":"106","name":"Bezirk Horgen"},"canton":{"key":"1","code":"ZH","name":"Zürich"},"status":"Real"},{"key":"10153904","name":"Obermattstrasse","postalCode":"8805","locality":"Richterswil","commune":{"key":"138","name":"Richterswil","shortName":"Richterswil"},"district":{"key":"106","name":"Bezirk Horgen"},"canton":{"key":"1","code":"ZH","name":"Zürich"},"status":"Real"},{"key":"10003013","name":"Panoramaweg","postalCode":"8805","locality":"Richterswil","commune":{"key":"138","name":"Richterswil","shortName":"Richterswil"},"district":{"key":"106","name":"Bezirk Horgen"},"canton":{"key":"1","code":"ZH","name":"Zürich"},"status":"Real"},{"key":"10003014","name":"Pilgerweg","postalCode":"8805","locality":"Richterswil","commune":{"key":"138","name":"Richterswil","shortName":"Richterswil"},"district":{"key":"106","name":"Bezirk Horgen"},"canton":{"key":"1","code":"ZH","name":"Zürich"},"status":"Real"},{"key":"10076144","name":"Poststrasse","postalCode":"8805","locality":"Richterswil","commune":{"key":"138","name":"Richterswil","shortName":"Richterswil"},"district":{"key":"106","name":"Bezirk Horgen"},"canton":{"key":"1","code":"ZH","name":"Zürich"},"status":"Real"},{"key":"10066999","name":"Püntweg","postalCode":"8805","locality":"Richterswil","commune":{"key":"138","name":"Richterswil","shortName":"Richterswil"},"district":{"key":"106","name":"Bezirk Horgen"},"canton":{"key":"1","code":"ZH","name":"Zürich"},"status":"Real"},{"key":"10003015","name":"Quellenstrasse","postalCode":"8805","locality":"Richterswil","commune":{"key":"138","name":"Richterswil","shortName":"Richterswil"},"district":{"key":"106","name":"Bezirk Horgen"},"canton":{"key":"1","code":"ZH","name":"Zürich"},"status":"Real"},{"key":"10003016","name":"Querstrasse","postalCode":"8805","locality":"Richterswil","commune":{"key":"138","name":"Richterswil","shortName":"Richterswil"},"district":{"key":"106","name":"Bezirk Horgen"},"canton":{"key":"1","code":"ZH","name":"Zürich"},"status":"Real"},{"key":"10076145","name":"Reidholzstrasse","postalCode":"8805","locality":"Richterswil","commune":{"key":"138","name":"Richterswil","shortName":"Richterswil"},"district":{"key":"106","name":"Bezirk Horgen"},"canton":{"key":"1","code":"ZH","name":"Zürich"},"status":"Real"},{"key":"10003017","name":"Reidholzweg","postalCode":"8805","locality":"Richterswil","commune":{"key":"138","name":"Richterswil","shortName":"Richterswil"},"district":{"key":"106","name":"Bezirk Horgen"},"canton":{"key":"1","code":"ZH","name":"Zürich"},"status":"Real"},{"key":"10067000","name":"Rosengartenstrasse","postalCode":"8805","locality":"Richterswil","commune":{"key":"138","name":"Richterswil","shortName":"Richterswil"},"district":{"key":"106","name":"Bezirk Horgen"},"canton":{"key":"1","code":"ZH","name":"Zürich"},"status":"Real"},{"key":"10108589","name":"Rosenhaldenweg","postalCode":"8805","locality":"Richterswil","commune":{"key":"138","name":"Richterswil","shortName":"Richterswil"},"district":{"key":"106","name":"Bezirk Horgen"},"canton":{"key":"1","code":"ZH","name":"Zürich"},"status":"Real"},{"key":"10067001","name":"Sandrainstrasse","postalCode":"8805","locality":"Richterswil","commune":{"key":"138","name":"Richterswil","shortName":"Richterswil"},"district":{"key":"106","name":"Bezirk Horgen"},"canton":{"key":"1","code":"ZH","name":"Zürich"},"status":"Real"},{"key":"10109741","name":"Säntisstrasse","postalCode":"8805","locality":"Richterswil","commune":{"key":"138","name":"Richterswil","shortName":"Richterswil"},"district":{"key":"106","name":"Bezirk Horgen"},"canton":{"key":"1","code":"ZH","name":"Zürich"},"status":"Real"},{"key":"10003599","name":"Säumerstrasse","postalCode":"8805","locality":"Richterswil","commune":{"key":"138","name":"Richterswil","shortName":"Richterswil"},"district":{"key":"106","name":"Bezirk Horgen"},"canton":{"key":"1","code":"ZH","name":"Zürich"},"status":"Real"},{"key":"10076146","name":"Schlosserbrunnenweg","postalCode":"8805","locality":"Richterswil","commune":{"key":"138","name":"Richterswil","shortName":"Richterswil"},"district":{"key":"106","name":"Bezirk Horgen"},"canton":{"key":"1","code":"ZH","name":"Zürich"},"status":"Real"},{"key":"10108447","name":"Schönauweg","postalCode":"8805","locality":"Richterswil","commune":{"key":"138","name":"Richterswil","shortName":"Richterswil"},"district":{"key":"106","name":"Bezirk Horgen"},"canton":{"key":"1","code":"ZH","name":"Zürich"},"status":"Real"},{"key":"10245101","name":"Schönenwirt","postalCode":"8805","locality":"Richterswil","commune":{"key":"138","name":"Richterswil","shortName":"Richterswil"},"district":{"key":"106","name":"Bezirk Horgen"},"canton":{"key":"1","code":"ZH","name":"Zürich"},"status":"Real"},{"key":"10105401","name":"Schönrain","postalCode":"8805","locality":"Richterswil","commune":{"key":"138","name":"Richterswil","shortName":"Richterswil"},"district":{"key":"106","name":"Bezirk Horgen"},"canton":{"key":"1","code":"ZH","name":"Zürich"},"status":"Real"},{"key":"10003018","name":"Schulstrasse","postalCode":"8805","locality":"Richterswil","commune":{"key":"138","name":"Richterswil","shortName":"Richterswil"},"district":{"key":"106","name":"Bezirk Horgen"},"canton":{"key":"1","code":"ZH","name":"Zürich"},"status":"Real"},{"key":"10189931","name":"Schützengass","postalCode":"8805","locality":"Richterswil","commune":{"key":"138","name":"Richterswil","shortName":"Richterswil"},"district":{"key":"106","name":"Bezirk Horgen"},"canton":{"key":"1","code":"ZH","name":"Zürich"},"status":"Real"},{"key":"10003020","name":"Schützenhausweg","postalCode":"8805","locality":"Richterswil","commune":{"key":"138","name":"Richterswil","shortName":"Richterswil"},"district":{"key":"106","name":"Bezirk Horgen"},"canton":{"key":"1","code":"ZH","name":"Zürich"},"status":"Real"},{"key":"10076158","name":"Schwandenweg","postalCode":"8805","locality":"Richterswil","commune":{"key":"138","name":"Richterswil","shortName":"Richterswil"},"district":{"key":"106","name":"Bezirk Horgen"},"canton":{"key":"1","code":"ZH","name":"Zürich"},"status":"Real"},{"key":"10003019","name":"Schwyzerstrasse","postalCode":"8805","locality":"Richterswil","commune":{"key":"138","name":"Richterswil","shortName":"Richterswil"},"district":{"key":"106","name":"Bezirk Horgen"},"canton":{"key":"1","code":"ZH","name":"Zürich"},"status":"Real"},{"key":"10153177","name":"Seeblick","postalCode":"8805","locality":"Richterswil","commune":{"key":"138","name":"Richterswil","shortName":"Richterswil"},"district":{"key":"106","name":"Bezirk Horgen"},"canton":{"key":"1","code":"ZH","name":"Zürich"},"status":"Real"},{"key":"10067002","name":"Seestrasse","postalCode":"8805","locality":"Richterswil","commune":{"key":"138","name":"Richterswil","shortName":"Richterswil"},"district":{"key":"106","name":"Bezirk Horgen"},"canton":{"key":"1","code":"ZH","name":"Zürich"},"status":"Real"},{"key":"10245102","name":"Seeuferweg","postalCode":"8805","locality":"Richterswil","commune":{"key":"138","name":"Richterswil","shortName":"Richterswil"},"district":{"key":"106","name":"Bezirk Horgen"},"canton":{"key":"1","code":"ZH","name":"Zürich"},"status":"Real"},{"key":"10153905","name":"Sennhütte","postalCode":"8805","locality":"Richterswil","commune":{"key":"138","name":"Richterswil","shortName":"Richterswil"},"district":{"key":"106","name":"Bezirk Horgen"},"canton":{"key":"1","code":"ZH","name":"Zürich"},"status":"Real"},{"key":"10003595","name":"Sennhüttenstrasse","postalCode":"8805","locality":"Richterswil","commune":{"key":"138","name":"Richterswil","shortName":"Richterswil"},"district":{"key":"106","name":"Bezirk Horgen"},"canton":{"key":"1","code":"ZH","name":"Zürich"},"status":"Real"},{"key":"10152191","name":"Sennhüttenweg","postalCode":"8805","locality":"Richterswil","commune":{"key":"138","name":"Richterswil","shortName":"Richterswil"},"district":{"key":"106","name":"Bezirk Horgen"},"canton":{"key":"1","code":"ZH","name":"Zürich"},"status":"Real"},{"key":"10126666","name":"Sennweidweg","postalCode":"8805","locality":"Richterswil","commune":{"key":"138","name":"Richterswil","shortName":"Richterswil"},"district":{"key":"106","name":"Bezirk Horgen"},"canton":{"key":"1","code":"ZH","name":"Zürich"},"status":"Real"},{"key":"10191591","name":"Specki","postalCode":"8805","locality":"Richterswil","commune":{"key":"138","name":"Richterswil","shortName":"Richterswil"},"district":{"key":"106","name":"Bezirk Horgen"},"canton":{"key":"1","code":"ZH","name":"Zürich"},"status":"Real"},{"key":"10003596","name":"Speerstrasse","postalCode":"8805","locality":"Richterswil","commune":{"key":"138","name":"Richterswil","shortName":"Richterswil"},"district":{"key":"106","name":"Bezirk Horgen"},"canton":{"key":"1","code":"ZH","name":"Zürich"},"status":"Real"},{"key":"10151235","name":"Stampfweg","postalCode":"8805","locality":"Richterswil","commune":{"key":"138","name":"Richterswil","shortName":"Richterswil"},"district":{"key":"106","name":"Bezirk Horgen"},"canton":{"key":"1","code":"ZH","name":"Zürich"},"status":"Real"},{"key":"10151236","name":"Steinburgweg","postalCode":"8805","locality":"Richterswil","commune":{"key":"138","name":"Richterswil","shortName":"Richterswil"},"district":{"key":"106","name":"Bezirk Horgen"},"canton":{"key":"1","code":"ZH","name":"Zürich"},"status":"Real"},{"key":"10121796","name":"Steingass","postalCode":"8805","locality":"Richterswil","commune":{"key":"138","name":"Richterswil","shortName":"Richterswil"},"district":{"key":"106","name":"Bezirk Horgen"},"canton":{"key":"1","code":"ZH","name":"Zürich"},"status":"Real"},{"key":"10105402","name":"Storchengass","postalCode":"8805","locality":"Richterswil","commune":{"key":"138","name":"Richterswil","shortName":"Richterswil"},"district":{"key":"106","name":"Bezirk Horgen"},"canton":{"key":"1","code":"ZH","name":"Zürich"},"status":"Real"},{"key":"10199995","name":"Strandweg","postalCode":"8805","locality":"Richterswil","commune":{"key":"138","name":"Richterswil","shortName":"Richterswil"},"district":{"key":"106","name":"Bezirk Horgen"},"canton":{"key":"1","code":"ZH","name":"Zürich"},"status":"Real"},{"key":"10003597","name":"Sunneggweg","postalCode":"8805","locality":"Richterswil","commune":{"key":"138","name":"Richterswil","shortName":"Richterswil"},"district":{"key":"106","name":"Bezirk Horgen"},"canton":{"key":"1","code":"ZH","name":"Zürich"},"status":"Real"},{"key":"10003598","name":"Sunnengartenstrasse","postalCode":"8805","locality":"Richterswil","commune":{"key":"138","name":"Richterswil","shortName":"Richterswil"},"district":{"key":"106","name":"Bezirk Horgen"},"canton":{"key":"1","code":"ZH","name":"Zürich"},"status":"Real"},{"key":"10076147","name":"Sunnengass","postalCode":"8805","locality":"Richterswil","commune":{"key":"138","name":"Richterswil","shortName":"Richterswil"},"district":{"key":"106","name":"Bezirk Horgen"},"canton":{"key":"1","code":"ZH","name":"Zürich"},"status":"Real"},{"key":"10067004","name":"Sydedruckiweg","postalCode":"8805","locality":"Richterswil","commune":{"key":"138","name":"Richterswil","shortName":"Richterswil"},"district":{"key":"106","name":"Bezirk Horgen"},"canton":{"key":"1","code":"ZH","name":"Zürich"},"status":"Real"},{"key":"10076148","name":"Tössweg","postalCode":"8805","locality":"Richterswil","commune":{"key":"138","name":"Richterswil","shortName":"Richterswil"},"district":{"key":"106","name":"Bezirk Horgen"},"canton":{"key":"1","code":"ZH","name":"Zürich"},"status":"Real"},{"key":"10067005","name":"Unter Altschloss","postalCode":"8805","locality":"Richterswil","commune":{"key":"138","name":"Richterswil","shortName":"Richterswil"},"district":{"key":"106","name":"Bezirk Horgen"},"canton":{"key":"1","code":"ZH","name":"Zürich"},"status":"Real"},{"key":"10003789","name":"Untere Schwandenstrasse","postalCode":"8805","locality":"Richterswil","commune":{"key":"138","name":"Richterswil","shortName":"Richterswil"},"district":{"key":"106","name":"Bezirk Horgen"},"canton":{"key":"1","code":"ZH","name":"Zürich"},"status":"Real"},{"key":"10076149","name":"Untermattstrasse","postalCode":"8805","locality":"Richterswil","commune":{"key":"138","name":"Richterswil","shortName":"Richterswil"},"district":{"key":"106","name":"Bezirk Horgen"},"canton":{"key":"1","code":"ZH","name":"Zürich"},"status":"Real"},{"key":"10067006","name":"Waldhüsli","postalCode":"8805","locality":"Richterswil","commune":{"key":"138","name":"Richterswil","shortName":"Richterswil"},"district":{"key":"106","name":"Bezirk Horgen"},"canton":{"key":"1","code":"ZH","name":"Zürich"},"status":"Real"},{"key":"10003790","name":"Weingartenstrasse","postalCode":"8805","locality":"Richterswil","commune":{"key":"138","name":"Richterswil","shortName":"Richterswil"},"district":{"key":"106","name":"Bezirk Horgen"},"canton":{"key":"1","code":"ZH","name":"Zürich"},"status":"Real"},{"key":"10067007","name":"Widigerweg","postalCode":"8805","locality":"Richterswil","commune":{"key":"138","name":"Richterswil","shortName":"Richterswil"},"district":{"key":"106","name":"Bezirk Horgen"},"canton":{"key":"1","code":"ZH","name":"Zürich"},"status":"Real"},{"key":"10003791","name":"Wiesengrundstrasse","postalCode":"8805","locality":"Richterswil","commune":{"key":"138","name":"Richterswil","shortName":"Richterswil"},"district":{"key":"106","name":"Bezirk Horgen"},"canton":{"key":"1","code":"ZH","name":"Zürich"},"status":"Real"},{"key":"10151237","name":"Ziegelhüttenstrasse","postalCode":"8805","locality":"Richterswil","commune":{"key":"138","name":"Richterswil","shortName":"Richterswil"},"district":{"key":"106","name":"Bezirk Horgen"},"canton":{"key":"1","code":"ZH","name":"Zürich"},"status":"Real"},{"key":"10076150","name":"Zugerstrasse","postalCode":"8805","locality":"Richterswil","commune":{"key":"138","name":"Richterswil","shortName":"Richterswil"},"district":{"key":"106","name":"Bezirk Horgen"},"canton":{"key":"1","code":"ZH","name":"Zürich"},"status":"Real"},{"key":"10151238","name":"Zweischürliweg","postalCode":"8805","locality":"Richterswil","commune":{"key":"138","name":"Richterswil","shortName":"Richterswil"},"district":{"key":"106","name":"Bezirk Horgen"},"canton":{"key":"1","code":"ZH","name":"Zürich"},"status":"Real"},]