[{"name":"Abteilungsweg","postalCode":"71394","locality":"Kernen im Remstal","municipality":{"key":"08119093","name":"Kernen im Remstal","type":"Kreisangehörige_Gemeinde"},"district":{"key":"08119","name":"Rems-Murr-Kreis","type":"Landkreis"},"federalState":{"key":"08","name":"Baden-Württemberg"}},{"name":"Albert-Moser-Str.","postalCode":"71394","locality":"Kernen im Remstal","municipality":{"key":"08119093","name":"Kernen im Remstal","type":"Kreisangehörige_Gemeinde"},"district":{"key":"08119","name":"Rems-Murr-Kreis","type":"Landkreis"},"federalState":{"key":"08","name":"Baden-Württemberg"}},{"name":"Albert-Moser-Weg","postalCode":"71394","locality":"Kernen im Remstal","municipality":{"key":"08119093","name":"Kernen im Remstal","type":"Kreisangehörige_Gemeinde"},"district":{"key":"08119","name":"Rems-Murr-Kreis","type":"Landkreis"},"federalState":{"key":"08","name":"Baden-Württemberg"}},{"name":"Alte Esslinger Str.","postalCode":"71394","locality":"Kernen im Remstal","municipality":{"key":"08119093","name":"Kernen im Remstal","type":"Kreisangehörige_Gemeinde"},"district":{"key":"08119","name":"Rems-Murr-Kreis","type":"Landkreis"},"federalState":{"key":"08","name":"Baden-Württemberg"}},{"name":"Alter Sandackerweg","postalCode":"71394","locality":"Kernen im Remstal","municipality":{"key":"08119093","name":"Kernen im Remstal","type":"Kreisangehörige_Gemeinde"},"district":{"key":"08119","name":"Rems-Murr-Kreis","type":"Landkreis"},"federalState":{"key":"08","name":"Baden-Württemberg"}},{"name":"Alter Stettener Weg","postalCode":"71394","locality":"Kernen im Remstal","municipality":{"key":"08119093","name":"Kernen im Remstal","type":"Kreisangehörige_Gemeinde"},"district":{"key":"08119","name":"Rems-Murr-Kreis","type":"Landkreis"},"federalState":{"key":"08","name":"Baden-Württemberg"}},{"name":"Amselweg","postalCode":"71394","locality":"Kernen im Remstal","municipality":{"key":"08119093","name":"Kernen im Remstal","type":"Kreisangehörige_Gemeinde"},"district":{"key":"08119","name":"Rems-Murr-Kreis","type":"Landkreis"},"federalState":{"key":"08","name":"Baden-Württemberg"}},{"name":"Am Sportplatz","postalCode":"71394","locality":"Kernen im Remstal","municipality":{"key":"08119093","name":"Kernen im Remstal","type":"Kreisangehörige_Gemeinde"},"district":{"key":"08119","name":"Rems-Murr-Kreis","type":"Landkreis"},"federalState":{"key":"08","name":"Baden-Württemberg"}},{"name":"Am Weihergraben","postalCode":"71394","locality":"Kernen im Remstal","municipality":{"key":"08119093","name":"Kernen im Remstal","type":"Kreisangehörige_Gemeinde"},"district":{"key":"08119","name":"Rems-Murr-Kreis","type":"Landkreis"},"federalState":{"key":"08","name":"Baden-Württemberg"}},{"name":"An der Glockenkelter","postalCode":"71394","locality":"Kernen im Remstal","municipality":{"key":"08119093","name":"Kernen im Remstal","type":"Kreisangehörige_Gemeinde"},"district":{"key":"08119","name":"Rems-Murr-Kreis","type":"Landkreis"},"federalState":{"key":"08","name":"Baden-Württemberg"}},{"name":"Anneliesenweg","postalCode":"71394","locality":"Kernen im Remstal","municipality":{"key":"08119093","name":"Kernen im Remstal","type":"Kreisangehörige_Gemeinde"},"district":{"key":"08119","name":"Rems-Murr-Kreis","type":"Landkreis"},"federalState":{"key":"08","name":"Baden-Württemberg"}},{"name":"Apfelblütenweg","postalCode":"71394","locality":"Kernen im Remstal","municipality":{"key":"08119093","name":"Kernen im Remstal","type":"Kreisangehörige_Gemeinde"},"district":{"key":"08119","name":"Rems-Murr-Kreis","type":"Landkreis"},"federalState":{"key":"08","name":"Baden-Württemberg"}},{"name":"Auf der Höhe","postalCode":"71394","locality":"Kernen im Remstal","municipality":{"key":"08119093","name":"Kernen im Remstal","type":"Kreisangehörige_Gemeinde"},"district":{"key":"08119","name":"Rems-Murr-Kreis","type":"Landkreis"},"federalState":{"key":"08","name":"Baden-Württemberg"}},{"name":"August-Lämmle-Weg","postalCode":"71394","locality":"Kernen im Remstal","municipality":{"key":"08119093","name":"Kernen im Remstal","type":"Kreisangehörige_Gemeinde"},"district":{"key":"08119","name":"Rems-Murr-Kreis","type":"Landkreis"},"federalState":{"key":"08","name":"Baden-Württemberg"}},{"name":"Bachstr.","postalCode":"71394","locality":"Kernen im Remstal","municipality":{"key":"08119093","name":"Kernen im Remstal","type":"Kreisangehörige_Gemeinde"},"district":{"key":"08119","name":"Rems-Murr-Kreis","type":"Landkreis"},"federalState":{"key":"08","name":"Baden-Württemberg"}},{"name":"Beethovenstr.","postalCode":"71394","locality":"Kernen im Remstal","municipality":{"key":"08119093","name":"Kernen im Remstal","type":"Kreisangehörige_Gemeinde"},"district":{"key":"08119","name":"Rems-Murr-Kreis","type":"Landkreis"},"federalState":{"key":"08","name":"Baden-Württemberg"}},{"name":"Beinsteiner Str.","postalCode":"71394","locality":"Kernen im Remstal","municipality":{"key":"08119093","name":"Kernen im Remstal","type":"Kreisangehörige_Gemeinde"},"district":{"key":"08119","name":"Rems-Murr-Kreis","type":"Landkreis"},"federalState":{"key":"08","name":"Baden-Württemberg"}},{"name":"Benzstr.","postalCode":"71394","locality":"Kernen im Remstal","municipality":{"key":"08119093","name":"Kernen im Remstal","type":"Kreisangehörige_Gemeinde"},"district":{"key":"08119","name":"Rems-Murr-Kreis","type":"Landkreis"},"federalState":{"key":"08","name":"Baden-Württemberg"}},{"name":"Bergweg","postalCode":"71394","locality":"Kernen im Remstal","municipality":{"key":"08119093","name":"Kernen im Remstal","type":"Kreisangehörige_Gemeinde"},"district":{"key":"08119","name":"Rems-Murr-Kreis","type":"Landkreis"},"federalState":{"key":"08","name":"Baden-Württemberg"}},{"name":"Birkenstr.","postalCode":"71394","locality":"Kernen im Remstal","municipality":{"key":"08119093","name":"Kernen im Remstal","type":"Kreisangehörige_Gemeinde"},"district":{"key":"08119","name":"Rems-Murr-Kreis","type":"Landkreis"},"federalState":{"key":"08","name":"Baden-Württemberg"}},{"name":"Blumenstr.","postalCode":"71394","locality":"Kernen im Remstal","municipality":{"key":"08119093","name":"Kernen im Remstal","type":"Kreisangehörige_Gemeinde"},"district":{"key":"08119","name":"Rems-Murr-Kreis","type":"Landkreis"},"federalState":{"key":"08","name":"Baden-Württemberg"}},{"name":"Brahmsstr.","postalCode":"71394","locality":"Kernen im Remstal","municipality":{"key":"08119093","name":"Kernen im Remstal","type":"Kreisangehörige_Gemeinde"},"district":{"key":"08119","name":"Rems-Murr-Kreis","type":"Landkreis"},"federalState":{"key":"08","name":"Baden-Württemberg"}},{"name":"Brühlstr.","postalCode":"71394","locality":"Kernen im Remstal","municipality":{"key":"08119093","name":"Kernen im Remstal","type":"Kreisangehörige_Gemeinde"},"district":{"key":"08119","name":"Rems-Murr-Kreis","type":"Landkreis"},"federalState":{"key":"08","name":"Baden-Württemberg"}},{"name":"Buchenweg","postalCode":"71394","locality":"Kernen im Remstal","municipality":{"key":"08119093","name":"Kernen im Remstal","type":"Kreisangehörige_Gemeinde"},"district":{"key":"08119","name":"Rems-Murr-Kreis","type":"Landkreis"},"federalState":{"key":"08","name":"Baden-Württemberg"}},{"name":"Bühläckerstr.","postalCode":"71394","locality":"Kernen im Remstal","municipality":{"key":"08119093","name":"Kernen im Remstal","type":"Kreisangehörige_Gemeinde"},"district":{"key":"08119","name":"Rems-Murr-Kreis","type":"Landkreis"},"federalState":{"key":"08","name":"Baden-Württemberg"}},{"name":"Burgweg","postalCode":"71394","locality":"Kernen im Remstal","municipality":{"key":"08119093","name":"Kernen im Remstal","type":"Kreisangehörige_Gemeinde"},"district":{"key":"08119","name":"Rems-Murr-Kreis","type":"Landkreis"},"federalState":{"key":"08","name":"Baden-Württemberg"}},{"name":"Bussardstr.","postalCode":"71394","locality":"Kernen im Remstal","municipality":{"key":"08119093","name":"Kernen im Remstal","type":"Kreisangehörige_Gemeinde"},"district":{"key":"08119","name":"Rems-Murr-Kreis","type":"Landkreis"},"federalState":{"key":"08","name":"Baden-Württemberg"}},{"name":"Cannstatter Str.","postalCode":"71394","locality":"Kernen im Remstal","municipality":{"key":"08119093","name":"Kernen im Remstal","type":"Kreisangehörige_Gemeinde"},"district":{"key":"08119","name":"Rems-Murr-Kreis","type":"Landkreis"},"federalState":{"key":"08","name":"Baden-Württemberg"}},{"name":"Dahlienweg","postalCode":"71394","locality":"Kernen im Remstal","municipality":{"key":"08119093","name":"Kernen im Remstal","type":"Kreisangehörige_Gemeinde"},"district":{"key":"08119","name":"Rems-Murr-Kreis","type":"Landkreis"},"federalState":{"key":"08","name":"Baden-Württemberg"}},{"name":"David-Pfeffer-Str.","postalCode":"71394","locality":"Kernen im Remstal","municipality":{"key":"08119093","name":"Kernen im Remstal","type":"Kreisangehörige_Gemeinde"},"district":{"key":"08119","name":"Rems-Murr-Kreis","type":"Landkreis"},"federalState":{"key":"08","name":"Baden-Württemberg"}},{"name":"Dinkelstr.","postalCode":"71394","locality":"Kernen im Remstal","municipality":{"key":"08119093","name":"Kernen im Remstal","type":"Kreisangehörige_Gemeinde"},"district":{"key":"08119","name":"Rems-Murr-Kreis","type":"Landkreis"},"federalState":{"key":"08","name":"Baden-Württemberg"}},{"name":"Dombóvárstr.","postalCode":"71394","locality":"Kernen im Remstal","municipality":{"key":"08119093","name":"Kernen im Remstal","type":"Kreisangehörige_Gemeinde"},"district":{"key":"08119","name":"Rems-Murr-Kreis","type":"Landkreis"},"federalState":{"key":"08","name":"Baden-Württemberg"}},{"name":"Drosselweg","postalCode":"71394","locality":"Kernen im Remstal","municipality":{"key":"08119093","name":"Kernen im Remstal","type":"Kreisangehörige_Gemeinde"},"district":{"key":"08119","name":"Rems-Murr-Kreis","type":"Landkreis"},"federalState":{"key":"08","name":"Baden-Württemberg"}},{"name":"Eichenweg","postalCode":"71394","locality":"Kernen im Remstal","municipality":{"key":"08119093","name":"Kernen im Remstal","type":"Kreisangehörige_Gemeinde"},"district":{"key":"08119","name":"Rems-Murr-Kreis","type":"Landkreis"},"federalState":{"key":"08","name":"Baden-Württemberg"}},{"name":"Elsternweg","postalCode":"71394","locality":"Kernen im Remstal","municipality":{"key":"08119093","name":"Kernen im Remstal","type":"Kreisangehörige_Gemeinde"},"district":{"key":"08119","name":"Rems-Murr-Kreis","type":"Landkreis"},"federalState":{"key":"08","name":"Baden-Württemberg"}},{"name":"Endersbacher Str.","postalCode":"71394","locality":"Kernen im Remstal","municipality":{"key":"08119093","name":"Kernen im Remstal","type":"Kreisangehörige_Gemeinde"},"district":{"key":"08119","name":"Rems-Murr-Kreis","type":"Landkreis"},"federalState":{"key":"08","name":"Baden-Württemberg"}},{"name":"Erlenweg","postalCode":"71394","locality":"Kernen im Remstal","municipality":{"key":"08119093","name":"Kernen im Remstal","type":"Kreisangehörige_Gemeinde"},"district":{"key":"08119","name":"Rems-Murr-Kreis","type":"Landkreis"},"federalState":{"key":"08","name":"Baden-Württemberg"}},{"name":"Ernst-Heinkel-Str.","postalCode":"71394","locality":"Kernen im Remstal","municipality":{"key":"08119093","name":"Kernen im Remstal","type":"Kreisangehörige_Gemeinde"},"district":{"key":"08119","name":"Rems-Murr-Kreis","type":"Landkreis"},"federalState":{"key":"08","name":"Baden-Württemberg"}},{"name":"Erwin-Bahnmüller-Str.","postalCode":"71394","locality":"Kernen im Remstal","municipality":{"key":"08119093","name":"Kernen im Remstal","type":"Kreisangehörige_Gemeinde"},"district":{"key":"08119","name":"Rems-Murr-Kreis","type":"Landkreis"},"federalState":{"key":"08","name":"Baden-Württemberg"}},{"name":"Eschenweg","postalCode":"71394","locality":"Kernen im Remstal","municipality":{"key":"08119093","name":"Kernen im Remstal","type":"Kreisangehörige_Gemeinde"},"district":{"key":"08119","name":"Rems-Murr-Kreis","type":"Landkreis"},"federalState":{"key":"08","name":"Baden-Württemberg"}},{"name":"Esslinger Str.","postalCode":"71394","locality":"Kernen im Remstal","municipality":{"key":"08119093","name":"Kernen im Remstal","type":"Kreisangehörige_Gemeinde"},"district":{"key":"08119","name":"Rems-Murr-Kreis","type":"Landkreis"},"federalState":{"key":"08","name":"Baden-Württemberg"}},{"name":"Eugenstr.","postalCode":"71394","locality":"Kernen im Remstal","municipality":{"key":"08119093","name":"Kernen im Remstal","type":"Kreisangehörige_Gemeinde"},"district":{"key":"08119","name":"Rems-Murr-Kreis","type":"Landkreis"},"federalState":{"key":"08","name":"Baden-Württemberg"}},{"name":"Falkenstr.","postalCode":"71394","locality":"Kernen im Remstal","municipality":{"key":"08119093","name":"Kernen im Remstal","type":"Kreisangehörige_Gemeinde"},"district":{"key":"08119","name":"Rems-Murr-Kreis","type":"Landkreis"},"federalState":{"key":"08","name":"Baden-Württemberg"}},{"name":"Fellbacher Str.","postalCode":"71394","locality":"Kernen im Remstal","municipality":{"key":"08119093","name":"Kernen im Remstal","type":"Kreisangehörige_Gemeinde"},"district":{"key":"08119","name":"Rems-Murr-Kreis","type":"Landkreis"},"federalState":{"key":"08","name":"Baden-Württemberg"}},{"name":"Finkenweg","postalCode":"71394","locality":"Kernen im Remstal","municipality":{"key":"08119093","name":"Kernen im Remstal","type":"Kreisangehörige_Gemeinde"},"district":{"key":"08119","name":"Rems-Murr-Kreis","type":"Landkreis"},"federalState":{"key":"08","name":"Baden-Württemberg"}},{"name":"Fliederweg","postalCode":"71394","locality":"Kernen im Remstal","municipality":{"key":"08119093","name":"Kernen im Remstal","type":"Kreisangehörige_Gemeinde"},"district":{"key":"08119","name":"Rems-Murr-Kreis","type":"Landkreis"},"federalState":{"key":"08","name":"Baden-Württemberg"}},{"name":"Franz-Liszt-Weg","postalCode":"71394","locality":"Kernen im Remstal","municipality":{"key":"08119093","name":"Kernen im Remstal","type":"Kreisangehörige_Gemeinde"},"district":{"key":"08119","name":"Rems-Murr-Kreis","type":"Landkreis"},"federalState":{"key":"08","name":"Baden-Württemberg"}},{"name":"Frauenländerstr.","postalCode":"71394","locality":"Kernen im Remstal","municipality":{"key":"08119093","name":"Kernen im Remstal","type":"Kreisangehörige_Gemeinde"},"district":{"key":"08119","name":"Rems-Murr-Kreis","type":"Landkreis"},"federalState":{"key":"08","name":"Baden-Württemberg"}},{"name":"Friedhofstr.","postalCode":"71394","locality":"Kernen im Remstal","municipality":{"key":"08119093","name":"Kernen im Remstal","type":"Kreisangehörige_Gemeinde"},"district":{"key":"08119","name":"Rems-Murr-Kreis","type":"Landkreis"},"federalState":{"key":"08","name":"Baden-Württemberg"}},{"name":"Friedrich-Silcher-Str.","postalCode":"71394","locality":"Kernen im Remstal","municipality":{"key":"08119093","name":"Kernen im Remstal","type":"Kreisangehörige_Gemeinde"},"district":{"key":"08119","name":"Rems-Murr-Kreis","type":"Landkreis"},"federalState":{"key":"08","name":"Baden-Württemberg"}},{"name":"Friedrichstr.","postalCode":"71394","locality":"Kernen im Remstal","municipality":{"key":"08119093","name":"Kernen im Remstal","type":"Kreisangehörige_Gemeinde"},"district":{"key":"08119","name":"Rems-Murr-Kreis","type":"Landkreis"},"federalState":{"key":"08","name":"Baden-Württemberg"}},{"name":"Futterwiesenweg","postalCode":"71394","locality":"Kernen im Remstal","municipality":{"key":"08119093","name":"Kernen im Remstal","type":"Kreisangehörige_Gemeinde"},"district":{"key":"08119","name":"Rems-Murr-Kreis","type":"Landkreis"},"federalState":{"key":"08","name":"Baden-Württemberg"}},{"name":"Gaiernweg","postalCode":"71394","locality":"Kernen im Remstal","municipality":{"key":"08119093","name":"Kernen im Remstal","type":"Kreisangehörige_Gemeinde"},"district":{"key":"08119","name":"Rems-Murr-Kreis","type":"Landkreis"},"federalState":{"key":"08","name":"Baden-Württemberg"}},{"name":"Gartenstr.","postalCode":"71394","locality":"Kernen im Remstal","municipality":{"key":"08119093","name":"Kernen im Remstal","type":"Kreisangehörige_Gemeinde"},"district":{"key":"08119","name":"Rems-Murr-Kreis","type":"Landkreis"},"federalState":{"key":"08","name":"Baden-Württemberg"}},{"name":"Georg-Friedrich-Händel-Str.","postalCode":"71394","locality":"Kernen im Remstal","municipality":{"key":"08119093","name":"Kernen im Remstal","type":"Kreisangehörige_Gemeinde"},"district":{"key":"08119","name":"Rems-Murr-Kreis","type":"Landkreis"},"federalState":{"key":"08","name":"Baden-Württemberg"}},{"name":"Goethestr.","postalCode":"71394","locality":"Kernen im Remstal","municipality":{"key":"08119093","name":"Kernen im Remstal","type":"Kreisangehörige_Gemeinde"},"district":{"key":"08119","name":"Rems-Murr-Kreis","type":"Landkreis"},"federalState":{"key":"08","name":"Baden-Württemberg"}},{"name":"Gottlieb-Daimler-Str.","postalCode":"71394","locality":"Kernen im Remstal","municipality":{"key":"08119093","name":"Kernen im Remstal","type":"Kreisangehörige_Gemeinde"},"district":{"key":"08119","name":"Rems-Murr-Kreis","type":"Landkreis"},"federalState":{"key":"08","name":"Baden-Württemberg"}},{"name":"Grabenstr.","postalCode":"71394","locality":"Kernen im Remstal","municipality":{"key":"08119093","name":"Kernen im Remstal","type":"Kreisangehörige_Gemeinde"},"district":{"key":"08119","name":"Rems-Murr-Kreis","type":"Landkreis"},"federalState":{"key":"08","name":"Baden-Württemberg"}},{"name":"Grimmelshäuser Wegle","postalCode":"71394","locality":"Kernen im Remstal","municipality":{"key":"08119093","name":"Kernen im Remstal","type":"Kreisangehörige_Gemeinde"},"district":{"key":"08119","name":"Rems-Murr-Kreis","type":"Landkreis"},"federalState":{"key":"08","name":"Baden-Württemberg"}},{"name":"Grundäcker","postalCode":"71394","locality":"Kernen im Remstal","municipality":{"key":"08119093","name":"Kernen im Remstal","type":"Kreisangehörige_Gemeinde"},"district":{"key":"08119","name":"Rems-Murr-Kreis","type":"Landkreis"},"federalState":{"key":"08","name":"Baden-Württemberg"}},{"name":"Grüntorstr.","postalCode":"71394","locality":"Kernen im Remstal","municipality":{"key":"08119093","name":"Kernen im Remstal","type":"Kreisangehörige_Gemeinde"},"district":{"key":"08119","name":"Rems-Murr-Kreis","type":"Landkreis"},"federalState":{"key":"08","name":"Baden-Württemberg"}},{"name":"Günter-Haußmann-Str.","postalCode":"71394","locality":"Kernen im Remstal","municipality":{"key":"08119093","name":"Kernen im Remstal","type":"Kreisangehörige_Gemeinde"},"district":{"key":"08119","name":"Rems-Murr-Kreis","type":"Landkreis"},"federalState":{"key":"08","name":"Baden-Württemberg"}},{"name":"Haldenstr.","postalCode":"71394","locality":"Kernen im Remstal","municipality":{"key":"08119093","name":"Kernen im Remstal","type":"Kreisangehörige_Gemeinde"},"district":{"key":"08119","name":"Rems-Murr-Kreis","type":"Landkreis"},"federalState":{"key":"08","name":"Baden-Württemberg"}},{"name":"Hans-Reyhing-Weg","postalCode":"71394","locality":"Kernen im Remstal","municipality":{"key":"08119093","name":"Kernen im Remstal","type":"Kreisangehörige_Gemeinde"},"district":{"key":"08119","name":"Rems-Murr-Kreis","type":"Landkreis"},"federalState":{"key":"08","name":"Baden-Württemberg"}},{"name":"Hartstr.","postalCode":"71394","locality":"Kernen im Remstal","municipality":{"key":"08119093","name":"Kernen im Remstal","type":"Kreisangehörige_Gemeinde"},"district":{"key":"08119","name":"Rems-Murr-Kreis","type":"Landkreis"},"federalState":{"key":"08","name":"Baden-Württemberg"}},{"name":"Hauffstr.","postalCode":"71394","locality":"Kernen im Remstal","municipality":{"key":"08119093","name":"Kernen im Remstal","type":"Kreisangehörige_Gemeinde"},"district":{"key":"08119","name":"Rems-Murr-Kreis","type":"Landkreis"},"federalState":{"key":"08","name":"Baden-Württemberg"}},{"name":"Hauptstr.","postalCode":"71394","locality":"Kernen im Remstal","municipality":{"key":"08119093","name":"Kernen im Remstal","type":"Kreisangehörige_Gemeinde"},"district":{"key":"08119","name":"Rems-Murr-Kreis","type":"Landkreis"},"federalState":{"key":"08","name":"Baden-Württemberg"}},{"name":"Haydnstr.","postalCode":"71394","locality":"Kernen im Remstal","municipality":{"key":"08119093","name":"Kernen im Remstal","type":"Kreisangehörige_Gemeinde"},"district":{"key":"08119","name":"Rems-Murr-Kreis","type":"Landkreis"},"federalState":{"key":"08","name":"Baden-Württemberg"}},{"name":"Hegnacher Str.","postalCode":"71394","locality":"Kernen im Remstal","municipality":{"key":"08119093","name":"Kernen im Remstal","type":"Kreisangehörige_Gemeinde"},"district":{"key":"08119","name":"Rems-Murr-Kreis","type":"Landkreis"},"federalState":{"key":"08","name":"Baden-Württemberg"}},{"name":"Hermann-Hesse-Weg","postalCode":"71394","locality":"Kernen im Remstal","municipality":{"key":"08119093","name":"Kernen im Remstal","type":"Kreisangehörige_Gemeinde"},"district":{"key":"08119","name":"Rems-Murr-Kreis","type":"Landkreis"},"federalState":{"key":"08","name":"Baden-Württemberg"}},{"name":"Hindenburgstr.","postalCode":"71394","locality":"Kernen im Remstal","municipality":{"key":"08119093","name":"Kernen im Remstal","type":"Kreisangehörige_Gemeinde"},"district":{"key":"08119","name":"Rems-Murr-Kreis","type":"Landkreis"},"federalState":{"key":"08","name":"Baden-Württemberg"}},{"name":"Hintere Str.","postalCode":"71394","locality":"Kernen im Remstal","municipality":{"key":"08119093","name":"Kernen im Remstal","type":"Kreisangehörige_Gemeinde"},"district":{"key":"08119","name":"Rems-Murr-Kreis","type":"Landkreis"},"federalState":{"key":"08","name":"Baden-Württemberg"}},{"name":"Hirschstr.","postalCode":"71394","locality":"Kernen im Remstal","municipality":{"key":"08119093","name":"Kernen im Remstal","type":"Kreisangehörige_Gemeinde"},"district":{"key":"08119","name":"Rems-Murr-Kreis","type":"Landkreis"},"federalState":{"key":"08","name":"Baden-Württemberg"}},{"name":"Hofäckerstr.","postalCode":"71394","locality":"Kernen im Remstal","municipality":{"key":"08119093","name":"Kernen im Remstal","type":"Kreisangehörige_Gemeinde"},"district":{"key":"08119","name":"Rems-Murr-Kreis","type":"Landkreis"},"federalState":{"key":"08","name":"Baden-Württemberg"}},{"name":"Hofgartenstr.","postalCode":"71394","locality":"Kernen im Remstal","municipality":{"key":"08119093","name":"Kernen im Remstal","type":"Kreisangehörige_Gemeinde"},"district":{"key":"08119","name":"Rems-Murr-Kreis","type":"Landkreis"},"federalState":{"key":"08","name":"Baden-Württemberg"}},{"name":"Hölderlinstr.","postalCode":"71394","locality":"Kernen im Remstal","municipality":{"key":"08119093","name":"Kernen im Remstal","type":"Kreisangehörige_Gemeinde"},"district":{"key":"08119","name":"Rems-Murr-Kreis","type":"Landkreis"},"federalState":{"key":"08","name":"Baden-Württemberg"}},{"name":"Holzbergweg","postalCode":"71394","locality":"Kernen im Remstal","municipality":{"key":"08119093","name":"Kernen im Remstal","type":"Kreisangehörige_Gemeinde"},"district":{"key":"08119","name":"Rems-Murr-Kreis","type":"Landkreis"},"federalState":{"key":"08","name":"Baden-Württemberg"}},{"name":"Im Kleinen Feldle","postalCode":"71394","locality":"Kernen im Remstal","municipality":{"key":"08119093","name":"Kernen im Remstal","type":"Kreisangehörige_Gemeinde"},"district":{"key":"08119","name":"Rems-Murr-Kreis","type":"Landkreis"},"federalState":{"key":"08","name":"Baden-Württemberg"}},{"name":"Im Vogelsang","postalCode":"71394","locality":"Kernen im Remstal","municipality":{"key":"08119093","name":"Kernen im Remstal","type":"Kreisangehörige_Gemeinde"},"district":{"key":"08119","name":"Rems-Murr-Kreis","type":"Landkreis"},"federalState":{"key":"08","name":"Baden-Württemberg"}},{"name":"Jägerstr.","postalCode":"71394","locality":"Kernen im Remstal","municipality":{"key":"08119093","name":"Kernen im Remstal","type":"Kreisangehörige_Gemeinde"},"district":{"key":"08119","name":"Rems-Murr-Kreis","type":"Landkreis"},"federalState":{"key":"08","name":"Baden-Württemberg"}},{"name":"Justinus-Kerner-Weg","postalCode":"71394","locality":"Kernen im Remstal","municipality":{"key":"08119093","name":"Kernen im Remstal","type":"Kreisangehörige_Gemeinde"},"district":{"key":"08119","name":"Rems-Murr-Kreis","type":"Landkreis"},"federalState":{"key":"08","name":"Baden-Württemberg"}},{"name":"Kantstr.","postalCode":"71394","locality":"Kernen im Remstal","municipality":{"key":"08119093","name":"Kernen im Remstal","type":"Kreisangehörige_Gemeinde"},"district":{"key":"08119","name":"Rems-Murr-Kreis","type":"Landkreis"},"federalState":{"key":"08","name":"Baden-Württemberg"}},{"name":"Kappelbergstr.","postalCode":"71394","locality":"Kernen im Remstal","municipality":{"key":"08119093","name":"Kernen im Remstal","type":"Kreisangehörige_Gemeinde"},"district":{"key":"08119","name":"Rems-Murr-Kreis","type":"Landkreis"},"federalState":{"key":"08","name":"Baden-Württemberg"}},{"name":"Karl-Gerok-Weg","postalCode":"71394","locality":"Kernen im Remstal","municipality":{"key":"08119093","name":"Kernen im Remstal","type":"Kreisangehörige_Gemeinde"},"district":{"key":"08119","name":"Rems-Murr-Kreis","type":"Landkreis"},"federalState":{"key":"08","name":"Baden-Württemberg"}},{"name":"Karl-Mauch-Str.","postalCode":"71394","locality":"Kernen im Remstal","municipality":{"key":"08119093","name":"Kernen im Remstal","type":"Kreisangehörige_Gemeinde"},"district":{"key":"08119","name":"Rems-Murr-Kreis","type":"Landkreis"},"federalState":{"key":"08","name":"Baden-Württemberg"}},{"name":"Karlstr.","postalCode":"71394","locality":"Kernen im Remstal","municipality":{"key":"08119093","name":"Kernen im Remstal","type":"Kreisangehörige_Gemeinde"},"district":{"key":"08119","name":"Rems-Murr-Kreis","type":"Landkreis"},"federalState":{"key":"08","name":"Baden-Württemberg"}},{"name":"Kelterstr.","postalCode":"71394","locality":"Kernen im Remstal","municipality":{"key":"08119093","name":"Kernen im Remstal","type":"Kreisangehörige_Gemeinde"},"district":{"key":"08119","name":"Rems-Murr-Kreis","type":"Landkreis"},"federalState":{"key":"08","name":"Baden-Württemberg"}},{"name":"Keplerstr.","postalCode":"71394","locality":"Kernen im Remstal","municipality":{"key":"08119093","name":"Kernen im Remstal","type":"Kreisangehörige_Gemeinde"},"district":{"key":"08119","name":"Rems-Murr-Kreis","type":"Landkreis"},"federalState":{"key":"08","name":"Baden-Württemberg"}},{"name":"Kirchgäßle","postalCode":"71394","locality":"Kernen im Remstal","municipality":{"key":"08119093","name":"Kernen im Remstal","type":"Kreisangehörige_Gemeinde"},"district":{"key":"08119","name":"Rems-Murr-Kreis","type":"Landkreis"},"federalState":{"key":"08","name":"Baden-Württemberg"}},{"name":"Kirchstr.","postalCode":"71394","locality":"Kernen im Remstal","municipality":{"key":"08119093","name":"Kernen im Remstal","type":"Kreisangehörige_Gemeinde"},"district":{"key":"08119","name":"Rems-Murr-Kreis","type":"Landkreis"},"federalState":{"key":"08","name":"Baden-Württemberg"}},{"name":"Kleine Steige","postalCode":"71394","locality":"Kernen im Remstal","municipality":{"key":"08119093","name":"Kernen im Remstal","type":"Kreisangehörige_Gemeinde"},"district":{"key":"08119","name":"Rems-Murr-Kreis","type":"Landkreis"},"federalState":{"key":"08","name":"Baden-Württemberg"}},{"name":"Kleinfeldstr.","postalCode":"71394","locality":"Kernen im Remstal","municipality":{"key":"08119093","name":"Kernen im Remstal","type":"Kreisangehörige_Gemeinde"},"district":{"key":"08119","name":"Rems-Murr-Kreis","type":"Landkreis"},"federalState":{"key":"08","name":"Baden-Württemberg"}},{"name":"Klosterstr.","postalCode":"71394","locality":"Kernen im Remstal","municipality":{"key":"08119093","name":"Kernen im Remstal","type":"Kreisangehörige_Gemeinde"},"district":{"key":"08119","name":"Rems-Murr-Kreis","type":"Landkreis"},"federalState":{"key":"08","name":"Baden-Württemberg"}},{"name":"Krebenweg","postalCode":"71394","locality":"Kernen im Remstal","municipality":{"key":"08119093","name":"Kernen im Remstal","type":"Kreisangehörige_Gemeinde"},"district":{"key":"08119","name":"Rems-Murr-Kreis","type":"Landkreis"},"federalState":{"key":"08","name":"Baden-Württemberg"}},{"name":"Kurze Str.","postalCode":"71394","locality":"Kernen im Remstal","municipality":{"key":"08119093","name":"Kernen im Remstal","type":"Kreisangehörige_Gemeinde"},"district":{"key":"08119","name":"Rems-Murr-Kreis","type":"Landkreis"},"federalState":{"key":"08","name":"Baden-Württemberg"}},{"name":"Lammkreisel","postalCode":"71394","locality":"Kernen im Remstal","municipality":{"key":"08119093","name":"Kernen im Remstal","type":"Kreisangehörige_Gemeinde"},"district":{"key":"08119","name":"Rems-Murr-Kreis","type":"Landkreis"},"federalState":{"key":"08","name":"Baden-Württemberg"}},{"name":"Lange Str.","postalCode":"71394","locality":"Kernen im Remstal","municipality":{"key":"08119093","name":"Kernen im Remstal","type":"Kreisangehörige_Gemeinde"},"district":{"key":"08119","name":"Rems-Murr-Kreis","type":"Landkreis"},"federalState":{"key":"08","name":"Baden-Württemberg"}},{"name":"Lerchenweg","postalCode":"71394","locality":"Kernen im Remstal","municipality":{"key":"08119093","name":"Kernen im Remstal","type":"Kreisangehörige_Gemeinde"},"district":{"key":"08119","name":"Rems-Murr-Kreis","type":"Landkreis"},"federalState":{"key":"08","name":"Baden-Württemberg"}},{"name":"Lilienstr.","postalCode":"71394","locality":"Kernen im Remstal","municipality":{"key":"08119093","name":"Kernen im Remstal","type":"Kreisangehörige_Gemeinde"},"district":{"key":"08119","name":"Rems-Murr-Kreis","type":"Landkreis"},"federalState":{"key":"08","name":"Baden-Württemberg"}},{"name":"Lindenstr.","postalCode":"71394","locality":"Kernen im Remstal","municipality":{"key":"08119093","name":"Kernen im Remstal","type":"Kreisangehörige_Gemeinde"},"district":{"key":"08119","name":"Rems-Murr-Kreis","type":"Landkreis"},"federalState":{"key":"08","name":"Baden-Württemberg"}},{"name":"Lobenroter Weg","postalCode":"71394","locality":"Kernen im Remstal","municipality":{"key":"08119093","name":"Kernen im Remstal","type":"Kreisangehörige_Gemeinde"},"district":{"key":"08119","name":"Rems-Murr-Kreis","type":"Landkreis"},"federalState":{"key":"08","name":"Baden-Württemberg"}},{"name":"Lortzingstr.","postalCode":"71394","locality":"Kernen im Remstal","municipality":{"key":"08119093","name":"Kernen im Remstal","type":"Kreisangehörige_Gemeinde"},"district":{"key":"08119","name":"Rems-Murr-Kreis","type":"Landkreis"},"federalState":{"key":"08","name":"Baden-Württemberg"}},{"name":"Max-Eyth-Str.","postalCode":"71394","locality":"Kernen im Remstal","municipality":{"key":"08119093","name":"Kernen im Remstal","type":"Kreisangehörige_Gemeinde"},"district":{"key":"08119","name":"Rems-Murr-Kreis","type":"Landkreis"},"federalState":{"key":"08","name":"Baden-Württemberg"}},{"name":"Meisenweg","postalCode":"71394","locality":"Kernen im Remstal","municipality":{"key":"08119093","name":"Kernen im Remstal","type":"Kreisangehörige_Gemeinde"},"district":{"key":"08119","name":"Rems-Murr-Kreis","type":"Landkreis"},"federalState":{"key":"08","name":"Baden-Württemberg"}},{"name":"Mercedesstr.","postalCode":"71394","locality":"Kernen im Remstal","municipality":{"key":"08119093","name":"Kernen im Remstal","type":"Kreisangehörige_Gemeinde"},"district":{"key":"08119","name":"Rems-Murr-Kreis","type":"Landkreis"},"federalState":{"key":"08","name":"Baden-Württemberg"}},{"name":"Mörikestr.","postalCode":"71394","locality":"Kernen im Remstal","municipality":{"key":"08119093","name":"Kernen im Remstal","type":"Kreisangehörige_Gemeinde"},"district":{"key":"08119","name":"Rems-Murr-Kreis","type":"Landkreis"},"federalState":{"key":"08","name":"Baden-Württemberg"}},{"name":"Mozartstr.","postalCode":"71394","locality":"Kernen im Remstal","municipality":{"key":"08119093","name":"Kernen im Remstal","type":"Kreisangehörige_Gemeinde"},"district":{"key":"08119","name":"Rems-Murr-Kreis","type":"Landkreis"},"federalState":{"key":"08","name":"Baden-Württemberg"}},{"name":"Mühlgartenweg","postalCode":"71394","locality":"Kernen im Remstal","municipality":{"key":"08119093","name":"Kernen im Remstal","type":"Kreisangehörige_Gemeinde"},"district":{"key":"08119","name":"Rems-Murr-Kreis","type":"Landkreis"},"federalState":{"key":"08","name":"Baden-Württemberg"}},{"name":"Mühlstr.","postalCode":"71394","locality":"Kernen im Remstal","municipality":{"key":"08119093","name":"Kernen im Remstal","type":"Kreisangehörige_Gemeinde"},"district":{"key":"08119","name":"Rems-Murr-Kreis","type":"Landkreis"},"federalState":{"key":"08","name":"Baden-Württemberg"}},{"name":"Mühlweg","postalCode":"71394","locality":"Kernen im Remstal","municipality":{"key":"08119093","name":"Kernen im Remstal","type":"Kreisangehörige_Gemeinde"},"district":{"key":"08119","name":"Rems-Murr-Kreis","type":"Landkreis"},"federalState":{"key":"08","name":"Baden-Württemberg"}},{"name":"Nelkenstr.","postalCode":"71394","locality":"Kernen im Remstal","municipality":{"key":"08119093","name":"Kernen im Remstal","type":"Kreisangehörige_Gemeinde"},"district":{"key":"08119","name":"Rems-Murr-Kreis","type":"Landkreis"},"federalState":{"key":"08","name":"Baden-Württemberg"}},{"name":"Oeffinger Str.","postalCode":"71394","locality":"Kernen im Remstal","municipality":{"key":"08119093","name":"Kernen im Remstal","type":"Kreisangehörige_Gemeinde"},"district":{"key":"08119","name":"Rems-Murr-Kreis","type":"Landkreis"},"federalState":{"key":"08","name":"Baden-Württemberg"}},{"name":"Panoramaweg","postalCode":"71394","locality":"Kernen im Remstal","municipality":{"key":"08119093","name":"Kernen im Remstal","type":"Kreisangehörige_Gemeinde"},"district":{"key":"08119","name":"Rems-Murr-Kreis","type":"Landkreis"},"federalState":{"key":"08","name":"Baden-Württemberg"}},{"name":"Paul-Käßer-Weg","postalCode":"71394","locality":"Kernen im Remstal","municipality":{"key":"08119093","name":"Kernen im Remstal","type":"Kreisangehörige_Gemeinde"},"district":{"key":"08119","name":"Rems-Murr-Kreis","type":"Landkreis"},"federalState":{"key":"08","name":"Baden-Württemberg"}},{"name":"Pfarrstr.","postalCode":"71394","locality":"Kernen im Remstal","municipality":{"key":"08119093","name":"Kernen im Remstal","type":"Kreisangehörige_Gemeinde"},"district":{"key":"08119","name":"Rems-Murr-Kreis","type":"Landkreis"},"federalState":{"key":"08","name":"Baden-Württemberg"}},{"name":"Pirolweg","postalCode":"71394","locality":"Kernen im Remstal","municipality":{"key":"08119093","name":"Kernen im Remstal","type":"Kreisangehörige_Gemeinde"},"district":{"key":"08119","name":"Rems-Murr-Kreis","type":"Landkreis"},"federalState":{"key":"08","name":"Baden-Württemberg"}},{"name":"Pommerstr.","postalCode":"71394","locality":"Kernen im Remstal","municipality":{"key":"08119093","name":"Kernen im Remstal","type":"Kreisangehörige_Gemeinde"},"district":{"key":"08119","name":"Rems-Murr-Kreis","type":"Landkreis"},"federalState":{"key":"08","name":"Baden-Württemberg"}},{"name":"Porschestr.","postalCode":"71394","locality":"Kernen im Remstal","municipality":{"key":"08119093","name":"Kernen im Remstal","type":"Kreisangehörige_Gemeinde"},"district":{"key":"08119","name":"Rems-Murr-Kreis","type":"Landkreis"},"federalState":{"key":"08","name":"Baden-Württemberg"}},{"name":"Reutegartenweg","postalCode":"71394","locality":"Kernen im Remstal","municipality":{"key":"08119093","name":"Kernen im Remstal","type":"Kreisangehörige_Gemeinde"},"district":{"key":"08119","name":"Rems-Murr-Kreis","type":"Landkreis"},"federalState":{"key":"08","name":"Baden-Württemberg"}},{"name":"Reutestr.","postalCode":"71394","locality":"Kernen im Remstal","municipality":{"key":"08119093","name":"Kernen im Remstal","type":"Kreisangehörige_Gemeinde"},"district":{"key":"08119","name":"Rems-Murr-Kreis","type":"Landkreis"},"federalState":{"key":"08","name":"Baden-Württemberg"}},{"name":"Robert-Bosch-Str.","postalCode":"71394","locality":"Kernen im Remstal","municipality":{"key":"08119093","name":"Kernen im Remstal","type":"Kreisangehörige_Gemeinde"},"district":{"key":"08119","name":"Rems-Murr-Kreis","type":"Landkreis"},"federalState":{"key":"08","name":"Baden-Württemberg"}},{"name":"Römmelesweg","postalCode":"71394","locality":"Kernen im Remstal","municipality":{"key":"08119093","name":"Kernen im Remstal","type":"Kreisangehörige_Gemeinde"},"district":{"key":"08119","name":"Rems-Murr-Kreis","type":"Landkreis"},"federalState":{"key":"08","name":"Baden-Württemberg"}},{"name":"Rommelshäuser Str.","postalCode":"71394","locality":"Kernen im Remstal","municipality":{"key":"08119093","name":"Kernen im Remstal","type":"Kreisangehörige_Gemeinde"},"district":{"key":"08119","name":"Rems-Murr-Kreis","type":"Landkreis"},"federalState":{"key":"08","name":"Baden-Württemberg"}},{"name":"Rosenäcker","postalCode":"71394","locality":"Kernen im Remstal","municipality":{"key":"08119093","name":"Kernen im Remstal","type":"Kreisangehörige_Gemeinde"},"district":{"key":"08119","name":"Rems-Murr-Kreis","type":"Landkreis"},"federalState":{"key":"08","name":"Baden-Württemberg"}},{"name":"Rosenstr.","postalCode":"71394","locality":"Kernen im Remstal","municipality":{"key":"08119093","name":"Kernen im Remstal","type":"Kreisangehörige_Gemeinde"},"district":{"key":"08119","name":"Rems-Murr-Kreis","type":"Landkreis"},"federalState":{"key":"08","name":"Baden-Württemberg"}},{"name":"Rotenbergstr.","postalCode":"71394","locality":"Kernen im Remstal","municipality":{"key":"08119093","name":"Kernen im Remstal","type":"Kreisangehörige_Gemeinde"},"district":{"key":"08119","name":"Rems-Murr-Kreis","type":"Landkreis"},"federalState":{"key":"08","name":"Baden-Württemberg"}},{"name":"Rudolf-Diesel-Str.","postalCode":"71394","locality":"Kernen im Remstal","municipality":{"key":"08119093","name":"Kernen im Remstal","type":"Kreisangehörige_Gemeinde"},"district":{"key":"08119","name":"Rems-Murr-Kreis","type":"Landkreis"},"federalState":{"key":"08","name":"Baden-Württemberg"}},{"name":"Sachsenweg","postalCode":"71394","locality":"Kernen im Remstal","municipality":{"key":"08119093","name":"Kernen im Remstal","type":"Kreisangehörige_Gemeinde"},"district":{"key":"08119","name":"Rems-Murr-Kreis","type":"Landkreis"},"federalState":{"key":"08","name":"Baden-Württemberg"}},{"name":"Schafstr.","postalCode":"71394","locality":"Kernen im Remstal","municipality":{"key":"08119093","name":"Kernen im Remstal","type":"Kreisangehörige_Gemeinde"},"district":{"key":"08119","name":"Rems-Murr-Kreis","type":"Landkreis"},"federalState":{"key":"08","name":"Baden-Württemberg"}},{"name":"Schiemerweg","postalCode":"71394","locality":"Kernen im Remstal","municipality":{"key":"08119093","name":"Kernen im Remstal","type":"Kreisangehörige_Gemeinde"},"district":{"key":"08119","name":"Rems-Murr-Kreis","type":"Landkreis"},"federalState":{"key":"08","name":"Baden-Württemberg"}},{"name":"Schillerstr.","postalCode":"71394","locality":"Kernen im Remstal","municipality":{"key":"08119093","name":"Kernen im Remstal","type":"Kreisangehörige_Gemeinde"},"district":{"key":"08119","name":"Rems-Murr-Kreis","type":"Landkreis"},"federalState":{"key":"08","name":"Baden-Württemberg"}},{"name":"Schlesierweg","postalCode":"71394","locality":"Kernen im Remstal","municipality":{"key":"08119093","name":"Kernen im Remstal","type":"Kreisangehörige_Gemeinde"},"district":{"key":"08119","name":"Rems-Murr-Kreis","type":"Landkreis"},"federalState":{"key":"08","name":"Baden-Württemberg"}},{"name":"Schloßberg","postalCode":"71394","locality":"Kernen im Remstal","municipality":{"key":"08119093","name":"Kernen im Remstal","type":"Kreisangehörige_Gemeinde"},"district":{"key":"08119","name":"Rems-Murr-Kreis","type":"Landkreis"},"federalState":{"key":"08","name":"Baden-Württemberg"}},{"name":"Schloßstr.","postalCode":"71394","locality":"Kernen im Remstal","municipality":{"key":"08119093","name":"Kernen im Remstal","type":"Kreisangehörige_Gemeinde"},"district":{"key":"08119","name":"Rems-Murr-Kreis","type":"Landkreis"},"federalState":{"key":"08","name":"Baden-Württemberg"}},{"name":"Schmidener Weg","postalCode":"71394","locality":"Kernen im Remstal","municipality":{"key":"08119093","name":"Kernen im Remstal","type":"Kreisangehörige_Gemeinde"},"district":{"key":"08119","name":"Rems-Murr-Kreis","type":"Landkreis"},"federalState":{"key":"08","name":"Baden-Württemberg"}},{"name":"Schubertstr.","postalCode":"71394","locality":"Kernen im Remstal","municipality":{"key":"08119093","name":"Kernen im Remstal","type":"Kreisangehörige_Gemeinde"},"district":{"key":"08119","name":"Rems-Murr-Kreis","type":"Landkreis"},"federalState":{"key":"08","name":"Baden-Württemberg"}},{"name":"Schumannstr.","postalCode":"71394","locality":"Kernen im Remstal","municipality":{"key":"08119093","name":"Kernen im Remstal","type":"Kreisangehörige_Gemeinde"},"district":{"key":"08119","name":"Rems-Murr-Kreis","type":"Landkreis"},"federalState":{"key":"08","name":"Baden-Württemberg"}},{"name":"Schurwaldstr.","postalCode":"71394","locality":"Kernen im Remstal","municipality":{"key":"08119093","name":"Kernen im Remstal","type":"Kreisangehörige_Gemeinde"},"district":{"key":"08119","name":"Rems-Murr-Kreis","type":"Landkreis"},"federalState":{"key":"08","name":"Baden-Württemberg"}},{"name":"Schwalbenweg","postalCode":"71394","locality":"Kernen im Remstal","municipality":{"key":"08119093","name":"Kernen im Remstal","type":"Kreisangehörige_Gemeinde"},"district":{"key":"08119","name":"Rems-Murr-Kreis","type":"Landkreis"},"federalState":{"key":"08","name":"Baden-Württemberg"}},{"name":"Seedammstr.","postalCode":"71394","locality":"Kernen im Remstal","municipality":{"key":"08119093","name":"Kernen im Remstal","type":"Kreisangehörige_Gemeinde"},"district":{"key":"08119","name":"Rems-Murr-Kreis","type":"Landkreis"},"federalState":{"key":"08","name":"Baden-Württemberg"}},{"name":"Seemühle","postalCode":"71394","locality":"Kernen im Remstal","municipality":{"key":"08119093","name":"Kernen im Remstal","type":"Kreisangehörige_Gemeinde"},"district":{"key":"08119","name":"Rems-Murr-Kreis","type":"Landkreis"},"federalState":{"key":"08","name":"Baden-Württemberg"}},{"name":"Seestr.","postalCode":"71394","locality":"Kernen im Remstal","municipality":{"key":"08119093","name":"Kernen im Remstal","type":"Kreisangehörige_Gemeinde"},"district":{"key":"08119","name":"Rems-Murr-Kreis","type":"Landkreis"},"federalState":{"key":"08","name":"Baden-Württemberg"}},{"name":"Seitenstr.","postalCode":"71394","locality":"Kernen im Remstal","municipality":{"key":"08119093","name":"Kernen im Remstal","type":"Kreisangehörige_Gemeinde"},"district":{"key":"08119","name":"Rems-Murr-Kreis","type":"Landkreis"},"federalState":{"key":"08","name":"Baden-Württemberg"}},{"name":"Siemensstr.","postalCode":"71394","locality":"Kernen im Remstal","municipality":{"key":"08119093","name":"Kernen im Remstal","type":"Kreisangehörige_Gemeinde"},"district":{"key":"08119","name":"Rems-Murr-Kreis","type":"Landkreis"},"federalState":{"key":"08","name":"Baden-Württemberg"}},{"name":"Silvanerweg","postalCode":"71394","locality":"Kernen im Remstal","municipality":{"key":"08119093","name":"Kernen im Remstal","type":"Kreisangehörige_Gemeinde"},"district":{"key":"08119","name":"Rems-Murr-Kreis","type":"Landkreis"},"federalState":{"key":"08","name":"Baden-Württemberg"}},{"name":"Sonnhalde","postalCode":"71394","locality":"Kernen im Remstal","municipality":{"key":"08119093","name":"Kernen im Remstal","type":"Kreisangehörige_Gemeinde"},"district":{"key":"08119","name":"Rems-Murr-Kreis","type":"Landkreis"},"federalState":{"key":"08","name":"Baden-Württemberg"}},{"name":"Starenweg","postalCode":"71394","locality":"Kernen im Remstal","municipality":{"key":"08119093","name":"Kernen im Remstal","type":"Kreisangehörige_Gemeinde"},"district":{"key":"08119","name":"Rems-Murr-Kreis","type":"Landkreis"},"federalState":{"key":"08","name":"Baden-Württemberg"}},{"name":"Steigstr.","postalCode":"71394","locality":"Kernen im Remstal","municipality":{"key":"08119093","name":"Kernen im Remstal","type":"Kreisangehörige_Gemeinde"},"district":{"key":"08119","name":"Rems-Murr-Kreis","type":"Landkreis"},"federalState":{"key":"08","name":"Baden-Württemberg"}},{"name":"Stettener Str.","postalCode":"71394","locality":"Kernen im Remstal","municipality":{"key":"08119093","name":"Kernen im Remstal","type":"Kreisangehörige_Gemeinde"},"district":{"key":"08119","name":"Rems-Murr-Kreis","type":"Landkreis"},"federalState":{"key":"08","name":"Baden-Württemberg"}},{"name":"St.-Pierre-Platz","postalCode":"71394","locality":"Kernen im Remstal","municipality":{"key":"08119093","name":"Kernen im Remstal","type":"Kreisangehörige_Gemeinde"},"district":{"key":"08119","name":"Rems-Murr-Kreis","type":"Landkreis"},"federalState":{"key":"08","name":"Baden-Württemberg"}},{"name":"Sudetenstr.","postalCode":"71394","locality":"Kernen im Remstal","municipality":{"key":"08119093","name":"Kernen im Remstal","type":"Kreisangehörige_Gemeinde"},"district":{"key":"08119","name":"Rems-Murr-Kreis","type":"Landkreis"},"federalState":{"key":"08","name":"Baden-Württemberg"}},{"name":"Talstr.","postalCode":"71394","locality":"Kernen im Remstal","municipality":{"key":"08119093","name":"Kernen im Remstal","type":"Kreisangehörige_Gemeinde"},"district":{"key":"08119","name":"Rems-Murr-Kreis","type":"Landkreis"},"federalState":{"key":"08","name":"Baden-Württemberg"}},{"name":"Tannäckerstr.","postalCode":"71394","locality":"Kernen im Remstal","municipality":{"key":"08119093","name":"Kernen im Remstal","type":"Kreisangehörige_Gemeinde"},"district":{"key":"08119","name":"Rems-Murr-Kreis","type":"Landkreis"},"federalState":{"key":"08","name":"Baden-Württemberg"}},{"name":"Thüringer Weg","postalCode":"71394","locality":"Kernen im Remstal","municipality":{"key":"08119093","name":"Kernen im Remstal","type":"Kreisangehörige_Gemeinde"},"district":{"key":"08119","name":"Rems-Murr-Kreis","type":"Landkreis"},"federalState":{"key":"08","name":"Baden-Württemberg"}},{"name":"Traubenstr.","postalCode":"71394","locality":"Kernen im Remstal","municipality":{"key":"08119093","name":"Kernen im Remstal","type":"Kreisangehörige_Gemeinde"},"district":{"key":"08119","name":"Rems-Murr-Kreis","type":"Landkreis"},"federalState":{"key":"08","name":"Baden-Württemberg"}},{"name":"Trollingerweg","postalCode":"71394","locality":"Kernen im Remstal","municipality":{"key":"08119093","name":"Kernen im Remstal","type":"Kreisangehörige_Gemeinde"},"district":{"key":"08119","name":"Rems-Murr-Kreis","type":"Landkreis"},"federalState":{"key":"08","name":"Baden-Württemberg"}},{"name":"Tulpenstr.","postalCode":"71394","locality":"Kernen im Remstal","municipality":{"key":"08119093","name":"Kernen im Remstal","type":"Kreisangehörige_Gemeinde"},"district":{"key":"08119","name":"Rems-Murr-Kreis","type":"Landkreis"},"federalState":{"key":"08","name":"Baden-Württemberg"}},{"name":"Uhlandstr.","postalCode":"71394","locality":"Kernen im Remstal","municipality":{"key":"08119093","name":"Kernen im Remstal","type":"Kreisangehörige_Gemeinde"},"district":{"key":"08119","name":"Rems-Murr-Kreis","type":"Landkreis"},"federalState":{"key":"08","name":"Baden-Württemberg"}},{"name":"Verbindungssteg","postalCode":"71394","locality":"Kernen im Remstal","municipality":{"key":"08119093","name":"Kernen im Remstal","type":"Kreisangehörige_Gemeinde"},"district":{"key":"08119","name":"Rems-Murr-Kreis","type":"Landkreis"},"federalState":{"key":"08","name":"Baden-Württemberg"}},{"name":"Wagnerstr.","postalCode":"71394","locality":"Kernen im Remstal","municipality":{"key":"08119093","name":"Kernen im Remstal","type":"Kreisangehörige_Gemeinde"},"district":{"key":"08119","name":"Rems-Murr-Kreis","type":"Landkreis"},"federalState":{"key":"08","name":"Baden-Württemberg"}},{"name":"Waiblinger Str.","postalCode":"71394","locality":"Kernen im Remstal","municipality":{"key":"08119093","name":"Kernen im Remstal","type":"Kreisangehörige_Gemeinde"},"district":{"key":"08119","name":"Rems-Murr-Kreis","type":"Landkreis"},"federalState":{"key":"08","name":"Baden-Württemberg"}},{"name":"Weinstr.","postalCode":"71394","locality":"Kernen im Remstal","municipality":{"key":"08119093","name":"Kernen im Remstal","type":"Kreisangehörige_Gemeinde"},"district":{"key":"08119","name":"Rems-Murr-Kreis","type":"Landkreis"},"federalState":{"key":"08","name":"Baden-Württemberg"}},{"name":"Wielandstr.","postalCode":"71394","locality":"Kernen im Remstal","municipality":{"key":"08119093","name":"Kernen im Remstal","type":"Kreisangehörige_Gemeinde"},"district":{"key":"08119","name":"Rems-Murr-Kreis","type":"Landkreis"},"federalState":{"key":"08","name":"Baden-Württemberg"}},{"name":"Wiesenstr.","postalCode":"71394","locality":"Kernen im Remstal","municipality":{"key":"08119093","name":"Kernen im Remstal","type":"Kreisangehörige_Gemeinde"},"district":{"key":"08119","name":"Rems-Murr-Kreis","type":"Landkreis"},"federalState":{"key":"08","name":"Baden-Württemberg"}},{"name":"Wildkirschenweg","postalCode":"71394","locality":"Kernen im Remstal","municipality":{"key":"08119093","name":"Kernen im Remstal","type":"Kreisangehörige_Gemeinde"},"district":{"key":"08119","name":"Rems-Murr-Kreis","type":"Landkreis"},"federalState":{"key":"08","name":"Baden-Württemberg"}},{"name":"Wilhelm-Maybach-Str.","postalCode":"71394","locality":"Kernen im Remstal","municipality":{"key":"08119093","name":"Kernen im Remstal","type":"Kreisangehörige_Gemeinde"},"district":{"key":"08119","name":"Rems-Murr-Kreis","type":"Landkreis"},"federalState":{"key":"08","name":"Baden-Württemberg"}},{"name":"Wilhelmstr.","postalCode":"71394","locality":"Kernen im Remstal","municipality":{"key":"08119093","name":"Kernen im Remstal","type":"Kreisangehörige_Gemeinde"},"district":{"key":"08119","name":"Rems-Murr-Kreis","type":"Landkreis"},"federalState":{"key":"08","name":"Baden-Württemberg"}},{"name":"Willy-Rüsch-Str.","postalCode":"71394","locality":"Kernen im Remstal","municipality":{"key":"08119093","name":"Kernen im Remstal","type":"Kreisangehörige_Gemeinde"},"district":{"key":"08119","name":"Rems-Murr-Kreis","type":"Landkreis"},"federalState":{"key":"08","name":"Baden-Württemberg"}},{"name":"Willy-Rüsch-Str. 11","postalCode":"71394","locality":"Kernen im Remstal","municipality":{"key":"08119093","name":"Kernen im Remstal","type":"Kreisangehörige_Gemeinde"},"district":{"key":"08119","name":"Rems-Murr-Kreis","type":"Landkreis"},"federalState":{"key":"08","name":"Baden-Württemberg"}},{"name":"Zeisigweg","postalCode":"71394","locality":"Kernen im Remstal","municipality":{"key":"08119093","name":"Kernen im Remstal","type":"Kreisangehörige_Gemeinde"},"district":{"key":"08119","name":"Rems-Murr-Kreis","type":"Landkreis"},"federalState":{"key":"08","name":"Baden-Württemberg"}},]