[{"name":"Altdöbener Str.","postalCode":"03229","locality":"Luckaitztal","municipality":{"key":"12066202","name":"Luckaitztal","type":"Kreisangehörige_Gemeinde"},"district":{"key":"12066","name":"Oberspreewald-Lausitz","type":"Landkreis"},"federalState":{"key":"12","name":"Brandenburg"}},{"name":"Altdöberner Landstr.","postalCode":"03229","locality":"Luckaitztal","municipality":{"key":"12066202","name":"Luckaitztal","type":"Kreisangehörige_Gemeinde"},"district":{"key":"12066","name":"Oberspreewald-Lausitz","type":"Landkreis"},"federalState":{"key":"12","name":"Brandenburg"}},{"name":"Altdöberner Str.","postalCode":"03229","locality":"Luckaitztal","municipality":{"key":"12066202","name":"Luckaitztal","type":"Kreisangehörige_Gemeinde"},"district":{"key":"12066","name":"Oberspreewald-Lausitz","type":"Landkreis"},"federalState":{"key":"12","name":"Brandenburg"}},{"name":"Am Speicher","postalCode":"03229","locality":"Luckaitztal","municipality":{"key":"12066202","name":"Luckaitztal","type":"Kreisangehörige_Gemeinde"},"district":{"key":"12066","name":"Oberspreewald-Lausitz","type":"Landkreis"},"federalState":{"key":"12","name":"Brandenburg"}},{"name":"Bahnhofstr.","postalCode":"03229","locality":"Luckaitztal","municipality":{"key":"12066202","name":"Luckaitztal","type":"Kreisangehörige_Gemeinde"},"district":{"key":"12066","name":"Oberspreewald-Lausitz","type":"Landkreis"},"federalState":{"key":"12","name":"Brandenburg"}},{"name":"Bahnhofsweg","postalCode":"03229","locality":"Luckaitztal","municipality":{"key":"12066202","name":"Luckaitztal","type":"Kreisangehörige_Gemeinde"},"district":{"key":"12066","name":"Oberspreewald-Lausitz","type":"Landkreis"},"federalState":{"key":"12","name":"Brandenburg"}},{"name":"Buchwäldchener Dorfstr.","postalCode":"03229","locality":"Luckaitztal","municipality":{"key":"12066202","name":"Luckaitztal","type":"Kreisangehörige_Gemeinde"},"district":{"key":"12066","name":"Oberspreewald-Lausitz","type":"Landkreis"},"federalState":{"key":"12","name":"Brandenburg"}},{"name":"Cabeler Str.","postalCode":"03229","locality":"Luckaitztal","municipality":{"key":"12066202","name":"Luckaitztal","type":"Kreisangehörige_Gemeinde"},"district":{"key":"12066","name":"Oberspreewald-Lausitz","type":"Landkreis"},"federalState":{"key":"12","name":"Brandenburg"}},{"name":"Calauer Str.","postalCode":"03229","locality":"Luckaitztal","municipality":{"key":"12066202","name":"Luckaitztal","type":"Kreisangehörige_Gemeinde"},"district":{"key":"12066","name":"Oberspreewald-Lausitz","type":"Landkreis"},"federalState":{"key":"12","name":"Brandenburg"}},{"name":"Dorfaue","postalCode":"03229","locality":"Luckaitztal","municipality":{"key":"12066202","name":"Luckaitztal","type":"Kreisangehörige_Gemeinde"},"district":{"key":"12066","name":"Oberspreewald-Lausitz","type":"Landkreis"},"federalState":{"key":"12","name":"Brandenburg"}},{"name":"Dorfstr.","postalCode":"03229","locality":"Luckaitztal","municipality":{"key":"12066202","name":"Luckaitztal","type":"Kreisangehörige_Gemeinde"},"district":{"key":"12066","name":"Oberspreewald-Lausitz","type":"Landkreis"},"federalState":{"key":"12","name":"Brandenburg"}},{"name":"Feldweg","postalCode":"03229","locality":"Luckaitztal","municipality":{"key":"12066202","name":"Luckaitztal","type":"Kreisangehörige_Gemeinde"},"district":{"key":"12066","name":"Oberspreewald-Lausitz","type":"Landkreis"},"federalState":{"key":"12","name":"Brandenburg"}},{"name":"Feuerwehrzufahrt","postalCode":"03229","locality":"Luckaitztal","municipality":{"key":"12066202","name":"Luckaitztal","type":"Kreisangehörige_Gemeinde"},"district":{"key":"12066","name":"Oberspreewald-Lausitz","type":"Landkreis"},"federalState":{"key":"12","name":"Brandenburg"}},{"name":"Flugplatzstr.","postalCode":"03229","locality":"Luckaitztal","municipality":{"key":"12066202","name":"Luckaitztal","type":"Kreisangehörige_Gemeinde"},"district":{"key":"12066","name":"Oberspreewald-Lausitz","type":"Landkreis"},"federalState":{"key":"12","name":"Brandenburg"}},{"name":"Friedhofsweg","postalCode":"03229","locality":"Luckaitztal","municipality":{"key":"12066202","name":"Luckaitztal","type":"Kreisangehörige_Gemeinde"},"district":{"key":"12066","name":"Oberspreewald-Lausitz","type":"Landkreis"},"federalState":{"key":"12","name":"Brandenburg"}},{"name":"Gosdaer Str.","postalCode":"03229","locality":"Luckaitztal","municipality":{"key":"12066202","name":"Luckaitztal","type":"Kreisangehörige_Gemeinde"},"district":{"key":"12066","name":"Oberspreewald-Lausitz","type":"Landkreis"},"federalState":{"key":"12","name":"Brandenburg"}},{"name":"Hauptstr.","postalCode":"03229","locality":"Luckaitztal","municipality":{"key":"12066202","name":"Luckaitztal","type":"Kreisangehörige_Gemeinde"},"district":{"key":"12066","name":"Oberspreewald-Lausitz","type":"Landkreis"},"federalState":{"key":"12","name":"Brandenburg"}},{"name":"Lindenallee","postalCode":"03229","locality":"Luckaitztal","municipality":{"key":"12066202","name":"Luckaitztal","type":"Kreisangehörige_Gemeinde"},"district":{"key":"12066","name":"Oberspreewald-Lausitz","type":"Landkreis"},"federalState":{"key":"12","name":"Brandenburg"}},{"name":"Lindenstr.","postalCode":"03229","locality":"Luckaitztal","municipality":{"key":"12066202","name":"Luckaitztal","type":"Kreisangehörige_Gemeinde"},"district":{"key":"12066","name":"Oberspreewald-Lausitz","type":"Landkreis"},"federalState":{"key":"12","name":"Brandenburg"}},{"name":"Liptener Str.","postalCode":"03229","locality":"Luckaitztal","municipality":{"key":"12066202","name":"Luckaitztal","type":"Kreisangehörige_Gemeinde"},"district":{"key":"12066","name":"Oberspreewald-Lausitz","type":"Landkreis"},"federalState":{"key":"12","name":"Brandenburg"}},{"name":"Luckaitzer Str.","postalCode":"03229","locality":"Luckaitztal","municipality":{"key":"12066202","name":"Luckaitztal","type":"Kreisangehörige_Gemeinde"},"district":{"key":"12066","name":"Oberspreewald-Lausitz","type":"Landkreis"},"federalState":{"key":"12","name":"Brandenburg"}},{"name":"Mühlenstr.","postalCode":"03229","locality":"Luckaitztal","municipality":{"key":"12066202","name":"Luckaitztal","type":"Kreisangehörige_Gemeinde"},"district":{"key":"12066","name":"Oberspreewald-Lausitz","type":"Landkreis"},"federalState":{"key":"12","name":"Brandenburg"}},{"name":"Ranzower Dorfstr.","postalCode":"03229","locality":"Luckaitztal","municipality":{"key":"12066202","name":"Luckaitztal","type":"Kreisangehörige_Gemeinde"},"district":{"key":"12066","name":"Oberspreewald-Lausitz","type":"Landkreis"},"federalState":{"key":"12","name":"Brandenburg"}},{"name":"Rettchensdorfer Str.","postalCode":"03229","locality":"Luckaitztal","municipality":{"key":"12066202","name":"Luckaitztal","type":"Kreisangehörige_Gemeinde"},"district":{"key":"12066","name":"Oberspreewald-Lausitz","type":"Landkreis"},"federalState":{"key":"12","name":"Brandenburg"}},{"name":"Schulstr.","postalCode":"03229","locality":"Luckaitztal","municipality":{"key":"12066202","name":"Luckaitztal","type":"Kreisangehörige_Gemeinde"},"district":{"key":"12066","name":"Oberspreewald-Lausitz","type":"Landkreis"},"federalState":{"key":"12","name":"Brandenburg"}},{"name":"Stichstr.","postalCode":"03229","locality":"Luckaitztal","municipality":{"key":"12066202","name":"Luckaitztal","type":"Kreisangehörige_Gemeinde"},"district":{"key":"12066","name":"Oberspreewald-Lausitz","type":"Landkreis"},"federalState":{"key":"12","name":"Brandenburg"}},{"name":"Weißager Dorfstr.","postalCode":"03229","locality":"Luckaitztal","municipality":{"key":"12066202","name":"Luckaitztal","type":"Kreisangehörige_Gemeinde"},"district":{"key":"12066","name":"Oberspreewald-Lausitz","type":"Landkreis"},"federalState":{"key":"12","name":"Brandenburg"}},{"name":"Wiesenweg","postalCode":"03229","locality":"Luckaitztal","municipality":{"key":"12066202","name":"Luckaitztal","type":"Kreisangehörige_Gemeinde"},"district":{"key":"12066","name":"Oberspreewald-Lausitz","type":"Landkreis"},"federalState":{"key":"12","name":"Brandenburg"}},{"name":"Ziegeleiweg","postalCode":"03229","locality":"Luckaitztal","municipality":{"key":"12066202","name":"Luckaitztal","type":"Kreisangehörige_Gemeinde"},"district":{"key":"12066","name":"Oberspreewald-Lausitz","type":"Landkreis"},"federalState":{"key":"12","name":"Brandenburg"}},]