[{"key":"10247032","name":"A2","postalCode":"6374","locality":"Buochs","commune":{"key":"1502","name":"Buochs","shortName":"Buochs"},"district":{"key":"700","name":"Kanton Nidwalden"},"canton":{"key":"7","code":"NW","name":"Nidwalden"},"status":"Real"},{"key":"10128680","name":"Aamättli","postalCode":"6374","locality":"Buochs","commune":{"key":"1502","name":"Buochs","shortName":"Buochs"},"district":{"key":"700","name":"Kanton Nidwalden"},"canton":{"key":"7","code":"NW","name":"Nidwalden"},"status":"Real"},{"key":"10207157","name":"Aawasseregg","postalCode":"6374","locality":"Buochs","commune":{"key":"1502","name":"Buochs","shortName":"Buochs"},"district":{"key":"700","name":"Kanton Nidwalden"},"canton":{"key":"7","code":"NW","name":"Nidwalden"},"status":"Real"},{"key":"10121331","name":"Allmendstrasse","postalCode":"6374","locality":"Buochs","commune":{"key":"1502","name":"Buochs","shortName":"Buochs"},"district":{"key":"700","name":"Kanton Nidwalden"},"canton":{"key":"7","code":"NW","name":"Nidwalden"},"status":"Real"},{"key":"10071454","name":"Alpenstrasse","postalCode":"6374","locality":"Buochs","commune":{"key":"1502","name":"Buochs","shortName":"Buochs"},"district":{"key":"700","name":"Kanton Nidwalden"},"canton":{"key":"7","code":"NW","name":"Nidwalden"},"status":"Real"},{"key":"10021125","name":"Am Schüpfgraben","postalCode":"6374","locality":"Buochs","commune":{"key":"1502","name":"Buochs","shortName":"Buochs"},"district":{"key":"700","name":"Kanton Nidwalden"},"canton":{"key":"7","code":"NW","name":"Nidwalden"},"status":"Real"},{"key":"10174810","name":"Bächli","postalCode":"6374","locality":"Buochs","commune":{"key":"1502","name":"Buochs","shortName":"Buochs"},"district":{"key":"700","name":"Kanton Nidwalden"},"canton":{"key":"7","code":"NW","name":"Nidwalden"},"status":"Real"},{"key":"10021126","name":"Bannholz","postalCode":"6374","locality":"Buochs","commune":{"key":"1502","name":"Buochs","shortName":"Buochs"},"district":{"key":"700","name":"Kanton Nidwalden"},"canton":{"key":"7","code":"NW","name":"Nidwalden"},"status":"Real"},{"key":"10124044","name":"Bannwald","postalCode":"6374","locality":"Buochs","commune":{"key":"1502","name":"Buochs","shortName":"Buochs"},"district":{"key":"700","name":"Kanton Nidwalden"},"canton":{"key":"7","code":"NW","name":"Nidwalden"},"status":"Real"},{"key":"10131678","name":"Baumgarten","postalCode":"6374","locality":"Buochs","commune":{"key":"1502","name":"Buochs","shortName":"Buochs"},"district":{"key":"700","name":"Kanton Nidwalden"},"canton":{"key":"7","code":"NW","name":"Nidwalden"},"status":"Real"},{"key":"10084629","name":"Beckenriederstrasse","postalCode":"6374","locality":"Buochs","commune":{"key":"1502","name":"Buochs","shortName":"Buochs"},"district":{"key":"700","name":"Kanton Nidwalden"},"canton":{"key":"7","code":"NW","name":"Nidwalden"},"status":"Real"},{"key":"10247033","name":"Bisibiel","postalCode":"6374","locality":"Buochs","commune":{"key":"1502","name":"Buochs","shortName":"Buochs"},"district":{"key":"700","name":"Kanton Nidwalden"},"canton":{"key":"7","code":"NW","name":"Nidwalden"},"status":"Real"},{"key":"10071455","name":"Brunnenweg","postalCode":"6374","locality":"Buochs","commune":{"key":"1502","name":"Buochs","shortName":"Buochs"},"district":{"key":"700","name":"Kanton Nidwalden"},"canton":{"key":"7","code":"NW","name":"Nidwalden"},"status":"Real"},{"key":"10057082","name":"Bürg","postalCode":"6374","locality":"Buochs","commune":{"key":"1502","name":"Buochs","shortName":"Buochs"},"district":{"key":"700","name":"Kanton Nidwalden"},"canton":{"key":"7","code":"NW","name":"Nidwalden"},"status":"Real"},{"key":"10021127","name":"Bürgerheimstrasse","postalCode":"6374","locality":"Buochs","commune":{"key":"1502","name":"Buochs","shortName":"Buochs"},"district":{"key":"700","name":"Kanton Nidwalden"},"canton":{"key":"7","code":"NW","name":"Nidwalden"},"status":"Real"},{"key":"10182382","name":"Dorfleuteweg","postalCode":"6374","locality":"Buochs","commune":{"key":"1502","name":"Buochs","shortName":"Buochs"},"district":{"key":"700","name":"Kanton Nidwalden"},"canton":{"key":"7","code":"NW","name":"Nidwalden"},"status":"Real"},{"key":"10021128","name":"Dorfplatz","postalCode":"6374","locality":"Buochs","commune":{"key":"1502","name":"Buochs","shortName":"Buochs"},"district":{"key":"700","name":"Kanton Nidwalden"},"canton":{"key":"7","code":"NW","name":"Nidwalden"},"status":"Real"},{"key":"10084630","name":"Dorfstrasse","postalCode":"6374","locality":"Buochs","commune":{"key":"1502","name":"Buochs","shortName":"Buochs"},"district":{"key":"700","name":"Kanton Nidwalden"},"canton":{"key":"7","code":"NW","name":"Nidwalden"},"status":"Real"},{"key":"10071456","name":"Ebnet","postalCode":"6374","locality":"Buochs","commune":{"key":"1502","name":"Buochs","shortName":"Buochs"},"district":{"key":"700","name":"Kanton Nidwalden"},"canton":{"key":"7","code":"NW","name":"Nidwalden"},"status":"Real"},{"key":"10021129","name":"Eggertsbiel","postalCode":"6374","locality":"Buochs","commune":{"key":"1502","name":"Buochs","shortName":"Buochs"},"district":{"key":"700","name":"Kanton Nidwalden"},"canton":{"key":"7","code":"NW","name":"Nidwalden"},"status":"Real"},{"key":"10021130","name":"Ennerberg","postalCode":"6374","locality":"Buochs","commune":{"key":"1502","name":"Buochs","shortName":"Buochs"},"district":{"key":"700","name":"Kanton Nidwalden"},"canton":{"key":"7","code":"NW","name":"Nidwalden"},"status":"Real"},{"key":"10021131","name":"Ennerbergstrasse","postalCode":"6374","locality":"Buochs","commune":{"key":"1502","name":"Buochs","shortName":"Buochs"},"district":{"key":"700","name":"Kanton Nidwalden"},"canton":{"key":"7","code":"NW","name":"Nidwalden"},"status":"Real"},{"key":"10070041","name":"Ennetbürgerstrasse","postalCode":"6374","locality":"Buochs","commune":{"key":"1502","name":"Buochs","shortName":"Buochs"},"district":{"key":"700","name":"Kanton Nidwalden"},"canton":{"key":"7","code":"NW","name":"Nidwalden"},"status":"Real"},{"key":"10071457","name":"Ennetbürgerstrasse","postalCode":"6374","locality":"Buochs","commune":{"key":"1502","name":"Buochs","shortName":"Buochs"},"district":{"key":"700","name":"Kanton Nidwalden"},"canton":{"key":"7","code":"NW","name":"Nidwalden"},"status":"Real"},{"key":"10166451","name":"Erlenwäldlistrasse","postalCode":"6374","locality":"Buochs","commune":{"key":"1502","name":"Buochs","shortName":"Buochs"},"district":{"key":"700","name":"Kanton Nidwalden"},"canton":{"key":"7","code":"NW","name":"Nidwalden"},"status":"Real"},{"key":"10187407","name":"Faden","postalCode":"6374","locality":"Buochs","commune":{"key":"1502","name":"Buochs","shortName":"Buochs"},"district":{"key":"700","name":"Kanton Nidwalden"},"canton":{"key":"7","code":"NW","name":"Nidwalden"},"status":"Real"},{"key":"10084631","name":"Fadenbrücke","postalCode":"6374","locality":"Buochs","commune":{"key":"1502","name":"Buochs","shortName":"Buochs"},"district":{"key":"700","name":"Kanton Nidwalden"},"canton":{"key":"7","code":"NW","name":"Nidwalden"},"status":"Real"},{"key":"10084641","name":"Feld Ost","postalCode":"6374","locality":"Buochs","commune":{"key":"1502","name":"Buochs","shortName":"Buochs"},"district":{"key":"700","name":"Kanton Nidwalden"},"canton":{"key":"7","code":"NW","name":"Nidwalden"},"status":"Real"},{"key":"10212202","name":"Feldstrasse","postalCode":"6374","locality":"Buochs","commune":{"key":"1502","name":"Buochs","shortName":"Buochs"},"district":{"key":"700","name":"Kanton Nidwalden"},"canton":{"key":"7","code":"NW","name":"Nidwalden"},"status":"Real"},{"key":"10126560","name":"Feld West","postalCode":"6374","locality":"Buochs","commune":{"key":"1502","name":"Buochs","shortName":"Buochs"},"district":{"key":"700","name":"Kanton Nidwalden"},"canton":{"key":"7","code":"NW","name":"Nidwalden"},"status":"Real"},{"key":"10021132","name":"Fischmattstrasse","postalCode":"6374","locality":"Buochs","commune":{"key":"1502","name":"Buochs","shortName":"Buochs"},"district":{"key":"700","name":"Kanton Nidwalden"},"canton":{"key":"7","code":"NW","name":"Nidwalden"},"status":"Real"},{"key":"10084632","name":"Fischmattweg","postalCode":"6374","locality":"Buochs","commune":{"key":"1502","name":"Buochs","shortName":"Buochs"},"district":{"key":"700","name":"Kanton Nidwalden"},"canton":{"key":"7","code":"NW","name":"Nidwalden"},"status":"Real"},{"key":"10244850","name":"Flugplatz","postalCode":"6374","locality":"Buochs","commune":{"key":"1502","name":"Buochs","shortName":"Buochs"},"district":{"key":"700","name":"Kanton Nidwalden"},"canton":{"key":"7","code":"NW","name":"Nidwalden"},"status":"Real"},{"key":"10109108","name":"Flurhofstrasse","postalCode":"6374","locality":"Buochs","commune":{"key":"1502","name":"Buochs","shortName":"Buochs"},"district":{"key":"700","name":"Kanton Nidwalden"},"canton":{"key":"7","code":"NW","name":"Nidwalden"},"status":"Real"},{"key":"10021133","name":"Frohmattli","postalCode":"6374","locality":"Buochs","commune":{"key":"1502","name":"Buochs","shortName":"Buochs"},"district":{"key":"700","name":"Kanton Nidwalden"},"canton":{"key":"7","code":"NW","name":"Nidwalden"},"status":"Real"},{"key":"10104607","name":"Frongasse","postalCode":"6374","locality":"Buochs","commune":{"key":"1502","name":"Buochs","shortName":"Buochs"},"district":{"key":"700","name":"Kanton Nidwalden"},"canton":{"key":"7","code":"NW","name":"Nidwalden"},"status":"Real"},{"key":"10145999","name":"Gemeindehausstrasse","postalCode":"6374","locality":"Buochs","commune":{"key":"1502","name":"Buochs","shortName":"Buochs"},"district":{"key":"700","name":"Kanton Nidwalden"},"canton":{"key":"7","code":"NW","name":"Nidwalden"},"status":"Real"},{"key":"10103995","name":"Grafital","postalCode":"6374","locality":"Buochs","commune":{"key":"1502","name":"Buochs","shortName":"Buochs"},"district":{"key":"700","name":"Kanton Nidwalden"},"canton":{"key":"7","code":"NW","name":"Nidwalden"},"status":"Real"},{"key":"10122382","name":"Gross Bächli","postalCode":"6374","locality":"Buochs","commune":{"key":"1502","name":"Buochs","shortName":"Buochs"},"district":{"key":"700","name":"Kanton Nidwalden"},"canton":{"key":"7","code":"NW","name":"Nidwalden"},"status":"Real"},{"key":"10084633","name":"Guggerhofstrasse","postalCode":"6374","locality":"Buochs","commune":{"key":"1502","name":"Buochs","shortName":"Buochs"},"district":{"key":"700","name":"Kanton Nidwalden"},"canton":{"key":"7","code":"NW","name":"Nidwalden"},"status":"Real"},{"key":"10182383","name":"Gumpertsbiel","postalCode":"6374","locality":"Buochs","commune":{"key":"1502","name":"Buochs","shortName":"Buochs"},"district":{"key":"700","name":"Kanton Nidwalden"},"canton":{"key":"7","code":"NW","name":"Nidwalden"},"status":"Real"},{"key":"10021134","name":"Güterstrasse","postalCode":"6374","locality":"Buochs","commune":{"key":"1502","name":"Buochs","shortName":"Buochs"},"district":{"key":"700","name":"Kanton Nidwalden"},"canton":{"key":"7","code":"NW","name":"Nidwalden"},"status":"Real"},{"key":"10084628","name":"Haus am Dorfpark","postalCode":"6374","locality":"Buochs","commune":{"key":"1502","name":"Buochs","shortName":"Buochs"},"district":{"key":"700","name":"Kanton Nidwalden"},"canton":{"key":"7","code":"NW","name":"Nidwalden"},"status":"Real"},{"key":"10121332","name":"Herrenhofweg","postalCode":"6374","locality":"Buochs","commune":{"key":"1502","name":"Buochs","shortName":"Buochs"},"district":{"key":"700","name":"Kanton Nidwalden"},"canton":{"key":"7","code":"NW","name":"Nidwalden"},"status":"Real"},{"key":"10192156","name":"Herti","postalCode":"6374","locality":"Buochs","commune":{"key":"1502","name":"Buochs","shortName":"Buochs"},"district":{"key":"700","name":"Kanton Nidwalden"},"canton":{"key":"7","code":"NW","name":"Nidwalden"},"status":"Real"},{"key":"10114804","name":"Hinter Hobiel","postalCode":"6374","locality":"Buochs","commune":{"key":"1502","name":"Buochs","shortName":"Buochs"},"district":{"key":"700","name":"Kanton Nidwalden"},"canton":{"key":"7","code":"NW","name":"Nidwalden"},"status":"Real"},{"key":"10021135","name":"Hinter Linden","postalCode":"6374","locality":"Buochs","commune":{"key":"1502","name":"Buochs","shortName":"Buochs"},"district":{"key":"700","name":"Kanton Nidwalden"},"canton":{"key":"7","code":"NW","name":"Nidwalden"},"status":"Real"},{"key":"10021136","name":"Hinter Loren","postalCode":"6374","locality":"Buochs","commune":{"key":"1502","name":"Buochs","shortName":"Buochs"},"district":{"key":"700","name":"Kanton Nidwalden"},"canton":{"key":"7","code":"NW","name":"Nidwalden"},"status":"Real"},{"key":"10071458","name":"Hinter Obgass","postalCode":"6374","locality":"Buochs","commune":{"key":"1502","name":"Buochs","shortName":"Buochs"},"district":{"key":"700","name":"Kanton Nidwalden"},"canton":{"key":"7","code":"NW","name":"Nidwalden"},"status":"Real"},{"key":"10057084","name":"Hinter Städeli","postalCode":"6374","locality":"Buochs","commune":{"key":"1502","name":"Buochs","shortName":"Buochs"},"district":{"key":"700","name":"Kanton Nidwalden"},"canton":{"key":"7","code":"NW","name":"Nidwalden"},"status":"Real"},{"key":"10084635","name":"Hinter Wissibach","postalCode":"6374","locality":"Buochs","commune":{"key":"1502","name":"Buochs","shortName":"Buochs"},"district":{"key":"700","name":"Kanton Nidwalden"},"canton":{"key":"7","code":"NW","name":"Nidwalden"},"status":"Real"},{"key":"10244854","name":"Hinter Zillern","postalCode":"6374","locality":"Buochs","commune":{"key":"1502","name":"Buochs","shortName":"Buochs"},"district":{"key":"700","name":"Kanton Nidwalden"},"canton":{"key":"7","code":"NW","name":"Nidwalden"},"status":"Real"},{"key":"10021138","name":"Hofmatte","postalCode":"6374","locality":"Buochs","commune":{"key":"1502","name":"Buochs","shortName":"Buochs"},"district":{"key":"700","name":"Kanton Nidwalden"},"canton":{"key":"7","code":"NW","name":"Nidwalden"},"status":"Real"},{"key":"10182384","name":"Hofstrasse","postalCode":"6374","locality":"Buochs","commune":{"key":"1502","name":"Buochs","shortName":"Buochs"},"district":{"key":"700","name":"Kanton Nidwalden"},"canton":{"key":"7","code":"NW","name":"Nidwalden"},"status":"Real"},{"key":"10057085","name":"Hofuhr","postalCode":"6374","locality":"Buochs","commune":{"key":"1502","name":"Buochs","shortName":"Buochs"},"district":{"key":"700","name":"Kanton Nidwalden"},"canton":{"key":"7","code":"NW","name":"Nidwalden"},"status":"Real"},{"key":"10071459","name":"Hofweg","postalCode":"6374","locality":"Buochs","commune":{"key":"1502","name":"Buochs","shortName":"Buochs"},"district":{"key":"700","name":"Kanton Nidwalden"},"canton":{"key":"7","code":"NW","name":"Nidwalden"},"status":"Real"},{"key":"10021139","name":"Holzhaus","postalCode":"6374","locality":"Buochs","commune":{"key":"1502","name":"Buochs","shortName":"Buochs"},"district":{"key":"700","name":"Kanton Nidwalden"},"canton":{"key":"7","code":"NW","name":"Nidwalden"},"status":"Real"},{"key":"10172596","name":"Hostatt Ost","postalCode":"6374","locality":"Buochs","commune":{"key":"1502","name":"Buochs","shortName":"Buochs"},"district":{"key":"700","name":"Kanton Nidwalden"},"canton":{"key":"7","code":"NW","name":"Nidwalden"},"status":"Real"},{"key":"10164912","name":"Hostatt West","postalCode":"6374","locality":"Buochs","commune":{"key":"1502","name":"Buochs","shortName":"Buochs"},"district":{"key":"700","name":"Kanton Nidwalden"},"canton":{"key":"7","code":"NW","name":"Nidwalden"},"status":"Real"},{"key":"10057086","name":"Hubeli","postalCode":"6374","locality":"Buochs","commune":{"key":"1502","name":"Buochs","shortName":"Buochs"},"district":{"key":"700","name":"Kanton Nidwalden"},"canton":{"key":"7","code":"NW","name":"Nidwalden"},"status":"Real"},{"key":"10021140","name":"Hugen","postalCode":"6374","locality":"Buochs","commune":{"key":"1502","name":"Buochs","shortName":"Buochs"},"district":{"key":"700","name":"Kanton Nidwalden"},"canton":{"key":"7","code":"NW","name":"Nidwalden"},"status":"Real"},{"key":"10103996","name":"Hundachen","postalCode":"6374","locality":"Buochs","commune":{"key":"1502","name":"Buochs","shortName":"Buochs"},"district":{"key":"700","name":"Kanton Nidwalden"},"canton":{"key":"7","code":"NW","name":"Nidwalden"},"status":"Real"},{"key":"10084636","name":"Hüttenmattli","postalCode":"6374","locality":"Buochs","commune":{"key":"1502","name":"Buochs","shortName":"Buochs"},"district":{"key":"700","name":"Kanton Nidwalden"},"canton":{"key":"7","code":"NW","name":"Nidwalden"},"status":"Real"},{"key":"10071460","name":"Im Breitli","postalCode":"6374","locality":"Buochs","commune":{"key":"1502","name":"Buochs","shortName":"Buochs"},"district":{"key":"700","name":"Kanton Nidwalden"},"canton":{"key":"7","code":"NW","name":"Nidwalden"},"status":"Real"},{"key":"10021141","name":"Im Hof","postalCode":"6374","locality":"Buochs","commune":{"key":"1502","name":"Buochs","shortName":"Buochs"},"district":{"key":"700","name":"Kanton Nidwalden"},"canton":{"key":"7","code":"NW","name":"Nidwalden"},"status":"Real"},{"key":"10021142","name":"Im Lindeli","postalCode":"6374","locality":"Buochs","commune":{"key":"1502","name":"Buochs","shortName":"Buochs"},"district":{"key":"700","name":"Kanton Nidwalden"},"canton":{"key":"7","code":"NW","name":"Nidwalden"},"status":"Real"},{"key":"10117642","name":"Im Pfrundmattli","postalCode":"6374","locality":"Buochs","commune":{"key":"1502","name":"Buochs","shortName":"Buochs"},"district":{"key":"700","name":"Kanton Nidwalden"},"canton":{"key":"7","code":"NW","name":"Nidwalden"},"status":"Real"},{"key":"10071461","name":"Innere Bürg","postalCode":"6374","locality":"Buochs","commune":{"key":"1502","name":"Buochs","shortName":"Buochs"},"district":{"key":"700","name":"Kanton Nidwalden"},"canton":{"key":"7","code":"NW","name":"Nidwalden"},"status":"Real"},{"key":"10021143","name":"Kanalweg","postalCode":"6374","locality":"Buochs","commune":{"key":"1502","name":"Buochs","shortName":"Buochs"},"district":{"key":"700","name":"Kanton Nidwalden"},"canton":{"key":"7","code":"NW","name":"Nidwalden"},"status":"Real"},{"key":"10109109","name":"Kettstrasse","postalCode":"6374","locality":"Buochs","commune":{"key":"1502","name":"Buochs","shortName":"Buochs"},"district":{"key":"700","name":"Kanton Nidwalden"},"canton":{"key":"7","code":"NW","name":"Nidwalden"},"status":"Real"},{"key":"10084637","name":"Kirchenrain","postalCode":"6374","locality":"Buochs","commune":{"key":"1502","name":"Buochs","shortName":"Buochs"},"district":{"key":"700","name":"Kanton Nidwalden"},"canton":{"key":"7","code":"NW","name":"Nidwalden"},"status":"Real"},{"key":"10182385","name":"Klein Bächli","postalCode":"6374","locality":"Buochs","commune":{"key":"1502","name":"Buochs","shortName":"Buochs"},"district":{"key":"700","name":"Kanton Nidwalden"},"canton":{"key":"7","code":"NW","name":"Nidwalden"},"status":"Real"},{"key":"10084638","name":"Kronenpark","postalCode":"6374","locality":"Buochs","commune":{"key":"1502","name":"Buochs","shortName":"Buochs"},"district":{"key":"700","name":"Kanton Nidwalden"},"canton":{"key":"7","code":"NW","name":"Nidwalden"},"status":"Real"},{"key":"10071462","name":"Langentannen","postalCode":"6374","locality":"Buochs","commune":{"key":"1502","name":"Buochs","shortName":"Buochs"},"district":{"key":"700","name":"Kanton Nidwalden"},"canton":{"key":"7","code":"NW","name":"Nidwalden"},"status":"Real"},{"key":"10121333","name":"Lindenhalde","postalCode":"6374","locality":"Buochs","commune":{"key":"1502","name":"Buochs","shortName":"Buochs"},"district":{"key":"700","name":"Kanton Nidwalden"},"canton":{"key":"7","code":"NW","name":"Nidwalden"},"status":"Real"},{"key":"10021145","name":"Lindenmätteli","postalCode":"6374","locality":"Buochs","commune":{"key":"1502","name":"Buochs","shortName":"Buochs"},"district":{"key":"700","name":"Kanton Nidwalden"},"canton":{"key":"7","code":"NW","name":"Nidwalden"},"status":"Real"},{"key":"10084639","name":"Lindenstrasse","postalCode":"6374","locality":"Buochs","commune":{"key":"1502","name":"Buochs","shortName":"Buochs"},"district":{"key":"700","name":"Kanton Nidwalden"},"canton":{"key":"7","code":"NW","name":"Nidwalden"},"status":"Real"},{"key":"10071463","name":"Lückersmatt","postalCode":"6374","locality":"Buochs","commune":{"key":"1502","name":"Buochs","shortName":"Buochs"},"district":{"key":"700","name":"Kanton Nidwalden"},"canton":{"key":"7","code":"NW","name":"Nidwalden"},"status":"Real"},{"key":"10057087","name":"Mittel Acheri","postalCode":"6374","locality":"Buochs","commune":{"key":"1502","name":"Buochs","shortName":"Buochs"},"district":{"key":"700","name":"Kanton Nidwalden"},"canton":{"key":"7","code":"NW","name":"Nidwalden"},"status":"Real"},{"key":"10021147","name":"Muacher","postalCode":"6374","locality":"Buochs","commune":{"key":"1502","name":"Buochs","shortName":"Buochs"},"district":{"key":"700","name":"Kanton Nidwalden"},"canton":{"key":"7","code":"NW","name":"Nidwalden"},"status":"Real"},{"key":"10021148","name":"Mühlematthof","postalCode":"6374","locality":"Buochs","commune":{"key":"1502","name":"Buochs","shortName":"Buochs"},"district":{"key":"700","name":"Kanton Nidwalden"},"canton":{"key":"7","code":"NW","name":"Nidwalden"},"status":"Real"},{"key":"10071464","name":"Mühlemattstrasse","postalCode":"6374","locality":"Buochs","commune":{"key":"1502","name":"Buochs","shortName":"Buochs"},"district":{"key":"700","name":"Kanton Nidwalden"},"canton":{"key":"7","code":"NW","name":"Nidwalden"},"status":"Real"},{"key":"10121552","name":"Mühlemattweg","postalCode":"6374","locality":"Buochs","commune":{"key":"1502","name":"Buochs","shortName":"Buochs"},"district":{"key":"700","name":"Kanton Nidwalden"},"canton":{"key":"7","code":"NW","name":"Nidwalden"},"status":"Real"},{"key":"10251502","name":"Muoltenmattli","postalCode":"6374","locality":"Buochs","commune":{"key":"1502","name":"Buochs","shortName":"Buochs"},"district":{"key":"700","name":"Kanton Nidwalden"},"canton":{"key":"7","code":"NW","name":"Nidwalden"},"status":"Real"},{"key":"10192157","name":"Mürg","postalCode":"6374","locality":"Buochs","commune":{"key":"1502","name":"Buochs","shortName":"Buochs"},"district":{"key":"700","name":"Kanton Nidwalden"},"canton":{"key":"7","code":"NW","name":"Nidwalden"},"status":"Real"},{"key":"10057088","name":"Nähseydi","postalCode":"6374","locality":"Buochs","commune":{"key":"1502","name":"Buochs","shortName":"Buochs"},"district":{"key":"700","name":"Kanton Nidwalden"},"canton":{"key":"7","code":"NW","name":"Nidwalden"},"status":"Real"},{"key":"10139121","name":"Nähseydi","postalCode":"6374","locality":"Buochs","commune":{"key":"1502","name":"Buochs","shortName":"Buochs"},"district":{"key":"700","name":"Kanton Nidwalden"},"canton":{"key":"7","code":"NW","name":"Nidwalden"},"status":"Real"},{"key":"10182386","name":"Neu Bächli","postalCode":"6374","locality":"Buochs","commune":{"key":"1502","name":"Buochs","shortName":"Buochs"},"district":{"key":"700","name":"Kanton Nidwalden"},"canton":{"key":"7","code":"NW","name":"Nidwalden"},"status":"Real"},{"key":"10021149","name":"Ober Acheri","postalCode":"6374","locality":"Buochs","commune":{"key":"1502","name":"Buochs","shortName":"Buochs"},"district":{"key":"700","name":"Kanton Nidwalden"},"canton":{"key":"7","code":"NW","name":"Nidwalden"},"status":"Real"},{"key":"10084640","name":"Ober Agglisbrunnen","postalCode":"6374","locality":"Buochs","commune":{"key":"1502","name":"Buochs","shortName":"Buochs"},"district":{"key":"700","name":"Kanton Nidwalden"},"canton":{"key":"7","code":"NW","name":"Nidwalden"},"status":"Real"},{"key":"10020811","name":"Ober Agglistal","postalCode":"6374","locality":"Buochs","commune":{"key":"1502","name":"Buochs","shortName":"Buochs"},"district":{"key":"700","name":"Kanton Nidwalden"},"canton":{"key":"7","code":"NW","name":"Nidwalden"},"status":"Real"},{"key":"10071465","name":"Ober Bächli","postalCode":"6374","locality":"Buochs","commune":{"key":"1502","name":"Buochs","shortName":"Buochs"},"district":{"key":"700","name":"Kanton Nidwalden"},"canton":{"key":"7","code":"NW","name":"Nidwalden"},"status":"Real"},{"key":"10103997","name":"Oberbreitli","postalCode":"6374","locality":"Buochs","commune":{"key":"1502","name":"Buochs","shortName":"Buochs"},"district":{"key":"700","name":"Kanton Nidwalden"},"canton":{"key":"7","code":"NW","name":"Nidwalden"},"status":"Real"},{"key":"10121241","name":"Obere Aastrasse","postalCode":"6374","locality":"Buochs","commune":{"key":"1502","name":"Buochs","shortName":"Buochs"},"district":{"key":"700","name":"Kanton Nidwalden"},"canton":{"key":"7","code":"NW","name":"Nidwalden"},"status":"Real"},{"key":"10212206","name":"Obere Güterstrasse","postalCode":"6374","locality":"Buochs","commune":{"key":"1502","name":"Buochs","shortName":"Buochs"},"district":{"key":"700","name":"Kanton Nidwalden"},"canton":{"key":"7","code":"NW","name":"Nidwalden"},"status":"Real"},{"key":"10186731","name":"Ober Erliziel","postalCode":"6374","locality":"Buochs","commune":{"key":"1502","name":"Buochs","shortName":"Buochs"},"district":{"key":"700","name":"Kanton Nidwalden"},"canton":{"key":"7","code":"NW","name":"Nidwalden"},"status":"Real"},{"key":"10182387","name":"Ober Faden","postalCode":"6374","locality":"Buochs","commune":{"key":"1502","name":"Buochs","shortName":"Buochs"},"district":{"key":"700","name":"Kanton Nidwalden"},"canton":{"key":"7","code":"NW","name":"Nidwalden"},"status":"Real"},{"key":"10247035","name":"Ober Isnerts","postalCode":"6374","locality":"Buochs","commune":{"key":"1502","name":"Buochs","shortName":"Buochs"},"district":{"key":"700","name":"Kanton Nidwalden"},"canton":{"key":"7","code":"NW","name":"Nidwalden"},"status":"Real"},{"key":"10020812","name":"Ober Linden","postalCode":"6374","locality":"Buochs","commune":{"key":"1502","name":"Buochs","shortName":"Buochs"},"district":{"key":"700","name":"Kanton Nidwalden"},"canton":{"key":"7","code":"NW","name":"Nidwalden"},"status":"Real"},{"key":"10020813","name":"Ober Obfuhr","postalCode":"6374","locality":"Buochs","commune":{"key":"1502","name":"Buochs","shortName":"Buochs"},"district":{"key":"700","name":"Kanton Nidwalden"},"canton":{"key":"7","code":"NW","name":"Nidwalden"},"status":"Real"},{"key":"10020814","name":"Ober Stigli","postalCode":"6374","locality":"Buochs","commune":{"key":"1502","name":"Buochs","shortName":"Buochs"},"district":{"key":"700","name":"Kanton Nidwalden"},"canton":{"key":"7","code":"NW","name":"Nidwalden"},"status":"Real"},{"key":"10084642","name":"Obgassweg","postalCode":"6374","locality":"Buochs","commune":{"key":"1502","name":"Buochs","shortName":"Buochs"},"district":{"key":"700","name":"Kanton Nidwalden"},"canton":{"key":"7","code":"NW","name":"Nidwalden"},"status":"Real"},{"key":"10020815","name":"Paradies","postalCode":"6374","locality":"Buochs","commune":{"key":"1502","name":"Buochs","shortName":"Buochs"},"district":{"key":"700","name":"Kanton Nidwalden"},"canton":{"key":"7","code":"NW","name":"Nidwalden"},"status":"Real"},{"key":"10109110","name":"Parkettistrasse","postalCode":"6374","locality":"Buochs","commune":{"key":"1502","name":"Buochs","shortName":"Buochs"},"district":{"key":"700","name":"Kanton Nidwalden"},"canton":{"key":"7","code":"NW","name":"Nidwalden"},"status":"Real"},{"key":"10084643","name":"Pilatusstrasse","postalCode":"6374","locality":"Buochs","commune":{"key":"1502","name":"Buochs","shortName":"Buochs"},"district":{"key":"700","name":"Kanton Nidwalden"},"canton":{"key":"7","code":"NW","name":"Nidwalden"},"status":"Real"},{"key":"10071466","name":"Pilatusweg","postalCode":"6374","locality":"Buochs","commune":{"key":"1502","name":"Buochs","shortName":"Buochs"},"district":{"key":"700","name":"Kanton Nidwalden"},"canton":{"key":"7","code":"NW","name":"Nidwalden"},"status":"Real"},{"key":"10020816","name":"Quai","postalCode":"6374","locality":"Buochs","commune":{"key":"1502","name":"Buochs","shortName":"Buochs"},"district":{"key":"700","name":"Kanton Nidwalden"},"canton":{"key":"7","code":"NW","name":"Nidwalden"},"status":"Real"},{"key":"10020817","name":"Rain","postalCode":"6374","locality":"Buochs","commune":{"key":"1502","name":"Buochs","shortName":"Buochs"},"district":{"key":"700","name":"Kanton Nidwalden"},"canton":{"key":"7","code":"NW","name":"Nidwalden"},"status":"Real"},{"key":"10182388","name":"Rainegg","postalCode":"6374","locality":"Buochs","commune":{"key":"1502","name":"Buochs","shortName":"Buochs"},"district":{"key":"700","name":"Kanton Nidwalden"},"canton":{"key":"7","code":"NW","name":"Nidwalden"},"status":"Real"},{"key":"10121334","name":"Rainhof","postalCode":"6374","locality":"Buochs","commune":{"key":"1502","name":"Buochs","shortName":"Buochs"},"district":{"key":"700","name":"Kanton Nidwalden"},"canton":{"key":"7","code":"NW","name":"Nidwalden"},"status":"Real"},{"key":"10212210","name":"Ridlistrasse","postalCode":"6374","locality":"Buochs","commune":{"key":"1502","name":"Buochs","shortName":"Buochs"},"district":{"key":"700","name":"Kanton Nidwalden"},"canton":{"key":"7","code":"NW","name":"Nidwalden"},"status":"Real"},{"key":"10071467","name":"Ridliweg","postalCode":"6374","locality":"Buochs","commune":{"key":"1502","name":"Buochs","shortName":"Buochs"},"district":{"key":"700","name":"Kanton Nidwalden"},"canton":{"key":"7","code":"NW","name":"Nidwalden"},"status":"Real"},{"key":"10020818","name":"Riedmatt","postalCode":"6374","locality":"Buochs","commune":{"key":"1502","name":"Buochs","shortName":"Buochs"},"district":{"key":"700","name":"Kanton Nidwalden"},"canton":{"key":"7","code":"NW","name":"Nidwalden"},"status":"Real"},{"key":"10084644","name":"Riedmattweid","postalCode":"6374","locality":"Buochs","commune":{"key":"1502","name":"Buochs","shortName":"Buochs"},"district":{"key":"700","name":"Kanton Nidwalden"},"canton":{"key":"7","code":"NW","name":"Nidwalden"},"status":"Real"},{"key":"10020819","name":"Rigistrasse","postalCode":"6374","locality":"Buochs","commune":{"key":"1502","name":"Buochs","shortName":"Buochs"},"district":{"key":"700","name":"Kanton Nidwalden"},"canton":{"key":"7","code":"NW","name":"Nidwalden"},"status":"Real"},{"key":"10020820","name":"Rigiweg","postalCode":"6374","locality":"Buochs","commune":{"key":"1502","name":"Buochs","shortName":"Buochs"},"district":{"key":"700","name":"Kanton Nidwalden"},"canton":{"key":"7","code":"NW","name":"Nidwalden"},"status":"Real"},{"key":"10071468","name":"Rosengässli","postalCode":"6374","locality":"Buochs","commune":{"key":"1502","name":"Buochs","shortName":"Buochs"},"district":{"key":"700","name":"Kanton Nidwalden"},"canton":{"key":"7","code":"NW","name":"Nidwalden"},"status":"Real"},{"key":"10020821","name":"Rotimatt","postalCode":"6374","locality":"Buochs","commune":{"key":"1502","name":"Buochs","shortName":"Buochs"},"district":{"key":"700","name":"Kanton Nidwalden"},"canton":{"key":"7","code":"NW","name":"Nidwalden"},"status":"Real"},{"key":"10057089","name":"Rübimattli","postalCode":"6374","locality":"Buochs","commune":{"key":"1502","name":"Buochs","shortName":"Buochs"},"district":{"key":"700","name":"Kanton Nidwalden"},"canton":{"key":"7","code":"NW","name":"Nidwalden"},"status":"Real"},{"key":"10020822","name":"Schulgässli","postalCode":"6374","locality":"Buochs","commune":{"key":"1502","name":"Buochs","shortName":"Buochs"},"district":{"key":"700","name":"Kanton Nidwalden"},"canton":{"key":"7","code":"NW","name":"Nidwalden"},"status":"Real"},{"key":"10084645","name":"Schulstrasse","postalCode":"6374","locality":"Buochs","commune":{"key":"1502","name":"Buochs","shortName":"Buochs"},"district":{"key":"700","name":"Kanton Nidwalden"},"canton":{"key":"7","code":"NW","name":"Nidwalden"},"status":"Real"},{"key":"10182389","name":"Schüpferi","postalCode":"6374","locality":"Buochs","commune":{"key":"1502","name":"Buochs","shortName":"Buochs"},"district":{"key":"700","name":"Kanton Nidwalden"},"canton":{"key":"7","code":"NW","name":"Nidwalden"},"status":"Real"},{"key":"10212214","name":"Schüpferistrasse","postalCode":"6374","locality":"Buochs","commune":{"key":"1502","name":"Buochs","shortName":"Buochs"},"district":{"key":"700","name":"Kanton Nidwalden"},"canton":{"key":"7","code":"NW","name":"Nidwalden"},"status":"Real"},{"key":"10071469","name":"Schürmatt","postalCode":"6374","locality":"Buochs","commune":{"key":"1502","name":"Buochs","shortName":"Buochs"},"district":{"key":"700","name":"Kanton Nidwalden"},"canton":{"key":"7","code":"NW","name":"Nidwalden"},"status":"Real"},{"key":"10212217","name":"Schürmattstrasse","postalCode":"6374","locality":"Buochs","commune":{"key":"1502","name":"Buochs","shortName":"Buochs"},"district":{"key":"700","name":"Kanton Nidwalden"},"canton":{"key":"7","code":"NW","name":"Nidwalden"},"status":"Real"},{"key":"10057090","name":"Schützenmatte","postalCode":"6374","locality":"Buochs","commune":{"key":"1502","name":"Buochs","shortName":"Buochs"},"district":{"key":"700","name":"Kanton Nidwalden"},"canton":{"key":"7","code":"NW","name":"Nidwalden"},"status":"Real"},{"key":"10020823","name":"Schützenmattring","postalCode":"6374","locality":"Buochs","commune":{"key":"1502","name":"Buochs","shortName":"Buochs"},"district":{"key":"700","name":"Kanton Nidwalden"},"canton":{"key":"7","code":"NW","name":"Nidwalden"},"status":"Real"},{"key":"10084646","name":"Schützenmattstrasse","postalCode":"6374","locality":"Buochs","commune":{"key":"1502","name":"Buochs","shortName":"Buochs"},"district":{"key":"700","name":"Kanton Nidwalden"},"canton":{"key":"7","code":"NW","name":"Nidwalden"},"status":"Real"},{"key":"10020824","name":"Seebuchtstrasse","postalCode":"6374","locality":"Buochs","commune":{"key":"1502","name":"Buochs","shortName":"Buochs"},"district":{"key":"700","name":"Kanton Nidwalden"},"canton":{"key":"7","code":"NW","name":"Nidwalden"},"status":"Real"},{"key":"10201331","name":"Seefeld","postalCode":"6374","locality":"Buochs","commune":{"key":"1502","name":"Buochs","shortName":"Buochs"},"district":{"key":"700","name":"Kanton Nidwalden"},"canton":{"key":"7","code":"NW","name":"Nidwalden"},"status":"Real"},{"key":"10020825","name":"Seefeldstrasse","postalCode":"6374","locality":"Buochs","commune":{"key":"1502","name":"Buochs","shortName":"Buochs"},"district":{"key":"700","name":"Kanton Nidwalden"},"canton":{"key":"7","code":"NW","name":"Nidwalden"},"status":"Real"},{"key":"10020826","name":"Seeplatz","postalCode":"6374","locality":"Buochs","commune":{"key":"1502","name":"Buochs","shortName":"Buochs"},"district":{"key":"700","name":"Kanton Nidwalden"},"canton":{"key":"7","code":"NW","name":"Nidwalden"},"status":"Real"},{"key":"10121335","name":"Seestrasse","postalCode":"6374","locality":"Buochs","commune":{"key":"1502","name":"Buochs","shortName":"Buochs"},"district":{"key":"700","name":"Kanton Nidwalden"},"canton":{"key":"7","code":"NW","name":"Nidwalden"},"status":"Real"},{"key":"10071470","name":"Sonnmattstrasse","postalCode":"6374","locality":"Buochs","commune":{"key":"1502","name":"Buochs","shortName":"Buochs"},"district":{"key":"700","name":"Kanton Nidwalden"},"canton":{"key":"7","code":"NW","name":"Nidwalden"},"status":"Real"},{"key":"10084650","name":"Städeligarten","postalCode":"6374","locality":"Buochs","commune":{"key":"1502","name":"Buochs","shortName":"Buochs"},"district":{"key":"700","name":"Kanton Nidwalden"},"canton":{"key":"7","code":"NW","name":"Nidwalden"},"status":"Real"},{"key":"10180585","name":"Städelimatte","postalCode":"6374","locality":"Buochs","commune":{"key":"1502","name":"Buochs","shortName":"Buochs"},"district":{"key":"700","name":"Kanton Nidwalden"},"canton":{"key":"7","code":"NW","name":"Nidwalden"},"status":"Real"},{"key":"10084647","name":"Stanserstrasse","postalCode":"6374","locality":"Buochs","commune":{"key":"1502","name":"Buochs","shortName":"Buochs"},"district":{"key":"700","name":"Kanton Nidwalden"},"canton":{"key":"7","code":"NW","name":"Nidwalden"},"status":"Real"},{"key":"10182390","name":"Stationsstrasse","postalCode":"6374","locality":"Buochs","commune":{"key":"1502","name":"Buochs","shortName":"Buochs"},"district":{"key":"700","name":"Kanton Nidwalden"},"canton":{"key":"7","code":"NW","name":"Nidwalden"},"status":"Real"},{"key":"10122383","name":"Stöckmatt","postalCode":"6374","locality":"Buochs","commune":{"key":"1502","name":"Buochs","shortName":"Buochs"},"district":{"key":"700","name":"Kanton Nidwalden"},"canton":{"key":"7","code":"NW","name":"Nidwalden"},"status":"Real"},{"key":"10109111","name":"Strandweg","postalCode":"6374","locality":"Buochs","commune":{"key":"1502","name":"Buochs","shortName":"Buochs"},"district":{"key":"700","name":"Kanton Nidwalden"},"canton":{"key":"7","code":"NW","name":"Nidwalden"},"status":"Real"},{"key":"10020827","name":"Turmattstrasse","postalCode":"6374","locality":"Buochs","commune":{"key":"1502","name":"Buochs","shortName":"Buochs"},"district":{"key":"700","name":"Kanton Nidwalden"},"canton":{"key":"7","code":"NW","name":"Nidwalden"},"status":"Real"},{"key":"10020828","name":"Turmattweg","postalCode":"6374","locality":"Buochs","commune":{"key":"1502","name":"Buochs","shortName":"Buochs"},"district":{"key":"700","name":"Kanton Nidwalden"},"canton":{"key":"7","code":"NW","name":"Nidwalden"},"status":"Real"},{"key":"10084651","name":"Unter Acheri","postalCode":"6374","locality":"Buochs","commune":{"key":"1502","name":"Buochs","shortName":"Buochs"},"district":{"key":"700","name":"Kanton Nidwalden"},"canton":{"key":"7","code":"NW","name":"Nidwalden"},"status":"Real"},{"key":"10057091","name":"Unter Agglisbrunnen","postalCode":"6374","locality":"Buochs","commune":{"key":"1502","name":"Buochs","shortName":"Buochs"},"district":{"key":"700","name":"Kanton Nidwalden"},"canton":{"key":"7","code":"NW","name":"Nidwalden"},"status":"Real"},{"key":"10071471","name":"Unter Agglistal","postalCode":"6374","locality":"Buochs","commune":{"key":"1502","name":"Buochs","shortName":"Buochs"},"district":{"key":"700","name":"Kanton Nidwalden"},"canton":{"key":"7","code":"NW","name":"Nidwalden"},"status":"Real"},{"key":"10020829","name":"Unter Bächli","postalCode":"6374","locality":"Buochs","commune":{"key":"1502","name":"Buochs","shortName":"Buochs"},"district":{"key":"700","name":"Kanton Nidwalden"},"canton":{"key":"7","code":"NW","name":"Nidwalden"},"status":"Real"},{"key":"10247034","name":"Unter Bisibiel","postalCode":"6374","locality":"Buochs","commune":{"key":"1502","name":"Buochs","shortName":"Buochs"},"district":{"key":"700","name":"Kanton Nidwalden"},"canton":{"key":"7","code":"NW","name":"Nidwalden"},"status":"Real"},{"key":"10212221","name":"Untere Aastrasse","postalCode":"6374","locality":"Buochs","commune":{"key":"1502","name":"Buochs","shortName":"Buochs"},"district":{"key":"700","name":"Kanton Nidwalden"},"canton":{"key":"7","code":"NW","name":"Nidwalden"},"status":"Real"},{"key":"10020830","name":"Unter Erliziel","postalCode":"6374","locality":"Buochs","commune":{"key":"1502","name":"Buochs","shortName":"Buochs"},"district":{"key":"700","name":"Kanton Nidwalden"},"canton":{"key":"7","code":"NW","name":"Nidwalden"},"status":"Real"},{"key":"10103998","name":"Unter Faden","postalCode":"6374","locality":"Buochs","commune":{"key":"1502","name":"Buochs","shortName":"Buochs"},"district":{"key":"700","name":"Kanton Nidwalden"},"canton":{"key":"7","code":"NW","name":"Nidwalden"},"status":"Real"},{"key":"10020832","name":"Unterfeld","postalCode":"6374","locality":"Buochs","commune":{"key":"1502","name":"Buochs","shortName":"Buochs"},"district":{"key":"700","name":"Kanton Nidwalden"},"canton":{"key":"7","code":"NW","name":"Nidwalden"},"status":"Real"},{"key":"10221522","name":"Unter Isnerts","postalCode":"6374","locality":"Buochs","commune":{"key":"1502","name":"Buochs","shortName":"Buochs"},"district":{"key":"700","name":"Kanton Nidwalden"},"canton":{"key":"7","code":"NW","name":"Nidwalden"},"status":"Real"},{"key":"10020831","name":"Unter Obfuhr","postalCode":"6374","locality":"Buochs","commune":{"key":"1502","name":"Buochs","shortName":"Buochs"},"district":{"key":"700","name":"Kanton Nidwalden"},"canton":{"key":"7","code":"NW","name":"Nidwalden"},"status":"Real"},{"key":"10084652","name":"Unter Stigli","postalCode":"6374","locality":"Buochs","commune":{"key":"1502","name":"Buochs","shortName":"Buochs"},"district":{"key":"700","name":"Kanton Nidwalden"},"canton":{"key":"7","code":"NW","name":"Nidwalden"},"status":"Real"},{"key":"10057092","name":"Unter Wissibächli","postalCode":"6374","locality":"Buochs","commune":{"key":"1502","name":"Buochs","shortName":"Buochs"},"district":{"key":"700","name":"Kanton Nidwalden"},"canton":{"key":"7","code":"NW","name":"Nidwalden"},"status":"Real"},{"key":"10071472","name":"Vorder Hobiel","postalCode":"6374","locality":"Buochs","commune":{"key":"1502","name":"Buochs","shortName":"Buochs"},"district":{"key":"700","name":"Kanton Nidwalden"},"canton":{"key":"7","code":"NW","name":"Nidwalden"},"status":"Real"},{"key":"10020834","name":"Vorderlinden","postalCode":"6374","locality":"Buochs","commune":{"key":"1502","name":"Buochs","shortName":"Buochs"},"district":{"key":"700","name":"Kanton Nidwalden"},"canton":{"key":"7","code":"NW","name":"Nidwalden"},"status":"Real"},{"key":"10020833","name":"Vorder Loren","postalCode":"6374","locality":"Buochs","commune":{"key":"1502","name":"Buochs","shortName":"Buochs"},"district":{"key":"700","name":"Kanton Nidwalden"},"canton":{"key":"7","code":"NW","name":"Nidwalden"},"status":"Real"},{"key":"10084653","name":"Vorder Obgass","postalCode":"6374","locality":"Buochs","commune":{"key":"1502","name":"Buochs","shortName":"Buochs"},"district":{"key":"700","name":"Kanton Nidwalden"},"canton":{"key":"7","code":"NW","name":"Nidwalden"},"status":"Real"},{"key":"10122223","name":"Vorder Städeli","postalCode":"6374","locality":"Buochs","commune":{"key":"1502","name":"Buochs","shortName":"Buochs"},"district":{"key":"700","name":"Kanton Nidwalden"},"canton":{"key":"7","code":"NW","name":"Nidwalden"},"status":"Real"},{"key":"10182391","name":"Vorder Wissibach","postalCode":"6374","locality":"Buochs","commune":{"key":"1502","name":"Buochs","shortName":"Buochs"},"district":{"key":"700","name":"Kanton Nidwalden"},"canton":{"key":"7","code":"NW","name":"Nidwalden"},"status":"Real"},{"key":"10057093","name":"Wallisfuhr","postalCode":"6374","locality":"Buochs","commune":{"key":"1502","name":"Buochs","shortName":"Buochs"},"district":{"key":"700","name":"Kanton Nidwalden"},"canton":{"key":"7","code":"NW","name":"Nidwalden"},"status":"Real"},{"key":"10186732","name":"Werkhofstrasse","postalCode":"6374","locality":"Buochs","commune":{"key":"1502","name":"Buochs","shortName":"Buochs"},"district":{"key":"700","name":"Kanton Nidwalden"},"canton":{"key":"7","code":"NW","name":"Nidwalden"},"status":"Real"},{"key":"10090142","name":"Winterswil","postalCode":"6374","locality":"Buochs","commune":{"key":"1502","name":"Buochs","shortName":"Buochs"},"district":{"key":"700","name":"Kanton Nidwalden"},"canton":{"key":"7","code":"NW","name":"Nidwalden"},"status":"Real"},{"key":"10121336","name":"Wyden","postalCode":"6374","locality":"Buochs","commune":{"key":"1502","name":"Buochs","shortName":"Buochs"},"district":{"key":"700","name":"Kanton Nidwalden"},"canton":{"key":"7","code":"NW","name":"Nidwalden"},"status":"Real"},{"key":"10020835","name":"Zillern","postalCode":"6374","locality":"Buochs","commune":{"key":"1502","name":"Buochs","shortName":"Buochs"},"district":{"key":"700","name":"Kanton Nidwalden"},"canton":{"key":"7","code":"NW","name":"Nidwalden"},"status":"Real"},{"key":"10125399","name":"Äussere Bürg","postalCode":"6374","locality":"Buochs","commune":{"key":"1502","name":"Buochs","shortName":"Buochs"},"district":{"key":"700","name":"Kanton Nidwalden"},"canton":{"key":"7","code":"NW","name":"Nidwalden"},"status":"Real"},]