[{"key":"10168750","name":"Avenue de la Gare","postalCode":"1933","locality":"Sembrancher","commune":{"key":"6035","name":"Sembrancher","shortName":"Sembrancher"},"district":{"key":"2303","name":"District d'Entremont"},"canton":{"key":"23","code":"VS","name":"Valais / Wallis"},"status":"Real"},{"key":"10236323","name":"Bessareyer","postalCode":"1933","locality":"Vens (Sembrancher)","commune":{"key":"6037","name":"Val de Bagnes","shortName":"Val de Bagnes"},"district":{"key":"2303","name":"District d'Entremont"},"canton":{"key":"23","code":"VS","name":"Valais / Wallis"},"status":"Real"},{"key":"10102334","name":"Chamoille d'En-Bas","postalCode":"1933","locality":"Chamoille (Sembrancher)","commune":{"key":"6035","name":"Sembrancher","shortName":"Sembrancher"},"district":{"key":"2303","name":"District d'Entremont"},"canton":{"key":"23","code":"VS","name":"Valais / Wallis"},"status":"Real"},{"key":"10168944","name":"Charrière des Puces","postalCode":"1933","locality":"Sembrancher","commune":{"key":"6035","name":"Sembrancher","shortName":"Sembrancher"},"district":{"key":"2303","name":"District d'Entremont"},"canton":{"key":"23","code":"VS","name":"Valais / Wallis"},"status":"Real"},{"key":"10165973","name":"Charrière Est","postalCode":"1933","locality":"Vens (Sembrancher)","commune":{"key":"6037","name":"Val de Bagnes","shortName":"Val de Bagnes"},"district":{"key":"2303","name":"District d'Entremont"},"canton":{"key":"23","code":"VS","name":"Valais / Wallis"},"status":"Real"},{"key":"10169645","name":"Charrière Sud","postalCode":"1933","locality":"Vens (Sembrancher)","commune":{"key":"6037","name":"Val de Bagnes","shortName":"Val de Bagnes"},"district":{"key":"2303","name":"District d'Entremont"},"canton":{"key":"23","code":"VS","name":"Valais / Wallis"},"status":"Real"},{"key":"10162169","name":"Chemin de la Chapelle","postalCode":"1933","locality":"Vens (Sembrancher)","commune":{"key":"6037","name":"Val de Bagnes","shortName":"Val de Bagnes"},"district":{"key":"2303","name":"District d'Entremont"},"canton":{"key":"23","code":"VS","name":"Valais / Wallis"},"status":"Real"},{"key":"10172661","name":"Chemin de la Vibesse","postalCode":"1933","locality":"Vens (Sembrancher)","commune":{"key":"6037","name":"Val de Bagnes","shortName":"Val de Bagnes"},"district":{"key":"2303","name":"District d'Entremont"},"canton":{"key":"23","code":"VS","name":"Valais / Wallis"},"status":"Real"},{"key":"10162170","name":"Chemin de Planchamp","postalCode":"1933","locality":"Vens (Sembrancher)","commune":{"key":"6037","name":"Val de Bagnes","shortName":"Val de Bagnes"},"district":{"key":"2303","name":"District d'Entremont"},"canton":{"key":"23","code":"VS","name":"Valais / Wallis"},"status":"Real"},{"key":"10168139","name":"Chemin des Combes","postalCode":"1933","locality":"Vens (Sembrancher)","commune":{"key":"6037","name":"Val de Bagnes","shortName":"Val de Bagnes"},"district":{"key":"2303","name":"District d'Entremont"},"canton":{"key":"23","code":"VS","name":"Valais / Wallis"},"status":"Real"},{"key":"10172949","name":"Chemin des Raccards","postalCode":"1933","locality":"Vens (Sembrancher)","commune":{"key":"6037","name":"Val de Bagnes","shortName":"Val de Bagnes"},"district":{"key":"2303","name":"District d'Entremont"},"canton":{"key":"23","code":"VS","name":"Valais / Wallis"},"status":"Real"},{"key":"10162171","name":"Chemin des Tsantons","postalCode":"1933","locality":"Vens (Sembrancher)","commune":{"key":"6037","name":"Val de Bagnes","shortName":"Val de Bagnes"},"district":{"key":"2303","name":"District d'Entremont"},"canton":{"key":"23","code":"VS","name":"Valais / Wallis"},"status":"Real"},{"key":"10158429","name":"Chemin du Catogne","postalCode":"1933","locality":"La Garde (Sembrancher)","commune":{"key":"6035","name":"Sembrancher","shortName":"Sembrancher"},"district":{"key":"2303","name":"District d'Entremont"},"canton":{"key":"23","code":"VS","name":"Valais / Wallis"},"status":"Real"},{"key":"10158429","name":"Chemin du Catogne","postalCode":"1933","locality":"Sembrancher","commune":{"key":"6035","name":"Sembrancher","shortName":"Sembrancher"},"district":{"key":"2303","name":"District d'Entremont"},"canton":{"key":"23","code":"VS","name":"Valais / Wallis"},"status":"Real"},{"key":"10193710","name":"Chemin du Clou","postalCode":"1933","locality":"Sembrancher","commune":{"key":"6035","name":"Sembrancher","shortName":"Sembrancher"},"district":{"key":"2303","name":"District d'Entremont"},"canton":{"key":"23","code":"VS","name":"Valais / Wallis"},"status":"Real"},{"key":"10172663","name":"Chemin du Four","postalCode":"1933","locality":"Vens (Sembrancher)","commune":{"key":"6037","name":"Val de Bagnes","shortName":"Val de Bagnes"},"district":{"key":"2303","name":"District d'Entremont"},"canton":{"key":"23","code":"VS","name":"Valais / Wallis"},"status":"Real"},{"key":"10164756","name":"Chemin du Prillon","postalCode":"1933","locality":"La Garde (Sembrancher)","commune":{"key":"6035","name":"Sembrancher","shortName":"Sembrancher"},"district":{"key":"2303","name":"District d'Entremont"},"canton":{"key":"23","code":"VS","name":"Valais / Wallis"},"status":"Real"},{"key":"10107311","name":"La Chapalette","postalCode":"1933","locality":"Sembrancher","commune":{"key":"6035","name":"Sembrancher","shortName":"Sembrancher"},"district":{"key":"2303","name":"District d'Entremont"},"canton":{"key":"23","code":"VS","name":"Valais / Wallis"},"status":"Real"},{"key":"10170251","name":"La Place","postalCode":"1933","locality":"Sembrancher","commune":{"key":"6035","name":"Sembrancher","shortName":"Sembrancher"},"district":{"key":"2303","name":"District d'Entremont"},"canton":{"key":"23","code":"VS","name":"Valais / Wallis"},"status":"Real"},{"key":"10206349","name":"Le Chanedy","postalCode":"1933","locality":"Chamoille (Sembrancher)","commune":{"key":"6035","name":"Sembrancher","shortName":"Sembrancher"},"district":{"key":"2303","name":"District d'Entremont"},"canton":{"key":"23","code":"VS","name":"Valais / Wallis"},"status":"Real"},{"key":"10206351","name":"Le Chesal","postalCode":"1933","locality":"Sembrancher","commune":{"key":"6035","name":"Sembrancher","shortName":"Sembrancher"},"district":{"key":"2303","name":"District d'Entremont"},"canton":{"key":"23","code":"VS","name":"Valais / Wallis"},"status":"Real"},{"key":"10207899","name":"Le Daillay","postalCode":"1933","locality":"Sembrancher","commune":{"key":"6035","name":"Sembrancher","shortName":"Sembrancher"},"district":{"key":"2303","name":"District d'Entremont"},"canton":{"key":"23","code":"VS","name":"Valais / Wallis"},"status":"Real"},{"key":"10206346","name":"Le Fayi","postalCode":"1933","locality":"Sembrancher","commune":{"key":"6035","name":"Sembrancher","shortName":"Sembrancher"},"district":{"key":"2303","name":"District d'Entremont"},"canton":{"key":"23","code":"VS","name":"Valais / Wallis"},"status":"Real"},{"key":"10206350","name":"Le Larzay","postalCode":"1933","locality":"Sembrancher","commune":{"key":"6035","name":"Sembrancher","shortName":"Sembrancher"},"district":{"key":"2303","name":"District d'Entremont"},"canton":{"key":"23","code":"VS","name":"Valais / Wallis"},"status":"Real"},{"key":"10206352","name":"Le Mont-Brun","postalCode":"1933","locality":"Sembrancher","commune":{"key":"6035","name":"Sembrancher","shortName":"Sembrancher"},"district":{"key":"2303","name":"District d'Entremont"},"canton":{"key":"23","code":"VS","name":"Valais / Wallis"},"status":"Real"},{"key":"10207898","name":"Le Rosay","postalCode":"1933","locality":"Sembrancher","commune":{"key":"6035","name":"Sembrancher","shortName":"Sembrancher"},"district":{"key":"2303","name":"District d'Entremont"},"canton":{"key":"23","code":"VS","name":"Valais / Wallis"},"status":"Real"},{"key":"10186008","name":"Les Champmanins","postalCode":"1933","locality":"Sembrancher","commune":{"key":"6035","name":"Sembrancher","shortName":"Sembrancher"},"district":{"key":"2303","name":"District d'Entremont"},"canton":{"key":"23","code":"VS","name":"Valais / Wallis"},"status":"Real"},{"key":"10206348","name":"Les Fontanettes","postalCode":"1933","locality":"Sembrancher","commune":{"key":"6035","name":"Sembrancher","shortName":"Sembrancher"},"district":{"key":"2303","name":"District d'Entremont"},"canton":{"key":"23","code":"VS","name":"Valais / Wallis"},"status":"Real"},{"key":"10236961","name":"Les Trappistes","postalCode":"1933","locality":"Vens (Sembrancher)","commune":{"key":"6037","name":"Val de Bagnes","shortName":"Val de Bagnes"},"district":{"key":"2303","name":"District d'Entremont"},"canton":{"key":"23","code":"VS","name":"Valais / Wallis"},"status":"Real"},{"key":"10207900","name":"Le Trecco","postalCode":"1933","locality":"La Garde (Sembrancher)","commune":{"key":"6035","name":"Sembrancher","shortName":"Sembrancher"},"district":{"key":"2303","name":"District d'Entremont"},"canton":{"key":"23","code":"VS","name":"Valais / Wallis"},"status":"Real"},{"key":"10198740","name":"Place de Loutse","postalCode":"1933","locality":"Sembrancher","commune":{"key":"6035","name":"Sembrancher","shortName":"Sembrancher"},"district":{"key":"2303","name":"District d'Entremont"},"canton":{"key":"23","code":"VS","name":"Valais / Wallis"},"status":"Real"},{"key":"10158422","name":"Place du Village","postalCode":"1933","locality":"La Garde (Sembrancher)","commune":{"key":"6035","name":"Sembrancher","shortName":"Sembrancher"},"district":{"key":"2303","name":"District d'Entremont"},"canton":{"key":"23","code":"VS","name":"Valais / Wallis"},"status":"Real"},{"key":"10194429","name":"Rière les Fours","postalCode":"1933","locality":"Sembrancher","commune":{"key":"6035","name":"Sembrancher","shortName":"Sembrancher"},"district":{"key":"2303","name":"District d'Entremont"},"canton":{"key":"23","code":"VS","name":"Valais / Wallis"},"status":"Real"},{"key":"10164741","name":"Route de Chamoille","postalCode":"1933","locality":"Chamoille (Sembrancher)","commune":{"key":"6035","name":"Sembrancher","shortName":"Sembrancher"},"district":{"key":"2303","name":"District d'Entremont"},"canton":{"key":"23","code":"VS","name":"Valais / Wallis"},"status":"Real"},{"key":"10170234","name":"Route de Cleusuit","postalCode":"1933","locality":"Sembrancher","commune":{"key":"6035","name":"Sembrancher","shortName":"Sembrancher"},"district":{"key":"2303","name":"District d'Entremont"},"canton":{"key":"23","code":"VS","name":"Valais / Wallis"},"status":"Real"},{"key":"10158428","name":"Route de Combère","postalCode":"1933","locality":"La Garde (Sembrancher)","commune":{"key":"6035","name":"Sembrancher","shortName":"Sembrancher"},"district":{"key":"2303","name":"District d'Entremont"},"canton":{"key":"23","code":"VS","name":"Valais / Wallis"},"status":"Real"},{"key":"10169082","name":"Route de Contô","postalCode":"1933","locality":"Sembrancher","commune":{"key":"6035","name":"Sembrancher","shortName":"Sembrancher"},"district":{"key":"2303","name":"District d'Entremont"},"canton":{"key":"23","code":"VS","name":"Valais / Wallis"},"status":"Real"},{"key":"10172206","name":"Route de la Colô","postalCode":"1933","locality":"Sembrancher","commune":{"key":"6035","name":"Sembrancher","shortName":"Sembrancher"},"district":{"key":"2303","name":"District d'Entremont"},"canton":{"key":"23","code":"VS","name":"Valais / Wallis"},"status":"Real"},{"key":"10045660","name":"Route de la Combe","postalCode":"1933","locality":"Chamoille (Sembrancher)","commune":{"key":"6035","name":"Sembrancher","shortName":"Sembrancher"},"district":{"key":"2303","name":"District d'Entremont"},"canton":{"key":"23","code":"VS","name":"Valais / Wallis"},"status":"Real"},{"key":"10165663","name":"Route de la Garde","postalCode":"1933","locality":"La Garde (Sembrancher)","commune":{"key":"6035","name":"Sembrancher","shortName":"Sembrancher"},"district":{"key":"2303","name":"District d'Entremont"},"canton":{"key":"23","code":"VS","name":"Valais / Wallis"},"status":"Real"},{"key":"10165663","name":"Route de la Garde","postalCode":"1933","locality":"Sembrancher","commune":{"key":"6035","name":"Sembrancher","shortName":"Sembrancher"},"district":{"key":"2303","name":"District d'Entremont"},"canton":{"key":"23","code":"VS","name":"Valais / Wallis"},"status":"Real"},{"key":"10082453","name":"Route de la Gravenne","postalCode":"1933","locality":"Sembrancher","commune":{"key":"6035","name":"Sembrancher","shortName":"Sembrancher"},"district":{"key":"2303","name":"District d'Entremont"},"canton":{"key":"23","code":"VS","name":"Valais / Wallis"},"status":"Real"},{"key":"10045661","name":"Route de la Pessote","postalCode":"1933","locality":"Sembrancher","commune":{"key":"6035","name":"Sembrancher","shortName":"Sembrancher"},"district":{"key":"2303","name":"District d'Entremont"},"canton":{"key":"23","code":"VS","name":"Valais / Wallis"},"status":"Real"},{"key":"10162168","name":"Route de la Pierre","postalCode":"1933","locality":"Vens (Sembrancher)","commune":{"key":"6037","name":"Val de Bagnes","shortName":"Val de Bagnes"},"district":{"key":"2303","name":"District d'Entremont"},"canton":{"key":"23","code":"VS","name":"Valais / Wallis"},"status":"Real"},{"key":"10164754","name":"Route des Grangettes","postalCode":"1933","locality":"La Garde (Sembrancher)","commune":{"key":"6035","name":"Sembrancher","shortName":"Sembrancher"},"district":{"key":"2303","name":"District d'Entremont"},"canton":{"key":"23","code":"VS","name":"Valais / Wallis"},"status":"Real"},{"key":"10187665","name":"Route des Moulins","postalCode":"1933","locality":"Sembrancher","commune":{"key":"6035","name":"Sembrancher","shortName":"Sembrancher"},"district":{"key":"2303","name":"District d'Entremont"},"canton":{"key":"23","code":"VS","name":"Valais / Wallis"},"status":"Real"},{"key":"10172205","name":"Route des Moulins Dallèves","postalCode":"1933","locality":"Sembrancher","commune":{"key":"6035","name":"Sembrancher","shortName":"Sembrancher"},"district":{"key":"2303","name":"District d'Entremont"},"canton":{"key":"23","code":"VS","name":"Valais / Wallis"},"status":"Real"},{"key":"10102338","name":"Route des Parties","postalCode":"1933","locality":"Sembrancher","commune":{"key":"6035","name":"Sembrancher","shortName":"Sembrancher"},"district":{"key":"2303","name":"District d'Entremont"},"canton":{"key":"23","code":"VS","name":"Valais / Wallis"},"status":"Real"},{"key":"10236965","name":"Route de Vens","postalCode":"1933","locality":"Vens (Sembrancher)","commune":{"key":"6037","name":"Val de Bagnes","shortName":"Val de Bagnes"},"district":{"key":"2303","name":"District d'Entremont"},"canton":{"key":"23","code":"VS","name":"Valais / Wallis"},"status":"Real"},{"key":"10164986","name":"Route du Col des Planches","postalCode":"1933","locality":"Vens (Sembrancher)","commune":{"key":"6037","name":"Val de Bagnes","shortName":"Val de Bagnes"},"district":{"key":"2303","name":"District d'Entremont"},"canton":{"key":"23","code":"VS","name":"Valais / Wallis"},"status":"Real"},{"key":"10045662","name":"Route du Farray","postalCode":"1933","locality":"Sembrancher","commune":{"key":"6035","name":"Sembrancher","shortName":"Sembrancher"},"district":{"key":"2303","name":"District d'Entremont"},"canton":{"key":"23","code":"VS","name":"Valais / Wallis"},"status":"Real"},{"key":"10162163","name":"Route du Fond","postalCode":"1933","locality":"Vens (Sembrancher)","commune":{"key":"6037","name":"Val de Bagnes","shortName":"Val de Bagnes"},"district":{"key":"2303","name":"District d'Entremont"},"canton":{"key":"23","code":"VS","name":"Valais / Wallis"},"status":"Real"},{"key":"10164749","name":"Route du Grandchamp","postalCode":"1933","locality":"Chamoille (Sembrancher)","commune":{"key":"6035","name":"Sembrancher","shortName":"Sembrancher"},"district":{"key":"2303","name":"District d'Entremont"},"canton":{"key":"23","code":"VS","name":"Valais / Wallis"},"status":"Real"},{"key":"10112571","name":"Route du Grand-St-Bernard","postalCode":"1933","locality":"Sembrancher","commune":{"key":"6035","name":"Sembrancher","shortName":"Sembrancher"},"district":{"key":"2303","name":"District d'Entremont"},"canton":{"key":"23","code":"VS","name":"Valais / Wallis"},"status":"Real"},{"key":"10164748","name":"Route du Milieu","postalCode":"1933","locality":"Chamoille (Sembrancher)","commune":{"key":"6035","name":"Sembrancher","shortName":"Sembrancher"},"district":{"key":"2303","name":"District d'Entremont"},"canton":{"key":"23","code":"VS","name":"Valais / Wallis"},"status":"Real"},{"key":"10172662","name":"Route du Milieu","postalCode":"1933","locality":"Vens (Sembrancher)","commune":{"key":"6037","name":"Val de Bagnes","shortName":"Val de Bagnes"},"district":{"key":"2303","name":"District d'Entremont"},"canton":{"key":"23","code":"VS","name":"Valais / Wallis"},"status":"Real"},{"key":"10172664","name":"Route du Sommet","postalCode":"1933","locality":"Vens (Sembrancher)","commune":{"key":"6037","name":"Val de Bagnes","shortName":"Val de Bagnes"},"district":{"key":"2303","name":"District d'Entremont"},"canton":{"key":"23","code":"VS","name":"Valais / Wallis"},"status":"Real"},{"key":"10167384","name":"Route en Biollay","postalCode":"1933","locality":"Sembrancher","commune":{"key":"6035","name":"Sembrancher","shortName":"Sembrancher"},"district":{"key":"2303","name":"District d'Entremont"},"canton":{"key":"23","code":"VS","name":"Valais / Wallis"},"status":"Real"},{"key":"10164755","name":"Rue de la Chapelle","postalCode":"1933","locality":"La Garde (Sembrancher)","commune":{"key":"6035","name":"Sembrancher","shortName":"Sembrancher"},"district":{"key":"2303","name":"District d'Entremont"},"canton":{"key":"23","code":"VS","name":"Valais / Wallis"},"status":"Real"},{"key":"10187667","name":"Rue de la Fontaine","postalCode":"1933","locality":"Chamoille (Sembrancher)","commune":{"key":"6035","name":"Sembrancher","shortName":"Sembrancher"},"district":{"key":"2303","name":"District d'Entremont"},"canton":{"key":"23","code":"VS","name":"Valais / Wallis"},"status":"Real"},{"key":"10168751","name":"Rue de la Tour","postalCode":"1933","locality":"Sembrancher","commune":{"key":"6035","name":"Sembrancher","shortName":"Sembrancher"},"district":{"key":"2303","name":"District d'Entremont"},"canton":{"key":"23","code":"VS","name":"Valais / Wallis"},"status":"Real"},{"key":"10170239","name":"Rue de l'Eglise","postalCode":"1933","locality":"Sembrancher","commune":{"key":"6035","name":"Sembrancher","shortName":"Sembrancher"},"district":{"key":"2303","name":"District d'Entremont"},"canton":{"key":"23","code":"VS","name":"Valais / Wallis"},"status":"Real"},{"key":"10168689","name":"Rue des Granges","postalCode":"1933","locality":"Sembrancher","commune":{"key":"6035","name":"Sembrancher","shortName":"Sembrancher"},"district":{"key":"2303","name":"District d'Entremont"},"canton":{"key":"23","code":"VS","name":"Valais / Wallis"},"status":"Real"},{"key":"10171688","name":"Rue du Collège","postalCode":"1933","locality":"Sembrancher","commune":{"key":"6035","name":"Sembrancher","shortName":"Sembrancher"},"district":{"key":"2303","name":"District d'Entremont"},"canton":{"key":"23","code":"VS","name":"Valais / Wallis"},"status":"Real"},{"key":"10162038","name":"Rue du Four","postalCode":"1933","locality":"La Garde (Sembrancher)","commune":{"key":"6035","name":"Sembrancher","shortName":"Sembrancher"},"district":{"key":"2303","name":"District d'Entremont"},"canton":{"key":"23","code":"VS","name":"Valais / Wallis"},"status":"Real"},{"key":"10174220","name":"Ruelle du Fond de Ville","postalCode":"1933","locality":"Sembrancher","commune":{"key":"6035","name":"Sembrancher","shortName":"Sembrancher"},"district":{"key":"2303","name":"District d'Entremont"},"canton":{"key":"23","code":"VS","name":"Valais / Wallis"},"status":"Real"},{"key":"10171255","name":"Rue Principale","postalCode":"1933","locality":"Sembrancher","commune":{"key":"6035","name":"Sembrancher","shortName":"Sembrancher"},"district":{"key":"2303","name":"District d'Entremont"},"canton":{"key":"23","code":"VS","name":"Valais / Wallis"},"status":"Real"},{"key":"10082456","name":"Rue St-Honoré","postalCode":"1933","locality":"Sembrancher","commune":{"key":"6035","name":"Sembrancher","shortName":"Sembrancher"},"district":{"key":"2303","name":"District d'Entremont"},"canton":{"key":"23","code":"VS","name":"Valais / Wallis"},"status":"Real"},{"key":"10206347","name":"St-Jean","postalCode":"1933","locality":"La Garde (Sembrancher)","commune":{"key":"6035","name":"Sembrancher","shortName":"Sembrancher"},"district":{"key":"2303","name":"District d'Entremont"},"canton":{"key":"23","code":"VS","name":"Valais / Wallis"},"status":"Real"},]