[{"key":"10194290","name":"A1","postalCode":"8104","locality":"Weiningen ZH","commune":{"key":"251","name":"Weiningen (ZH)","shortName":"Weiningen (ZH)"},"district":{"key":"111","name":"Bezirk Dietikon"},"canton":{"key":"1","code":"ZH","name":"Zürich"},"status":"Real"},{"key":"10257892","name":"A1H","postalCode":"8104","locality":"Weiningen ZH","commune":{"key":"251","name":"Weiningen (ZH)","shortName":"Weiningen (ZH)"},"district":{"key":"111","name":"Bezirk Dietikon"},"canton":{"key":"1","code":"ZH","name":"Zürich"},"status":"Real"},{"key":"10257891","name":"A3","postalCode":"8104","locality":"Weiningen ZH","commune":{"key":"251","name":"Weiningen (ZH)","shortName":"Weiningen (ZH)"},"district":{"key":"111","name":"Bezirk Dietikon"},"canton":{"key":"1","code":"ZH","name":"Zürich"},"status":"Real"},{"key":"10194285","name":"Aasmattweg","postalCode":"8104","locality":"Weiningen ZH","commune":{"key":"251","name":"Weiningen (ZH)","shortName":"Weiningen (ZH)"},"district":{"key":"111","name":"Bezirk Dietikon"},"canton":{"key":"1","code":"ZH","name":"Zürich"},"status":"Real"},{"key":"10194278","name":"Altenvogtsacherweg","postalCode":"8104","locality":"Weiningen ZH","commune":{"key":"251","name":"Weiningen (ZH)","shortName":"Weiningen (ZH)"},"district":{"key":"111","name":"Bezirk Dietikon"},"canton":{"key":"1","code":"ZH","name":"Zürich"},"status":"Real"},{"key":"10193273","name":"Aspstich","postalCode":"8104","locality":"Weiningen ZH","commune":{"key":"251","name":"Weiningen (ZH)","shortName":"Weiningen (ZH)"},"district":{"key":"111","name":"Bezirk Dietikon"},"canton":{"key":"1","code":"ZH","name":"Zürich"},"status":"Real"},{"key":"10194223","name":"Aspweg","postalCode":"8104","locality":"Weiningen ZH","commune":{"key":"251","name":"Weiningen (ZH)","shortName":"Weiningen (ZH)"},"district":{"key":"111","name":"Bezirk Dietikon"},"canton":{"key":"1","code":"ZH","name":"Zürich"},"status":"Real"},{"key":"10055542","name":"Bachstrasse","postalCode":"8104","locality":"Weiningen ZH","commune":{"key":"251","name":"Weiningen (ZH)","shortName":"Weiningen (ZH)"},"district":{"key":"111","name":"Bezirk Dietikon"},"canton":{"key":"1","code":"ZH","name":"Zürich"},"status":"Real"},{"key":"10057880","name":"Badenerstrasse","postalCode":"8104","locality":"Weiningen ZH","commune":{"key":"251","name":"Weiningen (ZH)","shortName":"Weiningen (ZH)"},"district":{"key":"111","name":"Bezirk Dietikon"},"canton":{"key":"1","code":"ZH","name":"Zürich"},"status":"Real"},{"key":"10194284","name":"Baderströssli","postalCode":"8104","locality":"Weiningen ZH","commune":{"key":"251","name":"Weiningen (ZH)","shortName":"Weiningen (ZH)"},"district":{"key":"111","name":"Bezirk Dietikon"},"canton":{"key":"1","code":"ZH","name":"Zürich"},"status":"Real"},{"key":"10194691","name":"Bergteilring","postalCode":"8104","locality":"Weiningen ZH","commune":{"key":"251","name":"Weiningen (ZH)","shortName":"Weiningen (ZH)"},"district":{"key":"111","name":"Bezirk Dietikon"},"canton":{"key":"1","code":"ZH","name":"Zürich"},"status":"Real"},{"key":"10194146","name":"Bettliacherweg","postalCode":"8104","locality":"Weiningen ZH","commune":{"key":"251","name":"Weiningen (ZH)","shortName":"Weiningen (ZH)"},"district":{"key":"111","name":"Bezirk Dietikon"},"canton":{"key":"1","code":"ZH","name":"Zürich"},"status":"Real"},{"key":"10194695","name":"Bittenlohweg","postalCode":"8104","locality":"Weiningen ZH","commune":{"key":"251","name":"Weiningen (ZH)","shortName":"Weiningen (ZH)"},"district":{"key":"111","name":"Bezirk Dietikon"},"canton":{"key":"1","code":"ZH","name":"Zürich"},"status":"Real"},{"key":"10194277","name":"Bleikistich","postalCode":"8104","locality":"Weiningen ZH","commune":{"key":"251","name":"Weiningen (ZH)","shortName":"Weiningen (ZH)"},"district":{"key":"111","name":"Bezirk Dietikon"},"canton":{"key":"1","code":"ZH","name":"Zürich"},"status":"Real"},{"key":"10005441","name":"Bodengässli","postalCode":"8104","locality":"Weiningen ZH","commune":{"key":"251","name":"Weiningen (ZH)","shortName":"Weiningen (ZH)"},"district":{"key":"111","name":"Bezirk Dietikon"},"canton":{"key":"1","code":"ZH","name":"Zürich"},"status":"Real"},{"key":"10055543","name":"Bodenstrasse","postalCode":"8104","locality":"Weiningen ZH","commune":{"key":"251","name":"Weiningen (ZH)","shortName":"Weiningen (ZH)"},"district":{"key":"111","name":"Bezirk Dietikon"},"canton":{"key":"1","code":"ZH","name":"Zürich"},"status":"Real"},{"key":"10074865","name":"Bruederberg","postalCode":"8104","locality":"Weiningen ZH","commune":{"key":"251","name":"Weiningen (ZH)","shortName":"Weiningen (ZH)"},"district":{"key":"111","name":"Bezirk Dietikon"},"canton":{"key":"1","code":"ZH","name":"Zürich"},"status":"Real"},{"key":"10194218","name":"Bruederbergring","postalCode":"8104","locality":"Weiningen ZH","commune":{"key":"251","name":"Weiningen (ZH)","shortName":"Weiningen (ZH)"},"district":{"key":"111","name":"Bezirk Dietikon"},"canton":{"key":"1","code":"ZH","name":"Zürich"},"status":"Real"},{"key":"10194217","name":"Bruederbergsteig","postalCode":"8104","locality":"Weiningen ZH","commune":{"key":"251","name":"Weiningen (ZH)","shortName":"Weiningen (ZH)"},"district":{"key":"111","name":"Bezirk Dietikon"},"canton":{"key":"1","code":"ZH","name":"Zürich"},"status":"Real"},{"key":"10155263","name":"Bruederbergstrasse","postalCode":"8104","locality":"Weiningen ZH","commune":{"key":"251","name":"Weiningen (ZH)","shortName":"Weiningen (ZH)"},"district":{"key":"111","name":"Bezirk Dietikon"},"canton":{"key":"1","code":"ZH","name":"Zürich"},"status":"Real"},{"key":"10194694","name":"Buechhölzlisteig","postalCode":"8104","locality":"Weiningen ZH","commune":{"key":"251","name":"Weiningen (ZH)","shortName":"Weiningen (ZH)"},"district":{"key":"111","name":"Bezirk Dietikon"},"canton":{"key":"1","code":"ZH","name":"Zürich"},"status":"Real"},{"key":"10194693","name":"Buechhölzliweg","postalCode":"8104","locality":"Weiningen ZH","commune":{"key":"251","name":"Weiningen (ZH)","shortName":"Weiningen (ZH)"},"district":{"key":"111","name":"Bezirk Dietikon"},"canton":{"key":"1","code":"ZH","name":"Zürich"},"status":"Real"},{"key":"10118007","name":"Büelstrasse","postalCode":"8104","locality":"Weiningen ZH","commune":{"key":"251","name":"Weiningen (ZH)","shortName":"Weiningen (ZH)"},"district":{"key":"111","name":"Bezirk Dietikon"},"canton":{"key":"1","code":"ZH","name":"Zürich"},"status":"Real"},{"key":"10005442","name":"Chalofenstrasse","postalCode":"8104","locality":"Weiningen ZH","commune":{"key":"251","name":"Weiningen (ZH)","shortName":"Weiningen (ZH)"},"district":{"key":"111","name":"Bezirk Dietikon"},"canton":{"key":"1","code":"ZH","name":"Zürich"},"status":"Real"},{"key":"10194279","name":"Chilespitzring","postalCode":"8104","locality":"Weiningen ZH","commune":{"key":"251","name":"Weiningen (ZH)","shortName":"Weiningen (ZH)"},"district":{"key":"111","name":"Bezirk Dietikon"},"canton":{"key":"1","code":"ZH","name":"Zürich"},"status":"Real"},{"key":"10194214","name":"Chilespitzsteig","postalCode":"8104","locality":"Weiningen ZH","commune":{"key":"251","name":"Weiningen (ZH)","shortName":"Weiningen (ZH)"},"district":{"key":"111","name":"Bezirk Dietikon"},"canton":{"key":"1","code":"ZH","name":"Zürich"},"status":"Real"},{"key":"10194215","name":"Chilespitzweg","postalCode":"8104","locality":"Weiningen ZH","commune":{"key":"251","name":"Weiningen (ZH)","shortName":"Weiningen (ZH)"},"district":{"key":"111","name":"Bezirk Dietikon"},"canton":{"key":"1","code":"ZH","name":"Zürich"},"status":"Real"},{"key":"10193989","name":"Chneblenstrasse","postalCode":"8104","locality":"Weiningen ZH","commune":{"key":"251","name":"Weiningen (ZH)","shortName":"Weiningen (ZH)"},"district":{"key":"111","name":"Bezirk Dietikon"},"canton":{"key":"1","code":"ZH","name":"Zürich"},"status":"Real"},{"key":"10194143","name":"Chriesihogerweg","postalCode":"8104","locality":"Weiningen ZH","commune":{"key":"251","name":"Weiningen (ZH)","shortName":"Weiningen (ZH)"},"district":{"key":"111","name":"Bezirk Dietikon"},"canton":{"key":"1","code":"ZH","name":"Zürich"},"status":"Real"},{"key":"10098538","name":"Chübelackerstrasse","postalCode":"8104","locality":"Weiningen ZH","commune":{"key":"251","name":"Weiningen (ZH)","shortName":"Weiningen (ZH)"},"district":{"key":"111","name":"Bezirk Dietikon"},"canton":{"key":"1","code":"ZH","name":"Zürich"},"status":"Real"},{"key":"10057881","name":"Chüegass","postalCode":"8104","locality":"Weiningen ZH","commune":{"key":"251","name":"Weiningen (ZH)","shortName":"Weiningen (ZH)"},"district":{"key":"111","name":"Bezirk Dietikon"},"canton":{"key":"1","code":"ZH","name":"Zürich"},"status":"Real"},{"key":"10105481","name":"Dietikonerstrasse","postalCode":"8104","locality":"Weiningen ZH","commune":{"key":"251","name":"Weiningen (ZH)","shortName":"Weiningen (ZH)"},"district":{"key":"111","name":"Bezirk Dietikon"},"canton":{"key":"1","code":"ZH","name":"Zürich"},"status":"Real"},{"key":"10194699","name":"Finkenstrasse","postalCode":"8104","locality":"Weiningen ZH","commune":{"key":"251","name":"Weiningen (ZH)","shortName":"Weiningen (ZH)"},"district":{"key":"111","name":"Bezirk Dietikon"},"canton":{"key":"1","code":"ZH","name":"Zürich"},"status":"Real"},{"key":"10193276","name":"Folenmoosstich","postalCode":"8104","locality":"Weiningen ZH","commune":{"key":"251","name":"Weiningen (ZH)","shortName":"Weiningen (ZH)"},"district":{"key":"111","name":"Bezirk Dietikon"},"canton":{"key":"1","code":"ZH","name":"Zürich"},"status":"Real"},{"key":"10193275","name":"Folenmoosweg","postalCode":"8104","locality":"Weiningen ZH","commune":{"key":"251","name":"Weiningen (ZH)","shortName":"Weiningen (ZH)"},"district":{"key":"111","name":"Bezirk Dietikon"},"canton":{"key":"1","code":"ZH","name":"Zürich"},"status":"Real"},{"key":"10074866","name":"Forbüelstrasse","postalCode":"8104","locality":"Weiningen ZH","commune":{"key":"251","name":"Weiningen (ZH)","shortName":"Weiningen (ZH)"},"district":{"key":"111","name":"Bezirk Dietikon"},"canton":{"key":"1","code":"ZH","name":"Zürich"},"status":"Real"},{"key":"10193274","name":"Forbüelweg","postalCode":"8104","locality":"Weiningen ZH","commune":{"key":"251","name":"Weiningen (ZH)","shortName":"Weiningen (ZH)"},"district":{"key":"111","name":"Bezirk Dietikon"},"canton":{"key":"1","code":"ZH","name":"Zürich"},"status":"Real"},{"key":"10194689","name":"Forsthausweg","postalCode":"8104","locality":"Weiningen ZH","commune":{"key":"251","name":"Weiningen (ZH)","shortName":"Weiningen (ZH)"},"district":{"key":"111","name":"Bezirk Dietikon"},"canton":{"key":"1","code":"ZH","name":"Zürich"},"status":"Real"},{"key":"10005443","name":"Friedhofstrasse","postalCode":"8104","locality":"Weiningen ZH","commune":{"key":"251","name":"Weiningen (ZH)","shortName":"Weiningen (ZH)"},"district":{"key":"111","name":"Bezirk Dietikon"},"canton":{"key":"1","code":"ZH","name":"Zürich"},"status":"Real"},{"key":"10194067","name":"Gratweg","postalCode":"8104","locality":"Weiningen ZH","commune":{"key":"251","name":"Weiningen (ZH)","shortName":"Weiningen (ZH)"},"district":{"key":"111","name":"Bezirk Dietikon"},"canton":{"key":"1","code":"ZH","name":"Zürich"},"status":"Real"},{"key":"10194225","name":"Grenzweg","postalCode":"8104","locality":"Weiningen ZH","commune":{"key":"251","name":"Weiningen (ZH)","shortName":"Weiningen (ZH)"},"district":{"key":"111","name":"Bezirk Dietikon"},"canton":{"key":"1","code":"ZH","name":"Zürich"},"status":"Real"},{"key":"10193991","name":"Grindlenstich","postalCode":"8104","locality":"Weiningen ZH","commune":{"key":"251","name":"Weiningen (ZH)","shortName":"Weiningen (ZH)"},"district":{"key":"111","name":"Bezirk Dietikon"},"canton":{"key":"1","code":"ZH","name":"Zürich"},"status":"Real"},{"key":"10005444","name":"Grossächerstrasse","postalCode":"8104","locality":"Weiningen ZH","commune":{"key":"251","name":"Weiningen (ZH)","shortName":"Weiningen (ZH)"},"district":{"key":"111","name":"Bezirk Dietikon"},"canton":{"key":"1","code":"ZH","name":"Zürich"},"status":"Real"},{"key":"10005445","name":"Grossächerweg","postalCode":"8104","locality":"Weiningen ZH","commune":{"key":"251","name":"Weiningen (ZH)","shortName":"Weiningen (ZH)"},"district":{"key":"111","name":"Bezirk Dietikon"},"canton":{"key":"1","code":"ZH","name":"Zürich"},"status":"Real"},{"key":"10194144","name":"Gruenikerweg","postalCode":"8104","locality":"Weiningen ZH","commune":{"key":"251","name":"Weiningen (ZH)","shortName":"Weiningen (ZH)"},"district":{"key":"111","name":"Bezirk Dietikon"},"canton":{"key":"1","code":"ZH","name":"Zürich"},"status":"Real"},{"key":"10196032","name":"Guldiberg","postalCode":"8104","locality":"Weiningen ZH","commune":{"key":"251","name":"Weiningen (ZH)","shortName":"Weiningen (ZH)"},"district":{"key":"111","name":"Bezirk Dietikon"},"canton":{"key":"1","code":"ZH","name":"Zürich"},"status":"Real"},{"key":"10194701","name":"Guldibergstrasse","postalCode":"8104","locality":"Weiningen ZH","commune":{"key":"251","name":"Weiningen (ZH)","shortName":"Weiningen (ZH)"},"district":{"key":"111","name":"Bezirk Dietikon"},"canton":{"key":"1","code":"ZH","name":"Zürich"},"status":"Real"},{"key":"10194286","name":"Gülleracherweg","postalCode":"8104","locality":"Weiningen ZH","commune":{"key":"251","name":"Weiningen (ZH)","shortName":"Weiningen (ZH)"},"district":{"key":"111","name":"Bezirk Dietikon"},"canton":{"key":"1","code":"ZH","name":"Zürich"},"status":"Real"},{"key":"10178630","name":"Hängertenstrasse","postalCode":"8104","locality":"Weiningen ZH","commune":{"key":"251","name":"Weiningen (ZH)","shortName":"Weiningen (ZH)"},"district":{"key":"111","name":"Bezirk Dietikon"},"canton":{"key":"1","code":"ZH","name":"Zürich"},"status":"Real"},{"key":"10193272","name":"Hasleren Gratweg","postalCode":"8104","locality":"Weiningen ZH","commune":{"key":"251","name":"Weiningen (ZH)","shortName":"Weiningen (ZH)"},"district":{"key":"111","name":"Bezirk Dietikon"},"canton":{"key":"1","code":"ZH","name":"Zürich"},"status":"Real"},{"key":"10057882","name":"Haslernstrasse","postalCode":"8104","locality":"Weiningen ZH","commune":{"key":"251","name":"Weiningen (ZH)","shortName":"Weiningen (ZH)"},"district":{"key":"111","name":"Bezirk Dietikon"},"canton":{"key":"1","code":"ZH","name":"Zürich"},"status":"Real"},{"key":"10074867","name":"Hettlerstrasse","postalCode":"8104","locality":"Weiningen ZH","commune":{"key":"251","name":"Weiningen (ZH)","shortName":"Weiningen (ZH)"},"district":{"key":"111","name":"Bezirk Dietikon"},"canton":{"key":"1","code":"ZH","name":"Zürich"},"status":"Real"},{"key":"10194140","name":"Hochrütiweg","postalCode":"8104","locality":"Weiningen ZH","commune":{"key":"251","name":"Weiningen (ZH)","shortName":"Weiningen (ZH)"},"district":{"key":"111","name":"Bezirk Dietikon"},"canton":{"key":"1","code":"ZH","name":"Zürich"},"status":"Real"},{"key":"10005446","name":"Hogerwiesstrasse","postalCode":"8104","locality":"Weiningen ZH","commune":{"key":"251","name":"Weiningen (ZH)","shortName":"Weiningen (ZH)"},"district":{"key":"111","name":"Bezirk Dietikon"},"canton":{"key":"1","code":"ZH","name":"Zürich"},"status":"Real"},{"key":"10194216","name":"Hohbüelweg","postalCode":"8104","locality":"Weiningen ZH","commune":{"key":"251","name":"Weiningen (ZH)","shortName":"Weiningen (ZH)"},"district":{"key":"111","name":"Bezirk Dietikon"},"canton":{"key":"1","code":"ZH","name":"Zürich"},"status":"Real"},{"key":"10194283","name":"Hungernstrasse","postalCode":"8104","locality":"Weiningen ZH","commune":{"key":"251","name":"Weiningen (ZH)","shortName":"Weiningen (ZH)"},"district":{"key":"111","name":"Bezirk Dietikon"},"canton":{"key":"1","code":"ZH","name":"Zürich"},"status":"Real"},{"key":"10194064","name":"Hungernweg","postalCode":"8104","locality":"Weiningen ZH","commune":{"key":"251","name":"Weiningen (ZH)","shortName":"Weiningen (ZH)"},"district":{"key":"111","name":"Bezirk Dietikon"},"canton":{"key":"1","code":"ZH","name":"Zürich"},"status":"Real"},{"key":"10161335","name":"I de Chneble","postalCode":"8104","locality":"Weiningen ZH","commune":{"key":"251","name":"Weiningen (ZH)","shortName":"Weiningen (ZH)"},"district":{"key":"111","name":"Bezirk Dietikon"},"canton":{"key":"1","code":"ZH","name":"Zürich"},"status":"Real"},{"key":"10074868","name":"Ifangstrasse","postalCode":"8104","locality":"Weiningen ZH","commune":{"key":"251","name":"Weiningen (ZH)","shortName":"Weiningen (ZH)"},"district":{"key":"111","name":"Bezirk Dietikon"},"canton":{"key":"1","code":"ZH","name":"Zürich"},"status":"Real"},{"key":"10116898","name":"Im Boden","postalCode":"8104","locality":"Weiningen ZH","commune":{"key":"251","name":"Weiningen (ZH)","shortName":"Weiningen (ZH)"},"district":{"key":"111","name":"Bezirk Dietikon"},"canton":{"key":"1","code":"ZH","name":"Zürich"},"status":"Real"},{"key":"10052360","name":"Im Büel","postalCode":"8104","locality":"Weiningen ZH","commune":{"key":"251","name":"Weiningen (ZH)","shortName":"Weiningen (ZH)"},"district":{"key":"111","name":"Bezirk Dietikon"},"canton":{"key":"1","code":"ZH","name":"Zürich"},"status":"Real"},{"key":"10208366","name":"Im Gewerbepark","postalCode":"8104","locality":"Weiningen ZH","commune":{"key":"251","name":"Weiningen (ZH)","shortName":"Weiningen (ZH)"},"district":{"key":"111","name":"Bezirk Dietikon"},"canton":{"key":"1","code":"ZH","name":"Zürich"},"status":"Real"},{"key":"10005447","name":"Im Hasennest","postalCode":"8104","locality":"Weiningen ZH","commune":{"key":"251","name":"Weiningen (ZH)","shortName":"Weiningen (ZH)"},"district":{"key":"111","name":"Bezirk Dietikon"},"canton":{"key":"1","code":"ZH","name":"Zürich"},"status":"Real"},{"key":"10005448","name":"Im Rank","postalCode":"8104","locality":"Weiningen ZH","commune":{"key":"251","name":"Weiningen (ZH)","shortName":"Weiningen (ZH)"},"district":{"key":"111","name":"Bezirk Dietikon"},"canton":{"key":"1","code":"ZH","name":"Zürich"},"status":"Real"},{"key":"10120531","name":"Im Riesentobel","postalCode":"8104","locality":"Weiningen ZH","commune":{"key":"251","name":"Weiningen (ZH)","shortName":"Weiningen (ZH)"},"district":{"key":"111","name":"Bezirk Dietikon"},"canton":{"key":"1","code":"ZH","name":"Zürich"},"status":"Real"},{"key":"10059023","name":"Im Wyberg","postalCode":"8104","locality":"Weiningen ZH","commune":{"key":"251","name":"Weiningen (ZH)","shortName":"Weiningen (ZH)"},"district":{"key":"111","name":"Bezirk Dietikon"},"canton":{"key":"1","code":"ZH","name":"Zürich"},"status":"Real"},{"key":"10005449","name":"Kirchstrasse","postalCode":"8104","locality":"Weiningen ZH","commune":{"key":"251","name":"Weiningen (ZH)","shortName":"Weiningen (ZH)"},"district":{"key":"111","name":"Bezirk Dietikon"},"canton":{"key":"1","code":"ZH","name":"Zürich"},"status":"Real"},{"key":"10074869","name":"Klosterweg","postalCode":"8104","locality":"Weiningen ZH","commune":{"key":"251","name":"Weiningen (ZH)","shortName":"Weiningen (ZH)"},"district":{"key":"111","name":"Bezirk Dietikon"},"canton":{"key":"1","code":"ZH","name":"Zürich"},"status":"Real"},{"key":"10111567","name":"Längglistrasse","postalCode":"8104","locality":"Weiningen ZH","commune":{"key":"251","name":"Weiningen (ZH)","shortName":"Weiningen (ZH)"},"district":{"key":"111","name":"Bezirk Dietikon"},"canton":{"key":"1","code":"ZH","name":"Zürich"},"status":"Real"},{"key":"10193984","name":"Länggliweg","postalCode":"8104","locality":"Weiningen ZH","commune":{"key":"251","name":"Weiningen (ZH)","shortName":"Weiningen (ZH)"},"district":{"key":"111","name":"Bezirk Dietikon"},"canton":{"key":"1","code":"ZH","name":"Zürich"},"status":"Real"},{"key":"10194065","name":"Möslistrasse","postalCode":"8104","locality":"Weiningen ZH","commune":{"key":"251","name":"Weiningen (ZH)","shortName":"Weiningen (ZH)"},"district":{"key":"111","name":"Bezirk Dietikon"},"canton":{"key":"1","code":"ZH","name":"Zürich"},"status":"Real"},{"key":"10059024","name":"Nägelseestrasse","postalCode":"8104","locality":"Weiningen ZH","commune":{"key":"251","name":"Weiningen (ZH)","shortName":"Weiningen (ZH)"},"district":{"key":"111","name":"Bezirk Dietikon"},"canton":{"key":"1","code":"ZH","name":"Zürich"},"status":"Real"},{"key":"10118008","name":"Niederholzstrasse","postalCode":"8104","locality":"Weiningen ZH","commune":{"key":"251","name":"Weiningen (ZH)","shortName":"Weiningen (ZH)"},"district":{"key":"111","name":"Bezirk Dietikon"},"canton":{"key":"1","code":"ZH","name":"Zürich"},"status":"Real"},{"key":"10005450","name":"Oberdorfstrasse","postalCode":"8104","locality":"Weiningen ZH","commune":{"key":"251","name":"Weiningen (ZH)","shortName":"Weiningen (ZH)"},"district":{"key":"111","name":"Bezirk Dietikon"},"canton":{"key":"1","code":"ZH","name":"Zürich"},"status":"Real"},{"key":"10194692","name":"Oberer Altbergweg","postalCode":"8104","locality":"Weiningen ZH","commune":{"key":"251","name":"Weiningen (ZH)","shortName":"Weiningen (ZH)"},"district":{"key":"111","name":"Bezirk Dietikon"},"canton":{"key":"1","code":"ZH","name":"Zürich"},"status":"Real"},{"key":"10193270","name":"Oberer Haslerenring","postalCode":"8104","locality":"Weiningen ZH","commune":{"key":"251","name":"Weiningen (ZH)","shortName":"Weiningen (ZH)"},"district":{"key":"111","name":"Bezirk Dietikon"},"canton":{"key":"1","code":"ZH","name":"Zürich"},"status":"Real"},{"key":"10182271","name":"Püntenstrasse","postalCode":"8104","locality":"Weiningen ZH","commune":{"key":"251","name":"Weiningen (ZH)","shortName":"Weiningen (ZH)"},"district":{"key":"111","name":"Bezirk Dietikon"},"canton":{"key":"1","code":"ZH","name":"Zürich"},"status":"Real"},{"key":"10115217","name":"Rainstrasse","postalCode":"8104","locality":"Weiningen ZH","commune":{"key":"251","name":"Weiningen (ZH)","shortName":"Weiningen (ZH)"},"district":{"key":"111","name":"Bezirk Dietikon"},"canton":{"key":"1","code":"ZH","name":"Zürich"},"status":"Real"},{"key":"10005451","name":"Rebbergstrasse","postalCode":"8104","locality":"Weiningen ZH","commune":{"key":"251","name":"Weiningen (ZH)","shortName":"Weiningen (ZH)"},"district":{"key":"111","name":"Bezirk Dietikon"},"canton":{"key":"1","code":"ZH","name":"Zürich"},"status":"Real"},{"key":"10105482","name":"Regensdorferstrasse","postalCode":"8104","locality":"Weiningen ZH","commune":{"key":"251","name":"Weiningen (ZH)","shortName":"Weiningen (ZH)"},"district":{"key":"111","name":"Bezirk Dietikon"},"canton":{"key":"1","code":"ZH","name":"Zürich"},"status":"Real"},{"key":"10194145","name":"Ruggweg","postalCode":"8104","locality":"Weiningen ZH","commune":{"key":"251","name":"Weiningen (ZH)","shortName":"Weiningen (ZH)"},"district":{"key":"111","name":"Bezirk Dietikon"},"canton":{"key":"1","code":"ZH","name":"Zürich"},"status":"Real"},{"key":"10124103","name":"Schlüechtistrasse","postalCode":"8104","locality":"Weiningen ZH","commune":{"key":"251","name":"Weiningen (ZH)","shortName":"Weiningen (ZH)"},"district":{"key":"111","name":"Bezirk Dietikon"},"canton":{"key":"1","code":"ZH","name":"Zürich"},"status":"Real"},{"key":"10193268","name":"Schützenhausweg","postalCode":"8104","locality":"Weiningen ZH","commune":{"key":"251","name":"Weiningen (ZH)","shortName":"Weiningen (ZH)"},"district":{"key":"111","name":"Bezirk Dietikon"},"canton":{"key":"1","code":"ZH","name":"Zürich"},"status":"Real"},{"key":"10005452","name":"Schützenmurstrasse","postalCode":"8104","locality":"Weiningen ZH","commune":{"key":"251","name":"Weiningen (ZH)","shortName":"Weiningen (ZH)"},"district":{"key":"111","name":"Bezirk Dietikon"},"canton":{"key":"1","code":"ZH","name":"Zürich"},"status":"Real"},{"key":"10194700","name":"Starenwirtsstrasse","postalCode":"8104","locality":"Weiningen ZH","commune":{"key":"251","name":"Weiningen (ZH)","shortName":"Weiningen (ZH)"},"district":{"key":"111","name":"Bezirk Dietikon"},"canton":{"key":"1","code":"ZH","name":"Zürich"},"status":"Real"},{"key":"10193771","name":"Steiacherweg","postalCode":"8104","locality":"Weiningen ZH","commune":{"key":"251","name":"Weiningen (ZH)","shortName":"Weiningen (ZH)"},"district":{"key":"111","name":"Bezirk Dietikon"},"canton":{"key":"1","code":"ZH","name":"Zürich"},"status":"Real"},{"key":"10194068","name":"Steinacherstrasse","postalCode":"8104","locality":"Weiningen ZH","commune":{"key":"251","name":"Weiningen (ZH)","shortName":"Weiningen (ZH)"},"district":{"key":"111","name":"Bezirk Dietikon"},"canton":{"key":"1","code":"ZH","name":"Zürich"},"status":"Real"},{"key":"10194147","name":"Steinacherweg","postalCode":"8104","locality":"Weiningen ZH","commune":{"key":"251","name":"Weiningen (ZH)","shortName":"Weiningen (ZH)"},"district":{"key":"111","name":"Bezirk Dietikon"},"canton":{"key":"1","code":"ZH","name":"Zürich"},"status":"Real"},{"key":"10178631","name":"Steinlernstrasse","postalCode":"8104","locality":"Weiningen ZH","commune":{"key":"251","name":"Weiningen (ZH)","shortName":"Weiningen (ZH)"},"district":{"key":"111","name":"Bezirk Dietikon"},"canton":{"key":"1","code":"ZH","name":"Zürich"},"status":"Real"},{"key":"10193982","name":"Umfahrungsstrasse","postalCode":"8104","locality":"Weiningen ZH","commune":{"key":"251","name":"Weiningen (ZH)","shortName":"Weiningen (ZH)"},"district":{"key":"111","name":"Bezirk Dietikon"},"canton":{"key":"1","code":"ZH","name":"Zürich"},"status":"Real"},{"key":"10194690","name":"Unterer Altbergweg","postalCode":"8104","locality":"Weiningen ZH","commune":{"key":"251","name":"Weiningen (ZH)","shortName":"Weiningen (ZH)"},"district":{"key":"111","name":"Bezirk Dietikon"},"canton":{"key":"1","code":"ZH","name":"Zürich"},"status":"Real"},{"key":"10193269","name":"Unterer Haslerenring","postalCode":"8104","locality":"Weiningen ZH","commune":{"key":"251","name":"Weiningen (ZH)","shortName":"Weiningen (ZH)"},"district":{"key":"111","name":"Bezirk Dietikon"},"canton":{"key":"1","code":"ZH","name":"Zürich"},"status":"Real"},{"key":"10074870","name":"Usserdorfstrasse","postalCode":"8104","locality":"Weiningen ZH","commune":{"key":"251","name":"Weiningen (ZH)","shortName":"Weiningen (ZH)"},"district":{"key":"111","name":"Bezirk Dietikon"},"canton":{"key":"1","code":"ZH","name":"Zürich"},"status":"Real"},{"key":"10193990","name":"Vogelacherweg","postalCode":"8104","locality":"Weiningen ZH","commune":{"key":"251","name":"Weiningen (ZH)","shortName":"Weiningen (ZH)"},"district":{"key":"111","name":"Bezirk Dietikon"},"canton":{"key":"1","code":"ZH","name":"Zürich"},"status":"Real"},{"key":"10005453","name":"Weierwiesstrasse","postalCode":"8104","locality":"Weiningen ZH","commune":{"key":"251","name":"Weiningen (ZH)","shortName":"Weiningen (ZH)"},"district":{"key":"111","name":"Bezirk Dietikon"},"canton":{"key":"1","code":"ZH","name":"Zürich"},"status":"Real"},{"key":"10194696","name":"Wiesentäliweg","postalCode":"8104","locality":"Weiningen ZH","commune":{"key":"251","name":"Weiningen (ZH)","shortName":"Weiningen (ZH)"},"district":{"key":"111","name":"Bezirk Dietikon"},"canton":{"key":"1","code":"ZH","name":"Zürich"},"status":"Real"},{"key":"10193271","name":"Zilweg","postalCode":"8104","locality":"Weiningen ZH","commune":{"key":"251","name":"Weiningen (ZH)","shortName":"Weiningen (ZH)"},"district":{"key":"111","name":"Bezirk Dietikon"},"canton":{"key":"1","code":"ZH","name":"Zürich"},"status":"Real"},{"key":"10175602","name":"Zürcherstrasse","postalCode":"8104","locality":"Weiningen ZH","commune":{"key":"251","name":"Weiningen (ZH)","shortName":"Weiningen (ZH)"},"district":{"key":"111","name":"Bezirk Dietikon"},"canton":{"key":"1","code":"ZH","name":"Zürich"},"status":"Real"},{"key":"10194061","name":"Ämetshauring","postalCode":"8104","locality":"Weiningen ZH","commune":{"key":"251","name":"Weiningen (ZH)","shortName":"Weiningen (ZH)"},"district":{"key":"111","name":"Bezirk Dietikon"},"canton":{"key":"1","code":"ZH","name":"Zürich"},"status":"Real"},{"key":"10194062","name":"Ämetshausteig","postalCode":"8104","locality":"Weiningen ZH","commune":{"key":"251","name":"Weiningen (ZH)","shortName":"Weiningen (ZH)"},"district":{"key":"111","name":"Bezirk Dietikon"},"canton":{"key":"1","code":"ZH","name":"Zürich"},"status":"Real"},{"key":"10240799","name":"Ämetweg","postalCode":"8104","locality":"Weiningen ZH","commune":{"key":"251","name":"Weiningen (ZH)","shortName":"Weiningen (ZH)"},"district":{"key":"111","name":"Bezirk Dietikon"},"canton":{"key":"1","code":"ZH","name":"Zürich"},"status":"Real"},]