[{"name":"Am alten Bahndamm","postalCode":"17349","locality":"Groß Miltzow","municipality":{"key":"13071054","name":"Groß Miltzow","type":"Kreisangehörige_Gemeinde"},"district":{"key":"13071","name":"Mecklenburgische Seenplatte","type":"Landkreis"},"federalState":{"key":"13","name":"Mecklenburg-Vorpommern"}},{"name":"Am Teich","postalCode":"17349","locality":"Groß Miltzow","municipality":{"key":"13071054","name":"Groß Miltzow","type":"Kreisangehörige_Gemeinde"},"district":{"key":"13071","name":"Mecklenburgische Seenplatte","type":"Landkreis"},"federalState":{"key":"13","name":"Mecklenburg-Vorpommern"}},{"name":"Badresch","postalCode":"17349","locality":"Groß Miltzow","municipality":{"key":"13071054","name":"Groß Miltzow","type":"Kreisangehörige_Gemeinde"},"district":{"key":"13071","name":"Mecklenburgische Seenplatte","type":"Landkreis"},"federalState":{"key":"13","name":"Mecklenburg-Vorpommern"}},{"name":"Dorfstr.","postalCode":"17349","locality":"Groß Miltzow","municipality":{"key":"13071054","name":"Groß Miltzow","type":"Kreisangehörige_Gemeinde"},"district":{"key":"13071","name":"Mecklenburgische Seenplatte","type":"Landkreis"},"federalState":{"key":"13","name":"Mecklenburg-Vorpommern"}},{"name":"Feldstr.","postalCode":"17349","locality":"Groß Miltzow","municipality":{"key":"13071054","name":"Groß Miltzow","type":"Kreisangehörige_Gemeinde"},"district":{"key":"13071","name":"Mecklenburgische Seenplatte","type":"Landkreis"},"federalState":{"key":"13","name":"Mecklenburg-Vorpommern"}},{"name":"Friedländer Chaussee","postalCode":"17349","locality":"Groß Miltzow","municipality":{"key":"13071054","name":"Groß Miltzow","type":"Kreisangehörige_Gemeinde"},"district":{"key":"13071","name":"Mecklenburgische Seenplatte","type":"Landkreis"},"federalState":{"key":"13","name":"Mecklenburg-Vorpommern"}},{"name":"Hauptstr.","postalCode":"17349","locality":"Groß Miltzow","municipality":{"key":"13071054","name":"Groß Miltzow","type":"Kreisangehörige_Gemeinde"},"district":{"key":"13071","name":"Mecklenburgische Seenplatte","type":"Landkreis"},"federalState":{"key":"13","name":"Mecklenburg-Vorpommern"}},{"name":"Holzendorf Ausbau","postalCode":"17349","locality":"Groß Miltzow","municipality":{"key":"13071054","name":"Groß Miltzow","type":"Kreisangehörige_Gemeinde"},"district":{"key":"13071","name":"Mecklenburgische Seenplatte","type":"Landkreis"},"federalState":{"key":"13","name":"Mecklenburg-Vorpommern"}},{"name":"Kirchstr.","postalCode":"17349","locality":"Groß Miltzow","municipality":{"key":"13071054","name":"Groß Miltzow","type":"Kreisangehörige_Gemeinde"},"district":{"key":"13071","name":"Mecklenburgische Seenplatte","type":"Landkreis"},"federalState":{"key":"13","name":"Mecklenburg-Vorpommern"}},{"name":"Klein Daberkow","postalCode":"17349","locality":"Groß Miltzow","municipality":{"key":"13071054","name":"Groß Miltzow","type":"Kreisangehörige_Gemeinde"},"district":{"key":"13071","name":"Mecklenburgische Seenplatte","type":"Landkreis"},"federalState":{"key":"13","name":"Mecklenburg-Vorpommern"}},{"name":"Kreckow","postalCode":"17349","locality":"Groß Miltzow","municipality":{"key":"13071054","name":"Groß Miltzow","type":"Kreisangehörige_Gemeinde"},"district":{"key":"13071","name":"Mecklenburgische Seenplatte","type":"Landkreis"},"federalState":{"key":"13","name":"Mecklenburg-Vorpommern"}},{"name":"Kublanker Str.","postalCode":"17349","locality":"Groß Miltzow","municipality":{"key":"13071054","name":"Groß Miltzow","type":"Kreisangehörige_Gemeinde"},"district":{"key":"13071","name":"Mecklenburgische Seenplatte","type":"Landkreis"},"federalState":{"key":"13","name":"Mecklenburg-Vorpommern"}},{"name":"Lindow","postalCode":"17349","locality":"Groß Miltzow","municipality":{"key":"13071054","name":"Groß Miltzow","type":"Kreisangehörige_Gemeinde"},"district":{"key":"13071","name":"Mecklenburgische Seenplatte","type":"Landkreis"},"federalState":{"key":"13","name":"Mecklenburg-Vorpommern"}},{"name":"Mittelweg","postalCode":"17349","locality":"Groß Miltzow","municipality":{"key":"13071054","name":"Groß Miltzow","type":"Kreisangehörige_Gemeinde"},"district":{"key":"13071","name":"Mecklenburgische Seenplatte","type":"Landkreis"},"federalState":{"key":"13","name":"Mecklenburg-Vorpommern"}},{"name":"Neetzkaer Weg","postalCode":"17349","locality":"Groß Miltzow","municipality":{"key":"13071054","name":"Groß Miltzow","type":"Kreisangehörige_Gemeinde"},"district":{"key":"13071","name":"Mecklenburgische Seenplatte","type":"Landkreis"},"federalState":{"key":"13","name":"Mecklenburg-Vorpommern"}},{"name":"Ringstr.","postalCode":"17349","locality":"Groß Miltzow","municipality":{"key":"13071054","name":"Groß Miltzow","type":"Kreisangehörige_Gemeinde"},"district":{"key":"13071","name":"Mecklenburgische Seenplatte","type":"Landkreis"},"federalState":{"key":"13","name":"Mecklenburg-Vorpommern"}},{"name":"Schulstr.","postalCode":"17349","locality":"Groß Miltzow","municipality":{"key":"13071054","name":"Groß Miltzow","type":"Kreisangehörige_Gemeinde"},"district":{"key":"13071","name":"Mecklenburgische Seenplatte","type":"Landkreis"},"federalState":{"key":"13","name":"Mecklenburg-Vorpommern"}},{"name":"Schwarzer Weg","postalCode":"17349","locality":"Groß Miltzow","municipality":{"key":"13071054","name":"Groß Miltzow","type":"Kreisangehörige_Gemeinde"},"district":{"key":"13071","name":"Mecklenburgische Seenplatte","type":"Landkreis"},"federalState":{"key":"13","name":"Mecklenburg-Vorpommern"}},{"name":"Ullrichshof","postalCode":"17349","locality":"Groß Miltzow","municipality":{"key":"13071054","name":"Groß Miltzow","type":"Kreisangehörige_Gemeinde"},"district":{"key":"13071","name":"Mecklenburgische Seenplatte","type":"Landkreis"},"federalState":{"key":"13","name":"Mecklenburg-Vorpommern"}},{"name":"Ulrichshof","postalCode":"17349","locality":"Groß Miltzow","municipality":{"key":"13071054","name":"Groß Miltzow","type":"Kreisangehörige_Gemeinde"},"district":{"key":"13071","name":"Mecklenburgische Seenplatte","type":"Landkreis"},"federalState":{"key":"13","name":"Mecklenburg-Vorpommern"}},{"name":"Woldegker Chaussee","postalCode":"17349","locality":"Groß Miltzow","municipality":{"key":"13071054","name":"Groß Miltzow","type":"Kreisangehörige_Gemeinde"},"district":{"key":"13071","name":"Mecklenburgische Seenplatte","type":"Landkreis"},"federalState":{"key":"13","name":"Mecklenburg-Vorpommern"}},]