[{"name":"Ahornweg","postalCode":"19386","locality":"Lübz","municipality":{"key":"13076089","name":"Lübz, Stadt","type":"Stadt"},"district":{"key":"13076","name":"Ludwigslust-Parchim","type":"Landkreis"},"federalState":{"key":"13","name":"Mecklenburg-Vorpommern"}},{"name":"Alter Eldearm","postalCode":"19386","locality":"Lübz","municipality":{"key":"13076089","name":"Lübz, Stadt","type":"Stadt"},"district":{"key":"13076","name":"Ludwigslust-Parchim","type":"Landkreis"},"federalState":{"key":"13","name":"Mecklenburg-Vorpommern"}},{"name":"Alte Schmiedestr.","postalCode":"19386","locality":"Lübz","municipality":{"key":"13076089","name":"Lübz, Stadt","type":"Stadt"},"district":{"key":"13076","name":"Ludwigslust-Parchim","type":"Landkreis"},"federalState":{"key":"13","name":"Mecklenburg-Vorpommern"}},{"name":"Alte Zuckerfabrik","postalCode":"19386","locality":"Lübz","municipality":{"key":"13076089","name":"Lübz, Stadt","type":"Stadt"},"district":{"key":"13076","name":"Ludwigslust-Parchim","type":"Landkreis"},"federalState":{"key":"13","name":"Mecklenburg-Vorpommern"}},{"name":"Am Dorfteich","postalCode":"19386","locality":"Lübz","municipality":{"key":"13076089","name":"Lübz, Stadt","type":"Stadt"},"district":{"key":"13076","name":"Ludwigslust-Parchim","type":"Landkreis"},"federalState":{"key":"13","name":"Mecklenburg-Vorpommern"}},{"name":"Am Fuchsberg","postalCode":"19386","locality":"Lübz","municipality":{"key":"13076089","name":"Lübz, Stadt","type":"Stadt"},"district":{"key":"13076","name":"Ludwigslust-Parchim","type":"Landkreis"},"federalState":{"key":"13","name":"Mecklenburg-Vorpommern"}},{"name":"Am Hafen","postalCode":"19386","locality":"Lübz","municipality":{"key":"13076089","name":"Lübz, Stadt","type":"Stadt"},"district":{"key":"13076","name":"Ludwigslust-Parchim","type":"Landkreis"},"federalState":{"key":"13","name":"Mecklenburg-Vorpommern"}},{"name":"Am Hohen Feld","postalCode":"19386","locality":"Lübz","municipality":{"key":"13076089","name":"Lübz, Stadt","type":"Stadt"},"district":{"key":"13076","name":"Ludwigslust-Parchim","type":"Landkreis"},"federalState":{"key":"13","name":"Mecklenburg-Vorpommern"}},{"name":"Am Kanal","postalCode":"19386","locality":"Lübz","municipality":{"key":"13076089","name":"Lübz, Stadt","type":"Stadt"},"district":{"key":"13076","name":"Ludwigslust-Parchim","type":"Landkreis"},"federalState":{"key":"13","name":"Mecklenburg-Vorpommern"}},{"name":"Am Kirchberg","postalCode":"19386","locality":"Lübz","municipality":{"key":"13076089","name":"Lübz, Stadt","type":"Stadt"},"district":{"key":"13076","name":"Ludwigslust-Parchim","type":"Landkreis"},"federalState":{"key":"13","name":"Mecklenburg-Vorpommern"}},{"name":"Am Markt","postalCode":"19386","locality":"Lübz","municipality":{"key":"13076089","name":"Lübz, Stadt","type":"Stadt"},"district":{"key":"13076","name":"Ludwigslust-Parchim","type":"Landkreis"},"federalState":{"key":"13","name":"Mecklenburg-Vorpommern"}},{"name":"Am Mühlenberg","postalCode":"19386","locality":"Lübz","municipality":{"key":"13076089","name":"Lübz, Stadt","type":"Stadt"},"district":{"key":"13076","name":"Ludwigslust-Parchim","type":"Landkreis"},"federalState":{"key":"13","name":"Mecklenburg-Vorpommern"}},{"name":"Am Mühlenberg 3","postalCode":"19386","locality":"Lübz","municipality":{"key":"13076089","name":"Lübz, Stadt","type":"Stadt"},"district":{"key":"13076","name":"Ludwigslust-Parchim","type":"Landkreis"},"federalState":{"key":"13","name":"Mecklenburg-Vorpommern"}},{"name":"Amselweg","postalCode":"19386","locality":"Lübz","municipality":{"key":"13076089","name":"Lübz, Stadt","type":"Stadt"},"district":{"key":"13076","name":"Ludwigslust-Parchim","type":"Landkreis"},"federalState":{"key":"13","name":"Mecklenburg-Vorpommern"}},{"name":"Am Wasserturm","postalCode":"19386","locality":"Lübz","municipality":{"key":"13076089","name":"Lübz, Stadt","type":"Stadt"},"district":{"key":"13076","name":"Ludwigslust-Parchim","type":"Landkreis"},"federalState":{"key":"13","name":"Mecklenburg-Vorpommern"}},{"name":"Am Wornsberg","postalCode":"19386","locality":"Lübz","municipality":{"key":"13076089","name":"Lübz, Stadt","type":"Stadt"},"district":{"key":"13076","name":"Ludwigslust-Parchim","type":"Landkreis"},"federalState":{"key":"13","name":"Mecklenburg-Vorpommern"}},{"name":"An der Brücke","postalCode":"19386","locality":"Lübz","municipality":{"key":"13076089","name":"Lübz, Stadt","type":"Stadt"},"district":{"key":"13076","name":"Ludwigslust-Parchim","type":"Landkreis"},"federalState":{"key":"13","name":"Mecklenburg-Vorpommern"}},{"name":"An der Elde","postalCode":"19386","locality":"Lübz","municipality":{"key":"13076089","name":"Lübz, Stadt","type":"Stadt"},"district":{"key":"13076","name":"Ludwigslust-Parchim","type":"Landkreis"},"federalState":{"key":"13","name":"Mecklenburg-Vorpommern"}},{"name":"Ausbau Neuer Teich","postalCode":"19386","locality":"Lübz","municipality":{"key":"13076089","name":"Lübz, Stadt","type":"Stadt"},"district":{"key":"13076","name":"Ludwigslust-Parchim","type":"Landkreis"},"federalState":{"key":"13","name":"Mecklenburg-Vorpommern"}},{"name":"Bahnhofstr.","postalCode":"19386","locality":"Lübz","municipality":{"key":"13076089","name":"Lübz, Stadt","type":"Stadt"},"district":{"key":"13076","name":"Ludwigslust-Parchim","type":"Landkreis"},"federalState":{"key":"13","name":"Mecklenburg-Vorpommern"}},{"name":"Beckendorfer Weg","postalCode":"19386","locality":"Lübz","municipality":{"key":"13076089","name":"Lübz, Stadt","type":"Stadt"},"district":{"key":"13076","name":"Ludwigslust-Parchim","type":"Landkreis"},"federalState":{"key":"13","name":"Mecklenburg-Vorpommern"}},{"name":"Benziner Chaussee","postalCode":"19386","locality":"Lübz","municipality":{"key":"13076089","name":"Lübz, Stadt","type":"Stadt"},"district":{"key":"13076","name":"Ludwigslust-Parchim","type":"Landkreis"},"federalState":{"key":"13","name":"Mecklenburg-Vorpommern"}},{"name":"Bergstr.","postalCode":"19386","locality":"Lübz","municipality":{"key":"13076089","name":"Lübz, Stadt","type":"Stadt"},"district":{"key":"13076","name":"Ludwigslust-Parchim","type":"Landkreis"},"federalState":{"key":"13","name":"Mecklenburg-Vorpommern"}},{"name":"Birkenweg","postalCode":"19386","locality":"Lübz","municipality":{"key":"13076089","name":"Lübz, Stadt","type":"Stadt"},"district":{"key":"13076","name":"Ludwigslust-Parchim","type":"Landkreis"},"federalState":{"key":"13","name":"Mecklenburg-Vorpommern"}},{"name":"Blücherstr.","postalCode":"19386","locality":"Lübz","municipality":{"key":"13076089","name":"Lübz, Stadt","type":"Stadt"},"district":{"key":"13076","name":"Ludwigslust-Parchim","type":"Landkreis"},"federalState":{"key":"13","name":"Mecklenburg-Vorpommern"}},{"name":"Bobziner Weg","postalCode":"19386","locality":"Lübz","municipality":{"key":"13076089","name":"Lübz, Stadt","type":"Stadt"},"district":{"key":"13076","name":"Ludwigslust-Parchim","type":"Landkreis"},"federalState":{"key":"13","name":"Mecklenburg-Vorpommern"}},{"name":"Broocker Weg","postalCode":"19386","locality":"Lübz","municipality":{"key":"13076089","name":"Lübz, Stadt","type":"Stadt"},"district":{"key":"13076","name":"Ludwigslust-Parchim","type":"Landkreis"},"federalState":{"key":"13","name":"Mecklenburg-Vorpommern"}},{"name":"Broocker Wohrte","postalCode":"19386","locality":"Lübz","municipality":{"key":"13076089","name":"Lübz, Stadt","type":"Stadt"},"district":{"key":"13076","name":"Ludwigslust-Parchim","type":"Landkreis"},"federalState":{"key":"13","name":"Mecklenburg-Vorpommern"}},{"name":"Burower Dorfstr.","postalCode":"19386","locality":"Lübz","municipality":{"key":"13076089","name":"Lübz, Stadt","type":"Stadt"},"district":{"key":"13076","name":"Ludwigslust-Parchim","type":"Landkreis"},"federalState":{"key":"13","name":"Mecklenburg-Vorpommern"}},{"name":"Burower Weg","postalCode":"19386","locality":"Lübz","municipality":{"key":"13076089","name":"Lübz, Stadt","type":"Stadt"},"district":{"key":"13076","name":"Ludwigslust-Parchim","type":"Landkreis"},"federalState":{"key":"13","name":"Mecklenburg-Vorpommern"}},{"name":"Dorfstr.","postalCode":"19386","locality":"Lübz","municipality":{"key":"13076089","name":"Lübz, Stadt","type":"Stadt"},"district":{"key":"13076","name":"Ludwigslust-Parchim","type":"Landkreis"},"federalState":{"key":"13","name":"Mecklenburg-Vorpommern"}},{"name":"Eldestr.","postalCode":"19386","locality":"Lübz","municipality":{"key":"13076089","name":"Lübz, Stadt","type":"Stadt"},"district":{"key":"13076","name":"Ludwigslust-Parchim","type":"Landkreis"},"federalState":{"key":"13","name":"Mecklenburg-Vorpommern"}},{"name":"Feldstr.","postalCode":"19386","locality":"Lübz","municipality":{"key":"13076089","name":"Lübz, Stadt","type":"Stadt"},"district":{"key":"13076","name":"Ludwigslust-Parchim","type":"Landkreis"},"federalState":{"key":"13","name":"Mecklenburg-Vorpommern"}},{"name":"Ferdinand-von-Schill-Str.","postalCode":"19386","locality":"Lübz","municipality":{"key":"13076089","name":"Lübz, Stadt","type":"Stadt"},"district":{"key":"13076","name":"Ludwigslust-Parchim","type":"Landkreis"},"federalState":{"key":"13","name":"Mecklenburg-Vorpommern"}},{"name":"Finkenweg","postalCode":"19386","locality":"Lübz","municipality":{"key":"13076089","name":"Lübz, Stadt","type":"Stadt"},"district":{"key":"13076","name":"Ludwigslust-Parchim","type":"Landkreis"},"federalState":{"key":"13","name":"Mecklenburg-Vorpommern"}},{"name":"Fritz-Junge-Str.","postalCode":"19386","locality":"Lübz","municipality":{"key":"13076089","name":"Lübz, Stadt","type":"Stadt"},"district":{"key":"13076","name":"Ludwigslust-Parchim","type":"Landkreis"},"federalState":{"key":"13","name":"Mecklenburg-Vorpommern"}},{"name":"Fritz-Reuter-Str.","postalCode":"19386","locality":"Lübz","municipality":{"key":"13076089","name":"Lübz, Stadt","type":"Stadt"},"district":{"key":"13076","name":"Ludwigslust-Parchim","type":"Landkreis"},"federalState":{"key":"13","name":"Mecklenburg-Vorpommern"}},{"name":"Gartenstr.","postalCode":"19386","locality":"Lübz","municipality":{"key":"13076089","name":"Lübz, Stadt","type":"Stadt"},"district":{"key":"13076","name":"Ludwigslust-Parchim","type":"Landkreis"},"federalState":{"key":"13","name":"Mecklenburg-Vorpommern"}},{"name":"Gewerbering","postalCode":"19386","locality":"Lübz","municipality":{"key":"13076089","name":"Lübz, Stadt","type":"Stadt"},"district":{"key":"13076","name":"Ludwigslust-Parchim","type":"Landkreis"},"federalState":{"key":"13","name":"Mecklenburg-Vorpommern"}},{"name":"Gildegartenweg","postalCode":"19386","locality":"Lübz","municipality":{"key":"13076089","name":"Lübz, Stadt","type":"Stadt"},"district":{"key":"13076","name":"Ludwigslust-Parchim","type":"Landkreis"},"federalState":{"key":"13","name":"Mecklenburg-Vorpommern"}},{"name":"Gischower Hauptstr.","postalCode":"19386","locality":"Lübz","municipality":{"key":"13076089","name":"Lübz, Stadt","type":"Stadt"},"district":{"key":"13076","name":"Ludwigslust-Parchim","type":"Landkreis"},"federalState":{"key":"13","name":"Mecklenburg-Vorpommern"}},{"name":"Gischower Str.","postalCode":"19386","locality":"Lübz","municipality":{"key":"13076089","name":"Lübz, Stadt","type":"Stadt"},"district":{"key":"13076","name":"Ludwigslust-Parchim","type":"Landkreis"},"federalState":{"key":"13","name":"Mecklenburg-Vorpommern"}},{"name":"Goethestr.","postalCode":"19386","locality":"Lübz","municipality":{"key":"13076089","name":"Lübz, Stadt","type":"Stadt"},"district":{"key":"13076","name":"Ludwigslust-Parchim","type":"Landkreis"},"federalState":{"key":"13","name":"Mecklenburg-Vorpommern"}},{"name":"Goldberger Str.","postalCode":"19386","locality":"Lübz","municipality":{"key":"13076089","name":"Lübz, Stadt","type":"Stadt"},"district":{"key":"13076","name":"Ludwigslust-Parchim","type":"Landkreis"},"federalState":{"key":"13","name":"Mecklenburg-Vorpommern"}},{"name":"Grevener Chaussee","postalCode":"19386","locality":"Lübz","municipality":{"key":"13076089","name":"Lübz, Stadt","type":"Stadt"},"district":{"key":"13076","name":"Ludwigslust-Parchim","type":"Landkreis"},"federalState":{"key":"13","name":"Mecklenburg-Vorpommern"}},{"name":"Grevener Str.","postalCode":"19386","locality":"Lübz","municipality":{"key":"13076089","name":"Lübz, Stadt","type":"Stadt"},"district":{"key":"13076","name":"Ludwigslust-Parchim","type":"Landkreis"},"federalState":{"key":"13","name":"Mecklenburg-Vorpommern"}},{"name":"Große Friedhofstr.","postalCode":"19386","locality":"Lübz","municipality":{"key":"13076089","name":"Lübz, Stadt","type":"Stadt"},"district":{"key":"13076","name":"Ludwigslust-Parchim","type":"Landkreis"},"federalState":{"key":"13","name":"Mecklenburg-Vorpommern"}},{"name":"Halstenbeker Str.","postalCode":"19386","locality":"Lübz","municipality":{"key":"13076089","name":"Lübz, Stadt","type":"Stadt"},"district":{"key":"13076","name":"Ludwigslust-Parchim","type":"Landkreis"},"federalState":{"key":"13","name":"Mecklenburg-Vorpommern"}},{"name":"Hartkirchener Str.","postalCode":"19386","locality":"Lübz","municipality":{"key":"13076089","name":"Lübz, Stadt","type":"Stadt"},"district":{"key":"13076","name":"Ludwigslust-Parchim","type":"Landkreis"},"federalState":{"key":"13","name":"Mecklenburg-Vorpommern"}},{"name":"Hauptstr.","postalCode":"19386","locality":"Lübz","municipality":{"key":"13076089","name":"Lübz, Stadt","type":"Stadt"},"district":{"key":"13076","name":"Ludwigslust-Parchim","type":"Landkreis"},"federalState":{"key":"13","name":"Mecklenburg-Vorpommern"}},{"name":"Hinter der Wohrte","postalCode":"19386","locality":"Lübz","municipality":{"key":"13076089","name":"Lübz, Stadt","type":"Stadt"},"district":{"key":"13076","name":"Ludwigslust-Parchim","type":"Landkreis"},"federalState":{"key":"13","name":"Mecklenburg-Vorpommern"}},{"name":"Hirtenstr.","postalCode":"19386","locality":"Lübz","municipality":{"key":"13076089","name":"Lübz, Stadt","type":"Stadt"},"district":{"key":"13076","name":"Ludwigslust-Parchim","type":"Landkreis"},"federalState":{"key":"13","name":"Mecklenburg-Vorpommern"}},{"name":"Hörnstr.","postalCode":"19386","locality":"Lübz","municipality":{"key":"13076089","name":"Lübz, Stadt","type":"Stadt"},"district":{"key":"13076","name":"Ludwigslust-Parchim","type":"Landkreis"},"federalState":{"key":"13","name":"Mecklenburg-Vorpommern"}},{"name":"Im Tiefen Tal","postalCode":"19386","locality":"Lübz","municipality":{"key":"13076089","name":"Lübz, Stadt","type":"Stadt"},"district":{"key":"13076","name":"Ludwigslust-Parchim","type":"Landkreis"},"federalState":{"key":"13","name":"Mecklenburg-Vorpommern"}},{"name":"Industriestr.","postalCode":"19386","locality":"Lübz","municipality":{"key":"13076089","name":"Lübz, Stadt","type":"Stadt"},"district":{"key":"13076","name":"Ludwigslust-Parchim","type":"Landkreis"},"federalState":{"key":"13","name":"Mecklenburg-Vorpommern"}},{"name":"Kegelstr.","postalCode":"19386","locality":"Lübz","municipality":{"key":"13076089","name":"Lübz, Stadt","type":"Stadt"},"district":{"key":"13076","name":"Ludwigslust-Parchim","type":"Landkreis"},"federalState":{"key":"13","name":"Mecklenburg-Vorpommern"}},{"name":"Kiebitzweg","postalCode":"19386","locality":"Lübz","municipality":{"key":"13076089","name":"Lübz, Stadt","type":"Stadt"},"district":{"key":"13076","name":"Ludwigslust-Parchim","type":"Landkreis"},"federalState":{"key":"13","name":"Mecklenburg-Vorpommern"}},{"name":"Kirchenstr.","postalCode":"19386","locality":"Lübz","municipality":{"key":"13076089","name":"Lübz, Stadt","type":"Stadt"},"district":{"key":"13076","name":"Ludwigslust-Parchim","type":"Landkreis"},"federalState":{"key":"13","name":"Mecklenburg-Vorpommern"}},{"name":"Kleine Bergstr.","postalCode":"19386","locality":"Lübz","municipality":{"key":"13076089","name":"Lübz, Stadt","type":"Stadt"},"district":{"key":"13076","name":"Ludwigslust-Parchim","type":"Landkreis"},"federalState":{"key":"13","name":"Mecklenburg-Vorpommern"}},{"name":"Klein Niendorfer Str.","postalCode":"19386","locality":"Lübz","municipality":{"key":"13076089","name":"Lübz, Stadt","type":"Stadt"},"district":{"key":"13076","name":"Ludwigslust-Parchim","type":"Landkreis"},"federalState":{"key":"13","name":"Mecklenburg-Vorpommern"}},{"name":"Kreiener Chaussee","postalCode":"19386","locality":"Lübz","municipality":{"key":"13076089","name":"Lübz, Stadt","type":"Stadt"},"district":{"key":"13076","name":"Ludwigslust-Parchim","type":"Landkreis"},"federalState":{"key":"13","name":"Mecklenburg-Vorpommern"}},{"name":"Kreiener Str.","postalCode":"19386","locality":"Lübz","municipality":{"key":"13076089","name":"Lübz, Stadt","type":"Stadt"},"district":{"key":"13076","name":"Ludwigslust-Parchim","type":"Landkreis"},"federalState":{"key":"13","name":"Mecklenburg-Vorpommern"}},{"name":"Kritzower Str.","postalCode":"19386","locality":"Lübz","municipality":{"key":"13076089","name":"Lübz, Stadt","type":"Stadt"},"district":{"key":"13076","name":"Ludwigslust-Parchim","type":"Landkreis"},"federalState":{"key":"13","name":"Mecklenburg-Vorpommern"}},{"name":"Kurze Talstr.","postalCode":"19386","locality":"Lübz","municipality":{"key":"13076089","name":"Lübz, Stadt","type":"Stadt"},"district":{"key":"13076","name":"Ludwigslust-Parchim","type":"Landkreis"},"federalState":{"key":"13","name":"Mecklenburg-Vorpommern"}},{"name":"Lindenstr.","postalCode":"19386","locality":"Lübz","municipality":{"key":"13076089","name":"Lübz, Stadt","type":"Stadt"},"district":{"key":"13076","name":"Ludwigslust-Parchim","type":"Landkreis"},"federalState":{"key":"13","name":"Mecklenburg-Vorpommern"}},{"name":"Lindenweg","postalCode":"19386","locality":"Lübz","municipality":{"key":"13076089","name":"Lübz, Stadt","type":"Stadt"},"district":{"key":"13076","name":"Ludwigslust-Parchim","type":"Landkreis"},"federalState":{"key":"13","name":"Mecklenburg-Vorpommern"}},{"name":"Linzölner Weg","postalCode":"19386","locality":"Lübz","municipality":{"key":"13076089","name":"Lübz, Stadt","type":"Stadt"},"district":{"key":"13076","name":"Ludwigslust-Parchim","type":"Landkreis"},"federalState":{"key":"13","name":"Mecklenburg-Vorpommern"}},{"name":"Lübzer Chaussee","postalCode":"19386","locality":"Lübz","municipality":{"key":"13076089","name":"Lübz, Stadt","type":"Stadt"},"district":{"key":"13076","name":"Ludwigslust-Parchim","type":"Landkreis"},"federalState":{"key":"13","name":"Mecklenburg-Vorpommern"}},{"name":"Marienstr.","postalCode":"19386","locality":"Lübz","municipality":{"key":"13076089","name":"Lübz, Stadt","type":"Stadt"},"district":{"key":"13076","name":"Ludwigslust-Parchim","type":"Landkreis"},"federalState":{"key":"13","name":"Mecklenburg-Vorpommern"}},{"name":"Meierberg","postalCode":"19386","locality":"Lübz","municipality":{"key":"13076089","name":"Lübz, Stadt","type":"Stadt"},"district":{"key":"13076","name":"Ludwigslust-Parchim","type":"Landkreis"},"federalState":{"key":"13","name":"Mecklenburg-Vorpommern"}},{"name":"Meisenweg","postalCode":"19386","locality":"Lübz","municipality":{"key":"13076089","name":"Lübz, Stadt","type":"Stadt"},"district":{"key":"13076","name":"Ludwigslust-Parchim","type":"Landkreis"},"federalState":{"key":"13","name":"Mecklenburg-Vorpommern"}},{"name":"Meyer-Behr-Str.","postalCode":"19386","locality":"Lübz","municipality":{"key":"13076089","name":"Lübz, Stadt","type":"Stadt"},"district":{"key":"13076","name":"Ludwigslust-Parchim","type":"Landkreis"},"federalState":{"key":"13","name":"Mecklenburg-Vorpommern"}},{"name":"Molkereistr.","postalCode":"19386","locality":"Lübz","municipality":{"key":"13076089","name":"Lübz, Stadt","type":"Stadt"},"district":{"key":"13076","name":"Ludwigslust-Parchim","type":"Landkreis"},"federalState":{"key":"13","name":"Mecklenburg-Vorpommern"}},{"name":"Mühlenstr.","postalCode":"19386","locality":"Lübz","municipality":{"key":"13076089","name":"Lübz, Stadt","type":"Stadt"},"district":{"key":"13076","name":"Ludwigslust-Parchim","type":"Landkreis"},"federalState":{"key":"13","name":"Mecklenburg-Vorpommern"}},{"name":"Neuer Teich","postalCode":"19386","locality":"Lübz","municipality":{"key":"13076089","name":"Lübz, Stadt","type":"Stadt"},"district":{"key":"13076","name":"Ludwigslust-Parchim","type":"Landkreis"},"federalState":{"key":"13","name":"Mecklenburg-Vorpommern"}},{"name":"Neuer Weg","postalCode":"19386","locality":"Lübz","municipality":{"key":"13076089","name":"Lübz, Stadt","type":"Stadt"},"district":{"key":"13076","name":"Ludwigslust-Parchim","type":"Landkreis"},"federalState":{"key":"13","name":"Mecklenburg-Vorpommern"}},{"name":"Obstbau","postalCode":"19386","locality":"Lübz","municipality":{"key":"13076089","name":"Lübz, Stadt","type":"Stadt"},"district":{"key":"13076","name":"Ludwigslust-Parchim","type":"Landkreis"},"federalState":{"key":"13","name":"Mecklenburg-Vorpommern"}},{"name":"Pappelweg","postalCode":"19386","locality":"Lübz","municipality":{"key":"13076089","name":"Lübz, Stadt","type":"Stadt"},"district":{"key":"13076","name":"Ludwigslust-Parchim","type":"Landkreis"},"federalState":{"key":"13","name":"Mecklenburg-Vorpommern"}},{"name":"Parchimer Chaussee","postalCode":"19386","locality":"Lübz","municipality":{"key":"13076089","name":"Lübz, Stadt","type":"Stadt"},"district":{"key":"13076","name":"Ludwigslust-Parchim","type":"Landkreis"},"federalState":{"key":"13","name":"Mecklenburg-Vorpommern"}},{"name":"Parchimer Str.","postalCode":"19386","locality":"Lübz","municipality":{"key":"13076089","name":"Lübz, Stadt","type":"Stadt"},"district":{"key":"13076","name":"Ludwigslust-Parchim","type":"Landkreis"},"federalState":{"key":"13","name":"Mecklenburg-Vorpommern"}},{"name":"Pfarrstr.","postalCode":"19386","locality":"Lübz","municipality":{"key":"13076089","name":"Lübz, Stadt","type":"Stadt"},"district":{"key":"13076","name":"Ludwigslust-Parchim","type":"Landkreis"},"federalState":{"key":"13","name":"Mecklenburg-Vorpommern"}},{"name":"Plauer Chaussee","postalCode":"19386","locality":"Lübz","municipality":{"key":"13076089","name":"Lübz, Stadt","type":"Stadt"},"district":{"key":"13076","name":"Ludwigslust-Parchim","type":"Landkreis"},"federalState":{"key":"13","name":"Mecklenburg-Vorpommern"}},{"name":"Plauer Str.","postalCode":"19386","locality":"Lübz","municipality":{"key":"13076089","name":"Lübz, Stadt","type":"Stadt"},"district":{"key":"13076","name":"Ludwigslust-Parchim","type":"Landkreis"},"federalState":{"key":"13","name":"Mecklenburg-Vorpommern"}},{"name":"Riederfelde","postalCode":"19386","locality":"Lübz","municipality":{"key":"13076089","name":"Lübz, Stadt","type":"Stadt"},"district":{"key":"13076","name":"Ludwigslust-Parchim","type":"Landkreis"},"federalState":{"key":"13","name":"Mecklenburg-Vorpommern"}},{"name":"Rosenstr.","postalCode":"19386","locality":"Lübz","municipality":{"key":"13076089","name":"Lübz, Stadt","type":"Stadt"},"district":{"key":"13076","name":"Ludwigslust-Parchim","type":"Landkreis"},"federalState":{"key":"13","name":"Mecklenburg-Vorpommern"}},{"name":"Roter Strumpf","postalCode":"19386","locality":"Lübz","municipality":{"key":"13076089","name":"Lübz, Stadt","type":"Stadt"},"district":{"key":"13076","name":"Ludwigslust-Parchim","type":"Landkreis"},"federalState":{"key":"13","name":"Mecklenburg-Vorpommern"}},{"name":"Sägemühlenbrücke","postalCode":"19386","locality":"Lübz","municipality":{"key":"13076089","name":"Lübz, Stadt","type":"Stadt"},"district":{"key":"13076","name":"Ludwigslust-Parchim","type":"Landkreis"},"federalState":{"key":"13","name":"Mecklenburg-Vorpommern"}},{"name":"Scharnhorststr.","postalCode":"19386","locality":"Lübz","municipality":{"key":"13076089","name":"Lübz, Stadt","type":"Stadt"},"district":{"key":"13076","name":"Ludwigslust-Parchim","type":"Landkreis"},"federalState":{"key":"13","name":"Mecklenburg-Vorpommern"}},{"name":"Schmiedestr.","postalCode":"19386","locality":"Lübz","municipality":{"key":"13076089","name":"Lübz, Stadt","type":"Stadt"},"district":{"key":"13076","name":"Ludwigslust-Parchim","type":"Landkreis"},"federalState":{"key":"13","name":"Mecklenburg-Vorpommern"}},{"name":"Schulstr.","postalCode":"19386","locality":"Lübz","municipality":{"key":"13076089","name":"Lübz, Stadt","type":"Stadt"},"district":{"key":"13076","name":"Ludwigslust-Parchim","type":"Landkreis"},"federalState":{"key":"13","name":"Mecklenburg-Vorpommern"}},{"name":"Schützenplatz","postalCode":"19386","locality":"Lübz","municipality":{"key":"13076089","name":"Lübz, Stadt","type":"Stadt"},"district":{"key":"13076","name":"Ludwigslust-Parchim","type":"Landkreis"},"federalState":{"key":"13","name":"Mecklenburg-Vorpommern"}},{"name":"Schützenstr.","postalCode":"19386","locality":"Lübz","municipality":{"key":"13076089","name":"Lübz, Stadt","type":"Stadt"},"district":{"key":"13076","name":"Ludwigslust-Parchim","type":"Landkreis"},"federalState":{"key":"13","name":"Mecklenburg-Vorpommern"}},{"name":"Seeweg","postalCode":"19386","locality":"Lübz","municipality":{"key":"13076089","name":"Lübz, Stadt","type":"Stadt"},"district":{"key":"13076","name":"Ludwigslust-Parchim","type":"Landkreis"},"federalState":{"key":"13","name":"Mecklenburg-Vorpommern"}},{"name":"Siggelkower Str.","postalCode":"19386","locality":"Lübz","municipality":{"key":"13076089","name":"Lübz, Stadt","type":"Stadt"},"district":{"key":"13076","name":"Ludwigslust-Parchim","type":"Landkreis"},"federalState":{"key":"13","name":"Mecklenburg-Vorpommern"}},{"name":"Stadtrandsiedlung","postalCode":"19386","locality":"Lübz","municipality":{"key":"13076089","name":"Lübz, Stadt","type":"Stadt"},"district":{"key":"13076","name":"Ludwigslust-Parchim","type":"Landkreis"},"federalState":{"key":"13","name":"Mecklenburg-Vorpommern"}},{"name":"Stiftstr.","postalCode":"19386","locality":"Lübz","municipality":{"key":"13076089","name":"Lübz, Stadt","type":"Stadt"},"district":{"key":"13076","name":"Ludwigslust-Parchim","type":"Landkreis"},"federalState":{"key":"13","name":"Mecklenburg-Vorpommern"}},{"name":"Stiftsweg","postalCode":"19386","locality":"Lübz","municipality":{"key":"13076089","name":"Lübz, Stadt","type":"Stadt"},"district":{"key":"13076","name":"Ludwigslust-Parchim","type":"Landkreis"},"federalState":{"key":"13","name":"Mecklenburg-Vorpommern"}},{"name":"Theodor-Körner-Str.","postalCode":"19386","locality":"Lübz","municipality":{"key":"13076089","name":"Lübz, Stadt","type":"Stadt"},"district":{"key":"13076","name":"Ludwigslust-Parchim","type":"Landkreis"},"federalState":{"key":"13","name":"Mecklenburg-Vorpommern"}},{"name":"Thomas-Mann-Str.","postalCode":"19386","locality":"Lübz","municipality":{"key":"13076089","name":"Lübz, Stadt","type":"Stadt"},"district":{"key":"13076","name":"Ludwigslust-Parchim","type":"Landkreis"},"federalState":{"key":"13","name":"Mecklenburg-Vorpommern"}},{"name":"Thomas-Müntzer-Str.","postalCode":"19386","locality":"Lübz","municipality":{"key":"13076089","name":"Lübz, Stadt","type":"Stadt"},"district":{"key":"13076","name":"Ludwigslust-Parchim","type":"Landkreis"},"federalState":{"key":"13","name":"Mecklenburg-Vorpommern"}},{"name":"Verbindungsweg","postalCode":"19386","locality":"Lübz","municipality":{"key":"13076089","name":"Lübz, Stadt","type":"Stadt"},"district":{"key":"13076","name":"Ludwigslust-Parchim","type":"Landkreis"},"federalState":{"key":"13","name":"Mecklenburg-Vorpommern"}},{"name":"Werderstr.","postalCode":"19386","locality":"Lübz","municipality":{"key":"13076089","name":"Lübz, Stadt","type":"Stadt"},"district":{"key":"13076","name":"Ludwigslust-Parchim","type":"Landkreis"},"federalState":{"key":"13","name":"Mecklenburg-Vorpommern"}},{"name":"Wessentin Ausbau","postalCode":"19386","locality":"Lübz","municipality":{"key":"13076089","name":"Lübz, Stadt","type":"Stadt"},"district":{"key":"13076","name":"Ludwigslust-Parchim","type":"Landkreis"},"federalState":{"key":"13","name":"Mecklenburg-Vorpommern"}},{"name":"Ziegenmarkt","postalCode":"19386","locality":"Lübz","municipality":{"key":"13076089","name":"Lübz, Stadt","type":"Stadt"},"district":{"key":"13076","name":"Ludwigslust-Parchim","type":"Landkreis"},"federalState":{"key":"13","name":"Mecklenburg-Vorpommern"}},{"name":"Zum Kanal","postalCode":"19386","locality":"Lübz","municipality":{"key":"13076089","name":"Lübz, Stadt","type":"Stadt"},"district":{"key":"13076","name":"Ludwigslust-Parchim","type":"Landkreis"},"federalState":{"key":"13","name":"Mecklenburg-Vorpommern"}},{"name":"Zum Kronsberg","postalCode":"19386","locality":"Lübz","municipality":{"key":"13076089","name":"Lübz, Stadt","type":"Stadt"},"district":{"key":"13076","name":"Ludwigslust-Parchim","type":"Landkreis"},"federalState":{"key":"13","name":"Mecklenburg-Vorpommern"}},{"name":"Zum Weinberg","postalCode":"19386","locality":"Lübz","municipality":{"key":"13076089","name":"Lübz, Stadt","type":"Stadt"},"district":{"key":"13076","name":"Ludwigslust-Parchim","type":"Landkreis"},"federalState":{"key":"13","name":"Mecklenburg-Vorpommern"}},]