[{"name":"Adlerstr.","postalCode":"33803","locality":"Steinhagen","municipality":{"key":"05754040","name":"Steinhagen","type":"Kreisangehörige_Gemeinde"},"district":{"key":"05754","name":"Gütersloh","type":"Kreis"},"federalState":{"key":"05","name":"Nordrhein-Westfalen"}},{"name":"Albertstr.","postalCode":"33803","locality":"Steinhagen","municipality":{"key":"05754040","name":"Steinhagen","type":"Kreisangehörige_Gemeinde"},"district":{"key":"05754","name":"Gütersloh","type":"Kreis"},"federalState":{"key":"05","name":"Nordrhein-Westfalen"}},{"name":"Alte Brennerei","postalCode":"33803","locality":"Steinhagen","municipality":{"key":"05754040","name":"Steinhagen","type":"Kreisangehörige_Gemeinde"},"district":{"key":"05754","name":"Gütersloh","type":"Kreis"},"federalState":{"key":"05","name":"Nordrhein-Westfalen"}},{"name":"Alte Dorfstr.","postalCode":"18246","locality":"Steinhagen","municipality":{"key":"13072101","name":"Steinhagen","type":"Kreisangehörige_Gemeinde"},"district":{"key":"13072","name":"Landkreis Rostock","type":"Landkreis"},"federalState":{"key":"13","name":"Mecklenburg-Vorpommern"}},{"name":"Alte Landstr.","postalCode":"33803","locality":"Steinhagen","municipality":{"key":"05754040","name":"Steinhagen","type":"Kreisangehörige_Gemeinde"},"district":{"key":"05754","name":"Gütersloh","type":"Kreis"},"federalState":{"key":"05","name":"Nordrhein-Westfalen"}},{"name":"Alte Landwehr","postalCode":"33803","locality":"Steinhagen","municipality":{"key":"05754040","name":"Steinhagen","type":"Kreisangehörige_Gemeinde"},"district":{"key":"05754","name":"Gütersloh","type":"Kreis"},"federalState":{"key":"05","name":"Nordrhein-Westfalen"}},{"name":"Alter Garten","postalCode":"33803","locality":"Steinhagen","municipality":{"key":"05754040","name":"Steinhagen","type":"Kreisangehörige_Gemeinde"},"district":{"key":"05754","name":"Gütersloh","type":"Kreis"},"federalState":{"key":"05","name":"Nordrhein-Westfalen"}},{"name":"Alter Sportplatz","postalCode":"33803","locality":"Steinhagen","municipality":{"key":"05754040","name":"Steinhagen","type":"Kreisangehörige_Gemeinde"},"district":{"key":"05754","name":"Gütersloh","type":"Kreis"},"federalState":{"key":"05","name":"Nordrhein-Westfalen"}},{"name":"Am Bruchsberg","postalCode":"18246","locality":"Steinhagen","municipality":{"key":"13072101","name":"Steinhagen","type":"Kreisangehörige_Gemeinde"},"district":{"key":"13072","name":"Landkreis Rostock","type":"Landkreis"},"federalState":{"key":"13","name":"Mecklenburg-Vorpommern"}},{"name":"Am Bußberg","postalCode":"33803","locality":"Steinhagen","municipality":{"key":"05754040","name":"Steinhagen","type":"Kreisangehörige_Gemeinde"},"district":{"key":"05754","name":"Gütersloh","type":"Kreis"},"federalState":{"key":"05","name":"Nordrhein-Westfalen"}},{"name":"Am Cronsbach","postalCode":"33803","locality":"Steinhagen","municipality":{"key":"05754040","name":"Steinhagen","type":"Kreisangehörige_Gemeinde"},"district":{"key":"05754","name":"Gütersloh","type":"Kreis"},"federalState":{"key":"05","name":"Nordrhein-Westfalen"}},{"name":"Am Dümmer","postalCode":"33803","locality":"Steinhagen","municipality":{"key":"05754040","name":"Steinhagen","type":"Kreisangehörige_Gemeinde"},"district":{"key":"05754","name":"Gütersloh","type":"Kreis"},"federalState":{"key":"05","name":"Nordrhein-Westfalen"}},{"name":"Am Feldweg","postalCode":"18246","locality":"Steinhagen","municipality":{"key":"13072101","name":"Steinhagen","type":"Kreisangehörige_Gemeinde"},"district":{"key":"13072","name":"Landkreis Rostock","type":"Landkreis"},"federalState":{"key":"13","name":"Mecklenburg-Vorpommern"}},{"name":"Am Hang","postalCode":"18246","locality":"Steinhagen","municipality":{"key":"13072101","name":"Steinhagen","type":"Kreisangehörige_Gemeinde"},"district":{"key":"13072","name":"Landkreis Rostock","type":"Landkreis"},"federalState":{"key":"13","name":"Mecklenburg-Vorpommern"}},{"name":"Am Herrensteig","postalCode":"18246","locality":"Steinhagen","municipality":{"key":"13072101","name":"Steinhagen","type":"Kreisangehörige_Gemeinde"},"district":{"key":"13072","name":"Landkreis Rostock","type":"Landkreis"},"federalState":{"key":"13","name":"Mecklenburg-Vorpommern"}},{"name":"Am Jakobsberg","postalCode":"33803","locality":"Steinhagen","municipality":{"key":"05754040","name":"Steinhagen","type":"Kreisangehörige_Gemeinde"},"district":{"key":"05754","name":"Gütersloh","type":"Kreis"},"federalState":{"key":"05","name":"Nordrhein-Westfalen"}},{"name":"Am Katerberg","postalCode":"18442","locality":"Steinhagen","municipality":{"key":"13073087","name":"Steinhagen","type":"Kreisangehörige_Gemeinde"},"district":{"key":"13073","name":"Vorpommern-Rügen","type":"Landkreis"},"federalState":{"key":"13","name":"Mecklenburg-Vorpommern"}},{"name":"Am Landbach","postalCode":"33803","locality":"Steinhagen","municipality":{"key":"05754040","name":"Steinhagen","type":"Kreisangehörige_Gemeinde"},"district":{"key":"05754","name":"Gütersloh","type":"Kreis"},"federalState":{"key":"05","name":"Nordrhein-Westfalen"}},{"name":"Am Markt","postalCode":"33803","locality":"Steinhagen","municipality":{"key":"05754040","name":"Steinhagen","type":"Kreisangehörige_Gemeinde"},"district":{"key":"05754","name":"Gütersloh","type":"Kreis"},"federalState":{"key":"05","name":"Nordrhein-Westfalen"}},{"name":"Am Pulverbach","postalCode":"33803","locality":"Steinhagen","municipality":{"key":"05754040","name":"Steinhagen","type":"Kreisangehörige_Gemeinde"},"district":{"key":"05754","name":"Gütersloh","type":"Kreis"},"federalState":{"key":"05","name":"Nordrhein-Westfalen"}},{"name":"Am Schusterteich","postalCode":"18442","locality":"Steinhagen","municipality":{"key":"13073087","name":"Steinhagen","type":"Kreisangehörige_Gemeinde"},"district":{"key":"13073","name":"Vorpommern-Rügen","type":"Landkreis"},"federalState":{"key":"13","name":"Mecklenburg-Vorpommern"}},{"name":"Amselstr.","postalCode":"33803","locality":"Steinhagen","municipality":{"key":"05754040","name":"Steinhagen","type":"Kreisangehörige_Gemeinde"},"district":{"key":"05754","name":"Gütersloh","type":"Kreis"},"federalState":{"key":"05","name":"Nordrhein-Westfalen"}},{"name":"Am Sennberg","postalCode":"33803","locality":"Steinhagen","municipality":{"key":"05754040","name":"Steinhagen","type":"Kreisangehörige_Gemeinde"},"district":{"key":"05754","name":"Gütersloh","type":"Kreis"},"federalState":{"key":"05","name":"Nordrhein-Westfalen"}},{"name":"Amshausener Str.","postalCode":"33803","locality":"Steinhagen","municipality":{"key":"05754040","name":"Steinhagen","type":"Kreisangehörige_Gemeinde"},"district":{"key":"05754","name":"Gütersloh","type":"Kreis"},"federalState":{"key":"05","name":"Nordrhein-Westfalen"}},{"name":"Am Sportplatz","postalCode":"33803","locality":"Steinhagen","municipality":{"key":"05754040","name":"Steinhagen","type":"Kreisangehörige_Gemeinde"},"district":{"key":"05754","name":"Gütersloh","type":"Kreis"},"federalState":{"key":"05","name":"Nordrhein-Westfalen"}},{"name":"An der Brake","postalCode":"33803","locality":"Steinhagen","municipality":{"key":"05754040","name":"Steinhagen","type":"Kreisangehörige_Gemeinde"},"district":{"key":"05754","name":"Gütersloh","type":"Kreis"},"federalState":{"key":"05","name":"Nordrhein-Westfalen"}},{"name":"An der Jüpke","postalCode":"33803","locality":"Steinhagen","municipality":{"key":"05754040","name":"Steinhagen","type":"Kreisangehörige_Gemeinde"},"district":{"key":"05754","name":"Gütersloh","type":"Kreis"},"federalState":{"key":"05","name":"Nordrhein-Westfalen"}},{"name":"Anemonenstr.","postalCode":"33803","locality":"Steinhagen","municipality":{"key":"05754040","name":"Steinhagen","type":"Kreisangehörige_Gemeinde"},"district":{"key":"05754","name":"Gütersloh","type":"Kreis"},"federalState":{"key":"05","name":"Nordrhein-Westfalen"}},{"name":"Annastr.","postalCode":"33803","locality":"Steinhagen","municipality":{"key":"05754040","name":"Steinhagen","type":"Kreisangehörige_Gemeinde"},"district":{"key":"05754","name":"Gütersloh","type":"Kreis"},"federalState":{"key":"05","name":"Nordrhein-Westfalen"}},{"name":"Anne-Frank-Hof","postalCode":"33803","locality":"Steinhagen","municipality":{"key":"05754040","name":"Steinhagen","type":"Kreisangehörige_Gemeinde"},"district":{"key":"05754","name":"Gütersloh","type":"Kreis"},"federalState":{"key":"05","name":"Nordrhein-Westfalen"}},{"name":"Apfelstr.","postalCode":"33803","locality":"Steinhagen","municipality":{"key":"05754040","name":"Steinhagen","type":"Kreisangehörige_Gemeinde"},"district":{"key":"05754","name":"Gütersloh","type":"Kreis"},"federalState":{"key":"05","name":"Nordrhein-Westfalen"}},{"name":"Aprikosenstr.","postalCode":"33803","locality":"Steinhagen","municipality":{"key":"05754040","name":"Steinhagen","type":"Kreisangehörige_Gemeinde"},"district":{"key":"05754","name":"Gütersloh","type":"Kreis"},"federalState":{"key":"05","name":"Nordrhein-Westfalen"}},{"name":"Arndtstr.","postalCode":"33803","locality":"Steinhagen","municipality":{"key":"05754040","name":"Steinhagen","type":"Kreisangehörige_Gemeinde"},"district":{"key":"05754","name":"Gütersloh","type":"Kreis"},"federalState":{"key":"05","name":"Nordrhein-Westfalen"}},{"name":"Ascheloher Weg","postalCode":"33803","locality":"Steinhagen","municipality":{"key":"05754040","name":"Steinhagen","type":"Kreisangehörige_Gemeinde"},"district":{"key":"05754","name":"Gütersloh","type":"Kreis"},"federalState":{"key":"05","name":"Nordrhein-Westfalen"}},{"name":"Asternstr.","postalCode":"33803","locality":"Steinhagen","municipality":{"key":"05754040","name":"Steinhagen","type":"Kreisangehörige_Gemeinde"},"district":{"key":"05754","name":"Gütersloh","type":"Kreis"},"federalState":{"key":"05","name":"Nordrhein-Westfalen"}},{"name":"Auf dem Kampe","postalCode":"33803","locality":"Steinhagen","municipality":{"key":"05754040","name":"Steinhagen","type":"Kreisangehörige_Gemeinde"},"district":{"key":"05754","name":"Gütersloh","type":"Kreis"},"federalState":{"key":"05","name":"Nordrhein-Westfalen"}},{"name":"Augustastr.","postalCode":"33803","locality":"Steinhagen","municipality":{"key":"05754040","name":"Steinhagen","type":"Kreisangehörige_Gemeinde"},"district":{"key":"05754","name":"Gütersloh","type":"Kreis"},"federalState":{"key":"05","name":"Nordrhein-Westfalen"}},{"name":"Ausbau","postalCode":"18246","locality":"Steinhagen","municipality":{"key":"13072101","name":"Steinhagen","type":"Kreisangehörige_Gemeinde"},"district":{"key":"13072","name":"Landkreis Rostock","type":"Landkreis"},"federalState":{"key":"13","name":"Mecklenburg-Vorpommern"}},{"name":"Austmannshof","postalCode":"33803","locality":"Steinhagen","municipality":{"key":"05754040","name":"Steinhagen","type":"Kreisangehörige_Gemeinde"},"district":{"key":"05754","name":"Gütersloh","type":"Kreis"},"federalState":{"key":"05","name":"Nordrhein-Westfalen"}},{"name":"Azaleenstr.","postalCode":"33803","locality":"Steinhagen","municipality":{"key":"05754040","name":"Steinhagen","type":"Kreisangehörige_Gemeinde"},"district":{"key":"05754","name":"Gütersloh","type":"Kreis"},"federalState":{"key":"05","name":"Nordrhein-Westfalen"}},{"name":"Backsheide","postalCode":"33803","locality":"Steinhagen","municipality":{"key":"05754040","name":"Steinhagen","type":"Kreisangehörige_Gemeinde"},"district":{"key":"05754","name":"Gütersloh","type":"Kreis"},"federalState":{"key":"05","name":"Nordrhein-Westfalen"}},{"name":"Bahndamm","postalCode":"33803","locality":"Steinhagen","municipality":{"key":"05754040","name":"Steinhagen","type":"Kreisangehörige_Gemeinde"},"district":{"key":"05754","name":"Gütersloh","type":"Kreis"},"federalState":{"key":"05","name":"Nordrhein-Westfalen"}},{"name":"Bahnhofstr.","postalCode":"33803","locality":"Steinhagen","municipality":{"key":"05754040","name":"Steinhagen","type":"Kreisangehörige_Gemeinde"},"district":{"key":"05754","name":"Gütersloh","type":"Kreis"},"federalState":{"key":"05","name":"Nordrhein-Westfalen"}},{"name":"Baumwiese","postalCode":"33803","locality":"Steinhagen","municipality":{"key":"05754040","name":"Steinhagen","type":"Kreisangehörige_Gemeinde"},"district":{"key":"05754","name":"Gütersloh","type":"Kreis"},"federalState":{"key":"05","name":"Nordrhein-Westfalen"}},{"name":"Beerenstr.","postalCode":"33803","locality":"Steinhagen","municipality":{"key":"05754040","name":"Steinhagen","type":"Kreisangehörige_Gemeinde"},"district":{"key":"05754","name":"Gütersloh","type":"Kreis"},"federalState":{"key":"05","name":"Nordrhein-Westfalen"}},{"name":"Beethovenstr.","postalCode":"33803","locality":"Steinhagen","municipality":{"key":"05754040","name":"Steinhagen","type":"Kreisangehörige_Gemeinde"},"district":{"key":"05754","name":"Gütersloh","type":"Kreis"},"federalState":{"key":"05","name":"Nordrhein-Westfalen"}},{"name":"Bergengruenstr.","postalCode":"33803","locality":"Steinhagen","municipality":{"key":"05754040","name":"Steinhagen","type":"Kreisangehörige_Gemeinde"},"district":{"key":"05754","name":"Gütersloh","type":"Kreis"},"federalState":{"key":"05","name":"Nordrhein-Westfalen"}},{"name":"Bergstr.","postalCode":"33803","locality":"Steinhagen","municipality":{"key":"05754040","name":"Steinhagen","type":"Kreisangehörige_Gemeinde"},"district":{"key":"05754","name":"Gütersloh","type":"Kreis"},"federalState":{"key":"05","name":"Nordrhein-Westfalen"}},{"name":"Bernhardstr.","postalCode":"33803","locality":"Steinhagen","municipality":{"key":"05754040","name":"Steinhagen","type":"Kreisangehörige_Gemeinde"},"district":{"key":"05754","name":"Gütersloh","type":"Kreis"},"federalState":{"key":"05","name":"Nordrhein-Westfalen"}},{"name":"Bertha-von-Suttner-Hof","postalCode":"33803","locality":"Steinhagen","municipality":{"key":"05754040","name":"Steinhagen","type":"Kreisangehörige_Gemeinde"},"district":{"key":"05754","name":"Gütersloh","type":"Kreis"},"federalState":{"key":"05","name":"Nordrhein-Westfalen"}},{"name":"Biberweg","postalCode":"33803","locality":"Steinhagen","municipality":{"key":"05754040","name":"Steinhagen","type":"Kreisangehörige_Gemeinde"},"district":{"key":"05754","name":"Gütersloh","type":"Kreis"},"federalState":{"key":"05","name":"Nordrhein-Westfalen"}},{"name":"Bielefelder Str.","postalCode":"33803","locality":"Steinhagen","municipality":{"key":"05754040","name":"Steinhagen","type":"Kreisangehörige_Gemeinde"},"district":{"key":"05754","name":"Gütersloh","type":"Kreis"},"federalState":{"key":"05","name":"Nordrhein-Westfalen"}},{"name":"Birkenweg","postalCode":"18442","locality":"Steinhagen","municipality":{"key":"13073087","name":"Steinhagen","type":"Kreisangehörige_Gemeinde"},"district":{"key":"13073","name":"Vorpommern-Rügen","type":"Landkreis"},"federalState":{"key":"13","name":"Mecklenburg-Vorpommern"}},{"name":"Birkenweg","postalCode":"33803","locality":"Steinhagen","municipality":{"key":"05754040","name":"Steinhagen","type":"Kreisangehörige_Gemeinde"},"district":{"key":"05754","name":"Gütersloh","type":"Kreis"},"federalState":{"key":"05","name":"Nordrhein-Westfalen"}},{"name":"Böckstiegelweg","postalCode":"33803","locality":"Steinhagen","municipality":{"key":"05754040","name":"Steinhagen","type":"Kreisangehörige_Gemeinde"},"district":{"key":"05754","name":"Gütersloh","type":"Kreis"},"federalState":{"key":"05","name":"Nordrhein-Westfalen"}},{"name":"Bodelschwinghstr.","postalCode":"33803","locality":"Steinhagen","municipality":{"key":"05754040","name":"Steinhagen","type":"Kreisangehörige_Gemeinde"},"district":{"key":"05754","name":"Gütersloh","type":"Kreis"},"federalState":{"key":"05","name":"Nordrhein-Westfalen"}},{"name":"Bonhoefferstr.","postalCode":"33803","locality":"Steinhagen","municipality":{"key":"05754040","name":"Steinhagen","type":"Kreisangehörige_Gemeinde"},"district":{"key":"05754","name":"Gütersloh","type":"Kreis"},"federalState":{"key":"05","name":"Nordrhein-Westfalen"}},{"name":"Borgwallring","postalCode":"18442","locality":"Steinhagen","municipality":{"key":"13073087","name":"Steinhagen","type":"Kreisangehörige_Gemeinde"},"district":{"key":"13073","name":"Vorpommern-Rügen","type":"Landkreis"},"federalState":{"key":"13","name":"Mecklenburg-Vorpommern"}},{"name":"Böttcherhof","postalCode":"33803","locality":"Steinhagen","municipality":{"key":"05754040","name":"Steinhagen","type":"Kreisangehörige_Gemeinde"},"district":{"key":"05754","name":"Gütersloh","type":"Kreis"},"federalState":{"key":"05","name":"Nordrhein-Westfalen"}},{"name":"Brahmsstr.","postalCode":"33803","locality":"Steinhagen","municipality":{"key":"05754040","name":"Steinhagen","type":"Kreisangehörige_Gemeinde"},"district":{"key":"05754","name":"Gütersloh","type":"Kreis"},"federalState":{"key":"05","name":"Nordrhein-Westfalen"}},{"name":"Brandenburger Str.","postalCode":"33803","locality":"Steinhagen","municipality":{"key":"05754040","name":"Steinhagen","type":"Kreisangehörige_Gemeinde"},"district":{"key":"05754","name":"Gütersloh","type":"Kreis"},"federalState":{"key":"05","name":"Nordrhein-Westfalen"}},{"name":"Brandströmstr.","postalCode":"33803","locality":"Steinhagen","municipality":{"key":"05754040","name":"Steinhagen","type":"Kreisangehörige_Gemeinde"},"district":{"key":"05754","name":"Gütersloh","type":"Kreis"},"federalState":{"key":"05","name":"Nordrhein-Westfalen"}},{"name":"Brennmeisterhof","postalCode":"33803","locality":"Steinhagen","municipality":{"key":"05754040","name":"Steinhagen","type":"Kreisangehörige_Gemeinde"},"district":{"key":"05754","name":"Gütersloh","type":"Kreis"},"federalState":{"key":"05","name":"Nordrhein-Westfalen"}},{"name":"Breslauer Str.","postalCode":"33803","locality":"Steinhagen","municipality":{"key":"05754040","name":"Steinhagen","type":"Kreisangehörige_Gemeinde"},"district":{"key":"05754","name":"Gütersloh","type":"Kreis"},"federalState":{"key":"05","name":"Nordrhein-Westfalen"}},{"name":"Brilskamp","postalCode":"33803","locality":"Steinhagen","municipality":{"key":"05754040","name":"Steinhagen","type":"Kreisangehörige_Gemeinde"},"district":{"key":"05754","name":"Gütersloh","type":"Kreis"},"federalState":{"key":"05","name":"Nordrhein-Westfalen"}},{"name":"Brinkstr.","postalCode":"33803","locality":"Steinhagen","municipality":{"key":"05754040","name":"Steinhagen","type":"Kreisangehörige_Gemeinde"},"district":{"key":"05754","name":"Gütersloh","type":"Kreis"},"federalState":{"key":"05","name":"Nordrhein-Westfalen"}},{"name":"Brockhagener Str.","postalCode":"33803","locality":"Steinhagen","municipality":{"key":"05754040","name":"Steinhagen","type":"Kreisangehörige_Gemeinde"},"district":{"key":"05754","name":"Gütersloh","type":"Kreis"},"federalState":{"key":"05","name":"Nordrhein-Westfalen"}},{"name":"Brok","postalCode":"33803","locality":"Steinhagen","municipality":{"key":"05754040","name":"Steinhagen","type":"Kreisangehörige_Gemeinde"},"district":{"key":"05754","name":"Gütersloh","type":"Kreis"},"federalState":{"key":"05","name":"Nordrhein-Westfalen"}},{"name":"Brombeerstr.","postalCode":"33803","locality":"Steinhagen","municipality":{"key":"05754040","name":"Steinhagen","type":"Kreisangehörige_Gemeinde"},"district":{"key":"05754","name":"Gütersloh","type":"Kreis"},"federalState":{"key":"05","name":"Nordrhein-Westfalen"}},{"name":"Bromberger Str.","postalCode":"33803","locality":"Steinhagen","municipality":{"key":"05754040","name":"Steinhagen","type":"Kreisangehörige_Gemeinde"},"district":{"key":"05754","name":"Gütersloh","type":"Kreis"},"federalState":{"key":"05","name":"Nordrhein-Westfalen"}},{"name":"Brückhof","postalCode":"33803","locality":"Steinhagen","municipality":{"key":"05754040","name":"Steinhagen","type":"Kreisangehörige_Gemeinde"},"district":{"key":"05754","name":"Gütersloh","type":"Kreis"},"federalState":{"key":"05","name":"Nordrhein-Westfalen"}},{"name":"Brucknerstr.","postalCode":"33803","locality":"Steinhagen","municipality":{"key":"05754040","name":"Steinhagen","type":"Kreisangehörige_Gemeinde"},"district":{"key":"05754","name":"Gütersloh","type":"Kreis"},"federalState":{"key":"05","name":"Nordrhein-Westfalen"}},{"name":"Buchenweg","postalCode":"18442","locality":"Steinhagen","municipality":{"key":"13073087","name":"Steinhagen","type":"Kreisangehörige_Gemeinde"},"district":{"key":"13073","name":"Vorpommern-Rügen","type":"Landkreis"},"federalState":{"key":"13","name":"Mecklenburg-Vorpommern"}},{"name":"Buchenweg","postalCode":"33803","locality":"Steinhagen","municipality":{"key":"05754040","name":"Steinhagen","type":"Kreisangehörige_Gemeinde"},"district":{"key":"05754","name":"Gütersloh","type":"Kreis"},"federalState":{"key":"05","name":"Nordrhein-Westfalen"}},{"name":"Buchfinkenstr.","postalCode":"33803","locality":"Steinhagen","municipality":{"key":"05754040","name":"Steinhagen","type":"Kreisangehörige_Gemeinde"},"district":{"key":"05754","name":"Gütersloh","type":"Kreis"},"federalState":{"key":"05","name":"Nordrhein-Westfalen"}},{"name":"Bunzlauer Str.","postalCode":"33803","locality":"Steinhagen","municipality":{"key":"05754040","name":"Steinhagen","type":"Kreisangehörige_Gemeinde"},"district":{"key":"05754","name":"Gütersloh","type":"Kreis"},"federalState":{"key":"05","name":"Nordrhein-Westfalen"}},{"name":"Bürgerpark","postalCode":"33803","locality":"Steinhagen","municipality":{"key":"05754040","name":"Steinhagen","type":"Kreisangehörige_Gemeinde"},"district":{"key":"05754","name":"Gütersloh","type":"Kreis"},"federalState":{"key":"05","name":"Nordrhein-Westfalen"}},{"name":"Buschstr.","postalCode":"33803","locality":"Steinhagen","municipality":{"key":"05754040","name":"Steinhagen","type":"Kreisangehörige_Gemeinde"},"district":{"key":"05754","name":"Gütersloh","type":"Kreis"},"federalState":{"key":"05","name":"Nordrhein-Westfalen"}},{"name":"Bussardstr.","postalCode":"33803","locality":"Steinhagen","municipality":{"key":"05754040","name":"Steinhagen","type":"Kreisangehörige_Gemeinde"},"district":{"key":"05754","name":"Gütersloh","type":"Kreis"},"federalState":{"key":"05","name":"Nordrhein-Westfalen"}},{"name":"Butterweg","postalCode":"33803","locality":"Steinhagen","municipality":{"key":"05754040","name":"Steinhagen","type":"Kreisangehörige_Gemeinde"},"district":{"key":"05754","name":"Gütersloh","type":"Kreis"},"federalState":{"key":"05","name":"Nordrhein-Westfalen"}},{"name":"Carl-Benz-Str.","postalCode":"33803","locality":"Steinhagen","municipality":{"key":"05754040","name":"Steinhagen","type":"Kreisangehörige_Gemeinde"},"district":{"key":"05754","name":"Gütersloh","type":"Kreis"},"federalState":{"key":"05","name":"Nordrhein-Westfalen"}},{"name":"Carl-Carstens-Weg","postalCode":"33803","locality":"Steinhagen","municipality":{"key":"05754040","name":"Steinhagen","type":"Kreisangehörige_Gemeinde"},"district":{"key":"05754","name":"Gütersloh","type":"Kreis"},"federalState":{"key":"05","name":"Nordrhein-Westfalen"}},{"name":"Carl-Goerdeler-Str.","postalCode":"33803","locality":"Steinhagen","municipality":{"key":"05754040","name":"Steinhagen","type":"Kreisangehörige_Gemeinde"},"district":{"key":"05754","name":"Gütersloh","type":"Kreis"},"federalState":{"key":"05","name":"Nordrhein-Westfalen"}},{"name":"Cecilienstr.","postalCode":"33803","locality":"Steinhagen","municipality":{"key":"05754040","name":"Steinhagen","type":"Kreisangehörige_Gemeinde"},"district":{"key":"05754","name":"Gütersloh","type":"Kreis"},"federalState":{"key":"05","name":"Nordrhein-Westfalen"}},{"name":"Chemnitzer Str.","postalCode":"33803","locality":"Steinhagen","municipality":{"key":"05754040","name":"Steinhagen","type":"Kreisangehörige_Gemeinde"},"district":{"key":"05754","name":"Gütersloh","type":"Kreis"},"federalState":{"key":"05","name":"Nordrhein-Westfalen"}},{"name":"Claudiusstr.","postalCode":"33803","locality":"Steinhagen","municipality":{"key":"05754040","name":"Steinhagen","type":"Kreisangehörige_Gemeinde"},"district":{"key":"05754","name":"Gütersloh","type":"Kreis"},"federalState":{"key":"05","name":"Nordrhein-Westfalen"}},{"name":"Cottbuser Str.","postalCode":"33803","locality":"Steinhagen","municipality":{"key":"05754040","name":"Steinhagen","type":"Kreisangehörige_Gemeinde"},"district":{"key":"05754","name":"Gütersloh","type":"Kreis"},"federalState":{"key":"05","name":"Nordrhein-Westfalen"}},{"name":"Dahlienstr.","postalCode":"33803","locality":"Steinhagen","municipality":{"key":"05754040","name":"Steinhagen","type":"Kreisangehörige_Gemeinde"},"district":{"key":"05754","name":"Gütersloh","type":"Kreis"},"federalState":{"key":"05","name":"Nordrhein-Westfalen"}},{"name":"Dänholmweg","postalCode":"18442","locality":"Steinhagen","municipality":{"key":"13073087","name":"Steinhagen","type":"Kreisangehörige_Gemeinde"},"district":{"key":"13073","name":"Vorpommern-Rügen","type":"Landkreis"},"federalState":{"key":"13","name":"Mecklenburg-Vorpommern"}},{"name":"Danziger Str.","postalCode":"33803","locality":"Steinhagen","municipality":{"key":"05754040","name":"Steinhagen","type":"Kreisangehörige_Gemeinde"},"district":{"key":"05754","name":"Gütersloh","type":"Kreis"},"federalState":{"key":"05","name":"Nordrhein-Westfalen"}},{"name":"Dattelstr.","postalCode":"33803","locality":"Steinhagen","municipality":{"key":"05754040","name":"Steinhagen","type":"Kreisangehörige_Gemeinde"},"district":{"key":"05754","name":"Gütersloh","type":"Kreis"},"federalState":{"key":"05","name":"Nordrhein-Westfalen"}},{"name":"Deterts Heide","postalCode":"33803","locality":"Steinhagen","municipality":{"key":"05754040","name":"Steinhagen","type":"Kreisangehörige_Gemeinde"},"district":{"key":"05754","name":"Gütersloh","type":"Kreis"},"federalState":{"key":"05","name":"Nordrhein-Westfalen"}},{"name":"Dorfstr.","postalCode":"18246","locality":"Steinhagen","municipality":{"key":"13072101","name":"Steinhagen","type":"Kreisangehörige_Gemeinde"},"district":{"key":"13072","name":"Landkreis Rostock","type":"Landkreis"},"federalState":{"key":"13","name":"Mecklenburg-Vorpommern"}},{"name":"Dorfstr.","postalCode":"18442","locality":"Steinhagen","municipality":{"key":"13073087","name":"Steinhagen","type":"Kreisangehörige_Gemeinde"},"district":{"key":"13073","name":"Vorpommern-Rügen","type":"Landkreis"},"federalState":{"key":"13","name":"Mecklenburg-Vorpommern"}},{"name":"Dorotheenstr.","postalCode":"33803","locality":"Steinhagen","municipality":{"key":"05754040","name":"Steinhagen","type":"Kreisangehörige_Gemeinde"},"district":{"key":"05754","name":"Gütersloh","type":"Kreis"},"federalState":{"key":"05","name":"Nordrhein-Westfalen"}},{"name":"Dresdener Str.","postalCode":"33803","locality":"Steinhagen","municipality":{"key":"05754040","name":"Steinhagen","type":"Kreisangehörige_Gemeinde"},"district":{"key":"05754","name":"Gütersloh","type":"Kreis"},"federalState":{"key":"05","name":"Nordrhein-Westfalen"}},{"name":"Drosselweg","postalCode":"33803","locality":"Steinhagen","municipality":{"key":"05754040","name":"Steinhagen","type":"Kreisangehörige_Gemeinde"},"district":{"key":"05754","name":"Gütersloh","type":"Kreis"},"federalState":{"key":"05","name":"Nordrhein-Westfalen"}},{"name":"Droste-Hülshoff-Str.","postalCode":"33803","locality":"Steinhagen","municipality":{"key":"05754040","name":"Steinhagen","type":"Kreisangehörige_Gemeinde"},"district":{"key":"05754","name":"Gütersloh","type":"Kreis"},"federalState":{"key":"05","name":"Nordrhein-Westfalen"}},{"name":"Dürerweg","postalCode":"33803","locality":"Steinhagen","municipality":{"key":"05754040","name":"Steinhagen","type":"Kreisangehörige_Gemeinde"},"district":{"key":"05754","name":"Gütersloh","type":"Kreis"},"federalState":{"key":"05","name":"Nordrhein-Westfalen"}},{"name":"Ebbesloher Str.","postalCode":"33803","locality":"Steinhagen","municipality":{"key":"05754040","name":"Steinhagen","type":"Kreisangehörige_Gemeinde"},"district":{"key":"05754","name":"Gütersloh","type":"Kreis"},"federalState":{"key":"05","name":"Nordrhein-Westfalen"}},{"name":"Egbertstr.","postalCode":"33803","locality":"Steinhagen","municipality":{"key":"05754040","name":"Steinhagen","type":"Kreisangehörige_Gemeinde"},"district":{"key":"05754","name":"Gütersloh","type":"Kreis"},"federalState":{"key":"05","name":"Nordrhein-Westfalen"}},{"name":"Eichendorffstr.","postalCode":"33803","locality":"Steinhagen","municipality":{"key":"05754040","name":"Steinhagen","type":"Kreisangehörige_Gemeinde"},"district":{"key":"05754","name":"Gütersloh","type":"Kreis"},"federalState":{"key":"05","name":"Nordrhein-Westfalen"}},{"name":"Eichenstr.","postalCode":"33803","locality":"Steinhagen","municipality":{"key":"05754040","name":"Steinhagen","type":"Kreisangehörige_Gemeinde"},"district":{"key":"05754","name":"Gütersloh","type":"Kreis"},"federalState":{"key":"05","name":"Nordrhein-Westfalen"}},{"name":"Eickhof","postalCode":"33803","locality":"Steinhagen","municipality":{"key":"05754040","name":"Steinhagen","type":"Kreisangehörige_Gemeinde"},"district":{"key":"05754","name":"Gütersloh","type":"Kreis"},"federalState":{"key":"05","name":"Nordrhein-Westfalen"}},{"name":"Elisabethstr.","postalCode":"33803","locality":"Steinhagen","municipality":{"key":"05754040","name":"Steinhagen","type":"Kreisangehörige_Gemeinde"},"district":{"key":"05754","name":"Gütersloh","type":"Kreis"},"federalState":{"key":"05","name":"Nordrhein-Westfalen"}},{"name":"Elsterstr.","postalCode":"33803","locality":"Steinhagen","municipality":{"key":"05754040","name":"Steinhagen","type":"Kreisangehörige_Gemeinde"},"district":{"key":"05754","name":"Gütersloh","type":"Kreis"},"federalState":{"key":"05","name":"Nordrhein-Westfalen"}},{"name":"Erfurter Str.","postalCode":"33803","locality":"Steinhagen","municipality":{"key":"05754040","name":"Steinhagen","type":"Kreisangehörige_Gemeinde"},"district":{"key":"05754","name":"Gütersloh","type":"Kreis"},"federalState":{"key":"05","name":"Nordrhein-Westfalen"}},{"name":"Erlenstr.","postalCode":"33803","locality":"Steinhagen","municipality":{"key":"05754040","name":"Steinhagen","type":"Kreisangehörige_Gemeinde"},"district":{"key":"05754","name":"Gütersloh","type":"Kreis"},"federalState":{"key":"05","name":"Nordrhein-Westfalen"}},{"name":"Esch","postalCode":"33803","locality":"Steinhagen","municipality":{"key":"05754040","name":"Steinhagen","type":"Kreisangehörige_Gemeinde"},"district":{"key":"05754","name":"Gütersloh","type":"Kreis"},"federalState":{"key":"05","name":"Nordrhein-Westfalen"}},{"name":"Falkenstr.","postalCode":"33803","locality":"Steinhagen","municipality":{"key":"05754040","name":"Steinhagen","type":"Kreisangehörige_Gemeinde"},"district":{"key":"05754","name":"Gütersloh","type":"Kreis"},"federalState":{"key":"05","name":"Nordrhein-Westfalen"}},{"name":"Fanny-Hensel-Hof","postalCode":"33803","locality":"Steinhagen","municipality":{"key":"05754040","name":"Steinhagen","type":"Kreisangehörige_Gemeinde"},"district":{"key":"05754","name":"Gütersloh","type":"Kreis"},"federalState":{"key":"05","name":"Nordrhein-Westfalen"}},{"name":"Fasanenweg","postalCode":"33803","locality":"Steinhagen","municipality":{"key":"05754040","name":"Steinhagen","type":"Kreisangehörige_Gemeinde"},"district":{"key":"05754","name":"Gütersloh","type":"Kreis"},"federalState":{"key":"05","name":"Nordrhein-Westfalen"}},{"name":"Feldweg","postalCode":"33803","locality":"Steinhagen","municipality":{"key":"05754040","name":"Steinhagen","type":"Kreisangehörige_Gemeinde"},"district":{"key":"05754","name":"Gütersloh","type":"Kreis"},"federalState":{"key":"05","name":"Nordrhein-Westfalen"}},{"name":"Finkenstr.","postalCode":"33803","locality":"Steinhagen","municipality":{"key":"05754040","name":"Steinhagen","type":"Kreisangehörige_Gemeinde"},"district":{"key":"05754","name":"Gütersloh","type":"Kreis"},"federalState":{"key":"05","name":"Nordrhein-Westfalen"}},{"name":"Fischerweg","postalCode":"18442","locality":"Steinhagen","municipality":{"key":"13073087","name":"Steinhagen","type":"Kreisangehörige_Gemeinde"},"district":{"key":"13073","name":"Vorpommern-Rügen","type":"Landkreis"},"federalState":{"key":"13","name":"Mecklenburg-Vorpommern"}},{"name":"Fliederstr.","postalCode":"33803","locality":"Steinhagen","municipality":{"key":"05754040","name":"Steinhagen","type":"Kreisangehörige_Gemeinde"},"district":{"key":"05754","name":"Gütersloh","type":"Kreis"},"federalState":{"key":"05","name":"Nordrhein-Westfalen"}},{"name":"Forellenweg","postalCode":"33803","locality":"Steinhagen","municipality":{"key":"05754040","name":"Steinhagen","type":"Kreisangehörige_Gemeinde"},"district":{"key":"05754","name":"Gütersloh","type":"Kreis"},"federalState":{"key":"05","name":"Nordrhein-Westfalen"}},{"name":"Freiligrathstr.","postalCode":"33803","locality":"Steinhagen","municipality":{"key":"05754040","name":"Steinhagen","type":"Kreisangehörige_Gemeinde"},"district":{"key":"05754","name":"Gütersloh","type":"Kreis"},"federalState":{"key":"05","name":"Nordrhein-Westfalen"}},{"name":"Friedhofstr.","postalCode":"33803","locality":"Steinhagen","municipality":{"key":"05754040","name":"Steinhagen","type":"Kreisangehörige_Gemeinde"},"district":{"key":"05754","name":"Gütersloh","type":"Kreis"},"federalState":{"key":"05","name":"Nordrhein-Westfalen"}},{"name":"Fröbelstr.","postalCode":"33803","locality":"Steinhagen","municipality":{"key":"05754040","name":"Steinhagen","type":"Kreisangehörige_Gemeinde"},"district":{"key":"05754","name":"Gütersloh","type":"Kreis"},"federalState":{"key":"05","name":"Nordrhein-Westfalen"}},{"name":"Gabriele-Münter-Hof","postalCode":"33803","locality":"Steinhagen","municipality":{"key":"05754040","name":"Steinhagen","type":"Kreisangehörige_Gemeinde"},"district":{"key":"05754","name":"Gütersloh","type":"Kreis"},"federalState":{"key":"05","name":"Nordrhein-Westfalen"}},{"name":"Gartenstr.","postalCode":"33803","locality":"Steinhagen","municipality":{"key":"05754040","name":"Steinhagen","type":"Kreisangehörige_Gemeinde"},"district":{"key":"05754","name":"Gütersloh","type":"Kreis"},"federalState":{"key":"05","name":"Nordrhein-Westfalen"}},{"name":"Geraer Str.","postalCode":"33803","locality":"Steinhagen","municipality":{"key":"05754040","name":"Steinhagen","type":"Kreisangehörige_Gemeinde"},"district":{"key":"05754","name":"Gütersloh","type":"Kreis"},"federalState":{"key":"05","name":"Nordrhein-Westfalen"}},{"name":"Gimpelweg","postalCode":"33803","locality":"Steinhagen","municipality":{"key":"05754040","name":"Steinhagen","type":"Kreisangehörige_Gemeinde"},"district":{"key":"05754","name":"Gütersloh","type":"Kreis"},"federalState":{"key":"05","name":"Nordrhein-Westfalen"}},{"name":"Ginsterstr.","postalCode":"33803","locality":"Steinhagen","municipality":{"key":"05754040","name":"Steinhagen","type":"Kreisangehörige_Gemeinde"},"district":{"key":"05754","name":"Gütersloh","type":"Kreis"},"federalState":{"key":"05","name":"Nordrhein-Westfalen"}},{"name":"Ginsterweg","postalCode":"18442","locality":"Steinhagen","municipality":{"key":"13073087","name":"Steinhagen","type":"Kreisangehörige_Gemeinde"},"district":{"key":"13073","name":"Vorpommern-Rügen","type":"Landkreis"},"federalState":{"key":"13","name":"Mecklenburg-Vorpommern"}},{"name":"Gladiolenstr.","postalCode":"33803","locality":"Steinhagen","municipality":{"key":"05754040","name":"Steinhagen","type":"Kreisangehörige_Gemeinde"},"district":{"key":"05754","name":"Gütersloh","type":"Kreis"},"federalState":{"key":"05","name":"Nordrhein-Westfalen"}},{"name":"Glatzer Str.","postalCode":"33803","locality":"Steinhagen","municipality":{"key":"05754040","name":"Steinhagen","type":"Kreisangehörige_Gemeinde"},"district":{"key":"05754","name":"Gütersloh","type":"Kreis"},"federalState":{"key":"05","name":"Nordrhein-Westfalen"}},{"name":"Gleiwitzer Str.","postalCode":"33803","locality":"Steinhagen","municipality":{"key":"05754040","name":"Steinhagen","type":"Kreisangehörige_Gemeinde"},"district":{"key":"05754","name":"Gütersloh","type":"Kreis"},"federalState":{"key":"05","name":"Nordrhein-Westfalen"}},{"name":"Goethestr.","postalCode":"33803","locality":"Steinhagen","municipality":{"key":"05754040","name":"Steinhagen","type":"Kreisangehörige_Gemeinde"},"district":{"key":"05754","name":"Gütersloh","type":"Kreis"},"federalState":{"key":"05","name":"Nordrhein-Westfalen"}},{"name":"Görlitzer Str.","postalCode":"33803","locality":"Steinhagen","municipality":{"key":"05754040","name":"Steinhagen","type":"Kreisangehörige_Gemeinde"},"district":{"key":"05754","name":"Gütersloh","type":"Kreis"},"federalState":{"key":"05","name":"Nordrhein-Westfalen"}},{"name":"Graue Ecke","postalCode":"18442","locality":"Steinhagen","municipality":{"key":"13073087","name":"Steinhagen","type":"Kreisangehörige_Gemeinde"},"district":{"key":"13073","name":"Vorpommern-Rügen","type":"Landkreis"},"federalState":{"key":"13","name":"Mecklenburg-Vorpommern"}},{"name":"Greifswalder Str.","postalCode":"33803","locality":"Steinhagen","municipality":{"key":"05754040","name":"Steinhagen","type":"Kreisangehörige_Gemeinde"},"district":{"key":"05754","name":"Gütersloh","type":"Kreis"},"federalState":{"key":"05","name":"Nordrhein-Westfalen"}},{"name":"Grewingsweg","postalCode":"33803","locality":"Steinhagen","municipality":{"key":"05754040","name":"Steinhagen","type":"Kreisangehörige_Gemeinde"},"district":{"key":"05754","name":"Gütersloh","type":"Kreis"},"federalState":{"key":"05","name":"Nordrhein-Westfalen"}},{"name":"Grimmener Str.","postalCode":"18442","locality":"Steinhagen","municipality":{"key":"13073087","name":"Steinhagen","type":"Kreisangehörige_Gemeinde"},"district":{"key":"13073","name":"Vorpommern-Rügen","type":"Landkreis"},"federalState":{"key":"13","name":"Mecklenburg-Vorpommern"}},{"name":"Große Wiese","postalCode":"33803","locality":"Steinhagen","municipality":{"key":"05754040","name":"Steinhagen","type":"Kreisangehörige_Gemeinde"},"district":{"key":"05754","name":"Gütersloh","type":"Kreis"},"federalState":{"key":"05","name":"Nordrhein-Westfalen"}},{"name":"Grünewaldweg","postalCode":"33803","locality":"Steinhagen","municipality":{"key":"05754040","name":"Steinhagen","type":"Kreisangehörige_Gemeinde"},"district":{"key":"05754","name":"Gütersloh","type":"Kreis"},"federalState":{"key":"05","name":"Nordrhein-Westfalen"}},{"name":"Gütersloher Str.","postalCode":"33803","locality":"Steinhagen","municipality":{"key":"05754040","name":"Steinhagen","type":"Kreisangehörige_Gemeinde"},"district":{"key":"05754","name":"Gütersloh","type":"Kreis"},"federalState":{"key":"05","name":"Nordrhein-Westfalen"}},{"name":"Haferbrede","postalCode":"33803","locality":"Steinhagen","municipality":{"key":"05754040","name":"Steinhagen","type":"Kreisangehörige_Gemeinde"},"district":{"key":"05754","name":"Gütersloh","type":"Kreis"},"federalState":{"key":"05","name":"Nordrhein-Westfalen"}},{"name":"Haller Str.","postalCode":"33803","locality":"Steinhagen","municipality":{"key":"05754040","name":"Steinhagen","type":"Kreisangehörige_Gemeinde"},"district":{"key":"05754","name":"Gütersloh","type":"Kreis"},"federalState":{"key":"05","name":"Nordrhein-Westfalen"}},{"name":"Händelstr.","postalCode":"33803","locality":"Steinhagen","municipality":{"key":"05754040","name":"Steinhagen","type":"Kreisangehörige_Gemeinde"},"district":{"key":"05754","name":"Gütersloh","type":"Kreis"},"federalState":{"key":"05","name":"Nordrhein-Westfalen"}},{"name":"Hanfgarten","postalCode":"33803","locality":"Steinhagen","municipality":{"key":"05754040","name":"Steinhagen","type":"Kreisangehörige_Gemeinde"},"district":{"key":"05754","name":"Gütersloh","type":"Kreis"},"federalState":{"key":"05","name":"Nordrhein-Westfalen"}},{"name":"Harsewinkeler Str.","postalCode":"33803","locality":"Steinhagen","municipality":{"key":"05754040","name":"Steinhagen","type":"Kreisangehörige_Gemeinde"},"district":{"key":"05754","name":"Gütersloh","type":"Kreis"},"federalState":{"key":"05","name":"Nordrhein-Westfalen"}},{"name":"Haselbogen","postalCode":"18442","locality":"Steinhagen","municipality":{"key":"13073087","name":"Steinhagen","type":"Kreisangehörige_Gemeinde"},"district":{"key":"13073","name":"Vorpommern-Rügen","type":"Landkreis"},"federalState":{"key":"13","name":"Mecklenburg-Vorpommern"}},{"name":"Hasenheide","postalCode":"33803","locality":"Steinhagen","municipality":{"key":"05754040","name":"Steinhagen","type":"Kreisangehörige_Gemeinde"},"district":{"key":"05754","name":"Gütersloh","type":"Kreis"},"federalState":{"key":"05","name":"Nordrhein-Westfalen"}},{"name":"Hauptmannstr.","postalCode":"33803","locality":"Steinhagen","municipality":{"key":"05754040","name":"Steinhagen","type":"Kreisangehörige_Gemeinde"},"district":{"key":"05754","name":"Gütersloh","type":"Kreis"},"federalState":{"key":"05","name":"Nordrhein-Westfalen"}},{"name":"Hauptstr.","postalCode":"18442","locality":"Steinhagen","municipality":{"key":"13073087","name":"Steinhagen","type":"Kreisangehörige_Gemeinde"},"district":{"key":"13073","name":"Vorpommern-Rügen","type":"Landkreis"},"federalState":{"key":"13","name":"Mecklenburg-Vorpommern"}},{"name":"Haydnstr.","postalCode":"33803","locality":"Steinhagen","municipality":{"key":"05754040","name":"Steinhagen","type":"Kreisangehörige_Gemeinde"},"district":{"key":"05754","name":"Gütersloh","type":"Kreis"},"federalState":{"key":"05","name":"Nordrhein-Westfalen"}},{"name":"Heckenweg","postalCode":"33803","locality":"Steinhagen","municipality":{"key":"05754040","name":"Steinhagen","type":"Kreisangehörige_Gemeinde"},"district":{"key":"05754","name":"Gütersloh","type":"Kreis"},"federalState":{"key":"05","name":"Nordrhein-Westfalen"}},{"name":"Heimchenweg","postalCode":"33803","locality":"Steinhagen","municipality":{"key":"05754040","name":"Steinhagen","type":"Kreisangehörige_Gemeinde"},"district":{"key":"05754","name":"Gütersloh","type":"Kreis"},"federalState":{"key":"05","name":"Nordrhein-Westfalen"}},{"name":"Heinestr.","postalCode":"33803","locality":"Steinhagen","municipality":{"key":"05754040","name":"Steinhagen","type":"Kreisangehörige_Gemeinde"},"district":{"key":"05754","name":"Gütersloh","type":"Kreis"},"federalState":{"key":"05","name":"Nordrhein-Westfalen"}},{"name":"Heinrichstr.","postalCode":"33803","locality":"Steinhagen","municipality":{"key":"05754040","name":"Steinhagen","type":"Kreisangehörige_Gemeinde"},"district":{"key":"05754","name":"Gütersloh","type":"Kreis"},"federalState":{"key":"05","name":"Nordrhein-Westfalen"}},{"name":"Hellenbrede","postalCode":"33803","locality":"Steinhagen","municipality":{"key":"05754040","name":"Steinhagen","type":"Kreisangehörige_Gemeinde"},"district":{"key":"05754","name":"Gütersloh","type":"Kreis"},"federalState":{"key":"05","name":"Nordrhein-Westfalen"}},{"name":"Hermannstr.","postalCode":"33803","locality":"Steinhagen","municipality":{"key":"05754040","name":"Steinhagen","type":"Kreisangehörige_Gemeinde"},"district":{"key":"05754","name":"Gütersloh","type":"Kreis"},"federalState":{"key":"05","name":"Nordrhein-Westfalen"}},{"name":"Heuweg","postalCode":"18442","locality":"Steinhagen","municipality":{"key":"13073087","name":"Steinhagen","type":"Kreisangehörige_Gemeinde"},"district":{"key":"13073","name":"Vorpommern-Rügen","type":"Landkreis"},"federalState":{"key":"13","name":"Mecklenburg-Vorpommern"}},{"name":"Hilterweg","postalCode":"33803","locality":"Steinhagen","municipality":{"key":"05754040","name":"Steinhagen","type":"Kreisangehörige_Gemeinde"},"district":{"key":"05754","name":"Gütersloh","type":"Kreis"},"federalState":{"key":"05","name":"Nordrhein-Westfalen"}},{"name":"Himmelreich","postalCode":"33803","locality":"Steinhagen","municipality":{"key":"05754040","name":"Steinhagen","type":"Kreisangehörige_Gemeinde"},"district":{"key":"05754","name":"Gütersloh","type":"Kreis"},"federalState":{"key":"05","name":"Nordrhein-Westfalen"}},{"name":"Hirschberger Str.","postalCode":"33803","locality":"Steinhagen","municipality":{"key":"05754040","name":"Steinhagen","type":"Kreisangehörige_Gemeinde"},"district":{"key":"05754","name":"Gütersloh","type":"Kreis"},"federalState":{"key":"05","name":"Nordrhein-Westfalen"}},{"name":"Hof","postalCode":"18246","locality":"Steinhagen","municipality":{"key":"13072101","name":"Steinhagen","type":"Kreisangehörige_Gemeinde"},"district":{"key":"13072","name":"Landkreis Rostock","type":"Landkreis"},"federalState":{"key":"13","name":"Mecklenburg-Vorpommern"}},{"name":"Holbeinweg","postalCode":"33803","locality":"Steinhagen","municipality":{"key":"05754040","name":"Steinhagen","type":"Kreisangehörige_Gemeinde"},"district":{"key":"05754","name":"Gütersloh","type":"Kreis"},"federalState":{"key":"05","name":"Nordrhein-Westfalen"}},{"name":"Horststr.","postalCode":"33803","locality":"Steinhagen","municipality":{"key":"05754040","name":"Steinhagen","type":"Kreisangehörige_Gemeinde"},"district":{"key":"05754","name":"Gütersloh","type":"Kreis"},"federalState":{"key":"05","name":"Nordrhein-Westfalen"}},{"name":"Igelweg","postalCode":"33803","locality":"Steinhagen","municipality":{"key":"05754040","name":"Steinhagen","type":"Kreisangehörige_Gemeinde"},"district":{"key":"05754","name":"Gütersloh","type":"Kreis"},"federalState":{"key":"05","name":"Nordrhein-Westfalen"}},{"name":"Im Busche","postalCode":"33803","locality":"Steinhagen","municipality":{"key":"05754040","name":"Steinhagen","type":"Kreisangehörige_Gemeinde"},"district":{"key":"05754","name":"Gütersloh","type":"Kreis"},"federalState":{"key":"05","name":"Nordrhein-Westfalen"}},{"name":"Industriestr.","postalCode":"33803","locality":"Steinhagen","municipality":{"key":"05754040","name":"Steinhagen","type":"Kreisangehörige_Gemeinde"},"district":{"key":"05754","name":"Gütersloh","type":"Kreis"},"federalState":{"key":"05","name":"Nordrhein-Westfalen"}},{"name":"Irma-Stern-Hof","postalCode":"33803","locality":"Steinhagen","municipality":{"key":"05754040","name":"Steinhagen","type":"Kreisangehörige_Gemeinde"},"district":{"key":"05754","name":"Gütersloh","type":"Kreis"},"federalState":{"key":"05","name":"Nordrhein-Westfalen"}},{"name":"Isselhorster Str.","postalCode":"33803","locality":"Steinhagen","municipality":{"key":"05754040","name":"Steinhagen","type":"Kreisangehörige_Gemeinde"},"district":{"key":"05754","name":"Gütersloh","type":"Kreis"},"federalState":{"key":"05","name":"Nordrhein-Westfalen"}},{"name":"Jahnstr.","postalCode":"33803","locality":"Steinhagen","municipality":{"key":"05754040","name":"Steinhagen","type":"Kreisangehörige_Gemeinde"},"district":{"key":"05754","name":"Gütersloh","type":"Kreis"},"federalState":{"key":"05","name":"Nordrhein-Westfalen"}},{"name":"Jenaer Str.","postalCode":"33803","locality":"Steinhagen","municipality":{"key":"05754040","name":"Steinhagen","type":"Kreisangehörige_Gemeinde"},"district":{"key":"05754","name":"Gütersloh","type":"Kreis"},"federalState":{"key":"05","name":"Nordrhein-Westfalen"}},{"name":"Johannesweg","postalCode":"33803","locality":"Steinhagen","municipality":{"key":"05754040","name":"Steinhagen","type":"Kreisangehörige_Gemeinde"},"district":{"key":"05754","name":"Gütersloh","type":"Kreis"},"federalState":{"key":"05","name":"Nordrhein-Westfalen"}},{"name":"Joseph-Beuys-Hof","postalCode":"33803","locality":"Steinhagen","municipality":{"key":"05754040","name":"Steinhagen","type":"Kreisangehörige_Gemeinde"},"district":{"key":"05754","name":"Gütersloh","type":"Kreis"},"federalState":{"key":"05","name":"Nordrhein-Westfalen"}},{"name":"Jückemöllers Hof","postalCode":"33803","locality":"Steinhagen","municipality":{"key":"05754040","name":"Steinhagen","type":"Kreisangehörige_Gemeinde"},"district":{"key":"05754","name":"Gütersloh","type":"Kreis"},"federalState":{"key":"05","name":"Nordrhein-Westfalen"}},{"name":"Jückemühlenweg","postalCode":"33803","locality":"Steinhagen","municipality":{"key":"05754040","name":"Steinhagen","type":"Kreisangehörige_Gemeinde"},"district":{"key":"05754","name":"Gütersloh","type":"Kreis"},"federalState":{"key":"05","name":"Nordrhein-Westfalen"}},{"name":"Julius-Leber-Str.","postalCode":"33803","locality":"Steinhagen","municipality":{"key":"05754040","name":"Steinhagen","type":"Kreisangehörige_Gemeinde"},"district":{"key":"05754","name":"Gütersloh","type":"Kreis"},"federalState":{"key":"05","name":"Nordrhein-Westfalen"}},{"name":"Kaistr.","postalCode":"33803","locality":"Steinhagen","municipality":{"key":"05754040","name":"Steinhagen","type":"Kreisangehörige_Gemeinde"},"district":{"key":"05754","name":"Gütersloh","type":"Kreis"},"federalState":{"key":"05","name":"Nordrhein-Westfalen"}},{"name":"Kalberkamp","postalCode":"33803","locality":"Steinhagen","municipality":{"key":"05754040","name":"Steinhagen","type":"Kreisangehörige_Gemeinde"},"district":{"key":"05754","name":"Gütersloh","type":"Kreis"},"federalState":{"key":"05","name":"Nordrhein-Westfalen"}},{"name":"Kalkwerk","postalCode":"33803","locality":"Steinhagen","municipality":{"key":"05754040","name":"Steinhagen","type":"Kreisangehörige_Gemeinde"},"district":{"key":"05754","name":"Gütersloh","type":"Kreis"},"federalState":{"key":"05","name":"Nordrhein-Westfalen"}},{"name":"Kantstr.","postalCode":"33803","locality":"Steinhagen","municipality":{"key":"05754040","name":"Steinhagen","type":"Kreisangehörige_Gemeinde"},"district":{"key":"05754","name":"Gütersloh","type":"Kreis"},"federalState":{"key":"05","name":"Nordrhein-Westfalen"}},{"name":"Kastanienstr.","postalCode":"33803","locality":"Steinhagen","municipality":{"key":"05754040","name":"Steinhagen","type":"Kreisangehörige_Gemeinde"},"district":{"key":"05754","name":"Gütersloh","type":"Kreis"},"federalState":{"key":"05","name":"Nordrhein-Westfalen"}},{"name":"Kästnerstr.","postalCode":"33803","locality":"Steinhagen","municipality":{"key":"05754040","name":"Steinhagen","type":"Kreisangehörige_Gemeinde"},"district":{"key":"05754","name":"Gütersloh","type":"Kreis"},"federalState":{"key":"05","name":"Nordrhein-Westfalen"}},{"name":"Katelbogener Str.","postalCode":"18246","locality":"Steinhagen","municipality":{"key":"13072101","name":"Steinhagen","type":"Kreisangehörige_Gemeinde"},"district":{"key":"13072","name":"Landkreis Rostock","type":"Landkreis"},"federalState":{"key":"13","name":"Mecklenburg-Vorpommern"}},{"name":"Kellerstr.","postalCode":"33803","locality":"Steinhagen","municipality":{"key":"05754040","name":"Steinhagen","type":"Kreisangehörige_Gemeinde"},"district":{"key":"05754","name":"Gütersloh","type":"Kreis"},"federalState":{"key":"05","name":"Nordrhein-Westfalen"}},{"name":"Kiebitzstr.","postalCode":"33803","locality":"Steinhagen","municipality":{"key":"05754040","name":"Steinhagen","type":"Kreisangehörige_Gemeinde"},"district":{"key":"05754","name":"Gütersloh","type":"Kreis"},"federalState":{"key":"05","name":"Nordrhein-Westfalen"}},{"name":"Kiefernweg","postalCode":"18442","locality":"Steinhagen","municipality":{"key":"13073087","name":"Steinhagen","type":"Kreisangehörige_Gemeinde"},"district":{"key":"13073","name":"Vorpommern-Rügen","type":"Landkreis"},"federalState":{"key":"13","name":"Mecklenburg-Vorpommern"}},{"name":"Kiefernweg","postalCode":"33803","locality":"Steinhagen","municipality":{"key":"05754040","name":"Steinhagen","type":"Kreisangehörige_Gemeinde"},"district":{"key":"05754","name":"Gütersloh","type":"Kreis"},"federalState":{"key":"05","name":"Nordrhein-Westfalen"}},{"name":"Kirchgarten","postalCode":"33803","locality":"Steinhagen","municipality":{"key":"05754040","name":"Steinhagen","type":"Kreisangehörige_Gemeinde"},"district":{"key":"05754","name":"Gütersloh","type":"Kreis"},"federalState":{"key":"05","name":"Nordrhein-Westfalen"}},{"name":"Kirschenstr.","postalCode":"33803","locality":"Steinhagen","municipality":{"key":"05754040","name":"Steinhagen","type":"Kreisangehörige_Gemeinde"},"district":{"key":"05754","name":"Gütersloh","type":"Kreis"},"federalState":{"key":"05","name":"Nordrhein-Westfalen"}},{"name":"Kleeheide","postalCode":"33803","locality":"Steinhagen","municipality":{"key":"05754040","name":"Steinhagen","type":"Kreisangehörige_Gemeinde"},"district":{"key":"05754","name":"Gütersloh","type":"Kreis"},"federalState":{"key":"05","name":"Nordrhein-Westfalen"}},{"name":"Kleeweg","postalCode":"18442","locality":"Steinhagen","municipality":{"key":"13073087","name":"Steinhagen","type":"Kreisangehörige_Gemeinde"},"district":{"key":"13073","name":"Vorpommern-Rügen","type":"Landkreis"},"federalState":{"key":"13","name":"Mecklenburg-Vorpommern"}},{"name":"Kleiststr.","postalCode":"33803","locality":"Steinhagen","municipality":{"key":"05754040","name":"Steinhagen","type":"Kreisangehörige_Gemeinde"},"district":{"key":"05754","name":"Gütersloh","type":"Kreis"},"federalState":{"key":"05","name":"Nordrhein-Westfalen"}},{"name":"Kolberger Str.","postalCode":"33803","locality":"Steinhagen","municipality":{"key":"05754040","name":"Steinhagen","type":"Kreisangehörige_Gemeinde"},"district":{"key":"05754","name":"Gütersloh","type":"Kreis"},"federalState":{"key":"05","name":"Nordrhein-Westfalen"}},{"name":"Kollwitzweg","postalCode":"33803","locality":"Steinhagen","municipality":{"key":"05754040","name":"Steinhagen","type":"Kreisangehörige_Gemeinde"},"district":{"key":"05754","name":"Gütersloh","type":"Kreis"},"federalState":{"key":"05","name":"Nordrhein-Westfalen"}},{"name":"Königsberger Str.","postalCode":"33803","locality":"Steinhagen","municipality":{"key":"05754040","name":"Steinhagen","type":"Kreisangehörige_Gemeinde"},"district":{"key":"05754","name":"Gütersloh","type":"Kreis"},"federalState":{"key":"05","name":"Nordrhein-Westfalen"}},{"name":"Körnerstr.","postalCode":"33803","locality":"Steinhagen","municipality":{"key":"05754040","name":"Steinhagen","type":"Kreisangehörige_Gemeinde"},"district":{"key":"05754","name":"Gütersloh","type":"Kreis"},"federalState":{"key":"05","name":"Nordrhein-Westfalen"}},{"name":"Kranichbogen","postalCode":"18442","locality":"Steinhagen","municipality":{"key":"13073087","name":"Steinhagen","type":"Kreisangehörige_Gemeinde"},"district":{"key":"13073","name":"Vorpommern-Rügen","type":"Landkreis"},"federalState":{"key":"13","name":"Mecklenburg-Vorpommern"}},{"name":"Kranicheck","postalCode":"18442","locality":"Steinhagen","municipality":{"key":"13073087","name":"Steinhagen","type":"Kreisangehörige_Gemeinde"},"district":{"key":"13073","name":"Vorpommern-Rügen","type":"Landkreis"},"federalState":{"key":"13","name":"Mecklenburg-Vorpommern"}},{"name":"Kranichring","postalCode":"18442","locality":"Steinhagen","municipality":{"key":"13073087","name":"Steinhagen","type":"Kreisangehörige_Gemeinde"},"district":{"key":"13073","name":"Vorpommern-Rügen","type":"Landkreis"},"federalState":{"key":"13","name":"Mecklenburg-Vorpommern"}},{"name":"Kreienbrink","postalCode":"33803","locality":"Steinhagen","municipality":{"key":"05754040","name":"Steinhagen","type":"Kreisangehörige_Gemeinde"},"district":{"key":"05754","name":"Gütersloh","type":"Kreis"},"federalState":{"key":"05","name":"Nordrhein-Westfalen"}},{"name":"Krokusweg","postalCode":"33803","locality":"Steinhagen","municipality":{"key":"05754040","name":"Steinhagen","type":"Kreisangehörige_Gemeinde"},"district":{"key":"05754","name":"Gütersloh","type":"Kreis"},"federalState":{"key":"05","name":"Nordrhein-Westfalen"}},{"name":"Krummenhagener Str.","postalCode":"18442","locality":"Steinhagen","municipality":{"key":"13073087","name":"Steinhagen","type":"Kreisangehörige_Gemeinde"},"district":{"key":"13073","name":"Vorpommern-Rügen","type":"Landkreis"},"federalState":{"key":"13","name":"Mecklenburg-Vorpommern"}},{"name":"Krummenhäger Damm","postalCode":"18442","locality":"Steinhagen","municipality":{"key":"13073087","name":"Steinhagen","type":"Kreisangehörige_Gemeinde"},"district":{"key":"13073","name":"Vorpommern-Rügen","type":"Landkreis"},"federalState":{"key":"13","name":"Mecklenburg-Vorpommern"}},{"name":"Kuckucksweg","postalCode":"33803","locality":"Steinhagen","municipality":{"key":"05754040","name":"Steinhagen","type":"Kreisangehörige_Gemeinde"},"district":{"key":"05754","name":"Gütersloh","type":"Kreis"},"federalState":{"key":"05","name":"Nordrhein-Westfalen"}},{"name":"Kurze Str.","postalCode":"33803","locality":"Steinhagen","municipality":{"key":"05754040","name":"Steinhagen","type":"Kreisangehörige_Gemeinde"},"district":{"key":"05754","name":"Gütersloh","type":"Kreis"},"federalState":{"key":"05","name":"Nordrhein-Westfalen"}},{"name":"Küstriner Str.","postalCode":"33803","locality":"Steinhagen","municipality":{"key":"05754040","name":"Steinhagen","type":"Kreisangehörige_Gemeinde"},"district":{"key":"05754","name":"Gütersloh","type":"Kreis"},"federalState":{"key":"05","name":"Nordrhein-Westfalen"}},{"name":"Landhagen","postalCode":"33803","locality":"Steinhagen","municipality":{"key":"05754040","name":"Steinhagen","type":"Kreisangehörige_Gemeinde"},"district":{"key":"05754","name":"Gütersloh","type":"Kreis"},"federalState":{"key":"05","name":"Nordrhein-Westfalen"}},{"name":"Landwehrs Brede","postalCode":"33803","locality":"Steinhagen","municipality":{"key":"05754040","name":"Steinhagen","type":"Kreisangehörige_Gemeinde"},"district":{"key":"05754","name":"Gütersloh","type":"Kreis"},"federalState":{"key":"05","name":"Nordrhein-Westfalen"}},{"name":"Lange Str.","postalCode":"33803","locality":"Steinhagen","municipality":{"key":"05754040","name":"Steinhagen","type":"Kreisangehörige_Gemeinde"},"district":{"key":"05754","name":"Gütersloh","type":"Kreis"},"federalState":{"key":"05","name":"Nordrhein-Westfalen"}},{"name":"Lärchenstr.","postalCode":"33803","locality":"Steinhagen","municipality":{"key":"05754040","name":"Steinhagen","type":"Kreisangehörige_Gemeinde"},"district":{"key":"05754","name":"Gütersloh","type":"Kreis"},"federalState":{"key":"05","name":"Nordrhein-Westfalen"}},{"name":"Laukshof","postalCode":"33803","locality":"Steinhagen","municipality":{"key":"05754040","name":"Steinhagen","type":"Kreisangehörige_Gemeinde"},"district":{"key":"05754","name":"Gütersloh","type":"Kreis"},"federalState":{"key":"05","name":"Nordrhein-Westfalen"}},{"name":"Laurentiusweg","postalCode":"33803","locality":"Steinhagen","municipality":{"key":"05754040","name":"Steinhagen","type":"Kreisangehörige_Gemeinde"},"district":{"key":"05754","name":"Gütersloh","type":"Kreis"},"federalState":{"key":"05","name":"Nordrhein-Westfalen"}},{"name":"Leipziger Str.","postalCode":"33803","locality":"Steinhagen","municipality":{"key":"05754040","name":"Steinhagen","type":"Kreisangehörige_Gemeinde"},"district":{"key":"05754","name":"Gütersloh","type":"Kreis"},"federalState":{"key":"05","name":"Nordrhein-Westfalen"}},{"name":"Lessingstr.","postalCode":"33803","locality":"Steinhagen","municipality":{"key":"05754040","name":"Steinhagen","type":"Kreisangehörige_Gemeinde"},"district":{"key":"05754","name":"Gütersloh","type":"Kreis"},"federalState":{"key":"05","name":"Nordrhein-Westfalen"}},{"name":"Liebermannweg","postalCode":"33803","locality":"Steinhagen","municipality":{"key":"05754040","name":"Steinhagen","type":"Kreisangehörige_Gemeinde"},"district":{"key":"05754","name":"Gütersloh","type":"Kreis"},"federalState":{"key":"05","name":"Nordrhein-Westfalen"}},{"name":"Liegnitzer Str.","postalCode":"33803","locality":"Steinhagen","municipality":{"key":"05754040","name":"Steinhagen","type":"Kreisangehörige_Gemeinde"},"district":{"key":"05754","name":"Gütersloh","type":"Kreis"},"federalState":{"key":"05","name":"Nordrhein-Westfalen"}},{"name":"Lilienstr.","postalCode":"33803","locality":"Steinhagen","municipality":{"key":"05754040","name":"Steinhagen","type":"Kreisangehörige_Gemeinde"},"district":{"key":"05754","name":"Gütersloh","type":"Kreis"},"federalState":{"key":"05","name":"Nordrhein-Westfalen"}},{"name":"Lindenstr.","postalCode":"33803","locality":"Steinhagen","municipality":{"key":"05754040","name":"Steinhagen","type":"Kreisangehörige_Gemeinde"},"district":{"key":"05754","name":"Gütersloh","type":"Kreis"},"federalState":{"key":"05","name":"Nordrhein-Westfalen"}},{"name":"Lisztstr.","postalCode":"33803","locality":"Steinhagen","municipality":{"key":"05754040","name":"Steinhagen","type":"Kreisangehörige_Gemeinde"},"district":{"key":"05754","name":"Gütersloh","type":"Kreis"},"federalState":{"key":"05","name":"Nordrhein-Westfalen"}},{"name":"Lohbrede","postalCode":"33803","locality":"Steinhagen","municipality":{"key":"05754040","name":"Steinhagen","type":"Kreisangehörige_Gemeinde"},"district":{"key":"05754","name":"Gütersloh","type":"Kreis"},"federalState":{"key":"05","name":"Nordrhein-Westfalen"}},{"name":"Lönsstr.","postalCode":"33803","locality":"Steinhagen","municipality":{"key":"05754040","name":"Steinhagen","type":"Kreisangehörige_Gemeinde"},"district":{"key":"05754","name":"Gütersloh","type":"Kreis"},"federalState":{"key":"05","name":"Nordrhein-Westfalen"}},{"name":"Lortzingstr.","postalCode":"33803","locality":"Steinhagen","municipality":{"key":"05754040","name":"Steinhagen","type":"Kreisangehörige_Gemeinde"},"district":{"key":"05754","name":"Gütersloh","type":"Kreis"},"federalState":{"key":"05","name":"Nordrhein-Westfalen"}},{"name":"Luchsweg","postalCode":"33803","locality":"Steinhagen","municipality":{"key":"05754040","name":"Steinhagen","type":"Kreisangehörige_Gemeinde"},"district":{"key":"05754","name":"Gütersloh","type":"Kreis"},"federalState":{"key":"05","name":"Nordrhein-Westfalen"}},{"name":"Ludwig-Beck-Str.","postalCode":"33803","locality":"Steinhagen","municipality":{"key":"05754040","name":"Steinhagen","type":"Kreisangehörige_Gemeinde"},"district":{"key":"05754","name":"Gütersloh","type":"Kreis"},"federalState":{"key":"05","name":"Nordrhein-Westfalen"}},{"name":"Luisenstr.","postalCode":"33803","locality":"Steinhagen","municipality":{"key":"05754040","name":"Steinhagen","type":"Kreisangehörige_Gemeinde"},"district":{"key":"05754","name":"Gütersloh","type":"Kreis"},"federalState":{"key":"05","name":"Nordrhein-Westfalen"}},{"name":"Luise-Rinser-Hof","postalCode":"33803","locality":"Steinhagen","municipality":{"key":"05754040","name":"Steinhagen","type":"Kreisangehörige_Gemeinde"},"district":{"key":"05754","name":"Gütersloh","type":"Kreis"},"federalState":{"key":"05","name":"Nordrhein-Westfalen"}},{"name":"Lutgardisweg","postalCode":"33803","locality":"Steinhagen","municipality":{"key":"05754040","name":"Steinhagen","type":"Kreisangehörige_Gemeinde"},"district":{"key":"05754","name":"Gütersloh","type":"Kreis"},"federalState":{"key":"05","name":"Nordrhein-Westfalen"}},{"name":"Lutherstr.","postalCode":"33803","locality":"Steinhagen","municipality":{"key":"05754040","name":"Steinhagen","type":"Kreisangehörige_Gemeinde"},"district":{"key":"05754","name":"Gütersloh","type":"Kreis"},"federalState":{"key":"05","name":"Nordrhein-Westfalen"}},{"name":"Magdeburger Str.","postalCode":"33803","locality":"Steinhagen","municipality":{"key":"05754040","name":"Steinhagen","type":"Kreisangehörige_Gemeinde"},"district":{"key":"05754","name":"Gütersloh","type":"Kreis"},"federalState":{"key":"05","name":"Nordrhein-Westfalen"}},{"name":"Mandelstr.","postalCode":"33803","locality":"Steinhagen","municipality":{"key":"05754040","name":"Steinhagen","type":"Kreisangehörige_Gemeinde"},"district":{"key":"05754","name":"Gütersloh","type":"Kreis"},"federalState":{"key":"05","name":"Nordrhein-Westfalen"}},{"name":"Margeritenweg","postalCode":"33803","locality":"Steinhagen","municipality":{"key":"05754040","name":"Steinhagen","type":"Kreisangehörige_Gemeinde"},"district":{"key":"05754","name":"Gütersloh","type":"Kreis"},"federalState":{"key":"05","name":"Nordrhein-Westfalen"}},{"name":"Marie-Curie-Hof","postalCode":"33803","locality":"Steinhagen","municipality":{"key":"05754040","name":"Steinhagen","type":"Kreisangehörige_Gemeinde"},"district":{"key":"05754","name":"Gütersloh","type":"Kreis"},"federalState":{"key":"05","name":"Nordrhein-Westfalen"}},{"name":"Marienburger Str.","postalCode":"33803","locality":"Steinhagen","municipality":{"key":"05754040","name":"Steinhagen","type":"Kreisangehörige_Gemeinde"},"district":{"key":"05754","name":"Gütersloh","type":"Kreis"},"federalState":{"key":"05","name":"Nordrhein-Westfalen"}},{"name":"Meisenstr.","postalCode":"33803","locality":"Steinhagen","municipality":{"key":"05754040","name":"Steinhagen","type":"Kreisangehörige_Gemeinde"},"district":{"key":"05754","name":"Gütersloh","type":"Kreis"},"federalState":{"key":"05","name":"Nordrhein-Westfalen"}},{"name":"Memeler Str.","postalCode":"33803","locality":"Steinhagen","municipality":{"key":"05754040","name":"Steinhagen","type":"Kreisangehörige_Gemeinde"},"district":{"key":"05754","name":"Gütersloh","type":"Kreis"},"federalState":{"key":"05","name":"Nordrhein-Westfalen"}},{"name":"Menzelweg","postalCode":"33803","locality":"Steinhagen","municipality":{"key":"05754040","name":"Steinhagen","type":"Kreisangehörige_Gemeinde"},"district":{"key":"05754","name":"Gütersloh","type":"Kreis"},"federalState":{"key":"05","name":"Nordrhein-Westfalen"}},{"name":"Meschers Hof","postalCode":"33803","locality":"Steinhagen","municipality":{"key":"05754040","name":"Steinhagen","type":"Kreisangehörige_Gemeinde"},"district":{"key":"05754","name":"Gütersloh","type":"Kreis"},"federalState":{"key":"05","name":"Nordrhein-Westfalen"}},{"name":"Miegelstr.","postalCode":"33803","locality":"Steinhagen","municipality":{"key":"05754040","name":"Steinhagen","type":"Kreisangehörige_Gemeinde"},"district":{"key":"05754","name":"Gütersloh","type":"Kreis"},"federalState":{"key":"05","name":"Nordrhein-Westfalen"}},{"name":"Mirabellenstr.","postalCode":"33803","locality":"Steinhagen","municipality":{"key":"05754040","name":"Steinhagen","type":"Kreisangehörige_Gemeinde"},"district":{"key":"05754","name":"Gütersloh","type":"Kreis"},"federalState":{"key":"05","name":"Nordrhein-Westfalen"}},{"name":"Modersohn-Becker-Hof","postalCode":"33803","locality":"Steinhagen","municipality":{"key":"05754040","name":"Steinhagen","type":"Kreisangehörige_Gemeinde"},"district":{"key":"05754","name":"Gütersloh","type":"Kreis"},"federalState":{"key":"05","name":"Nordrhein-Westfalen"}},{"name":"Mönchsweg","postalCode":"33803","locality":"Steinhagen","municipality":{"key":"05754040","name":"Steinhagen","type":"Kreisangehörige_Gemeinde"},"district":{"key":"05754","name":"Gütersloh","type":"Kreis"},"federalState":{"key":"05","name":"Nordrhein-Westfalen"}},{"name":"Mörikestr.","postalCode":"33803","locality":"Steinhagen","municipality":{"key":"05754040","name":"Steinhagen","type":"Kreisangehörige_Gemeinde"},"district":{"key":"05754","name":"Gütersloh","type":"Kreis"},"federalState":{"key":"05","name":"Nordrhein-Westfalen"}},{"name":"Mozartstr.","postalCode":"33803","locality":"Steinhagen","municipality":{"key":"05754040","name":"Steinhagen","type":"Kreisangehörige_Gemeinde"},"district":{"key":"05754","name":"Gütersloh","type":"Kreis"},"federalState":{"key":"05","name":"Nordrhein-Westfalen"}},{"name":"Mühlenstr.","postalCode":"33803","locality":"Steinhagen","municipality":{"key":"05754040","name":"Steinhagen","type":"Kreisangehörige_Gemeinde"},"district":{"key":"05754","name":"Gütersloh","type":"Kreis"},"federalState":{"key":"05","name":"Nordrhein-Westfalen"}},{"name":"Mühlenweg","postalCode":"18442","locality":"Steinhagen","municipality":{"key":"13073087","name":"Steinhagen","type":"Kreisangehörige_Gemeinde"},"district":{"key":"13073","name":"Vorpommern-Rügen","type":"Landkreis"},"federalState":{"key":"13","name":"Mecklenburg-Vorpommern"}},{"name":"Narzissenstr.","postalCode":"33803","locality":"Steinhagen","municipality":{"key":"05754040","name":"Steinhagen","type":"Kreisangehörige_Gemeinde"},"district":{"key":"05754","name":"Gütersloh","type":"Kreis"},"federalState":{"key":"05","name":"Nordrhein-Westfalen"}},{"name":"Nelkenstr.","postalCode":"33803","locality":"Steinhagen","municipality":{"key":"05754040","name":"Steinhagen","type":"Kreisangehörige_Gemeinde"},"district":{"key":"05754","name":"Gütersloh","type":"Kreis"},"federalState":{"key":"05","name":"Nordrhein-Westfalen"}},{"name":"Neubau","postalCode":"18246","locality":"Steinhagen","municipality":{"key":"13072101","name":"Steinhagen","type":"Kreisangehörige_Gemeinde"},"district":{"key":"13072","name":"Landkreis Rostock","type":"Landkreis"},"federalState":{"key":"13","name":"Mecklenburg-Vorpommern"}},{"name":"Niederhove","postalCode":"33803","locality":"Steinhagen","municipality":{"key":"05754040","name":"Steinhagen","type":"Kreisangehörige_Gemeinde"},"district":{"key":"05754","name":"Gütersloh","type":"Kreis"},"federalState":{"key":"05","name":"Nordrhein-Westfalen"}},{"name":"Niedernkamp","postalCode":"33803","locality":"Steinhagen","municipality":{"key":"05754040","name":"Steinhagen","type":"Kreisangehörige_Gemeinde"},"district":{"key":"05754","name":"Gütersloh","type":"Kreis"},"federalState":{"key":"05","name":"Nordrhein-Westfalen"}},{"name":"Niederstadthof","postalCode":"33803","locality":"Steinhagen","municipality":{"key":"05754040","name":"Steinhagen","type":"Kreisangehörige_Gemeinde"},"district":{"key":"05754","name":"Gütersloh","type":"Kreis"},"federalState":{"key":"05","name":"Nordrhein-Westfalen"}},{"name":"Nimmersather Str.","postalCode":"33803","locality":"Steinhagen","municipality":{"key":"05754040","name":"Steinhagen","type":"Kreisangehörige_Gemeinde"},"district":{"key":"05754","name":"Gütersloh","type":"Kreis"},"federalState":{"key":"05","name":"Nordrhein-Westfalen"}},{"name":"Noldeweg","postalCode":"33803","locality":"Steinhagen","municipality":{"key":"05754040","name":"Steinhagen","type":"Kreisangehörige_Gemeinde"},"district":{"key":"05754","name":"Gütersloh","type":"Kreis"},"federalState":{"key":"05","name":"Nordrhein-Westfalen"}},{"name":"Oberer Steinweg","postalCode":"33803","locality":"Steinhagen","municipality":{"key":"05754040","name":"Steinhagen","type":"Kreisangehörige_Gemeinde"},"district":{"key":"05754","name":"Gütersloh","type":"Kreis"},"federalState":{"key":"05","name":"Nordrhein-Westfalen"}},{"name":"Oberes Feld","postalCode":"33803","locality":"Steinhagen","municipality":{"key":"05754040","name":"Steinhagen","type":"Kreisangehörige_Gemeinde"},"district":{"key":"05754","name":"Gütersloh","type":"Kreis"},"federalState":{"key":"05","name":"Nordrhein-Westfalen"}},{"name":"Orgelbauers Kamp","postalCode":"33803","locality":"Steinhagen","municipality":{"key":"05754040","name":"Steinhagen","type":"Kreisangehörige_Gemeinde"},"district":{"key":"05754","name":"Gütersloh","type":"Kreis"},"federalState":{"key":"05","name":"Nordrhein-Westfalen"}},{"name":"Osterfeldstr.","postalCode":"33803","locality":"Steinhagen","municipality":{"key":"05754040","name":"Steinhagen","type":"Kreisangehörige_Gemeinde"},"district":{"key":"05754","name":"Gütersloh","type":"Kreis"},"federalState":{"key":"05","name":"Nordrhein-Westfalen"}},{"name":"Overhove","postalCode":"33803","locality":"Steinhagen","municipality":{"key":"05754040","name":"Steinhagen","type":"Kreisangehörige_Gemeinde"},"district":{"key":"05754","name":"Gütersloh","type":"Kreis"},"federalState":{"key":"05","name":"Nordrhein-Westfalen"}},{"name":"Pappelweg","postalCode":"18246","locality":"Steinhagen","municipality":{"key":"13072101","name":"Steinhagen","type":"Kreisangehörige_Gemeinde"},"district":{"key":"13072","name":"Landkreis Rostock","type":"Landkreis"},"federalState":{"key":"13","name":"Mecklenburg-Vorpommern"}},{"name":"Patthorster Str.","postalCode":"33803","locality":"Steinhagen","municipality":{"key":"05754040","name":"Steinhagen","type":"Kreisangehörige_Gemeinde"},"district":{"key":"05754","name":"Gütersloh","type":"Kreis"},"federalState":{"key":"05","name":"Nordrhein-Westfalen"}},{"name":"Penniner Damm","postalCode":"18442","locality":"Steinhagen","municipality":{"key":"13073087","name":"Steinhagen","type":"Kreisangehörige_Gemeinde"},"district":{"key":"13073","name":"Vorpommern-Rügen","type":"Landkreis"},"federalState":{"key":"13","name":"Mecklenburg-Vorpommern"}},{"name":"Pestalozzistr.","postalCode":"33803","locality":"Steinhagen","municipality":{"key":"05754040","name":"Steinhagen","type":"Kreisangehörige_Gemeinde"},"district":{"key":"05754","name":"Gütersloh","type":"Kreis"},"federalState":{"key":"05","name":"Nordrhein-Westfalen"}},{"name":"Petersberg","postalCode":"33803","locality":"Steinhagen","municipality":{"key":"05754040","name":"Steinhagen","type":"Kreisangehörige_Gemeinde"},"district":{"key":"05754","name":"Gütersloh","type":"Kreis"},"federalState":{"key":"05","name":"Nordrhein-Westfalen"}},{"name":"Pfirsichstr.","postalCode":"33803","locality":"Steinhagen","municipality":{"key":"05754040","name":"Steinhagen","type":"Kreisangehörige_Gemeinde"},"district":{"key":"05754","name":"Gütersloh","type":"Kreis"},"federalState":{"key":"05","name":"Nordrhein-Westfalen"}},{"name":"Poggeweg","postalCode":"18442","locality":"Steinhagen","municipality":{"key":"13073087","name":"Steinhagen","type":"Kreisangehörige_Gemeinde"},"district":{"key":"13073","name":"Vorpommern-Rügen","type":"Landkreis"},"federalState":{"key":"13","name":"Mecklenburg-Vorpommern"}},{"name":"Postweg","postalCode":"18442","locality":"Steinhagen","municipality":{"key":"13073087","name":"Steinhagen","type":"Kreisangehörige_Gemeinde"},"district":{"key":"13073","name":"Vorpommern-Rügen","type":"Landkreis"},"federalState":{"key":"13","name":"Mecklenburg-Vorpommern"}},{"name":"Postweg","postalCode":"33803","locality":"Steinhagen","municipality":{"key":"05754040","name":"Steinhagen","type":"Kreisangehörige_Gemeinde"},"district":{"key":"05754","name":"Gütersloh","type":"Kreis"},"federalState":{"key":"05","name":"Nordrhein-Westfalen"}},{"name":"Potsdamer Str.","postalCode":"33803","locality":"Steinhagen","municipality":{"key":"05754040","name":"Steinhagen","type":"Kreisangehörige_Gemeinde"},"district":{"key":"05754","name":"Gütersloh","type":"Kreis"},"federalState":{"key":"05","name":"Nordrhein-Westfalen"}},{"name":"Primelstr.","postalCode":"33803","locality":"Steinhagen","municipality":{"key":"05754040","name":"Steinhagen","type":"Kreisangehörige_Gemeinde"},"district":{"key":"05754","name":"Gütersloh","type":"Kreis"},"federalState":{"key":"05","name":"Nordrhein-Westfalen"}},{"name":"Queller Str.","postalCode":"33803","locality":"Steinhagen","municipality":{"key":"05754040","name":"Steinhagen","type":"Kreisangehörige_Gemeinde"},"district":{"key":"05754","name":"Gütersloh","type":"Kreis"},"federalState":{"key":"05","name":"Nordrhein-Westfalen"}},{"name":"Quellweg","postalCode":"33803","locality":"Steinhagen","municipality":{"key":"05754040","name":"Steinhagen","type":"Kreisangehörige_Gemeinde"},"district":{"key":"05754","name":"Gütersloh","type":"Kreis"},"federalState":{"key":"05","name":"Nordrhein-Westfalen"}},{"name":"Quittenstr.","postalCode":"33803","locality":"Steinhagen","municipality":{"key":"05754040","name":"Steinhagen","type":"Kreisangehörige_Gemeinde"},"district":{"key":"05754","name":"Gütersloh","type":"Kreis"},"federalState":{"key":"05","name":"Nordrhein-Westfalen"}},{"name":"Raiffeisenstr.","postalCode":"33803","locality":"Steinhagen","municipality":{"key":"05754040","name":"Steinhagen","type":"Kreisangehörige_Gemeinde"},"district":{"key":"05754","name":"Gütersloh","type":"Kreis"},"federalState":{"key":"05","name":"Nordrhein-Westfalen"}},{"name":"Rathausplatz","postalCode":"33803","locality":"Steinhagen","municipality":{"key":"05754040","name":"Steinhagen","type":"Kreisangehörige_Gemeinde"},"district":{"key":"05754","name":"Gütersloh","type":"Kreis"},"federalState":{"key":"05","name":"Nordrhein-Westfalen"}},{"name":"Rathausstr.","postalCode":"33803","locality":"Steinhagen","municipality":{"key":"05754040","name":"Steinhagen","type":"Kreisangehörige_Gemeinde"},"district":{"key":"05754","name":"Gütersloh","type":"Kreis"},"federalState":{"key":"05","name":"Nordrhein-Westfalen"}},{"name":"Reichenberger Str.","postalCode":"33803","locality":"Steinhagen","municipality":{"key":"05754040","name":"Steinhagen","type":"Kreisangehörige_Gemeinde"},"district":{"key":"05754","name":"Gütersloh","type":"Kreis"},"federalState":{"key":"05","name":"Nordrhein-Westfalen"}},{"name":"Rembrandtweg","postalCode":"33803","locality":"Steinhagen","municipality":{"key":"05754040","name":"Steinhagen","type":"Kreisangehörige_Gemeinde"},"district":{"key":"05754","name":"Gütersloh","type":"Kreis"},"federalState":{"key":"05","name":"Nordrhein-Westfalen"}},{"name":"Resedastr.","postalCode":"33803","locality":"Steinhagen","municipality":{"key":"05754040","name":"Steinhagen","type":"Kreisangehörige_Gemeinde"},"district":{"key":"05754","name":"Gütersloh","type":"Kreis"},"federalState":{"key":"05","name":"Nordrhein-Westfalen"}},{"name":"Riegestr.","postalCode":"33803","locality":"Steinhagen","municipality":{"key":"05754040","name":"Steinhagen","type":"Kreisangehörige_Gemeinde"},"district":{"key":"05754","name":"Gütersloh","type":"Kreis"},"federalState":{"key":"05","name":"Nordrhein-Westfalen"}},{"name":"Rigaer Str.","postalCode":"33803","locality":"Steinhagen","municipality":{"key":"05754040","name":"Steinhagen","type":"Kreisangehörige_Gemeinde"},"district":{"key":"05754","name":"Gütersloh","type":"Kreis"},"federalState":{"key":"05","name":"Nordrhein-Westfalen"}},{"name":"Rilkestr.","postalCode":"33803","locality":"Steinhagen","municipality":{"key":"05754040","name":"Steinhagen","type":"Kreisangehörige_Gemeinde"},"district":{"key":"05754","name":"Gütersloh","type":"Kreis"},"federalState":{"key":"05","name":"Nordrhein-Westfalen"}},{"name":"Ringstr.","postalCode":"33803","locality":"Steinhagen","municipality":{"key":"05754040","name":"Steinhagen","type":"Kreisangehörige_Gemeinde"},"district":{"key":"05754","name":"Gütersloh","type":"Kreis"},"federalState":{"key":"05","name":"Nordrhein-Westfalen"}},{"name":"Robertstr.","postalCode":"33803","locality":"Steinhagen","municipality":{"key":"05754040","name":"Steinhagen","type":"Kreisangehörige_Gemeinde"},"district":{"key":"05754","name":"Gütersloh","type":"Kreis"},"federalState":{"key":"05","name":"Nordrhein-Westfalen"}},{"name":"Roggenkamp","postalCode":"33803","locality":"Steinhagen","municipality":{"key":"05754040","name":"Steinhagen","type":"Kreisangehörige_Gemeinde"},"district":{"key":"05754","name":"Gütersloh","type":"Kreis"},"federalState":{"key":"05","name":"Nordrhein-Westfalen"}},{"name":"Rohbrannthof","postalCode":"33803","locality":"Steinhagen","municipality":{"key":"05754040","name":"Steinhagen","type":"Kreisangehörige_Gemeinde"},"district":{"key":"05754","name":"Gütersloh","type":"Kreis"},"federalState":{"key":"05","name":"Nordrhein-Westfalen"}},{"name":"Rolandstr.","postalCode":"33803","locality":"Steinhagen","municipality":{"key":"05754040","name":"Steinhagen","type":"Kreisangehörige_Gemeinde"},"district":{"key":"05754","name":"Gütersloh","type":"Kreis"},"federalState":{"key":"05","name":"Nordrhein-Westfalen"}},{"name":"Rostocker Str.","postalCode":"33803","locality":"Steinhagen","municipality":{"key":"05754040","name":"Steinhagen","type":"Kreisangehörige_Gemeinde"},"district":{"key":"05754","name":"Gütersloh","type":"Kreis"},"federalState":{"key":"05","name":"Nordrhein-Westfalen"}},{"name":"Rote Erde","postalCode":"33803","locality":"Steinhagen","municipality":{"key":"05754040","name":"Steinhagen","type":"Kreisangehörige_Gemeinde"},"district":{"key":"05754","name":"Gütersloh","type":"Kreis"},"federalState":{"key":"05","name":"Nordrhein-Westfalen"}},{"name":"Rotkehlchenweg","postalCode":"33803","locality":"Steinhagen","municipality":{"key":"05754040","name":"Steinhagen","type":"Kreisangehörige_Gemeinde"},"district":{"key":"05754","name":"Gütersloh","type":"Kreis"},"federalState":{"key":"05","name":"Nordrhein-Westfalen"}},{"name":"Rügener Str.","postalCode":"33803","locality":"Steinhagen","municipality":{"key":"05754040","name":"Steinhagen","type":"Kreisangehörige_Gemeinde"},"district":{"key":"05754","name":"Gütersloh","type":"Kreis"},"federalState":{"key":"05","name":"Nordrhein-Westfalen"}},{"name":"Rügenwalder Weg","postalCode":"33803","locality":"Steinhagen","municipality":{"key":"05754040","name":"Steinhagen","type":"Kreisangehörige_Gemeinde"},"district":{"key":"05754","name":"Gütersloh","type":"Kreis"},"federalState":{"key":"05","name":"Nordrhein-Westfalen"}},{"name":"Sandforther Str.","postalCode":"33803","locality":"Steinhagen","municipality":{"key":"05754040","name":"Steinhagen","type":"Kreisangehörige_Gemeinde"},"district":{"key":"05754","name":"Gütersloh","type":"Kreis"},"federalState":{"key":"05","name":"Nordrhein-Westfalen"}},{"name":"Schillerstr.","postalCode":"33803","locality":"Steinhagen","municipality":{"key":"05754040","name":"Steinhagen","type":"Kreisangehörige_Gemeinde"},"district":{"key":"05754","name":"Gütersloh","type":"Kreis"},"federalState":{"key":"05","name":"Nordrhein-Westfalen"}},{"name":"Schleenweg","postalCode":"18442","locality":"Steinhagen","municipality":{"key":"13073087","name":"Steinhagen","type":"Kreisangehörige_Gemeinde"},"district":{"key":"13073","name":"Vorpommern-Rügen","type":"Landkreis"},"federalState":{"key":"13","name":"Mecklenburg-Vorpommern"}},{"name":"Schlehenstr.","postalCode":"33803","locality":"Steinhagen","municipality":{"key":"05754040","name":"Steinhagen","type":"Kreisangehörige_Gemeinde"},"district":{"key":"05754","name":"Gütersloh","type":"Kreis"},"federalState":{"key":"05","name":"Nordrhein-Westfalen"}},{"name":"Schlüttgarten","postalCode":"33803","locality":"Steinhagen","municipality":{"key":"05754040","name":"Steinhagen","type":"Kreisangehörige_Gemeinde"},"district":{"key":"05754","name":"Gütersloh","type":"Kreis"},"federalState":{"key":"05","name":"Nordrhein-Westfalen"}},{"name":"Schmiedeweg","postalCode":"18442","locality":"Steinhagen","municipality":{"key":"13073087","name":"Steinhagen","type":"Kreisangehörige_Gemeinde"},"district":{"key":"13073","name":"Vorpommern-Rügen","type":"Landkreis"},"federalState":{"key":"13","name":"Mecklenburg-Vorpommern"}},{"name":"Schreefeld","postalCode":"33803","locality":"Steinhagen","municipality":{"key":"05754040","name":"Steinhagen","type":"Kreisangehörige_Gemeinde"},"district":{"key":"05754","name":"Gütersloh","type":"Kreis"},"federalState":{"key":"05","name":"Nordrhein-Westfalen"}},{"name":"Schubertstr.","postalCode":"33803","locality":"Steinhagen","municipality":{"key":"05754040","name":"Steinhagen","type":"Kreisangehörige_Gemeinde"},"district":{"key":"05754","name":"Gütersloh","type":"Kreis"},"federalState":{"key":"05","name":"Nordrhein-Westfalen"}},{"name":"Schuhkamp","postalCode":"33803","locality":"Steinhagen","municipality":{"key":"05754040","name":"Steinhagen","type":"Kreisangehörige_Gemeinde"},"district":{"key":"05754","name":"Gütersloh","type":"Kreis"},"federalState":{"key":"05","name":"Nordrhein-Westfalen"}},{"name":"Schulstr.","postalCode":"18442","locality":"Steinhagen","municipality":{"key":"13073087","name":"Steinhagen","type":"Kreisangehörige_Gemeinde"},"district":{"key":"13073","name":"Vorpommern-Rügen","type":"Landkreis"},"federalState":{"key":"13","name":"Mecklenburg-Vorpommern"}},{"name":"Schulweg","postalCode":"33803","locality":"Steinhagen","municipality":{"key":"05754040","name":"Steinhagen","type":"Kreisangehörige_Gemeinde"},"district":{"key":"05754","name":"Gütersloh","type":"Kreis"},"federalState":{"key":"05","name":"Nordrhein-Westfalen"}},{"name":"Schumannstr.","postalCode":"33803","locality":"Steinhagen","municipality":{"key":"05754040","name":"Steinhagen","type":"Kreisangehörige_Gemeinde"},"district":{"key":"05754","name":"Gütersloh","type":"Kreis"},"federalState":{"key":"05","name":"Nordrhein-Westfalen"}},{"name":"Schwalbenweg","postalCode":"33803","locality":"Steinhagen","municipality":{"key":"05754040","name":"Steinhagen","type":"Kreisangehörige_Gemeinde"},"district":{"key":"05754","name":"Gütersloh","type":"Kreis"},"federalState":{"key":"05","name":"Nordrhein-Westfalen"}},{"name":"Schwarzes Feld","postalCode":"33803","locality":"Steinhagen","municipality":{"key":"05754040","name":"Steinhagen","type":"Kreisangehörige_Gemeinde"},"district":{"key":"05754","name":"Gütersloh","type":"Kreis"},"federalState":{"key":"05","name":"Nordrhein-Westfalen"}},{"name":"Schwedenpatt","postalCode":"33803","locality":"Steinhagen","municipality":{"key":"05754040","name":"Steinhagen","type":"Kreisangehörige_Gemeinde"},"district":{"key":"05754","name":"Gütersloh","type":"Kreis"},"federalState":{"key":"05","name":"Nordrhein-Westfalen"}},{"name":"Schweriner Str.","postalCode":"33803","locality":"Steinhagen","municipality":{"key":"05754040","name":"Steinhagen","type":"Kreisangehörige_Gemeinde"},"district":{"key":"05754","name":"Gütersloh","type":"Kreis"},"federalState":{"key":"05","name":"Nordrhein-Westfalen"}},{"name":"Sechtenbrink","postalCode":"33803","locality":"Steinhagen","municipality":{"key":"05754040","name":"Steinhagen","type":"Kreisangehörige_Gemeinde"},"district":{"key":"05754","name":"Gütersloh","type":"Kreis"},"federalState":{"key":"05","name":"Nordrhein-Westfalen"}},{"name":"Seemühlerstr.","postalCode":"18442","locality":"Steinhagen","municipality":{"key":"13073087","name":"Steinhagen","type":"Kreisangehörige_Gemeinde"},"district":{"key":"13073","name":"Vorpommern-Rügen","type":"Landkreis"},"federalState":{"key":"13","name":"Mecklenburg-Vorpommern"}},{"name":"Seestr.","postalCode":"18442","locality":"Steinhagen","municipality":{"key":"13073087","name":"Steinhagen","type":"Kreisangehörige_Gemeinde"},"district":{"key":"13073","name":"Vorpommern-Rügen","type":"Landkreis"},"federalState":{"key":"13","name":"Mecklenburg-Vorpommern"}},{"name":"Sonnenhof","postalCode":"33803","locality":"Steinhagen","municipality":{"key":"05754040","name":"Steinhagen","type":"Kreisangehörige_Gemeinde"},"district":{"key":"05754","name":"Gütersloh","type":"Kreis"},"federalState":{"key":"05","name":"Nordrhein-Westfalen"}},{"name":"Sophie-Scholl-Hof","postalCode":"33803","locality":"Steinhagen","municipality":{"key":"05754040","name":"Steinhagen","type":"Kreisangehörige_Gemeinde"},"district":{"key":"05754","name":"Gütersloh","type":"Kreis"},"federalState":{"key":"05","name":"Nordrhein-Westfalen"}},{"name":"Spechtstr.","postalCode":"33803","locality":"Steinhagen","municipality":{"key":"05754040","name":"Steinhagen","type":"Kreisangehörige_Gemeinde"},"district":{"key":"05754","name":"Gütersloh","type":"Kreis"},"federalState":{"key":"05","name":"Nordrhein-Westfalen"}},{"name":"Sperlingstr.","postalCode":"33803","locality":"Steinhagen","municipality":{"key":"05754040","name":"Steinhagen","type":"Kreisangehörige_Gemeinde"},"district":{"key":"05754","name":"Gütersloh","type":"Kreis"},"federalState":{"key":"05","name":"Nordrhein-Westfalen"}},{"name":"Starenweg","postalCode":"33803","locality":"Steinhagen","municipality":{"key":"05754040","name":"Steinhagen","type":"Kreisangehörige_Gemeinde"},"district":{"key":"05754","name":"Gütersloh","type":"Kreis"},"federalState":{"key":"05","name":"Nordrhein-Westfalen"}},{"name":"Stettiner Str.","postalCode":"33803","locality":"Steinhagen","municipality":{"key":"05754040","name":"Steinhagen","type":"Kreisangehörige_Gemeinde"},"district":{"key":"05754","name":"Gütersloh","type":"Kreis"},"federalState":{"key":"05","name":"Nordrhein-Westfalen"}},{"name":"St.-Hedwig-Str.","postalCode":"33803","locality":"Steinhagen","municipality":{"key":"05754040","name":"Steinhagen","type":"Kreisangehörige_Gemeinde"},"district":{"key":"05754","name":"Gütersloh","type":"Kreis"},"federalState":{"key":"05","name":"Nordrhein-Westfalen"}},{"name":"Stieglitzweg","postalCode":"33803","locality":"Steinhagen","municipality":{"key":"05754040","name":"Steinhagen","type":"Kreisangehörige_Gemeinde"},"district":{"key":"05754","name":"Gütersloh","type":"Kreis"},"federalState":{"key":"05","name":"Nordrhein-Westfalen"}},{"name":"Stralsunder Str.","postalCode":"33803","locality":"Steinhagen","municipality":{"key":"05754040","name":"Steinhagen","type":"Kreisangehörige_Gemeinde"},"district":{"key":"05754","name":"Gütersloh","type":"Kreis"},"federalState":{"key":"05","name":"Nordrhein-Westfalen"}},{"name":"Str. der Jugend","postalCode":"18442","locality":"Steinhagen","municipality":{"key":"13073087","name":"Steinhagen","type":"Kreisangehörige_Gemeinde"},"district":{"key":"13073","name":"Vorpommern-Rügen","type":"Landkreis"},"federalState":{"key":"13","name":"Mecklenburg-Vorpommern"}},{"name":"Suhler Str.","postalCode":"33803","locality":"Steinhagen","municipality":{"key":"05754040","name":"Steinhagen","type":"Kreisangehörige_Gemeinde"},"district":{"key":"05754","name":"Gütersloh","type":"Kreis"},"federalState":{"key":"05","name":"Nordrhein-Westfalen"}},{"name":"Sürenbrink","postalCode":"33803","locality":"Steinhagen","municipality":{"key":"05754040","name":"Steinhagen","type":"Kreisangehörige_Gemeinde"},"district":{"key":"05754","name":"Gütersloh","type":"Kreis"},"federalState":{"key":"05","name":"Nordrhein-Westfalen"}},{"name":"Swinemünder Str.","postalCode":"33803","locality":"Steinhagen","municipality":{"key":"05754040","name":"Steinhagen","type":"Kreisangehörige_Gemeinde"},"district":{"key":"05754","name":"Gütersloh","type":"Kreis"},"federalState":{"key":"05","name":"Nordrhein-Westfalen"}},{"name":"Tannenberg","postalCode":"18246","locality":"Steinhagen","municipality":{"key":"13072101","name":"Steinhagen","type":"Kreisangehörige_Gemeinde"},"district":{"key":"13072","name":"Landkreis Rostock","type":"Landkreis"},"federalState":{"key":"13","name":"Mecklenburg-Vorpommern"}},{"name":"Tannenweg","postalCode":"18442","locality":"Steinhagen","municipality":{"key":"13073087","name":"Steinhagen","type":"Kreisangehörige_Gemeinde"},"district":{"key":"13073","name":"Vorpommern-Rügen","type":"Landkreis"},"federalState":{"key":"13","name":"Mecklenburg-Vorpommern"}},{"name":"Taschehof","postalCode":"33803","locality":"Steinhagen","municipality":{"key":"05754040","name":"Steinhagen","type":"Kreisangehörige_Gemeinde"},"district":{"key":"05754","name":"Gütersloh","type":"Kreis"},"federalState":{"key":"05","name":"Nordrhein-Westfalen"}},{"name":"Taubenweg","postalCode":"33803","locality":"Steinhagen","municipality":{"key":"05754040","name":"Steinhagen","type":"Kreisangehörige_Gemeinde"},"district":{"key":"05754","name":"Gütersloh","type":"Kreis"},"federalState":{"key":"05","name":"Nordrhein-Westfalen"}},{"name":"Teichweg","postalCode":"18442","locality":"Steinhagen","municipality":{"key":"13073087","name":"Steinhagen","type":"Kreisangehörige_Gemeinde"},"district":{"key":"13073","name":"Vorpommern-Rügen","type":"Landkreis"},"federalState":{"key":"13","name":"Mecklenburg-Vorpommern"}},{"name":"Teplitzer Str.","postalCode":"33803","locality":"Steinhagen","municipality":{"key":"05754040","name":"Steinhagen","type":"Kreisangehörige_Gemeinde"},"district":{"key":"05754","name":"Gütersloh","type":"Kreis"},"federalState":{"key":"05","name":"Nordrhein-Westfalen"}},{"name":"Teutoburger Str.","postalCode":"33803","locality":"Steinhagen","municipality":{"key":"05754040","name":"Steinhagen","type":"Kreisangehörige_Gemeinde"},"district":{"key":"05754","name":"Gütersloh","type":"Kreis"},"federalState":{"key":"05","name":"Nordrhein-Westfalen"}},{"name":"Thunheide","postalCode":"33803","locality":"Steinhagen","municipality":{"key":"05754040","name":"Steinhagen","type":"Kreisangehörige_Gemeinde"},"district":{"key":"05754","name":"Gütersloh","type":"Kreis"},"federalState":{"key":"05","name":"Nordrhein-Westfalen"}},{"name":"Tiergarten","postalCode":"33803","locality":"Steinhagen","municipality":{"key":"05754040","name":"Steinhagen","type":"Kreisangehörige_Gemeinde"},"district":{"key":"05754","name":"Gütersloh","type":"Kreis"},"federalState":{"key":"05","name":"Nordrhein-Westfalen"}},{"name":"Tilsiter Str.","postalCode":"33803","locality":"Steinhagen","municipality":{"key":"05754040","name":"Steinhagen","type":"Kreisangehörige_Gemeinde"},"district":{"key":"05754","name":"Gütersloh","type":"Kreis"},"federalState":{"key":"05","name":"Nordrhein-Westfalen"}},{"name":"Tizianweg","postalCode":"33803","locality":"Steinhagen","municipality":{"key":"05754040","name":"Steinhagen","type":"Kreisangehörige_Gemeinde"},"district":{"key":"05754","name":"Gütersloh","type":"Kreis"},"federalState":{"key":"05","name":"Nordrhein-Westfalen"}},{"name":"Tonkrukenhof","postalCode":"33803","locality":"Steinhagen","municipality":{"key":"05754040","name":"Steinhagen","type":"Kreisangehörige_Gemeinde"},"district":{"key":"05754","name":"Gütersloh","type":"Kreis"},"federalState":{"key":"05","name":"Nordrhein-Westfalen"}},{"name":"Traubenstr.","postalCode":"33803","locality":"Steinhagen","municipality":{"key":"05754040","name":"Steinhagen","type":"Kreisangehörige_Gemeinde"},"district":{"key":"05754","name":"Gütersloh","type":"Kreis"},"federalState":{"key":"05","name":"Nordrhein-Westfalen"}},{"name":"Tulpenstr.","postalCode":"33803","locality":"Steinhagen","municipality":{"key":"05754040","name":"Steinhagen","type":"Kreisangehörige_Gemeinde"},"district":{"key":"05754","name":"Gütersloh","type":"Kreis"},"federalState":{"key":"05","name":"Nordrhein-Westfalen"}},{"name":"Uhlandstr.","postalCode":"33803","locality":"Steinhagen","municipality":{"key":"05754040","name":"Steinhagen","type":"Kreisangehörige_Gemeinde"},"district":{"key":"05754","name":"Gütersloh","type":"Kreis"},"federalState":{"key":"05","name":"Nordrhein-Westfalen"}},{"name":"Ummelner Str.","postalCode":"33803","locality":"Steinhagen","municipality":{"key":"05754040","name":"Steinhagen","type":"Kreisangehörige_Gemeinde"},"district":{"key":"05754","name":"Gütersloh","type":"Kreis"},"federalState":{"key":"05","name":"Nordrhein-Westfalen"}},{"name":"Unterer Steinweg","postalCode":"33803","locality":"Steinhagen","municipality":{"key":"05754040","name":"Steinhagen","type":"Kreisangehörige_Gemeinde"},"district":{"key":"05754","name":"Gütersloh","type":"Kreis"},"federalState":{"key":"05","name":"Nordrhein-Westfalen"}},{"name":"Unteres Feld","postalCode":"33803","locality":"Steinhagen","municipality":{"key":"05754040","name":"Steinhagen","type":"Kreisangehörige_Gemeinde"},"district":{"key":"05754","name":"Gütersloh","type":"Kreis"},"federalState":{"key":"05","name":"Nordrhein-Westfalen"}},{"name":"Upheider Weg","postalCode":"33803","locality":"Steinhagen","municipality":{"key":"05754040","name":"Steinhagen","type":"Kreisangehörige_Gemeinde"},"district":{"key":"05754","name":"Gütersloh","type":"Kreis"},"federalState":{"key":"05","name":"Nordrhein-Westfalen"}},{"name":"Veilchenstr.","postalCode":"33803","locality":"Steinhagen","municipality":{"key":"05754040","name":"Steinhagen","type":"Kreisangehörige_Gemeinde"},"district":{"key":"05754","name":"Gütersloh","type":"Kreis"},"federalState":{"key":"05","name":"Nordrhein-Westfalen"}},{"name":"Vennorter Str.","postalCode":"33803","locality":"Steinhagen","municipality":{"key":"05754040","name":"Steinhagen","type":"Kreisangehörige_Gemeinde"},"district":{"key":"05754","name":"Gütersloh","type":"Kreis"},"federalState":{"key":"05","name":"Nordrhein-Westfalen"}},{"name":"Von-Stauffenberg-Str.","postalCode":"33803","locality":"Steinhagen","municipality":{"key":"05754040","name":"Steinhagen","type":"Kreisangehörige_Gemeinde"},"district":{"key":"05754","name":"Gütersloh","type":"Kreis"},"federalState":{"key":"05","name":"Nordrhein-Westfalen"}},{"name":"Voßheide","postalCode":"33803","locality":"Steinhagen","municipality":{"key":"05754040","name":"Steinhagen","type":"Kreisangehörige_Gemeinde"},"district":{"key":"05754","name":"Gütersloh","type":"Kreis"},"federalState":{"key":"05","name":"Nordrhein-Westfalen"}},{"name":"Wacholderhof","postalCode":"33803","locality":"Steinhagen","municipality":{"key":"05754040","name":"Steinhagen","type":"Kreisangehörige_Gemeinde"},"district":{"key":"05754","name":"Gütersloh","type":"Kreis"},"federalState":{"key":"05","name":"Nordrhein-Westfalen"}},{"name":"Wacholderweg","postalCode":"18442","locality":"Steinhagen","municipality":{"key":"13073087","name":"Steinhagen","type":"Kreisangehörige_Gemeinde"},"district":{"key":"13073","name":"Vorpommern-Rügen","type":"Landkreis"},"federalState":{"key":"13","name":"Mecklenburg-Vorpommern"}},{"name":"Wagnerstr.","postalCode":"33803","locality":"Steinhagen","municipality":{"key":"05754040","name":"Steinhagen","type":"Kreisangehörige_Gemeinde"},"district":{"key":"05754","name":"Gütersloh","type":"Kreis"},"federalState":{"key":"05","name":"Nordrhein-Westfalen"}},{"name":"Waldbadstr.","postalCode":"33803","locality":"Steinhagen","municipality":{"key":"05754040","name":"Steinhagen","type":"Kreisangehörige_Gemeinde"},"district":{"key":"05754","name":"Gütersloh","type":"Kreis"},"federalState":{"key":"05","name":"Nordrhein-Westfalen"}},{"name":"Waldenburger Str.","postalCode":"33803","locality":"Steinhagen","municipality":{"key":"05754040","name":"Steinhagen","type":"Kreisangehörige_Gemeinde"},"district":{"key":"05754","name":"Gütersloh","type":"Kreis"},"federalState":{"key":"05","name":"Nordrhein-Westfalen"}},{"name":"Waldweg","postalCode":"18442","locality":"Steinhagen","municipality":{"key":"13073087","name":"Steinhagen","type":"Kreisangehörige_Gemeinde"},"district":{"key":"13073","name":"Vorpommern-Rügen","type":"Landkreis"},"federalState":{"key":"13","name":"Mecklenburg-Vorpommern"}},{"name":"Weberstr.","postalCode":"33803","locality":"Steinhagen","municipality":{"key":"05754040","name":"Steinhagen","type":"Kreisangehörige_Gemeinde"},"district":{"key":"05754","name":"Gütersloh","type":"Kreis"},"federalState":{"key":"05","name":"Nordrhein-Westfalen"}},{"name":"Weidenring","postalCode":"18442","locality":"Steinhagen","municipality":{"key":"13073087","name":"Steinhagen","type":"Kreisangehörige_Gemeinde"},"district":{"key":"13073","name":"Vorpommern-Rügen","type":"Landkreis"},"federalState":{"key":"13","name":"Mecklenburg-Vorpommern"}},{"name":"Weimarer Str.","postalCode":"33803","locality":"Steinhagen","municipality":{"key":"05754040","name":"Steinhagen","type":"Kreisangehörige_Gemeinde"},"district":{"key":"05754","name":"Gütersloh","type":"Kreis"},"federalState":{"key":"05","name":"Nordrhein-Westfalen"}},{"name":"Weißdornweg","postalCode":"18442","locality":"Steinhagen","municipality":{"key":"13073087","name":"Steinhagen","type":"Kreisangehörige_Gemeinde"},"district":{"key":"13073","name":"Vorpommern-Rügen","type":"Landkreis"},"federalState":{"key":"13","name":"Mecklenburg-Vorpommern"}},{"name":"Wendorfer Weg","postalCode":"18442","locality":"Steinhagen","municipality":{"key":"13073087","name":"Steinhagen","type":"Kreisangehörige_Gemeinde"},"district":{"key":"13073","name":"Vorpommern-Rügen","type":"Landkreis"},"federalState":{"key":"13","name":"Mecklenburg-Vorpommern"}},{"name":"Westernkamp","postalCode":"33803","locality":"Steinhagen","municipality":{"key":"05754040","name":"Steinhagen","type":"Kreisangehörige_Gemeinde"},"district":{"key":"05754","name":"Gütersloh","type":"Kreis"},"federalState":{"key":"05","name":"Nordrhein-Westfalen"}},{"name":"Wiesenblick","postalCode":"18442","locality":"Steinhagen","municipality":{"key":"13073087","name":"Steinhagen","type":"Kreisangehörige_Gemeinde"},"district":{"key":"13073","name":"Vorpommern-Rügen","type":"Landkreis"},"federalState":{"key":"13","name":"Mecklenburg-Vorpommern"}},{"name":"Wiesengrund","postalCode":"33803","locality":"Steinhagen","municipality":{"key":"05754040","name":"Steinhagen","type":"Kreisangehörige_Gemeinde"},"district":{"key":"05754","name":"Gütersloh","type":"Kreis"},"federalState":{"key":"05","name":"Nordrhein-Westfalen"}},{"name":"Wildrosenweg","postalCode":"18442","locality":"Steinhagen","municipality":{"key":"13073087","name":"Steinhagen","type":"Kreisangehörige_Gemeinde"},"district":{"key":"13073","name":"Vorpommern-Rügen","type":"Landkreis"},"federalState":{"key":"13","name":"Mecklenburg-Vorpommern"}},{"name":"Wilhelmstr.","postalCode":"33803","locality":"Steinhagen","municipality":{"key":"05754040","name":"Steinhagen","type":"Kreisangehörige_Gemeinde"},"district":{"key":"05754","name":"Gütersloh","type":"Kreis"},"federalState":{"key":"05","name":"Nordrhein-Westfalen"}},{"name":"Wirtschaftshof","postalCode":"18442","locality":"Steinhagen","municipality":{"key":"13073087","name":"Steinhagen","type":"Kreisangehörige_Gemeinde"},"district":{"key":"13073","name":"Vorpommern-Rügen","type":"Landkreis"},"federalState":{"key":"13","name":"Mecklenburg-Vorpommern"}},{"name":"Wittenborghof","postalCode":"33803","locality":"Steinhagen","municipality":{"key":"05754040","name":"Steinhagen","type":"Kreisangehörige_Gemeinde"},"district":{"key":"05754","name":"Gütersloh","type":"Kreis"},"federalState":{"key":"05","name":"Nordrhein-Westfalen"}},{"name":"Woerdener Str.","postalCode":"33803","locality":"Steinhagen","municipality":{"key":"05754040","name":"Steinhagen","type":"Kreisangehörige_Gemeinde"},"district":{"key":"05754","name":"Gütersloh","type":"Kreis"},"federalState":{"key":"05","name":"Nordrhein-Westfalen"}},{"name":"Wolliner Str.","postalCode":"33803","locality":"Steinhagen","municipality":{"key":"05754040","name":"Steinhagen","type":"Kreisangehörige_Gemeinde"},"district":{"key":"05754","name":"Gütersloh","type":"Kreis"},"federalState":{"key":"05","name":"Nordrhein-Westfalen"}},{"name":"Zarrendorfer Weg","postalCode":"18442","locality":"Steinhagen","municipality":{"key":"13073087","name":"Steinhagen","type":"Kreisangehörige_Gemeinde"},"district":{"key":"13073","name":"Vorpommern-Rügen","type":"Landkreis"},"federalState":{"key":"13","name":"Mecklenburg-Vorpommern"}},{"name":"Zeisigweg","postalCode":"33803","locality":"Steinhagen","municipality":{"key":"05754040","name":"Steinhagen","type":"Kreisangehörige_Gemeinde"},"district":{"key":"05754","name":"Gütersloh","type":"Kreis"},"federalState":{"key":"05","name":"Nordrhein-Westfalen"}},{"name":"Zum Wiesengrund","postalCode":"18246","locality":"Steinhagen","municipality":{"key":"13072101","name":"Steinhagen","type":"Kreisangehörige_Gemeinde"},"district":{"key":"13072","name":"Landkreis Rostock","type":"Landkreis"},"federalState":{"key":"13","name":"Mecklenburg-Vorpommern"}},]