[{"name":"Adolf-Kolping-Str.","postalCode":"74743","locality":"Seckach","municipality":{"key":"08225091","name":"Seckach","type":"Kreisangehörige_Gemeinde"},"district":{"key":"08225","name":"Neckar-Odenwald-Kreis","type":"Landkreis"},"federalState":{"key":"08","name":"Baden-Württemberg"}},{"name":"Am Häldegraben","postalCode":"74743","locality":"Seckach","municipality":{"key":"08225091","name":"Seckach","type":"Kreisangehörige_Gemeinde"},"district":{"key":"08225","name":"Neckar-Odenwald-Kreis","type":"Landkreis"},"federalState":{"key":"08","name":"Baden-Württemberg"}},{"name":"Am Lenzengarten","postalCode":"74743","locality":"Seckach","municipality":{"key":"08225091","name":"Seckach","type":"Kreisangehörige_Gemeinde"},"district":{"key":"08225","name":"Neckar-Odenwald-Kreis","type":"Landkreis"},"federalState":{"key":"08","name":"Baden-Württemberg"}},{"name":"Am Rank","postalCode":"74743","locality":"Seckach","municipality":{"key":"08225091","name":"Seckach","type":"Kreisangehörige_Gemeinde"},"district":{"key":"08225","name":"Neckar-Odenwald-Kreis","type":"Landkreis"},"federalState":{"key":"08","name":"Baden-Württemberg"}},{"name":"Am Schallberg","postalCode":"74743","locality":"Seckach","municipality":{"key":"08225091","name":"Seckach","type":"Kreisangehörige_Gemeinde"},"district":{"key":"08225","name":"Neckar-Odenwald-Kreis","type":"Landkreis"},"federalState":{"key":"08","name":"Baden-Württemberg"}},{"name":"Am Schefflenzer Weg","postalCode":"74743","locality":"Seckach","municipality":{"key":"08225091","name":"Seckach","type":"Kreisangehörige_Gemeinde"},"district":{"key":"08225","name":"Neckar-Odenwald-Kreis","type":"Landkreis"},"federalState":{"key":"08","name":"Baden-Württemberg"}},{"name":"Am Schlierbach","postalCode":"74743","locality":"Seckach","municipality":{"key":"08225091","name":"Seckach","type":"Kreisangehörige_Gemeinde"},"district":{"key":"08225","name":"Neckar-Odenwald-Kreis","type":"Landkreis"},"federalState":{"key":"08","name":"Baden-Württemberg"}},{"name":"Am Schloßgarten","postalCode":"74743","locality":"Seckach","municipality":{"key":"08225091","name":"Seckach","type":"Kreisangehörige_Gemeinde"},"district":{"key":"08225","name":"Neckar-Odenwald-Kreis","type":"Landkreis"},"federalState":{"key":"08","name":"Baden-Württemberg"}},{"name":"Amtmann Weg","postalCode":"74743","locality":"Seckach","municipality":{"key":"08225091","name":"Seckach","type":"Kreisangehörige_Gemeinde"},"district":{"key":"08225","name":"Neckar-Odenwald-Kreis","type":"Landkreis"},"federalState":{"key":"08","name":"Baden-Württemberg"}},{"name":"Am Vogelsang","postalCode":"74743","locality":"Seckach","municipality":{"key":"08225091","name":"Seckach","type":"Kreisangehörige_Gemeinde"},"district":{"key":"08225","name":"Neckar-Odenwald-Kreis","type":"Landkreis"},"federalState":{"key":"08","name":"Baden-Württemberg"}},{"name":"Am Weißdorn","postalCode":"74743","locality":"Seckach","municipality":{"key":"08225091","name":"Seckach","type":"Kreisangehörige_Gemeinde"},"district":{"key":"08225","name":"Neckar-Odenwald-Kreis","type":"Landkreis"},"federalState":{"key":"08","name":"Baden-Württemberg"}},{"name":"Am Winterbaum","postalCode":"74743","locality":"Seckach","municipality":{"key":"08225091","name":"Seckach","type":"Kreisangehörige_Gemeinde"},"district":{"key":"08225","name":"Neckar-Odenwald-Kreis","type":"Landkreis"},"federalState":{"key":"08","name":"Baden-Württemberg"}},{"name":"Am Wolfert","postalCode":"74743","locality":"Seckach","municipality":{"key":"08225091","name":"Seckach","type":"Kreisangehörige_Gemeinde"},"district":{"key":"08225","name":"Neckar-Odenwald-Kreis","type":"Landkreis"},"federalState":{"key":"08","name":"Baden-Württemberg"}},{"name":"An der Mauer","postalCode":"74743","locality":"Seckach","municipality":{"key":"08225091","name":"Seckach","type":"Kreisangehörige_Gemeinde"},"district":{"key":"08225","name":"Neckar-Odenwald-Kreis","type":"Landkreis"},"federalState":{"key":"08","name":"Baden-Württemberg"}},{"name":"An der Mühlsteige","postalCode":"74743","locality":"Seckach","municipality":{"key":"08225091","name":"Seckach","type":"Kreisangehörige_Gemeinde"},"district":{"key":"08225","name":"Neckar-Odenwald-Kreis","type":"Landkreis"},"federalState":{"key":"08","name":"Baden-Württemberg"}},{"name":"An der Steige","postalCode":"74743","locality":"Seckach","municipality":{"key":"08225091","name":"Seckach","type":"Kreisangehörige_Gemeinde"},"district":{"key":"08225","name":"Neckar-Odenwald-Kreis","type":"Landkreis"},"federalState":{"key":"08","name":"Baden-Württemberg"}},{"name":"Anselm-von-Eicholzheim-Str.","postalCode":"74743","locality":"Seckach","municipality":{"key":"08225091","name":"Seckach","type":"Kreisangehörige_Gemeinde"},"district":{"key":"08225","name":"Neckar-Odenwald-Kreis","type":"Landkreis"},"federalState":{"key":"08","name":"Baden-Württemberg"}},{"name":"Bahnhofstr.","postalCode":"74743","locality":"Seckach","municipality":{"key":"08225091","name":"Seckach","type":"Kreisangehörige_Gemeinde"},"district":{"key":"08225","name":"Neckar-Odenwald-Kreis","type":"Landkreis"},"federalState":{"key":"08","name":"Baden-Württemberg"}},{"name":"Banngasse","postalCode":"74743","locality":"Seckach","municipality":{"key":"08225091","name":"Seckach","type":"Kreisangehörige_Gemeinde"},"district":{"key":"08225","name":"Neckar-Odenwald-Kreis","type":"Landkreis"},"federalState":{"key":"08","name":"Baden-Württemberg"}},{"name":"Bannholzsiedlung","postalCode":"74743","locality":"Seckach","municipality":{"key":"08225091","name":"Seckach","type":"Kreisangehörige_Gemeinde"},"district":{"key":"08225","name":"Neckar-Odenwald-Kreis","type":"Landkreis"},"federalState":{"key":"08","name":"Baden-Württemberg"}},{"name":"Bannholzstr.","postalCode":"74743","locality":"Seckach","municipality":{"key":"08225091","name":"Seckach","type":"Kreisangehörige_Gemeinde"},"district":{"key":"08225","name":"Neckar-Odenwald-Kreis","type":"Landkreis"},"federalState":{"key":"08","name":"Baden-Württemberg"}},{"name":"Bergstr.","postalCode":"74743","locality":"Seckach","municipality":{"key":"08225091","name":"Seckach","type":"Kreisangehörige_Gemeinde"},"district":{"key":"08225","name":"Neckar-Odenwald-Kreis","type":"Landkreis"},"federalState":{"key":"08","name":"Baden-Württemberg"}},{"name":"Bildweg","postalCode":"74743","locality":"Seckach","municipality":{"key":"08225091","name":"Seckach","type":"Kreisangehörige_Gemeinde"},"district":{"key":"08225","name":"Neckar-Odenwald-Kreis","type":"Landkreis"},"federalState":{"key":"08","name":"Baden-Württemberg"}},{"name":"Birkenweg","postalCode":"74743","locality":"Seckach","municipality":{"key":"08225091","name":"Seckach","type":"Kreisangehörige_Gemeinde"},"district":{"key":"08225","name":"Neckar-Odenwald-Kreis","type":"Landkreis"},"federalState":{"key":"08","name":"Baden-Württemberg"}},{"name":"Birksiedlung","postalCode":"74743","locality":"Seckach","municipality":{"key":"08225091","name":"Seckach","type":"Kreisangehörige_Gemeinde"},"district":{"key":"08225","name":"Neckar-Odenwald-Kreis","type":"Landkreis"},"federalState":{"key":"08","name":"Baden-Württemberg"}},{"name":"Brückenstr.","postalCode":"74743","locality":"Seckach","municipality":{"key":"08225091","name":"Seckach","type":"Kreisangehörige_Gemeinde"},"district":{"key":"08225","name":"Neckar-Odenwald-Kreis","type":"Landkreis"},"federalState":{"key":"08","name":"Baden-Württemberg"}},{"name":"Butzengasse","postalCode":"74743","locality":"Seckach","municipality":{"key":"08225091","name":"Seckach","type":"Kreisangehörige_Gemeinde"},"district":{"key":"08225","name":"Neckar-Odenwald-Kreis","type":"Landkreis"},"federalState":{"key":"08","name":"Baden-Württemberg"}},{"name":"Dekan-Blatz-Str.","postalCode":"74743","locality":"Seckach","municipality":{"key":"08225091","name":"Seckach","type":"Kreisangehörige_Gemeinde"},"district":{"key":"08225","name":"Neckar-Odenwald-Kreis","type":"Landkreis"},"federalState":{"key":"08","name":"Baden-Württemberg"}},{"name":"Eberstadter Str.","postalCode":"74743","locality":"Seckach","municipality":{"key":"08225091","name":"Seckach","type":"Kreisangehörige_Gemeinde"},"district":{"key":"08225","name":"Neckar-Odenwald-Kreis","type":"Landkreis"},"federalState":{"key":"08","name":"Baden-Württemberg"}},{"name":"Eicholzheimer Str.","postalCode":"74743","locality":"Seckach","municipality":{"key":"08225091","name":"Seckach","type":"Kreisangehörige_Gemeinde"},"district":{"key":"08225","name":"Neckar-Odenwald-Kreis","type":"Landkreis"},"federalState":{"key":"08","name":"Baden-Württemberg"}},{"name":"Eschstr.","postalCode":"74743","locality":"Seckach","municipality":{"key":"08225091","name":"Seckach","type":"Kreisangehörige_Gemeinde"},"district":{"key":"08225","name":"Neckar-Odenwald-Kreis","type":"Landkreis"},"federalState":{"key":"08","name":"Baden-Württemberg"}},{"name":"Fasanenweg","postalCode":"74743","locality":"Seckach","municipality":{"key":"08225091","name":"Seckach","type":"Kreisangehörige_Gemeinde"},"district":{"key":"08225","name":"Neckar-Odenwald-Kreis","type":"Landkreis"},"federalState":{"key":"08","name":"Baden-Württemberg"}},{"name":"Finkenweg","postalCode":"74743","locality":"Seckach","municipality":{"key":"08225091","name":"Seckach","type":"Kreisangehörige_Gemeinde"},"district":{"key":"08225","name":"Neckar-Odenwald-Kreis","type":"Landkreis"},"federalState":{"key":"08","name":"Baden-Württemberg"}},{"name":"Friedhofstr.","postalCode":"74743","locality":"Seckach","municipality":{"key":"08225091","name":"Seckach","type":"Kreisangehörige_Gemeinde"},"district":{"key":"08225","name":"Neckar-Odenwald-Kreis","type":"Landkreis"},"federalState":{"key":"08","name":"Baden-Württemberg"}},{"name":"Fussweg Tenne und Grundschule","postalCode":"74743","locality":"Seckach","municipality":{"key":"08225091","name":"Seckach","type":"Kreisangehörige_Gemeinde"},"district":{"key":"08225","name":"Neckar-Odenwald-Kreis","type":"Landkreis"},"federalState":{"key":"08","name":"Baden-Württemberg"}},{"name":"Gartenweg","postalCode":"74743","locality":"Seckach","municipality":{"key":"08225091","name":"Seckach","type":"Kreisangehörige_Gemeinde"},"district":{"key":"08225","name":"Neckar-Odenwald-Kreis","type":"Landkreis"},"federalState":{"key":"08","name":"Baden-Württemberg"}},{"name":"Grabenweg","postalCode":"74743","locality":"Seckach","municipality":{"key":"08225091","name":"Seckach","type":"Kreisangehörige_Gemeinde"},"district":{"key":"08225","name":"Neckar-Odenwald-Kreis","type":"Landkreis"},"federalState":{"key":"08","name":"Baden-Württemberg"}},{"name":"Grenzweg","postalCode":"74743","locality":"Seckach","municipality":{"key":"08225091","name":"Seckach","type":"Kreisangehörige_Gemeinde"},"district":{"key":"08225","name":"Neckar-Odenwald-Kreis","type":"Landkreis"},"federalState":{"key":"08","name":"Baden-Württemberg"}},{"name":"Grübenweg","postalCode":"74743","locality":"Seckach","municipality":{"key":"08225091","name":"Seckach","type":"Kreisangehörige_Gemeinde"},"district":{"key":"08225","name":"Neckar-Odenwald-Kreis","type":"Landkreis"},"federalState":{"key":"08","name":"Baden-Württemberg"}},{"name":"Hangstr.","postalCode":"74743","locality":"Seckach","municipality":{"key":"08225091","name":"Seckach","type":"Kreisangehörige_Gemeinde"},"district":{"key":"08225","name":"Neckar-Odenwald-Kreis","type":"Landkreis"},"federalState":{"key":"08","name":"Baden-Württemberg"}},{"name":"Hauptstr.","postalCode":"74743","locality":"Seckach","municipality":{"key":"08225091","name":"Seckach","type":"Kreisangehörige_Gemeinde"},"district":{"key":"08225","name":"Neckar-Odenwald-Kreis","type":"Landkreis"},"federalState":{"key":"08","name":"Baden-Württemberg"}},{"name":"Heinrich-Magnani-Str.","postalCode":"74743","locality":"Seckach","municipality":{"key":"08225091","name":"Seckach","type":"Kreisangehörige_Gemeinde"},"district":{"key":"08225","name":"Neckar-Odenwald-Kreis","type":"Landkreis"},"federalState":{"key":"08","name":"Baden-Württemberg"}},{"name":"Heldeweg","postalCode":"74743","locality":"Seckach","municipality":{"key":"08225091","name":"Seckach","type":"Kreisangehörige_Gemeinde"},"district":{"key":"08225","name":"Neckar-Odenwald-Kreis","type":"Landkreis"},"federalState":{"key":"08","name":"Baden-Württemberg"}},{"name":"Hesselweg","postalCode":"74743","locality":"Seckach","municipality":{"key":"08225091","name":"Seckach","type":"Kreisangehörige_Gemeinde"},"district":{"key":"08225","name":"Neckar-Odenwald-Kreis","type":"Landkreis"},"federalState":{"key":"08","name":"Baden-Württemberg"}},{"name":"Hintere Gasse","postalCode":"74743","locality":"Seckach","municipality":{"key":"08225091","name":"Seckach","type":"Kreisangehörige_Gemeinde"},"district":{"key":"08225","name":"Neckar-Odenwald-Kreis","type":"Landkreis"},"federalState":{"key":"08","name":"Baden-Württemberg"}},{"name":"Hochstr.","postalCode":"74743","locality":"Seckach","municipality":{"key":"08225091","name":"Seckach","type":"Kreisangehörige_Gemeinde"},"district":{"key":"08225","name":"Neckar-Odenwald-Kreis","type":"Landkreis"},"federalState":{"key":"08","name":"Baden-Württemberg"}},{"name":"Höhen Weg","postalCode":"74743","locality":"Seckach","municipality":{"key":"08225091","name":"Seckach","type":"Kreisangehörige_Gemeinde"},"district":{"key":"08225","name":"Neckar-Odenwald-Kreis","type":"Landkreis"},"federalState":{"key":"08","name":"Baden-Württemberg"}},{"name":"Hoklerkreuzweg","postalCode":"74743","locality":"Seckach","municipality":{"key":"08225091","name":"Seckach","type":"Kreisangehörige_Gemeinde"},"district":{"key":"08225","name":"Neckar-Odenwald-Kreis","type":"Landkreis"},"federalState":{"key":"08","name":"Baden-Württemberg"}},{"name":"Hölzer Weg","postalCode":"74743","locality":"Seckach","municipality":{"key":"08225091","name":"Seckach","type":"Kreisangehörige_Gemeinde"},"district":{"key":"08225","name":"Neckar-Odenwald-Kreis","type":"Landkreis"},"federalState":{"key":"08","name":"Baden-Württemberg"}},{"name":"Im Brügel","postalCode":"74743","locality":"Seckach","municipality":{"key":"08225091","name":"Seckach","type":"Kreisangehörige_Gemeinde"},"district":{"key":"08225","name":"Neckar-Odenwald-Kreis","type":"Landkreis"},"federalState":{"key":"08","name":"Baden-Württemberg"}},{"name":"Im Furth","postalCode":"74743","locality":"Seckach","municipality":{"key":"08225091","name":"Seckach","type":"Kreisangehörige_Gemeinde"},"district":{"key":"08225","name":"Neckar-Odenwald-Kreis","type":"Landkreis"},"federalState":{"key":"08","name":"Baden-Württemberg"}},{"name":"Im Höfle","postalCode":"74743","locality":"Seckach","municipality":{"key":"08225091","name":"Seckach","type":"Kreisangehörige_Gemeinde"},"district":{"key":"08225","name":"Neckar-Odenwald-Kreis","type":"Landkreis"},"federalState":{"key":"08","name":"Baden-Württemberg"}},{"name":"In der Au","postalCode":"74743","locality":"Seckach","municipality":{"key":"08225091","name":"Seckach","type":"Kreisangehörige_Gemeinde"},"district":{"key":"08225","name":"Neckar-Odenwald-Kreis","type":"Landkreis"},"federalState":{"key":"08","name":"Baden-Württemberg"}},{"name":"In der Wanne","postalCode":"74743","locality":"Seckach","municipality":{"key":"08225091","name":"Seckach","type":"Kreisangehörige_Gemeinde"},"district":{"key":"08225","name":"Neckar-Odenwald-Kreis","type":"Landkreis"},"federalState":{"key":"08","name":"Baden-Württemberg"}},{"name":"Industriestr.","postalCode":"74743","locality":"Seckach","municipality":{"key":"08225091","name":"Seckach","type":"Kreisangehörige_Gemeinde"},"district":{"key":"08225","name":"Neckar-Odenwald-Kreis","type":"Landkreis"},"federalState":{"key":"08","name":"Baden-Württemberg"}},{"name":"Julius-Fehr-Str.","postalCode":"74743","locality":"Seckach","municipality":{"key":"08225091","name":"Seckach","type":"Kreisangehörige_Gemeinde"},"district":{"key":"08225","name":"Neckar-Odenwald-Kreis","type":"Landkreis"},"federalState":{"key":"08","name":"Baden-Württemberg"}},{"name":"Kammweg","postalCode":"74743","locality":"Seckach","municipality":{"key":"08225091","name":"Seckach","type":"Kreisangehörige_Gemeinde"},"district":{"key":"08225","name":"Neckar-Odenwald-Kreis","type":"Landkreis"},"federalState":{"key":"08","name":"Baden-Württemberg"}},{"name":"Kinderdorfstr.","postalCode":"74743","locality":"Seckach","municipality":{"key":"08225091","name":"Seckach","type":"Kreisangehörige_Gemeinde"},"district":{"key":"08225","name":"Neckar-Odenwald-Kreis","type":"Landkreis"},"federalState":{"key":"08","name":"Baden-Württemberg"}},{"name":"Kindergartenweg","postalCode":"74743","locality":"Seckach","municipality":{"key":"08225091","name":"Seckach","type":"Kreisangehörige_Gemeinde"},"district":{"key":"08225","name":"Neckar-Odenwald-Kreis","type":"Landkreis"},"federalState":{"key":"08","name":"Baden-Württemberg"}},{"name":"Kirchgasse","postalCode":"74743","locality":"Seckach","municipality":{"key":"08225091","name":"Seckach","type":"Kreisangehörige_Gemeinde"},"district":{"key":"08225","name":"Neckar-Odenwald-Kreis","type":"Landkreis"},"federalState":{"key":"08","name":"Baden-Württemberg"}},{"name":"Kirchgrundweg","postalCode":"74743","locality":"Seckach","municipality":{"key":"08225091","name":"Seckach","type":"Kreisangehörige_Gemeinde"},"district":{"key":"08225","name":"Neckar-Odenwald-Kreis","type":"Landkreis"},"federalState":{"key":"08","name":"Baden-Württemberg"}},{"name":"Klingesteige","postalCode":"74743","locality":"Seckach","municipality":{"key":"08225091","name":"Seckach","type":"Kreisangehörige_Gemeinde"},"district":{"key":"08225","name":"Neckar-Odenwald-Kreis","type":"Landkreis"},"federalState":{"key":"08","name":"Baden-Württemberg"}},{"name":"Klingestr.","postalCode":"74743","locality":"Seckach","municipality":{"key":"08225091","name":"Seckach","type":"Kreisangehörige_Gemeinde"},"district":{"key":"08225","name":"Neckar-Odenwald-Kreis","type":"Landkreis"},"federalState":{"key":"08","name":"Baden-Württemberg"}},{"name":"Klosterweg","postalCode":"74743","locality":"Seckach","municipality":{"key":"08225091","name":"Seckach","type":"Kreisangehörige_Gemeinde"},"district":{"key":"08225","name":"Neckar-Odenwald-Kreis","type":"Landkreis"},"federalState":{"key":"08","name":"Baden-Württemberg"}},{"name":"Kornbrunnenweg","postalCode":"74743","locality":"Seckach","municipality":{"key":"08225091","name":"Seckach","type":"Kreisangehörige_Gemeinde"},"district":{"key":"08225","name":"Neckar-Odenwald-Kreis","type":"Landkreis"},"federalState":{"key":"08","name":"Baden-Württemberg"}},{"name":"Kronengasse","postalCode":"74743","locality":"Seckach","municipality":{"key":"08225091","name":"Seckach","type":"Kreisangehörige_Gemeinde"},"district":{"key":"08225","name":"Neckar-Odenwald-Kreis","type":"Landkreis"},"federalState":{"key":"08","name":"Baden-Württemberg"}},{"name":"Laßklingenweg","postalCode":"74743","locality":"Seckach","municipality":{"key":"08225091","name":"Seckach","type":"Kreisangehörige_Gemeinde"},"district":{"key":"08225","name":"Neckar-Odenwald-Kreis","type":"Landkreis"},"federalState":{"key":"08","name":"Baden-Württemberg"}},{"name":"Lerchenweg","postalCode":"74743","locality":"Seckach","municipality":{"key":"08225091","name":"Seckach","type":"Kreisangehörige_Gemeinde"},"district":{"key":"08225","name":"Neckar-Odenwald-Kreis","type":"Landkreis"},"federalState":{"key":"08","name":"Baden-Württemberg"}},{"name":"Lilienstr.","postalCode":"74743","locality":"Seckach","municipality":{"key":"08225091","name":"Seckach","type":"Kreisangehörige_Gemeinde"},"district":{"key":"08225","name":"Neckar-Odenwald-Kreis","type":"Landkreis"},"federalState":{"key":"08","name":"Baden-Württemberg"}},{"name":"Marktplatz","postalCode":"74743","locality":"Seckach","municipality":{"key":"08225091","name":"Seckach","type":"Kreisangehörige_Gemeinde"},"district":{"key":"08225","name":"Neckar-Odenwald-Kreis","type":"Landkreis"},"federalState":{"key":"08","name":"Baden-Württemberg"}},{"name":"Meisenweg","postalCode":"74743","locality":"Seckach","municipality":{"key":"08225091","name":"Seckach","type":"Kreisangehörige_Gemeinde"},"district":{"key":"08225","name":"Neckar-Odenwald-Kreis","type":"Landkreis"},"federalState":{"key":"08","name":"Baden-Württemberg"}},{"name":"Mittelgasse","postalCode":"74743","locality":"Seckach","municipality":{"key":"08225091","name":"Seckach","type":"Kreisangehörige_Gemeinde"},"district":{"key":"08225","name":"Neckar-Odenwald-Kreis","type":"Landkreis"},"federalState":{"key":"08","name":"Baden-Württemberg"}},{"name":"Mittelweg","postalCode":"74743","locality":"Seckach","municipality":{"key":"08225091","name":"Seckach","type":"Kreisangehörige_Gemeinde"},"district":{"key":"08225","name":"Neckar-Odenwald-Kreis","type":"Landkreis"},"federalState":{"key":"08","name":"Baden-Württemberg"}},{"name":"Neuer Weg","postalCode":"74743","locality":"Seckach","municipality":{"key":"08225091","name":"Seckach","type":"Kreisangehörige_Gemeinde"},"district":{"key":"08225","name":"Neckar-Odenwald-Kreis","type":"Landkreis"},"federalState":{"key":"08","name":"Baden-Württemberg"}},{"name":"Oberer Flachsberg","postalCode":"74743","locality":"Seckach","municipality":{"key":"08225091","name":"Seckach","type":"Kreisangehörige_Gemeinde"},"district":{"key":"08225","name":"Neckar-Odenwald-Kreis","type":"Landkreis"},"federalState":{"key":"08","name":"Baden-Württemberg"}},{"name":"Odenwaldstr.","postalCode":"74743","locality":"Seckach","municipality":{"key":"08225091","name":"Seckach","type":"Kreisangehörige_Gemeinde"},"district":{"key":"08225","name":"Neckar-Odenwald-Kreis","type":"Landkreis"},"federalState":{"key":"08","name":"Baden-Württemberg"}},{"name":"Pappelweg","postalCode":"74743","locality":"Seckach","municipality":{"key":"08225091","name":"Seckach","type":"Kreisangehörige_Gemeinde"},"district":{"key":"08225","name":"Neckar-Odenwald-Kreis","type":"Landkreis"},"federalState":{"key":"08","name":"Baden-Württemberg"}},{"name":"Pfaffenweg","postalCode":"74743","locality":"Seckach","municipality":{"key":"08225091","name":"Seckach","type":"Kreisangehörige_Gemeinde"},"district":{"key":"08225","name":"Neckar-Odenwald-Kreis","type":"Landkreis"},"federalState":{"key":"08","name":"Baden-Württemberg"}},{"name":"Planweg","postalCode":"74743","locality":"Seckach","municipality":{"key":"08225091","name":"Seckach","type":"Kreisangehörige_Gemeinde"},"district":{"key":"08225","name":"Neckar-Odenwald-Kreis","type":"Landkreis"},"federalState":{"key":"08","name":"Baden-Württemberg"}},{"name":"Postweg","postalCode":"74743","locality":"Seckach","municipality":{"key":"08225091","name":"Seckach","type":"Kreisangehörige_Gemeinde"},"district":{"key":"08225","name":"Neckar-Odenwald-Kreis","type":"Landkreis"},"federalState":{"key":"08","name":"Baden-Württemberg"}},{"name":"Rathausgasse","postalCode":"74743","locality":"Seckach","municipality":{"key":"08225091","name":"Seckach","type":"Kreisangehörige_Gemeinde"},"district":{"key":"08225","name":"Neckar-Odenwald-Kreis","type":"Landkreis"},"federalState":{"key":"08","name":"Baden-Württemberg"}},{"name":"Reichenbacher Str.","postalCode":"74743","locality":"Seckach","municipality":{"key":"08225091","name":"Seckach","type":"Kreisangehörige_Gemeinde"},"district":{"key":"08225","name":"Neckar-Odenwald-Kreis","type":"Landkreis"},"federalState":{"key":"08","name":"Baden-Württemberg"}},{"name":"Ringweg","postalCode":"74743","locality":"Seckach","municipality":{"key":"08225091","name":"Seckach","type":"Kreisangehörige_Gemeinde"},"district":{"key":"08225","name":"Neckar-Odenwald-Kreis","type":"Landkreis"},"federalState":{"key":"08","name":"Baden-Württemberg"}},{"name":"Rittersbacher Str.","postalCode":"74743","locality":"Seckach","municipality":{"key":"08225091","name":"Seckach","type":"Kreisangehörige_Gemeinde"},"district":{"key":"08225","name":"Neckar-Odenwald-Kreis","type":"Landkreis"},"federalState":{"key":"08","name":"Baden-Württemberg"}},{"name":"Röhrigstr.","postalCode":"74743","locality":"Seckach","municipality":{"key":"08225091","name":"Seckach","type":"Kreisangehörige_Gemeinde"},"district":{"key":"08225","name":"Neckar-Odenwald-Kreis","type":"Landkreis"},"federalState":{"key":"08","name":"Baden-Württemberg"}},{"name":"Römerstr.","postalCode":"74743","locality":"Seckach","municipality":{"key":"08225091","name":"Seckach","type":"Kreisangehörige_Gemeinde"},"district":{"key":"08225","name":"Neckar-Odenwald-Kreis","type":"Landkreis"},"federalState":{"key":"08","name":"Baden-Württemberg"}},{"name":"Rosenstr.","postalCode":"74743","locality":"Seckach","municipality":{"key":"08225091","name":"Seckach","type":"Kreisangehörige_Gemeinde"},"district":{"key":"08225","name":"Neckar-Odenwald-Kreis","type":"Landkreis"},"federalState":{"key":"08","name":"Baden-Württemberg"}},{"name":"Rossfeld Weg","postalCode":"74743","locality":"Seckach","municipality":{"key":"08225091","name":"Seckach","type":"Kreisangehörige_Gemeinde"},"district":{"key":"08225","name":"Neckar-Odenwald-Kreis","type":"Landkreis"},"federalState":{"key":"08","name":"Baden-Württemberg"}},{"name":"Saatschulweg","postalCode":"74743","locality":"Seckach","municipality":{"key":"08225091","name":"Seckach","type":"Kreisangehörige_Gemeinde"},"district":{"key":"08225","name":"Neckar-Odenwald-Kreis","type":"Landkreis"},"federalState":{"key":"08","name":"Baden-Württemberg"}},{"name":"Sahtschulweg","postalCode":"74743","locality":"Seckach","municipality":{"key":"08225091","name":"Seckach","type":"Kreisangehörige_Gemeinde"},"district":{"key":"08225","name":"Neckar-Odenwald-Kreis","type":"Landkreis"},"federalState":{"key":"08","name":"Baden-Württemberg"}},{"name":"Schefflenzer Str.","postalCode":"74743","locality":"Seckach","municipality":{"key":"08225091","name":"Seckach","type":"Kreisangehörige_Gemeinde"},"district":{"key":"08225","name":"Neckar-Odenwald-Kreis","type":"Landkreis"},"federalState":{"key":"08","name":"Baden-Württemberg"}},{"name":"Scheringer Weg","postalCode":"74743","locality":"Seckach","municipality":{"key":"08225091","name":"Seckach","type":"Kreisangehörige_Gemeinde"},"district":{"key":"08225","name":"Neckar-Odenwald-Kreis","type":"Landkreis"},"federalState":{"key":"08","name":"Baden-Württemberg"}},{"name":"Schloßstr.","postalCode":"74743","locality":"Seckach","municipality":{"key":"08225091","name":"Seckach","type":"Kreisangehörige_Gemeinde"},"district":{"key":"08225","name":"Neckar-Odenwald-Kreis","type":"Landkreis"},"federalState":{"key":"08","name":"Baden-Württemberg"}},{"name":"Schulstr.","postalCode":"74743","locality":"Seckach","municipality":{"key":"08225091","name":"Seckach","type":"Kreisangehörige_Gemeinde"},"district":{"key":"08225","name":"Neckar-Odenwald-Kreis","type":"Landkreis"},"federalState":{"key":"08","name":"Baden-Württemberg"}},{"name":"Schwimmbadweg","postalCode":"74743","locality":"Seckach","municipality":{"key":"08225091","name":"Seckach","type":"Kreisangehörige_Gemeinde"},"district":{"key":"08225","name":"Neckar-Odenwald-Kreis","type":"Landkreis"},"federalState":{"key":"08","name":"Baden-Württemberg"}},{"name":"Seckacher Str.","postalCode":"74743","locality":"Seckach","municipality":{"key":"08225091","name":"Seckach","type":"Kreisangehörige_Gemeinde"},"district":{"key":"08225","name":"Neckar-Odenwald-Kreis","type":"Landkreis"},"federalState":{"key":"08","name":"Baden-Württemberg"}},{"name":"Seestadtstr.","postalCode":"74743","locality":"Seckach","municipality":{"key":"08225091","name":"Seckach","type":"Kreisangehörige_Gemeinde"},"district":{"key":"08225","name":"Neckar-Odenwald-Kreis","type":"Landkreis"},"federalState":{"key":"08","name":"Baden-Württemberg"}},{"name":"Skulpturenpark Seckach","postalCode":"74743","locality":"Seckach","municipality":{"key":"08225091","name":"Seckach","type":"Kreisangehörige_Gemeinde"},"district":{"key":"08225","name":"Neckar-Odenwald-Kreis","type":"Landkreis"},"federalState":{"key":"08","name":"Baden-Württemberg"}},{"name":"Steinbruchstr.","postalCode":"74743","locality":"Seckach","municipality":{"key":"08225091","name":"Seckach","type":"Kreisangehörige_Gemeinde"},"district":{"key":"08225","name":"Neckar-Odenwald-Kreis","type":"Landkreis"},"federalState":{"key":"08","name":"Baden-Württemberg"}},{"name":"Tannen Weg","postalCode":"74743","locality":"Seckach","municipality":{"key":"08225091","name":"Seckach","type":"Kreisangehörige_Gemeinde"},"district":{"key":"08225","name":"Neckar-Odenwald-Kreis","type":"Landkreis"},"federalState":{"key":"08","name":"Baden-Württemberg"}},{"name":"Tränkgasse","postalCode":"74743","locality":"Seckach","municipality":{"key":"08225091","name":"Seckach","type":"Kreisangehörige_Gemeinde"},"district":{"key":"08225","name":"Neckar-Odenwald-Kreis","type":"Landkreis"},"federalState":{"key":"08","name":"Baden-Württemberg"}},{"name":"Triebweg","postalCode":"74743","locality":"Seckach","municipality":{"key":"08225091","name":"Seckach","type":"Kreisangehörige_Gemeinde"},"district":{"key":"08225","name":"Neckar-Odenwald-Kreis","type":"Landkreis"},"federalState":{"key":"08","name":"Baden-Württemberg"}},{"name":"Uferstr.","postalCode":"74743","locality":"Seckach","municipality":{"key":"08225091","name":"Seckach","type":"Kreisangehörige_Gemeinde"},"district":{"key":"08225","name":"Neckar-Odenwald-Kreis","type":"Landkreis"},"federalState":{"key":"08","name":"Baden-Württemberg"}},{"name":"Unter der Kirche","postalCode":"74743","locality":"Seckach","municipality":{"key":"08225091","name":"Seckach","type":"Kreisangehörige_Gemeinde"},"district":{"key":"08225","name":"Neckar-Odenwald-Kreis","type":"Landkreis"},"federalState":{"key":"08","name":"Baden-Württemberg"}},{"name":"Unterer Flachsberg","postalCode":"74743","locality":"Seckach","municipality":{"key":"08225091","name":"Seckach","type":"Kreisangehörige_Gemeinde"},"district":{"key":"08225","name":"Neckar-Odenwald-Kreis","type":"Landkreis"},"federalState":{"key":"08","name":"Baden-Württemberg"}},{"name":"Veilchenweg","postalCode":"74743","locality":"Seckach","municipality":{"key":"08225091","name":"Seckach","type":"Kreisangehörige_Gemeinde"},"district":{"key":"08225","name":"Neckar-Odenwald-Kreis","type":"Landkreis"},"federalState":{"key":"08","name":"Baden-Württemberg"}},{"name":"Waidachshof","postalCode":"74743","locality":"Seckach","municipality":{"key":"08225091","name":"Seckach","type":"Kreisangehörige_Gemeinde"},"district":{"key":"08225","name":"Neckar-Odenwald-Kreis","type":"Landkreis"},"federalState":{"key":"08","name":"Baden-Württemberg"}},{"name":"Waidachshofer Str.","postalCode":"74743","locality":"Seckach","municipality":{"key":"08225091","name":"Seckach","type":"Kreisangehörige_Gemeinde"},"district":{"key":"08225","name":"Neckar-Odenwald-Kreis","type":"Landkreis"},"federalState":{"key":"08","name":"Baden-Württemberg"}},{"name":"Waldstr.","postalCode":"74743","locality":"Seckach","municipality":{"key":"08225091","name":"Seckach","type":"Kreisangehörige_Gemeinde"},"district":{"key":"08225","name":"Neckar-Odenwald-Kreis","type":"Landkreis"},"federalState":{"key":"08","name":"Baden-Württemberg"}},{"name":"Weilersweg","postalCode":"74743","locality":"Seckach","municipality":{"key":"08225091","name":"Seckach","type":"Kreisangehörige_Gemeinde"},"district":{"key":"08225","name":"Neckar-Odenwald-Kreis","type":"Landkreis"},"federalState":{"key":"08","name":"Baden-Württemberg"}},{"name":"Weisbäumlein","postalCode":"74743","locality":"Seckach","municipality":{"key":"08225091","name":"Seckach","type":"Kreisangehörige_Gemeinde"},"district":{"key":"08225","name":"Neckar-Odenwald-Kreis","type":"Landkreis"},"federalState":{"key":"08","name":"Baden-Württemberg"}},{"name":"Wettgasse","postalCode":"74743","locality":"Seckach","municipality":{"key":"08225091","name":"Seckach","type":"Kreisangehörige_Gemeinde"},"district":{"key":"08225","name":"Neckar-Odenwald-Kreis","type":"Landkreis"},"federalState":{"key":"08","name":"Baden-Württemberg"}},{"name":"Wolfertsweg","postalCode":"74743","locality":"Seckach","municipality":{"key":"08225091","name":"Seckach","type":"Kreisangehörige_Gemeinde"},"district":{"key":"08225","name":"Neckar-Odenwald-Kreis","type":"Landkreis"},"federalState":{"key":"08","name":"Baden-Württemberg"}},]