[{"name":"Ahornweg","postalCode":"39245","locality":"Gommern","municipality":{"key":"15086055","name":"Gommern, Stadt","type":"Stadt"},"district":{"key":"15086","name":"Jerichower Land","type":"Landkreis"},"federalState":{"key":"15","name":"Sachsen-Anhalt"}},{"name":"Ahornweg","postalCode":"39291","locality":"Gommern","municipality":{"key":"15086055","name":"Gommern, Stadt","type":"Stadt"},"district":{"key":"15086","name":"Jerichower Land","type":"Landkreis"},"federalState":{"key":"15","name":"Sachsen-Anhalt"}},{"name":"Albert-Schweitzer-Str.","postalCode":"39245","locality":"Gommern","municipality":{"key":"15086055","name":"Gommern, Stadt","type":"Stadt"},"district":{"key":"15086","name":"Jerichower Land","type":"Landkreis"},"federalState":{"key":"15","name":"Sachsen-Anhalt"}},{"name":"Alter Weg","postalCode":"39279","locality":"Gommern","municipality":{"key":"15086055","name":"Gommern, Stadt","type":"Stadt"},"district":{"key":"15086","name":"Jerichower Land","type":"Landkreis"},"federalState":{"key":"15","name":"Sachsen-Anhalt"}},{"name":"Althaus","postalCode":"39279","locality":"Gommern","municipality":{"key":"15086055","name":"Gommern, Stadt","type":"Stadt"},"district":{"key":"15086","name":"Jerichower Land","type":"Landkreis"},"federalState":{"key":"15","name":"Sachsen-Anhalt"}},{"name":"Am Alten Sägewerk","postalCode":"39245","locality":"Gommern","municipality":{"key":"15086055","name":"Gommern, Stadt","type":"Stadt"},"district":{"key":"15086","name":"Jerichower Land","type":"Landkreis"},"federalState":{"key":"15","name":"Sachsen-Anhalt"}},{"name":"Am Bahnhof","postalCode":"39264","locality":"Gommern","municipality":{"key":"15086055","name":"Gommern, Stadt","type":"Stadt"},"district":{"key":"15086","name":"Jerichower Land","type":"Landkreis"},"federalState":{"key":"15","name":"Sachsen-Anhalt"}},{"name":"Am Bahnhof","postalCode":"39291","locality":"Gommern","municipality":{"key":"15086055","name":"Gommern, Stadt","type":"Stadt"},"district":{"key":"15086","name":"Jerichower Land","type":"Landkreis"},"federalState":{"key":"15","name":"Sachsen-Anhalt"}},{"name":"Am Dornburger Weg","postalCode":"39245","locality":"Gommern","municipality":{"key":"15086055","name":"Gommern, Stadt","type":"Stadt"},"district":{"key":"15086","name":"Jerichower Land","type":"Landkreis"},"federalState":{"key":"15","name":"Sachsen-Anhalt"}},{"name":"Am Ginster","postalCode":"39291","locality":"Gommern","municipality":{"key":"15086055","name":"Gommern, Stadt","type":"Stadt"},"district":{"key":"15086","name":"Jerichower Land","type":"Landkreis"},"federalState":{"key":"15","name":"Sachsen-Anhalt"}},{"name":"Am Hang","postalCode":"39245","locality":"Gommern","municipality":{"key":"15086055","name":"Gommern, Stadt","type":"Stadt"},"district":{"key":"15086","name":"Jerichower Land","type":"Landkreis"},"federalState":{"key":"15","name":"Sachsen-Anhalt"}},{"name":"Am Heidefeld","postalCode":"39175","locality":"Gommern","municipality":{"key":"15086055","name":"Gommern, Stadt","type":"Stadt"},"district":{"key":"15086","name":"Jerichower Land","type":"Landkreis"},"federalState":{"key":"15","name":"Sachsen-Anhalt"}},{"name":"Am Inselsee","postalCode":"39245","locality":"Gommern","municipality":{"key":"15086055","name":"Gommern, Stadt","type":"Stadt"},"district":{"key":"15086","name":"Jerichower Land","type":"Landkreis"},"federalState":{"key":"15","name":"Sachsen-Anhalt"}},{"name":"Am Kellerberg","postalCode":"39245","locality":"Gommern","municipality":{"key":"15086055","name":"Gommern, Stadt","type":"Stadt"},"district":{"key":"15086","name":"Jerichower Land","type":"Landkreis"},"federalState":{"key":"15","name":"Sachsen-Anhalt"}},{"name":"Am Kiefernhang","postalCode":"39245","locality":"Gommern","municipality":{"key":"15086055","name":"Gommern, Stadt","type":"Stadt"},"district":{"key":"15086","name":"Jerichower Land","type":"Landkreis"},"federalState":{"key":"15","name":"Sachsen-Anhalt"}},{"name":"Am Kirchplatz","postalCode":"39245","locality":"Gommern","municipality":{"key":"15086055","name":"Gommern, Stadt","type":"Stadt"},"district":{"key":"15086","name":"Jerichower Land","type":"Landkreis"},"federalState":{"key":"15","name":"Sachsen-Anhalt"}},{"name":"Am Kriel","postalCode":"39279","locality":"Gommern","municipality":{"key":"15086055","name":"Gommern, Stadt","type":"Stadt"},"district":{"key":"15086","name":"Jerichower Land","type":"Landkreis"},"federalState":{"key":"15","name":"Sachsen-Anhalt"}},{"name":"Am Liech","postalCode":"39175","locality":"Gommern","municipality":{"key":"15086055","name":"Gommern, Stadt","type":"Stadt"},"district":{"key":"15086","name":"Jerichower Land","type":"Landkreis"},"federalState":{"key":"15","name":"Sachsen-Anhalt"}},{"name":"Am Mühlenteich","postalCode":"39245","locality":"Gommern","municipality":{"key":"15086055","name":"Gommern, Stadt","type":"Stadt"},"district":{"key":"15086","name":"Jerichower Land","type":"Landkreis"},"federalState":{"key":"15","name":"Sachsen-Anhalt"}},{"name":"Am Neuen See","postalCode":"39245","locality":"Gommern","municipality":{"key":"15086055","name":"Gommern, Stadt","type":"Stadt"},"district":{"key":"15086","name":"Jerichower Land","type":"Landkreis"},"federalState":{"key":"15","name":"Sachsen-Anhalt"}},{"name":"Am Rohrteich","postalCode":"39245","locality":"Gommern","municipality":{"key":"15086055","name":"Gommern, Stadt","type":"Stadt"},"district":{"key":"15086","name":"Jerichower Land","type":"Landkreis"},"federalState":{"key":"15","name":"Sachsen-Anhalt"}},{"name":"Am Schenkenteich","postalCode":"39245","locality":"Gommern","municipality":{"key":"15086055","name":"Gommern, Stadt","type":"Stadt"},"district":{"key":"15086","name":"Jerichower Land","type":"Landkreis"},"federalState":{"key":"15","name":"Sachsen-Anhalt"}},{"name":"Am Schloß","postalCode":"39279","locality":"Gommern","municipality":{"key":"15086055","name":"Gommern, Stadt","type":"Stadt"},"district":{"key":"15086","name":"Jerichower Land","type":"Landkreis"},"federalState":{"key":"15","name":"Sachsen-Anhalt"}},{"name":"Amselweg","postalCode":"39245","locality":"Gommern","municipality":{"key":"15086055","name":"Gommern, Stadt","type":"Stadt"},"district":{"key":"15086","name":"Jerichower Land","type":"Landkreis"},"federalState":{"key":"15","name":"Sachsen-Anhalt"}},{"name":"Am Sportplatz","postalCode":"39264","locality":"Gommern","municipality":{"key":"15086055","name":"Gommern, Stadt","type":"Stadt"},"district":{"key":"15086","name":"Jerichower Land","type":"Landkreis"},"federalState":{"key":"15","name":"Sachsen-Anhalt"}},{"name":"Am Walde","postalCode":"39245","locality":"Gommern","municipality":{"key":"15086055","name":"Gommern, Stadt","type":"Stadt"},"district":{"key":"15086","name":"Jerichower Land","type":"Landkreis"},"federalState":{"key":"15","name":"Sachsen-Anhalt"}},{"name":"Am Waldidyll","postalCode":"39245","locality":"Gommern","municipality":{"key":"15086055","name":"Gommern, Stadt","type":"Stadt"},"district":{"key":"15086","name":"Jerichower Land","type":"Landkreis"},"federalState":{"key":"15","name":"Sachsen-Anhalt"}},{"name":"Am Weinberg","postalCode":"39245","locality":"Gommern","municipality":{"key":"15086055","name":"Gommern, Stadt","type":"Stadt"},"district":{"key":"15086","name":"Jerichower Land","type":"Landkreis"},"federalState":{"key":"15","name":"Sachsen-Anhalt"}},{"name":"Apfelweg","postalCode":"39245","locality":"Gommern","municipality":{"key":"15086055","name":"Gommern, Stadt","type":"Stadt"},"district":{"key":"15086","name":"Jerichower Land","type":"Landkreis"},"federalState":{"key":"15","name":"Sachsen-Anhalt"}},{"name":"August-Bebel-Str.","postalCode":"39245","locality":"Gommern","municipality":{"key":"15086055","name":"Gommern, Stadt","type":"Stadt"},"district":{"key":"15086","name":"Jerichower Land","type":"Landkreis"},"federalState":{"key":"15","name":"Sachsen-Anhalt"}},{"name":"Bäckergasse","postalCode":"39175","locality":"Gommern","municipality":{"key":"15086055","name":"Gommern, Stadt","type":"Stadt"},"district":{"key":"15086","name":"Jerichower Land","type":"Landkreis"},"federalState":{"key":"15","name":"Sachsen-Anhalt"}},{"name":"Bahnhofstr.","postalCode":"39175","locality":"Gommern","municipality":{"key":"15086055","name":"Gommern, Stadt","type":"Stadt"},"district":{"key":"15086","name":"Jerichower Land","type":"Landkreis"},"federalState":{"key":"15","name":"Sachsen-Anhalt"}},{"name":"Bahnhofstr.","postalCode":"39245","locality":"Gommern","municipality":{"key":"15086055","name":"Gommern, Stadt","type":"Stadt"},"district":{"key":"15086","name":"Jerichower Land","type":"Landkreis"},"federalState":{"key":"15","name":"Sachsen-Anhalt"}},{"name":"Bahnhofstr.","postalCode":"39264","locality":"Gommern","municipality":{"key":"15086055","name":"Gommern, Stadt","type":"Stadt"},"district":{"key":"15086","name":"Jerichower Land","type":"Landkreis"},"federalState":{"key":"15","name":"Sachsen-Anhalt"}},{"name":"Bahnhofstr.","postalCode":"39291","locality":"Gommern","municipality":{"key":"15086055","name":"Gommern, Stadt","type":"Stadt"},"district":{"key":"15086","name":"Jerichower Land","type":"Landkreis"},"federalState":{"key":"15","name":"Sachsen-Anhalt"}},{"name":"Bergstr.","postalCode":"39245","locality":"Gommern","municipality":{"key":"15086055","name":"Gommern, Stadt","type":"Stadt"},"district":{"key":"15086","name":"Jerichower Land","type":"Landkreis"},"federalState":{"key":"15","name":"Sachsen-Anhalt"}},{"name":"Birkenweg","postalCode":"39175","locality":"Gommern","municipality":{"key":"15086055","name":"Gommern, Stadt","type":"Stadt"},"district":{"key":"15086","name":"Jerichower Land","type":"Landkreis"},"federalState":{"key":"15","name":"Sachsen-Anhalt"}},{"name":"Blaurock","postalCode":"39245","locality":"Gommern","municipality":{"key":"15086055","name":"Gommern, Stadt","type":"Stadt"},"district":{"key":"15086","name":"Jerichower Land","type":"Landkreis"},"federalState":{"key":"15","name":"Sachsen-Anhalt"}},{"name":"Brauhausplatz","postalCode":"39245","locality":"Gommern","municipality":{"key":"15086055","name":"Gommern, Stadt","type":"Stadt"},"district":{"key":"15086","name":"Jerichower Land","type":"Landkreis"},"federalState":{"key":"15","name":"Sachsen-Anhalt"}},{"name":"Brauhausstr.","postalCode":"39245","locality":"Gommern","municipality":{"key":"15086055","name":"Gommern, Stadt","type":"Stadt"},"district":{"key":"15086","name":"Jerichower Land","type":"Landkreis"},"federalState":{"key":"15","name":"Sachsen-Anhalt"}},{"name":"Buchenweg","postalCode":"39175","locality":"Gommern","municipality":{"key":"15086055","name":"Gommern, Stadt","type":"Stadt"},"district":{"key":"15086","name":"Jerichower Land","type":"Landkreis"},"federalState":{"key":"15","name":"Sachsen-Anhalt"}},{"name":"Cressower Weg","postalCode":"39264","locality":"Gommern","municipality":{"key":"15086055","name":"Gommern, Stadt","type":"Stadt"},"district":{"key":"15086","name":"Jerichower Land","type":"Landkreis"},"federalState":{"key":"15","name":"Sachsen-Anhalt"}},{"name":"Dahlienweg","postalCode":"39291","locality":"Gommern","municipality":{"key":"15086055","name":"Gommern, Stadt","type":"Stadt"},"district":{"key":"15086","name":"Jerichower Land","type":"Landkreis"},"federalState":{"key":"15","name":"Sachsen-Anhalt"}},{"name":"Darreweg","postalCode":"39291","locality":"Gommern","municipality":{"key":"15086055","name":"Gommern, Stadt","type":"Stadt"},"district":{"key":"15086","name":"Jerichower Land","type":"Landkreis"},"federalState":{"key":"15","name":"Sachsen-Anhalt"}},{"name":"Dorfplatz","postalCode":"39175","locality":"Gommern","municipality":{"key":"15086055","name":"Gommern, Stadt","type":"Stadt"},"district":{"key":"15086","name":"Jerichower Land","type":"Landkreis"},"federalState":{"key":"15","name":"Sachsen-Anhalt"}},{"name":"Dorfstr.","postalCode":"39175","locality":"Gommern","municipality":{"key":"15086055","name":"Gommern, Stadt","type":"Stadt"},"district":{"key":"15086","name":"Jerichower Land","type":"Landkreis"},"federalState":{"key":"15","name":"Sachsen-Anhalt"}},{"name":"Dorfstr.","postalCode":"39279","locality":"Gommern","municipality":{"key":"15086055","name":"Gommern, Stadt","type":"Stadt"},"district":{"key":"15086","name":"Jerichower Land","type":"Landkreis"},"federalState":{"key":"15","name":"Sachsen-Anhalt"}},{"name":"Dornburger Str.","postalCode":"39245","locality":"Gommern","municipality":{"key":"15086055","name":"Gommern, Stadt","type":"Stadt"},"district":{"key":"15086","name":"Jerichower Land","type":"Landkreis"},"federalState":{"key":"15","name":"Sachsen-Anhalt"}},{"name":"Dornburger Str.","postalCode":"39264","locality":"Gommern","municipality":{"key":"15086055","name":"Gommern, Stadt","type":"Stadt"},"district":{"key":"15086","name":"Jerichower Land","type":"Landkreis"},"federalState":{"key":"15","name":"Sachsen-Anhalt"}},{"name":"Ehlestr.","postalCode":"39245","locality":"Gommern","municipality":{"key":"15086055","name":"Gommern, Stadt","type":"Stadt"},"district":{"key":"15086","name":"Jerichower Land","type":"Landkreis"},"federalState":{"key":"15","name":"Sachsen-Anhalt"}},{"name":"Ehleweg","postalCode":"39291","locality":"Gommern","municipality":{"key":"15086055","name":"Gommern, Stadt","type":"Stadt"},"district":{"key":"15086","name":"Jerichower Land","type":"Landkreis"},"federalState":{"key":"15","name":"Sachsen-Anhalt"}},{"name":"Erlenweg","postalCode":"39245","locality":"Gommern","municipality":{"key":"15086055","name":"Gommern, Stadt","type":"Stadt"},"district":{"key":"15086","name":"Jerichower Land","type":"Landkreis"},"federalState":{"key":"15","name":"Sachsen-Anhalt"}},{"name":"Ernst-Thälmann-Str.","postalCode":"39245","locality":"Gommern","municipality":{"key":"15086055","name":"Gommern, Stadt","type":"Stadt"},"district":{"key":"15086","name":"Jerichower Land","type":"Landkreis"},"federalState":{"key":"15","name":"Sachsen-Anhalt"}},{"name":"Ernst-Thälmann-Str.","postalCode":"39291","locality":"Gommern","municipality":{"key":"15086055","name":"Gommern, Stadt","type":"Stadt"},"district":{"key":"15086","name":"Jerichower Land","type":"Landkreis"},"federalState":{"key":"15","name":"Sachsen-Anhalt"}},{"name":"Eschenweg","postalCode":"39245","locality":"Gommern","municipality":{"key":"15086055","name":"Gommern, Stadt","type":"Stadt"},"district":{"key":"15086","name":"Jerichower Land","type":"Landkreis"},"federalState":{"key":"15","name":"Sachsen-Anhalt"}},{"name":"Feldstr.","postalCode":"39279","locality":"Gommern","municipality":{"key":"15086055","name":"Gommern, Stadt","type":"Stadt"},"district":{"key":"15086","name":"Jerichower Land","type":"Landkreis"},"federalState":{"key":"15","name":"Sachsen-Anhalt"}},{"name":"Finkeweg","postalCode":"39245","locality":"Gommern","municipality":{"key":"15086055","name":"Gommern, Stadt","type":"Stadt"},"district":{"key":"15086","name":"Jerichower Land","type":"Landkreis"},"federalState":{"key":"15","name":"Sachsen-Anhalt"}},{"name":"Friedenseiche","postalCode":"39279","locality":"Gommern","municipality":{"key":"15086055","name":"Gommern, Stadt","type":"Stadt"},"district":{"key":"15086","name":"Jerichower Land","type":"Landkreis"},"federalState":{"key":"15","name":"Sachsen-Anhalt"}},{"name":"Friedensstr.","postalCode":"39279","locality":"Gommern","municipality":{"key":"15086055","name":"Gommern, Stadt","type":"Stadt"},"district":{"key":"15086","name":"Jerichower Land","type":"Landkreis"},"federalState":{"key":"15","name":"Sachsen-Anhalt"}},{"name":"Friedhof","postalCode":"39245","locality":"Gommern","municipality":{"key":"15086055","name":"Gommern, Stadt","type":"Stadt"},"district":{"key":"15086","name":"Jerichower Land","type":"Landkreis"},"federalState":{"key":"15","name":"Sachsen-Anhalt"}},{"name":"Friedhofstr.","postalCode":"39245","locality":"Gommern","municipality":{"key":"15086055","name":"Gommern, Stadt","type":"Stadt"},"district":{"key":"15086","name":"Jerichower Land","type":"Landkreis"},"federalState":{"key":"15","name":"Sachsen-Anhalt"}},{"name":"Friedrich-Ebert-Str.","postalCode":"39245","locality":"Gommern","municipality":{"key":"15086055","name":"Gommern, Stadt","type":"Stadt"},"district":{"key":"15086","name":"Jerichower Land","type":"Landkreis"},"federalState":{"key":"15","name":"Sachsen-Anhalt"}},{"name":"Friedrich-Engels-Str.","postalCode":"39245","locality":"Gommern","municipality":{"key":"15086055","name":"Gommern, Stadt","type":"Stadt"},"district":{"key":"15086","name":"Jerichower Land","type":"Landkreis"},"federalState":{"key":"15","name":"Sachsen-Anhalt"}},{"name":"Friedrichstr.","postalCode":"39245","locality":"Gommern","municipality":{"key":"15086055","name":"Gommern, Stadt","type":"Stadt"},"district":{"key":"15086","name":"Jerichower Land","type":"Landkreis"},"federalState":{"key":"15","name":"Sachsen-Anhalt"}},{"name":"Fuchsbergstr.","postalCode":"39245","locality":"Gommern","municipality":{"key":"15086055","name":"Gommern, Stadt","type":"Stadt"},"district":{"key":"15086","name":"Jerichower Land","type":"Landkreis"},"federalState":{"key":"15","name":"Sachsen-Anhalt"}},{"name":"Gartenweg","postalCode":"39245","locality":"Gommern","municipality":{"key":"15086055","name":"Gommern, Stadt","type":"Stadt"},"district":{"key":"15086","name":"Jerichower Land","type":"Landkreis"},"federalState":{"key":"15","name":"Sachsen-Anhalt"}},{"name":"Gartenweg","postalCode":"39264","locality":"Gommern","municipality":{"key":"15086055","name":"Gommern, Stadt","type":"Stadt"},"district":{"key":"15086","name":"Jerichower Land","type":"Landkreis"},"federalState":{"key":"15","name":"Sachsen-Anhalt"}},{"name":"Gartenweg","postalCode":"39291","locality":"Gommern","municipality":{"key":"15086055","name":"Gommern, Stadt","type":"Stadt"},"district":{"key":"15086","name":"Jerichower Land","type":"Landkreis"},"federalState":{"key":"15","name":"Sachsen-Anhalt"}},{"name":"Gerstenberg","postalCode":"39175","locality":"Gommern","municipality":{"key":"15086055","name":"Gommern, Stadt","type":"Stadt"},"district":{"key":"15086","name":"Jerichower Land","type":"Landkreis"},"federalState":{"key":"15","name":"Sachsen-Anhalt"}},{"name":"Gesteinsgarten Gommern","postalCode":"39245","locality":"Gommern","municipality":{"key":"15086055","name":"Gommern, Stadt","type":"Stadt"},"district":{"key":"15086","name":"Jerichower Land","type":"Landkreis"},"federalState":{"key":"15","name":"Sachsen-Anhalt"}},{"name":"Gödnitzer Weg","postalCode":"39264","locality":"Gommern","municipality":{"key":"15086055","name":"Gommern, Stadt","type":"Stadt"},"district":{"key":"15086","name":"Jerichower Land","type":"Landkreis"},"federalState":{"key":"15","name":"Sachsen-Anhalt"}},{"name":"Gommeraner Str.","postalCode":"39245","locality":"Gommern","municipality":{"key":"15086055","name":"Gommern, Stadt","type":"Stadt"},"district":{"key":"15086","name":"Jerichower Land","type":"Landkreis"},"federalState":{"key":"15","name":"Sachsen-Anhalt"}},{"name":"Gommeraner Str.","postalCode":"39291","locality":"Gommern","municipality":{"key":"15086055","name":"Gommern, Stadt","type":"Stadt"},"district":{"key":"15086","name":"Jerichower Land","type":"Landkreis"},"federalState":{"key":"15","name":"Sachsen-Anhalt"}},{"name":"Große Gartenstr.","postalCode":"39245","locality":"Gommern","municipality":{"key":"15086055","name":"Gommern, Stadt","type":"Stadt"},"district":{"key":"15086","name":"Jerichower Land","type":"Landkreis"},"federalState":{"key":"15","name":"Sachsen-Anhalt"}},{"name":"Gübser Weg","postalCode":"39175","locality":"Gommern","municipality":{"key":"15086055","name":"Gommern, Stadt","type":"Stadt"},"district":{"key":"15086","name":"Jerichower Land","type":"Landkreis"},"federalState":{"key":"15","name":"Sachsen-Anhalt"}},{"name":"Hagenstr.","postalCode":"39245","locality":"Gommern","municipality":{"key":"15086055","name":"Gommern, Stadt","type":"Stadt"},"district":{"key":"15086","name":"Jerichower Land","type":"Landkreis"},"federalState":{"key":"15","name":"Sachsen-Anhalt"}},{"name":"Hauptstr.","postalCode":"39264","locality":"Gommern","municipality":{"key":"15086055","name":"Gommern, Stadt","type":"Stadt"},"district":{"key":"15086","name":"Jerichower Land","type":"Landkreis"},"federalState":{"key":"15","name":"Sachsen-Anhalt"}},{"name":"Hauptstr.","postalCode":"39291","locality":"Gommern","municipality":{"key":"15086055","name":"Gommern, Stadt","type":"Stadt"},"district":{"key":"15086","name":"Jerichower Land","type":"Landkreis"},"federalState":{"key":"15","name":"Sachsen-Anhalt"}},{"name":"Heilstättenweg","postalCode":"39175","locality":"Gommern","municipality":{"key":"15086055","name":"Gommern, Stadt","type":"Stadt"},"district":{"key":"15086","name":"Jerichower Land","type":"Landkreis"},"federalState":{"key":"15","name":"Sachsen-Anhalt"}},{"name":"Heinrichstal","postalCode":"39245","locality":"Gommern","municipality":{"key":"15086055","name":"Gommern, Stadt","type":"Stadt"},"district":{"key":"15086","name":"Jerichower Land","type":"Landkreis"},"federalState":{"key":"15","name":"Sachsen-Anhalt"}},{"name":"Heinrichstalstr.","postalCode":"39245","locality":"Gommern","municipality":{"key":"15086055","name":"Gommern, Stadt","type":"Stadt"},"district":{"key":"15086","name":"Jerichower Land","type":"Landkreis"},"federalState":{"key":"15","name":"Sachsen-Anhalt"}},{"name":"Hermann-Ebel-Str.","postalCode":"39245","locality":"Gommern","municipality":{"key":"15086055","name":"Gommern, Stadt","type":"Stadt"},"district":{"key":"15086","name":"Jerichower Land","type":"Landkreis"},"federalState":{"key":"15","name":"Sachsen-Anhalt"}},{"name":"Hinter den Gärten","postalCode":"39264","locality":"Gommern","municipality":{"key":"15086055","name":"Gommern, Stadt","type":"Stadt"},"district":{"key":"15086","name":"Jerichower Land","type":"Landkreis"},"federalState":{"key":"15","name":"Sachsen-Anhalt"}},{"name":"Hirtenwinkel","postalCode":"39245","locality":"Gommern","municipality":{"key":"15086055","name":"Gommern, Stadt","type":"Stadt"},"district":{"key":"15086","name":"Jerichower Land","type":"Landkreis"},"federalState":{"key":"15","name":"Sachsen-Anhalt"}},{"name":"Hofbreite","postalCode":"39264","locality":"Gommern","municipality":{"key":"15086055","name":"Gommern, Stadt","type":"Stadt"},"district":{"key":"15086","name":"Jerichower Land","type":"Landkreis"},"federalState":{"key":"15","name":"Sachsen-Anhalt"}},{"name":"Im Heidefeld","postalCode":"39175","locality":"Gommern","municipality":{"key":"15086055","name":"Gommern, Stadt","type":"Stadt"},"district":{"key":"15086","name":"Jerichower Land","type":"Landkreis"},"federalState":{"key":"15","name":"Sachsen-Anhalt"}},{"name":"Im Winkel","postalCode":"39264","locality":"Gommern","municipality":{"key":"15086055","name":"Gommern, Stadt","type":"Stadt"},"district":{"key":"15086","name":"Jerichower Land","type":"Landkreis"},"federalState":{"key":"15","name":"Sachsen-Anhalt"}},{"name":"Industriepark I Str. C","postalCode":"39245","locality":"Gommern","municipality":{"key":"15086055","name":"Gommern, Stadt","type":"Stadt"},"district":{"key":"15086","name":"Jerichower Land","type":"Landkreis"},"federalState":{"key":"15","name":"Sachsen-Anhalt"}},{"name":"Industriepark Str. E","postalCode":"39245","locality":"Gommern","municipality":{"key":"15086055","name":"Gommern, Stadt","type":"Stadt"},"district":{"key":"15086","name":"Jerichower Land","type":"Landkreis"},"federalState":{"key":"15","name":"Sachsen-Anhalt"}},{"name":"Jesteburger Weg","postalCode":"39279","locality":"Gommern","municipality":{"key":"15086055","name":"Gommern, Stadt","type":"Stadt"},"district":{"key":"15086","name":"Jerichower Land","type":"Landkreis"},"federalState":{"key":"15","name":"Sachsen-Anhalt"}},{"name":"Kampfstr.","postalCode":"39279","locality":"Gommern","municipality":{"key":"15086055","name":"Gommern, Stadt","type":"Stadt"},"district":{"key":"15086","name":"Jerichower Land","type":"Landkreis"},"federalState":{"key":"15","name":"Sachsen-Anhalt"}},{"name":"Kanonenweg","postalCode":"39245","locality":"Gommern","municipality":{"key":"15086055","name":"Gommern, Stadt","type":"Stadt"},"district":{"key":"15086","name":"Jerichower Land","type":"Landkreis"},"federalState":{"key":"15","name":"Sachsen-Anhalt"}},{"name":"Karither Str.","postalCode":"39245","locality":"Gommern","municipality":{"key":"15086055","name":"Gommern, Stadt","type":"Stadt"},"district":{"key":"15086","name":"Jerichower Land","type":"Landkreis"},"federalState":{"key":"15","name":"Sachsen-Anhalt"}},{"name":"Karither Weg","postalCode":"39291","locality":"Gommern","municipality":{"key":"15086055","name":"Gommern, Stadt","type":"Stadt"},"district":{"key":"15086","name":"Jerichower Land","type":"Landkreis"},"federalState":{"key":"15","name":"Sachsen-Anhalt"}},{"name":"Karl-Marx-Str.","postalCode":"39245","locality":"Gommern","municipality":{"key":"15086055","name":"Gommern, Stadt","type":"Stadt"},"district":{"key":"15086","name":"Jerichower Land","type":"Landkreis"},"federalState":{"key":"15","name":"Sachsen-Anhalt"}},{"name":"Karl-Marx-Str.","postalCode":"39279","locality":"Gommern","municipality":{"key":"15086055","name":"Gommern, Stadt","type":"Stadt"},"district":{"key":"15086","name":"Jerichower Land","type":"Landkreis"},"federalState":{"key":"15","name":"Sachsen-Anhalt"}},{"name":"Kastanienweg","postalCode":"39175","locality":"Gommern","municipality":{"key":"15086055","name":"Gommern, Stadt","type":"Stadt"},"district":{"key":"15086","name":"Jerichower Land","type":"Landkreis"},"federalState":{"key":"15","name":"Sachsen-Anhalt"}},{"name":"Kieferngrund","postalCode":"39245","locality":"Gommern","municipality":{"key":"15086055","name":"Gommern, Stadt","type":"Stadt"},"district":{"key":"15086","name":"Jerichower Land","type":"Landkreis"},"federalState":{"key":"15","name":"Sachsen-Anhalt"}},{"name":"Kiefernweg","postalCode":"39175","locality":"Gommern","municipality":{"key":"15086055","name":"Gommern, Stadt","type":"Stadt"},"district":{"key":"15086","name":"Jerichower Land","type":"Landkreis"},"federalState":{"key":"15","name":"Sachsen-Anhalt"}},{"name":"Kirchplatz","postalCode":"39291","locality":"Gommern","municipality":{"key":"15086055","name":"Gommern, Stadt","type":"Stadt"},"district":{"key":"15086","name":"Jerichower Land","type":"Landkreis"},"federalState":{"key":"15","name":"Sachsen-Anhalt"}},{"name":"Kirchstr.","postalCode":"39279","locality":"Gommern","municipality":{"key":"15086055","name":"Gommern, Stadt","type":"Stadt"},"district":{"key":"15086","name":"Jerichower Land","type":"Landkreis"},"federalState":{"key":"15","name":"Sachsen-Anhalt"}},{"name":"Kirschweg","postalCode":"39245","locality":"Gommern","municipality":{"key":"15086055","name":"Gommern, Stadt","type":"Stadt"},"district":{"key":"15086","name":"Jerichower Land","type":"Landkreis"},"federalState":{"key":"15","name":"Sachsen-Anhalt"}},{"name":"Kleine Gartenstr.","postalCode":"39245","locality":"Gommern","municipality":{"key":"15086055","name":"Gommern, Stadt","type":"Stadt"},"district":{"key":"15086","name":"Jerichower Land","type":"Landkreis"},"federalState":{"key":"15","name":"Sachsen-Anhalt"}},{"name":"Kleine Wiesenstr.","postalCode":"39245","locality":"Gommern","municipality":{"key":"15086055","name":"Gommern, Stadt","type":"Stadt"},"district":{"key":"15086","name":"Jerichower Land","type":"Landkreis"},"federalState":{"key":"15","name":"Sachsen-Anhalt"}},{"name":"Knickpromenade","postalCode":"39245","locality":"Gommern","municipality":{"key":"15086055","name":"Gommern, Stadt","type":"Stadt"},"district":{"key":"15086","name":"Jerichower Land","type":"Landkreis"},"federalState":{"key":"15","name":"Sachsen-Anhalt"}},{"name":"Knickstr.","postalCode":"39245","locality":"Gommern","municipality":{"key":"15086055","name":"Gommern, Stadt","type":"Stadt"},"district":{"key":"15086","name":"Jerichower Land","type":"Landkreis"},"federalState":{"key":"15","name":"Sachsen-Anhalt"}},{"name":"Kräutergarten","postalCode":"39245","locality":"Gommern","municipality":{"key":"15086055","name":"Gommern, Stadt","type":"Stadt"},"district":{"key":"15086","name":"Jerichower Land","type":"Landkreis"},"federalState":{"key":"15","name":"Sachsen-Anhalt"}},{"name":"Krugstr.","postalCode":"39279","locality":"Gommern","municipality":{"key":"15086055","name":"Gommern, Stadt","type":"Stadt"},"district":{"key":"15086","name":"Jerichower Land","type":"Landkreis"},"federalState":{"key":"15","name":"Sachsen-Anhalt"}},{"name":"Krugstücken","postalCode":"39175","locality":"Gommern","municipality":{"key":"15086055","name":"Gommern, Stadt","type":"Stadt"},"district":{"key":"15086","name":"Jerichower Land","type":"Landkreis"},"federalState":{"key":"15","name":"Sachsen-Anhalt"}},{"name":"Kuckucksweg","postalCode":"39245","locality":"Gommern","municipality":{"key":"15086055","name":"Gommern, Stadt","type":"Stadt"},"district":{"key":"15086","name":"Jerichower Land","type":"Landkreis"},"federalState":{"key":"15","name":"Sachsen-Anhalt"}},{"name":"Ladeburger Str.","postalCode":"39279","locality":"Gommern","municipality":{"key":"15086055","name":"Gommern, Stadt","type":"Stadt"},"district":{"key":"15086","name":"Jerichower Land","type":"Landkreis"},"federalState":{"key":"15","name":"Sachsen-Anhalt"}},{"name":"Leninsiedlung","postalCode":"39291","locality":"Gommern","municipality":{"key":"15086055","name":"Gommern, Stadt","type":"Stadt"},"district":{"key":"15086","name":"Jerichower Land","type":"Landkreis"},"federalState":{"key":"15","name":"Sachsen-Anhalt"}},{"name":"Lindenstr.","postalCode":"39264","locality":"Gommern","municipality":{"key":"15086055","name":"Gommern, Stadt","type":"Stadt"},"district":{"key":"15086","name":"Jerichower Land","type":"Landkreis"},"federalState":{"key":"15","name":"Sachsen-Anhalt"}},{"name":"Lindenweg","postalCode":"39175","locality":"Gommern","municipality":{"key":"15086055","name":"Gommern, Stadt","type":"Stadt"},"district":{"key":"15086","name":"Jerichower Land","type":"Landkreis"},"federalState":{"key":"15","name":"Sachsen-Anhalt"}},{"name":"Loburger Str.","postalCode":"39279","locality":"Gommern","municipality":{"key":"15086055","name":"Gommern, Stadt","type":"Stadt"},"district":{"key":"15086","name":"Jerichower Land","type":"Landkreis"},"federalState":{"key":"15","name":"Sachsen-Anhalt"}},{"name":"Magdeburger Str.","postalCode":"39175","locality":"Gommern","municipality":{"key":"15086055","name":"Gommern, Stadt","type":"Stadt"},"district":{"key":"15086","name":"Jerichower Land","type":"Landkreis"},"federalState":{"key":"15","name":"Sachsen-Anhalt"}},{"name":"Magdeburger Str.","postalCode":"39245","locality":"Gommern","municipality":{"key":"15086055","name":"Gommern, Stadt","type":"Stadt"},"district":{"key":"15086","name":"Jerichower Land","type":"Landkreis"},"federalState":{"key":"15","name":"Sachsen-Anhalt"}},{"name":"Manheimerstr.","postalCode":"39245","locality":"Gommern","municipality":{"key":"15086055","name":"Gommern, Stadt","type":"Stadt"},"district":{"key":"15086","name":"Jerichower Land","type":"Landkreis"},"federalState":{"key":"15","name":"Sachsen-Anhalt"}},{"name":"Markt","postalCode":"39279","locality":"Gommern","municipality":{"key":"15086055","name":"Gommern, Stadt","type":"Stadt"},"district":{"key":"15086","name":"Jerichower Land","type":"Landkreis"},"federalState":{"key":"15","name":"Sachsen-Anhalt"}},{"name":"Martin-Schwantes-Str.","postalCode":"39245","locality":"Gommern","municipality":{"key":"15086055","name":"Gommern, Stadt","type":"Stadt"},"district":{"key":"15086","name":"Jerichower Land","type":"Landkreis"},"federalState":{"key":"15","name":"Sachsen-Anhalt"}},{"name":"Max-Planck-Str.","postalCode":"39245","locality":"Gommern","municipality":{"key":"15086055","name":"Gommern, Stadt","type":"Stadt"},"district":{"key":"15086","name":"Jerichower Land","type":"Landkreis"},"federalState":{"key":"15","name":"Sachsen-Anhalt"}},{"name":"Meisenweg","postalCode":"39245","locality":"Gommern","municipality":{"key":"15086055","name":"Gommern, Stadt","type":"Stadt"},"district":{"key":"15086","name":"Jerichower Land","type":"Landkreis"},"federalState":{"key":"15","name":"Sachsen-Anhalt"}},{"name":"Milchweg","postalCode":"39291","locality":"Gommern","municipality":{"key":"15086055","name":"Gommern, Stadt","type":"Stadt"},"district":{"key":"15086","name":"Jerichower Land","type":"Landkreis"},"federalState":{"key":"15","name":"Sachsen-Anhalt"}},{"name":"Mühlberg","postalCode":"39175","locality":"Gommern","municipality":{"key":"15086055","name":"Gommern, Stadt","type":"Stadt"},"district":{"key":"15086","name":"Jerichower Land","type":"Landkreis"},"federalState":{"key":"15","name":"Sachsen-Anhalt"}},{"name":"Mühlberg","postalCode":"39291","locality":"Gommern","municipality":{"key":"15086055","name":"Gommern, Stadt","type":"Stadt"},"district":{"key":"15086","name":"Jerichower Land","type":"Landkreis"},"federalState":{"key":"15","name":"Sachsen-Anhalt"}},{"name":"Mühlenberg","postalCode":"39279","locality":"Gommern","municipality":{"key":"15086055","name":"Gommern, Stadt","type":"Stadt"},"district":{"key":"15086","name":"Jerichower Land","type":"Landkreis"},"federalState":{"key":"15","name":"Sachsen-Anhalt"}},{"name":"Mühlenstr.","postalCode":"39279","locality":"Gommern","municipality":{"key":"15086055","name":"Gommern, Stadt","type":"Stadt"},"district":{"key":"15086","name":"Jerichower Land","type":"Landkreis"},"federalState":{"key":"15","name":"Sachsen-Anhalt"}},{"name":"Nedlitzer Weg","postalCode":"39175","locality":"Gommern","municipality":{"key":"15086055","name":"Gommern, Stadt","type":"Stadt"},"district":{"key":"15086","name":"Jerichower Land","type":"Landkreis"},"federalState":{"key":"15","name":"Sachsen-Anhalt"}},{"name":"Nedlitzer Weg","postalCode":"39291","locality":"Gommern","municipality":{"key":"15086055","name":"Gommern, Stadt","type":"Stadt"},"district":{"key":"15086","name":"Jerichower Land","type":"Landkreis"},"federalState":{"key":"15","name":"Sachsen-Anhalt"}},{"name":"Nelkenweg","postalCode":"39245","locality":"Gommern","municipality":{"key":"15086055","name":"Gommern, Stadt","type":"Stadt"},"district":{"key":"15086","name":"Jerichower Land","type":"Landkreis"},"federalState":{"key":"15","name":"Sachsen-Anhalt"}},{"name":"Nelkenweg","postalCode":"39291","locality":"Gommern","municipality":{"key":"15086055","name":"Gommern, Stadt","type":"Stadt"},"district":{"key":"15086","name":"Jerichower Land","type":"Landkreis"},"federalState":{"key":"15","name":"Sachsen-Anhalt"}},{"name":"Neue Mühle","postalCode":"39245","locality":"Gommern","municipality":{"key":"15086055","name":"Gommern, Stadt","type":"Stadt"},"district":{"key":"15086","name":"Jerichower Land","type":"Landkreis"},"federalState":{"key":"15","name":"Sachsen-Anhalt"}},{"name":"Neue Reihe","postalCode":"39264","locality":"Gommern","municipality":{"key":"15086055","name":"Gommern, Stadt","type":"Stadt"},"district":{"key":"15086","name":"Jerichower Land","type":"Landkreis"},"federalState":{"key":"15","name":"Sachsen-Anhalt"}},{"name":"Neuer Krug","postalCode":"39264","locality":"Gommern","municipality":{"key":"15086055","name":"Gommern, Stadt","type":"Stadt"},"district":{"key":"15086","name":"Jerichower Land","type":"Landkreis"},"federalState":{"key":"15","name":"Sachsen-Anhalt"}},{"name":"Neuer Weg","postalCode":"39175","locality":"Gommern","municipality":{"key":"15086055","name":"Gommern, Stadt","type":"Stadt"},"district":{"key":"15086","name":"Jerichower Land","type":"Landkreis"},"federalState":{"key":"15","name":"Sachsen-Anhalt"}},{"name":"Neuer Weg","postalCode":"39264","locality":"Gommern","municipality":{"key":"15086055","name":"Gommern, Stadt","type":"Stadt"},"district":{"key":"15086","name":"Jerichower Land","type":"Landkreis"},"federalState":{"key":"15","name":"Sachsen-Anhalt"}},{"name":"Neuer Wiesenweg","postalCode":"39279","locality":"Gommern","municipality":{"key":"15086055","name":"Gommern, Stadt","type":"Stadt"},"district":{"key":"15086","name":"Jerichower Land","type":"Landkreis"},"federalState":{"key":"15","name":"Sachsen-Anhalt"}},{"name":"Neue Str.","postalCode":"39264","locality":"Gommern","municipality":{"key":"15086055","name":"Gommern, Stadt","type":"Stadt"},"district":{"key":"15086","name":"Jerichower Land","type":"Landkreis"},"federalState":{"key":"15","name":"Sachsen-Anhalt"}},{"name":"Neuhaus","postalCode":"39279","locality":"Gommern","municipality":{"key":"15086055","name":"Gommern, Stadt","type":"Stadt"},"district":{"key":"15086","name":"Jerichower Land","type":"Landkreis"},"federalState":{"key":"15","name":"Sachsen-Anhalt"}},{"name":"Pappeleck","postalCode":"39175","locality":"Gommern","municipality":{"key":"15086055","name":"Gommern, Stadt","type":"Stadt"},"district":{"key":"15086","name":"Jerichower Land","type":"Landkreis"},"federalState":{"key":"15","name":"Sachsen-Anhalt"}},{"name":"Pflaumenknick","postalCode":"39245","locality":"Gommern","municipality":{"key":"15086055","name":"Gommern, Stadt","type":"Stadt"},"district":{"key":"15086","name":"Jerichower Land","type":"Landkreis"},"federalState":{"key":"15","name":"Sachsen-Anhalt"}},{"name":"Plankenbreite","postalCode":"39279","locality":"Gommern","municipality":{"key":"15086055","name":"Gommern, Stadt","type":"Stadt"},"district":{"key":"15086","name":"Jerichower Land","type":"Landkreis"},"federalState":{"key":"15","name":"Sachsen-Anhalt"}},{"name":"Platz des Friedens","postalCode":"39245","locality":"Gommern","municipality":{"key":"15086055","name":"Gommern, Stadt","type":"Stadt"},"district":{"key":"15086","name":"Jerichower Land","type":"Landkreis"},"federalState":{"key":"15","name":"Sachsen-Anhalt"}},{"name":"Pretziener Str.","postalCode":"39245","locality":"Gommern","municipality":{"key":"15086055","name":"Gommern, Stadt","type":"Stadt"},"district":{"key":"15086","name":"Jerichower Land","type":"Landkreis"},"federalState":{"key":"15","name":"Sachsen-Anhalt"}},{"name":"Privatstr.","postalCode":"39245","locality":"Gommern","municipality":{"key":"15086055","name":"Gommern, Stadt","type":"Stadt"},"district":{"key":"15086","name":"Jerichower Land","type":"Landkreis"},"federalState":{"key":"15","name":"Sachsen-Anhalt"}},{"name":"Prödeler Weg","postalCode":"39245","locality":"Gommern","municipality":{"key":"15086055","name":"Gommern, Stadt","type":"Stadt"},"district":{"key":"15086","name":"Jerichower Land","type":"Landkreis"},"federalState":{"key":"15","name":"Sachsen-Anhalt"}},{"name":"Rittersberg","postalCode":"39245","locality":"Gommern","municipality":{"key":"15086055","name":"Gommern, Stadt","type":"Stadt"},"district":{"key":"15086","name":"Jerichower Land","type":"Landkreis"},"federalState":{"key":"15","name":"Sachsen-Anhalt"}},{"name":"Rosenstr.","postalCode":"39291","locality":"Gommern","municipality":{"key":"15086055","name":"Gommern, Stadt","type":"Stadt"},"district":{"key":"15086","name":"Jerichower Land","type":"Landkreis"},"federalState":{"key":"15","name":"Sachsen-Anhalt"}},{"name":"Rosenweg","postalCode":"39245","locality":"Gommern","municipality":{"key":"15086055","name":"Gommern, Stadt","type":"Stadt"},"district":{"key":"15086","name":"Jerichower Land","type":"Landkreis"},"federalState":{"key":"15","name":"Sachsen-Anhalt"}},{"name":"Rudolf-Breitscheid-Str.","postalCode":"39245","locality":"Gommern","municipality":{"key":"15086055","name":"Gommern, Stadt","type":"Stadt"},"district":{"key":"15086","name":"Jerichower Land","type":"Landkreis"},"federalState":{"key":"15","name":"Sachsen-Anhalt"}},{"name":"Rudolf-Diesel-Str.","postalCode":"39245","locality":"Gommern","municipality":{"key":"15086055","name":"Gommern, Stadt","type":"Stadt"},"district":{"key":"15086","name":"Jerichower Land","type":"Landkreis"},"federalState":{"key":"15","name":"Sachsen-Anhalt"}},{"name":"Salzstr.","postalCode":"39245","locality":"Gommern","municipality":{"key":"15086055","name":"Gommern, Stadt","type":"Stadt"},"district":{"key":"15086","name":"Jerichower Land","type":"Landkreis"},"federalState":{"key":"15","name":"Sachsen-Anhalt"}},{"name":"Samuel-Hahnemann-Platz","postalCode":"39245","locality":"Gommern","municipality":{"key":"15086055","name":"Gommern, Stadt","type":"Stadt"},"district":{"key":"15086","name":"Jerichower Land","type":"Landkreis"},"federalState":{"key":"15","name":"Sachsen-Anhalt"}},{"name":"Schulstr.","postalCode":"39264","locality":"Gommern","municipality":{"key":"15086055","name":"Gommern, Stadt","type":"Stadt"},"district":{"key":"15086","name":"Jerichower Land","type":"Landkreis"},"federalState":{"key":"15","name":"Sachsen-Anhalt"}},{"name":"Schulstr.","postalCode":"39291","locality":"Gommern","municipality":{"key":"15086055","name":"Gommern, Stadt","type":"Stadt"},"district":{"key":"15086","name":"Jerichower Land","type":"Landkreis"},"federalState":{"key":"15","name":"Sachsen-Anhalt"}},{"name":"Schwarzer Weg","postalCode":"39245","locality":"Gommern","municipality":{"key":"15086055","name":"Gommern, Stadt","type":"Stadt"},"district":{"key":"15086","name":"Jerichower Land","type":"Landkreis"},"federalState":{"key":"15","name":"Sachsen-Anhalt"}},{"name":"Seestr.","postalCode":"39264","locality":"Gommern","municipality":{"key":"15086055","name":"Gommern, Stadt","type":"Stadt"},"district":{"key":"15086","name":"Jerichower Land","type":"Landkreis"},"federalState":{"key":"15","name":"Sachsen-Anhalt"}},{"name":"Siedlung","postalCode":"39245","locality":"Gommern","municipality":{"key":"15086055","name":"Gommern, Stadt","type":"Stadt"},"district":{"key":"15086","name":"Jerichower Land","type":"Landkreis"},"federalState":{"key":"15","name":"Sachsen-Anhalt"}},{"name":"Siedlung","postalCode":"39291","locality":"Gommern","municipality":{"key":"15086055","name":"Gommern, Stadt","type":"Stadt"},"district":{"key":"15086","name":"Jerichower Land","type":"Landkreis"},"federalState":{"key":"15","name":"Sachsen-Anhalt"}},{"name":"Sommerweg","postalCode":"39245","locality":"Gommern","municipality":{"key":"15086055","name":"Gommern, Stadt","type":"Stadt"},"district":{"key":"15086","name":"Jerichower Land","type":"Landkreis"},"federalState":{"key":"15","name":"Sachsen-Anhalt"}},{"name":"Sophie-von-Boetticher-Str.","postalCode":"39245","locality":"Gommern","municipality":{"key":"15086055","name":"Gommern, Stadt","type":"Stadt"},"district":{"key":"15086","name":"Jerichower Land","type":"Landkreis"},"federalState":{"key":"15","name":"Sachsen-Anhalt"}},{"name":"Str. des Sports","postalCode":"39245","locality":"Gommern","municipality":{"key":"15086055","name":"Gommern, Stadt","type":"Stadt"},"district":{"key":"15086","name":"Jerichower Land","type":"Landkreis"},"federalState":{"key":"15","name":"Sachsen-Anhalt"}},{"name":"Teichstr.","postalCode":"39279","locality":"Gommern","municipality":{"key":"15086055","name":"Gommern, Stadt","type":"Stadt"},"district":{"key":"15086","name":"Jerichower Land","type":"Landkreis"},"federalState":{"key":"15","name":"Sachsen-Anhalt"}},{"name":"Teichstr.","postalCode":"39291","locality":"Gommern","municipality":{"key":"15086055","name":"Gommern, Stadt","type":"Stadt"},"district":{"key":"15086","name":"Jerichower Land","type":"Landkreis"},"federalState":{"key":"15","name":"Sachsen-Anhalt"}},{"name":"Thälmannplatz","postalCode":"39291","locality":"Gommern","municipality":{"key":"15086055","name":"Gommern, Stadt","type":"Stadt"},"district":{"key":"15086","name":"Jerichower Land","type":"Landkreis"},"federalState":{"key":"15","name":"Sachsen-Anhalt"}},{"name":"Thälmannstr.","postalCode":"39291","locality":"Gommern","municipality":{"key":"15086055","name":"Gommern, Stadt","type":"Stadt"},"district":{"key":"15086","name":"Jerichower Land","type":"Landkreis"},"federalState":{"key":"15","name":"Sachsen-Anhalt"}},{"name":"Thomas-Müntzer-Platz","postalCode":"39175","locality":"Gommern","municipality":{"key":"15086055","name":"Gommern, Stadt","type":"Stadt"},"district":{"key":"15086","name":"Jerichower Land","type":"Landkreis"},"federalState":{"key":"15","name":"Sachsen-Anhalt"}},{"name":"Triftweg","postalCode":"39245","locality":"Gommern","municipality":{"key":"15086055","name":"Gommern, Stadt","type":"Stadt"},"district":{"key":"15086","name":"Jerichower Land","type":"Landkreis"},"federalState":{"key":"15","name":"Sachsen-Anhalt"}},{"name":"Tulpenweg","postalCode":"39245","locality":"Gommern","municipality":{"key":"15086055","name":"Gommern, Stadt","type":"Stadt"},"district":{"key":"15086","name":"Jerichower Land","type":"Landkreis"},"federalState":{"key":"15","name":"Sachsen-Anhalt"}},{"name":"Tulpenweg","postalCode":"39291","locality":"Gommern","municipality":{"key":"15086055","name":"Gommern, Stadt","type":"Stadt"},"district":{"key":"15086","name":"Jerichower Land","type":"Landkreis"},"federalState":{"key":"15","name":"Sachsen-Anhalt"}},{"name":"Vehlitzer Chaussee","postalCode":"39245","locality":"Gommern","municipality":{"key":"15086055","name":"Gommern, Stadt","type":"Stadt"},"district":{"key":"15086","name":"Jerichower Land","type":"Landkreis"},"federalState":{"key":"15","name":"Sachsen-Anhalt"}},{"name":"Vehlitzer Weg","postalCode":"39291","locality":"Gommern","municipality":{"key":"15086055","name":"Gommern, Stadt","type":"Stadt"},"district":{"key":"15086","name":"Jerichower Land","type":"Landkreis"},"federalState":{"key":"15","name":"Sachsen-Anhalt"}},{"name":"Wahlitzer Weg","postalCode":"39291","locality":"Gommern","municipality":{"key":"15086055","name":"Gommern, Stadt","type":"Stadt"},"district":{"key":"15086","name":"Jerichower Land","type":"Landkreis"},"federalState":{"key":"15","name":"Sachsen-Anhalt"}},{"name":"Waldseestr.","postalCode":"39245","locality":"Gommern","municipality":{"key":"15086055","name":"Gommern, Stadt","type":"Stadt"},"district":{"key":"15086","name":"Jerichower Land","type":"Landkreis"},"federalState":{"key":"15","name":"Sachsen-Anhalt"}},{"name":"Waldstr.","postalCode":"39175","locality":"Gommern","municipality":{"key":"15086055","name":"Gommern, Stadt","type":"Stadt"},"district":{"key":"15086","name":"Jerichower Land","type":"Landkreis"},"federalState":{"key":"15","name":"Sachsen-Anhalt"}},{"name":"Waldstr.","postalCode":"39245","locality":"Gommern","municipality":{"key":"15086055","name":"Gommern, Stadt","type":"Stadt"},"district":{"key":"15086","name":"Jerichower Land","type":"Landkreis"},"federalState":{"key":"15","name":"Sachsen-Anhalt"}},{"name":"Walther-Rathenau-Str.","postalCode":"39245","locality":"Gommern","municipality":{"key":"15086055","name":"Gommern, Stadt","type":"Stadt"},"district":{"key":"15086","name":"Jerichower Land","type":"Landkreis"},"federalState":{"key":"15","name":"Sachsen-Anhalt"}},{"name":"Wiesengrund","postalCode":"39291","locality":"Gommern","municipality":{"key":"15086055","name":"Gommern, Stadt","type":"Stadt"},"district":{"key":"15086","name":"Jerichower Land","type":"Landkreis"},"federalState":{"key":"15","name":"Sachsen-Anhalt"}},{"name":"Wiesenstr.","postalCode":"39245","locality":"Gommern","municipality":{"key":"15086055","name":"Gommern, Stadt","type":"Stadt"},"district":{"key":"15086","name":"Jerichower Land","type":"Landkreis"},"federalState":{"key":"15","name":"Sachsen-Anhalt"}},{"name":"Wiesenstr.","postalCode":"39291","locality":"Gommern","municipality":{"key":"15086055","name":"Gommern, Stadt","type":"Stadt"},"district":{"key":"15086","name":"Jerichower Land","type":"Landkreis"},"federalState":{"key":"15","name":"Sachsen-Anhalt"}},{"name":"Wiesenweg","postalCode":"39245","locality":"Gommern","municipality":{"key":"15086055","name":"Gommern, Stadt","type":"Stadt"},"district":{"key":"15086","name":"Jerichower Land","type":"Landkreis"},"federalState":{"key":"15","name":"Sachsen-Anhalt"}},{"name":"Winkel","postalCode":"39279","locality":"Gommern","municipality":{"key":"15086055","name":"Gommern, Stadt","type":"Stadt"},"district":{"key":"15086","name":"Jerichower Land","type":"Landkreis"},"federalState":{"key":"15","name":"Sachsen-Anhalt"}},{"name":"Zerbster Chaussee","postalCode":"39245","locality":"Gommern","municipality":{"key":"15086055","name":"Gommern, Stadt","type":"Stadt"},"district":{"key":"15086","name":"Jerichower Land","type":"Landkreis"},"federalState":{"key":"15","name":"Sachsen-Anhalt"}},{"name":"Zerbster Str.","postalCode":"39245","locality":"Gommern","municipality":{"key":"15086055","name":"Gommern, Stadt","type":"Stadt"},"district":{"key":"15086","name":"Jerichower Land","type":"Landkreis"},"federalState":{"key":"15","name":"Sachsen-Anhalt"}},{"name":"Zerbster Str.","postalCode":"39279","locality":"Gommern","municipality":{"key":"15086055","name":"Gommern, Stadt","type":"Stadt"},"district":{"key":"15086","name":"Jerichower Land","type":"Landkreis"},"federalState":{"key":"15","name":"Sachsen-Anhalt"}},{"name":"Zerbster Weg","postalCode":"39264","locality":"Gommern","municipality":{"key":"15086055","name":"Gommern, Stadt","type":"Stadt"},"district":{"key":"15086","name":"Jerichower Land","type":"Landkreis"},"federalState":{"key":"15","name":"Sachsen-Anhalt"}},{"name":"Zum Blick","postalCode":"39245","locality":"Gommern","municipality":{"key":"15086055","name":"Gommern, Stadt","type":"Stadt"},"district":{"key":"15086","name":"Jerichower Land","type":"Landkreis"},"federalState":{"key":"15","name":"Sachsen-Anhalt"}},{"name":"Zum Holländer","postalCode":"39245","locality":"Gommern","municipality":{"key":"15086055","name":"Gommern, Stadt","type":"Stadt"},"district":{"key":"15086","name":"Jerichower Land","type":"Landkreis"},"federalState":{"key":"15","name":"Sachsen-Anhalt"}},{"name":"Zum Osterberg","postalCode":"39245","locality":"Gommern","municipality":{"key":"15086055","name":"Gommern, Stadt","type":"Stadt"},"district":{"key":"15086","name":"Jerichower Land","type":"Landkreis"},"federalState":{"key":"15","name":"Sachsen-Anhalt"}},{"name":"Zum Rondell","postalCode":"39245","locality":"Gommern","municipality":{"key":"15086055","name":"Gommern, Stadt","type":"Stadt"},"district":{"key":"15086","name":"Jerichower Land","type":"Landkreis"},"federalState":{"key":"15","name":"Sachsen-Anhalt"}},{"name":"Zum Wiesenteich","postalCode":"39291","locality":"Gommern","municipality":{"key":"15086055","name":"Gommern, Stadt","type":"Stadt"},"district":{"key":"15086","name":"Jerichower Land","type":"Landkreis"},"federalState":{"key":"15","name":"Sachsen-Anhalt"}},{"name":"Zur Pfingstwiese","postalCode":"39245","locality":"Gommern","municipality":{"key":"15086055","name":"Gommern, Stadt","type":"Stadt"},"district":{"key":"15086","name":"Jerichower Land","type":"Landkreis"},"federalState":{"key":"15","name":"Sachsen-Anhalt"}},]