[{"name":"Am Rotdorn","postalCode":"25746","locality":"Wesseln","municipality":{"key":"01051130","name":"Wesseln","type":"Kreisangehörige_Gemeinde"},"district":{"key":"01051","name":"Dithmarschen","type":"Kreis"},"federalState":{"key":"01","name":"Schleswig-Holstein"}},{"name":"Am Ruthenstrom","postalCode":"25746","locality":"Wesseln","municipality":{"key":"01051130","name":"Wesseln","type":"Kreisangehörige_Gemeinde"},"district":{"key":"01051","name":"Dithmarschen","type":"Kreis"},"federalState":{"key":"01","name":"Schleswig-Holstein"}},{"name":"Am Schwarzdorn","postalCode":"25746","locality":"Wesseln","municipality":{"key":"01051130","name":"Wesseln","type":"Kreisangehörige_Gemeinde"},"district":{"key":"01051","name":"Dithmarschen","type":"Kreis"},"federalState":{"key":"01","name":"Schleswig-Holstein"}},{"name":"Amselweg","postalCode":"25746","locality":"Wesseln","municipality":{"key":"01051130","name":"Wesseln","type":"Kreisangehörige_Gemeinde"},"district":{"key":"01051","name":"Dithmarschen","type":"Kreis"},"federalState":{"key":"01","name":"Schleswig-Holstein"}},{"name":"Am Weißdorn","postalCode":"25746","locality":"Wesseln","municipality":{"key":"01051130","name":"Wesseln","type":"Kreisangehörige_Gemeinde"},"district":{"key":"01051","name":"Dithmarschen","type":"Kreis"},"federalState":{"key":"01","name":"Schleswig-Holstein"}},{"name":"An der Bundesstr. 5","postalCode":"25746","locality":"Wesseln","municipality":{"key":"01051130","name":"Wesseln","type":"Kreisangehörige_Gemeinde"},"district":{"key":"01051","name":"Dithmarschen","type":"Kreis"},"federalState":{"key":"01","name":"Schleswig-Holstein"}},{"name":"Birkenweg","postalCode":"25746","locality":"Wesseln","municipality":{"key":"01051130","name":"Wesseln","type":"Kreisangehörige_Gemeinde"},"district":{"key":"01051","name":"Dithmarschen","type":"Kreis"},"federalState":{"key":"01","name":"Schleswig-Holstein"}},{"name":"Brookweg","postalCode":"25746","locality":"Wesseln","municipality":{"key":"01051130","name":"Wesseln","type":"Kreisangehörige_Gemeinde"},"district":{"key":"01051","name":"Dithmarschen","type":"Kreis"},"federalState":{"key":"01","name":"Schleswig-Holstein"}},{"name":"Bürgermeister-Lohmeier-Ring","postalCode":"25746","locality":"Wesseln","municipality":{"key":"01051130","name":"Wesseln","type":"Kreisangehörige_Gemeinde"},"district":{"key":"01051","name":"Dithmarschen","type":"Kreis"},"federalState":{"key":"01","name":"Schleswig-Holstein"}},{"name":"Dithmarscher Str.","postalCode":"25746","locality":"Wesseln","municipality":{"key":"01051130","name":"Wesseln","type":"Kreisangehörige_Gemeinde"},"district":{"key":"01051","name":"Dithmarschen","type":"Kreis"},"federalState":{"key":"01","name":"Schleswig-Holstein"}},{"name":"Doppeleiche","postalCode":"25746","locality":"Wesseln","municipality":{"key":"01051130","name":"Wesseln","type":"Kreisangehörige_Gemeinde"},"district":{"key":"01051","name":"Dithmarschen","type":"Kreis"},"federalState":{"key":"01","name":"Schleswig-Holstein"}},{"name":"Eichelhäherweg","postalCode":"25746","locality":"Wesseln","municipality":{"key":"01051130","name":"Wesseln","type":"Kreisangehörige_Gemeinde"},"district":{"key":"01051","name":"Dithmarschen","type":"Kreis"},"federalState":{"key":"01","name":"Schleswig-Holstein"}},{"name":"Erlenweg","postalCode":"25746","locality":"Wesseln","municipality":{"key":"01051130","name":"Wesseln","type":"Kreisangehörige_Gemeinde"},"district":{"key":"01051","name":"Dithmarschen","type":"Kreis"},"federalState":{"key":"01","name":"Schleswig-Holstein"}},{"name":"Eschenkamp","postalCode":"25746","locality":"Wesseln","municipality":{"key":"01051130","name":"Wesseln","type":"Kreisangehörige_Gemeinde"},"district":{"key":"01051","name":"Dithmarschen","type":"Kreis"},"federalState":{"key":"01","name":"Schleswig-Holstein"}},{"name":"Eulenkamp","postalCode":"25746","locality":"Wesseln","municipality":{"key":"01051130","name":"Wesseln","type":"Kreisangehörige_Gemeinde"},"district":{"key":"01051","name":"Dithmarschen","type":"Kreis"},"federalState":{"key":"01","name":"Schleswig-Holstein"}},{"name":"Fliederweg","postalCode":"25746","locality":"Wesseln","municipality":{"key":"01051130","name":"Wesseln","type":"Kreisangehörige_Gemeinde"},"district":{"key":"01051","name":"Dithmarschen","type":"Kreis"},"federalState":{"key":"01","name":"Schleswig-Holstein"}},{"name":"Geestkamp","postalCode":"25746","locality":"Wesseln","municipality":{"key":"01051130","name":"Wesseln","type":"Kreisangehörige_Gemeinde"},"district":{"key":"01051","name":"Dithmarschen","type":"Kreis"},"federalState":{"key":"01","name":"Schleswig-Holstein"}},{"name":"Grüner Kamp","postalCode":"25746","locality":"Wesseln","municipality":{"key":"01051130","name":"Wesseln","type":"Kreisangehörige_Gemeinde"},"district":{"key":"01051","name":"Dithmarschen","type":"Kreis"},"federalState":{"key":"01","name":"Schleswig-Holstein"}},{"name":"Heider Weg","postalCode":"25746","locality":"Wesseln","municipality":{"key":"01051130","name":"Wesseln","type":"Kreisangehörige_Gemeinde"},"district":{"key":"01051","name":"Dithmarschen","type":"Kreis"},"federalState":{"key":"01","name":"Schleswig-Holstein"}},{"name":"Holstenstr.","postalCode":"25746","locality":"Wesseln","municipality":{"key":"01051130","name":"Wesseln","type":"Kreisangehörige_Gemeinde"},"district":{"key":"01051","name":"Dithmarschen","type":"Kreis"},"federalState":{"key":"01","name":"Schleswig-Holstein"}},{"name":"Im Grünen","postalCode":"25746","locality":"Wesseln","municipality":{"key":"01051130","name":"Wesseln","type":"Kreisangehörige_Gemeinde"},"district":{"key":"01051","name":"Dithmarschen","type":"Kreis"},"federalState":{"key":"01","name":"Schleswig-Holstein"}},{"name":"Im Wiesengrund","postalCode":"25746","locality":"Wesseln","municipality":{"key":"01051130","name":"Wesseln","type":"Kreisangehörige_Gemeinde"},"district":{"key":"01051","name":"Dithmarschen","type":"Kreis"},"federalState":{"key":"01","name":"Schleswig-Holstein"}},{"name":"Jägerstr.","postalCode":"25746","locality":"Wesseln","municipality":{"key":"01051130","name":"Wesseln","type":"Kreisangehörige_Gemeinde"},"district":{"key":"01051","name":"Dithmarschen","type":"Kreis"},"federalState":{"key":"01","name":"Schleswig-Holstein"}},{"name":"Kastanienweg","postalCode":"25746","locality":"Wesseln","municipality":{"key":"01051130","name":"Wesseln","type":"Kreisangehörige_Gemeinde"},"district":{"key":"01051","name":"Dithmarschen","type":"Kreis"},"federalState":{"key":"01","name":"Schleswig-Holstein"}},{"name":"Kiefernweg","postalCode":"25746","locality":"Wesseln","municipality":{"key":"01051130","name":"Wesseln","type":"Kreisangehörige_Gemeinde"},"district":{"key":"01051","name":"Dithmarschen","type":"Kreis"},"federalState":{"key":"01","name":"Schleswig-Holstein"}},{"name":"Lindenstr.","postalCode":"25712","locality":"Burg (Dithmarschen)","municipality":{"key":"01051016","name":"Burg (Dithmarschen)","type":"Kreisangehörige_Gemeinde"},"district":{"key":"01051","name":"Dithmarschen","type":"Kreis"},"federalState":{"key":"01","name":"Schleswig-Holstein"}},{"name":"Meisenweg","postalCode":"25746","locality":"Wesseln","municipality":{"key":"01051130","name":"Wesseln","type":"Kreisangehörige_Gemeinde"},"district":{"key":"01051","name":"Dithmarschen","type":"Kreis"},"federalState":{"key":"01","name":"Schleswig-Holstein"}},{"name":"Nordfelder Str.","postalCode":"25746","locality":"Wesseln","municipality":{"key":"01051130","name":"Wesseln","type":"Kreisangehörige_Gemeinde"},"district":{"key":"01051","name":"Dithmarschen","type":"Kreis"},"federalState":{"key":"01","name":"Schleswig-Holstein"}},{"name":"Ole Schoolweg","postalCode":"25746","locality":"Wesseln","municipality":{"key":"01051130","name":"Wesseln","type":"Kreisangehörige_Gemeinde"},"district":{"key":"01051","name":"Dithmarschen","type":"Kreis"},"federalState":{"key":"01","name":"Schleswig-Holstein"}},{"name":"Parallelstr.","postalCode":"25712","locality":"Burg (Dithmarschen)","municipality":{"key":"01051016","name":"Burg (Dithmarschen)","type":"Kreisangehörige_Gemeinde"},"district":{"key":"01051","name":"Dithmarschen","type":"Kreis"},"federalState":{"key":"01","name":"Schleswig-Holstein"}},{"name":"Peter-Göttsche-Str.","postalCode":"25712","locality":"Burg (Dithmarschen)","municipality":{"key":"01051016","name":"Burg (Dithmarschen)","type":"Kreisangehörige_Gemeinde"},"district":{"key":"01051","name":"Dithmarschen","type":"Kreis"},"federalState":{"key":"01","name":"Schleswig-Holstein"}},{"name":"Reiterweg","postalCode":"25746","locality":"Wesseln","municipality":{"key":"01051130","name":"Wesseln","type":"Kreisangehörige_Gemeinde"},"district":{"key":"01051","name":"Dithmarschen","type":"Kreis"},"federalState":{"key":"01","name":"Schleswig-Holstein"}},{"name":"Schützenstr.","postalCode":"25746","locality":"Wesseln","municipality":{"key":"01051130","name":"Wesseln","type":"Kreisangehörige_Gemeinde"},"district":{"key":"01051","name":"Dithmarschen","type":"Kreis"},"federalState":{"key":"01","name":"Schleswig-Holstein"}},{"name":"Schwalbenweg","postalCode":"25746","locality":"Wesseln","municipality":{"key":"01051130","name":"Wesseln","type":"Kreisangehörige_Gemeinde"},"district":{"key":"01051","name":"Dithmarschen","type":"Kreis"},"federalState":{"key":"01","name":"Schleswig-Holstein"}},{"name":"Sportweg","postalCode":"25746","locality":"Wesseln","municipality":{"key":"01051130","name":"Wesseln","type":"Kreisangehörige_Gemeinde"},"district":{"key":"01051","name":"Dithmarschen","type":"Kreis"},"federalState":{"key":"01","name":"Schleswig-Holstein"}},{"name":"Tannenbergallee","postalCode":"25712","locality":"Burg (Dithmarschen)","municipality":{"key":"01051016","name":"Burg (Dithmarschen)","type":"Kreisangehörige_Gemeinde"},"district":{"key":"01051","name":"Dithmarschen","type":"Kreis"},"federalState":{"key":"01","name":"Schleswig-Holstein"}},{"name":"Theodor-Storm-Weg","postalCode":"25712","locality":"Burg (Dithmarschen)","municipality":{"key":"01051016","name":"Burg (Dithmarschen)","type":"Kreisangehörige_Gemeinde"},"district":{"key":"01051","name":"Dithmarschen","type":"Kreis"},"federalState":{"key":"01","name":"Schleswig-Holstein"}},{"name":"Von-Humboldt-Str.","postalCode":"25746","locality":"Wesseln","municipality":{"key":"01051130","name":"Wesseln","type":"Kreisangehörige_Gemeinde"},"district":{"key":"01051","name":"Dithmarschen","type":"Kreis"},"federalState":{"key":"01","name":"Schleswig-Holstein"}},{"name":"Voßwurth","postalCode":"25746","locality":"Wesseln","municipality":{"key":"01051130","name":"Wesseln","type":"Kreisangehörige_Gemeinde"},"district":{"key":"01051","name":"Dithmarschen","type":"Kreis"},"federalState":{"key":"01","name":"Schleswig-Holstein"}},{"name":"Wesling","postalCode":"25746","locality":"Wesseln","municipality":{"key":"01051130","name":"Wesseln","type":"Kreisangehörige_Gemeinde"},"district":{"key":"01051","name":"Dithmarschen","type":"Kreis"},"federalState":{"key":"01","name":"Schleswig-Holstein"}},{"name":"Wischweg","postalCode":"25746","locality":"Wesseln","municipality":{"key":"01051130","name":"Wesseln","type":"Kreisangehörige_Gemeinde"},"district":{"key":"01051","name":"Dithmarschen","type":"Kreis"},"federalState":{"key":"01","name":"Schleswig-Holstein"}},{"name":"Zaunkönigweg","postalCode":"25712","locality":"Burg (Dithmarschen)","municipality":{"key":"01051016","name":"Burg (Dithmarschen)","type":"Kreisangehörige_Gemeinde"},"district":{"key":"01051","name":"Dithmarschen","type":"Kreis"},"federalState":{"key":"01","name":"Schleswig-Holstein"}},]