[{"name":"Adelsbrunnenweg","postalCode":"76359","locality":"Marxzell","municipality":{"key":"08215047","name":"Marxzell","type":"Kreisangehörige_Gemeinde"},"district":{"key":"08215","name":"Karlsruhe","type":"Landkreis"},"federalState":{"key":"08","name":"Baden-Württemberg"}},{"name":"Adlerstr.","postalCode":"76359","locality":"Marxzell","municipality":{"key":"08215047","name":"Marxzell","type":"Kreisangehörige_Gemeinde"},"district":{"key":"08215","name":"Karlsruhe","type":"Landkreis"},"federalState":{"key":"08","name":"Baden-Württemberg"}},{"name":"Albtalstr.","postalCode":"76359","locality":"Marxzell","municipality":{"key":"08215047","name":"Marxzell","type":"Kreisangehörige_Gemeinde"},"district":{"key":"08215","name":"Karlsruhe","type":"Landkreis"},"federalState":{"key":"08","name":"Baden-Württemberg"}},{"name":"Alleeweg","postalCode":"76359","locality":"Marxzell","municipality":{"key":"08215047","name":"Marxzell","type":"Kreisangehörige_Gemeinde"},"district":{"key":"08215","name":"Karlsruhe","type":"Landkreis"},"federalState":{"key":"08","name":"Baden-Württemberg"}},{"name":"Altbreithofweg","postalCode":"76359","locality":"Marxzell","municipality":{"key":"08215047","name":"Marxzell","type":"Kreisangehörige_Gemeinde"},"district":{"key":"08215","name":"Karlsruhe","type":"Landkreis"},"federalState":{"key":"08","name":"Baden-Württemberg"}},{"name":"Alte Bernbacher Steige","postalCode":"76359","locality":"Marxzell","municipality":{"key":"08215047","name":"Marxzell","type":"Kreisangehörige_Gemeinde"},"district":{"key":"08215","name":"Karlsruhe","type":"Landkreis"},"federalState":{"key":"08","name":"Baden-Württemberg"}},{"name":"Alter Brückweg","postalCode":"76359","locality":"Marxzell","municipality":{"key":"08215047","name":"Marxzell","type":"Kreisangehörige_Gemeinde"},"district":{"key":"08215","name":"Karlsruhe","type":"Landkreis"},"federalState":{"key":"08","name":"Baden-Württemberg"}},{"name":"Alter Völkersbacherweg","postalCode":"76359","locality":"Marxzell","municipality":{"key":"08215047","name":"Marxzell","type":"Kreisangehörige_Gemeinde"},"district":{"key":"08215","name":"Karlsruhe","type":"Landkreis"},"federalState":{"key":"08","name":"Baden-Württemberg"}},{"name":"Altes Burbacher Sträßle","postalCode":"76359","locality":"Marxzell","municipality":{"key":"08215047","name":"Marxzell","type":"Kreisangehörige_Gemeinde"},"district":{"key":"08215","name":"Karlsruhe","type":"Landkreis"},"federalState":{"key":"08","name":"Baden-Württemberg"}},{"name":"Altweiberweg","postalCode":"76359","locality":"Marxzell","municipality":{"key":"08215047","name":"Marxzell","type":"Kreisangehörige_Gemeinde"},"district":{"key":"08215","name":"Karlsruhe","type":"Landkreis"},"federalState":{"key":"08","name":"Baden-Württemberg"}},{"name":"Ambrosweg","postalCode":"76359","locality":"Marxzell","municipality":{"key":"08215047","name":"Marxzell","type":"Kreisangehörige_Gemeinde"},"district":{"key":"08215","name":"Karlsruhe","type":"Landkreis"},"federalState":{"key":"08","name":"Baden-Württemberg"}},{"name":"Am Buchenhain","postalCode":"76359","locality":"Marxzell","municipality":{"key":"08215047","name":"Marxzell","type":"Kreisangehörige_Gemeinde"},"district":{"key":"08215","name":"Karlsruhe","type":"Landkreis"},"federalState":{"key":"08","name":"Baden-Württemberg"}},{"name":"Am Dobelblick","postalCode":"76359","locality":"Marxzell","municipality":{"key":"08215047","name":"Marxzell","type":"Kreisangehörige_Gemeinde"},"district":{"key":"08215","name":"Karlsruhe","type":"Landkreis"},"federalState":{"key":"08","name":"Baden-Württemberg"}},{"name":"Am Fuchsbau","postalCode":"76359","locality":"Marxzell","municipality":{"key":"08215047","name":"Marxzell","type":"Kreisangehörige_Gemeinde"},"district":{"key":"08215","name":"Karlsruhe","type":"Landkreis"},"federalState":{"key":"08","name":"Baden-Württemberg"}},{"name":"Am Hang","postalCode":"76359","locality":"Marxzell","municipality":{"key":"08215047","name":"Marxzell","type":"Kreisangehörige_Gemeinde"},"district":{"key":"08215","name":"Karlsruhe","type":"Landkreis"},"federalState":{"key":"08","name":"Baden-Württemberg"}},{"name":"Am Hirtengärtle","postalCode":"76359","locality":"Marxzell","municipality":{"key":"08215047","name":"Marxzell","type":"Kreisangehörige_Gemeinde"},"district":{"key":"08215","name":"Karlsruhe","type":"Landkreis"},"federalState":{"key":"08","name":"Baden-Württemberg"}},{"name":"Am Sonnenhang","postalCode":"76359","locality":"Marxzell","municipality":{"key":"08215047","name":"Marxzell","type":"Kreisangehörige_Gemeinde"},"district":{"key":"08215","name":"Karlsruhe","type":"Landkreis"},"federalState":{"key":"08","name":"Baden-Württemberg"}},{"name":"Am Südhang","postalCode":"76359","locality":"Marxzell","municipality":{"key":"08215047","name":"Marxzell","type":"Kreisangehörige_Gemeinde"},"district":{"key":"08215","name":"Karlsruhe","type":"Landkreis"},"federalState":{"key":"08","name":"Baden-Württemberg"}},{"name":"Am Talblick","postalCode":"76359","locality":"Marxzell","municipality":{"key":"08215047","name":"Marxzell","type":"Kreisangehörige_Gemeinde"},"district":{"key":"08215","name":"Karlsruhe","type":"Landkreis"},"federalState":{"key":"08","name":"Baden-Württemberg"}},{"name":"Am Waldsaum","postalCode":"76359","locality":"Marxzell","municipality":{"key":"08215047","name":"Marxzell","type":"Kreisangehörige_Gemeinde"},"district":{"key":"08215","name":"Karlsruhe","type":"Landkreis"},"federalState":{"key":"08","name":"Baden-Württemberg"}},{"name":"Antoniusweg","postalCode":"76359","locality":"Marxzell","municipality":{"key":"08215047","name":"Marxzell","type":"Kreisangehörige_Gemeinde"},"district":{"key":"08215","name":"Karlsruhe","type":"Landkreis"},"federalState":{"key":"08","name":"Baden-Württemberg"}},{"name":"Bergkolonie","postalCode":"76359","locality":"Marxzell","municipality":{"key":"08215047","name":"Marxzell","type":"Kreisangehörige_Gemeinde"},"district":{"key":"08215","name":"Karlsruhe","type":"Landkreis"},"federalState":{"key":"08","name":"Baden-Württemberg"}},{"name":"Bergstr.","postalCode":"76359","locality":"Marxzell","municipality":{"key":"08215047","name":"Marxzell","type":"Kreisangehörige_Gemeinde"},"district":{"key":"08215","name":"Karlsruhe","type":"Landkreis"},"federalState":{"key":"08","name":"Baden-Württemberg"}},{"name":"Bernbacher Steigle","postalCode":"76359","locality":"Marxzell","municipality":{"key":"08215047","name":"Marxzell","type":"Kreisangehörige_Gemeinde"},"district":{"key":"08215","name":"Karlsruhe","type":"Landkreis"},"federalState":{"key":"08","name":"Baden-Württemberg"}},{"name":"Bernbacher Str.","postalCode":"76359","locality":"Marxzell","municipality":{"key":"08215047","name":"Marxzell","type":"Kreisangehörige_Gemeinde"},"district":{"key":"08215","name":"Karlsruhe","type":"Landkreis"},"federalState":{"key":"08","name":"Baden-Württemberg"}},{"name":"Bernsteinstr.","postalCode":"76359","locality":"Marxzell","municipality":{"key":"08215047","name":"Marxzell","type":"Kreisangehörige_Gemeinde"},"district":{"key":"08215","name":"Karlsruhe","type":"Landkreis"},"federalState":{"key":"08","name":"Baden-Württemberg"}},{"name":"Binsenäckerweg","postalCode":"76359","locality":"Marxzell","municipality":{"key":"08215047","name":"Marxzell","type":"Kreisangehörige_Gemeinde"},"district":{"key":"08215","name":"Karlsruhe","type":"Landkreis"},"federalState":{"key":"08","name":"Baden-Württemberg"}},{"name":"Birkenstr.","postalCode":"76359","locality":"Marxzell","municipality":{"key":"08215047","name":"Marxzell","type":"Kreisangehörige_Gemeinde"},"district":{"key":"08215","name":"Karlsruhe","type":"Landkreis"},"federalState":{"key":"08","name":"Baden-Württemberg"}},{"name":"Blöcherweg","postalCode":"76359","locality":"Marxzell","municipality":{"key":"08215047","name":"Marxzell","type":"Kreisangehörige_Gemeinde"},"district":{"key":"08215","name":"Karlsruhe","type":"Landkreis"},"federalState":{"key":"08","name":"Baden-Württemberg"}},{"name":"Blumenstr.","postalCode":"76359","locality":"Marxzell","municipality":{"key":"08215047","name":"Marxzell","type":"Kreisangehörige_Gemeinde"},"district":{"key":"08215","name":"Karlsruhe","type":"Landkreis"},"federalState":{"key":"08","name":"Baden-Württemberg"}},{"name":"Breitenacker","postalCode":"76359","locality":"Marxzell","municipality":{"key":"08215047","name":"Marxzell","type":"Kreisangehörige_Gemeinde"},"district":{"key":"08215","name":"Karlsruhe","type":"Landkreis"},"federalState":{"key":"08","name":"Baden-Württemberg"}},{"name":"Breithofweg","postalCode":"76359","locality":"Marxzell","municipality":{"key":"08215047","name":"Marxzell","type":"Kreisangehörige_Gemeinde"},"district":{"key":"08215","name":"Karlsruhe","type":"Landkreis"},"federalState":{"key":"08","name":"Baden-Württemberg"}},{"name":"Brunnenstr.","postalCode":"76359","locality":"Marxzell","municipality":{"key":"08215047","name":"Marxzell","type":"Kreisangehörige_Gemeinde"},"district":{"key":"08215","name":"Karlsruhe","type":"Landkreis"},"federalState":{"key":"08","name":"Baden-Württemberg"}},{"name":"Brunnenweg","postalCode":"76359","locality":"Marxzell","municipality":{"key":"08215047","name":"Marxzell","type":"Kreisangehörige_Gemeinde"},"district":{"key":"08215","name":"Karlsruhe","type":"Landkreis"},"federalState":{"key":"08","name":"Baden-Württemberg"}},{"name":"Brünnisbrunnenweg","postalCode":"76359","locality":"Marxzell","municipality":{"key":"08215047","name":"Marxzell","type":"Kreisangehörige_Gemeinde"},"district":{"key":"08215","name":"Karlsruhe","type":"Landkreis"},"federalState":{"key":"08","name":"Baden-Württemberg"}},{"name":"Bückele","postalCode":"76359","locality":"Marxzell","municipality":{"key":"08215047","name":"Marxzell","type":"Kreisangehörige_Gemeinde"},"district":{"key":"08215","name":"Karlsruhe","type":"Landkreis"},"federalState":{"key":"08","name":"Baden-Württemberg"}},{"name":"Burbacher Str.","postalCode":"76359","locality":"Marxzell","municipality":{"key":"08215047","name":"Marxzell","type":"Kreisangehörige_Gemeinde"},"district":{"key":"08215","name":"Karlsruhe","type":"Landkreis"},"federalState":{"key":"08","name":"Baden-Württemberg"}},{"name":"Carl-Benz-Str.","postalCode":"76359","locality":"Marxzell","municipality":{"key":"08215047","name":"Marxzell","type":"Kreisangehörige_Gemeinde"},"district":{"key":"08215","name":"Karlsruhe","type":"Landkreis"},"federalState":{"key":"08","name":"Baden-Württemberg"}},{"name":"Dekan-Fellhauer-Str.","postalCode":"76359","locality":"Marxzell","municipality":{"key":"08215047","name":"Marxzell","type":"Kreisangehörige_Gemeinde"},"district":{"key":"08215","name":"Karlsruhe","type":"Landkreis"},"federalState":{"key":"08","name":"Baden-Württemberg"}},{"name":"Diebskopfweg","postalCode":"76359","locality":"Marxzell","municipality":{"key":"08215047","name":"Marxzell","type":"Kreisangehörige_Gemeinde"},"district":{"key":"08215","name":"Karlsruhe","type":"Landkreis"},"federalState":{"key":"08","name":"Baden-Württemberg"}},{"name":"Diebswiesenweg","postalCode":"76359","locality":"Marxzell","municipality":{"key":"08215047","name":"Marxzell","type":"Kreisangehörige_Gemeinde"},"district":{"key":"08215","name":"Karlsruhe","type":"Landkreis"},"federalState":{"key":"08","name":"Baden-Württemberg"}},{"name":"Ebersteinstr.","postalCode":"76359","locality":"Marxzell","municipality":{"key":"08215047","name":"Marxzell","type":"Kreisangehörige_Gemeinde"},"district":{"key":"08215","name":"Karlsruhe","type":"Landkreis"},"federalState":{"key":"08","name":"Baden-Württemberg"}},{"name":"Eichelgartenweg","postalCode":"76359","locality":"Marxzell","municipality":{"key":"08215047","name":"Marxzell","type":"Kreisangehörige_Gemeinde"},"district":{"key":"08215","name":"Karlsruhe","type":"Landkreis"},"federalState":{"key":"08","name":"Baden-Württemberg"}},{"name":"Eselsweg","postalCode":"76359","locality":"Marxzell","municipality":{"key":"08215047","name":"Marxzell","type":"Kreisangehörige_Gemeinde"},"district":{"key":"08215","name":"Karlsruhe","type":"Landkreis"},"federalState":{"key":"08","name":"Baden-Württemberg"}},{"name":"Ettlinger Str.","postalCode":"76359","locality":"Marxzell","municipality":{"key":"08215047","name":"Marxzell","type":"Kreisangehörige_Gemeinde"},"district":{"key":"08215","name":"Karlsruhe","type":"Landkreis"},"federalState":{"key":"08","name":"Baden-Württemberg"}},{"name":"Falkensteinstr.","postalCode":"76359","locality":"Marxzell","municipality":{"key":"08215047","name":"Marxzell","type":"Kreisangehörige_Gemeinde"},"district":{"key":"08215","name":"Karlsruhe","type":"Landkreis"},"federalState":{"key":"08","name":"Baden-Württemberg"}},{"name":"Fichtenstr.","postalCode":"76359","locality":"Marxzell","municipality":{"key":"08215047","name":"Marxzell","type":"Kreisangehörige_Gemeinde"},"district":{"key":"08215","name":"Karlsruhe","type":"Landkreis"},"federalState":{"key":"08","name":"Baden-Württemberg"}},{"name":"Frauenalber Str.","postalCode":"76359","locality":"Marxzell","municipality":{"key":"08215047","name":"Marxzell","type":"Kreisangehörige_Gemeinde"},"district":{"key":"08215","name":"Karlsruhe","type":"Landkreis"},"federalState":{"key":"08","name":"Baden-Württemberg"}},{"name":"Freiolsheimer Weg","postalCode":"76359","locality":"Marxzell","municipality":{"key":"08215047","name":"Marxzell","type":"Kreisangehörige_Gemeinde"},"district":{"key":"08215","name":"Karlsruhe","type":"Landkreis"},"federalState":{"key":"08","name":"Baden-Württemberg"}},{"name":"Friedhofstr.","postalCode":"76359","locality":"Marxzell","municipality":{"key":"08215047","name":"Marxzell","type":"Kreisangehörige_Gemeinde"},"district":{"key":"08215","name":"Karlsruhe","type":"Landkreis"},"federalState":{"key":"08","name":"Baden-Württemberg"}},{"name":"Fuchsbauweg","postalCode":"76359","locality":"Marxzell","municipality":{"key":"08215047","name":"Marxzell","type":"Kreisangehörige_Gemeinde"},"district":{"key":"08215","name":"Karlsruhe","type":"Landkreis"},"federalState":{"key":"08","name":"Baden-Württemberg"}},{"name":"Gartenstr.","postalCode":"76359","locality":"Marxzell","municipality":{"key":"08215047","name":"Marxzell","type":"Kreisangehörige_Gemeinde"},"district":{"key":"08215","name":"Karlsruhe","type":"Landkreis"},"federalState":{"key":"08","name":"Baden-Württemberg"}},{"name":"Gertrudisweg","postalCode":"76359","locality":"Marxzell","municipality":{"key":"08215047","name":"Marxzell","type":"Kreisangehörige_Gemeinde"},"district":{"key":"08215","name":"Karlsruhe","type":"Landkreis"},"federalState":{"key":"08","name":"Baden-Württemberg"}},{"name":"Glasbergweg","postalCode":"76359","locality":"Marxzell","municipality":{"key":"08215047","name":"Marxzell","type":"Kreisangehörige_Gemeinde"},"district":{"key":"08215","name":"Karlsruhe","type":"Landkreis"},"federalState":{"key":"08","name":"Baden-Württemberg"}},{"name":"Glaserweg","postalCode":"76359","locality":"Marxzell","municipality":{"key":"08215047","name":"Marxzell","type":"Kreisangehörige_Gemeinde"},"district":{"key":"08215","name":"Karlsruhe","type":"Landkreis"},"federalState":{"key":"08","name":"Baden-Württemberg"}},{"name":"Glaßweg","postalCode":"76359","locality":"Marxzell","municipality":{"key":"08215047","name":"Marxzell","type":"Kreisangehörige_Gemeinde"},"district":{"key":"08215","name":"Karlsruhe","type":"Landkreis"},"federalState":{"key":"08","name":"Baden-Württemberg"}},{"name":"Gockelsweg","postalCode":"76359","locality":"Marxzell","municipality":{"key":"08215047","name":"Marxzell","type":"Kreisangehörige_Gemeinde"},"district":{"key":"08215","name":"Karlsruhe","type":"Landkreis"},"federalState":{"key":"08","name":"Baden-Württemberg"}},{"name":"Graf Rhena Weg","postalCode":"76359","locality":"Marxzell","municipality":{"key":"08215047","name":"Marxzell","type":"Kreisangehörige_Gemeinde"},"district":{"key":"08215","name":"Karlsruhe","type":"Landkreis"},"federalState":{"key":"08","name":"Baden-Württemberg"}},{"name":"Graf-Rhena-Weg","postalCode":"76359","locality":"Marxzell","municipality":{"key":"08215047","name":"Marxzell","type":"Kreisangehörige_Gemeinde"},"district":{"key":"08215","name":"Karlsruhe","type":"Landkreis"},"federalState":{"key":"08","name":"Baden-Württemberg"}},{"name":"Greifendorfer Str.","postalCode":"76359","locality":"Marxzell","municipality":{"key":"08215047","name":"Marxzell","type":"Kreisangehörige_Gemeinde"},"district":{"key":"08215","name":"Karlsruhe","type":"Landkreis"},"federalState":{"key":"08","name":"Baden-Württemberg"}},{"name":"Grenzweg","postalCode":"76359","locality":"Marxzell","municipality":{"key":"08215047","name":"Marxzell","type":"Kreisangehörige_Gemeinde"},"district":{"key":"08215","name":"Karlsruhe","type":"Landkreis"},"federalState":{"key":"08","name":"Baden-Württemberg"}},{"name":"Hangweg","postalCode":"76359","locality":"Marxzell","municipality":{"key":"08215047","name":"Marxzell","type":"Kreisangehörige_Gemeinde"},"district":{"key":"08215","name":"Karlsruhe","type":"Landkreis"},"federalState":{"key":"08","name":"Baden-Württemberg"}},{"name":"Hansjakobstr.","postalCode":"76359","locality":"Marxzell","municipality":{"key":"08215047","name":"Marxzell","type":"Kreisangehörige_Gemeinde"},"district":{"key":"08215","name":"Karlsruhe","type":"Landkreis"},"federalState":{"key":"08","name":"Baden-Württemberg"}},{"name":"Hans-Thoma-Str.","postalCode":"76359","locality":"Marxzell","municipality":{"key":"08215047","name":"Marxzell","type":"Kreisangehörige_Gemeinde"},"district":{"key":"08215","name":"Karlsruhe","type":"Landkreis"},"federalState":{"key":"08","name":"Baden-Württemberg"}},{"name":"Hauweg","postalCode":"76359","locality":"Marxzell","municipality":{"key":"08215047","name":"Marxzell","type":"Kreisangehörige_Gemeinde"},"district":{"key":"08215","name":"Karlsruhe","type":"Landkreis"},"federalState":{"key":"08","name":"Baden-Württemberg"}},{"name":"Hebelstr.","postalCode":"76359","locality":"Marxzell","municipality":{"key":"08215047","name":"Marxzell","type":"Kreisangehörige_Gemeinde"},"district":{"key":"08215","name":"Karlsruhe","type":"Landkreis"},"federalState":{"key":"08","name":"Baden-Württemberg"}},{"name":"Heidebergweg","postalCode":"76359","locality":"Marxzell","municipality":{"key":"08215047","name":"Marxzell","type":"Kreisangehörige_Gemeinde"},"district":{"key":"08215","name":"Karlsruhe","type":"Landkreis"},"federalState":{"key":"08","name":"Baden-Württemberg"}},{"name":"Heidenbergweg","postalCode":"76359","locality":"Marxzell","municipality":{"key":"08215047","name":"Marxzell","type":"Kreisangehörige_Gemeinde"},"district":{"key":"08215","name":"Karlsruhe","type":"Landkreis"},"federalState":{"key":"08","name":"Baden-Württemberg"}},{"name":"Heidweg","postalCode":"76359","locality":"Marxzell","municipality":{"key":"08215047","name":"Marxzell","type":"Kreisangehörige_Gemeinde"},"district":{"key":"08215","name":"Karlsruhe","type":"Landkreis"},"federalState":{"key":"08","name":"Baden-Württemberg"}},{"name":"Heinrich-Hall-Str.","postalCode":"76359","locality":"Marxzell","municipality":{"key":"08215047","name":"Marxzell","type":"Kreisangehörige_Gemeinde"},"district":{"key":"08215","name":"Karlsruhe","type":"Landkreis"},"federalState":{"key":"08","name":"Baden-Württemberg"}},{"name":"Heinrich-Hansjakob-Weg","postalCode":"76359","locality":"Marxzell","municipality":{"key":"08215047","name":"Marxzell","type":"Kreisangehörige_Gemeinde"},"district":{"key":"08215","name":"Karlsruhe","type":"Landkreis"},"federalState":{"key":"08","name":"Baden-Württemberg"}},{"name":"Herms-Heuweg","postalCode":"76359","locality":"Marxzell","municipality":{"key":"08215047","name":"Marxzell","type":"Kreisangehörige_Gemeinde"},"district":{"key":"08215","name":"Karlsruhe","type":"Landkreis"},"federalState":{"key":"08","name":"Baden-Württemberg"}},{"name":"Herrenalber Str.","postalCode":"76359","locality":"Marxzell","municipality":{"key":"08215047","name":"Marxzell","type":"Kreisangehörige_Gemeinde"},"district":{"key":"08215","name":"Karlsruhe","type":"Landkreis"},"federalState":{"key":"08","name":"Baden-Württemberg"}},{"name":"Heubügelweg","postalCode":"76359","locality":"Marxzell","municipality":{"key":"08215047","name":"Marxzell","type":"Kreisangehörige_Gemeinde"},"district":{"key":"08215","name":"Karlsruhe","type":"Landkreis"},"federalState":{"key":"08","name":"Baden-Württemberg"}},{"name":"Hinterer Kreuzweg","postalCode":"76359","locality":"Marxzell","municipality":{"key":"08215047","name":"Marxzell","type":"Kreisangehörige_Gemeinde"},"district":{"key":"08215","name":"Karlsruhe","type":"Landkreis"},"federalState":{"key":"08","name":"Baden-Württemberg"}},{"name":"Hirschweg","postalCode":"76359","locality":"Marxzell","municipality":{"key":"08215047","name":"Marxzell","type":"Kreisangehörige_Gemeinde"},"district":{"key":"08215","name":"Karlsruhe","type":"Landkreis"},"federalState":{"key":"08","name":"Baden-Württemberg"}},{"name":"Höhenstr.","postalCode":"76359","locality":"Marxzell","municipality":{"key":"08215047","name":"Marxzell","type":"Kreisangehörige_Gemeinde"},"district":{"key":"08215","name":"Karlsruhe","type":"Landkreis"},"federalState":{"key":"08","name":"Baden-Württemberg"}},{"name":"Holzbachstr.","postalCode":"76359","locality":"Marxzell","municipality":{"key":"08215047","name":"Marxzell","type":"Kreisangehörige_Gemeinde"},"district":{"key":"08215","name":"Karlsruhe","type":"Landkreis"},"federalState":{"key":"08","name":"Baden-Württemberg"}},{"name":"Holzbergweg","postalCode":"76359","locality":"Marxzell","municipality":{"key":"08215047","name":"Marxzell","type":"Kreisangehörige_Gemeinde"},"district":{"key":"08215","name":"Karlsruhe","type":"Landkreis"},"federalState":{"key":"08","name":"Baden-Württemberg"}},{"name":"Hornkopfweg","postalCode":"76359","locality":"Marxzell","municipality":{"key":"08215047","name":"Marxzell","type":"Kreisangehörige_Gemeinde"},"district":{"key":"08215","name":"Karlsruhe","type":"Landkreis"},"federalState":{"key":"08","name":"Baden-Württemberg"}},{"name":"Hornweg","postalCode":"76359","locality":"Marxzell","municipality":{"key":"08215047","name":"Marxzell","type":"Kreisangehörige_Gemeinde"},"district":{"key":"08215","name":"Karlsruhe","type":"Landkreis"},"federalState":{"key":"08","name":"Baden-Württemberg"}},{"name":"Hubertusweg","postalCode":"76359","locality":"Marxzell","municipality":{"key":"08215047","name":"Marxzell","type":"Kreisangehörige_Gemeinde"},"district":{"key":"08215","name":"Karlsruhe","type":"Landkreis"},"federalState":{"key":"08","name":"Baden-Württemberg"}},{"name":"II. Bergweg","postalCode":"76359","locality":"Marxzell","municipality":{"key":"08215047","name":"Marxzell","type":"Kreisangehörige_Gemeinde"},"district":{"key":"08215","name":"Karlsruhe","type":"Landkreis"},"federalState":{"key":"08","name":"Baden-Württemberg"}},{"name":"Im Äckerle","postalCode":"76359","locality":"Marxzell","municipality":{"key":"08215047","name":"Marxzell","type":"Kreisangehörige_Gemeinde"},"district":{"key":"08215","name":"Karlsruhe","type":"Landkreis"},"federalState":{"key":"08","name":"Baden-Württemberg"}},{"name":"Im Anwendel","postalCode":"76359","locality":"Marxzell","municipality":{"key":"08215047","name":"Marxzell","type":"Kreisangehörige_Gemeinde"},"district":{"key":"08215","name":"Karlsruhe","type":"Landkreis"},"federalState":{"key":"08","name":"Baden-Württemberg"}},{"name":"Im Eichelgarten","postalCode":"76359","locality":"Marxzell","municipality":{"key":"08215047","name":"Marxzell","type":"Kreisangehörige_Gemeinde"},"district":{"key":"08215","name":"Karlsruhe","type":"Landkreis"},"federalState":{"key":"08","name":"Baden-Württemberg"}},{"name":"Im Engert","postalCode":"76359","locality":"Marxzell","municipality":{"key":"08215047","name":"Marxzell","type":"Kreisangehörige_Gemeinde"},"district":{"key":"08215","name":"Karlsruhe","type":"Landkreis"},"federalState":{"key":"08","name":"Baden-Württemberg"}},{"name":"Im Gewerbegebiet","postalCode":"76359","locality":"Marxzell","municipality":{"key":"08215047","name":"Marxzell","type":"Kreisangehörige_Gemeinde"},"district":{"key":"08215","name":"Karlsruhe","type":"Landkreis"},"federalState":{"key":"08","name":"Baden-Württemberg"}},{"name":"Im Neufeld","postalCode":"76359","locality":"Marxzell","municipality":{"key":"08215047","name":"Marxzell","type":"Kreisangehörige_Gemeinde"},"district":{"key":"08215","name":"Karlsruhe","type":"Landkreis"},"federalState":{"key":"08","name":"Baden-Württemberg"}},{"name":"Im Schönblick","postalCode":"76359","locality":"Marxzell","municipality":{"key":"08215047","name":"Marxzell","type":"Kreisangehörige_Gemeinde"},"district":{"key":"08215","name":"Karlsruhe","type":"Landkreis"},"federalState":{"key":"08","name":"Baden-Württemberg"}},{"name":"Im Schwarzenbusch","postalCode":"76359","locality":"Marxzell","municipality":{"key":"08215047","name":"Marxzell","type":"Kreisangehörige_Gemeinde"},"district":{"key":"08215","name":"Karlsruhe","type":"Landkreis"},"federalState":{"key":"08","name":"Baden-Württemberg"}},{"name":"Im Stießenacker","postalCode":"76359","locality":"Marxzell","municipality":{"key":"08215047","name":"Marxzell","type":"Kreisangehörige_Gemeinde"},"district":{"key":"08215","name":"Karlsruhe","type":"Landkreis"},"federalState":{"key":"08","name":"Baden-Württemberg"}},{"name":"Im Strietwälle","postalCode":"76359","locality":"Marxzell","municipality":{"key":"08215047","name":"Marxzell","type":"Kreisangehörige_Gemeinde"},"district":{"key":"08215","name":"Karlsruhe","type":"Landkreis"},"federalState":{"key":"08","name":"Baden-Württemberg"}},{"name":"Im Wälle","postalCode":"76359","locality":"Marxzell","municipality":{"key":"08215047","name":"Marxzell","type":"Kreisangehörige_Gemeinde"},"district":{"key":"08215","name":"Karlsruhe","type":"Landkreis"},"federalState":{"key":"08","name":"Baden-Württemberg"}},{"name":"Im Wiesele","postalCode":"76359","locality":"Marxzell","municipality":{"key":"08215047","name":"Marxzell","type":"Kreisangehörige_Gemeinde"},"district":{"key":"08215","name":"Karlsruhe","type":"Landkreis"},"federalState":{"key":"08","name":"Baden-Württemberg"}},{"name":"Im Wiesengrund","postalCode":"76359","locality":"Marxzell","municipality":{"key":"08215047","name":"Marxzell","type":"Kreisangehörige_Gemeinde"},"district":{"key":"08215","name":"Karlsruhe","type":"Landkreis"},"federalState":{"key":"08","name":"Baden-Württemberg"}},{"name":"Ittersbacher Weg","postalCode":"76359","locality":"Marxzell","municipality":{"key":"08215047","name":"Marxzell","type":"Kreisangehörige_Gemeinde"},"district":{"key":"08215","name":"Karlsruhe","type":"Landkreis"},"federalState":{"key":"08","name":"Baden-Württemberg"}},{"name":"Jägerweg","postalCode":"76359","locality":"Marxzell","municipality":{"key":"08215047","name":"Marxzell","type":"Kreisangehörige_Gemeinde"},"district":{"key":"08215","name":"Karlsruhe","type":"Landkreis"},"federalState":{"key":"08","name":"Baden-Württemberg"}},{"name":"Karlsruher Str.","postalCode":"76359","locality":"Marxzell","municipality":{"key":"08215047","name":"Marxzell","type":"Kreisangehörige_Gemeinde"},"district":{"key":"08215","name":"Karlsruhe","type":"Landkreis"},"federalState":{"key":"08","name":"Baden-Württemberg"}},{"name":"Karlsweg","postalCode":"76359","locality":"Marxzell","municipality":{"key":"08215047","name":"Marxzell","type":"Kreisangehörige_Gemeinde"},"district":{"key":"08215","name":"Karlsruhe","type":"Landkreis"},"federalState":{"key":"08","name":"Baden-Württemberg"}},{"name":"Karl-Wilhelm-Str.","postalCode":"76359","locality":"Marxzell","municipality":{"key":"08215047","name":"Marxzell","type":"Kreisangehörige_Gemeinde"},"district":{"key":"08215","name":"Karlsruhe","type":"Landkreis"},"federalState":{"key":"08","name":"Baden-Württemberg"}},{"name":"Kepplersweg","postalCode":"76359","locality":"Marxzell","municipality":{"key":"08215047","name":"Marxzell","type":"Kreisangehörige_Gemeinde"},"district":{"key":"08215","name":"Karlsruhe","type":"Landkreis"},"federalState":{"key":"08","name":"Baden-Württemberg"}},{"name":"Kiefernstr.","postalCode":"76359","locality":"Marxzell","municipality":{"key":"08215047","name":"Marxzell","type":"Kreisangehörige_Gemeinde"},"district":{"key":"08215","name":"Karlsruhe","type":"Landkreis"},"federalState":{"key":"08","name":"Baden-Württemberg"}},{"name":"Kirchweg","postalCode":"76359","locality":"Marxzell","municipality":{"key":"08215047","name":"Marxzell","type":"Kreisangehörige_Gemeinde"},"district":{"key":"08215","name":"Karlsruhe","type":"Landkreis"},"federalState":{"key":"08","name":"Baden-Württemberg"}},{"name":"Klostersteige","postalCode":"76359","locality":"Marxzell","municipality":{"key":"08215047","name":"Marxzell","type":"Kreisangehörige_Gemeinde"},"district":{"key":"08215","name":"Karlsruhe","type":"Landkreis"},"federalState":{"key":"08","name":"Baden-Württemberg"}},{"name":"Klosterstr.","postalCode":"76359","locality":"Marxzell","municipality":{"key":"08215047","name":"Marxzell","type":"Kreisangehörige_Gemeinde"},"district":{"key":"08215","name":"Karlsruhe","type":"Landkreis"},"federalState":{"key":"08","name":"Baden-Württemberg"}},{"name":"Köpflesweg","postalCode":"76359","locality":"Marxzell","municipality":{"key":"08215047","name":"Marxzell","type":"Kreisangehörige_Gemeinde"},"district":{"key":"08215","name":"Karlsruhe","type":"Landkreis"},"federalState":{"key":"08","name":"Baden-Württemberg"}},{"name":"Köpfleweg","postalCode":"76359","locality":"Marxzell","municipality":{"key":"08215047","name":"Marxzell","type":"Kreisangehörige_Gemeinde"},"district":{"key":"08215","name":"Karlsruhe","type":"Landkreis"},"federalState":{"key":"08","name":"Baden-Württemberg"}},{"name":"Kreuzstr.","postalCode":"76359","locality":"Marxzell","municipality":{"key":"08215047","name":"Marxzell","type":"Kreisangehörige_Gemeinde"},"district":{"key":"08215","name":"Karlsruhe","type":"Landkreis"},"federalState":{"key":"08","name":"Baden-Württemberg"}},{"name":"Kriegsweg","postalCode":"76359","locality":"Marxzell","municipality":{"key":"08215047","name":"Marxzell","type":"Kreisangehörige_Gemeinde"},"district":{"key":"08215","name":"Karlsruhe","type":"Landkreis"},"federalState":{"key":"08","name":"Baden-Württemberg"}},{"name":"Kuhweg","postalCode":"76359","locality":"Marxzell","municipality":{"key":"08215047","name":"Marxzell","type":"Kreisangehörige_Gemeinde"},"district":{"key":"08215","name":"Karlsruhe","type":"Landkreis"},"federalState":{"key":"08","name":"Baden-Württemberg"}},{"name":"Langeichweg","postalCode":"76359","locality":"Marxzell","municipality":{"key":"08215047","name":"Marxzell","type":"Kreisangehörige_Gemeinde"},"district":{"key":"08215","name":"Karlsruhe","type":"Landkreis"},"federalState":{"key":"08","name":"Baden-Württemberg"}},{"name":"Lange Licht","postalCode":"76359","locality":"Marxzell","municipality":{"key":"08215047","name":"Marxzell","type":"Kreisangehörige_Gemeinde"},"district":{"key":"08215","name":"Karlsruhe","type":"Landkreis"},"federalState":{"key":"08","name":"Baden-Württemberg"}},{"name":"Langenalber Str.","postalCode":"76359","locality":"Marxzell","municipality":{"key":"08215047","name":"Marxzell","type":"Kreisangehörige_Gemeinde"},"district":{"key":"08215","name":"Karlsruhe","type":"Landkreis"},"federalState":{"key":"08","name":"Baden-Württemberg"}},{"name":"Langgaß","postalCode":"76359","locality":"Marxzell","municipality":{"key":"08215047","name":"Marxzell","type":"Kreisangehörige_Gemeinde"},"district":{"key":"08215","name":"Karlsruhe","type":"Landkreis"},"federalState":{"key":"08","name":"Baden-Württemberg"}},{"name":"Laukenäckerweg","postalCode":"76359","locality":"Marxzell","municipality":{"key":"08215047","name":"Marxzell","type":"Kreisangehörige_Gemeinde"},"district":{"key":"08215","name":"Karlsruhe","type":"Landkreis"},"federalState":{"key":"08","name":"Baden-Württemberg"}},{"name":"Lehne","postalCode":"76359","locality":"Marxzell","municipality":{"key":"08215047","name":"Marxzell","type":"Kreisangehörige_Gemeinde"},"district":{"key":"08215","name":"Karlsruhe","type":"Landkreis"},"federalState":{"key":"08","name":"Baden-Württemberg"}},{"name":"Lerchenstr.","postalCode":"76359","locality":"Marxzell","municipality":{"key":"08215047","name":"Marxzell","type":"Kreisangehörige_Gemeinde"},"district":{"key":"08215","name":"Karlsruhe","type":"Landkreis"},"federalState":{"key":"08","name":"Baden-Württemberg"}},{"name":"Lindenstr.","postalCode":"76359","locality":"Marxzell","municipality":{"key":"08215047","name":"Marxzell","type":"Kreisangehörige_Gemeinde"},"district":{"key":"08215","name":"Karlsruhe","type":"Landkreis"},"federalState":{"key":"08","name":"Baden-Württemberg"}},{"name":"Lorenzstr.","postalCode":"76359","locality":"Marxzell","municipality":{"key":"08215047","name":"Marxzell","type":"Kreisangehörige_Gemeinde"},"district":{"key":"08215","name":"Karlsruhe","type":"Landkreis"},"federalState":{"key":"08","name":"Baden-Württemberg"}},{"name":"Mahlbergstr.","postalCode":"76359","locality":"Marxzell","municipality":{"key":"08215047","name":"Marxzell","type":"Kreisangehörige_Gemeinde"},"district":{"key":"08215","name":"Karlsruhe","type":"Landkreis"},"federalState":{"key":"08","name":"Baden-Württemberg"}},{"name":"Maiersweg","postalCode":"76359","locality":"Marxzell","municipality":{"key":"08215047","name":"Marxzell","type":"Kreisangehörige_Gemeinde"},"district":{"key":"08215","name":"Karlsruhe","type":"Landkreis"},"federalState":{"key":"08","name":"Baden-Württemberg"}},{"name":"Maisenbachstr.","postalCode":"76359","locality":"Marxzell","municipality":{"key":"08215047","name":"Marxzell","type":"Kreisangehörige_Gemeinde"},"district":{"key":"08215","name":"Karlsruhe","type":"Landkreis"},"federalState":{"key":"08","name":"Baden-Württemberg"}},{"name":"Maisenbachtalstr.","postalCode":"76359","locality":"Marxzell","municipality":{"key":"08215047","name":"Marxzell","type":"Kreisangehörige_Gemeinde"},"district":{"key":"08215","name":"Karlsruhe","type":"Landkreis"},"federalState":{"key":"08","name":"Baden-Württemberg"}},{"name":"Markusstr.","postalCode":"76359","locality":"Marxzell","municipality":{"key":"08215047","name":"Marxzell","type":"Kreisangehörige_Gemeinde"},"district":{"key":"08215","name":"Karlsruhe","type":"Landkreis"},"federalState":{"key":"08","name":"Baden-Württemberg"}},{"name":"Marxzeller Str.","postalCode":"76359","locality":"Marxzell","municipality":{"key":"08215047","name":"Marxzell","type":"Kreisangehörige_Gemeinde"},"district":{"key":"08215","name":"Karlsruhe","type":"Landkreis"},"federalState":{"key":"08","name":"Baden-Württemberg"}},{"name":"Mattesweg","postalCode":"76359","locality":"Marxzell","municipality":{"key":"08215047","name":"Marxzell","type":"Kreisangehörige_Gemeinde"},"district":{"key":"08215","name":"Karlsruhe","type":"Landkreis"},"federalState":{"key":"08","name":"Baden-Württemberg"}},{"name":"Mittlerer Gewannweg","postalCode":"76359","locality":"Marxzell","municipality":{"key":"08215047","name":"Marxzell","type":"Kreisangehörige_Gemeinde"},"district":{"key":"08215","name":"Karlsruhe","type":"Landkreis"},"federalState":{"key":"08","name":"Baden-Württemberg"}},{"name":"Mohrengasse","postalCode":"76359","locality":"Marxzell","municipality":{"key":"08215047","name":"Marxzell","type":"Kreisangehörige_Gemeinde"},"district":{"key":"08215","name":"Karlsruhe","type":"Landkreis"},"federalState":{"key":"08","name":"Baden-Württemberg"}},{"name":"Moosalbtalstr.","postalCode":"76359","locality":"Marxzell","municipality":{"key":"08215047","name":"Marxzell","type":"Kreisangehörige_Gemeinde"},"district":{"key":"08215","name":"Karlsruhe","type":"Landkreis"},"federalState":{"key":"08","name":"Baden-Württemberg"}},{"name":"Moosalbweg","postalCode":"76359","locality":"Marxzell","municipality":{"key":"08215047","name":"Marxzell","type":"Kreisangehörige_Gemeinde"},"district":{"key":"08215","name":"Karlsruhe","type":"Landkreis"},"federalState":{"key":"08","name":"Baden-Württemberg"}},{"name":"Mozartstr.","postalCode":"76359","locality":"Marxzell","municipality":{"key":"08215047","name":"Marxzell","type":"Kreisangehörige_Gemeinde"},"district":{"key":"08215","name":"Karlsruhe","type":"Landkreis"},"federalState":{"key":"08","name":"Baden-Württemberg"}},{"name":"Mühlbergweg","postalCode":"76359","locality":"Marxzell","municipality":{"key":"08215047","name":"Marxzell","type":"Kreisangehörige_Gemeinde"},"district":{"key":"08215","name":"Karlsruhe","type":"Landkreis"},"federalState":{"key":"08","name":"Baden-Württemberg"}},{"name":"Mühlenweg","postalCode":"76359","locality":"Marxzell","municipality":{"key":"08215047","name":"Marxzell","type":"Kreisangehörige_Gemeinde"},"district":{"key":"08215","name":"Karlsruhe","type":"Landkreis"},"federalState":{"key":"08","name":"Baden-Württemberg"}},{"name":"Nauendorfer Str.","postalCode":"76359","locality":"Marxzell","municipality":{"key":"08215047","name":"Marxzell","type":"Kreisangehörige_Gemeinde"},"district":{"key":"08215","name":"Karlsruhe","type":"Landkreis"},"federalState":{"key":"08","name":"Baden-Württemberg"}},{"name":"Neubreithofweg","postalCode":"76359","locality":"Marxzell","municipality":{"key":"08215047","name":"Marxzell","type":"Kreisangehörige_Gemeinde"},"district":{"key":"08215","name":"Karlsruhe","type":"Landkreis"},"federalState":{"key":"08","name":"Baden-Württemberg"}},{"name":"Neuenbürger Str.","postalCode":"76359","locality":"Marxzell","municipality":{"key":"08215047","name":"Marxzell","type":"Kreisangehörige_Gemeinde"},"district":{"key":"08215","name":"Karlsruhe","type":"Landkreis"},"federalState":{"key":"08","name":"Baden-Württemberg"}},{"name":"Neuer Bergschmiedeweg","postalCode":"76359","locality":"Marxzell","municipality":{"key":"08215047","name":"Marxzell","type":"Kreisangehörige_Gemeinde"},"district":{"key":"08215","name":"Karlsruhe","type":"Landkreis"},"federalState":{"key":"08","name":"Baden-Württemberg"}},{"name":"Neuer Brückweg","postalCode":"76359","locality":"Marxzell","municipality":{"key":"08215047","name":"Marxzell","type":"Kreisangehörige_Gemeinde"},"district":{"key":"08215","name":"Karlsruhe","type":"Landkreis"},"federalState":{"key":"08","name":"Baden-Württemberg"}},{"name":"Neuer Katzenbachweg","postalCode":"76359","locality":"Marxzell","municipality":{"key":"08215047","name":"Marxzell","type":"Kreisangehörige_Gemeinde"},"district":{"key":"08215","name":"Karlsruhe","type":"Landkreis"},"federalState":{"key":"08","name":"Baden-Württemberg"}},{"name":"Neuer Salzleckenweg","postalCode":"76359","locality":"Marxzell","municipality":{"key":"08215047","name":"Marxzell","type":"Kreisangehörige_Gemeinde"},"district":{"key":"08215","name":"Karlsruhe","type":"Landkreis"},"federalState":{"key":"08","name":"Baden-Württemberg"}},{"name":"Neuer Weg","postalCode":"76359","locality":"Marxzell","municipality":{"key":"08215047","name":"Marxzell","type":"Kreisangehörige_Gemeinde"},"district":{"key":"08215","name":"Karlsruhe","type":"Landkreis"},"federalState":{"key":"08","name":"Baden-Württemberg"}},{"name":"Neufeldweg","postalCode":"76359","locality":"Marxzell","municipality":{"key":"08215047","name":"Marxzell","type":"Kreisangehörige_Gemeinde"},"district":{"key":"08215","name":"Karlsruhe","type":"Landkreis"},"federalState":{"key":"08","name":"Baden-Württemberg"}},{"name":"Neusatzer Weg","postalCode":"76359","locality":"Marxzell","municipality":{"key":"08215047","name":"Marxzell","type":"Kreisangehörige_Gemeinde"},"district":{"key":"08215","name":"Karlsruhe","type":"Landkreis"},"federalState":{"key":"08","name":"Baden-Württemberg"}},{"name":"Neuwiesenweg","postalCode":"76359","locality":"Marxzell","municipality":{"key":"08215047","name":"Marxzell","type":"Kreisangehörige_Gemeinde"},"district":{"key":"08215","name":"Karlsruhe","type":"Landkreis"},"federalState":{"key":"08","name":"Baden-Württemberg"}},{"name":"Ob dem Zaun","postalCode":"76359","locality":"Marxzell","municipality":{"key":"08215047","name":"Marxzell","type":"Kreisangehörige_Gemeinde"},"district":{"key":"08215","name":"Karlsruhe","type":"Landkreis"},"federalState":{"key":"08","name":"Baden-Württemberg"}},{"name":"Oberer Kreuzweg","postalCode":"76359","locality":"Marxzell","municipality":{"key":"08215047","name":"Marxzell","type":"Kreisangehörige_Gemeinde"},"district":{"key":"08215","name":"Karlsruhe","type":"Landkreis"},"federalState":{"key":"08","name":"Baden-Württemberg"}},{"name":"Pfaffenroter Weg","postalCode":"76359","locality":"Marxzell","municipality":{"key":"08215047","name":"Marxzell","type":"Kreisangehörige_Gemeinde"},"district":{"key":"08215","name":"Karlsruhe","type":"Landkreis"},"federalState":{"key":"08","name":"Baden-Württemberg"}},{"name":"Pfarrstr.","postalCode":"76359","locality":"Marxzell","municipality":{"key":"08215047","name":"Marxzell","type":"Kreisangehörige_Gemeinde"},"district":{"key":"08215","name":"Karlsruhe","type":"Landkreis"},"federalState":{"key":"08","name":"Baden-Württemberg"}},{"name":"Pforzheimer Str.","postalCode":"76359","locality":"Marxzell","municipality":{"key":"08215047","name":"Marxzell","type":"Kreisangehörige_Gemeinde"},"district":{"key":"08215","name":"Karlsruhe","type":"Landkreis"},"federalState":{"key":"08","name":"Baden-Württemberg"}},{"name":"Pfrommersweg","postalCode":"76359","locality":"Marxzell","municipality":{"key":"08215047","name":"Marxzell","type":"Kreisangehörige_Gemeinde"},"district":{"key":"08215","name":"Karlsruhe","type":"Landkreis"},"federalState":{"key":"08","name":"Baden-Württemberg"}},{"name":"Poststr.","postalCode":"76359","locality":"Marxzell","municipality":{"key":"08215047","name":"Marxzell","type":"Kreisangehörige_Gemeinde"},"district":{"key":"08215","name":"Karlsruhe","type":"Landkreis"},"federalState":{"key":"08","name":"Baden-Württemberg"}},{"name":"Prälat-Axtmann-Ring","postalCode":"76359","locality":"Marxzell","municipality":{"key":"08215047","name":"Marxzell","type":"Kreisangehörige_Gemeinde"},"district":{"key":"08215","name":"Karlsruhe","type":"Landkreis"},"federalState":{"key":"08","name":"Baden-Württemberg"}},{"name":"Quellenstr.","postalCode":"76228","locality":"Karlsruhe","municipality":{"key":"08212000","name":"Karlsruhe, Stadt","type":"Stadtkreis"},"district":{"key":"08212","name":"Karlsruhe, Stadtkreis","type":"Stadtkreis"},"federalState":{"key":"08","name":"Baden-Württemberg"}},{"name":"Querstr.","postalCode":"76189","locality":"Karlsruhe","municipality":{"key":"08212000","name":"Karlsruhe, Stadt","type":"Stadtkreis"},"district":{"key":"08212","name":"Karlsruhe, Stadtkreis","type":"Stadtkreis"},"federalState":{"key":"08","name":"Baden-Württemberg"}},{"name":"Radweg","postalCode":"76359","locality":"Marxzell","municipality":{"key":"08215047","name":"Marxzell","type":"Kreisangehörige_Gemeinde"},"district":{"key":"08215","name":"Karlsruhe","type":"Landkreis"},"federalState":{"key":"08","name":"Baden-Württemberg"}},{"name":"Rauhaldweg","postalCode":"76359","locality":"Marxzell","municipality":{"key":"08215047","name":"Marxzell","type":"Kreisangehörige_Gemeinde"},"district":{"key":"08215","name":"Karlsruhe","type":"Landkreis"},"federalState":{"key":"08","name":"Baden-Württemberg"}},{"name":"Reitzheckweg","postalCode":"76359","locality":"Marxzell","municipality":{"key":"08215047","name":"Marxzell","type":"Kreisangehörige_Gemeinde"},"district":{"key":"08215","name":"Karlsruhe","type":"Landkreis"},"federalState":{"key":"08","name":"Baden-Württemberg"}},{"name":"Riedingerstr.","postalCode":"76359","locality":"Marxzell","municipality":{"key":"08215047","name":"Marxzell","type":"Kreisangehörige_Gemeinde"},"district":{"key":"08215","name":"Karlsruhe","type":"Landkreis"},"federalState":{"key":"08","name":"Baden-Württemberg"}},{"name":"Robert-Sahrbacher-Weg","postalCode":"76359","locality":"Marxzell","municipality":{"key":"08215047","name":"Marxzell","type":"Kreisangehörige_Gemeinde"},"district":{"key":"08215","name":"Karlsruhe","type":"Landkreis"},"federalState":{"key":"08","name":"Baden-Württemberg"}},{"name":"Romeostr.","postalCode":"76359","locality":"Marxzell","municipality":{"key":"08215047","name":"Marxzell","type":"Kreisangehörige_Gemeinde"},"district":{"key":"08215","name":"Karlsruhe","type":"Landkreis"},"federalState":{"key":"08","name":"Baden-Württemberg"}},{"name":"Romeoweg","postalCode":"76359","locality":"Marxzell","municipality":{"key":"08215047","name":"Marxzell","type":"Kreisangehörige_Gemeinde"},"district":{"key":"08215","name":"Karlsruhe","type":"Landkreis"},"federalState":{"key":"08","name":"Baden-Württemberg"}},{"name":"Rotensoler Str.","postalCode":"76359","locality":"Marxzell","municipality":{"key":"08215047","name":"Marxzell","type":"Kreisangehörige_Gemeinde"},"district":{"key":"08215","name":"Karlsruhe","type":"Landkreis"},"federalState":{"key":"08","name":"Baden-Württemberg"}},{"name":"Rotlachenweg","postalCode":"76359","locality":"Marxzell","municipality":{"key":"08215047","name":"Marxzell","type":"Kreisangehörige_Gemeinde"},"district":{"key":"08215","name":"Karlsruhe","type":"Landkreis"},"federalState":{"key":"08","name":"Baden-Württemberg"}},{"name":"Rückgässle","postalCode":"76359","locality":"Marxzell","municipality":{"key":"08215047","name":"Marxzell","type":"Kreisangehörige_Gemeinde"},"district":{"key":"08215","name":"Karlsruhe","type":"Landkreis"},"federalState":{"key":"08","name":"Baden-Württemberg"}},{"name":"Saatschulweg","postalCode":"76359","locality":"Marxzell","municipality":{"key":"08215047","name":"Marxzell","type":"Kreisangehörige_Gemeinde"},"district":{"key":"08215","name":"Karlsruhe","type":"Landkreis"},"federalState":{"key":"08","name":"Baden-Württemberg"}},{"name":"Sandebeneweg","postalCode":"76359","locality":"Marxzell","municipality":{"key":"08215047","name":"Marxzell","type":"Kreisangehörige_Gemeinde"},"district":{"key":"08215","name":"Karlsruhe","type":"Landkreis"},"federalState":{"key":"08","name":"Baden-Württemberg"}},{"name":"Saumstr.","postalCode":"76359","locality":"Marxzell","municipality":{"key":"08215047","name":"Marxzell","type":"Kreisangehörige_Gemeinde"},"district":{"key":"08215","name":"Karlsruhe","type":"Landkreis"},"federalState":{"key":"08","name":"Baden-Württemberg"}},{"name":"Schafweg","postalCode":"76359","locality":"Marxzell","municipality":{"key":"08215047","name":"Marxzell","type":"Kreisangehörige_Gemeinde"},"district":{"key":"08215","name":"Karlsruhe","type":"Landkreis"},"federalState":{"key":"08","name":"Baden-Württemberg"}},{"name":"Scheffelstr.","postalCode":"76359","locality":"Marxzell","municipality":{"key":"08215047","name":"Marxzell","type":"Kreisangehörige_Gemeinde"},"district":{"key":"08215","name":"Karlsruhe","type":"Landkreis"},"federalState":{"key":"08","name":"Baden-Württemberg"}},{"name":"Schleifweg","postalCode":"76359","locality":"Marxzell","municipality":{"key":"08215047","name":"Marxzell","type":"Kreisangehörige_Gemeinde"},"district":{"key":"08215","name":"Karlsruhe","type":"Landkreis"},"federalState":{"key":"08","name":"Baden-Württemberg"}},{"name":"Schlittenweg","postalCode":"76359","locality":"Marxzell","municipality":{"key":"08215047","name":"Marxzell","type":"Kreisangehörige_Gemeinde"},"district":{"key":"08215","name":"Karlsruhe","type":"Landkreis"},"federalState":{"key":"08","name":"Baden-Württemberg"}},{"name":"Schlotterhofweg","postalCode":"76359","locality":"Marxzell","municipality":{"key":"08215047","name":"Marxzell","type":"Kreisangehörige_Gemeinde"},"district":{"key":"08215","name":"Karlsruhe","type":"Landkreis"},"federalState":{"key":"08","name":"Baden-Württemberg"}},{"name":"Schwarzwaldstr.","postalCode":"76359","locality":"Marxzell","municipality":{"key":"08215047","name":"Marxzell","type":"Kreisangehörige_Gemeinde"},"district":{"key":"08215","name":"Karlsruhe","type":"Landkreis"},"federalState":{"key":"08","name":"Baden-Württemberg"}},{"name":"Siegerdohlweg","postalCode":"76359","locality":"Marxzell","municipality":{"key":"08215047","name":"Marxzell","type":"Kreisangehörige_Gemeinde"},"district":{"key":"08215","name":"Karlsruhe","type":"Landkreis"},"federalState":{"key":"08","name":"Baden-Württemberg"}},{"name":"Silcherstr.","postalCode":"76359","locality":"Marxzell","municipality":{"key":"08215047","name":"Marxzell","type":"Kreisangehörige_Gemeinde"},"district":{"key":"08215","name":"Karlsruhe","type":"Landkreis"},"federalState":{"key":"08","name":"Baden-Württemberg"}},{"name":"Sommerbuschweg","postalCode":"76359","locality":"Marxzell","municipality":{"key":"08215047","name":"Marxzell","type":"Kreisangehörige_Gemeinde"},"district":{"key":"08215","name":"Karlsruhe","type":"Landkreis"},"federalState":{"key":"08","name":"Baden-Württemberg"}},{"name":"Speiglerstr.","postalCode":"76359","locality":"Marxzell","municipality":{"key":"08215047","name":"Marxzell","type":"Kreisangehörige_Gemeinde"},"district":{"key":"08215","name":"Karlsruhe","type":"Landkreis"},"federalState":{"key":"08","name":"Baden-Württemberg"}},{"name":"Spitzäckerstr.","postalCode":"76359","locality":"Marxzell","municipality":{"key":"08215047","name":"Marxzell","type":"Kreisangehörige_Gemeinde"},"district":{"key":"08215","name":"Karlsruhe","type":"Landkreis"},"federalState":{"key":"08","name":"Baden-Württemberg"}},{"name":"Steckschlagweg","postalCode":"76359","locality":"Marxzell","municipality":{"key":"08215047","name":"Marxzell","type":"Kreisangehörige_Gemeinde"},"district":{"key":"08215","name":"Karlsruhe","type":"Landkreis"},"federalState":{"key":"08","name":"Baden-Württemberg"}},{"name":"Stegwasenweg","postalCode":"76359","locality":"Marxzell","municipality":{"key":"08215047","name":"Marxzell","type":"Kreisangehörige_Gemeinde"},"district":{"key":"08215","name":"Karlsruhe","type":"Landkreis"},"federalState":{"key":"08","name":"Baden-Württemberg"}},{"name":"Steinbruchweg","postalCode":"76359","locality":"Marxzell","municipality":{"key":"08215047","name":"Marxzell","type":"Kreisangehörige_Gemeinde"},"district":{"key":"08215","name":"Karlsruhe","type":"Landkreis"},"federalState":{"key":"08","name":"Baden-Württemberg"}},{"name":"Steinergasse","postalCode":"76359","locality":"Marxzell","municipality":{"key":"08215047","name":"Marxzell","type":"Kreisangehörige_Gemeinde"},"district":{"key":"08215","name":"Karlsruhe","type":"Landkreis"},"federalState":{"key":"08","name":"Baden-Württemberg"}},{"name":"Steinhäusle","postalCode":"76359","locality":"Marxzell","municipality":{"key":"08215047","name":"Marxzell","type":"Kreisangehörige_Gemeinde"},"district":{"key":"08215","name":"Karlsruhe","type":"Landkreis"},"federalState":{"key":"08","name":"Baden-Württemberg"}},{"name":"Steinweg","postalCode":"76359","locality":"Marxzell","municipality":{"key":"08215047","name":"Marxzell","type":"Kreisangehörige_Gemeinde"},"district":{"key":"08215","name":"Karlsruhe","type":"Landkreis"},"federalState":{"key":"08","name":"Baden-Württemberg"}},{"name":"Talweg","postalCode":"76359","locality":"Marxzell","municipality":{"key":"08215047","name":"Marxzell","type":"Kreisangehörige_Gemeinde"},"district":{"key":"08215","name":"Karlsruhe","type":"Landkreis"},"federalState":{"key":"08","name":"Baden-Württemberg"}},{"name":"Tränkweg","postalCode":"76359","locality":"Marxzell","municipality":{"key":"08215047","name":"Marxzell","type":"Kreisangehörige_Gemeinde"},"district":{"key":"08215","name":"Karlsruhe","type":"Landkreis"},"federalState":{"key":"08","name":"Baden-Württemberg"}},{"name":"Tulpengartenweg","postalCode":"76359","locality":"Marxzell","municipality":{"key":"08215047","name":"Marxzell","type":"Kreisangehörige_Gemeinde"},"district":{"key":"08215","name":"Karlsruhe","type":"Landkreis"},"federalState":{"key":"08","name":"Baden-Württemberg"}},{"name":"Unterer Hauweg","postalCode":"76359","locality":"Marxzell","municipality":{"key":"08215047","name":"Marxzell","type":"Kreisangehörige_Gemeinde"},"district":{"key":"08215","name":"Karlsruhe","type":"Landkreis"},"federalState":{"key":"08","name":"Baden-Württemberg"}},{"name":"Völkersbacher Str.","postalCode":"76359","locality":"Marxzell","municipality":{"key":"08215047","name":"Marxzell","type":"Kreisangehörige_Gemeinde"},"district":{"key":"08215","name":"Karlsruhe","type":"Landkreis"},"federalState":{"key":"08","name":"Baden-Württemberg"}},{"name":"Vorderer Kreuzweg","postalCode":"76359","locality":"Marxzell","municipality":{"key":"08215047","name":"Marxzell","type":"Kreisangehörige_Gemeinde"},"district":{"key":"08215","name":"Karlsruhe","type":"Landkreis"},"federalState":{"key":"08","name":"Baden-Württemberg"}},{"name":"Waldsaumweg","postalCode":"76359","locality":"Marxzell","municipality":{"key":"08215047","name":"Marxzell","type":"Kreisangehörige_Gemeinde"},"district":{"key":"08215","name":"Karlsruhe","type":"Landkreis"},"federalState":{"key":"08","name":"Baden-Württemberg"}},{"name":"Waldstr.","postalCode":"76359","locality":"Marxzell","municipality":{"key":"08215047","name":"Marxzell","type":"Kreisangehörige_Gemeinde"},"district":{"key":"08215","name":"Karlsruhe","type":"Landkreis"},"federalState":{"key":"08","name":"Baden-Württemberg"}},{"name":"Wässergrabenstr.","postalCode":"76359","locality":"Marxzell","municipality":{"key":"08215047","name":"Marxzell","type":"Kreisangehörige_Gemeinde"},"district":{"key":"08215","name":"Karlsruhe","type":"Landkreis"},"federalState":{"key":"08","name":"Baden-Württemberg"}},{"name":"Weinbrünnlestr.","postalCode":"76359","locality":"Marxzell","municipality":{"key":"08215047","name":"Marxzell","type":"Kreisangehörige_Gemeinde"},"district":{"key":"08215","name":"Karlsruhe","type":"Landkreis"},"federalState":{"key":"08","name":"Baden-Württemberg"}},{"name":"Weinsträßle","postalCode":"76359","locality":"Marxzell","municipality":{"key":"08215047","name":"Marxzell","type":"Kreisangehörige_Gemeinde"},"district":{"key":"08215","name":"Karlsruhe","type":"Landkreis"},"federalState":{"key":"08","name":"Baden-Württemberg"}},{"name":"Weinweg","postalCode":"76359","locality":"Marxzell","municipality":{"key":"08215047","name":"Marxzell","type":"Kreisangehörige_Gemeinde"},"district":{"key":"08215","name":"Karlsruhe","type":"Landkreis"},"federalState":{"key":"08","name":"Baden-Württemberg"}},{"name":"Wilde-Manns-Weg","postalCode":"76359","locality":"Marxzell","municipality":{"key":"08215047","name":"Marxzell","type":"Kreisangehörige_Gemeinde"},"district":{"key":"08215","name":"Karlsruhe","type":"Landkreis"},"federalState":{"key":"08","name":"Baden-Württemberg"}},{"name":"Willi-Sauer-Weg","postalCode":"76359","locality":"Marxzell","municipality":{"key":"08215047","name":"Marxzell","type":"Kreisangehörige_Gemeinde"},"district":{"key":"08215","name":"Karlsruhe","type":"Landkreis"},"federalState":{"key":"08","name":"Baden-Württemberg"}},{"name":"Yburgweg","postalCode":"76189","locality":"Karlsruhe","municipality":{"key":"08212000","name":"Karlsruhe, Stadt","type":"Stadtkreis"},"district":{"key":"08212","name":"Karlsruhe, Stadtkreis","type":"Stadtkreis"},"federalState":{"key":"08","name":"Baden-Württemberg"}},{"name":"Yorckplatz","postalCode":"76135","locality":"Karlsruhe","municipality":{"key":"08212000","name":"Karlsruhe, Stadt","type":"Stadtkreis"},"district":{"key":"08212","name":"Karlsruhe, Stadtkreis","type":"Stadtkreis"},"federalState":{"key":"08","name":"Baden-Württemberg"}},{"name":"Yorckstr.","postalCode":"76185","locality":"Karlsruhe","municipality":{"key":"08212000","name":"Karlsruhe, Stadt","type":"Stadtkreis"},"district":{"key":"08212","name":"Karlsruhe, Stadtkreis","type":"Stadtkreis"},"federalState":{"key":"08","name":"Baden-Württemberg"}},{"name":"Zeller Gaß","postalCode":"76359","locality":"Marxzell","municipality":{"key":"08215047","name":"Marxzell","type":"Kreisangehörige_Gemeinde"},"district":{"key":"08215","name":"Karlsruhe","type":"Landkreis"},"federalState":{"key":"08","name":"Baden-Württemberg"}},{"name":"Zur Fuchssteige","postalCode":"76359","locality":"Marxzell","municipality":{"key":"08215047","name":"Marxzell","type":"Kreisangehörige_Gemeinde"},"district":{"key":"08215","name":"Karlsruhe","type":"Landkreis"},"federalState":{"key":"08","name":"Baden-Württemberg"}},{"name":"Zur Ziegelhütte","postalCode":"76359","locality":"Marxzell","municipality":{"key":"08215047","name":"Marxzell","type":"Kreisangehörige_Gemeinde"},"district":{"key":"08215","name":"Karlsruhe","type":"Landkreis"},"federalState":{"key":"08","name":"Baden-Württemberg"}},{"name":"Ährenweg","postalCode":"76135","locality":"Karlsruhe","municipality":{"key":"08212000","name":"Karlsruhe, Stadt","type":"Stadtkreis"},"district":{"key":"08212","name":"Karlsruhe, Stadtkreis","type":"Stadtkreis"},"federalState":{"key":"08","name":"Baden-Württemberg"}},{"name":"Ölgartenweg","postalCode":"76189","locality":"Karlsruhe","municipality":{"key":"08212000","name":"Karlsruhe, Stadt","type":"Stadtkreis"},"district":{"key":"08212","name":"Karlsruhe, Stadtkreis","type":"Stadtkreis"},"federalState":{"key":"08","name":"Baden-Württemberg"}},{"name":"Östliche Rheinbrückenstr.","postalCode":"76187","locality":"Karlsruhe","municipality":{"key":"08212000","name":"Karlsruhe, Stadt","type":"Stadtkreis"},"district":{"key":"08212","name":"Karlsruhe, Stadtkreis","type":"Stadtkreis"},"federalState":{"key":"08","name":"Baden-Württemberg"}},]