[{"name":"1. Bauackerweg","postalCode":"26624","locality":"Südbrookmerland","municipality":{"key":"03452023","name":"Südbrookmerland","type":"Kreisangehörige_Gemeinde"},"district":{"key":"03452","name":"Aurich","type":"Landkreis"},"federalState":{"key":"03","name":"Niedersachsen"}},{"name":"2. Bauackerweg","postalCode":"26624","locality":"Südbrookmerland","municipality":{"key":"03452023","name":"Südbrookmerland","type":"Kreisangehörige_Gemeinde"},"district":{"key":"03452","name":"Aurich","type":"Landkreis"},"federalState":{"key":"03","name":"Niedersachsen"}},{"name":"2. Tillhäuser Weg","postalCode":"26624","locality":"Südbrookmerland","municipality":{"key":"03452023","name":"Südbrookmerland","type":"Kreisangehörige_Gemeinde"},"district":{"key":"03452","name":"Aurich","type":"Landkreis"},"federalState":{"key":"03","name":"Niedersachsen"}},{"name":"3. Dwarsweg","postalCode":"26607","locality":"Aurich","municipality":{"key":"03452001","name":"Aurich, Stadt","type":"Stadt"},"district":{"key":"03452","name":"Aurich","type":"Landkreis"},"federalState":{"key":"03","name":"Niedersachsen"}},{"name":"3. Leegmoorweg","postalCode":"26607","locality":"Aurich","municipality":{"key":"03452001","name":"Aurich, Stadt","type":"Stadt"},"district":{"key":"03452","name":"Aurich","type":"Landkreis"},"federalState":{"key":"03","name":"Niedersachsen"}},{"name":"Aalweg","postalCode":"26624","locality":"Südbrookmerland","municipality":{"key":"03452023","name":"Südbrookmerland","type":"Kreisangehörige_Gemeinde"},"district":{"key":"03452","name":"Aurich","type":"Landkreis"},"federalState":{"key":"03","name":"Niedersachsen"}},{"name":"Achterdiek","postalCode":"26624","locality":"Südbrookmerland","municipality":{"key":"03452023","name":"Südbrookmerland","type":"Kreisangehörige_Gemeinde"},"district":{"key":"03452","name":"Aurich","type":"Landkreis"},"federalState":{"key":"03","name":"Niedersachsen"}},{"name":"Achtert Thunen","postalCode":"26624","locality":"Südbrookmerland","municipality":{"key":"03452023","name":"Südbrookmerland","type":"Kreisangehörige_Gemeinde"},"district":{"key":"03452","name":"Aurich","type":"Landkreis"},"federalState":{"key":"03","name":"Niedersachsen"}},{"name":"Achterumsweg","postalCode":"26624","locality":"Südbrookmerland","municipality":{"key":"03452023","name":"Südbrookmerland","type":"Kreisangehörige_Gemeinde"},"district":{"key":"03452","name":"Aurich","type":"Landkreis"},"federalState":{"key":"03","name":"Niedersachsen"}},{"name":"Achterweg","postalCode":"26624","locality":"Südbrookmerland","municipality":{"key":"03452023","name":"Südbrookmerland","type":"Kreisangehörige_Gemeinde"},"district":{"key":"03452","name":"Aurich","type":"Landkreis"},"federalState":{"key":"03","name":"Niedersachsen"}},{"name":"Ackerfenne","postalCode":"26624","locality":"Südbrookmerland","municipality":{"key":"03452023","name":"Südbrookmerland","type":"Kreisangehörige_Gemeinde"},"district":{"key":"03452","name":"Aurich","type":"Landkreis"},"federalState":{"key":"03","name":"Niedersachsen"}},{"name":"Ackerpad","postalCode":"26624","locality":"Südbrookmerland","municipality":{"key":"03452023","name":"Südbrookmerland","type":"Kreisangehörige_Gemeinde"},"district":{"key":"03452","name":"Aurich","type":"Landkreis"},"federalState":{"key":"03","name":"Niedersachsen"}},{"name":"Adelmundsmoor","postalCode":"26624","locality":"Südbrookmerland","municipality":{"key":"03452023","name":"Südbrookmerland","type":"Kreisangehörige_Gemeinde"},"district":{"key":"03452","name":"Aurich","type":"Landkreis"},"federalState":{"key":"03","name":"Niedersachsen"}},{"name":"Ahornweg","postalCode":"26624","locality":"Südbrookmerland","municipality":{"key":"03452023","name":"Südbrookmerland","type":"Kreisangehörige_Gemeinde"},"district":{"key":"03452","name":"Aurich","type":"Landkreis"},"federalState":{"key":"03","name":"Niedersachsen"}},{"name":"Akazienweg","postalCode":"26624","locality":"Südbrookmerland","municipality":{"key":"03452023","name":"Südbrookmerland","type":"Kreisangehörige_Gemeinde"},"district":{"key":"03452","name":"Aurich","type":"Landkreis"},"federalState":{"key":"03","name":"Niedersachsen"}},{"name":"Alander Weg","postalCode":"26624","locality":"Südbrookmerland","municipality":{"key":"03452023","name":"Südbrookmerland","type":"Kreisangehörige_Gemeinde"},"district":{"key":"03452","name":"Aurich","type":"Landkreis"},"federalState":{"key":"03","name":"Niedersachsen"}},{"name":"Almerweg","postalCode":"26624","locality":"Südbrookmerland","municipality":{"key":"03452023","name":"Südbrookmerland","type":"Kreisangehörige_Gemeinde"},"district":{"key":"03452","name":"Aurich","type":"Landkreis"},"federalState":{"key":"03","name":"Niedersachsen"}},{"name":"Alter Postweg","postalCode":"26624","locality":"Südbrookmerland","municipality":{"key":"03452023","name":"Südbrookmerland","type":"Kreisangehörige_Gemeinde"},"district":{"key":"03452","name":"Aurich","type":"Landkreis"},"federalState":{"key":"03","name":"Niedersachsen"}},{"name":"Alt-Münkeboer Str.","postalCode":"26624","locality":"Südbrookmerland","municipality":{"key":"03452023","name":"Südbrookmerland","type":"Kreisangehörige_Gemeinde"},"district":{"key":"03452","name":"Aurich","type":"Landkreis"},"federalState":{"key":"03","name":"Niedersachsen"}},{"name":"Am Abelitzkanal","postalCode":"26624","locality":"Südbrookmerland","municipality":{"key":"03452023","name":"Südbrookmerland","type":"Kreisangehörige_Gemeinde"},"district":{"key":"03452","name":"Aurich","type":"Landkreis"},"federalState":{"key":"03","name":"Niedersachsen"}},{"name":"Am Bahndamm","postalCode":"26624","locality":"Südbrookmerland","municipality":{"key":"03452023","name":"Südbrookmerland","type":"Kreisangehörige_Gemeinde"},"district":{"key":"03452","name":"Aurich","type":"Landkreis"},"federalState":{"key":"03","name":"Niedersachsen"}},{"name":"Am Bahnhof","postalCode":"26624","locality":"Südbrookmerland","municipality":{"key":"03452023","name":"Südbrookmerland","type":"Kreisangehörige_Gemeinde"},"district":{"key":"03452","name":"Aurich","type":"Landkreis"},"federalState":{"key":"03","name":"Niedersachsen"}},{"name":"Am Dorfe","postalCode":"26624","locality":"Südbrookmerland","municipality":{"key":"03452023","name":"Südbrookmerland","type":"Kreisangehörige_Gemeinde"},"district":{"key":"03452","name":"Aurich","type":"Landkreis"},"federalState":{"key":"03","name":"Niedersachsen"}},{"name":"Am Dullert","postalCode":"26624","locality":"Südbrookmerland","municipality":{"key":"03452023","name":"Südbrookmerland","type":"Kreisangehörige_Gemeinde"},"district":{"key":"03452","name":"Aurich","type":"Landkreis"},"federalState":{"key":"03","name":"Niedersachsen"}},{"name":"Am Friedhof","postalCode":"26624","locality":"Südbrookmerland","municipality":{"key":"03452023","name":"Südbrookmerland","type":"Kreisangehörige_Gemeinde"},"district":{"key":"03452","name":"Aurich","type":"Landkreis"},"federalState":{"key":"03","name":"Niedersachsen"}},{"name":"Am Graben","postalCode":"26624","locality":"Südbrookmerland","municipality":{"key":"03452023","name":"Südbrookmerland","type":"Kreisangehörige_Gemeinde"},"district":{"key":"03452","name":"Aurich","type":"Landkreis"},"federalState":{"key":"03","name":"Niedersachsen"}},{"name":"Am Heikeschloot","postalCode":"26624","locality":"Südbrookmerland","municipality":{"key":"03452023","name":"Südbrookmerland","type":"Kreisangehörige_Gemeinde"},"district":{"key":"03452","name":"Aurich","type":"Landkreis"},"federalState":{"key":"03","name":"Niedersachsen"}},{"name":"Am Kiefmoor","postalCode":"26624","locality":"Südbrookmerland","municipality":{"key":"03452023","name":"Südbrookmerland","type":"Kreisangehörige_Gemeinde"},"district":{"key":"03452","name":"Aurich","type":"Landkreis"},"federalState":{"key":"03","name":"Niedersachsen"}},{"name":"Am Kindergarten","postalCode":"26624","locality":"Südbrookmerland","municipality":{"key":"03452023","name":"Südbrookmerland","type":"Kreisangehörige_Gemeinde"},"district":{"key":"03452","name":"Aurich","type":"Landkreis"},"federalState":{"key":"03","name":"Niedersachsen"}},{"name":"Am Kirchhof","postalCode":"26624","locality":"Südbrookmerland","municipality":{"key":"03452023","name":"Südbrookmerland","type":"Kreisangehörige_Gemeinde"},"district":{"key":"03452","name":"Aurich","type":"Landkreis"},"federalState":{"key":"03","name":"Niedersachsen"}},{"name":"Am Kleeblatt","postalCode":"26624","locality":"Südbrookmerland","municipality":{"key":"03452023","name":"Südbrookmerland","type":"Kreisangehörige_Gemeinde"},"district":{"key":"03452","name":"Aurich","type":"Landkreis"},"federalState":{"key":"03","name":"Niedersachsen"}},{"name":"Ampferweg","postalCode":"26624","locality":"Südbrookmerland","municipality":{"key":"03452023","name":"Südbrookmerland","type":"Kreisangehörige_Gemeinde"},"district":{"key":"03452","name":"Aurich","type":"Landkreis"},"federalState":{"key":"03","name":"Niedersachsen"}},{"name":"Am Ringkanal","postalCode":"26624","locality":"Südbrookmerland","municipality":{"key":"03452023","name":"Südbrookmerland","type":"Kreisangehörige_Gemeinde"},"district":{"key":"03452","name":"Aurich","type":"Landkreis"},"federalState":{"key":"03","name":"Niedersachsen"}},{"name":"Am Ringkanal Ostseite","postalCode":"26624","locality":"Südbrookmerland","municipality":{"key":"03452023","name":"Südbrookmerland","type":"Kreisangehörige_Gemeinde"},"district":{"key":"03452","name":"Aurich","type":"Landkreis"},"federalState":{"key":"03","name":"Niedersachsen"}},{"name":"Am Ringkanal Westseite","postalCode":"26624","locality":"Südbrookmerland","municipality":{"key":"03452023","name":"Südbrookmerland","type":"Kreisangehörige_Gemeinde"},"district":{"key":"03452","name":"Aurich","type":"Landkreis"},"federalState":{"key":"03","name":"Niedersachsen"}},{"name":"Am Sandkasten","postalCode":"26624","locality":"Südbrookmerland","municipality":{"key":"03452023","name":"Südbrookmerland","type":"Kreisangehörige_Gemeinde"},"district":{"key":"03452","name":"Aurich","type":"Landkreis"},"federalState":{"key":"03","name":"Niedersachsen"}},{"name":"Am Schiffahrtskanal","postalCode":"26624","locality":"Südbrookmerland","municipality":{"key":"03452023","name":"Südbrookmerland","type":"Kreisangehörige_Gemeinde"},"district":{"key":"03452","name":"Aurich","type":"Landkreis"},"federalState":{"key":"03","name":"Niedersachsen"}},{"name":"Am Segelhafen","postalCode":"26624","locality":"Südbrookmerland","municipality":{"key":"03452023","name":"Südbrookmerland","type":"Kreisangehörige_Gemeinde"},"district":{"key":"03452","name":"Aurich","type":"Landkreis"},"federalState":{"key":"03","name":"Niedersachsen"}},{"name":"Amselweg","postalCode":"26624","locality":"Südbrookmerland","municipality":{"key":"03452023","name":"Südbrookmerland","type":"Kreisangehörige_Gemeinde"},"district":{"key":"03452","name":"Aurich","type":"Landkreis"},"federalState":{"key":"03","name":"Niedersachsen"}},{"name":"Am Sportplatz","postalCode":"26624","locality":"Südbrookmerland","municipality":{"key":"03452023","name":"Südbrookmerland","type":"Kreisangehörige_Gemeinde"},"district":{"key":"03452","name":"Aurich","type":"Landkreis"},"federalState":{"key":"03","name":"Niedersachsen"}},{"name":"Am Strengschloot","postalCode":"26624","locality":"Südbrookmerland","municipality":{"key":"03452023","name":"Südbrookmerland","type":"Kreisangehörige_Gemeinde"},"district":{"key":"03452","name":"Aurich","type":"Landkreis"},"federalState":{"key":"03","name":"Niedersachsen"}},{"name":"Am Südfeld","postalCode":"26624","locality":"Südbrookmerland","municipality":{"key":"03452023","name":"Südbrookmerland","type":"Kreisangehörige_Gemeinde"},"district":{"key":"03452","name":"Aurich","type":"Landkreis"},"federalState":{"key":"03","name":"Niedersachsen"}},{"name":"Am Wiesengrund","postalCode":"26624","locality":"Südbrookmerland","municipality":{"key":"03452023","name":"Südbrookmerland","type":"Kreisangehörige_Gemeinde"},"district":{"key":"03452","name":"Aurich","type":"Landkreis"},"federalState":{"key":"03","name":"Niedersachsen"}},{"name":"An der Alten Maar","postalCode":"26624","locality":"Südbrookmerland","municipality":{"key":"03452023","name":"Südbrookmerland","type":"Kreisangehörige_Gemeinde"},"district":{"key":"03452","name":"Aurich","type":"Landkreis"},"federalState":{"key":"03","name":"Niedersachsen"}},{"name":"An der Norderriede","postalCode":"26624","locality":"Südbrookmerland","municipality":{"key":"03452023","name":"Südbrookmerland","type":"Kreisangehörige_Gemeinde"},"district":{"key":"03452","name":"Aurich","type":"Landkreis"},"federalState":{"key":"03","name":"Niedersachsen"}},{"name":"An der Süderriede","postalCode":"26624","locality":"Südbrookmerland","municipality":{"key":"03452023","name":"Südbrookmerland","type":"Kreisangehörige_Gemeinde"},"district":{"key":"03452","name":"Aurich","type":"Landkreis"},"federalState":{"key":"03","name":"Niedersachsen"}},{"name":"Apfelweg","postalCode":"26624","locality":"Südbrookmerland","municipality":{"key":"03452023","name":"Südbrookmerland","type":"Kreisangehörige_Gemeinde"},"district":{"key":"03452","name":"Aurich","type":"Landkreis"},"federalState":{"key":"03","name":"Niedersachsen"}},{"name":"Asternweg","postalCode":"26624","locality":"Südbrookmerland","municipality":{"key":"03452023","name":"Südbrookmerland","type":"Kreisangehörige_Gemeinde"},"district":{"key":"03452","name":"Aurich","type":"Landkreis"},"federalState":{"key":"03","name":"Niedersachsen"}},{"name":"Auricher Str.","postalCode":"26624","locality":"Südbrookmerland","municipality":{"key":"03452023","name":"Südbrookmerland","type":"Kreisangehörige_Gemeinde"},"district":{"key":"03452","name":"Aurich","type":"Landkreis"},"federalState":{"key":"03","name":"Niedersachsen"}},{"name":"Babelweg","postalCode":"26624","locality":"Südbrookmerland","municipality":{"key":"03452023","name":"Südbrookmerland","type":"Kreisangehörige_Gemeinde"},"district":{"key":"03452","name":"Aurich","type":"Landkreis"},"federalState":{"key":"03","name":"Niedersachsen"}},{"name":"Bachstelzenweg","postalCode":"26624","locality":"Südbrookmerland","municipality":{"key":"03452023","name":"Südbrookmerland","type":"Kreisangehörige_Gemeinde"},"district":{"key":"03452","name":"Aurich","type":"Landkreis"},"federalState":{"key":"03","name":"Niedersachsen"}},{"name":"Bachstr.","postalCode":"26624","locality":"Südbrookmerland","municipality":{"key":"03452023","name":"Südbrookmerland","type":"Kreisangehörige_Gemeinde"},"district":{"key":"03452","name":"Aurich","type":"Landkreis"},"federalState":{"key":"03","name":"Niedersachsen"}},{"name":"Bahnhofstr.","postalCode":"26624","locality":"Südbrookmerland","municipality":{"key":"03452023","name":"Südbrookmerland","type":"Kreisangehörige_Gemeinde"},"district":{"key":"03452","name":"Aurich","type":"Landkreis"},"federalState":{"key":"03","name":"Niedersachsen"}},{"name":"Balkweg","postalCode":"26624","locality":"Südbrookmerland","municipality":{"key":"03452023","name":"Südbrookmerland","type":"Kreisangehörige_Gemeinde"},"district":{"key":"03452","name":"Aurich","type":"Landkreis"},"federalState":{"key":"03","name":"Niedersachsen"}},{"name":"Beerenweg","postalCode":"26624","locality":"Südbrookmerland","municipality":{"key":"03452023","name":"Südbrookmerland","type":"Kreisangehörige_Gemeinde"},"district":{"key":"03452","name":"Aurich","type":"Landkreis"},"federalState":{"key":"03","name":"Niedersachsen"}},{"name":"Beerster Weg","postalCode":"26624","locality":"Südbrookmerland","municipality":{"key":"03452023","name":"Südbrookmerland","type":"Kreisangehörige_Gemeinde"},"district":{"key":"03452","name":"Aurich","type":"Landkreis"},"federalState":{"key":"03","name":"Niedersachsen"}},{"name":"Beethovenstr.","postalCode":"26624","locality":"Südbrookmerland","municipality":{"key":"03452023","name":"Südbrookmerland","type":"Kreisangehörige_Gemeinde"},"district":{"key":"03452","name":"Aurich","type":"Landkreis"},"federalState":{"key":"03","name":"Niedersachsen"}},{"name":"Bei der Mühle","postalCode":"26624","locality":"Südbrookmerland","municipality":{"key":"03452023","name":"Südbrookmerland","type":"Kreisangehörige_Gemeinde"},"district":{"key":"03452","name":"Aurich","type":"Landkreis"},"federalState":{"key":"03","name":"Niedersachsen"}},{"name":"Bentgrasweg","postalCode":"26624","locality":"Südbrookmerland","municipality":{"key":"03452023","name":"Südbrookmerland","type":"Kreisangehörige_Gemeinde"},"district":{"key":"03452","name":"Aurich","type":"Landkreis"},"federalState":{"key":"03","name":"Niedersachsen"}},{"name":"Berberitzenweg","postalCode":"26624","locality":"Südbrookmerland","municipality":{"key":"03452023","name":"Südbrookmerland","type":"Kreisangehörige_Gemeinde"},"district":{"key":"03452","name":"Aurich","type":"Landkreis"},"federalState":{"key":"03","name":"Niedersachsen"}},{"name":"Bernsteinstr.","postalCode":"26624","locality":"Südbrookmerland","municipality":{"key":"03452023","name":"Südbrookmerland","type":"Kreisangehörige_Gemeinde"},"district":{"key":"03452","name":"Aurich","type":"Landkreis"},"federalState":{"key":"03","name":"Niedersachsen"}},{"name":"Bickbeerweg","postalCode":"26624","locality":"Südbrookmerland","municipality":{"key":"03452023","name":"Südbrookmerland","type":"Kreisangehörige_Gemeinde"},"district":{"key":"03452","name":"Aurich","type":"Landkreis"},"federalState":{"key":"03","name":"Niedersachsen"}},{"name":"Binsenstr.","postalCode":"26624","locality":"Südbrookmerland","municipality":{"key":"03452023","name":"Südbrookmerland","type":"Kreisangehörige_Gemeinde"},"district":{"key":"03452","name":"Aurich","type":"Landkreis"},"federalState":{"key":"03","name":"Niedersachsen"}},{"name":"Birkeneck","postalCode":"26624","locality":"Südbrookmerland","municipality":{"key":"03452023","name":"Südbrookmerland","type":"Kreisangehörige_Gemeinde"},"district":{"key":"03452","name":"Aurich","type":"Landkreis"},"federalState":{"key":"03","name":"Niedersachsen"}},{"name":"Birkenweg","postalCode":"26624","locality":"Südbrookmerland","municipality":{"key":"03452023","name":"Südbrookmerland","type":"Kreisangehörige_Gemeinde"},"district":{"key":"03452","name":"Aurich","type":"Landkreis"},"federalState":{"key":"03","name":"Niedersachsen"}},{"name":"Birkhahnweg","postalCode":"26624","locality":"Südbrookmerland","municipality":{"key":"03452023","name":"Südbrookmerland","type":"Kreisangehörige_Gemeinde"},"district":{"key":"03452","name":"Aurich","type":"Landkreis"},"federalState":{"key":"03","name":"Niedersachsen"}},{"name":"Birnenweg","postalCode":"26624","locality":"Südbrookmerland","municipality":{"key":"03452023","name":"Südbrookmerland","type":"Kreisangehörige_Gemeinde"},"district":{"key":"03452","name":"Aurich","type":"Landkreis"},"federalState":{"key":"03","name":"Niedersachsen"}},{"name":"Bläßhuhnweg","postalCode":"26624","locality":"Südbrookmerland","municipality":{"key":"03452023","name":"Südbrookmerland","type":"Kreisangehörige_Gemeinde"},"district":{"key":"03452","name":"Aurich","type":"Landkreis"},"federalState":{"key":"03","name":"Niedersachsen"}},{"name":"Blaubeerweg","postalCode":"26624","locality":"Südbrookmerland","municipality":{"key":"03452023","name":"Südbrookmerland","type":"Kreisangehörige_Gemeinde"},"district":{"key":"03452","name":"Aurich","type":"Landkreis"},"federalState":{"key":"03","name":"Niedersachsen"}},{"name":"Blaukirchener Friedhofstr.","postalCode":"26624","locality":"Südbrookmerland","municipality":{"key":"03452023","name":"Südbrookmerland","type":"Kreisangehörige_Gemeinde"},"district":{"key":"03452","name":"Aurich","type":"Landkreis"},"federalState":{"key":"03","name":"Niedersachsen"}},{"name":"Blumenstr.","postalCode":"26624","locality":"Südbrookmerland","municipality":{"key":"03452023","name":"Südbrookmerland","type":"Kreisangehörige_Gemeinde"},"district":{"key":"03452","name":"Aurich","type":"Landkreis"},"federalState":{"key":"03","name":"Niedersachsen"}},{"name":"Boßelstr.","postalCode":"26624","locality":"Südbrookmerland","municipality":{"key":"03452023","name":"Südbrookmerland","type":"Kreisangehörige_Gemeinde"},"district":{"key":"03452","name":"Aurich","type":"Landkreis"},"federalState":{"key":"03","name":"Niedersachsen"}},{"name":"Brahmsweg","postalCode":"26624","locality":"Südbrookmerland","municipality":{"key":"03452023","name":"Südbrookmerland","type":"Kreisangehörige_Gemeinde"},"district":{"key":"03452","name":"Aurich","type":"Landkreis"},"federalState":{"key":"03","name":"Niedersachsen"}},{"name":"Brannlander Weg","postalCode":"26624","locality":"Südbrookmerland","municipality":{"key":"03452023","name":"Südbrookmerland","type":"Kreisangehörige_Gemeinde"},"district":{"key":"03452","name":"Aurich","type":"Landkreis"},"federalState":{"key":"03","name":"Niedersachsen"}},{"name":"Brauers Trift","postalCode":"26624","locality":"Südbrookmerland","municipality":{"key":"03452023","name":"Südbrookmerland","type":"Kreisangehörige_Gemeinde"},"district":{"key":"03452","name":"Aurich","type":"Landkreis"},"federalState":{"key":"03","name":"Niedersachsen"}},{"name":"Breiter Weg","postalCode":"26624","locality":"Südbrookmerland","municipality":{"key":"03452023","name":"Südbrookmerland","type":"Kreisangehörige_Gemeinde"},"district":{"key":"03452","name":"Aurich","type":"Landkreis"},"federalState":{"key":"03","name":"Niedersachsen"}},{"name":"Brombeerweg","postalCode":"26624","locality":"Südbrookmerland","municipality":{"key":"03452023","name":"Südbrookmerland","type":"Kreisangehörige_Gemeinde"},"district":{"key":"03452","name":"Aurich","type":"Landkreis"},"federalState":{"key":"03","name":"Niedersachsen"}},{"name":"Brückstr.","postalCode":"26624","locality":"Südbrookmerland","municipality":{"key":"03452023","name":"Südbrookmerland","type":"Kreisangehörige_Gemeinde"},"district":{"key":"03452","name":"Aurich","type":"Landkreis"},"federalState":{"key":"03","name":"Niedersachsen"}},{"name":"Brunkensiedlung","postalCode":"26624","locality":"Südbrookmerland","municipality":{"key":"03452023","name":"Südbrookmerland","type":"Kreisangehörige_Gemeinde"},"district":{"key":"03452","name":"Aurich","type":"Landkreis"},"federalState":{"key":"03","name":"Niedersachsen"}},{"name":"Brunnfenne","postalCode":"26624","locality":"Südbrookmerland","municipality":{"key":"03452023","name":"Südbrookmerland","type":"Kreisangehörige_Gemeinde"},"district":{"key":"03452","name":"Aurich","type":"Landkreis"},"federalState":{"key":"03","name":"Niedersachsen"}},{"name":"Buchenweg","postalCode":"26624","locality":"Südbrookmerland","municipality":{"key":"03452023","name":"Südbrookmerland","type":"Kreisangehörige_Gemeinde"},"district":{"key":"03452","name":"Aurich","type":"Landkreis"},"federalState":{"key":"03","name":"Niedersachsen"}},{"name":"Buchweizenkamp","postalCode":"26624","locality":"Südbrookmerland","municipality":{"key":"03452023","name":"Südbrookmerland","type":"Kreisangehörige_Gemeinde"},"district":{"key":"03452","name":"Aurich","type":"Landkreis"},"federalState":{"key":"03","name":"Niedersachsen"}},{"name":"Bültweg","postalCode":"26624","locality":"Südbrookmerland","municipality":{"key":"03452023","name":"Südbrookmerland","type":"Kreisangehörige_Gemeinde"},"district":{"key":"03452","name":"Aurich","type":"Landkreis"},"federalState":{"key":"03","name":"Niedersachsen"}},{"name":"Bürgermeister-Lüken-Platz","postalCode":"26624","locality":"Südbrookmerland","municipality":{"key":"03452023","name":"Südbrookmerland","type":"Kreisangehörige_Gemeinde"},"district":{"key":"03452","name":"Aurich","type":"Landkreis"},"federalState":{"key":"03","name":"Niedersachsen"}},{"name":"Burgstr.","postalCode":"26624","locality":"Südbrookmerland","municipality":{"key":"03452023","name":"Südbrookmerland","type":"Kreisangehörige_Gemeinde"},"district":{"key":"03452","name":"Aurich","type":"Landkreis"},"federalState":{"key":"03","name":"Niedersachsen"}},{"name":"Buschkenweg","postalCode":"26624","locality":"Südbrookmerland","municipality":{"key":"03452023","name":"Südbrookmerland","type":"Kreisangehörige_Gemeinde"},"district":{"key":"03452","name":"Aurich","type":"Landkreis"},"federalState":{"key":"03","name":"Niedersachsen"}},{"name":"Bussardweg","postalCode":"26624","locality":"Südbrookmerland","municipality":{"key":"03452023","name":"Südbrookmerland","type":"Kreisangehörige_Gemeinde"},"district":{"key":"03452","name":"Aurich","type":"Landkreis"},"federalState":{"key":"03","name":"Niedersachsen"}},{"name":"Cirksenastr.","postalCode":"26624","locality":"Südbrookmerland","municipality":{"key":"03452023","name":"Südbrookmerland","type":"Kreisangehörige_Gemeinde"},"district":{"key":"03452","name":"Aurich","type":"Landkreis"},"federalState":{"key":"03","name":"Niedersachsen"}},{"name":"Dachsweg","postalCode":"26624","locality":"Südbrookmerland","municipality":{"key":"03452023","name":"Südbrookmerland","type":"Kreisangehörige_Gemeinde"},"district":{"key":"03452","name":"Aurich","type":"Landkreis"},"federalState":{"key":"03","name":"Niedersachsen"}},{"name":"Dahlienweg","postalCode":"26624","locality":"Südbrookmerland","municipality":{"key":"03452023","name":"Südbrookmerland","type":"Kreisangehörige_Gemeinde"},"district":{"key":"03452","name":"Aurich","type":"Landkreis"},"federalState":{"key":"03","name":"Niedersachsen"}},{"name":"Deichhauser Str.","postalCode":"26624","locality":"Südbrookmerland","municipality":{"key":"03452023","name":"Südbrookmerland","type":"Kreisangehörige_Gemeinde"},"district":{"key":"03452","name":"Aurich","type":"Landkreis"},"federalState":{"key":"03","name":"Niedersachsen"}},{"name":"Deichhauser Weg","postalCode":"26624","locality":"Südbrookmerland","municipality":{"key":"03452023","name":"Südbrookmerland","type":"Kreisangehörige_Gemeinde"},"district":{"key":"03452","name":"Aurich","type":"Landkreis"},"federalState":{"key":"03","name":"Niedersachsen"}},{"name":"Deichstr.","postalCode":"26624","locality":"Südbrookmerland","municipality":{"key":"03452023","name":"Südbrookmerland","type":"Kreisangehörige_Gemeinde"},"district":{"key":"03452","name":"Aurich","type":"Landkreis"},"federalState":{"key":"03","name":"Niedersachsen"}},{"name":"Dicke Bült","postalCode":"26624","locality":"Südbrookmerland","municipality":{"key":"03452023","name":"Südbrookmerland","type":"Kreisangehörige_Gemeinde"},"district":{"key":"03452","name":"Aurich","type":"Landkreis"},"federalState":{"key":"03","name":"Niedersachsen"}},{"name":"Diekfenne","postalCode":"26624","locality":"Südbrookmerland","municipality":{"key":"03452023","name":"Südbrookmerland","type":"Kreisangehörige_Gemeinde"},"district":{"key":"03452","name":"Aurich","type":"Landkreis"},"federalState":{"key":"03","name":"Niedersachsen"}},{"name":"Distelweg","postalCode":"26624","locality":"Südbrookmerland","municipality":{"key":"03452023","name":"Südbrookmerland","type":"Kreisangehörige_Gemeinde"},"district":{"key":"03452","name":"Aurich","type":"Landkreis"},"federalState":{"key":"03","name":"Niedersachsen"}},{"name":"Dobbefenne","postalCode":"26624","locality":"Südbrookmerland","municipality":{"key":"03452023","name":"Südbrookmerland","type":"Kreisangehörige_Gemeinde"},"district":{"key":"03452","name":"Aurich","type":"Landkreis"},"federalState":{"key":"03","name":"Niedersachsen"}},{"name":"Dodentwenter","postalCode":"26624","locality":"Südbrookmerland","municipality":{"key":"03452023","name":"Südbrookmerland","type":"Kreisangehörige_Gemeinde"},"district":{"key":"03452","name":"Aurich","type":"Landkreis"},"federalState":{"key":"03","name":"Niedersachsen"}},{"name":"Dornenweg","postalCode":"26624","locality":"Südbrookmerland","municipality":{"key":"03452023","name":"Südbrookmerland","type":"Kreisangehörige_Gemeinde"},"district":{"key":"03452","name":"Aurich","type":"Landkreis"},"federalState":{"key":"03","name":"Niedersachsen"}},{"name":"Dreeskeweg","postalCode":"26624","locality":"Südbrookmerland","municipality":{"key":"03452023","name":"Südbrookmerland","type":"Kreisangehörige_Gemeinde"},"district":{"key":"03452","name":"Aurich","type":"Landkreis"},"federalState":{"key":"03","name":"Niedersachsen"}},{"name":"Dreiackerweg","postalCode":"26624","locality":"Südbrookmerland","municipality":{"key":"03452023","name":"Südbrookmerland","type":"Kreisangehörige_Gemeinde"},"district":{"key":"03452","name":"Aurich","type":"Landkreis"},"federalState":{"key":"03","name":"Niedersachsen"}},{"name":"Dritter Meedeweg","postalCode":"26624","locality":"Südbrookmerland","municipality":{"key":"03452023","name":"Südbrookmerland","type":"Kreisangehörige_Gemeinde"},"district":{"key":"03452","name":"Aurich","type":"Landkreis"},"federalState":{"key":"03","name":"Niedersachsen"}},{"name":"Dröge Hörn","postalCode":"26624","locality":"Südbrookmerland","municipality":{"key":"03452023","name":"Südbrookmerland","type":"Kreisangehörige_Gemeinde"},"district":{"key":"03452","name":"Aurich","type":"Landkreis"},"federalState":{"key":"03","name":"Niedersachsen"}},{"name":"Drosselweg","postalCode":"26624","locality":"Südbrookmerland","municipality":{"key":"03452023","name":"Südbrookmerland","type":"Kreisangehörige_Gemeinde"},"district":{"key":"03452","name":"Aurich","type":"Landkreis"},"federalState":{"key":"03","name":"Niedersachsen"}},{"name":"Dwarsweg","postalCode":"26624","locality":"Südbrookmerland","municipality":{"key":"03452023","name":"Südbrookmerland","type":"Kreisangehörige_Gemeinde"},"district":{"key":"03452","name":"Aurich","type":"Landkreis"},"federalState":{"key":"03","name":"Niedersachsen"}},{"name":"Edzardstr.","postalCode":"26624","locality":"Südbrookmerland","municipality":{"key":"03452023","name":"Südbrookmerland","type":"Kreisangehörige_Gemeinde"},"district":{"key":"03452","name":"Aurich","type":"Landkreis"},"federalState":{"key":"03","name":"Niedersachsen"}},{"name":"Efeuweg","postalCode":"26624","locality":"Südbrookmerland","municipality":{"key":"03452023","name":"Südbrookmerland","type":"Kreisangehörige_Gemeinde"},"district":{"key":"03452","name":"Aurich","type":"Landkreis"},"federalState":{"key":"03","name":"Niedersachsen"}},{"name":"Egeweg","postalCode":"26624","locality":"Südbrookmerland","municipality":{"key":"03452023","name":"Südbrookmerland","type":"Kreisangehörige_Gemeinde"},"district":{"key":"03452","name":"Aurich","type":"Landkreis"},"federalState":{"key":"03","name":"Niedersachsen"}},{"name":"Eibenstr.","postalCode":"26624","locality":"Südbrookmerland","municipality":{"key":"03452023","name":"Südbrookmerland","type":"Kreisangehörige_Gemeinde"},"district":{"key":"03452","name":"Aurich","type":"Landkreis"},"federalState":{"key":"03","name":"Niedersachsen"}},{"name":"Eichenweg","postalCode":"26624","locality":"Südbrookmerland","municipality":{"key":"03452023","name":"Südbrookmerland","type":"Kreisangehörige_Gemeinde"},"district":{"key":"03452","name":"Aurich","type":"Landkreis"},"federalState":{"key":"03","name":"Niedersachsen"}},{"name":"Ekeler Weg","postalCode":"26624","locality":"Südbrookmerland","municipality":{"key":"03452023","name":"Südbrookmerland","type":"Kreisangehörige_Gemeinde"},"district":{"key":"03452","name":"Aurich","type":"Landkreis"},"federalState":{"key":"03","name":"Niedersachsen"}},{"name":"Ekelser Str.","postalCode":"26624","locality":"Südbrookmerland","municipality":{"key":"03452023","name":"Südbrookmerland","type":"Kreisangehörige_Gemeinde"},"district":{"key":"03452","name":"Aurich","type":"Landkreis"},"federalState":{"key":"03","name":"Niedersachsen"}},{"name":"Ekelser Weg","postalCode":"26624","locality":"Südbrookmerland","municipality":{"key":"03452023","name":"Südbrookmerland","type":"Kreisangehörige_Gemeinde"},"district":{"key":"03452","name":"Aurich","type":"Landkreis"},"federalState":{"key":"03","name":"Niedersachsen"}},{"name":"Ellernweg","postalCode":"26624","locality":"Südbrookmerland","municipality":{"key":"03452023","name":"Südbrookmerland","type":"Kreisangehörige_Gemeinde"},"district":{"key":"03452","name":"Aurich","type":"Landkreis"},"federalState":{"key":"03","name":"Niedersachsen"}},{"name":"Elsternweg","postalCode":"26624","locality":"Südbrookmerland","municipality":{"key":"03452023","name":"Südbrookmerland","type":"Kreisangehörige_Gemeinde"},"district":{"key":"03452","name":"Aurich","type":"Landkreis"},"federalState":{"key":"03","name":"Niedersachsen"}},{"name":"Emder Str.","postalCode":"26624","locality":"Südbrookmerland","municipality":{"key":"03452023","name":"Südbrookmerland","type":"Kreisangehörige_Gemeinde"},"district":{"key":"03452","name":"Aurich","type":"Landkreis"},"federalState":{"key":"03","name":"Niedersachsen"}},{"name":"Emslandstr.","postalCode":"26624","locality":"Südbrookmerland","municipality":{"key":"03452023","name":"Südbrookmerland","type":"Kreisangehörige_Gemeinde"},"district":{"key":"03452","name":"Aurich","type":"Landkreis"},"federalState":{"key":"03","name":"Niedersachsen"}},{"name":"Enderweg","postalCode":"26624","locality":"Südbrookmerland","municipality":{"key":"03452023","name":"Südbrookmerland","type":"Kreisangehörige_Gemeinde"},"district":{"key":"03452","name":"Aurich","type":"Landkreis"},"federalState":{"key":"03","name":"Niedersachsen"}},{"name":"Engerhafer Loog","postalCode":"26624","locality":"Südbrookmerland","municipality":{"key":"03452023","name":"Südbrookmerland","type":"Kreisangehörige_Gemeinde"},"district":{"key":"03452","name":"Aurich","type":"Landkreis"},"federalState":{"key":"03","name":"Niedersachsen"}},{"name":"Entenweg","postalCode":"26624","locality":"Südbrookmerland","municipality":{"key":"03452023","name":"Südbrookmerland","type":"Kreisangehörige_Gemeinde"},"district":{"key":"03452","name":"Aurich","type":"Landkreis"},"federalState":{"key":"03","name":"Niedersachsen"}},{"name":"Erdbeerring","postalCode":"26624","locality":"Südbrookmerland","municipality":{"key":"03452023","name":"Südbrookmerland","type":"Kreisangehörige_Gemeinde"},"district":{"key":"03452","name":"Aurich","type":"Landkreis"},"federalState":{"key":"03","name":"Niedersachsen"}},{"name":"Erlenweg","postalCode":"26624","locality":"Südbrookmerland","municipality":{"key":"03452023","name":"Südbrookmerland","type":"Kreisangehörige_Gemeinde"},"district":{"key":"03452","name":"Aurich","type":"Landkreis"},"federalState":{"key":"03","name":"Niedersachsen"}},{"name":"Erster Meedeweg","postalCode":"26624","locality":"Südbrookmerland","municipality":{"key":"03452023","name":"Südbrookmerland","type":"Kreisangehörige_Gemeinde"},"district":{"key":"03452","name":"Aurich","type":"Landkreis"},"federalState":{"key":"03","name":"Niedersachsen"}},{"name":"Eschenweg","postalCode":"26624","locality":"Südbrookmerland","municipality":{"key":"03452023","name":"Südbrookmerland","type":"Kreisangehörige_Gemeinde"},"district":{"key":"03452","name":"Aurich","type":"Landkreis"},"federalState":{"key":"03","name":"Niedersachsen"}},{"name":"Eulenweg","postalCode":"26624","locality":"Südbrookmerland","municipality":{"key":"03452023","name":"Südbrookmerland","type":"Kreisangehörige_Gemeinde"},"district":{"key":"03452","name":"Aurich","type":"Landkreis"},"federalState":{"key":"03","name":"Niedersachsen"}},{"name":"Extumer Gaste","postalCode":"26624","locality":"Südbrookmerland","municipality":{"key":"03452023","name":"Südbrookmerland","type":"Kreisangehörige_Gemeinde"},"district":{"key":"03452","name":"Aurich","type":"Landkreis"},"federalState":{"key":"03","name":"Niedersachsen"}},{"name":"Extumer Trift","postalCode":"26624","locality":"Südbrookmerland","municipality":{"key":"03452023","name":"Südbrookmerland","type":"Kreisangehörige_Gemeinde"},"district":{"key":"03452","name":"Aurich","type":"Landkreis"},"federalState":{"key":"03","name":"Niedersachsen"}},{"name":"Fasanenweg","postalCode":"26624","locality":"Südbrookmerland","municipality":{"key":"03452023","name":"Südbrookmerland","type":"Kreisangehörige_Gemeinde"},"district":{"key":"03452","name":"Aurich","type":"Landkreis"},"federalState":{"key":"03","name":"Niedersachsen"}},{"name":"Fehnhusen","postalCode":"26624","locality":"Südbrookmerland","municipality":{"key":"03452023","name":"Südbrookmerland","type":"Kreisangehörige_Gemeinde"},"district":{"key":"03452","name":"Aurich","type":"Landkreis"},"federalState":{"key":"03","name":"Niedersachsen"}},{"name":"Fehnhuser Gaste","postalCode":"26624","locality":"Südbrookmerland","municipality":{"key":"03452023","name":"Südbrookmerland","type":"Kreisangehörige_Gemeinde"},"district":{"key":"03452","name":"Aurich","type":"Landkreis"},"federalState":{"key":"03","name":"Niedersachsen"}},{"name":"Fehntjer Weg","postalCode":"26624","locality":"Südbrookmerland","municipality":{"key":"03452023","name":"Südbrookmerland","type":"Kreisangehörige_Gemeinde"},"district":{"key":"03452","name":"Aurich","type":"Landkreis"},"federalState":{"key":"03","name":"Niedersachsen"}},{"name":"Fichtenstr.","postalCode":"26624","locality":"Südbrookmerland","municipality":{"key":"03452023","name":"Südbrookmerland","type":"Kreisangehörige_Gemeinde"},"district":{"key":"03452","name":"Aurich","type":"Landkreis"},"federalState":{"key":"03","name":"Niedersachsen"}},{"name":"Fichtenweg","postalCode":"26624","locality":"Südbrookmerland","municipality":{"key":"03452023","name":"Südbrookmerland","type":"Kreisangehörige_Gemeinde"},"district":{"key":"03452","name":"Aurich","type":"Landkreis"},"federalState":{"key":"03","name":"Niedersachsen"}},{"name":"Finkenweg","postalCode":"26624","locality":"Südbrookmerland","municipality":{"key":"03452023","name":"Südbrookmerland","type":"Kreisangehörige_Gemeinde"},"district":{"key":"03452","name":"Aurich","type":"Landkreis"},"federalState":{"key":"03","name":"Niedersachsen"}},{"name":"Fliederweg","postalCode":"26624","locality":"Südbrookmerland","municipality":{"key":"03452023","name":"Südbrookmerland","type":"Kreisangehörige_Gemeinde"},"district":{"key":"03452","name":"Aurich","type":"Landkreis"},"federalState":{"key":"03","name":"Niedersachsen"}},{"name":"Föhrenweg","postalCode":"26624","locality":"Südbrookmerland","municipality":{"key":"03452023","name":"Südbrookmerland","type":"Kreisangehörige_Gemeinde"},"district":{"key":"03452","name":"Aurich","type":"Landkreis"},"federalState":{"key":"03","name":"Niedersachsen"}},{"name":"Forellenweg","postalCode":"26624","locality":"Südbrookmerland","municipality":{"key":"03452023","name":"Südbrookmerland","type":"Kreisangehörige_Gemeinde"},"district":{"key":"03452","name":"Aurich","type":"Landkreis"},"federalState":{"key":"03","name":"Niedersachsen"}},{"name":"Forlitzer Str.","postalCode":"26624","locality":"Südbrookmerland","municipality":{"key":"03452023","name":"Südbrookmerland","type":"Kreisangehörige_Gemeinde"},"district":{"key":"03452","name":"Aurich","type":"Landkreis"},"federalState":{"key":"03","name":"Niedersachsen"}},{"name":"Frankenweg","postalCode":"26624","locality":"Südbrookmerland","municipality":{"key":"03452023","name":"Südbrookmerland","type":"Kreisangehörige_Gemeinde"},"district":{"key":"03452","name":"Aurich","type":"Landkreis"},"federalState":{"key":"03","name":"Niedersachsen"}},{"name":"Friedensweg","postalCode":"26624","locality":"Südbrookmerland","municipality":{"key":"03452023","name":"Südbrookmerland","type":"Kreisangehörige_Gemeinde"},"district":{"key":"03452","name":"Aurich","type":"Landkreis"},"federalState":{"key":"03","name":"Niedersachsen"}},{"name":"Friesenweg","postalCode":"26624","locality":"Südbrookmerland","municipality":{"key":"03452023","name":"Südbrookmerland","type":"Kreisangehörige_Gemeinde"},"district":{"key":"03452","name":"Aurich","type":"Landkreis"},"federalState":{"key":"03","name":"Niedersachsen"}},{"name":"Froschbißstr.","postalCode":"26624","locality":"Südbrookmerland","municipality":{"key":"03452023","name":"Südbrookmerland","type":"Kreisangehörige_Gemeinde"},"district":{"key":"03452","name":"Aurich","type":"Landkreis"},"federalState":{"key":"03","name":"Niedersachsen"}},{"name":"Fuchsweg","postalCode":"26624","locality":"Südbrookmerland","municipality":{"key":"03452023","name":"Südbrookmerland","type":"Kreisangehörige_Gemeinde"},"district":{"key":"03452","name":"Aurich","type":"Landkreis"},"federalState":{"key":"03","name":"Niedersachsen"}},{"name":"Gänseweg","postalCode":"26624","locality":"Südbrookmerland","municipality":{"key":"03452023","name":"Südbrookmerland","type":"Kreisangehörige_Gemeinde"},"district":{"key":"03452","name":"Aurich","type":"Landkreis"},"federalState":{"key":"03","name":"Niedersachsen"}},{"name":"Ganterweg","postalCode":"26624","locality":"Südbrookmerland","municipality":{"key":"03452023","name":"Südbrookmerland","type":"Kreisangehörige_Gemeinde"},"district":{"key":"03452","name":"Aurich","type":"Landkreis"},"federalState":{"key":"03","name":"Niedersachsen"}},{"name":"Gasteweg","postalCode":"26624","locality":"Südbrookmerland","municipality":{"key":"03452023","name":"Südbrookmerland","type":"Kreisangehörige_Gemeinde"},"district":{"key":"03452","name":"Aurich","type":"Landkreis"},"federalState":{"key":"03","name":"Niedersachsen"}},{"name":"Gastmeedeweg","postalCode":"26624","locality":"Südbrookmerland","municipality":{"key":"03452023","name":"Südbrookmerland","type":"Kreisangehörige_Gemeinde"},"district":{"key":"03452","name":"Aurich","type":"Landkreis"},"federalState":{"key":"03","name":"Niedersachsen"}},{"name":"Georgsfelder Weg","postalCode":"26624","locality":"Südbrookmerland","municipality":{"key":"03452023","name":"Südbrookmerland","type":"Kreisangehörige_Gemeinde"},"district":{"key":"03452","name":"Aurich","type":"Landkreis"},"federalState":{"key":"03","name":"Niedersachsen"}},{"name":"Georgsheiler Weg","postalCode":"26624","locality":"Südbrookmerland","municipality":{"key":"03452023","name":"Südbrookmerland","type":"Kreisangehörige_Gemeinde"},"district":{"key":"03452","name":"Aurich","type":"Landkreis"},"federalState":{"key":"03","name":"Niedersachsen"}},{"name":"Gewerbestr.","postalCode":"26624","locality":"Südbrookmerland","municipality":{"key":"03452023","name":"Südbrookmerland","type":"Kreisangehörige_Gemeinde"},"district":{"key":"03452","name":"Aurich","type":"Landkreis"},"federalState":{"key":"03","name":"Niedersachsen"}},{"name":"Ginsterweg","postalCode":"26624","locality":"Südbrookmerland","municipality":{"key":"03452023","name":"Südbrookmerland","type":"Kreisangehörige_Gemeinde"},"district":{"key":"03452","name":"Aurich","type":"Landkreis"},"federalState":{"key":"03","name":"Niedersachsen"}},{"name":"Girlitzweg","postalCode":"26624","locality":"Südbrookmerland","municipality":{"key":"03452023","name":"Südbrookmerland","type":"Kreisangehörige_Gemeinde"},"district":{"key":"03452","name":"Aurich","type":"Landkreis"},"federalState":{"key":"03","name":"Niedersachsen"}},{"name":"Gladiolenweg","postalCode":"26624","locality":"Südbrookmerland","municipality":{"key":"03452023","name":"Südbrookmerland","type":"Kreisangehörige_Gemeinde"},"district":{"key":"03452","name":"Aurich","type":"Landkreis"},"federalState":{"key":"03","name":"Niedersachsen"}},{"name":"Goetheweg","postalCode":"26624","locality":"Südbrookmerland","municipality":{"key":"03452023","name":"Südbrookmerland","type":"Kreisangehörige_Gemeinde"},"district":{"key":"03452","name":"Aurich","type":"Landkreis"},"federalState":{"key":"03","name":"Niedersachsen"}},{"name":"Graugansweg","postalCode":"26624","locality":"Südbrookmerland","municipality":{"key":"03452023","name":"Südbrookmerland","type":"Kreisangehörige_Gemeinde"},"district":{"key":"03452","name":"Aurich","type":"Landkreis"},"federalState":{"key":"03","name":"Niedersachsen"}},{"name":"Grenzpad","postalCode":"26624","locality":"Südbrookmerland","municipality":{"key":"03452023","name":"Südbrookmerland","type":"Kreisangehörige_Gemeinde"},"district":{"key":"03452","name":"Aurich","type":"Landkreis"},"federalState":{"key":"03","name":"Niedersachsen"}},{"name":"Grenzstr.","postalCode":"26624","locality":"Südbrookmerland","municipality":{"key":"03452023","name":"Südbrookmerland","type":"Kreisangehörige_Gemeinde"},"district":{"key":"03452","name":"Aurich","type":"Landkreis"},"federalState":{"key":"03","name":"Niedersachsen"}},{"name":"Grode Kamp","postalCode":"26624","locality":"Südbrookmerland","municipality":{"key":"03452023","name":"Südbrookmerland","type":"Kreisangehörige_Gemeinde"},"district":{"key":"03452","name":"Aurich","type":"Landkreis"},"federalState":{"key":"03","name":"Niedersachsen"}},{"name":"Grootlandsweg","postalCode":"26624","locality":"Südbrookmerland","municipality":{"key":"03452023","name":"Südbrookmerland","type":"Kreisangehörige_Gemeinde"},"district":{"key":"03452","name":"Aurich","type":"Landkreis"},"federalState":{"key":"03","name":"Niedersachsen"}},{"name":"Großer Bogen","postalCode":"26624","locality":"Südbrookmerland","municipality":{"key":"03452023","name":"Südbrookmerland","type":"Kreisangehörige_Gemeinde"},"district":{"key":"03452","name":"Aurich","type":"Landkreis"},"federalState":{"key":"03","name":"Niedersachsen"}},{"name":"Grüner Weg","postalCode":"26624","locality":"Südbrookmerland","municipality":{"key":"03452023","name":"Südbrookmerland","type":"Kreisangehörige_Gemeinde"},"district":{"key":"03452","name":"Aurich","type":"Landkreis"},"federalState":{"key":"03","name":"Niedersachsen"}},{"name":"Haasnüst","postalCode":"26624","locality":"Südbrookmerland","municipality":{"key":"03452023","name":"Südbrookmerland","type":"Kreisangehörige_Gemeinde"},"district":{"key":"03452","name":"Aurich","type":"Landkreis"},"federalState":{"key":"03","name":"Niedersachsen"}},{"name":"Habichtsweg","postalCode":"26624","locality":"Südbrookmerland","municipality":{"key":"03452023","name":"Südbrookmerland","type":"Kreisangehörige_Gemeinde"},"district":{"key":"03452","name":"Aurich","type":"Landkreis"},"federalState":{"key":"03","name":"Niedersachsen"}},{"name":"Haferkamp","postalCode":"26624","locality":"Südbrookmerland","municipality":{"key":"03452023","name":"Südbrookmerland","type":"Kreisangehörige_Gemeinde"},"district":{"key":"03452","name":"Aurich","type":"Landkreis"},"federalState":{"key":"03","name":"Niedersachsen"}},{"name":"Hagebuttenweg","postalCode":"26624","locality":"Südbrookmerland","municipality":{"key":"03452023","name":"Südbrookmerland","type":"Kreisangehörige_Gemeinde"},"district":{"key":"03452","name":"Aurich","type":"Landkreis"},"federalState":{"key":"03","name":"Niedersachsen"}},{"name":"Haidjer Pad","postalCode":"26624","locality":"Südbrookmerland","municipality":{"key":"03452023","name":"Südbrookmerland","type":"Kreisangehörige_Gemeinde"},"district":{"key":"03452","name":"Aurich","type":"Landkreis"},"federalState":{"key":"03","name":"Niedersachsen"}},{"name":"Hamstereck","postalCode":"26624","locality":"Südbrookmerland","municipality":{"key":"03452023","name":"Südbrookmerland","type":"Kreisangehörige_Gemeinde"},"district":{"key":"03452","name":"Aurich","type":"Landkreis"},"federalState":{"key":"03","name":"Niedersachsen"}},{"name":"Handelsring","postalCode":"26624","locality":"Südbrookmerland","municipality":{"key":"03452023","name":"Südbrookmerland","type":"Kreisangehörige_Gemeinde"},"district":{"key":"03452","name":"Aurich","type":"Landkreis"},"federalState":{"key":"03","name":"Niedersachsen"}},{"name":"Händelstr.","postalCode":"26624","locality":"Südbrookmerland","municipality":{"key":"03452023","name":"Südbrookmerland","type":"Kreisangehörige_Gemeinde"},"district":{"key":"03452","name":"Aurich","type":"Landkreis"},"federalState":{"key":"03","name":"Niedersachsen"}},{"name":"Harenfeld","postalCode":"26624","locality":"Südbrookmerland","municipality":{"key":"03452023","name":"Südbrookmerland","type":"Kreisangehörige_Gemeinde"},"district":{"key":"03452","name":"Aurich","type":"Landkreis"},"federalState":{"key":"03","name":"Niedersachsen"}},{"name":"Hasenweg","postalCode":"26624","locality":"Südbrookmerland","municipality":{"key":"03452023","name":"Südbrookmerland","type":"Kreisangehörige_Gemeinde"},"district":{"key":"03452","name":"Aurich","type":"Landkreis"},"federalState":{"key":"03","name":"Niedersachsen"}},{"name":"Hauptmeedeweg","postalCode":"26624","locality":"Südbrookmerland","municipality":{"key":"03452023","name":"Südbrookmerland","type":"Kreisangehörige_Gemeinde"},"district":{"key":"03452","name":"Aurich","type":"Landkreis"},"federalState":{"key":"03","name":"Niedersachsen"}},{"name":"Haydnweg","postalCode":"26624","locality":"Südbrookmerland","municipality":{"key":"03452023","name":"Südbrookmerland","type":"Kreisangehörige_Gemeinde"},"district":{"key":"03452","name":"Aurich","type":"Landkreis"},"federalState":{"key":"03","name":"Niedersachsen"}},{"name":"Hechtweg","postalCode":"26624","locality":"Südbrookmerland","municipality":{"key":"03452023","name":"Südbrookmerland","type":"Kreisangehörige_Gemeinde"},"district":{"key":"03452","name":"Aurich","type":"Landkreis"},"federalState":{"key":"03","name":"Niedersachsen"}},{"name":"Heckenweg","postalCode":"26624","locality":"Südbrookmerland","municipality":{"key":"03452023","name":"Südbrookmerland","type":"Kreisangehörige_Gemeinde"},"district":{"key":"03452","name":"Aurich","type":"Landkreis"},"federalState":{"key":"03","name":"Niedersachsen"}},{"name":"Heidelbeerweg","postalCode":"26624","locality":"Südbrookmerland","municipality":{"key":"03452023","name":"Südbrookmerland","type":"Kreisangehörige_Gemeinde"},"district":{"key":"03452","name":"Aurich","type":"Landkreis"},"federalState":{"key":"03","name":"Niedersachsen"}},{"name":"Heidkamp","postalCode":"26624","locality":"Südbrookmerland","municipality":{"key":"03452023","name":"Südbrookmerland","type":"Kreisangehörige_Gemeinde"},"district":{"key":"03452","name":"Aurich","type":"Landkreis"},"federalState":{"key":"03","name":"Niedersachsen"}},{"name":"Heinkens Hoek","postalCode":"26624","locality":"Südbrookmerland","municipality":{"key":"03452023","name":"Südbrookmerland","type":"Kreisangehörige_Gemeinde"},"district":{"key":"03452","name":"Aurich","type":"Landkreis"},"federalState":{"key":"03","name":"Niedersachsen"}},{"name":"Helsmuhder Weg","postalCode":"26624","locality":"Südbrookmerland","municipality":{"key":"03452023","name":"Südbrookmerland","type":"Kreisangehörige_Gemeinde"},"district":{"key":"03452","name":"Aurich","type":"Landkreis"},"federalState":{"key":"03","name":"Niedersachsen"}},{"name":"Herrenhüttener Str.","postalCode":"26624","locality":"Südbrookmerland","municipality":{"key":"03452023","name":"Südbrookmerland","type":"Kreisangehörige_Gemeinde"},"district":{"key":"03452","name":"Aurich","type":"Landkreis"},"federalState":{"key":"03","name":"Niedersachsen"}},{"name":"Herrenmeedeweg","postalCode":"26624","locality":"Südbrookmerland","municipality":{"key":"03452023","name":"Südbrookmerland","type":"Kreisangehörige_Gemeinde"},"district":{"key":"03452","name":"Aurich","type":"Landkreis"},"federalState":{"key":"03","name":"Niedersachsen"}},{"name":"Herrschaftliche Trift","postalCode":"26624","locality":"Südbrookmerland","municipality":{"key":"03452023","name":"Südbrookmerland","type":"Kreisangehörige_Gemeinde"},"district":{"key":"03452","name":"Aurich","type":"Landkreis"},"federalState":{"key":"03","name":"Niedersachsen"}},{"name":"Hillmers Sand","postalCode":"26624","locality":"Südbrookmerland","municipality":{"key":"03452023","name":"Südbrookmerland","type":"Kreisangehörige_Gemeinde"},"district":{"key":"03452","name":"Aurich","type":"Landkreis"},"federalState":{"key":"03","name":"Niedersachsen"}},{"name":"Himbeerweg","postalCode":"26624","locality":"Südbrookmerland","municipality":{"key":"03452023","name":"Südbrookmerland","type":"Kreisangehörige_Gemeinde"},"district":{"key":"03452","name":"Aurich","type":"Landkreis"},"federalState":{"key":"03","name":"Niedersachsen"}},{"name":"Hintertheener Weg","postalCode":"26624","locality":"Südbrookmerland","municipality":{"key":"03452023","name":"Südbrookmerland","type":"Kreisangehörige_Gemeinde"},"district":{"key":"03452","name":"Aurich","type":"Landkreis"},"federalState":{"key":"03","name":"Niedersachsen"}},{"name":"Hochackerstr.","postalCode":"26624","locality":"Südbrookmerland","municipality":{"key":"03452023","name":"Südbrookmerland","type":"Kreisangehörige_Gemeinde"},"district":{"key":"03452","name":"Aurich","type":"Landkreis"},"federalState":{"key":"03","name":"Niedersachsen"}},{"name":"Höchte","postalCode":"26624","locality":"Südbrookmerland","municipality":{"key":"03452023","name":"Südbrookmerland","type":"Kreisangehörige_Gemeinde"},"district":{"key":"03452","name":"Aurich","type":"Landkreis"},"federalState":{"key":"03","name":"Niedersachsen"}},{"name":"Hoddelkestr.","postalCode":"26624","locality":"Südbrookmerland","municipality":{"key":"03452023","name":"Südbrookmerland","type":"Kreisangehörige_Gemeinde"},"district":{"key":"03452","name":"Aurich","type":"Landkreis"},"federalState":{"key":"03","name":"Niedersachsen"}},{"name":"Höferweg","postalCode":"26624","locality":"Südbrookmerland","municipality":{"key":"03452023","name":"Südbrookmerland","type":"Kreisangehörige_Gemeinde"},"district":{"key":"03452","name":"Aurich","type":"Landkreis"},"federalState":{"key":"03","name":"Niedersachsen"}},{"name":"Holunderweg","postalCode":"26624","locality":"Südbrookmerland","municipality":{"key":"03452023","name":"Südbrookmerland","type":"Kreisangehörige_Gemeinde"},"district":{"key":"03452","name":"Aurich","type":"Landkreis"},"federalState":{"key":"03","name":"Niedersachsen"}},{"name":"Hümblertrift","postalCode":"26624","locality":"Südbrookmerland","municipality":{"key":"03452023","name":"Südbrookmerland","type":"Kreisangehörige_Gemeinde"},"district":{"key":"03452","name":"Aurich","type":"Landkreis"},"federalState":{"key":"03","name":"Niedersachsen"}},{"name":"Hundertdiematsweg","postalCode":"26624","locality":"Südbrookmerland","municipality":{"key":"03452023","name":"Südbrookmerland","type":"Kreisangehörige_Gemeinde"},"district":{"key":"03452","name":"Aurich","type":"Landkreis"},"federalState":{"key":"03","name":"Niedersachsen"}},{"name":"Igelkolbenstr.","postalCode":"26624","locality":"Südbrookmerland","municipality":{"key":"03452023","name":"Südbrookmerland","type":"Kreisangehörige_Gemeinde"},"district":{"key":"03452","name":"Aurich","type":"Landkreis"},"federalState":{"key":"03","name":"Niedersachsen"}},{"name":"III. Tillhäuser Weg","postalCode":"26624","locality":"Südbrookmerland","municipality":{"key":"03452023","name":"Südbrookmerland","type":"Kreisangehörige_Gemeinde"},"district":{"key":"03452","name":"Aurich","type":"Landkreis"},"federalState":{"key":"03","name":"Niedersachsen"}},{"name":"Iltisweg","postalCode":"26624","locality":"Südbrookmerland","municipality":{"key":"03452023","name":"Südbrookmerland","type":"Kreisangehörige_Gemeinde"},"district":{"key":"03452","name":"Aurich","type":"Landkreis"},"federalState":{"key":"03","name":"Niedersachsen"}},{"name":"Im Blanken Moor","postalCode":"26624","locality":"Südbrookmerland","municipality":{"key":"03452023","name":"Südbrookmerland","type":"Kreisangehörige_Gemeinde"},"district":{"key":"03452","name":"Aurich","type":"Landkreis"},"federalState":{"key":"03","name":"Niedersachsen"}},{"name":"Im Hook","postalCode":"26624","locality":"Südbrookmerland","municipality":{"key":"03452023","name":"Südbrookmerland","type":"Kreisangehörige_Gemeinde"},"district":{"key":"03452","name":"Aurich","type":"Landkreis"},"federalState":{"key":"03","name":"Niedersachsen"}},{"name":"Im Tief","postalCode":"26624","locality":"Südbrookmerland","municipality":{"key":"03452023","name":"Südbrookmerland","type":"Kreisangehörige_Gemeinde"},"district":{"key":"03452","name":"Aurich","type":"Landkreis"},"federalState":{"key":"03","name":"Niedersachsen"}},{"name":"Im Timp","postalCode":"26624","locality":"Südbrookmerland","municipality":{"key":"03452023","name":"Südbrookmerland","type":"Kreisangehörige_Gemeinde"},"district":{"key":"03452","name":"Aurich","type":"Landkreis"},"federalState":{"key":"03","name":"Niedersachsen"}},{"name":"Im Winkel","postalCode":"26624","locality":"Südbrookmerland","municipality":{"key":"03452023","name":"Südbrookmerland","type":"Kreisangehörige_Gemeinde"},"district":{"key":"03452","name":"Aurich","type":"Landkreis"},"federalState":{"key":"03","name":"Niedersachsen"}},{"name":"In der Herrenmeede","postalCode":"26624","locality":"Südbrookmerland","municipality":{"key":"03452023","name":"Südbrookmerland","type":"Kreisangehörige_Gemeinde"},"district":{"key":"03452","name":"Aurich","type":"Landkreis"},"federalState":{"key":"03","name":"Niedersachsen"}},{"name":"Jägerstr.","postalCode":"26624","locality":"Südbrookmerland","municipality":{"key":"03452023","name":"Südbrookmerland","type":"Kreisangehörige_Gemeinde"},"district":{"key":"03452","name":"Aurich","type":"Landkreis"},"federalState":{"key":"03","name":"Niedersachsen"}},{"name":"Jasminweg","postalCode":"26624","locality":"Südbrookmerland","municipality":{"key":"03452023","name":"Südbrookmerland","type":"Kreisangehörige_Gemeinde"},"district":{"key":"03452","name":"Aurich","type":"Landkreis"},"federalState":{"key":"03","name":"Niedersachsen"}},{"name":"Johannisbeerweg","postalCode":"26624","locality":"Südbrookmerland","municipality":{"key":"03452023","name":"Südbrookmerland","type":"Kreisangehörige_Gemeinde"},"district":{"key":"03452","name":"Aurich","type":"Landkreis"},"federalState":{"key":"03","name":"Niedersachsen"}},{"name":"Jollenweg","postalCode":"26624","locality":"Südbrookmerland","municipality":{"key":"03452023","name":"Südbrookmerland","type":"Kreisangehörige_Gemeinde"},"district":{"key":"03452","name":"Aurich","type":"Landkreis"},"federalState":{"key":"03","name":"Niedersachsen"}},{"name":"Jülkeweg","postalCode":"26624","locality":"Südbrookmerland","municipality":{"key":"03452023","name":"Südbrookmerland","type":"Kreisangehörige_Gemeinde"},"district":{"key":"03452","name":"Aurich","type":"Landkreis"},"federalState":{"key":"03","name":"Niedersachsen"}},{"name":"Kabelweg","postalCode":"26624","locality":"Südbrookmerland","municipality":{"key":"03452023","name":"Südbrookmerland","type":"Kreisangehörige_Gemeinde"},"district":{"key":"03452","name":"Aurich","type":"Landkreis"},"federalState":{"key":"03","name":"Niedersachsen"}},{"name":"Kampmeersweg","postalCode":"26624","locality":"Südbrookmerland","municipality":{"key":"03452023","name":"Südbrookmerland","type":"Kreisangehörige_Gemeinde"},"district":{"key":"03452","name":"Aurich","type":"Landkreis"},"federalState":{"key":"03","name":"Niedersachsen"}},{"name":"Kampweg","postalCode":"26624","locality":"Südbrookmerland","municipality":{"key":"03452023","name":"Südbrookmerland","type":"Kreisangehörige_Gemeinde"},"district":{"key":"03452","name":"Aurich","type":"Landkreis"},"federalState":{"key":"03","name":"Niedersachsen"}},{"name":"Kanalweg","postalCode":"26624","locality":"Südbrookmerland","municipality":{"key":"03452023","name":"Südbrookmerland","type":"Kreisangehörige_Gemeinde"},"district":{"key":"03452","name":"Aurich","type":"Landkreis"},"federalState":{"key":"03","name":"Niedersachsen"}},{"name":"Karkbindsweg","postalCode":"26624","locality":"Südbrookmerland","municipality":{"key":"03452023","name":"Südbrookmerland","type":"Kreisangehörige_Gemeinde"},"district":{"key":"03452","name":"Aurich","type":"Landkreis"},"federalState":{"key":"03","name":"Niedersachsen"}},{"name":"Kastanienweg","postalCode":"26624","locality":"Südbrookmerland","municipality":{"key":"03452023","name":"Südbrookmerland","type":"Kreisangehörige_Gemeinde"},"district":{"key":"03452","name":"Aurich","type":"Landkreis"},"federalState":{"key":"03","name":"Niedersachsen"}},{"name":"Kenoweg","postalCode":"26624","locality":"Südbrookmerland","municipality":{"key":"03452023","name":"Südbrookmerland","type":"Kreisangehörige_Gemeinde"},"district":{"key":"03452","name":"Aurich","type":"Landkreis"},"federalState":{"key":"03","name":"Niedersachsen"}},{"name":"Kibbelwarf","postalCode":"26624","locality":"Südbrookmerland","municipality":{"key":"03452023","name":"Südbrookmerland","type":"Kreisangehörige_Gemeinde"},"district":{"key":"03452","name":"Aurich","type":"Landkreis"},"federalState":{"key":"03","name":"Niedersachsen"}},{"name":"Kiebitzweg","postalCode":"26624","locality":"Südbrookmerland","municipality":{"key":"03452023","name":"Südbrookmerland","type":"Kreisangehörige_Gemeinde"},"district":{"key":"03452","name":"Aurich","type":"Landkreis"},"federalState":{"key":"03","name":"Niedersachsen"}},{"name":"Kiefernweg","postalCode":"26624","locality":"Südbrookmerland","municipality":{"key":"03452023","name":"Südbrookmerland","type":"Kreisangehörige_Gemeinde"},"district":{"key":"03452","name":"Aurich","type":"Landkreis"},"federalState":{"key":"03","name":"Niedersachsen"}},{"name":"Kielweg","postalCode":"26624","locality":"Südbrookmerland","municipality":{"key":"03452023","name":"Südbrookmerland","type":"Kreisangehörige_Gemeinde"},"district":{"key":"03452","name":"Aurich","type":"Landkreis"},"federalState":{"key":"03","name":"Niedersachsen"}},{"name":"Kirchenweg","postalCode":"26624","locality":"Südbrookmerland","municipality":{"key":"03452023","name":"Südbrookmerland","type":"Kreisangehörige_Gemeinde"},"district":{"key":"03452","name":"Aurich","type":"Landkreis"},"federalState":{"key":"03","name":"Niedersachsen"}},{"name":"Kirchwyk","postalCode":"26624","locality":"Südbrookmerland","municipality":{"key":"03452023","name":"Südbrookmerland","type":"Kreisangehörige_Gemeinde"},"district":{"key":"03452","name":"Aurich","type":"Landkreis"},"federalState":{"key":"03","name":"Niedersachsen"}},{"name":"Kirschweg","postalCode":"26624","locality":"Südbrookmerland","municipality":{"key":"03452023","name":"Südbrookmerland","type":"Kreisangehörige_Gemeinde"},"district":{"key":"03452","name":"Aurich","type":"Landkreis"},"federalState":{"key":"03","name":"Niedersachsen"}},{"name":"Kleestr.","postalCode":"26624","locality":"Südbrookmerland","municipality":{"key":"03452023","name":"Südbrookmerland","type":"Kreisangehörige_Gemeinde"},"district":{"key":"03452","name":"Aurich","type":"Landkreis"},"federalState":{"key":"03","name":"Niedersachsen"}},{"name":"Klein Babel","postalCode":"26624","locality":"Südbrookmerland","municipality":{"key":"03452023","name":"Südbrookmerland","type":"Kreisangehörige_Gemeinde"},"district":{"key":"03452","name":"Aurich","type":"Landkreis"},"federalState":{"key":"03","name":"Niedersachsen"}},{"name":"Kleiner Moorweg","postalCode":"26624","locality":"Südbrookmerland","municipality":{"key":"03452023","name":"Südbrookmerland","type":"Kreisangehörige_Gemeinde"},"district":{"key":"03452","name":"Aurich","type":"Landkreis"},"federalState":{"key":"03","name":"Niedersachsen"}},{"name":"Klönweg","postalCode":"26624","locality":"Südbrookmerland","municipality":{"key":"03452023","name":"Südbrookmerland","type":"Kreisangehörige_Gemeinde"},"district":{"key":"03452","name":"Aurich","type":"Landkreis"},"federalState":{"key":"03","name":"Niedersachsen"}},{"name":"Knickweg","postalCode":"26624","locality":"Südbrookmerland","municipality":{"key":"03452023","name":"Südbrookmerland","type":"Kreisangehörige_Gemeinde"},"district":{"key":"03452","name":"Aurich","type":"Landkreis"},"federalState":{"key":"03","name":"Niedersachsen"}},{"name":"Kniepweg","postalCode":"26624","locality":"Südbrookmerland","municipality":{"key":"03452023","name":"Südbrookmerland","type":"Kreisangehörige_Gemeinde"},"district":{"key":"03452","name":"Aurich","type":"Landkreis"},"federalState":{"key":"03","name":"Niedersachsen"}},{"name":"Königsweg","postalCode":"26624","locality":"Südbrookmerland","municipality":{"key":"03452023","name":"Südbrookmerland","type":"Kreisangehörige_Gemeinde"},"district":{"key":"03452","name":"Aurich","type":"Landkreis"},"federalState":{"key":"03","name":"Niedersachsen"}},{"name":"Koppelweg","postalCode":"26624","locality":"Südbrookmerland","municipality":{"key":"03452023","name":"Südbrookmerland","type":"Kreisangehörige_Gemeinde"},"district":{"key":"03452","name":"Aurich","type":"Landkreis"},"federalState":{"key":"03","name":"Niedersachsen"}},{"name":"Kornblumenweg","postalCode":"26624","locality":"Südbrookmerland","municipality":{"key":"03452023","name":"Südbrookmerland","type":"Kreisangehörige_Gemeinde"},"district":{"key":"03452","name":"Aurich","type":"Landkreis"},"federalState":{"key":"03","name":"Niedersachsen"}},{"name":"Kornstr.","postalCode":"26624","locality":"Südbrookmerland","municipality":{"key":"03452023","name":"Südbrookmerland","type":"Kreisangehörige_Gemeinde"},"district":{"key":"03452","name":"Aurich","type":"Landkreis"},"federalState":{"key":"03","name":"Niedersachsen"}},{"name":"Körte Enden","postalCode":"26624","locality":"Südbrookmerland","municipality":{"key":"03452023","name":"Südbrookmerland","type":"Kreisangehörige_Gemeinde"},"district":{"key":"03452","name":"Aurich","type":"Landkreis"},"federalState":{"key":"03","name":"Niedersachsen"}},{"name":"Körte Twenter","postalCode":"26624","locality":"Südbrookmerland","municipality":{"key":"03452023","name":"Südbrookmerland","type":"Kreisangehörige_Gemeinde"},"district":{"key":"03452","name":"Aurich","type":"Landkreis"},"federalState":{"key":"03","name":"Niedersachsen"}},{"name":"Krokusweg","postalCode":"26624","locality":"Südbrookmerland","municipality":{"key":"03452023","name":"Südbrookmerland","type":"Kreisangehörige_Gemeinde"},"district":{"key":"03452","name":"Aurich","type":"Landkreis"},"federalState":{"key":"03","name":"Niedersachsen"}},{"name":"Krummer Weg","postalCode":"26624","locality":"Südbrookmerland","municipality":{"key":"03452023","name":"Südbrookmerland","type":"Kreisangehörige_Gemeinde"},"district":{"key":"03452","name":"Aurich","type":"Landkreis"},"federalState":{"key":"03","name":"Niedersachsen"}},{"name":"Kuhlerplatz","postalCode":"26624","locality":"Südbrookmerland","municipality":{"key":"03452023","name":"Südbrookmerland","type":"Kreisangehörige_Gemeinde"},"district":{"key":"03452","name":"Aurich","type":"Landkreis"},"federalState":{"key":"03","name":"Niedersachsen"}},{"name":"Kuhtrift","postalCode":"26624","locality":"Südbrookmerland","municipality":{"key":"03452023","name":"Südbrookmerland","type":"Kreisangehörige_Gemeinde"},"district":{"key":"03452","name":"Aurich","type":"Landkreis"},"federalState":{"key":"03","name":"Niedersachsen"}},{"name":"Kurzer Weg","postalCode":"26624","locality":"Südbrookmerland","municipality":{"key":"03452023","name":"Südbrookmerland","type":"Kreisangehörige_Gemeinde"},"district":{"key":"03452","name":"Aurich","type":"Landkreis"},"federalState":{"key":"03","name":"Niedersachsen"}},{"name":"Lammershörn","postalCode":"26624","locality":"Südbrookmerland","municipality":{"key":"03452023","name":"Südbrookmerland","type":"Kreisangehörige_Gemeinde"},"district":{"key":"03452","name":"Aurich","type":"Landkreis"},"federalState":{"key":"03","name":"Niedersachsen"}},{"name":"Langereck","postalCode":"26624","locality":"Südbrookmerland","municipality":{"key":"03452023","name":"Südbrookmerland","type":"Kreisangehörige_Gemeinde"},"district":{"key":"03452","name":"Aurich","type":"Landkreis"},"federalState":{"key":"03","name":"Niedersachsen"}},{"name":"Langlandsweg","postalCode":"26624","locality":"Südbrookmerland","municipality":{"key":"03452023","name":"Südbrookmerland","type":"Kreisangehörige_Gemeinde"},"district":{"key":"03452","name":"Aurich","type":"Landkreis"},"federalState":{"key":"03","name":"Niedersachsen"}},{"name":"Lärchenweg","postalCode":"26624","locality":"Südbrookmerland","municipality":{"key":"03452023","name":"Südbrookmerland","type":"Kreisangehörige_Gemeinde"},"district":{"key":"03452","name":"Aurich","type":"Landkreis"},"federalState":{"key":"03","name":"Niedersachsen"}},{"name":"Leegeweg","postalCode":"26624","locality":"Südbrookmerland","municipality":{"key":"03452023","name":"Südbrookmerland","type":"Kreisangehörige_Gemeinde"},"district":{"key":"03452","name":"Aurich","type":"Landkreis"},"federalState":{"key":"03","name":"Niedersachsen"}},{"name":"Leitdamm","postalCode":"26624","locality":"Südbrookmerland","municipality":{"key":"03452023","name":"Südbrookmerland","type":"Kreisangehörige_Gemeinde"},"district":{"key":"03452","name":"Aurich","type":"Landkreis"},"federalState":{"key":"03","name":"Niedersachsen"}},{"name":"Lengertweg","postalCode":"26624","locality":"Südbrookmerland","municipality":{"key":"03452023","name":"Südbrookmerland","type":"Kreisangehörige_Gemeinde"},"district":{"key":"03452","name":"Aurich","type":"Landkreis"},"federalState":{"key":"03","name":"Niedersachsen"}},{"name":"Lerchenweg","postalCode":"26624","locality":"Südbrookmerland","municipality":{"key":"03452023","name":"Südbrookmerland","type":"Kreisangehörige_Gemeinde"},"district":{"key":"03452","name":"Aurich","type":"Landkreis"},"federalState":{"key":"03","name":"Niedersachsen"}},{"name":"Lessingweg","postalCode":"26624","locality":"Südbrookmerland","municipality":{"key":"03452023","name":"Südbrookmerland","type":"Kreisangehörige_Gemeinde"},"district":{"key":"03452","name":"Aurich","type":"Landkreis"},"federalState":{"key":"03","name":"Niedersachsen"}},{"name":"Ligusterweg","postalCode":"26624","locality":"Südbrookmerland","municipality":{"key":"03452023","name":"Südbrookmerland","type":"Kreisangehörige_Gemeinde"},"district":{"key":"03452","name":"Aurich","type":"Landkreis"},"federalState":{"key":"03","name":"Niedersachsen"}},{"name":"Lilienweg","postalCode":"26624","locality":"Südbrookmerland","municipality":{"key":"03452023","name":"Südbrookmerland","type":"Kreisangehörige_Gemeinde"},"district":{"key":"03452","name":"Aurich","type":"Landkreis"},"federalState":{"key":"03","name":"Niedersachsen"}},{"name":"Lindenpfad","postalCode":"26624","locality":"Südbrookmerland","municipality":{"key":"03452023","name":"Südbrookmerland","type":"Kreisangehörige_Gemeinde"},"district":{"key":"03452","name":"Aurich","type":"Landkreis"},"federalState":{"key":"03","name":"Niedersachsen"}},{"name":"Linnlandsweg","postalCode":"26624","locality":"Südbrookmerland","municipality":{"key":"03452023","name":"Südbrookmerland","type":"Kreisangehörige_Gemeinde"},"district":{"key":"03452","name":"Aurich","type":"Landkreis"},"federalState":{"key":"03","name":"Niedersachsen"}},{"name":"Lohne","postalCode":"26624","locality":"Südbrookmerland","municipality":{"key":"03452023","name":"Südbrookmerland","type":"Kreisangehörige_Gemeinde"},"district":{"key":"03452","name":"Aurich","type":"Landkreis"},"federalState":{"key":"03","name":"Niedersachsen"}},{"name":"Luchsgattweg","postalCode":"26624","locality":"Südbrookmerland","municipality":{"key":"03452023","name":"Südbrookmerland","type":"Kreisangehörige_Gemeinde"},"district":{"key":"03452","name":"Aurich","type":"Landkreis"},"federalState":{"key":"03","name":"Niedersachsen"}},{"name":"Lütje Kamp","postalCode":"26624","locality":"Südbrookmerland","municipality":{"key":"03452023","name":"Südbrookmerland","type":"Kreisangehörige_Gemeinde"},"district":{"key":"03452","name":"Aurich","type":"Landkreis"},"federalState":{"key":"03","name":"Niedersachsen"}},{"name":"Lütje Pad","postalCode":"26624","locality":"Südbrookmerland","municipality":{"key":"03452023","name":"Südbrookmerland","type":"Kreisangehörige_Gemeinde"},"district":{"key":"03452","name":"Aurich","type":"Landkreis"},"federalState":{"key":"03","name":"Niedersachsen"}},{"name":"Lütje Schling","postalCode":"26624","locality":"Südbrookmerland","municipality":{"key":"03452023","name":"Südbrookmerland","type":"Kreisangehörige_Gemeinde"},"district":{"key":"03452","name":"Aurich","type":"Landkreis"},"federalState":{"key":"03","name":"Niedersachsen"}},{"name":"Lütje Streek","postalCode":"26624","locality":"Südbrookmerland","municipality":{"key":"03452023","name":"Südbrookmerland","type":"Kreisangehörige_Gemeinde"},"district":{"key":"03452","name":"Aurich","type":"Landkreis"},"federalState":{"key":"03","name":"Niedersachsen"}},{"name":"Manningaweg","postalCode":"26624","locality":"Südbrookmerland","municipality":{"key":"03452023","name":"Südbrookmerland","type":"Kreisangehörige_Gemeinde"},"district":{"key":"03452","name":"Aurich","type":"Landkreis"},"federalState":{"key":"03","name":"Niedersachsen"}},{"name":"Mansfelder Weg","postalCode":"26624","locality":"Südbrookmerland","municipality":{"key":"03452023","name":"Südbrookmerland","type":"Kreisangehörige_Gemeinde"},"district":{"key":"03452","name":"Aurich","type":"Landkreis"},"federalState":{"key":"03","name":"Niedersachsen"}},{"name":"Marderweg","postalCode":"26624","locality":"Südbrookmerland","municipality":{"key":"03452023","name":"Südbrookmerland","type":"Kreisangehörige_Gemeinde"},"district":{"key":"03452","name":"Aurich","type":"Landkreis"},"federalState":{"key":"03","name":"Niedersachsen"}},{"name":"Margeritenweg","postalCode":"26624","locality":"Südbrookmerland","municipality":{"key":"03452023","name":"Südbrookmerland","type":"Kreisangehörige_Gemeinde"},"district":{"key":"03452","name":"Aurich","type":"Landkreis"},"federalState":{"key":"03","name":"Niedersachsen"}},{"name":"Marktstr.","postalCode":"26624","locality":"Südbrookmerland","municipality":{"key":"03452023","name":"Südbrookmerland","type":"Kreisangehörige_Gemeinde"},"district":{"key":"03452","name":"Aurich","type":"Landkreis"},"federalState":{"key":"03","name":"Niedersachsen"}},{"name":"Marscher Weg","postalCode":"26624","locality":"Südbrookmerland","municipality":{"key":"03452023","name":"Südbrookmerland","type":"Kreisangehörige_Gemeinde"},"district":{"key":"03452","name":"Aurich","type":"Landkreis"},"federalState":{"key":"03","name":"Niedersachsen"}},{"name":"Meedemoorweg","postalCode":"26624","locality":"Südbrookmerland","municipality":{"key":"03452023","name":"Südbrookmerland","type":"Kreisangehörige_Gemeinde"},"district":{"key":"03452","name":"Aurich","type":"Landkreis"},"federalState":{"key":"03","name":"Niedersachsen"}},{"name":"Meerweg","postalCode":"26624","locality":"Südbrookmerland","municipality":{"key":"03452023","name":"Südbrookmerland","type":"Kreisangehörige_Gemeinde"},"district":{"key":"03452","name":"Aurich","type":"Landkreis"},"federalState":{"key":"03","name":"Niedersachsen"}},{"name":"Meisenwinkel","postalCode":"26624","locality":"Südbrookmerland","municipality":{"key":"03452023","name":"Südbrookmerland","type":"Kreisangehörige_Gemeinde"},"district":{"key":"03452","name":"Aurich","type":"Landkreis"},"federalState":{"key":"03","name":"Niedersachsen"}},{"name":"Mertensweg","postalCode":"26624","locality":"Südbrookmerland","municipality":{"key":"03452023","name":"Südbrookmerland","type":"Kreisangehörige_Gemeinde"},"district":{"key":"03452","name":"Aurich","type":"Landkreis"},"federalState":{"key":"03","name":"Niedersachsen"}},{"name":"Meyerweg","postalCode":"26624","locality":"Südbrookmerland","municipality":{"key":"03452023","name":"Südbrookmerland","type":"Kreisangehörige_Gemeinde"},"district":{"key":"03452","name":"Aurich","type":"Landkreis"},"federalState":{"key":"03","name":"Niedersachsen"}},{"name":"Mirabellenweg","postalCode":"26624","locality":"Südbrookmerland","municipality":{"key":"03452023","name":"Südbrookmerland","type":"Kreisangehörige_Gemeinde"},"district":{"key":"03452","name":"Aurich","type":"Landkreis"},"federalState":{"key":"03","name":"Niedersachsen"}},{"name":"Mittelweg","postalCode":"26624","locality":"Südbrookmerland","municipality":{"key":"03452023","name":"Südbrookmerland","type":"Kreisangehörige_Gemeinde"},"district":{"key":"03452","name":"Aurich","type":"Landkreis"},"federalState":{"key":"03","name":"Niedersachsen"}},{"name":"Mittlerer Querweg","postalCode":"26624","locality":"Südbrookmerland","municipality":{"key":"03452023","name":"Südbrookmerland","type":"Kreisangehörige_Gemeinde"},"district":{"key":"03452","name":"Aurich","type":"Landkreis"},"federalState":{"key":"03","name":"Niedersachsen"}},{"name":"Moorburger Str.","postalCode":"26624","locality":"Südbrookmerland","municipality":{"key":"03452023","name":"Südbrookmerland","type":"Kreisangehörige_Gemeinde"},"district":{"key":"03452","name":"Aurich","type":"Landkreis"},"federalState":{"key":"03","name":"Niedersachsen"}},{"name":"Moordorfer Gaste","postalCode":"26624","locality":"Südbrookmerland","municipality":{"key":"03452023","name":"Südbrookmerland","type":"Kreisangehörige_Gemeinde"},"district":{"key":"03452","name":"Aurich","type":"Landkreis"},"federalState":{"key":"03","name":"Niedersachsen"}},{"name":"Moordorfer Str.","postalCode":"26624","locality":"Südbrookmerland","municipality":{"key":"03452023","name":"Südbrookmerland","type":"Kreisangehörige_Gemeinde"},"district":{"key":"03452","name":"Aurich","type":"Landkreis"},"federalState":{"key":"03","name":"Niedersachsen"}},{"name":"Moorfennenweg","postalCode":"26624","locality":"Südbrookmerland","municipality":{"key":"03452023","name":"Südbrookmerland","type":"Kreisangehörige_Gemeinde"},"district":{"key":"03452","name":"Aurich","type":"Landkreis"},"federalState":{"key":"03","name":"Niedersachsen"}},{"name":"Moorhuser Dorfstr.","postalCode":"26624","locality":"Südbrookmerland","municipality":{"key":"03452023","name":"Südbrookmerland","type":"Kreisangehörige_Gemeinde"},"district":{"key":"03452","name":"Aurich","type":"Landkreis"},"federalState":{"key":"03","name":"Niedersachsen"}},{"name":"Moormuseum Moordorf","postalCode":"26624","locality":"Südbrookmerland","municipality":{"key":"03452023","name":"Südbrookmerland","type":"Kreisangehörige_Gemeinde"},"district":{"key":"03452","name":"Aurich","type":"Landkreis"},"federalState":{"key":"03","name":"Niedersachsen"}},{"name":"Moorsiedlung","postalCode":"26624","locality":"Südbrookmerland","municipality":{"key":"03452023","name":"Südbrookmerland","type":"Kreisangehörige_Gemeinde"},"district":{"key":"03452","name":"Aurich","type":"Landkreis"},"federalState":{"key":"03","name":"Niedersachsen"}},{"name":"Moorweg","postalCode":"26624","locality":"Südbrookmerland","municipality":{"key":"03452023","name":"Südbrookmerland","type":"Kreisangehörige_Gemeinde"},"district":{"key":"03452","name":"Aurich","type":"Landkreis"},"federalState":{"key":"03","name":"Niedersachsen"}},{"name":"Möwensteert","postalCode":"26624","locality":"Südbrookmerland","municipality":{"key":"03452023","name":"Südbrookmerland","type":"Kreisangehörige_Gemeinde"},"district":{"key":"03452","name":"Aurich","type":"Landkreis"},"federalState":{"key":"03","name":"Niedersachsen"}},{"name":"Mozartstr.","postalCode":"26624","locality":"Südbrookmerland","municipality":{"key":"03452023","name":"Südbrookmerland","type":"Kreisangehörige_Gemeinde"},"district":{"key":"03452","name":"Aurich","type":"Landkreis"},"federalState":{"key":"03","name":"Niedersachsen"}},{"name":"Mühlenstr.","postalCode":"26624","locality":"Südbrookmerland","municipality":{"key":"03452023","name":"Südbrookmerland","type":"Kreisangehörige_Gemeinde"},"district":{"key":"03452","name":"Aurich","type":"Landkreis"},"federalState":{"key":"03","name":"Niedersachsen"}},{"name":"Mühlenweg","postalCode":"26624","locality":"Südbrookmerland","municipality":{"key":"03452023","name":"Südbrookmerland","type":"Kreisangehörige_Gemeinde"},"district":{"key":"03452","name":"Aurich","type":"Landkreis"},"federalState":{"key":"03","name":"Niedersachsen"}},{"name":"Nelkenweg","postalCode":"26624","locality":"Südbrookmerland","municipality":{"key":"03452023","name":"Südbrookmerland","type":"Kreisangehörige_Gemeinde"},"district":{"key":"03452","name":"Aurich","type":"Landkreis"},"federalState":{"key":"03","name":"Niedersachsen"}},{"name":"Nesselweg","postalCode":"26624","locality":"Südbrookmerland","municipality":{"key":"03452023","name":"Südbrookmerland","type":"Kreisangehörige_Gemeinde"},"district":{"key":"03452","name":"Aurich","type":"Landkreis"},"federalState":{"key":"03","name":"Niedersachsen"}},{"name":"Neue Siedlung","postalCode":"26624","locality":"Südbrookmerland","municipality":{"key":"03452023","name":"Südbrookmerland","type":"Kreisangehörige_Gemeinde"},"district":{"key":"03452","name":"Aurich","type":"Landkreis"},"federalState":{"key":"03","name":"Niedersachsen"}},{"name":"Neue Str.","postalCode":"26624","locality":"Südbrookmerland","municipality":{"key":"03452023","name":"Südbrookmerland","type":"Kreisangehörige_Gemeinde"},"district":{"key":"03452","name":"Aurich","type":"Landkreis"},"federalState":{"key":"03","name":"Niedersachsen"}},{"name":"Neulander Str.","postalCode":"26624","locality":"Südbrookmerland","municipality":{"key":"03452023","name":"Südbrookmerland","type":"Kreisangehörige_Gemeinde"},"district":{"key":"03452","name":"Aurich","type":"Landkreis"},"federalState":{"key":"03","name":"Niedersachsen"}},{"name":"Nordende","postalCode":"26624","locality":"Südbrookmerland","municipality":{"key":"03452023","name":"Südbrookmerland","type":"Kreisangehörige_Gemeinde"},"district":{"key":"03452","name":"Aurich","type":"Landkreis"},"federalState":{"key":"03","name":"Niedersachsen"}},{"name":"Norderkiefmoor","postalCode":"26624","locality":"Südbrookmerland","municipality":{"key":"03452023","name":"Südbrookmerland","type":"Kreisangehörige_Gemeinde"},"district":{"key":"03452","name":"Aurich","type":"Landkreis"},"federalState":{"key":"03","name":"Niedersachsen"}},{"name":"Norder Str.","postalCode":"26624","locality":"Südbrookmerland","municipality":{"key":"03452023","name":"Südbrookmerland","type":"Kreisangehörige_Gemeinde"},"district":{"key":"03452","name":"Aurich","type":"Landkreis"},"federalState":{"key":"03","name":"Niedersachsen"}},{"name":"Nordmeerer Weg","postalCode":"26624","locality":"Südbrookmerland","municipality":{"key":"03452023","name":"Südbrookmerland","type":"Kreisangehörige_Gemeinde"},"district":{"key":"03452","name":"Aurich","type":"Landkreis"},"federalState":{"key":"03","name":"Niedersachsen"}},{"name":"Nordmoorweg","postalCode":"26624","locality":"Südbrookmerland","municipality":{"key":"03452023","name":"Südbrookmerland","type":"Kreisangehörige_Gemeinde"},"district":{"key":"03452","name":"Aurich","type":"Landkreis"},"federalState":{"key":"03","name":"Niedersachsen"}},{"name":"Nordweg","postalCode":"26624","locality":"Südbrookmerland","municipality":{"key":"03452023","name":"Südbrookmerland","type":"Kreisangehörige_Gemeinde"},"district":{"key":"03452","name":"Aurich","type":"Landkreis"},"federalState":{"key":"03","name":"Niedersachsen"}},{"name":"Okko-tom-Brook-Ring","postalCode":"26624","locality":"Südbrookmerland","municipality":{"key":"03452023","name":"Südbrookmerland","type":"Kreisangehörige_Gemeinde"},"district":{"key":"03452","name":"Aurich","type":"Landkreis"},"federalState":{"key":"03","name":"Niedersachsen"}},{"name":"Oldeborger Moorweg","postalCode":"26624","locality":"Südbrookmerland","municipality":{"key":"03452023","name":"Südbrookmerland","type":"Kreisangehörige_Gemeinde"},"district":{"key":"03452","name":"Aurich","type":"Landkreis"},"federalState":{"key":"03","name":"Niedersachsen"}},{"name":"Oldeborger Str.","postalCode":"26624","locality":"Südbrookmerland","municipality":{"key":"03452023","name":"Südbrookmerland","type":"Kreisangehörige_Gemeinde"},"district":{"key":"03452","name":"Aurich","type":"Landkreis"},"federalState":{"key":"03","name":"Niedersachsen"}},{"name":"Ontekampsweg","postalCode":"26624","locality":"Südbrookmerland","municipality":{"key":"03452023","name":"Südbrookmerland","type":"Kreisangehörige_Gemeinde"},"district":{"key":"03452","name":"Aurich","type":"Landkreis"},"federalState":{"key":"03","name":"Niedersachsen"}},{"name":"Ostvictorburer Str.","postalCode":"26624","locality":"Südbrookmerland","municipality":{"key":"03452023","name":"Südbrookmerland","type":"Kreisangehörige_Gemeinde"},"district":{"key":"03452","name":"Aurich","type":"Landkreis"},"federalState":{"key":"03","name":"Niedersachsen"}},{"name":"Pappelweg","postalCode":"26624","locality":"Südbrookmerland","municipality":{"key":"03452023","name":"Südbrookmerland","type":"Kreisangehörige_Gemeinde"},"district":{"key":"03452","name":"Aurich","type":"Landkreis"},"federalState":{"key":"03","name":"Niedersachsen"}},{"name":"Parkallee","postalCode":"26624","locality":"Südbrookmerland","municipality":{"key":"03452023","name":"Südbrookmerland","type":"Kreisangehörige_Gemeinde"},"district":{"key":"03452","name":"Aurich","type":"Landkreis"},"federalState":{"key":"03","name":"Niedersachsen"}},{"name":"Pestalozziallee","postalCode":"26624","locality":"Südbrookmerland","municipality":{"key":"03452023","name":"Südbrookmerland","type":"Kreisangehörige_Gemeinde"},"district":{"key":"03452","name":"Aurich","type":"Landkreis"},"federalState":{"key":"03","name":"Niedersachsen"}},{"name":"Petersweg","postalCode":"26624","locality":"Südbrookmerland","municipality":{"key":"03452023","name":"Südbrookmerland","type":"Kreisangehörige_Gemeinde"},"district":{"key":"03452","name":"Aurich","type":"Landkreis"},"federalState":{"key":"03","name":"Niedersachsen"}},{"name":"Pirolstr.","postalCode":"26624","locality":"Südbrookmerland","municipality":{"key":"03452023","name":"Südbrookmerland","type":"Kreisangehörige_Gemeinde"},"district":{"key":"03452","name":"Aurich","type":"Landkreis"},"federalState":{"key":"03","name":"Niedersachsen"}},{"name":"Poggenpoller","postalCode":"26624","locality":"Südbrookmerland","municipality":{"key":"03452023","name":"Südbrookmerland","type":"Kreisangehörige_Gemeinde"},"district":{"key":"03452","name":"Aurich","type":"Landkreis"},"federalState":{"key":"03","name":"Niedersachsen"}},{"name":"Postweg","postalCode":"26624","locality":"Südbrookmerland","municipality":{"key":"03452023","name":"Südbrookmerland","type":"Kreisangehörige_Gemeinde"},"district":{"key":"03452","name":"Aurich","type":"Landkreis"},"federalState":{"key":"03","name":"Niedersachsen"}},{"name":"Protthöchte","postalCode":"26624","locality":"Südbrookmerland","municipality":{"key":"03452023","name":"Südbrookmerland","type":"Kreisangehörige_Gemeinde"},"district":{"key":"03452","name":"Aurich","type":"Landkreis"},"federalState":{"key":"03","name":"Niedersachsen"}},{"name":"Puntereistr.","postalCode":"26624","locality":"Südbrookmerland","municipality":{"key":"03452023","name":"Südbrookmerland","type":"Kreisangehörige_Gemeinde"},"district":{"key":"03452","name":"Aurich","type":"Landkreis"},"federalState":{"key":"03","name":"Niedersachsen"}},{"name":"Quade-Foelke-Weg","postalCode":"26624","locality":"Südbrookmerland","municipality":{"key":"03452023","name":"Südbrookmerland","type":"Kreisangehörige_Gemeinde"},"district":{"key":"03452","name":"Aurich","type":"Landkreis"},"federalState":{"key":"03","name":"Niedersachsen"}},{"name":"Quadfenner Weg","postalCode":"26624","locality":"Südbrookmerland","municipality":{"key":"03452023","name":"Südbrookmerland","type":"Kreisangehörige_Gemeinde"},"district":{"key":"03452","name":"Aurich","type":"Landkreis"},"federalState":{"key":"03","name":"Niedersachsen"}},{"name":"Querweg","postalCode":"26624","locality":"Südbrookmerland","municipality":{"key":"03452023","name":"Südbrookmerland","type":"Kreisangehörige_Gemeinde"},"district":{"key":"03452","name":"Aurich","type":"Landkreis"},"federalState":{"key":"03","name":"Niedersachsen"}},{"name":"Rebhuhnweg","postalCode":"26624","locality":"Südbrookmerland","municipality":{"key":"03452023","name":"Südbrookmerland","type":"Kreisangehörige_Gemeinde"},"district":{"key":"03452","name":"Aurich","type":"Landkreis"},"federalState":{"key":"03","name":"Niedersachsen"}},{"name":"Reiherweg","postalCode":"26624","locality":"Südbrookmerland","municipality":{"key":"03452023","name":"Südbrookmerland","type":"Kreisangehörige_Gemeinde"},"district":{"key":"03452","name":"Aurich","type":"Landkreis"},"federalState":{"key":"03","name":"Niedersachsen"}},{"name":"Richelweg","postalCode":"26624","locality":"Südbrookmerland","municipality":{"key":"03452023","name":"Südbrookmerland","type":"Kreisangehörige_Gemeinde"},"district":{"key":"03452","name":"Aurich","type":"Landkreis"},"federalState":{"key":"03","name":"Niedersachsen"}},{"name":"Ringstr.","postalCode":"26624","locality":"Südbrookmerland","municipality":{"key":"03452023","name":"Südbrookmerland","type":"Kreisangehörige_Gemeinde"},"district":{"key":"03452","name":"Aurich","type":"Landkreis"},"federalState":{"key":"03","name":"Niedersachsen"}},{"name":"Ritzpfad","postalCode":"26624","locality":"Südbrookmerland","municipality":{"key":"03452023","name":"Südbrookmerland","type":"Kreisangehörige_Gemeinde"},"district":{"key":"03452","name":"Aurich","type":"Landkreis"},"federalState":{"key":"03","name":"Niedersachsen"}},{"name":"Ritzweg","postalCode":"26624","locality":"Südbrookmerland","municipality":{"key":"03452023","name":"Südbrookmerland","type":"Kreisangehörige_Gemeinde"},"district":{"key":"03452","name":"Aurich","type":"Landkreis"},"federalState":{"key":"03","name":"Niedersachsen"}},{"name":"Roggenkamp","postalCode":"26624","locality":"Südbrookmerland","municipality":{"key":"03452023","name":"Südbrookmerland","type":"Kreisangehörige_Gemeinde"},"district":{"key":"03452","name":"Aurich","type":"Landkreis"},"federalState":{"key":"03","name":"Niedersachsen"}},{"name":"Rohrdommelweg","postalCode":"26624","locality":"Südbrookmerland","municipality":{"key":"03452023","name":"Südbrookmerland","type":"Kreisangehörige_Gemeinde"},"district":{"key":"03452","name":"Aurich","type":"Landkreis"},"federalState":{"key":"03","name":"Niedersachsen"}},{"name":"Rohrkolbenstr.","postalCode":"26624","locality":"Südbrookmerland","municipality":{"key":"03452023","name":"Südbrookmerland","type":"Kreisangehörige_Gemeinde"},"district":{"key":"03452","name":"Aurich","type":"Landkreis"},"federalState":{"key":"03","name":"Niedersachsen"}},{"name":"Röpkesweg","postalCode":"26624","locality":"Südbrookmerland","municipality":{"key":"03452023","name":"Südbrookmerland","type":"Kreisangehörige_Gemeinde"},"district":{"key":"03452","name":"Aurich","type":"Landkreis"},"federalState":{"key":"03","name":"Niedersachsen"}},{"name":"Rosenstr.","postalCode":"26624","locality":"Südbrookmerland","municipality":{"key":"03452023","name":"Südbrookmerland","type":"Kreisangehörige_Gemeinde"},"district":{"key":"03452","name":"Aurich","type":"Landkreis"},"federalState":{"key":"03","name":"Niedersachsen"}},{"name":"Rosskamp","postalCode":"26624","locality":"Südbrookmerland","municipality":{"key":"03452023","name":"Südbrookmerland","type":"Kreisangehörige_Gemeinde"},"district":{"key":"03452","name":"Aurich","type":"Landkreis"},"federalState":{"key":"03","name":"Niedersachsen"}},{"name":"Rotdornweg","postalCode":"26624","locality":"Südbrookmerland","municipality":{"key":"03452023","name":"Südbrookmerland","type":"Kreisangehörige_Gemeinde"},"district":{"key":"03452","name":"Aurich","type":"Landkreis"},"federalState":{"key":"03","name":"Niedersachsen"}},{"name":"Rotkehlchenweg","postalCode":"26624","locality":"Südbrookmerland","municipality":{"key":"03452023","name":"Südbrookmerland","type":"Kreisangehörige_Gemeinde"},"district":{"key":"03452","name":"Aurich","type":"Landkreis"},"federalState":{"key":"03","name":"Niedersachsen"}},{"name":"Rundweg","postalCode":"26624","locality":"Südbrookmerland","municipality":{"key":"03452023","name":"Südbrookmerland","type":"Kreisangehörige_Gemeinde"},"district":{"key":"03452","name":"Aurich","type":"Landkreis"},"federalState":{"key":"03","name":"Niedersachsen"}},{"name":"Rüskesiedlung","postalCode":"26624","locality":"Südbrookmerland","municipality":{"key":"03452023","name":"Südbrookmerland","type":"Kreisangehörige_Gemeinde"},"district":{"key":"03452","name":"Aurich","type":"Landkreis"},"federalState":{"key":"03","name":"Niedersachsen"}},{"name":"Rüskeweg","postalCode":"26624","locality":"Südbrookmerland","municipality":{"key":"03452023","name":"Südbrookmerland","type":"Kreisangehörige_Gemeinde"},"district":{"key":"03452","name":"Aurich","type":"Landkreis"},"federalState":{"key":"03","name":"Niedersachsen"}},{"name":"Sandhöchte","postalCode":"26624","locality":"Südbrookmerland","municipality":{"key":"03452023","name":"Südbrookmerland","type":"Kreisangehörige_Gemeinde"},"district":{"key":"03452","name":"Aurich","type":"Landkreis"},"federalState":{"key":"03","name":"Niedersachsen"}},{"name":"Sandkamp","postalCode":"26624","locality":"Südbrookmerland","municipality":{"key":"03452023","name":"Südbrookmerland","type":"Kreisangehörige_Gemeinde"},"district":{"key":"03452","name":"Aurich","type":"Landkreis"},"federalState":{"key":"03","name":"Niedersachsen"}},{"name":"Sandpad","postalCode":"26624","locality":"Südbrookmerland","municipality":{"key":"03452023","name":"Südbrookmerland","type":"Kreisangehörige_Gemeinde"},"district":{"key":"03452","name":"Aurich","type":"Landkreis"},"federalState":{"key":"03","name":"Niedersachsen"}},{"name":"Sandwaterweg","postalCode":"26624","locality":"Südbrookmerland","municipality":{"key":"03452023","name":"Südbrookmerland","type":"Kreisangehörige_Gemeinde"},"district":{"key":"03452","name":"Aurich","type":"Landkreis"},"federalState":{"key":"03","name":"Niedersachsen"}},{"name":"Sandweg","postalCode":"26624","locality":"Südbrookmerland","municipality":{"key":"03452023","name":"Südbrookmerland","type":"Kreisangehörige_Gemeinde"},"district":{"key":"03452","name":"Aurich","type":"Landkreis"},"federalState":{"key":"03","name":"Niedersachsen"}},{"name":"Schafhöchter Weg","postalCode":"26624","locality":"Südbrookmerland","municipality":{"key":"03452023","name":"Südbrookmerland","type":"Kreisangehörige_Gemeinde"},"district":{"key":"03452","name":"Aurich","type":"Landkreis"},"federalState":{"key":"03","name":"Niedersachsen"}},{"name":"Schaftrift","postalCode":"26624","locality":"Südbrookmerland","municipality":{"key":"03452023","name":"Südbrookmerland","type":"Kreisangehörige_Gemeinde"},"district":{"key":"03452","name":"Aurich","type":"Landkreis"},"federalState":{"key":"03","name":"Niedersachsen"}},{"name":"Schilfstr.","postalCode":"26624","locality":"Südbrookmerland","municipality":{"key":"03452023","name":"Südbrookmerland","type":"Kreisangehörige_Gemeinde"},"district":{"key":"03452","name":"Aurich","type":"Landkreis"},"federalState":{"key":"03","name":"Niedersachsen"}},{"name":"Schillerweg","postalCode":"26624","locality":"Südbrookmerland","municipality":{"key":"03452023","name":"Südbrookmerland","type":"Kreisangehörige_Gemeinde"},"district":{"key":"03452","name":"Aurich","type":"Landkreis"},"federalState":{"key":"03","name":"Niedersachsen"}},{"name":"Schlehdornweg","postalCode":"26624","locality":"Südbrookmerland","municipality":{"key":"03452023","name":"Südbrookmerland","type":"Kreisangehörige_Gemeinde"},"district":{"key":"03452","name":"Aurich","type":"Landkreis"},"federalState":{"key":"03","name":"Niedersachsen"}},{"name":"Schleusenweg","postalCode":"26624","locality":"Südbrookmerland","municipality":{"key":"03452023","name":"Südbrookmerland","type":"Kreisangehörige_Gemeinde"},"district":{"key":"03452","name":"Aurich","type":"Landkreis"},"federalState":{"key":"03","name":"Niedersachsen"}},{"name":"Schmetterlingsweg","postalCode":"26624","locality":"Südbrookmerland","municipality":{"key":"03452023","name":"Südbrookmerland","type":"Kreisangehörige_Gemeinde"},"district":{"key":"03452","name":"Aurich","type":"Landkreis"},"federalState":{"key":"03","name":"Niedersachsen"}},{"name":"Schöpfwerkstr.","postalCode":"26624","locality":"Südbrookmerland","municipality":{"key":"03452023","name":"Südbrookmerland","type":"Kreisangehörige_Gemeinde"},"district":{"key":"03452","name":"Aurich","type":"Landkreis"},"federalState":{"key":"03","name":"Niedersachsen"}},{"name":"Schubertstr.","postalCode":"26624","locality":"Südbrookmerland","municipality":{"key":"03452023","name":"Südbrookmerland","type":"Kreisangehörige_Gemeinde"},"district":{"key":"03452","name":"Aurich","type":"Landkreis"},"federalState":{"key":"03","name":"Niedersachsen"}},{"name":"Schuldamm","postalCode":"26624","locality":"Südbrookmerland","municipality":{"key":"03452023","name":"Südbrookmerland","type":"Kreisangehörige_Gemeinde"},"district":{"key":"03452","name":"Aurich","type":"Landkreis"},"federalState":{"key":"03","name":"Niedersachsen"}},{"name":"Schulhof","postalCode":"26624","locality":"Südbrookmerland","municipality":{"key":"03452023","name":"Südbrookmerland","type":"Kreisangehörige_Gemeinde"},"district":{"key":"03452","name":"Aurich","type":"Landkreis"},"federalState":{"key":"03","name":"Niedersachsen"}},{"name":"Schulsiedlung","postalCode":"26624","locality":"Südbrookmerland","municipality":{"key":"03452023","name":"Südbrookmerland","type":"Kreisangehörige_Gemeinde"},"district":{"key":"03452","name":"Aurich","type":"Landkreis"},"federalState":{"key":"03","name":"Niedersachsen"}},{"name":"Schulstr.","postalCode":"26624","locality":"Südbrookmerland","municipality":{"key":"03452023","name":"Südbrookmerland","type":"Kreisangehörige_Gemeinde"},"district":{"key":"03452","name":"Aurich","type":"Landkreis"},"federalState":{"key":"03","name":"Niedersachsen"}},{"name":"Schultrift","postalCode":"26624","locality":"Südbrookmerland","municipality":{"key":"03452023","name":"Südbrookmerland","type":"Kreisangehörige_Gemeinde"},"district":{"key":"03452","name":"Aurich","type":"Landkreis"},"federalState":{"key":"03","name":"Niedersachsen"}},{"name":"Schulwall","postalCode":"26624","locality":"Südbrookmerland","municipality":{"key":"03452023","name":"Südbrookmerland","type":"Kreisangehörige_Gemeinde"},"district":{"key":"03452","name":"Aurich","type":"Landkreis"},"federalState":{"key":"03","name":"Niedersachsen"}},{"name":"Schumannstr.","postalCode":"26624","locality":"Südbrookmerland","municipality":{"key":"03452023","name":"Südbrookmerland","type":"Kreisangehörige_Gemeinde"},"district":{"key":"03452","name":"Aurich","type":"Landkreis"},"federalState":{"key":"03","name":"Niedersachsen"}},{"name":"Schützenweg","postalCode":"26624","locality":"Südbrookmerland","municipality":{"key":"03452023","name":"Südbrookmerland","type":"Kreisangehörige_Gemeinde"},"district":{"key":"03452","name":"Aurich","type":"Landkreis"},"federalState":{"key":"03","name":"Niedersachsen"}},{"name":"Schwalbenweg","postalCode":"26624","locality":"Südbrookmerland","municipality":{"key":"03452023","name":"Südbrookmerland","type":"Kreisangehörige_Gemeinde"},"district":{"key":"03452","name":"Aurich","type":"Landkreis"},"federalState":{"key":"03","name":"Niedersachsen"}},{"name":"Schwanenweg","postalCode":"26624","locality":"Südbrookmerland","municipality":{"key":"03452023","name":"Südbrookmerland","type":"Kreisangehörige_Gemeinde"},"district":{"key":"03452","name":"Aurich","type":"Landkreis"},"federalState":{"key":"03","name":"Niedersachsen"}},{"name":"Schwarthörn","postalCode":"26624","locality":"Südbrookmerland","municipality":{"key":"03452023","name":"Südbrookmerland","type":"Kreisangehörige_Gemeinde"},"district":{"key":"03452","name":"Aurich","type":"Landkreis"},"federalState":{"key":"03","name":"Niedersachsen"}},{"name":"Schwarzer Weg","postalCode":"26624","locality":"Südbrookmerland","municipality":{"key":"03452023","name":"Südbrookmerland","type":"Kreisangehörige_Gemeinde"},"district":{"key":"03452","name":"Aurich","type":"Landkreis"},"federalState":{"key":"03","name":"Niedersachsen"}},{"name":"Seegrasweg","postalCode":"26624","locality":"Südbrookmerland","municipality":{"key":"03452023","name":"Südbrookmerland","type":"Kreisangehörige_Gemeinde"},"district":{"key":"03452","name":"Aurich","type":"Landkreis"},"federalState":{"key":"03","name":"Niedersachsen"}},{"name":"Seehuser Weg","postalCode":"26624","locality":"Südbrookmerland","municipality":{"key":"03452023","name":"Südbrookmerland","type":"Kreisangehörige_Gemeinde"},"district":{"key":"03452","name":"Aurich","type":"Landkreis"},"federalState":{"key":"03","name":"Niedersachsen"}},{"name":"Seerosenweg","postalCode":"26624","locality":"Südbrookmerland","municipality":{"key":"03452023","name":"Südbrookmerland","type":"Kreisangehörige_Gemeinde"},"district":{"key":"03452","name":"Aurich","type":"Landkreis"},"federalState":{"key":"03","name":"Niedersachsen"}},{"name":"Sichterstr.","postalCode":"26624","locality":"Südbrookmerland","municipality":{"key":"03452023","name":"Südbrookmerland","type":"Kreisangehörige_Gemeinde"},"district":{"key":"03452","name":"Aurich","type":"Landkreis"},"federalState":{"key":"03","name":"Niedersachsen"}},{"name":"Siebelshörner Str.","postalCode":"26624","locality":"Südbrookmerland","municipality":{"key":"03452023","name":"Südbrookmerland","type":"Kreisangehörige_Gemeinde"},"district":{"key":"03452","name":"Aurich","type":"Landkreis"},"federalState":{"key":"03","name":"Niedersachsen"}},{"name":"Sieler Weg","postalCode":"26624","locality":"Südbrookmerland","municipality":{"key":"03452023","name":"Südbrookmerland","type":"Kreisangehörige_Gemeinde"},"district":{"key":"03452","name":"Aurich","type":"Landkreis"},"federalState":{"key":"03","name":"Niedersachsen"}},{"name":"Sonnenblumenweg","postalCode":"26624","locality":"Südbrookmerland","municipality":{"key":"03452023","name":"Südbrookmerland","type":"Kreisangehörige_Gemeinde"},"district":{"key":"03452","name":"Aurich","type":"Landkreis"},"federalState":{"key":"03","name":"Niedersachsen"}},{"name":"Sonneneck","postalCode":"26624","locality":"Südbrookmerland","municipality":{"key":"03452023","name":"Südbrookmerland","type":"Kreisangehörige_Gemeinde"},"district":{"key":"03452","name":"Aurich","type":"Landkreis"},"federalState":{"key":"03","name":"Niedersachsen"}},{"name":"Sonnenweg","postalCode":"26624","locality":"Südbrookmerland","municipality":{"key":"03452023","name":"Südbrookmerland","type":"Kreisangehörige_Gemeinde"},"district":{"key":"03452","name":"Aurich","type":"Landkreis"},"federalState":{"key":"03","name":"Niedersachsen"}},{"name":"Sperlingsweg","postalCode":"26624","locality":"Südbrookmerland","municipality":{"key":"03452023","name":"Südbrookmerland","type":"Kreisangehörige_Gemeinde"},"district":{"key":"03452","name":"Aurich","type":"Landkreis"},"federalState":{"key":"03","name":"Niedersachsen"}},{"name":"Stachelbeerweg","postalCode":"26624","locality":"Südbrookmerland","municipality":{"key":"03452023","name":"Südbrookmerland","type":"Kreisangehörige_Gemeinde"},"district":{"key":"03452","name":"Aurich","type":"Landkreis"},"federalState":{"key":"03","name":"Niedersachsen"}},{"name":"Starenweg","postalCode":"26624","locality":"Südbrookmerland","municipality":{"key":"03452023","name":"Südbrookmerland","type":"Kreisangehörige_Gemeinde"},"district":{"key":"03452","name":"Aurich","type":"Landkreis"},"federalState":{"key":"03","name":"Niedersachsen"}},{"name":"Steinstr.","postalCode":"26624","locality":"Südbrookmerland","municipality":{"key":"03452023","name":"Südbrookmerland","type":"Kreisangehörige_Gemeinde"},"district":{"key":"03452","name":"Aurich","type":"Landkreis"},"federalState":{"key":"03","name":"Niedersachsen"}},{"name":"Storchenweg","postalCode":"26624","locality":"Südbrookmerland","municipality":{"key":"03452023","name":"Südbrookmerland","type":"Kreisangehörige_Gemeinde"},"district":{"key":"03452","name":"Aurich","type":"Landkreis"},"federalState":{"key":"03","name":"Niedersachsen"}},{"name":"Störtebekerweg","postalCode":"26624","locality":"Südbrookmerland","municipality":{"key":"03452023","name":"Südbrookmerland","type":"Kreisangehörige_Gemeinde"},"district":{"key":"03452","name":"Aurich","type":"Landkreis"},"federalState":{"key":"03","name":"Niedersachsen"}},{"name":"Strauchweg","postalCode":"26624","locality":"Südbrookmerland","municipality":{"key":"03452023","name":"Südbrookmerland","type":"Kreisangehörige_Gemeinde"},"district":{"key":"03452","name":"Aurich","type":"Landkreis"},"federalState":{"key":"03","name":"Niedersachsen"}},{"name":"Straußweg","postalCode":"26624","locality":"Südbrookmerland","municipality":{"key":"03452023","name":"Südbrookmerland","type":"Kreisangehörige_Gemeinde"},"district":{"key":"03452","name":"Aurich","type":"Landkreis"},"federalState":{"key":"03","name":"Niedersachsen"}},{"name":"Süder Hook","postalCode":"26624","locality":"Südbrookmerland","municipality":{"key":"03452023","name":"Südbrookmerland","type":"Kreisangehörige_Gemeinde"},"district":{"key":"03452","name":"Aurich","type":"Landkreis"},"federalState":{"key":"03","name":"Niedersachsen"}},{"name":"Süderkiefmoor","postalCode":"26624","locality":"Südbrookmerland","municipality":{"key":"03452023","name":"Südbrookmerland","type":"Kreisangehörige_Gemeinde"},"district":{"key":"03452","name":"Aurich","type":"Landkreis"},"federalState":{"key":"03","name":"Niedersachsen"}},{"name":"Süderlandweg","postalCode":"26624","locality":"Südbrookmerland","municipality":{"key":"03452023","name":"Südbrookmerland","type":"Kreisangehörige_Gemeinde"},"district":{"key":"03452","name":"Aurich","type":"Landkreis"},"federalState":{"key":"03","name":"Niedersachsen"}},{"name":"Süderstr.","postalCode":"26624","locality":"Südbrookmerland","municipality":{"key":"03452023","name":"Südbrookmerland","type":"Kreisangehörige_Gemeinde"},"district":{"key":"03452","name":"Aurich","type":"Landkreis"},"federalState":{"key":"03","name":"Niedersachsen"}},{"name":"Talstr.","postalCode":"26624","locality":"Südbrookmerland","municipality":{"key":"03452023","name":"Südbrookmerland","type":"Kreisangehörige_Gemeinde"},"district":{"key":"03452","name":"Aurich","type":"Landkreis"},"federalState":{"key":"03","name":"Niedersachsen"}},{"name":"Tannenweg","postalCode":"26624","locality":"Südbrookmerland","municipality":{"key":"03452023","name":"Südbrookmerland","type":"Kreisangehörige_Gemeinde"},"district":{"key":"03452","name":"Aurich","type":"Landkreis"},"federalState":{"key":"03","name":"Niedersachsen"}},{"name":"Taubenstr.","postalCode":"26624","locality":"Südbrookmerland","municipality":{"key":"03452023","name":"Südbrookmerland","type":"Kreisangehörige_Gemeinde"},"district":{"key":"03452","name":"Aurich","type":"Landkreis"},"federalState":{"key":"03","name":"Niedersachsen"}},{"name":"Teichhuhnweg","postalCode":"26624","locality":"Südbrookmerland","municipality":{"key":"03452023","name":"Südbrookmerland","type":"Kreisangehörige_Gemeinde"},"district":{"key":"03452","name":"Aurich","type":"Landkreis"},"federalState":{"key":"03","name":"Niedersachsen"}},{"name":"Theener Str.","postalCode":"26624","locality":"Südbrookmerland","municipality":{"key":"03452023","name":"Südbrookmerland","type":"Kreisangehörige_Gemeinde"},"district":{"key":"03452","name":"Aurich","type":"Landkreis"},"federalState":{"key":"03","name":"Niedersachsen"}},{"name":"Tom-Brook-Str.","postalCode":"26624","locality":"Südbrookmerland","municipality":{"key":"03452023","name":"Südbrookmerland","type":"Kreisangehörige_Gemeinde"},"district":{"key":"03452","name":"Aurich","type":"Landkreis"},"federalState":{"key":"03","name":"Niedersachsen"}},{"name":"Torfweg","postalCode":"26624","locality":"Südbrookmerland","municipality":{"key":"03452023","name":"Südbrookmerland","type":"Kreisangehörige_Gemeinde"},"district":{"key":"03452","name":"Aurich","type":"Landkreis"},"federalState":{"key":"03","name":"Niedersachsen"}},{"name":"Trichterweg","postalCode":"26624","locality":"Südbrookmerland","municipality":{"key":"03452023","name":"Südbrookmerland","type":"Kreisangehörige_Gemeinde"},"district":{"key":"03452","name":"Aurich","type":"Landkreis"},"federalState":{"key":"03","name":"Niedersachsen"}},{"name":"Tulpenweg","postalCode":"26624","locality":"Südbrookmerland","municipality":{"key":"03452023","name":"Südbrookmerland","type":"Kreisangehörige_Gemeinde"},"district":{"key":"03452","name":"Aurich","type":"Landkreis"},"federalState":{"key":"03","name":"Niedersachsen"}},{"name":"Uiterdyk","postalCode":"26624","locality":"Südbrookmerland","municipality":{"key":"03452023","name":"Südbrookmerland","type":"Kreisangehörige_Gemeinde"},"district":{"key":"03452","name":"Aurich","type":"Landkreis"},"federalState":{"key":"03","name":"Niedersachsen"}},{"name":"Uiterweg","postalCode":"26624","locality":"Südbrookmerland","municipality":{"key":"03452023","name":"Südbrookmerland","type":"Kreisangehörige_Gemeinde"},"district":{"key":"03452","name":"Aurich","type":"Landkreis"},"federalState":{"key":"03","name":"Niedersachsen"}},{"name":"Ukenastr.","postalCode":"26624","locality":"Südbrookmerland","municipality":{"key":"03452023","name":"Südbrookmerland","type":"Kreisangehörige_Gemeinde"},"district":{"key":"03452","name":"Aurich","type":"Landkreis"},"federalState":{"key":"03","name":"Niedersachsen"}},{"name":"Ulmenweg","postalCode":"26624","locality":"Südbrookmerland","municipality":{"key":"03452023","name":"Südbrookmerland","type":"Kreisangehörige_Gemeinde"},"district":{"key":"03452","name":"Aurich","type":"Landkreis"},"federalState":{"key":"03","name":"Niedersachsen"}},{"name":"Unnerendenstr.","postalCode":"26624","locality":"Südbrookmerland","municipality":{"key":"03452023","name":"Südbrookmerland","type":"Kreisangehörige_Gemeinde"},"district":{"key":"03452","name":"Aurich","type":"Landkreis"},"federalState":{"key":"03","name":"Niedersachsen"}},{"name":"Upender Str.","postalCode":"26624","locality":"Südbrookmerland","municipality":{"key":"03452023","name":"Südbrookmerland","type":"Kreisangehörige_Gemeinde"},"district":{"key":"03452","name":"Aurich","type":"Landkreis"},"federalState":{"key":"03","name":"Niedersachsen"}},{"name":"Uthwerdumer Meede","postalCode":"26624","locality":"Südbrookmerland","municipality":{"key":"03452023","name":"Südbrookmerland","type":"Kreisangehörige_Gemeinde"},"district":{"key":"03452","name":"Aurich","type":"Landkreis"},"federalState":{"key":"03","name":"Niedersachsen"}},{"name":"Uthwerdumer Str.","postalCode":"26624","locality":"Südbrookmerland","municipality":{"key":"03452023","name":"Südbrookmerland","type":"Kreisangehörige_Gemeinde"},"district":{"key":"03452","name":"Aurich","type":"Landkreis"},"federalState":{"key":"03","name":"Niedersachsen"}},{"name":"Veilchenweg","postalCode":"26624","locality":"Südbrookmerland","municipality":{"key":"03452023","name":"Südbrookmerland","type":"Kreisangehörige_Gemeinde"},"district":{"key":"03452","name":"Aurich","type":"Landkreis"},"federalState":{"key":"03","name":"Niedersachsen"}},{"name":"Victorburer Moor","postalCode":"26624","locality":"Südbrookmerland","municipality":{"key":"03452023","name":"Südbrookmerland","type":"Kreisangehörige_Gemeinde"},"district":{"key":"03452","name":"Aurich","type":"Landkreis"},"federalState":{"key":"03","name":"Niedersachsen"}},{"name":"Victorburer Wilde","postalCode":"26624","locality":"Südbrookmerland","municipality":{"key":"03452023","name":"Südbrookmerland","type":"Kreisangehörige_Gemeinde"},"district":{"key":"03452","name":"Aurich","type":"Landkreis"},"federalState":{"key":"03","name":"Niedersachsen"}},{"name":"Wacholderweg","postalCode":"26624","locality":"Südbrookmerland","municipality":{"key":"03452023","name":"Südbrookmerland","type":"Kreisangehörige_Gemeinde"},"district":{"key":"03452","name":"Aurich","type":"Landkreis"},"federalState":{"key":"03","name":"Niedersachsen"}},{"name":"Wachtelweg","postalCode":"26624","locality":"Südbrookmerland","municipality":{"key":"03452023","name":"Südbrookmerland","type":"Kreisangehörige_Gemeinde"},"district":{"key":"03452","name":"Aurich","type":"Landkreis"},"federalState":{"key":"03","name":"Niedersachsen"}},{"name":"Wagner Platz","postalCode":"26624","locality":"Südbrookmerland","municipality":{"key":"03452023","name":"Südbrookmerland","type":"Kreisangehörige_Gemeinde"},"district":{"key":"03452","name":"Aurich","type":"Landkreis"},"federalState":{"key":"03","name":"Niedersachsen"}},{"name":"Waller Weg","postalCode":"26624","locality":"Südbrookmerland","municipality":{"key":"03452023","name":"Südbrookmerland","type":"Kreisangehörige_Gemeinde"},"district":{"key":"03452","name":"Aurich","type":"Landkreis"},"federalState":{"key":"03","name":"Niedersachsen"}},{"name":"Warfsfenne","postalCode":"26624","locality":"Südbrookmerland","municipality":{"key":"03452023","name":"Südbrookmerland","type":"Kreisangehörige_Gemeinde"},"district":{"key":"03452","name":"Aurich","type":"Landkreis"},"federalState":{"key":"03","name":"Niedersachsen"}},{"name":"Warfspad","postalCode":"26624","locality":"Südbrookmerland","municipality":{"key":"03452023","name":"Südbrookmerland","type":"Kreisangehörige_Gemeinde"},"district":{"key":"03452","name":"Aurich","type":"Landkreis"},"federalState":{"key":"03","name":"Niedersachsen"}},{"name":"Warfsweg","postalCode":"26624","locality":"Südbrookmerland","municipality":{"key":"03452023","name":"Südbrookmerland","type":"Kreisangehörige_Gemeinde"},"district":{"key":"03452","name":"Aurich","type":"Landkreis"},"federalState":{"key":"03","name":"Niedersachsen"}},{"name":"Weidenstieg","postalCode":"26624","locality":"Südbrookmerland","municipality":{"key":"03452023","name":"Südbrookmerland","type":"Kreisangehörige_Gemeinde"},"district":{"key":"03452","name":"Aurich","type":"Landkreis"},"federalState":{"key":"03","name":"Niedersachsen"}},{"name":"Weidenweg","postalCode":"26624","locality":"Südbrookmerland","municipality":{"key":"03452023","name":"Südbrookmerland","type":"Kreisangehörige_Gemeinde"},"district":{"key":"03452","name":"Aurich","type":"Landkreis"},"federalState":{"key":"03","name":"Niedersachsen"}},{"name":"Weißdornweg","postalCode":"26624","locality":"Südbrookmerland","municipality":{"key":"03452023","name":"Südbrookmerland","type":"Kreisangehörige_Gemeinde"},"district":{"key":"03452","name":"Aurich","type":"Landkreis"},"federalState":{"key":"03","name":"Niedersachsen"}},{"name":"Weißer Weg","postalCode":"26624","locality":"Südbrookmerland","municipality":{"key":"03452023","name":"Südbrookmerland","type":"Kreisangehörige_Gemeinde"},"district":{"key":"03452","name":"Aurich","type":"Landkreis"},"federalState":{"key":"03","name":"Niedersachsen"}},{"name":"Werkstr.","postalCode":"26624","locality":"Südbrookmerland","municipality":{"key":"03452023","name":"Südbrookmerland","type":"Kreisangehörige_Gemeinde"},"district":{"key":"03452","name":"Aurich","type":"Landkreis"},"federalState":{"key":"03","name":"Niedersachsen"}},{"name":"Werringer Weg","postalCode":"26624","locality":"Südbrookmerland","municipality":{"key":"03452023","name":"Südbrookmerland","type":"Kreisangehörige_Gemeinde"},"district":{"key":"03452","name":"Aurich","type":"Landkreis"},"federalState":{"key":"03","name":"Niedersachsen"}},{"name":"Westerdiek","postalCode":"26624","locality":"Südbrookmerland","municipality":{"key":"03452023","name":"Südbrookmerland","type":"Kreisangehörige_Gemeinde"},"district":{"key":"03452","name":"Aurich","type":"Landkreis"},"federalState":{"key":"03","name":"Niedersachsen"}},{"name":"Westerender Str.","postalCode":"26624","locality":"Südbrookmerland","municipality":{"key":"03452023","name":"Südbrookmerland","type":"Kreisangehörige_Gemeinde"},"district":{"key":"03452","name":"Aurich","type":"Landkreis"},"federalState":{"key":"03","name":"Niedersachsen"}},{"name":"Westerfenne","postalCode":"26624","locality":"Südbrookmerland","municipality":{"key":"03452023","name":"Südbrookmerland","type":"Kreisangehörige_Gemeinde"},"district":{"key":"03452","name":"Aurich","type":"Landkreis"},"federalState":{"key":"03","name":"Niedersachsen"}},{"name":"Westvictorburer Str.","postalCode":"26624","locality":"Südbrookmerland","municipality":{"key":"03452023","name":"Südbrookmerland","type":"Kreisangehörige_Gemeinde"},"district":{"key":"03452","name":"Aurich","type":"Landkreis"},"federalState":{"key":"03","name":"Niedersachsen"}},{"name":"Wickenweg","postalCode":"26624","locality":"Südbrookmerland","municipality":{"key":"03452023","name":"Südbrookmerland","type":"Kreisangehörige_Gemeinde"},"district":{"key":"03452","name":"Aurich","type":"Landkreis"},"federalState":{"key":"03","name":"Niedersachsen"}},{"name":"Wieselweg","postalCode":"26624","locality":"Südbrookmerland","municipality":{"key":"03452023","name":"Südbrookmerland","type":"Kreisangehörige_Gemeinde"},"district":{"key":"03452","name":"Aurich","type":"Landkreis"},"federalState":{"key":"03","name":"Niedersachsen"}},{"name":"Wiesenstr.","postalCode":"26624","locality":"Südbrookmerland","municipality":{"key":"03452023","name":"Südbrookmerland","type":"Kreisangehörige_Gemeinde"},"district":{"key":"03452","name":"Aurich","type":"Landkreis"},"federalState":{"key":"03","name":"Niedersachsen"}},{"name":"Wilgenweg","postalCode":"26624","locality":"Südbrookmerland","municipality":{"key":"03452023","name":"Südbrookmerland","type":"Kreisangehörige_Gemeinde"},"district":{"key":"03452","name":"Aurich","type":"Landkreis"},"federalState":{"key":"03","name":"Niedersachsen"}},{"name":"Woldenweg","postalCode":"26624","locality":"Südbrookmerland","municipality":{"key":"03452023","name":"Südbrookmerland","type":"Kreisangehörige_Gemeinde"},"district":{"key":"03452","name":"Aurich","type":"Landkreis"},"federalState":{"key":"03","name":"Niedersachsen"}},{"name":"Wollgrasweg","postalCode":"26624","locality":"Südbrookmerland","municipality":{"key":"03452023","name":"Südbrookmerland","type":"Kreisangehörige_Gemeinde"},"district":{"key":"03452","name":"Aurich","type":"Landkreis"},"federalState":{"key":"03","name":"Niedersachsen"}},{"name":"Yorckstr.","postalCode":"26603","locality":"Aurich","municipality":{"key":"03452001","name":"Aurich, Stadt","type":"Stadt"},"district":{"key":"03452","name":"Aurich","type":"Landkreis"},"federalState":{"key":"03","name":"Niedersachsen"}},{"name":"Zaunkönigsweg","postalCode":"26624","locality":"Südbrookmerland","municipality":{"key":"03452023","name":"Südbrookmerland","type":"Kreisangehörige_Gemeinde"},"district":{"key":"03452","name":"Aurich","type":"Landkreis"},"federalState":{"key":"03","name":"Niedersachsen"}},{"name":"Zedimtsweg","postalCode":"26624","locality":"Südbrookmerland","municipality":{"key":"03452023","name":"Südbrookmerland","type":"Kreisangehörige_Gemeinde"},"district":{"key":"03452","name":"Aurich","type":"Landkreis"},"federalState":{"key":"03","name":"Niedersachsen"}},{"name":"Zingelstr.","postalCode":"26624","locality":"Südbrookmerland","municipality":{"key":"03452023","name":"Südbrookmerland","type":"Kreisangehörige_Gemeinde"},"district":{"key":"03452","name":"Aurich","type":"Landkreis"},"federalState":{"key":"03","name":"Niedersachsen"}},{"name":"Zu den Mühlen","postalCode":"26624","locality":"Südbrookmerland","municipality":{"key":"03452023","name":"Südbrookmerland","type":"Kreisangehörige_Gemeinde"},"district":{"key":"03452","name":"Aurich","type":"Landkreis"},"federalState":{"key":"03","name":"Niedersachsen"}},{"name":"Zum Königskeil","postalCode":"26624","locality":"Südbrookmerland","municipality":{"key":"03452023","name":"Südbrookmerland","type":"Kreisangehörige_Gemeinde"},"district":{"key":"03452","name":"Aurich","type":"Landkreis"},"federalState":{"key":"03","name":"Niedersachsen"}},{"name":"Zum Stauwerk","postalCode":"26624","locality":"Südbrookmerland","municipality":{"key":"03452023","name":"Südbrookmerland","type":"Kreisangehörige_Gemeinde"},"district":{"key":"03452","name":"Aurich","type":"Landkreis"},"federalState":{"key":"03","name":"Niedersachsen"}},{"name":"Zum Stellwerk","postalCode":"26624","locality":"Südbrookmerland","municipality":{"key":"03452023","name":"Südbrookmerland","type":"Kreisangehörige_Gemeinde"},"district":{"key":"03452","name":"Aurich","type":"Landkreis"},"federalState":{"key":"03","name":"Niedersachsen"}},{"name":"Zweiter Meedeweg","postalCode":"26624","locality":"Südbrookmerland","municipality":{"key":"03452023","name":"Südbrookmerland","type":"Kreisangehörige_Gemeinde"},"district":{"key":"03452","name":"Aurich","type":"Landkreis"},"federalState":{"key":"03","name":"Niedersachsen"}},{"name":"Zwerkeweg","postalCode":"26624","locality":"Südbrookmerland","municipality":{"key":"03452023","name":"Südbrookmerland","type":"Kreisangehörige_Gemeinde"},"district":{"key":"03452","name":"Aurich","type":"Landkreis"},"federalState":{"key":"03","name":"Niedersachsen"}},]