[{"name":"Adam-Jessin-Weg","postalCode":"24211","locality":"Preetz","municipality":{"key":"01057062","name":"Preetz, Stadt","type":"Stadt"},"district":{"key":"01057","name":"Plön","type":"Kreis"},"federalState":{"key":"01","name":"Schleswig-Holstein"}},{"name":"Ahornweg","postalCode":"24211","locality":"Preetz","municipality":{"key":"01057062","name":"Preetz, Stadt","type":"Stadt"},"district":{"key":"01057","name":"Plön","type":"Kreis"},"federalState":{"key":"01","name":"Schleswig-Holstein"}},{"name":"Albert-Einstein-Str.","postalCode":"24211","locality":"Preetz","municipality":{"key":"01057062","name":"Preetz, Stadt","type":"Stadt"},"district":{"key":"01057","name":"Plön","type":"Kreis"},"federalState":{"key":"01","name":"Schleswig-Holstein"}},{"name":"Albrechtskoppel","postalCode":"24211","locality":"Preetz","municipality":{"key":"01057062","name":"Preetz, Stadt","type":"Stadt"},"district":{"key":"01057","name":"Plön","type":"Kreis"},"federalState":{"key":"01","name":"Schleswig-Holstein"}},{"name":"Am alten Amtsgericht","postalCode":"24211","locality":"Preetz","municipality":{"key":"01057062","name":"Preetz, Stadt","type":"Stadt"},"district":{"key":"01057","name":"Plön","type":"Kreis"},"federalState":{"key":"01","name":"Schleswig-Holstein"}},{"name":"Am Hang","postalCode":"24211","locality":"Preetz","municipality":{"key":"01057062","name":"Preetz, Stadt","type":"Stadt"},"district":{"key":"01057","name":"Plön","type":"Kreis"},"federalState":{"key":"01","name":"Schleswig-Holstein"}},{"name":"Am Jahnplatz","postalCode":"24211","locality":"Preetz","municipality":{"key":"01057062","name":"Preetz, Stadt","type":"Stadt"},"district":{"key":"01057","name":"Plön","type":"Kreis"},"federalState":{"key":"01","name":"Schleswig-Holstein"}},{"name":"Am Krankenhaus","postalCode":"24211","locality":"Preetz","municipality":{"key":"01057062","name":"Preetz, Stadt","type":"Stadt"},"district":{"key":"01057","name":"Plön","type":"Kreis"},"federalState":{"key":"01","name":"Schleswig-Holstein"}},{"name":"Am Lanker See","postalCode":"24211","locality":"Preetz","municipality":{"key":"01057062","name":"Preetz, Stadt","type":"Stadt"},"district":{"key":"01057","name":"Plön","type":"Kreis"},"federalState":{"key":"01","name":"Schleswig-Holstein"}},{"name":"Am Predigerseminar","postalCode":"24211","locality":"Preetz","municipality":{"key":"01057062","name":"Preetz, Stadt","type":"Stadt"},"district":{"key":"01057","name":"Plön","type":"Kreis"},"federalState":{"key":"01","name":"Schleswig-Holstein"}},{"name":"Am Schützenplatz","postalCode":"24211","locality":"Preetz","municipality":{"key":"01057062","name":"Preetz, Stadt","type":"Stadt"},"district":{"key":"01057","name":"Plön","type":"Kreis"},"federalState":{"key":"01","name":"Schleswig-Holstein"}},{"name":"Amselgasse","postalCode":"18445","locality":"Preetz","municipality":{"key":"13073066","name":"Preetz","type":"Kreisangehörige_Gemeinde"},"district":{"key":"13073","name":"Vorpommern-Rügen","type":"Landkreis"},"federalState":{"key":"13","name":"Mecklenburg-Vorpommern"}},{"name":"Amselstieg","postalCode":"24211","locality":"Preetz","municipality":{"key":"01057062","name":"Preetz, Stadt","type":"Stadt"},"district":{"key":"01057","name":"Plön","type":"Kreis"},"federalState":{"key":"01","name":"Schleswig-Holstein"}},{"name":"Am Wasserturm","postalCode":"24211","locality":"Preetz","municipality":{"key":"01057062","name":"Preetz, Stadt","type":"Stadt"},"district":{"key":"01057","name":"Plön","type":"Kreis"},"federalState":{"key":"01","name":"Schleswig-Holstein"}},{"name":"An den Eichen","postalCode":"24211","locality":"Preetz","municipality":{"key":"01057062","name":"Preetz, Stadt","type":"Stadt"},"district":{"key":"01057","name":"Plön","type":"Kreis"},"federalState":{"key":"01","name":"Schleswig-Holstein"}},{"name":"An der Bergbrauerei","postalCode":"24211","locality":"Preetz","municipality":{"key":"01057062","name":"Preetz, Stadt","type":"Stadt"},"district":{"key":"01057","name":"Plön","type":"Kreis"},"federalState":{"key":"01","name":"Schleswig-Holstein"}},{"name":"An der Mühlenau","postalCode":"24211","locality":"Preetz","municipality":{"key":"01057062","name":"Preetz, Stadt","type":"Stadt"},"district":{"key":"01057","name":"Plön","type":"Kreis"},"federalState":{"key":"01","name":"Schleswig-Holstein"}},{"name":"Anna-von-Buchwaldt-Weg","postalCode":"24211","locality":"Preetz","municipality":{"key":"01057062","name":"Preetz, Stadt","type":"Stadt"},"district":{"key":"01057","name":"Plön","type":"Kreis"},"federalState":{"key":"01","name":"Schleswig-Holstein"}},{"name":"Apenrader Str.","postalCode":"24211","locality":"Preetz","municipality":{"key":"01057062","name":"Preetz, Stadt","type":"Stadt"},"district":{"key":"01057","name":"Plön","type":"Kreis"},"federalState":{"key":"01","name":"Schleswig-Holstein"}},{"name":"Aukamp","postalCode":"24211","locality":"Preetz","municipality":{"key":"01057062","name":"Preetz, Stadt","type":"Stadt"},"district":{"key":"01057","name":"Plön","type":"Kreis"},"federalState":{"key":"01","name":"Schleswig-Holstein"}},{"name":"Bäckergang","postalCode":"24211","locality":"Preetz","municipality":{"key":"01057062","name":"Preetz, Stadt","type":"Stadt"},"district":{"key":"01057","name":"Plön","type":"Kreis"},"federalState":{"key":"01","name":"Schleswig-Holstein"}},{"name":"Bahnhofstr.","postalCode":"24211","locality":"Preetz","municipality":{"key":"01057062","name":"Preetz, Stadt","type":"Stadt"},"district":{"key":"01057","name":"Plön","type":"Kreis"},"federalState":{"key":"01","name":"Schleswig-Holstein"}},{"name":"Beekengrund","postalCode":"24211","locality":"Preetz","municipality":{"key":"01057062","name":"Preetz, Stadt","type":"Stadt"},"district":{"key":"01057","name":"Plön","type":"Kreis"},"federalState":{"key":"01","name":"Schleswig-Holstein"}},{"name":"Bergweg","postalCode":"24211","locality":"Preetz","municipality":{"key":"01057062","name":"Preetz, Stadt","type":"Stadt"},"district":{"key":"01057","name":"Plön","type":"Kreis"},"federalState":{"key":"01","name":"Schleswig-Holstein"}},{"name":"Berliner Ring","postalCode":"24211","locality":"Preetz","municipality":{"key":"01057062","name":"Preetz, Stadt","type":"Stadt"},"district":{"key":"01057","name":"Plön","type":"Kreis"},"federalState":{"key":"01","name":"Schleswig-Holstein"}},{"name":"Bernstorffstr.","postalCode":"24211","locality":"Preetz","municipality":{"key":"01057062","name":"Preetz, Stadt","type":"Stadt"},"district":{"key":"01057","name":"Plön","type":"Kreis"},"federalState":{"key":"01","name":"Schleswig-Holstein"}},{"name":"Birkenweg","postalCode":"24211","locality":"Preetz","municipality":{"key":"01057062","name":"Preetz, Stadt","type":"Stadt"},"district":{"key":"01057","name":"Plön","type":"Kreis"},"federalState":{"key":"01","name":"Schleswig-Holstein"}},{"name":"Blandfordweg","postalCode":"24211","locality":"Preetz","municipality":{"key":"01057062","name":"Preetz, Stadt","type":"Stadt"},"district":{"key":"01057","name":"Plön","type":"Kreis"},"federalState":{"key":"01","name":"Schleswig-Holstein"}},{"name":"Böhmkrützweg","postalCode":"24211","locality":"Preetz","municipality":{"key":"01057062","name":"Preetz, Stadt","type":"Stadt"},"district":{"key":"01057","name":"Plön","type":"Kreis"},"federalState":{"key":"01","name":"Schleswig-Holstein"}},{"name":"Böttchersteg","postalCode":"24211","locality":"Preetz","municipality":{"key":"01057062","name":"Preetz, Stadt","type":"Stadt"},"district":{"key":"01057","name":"Plön","type":"Kreis"},"federalState":{"key":"01","name":"Schleswig-Holstein"}},{"name":"Breslauer Str.","postalCode":"24211","locality":"Preetz","municipality":{"key":"01057062","name":"Preetz, Stadt","type":"Stadt"},"district":{"key":"01057","name":"Plön","type":"Kreis"},"federalState":{"key":"01","name":"Schleswig-Holstein"}},{"name":"Brunnenweg","postalCode":"24211","locality":"Preetz","municipality":{"key":"01057062","name":"Preetz, Stadt","type":"Stadt"},"district":{"key":"01057","name":"Plön","type":"Kreis"},"federalState":{"key":"01","name":"Schleswig-Holstein"}},{"name":"Buchenweg","postalCode":"24211","locality":"Preetz","municipality":{"key":"01057062","name":"Preetz, Stadt","type":"Stadt"},"district":{"key":"01057","name":"Plön","type":"Kreis"},"federalState":{"key":"01","name":"Schleswig-Holstein"}},{"name":"Buschstr.","postalCode":"24211","locality":"Preetz","municipality":{"key":"01057062","name":"Preetz, Stadt","type":"Stadt"},"district":{"key":"01057","name":"Plön","type":"Kreis"},"federalState":{"key":"01","name":"Schleswig-Holstein"}},{"name":"Carl-Friedrich-Gauß-Str.","postalCode":"24211","locality":"Preetz","municipality":{"key":"01057062","name":"Preetz, Stadt","type":"Stadt"},"district":{"key":"01057","name":"Plön","type":"Kreis"},"federalState":{"key":"01","name":"Schleswig-Holstein"}},{"name":"Castöhlenweg","postalCode":"24211","locality":"Preetz","municipality":{"key":"01057062","name":"Preetz, Stadt","type":"Stadt"},"district":{"key":"01057","name":"Plön","type":"Kreis"},"federalState":{"key":"01","name":"Schleswig-Holstein"}},{"name":"Cathrinplatz","postalCode":"24211","locality":"Preetz","municipality":{"key":"01057062","name":"Preetz, Stadt","type":"Stadt"},"district":{"key":"01057","name":"Plön","type":"Kreis"},"federalState":{"key":"01","name":"Schleswig-Holstein"}},{"name":"Chausseestr.","postalCode":"18445","locality":"Preetz","municipality":{"key":"13073066","name":"Preetz","type":"Kreisangehörige_Gemeinde"},"district":{"key":"13073","name":"Vorpommern-Rügen","type":"Landkreis"},"federalState":{"key":"13","name":"Mecklenburg-Vorpommern"}},{"name":"Damaschkestr.","postalCode":"24211","locality":"Preetz","municipality":{"key":"01057062","name":"Preetz, Stadt","type":"Stadt"},"district":{"key":"01057","name":"Plön","type":"Kreis"},"federalState":{"key":"01","name":"Schleswig-Holstein"}},{"name":"Dänenkamp","postalCode":"24211","locality":"Preetz","municipality":{"key":"01057062","name":"Preetz, Stadt","type":"Stadt"},"district":{"key":"01057","name":"Plön","type":"Kreis"},"federalState":{"key":"01","name":"Schleswig-Holstein"}},{"name":"Danziger Str.","postalCode":"24211","locality":"Preetz","municipality":{"key":"01057062","name":"Preetz, Stadt","type":"Stadt"},"district":{"key":"01057","name":"Plön","type":"Kreis"},"federalState":{"key":"01","name":"Schleswig-Holstein"}},{"name":"Dorfplatz","postalCode":"18445","locality":"Preetz","municipality":{"key":"13073066","name":"Preetz","type":"Kreisangehörige_Gemeinde"},"district":{"key":"13073","name":"Vorpommern-Rügen","type":"Landkreis"},"federalState":{"key":"13","name":"Mecklenburg-Vorpommern"}},{"name":"Dorfstr.","postalCode":"24211","locality":"Preetz","municipality":{"key":"01057062","name":"Preetz, Stadt","type":"Stadt"},"district":{"key":"01057","name":"Plön","type":"Kreis"},"federalState":{"key":"01","name":"Schleswig-Holstein"}},{"name":"Drosselweg","postalCode":"24211","locality":"Preetz","municipality":{"key":"01057062","name":"Preetz, Stadt","type":"Stadt"},"district":{"key":"01057","name":"Plön","type":"Kreis"},"federalState":{"key":"01","name":"Schleswig-Holstein"}},{"name":"Ella-Brumm-Str.","postalCode":"24211","locality":"Preetz","municipality":{"key":"01057062","name":"Preetz, Stadt","type":"Stadt"},"district":{"key":"01057","name":"Plön","type":"Kreis"},"federalState":{"key":"01","name":"Schleswig-Holstein"}},{"name":"Ellhornshörn","postalCode":"24211","locality":"Preetz","municipality":{"key":"01057062","name":"Preetz, Stadt","type":"Stadt"},"district":{"key":"01057","name":"Plön","type":"Kreis"},"federalState":{"key":"01","name":"Schleswig-Holstein"}},{"name":"Erlengrund","postalCode":"24211","locality":"Preetz","municipality":{"key":"01057062","name":"Preetz, Stadt","type":"Stadt"},"district":{"key":"01057","name":"Plön","type":"Kreis"},"federalState":{"key":"01","name":"Schleswig-Holstein"}},{"name":"Eschenweg","postalCode":"18445","locality":"Preetz","municipality":{"key":"13073066","name":"Preetz","type":"Kreisangehörige_Gemeinde"},"district":{"key":"13073","name":"Vorpommern-Rügen","type":"Landkreis"},"federalState":{"key":"13","name":"Mecklenburg-Vorpommern"}},{"name":"Färberstr.","postalCode":"24211","locality":"Preetz","municipality":{"key":"01057062","name":"Preetz, Stadt","type":"Stadt"},"district":{"key":"01057","name":"Plön","type":"Kreis"},"federalState":{"key":"01","name":"Schleswig-Holstein"}},{"name":"Feldmannsplatz","postalCode":"24211","locality":"Preetz","municipality":{"key":"01057062","name":"Preetz, Stadt","type":"Stadt"},"district":{"key":"01057","name":"Plön","type":"Kreis"},"federalState":{"key":"01","name":"Schleswig-Holstein"}},{"name":"Feldstr.","postalCode":"18445","locality":"Preetz","municipality":{"key":"13073066","name":"Preetz","type":"Kreisangehörige_Gemeinde"},"district":{"key":"13073","name":"Vorpommern-Rügen","type":"Landkreis"},"federalState":{"key":"13","name":"Mecklenburg-Vorpommern"}},{"name":"Feldstr.","postalCode":"24211","locality":"Preetz","municipality":{"key":"01057062","name":"Preetz, Stadt","type":"Stadt"},"district":{"key":"01057","name":"Plön","type":"Kreis"},"federalState":{"key":"01","name":"Schleswig-Holstein"}},{"name":"Finkenstieg","postalCode":"18445","locality":"Preetz","municipality":{"key":"13073066","name":"Preetz","type":"Kreisangehörige_Gemeinde"},"district":{"key":"13073","name":"Vorpommern-Rügen","type":"Landkreis"},"federalState":{"key":"13","name":"Mecklenburg-Vorpommern"}},{"name":"Fliederweg","postalCode":"24211","locality":"Preetz","municipality":{"key":"01057062","name":"Preetz, Stadt","type":"Stadt"},"district":{"key":"01057","name":"Plön","type":"Kreis"},"federalState":{"key":"01","name":"Schleswig-Holstein"}},{"name":"Friedhofsdamm","postalCode":"24211","locality":"Preetz","municipality":{"key":"01057062","name":"Preetz, Stadt","type":"Stadt"},"district":{"key":"01057","name":"Plön","type":"Kreis"},"federalState":{"key":"01","name":"Schleswig-Holstein"}},{"name":"Fuchsweg","postalCode":"24211","locality":"Preetz","municipality":{"key":"01057062","name":"Preetz, Stadt","type":"Stadt"},"district":{"key":"01057","name":"Plön","type":"Kreis"},"federalState":{"key":"01","name":"Schleswig-Holstein"}},{"name":"Fußsteigkoppel","postalCode":"24211","locality":"Preetz","municipality":{"key":"01057062","name":"Preetz, Stadt","type":"Stadt"},"district":{"key":"01057","name":"Plön","type":"Kreis"},"federalState":{"key":"01","name":"Schleswig-Holstein"}},{"name":"Garnkorb","postalCode":"24211","locality":"Preetz","municipality":{"key":"01057062","name":"Preetz, Stadt","type":"Stadt"},"district":{"key":"01057","name":"Plön","type":"Kreis"},"federalState":{"key":"01","name":"Schleswig-Holstein"}},{"name":"Gartenstr.","postalCode":"24211","locality":"Preetz","municipality":{"key":"01057062","name":"Preetz, Stadt","type":"Stadt"},"district":{"key":"01057","name":"Plön","type":"Kreis"},"federalState":{"key":"01","name":"Schleswig-Holstein"}},{"name":"Gasstr.","postalCode":"24211","locality":"Preetz","municipality":{"key":"01057062","name":"Preetz, Stadt","type":"Stadt"},"district":{"key":"01057","name":"Plön","type":"Kreis"},"federalState":{"key":"01","name":"Schleswig-Holstein"}},{"name":"Gerberweg","postalCode":"24211","locality":"Preetz","municipality":{"key":"01057062","name":"Preetz, Stadt","type":"Stadt"},"district":{"key":"01057","name":"Plön","type":"Kreis"},"federalState":{"key":"01","name":"Schleswig-Holstein"}},{"name":"Geschwister-Pruszkowski-Gang","postalCode":"24211","locality":"Preetz","municipality":{"key":"01057062","name":"Preetz, Stadt","type":"Stadt"},"district":{"key":"01057","name":"Plön","type":"Kreis"},"federalState":{"key":"01","name":"Schleswig-Holstein"}},{"name":"Glindskoppelweg","postalCode":"24211","locality":"Preetz","municipality":{"key":"01057062","name":"Preetz, Stadt","type":"Stadt"},"district":{"key":"01057","name":"Plön","type":"Kreis"},"federalState":{"key":"01","name":"Schleswig-Holstein"}},{"name":"Gorch-Fock-Str.","postalCode":"24211","locality":"Preetz","municipality":{"key":"01057062","name":"Preetz, Stadt","type":"Stadt"},"district":{"key":"01057","name":"Plön","type":"Kreis"},"federalState":{"key":"01","name":"Schleswig-Holstein"}},{"name":"Güterstr.","postalCode":"24211","locality":"Preetz","municipality":{"key":"01057062","name":"Preetz, Stadt","type":"Stadt"},"district":{"key":"01057","name":"Plön","type":"Kreis"},"federalState":{"key":"01","name":"Schleswig-Holstein"}},{"name":"Haimkrogkoppel","postalCode":"24211","locality":"Preetz","municipality":{"key":"01057062","name":"Preetz, Stadt","type":"Stadt"},"district":{"key":"01057","name":"Plön","type":"Kreis"},"federalState":{"key":"01","name":"Schleswig-Holstein"}},{"name":"Harderpark","postalCode":"24211","locality":"Preetz","municipality":{"key":"01057062","name":"Preetz, Stadt","type":"Stadt"},"district":{"key":"01057","name":"Plön","type":"Kreis"},"federalState":{"key":"01","name":"Schleswig-Holstein"}},{"name":"Haselbusch","postalCode":"24211","locality":"Preetz","municipality":{"key":"01057062","name":"Preetz, Stadt","type":"Stadt"},"district":{"key":"01057","name":"Plön","type":"Kreis"},"federalState":{"key":"01","name":"Schleswig-Holstein"}},{"name":"Hauptstr.","postalCode":"18445","locality":"Preetz","municipality":{"key":"13073066","name":"Preetz","type":"Kreisangehörige_Gemeinde"},"district":{"key":"13073","name":"Vorpommern-Rügen","type":"Landkreis"},"federalState":{"key":"13","name":"Mecklenburg-Vorpommern"}},{"name":"Hebbelplatz","postalCode":"24211","locality":"Preetz","municipality":{"key":"01057062","name":"Preetz, Stadt","type":"Stadt"},"district":{"key":"01057","name":"Plön","type":"Kreis"},"federalState":{"key":"01","name":"Schleswig-Holstein"}},{"name":"Hebbelstr.","postalCode":"24211","locality":"Preetz","municipality":{"key":"01057062","name":"Preetz, Stadt","type":"Stadt"},"district":{"key":"01057","name":"Plön","type":"Kreis"},"federalState":{"key":"01","name":"Schleswig-Holstein"}},{"name":"Heisterkamp","postalCode":"24211","locality":"Preetz","municipality":{"key":"01057062","name":"Preetz, Stadt","type":"Stadt"},"district":{"key":"01057","name":"Plön","type":"Kreis"},"federalState":{"key":"01","name":"Schleswig-Holstein"}},{"name":"Hermann-Löns-Weg","postalCode":"24211","locality":"Preetz","municipality":{"key":"01057062","name":"Preetz, Stadt","type":"Stadt"},"district":{"key":"01057","name":"Plön","type":"Kreis"},"federalState":{"key":"01","name":"Schleswig-Holstein"}},{"name":"Hermann-Lüdemann-Str.","postalCode":"24211","locality":"Preetz","municipality":{"key":"01057062","name":"Preetz, Stadt","type":"Stadt"},"district":{"key":"01057","name":"Plön","type":"Kreis"},"federalState":{"key":"01","name":"Schleswig-Holstein"}},{"name":"Hinter dem Kirchhof","postalCode":"24211","locality":"Preetz","municipality":{"key":"01057062","name":"Preetz, Stadt","type":"Stadt"},"district":{"key":"01057","name":"Plön","type":"Kreis"},"federalState":{"key":"01","name":"Schleswig-Holstein"}},{"name":"Hohenkamp","postalCode":"24211","locality":"Preetz","municipality":{"key":"01057062","name":"Preetz, Stadt","type":"Stadt"},"district":{"key":"01057","name":"Plön","type":"Kreis"},"federalState":{"key":"01","name":"Schleswig-Holstein"}},{"name":"Holstenweg","postalCode":"24211","locality":"Preetz","municipality":{"key":"01057062","name":"Preetz, Stadt","type":"Stadt"},"district":{"key":"01057","name":"Plön","type":"Kreis"},"federalState":{"key":"01","name":"Schleswig-Holstein"}},{"name":"Holunderweg","postalCode":"24211","locality":"Preetz","municipality":{"key":"01057062","name":"Preetz, Stadt","type":"Stadt"},"district":{"key":"01057","name":"Plön","type":"Kreis"},"federalState":{"key":"01","name":"Schleswig-Holstein"}},{"name":"Hufenweg","postalCode":"24211","locality":"Preetz","municipality":{"key":"01057062","name":"Preetz, Stadt","type":"Stadt"},"district":{"key":"01057","name":"Plön","type":"Kreis"},"federalState":{"key":"01","name":"Schleswig-Holstein"}},{"name":"Ihlsol","postalCode":"24211","locality":"Preetz","municipality":{"key":"01057062","name":"Preetz, Stadt","type":"Stadt"},"district":{"key":"01057","name":"Plön","type":"Kreis"},"federalState":{"key":"01","name":"Schleswig-Holstein"}},{"name":"Imkerstr.","postalCode":"24211","locality":"Preetz","municipality":{"key":"01057062","name":"Preetz, Stadt","type":"Stadt"},"district":{"key":"01057","name":"Plön","type":"Kreis"},"federalState":{"key":"01","name":"Schleswig-Holstein"}},{"name":"Johanna-Brandt-Weg","postalCode":"24211","locality":"Preetz","municipality":{"key":"01057062","name":"Preetz, Stadt","type":"Stadt"},"district":{"key":"01057","name":"Plön","type":"Kreis"},"federalState":{"key":"01","name":"Schleswig-Holstein"}},{"name":"Johann-Dörfer-Weg","postalCode":"24211","locality":"Preetz","municipality":{"key":"01057062","name":"Preetz, Stadt","type":"Stadt"},"district":{"key":"01057","name":"Plön","type":"Kreis"},"federalState":{"key":"01","name":"Schleswig-Holstein"}},{"name":"Johannes-Gutenberg-Str.","postalCode":"24211","locality":"Preetz","municipality":{"key":"01057062","name":"Preetz, Stadt","type":"Stadt"},"district":{"key":"01057","name":"Plön","type":"Kreis"},"federalState":{"key":"01","name":"Schleswig-Holstein"}},{"name":"Justus-von-Liebig-Str.","postalCode":"24211","locality":"Preetz","municipality":{"key":"01057062","name":"Preetz, Stadt","type":"Stadt"},"district":{"key":"01057","name":"Plön","type":"Kreis"},"federalState":{"key":"01","name":"Schleswig-Holstein"}},{"name":"Kahlbrook","postalCode":"24211","locality":"Preetz","municipality":{"key":"01057062","name":"Preetz, Stadt","type":"Stadt"},"district":{"key":"01057","name":"Plön","type":"Kreis"},"federalState":{"key":"01","name":"Schleswig-Holstein"}},{"name":"Karl-Friedrich-Benz-Weg","postalCode":"24211","locality":"Preetz","municipality":{"key":"01057062","name":"Preetz, Stadt","type":"Stadt"},"district":{"key":"01057","name":"Plön","type":"Kreis"},"federalState":{"key":"01","name":"Schleswig-Holstein"}},{"name":"Kattendiek","postalCode":"24211","locality":"Preetz","municipality":{"key":"01057062","name":"Preetz, Stadt","type":"Stadt"},"district":{"key":"01057","name":"Plön","type":"Kreis"},"federalState":{"key":"01","name":"Schleswig-Holstein"}},{"name":"Kedingshäger Str.","postalCode":"18445","locality":"Preetz","municipality":{"key":"13073066","name":"Preetz","type":"Kreisangehörige_Gemeinde"},"district":{"key":"13073","name":"Vorpommern-Rügen","type":"Landkreis"},"federalState":{"key":"13","name":"Mecklenburg-Vorpommern"}},{"name":"Kiebitzmoor","postalCode":"18445","locality":"Preetz","municipality":{"key":"13073066","name":"Preetz","type":"Kreisangehörige_Gemeinde"},"district":{"key":"13073","name":"Vorpommern-Rügen","type":"Landkreis"},"federalState":{"key":"13","name":"Mecklenburg-Vorpommern"}},{"name":"Kiebitzweg","postalCode":"24211","locality":"Preetz","municipality":{"key":"01057062","name":"Preetz, Stadt","type":"Stadt"},"district":{"key":"01057","name":"Plön","type":"Kreis"},"federalState":{"key":"01","name":"Schleswig-Holstein"}},{"name":"Kieler Kamp","postalCode":"24211","locality":"Preetz","municipality":{"key":"01057062","name":"Preetz, Stadt","type":"Stadt"},"district":{"key":"01057","name":"Plön","type":"Kreis"},"federalState":{"key":"01","name":"Schleswig-Holstein"}},{"name":"Kieler Str.","postalCode":"24211","locality":"Preetz","municipality":{"key":"01057062","name":"Preetz, Stadt","type":"Stadt"},"district":{"key":"01057","name":"Plön","type":"Kreis"},"federalState":{"key":"01","name":"Schleswig-Holstein"}},{"name":"Kirchenstr.","postalCode":"24211","locality":"Preetz","municipality":{"key":"01057062","name":"Preetz, Stadt","type":"Stadt"},"district":{"key":"01057","name":"Plön","type":"Kreis"},"federalState":{"key":"01","name":"Schleswig-Holstein"}},{"name":"Kirchplatz","postalCode":"24211","locality":"Preetz","municipality":{"key":"01057062","name":"Preetz, Stadt","type":"Stadt"},"district":{"key":"01057","name":"Plön","type":"Kreis"},"federalState":{"key":"01","name":"Schleswig-Holstein"}},{"name":"Kirchsteig","postalCode":"24211","locality":"Preetz","municipality":{"key":"01057062","name":"Preetz, Stadt","type":"Stadt"},"district":{"key":"01057","name":"Plön","type":"Kreis"},"federalState":{"key":"01","name":"Schleswig-Holstein"}},{"name":"Kirschenweg","postalCode":"24211","locality":"Preetz","municipality":{"key":"01057062","name":"Preetz, Stadt","type":"Stadt"},"district":{"key":"01057","name":"Plön","type":"Kreis"},"federalState":{"key":"01","name":"Schleswig-Holstein"}},{"name":"Klaus-Groth-Platz","postalCode":"24211","locality":"Preetz","municipality":{"key":"01057062","name":"Preetz, Stadt","type":"Stadt"},"district":{"key":"01057","name":"Plön","type":"Kreis"},"federalState":{"key":"01","name":"Schleswig-Holstein"}},{"name":"Klaus-Groth-Str.","postalCode":"24211","locality":"Preetz","municipality":{"key":"01057062","name":"Preetz, Stadt","type":"Stadt"},"district":{"key":"01057","name":"Plön","type":"Kreis"},"federalState":{"key":"01","name":"Schleswig-Holstein"}},{"name":"Kleine Hufe","postalCode":"24211","locality":"Preetz","municipality":{"key":"01057062","name":"Preetz, Stadt","type":"Stadt"},"district":{"key":"01057","name":"Plön","type":"Kreis"},"federalState":{"key":"01","name":"Schleswig-Holstein"}},{"name":"Klostergang","postalCode":"24211","locality":"Preetz","municipality":{"key":"01057062","name":"Preetz, Stadt","type":"Stadt"},"district":{"key":"01057","name":"Plön","type":"Kreis"},"federalState":{"key":"01","name":"Schleswig-Holstein"}},{"name":"Klosterstr.","postalCode":"24211","locality":"Preetz","municipality":{"key":"01057062","name":"Preetz, Stadt","type":"Stadt"},"district":{"key":"01057","name":"Plön","type":"Kreis"},"federalState":{"key":"01","name":"Schleswig-Holstein"}},{"name":"Königsberger Str.","postalCode":"24211","locality":"Preetz","municipality":{"key":"01057062","name":"Preetz, Stadt","type":"Stadt"},"district":{"key":"01057","name":"Plön","type":"Kreis"},"federalState":{"key":"01","name":"Schleswig-Holstein"}},{"name":"Kranichgrund","postalCode":"18445","locality":"Preetz","municipality":{"key":"13073066","name":"Preetz","type":"Kreisangehörige_Gemeinde"},"district":{"key":"13073","name":"Vorpommern-Rügen","type":"Landkreis"},"federalState":{"key":"13","name":"Mecklenburg-Vorpommern"}},{"name":"Kranichweg","postalCode":"24211","locality":"Preetz","municipality":{"key":"01057062","name":"Preetz, Stadt","type":"Stadt"},"district":{"key":"01057","name":"Plön","type":"Kreis"},"federalState":{"key":"01","name":"Schleswig-Holstein"}},{"name":"Kronsburg","postalCode":"24211","locality":"Preetz","municipality":{"key":"01057062","name":"Preetz, Stadt","type":"Stadt"},"district":{"key":"01057","name":"Plön","type":"Kreis"},"federalState":{"key":"01","name":"Schleswig-Holstein"}},{"name":"Kührener Str.","postalCode":"24211","locality":"Preetz","municipality":{"key":"01057062","name":"Preetz, Stadt","type":"Stadt"},"district":{"key":"01057","name":"Plön","type":"Kreis"},"federalState":{"key":"01","name":"Schleswig-Holstein"}},{"name":"Lebermannsgang","postalCode":"24211","locality":"Preetz","municipality":{"key":"01057062","name":"Preetz, Stadt","type":"Stadt"},"district":{"key":"01057","name":"Plön","type":"Kreis"},"federalState":{"key":"01","name":"Schleswig-Holstein"}},{"name":"Lerchenweg","postalCode":"18445","locality":"Preetz","municipality":{"key":"13073066","name":"Preetz","type":"Kreisangehörige_Gemeinde"},"district":{"key":"13073","name":"Vorpommern-Rügen","type":"Landkreis"},"federalState":{"key":"13","name":"Mecklenburg-Vorpommern"}},{"name":"Lerchenweg","postalCode":"24211","locality":"Preetz","municipality":{"key":"01057062","name":"Preetz, Stadt","type":"Stadt"},"district":{"key":"01057","name":"Plön","type":"Kreis"},"federalState":{"key":"01","name":"Schleswig-Holstein"}},{"name":"Lindenhof","postalCode":"24211","locality":"Preetz","municipality":{"key":"01057062","name":"Preetz, Stadt","type":"Stadt"},"district":{"key":"01057","name":"Plön","type":"Kreis"},"federalState":{"key":"01","name":"Schleswig-Holstein"}},{"name":"Lindenstr.","postalCode":"24211","locality":"Preetz","municipality":{"key":"01057062","name":"Preetz, Stadt","type":"Stadt"},"district":{"key":"01057","name":"Plön","type":"Kreis"},"federalState":{"key":"01","name":"Schleswig-Holstein"}},{"name":"Lohmühlenweg","postalCode":"24211","locality":"Preetz","municipality":{"key":"01057062","name":"Preetz, Stadt","type":"Stadt"},"district":{"key":"01057","name":"Plön","type":"Kreis"},"federalState":{"key":"01","name":"Schleswig-Holstein"}},{"name":"Löptiner Str.","postalCode":"24211","locality":"Preetz","municipality":{"key":"01057062","name":"Preetz, Stadt","type":"Stadt"},"district":{"key":"01057","name":"Plön","type":"Kreis"},"federalState":{"key":"01","name":"Schleswig-Holstein"}},{"name":"Louise-Schroeder-Str.","postalCode":"24211","locality":"Preetz","municipality":{"key":"01057062","name":"Preetz, Stadt","type":"Stadt"},"district":{"key":"01057","name":"Plön","type":"Kreis"},"federalState":{"key":"01","name":"Schleswig-Holstein"}},{"name":"Marcus-Sierck-Weg","postalCode":"24211","locality":"Preetz","municipality":{"key":"01057062","name":"Preetz, Stadt","type":"Stadt"},"district":{"key":"01057","name":"Plön","type":"Kreis"},"federalState":{"key":"01","name":"Schleswig-Holstein"}},{"name":"Marienburgstr.","postalCode":"24211","locality":"Preetz","municipality":{"key":"01057062","name":"Preetz, Stadt","type":"Stadt"},"district":{"key":"01057","name":"Plön","type":"Kreis"},"federalState":{"key":"01","name":"Schleswig-Holstein"}},{"name":"Markt","postalCode":"24211","locality":"Preetz","municipality":{"key":"01057062","name":"Preetz, Stadt","type":"Stadt"},"district":{"key":"01057","name":"Plön","type":"Kreis"},"federalState":{"key":"01","name":"Schleswig-Holstein"}},{"name":"Matthias-Claudius-Str.","postalCode":"24211","locality":"Preetz","municipality":{"key":"01057062","name":"Preetz, Stadt","type":"Stadt"},"district":{"key":"01057","name":"Plön","type":"Kreis"},"federalState":{"key":"01","name":"Schleswig-Holstein"}},{"name":"Max-Planck-Str.","postalCode":"24211","locality":"Preetz","municipality":{"key":"01057062","name":"Preetz, Stadt","type":"Stadt"},"district":{"key":"01057","name":"Plön","type":"Kreis"},"federalState":{"key":"01","name":"Schleswig-Holstein"}},{"name":"Memeler Str.","postalCode":"24211","locality":"Preetz","municipality":{"key":"01057062","name":"Preetz, Stadt","type":"Stadt"},"district":{"key":"01057","name":"Plön","type":"Kreis"},"federalState":{"key":"01","name":"Schleswig-Holstein"}},{"name":"Moorkoppel","postalCode":"24211","locality":"Preetz","municipality":{"key":"01057062","name":"Preetz, Stadt","type":"Stadt"},"district":{"key":"01057","name":"Plön","type":"Kreis"},"federalState":{"key":"01","name":"Schleswig-Holstein"}},{"name":"Moorweg","postalCode":"24211","locality":"Preetz","municipality":{"key":"01057062","name":"Preetz, Stadt","type":"Stadt"},"district":{"key":"01057","name":"Plön","type":"Kreis"},"federalState":{"key":"01","name":"Schleswig-Holstein"}},{"name":"Moritz-Schreber-Str.","postalCode":"24211","locality":"Preetz","municipality":{"key":"01057062","name":"Preetz, Stadt","type":"Stadt"},"district":{"key":"01057","name":"Plön","type":"Kreis"},"federalState":{"key":"01","name":"Schleswig-Holstein"}},{"name":"Moseweg","postalCode":"24211","locality":"Preetz","municipality":{"key":"01057062","name":"Preetz, Stadt","type":"Stadt"},"district":{"key":"01057","name":"Plön","type":"Kreis"},"federalState":{"key":"01","name":"Schleswig-Holstein"}},{"name":"Möwenstieg","postalCode":"24211","locality":"Preetz","municipality":{"key":"01057062","name":"Preetz, Stadt","type":"Stadt"},"district":{"key":"01057","name":"Plön","type":"Kreis"},"federalState":{"key":"01","name":"Schleswig-Holstein"}},{"name":"Mühlenaupark","postalCode":"24211","locality":"Preetz","municipality":{"key":"01057062","name":"Preetz, Stadt","type":"Stadt"},"district":{"key":"01057","name":"Plön","type":"Kreis"},"federalState":{"key":"01","name":"Schleswig-Holstein"}},{"name":"Mühlenberg","postalCode":"24211","locality":"Preetz","municipality":{"key":"01057062","name":"Preetz, Stadt","type":"Stadt"},"district":{"key":"01057","name":"Plön","type":"Kreis"},"federalState":{"key":"01","name":"Schleswig-Holstein"}},{"name":"Mühlenstr.","postalCode":"24211","locality":"Preetz","municipality":{"key":"01057062","name":"Preetz, Stadt","type":"Stadt"},"district":{"key":"01057","name":"Plön","type":"Kreis"},"federalState":{"key":"01","name":"Schleswig-Holstein"}},{"name":"Mühlenweg","postalCode":"24211","locality":"Preetz","municipality":{"key":"01057062","name":"Preetz, Stadt","type":"Stadt"},"district":{"key":"01057","name":"Plön","type":"Kreis"},"federalState":{"key":"01","name":"Schleswig-Holstein"}},{"name":"Nachtkoppelweg","postalCode":"24211","locality":"Preetz","municipality":{"key":"01057062","name":"Preetz, Stadt","type":"Stadt"},"district":{"key":"01057","name":"Plön","type":"Kreis"},"federalState":{"key":"01","name":"Schleswig-Holstein"}},{"name":"Nettelseer Str.","postalCode":"24211","locality":"Preetz","municipality":{"key":"01057062","name":"Preetz, Stadt","type":"Stadt"},"district":{"key":"01057","name":"Plön","type":"Kreis"},"federalState":{"key":"01","name":"Schleswig-Holstein"}},{"name":"Neue Str.","postalCode":"18445","locality":"Preetz","municipality":{"key":"13073066","name":"Preetz","type":"Kreisangehörige_Gemeinde"},"district":{"key":"13073","name":"Vorpommern-Rügen","type":"Landkreis"},"federalState":{"key":"13","name":"Mecklenburg-Vorpommern"}},{"name":"Oldendorf-Dorfstr.","postalCode":"18445","locality":"Preetz","municipality":{"key":"13073066","name":"Preetz","type":"Kreisangehörige_Gemeinde"},"district":{"key":"13073","name":"Vorpommern-Rügen","type":"Landkreis"},"federalState":{"key":"13","name":"Mecklenburg-Vorpommern"}},{"name":"Ostlandstr.","postalCode":"24211","locality":"Preetz","municipality":{"key":"01057062","name":"Preetz, Stadt","type":"Stadt"},"district":{"key":"01057","name":"Plön","type":"Kreis"},"federalState":{"key":"01","name":"Schleswig-Holstein"}},{"name":"Otto-Hahn-Str.","postalCode":"24211","locality":"Preetz","municipality":{"key":"01057062","name":"Preetz, Stadt","type":"Stadt"},"district":{"key":"01057","name":"Plön","type":"Kreis"},"federalState":{"key":"01","name":"Schleswig-Holstein"}},{"name":"Pabststr.","postalCode":"24211","locality":"Preetz","municipality":{"key":"01057062","name":"Preetz, Stadt","type":"Stadt"},"district":{"key":"01057","name":"Plön","type":"Kreis"},"federalState":{"key":"01","name":"Schleswig-Holstein"}},{"name":"Parkweg","postalCode":"24211","locality":"Preetz","municipality":{"key":"01057062","name":"Preetz, Stadt","type":"Stadt"},"district":{"key":"01057","name":"Plön","type":"Kreis"},"federalState":{"key":"01","name":"Schleswig-Holstein"}},{"name":"Paul-Jacob-Bruns-Weg","postalCode":"24211","locality":"Preetz","municipality":{"key":"01057062","name":"Preetz, Stadt","type":"Stadt"},"district":{"key":"01057","name":"Plön","type":"Kreis"},"federalState":{"key":"01","name":"Schleswig-Holstein"}},{"name":"Pirolweg","postalCode":"24211","locality":"Preetz","municipality":{"key":"01057062","name":"Preetz, Stadt","type":"Stadt"},"district":{"key":"01057","name":"Plön","type":"Kreis"},"federalState":{"key":"01","name":"Schleswig-Holstein"}},{"name":"Platenstr.","postalCode":"24211","locality":"Preetz","municipality":{"key":"01057062","name":"Preetz, Stadt","type":"Stadt"},"district":{"key":"01057","name":"Plön","type":"Kreis"},"federalState":{"key":"01","name":"Schleswig-Holstein"}},{"name":"Pohnsdorfer Str.","postalCode":"24211","locality":"Preetz","municipality":{"key":"01057062","name":"Preetz, Stadt","type":"Stadt"},"district":{"key":"01057","name":"Plön","type":"Kreis"},"federalState":{"key":"01","name":"Schleswig-Holstein"}},{"name":"Postfelder Weg","postalCode":"24211","locality":"Preetz","municipality":{"key":"01057062","name":"Preetz, Stadt","type":"Stadt"},"district":{"key":"01057","name":"Plön","type":"Kreis"},"federalState":{"key":"01","name":"Schleswig-Holstein"}},{"name":"Preetz-Dorfstr.","postalCode":"18445","locality":"Preetz","municipality":{"key":"13073066","name":"Preetz","type":"Kreisangehörige_Gemeinde"},"district":{"key":"13073","name":"Vorpommern-Rügen","type":"Landkreis"},"federalState":{"key":"13","name":"Mecklenburg-Vorpommern"}},{"name":"Quergang","postalCode":"24211","locality":"Preetz","municipality":{"key":"01057062","name":"Preetz, Stadt","type":"Stadt"},"district":{"key":"01057","name":"Plön","type":"Kreis"},"federalState":{"key":"01","name":"Schleswig-Holstein"}},{"name":"Quisdorfweg","postalCode":"24211","locality":"Preetz","municipality":{"key":"01057062","name":"Preetz, Stadt","type":"Stadt"},"district":{"key":"01057","name":"Plön","type":"Kreis"},"federalState":{"key":"01","name":"Schleswig-Holstein"}},{"name":"Ragniter Ring","postalCode":"24211","locality":"Preetz","municipality":{"key":"01057062","name":"Preetz, Stadt","type":"Stadt"},"district":{"key":"01057","name":"Plön","type":"Kreis"},"federalState":{"key":"01","name":"Schleswig-Holstein"}},{"name":"Raiffeisenstr.","postalCode":"24211","locality":"Preetz","municipality":{"key":"01057062","name":"Preetz, Stadt","type":"Stadt"},"district":{"key":"01057","name":"Plön","type":"Kreis"},"federalState":{"key":"01","name":"Schleswig-Holstein"}},{"name":"Rastorfer Str.","postalCode":"24211","locality":"Preetz","municipality":{"key":"01057062","name":"Preetz, Stadt","type":"Stadt"},"district":{"key":"01057","name":"Plön","type":"Kreis"},"federalState":{"key":"01","name":"Schleswig-Holstein"}},{"name":"Rehwinkel","postalCode":"24211","locality":"Preetz","municipality":{"key":"01057062","name":"Preetz, Stadt","type":"Stadt"},"district":{"key":"01057","name":"Plön","type":"Kreis"},"federalState":{"key":"01","name":"Schleswig-Holstein"}},{"name":"Reiherstieg","postalCode":"24211","locality":"Preetz","municipality":{"key":"01057062","name":"Preetz, Stadt","type":"Stadt"},"district":{"key":"01057","name":"Plön","type":"Kreis"},"federalState":{"key":"01","name":"Schleswig-Holstein"}},{"name":"Renzer Str.","postalCode":"24211","locality":"Preetz","municipality":{"key":"01057062","name":"Preetz, Stadt","type":"Stadt"},"district":{"key":"01057","name":"Plön","type":"Kreis"},"federalState":{"key":"01","name":"Schleswig-Holstein"}},{"name":"Rethwischer Weg","postalCode":"24211","locality":"Preetz","municipality":{"key":"01057062","name":"Preetz, Stadt","type":"Stadt"},"district":{"key":"01057","name":"Plön","type":"Kreis"},"federalState":{"key":"01","name":"Schleswig-Holstein"}},{"name":"Reuterstr.","postalCode":"24211","locality":"Preetz","municipality":{"key":"01057062","name":"Preetz, Stadt","type":"Stadt"},"district":{"key":"01057","name":"Plön","type":"Kreis"},"federalState":{"key":"01","name":"Schleswig-Holstein"}},{"name":"Richard-Haupt-Weg","postalCode":"24211","locality":"Preetz","municipality":{"key":"01057062","name":"Preetz, Stadt","type":"Stadt"},"district":{"key":"01057","name":"Plön","type":"Kreis"},"federalState":{"key":"01","name":"Schleswig-Holstein"}},{"name":"Richter-Haardt-Brücke","postalCode":"24211","locality":"Preetz","municipality":{"key":"01057062","name":"Preetz, Stadt","type":"Stadt"},"district":{"key":"01057","name":"Plön","type":"Kreis"},"federalState":{"key":"01","name":"Schleswig-Holstein"}},{"name":"Ringstr.","postalCode":"18445","locality":"Preetz","municipality":{"key":"13073066","name":"Preetz","type":"Kreisangehörige_Gemeinde"},"district":{"key":"13073","name":"Vorpommern-Rügen","type":"Landkreis"},"federalState":{"key":"13","name":"Mecklenburg-Vorpommern"}},{"name":"Robert-Bosch-Weg","postalCode":"24211","locality":"Preetz","municipality":{"key":"01057062","name":"Preetz, Stadt","type":"Stadt"},"district":{"key":"01057","name":"Plön","type":"Kreis"},"federalState":{"key":"01","name":"Schleswig-Holstein"}},{"name":"Rosenstr.","postalCode":"24211","locality":"Preetz","municipality":{"key":"01057062","name":"Preetz, Stadt","type":"Stadt"},"district":{"key":"01057","name":"Plön","type":"Kreis"},"federalState":{"key":"01","name":"Schleswig-Holstein"}},{"name":"Sandberg","postalCode":"24211","locality":"Preetz","municipality":{"key":"01057062","name":"Preetz, Stadt","type":"Stadt"},"district":{"key":"01057","name":"Plön","type":"Kreis"},"federalState":{"key":"01","name":"Schleswig-Holstein"}},{"name":"Sandkuhle","postalCode":"24211","locality":"Preetz","municipality":{"key":"01057062","name":"Preetz, Stadt","type":"Stadt"},"district":{"key":"01057","name":"Plön","type":"Kreis"},"federalState":{"key":"01","name":"Schleswig-Holstein"}},{"name":"Scheeleweg","postalCode":"24211","locality":"Preetz","municipality":{"key":"01057062","name":"Preetz, Stadt","type":"Stadt"},"district":{"key":"01057","name":"Plön","type":"Kreis"},"federalState":{"key":"01","name":"Schleswig-Holstein"}},{"name":"Schellhorner Str.","postalCode":"24211","locality":"Preetz","municipality":{"key":"01057062","name":"Preetz, Stadt","type":"Stadt"},"district":{"key":"01057","name":"Plön","type":"Kreis"},"federalState":{"key":"01","name":"Schleswig-Holstein"}},{"name":"Schloßpark","postalCode":"18445","locality":"Preetz","municipality":{"key":"13073066","name":"Preetz","type":"Kreisangehörige_Gemeinde"},"district":{"key":"13073","name":"Vorpommern-Rügen","type":"Landkreis"},"federalState":{"key":"13","name":"Mecklenburg-Vorpommern"}},{"name":"Schoolredder","postalCode":"24211","locality":"Preetz","municipality":{"key":"01057062","name":"Preetz, Stadt","type":"Stadt"},"district":{"key":"01057","name":"Plön","type":"Kreis"},"federalState":{"key":"01","name":"Schleswig-Holstein"}},{"name":"Schostergang","postalCode":"24211","locality":"Preetz","municipality":{"key":"01057062","name":"Preetz, Stadt","type":"Stadt"},"district":{"key":"01057","name":"Plön","type":"Kreis"},"federalState":{"key":"01","name":"Schleswig-Holstein"}},{"name":"Schulstr.","postalCode":"24211","locality":"Preetz","municipality":{"key":"01057062","name":"Preetz, Stadt","type":"Stadt"},"district":{"key":"01057","name":"Plön","type":"Kreis"},"federalState":{"key":"01","name":"Schleswig-Holstein"}},{"name":"Schwanenweg","postalCode":"24211","locality":"Preetz","municipality":{"key":"01057062","name":"Preetz, Stadt","type":"Stadt"},"district":{"key":"01057","name":"Plön","type":"Kreis"},"federalState":{"key":"01","name":"Schleswig-Holstein"}},{"name":"Schwebstöcken","postalCode":"24211","locality":"Preetz","municipality":{"key":"01057062","name":"Preetz, Stadt","type":"Stadt"},"district":{"key":"01057","name":"Plön","type":"Kreis"},"federalState":{"key":"01","name":"Schleswig-Holstein"}},{"name":"Schwentinestr.","postalCode":"24211","locality":"Preetz","municipality":{"key":"01057062","name":"Preetz, Stadt","type":"Stadt"},"district":{"key":"01057","name":"Plön","type":"Kreis"},"federalState":{"key":"01","name":"Schleswig-Holstein"}},{"name":"Seeblick","postalCode":"24211","locality":"Preetz","municipality":{"key":"01057062","name":"Preetz, Stadt","type":"Stadt"},"district":{"key":"01057","name":"Plön","type":"Kreis"},"federalState":{"key":"01","name":"Schleswig-Holstein"}},{"name":"Seestr.","postalCode":"24211","locality":"Preetz","municipality":{"key":"01057062","name":"Preetz, Stadt","type":"Stadt"},"district":{"key":"01057","name":"Plön","type":"Kreis"},"federalState":{"key":"01","name":"Schleswig-Holstein"}},{"name":"Serrig-Weg","postalCode":"24211","locality":"Preetz","municipality":{"key":"01057062","name":"Preetz, Stadt","type":"Stadt"},"district":{"key":"01057","name":"Plön","type":"Kreis"},"federalState":{"key":"01","name":"Schleswig-Holstein"}},{"name":"Sonderburger Str.","postalCode":"24211","locality":"Preetz","municipality":{"key":"01057062","name":"Preetz, Stadt","type":"Stadt"},"district":{"key":"01057","name":"Plön","type":"Kreis"},"federalState":{"key":"01","name":"Schleswig-Holstein"}},{"name":"Spatzenweg","postalCode":"24211","locality":"Preetz","municipality":{"key":"01057062","name":"Preetz, Stadt","type":"Stadt"},"district":{"key":"01057","name":"Plön","type":"Kreis"},"federalState":{"key":"01","name":"Schleswig-Holstein"}},{"name":"Spreewaldweg","postalCode":"24211","locality":"Preetz","municipality":{"key":"01057062","name":"Preetz, Stadt","type":"Stadt"},"district":{"key":"01057","name":"Plön","type":"Kreis"},"federalState":{"key":"01","name":"Schleswig-Holstein"}},{"name":"Stavenhagener Str.","postalCode":"24211","locality":"Preetz","municipality":{"key":"01057062","name":"Preetz, Stadt","type":"Stadt"},"district":{"key":"01057","name":"Plön","type":"Kreis"},"federalState":{"key":"01","name":"Schleswig-Holstein"}},{"name":"Stettiner Str.","postalCode":"24211","locality":"Preetz","municipality":{"key":"01057062","name":"Preetz, Stadt","type":"Stadt"},"district":{"key":"01057","name":"Plön","type":"Kreis"},"federalState":{"key":"01","name":"Schleswig-Holstein"}},{"name":"Storchengang","postalCode":"18445","locality":"Preetz","municipality":{"key":"13073066","name":"Preetz","type":"Kreisangehörige_Gemeinde"},"district":{"key":"13073","name":"Vorpommern-Rügen","type":"Landkreis"},"federalState":{"key":"13","name":"Mecklenburg-Vorpommern"}},{"name":"Stralsunder Str.","postalCode":"18445","locality":"Preetz","municipality":{"key":"13073066","name":"Preetz","type":"Kreisangehörige_Gemeinde"},"district":{"key":"13073","name":"Vorpommern-Rügen","type":"Landkreis"},"federalState":{"key":"13","name":"Mecklenburg-Vorpommern"}},{"name":"Stresemannstr.","postalCode":"24211","locality":"Preetz","municipality":{"key":"01057062","name":"Preetz, Stadt","type":"Stadt"},"district":{"key":"01057","name":"Plön","type":"Kreis"},"federalState":{"key":"01","name":"Schleswig-Holstein"}},{"name":"Sudetenstr.","postalCode":"24211","locality":"Preetz","municipality":{"key":"01057062","name":"Preetz, Stadt","type":"Stadt"},"district":{"key":"01057","name":"Plön","type":"Kreis"},"federalState":{"key":"01","name":"Schleswig-Holstein"}},{"name":"Tapastr.","postalCode":"24211","locality":"Preetz","municipality":{"key":"01057062","name":"Preetz, Stadt","type":"Stadt"},"district":{"key":"01057","name":"Plön","type":"Kreis"},"federalState":{"key":"01","name":"Schleswig-Holstein"}},{"name":"Theodor-Storm-Str.","postalCode":"24211","locality":"Preetz","municipality":{"key":"01057062","name":"Preetz, Stadt","type":"Stadt"},"district":{"key":"01057","name":"Plön","type":"Kreis"},"federalState":{"key":"01","name":"Schleswig-Holstein"}},{"name":"Thomas-Mann-Str.","postalCode":"24211","locality":"Preetz","municipality":{"key":"01057062","name":"Preetz, Stadt","type":"Stadt"},"district":{"key":"01057","name":"Plön","type":"Kreis"},"federalState":{"key":"01","name":"Schleswig-Holstein"}},{"name":"Tonderner Str.","postalCode":"24211","locality":"Preetz","municipality":{"key":"01057062","name":"Preetz, Stadt","type":"Stadt"},"district":{"key":"01057","name":"Plön","type":"Kreis"},"federalState":{"key":"01","name":"Schleswig-Holstein"}},{"name":"Torrundstr.","postalCode":"24211","locality":"Preetz","municipality":{"key":"01057062","name":"Preetz, Stadt","type":"Stadt"},"district":{"key":"01057","name":"Plön","type":"Kreis"},"federalState":{"key":"01","name":"Schleswig-Holstein"}},{"name":"Truberg","postalCode":"24211","locality":"Preetz","municipality":{"key":"01057062","name":"Preetz, Stadt","type":"Stadt"},"district":{"key":"01057","name":"Plön","type":"Kreis"},"federalState":{"key":"01","name":"Schleswig-Holstein"}},{"name":"Uferweg","postalCode":"24211","locality":"Preetz","municipality":{"key":"01057062","name":"Preetz, Stadt","type":"Stadt"},"district":{"key":"01057","name":"Plön","type":"Kreis"},"federalState":{"key":"01","name":"Schleswig-Holstein"}},{"name":"Urnenweg","postalCode":"24211","locality":"Preetz","municipality":{"key":"01057062","name":"Preetz, Stadt","type":"Stadt"},"district":{"key":"01057","name":"Plön","type":"Kreis"},"federalState":{"key":"01","name":"Schleswig-Holstein"}},{"name":"Vierbrooks Redder","postalCode":"24211","locality":"Preetz","municipality":{"key":"01057062","name":"Preetz, Stadt","type":"Stadt"},"district":{"key":"01057","name":"Plön","type":"Kreis"},"federalState":{"key":"01","name":"Schleswig-Holstein"}},{"name":"Vogelweide","postalCode":"24211","locality":"Preetz","municipality":{"key":"01057062","name":"Preetz, Stadt","type":"Stadt"},"district":{"key":"01057","name":"Plön","type":"Kreis"},"federalState":{"key":"01","name":"Schleswig-Holstein"}},{"name":"Vogelwiese","postalCode":"18445","locality":"Preetz","municipality":{"key":"13073066","name":"Preetz","type":"Kreisangehörige_Gemeinde"},"district":{"key":"13073","name":"Vorpommern-Rügen","type":"Landkreis"},"federalState":{"key":"13","name":"Mecklenburg-Vorpommern"}},{"name":"Von-Liliencron-Str.","postalCode":"24211","locality":"Preetz","municipality":{"key":"01057062","name":"Preetz, Stadt","type":"Stadt"},"district":{"key":"01057","name":"Plön","type":"Kreis"},"federalState":{"key":"01","name":"Schleswig-Holstein"}},{"name":"Von-Reventlou-Weg","postalCode":"24211","locality":"Preetz","municipality":{"key":"01057062","name":"Preetz, Stadt","type":"Stadt"},"district":{"key":"01057","name":"Plön","type":"Kreis"},"federalState":{"key":"01","name":"Schleswig-Holstein"}},{"name":"Voßstr.","postalCode":"24211","locality":"Preetz","municipality":{"key":"01057062","name":"Preetz, Stadt","type":"Stadt"},"district":{"key":"01057","name":"Plön","type":"Kreis"},"federalState":{"key":"01","name":"Schleswig-Holstein"}},{"name":"Wacholderweg","postalCode":"24211","locality":"Preetz","municipality":{"key":"01057062","name":"Preetz, Stadt","type":"Stadt"},"district":{"key":"01057","name":"Plön","type":"Kreis"},"federalState":{"key":"01","name":"Schleswig-Holstein"}},{"name":"Wakendorfer Str.","postalCode":"24211","locality":"Preetz","municipality":{"key":"01057062","name":"Preetz, Stadt","type":"Stadt"},"district":{"key":"01057","name":"Plön","type":"Kreis"},"federalState":{"key":"01","name":"Schleswig-Holstein"}},{"name":"Waldweg","postalCode":"24211","locality":"Preetz","municipality":{"key":"01057062","name":"Preetz, Stadt","type":"Stadt"},"district":{"key":"01057","name":"Plön","type":"Kreis"},"federalState":{"key":"01","name":"Schleswig-Holstein"}},{"name":"Weberstr.","postalCode":"24211","locality":"Preetz","municipality":{"key":"01057062","name":"Preetz, Stadt","type":"Stadt"},"district":{"key":"01057","name":"Plön","type":"Kreis"},"federalState":{"key":"01","name":"Schleswig-Holstein"}},{"name":"Weg im Dorfe","postalCode":"18445","locality":"Preetz","municipality":{"key":"13073066","name":"Preetz","type":"Kreisangehörige_Gemeinde"},"district":{"key":"13073","name":"Vorpommern-Rügen","type":"Landkreis"},"federalState":{"key":"13","name":"Mecklenburg-Vorpommern"}},{"name":"Weg von Schmedshagen nach Krönnevitz","postalCode":"18445","locality":"Preetz","municipality":{"key":"13073066","name":"Preetz","type":"Kreisangehörige_Gemeinde"},"district":{"key":"13073","name":"Vorpommern-Rügen","type":"Landkreis"},"federalState":{"key":"13","name":"Mecklenburg-Vorpommern"}},{"name":"Weg zum Tannenkamp","postalCode":"18445","locality":"Preetz","municipality":{"key":"13073066","name":"Preetz","type":"Kreisangehörige_Gemeinde"},"district":{"key":"13073","name":"Vorpommern-Rügen","type":"Landkreis"},"federalState":{"key":"13","name":"Mecklenburg-Vorpommern"}},{"name":"Weidenbruch","postalCode":"24211","locality":"Preetz","municipality":{"key":"01057062","name":"Preetz, Stadt","type":"Stadt"},"district":{"key":"01057","name":"Plön","type":"Kreis"},"federalState":{"key":"01","name":"Schleswig-Holstein"}},{"name":"Wienkenredder","postalCode":"24211","locality":"Preetz","municipality":{"key":"01057062","name":"Preetz, Stadt","type":"Stadt"},"district":{"key":"01057","name":"Plön","type":"Kreis"},"federalState":{"key":"01","name":"Schleswig-Holstein"}},{"name":"Wilhelminenstr.","postalCode":"24211","locality":"Preetz","municipality":{"key":"01057062","name":"Preetz, Stadt","type":"Stadt"},"district":{"key":"01057","name":"Plön","type":"Kreis"},"federalState":{"key":"01","name":"Schleswig-Holstein"}},{"name":"Wilhelm-Raabe-Str.","postalCode":"24211","locality":"Preetz","municipality":{"key":"01057062","name":"Preetz, Stadt","type":"Stadt"},"district":{"key":"01057","name":"Plön","type":"Kreis"},"federalState":{"key":"01","name":"Schleswig-Holstein"}},{"name":"Wischhofredder","postalCode":"24211","locality":"Preetz","municipality":{"key":"01057062","name":"Preetz, Stadt","type":"Stadt"},"district":{"key":"01057","name":"Plön","type":"Kreis"},"federalState":{"key":"01","name":"Schleswig-Holstein"}},{"name":"Wischkamp","postalCode":"24211","locality":"Preetz","municipality":{"key":"01057062","name":"Preetz, Stadt","type":"Stadt"},"district":{"key":"01057","name":"Plön","type":"Kreis"},"federalState":{"key":"01","name":"Schleswig-Holstein"}},{"name":"Zappenweg","postalCode":"24211","locality":"Preetz","municipality":{"key":"01057062","name":"Preetz, Stadt","type":"Stadt"},"district":{"key":"01057","name":"Plön","type":"Kreis"},"federalState":{"key":"01","name":"Schleswig-Holstein"}},{"name":"Ölmühlenallee","postalCode":"24306","locality":"Plön","municipality":{"key":"01057057","name":"Plön, Stadt","type":"Stadt"},"district":{"key":"01057","name":"Plön","type":"Kreis"},"federalState":{"key":"01","name":"Schleswig-Holstein"}},{"name":"Övelgönne","postalCode":"24306","locality":"Plön","municipality":{"key":"01057057","name":"Plön, Stadt","type":"Stadt"},"district":{"key":"01057","name":"Plön","type":"Kreis"},"federalState":{"key":"01","name":"Schleswig-Holstein"}},]