[{"name":"Am Anger","postalCode":"93497","locality":"Willmering","municipality":{"key":"09372175","name":"Willmering","type":"Kreisangehörige_Gemeinde"},"district":{"key":"09372","name":"Cham","type":"Landkreis"},"federalState":{"key":"09","name":"Bayern"}},{"name":"Am Bahndamm","postalCode":"93497","locality":"Willmering","municipality":{"key":"09372175","name":"Willmering","type":"Kreisangehörige_Gemeinde"},"district":{"key":"09372","name":"Cham","type":"Landkreis"},"federalState":{"key":"09","name":"Bayern"}},{"name":"Am Brücklfeld","postalCode":"93497","locality":"Willmering","municipality":{"key":"09372175","name":"Willmering","type":"Kreisangehörige_Gemeinde"},"district":{"key":"09372","name":"Cham","type":"Landkreis"},"federalState":{"key":"09","name":"Bayern"}},{"name":"Am Groitlfeld","postalCode":"93497","locality":"Willmering","municipality":{"key":"09372175","name":"Willmering","type":"Kreisangehörige_Gemeinde"},"district":{"key":"09372","name":"Cham","type":"Landkreis"},"federalState":{"key":"09","name":"Bayern"}},{"name":"Am Hochfeld","postalCode":"93497","locality":"Willmering","municipality":{"key":"09372175","name":"Willmering","type":"Kreisangehörige_Gemeinde"},"district":{"key":"09372","name":"Cham","type":"Landkreis"},"federalState":{"key":"09","name":"Bayern"}},{"name":"Am Kindergarten","postalCode":"93497","locality":"Willmering","municipality":{"key":"09372175","name":"Willmering","type":"Kreisangehörige_Gemeinde"},"district":{"key":"09372","name":"Cham","type":"Landkreis"},"federalState":{"key":"09","name":"Bayern"}},{"name":"Am Mühlweier","postalCode":"93497","locality":"Willmering","municipality":{"key":"09372175","name":"Willmering","type":"Kreisangehörige_Gemeinde"},"district":{"key":"09372","name":"Cham","type":"Landkreis"},"federalState":{"key":"09","name":"Bayern"}},{"name":"Am Wasserlauf","postalCode":"93497","locality":"Willmering","municipality":{"key":"09372175","name":"Willmering","type":"Kreisangehörige_Gemeinde"},"district":{"key":"09372","name":"Cham","type":"Landkreis"},"federalState":{"key":"09","name":"Bayern"}},{"name":"Bachstr.","postalCode":"93497","locality":"Willmering","municipality":{"key":"09372175","name":"Willmering","type":"Kreisangehörige_Gemeinde"},"district":{"key":"09372","name":"Cham","type":"Landkreis"},"federalState":{"key":"09","name":"Bayern"}},{"name":"Bergstr.","postalCode":"93497","locality":"Willmering","municipality":{"key":"09372175","name":"Willmering","type":"Kreisangehörige_Gemeinde"},"district":{"key":"09372","name":"Cham","type":"Landkreis"},"federalState":{"key":"09","name":"Bayern"}},{"name":"Birkenstr.","postalCode":"93497","locality":"Willmering","municipality":{"key":"09372175","name":"Willmering","type":"Kreisangehörige_Gemeinde"},"district":{"key":"09372","name":"Cham","type":"Landkreis"},"federalState":{"key":"09","name":"Bayern"}},{"name":"Brennet","postalCode":"93497","locality":"Willmering","municipality":{"key":"09372175","name":"Willmering","type":"Kreisangehörige_Gemeinde"},"district":{"key":"09372","name":"Cham","type":"Landkreis"},"federalState":{"key":"09","name":"Bayern"}},{"name":"Chamer Str.","postalCode":"93497","locality":"Willmering","municipality":{"key":"09372175","name":"Willmering","type":"Kreisangehörige_Gemeinde"},"district":{"key":"09372","name":"Cham","type":"Landkreis"},"federalState":{"key":"09","name":"Bayern"}},{"name":"Danziger Str.","postalCode":"93413","locality":"Cham","municipality":{"key":"09372116","name":"Cham, St","type":"Stadt"},"district":{"key":"09372","name":"Cham","type":"Landkreis"},"federalState":{"key":"09","name":"Bayern"}},{"name":"Dorfanger","postalCode":"93466","locality":"Chamerau","municipality":{"key":"09372117","name":"Chamerau","type":"Kreisangehörige_Gemeinde"},"district":{"key":"09372","name":"Cham","type":"Landkreis"},"federalState":{"key":"09","name":"Bayern"}},{"name":"Dorfstr.","postalCode":"93413","locality":"Cham","municipality":{"key":"09372116","name":"Cham, St","type":"Stadt"},"district":{"key":"09372","name":"Cham","type":"Landkreis"},"federalState":{"key":"09","name":"Bayern"}},{"name":"Dr.-Hermann-Lagally-Str.","postalCode":"93413","locality":"Cham","municipality":{"key":"09372116","name":"Cham, St","type":"Stadt"},"district":{"key":"09372","name":"Cham","type":"Landkreis"},"federalState":{"key":"09","name":"Bayern"}},{"name":"Dr.-Karl-Stern-Str.","postalCode":"93413","locality":"Cham","municipality":{"key":"09372116","name":"Cham, St","type":"Stadt"},"district":{"key":"09372","name":"Cham","type":"Landkreis"},"federalState":{"key":"09","name":"Bayern"}},{"name":"Dr.-Muggenthaler-Str.","postalCode":"93413","locality":"Cham","municipality":{"key":"09372116","name":"Cham, St","type":"Stadt"},"district":{"key":"09372","name":"Cham","type":"Landkreis"},"federalState":{"key":"09","name":"Bayern"}},{"name":"Drosselstr.","postalCode":"93413","locality":"Cham","municipality":{"key":"09372116","name":"Cham, St","type":"Stadt"},"district":{"key":"09372","name":"Cham","type":"Landkreis"},"federalState":{"key":"09","name":"Bayern"}},{"name":"Dr.-Valentin-Koch-Str.","postalCode":"93413","locality":"Cham","municipality":{"key":"09372116","name":"Cham, St","type":"Stadt"},"district":{"key":"09372","name":"Cham","type":"Landkreis"},"federalState":{"key":"09","name":"Bayern"}},{"name":"Ehrenhain","postalCode":"93413","locality":"Cham","municipality":{"key":"09372116","name":"Cham, St","type":"Stadt"},"district":{"key":"09372","name":"Cham","type":"Landkreis"},"federalState":{"key":"09","name":"Bayern"}},{"name":"Eichenstr.","postalCode":"93413","locality":"Cham","municipality":{"key":"09372116","name":"Cham, St","type":"Stadt"},"district":{"key":"09372","name":"Cham","type":"Landkreis"},"federalState":{"key":"09","name":"Bayern"}},{"name":"Elsa-Brandström-Str.","postalCode":"93413","locality":"Cham","municipality":{"key":"09372116","name":"Cham, St","type":"Stadt"},"district":{"key":"09372","name":"Cham","type":"Landkreis"},"federalState":{"key":"09","name":"Bayern"}},{"name":"Emanuelweg","postalCode":"93413","locality":"Cham","municipality":{"key":"09372116","name":"Cham, St","type":"Stadt"},"district":{"key":"09372","name":"Cham","type":"Landkreis"},"federalState":{"key":"09","name":"Bayern"}},{"name":"Erikaweg","postalCode":"93413","locality":"Cham","municipality":{"key":"09372116","name":"Cham, St","type":"Stadt"},"district":{"key":"09372","name":"Cham","type":"Landkreis"},"federalState":{"key":"09","name":"Bayern"}},{"name":"Erlenäckerweg","postalCode":"93413","locality":"Cham","municipality":{"key":"09372116","name":"Cham, St","type":"Stadt"},"district":{"key":"09372","name":"Cham","type":"Landkreis"},"federalState":{"key":"09","name":"Bayern"}},{"name":"Erlenstr.","postalCode":"93413","locality":"Cham","municipality":{"key":"09372116","name":"Cham, St","type":"Stadt"},"district":{"key":"09372","name":"Cham","type":"Landkreis"},"federalState":{"key":"09","name":"Bayern"}},{"name":"Erzdekanatstr.","postalCode":"93413","locality":"Cham","municipality":{"key":"09372116","name":"Cham, St","type":"Stadt"},"district":{"key":"09372","name":"Cham","type":"Landkreis"},"federalState":{"key":"09","name":"Bayern"}},{"name":"Eulenweg","postalCode":"93413","locality":"Cham","municipality":{"key":"09372116","name":"Cham, St","type":"Stadt"},"district":{"key":"09372","name":"Cham","type":"Landkreis"},"federalState":{"key":"09","name":"Bayern"}},{"name":"Flurweg","postalCode":"93497","locality":"Willmering","municipality":{"key":"09372175","name":"Willmering","type":"Kreisangehörige_Gemeinde"},"district":{"key":"09372","name":"Cham","type":"Landkreis"},"federalState":{"key":"09","name":"Bayern"}},{"name":"Föhrenstr.","postalCode":"93497","locality":"Willmering","municipality":{"key":"09372175","name":"Willmering","type":"Kreisangehörige_Gemeinde"},"district":{"key":"09372","name":"Cham","type":"Landkreis"},"federalState":{"key":"09","name":"Bayern"}},{"name":"Gartenstr.","postalCode":"93497","locality":"Willmering","municipality":{"key":"09372175","name":"Willmering","type":"Kreisangehörige_Gemeinde"},"district":{"key":"09372","name":"Cham","type":"Landkreis"},"federalState":{"key":"09","name":"Bayern"}},{"name":"Hauptstr.","postalCode":"93497","locality":"Willmering","municipality":{"key":"09372175","name":"Willmering","type":"Kreisangehörige_Gemeinde"},"district":{"key":"09372","name":"Cham","type":"Landkreis"},"federalState":{"key":"09","name":"Bayern"}},{"name":"Im Quader","postalCode":"93497","locality":"Willmering","municipality":{"key":"09372175","name":"Willmering","type":"Kreisangehörige_Gemeinde"},"district":{"key":"09372","name":"Cham","type":"Landkreis"},"federalState":{"key":"09","name":"Bayern"}},{"name":"Jägerweg","postalCode":"93413","locality":"Cham","municipality":{"key":"09372116","name":"Cham, St","type":"Stadt"},"district":{"key":"09372","name":"Cham","type":"Landkreis"},"federalState":{"key":"09","name":"Bayern"}},{"name":"Jahnetweg","postalCode":"93413","locality":"Cham","municipality":{"key":"09372116","name":"Cham, St","type":"Stadt"},"district":{"key":"09372","name":"Cham","type":"Landkreis"},"federalState":{"key":"09","name":"Bayern"}},{"name":"Jahnstr.","postalCode":"93413","locality":"Cham","municipality":{"key":"09372116","name":"Cham, St","type":"Stadt"},"district":{"key":"09372","name":"Cham","type":"Landkreis"},"federalState":{"key":"09","name":"Bayern"}},{"name":"Jakobstr.","postalCode":"93413","locality":"Cham","municipality":{"key":"09372116","name":"Cham, St","type":"Stadt"},"district":{"key":"09372","name":"Cham","type":"Landkreis"},"federalState":{"key":"09","name":"Bayern"}},{"name":"Janahof","postalCode":"93413","locality":"Cham","municipality":{"key":"09372116","name":"Cham, St","type":"Stadt"},"district":{"key":"09372","name":"Cham","type":"Landkreis"},"federalState":{"key":"09","name":"Bayern"}},{"name":"Janahofer Str.","postalCode":"93413","locality":"Cham","municipality":{"key":"09372116","name":"Cham, St","type":"Stadt"},"district":{"key":"09372","name":"Cham","type":"Landkreis"},"federalState":{"key":"09","name":"Bayern"}},{"name":"Johann-Brunner-Str.","postalCode":"93413","locality":"Cham","municipality":{"key":"09372116","name":"Cham, St","type":"Stadt"},"district":{"key":"09372","name":"Cham","type":"Landkreis"},"federalState":{"key":"09","name":"Bayern"}},{"name":"Josef-Heilingbrunner-Str.","postalCode":"93413","locality":"Cham","municipality":{"key":"09372116","name":"Cham, St","type":"Stadt"},"district":{"key":"09372","name":"Cham","type":"Landkreis"},"federalState":{"key":"09","name":"Bayern"}},{"name":"Josef-Schlicht Str.","postalCode":"93413","locality":"Cham","municipality":{"key":"09372116","name":"Cham, St","type":"Stadt"},"district":{"key":"09372","name":"Cham","type":"Landkreis"},"federalState":{"key":"09","name":"Bayern"}},{"name":"Judenstr.","postalCode":"93413","locality":"Cham","municipality":{"key":"09372116","name":"Cham, St","type":"Stadt"},"district":{"key":"09372","name":"Cham","type":"Landkreis"},"federalState":{"key":"09","name":"Bayern"}},{"name":"Katzbachweg","postalCode":"93497","locality":"Willmering","municipality":{"key":"09372175","name":"Willmering","type":"Kreisangehörige_Gemeinde"},"district":{"key":"09372","name":"Cham","type":"Landkreis"},"federalState":{"key":"09","name":"Bayern"}},{"name":"Lagally-Garten","postalCode":"93413","locality":"Cham","municipality":{"key":"09372116","name":"Cham, St","type":"Stadt"},"district":{"key":"09372","name":"Cham","type":"Landkreis"},"federalState":{"key":"09","name":"Bayern"}},{"name":"Laichstätter Siedlung","postalCode":"93413","locality":"Cham","municipality":{"key":"09372116","name":"Cham, St","type":"Stadt"},"district":{"key":"09372","name":"Cham","type":"Landkreis"},"federalState":{"key":"09","name":"Bayern"}},{"name":"Laichstätter Weg","postalCode":"93413","locality":"Cham","municipality":{"key":"09372116","name":"Cham, St","type":"Stadt"},"district":{"key":"09372","name":"Cham","type":"Landkreis"},"federalState":{"key":"09","name":"Bayern"}},{"name":"Lamberger Weg","postalCode":"93466","locality":"Chamerau","municipality":{"key":"09372117","name":"Chamerau","type":"Kreisangehörige_Gemeinde"},"district":{"key":"09372","name":"Cham","type":"Landkreis"},"federalState":{"key":"09","name":"Bayern"}},{"name":"Lambergweg nach Chamerau","postalCode":"93413","locality":"Cham","municipality":{"key":"09372116","name":"Cham, St","type":"Stadt"},"district":{"key":"09372","name":"Cham","type":"Landkreis"},"federalState":{"key":"09","name":"Bayern"}},{"name":"Lärchenstr.","postalCode":"93466","locality":"Chamerau","municipality":{"key":"09372117","name":"Chamerau","type":"Kreisangehörige_Gemeinde"},"district":{"key":"09372","name":"Cham","type":"Landkreis"},"federalState":{"key":"09","name":"Bayern"}},{"name":"Lärchenwaldstr.","postalCode":"93413","locality":"Cham","municipality":{"key":"09372116","name":"Cham, St","type":"Stadt"},"district":{"key":"09372","name":"Cham","type":"Landkreis"},"federalState":{"key":"09","name":"Bayern"}},{"name":"Lehmweg","postalCode":"93413","locality":"Cham","municipality":{"key":"09372116","name":"Cham, St","type":"Stadt"},"district":{"key":"09372","name":"Cham","type":"Landkreis"},"federalState":{"key":"09","name":"Bayern"}},{"name":"Leitenweg","postalCode":"93413","locality":"Cham","municipality":{"key":"09372116","name":"Cham, St","type":"Stadt"},"district":{"key":"09372","name":"Cham","type":"Landkreis"},"federalState":{"key":"09","name":"Bayern"}},{"name":"Leopoldstr.","postalCode":"93413","locality":"Cham","municipality":{"key":"09372116","name":"Cham, St","type":"Stadt"},"district":{"key":"09372","name":"Cham","type":"Landkreis"},"federalState":{"key":"09","name":"Bayern"}},{"name":"Lerchenstr.","postalCode":"93413","locality":"Cham","municipality":{"key":"09372116","name":"Cham, St","type":"Stadt"},"district":{"key":"09372","name":"Cham","type":"Landkreis"},"federalState":{"key":"09","name":"Bayern"}},{"name":"Loibling","postalCode":"93413","locality":"Cham","municipality":{"key":"09372116","name":"Cham, St","type":"Stadt"},"district":{"key":"09372","name":"Cham","type":"Landkreis"},"federalState":{"key":"09","name":"Bayern"}},{"name":"Loiblinger Str.","postalCode":"93413","locality":"Cham","municipality":{"key":"09372116","name":"Cham, St","type":"Stadt"},"district":{"key":"09372","name":"Cham","type":"Landkreis"},"federalState":{"key":"09","name":"Bayern"}},{"name":"Lucknerstr.","postalCode":"93413","locality":"Cham","municipality":{"key":"09372116","name":"Cham, St","type":"Stadt"},"district":{"key":"09372","name":"Cham","type":"Landkreis"},"federalState":{"key":"09","name":"Bayern"}},{"name":"Ludwigstr.","postalCode":"93413","locality":"Cham","municipality":{"key":"09372116","name":"Cham, St","type":"Stadt"},"district":{"key":"09372","name":"Cham","type":"Landkreis"},"federalState":{"key":"09","name":"Bayern"}},{"name":"Luisenweg","postalCode":"93413","locality":"Cham","municipality":{"key":"09372116","name":"Cham, St","type":"Stadt"},"district":{"key":"09372","name":"Cham","type":"Landkreis"},"federalState":{"key":"09","name":"Bayern"}},{"name":"Lusenweg","postalCode":"93413","locality":"Cham","municipality":{"key":"09372116","name":"Cham, St","type":"Stadt"},"district":{"key":"09372","name":"Cham","type":"Landkreis"},"federalState":{"key":"09","name":"Bayern"}},{"name":"Marderweg","postalCode":"93413","locality":"Cham","municipality":{"key":"09372116","name":"Cham, St","type":"Stadt"},"district":{"key":"09372","name":"Cham","type":"Landkreis"},"federalState":{"key":"09","name":"Bayern"}},{"name":"Marianne-Sauter-Weg","postalCode":"93466","locality":"Chamerau","municipality":{"key":"09372117","name":"Chamerau","type":"Kreisangehörige_Gemeinde"},"district":{"key":"09372","name":"Cham","type":"Landkreis"},"federalState":{"key":"09","name":"Bayern"}},{"name":"Markgraf-Diepold-Str.","postalCode":"93413","locality":"Cham","municipality":{"key":"09372116","name":"Cham, St","type":"Stadt"},"district":{"key":"09372","name":"Cham","type":"Landkreis"},"federalState":{"key":"09","name":"Bayern"}},{"name":"Martinstr.","postalCode":"93413","locality":"Cham","municipality":{"key":"09372116","name":"Cham, St","type":"Stadt"},"district":{"key":"09372","name":"Cham","type":"Landkreis"},"federalState":{"key":"09","name":"Bayern"}},{"name":"Max-Reger-Str.","postalCode":"93413","locality":"Cham","municipality":{"key":"09372116","name":"Cham, St","type":"Stadt"},"district":{"key":"09372","name":"Cham","type":"Landkreis"},"federalState":{"key":"09","name":"Bayern"}},{"name":"Meinzing","postalCode":"93466","locality":"Chamerau","municipality":{"key":"09372117","name":"Chamerau","type":"Kreisangehörige_Gemeinde"},"district":{"key":"09372","name":"Cham","type":"Landkreis"},"federalState":{"key":"09","name":"Bayern"}},{"name":"Meisenweg","postalCode":"93413","locality":"Cham","municipality":{"key":"09372116","name":"Cham, St","type":"Stadt"},"district":{"key":"09372","name":"Cham","type":"Landkreis"},"federalState":{"key":"09","name":"Bayern"}},{"name":"Meranweg","postalCode":"93413","locality":"Cham","municipality":{"key":"09372116","name":"Cham, St","type":"Stadt"},"district":{"key":"09372","name":"Cham","type":"Landkreis"},"federalState":{"key":"09","name":"Bayern"}},{"name":"Michelsdorf","postalCode":"93413","locality":"Cham","municipality":{"key":"09372116","name":"Cham, St","type":"Stadt"},"district":{"key":"09372","name":"Cham","type":"Landkreis"},"federalState":{"key":"09","name":"Bayern"}},{"name":"Mittelweg","postalCode":"93413","locality":"Cham","municipality":{"key":"09372116","name":"Cham, St","type":"Stadt"},"district":{"key":"09372","name":"Cham","type":"Landkreis"},"federalState":{"key":"09","name":"Bayern"}},{"name":"Mitterzellweg","postalCode":"93413","locality":"Cham","municipality":{"key":"09372116","name":"Cham, St","type":"Stadt"},"district":{"key":"09372","name":"Cham","type":"Landkreis"},"federalState":{"key":"09","name":"Bayern"}},{"name":"Moosstr.","postalCode":"93466","locality":"Chamerau","municipality":{"key":"09372117","name":"Chamerau","type":"Kreisangehörige_Gemeinde"},"district":{"key":"09372","name":"Cham","type":"Landkreis"},"federalState":{"key":"09","name":"Bayern"}},{"name":"Mozartstr.","postalCode":"93413","locality":"Cham","municipality":{"key":"09372116","name":"Cham, St","type":"Stadt"},"district":{"key":"09372","name":"Cham","type":"Landkreis"},"federalState":{"key":"09","name":"Bayern"}},{"name":"Mühlbach","postalCode":"93466","locality":"Chamerau","municipality":{"key":"09372117","name":"Chamerau","type":"Kreisangehörige_Gemeinde"},"district":{"key":"09372","name":"Cham","type":"Landkreis"},"federalState":{"key":"09","name":"Bayern"}},{"name":"Mühlweg","postalCode":"93413","locality":"Cham","municipality":{"key":"09372116","name":"Cham, St","type":"Stadt"},"district":{"key":"09372","name":"Cham","type":"Landkreis"},"federalState":{"key":"09","name":"Bayern"}},{"name":"Nariskerstr.","postalCode":"93413","locality":"Cham","municipality":{"key":"09372116","name":"Cham, St","type":"Stadt"},"district":{"key":"09372","name":"Cham","type":"Landkreis"},"federalState":{"key":"09","name":"Bayern"}},{"name":"Nikolaus-Brantl-Weg","postalCode":"93413","locality":"Cham","municipality":{"key":"09372116","name":"Cham, St","type":"Stadt"},"district":{"key":"09372","name":"Cham","type":"Landkreis"},"federalState":{"key":"09","name":"Bayern"}},{"name":"Nordgaustr.","postalCode":"93413","locality":"Cham","municipality":{"key":"09372116","name":"Cham, St","type":"Stadt"},"district":{"key":"09372","name":"Cham","type":"Landkreis"},"federalState":{"key":"09","name":"Bayern"}},{"name":"Nunsting","postalCode":"93413","locality":"Cham","municipality":{"key":"09372116","name":"Cham, St","type":"Stadt"},"district":{"key":"09372","name":"Cham","type":"Landkreis"},"federalState":{"key":"09","name":"Bayern"}},{"name":"Nunstinger Str.","postalCode":"93413","locality":"Cham","municipality":{"key":"09372116","name":"Cham, St","type":"Stadt"},"district":{"key":"09372","name":"Cham","type":"Landkreis"},"federalState":{"key":"09","name":"Bayern"}},{"name":"Obere Regenstr.","postalCode":"93413","locality":"Cham","municipality":{"key":"09372116","name":"Cham, St","type":"Stadt"},"district":{"key":"09372","name":"Cham","type":"Landkreis"},"federalState":{"key":"09","name":"Bayern"}},{"name":"Oberer Holderbühlweg","postalCode":"93413","locality":"Cham","municipality":{"key":"09372116","name":"Cham, St","type":"Stadt"},"district":{"key":"09372","name":"Cham","type":"Landkreis"},"federalState":{"key":"09","name":"Bayern"}},{"name":"Oberer Regenanger","postalCode":"93413","locality":"Cham","municipality":{"key":"09372116","name":"Cham, St","type":"Stadt"},"district":{"key":"09372","name":"Cham","type":"Landkreis"},"federalState":{"key":"09","name":"Bayern"}},{"name":"Obere Schulstr.","postalCode":"93413","locality":"Cham","municipality":{"key":"09372116","name":"Cham, St","type":"Stadt"},"district":{"key":"09372","name":"Cham","type":"Landkreis"},"federalState":{"key":"09","name":"Bayern"}},{"name":"Oberspergerstr.","postalCode":"93413","locality":"Cham","municipality":{"key":"09372116","name":"Cham, St","type":"Stadt"},"district":{"key":"09372","name":"Cham","type":"Landkreis"},"federalState":{"key":"09","name":"Bayern"}},{"name":"Obertraubenbacher Str.","postalCode":"93413","locality":"Cham","municipality":{"key":"09372116","name":"Cham, St","type":"Stadt"},"district":{"key":"09372","name":"Cham","type":"Landkreis"},"federalState":{"key":"09","name":"Bayern"}},{"name":"Odilostr.","postalCode":"93413","locality":"Cham","municipality":{"key":"09372116","name":"Cham, St","type":"Stadt"},"district":{"key":"09372","name":"Cham","type":"Landkreis"},"federalState":{"key":"09","name":"Bayern"}},{"name":"Osserstr.","postalCode":"93413","locality":"Cham","municipality":{"key":"09372116","name":"Cham, St","type":"Stadt"},"district":{"key":"09372","name":"Cham","type":"Landkreis"},"federalState":{"key":"09","name":"Bayern"}},{"name":"Ostmarkstr.","postalCode":"93466","locality":"Chamerau","municipality":{"key":"09372117","name":"Chamerau","type":"Kreisangehörige_Gemeinde"},"district":{"key":"09372","name":"Cham","type":"Landkreis"},"federalState":{"key":"09","name":"Bayern"}},{"name":"Otto-von-Puchberg-Str.","postalCode":"93413","locality":"Cham","municipality":{"key":"09372116","name":"Cham, St","type":"Stadt"},"district":{"key":"09372","name":"Cham","type":"Landkreis"},"federalState":{"key":"09","name":"Bayern"}},{"name":"Prienzing-Siedlung","postalCode":"93497","locality":"Willmering","municipality":{"key":"09372175","name":"Willmering","type":"Kreisangehörige_Gemeinde"},"district":{"key":"09372","name":"Cham","type":"Landkreis"},"federalState":{"key":"09","name":"Bayern"}},{"name":"Prienzing-Tradl","postalCode":"93497","locality":"Willmering","municipality":{"key":"09372175","name":"Willmering","type":"Kreisangehörige_Gemeinde"},"district":{"key":"09372","name":"Cham","type":"Landkreis"},"federalState":{"key":"09","name":"Bayern"}},{"name":"Quadfeldmühle","postalCode":"93413","locality":"Cham","municipality":{"key":"09372116","name":"Cham, St","type":"Stadt"},"district":{"key":"09372","name":"Cham","type":"Landkreis"},"federalState":{"key":"09","name":"Bayern"}},{"name":"Rathausplatz","postalCode":"93497","locality":"Willmering","municipality":{"key":"09372175","name":"Willmering","type":"Kreisangehörige_Gemeinde"},"district":{"key":"09372","name":"Cham","type":"Landkreis"},"federalState":{"key":"09","name":"Bayern"}},{"name":"Rhanwaltinger Weg","postalCode":"93497","locality":"Willmering","municipality":{"key":"09372175","name":"Willmering","type":"Kreisangehörige_Gemeinde"},"district":{"key":"09372","name":"Cham","type":"Landkreis"},"federalState":{"key":"09","name":"Bayern"}},{"name":"Schulstr.","postalCode":"93497","locality":"Willmering","municipality":{"key":"09372175","name":"Willmering","type":"Kreisangehörige_Gemeinde"},"district":{"key":"09372","name":"Cham","type":"Landkreis"},"federalState":{"key":"09","name":"Bayern"}},{"name":"Tannenbergweg","postalCode":"93413","locality":"Cham","municipality":{"key":"09372116","name":"Cham, St","type":"Stadt"},"district":{"key":"09372","name":"Cham","type":"Landkreis"},"federalState":{"key":"09","name":"Bayern"}},{"name":"Tannenweg","postalCode":"93413","locality":"Cham","municipality":{"key":"09372116","name":"Cham, St","type":"Stadt"},"district":{"key":"09372","name":"Cham","type":"Landkreis"},"federalState":{"key":"09","name":"Bayern"}},{"name":"Taubenbühlstr.","postalCode":"93413","locality":"Cham","municipality":{"key":"09372116","name":"Cham, St","type":"Stadt"},"district":{"key":"09372","name":"Cham","type":"Landkreis"},"federalState":{"key":"09","name":"Bayern"}},{"name":"Tiegelgruben","postalCode":"93413","locality":"Cham","municipality":{"key":"09372116","name":"Cham, St","type":"Stadt"},"district":{"key":"09372","name":"Cham","type":"Landkreis"},"federalState":{"key":"09","name":"Bayern"}},{"name":"Tiergartenstr.","postalCode":"93413","locality":"Cham","municipality":{"key":"09372116","name":"Cham, St","type":"Stadt"},"district":{"key":"09372","name":"Cham","type":"Landkreis"},"federalState":{"key":"09","name":"Bayern"}},{"name":"Tilsiter Str.","postalCode":"93413","locality":"Cham","municipality":{"key":"09372116","name":"Cham, St","type":"Stadt"},"district":{"key":"09372","name":"Cham","type":"Landkreis"},"federalState":{"key":"09","name":"Bayern"}},{"name":"Tratweg","postalCode":"93413","locality":"Cham","municipality":{"key":"09372116","name":"Cham, St","type":"Stadt"},"district":{"key":"09372","name":"Cham","type":"Landkreis"},"federalState":{"key":"09","name":"Bayern"}},{"name":"Traubenbergweg","postalCode":"93413","locality":"Cham","municipality":{"key":"09372116","name":"Cham, St","type":"Stadt"},"district":{"key":"09372","name":"Cham","type":"Landkreis"},"federalState":{"key":"09","name":"Bayern"}},{"name":"Triftweg","postalCode":"93413","locality":"Cham","municipality":{"key":"09372116","name":"Cham, St","type":"Stadt"},"district":{"key":"09372","name":"Cham","type":"Landkreis"},"federalState":{"key":"09","name":"Bayern"}},{"name":"Ulmenstr.","postalCode":"93413","locality":"Cham","municipality":{"key":"09372116","name":"Cham, St","type":"Stadt"},"district":{"key":"09372","name":"Cham","type":"Landkreis"},"federalState":{"key":"09","name":"Bayern"}},{"name":"Untere Bachstr.","postalCode":"93466","locality":"Chamerau","municipality":{"key":"09372117","name":"Chamerau","type":"Kreisangehörige_Gemeinde"},"district":{"key":"09372","name":"Cham","type":"Landkreis"},"federalState":{"key":"09","name":"Bayern"}},{"name":"Unterer Altbachweg","postalCode":"93413","locality":"Cham","municipality":{"key":"09372116","name":"Cham, St","type":"Stadt"},"district":{"key":"09372","name":"Cham","type":"Landkreis"},"federalState":{"key":"09","name":"Bayern"}},{"name":"Untere Regenstr.","postalCode":"93413","locality":"Cham","municipality":{"key":"09372116","name":"Cham, St","type":"Stadt"},"district":{"key":"09372","name":"Cham","type":"Landkreis"},"federalState":{"key":"09","name":"Bayern"}},{"name":"Untere Schulstr.","postalCode":"93413","locality":"Cham","municipality":{"key":"09372116","name":"Cham, St","type":"Stadt"},"district":{"key":"09372","name":"Cham","type":"Landkreis"},"federalState":{"key":"09","name":"Bayern"}},{"name":"Untertraubenbach","postalCode":"93413","locality":"Cham","municipality":{"key":"09372116","name":"Cham, St","type":"Stadt"},"district":{"key":"09372","name":"Cham","type":"Landkreis"},"federalState":{"key":"09","name":"Bayern"}},{"name":"Urbergweg","postalCode":"93413","locality":"Cham","municipality":{"key":"09372116","name":"Cham, St","type":"Stadt"},"district":{"key":"09372","name":"Cham","type":"Landkreis"},"federalState":{"key":"09","name":"Bayern"}},{"name":"Vilzing","postalCode":"93413","locality":"Cham","municipality":{"key":"09372116","name":"Cham, St","type":"Stadt"},"district":{"key":"09372","name":"Cham","type":"Landkreis"},"federalState":{"key":"09","name":"Bayern"}},{"name":"Vilzinger Str.","postalCode":"93413","locality":"Cham","municipality":{"key":"09372116","name":"Cham, St","type":"Stadt"},"district":{"key":"09372","name":"Cham","type":"Landkreis"},"federalState":{"key":"09","name":"Bayern"}},{"name":"Von-Reinhardstöttner-Str.","postalCode":"93413","locality":"Cham","municipality":{"key":"09372116","name":"Cham, St","type":"Stadt"},"district":{"key":"09372","name":"Cham","type":"Landkreis"},"federalState":{"key":"09","name":"Bayern"}},{"name":"Waldmünchener Str.","postalCode":"93497","locality":"Willmering","municipality":{"key":"09372175","name":"Willmering","type":"Kreisangehörige_Gemeinde"},"district":{"key":"09372","name":"Cham","type":"Landkreis"},"federalState":{"key":"09","name":"Bayern"}},{"name":"Waldweg","postalCode":"93497","locality":"Willmering","municipality":{"key":"09372175","name":"Willmering","type":"Kreisangehörige_Gemeinde"},"district":{"key":"09372","name":"Cham","type":"Landkreis"},"federalState":{"key":"09","name":"Bayern"}},{"name":"Weiherstr.","postalCode":"93497","locality":"Willmering","municipality":{"key":"09372175","name":"Willmering","type":"Kreisangehörige_Gemeinde"},"district":{"key":"09372","name":"Cham","type":"Landkreis"},"federalState":{"key":"09","name":"Bayern"}},{"name":"Wiesenweg","postalCode":"93497","locality":"Willmering","municipality":{"key":"09372175","name":"Willmering","type":"Kreisangehörige_Gemeinde"},"district":{"key":"09372","name":"Cham","type":"Landkreis"},"federalState":{"key":"09","name":"Bayern"}},{"name":"Zifling","postalCode":"93497","locality":"Willmering","municipality":{"key":"09372175","name":"Willmering","type":"Kreisangehörige_Gemeinde"},"district":{"key":"09372","name":"Cham","type":"Landkreis"},"federalState":{"key":"09","name":"Bayern"}},{"name":"Zifling-Bierl","postalCode":"93497","locality":"Willmering","municipality":{"key":"09372175","name":"Willmering","type":"Kreisangehörige_Gemeinde"},"district":{"key":"09372","name":"Cham","type":"Landkreis"},"federalState":{"key":"09","name":"Bayern"}},]