[{"key":"10051499","name":"Allenwinden","postalCode":"6036","locality":"Dierikon","commune":{"key":"1053","name":"Dierikon","shortName":"Dierikon"},"district":{"key":"312","name":"Wahlkreis Luzern-Land"},"canton":{"key":"3","code":"LU","name":"Luzern"},"status":"Real"},{"key":"10055807","name":"Bläsihus","postalCode":"6036","locality":"Dierikon","commune":{"key":"1053","name":"Dierikon","shortName":"Dierikon"},"district":{"key":"312","name":"Wahlkreis Luzern-Land"},"canton":{"key":"3","code":"LU","name":"Luzern"},"status":"Real"},{"key":"10166249","name":"Blumenau","postalCode":"6036","locality":"Dierikon","commune":{"key":"1053","name":"Dierikon","shortName":"Dierikon"},"district":{"key":"312","name":"Wahlkreis Luzern-Land"},"canton":{"key":"3","code":"LU","name":"Luzern"},"status":"Real"},{"key":"10014732","name":"Burenhof","postalCode":"6036","locality":"Dierikon","commune":{"key":"1053","name":"Dierikon","shortName":"Dierikon"},"district":{"key":"312","name":"Wahlkreis Luzern-Land"},"canton":{"key":"3","code":"LU","name":"Luzern"},"status":"Real"},{"key":"10188638","name":"Chlihirsele","postalCode":"6036","locality":"Dierikon","commune":{"key":"1053","name":"Dierikon","shortName":"Dierikon"},"district":{"key":"312","name":"Wahlkreis Luzern-Land"},"canton":{"key":"3","code":"LU","name":"Luzern"},"status":"Real"},{"key":"10111771","name":"Dörfli","postalCode":"6036","locality":"Dierikon","commune":{"key":"1053","name":"Dierikon","shortName":"Dierikon"},"district":{"key":"312","name":"Wahlkreis Luzern-Land"},"canton":{"key":"3","code":"LU","name":"Luzern"},"status":"Real"},{"key":"10189726","name":"Eiholdern","postalCode":"6036","locality":"Dierikon","commune":{"key":"1053","name":"Dierikon","shortName":"Dierikon"},"district":{"key":"312","name":"Wahlkreis Luzern-Land"},"canton":{"key":"3","code":"LU","name":"Luzern"},"status":"Real"},{"key":"10065185","name":"Feldhof","postalCode":"6036","locality":"Dierikon","commune":{"key":"1053","name":"Dierikon","shortName":"Dierikon"},"district":{"key":"312","name":"Wahlkreis Luzern-Land"},"canton":{"key":"3","code":"LU","name":"Luzern"},"status":"Real"},{"key":"10195766","name":"Feldhofweg","postalCode":"6036","locality":"Dierikon","commune":{"key":"1053","name":"Dierikon","shortName":"Dierikon"},"district":{"key":"312","name":"Wahlkreis Luzern-Land"},"canton":{"key":"3","code":"LU","name":"Luzern"},"status":"Real"},{"key":"10147932","name":"Götzentalstrasse","postalCode":"6036","locality":"Dierikon","commune":{"key":"1053","name":"Dierikon","shortName":"Dierikon"},"district":{"key":"312","name":"Wahlkreis Luzern-Land"},"canton":{"key":"3","code":"LU","name":"Luzern"},"status":"Real"},{"key":"10055808","name":"Grosshirselen","postalCode":"6036","locality":"Dierikon","commune":{"key":"1053","name":"Dierikon","shortName":"Dierikon"},"district":{"key":"312","name":"Wahlkreis Luzern-Land"},"canton":{"key":"3","code":"LU","name":"Luzern"},"status":"Real"},{"key":"10085674","name":"Hirselenstrasse","postalCode":"6036","locality":"Dierikon","commune":{"key":"1053","name":"Dierikon","shortName":"Dierikon"},"district":{"key":"312","name":"Wahlkreis Luzern-Land"},"canton":{"key":"3","code":"LU","name":"Luzern"},"status":"Real"},{"key":"10136820","name":"Hirselerain","postalCode":"6036","locality":"Dierikon","commune":{"key":"1053","name":"Dierikon","shortName":"Dierikon"},"district":{"key":"312","name":"Wahlkreis Luzern-Land"},"canton":{"key":"3","code":"LU","name":"Luzern"},"status":"Real"},{"key":"10014733","name":"Hüttenhof","postalCode":"6036","locality":"Dierikon","commune":{"key":"1053","name":"Dierikon","shortName":"Dierikon"},"district":{"key":"312","name":"Wahlkreis Luzern-Land"},"canton":{"key":"3","code":"LU","name":"Luzern"},"status":"Real"},{"key":"10186485","name":"Industriestrasse","postalCode":"6036","locality":"Dierikon","commune":{"key":"1053","name":"Dierikon","shortName":"Dierikon"},"district":{"key":"312","name":"Wahlkreis Luzern-Land"},"canton":{"key":"3","code":"LU","name":"Luzern"},"status":"Real"},{"key":"10065186","name":"Jostmelken","postalCode":"6036","locality":"Dierikon","commune":{"key":"1053","name":"Dierikon","shortName":"Dierikon"},"district":{"key":"312","name":"Wahlkreis Luzern-Land"},"canton":{"key":"3","code":"LU","name":"Luzern"},"status":"Real"},{"key":"10055809","name":"Kandishof","postalCode":"6036","locality":"Dierikon","commune":{"key":"1053","name":"Dierikon","shortName":"Dierikon"},"district":{"key":"312","name":"Wahlkreis Luzern-Land"},"canton":{"key":"3","code":"LU","name":"Luzern"},"status":"Real"},{"key":"10014734","name":"Kantonsstrasse","postalCode":"6036","locality":"Dierikon","commune":{"key":"1053","name":"Dierikon","shortName":"Dierikon"},"district":{"key":"312","name":"Wahlkreis Luzern-Land"},"canton":{"key":"3","code":"LU","name":"Luzern"},"status":"Real"},{"key":"10195765","name":"Leisibachstrasse","postalCode":"6036","locality":"Dierikon","commune":{"key":"1053","name":"Dierikon","shortName":"Dierikon"},"district":{"key":"312","name":"Wahlkreis Luzern-Land"},"canton":{"key":"3","code":"LU","name":"Luzern"},"status":"Real"},{"key":"10162840","name":"Luegisland","postalCode":"6036","locality":"Dierikon","commune":{"key":"1053","name":"Dierikon","shortName":"Dierikon"},"district":{"key":"312","name":"Wahlkreis Luzern-Land"},"canton":{"key":"3","code":"LU","name":"Luzern"},"status":"Real"},{"key":"10014735","name":"Meiterdingen","postalCode":"6036","locality":"Dierikon","commune":{"key":"1053","name":"Dierikon","shortName":"Dierikon"},"district":{"key":"312","name":"Wahlkreis Luzern-Land"},"canton":{"key":"3","code":"LU","name":"Luzern"},"status":"Real"},{"key":"10014736","name":"Oberdierikonerstrasse","postalCode":"6036","locality":"Dierikon","commune":{"key":"1053","name":"Dierikon","shortName":"Dierikon"},"district":{"key":"312","name":"Wahlkreis Luzern-Land"},"canton":{"key":"3","code":"LU","name":"Luzern"},"status":"Real"},{"key":"10065187","name":"Oberweid","postalCode":"6036","locality":"Dierikon","commune":{"key":"1053","name":"Dierikon","shortName":"Dierikon"},"district":{"key":"312","name":"Wahlkreis Luzern-Land"},"canton":{"key":"3","code":"LU","name":"Luzern"},"status":"Real"},{"key":"10014737","name":"Pilatusstrasse","postalCode":"6036","locality":"Dierikon","commune":{"key":"1053","name":"Dierikon","shortName":"Dierikon"},"district":{"key":"312","name":"Wahlkreis Luzern-Land"},"canton":{"key":"3","code":"LU","name":"Luzern"},"status":"Real"},{"key":"10055892","name":"Rigistrasse","postalCode":"6036","locality":"Dierikon","commune":{"key":"1053","name":"Dierikon","shortName":"Dierikon"},"district":{"key":"312","name":"Wahlkreis Luzern-Land"},"canton":{"key":"3","code":"LU","name":"Luzern"},"status":"Real"},{"key":"10085675","name":"Schönenboden","postalCode":"6036","locality":"Dierikon","commune":{"key":"1053","name":"Dierikon","shortName":"Dierikon"},"district":{"key":"312","name":"Wahlkreis Luzern-Land"},"canton":{"key":"3","code":"LU","name":"Luzern"},"status":"Real"},{"key":"10117071","name":"Spechtenhof","postalCode":"6036","locality":"Dierikon","commune":{"key":"1053","name":"Dierikon","shortName":"Dierikon"},"district":{"key":"312","name":"Wahlkreis Luzern-Land"},"canton":{"key":"3","code":"LU","name":"Luzern"},"status":"Real"},{"key":"10179035","name":"Spechtenstrasse","postalCode":"6036","locality":"Dierikon","commune":{"key":"1053","name":"Dierikon","shortName":"Dierikon"},"district":{"key":"312","name":"Wahlkreis Luzern-Land"},"canton":{"key":"3","code":"LU","name":"Luzern"},"status":"Real"},{"key":"10166250","name":"Villa Maria","postalCode":"6036","locality":"Dierikon","commune":{"key":"1053","name":"Dierikon","shortName":"Dierikon"},"district":{"key":"312","name":"Wahlkreis Luzern-Land"},"canton":{"key":"3","code":"LU","name":"Luzern"},"status":"Real"},{"key":"10105391","name":"Weier","postalCode":"6036","locality":"Dierikon","commune":{"key":"1053","name":"Dierikon","shortName":"Dierikon"},"district":{"key":"312","name":"Wahlkreis Luzern-Land"},"canton":{"key":"3","code":"LU","name":"Luzern"},"status":"Real"},{"key":"10055811","name":"Widacher","postalCode":"6036","locality":"Dierikon","commune":{"key":"1053","name":"Dierikon","shortName":"Dierikon"},"district":{"key":"312","name":"Wahlkreis Luzern-Land"},"canton":{"key":"3","code":"LU","name":"Luzern"},"status":"Real"},{"key":"10065188","name":"Zentralstrasse","postalCode":"6036","locality":"Dierikon","commune":{"key":"1053","name":"Dierikon","shortName":"Dierikon"},"district":{"key":"312","name":"Wahlkreis Luzern-Land"},"canton":{"key":"3","code":"LU","name":"Luzern"},"status":"Real"},]