[{"name":"Aichacher Str.","postalCode":"86559","locality":"Adelzhausen","municipality":{"key":"09771111","name":"Adelzhausen","type":"Kreisangehörige_Gemeinde"},"district":{"key":"09771","name":"Aichach-Friedberg","type":"Landkreis"},"federalState":{"key":"09","name":"Bayern"}},{"name":"Allgäuer Weg","postalCode":"86559","locality":"Adelzhausen","municipality":{"key":"09771111","name":"Adelzhausen","type":"Kreisangehörige_Gemeinde"},"district":{"key":"09771","name":"Aichach-Friedberg","type":"Landkreis"},"federalState":{"key":"09","name":"Bayern"}},{"name":"Am Anger","postalCode":"86559","locality":"Adelzhausen","municipality":{"key":"09771111","name":"Adelzhausen","type":"Kreisangehörige_Gemeinde"},"district":{"key":"09771","name":"Aichach-Friedberg","type":"Landkreis"},"federalState":{"key":"09","name":"Bayern"}},{"name":"Am Hang","postalCode":"86559","locality":"Adelzhausen","municipality":{"key":"09771111","name":"Adelzhausen","type":"Kreisangehörige_Gemeinde"},"district":{"key":"09771","name":"Aichach-Friedberg","type":"Landkreis"},"federalState":{"key":"09","name":"Bayern"}},{"name":"Am Hochfeld","postalCode":"86559","locality":"Adelzhausen","municipality":{"key":"09771111","name":"Adelzhausen","type":"Kreisangehörige_Gemeinde"},"district":{"key":"09771","name":"Aichach-Friedberg","type":"Landkreis"},"federalState":{"key":"09","name":"Bayern"}},{"name":"Am Oberfeld","postalCode":"86559","locality":"Adelzhausen","municipality":{"key":"09771111","name":"Adelzhausen","type":"Kreisangehörige_Gemeinde"},"district":{"key":"09771","name":"Aichach-Friedberg","type":"Landkreis"},"federalState":{"key":"09","name":"Bayern"}},{"name":"Am Rottenfeld","postalCode":"86559","locality":"Adelzhausen","municipality":{"key":"09771111","name":"Adelzhausen","type":"Kreisangehörige_Gemeinde"},"district":{"key":"09771","name":"Aichach-Friedberg","type":"Landkreis"},"federalState":{"key":"09","name":"Bayern"}},{"name":"Amselweg","postalCode":"86559","locality":"Adelzhausen","municipality":{"key":"09771111","name":"Adelzhausen","type":"Kreisangehörige_Gemeinde"},"district":{"key":"09771","name":"Aichach-Friedberg","type":"Landkreis"},"federalState":{"key":"09","name":"Bayern"}},{"name":"Am Waldhaus","postalCode":"86559","locality":"Adelzhausen","municipality":{"key":"09771111","name":"Adelzhausen","type":"Kreisangehörige_Gemeinde"},"district":{"key":"09771","name":"Aichach-Friedberg","type":"Landkreis"},"federalState":{"key":"09","name":"Bayern"}},{"name":"Bergstr.","postalCode":"86559","locality":"Adelzhausen","municipality":{"key":"09771111","name":"Adelzhausen","type":"Kreisangehörige_Gemeinde"},"district":{"key":"09771","name":"Aichach-Friedberg","type":"Landkreis"},"federalState":{"key":"09","name":"Bayern"}},{"name":"Birkenweg","postalCode":"86559","locality":"Adelzhausen","municipality":{"key":"09771111","name":"Adelzhausen","type":"Kreisangehörige_Gemeinde"},"district":{"key":"09771","name":"Aichach-Friedberg","type":"Landkreis"},"federalState":{"key":"09","name":"Bayern"}},{"name":"Blumenweg","postalCode":"86559","locality":"Adelzhausen","municipality":{"key":"09771111","name":"Adelzhausen","type":"Kreisangehörige_Gemeinde"},"district":{"key":"09771","name":"Aichach-Friedberg","type":"Landkreis"},"federalState":{"key":"09","name":"Bayern"}},{"name":"Buchenweg","postalCode":"86559","locality":"Adelzhausen","municipality":{"key":"09771111","name":"Adelzhausen","type":"Kreisangehörige_Gemeinde"},"district":{"key":"09771","name":"Aichach-Friedberg","type":"Landkreis"},"federalState":{"key":"09","name":"Bayern"}},{"name":"Buchleite","postalCode":"86559","locality":"Adelzhausen","municipality":{"key":"09771111","name":"Adelzhausen","type":"Kreisangehörige_Gemeinde"},"district":{"key":"09771","name":"Aichach-Friedberg","type":"Landkreis"},"federalState":{"key":"09","name":"Bayern"}},{"name":"Burgstr.","postalCode":"86559","locality":"Adelzhausen","municipality":{"key":"09771111","name":"Adelzhausen","type":"Kreisangehörige_Gemeinde"},"district":{"key":"09771","name":"Aichach-Friedberg","type":"Landkreis"},"federalState":{"key":"09","name":"Bayern"}},{"name":"Drosselweg","postalCode":"86559","locality":"Adelzhausen","municipality":{"key":"09771111","name":"Adelzhausen","type":"Kreisangehörige_Gemeinde"},"district":{"key":"09771","name":"Aichach-Friedberg","type":"Landkreis"},"federalState":{"key":"09","name":"Bayern"}},{"name":"Feldweg","postalCode":"86559","locality":"Adelzhausen","municipality":{"key":"09771111","name":"Adelzhausen","type":"Kreisangehörige_Gemeinde"},"district":{"key":"09771","name":"Aichach-Friedberg","type":"Landkreis"},"federalState":{"key":"09","name":"Bayern"}},{"name":"Frühlingstr.","postalCode":"86559","locality":"Adelzhausen","municipality":{"key":"09771111","name":"Adelzhausen","type":"Kreisangehörige_Gemeinde"},"district":{"key":"09771","name":"Aichach-Friedberg","type":"Landkreis"},"federalState":{"key":"09","name":"Bayern"}},{"name":"Gartenweg","postalCode":"86559","locality":"Adelzhausen","municipality":{"key":"09771111","name":"Adelzhausen","type":"Kreisangehörige_Gemeinde"},"district":{"key":"09771","name":"Aichach-Friedberg","type":"Landkreis"},"federalState":{"key":"09","name":"Bayern"}},{"name":"Gewerbepark","postalCode":"86559","locality":"Adelzhausen","municipality":{"key":"09771111","name":"Adelzhausen","type":"Kreisangehörige_Gemeinde"},"district":{"key":"09771","name":"Aichach-Friedberg","type":"Landkreis"},"federalState":{"key":"09","name":"Bayern"}},{"name":"Hauptstr.","postalCode":"86559","locality":"Adelzhausen","municipality":{"key":"09771111","name":"Adelzhausen","type":"Kreisangehörige_Gemeinde"},"district":{"key":"09771","name":"Aichach-Friedberg","type":"Landkreis"},"federalState":{"key":"09","name":"Bayern"}},{"name":"Johannes-von-Nepomuk-Str.","postalCode":"86559","locality":"Adelzhausen","municipality":{"key":"09771111","name":"Adelzhausen","type":"Kreisangehörige_Gemeinde"},"district":{"key":"09771","name":"Aichach-Friedberg","type":"Landkreis"},"federalState":{"key":"09","name":"Bayern"}},{"name":"Karwendelweg","postalCode":"86559","locality":"Adelzhausen","municipality":{"key":"09771111","name":"Adelzhausen","type":"Kreisangehörige_Gemeinde"},"district":{"key":"09771","name":"Aichach-Friedberg","type":"Landkreis"},"federalState":{"key":"09","name":"Bayern"}},{"name":"Kirchenweg","postalCode":"86559","locality":"Adelzhausen","municipality":{"key":"09771111","name":"Adelzhausen","type":"Kreisangehörige_Gemeinde"},"district":{"key":"09771","name":"Aichach-Friedberg","type":"Landkreis"},"federalState":{"key":"09","name":"Bayern"}},{"name":"Kitzbühler Weg","postalCode":"86559","locality":"Adelzhausen","municipality":{"key":"09771111","name":"Adelzhausen","type":"Kreisangehörige_Gemeinde"},"district":{"key":"09771","name":"Aichach-Friedberg","type":"Landkreis"},"federalState":{"key":"09","name":"Bayern"}},{"name":"Lantmarstr.","postalCode":"86559","locality":"Adelzhausen","municipality":{"key":"09771111","name":"Adelzhausen","type":"Kreisangehörige_Gemeinde"},"district":{"key":"09771","name":"Aichach-Friedberg","type":"Landkreis"},"federalState":{"key":"09","name":"Bayern"}},{"name":"Lärchenweg","postalCode":"86559","locality":"Adelzhausen","municipality":{"key":"09771111","name":"Adelzhausen","type":"Kreisangehörige_Gemeinde"},"district":{"key":"09771","name":"Aichach-Friedberg","type":"Landkreis"},"federalState":{"key":"09","name":"Bayern"}},{"name":"Lechtaler Weg","postalCode":"86559","locality":"Adelzhausen","municipality":{"key":"09771111","name":"Adelzhausen","type":"Kreisangehörige_Gemeinde"},"district":{"key":"09771","name":"Aichach-Friedberg","type":"Landkreis"},"federalState":{"key":"09","name":"Bayern"}},{"name":"Lilienweg","postalCode":"86559","locality":"Adelzhausen","municipality":{"key":"09771111","name":"Adelzhausen","type":"Kreisangehörige_Gemeinde"},"district":{"key":"09771","name":"Aichach-Friedberg","type":"Landkreis"},"federalState":{"key":"09","name":"Bayern"}},{"name":"Lindenweg","postalCode":"86559","locality":"Adelzhausen","municipality":{"key":"09771111","name":"Adelzhausen","type":"Kreisangehörige_Gemeinde"},"district":{"key":"09771","name":"Aichach-Friedberg","type":"Landkreis"},"federalState":{"key":"09","name":"Bayern"}},{"name":"Malvenweg","postalCode":"86559","locality":"Adelzhausen","municipality":{"key":"09771111","name":"Adelzhausen","type":"Kreisangehörige_Gemeinde"},"district":{"key":"09771","name":"Aichach-Friedberg","type":"Landkreis"},"federalState":{"key":"09","name":"Bayern"}},{"name":"Mühlenstr.","postalCode":"86559","locality":"Adelzhausen","municipality":{"key":"09771111","name":"Adelzhausen","type":"Kreisangehörige_Gemeinde"},"district":{"key":"09771","name":"Aichach-Friedberg","type":"Landkreis"},"federalState":{"key":"09","name":"Bayern"}},{"name":"Nelkenweg","postalCode":"86559","locality":"Adelzhausen","municipality":{"key":"09771111","name":"Adelzhausen","type":"Kreisangehörige_Gemeinde"},"district":{"key":"09771","name":"Aichach-Friedberg","type":"Landkreis"},"federalState":{"key":"09","name":"Bayern"}},{"name":"Raiffeisenstr.","postalCode":"86559","locality":"Adelzhausen","municipality":{"key":"09771111","name":"Adelzhausen","type":"Kreisangehörige_Gemeinde"},"district":{"key":"09771","name":"Aichach-Friedberg","type":"Landkreis"},"federalState":{"key":"09","name":"Bayern"}},{"name":"Reichergasse","postalCode":"86559","locality":"Adelzhausen","municipality":{"key":"09771111","name":"Adelzhausen","type":"Kreisangehörige_Gemeinde"},"district":{"key":"09771","name":"Aichach-Friedberg","type":"Landkreis"},"federalState":{"key":"09","name":"Bayern"}},{"name":"Römerweg","postalCode":"86559","locality":"Adelzhausen","municipality":{"key":"09771111","name":"Adelzhausen","type":"Kreisangehörige_Gemeinde"},"district":{"key":"09771","name":"Aichach-Friedberg","type":"Landkreis"},"federalState":{"key":"09","name":"Bayern"}},{"name":"Rosenweg","postalCode":"86559","locality":"Adelzhausen","municipality":{"key":"09771111","name":"Adelzhausen","type":"Kreisangehörige_Gemeinde"},"district":{"key":"09771","name":"Aichach-Friedberg","type":"Landkreis"},"federalState":{"key":"09","name":"Bayern"}},{"name":"Sankt-Leonhard-Str.","postalCode":"86559","locality":"Adelzhausen","municipality":{"key":"09771111","name":"Adelzhausen","type":"Kreisangehörige_Gemeinde"},"district":{"key":"09771","name":"Aichach-Friedberg","type":"Landkreis"},"federalState":{"key":"09","name":"Bayern"}},{"name":"Schulstr.","postalCode":"86559","locality":"Adelzhausen","municipality":{"key":"09771111","name":"Adelzhausen","type":"Kreisangehörige_Gemeinde"},"district":{"key":"09771","name":"Aichach-Friedberg","type":"Landkreis"},"federalState":{"key":"09","name":"Bayern"}},{"name":"Schützenstr.","postalCode":"86559","locality":"Adelzhausen","municipality":{"key":"09771111","name":"Adelzhausen","type":"Kreisangehörige_Gemeinde"},"district":{"key":"09771","name":"Aichach-Friedberg","type":"Landkreis"},"federalState":{"key":"09","name":"Bayern"}},{"name":"Siedlerweg","postalCode":"86559","locality":"Adelzhausen","municipality":{"key":"09771111","name":"Adelzhausen","type":"Kreisangehörige_Gemeinde"},"district":{"key":"09771","name":"Aichach-Friedberg","type":"Landkreis"},"federalState":{"key":"09","name":"Bayern"}},{"name":"Sonnenstr.","postalCode":"86559","locality":"Adelzhausen","municipality":{"key":"09771111","name":"Adelzhausen","type":"Kreisangehörige_Gemeinde"},"district":{"key":"09771","name":"Aichach-Friedberg","type":"Landkreis"},"federalState":{"key":"09","name":"Bayern"}},{"name":"Tulpenweg","postalCode":"86559","locality":"Adelzhausen","municipality":{"key":"09771111","name":"Adelzhausen","type":"Kreisangehörige_Gemeinde"},"district":{"key":"09771","name":"Aichach-Friedberg","type":"Landkreis"},"federalState":{"key":"09","name":"Bayern"}},{"name":"Veilchenweg","postalCode":"86559","locality":"Adelzhausen","municipality":{"key":"09771111","name":"Adelzhausen","type":"Kreisangehörige_Gemeinde"},"district":{"key":"09771","name":"Aichach-Friedberg","type":"Landkreis"},"federalState":{"key":"09","name":"Bayern"}},{"name":"Waldstr.","postalCode":"86559","locality":"Adelzhausen","municipality":{"key":"09771111","name":"Adelzhausen","type":"Kreisangehörige_Gemeinde"},"district":{"key":"09771","name":"Aichach-Friedberg","type":"Landkreis"},"federalState":{"key":"09","name":"Bayern"}},{"name":"Wettersteinweg","postalCode":"86559","locality":"Adelzhausen","municipality":{"key":"09771111","name":"Adelzhausen","type":"Kreisangehörige_Gemeinde"},"district":{"key":"09771","name":"Aichach-Friedberg","type":"Landkreis"},"federalState":{"key":"09","name":"Bayern"}},{"name":"Wiesenweg","postalCode":"86559","locality":"Adelzhausen","municipality":{"key":"09771111","name":"Adelzhausen","type":"Kreisangehörige_Gemeinde"},"district":{"key":"09771","name":"Aichach-Friedberg","type":"Landkreis"},"federalState":{"key":"09","name":"Bayern"}},{"name":"Ziegelstr.","postalCode":"86559","locality":"Adelzhausen","municipality":{"key":"09771111","name":"Adelzhausen","type":"Kreisangehörige_Gemeinde"},"district":{"key":"09771","name":"Aichach-Friedberg","type":"Landkreis"},"federalState":{"key":"09","name":"Bayern"}},{"name":"Zugspitzstr.","postalCode":"86559","locality":"Adelzhausen","municipality":{"key":"09771111","name":"Adelzhausen","type":"Kreisangehörige_Gemeinde"},"district":{"key":"09771","name":"Aichach-Friedberg","type":"Landkreis"},"federalState":{"key":"09","name":"Bayern"}},]