[{"key":"10180986","name":"Chemin de Châtel-Dessous","postalCode":"1271","locality":"Givrins","commune":{"key":"5720","name":"Givrins","shortName":"Givrins"},"district":{"key":"2228","name":"District de Nyon"},"canton":{"key":"22","code":"VD","name":"Vaud"},"status":"Real"},{"key":"10100536","name":"Chemin de Châtel-Dessus","postalCode":"1271","locality":"Givrins","commune":{"key":"5720","name":"Givrins","shortName":"Givrins"},"district":{"key":"2228","name":"District de Nyon"},"canton":{"key":"22","code":"VD","name":"Vaud"},"status":"Real"},{"key":"10041631","name":"Chemin de Couvaloup","postalCode":"1271","locality":"Givrins","commune":{"key":"5720","name":"Givrins","shortName":"Givrins"},"district":{"key":"2228","name":"District de Nyon"},"canton":{"key":"22","code":"VD","name":"Vaud"},"status":"Real"},{"key":"10125444","name":"Chemin de la Feuilleuse","postalCode":"1271","locality":"Givrins","commune":{"key":"5720","name":"Givrins","shortName":"Givrins"},"district":{"key":"2228","name":"District de Nyon"},"canton":{"key":"22","code":"VD","name":"Vaud"},"status":"Real"},{"key":"10056700","name":"Chemin de la Forêt","postalCode":"1271","locality":"Givrins","commune":{"key":"5720","name":"Givrins","shortName":"Givrins"},"district":{"key":"2228","name":"District de Nyon"},"canton":{"key":"22","code":"VD","name":"Vaud"},"status":"Real"},{"key":"10041632","name":"Chemin de l'Oche","postalCode":"1271","locality":"Givrins","commune":{"key":"5720","name":"Givrins","shortName":"Givrins"},"district":{"key":"2228","name":"District de Nyon"},"canton":{"key":"22","code":"VD","name":"Vaud"},"status":"Real"},{"key":"10056699","name":"Chemin de Savy","postalCode":"1271","locality":"Givrins","commune":{"key":"5720","name":"Givrins","shortName":"Givrins"},"district":{"key":"2228","name":"District de Nyon"},"canton":{"key":"22","code":"VD","name":"Vaud"},"status":"Real"},{"key":"10107266","name":"Chemin de Savy-Dessous","postalCode":"1271","locality":"Givrins","commune":{"key":"5720","name":"Givrins","shortName":"Givrins"},"district":{"key":"2228","name":"District de Nyon"},"canton":{"key":"22","code":"VD","name":"Vaud"},"status":"Real"},{"key":"10121618","name":"Chemin des Ecureuils","postalCode":"1271","locality":"Givrins","commune":{"key":"5720","name":"Givrins","shortName":"Givrins"},"district":{"key":"2228","name":"District de Nyon"},"canton":{"key":"22","code":"VD","name":"Vaud"},"status":"Real"},{"key":"10125449","name":"Chemin des Epinettes","postalCode":"1271","locality":"Givrins","commune":{"key":"5720","name":"Givrins","shortName":"Givrins"},"district":{"key":"2228","name":"District de Nyon"},"canton":{"key":"22","code":"VD","name":"Vaud"},"status":"Real"},{"key":"10147000","name":"Chemin des Erignières","postalCode":"1271","locality":"Givrins","commune":{"key":"5720","name":"Givrins","shortName":"Givrins"},"district":{"key":"2228","name":"District de Nyon"},"canton":{"key":"22","code":"VD","name":"Vaud"},"status":"Real"},{"key":"10125450","name":"Chemin des Grands-Records","postalCode":"1271","locality":"Givrins","commune":{"key":"5720","name":"Givrins","shortName":"Givrins"},"district":{"key":"2228","name":"District de Nyon"},"canton":{"key":"22","code":"VD","name":"Vaud"},"status":"Real"},{"key":"10041634","name":"Chemin des Lattes","postalCode":"1271","locality":"Givrins","commune":{"key":"5720","name":"Givrins","shortName":"Givrins"},"district":{"key":"2228","name":"District de Nyon"},"canton":{"key":"22","code":"VD","name":"Vaud"},"status":"Real"},{"key":"10056701","name":"Chemin des Noisetiers","postalCode":"1271","locality":"Givrins","commune":{"key":"5720","name":"Givrins","shortName":"Givrins"},"district":{"key":"2228","name":"District de Nyon"},"canton":{"key":"22","code":"VD","name":"Vaud"},"status":"Real"},{"key":"10100537","name":"Chemin des Oiseaux","postalCode":"1271","locality":"Givrins","commune":{"key":"5720","name":"Givrins","shortName":"Givrins"},"district":{"key":"2228","name":"District de Nyon"},"canton":{"key":"22","code":"VD","name":"Vaud"},"status":"Real"},{"key":"10041635","name":"Chemin des Sources","postalCode":"1271","locality":"Givrins","commune":{"key":"5720","name":"Givrins","shortName":"Givrins"},"district":{"key":"2228","name":"District de Nyon"},"canton":{"key":"22","code":"VD","name":"Vaud"},"status":"Real"},{"key":"10107663","name":"Chemin du Carre","postalCode":"1271","locality":"Givrins","commune":{"key":"5720","name":"Givrins","shortName":"Givrins"},"district":{"key":"2228","name":"District de Nyon"},"canton":{"key":"22","code":"VD","name":"Vaud"},"status":"Real"},{"key":"10041636","name":"Chemin du Jura","postalCode":"1271","locality":"Givrins","commune":{"key":"5720","name":"Givrins","shortName":"Givrins"},"district":{"key":"2228","name":"District de Nyon"},"canton":{"key":"22","code":"VD","name":"Vaud"},"status":"Real"},{"key":"10125453","name":"Chemin du Pont-de-Terre","postalCode":"1271","locality":"Givrins","commune":{"key":"5720","name":"Givrins","shortName":"Givrins"},"district":{"key":"2228","name":"District de Nyon"},"canton":{"key":"22","code":"VD","name":"Vaud"},"status":"Real"},{"key":"10138278","name":"Chemin du Pré-de-la-Maison","postalCode":"1271","locality":"Givrins","commune":{"key":"5720","name":"Givrins","shortName":"Givrins"},"district":{"key":"2228","name":"District de Nyon"},"canton":{"key":"22","code":"VD","name":"Vaud"},"status":"Real"},{"key":"10100538","name":"Chemin En Chanay","postalCode":"1271","locality":"Givrins","commune":{"key":"5720","name":"Givrins","shortName":"Givrins"},"district":{"key":"2228","name":"District de Nyon"},"canton":{"key":"22","code":"VD","name":"Vaud"},"status":"Real"},{"key":"10125459","name":"Chemin En Pont-Trembley","postalCode":"1271","locality":"Givrins","commune":{"key":"5720","name":"Givrins","shortName":"Givrins"},"district":{"key":"2228","name":"District de Nyon"},"canton":{"key":"22","code":"VD","name":"Vaud"},"status":"Real"},{"key":"10107662","name":"Chemin Sous-les-Vignes","postalCode":"1271","locality":"Givrins","commune":{"key":"5720","name":"Givrins","shortName":"Givrins"},"district":{"key":"2228","name":"District de Nyon"},"canton":{"key":"22","code":"VD","name":"Vaud"},"status":"Real"},{"key":"10056702","name":"Route de Duillier","postalCode":"1271","locality":"Givrins","commune":{"key":"5720","name":"Givrins","shortName":"Givrins"},"district":{"key":"2228","name":"District de Nyon"},"canton":{"key":"22","code":"VD","name":"Vaud"},"status":"Real"},{"key":"10128360","name":"Route de Genolier","postalCode":"1271","locality":"Givrins","commune":{"key":"5720","name":"Givrins","shortName":"Givrins"},"district":{"key":"2228","name":"District de Nyon"},"canton":{"key":"22","code":"VD","name":"Vaud"},"status":"Real"},{"key":"10100539","name":"Route de la Bellangère","postalCode":"1271","locality":"Givrins","commune":{"key":"5720","name":"Givrins","shortName":"Givrins"},"district":{"key":"2228","name":"District de Nyon"},"canton":{"key":"22","code":"VD","name":"Vaud"},"status":"Real"},{"key":"10041633","name":"Route de la Gare","postalCode":"1271","locality":"Givrins","commune":{"key":"5720","name":"Givrins","shortName":"Givrins"},"district":{"key":"2228","name":"District de Nyon"},"canton":{"key":"22","code":"VD","name":"Vaud"},"status":"Real"},{"key":"10123692","name":"Route de la Scie","postalCode":"1271","locality":"Givrins","commune":{"key":"5720","name":"Givrins","shortName":"Givrins"},"district":{"key":"2228","name":"District de Nyon"},"canton":{"key":"22","code":"VD","name":"Vaud"},"status":"Real"},{"key":"10079215","name":"Route des Marettes","postalCode":"1271","locality":"Givrins","commune":{"key":"5720","name":"Givrins","shortName":"Givrins"},"district":{"key":"2228","name":"District de Nyon"},"canton":{"key":"22","code":"VD","name":"Vaud"},"status":"Real"},{"key":"10125461","name":"Route des Mortiers","postalCode":"1271","locality":"Givrins","commune":{"key":"5720","name":"Givrins","shortName":"Givrins"},"district":{"key":"2228","name":"District de Nyon"},"canton":{"key":"22","code":"VD","name":"Vaud"},"status":"Real"},{"key":"10041637","name":"Route de Sodome","postalCode":"1271","locality":"Givrins","commune":{"key":"5720","name":"Givrins","shortName":"Givrins"},"district":{"key":"2228","name":"District de Nyon"},"canton":{"key":"22","code":"VD","name":"Vaud"},"status":"Real"},{"key":"10041638","name":"Route de Trélex","postalCode":"1271","locality":"Givrins","commune":{"key":"5720","name":"Givrins","shortName":"Givrins"},"district":{"key":"2228","name":"District de Nyon"},"canton":{"key":"22","code":"VD","name":"Vaud"},"status":"Real"},{"key":"10101497","name":"Route du Stand","postalCode":"1271","locality":"Givrins","commune":{"key":"5720","name":"Givrins","shortName":"Givrins"},"district":{"key":"2228","name":"District de Nyon"},"canton":{"key":"22","code":"VD","name":"Vaud"},"status":"Real"},{"key":"10077185","name":"Ruelle des Chambres-Chaudes","postalCode":"1271","locality":"Givrins","commune":{"key":"5720","name":"Givrins","shortName":"Givrins"},"district":{"key":"2228","name":"District de Nyon"},"canton":{"key":"22","code":"VD","name":"Vaud"},"status":"Real"},]