[{"name":"Ahornweg","postalCode":"89185","locality":"Hüttisheim","municipality":{"key":"08425064","name":"Hüttisheim","type":"Kreisangehörige_Gemeinde"},"district":{"key":"08425","name":"Alb-Donau-Kreis","type":"Landkreis"},"federalState":{"key":"08","name":"Baden-Württemberg"}},{"name":"Am Humlanger Weg","postalCode":"89185","locality":"Hüttisheim","municipality":{"key":"08425064","name":"Hüttisheim","type":"Kreisangehörige_Gemeinde"},"district":{"key":"08425","name":"Alb-Donau-Kreis","type":"Landkreis"},"federalState":{"key":"08","name":"Baden-Württemberg"}},{"name":"Amselweg","postalCode":"89185","locality":"Hüttisheim","municipality":{"key":"08425064","name":"Hüttisheim","type":"Kreisangehörige_Gemeinde"},"district":{"key":"08425","name":"Alb-Donau-Kreis","type":"Landkreis"},"federalState":{"key":"08","name":"Baden-Württemberg"}},{"name":"Am Steg","postalCode":"89185","locality":"Hüttisheim","municipality":{"key":"08425064","name":"Hüttisheim","type":"Kreisangehörige_Gemeinde"},"district":{"key":"08425","name":"Alb-Donau-Kreis","type":"Landkreis"},"federalState":{"key":"08","name":"Baden-Württemberg"}},{"name":"Anton-Fuge-Weg","postalCode":"89185","locality":"Hüttisheim","municipality":{"key":"08425064","name":"Hüttisheim","type":"Kreisangehörige_Gemeinde"},"district":{"key":"08425","name":"Alb-Donau-Kreis","type":"Landkreis"},"federalState":{"key":"08","name":"Baden-Württemberg"}},{"name":"Beim Kreuz","postalCode":"89185","locality":"Hüttisheim","municipality":{"key":"08425064","name":"Hüttisheim","type":"Kreisangehörige_Gemeinde"},"district":{"key":"08425","name":"Alb-Donau-Kreis","type":"Landkreis"},"federalState":{"key":"08","name":"Baden-Württemberg"}},{"name":"Bihlafinger Str.","postalCode":"89185","locality":"Hüttisheim","municipality":{"key":"08425064","name":"Hüttisheim","type":"Kreisangehörige_Gemeinde"},"district":{"key":"08425","name":"Alb-Donau-Kreis","type":"Landkreis"},"federalState":{"key":"08","name":"Baden-Württemberg"}},{"name":"Birkenstr.","postalCode":"89185","locality":"Hüttisheim","municipality":{"key":"08425064","name":"Hüttisheim","type":"Kreisangehörige_Gemeinde"},"district":{"key":"08425","name":"Alb-Donau-Kreis","type":"Landkreis"},"federalState":{"key":"08","name":"Baden-Württemberg"}},{"name":"Blumenweg","postalCode":"89185","locality":"Hüttisheim","municipality":{"key":"08425064","name":"Hüttisheim","type":"Kreisangehörige_Gemeinde"},"district":{"key":"08425","name":"Alb-Donau-Kreis","type":"Landkreis"},"federalState":{"key":"08","name":"Baden-Württemberg"}},{"name":"Buchenstr.","postalCode":"89185","locality":"Hüttisheim","municipality":{"key":"08425064","name":"Hüttisheim","type":"Kreisangehörige_Gemeinde"},"district":{"key":"08425","name":"Alb-Donau-Kreis","type":"Landkreis"},"federalState":{"key":"08","name":"Baden-Württemberg"}},{"name":"Dattlenberg","postalCode":"89185","locality":"Hüttisheim","municipality":{"key":"08425064","name":"Hüttisheim","type":"Kreisangehörige_Gemeinde"},"district":{"key":"08425","name":"Alb-Donau-Kreis","type":"Landkreis"},"federalState":{"key":"08","name":"Baden-Württemberg"}},{"name":"Dorfstr.","postalCode":"89185","locality":"Hüttisheim","municipality":{"key":"08425064","name":"Hüttisheim","type":"Kreisangehörige_Gemeinde"},"district":{"key":"08425","name":"Alb-Donau-Kreis","type":"Landkreis"},"federalState":{"key":"08","name":"Baden-Württemberg"}},{"name":"Eichenweg","postalCode":"89185","locality":"Hüttisheim","municipality":{"key":"08425064","name":"Hüttisheim","type":"Kreisangehörige_Gemeinde"},"district":{"key":"08425","name":"Alb-Donau-Kreis","type":"Landkreis"},"federalState":{"key":"08","name":"Baden-Württemberg"}},{"name":"Eppenmahd","postalCode":"89185","locality":"Hüttisheim","municipality":{"key":"08425064","name":"Hüttisheim","type":"Kreisangehörige_Gemeinde"},"district":{"key":"08425","name":"Alb-Donau-Kreis","type":"Landkreis"},"federalState":{"key":"08","name":"Baden-Württemberg"}},{"name":"Gartenstr.","postalCode":"89185","locality":"Hüttisheim","municipality":{"key":"08425064","name":"Hüttisheim","type":"Kreisangehörige_Gemeinde"},"district":{"key":"08425","name":"Alb-Donau-Kreis","type":"Landkreis"},"federalState":{"key":"08","name":"Baden-Württemberg"}},{"name":"Gassenäcker","postalCode":"89185","locality":"Hüttisheim","municipality":{"key":"08425064","name":"Hüttisheim","type":"Kreisangehörige_Gemeinde"},"district":{"key":"08425","name":"Alb-Donau-Kreis","type":"Landkreis"},"federalState":{"key":"08","name":"Baden-Württemberg"}},{"name":"Haldeweg","postalCode":"89185","locality":"Hüttisheim","municipality":{"key":"08425064","name":"Hüttisheim","type":"Kreisangehörige_Gemeinde"},"district":{"key":"08425","name":"Alb-Donau-Kreis","type":"Landkreis"},"federalState":{"key":"08","name":"Baden-Württemberg"}},{"name":"Hauptstr.","postalCode":"89185","locality":"Hüttisheim","municipality":{"key":"08425064","name":"Hüttisheim","type":"Kreisangehörige_Gemeinde"},"district":{"key":"08425","name":"Alb-Donau-Kreis","type":"Landkreis"},"federalState":{"key":"08","name":"Baden-Württemberg"}},{"name":"Herdweg","postalCode":"89185","locality":"Hüttisheim","municipality":{"key":"08425064","name":"Hüttisheim","type":"Kreisangehörige_Gemeinde"},"district":{"key":"08425","name":"Alb-Donau-Kreis","type":"Landkreis"},"federalState":{"key":"08","name":"Baden-Württemberg"}},{"name":"Hornweg","postalCode":"89185","locality":"Hüttisheim","municipality":{"key":"08425064","name":"Hüttisheim","type":"Kreisangehörige_Gemeinde"},"district":{"key":"08425","name":"Alb-Donau-Kreis","type":"Landkreis"},"federalState":{"key":"08","name":"Baden-Württemberg"}},{"name":"Humlanger Str.","postalCode":"89185","locality":"Hüttisheim","municipality":{"key":"08425064","name":"Hüttisheim","type":"Kreisangehörige_Gemeinde"},"district":{"key":"08425","name":"Alb-Donau-Kreis","type":"Landkreis"},"federalState":{"key":"08","name":"Baden-Württemberg"}},{"name":"Im Eppen","postalCode":"89185","locality":"Hüttisheim","municipality":{"key":"08425064","name":"Hüttisheim","type":"Kreisangehörige_Gemeinde"},"district":{"key":"08425","name":"Alb-Donau-Kreis","type":"Landkreis"},"federalState":{"key":"08","name":"Baden-Württemberg"}},{"name":"Im Groppen","postalCode":"89185","locality":"Hüttisheim","municipality":{"key":"08425064","name":"Hüttisheim","type":"Kreisangehörige_Gemeinde"},"district":{"key":"08425","name":"Alb-Donau-Kreis","type":"Landkreis"},"federalState":{"key":"08","name":"Baden-Württemberg"}},{"name":"Im Grünen Winkel","postalCode":"89185","locality":"Hüttisheim","municipality":{"key":"08425064","name":"Hüttisheim","type":"Kreisangehörige_Gemeinde"},"district":{"key":"08425","name":"Alb-Donau-Kreis","type":"Landkreis"},"federalState":{"key":"08","name":"Baden-Württemberg"}},{"name":"In den Gassen","postalCode":"89185","locality":"Hüttisheim","municipality":{"key":"08425064","name":"Hüttisheim","type":"Kreisangehörige_Gemeinde"},"district":{"key":"08425","name":"Alb-Donau-Kreis","type":"Landkreis"},"federalState":{"key":"08","name":"Baden-Württemberg"}},{"name":"Kapellenweg","postalCode":"89185","locality":"Hüttisheim","municipality":{"key":"08425064","name":"Hüttisheim","type":"Kreisangehörige_Gemeinde"},"district":{"key":"08425","name":"Alb-Donau-Kreis","type":"Landkreis"},"federalState":{"key":"08","name":"Baden-Württemberg"}},{"name":"Kirchweg","postalCode":"89185","locality":"Hüttisheim","municipality":{"key":"08425064","name":"Hüttisheim","type":"Kreisangehörige_Gemeinde"},"district":{"key":"08425","name":"Alb-Donau-Kreis","type":"Landkreis"},"federalState":{"key":"08","name":"Baden-Württemberg"}},{"name":"Krautgartenweg","postalCode":"89185","locality":"Hüttisheim","municipality":{"key":"08425064","name":"Hüttisheim","type":"Kreisangehörige_Gemeinde"},"district":{"key":"08425","name":"Alb-Donau-Kreis","type":"Landkreis"},"federalState":{"key":"08","name":"Baden-Württemberg"}},{"name":"Lindenstr.","postalCode":"89185","locality":"Hüttisheim","municipality":{"key":"08425064","name":"Hüttisheim","type":"Kreisangehörige_Gemeinde"},"district":{"key":"08425","name":"Alb-Donau-Kreis","type":"Landkreis"},"federalState":{"key":"08","name":"Baden-Württemberg"}},{"name":"Münchhof","postalCode":"89185","locality":"Hüttisheim","municipality":{"key":"08425064","name":"Hüttisheim","type":"Kreisangehörige_Gemeinde"},"district":{"key":"08425","name":"Alb-Donau-Kreis","type":"Landkreis"},"federalState":{"key":"08","name":"Baden-Württemberg"}},{"name":"Narzissenweg","postalCode":"89185","locality":"Hüttisheim","municipality":{"key":"08425064","name":"Hüttisheim","type":"Kreisangehörige_Gemeinde"},"district":{"key":"08425","name":"Alb-Donau-Kreis","type":"Landkreis"},"federalState":{"key":"08","name":"Baden-Württemberg"}},{"name":"Nelkenweg","postalCode":"89185","locality":"Hüttisheim","municipality":{"key":"08425064","name":"Hüttisheim","type":"Kreisangehörige_Gemeinde"},"district":{"key":"08425","name":"Alb-Donau-Kreis","type":"Landkreis"},"federalState":{"key":"08","name":"Baden-Württemberg"}},{"name":"Pfarrer-Seif-Weg","postalCode":"89185","locality":"Hüttisheim","municipality":{"key":"08425064","name":"Hüttisheim","type":"Kreisangehörige_Gemeinde"},"district":{"key":"08425","name":"Alb-Donau-Kreis","type":"Landkreis"},"federalState":{"key":"08","name":"Baden-Württemberg"}},{"name":"Riedweg","postalCode":"89185","locality":"Hüttisheim","municipality":{"key":"08425064","name":"Hüttisheim","type":"Kreisangehörige_Gemeinde"},"district":{"key":"08425","name":"Alb-Donau-Kreis","type":"Landkreis"},"federalState":{"key":"08","name":"Baden-Württemberg"}},{"name":"Ringstr.","postalCode":"89185","locality":"Hüttisheim","municipality":{"key":"08425064","name":"Hüttisheim","type":"Kreisangehörige_Gemeinde"},"district":{"key":"08425","name":"Alb-Donau-Kreis","type":"Landkreis"},"federalState":{"key":"08","name":"Baden-Württemberg"}},{"name":"Schmieheweg","postalCode":"89185","locality":"Hüttisheim","municipality":{"key":"08425064","name":"Hüttisheim","type":"Kreisangehörige_Gemeinde"},"district":{"key":"08425","name":"Alb-Donau-Kreis","type":"Landkreis"},"federalState":{"key":"08","name":"Baden-Württemberg"}},{"name":"Seebachhof","postalCode":"89185","locality":"Hüttisheim","municipality":{"key":"08425064","name":"Hüttisheim","type":"Kreisangehörige_Gemeinde"},"district":{"key":"08425","name":"Alb-Donau-Kreis","type":"Landkreis"},"federalState":{"key":"08","name":"Baden-Württemberg"}},{"name":"Stettener Weg","postalCode":"89185","locality":"Hüttisheim","municipality":{"key":"08425064","name":"Hüttisheim","type":"Kreisangehörige_Gemeinde"},"district":{"key":"08425","name":"Alb-Donau-Kreis","type":"Landkreis"},"federalState":{"key":"08","name":"Baden-Württemberg"}},{"name":"Stöcklesäcker","postalCode":"89185","locality":"Hüttisheim","municipality":{"key":"08425064","name":"Hüttisheim","type":"Kreisangehörige_Gemeinde"},"district":{"key":"08425","name":"Alb-Donau-Kreis","type":"Landkreis"},"federalState":{"key":"08","name":"Baden-Württemberg"}},{"name":"Tulpenweg","postalCode":"89185","locality":"Hüttisheim","municipality":{"key":"08425064","name":"Hüttisheim","type":"Kreisangehörige_Gemeinde"},"district":{"key":"08425","name":"Alb-Donau-Kreis","type":"Landkreis"},"federalState":{"key":"08","name":"Baden-Württemberg"}},{"name":"Ulmer Weg","postalCode":"89185","locality":"Hüttisheim","municipality":{"key":"08425064","name":"Hüttisheim","type":"Kreisangehörige_Gemeinde"},"district":{"key":"08425","name":"Alb-Donau-Kreis","type":"Landkreis"},"federalState":{"key":"08","name":"Baden-Württemberg"}},{"name":"Vogelsangstr.","postalCode":"89185","locality":"Hüttisheim","municipality":{"key":"08425064","name":"Hüttisheim","type":"Kreisangehörige_Gemeinde"},"district":{"key":"08425","name":"Alb-Donau-Kreis","type":"Landkreis"},"federalState":{"key":"08","name":"Baden-Württemberg"}},{"name":"Weibersaat","postalCode":"89185","locality":"Hüttisheim","municipality":{"key":"08425064","name":"Hüttisheim","type":"Kreisangehörige_Gemeinde"},"district":{"key":"08425","name":"Alb-Donau-Kreis","type":"Landkreis"},"federalState":{"key":"08","name":"Baden-Württemberg"}},{"name":"Weiherweg","postalCode":"89185","locality":"Hüttisheim","municipality":{"key":"08425064","name":"Hüttisheim","type":"Kreisangehörige_Gemeinde"},"district":{"key":"08425","name":"Alb-Donau-Kreis","type":"Landkreis"},"federalState":{"key":"08","name":"Baden-Württemberg"}},{"name":"Zehntstadelweg","postalCode":"89185","locality":"Hüttisheim","municipality":{"key":"08425064","name":"Hüttisheim","type":"Kreisangehörige_Gemeinde"},"district":{"key":"08425","name":"Alb-Donau-Kreis","type":"Landkreis"},"federalState":{"key":"08","name":"Baden-Württemberg"}},{"name":"Ziegelei","postalCode":"89185","locality":"Hüttisheim","municipality":{"key":"08425064","name":"Hüttisheim","type":"Kreisangehörige_Gemeinde"},"district":{"key":"08425","name":"Alb-Donau-Kreis","type":"Landkreis"},"federalState":{"key":"08","name":"Baden-Württemberg"}},]