[{"key":"10149108","name":"An Kirchstetten","postalCode":"4246","locality":"Wahlen b. Laufen","commune":{"key":"2792","name":"Wahlen","shortName":"Wahlen"},"district":{"key":"1302","name":"Bezirk Laufen"},"canton":{"key":"13","code":"BL","name":"Basel-Landschaft"},"status":"Real"},{"key":"10074025","name":"Auf Leymen","postalCode":"4246","locality":"Wahlen b. Laufen","commune":{"key":"2792","name":"Wahlen","shortName":"Wahlen"},"district":{"key":"1302","name":"Bezirk Laufen"},"canton":{"key":"13","code":"BL","name":"Basel-Landschaft"},"status":"Real"},{"key":"10008903","name":"Ausserdorfstrasse","postalCode":"3046","locality":"Wahlendorf","commune":{"key":"307","name":"Meikirch","shortName":"Meikirch"},"district":{"key":"246","name":"Verwaltungskreis Bern-Mittelland"},"canton":{"key":"2","code":"BE","name":"Bern / Berne"},"status":"Real"},{"key":"10185215","name":"Bännli","postalCode":"4246","locality":"Wahlen b. Laufen","commune":{"key":"2792","name":"Wahlen","shortName":"Wahlen"},"district":{"key":"1302","name":"Bezirk Laufen"},"canton":{"key":"13","code":"BL","name":"Basel-Landschaft"},"status":"Real"},{"key":"10027097","name":"Bifangweg","postalCode":"4246","locality":"Wahlen b. Laufen","commune":{"key":"2792","name":"Wahlen","shortName":"Wahlen"},"district":{"key":"1302","name":"Bezirk Laufen"},"canton":{"key":"13","code":"BL","name":"Basel-Landschaft"},"status":"Real"},{"key":"10140535","name":"Birchenweg","postalCode":"4246","locality":"Wahlen b. Laufen","commune":{"key":"2792","name":"Wahlen","shortName":"Wahlen"},"district":{"key":"1302","name":"Bezirk Laufen"},"canton":{"key":"13","code":"BL","name":"Basel-Landschaft"},"status":"Real"},{"key":"10140496","name":"Breitenbachstrasse","postalCode":"4246","locality":"Wahlen b. Laufen","commune":{"key":"2792","name":"Wahlen","shortName":"Wahlen"},"district":{"key":"1302","name":"Bezirk Laufen"},"canton":{"key":"13","code":"BL","name":"Basel-Landschaft"},"status":"Real"},{"key":"10027098","name":"Breitenbachweg","postalCode":"4246","locality":"Wahlen b. Laufen","commune":{"key":"2792","name":"Wahlen","shortName":"Wahlen"},"district":{"key":"1302","name":"Bezirk Laufen"},"canton":{"key":"13","code":"BL","name":"Basel-Landschaft"},"status":"Real"},{"key":"10096476","name":"Büsserachstrasse","postalCode":"4246","locality":"Wahlen b. Laufen","commune":{"key":"2792","name":"Wahlen","shortName":"Wahlen"},"district":{"key":"1302","name":"Bezirk Laufen"},"canton":{"key":"13","code":"BL","name":"Basel-Landschaft"},"status":"Real"},{"key":"10058067","name":"Dörfli","postalCode":"3046","locality":"Wahlendorf","commune":{"key":"307","name":"Meikirch","shortName":"Meikirch"},"district":{"key":"246","name":"Verwaltungskreis Bern-Mittelland"},"canton":{"key":"2","code":"BE","name":"Bern / Berne"},"status":"Real"},{"key":"10008904","name":"Dorfstrasse","postalCode":"3046","locality":"Wahlendorf","commune":{"key":"307","name":"Meikirch","shortName":"Meikirch"},"district":{"key":"246","name":"Verwaltungskreis Bern-Mittelland"},"canton":{"key":"2","code":"BE","name":"Bern / Berne"},"status":"Real"},{"key":"10162976","name":"Düfelbach","postalCode":"4246","locality":"Wahlen b. Laufen","commune":{"key":"2792","name":"Wahlen","shortName":"Wahlen"},"district":{"key":"1302","name":"Bezirk Laufen"},"canton":{"key":"13","code":"BL","name":"Basel-Landschaft"},"status":"Real"},{"key":"10201455","name":"Eichhof","postalCode":"4246","locality":"Wahlen b. Laufen","commune":{"key":"2792","name":"Wahlen","shortName":"Wahlen"},"district":{"key":"1302","name":"Bezirk Laufen"},"canton":{"key":"13","code":"BL","name":"Basel-Landschaft"},"status":"Real"},{"key":"10201446","name":"Eichhölzliweg","postalCode":"4246","locality":"Wahlen b. Laufen","commune":{"key":"2792","name":"Wahlen","shortName":"Wahlen"},"district":{"key":"1302","name":"Bezirk Laufen"},"canton":{"key":"13","code":"BL","name":"Basel-Landschaft"},"status":"Real"},{"key":"10008905","name":"Feldweg","postalCode":"3046","locality":"Wahlendorf","commune":{"key":"307","name":"Meikirch","shortName":"Meikirch"},"district":{"key":"246","name":"Verwaltungskreis Bern-Mittelland"},"canton":{"key":"2","code":"BE","name":"Bern / Berne"},"status":"Real"},{"key":"10027099","name":"Fuchsgasse","postalCode":"4246","locality":"Wahlen b. Laufen","commune":{"key":"2792","name":"Wahlen","shortName":"Wahlen"},"district":{"key":"1302","name":"Bezirk Laufen"},"canton":{"key":"13","code":"BL","name":"Basel-Landschaft"},"status":"Real"},{"key":"10027100","name":"Grindelstrasse","postalCode":"4246","locality":"Wahlen b. Laufen","commune":{"key":"2792","name":"Wahlen","shortName":"Wahlen"},"district":{"key":"1302","name":"Bezirk Laufen"},"canton":{"key":"13","code":"BL","name":"Basel-Landschaft"},"status":"Real"},{"key":"10218888","name":"Guggisachersaumweg","postalCode":"3046","locality":"Wahlendorf","commune":{"key":"307","name":"Meikirch","shortName":"Meikirch"},"district":{"key":"246","name":"Verwaltungskreis Bern-Mittelland"},"canton":{"key":"2","code":"BE","name":"Bern / Berne"},"status":"Real"},{"key":"10079320","name":"Guggisacker","postalCode":"3046","locality":"Wahlendorf","commune":{"key":"307","name":"Meikirch","shortName":"Meikirch"},"district":{"key":"246","name":"Verwaltungskreis Bern-Mittelland"},"canton":{"key":"2","code":"BE","name":"Bern / Berne"},"status":"Real"},{"key":"10140477","name":"Hinterleymenweg","postalCode":"4246","locality":"Wahlen b. Laufen","commune":{"key":"2792","name":"Wahlen","shortName":"Wahlen"},"district":{"key":"1302","name":"Bezirk Laufen"},"canton":{"key":"13","code":"BL","name":"Basel-Landschaft"},"status":"Real"},{"key":"10117087","name":"Hubelweg","postalCode":"3046","locality":"Wahlendorf","commune":{"key":"307","name":"Meikirch","shortName":"Meikirch"},"district":{"key":"246","name":"Verwaltungskreis Bern-Mittelland"},"canton":{"key":"2","code":"BE","name":"Bern / Berne"},"status":"Real"},{"key":"10201441","name":"Im Witist","postalCode":"4246","locality":"Wahlen b. Laufen","commune":{"key":"2792","name":"Wahlen","shortName":"Wahlen"},"district":{"key":"1302","name":"Bezirk Laufen"},"canton":{"key":"13","code":"BL","name":"Basel-Landschaft"},"status":"Real"},{"key":"10087923","name":"In den Spitzen","postalCode":"4246","locality":"Wahlen b. Laufen","commune":{"key":"2792","name":"Wahlen","shortName":"Wahlen"},"district":{"key":"1302","name":"Bezirk Laufen"},"canton":{"key":"13","code":"BL","name":"Basel-Landschaft"},"status":"Real"},{"key":"10096477","name":"In den Weihern","postalCode":"4246","locality":"Wahlen b. Laufen","commune":{"key":"2792","name":"Wahlen","shortName":"Wahlen"},"district":{"key":"1302","name":"Bezirk Laufen"},"canton":{"key":"13","code":"BL","name":"Basel-Landschaft"},"status":"Real"},{"key":"10179198","name":"In den Zweigen","postalCode":"4246","locality":"Wahlen b. Laufen","commune":{"key":"2792","name":"Wahlen","shortName":"Wahlen"},"district":{"key":"1302","name":"Bezirk Laufen"},"canton":{"key":"13","code":"BL","name":"Basel-Landschaft"},"status":"Real"},{"key":"10202316","name":"In der Spitzi","postalCode":"4246","locality":"Wahlen b. Laufen","commune":{"key":"2792","name":"Wahlen","shortName":"Wahlen"},"district":{"key":"1302","name":"Bezirk Laufen"},"canton":{"key":"13","code":"BL","name":"Basel-Landschaft"},"status":"Real"},{"key":"10008906","name":"Innerdorf","postalCode":"3046","locality":"Wahlendorf","commune":{"key":"307","name":"Meikirch","shortName":"Meikirch"},"district":{"key":"246","name":"Verwaltungskreis Bern-Mittelland"},"canton":{"key":"2","code":"BE","name":"Bern / Berne"},"status":"Real"},{"key":"10177016","name":"Juraweg","postalCode":"3046","locality":"Wahlendorf","commune":{"key":"307","name":"Meikirch","shortName":"Meikirch"},"district":{"key":"246","name":"Verwaltungskreis Bern-Mittelland"},"canton":{"key":"2","code":"BE","name":"Bern / Berne"},"status":"Real"},{"key":"10221180","name":"Kielegrabenweg","postalCode":"3046","locality":"Wahlendorf","commune":{"key":"307","name":"Meikirch","shortName":"Meikirch"},"district":{"key":"246","name":"Verwaltungskreis Bern-Mittelland"},"canton":{"key":"2","code":"BE","name":"Bern / Berne"},"status":"Real"},{"key":"10120632","name":"Kirchgasse","postalCode":"4246","locality":"Wahlen b. Laufen","commune":{"key":"2792","name":"Wahlen","shortName":"Wahlen"},"district":{"key":"1302","name":"Bezirk Laufen"},"canton":{"key":"13","code":"BL","name":"Basel-Landschaft"},"status":"Real"},{"key":"10162978","name":"Kohlrütti","postalCode":"4246","locality":"Wahlen b. Laufen","commune":{"key":"2792","name":"Wahlen","shortName":"Wahlen"},"district":{"key":"1302","name":"Bezirk Laufen"},"canton":{"key":"13","code":"BL","name":"Basel-Landschaft"},"status":"Real"},{"key":"10096478","name":"Kundmattweg","postalCode":"4246","locality":"Wahlen b. Laufen","commune":{"key":"2792","name":"Wahlen","shortName":"Wahlen"},"district":{"key":"1302","name":"Bezirk Laufen"},"canton":{"key":"13","code":"BL","name":"Basel-Landschaft"},"status":"Real"},{"key":"10124082","name":"Laufenstrasse","postalCode":"4246","locality":"Wahlen b. Laufen","commune":{"key":"2792","name":"Wahlen","shortName":"Wahlen"},"district":{"key":"1302","name":"Bezirk Laufen"},"canton":{"key":"13","code":"BL","name":"Basel-Landschaft"},"status":"Real"},{"key":"10201451","name":"Lehnengasse","postalCode":"4246","locality":"Wahlen b. Laufen","commune":{"key":"2792","name":"Wahlen","shortName":"Wahlen"},"district":{"key":"1302","name":"Bezirk Laufen"},"canton":{"key":"13","code":"BL","name":"Basel-Landschaft"},"status":"Real"},{"key":"10008907","name":"Lerchenweg","postalCode":"3046","locality":"Wahlendorf","commune":{"key":"307","name":"Meikirch","shortName":"Meikirch"},"district":{"key":"246","name":"Verwaltungskreis Bern-Mittelland"},"canton":{"key":"2","code":"BE","name":"Bern / Berne"},"status":"Real"},{"key":"10027101","name":"Mättlein","postalCode":"4246","locality":"Wahlen b. Laufen","commune":{"key":"2792","name":"Wahlen","shortName":"Wahlen"},"district":{"key":"1302","name":"Bezirk Laufen"},"canton":{"key":"13","code":"BL","name":"Basel-Landschaft"},"status":"Real"},{"key":"10201447","name":"Munigarten","postalCode":"4246","locality":"Wahlen b. Laufen","commune":{"key":"2792","name":"Wahlen","shortName":"Wahlen"},"district":{"key":"1302","name":"Bezirk Laufen"},"canton":{"key":"13","code":"BL","name":"Basel-Landschaft"},"status":"Real"},{"key":"10118237","name":"Obermatt","postalCode":"3046","locality":"Wahlendorf","commune":{"key":"307","name":"Meikirch","shortName":"Meikirch"},"district":{"key":"246","name":"Verwaltungskreis Bern-Mittelland"},"canton":{"key":"2","code":"BE","name":"Bern / Berne"},"status":"Real"},{"key":"10208763","name":"Ober Tannwald","postalCode":"4246","locality":"Wahlen b. Laufen","commune":{"key":"2792","name":"Wahlen","shortName":"Wahlen"},"district":{"key":"1302","name":"Bezirk Laufen"},"canton":{"key":"13","code":"BL","name":"Basel-Landschaft"},"status":"Real"},{"key":"10062233","name":"Reservoirweg","postalCode":"3046","locality":"Wahlendorf","commune":{"key":"307","name":"Meikirch","shortName":"Meikirch"},"district":{"key":"246","name":"Verwaltungskreis Bern-Mittelland"},"canton":{"key":"2","code":"BE","name":"Bern / Berne"},"status":"Real"},{"key":"10027102","name":"Rüttiweg","postalCode":"4246","locality":"Wahlen b. Laufen","commune":{"key":"2792","name":"Wahlen","shortName":"Wahlen"},"district":{"key":"1302","name":"Bezirk Laufen"},"canton":{"key":"13","code":"BL","name":"Basel-Landschaft"},"status":"Real"},{"key":"10190118","name":"Sägestrasse","postalCode":"3046","locality":"Wahlendorf","commune":{"key":"307","name":"Meikirch","shortName":"Meikirch"},"district":{"key":"246","name":"Verwaltungskreis Bern-Mittelland"},"canton":{"key":"2","code":"BE","name":"Bern / Berne"},"status":"Real"},{"key":"10096479","name":"Schulstrasse","postalCode":"4246","locality":"Wahlen b. Laufen","commune":{"key":"2792","name":"Wahlen","shortName":"Wahlen"},"district":{"key":"1302","name":"Bezirk Laufen"},"canton":{"key":"13","code":"BL","name":"Basel-Landschaft"},"status":"Real"},{"key":"10201442","name":"Schützenweg","postalCode":"4246","locality":"Wahlen b. Laufen","commune":{"key":"2792","name":"Wahlen","shortName":"Wahlen"},"district":{"key":"1302","name":"Bezirk Laufen"},"canton":{"key":"13","code":"BL","name":"Basel-Landschaft"},"status":"Real"},{"key":"10079321","name":"Seienberg","postalCode":"3046","locality":"Wahlendorf","commune":{"key":"307","name":"Meikirch","shortName":"Meikirch"},"district":{"key":"246","name":"Verwaltungskreis Bern-Mittelland"},"canton":{"key":"2","code":"BE","name":"Bern / Berne"},"status":"Real"},{"key":"10074026","name":"Selmattweg","postalCode":"4246","locality":"Wahlen b. Laufen","commune":{"key":"2792","name":"Wahlen","shortName":"Wahlen"},"district":{"key":"1302","name":"Bezirk Laufen"},"canton":{"key":"13","code":"BL","name":"Basel-Landschaft"},"status":"Real"},{"key":"10027103","name":"Sennweg","postalCode":"4246","locality":"Wahlen b. Laufen","commune":{"key":"2792","name":"Wahlen","shortName":"Wahlen"},"district":{"key":"1302","name":"Bezirk Laufen"},"canton":{"key":"13","code":"BL","name":"Basel-Landschaft"},"status":"Real"},{"key":"10008908","name":"Spycherweg","postalCode":"3046","locality":"Wahlendorf","commune":{"key":"307","name":"Meikirch","shortName":"Meikirch"},"district":{"key":"246","name":"Verwaltungskreis Bern-Mittelland"},"canton":{"key":"2","code":"BE","name":"Bern / Berne"},"status":"Real"},{"key":"10004098","name":"Sternenbachmatt","postalCode":"3046","locality":"Wahlendorf","commune":{"key":"307","name":"Meikirch","shortName":"Meikirch"},"district":{"key":"246","name":"Verwaltungskreis Bern-Mittelland"},"canton":{"key":"2","code":"BE","name":"Bern / Berne"},"status":"Real"},{"key":"10175887","name":"Stürmenweg","postalCode":"4246","locality":"Wahlen b. Laufen","commune":{"key":"2792","name":"Wahlen","shortName":"Wahlen"},"district":{"key":"1302","name":"Bezirk Laufen"},"canton":{"key":"13","code":"BL","name":"Basel-Landschaft"},"status":"Real"},{"key":"10056764","name":"Tannacker","postalCode":"3046","locality":"Wahlendorf","commune":{"key":"307","name":"Meikirch","shortName":"Meikirch"},"district":{"key":"246","name":"Verwaltungskreis Bern-Mittelland"},"canton":{"key":"2","code":"BE","name":"Bern / Berne"},"status":"Real"},{"key":"10027104","name":"Tannwaldweg","postalCode":"4246","locality":"Wahlen b. Laufen","commune":{"key":"2792","name":"Wahlen","shortName":"Wahlen"},"district":{"key":"1302","name":"Bezirk Laufen"},"canton":{"key":"13","code":"BL","name":"Basel-Landschaft"},"status":"Real"},{"key":"10201456","name":"Turnplatzweg","postalCode":"4246","locality":"Wahlen b. Laufen","commune":{"key":"2792","name":"Wahlen","shortName":"Wahlen"},"district":{"key":"1302","name":"Bezirk Laufen"},"canton":{"key":"13","code":"BL","name":"Basel-Landschaft"},"status":"Real"},{"key":"10200363","name":"Unter Tannen","postalCode":"4246","locality":"Wahlen b. Laufen","commune":{"key":"2792","name":"Wahlen","shortName":"Wahlen"},"district":{"key":"1302","name":"Bezirk Laufen"},"canton":{"key":"13","code":"BL","name":"Basel-Landschaft"},"status":"Real"},{"key":"10182292","name":"Wahlendorfstrasse","postalCode":"3046","locality":"Wahlendorf","commune":{"key":"307","name":"Meikirch","shortName":"Meikirch"},"district":{"key":"246","name":"Verwaltungskreis Bern-Mittelland"},"canton":{"key":"2","code":"BE","name":"Bern / Berne"},"status":"Real"},{"key":"10079322","name":"Weidli","postalCode":"3046","locality":"Wahlendorf","commune":{"key":"307","name":"Meikirch","shortName":"Meikirch"},"district":{"key":"246","name":"Verwaltungskreis Bern-Mittelland"},"canton":{"key":"2","code":"BE","name":"Bern / Berne"},"status":"Real"},{"key":"10062234","name":"Weyermattstrasse","postalCode":"3046","locality":"Wahlendorf","commune":{"key":"307","name":"Meikirch","shortName":"Meikirch"},"district":{"key":"246","name":"Verwaltungskreis Bern-Mittelland"},"canton":{"key":"2","code":"BE","name":"Bern / Berne"},"status":"Real"},{"key":"10118589","name":"Wolfgarten","postalCode":"4246","locality":"Wahlen b. Laufen","commune":{"key":"2792","name":"Wahlen","shortName":"Wahlen"},"district":{"key":"1302","name":"Bezirk Laufen"},"canton":{"key":"13","code":"BL","name":"Basel-Landschaft"},"status":"Real"},{"key":"10074027","name":"Zweigenweg","postalCode":"4246","locality":"Wahlen b. Laufen","commune":{"key":"2792","name":"Wahlen","shortName":"Wahlen"},"district":{"key":"1302","name":"Bezirk Laufen"},"canton":{"key":"13","code":"BL","name":"Basel-Landschaft"},"status":"Real"},]