[{"name":"Abt-Konrad-Str.","postalCode":"94530","locality":"Auerbach","municipality":{"key":"09271113","name":"Auerbach","type":"Kreisangehörige_Gemeinde"},"district":{"key":"09271","name":"Deggendorf","type":"Landkreis"},"federalState":{"key":"09","name":"Bayern"}},{"name":"Abt-Prechtl-Str.","postalCode":"91275","locality":"Auerbach in der Oberpfalz","municipality":{"key":"09371113","name":"Auerbach i.d.OPf., St","type":"Stadt"},"district":{"key":"09371","name":"Amberg-Sulzbach","type":"Landkreis"},"federalState":{"key":"09","name":"Bayern"}},{"name":"Ackermannstr.","postalCode":"08209","locality":"Auerbach/Vogtland","municipality":{"key":"14523020","name":"Auerbach/Vogtl., Stadt","type":"Stadt"},"district":{"key":"14523","name":"Vogtlandkreis","type":"Landkreis"},"federalState":{"key":"14","name":"Sachsen"}},{"name":"Adolf-Kolping-Str.","postalCode":"91275","locality":"Auerbach in der Oberpfalz","municipality":{"key":"09371113","name":"Auerbach i.d.OPf., St","type":"Stadt"},"district":{"key":"09371","name":"Amberg-Sulzbach","type":"Landkreis"},"federalState":{"key":"09","name":"Bayern"}},{"name":"A.-F.-Vom-Endt-Str.","postalCode":"91275","locality":"Auerbach in der Oberpfalz","municipality":{"key":"09371113","name":"Auerbach i.d.OPf., St","type":"Stadt"},"district":{"key":"09371","name":"Amberg-Sulzbach","type":"Landkreis"},"federalState":{"key":"09","name":"Bayern"}},{"name":"Albertsberger Str.","postalCode":"08209","locality":"Auerbach/Vogtland","municipality":{"key":"14523020","name":"Auerbach/Vogtl., Stadt","type":"Stadt"},"district":{"key":"14523","name":"Vogtlandkreis","type":"Landkreis"},"federalState":{"key":"14","name":"Sachsen"}},{"name":"Albert-Schweitzer-Str.","postalCode":"08209","locality":"Auerbach/Vogtland","municipality":{"key":"14523020","name":"Auerbach/Vogtl., Stadt","type":"Stadt"},"district":{"key":"14523","name":"Vogtlandkreis","type":"Landkreis"},"federalState":{"key":"14","name":"Sachsen"}},{"name":"Alleestr.","postalCode":"91275","locality":"Auerbach in der Oberpfalz","municipality":{"key":"09371113","name":"Auerbach i.d.OPf., St","type":"Stadt"},"district":{"key":"09371","name":"Amberg-Sulzbach","type":"Landkreis"},"federalState":{"key":"09","name":"Bayern"}},{"name":"Alperting","postalCode":"94530","locality":"Auerbach","municipality":{"key":"09271113","name":"Auerbach","type":"Kreisangehörige_Gemeinde"},"district":{"key":"09271","name":"Deggendorf","type":"Landkreis"},"federalState":{"key":"09","name":"Bayern"}},{"name":"Alte Blumenstr.","postalCode":"08209","locality":"Auerbach/Vogtland","municipality":{"key":"14523020","name":"Auerbach/Vogtl., Stadt","type":"Stadt"},"district":{"key":"14523","name":"Vogtlandkreis","type":"Landkreis"},"federalState":{"key":"14","name":"Sachsen"}},{"name":"Alte Falkensteiner Str.","postalCode":"08209","locality":"Auerbach/Vogtland","municipality":{"key":"14523020","name":"Auerbach/Vogtl., Stadt","type":"Stadt"},"district":{"key":"14523","name":"Vogtlandkreis","type":"Landkreis"},"federalState":{"key":"14","name":"Sachsen"}},{"name":"Alte Mühle","postalCode":"08209","locality":"Auerbach/Vogtland","municipality":{"key":"14523020","name":"Auerbach/Vogtl., Stadt","type":"Stadt"},"district":{"key":"14523","name":"Vogtlandkreis","type":"Landkreis"},"federalState":{"key":"14","name":"Sachsen"}},{"name":"Alter Grenzflügel","postalCode":"08209","locality":"Auerbach/Vogtland","municipality":{"key":"14523020","name":"Auerbach/Vogtl., Stadt","type":"Stadt"},"district":{"key":"14523","name":"Vogtlandkreis","type":"Landkreis"},"federalState":{"key":"14","name":"Sachsen"}},{"name":"Alte Rodewischer Str.","postalCode":"08209","locality":"Auerbach/Vogtland","municipality":{"key":"14523020","name":"Auerbach/Vogtl., Stadt","type":"Stadt"},"district":{"key":"14523","name":"Vogtlandkreis","type":"Landkreis"},"federalState":{"key":"14","name":"Sachsen"}},{"name":"Alte Rützengrüner Str.","postalCode":"08209","locality":"Auerbach/Vogtland","municipality":{"key":"14523020","name":"Auerbach/Vogtl., Stadt","type":"Stadt"},"district":{"key":"14523","name":"Vogtlandkreis","type":"Landkreis"},"federalState":{"key":"14","name":"Sachsen"}},{"name":"Alter Weg","postalCode":"08209","locality":"Auerbach/Vogtland","municipality":{"key":"14523020","name":"Auerbach/Vogtl., Stadt","type":"Stadt"},"district":{"key":"14523","name":"Vogtlandkreis","type":"Landkreis"},"federalState":{"key":"14","name":"Sachsen"}},{"name":"Alter Weg","postalCode":"94530","locality":"Auerbach","municipality":{"key":"09271113","name":"Auerbach","type":"Kreisangehörige_Gemeinde"},"district":{"key":"09271","name":"Deggendorf","type":"Landkreis"},"federalState":{"key":"09","name":"Bayern"}},{"name":"Alte Schönheider Str.","postalCode":"08209","locality":"Auerbach/Vogtland","municipality":{"key":"14523020","name":"Auerbach/Vogtl., Stadt","type":"Stadt"},"district":{"key":"14523","name":"Vogtlandkreis","type":"Landkreis"},"federalState":{"key":"14","name":"Sachsen"}},{"name":"Alte Str.","postalCode":"08209","locality":"Auerbach/Vogtland","municipality":{"key":"14523020","name":"Auerbach/Vogtl., Stadt","type":"Stadt"},"district":{"key":"14523","name":"Vogtlandkreis","type":"Landkreis"},"federalState":{"key":"14","name":"Sachsen"}},{"name":"Altmarkt","postalCode":"08209","locality":"Auerbach/Vogtland","municipality":{"key":"14523020","name":"Auerbach/Vogtl., Stadt","type":"Stadt"},"district":{"key":"14523","name":"Vogtlandkreis","type":"Landkreis"},"federalState":{"key":"14","name":"Sachsen"}},{"name":"Am Anger","postalCode":"09392","locality":"Auerbach","municipality":{"key":"14521040","name":"Auerbach","type":"Kreisangehörige_Gemeinde"},"district":{"key":"14521","name":"Erzgebirgskreis","type":"Landkreis"},"federalState":{"key":"14","name":"Sachsen"}},{"name":"Am Anger","postalCode":"91275","locality":"Auerbach in der Oberpfalz","municipality":{"key":"09371113","name":"Auerbach i.d.OPf., St","type":"Stadt"},"district":{"key":"09371","name":"Amberg-Sulzbach","type":"Landkreis"},"federalState":{"key":"09","name":"Bayern"}},{"name":"Am Bahndamm","postalCode":"91275","locality":"Auerbach in der Oberpfalz","municipality":{"key":"09371113","name":"Auerbach i.d.OPf., St","type":"Stadt"},"district":{"key":"09371","name":"Amberg-Sulzbach","type":"Landkreis"},"federalState":{"key":"09","name":"Bayern"}},{"name":"Am Behälterweiher","postalCode":"91275","locality":"Auerbach in der Oberpfalz","municipality":{"key":"09371113","name":"Auerbach i.d.OPf., St","type":"Stadt"},"district":{"key":"09371","name":"Amberg-Sulzbach","type":"Landkreis"},"federalState":{"key":"09","name":"Bayern"}},{"name":"Am Bendelstein","postalCode":"08209","locality":"Auerbach/Vogtland","municipality":{"key":"14523020","name":"Auerbach/Vogtl., Stadt","type":"Stadt"},"district":{"key":"14523","name":"Vogtlandkreis","type":"Landkreis"},"federalState":{"key":"14","name":"Sachsen"}},{"name":"Am Berg","postalCode":"91275","locality":"Auerbach in der Oberpfalz","municipality":{"key":"09371113","name":"Auerbach i.d.OPf., St","type":"Stadt"},"district":{"key":"09371","name":"Amberg-Sulzbach","type":"Landkreis"},"federalState":{"key":"09","name":"Bayern"}},{"name":"Am Berghang","postalCode":"08209","locality":"Auerbach/Vogtland","municipality":{"key":"14523020","name":"Auerbach/Vogtl., Stadt","type":"Stadt"},"district":{"key":"14523","name":"Vogtlandkreis","type":"Landkreis"},"federalState":{"key":"14","name":"Sachsen"}},{"name":"Am Büchert","postalCode":"09392","locality":"Auerbach","municipality":{"key":"14521040","name":"Auerbach","type":"Kreisangehörige_Gemeinde"},"district":{"key":"14521","name":"Erzgebirgskreis","type":"Landkreis"},"federalState":{"key":"14","name":"Sachsen"}},{"name":"Am Dornbach","postalCode":"91275","locality":"Auerbach in der Oberpfalz","municipality":{"key":"09371113","name":"Auerbach i.d.OPf., St","type":"Stadt"},"district":{"key":"09371","name":"Amberg-Sulzbach","type":"Landkreis"},"federalState":{"key":"09","name":"Bayern"}},{"name":"Ameisenstr.","postalCode":"08209","locality":"Auerbach/Vogtland","municipality":{"key":"14523020","name":"Auerbach/Vogtl., Stadt","type":"Stadt"},"district":{"key":"14523","name":"Vogtlandkreis","type":"Landkreis"},"federalState":{"key":"14","name":"Sachsen"}},{"name":"Am Feldschlößchen","postalCode":"08209","locality":"Auerbach/Vogtland","municipality":{"key":"14523020","name":"Auerbach/Vogtl., Stadt","type":"Stadt"},"district":{"key":"14523","name":"Vogtlandkreis","type":"Landkreis"},"federalState":{"key":"14","name":"Sachsen"}},{"name":"Am Flembach","postalCode":"91275","locality":"Auerbach in der Oberpfalz","municipality":{"key":"09371113","name":"Auerbach i.d.OPf., St","type":"Stadt"},"district":{"key":"09371","name":"Amberg-Sulzbach","type":"Landkreis"},"federalState":{"key":"09","name":"Bayern"}},{"name":"Am Graben","postalCode":"08209","locality":"Auerbach/Vogtland","municipality":{"key":"14523020","name":"Auerbach/Vogtl., Stadt","type":"Stadt"},"district":{"key":"14523","name":"Vogtlandkreis","type":"Landkreis"},"federalState":{"key":"14","name":"Sachsen"}},{"name":"Am Hauptbrunnen","postalCode":"08209","locality":"Auerbach/Vogtland","municipality":{"key":"14523020","name":"Auerbach/Vogtl., Stadt","type":"Stadt"},"district":{"key":"14523","name":"Vogtlandkreis","type":"Landkreis"},"federalState":{"key":"14","name":"Sachsen"}},{"name":"Am Herrenweiher","postalCode":"91275","locality":"Auerbach in der Oberpfalz","municipality":{"key":"09371113","name":"Auerbach i.d.OPf., St","type":"Stadt"},"district":{"key":"09371","name":"Amberg-Sulzbach","type":"Landkreis"},"federalState":{"key":"09","name":"Bayern"}},{"name":"Am Jahnsbacher Berg","postalCode":"09392","locality":"Auerbach","municipality":{"key":"14521040","name":"Auerbach","type":"Kreisangehörige_Gemeinde"},"district":{"key":"14521","name":"Erzgebirgskreis","type":"Landkreis"},"federalState":{"key":"14","name":"Sachsen"}},{"name":"Am Katholischen Berg","postalCode":"08209","locality":"Auerbach/Vogtland","municipality":{"key":"14523020","name":"Auerbach/Vogtl., Stadt","type":"Stadt"},"district":{"key":"14523","name":"Vogtlandkreis","type":"Landkreis"},"federalState":{"key":"14","name":"Sachsen"}},{"name":"Am Lehmhügel","postalCode":"94530","locality":"Auerbach","municipality":{"key":"09271113","name":"Auerbach","type":"Kreisangehörige_Gemeinde"},"district":{"key":"09271","name":"Deggendorf","type":"Landkreis"},"federalState":{"key":"09","name":"Bayern"}},{"name":"Am Lehngericht","postalCode":"09392","locality":"Auerbach","municipality":{"key":"14521040","name":"Auerbach","type":"Kreisangehörige_Gemeinde"},"district":{"key":"14521","name":"Erzgebirgskreis","type":"Landkreis"},"federalState":{"key":"14","name":"Sachsen"}},{"name":"Am Pferracher Berg","postalCode":"91275","locality":"Auerbach in der Oberpfalz","municipality":{"key":"09371113","name":"Auerbach i.d.OPf., St","type":"Stadt"},"district":{"key":"09371","name":"Amberg-Sulzbach","type":"Landkreis"},"federalState":{"key":"09","name":"Bayern"}},{"name":"Am Rabensteig","postalCode":"91275","locality":"Auerbach in der Oberpfalz","municipality":{"key":"09371113","name":"Auerbach i.d.OPf., St","type":"Stadt"},"district":{"key":"09371","name":"Amberg-Sulzbach","type":"Landkreis"},"federalState":{"key":"09","name":"Bayern"}},{"name":"Am Rosinenberg","postalCode":"08209","locality":"Auerbach/Vogtland","municipality":{"key":"14523020","name":"Auerbach/Vogtl., Stadt","type":"Stadt"},"district":{"key":"14523","name":"Vogtlandkreis","type":"Landkreis"},"federalState":{"key":"14","name":"Sachsen"}},{"name":"Am Saustall","postalCode":"09392","locality":"Auerbach","municipality":{"key":"14521040","name":"Auerbach","type":"Kreisangehörige_Gemeinde"},"district":{"key":"14521","name":"Erzgebirgskreis","type":"Landkreis"},"federalState":{"key":"14","name":"Sachsen"}},{"name":"Am Schillerpark","postalCode":"08209","locality":"Auerbach/Vogtland","municipality":{"key":"14523020","name":"Auerbach/Vogtl., Stadt","type":"Stadt"},"district":{"key":"14523","name":"Vogtlandkreis","type":"Landkreis"},"federalState":{"key":"14","name":"Sachsen"}},{"name":"Am Schulberg","postalCode":"08209","locality":"Auerbach/Vogtland","municipality":{"key":"14523020","name":"Auerbach/Vogtl., Stadt","type":"Stadt"},"district":{"key":"14523","name":"Vogtlandkreis","type":"Landkreis"},"federalState":{"key":"14","name":"Sachsen"}},{"name":"Am Schwedenturm","postalCode":"91275","locality":"Auerbach in der Oberpfalz","municipality":{"key":"09371113","name":"Auerbach i.d.OPf., St","type":"Stadt"},"district":{"key":"09371","name":"Amberg-Sulzbach","type":"Landkreis"},"federalState":{"key":"09","name":"Bayern"}},{"name":"Amselweg","postalCode":"08209","locality":"Auerbach/Vogtland","municipality":{"key":"14523020","name":"Auerbach/Vogtl., Stadt","type":"Stadt"},"district":{"key":"14523","name":"Vogtlandkreis","type":"Landkreis"},"federalState":{"key":"14","name":"Sachsen"}},{"name":"Am Spitlberg","postalCode":"91275","locality":"Auerbach in der Oberpfalz","municipality":{"key":"09371113","name":"Auerbach i.d.OPf., St","type":"Stadt"},"district":{"key":"09371","name":"Amberg-Sulzbach","type":"Landkreis"},"federalState":{"key":"09","name":"Bayern"}},{"name":"Am Sportplatz","postalCode":"08209","locality":"Auerbach/Vogtland","municipality":{"key":"14523020","name":"Auerbach/Vogtl., Stadt","type":"Stadt"},"district":{"key":"14523","name":"Vogtlandkreis","type":"Landkreis"},"federalState":{"key":"14","name":"Sachsen"}},{"name":"Am Steinern Brückl","postalCode":"91275","locality":"Auerbach in der Oberpfalz","municipality":{"key":"09371113","name":"Auerbach i.d.OPf., St","type":"Stadt"},"district":{"key":"09371","name":"Amberg-Sulzbach","type":"Landkreis"},"federalState":{"key":"09","name":"Bayern"}},{"name":"Bachgasse","postalCode":"08209","locality":"Auerbach/Vogtland","municipality":{"key":"14523020","name":"Auerbach/Vogtl., Stadt","type":"Stadt"},"district":{"key":"14523","name":"Vogtlandkreis","type":"Landkreis"},"federalState":{"key":"14","name":"Sachsen"}},{"name":"Bachgasse","postalCode":"91275","locality":"Auerbach in der Oberpfalz","municipality":{"key":"09371113","name":"Auerbach i.d.OPf., St","type":"Stadt"},"district":{"key":"09371","name":"Amberg-Sulzbach","type":"Landkreis"},"federalState":{"key":"09","name":"Bayern"}},{"name":"Bachhaus","postalCode":"08209","locality":"Auerbach/Vogtland","municipality":{"key":"14523020","name":"Auerbach/Vogtl., Stadt","type":"Stadt"},"district":{"key":"14523","name":"Vogtlandkreis","type":"Landkreis"},"federalState":{"key":"14","name":"Sachsen"}},{"name":"Bachstr.","postalCode":"08209","locality":"Auerbach/Vogtland","municipality":{"key":"14523020","name":"Auerbach/Vogtl., Stadt","type":"Stadt"},"district":{"key":"14523","name":"Vogtlandkreis","type":"Landkreis"},"federalState":{"key":"14","name":"Sachsen"}},{"name":"Badstr.","postalCode":"08209","locality":"Auerbach/Vogtland","municipality":{"key":"14523020","name":"Auerbach/Vogtl., Stadt","type":"Stadt"},"district":{"key":"14523","name":"Vogtlandkreis","type":"Landkreis"},"federalState":{"key":"14","name":"Sachsen"}},{"name":"Bahnhofstr.","postalCode":"08209","locality":"Auerbach/Vogtland","municipality":{"key":"14523020","name":"Auerbach/Vogtl., Stadt","type":"Stadt"},"district":{"key":"14523","name":"Vogtlandkreis","type":"Landkreis"},"federalState":{"key":"14","name":"Sachsen"}},{"name":"Bahnhofstr.","postalCode":"09392","locality":"Auerbach","municipality":{"key":"14521040","name":"Auerbach","type":"Kreisangehörige_Gemeinde"},"district":{"key":"14521","name":"Erzgebirgskreis","type":"Landkreis"},"federalState":{"key":"14","name":"Sachsen"}},{"name":"Bahnhofstr.","postalCode":"91275","locality":"Auerbach in der Oberpfalz","municipality":{"key":"09371113","name":"Auerbach i.d.OPf., St","type":"Stadt"},"district":{"key":"09371","name":"Amberg-Sulzbach","type":"Landkreis"},"federalState":{"key":"09","name":"Bayern"}},{"name":"Bärenwinkelweg","postalCode":"08209","locality":"Auerbach/Vogtland","municipality":{"key":"14523020","name":"Auerbach/Vogtl., Stadt","type":"Stadt"},"district":{"key":"14523","name":"Vogtlandkreis","type":"Landkreis"},"federalState":{"key":"14","name":"Sachsen"}},{"name":"Barthelstr.","postalCode":"08209","locality":"Auerbach/Vogtland","municipality":{"key":"14523020","name":"Auerbach/Vogtl., Stadt","type":"Stadt"},"district":{"key":"14523","name":"Vogtlandkreis","type":"Landkreis"},"federalState":{"key":"14","name":"Sachsen"}},{"name":"Bauernecke","postalCode":"08209","locality":"Auerbach/Vogtland","municipality":{"key":"14523020","name":"Auerbach/Vogtl., Stadt","type":"Stadt"},"district":{"key":"14523","name":"Vogtlandkreis","type":"Landkreis"},"federalState":{"key":"14","name":"Sachsen"}},{"name":"Baumannstr.","postalCode":"08209","locality":"Auerbach/Vogtland","municipality":{"key":"14523020","name":"Auerbach/Vogtl., Stadt","type":"Stadt"},"district":{"key":"14523","name":"Vogtlandkreis","type":"Landkreis"},"federalState":{"key":"14","name":"Sachsen"}},{"name":"Baumgartenweg","postalCode":"08209","locality":"Auerbach/Vogtland","municipality":{"key":"14523020","name":"Auerbach/Vogtl., Stadt","type":"Stadt"},"district":{"key":"14523","name":"Vogtlandkreis","type":"Landkreis"},"federalState":{"key":"14","name":"Sachsen"}},{"name":"Bebelstr.","postalCode":"08209","locality":"Auerbach/Vogtland","municipality":{"key":"14523020","name":"Auerbach/Vogtl., Stadt","type":"Stadt"},"district":{"key":"14523","name":"Vogtlandkreis","type":"Landkreis"},"federalState":{"key":"14","name":"Sachsen"}},{"name":"Beegerstr.","postalCode":"08209","locality":"Auerbach/Vogtland","municipality":{"key":"14523020","name":"Auerbach/Vogtl., Stadt","type":"Stadt"},"district":{"key":"14523","name":"Vogtlandkreis","type":"Landkreis"},"federalState":{"key":"14","name":"Sachsen"}},{"name":"Beerheider Str.","postalCode":"08209","locality":"Auerbach/Vogtland","municipality":{"key":"14523020","name":"Auerbach/Vogtl., Stadt","type":"Stadt"},"district":{"key":"14523","name":"Vogtlandkreis","type":"Landkreis"},"federalState":{"key":"14","name":"Sachsen"}},{"name":"Beethovenstr.","postalCode":"08209","locality":"Auerbach/Vogtland","municipality":{"key":"14523020","name":"Auerbach/Vogtl., Stadt","type":"Stadt"},"district":{"key":"14523","name":"Vogtlandkreis","type":"Landkreis"},"federalState":{"key":"14","name":"Sachsen"}},{"name":"Beethovenstr.","postalCode":"91275","locality":"Auerbach in der Oberpfalz","municipality":{"key":"09371113","name":"Auerbach i.d.OPf., St","type":"Stadt"},"district":{"key":"09371","name":"Amberg-Sulzbach","type":"Landkreis"},"federalState":{"key":"09","name":"Bayern"}},{"name":"Behälterwiese","postalCode":"91275","locality":"Auerbach in der Oberpfalz","municipality":{"key":"09371113","name":"Auerbach i.d.OPf., St","type":"Stadt"},"district":{"key":"09371","name":"Amberg-Sulzbach","type":"Landkreis"},"federalState":{"key":"09","name":"Bayern"}},{"name":"Bei der Ziegelhütte","postalCode":"91275","locality":"Auerbach in der Oberpfalz","municipality":{"key":"09371113","name":"Auerbach i.d.OPf., St","type":"Stadt"},"district":{"key":"09371","name":"Amberg-Sulzbach","type":"Landkreis"},"federalState":{"key":"09","name":"Bayern"}},{"name":"Berginger Str.","postalCode":"94530","locality":"Auerbach","municipality":{"key":"09271113","name":"Auerbach","type":"Kreisangehörige_Gemeinde"},"district":{"key":"09271","name":"Deggendorf","type":"Landkreis"},"federalState":{"key":"09","name":"Bayern"}},{"name":"Bergknappenstr.","postalCode":"91275","locality":"Auerbach in der Oberpfalz","municipality":{"key":"09371113","name":"Auerbach i.d.OPf., St","type":"Stadt"},"district":{"key":"09371","name":"Amberg-Sulzbach","type":"Landkreis"},"federalState":{"key":"09","name":"Bayern"}},{"name":"Bergstr.","postalCode":"08209","locality":"Auerbach/Vogtland","municipality":{"key":"14523020","name":"Auerbach/Vogtl., Stadt","type":"Stadt"},"district":{"key":"14523","name":"Vogtlandkreis","type":"Landkreis"},"federalState":{"key":"14","name":"Sachsen"}},{"name":"Bergstr.","postalCode":"09392","locality":"Auerbach","municipality":{"key":"14521040","name":"Auerbach","type":"Kreisangehörige_Gemeinde"},"district":{"key":"14521","name":"Erzgebirgskreis","type":"Landkreis"},"federalState":{"key":"14","name":"Sachsen"}},{"name":"Bergstr.","postalCode":"91275","locality":"Auerbach in der Oberpfalz","municipality":{"key":"09371113","name":"Auerbach i.d.OPf., St","type":"Stadt"},"district":{"key":"09371","name":"Amberg-Sulzbach","type":"Landkreis"},"federalState":{"key":"09","name":"Bayern"}},{"name":"Berliner Str.","postalCode":"91275","locality":"Auerbach in der Oberpfalz","municipality":{"key":"09371113","name":"Auerbach i.d.OPf., St","type":"Stadt"},"district":{"key":"09371","name":"Amberg-Sulzbach","type":"Landkreis"},"federalState":{"key":"09","name":"Bayern"}},{"name":"Bernreuther Str.","postalCode":"91275","locality":"Auerbach in der Oberpfalz","municipality":{"key":"09371113","name":"Auerbach i.d.OPf., St","type":"Stadt"},"district":{"key":"09371","name":"Amberg-Sulzbach","type":"Landkreis"},"federalState":{"key":"09","name":"Bayern"}},{"name":"Bertolt-Brecht-Str.","postalCode":"08209","locality":"Auerbach/Vogtland","municipality":{"key":"14523020","name":"Auerbach/Vogtl., Stadt","type":"Stadt"},"district":{"key":"14523","name":"Vogtlandkreis","type":"Landkreis"},"federalState":{"key":"14","name":"Sachsen"}},{"name":"Bienenweg","postalCode":"08209","locality":"Auerbach/Vogtland","municipality":{"key":"14523020","name":"Auerbach/Vogtl., Stadt","type":"Stadt"},"district":{"key":"14523","name":"Vogtlandkreis","type":"Landkreis"},"federalState":{"key":"14","name":"Sachsen"}},{"name":"Birkenbergweg","postalCode":"08209","locality":"Auerbach/Vogtland","municipality":{"key":"14523020","name":"Auerbach/Vogtl., Stadt","type":"Stadt"},"district":{"key":"14523","name":"Vogtlandkreis","type":"Landkreis"},"federalState":{"key":"14","name":"Sachsen"}},{"name":"Birkenstr.","postalCode":"91275","locality":"Auerbach in der Oberpfalz","municipality":{"key":"09371113","name":"Auerbach i.d.OPf., St","type":"Stadt"},"district":{"key":"09371","name":"Amberg-Sulzbach","type":"Landkreis"},"federalState":{"key":"09","name":"Bayern"}},{"name":"Birkenweg","postalCode":"08209","locality":"Auerbach/Vogtland","municipality":{"key":"14523020","name":"Auerbach/Vogtl., Stadt","type":"Stadt"},"district":{"key":"14523","name":"Vogtlandkreis","type":"Landkreis"},"federalState":{"key":"14","name":"Sachsen"}},{"name":"Blumenau","postalCode":"08209","locality":"Auerbach/Vogtland","municipality":{"key":"14523020","name":"Auerbach/Vogtl., Stadt","type":"Stadt"},"district":{"key":"14523","name":"Vogtlandkreis","type":"Landkreis"},"federalState":{"key":"14","name":"Sachsen"}},{"name":"Blumenstr.","postalCode":"08209","locality":"Auerbach/Vogtland","municipality":{"key":"14523020","name":"Auerbach/Vogtl., Stadt","type":"Stadt"},"district":{"key":"14523","name":"Vogtlandkreis","type":"Landkreis"},"federalState":{"key":"14","name":"Sachsen"}},{"name":"Blumenweg","postalCode":"08209","locality":"Auerbach/Vogtland","municipality":{"key":"14523020","name":"Auerbach/Vogtl., Stadt","type":"Stadt"},"district":{"key":"14523","name":"Vogtlandkreis","type":"Landkreis"},"federalState":{"key":"14","name":"Sachsen"}},{"name":"Bognerstr.","postalCode":"91275","locality":"Auerbach in der Oberpfalz","municipality":{"key":"09371113","name":"Auerbach i.d.OPf., St","type":"Stadt"},"district":{"key":"09371","name":"Amberg-Sulzbach","type":"Landkreis"},"federalState":{"key":"09","name":"Bayern"}},{"name":"Braustr.","postalCode":"09392","locality":"Auerbach","municipality":{"key":"14521040","name":"Auerbach","type":"Kreisangehörige_Gemeinde"},"district":{"key":"14521","name":"Erzgebirgskreis","type":"Landkreis"},"federalState":{"key":"14","name":"Sachsen"}},{"name":"Breitäckerweg","postalCode":"91275","locality":"Auerbach in der Oberpfalz","municipality":{"key":"09371113","name":"Auerbach i.d.OPf., St","type":"Stadt"},"district":{"key":"09371","name":"Amberg-Sulzbach","type":"Landkreis"},"federalState":{"key":"09","name":"Bayern"}},{"name":"Breitscheidstr.","postalCode":"08209","locality":"Auerbach/Vogtland","municipality":{"key":"14523020","name":"Auerbach/Vogtl., Stadt","type":"Stadt"},"district":{"key":"14523","name":"Vogtlandkreis","type":"Landkreis"},"federalState":{"key":"14","name":"Sachsen"}},{"name":"Brunnäcker","postalCode":"91275","locality":"Auerbach in der Oberpfalz","municipality":{"key":"09371113","name":"Auerbach i.d.OPf., St","type":"Stadt"},"district":{"key":"09371","name":"Amberg-Sulzbach","type":"Landkreis"},"federalState":{"key":"09","name":"Bayern"}},{"name":"Brunnbergweg","postalCode":"91275","locality":"Auerbach in der Oberpfalz","municipality":{"key":"09371113","name":"Auerbach i.d.OPf., St","type":"Stadt"},"district":{"key":"09371","name":"Amberg-Sulzbach","type":"Landkreis"},"federalState":{"key":"09","name":"Bayern"}},{"name":"Brunner Str.","postalCode":"08209","locality":"Auerbach/Vogtland","municipality":{"key":"14523020","name":"Auerbach/Vogtl., Stadt","type":"Stadt"},"district":{"key":"14523","name":"Vogtlandkreis","type":"Landkreis"},"federalState":{"key":"14","name":"Sachsen"}},{"name":"Brunner Weg","postalCode":"08209","locality":"Auerbach/Vogtland","municipality":{"key":"14523020","name":"Auerbach/Vogtl., Stadt","type":"Stadt"},"district":{"key":"14523","name":"Vogtlandkreis","type":"Landkreis"},"federalState":{"key":"14","name":"Sachsen"}},{"name":"Brunnjacklweg","postalCode":"94530","locality":"Auerbach","municipality":{"key":"09271113","name":"Auerbach","type":"Kreisangehörige_Gemeinde"},"district":{"key":"09271","name":"Deggendorf","type":"Landkreis"},"federalState":{"key":"09","name":"Bayern"}},{"name":"Buchenweg","postalCode":"08209","locality":"Auerbach/Vogtland","municipality":{"key":"14523020","name":"Auerbach/Vogtl., Stadt","type":"Stadt"},"district":{"key":"14523","name":"Vogtlandkreis","type":"Landkreis"},"federalState":{"key":"14","name":"Sachsen"}},{"name":"Buchenweg","postalCode":"09392","locality":"Auerbach","municipality":{"key":"14521040","name":"Auerbach","type":"Kreisangehörige_Gemeinde"},"district":{"key":"14521","name":"Erzgebirgskreis","type":"Landkreis"},"federalState":{"key":"14","name":"Sachsen"}},{"name":"Bulagstr.","postalCode":"91275","locality":"Auerbach in der Oberpfalz","municipality":{"key":"09371113","name":"Auerbach i.d.OPf., St","type":"Stadt"},"district":{"key":"09371","name":"Amberg-Sulzbach","type":"Landkreis"},"federalState":{"key":"09","name":"Bayern"}},{"name":"Burgstr.","postalCode":"08209","locality":"Auerbach/Vogtland","municipality":{"key":"14523020","name":"Auerbach/Vogtl., Stadt","type":"Stadt"},"district":{"key":"14523","name":"Vogtlandkreis","type":"Landkreis"},"federalState":{"key":"14","name":"Sachsen"}},{"name":"Burkhardtsdorfer Kirmessteig","postalCode":"09392","locality":"Auerbach","municipality":{"key":"14521040","name":"Auerbach","type":"Kreisangehörige_Gemeinde"},"district":{"key":"14521","name":"Erzgebirgskreis","type":"Landkreis"},"federalState":{"key":"14","name":"Sachsen"}},{"name":"Burkhardtsdorfer Weg","postalCode":"09392","locality":"Auerbach","municipality":{"key":"14521040","name":"Auerbach","type":"Kreisangehörige_Gemeinde"},"district":{"key":"14521","name":"Erzgebirgskreis","type":"Landkreis"},"federalState":{"key":"14","name":"Sachsen"}},{"name":"Cafestr.","postalCode":"91275","locality":"Auerbach in der Oberpfalz","municipality":{"key":"09371113","name":"Auerbach i.d.OPf., St","type":"Stadt"},"district":{"key":"09371","name":"Amberg-Sulzbach","type":"Landkreis"},"federalState":{"key":"09","name":"Bayern"}},{"name":"Carl-Bauer-Str.","postalCode":"91275","locality":"Auerbach in der Oberpfalz","municipality":{"key":"09371113","name":"Auerbach i.d.OPf., St","type":"Stadt"},"district":{"key":"09371","name":"Amberg-Sulzbach","type":"Landkreis"},"federalState":{"key":"09","name":"Bayern"}},{"name":"Cherrystr.","postalCode":"91275","locality":"Auerbach in der Oberpfalz","municipality":{"key":"09371113","name":"Auerbach i.d.OPf., St","type":"Stadt"},"district":{"key":"09371","name":"Amberg-Sulzbach","type":"Landkreis"},"federalState":{"key":"09","name":"Bayern"}},{"name":"Crinitzleithen","postalCode":"08209","locality":"Auerbach/Vogtland","municipality":{"key":"14523020","name":"Auerbach/Vogtl., Stadt","type":"Stadt"},"district":{"key":"14523","name":"Vogtlandkreis","type":"Landkreis"},"federalState":{"key":"14","name":"Sachsen"}},{"name":"Dahlienstr.","postalCode":"08209","locality":"Auerbach/Vogtland","municipality":{"key":"14523020","name":"Auerbach/Vogtl., Stadt","type":"Stadt"},"district":{"key":"14523","name":"Vogtlandkreis","type":"Landkreis"},"federalState":{"key":"14","name":"Sachsen"}},{"name":"Damaschkestr.","postalCode":"08209","locality":"Auerbach/Vogtland","municipality":{"key":"14523020","name":"Auerbach/Vogtl., Stadt","type":"Stadt"},"district":{"key":"14523","name":"Vogtlandkreis","type":"Landkreis"},"federalState":{"key":"14","name":"Sachsen"}},{"name":"Degelsdorfer Str.","postalCode":"91275","locality":"Auerbach in der Oberpfalz","municipality":{"key":"09371113","name":"Auerbach i.d.OPf., St","type":"Stadt"},"district":{"key":"09371","name":"Amberg-Sulzbach","type":"Landkreis"},"federalState":{"key":"09","name":"Bayern"}},{"name":"Dittesstr.","postalCode":"08209","locality":"Auerbach/Vogtland","municipality":{"key":"14523020","name":"Auerbach/Vogtl., Stadt","type":"Stadt"},"district":{"key":"14523","name":"Vogtlandkreis","type":"Landkreis"},"federalState":{"key":"14","name":"Sachsen"}},{"name":"Dorfplatz","postalCode":"91275","locality":"Auerbach in der Oberpfalz","municipality":{"key":"09371113","name":"Auerbach i.d.OPf., St","type":"Stadt"},"district":{"key":"09371","name":"Amberg-Sulzbach","type":"Landkreis"},"federalState":{"key":"09","name":"Bayern"}},{"name":"Dorfstr.","postalCode":"94530","locality":"Auerbach","municipality":{"key":"09271113","name":"Auerbach","type":"Kreisangehörige_Gemeinde"},"district":{"key":"09271","name":"Deggendorf","type":"Landkreis"},"federalState":{"key":"09","name":"Bayern"}},{"name":"Dornbacher Str.","postalCode":"91275","locality":"Auerbach in der Oberpfalz","municipality":{"key":"09371113","name":"Auerbach i.d.OPf., St","type":"Stadt"},"district":{"key":"09371","name":"Amberg-Sulzbach","type":"Landkreis"},"federalState":{"key":"09","name":"Bayern"}},{"name":"Dresselsgrün","postalCode":"08209","locality":"Auerbach/Vogtland","municipality":{"key":"14523020","name":"Auerbach/Vogtl., Stadt","type":"Stadt"},"district":{"key":"14523","name":"Vogtlandkreis","type":"Landkreis"},"federalState":{"key":"14","name":"Sachsen"}},{"name":"Dresselsgrüner Weg","postalCode":"08209","locality":"Auerbach/Vogtland","municipality":{"key":"14523020","name":"Auerbach/Vogtl., Stadt","type":"Stadt"},"district":{"key":"14523","name":"Vogtlandkreis","type":"Landkreis"},"federalState":{"key":"14","name":"Sachsen"}},{"name":"Dr.-Heim-Str.","postalCode":"91275","locality":"Auerbach in der Oberpfalz","municipality":{"key":"09371113","name":"Auerbach i.d.OPf., St","type":"Stadt"},"district":{"key":"09371","name":"Amberg-Sulzbach","type":"Landkreis"},"federalState":{"key":"09","name":"Bayern"}},{"name":"Dr.-Heinrich-Stromer-Str.","postalCode":"91275","locality":"Auerbach in der Oberpfalz","municipality":{"key":"09371113","name":"Auerbach i.d.OPf., St","type":"Stadt"},"district":{"key":"09371","name":"Amberg-Sulzbach","type":"Landkreis"},"federalState":{"key":"09","name":"Bayern"}},{"name":"Dr.-Wilhelm-Külz-Str.","postalCode":"08209","locality":"Auerbach/Vogtland","municipality":{"key":"14523020","name":"Auerbach/Vogtl., Stadt","type":"Stadt"},"district":{"key":"14523","name":"Vogtlandkreis","type":"Landkreis"},"federalState":{"key":"14","name":"Sachsen"}},{"name":"Ebersberger Str.","postalCode":"91275","locality":"Auerbach in der Oberpfalz","municipality":{"key":"09371113","name":"Auerbach i.d.OPf., St","type":"Stadt"},"district":{"key":"09371","name":"Amberg-Sulzbach","type":"Landkreis"},"federalState":{"key":"09","name":"Bayern"}},{"name":"Eibenweg","postalCode":"08209","locality":"Auerbach/Vogtland","municipality":{"key":"14523020","name":"Auerbach/Vogtl., Stadt","type":"Stadt"},"district":{"key":"14523","name":"Vogtlandkreis","type":"Landkreis"},"federalState":{"key":"14","name":"Sachsen"}},{"name":"Eicher Str.","postalCode":"08209","locality":"Auerbach/Vogtland","municipality":{"key":"14523020","name":"Auerbach/Vogtl., Stadt","type":"Stadt"},"district":{"key":"14523","name":"Vogtlandkreis","type":"Landkreis"},"federalState":{"key":"14","name":"Sachsen"}},{"name":"Eigenheim","postalCode":"08209","locality":"Auerbach/Vogtland","municipality":{"key":"14523020","name":"Auerbach/Vogtl., Stadt","type":"Stadt"},"district":{"key":"14523","name":"Vogtlandkreis","type":"Landkreis"},"federalState":{"key":"14","name":"Sachsen"}},{"name":"Eisenbahnstr.","postalCode":"08209","locality":"Auerbach/Vogtland","municipality":{"key":"14523020","name":"Auerbach/Vogtl., Stadt","type":"Stadt"},"district":{"key":"14523","name":"Vogtlandkreis","type":"Landkreis"},"federalState":{"key":"14","name":"Sachsen"}},{"name":"Ellefelder Weg","postalCode":"08209","locality":"Auerbach/Vogtland","municipality":{"key":"14523020","name":"Auerbach/Vogtl., Stadt","type":"Stadt"},"district":{"key":"14523","name":"Vogtlandkreis","type":"Landkreis"},"federalState":{"key":"14","name":"Sachsen"}},{"name":"Elsterstr.","postalCode":"08209","locality":"Auerbach/Vogtland","municipality":{"key":"14523020","name":"Auerbach/Vogtl., Stadt","type":"Stadt"},"district":{"key":"14523","name":"Vogtlandkreis","type":"Landkreis"},"federalState":{"key":"14","name":"Sachsen"}},{"name":"Enge Gasse","postalCode":"91275","locality":"Auerbach in der Oberpfalz","municipality":{"key":"09371113","name":"Auerbach i.d.OPf., St","type":"Stadt"},"district":{"key":"09371","name":"Amberg-Sulzbach","type":"Landkreis"},"federalState":{"key":"09","name":"Bayern"}},{"name":"Engollinger Str.","postalCode":"94530","locality":"Auerbach","municipality":{"key":"09271113","name":"Auerbach","type":"Kreisangehörige_Gemeinde"},"district":{"key":"09271","name":"Deggendorf","type":"Landkreis"},"federalState":{"key":"09","name":"Bayern"}},{"name":"Erlenweg","postalCode":"09392","locality":"Auerbach","municipality":{"key":"14521040","name":"Auerbach","type":"Kreisangehörige_Gemeinde"},"district":{"key":"14521","name":"Erzgebirgskreis","type":"Landkreis"},"federalState":{"key":"14","name":"Sachsen"}},{"name":"Ernsting","postalCode":"94530","locality":"Auerbach","municipality":{"key":"09271113","name":"Auerbach","type":"Kreisangehörige_Gemeinde"},"district":{"key":"09271","name":"Deggendorf","type":"Landkreis"},"federalState":{"key":"09","name":"Bayern"}},{"name":"Eulenbergweg","postalCode":"08209","locality":"Auerbach/Vogtland","municipality":{"key":"14523020","name":"Auerbach/Vogtl., Stadt","type":"Stadt"},"district":{"key":"14523","name":"Vogtlandkreis","type":"Landkreis"},"federalState":{"key":"14","name":"Sachsen"}},{"name":"E-Weg","postalCode":"08209","locality":"Auerbach/Vogtland","municipality":{"key":"14523020","name":"Auerbach/Vogtl., Stadt","type":"Stadt"},"district":{"key":"14523","name":"Vogtlandkreis","type":"Landkreis"},"federalState":{"key":"14","name":"Sachsen"}},{"name":"Falkensteiner Str.","postalCode":"08209","locality":"Auerbach/Vogtland","municipality":{"key":"14523020","name":"Auerbach/Vogtl., Stadt","type":"Stadt"},"district":{"key":"14523","name":"Vogtlandkreis","type":"Landkreis"},"federalState":{"key":"14","name":"Sachsen"}},{"name":"Falkensteiner Weg","postalCode":"08209","locality":"Auerbach/Vogtland","municipality":{"key":"14523020","name":"Auerbach/Vogtl., Stadt","type":"Stadt"},"district":{"key":"14523","name":"Vogtlandkreis","type":"Landkreis"},"federalState":{"key":"14","name":"Sachsen"}},{"name":"Fasanenstr.","postalCode":"08209","locality":"Auerbach/Vogtland","municipality":{"key":"14523020","name":"Auerbach/Vogtl., Stadt","type":"Stadt"},"district":{"key":"14523","name":"Vogtlandkreis","type":"Landkreis"},"federalState":{"key":"14","name":"Sachsen"}},{"name":"Feldstr.","postalCode":"08209","locality":"Auerbach/Vogtland","municipality":{"key":"14523020","name":"Auerbach/Vogtl., Stadt","type":"Stadt"},"district":{"key":"14523","name":"Vogtlandkreis","type":"Landkreis"},"federalState":{"key":"14","name":"Sachsen"}},{"name":"Feldstr.","postalCode":"09392","locality":"Auerbach","municipality":{"key":"14521040","name":"Auerbach","type":"Kreisangehörige_Gemeinde"},"district":{"key":"14521","name":"Erzgebirgskreis","type":"Landkreis"},"federalState":{"key":"14","name":"Sachsen"}},{"name":"Feuerwehrweg","postalCode":"08209","locality":"Auerbach/Vogtland","municipality":{"key":"14523020","name":"Auerbach/Vogtl., Stadt","type":"Stadt"},"district":{"key":"14523","name":"Vogtlandkreis","type":"Landkreis"},"federalState":{"key":"14","name":"Sachsen"}},{"name":"Fichtensteig","postalCode":"08209","locality":"Auerbach/Vogtland","municipality":{"key":"14523020","name":"Auerbach/Vogtl., Stadt","type":"Stadt"},"district":{"key":"14523","name":"Vogtlandkreis","type":"Landkreis"},"federalState":{"key":"14","name":"Sachsen"}},{"name":"Fichtenweg","postalCode":"08209","locality":"Auerbach/Vogtland","municipality":{"key":"14523020","name":"Auerbach/Vogtl., Stadt","type":"Stadt"},"district":{"key":"14523","name":"Vogtlandkreis","type":"Landkreis"},"federalState":{"key":"14","name":"Sachsen"}},{"name":"Fichtzig","postalCode":"08209","locality":"Auerbach/Vogtland","municipality":{"key":"14523020","name":"Auerbach/Vogtl., Stadt","type":"Stadt"},"district":{"key":"14523","name":"Vogtlandkreis","type":"Landkreis"},"federalState":{"key":"14","name":"Sachsen"}},{"name":"Finkenweg","postalCode":"08209","locality":"Auerbach/Vogtland","municipality":{"key":"14523020","name":"Auerbach/Vogtl., Stadt","type":"Stadt"},"district":{"key":"14523","name":"Vogtlandkreis","type":"Landkreis"},"federalState":{"key":"14","name":"Sachsen"}},{"name":"Firststr.","postalCode":"94530","locality":"Auerbach","municipality":{"key":"09271113","name":"Auerbach","type":"Kreisangehörige_Gemeinde"},"district":{"key":"09271","name":"Deggendorf","type":"Landkreis"},"federalState":{"key":"09","name":"Bayern"}},{"name":"Flembachgrund","postalCode":"91275","locality":"Auerbach in der Oberpfalz","municipality":{"key":"09371113","name":"Auerbach i.d.OPf., St","type":"Stadt"},"district":{"key":"09371","name":"Amberg-Sulzbach","type":"Landkreis"},"federalState":{"key":"09","name":"Bayern"}},{"name":"Floßbahn","postalCode":"08209","locality":"Auerbach/Vogtland","municipality":{"key":"14523020","name":"Auerbach/Vogtl., Stadt","type":"Stadt"},"district":{"key":"14523","name":"Vogtlandkreis","type":"Landkreis"},"federalState":{"key":"14","name":"Sachsen"}},{"name":"Flurweg","postalCode":"08209","locality":"Auerbach/Vogtland","municipality":{"key":"14523020","name":"Auerbach/Vogtl., Stadt","type":"Stadt"},"district":{"key":"14523","name":"Vogtlandkreis","type":"Landkreis"},"federalState":{"key":"14","name":"Sachsen"}},{"name":"Flurweg","postalCode":"94530","locality":"Auerbach","municipality":{"key":"09271113","name":"Auerbach","type":"Kreisangehörige_Gemeinde"},"district":{"key":"09271","name":"Deggendorf","type":"Landkreis"},"federalState":{"key":"09","name":"Bayern"}},{"name":"Forstweg","postalCode":"08209","locality":"Auerbach/Vogtland","municipality":{"key":"14523020","name":"Auerbach/Vogtl., Stadt","type":"Stadt"},"district":{"key":"14523","name":"Vogtlandkreis","type":"Landkreis"},"federalState":{"key":"14","name":"Sachsen"}},{"name":"Frankenweg","postalCode":"08209","locality":"Auerbach/Vogtland","municipality":{"key":"14523020","name":"Auerbach/Vogtl., Stadt","type":"Stadt"},"district":{"key":"14523","name":"Vogtlandkreis","type":"Landkreis"},"federalState":{"key":"14","name":"Sachsen"}},{"name":"Freudenthal","postalCode":"08209","locality":"Auerbach/Vogtland","municipality":{"key":"14523020","name":"Auerbach/Vogtl., Stadt","type":"Stadt"},"district":{"key":"14523","name":"Vogtlandkreis","type":"Landkreis"},"federalState":{"key":"14","name":"Sachsen"}},{"name":"Friedensring","postalCode":"08209","locality":"Auerbach/Vogtland","municipality":{"key":"14523020","name":"Auerbach/Vogtl., Stadt","type":"Stadt"},"district":{"key":"14523","name":"Vogtlandkreis","type":"Landkreis"},"federalState":{"key":"14","name":"Sachsen"}},{"name":"Friedensstr.","postalCode":"08209","locality":"Auerbach/Vogtland","municipality":{"key":"14523020","name":"Auerbach/Vogtl., Stadt","type":"Stadt"},"district":{"key":"14523","name":"Vogtlandkreis","type":"Landkreis"},"federalState":{"key":"14","name":"Sachsen"}},{"name":"Friedhofsweg","postalCode":"08209","locality":"Auerbach/Vogtland","municipality":{"key":"14523020","name":"Auerbach/Vogtl., Stadt","type":"Stadt"},"district":{"key":"14523","name":"Vogtlandkreis","type":"Landkreis"},"federalState":{"key":"14","name":"Sachsen"}},{"name":"Friedrich-Ebert-Str.","postalCode":"08209","locality":"Auerbach/Vogtland","municipality":{"key":"14523020","name":"Auerbach/Vogtl., Stadt","type":"Stadt"},"district":{"key":"14523","name":"Vogtlandkreis","type":"Landkreis"},"federalState":{"key":"14","name":"Sachsen"}},{"name":"Friedrich-Naumann-Str.","postalCode":"08209","locality":"Auerbach/Vogtland","municipality":{"key":"14523020","name":"Auerbach/Vogtl., Stadt","type":"Stadt"},"district":{"key":"14523","name":"Vogtlandkreis","type":"Landkreis"},"federalState":{"key":"14","name":"Sachsen"}},{"name":"Fröbelplatz","postalCode":"08209","locality":"Auerbach/Vogtland","municipality":{"key":"14523020","name":"Auerbach/Vogtl., Stadt","type":"Stadt"},"district":{"key":"14523","name":"Vogtlandkreis","type":"Landkreis"},"federalState":{"key":"14","name":"Sachsen"}},{"name":"Fröbelstr.","postalCode":"08209","locality":"Auerbach/Vogtland","municipality":{"key":"14523020","name":"Auerbach/Vogtl., Stadt","type":"Stadt"},"district":{"key":"14523","name":"Vogtlandkreis","type":"Landkreis"},"federalState":{"key":"14","name":"Sachsen"}},{"name":"Frohe Zukunft","postalCode":"08209","locality":"Auerbach/Vogtland","municipality":{"key":"14523020","name":"Auerbach/Vogtl., Stadt","type":"Stadt"},"district":{"key":"14523","name":"Vogtlandkreis","type":"Landkreis"},"federalState":{"key":"14","name":"Sachsen"}},{"name":"Fronweg","postalCode":"08209","locality":"Auerbach/Vogtland","municipality":{"key":"14523020","name":"Auerbach/Vogtl., Stadt","type":"Stadt"},"district":{"key":"14523","name":"Vogtlandkreis","type":"Landkreis"},"federalState":{"key":"14","name":"Sachsen"}},{"name":"Fuchssteinweg","postalCode":"08209","locality":"Auerbach/Vogtland","municipality":{"key":"14523020","name":"Auerbach/Vogtl., Stadt","type":"Stadt"},"district":{"key":"14523","name":"Vogtlandkreis","type":"Landkreis"},"federalState":{"key":"14","name":"Sachsen"}},{"name":"Fußweg/Skispur","postalCode":"08209","locality":"Auerbach/Vogtland","municipality":{"key":"14523020","name":"Auerbach/Vogtl., Stadt","type":"Stadt"},"district":{"key":"14523","name":"Vogtlandkreis","type":"Landkreis"},"federalState":{"key":"14","name":"Sachsen"}},{"name":"Gabelsberger Str.","postalCode":"08209","locality":"Auerbach/Vogtland","municipality":{"key":"14523020","name":"Auerbach/Vogtl., Stadt","type":"Stadt"},"district":{"key":"14523","name":"Vogtlandkreis","type":"Landkreis"},"federalState":{"key":"14","name":"Sachsen"}},{"name":"Galgenberg","postalCode":"91275","locality":"Auerbach in der Oberpfalz","municipality":{"key":"09371113","name":"Auerbach i.d.OPf., St","type":"Stadt"},"district":{"key":"09371","name":"Amberg-Sulzbach","type":"Landkreis"},"federalState":{"key":"09","name":"Bayern"}},{"name":"Gartenstr.","postalCode":"08209","locality":"Auerbach/Vogtland","municipality":{"key":"14523020","name":"Auerbach/Vogtl., Stadt","type":"Stadt"},"district":{"key":"14523","name":"Vogtlandkreis","type":"Landkreis"},"federalState":{"key":"14","name":"Sachsen"}},{"name":"Gartenstr.","postalCode":"91275","locality":"Auerbach in der Oberpfalz","municipality":{"key":"09371113","name":"Auerbach i.d.OPf., St","type":"Stadt"},"district":{"key":"09371","name":"Amberg-Sulzbach","type":"Landkreis"},"federalState":{"key":"09","name":"Bayern"}},{"name":"Gasse","postalCode":"09392","locality":"Auerbach","municipality":{"key":"14521040","name":"Auerbach","type":"Kreisangehörige_Gemeinde"},"district":{"key":"14521","name":"Erzgebirgskreis","type":"Landkreis"},"federalState":{"key":"14","name":"Sachsen"}},{"name":"Gedenkpark","postalCode":"08209","locality":"Auerbach/Vogtland","municipality":{"key":"14523020","name":"Auerbach/Vogtl., Stadt","type":"Stadt"},"district":{"key":"14523","name":"Vogtlandkreis","type":"Landkreis"},"federalState":{"key":"14","name":"Sachsen"}},{"name":"Gelenauer Str.","postalCode":"09392","locality":"Auerbach","municipality":{"key":"14521040","name":"Auerbach","type":"Kreisangehörige_Gemeinde"},"district":{"key":"14521","name":"Erzgebirgskreis","type":"Landkreis"},"federalState":{"key":"14","name":"Sachsen"}},{"name":"Gemeinschaftsweg","postalCode":"08209","locality":"Auerbach/Vogtland","municipality":{"key":"14523020","name":"Auerbach/Vogtl., Stadt","type":"Stadt"},"district":{"key":"14523","name":"Vogtlandkreis","type":"Landkreis"},"federalState":{"key":"14","name":"Sachsen"}},{"name":"Gerberstr.","postalCode":"08209","locality":"Auerbach/Vogtland","municipality":{"key":"14523020","name":"Auerbach/Vogtl., Stadt","type":"Stadt"},"district":{"key":"14523","name":"Vogtlandkreis","type":"Landkreis"},"federalState":{"key":"14","name":"Sachsen"}},{"name":"Geyersche Str.","postalCode":"09392","locality":"Auerbach","municipality":{"key":"14521040","name":"Auerbach","type":"Kreisangehörige_Gemeinde"},"district":{"key":"14521","name":"Erzgebirgskreis","type":"Landkreis"},"federalState":{"key":"14","name":"Sachsen"}},{"name":"Glückaufstr.","postalCode":"91275","locality":"Auerbach in der Oberpfalz","municipality":{"key":"09371113","name":"Auerbach i.d.OPf., St","type":"Stadt"},"district":{"key":"09371","name":"Amberg-Sulzbach","type":"Landkreis"},"federalState":{"key":"09","name":"Bayern"}},{"name":"Goethepark","postalCode":"08209","locality":"Auerbach/Vogtland","municipality":{"key":"14523020","name":"Auerbach/Vogtl., Stadt","type":"Stadt"},"district":{"key":"14523","name":"Vogtlandkreis","type":"Landkreis"},"federalState":{"key":"14","name":"Sachsen"}},{"name":"Goethestr.","postalCode":"08209","locality":"Auerbach/Vogtland","municipality":{"key":"14523020","name":"Auerbach/Vogtl., Stadt","type":"Stadt"},"district":{"key":"14523","name":"Vogtlandkreis","type":"Landkreis"},"federalState":{"key":"14","name":"Sachsen"}},{"name":"Göltzschtalstr.","postalCode":"08209","locality":"Auerbach/Vogtland","municipality":{"key":"14523020","name":"Auerbach/Vogtl., Stadt","type":"Stadt"},"district":{"key":"14523","name":"Vogtlandkreis","type":"Landkreis"},"federalState":{"key":"14","name":"Sachsen"}},{"name":"Gornsdorfer Str.","postalCode":"09392","locality":"Auerbach","municipality":{"key":"14521040","name":"Auerbach","type":"Kreisangehörige_Gemeinde"},"district":{"key":"14521","name":"Erzgebirgskreis","type":"Landkreis"},"federalState":{"key":"14","name":"Sachsen"}},{"name":"Gotthardweg","postalCode":"94530","locality":"Auerbach","municipality":{"key":"09271113","name":"Auerbach","type":"Kreisangehörige_Gemeinde"},"district":{"key":"09271","name":"Deggendorf","type":"Landkreis"},"federalState":{"key":"09","name":"Bayern"}},{"name":"Gottvaterberg","postalCode":"91275","locality":"Auerbach in der Oberpfalz","municipality":{"key":"09371113","name":"Auerbach i.d.OPf., St","type":"Stadt"},"district":{"key":"09371","name":"Amberg-Sulzbach","type":"Landkreis"},"federalState":{"key":"09","name":"Bayern"}},{"name":"Grenzweg","postalCode":"08209","locality":"Auerbach/Vogtland","municipality":{"key":"14523020","name":"Auerbach/Vogtl., Stadt","type":"Stadt"},"district":{"key":"14523","name":"Vogtlandkreis","type":"Landkreis"},"federalState":{"key":"14","name":"Sachsen"}},{"name":"Grünhof","postalCode":"91275","locality":"Auerbach in der Oberpfalz","municipality":{"key":"09371113","name":"Auerbach i.d.OPf., St","type":"Stadt"},"district":{"key":"09371","name":"Amberg-Sulzbach","type":"Landkreis"},"federalState":{"key":"09","name":"Bayern"}},{"name":"Gutenbergstr.","postalCode":"08209","locality":"Auerbach/Vogtland","municipality":{"key":"14523020","name":"Auerbach/Vogtl., Stadt","type":"Stadt"},"district":{"key":"14523","name":"Vogtlandkreis","type":"Landkreis"},"federalState":{"key":"14","name":"Sachsen"}},{"name":"Gutsweg","postalCode":"09392","locality":"Auerbach","municipality":{"key":"14521040","name":"Auerbach","type":"Kreisangehörige_Gemeinde"},"district":{"key":"14521","name":"Erzgebirgskreis","type":"Landkreis"},"federalState":{"key":"14","name":"Sachsen"}},{"name":"Hahnenhausweg","postalCode":"08209","locality":"Auerbach/Vogtland","municipality":{"key":"14523020","name":"Auerbach/Vogtl., Stadt","type":"Stadt"},"district":{"key":"14523","name":"Vogtlandkreis","type":"Landkreis"},"federalState":{"key":"14","name":"Sachsen"}},{"name":"Haideschachen","postalCode":"08209","locality":"Auerbach/Vogtland","municipality":{"key":"14523020","name":"Auerbach/Vogtl., Stadt","type":"Stadt"},"district":{"key":"14523","name":"Vogtlandkreis","type":"Landkreis"},"federalState":{"key":"14","name":"Sachsen"}},{"name":"Hainberg","postalCode":"08209","locality":"Auerbach/Vogtland","municipality":{"key":"14523020","name":"Auerbach/Vogtl., Stadt","type":"Stadt"},"district":{"key":"14523","name":"Vogtlandkreis","type":"Landkreis"},"federalState":{"key":"14","name":"Sachsen"}},{"name":"Hainstr.","postalCode":"08209","locality":"Auerbach/Vogtland","municipality":{"key":"14523020","name":"Auerbach/Vogtl., Stadt","type":"Stadt"},"district":{"key":"14523","name":"Vogtlandkreis","type":"Landkreis"},"federalState":{"key":"14","name":"Sachsen"}},{"name":"Hangweg","postalCode":"08209","locality":"Auerbach/Vogtland","municipality":{"key":"14523020","name":"Auerbach/Vogtl., Stadt","type":"Stadt"},"district":{"key":"14523","name":"Vogtlandkreis","type":"Landkreis"},"federalState":{"key":"14","name":"Sachsen"}},{"name":"Hans-Böckler-Str.","postalCode":"91275","locality":"Auerbach in der Oberpfalz","municipality":{"key":"09371113","name":"Auerbach i.d.OPf., St","type":"Stadt"},"district":{"key":"09371","name":"Amberg-Sulzbach","type":"Landkreis"},"federalState":{"key":"09","name":"Bayern"}},{"name":"Haselnussweg","postalCode":"91275","locality":"Auerbach in der Oberpfalz","municipality":{"key":"09371113","name":"Auerbach i.d.OPf., St","type":"Stadt"},"district":{"key":"09371","name":"Amberg-Sulzbach","type":"Landkreis"},"federalState":{"key":"09","name":"Bayern"}},{"name":"Hasenkopfflügel","postalCode":"08209","locality":"Auerbach/Vogtland","municipality":{"key":"14523020","name":"Auerbach/Vogtl., Stadt","type":"Stadt"},"district":{"key":"14523","name":"Vogtlandkreis","type":"Landkreis"},"federalState":{"key":"14","name":"Sachsen"}},{"name":"Hauptstr.","postalCode":"08209","locality":"Auerbach/Vogtland","municipality":{"key":"14523020","name":"Auerbach/Vogtl., Stadt","type":"Stadt"},"district":{"key":"14523","name":"Vogtlandkreis","type":"Landkreis"},"federalState":{"key":"14","name":"Sachsen"}},{"name":"Hauptstr.","postalCode":"09392","locality":"Auerbach","municipality":{"key":"14521040","name":"Auerbach","type":"Kreisangehörige_Gemeinde"},"district":{"key":"14521","name":"Erzgebirgskreis","type":"Landkreis"},"federalState":{"key":"14","name":"Sachsen"}},{"name":"Hauptstr.","postalCode":"91275","locality":"Auerbach in der Oberpfalz","municipality":{"key":"09371113","name":"Auerbach i.d.OPf., St","type":"Stadt"},"district":{"key":"09371","name":"Amberg-Sulzbach","type":"Landkreis"},"federalState":{"key":"09","name":"Bayern"}},{"name":"Hauptstr.","postalCode":"94530","locality":"Auerbach","municipality":{"key":"09271113","name":"Auerbach","type":"Kreisangehörige_Gemeinde"},"district":{"key":"09271","name":"Deggendorf","type":"Landkreis"},"federalState":{"key":"09","name":"Bayern"}},{"name":"Haydnstr.","postalCode":"91275","locality":"Auerbach in der Oberpfalz","municipality":{"key":"09371113","name":"Auerbach i.d.OPf., St","type":"Stadt"},"district":{"key":"09371","name":"Amberg-Sulzbach","type":"Landkreis"},"federalState":{"key":"09","name":"Bayern"}},{"name":"Heimstättenstr.","postalCode":"09392","locality":"Auerbach","municipality":{"key":"14521040","name":"Auerbach","type":"Kreisangehörige_Gemeinde"},"district":{"key":"14521","name":"Erzgebirgskreis","type":"Landkreis"},"federalState":{"key":"14","name":"Sachsen"}},{"name":"Heinrich-Heine-Str.","postalCode":"08209","locality":"Auerbach/Vogtland","municipality":{"key":"14523020","name":"Auerbach/Vogtl., Stadt","type":"Stadt"},"district":{"key":"14523","name":"Vogtlandkreis","type":"Landkreis"},"federalState":{"key":"14","name":"Sachsen"}},{"name":"Hengersberger Str.","postalCode":"94530","locality":"Auerbach","municipality":{"key":"09271113","name":"Auerbach","type":"Kreisangehörige_Gemeinde"},"district":{"key":"09271","name":"Deggendorf","type":"Landkreis"},"federalState":{"key":"09","name":"Bayern"}},{"name":"Herrenwiese","postalCode":"08209","locality":"Auerbach/Vogtland","municipality":{"key":"14523020","name":"Auerbach/Vogtl., Stadt","type":"Stadt"},"district":{"key":"14523","name":"Vogtlandkreis","type":"Landkreis"},"federalState":{"key":"14","name":"Sachsen"}},{"name":"Hinterhainer Weg","postalCode":"08209","locality":"Auerbach/Vogtland","municipality":{"key":"14523020","name":"Auerbach/Vogtl., Stadt","type":"Stadt"},"district":{"key":"14523","name":"Vogtlandkreis","type":"Landkreis"},"federalState":{"key":"14","name":"Sachsen"}},{"name":"Hirtengasse","postalCode":"91275","locality":"Auerbach in der Oberpfalz","municipality":{"key":"09371113","name":"Auerbach i.d.OPf., St","type":"Stadt"},"district":{"key":"09371","name":"Amberg-Sulzbach","type":"Landkreis"},"federalState":{"key":"09","name":"Bayern"}},{"name":"Hofau","postalCode":"08209","locality":"Auerbach/Vogtland","municipality":{"key":"14523020","name":"Auerbach/Vogtl., Stadt","type":"Stadt"},"district":{"key":"14523","name":"Vogtlandkreis","type":"Landkreis"},"federalState":{"key":"14","name":"Sachsen"}},{"name":"Hofaupark","postalCode":"08209","locality":"Auerbach/Vogtland","municipality":{"key":"14523020","name":"Auerbach/Vogtl., Stadt","type":"Stadt"},"district":{"key":"14523","name":"Vogtlandkreis","type":"Landkreis"},"federalState":{"key":"14","name":"Sachsen"}},{"name":"Hofmühlweg","postalCode":"91275","locality":"Auerbach in der Oberpfalz","municipality":{"key":"09371113","name":"Auerbach i.d.OPf., St","type":"Stadt"},"district":{"key":"09371","name":"Amberg-Sulzbach","type":"Landkreis"},"federalState":{"key":"09","name":"Bayern"}},{"name":"Hofweg","postalCode":"08209","locality":"Auerbach/Vogtland","municipality":{"key":"14523020","name":"Auerbach/Vogtl., Stadt","type":"Stadt"},"district":{"key":"14523","name":"Vogtlandkreis","type":"Landkreis"},"federalState":{"key":"14","name":"Sachsen"}},{"name":"Hohengrüner Str.","postalCode":"08209","locality":"Auerbach/Vogtland","municipality":{"key":"14523020","name":"Auerbach/Vogtl., Stadt","type":"Stadt"},"district":{"key":"14523","name":"Vogtlandkreis","type":"Landkreis"},"federalState":{"key":"14","name":"Sachsen"}},{"name":"Hohe Str.","postalCode":"08209","locality":"Auerbach/Vogtland","municipality":{"key":"14523020","name":"Auerbach/Vogtl., Stadt","type":"Stadt"},"district":{"key":"14523","name":"Vogtlandkreis","type":"Landkreis"},"federalState":{"key":"14","name":"Sachsen"}},{"name":"Hohle","postalCode":"08209","locality":"Auerbach/Vogtland","municipality":{"key":"14523020","name":"Auerbach/Vogtl., Stadt","type":"Stadt"},"district":{"key":"14523","name":"Vogtlandkreis","type":"Landkreis"},"federalState":{"key":"14","name":"Sachsen"}},{"name":"Hohlweg","postalCode":"08209","locality":"Auerbach/Vogtland","municipality":{"key":"14523020","name":"Auerbach/Vogtl., Stadt","type":"Stadt"},"district":{"key":"14523","name":"Vogtlandkreis","type":"Landkreis"},"federalState":{"key":"14","name":"Sachsen"}},{"name":"Hohlweg","postalCode":"09392","locality":"Auerbach","municipality":{"key":"14521040","name":"Auerbach","type":"Kreisangehörige_Gemeinde"},"district":{"key":"14521","name":"Erzgebirgskreis","type":"Landkreis"},"federalState":{"key":"14","name":"Sachsen"}},{"name":"Hollerbachweg","postalCode":"94530","locality":"Auerbach","municipality":{"key":"09271113","name":"Auerbach","type":"Kreisangehörige_Gemeinde"},"district":{"key":"09271","name":"Deggendorf","type":"Landkreis"},"federalState":{"key":"09","name":"Bayern"}},{"name":"Hopfenoher Str.","postalCode":"91275","locality":"Auerbach in der Oberpfalz","municipality":{"key":"09371113","name":"Auerbach i.d.OPf., St","type":"Stadt"},"district":{"key":"09371","name":"Amberg-Sulzbach","type":"Landkreis"},"federalState":{"key":"09","name":"Bayern"}},{"name":"Hormersdorfer Str.","postalCode":"09392","locality":"Auerbach","municipality":{"key":"14521040","name":"Auerbach","type":"Kreisangehörige_Gemeinde"},"district":{"key":"14521","name":"Erzgebirgskreis","type":"Landkreis"},"federalState":{"key":"14","name":"Sachsen"}},{"name":"Hubertusweg","postalCode":"08209","locality":"Auerbach/Vogtland","municipality":{"key":"14523020","name":"Auerbach/Vogtl., Stadt","type":"Stadt"},"district":{"key":"14523","name":"Vogtlandkreis","type":"Landkreis"},"federalState":{"key":"14","name":"Sachsen"}},{"name":"Humboldtstr.","postalCode":"08209","locality":"Auerbach/Vogtland","municipality":{"key":"14523020","name":"Auerbach/Vogtl., Stadt","type":"Stadt"},"district":{"key":"14523","name":"Vogtlandkreis","type":"Landkreis"},"federalState":{"key":"14","name":"Sachsen"}},{"name":"Hüttenschachenweg","postalCode":"08209","locality":"Auerbach/Vogtland","municipality":{"key":"14523020","name":"Auerbach/Vogtl., Stadt","type":"Stadt"},"district":{"key":"14523","name":"Vogtlandkreis","type":"Landkreis"},"federalState":{"key":"14","name":"Sachsen"}},{"name":"Im Sonnenwinkel","postalCode":"08209","locality":"Auerbach/Vogtland","municipality":{"key":"14523020","name":"Auerbach/Vogtl., Stadt","type":"Stadt"},"district":{"key":"14523","name":"Vogtlandkreis","type":"Landkreis"},"federalState":{"key":"14","name":"Sachsen"}},{"name":"Im Zipfel","postalCode":"09392","locality":"Auerbach","municipality":{"key":"14521040","name":"Auerbach","type":"Kreisangehörige_Gemeinde"},"district":{"key":"14521","name":"Erzgebirgskreis","type":"Landkreis"},"federalState":{"key":"14","name":"Sachsen"}},{"name":"In den Striemen","postalCode":"91275","locality":"Auerbach in der Oberpfalz","municipality":{"key":"09371113","name":"Auerbach i.d.OPf., St","type":"Stadt"},"district":{"key":"09371","name":"Amberg-Sulzbach","type":"Landkreis"},"federalState":{"key":"09","name":"Bayern"}},{"name":"In der Heidelleite","postalCode":"91275","locality":"Auerbach in der Oberpfalz","municipality":{"key":"09371113","name":"Auerbach i.d.OPf., St","type":"Stadt"},"district":{"key":"09371","name":"Amberg-Sulzbach","type":"Landkreis"},"federalState":{"key":"09","name":"Bayern"}},{"name":"Isenloh","postalCode":"91275","locality":"Auerbach in der Oberpfalz","municipality":{"key":"09371113","name":"Auerbach i.d.OPf., St","type":"Stadt"},"district":{"key":"09371","name":"Amberg-Sulzbach","type":"Landkreis"},"federalState":{"key":"09","name":"Bayern"}},{"name":"Jägerstr.","postalCode":"08209","locality":"Auerbach/Vogtland","municipality":{"key":"14523020","name":"Auerbach/Vogtl., Stadt","type":"Stadt"},"district":{"key":"14523","name":"Vogtlandkreis","type":"Landkreis"},"federalState":{"key":"14","name":"Sachsen"}},{"name":"Jägerwiesenweg","postalCode":"08209","locality":"Auerbach/Vogtland","municipality":{"key":"14523020","name":"Auerbach/Vogtl., Stadt","type":"Stadt"},"district":{"key":"14523","name":"Vogtlandkreis","type":"Landkreis"},"federalState":{"key":"14","name":"Sachsen"}},{"name":"Jahnsbacher Str.","postalCode":"09392","locality":"Auerbach","municipality":{"key":"14521040","name":"Auerbach","type":"Kreisangehörige_Gemeinde"},"district":{"key":"14521","name":"Erzgebirgskreis","type":"Landkreis"},"federalState":{"key":"14","name":"Sachsen"}},{"name":"Jahnstr.","postalCode":"08209","locality":"Auerbach/Vogtland","municipality":{"key":"14523020","name":"Auerbach/Vogtl., Stadt","type":"Stadt"},"district":{"key":"14523","name":"Vogtlandkreis","type":"Landkreis"},"federalState":{"key":"14","name":"Sachsen"}},{"name":"Jahnweg","postalCode":"91275","locality":"Auerbach in der Oberpfalz","municipality":{"key":"09371113","name":"Auerbach i.d.OPf., St","type":"Stadt"},"district":{"key":"09371","name":"Amberg-Sulzbach","type":"Landkreis"},"federalState":{"key":"09","name":"Bayern"}},{"name":"Johann-Strauß-Str.","postalCode":"91275","locality":"Auerbach in der Oberpfalz","municipality":{"key":"09371113","name":"Auerbach i.d.OPf., St","type":"Stadt"},"district":{"key":"09371","name":"Amberg-Sulzbach","type":"Landkreis"},"federalState":{"key":"09","name":"Bayern"}},{"name":"Josef-Klämpf-Str.","postalCode":"94530","locality":"Auerbach","municipality":{"key":"09271113","name":"Auerbach","type":"Kreisangehörige_Gemeinde"},"district":{"key":"09271","name":"Deggendorf","type":"Landkreis"},"federalState":{"key":"09","name":"Bayern"}},{"name":"Josef-Otto-Kolb-Str.","postalCode":"91275","locality":"Auerbach in der Oberpfalz","municipality":{"key":"09371113","name":"Auerbach i.d.OPf., St","type":"Stadt"},"district":{"key":"09371","name":"Amberg-Sulzbach","type":"Landkreis"},"federalState":{"key":"09","name":"Bayern"}},{"name":"Josefstr.","postalCode":"91275","locality":"Auerbach in der Oberpfalz","municipality":{"key":"09371113","name":"Auerbach i.d.OPf., St","type":"Stadt"},"district":{"key":"09371","name":"Amberg-Sulzbach","type":"Landkreis"},"federalState":{"key":"09","name":"Bayern"}},{"name":"Jüchener Str.","postalCode":"08209","locality":"Auerbach/Vogtland","municipality":{"key":"14523020","name":"Auerbach/Vogtl., Stadt","type":"Stadt"},"district":{"key":"14523","name":"Vogtlandkreis","type":"Landkreis"},"federalState":{"key":"14","name":"Sachsen"}},{"name":"Jungfernanger","postalCode":"91275","locality":"Auerbach in der Oberpfalz","municipality":{"key":"09371113","name":"Auerbach i.d.OPf., St","type":"Stadt"},"district":{"key":"09371","name":"Amberg-Sulzbach","type":"Landkreis"},"federalState":{"key":"09","name":"Bayern"}},{"name":"Kaffeehausweg","postalCode":"08209","locality":"Auerbach/Vogtland","municipality":{"key":"14523020","name":"Auerbach/Vogtl., Stadt","type":"Stadt"},"district":{"key":"14523","name":"Vogtlandkreis","type":"Landkreis"},"federalState":{"key":"14","name":"Sachsen"}},{"name":"Kaiserstr.","postalCode":"08209","locality":"Auerbach/Vogtland","municipality":{"key":"14523020","name":"Auerbach/Vogtl., Stadt","type":"Stadt"},"district":{"key":"14523","name":"Vogtlandkreis","type":"Landkreis"},"federalState":{"key":"14","name":"Sachsen"}},{"name":"Kammerberg","postalCode":"91275","locality":"Auerbach in der Oberpfalz","municipality":{"key":"09371113","name":"Auerbach i.d.OPf., St","type":"Stadt"},"district":{"key":"09371","name":"Amberg-Sulzbach","type":"Landkreis"},"federalState":{"key":"09","name":"Bayern"}},{"name":"Kapellenweg","postalCode":"91275","locality":"Auerbach in der Oberpfalz","municipality":{"key":"09371113","name":"Auerbach i.d.OPf., St","type":"Stadt"},"district":{"key":"09371","name":"Amberg-Sulzbach","type":"Landkreis"},"federalState":{"key":"09","name":"Bayern"}},{"name":"Kapellenweg","postalCode":"94530","locality":"Auerbach","municipality":{"key":"09271113","name":"Auerbach","type":"Kreisangehörige_Gemeinde"},"district":{"key":"09271","name":"Deggendorf","type":"Landkreis"},"federalState":{"key":"09","name":"Bayern"}},{"name":"Karlstr.","postalCode":"08209","locality":"Auerbach/Vogtland","municipality":{"key":"14523020","name":"Auerbach/Vogtl., Stadt","type":"Stadt"},"district":{"key":"14523","name":"Vogtlandkreis","type":"Landkreis"},"federalState":{"key":"14","name":"Sachsen"}},{"name":"Kastanienweg","postalCode":"09392","locality":"Auerbach","municipality":{"key":"14521040","name":"Auerbach","type":"Kreisangehörige_Gemeinde"},"district":{"key":"14521","name":"Erzgebirgskreis","type":"Landkreis"},"federalState":{"key":"14","name":"Sachsen"}},{"name":"Käthe-Kollwitz-Str.","postalCode":"08209","locality":"Auerbach/Vogtland","municipality":{"key":"14523020","name":"Auerbach/Vogtl., Stadt","type":"Stadt"},"district":{"key":"14523","name":"Vogtlandkreis","type":"Landkreis"},"federalState":{"key":"14","name":"Sachsen"}},{"name":"Katzensteinstr.","postalCode":"08209","locality":"Auerbach/Vogtland","municipality":{"key":"14523020","name":"Auerbach/Vogtl., Stadt","type":"Stadt"},"district":{"key":"14523","name":"Vogtlandkreis","type":"Landkreis"},"federalState":{"key":"14","name":"Sachsen"}},{"name":"Kellerweg","postalCode":"91275","locality":"Auerbach in der Oberpfalz","municipality":{"key":"09371113","name":"Auerbach i.d.OPf., St","type":"Stadt"},"district":{"key":"09371","name":"Amberg-Sulzbach","type":"Landkreis"},"federalState":{"key":"09","name":"Bayern"}},{"name":"Keltenweg","postalCode":"91275","locality":"Auerbach in der Oberpfalz","municipality":{"key":"09371113","name":"Auerbach i.d.OPf., St","type":"Stadt"},"district":{"key":"09371","name":"Amberg-Sulzbach","type":"Landkreis"},"federalState":{"key":"09","name":"Bayern"}},{"name":"Kiebitzweg","postalCode":"08209","locality":"Auerbach/Vogtland","municipality":{"key":"14523020","name":"Auerbach/Vogtl., Stadt","type":"Stadt"},"district":{"key":"14523","name":"Vogtlandkreis","type":"Landkreis"},"federalState":{"key":"14","name":"Sachsen"}},{"name":"Kiefernweg","postalCode":"08209","locality":"Auerbach/Vogtland","municipality":{"key":"14523020","name":"Auerbach/Vogtl., Stadt","type":"Stadt"},"district":{"key":"14523","name":"Vogtlandkreis","type":"Landkreis"},"federalState":{"key":"14","name":"Sachsen"}},{"name":"Kirchgasse","postalCode":"09392","locality":"Auerbach","municipality":{"key":"14521040","name":"Auerbach","type":"Kreisangehörige_Gemeinde"},"district":{"key":"14521","name":"Erzgebirgskreis","type":"Landkreis"},"federalState":{"key":"14","name":"Sachsen"}},{"name":"Kirchplatz","postalCode":"08209","locality":"Auerbach/Vogtland","municipality":{"key":"14523020","name":"Auerbach/Vogtl., Stadt","type":"Stadt"},"district":{"key":"14523","name":"Vogtlandkreis","type":"Landkreis"},"federalState":{"key":"14","name":"Sachsen"}},{"name":"Kirchsteig","postalCode":"08209","locality":"Auerbach/Vogtland","municipality":{"key":"14523020","name":"Auerbach/Vogtl., Stadt","type":"Stadt"},"district":{"key":"14523","name":"Vogtlandkreis","type":"Landkreis"},"federalState":{"key":"14","name":"Sachsen"}},{"name":"Kirchsteig","postalCode":"09392","locality":"Auerbach","municipality":{"key":"14521040","name":"Auerbach","type":"Kreisangehörige_Gemeinde"},"district":{"key":"14521","name":"Erzgebirgskreis","type":"Landkreis"},"federalState":{"key":"14","name":"Sachsen"}},{"name":"Kirchstr.","postalCode":"08209","locality":"Auerbach/Vogtland","municipality":{"key":"14523020","name":"Auerbach/Vogtl., Stadt","type":"Stadt"},"district":{"key":"14523","name":"Vogtlandkreis","type":"Landkreis"},"federalState":{"key":"14","name":"Sachsen"}},{"name":"Kirchstr.","postalCode":"91275","locality":"Auerbach in der Oberpfalz","municipality":{"key":"09371113","name":"Auerbach i.d.OPf., St","type":"Stadt"},"district":{"key":"09371","name":"Amberg-Sulzbach","type":"Landkreis"},"federalState":{"key":"09","name":"Bayern"}},{"name":"Kirchweg","postalCode":"08209","locality":"Auerbach/Vogtland","municipality":{"key":"14523020","name":"Auerbach/Vogtl., Stadt","type":"Stadt"},"district":{"key":"14523","name":"Vogtlandkreis","type":"Landkreis"},"federalState":{"key":"14","name":"Sachsen"}},{"name":"Klingenthaler Str.","postalCode":"08209","locality":"Auerbach/Vogtland","municipality":{"key":"14523020","name":"Auerbach/Vogtl., Stadt","type":"Stadt"},"district":{"key":"14523","name":"Vogtlandkreis","type":"Landkreis"},"federalState":{"key":"14","name":"Sachsen"}},{"name":"Klosterweg","postalCode":"91275","locality":"Auerbach in der Oberpfalz","municipality":{"key":"09371113","name":"Auerbach i.d.OPf., St","type":"Stadt"},"district":{"key":"09371","name":"Amberg-Sulzbach","type":"Landkreis"},"federalState":{"key":"09","name":"Bayern"}},{"name":"Kohlenstr.","postalCode":"08209","locality":"Auerbach/Vogtland","municipality":{"key":"14523020","name":"Auerbach/Vogtl., Stadt","type":"Stadt"},"district":{"key":"14523","name":"Vogtlandkreis","type":"Landkreis"},"federalState":{"key":"14","name":"Sachsen"}},{"name":"Köhlerweg","postalCode":"08209","locality":"Auerbach/Vogtland","municipality":{"key":"14523020","name":"Auerbach/Vogtl., Stadt","type":"Stadt"},"district":{"key":"14523","name":"Vogtlandkreis","type":"Landkreis"},"federalState":{"key":"14","name":"Sachsen"}},{"name":"Kohlweg","postalCode":"09392","locality":"Auerbach","municipality":{"key":"14521040","name":"Auerbach","type":"Kreisangehörige_Gemeinde"},"district":{"key":"14521","name":"Erzgebirgskreis","type":"Landkreis"},"federalState":{"key":"14","name":"Sachsen"}},{"name":"Kornbergsiedlerstr.","postalCode":"91275","locality":"Auerbach in der Oberpfalz","municipality":{"key":"09371113","name":"Auerbach i.d.OPf., St","type":"Stadt"},"district":{"key":"09371","name":"Amberg-Sulzbach","type":"Landkreis"},"federalState":{"key":"09","name":"Bayern"}},{"name":"Kornbergstr.","postalCode":"91275","locality":"Auerbach in der Oberpfalz","municipality":{"key":"09371113","name":"Auerbach i.d.OPf., St","type":"Stadt"},"district":{"key":"09371","name":"Amberg-Sulzbach","type":"Landkreis"},"federalState":{"key":"09","name":"Bayern"}},{"name":"Köstlerring","postalCode":"91275","locality":"Auerbach in der Oberpfalz","municipality":{"key":"09371113","name":"Auerbach i.d.OPf., St","type":"Stadt"},"district":{"key":"09371","name":"Amberg-Sulzbach","type":"Landkreis"},"federalState":{"key":"09","name":"Bayern"}},{"name":"Krankenhausstr.","postalCode":"91275","locality":"Auerbach in der Oberpfalz","municipality":{"key":"09371113","name":"Auerbach i.d.OPf., St","type":"Stadt"},"district":{"key":"09371","name":"Amberg-Sulzbach","type":"Landkreis"},"federalState":{"key":"09","name":"Bayern"}},{"name":"Krennstr.","postalCode":"91275","locality":"Auerbach in der Oberpfalz","municipality":{"key":"09371113","name":"Auerbach i.d.OPf., St","type":"Stadt"},"district":{"key":"09371","name":"Amberg-Sulzbach","type":"Landkreis"},"federalState":{"key":"09","name":"Bayern"}},{"name":"Kreuzgasse","postalCode":"91275","locality":"Auerbach in der Oberpfalz","municipality":{"key":"09371113","name":"Auerbach i.d.OPf., St","type":"Stadt"},"district":{"key":"09371","name":"Amberg-Sulzbach","type":"Landkreis"},"federalState":{"key":"09","name":"Bayern"}},{"name":"Kreuzstr.","postalCode":"08209","locality":"Auerbach/Vogtland","municipality":{"key":"14523020","name":"Auerbach/Vogtl., Stadt","type":"Stadt"},"district":{"key":"14523","name":"Vogtlandkreis","type":"Landkreis"},"federalState":{"key":"14","name":"Sachsen"}},{"name":"Kurt-Schumacher-Ring","postalCode":"91275","locality":"Auerbach in der Oberpfalz","municipality":{"key":"09371113","name":"Auerbach i.d.OPf., St","type":"Stadt"},"district":{"key":"09371","name":"Amberg-Sulzbach","type":"Landkreis"},"federalState":{"key":"09","name":"Bayern"}},{"name":"Kurzweg","postalCode":"94530","locality":"Auerbach","municipality":{"key":"09271113","name":"Auerbach","type":"Kreisangehörige_Gemeinde"},"district":{"key":"09271","name":"Deggendorf","type":"Landkreis"},"federalState":{"key":"09","name":"Bayern"}},{"name":"Lamnitzer Str.","postalCode":"08209","locality":"Auerbach/Vogtland","municipality":{"key":"14523020","name":"Auerbach/Vogtl., Stadt","type":"Stadt"},"district":{"key":"14523","name":"Vogtlandkreis","type":"Landkreis"},"federalState":{"key":"14","name":"Sachsen"}},{"name":"Langgräfe","postalCode":"91275","locality":"Auerbach in der Oberpfalz","municipality":{"key":"09371113","name":"Auerbach i.d.OPf., St","type":"Stadt"},"district":{"key":"09371","name":"Amberg-Sulzbach","type":"Landkreis"},"federalState":{"key":"09","name":"Bayern"}},{"name":"Lassallestr.","postalCode":"08209","locality":"Auerbach/Vogtland","municipality":{"key":"14523020","name":"Auerbach/Vogtl., Stadt","type":"Stadt"},"district":{"key":"14523","name":"Vogtlandkreis","type":"Landkreis"},"federalState":{"key":"14","name":"Sachsen"}},{"name":"Lauterbacher Str.","postalCode":"08209","locality":"Auerbach/Vogtland","municipality":{"key":"14523020","name":"Auerbach/Vogtl., Stadt","type":"Stadt"},"district":{"key":"14523","name":"Vogtlandkreis","type":"Landkreis"},"federalState":{"key":"14","name":"Sachsen"}},{"name":"Leerser Str.","postalCode":"08209","locality":"Auerbach/Vogtland","municipality":{"key":"14523020","name":"Auerbach/Vogtl., Stadt","type":"Stadt"},"district":{"key":"14523","name":"Vogtlandkreis","type":"Landkreis"},"federalState":{"key":"14","name":"Sachsen"}},{"name":"Lerchenweg","postalCode":"08209","locality":"Auerbach/Vogtland","municipality":{"key":"14523020","name":"Auerbach/Vogtl., Stadt","type":"Stadt"},"district":{"key":"14523","name":"Vogtlandkreis","type":"Landkreis"},"federalState":{"key":"14","name":"Sachsen"}},{"name":"Lessingstr.","postalCode":"08209","locality":"Auerbach/Vogtland","municipality":{"key":"14523020","name":"Auerbach/Vogtl., Stadt","type":"Stadt"},"district":{"key":"14523","name":"Vogtlandkreis","type":"Landkreis"},"federalState":{"key":"14","name":"Sachsen"}},{"name":"Lidenweg","postalCode":"08209","locality":"Auerbach/Vogtland","municipality":{"key":"14523020","name":"Auerbach/Vogtl., Stadt","type":"Stadt"},"district":{"key":"14523","name":"Vogtlandkreis","type":"Landkreis"},"federalState":{"key":"14","name":"Sachsen"}},{"name":"Liebknechtstr.","postalCode":"08209","locality":"Auerbach/Vogtland","municipality":{"key":"14523020","name":"Auerbach/Vogtl., Stadt","type":"Stadt"},"district":{"key":"14523","name":"Vogtlandkreis","type":"Landkreis"},"federalState":{"key":"14","name":"Sachsen"}},{"name":"Lilienstr.","postalCode":"08209","locality":"Auerbach/Vogtland","municipality":{"key":"14523020","name":"Auerbach/Vogtl., Stadt","type":"Stadt"},"district":{"key":"14523","name":"Vogtlandkreis","type":"Landkreis"},"federalState":{"key":"14","name":"Sachsen"}},{"name":"Lindenallee","postalCode":"08209","locality":"Auerbach/Vogtland","municipality":{"key":"14523020","name":"Auerbach/Vogtl., Stadt","type":"Stadt"},"district":{"key":"14523","name":"Vogtlandkreis","type":"Landkreis"},"federalState":{"key":"14","name":"Sachsen"}},{"name":"Lindenstr.","postalCode":"08209","locality":"Auerbach/Vogtland","municipality":{"key":"14523020","name":"Auerbach/Vogtl., Stadt","type":"Stadt"},"district":{"key":"14523","name":"Vogtlandkreis","type":"Landkreis"},"federalState":{"key":"14","name":"Sachsen"}},{"name":"Lindenweg","postalCode":"91275","locality":"Auerbach in der Oberpfalz","municipality":{"key":"09371113","name":"Auerbach i.d.OPf., St","type":"Stadt"},"district":{"key":"09371","name":"Amberg-Sulzbach","type":"Landkreis"},"federalState":{"key":"09","name":"Bayern"}},{"name":"Linetweg","postalCode":"91275","locality":"Auerbach in der Oberpfalz","municipality":{"key":"09371113","name":"Auerbach i.d.OPf., St","type":"Stadt"},"district":{"key":"09371","name":"Amberg-Sulzbach","type":"Landkreis"},"federalState":{"key":"09","name":"Bayern"}},{"name":"Loher Str.","postalCode":"94530","locality":"Auerbach","municipality":{"key":"09271113","name":"Auerbach","type":"Kreisangehörige_Gemeinde"},"district":{"key":"09271","name":"Deggendorf","type":"Landkreis"},"federalState":{"key":"09","name":"Bayern"}},{"name":"Loheweg","postalCode":"08209","locality":"Auerbach/Vogtland","municipality":{"key":"14523020","name":"Auerbach/Vogtl., Stadt","type":"Stadt"},"district":{"key":"14523","name":"Vogtlandkreis","type":"Landkreis"},"federalState":{"key":"14","name":"Sachsen"}},{"name":"Lohweg","postalCode":"08209","locality":"Auerbach/Vogtland","municipality":{"key":"14523020","name":"Auerbach/Vogtl., Stadt","type":"Stadt"},"district":{"key":"14523","name":"Vogtlandkreis","type":"Landkreis"},"federalState":{"key":"14","name":"Sachsen"}},{"name":"Ludwig-Jahn-Str.","postalCode":"09392","locality":"Auerbach","municipality":{"key":"14521040","name":"Auerbach","type":"Kreisangehörige_Gemeinde"},"district":{"key":"14521","name":"Erzgebirgskreis","type":"Landkreis"},"federalState":{"key":"14","name":"Sachsen"}},{"name":"Lutherstr.","postalCode":"08209","locality":"Auerbach/Vogtland","municipality":{"key":"14523020","name":"Auerbach/Vogtl., Stadt","type":"Stadt"},"district":{"key":"14523","name":"Vogtlandkreis","type":"Landkreis"},"federalState":{"key":"14","name":"Sachsen"}},{"name":"Maffeistr.","postalCode":"91275","locality":"Auerbach in der Oberpfalz","municipality":{"key":"09371113","name":"Auerbach i.d.OPf., St","type":"Stadt"},"district":{"key":"09371","name":"Amberg-Sulzbach","type":"Landkreis"},"federalState":{"key":"09","name":"Bayern"}},{"name":"Malzhausweg","postalCode":"08209","locality":"Auerbach/Vogtland","municipality":{"key":"14523020","name":"Auerbach/Vogtl., Stadt","type":"Stadt"},"district":{"key":"14523","name":"Vogtlandkreis","type":"Landkreis"},"federalState":{"key":"14","name":"Sachsen"}},{"name":"Marienstr.","postalCode":"08209","locality":"Auerbach/Vogtland","municipality":{"key":"14523020","name":"Auerbach/Vogtl., Stadt","type":"Stadt"},"district":{"key":"14523","name":"Vogtlandkreis","type":"Landkreis"},"federalState":{"key":"14","name":"Sachsen"}},{"name":"Marienstr.","postalCode":"91275","locality":"Auerbach in der Oberpfalz","municipality":{"key":"09371113","name":"Auerbach i.d.OPf., St","type":"Stadt"},"district":{"key":"09371","name":"Amberg-Sulzbach","type":"Landkreis"},"federalState":{"key":"09","name":"Bayern"}},{"name":"Max-Reger-Str.","postalCode":"91275","locality":"Auerbach in der Oberpfalz","municipality":{"key":"09371113","name":"Auerbach i.d.OPf., St","type":"Stadt"},"district":{"key":"09371","name":"Amberg-Sulzbach","type":"Landkreis"},"federalState":{"key":"09","name":"Bayern"}},{"name":"Max-Wiesent-Str.","postalCode":"91275","locality":"Auerbach in der Oberpfalz","municipality":{"key":"09371113","name":"Auerbach i.d.OPf., St","type":"Stadt"},"district":{"key":"09371","name":"Amberg-Sulzbach","type":"Landkreis"},"federalState":{"key":"09","name":"Bayern"}},{"name":"Meiergraben","postalCode":"91275","locality":"Auerbach in der Oberpfalz","municipality":{"key":"09371113","name":"Auerbach i.d.OPf., St","type":"Stadt"},"district":{"key":"09371","name":"Amberg-Sulzbach","type":"Landkreis"},"federalState":{"key":"09","name":"Bayern"}},{"name":"Meilensteinflügel","postalCode":"08209","locality":"Auerbach/Vogtland","municipality":{"key":"14523020","name":"Auerbach/Vogtl., Stadt","type":"Stadt"},"district":{"key":"14523","name":"Vogtlandkreis","type":"Landkreis"},"federalState":{"key":"14","name":"Sachsen"}},{"name":"Meisenweg","postalCode":"08209","locality":"Auerbach/Vogtland","municipality":{"key":"14523020","name":"Auerbach/Vogtl., Stadt","type":"Stadt"},"district":{"key":"14523","name":"Vogtlandkreis","type":"Landkreis"},"federalState":{"key":"14","name":"Sachsen"}},{"name":"Michaelweg","postalCode":"08209","locality":"Auerbach/Vogtland","municipality":{"key":"14523020","name":"Auerbach/Vogtl., Stadt","type":"Stadt"},"district":{"key":"14523","name":"Vogtlandkreis","type":"Landkreis"},"federalState":{"key":"14","name":"Sachsen"}},{"name":"Mosenstr.","postalCode":"08209","locality":"Auerbach/Vogtland","municipality":{"key":"14523020","name":"Auerbach/Vogtl., Stadt","type":"Stadt"},"district":{"key":"14523","name":"Vogtlandkreis","type":"Landkreis"},"federalState":{"key":"14","name":"Sachsen"}},{"name":"Mozartstr.","postalCode":"08209","locality":"Auerbach/Vogtland","municipality":{"key":"14523020","name":"Auerbach/Vogtl., Stadt","type":"Stadt"},"district":{"key":"14523","name":"Vogtlandkreis","type":"Landkreis"},"federalState":{"key":"14","name":"Sachsen"}},{"name":"Mozartstr.","postalCode":"91275","locality":"Auerbach in der Oberpfalz","municipality":{"key":"09371113","name":"Auerbach i.d.OPf., St","type":"Stadt"},"district":{"key":"09371","name":"Amberg-Sulzbach","type":"Landkreis"},"federalState":{"key":"09","name":"Bayern"}},{"name":"Mühlberg","postalCode":"08209","locality":"Auerbach/Vogtland","municipality":{"key":"14523020","name":"Auerbach/Vogtl., Stadt","type":"Stadt"},"district":{"key":"14523","name":"Vogtlandkreis","type":"Landkreis"},"federalState":{"key":"14","name":"Sachsen"}},{"name":"Mühlenweg","postalCode":"08209","locality":"Auerbach/Vogtland","municipality":{"key":"14523020","name":"Auerbach/Vogtl., Stadt","type":"Stadt"},"district":{"key":"14523","name":"Vogtlandkreis","type":"Landkreis"},"federalState":{"key":"14","name":"Sachsen"}},{"name":"Mühlleithe","postalCode":"08209","locality":"Auerbach/Vogtland","municipality":{"key":"14523020","name":"Auerbach/Vogtl., Stadt","type":"Stadt"},"district":{"key":"14523","name":"Vogtlandkreis","type":"Landkreis"},"federalState":{"key":"14","name":"Sachsen"}},{"name":"Mühlstr.","postalCode":"08209","locality":"Auerbach/Vogtland","municipality":{"key":"14523020","name":"Auerbach/Vogtl., Stadt","type":"Stadt"},"district":{"key":"14523","name":"Vogtlandkreis","type":"Landkreis"},"federalState":{"key":"14","name":"Sachsen"}},{"name":"Mühlweg","postalCode":"09392","locality":"Auerbach","municipality":{"key":"14521040","name":"Auerbach","type":"Kreisangehörige_Gemeinde"},"district":{"key":"14521","name":"Erzgebirgskreis","type":"Landkreis"},"federalState":{"key":"14","name":"Sachsen"}},{"name":"M-Weg","postalCode":"08209","locality":"Auerbach/Vogtland","municipality":{"key":"14523020","name":"Auerbach/Vogtl., Stadt","type":"Stadt"},"district":{"key":"14523","name":"Vogtlandkreis","type":"Landkreis"},"federalState":{"key":"14","name":"Sachsen"}},{"name":"Narzissenstr.","postalCode":"08209","locality":"Auerbach/Vogtland","municipality":{"key":"14523020","name":"Auerbach/Vogtl., Stadt","type":"Stadt"},"district":{"key":"14523","name":"Vogtlandkreis","type":"Landkreis"},"federalState":{"key":"14","name":"Sachsen"}},{"name":"Nasnitzer Hauptstr.","postalCode":"91275","locality":"Auerbach in der Oberpfalz","municipality":{"key":"09371113","name":"Auerbach i.d.OPf., St","type":"Stadt"},"district":{"key":"09371","name":"Amberg-Sulzbach","type":"Landkreis"},"federalState":{"key":"09","name":"Bayern"}},{"name":"Nelkenweg","postalCode":"08209","locality":"Auerbach/Vogtland","municipality":{"key":"14523020","name":"Auerbach/Vogtl., Stadt","type":"Stadt"},"district":{"key":"14523","name":"Vogtlandkreis","type":"Landkreis"},"federalState":{"key":"14","name":"Sachsen"}},{"name":"Neptunplatz","postalCode":"91275","locality":"Auerbach in der Oberpfalz","municipality":{"key":"09371113","name":"Auerbach i.d.OPf., St","type":"Stadt"},"district":{"key":"09371","name":"Amberg-Sulzbach","type":"Landkreis"},"federalState":{"key":"09","name":"Bayern"}},{"name":"Neuberg","postalCode":"08209","locality":"Auerbach/Vogtland","municipality":{"key":"14523020","name":"Auerbach/Vogtl., Stadt","type":"Stadt"},"district":{"key":"14523","name":"Vogtlandkreis","type":"Landkreis"},"federalState":{"key":"14","name":"Sachsen"}},{"name":"Neue Heimat","postalCode":"08209","locality":"Auerbach/Vogtland","municipality":{"key":"14523020","name":"Auerbach/Vogtl., Stadt","type":"Stadt"},"district":{"key":"14523","name":"Vogtlandkreis","type":"Landkreis"},"federalState":{"key":"14","name":"Sachsen"}},{"name":"Neuer Weg","postalCode":"09392","locality":"Auerbach","municipality":{"key":"14521040","name":"Auerbach","type":"Kreisangehörige_Gemeinde"},"district":{"key":"14521","name":"Erzgebirgskreis","type":"Landkreis"},"federalState":{"key":"14","name":"Sachsen"}},{"name":"Neue Schönheider Str.","postalCode":"08209","locality":"Auerbach/Vogtland","municipality":{"key":"14523020","name":"Auerbach/Vogtl., Stadt","type":"Stadt"},"district":{"key":"14523","name":"Vogtlandkreis","type":"Landkreis"},"federalState":{"key":"14","name":"Sachsen"}},{"name":"Neue Str.","postalCode":"08209","locality":"Auerbach/Vogtland","municipality":{"key":"14523020","name":"Auerbach/Vogtl., Stadt","type":"Stadt"},"district":{"key":"14523","name":"Vogtlandkreis","type":"Landkreis"},"federalState":{"key":"14","name":"Sachsen"}},{"name":"Neue Welt","postalCode":"08209","locality":"Auerbach/Vogtland","municipality":{"key":"14523020","name":"Auerbach/Vogtl., Stadt","type":"Stadt"},"district":{"key":"14523","name":"Vogtlandkreis","type":"Landkreis"},"federalState":{"key":"14","name":"Sachsen"}},{"name":"Neuhauser Str.","postalCode":"91275","locality":"Auerbach in der Oberpfalz","municipality":{"key":"09371113","name":"Auerbach i.d.OPf., St","type":"Stadt"},"district":{"key":"09371","name":"Amberg-Sulzbach","type":"Landkreis"},"federalState":{"key":"09","name":"Bayern"}},{"name":"Neumarkt","postalCode":"08209","locality":"Auerbach/Vogtland","municipality":{"key":"14523020","name":"Auerbach/Vogtl., Stadt","type":"Stadt"},"district":{"key":"14523","name":"Vogtlandkreis","type":"Landkreis"},"federalState":{"key":"14","name":"Sachsen"}},{"name":"Neumühlweg","postalCode":"91275","locality":"Auerbach in der Oberpfalz","municipality":{"key":"09371113","name":"Auerbach i.d.OPf., St","type":"Stadt"},"district":{"key":"09371","name":"Amberg-Sulzbach","type":"Landkreis"},"federalState":{"key":"09","name":"Bayern"}},{"name":"Neumühlwiesen","postalCode":"91275","locality":"Auerbach in der Oberpfalz","municipality":{"key":"09371113","name":"Auerbach i.d.OPf., St","type":"Stadt"},"district":{"key":"09371","name":"Amberg-Sulzbach","type":"Landkreis"},"federalState":{"key":"09","name":"Bayern"}},{"name":"Nicolaistr.","postalCode":"08209","locality":"Auerbach/Vogtland","municipality":{"key":"14523020","name":"Auerbach/Vogtl., Stadt","type":"Stadt"},"district":{"key":"14523","name":"Vogtlandkreis","type":"Landkreis"},"federalState":{"key":"14","name":"Sachsen"}},{"name":"Nordstr.","postalCode":"08209","locality":"Auerbach/Vogtland","municipality":{"key":"14523020","name":"Auerbach/Vogtl., Stadt","type":"Stadt"},"district":{"key":"14523","name":"Vogtlandkreis","type":"Landkreis"},"federalState":{"key":"14","name":"Sachsen"}},{"name":"Novettaweg","postalCode":"91275","locality":"Auerbach in der Oberpfalz","municipality":{"key":"09371113","name":"Auerbach i.d.OPf., St","type":"Stadt"},"district":{"key":"09371","name":"Amberg-Sulzbach","type":"Landkreis"},"federalState":{"key":"09","name":"Bayern"}},{"name":"Oberauerbacher Str.","postalCode":"94530","locality":"Auerbach","municipality":{"key":"09271113","name":"Auerbach","type":"Kreisangehörige_Gemeinde"},"district":{"key":"09271","name":"Deggendorf","type":"Landkreis"},"federalState":{"key":"09","name":"Bayern"}},{"name":"Obere Bahnhofstr.","postalCode":"08209","locality":"Auerbach/Vogtland","municipality":{"key":"14523020","name":"Auerbach/Vogtl., Stadt","type":"Stadt"},"district":{"key":"14523","name":"Vogtlandkreis","type":"Landkreis"},"federalState":{"key":"14","name":"Sachsen"}},{"name":"Obere Bergstr.","postalCode":"08209","locality":"Auerbach/Vogtland","municipality":{"key":"14523020","name":"Auerbach/Vogtl., Stadt","type":"Stadt"},"district":{"key":"14523","name":"Vogtlandkreis","type":"Landkreis"},"federalState":{"key":"14","name":"Sachsen"}},{"name":"Obere Bergstr.","postalCode":"91275","locality":"Auerbach in der Oberpfalz","municipality":{"key":"09371113","name":"Auerbach i.d.OPf., St","type":"Stadt"},"district":{"key":"09371","name":"Amberg-Sulzbach","type":"Landkreis"},"federalState":{"key":"09","name":"Bayern"}},{"name":"Obere Goethestr.","postalCode":"08209","locality":"Auerbach/Vogtland","municipality":{"key":"14523020","name":"Auerbach/Vogtl., Stadt","type":"Stadt"},"district":{"key":"14523","name":"Vogtlandkreis","type":"Landkreis"},"federalState":{"key":"14","name":"Sachsen"}},{"name":"Obere Hauptstr.","postalCode":"09392","locality":"Auerbach","municipality":{"key":"14521040","name":"Auerbach","type":"Kreisangehörige_Gemeinde"},"district":{"key":"14521","name":"Erzgebirgskreis","type":"Landkreis"},"federalState":{"key":"14","name":"Sachsen"}},{"name":"Oberer Marktplatz","postalCode":"91275","locality":"Auerbach in der Oberpfalz","municipality":{"key":"09371113","name":"Auerbach i.d.OPf., St","type":"Stadt"},"district":{"key":"09371","name":"Amberg-Sulzbach","type":"Landkreis"},"federalState":{"key":"09","name":"Bayern"}},{"name":"Oberer Torplatz","postalCode":"91275","locality":"Auerbach in der Oberpfalz","municipality":{"key":"09371113","name":"Auerbach i.d.OPf., St","type":"Stadt"},"district":{"key":"09371","name":"Amberg-Sulzbach","type":"Landkreis"},"federalState":{"key":"09","name":"Bayern"}},{"name":"Obere Schulstr.","postalCode":"09392","locality":"Auerbach","municipality":{"key":"14521040","name":"Auerbach","type":"Kreisangehörige_Gemeinde"},"district":{"key":"14521","name":"Erzgebirgskreis","type":"Landkreis"},"federalState":{"key":"14","name":"Sachsen"}},{"name":"Obere Str.","postalCode":"08209","locality":"Auerbach/Vogtland","municipality":{"key":"14523020","name":"Auerbach/Vogtl., Stadt","type":"Stadt"},"district":{"key":"14523","name":"Vogtlandkreis","type":"Landkreis"},"federalState":{"key":"14","name":"Sachsen"}},{"name":"Obere Vorstadt","postalCode":"91275","locality":"Auerbach in der Oberpfalz","municipality":{"key":"09371113","name":"Auerbach i.d.OPf., St","type":"Stadt"},"district":{"key":"09371","name":"Amberg-Sulzbach","type":"Landkreis"},"federalState":{"key":"09","name":"Bayern"}},{"name":"Obersteinhausen","postalCode":"94530","locality":"Auerbach","municipality":{"key":"09271113","name":"Auerbach","type":"Kreisangehörige_Gemeinde"},"district":{"key":"09271","name":"Deggendorf","type":"Landkreis"},"federalState":{"key":"09","name":"Bayern"}},{"name":"Ohrenbacher Str.","postalCode":"91275","locality":"Auerbach in der Oberpfalz","municipality":{"key":"09371113","name":"Auerbach i.d.OPf., St","type":"Stadt"},"district":{"key":"09371","name":"Amberg-Sulzbach","type":"Landkreis"},"federalState":{"key":"09","name":"Bayern"}},{"name":"Ohrenbach-Siedlung","postalCode":"91275","locality":"Auerbach in der Oberpfalz","municipality":{"key":"09371113","name":"Auerbach i.d.OPf., St","type":"Stadt"},"district":{"key":"09371","name":"Amberg-Sulzbach","type":"Landkreis"},"federalState":{"key":"09","name":"Bayern"}},{"name":"Opitzstr.","postalCode":"08209","locality":"Auerbach/Vogtland","municipality":{"key":"14523020","name":"Auerbach/Vogtl., Stadt","type":"Stadt"},"district":{"key":"14523","name":"Vogtlandkreis","type":"Landkreis"},"federalState":{"key":"14","name":"Sachsen"}},{"name":"Oststr.","postalCode":"08209","locality":"Auerbach/Vogtland","municipality":{"key":"14523020","name":"Auerbach/Vogtl., Stadt","type":"Stadt"},"district":{"key":"14523","name":"Vogtlandkreis","type":"Landkreis"},"federalState":{"key":"14","name":"Sachsen"}},{"name":"Ottostr.","postalCode":"08209","locality":"Auerbach/Vogtland","municipality":{"key":"14523020","name":"Auerbach/Vogtl., Stadt","type":"Stadt"},"district":{"key":"14523","name":"Vogtlandkreis","type":"Landkreis"},"federalState":{"key":"14","name":"Sachsen"}},{"name":"Pankratiusweg","postalCode":"94530","locality":"Auerbach","municipality":{"key":"09271113","name":"Auerbach","type":"Kreisangehörige_Gemeinde"},"district":{"key":"09271","name":"Deggendorf","type":"Landkreis"},"federalState":{"key":"09","name":"Bayern"}},{"name":"Parkallee an der Sandstr.","postalCode":"91275","locality":"Auerbach in der Oberpfalz","municipality":{"key":"09371113","name":"Auerbach i.d.OPf., St","type":"Stadt"},"district":{"key":"09371","name":"Amberg-Sulzbach","type":"Landkreis"},"federalState":{"key":"09","name":"Bayern"}},{"name":"Park am Caritasheim","postalCode":"91275","locality":"Auerbach in der Oberpfalz","municipality":{"key":"09371113","name":"Auerbach i.d.OPf., St","type":"Stadt"},"district":{"key":"09371","name":"Amberg-Sulzbach","type":"Landkreis"},"federalState":{"key":"09","name":"Bayern"}},{"name":"Park am Kinderhort","postalCode":"91275","locality":"Auerbach in der Oberpfalz","municipality":{"key":"09371113","name":"Auerbach i.d.OPf., St","type":"Stadt"},"district":{"key":"09371","name":"Amberg-Sulzbach","type":"Landkreis"},"federalState":{"key":"09","name":"Bayern"}},{"name":"Park am Schulgelände","postalCode":"91275","locality":"Auerbach in der Oberpfalz","municipality":{"key":"09371113","name":"Auerbach i.d.OPf., St","type":"Stadt"},"district":{"key":"09371","name":"Amberg-Sulzbach","type":"Landkreis"},"federalState":{"key":"09","name":"Bayern"}},{"name":"Park Beerheide","postalCode":"08209","locality":"Auerbach/Vogtland","municipality":{"key":"14523020","name":"Auerbach/Vogtl., Stadt","type":"Stadt"},"district":{"key":"14523","name":"Vogtlandkreis","type":"Landkreis"},"federalState":{"key":"14","name":"Sachsen"}},{"name":"Park der Generationen","postalCode":"08209","locality":"Auerbach/Vogtland","municipality":{"key":"14523020","name":"Auerbach/Vogtl., Stadt","type":"Stadt"},"district":{"key":"14523","name":"Vogtlandkreis","type":"Landkreis"},"federalState":{"key":"14","name":"Sachsen"}},{"name":"Parkstr.","postalCode":"08209","locality":"Auerbach/Vogtland","municipality":{"key":"14523020","name":"Auerbach/Vogtl., Stadt","type":"Stadt"},"district":{"key":"14523","name":"Vogtlandkreis","type":"Landkreis"},"federalState":{"key":"14","name":"Sachsen"}},{"name":"Pegnitzstr.","postalCode":"91275","locality":"Auerbach in der Oberpfalz","municipality":{"key":"09371113","name":"Auerbach i.d.OPf., St","type":"Stadt"},"district":{"key":"09371","name":"Amberg-Sulzbach","type":"Landkreis"},"federalState":{"key":"09","name":"Bayern"}},{"name":"Penzenreuther Str.","postalCode":"91275","locality":"Auerbach in der Oberpfalz","municipality":{"key":"09371113","name":"Auerbach i.d.OPf., St","type":"Stadt"},"district":{"key":"09371","name":"Amberg-Sulzbach","type":"Landkreis"},"federalState":{"key":"09","name":"Bayern"}},{"name":"Pestalozzistr.","postalCode":"08209","locality":"Auerbach/Vogtland","municipality":{"key":"14523020","name":"Auerbach/Vogtl., Stadt","type":"Stadt"},"district":{"key":"14523","name":"Vogtlandkreis","type":"Landkreis"},"federalState":{"key":"14","name":"Sachsen"}},{"name":"Pfaffenweg","postalCode":"08209","locality":"Auerbach/Vogtland","municipality":{"key":"14523020","name":"Auerbach/Vogtl., Stadt","type":"Stadt"},"district":{"key":"14523","name":"Vogtlandkreis","type":"Landkreis"},"federalState":{"key":"14","name":"Sachsen"}},{"name":"Pfarrerfeld","postalCode":"94530","locality":"Auerbach","municipality":{"key":"09271113","name":"Auerbach","type":"Kreisangehörige_Gemeinde"},"district":{"key":"09271","name":"Deggendorf","type":"Landkreis"},"federalState":{"key":"09","name":"Bayern"}},{"name":"Pfarrer-Ritter-Str.","postalCode":"91275","locality":"Auerbach in der Oberpfalz","municipality":{"key":"09371113","name":"Auerbach i.d.OPf., St","type":"Stadt"},"district":{"key":"09371","name":"Amberg-Sulzbach","type":"Landkreis"},"federalState":{"key":"09","name":"Bayern"}},{"name":"Pfarrgasse","postalCode":"08209","locality":"Auerbach/Vogtland","municipality":{"key":"14523020","name":"Auerbach/Vogtl., Stadt","type":"Stadt"},"district":{"key":"14523","name":"Vogtlandkreis","type":"Landkreis"},"federalState":{"key":"14","name":"Sachsen"}},{"name":"Pfarrsteig","postalCode":"09392","locality":"Auerbach","municipality":{"key":"14521040","name":"Auerbach","type":"Kreisangehörige_Gemeinde"},"district":{"key":"14521","name":"Erzgebirgskreis","type":"Landkreis"},"federalState":{"key":"14","name":"Sachsen"}},{"name":"Pfarrstr.","postalCode":"91275","locality":"Auerbach in der Oberpfalz","municipality":{"key":"09371113","name":"Auerbach i.d.OPf., St","type":"Stadt"},"district":{"key":"09371","name":"Amberg-Sulzbach","type":"Landkreis"},"federalState":{"key":"09","name":"Bayern"}},{"name":"Pferdeweg","postalCode":"08209","locality":"Auerbach/Vogtland","municipality":{"key":"14523020","name":"Auerbach/Vogtl., Stadt","type":"Stadt"},"district":{"key":"14523","name":"Vogtlandkreis","type":"Landkreis"},"federalState":{"key":"14","name":"Sachsen"}},{"name":"Planitzstr.","postalCode":"08209","locality":"Auerbach/Vogtland","municipality":{"key":"14523020","name":"Auerbach/Vogtl., Stadt","type":"Stadt"},"district":{"key":"14523","name":"Vogtlandkreis","type":"Landkreis"},"federalState":{"key":"14","name":"Sachsen"}},{"name":"Plauensche Str.","postalCode":"08209","locality":"Auerbach/Vogtland","municipality":{"key":"14523020","name":"Auerbach/Vogtl., Stadt","type":"Stadt"},"district":{"key":"14523","name":"Vogtlandkreis","type":"Landkreis"},"federalState":{"key":"14","name":"Sachsen"}},{"name":"Poststr.","postalCode":"08209","locality":"Auerbach/Vogtland","municipality":{"key":"14523020","name":"Auerbach/Vogtl., Stadt","type":"Stadt"},"district":{"key":"14523","name":"Vogtlandkreis","type":"Landkreis"},"federalState":{"key":"14","name":"Sachsen"}},{"name":"Quergasse","postalCode":"08209","locality":"Auerbach/Vogtland","municipality":{"key":"14523020","name":"Auerbach/Vogtl., Stadt","type":"Stadt"},"district":{"key":"14523","name":"Vogtlandkreis","type":"Landkreis"},"federalState":{"key":"14","name":"Sachsen"}},{"name":"Querstr.","postalCode":"08209","locality":"Auerbach/Vogtland","municipality":{"key":"14523020","name":"Auerbach/Vogtl., Stadt","type":"Stadt"},"district":{"key":"14523","name":"Vogtlandkreis","type":"Landkreis"},"federalState":{"key":"14","name":"Sachsen"}},{"name":"Rathenaustr.","postalCode":"08209","locality":"Auerbach/Vogtland","municipality":{"key":"14523020","name":"Auerbach/Vogtl., Stadt","type":"Stadt"},"district":{"key":"14523","name":"Vogtlandkreis","type":"Landkreis"},"federalState":{"key":"14","name":"Sachsen"}},{"name":"Rautenkranzer Str.","postalCode":"08209","locality":"Auerbach/Vogtland","municipality":{"key":"14523020","name":"Auerbach/Vogtl., Stadt","type":"Stadt"},"district":{"key":"14523","name":"Vogtlandkreis","type":"Landkreis"},"federalState":{"key":"14","name":"Sachsen"}},{"name":"Regens-Wagner-Str.","postalCode":"91275","locality":"Auerbach in der Oberpfalz","municipality":{"key":"09371113","name":"Auerbach i.d.OPf., St","type":"Stadt"},"district":{"key":"09371","name":"Amberg-Sulzbach","type":"Landkreis"},"federalState":{"key":"09","name":"Bayern"}},{"name":"Reiboldsgrüner Str.","postalCode":"08209","locality":"Auerbach/Vogtland","municipality":{"key":"14523020","name":"Auerbach/Vogtl., Stadt","type":"Stadt"},"district":{"key":"14523","name":"Vogtlandkreis","type":"Landkreis"},"federalState":{"key":"14","name":"Sachsen"}},{"name":"Rempesgrüner Str.","postalCode":"08209","locality":"Auerbach/Vogtland","municipality":{"key":"14523020","name":"Auerbach/Vogtl., Stadt","type":"Stadt"},"district":{"key":"14523","name":"Vogtlandkreis","type":"Landkreis"},"federalState":{"key":"14","name":"Sachsen"}},{"name":"Rempesgrüner Weg","postalCode":"08209","locality":"Auerbach/Vogtland","municipality":{"key":"14523020","name":"Auerbach/Vogtl., Stadt","type":"Stadt"},"district":{"key":"14523","name":"Vogtlandkreis","type":"Landkreis"},"federalState":{"key":"14","name":"Sachsen"}},{"name":"Reumtengrüner Hauptstr.","postalCode":"08209","locality":"Auerbach/Vogtland","municipality":{"key":"14523020","name":"Auerbach/Vogtl., Stadt","type":"Stadt"},"district":{"key":"14523","name":"Vogtlandkreis","type":"Landkreis"},"federalState":{"key":"14","name":"Sachsen"}},{"name":"Reumtengrüner Str.","postalCode":"08209","locality":"Auerbach/Vogtland","municipality":{"key":"14523020","name":"Auerbach/Vogtl., Stadt","type":"Stadt"},"district":{"key":"14523","name":"Vogtlandkreis","type":"Landkreis"},"federalState":{"key":"14","name":"Sachsen"}},{"name":"Richardshöhe","postalCode":"08209","locality":"Auerbach/Vogtland","municipality":{"key":"14523020","name":"Auerbach/Vogtl., Stadt","type":"Stadt"},"district":{"key":"14523","name":"Vogtlandkreis","type":"Landkreis"},"federalState":{"key":"14","name":"Sachsen"}},{"name":"Richard-Wagner-Str.","postalCode":"08209","locality":"Auerbach/Vogtland","municipality":{"key":"14523020","name":"Auerbach/Vogtl., Stadt","type":"Stadt"},"district":{"key":"14523","name":"Vogtlandkreis","type":"Landkreis"},"federalState":{"key":"14","name":"Sachsen"}},{"name":"Richard-Wagner-Str.","postalCode":"91275","locality":"Auerbach in der Oberpfalz","municipality":{"key":"09371113","name":"Auerbach i.d.OPf., St","type":"Stadt"},"district":{"key":"09371","name":"Amberg-Sulzbach","type":"Landkreis"},"federalState":{"key":"09","name":"Bayern"}},{"name":"Ringstr.","postalCode":"91275","locality":"Auerbach in der Oberpfalz","municipality":{"key":"09371113","name":"Auerbach i.d.OPf., St","type":"Stadt"},"district":{"key":"09371","name":"Amberg-Sulzbach","type":"Landkreis"},"federalState":{"key":"09","name":"Bayern"}},{"name":"Ritterstr.","postalCode":"08209","locality":"Auerbach/Vogtland","municipality":{"key":"14523020","name":"Auerbach/Vogtl., Stadt","type":"Stadt"},"district":{"key":"14523","name":"Vogtlandkreis","type":"Landkreis"},"federalState":{"key":"14","name":"Sachsen"}},{"name":"Robert-Blum-Str.","postalCode":"08209","locality":"Auerbach/Vogtland","municipality":{"key":"14523020","name":"Auerbach/Vogtl., Stadt","type":"Stadt"},"district":{"key":"14523","name":"Vogtlandkreis","type":"Landkreis"},"federalState":{"key":"14","name":"Sachsen"}},{"name":"Robert-Schumann-Str.","postalCode":"08209","locality":"Auerbach/Vogtland","municipality":{"key":"14523020","name":"Auerbach/Vogtl., Stadt","type":"Stadt"},"district":{"key":"14523","name":"Vogtlandkreis","type":"Landkreis"},"federalState":{"key":"14","name":"Sachsen"}},{"name":"Rodewischer Str.","postalCode":"08209","locality":"Auerbach/Vogtland","municipality":{"key":"14523020","name":"Auerbach/Vogtl., Stadt","type":"Stadt"},"district":{"key":"14523","name":"Vogtlandkreis","type":"Landkreis"},"federalState":{"key":"14","name":"Sachsen"}},{"name":"Roncallistr.","postalCode":"91275","locality":"Auerbach in der Oberpfalz","municipality":{"key":"09371113","name":"Auerbach i.d.OPf., St","type":"Stadt"},"district":{"key":"09371","name":"Amberg-Sulzbach","type":"Landkreis"},"federalState":{"key":"09","name":"Bayern"}},{"name":"Rosa-Luxemburg-Str.","postalCode":"08209","locality":"Auerbach/Vogtland","municipality":{"key":"14523020","name":"Auerbach/Vogtl., Stadt","type":"Stadt"},"district":{"key":"14523","name":"Vogtlandkreis","type":"Landkreis"},"federalState":{"key":"14","name":"Sachsen"}},{"name":"Rosenhofer Str.","postalCode":"91275","locality":"Auerbach in der Oberpfalz","municipality":{"key":"09371113","name":"Auerbach i.d.OPf., St","type":"Stadt"},"district":{"key":"09371","name":"Amberg-Sulzbach","type":"Landkreis"},"federalState":{"key":"09","name":"Bayern"}},{"name":"Rosenstr.","postalCode":"91275","locality":"Auerbach in der Oberpfalz","municipality":{"key":"09371113","name":"Auerbach i.d.OPf., St","type":"Stadt"},"district":{"key":"09371","name":"Amberg-Sulzbach","type":"Landkreis"},"federalState":{"key":"09","name":"Bayern"}},{"name":"Rosenweg","postalCode":"08209","locality":"Auerbach/Vogtland","municipality":{"key":"14523020","name":"Auerbach/Vogtl., Stadt","type":"Stadt"},"district":{"key":"14523","name":"Vogtlandkreis","type":"Landkreis"},"federalState":{"key":"14","name":"Sachsen"}},{"name":"Röthelsteinweg","postalCode":"08209","locality":"Auerbach/Vogtland","municipality":{"key":"14523020","name":"Auerbach/Vogtl., Stadt","type":"Stadt"},"district":{"key":"14523","name":"Vogtlandkreis","type":"Landkreis"},"federalState":{"key":"14","name":"Sachsen"}},{"name":"Rudolf-Harbig-Str.","postalCode":"09392","locality":"Auerbach","municipality":{"key":"14521040","name":"Auerbach","type":"Kreisangehörige_Gemeinde"},"district":{"key":"14521","name":"Erzgebirgskreis","type":"Landkreis"},"federalState":{"key":"14","name":"Sachsen"}},{"name":"Rützengrüner Str.","postalCode":"08209","locality":"Auerbach/Vogtland","municipality":{"key":"14523020","name":"Auerbach/Vogtl., Stadt","type":"Stadt"},"district":{"key":"14523","name":"Vogtlandkreis","type":"Landkreis"},"federalState":{"key":"14","name":"Sachsen"}},{"name":"Sandiger Weg","postalCode":"08209","locality":"Auerbach/Vogtland","municipality":{"key":"14523020","name":"Auerbach/Vogtl., Stadt","type":"Stadt"},"district":{"key":"14523","name":"Vogtlandkreis","type":"Landkreis"},"federalState":{"key":"14","name":"Sachsen"}},{"name":"Sandstr.","postalCode":"91275","locality":"Auerbach in der Oberpfalz","municipality":{"key":"09371113","name":"Auerbach i.d.OPf., St","type":"Stadt"},"district":{"key":"09371","name":"Amberg-Sulzbach","type":"Landkreis"},"federalState":{"key":"09","name":"Bayern"}},{"name":"Sankt-Gunther-Weg","postalCode":"94530","locality":"Auerbach","municipality":{"key":"09271113","name":"Auerbach","type":"Kreisangehörige_Gemeinde"},"district":{"key":"09271","name":"Deggendorf","type":"Landkreis"},"federalState":{"key":"09","name":"Bayern"}},{"name":"Säuerhäuser","postalCode":"08209","locality":"Auerbach/Vogtland","municipality":{"key":"14523020","name":"Auerbach/Vogtl., Stadt","type":"Stadt"},"district":{"key":"14523","name":"Vogtlandkreis","type":"Landkreis"},"federalState":{"key":"14","name":"Sachsen"}},{"name":"Schafberg","postalCode":"08209","locality":"Auerbach/Vogtland","municipality":{"key":"14523020","name":"Auerbach/Vogtl., Stadt","type":"Stadt"},"district":{"key":"14523","name":"Vogtlandkreis","type":"Landkreis"},"federalState":{"key":"14","name":"Sachsen"}},{"name":"Schäfergasse","postalCode":"91275","locality":"Auerbach in der Oberpfalz","municipality":{"key":"09371113","name":"Auerbach i.d.OPf., St","type":"Stadt"},"district":{"key":"09371","name":"Amberg-Sulzbach","type":"Landkreis"},"federalState":{"key":"09","name":"Bayern"}},{"name":"Schallerbachstr.","postalCode":"08209","locality":"Auerbach/Vogtland","municipality":{"key":"14523020","name":"Auerbach/Vogtl., Stadt","type":"Stadt"},"district":{"key":"14523","name":"Vogtlandkreis","type":"Landkreis"},"federalState":{"key":"14","name":"Sachsen"}},{"name":"Schieferbruch","postalCode":"08209","locality":"Auerbach/Vogtland","municipality":{"key":"14523020","name":"Auerbach/Vogtl., Stadt","type":"Stadt"},"district":{"key":"14523","name":"Vogtlandkreis","type":"Landkreis"},"federalState":{"key":"14","name":"Sachsen"}},{"name":"Schießhausweg","postalCode":"08209","locality":"Auerbach/Vogtland","municipality":{"key":"14523020","name":"Auerbach/Vogtl., Stadt","type":"Stadt"},"district":{"key":"14523","name":"Vogtlandkreis","type":"Landkreis"},"federalState":{"key":"14","name":"Sachsen"}},{"name":"Schillerpark","postalCode":"08209","locality":"Auerbach/Vogtland","municipality":{"key":"14523020","name":"Auerbach/Vogtl., Stadt","type":"Stadt"},"district":{"key":"14523","name":"Vogtlandkreis","type":"Landkreis"},"federalState":{"key":"14","name":"Sachsen"}},{"name":"Schillerstr.","postalCode":"08209","locality":"Auerbach/Vogtland","municipality":{"key":"14523020","name":"Auerbach/Vogtl., Stadt","type":"Stadt"},"district":{"key":"14523","name":"Vogtlandkreis","type":"Landkreis"},"federalState":{"key":"14","name":"Sachsen"}},{"name":"Schlaggenwalder Str.","postalCode":"91275","locality":"Auerbach in der Oberpfalz","municipality":{"key":"09371113","name":"Auerbach i.d.OPf., St","type":"Stadt"},"district":{"key":"09371","name":"Amberg-Sulzbach","type":"Landkreis"},"federalState":{"key":"09","name":"Bayern"}},{"name":"Schleichershof","postalCode":"91275","locality":"Auerbach in der Oberpfalz","municipality":{"key":"09371113","name":"Auerbach i.d.OPf., St","type":"Stadt"},"district":{"key":"09371","name":"Amberg-Sulzbach","type":"Landkreis"},"federalState":{"key":"09","name":"Bayern"}},{"name":"Schleifmühlweg","postalCode":"91275","locality":"Auerbach in der Oberpfalz","municipality":{"key":"09371113","name":"Auerbach i.d.OPf., St","type":"Stadt"},"district":{"key":"09371","name":"Amberg-Sulzbach","type":"Landkreis"},"federalState":{"key":"09","name":"Bayern"}},{"name":"Schlesierstr.","postalCode":"91275","locality":"Auerbach in der Oberpfalz","municipality":{"key":"09371113","name":"Auerbach i.d.OPf., St","type":"Stadt"},"district":{"key":"09371","name":"Amberg-Sulzbach","type":"Landkreis"},"federalState":{"key":"09","name":"Bayern"}},{"name":"Schloßhof","postalCode":"91275","locality":"Auerbach in der Oberpfalz","municipality":{"key":"09371113","name":"Auerbach i.d.OPf., St","type":"Stadt"},"district":{"key":"09371","name":"Amberg-Sulzbach","type":"Landkreis"},"federalState":{"key":"09","name":"Bayern"}},{"name":"Schloßplatz","postalCode":"08209","locality":"Auerbach/Vogtland","municipality":{"key":"14523020","name":"Auerbach/Vogtl., Stadt","type":"Stadt"},"district":{"key":"14523","name":"Vogtlandkreis","type":"Landkreis"},"federalState":{"key":"14","name":"Sachsen"}},{"name":"Schloßstr.","postalCode":"08209","locality":"Auerbach/Vogtland","municipality":{"key":"14523020","name":"Auerbach/Vogtl., Stadt","type":"Stadt"},"district":{"key":"14523","name":"Vogtlandkreis","type":"Landkreis"},"federalState":{"key":"14","name":"Sachsen"}},{"name":"Schneeberger Str.","postalCode":"08209","locality":"Auerbach/Vogtland","municipality":{"key":"14523020","name":"Auerbach/Vogtl., Stadt","type":"Stadt"},"district":{"key":"14523","name":"Vogtlandkreis","type":"Landkreis"},"federalState":{"key":"14","name":"Sachsen"}},{"name":"Schöner Blick","postalCode":"08209","locality":"Auerbach/Vogtland","municipality":{"key":"14523020","name":"Auerbach/Vogtl., Stadt","type":"Stadt"},"district":{"key":"14523","name":"Vogtlandkreis","type":"Landkreis"},"federalState":{"key":"14","name":"Sachsen"}},{"name":"Schönheider Str.","postalCode":"08209","locality":"Auerbach/Vogtland","municipality":{"key":"14523020","name":"Auerbach/Vogtl., Stadt","type":"Stadt"},"district":{"key":"14523","name":"Vogtlandkreis","type":"Landkreis"},"federalState":{"key":"14","name":"Sachsen"}},{"name":"Schraderpark","postalCode":"08209","locality":"Auerbach/Vogtland","municipality":{"key":"14523020","name":"Auerbach/Vogtl., Stadt","type":"Stadt"},"district":{"key":"14523","name":"Vogtlandkreis","type":"Landkreis"},"federalState":{"key":"14","name":"Sachsen"}},{"name":"Schraderweg","postalCode":"08209","locality":"Auerbach/Vogtland","municipality":{"key":"14523020","name":"Auerbach/Vogtl., Stadt","type":"Stadt"},"district":{"key":"14523","name":"Vogtlandkreis","type":"Landkreis"},"federalState":{"key":"14","name":"Sachsen"}},{"name":"Schreberweg","postalCode":"08209","locality":"Auerbach/Vogtland","municipality":{"key":"14523020","name":"Auerbach/Vogtl., Stadt","type":"Stadt"},"district":{"key":"14523","name":"Vogtlandkreis","type":"Landkreis"},"federalState":{"key":"14","name":"Sachsen"}},{"name":"Schreiersgrüner Weg","postalCode":"08209","locality":"Auerbach/Vogtland","municipality":{"key":"14523020","name":"Auerbach/Vogtl., Stadt","type":"Stadt"},"district":{"key":"14523","name":"Vogtlandkreis","type":"Landkreis"},"federalState":{"key":"14","name":"Sachsen"}},{"name":"Schulgasse","postalCode":"08209","locality":"Auerbach/Vogtland","municipality":{"key":"14523020","name":"Auerbach/Vogtl., Stadt","type":"Stadt"},"district":{"key":"14523","name":"Vogtlandkreis","type":"Landkreis"},"federalState":{"key":"14","name":"Sachsen"}},{"name":"Schulgutweg","postalCode":"09392","locality":"Auerbach","municipality":{"key":"14521040","name":"Auerbach","type":"Kreisangehörige_Gemeinde"},"district":{"key":"14521","name":"Erzgebirgskreis","type":"Landkreis"},"federalState":{"key":"14","name":"Sachsen"}},{"name":"Schulstr.","postalCode":"08209","locality":"Auerbach/Vogtland","municipality":{"key":"14523020","name":"Auerbach/Vogtl., Stadt","type":"Stadt"},"district":{"key":"14523","name":"Vogtlandkreis","type":"Landkreis"},"federalState":{"key":"14","name":"Sachsen"}},{"name":"Schulstr.","postalCode":"09392","locality":"Auerbach","municipality":{"key":"14521040","name":"Auerbach","type":"Kreisangehörige_Gemeinde"},"district":{"key":"14521","name":"Erzgebirgskreis","type":"Landkreis"},"federalState":{"key":"14","name":"Sachsen"}},{"name":"Schulweg","postalCode":"08209","locality":"Auerbach/Vogtland","municipality":{"key":"14523020","name":"Auerbach/Vogtl., Stadt","type":"Stadt"},"district":{"key":"14523","name":"Vogtlandkreis","type":"Landkreis"},"federalState":{"key":"14","name":"Sachsen"}},{"name":"Schweinbachstr.","postalCode":"94530","locality":"Auerbach","municipality":{"key":"09271113","name":"Auerbach","type":"Kreisangehörige_Gemeinde"},"district":{"key":"09271","name":"Deggendorf","type":"Landkreis"},"federalState":{"key":"09","name":"Bayern"}},{"name":"Seltmannstr.","postalCode":"08209","locality":"Auerbach/Vogtland","municipality":{"key":"14523020","name":"Auerbach/Vogtl., Stadt","type":"Stadt"},"district":{"key":"14523","name":"Vogtlandkreis","type":"Landkreis"},"federalState":{"key":"14","name":"Sachsen"}},{"name":"Seminarstr.","postalCode":"08209","locality":"Auerbach/Vogtland","municipality":{"key":"14523020","name":"Auerbach/Vogtl., Stadt","type":"Stadt"},"district":{"key":"14523","name":"Vogtlandkreis","type":"Landkreis"},"federalState":{"key":"14","name":"Sachsen"}},{"name":"Siechenstr.","postalCode":"91275","locality":"Auerbach in der Oberpfalz","municipality":{"key":"09371113","name":"Auerbach i.d.OPf., St","type":"Stadt"},"district":{"key":"09371","name":"Amberg-Sulzbach","type":"Landkreis"},"federalState":{"key":"09","name":"Bayern"}},{"name":"Siedlerstr.","postalCode":"09392","locality":"Auerbach","municipality":{"key":"14521040","name":"Auerbach","type":"Kreisangehörige_Gemeinde"},"district":{"key":"14521","name":"Erzgebirgskreis","type":"Landkreis"},"federalState":{"key":"14","name":"Sachsen"}},{"name":"Siedlerstr.","postalCode":"91275","locality":"Auerbach in der Oberpfalz","municipality":{"key":"09371113","name":"Auerbach i.d.OPf., St","type":"Stadt"},"district":{"key":"09371","name":"Amberg-Sulzbach","type":"Landkreis"},"federalState":{"key":"09","name":"Bayern"}},{"name":"Siedlerweg","postalCode":"08209","locality":"Auerbach/Vogtland","municipality":{"key":"14523020","name":"Auerbach/Vogtl., Stadt","type":"Stadt"},"district":{"key":"14523","name":"Vogtlandkreis","type":"Landkreis"},"federalState":{"key":"14","name":"Sachsen"}},{"name":"Siedlung","postalCode":"08209","locality":"Auerbach/Vogtland","municipality":{"key":"14523020","name":"Auerbach/Vogtl., Stadt","type":"Stadt"},"district":{"key":"14523","name":"Vogtlandkreis","type":"Landkreis"},"federalState":{"key":"14","name":"Sachsen"}},{"name":"Siedlung der Jugend","postalCode":"09392","locality":"Auerbach","municipality":{"key":"14521040","name":"Auerbach","type":"Kreisangehörige_Gemeinde"},"district":{"key":"14521","name":"Erzgebirgskreis","type":"Landkreis"},"federalState":{"key":"14","name":"Sachsen"}},{"name":"Siedlungsstr.","postalCode":"08209","locality":"Auerbach/Vogtland","municipality":{"key":"14523020","name":"Auerbach/Vogtl., Stadt","type":"Stadt"},"district":{"key":"14523","name":"Vogtlandkreis","type":"Landkreis"},"federalState":{"key":"14","name":"Sachsen"}},{"name":"Siedlungsweg","postalCode":"94530","locality":"Auerbach","municipality":{"key":"09271113","name":"Auerbach","type":"Kreisangehörige_Gemeinde"},"district":{"key":"09271","name":"Deggendorf","type":"Landkreis"},"federalState":{"key":"09","name":"Bayern"}},{"name":"Siegelohplatz","postalCode":"08209","locality":"Auerbach/Vogtland","municipality":{"key":"14523020","name":"Auerbach/Vogtl., Stadt","type":"Stadt"},"district":{"key":"14523","name":"Vogtlandkreis","type":"Landkreis"},"federalState":{"key":"14","name":"Sachsen"}},{"name":"Silberbachweg","postalCode":"08209","locality":"Auerbach/Vogtland","municipality":{"key":"14523020","name":"Auerbach/Vogtl., Stadt","type":"Stadt"},"district":{"key":"14523","name":"Vogtlandkreis","type":"Landkreis"},"federalState":{"key":"14","name":"Sachsen"}},{"name":"Singer-Meisel-Str.","postalCode":"08209","locality":"Auerbach/Vogtland","municipality":{"key":"14523020","name":"Auerbach/Vogtl., Stadt","type":"Stadt"},"district":{"key":"14523","name":"Vogtlandkreis","type":"Landkreis"},"federalState":{"key":"14","name":"Sachsen"}},{"name":"Sonnebergweg","postalCode":"08209","locality":"Auerbach/Vogtland","municipality":{"key":"14523020","name":"Auerbach/Vogtl., Stadt","type":"Stadt"},"district":{"key":"14523","name":"Vogtlandkreis","type":"Landkreis"},"federalState":{"key":"14","name":"Sachsen"}},{"name":"Sonnenweg","postalCode":"08209","locality":"Auerbach/Vogtland","municipality":{"key":"14523020","name":"Auerbach/Vogtl., Stadt","type":"Stadt"},"district":{"key":"14523","name":"Vogtlandkreis","type":"Landkreis"},"federalState":{"key":"14","name":"Sachsen"}},{"name":"Sorgaer Str.","postalCode":"08209","locality":"Auerbach/Vogtland","municipality":{"key":"14523020","name":"Auerbach/Vogtl., Stadt","type":"Stadt"},"district":{"key":"14523","name":"Vogtlandkreis","type":"Landkreis"},"federalState":{"key":"14","name":"Sachsen"}},{"name":"Spartakusstr.","postalCode":"08209","locality":"Auerbach/Vogtland","municipality":{"key":"14523020","name":"Auerbach/Vogtl., Stadt","type":"Stadt"},"district":{"key":"14523","name":"Vogtlandkreis","type":"Landkreis"},"federalState":{"key":"14","name":"Sachsen"}},{"name":"Speckbachweg","postalCode":"91275","locality":"Auerbach in der Oberpfalz","municipality":{"key":"09371113","name":"Auerbach i.d.OPf., St","type":"Stadt"},"district":{"key":"09371","name":"Amberg-Sulzbach","type":"Landkreis"},"federalState":{"key":"09","name":"Bayern"}},{"name":"Spitalweg","postalCode":"08209","locality":"Auerbach/Vogtland","municipality":{"key":"14523020","name":"Auerbach/Vogtl., Stadt","type":"Stadt"},"district":{"key":"14523","name":"Vogtlandkreis","type":"Landkreis"},"federalState":{"key":"14","name":"Sachsen"}},{"name":"Talstr.","postalCode":"08209","locality":"Auerbach/Vogtland","municipality":{"key":"14523020","name":"Auerbach/Vogtl., Stadt","type":"Stadt"},"district":{"key":"14523","name":"Vogtlandkreis","type":"Landkreis"},"federalState":{"key":"14","name":"Sachsen"}},{"name":"Talweg","postalCode":"08209","locality":"Auerbach/Vogtland","municipality":{"key":"14523020","name":"Auerbach/Vogtl., Stadt","type":"Stadt"},"district":{"key":"14523","name":"Vogtlandkreis","type":"Landkreis"},"federalState":{"key":"14","name":"Sachsen"}},{"name":"Tannenbergsthaler Weg","postalCode":"08209","locality":"Auerbach/Vogtland","municipality":{"key":"14523020","name":"Auerbach/Vogtl., Stadt","type":"Stadt"},"district":{"key":"14523","name":"Vogtlandkreis","type":"Landkreis"},"federalState":{"key":"14","name":"Sachsen"}},{"name":"Tannenweg","postalCode":"08209","locality":"Auerbach/Vogtland","municipality":{"key":"14523020","name":"Auerbach/Vogtl., Stadt","type":"Stadt"},"district":{"key":"14523","name":"Vogtlandkreis","type":"Landkreis"},"federalState":{"key":"14","name":"Sachsen"}},{"name":"Teichdamm","postalCode":"08209","locality":"Auerbach/Vogtland","municipality":{"key":"14523020","name":"Auerbach/Vogtl., Stadt","type":"Stadt"},"district":{"key":"14523","name":"Vogtlandkreis","type":"Landkreis"},"federalState":{"key":"14","name":"Sachsen"}},{"name":"Teichweg","postalCode":"08209","locality":"Auerbach/Vogtland","municipality":{"key":"14523020","name":"Auerbach/Vogtl., Stadt","type":"Stadt"},"district":{"key":"14523","name":"Vogtlandkreis","type":"Landkreis"},"federalState":{"key":"14","name":"Sachsen"}},{"name":"Thomas-Müntzer-Str.","postalCode":"08209","locality":"Auerbach/Vogtland","municipality":{"key":"14523020","name":"Auerbach/Vogtl., Stadt","type":"Stadt"},"district":{"key":"14523","name":"Vogtlandkreis","type":"Landkreis"},"federalState":{"key":"14","name":"Sachsen"}},{"name":"Thrändorfweg","postalCode":"08209","locality":"Auerbach/Vogtland","municipality":{"key":"14523020","name":"Auerbach/Vogtl., Stadt","type":"Stadt"},"district":{"key":"14523","name":"Vogtlandkreis","type":"Landkreis"},"federalState":{"key":"14","name":"Sachsen"}},{"name":"Thumer Str.","postalCode":"09392","locality":"Auerbach","municipality":{"key":"14521040","name":"Auerbach","type":"Kreisangehörige_Gemeinde"},"district":{"key":"14521","name":"Erzgebirgskreis","type":"Landkreis"},"federalState":{"key":"14","name":"Sachsen"}},{"name":"Tischelweg","postalCode":"09392","locality":"Auerbach","municipality":{"key":"14521040","name":"Auerbach","type":"Kreisangehörige_Gemeinde"},"district":{"key":"14521","name":"Erzgebirgskreis","type":"Landkreis"},"federalState":{"key":"14","name":"Sachsen"}},{"name":"Torgasse","postalCode":"91275","locality":"Auerbach in der Oberpfalz","municipality":{"key":"09371113","name":"Auerbach i.d.OPf., St","type":"Stadt"},"district":{"key":"09371","name":"Amberg-Sulzbach","type":"Landkreis"},"federalState":{"key":"09","name":"Bayern"}},{"name":"Treppe Moltke-Brücke","postalCode":"08209","locality":"Auerbach/Vogtland","municipality":{"key":"14523020","name":"Auerbach/Vogtl., Stadt","type":"Stadt"},"district":{"key":"14523","name":"Vogtlandkreis","type":"Landkreis"},"federalState":{"key":"14","name":"Sachsen"}},{"name":"Treuener Str.","postalCode":"08209","locality":"Auerbach/Vogtland","municipality":{"key":"14523020","name":"Auerbach/Vogtl., Stadt","type":"Stadt"},"district":{"key":"14523","name":"Vogtlandkreis","type":"Landkreis"},"federalState":{"key":"14","name":"Sachsen"}},{"name":"Tulpenweg","postalCode":"08209","locality":"Auerbach/Vogtland","municipality":{"key":"14523020","name":"Auerbach/Vogtl., Stadt","type":"Stadt"},"district":{"key":"14523","name":"Vogtlandkreis","type":"Landkreis"},"federalState":{"key":"14","name":"Sachsen"}},{"name":"Turnerweg","postalCode":"09392","locality":"Auerbach","municipality":{"key":"14521040","name":"Auerbach","type":"Kreisangehörige_Gemeinde"},"district":{"key":"14521","name":"Erzgebirgskreis","type":"Landkreis"},"federalState":{"key":"14","name":"Sachsen"}},{"name":"Uferstr.","postalCode":"91275","locality":"Auerbach in der Oberpfalz","municipality":{"key":"09371113","name":"Auerbach i.d.OPf., St","type":"Stadt"},"district":{"key":"09371","name":"Amberg-Sulzbach","type":"Landkreis"},"federalState":{"key":"09","name":"Bayern"}},{"name":"Untere Bergstr.","postalCode":"91275","locality":"Auerbach in der Oberpfalz","municipality":{"key":"09371113","name":"Auerbach i.d.OPf., St","type":"Stadt"},"district":{"key":"09371","name":"Amberg-Sulzbach","type":"Landkreis"},"federalState":{"key":"09","name":"Bayern"}},{"name":"Unterer Markt","postalCode":"91275","locality":"Auerbach in der Oberpfalz","municipality":{"key":"09371113","name":"Auerbach i.d.OPf., St","type":"Stadt"},"district":{"key":"09371","name":"Amberg-Sulzbach","type":"Landkreis"},"federalState":{"key":"09","name":"Bayern"}},{"name":"Urbachstr.","postalCode":"94530","locality":"Auerbach","municipality":{"key":"09271113","name":"Auerbach","type":"Kreisangehörige_Gemeinde"},"district":{"key":"09271","name":"Deggendorf","type":"Landkreis"},"federalState":{"key":"09","name":"Bayern"}},{"name":"Veldensteiner Forstweg","postalCode":"91275","locality":"Auerbach in der Oberpfalz","municipality":{"key":"09371113","name":"Auerbach i.d.OPf., St","type":"Stadt"},"district":{"key":"09371","name":"Amberg-Sulzbach","type":"Landkreis"},"federalState":{"key":"09","name":"Bayern"}},{"name":"Verlängerte Goethestr.","postalCode":"08209","locality":"Auerbach/Vogtland","municipality":{"key":"14523020","name":"Auerbach/Vogtl., Stadt","type":"Stadt"},"district":{"key":"14523","name":"Vogtlandkreis","type":"Landkreis"},"federalState":{"key":"14","name":"Sachsen"}},{"name":"Verlängerte Jahnstr.","postalCode":"08209","locality":"Auerbach/Vogtland","municipality":{"key":"14523020","name":"Auerbach/Vogtl., Stadt","type":"Stadt"},"district":{"key":"14523","name":"Vogtlandkreis","type":"Landkreis"},"federalState":{"key":"14","name":"Sachsen"}},{"name":"Vogelsgrüner Str.","postalCode":"08209","locality":"Auerbach/Vogtland","municipality":{"key":"14523020","name":"Auerbach/Vogtl., Stadt","type":"Stadt"},"district":{"key":"14523","name":"Vogtlandkreis","type":"Landkreis"},"federalState":{"key":"14","name":"Sachsen"}},{"name":"Vogtlandblick","postalCode":"08209","locality":"Auerbach/Vogtland","municipality":{"key":"14523020","name":"Auerbach/Vogtl., Stadt","type":"Stadt"},"district":{"key":"14523","name":"Vogtlandkreis","type":"Landkreis"},"federalState":{"key":"14","name":"Sachsen"}},{"name":"Volkmarstr.","postalCode":"08209","locality":"Auerbach/Vogtland","municipality":{"key":"14523020","name":"Auerbach/Vogtl., Stadt","type":"Stadt"},"district":{"key":"14523","name":"Vogtlandkreis","type":"Landkreis"},"federalState":{"key":"14","name":"Sachsen"}},{"name":"Vom-Endt-Str.","postalCode":"91275","locality":"Auerbach in der Oberpfalz","municipality":{"key":"09371113","name":"Auerbach i.d.OPf., St","type":"Stadt"},"district":{"key":"09371","name":"Amberg-Sulzbach","type":"Landkreis"},"federalState":{"key":"09","name":"Bayern"}},{"name":"Von-Ketteler-Str.","postalCode":"91275","locality":"Auerbach in der Oberpfalz","municipality":{"key":"09371113","name":"Auerbach i.d.OPf., St","type":"Stadt"},"district":{"key":"09371","name":"Amberg-Sulzbach","type":"Landkreis"},"federalState":{"key":"09","name":"Bayern"}},{"name":"Von-Schenkl-Str.","postalCode":"91275","locality":"Auerbach in der Oberpfalz","municipality":{"key":"09371113","name":"Auerbach i.d.OPf., St","type":"Stadt"},"district":{"key":"09371","name":"Amberg-Sulzbach","type":"Landkreis"},"federalState":{"key":"09","name":"Bayern"}},{"name":"Waldhofstr.","postalCode":"08209","locality":"Auerbach/Vogtland","municipality":{"key":"14523020","name":"Auerbach/Vogtl., Stadt","type":"Stadt"},"district":{"key":"14523","name":"Vogtlandkreis","type":"Landkreis"},"federalState":{"key":"14","name":"Sachsen"}},{"name":"Waldstr.","postalCode":"08209","locality":"Auerbach/Vogtland","municipality":{"key":"14523020","name":"Auerbach/Vogtl., Stadt","type":"Stadt"},"district":{"key":"14523","name":"Vogtlandkreis","type":"Landkreis"},"federalState":{"key":"14","name":"Sachsen"}},{"name":"Waldstr.","postalCode":"91275","locality":"Auerbach in der Oberpfalz","municipality":{"key":"09371113","name":"Auerbach i.d.OPf., St","type":"Stadt"},"district":{"key":"09371","name":"Amberg-Sulzbach","type":"Landkreis"},"federalState":{"key":"09","name":"Bayern"}},{"name":"Waldweg","postalCode":"08209","locality":"Auerbach/Vogtland","municipality":{"key":"14523020","name":"Auerbach/Vogtl., Stadt","type":"Stadt"},"district":{"key":"14523","name":"Vogtlandkreis","type":"Landkreis"},"federalState":{"key":"14","name":"Sachsen"}},{"name":"Waldweg","postalCode":"09392","locality":"Auerbach","municipality":{"key":"14521040","name":"Auerbach","type":"Kreisangehörige_Gemeinde"},"district":{"key":"14521","name":"Erzgebirgskreis","type":"Landkreis"},"federalState":{"key":"14","name":"Sachsen"}},{"name":"Weiberteichweg","postalCode":"08209","locality":"Auerbach/Vogtland","municipality":{"key":"14523020","name":"Auerbach/Vogtl., Stadt","type":"Stadt"},"district":{"key":"14523","name":"Vogtlandkreis","type":"Landkreis"},"federalState":{"key":"14","name":"Sachsen"}},{"name":"Weihbergweg","postalCode":"08209","locality":"Auerbach/Vogtland","municipality":{"key":"14523020","name":"Auerbach/Vogtl., Stadt","type":"Stadt"},"district":{"key":"14523","name":"Vogtlandkreis","type":"Landkreis"},"federalState":{"key":"14","name":"Sachsen"}},{"name":"Weiherstr.","postalCode":"91275","locality":"Auerbach in der Oberpfalz","municipality":{"key":"09371113","name":"Auerbach i.d.OPf., St","type":"Stadt"},"district":{"key":"09371","name":"Amberg-Sulzbach","type":"Landkreis"},"federalState":{"key":"09","name":"Bayern"}},{"name":"Welluck","postalCode":"91275","locality":"Auerbach in der Oberpfalz","municipality":{"key":"09371113","name":"Auerbach i.d.OPf., St","type":"Stadt"},"district":{"key":"09371","name":"Amberg-Sulzbach","type":"Landkreis"},"federalState":{"key":"09","name":"Bayern"}},{"name":"Wellucker Str.","postalCode":"91275","locality":"Auerbach in der Oberpfalz","municipality":{"key":"09371113","name":"Auerbach i.d.OPf., St","type":"Stadt"},"district":{"key":"09371","name":"Amberg-Sulzbach","type":"Landkreis"},"federalState":{"key":"09","name":"Bayern"}},{"name":"Werkstr.","postalCode":"08209","locality":"Auerbach/Vogtland","municipality":{"key":"14523020","name":"Auerbach/Vogtl., Stadt","type":"Stadt"},"district":{"key":"14523","name":"Vogtlandkreis","type":"Landkreis"},"federalState":{"key":"14","name":"Sachsen"}},{"name":"Werner-Seelenbinder-Str.","postalCode":"09392","locality":"Auerbach","municipality":{"key":"14521040","name":"Auerbach","type":"Kreisangehörige_Gemeinde"},"district":{"key":"14521","name":"Erzgebirgskreis","type":"Landkreis"},"federalState":{"key":"14","name":"Sachsen"}},{"name":"Weststr.","postalCode":"08209","locality":"Auerbach/Vogtland","municipality":{"key":"14523020","name":"Auerbach/Vogtl., Stadt","type":"Stadt"},"district":{"key":"14523","name":"Vogtlandkreis","type":"Landkreis"},"federalState":{"key":"14","name":"Sachsen"}},{"name":"Wiesenstr.","postalCode":"08209","locality":"Auerbach/Vogtland","municipality":{"key":"14523020","name":"Auerbach/Vogtl., Stadt","type":"Stadt"},"district":{"key":"14523","name":"Vogtlandkreis","type":"Landkreis"},"federalState":{"key":"14","name":"Sachsen"}},{"name":"Wiesenstr.","postalCode":"09392","locality":"Auerbach","municipality":{"key":"14521040","name":"Auerbach","type":"Kreisangehörige_Gemeinde"},"district":{"key":"14521","name":"Erzgebirgskreis","type":"Landkreis"},"federalState":{"key":"14","name":"Sachsen"}},{"name":"Wiesenstr.","postalCode":"91275","locality":"Auerbach in der Oberpfalz","municipality":{"key":"09371113","name":"Auerbach i.d.OPf., St","type":"Stadt"},"district":{"key":"09371","name":"Amberg-Sulzbach","type":"Landkreis"},"federalState":{"key":"09","name":"Bayern"}},{"name":"Wiesenweg","postalCode":"08209","locality":"Auerbach/Vogtland","municipality":{"key":"14523020","name":"Auerbach/Vogtl., Stadt","type":"Stadt"},"district":{"key":"14523","name":"Vogtlandkreis","type":"Landkreis"},"federalState":{"key":"14","name":"Sachsen"}},{"name":"Wiesenweg","postalCode":"94530","locality":"Auerbach","municipality":{"key":"09271113","name":"Auerbach","type":"Kreisangehörige_Gemeinde"},"district":{"key":"09271","name":"Deggendorf","type":"Landkreis"},"federalState":{"key":"09","name":"Bayern"}},{"name":"Willy-Brandt-Str.","postalCode":"08209","locality":"Auerbach/Vogtland","municipality":{"key":"14523020","name":"Auerbach/Vogtl., Stadt","type":"Stadt"},"district":{"key":"14523","name":"Vogtlandkreis","type":"Landkreis"},"federalState":{"key":"14","name":"Sachsen"}},{"name":"Wirkerstr.","postalCode":"09392","locality":"Auerbach","municipality":{"key":"14521040","name":"Auerbach","type":"Kreisangehörige_Gemeinde"},"district":{"key":"14521","name":"Erzgebirgskreis","type":"Landkreis"},"federalState":{"key":"14","name":"Sachsen"}},{"name":"Xaver-Simmet-Str.","postalCode":"94530","locality":"Auerbach","municipality":{"key":"09271113","name":"Auerbach","type":"Kreisangehörige_Gemeinde"},"district":{"key":"09271","name":"Deggendorf","type":"Landkreis"},"federalState":{"key":"09","name":"Bayern"}},{"name":"Zechenweg","postalCode":"09392","locality":"Auerbach","municipality":{"key":"14521040","name":"Auerbach","type":"Kreisangehörige_Gemeinde"},"district":{"key":"14521","name":"Erzgebirgskreis","type":"Landkreis"},"federalState":{"key":"14","name":"Sachsen"}},{"name":"Zeißigweg","postalCode":"08209","locality":"Auerbach/Vogtland","municipality":{"key":"14523020","name":"Auerbach/Vogtl., Stadt","type":"Stadt"},"district":{"key":"14523","name":"Vogtlandkreis","type":"Landkreis"},"federalState":{"key":"14","name":"Sachsen"}},{"name":"Zeppelinstr.","postalCode":"08209","locality":"Auerbach/Vogtland","municipality":{"key":"14523020","name":"Auerbach/Vogtl., Stadt","type":"Stadt"},"district":{"key":"14523","name":"Vogtlandkreis","type":"Landkreis"},"federalState":{"key":"14","name":"Sachsen"}},{"name":"Ziegeleiweg","postalCode":"08209","locality":"Auerbach/Vogtland","municipality":{"key":"14523020","name":"Auerbach/Vogtl., Stadt","type":"Stadt"},"district":{"key":"14523","name":"Vogtlandkreis","type":"Landkreis"},"federalState":{"key":"14","name":"Sachsen"}},{"name":"Zillestr.","postalCode":"08209","locality":"Auerbach/Vogtland","municipality":{"key":"14523020","name":"Auerbach/Vogtl., Stadt","type":"Stadt"},"district":{"key":"14523","name":"Vogtlandkreis","type":"Landkreis"},"federalState":{"key":"14","name":"Sachsen"}},{"name":"Zinsbachweg","postalCode":"08209","locality":"Auerbach/Vogtland","municipality":{"key":"14523020","name":"Auerbach/Vogtl., Stadt","type":"Stadt"},"district":{"key":"14523","name":"Vogtlandkreis","type":"Landkreis"},"federalState":{"key":"14","name":"Sachsen"}},{"name":"Zum Pinzigberg","postalCode":"91275","locality":"Auerbach in der Oberpfalz","municipality":{"key":"09371113","name":"Auerbach i.d.OPf., St","type":"Stadt"},"district":{"key":"09371","name":"Amberg-Sulzbach","type":"Landkreis"},"federalState":{"key":"09","name":"Bayern"}},{"name":"Zum Schafsteg","postalCode":"91275","locality":"Auerbach in der Oberpfalz","municipality":{"key":"09371113","name":"Auerbach i.d.OPf., St","type":"Stadt"},"district":{"key":"09371","name":"Amberg-Sulzbach","type":"Landkreis"},"federalState":{"key":"09","name":"Bayern"}},{"name":"Zum Waldhaus","postalCode":"08209","locality":"Auerbach/Vogtland","municipality":{"key":"14523020","name":"Auerbach/Vogtl., Stadt","type":"Stadt"},"district":{"key":"14523","name":"Vogtlandkreis","type":"Landkreis"},"federalState":{"key":"14","name":"Sachsen"}},{"name":"Zur Fichtzig","postalCode":"08209","locality":"Auerbach/Vogtland","municipality":{"key":"14523020","name":"Auerbach/Vogtl., Stadt","type":"Stadt"},"district":{"key":"14523","name":"Vogtlandkreis","type":"Landkreis"},"federalState":{"key":"14","name":"Sachsen"}},{"name":"Zur Quelle","postalCode":"08209","locality":"Auerbach/Vogtland","municipality":{"key":"14523020","name":"Auerbach/Vogtl., Stadt","type":"Stadt"},"district":{"key":"14523","name":"Vogtlandkreis","type":"Landkreis"},"federalState":{"key":"14","name":"Sachsen"}},{"name":"Zur Töpferei","postalCode":"08209","locality":"Auerbach/Vogtland","municipality":{"key":"14523020","name":"Auerbach/Vogtl., Stadt","type":"Stadt"},"district":{"key":"14523","name":"Vogtlandkreis","type":"Landkreis"},"federalState":{"key":"14","name":"Sachsen"}},{"name":"Zwingergasse","postalCode":"91275","locality":"Auerbach in der Oberpfalz","municipality":{"key":"09371113","name":"Auerbach i.d.OPf., St","type":"Stadt"},"district":{"key":"09371","name":"Amberg-Sulzbach","type":"Landkreis"},"federalState":{"key":"09","name":"Bayern"}},{"name":"Ölschlagweg","postalCode":"94469","locality":"Deggendorf","municipality":{"key":"09271119","name":"Deggendorf, GKSt","type":"Große_Kreisstadt"},"district":{"key":"09271","name":"Deggendorf","type":"Landkreis"},"federalState":{"key":"09","name":"Bayern"}},{"name":"Östlicher Stadtgraben","postalCode":"94469","locality":"Deggendorf","municipality":{"key":"09271119","name":"Deggendorf, GKSt","type":"Große_Kreisstadt"},"district":{"key":"09271","name":"Deggendorf","type":"Landkreis"},"federalState":{"key":"09","name":"Bayern"}},{"name":"Östliche Zwingergasse","postalCode":"94469","locality":"Deggendorf","municipality":{"key":"09271119","name":"Deggendorf, GKSt","type":"Große_Kreisstadt"},"district":{"key":"09271","name":"Deggendorf","type":"Landkreis"},"federalState":{"key":"09","name":"Bayern"}},]