[{"name":"Adalbert-Stifter-Str.","postalCode":"85716","locality":"Unterschleißheim","municipality":{"key":"09184149","name":"Unterschleißheim, St","type":"Stadt"},"district":{"key":"09184","name":"München","type":"Landkreis"},"federalState":{"key":"09","name":"Bayern"}},{"name":"Ahornstr.","postalCode":"85716","locality":"Unterschleißheim","municipality":{"key":"09184149","name":"Unterschleißheim, St","type":"Stadt"},"district":{"key":"09184","name":"München","type":"Landkreis"},"federalState":{"key":"09","name":"Bayern"}},{"name":"Alexander-Pachmann-Str.","postalCode":"85716","locality":"Unterschleißheim","municipality":{"key":"09184149","name":"Unterschleißheim, St","type":"Stadt"},"district":{"key":"09184","name":"München","type":"Landkreis"},"federalState":{"key":"09","name":"Bayern"}},{"name":"Alfred-Nobel-Str.","postalCode":"85716","locality":"Unterschleißheim","municipality":{"key":"09184149","name":"Unterschleißheim, St","type":"Stadt"},"district":{"key":"09184","name":"München","type":"Landkreis"},"federalState":{"key":"09","name":"Bayern"}},{"name":"Alleestr.","postalCode":"85716","locality":"Unterschleißheim","municipality":{"key":"09184149","name":"Unterschleißheim, St","type":"Stadt"},"district":{"key":"09184","name":"München","type":"Landkreis"},"federalState":{"key":"09","name":"Bayern"}},{"name":"Alte Hauptstr.","postalCode":"85716","locality":"Unterschleißheim","municipality":{"key":"09184149","name":"Unterschleißheim, St","type":"Stadt"},"district":{"key":"09184","name":"München","type":"Landkreis"},"federalState":{"key":"09","name":"Bayern"}},{"name":"Am Klösterlmoos","postalCode":"85716","locality":"Unterschleißheim","municipality":{"key":"09184149","name":"Unterschleißheim, St","type":"Stadt"},"district":{"key":"09184","name":"München","type":"Landkreis"},"federalState":{"key":"09","name":"Bayern"}},{"name":"Am Park","postalCode":"85716","locality":"Unterschleißheim","municipality":{"key":"09184149","name":"Unterschleißheim, St","type":"Stadt"},"district":{"key":"09184","name":"München","type":"Landkreis"},"federalState":{"key":"09","name":"Bayern"}},{"name":"Amselweg","postalCode":"85716","locality":"Unterschleißheim","municipality":{"key":"09184149","name":"Unterschleißheim, St","type":"Stadt"},"district":{"key":"09184","name":"München","type":"Landkreis"},"federalState":{"key":"09","name":"Bayern"}},{"name":"Am Weiher","postalCode":"85716","locality":"Unterschleißheim","municipality":{"key":"09184149","name":"Unterschleißheim, St","type":"Stadt"},"district":{"key":"09184","name":"München","type":"Landkreis"},"federalState":{"key":"09","name":"Bayern"}},{"name":"An der Burg","postalCode":"85716","locality":"Unterschleißheim","municipality":{"key":"09184149","name":"Unterschleißheim, St","type":"Stadt"},"district":{"key":"09184","name":"München","type":"Landkreis"},"federalState":{"key":"09","name":"Bayern"}},{"name":"An der Mühle","postalCode":"85716","locality":"Unterschleißheim","municipality":{"key":"09184149","name":"Unterschleißheim, St","type":"Stadt"},"district":{"key":"09184","name":"München","type":"Landkreis"},"federalState":{"key":"09","name":"Bayern"}},{"name":"An der Schmiede","postalCode":"85716","locality":"Unterschleißheim","municipality":{"key":"09184149","name":"Unterschleißheim, St","type":"Stadt"},"district":{"key":"09184","name":"München","type":"Landkreis"},"federalState":{"key":"09","name":"Bayern"}},{"name":"Andreas-Danzer-Weg","postalCode":"85716","locality":"Unterschleißheim","municipality":{"key":"09184149","name":"Unterschleißheim, St","type":"Stadt"},"district":{"key":"09184","name":"München","type":"Landkreis"},"federalState":{"key":"09","name":"Bayern"}},{"name":"Anemonenweg","postalCode":"85716","locality":"Unterschleißheim","municipality":{"key":"09184149","name":"Unterschleißheim, St","type":"Stadt"},"district":{"key":"09184","name":"München","type":"Landkreis"},"federalState":{"key":"09","name":"Bayern"}},{"name":"August-Engelen-Str.","postalCode":"85716","locality":"Unterschleißheim","municipality":{"key":"09184149","name":"Unterschleißheim, St","type":"Stadt"},"district":{"key":"09184","name":"München","type":"Landkreis"},"federalState":{"key":"09","name":"Bayern"}},{"name":"Badersfelder Str.","postalCode":"85716","locality":"Unterschleißheim","municipality":{"key":"09184149","name":"Unterschleißheim, St","type":"Stadt"},"district":{"key":"09184","name":"München","type":"Landkreis"},"federalState":{"key":"09","name":"Bayern"}},{"name":"Bahnstr.","postalCode":"85716","locality":"Unterschleißheim","municipality":{"key":"09184149","name":"Unterschleißheim, St","type":"Stadt"},"district":{"key":"09184","name":"München","type":"Landkreis"},"federalState":{"key":"09","name":"Bayern"}},{"name":"Baron-von-Kotz-Str.","postalCode":"85716","locality":"Unterschleißheim","municipality":{"key":"09184149","name":"Unterschleißheim, St","type":"Stadt"},"district":{"key":"09184","name":"München","type":"Landkreis"},"federalState":{"key":"09","name":"Bayern"}},{"name":"Beim Pfarracker","postalCode":"85716","locality":"Unterschleißheim","municipality":{"key":"09184149","name":"Unterschleißheim, St","type":"Stadt"},"district":{"key":"09184","name":"München","type":"Landkreis"},"federalState":{"key":"09","name":"Bayern"}},{"name":"Berglstr.","postalCode":"85716","locality":"Unterschleißheim","municipality":{"key":"09184149","name":"Unterschleißheim, St","type":"Stadt"},"district":{"key":"09184","name":"München","type":"Landkreis"},"federalState":{"key":"09","name":"Bayern"}},{"name":"Bertha-von-Suttner-Str.","postalCode":"85716","locality":"Unterschleißheim","municipality":{"key":"09184149","name":"Unterschleißheim, St","type":"Stadt"},"district":{"key":"09184","name":"München","type":"Landkreis"},"federalState":{"key":"09","name":"Bayern"}},{"name":"Bezirksstr.","postalCode":"85716","locality":"Unterschleißheim","municipality":{"key":"09184149","name":"Unterschleißheim, St","type":"Stadt"},"district":{"key":"09184","name":"München","type":"Landkreis"},"federalState":{"key":"09","name":"Bayern"}},{"name":"Birkenstr.","postalCode":"85716","locality":"Unterschleißheim","municipality":{"key":"09184149","name":"Unterschleißheim, St","type":"Stadt"},"district":{"key":"09184","name":"München","type":"Landkreis"},"federalState":{"key":"09","name":"Bayern"}},{"name":"Birkhahnstr.","postalCode":"85716","locality":"Unterschleißheim","municipality":{"key":"09184149","name":"Unterschleißheim, St","type":"Stadt"},"district":{"key":"09184","name":"München","type":"Landkreis"},"federalState":{"key":"09","name":"Bayern"}},{"name":"Buchenstr.","postalCode":"85716","locality":"Unterschleißheim","municipality":{"key":"09184149","name":"Unterschleißheim, St","type":"Stadt"},"district":{"key":"09184","name":"München","type":"Landkreis"},"federalState":{"key":"09","name":"Bayern"}},{"name":"Buchfinkenweg","postalCode":"85716","locality":"Unterschleißheim","municipality":{"key":"09184149","name":"Unterschleißheim, St","type":"Stadt"},"district":{"key":"09184","name":"München","type":"Landkreis"},"federalState":{"key":"09","name":"Bayern"}},{"name":"Bussardstr.","postalCode":"85716","locality":"Unterschleißheim","municipality":{"key":"09184149","name":"Unterschleißheim, St","type":"Stadt"},"district":{"key":"09184","name":"München","type":"Landkreis"},"federalState":{"key":"09","name":"Bayern"}},{"name":"Carl-Meuth-Str.","postalCode":"85716","locality":"Unterschleißheim","municipality":{"key":"09184149","name":"Unterschleißheim, St","type":"Stadt"},"district":{"key":"09184","name":"München","type":"Landkreis"},"federalState":{"key":"09","name":"Bayern"}},{"name":"Carl-von-Linde-Str.","postalCode":"85716","locality":"Unterschleißheim","municipality":{"key":"09184149","name":"Unterschleißheim, St","type":"Stadt"},"district":{"key":"09184","name":"München","type":"Landkreis"},"federalState":{"key":"09","name":"Bayern"}},{"name":"Dieselstr.","postalCode":"85716","locality":"Unterschleißheim","municipality":{"key":"09184149","name":"Unterschleißheim, St","type":"Stadt"},"district":{"key":"09184","name":"München","type":"Landkreis"},"federalState":{"key":"09","name":"Bayern"}},{"name":"Dietersheimer Str.","postalCode":"85716","locality":"Unterschleißheim","municipality":{"key":"09184149","name":"Unterschleißheim, St","type":"Stadt"},"district":{"key":"09184","name":"München","type":"Landkreis"},"federalState":{"key":"09","name":"Bayern"}},{"name":"Echinger Str.","postalCode":"85716","locality":"Unterschleißheim","municipality":{"key":"09184149","name":"Unterschleißheim, St","type":"Stadt"},"district":{"key":"09184","name":"München","type":"Landkreis"},"federalState":{"key":"09","name":"Bayern"}},{"name":"Edith-Stein-Str.","postalCode":"85716","locality":"Unterschleißheim","municipality":{"key":"09184149","name":"Unterschleißheim, St","type":"Stadt"},"district":{"key":"09184","name":"München","type":"Landkreis"},"federalState":{"key":"09","name":"Bayern"}},{"name":"Eichenstr.","postalCode":"85716","locality":"Unterschleißheim","municipality":{"key":"09184149","name":"Unterschleißheim, St","type":"Stadt"},"district":{"key":"09184","name":"München","type":"Landkreis"},"federalState":{"key":"09","name":"Bayern"}},{"name":"Elisabethstr.","postalCode":"85716","locality":"Unterschleißheim","municipality":{"key":"09184149","name":"Unterschleißheim, St","type":"Stadt"},"district":{"key":"09184","name":"München","type":"Landkreis"},"federalState":{"key":"09","name":"Bayern"}},{"name":"Emmy-Noether-Ring","postalCode":"85716","locality":"Unterschleißheim","municipality":{"key":"09184149","name":"Unterschleißheim, St","type":"Stadt"},"district":{"key":"09184","name":"München","type":"Landkreis"},"federalState":{"key":"09","name":"Bayern"}},{"name":"Eschenstr.","postalCode":"85716","locality":"Unterschleißheim","municipality":{"key":"09184149","name":"Unterschleißheim, St","type":"Stadt"},"district":{"key":"09184","name":"München","type":"Landkreis"},"federalState":{"key":"09","name":"Bayern"}},{"name":"Falkenstr.","postalCode":"85716","locality":"Unterschleißheim","municipality":{"key":"09184149","name":"Unterschleißheim, St","type":"Stadt"},"district":{"key":"09184","name":"München","type":"Landkreis"},"federalState":{"key":"09","name":"Bayern"}},{"name":"Fasanenweg","postalCode":"85716","locality":"Unterschleißheim","municipality":{"key":"09184149","name":"Unterschleißheim, St","type":"Stadt"},"district":{"key":"09184","name":"München","type":"Landkreis"},"federalState":{"key":"09","name":"Bayern"}},{"name":"Fastlingerring","postalCode":"85716","locality":"Unterschleißheim","municipality":{"key":"09184149","name":"Unterschleißheim, St","type":"Stadt"},"district":{"key":"09184","name":"München","type":"Landkreis"},"federalState":{"key":"09","name":"Bayern"}},{"name":"Feldstr.","postalCode":"85716","locality":"Unterschleißheim","municipality":{"key":"09184149","name":"Unterschleißheim, St","type":"Stadt"},"district":{"key":"09184","name":"München","type":"Landkreis"},"federalState":{"key":"09","name":"Bayern"}},{"name":"Fichtenstr.","postalCode":"85716","locality":"Unterschleißheim","municipality":{"key":"09184149","name":"Unterschleißheim, St","type":"Stadt"},"district":{"key":"09184","name":"München","type":"Landkreis"},"federalState":{"key":"09","name":"Bayern"}},{"name":"Finkenweg","postalCode":"85716","locality":"Unterschleißheim","municipality":{"key":"09184149","name":"Unterschleißheim, St","type":"Stadt"},"district":{"key":"09184","name":"München","type":"Landkreis"},"federalState":{"key":"09","name":"Bayern"}},{"name":"Fliederweg","postalCode":"85716","locality":"Unterschleißheim","municipality":{"key":"09184149","name":"Unterschleißheim, St","type":"Stadt"},"district":{"key":"09184","name":"München","type":"Landkreis"},"federalState":{"key":"09","name":"Bayern"}},{"name":"Föhrenstr.","postalCode":"85716","locality":"Unterschleißheim","municipality":{"key":"09184149","name":"Unterschleißheim, St","type":"Stadt"},"district":{"key":"09184","name":"München","type":"Landkreis"},"federalState":{"key":"09","name":"Bayern"}},{"name":"Franz-Lehner-Str.","postalCode":"85716","locality":"Unterschleißheim","municipality":{"key":"09184149","name":"Unterschleißheim, St","type":"Stadt"},"district":{"key":"09184","name":"München","type":"Landkreis"},"federalState":{"key":"09","name":"Bayern"}},{"name":"Freimanner Str.","postalCode":"85716","locality":"Unterschleißheim","municipality":{"key":"09184149","name":"Unterschleißheim, St","type":"Stadt"},"district":{"key":"09184","name":"München","type":"Landkreis"},"federalState":{"key":"09","name":"Bayern"}},{"name":"Friedhofstr.","postalCode":"85716","locality":"Unterschleißheim","municipality":{"key":"09184149","name":"Unterschleißheim, St","type":"Stadt"},"district":{"key":"09184","name":"München","type":"Landkreis"},"federalState":{"key":"09","name":"Bayern"}},{"name":"Friedrich-Kanzler-Str.","postalCode":"85716","locality":"Unterschleißheim","municipality":{"key":"09184149","name":"Unterschleißheim, St","type":"Stadt"},"district":{"key":"09184","name":"München","type":"Landkreis"},"federalState":{"key":"09","name":"Bayern"}},{"name":"Fritz-Lochmann-Str.","postalCode":"85716","locality":"Unterschleißheim","municipality":{"key":"09184149","name":"Unterschleißheim, St","type":"Stadt"},"district":{"key":"09184","name":"München","type":"Landkreis"},"federalState":{"key":"09","name":"Bayern"}},{"name":"Fröttmaninger Str.","postalCode":"85716","locality":"Unterschleißheim","municipality":{"key":"09184149","name":"Unterschleißheim, St","type":"Stadt"},"district":{"key":"09184","name":"München","type":"Landkreis"},"federalState":{"key":"09","name":"Bayern"}},{"name":"Frühlingstr.","postalCode":"85716","locality":"Unterschleißheim","municipality":{"key":"09184149","name":"Unterschleißheim, St","type":"Stadt"},"district":{"key":"09184","name":"München","type":"Landkreis"},"federalState":{"key":"09","name":"Bayern"}},{"name":"Furtweg","postalCode":"85716","locality":"Unterschleißheim","municipality":{"key":"09184149","name":"Unterschleißheim, St","type":"Stadt"},"district":{"key":"09184","name":"München","type":"Landkreis"},"federalState":{"key":"09","name":"Bayern"}},{"name":"Ganghoferstr.","postalCode":"85716","locality":"Unterschleißheim","municipality":{"key":"09184149","name":"Unterschleißheim, St","type":"Stadt"},"district":{"key":"09184","name":"München","type":"Landkreis"},"federalState":{"key":"09","name":"Bayern"}},{"name":"Garchinger Str.","postalCode":"85716","locality":"Unterschleißheim","municipality":{"key":"09184149","name":"Unterschleißheim, St","type":"Stadt"},"district":{"key":"09184","name":"München","type":"Landkreis"},"federalState":{"key":"09","name":"Bayern"}},{"name":"Georg-Elser-Str.","postalCode":"85716","locality":"Unterschleißheim","municipality":{"key":"09184149","name":"Unterschleißheim, St","type":"Stadt"},"district":{"key":"09184","name":"München","type":"Landkreis"},"federalState":{"key":"09","name":"Bayern"}},{"name":"Gerhart-Hauptmann-Str.","postalCode":"85716","locality":"Unterschleißheim","municipality":{"key":"09184149","name":"Unterschleißheim, St","type":"Stadt"},"district":{"key":"09184","name":"München","type":"Landkreis"},"federalState":{"key":"09","name":"Bayern"}},{"name":"Gutenbergstr.","postalCode":"85716","locality":"Unterschleißheim","municipality":{"key":"09184149","name":"Unterschleißheim, St","type":"Stadt"},"district":{"key":"09184","name":"München","type":"Landkreis"},"federalState":{"key":"09","name":"Bayern"}},{"name":"Habichtstr.","postalCode":"85716","locality":"Unterschleißheim","municipality":{"key":"09184149","name":"Unterschleißheim, St","type":"Stadt"},"district":{"key":"09184","name":"München","type":"Landkreis"},"federalState":{"key":"09","name":"Bayern"}},{"name":"Haimhauser Str.","postalCode":"85716","locality":"Unterschleißheim","municipality":{"key":"09184149","name":"Unterschleißheim, St","type":"Stadt"},"district":{"key":"09184","name":"München","type":"Landkreis"},"federalState":{"key":"09","name":"Bayern"}},{"name":"Hallbergmooser Str.","postalCode":"85716","locality":"Unterschleißheim","municipality":{"key":"09184149","name":"Unterschleißheim, St","type":"Stadt"},"district":{"key":"09184","name":"München","type":"Landkreis"},"federalState":{"key":"09","name":"Bayern"}},{"name":"Hans-Carossa-Str.","postalCode":"85716","locality":"Unterschleißheim","municipality":{"key":"09184149","name":"Unterschleißheim, St","type":"Stadt"},"district":{"key":"09184","name":"München","type":"Landkreis"},"federalState":{"key":"09","name":"Bayern"}},{"name":"Hans-Fallada-Str.","postalCode":"85716","locality":"Unterschleißheim","municipality":{"key":"09184149","name":"Unterschleißheim, St","type":"Stadt"},"district":{"key":"09184","name":"München","type":"Landkreis"},"federalState":{"key":"09","name":"Bayern"}},{"name":"Hauptstr.","postalCode":"85716","locality":"Unterschleißheim","municipality":{"key":"09184149","name":"Unterschleißheim, St","type":"Stadt"},"district":{"key":"09184","name":"München","type":"Landkreis"},"federalState":{"key":"09","name":"Bayern"}},{"name":"Hedwigstr.","postalCode":"85716","locality":"Unterschleißheim","municipality":{"key":"09184149","name":"Unterschleißheim, St","type":"Stadt"},"district":{"key":"09184","name":"München","type":"Landkreis"},"federalState":{"key":"09","name":"Bayern"}},{"name":"Heidestr.","postalCode":"85716","locality":"Unterschleißheim","municipality":{"key":"09184149","name":"Unterschleißheim, St","type":"Stadt"},"district":{"key":"09184","name":"München","type":"Landkreis"},"federalState":{"key":"09","name":"Bayern"}},{"name":"Heimgartenstr.","postalCode":"85716","locality":"Unterschleißheim","municipality":{"key":"09184149","name":"Unterschleißheim, St","type":"Stadt"},"district":{"key":"09184","name":"München","type":"Landkreis"},"federalState":{"key":"09","name":"Bayern"}},{"name":"Im Klosterfeld","postalCode":"85716","locality":"Unterschleißheim","municipality":{"key":"09184149","name":"Unterschleißheim, St","type":"Stadt"},"district":{"key":"09184","name":"München","type":"Landkreis"},"federalState":{"key":"09","name":"Bayern"}},{"name":"Im Maxfeld","postalCode":"85716","locality":"Unterschleißheim","municipality":{"key":"09184149","name":"Unterschleißheim, St","type":"Stadt"},"district":{"key":"09184","name":"München","type":"Landkreis"},"federalState":{"key":"09","name":"Bayern"}},{"name":"Im Ried","postalCode":"85716","locality":"Unterschleißheim","municipality":{"key":"09184149","name":"Unterschleißheim, St","type":"Stadt"},"district":{"key":"09184","name":"München","type":"Landkreis"},"federalState":{"key":"09","name":"Bayern"}},{"name":"Im Schilf","postalCode":"85716","locality":"Unterschleißheim","municipality":{"key":"09184149","name":"Unterschleißheim, St","type":"Stadt"},"district":{"key":"09184","name":"München","type":"Landkreis"},"federalState":{"key":"09","name":"Bayern"}},{"name":"Ismaninger Str.","postalCode":"85716","locality":"Unterschleißheim","municipality":{"key":"09184149","name":"Unterschleißheim, St","type":"Stadt"},"district":{"key":"09184","name":"München","type":"Landkreis"},"federalState":{"key":"09","name":"Bayern"}},{"name":"Johann-Bauer-Weg","postalCode":"85716","locality":"Unterschleißheim","municipality":{"key":"09184149","name":"Unterschleißheim, St","type":"Stadt"},"district":{"key":"09184","name":"München","type":"Landkreis"},"federalState":{"key":"09","name":"Bayern"}},{"name":"Johann-Schmid-Str.","postalCode":"85716","locality":"Unterschleißheim","municipality":{"key":"09184149","name":"Unterschleißheim, St","type":"Stadt"},"district":{"key":"09184","name":"München","type":"Landkreis"},"federalState":{"key":"09","name":"Bayern"}},{"name":"Johann-Schmuck-Weg","postalCode":"85716","locality":"Unterschleißheim","municipality":{"key":"09184149","name":"Unterschleißheim, St","type":"Stadt"},"district":{"key":"09184","name":"München","type":"Landkreis"},"federalState":{"key":"09","name":"Bayern"}},{"name":"John-F.-Kennedy-Platz","postalCode":"85716","locality":"Unterschleißheim","municipality":{"key":"09184149","name":"Unterschleißheim, St","type":"Stadt"},"district":{"key":"09184","name":"München","type":"Landkreis"},"federalState":{"key":"09","name":"Bayern"}},{"name":"Josefastr.","postalCode":"85716","locality":"Unterschleißheim","municipality":{"key":"09184149","name":"Unterschleißheim, St","type":"Stadt"},"district":{"key":"09184","name":"München","type":"Landkreis"},"federalState":{"key":"09","name":"Bayern"}},{"name":"Kastanienweg","postalCode":"85716","locality":"Unterschleißheim","municipality":{"key":"09184149","name":"Unterschleißheim, St","type":"Stadt"},"district":{"key":"09184","name":"München","type":"Landkreis"},"federalState":{"key":"09","name":"Bayern"}},{"name":"Katharinenweg","postalCode":"85716","locality":"Unterschleißheim","municipality":{"key":"09184149","name":"Unterschleißheim, St","type":"Stadt"},"district":{"key":"09184","name":"München","type":"Landkreis"},"federalState":{"key":"09","name":"Bayern"}},{"name":"Käthe-Kollwitz-Str.","postalCode":"85716","locality":"Unterschleißheim","municipality":{"key":"09184149","name":"Unterschleißheim, St","type":"Stadt"},"district":{"key":"09184","name":"München","type":"Landkreis"},"federalState":{"key":"09","name":"Bayern"}},{"name":"Keltenschanze","postalCode":"85716","locality":"Unterschleißheim","municipality":{"key":"09184149","name":"Unterschleißheim, St","type":"Stadt"},"district":{"key":"09184","name":"München","type":"Landkreis"},"federalState":{"key":"09","name":"Bayern"}},{"name":"Keplerstr.","postalCode":"85716","locality":"Unterschleißheim","municipality":{"key":"09184149","name":"Unterschleißheim, St","type":"Stadt"},"district":{"key":"09184","name":"München","type":"Landkreis"},"federalState":{"key":"09","name":"Bayern"}},{"name":"Kiebitzstr.","postalCode":"85716","locality":"Unterschleißheim","municipality":{"key":"09184149","name":"Unterschleißheim, St","type":"Stadt"},"district":{"key":"09184","name":"München","type":"Landkreis"},"federalState":{"key":"09","name":"Bayern"}},{"name":"Kiefernstr.","postalCode":"85716","locality":"Unterschleißheim","municipality":{"key":"09184149","name":"Unterschleißheim, St","type":"Stadt"},"district":{"key":"09184","name":"München","type":"Landkreis"},"federalState":{"key":"09","name":"Bayern"}},{"name":"Kirchenweg","postalCode":"85716","locality":"Unterschleißheim","municipality":{"key":"09184149","name":"Unterschleißheim, St","type":"Stadt"},"district":{"key":"09184","name":"München","type":"Landkreis"},"federalState":{"key":"09","name":"Bayern"}},{"name":"Konrad-Zuse-Str.","postalCode":"85716","locality":"Unterschleißheim","municipality":{"key":"09184149","name":"Unterschleißheim, St","type":"Stadt"},"district":{"key":"09184","name":"München","type":"Landkreis"},"federalState":{"key":"09","name":"Bayern"}},{"name":"Kreuzstr.","postalCode":"85716","locality":"Unterschleißheim","municipality":{"key":"09184149","name":"Unterschleißheim, St","type":"Stadt"},"district":{"key":"09184","name":"München","type":"Landkreis"},"federalState":{"key":"09","name":"Bayern"}},{"name":"Krügerstr.","postalCode":"85716","locality":"Unterschleißheim","municipality":{"key":"09184149","name":"Unterschleißheim, St","type":"Stadt"},"district":{"key":"09184","name":"München","type":"Landkreis"},"federalState":{"key":"09","name":"Bayern"}},{"name":"Landshuter Str.","postalCode":"85716","locality":"Unterschleißheim","municipality":{"key":"09184149","name":"Unterschleißheim, St","type":"Stadt"},"district":{"key":"09184","name":"München","type":"Landkreis"},"federalState":{"key":"09","name":"Bayern"}},{"name":"Lärchenstr.","postalCode":"85716","locality":"Unterschleißheim","municipality":{"key":"09184149","name":"Unterschleißheim, St","type":"Stadt"},"district":{"key":"09184","name":"München","type":"Landkreis"},"federalState":{"key":"09","name":"Bayern"}},{"name":"Lena-Christ-Str.","postalCode":"85716","locality":"Unterschleißheim","municipality":{"key":"09184149","name":"Unterschleißheim, St","type":"Stadt"},"district":{"key":"09184","name":"München","type":"Landkreis"},"federalState":{"key":"09","name":"Bayern"}},{"name":"Lilienstr.","postalCode":"85716","locality":"Unterschleißheim","municipality":{"key":"09184149","name":"Unterschleißheim, St","type":"Stadt"},"district":{"key":"09184","name":"München","type":"Landkreis"},"federalState":{"key":"09","name":"Bayern"}},{"name":"Lindenstr.","postalCode":"85716","locality":"Unterschleißheim","municipality":{"key":"09184149","name":"Unterschleißheim, St","type":"Stadt"},"district":{"key":"09184","name":"München","type":"Landkreis"},"federalState":{"key":"09","name":"Bayern"}},{"name":"Lise-Meitner-Str.","postalCode":"85716","locality":"Unterschleißheim","municipality":{"key":"09184149","name":"Unterschleißheim, St","type":"Stadt"},"district":{"key":"09184","name":"München","type":"Landkreis"},"federalState":{"key":"09","name":"Bayern"}},{"name":"Lohwald","postalCode":"85716","locality":"Unterschleißheim","municipality":{"key":"09184149","name":"Unterschleißheim, St","type":"Stadt"},"district":{"key":"09184","name":"München","type":"Landkreis"},"federalState":{"key":"09","name":"Bayern"}},{"name":"Lohwaldstr.","postalCode":"85716","locality":"Unterschleißheim","municipality":{"key":"09184149","name":"Unterschleißheim, St","type":"Stadt"},"district":{"key":"09184","name":"München","type":"Landkreis"},"federalState":{"key":"09","name":"Bayern"}},{"name":"Lustheimer Str.","postalCode":"85716","locality":"Unterschleißheim","municipality":{"key":"09184149","name":"Unterschleißheim, St","type":"Stadt"},"district":{"key":"09184","name":"München","type":"Landkreis"},"federalState":{"key":"09","name":"Bayern"}},{"name":"Maiglöckchenstr.","postalCode":"85716","locality":"Unterschleißheim","municipality":{"key":"09184149","name":"Unterschleißheim, St","type":"Stadt"},"district":{"key":"09184","name":"München","type":"Landkreis"},"federalState":{"key":"09","name":"Bayern"}},{"name":"Mallertshofener Str.","postalCode":"85716","locality":"Unterschleißheim","municipality":{"key":"09184149","name":"Unterschleißheim, St","type":"Stadt"},"district":{"key":"09184","name":"München","type":"Landkreis"},"federalState":{"key":"09","name":"Bayern"}},{"name":"Margaretenanger","postalCode":"85716","locality":"Unterschleißheim","municipality":{"key":"09184149","name":"Unterschleißheim, St","type":"Stadt"},"district":{"key":"09184","name":"München","type":"Landkreis"},"federalState":{"key":"09","name":"Bayern"}},{"name":"Mariannenweg","postalCode":"85716","locality":"Unterschleißheim","municipality":{"key":"09184149","name":"Unterschleißheim, St","type":"Stadt"},"district":{"key":"09184","name":"München","type":"Landkreis"},"federalState":{"key":"09","name":"Bayern"}},{"name":"Maxfeldhof","postalCode":"85716","locality":"Unterschleißheim","municipality":{"key":"09184149","name":"Unterschleißheim, St","type":"Stadt"},"district":{"key":"09184","name":"München","type":"Landkreis"},"federalState":{"key":"09","name":"Bayern"}},{"name":"Max-Halbe-Str.","postalCode":"85716","locality":"Unterschleißheim","municipality":{"key":"09184149","name":"Unterschleißheim, St","type":"Stadt"},"district":{"key":"09184","name":"München","type":"Landkreis"},"federalState":{"key":"09","name":"Bayern"}},{"name":"Meschendörferweg","postalCode":"85716","locality":"Unterschleißheim","municipality":{"key":"09184149","name":"Unterschleißheim, St","type":"Stadt"},"district":{"key":"09184","name":"München","type":"Landkreis"},"federalState":{"key":"09","name":"Bayern"}},{"name":"Michael-Kölbl-Str.","postalCode":"85716","locality":"Unterschleißheim","municipality":{"key":"09184149","name":"Unterschleißheim, St","type":"Stadt"},"district":{"key":"09184","name":"München","type":"Landkreis"},"federalState":{"key":"09","name":"Bayern"}},{"name":"Mistralstr.","postalCode":"85716","locality":"Unterschleißheim","municipality":{"key":"09184149","name":"Unterschleißheim, St","type":"Stadt"},"district":{"key":"09184","name":"München","type":"Landkreis"},"federalState":{"key":"09","name":"Bayern"}},{"name":"Mittenheimer Str.","postalCode":"85716","locality":"Unterschleißheim","municipality":{"key":"09184149","name":"Unterschleißheim, St","type":"Stadt"},"district":{"key":"09184","name":"München","type":"Landkreis"},"federalState":{"key":"09","name":"Bayern"}},{"name":"Moosachstr.","postalCode":"85716","locality":"Unterschleißheim","municipality":{"key":"09184149","name":"Unterschleißheim, St","type":"Stadt"},"district":{"key":"09184","name":"München","type":"Landkreis"},"federalState":{"key":"09","name":"Bayern"}},{"name":"Morsestr.","postalCode":"85716","locality":"Unterschleißheim","municipality":{"key":"09184149","name":"Unterschleißheim, St","type":"Stadt"},"district":{"key":"09184","name":"München","type":"Landkreis"},"federalState":{"key":"09","name":"Bayern"}},{"name":"Müller-Guttenbrunn-Weg","postalCode":"85716","locality":"Unterschleißheim","municipality":{"key":"09184149","name":"Unterschleißheim, St","type":"Stadt"},"district":{"key":"09184","name":"München","type":"Landkreis"},"federalState":{"key":"09","name":"Bayern"}},{"name":"Münchner Ring","postalCode":"85716","locality":"Unterschleißheim","municipality":{"key":"09184149","name":"Unterschleißheim, St","type":"Stadt"},"district":{"key":"09184","name":"München","type":"Landkreis"},"federalState":{"key":"09","name":"Bayern"}},{"name":"Nelkenstr.","postalCode":"85716","locality":"Unterschleißheim","municipality":{"key":"09184149","name":"Unterschleißheim, St","type":"Stadt"},"district":{"key":"09184","name":"München","type":"Landkreis"},"federalState":{"key":"09","name":"Bayern"}},{"name":"Neufahrner Str.","postalCode":"85716","locality":"Unterschleißheim","municipality":{"key":"09184149","name":"Unterschleißheim, St","type":"Stadt"},"district":{"key":"09184","name":"München","type":"Landkreis"},"federalState":{"key":"09","name":"Bayern"}},{"name":"Neuhofweg","postalCode":"85716","locality":"Unterschleißheim","municipality":{"key":"09184149","name":"Unterschleißheim, St","type":"Stadt"},"district":{"key":"09184","name":"München","type":"Landkreis"},"federalState":{"key":"09","name":"Bayern"}},{"name":"Nördliche Ingolstädter Str.","postalCode":"85716","locality":"Unterschleißheim","municipality":{"key":"09184149","name":"Unterschleißheim, St","type":"Stadt"},"district":{"key":"09184","name":"München","type":"Landkreis"},"federalState":{"key":"09","name":"Bayern"}},{"name":"Orionstr.","postalCode":"85716","locality":"Unterschleißheim","municipality":{"key":"09184149","name":"Unterschleißheim, St","type":"Stadt"},"district":{"key":"09184","name":"München","type":"Landkreis"},"federalState":{"key":"09","name":"Bayern"}},{"name":"Oskar-Maria-Graf-Str.","postalCode":"85716","locality":"Unterschleißheim","municipality":{"key":"09184149","name":"Unterschleißheim, St","type":"Stadt"},"district":{"key":"09184","name":"München","type":"Landkreis"},"federalState":{"key":"09","name":"Bayern"}},{"name":"Ottenburger Str.","postalCode":"85716","locality":"Unterschleißheim","municipality":{"key":"09184149","name":"Unterschleißheim, St","type":"Stadt"},"district":{"key":"09184","name":"München","type":"Landkreis"},"federalState":{"key":"09","name":"Bayern"}},{"name":"Pappelgasse","postalCode":"85716","locality":"Unterschleißheim","municipality":{"key":"09184149","name":"Unterschleißheim, St","type":"Stadt"},"district":{"key":"09184","name":"München","type":"Landkreis"},"federalState":{"key":"09","name":"Bayern"}},{"name":"Pater-Kolbe-Str.","postalCode":"85716","locality":"Unterschleißheim","municipality":{"key":"09184149","name":"Unterschleißheim, St","type":"Stadt"},"district":{"key":"09184","name":"München","type":"Landkreis"},"federalState":{"key":"09","name":"Bayern"}},{"name":"Paul-Kulisch-Str.","postalCode":"85716","locality":"Unterschleißheim","municipality":{"key":"09184149","name":"Unterschleißheim, St","type":"Stadt"},"district":{"key":"09184","name":"München","type":"Landkreis"},"federalState":{"key":"09","name":"Bayern"}},{"name":"Pegasusstr.","postalCode":"85716","locality":"Unterschleißheim","municipality":{"key":"09184149","name":"Unterschleißheim, St","type":"Stadt"},"district":{"key":"09184","name":"München","type":"Landkreis"},"federalState":{"key":"09","name":"Bayern"}},{"name":"Peter-Schuster-Weg","postalCode":"85716","locality":"Unterschleißheim","municipality":{"key":"09184149","name":"Unterschleißheim, St","type":"Stadt"},"district":{"key":"09184","name":"München","type":"Landkreis"},"federalState":{"key":"09","name":"Bayern"}},{"name":"Quagliostr.","postalCode":"81543","locality":"München","municipality":{"key":"09162000","name":"München, Landeshauptstadt","type":"Kreisfreie_Stadt"},"district":{"key":"09162","name":"München, Landeshauptstadt","type":"Kreisfreie_Stadt"},"federalState":{"key":"09","name":"Bayern"}},{"name":"Quedlinburger Str.","postalCode":"80992","locality":"München","municipality":{"key":"09162000","name":"München, Landeshauptstadt","type":"Kreisfreie_Stadt"},"district":{"key":"09162","name":"München, Landeshauptstadt","type":"Kreisfreie_Stadt"},"federalState":{"key":"09","name":"Bayern"}},{"name":"Quellweg","postalCode":"85551","locality":"Kirchheim bei München","municipality":{"key":"09184131","name":"Kirchheim b.München","type":"Kreisangehörige_Gemeinde"},"district":{"key":"09184","name":"München","type":"Landkreis"},"federalState":{"key":"09","name":"Bayern"}},{"name":"Queristr.","postalCode":"80689","locality":"München","municipality":{"key":"09162000","name":"München, Landeshauptstadt","type":"Kreisfreie_Stadt"},"district":{"key":"09162","name":"München, Landeshauptstadt","type":"Kreisfreie_Stadt"},"federalState":{"key":"09","name":"Bayern"}},{"name":"Querstr.","postalCode":"07589","locality":"Münchenbernsdorf","municipality":{"key":"16076049","name":"Münchenbernsdorf, Stadt","type":"Stadt"},"district":{"key":"16076","name":"Greiz","type":"Landkreis"},"federalState":{"key":"16","name":"Thüringen"}},{"name":"Quiddestr.","postalCode":"81735","locality":"München","municipality":{"key":"09162000","name":"München, Landeshauptstadt","type":"Kreisfreie_Stadt"},"district":{"key":"09162","name":"München, Landeshauptstadt","type":"Kreisfreie_Stadt"},"federalState":{"key":"09","name":"Bayern"}},{"name":"Quiddestr.","postalCode":"81737","locality":"München","municipality":{"key":"09162000","name":"München, Landeshauptstadt","type":"Kreisfreie_Stadt"},"district":{"key":"09162","name":"München, Landeshauptstadt","type":"Kreisfreie_Stadt"},"federalState":{"key":"09","name":"Bayern"}},{"name":"Raiffeisenstr.","postalCode":"85716","locality":"Unterschleißheim","municipality":{"key":"09184149","name":"Unterschleißheim, St","type":"Stadt"},"district":{"key":"09184","name":"München","type":"Landkreis"},"federalState":{"key":"09","name":"Bayern"}},{"name":"Rebhuhnweg","postalCode":"85716","locality":"Unterschleißheim","municipality":{"key":"09184149","name":"Unterschleißheim, St","type":"Stadt"},"district":{"key":"09184","name":"München","type":"Landkreis"},"federalState":{"key":"09","name":"Bayern"}},{"name":"Ringhofferstr.","postalCode":"85716","locality":"Unterschleißheim","municipality":{"key":"09184149","name":"Unterschleißheim, St","type":"Stadt"},"district":{"key":"09184","name":"München","type":"Landkreis"},"federalState":{"key":"09","name":"Bayern"}},{"name":"Robert-Koch-Weg","postalCode":"85716","locality":"Unterschleißheim","municipality":{"key":"09184149","name":"Unterschleißheim, St","type":"Stadt"},"district":{"key":"09184","name":"München","type":"Landkreis"},"federalState":{"key":"09","name":"Bayern"}},{"name":"Robert-Schuman-Str.","postalCode":"85716","locality":"Unterschleißheim","municipality":{"key":"09184149","name":"Unterschleißheim, St","type":"Stadt"},"district":{"key":"09184","name":"München","type":"Landkreis"},"federalState":{"key":"09","name":"Bayern"}},{"name":"Röntgenstr.","postalCode":"85716","locality":"Unterschleißheim","municipality":{"key":"09184149","name":"Unterschleißheim, St","type":"Stadt"},"district":{"key":"09184","name":"München","type":"Landkreis"},"federalState":{"key":"09","name":"Bayern"}},{"name":"Rosenstr.","postalCode":"85716","locality":"Unterschleißheim","municipality":{"key":"09184149","name":"Unterschleißheim, St","type":"Stadt"},"district":{"key":"09184","name":"München","type":"Landkreis"},"federalState":{"key":"09","name":"Bayern"}},{"name":"Sankt-Benedikt-Str.","postalCode":"85716","locality":"Unterschleißheim","municipality":{"key":"09184149","name":"Unterschleißheim, St","type":"Stadt"},"district":{"key":"09184","name":"München","type":"Landkreis"},"federalState":{"key":"09","name":"Bayern"}},{"name":"Sankt-Korbinian-Str.","postalCode":"85716","locality":"Unterschleißheim","municipality":{"key":"09184149","name":"Unterschleißheim, St","type":"Stadt"},"district":{"key":"09184","name":"München","type":"Landkreis"},"federalState":{"key":"09","name":"Bayern"}},{"name":"Sankt-Martinus-Str.","postalCode":"85716","locality":"Unterschleißheim","municipality":{"key":"09184149","name":"Unterschleißheim, St","type":"Stadt"},"district":{"key":"09184","name":"München","type":"Landkreis"},"federalState":{"key":"09","name":"Bayern"}},{"name":"Sankt-Rochus-Str.","postalCode":"85716","locality":"Unterschleißheim","municipality":{"key":"09184149","name":"Unterschleißheim, St","type":"Stadt"},"district":{"key":"09184","name":"München","type":"Landkreis"},"federalState":{"key":"09","name":"Bayern"}},{"name":"Sankt-Ulrich-Str.","postalCode":"85716","locality":"Unterschleißheim","municipality":{"key":"09184149","name":"Unterschleißheim, St","type":"Stadt"},"district":{"key":"09184","name":"München","type":"Landkreis"},"federalState":{"key":"09","name":"Bayern"}},{"name":"Schwalbenstr.","postalCode":"85716","locality":"Unterschleißheim","municipality":{"key":"09184149","name":"Unterschleißheim, St","type":"Stadt"},"district":{"key":"09184","name":"München","type":"Landkreis"},"federalState":{"key":"09","name":"Bayern"}},{"name":"Siedlerstr.","postalCode":"85716","locality":"Unterschleißheim","municipality":{"key":"09184149","name":"Unterschleißheim, St","type":"Stadt"},"district":{"key":"09184","name":"München","type":"Landkreis"},"federalState":{"key":"09","name":"Bayern"}},{"name":"Siegmundstr.","postalCode":"85716","locality":"Unterschleißheim","municipality":{"key":"09184149","name":"Unterschleißheim, St","type":"Stadt"},"district":{"key":"09184","name":"München","type":"Landkreis"},"federalState":{"key":"09","name":"Bayern"}},{"name":"Siemensstr.","postalCode":"85716","locality":"Unterschleißheim","municipality":{"key":"09184149","name":"Unterschleißheim, St","type":"Stadt"},"district":{"key":"09184","name":"München","type":"Landkreis"},"federalState":{"key":"09","name":"Bayern"}},{"name":"Siriusstr.","postalCode":"85716","locality":"Unterschleißheim","municipality":{"key":"09184149","name":"Unterschleißheim, St","type":"Stadt"},"district":{"key":"09184","name":"München","type":"Landkreis"},"federalState":{"key":"09","name":"Bayern"}},{"name":"Sophienweg","postalCode":"85716","locality":"Unterschleißheim","municipality":{"key":"09184149","name":"Unterschleißheim, St","type":"Stadt"},"district":{"key":"09184","name":"München","type":"Landkreis"},"federalState":{"key":"09","name":"Bayern"}},{"name":"Sperberweg","postalCode":"85716","locality":"Unterschleißheim","municipality":{"key":"09184149","name":"Unterschleißheim, St","type":"Stadt"},"district":{"key":"09184","name":"München","type":"Landkreis"},"federalState":{"key":"09","name":"Bayern"}},{"name":"Sportplatzstr.","postalCode":"85716","locality":"Unterschleißheim","municipality":{"key":"09184149","name":"Unterschleißheim, St","type":"Stadt"},"district":{"key":"09184","name":"München","type":"Landkreis"},"federalState":{"key":"09","name":"Bayern"}},{"name":"Sportplatzweg","postalCode":"85716","locality":"Unterschleißheim","municipality":{"key":"09184149","name":"Unterschleißheim, St","type":"Stadt"},"district":{"key":"09184","name":"München","type":"Landkreis"},"federalState":{"key":"09","name":"Bayern"}},{"name":"Stadionstr.","postalCode":"85716","locality":"Unterschleißheim","municipality":{"key":"09184149","name":"Unterschleißheim, St","type":"Stadt"},"district":{"key":"09184","name":"München","type":"Landkreis"},"federalState":{"key":"09","name":"Bayern"}},{"name":"Starenweg","postalCode":"85716","locality":"Unterschleißheim","municipality":{"key":"09184149","name":"Unterschleißheim, St","type":"Stadt"},"district":{"key":"09184","name":"München","type":"Landkreis"},"federalState":{"key":"09","name":"Bayern"}},{"name":"Südliche Ingolstädter Str.","postalCode":"85716","locality":"Unterschleißheim","municipality":{"key":"09184149","name":"Unterschleißheim, St","type":"Stadt"},"district":{"key":"09184","name":"München","type":"Landkreis"},"federalState":{"key":"09","name":"Bayern"}},{"name":"Tannenstr.","postalCode":"85716","locality":"Unterschleißheim","municipality":{"key":"09184149","name":"Unterschleißheim, St","type":"Stadt"},"district":{"key":"09184","name":"München","type":"Landkreis"},"federalState":{"key":"09","name":"Bayern"}},{"name":"Theresienbogen","postalCode":"85716","locality":"Unterschleißheim","municipality":{"key":"09184149","name":"Unterschleißheim, St","type":"Stadt"},"district":{"key":"09184","name":"München","type":"Landkreis"},"federalState":{"key":"09","name":"Bayern"}},{"name":"Thomas-Mann-Str.","postalCode":"85716","locality":"Unterschleißheim","municipality":{"key":"09184149","name":"Unterschleißheim, St","type":"Stadt"},"district":{"key":"09184","name":"München","type":"Landkreis"},"federalState":{"key":"09","name":"Bayern"}},{"name":"Torfstecherweg","postalCode":"85716","locality":"Unterschleißheim","municipality":{"key":"09184149","name":"Unterschleißheim, St","type":"Stadt"},"district":{"key":"09184","name":"München","type":"Landkreis"},"federalState":{"key":"09","name":"Bayern"}},{"name":"Tulpenstr.","postalCode":"85716","locality":"Unterschleißheim","municipality":{"key":"09184149","name":"Unterschleißheim, St","type":"Stadt"},"district":{"key":"09184","name":"München","type":"Landkreis"},"federalState":{"key":"09","name":"Bayern"}},{"name":"Unterföhringer Str.","postalCode":"85716","locality":"Unterschleißheim","municipality":{"key":"09184149","name":"Unterschleißheim, St","type":"Stadt"},"district":{"key":"09184","name":"München","type":"Landkreis"},"federalState":{"key":"09","name":"Bayern"}},{"name":"Valentinspark","postalCode":"85716","locality":"Unterschleißheim","municipality":{"key":"09184149","name":"Unterschleißheim, St","type":"Stadt"},"district":{"key":"09184","name":"München","type":"Landkreis"},"federalState":{"key":"09","name":"Bayern"}},{"name":"Valerystr.","postalCode":"85716","locality":"Unterschleißheim","municipality":{"key":"09184149","name":"Unterschleißheim, St","type":"Stadt"},"district":{"key":"09184","name":"München","type":"Landkreis"},"federalState":{"key":"09","name":"Bayern"}},{"name":"Veilchenstr.","postalCode":"85716","locality":"Unterschleißheim","municipality":{"key":"09184149","name":"Unterschleißheim, St","type":"Stadt"},"district":{"key":"09184","name":"München","type":"Landkreis"},"federalState":{"key":"09","name":"Bayern"}},{"name":"Volksfestplatz","postalCode":"85716","locality":"Unterschleißheim","municipality":{"key":"09184149","name":"Unterschleißheim, St","type":"Stadt"},"district":{"key":"09184","name":"München","type":"Landkreis"},"federalState":{"key":"09","name":"Bayern"}},{"name":"Von-Eichendorff-Str.","postalCode":"85716","locality":"Unterschleißheim","municipality":{"key":"09184149","name":"Unterschleißheim, St","type":"Stadt"},"district":{"key":"09184","name":"München","type":"Landkreis"},"federalState":{"key":"09","name":"Bayern"}},{"name":"Walter-Eucken-Str.","postalCode":"85716","locality":"Unterschleißheim","municipality":{"key":"09184149","name":"Unterschleißheim, St","type":"Stadt"},"district":{"key":"09184","name":"München","type":"Landkreis"},"federalState":{"key":"09","name":"Bayern"}},{"name":"Weidenweg","postalCode":"85716","locality":"Unterschleißheim","municipality":{"key":"09184149","name":"Unterschleißheim, St","type":"Stadt"},"district":{"key":"09184","name":"München","type":"Landkreis"},"federalState":{"key":"09","name":"Bayern"}},{"name":"Weihenstephaner Str.","postalCode":"85716","locality":"Unterschleißheim","municipality":{"key":"09184149","name":"Unterschleißheim, St","type":"Stadt"},"district":{"key":"09184","name":"München","type":"Landkreis"},"federalState":{"key":"09","name":"Bayern"}},{"name":"Wiesenweg","postalCode":"85716","locality":"Unterschleißheim","municipality":{"key":"09184149","name":"Unterschleißheim, St","type":"Stadt"},"district":{"key":"09184","name":"München","type":"Landkreis"},"federalState":{"key":"09","name":"Bayern"}},{"name":"Wilhelm-Busch-Str.","postalCode":"85716","locality":"Unterschleißheim","municipality":{"key":"09184149","name":"Unterschleißheim, St","type":"Stadt"},"district":{"key":"09184","name":"München","type":"Landkreis"},"federalState":{"key":"09","name":"Bayern"}},{"name":"Wolfram-Stronk-Weg","postalCode":"85716","locality":"Unterschleißheim","municipality":{"key":"09184149","name":"Unterschleißheim, St","type":"Stadt"},"district":{"key":"09184","name":"München","type":"Landkreis"},"federalState":{"key":"09","name":"Bayern"}},{"name":"Würmbachstr.","postalCode":"85716","locality":"Unterschleißheim","municipality":{"key":"09184149","name":"Unterschleißheim, St","type":"Stadt"},"district":{"key":"09184","name":"München","type":"Landkreis"},"federalState":{"key":"09","name":"Bayern"}},{"name":"Xaver-Weismor-Str.","postalCode":"81829","locality":"München","municipality":{"key":"09162000","name":"München, Landeshauptstadt","type":"Kreisfreie_Stadt"},"district":{"key":"09162","name":"München, Landeshauptstadt","type":"Kreisfreie_Stadt"},"federalState":{"key":"09","name":"Bayern"}},{"name":"Yorckstr.","postalCode":"80637","locality":"München","municipality":{"key":"09162000","name":"München, Landeshauptstadt","type":"Kreisfreie_Stadt"},"district":{"key":"09162","name":"München, Landeshauptstadt","type":"Kreisfreie_Stadt"},"federalState":{"key":"09","name":"Bayern"}},{"name":"Ysenburgstr.","postalCode":"80634","locality":"München","municipality":{"key":"09162000","name":"München, Landeshauptstadt","type":"Kreisfreie_Stadt"},"district":{"key":"09162","name":"München, Landeshauptstadt","type":"Kreisfreie_Stadt"},"federalState":{"key":"09","name":"Bayern"}},{"name":"Zum Hirschdamm","postalCode":"85716","locality":"Unterschleißheim","municipality":{"key":"09184149","name":"Unterschleißheim, St","type":"Stadt"},"district":{"key":"09184","name":"München","type":"Landkreis"},"federalState":{"key":"09","name":"Bayern"}},{"name":"Zwerchwiesenweg","postalCode":"85716","locality":"Unterschleißheim","municipality":{"key":"09184149","name":"Unterschleißheim, St","type":"Stadt"},"district":{"key":"09184","name":"München","type":"Landkreis"},"federalState":{"key":"09","name":"Bayern"}},{"name":"Öcklweg","postalCode":"81369","locality":"München","municipality":{"key":"09162000","name":"München, Landeshauptstadt","type":"Kreisfreie_Stadt"},"district":{"key":"09162","name":"München, Landeshauptstadt","type":"Kreisfreie_Stadt"},"federalState":{"key":"09","name":"Bayern"}},{"name":"Öffentliche Grünanlage am Horst-Salzmann-Weg","postalCode":"81825","locality":"München","municipality":{"key":"09162000","name":"München, Landeshauptstadt","type":"Kreisfreie_Stadt"},"district":{"key":"09162","name":"München, Landeshauptstadt","type":"Kreisfreie_Stadt"},"federalState":{"key":"09","name":"Bayern"}},{"name":"Öffentliche Grünfläche Hochäckerstr.","postalCode":"81737","locality":"München","municipality":{"key":"09162000","name":"München, Landeshauptstadt","type":"Kreisfreie_Stadt"},"district":{"key":"09162","name":"München, Landeshauptstadt","type":"Kreisfreie_Stadt"},"federalState":{"key":"09","name":"Bayern"}},{"name":"Öffentlicher Garten am Kriegsarchiv","postalCode":"80636","locality":"München","municipality":{"key":"09162000","name":"München, Landeshauptstadt","type":"Kreisfreie_Stadt"},"district":{"key":"09162","name":"München, Landeshauptstadt","type":"Kreisfreie_Stadt"},"federalState":{"key":"09","name":"Bayern"}},{"name":"Ölbergstr.","postalCode":"93449","locality":"Waldmünchen","municipality":{"key":"09372171","name":"Waldmünchen, St","type":"Stadt"},"district":{"key":"09372","name":"Cham","type":"Landkreis"},"federalState":{"key":"09","name":"Bayern"}},{"name":"Ölbergweg","postalCode":"93449","locality":"Waldmünchen","municipality":{"key":"09372171","name":"Waldmünchen, St","type":"Stadt"},"district":{"key":"09372","name":"Cham","type":"Landkreis"},"federalState":{"key":"09","name":"Bayern"}},{"name":"Ötschmannweg","postalCode":"81369","locality":"München","municipality":{"key":"09162000","name":"München, Landeshauptstadt","type":"Kreisfreie_Stadt"},"district":{"key":"09162","name":"München, Landeshauptstadt","type":"Kreisfreie_Stadt"},"federalState":{"key":"09","name":"Bayern"}},{"name":"Öttlmairstr.","postalCode":"81737","locality":"München","municipality":{"key":"09162000","name":"München, Landeshauptstadt","type":"Kreisfreie_Stadt"},"district":{"key":"09162","name":"München, Landeshauptstadt","type":"Kreisfreie_Stadt"},"federalState":{"key":"09","name":"Bayern"}},{"name":"Über der Klause","postalCode":"81545","locality":"München","municipality":{"key":"09162000","name":"München, Landeshauptstadt","type":"Kreisfreie_Stadt"},"district":{"key":"09162","name":"München, Landeshauptstadt","type":"Kreisfreie_Stadt"},"federalState":{"key":"09","name":"Bayern"}},{"name":"Überlinger Weg","postalCode":"81243","locality":"München","municipality":{"key":"09162000","name":"München, Landeshauptstadt","type":"Kreisfreie_Stadt"},"district":{"key":"09162","name":"München, Landeshauptstadt","type":"Kreisfreie_Stadt"},"federalState":{"key":"09","name":"Bayern"}},{"name":"Überreiterstr.","postalCode":"81247","locality":"München","municipality":{"key":"09162000","name":"München, Landeshauptstadt","type":"Kreisfreie_Stadt"},"district":{"key":"09162","name":"München, Landeshauptstadt","type":"Kreisfreie_Stadt"},"federalState":{"key":"09","name":"Bayern"}},{"name":"Überreiterweg","postalCode":"85748","locality":"Garching bei München","municipality":{"key":"09184119","name":"Garching b.München, St","type":"Stadt"},"district":{"key":"09184","name":"München","type":"Landkreis"},"federalState":{"key":"09","name":"Bayern"}},{"name":"Überrheinerstr.","postalCode":"85551","locality":"Kirchheim bei München","municipality":{"key":"09184131","name":"Kirchheim b.München","type":"Kreisangehörige_Gemeinde"},"district":{"key":"09184","name":"München","type":"Landkreis"},"federalState":{"key":"09","name":"Bayern"}},{"name":"Überseeplatz","postalCode":"81825","locality":"München","municipality":{"key":"09162000","name":"München, Landeshauptstadt","type":"Kreisfreie_Stadt"},"district":{"key":"09162","name":"München, Landeshauptstadt","type":"Kreisfreie_Stadt"},"federalState":{"key":"09","name":"Bayern"}},]