[{"name":"Ahornstr.","postalCode":"82194","locality":"Gröbenzell","municipality":{"key":"09179126","name":"Gröbenzell","type":"Kreisangehörige_Gemeinde"},"district":{"key":"09179","name":"Fürstenfeldbruck","type":"Landkreis"},"federalState":{"key":"09","name":"Bayern"}},{"name":"Ahornweg","postalCode":"75378","locality":"Bad Liebenzell","municipality":{"key":"08235008","name":"Bad Liebenzell, Stadt","type":"Stadt"},"district":{"key":"08235","name":"Calw","type":"Landkreis"},"federalState":{"key":"08","name":"Baden-Württemberg"}},{"name":"Akeleistr.","postalCode":"82194","locality":"Gröbenzell","municipality":{"key":"09179126","name":"Gröbenzell","type":"Kreisangehörige_Gemeinde"},"district":{"key":"09179","name":"Fürstenfeldbruck","type":"Landkreis"},"federalState":{"key":"09","name":"Bayern"}},{"name":"Albert-Meyer-Str.","postalCode":"82194","locality":"Gröbenzell","municipality":{"key":"09179126","name":"Gröbenzell","type":"Kreisangehörige_Gemeinde"},"district":{"key":"09179","name":"Fürstenfeldbruck","type":"Landkreis"},"federalState":{"key":"09","name":"Bayern"}},{"name":"Albert-Schweitzer-Str.","postalCode":"75378","locality":"Bad Liebenzell","municipality":{"key":"08235008","name":"Bad Liebenzell, Stadt","type":"Stadt"},"district":{"key":"08235","name":"Calw","type":"Landkreis"},"federalState":{"key":"08","name":"Baden-Württemberg"}},{"name":"Alpenrosenstr.","postalCode":"82194","locality":"Gröbenzell","municipality":{"key":"09179126","name":"Gröbenzell","type":"Kreisangehörige_Gemeinde"},"district":{"key":"09179","name":"Fürstenfeldbruck","type":"Landkreis"},"federalState":{"key":"09","name":"Bayern"}},{"name":"Alpenstr.","postalCode":"82194","locality":"Gröbenzell","municipality":{"key":"09179126","name":"Gröbenzell","type":"Kreisangehörige_Gemeinde"},"district":{"key":"09179","name":"Fürstenfeldbruck","type":"Landkreis"},"federalState":{"key":"09","name":"Bayern"}},{"name":"Alte Liebenzeller Str.","postalCode":"75378","locality":"Bad Liebenzell","municipality":{"key":"08235008","name":"Bad Liebenzell, Stadt","type":"Stadt"},"district":{"key":"08235","name":"Calw","type":"Landkreis"},"federalState":{"key":"08","name":"Baden-Württemberg"}},{"name":"Alte Poststr.","postalCode":"75378","locality":"Bad Liebenzell","municipality":{"key":"08235008","name":"Bad Liebenzell, Stadt","type":"Stadt"},"district":{"key":"08235","name":"Calw","type":"Landkreis"},"federalState":{"key":"08","name":"Baden-Württemberg"}},{"name":"Alter Badwaldweg","postalCode":"75378","locality":"Bad Liebenzell","municipality":{"key":"08235008","name":"Bad Liebenzell, Stadt","type":"Stadt"},"district":{"key":"08235","name":"Calw","type":"Landkreis"},"federalState":{"key":"08","name":"Baden-Württemberg"}},{"name":"Alter Hau","postalCode":"75378","locality":"Bad Liebenzell","municipality":{"key":"08235008","name":"Bad Liebenzell, Stadt","type":"Stadt"},"district":{"key":"08235","name":"Calw","type":"Landkreis"},"federalState":{"key":"08","name":"Baden-Württemberg"}},{"name":"Alter Schulweg","postalCode":"75378","locality":"Bad Liebenzell","municipality":{"key":"08235008","name":"Bad Liebenzell, Stadt","type":"Stadt"},"district":{"key":"08235","name":"Calw","type":"Landkreis"},"federalState":{"key":"08","name":"Baden-Württemberg"}},{"name":"Alte Schömberger Steige","postalCode":"75378","locality":"Bad Liebenzell","municipality":{"key":"08235008","name":"Bad Liebenzell, Stadt","type":"Stadt"},"district":{"key":"08235","name":"Calw","type":"Landkreis"},"federalState":{"key":"08","name":"Baden-Württemberg"}},{"name":"Am Bach","postalCode":"75378","locality":"Bad Liebenzell","municipality":{"key":"08235008","name":"Bad Liebenzell, Stadt","type":"Stadt"},"district":{"key":"08235","name":"Calw","type":"Landkreis"},"federalState":{"key":"08","name":"Baden-Württemberg"}},{"name":"Am Balmer See","postalCode":"17429","locality":"Benz","municipality":{"key":"13075010","name":"Benz","type":"Kreisangehörige_Gemeinde"},"district":{"key":"13075","name":"Vorpommern-Greifswald","type":"Landkreis"},"federalState":{"key":"13","name":"Mecklenburg-Vorpommern"}},{"name":"Am Berg","postalCode":"75378","locality":"Bad Liebenzell","municipality":{"key":"08235008","name":"Bad Liebenzell, Stadt","type":"Stadt"},"district":{"key":"08235","name":"Calw","type":"Landkreis"},"federalState":{"key":"08","name":"Baden-Württemberg"}},{"name":"Am Frauenwald","postalCode":"75378","locality":"Bad Liebenzell","municipality":{"key":"08235008","name":"Bad Liebenzell, Stadt","type":"Stadt"},"district":{"key":"08235","name":"Calw","type":"Landkreis"},"federalState":{"key":"08","name":"Baden-Württemberg"}},{"name":"Am Fuchsberg","postalCode":"17429","locality":"Benz","municipality":{"key":"13075010","name":"Benz","type":"Kreisangehörige_Gemeinde"},"district":{"key":"13075","name":"Vorpommern-Greifswald","type":"Landkreis"},"federalState":{"key":"13","name":"Mecklenburg-Vorpommern"}},{"name":"Am Graben","postalCode":"75378","locality":"Bad Liebenzell","municipality":{"key":"08235008","name":"Bad Liebenzell, Stadt","type":"Stadt"},"district":{"key":"08235","name":"Calw","type":"Landkreis"},"federalState":{"key":"08","name":"Baden-Württemberg"}},{"name":"Am Hährenwald","postalCode":"75378","locality":"Bad Liebenzell","municipality":{"key":"08235008","name":"Bad Liebenzell, Stadt","type":"Stadt"},"district":{"key":"08235","name":"Calw","type":"Landkreis"},"federalState":{"key":"08","name":"Baden-Württemberg"}},{"name":"Am Hochwald","postalCode":"75378","locality":"Bad Liebenzell","municipality":{"key":"08235008","name":"Bad Liebenzell, Stadt","type":"Stadt"},"district":{"key":"08235","name":"Calw","type":"Landkreis"},"federalState":{"key":"08","name":"Baden-Württemberg"}},{"name":"Am Klingenwald","postalCode":"75378","locality":"Bad Liebenzell","municipality":{"key":"08235008","name":"Bad Liebenzell, Stadt","type":"Stadt"},"district":{"key":"08235","name":"Calw","type":"Landkreis"},"federalState":{"key":"08","name":"Baden-Württemberg"}},{"name":"Am Kniebrunnen","postalCode":"75378","locality":"Bad Liebenzell","municipality":{"key":"08235008","name":"Bad Liebenzell, Stadt","type":"Stadt"},"district":{"key":"08235","name":"Calw","type":"Landkreis"},"federalState":{"key":"08","name":"Baden-Württemberg"}},{"name":"Am Kurpark","postalCode":"75378","locality":"Bad Liebenzell","municipality":{"key":"08235008","name":"Bad Liebenzell, Stadt","type":"Stadt"},"district":{"key":"08235","name":"Calw","type":"Landkreis"},"federalState":{"key":"08","name":"Baden-Württemberg"}},{"name":"Ammerseestr.","postalCode":"82194","locality":"Gröbenzell","municipality":{"key":"09179126","name":"Gröbenzell","type":"Kreisangehörige_Gemeinde"},"district":{"key":"09179","name":"Fürstenfeldbruck","type":"Landkreis"},"federalState":{"key":"09","name":"Bayern"}},{"name":"Am Monakamer Kopf","postalCode":"75378","locality":"Bad Liebenzell","municipality":{"key":"08235008","name":"Bad Liebenzell, Stadt","type":"Stadt"},"district":{"key":"08235","name":"Calw","type":"Landkreis"},"federalState":{"key":"08","name":"Baden-Württemberg"}},{"name":"Am Nepperminer See","postalCode":"17429","locality":"Benz","municipality":{"key":"13075010","name":"Benz","type":"Kreisangehörige_Gemeinde"},"district":{"key":"13075","name":"Vorpommern-Greifswald","type":"Landkreis"},"federalState":{"key":"13","name":"Mecklenburg-Vorpommern"}},{"name":"Am Raischachwald","postalCode":"75378","locality":"Bad Liebenzell","municipality":{"key":"08235008","name":"Bad Liebenzell, Stadt","type":"Stadt"},"district":{"key":"08235","name":"Calw","type":"Landkreis"},"federalState":{"key":"08","name":"Baden-Württemberg"}},{"name":"Am Schützeneck","postalCode":"82194","locality":"Gröbenzell","municipality":{"key":"09179126","name":"Gröbenzell","type":"Kreisangehörige_Gemeinde"},"district":{"key":"09179","name":"Fürstenfeldbruck","type":"Landkreis"},"federalState":{"key":"09","name":"Bayern"}},{"name":"Am Schweinskrug","postalCode":"23898","locality":"Labenz","municipality":{"key":"01053079","name":"Labenz","type":"Kreisangehörige_Gemeinde"},"district":{"key":"01053","name":"Herzogtum Lauenburg","type":"Kreis"},"federalState":{"key":"01","name":"Schleswig-Holstein"}},{"name":"Am See","postalCode":"75378","locality":"Bad Liebenzell","municipality":{"key":"08235008","name":"Bad Liebenzell, Stadt","type":"Stadt"},"district":{"key":"08235","name":"Calw","type":"Landkreis"},"federalState":{"key":"08","name":"Baden-Württemberg"}},{"name":"Amselweg","postalCode":"75378","locality":"Bad Liebenzell","municipality":{"key":"08235008","name":"Bad Liebenzell, Stadt","type":"Stadt"},"district":{"key":"08235","name":"Calw","type":"Landkreis"},"federalState":{"key":"08","name":"Baden-Württemberg"}},{"name":"Amselweg","postalCode":"82194","locality":"Gröbenzell","municipality":{"key":"09179126","name":"Gröbenzell","type":"Kreisangehörige_Gemeinde"},"district":{"key":"09179","name":"Fürstenfeldbruck","type":"Landkreis"},"federalState":{"key":"09","name":"Bayern"}},{"name":"Am Thurbruch","postalCode":"17429","locality":"Benz","municipality":{"key":"13075010","name":"Benz","type":"Kreisangehörige_Gemeinde"},"district":{"key":"13075","name":"Vorpommern-Greifswald","type":"Landkreis"},"federalState":{"key":"13","name":"Mecklenburg-Vorpommern"}},{"name":"Am Waldeck","postalCode":"82194","locality":"Gröbenzell","municipality":{"key":"09179126","name":"Gröbenzell","type":"Kreisangehörige_Gemeinde"},"district":{"key":"09179","name":"Fürstenfeldbruck","type":"Landkreis"},"federalState":{"key":"09","name":"Bayern"}},{"name":"Am Weidegrund","postalCode":"82194","locality":"Gröbenzell","municipality":{"key":"09179126","name":"Gröbenzell","type":"Kreisangehörige_Gemeinde"},"district":{"key":"09179","name":"Fürstenfeldbruck","type":"Landkreis"},"federalState":{"key":"09","name":"Bayern"}},{"name":"Am Zillerhof","postalCode":"82194","locality":"Gröbenzell","municipality":{"key":"09179126","name":"Gröbenzell","type":"Kreisangehörige_Gemeinde"},"district":{"key":"09179","name":"Fürstenfeldbruck","type":"Landkreis"},"federalState":{"key":"09","name":"Bayern"}},{"name":"An der B105","postalCode":"23970","locality":"Benz","municipality":{"key":"13074004","name":"Benz","type":"Kreisangehörige_Gemeinde"},"district":{"key":"13074","name":"Nordwestmecklenburg","type":"Landkreis"},"federalState":{"key":"13","name":"Mecklenburg-Vorpommern"}},{"name":"An der Landstr.","postalCode":"17429","locality":"Benz","municipality":{"key":"13075010","name":"Benz","type":"Kreisangehörige_Gemeinde"},"district":{"key":"13075","name":"Vorpommern-Greifswald","type":"Landkreis"},"federalState":{"key":"13","name":"Mecklenburg-Vorpommern"}},{"name":"An der Pfanne","postalCode":"75378","locality":"Bad Liebenzell","municipality":{"key":"08235008","name":"Bad Liebenzell, Stadt","type":"Stadt"},"district":{"key":"08235","name":"Calw","type":"Landkreis"},"federalState":{"key":"08","name":"Baden-Württemberg"}},{"name":"Angerstr.","postalCode":"82194","locality":"Gröbenzell","municipality":{"key":"09179126","name":"Gröbenzell","type":"Kreisangehörige_Gemeinde"},"district":{"key":"09179","name":"Fürstenfeldbruck","type":"Landkreis"},"federalState":{"key":"09","name":"Bayern"}},{"name":"Anlagenstr.","postalCode":"75378","locality":"Bad Liebenzell","municipality":{"key":"08235008","name":"Bad Liebenzell, Stadt","type":"Stadt"},"district":{"key":"08235","name":"Calw","type":"Landkreis"},"federalState":{"key":"08","name":"Baden-Württemberg"}},{"name":"Anwendel","postalCode":"75378","locality":"Bad Liebenzell","municipality":{"key":"08235008","name":"Bad Liebenzell, Stadt","type":"Stadt"},"district":{"key":"08235","name":"Calw","type":"Landkreis"},"federalState":{"key":"08","name":"Baden-Württemberg"}},{"name":"Anzengruberstr.","postalCode":"82194","locality":"Gröbenzell","municipality":{"key":"09179126","name":"Gröbenzell","type":"Kreisangehörige_Gemeinde"},"district":{"key":"09179","name":"Fürstenfeldbruck","type":"Landkreis"},"federalState":{"key":"09","name":"Bayern"}},{"name":"Arnikastr.","postalCode":"82194","locality":"Gröbenzell","municipality":{"key":"09179126","name":"Gröbenzell","type":"Kreisangehörige_Gemeinde"},"district":{"key":"09179","name":"Fürstenfeldbruck","type":"Landkreis"},"federalState":{"key":"09","name":"Bayern"}},{"name":"Ascherbachstr.","postalCode":"82194","locality":"Gröbenzell","municipality":{"key":"09179126","name":"Gröbenzell","type":"Kreisangehörige_Gemeinde"},"district":{"key":"09179","name":"Fürstenfeldbruck","type":"Landkreis"},"federalState":{"key":"09","name":"Bayern"}},{"name":"Auenstr.","postalCode":"82194","locality":"Gröbenzell","municipality":{"key":"09179126","name":"Gröbenzell","type":"Kreisangehörige_Gemeinde"},"district":{"key":"09179","name":"Fürstenfeldbruck","type":"Landkreis"},"federalState":{"key":"09","name":"Bayern"}},{"name":"Auf der Stadtmauer","postalCode":"75378","locality":"Bad Liebenzell","municipality":{"key":"08235008","name":"Bad Liebenzell, Stadt","type":"Stadt"},"district":{"key":"08235","name":"Calw","type":"Landkreis"},"federalState":{"key":"08","name":"Baden-Württemberg"}},{"name":"Aufzugweg","postalCode":"75378","locality":"Bad Liebenzell","municipality":{"key":"08235008","name":"Bad Liebenzell, Stadt","type":"Stadt"},"district":{"key":"08235","name":"Calw","type":"Landkreis"},"federalState":{"key":"08","name":"Baden-Württemberg"}},{"name":"Augsburger Str.","postalCode":"82194","locality":"Gröbenzell","municipality":{"key":"09179126","name":"Gröbenzell","type":"Kreisangehörige_Gemeinde"},"district":{"key":"09179","name":"Fürstenfeldbruck","type":"Landkreis"},"federalState":{"key":"09","name":"Bayern"}},{"name":"Badwaldweg","postalCode":"75378","locality":"Bad Liebenzell","municipality":{"key":"08235008","name":"Bad Liebenzell, Stadt","type":"Stadt"},"district":{"key":"08235","name":"Calw","type":"Landkreis"},"federalState":{"key":"08","name":"Baden-Württemberg"}},{"name":"Badweg","postalCode":"75378","locality":"Bad Liebenzell","municipality":{"key":"08235008","name":"Bad Liebenzell, Stadt","type":"Stadt"},"district":{"key":"08235","name":"Calw","type":"Landkreis"},"federalState":{"key":"08","name":"Baden-Württemberg"}},{"name":"Bahnhofstr.","postalCode":"75378","locality":"Bad Liebenzell","municipality":{"key":"08235008","name":"Bad Liebenzell, Stadt","type":"Stadt"},"district":{"key":"08235","name":"Calw","type":"Landkreis"},"federalState":{"key":"08","name":"Baden-Württemberg"}},{"name":"Bahnhofstr.","postalCode":"82194","locality":"Gröbenzell","municipality":{"key":"09179126","name":"Gröbenzell","type":"Kreisangehörige_Gemeinde"},"district":{"key":"09179","name":"Fürstenfeldbruck","type":"Landkreis"},"federalState":{"key":"09","name":"Bayern"}},{"name":"Barmseeweg","postalCode":"82194","locality":"Gröbenzell","municipality":{"key":"09179126","name":"Gröbenzell","type":"Kreisangehörige_Gemeinde"},"district":{"key":"09179","name":"Fürstenfeldbruck","type":"Landkreis"},"federalState":{"key":"09","name":"Bayern"}},{"name":"Barthstr.","postalCode":"75378","locality":"Bad Liebenzell","municipality":{"key":"08235008","name":"Bad Liebenzell, Stadt","type":"Stadt"},"district":{"key":"08235","name":"Calw","type":"Landkreis"},"federalState":{"key":"08","name":"Baden-Württemberg"}},{"name":"Baumstr.","postalCode":"75378","locality":"Bad Liebenzell","municipality":{"key":"08235008","name":"Bad Liebenzell, Stadt","type":"Stadt"},"district":{"key":"08235","name":"Calw","type":"Landkreis"},"federalState":{"key":"08","name":"Baden-Württemberg"}},{"name":"Baumstr.","postalCode":"82194","locality":"Gröbenzell","municipality":{"key":"09179126","name":"Gröbenzell","type":"Kreisangehörige_Gemeinde"},"district":{"key":"09179","name":"Fürstenfeldbruck","type":"Landkreis"},"federalState":{"key":"09","name":"Bayern"}},{"name":"Beethovenstr.","postalCode":"82194","locality":"Gröbenzell","municipality":{"key":"09179126","name":"Gröbenzell","type":"Kreisangehörige_Gemeinde"},"district":{"key":"09179","name":"Fürstenfeldbruck","type":"Landkreis"},"federalState":{"key":"09","name":"Bayern"}},{"name":"Beinberger Steige","postalCode":"75378","locality":"Bad Liebenzell","municipality":{"key":"08235008","name":"Bad Liebenzell, Stadt","type":"Stadt"},"district":{"key":"08235","name":"Calw","type":"Landkreis"},"federalState":{"key":"08","name":"Baden-Württemberg"}},{"name":"Beinberger Str.","postalCode":"75378","locality":"Bad Liebenzell","municipality":{"key":"08235008","name":"Bad Liebenzell, Stadt","type":"Stadt"},"district":{"key":"08235","name":"Calw","type":"Landkreis"},"federalState":{"key":"08","name":"Baden-Württemberg"}},{"name":"Beislerstr.","postalCode":"82194","locality":"Gröbenzell","municipality":{"key":"09179126","name":"Gröbenzell","type":"Kreisangehörige_Gemeinde"},"district":{"key":"09179","name":"Fürstenfeldbruck","type":"Landkreis"},"federalState":{"key":"09","name":"Bayern"}},{"name":"Benzer Str.","postalCode":"17429","locality":"Benz","municipality":{"key":"13075010","name":"Benz","type":"Kreisangehörige_Gemeinde"},"district":{"key":"13075","name":"Vorpommern-Greifswald","type":"Landkreis"},"federalState":{"key":"13","name":"Mecklenburg-Vorpommern"}},{"name":"Bergfinkenstr.","postalCode":"82194","locality":"Gröbenzell","municipality":{"key":"09179126","name":"Gröbenzell","type":"Kreisangehörige_Gemeinde"},"district":{"key":"09179","name":"Fürstenfeldbruck","type":"Landkreis"},"federalState":{"key":"09","name":"Bayern"}},{"name":"Bergstr.","postalCode":"75378","locality":"Bad Liebenzell","municipality":{"key":"08235008","name":"Bad Liebenzell, Stadt","type":"Stadt"},"district":{"key":"08235","name":"Calw","type":"Landkreis"},"federalState":{"key":"08","name":"Baden-Württemberg"}},{"name":"Bernhard-Rößner-Str.","postalCode":"82194","locality":"Gröbenzell","municipality":{"key":"09179126","name":"Gröbenzell","type":"Kreisangehörige_Gemeinde"},"district":{"key":"09179","name":"Fürstenfeldbruck","type":"Landkreis"},"federalState":{"key":"09","name":"Bayern"}},{"name":"Bettelweg","postalCode":"75378","locality":"Bad Liebenzell","municipality":{"key":"08235008","name":"Bad Liebenzell, Stadt","type":"Stadt"},"district":{"key":"08235","name":"Calw","type":"Landkreis"},"federalState":{"key":"08","name":"Baden-Württemberg"}},{"name":"Beutelsteinweg","postalCode":"75378","locality":"Bad Liebenzell","municipality":{"key":"08235008","name":"Bad Liebenzell, Stadt","type":"Stadt"},"district":{"key":"08235","name":"Calw","type":"Landkreis"},"federalState":{"key":"08","name":"Baden-Württemberg"}},{"name":"Bienengarten","postalCode":"75378","locality":"Bad Liebenzell","municipality":{"key":"08235008","name":"Bad Liebenzell, Stadt","type":"Stadt"},"district":{"key":"08235","name":"Calw","type":"Landkreis"},"federalState":{"key":"08","name":"Baden-Württemberg"}},{"name":"Bienenweg","postalCode":"82194","locality":"Gröbenzell","municipality":{"key":"09179126","name":"Gröbenzell","type":"Kreisangehörige_Gemeinde"},"district":{"key":"09179","name":"Fürstenfeldbruck","type":"Landkreis"},"federalState":{"key":"09","name":"Bayern"}},{"name":"Bieselsberger Weg","postalCode":"75378","locality":"Bad Liebenzell","municipality":{"key":"08235008","name":"Bad Liebenzell, Stadt","type":"Stadt"},"district":{"key":"08235","name":"Calw","type":"Landkreis"},"federalState":{"key":"08","name":"Baden-Württemberg"}},{"name":"Birkenstr.","postalCode":"82194","locality":"Gröbenzell","municipality":{"key":"09179126","name":"Gröbenzell","type":"Kreisangehörige_Gemeinde"},"district":{"key":"09179","name":"Fürstenfeldbruck","type":"Landkreis"},"federalState":{"key":"09","name":"Bayern"}},{"name":"Birkenweg","postalCode":"55494","locality":"Benzweiler","municipality":{"key":"07140011","name":"Benzweiler","type":"Kreisangehörige_Gemeinde"},"district":{"key":"07140","name":"Rhein-Hunsrück-Kreis","type":"Landkreis"},"federalState":{"key":"07","name":"Rheinland-Pfalz"}},{"name":"Birkenweg","postalCode":"75378","locality":"Bad Liebenzell","municipality":{"key":"08235008","name":"Bad Liebenzell, Stadt","type":"Stadt"},"district":{"key":"08235","name":"Calw","type":"Landkreis"},"federalState":{"key":"08","name":"Baden-Württemberg"}},{"name":"Bischofsbrunnenweg","postalCode":"75378","locality":"Bad Liebenzell","municipality":{"key":"08235008","name":"Bad Liebenzell, Stadt","type":"Stadt"},"district":{"key":"08235","name":"Calw","type":"Landkreis"},"federalState":{"key":"08","name":"Baden-Württemberg"}},{"name":"Blaumeisenstr.","postalCode":"82194","locality":"Gröbenzell","municipality":{"key":"09179126","name":"Gröbenzell","type":"Kreisangehörige_Gemeinde"},"district":{"key":"09179","name":"Fürstenfeldbruck","type":"Landkreis"},"federalState":{"key":"09","name":"Bayern"}},{"name":"Blumhardtstr.","postalCode":"75378","locality":"Bad Liebenzell","municipality":{"key":"08235008","name":"Bad Liebenzell, Stadt","type":"Stadt"},"district":{"key":"08235","name":"Calw","type":"Landkreis"},"federalState":{"key":"08","name":"Baden-Württemberg"}},{"name":"Bodenseestr.","postalCode":"82194","locality":"Gröbenzell","municipality":{"key":"09179126","name":"Gröbenzell","type":"Kreisangehörige_Gemeinde"},"district":{"key":"09179","name":"Fürstenfeldbruck","type":"Landkreis"},"federalState":{"key":"09","name":"Bayern"}},{"name":"Brennerstr.","postalCode":"82194","locality":"Gröbenzell","municipality":{"key":"09179126","name":"Gröbenzell","type":"Kreisangehörige_Gemeinde"},"district":{"key":"09179","name":"Fürstenfeldbruck","type":"Landkreis"},"federalState":{"key":"09","name":"Bayern"}},{"name":"Breslauer Str.","postalCode":"82194","locality":"Gröbenzell","municipality":{"key":"09179126","name":"Gröbenzell","type":"Kreisangehörige_Gemeinde"},"district":{"key":"09179","name":"Fürstenfeldbruck","type":"Landkreis"},"federalState":{"key":"09","name":"Bayern"}},{"name":"Brombeerweg","postalCode":"82194","locality":"Gröbenzell","municipality":{"key":"09179126","name":"Gröbenzell","type":"Kreisangehörige_Gemeinde"},"district":{"key":"09179","name":"Fürstenfeldbruck","type":"Landkreis"},"federalState":{"key":"09","name":"Bayern"}},{"name":"Brückenweg","postalCode":"82194","locality":"Gröbenzell","municipality":{"key":"09179126","name":"Gröbenzell","type":"Kreisangehörige_Gemeinde"},"district":{"key":"09179","name":"Fürstenfeldbruck","type":"Landkreis"},"federalState":{"key":"09","name":"Bayern"}},{"name":"Brunnenstr.","postalCode":"75378","locality":"Bad Liebenzell","municipality":{"key":"08235008","name":"Bad Liebenzell, Stadt","type":"Stadt"},"district":{"key":"08235","name":"Calw","type":"Landkreis"},"federalState":{"key":"08","name":"Baden-Württemberg"}},{"name":"Brunnenweg","postalCode":"55494","locality":"Benzweiler","municipality":{"key":"07140011","name":"Benzweiler","type":"Kreisangehörige_Gemeinde"},"district":{"key":"07140","name":"Rhein-Hunsrück-Kreis","type":"Landkreis"},"federalState":{"key":"07","name":"Rheinland-Pfalz"}},{"name":"Buchenweg","postalCode":"75378","locality":"Bad Liebenzell","municipality":{"key":"08235008","name":"Bad Liebenzell, Stadt","type":"Stadt"},"district":{"key":"08235","name":"Calw","type":"Landkreis"},"federalState":{"key":"08","name":"Baden-Württemberg"}},{"name":"Buchenweg","postalCode":"82194","locality":"Gröbenzell","municipality":{"key":"09179126","name":"Gröbenzell","type":"Kreisangehörige_Gemeinde"},"district":{"key":"09179","name":"Fürstenfeldbruck","type":"Landkreis"},"federalState":{"key":"09","name":"Bayern"}},{"name":"Bühlweg","postalCode":"75378","locality":"Bad Liebenzell","municipality":{"key":"08235008","name":"Bad Liebenzell, Stadt","type":"Stadt"},"district":{"key":"08235","name":"Calw","type":"Landkreis"},"federalState":{"key":"08","name":"Baden-Württemberg"}},{"name":"Bürgerpark","postalCode":"82194","locality":"Gröbenzell","municipality":{"key":"09179126","name":"Gröbenzell","type":"Kreisangehörige_Gemeinde"},"district":{"key":"09179","name":"Fürstenfeldbruck","type":"Landkreis"},"federalState":{"key":"09","name":"Bayern"}},{"name":"Burghaldenweg","postalCode":"75378","locality":"Bad Liebenzell","municipality":{"key":"08235008","name":"Bad Liebenzell, Stadt","type":"Stadt"},"district":{"key":"08235","name":"Calw","type":"Landkreis"},"federalState":{"key":"08","name":"Baden-Württemberg"}},{"name":"Burgstr.","postalCode":"75378","locality":"Bad Liebenzell","municipality":{"key":"08235008","name":"Bad Liebenzell, Stadt","type":"Stadt"},"district":{"key":"08235","name":"Calw","type":"Landkreis"},"federalState":{"key":"08","name":"Baden-Württemberg"}},{"name":"Burgweg","postalCode":"75378","locality":"Bad Liebenzell","municipality":{"key":"08235008","name":"Bad Liebenzell, Stadt","type":"Stadt"},"district":{"key":"08235","name":"Calw","type":"Landkreis"},"federalState":{"key":"08","name":"Baden-Württemberg"}},{"name":"Bussardstr.","postalCode":"82194","locality":"Gröbenzell","municipality":{"key":"09179126","name":"Gröbenzell","type":"Kreisangehörige_Gemeinde"},"district":{"key":"09179","name":"Fürstenfeldbruck","type":"Landkreis"},"federalState":{"key":"09","name":"Bayern"}},{"name":"Calmbacher Str.","postalCode":"75378","locality":"Bad Liebenzell","municipality":{"key":"08235008","name":"Bad Liebenzell, Stadt","type":"Stadt"},"district":{"key":"08235","name":"Calw","type":"Landkreis"},"federalState":{"key":"08","name":"Baden-Württemberg"}},{"name":"Calwer Str.","postalCode":"75378","locality":"Bad Liebenzell","municipality":{"key":"08235008","name":"Bad Liebenzell, Stadt","type":"Stadt"},"district":{"key":"08235","name":"Calw","type":"Landkreis"},"federalState":{"key":"08","name":"Baden-Württemberg"}},{"name":"Chiemseestr.","postalCode":"82194","locality":"Gröbenzell","municipality":{"key":"09179126","name":"Gröbenzell","type":"Kreisangehörige_Gemeinde"},"district":{"key":"09179","name":"Fürstenfeldbruck","type":"Landkreis"},"federalState":{"key":"09","name":"Bayern"}},{"name":"Dachsweg","postalCode":"75378","locality":"Bad Liebenzell","municipality":{"key":"08235008","name":"Bad Liebenzell, Stadt","type":"Stadt"},"district":{"key":"08235","name":"Calw","type":"Landkreis"},"federalState":{"key":"08","name":"Baden-Württemberg"}},{"name":"Dammweg","postalCode":"82194","locality":"Gröbenzell","municipality":{"key":"09179126","name":"Gröbenzell","type":"Kreisangehörige_Gemeinde"},"district":{"key":"09179","name":"Fürstenfeldbruck","type":"Landkreis"},"federalState":{"key":"09","name":"Bayern"}},{"name":"Danziger Str.","postalCode":"82194","locality":"Gröbenzell","municipality":{"key":"09179126","name":"Gröbenzell","type":"Kreisangehörige_Gemeinde"},"district":{"key":"09179","name":"Fürstenfeldbruck","type":"Landkreis"},"federalState":{"key":"09","name":"Bayern"}},{"name":"Defreggerstr.","postalCode":"82194","locality":"Gröbenzell","municipality":{"key":"09179126","name":"Gröbenzell","type":"Kreisangehörige_Gemeinde"},"district":{"key":"09179","name":"Fürstenfeldbruck","type":"Landkreis"},"federalState":{"key":"09","name":"Bayern"}},{"name":"Dianastr.","postalCode":"82194","locality":"Gröbenzell","municipality":{"key":"09179126","name":"Gröbenzell","type":"Kreisangehörige_Gemeinde"},"district":{"key":"09179","name":"Fürstenfeldbruck","type":"Landkreis"},"federalState":{"key":"09","name":"Bayern"}},{"name":"Doktor-Hammerschmidt-Platz","postalCode":"82194","locality":"Gröbenzell","municipality":{"key":"09179126","name":"Gröbenzell","type":"Kreisangehörige_Gemeinde"},"district":{"key":"09179","name":"Fürstenfeldbruck","type":"Landkreis"},"federalState":{"key":"09","name":"Bayern"}},{"name":"Doktor-Troll-Str.","postalCode":"82194","locality":"Gröbenzell","municipality":{"key":"09179126","name":"Gröbenzell","type":"Kreisangehörige_Gemeinde"},"district":{"key":"09179","name":"Fürstenfeldbruck","type":"Landkreis"},"federalState":{"key":"09","name":"Bayern"}},{"name":"Doktor-Werner-Str.","postalCode":"82194","locality":"Gröbenzell","municipality":{"key":"09179126","name":"Gröbenzell","type":"Kreisangehörige_Gemeinde"},"district":{"key":"09179","name":"Fürstenfeldbruck","type":"Landkreis"},"federalState":{"key":"09","name":"Bayern"}},{"name":"Dorfplatz","postalCode":"17429","locality":"Benz","municipality":{"key":"13075010","name":"Benz","type":"Kreisangehörige_Gemeinde"},"district":{"key":"13075","name":"Vorpommern-Greifswald","type":"Landkreis"},"federalState":{"key":"13","name":"Mecklenburg-Vorpommern"}},{"name":"Dorfstr.","postalCode":"17429","locality":"Benz","municipality":{"key":"13075010","name":"Benz","type":"Kreisangehörige_Gemeinde"},"district":{"key":"13075","name":"Vorpommern-Greifswald","type":"Landkreis"},"federalState":{"key":"13","name":"Mecklenburg-Vorpommern"}},{"name":"Dorfstr. Benz","postalCode":"23970","locality":"Benz","municipality":{"key":"13074004","name":"Benz","type":"Kreisangehörige_Gemeinde"},"district":{"key":"13074","name":"Nordwestmecklenburg","type":"Landkreis"},"federalState":{"key":"13","name":"Mecklenburg-Vorpommern"}},{"name":"Dorfwiesenweg","postalCode":"75378","locality":"Bad Liebenzell","municipality":{"key":"08235008","name":"Bad Liebenzell, Stadt","type":"Stadt"},"district":{"key":"08235","name":"Calw","type":"Landkreis"},"federalState":{"key":"08","name":"Baden-Württemberg"}},{"name":"Drewinscher Weg","postalCode":"17429","locality":"Benz","municipality":{"key":"13075010","name":"Benz","type":"Kreisangehörige_Gemeinde"},"district":{"key":"13075","name":"Vorpommern-Greifswald","type":"Landkreis"},"federalState":{"key":"13","name":"Mecklenburg-Vorpommern"}},{"name":"Drosselweg","postalCode":"82194","locality":"Gröbenzell","municipality":{"key":"09179126","name":"Gröbenzell","type":"Kreisangehörige_Gemeinde"},"district":{"key":"09179","name":"Fürstenfeldbruck","type":"Landkreis"},"federalState":{"key":"09","name":"Bayern"}},{"name":"Edelweißstr.","postalCode":"82194","locality":"Gröbenzell","municipality":{"key":"09179126","name":"Gröbenzell","type":"Kreisangehörige_Gemeinde"},"district":{"key":"09179","name":"Fürstenfeldbruck","type":"Landkreis"},"federalState":{"key":"09","name":"Bayern"}},{"name":"Eibenweg","postalCode":"82194","locality":"Gröbenzell","municipality":{"key":"09179126","name":"Gröbenzell","type":"Kreisangehörige_Gemeinde"},"district":{"key":"09179","name":"Fürstenfeldbruck","type":"Landkreis"},"federalState":{"key":"09","name":"Bayern"}},{"name":"Eibseeweg","postalCode":"82194","locality":"Gröbenzell","municipality":{"key":"09179126","name":"Gröbenzell","type":"Kreisangehörige_Gemeinde"},"district":{"key":"09179","name":"Fürstenfeldbruck","type":"Landkreis"},"federalState":{"key":"09","name":"Bayern"}},{"name":"Eichbuschweg","postalCode":"75378","locality":"Bad Liebenzell","municipality":{"key":"08235008","name":"Bad Liebenzell, Stadt","type":"Stadt"},"district":{"key":"08235","name":"Calw","type":"Landkreis"},"federalState":{"key":"08","name":"Baden-Württemberg"}},{"name":"Eichendorffstr.","postalCode":"75378","locality":"Bad Liebenzell","municipality":{"key":"08235008","name":"Bad Liebenzell, Stadt","type":"Stadt"},"district":{"key":"08235","name":"Calw","type":"Landkreis"},"federalState":{"key":"08","name":"Baden-Württemberg"}},{"name":"Eichenweg","postalCode":"75378","locality":"Bad Liebenzell","municipality":{"key":"08235008","name":"Bad Liebenzell, Stadt","type":"Stadt"},"district":{"key":"08235","name":"Calw","type":"Landkreis"},"federalState":{"key":"08","name":"Baden-Württemberg"}},{"name":"Eichenweg","postalCode":"82194","locality":"Gröbenzell","municipality":{"key":"09179126","name":"Gröbenzell","type":"Kreisangehörige_Gemeinde"},"district":{"key":"09179","name":"Fürstenfeldbruck","type":"Landkreis"},"federalState":{"key":"09","name":"Bayern"}},{"name":"Eisgraben","postalCode":"75378","locality":"Bad Liebenzell","municipality":{"key":"08235008","name":"Bad Liebenzell, Stadt","type":"Stadt"},"district":{"key":"08235","name":"Calw","type":"Landkreis"},"federalState":{"key":"08","name":"Baden-Württemberg"}},{"name":"Emil-Schmid-Str.","postalCode":"75378","locality":"Bad Liebenzell","municipality":{"key":"08235008","name":"Bad Liebenzell, Stadt","type":"Stadt"},"district":{"key":"08235","name":"Calw","type":"Landkreis"},"federalState":{"key":"08","name":"Baden-Württemberg"}},{"name":"Endlich oben (wars früher)","postalCode":"75378","locality":"Bad Liebenzell","municipality":{"key":"08235008","name":"Bad Liebenzell, Stadt","type":"Stadt"},"district":{"key":"08235","name":"Calw","type":"Landkreis"},"federalState":{"key":"08","name":"Baden-Württemberg"}},{"name":"Enzianstr.","postalCode":"82194","locality":"Gröbenzell","municipality":{"key":"09179126","name":"Gröbenzell","type":"Kreisangehörige_Gemeinde"},"district":{"key":"09179","name":"Fürstenfeldbruck","type":"Landkreis"},"federalState":{"key":"09","name":"Bayern"}},{"name":"Erikastr.","postalCode":"82194","locality":"Gröbenzell","municipality":{"key":"09179126","name":"Gröbenzell","type":"Kreisangehörige_Gemeinde"},"district":{"key":"09179","name":"Fürstenfeldbruck","type":"Landkreis"},"federalState":{"key":"09","name":"Bayern"}},{"name":"Erlbachweg","postalCode":"82194","locality":"Gröbenzell","municipality":{"key":"09179126","name":"Gröbenzell","type":"Kreisangehörige_Gemeinde"},"district":{"key":"09179","name":"Fürstenfeldbruck","type":"Landkreis"},"federalState":{"key":"09","name":"Bayern"}},{"name":"Erlenhauweg","postalCode":"75378","locality":"Bad Liebenzell","municipality":{"key":"08235008","name":"Bad Liebenzell, Stadt","type":"Stadt"},"district":{"key":"08235","name":"Calw","type":"Landkreis"},"federalState":{"key":"08","name":"Baden-Württemberg"}},{"name":"Erlenstr.","postalCode":"82194","locality":"Gröbenzell","municipality":{"key":"09179126","name":"Gröbenzell","type":"Kreisangehörige_Gemeinde"},"district":{"key":"09179","name":"Fürstenfeldbruck","type":"Landkreis"},"federalState":{"key":"09","name":"Bayern"}},{"name":"Erlenweg","postalCode":"75378","locality":"Bad Liebenzell","municipality":{"key":"08235008","name":"Bad Liebenzell, Stadt","type":"Stadt"},"district":{"key":"08235","name":"Calw","type":"Landkreis"},"federalState":{"key":"08","name":"Baden-Württemberg"}},{"name":"Eschenrieder Str.","postalCode":"82194","locality":"Gröbenzell","municipality":{"key":"09179126","name":"Gröbenzell","type":"Kreisangehörige_Gemeinde"},"district":{"key":"09179","name":"Fürstenfeldbruck","type":"Landkreis"},"federalState":{"key":"09","name":"Bayern"}},{"name":"Ettaler Str.","postalCode":"82194","locality":"Gröbenzell","municipality":{"key":"09179126","name":"Gröbenzell","type":"Kreisangehörige_Gemeinde"},"district":{"key":"09179","name":"Fürstenfeldbruck","type":"Landkreis"},"federalState":{"key":"09","name":"Bayern"}},{"name":"Eulenweg","postalCode":"82194","locality":"Gröbenzell","municipality":{"key":"09179126","name":"Gröbenzell","type":"Kreisangehörige_Gemeinde"},"district":{"key":"09179","name":"Fürstenfeldbruck","type":"Landkreis"},"federalState":{"key":"09","name":"Bayern"}},{"name":"Exterstr.","postalCode":"82194","locality":"Gröbenzell","municipality":{"key":"09179126","name":"Gröbenzell","type":"Kreisangehörige_Gemeinde"},"district":{"key":"09179","name":"Fürstenfeldbruck","type":"Landkreis"},"federalState":{"key":"09","name":"Bayern"}},{"name":"Falkenstr.","postalCode":"75378","locality":"Bad Liebenzell","municipality":{"key":"08235008","name":"Bad Liebenzell, Stadt","type":"Stadt"},"district":{"key":"08235","name":"Calw","type":"Landkreis"},"federalState":{"key":"08","name":"Baden-Württemberg"}},{"name":"Falkenstr.","postalCode":"82194","locality":"Gröbenzell","municipality":{"key":"09179126","name":"Gröbenzell","type":"Kreisangehörige_Gemeinde"},"district":{"key":"09179","name":"Fürstenfeldbruck","type":"Landkreis"},"federalState":{"key":"09","name":"Bayern"}},{"name":"Farmerstr.","postalCode":"82194","locality":"Gröbenzell","municipality":{"key":"09179126","name":"Gröbenzell","type":"Kreisangehörige_Gemeinde"},"district":{"key":"09179","name":"Fürstenfeldbruck","type":"Landkreis"},"federalState":{"key":"09","name":"Bayern"}},{"name":"Fasanenweg","postalCode":"82194","locality":"Gröbenzell","municipality":{"key":"09179126","name":"Gröbenzell","type":"Kreisangehörige_Gemeinde"},"district":{"key":"09179","name":"Fürstenfeldbruck","type":"Landkreis"},"federalState":{"key":"09","name":"Bayern"}},{"name":"Feldheckenweg","postalCode":"75378","locality":"Bad Liebenzell","municipality":{"key":"08235008","name":"Bad Liebenzell, Stadt","type":"Stadt"},"district":{"key":"08235","name":"Calw","type":"Landkreis"},"federalState":{"key":"08","name":"Baden-Württemberg"}},{"name":"Felsenstr.","postalCode":"82194","locality":"Gröbenzell","municipality":{"key":"09179126","name":"Gröbenzell","type":"Kreisangehörige_Gemeinde"},"district":{"key":"09179","name":"Fürstenfeldbruck","type":"Landkreis"},"federalState":{"key":"09","name":"Bayern"}},{"name":"Feuerleinweg","postalCode":"75378","locality":"Bad Liebenzell","municipality":{"key":"08235008","name":"Bad Liebenzell, Stadt","type":"Stadt"},"district":{"key":"08235","name":"Calw","type":"Landkreis"},"federalState":{"key":"08","name":"Baden-Württemberg"}},{"name":"Fichtenstr.","postalCode":"75378","locality":"Bad Liebenzell","municipality":{"key":"08235008","name":"Bad Liebenzell, Stadt","type":"Stadt"},"district":{"key":"08235","name":"Calw","type":"Landkreis"},"federalState":{"key":"08","name":"Baden-Württemberg"}},{"name":"Fichtenstr.","postalCode":"82194","locality":"Gröbenzell","municipality":{"key":"09179126","name":"Gröbenzell","type":"Kreisangehörige_Gemeinde"},"district":{"key":"09179","name":"Fürstenfeldbruck","type":"Landkreis"},"federalState":{"key":"09","name":"Bayern"}},{"name":"Fichtenweg","postalCode":"55494","locality":"Benzweiler","municipality":{"key":"07140011","name":"Benzweiler","type":"Kreisangehörige_Gemeinde"},"district":{"key":"07140","name":"Rhein-Hunsrück-Kreis","type":"Landkreis"},"federalState":{"key":"07","name":"Rheinland-Pfalz"}},{"name":"Finkenbergweg","postalCode":"75378","locality":"Bad Liebenzell","municipality":{"key":"08235008","name":"Bad Liebenzell, Stadt","type":"Stadt"},"district":{"key":"08235","name":"Calw","type":"Landkreis"},"federalState":{"key":"08","name":"Baden-Württemberg"}},{"name":"Finkensteige","postalCode":"75378","locality":"Bad Liebenzell","municipality":{"key":"08235008","name":"Bad Liebenzell, Stadt","type":"Stadt"},"district":{"key":"08235","name":"Calw","type":"Landkreis"},"federalState":{"key":"08","name":"Baden-Württemberg"}},{"name":"Finkenstr.","postalCode":"82194","locality":"Gröbenzell","municipality":{"key":"09179126","name":"Gröbenzell","type":"Kreisangehörige_Gemeinde"},"district":{"key":"09179","name":"Fürstenfeldbruck","type":"Landkreis"},"federalState":{"key":"09","name":"Bayern"}},{"name":"Finkenweg","postalCode":"75378","locality":"Bad Liebenzell","municipality":{"key":"08235008","name":"Bad Liebenzell, Stadt","type":"Stadt"},"district":{"key":"08235","name":"Calw","type":"Landkreis"},"federalState":{"key":"08","name":"Baden-Württemberg"}},{"name":"Finsterer Weg","postalCode":"75378","locality":"Bad Liebenzell","municipality":{"key":"08235008","name":"Bad Liebenzell, Stadt","type":"Stadt"},"district":{"key":"08235","name":"Calw","type":"Landkreis"},"federalState":{"key":"08","name":"Baden-Württemberg"}},{"name":"Firnstr.","postalCode":"82194","locality":"Gröbenzell","municipality":{"key":"09179126","name":"Gröbenzell","type":"Kreisangehörige_Gemeinde"},"district":{"key":"09179","name":"Fürstenfeldbruck","type":"Landkreis"},"federalState":{"key":"09","name":"Bayern"}},{"name":"Fischerweg","postalCode":"82194","locality":"Gröbenzell","municipality":{"key":"09179126","name":"Gröbenzell","type":"Kreisangehörige_Gemeinde"},"district":{"key":"09179","name":"Fürstenfeldbruck","type":"Landkreis"},"federalState":{"key":"09","name":"Bayern"}},{"name":"Föhrenstr.","postalCode":"82194","locality":"Gröbenzell","municipality":{"key":"09179126","name":"Gröbenzell","type":"Kreisangehörige_Gemeinde"},"district":{"key":"09179","name":"Fürstenfeldbruck","type":"Landkreis"},"federalState":{"key":"09","name":"Bayern"}},{"name":"Forchenhalde","postalCode":"75378","locality":"Bad Liebenzell","municipality":{"key":"08235008","name":"Bad Liebenzell, Stadt","type":"Stadt"},"district":{"key":"08235","name":"Calw","type":"Landkreis"},"federalState":{"key":"08","name":"Baden-Württemberg"}},{"name":"Forellenweg","postalCode":"82194","locality":"Gröbenzell","municipality":{"key":"09179126","name":"Gröbenzell","type":"Kreisangehörige_Gemeinde"},"district":{"key":"09179","name":"Fürstenfeldbruck","type":"Landkreis"},"federalState":{"key":"09","name":"Bayern"}},{"name":"Franz-Lehar-Str.","postalCode":"82194","locality":"Gröbenzell","municipality":{"key":"09179126","name":"Gröbenzell","type":"Kreisangehörige_Gemeinde"},"district":{"key":"09179","name":"Fürstenfeldbruck","type":"Landkreis"},"federalState":{"key":"09","name":"Bayern"}},{"name":"Freilandstr.","postalCode":"82194","locality":"Gröbenzell","municipality":{"key":"09179126","name":"Gröbenzell","type":"Kreisangehörige_Gemeinde"},"district":{"key":"09179","name":"Fürstenfeldbruck","type":"Landkreis"},"federalState":{"key":"09","name":"Bayern"}},{"name":"Freyastr.","postalCode":"82194","locality":"Gröbenzell","municipality":{"key":"09179126","name":"Gröbenzell","type":"Kreisangehörige_Gemeinde"},"district":{"key":"09179","name":"Fürstenfeldbruck","type":"Landkreis"},"federalState":{"key":"09","name":"Bayern"}},{"name":"Friedenstr.","postalCode":"75378","locality":"Bad Liebenzell","municipality":{"key":"08235008","name":"Bad Liebenzell, Stadt","type":"Stadt"},"district":{"key":"08235","name":"Calw","type":"Landkreis"},"federalState":{"key":"08","name":"Baden-Württemberg"}},{"name":"Friedenstr.","postalCode":"82194","locality":"Gröbenzell","municipality":{"key":"09179126","name":"Gröbenzell","type":"Kreisangehörige_Gemeinde"},"district":{"key":"09179","name":"Fürstenfeldbruck","type":"Landkreis"},"federalState":{"key":"09","name":"Bayern"}},{"name":"Friedhofweg","postalCode":"75378","locality":"Bad Liebenzell","municipality":{"key":"08235008","name":"Bad Liebenzell, Stadt","type":"Stadt"},"district":{"key":"08235","name":"Calw","type":"Landkreis"},"federalState":{"key":"08","name":"Baden-Württemberg"}},{"name":"Fritz-Behn-Str.","postalCode":"17429","locality":"Benz","municipality":{"key":"13075010","name":"Benz","type":"Kreisangehörige_Gemeinde"},"district":{"key":"13075","name":"Vorpommern-Greifswald","type":"Landkreis"},"federalState":{"key":"13","name":"Mecklenburg-Vorpommern"}},{"name":"Frohe Zukunft","postalCode":"17429","locality":"Benz","municipality":{"key":"13075010","name":"Benz","type":"Kreisangehörige_Gemeinde"},"district":{"key":"13075","name":"Vorpommern-Greifswald","type":"Landkreis"},"federalState":{"key":"13","name":"Mecklenburg-Vorpommern"}},{"name":"Frohnwasenweg","postalCode":"75378","locality":"Bad Liebenzell","municipality":{"key":"08235008","name":"Bad Liebenzell, Stadt","type":"Stadt"},"district":{"key":"08235","name":"Calw","type":"Landkreis"},"federalState":{"key":"08","name":"Baden-Württemberg"}},{"name":"Frühlingstr.","postalCode":"82194","locality":"Gröbenzell","municipality":{"key":"09179126","name":"Gröbenzell","type":"Kreisangehörige_Gemeinde"},"district":{"key":"09179","name":"Fürstenfeldbruck","type":"Landkreis"},"federalState":{"key":"09","name":"Bayern"}},{"name":"Fuchseck","postalCode":"75378","locality":"Bad Liebenzell","municipality":{"key":"08235008","name":"Bad Liebenzell, Stadt","type":"Stadt"},"district":{"key":"08235","name":"Calw","type":"Landkreis"},"federalState":{"key":"08","name":"Baden-Württemberg"}},{"name":"Fuhrweg","postalCode":"23898","locality":"Labenz","municipality":{"key":"01053079","name":"Labenz","type":"Kreisangehörige_Gemeinde"},"district":{"key":"01053","name":"Herzogtum Lauenburg","type":"Kreis"},"federalState":{"key":"01","name":"Schleswig-Holstein"}},{"name":"Furtweg","postalCode":"75378","locality":"Bad Liebenzell","municipality":{"key":"08235008","name":"Bad Liebenzell, Stadt","type":"Stadt"},"district":{"key":"08235","name":"Calw","type":"Landkreis"},"federalState":{"key":"08","name":"Baden-Württemberg"}},{"name":"Galgensträßle","postalCode":"75378","locality":"Bad Liebenzell","municipality":{"key":"08235008","name":"Bad Liebenzell, Stadt","type":"Stadt"},"district":{"key":"08235","name":"Calw","type":"Landkreis"},"federalState":{"key":"08","name":"Baden-Württemberg"}},{"name":"Gamehl","postalCode":"23970","locality":"Benz","municipality":{"key":"13074004","name":"Benz","type":"Kreisangehörige_Gemeinde"},"district":{"key":"13074","name":"Nordwestmecklenburg","type":"Landkreis"},"federalState":{"key":"13","name":"Mecklenburg-Vorpommern"}},{"name":"Gansweg","postalCode":"75378","locality":"Bad Liebenzell","municipality":{"key":"08235008","name":"Bad Liebenzell, Stadt","type":"Stadt"},"district":{"key":"08235","name":"Calw","type":"Landkreis"},"federalState":{"key":"08","name":"Baden-Württemberg"}},{"name":"Garmischer Str.","postalCode":"82194","locality":"Gröbenzell","municipality":{"key":"09179126","name":"Gröbenzell","type":"Kreisangehörige_Gemeinde"},"district":{"key":"09179","name":"Fürstenfeldbruck","type":"Landkreis"},"federalState":{"key":"09","name":"Bayern"}},{"name":"Gartenstr.","postalCode":"75378","locality":"Bad Liebenzell","municipality":{"key":"08235008","name":"Bad Liebenzell, Stadt","type":"Stadt"},"district":{"key":"08235","name":"Calw","type":"Landkreis"},"federalState":{"key":"08","name":"Baden-Württemberg"}},{"name":"Gartenstr.","postalCode":"82194","locality":"Gröbenzell","municipality":{"key":"09179126","name":"Gröbenzell","type":"Kreisangehörige_Gemeinde"},"district":{"key":"09179","name":"Fürstenfeldbruck","type":"Landkreis"},"federalState":{"key":"09","name":"Bayern"}},{"name":"Gartenweg","postalCode":"23970","locality":"Benz","municipality":{"key":"13074004","name":"Benz","type":"Kreisangehörige_Gemeinde"},"district":{"key":"13074","name":"Nordwestmecklenburg","type":"Landkreis"},"federalState":{"key":"13","name":"Mecklenburg-Vorpommern"}},{"name":"Gärtnerstr.","postalCode":"82194","locality":"Gröbenzell","municipality":{"key":"09179126","name":"Gröbenzell","type":"Kreisangehörige_Gemeinde"},"district":{"key":"09179","name":"Fürstenfeldbruck","type":"Landkreis"},"federalState":{"key":"09","name":"Bayern"}},{"name":"Geierstr.","postalCode":"82194","locality":"Gröbenzell","municipality":{"key":"09179126","name":"Gröbenzell","type":"Kreisangehörige_Gemeinde"},"district":{"key":"09179","name":"Fürstenfeldbruck","type":"Landkreis"},"federalState":{"key":"09","name":"Bayern"}},{"name":"Gerhart-Hauptmann-Platz","postalCode":"82194","locality":"Gröbenzell","municipality":{"key":"09179126","name":"Gröbenzell","type":"Kreisangehörige_Gemeinde"},"district":{"key":"09179","name":"Fürstenfeldbruck","type":"Landkreis"},"federalState":{"key":"09","name":"Bayern"}},{"name":"Gfaellweg","postalCode":"75378","locality":"Bad Liebenzell","municipality":{"key":"08235008","name":"Bad Liebenzell, Stadt","type":"Stadt"},"district":{"key":"08235","name":"Calw","type":"Landkreis"},"federalState":{"key":"08","name":"Baden-Württemberg"}},{"name":"Ginsterstr.","postalCode":"82194","locality":"Gröbenzell","municipality":{"key":"09179126","name":"Gröbenzell","type":"Kreisangehörige_Gemeinde"},"district":{"key":"09179","name":"Fürstenfeldbruck","type":"Landkreis"},"federalState":{"key":"09","name":"Bayern"}},{"name":"Ginsterweg","postalCode":"75378","locality":"Bad Liebenzell","municipality":{"key":"08235008","name":"Bad Liebenzell, Stadt","type":"Stadt"},"district":{"key":"08235","name":"Calw","type":"Landkreis"},"federalState":{"key":"08","name":"Baden-Württemberg"}},{"name":"Godentwiete","postalCode":"23898","locality":"Labenz","municipality":{"key":"01053079","name":"Labenz","type":"Kreisangehörige_Gemeinde"},"district":{"key":"01053","name":"Herzogtum Lauenburg","type":"Kreis"},"federalState":{"key":"01","name":"Schleswig-Holstein"}},{"name":"Goldebee","postalCode":"23970","locality":"Benz","municipality":{"key":"13074004","name":"Benz","type":"Kreisangehörige_Gemeinde"},"district":{"key":"13074","name":"Nordwestmecklenburg","type":"Landkreis"},"federalState":{"key":"13","name":"Mecklenburg-Vorpommern"}},{"name":"Goldschmiedweg","postalCode":"75378","locality":"Bad Liebenzell","municipality":{"key":"08235008","name":"Bad Liebenzell, Stadt","type":"Stadt"},"district":{"key":"08235","name":"Calw","type":"Landkreis"},"federalState":{"key":"08","name":"Baden-Württemberg"}},{"name":"Gottlob-Rau-Str.","postalCode":"75378","locality":"Bad Liebenzell","municipality":{"key":"08235008","name":"Bad Liebenzell, Stadt","type":"Stadt"},"district":{"key":"08235","name":"Calw","type":"Landkreis"},"federalState":{"key":"08","name":"Baden-Württemberg"}},{"name":"Grasgartenweg","postalCode":"82194","locality":"Gröbenzell","municipality":{"key":"09179126","name":"Gröbenzell","type":"Kreisangehörige_Gemeinde"},"district":{"key":"09179","name":"Fürstenfeldbruck","type":"Landkreis"},"federalState":{"key":"09","name":"Bayern"}},{"name":"Graßlfinger Str.","postalCode":"82194","locality":"Gröbenzell","municipality":{"key":"09179126","name":"Gröbenzell","type":"Kreisangehörige_Gemeinde"},"district":{"key":"09179","name":"Fürstenfeldbruck","type":"Landkreis"},"federalState":{"key":"09","name":"Bayern"}},{"name":"Grasweg","postalCode":"82194","locality":"Gröbenzell","municipality":{"key":"09179126","name":"Gröbenzell","type":"Kreisangehörige_Gemeinde"},"district":{"key":"09179","name":"Fürstenfeldbruck","type":"Landkreis"},"federalState":{"key":"09","name":"Bayern"}},{"name":"Gröbenbachstr.","postalCode":"82194","locality":"Gröbenzell","municipality":{"key":"09179126","name":"Gröbenzell","type":"Kreisangehörige_Gemeinde"},"district":{"key":"09179","name":"Fürstenfeldbruck","type":"Landkreis"},"federalState":{"key":"09","name":"Bayern"}},{"name":"Gröbenhüterstr.","postalCode":"82194","locality":"Gröbenzell","municipality":{"key":"09179126","name":"Gröbenzell","type":"Kreisangehörige_Gemeinde"},"district":{"key":"09179","name":"Fürstenfeldbruck","type":"Landkreis"},"federalState":{"key":"09","name":"Bayern"}},{"name":"Gründlesweg","postalCode":"75378","locality":"Bad Liebenzell","municipality":{"key":"08235008","name":"Bad Liebenzell, Stadt","type":"Stadt"},"district":{"key":"08235","name":"Calw","type":"Landkreis"},"federalState":{"key":"08","name":"Baden-Württemberg"}},{"name":"Grünfinkenstr.","postalCode":"82194","locality":"Gröbenzell","municipality":{"key":"09179126","name":"Gröbenzell","type":"Kreisangehörige_Gemeinde"},"district":{"key":"09179","name":"Fürstenfeldbruck","type":"Landkreis"},"federalState":{"key":"09","name":"Bayern"}},{"name":"Grünstr.","postalCode":"75378","locality":"Bad Liebenzell","municipality":{"key":"08235008","name":"Bad Liebenzell, Stadt","type":"Stadt"},"district":{"key":"08235","name":"Calw","type":"Landkreis"},"federalState":{"key":"08","name":"Baden-Württemberg"}},{"name":"Grünstreifen am Gröbenbach","postalCode":"82194","locality":"Gröbenzell","municipality":{"key":"09179126","name":"Gröbenzell","type":"Kreisangehörige_Gemeinde"},"district":{"key":"09179","name":"Fürstenfeldbruck","type":"Landkreis"},"federalState":{"key":"09","name":"Bayern"}},{"name":"Hahlenweg","postalCode":"75378","locality":"Bad Liebenzell","municipality":{"key":"08235008","name":"Bad Liebenzell, Stadt","type":"Stadt"},"district":{"key":"08235","name":"Calw","type":"Landkreis"},"federalState":{"key":"08","name":"Baden-Württemberg"}},{"name":"Hainbuchenweg","postalCode":"82194","locality":"Gröbenzell","municipality":{"key":"09179126","name":"Gröbenzell","type":"Kreisangehörige_Gemeinde"},"district":{"key":"09179","name":"Fürstenfeldbruck","type":"Landkreis"},"federalState":{"key":"09","name":"Bayern"}},{"name":"Hans-Kerle-Str.","postalCode":"82194","locality":"Gröbenzell","municipality":{"key":"09179126","name":"Gröbenzell","type":"Kreisangehörige_Gemeinde"},"district":{"key":"09179","name":"Fürstenfeldbruck","type":"Landkreis"},"federalState":{"key":"09","name":"Bayern"}},{"name":"Hans-Sachs-Str.","postalCode":"82194","locality":"Gröbenzell","municipality":{"key":"09179126","name":"Gröbenzell","type":"Kreisangehörige_Gemeinde"},"district":{"key":"09179","name":"Fürstenfeldbruck","type":"Landkreis"},"federalState":{"key":"09","name":"Bayern"}},{"name":"Hans-Schiedt-Weg","postalCode":"75378","locality":"Bad Liebenzell","municipality":{"key":"08235008","name":"Bad Liebenzell, Stadt","type":"Stadt"},"district":{"key":"08235","name":"Calw","type":"Landkreis"},"federalState":{"key":"08","name":"Baden-Württemberg"}},{"name":"Härdlesweg","postalCode":"75378","locality":"Bad Liebenzell","municipality":{"key":"08235008","name":"Bad Liebenzell, Stadt","type":"Stadt"},"district":{"key":"08235","name":"Calw","type":"Landkreis"},"federalState":{"key":"08","name":"Baden-Württemberg"}},{"name":"Harry-Schulz-Weg","postalCode":"75378","locality":"Bad Liebenzell","municipality":{"key":"08235008","name":"Bad Liebenzell, Stadt","type":"Stadt"},"district":{"key":"08235","name":"Calw","type":"Landkreis"},"federalState":{"key":"08","name":"Baden-Württemberg"}},{"name":"Haselbergweg","postalCode":"55494","locality":"Benzweiler","municipality":{"key":"07140011","name":"Benzweiler","type":"Kreisangehörige_Gemeinde"},"district":{"key":"07140","name":"Rhein-Hunsrück-Kreis","type":"Landkreis"},"federalState":{"key":"07","name":"Rheinland-Pfalz"}},{"name":"Hasenweg","postalCode":"75378","locality":"Bad Liebenzell","municipality":{"key":"08235008","name":"Bad Liebenzell, Stadt","type":"Stadt"},"district":{"key":"08235","name":"Calw","type":"Landkreis"},"federalState":{"key":"08","name":"Baden-Württemberg"}},{"name":"Hauptstr.","postalCode":"23898","locality":"Labenz","municipality":{"key":"01053079","name":"Labenz","type":"Kreisangehörige_Gemeinde"},"district":{"key":"01053","name":"Herzogtum Lauenburg","type":"Kreis"},"federalState":{"key":"01","name":"Schleswig-Holstein"}},{"name":"Hauptstr.","postalCode":"55494","locality":"Benzweiler","municipality":{"key":"07140011","name":"Benzweiler","type":"Kreisangehörige_Gemeinde"},"district":{"key":"07140","name":"Rhein-Hunsrück-Kreis","type":"Landkreis"},"federalState":{"key":"07","name":"Rheinland-Pfalz"}},{"name":"Hauswiesen","postalCode":"75378","locality":"Bad Liebenzell","municipality":{"key":"08235008","name":"Bad Liebenzell, Stadt","type":"Stadt"},"district":{"key":"08235","name":"Calw","type":"Landkreis"},"federalState":{"key":"08","name":"Baden-Württemberg"}},{"name":"Heidestr.","postalCode":"82194","locality":"Gröbenzell","municipality":{"key":"09179126","name":"Gröbenzell","type":"Kreisangehörige_Gemeinde"},"district":{"key":"09179","name":"Fürstenfeldbruck","type":"Landkreis"},"federalState":{"key":"09","name":"Bayern"}},{"name":"Heideweg","postalCode":"75378","locality":"Bad Liebenzell","municipality":{"key":"08235008","name":"Bad Liebenzell, Stadt","type":"Stadt"},"district":{"key":"08235","name":"Calw","type":"Landkreis"},"federalState":{"key":"08","name":"Baden-Württemberg"}},{"name":"Heimsplanie","postalCode":"75378","locality":"Bad Liebenzell","municipality":{"key":"08235008","name":"Bad Liebenzell, Stadt","type":"Stadt"},"district":{"key":"08235","name":"Calw","type":"Landkreis"},"federalState":{"key":"08","name":"Baden-Württemberg"}},{"name":"Heinrich-Coerper-Weg","postalCode":"75378","locality":"Bad Liebenzell","municipality":{"key":"08235008","name":"Bad Liebenzell, Stadt","type":"Stadt"},"district":{"key":"08235","name":"Calw","type":"Landkreis"},"federalState":{"key":"08","name":"Baden-Württemberg"}},{"name":"Heinrich-Häberle-Str.","postalCode":"82194","locality":"Gröbenzell","municipality":{"key":"09179126","name":"Gröbenzell","type":"Kreisangehörige_Gemeinde"},"district":{"key":"09179","name":"Fürstenfeldbruck","type":"Landkreis"},"federalState":{"key":"09","name":"Bayern"}},{"name":"Heinrich-Sauter-Weg","postalCode":"75378","locality":"Bad Liebenzell","municipality":{"key":"08235008","name":"Bad Liebenzell, Stadt","type":"Stadt"},"district":{"key":"08235","name":"Calw","type":"Landkreis"},"federalState":{"key":"08","name":"Baden-Württemberg"}},{"name":"Hellerfeld","postalCode":"23898","locality":"Labenz","municipality":{"key":"01053079","name":"Labenz","type":"Kreisangehörige_Gemeinde"},"district":{"key":"01053","name":"Herzogtum Lauenburg","type":"Kreis"},"federalState":{"key":"01","name":"Schleswig-Holstein"}},{"name":"Herbststr.","postalCode":"82194","locality":"Gröbenzell","municipality":{"key":"09179126","name":"Gröbenzell","type":"Kreisangehörige_Gemeinde"},"district":{"key":"09179","name":"Fürstenfeldbruck","type":"Landkreis"},"federalState":{"key":"09","name":"Bayern"}},{"name":"Hermann-Hesse-Str.","postalCode":"75378","locality":"Bad Liebenzell","municipality":{"key":"08235008","name":"Bad Liebenzell, Stadt","type":"Stadt"},"district":{"key":"08235","name":"Calw","type":"Landkreis"},"federalState":{"key":"08","name":"Baden-Württemberg"}},{"name":"Hermann-Löns-Str.","postalCode":"82194","locality":"Gröbenzell","municipality":{"key":"09179126","name":"Gröbenzell","type":"Kreisangehörige_Gemeinde"},"district":{"key":"09179","name":"Fürstenfeldbruck","type":"Landkreis"},"federalState":{"key":"09","name":"Bayern"}},{"name":"Hindenburgstr.","postalCode":"75378","locality":"Bad Liebenzell","municipality":{"key":"08235008","name":"Bad Liebenzell, Stadt","type":"Stadt"},"district":{"key":"08235","name":"Calw","type":"Landkreis"},"federalState":{"key":"08","name":"Baden-Württemberg"}},{"name":"Hirsauer Str.","postalCode":"75378","locality":"Bad Liebenzell","municipality":{"key":"08235008","name":"Bad Liebenzell, Stadt","type":"Stadt"},"district":{"key":"08235","name":"Calw","type":"Landkreis"},"federalState":{"key":"08","name":"Baden-Württemberg"}},{"name":"Hirschweg","postalCode":"75378","locality":"Bad Liebenzell","municipality":{"key":"08235008","name":"Bad Liebenzell, Stadt","type":"Stadt"},"district":{"key":"08235","name":"Calw","type":"Landkreis"},"federalState":{"key":"08","name":"Baden-Württemberg"}},{"name":"Hochholzsträßchen","postalCode":"75378","locality":"Bad Liebenzell","municipality":{"key":"08235008","name":"Bad Liebenzell, Stadt","type":"Stadt"},"district":{"key":"08235","name":"Calw","type":"Landkreis"},"federalState":{"key":"08","name":"Baden-Württemberg"}},{"name":"Hochwiesenweg","postalCode":"75378","locality":"Bad Liebenzell","municipality":{"key":"08235008","name":"Bad Liebenzell, Stadt","type":"Stadt"},"district":{"key":"08235","name":"Calw","type":"Landkreis"},"federalState":{"key":"08","name":"Baden-Württemberg"}},{"name":"Hofäckerweg","postalCode":"75378","locality":"Bad Liebenzell","municipality":{"key":"08235008","name":"Bad Liebenzell, Stadt","type":"Stadt"},"district":{"key":"08235","name":"Calw","type":"Landkreis"},"federalState":{"key":"08","name":"Baden-Württemberg"}},{"name":"Höhenstr.","postalCode":"75378","locality":"Bad Liebenzell","municipality":{"key":"08235008","name":"Bad Liebenzell, Stadt","type":"Stadt"},"district":{"key":"08235","name":"Calw","type":"Landkreis"},"federalState":{"key":"08","name":"Baden-Württemberg"}},{"name":"Hölderlinstr.","postalCode":"75378","locality":"Bad Liebenzell","municipality":{"key":"08235008","name":"Bad Liebenzell, Stadt","type":"Stadt"},"district":{"key":"08235","name":"Calw","type":"Landkreis"},"federalState":{"key":"08","name":"Baden-Württemberg"}},{"name":"Hollerweg","postalCode":"82194","locality":"Gröbenzell","municipality":{"key":"09179126","name":"Gröbenzell","type":"Kreisangehörige_Gemeinde"},"district":{"key":"09179","name":"Fürstenfeldbruck","type":"Landkreis"},"federalState":{"key":"09","name":"Bayern"}},{"name":"Holunderweg","postalCode":"75378","locality":"Bad Liebenzell","municipality":{"key":"08235008","name":"Bad Liebenzell, Stadt","type":"Stadt"},"district":{"key":"08235","name":"Calw","type":"Landkreis"},"federalState":{"key":"08","name":"Baden-Württemberg"}},{"name":"Hopfweg","postalCode":"75378","locality":"Bad Liebenzell","municipality":{"key":"08235008","name":"Bad Liebenzell, Stadt","type":"Stadt"},"district":{"key":"08235","name":"Calw","type":"Landkreis"},"federalState":{"key":"08","name":"Baden-Württemberg"}},{"name":"Hörnlesweg","postalCode":"75378","locality":"Bad Liebenzell","municipality":{"key":"08235008","name":"Bad Liebenzell, Stadt","type":"Stadt"},"district":{"key":"08235","name":"Calw","type":"Landkreis"},"federalState":{"key":"08","name":"Baden-Württemberg"}},{"name":"Hubertusstr.","postalCode":"82194","locality":"Gröbenzell","municipality":{"key":"09179126","name":"Gröbenzell","type":"Kreisangehörige_Gemeinde"},"district":{"key":"09179","name":"Fürstenfeldbruck","type":"Landkreis"},"federalState":{"key":"09","name":"Bayern"}},{"name":"Hugo-Mäulen-Str.","postalCode":"75378","locality":"Bad Liebenzell","municipality":{"key":"08235008","name":"Bad Liebenzell, Stadt","type":"Stadt"},"district":{"key":"08235","name":"Calw","type":"Landkreis"},"federalState":{"key":"08","name":"Baden-Württemberg"}},{"name":"Igelslocher Str.","postalCode":"75378","locality":"Bad Liebenzell","municipality":{"key":"08235008","name":"Bad Liebenzell, Stadt","type":"Stadt"},"district":{"key":"08235","name":"Calw","type":"Landkreis"},"federalState":{"key":"08","name":"Baden-Württemberg"}},{"name":"Ihlenfeldstr.","postalCode":"17429","locality":"Benz","municipality":{"key":"13075010","name":"Benz","type":"Kreisangehörige_Gemeinde"},"district":{"key":"13075","name":"Vorpommern-Greifswald","type":"Landkreis"},"federalState":{"key":"13","name":"Mecklenburg-Vorpommern"}},{"name":"Iltisweg","postalCode":"75378","locality":"Bad Liebenzell","municipality":{"key":"08235008","name":"Bad Liebenzell, Stadt","type":"Stadt"},"district":{"key":"08235","name":"Calw","type":"Landkreis"},"federalState":{"key":"08","name":"Baden-Württemberg"}},{"name":"Im Birkhau","postalCode":"75378","locality":"Bad Liebenzell","municipality":{"key":"08235008","name":"Bad Liebenzell, Stadt","type":"Stadt"},"district":{"key":"08235","name":"Calw","type":"Landkreis"},"federalState":{"key":"08","name":"Baden-Württemberg"}},{"name":"Im Blumenstiel","postalCode":"75378","locality":"Bad Liebenzell","municipality":{"key":"08235008","name":"Bad Liebenzell, Stadt","type":"Stadt"},"district":{"key":"08235","name":"Calw","type":"Landkreis"},"federalState":{"key":"08","name":"Baden-Württemberg"}},{"name":"Im Dorfe","postalCode":"23898","locality":"Labenz","municipality":{"key":"01053079","name":"Labenz","type":"Kreisangehörige_Gemeinde"},"district":{"key":"01053","name":"Herzogtum Lauenburg","type":"Kreis"},"federalState":{"key":"01","name":"Schleswig-Holstein"}},{"name":"Im Eichenhau","postalCode":"75378","locality":"Bad Liebenzell","municipality":{"key":"08235008","name":"Bad Liebenzell, Stadt","type":"Stadt"},"district":{"key":"08235","name":"Calw","type":"Landkreis"},"federalState":{"key":"08","name":"Baden-Württemberg"}},{"name":"Im Gäßle","postalCode":"75378","locality":"Bad Liebenzell","municipality":{"key":"08235008","name":"Bad Liebenzell, Stadt","type":"Stadt"},"district":{"key":"08235","name":"Calw","type":"Landkreis"},"federalState":{"key":"08","name":"Baden-Württemberg"}},{"name":"Im Gründle","postalCode":"75378","locality":"Bad Liebenzell","municipality":{"key":"08235008","name":"Bad Liebenzell, Stadt","type":"Stadt"},"district":{"key":"08235","name":"Calw","type":"Landkreis"},"federalState":{"key":"08","name":"Baden-Württemberg"}},{"name":"Im Nagoldtal","postalCode":"75378","locality":"Bad Liebenzell","municipality":{"key":"08235008","name":"Bad Liebenzell, Stadt","type":"Stadt"},"district":{"key":"08235","name":"Calw","type":"Landkreis"},"federalState":{"key":"08","name":"Baden-Württemberg"}},{"name":"Im Ruhwinkel","postalCode":"23898","locality":"Labenz","municipality":{"key":"01053079","name":"Labenz","type":"Kreisangehörige_Gemeinde"},"district":{"key":"01053","name":"Herzogtum Lauenburg","type":"Kreis"},"federalState":{"key":"01","name":"Schleswig-Holstein"}},{"name":"Im Vogelsang","postalCode":"75378","locality":"Bad Liebenzell","municipality":{"key":"08235008","name":"Bad Liebenzell, Stadt","type":"Stadt"},"district":{"key":"08235","name":"Calw","type":"Landkreis"},"federalState":{"key":"08","name":"Baden-Württemberg"}},{"name":"Im Weckartshäuser","postalCode":"75378","locality":"Bad Liebenzell","municipality":{"key":"08235008","name":"Bad Liebenzell, Stadt","type":"Stadt"},"district":{"key":"08235","name":"Calw","type":"Landkreis"},"federalState":{"key":"08","name":"Baden-Württemberg"}},{"name":"Im Weidenfeld","postalCode":"75378","locality":"Bad Liebenzell","municipality":{"key":"08235008","name":"Bad Liebenzell, Stadt","type":"Stadt"},"district":{"key":"08235","name":"Calw","type":"Landkreis"},"federalState":{"key":"08","name":"Baden-Württemberg"}},{"name":"Im Wiesengrund","postalCode":"55494","locality":"Benzweiler","municipality":{"key":"07140011","name":"Benzweiler","type":"Kreisangehörige_Gemeinde"},"district":{"key":"07140","name":"Rhein-Hunsrück-Kreis","type":"Landkreis"},"federalState":{"key":"07","name":"Rheinland-Pfalz"}},{"name":"Im Zeil","postalCode":"75378","locality":"Bad Liebenzell","municipality":{"key":"08235008","name":"Bad Liebenzell, Stadt","type":"Stadt"},"district":{"key":"08235","name":"Calw","type":"Landkreis"},"federalState":{"key":"08","name":"Baden-Württemberg"}},{"name":"Im Zwerneck","postalCode":"75378","locality":"Bad Liebenzell","municipality":{"key":"08235008","name":"Bad Liebenzell, Stadt","type":"Stadt"},"district":{"key":"08235","name":"Calw","type":"Landkreis"},"federalState":{"key":"08","name":"Baden-Württemberg"}},{"name":"In den Gärten","postalCode":"75378","locality":"Bad Liebenzell","municipality":{"key":"08235008","name":"Bad Liebenzell, Stadt","type":"Stadt"},"district":{"key":"08235","name":"Calw","type":"Landkreis"},"federalState":{"key":"08","name":"Baden-Württemberg"}},{"name":"In der Halde","postalCode":"75378","locality":"Bad Liebenzell","municipality":{"key":"08235008","name":"Bad Liebenzell, Stadt","type":"Stadt"},"district":{"key":"08235","name":"Calw","type":"Landkreis"},"federalState":{"key":"08","name":"Baden-Württemberg"}},{"name":"In der Steinhalde","postalCode":"75378","locality":"Bad Liebenzell","municipality":{"key":"08235008","name":"Bad Liebenzell, Stadt","type":"Stadt"},"district":{"key":"08235","name":"Calw","type":"Landkreis"},"federalState":{"key":"08","name":"Baden-Württemberg"}},{"name":"Industriestr.","postalCode":"82194","locality":"Gröbenzell","municipality":{"key":"09179126","name":"Gröbenzell","type":"Kreisangehörige_Gemeinde"},"district":{"key":"09179","name":"Fürstenfeldbruck","type":"Landkreis"},"federalState":{"key":"09","name":"Bayern"}},{"name":"Innsbrucker Str.","postalCode":"82194","locality":"Gröbenzell","municipality":{"key":"09179126","name":"Gröbenzell","type":"Kreisangehörige_Gemeinde"},"district":{"key":"09179","name":"Fürstenfeldbruck","type":"Landkreis"},"federalState":{"key":"09","name":"Bayern"}},{"name":"Irisstr.","postalCode":"82194","locality":"Gröbenzell","municipality":{"key":"09179126","name":"Gröbenzell","type":"Kreisangehörige_Gemeinde"},"district":{"key":"09179","name":"Fürstenfeldbruck","type":"Landkreis"},"federalState":{"key":"09","name":"Bayern"}},{"name":"Jägerheimstr.","postalCode":"82194","locality":"Gröbenzell","municipality":{"key":"09179126","name":"Gröbenzell","type":"Kreisangehörige_Gemeinde"},"district":{"key":"09179","name":"Fürstenfeldbruck","type":"Landkreis"},"federalState":{"key":"09","name":"Bayern"}},{"name":"Jägerstr.","postalCode":"82194","locality":"Gröbenzell","municipality":{"key":"09179126","name":"Gröbenzell","type":"Kreisangehörige_Gemeinde"},"district":{"key":"09179","name":"Fürstenfeldbruck","type":"Landkreis"},"federalState":{"key":"09","name":"Bayern"}},{"name":"Jägerweg","postalCode":"75378","locality":"Bad Liebenzell","municipality":{"key":"08235008","name":"Bad Liebenzell, Stadt","type":"Stadt"},"district":{"key":"08235","name":"Calw","type":"Landkreis"},"federalState":{"key":"08","name":"Baden-Württemberg"}},{"name":"Jahnstr.","postalCode":"75378","locality":"Bad Liebenzell","municipality":{"key":"08235008","name":"Bad Liebenzell, Stadt","type":"Stadt"},"district":{"key":"08235","name":"Calw","type":"Landkreis"},"federalState":{"key":"08","name":"Baden-Württemberg"}},{"name":"Johannes-Brenz-Str.","postalCode":"75378","locality":"Bad Liebenzell","municipality":{"key":"08235008","name":"Bad Liebenzell, Stadt","type":"Stadt"},"district":{"key":"08235","name":"Calw","type":"Landkreis"},"federalState":{"key":"08","name":"Baden-Württemberg"}},{"name":"Johannes-Kepler-Str.","postalCode":"75378","locality":"Bad Liebenzell","municipality":{"key":"08235008","name":"Bad Liebenzell, Stadt","type":"Stadt"},"district":{"key":"08235","name":"Calw","type":"Landkreis"},"federalState":{"key":"08","name":"Baden-Württemberg"}},{"name":"Kaffeehofweg","postalCode":"75378","locality":"Bad Liebenzell","municipality":{"key":"08235008","name":"Bad Liebenzell, Stadt","type":"Stadt"},"district":{"key":"08235","name":"Calw","type":"Landkreis"},"federalState":{"key":"08","name":"Baden-Württemberg"}},{"name":"Kaffeeweg","postalCode":"75378","locality":"Bad Liebenzell","municipality":{"key":"08235008","name":"Bad Liebenzell, Stadt","type":"Stadt"},"district":{"key":"08235","name":"Calw","type":"Landkreis"},"federalState":{"key":"08","name":"Baden-Württemberg"}},{"name":"Kalsow","postalCode":"23970","locality":"Benz","municipality":{"key":"13074004","name":"Benz","type":"Kreisangehörige_Gemeinde"},"district":{"key":"13074","name":"Nordwestmecklenburg","type":"Landkreis"},"federalState":{"key":"13","name":"Mecklenburg-Vorpommern"}},{"name":"Kamphörnstr.","postalCode":"17429","locality":"Benz","municipality":{"key":"13075010","name":"Benz","type":"Kreisangehörige_Gemeinde"},"district":{"key":"13075","name":"Vorpommern-Greifswald","type":"Landkreis"},"federalState":{"key":"13","name":"Mecklenburg-Vorpommern"}},{"name":"Karl-Greiner-Weg","postalCode":"75378","locality":"Bad Liebenzell","municipality":{"key":"08235008","name":"Bad Liebenzell, Stadt","type":"Stadt"},"district":{"key":"08235","name":"Calw","type":"Landkreis"},"federalState":{"key":"08","name":"Baden-Württemberg"}},{"name":"Karl-Hammann Weg","postalCode":"75378","locality":"Bad Liebenzell","municipality":{"key":"08235008","name":"Bad Liebenzell, Stadt","type":"Stadt"},"district":{"key":"08235","name":"Calw","type":"Landkreis"},"federalState":{"key":"08","name":"Baden-Württemberg"}},{"name":"Karl-Mohr-Weg","postalCode":"75378","locality":"Bad Liebenzell","municipality":{"key":"08235008","name":"Bad Liebenzell, Stadt","type":"Stadt"},"district":{"key":"08235","name":"Calw","type":"Landkreis"},"federalState":{"key":"08","name":"Baden-Württemberg"}},{"name":"Karlstr.","postalCode":"75378","locality":"Bad Liebenzell","municipality":{"key":"08235008","name":"Bad Liebenzell, Stadt","type":"Stadt"},"district":{"key":"08235","name":"Calw","type":"Landkreis"},"federalState":{"key":"08","name":"Baden-Württemberg"}},{"name":"Karmelstr.","postalCode":"75378","locality":"Bad Liebenzell","municipality":{"key":"08235008","name":"Bad Liebenzell, Stadt","type":"Stadt"},"district":{"key":"08235","name":"Calw","type":"Landkreis"},"federalState":{"key":"08","name":"Baden-Württemberg"}},{"name":"Karwendelstr.","postalCode":"82194","locality":"Gröbenzell","municipality":{"key":"09179126","name":"Gröbenzell","type":"Kreisangehörige_Gemeinde"},"district":{"key":"09179","name":"Fürstenfeldbruck","type":"Landkreis"},"federalState":{"key":"09","name":"Bayern"}},{"name":"Kastanienweg","postalCode":"82194","locality":"Gröbenzell","municipality":{"key":"09179126","name":"Gröbenzell","type":"Kreisangehörige_Gemeinde"},"district":{"key":"09179","name":"Fürstenfeldbruck","type":"Landkreis"},"federalState":{"key":"09","name":"Bayern"}},{"name":"Kiefernstr.","postalCode":"82194","locality":"Gröbenzell","municipality":{"key":"09179126","name":"Gröbenzell","type":"Kreisangehörige_Gemeinde"},"district":{"key":"09179","name":"Fürstenfeldbruck","type":"Landkreis"},"federalState":{"key":"09","name":"Bayern"}},{"name":"Kiefersweg","postalCode":"75378","locality":"Bad Liebenzell","municipality":{"key":"08235008","name":"Bad Liebenzell, Stadt","type":"Stadt"},"district":{"key":"08235","name":"Calw","type":"Landkreis"},"federalState":{"key":"08","name":"Baden-Württemberg"}},{"name":"Kirchberg","postalCode":"75378","locality":"Bad Liebenzell","municipality":{"key":"08235008","name":"Bad Liebenzell, Stadt","type":"Stadt"},"district":{"key":"08235","name":"Calw","type":"Landkreis"},"federalState":{"key":"08","name":"Baden-Württemberg"}},{"name":"Kirchenstr.","postalCode":"82194","locality":"Gröbenzell","municipality":{"key":"09179126","name":"Gröbenzell","type":"Kreisangehörige_Gemeinde"},"district":{"key":"09179","name":"Fürstenfeldbruck","type":"Landkreis"},"federalState":{"key":"09","name":"Bayern"}},{"name":"Kirchgässle","postalCode":"75378","locality":"Bad Liebenzell","municipality":{"key":"08235008","name":"Bad Liebenzell, Stadt","type":"Stadt"},"district":{"key":"08235","name":"Calw","type":"Landkreis"},"federalState":{"key":"08","name":"Baden-Württemberg"}},{"name":"Kirchstr.","postalCode":"17429","locality":"Benz","municipality":{"key":"13075010","name":"Benz","type":"Kreisangehörige_Gemeinde"},"district":{"key":"13075","name":"Vorpommern-Greifswald","type":"Landkreis"},"federalState":{"key":"13","name":"Mecklenburg-Vorpommern"}},{"name":"Kirchstr.","postalCode":"75378","locality":"Bad Liebenzell","municipality":{"key":"08235008","name":"Bad Liebenzell, Stadt","type":"Stadt"},"district":{"key":"08235","name":"Calw","type":"Landkreis"},"federalState":{"key":"08","name":"Baden-Württemberg"}},{"name":"Klematisstr.","postalCode":"82194","locality":"Gröbenzell","municipality":{"key":"09179126","name":"Gröbenzell","type":"Kreisangehörige_Gemeinde"},"district":{"key":"09179","name":"Fürstenfeldbruck","type":"Landkreis"},"federalState":{"key":"09","name":"Bayern"}},{"name":"Kobellstr.","postalCode":"82194","locality":"Gröbenzell","municipality":{"key":"09179126","name":"Gröbenzell","type":"Kreisangehörige_Gemeinde"},"district":{"key":"09179","name":"Fürstenfeldbruck","type":"Landkreis"},"federalState":{"key":"09","name":"Bayern"}},{"name":"Kochelseestr.","postalCode":"82194","locality":"Gröbenzell","municipality":{"key":"09179126","name":"Gröbenzell","type":"Kreisangehörige_Gemeinde"},"district":{"key":"09179","name":"Fürstenfeldbruck","type":"Landkreis"},"federalState":{"key":"09","name":"Bayern"}},{"name":"Köhlerweg","postalCode":"75378","locality":"Bad Liebenzell","municipality":{"key":"08235008","name":"Bad Liebenzell, Stadt","type":"Stadt"},"district":{"key":"08235","name":"Calw","type":"Landkreis"},"federalState":{"key":"08","name":"Baden-Württemberg"}},{"name":"Kollbachstr.","postalCode":"75378","locality":"Bad Liebenzell","municipality":{"key":"08235008","name":"Bad Liebenzell, Stadt","type":"Stadt"},"district":{"key":"08235","name":"Calw","type":"Landkreis"},"federalState":{"key":"08","name":"Baden-Württemberg"}},{"name":"Kollbachtalweg","postalCode":"75378","locality":"Bad Liebenzell","municipality":{"key":"08235008","name":"Bad Liebenzell, Stadt","type":"Stadt"},"district":{"key":"08235","name":"Calw","type":"Landkreis"},"federalState":{"key":"08","name":"Baden-Württemberg"}},{"name":"Kollbachweg","postalCode":"75378","locality":"Bad Liebenzell","municipality":{"key":"08235008","name":"Bad Liebenzell, Stadt","type":"Stadt"},"district":{"key":"08235","name":"Calw","type":"Landkreis"},"federalState":{"key":"08","name":"Baden-Württemberg"}},{"name":"Koloniestr.","postalCode":"82194","locality":"Gröbenzell","municipality":{"key":"09179126","name":"Gröbenzell","type":"Kreisangehörige_Gemeinde"},"district":{"key":"09179","name":"Fürstenfeldbruck","type":"Landkreis"},"federalState":{"key":"09","name":"Bayern"}},{"name":"Köpflesweg","postalCode":"75378","locality":"Bad Liebenzell","municipality":{"key":"08235008","name":"Bad Liebenzell, Stadt","type":"Stadt"},"district":{"key":"08235","name":"Calw","type":"Landkreis"},"federalState":{"key":"08","name":"Baden-Württemberg"}},{"name":"Krautgarten","postalCode":"75378","locality":"Bad Liebenzell","municipality":{"key":"08235008","name":"Bad Liebenzell, Stadt","type":"Stadt"},"district":{"key":"08235","name":"Calw","type":"Landkreis"},"federalState":{"key":"08","name":"Baden-Württemberg"}},{"name":"Kreuzbreitlstr.","postalCode":"82194","locality":"Gröbenzell","municipality":{"key":"09179126","name":"Gröbenzell","type":"Kreisangehörige_Gemeinde"},"district":{"key":"09179","name":"Fürstenfeldbruck","type":"Landkreis"},"federalState":{"key":"09","name":"Bayern"}},{"name":"Kreuzeckstr.","postalCode":"82194","locality":"Gröbenzell","municipality":{"key":"09179126","name":"Gröbenzell","type":"Kreisangehörige_Gemeinde"},"district":{"key":"09179","name":"Fürstenfeldbruck","type":"Landkreis"},"federalState":{"key":"09","name":"Bayern"}},{"name":"Kreuzsträsschen","postalCode":"75378","locality":"Bad Liebenzell","municipality":{"key":"08235008","name":"Bad Liebenzell, Stadt","type":"Stadt"},"district":{"key":"08235","name":"Calw","type":"Landkreis"},"federalState":{"key":"08","name":"Baden-Württemberg"}},{"name":"Kröcksweg","postalCode":"75378","locality":"Bad Liebenzell","municipality":{"key":"08235008","name":"Bad Liebenzell, Stadt","type":"Stadt"},"district":{"key":"08235","name":"Calw","type":"Landkreis"},"federalState":{"key":"08","name":"Baden-Württemberg"}},{"name":"Kugelberg","postalCode":"75378","locality":"Bad Liebenzell","municipality":{"key":"08235008","name":"Bad Liebenzell, Stadt","type":"Stadt"},"district":{"key":"08235","name":"Calw","type":"Landkreis"},"federalState":{"key":"08","name":"Baden-Württemberg"}},{"name":"Kurhausdamm","postalCode":"75378","locality":"Bad Liebenzell","municipality":{"key":"08235008","name":"Bad Liebenzell, Stadt","type":"Stadt"},"district":{"key":"08235","name":"Calw","type":"Landkreis"},"federalState":{"key":"08","name":"Baden-Württemberg"}},{"name":"Kurpark","postalCode":"75378","locality":"Bad Liebenzell","municipality":{"key":"08235008","name":"Bad Liebenzell, Stadt","type":"Stadt"},"district":{"key":"08235","name":"Calw","type":"Landkreis"},"federalState":{"key":"08","name":"Baden-Württemberg"}},{"name":"Labömitzer Str.","postalCode":"17429","locality":"Benz","municipality":{"key":"13075010","name":"Benz","type":"Kreisangehörige_Gemeinde"},"district":{"key":"13075","name":"Vorpommern-Greifswald","type":"Landkreis"},"federalState":{"key":"13","name":"Mecklenburg-Vorpommern"}},{"name":"Lagerstr.","postalCode":"82194","locality":"Gröbenzell","municipality":{"key":"09179126","name":"Gröbenzell","type":"Kreisangehörige_Gemeinde"},"district":{"key":"09179","name":"Fürstenfeldbruck","type":"Landkreis"},"federalState":{"key":"09","name":"Bayern"}},{"name":"Lauxmannweg","postalCode":"75378","locality":"Bad Liebenzell","municipality":{"key":"08235008","name":"Bad Liebenzell, Stadt","type":"Stadt"},"district":{"key":"08235","name":"Calw","type":"Landkreis"},"federalState":{"key":"08","name":"Baden-Württemberg"}},{"name":"Lehmgrubenweg","postalCode":"75378","locality":"Bad Liebenzell","municipality":{"key":"08235008","name":"Bad Liebenzell, Stadt","type":"Stadt"},"district":{"key":"08235","name":"Calw","type":"Landkreis"},"federalState":{"key":"08","name":"Baden-Württemberg"}},{"name":"Leiblstr.","postalCode":"82194","locality":"Gröbenzell","municipality":{"key":"09179126","name":"Gröbenzell","type":"Kreisangehörige_Gemeinde"},"district":{"key":"09179","name":"Fürstenfeldbruck","type":"Landkreis"},"federalState":{"key":"09","name":"Bayern"}},{"name":"Lena-Christ-Str.","postalCode":"82194","locality":"Gröbenzell","municipality":{"key":"09179126","name":"Gröbenzell","type":"Kreisangehörige_Gemeinde"},"district":{"key":"09179","name":"Fürstenfeldbruck","type":"Landkreis"},"federalState":{"key":"09","name":"Bayern"}},{"name":"Lenbachstr.","postalCode":"82194","locality":"Gröbenzell","municipality":{"key":"09179126","name":"Gröbenzell","type":"Kreisangehörige_Gemeinde"},"district":{"key":"09179","name":"Fürstenfeldbruck","type":"Landkreis"},"federalState":{"key":"09","name":"Bayern"}},{"name":"Lengenbachweg","postalCode":"75378","locality":"Bad Liebenzell","municipality":{"key":"08235008","name":"Bad Liebenzell, Stadt","type":"Stadt"},"district":{"key":"08235","name":"Calw","type":"Landkreis"},"federalState":{"key":"08","name":"Baden-Württemberg"}},{"name":"Lenzweg","postalCode":"82194","locality":"Gröbenzell","municipality":{"key":"09179126","name":"Gröbenzell","type":"Kreisangehörige_Gemeinde"},"district":{"key":"09179","name":"Fürstenfeldbruck","type":"Landkreis"},"federalState":{"key":"09","name":"Bayern"}},{"name":"Lerchenstr.","postalCode":"75378","locality":"Bad Liebenzell","municipality":{"key":"08235008","name":"Bad Liebenzell, Stadt","type":"Stadt"},"district":{"key":"08235","name":"Calw","type":"Landkreis"},"federalState":{"key":"08","name":"Baden-Württemberg"}},{"name":"Lerchenstr.","postalCode":"82194","locality":"Gröbenzell","municipality":{"key":"09179126","name":"Gröbenzell","type":"Kreisangehörige_Gemeinde"},"district":{"key":"09179","name":"Fürstenfeldbruck","type":"Landkreis"},"federalState":{"key":"09","name":"Bayern"}},{"name":"Libellenweg","postalCode":"82194","locality":"Gröbenzell","municipality":{"key":"09179126","name":"Gröbenzell","type":"Kreisangehörige_Gemeinde"},"district":{"key":"09179","name":"Fürstenfeldbruck","type":"Landkreis"},"federalState":{"key":"09","name":"Bayern"}},{"name":"Lichtenweg","postalCode":"82194","locality":"Gröbenzell","municipality":{"key":"09179126","name":"Gröbenzell","type":"Kreisangehörige_Gemeinde"},"district":{"key":"09179","name":"Fürstenfeldbruck","type":"Landkreis"},"federalState":{"key":"09","name":"Bayern"}},{"name":"Liebenzeller Str.","postalCode":"75378","locality":"Bad Liebenzell","municipality":{"key":"08235008","name":"Bad Liebenzell, Stadt","type":"Stadt"},"district":{"key":"08235","name":"Calw","type":"Landkreis"},"federalState":{"key":"08","name":"Baden-Württemberg"}},{"name":"Liegnitzer Str.","postalCode":"82194","locality":"Gröbenzell","municipality":{"key":"09179126","name":"Gröbenzell","type":"Kreisangehörige_Gemeinde"},"district":{"key":"09179","name":"Fürstenfeldbruck","type":"Landkreis"},"federalState":{"key":"09","name":"Bayern"}},{"name":"Ligusterweg","postalCode":"75378","locality":"Bad Liebenzell","municipality":{"key":"08235008","name":"Bad Liebenzell, Stadt","type":"Stadt"},"district":{"key":"08235","name":"Calw","type":"Landkreis"},"federalState":{"key":"08","name":"Baden-Württemberg"}},{"name":"Ligusterweg","postalCode":"82194","locality":"Gröbenzell","municipality":{"key":"09179126","name":"Gröbenzell","type":"Kreisangehörige_Gemeinde"},"district":{"key":"09179","name":"Fürstenfeldbruck","type":"Landkreis"},"federalState":{"key":"09","name":"Bayern"}},{"name":"Lindenplatz","postalCode":"75378","locality":"Bad Liebenzell","municipality":{"key":"08235008","name":"Bad Liebenzell, Stadt","type":"Stadt"},"district":{"key":"08235","name":"Calw","type":"Landkreis"},"federalState":{"key":"08","name":"Baden-Württemberg"}},{"name":"Lindenstr.","postalCode":"75378","locality":"Bad Liebenzell","municipality":{"key":"08235008","name":"Bad Liebenzell, Stadt","type":"Stadt"},"district":{"key":"08235","name":"Calw","type":"Landkreis"},"federalState":{"key":"08","name":"Baden-Württemberg"}},{"name":"Lindenweg","postalCode":"82194","locality":"Gröbenzell","municipality":{"key":"09179126","name":"Gröbenzell","type":"Kreisangehörige_Gemeinde"},"district":{"key":"09179","name":"Fürstenfeldbruck","type":"Landkreis"},"federalState":{"key":"09","name":"Bayern"}},{"name":"Lindenwiesen","postalCode":"75378","locality":"Bad Liebenzell","municipality":{"key":"08235008","name":"Bad Liebenzell, Stadt","type":"Stadt"},"district":{"key":"08235","name":"Calw","type":"Landkreis"},"federalState":{"key":"08","name":"Baden-Württemberg"}},{"name":"Liobastr.","postalCode":"75378","locality":"Bad Liebenzell","municipality":{"key":"08235008","name":"Bad Liebenzell, Stadt","type":"Stadt"},"district":{"key":"08235","name":"Calw","type":"Landkreis"},"federalState":{"key":"08","name":"Baden-Württemberg"}},{"name":"Lochwald","postalCode":"75378","locality":"Bad Liebenzell","municipality":{"key":"08235008","name":"Bad Liebenzell, Stadt","type":"Stadt"},"district":{"key":"08235","name":"Calw","type":"Landkreis"},"federalState":{"key":"08","name":"Baden-Württemberg"}},{"name":"Loferweg","postalCode":"82194","locality":"Gröbenzell","municipality":{"key":"09179126","name":"Gröbenzell","type":"Kreisangehörige_Gemeinde"},"district":{"key":"09179","name":"Fürstenfeldbruck","type":"Landkreis"},"federalState":{"key":"09","name":"Bayern"}},{"name":"Lüchower Weg","postalCode":"23898","locality":"Labenz","municipality":{"key":"01053079","name":"Labenz","type":"Kreisangehörige_Gemeinde"},"district":{"key":"01053","name":"Herzogtum Lauenburg","type":"Kreis"},"federalState":{"key":"01","name":"Schleswig-Holstein"}},{"name":"Luchsweg","postalCode":"75378","locality":"Bad Liebenzell","municipality":{"key":"08235008","name":"Bad Liebenzell, Stadt","type":"Stadt"},"district":{"key":"08235","name":"Calw","type":"Landkreis"},"federalState":{"key":"08","name":"Baden-Württemberg"}},{"name":"Ludwig-Finckh-Weg","postalCode":"75378","locality":"Bad Liebenzell","municipality":{"key":"08235008","name":"Bad Liebenzell, Stadt","type":"Stadt"},"district":{"key":"08235","name":"Calw","type":"Landkreis"},"federalState":{"key":"08","name":"Baden-Württemberg"}},{"name":"Ludwig-Thoma-Str.","postalCode":"82194","locality":"Gröbenzell","municipality":{"key":"09179126","name":"Gröbenzell","type":"Kreisangehörige_Gemeinde"},"district":{"key":"09179","name":"Fürstenfeldbruck","type":"Landkreis"},"federalState":{"key":"09","name":"Bayern"}},{"name":"Luisenstr.","postalCode":"75378","locality":"Bad Liebenzell","municipality":{"key":"08235008","name":"Bad Liebenzell, Stadt","type":"Stadt"},"district":{"key":"08235","name":"Calw","type":"Landkreis"},"federalState":{"key":"08","name":"Baden-Württemberg"}},{"name":"Lupinenweg","postalCode":"75378","locality":"Bad Liebenzell","municipality":{"key":"08235008","name":"Bad Liebenzell, Stadt","type":"Stadt"},"district":{"key":"08235","name":"Calw","type":"Landkreis"},"federalState":{"key":"08","name":"Baden-Württemberg"}},{"name":"Lupinenweg","postalCode":"82194","locality":"Gröbenzell","municipality":{"key":"09179126","name":"Gröbenzell","type":"Kreisangehörige_Gemeinde"},"district":{"key":"09179","name":"Fürstenfeldbruck","type":"Landkreis"},"federalState":{"key":"09","name":"Bayern"}},{"name":"Lyonel-Feininger-Str.","postalCode":"17429","locality":"Benz","municipality":{"key":"13075010","name":"Benz","type":"Kreisangehörige_Gemeinde"},"district":{"key":"13075","name":"Vorpommern-Greifswald","type":"Landkreis"},"federalState":{"key":"13","name":"Mecklenburg-Vorpommern"}},{"name":"Machtolfstr.","postalCode":"75378","locality":"Bad Liebenzell","municipality":{"key":"08235008","name":"Bad Liebenzell, Stadt","type":"Stadt"},"district":{"key":"08235","name":"Calw","type":"Landkreis"},"federalState":{"key":"08","name":"Baden-Württemberg"}},{"name":"Mahdsbrunnenweg","postalCode":"75378","locality":"Bad Liebenzell","municipality":{"key":"08235008","name":"Bad Liebenzell, Stadt","type":"Stadt"},"district":{"key":"08235","name":"Calw","type":"Landkreis"},"federalState":{"key":"08","name":"Baden-Württemberg"}},{"name":"Maisenbacher Str.","postalCode":"75378","locality":"Bad Liebenzell","municipality":{"key":"08235008","name":"Bad Liebenzell, Stadt","type":"Stadt"},"district":{"key":"08235","name":"Calw","type":"Landkreis"},"federalState":{"key":"08","name":"Baden-Württemberg"}},{"name":"Maistr.","postalCode":"82194","locality":"Gröbenzell","municipality":{"key":"09179126","name":"Gröbenzell","type":"Kreisangehörige_Gemeinde"},"district":{"key":"09179","name":"Fürstenfeldbruck","type":"Landkreis"},"federalState":{"key":"09","name":"Bayern"}},{"name":"Margaretenweg","postalCode":"82194","locality":"Gröbenzell","municipality":{"key":"09179126","name":"Gröbenzell","type":"Kreisangehörige_Gemeinde"},"district":{"key":"09179","name":"Fürstenfeldbruck","type":"Landkreis"},"federalState":{"key":"09","name":"Bayern"}},{"name":"Marie-Hart-Weg","postalCode":"75378","locality":"Bad Liebenzell","municipality":{"key":"08235008","name":"Bad Liebenzell, Stadt","type":"Stadt"},"district":{"key":"08235","name":"Calw","type":"Landkreis"},"federalState":{"key":"08","name":"Baden-Württemberg"}},{"name":"Markweg","postalCode":"75378","locality":"Bad Liebenzell","municipality":{"key":"08235008","name":"Bad Liebenzell, Stadt","type":"Stadt"},"district":{"key":"08235","name":"Calw","type":"Landkreis"},"federalState":{"key":"08","name":"Baden-Württemberg"}},{"name":"Maßholderweg","postalCode":"75378","locality":"Bad Liebenzell","municipality":{"key":"08235008","name":"Bad Liebenzell, Stadt","type":"Stadt"},"district":{"key":"08235","name":"Calw","type":"Landkreis"},"federalState":{"key":"08","name":"Baden-Württemberg"}},{"name":"Mastenweg","postalCode":"75378","locality":"Bad Liebenzell","municipality":{"key":"08235008","name":"Bad Liebenzell, Stadt","type":"Stadt"},"district":{"key":"08235","name":"Calw","type":"Landkreis"},"federalState":{"key":"08","name":"Baden-Württemberg"}},{"name":"Mathildenstr.","postalCode":"75378","locality":"Bad Liebenzell","municipality":{"key":"08235008","name":"Bad Liebenzell, Stadt","type":"Stadt"},"district":{"key":"08235","name":"Calw","type":"Landkreis"},"federalState":{"key":"08","name":"Baden-Württemberg"}},{"name":"Max-Ackermann-Str.","postalCode":"75378","locality":"Bad Liebenzell","municipality":{"key":"08235008","name":"Bad Liebenzell, Stadt","type":"Stadt"},"district":{"key":"08235","name":"Calw","type":"Landkreis"},"federalState":{"key":"08","name":"Baden-Württemberg"}},{"name":"Mehlweg","postalCode":"75378","locality":"Bad Liebenzell","municipality":{"key":"08235008","name":"Bad Liebenzell, Stadt","type":"Stadt"},"district":{"key":"08235","name":"Calw","type":"Landkreis"},"federalState":{"key":"08","name":"Baden-Württemberg"}},{"name":"Meierhofgasse","postalCode":"75378","locality":"Bad Liebenzell","municipality":{"key":"08235008","name":"Bad Liebenzell, Stadt","type":"Stadt"},"district":{"key":"08235","name":"Calw","type":"Landkreis"},"federalState":{"key":"08","name":"Baden-Württemberg"}},{"name":"Meisenweg","postalCode":"75378","locality":"Bad Liebenzell","municipality":{"key":"08235008","name":"Bad Liebenzell, Stadt","type":"Stadt"},"district":{"key":"08235","name":"Calw","type":"Landkreis"},"federalState":{"key":"08","name":"Baden-Württemberg"}},{"name":"Missweg","postalCode":"75378","locality":"Bad Liebenzell","municipality":{"key":"08235008","name":"Bad Liebenzell, Stadt","type":"Stadt"},"district":{"key":"08235","name":"Calw","type":"Landkreis"},"federalState":{"key":"08","name":"Baden-Württemberg"}},{"name":"Mittenwalder Str.","postalCode":"82194","locality":"Gröbenzell","municipality":{"key":"09179126","name":"Gröbenzell","type":"Kreisangehörige_Gemeinde"},"district":{"key":"09179","name":"Fürstenfeldbruck","type":"Landkreis"},"federalState":{"key":"09","name":"Bayern"}},{"name":"Monakamer Berg","postalCode":"75378","locality":"Bad Liebenzell","municipality":{"key":"08235008","name":"Bad Liebenzell, Stadt","type":"Stadt"},"district":{"key":"08235","name":"Calw","type":"Landkreis"},"federalState":{"key":"08","name":"Baden-Württemberg"}},{"name":"Monakamer Hangweg","postalCode":"75378","locality":"Bad Liebenzell","municipality":{"key":"08235008","name":"Bad Liebenzell, Stadt","type":"Stadt"},"district":{"key":"08235","name":"Calw","type":"Landkreis"},"federalState":{"key":"08","name":"Baden-Württemberg"}},{"name":"Monakamer Hütte / Kühnloch","postalCode":"75378","locality":"Bad Liebenzell","municipality":{"key":"08235008","name":"Bad Liebenzell, Stadt","type":"Stadt"},"district":{"key":"08235","name":"Calw","type":"Landkreis"},"federalState":{"key":"08","name":"Baden-Württemberg"}},{"name":"Monakamer Kirchweg","postalCode":"75378","locality":"Bad Liebenzell","municipality":{"key":"08235008","name":"Bad Liebenzell, Stadt","type":"Stadt"},"district":{"key":"08235","name":"Calw","type":"Landkreis"},"federalState":{"key":"08","name":"Baden-Württemberg"}},{"name":"Monakamer Str.","postalCode":"75378","locality":"Bad Liebenzell","municipality":{"key":"08235008","name":"Bad Liebenzell, Stadt","type":"Stadt"},"district":{"key":"08235","name":"Calw","type":"Landkreis"},"federalState":{"key":"08","name":"Baden-Württemberg"}},{"name":"Monbachstr.","postalCode":"75378","locality":"Bad Liebenzell","municipality":{"key":"08235008","name":"Bad Liebenzell, Stadt","type":"Stadt"},"district":{"key":"08235","name":"Calw","type":"Landkreis"},"federalState":{"key":"08","name":"Baden-Württemberg"}},{"name":"Monbachweg","postalCode":"75378","locality":"Bad Liebenzell","municipality":{"key":"08235008","name":"Bad Liebenzell, Stadt","type":"Stadt"},"district":{"key":"08235","name":"Calw","type":"Landkreis"},"federalState":{"key":"08","name":"Baden-Württemberg"}},{"name":"Moorweg","postalCode":"23898","locality":"Labenz","municipality":{"key":"01053079","name":"Labenz","type":"Kreisangehörige_Gemeinde"},"district":{"key":"01053","name":"Herzogtum Lauenburg","type":"Kreis"},"federalState":{"key":"01","name":"Schleswig-Holstein"}},{"name":"Moosstr.","postalCode":"82194","locality":"Gröbenzell","municipality":{"key":"09179126","name":"Gröbenzell","type":"Kreisangehörige_Gemeinde"},"district":{"key":"09179","name":"Fürstenfeldbruck","type":"Landkreis"},"federalState":{"key":"09","name":"Bayern"}},{"name":"Mörikeweg","postalCode":"75378","locality":"Bad Liebenzell","municipality":{"key":"08235008","name":"Bad Liebenzell, Stadt","type":"Stadt"},"district":{"key":"08235","name":"Calw","type":"Landkreis"},"federalState":{"key":"08","name":"Baden-Württemberg"}},{"name":"Mozartstr.","postalCode":"82194","locality":"Gröbenzell","municipality":{"key":"09179126","name":"Gröbenzell","type":"Kreisangehörige_Gemeinde"},"district":{"key":"09179","name":"Fürstenfeldbruck","type":"Landkreis"},"federalState":{"key":"09","name":"Bayern"}},{"name":"Mühlenkoppel","postalCode":"23898","locality":"Labenz","municipality":{"key":"01053079","name":"Labenz","type":"Kreisangehörige_Gemeinde"},"district":{"key":"01053","name":"Herzogtum Lauenburg","type":"Kreis"},"federalState":{"key":"01","name":"Schleswig-Holstein"}},{"name":"Mühlenweg","postalCode":"17429","locality":"Benz","municipality":{"key":"13075010","name":"Benz","type":"Kreisangehörige_Gemeinde"},"district":{"key":"13075","name":"Vorpommern-Greifswald","type":"Landkreis"},"federalState":{"key":"13","name":"Mecklenburg-Vorpommern"}},{"name":"Münklinger Str.","postalCode":"75378","locality":"Bad Liebenzell","municipality":{"key":"08235008","name":"Bad Liebenzell, Stadt","type":"Stadt"},"district":{"key":"08235","name":"Calw","type":"Landkreis"},"federalState":{"key":"08","name":"Baden-Württemberg"}},{"name":"Neandertalstr.","postalCode":"82194","locality":"Gröbenzell","municipality":{"key":"09179126","name":"Gröbenzell","type":"Kreisangehörige_Gemeinde"},"district":{"key":"09179","name":"Fürstenfeldbruck","type":"Landkreis"},"federalState":{"key":"09","name":"Bayern"}},{"name":"Nelkenstr.","postalCode":"82194","locality":"Gröbenzell","municipality":{"key":"09179126","name":"Gröbenzell","type":"Kreisangehörige_Gemeinde"},"district":{"key":"09179","name":"Fürstenfeldbruck","type":"Landkreis"},"federalState":{"key":"09","name":"Bayern"}},{"name":"Neuer Ottenbronner Weg","postalCode":"75378","locality":"Bad Liebenzell","municipality":{"key":"08235008","name":"Bad Liebenzell, Stadt","type":"Stadt"},"district":{"key":"08235","name":"Calw","type":"Landkreis"},"federalState":{"key":"08","name":"Baden-Württemberg"}},{"name":"Neuer Weg","postalCode":"75378","locality":"Bad Liebenzell","municipality":{"key":"08235008","name":"Bad Liebenzell, Stadt","type":"Stadt"},"district":{"key":"08235","name":"Calw","type":"Landkreis"},"federalState":{"key":"08","name":"Baden-Württemberg"}},{"name":"Neuhauser Str.","postalCode":"75378","locality":"Bad Liebenzell","municipality":{"key":"08235008","name":"Bad Liebenzell, Stadt","type":"Stadt"},"district":{"key":"08235","name":"Calw","type":"Landkreis"},"federalState":{"key":"08","name":"Baden-Württemberg"}},{"name":"Nordendstr.","postalCode":"82194","locality":"Gröbenzell","municipality":{"key":"09179126","name":"Gröbenzell","type":"Kreisangehörige_Gemeinde"},"district":{"key":"09179","name":"Fürstenfeldbruck","type":"Landkreis"},"federalState":{"key":"09","name":"Bayern"}},{"name":"Obere Finkensteige","postalCode":"75378","locality":"Bad Liebenzell","municipality":{"key":"08235008","name":"Bad Liebenzell, Stadt","type":"Stadt"},"district":{"key":"08235","name":"Calw","type":"Landkreis"},"federalState":{"key":"08","name":"Baden-Württemberg"}},{"name":"Oberlengenhardter Str.","postalCode":"75378","locality":"Bad Liebenzell","municipality":{"key":"08235008","name":"Bad Liebenzell, Stadt","type":"Stadt"},"district":{"key":"08235","name":"Calw","type":"Landkreis"},"federalState":{"key":"08","name":"Baden-Württemberg"}},{"name":"Olchinger Str.","postalCode":"82194","locality":"Gröbenzell","municipality":{"key":"09179126","name":"Gröbenzell","type":"Kreisangehörige_Gemeinde"},"district":{"key":"09179","name":"Fürstenfeldbruck","type":"Landkreis"},"federalState":{"key":"09","name":"Bayern"}},{"name":"Oppelner Str.","postalCode":"82194","locality":"Gröbenzell","municipality":{"key":"09179126","name":"Gröbenzell","type":"Kreisangehörige_Gemeinde"},"district":{"key":"09179","name":"Fürstenfeldbruck","type":"Landkreis"},"federalState":{"key":"09","name":"Bayern"}},{"name":"Oskar-Maria-Graf-Str.","postalCode":"82194","locality":"Gröbenzell","municipality":{"key":"09179126","name":"Gröbenzell","type":"Kreisangehörige_Gemeinde"},"district":{"key":"09179","name":"Fürstenfeldbruck","type":"Landkreis"},"federalState":{"key":"09","name":"Bayern"}},{"name":"Osterseestr.","postalCode":"82194","locality":"Gröbenzell","municipality":{"key":"09179126","name":"Gröbenzell","type":"Kreisangehörige_Gemeinde"},"district":{"key":"09179","name":"Fürstenfeldbruck","type":"Landkreis"},"federalState":{"key":"09","name":"Bayern"}},{"name":"Ottenbronner Str.","postalCode":"75378","locality":"Bad Liebenzell","municipality":{"key":"08235008","name":"Bad Liebenzell, Stadt","type":"Stadt"},"district":{"key":"08235","name":"Calw","type":"Landkreis"},"federalState":{"key":"08","name":"Baden-Württemberg"}},{"name":"Otto-Haug-Str.","postalCode":"75378","locality":"Bad Liebenzell","municipality":{"key":"08235008","name":"Bad Liebenzell, Stadt","type":"Stadt"},"district":{"key":"08235","name":"Calw","type":"Landkreis"},"federalState":{"key":"08","name":"Baden-Württemberg"}},{"name":"Panoramaweg","postalCode":"75378","locality":"Bad Liebenzell","municipality":{"key":"08235008","name":"Bad Liebenzell, Stadt","type":"Stadt"},"district":{"key":"08235","name":"Calw","type":"Landkreis"},"federalState":{"key":"08","name":"Baden-Württemberg"}},{"name":"Pappelstr.","postalCode":"82194","locality":"Gröbenzell","municipality":{"key":"09179126","name":"Gröbenzell","type":"Kreisangehörige_Gemeinde"},"district":{"key":"09179","name":"Fürstenfeldbruck","type":"Landkreis"},"federalState":{"key":"09","name":"Bayern"}},{"name":"Paracelsusweg","postalCode":"75378","locality":"Bad Liebenzell","municipality":{"key":"08235008","name":"Bad Liebenzell, Stadt","type":"Stadt"},"district":{"key":"08235","name":"Calw","type":"Landkreis"},"federalState":{"key":"08","name":"Baden-Württemberg"}},{"name":"Parkstr.","postalCode":"82194","locality":"Gröbenzell","municipality":{"key":"09179126","name":"Gröbenzell","type":"Kreisangehörige_Gemeinde"},"district":{"key":"09179","name":"Fürstenfeldbruck","type":"Landkreis"},"federalState":{"key":"09","name":"Bayern"}},{"name":"Pfarrer-Thaurer-Str.","postalCode":"82194","locality":"Gröbenzell","municipality":{"key":"09179126","name":"Gröbenzell","type":"Kreisangehörige_Gemeinde"},"district":{"key":"09179","name":"Fürstenfeldbruck","type":"Landkreis"},"federalState":{"key":"09","name":"Bayern"}},{"name":"Pfefferstr.","postalCode":"82194","locality":"Gröbenzell","municipality":{"key":"09179126","name":"Gröbenzell","type":"Kreisangehörige_Gemeinde"},"district":{"key":"09179","name":"Fürstenfeldbruck","type":"Landkreis"},"federalState":{"key":"09","name":"Bayern"}},{"name":"Pforzheimer Str.","postalCode":"75378","locality":"Bad Liebenzell","municipality":{"key":"08235008","name":"Bad Liebenzell, Stadt","type":"Stadt"},"district":{"key":"08235","name":"Calw","type":"Landkreis"},"federalState":{"key":"08","name":"Baden-Württemberg"}},{"name":"Pilsenseeweg","postalCode":"82194","locality":"Gröbenzell","municipality":{"key":"09179126","name":"Gröbenzell","type":"Kreisangehörige_Gemeinde"},"district":{"key":"09179","name":"Fürstenfeldbruck","type":"Landkreis"},"federalState":{"key":"09","name":"Bayern"}},{"name":"Poststr.","postalCode":"82194","locality":"Gröbenzell","municipality":{"key":"09179126","name":"Gröbenzell","type":"Kreisangehörige_Gemeinde"},"district":{"key":"09179","name":"Fürstenfeldbruck","type":"Landkreis"},"federalState":{"key":"09","name":"Bayern"}},{"name":"Puchheimer Str.","postalCode":"82194","locality":"Gröbenzell","municipality":{"key":"09179126","name":"Gröbenzell","type":"Kreisangehörige_Gemeinde"},"district":{"key":"09179","name":"Fürstenfeldbruck","type":"Landkreis"},"federalState":{"key":"09","name":"Bayern"}},{"name":"Rappenäcker","postalCode":"75378","locality":"Bad Liebenzell","municipality":{"key":"08235008","name":"Bad Liebenzell, Stadt","type":"Stadt"},"district":{"key":"08235","name":"Calw","type":"Landkreis"},"federalState":{"key":"08","name":"Baden-Württemberg"}},{"name":"Rathausstr.","postalCode":"82194","locality":"Gröbenzell","municipality":{"key":"09179126","name":"Gröbenzell","type":"Kreisangehörige_Gemeinde"},"district":{"key":"09179","name":"Fürstenfeldbruck","type":"Landkreis"},"federalState":{"key":"09","name":"Bayern"}},{"name":"Rauschbergstr.","postalCode":"82194","locality":"Gröbenzell","municipality":{"key":"09179126","name":"Gröbenzell","type":"Kreisangehörige_Gemeinde"},"district":{"key":"09179","name":"Fürstenfeldbruck","type":"Landkreis"},"federalState":{"key":"09","name":"Bayern"}},{"name":"Regulastr.","postalCode":"75378","locality":"Bad Liebenzell","municipality":{"key":"08235008","name":"Bad Liebenzell, Stadt","type":"Stadt"},"district":{"key":"08235","name":"Calw","type":"Landkreis"},"federalState":{"key":"08","name":"Baden-Württemberg"}},{"name":"Rehweg","postalCode":"75378","locality":"Bad Liebenzell","municipality":{"key":"08235008","name":"Bad Liebenzell, Stadt","type":"Stadt"},"district":{"key":"08235","name":"Calw","type":"Landkreis"},"federalState":{"key":"08","name":"Baden-Württemberg"}},{"name":"Reuchlinweg","postalCode":"75378","locality":"Bad Liebenzell","municipality":{"key":"08235008","name":"Bad Liebenzell, Stadt","type":"Stadt"},"district":{"key":"08235","name":"Calw","type":"Landkreis"},"federalState":{"key":"08","name":"Baden-Württemberg"}},{"name":"Reuteweg","postalCode":"75378","locality":"Bad Liebenzell","municipality":{"key":"08235008","name":"Bad Liebenzell, Stadt","type":"Stadt"},"district":{"key":"08235","name":"Calw","type":"Landkreis"},"federalState":{"key":"08","name":"Baden-Württemberg"}},{"name":"Rheinböllener Str.","postalCode":"55494","locality":"Benzweiler","municipality":{"key":"07140011","name":"Benzweiler","type":"Kreisangehörige_Gemeinde"},"district":{"key":"07140","name":"Rhein-Hunsrück-Kreis","type":"Landkreis"},"federalState":{"key":"07","name":"Rheinland-Pfalz"}},{"name":"Richard-Strauss-Str.","postalCode":"82194","locality":"Gröbenzell","municipality":{"key":"09179126","name":"Gröbenzell","type":"Kreisangehörige_Gemeinde"},"district":{"key":"09179","name":"Fürstenfeldbruck","type":"Landkreis"},"federalState":{"key":"09","name":"Bayern"}},{"name":"Riegseestr.","postalCode":"82194","locality":"Gröbenzell","municipality":{"key":"09179126","name":"Gröbenzell","type":"Kreisangehörige_Gemeinde"},"district":{"key":"09179","name":"Fürstenfeldbruck","type":"Landkreis"},"federalState":{"key":"09","name":"Bayern"}},{"name":"Rißweg","postalCode":"75378","locality":"Bad Liebenzell","municipality":{"key":"08235008","name":"Bad Liebenzell, Stadt","type":"Stadt"},"district":{"key":"08235","name":"Calw","type":"Landkreis"},"federalState":{"key":"08","name":"Baden-Württemberg"}},{"name":"Rohrbrunnenweg","postalCode":"75378","locality":"Bad Liebenzell","municipality":{"key":"08235008","name":"Bad Liebenzell, Stadt","type":"Stadt"},"district":{"key":"08235","name":"Calw","type":"Landkreis"},"federalState":{"key":"08","name":"Baden-Württemberg"}},{"name":"Rosenhardtstr.","postalCode":"75378","locality":"Bad Liebenzell","municipality":{"key":"08235008","name":"Bad Liebenzell, Stadt","type":"Stadt"},"district":{"key":"08235","name":"Calw","type":"Landkreis"},"federalState":{"key":"08","name":"Baden-Württemberg"}},{"name":"Rosenhardtweg","postalCode":"75378","locality":"Bad Liebenzell","municipality":{"key":"08235008","name":"Bad Liebenzell, Stadt","type":"Stadt"},"district":{"key":"08235","name":"Calw","type":"Landkreis"},"federalState":{"key":"08","name":"Baden-Württemberg"}},{"name":"Rosenstr.","postalCode":"82194","locality":"Gröbenzell","municipality":{"key":"09179126","name":"Gröbenzell","type":"Kreisangehörige_Gemeinde"},"district":{"key":"09179","name":"Fürstenfeldbruck","type":"Landkreis"},"federalState":{"key":"09","name":"Bayern"}},{"name":"Rosenweg","postalCode":"75378","locality":"Bad Liebenzell","municipality":{"key":"08235008","name":"Bad Liebenzell, Stadt","type":"Stadt"},"district":{"key":"08235","name":"Calw","type":"Landkreis"},"federalState":{"key":"08","name":"Baden-Württemberg"}},{"name":"Rotwandstr.","postalCode":"82194","locality":"Gröbenzell","municipality":{"key":"09179126","name":"Gröbenzell","type":"Kreisangehörige_Gemeinde"},"district":{"key":"09179","name":"Fürstenfeldbruck","type":"Landkreis"},"federalState":{"key":"09","name":"Bayern"}},{"name":"Salzstr.","postalCode":"82194","locality":"Gröbenzell","municipality":{"key":"09179126","name":"Gröbenzell","type":"Kreisangehörige_Gemeinde"},"district":{"key":"09179","name":"Fürstenfeldbruck","type":"Landkreis"},"federalState":{"key":"09","name":"Bayern"}},{"name":"Sandbergstr.","postalCode":"17429","locality":"Benz","municipality":{"key":"13075010","name":"Benz","type":"Kreisangehörige_Gemeinde"},"district":{"key":"13075","name":"Vorpommern-Greifswald","type":"Landkreis"},"federalState":{"key":"13","name":"Mecklenburg-Vorpommern"}},{"name":"Schießrain","postalCode":"75378","locality":"Bad Liebenzell","municipality":{"key":"08235008","name":"Bad Liebenzell, Stadt","type":"Stadt"},"district":{"key":"08235","name":"Calw","type":"Landkreis"},"federalState":{"key":"08","name":"Baden-Württemberg"}},{"name":"Schilfweg","postalCode":"82194","locality":"Gröbenzell","municipality":{"key":"09179126","name":"Gröbenzell","type":"Kreisangehörige_Gemeinde"},"district":{"key":"09179","name":"Fürstenfeldbruck","type":"Landkreis"},"federalState":{"key":"09","name":"Bayern"}},{"name":"Schillerallee","postalCode":"75378","locality":"Bad Liebenzell","municipality":{"key":"08235008","name":"Bad Liebenzell, Stadt","type":"Stadt"},"district":{"key":"08235","name":"Calw","type":"Landkreis"},"federalState":{"key":"08","name":"Baden-Württemberg"}},{"name":"Schillerstr.","postalCode":"75378","locality":"Bad Liebenzell","municipality":{"key":"08235008","name":"Bad Liebenzell, Stadt","type":"Stadt"},"district":{"key":"08235","name":"Calw","type":"Landkreis"},"federalState":{"key":"08","name":"Baden-Württemberg"}},{"name":"Schlehenweg","postalCode":"75378","locality":"Bad Liebenzell","municipality":{"key":"08235008","name":"Bad Liebenzell, Stadt","type":"Stadt"},"district":{"key":"08235","name":"Calw","type":"Landkreis"},"federalState":{"key":"08","name":"Baden-Württemberg"}},{"name":"Schlehenweg","postalCode":"82194","locality":"Gröbenzell","municipality":{"key":"09179126","name":"Gröbenzell","type":"Kreisangehörige_Gemeinde"},"district":{"key":"09179","name":"Fürstenfeldbruck","type":"Landkreis"},"federalState":{"key":"09","name":"Bayern"}},{"name":"Schlossbergweg","postalCode":"75378","locality":"Bad Liebenzell","municipality":{"key":"08235008","name":"Bad Liebenzell, Stadt","type":"Stadt"},"district":{"key":"08235","name":"Calw","type":"Landkreis"},"federalState":{"key":"08","name":"Baden-Württemberg"}},{"name":"Schlosshaldenweg","postalCode":"75378","locality":"Bad Liebenzell","municipality":{"key":"08235008","name":"Bad Liebenzell, Stadt","type":"Stadt"},"district":{"key":"08235","name":"Calw","type":"Landkreis"},"federalState":{"key":"08","name":"Baden-Württemberg"}},{"name":"Schmiedetwiete","postalCode":"23898","locality":"Labenz","municipality":{"key":"01053079","name":"Labenz","type":"Kreisangehörige_Gemeinde"},"district":{"key":"01053","name":"Herzogtum Lauenburg","type":"Kreis"},"federalState":{"key":"01","name":"Schleswig-Holstein"}},{"name":"Schneckenweg","postalCode":"75378","locality":"Bad Liebenzell","municipality":{"key":"08235008","name":"Bad Liebenzell, Stadt","type":"Stadt"},"district":{"key":"08235","name":"Calw","type":"Landkreis"},"federalState":{"key":"08","name":"Baden-Württemberg"}},{"name":"Schömberger Str.","postalCode":"75378","locality":"Bad Liebenzell","municipality":{"key":"08235008","name":"Bad Liebenzell, Stadt","type":"Stadt"},"district":{"key":"08235","name":"Calw","type":"Landkreis"},"federalState":{"key":"08","name":"Baden-Württemberg"}},{"name":"Schräger Weg","postalCode":"75378","locality":"Bad Liebenzell","municipality":{"key":"08235008","name":"Bad Liebenzell, Stadt","type":"Stadt"},"district":{"key":"08235","name":"Calw","type":"Landkreis"},"federalState":{"key":"08","name":"Baden-Württemberg"}},{"name":"Schubertstr.","postalCode":"82194","locality":"Gröbenzell","municipality":{"key":"09179126","name":"Gröbenzell","type":"Kreisangehörige_Gemeinde"},"district":{"key":"09179","name":"Fürstenfeldbruck","type":"Landkreis"},"federalState":{"key":"09","name":"Bayern"}},{"name":"Schulstr.","postalCode":"17429","locality":"Benz","municipality":{"key":"13075010","name":"Benz","type":"Kreisangehörige_Gemeinde"},"district":{"key":"13075","name":"Vorpommern-Greifswald","type":"Landkreis"},"federalState":{"key":"13","name":"Mecklenburg-Vorpommern"}},{"name":"Schulweg","postalCode":"23898","locality":"Labenz","municipality":{"key":"01053079","name":"Labenz","type":"Kreisangehörige_Gemeinde"},"district":{"key":"01053","name":"Herzogtum Lauenburg","type":"Kreis"},"federalState":{"key":"01","name":"Schleswig-Holstein"}},{"name":"Schwannweg","postalCode":"75378","locality":"Bad Liebenzell","municipality":{"key":"08235008","name":"Bad Liebenzell, Stadt","type":"Stadt"},"district":{"key":"08235","name":"Calw","type":"Landkreis"},"federalState":{"key":"08","name":"Baden-Württemberg"}},{"name":"Schwarzwaldstr.","postalCode":"75378","locality":"Bad Liebenzell","municipality":{"key":"08235008","name":"Bad Liebenzell, Stadt","type":"Stadt"},"district":{"key":"08235","name":"Calw","type":"Landkreis"},"federalState":{"key":"08","name":"Baden-Württemberg"}},{"name":"Seestr.","postalCode":"75378","locality":"Bad Liebenzell","municipality":{"key":"08235008","name":"Bad Liebenzell, Stadt","type":"Stadt"},"district":{"key":"08235","name":"Calw","type":"Landkreis"},"federalState":{"key":"08","name":"Baden-Württemberg"}},{"name":"Seidelbastweg","postalCode":"82194","locality":"Gröbenzell","municipality":{"key":"09179126","name":"Gröbenzell","type":"Kreisangehörige_Gemeinde"},"district":{"key":"09179","name":"Fürstenfeldbruck","type":"Landkreis"},"federalState":{"key":"09","name":"Bayern"}},{"name":"Selliner Weg","postalCode":"17429","locality":"Benz","municipality":{"key":"13075010","name":"Benz","type":"Kreisangehörige_Gemeinde"},"district":{"key":"13075","name":"Vorpommern-Greifswald","type":"Landkreis"},"federalState":{"key":"13","name":"Mecklenburg-Vorpommern"}},{"name":"Silcherweg","postalCode":"75378","locality":"Bad Liebenzell","municipality":{"key":"08235008","name":"Bad Liebenzell, Stadt","type":"Stadt"},"district":{"key":"08235","name":"Calw","type":"Landkreis"},"federalState":{"key":"08","name":"Baden-Württemberg"}},{"name":"Simmerner Str.","postalCode":"55494","locality":"Benzweiler","municipality":{"key":"07140011","name":"Benzweiler","type":"Kreisangehörige_Gemeinde"},"district":{"key":"07140","name":"Rhein-Hunsrück-Kreis","type":"Landkreis"},"federalState":{"key":"07","name":"Rheinland-Pfalz"}},{"name":"Sommerhalde","postalCode":"75378","locality":"Bad Liebenzell","municipality":{"key":"08235008","name":"Bad Liebenzell, Stadt","type":"Stadt"},"district":{"key":"08235","name":"Calw","type":"Landkreis"},"federalState":{"key":"08","name":"Baden-Württemberg"}},{"name":"Sommerhaldeweg","postalCode":"75378","locality":"Bad Liebenzell","municipality":{"key":"08235008","name":"Bad Liebenzell, Stadt","type":"Stadt"},"district":{"key":"08235","name":"Calw","type":"Landkreis"},"federalState":{"key":"08","name":"Baden-Württemberg"}},{"name":"Sommerstr.","postalCode":"82194","locality":"Gröbenzell","municipality":{"key":"09179126","name":"Gröbenzell","type":"Kreisangehörige_Gemeinde"},"district":{"key":"09179","name":"Fürstenfeldbruck","type":"Landkreis"},"federalState":{"key":"09","name":"Bayern"}},{"name":"Sonnenrain","postalCode":"75378","locality":"Bad Liebenzell","municipality":{"key":"08235008","name":"Bad Liebenzell, Stadt","type":"Stadt"},"district":{"key":"08235","name":"Calw","type":"Landkreis"},"federalState":{"key":"08","name":"Baden-Württemberg"}},{"name":"Sonnenweg","postalCode":"75378","locality":"Bad Liebenzell","municipality":{"key":"08235008","name":"Bad Liebenzell, Stadt","type":"Stadt"},"district":{"key":"08235","name":"Calw","type":"Landkreis"},"federalState":{"key":"08","name":"Baden-Württemberg"}},{"name":"Sonnenweg","postalCode":"82194","locality":"Gröbenzell","municipality":{"key":"09179126","name":"Gröbenzell","type":"Kreisangehörige_Gemeinde"},"district":{"key":"09179","name":"Fürstenfeldbruck","type":"Landkreis"},"federalState":{"key":"09","name":"Bayern"}},{"name":"Sophi Park","postalCode":"75378","locality":"Bad Liebenzell","municipality":{"key":"08235008","name":"Bad Liebenzell, Stadt","type":"Stadt"},"district":{"key":"08235","name":"Calw","type":"Landkreis"},"federalState":{"key":"08","name":"Baden-Württemberg"}},{"name":"Sorgsweg","postalCode":"75378","locality":"Bad Liebenzell","municipality":{"key":"08235008","name":"Bad Liebenzell, Stadt","type":"Stadt"},"district":{"key":"08235","name":"Calw","type":"Landkreis"},"federalState":{"key":"08","name":"Baden-Württemberg"}},{"name":"Spatzenwinkel","postalCode":"82194","locality":"Gröbenzell","municipality":{"key":"09179126","name":"Gröbenzell","type":"Kreisangehörige_Gemeinde"},"district":{"key":"09179","name":"Fürstenfeldbruck","type":"Landkreis"},"federalState":{"key":"09","name":"Bayern"}},{"name":"Spechtweg","postalCode":"82194","locality":"Gröbenzell","municipality":{"key":"09179126","name":"Gröbenzell","type":"Kreisangehörige_Gemeinde"},"district":{"key":"09179","name":"Fürstenfeldbruck","type":"Landkreis"},"federalState":{"key":"09","name":"Bayern"}},{"name":"Sperberweg","postalCode":"82194","locality":"Gröbenzell","municipality":{"key":"09179126","name":"Gröbenzell","type":"Kreisangehörige_Gemeinde"},"district":{"key":"09179","name":"Fürstenfeldbruck","type":"Landkreis"},"federalState":{"key":"09","name":"Bayern"}},{"name":"Sperlingweg","postalCode":"75378","locality":"Bad Liebenzell","municipality":{"key":"08235008","name":"Bad Liebenzell, Stadt","type":"Stadt"},"district":{"key":"08235","name":"Calw","type":"Landkreis"},"federalState":{"key":"08","name":"Baden-Württemberg"}},{"name":"Sperrengrundweg","postalCode":"75378","locality":"Bad Liebenzell","municipality":{"key":"08235008","name":"Bad Liebenzell, Stadt","type":"Stadt"},"district":{"key":"08235","name":"Calw","type":"Landkreis"},"federalState":{"key":"08","name":"Baden-Württemberg"}},{"name":"Spitzingweg","postalCode":"82194","locality":"Gröbenzell","municipality":{"key":"09179126","name":"Gröbenzell","type":"Kreisangehörige_Gemeinde"},"district":{"key":"09179","name":"Fürstenfeldbruck","type":"Landkreis"},"federalState":{"key":"09","name":"Bayern"}},{"name":"Stahlsweg","postalCode":"75378","locality":"Bad Liebenzell","municipality":{"key":"08235008","name":"Bad Liebenzell, Stadt","type":"Stadt"},"district":{"key":"08235","name":"Calw","type":"Landkreis"},"federalState":{"key":"08","name":"Baden-Württemberg"}},{"name":"Starenweg","postalCode":"82194","locality":"Gröbenzell","municipality":{"key":"09179126","name":"Gröbenzell","type":"Kreisangehörige_Gemeinde"},"district":{"key":"09179","name":"Fürstenfeldbruck","type":"Landkreis"},"federalState":{"key":"09","name":"Bayern"}},{"name":"Steinachweg","postalCode":"75378","locality":"Bad Liebenzell","municipality":{"key":"08235008","name":"Bad Liebenzell, Stadt","type":"Stadt"},"district":{"key":"08235","name":"Calw","type":"Landkreis"},"federalState":{"key":"08","name":"Baden-Württemberg"}},{"name":"Steinbergweg","postalCode":"75378","locality":"Bad Liebenzell","municipality":{"key":"08235008","name":"Bad Liebenzell, Stadt","type":"Stadt"},"district":{"key":"08235","name":"Calw","type":"Landkreis"},"federalState":{"key":"08","name":"Baden-Württemberg"}},{"name":"Steinhorster Str.","postalCode":"23898","locality":"Labenz","municipality":{"key":"01053079","name":"Labenz","type":"Kreisangehörige_Gemeinde"},"district":{"key":"01053","name":"Herzogtum Lauenburg","type":"Kreis"},"federalState":{"key":"01","name":"Schleswig-Holstein"}},{"name":"Steinstr.","postalCode":"17429","locality":"Benz","municipality":{"key":"13075010","name":"Benz","type":"Kreisangehörige_Gemeinde"},"district":{"key":"13075","name":"Vorpommern-Greifswald","type":"Landkreis"},"federalState":{"key":"13","name":"Mecklenburg-Vorpommern"}},{"name":"Stobener Weg","postalCode":"17429","locality":"Benz","municipality":{"key":"13075010","name":"Benz","type":"Kreisangehörige_Gemeinde"},"district":{"key":"13075","name":"Vorpommern-Greifswald","type":"Landkreis"},"federalState":{"key":"13","name":"Mecklenburg-Vorpommern"}},{"name":"Stuttgarter Str.","postalCode":"75378","locality":"Bad Liebenzell","municipality":{"key":"08235008","name":"Bad Liebenzell, Stadt","type":"Stadt"},"district":{"key":"08235","name":"Calw","type":"Landkreis"},"federalState":{"key":"08","name":"Baden-Württemberg"}},{"name":"Sudelfeldstr.","postalCode":"82194","locality":"Gröbenzell","municipality":{"key":"09179126","name":"Gröbenzell","type":"Kreisangehörige_Gemeinde"},"district":{"key":"09179","name":"Fürstenfeldbruck","type":"Landkreis"},"federalState":{"key":"09","name":"Bayern"}},{"name":"Sudetenstr.","postalCode":"82194","locality":"Gröbenzell","municipality":{"key":"09179126","name":"Gröbenzell","type":"Kreisangehörige_Gemeinde"},"district":{"key":"09179","name":"Fürstenfeldbruck","type":"Landkreis"},"federalState":{"key":"09","name":"Bayern"}},{"name":"Talblick","postalCode":"75378","locality":"Bad Liebenzell","municipality":{"key":"08235008","name":"Bad Liebenzell, Stadt","type":"Stadt"},"district":{"key":"08235","name":"Calw","type":"Landkreis"},"federalState":{"key":"08","name":"Baden-Württemberg"}},{"name":"Talstr.","postalCode":"75378","locality":"Bad Liebenzell","municipality":{"key":"08235008","name":"Bad Liebenzell, Stadt","type":"Stadt"},"district":{"key":"08235","name":"Calw","type":"Landkreis"},"federalState":{"key":"08","name":"Baden-Württemberg"}},{"name":"Tannenfleckstr.","postalCode":"82194","locality":"Gröbenzell","municipality":{"key":"09179126","name":"Gröbenzell","type":"Kreisangehörige_Gemeinde"},"district":{"key":"09179","name":"Fürstenfeldbruck","type":"Landkreis"},"federalState":{"key":"09","name":"Bayern"}},{"name":"Tannenweg","postalCode":"17429","locality":"Benz","municipality":{"key":"13075010","name":"Benz","type":"Kreisangehörige_Gemeinde"},"district":{"key":"13075","name":"Vorpommern-Greifswald","type":"Landkreis"},"federalState":{"key":"13","name":"Mecklenburg-Vorpommern"}},{"name":"Tannenweg","postalCode":"55494","locality":"Benzweiler","municipality":{"key":"07140011","name":"Benzweiler","type":"Kreisangehörige_Gemeinde"},"district":{"key":"07140","name":"Rhein-Hunsrück-Kreis","type":"Landkreis"},"federalState":{"key":"07","name":"Rheinland-Pfalz"}},{"name":"Tannenweg","postalCode":"75378","locality":"Bad Liebenzell","municipality":{"key":"08235008","name":"Bad Liebenzell, Stadt","type":"Stadt"},"district":{"key":"08235","name":"Calw","type":"Landkreis"},"federalState":{"key":"08","name":"Baden-Württemberg"}},{"name":"Tannwaldstr.","postalCode":"75378","locality":"Bad Liebenzell","municipality":{"key":"08235008","name":"Bad Liebenzell, Stadt","type":"Stadt"},"district":{"key":"08235","name":"Calw","type":"Landkreis"},"federalState":{"key":"08","name":"Baden-Württemberg"}},{"name":"Teichweg","postalCode":"55494","locality":"Benzweiler","municipality":{"key":"07140011","name":"Benzweiler","type":"Kreisangehörige_Gemeinde"},"district":{"key":"07140","name":"Rhein-Hunsrück-Kreis","type":"Landkreis"},"federalState":{"key":"07","name":"Rheinland-Pfalz"}},{"name":"Templerstr.","postalCode":"82194","locality":"Gröbenzell","municipality":{"key":"09179126","name":"Gröbenzell","type":"Kreisangehörige_Gemeinde"},"district":{"key":"09179","name":"Fürstenfeldbruck","type":"Landkreis"},"federalState":{"key":"09","name":"Bayern"}},{"name":"Theodor-Heuss-Str.","postalCode":"75378","locality":"Bad Liebenzell","municipality":{"key":"08235008","name":"Bad Liebenzell, Stadt","type":"Stadt"},"district":{"key":"08235","name":"Calw","type":"Landkreis"},"federalState":{"key":"08","name":"Baden-Württemberg"}},{"name":"Tölzer Str.","postalCode":"82194","locality":"Gröbenzell","municipality":{"key":"09179126","name":"Gröbenzell","type":"Kreisangehörige_Gemeinde"},"district":{"key":"09179","name":"Fürstenfeldbruck","type":"Landkreis"},"federalState":{"key":"09","name":"Bayern"}},{"name":"Triftstr.","postalCode":"17429","locality":"Benz","municipality":{"key":"13075010","name":"Benz","type":"Kreisangehörige_Gemeinde"},"district":{"key":"13075","name":"Vorpommern-Greifswald","type":"Landkreis"},"federalState":{"key":"13","name":"Mecklenburg-Vorpommern"}},{"name":"Tulpenstr.","postalCode":"82194","locality":"Gröbenzell","municipality":{"key":"09179126","name":"Gröbenzell","type":"Kreisangehörige_Gemeinde"},"district":{"key":"09179","name":"Fürstenfeldbruck","type":"Landkreis"},"federalState":{"key":"09","name":"Bayern"}},{"name":"Turmfalkenweg","postalCode":"82194","locality":"Gröbenzell","municipality":{"key":"09179126","name":"Gröbenzell","type":"Kreisangehörige_Gemeinde"},"district":{"key":"09179","name":"Fürstenfeldbruck","type":"Landkreis"},"federalState":{"key":"09","name":"Bayern"}},{"name":"Uhlandstr.","postalCode":"75378","locality":"Bad Liebenzell","municipality":{"key":"08235008","name":"Bad Liebenzell, Stadt","type":"Stadt"},"district":{"key":"08235","name":"Calw","type":"Landkreis"},"federalState":{"key":"08","name":"Baden-Württemberg"}},{"name":"Ulmenweg","postalCode":"75378","locality":"Bad Liebenzell","municipality":{"key":"08235008","name":"Bad Liebenzell, Stadt","type":"Stadt"},"district":{"key":"08235","name":"Calw","type":"Landkreis"},"federalState":{"key":"08","name":"Baden-Württemberg"}},{"name":"Ulmenweg","postalCode":"82194","locality":"Gröbenzell","municipality":{"key":"09179126","name":"Gröbenzell","type":"Kreisangehörige_Gemeinde"},"district":{"key":"09179","name":"Fürstenfeldbruck","type":"Landkreis"},"federalState":{"key":"09","name":"Bayern"}},{"name":"Unterer Schwannweg","postalCode":"75378","locality":"Bad Liebenzell","municipality":{"key":"08235008","name":"Bad Liebenzell, Stadt","type":"Stadt"},"district":{"key":"08235","name":"Calw","type":"Landkreis"},"federalState":{"key":"08","name":"Baden-Württemberg"}},{"name":"Unterhaugstetter Str.","postalCode":"75378","locality":"Bad Liebenzell","municipality":{"key":"08235008","name":"Bad Liebenzell, Stadt","type":"Stadt"},"district":{"key":"08235","name":"Calw","type":"Landkreis"},"federalState":{"key":"08","name":"Baden-Württemberg"}},{"name":"Valeppweg","postalCode":"82194","locality":"Gröbenzell","municipality":{"key":"09179126","name":"Gröbenzell","type":"Kreisangehörige_Gemeinde"},"district":{"key":"09179","name":"Fürstenfeldbruck","type":"Landkreis"},"federalState":{"key":"09","name":"Bayern"}},{"name":"Vierstücken","postalCode":"23898","locality":"Labenz","municipality":{"key":"01053079","name":"Labenz","type":"Kreisangehörige_Gemeinde"},"district":{"key":"01053","name":"Herzogtum Lauenburg","type":"Kreis"},"federalState":{"key":"01","name":"Schleswig-Holstein"}},{"name":"Viertelesweg","postalCode":"75378","locality":"Bad Liebenzell","municipality":{"key":"08235008","name":"Bad Liebenzell, Stadt","type":"Stadt"},"district":{"key":"08235","name":"Calw","type":"Landkreis"},"federalState":{"key":"08","name":"Baden-Württemberg"}},{"name":"Von-Branca-Str.","postalCode":"82194","locality":"Gröbenzell","municipality":{"key":"09179126","name":"Gröbenzell","type":"Kreisangehörige_Gemeinde"},"district":{"key":"09179","name":"Fürstenfeldbruck","type":"Landkreis"},"federalState":{"key":"09","name":"Bayern"}},{"name":"Von-Koch-Str.","postalCode":"82194","locality":"Gröbenzell","municipality":{"key":"09179126","name":"Gröbenzell","type":"Kreisangehörige_Gemeinde"},"district":{"key":"09179","name":"Fürstenfeldbruck","type":"Landkreis"},"federalState":{"key":"09","name":"Bayern"}},{"name":"Wacholderweg","postalCode":"82194","locality":"Gröbenzell","municipality":{"key":"09179126","name":"Gröbenzell","type":"Kreisangehörige_Gemeinde"},"district":{"key":"09179","name":"Fürstenfeldbruck","type":"Landkreis"},"federalState":{"key":"09","name":"Bayern"}},{"name":"Wachtelweg","postalCode":"82194","locality":"Gröbenzell","municipality":{"key":"09179126","name":"Gröbenzell","type":"Kreisangehörige_Gemeinde"},"district":{"key":"09179","name":"Fürstenfeldbruck","type":"Landkreis"},"federalState":{"key":"09","name":"Bayern"}},{"name":"Walchenseestr.","postalCode":"82194","locality":"Gröbenzell","municipality":{"key":"09179126","name":"Gröbenzell","type":"Kreisangehörige_Gemeinde"},"district":{"key":"09179","name":"Fürstenfeldbruck","type":"Landkreis"},"federalState":{"key":"09","name":"Bayern"}},{"name":"Waldhufenweg","postalCode":"75378","locality":"Bad Liebenzell","municipality":{"key":"08235008","name":"Bad Liebenzell, Stadt","type":"Stadt"},"district":{"key":"08235","name":"Calw","type":"Landkreis"},"federalState":{"key":"08","name":"Baden-Württemberg"}},{"name":"Waldstr.","postalCode":"75378","locality":"Bad Liebenzell","municipality":{"key":"08235008","name":"Bad Liebenzell, Stadt","type":"Stadt"},"district":{"key":"08235","name":"Calw","type":"Landkreis"},"federalState":{"key":"08","name":"Baden-Württemberg"}},{"name":"Waldstr.","postalCode":"82194","locality":"Gröbenzell","municipality":{"key":"09179126","name":"Gröbenzell","type":"Kreisangehörige_Gemeinde"},"district":{"key":"09179","name":"Fürstenfeldbruck","type":"Landkreis"},"federalState":{"key":"09","name":"Bayern"}},{"name":"Wallbergstr.","postalCode":"82194","locality":"Gröbenzell","municipality":{"key":"09179126","name":"Gröbenzell","type":"Kreisangehörige_Gemeinde"},"district":{"key":"09179","name":"Fürstenfeldbruck","type":"Landkreis"},"federalState":{"key":"09","name":"Bayern"}},{"name":"Wannenweg","postalCode":"75378","locality":"Bad Liebenzell","municipality":{"key":"08235008","name":"Bad Liebenzell, Stadt","type":"Stadt"},"district":{"key":"08235","name":"Calw","type":"Landkreis"},"federalState":{"key":"08","name":"Baden-Württemberg"}},{"name":"Warkstorf","postalCode":"23970","locality":"Benz","municipality":{"key":"13074004","name":"Benz","type":"Kreisangehörige_Gemeinde"},"district":{"key":"13074","name":"Nordwestmecklenburg","type":"Landkreis"},"federalState":{"key":"13","name":"Mecklenburg-Vorpommern"}},{"name":"Wasenstr.","postalCode":"75378","locality":"Bad Liebenzell","municipality":{"key":"08235008","name":"Bad Liebenzell, Stadt","type":"Stadt"},"district":{"key":"08235","name":"Calw","type":"Landkreis"},"federalState":{"key":"08","name":"Baden-Württemberg"}},{"name":"Wasserweg","postalCode":"75378","locality":"Bad Liebenzell","municipality":{"key":"08235008","name":"Bad Liebenzell, Stadt","type":"Stadt"},"district":{"key":"08235","name":"Calw","type":"Landkreis"},"federalState":{"key":"08","name":"Baden-Württemberg"}},{"name":"Watzmannstr.","postalCode":"82194","locality":"Gröbenzell","municipality":{"key":"09179126","name":"Gröbenzell","type":"Kreisangehörige_Gemeinde"},"district":{"key":"09179","name":"Fürstenfeldbruck","type":"Landkreis"},"federalState":{"key":"09","name":"Bayern"}},{"name":"Waxensteinstr.","postalCode":"82194","locality":"Gröbenzell","municipality":{"key":"09179126","name":"Gröbenzell","type":"Kreisangehörige_Gemeinde"},"district":{"key":"09179","name":"Fürstenfeldbruck","type":"Landkreis"},"federalState":{"key":"09","name":"Bayern"}},{"name":"Weidenweg","postalCode":"75378","locality":"Bad Liebenzell","municipality":{"key":"08235008","name":"Bad Liebenzell, Stadt","type":"Stadt"},"district":{"key":"08235","name":"Calw","type":"Landkreis"},"federalState":{"key":"08","name":"Baden-Württemberg"}},{"name":"Weiherstr.","postalCode":"75378","locality":"Bad Liebenzell","municipality":{"key":"08235008","name":"Bad Liebenzell, Stadt","type":"Stadt"},"district":{"key":"08235","name":"Calw","type":"Landkreis"},"federalState":{"key":"08","name":"Baden-Württemberg"}},{"name":"Weiherweg","postalCode":"82194","locality":"Gröbenzell","municipality":{"key":"09179126","name":"Gröbenzell","type":"Kreisangehörige_Gemeinde"},"district":{"key":"09179","name":"Fürstenfeldbruck","type":"Landkreis"},"federalState":{"key":"09","name":"Bayern"}},{"name":"Weil der Städter Str.","postalCode":"75378","locality":"Bad Liebenzell","municipality":{"key":"08235008","name":"Bad Liebenzell, Stadt","type":"Stadt"},"district":{"key":"08235","name":"Calw","type":"Landkreis"},"federalState":{"key":"08","name":"Baden-Württemberg"}},{"name":"Wendelsteinstr.","postalCode":"82194","locality":"Gröbenzell","municipality":{"key":"09179126","name":"Gröbenzell","type":"Kreisangehörige_Gemeinde"},"district":{"key":"09179","name":"Fürstenfeldbruck","type":"Landkreis"},"federalState":{"key":"09","name":"Bayern"}},{"name":"Westendstr.","postalCode":"82194","locality":"Gröbenzell","municipality":{"key":"09179126","name":"Gröbenzell","type":"Kreisangehörige_Gemeinde"},"district":{"key":"09179","name":"Fürstenfeldbruck","type":"Landkreis"},"federalState":{"key":"09","name":"Bayern"}},{"name":"Wettersteinstr.","postalCode":"82194","locality":"Gröbenzell","municipality":{"key":"09179126","name":"Gröbenzell","type":"Kreisangehörige_Gemeinde"},"district":{"key":"09179","name":"Fürstenfeldbruck","type":"Landkreis"},"federalState":{"key":"09","name":"Bayern"}},{"name":"Wiedehopfstr.","postalCode":"82194","locality":"Gröbenzell","municipality":{"key":"09179126","name":"Gröbenzell","type":"Kreisangehörige_Gemeinde"},"district":{"key":"09179","name":"Fürstenfeldbruck","type":"Landkreis"},"federalState":{"key":"09","name":"Bayern"}},{"name":"Wieselweg","postalCode":"75378","locality":"Bad Liebenzell","municipality":{"key":"08235008","name":"Bad Liebenzell, Stadt","type":"Stadt"},"district":{"key":"08235","name":"Calw","type":"Landkreis"},"federalState":{"key":"08","name":"Baden-Württemberg"}},{"name":"Wiesenstr.","postalCode":"17429","locality":"Benz","municipality":{"key":"13075010","name":"Benz","type":"Kreisangehörige_Gemeinde"},"district":{"key":"13075","name":"Vorpommern-Greifswald","type":"Landkreis"},"federalState":{"key":"13","name":"Mecklenburg-Vorpommern"}},{"name":"Wildmoosstr.","postalCode":"82194","locality":"Gröbenzell","municipality":{"key":"09179126","name":"Gröbenzell","type":"Kreisangehörige_Gemeinde"},"district":{"key":"09179","name":"Fürstenfeldbruck","type":"Landkreis"},"federalState":{"key":"09","name":"Bayern"}},{"name":"Wilhelm-Böckler-Str.","postalCode":"17429","locality":"Benz","municipality":{"key":"13075010","name":"Benz","type":"Kreisangehörige_Gemeinde"},"district":{"key":"13075","name":"Vorpommern-Greifswald","type":"Landkreis"},"federalState":{"key":"13","name":"Mecklenburg-Vorpommern"}},{"name":"Wilhelmstr.","postalCode":"75378","locality":"Bad Liebenzell","municipality":{"key":"08235008","name":"Bad Liebenzell, Stadt","type":"Stadt"},"district":{"key":"08235","name":"Calw","type":"Landkreis"},"federalState":{"key":"08","name":"Baden-Württemberg"}},{"name":"Winterhaldeweg","postalCode":"75378","locality":"Bad Liebenzell","municipality":{"key":"08235008","name":"Bad Liebenzell, Stadt","type":"Stadt"},"district":{"key":"08235","name":"Calw","type":"Landkreis"},"federalState":{"key":"08","name":"Baden-Württemberg"}},{"name":"Winterstr.","postalCode":"82194","locality":"Gröbenzell","municipality":{"key":"09179126","name":"Gröbenzell","type":"Kreisangehörige_Gemeinde"},"district":{"key":"09179","name":"Fürstenfeldbruck","type":"Landkreis"},"federalState":{"key":"09","name":"Bayern"}},{"name":"Wolfsberg","postalCode":"23898","locality":"Labenz","municipality":{"key":"01053079","name":"Labenz","type":"Kreisangehörige_Gemeinde"},"district":{"key":"01053","name":"Herzogtum Lauenburg","type":"Kreis"},"federalState":{"key":"01","name":"Schleswig-Holstein"}},{"name":"Wolfslochweg","postalCode":"75378","locality":"Bad Liebenzell","municipality":{"key":"08235008","name":"Bad Liebenzell, Stadt","type":"Stadt"},"district":{"key":"08235","name":"Calw","type":"Landkreis"},"federalState":{"key":"08","name":"Baden-Württemberg"}},{"name":"Wolterstorffstr.","postalCode":"82194","locality":"Gröbenzell","municipality":{"key":"09179126","name":"Gröbenzell","type":"Kreisangehörige_Gemeinde"},"district":{"key":"09179","name":"Fürstenfeldbruck","type":"Landkreis"},"federalState":{"key":"09","name":"Bayern"}},{"name":"Zeppelinstr.","postalCode":"75378","locality":"Bad Liebenzell","municipality":{"key":"08235008","name":"Bad Liebenzell, Stadt","type":"Stadt"},"district":{"key":"08235","name":"Calw","type":"Landkreis"},"federalState":{"key":"08","name":"Baden-Württemberg"}},{"name":"Ziegelei-Ring","postalCode":"82194","locality":"Gröbenzell","municipality":{"key":"09179126","name":"Gröbenzell","type":"Kreisangehörige_Gemeinde"},"district":{"key":"09179","name":"Fürstenfeldbruck","type":"Landkreis"},"federalState":{"key":"09","name":"Bayern"}},{"name":"Zillerhofstr.","postalCode":"82194","locality":"Gröbenzell","municipality":{"key":"09179126","name":"Gröbenzell","type":"Kreisangehörige_Gemeinde"},"district":{"key":"09179","name":"Fürstenfeldbruck","type":"Landkreis"},"federalState":{"key":"09","name":"Bayern"}},{"name":"Zirbelweg","postalCode":"82194","locality":"Gröbenzell","municipality":{"key":"09179126","name":"Gröbenzell","type":"Kreisangehörige_Gemeinde"},"district":{"key":"09179","name":"Fürstenfeldbruck","type":"Landkreis"},"federalState":{"key":"09","name":"Bayern"}},{"name":"Zirler Str.","postalCode":"82194","locality":"Gröbenzell","municipality":{"key":"09179126","name":"Gröbenzell","type":"Kreisangehörige_Gemeinde"},"district":{"key":"09179","name":"Fürstenfeldbruck","type":"Landkreis"},"federalState":{"key":"09","name":"Bayern"}},{"name":"Zitzstaudenweg","postalCode":"82194","locality":"Gröbenzell","municipality":{"key":"09179126","name":"Gröbenzell","type":"Kreisangehörige_Gemeinde"},"district":{"key":"09179","name":"Fürstenfeldbruck","type":"Landkreis"},"federalState":{"key":"09","name":"Bayern"}},{"name":"Zu den Eichen","postalCode":"75378","locality":"Bad Liebenzell","municipality":{"key":"08235008","name":"Bad Liebenzell, Stadt","type":"Stadt"},"district":{"key":"08235","name":"Calw","type":"Landkreis"},"federalState":{"key":"08","name":"Baden-Württemberg"}},{"name":"Zugspitzstr.","postalCode":"82194","locality":"Gröbenzell","municipality":{"key":"09179126","name":"Gröbenzell","type":"Kreisangehörige_Gemeinde"},"district":{"key":"09179","name":"Fürstenfeldbruck","type":"Landkreis"},"federalState":{"key":"09","name":"Bayern"}},{"name":"Zum Mühlenteich","postalCode":"23898","locality":"Labenz","municipality":{"key":"01053079","name":"Labenz","type":"Kreisangehörige_Gemeinde"},"district":{"key":"01053","name":"Herzogtum Lauenburg","type":"Kreis"},"federalState":{"key":"01","name":"Schleswig-Holstein"}},{"name":"Zum Seesteg","postalCode":"17429","locality":"Benz","municipality":{"key":"13075010","name":"Benz","type":"Kreisangehörige_Gemeinde"},"district":{"key":"13075","name":"Vorpommern-Greifswald","type":"Landkreis"},"federalState":{"key":"13","name":"Mecklenburg-Vorpommern"}},{"name":"Zur Aubinger Lohe","postalCode":"82194","locality":"Gröbenzell","municipality":{"key":"09179126","name":"Gröbenzell","type":"Kreisangehörige_Gemeinde"},"district":{"key":"09179","name":"Fürstenfeldbruck","type":"Landkreis"},"federalState":{"key":"09","name":"Bayern"}},{"name":"Zur Fischerwurt","postalCode":"17429","locality":"Benz","municipality":{"key":"13075010","name":"Benz","type":"Kreisangehörige_Gemeinde"},"district":{"key":"13075","name":"Vorpommern-Greifswald","type":"Landkreis"},"federalState":{"key":"13","name":"Mecklenburg-Vorpommern"}},{"name":"Zweigstr.","postalCode":"82194","locality":"Gröbenzell","municipality":{"key":"09179126","name":"Gröbenzell","type":"Kreisangehörige_Gemeinde"},"district":{"key":"09179","name":"Fürstenfeldbruck","type":"Landkreis"},"federalState":{"key":"09","name":"Bayern"}},{"name":"Zwerweg","postalCode":"75378","locality":"Bad Liebenzell","municipality":{"key":"08235008","name":"Bad Liebenzell, Stadt","type":"Stadt"},"district":{"key":"08235","name":"Calw","type":"Landkreis"},"federalState":{"key":"08","name":"Baden-Württemberg"}},{"name":"Ährenfeldstr.","postalCode":"82194","locality":"Gröbenzell","municipality":{"key":"09179126","name":"Gröbenzell","type":"Kreisangehörige_Gemeinde"},"district":{"key":"09179","name":"Fürstenfeldbruck","type":"Landkreis"},"federalState":{"key":"09","name":"Bayern"}},]