[{"name":"3C-Ring","postalCode":"86899","locality":"Landsberg am Lech","municipality":{"key":"09181130","name":"Landsberg am Lech, GKSt","type":"Große_Kreisstadt"},"district":{"key":"09181","name":"Landsberg am Lech","type":"Landkreis"},"federalState":{"key":"09","name":"Bayern"}},{"name":"Alemannenstr.","postalCode":"86857","locality":"Hurlach","municipality":{"key":"09181126","name":"Hurlach","type":"Kreisangehörige_Gemeinde"},"district":{"key":"09181","name":"Landsberg am Lech","type":"Landkreis"},"federalState":{"key":"09","name":"Bayern"}},{"name":"Am Meilenstein","postalCode":"86857","locality":"Hurlach","municipality":{"key":"09181126","name":"Hurlach","type":"Kreisangehörige_Gemeinde"},"district":{"key":"09181","name":"Landsberg am Lech","type":"Landkreis"},"federalState":{"key":"09","name":"Bayern"}},{"name":"Angerstr.","postalCode":"86857","locality":"Hurlach","municipality":{"key":"09181126","name":"Hurlach","type":"Kreisangehörige_Gemeinde"},"district":{"key":"09181","name":"Landsberg am Lech","type":"Landkreis"},"federalState":{"key":"09","name":"Bayern"}},{"name":"Bäckergasse","postalCode":"86857","locality":"Hurlach","municipality":{"key":"09181126","name":"Hurlach","type":"Kreisangehörige_Gemeinde"},"district":{"key":"09181","name":"Landsberg am Lech","type":"Landkreis"},"federalState":{"key":"09","name":"Bayern"}},{"name":"Bahnhofstr.","postalCode":"86857","locality":"Hurlach","municipality":{"key":"09181126","name":"Hurlach","type":"Kreisangehörige_Gemeinde"},"district":{"key":"09181","name":"Landsberg am Lech","type":"Landkreis"},"federalState":{"key":"09","name":"Bayern"}},{"name":"Bergstr.","postalCode":"86857","locality":"Hurlach","municipality":{"key":"09181126","name":"Hurlach","type":"Kreisangehörige_Gemeinde"},"district":{"key":"09181","name":"Landsberg am Lech","type":"Landkreis"},"federalState":{"key":"09","name":"Bayern"}},{"name":"Blumenstr.","postalCode":"86857","locality":"Hurlach","municipality":{"key":"09181126","name":"Hurlach","type":"Kreisangehörige_Gemeinde"},"district":{"key":"09181","name":"Landsberg am Lech","type":"Landkreis"},"federalState":{"key":"09","name":"Bayern"}},{"name":"Carl-Friedrich-Benz-Str.","postalCode":"86899","locality":"Landsberg am Lech","municipality":{"key":"09181130","name":"Landsberg am Lech, GKSt","type":"Große_Kreisstadt"},"district":{"key":"09181","name":"Landsberg am Lech","type":"Landkreis"},"federalState":{"key":"09","name":"Bayern"}},{"name":"Christoph-Thomas-Scheffler-Str.","postalCode":"86899","locality":"Landsberg am Lech","municipality":{"key":"09181130","name":"Landsberg am Lech, GKSt","type":"Große_Kreisstadt"},"district":{"key":"09181","name":"Landsberg am Lech","type":"Landkreis"},"federalState":{"key":"09","name":"Bayern"}},{"name":"Donnersbergstr.","postalCode":"86857","locality":"Hurlach","municipality":{"key":"09181126","name":"Hurlach","type":"Kreisangehörige_Gemeinde"},"district":{"key":"09181","name":"Landsberg am Lech","type":"Landkreis"},"federalState":{"key":"09","name":"Bayern"}},{"name":"Ebereschenstr.","postalCode":"86899","locality":"Landsberg am Lech","municipality":{"key":"09181130","name":"Landsberg am Lech, GKSt","type":"Große_Kreisstadt"},"district":{"key":"09181","name":"Landsberg am Lech","type":"Landkreis"},"federalState":{"key":"09","name":"Bayern"}},{"name":"Edith-Stein-Str.","postalCode":"86899","locality":"Landsberg am Lech","municipality":{"key":"09181130","name":"Landsberg am Lech, GKSt","type":"Große_Kreisstadt"},"district":{"key":"09181","name":"Landsberg am Lech","type":"Landkreis"},"federalState":{"key":"09","name":"Bayern"}},{"name":"Ehrenpreisstr.","postalCode":"86899","locality":"Landsberg am Lech","municipality":{"key":"09181130","name":"Landsberg am Lech, GKSt","type":"Große_Kreisstadt"},"district":{"key":"09181","name":"Landsberg am Lech","type":"Landkreis"},"federalState":{"key":"09","name":"Bayern"}},{"name":"Eibersbergstr.","postalCode":"86899","locality":"Landsberg am Lech","municipality":{"key":"09181130","name":"Landsberg am Lech, GKSt","type":"Große_Kreisstadt"},"district":{"key":"09181","name":"Landsberg am Lech","type":"Landkreis"},"federalState":{"key":"09","name":"Bayern"}},{"name":"Eichenstr.","postalCode":"86899","locality":"Landsberg am Lech","municipality":{"key":"09181130","name":"Landsberg am Lech, GKSt","type":"Große_Kreisstadt"},"district":{"key":"09181","name":"Landsberg am Lech","type":"Landkreis"},"federalState":{"key":"09","name":"Bayern"}},{"name":"Eichholzstr.","postalCode":"86899","locality":"Landsberg am Lech","municipality":{"key":"09181130","name":"Landsberg am Lech, GKSt","type":"Große_Kreisstadt"},"district":{"key":"09181","name":"Landsberg am Lech","type":"Landkreis"},"federalState":{"key":"09","name":"Bayern"}},{"name":"Eichkapellenstr.","postalCode":"86899","locality":"Landsberg am Lech","municipality":{"key":"09181130","name":"Landsberg am Lech, GKSt","type":"Große_Kreisstadt"},"district":{"key":"09181","name":"Landsberg am Lech","type":"Landkreis"},"federalState":{"key":"09","name":"Bayern"}},{"name":"Eichteilstr.","postalCode":"86899","locality":"Landsberg am Lech","municipality":{"key":"09181130","name":"Landsberg am Lech, GKSt","type":"Große_Kreisstadt"},"district":{"key":"09181","name":"Landsberg am Lech","type":"Landkreis"},"federalState":{"key":"09","name":"Bayern"}},{"name":"Ellighofer Str.","postalCode":"86899","locality":"Landsberg am Lech","municipality":{"key":"09181130","name":"Landsberg am Lech, GKSt","type":"Große_Kreisstadt"},"district":{"key":"09181","name":"Landsberg am Lech","type":"Landkreis"},"federalState":{"key":"09","name":"Bayern"}},{"name":"Emmenhauser Str.","postalCode":"86899","locality":"Landsberg am Lech","municipality":{"key":"09181130","name":"Landsberg am Lech, GKSt","type":"Große_Kreisstadt"},"district":{"key":"09181","name":"Landsberg am Lech","type":"Landkreis"},"federalState":{"key":"09","name":"Bayern"}},{"name":"Enge Reihe","postalCode":"86899","locality":"Landsberg am Lech","municipality":{"key":"09181130","name":"Landsberg am Lech, GKSt","type":"Große_Kreisstadt"},"district":{"key":"09181","name":"Landsberg am Lech","type":"Landkreis"},"federalState":{"key":"09","name":"Bayern"}},{"name":"Englischer Garten","postalCode":"86899","locality":"Landsberg am Lech","municipality":{"key":"09181130","name":"Landsberg am Lech, GKSt","type":"Große_Kreisstadt"},"district":{"key":"09181","name":"Landsberg am Lech","type":"Landkreis"},"federalState":{"key":"09","name":"Bayern"}},{"name":"Epfenhauser Siedlung","postalCode":"86899","locality":"Landsberg am Lech","municipality":{"key":"09181130","name":"Landsberg am Lech, GKSt","type":"Große_Kreisstadt"},"district":{"key":"09181","name":"Landsberg am Lech","type":"Landkreis"},"federalState":{"key":"09","name":"Bayern"}},{"name":"Epfenhauser Str.","postalCode":"86899","locality":"Landsberg am Lech","municipality":{"key":"09181130","name":"Landsberg am Lech, GKSt","type":"Große_Kreisstadt"},"district":{"key":"09181","name":"Landsberg am Lech","type":"Landkreis"},"federalState":{"key":"09","name":"Bayern"}},{"name":"Erikaweg","postalCode":"86899","locality":"Landsberg am Lech","municipality":{"key":"09181130","name":"Landsberg am Lech, GKSt","type":"Große_Kreisstadt"},"district":{"key":"09181","name":"Landsberg am Lech","type":"Landkreis"},"federalState":{"key":"09","name":"Bayern"}},{"name":"Erlenstr.","postalCode":"86899","locality":"Landsberg am Lech","municipality":{"key":"09181130","name":"Landsberg am Lech, GKSt","type":"Große_Kreisstadt"},"district":{"key":"09181","name":"Landsberg am Lech","type":"Landkreis"},"federalState":{"key":"09","name":"Bayern"}},{"name":"Erpftinger Str.","postalCode":"86899","locality":"Landsberg am Lech","municipality":{"key":"09181130","name":"Landsberg am Lech, GKSt","type":"Große_Kreisstadt"},"district":{"key":"09181","name":"Landsberg am Lech","type":"Landkreis"},"federalState":{"key":"09","name":"Bayern"}},{"name":"Espachstr.","postalCode":"86899","locality":"Landsberg am Lech","municipality":{"key":"09181130","name":"Landsberg am Lech, GKSt","type":"Große_Kreisstadt"},"district":{"key":"09181","name":"Landsberg am Lech","type":"Landkreis"},"federalState":{"key":"09","name":"Bayern"}},{"name":"Eulenweg","postalCode":"86899","locality":"Landsberg am Lech","municipality":{"key":"09181130","name":"Landsberg am Lech, GKSt","type":"Große_Kreisstadt"},"district":{"key":"09181","name":"Landsberg am Lech","type":"Landkreis"},"federalState":{"key":"09","name":"Bayern"}},{"name":"Frühlingstr.","postalCode":"86857","locality":"Hurlach","municipality":{"key":"09181126","name":"Hurlach","type":"Kreisangehörige_Gemeinde"},"district":{"key":"09181","name":"Landsberg am Lech","type":"Landkreis"},"federalState":{"key":"09","name":"Bayern"}},{"name":"Fuggerstr.","postalCode":"86857","locality":"Hurlach","municipality":{"key":"09181126","name":"Hurlach","type":"Kreisangehörige_Gemeinde"},"district":{"key":"09181","name":"Landsberg am Lech","type":"Landkreis"},"federalState":{"key":"09","name":"Bayern"}},{"name":"Gartenstr.","postalCode":"86857","locality":"Hurlach","municipality":{"key":"09181126","name":"Hurlach","type":"Kreisangehörige_Gemeinde"},"district":{"key":"09181","name":"Landsberg am Lech","type":"Landkreis"},"federalState":{"key":"09","name":"Bayern"}},{"name":"Gissenstr.","postalCode":"86857","locality":"Hurlach","municipality":{"key":"09181126","name":"Hurlach","type":"Kreisangehörige_Gemeinde"},"district":{"key":"09181","name":"Landsberg am Lech","type":"Landkreis"},"federalState":{"key":"09","name":"Bayern"}},{"name":"Hallstattstr.","postalCode":"86857","locality":"Hurlach","municipality":{"key":"09181126","name":"Hurlach","type":"Kreisangehörige_Gemeinde"},"district":{"key":"09181","name":"Landsberg am Lech","type":"Landkreis"},"federalState":{"key":"09","name":"Bayern"}},{"name":"Hurlacher Str.","postalCode":"86857","locality":"Hurlach","municipality":{"key":"09181126","name":"Hurlach","type":"Kreisangehörige_Gemeinde"},"district":{"key":"09181","name":"Landsberg am Lech","type":"Landkreis"},"federalState":{"key":"09","name":"Bayern"}},{"name":"Hurnloherstr.","postalCode":"86857","locality":"Hurlach","municipality":{"key":"09181126","name":"Hurlach","type":"Kreisangehörige_Gemeinde"},"district":{"key":"09181","name":"Landsberg am Lech","type":"Landkreis"},"federalState":{"key":"09","name":"Bayern"}},{"name":"Iglinger Str.","postalCode":"86857","locality":"Hurlach","municipality":{"key":"09181126","name":"Hurlach","type":"Kreisangehörige_Gemeinde"},"district":{"key":"09181","name":"Landsberg am Lech","type":"Landkreis"},"federalState":{"key":"09","name":"Bayern"}},{"name":"Jahnstr.","postalCode":"86899","locality":"Landsberg am Lech","municipality":{"key":"09181130","name":"Landsberg am Lech, GKSt","type":"Große_Kreisstadt"},"district":{"key":"09181","name":"Landsberg am Lech","type":"Landkreis"},"federalState":{"key":"09","name":"Bayern"}},{"name":"Johann-Arnold-Str.","postalCode":"86899","locality":"Landsberg am Lech","municipality":{"key":"09181130","name":"Landsberg am Lech, GKSt","type":"Große_Kreisstadt"},"district":{"key":"09181","name":"Landsberg am Lech","type":"Landkreis"},"federalState":{"key":"09","name":"Bayern"}},{"name":"Johann-Ferstl-Str.","postalCode":"86899","locality":"Landsberg am Lech","municipality":{"key":"09181130","name":"Landsberg am Lech, GKSt","type":"Große_Kreisstadt"},"district":{"key":"09181","name":"Landsberg am Lech","type":"Landkreis"},"federalState":{"key":"09","name":"Bayern"}},{"name":"Johann-Kobrich-Str.","postalCode":"86899","locality":"Landsberg am Lech","municipality":{"key":"09181130","name":"Landsberg am Lech, GKSt","type":"Große_Kreisstadt"},"district":{"key":"09181","name":"Landsberg am Lech","type":"Landkreis"},"federalState":{"key":"09","name":"Bayern"}},{"name":"Johann-Mutter-Str.","postalCode":"86899","locality":"Landsberg am Lech","municipality":{"key":"09181130","name":"Landsberg am Lech, GKSt","type":"Große_Kreisstadt"},"district":{"key":"09181","name":"Landsberg am Lech","type":"Landkreis"},"federalState":{"key":"09","name":"Bayern"}},{"name":"Johann-Schmidt-Str.","postalCode":"86899","locality":"Landsberg am Lech","municipality":{"key":"09181130","name":"Landsberg am Lech, GKSt","type":"Große_Kreisstadt"},"district":{"key":"09181","name":"Landsberg am Lech","type":"Landkreis"},"federalState":{"key":"09","name":"Bayern"}},{"name":"Johann-Wechsler-Str.","postalCode":"86899","locality":"Landsberg am Lech","municipality":{"key":"09181130","name":"Landsberg am Lech, GKSt","type":"Große_Kreisstadt"},"district":{"key":"09181","name":"Landsberg am Lech","type":"Landkreis"},"federalState":{"key":"09","name":"Bayern"}},{"name":"Josef-Kloo-Str.","postalCode":"86899","locality":"Landsberg am Lech","municipality":{"key":"09181130","name":"Landsberg am Lech, GKSt","type":"Große_Kreisstadt"},"district":{"key":"09181","name":"Landsberg am Lech","type":"Landkreis"},"federalState":{"key":"09","name":"Bayern"}},{"name":"Josef-Schober-Str.","postalCode":"86899","locality":"Landsberg am Lech","municipality":{"key":"09181130","name":"Landsberg am Lech, GKSt","type":"Große_Kreisstadt"},"district":{"key":"09181","name":"Landsberg am Lech","type":"Landkreis"},"federalState":{"key":"09","name":"Bayern"}},{"name":"Justus-von-Liebig-Str.","postalCode":"86899","locality":"Landsberg am Lech","municipality":{"key":"09181130","name":"Landsberg am Lech, GKSt","type":"Große_Kreisstadt"},"district":{"key":"09181","name":"Landsberg am Lech","type":"Landkreis"},"federalState":{"key":"09","name":"Bayern"}},{"name":"Keltenstr.","postalCode":"86857","locality":"Hurlach","municipality":{"key":"09181126","name":"Hurlach","type":"Kreisangehörige_Gemeinde"},"district":{"key":"09181","name":"Landsberg am Lech","type":"Landkreis"},"federalState":{"key":"09","name":"Bayern"}},{"name":"Kronwetterstr.","postalCode":"86857","locality":"Hurlach","municipality":{"key":"09181126","name":"Hurlach","type":"Kreisangehörige_Gemeinde"},"district":{"key":"09181","name":"Landsberg am Lech","type":"Landkreis"},"federalState":{"key":"09","name":"Bayern"}},{"name":"Kusterer Str.","postalCode":"86857","locality":"Hurlach","municipality":{"key":"09181126","name":"Hurlach","type":"Kreisangehörige_Gemeinde"},"district":{"key":"09181","name":"Landsberg am Lech","type":"Landkreis"},"federalState":{"key":"09","name":"Bayern"}},{"name":"Langenmantelstr.","postalCode":"86857","locality":"Hurlach","municipality":{"key":"09181126","name":"Hurlach","type":"Kreisangehörige_Gemeinde"},"district":{"key":"09181","name":"Landsberg am Lech","type":"Landkreis"},"federalState":{"key":"09","name":"Bayern"}},{"name":"Langerringer Str.","postalCode":"86857","locality":"Hurlach","municipality":{"key":"09181126","name":"Hurlach","type":"Kreisangehörige_Gemeinde"},"district":{"key":"09181","name":"Landsberg am Lech","type":"Landkreis"},"federalState":{"key":"09","name":"Bayern"}},{"name":"Lechfeldstr.","postalCode":"86857","locality":"Hurlach","municipality":{"key":"09181126","name":"Hurlach","type":"Kreisangehörige_Gemeinde"},"district":{"key":"09181","name":"Landsberg am Lech","type":"Landkreis"},"federalState":{"key":"09","name":"Bayern"}},{"name":"Lußweg","postalCode":"86857","locality":"Hurlach","municipality":{"key":"09181126","name":"Hurlach","type":"Kreisangehörige_Gemeinde"},"district":{"key":"09181","name":"Landsberg am Lech","type":"Landkreis"},"federalState":{"key":"09","name":"Bayern"}},{"name":"Mahdweg","postalCode":"86857","locality":"Hurlach","municipality":{"key":"09181126","name":"Hurlach","type":"Kreisangehörige_Gemeinde"},"district":{"key":"09181","name":"Landsberg am Lech","type":"Landkreis"},"federalState":{"key":"09","name":"Bayern"}},{"name":"Meitinger Str.","postalCode":"86857","locality":"Hurlach","municipality":{"key":"09181126","name":"Hurlach","type":"Kreisangehörige_Gemeinde"},"district":{"key":"09181","name":"Landsberg am Lech","type":"Landkreis"},"federalState":{"key":"09","name":"Bayern"}},{"name":"Mitterfeld","postalCode":"86857","locality":"Hurlach","municipality":{"key":"09181126","name":"Hurlach","type":"Kreisangehörige_Gemeinde"},"district":{"key":"09181","name":"Landsberg am Lech","type":"Landkreis"},"federalState":{"key":"09","name":"Bayern"}},{"name":"Narzigäßchen","postalCode":"86899","locality":"Landsberg am Lech","municipality":{"key":"09181130","name":"Landsberg am Lech, GKSt","type":"Große_Kreisstadt"},"district":{"key":"09181","name":"Landsberg am Lech","type":"Landkreis"},"federalState":{"key":"09","name":"Bayern"}},{"name":"Neue Bergstr.","postalCode":"86899","locality":"Landsberg am Lech","municipality":{"key":"09181130","name":"Landsberg am Lech, GKSt","type":"Große_Kreisstadt"},"district":{"key":"09181","name":"Landsberg am Lech","type":"Landkreis"},"federalState":{"key":"09","name":"Bayern"}},{"name":"Neuteilweg","postalCode":"86899","locality":"Landsberg am Lech","municipality":{"key":"09181130","name":"Landsberg am Lech, GKSt","type":"Große_Kreisstadt"},"district":{"key":"09181","name":"Landsberg am Lech","type":"Landkreis"},"federalState":{"key":"09","name":"Bayern"}},{"name":"Nikolaus-Mangold-Str.","postalCode":"86899","locality":"Landsberg am Lech","municipality":{"key":"09181130","name":"Landsberg am Lech, GKSt","type":"Große_Kreisstadt"},"district":{"key":"09181","name":"Landsberg am Lech","type":"Landkreis"},"federalState":{"key":"09","name":"Bayern"}},{"name":"Nikolsburger Str.","postalCode":"86899","locality":"Landsberg am Lech","municipality":{"key":"09181130","name":"Landsberg am Lech, GKSt","type":"Große_Kreisstadt"},"district":{"key":"09181","name":"Landsberg am Lech","type":"Landkreis"},"federalState":{"key":"09","name":"Bayern"}},{"name":"Nordfeldstr.","postalCode":"86899","locality":"Landsberg am Lech","municipality":{"key":"09181130","name":"Landsberg am Lech, GKSt","type":"Große_Kreisstadt"},"district":{"key":"09181","name":"Landsberg am Lech","type":"Landkreis"},"federalState":{"key":"09","name":"Bayern"}},{"name":"Nordring","postalCode":"86899","locality":"Landsberg am Lech","municipality":{"key":"09181130","name":"Landsberg am Lech, GKSt","type":"Große_Kreisstadt"},"district":{"key":"09181","name":"Landsberg am Lech","type":"Landkreis"},"federalState":{"key":"09","name":"Bayern"}},{"name":"Nordstr.","postalCode":"86899","locality":"Landsberg am Lech","municipality":{"key":"09181130","name":"Landsberg am Lech, GKSt","type":"Große_Kreisstadt"},"district":{"key":"09181","name":"Landsberg am Lech","type":"Landkreis"},"federalState":{"key":"09","name":"Bayern"}},{"name":"Oberbürgermeister-Dr.-Engshuber-Str.","postalCode":"86899","locality":"Landsberg am Lech","municipality":{"key":"09181130","name":"Landsberg am Lech, GKSt","type":"Große_Kreisstadt"},"district":{"key":"09181","name":"Landsberg am Lech","type":"Landkreis"},"federalState":{"key":"09","name":"Bayern"}},{"name":"Oberbürgermeister-Thoma-Str.","postalCode":"86899","locality":"Landsberg am Lech","municipality":{"key":"09181130","name":"Landsberg am Lech, GKSt","type":"Große_Kreisstadt"},"district":{"key":"09181","name":"Landsberg am Lech","type":"Landkreis"},"federalState":{"key":"09","name":"Bayern"}},{"name":"Obere Ringstr.","postalCode":"86899","locality":"Landsberg am Lech","municipality":{"key":"09181130","name":"Landsberg am Lech, GKSt","type":"Große_Kreisstadt"},"district":{"key":"09181","name":"Landsberg am Lech","type":"Landkreis"},"federalState":{"key":"09","name":"Bayern"}},{"name":"Obere Wiesen","postalCode":"86899","locality":"Landsberg am Lech","municipality":{"key":"09181130","name":"Landsberg am Lech, GKSt","type":"Große_Kreisstadt"},"district":{"key":"09181","name":"Landsberg am Lech","type":"Landkreis"},"federalState":{"key":"09","name":"Bayern"}},{"name":"Ohmstr.","postalCode":"86899","locality":"Landsberg am Lech","municipality":{"key":"09181130","name":"Landsberg am Lech, GKSt","type":"Große_Kreisstadt"},"district":{"key":"09181","name":"Landsberg am Lech","type":"Landkreis"},"federalState":{"key":"09","name":"Bayern"}},{"name":"Otto-Leybold-Str.","postalCode":"86899","locality":"Landsberg am Lech","municipality":{"key":"09181130","name":"Landsberg am Lech, GKSt","type":"Große_Kreisstadt"},"district":{"key":"09181","name":"Landsberg am Lech","type":"Landkreis"},"federalState":{"key":"09","name":"Bayern"}},{"name":"Otto-Lilienthal-Str.","postalCode":"86899","locality":"Landsberg am Lech","municipality":{"key":"09181130","name":"Landsberg am Lech, GKSt","type":"Große_Kreisstadt"},"district":{"key":"09181","name":"Landsberg am Lech","type":"Landkreis"},"federalState":{"key":"09","name":"Bayern"}},{"name":"Pemmlerstr.","postalCode":"86857","locality":"Hurlach","municipality":{"key":"09181126","name":"Hurlach","type":"Kreisangehörige_Gemeinde"},"district":{"key":"09181","name":"Landsberg am Lech","type":"Landkreis"},"federalState":{"key":"09","name":"Bayern"}},{"name":"Poststr.","postalCode":"86857","locality":"Hurlach","municipality":{"key":"09181126","name":"Hurlach","type":"Kreisangehörige_Gemeinde"},"district":{"key":"09181","name":"Landsberg am Lech","type":"Landkreis"},"federalState":{"key":"09","name":"Bayern"}},{"name":"Ringstr.","postalCode":"86857","locality":"Hurlach","municipality":{"key":"09181126","name":"Hurlach","type":"Kreisangehörige_Gemeinde"},"district":{"key":"09181","name":"Landsberg am Lech","type":"Landkreis"},"federalState":{"key":"09","name":"Bayern"}},{"name":"Römerstr.","postalCode":"86857","locality":"Hurlach","municipality":{"key":"09181126","name":"Hurlach","type":"Kreisangehörige_Gemeinde"},"district":{"key":"09181","name":"Landsberg am Lech","type":"Landkreis"},"federalState":{"key":"09","name":"Bayern"}},{"name":"Rosenstr.","postalCode":"86857","locality":"Hurlach","municipality":{"key":"09181126","name":"Hurlach","type":"Kreisangehörige_Gemeinde"},"district":{"key":"09181","name":"Landsberg am Lech","type":"Landkreis"},"federalState":{"key":"09","name":"Bayern"}},{"name":"Schloßgasse","postalCode":"86857","locality":"Hurlach","municipality":{"key":"09181126","name":"Hurlach","type":"Kreisangehörige_Gemeinde"},"district":{"key":"09181","name":"Landsberg am Lech","type":"Landkreis"},"federalState":{"key":"09","name":"Bayern"}},{"name":"Sonnenstr.","postalCode":"86857","locality":"Hurlach","municipality":{"key":"09181126","name":"Hurlach","type":"Kreisangehörige_Gemeinde"},"district":{"key":"09181","name":"Landsberg am Lech","type":"Landkreis"},"federalState":{"key":"09","name":"Bayern"}},{"name":"Tannheimer Weg","postalCode":"86899","locality":"Landsberg am Lech","municipality":{"key":"09181130","name":"Landsberg am Lech, GKSt","type":"Große_Kreisstadt"},"district":{"key":"09181","name":"Landsberg am Lech","type":"Landkreis"},"federalState":{"key":"09","name":"Bayern"}},{"name":"Tegelbergstr.","postalCode":"86899","locality":"Landsberg am Lech","municipality":{"key":"09181130","name":"Landsberg am Lech, GKSt","type":"Große_Kreisstadt"},"district":{"key":"09181","name":"Landsberg am Lech","type":"Landkreis"},"federalState":{"key":"09","name":"Bayern"}},{"name":"Thalerseestr.","postalCode":"86899","locality":"Landsberg am Lech","municipality":{"key":"09181130","name":"Landsberg am Lech, GKSt","type":"Große_Kreisstadt"},"district":{"key":"09181","name":"Landsberg am Lech","type":"Landkreis"},"federalState":{"key":"09","name":"Bayern"}},{"name":"Thalhofener Weg","postalCode":"86899","locality":"Landsberg am Lech","municipality":{"key":"09181130","name":"Landsberg am Lech, GKSt","type":"Große_Kreisstadt"},"district":{"key":"09181","name":"Landsberg am Lech","type":"Landkreis"},"federalState":{"key":"09","name":"Bayern"}},{"name":"Thalhofstr.","postalCode":"86899","locality":"Landsberg am Lech","municipality":{"key":"09181130","name":"Landsberg am Lech, GKSt","type":"Große_Kreisstadt"},"district":{"key":"09181","name":"Landsberg am Lech","type":"Landkreis"},"federalState":{"key":"09","name":"Bayern"}},{"name":"Tobias-Unfried-Str.","postalCode":"86899","locality":"Landsberg am Lech","municipality":{"key":"09181130","name":"Landsberg am Lech, GKSt","type":"Große_Kreisstadt"},"district":{"key":"09181","name":"Landsberg am Lech","type":"Landkreis"},"federalState":{"key":"09","name":"Bayern"}},{"name":"Trautweinstr.","postalCode":"86899","locality":"Landsberg am Lech","municipality":{"key":"09181130","name":"Landsberg am Lech, GKSt","type":"Große_Kreisstadt"},"district":{"key":"09181","name":"Landsberg am Lech","type":"Landkreis"},"federalState":{"key":"09","name":"Bayern"}},{"name":"Ulmenstr.","postalCode":"86899","locality":"Landsberg am Lech","municipality":{"key":"09181130","name":"Landsberg am Lech, GKSt","type":"Große_Kreisstadt"},"district":{"key":"09181","name":"Landsberg am Lech","type":"Landkreis"},"federalState":{"key":"09","name":"Bayern"}},{"name":"Ulrich-Kiffhaber-Str.","postalCode":"86899","locality":"Landsberg am Lech","municipality":{"key":"09181130","name":"Landsberg am Lech, GKSt","type":"Große_Kreisstadt"},"district":{"key":"09181","name":"Landsberg am Lech","type":"Landkreis"},"federalState":{"key":"09","name":"Bayern"}},{"name":"Ulrich-Veist-Str.","postalCode":"86899","locality":"Landsberg am Lech","municipality":{"key":"09181130","name":"Landsberg am Lech, GKSt","type":"Große_Kreisstadt"},"district":{"key":"09181","name":"Landsberg am Lech","type":"Landkreis"},"federalState":{"key":"09","name":"Bayern"}},{"name":"Umhausener Str.","postalCode":"86899","locality":"Landsberg am Lech","municipality":{"key":"09181130","name":"Landsberg am Lech, GKSt","type":"Große_Kreisstadt"},"district":{"key":"09181","name":"Landsberg am Lech","type":"Landkreis"},"federalState":{"key":"09","name":"Bayern"}},{"name":"Ummendorfer Feld","postalCode":"86899","locality":"Landsberg am Lech","municipality":{"key":"09181130","name":"Landsberg am Lech, GKSt","type":"Große_Kreisstadt"},"district":{"key":"09181","name":"Landsberg am Lech","type":"Landkreis"},"federalState":{"key":"09","name":"Bayern"}},{"name":"Ummendorfer Str.","postalCode":"86899","locality":"Landsberg am Lech","municipality":{"key":"09181130","name":"Landsberg am Lech, GKSt","type":"Große_Kreisstadt"},"district":{"key":"09181","name":"Landsberg am Lech","type":"Landkreis"},"federalState":{"key":"09","name":"Bayern"}},{"name":"Untere Ringstr.","postalCode":"86899","locality":"Landsberg am Lech","municipality":{"key":"09181130","name":"Landsberg am Lech, GKSt","type":"Große_Kreisstadt"},"district":{"key":"09181","name":"Landsberg am Lech","type":"Landkreis"},"federalState":{"key":"09","name":"Bayern"}},{"name":"Viehweide","postalCode":"86857","locality":"Hurlach","municipality":{"key":"09181126","name":"Hurlach","type":"Kreisangehörige_Gemeinde"},"district":{"key":"09181","name":"Landsberg am Lech","type":"Landkreis"},"federalState":{"key":"09","name":"Bayern"}},{"name":"Villenbachstr.","postalCode":"86857","locality":"Hurlach","municipality":{"key":"09181126","name":"Hurlach","type":"Kreisangehörige_Gemeinde"},"district":{"key":"09181","name":"Landsberg am Lech","type":"Landkreis"},"federalState":{"key":"09","name":"Bayern"}},{"name":"Waaler Str.","postalCode":"86899","locality":"Landsberg am Lech","municipality":{"key":"09181130","name":"Landsberg am Lech, GKSt","type":"Große_Kreisstadt"},"district":{"key":"09181","name":"Landsberg am Lech","type":"Landkreis"},"federalState":{"key":"09","name":"Bayern"}},{"name":"Waitzinger Wiese","postalCode":"86899","locality":"Landsberg am Lech","municipality":{"key":"09181130","name":"Landsberg am Lech, GKSt","type":"Große_Kreisstadt"},"district":{"key":"09181","name":"Landsberg am Lech","type":"Landkreis"},"federalState":{"key":"09","name":"Bayern"}},{"name":"Waldheimer Str.","postalCode":"86899","locality":"Landsberg am Lech","municipality":{"key":"09181130","name":"Landsberg am Lech, GKSt","type":"Große_Kreisstadt"},"district":{"key":"09181","name":"Landsberg am Lech","type":"Landkreis"},"federalState":{"key":"09","name":"Bayern"}},{"name":"Waldstr.","postalCode":"86899","locality":"Landsberg am Lech","municipality":{"key":"09181130","name":"Landsberg am Lech, GKSt","type":"Große_Kreisstadt"},"district":{"key":"09181","name":"Landsberg am Lech","type":"Landkreis"},"federalState":{"key":"09","name":"Bayern"}},{"name":"Waxensteinstr.","postalCode":"86899","locality":"Landsberg am Lech","municipality":{"key":"09181130","name":"Landsberg am Lech, GKSt","type":"Große_Kreisstadt"},"district":{"key":"09181","name":"Landsberg am Lech","type":"Landkreis"},"federalState":{"key":"09","name":"Bayern"}},{"name":"Weddigenstr.","postalCode":"86899","locality":"Landsberg am Lech","municipality":{"key":"09181130","name":"Landsberg am Lech, GKSt","type":"Große_Kreisstadt"},"district":{"key":"09181","name":"Landsberg am Lech","type":"Landkreis"},"federalState":{"key":"09","name":"Bayern"}},{"name":"Weiherstr.","postalCode":"86899","locality":"Landsberg am Lech","municipality":{"key":"09181130","name":"Landsberg am Lech, GKSt","type":"Große_Kreisstadt"},"district":{"key":"09181","name":"Landsberg am Lech","type":"Landkreis"},"federalState":{"key":"09","name":"Bayern"}},{"name":"Weilheimer Str.","postalCode":"86899","locality":"Landsberg am Lech","municipality":{"key":"09181130","name":"Landsberg am Lech, GKSt","type":"Große_Kreisstadt"},"district":{"key":"09181","name":"Landsberg am Lech","type":"Landkreis"},"federalState":{"key":"09","name":"Bayern"}},{"name":"Weißdornstr.","postalCode":"86899","locality":"Landsberg am Lech","municipality":{"key":"09181130","name":"Landsberg am Lech, GKSt","type":"Große_Kreisstadt"},"district":{"key":"09181","name":"Landsberg am Lech","type":"Landkreis"},"federalState":{"key":"09","name":"Bayern"}},{"name":"Welfenstr.","postalCode":"86899","locality":"Landsberg am Lech","municipality":{"key":"09181130","name":"Landsberg am Lech, GKSt","type":"Große_Kreisstadt"},"district":{"key":"09181","name":"Landsberg am Lech","type":"Landkreis"},"federalState":{"key":"09","name":"Bayern"}},{"name":"Wettersteinstr.","postalCode":"86899","locality":"Landsberg am Lech","municipality":{"key":"09181130","name":"Landsberg am Lech, GKSt","type":"Große_Kreisstadt"},"district":{"key":"09181","name":"Landsberg am Lech","type":"Landkreis"},"federalState":{"key":"09","name":"Bayern"}},{"name":"Wiesbachstr.","postalCode":"86899","locality":"Landsberg am Lech","municipality":{"key":"09181130","name":"Landsberg am Lech, GKSt","type":"Große_Kreisstadt"},"district":{"key":"09181","name":"Landsberg am Lech","type":"Landkreis"},"federalState":{"key":"09","name":"Bayern"}},{"name":"Wiesenring","postalCode":"86899","locality":"Landsberg am Lech","municipality":{"key":"09181130","name":"Landsberg am Lech, GKSt","type":"Große_Kreisstadt"},"district":{"key":"09181","name":"Landsberg am Lech","type":"Landkreis"},"federalState":{"key":"09","name":"Bayern"}},{"name":"Wildparkweg","postalCode":"86899","locality":"Landsberg am Lech","municipality":{"key":"09181130","name":"Landsberg am Lech, GKSt","type":"Große_Kreisstadt"},"district":{"key":"09181","name":"Landsberg am Lech","type":"Landkreis"},"federalState":{"key":"09","name":"Bayern"}},{"name":"Wolfmüllerweg","postalCode":"86899","locality":"Landsberg am Lech","municipality":{"key":"09181130","name":"Landsberg am Lech, GKSt","type":"Große_Kreisstadt"},"district":{"key":"09181","name":"Landsberg am Lech","type":"Landkreis"},"federalState":{"key":"09","name":"Bayern"}},{"name":"Zederbräupassage","postalCode":"86899","locality":"Landsberg am Lech","municipality":{"key":"09181130","name":"Landsberg am Lech, GKSt","type":"Große_Kreisstadt"},"district":{"key":"09181","name":"Landsberg am Lech","type":"Landkreis"},"federalState":{"key":"09","name":"Bayern"}},{"name":"Zehnerweg","postalCode":"86899","locality":"Landsberg am Lech","municipality":{"key":"09181130","name":"Landsberg am Lech, GKSt","type":"Große_Kreisstadt"},"district":{"key":"09181","name":"Landsberg am Lech","type":"Landkreis"},"federalState":{"key":"09","name":"Bayern"}},{"name":"Ziegeleistr.","postalCode":"86899","locality":"Landsberg am Lech","municipality":{"key":"09181130","name":"Landsberg am Lech, GKSt","type":"Große_Kreisstadt"},"district":{"key":"09181","name":"Landsberg am Lech","type":"Landkreis"},"federalState":{"key":"09","name":"Bayern"}},{"name":"Zugspitzweg","postalCode":"86899","locality":"Landsberg am Lech","municipality":{"key":"09181130","name":"Landsberg am Lech, GKSt","type":"Große_Kreisstadt"},"district":{"key":"09181","name":"Landsberg am Lech","type":"Landkreis"},"federalState":{"key":"09","name":"Bayern"}},{"name":"Zum Angeracker","postalCode":"86899","locality":"Landsberg am Lech","municipality":{"key":"09181130","name":"Landsberg am Lech, GKSt","type":"Große_Kreisstadt"},"district":{"key":"09181","name":"Landsberg am Lech","type":"Landkreis"},"federalState":{"key":"09","name":"Bayern"}},{"name":"Ödacker","postalCode":"86857","locality":"Hurlach","municipality":{"key":"09181126","name":"Hurlach","type":"Kreisangehörige_Gemeinde"},"district":{"key":"09181","name":"Landsberg am Lech","type":"Landkreis"},"federalState":{"key":"09","name":"Bayern"}},]