[{"name":"Am Nussrangen","postalCode":"90619","locality":"Trautskirchen","municipality":{"key":"09575166","name":"Trautskirchen","type":"Kreisangehörige_Gemeinde"},"district":{"key":"09575","name":"Neustadt a.d.Aisch-Bad Windsheim","type":"Landkreis"},"federalState":{"key":"09","name":"Bayern"}},{"name":"Am Reitplatz","postalCode":"90619","locality":"Trautskirchen","municipality":{"key":"09575166","name":"Trautskirchen","type":"Kreisangehörige_Gemeinde"},"district":{"key":"09575","name":"Neustadt a.d.Aisch-Bad Windsheim","type":"Landkreis"},"federalState":{"key":"09","name":"Bayern"}},{"name":"Am Sommerranken","postalCode":"90619","locality":"Trautskirchen","municipality":{"key":"09575166","name":"Trautskirchen","type":"Kreisangehörige_Gemeinde"},"district":{"key":"09575","name":"Neustadt a.d.Aisch-Bad Windsheim","type":"Landkreis"},"federalState":{"key":"09","name":"Bayern"}},{"name":"Am Weinberg","postalCode":"90619","locality":"Trautskirchen","municipality":{"key":"09575166","name":"Trautskirchen","type":"Kreisangehörige_Gemeinde"},"district":{"key":"09575","name":"Neustadt a.d.Aisch-Bad Windsheim","type":"Landkreis"},"federalState":{"key":"09","name":"Bayern"}},{"name":"An der Kohlplatte","postalCode":"90619","locality":"Trautskirchen","municipality":{"key":"09575166","name":"Trautskirchen","type":"Kreisangehörige_Gemeinde"},"district":{"key":"09575","name":"Neustadt a.d.Aisch-Bad Windsheim","type":"Landkreis"},"federalState":{"key":"09","name":"Bayern"}},{"name":"An der Leiten","postalCode":"90619","locality":"Trautskirchen","municipality":{"key":"09575166","name":"Trautskirchen","type":"Kreisangehörige_Gemeinde"},"district":{"key":"09575","name":"Neustadt a.d.Aisch-Bad Windsheim","type":"Landkreis"},"federalState":{"key":"09","name":"Bayern"}},{"name":"Birkenweg","postalCode":"90619","locality":"Trautskirchen","municipality":{"key":"09575166","name":"Trautskirchen","type":"Kreisangehörige_Gemeinde"},"district":{"key":"09575","name":"Neustadt a.d.Aisch-Bad Windsheim","type":"Landkreis"},"federalState":{"key":"09","name":"Bayern"}},{"name":"Braunsklingenweg","postalCode":"90619","locality":"Trautskirchen","municipality":{"key":"09575166","name":"Trautskirchen","type":"Kreisangehörige_Gemeinde"},"district":{"key":"09575","name":"Neustadt a.d.Aisch-Bad Windsheim","type":"Landkreis"},"federalState":{"key":"09","name":"Bayern"}},{"name":"Brunnenleite","postalCode":"90619","locality":"Trautskirchen","municipality":{"key":"09575166","name":"Trautskirchen","type":"Kreisangehörige_Gemeinde"},"district":{"key":"09575","name":"Neustadt a.d.Aisch-Bad Windsheim","type":"Landkreis"},"federalState":{"key":"09","name":"Bayern"}},{"name":"Buchenweg","postalCode":"90619","locality":"Trautskirchen","municipality":{"key":"09575166","name":"Trautskirchen","type":"Kreisangehörige_Gemeinde"},"district":{"key":"09575","name":"Neustadt a.d.Aisch-Bad Windsheim","type":"Landkreis"},"federalState":{"key":"09","name":"Bayern"}},{"name":"Eichenstr.","postalCode":"90619","locality":"Trautskirchen","municipality":{"key":"09575166","name":"Trautskirchen","type":"Kreisangehörige_Gemeinde"},"district":{"key":"09575","name":"Neustadt a.d.Aisch-Bad Windsheim","type":"Landkreis"},"federalState":{"key":"09","name":"Bayern"}},{"name":"Hans-Böckler-Str.","postalCode":"90619","locality":"Trautskirchen","municipality":{"key":"09575166","name":"Trautskirchen","type":"Kreisangehörige_Gemeinde"},"district":{"key":"09575","name":"Neustadt a.d.Aisch-Bad Windsheim","type":"Landkreis"},"federalState":{"key":"09","name":"Bayern"}},{"name":"Hans-Würflein-Siedlung","postalCode":"90619","locality":"Trautskirchen","municipality":{"key":"09575166","name":"Trautskirchen","type":"Kreisangehörige_Gemeinde"},"district":{"key":"09575","name":"Neustadt a.d.Aisch-Bad Windsheim","type":"Landkreis"},"federalState":{"key":"09","name":"Bayern"}},{"name":"Hauptstr.","postalCode":"90619","locality":"Trautskirchen","municipality":{"key":"09575166","name":"Trautskirchen","type":"Kreisangehörige_Gemeinde"},"district":{"key":"09575","name":"Neustadt a.d.Aisch-Bad Windsheim","type":"Landkreis"},"federalState":{"key":"09","name":"Bayern"}},{"name":"Kirschgartenweg","postalCode":"90619","locality":"Trautskirchen","municipality":{"key":"09575166","name":"Trautskirchen","type":"Kreisangehörige_Gemeinde"},"district":{"key":"09575","name":"Neustadt a.d.Aisch-Bad Windsheim","type":"Landkreis"},"federalState":{"key":"09","name":"Bayern"}},{"name":"Merzbacher Str.","postalCode":"90619","locality":"Trautskirchen","municipality":{"key":"09575166","name":"Trautskirchen","type":"Kreisangehörige_Gemeinde"},"district":{"key":"09575","name":"Neustadt a.d.Aisch-Bad Windsheim","type":"Landkreis"},"federalState":{"key":"09","name":"Bayern"}},{"name":"Mögelheuweg","postalCode":"90619","locality":"Trautskirchen","municipality":{"key":"09575166","name":"Trautskirchen","type":"Kreisangehörige_Gemeinde"},"district":{"key":"09575","name":"Neustadt a.d.Aisch-Bad Windsheim","type":"Landkreis"},"federalState":{"key":"09","name":"Bayern"}},{"name":"Rathausplatz","postalCode":"90619","locality":"Trautskirchen","municipality":{"key":"09575166","name":"Trautskirchen","type":"Kreisangehörige_Gemeinde"},"district":{"key":"09575","name":"Neustadt a.d.Aisch-Bad Windsheim","type":"Landkreis"},"federalState":{"key":"09","name":"Bayern"}},{"name":"Rosenleite","postalCode":"90619","locality":"Trautskirchen","municipality":{"key":"09575166","name":"Trautskirchen","type":"Kreisangehörige_Gemeinde"},"district":{"key":"09575","name":"Neustadt a.d.Aisch-Bad Windsheim","type":"Landkreis"},"federalState":{"key":"09","name":"Bayern"}},{"name":"Sandgraben","postalCode":"90619","locality":"Trautskirchen","municipality":{"key":"09575166","name":"Trautskirchen","type":"Kreisangehörige_Gemeinde"},"district":{"key":"09575","name":"Neustadt a.d.Aisch-Bad Windsheim","type":"Landkreis"},"federalState":{"key":"09","name":"Bayern"}},{"name":"Schloßstr.","postalCode":"90619","locality":"Trautskirchen","municipality":{"key":"09575166","name":"Trautskirchen","type":"Kreisangehörige_Gemeinde"},"district":{"key":"09575","name":"Neustadt a.d.Aisch-Bad Windsheim","type":"Landkreis"},"federalState":{"key":"09","name":"Bayern"}},{"name":"Steinbach","postalCode":"90619","locality":"Trautskirchen","municipality":{"key":"09575166","name":"Trautskirchen","type":"Kreisangehörige_Gemeinde"},"district":{"key":"09575","name":"Neustadt a.d.Aisch-Bad Windsheim","type":"Landkreis"},"federalState":{"key":"09","name":"Bayern"}},{"name":"Türkeiplatz","postalCode":"90619","locality":"Trautskirchen","municipality":{"key":"09575166","name":"Trautskirchen","type":"Kreisangehörige_Gemeinde"},"district":{"key":"09575","name":"Neustadt a.d.Aisch-Bad Windsheim","type":"Landkreis"},"federalState":{"key":"09","name":"Bayern"}},{"name":"Weinbergstr.","postalCode":"90619","locality":"Trautskirchen","municipality":{"key":"09575166","name":"Trautskirchen","type":"Kreisangehörige_Gemeinde"},"district":{"key":"09575","name":"Neustadt a.d.Aisch-Bad Windsheim","type":"Landkreis"},"federalState":{"key":"09","name":"Bayern"}},]