[{"name":"Abrahamweg","postalCode":"82291","locality":"Mammendorf","municipality":{"key":"09179136","name":"Mammendorf","type":"Kreisangehörige_Gemeinde"},"district":{"key":"09179","name":"Fürstenfeldbruck","type":"Landkreis"},"federalState":{"key":"09","name":"Bayern"}},{"name":"Adalbert-Stifter-Str.","postalCode":"82291","locality":"Mammendorf","municipality":{"key":"09179136","name":"Mammendorf","type":"Kreisangehörige_Gemeinde"},"district":{"key":"09179","name":"Fürstenfeldbruck","type":"Landkreis"},"federalState":{"key":"09","name":"Bayern"}},{"name":"Ahornstr.","postalCode":"82291","locality":"Mammendorf","municipality":{"key":"09179136","name":"Mammendorf","type":"Kreisangehörige_Gemeinde"},"district":{"key":"09179","name":"Fürstenfeldbruck","type":"Landkreis"},"federalState":{"key":"09","name":"Bayern"}},{"name":"Aicher Str.","postalCode":"82291","locality":"Mammendorf","municipality":{"key":"09179136","name":"Mammendorf","type":"Kreisangehörige_Gemeinde"},"district":{"key":"09179","name":"Fürstenfeldbruck","type":"Landkreis"},"federalState":{"key":"09","name":"Bayern"}},{"name":"Albrecht-Dürer-Str.","postalCode":"82291","locality":"Mammendorf","municipality":{"key":"09179136","name":"Mammendorf","type":"Kreisangehörige_Gemeinde"},"district":{"key":"09179","name":"Fürstenfeldbruck","type":"Landkreis"},"federalState":{"key":"09","name":"Bayern"}},{"name":"Am Biberberg","postalCode":"82291","locality":"Mammendorf","municipality":{"key":"09179136","name":"Mammendorf","type":"Kreisangehörige_Gemeinde"},"district":{"key":"09179","name":"Fürstenfeldbruck","type":"Landkreis"},"federalState":{"key":"09","name":"Bayern"}},{"name":"Am Haldenberg","postalCode":"82291","locality":"Mammendorf","municipality":{"key":"09179136","name":"Mammendorf","type":"Kreisangehörige_Gemeinde"},"district":{"key":"09179","name":"Fürstenfeldbruck","type":"Landkreis"},"federalState":{"key":"09","name":"Bayern"}},{"name":"Am Kreuzfeld","postalCode":"82291","locality":"Mammendorf","municipality":{"key":"09179136","name":"Mammendorf","type":"Kreisangehörige_Gemeinde"},"district":{"key":"09179","name":"Fürstenfeldbruck","type":"Landkreis"},"federalState":{"key":"09","name":"Bayern"}},{"name":"Am Kripp","postalCode":"82291","locality":"Mammendorf","municipality":{"key":"09179136","name":"Mammendorf","type":"Kreisangehörige_Gemeinde"},"district":{"key":"09179","name":"Fürstenfeldbruck","type":"Landkreis"},"federalState":{"key":"09","name":"Bayern"}},{"name":"Am Moosfeld","postalCode":"82291","locality":"Mammendorf","municipality":{"key":"09179136","name":"Mammendorf","type":"Kreisangehörige_Gemeinde"},"district":{"key":"09179","name":"Fürstenfeldbruck","type":"Landkreis"},"federalState":{"key":"09","name":"Bayern"}},{"name":"Am Pult","postalCode":"82291","locality":"Mammendorf","municipality":{"key":"09179136","name":"Mammendorf","type":"Kreisangehörige_Gemeinde"},"district":{"key":"09179","name":"Fürstenfeldbruck","type":"Landkreis"},"federalState":{"key":"09","name":"Bayern"}},{"name":"An der Maisach","postalCode":"82291","locality":"Mammendorf","municipality":{"key":"09179136","name":"Mammendorf","type":"Kreisangehörige_Gemeinde"},"district":{"key":"09179","name":"Fürstenfeldbruck","type":"Landkreis"},"federalState":{"key":"09","name":"Bayern"}},{"name":"Angerweg","postalCode":"82291","locality":"Mammendorf","municipality":{"key":"09179136","name":"Mammendorf","type":"Kreisangehörige_Gemeinde"},"district":{"key":"09179","name":"Fürstenfeldbruck","type":"Landkreis"},"federalState":{"key":"09","name":"Bayern"}},{"name":"Annette-Kolb-Str.","postalCode":"82291","locality":"Mammendorf","municipality":{"key":"09179136","name":"Mammendorf","type":"Kreisangehörige_Gemeinde"},"district":{"key":"09179","name":"Fürstenfeldbruck","type":"Landkreis"},"federalState":{"key":"09","name":"Bayern"}},{"name":"Anzengruberstr.","postalCode":"82291","locality":"Mammendorf","municipality":{"key":"09179136","name":"Mammendorf","type":"Kreisangehörige_Gemeinde"},"district":{"key":"09179","name":"Fürstenfeldbruck","type":"Landkreis"},"federalState":{"key":"09","name":"Bayern"}},{"name":"Augsburger Str.","postalCode":"82291","locality":"Mammendorf","municipality":{"key":"09179136","name":"Mammendorf","type":"Kreisangehörige_Gemeinde"},"district":{"key":"09179","name":"Fürstenfeldbruck","type":"Landkreis"},"federalState":{"key":"09","name":"Bayern"}},{"name":"August-Kett-Weg","postalCode":"82291","locality":"Mammendorf","municipality":{"key":"09179136","name":"Mammendorf","type":"Kreisangehörige_Gemeinde"},"district":{"key":"09179","name":"Fürstenfeldbruck","type":"Landkreis"},"federalState":{"key":"09","name":"Bayern"}},{"name":"Bachstr.","postalCode":"82291","locality":"Mammendorf","municipality":{"key":"09179136","name":"Mammendorf","type":"Kreisangehörige_Gemeinde"},"district":{"key":"09179","name":"Fürstenfeldbruck","type":"Landkreis"},"federalState":{"key":"09","name":"Bayern"}},{"name":"Bert-Brecht-Str.","postalCode":"82291","locality":"Mammendorf","municipality":{"key":"09179136","name":"Mammendorf","type":"Kreisangehörige_Gemeinde"},"district":{"key":"09179","name":"Fürstenfeldbruck","type":"Landkreis"},"federalState":{"key":"09","name":"Bayern"}},{"name":"Biberfeldstr.","postalCode":"82291","locality":"Mammendorf","municipality":{"key":"09179136","name":"Mammendorf","type":"Kreisangehörige_Gemeinde"},"district":{"key":"09179","name":"Fürstenfeldbruck","type":"Landkreis"},"federalState":{"key":"09","name":"Bayern"}},{"name":"Birkenweg","postalCode":"82291","locality":"Mammendorf","municipality":{"key":"09179136","name":"Mammendorf","type":"Kreisangehörige_Gemeinde"},"district":{"key":"09179","name":"Fürstenfeldbruck","type":"Landkreis"},"federalState":{"key":"09","name":"Bayern"}},{"name":"Brem-sur-Mer-Str.","postalCode":"82291","locality":"Mammendorf","municipality":{"key":"09179136","name":"Mammendorf","type":"Kreisangehörige_Gemeinde"},"district":{"key":"09179","name":"Fürstenfeldbruck","type":"Landkreis"},"federalState":{"key":"09","name":"Bayern"}},{"name":"Brunnenweg","postalCode":"82291","locality":"Mammendorf","municipality":{"key":"09179136","name":"Mammendorf","type":"Kreisangehörige_Gemeinde"},"district":{"key":"09179","name":"Fürstenfeldbruck","type":"Landkreis"},"federalState":{"key":"09","name":"Bayern"}},{"name":"Brunnfeldstr.","postalCode":"82291","locality":"Mammendorf","municipality":{"key":"09179136","name":"Mammendorf","type":"Kreisangehörige_Gemeinde"},"district":{"key":"09179","name":"Fürstenfeldbruck","type":"Landkreis"},"federalState":{"key":"09","name":"Bayern"}},{"name":"Buchenstr.","postalCode":"82291","locality":"Mammendorf","municipality":{"key":"09179136","name":"Mammendorf","type":"Kreisangehörige_Gemeinde"},"district":{"key":"09179","name":"Fürstenfeldbruck","type":"Landkreis"},"federalState":{"key":"09","name":"Bayern"}},{"name":"Bürgermeister-Drexler-Bogen","postalCode":"82291","locality":"Mammendorf","municipality":{"key":"09179136","name":"Mammendorf","type":"Kreisangehörige_Gemeinde"},"district":{"key":"09179","name":"Fürstenfeldbruck","type":"Landkreis"},"federalState":{"key":"09","name":"Bayern"}},{"name":"Bürgermeister-Gantner-Str.","postalCode":"82291","locality":"Mammendorf","municipality":{"key":"09179136","name":"Mammendorf","type":"Kreisangehörige_Gemeinde"},"district":{"key":"09179","name":"Fürstenfeldbruck","type":"Landkreis"},"federalState":{"key":"09","name":"Bayern"}},{"name":"Carl-von-Linde-Str.","postalCode":"82256","locality":"Fürstenfeldbruck","municipality":{"key":"09179121","name":"Fürstenfeldbruck, GKSt","type":"Große_Kreisstadt"},"district":{"key":"09179","name":"Fürstenfeldbruck","type":"Landkreis"},"federalState":{"key":"09","name":"Bayern"}},{"name":"Cerveteristr.","postalCode":"82256","locality":"Fürstenfeldbruck","municipality":{"key":"09179121","name":"Fürstenfeldbruck, GKSt","type":"Große_Kreisstadt"},"district":{"key":"09179","name":"Fürstenfeldbruck","type":"Landkreis"},"federalState":{"key":"09","name":"Bayern"}},{"name":"Dorfstr.","postalCode":"82291","locality":"Mammendorf","municipality":{"key":"09179136","name":"Mammendorf","type":"Kreisangehörige_Gemeinde"},"district":{"key":"09179","name":"Fürstenfeldbruck","type":"Landkreis"},"federalState":{"key":"09","name":"Bayern"}},{"name":"Eichendorffstr.","postalCode":"82291","locality":"Mammendorf","municipality":{"key":"09179136","name":"Mammendorf","type":"Kreisangehörige_Gemeinde"},"district":{"key":"09179","name":"Fürstenfeldbruck","type":"Landkreis"},"federalState":{"key":"09","name":"Bayern"}},{"name":"Eichenstr.","postalCode":"82291","locality":"Mammendorf","municipality":{"key":"09179136","name":"Mammendorf","type":"Kreisangehörige_Gemeinde"},"district":{"key":"09179","name":"Fürstenfeldbruck","type":"Landkreis"},"federalState":{"key":"09","name":"Bayern"}},{"name":"Erich-Kästner-Weg","postalCode":"82291","locality":"Mammendorf","municipality":{"key":"09179136","name":"Mammendorf","type":"Kreisangehörige_Gemeinde"},"district":{"key":"09179","name":"Fürstenfeldbruck","type":"Landkreis"},"federalState":{"key":"09","name":"Bayern"}},{"name":"Espenstr.","postalCode":"82291","locality":"Mammendorf","municipality":{"key":"09179136","name":"Mammendorf","type":"Kreisangehörige_Gemeinde"},"district":{"key":"09179","name":"Fürstenfeldbruck","type":"Landkreis"},"federalState":{"key":"09","name":"Bayern"}},{"name":"Feldstr.","postalCode":"82291","locality":"Mammendorf","municipality":{"key":"09179136","name":"Mammendorf","type":"Kreisangehörige_Gemeinde"},"district":{"key":"09179","name":"Fürstenfeldbruck","type":"Landkreis"},"federalState":{"key":"09","name":"Bayern"}},{"name":"Franz-Brunner-Weg","postalCode":"82291","locality":"Mammendorf","municipality":{"key":"09179136","name":"Mammendorf","type":"Kreisangehörige_Gemeinde"},"district":{"key":"09179","name":"Fürstenfeldbruck","type":"Landkreis"},"federalState":{"key":"09","name":"Bayern"}},{"name":"Friedensweg","postalCode":"82291","locality":"Mammendorf","municipality":{"key":"09179136","name":"Mammendorf","type":"Kreisangehörige_Gemeinde"},"district":{"key":"09179","name":"Fürstenfeldbruck","type":"Landkreis"},"federalState":{"key":"09","name":"Bayern"}},{"name":"Furtmühlweg","postalCode":"82291","locality":"Mammendorf","municipality":{"key":"09179136","name":"Mammendorf","type":"Kreisangehörige_Gemeinde"},"district":{"key":"09179","name":"Fürstenfeldbruck","type":"Landkreis"},"federalState":{"key":"09","name":"Bayern"}},{"name":"Ganghoferstr.","postalCode":"82291","locality":"Mammendorf","municipality":{"key":"09179136","name":"Mammendorf","type":"Kreisangehörige_Gemeinde"},"district":{"key":"09179","name":"Fürstenfeldbruck","type":"Landkreis"},"federalState":{"key":"09","name":"Bayern"}},{"name":"Gartenstr.","postalCode":"82291","locality":"Mammendorf","municipality":{"key":"09179136","name":"Mammendorf","type":"Kreisangehörige_Gemeinde"},"district":{"key":"09179","name":"Fürstenfeldbruck","type":"Landkreis"},"federalState":{"key":"09","name":"Bayern"}},{"name":"Gärtner-Schmid-Str.","postalCode":"82291","locality":"Mammendorf","municipality":{"key":"09179136","name":"Mammendorf","type":"Kreisangehörige_Gemeinde"},"district":{"key":"09179","name":"Fürstenfeldbruck","type":"Landkreis"},"federalState":{"key":"09","name":"Bayern"}},{"name":"Gebrüder-Asam-Str.","postalCode":"82291","locality":"Mammendorf","municipality":{"key":"09179136","name":"Mammendorf","type":"Kreisangehörige_Gemeinde"},"district":{"key":"09179","name":"Fürstenfeldbruck","type":"Landkreis"},"federalState":{"key":"09","name":"Bayern"}},{"name":"Gebrüder-Grimm-Weg","postalCode":"82291","locality":"Mammendorf","municipality":{"key":"09179136","name":"Mammendorf","type":"Kreisangehörige_Gemeinde"},"district":{"key":"09179","name":"Fürstenfeldbruck","type":"Landkreis"},"federalState":{"key":"09","name":"Bayern"}},{"name":"Goethestr.","postalCode":"82291","locality":"Mammendorf","municipality":{"key":"09179136","name":"Mammendorf","type":"Kreisangehörige_Gemeinde"},"district":{"key":"09179","name":"Fürstenfeldbruck","type":"Landkreis"},"federalState":{"key":"09","name":"Bayern"}},{"name":"Grottenstr.","postalCode":"82291","locality":"Mammendorf","municipality":{"key":"09179136","name":"Mammendorf","type":"Kreisangehörige_Gemeinde"},"district":{"key":"09179","name":"Fürstenfeldbruck","type":"Landkreis"},"federalState":{"key":"09","name":"Bayern"}},{"name":"Hans-Pichler-Str.","postalCode":"82291","locality":"Mammendorf","municipality":{"key":"09179136","name":"Mammendorf","type":"Kreisangehörige_Gemeinde"},"district":{"key":"09179","name":"Fürstenfeldbruck","type":"Landkreis"},"federalState":{"key":"09","name":"Bayern"}},{"name":"Hans-Winkler-Platz","postalCode":"82291","locality":"Mammendorf","municipality":{"key":"09179136","name":"Mammendorf","type":"Kreisangehörige_Gemeinde"},"district":{"key":"09179","name":"Fürstenfeldbruck","type":"Landkreis"},"federalState":{"key":"09","name":"Bayern"}},{"name":"Hartfeldstr.","postalCode":"82291","locality":"Mammendorf","municipality":{"key":"09179136","name":"Mammendorf","type":"Kreisangehörige_Gemeinde"},"district":{"key":"09179","name":"Fürstenfeldbruck","type":"Landkreis"},"federalState":{"key":"09","name":"Bayern"}},{"name":"Heinrich-Heine-Str.","postalCode":"82291","locality":"Mammendorf","municipality":{"key":"09179136","name":"Mammendorf","type":"Kreisangehörige_Gemeinde"},"district":{"key":"09179","name":"Fürstenfeldbruck","type":"Landkreis"},"federalState":{"key":"09","name":"Bayern"}},{"name":"Im Eichgärtl","postalCode":"82256","locality":"Fürstenfeldbruck","municipality":{"key":"09179121","name":"Fürstenfeldbruck, GKSt","type":"Große_Kreisstadt"},"district":{"key":"09179","name":"Fürstenfeldbruck","type":"Landkreis"},"federalState":{"key":"09","name":"Bayern"}},{"name":"Jahnweg","postalCode":"82291","locality":"Mammendorf","municipality":{"key":"09179136","name":"Mammendorf","type":"Kreisangehörige_Gemeinde"},"district":{"key":"09179","name":"Fürstenfeldbruck","type":"Landkreis"},"federalState":{"key":"09","name":"Bayern"}},{"name":"Jesenwanger Str.","postalCode":"82291","locality":"Mammendorf","municipality":{"key":"09179136","name":"Mammendorf","type":"Kreisangehörige_Gemeinde"},"district":{"key":"09179","name":"Fürstenfeldbruck","type":"Landkreis"},"federalState":{"key":"09","name":"Bayern"}},{"name":"Josef-Sell-Str.","postalCode":"82291","locality":"Mammendorf","municipality":{"key":"09179136","name":"Mammendorf","type":"Kreisangehörige_Gemeinde"},"district":{"key":"09179","name":"Fürstenfeldbruck","type":"Landkreis"},"federalState":{"key":"09","name":"Bayern"}},{"name":"Jupiterstr.","postalCode":"82291","locality":"Mammendorf","municipality":{"key":"09179136","name":"Mammendorf","type":"Kreisangehörige_Gemeinde"},"district":{"key":"09179","name":"Fürstenfeldbruck","type":"Landkreis"},"federalState":{"key":"09","name":"Bayern"}},{"name":"Kapellenstr.","postalCode":"82291","locality":"Mammendorf","municipality":{"key":"09179136","name":"Mammendorf","type":"Kreisangehörige_Gemeinde"},"district":{"key":"09179","name":"Fürstenfeldbruck","type":"Landkreis"},"federalState":{"key":"09","name":"Bayern"}},{"name":"Kettelerstr.","postalCode":"82291","locality":"Mammendorf","municipality":{"key":"09179136","name":"Mammendorf","type":"Kreisangehörige_Gemeinde"},"district":{"key":"09179","name":"Fürstenfeldbruck","type":"Landkreis"},"federalState":{"key":"09","name":"Bayern"}},{"name":"Klosterstr.","postalCode":"82291","locality":"Mammendorf","municipality":{"key":"09179136","name":"Mammendorf","type":"Kreisangehörige_Gemeinde"},"district":{"key":"09179","name":"Fürstenfeldbruck","type":"Landkreis"},"federalState":{"key":"09","name":"Bayern"}},{"name":"Kohlstattstr.","postalCode":"82291","locality":"Mammendorf","municipality":{"key":"09179136","name":"Mammendorf","type":"Kreisangehörige_Gemeinde"},"district":{"key":"09179","name":"Fürstenfeldbruck","type":"Landkreis"},"federalState":{"key":"09","name":"Bayern"}},{"name":"Kramerweg","postalCode":"82291","locality":"Mammendorf","municipality":{"key":"09179136","name":"Mammendorf","type":"Kreisangehörige_Gemeinde"},"district":{"key":"09179","name":"Fürstenfeldbruck","type":"Landkreis"},"federalState":{"key":"09","name":"Bayern"}},{"name":"Kreuzstr.","postalCode":"82291","locality":"Mammendorf","municipality":{"key":"09179136","name":"Mammendorf","type":"Kreisangehörige_Gemeinde"},"district":{"key":"09179","name":"Fürstenfeldbruck","type":"Landkreis"},"federalState":{"key":"09","name":"Bayern"}},{"name":"Kriegerdenkmal-Park","postalCode":"82291","locality":"Mammendorf","municipality":{"key":"09179136","name":"Mammendorf","type":"Kreisangehörige_Gemeinde"},"district":{"key":"09179","name":"Fürstenfeldbruck","type":"Landkreis"},"federalState":{"key":"09","name":"Bayern"}},{"name":"Kugelbichlweg","postalCode":"82291","locality":"Mammendorf","municipality":{"key":"09179136","name":"Mammendorf","type":"Kreisangehörige_Gemeinde"},"district":{"key":"09179","name":"Fürstenfeldbruck","type":"Landkreis"},"federalState":{"key":"09","name":"Bayern"}},{"name":"Landrat-Grimm-Str.","postalCode":"82291","locality":"Mammendorf","municipality":{"key":"09179136","name":"Mammendorf","type":"Kreisangehörige_Gemeinde"},"district":{"key":"09179","name":"Fürstenfeldbruck","type":"Landkreis"},"federalState":{"key":"09","name":"Bayern"}},{"name":"Lärchenstr.","postalCode":"82291","locality":"Mammendorf","municipality":{"key":"09179136","name":"Mammendorf","type":"Kreisangehörige_Gemeinde"},"district":{"key":"09179","name":"Fürstenfeldbruck","type":"Landkreis"},"federalState":{"key":"09","name":"Bayern"}},{"name":"Lena-Christ-Str.","postalCode":"82291","locality":"Mammendorf","municipality":{"key":"09179136","name":"Mammendorf","type":"Kreisangehörige_Gemeinde"},"district":{"key":"09179","name":"Fürstenfeldbruck","type":"Landkreis"},"federalState":{"key":"09","name":"Bayern"}},{"name":"Lenbachstr.","postalCode":"82291","locality":"Mammendorf","municipality":{"key":"09179136","name":"Mammendorf","type":"Kreisangehörige_Gemeinde"},"district":{"key":"09179","name":"Fürstenfeldbruck","type":"Landkreis"},"federalState":{"key":"09","name":"Bayern"}},{"name":"Lessingstr.","postalCode":"82291","locality":"Mammendorf","municipality":{"key":"09179136","name":"Mammendorf","type":"Kreisangehörige_Gemeinde"},"district":{"key":"09179","name":"Fürstenfeldbruck","type":"Landkreis"},"federalState":{"key":"09","name":"Bayern"}},{"name":"Lindenstr.","postalCode":"82291","locality":"Mammendorf","municipality":{"key":"09179136","name":"Mammendorf","type":"Kreisangehörige_Gemeinde"},"district":{"key":"09179","name":"Fürstenfeldbruck","type":"Landkreis"},"federalState":{"key":"09","name":"Bayern"}},{"name":"Ludwig-Thoma-Str.","postalCode":"82291","locality":"Mammendorf","municipality":{"key":"09179136","name":"Mammendorf","type":"Kreisangehörige_Gemeinde"},"district":{"key":"09179","name":"Fürstenfeldbruck","type":"Landkreis"},"federalState":{"key":"09","name":"Bayern"}},{"name":"Maisweg","postalCode":"82291","locality":"Mammendorf","municipality":{"key":"09179136","name":"Mammendorf","type":"Kreisangehörige_Gemeinde"},"district":{"key":"09179","name":"Fürstenfeldbruck","type":"Landkreis"},"federalState":{"key":"09","name":"Bayern"}},{"name":"Marienweg","postalCode":"82291","locality":"Mammendorf","municipality":{"key":"09179136","name":"Mammendorf","type":"Kreisangehörige_Gemeinde"},"district":{"key":"09179","name":"Fürstenfeldbruck","type":"Landkreis"},"federalState":{"key":"09","name":"Bayern"}},{"name":"Martin-Bauer-Weg","postalCode":"82291","locality":"Mammendorf","municipality":{"key":"09179136","name":"Mammendorf","type":"Kreisangehörige_Gemeinde"},"district":{"key":"09179","name":"Fürstenfeldbruck","type":"Landkreis"},"federalState":{"key":"09","name":"Bayern"}},{"name":"Martin-Luther-Platz","postalCode":"82291","locality":"Mammendorf","municipality":{"key":"09179136","name":"Mammendorf","type":"Kreisangehörige_Gemeinde"},"district":{"key":"09179","name":"Fürstenfeldbruck","type":"Landkreis"},"federalState":{"key":"09","name":"Bayern"}},{"name":"Michael-Aumüller-Str.","postalCode":"82291","locality":"Mammendorf","municipality":{"key":"09179136","name":"Mammendorf","type":"Kreisangehörige_Gemeinde"},"district":{"key":"09179","name":"Fürstenfeldbruck","type":"Landkreis"},"federalState":{"key":"09","name":"Bayern"}},{"name":"Mitterfeldstr.","postalCode":"82291","locality":"Mammendorf","municipality":{"key":"09179136","name":"Mammendorf","type":"Kreisangehörige_Gemeinde"},"district":{"key":"09179","name":"Fürstenfeldbruck","type":"Landkreis"},"federalState":{"key":"09","name":"Bayern"}},{"name":"Mondstr.","postalCode":"82291","locality":"Mammendorf","municipality":{"key":"09179136","name":"Mammendorf","type":"Kreisangehörige_Gemeinde"},"district":{"key":"09179","name":"Fürstenfeldbruck","type":"Landkreis"},"federalState":{"key":"09","name":"Bayern"}},{"name":"Münchner Str.","postalCode":"82291","locality":"Mammendorf","municipality":{"key":"09179136","name":"Mammendorf","type":"Kreisangehörige_Gemeinde"},"district":{"key":"09179","name":"Fürstenfeldbruck","type":"Landkreis"},"federalState":{"key":"09","name":"Bayern"}},{"name":"Nelly-Sachs-Str.","postalCode":"82291","locality":"Mammendorf","municipality":{"key":"09179136","name":"Mammendorf","type":"Kreisangehörige_Gemeinde"},"district":{"key":"09179","name":"Fürstenfeldbruck","type":"Landkreis"},"federalState":{"key":"09","name":"Bayern"}},{"name":"Neue Heimat","postalCode":"82291","locality":"Mammendorf","municipality":{"key":"09179136","name":"Mammendorf","type":"Kreisangehörige_Gemeinde"},"district":{"key":"09179","name":"Fürstenfeldbruck","type":"Landkreis"},"federalState":{"key":"09","name":"Bayern"}},{"name":"Nikolausstr.","postalCode":"82291","locality":"Mammendorf","municipality":{"key":"09179136","name":"Mammendorf","type":"Kreisangehörige_Gemeinde"},"district":{"key":"09179","name":"Fürstenfeldbruck","type":"Landkreis"},"federalState":{"key":"09","name":"Bayern"}},{"name":"Obermühlweg","postalCode":"82291","locality":"Mammendorf","municipality":{"key":"09179136","name":"Mammendorf","type":"Kreisangehörige_Gemeinde"},"district":{"key":"09179","name":"Fürstenfeldbruck","type":"Landkreis"},"federalState":{"key":"09","name":"Bayern"}},{"name":"Oskar-von-Miller-Str.","postalCode":"82291","locality":"Mammendorf","municipality":{"key":"09179136","name":"Mammendorf","type":"Kreisangehörige_Gemeinde"},"district":{"key":"09179","name":"Fürstenfeldbruck","type":"Landkreis"},"federalState":{"key":"09","name":"Bayern"}},{"name":"Parkstr.","postalCode":"82291","locality":"Mammendorf","municipality":{"key":"09179136","name":"Mammendorf","type":"Kreisangehörige_Gemeinde"},"district":{"key":"09179","name":"Fürstenfeldbruck","type":"Landkreis"},"federalState":{"key":"09","name":"Bayern"}},{"name":"Pestalozzistr.","postalCode":"82291","locality":"Mammendorf","municipality":{"key":"09179136","name":"Mammendorf","type":"Kreisangehörige_Gemeinde"},"district":{"key":"09179","name":"Fürstenfeldbruck","type":"Landkreis"},"federalState":{"key":"09","name":"Bayern"}},{"name":"Raiffeisenweg","postalCode":"82291","locality":"Mammendorf","municipality":{"key":"09179136","name":"Mammendorf","type":"Kreisangehörige_Gemeinde"},"district":{"key":"09179","name":"Fürstenfeldbruck","type":"Landkreis"},"federalState":{"key":"09","name":"Bayern"}},{"name":"Rathausplatz","postalCode":"82291","locality":"Mammendorf","municipality":{"key":"09179136","name":"Mammendorf","type":"Kreisangehörige_Gemeinde"},"district":{"key":"09179","name":"Fürstenfeldbruck","type":"Landkreis"},"federalState":{"key":"09","name":"Bayern"}},{"name":"Ricarda-Huch-Bogen","postalCode":"82291","locality":"Mammendorf","municipality":{"key":"09179136","name":"Mammendorf","type":"Kreisangehörige_Gemeinde"},"district":{"key":"09179","name":"Fürstenfeldbruck","type":"Landkreis"},"federalState":{"key":"09","name":"Bayern"}},{"name":"Ronbergerweg","postalCode":"82291","locality":"Mammendorf","municipality":{"key":"09179136","name":"Mammendorf","type":"Kreisangehörige_Gemeinde"},"district":{"key":"09179","name":"Fürstenfeldbruck","type":"Landkreis"},"federalState":{"key":"09","name":"Bayern"}},{"name":"Sattlerstr.","postalCode":"82291","locality":"Mammendorf","municipality":{"key":"09179136","name":"Mammendorf","type":"Kreisangehörige_Gemeinde"},"district":{"key":"09179","name":"Fürstenfeldbruck","type":"Landkreis"},"federalState":{"key":"09","name":"Bayern"}},{"name":"Schafflerweg","postalCode":"82291","locality":"Mammendorf","municipality":{"key":"09179136","name":"Mammendorf","type":"Kreisangehörige_Gemeinde"},"district":{"key":"09179","name":"Fürstenfeldbruck","type":"Landkreis"},"federalState":{"key":"09","name":"Bayern"}},{"name":"Schillerstr.","postalCode":"82291","locality":"Mammendorf","municipality":{"key":"09179136","name":"Mammendorf","type":"Kreisangehörige_Gemeinde"},"district":{"key":"09179","name":"Fürstenfeldbruck","type":"Landkreis"},"federalState":{"key":"09","name":"Bayern"}},{"name":"Schloßbergstr.","postalCode":"82291","locality":"Mammendorf","municipality":{"key":"09179136","name":"Mammendorf","type":"Kreisangehörige_Gemeinde"},"district":{"key":"09179","name":"Fürstenfeldbruck","type":"Landkreis"},"federalState":{"key":"09","name":"Bayern"}},{"name":"Schmiedstr.","postalCode":"82291","locality":"Mammendorf","municipality":{"key":"09179136","name":"Mammendorf","type":"Kreisangehörige_Gemeinde"},"district":{"key":"09179","name":"Fürstenfeldbruck","type":"Landkreis"},"federalState":{"key":"09","name":"Bayern"}},{"name":"Schulstr.","postalCode":"82291","locality":"Mammendorf","municipality":{"key":"09179136","name":"Mammendorf","type":"Kreisangehörige_Gemeinde"},"district":{"key":"09179","name":"Fürstenfeldbruck","type":"Landkreis"},"federalState":{"key":"09","name":"Bayern"}},{"name":"Schusterweg","postalCode":"82291","locality":"Mammendorf","municipality":{"key":"09179136","name":"Mammendorf","type":"Kreisangehörige_Gemeinde"},"district":{"key":"09179","name":"Fürstenfeldbruck","type":"Landkreis"},"federalState":{"key":"09","name":"Bayern"}},{"name":"Schwarzgrabenweg","postalCode":"82291","locality":"Mammendorf","municipality":{"key":"09179136","name":"Mammendorf","type":"Kreisangehörige_Gemeinde"},"district":{"key":"09179","name":"Fürstenfeldbruck","type":"Landkreis"},"federalState":{"key":"09","name":"Bayern"}},{"name":"Siemensstr.","postalCode":"82291","locality":"Mammendorf","municipality":{"key":"09179136","name":"Mammendorf","type":"Kreisangehörige_Gemeinde"},"district":{"key":"09179","name":"Fürstenfeldbruck","type":"Landkreis"},"federalState":{"key":"09","name":"Bayern"}},{"name":"Spitzerweg","postalCode":"82291","locality":"Mammendorf","municipality":{"key":"09179136","name":"Mammendorf","type":"Kreisangehörige_Gemeinde"},"district":{"key":"09179","name":"Fürstenfeldbruck","type":"Landkreis"},"federalState":{"key":"09","name":"Bayern"}},{"name":"Spitzwegstr.","postalCode":"82291","locality":"Mammendorf","municipality":{"key":"09179136","name":"Mammendorf","type":"Kreisangehörige_Gemeinde"},"district":{"key":"09179","name":"Fürstenfeldbruck","type":"Landkreis"},"federalState":{"key":"09","name":"Bayern"}},{"name":"Sternstr.","postalCode":"82291","locality":"Mammendorf","municipality":{"key":"09179136","name":"Mammendorf","type":"Kreisangehörige_Gemeinde"},"district":{"key":"09179","name":"Fürstenfeldbruck","type":"Landkreis"},"federalState":{"key":"09","name":"Bayern"}},{"name":"Talstr.","postalCode":"82291","locality":"Mammendorf","municipality":{"key":"09179136","name":"Mammendorf","type":"Kreisangehörige_Gemeinde"},"district":{"key":"09179","name":"Fürstenfeldbruck","type":"Landkreis"},"federalState":{"key":"09","name":"Bayern"}},{"name":"Theodor-Fontane-Str.","postalCode":"82291","locality":"Mammendorf","municipality":{"key":"09179136","name":"Mammendorf","type":"Kreisangehörige_Gemeinde"},"district":{"key":"09179","name":"Fürstenfeldbruck","type":"Landkreis"},"federalState":{"key":"09","name":"Bayern"}},{"name":"Thererstr.","postalCode":"82291","locality":"Mammendorf","municipality":{"key":"09179136","name":"Mammendorf","type":"Kreisangehörige_Gemeinde"},"district":{"key":"09179","name":"Fürstenfeldbruck","type":"Landkreis"},"federalState":{"key":"09","name":"Bayern"}},{"name":"Thomas-Führer-Str.","postalCode":"82291","locality":"Mammendorf","municipality":{"key":"09179136","name":"Mammendorf","type":"Kreisangehörige_Gemeinde"},"district":{"key":"09179","name":"Fürstenfeldbruck","type":"Landkreis"},"federalState":{"key":"09","name":"Bayern"}},{"name":"Untermühlweg","postalCode":"82291","locality":"Mammendorf","municipality":{"key":"09179136","name":"Mammendorf","type":"Kreisangehörige_Gemeinde"},"district":{"key":"09179","name":"Fürstenfeldbruck","type":"Landkreis"},"federalState":{"key":"09","name":"Bayern"}},{"name":"Volksfestplatz","postalCode":"82291","locality":"Mammendorf","municipality":{"key":"09179136","name":"Mammendorf","type":"Kreisangehörige_Gemeinde"},"district":{"key":"09179","name":"Fürstenfeldbruck","type":"Landkreis"},"federalState":{"key":"09","name":"Bayern"}},{"name":"Winklbauerweg","postalCode":"82291","locality":"Mammendorf","municipality":{"key":"09179136","name":"Mammendorf","type":"Kreisangehörige_Gemeinde"},"district":{"key":"09179","name":"Fürstenfeldbruck","type":"Landkreis"},"federalState":{"key":"09","name":"Bayern"}},{"name":"Zum Drisselfeld","postalCode":"82291","locality":"Mammendorf","municipality":{"key":"09179136","name":"Mammendorf","type":"Kreisangehörige_Gemeinde"},"district":{"key":"09179","name":"Fürstenfeldbruck","type":"Landkreis"},"federalState":{"key":"09","name":"Bayern"}},{"name":"Zum Marxbauer","postalCode":"82291","locality":"Mammendorf","municipality":{"key":"09179136","name":"Mammendorf","type":"Kreisangehörige_Gemeinde"},"district":{"key":"09179","name":"Fürstenfeldbruck","type":"Landkreis"},"federalState":{"key":"09","name":"Bayern"}},{"name":"Zum Seefeld","postalCode":"82291","locality":"Mammendorf","municipality":{"key":"09179136","name":"Mammendorf","type":"Kreisangehörige_Gemeinde"},"district":{"key":"09179","name":"Fürstenfeldbruck","type":"Landkreis"},"federalState":{"key":"09","name":"Bayern"}},{"name":"Zur Sternwarte","postalCode":"82291","locality":"Mammendorf","municipality":{"key":"09179136","name":"Mammendorf","type":"Kreisangehörige_Gemeinde"},"district":{"key":"09179","name":"Fürstenfeldbruck","type":"Landkreis"},"federalState":{"key":"09","name":"Bayern"}},]