[{"name":"Am Brande","postalCode":"27324","locality":"Hämelhausen","municipality":{"key":"03256009","name":"Hämelhausen","type":"Kreisangehörige_Gemeinde"},"district":{"key":"03256","name":"Nienburg (Weser)","type":"Landkreis"},"federalState":{"key":"03","name":"Niedersachsen"}},{"name":"Am Denkmal","postalCode":"27324","locality":"Hämelhausen","municipality":{"key":"03256009","name":"Hämelhausen","type":"Kreisangehörige_Gemeinde"},"district":{"key":"03256","name":"Nienburg (Weser)","type":"Landkreis"},"federalState":{"key":"03","name":"Niedersachsen"}},{"name":"Am Meesegraben","postalCode":"27324","locality":"Hämelhausen","municipality":{"key":"03256009","name":"Hämelhausen","type":"Kreisangehörige_Gemeinde"},"district":{"key":"03256","name":"Nienburg (Weser)","type":"Landkreis"},"federalState":{"key":"03","name":"Niedersachsen"}},{"name":"Amselweg","postalCode":"27324","locality":"Hämelhausen","municipality":{"key":"03256009","name":"Hämelhausen","type":"Kreisangehörige_Gemeinde"},"district":{"key":"03256","name":"Nienburg (Weser)","type":"Landkreis"},"federalState":{"key":"03","name":"Niedersachsen"}},{"name":"Am Walde","postalCode":"27324","locality":"Hämelhausen","municipality":{"key":"03256009","name":"Hämelhausen","type":"Kreisangehörige_Gemeinde"},"district":{"key":"03256","name":"Nienburg (Weser)","type":"Landkreis"},"federalState":{"key":"03","name":"Niedersachsen"}},{"name":"Am Wiesengrund","postalCode":"27324","locality":"Hämelhausen","municipality":{"key":"03256009","name":"Hämelhausen","type":"Kreisangehörige_Gemeinde"},"district":{"key":"03256","name":"Nienburg (Weser)","type":"Landkreis"},"federalState":{"key":"03","name":"Niedersachsen"}},{"name":"Auf dem Berg","postalCode":"27324","locality":"Hämelhausen","municipality":{"key":"03256009","name":"Hämelhausen","type":"Kreisangehörige_Gemeinde"},"district":{"key":"03256","name":"Nienburg (Weser)","type":"Landkreis"},"federalState":{"key":"03","name":"Niedersachsen"}},{"name":"Auf den Kohlhöfen","postalCode":"27324","locality":"Hämelhausen","municipality":{"key":"03256009","name":"Hämelhausen","type":"Kreisangehörige_Gemeinde"},"district":{"key":"03256","name":"Nienburg (Weser)","type":"Landkreis"},"federalState":{"key":"03","name":"Niedersachsen"}},{"name":"Bartels Kamp","postalCode":"27324","locality":"Hämelhausen","municipality":{"key":"03256009","name":"Hämelhausen","type":"Kreisangehörige_Gemeinde"},"district":{"key":"03256","name":"Nienburg (Weser)","type":"Landkreis"},"federalState":{"key":"03","name":"Niedersachsen"}},{"name":"Dohlenweg","postalCode":"27324","locality":"Hämelhausen","municipality":{"key":"03256009","name":"Hämelhausen","type":"Kreisangehörige_Gemeinde"},"district":{"key":"03256","name":"Nienburg (Weser)","type":"Landkreis"},"federalState":{"key":"03","name":"Niedersachsen"}},{"name":"Dorfstr.","postalCode":"27324","locality":"Hämelhausen","municipality":{"key":"03256009","name":"Hämelhausen","type":"Kreisangehörige_Gemeinde"},"district":{"key":"03256","name":"Nienburg (Weser)","type":"Landkreis"},"federalState":{"key":"03","name":"Niedersachsen"}},{"name":"Hämelseestr.","postalCode":"27324","locality":"Hämelhausen","municipality":{"key":"03256009","name":"Hämelhausen","type":"Kreisangehörige_Gemeinde"},"district":{"key":"03256","name":"Nienburg (Weser)","type":"Landkreis"},"federalState":{"key":"03","name":"Niedersachsen"}},{"name":"Hirtenweg","postalCode":"27324","locality":"Hämelhausen","municipality":{"key":"03256009","name":"Hämelhausen","type":"Kreisangehörige_Gemeinde"},"district":{"key":"03256","name":"Nienburg (Weser)","type":"Landkreis"},"federalState":{"key":"03","name":"Niedersachsen"}},{"name":"Im Felde","postalCode":"27324","locality":"Hämelhausen","municipality":{"key":"03256009","name":"Hämelhausen","type":"Kreisangehörige_Gemeinde"},"district":{"key":"03256","name":"Nienburg (Weser)","type":"Landkreis"},"federalState":{"key":"03","name":"Niedersachsen"}},{"name":"Mühlenberg","postalCode":"27324","locality":"Hämelhausen","municipality":{"key":"03256009","name":"Hämelhausen","type":"Kreisangehörige_Gemeinde"},"district":{"key":"03256","name":"Nienburg (Weser)","type":"Landkreis"},"federalState":{"key":"03","name":"Niedersachsen"}},{"name":"Saatkamp","postalCode":"27324","locality":"Hämelhausen","municipality":{"key":"03256009","name":"Hämelhausen","type":"Kreisangehörige_Gemeinde"},"district":{"key":"03256","name":"Nienburg (Weser)","type":"Landkreis"},"federalState":{"key":"03","name":"Niedersachsen"}},]