[{"key":"10205849","name":"A2","postalCode":"6048","locality":"Horw","commune":{"key":"1058","name":"Horw","shortName":"Horw"},"district":{"key":"312","name":"Wahlkreis Luzern-Land"},"canton":{"key":"3","code":"LU","name":"Luzern"},"status":"Real"},{"key":"10014803","name":"Allmendstrasse","postalCode":"6048","locality":"Horw","commune":{"key":"1058","name":"Horw","shortName":"Horw"},"district":{"key":"312","name":"Wahlkreis Luzern-Land"},"canton":{"key":"3","code":"LU","name":"Luzern"},"status":"Real"},{"key":"10205855","name":"Alter Stadtweg","postalCode":"6048","locality":"Horw","commune":{"key":"1058","name":"Horw","shortName":"Horw"},"district":{"key":"312","name":"Wahlkreis Luzern-Land"},"canton":{"key":"3","code":"LU","name":"Luzern"},"status":"Real"},{"key":"10205865","name":"Alte Schwendelbergstrasse","postalCode":"6048","locality":"Horw","commune":{"key":"1058","name":"Horw","shortName":"Horw"},"district":{"key":"312","name":"Wahlkreis Luzern-Land"},"canton":{"key":"3","code":"LU","name":"Luzern"},"status":"Real"},{"key":"10014804","name":"Altsagenring","postalCode":"6048","locality":"Horw","commune":{"key":"1058","name":"Horw","shortName":"Horw"},"district":{"key":"312","name":"Wahlkreis Luzern-Land"},"canton":{"key":"3","code":"LU","name":"Luzern"},"status":"Real"},{"key":"10155801","name":"Altsagenstrasse","postalCode":"6048","locality":"Horw","commune":{"key":"1058","name":"Horw","shortName":"Horw"},"district":{"key":"312","name":"Wahlkreis Luzern-Land"},"canton":{"key":"3","code":"LU","name":"Luzern"},"status":"Real"},{"key":"10147803","name":"Auf Kirchfeldhügel","postalCode":"6048","locality":"Horw","commune":{"key":"1058","name":"Horw","shortName":"Horw"},"district":{"key":"312","name":"Wahlkreis Luzern-Land"},"canton":{"key":"3","code":"LU","name":"Luzern"},"status":"Real"},{"key":"10080020","name":"Auf Oberrüti","postalCode":"6048","locality":"Horw","commune":{"key":"1058","name":"Horw","shortName":"Horw"},"district":{"key":"312","name":"Wahlkreis Luzern-Land"},"canton":{"key":"3","code":"LU","name":"Luzern"},"status":"Real"},{"key":"10014805","name":"Bachstrasse","postalCode":"6048","locality":"Horw","commune":{"key":"1058","name":"Horw","shortName":"Horw"},"district":{"key":"312","name":"Wahlkreis Luzern-Land"},"canton":{"key":"3","code":"LU","name":"Luzern"},"status":"Real"},{"key":"10179054","name":"Bachtelstrasse","postalCode":"6048","locality":"Horw","commune":{"key":"1058","name":"Horw","shortName":"Horw"},"district":{"key":"312","name":"Wahlkreis Luzern-Land"},"canton":{"key":"3","code":"LU","name":"Luzern"},"status":"Real"},{"key":"10080021","name":"Bachtelweg","postalCode":"6048","locality":"Horw","commune":{"key":"1058","name":"Horw","shortName":"Horw"},"district":{"key":"312","name":"Wahlkreis Luzern-Land"},"canton":{"key":"3","code":"LU","name":"Luzern"},"status":"Real"},{"key":"10111780","name":"Bahnhofstrasse","postalCode":"6048","locality":"Horw","commune":{"key":"1058","name":"Horw","shortName":"Horw"},"district":{"key":"312","name":"Wahlkreis Luzern-Land"},"canton":{"key":"3","code":"LU","name":"Luzern"},"status":"Real"},{"key":"10155081","name":"Bahnhofweg","postalCode":"6048","locality":"Horw","commune":{"key":"1058","name":"Horw","shortName":"Horw"},"district":{"key":"312","name":"Wahlkreis Luzern-Land"},"canton":{"key":"3","code":"LU","name":"Luzern"},"status":"Real"},{"key":"10014811","name":"Bärhalten","postalCode":"6048","locality":"Horw","commune":{"key":"1058","name":"Horw","shortName":"Horw"},"district":{"key":"312","name":"Wahlkreis Luzern-Land"},"canton":{"key":"3","code":"LU","name":"Luzern"},"status":"Real"},{"key":"10014806","name":"Bergli","postalCode":"6048","locality":"Horw","commune":{"key":"1058","name":"Horw","shortName":"Horw"},"district":{"key":"312","name":"Wahlkreis Luzern-Land"},"canton":{"key":"3","code":"LU","name":"Luzern"},"status":"Real"},{"key":"10070101","name":"Bifangstrasse","postalCode":"6048","locality":"Horw","commune":{"key":"1058","name":"Horw","shortName":"Horw"},"district":{"key":"312","name":"Wahlkreis Luzern-Land"},"canton":{"key":"3","code":"LU","name":"Luzern"},"status":"Real"},{"key":"10205841","name":"Bifangweg","postalCode":"6048","locality":"Horw","commune":{"key":"1058","name":"Horw","shortName":"Horw"},"district":{"key":"312","name":"Wahlkreis Luzern-Land"},"canton":{"key":"3","code":"LU","name":"Luzern"},"status":"Real"},{"key":"10014807","name":"Birkenfeldweg","postalCode":"6048","locality":"Horw","commune":{"key":"1058","name":"Horw","shortName":"Horw"},"district":{"key":"312","name":"Wahlkreis Luzern-Land"},"canton":{"key":"3","code":"LU","name":"Luzern"},"status":"Real"},{"key":"10053627","name":"Boden","postalCode":"6048","locality":"Horw","commune":{"key":"1058","name":"Horw","shortName":"Horw"},"district":{"key":"312","name":"Wahlkreis Luzern-Land"},"canton":{"key":"3","code":"LU","name":"Luzern"},"status":"Real"},{"key":"10162237","name":"Bodenmattstrasse","postalCode":"6048","locality":"Horw","commune":{"key":"1058","name":"Horw","shortName":"Horw"},"district":{"key":"312","name":"Wahlkreis Luzern-Land"},"canton":{"key":"3","code":"LU","name":"Luzern"},"status":"Real"},{"key":"10080022","name":"Bodenstrasse","postalCode":"6048","locality":"Horw","commune":{"key":"1058","name":"Horw","shortName":"Horw"},"district":{"key":"312","name":"Wahlkreis Luzern-Land"},"canton":{"key":"3","code":"LU","name":"Luzern"},"status":"Real"},{"key":"10074106","name":"Brändistrasse","postalCode":"6048","locality":"Horw","commune":{"key":"1058","name":"Horw","shortName":"Horw"},"district":{"key":"312","name":"Wahlkreis Luzern-Land"},"canton":{"key":"3","code":"LU","name":"Luzern"},"status":"Real"},{"key":"10014809","name":"Brändiweg","postalCode":"6048","locality":"Horw","commune":{"key":"1058","name":"Horw","shortName":"Horw"},"district":{"key":"312","name":"Wahlkreis Luzern-Land"},"canton":{"key":"3","code":"LU","name":"Luzern"},"status":"Real"},{"key":"10205856","name":"Brünigweg","postalCode":"6048","locality":"Horw","commune":{"key":"1058","name":"Horw","shortName":"Horw"},"district":{"key":"312","name":"Wahlkreis Luzern-Land"},"canton":{"key":"3","code":"LU","name":"Luzern"},"status":"Real"},{"key":"10014808","name":"Brunnmattstrasse","postalCode":"6048","locality":"Horw","commune":{"key":"1058","name":"Horw","shortName":"Horw"},"district":{"key":"312","name":"Wahlkreis Luzern-Land"},"canton":{"key":"3","code":"LU","name":"Luzern"},"status":"Real"},{"key":"10205842","name":"Bruuststrasse","postalCode":"6048","locality":"Horw","commune":{"key":"1058","name":"Horw","shortName":"Horw"},"district":{"key":"312","name":"Wahlkreis Luzern-Land"},"canton":{"key":"3","code":"LU","name":"Luzern"},"status":"Real"},{"key":"10205833","name":"Buholzerschwendistrasse","postalCode":"6048","locality":"Horw","commune":{"key":"1058","name":"Horw","shortName":"Horw"},"district":{"key":"312","name":"Wahlkreis Luzern-Land"},"canton":{"key":"3","code":"LU","name":"Luzern"},"status":"Real"},{"key":"10014810","name":"Buhölzli","postalCode":"6048","locality":"Horw","commune":{"key":"1058","name":"Horw","shortName":"Horw"},"district":{"key":"312","name":"Wahlkreis Luzern-Land"},"canton":{"key":"3","code":"LU","name":"Luzern"},"status":"Real"},{"key":"10205843","name":"Buziweg","postalCode":"6048","locality":"Horw","commune":{"key":"1058","name":"Horw","shortName":"Horw"},"district":{"key":"312","name":"Wahlkreis Luzern-Land"},"canton":{"key":"3","code":"LU","name":"Luzern"},"status":"Real"},{"key":"10205857","name":"Canzelwaldstrasse","postalCode":"6048","locality":"Horw","commune":{"key":"1058","name":"Horw","shortName":"Horw"},"district":{"key":"312","name":"Wahlkreis Luzern-Land"},"canton":{"key":"3","code":"LU","name":"Luzern"},"status":"Real"},{"key":"10129571","name":"Chäppeliweg","postalCode":"6048","locality":"Horw","commune":{"key":"1058","name":"Horw","shortName":"Horw"},"district":{"key":"312","name":"Wahlkreis Luzern-Land"},"canton":{"key":"3","code":"LU","name":"Luzern"},"status":"Real"},{"key":"10205834","name":"Chilewaldstrasse","postalCode":"6048","locality":"Horw","commune":{"key":"1058","name":"Horw","shortName":"Horw"},"district":{"key":"312","name":"Wahlkreis Luzern-Land"},"canton":{"key":"3","code":"LU","name":"Luzern"},"status":"Real"},{"key":"10179055","name":"Dörfliweg","postalCode":"6048","locality":"Horw","commune":{"key":"1058","name":"Horw","shortName":"Horw"},"district":{"key":"312","name":"Wahlkreis Luzern-Land"},"canton":{"key":"3","code":"LU","name":"Luzern"},"status":"Real"},{"key":"10074107","name":"Dormenstrasse","postalCode":"6048","locality":"Horw","commune":{"key":"1058","name":"Horw","shortName":"Horw"},"district":{"key":"312","name":"Wahlkreis Luzern-Land"},"canton":{"key":"3","code":"LU","name":"Luzern"},"status":"Real"},{"key":"10189733","name":"Dormenweg","postalCode":"6048","locality":"Horw","commune":{"key":"1058","name":"Horw","shortName":"Horw"},"district":{"key":"312","name":"Wahlkreis Luzern-Land"},"canton":{"key":"3","code":"LU","name":"Luzern"},"status":"Real"},{"key":"10080023","name":"Ebenaustrasse","postalCode":"6048","locality":"Horw","commune":{"key":"1058","name":"Horw","shortName":"Horw"},"district":{"key":"312","name":"Wahlkreis Luzern-Land"},"canton":{"key":"3","code":"LU","name":"Luzern"},"status":"Real"},{"key":"10155080","name":"Ebenauweg","postalCode":"6048","locality":"Horw","commune":{"key":"1058","name":"Horw","shortName":"Horw"},"district":{"key":"312","name":"Wahlkreis Luzern-Land"},"canton":{"key":"3","code":"LU","name":"Luzern"},"status":"Real"},{"key":"10074108","name":"Eggboden","postalCode":"6048","locality":"Horw","commune":{"key":"1058","name":"Horw","shortName":"Horw"},"district":{"key":"312","name":"Wahlkreis Luzern-Land"},"canton":{"key":"3","code":"LU","name":"Luzern"},"status":"Real"},{"key":"10014812","name":"Felmis-Allee","postalCode":"6048","locality":"Horw","commune":{"key":"1058","name":"Horw","shortName":"Horw"},"district":{"key":"312","name":"Wahlkreis Luzern-Land"},"canton":{"key":"3","code":"LU","name":"Luzern"},"status":"Real"},{"key":"10014813","name":"Felmismoosweg","postalCode":"6048","locality":"Horw","commune":{"key":"1058","name":"Horw","shortName":"Horw"},"district":{"key":"312","name":"Wahlkreis Luzern-Land"},"canton":{"key":"3","code":"LU","name":"Luzern"},"status":"Real"},{"key":"10080024","name":"Felmisrain","postalCode":"6048","locality":"Horw","commune":{"key":"1058","name":"Horw","shortName":"Horw"},"district":{"key":"312","name":"Wahlkreis Luzern-Land"},"canton":{"key":"3","code":"LU","name":"Luzern"},"status":"Real"},{"key":"10074109","name":"Felmisweidstrasse","postalCode":"6048","locality":"Horw","commune":{"key":"1058","name":"Horw","shortName":"Horw"},"district":{"key":"312","name":"Wahlkreis Luzern-Land"},"canton":{"key":"3","code":"LU","name":"Luzern"},"status":"Real"},{"key":"10145296","name":"Felmisweidweg","postalCode":"6048","locality":"Horw","commune":{"key":"1058","name":"Horw","shortName":"Horw"},"district":{"key":"312","name":"Wahlkreis Luzern-Land"},"canton":{"key":"3","code":"LU","name":"Luzern"},"status":"Real"},{"key":"10053628","name":"Felsenegg","postalCode":"6048","locality":"Horw","commune":{"key":"1058","name":"Horw","shortName":"Horw"},"district":{"key":"312","name":"Wahlkreis Luzern-Land"},"canton":{"key":"3","code":"LU","name":"Luzern"},"status":"Real"},{"key":"10173767","name":"Fondlenhöhe","postalCode":"6048","locality":"Horw","commune":{"key":"1058","name":"Horw","shortName":"Horw"},"district":{"key":"312","name":"Wahlkreis Luzern-Land"},"canton":{"key":"3","code":"LU","name":"Luzern"},"status":"Real"},{"key":"10205844","name":"Fondlenhöhestrasse","postalCode":"6048","locality":"Horw","commune":{"key":"1058","name":"Horw","shortName":"Horw"},"district":{"key":"312","name":"Wahlkreis Luzern-Land"},"canton":{"key":"3","code":"LU","name":"Luzern"},"status":"Real"},{"key":"10014814","name":"Gartenstrasse","postalCode":"6048","locality":"Horw","commune":{"key":"1058","name":"Horw","shortName":"Horw"},"district":{"key":"312","name":"Wahlkreis Luzern-Land"},"canton":{"key":"3","code":"LU","name":"Luzern"},"status":"Real"},{"key":"10080025","name":"Gemeindehausplatz","postalCode":"6048","locality":"Horw","commune":{"key":"1058","name":"Horw","shortName":"Horw"},"district":{"key":"312","name":"Wahlkreis Luzern-Land"},"canton":{"key":"3","code":"LU","name":"Luzern"},"status":"Real"},{"key":"10053629","name":"Grämlis","postalCode":"6048","locality":"Horw","commune":{"key":"1058","name":"Horw","shortName":"Horw"},"district":{"key":"312","name":"Wahlkreis Luzern-Land"},"canton":{"key":"3","code":"LU","name":"Luzern"},"status":"Real"},{"key":"10014815","name":"Grisigenstrasse","postalCode":"6048","locality":"Horw","commune":{"key":"1058","name":"Horw","shortName":"Horw"},"district":{"key":"312","name":"Wahlkreis Luzern-Land"},"canton":{"key":"3","code":"LU","name":"Luzern"},"status":"Real"},{"key":"10014816","name":"Grosswilstrasse","postalCode":"6048","locality":"Horw","commune":{"key":"1058","name":"Horw","shortName":"Horw"},"district":{"key":"312","name":"Wahlkreis Luzern-Land"},"canton":{"key":"3","code":"LU","name":"Luzern"},"status":"Real"},{"key":"10123207","name":"Gügerzi","postalCode":"6048","locality":"Horw","commune":{"key":"1058","name":"Horw","shortName":"Horw"},"district":{"key":"312","name":"Wahlkreis Luzern-Land"},"canton":{"key":"3","code":"LU","name":"Luzern"},"status":"Real"},{"key":"10124029","name":"Haltenhöhe","postalCode":"6048","locality":"Horw","commune":{"key":"1058","name":"Horw","shortName":"Horw"},"district":{"key":"312","name":"Wahlkreis Luzern-Land"},"canton":{"key":"3","code":"LU","name":"Luzern"},"status":"Real"},{"key":"10179056","name":"Haltenrain","postalCode":"6048","locality":"Horw","commune":{"key":"1058","name":"Horw","shortName":"Horw"},"district":{"key":"312","name":"Wahlkreis Luzern-Land"},"canton":{"key":"3","code":"LU","name":"Luzern"},"status":"Real"},{"key":"10205858","name":"Halti-Hochwaldstrasse","postalCode":"6048","locality":"Horw","commune":{"key":"1058","name":"Horw","shortName":"Horw"},"district":{"key":"312","name":"Wahlkreis Luzern-Land"},"canton":{"key":"3","code":"LU","name":"Luzern"},"status":"Real"},{"key":"10080026","name":"Hans-Reinhard-Strasse","postalCode":"6048","locality":"Horw","commune":{"key":"1058","name":"Horw","shortName":"Horw"},"district":{"key":"312","name":"Wahlkreis Luzern-Land"},"canton":{"key":"3","code":"LU","name":"Luzern"},"status":"Real"},{"key":"10205835","name":"Hergiswilerstrasse","postalCode":"6048","locality":"Horw","commune":{"key":"1058","name":"Horw","shortName":"Horw"},"district":{"key":"312","name":"Wahlkreis Luzern-Land"},"canton":{"key":"3","code":"LU","name":"Luzern"},"status":"Real"},{"key":"10014817","name":"Herrenwaldstrasse","postalCode":"6048","locality":"Horw","commune":{"key":"1058","name":"Horw","shortName":"Horw"},"district":{"key":"312","name":"Wahlkreis Luzern-Land"},"canton":{"key":"3","code":"LU","name":"Luzern"},"status":"Real"},{"key":"10074111","name":"Herrenwaldweg","postalCode":"6048","locality":"Horw","commune":{"key":"1058","name":"Horw","shortName":"Horw"},"district":{"key":"312","name":"Wahlkreis Luzern-Land"},"canton":{"key":"3","code":"LU","name":"Luzern"},"status":"Real"},{"key":"10205845","name":"Himmelrichweg","postalCode":"6048","locality":"Horw","commune":{"key":"1058","name":"Horw","shortName":"Horw"},"district":{"key":"312","name":"Wahlkreis Luzern-Land"},"canton":{"key":"3","code":"LU","name":"Luzern"},"status":"Real"},{"key":"10014818","name":"Hinterbachstrasse","postalCode":"6048","locality":"Horw","commune":{"key":"1058","name":"Horw","shortName":"Horw"},"district":{"key":"312","name":"Wahlkreis Luzern-Land"},"canton":{"key":"3","code":"LU","name":"Luzern"},"status":"Real"},{"key":"10103894","name":"Hinterboden","postalCode":"6048","locality":"Horw","commune":{"key":"1058","name":"Horw","shortName":"Horw"},"district":{"key":"312","name":"Wahlkreis Luzern-Land"},"canton":{"key":"3","code":"LU","name":"Luzern"},"status":"Real"},{"key":"10205866","name":"Hinterbodenstrasse","postalCode":"6048","locality":"Horw","commune":{"key":"1058","name":"Horw","shortName":"Horw"},"district":{"key":"312","name":"Wahlkreis Luzern-Land"},"canton":{"key":"3","code":"LU","name":"Luzern"},"status":"Real"},{"key":"10205846","name":"Hinterriesenenstrasse","postalCode":"6048","locality":"Horw","commune":{"key":"1058","name":"Horw","shortName":"Horw"},"district":{"key":"312","name":"Wahlkreis Luzern-Land"},"canton":{"key":"3","code":"LU","name":"Luzern"},"status":"Real"},{"key":"10080027","name":"Hofmatt","postalCode":"6048","locality":"Horw","commune":{"key":"1058","name":"Horw","shortName":"Horw"},"district":{"key":"312","name":"Wahlkreis Luzern-Land"},"canton":{"key":"3","code":"LU","name":"Luzern"},"status":"Real"},{"key":"10205859","name":"Hofmattweg","postalCode":"6048","locality":"Horw","commune":{"key":"1058","name":"Horw","shortName":"Horw"},"district":{"key":"312","name":"Wahlkreis Luzern-Land"},"canton":{"key":"3","code":"LU","name":"Luzern"},"status":"Real"},{"key":"10205836","name":"Hommbergstrasse","postalCode":"6048","locality":"Horw","commune":{"key":"1058","name":"Horw","shortName":"Horw"},"district":{"key":"312","name":"Wahlkreis Luzern-Land"},"canton":{"key":"3","code":"LU","name":"Luzern"},"status":"Real"},{"key":"10014820","name":"Hubelstrasse","postalCode":"6048","locality":"Horw","commune":{"key":"1058","name":"Horw","shortName":"Horw"},"district":{"key":"312","name":"Wahlkreis Luzern-Land"},"canton":{"key":"3","code":"LU","name":"Luzern"},"status":"Real"},{"key":"10053630","name":"Hummelrüti","postalCode":"6048","locality":"Horw","commune":{"key":"1058","name":"Horw","shortName":"Horw"},"district":{"key":"312","name":"Wahlkreis Luzern-Land"},"canton":{"key":"3","code":"LU","name":"Luzern"},"status":"Real"},{"key":"10205867","name":"Hunghafenstrasse","postalCode":"6048","locality":"Horw","commune":{"key":"1058","name":"Horw","shortName":"Horw"},"district":{"key":"312","name":"Wahlkreis Luzern-Land"},"canton":{"key":"3","code":"LU","name":"Luzern"},"status":"Real"},{"key":"10123998","name":"Hürliweidallee","postalCode":"6048","locality":"Horw","commune":{"key":"1058","name":"Horw","shortName":"Horw"},"district":{"key":"312","name":"Wahlkreis Luzern-Land"},"canton":{"key":"3","code":"LU","name":"Luzern"},"status":"Real"},{"key":"10123999","name":"Hürliweidweg","postalCode":"6048","locality":"Horw","commune":{"key":"1058","name":"Horw","shortName":"Horw"},"district":{"key":"312","name":"Wahlkreis Luzern-Land"},"canton":{"key":"3","code":"LU","name":"Luzern"},"status":"Real"},{"key":"10205847","name":"Juliweg","postalCode":"6048","locality":"Horw","commune":{"key":"1058","name":"Horw","shortName":"Horw"},"district":{"key":"312","name":"Wahlkreis Luzern-Land"},"canton":{"key":"3","code":"LU","name":"Luzern"},"status":"Real"},{"key":"10189734","name":"Kantonsstrasse","postalCode":"6048","locality":"Horw","commune":{"key":"1058","name":"Horw","shortName":"Horw"},"district":{"key":"312","name":"Wahlkreis Luzern-Land"},"canton":{"key":"3","code":"LU","name":"Luzern"},"status":"Real"},{"key":"10080016","name":"Kastanienbaumstrasse","postalCode":"6048","locality":"Horw","commune":{"key":"1058","name":"Horw","shortName":"Horw"},"district":{"key":"312","name":"Wahlkreis Luzern-Land"},"canton":{"key":"3","code":"LU","name":"Luzern"},"status":"Real"},{"key":"10148615","name":"Kirchfeld","postalCode":"6048","locality":"Horw","commune":{"key":"1058","name":"Horw","shortName":"Horw"},"district":{"key":"312","name":"Wahlkreis Luzern-Land"},"canton":{"key":"3","code":"LU","name":"Luzern"},"status":"Real"},{"key":"10014821","name":"Kirchweg","postalCode":"6048","locality":"Horw","commune":{"key":"1058","name":"Horw","shortName":"Horw"},"district":{"key":"312","name":"Wahlkreis Luzern-Land"},"canton":{"key":"3","code":"LU","name":"Luzern"},"status":"Real"},{"key":"10117691","name":"Kleinwilhöhe","postalCode":"6048","locality":"Horw","commune":{"key":"1058","name":"Horw","shortName":"Horw"},"district":{"key":"312","name":"Wahlkreis Luzern-Land"},"canton":{"key":"3","code":"LU","name":"Luzern"},"status":"Real"},{"key":"10179057","name":"Kleinwilstrasse","postalCode":"6048","locality":"Horw","commune":{"key":"1058","name":"Horw","shortName":"Horw"},"district":{"key":"312","name":"Wahlkreis Luzern-Land"},"canton":{"key":"3","code":"LU","name":"Luzern"},"status":"Real"},{"key":"10080029","name":"Krebsbärenhalde","postalCode":"6048","locality":"Horw","commune":{"key":"1058","name":"Horw","shortName":"Horw"},"district":{"key":"312","name":"Wahlkreis Luzern-Land"},"canton":{"key":"3","code":"LU","name":"Luzern"},"status":"Real"},{"key":"10105662","name":"Krienserstrasse","postalCode":"6048","locality":"Horw","commune":{"key":"1058","name":"Horw","shortName":"Horw"},"district":{"key":"312","name":"Wahlkreis Luzern-Land"},"canton":{"key":"3","code":"LU","name":"Luzern"},"status":"Real"},{"key":"10118192","name":"Längacher","postalCode":"6048","locality":"Horw","commune":{"key":"1058","name":"Horw","shortName":"Horw"},"district":{"key":"312","name":"Wahlkreis Luzern-Land"},"canton":{"key":"3","code":"LU","name":"Luzern"},"status":"Real"},{"key":"10015942","name":"Längacherhock","postalCode":"6048","locality":"Horw","commune":{"key":"1058","name":"Horw","shortName":"Horw"},"district":{"key":"312","name":"Wahlkreis Luzern-Land"},"canton":{"key":"3","code":"LU","name":"Luzern"},"status":"Real"},{"key":"10205868","name":"Längacherstrasse","postalCode":"6048","locality":"Horw","commune":{"key":"1058","name":"Horw","shortName":"Horw"},"district":{"key":"312","name":"Wahlkreis Luzern-Land"},"canton":{"key":"3","code":"LU","name":"Luzern"},"status":"Real"},{"key":"10014822","name":"Leimi","postalCode":"6048","locality":"Horw","commune":{"key":"1058","name":"Horw","shortName":"Horw"},"district":{"key":"312","name":"Wahlkreis Luzern-Land"},"canton":{"key":"3","code":"LU","name":"Luzern"},"status":"Real"},{"key":"10117077","name":"Linden","postalCode":"6048","locality":"Horw","commune":{"key":"1058","name":"Horw","shortName":"Horw"},"district":{"key":"312","name":"Wahlkreis Luzern-Land"},"canton":{"key":"3","code":"LU","name":"Luzern"},"status":"Real"},{"key":"10185845","name":"Mättihalden","postalCode":"6048","locality":"Horw","commune":{"key":"1058","name":"Horw","shortName":"Horw"},"district":{"key":"312","name":"Wahlkreis Luzern-Land"},"canton":{"key":"3","code":"LU","name":"Luzern"},"status":"Real"},{"key":"10205837","name":"Mättihaldenstrasse","postalCode":"6048","locality":"Horw","commune":{"key":"1058","name":"Horw","shortName":"Horw"},"district":{"key":"312","name":"Wahlkreis Luzern-Land"},"canton":{"key":"3","code":"LU","name":"Luzern"},"status":"Real"},{"key":"10117075","name":"Mättiwilstrasse","postalCode":"6048","locality":"Horw","commune":{"key":"1058","name":"Horw","shortName":"Horw"},"district":{"key":"312","name":"Wahlkreis Luzern-Land"},"canton":{"key":"3","code":"LU","name":"Luzern"},"status":"Real"},{"key":"10080030","name":"Mittelgrisigen","postalCode":"6048","locality":"Horw","commune":{"key":"1058","name":"Horw","shortName":"Horw"},"district":{"key":"312","name":"Wahlkreis Luzern-Land"},"canton":{"key":"3","code":"LU","name":"Luzern"},"status":"Real"},{"key":"10205869","name":"Mittelweg","postalCode":"6048","locality":"Horw","commune":{"key":"1058","name":"Horw","shortName":"Horw"},"district":{"key":"312","name":"Wahlkreis Luzern-Land"},"canton":{"key":"3","code":"LU","name":"Luzern"},"status":"Real"},{"key":"10205860","name":"Moosmattlistrasse","postalCode":"6048","locality":"Horw","commune":{"key":"1058","name":"Horw","shortName":"Horw"},"district":{"key":"312","name":"Wahlkreis Luzern-Land"},"canton":{"key":"3","code":"LU","name":"Luzern"},"status":"Real"},{"key":"10015943","name":"Neumattstrasse","postalCode":"6048","locality":"Horw","commune":{"key":"1058","name":"Horw","shortName":"Horw"},"district":{"key":"312","name":"Wahlkreis Luzern-Land"},"canton":{"key":"3","code":"LU","name":"Luzern"},"status":"Real"},{"key":"10015944","name":"Neumattweg","postalCode":"6048","locality":"Horw","commune":{"key":"1058","name":"Horw","shortName":"Horw"},"district":{"key":"312","name":"Wahlkreis Luzern-Land"},"canton":{"key":"3","code":"LU","name":"Luzern"},"status":"Real"},{"key":"10053631","name":"Niederrüti","postalCode":"6048","locality":"Horw","commune":{"key":"1058","name":"Horw","shortName":"Horw"},"district":{"key":"312","name":"Wahlkreis Luzern-Land"},"canton":{"key":"3","code":"LU","name":"Luzern"},"status":"Real"},{"key":"10015945","name":"Obchilchweg","postalCode":"6048","locality":"Horw","commune":{"key":"1058","name":"Horw","shortName":"Horw"},"district":{"key":"312","name":"Wahlkreis Luzern-Land"},"canton":{"key":"3","code":"LU","name":"Luzern"},"status":"Real"},{"key":"10080031","name":"Oberfondlen","postalCode":"6048","locality":"Horw","commune":{"key":"1058","name":"Horw","shortName":"Horw"},"district":{"key":"312","name":"Wahlkreis Luzern-Land"},"canton":{"key":"3","code":"LU","name":"Luzern"},"status":"Real"},{"key":"10111781","name":"Obergrisigen","postalCode":"6048","locality":"Horw","commune":{"key":"1058","name":"Horw","shortName":"Horw"},"district":{"key":"312","name":"Wahlkreis Luzern-Land"},"canton":{"key":"3","code":"LU","name":"Luzern"},"status":"Real"},{"key":"10074114","name":"Oberknolligen","postalCode":"6048","locality":"Horw","commune":{"key":"1058","name":"Horw","shortName":"Horw"},"district":{"key":"312","name":"Wahlkreis Luzern-Land"},"canton":{"key":"3","code":"LU","name":"Luzern"},"status":"Real"},{"key":"10175325","name":"Obermatt","postalCode":"6048","locality":"Horw","commune":{"key":"1058","name":"Horw","shortName":"Horw"},"district":{"key":"312","name":"Wahlkreis Luzern-Land"},"canton":{"key":"3","code":"LU","name":"Luzern"},"status":"Real"},{"key":"10055895","name":"Oberrüti-Allee","postalCode":"6048","locality":"Horw","commune":{"key":"1058","name":"Horw","shortName":"Horw"},"district":{"key":"312","name":"Wahlkreis Luzern-Land"},"canton":{"key":"3","code":"LU","name":"Luzern"},"status":"Real"},{"key":"10193688","name":"Oberrütihöhe","postalCode":"6048","locality":"Horw","commune":{"key":"1058","name":"Horw","shortName":"Horw"},"district":{"key":"312","name":"Wahlkreis Luzern-Land"},"canton":{"key":"3","code":"LU","name":"Luzern"},"status":"Real"},{"key":"10196769","name":"Oberrütirain","postalCode":"6048","locality":"Horw","commune":{"key":"1058","name":"Horw","shortName":"Horw"},"district":{"key":"312","name":"Wahlkreis Luzern-Land"},"canton":{"key":"3","code":"LU","name":"Luzern"},"status":"Real"},{"key":"10015946","name":"Oberrütistrasse","postalCode":"6048","locality":"Horw","commune":{"key":"1058","name":"Horw","shortName":"Horw"},"district":{"key":"312","name":"Wahlkreis Luzern-Land"},"canton":{"key":"3","code":"LU","name":"Luzern"},"status":"Real"},{"key":"10080032","name":"Oberwil","postalCode":"6048","locality":"Horw","commune":{"key":"1058","name":"Horw","shortName":"Horw"},"district":{"key":"312","name":"Wahlkreis Luzern-Land"},"canton":{"key":"3","code":"LU","name":"Luzern"},"status":"Real"},{"key":"10179058","name":"Papiermühleweg","postalCode":"6048","locality":"Horw","commune":{"key":"1058","name":"Horw","shortName":"Horw"},"district":{"key":"312","name":"Wahlkreis Luzern-Land"},"canton":{"key":"3","code":"LU","name":"Luzern"},"status":"Real"},{"key":"10205870","name":"Parcoursweg","postalCode":"6048","locality":"Horw","commune":{"key":"1058","name":"Horw","shortName":"Horw"},"district":{"key":"312","name":"Wahlkreis Luzern-Land"},"canton":{"key":"3","code":"LU","name":"Luzern"},"status":"Real"},{"key":"10015947","name":"Pilatusring","postalCode":"6048","locality":"Horw","commune":{"key":"1058","name":"Horw","shortName":"Horw"},"district":{"key":"312","name":"Wahlkreis Luzern-Land"},"canton":{"key":"3","code":"LU","name":"Luzern"},"status":"Real"},{"key":"10205838","name":"Promenadenweg","postalCode":"6048","locality":"Horw","commune":{"key":"1058","name":"Horw","shortName":"Horw"},"district":{"key":"312","name":"Wahlkreis Luzern-Land"},"canton":{"key":"3","code":"LU","name":"Luzern"},"status":"Real"},{"key":"10074115","name":"Rainlihof","postalCode":"6048","locality":"Horw","commune":{"key":"1058","name":"Horw","shortName":"Horw"},"district":{"key":"312","name":"Wahlkreis Luzern-Land"},"canton":{"key":"3","code":"LU","name":"Luzern"},"status":"Real"},{"key":"10080033","name":"Rainlihöhe","postalCode":"6048","locality":"Horw","commune":{"key":"1058","name":"Horw","shortName":"Horw"},"district":{"key":"312","name":"Wahlkreis Luzern-Land"},"canton":{"key":"3","code":"LU","name":"Luzern"},"status":"Real"},{"key":"10179059","name":"Rämsiweg","postalCode":"6048","locality":"Horw","commune":{"key":"1058","name":"Horw","shortName":"Horw"},"district":{"key":"312","name":"Wahlkreis Luzern-Land"},"canton":{"key":"3","code":"LU","name":"Luzern"},"status":"Real"},{"key":"10015948","name":"Rankried","postalCode":"6048","locality":"Horw","commune":{"key":"1058","name":"Horw","shortName":"Horw"},"district":{"key":"312","name":"Wahlkreis Luzern-Land"},"canton":{"key":"3","code":"LU","name":"Luzern"},"status":"Real"},{"key":"10015949","name":"Riedmattstrasse","postalCode":"6048","locality":"Horw","commune":{"key":"1058","name":"Horw","shortName":"Horw"},"district":{"key":"312","name":"Wahlkreis Luzern-Land"},"canton":{"key":"3","code":"LU","name":"Luzern"},"status":"Real"},{"key":"10105663","name":"Rigiblickrain","postalCode":"6048","locality":"Horw","commune":{"key":"1058","name":"Horw","shortName":"Horw"},"district":{"key":"312","name":"Wahlkreis Luzern-Land"},"canton":{"key":"3","code":"LU","name":"Luzern"},"status":"Real"},{"key":"10102763","name":"Rigiblickstrasse","postalCode":"6048","locality":"Horw","commune":{"key":"1058","name":"Horw","shortName":"Horw"},"district":{"key":"312","name":"Wahlkreis Luzern-Land"},"canton":{"key":"3","code":"LU","name":"Luzern"},"status":"Real"},{"key":"10080034","name":"Rigiblickweg","postalCode":"6048","locality":"Horw","commune":{"key":"1058","name":"Horw","shortName":"Horw"},"district":{"key":"312","name":"Wahlkreis Luzern-Land"},"canton":{"key":"3","code":"LU","name":"Luzern"},"status":"Real"},{"key":"10155082","name":"Ringstrasse","postalCode":"6048","locality":"Horw","commune":{"key":"1058","name":"Horw","shortName":"Horw"},"district":{"key":"312","name":"Wahlkreis Luzern-Land"},"canton":{"key":"3","code":"LU","name":"Luzern"},"status":"Real"},{"key":"10074116","name":"Roggernstrasse","postalCode":"6048","locality":"Horw","commune":{"key":"1058","name":"Horw","shortName":"Horw"},"district":{"key":"312","name":"Wahlkreis Luzern-Land"},"canton":{"key":"3","code":"LU","name":"Luzern"},"status":"Real"},{"key":"10205850","name":"Roggernweg","postalCode":"6048","locality":"Horw","commune":{"key":"1058","name":"Horw","shortName":"Horw"},"district":{"key":"312","name":"Wahlkreis Luzern-Land"},"canton":{"key":"3","code":"LU","name":"Luzern"},"status":"Real"},{"key":"10015950","name":"Rosenfeldweg","postalCode":"6048","locality":"Horw","commune":{"key":"1058","name":"Horw","shortName":"Horw"},"district":{"key":"312","name":"Wahlkreis Luzern-Land"},"canton":{"key":"3","code":"LU","name":"Luzern"},"status":"Real"},{"key":"10205861","name":"Rosengartenstrasse","postalCode":"6048","locality":"Horw","commune":{"key":"1058","name":"Horw","shortName":"Horw"},"district":{"key":"312","name":"Wahlkreis Luzern-Land"},"canton":{"key":"3","code":"LU","name":"Luzern"},"status":"Real"},{"key":"10205871","name":"Rothenfluestrasse","postalCode":"6048","locality":"Horw","commune":{"key":"1058","name":"Horw","shortName":"Horw"},"district":{"key":"312","name":"Wahlkreis Luzern-Land"},"canton":{"key":"3","code":"LU","name":"Luzern"},"status":"Real"},{"key":"10015951","name":"Scheidhalden","postalCode":"6048","locality":"Horw","commune":{"key":"1058","name":"Horw","shortName":"Horw"},"district":{"key":"312","name":"Wahlkreis Luzern-Land"},"canton":{"key":"3","code":"LU","name":"Luzern"},"status":"Real"},{"key":"10205862","name":"Scheidhaldenstrasse","postalCode":"6048","locality":"Horw","commune":{"key":"1058","name":"Horw","shortName":"Horw"},"district":{"key":"312","name":"Wahlkreis Luzern-Land"},"canton":{"key":"3","code":"LU","name":"Luzern"},"status":"Real"},{"key":"10080035","name":"Schiltmatthalde","postalCode":"6048","locality":"Horw","commune":{"key":"1058","name":"Horw","shortName":"Horw"},"district":{"key":"312","name":"Wahlkreis Luzern-Land"},"canton":{"key":"3","code":"LU","name":"Luzern"},"status":"Real"},{"key":"10074117","name":"Schiltmattstrasse","postalCode":"6048","locality":"Horw","commune":{"key":"1058","name":"Horw","shortName":"Horw"},"district":{"key":"312","name":"Wahlkreis Luzern-Land"},"canton":{"key":"3","code":"LU","name":"Luzern"},"status":"Real"},{"key":"10123265","name":"Schönauweg","postalCode":"6048","locality":"Horw","commune":{"key":"1058","name":"Horw","shortName":"Horw"},"district":{"key":"312","name":"Wahlkreis Luzern-Land"},"canton":{"key":"3","code":"LU","name":"Luzern"},"status":"Real"},{"key":"10015953","name":"Schönbühlweg","postalCode":"6048","locality":"Horw","commune":{"key":"1058","name":"Horw","shortName":"Horw"},"district":{"key":"312","name":"Wahlkreis Luzern-Land"},"canton":{"key":"3","code":"LU","name":"Luzern"},"status":"Real"},{"key":"10015954","name":"Schöneggstrasse","postalCode":"6048","locality":"Horw","commune":{"key":"1058","name":"Horw","shortName":"Horw"},"district":{"key":"312","name":"Wahlkreis Luzern-Land"},"canton":{"key":"3","code":"LU","name":"Luzern"},"status":"Real"},{"key":"10105664","name":"Schöngrundstrasse","postalCode":"6048","locality":"Horw","commune":{"key":"1058","name":"Horw","shortName":"Horw"},"district":{"key":"312","name":"Wahlkreis Luzern-Land"},"canton":{"key":"3","code":"LU","name":"Luzern"},"status":"Real"},{"key":"10111782","name":"Schulhausstrasse","postalCode":"6048","locality":"Horw","commune":{"key":"1058","name":"Horw","shortName":"Horw"},"district":{"key":"312","name":"Wahlkreis Luzern-Land"},"canton":{"key":"3","code":"LU","name":"Luzern"},"status":"Real"},{"key":"10015955","name":"Schürmatt","postalCode":"6048","locality":"Horw","commune":{"key":"1058","name":"Horw","shortName":"Horw"},"district":{"key":"312","name":"Wahlkreis Luzern-Land"},"canton":{"key":"3","code":"LU","name":"Luzern"},"status":"Real"},{"key":"10103895","name":"Schwendelberg","postalCode":"6048","locality":"Horw","commune":{"key":"1058","name":"Horw","shortName":"Horw"},"district":{"key":"312","name":"Wahlkreis Luzern-Land"},"canton":{"key":"3","code":"LU","name":"Luzern"},"status":"Real"},{"key":"10205839","name":"Schwendelbergstrasse","postalCode":"6048","locality":"Horw","commune":{"key":"1058","name":"Horw","shortName":"Horw"},"district":{"key":"312","name":"Wahlkreis Luzern-Land"},"canton":{"key":"3","code":"LU","name":"Luzern"},"status":"Real"},{"key":"10015952","name":"Schwesternberg","postalCode":"6048","locality":"Horw","commune":{"key":"1058","name":"Horw","shortName":"Horw"},"district":{"key":"312","name":"Wahlkreis Luzern-Land"},"canton":{"key":"3","code":"LU","name":"Luzern"},"status":"Real"},{"key":"10173600","name":"Seebadstrasse","postalCode":"6048","locality":"Horw","commune":{"key":"1058","name":"Horw","shortName":"Horw"},"district":{"key":"312","name":"Wahlkreis Luzern-Land"},"canton":{"key":"3","code":"LU","name":"Luzern"},"status":"Real"},{"key":"10120201","name":"Seeblick","postalCode":"6048","locality":"Horw","commune":{"key":"1058","name":"Horw","shortName":"Horw"},"district":{"key":"312","name":"Wahlkreis Luzern-Land"},"canton":{"key":"3","code":"LU","name":"Luzern"},"status":"Real"},{"key":"10015956","name":"Seeblickstrasse","postalCode":"6048","locality":"Horw","commune":{"key":"1058","name":"Horw","shortName":"Horw"},"district":{"key":"312","name":"Wahlkreis Luzern-Land"},"canton":{"key":"3","code":"LU","name":"Luzern"},"status":"Real"},{"key":"10205872","name":"Seeblickweg","postalCode":"6048","locality":"Horw","commune":{"key":"1058","name":"Horw","shortName":"Horw"},"district":{"key":"312","name":"Wahlkreis Luzern-Land"},"canton":{"key":"3","code":"LU","name":"Luzern"},"status":"Real"},{"key":"10179060","name":"Seefeldstrasse","postalCode":"6048","locality":"Horw","commune":{"key":"1058","name":"Horw","shortName":"Horw"},"district":{"key":"312","name":"Wahlkreis Luzern-Land"},"canton":{"key":"3","code":"LU","name":"Luzern"},"status":"Real"},{"key":"10150731","name":"Seefeldweg","postalCode":"6048","locality":"Horw","commune":{"key":"1058","name":"Horw","shortName":"Horw"},"district":{"key":"312","name":"Wahlkreis Luzern-Land"},"canton":{"key":"3","code":"LU","name":"Luzern"},"status":"Real"},{"key":"10155074","name":"Seerosenweg","postalCode":"6048","locality":"Horw","commune":{"key":"1058","name":"Horw","shortName":"Horw"},"district":{"key":"312","name":"Wahlkreis Luzern-Land"},"canton":{"key":"3","code":"LU","name":"Luzern"},"status":"Real"},{"key":"10014799","name":"Seestrasse","postalCode":"6048","locality":"Horw","commune":{"key":"1058","name":"Horw","shortName":"Horw"},"district":{"key":"312","name":"Wahlkreis Luzern-Land"},"canton":{"key":"3","code":"LU","name":"Luzern"},"status":"Real"},{"key":"10205852","name":"Seilbahnhüttenstrasse","postalCode":"6048","locality":"Horw","commune":{"key":"1058","name":"Horw","shortName":"Horw"},"district":{"key":"312","name":"Wahlkreis Luzern-Land"},"canton":{"key":"3","code":"LU","name":"Luzern"},"status":"Real"},{"key":"10074119","name":"Sonnsytehalde","postalCode":"6048","locality":"Horw","commune":{"key":"1058","name":"Horw","shortName":"Horw"},"district":{"key":"312","name":"Wahlkreis Luzern-Land"},"canton":{"key":"3","code":"LU","name":"Luzern"},"status":"Real"},{"key":"10015957","name":"Sonnsyterain","postalCode":"6048","locality":"Horw","commune":{"key":"1058","name":"Horw","shortName":"Horw"},"district":{"key":"312","name":"Wahlkreis Luzern-Land"},"canton":{"key":"3","code":"LU","name":"Luzern"},"status":"Real"},{"key":"10015958","name":"Spielplatzring","postalCode":"6048","locality":"Horw","commune":{"key":"1058","name":"Horw","shortName":"Horw"},"district":{"key":"312","name":"Wahlkreis Luzern-Land"},"canton":{"key":"3","code":"LU","name":"Luzern"},"status":"Real"},{"key":"10080036","name":"Spitzberglistrasse","postalCode":"6048","locality":"Horw","commune":{"key":"1058","name":"Horw","shortName":"Horw"},"district":{"key":"312","name":"Wahlkreis Luzern-Land"},"canton":{"key":"3","code":"LU","name":"Luzern"},"status":"Real"},{"key":"10015959","name":"Stadelstrasse","postalCode":"6048","locality":"Horw","commune":{"key":"1058","name":"Horw","shortName":"Horw"},"district":{"key":"312","name":"Wahlkreis Luzern-Land"},"canton":{"key":"3","code":"LU","name":"Luzern"},"status":"Real"},{"key":"10015960","name":"Stegenhalde","postalCode":"6048","locality":"Horw","commune":{"key":"1058","name":"Horw","shortName":"Horw"},"district":{"key":"312","name":"Wahlkreis Luzern-Land"},"canton":{"key":"3","code":"LU","name":"Luzern"},"status":"Real"},{"key":"10074120","name":"Stegenhöhe","postalCode":"6048","locality":"Horw","commune":{"key":"1058","name":"Horw","shortName":"Horw"},"district":{"key":"312","name":"Wahlkreis Luzern-Land"},"canton":{"key":"3","code":"LU","name":"Luzern"},"status":"Real"},{"key":"10010040","name":"Stegenrain","postalCode":"6048","locality":"Horw","commune":{"key":"1058","name":"Horw","shortName":"Horw"},"district":{"key":"312","name":"Wahlkreis Luzern-Land"},"canton":{"key":"3","code":"LU","name":"Luzern"},"status":"Real"},{"key":"10080037","name":"Stegenstrasse","postalCode":"6048","locality":"Horw","commune":{"key":"1058","name":"Horw","shortName":"Horw"},"district":{"key":"312","name":"Wahlkreis Luzern-Land"},"canton":{"key":"3","code":"LU","name":"Luzern"},"status":"Real"},{"key":"10074121","name":"Steinen","postalCode":"6048","locality":"Horw","commune":{"key":"1058","name":"Horw","shortName":"Horw"},"district":{"key":"312","name":"Wahlkreis Luzern-Land"},"canton":{"key":"3","code":"LU","name":"Luzern"},"status":"Real"},{"key":"10205863","name":"Steinengasse","postalCode":"6048","locality":"Horw","commune":{"key":"1058","name":"Horw","shortName":"Horw"},"district":{"key":"312","name":"Wahlkreis Luzern-Land"},"canton":{"key":"3","code":"LU","name":"Luzern"},"status":"Real"},{"key":"10179061","name":"Steinenstrasse","postalCode":"6048","locality":"Horw","commune":{"key":"1058","name":"Horw","shortName":"Horw"},"district":{"key":"312","name":"Wahlkreis Luzern-Land"},"canton":{"key":"3","code":"LU","name":"Luzern"},"status":"Real"},{"key":"10053632","name":"Steinibachried","postalCode":"6048","locality":"Horw","commune":{"key":"1058","name":"Horw","shortName":"Horw"},"district":{"key":"312","name":"Wahlkreis Luzern-Land"},"canton":{"key":"3","code":"LU","name":"Luzern"},"status":"Real"},{"key":"10080038","name":"Steinibachweg","postalCode":"6048","locality":"Horw","commune":{"key":"1058","name":"Horw","shortName":"Horw"},"district":{"key":"312","name":"Wahlkreis Luzern-Land"},"canton":{"key":"3","code":"LU","name":"Luzern"},"status":"Real"},{"key":"10155079","name":"Sternenried","postalCode":"6048","locality":"Horw","commune":{"key":"1058","name":"Horw","shortName":"Horw"},"district":{"key":"312","name":"Wahlkreis Luzern-Land"},"canton":{"key":"3","code":"LU","name":"Luzern"},"status":"Real"},{"key":"10223899","name":"Sternenriedplatz","postalCode":"6048","locality":"Horw","commune":{"key":"1058","name":"Horw","shortName":"Horw"},"district":{"key":"312","name":"Wahlkreis Luzern-Land"},"canton":{"key":"3","code":"LU","name":"Luzern"},"status":"Real"},{"key":"10205853","name":"Stiftsstrasse","postalCode":"6048","locality":"Horw","commune":{"key":"1058","name":"Horw","shortName":"Horw"},"district":{"key":"312","name":"Wahlkreis Luzern-Land"},"canton":{"key":"3","code":"LU","name":"Luzern"},"status":"Real"},{"key":"10189735","name":"Stirnrütistrasse","postalCode":"6048","locality":"Horw","commune":{"key":"1058","name":"Horw","shortName":"Horw"},"district":{"key":"312","name":"Wahlkreis Luzern-Land"},"canton":{"key":"3","code":"LU","name":"Luzern"},"status":"Real"},{"key":"10205840","name":"Stirnrütiweg","postalCode":"6048","locality":"Horw","commune":{"key":"1058","name":"Horw","shortName":"Horw"},"district":{"key":"312","name":"Wahlkreis Luzern-Land"},"canton":{"key":"3","code":"LU","name":"Luzern"},"status":"Real"},{"key":"10074122","name":"Technikumstrasse","postalCode":"6048","locality":"Horw","commune":{"key":"1058","name":"Horw","shortName":"Horw"},"district":{"key":"312","name":"Wahlkreis Luzern-Land"},"canton":{"key":"3","code":"LU","name":"Luzern"},"status":"Real"},{"key":"10010042","name":"Terrassenweg","postalCode":"6048","locality":"Horw","commune":{"key":"1058","name":"Horw","shortName":"Horw"},"district":{"key":"312","name":"Wahlkreis Luzern-Land"},"canton":{"key":"3","code":"LU","name":"Luzern"},"status":"Real"},{"key":"10080040","name":"Underschwändlistrasse","postalCode":"6048","locality":"Horw","commune":{"key":"1058","name":"Horw","shortName":"Horw"},"district":{"key":"312","name":"Wahlkreis Luzern-Land"},"canton":{"key":"3","code":"LU","name":"Luzern"},"status":"Real"},{"key":"10167159","name":"Underschwändliweg","postalCode":"6048","locality":"Horw","commune":{"key":"1058","name":"Horw","shortName":"Horw"},"district":{"key":"312","name":"Wahlkreis Luzern-Land"},"canton":{"key":"3","code":"LU","name":"Luzern"},"status":"Real"},{"key":"10080039","name":"Unterfondlen","postalCode":"6048","locality":"Horw","commune":{"key":"1058","name":"Horw","shortName":"Horw"},"district":{"key":"312","name":"Wahlkreis Luzern-Land"},"canton":{"key":"3","code":"LU","name":"Luzern"},"status":"Real"},{"key":"10053633","name":"Untergrisigen","postalCode":"6048","locality":"Horw","commune":{"key":"1058","name":"Horw","shortName":"Horw"},"district":{"key":"312","name":"Wahlkreis Luzern-Land"},"canton":{"key":"3","code":"LU","name":"Luzern"},"status":"Real"},{"key":"10010043","name":"Unterknolligen","postalCode":"6048","locality":"Horw","commune":{"key":"1058","name":"Horw","shortName":"Horw"},"district":{"key":"312","name":"Wahlkreis Luzern-Land"},"canton":{"key":"3","code":"LU","name":"Luzern"},"status":"Real"},{"key":"10010044","name":"Untermattstrasse","postalCode":"6048","locality":"Horw","commune":{"key":"1058","name":"Horw","shortName":"Horw"},"district":{"key":"312","name":"Wahlkreis Luzern-Land"},"canton":{"key":"3","code":"LU","name":"Luzern"},"status":"Real"},{"key":"10105665","name":"Untermattweg","postalCode":"6048","locality":"Horw","commune":{"key":"1058","name":"Horw","shortName":"Horw"},"district":{"key":"312","name":"Wahlkreis Luzern-Land"},"canton":{"key":"3","code":"LU","name":"Luzern"},"status":"Real"},{"key":"10053634","name":"Unterwil","postalCode":"6048","locality":"Horw","commune":{"key":"1058","name":"Horw","shortName":"Horw"},"district":{"key":"312","name":"Wahlkreis Luzern-Land"},"canton":{"key":"3","code":"LU","name":"Luzern"},"status":"Real"},{"key":"10205873","name":"Unterwilstrasse","postalCode":"6048","locality":"Horw","commune":{"key":"1058","name":"Horw","shortName":"Horw"},"district":{"key":"312","name":"Wahlkreis Luzern-Land"},"canton":{"key":"3","code":"LU","name":"Luzern"},"status":"Real"},{"key":"10205854","name":"Waldrandweg","postalCode":"6048","locality":"Horw","commune":{"key":"1058","name":"Horw","shortName":"Horw"},"district":{"key":"312","name":"Wahlkreis Luzern-Land"},"canton":{"key":"3","code":"LU","name":"Luzern"},"status":"Real"},{"key":"10205864","name":"Wandfluestrasse","postalCode":"6048","locality":"Horw","commune":{"key":"1058","name":"Horw","shortName":"Horw"},"district":{"key":"312","name":"Wahlkreis Luzern-Land"},"canton":{"key":"3","code":"LU","name":"Luzern"},"status":"Real"},{"key":"10129583","name":"Wegmatt","postalCode":"6048","locality":"Horw","commune":{"key":"1058","name":"Horw","shortName":"Horw"},"district":{"key":"312","name":"Wahlkreis Luzern-Land"},"canton":{"key":"3","code":"LU","name":"Luzern"},"status":"Real"},{"key":"10014181","name":"Wegmattring","postalCode":"6048","locality":"Horw","commune":{"key":"1058","name":"Horw","shortName":"Horw"},"district":{"key":"312","name":"Wahlkreis Luzern-Land"},"canton":{"key":"3","code":"LU","name":"Luzern"},"status":"Real"},{"key":"10014182","name":"Wegmattstrasse","postalCode":"6048","locality":"Horw","commune":{"key":"1058","name":"Horw","shortName":"Horw"},"district":{"key":"312","name":"Wahlkreis Luzern-Land"},"canton":{"key":"3","code":"LU","name":"Luzern"},"status":"Real"},{"key":"10085051","name":"Wegmattstrasse","postalCode":"6048","locality":"Horw","commune":{"key":"1058","name":"Horw","shortName":"Horw"},"district":{"key":"312","name":"Wahlkreis Luzern-Land"},"canton":{"key":"3","code":"LU","name":"Luzern"},"status":"Real"},{"key":"10074124","name":"Weid","postalCode":"6048","locality":"Horw","commune":{"key":"1058","name":"Horw","shortName":"Horw"},"district":{"key":"312","name":"Wahlkreis Luzern-Land"},"canton":{"key":"3","code":"LU","name":"Luzern"},"status":"Real"},{"key":"10080041","name":"Winkelhalde","postalCode":"6048","locality":"Horw","commune":{"key":"1058","name":"Horw","shortName":"Horw"},"district":{"key":"312","name":"Wahlkreis Luzern-Land"},"canton":{"key":"3","code":"LU","name":"Luzern"},"status":"Real"},{"key":"10179335","name":"Winkelstrasse","postalCode":"6048","locality":"Horw","commune":{"key":"1058","name":"Horw","shortName":"Horw"},"district":{"key":"312","name":"Wahlkreis Luzern-Land"},"canton":{"key":"3","code":"LU","name":"Luzern"},"status":"Real"},{"key":"10223901","name":"Ziegeleiweg","postalCode":"6048","locality":"Horw","commune":{"key":"1058","name":"Horw","shortName":"Horw"},"district":{"key":"312","name":"Wahlkreis Luzern-Land"},"canton":{"key":"3","code":"LU","name":"Luzern"},"status":"Real"},{"key":"10248998","name":"Ziegeleiweg","postalCode":"6048","locality":"Horw","commune":{"key":"1058","name":"Horw","shortName":"Horw"},"district":{"key":"312","name":"Wahlkreis Luzern-Land"},"canton":{"key":"3","code":"LU","name":"Luzern"},"status":"Planned"},{"key":"10014183","name":"Zumhofstrasse","postalCode":"6048","locality":"Horw","commune":{"key":"1058","name":"Horw","shortName":"Horw"},"district":{"key":"312","name":"Wahlkreis Luzern-Land"},"canton":{"key":"3","code":"LU","name":"Luzern"},"status":"Real"},{"key":"10080042","name":"Zumhofweg","postalCode":"6048","locality":"Horw","commune":{"key":"1058","name":"Horw","shortName":"Horw"},"district":{"key":"312","name":"Wahlkreis Luzern-Land"},"canton":{"key":"3","code":"LU","name":"Luzern"},"status":"Real"},]