[{"key":"10251692","name":"Alpenblick","postalCode":"6242","locality":"Wauwil","commune":{"key":"1146","name":"Wauwil","shortName":"Wauwil"},"district":{"key":"315","name":"Wahlkreis Willisau"},"canton":{"key":"3","code":"LU","name":"Luzern"},"status":"Real"},{"key":"10015996","name":"Ausserberg","postalCode":"6242","locality":"Wauwil","commune":{"key":"1146","name":"Wauwil","shortName":"Wauwil"},"district":{"key":"315","name":"Wahlkreis Willisau"},"canton":{"key":"3","code":"LU","name":"Luzern"},"status":"Real"},{"key":"10015997","name":"Bahnstrasse","postalCode":"6242","locality":"Wauwil","commune":{"key":"1146","name":"Wauwil","shortName":"Wauwil"},"district":{"key":"315","name":"Wahlkreis Willisau"},"canton":{"key":"3","code":"LU","name":"Luzern"},"status":"Real"},{"key":"10015998","name":"Berghof","postalCode":"6242","locality":"Wauwil","commune":{"key":"1146","name":"Wauwil","shortName":"Wauwil"},"district":{"key":"315","name":"Wahlkreis Willisau"},"canton":{"key":"3","code":"LU","name":"Luzern"},"status":"Real"},{"key":"10088035","name":"Bergstrasse","postalCode":"6242","locality":"Wauwil","commune":{"key":"1146","name":"Wauwil","shortName":"Wauwil"},"district":{"key":"315","name":"Wahlkreis Willisau"},"canton":{"key":"3","code":"LU","name":"Luzern"},"status":"Real"},{"key":"10052595","name":"Bernetmatt","postalCode":"6242","locality":"Wauwil","commune":{"key":"1146","name":"Wauwil","shortName":"Wauwil"},"district":{"key":"315","name":"Wahlkreis Willisau"},"canton":{"key":"3","code":"LU","name":"Luzern"},"status":"Real"},{"key":"10255374","name":"Breite","postalCode":"6242","locality":"Wauwil","commune":{"key":"1146","name":"Wauwil","shortName":"Wauwil"},"district":{"key":"315","name":"Wahlkreis Willisau"},"canton":{"key":"3","code":"LU","name":"Luzern"},"status":"Real"},{"key":"10067674","name":"Brunnenhof","postalCode":"6242","locality":"Wauwil","commune":{"key":"1146","name":"Wauwil","shortName":"Wauwil"},"district":{"key":"315","name":"Wahlkreis Willisau"},"canton":{"key":"3","code":"LU","name":"Luzern"},"status":"Real"},{"key":"10109404","name":"Buchwald","postalCode":"6242","locality":"Wauwil","commune":{"key":"1146","name":"Wauwil","shortName":"Wauwil"},"district":{"key":"315","name":"Wahlkreis Willisau"},"canton":{"key":"3","code":"LU","name":"Luzern"},"status":"Real"},{"key":"10117186","name":"Büntmatt","postalCode":"6242","locality":"Wauwil","commune":{"key":"1146","name":"Wauwil","shortName":"Wauwil"},"district":{"key":"315","name":"Wahlkreis Willisau"},"canton":{"key":"3","code":"LU","name":"Luzern"},"status":"Real"},{"key":"10015999","name":"Chäppelimatt","postalCode":"6242","locality":"Wauwil","commune":{"key":"1146","name":"Wauwil","shortName":"Wauwil"},"district":{"key":"315","name":"Wahlkreis Willisau"},"canton":{"key":"3","code":"LU","name":"Luzern"},"status":"Real"},{"key":"10241927","name":"Dorf","postalCode":"6242","locality":"Wauwil","commune":{"key":"1146","name":"Wauwil","shortName":"Wauwil"},"district":{"key":"315","name":"Wahlkreis Willisau"},"canton":{"key":"3","code":"LU","name":"Luzern"},"status":"Real"},{"key":"10067675","name":"Dorfstrasse","postalCode":"6242","locality":"Wauwil","commune":{"key":"1146","name":"Wauwil","shortName":"Wauwil"},"district":{"key":"315","name":"Wahlkreis Willisau"},"canton":{"key":"3","code":"LU","name":"Luzern"},"status":"Real"},{"key":"10016000","name":"Engelberg","postalCode":"6242","locality":"Wauwil","commune":{"key":"1146","name":"Wauwil","shortName":"Wauwil"},"district":{"key":"315","name":"Wahlkreis Willisau"},"canton":{"key":"3","code":"LU","name":"Luzern"},"status":"Real"},{"key":"10016001","name":"Engelweg","postalCode":"6242","locality":"Wauwil","commune":{"key":"1146","name":"Wauwil","shortName":"Wauwil"},"district":{"key":"315","name":"Wahlkreis Willisau"},"canton":{"key":"3","code":"LU","name":"Luzern"},"status":"Real"},{"key":"10016002","name":"Erlen","postalCode":"6242","locality":"Wauwil","commune":{"key":"1146","name":"Wauwil","shortName":"Wauwil"},"district":{"key":"315","name":"Wahlkreis Willisau"},"canton":{"key":"3","code":"LU","name":"Luzern"},"status":"Real"},{"key":"10088037","name":"Ettiswilerstrasse","postalCode":"6242","locality":"Wauwil","commune":{"key":"1146","name":"Wauwil","shortName":"Wauwil"},"district":{"key":"315","name":"Wahlkreis Willisau"},"canton":{"key":"3","code":"LU","name":"Luzern"},"status":"Real"},{"key":"10067676","name":"Falkenhof","postalCode":"6242","locality":"Wauwil","commune":{"key":"1146","name":"Wauwil","shortName":"Wauwil"},"district":{"key":"315","name":"Wahlkreis Willisau"},"canton":{"key":"3","code":"LU","name":"Luzern"},"status":"Real"},{"key":"10084595","name":"Falläsch","postalCode":"6242","locality":"Wauwil","commune":{"key":"1146","name":"Wauwil","shortName":"Wauwil"},"district":{"key":"315","name":"Wahlkreis Willisau"},"canton":{"key":"3","code":"LU","name":"Luzern"},"status":"Real"},{"key":"10109405","name":"Föhrenhof","postalCode":"6242","locality":"Wauwil","commune":{"key":"1146","name":"Wauwil","shortName":"Wauwil"},"district":{"key":"315","name":"Wahlkreis Willisau"},"canton":{"key":"3","code":"LU","name":"Luzern"},"status":"Real"},{"key":"10016003","name":"Gasshof","postalCode":"6242","locality":"Wauwil","commune":{"key":"1146","name":"Wauwil","shortName":"Wauwil"},"district":{"key":"315","name":"Wahlkreis Willisau"},"canton":{"key":"3","code":"LU","name":"Luzern"},"status":"Real"},{"key":"10211740","name":"Glasiweg","postalCode":"6242","locality":"Wauwil","commune":{"key":"1146","name":"Wauwil","shortName":"Wauwil"},"district":{"key":"315","name":"Wahlkreis Willisau"},"canton":{"key":"3","code":"LU","name":"Luzern"},"status":"Real"},{"key":"10130526","name":"Grenzhof","postalCode":"6242","locality":"Wauwil","commune":{"key":"1146","name":"Wauwil","shortName":"Wauwil"},"district":{"key":"315","name":"Wahlkreis Willisau"},"canton":{"key":"3","code":"LU","name":"Luzern"},"status":"Real"},{"key":"10016004","name":"Grundhofstrasse","postalCode":"6242","locality":"Wauwil","commune":{"key":"1146","name":"Wauwil","shortName":"Wauwil"},"district":{"key":"315","name":"Wahlkreis Willisau"},"canton":{"key":"3","code":"LU","name":"Luzern"},"status":"Real"},{"key":"10187287","name":"Grundmatt","postalCode":"6242","locality":"Wauwil","commune":{"key":"1146","name":"Wauwil","shortName":"Wauwil"},"district":{"key":"315","name":"Wahlkreis Willisau"},"canton":{"key":"3","code":"LU","name":"Luzern"},"status":"Real"},{"key":"10067677","name":"Heuacher","postalCode":"6242","locality":"Wauwil","commune":{"key":"1146","name":"Wauwil","shortName":"Wauwil"},"district":{"key":"315","name":"Wahlkreis Willisau"},"canton":{"key":"3","code":"LU","name":"Luzern"},"status":"Real"},{"key":"10103329","name":"Hinterdorf","postalCode":"6242","locality":"Wauwil","commune":{"key":"1146","name":"Wauwil","shortName":"Wauwil"},"district":{"key":"315","name":"Wahlkreis Willisau"},"canton":{"key":"3","code":"LU","name":"Luzern"},"status":"Real"},{"key":"10084596","name":"Hinterfeld","postalCode":"6242","locality":"Wauwil","commune":{"key":"1146","name":"Wauwil","shortName":"Wauwil"},"district":{"key":"315","name":"Wahlkreis Willisau"},"canton":{"key":"3","code":"LU","name":"Luzern"},"status":"Real"},{"key":"10088038","name":"Höchrain","postalCode":"6242","locality":"Wauwil","commune":{"key":"1146","name":"Wauwil","shortName":"Wauwil"},"district":{"key":"315","name":"Wahlkreis Willisau"},"canton":{"key":"3","code":"LU","name":"Luzern"},"status":"Real"},{"key":"10016005","name":"Höhenweg","postalCode":"6242","locality":"Wauwil","commune":{"key":"1146","name":"Wauwil","shortName":"Wauwil"},"district":{"key":"315","name":"Wahlkreis Willisau"},"canton":{"key":"3","code":"LU","name":"Luzern"},"status":"Real"},{"key":"10105751","name":"Kaltbacherstrasse","postalCode":"6242","locality":"Wauwil","commune":{"key":"1146","name":"Wauwil","shortName":"Wauwil"},"district":{"key":"315","name":"Wahlkreis Willisau"},"canton":{"key":"3","code":"LU","name":"Luzern"},"status":"Real"},{"key":"10088039","name":"Kreuzmatt","postalCode":"6242","locality":"Wauwil","commune":{"key":"1146","name":"Wauwil","shortName":"Wauwil"},"district":{"key":"315","name":"Wahlkreis Willisau"},"canton":{"key":"3","code":"LU","name":"Luzern"},"status":"Real"},{"key":"10166810","name":"Landhus","postalCode":"6242","locality":"Wauwil","commune":{"key":"1146","name":"Wauwil","shortName":"Wauwil"},"district":{"key":"315","name":"Wahlkreis Willisau"},"canton":{"key":"3","code":"LU","name":"Luzern"},"status":"Real"},{"key":"10016007","name":"Länghof","postalCode":"6242","locality":"Wauwil","commune":{"key":"1146","name":"Wauwil","shortName":"Wauwil"},"district":{"key":"315","name":"Wahlkreis Willisau"},"canton":{"key":"3","code":"LU","name":"Luzern"},"status":"Real"},{"key":"10052596","name":"Lindenhof","postalCode":"6242","locality":"Wauwil","commune":{"key":"1146","name":"Wauwil","shortName":"Wauwil"},"district":{"key":"315","name":"Wahlkreis Willisau"},"canton":{"key":"3","code":"LU","name":"Luzern"},"status":"Real"},{"key":"10117187","name":"Martisrüti","postalCode":"6242","locality":"Wauwil","commune":{"key":"1146","name":"Wauwil","shortName":"Wauwil"},"district":{"key":"315","name":"Wahlkreis Willisau"},"canton":{"key":"3","code":"LU","name":"Luzern"},"status":"Real"},{"key":"10116498","name":"Mattenhof","postalCode":"6242","locality":"Wauwil","commune":{"key":"1146","name":"Wauwil","shortName":"Wauwil"},"district":{"key":"315","name":"Wahlkreis Willisau"},"canton":{"key":"3","code":"LU","name":"Luzern"},"status":"Real"},{"key":"10151359","name":"Müllacher","postalCode":"6242","locality":"Wauwil","commune":{"key":"1146","name":"Wauwil","shortName":"Wauwil"},"district":{"key":"315","name":"Wahlkreis Willisau"},"canton":{"key":"3","code":"LU","name":"Luzern"},"status":"Real"},{"key":"10243265","name":"Oberfalläsch","postalCode":"6242","locality":"Wauwil","commune":{"key":"1146","name":"Wauwil","shortName":"Wauwil"},"district":{"key":"315","name":"Wahlkreis Willisau"},"canton":{"key":"3","code":"LU","name":"Luzern"},"status":"Real"},{"key":"10109406","name":"Obermoos","postalCode":"6242","locality":"Wauwil","commune":{"key":"1146","name":"Wauwil","shortName":"Wauwil"},"district":{"key":"315","name":"Wahlkreis Willisau"},"canton":{"key":"3","code":"LU","name":"Luzern"},"status":"Real"},{"key":"10152377","name":"Ober-Trochenhof","postalCode":"6242","locality":"Wauwil","commune":{"key":"1146","name":"Wauwil","shortName":"Wauwil"},"district":{"key":"315","name":"Wahlkreis Willisau"},"canton":{"key":"3","code":"LU","name":"Luzern"},"status":"Real"},{"key":"10162906","name":"Pfarrhaus","postalCode":"6242","locality":"Wauwil","commune":{"key":"1146","name":"Wauwil","shortName":"Wauwil"},"district":{"key":"315","name":"Wahlkreis Willisau"},"canton":{"key":"3","code":"LU","name":"Luzern"},"status":"Real"},{"key":"10016008","name":"Pilatusweg","postalCode":"6242","locality":"Wauwil","commune":{"key":"1146","name":"Wauwil","shortName":"Wauwil"},"district":{"key":"315","name":"Wahlkreis Willisau"},"canton":{"key":"3","code":"LU","name":"Luzern"},"status":"Real"},{"key":"10016009","name":"Piusheim","postalCode":"6242","locality":"Wauwil","commune":{"key":"1146","name":"Wauwil","shortName":"Wauwil"},"district":{"key":"315","name":"Wahlkreis Willisau"},"canton":{"key":"3","code":"LU","name":"Luzern"},"status":"Real"},{"key":"10067678","name":"Poststrasse","postalCode":"6242","locality":"Wauwil","commune":{"key":"1146","name":"Wauwil","shortName":"Wauwil"},"district":{"key":"315","name":"Wahlkreis Willisau"},"canton":{"key":"3","code":"LU","name":"Luzern"},"status":"Real"},{"key":"10088041","name":"Rigiblick","postalCode":"6242","locality":"Wauwil","commune":{"key":"1146","name":"Wauwil","shortName":"Wauwil"},"district":{"key":"315","name":"Wahlkreis Willisau"},"canton":{"key":"3","code":"LU","name":"Luzern"},"status":"Real"},{"key":"10016010","name":"Rigimatt","postalCode":"6242","locality":"Wauwil","commune":{"key":"1146","name":"Wauwil","shortName":"Wauwil"},"district":{"key":"315","name":"Wahlkreis Willisau"},"canton":{"key":"3","code":"LU","name":"Luzern"},"status":"Real"},{"key":"10194071","name":"Rütihubel","postalCode":"6242","locality":"Wauwil","commune":{"key":"1146","name":"Wauwil","shortName":"Wauwil"},"district":{"key":"315","name":"Wahlkreis Willisau"},"canton":{"key":"3","code":"LU","name":"Luzern"},"status":"Real"},{"key":"10016011","name":"Sackmatt","postalCode":"6242","locality":"Wauwil","commune":{"key":"1146","name":"Wauwil","shortName":"Wauwil"},"district":{"key":"315","name":"Wahlkreis Willisau"},"canton":{"key":"3","code":"LU","name":"Luzern"},"status":"Real"},{"key":"10067679","name":"Sandmatt","postalCode":"6242","locality":"Wauwil","commune":{"key":"1146","name":"Wauwil","shortName":"Wauwil"},"district":{"key":"315","name":"Wahlkreis Willisau"},"canton":{"key":"3","code":"LU","name":"Luzern"},"status":"Real"},{"key":"10012858","name":"Sandweid","postalCode":"6242","locality":"Wauwil","commune":{"key":"1146","name":"Wauwil","shortName":"Wauwil"},"district":{"key":"315","name":"Wahlkreis Willisau"},"canton":{"key":"3","code":"LU","name":"Luzern"},"status":"Real"},{"key":"10016012","name":"Schönbühl","postalCode":"6242","locality":"Wauwil","commune":{"key":"1146","name":"Wauwil","shortName":"Wauwil"},"district":{"key":"315","name":"Wahlkreis Willisau"},"canton":{"key":"3","code":"LU","name":"Luzern"},"status":"Real"},{"key":"10197841","name":"Schulhaus Linde","postalCode":"6242","locality":"Wauwil","commune":{"key":"1146","name":"Wauwil","shortName":"Wauwil"},"district":{"key":"315","name":"Wahlkreis Willisau"},"canton":{"key":"3","code":"LU","name":"Luzern"},"status":"Real"},{"key":"10088042","name":"Schwyzerhofweg","postalCode":"6242","locality":"Wauwil","commune":{"key":"1146","name":"Wauwil","shortName":"Wauwil"},"district":{"key":"315","name":"Wahlkreis Willisau"},"canton":{"key":"3","code":"LU","name":"Luzern"},"status":"Real"},{"key":"10255375","name":"Sodbode","postalCode":"6242","locality":"Wauwil","commune":{"key":"1146","name":"Wauwil","shortName":"Wauwil"},"district":{"key":"315","name":"Wahlkreis Willisau"},"canton":{"key":"3","code":"LU","name":"Luzern"},"status":"Real"},{"key":"10144884","name":"Sonnenblick","postalCode":"6242","locality":"Wauwil","commune":{"key":"1146","name":"Wauwil","shortName":"Wauwil"},"district":{"key":"315","name":"Wahlkreis Willisau"},"canton":{"key":"3","code":"LU","name":"Luzern"},"status":"Real"},{"key":"10258157","name":"Sonnenrain","postalCode":"6242","locality":"Wauwil","commune":{"key":"1146","name":"Wauwil","shortName":"Wauwil"},"district":{"key":"315","name":"Wahlkreis Willisau"},"canton":{"key":"3","code":"LU","name":"Luzern"},"status":"Real"},{"key":"10052597","name":"Sonnenrain","postalCode":"6242","locality":"Wauwil","commune":{"key":"1146","name":"Wauwil","shortName":"Wauwil"},"district":{"key":"315","name":"Wahlkreis Willisau"},"canton":{"key":"3","code":"LU","name":"Luzern"},"status":"Real"},{"key":"10109407","name":"Sonnhalde","postalCode":"6242","locality":"Wauwil","commune":{"key":"1146","name":"Wauwil","shortName":"Wauwil"},"district":{"key":"315","name":"Wahlkreis Willisau"},"canton":{"key":"3","code":"LU","name":"Luzern"},"status":"Real"},{"key":"10158529","name":"Sonnhaldenrain","postalCode":"6242","locality":"Wauwil","commune":{"key":"1146","name":"Wauwil","shortName":"Wauwil"},"district":{"key":"315","name":"Wahlkreis Willisau"},"canton":{"key":"3","code":"LU","name":"Luzern"},"status":"Real"},{"key":"10178803","name":"Sonnmatt","postalCode":"6242","locality":"Wauwil","commune":{"key":"1146","name":"Wauwil","shortName":"Wauwil"},"district":{"key":"315","name":"Wahlkreis Willisau"},"canton":{"key":"3","code":"LU","name":"Luzern"},"status":"Real"},{"key":"10018286","name":"Sonnmatt","postalCode":"6242","locality":"Wauwil","commune":{"key":"1146","name":"Wauwil","shortName":"Wauwil"},"district":{"key":"315","name":"Wahlkreis Willisau"},"canton":{"key":"3","code":"LU","name":"Luzern"},"status":"Real"},{"key":"10201482","name":"Sportplatzstrasse","postalCode":"6242","locality":"Wauwil","commune":{"key":"1146","name":"Wauwil","shortName":"Wauwil"},"district":{"key":"315","name":"Wahlkreis Willisau"},"canton":{"key":"3","code":"LU","name":"Luzern"},"status":"Real"},{"key":"10111578","name":"Sternmatt","postalCode":"6242","locality":"Wauwil","commune":{"key":"1146","name":"Wauwil","shortName":"Wauwil"},"district":{"key":"315","name":"Wahlkreis Willisau"},"canton":{"key":"3","code":"LU","name":"Luzern"},"status":"Real"},{"key":"10088043","name":"Surseestrasse","postalCode":"6242","locality":"Wauwil","commune":{"key":"1146","name":"Wauwil","shortName":"Wauwil"},"district":{"key":"315","name":"Wahlkreis Willisau"},"canton":{"key":"3","code":"LU","name":"Luzern"},"status":"Real"},{"key":"10018287","name":"Trochenhof","postalCode":"6242","locality":"Wauwil","commune":{"key":"1146","name":"Wauwil","shortName":"Wauwil"},"district":{"key":"315","name":"Wahlkreis Willisau"},"canton":{"key":"3","code":"LU","name":"Luzern"},"status":"Real"},{"key":"10114897","name":"Unterdorf","postalCode":"6242","locality":"Wauwil","commune":{"key":"1146","name":"Wauwil","shortName":"Wauwil"},"district":{"key":"315","name":"Wahlkreis Willisau"},"canton":{"key":"3","code":"LU","name":"Luzern"},"status":"Real"},{"key":"10152692","name":"Unterfalläsch","postalCode":"6242","locality":"Wauwil","commune":{"key":"1146","name":"Wauwil","shortName":"Wauwil"},"district":{"key":"315","name":"Wahlkreis Willisau"},"canton":{"key":"3","code":"LU","name":"Luzern"},"status":"Real"},{"key":"10108631","name":"Waldacher","postalCode":"6242","locality":"Wauwil","commune":{"key":"1146","name":"Wauwil","shortName":"Wauwil"},"district":{"key":"315","name":"Wahlkreis Willisau"},"canton":{"key":"3","code":"LU","name":"Luzern"},"status":"Real"},{"key":"10116576","name":"Waldegg","postalCode":"6242","locality":"Wauwil","commune":{"key":"1146","name":"Wauwil","shortName":"Wauwil"},"district":{"key":"315","name":"Wahlkreis Willisau"},"canton":{"key":"3","code":"LU","name":"Luzern"},"status":"Real"},{"key":"10018288","name":"Weiermatt","postalCode":"6242","locality":"Wauwil","commune":{"key":"1146","name":"Wauwil","shortName":"Wauwil"},"district":{"key":"315","name":"Wahlkreis Willisau"},"canton":{"key":"3","code":"LU","name":"Luzern"},"status":"Real"},{"key":"10105752","name":"Wendelinsmatte","postalCode":"6242","locality":"Wauwil","commune":{"key":"1146","name":"Wauwil","shortName":"Wauwil"},"district":{"key":"315","name":"Wahlkreis Willisau"},"canton":{"key":"3","code":"LU","name":"Luzern"},"status":"Real"},{"key":"10198782","name":"Wiggerhöflistrasse","postalCode":"6242","locality":"Wauwil","commune":{"key":"1146","name":"Wauwil","shortName":"Wauwil"},"district":{"key":"315","name":"Wahlkreis Willisau"},"canton":{"key":"3","code":"LU","name":"Luzern"},"status":"Real"},]