[{"name":"Am Beek","postalCode":"25569","locality":"Kremperheide","municipality":{"key":"01061056","name":"Kremperheide","type":"Kreisangehörige_Gemeinde"},"district":{"key":"01061","name":"Steinburg","type":"Kreis"},"federalState":{"key":"01","name":"Schleswig-Holstein"}},{"name":"Am Bentheim","postalCode":"25569","locality":"Kremperheide","municipality":{"key":"01061056","name":"Kremperheide","type":"Kreisangehörige_Gemeinde"},"district":{"key":"01061","name":"Steinburg","type":"Kreis"},"federalState":{"key":"01","name":"Schleswig-Holstein"}},{"name":"Am Hang","postalCode":"25569","locality":"Kremperheide","municipality":{"key":"01061056","name":"Kremperheide","type":"Kreisangehörige_Gemeinde"},"district":{"key":"01061","name":"Steinburg","type":"Kreis"},"federalState":{"key":"01","name":"Schleswig-Holstein"}},{"name":"Am Moor","postalCode":"25569","locality":"Kremperheide","municipality":{"key":"01061056","name":"Kremperheide","type":"Kreisangehörige_Gemeinde"},"district":{"key":"01061","name":"Steinburg","type":"Kreis"},"federalState":{"key":"01","name":"Schleswig-Holstein"}},{"name":"Amselweg","postalCode":"25569","locality":"Kremperheide","municipality":{"key":"01061056","name":"Kremperheide","type":"Kreisangehörige_Gemeinde"},"district":{"key":"01061","name":"Steinburg","type":"Kreis"},"federalState":{"key":"01","name":"Schleswig-Holstein"}},{"name":"Am Wald","postalCode":"25569","locality":"Kremperheide","municipality":{"key":"01061056","name":"Kremperheide","type":"Kreisangehörige_Gemeinde"},"district":{"key":"01061","name":"Steinburg","type":"Kreis"},"federalState":{"key":"01","name":"Schleswig-Holstein"}},{"name":"Bachweg","postalCode":"25569","locality":"Kremperheide","municipality":{"key":"01061056","name":"Kremperheide","type":"Kreisangehörige_Gemeinde"},"district":{"key":"01061","name":"Steinburg","type":"Kreis"},"federalState":{"key":"01","name":"Schleswig-Holstein"}},{"name":"Beethovenweg","postalCode":"25569","locality":"Kremperheide","municipality":{"key":"01061056","name":"Kremperheide","type":"Kreisangehörige_Gemeinde"},"district":{"key":"01061","name":"Steinburg","type":"Kreis"},"federalState":{"key":"01","name":"Schleswig-Holstein"}},{"name":"Birkenweg","postalCode":"25569","locality":"Kremperheide","municipality":{"key":"01061056","name":"Kremperheide","type":"Kreisangehörige_Gemeinde"},"district":{"key":"01061","name":"Steinburg","type":"Kreis"},"federalState":{"key":"01","name":"Schleswig-Holstein"}},{"name":"Bockwischer Weg","postalCode":"25569","locality":"Kremperheide","municipality":{"key":"01061056","name":"Kremperheide","type":"Kreisangehörige_Gemeinde"},"district":{"key":"01061","name":"Steinburg","type":"Kreis"},"federalState":{"key":"01","name":"Schleswig-Holstein"}},{"name":"Brahmsweg","postalCode":"25569","locality":"Kremperheide","municipality":{"key":"01061056","name":"Kremperheide","type":"Kreisangehörige_Gemeinde"},"district":{"key":"01061","name":"Steinburg","type":"Kreis"},"federalState":{"key":"01","name":"Schleswig-Holstein"}},{"name":"Brandenburger Weg","postalCode":"25569","locality":"Kremperheide","municipality":{"key":"01061056","name":"Kremperheide","type":"Kreisangehörige_Gemeinde"},"district":{"key":"01061","name":"Steinburg","type":"Kreis"},"federalState":{"key":"01","name":"Schleswig-Holstein"}},{"name":"Danziger Weg","postalCode":"25569","locality":"Kremperheide","municipality":{"key":"01061056","name":"Kremperheide","type":"Kreisangehörige_Gemeinde"},"district":{"key":"01061","name":"Steinburg","type":"Kreis"},"federalState":{"key":"01","name":"Schleswig-Holstein"}},{"name":"Dietrich-Bonhoeffer-Weg","postalCode":"25569","locality":"Kremperheide","municipality":{"key":"01061056","name":"Kremperheide","type":"Kreisangehörige_Gemeinde"},"district":{"key":"01061","name":"Steinburg","type":"Kreis"},"federalState":{"key":"01","name":"Schleswig-Holstein"}},{"name":"Dorfstr.","postalCode":"25569","locality":"Kremperheide","municipality":{"key":"01061056","name":"Kremperheide","type":"Kreisangehörige_Gemeinde"},"district":{"key":"01061","name":"Steinburg","type":"Kreis"},"federalState":{"key":"01","name":"Schleswig-Holstein"}},{"name":"Drosselweg","postalCode":"25569","locality":"Kremperheide","municipality":{"key":"01061056","name":"Kremperheide","type":"Kreisangehörige_Gemeinde"},"district":{"key":"01061","name":"Steinburg","type":"Kreis"},"federalState":{"key":"01","name":"Schleswig-Holstein"}},{"name":"Erlenweg","postalCode":"25569","locality":"Kremperheide","municipality":{"key":"01061056","name":"Kremperheide","type":"Kreisangehörige_Gemeinde"},"district":{"key":"01061","name":"Steinburg","type":"Kreis"},"federalState":{"key":"01","name":"Schleswig-Holstein"}},{"name":"Fasanenweg","postalCode":"22964","locality":"Steinburg","municipality":{"key":"01062091","name":"Steinburg","type":"Kreisangehörige_Gemeinde"},"district":{"key":"01062","name":"Stormarn","type":"Kreis"},"federalState":{"key":"01","name":"Schleswig-Holstein"}},{"name":"Gorch-Fock-Weg","postalCode":"25569","locality":"Kremperheide","municipality":{"key":"01061056","name":"Kremperheide","type":"Kreisangehörige_Gemeinde"},"district":{"key":"01061","name":"Steinburg","type":"Kreis"},"federalState":{"key":"01","name":"Schleswig-Holstein"}},{"name":"Gröngal","postalCode":"25569","locality":"Kremperheide","municipality":{"key":"01061056","name":"Kremperheide","type":"Kreisangehörige_Gemeinde"},"district":{"key":"01061","name":"Steinburg","type":"Kreis"},"federalState":{"key":"01","name":"Schleswig-Holstein"}},{"name":"Heideweg","postalCode":"25569","locality":"Kremperheide","municipality":{"key":"01061056","name":"Kremperheide","type":"Kreisangehörige_Gemeinde"},"district":{"key":"01061","name":"Steinburg","type":"Kreis"},"federalState":{"key":"01","name":"Schleswig-Holstein"}},{"name":"Hermann-Löns-Weg","postalCode":"25569","locality":"Kremperheide","municipality":{"key":"01061056","name":"Kremperheide","type":"Kreisangehörige_Gemeinde"},"district":{"key":"01061","name":"Steinburg","type":"Kreis"},"federalState":{"key":"01","name":"Schleswig-Holstein"}},{"name":"Im Wiesengrund","postalCode":"22964","locality":"Steinburg","municipality":{"key":"01062091","name":"Steinburg","type":"Kreisangehörige_Gemeinde"},"district":{"key":"01062","name":"Stormarn","type":"Kreis"},"federalState":{"key":"01","name":"Schleswig-Holstein"}},{"name":"Johanna Weg","postalCode":"22964","locality":"Steinburg","municipality":{"key":"01062091","name":"Steinburg","type":"Kreisangehörige_Gemeinde"},"district":{"key":"01062","name":"Stormarn","type":"Kreis"},"federalState":{"key":"01","name":"Schleswig-Holstein"}},{"name":"Kahlenredder","postalCode":"22964","locality":"Steinburg","municipality":{"key":"01062091","name":"Steinburg","type":"Kreisangehörige_Gemeinde"},"district":{"key":"01062","name":"Stormarn","type":"Kreis"},"federalState":{"key":"01","name":"Schleswig-Holstein"}},{"name":"Kirchenstr.","postalCode":"22964","locality":"Steinburg","municipality":{"key":"01062091","name":"Steinburg","type":"Kreisangehörige_Gemeinde"},"district":{"key":"01062","name":"Stormarn","type":"Kreis"},"federalState":{"key":"01","name":"Schleswig-Holstein"}},{"name":"Lerchenweg","postalCode":"25569","locality":"Kremperheide","municipality":{"key":"01061056","name":"Kremperheide","type":"Kreisangehörige_Gemeinde"},"district":{"key":"01061","name":"Steinburg","type":"Kreis"},"federalState":{"key":"01","name":"Schleswig-Holstein"}},{"name":"Martin-Luther-Weg","postalCode":"25569","locality":"Kremperheide","municipality":{"key":"01061056","name":"Kremperheide","type":"Kreisangehörige_Gemeinde"},"district":{"key":"01061","name":"Steinburg","type":"Kreis"},"federalState":{"key":"01","name":"Schleswig-Holstein"}},{"name":"Matthias-Claudius-Weg","postalCode":"25569","locality":"Kremperheide","municipality":{"key":"01061056","name":"Kremperheide","type":"Kreisangehörige_Gemeinde"},"district":{"key":"01061","name":"Steinburg","type":"Kreis"},"federalState":{"key":"01","name":"Schleswig-Holstein"}},{"name":"Mecklenburger Weg","postalCode":"25569","locality":"Kremperheide","municipality":{"key":"01061056","name":"Kremperheide","type":"Kreisangehörige_Gemeinde"},"district":{"key":"01061","name":"Steinburg","type":"Kreis"},"federalState":{"key":"01","name":"Schleswig-Holstein"}},{"name":"Mittelweg","postalCode":"25569","locality":"Kremperheide","municipality":{"key":"01061056","name":"Kremperheide","type":"Kreisangehörige_Gemeinde"},"district":{"key":"01061","name":"Steinburg","type":"Kreis"},"federalState":{"key":"01","name":"Schleswig-Holstein"}},{"name":"Mozartweg","postalCode":"25569","locality":"Kremperheide","municipality":{"key":"01061056","name":"Kremperheide","type":"Kreisangehörige_Gemeinde"},"district":{"key":"01061","name":"Steinburg","type":"Kreis"},"federalState":{"key":"01","name":"Schleswig-Holstein"}},{"name":"Neue Reihe","postalCode":"25569","locality":"Kremperheide","municipality":{"key":"01061056","name":"Kremperheide","type":"Kreisangehörige_Gemeinde"},"district":{"key":"01061","name":"Steinburg","type":"Kreis"},"federalState":{"key":"01","name":"Schleswig-Holstein"}},{"name":"Ostlandring","postalCode":"25569","locality":"Kremperheide","municipality":{"key":"01061056","name":"Kremperheide","type":"Kreisangehörige_Gemeinde"},"district":{"key":"01061","name":"Steinburg","type":"Kreis"},"federalState":{"key":"01","name":"Schleswig-Holstein"}},{"name":"Ostpreußenweg","postalCode":"25569","locality":"Kremperheide","municipality":{"key":"01061056","name":"Kremperheide","type":"Kreisangehörige_Gemeinde"},"district":{"key":"01061","name":"Steinburg","type":"Kreis"},"federalState":{"key":"01","name":"Schleswig-Holstein"}},{"name":"Pappelweg","postalCode":"25569","locality":"Kremperheide","municipality":{"key":"01061056","name":"Kremperheide","type":"Kreisangehörige_Gemeinde"},"district":{"key":"01061","name":"Steinburg","type":"Kreis"},"federalState":{"key":"01","name":"Schleswig-Holstein"}},{"name":"Pommernweg","postalCode":"25569","locality":"Kremperheide","municipality":{"key":"01061056","name":"Kremperheide","type":"Kreisangehörige_Gemeinde"},"district":{"key":"01061","name":"Steinburg","type":"Kreis"},"federalState":{"key":"01","name":"Schleswig-Holstein"}},{"name":"Rosenweg","postalCode":"25569","locality":"Kremperheide","municipality":{"key":"01061056","name":"Kremperheide","type":"Kreisangehörige_Gemeinde"},"district":{"key":"01061","name":"Steinburg","type":"Kreis"},"federalState":{"key":"01","name":"Schleswig-Holstein"}},{"name":"Sachsenweg","postalCode":"25569","locality":"Kremperheide","municipality":{"key":"01061056","name":"Kremperheide","type":"Kreisangehörige_Gemeinde"},"district":{"key":"01061","name":"Steinburg","type":"Kreis"},"federalState":{"key":"01","name":"Schleswig-Holstein"}},{"name":"Schlesier Weg","postalCode":"25569","locality":"Kremperheide","municipality":{"key":"01061056","name":"Kremperheide","type":"Kreisangehörige_Gemeinde"},"district":{"key":"01061","name":"Steinburg","type":"Kreis"},"federalState":{"key":"01","name":"Schleswig-Holstein"}},{"name":"Schumannweg","postalCode":"25569","locality":"Kremperheide","municipality":{"key":"01061056","name":"Kremperheide","type":"Kreisangehörige_Gemeinde"},"district":{"key":"01061","name":"Steinburg","type":"Kreis"},"federalState":{"key":"01","name":"Schleswig-Holstein"}},{"name":"St.-Johannes-Platz","postalCode":"25569","locality":"Kremperheide","municipality":{"key":"01061056","name":"Kremperheide","type":"Kreisangehörige_Gemeinde"},"district":{"key":"01061","name":"Steinburg","type":"Kreis"},"federalState":{"key":"01","name":"Schleswig-Holstein"}},{"name":"Theodor-Storm-Weg","postalCode":"25569","locality":"Kremperheide","municipality":{"key":"01061056","name":"Kremperheide","type":"Kreisangehörige_Gemeinde"},"district":{"key":"01061","name":"Steinburg","type":"Kreis"},"federalState":{"key":"01","name":"Schleswig-Holstein"}},{"name":"Thüringer Weg","postalCode":"25569","locality":"Kremperheide","municipality":{"key":"01061056","name":"Kremperheide","type":"Kreisangehörige_Gemeinde"},"district":{"key":"01061","name":"Steinburg","type":"Kreis"},"federalState":{"key":"01","name":"Schleswig-Holstein"}},{"name":"Weidenweg","postalCode":"25569","locality":"Kremperheide","municipality":{"key":"01061056","name":"Kremperheide","type":"Kreisangehörige_Gemeinde"},"district":{"key":"01061","name":"Steinburg","type":"Kreis"},"federalState":{"key":"01","name":"Schleswig-Holstein"}},{"name":"Westpreußenweg","postalCode":"25569","locality":"Kremperheide","municipality":{"key":"01061056","name":"Kremperheide","type":"Kreisangehörige_Gemeinde"},"district":{"key":"01061","name":"Steinburg","type":"Kreis"},"federalState":{"key":"01","name":"Schleswig-Holstein"}},{"name":"Wiesengrund","postalCode":"25569","locality":"Kremperheide","municipality":{"key":"01061056","name":"Kremperheide","type":"Kreisangehörige_Gemeinde"},"district":{"key":"01061","name":"Steinburg","type":"Kreis"},"federalState":{"key":"01","name":"Schleswig-Holstein"}},]