[{"name":"Ackerwiese","postalCode":"67728","locality":"Münchweiler an der Alsenz","municipality":{"key":"07333048","name":"Münchweiler an der Alsenz","type":"Kreisangehörige_Gemeinde"},"district":{"key":"07333","name":"Donnersbergkreis","type":"Landkreis"},"federalState":{"key":"07","name":"Rheinland-Pfalz"}},{"name":"Albert-Schweitzer-Str.","postalCode":"67821","locality":"Alsenz","municipality":{"key":"07333003","name":"Alsenz","type":"Kreisangehörige_Gemeinde"},"district":{"key":"07333","name":"Donnersbergkreis","type":"Landkreis"},"federalState":{"key":"07","name":"Rheinland-Pfalz"}},{"name":"Alsenbrücker Str.","postalCode":"67728","locality":"Münchweiler an der Alsenz","municipality":{"key":"07333048","name":"Münchweiler an der Alsenz","type":"Kreisangehörige_Gemeinde"},"district":{"key":"07333","name":"Donnersbergkreis","type":"Landkreis"},"federalState":{"key":"07","name":"Rheinland-Pfalz"}},{"name":"Alsenzstr.","postalCode":"67728","locality":"Münchweiler an der Alsenz","municipality":{"key":"07333048","name":"Münchweiler an der Alsenz","type":"Kreisangehörige_Gemeinde"},"district":{"key":"07333","name":"Donnersbergkreis","type":"Landkreis"},"federalState":{"key":"07","name":"Rheinland-Pfalz"}},{"name":"Alter Weg","postalCode":"67821","locality":"Alsenz","municipality":{"key":"07333003","name":"Alsenz","type":"Kreisangehörige_Gemeinde"},"district":{"key":"07333","name":"Donnersbergkreis","type":"Landkreis"},"federalState":{"key":"07","name":"Rheinland-Pfalz"}},{"name":"Altwiesstr.","postalCode":"67728","locality":"Münchweiler an der Alsenz","municipality":{"key":"07333048","name":"Münchweiler an der Alsenz","type":"Kreisangehörige_Gemeinde"},"district":{"key":"07333","name":"Donnersbergkreis","type":"Landkreis"},"federalState":{"key":"07","name":"Rheinland-Pfalz"}},{"name":"Am Goldgraben","postalCode":"67821","locality":"Alsenz","municipality":{"key":"07333003","name":"Alsenz","type":"Kreisangehörige_Gemeinde"},"district":{"key":"07333","name":"Donnersbergkreis","type":"Landkreis"},"federalState":{"key":"07","name":"Rheinland-Pfalz"}},{"name":"Am Heerberg","postalCode":"67821","locality":"Alsenz","municipality":{"key":"07333003","name":"Alsenz","type":"Kreisangehörige_Gemeinde"},"district":{"key":"07333","name":"Donnersbergkreis","type":"Landkreis"},"federalState":{"key":"07","name":"Rheinland-Pfalz"}},{"name":"Am Sportfeld","postalCode":"67821","locality":"Alsenz","municipality":{"key":"07333003","name":"Alsenz","type":"Kreisangehörige_Gemeinde"},"district":{"key":"07333","name":"Donnersbergkreis","type":"Landkreis"},"federalState":{"key":"07","name":"Rheinland-Pfalz"}},{"name":"Amthof","postalCode":"67821","locality":"Alsenz","municipality":{"key":"07333003","name":"Alsenz","type":"Kreisangehörige_Gemeinde"},"district":{"key":"07333","name":"Donnersbergkreis","type":"Landkreis"},"federalState":{"key":"07","name":"Rheinland-Pfalz"}},{"name":"Am Tunnel","postalCode":"67821","locality":"Alsenz","municipality":{"key":"07333003","name":"Alsenz","type":"Kreisangehörige_Gemeinde"},"district":{"key":"07333","name":"Donnersbergkreis","type":"Landkreis"},"federalState":{"key":"07","name":"Rheinland-Pfalz"}},{"name":"An der Feuerwache","postalCode":"67728","locality":"Münchweiler an der Alsenz","municipality":{"key":"07333048","name":"Münchweiler an der Alsenz","type":"Kreisangehörige_Gemeinde"},"district":{"key":"07333","name":"Donnersbergkreis","type":"Landkreis"},"federalState":{"key":"07","name":"Rheinland-Pfalz"}},{"name":"An der Stern","postalCode":"67821","locality":"Alsenz","municipality":{"key":"07333003","name":"Alsenz","type":"Kreisangehörige_Gemeinde"},"district":{"key":"07333","name":"Donnersbergkreis","type":"Landkreis"},"federalState":{"key":"07","name":"Rheinland-Pfalz"}},{"name":"Auf der Steige","postalCode":"67821","locality":"Alsenz","municipality":{"key":"07333003","name":"Alsenz","type":"Kreisangehörige_Gemeinde"},"district":{"key":"07333","name":"Donnersbergkreis","type":"Landkreis"},"federalState":{"key":"07","name":"Rheinland-Pfalz"}},{"name":"Bahnhofstr.","postalCode":"67821","locality":"Alsenz","municipality":{"key":"07333003","name":"Alsenz","type":"Kreisangehörige_Gemeinde"},"district":{"key":"07333","name":"Donnersbergkreis","type":"Landkreis"},"federalState":{"key":"07","name":"Rheinland-Pfalz"}},{"name":"Bahnpfad","postalCode":"67728","locality":"Münchweiler an der Alsenz","municipality":{"key":"07333048","name":"Münchweiler an der Alsenz","type":"Kreisangehörige_Gemeinde"},"district":{"key":"07333","name":"Donnersbergkreis","type":"Landkreis"},"federalState":{"key":"07","name":"Rheinland-Pfalz"}},{"name":"Bergstr.","postalCode":"67821","locality":"Alsenz","municipality":{"key":"07333003","name":"Alsenz","type":"Kreisangehörige_Gemeinde"},"district":{"key":"07333","name":"Donnersbergkreis","type":"Landkreis"},"federalState":{"key":"07","name":"Rheinland-Pfalz"}},{"name":"Blumenstr.","postalCode":"67728","locality":"Münchweiler an der Alsenz","municipality":{"key":"07333048","name":"Münchweiler an der Alsenz","type":"Kreisangehörige_Gemeinde"},"district":{"key":"07333","name":"Donnersbergkreis","type":"Landkreis"},"federalState":{"key":"07","name":"Rheinland-Pfalz"}},{"name":"Bornacker","postalCode":"67728","locality":"Münchweiler an der Alsenz","municipality":{"key":"07333048","name":"Münchweiler an der Alsenz","type":"Kreisangehörige_Gemeinde"},"district":{"key":"07333","name":"Donnersbergkreis","type":"Landkreis"},"federalState":{"key":"07","name":"Rheinland-Pfalz"}},{"name":"Brückenstr.","postalCode":"67821","locality":"Alsenz","municipality":{"key":"07333003","name":"Alsenz","type":"Kreisangehörige_Gemeinde"},"district":{"key":"07333","name":"Donnersbergkreis","type":"Landkreis"},"federalState":{"key":"07","name":"Rheinland-Pfalz"}},{"name":"Brühlstr.","postalCode":"67821","locality":"Alsenz","municipality":{"key":"07333003","name":"Alsenz","type":"Kreisangehörige_Gemeinde"},"district":{"key":"07333","name":"Donnersbergkreis","type":"Landkreis"},"federalState":{"key":"07","name":"Rheinland-Pfalz"}},{"name":"Bürgermeister-Kopp-Str.","postalCode":"67821","locality":"Alsenz","municipality":{"key":"07333003","name":"Alsenz","type":"Kreisangehörige_Gemeinde"},"district":{"key":"07333","name":"Donnersbergkreis","type":"Landkreis"},"federalState":{"key":"07","name":"Rheinland-Pfalz"}},{"name":"Doktor-Heinrich-Bohley-Str.","postalCode":"67821","locality":"Alsenz","municipality":{"key":"07333003","name":"Alsenz","type":"Kreisangehörige_Gemeinde"},"district":{"key":"07333","name":"Donnersbergkreis","type":"Landkreis"},"federalState":{"key":"07","name":"Rheinland-Pfalz"}},{"name":"Enggasse","postalCode":"67821","locality":"Alsenz","municipality":{"key":"07333003","name":"Alsenz","type":"Kreisangehörige_Gemeinde"},"district":{"key":"07333","name":"Donnersbergkreis","type":"Landkreis"},"federalState":{"key":"07","name":"Rheinland-Pfalz"}},{"name":"Friedhofstr.","postalCode":"67728","locality":"Münchweiler an der Alsenz","municipality":{"key":"07333048","name":"Münchweiler an der Alsenz","type":"Kreisangehörige_Gemeinde"},"district":{"key":"07333","name":"Donnersbergkreis","type":"Landkreis"},"federalState":{"key":"07","name":"Rheinland-Pfalz"}},{"name":"Gartenstr.","postalCode":"67821","locality":"Alsenz","municipality":{"key":"07333003","name":"Alsenz","type":"Kreisangehörige_Gemeinde"},"district":{"key":"07333","name":"Donnersbergkreis","type":"Landkreis"},"federalState":{"key":"07","name":"Rheinland-Pfalz"}},{"name":"Gonbacher Str.","postalCode":"67728","locality":"Münchweiler an der Alsenz","municipality":{"key":"07333048","name":"Münchweiler an der Alsenz","type":"Kreisangehörige_Gemeinde"},"district":{"key":"07333","name":"Donnersbergkreis","type":"Landkreis"},"federalState":{"key":"07","name":"Rheinland-Pfalz"}},{"name":"Grasweg","postalCode":"67821","locality":"Alsenz","municipality":{"key":"07333003","name":"Alsenz","type":"Kreisangehörige_Gemeinde"},"district":{"key":"07333","name":"Donnersbergkreis","type":"Landkreis"},"federalState":{"key":"07","name":"Rheinland-Pfalz"}},{"name":"Hauptstr.","postalCode":"67728","locality":"Münchweiler an der Alsenz","municipality":{"key":"07333048","name":"Münchweiler an der Alsenz","type":"Kreisangehörige_Gemeinde"},"district":{"key":"07333","name":"Donnersbergkreis","type":"Landkreis"},"federalState":{"key":"07","name":"Rheinland-Pfalz"}},{"name":"Hauptstr.","postalCode":"67821","locality":"Alsenz","municipality":{"key":"07333003","name":"Alsenz","type":"Kreisangehörige_Gemeinde"},"district":{"key":"07333","name":"Donnersbergkreis","type":"Landkreis"},"federalState":{"key":"07","name":"Rheinland-Pfalz"}},{"name":"Hohlsteinstr.","postalCode":"67728","locality":"Münchweiler an der Alsenz","municipality":{"key":"07333048","name":"Münchweiler an der Alsenz","type":"Kreisangehörige_Gemeinde"},"district":{"key":"07333","name":"Donnersbergkreis","type":"Landkreis"},"federalState":{"key":"07","name":"Rheinland-Pfalz"}},{"name":"Hohlstr.","postalCode":"67728","locality":"Münchweiler an der Alsenz","municipality":{"key":"07333048","name":"Münchweiler an der Alsenz","type":"Kreisangehörige_Gemeinde"},"district":{"key":"07333","name":"Donnersbergkreis","type":"Landkreis"},"federalState":{"key":"07","name":"Rheinland-Pfalz"}},{"name":"Hohlweg","postalCode":"67821","locality":"Alsenz","municipality":{"key":"07333003","name":"Alsenz","type":"Kreisangehörige_Gemeinde"},"district":{"key":"07333","name":"Donnersbergkreis","type":"Landkreis"},"federalState":{"key":"07","name":"Rheinland-Pfalz"}},{"name":"Im Kirchgarten","postalCode":"67821","locality":"Alsenz","municipality":{"key":"07333003","name":"Alsenz","type":"Kreisangehörige_Gemeinde"},"district":{"key":"07333","name":"Donnersbergkreis","type":"Landkreis"},"federalState":{"key":"07","name":"Rheinland-Pfalz"}},{"name":"Industriestr.","postalCode":"67821","locality":"Alsenz","municipality":{"key":"07333003","name":"Alsenz","type":"Kreisangehörige_Gemeinde"},"district":{"key":"07333","name":"Donnersbergkreis","type":"Landkreis"},"federalState":{"key":"07","name":"Rheinland-Pfalz"}},{"name":"Jahnstr.","postalCode":"67728","locality":"Münchweiler an der Alsenz","municipality":{"key":"07333048","name":"Münchweiler an der Alsenz","type":"Kreisangehörige_Gemeinde"},"district":{"key":"07333","name":"Donnersbergkreis","type":"Landkreis"},"federalState":{"key":"07","name":"Rheinland-Pfalz"}},{"name":"Kalkofer Str.","postalCode":"67821","locality":"Alsenz","municipality":{"key":"07333003","name":"Alsenz","type":"Kreisangehörige_Gemeinde"},"district":{"key":"07333","name":"Donnersbergkreis","type":"Landkreis"},"federalState":{"key":"07","name":"Rheinland-Pfalz"}},{"name":"Kapellenstr.","postalCode":"67728","locality":"Münchweiler an der Alsenz","municipality":{"key":"07333048","name":"Münchweiler an der Alsenz","type":"Kreisangehörige_Gemeinde"},"district":{"key":"07333","name":"Donnersbergkreis","type":"Landkreis"},"federalState":{"key":"07","name":"Rheinland-Pfalz"}},{"name":"Kapellenstr.","postalCode":"67821","locality":"Alsenz","municipality":{"key":"07333003","name":"Alsenz","type":"Kreisangehörige_Gemeinde"},"district":{"key":"07333","name":"Donnersbergkreis","type":"Landkreis"},"federalState":{"key":"07","name":"Rheinland-Pfalz"}},{"name":"Kirchberg","postalCode":"67821","locality":"Alsenz","municipality":{"key":"07333003","name":"Alsenz","type":"Kreisangehörige_Gemeinde"},"district":{"key":"07333","name":"Donnersbergkreis","type":"Landkreis"},"federalState":{"key":"07","name":"Rheinland-Pfalz"}},{"name":"Kühtrift","postalCode":"67821","locality":"Alsenz","municipality":{"key":"07333003","name":"Alsenz","type":"Kreisangehörige_Gemeinde"},"district":{"key":"07333","name":"Donnersbergkreis","type":"Landkreis"},"federalState":{"key":"07","name":"Rheinland-Pfalz"}},{"name":"Landsbergweg","postalCode":"67821","locality":"Alsenz","municipality":{"key":"07333003","name":"Alsenz","type":"Kreisangehörige_Gemeinde"},"district":{"key":"07333","name":"Donnersbergkreis","type":"Landkreis"},"federalState":{"key":"07","name":"Rheinland-Pfalz"}},{"name":"Marktplatz","postalCode":"67821","locality":"Alsenz","municipality":{"key":"07333003","name":"Alsenz","type":"Kreisangehörige_Gemeinde"},"district":{"key":"07333","name":"Donnersbergkreis","type":"Landkreis"},"federalState":{"key":"07","name":"Rheinland-Pfalz"}},{"name":"Mühlstr.","postalCode":"67728","locality":"Münchweiler an der Alsenz","municipality":{"key":"07333048","name":"Münchweiler an der Alsenz","type":"Kreisangehörige_Gemeinde"},"district":{"key":"07333","name":"Donnersbergkreis","type":"Landkreis"},"federalState":{"key":"07","name":"Rheinland-Pfalz"}},{"name":"Mühlstr.","postalCode":"67821","locality":"Alsenz","municipality":{"key":"07333003","name":"Alsenz","type":"Kreisangehörige_Gemeinde"},"district":{"key":"07333","name":"Donnersbergkreis","type":"Landkreis"},"federalState":{"key":"07","name":"Rheinland-Pfalz"}},{"name":"Neumühle","postalCode":"67728","locality":"Münchweiler an der Alsenz","municipality":{"key":"07333048","name":"Münchweiler an der Alsenz","type":"Kreisangehörige_Gemeinde"},"district":{"key":"07333","name":"Donnersbergkreis","type":"Landkreis"},"federalState":{"key":"07","name":"Rheinland-Pfalz"}},{"name":"Neumühlen Pfad","postalCode":"67728","locality":"Münchweiler an der Alsenz","municipality":{"key":"07333048","name":"Münchweiler an der Alsenz","type":"Kreisangehörige_Gemeinde"},"district":{"key":"07333","name":"Donnersbergkreis","type":"Landkreis"},"federalState":{"key":"07","name":"Rheinland-Pfalz"}},{"name":"Niedermoscheler Str.","postalCode":"67821","locality":"Alsenz","municipality":{"key":"07333003","name":"Alsenz","type":"Kreisangehörige_Gemeinde"},"district":{"key":"07333","name":"Donnersbergkreis","type":"Landkreis"},"federalState":{"key":"07","name":"Rheinland-Pfalz"}},{"name":"Obere Pitzstr.","postalCode":"67821","locality":"Alsenz","municipality":{"key":"07333003","name":"Alsenz","type":"Kreisangehörige_Gemeinde"},"district":{"key":"07333","name":"Donnersbergkreis","type":"Landkreis"},"federalState":{"key":"07","name":"Rheinland-Pfalz"}},{"name":"Oberer Pfaffenpfad","postalCode":"67821","locality":"Alsenz","municipality":{"key":"07333003","name":"Alsenz","type":"Kreisangehörige_Gemeinde"},"district":{"key":"07333","name":"Donnersbergkreis","type":"Landkreis"},"federalState":{"key":"07","name":"Rheinland-Pfalz"}},{"name":"Oberndorfer Str.","postalCode":"67821","locality":"Alsenz","municipality":{"key":"07333003","name":"Alsenz","type":"Kreisangehörige_Gemeinde"},"district":{"key":"07333","name":"Donnersbergkreis","type":"Landkreis"},"federalState":{"key":"07","name":"Rheinland-Pfalz"}},{"name":"Otto Gampper Park","postalCode":"67821","locality":"Alsenz","municipality":{"key":"07333003","name":"Alsenz","type":"Kreisangehörige_Gemeinde"},"district":{"key":"07333","name":"Donnersbergkreis","type":"Landkreis"},"federalState":{"key":"07","name":"Rheinland-Pfalz"}},{"name":"Pechwiesenweg","postalCode":"67821","locality":"Alsenz","municipality":{"key":"07333003","name":"Alsenz","type":"Kreisangehörige_Gemeinde"},"district":{"key":"07333","name":"Donnersbergkreis","type":"Landkreis"},"federalState":{"key":"07","name":"Rheinland-Pfalz"}},{"name":"Pfaffenpfad","postalCode":"67821","locality":"Alsenz","municipality":{"key":"07333003","name":"Alsenz","type":"Kreisangehörige_Gemeinde"},"district":{"key":"07333","name":"Donnersbergkreis","type":"Landkreis"},"federalState":{"key":"07","name":"Rheinland-Pfalz"}},{"name":"Pitzstr.","postalCode":"67821","locality":"Alsenz","municipality":{"key":"07333003","name":"Alsenz","type":"Kreisangehörige_Gemeinde"},"district":{"key":"07333","name":"Donnersbergkreis","type":"Landkreis"},"federalState":{"key":"07","name":"Rheinland-Pfalz"}},{"name":"Rathausplatz","postalCode":"67821","locality":"Alsenz","municipality":{"key":"07333003","name":"Alsenz","type":"Kreisangehörige_Gemeinde"},"district":{"key":"07333","name":"Donnersbergkreis","type":"Landkreis"},"federalState":{"key":"07","name":"Rheinland-Pfalz"}},{"name":"Ringstr.","postalCode":"67728","locality":"Münchweiler an der Alsenz","municipality":{"key":"07333048","name":"Münchweiler an der Alsenz","type":"Kreisangehörige_Gemeinde"},"district":{"key":"07333","name":"Donnersbergkreis","type":"Landkreis"},"federalState":{"key":"07","name":"Rheinland-Pfalz"}},{"name":"Robert-Koch-Str.","postalCode":"67821","locality":"Alsenz","municipality":{"key":"07333003","name":"Alsenz","type":"Kreisangehörige_Gemeinde"},"district":{"key":"07333","name":"Donnersbergkreis","type":"Landkreis"},"federalState":{"key":"07","name":"Rheinland-Pfalz"}},{"name":"Rosenstr.","postalCode":"67728","locality":"Münchweiler an der Alsenz","municipality":{"key":"07333048","name":"Münchweiler an der Alsenz","type":"Kreisangehörige_Gemeinde"},"district":{"key":"07333","name":"Donnersbergkreis","type":"Landkreis"},"federalState":{"key":"07","name":"Rheinland-Pfalz"}},{"name":"Schöne Aussicht","postalCode":"67821","locality":"Alsenz","municipality":{"key":"07333003","name":"Alsenz","type":"Kreisangehörige_Gemeinde"},"district":{"key":"07333","name":"Donnersbergkreis","type":"Landkreis"},"federalState":{"key":"07","name":"Rheinland-Pfalz"}},{"name":"Schulstr.","postalCode":"67728","locality":"Münchweiler an der Alsenz","municipality":{"key":"07333048","name":"Münchweiler an der Alsenz","type":"Kreisangehörige_Gemeinde"},"district":{"key":"07333","name":"Donnersbergkreis","type":"Landkreis"},"federalState":{"key":"07","name":"Rheinland-Pfalz"}},{"name":"Schulstr.","postalCode":"67821","locality":"Alsenz","municipality":{"key":"07333003","name":"Alsenz","type":"Kreisangehörige_Gemeinde"},"district":{"key":"07333","name":"Donnersbergkreis","type":"Landkreis"},"federalState":{"key":"07","name":"Rheinland-Pfalz"}},{"name":"Seiderstr.","postalCode":"67728","locality":"Münchweiler an der Alsenz","municipality":{"key":"07333048","name":"Münchweiler an der Alsenz","type":"Kreisangehörige_Gemeinde"},"district":{"key":"07333","name":"Donnersbergkreis","type":"Landkreis"},"federalState":{"key":"07","name":"Rheinland-Pfalz"}},{"name":"Seierstr.","postalCode":"67728","locality":"Münchweiler an der Alsenz","municipality":{"key":"07333048","name":"Münchweiler an der Alsenz","type":"Kreisangehörige_Gemeinde"},"district":{"key":"07333","name":"Donnersbergkreis","type":"Landkreis"},"federalState":{"key":"07","name":"Rheinland-Pfalz"}},{"name":"Steinhauerweg","postalCode":"67821","locality":"Alsenz","municipality":{"key":"07333003","name":"Alsenz","type":"Kreisangehörige_Gemeinde"},"district":{"key":"07333","name":"Donnersbergkreis","type":"Landkreis"},"federalState":{"key":"07","name":"Rheinland-Pfalz"}},{"name":"Triftstr.","postalCode":"67728","locality":"Münchweiler an der Alsenz","municipality":{"key":"07333048","name":"Münchweiler an der Alsenz","type":"Kreisangehörige_Gemeinde"},"district":{"key":"07333","name":"Donnersbergkreis","type":"Landkreis"},"federalState":{"key":"07","name":"Rheinland-Pfalz"}},{"name":"Uferweg","postalCode":"67821","locality":"Alsenz","municipality":{"key":"07333003","name":"Alsenz","type":"Kreisangehörige_Gemeinde"},"district":{"key":"07333","name":"Donnersbergkreis","type":"Landkreis"},"federalState":{"key":"07","name":"Rheinland-Pfalz"}},{"name":"Untere Pitzstr.","postalCode":"67821","locality":"Alsenz","municipality":{"key":"07333003","name":"Alsenz","type":"Kreisangehörige_Gemeinde"},"district":{"key":"07333","name":"Donnersbergkreis","type":"Landkreis"},"federalState":{"key":"07","name":"Rheinland-Pfalz"}},{"name":"Uttentalstr.","postalCode":"67728","locality":"Münchweiler an der Alsenz","municipality":{"key":"07333048","name":"Münchweiler an der Alsenz","type":"Kreisangehörige_Gemeinde"},"district":{"key":"07333","name":"Donnersbergkreis","type":"Landkreis"},"federalState":{"key":"07","name":"Rheinland-Pfalz"}},{"name":"Walderlebnispfad","postalCode":"67728","locality":"Münchweiler an der Alsenz","municipality":{"key":"07333048","name":"Münchweiler an der Alsenz","type":"Kreisangehörige_Gemeinde"},"district":{"key":"07333","name":"Donnersbergkreis","type":"Landkreis"},"federalState":{"key":"07","name":"Rheinland-Pfalz"}},{"name":"Walerlebnispfad","postalCode":"67728","locality":"Münchweiler an der Alsenz","municipality":{"key":"07333048","name":"Münchweiler an der Alsenz","type":"Kreisangehörige_Gemeinde"},"district":{"key":"07333","name":"Donnersbergkreis","type":"Landkreis"},"federalState":{"key":"07","name":"Rheinland-Pfalz"}},{"name":"Winweilerstr.","postalCode":"67728","locality":"Münchweiler an der Alsenz","municipality":{"key":"07333048","name":"Münchweiler an der Alsenz","type":"Kreisangehörige_Gemeinde"},"district":{"key":"07333","name":"Donnersbergkreis","type":"Landkreis"},"federalState":{"key":"07","name":"Rheinland-Pfalz"}},{"name":"Ziegelstr.","postalCode":"67728","locality":"Münchweiler an der Alsenz","municipality":{"key":"07333048","name":"Münchweiler an der Alsenz","type":"Kreisangehörige_Gemeinde"},"district":{"key":"07333","name":"Donnersbergkreis","type":"Landkreis"},"federalState":{"key":"07","name":"Rheinland-Pfalz"}},{"name":"Zum Manntal","postalCode":"67728","locality":"Münchweiler an der Alsenz","municipality":{"key":"07333048","name":"Münchweiler an der Alsenz","type":"Kreisangehörige_Gemeinde"},"district":{"key":"07333","name":"Donnersbergkreis","type":"Landkreis"},"federalState":{"key":"07","name":"Rheinland-Pfalz"}},]