[{"name":"Abt-Overgaer-Str.","postalCode":"34414","locality":"Warburg","municipality":{"key":"05762036","name":"Warburg, Hansestadt","type":"Stadt"},"district":{"key":"05762","name":"Höxter","type":"Kreis"},"federalState":{"key":"05","name":"Nordrhein-Westfalen"}},{"name":"Adolf-Kolping-Weg","postalCode":"34414","locality":"Warburg","municipality":{"key":"05762036","name":"Warburg, Hansestadt","type":"Stadt"},"district":{"key":"05762","name":"Höxter","type":"Kreis"},"federalState":{"key":"05","name":"Nordrhein-Westfalen"}},{"name":"Ahornweg","postalCode":"34414","locality":"Warburg","municipality":{"key":"05762036","name":"Warburg, Hansestadt","type":"Stadt"},"district":{"key":"05762","name":"Höxter","type":"Kreis"},"federalState":{"key":"05","name":"Nordrhein-Westfalen"}},{"name":"Albertus-Stephani-Str.","postalCode":"34414","locality":"Warburg","municipality":{"key":"05762036","name":"Warburg, Hansestadt","type":"Stadt"},"district":{"key":"05762","name":"Höxter","type":"Kreis"},"federalState":{"key":"05","name":"Nordrhein-Westfalen"}},{"name":"Alexanderstr.","postalCode":"34414","locality":"Warburg","municipality":{"key":"05762036","name":"Warburg, Hansestadt","type":"Stadt"},"district":{"key":"05762","name":"Höxter","type":"Kreis"},"federalState":{"key":"05","name":"Nordrhein-Westfalen"}},{"name":"Allernborn","postalCode":"34414","locality":"Warburg","municipality":{"key":"05762036","name":"Warburg, Hansestadt","type":"Stadt"},"district":{"key":"05762","name":"Höxter","type":"Kreis"},"federalState":{"key":"05","name":"Nordrhein-Westfalen"}},{"name":"Alte Kleinenberger Str.","postalCode":"34414","locality":"Warburg","municipality":{"key":"05762036","name":"Warburg, Hansestadt","type":"Stadt"},"district":{"key":"05762","name":"Höxter","type":"Kreis"},"federalState":{"key":"05","name":"Nordrhein-Westfalen"}},{"name":"Alter Bahnhofsweg","postalCode":"34414","locality":"Warburg","municipality":{"key":"05762036","name":"Warburg, Hansestadt","type":"Stadt"},"district":{"key":"05762","name":"Höxter","type":"Kreis"},"federalState":{"key":"05","name":"Nordrhein-Westfalen"}},{"name":"Alter Hirtenweg","postalCode":"34414","locality":"Warburg","municipality":{"key":"05762036","name":"Warburg, Hansestadt","type":"Stadt"},"district":{"key":"05762","name":"Höxter","type":"Kreis"},"federalState":{"key":"05","name":"Nordrhein-Westfalen"}},{"name":"Alter Postweg","postalCode":"34414","locality":"Warburg","municipality":{"key":"05762036","name":"Warburg, Hansestadt","type":"Stadt"},"district":{"key":"05762","name":"Höxter","type":"Kreis"},"federalState":{"key":"05","name":"Nordrhein-Westfalen"}},{"name":"Alter Stadtweg","postalCode":"34414","locality":"Warburg","municipality":{"key":"05762036","name":"Warburg, Hansestadt","type":"Stadt"},"district":{"key":"05762","name":"Höxter","type":"Kreis"},"federalState":{"key":"05","name":"Nordrhein-Westfalen"}},{"name":"Alte Scherfeder Str.","postalCode":"34414","locality":"Warburg","municipality":{"key":"05762036","name":"Warburg, Hansestadt","type":"Stadt"},"district":{"key":"05762","name":"Höxter","type":"Kreis"},"federalState":{"key":"05","name":"Nordrhein-Westfalen"}},{"name":"Alte Warburger Str.","postalCode":"34414","locality":"Warburg","municipality":{"key":"05762036","name":"Warburg, Hansestadt","type":"Stadt"},"district":{"key":"05762","name":"Höxter","type":"Kreis"},"federalState":{"key":"05","name":"Nordrhein-Westfalen"}},{"name":"Am Alpenkamp","postalCode":"34414","locality":"Warburg","municipality":{"key":"05762036","name":"Warburg, Hansestadt","type":"Stadt"},"district":{"key":"05762","name":"Höxter","type":"Kreis"},"federalState":{"key":"05","name":"Nordrhein-Westfalen"}},{"name":"Am Alten Friedhof","postalCode":"34414","locality":"Warburg","municipality":{"key":"05762036","name":"Warburg, Hansestadt","type":"Stadt"},"district":{"key":"05762","name":"Höxter","type":"Kreis"},"federalState":{"key":"05","name":"Nordrhein-Westfalen"}},{"name":"Am Alten Posthof","postalCode":"34414","locality":"Warburg","municipality":{"key":"05762036","name":"Warburg, Hansestadt","type":"Stadt"},"district":{"key":"05762","name":"Höxter","type":"Kreis"},"federalState":{"key":"05","name":"Nordrhein-Westfalen"}},{"name":"Am Angerberg","postalCode":"34414","locality":"Warburg","municipality":{"key":"05762036","name":"Warburg, Hansestadt","type":"Stadt"},"district":{"key":"05762","name":"Höxter","type":"Kreis"},"federalState":{"key":"05","name":"Nordrhein-Westfalen"}},{"name":"Am Bach","postalCode":"34414","locality":"Warburg","municipality":{"key":"05762036","name":"Warburg, Hansestadt","type":"Stadt"},"district":{"key":"05762","name":"Höxter","type":"Kreis"},"federalState":{"key":"05","name":"Nordrhein-Westfalen"}},{"name":"Am Berge","postalCode":"34414","locality":"Warburg","municipality":{"key":"05762036","name":"Warburg, Hansestadt","type":"Stadt"},"district":{"key":"05762","name":"Höxter","type":"Kreis"},"federalState":{"key":"05","name":"Nordrhein-Westfalen"}},{"name":"Am Bittkreuz","postalCode":"34414","locality":"Warburg","municipality":{"key":"05762036","name":"Warburg, Hansestadt","type":"Stadt"},"district":{"key":"05762","name":"Höxter","type":"Kreis"},"federalState":{"key":"05","name":"Nordrhein-Westfalen"}},{"name":"Am Brunnen","postalCode":"34414","locality":"Warburg","municipality":{"key":"05762036","name":"Warburg, Hansestadt","type":"Stadt"},"district":{"key":"05762","name":"Höxter","type":"Kreis"},"federalState":{"key":"05","name":"Nordrhein-Westfalen"}},{"name":"Am Bügel","postalCode":"34414","locality":"Warburg","municipality":{"key":"05762036","name":"Warburg, Hansestadt","type":"Stadt"},"district":{"key":"05762","name":"Höxter","type":"Kreis"},"federalState":{"key":"05","name":"Nordrhein-Westfalen"}},{"name":"Am Dorfplatz","postalCode":"34414","locality":"Warburg","municipality":{"key":"05762036","name":"Warburg, Hansestadt","type":"Stadt"},"district":{"key":"05762","name":"Höxter","type":"Kreis"},"federalState":{"key":"05","name":"Nordrhein-Westfalen"}},{"name":"Am Dornbusch","postalCode":"34414","locality":"Warburg","municipality":{"key":"05762036","name":"Warburg, Hansestadt","type":"Stadt"},"district":{"key":"05762","name":"Höxter","type":"Kreis"},"federalState":{"key":"05","name":"Nordrhein-Westfalen"}},{"name":"Am Driborn","postalCode":"34414","locality":"Warburg","municipality":{"key":"05762036","name":"Warburg, Hansestadt","type":"Stadt"},"district":{"key":"05762","name":"Höxter","type":"Kreis"},"federalState":{"key":"05","name":"Nordrhein-Westfalen"}},{"name":"Am Falkenberg","postalCode":"34414","locality":"Warburg","municipality":{"key":"05762036","name":"Warburg, Hansestadt","type":"Stadt"},"district":{"key":"05762","name":"Höxter","type":"Kreis"},"federalState":{"key":"05","name":"Nordrhein-Westfalen"}},{"name":"Am Feuerwehrhaus","postalCode":"34414","locality":"Warburg","municipality":{"key":"05762036","name":"Warburg, Hansestadt","type":"Stadt"},"district":{"key":"05762","name":"Höxter","type":"Kreis"},"federalState":{"key":"05","name":"Nordrhein-Westfalen"}},{"name":"Am Finnenberg","postalCode":"34414","locality":"Warburg","municipality":{"key":"05762036","name":"Warburg, Hansestadt","type":"Stadt"},"district":{"key":"05762","name":"Höxter","type":"Kreis"},"federalState":{"key":"05","name":"Nordrhein-Westfalen"}},{"name":"Am Güterbahnhof","postalCode":"34414","locality":"Warburg","municipality":{"key":"05762036","name":"Warburg, Hansestadt","type":"Stadt"},"district":{"key":"05762","name":"Höxter","type":"Kreis"},"federalState":{"key":"05","name":"Nordrhein-Westfalen"}},{"name":"Am Hanekipperweg","postalCode":"34414","locality":"Warburg","municipality":{"key":"05762036","name":"Warburg, Hansestadt","type":"Stadt"},"district":{"key":"05762","name":"Höxter","type":"Kreis"},"federalState":{"key":"05","name":"Nordrhein-Westfalen"}},{"name":"Am Hang","postalCode":"34414","locality":"Warburg","municipality":{"key":"05762036","name":"Warburg, Hansestadt","type":"Stadt"},"district":{"key":"05762","name":"Höxter","type":"Kreis"},"federalState":{"key":"05","name":"Nordrhein-Westfalen"}},{"name":"Am Heidhügel","postalCode":"34414","locality":"Warburg","municipality":{"key":"05762036","name":"Warburg, Hansestadt","type":"Stadt"},"district":{"key":"05762","name":"Höxter","type":"Kreis"},"federalState":{"key":"05","name":"Nordrhein-Westfalen"}},{"name":"Am Heidweg","postalCode":"34414","locality":"Warburg","municipality":{"key":"05762036","name":"Warburg, Hansestadt","type":"Stadt"},"district":{"key":"05762","name":"Höxter","type":"Kreis"},"federalState":{"key":"05","name":"Nordrhein-Westfalen"}},{"name":"Am Heinberg","postalCode":"34414","locality":"Warburg","municipality":{"key":"05762036","name":"Warburg, Hansestadt","type":"Stadt"},"district":{"key":"05762","name":"Höxter","type":"Kreis"},"federalState":{"key":"05","name":"Nordrhein-Westfalen"}},{"name":"Am Hohlweg","postalCode":"34414","locality":"Warburg","municipality":{"key":"05762036","name":"Warburg, Hansestadt","type":"Stadt"},"district":{"key":"05762","name":"Höxter","type":"Kreis"},"federalState":{"key":"05","name":"Nordrhein-Westfalen"}},{"name":"Am Hoppenberg","postalCode":"34414","locality":"Warburg","municipality":{"key":"05762036","name":"Warburg, Hansestadt","type":"Stadt"},"district":{"key":"05762","name":"Höxter","type":"Kreis"},"federalState":{"key":"05","name":"Nordrhein-Westfalen"}},{"name":"Am Horenberg","postalCode":"34414","locality":"Warburg","municipality":{"key":"05762036","name":"Warburg, Hansestadt","type":"Stadt"},"district":{"key":"05762","name":"Höxter","type":"Kreis"},"federalState":{"key":"05","name":"Nordrhein-Westfalen"}},{"name":"Am Iberg","postalCode":"34414","locality":"Warburg","municipality":{"key":"05762036","name":"Warburg, Hansestadt","type":"Stadt"},"district":{"key":"05762","name":"Höxter","type":"Kreis"},"federalState":{"key":"05","name":"Nordrhein-Westfalen"}},{"name":"Am Iberger Feld","postalCode":"34414","locality":"Warburg","municipality":{"key":"05762036","name":"Warburg, Hansestadt","type":"Stadt"},"district":{"key":"05762","name":"Höxter","type":"Kreis"},"federalState":{"key":"05","name":"Nordrhein-Westfalen"}},{"name":"Am Johannisturm","postalCode":"34414","locality":"Warburg","municipality":{"key":"05762036","name":"Warburg, Hansestadt","type":"Stadt"},"district":{"key":"05762","name":"Höxter","type":"Kreis"},"federalState":{"key":"05","name":"Nordrhein-Westfalen"}},{"name":"Am Klusenberg","postalCode":"34414","locality":"Warburg","municipality":{"key":"05762036","name":"Warburg, Hansestadt","type":"Stadt"},"district":{"key":"05762","name":"Höxter","type":"Kreis"},"federalState":{"key":"05","name":"Nordrhein-Westfalen"}},{"name":"Am Krüsenberg","postalCode":"34414","locality":"Warburg","municipality":{"key":"05762036","name":"Warburg, Hansestadt","type":"Stadt"},"district":{"key":"05762","name":"Höxter","type":"Kreis"},"federalState":{"key":"05","name":"Nordrhein-Westfalen"}},{"name":"Am Lindenplatz","postalCode":"34414","locality":"Warburg","municipality":{"key":"05762036","name":"Warburg, Hansestadt","type":"Stadt"},"district":{"key":"05762","name":"Höxter","type":"Kreis"},"federalState":{"key":"05","name":"Nordrhein-Westfalen"}},{"name":"Am Markt","postalCode":"34414","locality":"Warburg","municipality":{"key":"05762036","name":"Warburg, Hansestadt","type":"Stadt"},"district":{"key":"05762","name":"Höxter","type":"Kreis"},"federalState":{"key":"05","name":"Nordrhein-Westfalen"}},{"name":"Am Mühlenberg","postalCode":"34414","locality":"Warburg","municipality":{"key":"05762036","name":"Warburg, Hansestadt","type":"Stadt"},"district":{"key":"05762","name":"Höxter","type":"Kreis"},"federalState":{"key":"05","name":"Nordrhein-Westfalen"}},{"name":"Am Mühlengraben","postalCode":"34414","locality":"Warburg","municipality":{"key":"05762036","name":"Warburg, Hansestadt","type":"Stadt"},"district":{"key":"05762","name":"Höxter","type":"Kreis"},"federalState":{"key":"05","name":"Nordrhein-Westfalen"}},{"name":"Am Mühlenhof","postalCode":"34414","locality":"Warburg","municipality":{"key":"05762036","name":"Warburg, Hansestadt","type":"Stadt"},"district":{"key":"05762","name":"Höxter","type":"Kreis"},"federalState":{"key":"05","name":"Nordrhein-Westfalen"}},{"name":"Am Pfarrheim","postalCode":"34414","locality":"Warburg","municipality":{"key":"05762036","name":"Warburg, Hansestadt","type":"Stadt"},"district":{"key":"05762","name":"Höxter","type":"Kreis"},"federalState":{"key":"05","name":"Nordrhein-Westfalen"}},{"name":"Am Rapin","postalCode":"34414","locality":"Warburg","municipality":{"key":"05762036","name":"Warburg, Hansestadt","type":"Stadt"},"district":{"key":"05762","name":"Höxter","type":"Kreis"},"federalState":{"key":"05","name":"Nordrhein-Westfalen"}},{"name":"Am Ratshof","postalCode":"34414","locality":"Warburg","municipality":{"key":"05762036","name":"Warburg, Hansestadt","type":"Stadt"},"district":{"key":"05762","name":"Höxter","type":"Kreis"},"federalState":{"key":"05","name":"Nordrhein-Westfalen"}},{"name":"Bachstr.","postalCode":"34414","locality":"Warburg","municipality":{"key":"05762036","name":"Warburg, Hansestadt","type":"Stadt"},"district":{"key":"05762","name":"Höxter","type":"Kreis"},"federalState":{"key":"05","name":"Nordrhein-Westfalen"}},{"name":"Bachweg","postalCode":"34414","locality":"Warburg","municipality":{"key":"05762036","name":"Warburg, Hansestadt","type":"Stadt"},"district":{"key":"05762","name":"Höxter","type":"Kreis"},"federalState":{"key":"05","name":"Nordrhein-Westfalen"}},{"name":"Bachwinkel","postalCode":"34414","locality":"Warburg","municipality":{"key":"05762036","name":"Warburg, Hansestadt","type":"Stadt"},"district":{"key":"05762","name":"Höxter","type":"Kreis"},"federalState":{"key":"05","name":"Nordrhein-Westfalen"}},{"name":"Bahnhofstr.","postalCode":"34414","locality":"Warburg","municipality":{"key":"05762036","name":"Warburg, Hansestadt","type":"Stadt"},"district":{"key":"05762","name":"Höxter","type":"Kreis"},"federalState":{"key":"05","name":"Nordrhein-Westfalen"}},{"name":"Bangertwete","postalCode":"34414","locality":"Warburg","municipality":{"key":"05762036","name":"Warburg, Hansestadt","type":"Stadt"},"district":{"key":"05762","name":"Höxter","type":"Kreis"},"federalState":{"key":"05","name":"Nordrhein-Westfalen"}},{"name":"Barfusspfad","postalCode":"34414","locality":"Warburg","municipality":{"key":"05762036","name":"Warburg, Hansestadt","type":"Stadt"},"district":{"key":"05762","name":"Höxter","type":"Kreis"},"federalState":{"key":"05","name":"Nordrhein-Westfalen"}},{"name":"Baumhof","postalCode":"34414","locality":"Warburg","municipality":{"key":"05762036","name":"Warburg, Hansestadt","type":"Stadt"},"district":{"key":"05762","name":"Höxter","type":"Kreis"},"federalState":{"key":"05","name":"Nordrhein-Westfalen"}},{"name":"Beethovenstr.","postalCode":"34414","locality":"Warburg","municipality":{"key":"05762036","name":"Warburg, Hansestadt","type":"Stadt"},"district":{"key":"05762","name":"Höxter","type":"Kreis"},"federalState":{"key":"05","name":"Nordrhein-Westfalen"}},{"name":"Bei der Kirche","postalCode":"34414","locality":"Warburg","municipality":{"key":"05762036","name":"Warburg, Hansestadt","type":"Stadt"},"district":{"key":"05762","name":"Höxter","type":"Kreis"},"federalState":{"key":"05","name":"Nordrhein-Westfalen"}},{"name":"Beim Steingrab","postalCode":"34414","locality":"Warburg","municipality":{"key":"05762036","name":"Warburg, Hansestadt","type":"Stadt"},"district":{"key":"05762","name":"Höxter","type":"Kreis"},"federalState":{"key":"05","name":"Nordrhein-Westfalen"}},{"name":"Bellinggradtstr.","postalCode":"34414","locality":"Warburg","municipality":{"key":"05762036","name":"Warburg, Hansestadt","type":"Stadt"},"district":{"key":"05762","name":"Höxter","type":"Kreis"},"federalState":{"key":"05","name":"Nordrhein-Westfalen"}},{"name":"Bergstr.","postalCode":"34414","locality":"Warburg","municipality":{"key":"05762036","name":"Warburg, Hansestadt","type":"Stadt"},"district":{"key":"05762","name":"Höxter","type":"Kreis"},"federalState":{"key":"05","name":"Nordrhein-Westfalen"}},{"name":"Berliner Str.","postalCode":"34414","locality":"Warburg","municipality":{"key":"05762036","name":"Warburg, Hansestadt","type":"Stadt"},"district":{"key":"05762","name":"Höxter","type":"Kreis"},"federalState":{"key":"05","name":"Nordrhein-Westfalen"}},{"name":"Bernhardistr.","postalCode":"34414","locality":"Warburg","municipality":{"key":"05762036","name":"Warburg, Hansestadt","type":"Stadt"},"district":{"key":"05762","name":"Höxter","type":"Kreis"},"federalState":{"key":"05","name":"Nordrhein-Westfalen"}},{"name":"Bernhardusstr.","postalCode":"34414","locality":"Warburg","municipality":{"key":"05762036","name":"Warburg, Hansestadt","type":"Stadt"},"district":{"key":"05762","name":"Höxter","type":"Kreis"},"federalState":{"key":"05","name":"Nordrhein-Westfalen"}},{"name":"Bessel","postalCode":"34414","locality":"Warburg","municipality":{"key":"05762036","name":"Warburg, Hansestadt","type":"Stadt"},"district":{"key":"05762","name":"Höxter","type":"Kreis"},"federalState":{"key":"05","name":"Nordrhein-Westfalen"}},{"name":"Beverunger Str.","postalCode":"34414","locality":"Warburg","municipality":{"key":"05762036","name":"Warburg, Hansestadt","type":"Stadt"},"district":{"key":"05762","name":"Höxter","type":"Kreis"},"federalState":{"key":"05","name":"Nordrhein-Westfalen"}},{"name":"Birkenweg","postalCode":"34414","locality":"Warburg","municipality":{"key":"05762036","name":"Warburg, Hansestadt","type":"Stadt"},"district":{"key":"05762","name":"Höxter","type":"Kreis"},"federalState":{"key":"05","name":"Nordrhein-Westfalen"}},{"name":"Blankenroder Str.","postalCode":"34414","locality":"Warburg","municipality":{"key":"05762036","name":"Warburg, Hansestadt","type":"Stadt"},"district":{"key":"05762","name":"Höxter","type":"Kreis"},"federalState":{"key":"05","name":"Nordrhein-Westfalen"}},{"name":"Blumenweg","postalCode":"34414","locality":"Warburg","municipality":{"key":"05762036","name":"Warburg, Hansestadt","type":"Stadt"},"district":{"key":"05762","name":"Höxter","type":"Kreis"},"federalState":{"key":"05","name":"Nordrhein-Westfalen"}},{"name":"Bonenburger Str.","postalCode":"34414","locality":"Warburg","municipality":{"key":"05762036","name":"Warburg, Hansestadt","type":"Stadt"},"district":{"key":"05762","name":"Höxter","type":"Kreis"},"federalState":{"key":"05","name":"Nordrhein-Westfalen"}},{"name":"Bördestr.","postalCode":"34414","locality":"Warburg","municipality":{"key":"05762036","name":"Warburg, Hansestadt","type":"Stadt"},"district":{"key":"05762","name":"Höxter","type":"Kreis"},"federalState":{"key":"05","name":"Nordrhein-Westfalen"}},{"name":"Borlinghauser Str.","postalCode":"34414","locality":"Warburg","municipality":{"key":"05762036","name":"Warburg, Hansestadt","type":"Stadt"},"district":{"key":"05762","name":"Höxter","type":"Kreis"},"federalState":{"key":"05","name":"Nordrhein-Westfalen"}},{"name":"Bornebrede","postalCode":"34414","locality":"Warburg","municipality":{"key":"05762036","name":"Warburg, Hansestadt","type":"Stadt"},"district":{"key":"05762","name":"Höxter","type":"Kreis"},"federalState":{"key":"05","name":"Nordrhein-Westfalen"}},{"name":"Bracken","postalCode":"34414","locality":"Warburg","municipality":{"key":"05762036","name":"Warburg, Hansestadt","type":"Stadt"},"district":{"key":"05762","name":"Höxter","type":"Kreis"},"federalState":{"key":"05","name":"Nordrhein-Westfalen"}},{"name":"Brahmsweg","postalCode":"34414","locality":"Warburg","municipality":{"key":"05762036","name":"Warburg, Hansestadt","type":"Stadt"},"district":{"key":"05762","name":"Höxter","type":"Kreis"},"federalState":{"key":"05","name":"Nordrhein-Westfalen"}},{"name":"Breslauer Str.","postalCode":"34414","locality":"Warburg","municipality":{"key":"05762036","name":"Warburg, Hansestadt","type":"Stadt"},"district":{"key":"05762","name":"Höxter","type":"Kreis"},"federalState":{"key":"05","name":"Nordrhein-Westfalen"}},{"name":"Briloner Str.","postalCode":"34414","locality":"Warburg","municipality":{"key":"05762036","name":"Warburg, Hansestadt","type":"Stadt"},"district":{"key":"05762","name":"Höxter","type":"Kreis"},"federalState":{"key":"05","name":"Nordrhein-Westfalen"}},{"name":"Bruchhof","postalCode":"34414","locality":"Warburg","municipality":{"key":"05762036","name":"Warburg, Hansestadt","type":"Stadt"},"district":{"key":"05762","name":"Höxter","type":"Kreis"},"federalState":{"key":"05","name":"Nordrhein-Westfalen"}},{"name":"Bruchring","postalCode":"34414","locality":"Warburg","municipality":{"key":"05762036","name":"Warburg, Hansestadt","type":"Stadt"},"district":{"key":"05762","name":"Höxter","type":"Kreis"},"federalState":{"key":"05","name":"Nordrhein-Westfalen"}},{"name":"Brüderkirchhof","postalCode":"34414","locality":"Warburg","municipality":{"key":"05762036","name":"Warburg, Hansestadt","type":"Stadt"},"district":{"key":"05762","name":"Höxter","type":"Kreis"},"federalState":{"key":"05","name":"Nordrhein-Westfalen"}},{"name":"Brunnenhof","postalCode":"34414","locality":"Warburg","municipality":{"key":"05762036","name":"Warburg, Hansestadt","type":"Stadt"},"district":{"key":"05762","name":"Höxter","type":"Kreis"},"federalState":{"key":"05","name":"Nordrhein-Westfalen"}},{"name":"Brunnenweg","postalCode":"34414","locality":"Warburg","municipality":{"key":"05762036","name":"Warburg, Hansestadt","type":"Stadt"},"district":{"key":"05762","name":"Höxter","type":"Kreis"},"federalState":{"key":"05","name":"Nordrhein-Westfalen"}},{"name":"Buchenpfad","postalCode":"34414","locality":"Warburg","municipality":{"key":"05762036","name":"Warburg, Hansestadt","type":"Stadt"},"district":{"key":"05762","name":"Höxter","type":"Kreis"},"federalState":{"key":"05","name":"Nordrhein-Westfalen"}},{"name":"Bühlkamp","postalCode":"34414","locality":"Warburg","municipality":{"key":"05762036","name":"Warburg, Hansestadt","type":"Stadt"},"district":{"key":"05762","name":"Höxter","type":"Kreis"},"federalState":{"key":"05","name":"Nordrhein-Westfalen"}},{"name":"Bühlstr.","postalCode":"34414","locality":"Warburg","municipality":{"key":"05762036","name":"Warburg, Hansestadt","type":"Stadt"},"district":{"key":"05762","name":"Höxter","type":"Kreis"},"federalState":{"key":"05","name":"Nordrhein-Westfalen"}},{"name":"Bunserweg","postalCode":"34414","locality":"Warburg","municipality":{"key":"05762036","name":"Warburg, Hansestadt","type":"Stadt"},"district":{"key":"05762","name":"Höxter","type":"Kreis"},"federalState":{"key":"05","name":"Nordrhein-Westfalen"}},{"name":"Bürgermeister-Fischer-Str.","postalCode":"34414","locality":"Warburg","municipality":{"key":"05762036","name":"Warburg, Hansestadt","type":"Stadt"},"district":{"key":"05762","name":"Höxter","type":"Kreis"},"federalState":{"key":"05","name":"Nordrhein-Westfalen"}},{"name":"Burggraben","postalCode":"34414","locality":"Warburg","municipality":{"key":"05762036","name":"Warburg, Hansestadt","type":"Stadt"},"district":{"key":"05762","name":"Höxter","type":"Kreis"},"federalState":{"key":"05","name":"Nordrhein-Westfalen"}},{"name":"Burgtwete","postalCode":"34414","locality":"Warburg","municipality":{"key":"05762036","name":"Warburg, Hansestadt","type":"Stadt"},"district":{"key":"05762","name":"Höxter","type":"Kreis"},"federalState":{"key":"05","name":"Nordrhein-Westfalen"}},{"name":"Burgweg","postalCode":"34414","locality":"Warburg","municipality":{"key":"05762036","name":"Warburg, Hansestadt","type":"Stadt"},"district":{"key":"05762","name":"Höxter","type":"Kreis"},"federalState":{"key":"05","name":"Nordrhein-Westfalen"}},{"name":"Bußdorfer Str.","postalCode":"34414","locality":"Warburg","municipality":{"key":"05762036","name":"Warburg, Hansestadt","type":"Stadt"},"district":{"key":"05762","name":"Höxter","type":"Kreis"},"federalState":{"key":"05","name":"Nordrhein-Westfalen"}},{"name":"Bußdorfer Tor","postalCode":"34414","locality":"Warburg","municipality":{"key":"05762036","name":"Warburg, Hansestadt","type":"Stadt"},"district":{"key":"05762","name":"Höxter","type":"Kreis"},"federalState":{"key":"05","name":"Nordrhein-Westfalen"}},{"name":"Büssengasse","postalCode":"34414","locality":"Warburg","municipality":{"key":"05762036","name":"Warburg, Hansestadt","type":"Stadt"},"district":{"key":"05762","name":"Höxter","type":"Kreis"},"federalState":{"key":"05","name":"Nordrhein-Westfalen"}},{"name":"Calenberger Str.","postalCode":"34414","locality":"Warburg","municipality":{"key":"05762036","name":"Warburg, Hansestadt","type":"Stadt"},"district":{"key":"05762","name":"Höxter","type":"Kreis"},"federalState":{"key":"05","name":"Nordrhein-Westfalen"}},{"name":"Carl-Orff-Str.","postalCode":"34414","locality":"Warburg","municipality":{"key":"05762036","name":"Warburg, Hansestadt","type":"Stadt"},"district":{"key":"05762","name":"Höxter","type":"Kreis"},"federalState":{"key":"05","name":"Nordrhein-Westfalen"}},{"name":"Clasenberg","postalCode":"34414","locality":"Warburg","municipality":{"key":"05762036","name":"Warburg, Hansestadt","type":"Stadt"},"district":{"key":"05762","name":"Höxter","type":"Kreis"},"federalState":{"key":"05","name":"Nordrhein-Westfalen"}},{"name":"Clemens-Schäfer-Str.","postalCode":"34414","locality":"Warburg","municipality":{"key":"05762036","name":"Warburg, Hansestadt","type":"Stadt"},"district":{"key":"05762","name":"Höxter","type":"Kreis"},"federalState":{"key":"05","name":"Nordrhein-Westfalen"}},{"name":"Dalheimer Weg","postalCode":"34414","locality":"Warburg","municipality":{"key":"05762036","name":"Warburg, Hansestadt","type":"Stadt"},"district":{"key":"05762","name":"Höxter","type":"Kreis"},"federalState":{"key":"05","name":"Nordrhein-Westfalen"}},{"name":"Danielweg","postalCode":"34414","locality":"Warburg","municipality":{"key":"05762036","name":"Warburg, Hansestadt","type":"Stadt"},"district":{"key":"05762","name":"Höxter","type":"Kreis"},"federalState":{"key":"05","name":"Nordrhein-Westfalen"}},{"name":"Danziger Str.","postalCode":"34414","locality":"Warburg","municipality":{"key":"05762036","name":"Warburg, Hansestadt","type":"Stadt"},"district":{"key":"05762","name":"Höxter","type":"Kreis"},"federalState":{"key":"05","name":"Nordrhein-Westfalen"}},{"name":"Daseburger Str.","postalCode":"34414","locality":"Warburg","municipality":{"key":"05762036","name":"Warburg, Hansestadt","type":"Stadt"},"district":{"key":"05762","name":"Höxter","type":"Kreis"},"federalState":{"key":"05","name":"Nordrhein-Westfalen"}},{"name":"Dechant-Maas-Weg","postalCode":"34414","locality":"Warburg","municipality":{"key":"05762036","name":"Warburg, Hansestadt","type":"Stadt"},"district":{"key":"05762","name":"Höxter","type":"Kreis"},"federalState":{"key":"05","name":"Nordrhein-Westfalen"}},{"name":"Delbrückstr.","postalCode":"34414","locality":"Warburg","municipality":{"key":"05762036","name":"Warburg, Hansestadt","type":"Stadt"},"district":{"key":"05762","name":"Höxter","type":"Kreis"},"federalState":{"key":"05","name":"Nordrhein-Westfalen"}},{"name":"Dengelpatt","postalCode":"34414","locality":"Warburg","municipality":{"key":"05762036","name":"Warburg, Hansestadt","type":"Stadt"},"district":{"key":"05762","name":"Höxter","type":"Kreis"},"federalState":{"key":"05","name":"Nordrhein-Westfalen"}},{"name":"Desenberggasse","postalCode":"34414","locality":"Warburg","municipality":{"key":"05762036","name":"Warburg, Hansestadt","type":"Stadt"},"district":{"key":"05762","name":"Höxter","type":"Kreis"},"federalState":{"key":"05","name":"Nordrhein-Westfalen"}},{"name":"Desenbergstr.","postalCode":"34414","locality":"Warburg","municipality":{"key":"05762036","name":"Warburg, Hansestadt","type":"Stadt"},"district":{"key":"05762","name":"Höxter","type":"Kreis"},"federalState":{"key":"05","name":"Nordrhein-Westfalen"}},{"name":"Diebesweg","postalCode":"34414","locality":"Warburg","municipality":{"key":"05762036","name":"Warburg, Hansestadt","type":"Stadt"},"district":{"key":"05762","name":"Höxter","type":"Kreis"},"federalState":{"key":"05","name":"Nordrhein-Westfalen"}},{"name":"Diemelaue","postalCode":"34414","locality":"Warburg","municipality":{"key":"05762036","name":"Warburg, Hansestadt","type":"Stadt"},"district":{"key":"05762","name":"Höxter","type":"Kreis"},"federalState":{"key":"05","name":"Nordrhein-Westfalen"}},{"name":"Diemeltalbrücke","postalCode":"34414","locality":"Warburg","municipality":{"key":"05762036","name":"Warburg, Hansestadt","type":"Stadt"},"district":{"key":"05762","name":"Höxter","type":"Kreis"},"federalState":{"key":"05","name":"Nordrhein-Westfalen"}},{"name":"Diemelweg","postalCode":"34414","locality":"Warburg","municipality":{"key":"05762036","name":"Warburg, Hansestadt","type":"Stadt"},"district":{"key":"05762","name":"Höxter","type":"Kreis"},"federalState":{"key":"05","name":"Nordrhein-Westfalen"}},{"name":"Dominikanergässchen","postalCode":"34414","locality":"Warburg","municipality":{"key":"05762036","name":"Warburg, Hansestadt","type":"Stadt"},"district":{"key":"05762","name":"Höxter","type":"Kreis"},"federalState":{"key":"05","name":"Nordrhein-Westfalen"}},{"name":"Dorfstr.","postalCode":"34414","locality":"Warburg","municipality":{"key":"05762036","name":"Warburg, Hansestadt","type":"Stadt"},"district":{"key":"05762","name":"Höxter","type":"Kreis"},"federalState":{"key":"05","name":"Nordrhein-Westfalen"}},{"name":"Dornhecke","postalCode":"34414","locality":"Warburg","municipality":{"key":"05762036","name":"Warburg, Hansestadt","type":"Stadt"},"district":{"key":"05762","name":"Höxter","type":"Kreis"},"federalState":{"key":"05","name":"Nordrhein-Westfalen"}},{"name":"Dösseler Str.","postalCode":"34414","locality":"Warburg","municipality":{"key":"05762036","name":"Warburg, Hansestadt","type":"Stadt"},"district":{"key":"05762","name":"Höxter","type":"Kreis"},"federalState":{"key":"05","name":"Nordrhein-Westfalen"}},{"name":"Dreisch","postalCode":"34414","locality":"Warburg","municipality":{"key":"05762036","name":"Warburg, Hansestadt","type":"Stadt"},"district":{"key":"05762","name":"Höxter","type":"Kreis"},"federalState":{"key":"05","name":"Nordrhein-Westfalen"}},{"name":"Dreschplatz","postalCode":"34414","locality":"Warburg","municipality":{"key":"05762036","name":"Warburg, Hansestadt","type":"Stadt"},"district":{"key":"05762","name":"Höxter","type":"Kreis"},"federalState":{"key":"05","name":"Nordrhein-Westfalen"}},{"name":"Dunsterweg","postalCode":"34414","locality":"Warburg","municipality":{"key":"05762036","name":"Warburg, Hansestadt","type":"Stadt"},"district":{"key":"05762","name":"Höxter","type":"Kreis"},"federalState":{"key":"05","name":"Nordrhein-Westfalen"}},{"name":"Dürerstr.","postalCode":"34414","locality":"Warburg","municipality":{"key":"05762036","name":"Warburg, Hansestadt","type":"Stadt"},"district":{"key":"05762","name":"Höxter","type":"Kreis"},"federalState":{"key":"05","name":"Nordrhein-Westfalen"}},{"name":"Eggestr.","postalCode":"34414","locality":"Warburg","municipality":{"key":"05762036","name":"Warburg, Hansestadt","type":"Stadt"},"district":{"key":"05762","name":"Höxter","type":"Kreis"},"federalState":{"key":"05","name":"Nordrhein-Westfalen"}},{"name":"Eichendorffstr.","postalCode":"34414","locality":"Warburg","municipality":{"key":"05762036","name":"Warburg, Hansestadt","type":"Stadt"},"district":{"key":"05762","name":"Höxter","type":"Kreis"},"federalState":{"key":"05","name":"Nordrhein-Westfalen"}},{"name":"Eichenweg","postalCode":"34414","locality":"Warburg","municipality":{"key":"05762036","name":"Warburg, Hansestadt","type":"Stadt"},"district":{"key":"05762","name":"Höxter","type":"Kreis"},"federalState":{"key":"05","name":"Nordrhein-Westfalen"}},{"name":"Eichholz","postalCode":"34414","locality":"Warburg","municipality":{"key":"05762036","name":"Warburg, Hansestadt","type":"Stadt"},"district":{"key":"05762","name":"Höxter","type":"Kreis"},"federalState":{"key":"05","name":"Nordrhein-Westfalen"}},{"name":"Eisenhoitgasse","postalCode":"34414","locality":"Warburg","municipality":{"key":"05762036","name":"Warburg, Hansestadt","type":"Stadt"},"district":{"key":"05762","name":"Höxter","type":"Kreis"},"federalState":{"key":"05","name":"Nordrhein-Westfalen"}},{"name":"Elisabethstr.","postalCode":"34414","locality":"Warburg","municipality":{"key":"05762036","name":"Warburg, Hansestadt","type":"Stadt"},"district":{"key":"05762","name":"Höxter","type":"Kreis"},"federalState":{"key":"05","name":"Nordrhein-Westfalen"}},{"name":"Emanuel-Geibel-Weg","postalCode":"34414","locality":"Warburg","municipality":{"key":"05762036","name":"Warburg, Hansestadt","type":"Stadt"},"district":{"key":"05762","name":"Höxter","type":"Kreis"},"federalState":{"key":"05","name":"Nordrhein-Westfalen"}},{"name":"Emil-Herz-Platz","postalCode":"34414","locality":"Warburg","municipality":{"key":"05762036","name":"Warburg, Hansestadt","type":"Stadt"},"district":{"key":"05762","name":"Höxter","type":"Kreis"},"federalState":{"key":"05","name":"Nordrhein-Westfalen"}},{"name":"Emil-Nolde-Str.","postalCode":"34414","locality":"Warburg","municipality":{"key":"05762036","name":"Warburg, Hansestadt","type":"Stadt"},"district":{"key":"05762","name":"Höxter","type":"Kreis"},"federalState":{"key":"05","name":"Nordrhein-Westfalen"}},{"name":"Engarer Str.","postalCode":"34414","locality":"Warburg","municipality":{"key":"05762036","name":"Warburg, Hansestadt","type":"Stadt"},"district":{"key":"05762","name":"Höxter","type":"Kreis"},"federalState":{"key":"05","name":"Nordrhein-Westfalen"}},{"name":"Entenanger","postalCode":"34414","locality":"Warburg","municipality":{"key":"05762036","name":"Warburg, Hansestadt","type":"Stadt"},"district":{"key":"05762","name":"Höxter","type":"Kreis"},"federalState":{"key":"05","name":"Nordrhein-Westfalen"}},{"name":"Erbsenbreite","postalCode":"34414","locality":"Warburg","municipality":{"key":"05762036","name":"Warburg, Hansestadt","type":"Stadt"},"district":{"key":"05762","name":"Höxter","type":"Kreis"},"federalState":{"key":"05","name":"Nordrhein-Westfalen"}},{"name":"Erlen-Brücke","postalCode":"34414","locality":"Warburg","municipality":{"key":"05762036","name":"Warburg, Hansestadt","type":"Stadt"},"district":{"key":"05762","name":"Höxter","type":"Kreis"},"federalState":{"key":"05","name":"Nordrhein-Westfalen"}},{"name":"Erlenweg","postalCode":"34414","locality":"Warburg","municipality":{"key":"05762036","name":"Warburg, Hansestadt","type":"Stadt"},"district":{"key":"05762","name":"Höxter","type":"Kreis"},"federalState":{"key":"05","name":"Nordrhein-Westfalen"}},{"name":"Ernst-Barlach-Str.","postalCode":"34414","locality":"Warburg","municipality":{"key":"05762036","name":"Warburg, Hansestadt","type":"Stadt"},"district":{"key":"05762","name":"Höxter","type":"Kreis"},"federalState":{"key":"05","name":"Nordrhein-Westfalen"}},{"name":"Erser Str.","postalCode":"34414","locality":"Warburg","municipality":{"key":"05762036","name":"Warburg, Hansestadt","type":"Stadt"},"district":{"key":"05762","name":"Höxter","type":"Kreis"},"federalState":{"key":"05","name":"Nordrhein-Westfalen"}},{"name":"Eschenweg","postalCode":"34414","locality":"Warburg","municipality":{"key":"05762036","name":"Warburg, Hansestadt","type":"Stadt"},"district":{"key":"05762","name":"Höxter","type":"Kreis"},"federalState":{"key":"05","name":"Nordrhein-Westfalen"}},{"name":"Eulenwinkel","postalCode":"34414","locality":"Warburg","municipality":{"key":"05762036","name":"Warburg, Hansestadt","type":"Stadt"},"district":{"key":"05762","name":"Höxter","type":"Kreis"},"federalState":{"key":"05","name":"Nordrhein-Westfalen"}},{"name":"Ewigkeitsweg","postalCode":"34414","locality":"Warburg","municipality":{"key":"05762036","name":"Warburg, Hansestadt","type":"Stadt"},"district":{"key":"05762","name":"Höxter","type":"Kreis"},"federalState":{"key":"05","name":"Nordrhein-Westfalen"}},{"name":"Fahrweg","postalCode":"34414","locality":"Warburg","municipality":{"key":"05762036","name":"Warburg, Hansestadt","type":"Stadt"},"district":{"key":"05762","name":"Höxter","type":"Kreis"},"federalState":{"key":"05","name":"Nordrhein-Westfalen"}},{"name":"Falkenbergstr.","postalCode":"34414","locality":"Warburg","municipality":{"key":"05762036","name":"Warburg, Hansestadt","type":"Stadt"},"district":{"key":"05762","name":"Höxter","type":"Kreis"},"federalState":{"key":"05","name":"Nordrhein-Westfalen"}},{"name":"Falkenweg","postalCode":"34414","locality":"Warburg","municipality":{"key":"05762036","name":"Warburg, Hansestadt","type":"Stadt"},"district":{"key":"05762","name":"Höxter","type":"Kreis"},"federalState":{"key":"05","name":"Nordrhein-Westfalen"}},{"name":"Feininger Str.","postalCode":"34414","locality":"Warburg","municipality":{"key":"05762036","name":"Warburg, Hansestadt","type":"Stadt"},"district":{"key":"05762","name":"Höxter","type":"Kreis"},"federalState":{"key":"05","name":"Nordrhein-Westfalen"}},{"name":"Feldmark","postalCode":"34414","locality":"Warburg","municipality":{"key":"05762036","name":"Warburg, Hansestadt","type":"Stadt"},"district":{"key":"05762","name":"Höxter","type":"Kreis"},"federalState":{"key":"05","name":"Nordrhein-Westfalen"}},{"name":"Ferdinande-von-Brackel-Str.","postalCode":"34414","locality":"Warburg","municipality":{"key":"05762036","name":"Warburg, Hansestadt","type":"Stadt"},"district":{"key":"05762","name":"Höxter","type":"Kreis"},"federalState":{"key":"05","name":"Nordrhein-Westfalen"}},{"name":"Fichtenweg","postalCode":"34414","locality":"Warburg","municipality":{"key":"05762036","name":"Warburg, Hansestadt","type":"Stadt"},"district":{"key":"05762","name":"Höxter","type":"Kreis"},"federalState":{"key":"05","name":"Nordrhein-Westfalen"}},{"name":"Fiedelberg","postalCode":"34414","locality":"Warburg","municipality":{"key":"05762036","name":"Warburg, Hansestadt","type":"Stadt"},"district":{"key":"05762","name":"Höxter","type":"Kreis"},"federalState":{"key":"05","name":"Nordrhein-Westfalen"}},{"name":"Fillerkuhle","postalCode":"34414","locality":"Warburg","municipality":{"key":"05762036","name":"Warburg, Hansestadt","type":"Stadt"},"district":{"key":"05762","name":"Höxter","type":"Kreis"},"federalState":{"key":"05","name":"Nordrhein-Westfalen"}},{"name":"Finkenweg","postalCode":"34414","locality":"Warburg","municipality":{"key":"05762036","name":"Warburg, Hansestadt","type":"Stadt"},"district":{"key":"05762","name":"Höxter","type":"Kreis"},"federalState":{"key":"05","name":"Nordrhein-Westfalen"}},{"name":"Florianweg","postalCode":"34414","locality":"Warburg","municipality":{"key":"05762036","name":"Warburg, Hansestadt","type":"Stadt"},"district":{"key":"05762","name":"Höxter","type":"Kreis"},"federalState":{"key":"05","name":"Nordrhein-Westfalen"}},{"name":"Foulerweg","postalCode":"34414","locality":"Warburg","municipality":{"key":"05762036","name":"Warburg, Hansestadt","type":"Stadt"},"district":{"key":"05762","name":"Höxter","type":"Kreis"},"federalState":{"key":"05","name":"Nordrhein-Westfalen"}},{"name":"Frankengrund","postalCode":"34414","locality":"Warburg","municipality":{"key":"05762036","name":"Warburg, Hansestadt","type":"Stadt"},"district":{"key":"05762","name":"Höxter","type":"Kreis"},"federalState":{"key":"05","name":"Nordrhein-Westfalen"}},{"name":"Frankenstr.","postalCode":"34414","locality":"Warburg","municipality":{"key":"05762036","name":"Warburg, Hansestadt","type":"Stadt"},"district":{"key":"05762","name":"Höxter","type":"Kreis"},"federalState":{"key":"05","name":"Nordrhein-Westfalen"}},{"name":"Franziskus-Quellen-Weg","postalCode":"34414","locality":"Warburg","municipality":{"key":"05762036","name":"Warburg, Hansestadt","type":"Stadt"},"district":{"key":"05762","name":"Höxter","type":"Kreis"},"federalState":{"key":"05","name":"Nordrhein-Westfalen"}},{"name":"Friedensstr.","postalCode":"34414","locality":"Warburg","municipality":{"key":"05762036","name":"Warburg, Hansestadt","type":"Stadt"},"district":{"key":"05762","name":"Höxter","type":"Kreis"},"federalState":{"key":"05","name":"Nordrhein-Westfalen"}},{"name":"Friedrich-Böhlen-Str.","postalCode":"34414","locality":"Warburg","municipality":{"key":"05762036","name":"Warburg, Hansestadt","type":"Stadt"},"district":{"key":"05762","name":"Höxter","type":"Kreis"},"federalState":{"key":"05","name":"Nordrhein-Westfalen"}},{"name":"Friedrich-Wilhelm-Weber-Str.","postalCode":"34414","locality":"Warburg","municipality":{"key":"05762036","name":"Warburg, Hansestadt","type":"Stadt"},"district":{"key":"05762","name":"Höxter","type":"Kreis"},"federalState":{"key":"05","name":"Nordrhein-Westfalen"}},{"name":"Gänsebreite","postalCode":"34414","locality":"Warburg","municipality":{"key":"05762036","name":"Warburg, Hansestadt","type":"Stadt"},"district":{"key":"05762","name":"Höxter","type":"Kreis"},"federalState":{"key":"05","name":"Nordrhein-Westfalen"}},{"name":"Garamattiweg","postalCode":"34414","locality":"Warburg","municipality":{"key":"05762036","name":"Warburg, Hansestadt","type":"Stadt"},"district":{"key":"05762","name":"Höxter","type":"Kreis"},"federalState":{"key":"05","name":"Nordrhein-Westfalen"}},{"name":"Gartenweg","postalCode":"34414","locality":"Warburg","municipality":{"key":"05762036","name":"Warburg, Hansestadt","type":"Stadt"},"district":{"key":"05762","name":"Höxter","type":"Kreis"},"federalState":{"key":"05","name":"Nordrhein-Westfalen"}},{"name":"Gebrüder-Grimm-Weg","postalCode":"34414","locality":"Warburg","municipality":{"key":"05762036","name":"Warburg, Hansestadt","type":"Stadt"},"district":{"key":"05762","name":"Höxter","type":"Kreis"},"federalState":{"key":"05","name":"Nordrhein-Westfalen"}},{"name":"Gebrüder-Warburg-Platz","postalCode":"34414","locality":"Warburg","municipality":{"key":"05762036","name":"Warburg, Hansestadt","type":"Stadt"},"district":{"key":"05762","name":"Höxter","type":"Kreis"},"federalState":{"key":"05","name":"Nordrhein-Westfalen"}},{"name":"Geisselpfad","postalCode":"34414","locality":"Warburg","municipality":{"key":"05762036","name":"Warburg, Hansestadt","type":"Stadt"},"district":{"key":"05762","name":"Höxter","type":"Kreis"},"federalState":{"key":"05","name":"Nordrhein-Westfalen"}},{"name":"Gelbe Brede","postalCode":"34414","locality":"Warburg","municipality":{"key":"05762036","name":"Warburg, Hansestadt","type":"Stadt"},"district":{"key":"05762","name":"Höxter","type":"Kreis"},"federalState":{"key":"05","name":"Nordrhein-Westfalen"}},{"name":"Gerhart-Hauptmann-Str.","postalCode":"34414","locality":"Warburg","municipality":{"key":"05762036","name":"Warburg, Hansestadt","type":"Stadt"},"district":{"key":"05762","name":"Höxter","type":"Kreis"},"federalState":{"key":"05","name":"Nordrhein-Westfalen"}},{"name":"Glockenbreite","postalCode":"34414","locality":"Warburg","municipality":{"key":"05762036","name":"Warburg, Hansestadt","type":"Stadt"},"district":{"key":"05762","name":"Höxter","type":"Kreis"},"federalState":{"key":"05","name":"Nordrhein-Westfalen"}},{"name":"Goethestr.","postalCode":"34414","locality":"Warburg","municipality":{"key":"05762036","name":"Warburg, Hansestadt","type":"Stadt"},"district":{"key":"05762","name":"Höxter","type":"Kreis"},"federalState":{"key":"05","name":"Nordrhein-Westfalen"}},{"name":"Goldbergweg","postalCode":"34414","locality":"Warburg","municipality":{"key":"05762036","name":"Warburg, Hansestadt","type":"Stadt"},"district":{"key":"05762","name":"Höxter","type":"Kreis"},"federalState":{"key":"05","name":"Nordrhein-Westfalen"}},{"name":"Göringsgraben","postalCode":"34414","locality":"Warburg","municipality":{"key":"05762036","name":"Warburg, Hansestadt","type":"Stadt"},"district":{"key":"05762","name":"Höxter","type":"Kreis"},"federalState":{"key":"05","name":"Nordrhein-Westfalen"}},{"name":"Grabenstr.","postalCode":"34414","locality":"Warburg","municipality":{"key":"05762036","name":"Warburg, Hansestadt","type":"Stadt"},"district":{"key":"05762","name":"Höxter","type":"Kreis"},"federalState":{"key":"05","name":"Nordrhein-Westfalen"}},{"name":"Graf-Boyneburg-Str.","postalCode":"34414","locality":"Warburg","municipality":{"key":"05762036","name":"Warburg, Hansestadt","type":"Stadt"},"district":{"key":"05762","name":"Höxter","type":"Kreis"},"federalState":{"key":"05","name":"Nordrhein-Westfalen"}},{"name":"Graf-Dodiko-Weg","postalCode":"34414","locality":"Warburg","municipality":{"key":"05762036","name":"Warburg, Hansestadt","type":"Stadt"},"district":{"key":"05762","name":"Höxter","type":"Kreis"},"federalState":{"key":"05","name":"Nordrhein-Westfalen"}},{"name":"Grevenwiese","postalCode":"34414","locality":"Warburg","municipality":{"key":"05762036","name":"Warburg, Hansestadt","type":"Stadt"},"district":{"key":"05762","name":"Höxter","type":"Kreis"},"federalState":{"key":"05","name":"Nordrhein-Westfalen"}},{"name":"Griesegrund","postalCode":"34414","locality":"Warburg","municipality":{"key":"05762036","name":"Warburg, Hansestadt","type":"Stadt"},"district":{"key":"05762","name":"Höxter","type":"Kreis"},"federalState":{"key":"05","name":"Nordrhein-Westfalen"}},{"name":"Großenederer Weg","postalCode":"34414","locality":"Warburg","municipality":{"key":"05762036","name":"Warburg, Hansestadt","type":"Stadt"},"district":{"key":"05762","name":"Höxter","type":"Kreis"},"federalState":{"key":"05","name":"Nordrhein-Westfalen"}},{"name":"Grüner Weg","postalCode":"34414","locality":"Warburg","municipality":{"key":"05762036","name":"Warburg, Hansestadt","type":"Stadt"},"district":{"key":"05762","name":"Höxter","type":"Kreis"},"federalState":{"key":"05","name":"Nordrhein-Westfalen"}},{"name":"Gutsweg","postalCode":"34414","locality":"Warburg","municipality":{"key":"05762036","name":"Warburg, Hansestadt","type":"Stadt"},"district":{"key":"05762","name":"Höxter","type":"Kreis"},"federalState":{"key":"05","name":"Nordrhein-Westfalen"}},{"name":"Habichtsweg","postalCode":"34414","locality":"Warburg","municipality":{"key":"05762036","name":"Warburg, Hansestadt","type":"Stadt"},"district":{"key":"05762","name":"Höxter","type":"Kreis"},"federalState":{"key":"05","name":"Nordrhein-Westfalen"}},{"name":"Hagebrunnen","postalCode":"34414","locality":"Warburg","municipality":{"key":"05762036","name":"Warburg, Hansestadt","type":"Stadt"},"district":{"key":"05762","name":"Höxter","type":"Kreis"},"federalState":{"key":"05","name":"Nordrhein-Westfalen"}},{"name":"Hahnenbreite","postalCode":"34414","locality":"Warburg","municipality":{"key":"05762036","name":"Warburg, Hansestadt","type":"Stadt"},"district":{"key":"05762","name":"Höxter","type":"Kreis"},"federalState":{"key":"05","name":"Nordrhein-Westfalen"}},{"name":"Hainanger","postalCode":"34414","locality":"Warburg","municipality":{"key":"05762036","name":"Warburg, Hansestadt","type":"Stadt"},"district":{"key":"05762","name":"Höxter","type":"Kreis"},"federalState":{"key":"05","name":"Nordrhein-Westfalen"}},{"name":"Hammerweg","postalCode":"34414","locality":"Warburg","municipality":{"key":"05762036","name":"Warburg, Hansestadt","type":"Stadt"},"district":{"key":"05762","name":"Höxter","type":"Kreis"},"federalState":{"key":"05","name":"Nordrhein-Westfalen"}},{"name":"Händelstr.","postalCode":"34414","locality":"Warburg","municipality":{"key":"05762036","name":"Warburg, Hansestadt","type":"Stadt"},"district":{"key":"05762","name":"Höxter","type":"Kreis"},"federalState":{"key":"05","name":"Nordrhein-Westfalen"}},{"name":"Hardehausener Str.","postalCode":"34414","locality":"Warburg","municipality":{"key":"05762036","name":"Warburg, Hansestadt","type":"Stadt"},"district":{"key":"05762","name":"Höxter","type":"Kreis"},"federalState":{"key":"05","name":"Nordrhein-Westfalen"}},{"name":"Haselbusch","postalCode":"34414","locality":"Warburg","municipality":{"key":"05762036","name":"Warburg, Hansestadt","type":"Stadt"},"district":{"key":"05762","name":"Höxter","type":"Kreis"},"federalState":{"key":"05","name":"Nordrhein-Westfalen"}},{"name":"Haudachserstr.","postalCode":"34414","locality":"Warburg","municipality":{"key":"05762036","name":"Warburg, Hansestadt","type":"Stadt"},"district":{"key":"05762","name":"Höxter","type":"Kreis"},"federalState":{"key":"05","name":"Nordrhein-Westfalen"}},{"name":"Hauedaer Str.","postalCode":"34414","locality":"Warburg","municipality":{"key":"05762036","name":"Warburg, Hansestadt","type":"Stadt"},"district":{"key":"05762","name":"Höxter","type":"Kreis"},"federalState":{"key":"05","name":"Nordrhein-Westfalen"}},{"name":"Hauptstr.","postalCode":"34414","locality":"Warburg","municipality":{"key":"05762036","name":"Warburg, Hansestadt","type":"Stadt"},"district":{"key":"05762","name":"Höxter","type":"Kreis"},"federalState":{"key":"05","name":"Nordrhein-Westfalen"}},{"name":"Haydnstr.","postalCode":"34414","locality":"Warburg","municipality":{"key":"05762036","name":"Warburg, Hansestadt","type":"Stadt"},"district":{"key":"05762","name":"Höxter","type":"Kreis"},"federalState":{"key":"05","name":"Nordrhein-Westfalen"}},{"name":"Heckenweg","postalCode":"34414","locality":"Warburg","municipality":{"key":"05762036","name":"Warburg, Hansestadt","type":"Stadt"},"district":{"key":"05762","name":"Höxter","type":"Kreis"},"federalState":{"key":"05","name":"Nordrhein-Westfalen"}},{"name":"Hedwigstr.","postalCode":"34414","locality":"Warburg","municipality":{"key":"05762036","name":"Warburg, Hansestadt","type":"Stadt"},"district":{"key":"05762","name":"Höxter","type":"Kreis"},"federalState":{"key":"05","name":"Nordrhein-Westfalen"}},{"name":"Heidfeld","postalCode":"34414","locality":"Warburg","municipality":{"key":"05762036","name":"Warburg, Hansestadt","type":"Stadt"},"district":{"key":"05762","name":"Höxter","type":"Kreis"},"federalState":{"key":"05","name":"Nordrhein-Westfalen"}},{"name":"Heinbergweg","postalCode":"34414","locality":"Warburg","municipality":{"key":"05762036","name":"Warburg, Hansestadt","type":"Stadt"},"district":{"key":"05762","name":"Höxter","type":"Kreis"},"federalState":{"key":"05","name":"Nordrhein-Westfalen"}},{"name":"Hellepfortenstr.","postalCode":"34414","locality":"Warburg","municipality":{"key":"05762036","name":"Warburg, Hansestadt","type":"Stadt"},"district":{"key":"05762","name":"Höxter","type":"Kreis"},"federalState":{"key":"05","name":"Nordrhein-Westfalen"}},{"name":"Hellweg","postalCode":"34414","locality":"Warburg","municipality":{"key":"05762036","name":"Warburg, Hansestadt","type":"Stadt"},"district":{"key":"05762","name":"Höxter","type":"Kreis"},"federalState":{"key":"05","name":"Nordrhein-Westfalen"}},{"name":"Herbergerweg","postalCode":"34414","locality":"Warburg","municipality":{"key":"05762036","name":"Warburg, Hansestadt","type":"Stadt"},"district":{"key":"05762","name":"Höxter","type":"Kreis"},"federalState":{"key":"05","name":"Nordrhein-Westfalen"}},{"name":"Hermann-Klostermann-Weg","postalCode":"34414","locality":"Warburg","municipality":{"key":"05762036","name":"Warburg, Hansestadt","type":"Stadt"},"district":{"key":"05762","name":"Höxter","type":"Kreis"},"federalState":{"key":"05","name":"Nordrhein-Westfalen"}},{"name":"Hermann-Löns-Weg","postalCode":"34414","locality":"Warburg","municipality":{"key":"05762036","name":"Warburg, Hansestadt","type":"Stadt"},"district":{"key":"05762","name":"Höxter","type":"Kreis"},"federalState":{"key":"05","name":"Nordrhein-Westfalen"}},{"name":"Hilleweg","postalCode":"34414","locality":"Warburg","municipality":{"key":"05762036","name":"Warburg, Hansestadt","type":"Stadt"},"district":{"key":"05762","name":"Höxter","type":"Kreis"},"federalState":{"key":"05","name":"Nordrhein-Westfalen"}},{"name":"Hinter den Gärten","postalCode":"34414","locality":"Warburg","municipality":{"key":"05762036","name":"Warburg, Hansestadt","type":"Stadt"},"district":{"key":"05762","name":"Höxter","type":"Kreis"},"federalState":{"key":"05","name":"Nordrhein-Westfalen"}},{"name":"Hinter den Höfen","postalCode":"34414","locality":"Warburg","municipality":{"key":"05762036","name":"Warburg, Hansestadt","type":"Stadt"},"district":{"key":"05762","name":"Höxter","type":"Kreis"},"federalState":{"key":"05","name":"Nordrhein-Westfalen"}},{"name":"Hinter der Kirche","postalCode":"34414","locality":"Warburg","municipality":{"key":"05762036","name":"Warburg, Hansestadt","type":"Stadt"},"district":{"key":"05762","name":"Höxter","type":"Kreis"},"federalState":{"key":"05","name":"Nordrhein-Westfalen"}},{"name":"Hinter der Mauer Nord","postalCode":"34414","locality":"Warburg","municipality":{"key":"05762036","name":"Warburg, Hansestadt","type":"Stadt"},"district":{"key":"05762","name":"Höxter","type":"Kreis"},"federalState":{"key":"05","name":"Nordrhein-Westfalen"}},{"name":"Hinter der Mauer Süd","postalCode":"34414","locality":"Warburg","municipality":{"key":"05762036","name":"Warburg, Hansestadt","type":"Stadt"},"district":{"key":"05762","name":"Höxter","type":"Kreis"},"federalState":{"key":"05","name":"Nordrhein-Westfalen"}},{"name":"Höffe","postalCode":"34414","locality":"Warburg","municipality":{"key":"05762036","name":"Warburg, Hansestadt","type":"Stadt"},"district":{"key":"05762","name":"Höxter","type":"Kreis"},"federalState":{"key":"05","name":"Nordrhein-Westfalen"}},{"name":"Hoffmann-von-Fallersleben-Str.","postalCode":"34414","locality":"Warburg","municipality":{"key":"05762036","name":"Warburg, Hansestadt","type":"Stadt"},"district":{"key":"05762","name":"Höxter","type":"Kreis"},"federalState":{"key":"05","name":"Nordrhein-Westfalen"}},{"name":"Hohenlauer Feld","postalCode":"34414","locality":"Warburg","municipality":{"key":"05762036","name":"Warburg, Hansestadt","type":"Stadt"},"district":{"key":"05762","name":"Höxter","type":"Kreis"},"federalState":{"key":"05","name":"Nordrhein-Westfalen"}},{"name":"Hohenwepeler Str.","postalCode":"34414","locality":"Warburg","municipality":{"key":"05762036","name":"Warburg, Hansestadt","type":"Stadt"},"district":{"key":"05762","name":"Höxter","type":"Kreis"},"federalState":{"key":"05","name":"Nordrhein-Westfalen"}},{"name":"Hohe Wanne","postalCode":"34414","locality":"Warburg","municipality":{"key":"05762036","name":"Warburg, Hansestadt","type":"Stadt"},"district":{"key":"05762","name":"Höxter","type":"Kreis"},"federalState":{"key":"05","name":"Nordrhein-Westfalen"}},{"name":"Hölzerne Klinke","postalCode":"34414","locality":"Warburg","municipality":{"key":"05762036","name":"Warburg, Hansestadt","type":"Stadt"},"district":{"key":"05762","name":"Höxter","type":"Kreis"},"federalState":{"key":"05","name":"Nordrhein-Westfalen"}},{"name":"Hoppengrund","postalCode":"34414","locality":"Warburg","municipality":{"key":"05762036","name":"Warburg, Hansestadt","type":"Stadt"},"district":{"key":"05762","name":"Höxter","type":"Kreis"},"federalState":{"key":"05","name":"Nordrhein-Westfalen"}},{"name":"Hörler Str.","postalCode":"34414","locality":"Warburg","municipality":{"key":"05762036","name":"Warburg, Hansestadt","type":"Stadt"},"district":{"key":"05762","name":"Höxter","type":"Kreis"},"federalState":{"key":"05","name":"Nordrhein-Westfalen"}},{"name":"Hospitälergasse","postalCode":"34414","locality":"Warburg","municipality":{"key":"05762036","name":"Warburg, Hansestadt","type":"Stadt"},"district":{"key":"05762","name":"Höxter","type":"Kreis"},"federalState":{"key":"05","name":"Nordrhein-Westfalen"}},{"name":"Hüffertstr.","postalCode":"34414","locality":"Warburg","municipality":{"key":"05762036","name":"Warburg, Hansestadt","type":"Stadt"},"district":{"key":"05762","name":"Höxter","type":"Kreis"},"federalState":{"key":"05","name":"Nordrhein-Westfalen"}},{"name":"Hugo-Fischer-Weg","postalCode":"34414","locality":"Warburg","municipality":{"key":"05762036","name":"Warburg, Hansestadt","type":"Stadt"},"district":{"key":"05762","name":"Höxter","type":"Kreis"},"federalState":{"key":"05","name":"Nordrhein-Westfalen"}},{"name":"Hunnebreite","postalCode":"34414","locality":"Warburg","municipality":{"key":"05762036","name":"Warburg, Hansestadt","type":"Stadt"},"district":{"key":"05762","name":"Höxter","type":"Kreis"},"federalState":{"key":"05","name":"Nordrhein-Westfalen"}},{"name":"Huweg","postalCode":"34414","locality":"Warburg","municipality":{"key":"05762036","name":"Warburg, Hansestadt","type":"Stadt"},"district":{"key":"05762","name":"Höxter","type":"Kreis"},"federalState":{"key":"05","name":"Nordrhein-Westfalen"}},{"name":"Ikenhauser Str.","postalCode":"34414","locality":"Warburg","municipality":{"key":"05762036","name":"Warburg, Hansestadt","type":"Stadt"},"district":{"key":"05762","name":"Höxter","type":"Kreis"},"federalState":{"key":"05","name":"Nordrhein-Westfalen"}},{"name":"Im Bogen","postalCode":"34414","locality":"Warburg","municipality":{"key":"05762036","name":"Warburg, Hansestadt","type":"Stadt"},"district":{"key":"05762","name":"Höxter","type":"Kreis"},"federalState":{"key":"05","name":"Nordrhein-Westfalen"}},{"name":"Im Dorning","postalCode":"34414","locality":"Warburg","municipality":{"key":"05762036","name":"Warburg, Hansestadt","type":"Stadt"},"district":{"key":"05762","name":"Höxter","type":"Kreis"},"federalState":{"key":"05","name":"Nordrhein-Westfalen"}},{"name":"Im Gefälle","postalCode":"34414","locality":"Warburg","municipality":{"key":"05762036","name":"Warburg, Hansestadt","type":"Stadt"},"district":{"key":"05762","name":"Höxter","type":"Kreis"},"federalState":{"key":"05","name":"Nordrhein-Westfalen"}},{"name":"Im Giershagen","postalCode":"34414","locality":"Warburg","municipality":{"key":"05762036","name":"Warburg, Hansestadt","type":"Stadt"},"district":{"key":"05762","name":"Höxter","type":"Kreis"},"federalState":{"key":"05","name":"Nordrhein-Westfalen"}},{"name":"Im Graben","postalCode":"34414","locality":"Warburg","municipality":{"key":"05762036","name":"Warburg, Hansestadt","type":"Stadt"},"district":{"key":"05762","name":"Höxter","type":"Kreis"},"federalState":{"key":"05","name":"Nordrhein-Westfalen"}},{"name":"Im Hagen","postalCode":"34414","locality":"Warburg","municipality":{"key":"05762036","name":"Warburg, Hansestadt","type":"Stadt"},"district":{"key":"05762","name":"Höxter","type":"Kreis"},"federalState":{"key":"05","name":"Nordrhein-Westfalen"}},{"name":"Im Isental","postalCode":"34414","locality":"Warburg","municipality":{"key":"05762036","name":"Warburg, Hansestadt","type":"Stadt"},"district":{"key":"05762","name":"Höxter","type":"Kreis"},"federalState":{"key":"05","name":"Nordrhein-Westfalen"}},{"name":"Im Kamp","postalCode":"34414","locality":"Warburg","municipality":{"key":"05762036","name":"Warburg, Hansestadt","type":"Stadt"},"district":{"key":"05762","name":"Höxter","type":"Kreis"},"federalState":{"key":"05","name":"Nordrhein-Westfalen"}},{"name":"Im Kirchgrund","postalCode":"34414","locality":"Warburg","municipality":{"key":"05762036","name":"Warburg, Hansestadt","type":"Stadt"},"district":{"key":"05762","name":"Höxter","type":"Kreis"},"federalState":{"key":"05","name":"Nordrhein-Westfalen"}},{"name":"Im Klee","postalCode":"34414","locality":"Warburg","municipality":{"key":"05762036","name":"Warburg, Hansestadt","type":"Stadt"},"district":{"key":"05762","name":"Höxter","type":"Kreis"},"federalState":{"key":"05","name":"Nordrhein-Westfalen"}},{"name":"Im Kleinen Feld","postalCode":"34414","locality":"Warburg","municipality":{"key":"05762036","name":"Warburg, Hansestadt","type":"Stadt"},"district":{"key":"05762","name":"Höxter","type":"Kreis"},"federalState":{"key":"05","name":"Nordrhein-Westfalen"}},{"name":"Im Kniep","postalCode":"34414","locality":"Warburg","municipality":{"key":"05762036","name":"Warburg, Hansestadt","type":"Stadt"},"district":{"key":"05762","name":"Höxter","type":"Kreis"},"federalState":{"key":"05","name":"Nordrhein-Westfalen"}},{"name":"Im Siek","postalCode":"34414","locality":"Warburg","municipality":{"key":"05762036","name":"Warburg, Hansestadt","type":"Stadt"},"district":{"key":"05762","name":"Höxter","type":"Kreis"},"federalState":{"key":"05","name":"Nordrhein-Westfalen"}},{"name":"Im Spring","postalCode":"34414","locality":"Warburg","municipality":{"key":"05762036","name":"Warburg, Hansestadt","type":"Stadt"},"district":{"key":"05762","name":"Höxter","type":"Kreis"},"federalState":{"key":"05","name":"Nordrhein-Westfalen"}},{"name":"Imweg","postalCode":"34414","locality":"Warburg","municipality":{"key":"05762036","name":"Warburg, Hansestadt","type":"Stadt"},"district":{"key":"05762","name":"Höxter","type":"Kreis"},"federalState":{"key":"05","name":"Nordrhein-Westfalen"}},{"name":"Im Winkel","postalCode":"34414","locality":"Warburg","municipality":{"key":"05762036","name":"Warburg, Hansestadt","type":"Stadt"},"district":{"key":"05762","name":"Höxter","type":"Kreis"},"federalState":{"key":"05","name":"Nordrhein-Westfalen"}},{"name":"In der Ecke","postalCode":"34414","locality":"Warburg","municipality":{"key":"05762036","name":"Warburg, Hansestadt","type":"Stadt"},"district":{"key":"05762","name":"Höxter","type":"Kreis"},"federalState":{"key":"05","name":"Nordrhein-Westfalen"}},{"name":"In der Helle","postalCode":"34414","locality":"Warburg","municipality":{"key":"05762036","name":"Warburg, Hansestadt","type":"Stadt"},"district":{"key":"05762","name":"Höxter","type":"Kreis"},"federalState":{"key":"05","name":"Nordrhein-Westfalen"}},{"name":"Industriestr.","postalCode":"34414","locality":"Warburg","municipality":{"key":"05762036","name":"Warburg, Hansestadt","type":"Stadt"},"district":{"key":"05762","name":"Höxter","type":"Kreis"},"federalState":{"key":"05","name":"Nordrhein-Westfalen"}},{"name":"Jägerpfad","postalCode":"34414","locality":"Warburg","municipality":{"key":"05762036","name":"Warburg, Hansestadt","type":"Stadt"},"district":{"key":"05762","name":"Höxter","type":"Kreis"},"federalState":{"key":"05","name":"Nordrhein-Westfalen"}},{"name":"Johann-Conrad-Schlaun-Str.","postalCode":"34414","locality":"Warburg","municipality":{"key":"05762036","name":"Warburg, Hansestadt","type":"Stadt"},"district":{"key":"05762","name":"Höxter","type":"Kreis"},"federalState":{"key":"05","name":"Nordrhein-Westfalen"}},{"name":"Johannistorstr.","postalCode":"34414","locality":"Warburg","municipality":{"key":"05762036","name":"Warburg, Hansestadt","type":"Stadt"},"district":{"key":"05762","name":"Höxter","type":"Kreis"},"federalState":{"key":"05","name":"Nordrhein-Westfalen"}},{"name":"Josef-Kohlschein-Str.","postalCode":"34414","locality":"Warburg","municipality":{"key":"05762036","name":"Warburg, Hansestadt","type":"Stadt"},"district":{"key":"05762","name":"Höxter","type":"Kreis"},"federalState":{"key":"05","name":"Nordrhein-Westfalen"}},{"name":"Josef-Wirmer-Str.","postalCode":"34414","locality":"Warburg","municipality":{"key":"05762036","name":"Warburg, Hansestadt","type":"Stadt"},"district":{"key":"05762","name":"Höxter","type":"Kreis"},"federalState":{"key":"05","name":"Nordrhein-Westfalen"}},{"name":"Kalandstr.","postalCode":"34414","locality":"Warburg","municipality":{"key":"05762036","name":"Warburg, Hansestadt","type":"Stadt"},"district":{"key":"05762","name":"Höxter","type":"Kreis"},"federalState":{"key":"05","name":"Nordrhein-Westfalen"}},{"name":"Kansteinweg","postalCode":"34414","locality":"Warburg","municipality":{"key":"05762036","name":"Warburg, Hansestadt","type":"Stadt"},"district":{"key":"05762","name":"Höxter","type":"Kreis"},"federalState":{"key":"05","name":"Nordrhein-Westfalen"}},{"name":"Kapellenweg","postalCode":"34414","locality":"Warburg","municipality":{"key":"05762036","name":"Warburg, Hansestadt","type":"Stadt"},"district":{"key":"05762","name":"Höxter","type":"Kreis"},"federalState":{"key":"05","name":"Nordrhein-Westfalen"}},{"name":"Kardieksweg","postalCode":"34414","locality":"Warburg","municipality":{"key":"05762036","name":"Warburg, Hansestadt","type":"Stadt"},"district":{"key":"05762","name":"Höxter","type":"Kreis"},"federalState":{"key":"05","name":"Nordrhein-Westfalen"}},{"name":"Karl-Hofer-Str.","postalCode":"34414","locality":"Warburg","municipality":{"key":"05762036","name":"Warburg, Hansestadt","type":"Stadt"},"district":{"key":"05762","name":"Höxter","type":"Kreis"},"federalState":{"key":"05","name":"Nordrhein-Westfalen"}},{"name":"Karl-Lippert-Weg","postalCode":"34414","locality":"Warburg","municipality":{"key":"05762036","name":"Warburg, Hansestadt","type":"Stadt"},"district":{"key":"05762","name":"Höxter","type":"Kreis"},"federalState":{"key":"05","name":"Nordrhein-Westfalen"}},{"name":"Kasseler Str.","postalCode":"34414","locality":"Warburg","municipality":{"key":"05762036","name":"Warburg, Hansestadt","type":"Stadt"},"district":{"key":"05762","name":"Höxter","type":"Kreis"},"federalState":{"key":"05","name":"Nordrhein-Westfalen"}},{"name":"Kasseler Tor","postalCode":"34414","locality":"Warburg","municipality":{"key":"05762036","name":"Warburg, Hansestadt","type":"Stadt"},"district":{"key":"05762","name":"Höxter","type":"Kreis"},"federalState":{"key":"05","name":"Nordrhein-Westfalen"}},{"name":"Kastanienweg","postalCode":"34414","locality":"Warburg","municipality":{"key":"05762036","name":"Warburg, Hansestadt","type":"Stadt"},"district":{"key":"05762","name":"Höxter","type":"Kreis"},"federalState":{"key":"05","name":"Nordrhein-Westfalen"}},{"name":"Kehlbergweg","postalCode":"34414","locality":"Warburg","municipality":{"key":"05762036","name":"Warburg, Hansestadt","type":"Stadt"},"district":{"key":"05762","name":"Höxter","type":"Kreis"},"federalState":{"key":"05","name":"Nordrhein-Westfalen"}},{"name":"Kellberg","postalCode":"34414","locality":"Warburg","municipality":{"key":"05762036","name":"Warburg, Hansestadt","type":"Stadt"},"district":{"key":"05762","name":"Höxter","type":"Kreis"},"federalState":{"key":"05","name":"Nordrhein-Westfalen"}},{"name":"Kernstr.","postalCode":"34414","locality":"Warburg","municipality":{"key":"05762036","name":"Warburg, Hansestadt","type":"Stadt"},"district":{"key":"05762","name":"Höxter","type":"Kreis"},"federalState":{"key":"05","name":"Nordrhein-Westfalen"}},{"name":"Kerspöhle","postalCode":"34414","locality":"Warburg","municipality":{"key":"05762036","name":"Warburg, Hansestadt","type":"Stadt"},"district":{"key":"05762","name":"Höxter","type":"Kreis"},"federalState":{"key":"05","name":"Nordrhein-Westfalen"}},{"name":"Kilianstr.","postalCode":"34414","locality":"Warburg","municipality":{"key":"05762036","name":"Warburg, Hansestadt","type":"Stadt"},"district":{"key":"05762","name":"Höxter","type":"Kreis"},"federalState":{"key":"05","name":"Nordrhein-Westfalen"}},{"name":"Kirchberg","postalCode":"34414","locality":"Warburg","municipality":{"key":"05762036","name":"Warburg, Hansestadt","type":"Stadt"},"district":{"key":"05762","name":"Höxter","type":"Kreis"},"federalState":{"key":"05","name":"Nordrhein-Westfalen"}},{"name":"Kirchplatz","postalCode":"34414","locality":"Warburg","municipality":{"key":"05762036","name":"Warburg, Hansestadt","type":"Stadt"},"district":{"key":"05762","name":"Höxter","type":"Kreis"},"federalState":{"key":"05","name":"Nordrhein-Westfalen"}},{"name":"Kirchstr.","postalCode":"34414","locality":"Warburg","municipality":{"key":"05762036","name":"Warburg, Hansestadt","type":"Stadt"},"district":{"key":"05762","name":"Höxter","type":"Kreis"},"federalState":{"key":"05","name":"Nordrhein-Westfalen"}},{"name":"Kleebrede","postalCode":"34414","locality":"Warburg","municipality":{"key":"05762036","name":"Warburg, Hansestadt","type":"Stadt"},"district":{"key":"05762","name":"Höxter","type":"Kreis"},"federalState":{"key":"05","name":"Nordrhein-Westfalen"}},{"name":"Kleine Worth","postalCode":"34414","locality":"Warburg","municipality":{"key":"05762036","name":"Warburg, Hansestadt","type":"Stadt"},"district":{"key":"05762","name":"Höxter","type":"Kreis"},"federalState":{"key":"05","name":"Nordrhein-Westfalen"}},{"name":"Klingenburger Str.","postalCode":"34414","locality":"Warburg","municipality":{"key":"05762036","name":"Warburg, Hansestadt","type":"Stadt"},"district":{"key":"05762","name":"Höxter","type":"Kreis"},"federalState":{"key":"05","name":"Nordrhein-Westfalen"}},{"name":"Klockenstr.","postalCode":"34414","locality":"Warburg","municipality":{"key":"05762036","name":"Warburg, Hansestadt","type":"Stadt"},"district":{"key":"05762","name":"Höxter","type":"Kreis"},"federalState":{"key":"05","name":"Nordrhein-Westfalen"}},{"name":"Klostergut","postalCode":"34414","locality":"Warburg","municipality":{"key":"05762036","name":"Warburg, Hansestadt","type":"Stadt"},"district":{"key":"05762","name":"Höxter","type":"Kreis"},"federalState":{"key":"05","name":"Nordrhein-Westfalen"}},{"name":"Klosterstr.","postalCode":"34414","locality":"Warburg","municipality":{"key":"05762036","name":"Warburg, Hansestadt","type":"Stadt"},"district":{"key":"05762","name":"Höxter","type":"Kreis"},"federalState":{"key":"05","name":"Nordrhein-Westfalen"}},{"name":"Knickhagen","postalCode":"34414","locality":"Warburg","municipality":{"key":"05762036","name":"Warburg, Hansestadt","type":"Stadt"},"district":{"key":"05762","name":"Höxter","type":"Kreis"},"federalState":{"key":"05","name":"Nordrhein-Westfalen"}},{"name":"Kohlbreite","postalCode":"34414","locality":"Warburg","municipality":{"key":"05762036","name":"Warburg, Hansestadt","type":"Stadt"},"district":{"key":"05762","name":"Höxter","type":"Kreis"},"federalState":{"key":"05","name":"Nordrhein-Westfalen"}},{"name":"Kollwitzstr.","postalCode":"34414","locality":"Warburg","municipality":{"key":"05762036","name":"Warburg, Hansestadt","type":"Stadt"},"district":{"key":"05762","name":"Höxter","type":"Kreis"},"federalState":{"key":"05","name":"Nordrhein-Westfalen"}},{"name":"Königsberger Str.","postalCode":"34414","locality":"Warburg","municipality":{"key":"05762036","name":"Warburg, Hansestadt","type":"Stadt"},"district":{"key":"05762","name":"Höxter","type":"Kreis"},"federalState":{"key":"05","name":"Nordrhein-Westfalen"}},{"name":"Königstr.","postalCode":"34414","locality":"Warburg","municipality":{"key":"05762036","name":"Warburg, Hansestadt","type":"Stadt"},"district":{"key":"05762","name":"Höxter","type":"Kreis"},"federalState":{"key":"05","name":"Nordrhein-Westfalen"}},{"name":"Konrad-von-Soest-Str.","postalCode":"34414","locality":"Warburg","municipality":{"key":"05762036","name":"Warburg, Hansestadt","type":"Stadt"},"district":{"key":"05762","name":"Höxter","type":"Kreis"},"federalState":{"key":"05","name":"Nordrhein-Westfalen"}},{"name":"Kreutzfeld","postalCode":"34414","locality":"Warburg","municipality":{"key":"05762036","name":"Warburg, Hansestadt","type":"Stadt"},"district":{"key":"05762","name":"Höxter","type":"Kreis"},"federalState":{"key":"05","name":"Nordrhein-Westfalen"}},{"name":"Kreuzkirchstr.","postalCode":"34414","locality":"Warburg","municipality":{"key":"05762036","name":"Warburg, Hansestadt","type":"Stadt"},"district":{"key":"05762","name":"Höxter","type":"Kreis"},"federalState":{"key":"05","name":"Nordrhein-Westfalen"}},{"name":"Kriminixstr.","postalCode":"34414","locality":"Warburg","municipality":{"key":"05762036","name":"Warburg, Hansestadt","type":"Stadt"},"district":{"key":"05762","name":"Höxter","type":"Kreis"},"federalState":{"key":"05","name":"Nordrhein-Westfalen"}},{"name":"Kuhdrift","postalCode":"34414","locality":"Warburg","municipality":{"key":"05762036","name":"Warburg, Hansestadt","type":"Stadt"},"district":{"key":"05762","name":"Höxter","type":"Kreis"},"federalState":{"key":"05","name":"Nordrhein-Westfalen"}},{"name":"Kuhtrift","postalCode":"34414","locality":"Warburg","municipality":{"key":"05762036","name":"Warburg, Hansestadt","type":"Stadt"},"district":{"key":"05762","name":"Höxter","type":"Kreis"},"federalState":{"key":"05","name":"Nordrhein-Westfalen"}},{"name":"Kurgartenblick","postalCode":"34414","locality":"Warburg","municipality":{"key":"05762036","name":"Warburg, Hansestadt","type":"Stadt"},"district":{"key":"05762","name":"Höxter","type":"Kreis"},"federalState":{"key":"05","name":"Nordrhein-Westfalen"}},{"name":"Kurpark","postalCode":"34414","locality":"Warburg","municipality":{"key":"05762036","name":"Warburg, Hansestadt","type":"Stadt"},"district":{"key":"05762","name":"Höxter","type":"Kreis"},"federalState":{"key":"05","name":"Nordrhein-Westfalen"}},{"name":"Kurze Breite","postalCode":"34414","locality":"Warburg","municipality":{"key":"05762036","name":"Warburg, Hansestadt","type":"Stadt"},"district":{"key":"05762","name":"Höxter","type":"Kreis"},"federalState":{"key":"05","name":"Nordrhein-Westfalen"}},{"name":"Landfurt","postalCode":"34414","locality":"Warburg","municipality":{"key":"05762036","name":"Warburg, Hansestadt","type":"Stadt"},"district":{"key":"05762","name":"Höxter","type":"Kreis"},"federalState":{"key":"05","name":"Nordrhein-Westfalen"}},{"name":"Lange Ricke","postalCode":"34414","locality":"Warburg","municipality":{"key":"05762036","name":"Warburg, Hansestadt","type":"Stadt"},"district":{"key":"05762","name":"Höxter","type":"Kreis"},"federalState":{"key":"05","name":"Nordrhein-Westfalen"}},{"name":"Lange Str.","postalCode":"34414","locality":"Warburg","municipality":{"key":"05762036","name":"Warburg, Hansestadt","type":"Stadt"},"district":{"key":"05762","name":"Höxter","type":"Kreis"},"federalState":{"key":"05","name":"Nordrhein-Westfalen"}},{"name":"Lange Twete","postalCode":"34414","locality":"Warburg","municipality":{"key":"05762036","name":"Warburg, Hansestadt","type":"Stadt"},"district":{"key":"05762","name":"Höxter","type":"Kreis"},"federalState":{"key":"05","name":"Nordrhein-Westfalen"}},{"name":"Lange Wanne","postalCode":"34414","locality":"Warburg","municipality":{"key":"05762036","name":"Warburg, Hansestadt","type":"Stadt"},"district":{"key":"05762","name":"Höxter","type":"Kreis"},"federalState":{"key":"05","name":"Nordrhein-Westfalen"}},{"name":"Laubenallee","postalCode":"34414","locality":"Warburg","municipality":{"key":"05762036","name":"Warburg, Hansestadt","type":"Stadt"},"district":{"key":"05762","name":"Höxter","type":"Kreis"},"federalState":{"key":"05","name":"Nordrhein-Westfalen"}},{"name":"Laukerweg","postalCode":"34414","locality":"Warburg","municipality":{"key":"05762036","name":"Warburg, Hansestadt","type":"Stadt"},"district":{"key":"05762","name":"Höxter","type":"Kreis"},"federalState":{"key":"05","name":"Nordrhein-Westfalen"}},{"name":"Laurentiusweg","postalCode":"34414","locality":"Warburg","municipality":{"key":"05762036","name":"Warburg, Hansestadt","type":"Stadt"},"district":{"key":"05762","name":"Höxter","type":"Kreis"},"federalState":{"key":"05","name":"Nordrhein-Westfalen"}},{"name":"Lawinkelhöfe","postalCode":"34414","locality":"Warburg","municipality":{"key":"05762036","name":"Warburg, Hansestadt","type":"Stadt"},"district":{"key":"05762","name":"Höxter","type":"Kreis"},"federalState":{"key":"05","name":"Nordrhein-Westfalen"}},{"name":"Ledegemstr.","postalCode":"34414","locality":"Warburg","municipality":{"key":"05762036","name":"Warburg, Hansestadt","type":"Stadt"},"district":{"key":"05762","name":"Höxter","type":"Kreis"},"federalState":{"key":"05","name":"Nordrhein-Westfalen"}},{"name":"Lehmkuhle","postalCode":"34414","locality":"Warburg","municipality":{"key":"05762036","name":"Warburg, Hansestadt","type":"Stadt"},"district":{"key":"05762","name":"Höxter","type":"Kreis"},"federalState":{"key":"05","name":"Nordrhein-Westfalen"}},{"name":"Lehmweg","postalCode":"34414","locality":"Warburg","municipality":{"key":"05762036","name":"Warburg, Hansestadt","type":"Stadt"},"district":{"key":"05762","name":"Höxter","type":"Kreis"},"federalState":{"key":"05","name":"Nordrhein-Westfalen"}},{"name":"Lerchenweg","postalCode":"34414","locality":"Warburg","municipality":{"key":"05762036","name":"Warburg, Hansestadt","type":"Stadt"},"district":{"key":"05762","name":"Höxter","type":"Kreis"},"federalState":{"key":"05","name":"Nordrhein-Westfalen"}},{"name":"Lessingstr.","postalCode":"34414","locality":"Warburg","municipality":{"key":"05762036","name":"Warburg, Hansestadt","type":"Stadt"},"district":{"key":"05762","name":"Höxter","type":"Kreis"},"federalState":{"key":"05","name":"Nordrhein-Westfalen"}},{"name":"Liboriusgässchen","postalCode":"34414","locality":"Warburg","municipality":{"key":"05762036","name":"Warburg, Hansestadt","type":"Stadt"},"district":{"key":"05762","name":"Höxter","type":"Kreis"},"federalState":{"key":"05","name":"Nordrhein-Westfalen"}},{"name":"Liegnitzer Str.","postalCode":"34414","locality":"Warburg","municipality":{"key":"05762036","name":"Warburg, Hansestadt","type":"Stadt"},"district":{"key":"05762","name":"Höxter","type":"Kreis"},"federalState":{"key":"05","name":"Nordrhein-Westfalen"}},{"name":"Lindenhofstr.","postalCode":"34414","locality":"Warburg","municipality":{"key":"05762036","name":"Warburg, Hansestadt","type":"Stadt"},"district":{"key":"05762","name":"Höxter","type":"Kreis"},"federalState":{"key":"05","name":"Nordrhein-Westfalen"}},{"name":"Lindenweg","postalCode":"34414","locality":"Warburg","municipality":{"key":"05762036","name":"Warburg, Hansestadt","type":"Stadt"},"district":{"key":"05762","name":"Höxter","type":"Kreis"},"federalState":{"key":"05","name":"Nordrhein-Westfalen"}},{"name":"Lingerbreite","postalCode":"34414","locality":"Warburg","municipality":{"key":"05762036","name":"Warburg, Hansestadt","type":"Stadt"},"district":{"key":"05762","name":"Höxter","type":"Kreis"},"federalState":{"key":"05","name":"Nordrhein-Westfalen"}},{"name":"Lönsstr.","postalCode":"34414","locality":"Warburg","municipality":{"key":"05762036","name":"Warburg, Hansestadt","type":"Stadt"},"district":{"key":"05762","name":"Höxter","type":"Kreis"},"federalState":{"key":"05","name":"Nordrhein-Westfalen"}},{"name":"Luckaustr.","postalCode":"34414","locality":"Warburg","municipality":{"key":"05762036","name":"Warburg, Hansestadt","type":"Stadt"},"district":{"key":"05762","name":"Höxter","type":"Kreis"},"federalState":{"key":"05","name":"Nordrhein-Westfalen"}},{"name":"Lütgenederer Str.","postalCode":"34414","locality":"Warburg","municipality":{"key":"05762036","name":"Warburg, Hansestadt","type":"Stadt"},"district":{"key":"05762","name":"Höxter","type":"Kreis"},"federalState":{"key":"05","name":"Nordrhein-Westfalen"}},{"name":"Lütgerweg","postalCode":"34414","locality":"Warburg","municipality":{"key":"05762036","name":"Warburg, Hansestadt","type":"Stadt"},"district":{"key":"05762","name":"Höxter","type":"Kreis"},"federalState":{"key":"05","name":"Nordrhein-Westfalen"}},{"name":"Lütkefeld","postalCode":"34414","locality":"Warburg","municipality":{"key":"05762036","name":"Warburg, Hansestadt","type":"Stadt"},"district":{"key":"05762","name":"Höxter","type":"Kreis"},"federalState":{"key":"05","name":"Nordrhein-Westfalen"}},{"name":"Margarethenhöhe","postalCode":"34414","locality":"Warburg","municipality":{"key":"05762036","name":"Warburg, Hansestadt","type":"Stadt"},"district":{"key":"05762","name":"Höxter","type":"Kreis"},"federalState":{"key":"05","name":"Nordrhein-Westfalen"}},{"name":"Margarethenweg","postalCode":"34414","locality":"Warburg","municipality":{"key":"05762036","name":"Warburg, Hansestadt","type":"Stadt"},"district":{"key":"05762","name":"Höxter","type":"Kreis"},"federalState":{"key":"05","name":"Nordrhein-Westfalen"}},{"name":"Marienweg","postalCode":"34414","locality":"Warburg","municipality":{"key":"05762036","name":"Warburg, Hansestadt","type":"Stadt"},"district":{"key":"05762","name":"Höxter","type":"Kreis"},"federalState":{"key":"05","name":"Nordrhein-Westfalen"}},{"name":"Markt","postalCode":"34414","locality":"Warburg","municipality":{"key":"05762036","name":"Warburg, Hansestadt","type":"Stadt"},"district":{"key":"05762","name":"Höxter","type":"Kreis"},"federalState":{"key":"05","name":"Nordrhein-Westfalen"}},{"name":"Marktstr.","postalCode":"34414","locality":"Warburg","municipality":{"key":"05762036","name":"Warburg, Hansestadt","type":"Stadt"},"district":{"key":"05762","name":"Höxter","type":"Kreis"},"federalState":{"key":"05","name":"Nordrhein-Westfalen"}},{"name":"Maschweg","postalCode":"34414","locality":"Warburg","municipality":{"key":"05762036","name":"Warburg, Hansestadt","type":"Stadt"},"district":{"key":"05762","name":"Höxter","type":"Kreis"},"federalState":{"key":"05","name":"Nordrhein-Westfalen"}},{"name":"Mastfeld","postalCode":"34414","locality":"Warburg","municipality":{"key":"05762036","name":"Warburg, Hansestadt","type":"Stadt"},"district":{"key":"05762","name":"Höxter","type":"Kreis"},"federalState":{"key":"05","name":"Nordrhein-Westfalen"}},{"name":"Max-Beckmann-Str.","postalCode":"34414","locality":"Warburg","municipality":{"key":"05762036","name":"Warburg, Hansestadt","type":"Stadt"},"district":{"key":"05762","name":"Höxter","type":"Kreis"},"federalState":{"key":"05","name":"Nordrhein-Westfalen"}},{"name":"Meisenweg","postalCode":"34414","locality":"Warburg","municipality":{"key":"05762036","name":"Warburg, Hansestadt","type":"Stadt"},"district":{"key":"05762","name":"Höxter","type":"Kreis"},"federalState":{"key":"05","name":"Nordrhein-Westfalen"}},{"name":"Menner Str.","postalCode":"34414","locality":"Warburg","municipality":{"key":"05762036","name":"Warburg, Hansestadt","type":"Stadt"},"district":{"key":"05762","name":"Höxter","type":"Kreis"},"federalState":{"key":"05","name":"Nordrhein-Westfalen"}},{"name":"Menner Weg","postalCode":"34414","locality":"Warburg","municipality":{"key":"05762036","name":"Warburg, Hansestadt","type":"Stadt"},"district":{"key":"05762","name":"Höxter","type":"Kreis"},"federalState":{"key":"05","name":"Nordrhein-Westfalen"}},{"name":"Milanhöhe","postalCode":"34414","locality":"Warburg","municipality":{"key":"05762036","name":"Warburg, Hansestadt","type":"Stadt"},"district":{"key":"05762","name":"Höxter","type":"Kreis"},"federalState":{"key":"05","name":"Nordrhein-Westfalen"}},{"name":"Mittelstr.","postalCode":"34414","locality":"Warburg","municipality":{"key":"05762036","name":"Warburg, Hansestadt","type":"Stadt"},"district":{"key":"05762","name":"Höxter","type":"Kreis"},"federalState":{"key":"05","name":"Nordrhein-Westfalen"}},{"name":"Mittlerer Hangweg","postalCode":"34414","locality":"Warburg","municipality":{"key":"05762036","name":"Warburg, Hansestadt","type":"Stadt"},"district":{"key":"05762","name":"Höxter","type":"Kreis"},"federalState":{"key":"05","name":"Nordrhein-Westfalen"}},{"name":"Molkereiweg","postalCode":"34414","locality":"Warburg","municipality":{"key":"05762036","name":"Warburg, Hansestadt","type":"Stadt"},"district":{"key":"05762","name":"Höxter","type":"Kreis"},"federalState":{"key":"05","name":"Nordrhein-Westfalen"}},{"name":"Mönchhof","postalCode":"34414","locality":"Warburg","municipality":{"key":"05762036","name":"Warburg, Hansestadt","type":"Stadt"},"district":{"key":"05762","name":"Höxter","type":"Kreis"},"federalState":{"key":"05","name":"Nordrhein-Westfalen"}},{"name":"Mozartstr.","postalCode":"34414","locality":"Warburg","municipality":{"key":"05762036","name":"Warburg, Hansestadt","type":"Stadt"},"district":{"key":"05762","name":"Höxter","type":"Kreis"},"federalState":{"key":"05","name":"Nordrhein-Westfalen"}},{"name":"Muddenkamp","postalCode":"34414","locality":"Warburg","municipality":{"key":"05762036","name":"Warburg, Hansestadt","type":"Stadt"},"district":{"key":"05762","name":"Höxter","type":"Kreis"},"federalState":{"key":"05","name":"Nordrhein-Westfalen"}},{"name":"Mühlenweg","postalCode":"34414","locality":"Warburg","municipality":{"key":"05762036","name":"Warburg, Hansestadt","type":"Stadt"},"district":{"key":"05762","name":"Höxter","type":"Kreis"},"federalState":{"key":"05","name":"Nordrhein-Westfalen"}},{"name":"Nauretal","postalCode":"34414","locality":"Warburg","municipality":{"key":"05762036","name":"Warburg, Hansestadt","type":"Stadt"},"district":{"key":"05762","name":"Höxter","type":"Kreis"},"federalState":{"key":"05","name":"Nordrhein-Westfalen"}},{"name":"Neu-Calenberger-Weg","postalCode":"34414","locality":"Warburg","municipality":{"key":"05762036","name":"Warburg, Hansestadt","type":"Stadt"},"district":{"key":"05762","name":"Höxter","type":"Kreis"},"federalState":{"key":"05","name":"Nordrhein-Westfalen"}},{"name":"Neuer Weg","postalCode":"34414","locality":"Warburg","municipality":{"key":"05762036","name":"Warburg, Hansestadt","type":"Stadt"},"district":{"key":"05762","name":"Höxter","type":"Kreis"},"federalState":{"key":"05","name":"Nordrhein-Westfalen"}},{"name":"Neue Siedlung","postalCode":"34414","locality":"Warburg","municipality":{"key":"05762036","name":"Warburg, Hansestadt","type":"Stadt"},"district":{"key":"05762","name":"Höxter","type":"Kreis"},"federalState":{"key":"05","name":"Nordrhein-Westfalen"}},{"name":"Neues Tor","postalCode":"34414","locality":"Warburg","municipality":{"key":"05762036","name":"Warburg, Hansestadt","type":"Stadt"},"district":{"key":"05762","name":"Höxter","type":"Kreis"},"federalState":{"key":"05","name":"Nordrhein-Westfalen"}},{"name":"Nikolausstr.","postalCode":"34414","locality":"Warburg","municipality":{"key":"05762036","name":"Warburg, Hansestadt","type":"Stadt"},"district":{"key":"05762","name":"Höxter","type":"Kreis"},"federalState":{"key":"05","name":"Nordrhein-Westfalen"}},{"name":"Nörder Str.","postalCode":"34414","locality":"Warburg","municipality":{"key":"05762036","name":"Warburg, Hansestadt","type":"Stadt"},"district":{"key":"05762","name":"Höxter","type":"Kreis"},"federalState":{"key":"05","name":"Nordrhein-Westfalen"}},{"name":"Nordstr.","postalCode":"34414","locality":"Warburg","municipality":{"key":"05762036","name":"Warburg, Hansestadt","type":"Stadt"},"district":{"key":"05762","name":"Höxter","type":"Kreis"},"federalState":{"key":"05","name":"Nordrhein-Westfalen"}},{"name":"Northeimer Str.","postalCode":"34414","locality":"Warburg","municipality":{"key":"05762036","name":"Warburg, Hansestadt","type":"Stadt"},"district":{"key":"05762","name":"Höxter","type":"Kreis"},"federalState":{"key":"05","name":"Nordrhein-Westfalen"}},{"name":"Nussbreite","postalCode":"34414","locality":"Warburg","municipality":{"key":"05762036","name":"Warburg, Hansestadt","type":"Stadt"},"district":{"key":"05762","name":"Höxter","type":"Kreis"},"federalState":{"key":"05","name":"Nordrhein-Westfalen"}},{"name":"Obere Bergstr.","postalCode":"34414","locality":"Warburg","municipality":{"key":"05762036","name":"Warburg, Hansestadt","type":"Stadt"},"district":{"key":"05762","name":"Höxter","type":"Kreis"},"federalState":{"key":"05","name":"Nordrhein-Westfalen"}},{"name":"Obere Hilgenstock","postalCode":"34414","locality":"Warburg","municipality":{"key":"05762036","name":"Warburg, Hansestadt","type":"Stadt"},"district":{"key":"05762","name":"Höxter","type":"Kreis"},"federalState":{"key":"05","name":"Nordrhein-Westfalen"}},{"name":"Oberer Hangweg","postalCode":"34414","locality":"Warburg","municipality":{"key":"05762036","name":"Warburg, Hansestadt","type":"Stadt"},"district":{"key":"05762","name":"Höxter","type":"Kreis"},"federalState":{"key":"05","name":"Nordrhein-Westfalen"}},{"name":"Oberer Weg","postalCode":"34414","locality":"Warburg","municipality":{"key":"05762036","name":"Warburg, Hansestadt","type":"Stadt"},"district":{"key":"05762","name":"Höxter","type":"Kreis"},"federalState":{"key":"05","name":"Nordrhein-Westfalen"}},{"name":"Obere Sülte","postalCode":"34414","locality":"Warburg","municipality":{"key":"05762036","name":"Warburg, Hansestadt","type":"Stadt"},"district":{"key":"05762","name":"Höxter","type":"Kreis"},"federalState":{"key":"05","name":"Nordrhein-Westfalen"}},{"name":"Obere Wiese","postalCode":"34414","locality":"Warburg","municipality":{"key":"05762036","name":"Warburg, Hansestadt","type":"Stadt"},"district":{"key":"05762","name":"Höxter","type":"Kreis"},"federalState":{"key":"05","name":"Nordrhein-Westfalen"}},{"name":"Ohmeweg","postalCode":"34414","locality":"Warburg","municipality":{"key":"05762036","name":"Warburg, Hansestadt","type":"Stadt"},"district":{"key":"05762","name":"Höxter","type":"Kreis"},"federalState":{"key":"05","name":"Nordrhein-Westfalen"}},{"name":"Ossendorfer Str.","postalCode":"34414","locality":"Warburg","municipality":{"key":"05762036","name":"Warburg, Hansestadt","type":"Stadt"},"district":{"key":"05762","name":"Höxter","type":"Kreis"},"federalState":{"key":"05","name":"Nordrhein-Westfalen"}},{"name":"Oststr.","postalCode":"34414","locality":"Warburg","municipality":{"key":"05762036","name":"Warburg, Hansestadt","type":"Stadt"},"district":{"key":"05762","name":"Höxter","type":"Kreis"},"federalState":{"key":"05","name":"Nordrhein-Westfalen"}},{"name":"Ostwestfalenstr.","postalCode":"34414","locality":"Warburg","municipality":{"key":"05762036","name":"Warburg, Hansestadt","type":"Stadt"},"district":{"key":"05762","name":"Höxter","type":"Kreis"},"federalState":{"key":"05","name":"Nordrhein-Westfalen"}},{"name":"Paderborner Str.","postalCode":"34414","locality":"Warburg","municipality":{"key":"05762036","name":"Warburg, Hansestadt","type":"Stadt"},"district":{"key":"05762","name":"Höxter","type":"Kreis"},"federalState":{"key":"05","name":"Nordrhein-Westfalen"}},{"name":"Paderborner Tor","postalCode":"34414","locality":"Warburg","municipality":{"key":"05762036","name":"Warburg, Hansestadt","type":"Stadt"},"district":{"key":"05762","name":"Höxter","type":"Kreis"},"federalState":{"key":"05","name":"Nordrhein-Westfalen"}},{"name":"Papenheimer Str.","postalCode":"34414","locality":"Warburg","municipality":{"key":"05762036","name":"Warburg, Hansestadt","type":"Stadt"},"district":{"key":"05762","name":"Höxter","type":"Kreis"},"federalState":{"key":"05","name":"Nordrhein-Westfalen"}},{"name":"Pappelweg","postalCode":"34414","locality":"Warburg","municipality":{"key":"05762036","name":"Warburg, Hansestadt","type":"Stadt"},"district":{"key":"05762","name":"Höxter","type":"Kreis"},"federalState":{"key":"05","name":"Nordrhein-Westfalen"}},{"name":"Parchwitzer Str.","postalCode":"34414","locality":"Warburg","municipality":{"key":"05762036","name":"Warburg, Hansestadt","type":"Stadt"},"district":{"key":"05762","name":"Höxter","type":"Kreis"},"federalState":{"key":"05","name":"Nordrhein-Westfalen"}},{"name":"Parensengrund","postalCode":"34414","locality":"Warburg","municipality":{"key":"05762036","name":"Warburg, Hansestadt","type":"Stadt"},"district":{"key":"05762","name":"Höxter","type":"Kreis"},"federalState":{"key":"05","name":"Nordrhein-Westfalen"}},{"name":"Parkstr.","postalCode":"34414","locality":"Warburg","municipality":{"key":"05762036","name":"Warburg, Hansestadt","type":"Stadt"},"district":{"key":"05762","name":"Höxter","type":"Kreis"},"federalState":{"key":"05","name":"Nordrhein-Westfalen"}},{"name":"Pastor-Meyer-Weg","postalCode":"34414","locality":"Warburg","municipality":{"key":"05762036","name":"Warburg, Hansestadt","type":"Stadt"},"district":{"key":"05762","name":"Höxter","type":"Kreis"},"federalState":{"key":"05","name":"Nordrhein-Westfalen"}},{"name":"Paul-Klee-Str.","postalCode":"34414","locality":"Warburg","municipality":{"key":"05762036","name":"Warburg, Hansestadt","type":"Stadt"},"district":{"key":"05762","name":"Höxter","type":"Kreis"},"federalState":{"key":"05","name":"Nordrhein-Westfalen"}},{"name":"Peckelsheimer Str.","postalCode":"34414","locality":"Warburg","municipality":{"key":"05762036","name":"Warburg, Hansestadt","type":"Stadt"},"district":{"key":"05762","name":"Höxter","type":"Kreis"},"federalState":{"key":"05","name":"Nordrhein-Westfalen"}},{"name":"Pellenbreite","postalCode":"34414","locality":"Warburg","municipality":{"key":"05762036","name":"Warburg, Hansestadt","type":"Stadt"},"district":{"key":"05762","name":"Höxter","type":"Kreis"},"federalState":{"key":"05","name":"Nordrhein-Westfalen"}},{"name":"Pfalz","postalCode":"34414","locality":"Warburg","municipality":{"key":"05762036","name":"Warburg, Hansestadt","type":"Stadt"},"district":{"key":"05762","name":"Höxter","type":"Kreis"},"federalState":{"key":"05","name":"Nordrhein-Westfalen"}},{"name":"Pfeffergasse","postalCode":"34414","locality":"Warburg","municipality":{"key":"05762036","name":"Warburg, Hansestadt","type":"Stadt"},"district":{"key":"05762","name":"Höxter","type":"Kreis"},"federalState":{"key":"05","name":"Nordrhein-Westfalen"}},{"name":"Pflugweg","postalCode":"34414","locality":"Warburg","municipality":{"key":"05762036","name":"Warburg, Hansestadt","type":"Stadt"},"district":{"key":"05762","name":"Höxter","type":"Kreis"},"federalState":{"key":"05","name":"Nordrhein-Westfalen"}},{"name":"Piepenbrinkgasse","postalCode":"34414","locality":"Warburg","municipality":{"key":"05762036","name":"Warburg, Hansestadt","type":"Stadt"},"district":{"key":"05762","name":"Höxter","type":"Kreis"},"federalState":{"key":"05","name":"Nordrhein-Westfalen"}},{"name":"Pollbrede","postalCode":"34414","locality":"Warburg","municipality":{"key":"05762036","name":"Warburg, Hansestadt","type":"Stadt"},"district":{"key":"05762","name":"Höxter","type":"Kreis"},"federalState":{"key":"05","name":"Nordrhein-Westfalen"}},{"name":"Pöppelhöfenweg","postalCode":"34414","locality":"Warburg","municipality":{"key":"05762036","name":"Warburg, Hansestadt","type":"Stadt"},"district":{"key":"05762","name":"Höxter","type":"Kreis"},"federalState":{"key":"05","name":"Nordrhein-Westfalen"}},{"name":"Posten","postalCode":"34414","locality":"Warburg","municipality":{"key":"05762036","name":"Warburg, Hansestadt","type":"Stadt"},"district":{"key":"05762","name":"Höxter","type":"Kreis"},"federalState":{"key":"05","name":"Nordrhein-Westfalen"}},{"name":"Poststr.","postalCode":"34414","locality":"Warburg","municipality":{"key":"05762036","name":"Warburg, Hansestadt","type":"Stadt"},"district":{"key":"05762","name":"Höxter","type":"Kreis"},"federalState":{"key":"05","name":"Nordrhein-Westfalen"}},{"name":"Pottgasse","postalCode":"34414","locality":"Warburg","municipality":{"key":"05762036","name":"Warburg, Hansestadt","type":"Stadt"},"district":{"key":"05762","name":"Höxter","type":"Kreis"},"federalState":{"key":"05","name":"Nordrhein-Westfalen"}},{"name":"Prälat-Bartels-Str.","postalCode":"34414","locality":"Warburg","municipality":{"key":"05762036","name":"Warburg, Hansestadt","type":"Stadt"},"district":{"key":"05762","name":"Höxter","type":"Kreis"},"federalState":{"key":"05","name":"Nordrhein-Westfalen"}},{"name":"Profitweg","postalCode":"34414","locality":"Warburg","municipality":{"key":"05762036","name":"Warburg, Hansestadt","type":"Stadt"},"district":{"key":"05762","name":"Höxter","type":"Kreis"},"federalState":{"key":"05","name":"Nordrhein-Westfalen"}},{"name":"Prozessionsweg","postalCode":"34414","locality":"Warburg","municipality":{"key":"05762036","name":"Warburg, Hansestadt","type":"Stadt"},"district":{"key":"05762","name":"Höxter","type":"Kreis"},"federalState":{"key":"05","name":"Nordrhein-Westfalen"}},{"name":"Quellenblick","postalCode":"34414","locality":"Warburg","municipality":{"key":"05762036","name":"Warburg, Hansestadt","type":"Stadt"},"district":{"key":"05762","name":"Höxter","type":"Kreis"},"federalState":{"key":"05","name":"Nordrhein-Westfalen"}},{"name":"Quellenstr.","postalCode":"34414","locality":"Warburg","municipality":{"key":"05762036","name":"Warburg, Hansestadt","type":"Stadt"},"district":{"key":"05762","name":"Höxter","type":"Kreis"},"federalState":{"key":"05","name":"Nordrhein-Westfalen"}},{"name":"Rabensweg","postalCode":"34414","locality":"Warburg","municipality":{"key":"05762036","name":"Warburg, Hansestadt","type":"Stadt"},"district":{"key":"05762","name":"Höxter","type":"Kreis"},"federalState":{"key":"05","name":"Nordrhein-Westfalen"}},{"name":"Rennhof","postalCode":"34414","locality":"Warburg","municipality":{"key":"05762036","name":"Warburg, Hansestadt","type":"Stadt"},"district":{"key":"05762","name":"Höxter","type":"Kreis"},"federalState":{"key":"05","name":"Nordrhein-Westfalen"}},{"name":"Rimbecker Str.","postalCode":"34414","locality":"Warburg","municipality":{"key":"05762036","name":"Warburg, Hansestadt","type":"Stadt"},"district":{"key":"05762","name":"Höxter","type":"Kreis"},"federalState":{"key":"05","name":"Nordrhein-Westfalen"}},{"name":"Ringstr.","postalCode":"34414","locality":"Warburg","municipality":{"key":"05762036","name":"Warburg, Hansestadt","type":"Stadt"},"district":{"key":"05762","name":"Höxter","type":"Kreis"},"federalState":{"key":"05","name":"Nordrhein-Westfalen"}},{"name":"Rosenmarienstr.","postalCode":"34414","locality":"Warburg","municipality":{"key":"05762036","name":"Warburg, Hansestadt","type":"Stadt"},"district":{"key":"05762","name":"Höxter","type":"Kreis"},"federalState":{"key":"05","name":"Nordrhein-Westfalen"}},{"name":"Rosenstr.","postalCode":"34414","locality":"Warburg","municipality":{"key":"05762036","name":"Warburg, Hansestadt","type":"Stadt"},"district":{"key":"05762","name":"Höxter","type":"Kreis"},"federalState":{"key":"05","name":"Nordrhein-Westfalen"}},{"name":"Roter Berg","postalCode":"34414","locality":"Warburg","municipality":{"key":"05762036","name":"Warburg, Hansestadt","type":"Stadt"},"district":{"key":"05762","name":"Höxter","type":"Kreis"},"federalState":{"key":"05","name":"Nordrhein-Westfalen"}},{"name":"Roter Grabenweg","postalCode":"34414","locality":"Warburg","municipality":{"key":"05762036","name":"Warburg, Hansestadt","type":"Stadt"},"district":{"key":"05762","name":"Höxter","type":"Kreis"},"federalState":{"key":"05","name":"Nordrhein-Westfalen"}},{"name":"Rothenburg","postalCode":"34414","locality":"Warburg","municipality":{"key":"05762036","name":"Warburg, Hansestadt","type":"Stadt"},"district":{"key":"05762","name":"Höxter","type":"Kreis"},"federalState":{"key":"05","name":"Nordrhein-Westfalen"}},{"name":"Rottheimer Str.","postalCode":"34414","locality":"Warburg","municipality":{"key":"05762036","name":"Warburg, Hansestadt","type":"Stadt"},"district":{"key":"05762","name":"Höxter","type":"Kreis"},"federalState":{"key":"05","name":"Nordrhein-Westfalen"}},{"name":"Rotthof","postalCode":"34414","locality":"Warburg","municipality":{"key":"05762036","name":"Warburg, Hansestadt","type":"Stadt"},"district":{"key":"05762","name":"Höxter","type":"Kreis"},"federalState":{"key":"05","name":"Nordrhein-Westfalen"}},{"name":"Rotthofgasse","postalCode":"34414","locality":"Warburg","municipality":{"key":"05762036","name":"Warburg, Hansestadt","type":"Stadt"},"district":{"key":"05762","name":"Höxter","type":"Kreis"},"federalState":{"key":"05","name":"Nordrhein-Westfalen"}},{"name":"Rottweidenweg","postalCode":"34414","locality":"Warburg","municipality":{"key":"05762036","name":"Warburg, Hansestadt","type":"Stadt"},"district":{"key":"05762","name":"Höxter","type":"Kreis"},"federalState":{"key":"05","name":"Nordrhein-Westfalen"}},{"name":"Sackstr.","postalCode":"34414","locality":"Warburg","municipality":{"key":"05762036","name":"Warburg, Hansestadt","type":"Stadt"},"district":{"key":"05762","name":"Höxter","type":"Kreis"},"federalState":{"key":"05","name":"Nordrhein-Westfalen"}},{"name":"Saldute","postalCode":"34414","locality":"Warburg","municipality":{"key":"05762036","name":"Warburg, Hansestadt","type":"Stadt"},"district":{"key":"05762","name":"Höxter","type":"Kreis"},"federalState":{"key":"05","name":"Nordrhein-Westfalen"}},{"name":"Salzborngasse","postalCode":"34414","locality":"Warburg","municipality":{"key":"05762036","name":"Warburg, Hansestadt","type":"Stadt"},"district":{"key":"05762","name":"Höxter","type":"Kreis"},"federalState":{"key":"05","name":"Nordrhein-Westfalen"}},{"name":"Sankt-Georg-Str.","postalCode":"34414","locality":"Warburg","municipality":{"key":"05762036","name":"Warburg, Hansestadt","type":"Stadt"},"district":{"key":"05762","name":"Höxter","type":"Kreis"},"federalState":{"key":"05","name":"Nordrhein-Westfalen"}},{"name":"Sankt-Johannes-Weg","postalCode":"34414","locality":"Warburg","municipality":{"key":"05762036","name":"Warburg, Hansestadt","type":"Stadt"},"district":{"key":"05762","name":"Höxter","type":"Kreis"},"federalState":{"key":"05","name":"Nordrhein-Westfalen"}},{"name":"Schäferhof","postalCode":"34414","locality":"Warburg","municipality":{"key":"05762036","name":"Warburg, Hansestadt","type":"Stadt"},"district":{"key":"05762","name":"Höxter","type":"Kreis"},"federalState":{"key":"05","name":"Nordrhein-Westfalen"}},{"name":"Schalkstal","postalCode":"34414","locality":"Warburg","municipality":{"key":"05762036","name":"Warburg, Hansestadt","type":"Stadt"},"district":{"key":"05762","name":"Höxter","type":"Kreis"},"federalState":{"key":"05","name":"Nordrhein-Westfalen"}},{"name":"Schattberg","postalCode":"34414","locality":"Warburg","municipality":{"key":"05762036","name":"Warburg, Hansestadt","type":"Stadt"},"district":{"key":"05762","name":"Höxter","type":"Kreis"},"federalState":{"key":"05","name":"Nordrhein-Westfalen"}},{"name":"Schattenwinkel","postalCode":"34414","locality":"Warburg","municipality":{"key":"05762036","name":"Warburg, Hansestadt","type":"Stadt"},"district":{"key":"05762","name":"Höxter","type":"Kreis"},"federalState":{"key":"05","name":"Nordrhein-Westfalen"}},{"name":"Scherfeder Str.","postalCode":"34414","locality":"Warburg","municipality":{"key":"05762036","name":"Warburg, Hansestadt","type":"Stadt"},"district":{"key":"05762","name":"Höxter","type":"Kreis"},"federalState":{"key":"05","name":"Nordrhein-Westfalen"}},{"name":"Schillerstr.","postalCode":"34414","locality":"Warburg","municipality":{"key":"05762036","name":"Warburg, Hansestadt","type":"Stadt"},"district":{"key":"05762","name":"Höxter","type":"Kreis"},"federalState":{"key":"05","name":"Nordrhein-Westfalen"}},{"name":"Schliepweg","postalCode":"34414","locality":"Warburg","municipality":{"key":"05762036","name":"Warburg, Hansestadt","type":"Stadt"},"district":{"key":"05762","name":"Höxter","type":"Kreis"},"federalState":{"key":"05","name":"Nordrhein-Westfalen"}},{"name":"Schloßgässchen","postalCode":"34414","locality":"Warburg","municipality":{"key":"05762036","name":"Warburg, Hansestadt","type":"Stadt"},"district":{"key":"05762","name":"Höxter","type":"Kreis"},"federalState":{"key":"05","name":"Nordrhein-Westfalen"}},{"name":"Schmiedestr.","postalCode":"34414","locality":"Warburg","municipality":{"key":"05762036","name":"Warburg, Hansestadt","type":"Stadt"},"district":{"key":"05762","name":"Höxter","type":"Kreis"},"federalState":{"key":"05","name":"Nordrhein-Westfalen"}},{"name":"Schöne Aussicht","postalCode":"34414","locality":"Warburg","municipality":{"key":"05762036","name":"Warburg, Hansestadt","type":"Stadt"},"district":{"key":"05762","name":"Höxter","type":"Kreis"},"federalState":{"key":"05","name":"Nordrhein-Westfalen"}},{"name":"Schratweg","postalCode":"34414","locality":"Warburg","municipality":{"key":"05762036","name":"Warburg, Hansestadt","type":"Stadt"},"district":{"key":"05762","name":"Höxter","type":"Kreis"},"federalState":{"key":"05","name":"Nordrhein-Westfalen"}},{"name":"Schubertstr.","postalCode":"34414","locality":"Warburg","municipality":{"key":"05762036","name":"Warburg, Hansestadt","type":"Stadt"},"district":{"key":"05762","name":"Höxter","type":"Kreis"},"federalState":{"key":"05","name":"Nordrhein-Westfalen"}},{"name":"Schulstr.","postalCode":"34414","locality":"Warburg","municipality":{"key":"05762036","name":"Warburg, Hansestadt","type":"Stadt"},"district":{"key":"05762","name":"Höxter","type":"Kreis"},"federalState":{"key":"05","name":"Nordrhein-Westfalen"}},{"name":"Schumannstr.","postalCode":"34414","locality":"Warburg","municipality":{"key":"05762036","name":"Warburg, Hansestadt","type":"Stadt"},"district":{"key":"05762","name":"Höxter","type":"Kreis"},"federalState":{"key":"05","name":"Nordrhein-Westfalen"}},{"name":"Schützenstr.","postalCode":"34414","locality":"Warburg","municipality":{"key":"05762036","name":"Warburg, Hansestadt","type":"Stadt"},"district":{"key":"05762","name":"Höxter","type":"Kreis"},"federalState":{"key":"05","name":"Nordrhein-Westfalen"}},{"name":"Schützenzaun","postalCode":"34414","locality":"Warburg","municipality":{"key":"05762036","name":"Warburg, Hansestadt","type":"Stadt"},"district":{"key":"05762","name":"Höxter","type":"Kreis"},"federalState":{"key":"05","name":"Nordrhein-Westfalen"}},{"name":"Schwarzer Weg","postalCode":"34414","locality":"Warburg","municipality":{"key":"05762036","name":"Warburg, Hansestadt","type":"Stadt"},"district":{"key":"05762","name":"Höxter","type":"Kreis"},"federalState":{"key":"05","name":"Nordrhein-Westfalen"}},{"name":"Schwemberg","postalCode":"34414","locality":"Warburg","municipality":{"key":"05762036","name":"Warburg, Hansestadt","type":"Stadt"},"district":{"key":"05762","name":"Höxter","type":"Kreis"},"federalState":{"key":"05","name":"Nordrhein-Westfalen"}},{"name":"Schwerte","postalCode":"34414","locality":"Warburg","municipality":{"key":"05762036","name":"Warburg, Hansestadt","type":"Stadt"},"district":{"key":"05762","name":"Höxter","type":"Kreis"},"federalState":{"key":"05","name":"Nordrhein-Westfalen"}},{"name":"Seeberg","postalCode":"34414","locality":"Warburg","municipality":{"key":"05762036","name":"Warburg, Hansestadt","type":"Stadt"},"district":{"key":"05762","name":"Höxter","type":"Kreis"},"federalState":{"key":"05","name":"Nordrhein-Westfalen"}},{"name":"Seichenbrunnen","postalCode":"34414","locality":"Warburg","municipality":{"key":"05762036","name":"Warburg, Hansestadt","type":"Stadt"},"district":{"key":"05762","name":"Höxter","type":"Kreis"},"federalState":{"key":"05","name":"Nordrhein-Westfalen"}},{"name":"Siekweg","postalCode":"34414","locality":"Warburg","municipality":{"key":"05762036","name":"Warburg, Hansestadt","type":"Stadt"},"district":{"key":"05762","name":"Höxter","type":"Kreis"},"federalState":{"key":"05","name":"Nordrhein-Westfalen"}},{"name":"Sielheimer Weg","postalCode":"34414","locality":"Warburg","municipality":{"key":"05762036","name":"Warburg, Hansestadt","type":"Stadt"},"district":{"key":"05762","name":"Höxter","type":"Kreis"},"federalState":{"key":"05","name":"Nordrhein-Westfalen"}},{"name":"Silberbrede","postalCode":"34414","locality":"Warburg","municipality":{"key":"05762036","name":"Warburg, Hansestadt","type":"Stadt"},"district":{"key":"05762","name":"Höxter","type":"Kreis"},"federalState":{"key":"05","name":"Nordrhein-Westfalen"}},{"name":"Sillerweg","postalCode":"34414","locality":"Warburg","municipality":{"key":"05762036","name":"Warburg, Hansestadt","type":"Stadt"},"district":{"key":"05762","name":"Höxter","type":"Kreis"},"federalState":{"key":"05","name":"Nordrhein-Westfalen"}},{"name":"Sinnesgarten Kloster-Garten-Route","postalCode":"34414","locality":"Warburg","municipality":{"key":"05762036","name":"Warburg, Hansestadt","type":"Stadt"},"district":{"key":"05762","name":"Höxter","type":"Kreis"},"federalState":{"key":"05","name":"Nordrhein-Westfalen"}},{"name":"Sonnenbrede","postalCode":"34414","locality":"Warburg","municipality":{"key":"05762036","name":"Warburg, Hansestadt","type":"Stadt"},"district":{"key":"05762","name":"Höxter","type":"Kreis"},"federalState":{"key":"05","name":"Nordrhein-Westfalen"}},{"name":"Sonnenhügel","postalCode":"34414","locality":"Warburg","municipality":{"key":"05762036","name":"Warburg, Hansestadt","type":"Stadt"},"district":{"key":"05762","name":"Höxter","type":"Kreis"},"federalState":{"key":"05","name":"Nordrhein-Westfalen"}},{"name":"Sonnenstr.","postalCode":"34414","locality":"Warburg","municipality":{"key":"05762036","name":"Warburg, Hansestadt","type":"Stadt"},"district":{"key":"05762","name":"Höxter","type":"Kreis"},"federalState":{"key":"05","name":"Nordrhein-Westfalen"}},{"name":"Speckgraben","postalCode":"34414","locality":"Warburg","municipality":{"key":"05762036","name":"Warburg, Hansestadt","type":"Stadt"},"district":{"key":"05762","name":"Höxter","type":"Kreis"},"federalState":{"key":"05","name":"Nordrhein-Westfalen"}},{"name":"Sprengerweg","postalCode":"34414","locality":"Warburg","municipality":{"key":"05762036","name":"Warburg, Hansestadt","type":"Stadt"},"district":{"key":"05762","name":"Höxter","type":"Kreis"},"federalState":{"key":"05","name":"Nordrhein-Westfalen"}},{"name":"Springweg","postalCode":"34414","locality":"Warburg","municipality":{"key":"05762036","name":"Warburg, Hansestadt","type":"Stadt"},"district":{"key":"05762","name":"Höxter","type":"Kreis"},"federalState":{"key":"05","name":"Nordrhein-Westfalen"}},{"name":"Stadtweg","postalCode":"34414","locality":"Warburg","municipality":{"key":"05762036","name":"Warburg, Hansestadt","type":"Stadt"},"district":{"key":"05762","name":"Höxter","type":"Kreis"},"federalState":{"key":"05","name":"Nordrhein-Westfalen"}},{"name":"Steinbreite","postalCode":"34414","locality":"Warburg","municipality":{"key":"05762036","name":"Warburg, Hansestadt","type":"Stadt"},"district":{"key":"05762","name":"Höxter","type":"Kreis"},"federalState":{"key":"05","name":"Nordrhein-Westfalen"}},{"name":"Steinhofgasse","postalCode":"34414","locality":"Warburg","municipality":{"key":"05762036","name":"Warburg, Hansestadt","type":"Stadt"},"district":{"key":"05762","name":"Höxter","type":"Kreis"},"federalState":{"key":"05","name":"Nordrhein-Westfalen"}},{"name":"Steinweg","postalCode":"34414","locality":"Warburg","municipality":{"key":"05762036","name":"Warburg, Hansestadt","type":"Stadt"},"district":{"key":"05762","name":"Höxter","type":"Kreis"},"federalState":{"key":"05","name":"Nordrhein-Westfalen"}},{"name":"Sternstr.","postalCode":"34414","locality":"Warburg","municipality":{"key":"05762036","name":"Warburg, Hansestadt","type":"Stadt"},"district":{"key":"05762","name":"Höxter","type":"Kreis"},"federalState":{"key":"05","name":"Nordrhein-Westfalen"}},{"name":"Stettiner Str.","postalCode":"34414","locality":"Warburg","municipality":{"key":"05762036","name":"Warburg, Hansestadt","type":"Stadt"},"district":{"key":"05762","name":"Höxter","type":"Kreis"},"federalState":{"key":"05","name":"Nordrhein-Westfalen"}},{"name":"Stiepenweg","postalCode":"34414","locality":"Warburg","municipality":{"key":"05762036","name":"Warburg, Hansestadt","type":"Stadt"},"district":{"key":"05762","name":"Höxter","type":"Kreis"},"federalState":{"key":"05","name":"Nordrhein-Westfalen"}},{"name":"Stippvisite im Zwergenreich","postalCode":"34414","locality":"Warburg","municipality":{"key":"05762036","name":"Warburg, Hansestadt","type":"Stadt"},"district":{"key":"05762","name":"Höxter","type":"Kreis"},"federalState":{"key":"05","name":"Nordrhein-Westfalen"}},{"name":"Sudetenstr.","postalCode":"34414","locality":"Warburg","municipality":{"key":"05762036","name":"Warburg, Hansestadt","type":"Stadt"},"district":{"key":"05762","name":"Höxter","type":"Kreis"},"federalState":{"key":"05","name":"Nordrhein-Westfalen"}},{"name":"Talstr.","postalCode":"34414","locality":"Warburg","municipality":{"key":"05762036","name":"Warburg, Hansestadt","type":"Stadt"},"district":{"key":"05762","name":"Höxter","type":"Kreis"},"federalState":{"key":"05","name":"Nordrhein-Westfalen"}},{"name":"Tannenweg","postalCode":"34414","locality":"Warburg","municipality":{"key":"05762036","name":"Warburg, Hansestadt","type":"Stadt"},"district":{"key":"05762","name":"Höxter","type":"Kreis"},"federalState":{"key":"05","name":"Nordrhein-Westfalen"}},{"name":"Teichstr.","postalCode":"34414","locality":"Warburg","municipality":{"key":"05762036","name":"Warburg, Hansestadt","type":"Stadt"},"district":{"key":"05762","name":"Höxter","type":"Kreis"},"federalState":{"key":"05","name":"Nordrhein-Westfalen"}},{"name":"Telemannstr.","postalCode":"34414","locality":"Warburg","municipality":{"key":"05762036","name":"Warburg, Hansestadt","type":"Stadt"},"district":{"key":"05762","name":"Höxter","type":"Kreis"},"federalState":{"key":"05","name":"Nordrhein-Westfalen"}},{"name":"Torweg","postalCode":"34414","locality":"Warburg","municipality":{"key":"05762036","name":"Warburg, Hansestadt","type":"Stadt"},"district":{"key":"05762","name":"Höxter","type":"Kreis"},"federalState":{"key":"05","name":"Nordrhein-Westfalen"}},{"name":"Tränke","postalCode":"34414","locality":"Warburg","municipality":{"key":"05762036","name":"Warburg, Hansestadt","type":"Stadt"},"district":{"key":"05762","name":"Höxter","type":"Kreis"},"federalState":{"key":"05","name":"Nordrhein-Westfalen"}},{"name":"Trift","postalCode":"34414","locality":"Warburg","municipality":{"key":"05762036","name":"Warburg, Hansestadt","type":"Stadt"},"district":{"key":"05762","name":"Höxter","type":"Kreis"},"federalState":{"key":"05","name":"Nordrhein-Westfalen"}},{"name":"Triftstiege","postalCode":"34414","locality":"Warburg","municipality":{"key":"05762036","name":"Warburg, Hansestadt","type":"Stadt"},"district":{"key":"05762","name":"Höxter","type":"Kreis"},"federalState":{"key":"05","name":"Nordrhein-Westfalen"}},{"name":"Tulpenweg","postalCode":"34414","locality":"Warburg","municipality":{"key":"05762036","name":"Warburg, Hansestadt","type":"Stadt"},"district":{"key":"05762","name":"Höxter","type":"Kreis"},"federalState":{"key":"05","name":"Nordrhein-Westfalen"}},{"name":"Turnstr.","postalCode":"34414","locality":"Warburg","municipality":{"key":"05762036","name":"Warburg, Hansestadt","type":"Stadt"},"district":{"key":"05762","name":"Höxter","type":"Kreis"},"federalState":{"key":"05","name":"Nordrhein-Westfalen"}},{"name":"Twete","postalCode":"34414","locality":"Warburg","municipality":{"key":"05762036","name":"Warburg, Hansestadt","type":"Stadt"},"district":{"key":"05762","name":"Höxter","type":"Kreis"},"federalState":{"key":"05","name":"Nordrhein-Westfalen"}},{"name":"Twistetalstr.","postalCode":"34414","locality":"Warburg","municipality":{"key":"05762036","name":"Warburg, Hansestadt","type":"Stadt"},"district":{"key":"05762","name":"Höxter","type":"Kreis"},"federalState":{"key":"05","name":"Nordrhein-Westfalen"}},{"name":"Uhlandstr.","postalCode":"34414","locality":"Warburg","municipality":{"key":"05762036","name":"Warburg, Hansestadt","type":"Stadt"},"district":{"key":"05762","name":"Höxter","type":"Kreis"},"federalState":{"key":"05","name":"Nordrhein-Westfalen"}},{"name":"Uhlenbreite","postalCode":"34414","locality":"Warburg","municipality":{"key":"05762036","name":"Warburg, Hansestadt","type":"Stadt"},"district":{"key":"05762","name":"Höxter","type":"Kreis"},"federalState":{"key":"05","name":"Nordrhein-Westfalen"}},{"name":"Ulmenweg","postalCode":"34414","locality":"Warburg","municipality":{"key":"05762036","name":"Warburg, Hansestadt","type":"Stadt"},"district":{"key":"05762","name":"Höxter","type":"Kreis"},"federalState":{"key":"05","name":"Nordrhein-Westfalen"}},{"name":"Ulrich-Thater-Str.","postalCode":"34414","locality":"Warburg","municipality":{"key":"05762036","name":"Warburg, Hansestadt","type":"Stadt"},"district":{"key":"05762","name":"Höxter","type":"Kreis"},"federalState":{"key":"05","name":"Nordrhein-Westfalen"}},{"name":"Untere Bergstr.","postalCode":"34414","locality":"Warburg","municipality":{"key":"05762036","name":"Warburg, Hansestadt","type":"Stadt"},"district":{"key":"05762","name":"Höxter","type":"Kreis"},"federalState":{"key":"05","name":"Nordrhein-Westfalen"}},{"name":"Untere Dorfstr.","postalCode":"34414","locality":"Warburg","municipality":{"key":"05762036","name":"Warburg, Hansestadt","type":"Stadt"},"district":{"key":"05762","name":"Höxter","type":"Kreis"},"federalState":{"key":"05","name":"Nordrhein-Westfalen"}},{"name":"Untere Sülte","postalCode":"34414","locality":"Warburg","municipality":{"key":"05762036","name":"Warburg, Hansestadt","type":"Stadt"},"district":{"key":"05762","name":"Höxter","type":"Kreis"},"federalState":{"key":"05","name":"Nordrhein-Westfalen"}},{"name":"Untere Twete","postalCode":"34414","locality":"Warburg","municipality":{"key":"05762036","name":"Warburg, Hansestadt","type":"Stadt"},"district":{"key":"05762","name":"Höxter","type":"Kreis"},"federalState":{"key":"05","name":"Nordrhein-Westfalen"}},{"name":"Unterstr.","postalCode":"34414","locality":"Warburg","municipality":{"key":"05762036","name":"Warburg, Hansestadt","type":"Stadt"},"district":{"key":"05762","name":"Höxter","type":"Kreis"},"federalState":{"key":"05","name":"Nordrhein-Westfalen"}},{"name":"Urbanusweg","postalCode":"34414","locality":"Warburg","municipality":{"key":"05762036","name":"Warburg, Hansestadt","type":"Stadt"},"district":{"key":"05762","name":"Höxter","type":"Kreis"},"federalState":{"key":"05","name":"Nordrhein-Westfalen"}},{"name":"Vikariegasse","postalCode":"34414","locality":"Warburg","municipality":{"key":"05762036","name":"Warburg, Hansestadt","type":"Stadt"},"district":{"key":"05762","name":"Höxter","type":"Kreis"},"federalState":{"key":"05","name":"Nordrhein-Westfalen"}},{"name":"Vincentiusstr.","postalCode":"34414","locality":"Warburg","municipality":{"key":"05762036","name":"Warburg, Hansestadt","type":"Stadt"},"district":{"key":"05762","name":"Höxter","type":"Kreis"},"federalState":{"key":"05","name":"Nordrhein-Westfalen"}},{"name":"Vivaldiweg","postalCode":"34414","locality":"Warburg","municipality":{"key":"05762036","name":"Warburg, Hansestadt","type":"Stadt"},"district":{"key":"05762","name":"Höxter","type":"Kreis"},"federalState":{"key":"05","name":"Nordrhein-Westfalen"}},{"name":"Vogelar","postalCode":"34414","locality":"Warburg","municipality":{"key":"05762036","name":"Warburg, Hansestadt","type":"Stadt"},"district":{"key":"05762","name":"Höxter","type":"Kreis"},"federalState":{"key":"05","name":"Nordrhein-Westfalen"}},{"name":"Volkmarser Weg","postalCode":"34414","locality":"Warburg","municipality":{"key":"05762036","name":"Warburg, Hansestadt","type":"Stadt"},"district":{"key":"05762","name":"Höxter","type":"Kreis"},"federalState":{"key":"05","name":"Nordrhein-Westfalen"}},{"name":"Von-Plencken-Str.","postalCode":"34414","locality":"Warburg","municipality":{"key":"05762036","name":"Warburg, Hansestadt","type":"Stadt"},"district":{"key":"05762","name":"Höxter","type":"Kreis"},"federalState":{"key":"05","name":"Nordrhein-Westfalen"}},{"name":"Von-Vincke-Str.","postalCode":"34414","locality":"Warburg","municipality":{"key":"05762036","name":"Warburg, Hansestadt","type":"Stadt"},"district":{"key":"05762","name":"Höxter","type":"Kreis"},"federalState":{"key":"05","name":"Nordrhein-Westfalen"}},{"name":"Vosshöhle","postalCode":"34414","locality":"Warburg","municipality":{"key":"05762036","name":"Warburg, Hansestadt","type":"Stadt"},"district":{"key":"05762","name":"Höxter","type":"Kreis"},"federalState":{"key":"05","name":"Nordrhein-Westfalen"}},{"name":"Wachtelpfad","postalCode":"34414","locality":"Warburg","municipality":{"key":"05762036","name":"Warburg, Hansestadt","type":"Stadt"},"district":{"key":"05762","name":"Höxter","type":"Kreis"},"federalState":{"key":"05","name":"Nordrhein-Westfalen"}},{"name":"Wagnerstr.","postalCode":"34414","locality":"Warburg","municipality":{"key":"05762036","name":"Warburg, Hansestadt","type":"Stadt"},"district":{"key":"05762","name":"Höxter","type":"Kreis"},"federalState":{"key":"05","name":"Nordrhein-Westfalen"}},{"name":"Walchseestr.","postalCode":"34414","locality":"Warburg","municipality":{"key":"05762036","name":"Warburg, Hansestadt","type":"Stadt"},"district":{"key":"05762","name":"Höxter","type":"Kreis"},"federalState":{"key":"05","name":"Nordrhein-Westfalen"}},{"name":"Waldbreite","postalCode":"34414","locality":"Warburg","municipality":{"key":"05762036","name":"Warburg, Hansestadt","type":"Stadt"},"district":{"key":"05762","name":"Höxter","type":"Kreis"},"federalState":{"key":"05","name":"Nordrhein-Westfalen"}},{"name":"Waldweg","postalCode":"34414","locality":"Warburg","municipality":{"key":"05762036","name":"Warburg, Hansestadt","type":"Stadt"},"district":{"key":"05762","name":"Höxter","type":"Kreis"},"federalState":{"key":"05","name":"Nordrhein-Westfalen"}},{"name":"Walme","postalCode":"34414","locality":"Warburg","municipality":{"key":"05762036","name":"Warburg, Hansestadt","type":"Stadt"},"district":{"key":"05762","name":"Höxter","type":"Kreis"},"federalState":{"key":"05","name":"Nordrhein-Westfalen"}},{"name":"Wanneweg","postalCode":"34414","locality":"Warburg","municipality":{"key":"05762036","name":"Warburg, Hansestadt","type":"Stadt"},"district":{"key":"05762","name":"Höxter","type":"Kreis"},"federalState":{"key":"05","name":"Nordrhein-Westfalen"}},{"name":"Warburger Str.","postalCode":"34414","locality":"Warburg","municipality":{"key":"05762036","name":"Warburg, Hansestadt","type":"Stadt"},"district":{"key":"05762","name":"Höxter","type":"Kreis"},"federalState":{"key":"05","name":"Nordrhein-Westfalen"}},{"name":"Watersloh","postalCode":"34414","locality":"Warburg","municipality":{"key":"05762036","name":"Warburg, Hansestadt","type":"Stadt"},"district":{"key":"05762","name":"Höxter","type":"Kreis"},"federalState":{"key":"05","name":"Nordrhein-Westfalen"}},{"name":"Werkstr.","postalCode":"34414","locality":"Warburg","municipality":{"key":"05762036","name":"Warburg, Hansestadt","type":"Stadt"},"district":{"key":"05762","name":"Höxter","type":"Kreis"},"federalState":{"key":"05","name":"Nordrhein-Westfalen"}},{"name":"Westerbachstr.","postalCode":"34414","locality":"Warburg","municipality":{"key":"05762036","name":"Warburg, Hansestadt","type":"Stadt"},"district":{"key":"05762","name":"Höxter","type":"Kreis"},"federalState":{"key":"05","name":"Nordrhein-Westfalen"}},{"name":"Westweg","postalCode":"34414","locality":"Warburg","municipality":{"key":"05762036","name":"Warburg, Hansestadt","type":"Stadt"},"district":{"key":"05762","name":"Höxter","type":"Kreis"},"federalState":{"key":"05","name":"Nordrhein-Westfalen"}},{"name":"Wethener Str.","postalCode":"34414","locality":"Warburg","municipality":{"key":"05762036","name":"Warburg, Hansestadt","type":"Stadt"},"district":{"key":"05762","name":"Höxter","type":"Kreis"},"federalState":{"key":"05","name":"Nordrhein-Westfalen"}},{"name":"Wettesinger Weg","postalCode":"34414","locality":"Warburg","municipality":{"key":"05762036","name":"Warburg, Hansestadt","type":"Stadt"},"district":{"key":"05762","name":"Höxter","type":"Kreis"},"federalState":{"key":"05","name":"Nordrhein-Westfalen"}},{"name":"Wiesenbergstr.","postalCode":"34414","locality":"Warburg","municipality":{"key":"05762036","name":"Warburg, Hansestadt","type":"Stadt"},"district":{"key":"05762","name":"Höxter","type":"Kreis"},"federalState":{"key":"05","name":"Nordrhein-Westfalen"}},{"name":"Wiesengrund","postalCode":"34414","locality":"Warburg","municipality":{"key":"05762036","name":"Warburg, Hansestadt","type":"Stadt"},"district":{"key":"05762","name":"Höxter","type":"Kreis"},"federalState":{"key":"05","name":"Nordrhein-Westfalen"}},{"name":"Wiggenbreite","postalCode":"34414","locality":"Warburg","municipality":{"key":"05762036","name":"Warburg, Hansestadt","type":"Stadt"},"district":{"key":"05762","name":"Höxter","type":"Kreis"},"federalState":{"key":"05","name":"Nordrhein-Westfalen"}},{"name":"Wilhelm-Poth-Str.","postalCode":"34414","locality":"Warburg","municipality":{"key":"05762036","name":"Warburg, Hansestadt","type":"Stadt"},"district":{"key":"05762","name":"Höxter","type":"Kreis"},"federalState":{"key":"05","name":"Nordrhein-Westfalen"}},{"name":"Wilhelm-Raabe-Str.","postalCode":"34414","locality":"Warburg","municipality":{"key":"05762036","name":"Warburg, Hansestadt","type":"Stadt"},"district":{"key":"05762","name":"Höxter","type":"Kreis"},"federalState":{"key":"05","name":"Nordrhein-Westfalen"}},{"name":"Winkelweg","postalCode":"34414","locality":"Warburg","municipality":{"key":"05762036","name":"Warburg, Hansestadt","type":"Stadt"},"district":{"key":"05762","name":"Höxter","type":"Kreis"},"federalState":{"key":"05","name":"Nordrhein-Westfalen"}},{"name":"Wispertorgasse","postalCode":"34414","locality":"Warburg","municipality":{"key":"05762036","name":"Warburg, Hansestadt","type":"Stadt"},"district":{"key":"05762","name":"Höxter","type":"Kreis"},"federalState":{"key":"05","name":"Nordrhein-Westfalen"}},{"name":"Wittmarstr.","postalCode":"34414","locality":"Warburg","municipality":{"key":"05762036","name":"Warburg, Hansestadt","type":"Stadt"},"district":{"key":"05762","name":"Höxter","type":"Kreis"},"federalState":{"key":"05","name":"Nordrhein-Westfalen"}},{"name":"Wormelner Str.","postalCode":"34414","locality":"Warburg","municipality":{"key":"05762036","name":"Warburg, Hansestadt","type":"Stadt"},"district":{"key":"05762","name":"Höxter","type":"Kreis"},"federalState":{"key":"05","name":"Nordrhein-Westfalen"}},{"name":"Wormelner Twete","postalCode":"34414","locality":"Warburg","municipality":{"key":"05762036","name":"Warburg, Hansestadt","type":"Stadt"},"district":{"key":"05762","name":"Höxter","type":"Kreis"},"federalState":{"key":"05","name":"Nordrhein-Westfalen"}},{"name":"Zionsweg","postalCode":"34414","locality":"Warburg","municipality":{"key":"05762036","name":"Warburg, Hansestadt","type":"Stadt"},"district":{"key":"05762","name":"Höxter","type":"Kreis"},"federalState":{"key":"05","name":"Nordrhein-Westfalen"}},{"name":"Zu den Drei Steinen","postalCode":"34414","locality":"Warburg","municipality":{"key":"05762036","name":"Warburg, Hansestadt","type":"Stadt"},"district":{"key":"05762","name":"Höxter","type":"Kreis"},"federalState":{"key":"05","name":"Nordrhein-Westfalen"}},{"name":"Zum Anger","postalCode":"34414","locality":"Warburg","municipality":{"key":"05762036","name":"Warburg, Hansestadt","type":"Stadt"},"district":{"key":"05762","name":"Höxter","type":"Kreis"},"federalState":{"key":"05","name":"Nordrhein-Westfalen"}},{"name":"Zum Bach","postalCode":"34414","locality":"Warburg","municipality":{"key":"05762036","name":"Warburg, Hansestadt","type":"Stadt"},"district":{"key":"05762","name":"Höxter","type":"Kreis"},"federalState":{"key":"05","name":"Nordrhein-Westfalen"}},{"name":"Zum Bahnhof","postalCode":"34414","locality":"Warburg","municipality":{"key":"05762036","name":"Warburg, Hansestadt","type":"Stadt"},"district":{"key":"05762","name":"Höxter","type":"Kreis"},"federalState":{"key":"05","name":"Nordrhein-Westfalen"}},{"name":"Zum Diemelblick","postalCode":"34414","locality":"Warburg","municipality":{"key":"05762036","name":"Warburg, Hansestadt","type":"Stadt"},"district":{"key":"05762","name":"Höxter","type":"Kreis"},"federalState":{"key":"05","name":"Nordrhein-Westfalen"}},{"name":"Zum Donnerberg","postalCode":"34414","locality":"Warburg","municipality":{"key":"05762036","name":"Warburg, Hansestadt","type":"Stadt"},"district":{"key":"05762","name":"Höxter","type":"Kreis"},"federalState":{"key":"05","name":"Nordrhein-Westfalen"}},{"name":"Zum Erpelbrunnen","postalCode":"34414","locality":"Warburg","municipality":{"key":"05762036","name":"Warburg, Hansestadt","type":"Stadt"},"district":{"key":"05762","name":"Höxter","type":"Kreis"},"federalState":{"key":"05","name":"Nordrhein-Westfalen"}},{"name":"Zum Haselloh","postalCode":"34414","locality":"Warburg","municipality":{"key":"05762036","name":"Warburg, Hansestadt","type":"Stadt"},"district":{"key":"05762","name":"Höxter","type":"Kreis"},"federalState":{"key":"05","name":"Nordrhein-Westfalen"}},{"name":"Zum Heidhof","postalCode":"34414","locality":"Warburg","municipality":{"key":"05762036","name":"Warburg, Hansestadt","type":"Stadt"},"district":{"key":"05762","name":"Höxter","type":"Kreis"},"federalState":{"key":"05","name":"Nordrhein-Westfalen"}},{"name":"Zum Hummelbusch","postalCode":"34414","locality":"Warburg","municipality":{"key":"05762036","name":"Warburg, Hansestadt","type":"Stadt"},"district":{"key":"05762","name":"Höxter","type":"Kreis"},"federalState":{"key":"05","name":"Nordrhein-Westfalen"}},{"name":"Zum Kreuzberg","postalCode":"34414","locality":"Warburg","municipality":{"key":"05762036","name":"Warburg, Hansestadt","type":"Stadt"},"district":{"key":"05762","name":"Höxter","type":"Kreis"},"federalState":{"key":"05","name":"Nordrhein-Westfalen"}},{"name":"Zum Kuhmarkt","postalCode":"34414","locality":"Warburg","municipality":{"key":"05762036","name":"Warburg, Hansestadt","type":"Stadt"},"district":{"key":"05762","name":"Höxter","type":"Kreis"},"federalState":{"key":"05","name":"Nordrhein-Westfalen"}},{"name":"Zum Kurgarten","postalCode":"34414","locality":"Warburg","municipality":{"key":"05762036","name":"Warburg, Hansestadt","type":"Stadt"},"district":{"key":"05762","name":"Höxter","type":"Kreis"},"federalState":{"key":"05","name":"Nordrhein-Westfalen"}},{"name":"Zum Lager","postalCode":"34414","locality":"Warburg","municipality":{"key":"05762036","name":"Warburg, Hansestadt","type":"Stadt"},"district":{"key":"05762","name":"Höxter","type":"Kreis"},"federalState":{"key":"05","name":"Nordrhein-Westfalen"}},{"name":"Zum Lütal","postalCode":"34414","locality":"Warburg","municipality":{"key":"05762036","name":"Warburg, Hansestadt","type":"Stadt"},"district":{"key":"05762","name":"Höxter","type":"Kreis"},"federalState":{"key":"05","name":"Nordrhein-Westfalen"}},{"name":"Zum Spritzenhaus","postalCode":"34414","locality":"Warburg","municipality":{"key":"05762036","name":"Warburg, Hansestadt","type":"Stadt"},"district":{"key":"05762","name":"Höxter","type":"Kreis"},"federalState":{"key":"05","name":"Nordrhein-Westfalen"}},{"name":"Zum Stadtgraben","postalCode":"34414","locality":"Warburg","municipality":{"key":"05762036","name":"Warburg, Hansestadt","type":"Stadt"},"district":{"key":"05762","name":"Höxter","type":"Kreis"},"federalState":{"key":"05","name":"Nordrhein-Westfalen"}},{"name":"Zum Uhlenloch","postalCode":"34414","locality":"Warburg","municipality":{"key":"05762036","name":"Warburg, Hansestadt","type":"Stadt"},"district":{"key":"05762","name":"Höxter","type":"Kreis"},"federalState":{"key":"05","name":"Nordrhein-Westfalen"}},{"name":"Zum Vogelhof","postalCode":"34414","locality":"Warburg","municipality":{"key":"05762036","name":"Warburg, Hansestadt","type":"Stadt"},"district":{"key":"05762","name":"Höxter","type":"Kreis"},"federalState":{"key":"05","name":"Nordrhein-Westfalen"}},{"name":"Zum Warburger Tor","postalCode":"34414","locality":"Warburg","municipality":{"key":"05762036","name":"Warburg, Hansestadt","type":"Stadt"},"district":{"key":"05762","name":"Höxter","type":"Kreis"},"federalState":{"key":"05","name":"Nordrhein-Westfalen"}},{"name":"Zum Weißen Holz","postalCode":"34414","locality":"Warburg","municipality":{"key":"05762036","name":"Warburg, Hansestadt","type":"Stadt"},"district":{"key":"05762","name":"Höxter","type":"Kreis"},"federalState":{"key":"05","name":"Nordrhein-Westfalen"}},{"name":"Zum Wiesenhof","postalCode":"34414","locality":"Warburg","municipality":{"key":"05762036","name":"Warburg, Hansestadt","type":"Stadt"},"district":{"key":"05762","name":"Höxter","type":"Kreis"},"federalState":{"key":"05","name":"Nordrhein-Westfalen"}},{"name":"Zur Alten Mühle","postalCode":"34414","locality":"Warburg","municipality":{"key":"05762036","name":"Warburg, Hansestadt","type":"Stadt"},"district":{"key":"05762","name":"Höxter","type":"Kreis"},"federalState":{"key":"05","name":"Nordrhein-Westfalen"}},{"name":"Zur Alten Ziegelei","postalCode":"34414","locality":"Warburg","municipality":{"key":"05762036","name":"Warburg, Hansestadt","type":"Stadt"},"district":{"key":"05762","name":"Höxter","type":"Kreis"},"federalState":{"key":"05","name":"Nordrhein-Westfalen"}},{"name":"Zur Antoniusquelle","postalCode":"34414","locality":"Warburg","municipality":{"key":"05762036","name":"Warburg, Hansestadt","type":"Stadt"},"district":{"key":"05762","name":"Höxter","type":"Kreis"},"federalState":{"key":"05","name":"Nordrhein-Westfalen"}},{"name":"Zur Bleiche","postalCode":"34414","locality":"Warburg","municipality":{"key":"05762036","name":"Warburg, Hansestadt","type":"Stadt"},"district":{"key":"05762","name":"Höxter","type":"Kreis"},"federalState":{"key":"05","name":"Nordrhein-Westfalen"}},{"name":"Zur Burg","postalCode":"34414","locality":"Warburg","municipality":{"key":"05762036","name":"Warburg, Hansestadt","type":"Stadt"},"district":{"key":"05762","name":"Höxter","type":"Kreis"},"federalState":{"key":"05","name":"Nordrhein-Westfalen"}},{"name":"Zur Diemelmühle","postalCode":"34414","locality":"Warburg","municipality":{"key":"05762036","name":"Warburg, Hansestadt","type":"Stadt"},"district":{"key":"05762","name":"Höxter","type":"Kreis"},"federalState":{"key":"05","name":"Nordrhein-Westfalen"}},{"name":"Zur Fränke","postalCode":"34414","locality":"Warburg","municipality":{"key":"05762036","name":"Warburg, Hansestadt","type":"Stadt"},"district":{"key":"05762","name":"Höxter","type":"Kreis"},"federalState":{"key":"05","name":"Nordrhein-Westfalen"}},{"name":"Zur Guten","postalCode":"34414","locality":"Warburg","municipality":{"key":"05762036","name":"Warburg, Hansestadt","type":"Stadt"},"district":{"key":"05762","name":"Höxter","type":"Kreis"},"federalState":{"key":"05","name":"Nordrhein-Westfalen"}},{"name":"Zur Holsterburg","postalCode":"34414","locality":"Warburg","municipality":{"key":"05762036","name":"Warburg, Hansestadt","type":"Stadt"},"district":{"key":"05762","name":"Höxter","type":"Kreis"},"federalState":{"key":"05","name":"Nordrhein-Westfalen"}},{"name":"Zur Höte","postalCode":"34414","locality":"Warburg","municipality":{"key":"05762036","name":"Warburg, Hansestadt","type":"Stadt"},"district":{"key":"05762","name":"Höxter","type":"Kreis"},"federalState":{"key":"05","name":"Nordrhein-Westfalen"}},{"name":"Zur Kerne","postalCode":"34414","locality":"Warburg","municipality":{"key":"05762036","name":"Warburg, Hansestadt","type":"Stadt"},"district":{"key":"05762","name":"Höxter","type":"Kreis"},"federalState":{"key":"05","name":"Nordrhein-Westfalen"}},{"name":"Zur Kohlwiese","postalCode":"34414","locality":"Warburg","municipality":{"key":"05762036","name":"Warburg, Hansestadt","type":"Stadt"},"district":{"key":"05762","name":"Höxter","type":"Kreis"},"federalState":{"key":"05","name":"Nordrhein-Westfalen"}},{"name":"Zur Linde","postalCode":"34414","locality":"Warburg","municipality":{"key":"05762036","name":"Warburg, Hansestadt","type":"Stadt"},"district":{"key":"05762","name":"Höxter","type":"Kreis"},"federalState":{"key":"05","name":"Nordrhein-Westfalen"}},{"name":"Zur Luhmühle","postalCode":"34414","locality":"Warburg","municipality":{"key":"05762036","name":"Warburg, Hansestadt","type":"Stadt"},"district":{"key":"05762","name":"Höxter","type":"Kreis"},"federalState":{"key":"05","name":"Nordrhein-Westfalen"}},{"name":"Zur Märk","postalCode":"34414","locality":"Warburg","municipality":{"key":"05762036","name":"Warburg, Hansestadt","type":"Stadt"},"district":{"key":"05762","name":"Höxter","type":"Kreis"},"federalState":{"key":"05","name":"Nordrhein-Westfalen"}},{"name":"Zur Mühle","postalCode":"34414","locality":"Warburg","municipality":{"key":"05762036","name":"Warburg, Hansestadt","type":"Stadt"},"district":{"key":"05762","name":"Höxter","type":"Kreis"},"federalState":{"key":"05","name":"Nordrhein-Westfalen"}},{"name":"Zur Regentenhöhe","postalCode":"34414","locality":"Warburg","municipality":{"key":"05762036","name":"Warburg, Hansestadt","type":"Stadt"},"district":{"key":"05762","name":"Höxter","type":"Kreis"},"federalState":{"key":"05","name":"Nordrhein-Westfalen"}},{"name":"Zur Schanze","postalCode":"34414","locality":"Warburg","municipality":{"key":"05762036","name":"Warburg, Hansestadt","type":"Stadt"},"district":{"key":"05762","name":"Höxter","type":"Kreis"},"federalState":{"key":"05","name":"Nordrhein-Westfalen"}},{"name":"Zur Storchskuhle","postalCode":"34414","locality":"Warburg","municipality":{"key":"05762036","name":"Warburg, Hansestadt","type":"Stadt"},"district":{"key":"05762","name":"Höxter","type":"Kreis"},"federalState":{"key":"05","name":"Nordrhein-Westfalen"}},{"name":"Zur Uhlenburg","postalCode":"34414","locality":"Warburg","municipality":{"key":"05762036","name":"Warburg, Hansestadt","type":"Stadt"},"district":{"key":"05762","name":"Höxter","type":"Kreis"},"federalState":{"key":"05","name":"Nordrhein-Westfalen"}},{"name":"Zur Vogelsmühle","postalCode":"34414","locality":"Warburg","municipality":{"key":"05762036","name":"Warburg, Hansestadt","type":"Stadt"},"district":{"key":"05762","name":"Höxter","type":"Kreis"},"federalState":{"key":"05","name":"Nordrhein-Westfalen"}},{"name":"Zur Wäsche","postalCode":"34414","locality":"Warburg","municipality":{"key":"05762036","name":"Warburg, Hansestadt","type":"Stadt"},"district":{"key":"05762","name":"Höxter","type":"Kreis"},"federalState":{"key":"05","name":"Nordrhein-Westfalen"}},{"name":"Äbtissin-Theodora-Weg","postalCode":"37671","locality":"Höxter","municipality":{"key":"05762020","name":"Höxter, Stadt","type":"Stadt"},"district":{"key":"05762","name":"Höxter","type":"Kreis"},"federalState":{"key":"05","name":"Nordrhein-Westfalen"}},{"name":"Öhrkamp","postalCode":"34414","locality":"Warburg","municipality":{"key":"05762036","name":"Warburg, Hansestadt","type":"Stadt"},"district":{"key":"05762","name":"Höxter","type":"Kreis"},"federalState":{"key":"05","name":"Nordrhein-Westfalen"}},{"name":"Übelmorgen","postalCode":"34414","locality":"Warburg","municipality":{"key":"05762036","name":"Warburg, Hansestadt","type":"Stadt"},"district":{"key":"05762","name":"Höxter","type":"Kreis"},"federalState":{"key":"05","name":"Nordrhein-Westfalen"}},{"name":"Über der Trift","postalCode":"34414","locality":"Warburg","municipality":{"key":"05762036","name":"Warburg, Hansestadt","type":"Stadt"},"district":{"key":"05762","name":"Höxter","type":"Kreis"},"federalState":{"key":"05","name":"Nordrhein-Westfalen"}},{"name":"Ükern","postalCode":"34414","locality":"Warburg","municipality":{"key":"05762036","name":"Warburg, Hansestadt","type":"Stadt"},"district":{"key":"05762","name":"Höxter","type":"Kreis"},"federalState":{"key":"05","name":"Nordrhein-Westfalen"}},]