[{"name":"Abt-Albert-Str.","postalCode":"92287","locality":"Schmidmühlen","municipality":{"key":"09371148","name":"Schmidmühlen, M","type":"Markt"},"district":{"key":"09371","name":"Amberg-Sulzbach","type":"Landkreis"},"federalState":{"key":"09","name":"Bayern"}},{"name":"Am Anger","postalCode":"92287","locality":"Schmidmühlen","municipality":{"key":"09371148","name":"Schmidmühlen, M","type":"Markt"},"district":{"key":"09371","name":"Amberg-Sulzbach","type":"Landkreis"},"federalState":{"key":"09","name":"Bayern"}},{"name":"Amberger Str.","postalCode":"92287","locality":"Schmidmühlen","municipality":{"key":"09371148","name":"Schmidmühlen, M","type":"Markt"},"district":{"key":"09371","name":"Amberg-Sulzbach","type":"Landkreis"},"federalState":{"key":"09","name":"Bayern"}},{"name":"Am Herrenhölzl","postalCode":"92287","locality":"Schmidmühlen","municipality":{"key":"09371148","name":"Schmidmühlen, M","type":"Markt"},"district":{"key":"09371","name":"Amberg-Sulzbach","type":"Landkreis"},"federalState":{"key":"09","name":"Bayern"}},{"name":"Am Kramerberg","postalCode":"92287","locality":"Schmidmühlen","municipality":{"key":"09371148","name":"Schmidmühlen, M","type":"Markt"},"district":{"key":"09371","name":"Amberg-Sulzbach","type":"Landkreis"},"federalState":{"key":"09","name":"Bayern"}},{"name":"Am Kranbügl","postalCode":"92287","locality":"Schmidmühlen","municipality":{"key":"09371148","name":"Schmidmühlen, M","type":"Markt"},"district":{"key":"09371","name":"Amberg-Sulzbach","type":"Landkreis"},"federalState":{"key":"09","name":"Bayern"}},{"name":"Am Ofenweg","postalCode":"92287","locality":"Schmidmühlen","municipality":{"key":"09371148","name":"Schmidmühlen, M","type":"Markt"},"district":{"key":"09371","name":"Amberg-Sulzbach","type":"Landkreis"},"federalState":{"key":"09","name":"Bayern"}},{"name":"Am Rain","postalCode":"92287","locality":"Schmidmühlen","municipality":{"key":"09371148","name":"Schmidmühlen, M","type":"Markt"},"district":{"key":"09371","name":"Amberg-Sulzbach","type":"Landkreis"},"federalState":{"key":"09","name":"Bayern"}},{"name":"Am Richtweg","postalCode":"92287","locality":"Schmidmühlen","municipality":{"key":"09371148","name":"Schmidmühlen, M","type":"Markt"},"district":{"key":"09371","name":"Amberg-Sulzbach","type":"Landkreis"},"federalState":{"key":"09","name":"Bayern"}},{"name":"Am Schlegelgraben","postalCode":"92287","locality":"Schmidmühlen","municipality":{"key":"09371148","name":"Schmidmühlen, M","type":"Markt"},"district":{"key":"09371","name":"Amberg-Sulzbach","type":"Landkreis"},"federalState":{"key":"09","name":"Bayern"}},{"name":"Am Schloßberg","postalCode":"92287","locality":"Schmidmühlen","municipality":{"key":"09371148","name":"Schmidmühlen, M","type":"Markt"},"district":{"key":"09371","name":"Amberg-Sulzbach","type":"Landkreis"},"federalState":{"key":"09","name":"Bayern"}},{"name":"Bahnhofstr.","postalCode":"92287","locality":"Schmidmühlen","municipality":{"key":"09371148","name":"Schmidmühlen, M","type":"Markt"},"district":{"key":"09371","name":"Amberg-Sulzbach","type":"Landkreis"},"federalState":{"key":"09","name":"Bayern"}},{"name":"Bergheimer Str.","postalCode":"92287","locality":"Schmidmühlen","municipality":{"key":"09371148","name":"Schmidmühlen, M","type":"Markt"},"district":{"key":"09371","name":"Amberg-Sulzbach","type":"Landkreis"},"federalState":{"key":"09","name":"Bayern"}},{"name":"Bergstr.","postalCode":"92287","locality":"Schmidmühlen","municipality":{"key":"09371148","name":"Schmidmühlen, M","type":"Markt"},"district":{"key":"09371","name":"Amberg-Sulzbach","type":"Landkreis"},"federalState":{"key":"09","name":"Bayern"}},{"name":"Bernsteinstr.","postalCode":"92287","locality":"Schmidmühlen","municipality":{"key":"09371148","name":"Schmidmühlen, M","type":"Markt"},"district":{"key":"09371","name":"Amberg-Sulzbach","type":"Landkreis"},"federalState":{"key":"09","name":"Bayern"}},{"name":"Blumenstr.","postalCode":"92287","locality":"Schmidmühlen","municipality":{"key":"09371148","name":"Schmidmühlen, M","type":"Markt"},"district":{"key":"09371","name":"Amberg-Sulzbach","type":"Landkreis"},"federalState":{"key":"09","name":"Bayern"}},{"name":"Blütenstr.","postalCode":"92287","locality":"Schmidmühlen","municipality":{"key":"09371148","name":"Schmidmühlen, M","type":"Markt"},"district":{"key":"09371","name":"Amberg-Sulzbach","type":"Landkreis"},"federalState":{"key":"09","name":"Bayern"}},{"name":"Brunnlettberg","postalCode":"92287","locality":"Schmidmühlen","municipality":{"key":"09371148","name":"Schmidmühlen, M","type":"Markt"},"district":{"key":"09371","name":"Amberg-Sulzbach","type":"Landkreis"},"federalState":{"key":"09","name":"Bayern"}},{"name":"Brunnlettstr.","postalCode":"92287","locality":"Schmidmühlen","municipality":{"key":"09371148","name":"Schmidmühlen, M","type":"Markt"},"district":{"key":"09371","name":"Amberg-Sulzbach","type":"Landkreis"},"federalState":{"key":"09","name":"Bayern"}},{"name":"Burglengenfelder Str.","postalCode":"92287","locality":"Schmidmühlen","municipality":{"key":"09371148","name":"Schmidmühlen, M","type":"Markt"},"district":{"key":"09371","name":"Amberg-Sulzbach","type":"Landkreis"},"federalState":{"key":"09","name":"Bayern"}},{"name":"Dorfstr.","postalCode":"92287","locality":"Schmidmühlen","municipality":{"key":"09371148","name":"Schmidmühlen, M","type":"Markt"},"district":{"key":"09371","name":"Amberg-Sulzbach","type":"Landkreis"},"federalState":{"key":"09","name":"Bayern"}},{"name":"Dr.-Pfab-Str.","postalCode":"92287","locality":"Schmidmühlen","municipality":{"key":"09371148","name":"Schmidmühlen, M","type":"Markt"},"district":{"key":"09371","name":"Amberg-Sulzbach","type":"Landkreis"},"federalState":{"key":"09","name":"Bayern"}},{"name":"Emmeramstr.","postalCode":"92287","locality":"Schmidmühlen","municipality":{"key":"09371148","name":"Schmidmühlen, M","type":"Markt"},"district":{"key":"09371","name":"Amberg-Sulzbach","type":"Landkreis"},"federalState":{"key":"09","name":"Bayern"}},{"name":"Erasmus-Graßer-Str.","postalCode":"92287","locality":"Schmidmühlen","municipality":{"key":"09371148","name":"Schmidmühlen, M","type":"Markt"},"district":{"key":"09371","name":"Amberg-Sulzbach","type":"Landkreis"},"federalState":{"key":"09","name":"Bayern"}},{"name":"Fallbergweg","postalCode":"92287","locality":"Schmidmühlen","municipality":{"key":"09371148","name":"Schmidmühlen, M","type":"Markt"},"district":{"key":"09371","name":"Amberg-Sulzbach","type":"Landkreis"},"federalState":{"key":"09","name":"Bayern"}},{"name":"Felsnerstr.","postalCode":"92287","locality":"Schmidmühlen","municipality":{"key":"09371148","name":"Schmidmühlen, M","type":"Markt"},"district":{"key":"09371","name":"Amberg-Sulzbach","type":"Landkreis"},"federalState":{"key":"09","name":"Bayern"}},{"name":"Fichtenstr.","postalCode":"92287","locality":"Schmidmühlen","municipality":{"key":"09371148","name":"Schmidmühlen, M","type":"Markt"},"district":{"key":"09371","name":"Amberg-Sulzbach","type":"Landkreis"},"federalState":{"key":"09","name":"Bayern"}},{"name":"Frühlingstr.","postalCode":"92287","locality":"Schmidmühlen","municipality":{"key":"09371148","name":"Schmidmühlen, M","type":"Markt"},"district":{"key":"09371","name":"Amberg-Sulzbach","type":"Landkreis"},"federalState":{"key":"09","name":"Bayern"}},{"name":"Galchinger Weg","postalCode":"92287","locality":"Schmidmühlen","municipality":{"key":"09371148","name":"Schmidmühlen, M","type":"Markt"},"district":{"key":"09371","name":"Amberg-Sulzbach","type":"Landkreis"},"federalState":{"key":"09","name":"Bayern"}},{"name":"Gartenstr.","postalCode":"92287","locality":"Schmidmühlen","municipality":{"key":"09371148","name":"Schmidmühlen, M","type":"Markt"},"district":{"key":"09371","name":"Amberg-Sulzbach","type":"Landkreis"},"federalState":{"key":"09","name":"Bayern"}},{"name":"Georg-Hausner-Str.","postalCode":"92287","locality":"Schmidmühlen","municipality":{"key":"09371148","name":"Schmidmühlen, M","type":"Markt"},"district":{"key":"09371","name":"Amberg-Sulzbach","type":"Landkreis"},"federalState":{"key":"09","name":"Bayern"}},{"name":"Gewerbepark","postalCode":"92287","locality":"Schmidmühlen","municipality":{"key":"09371148","name":"Schmidmühlen, M","type":"Markt"},"district":{"key":"09371","name":"Amberg-Sulzbach","type":"Landkreis"},"federalState":{"key":"09","name":"Bayern"}},{"name":"Hammerstr.","postalCode":"92287","locality":"Schmidmühlen","municipality":{"key":"09371148","name":"Schmidmühlen, M","type":"Markt"},"district":{"key":"09371","name":"Amberg-Sulzbach","type":"Landkreis"},"federalState":{"key":"09","name":"Bayern"}},{"name":"Harschhofer Str.","postalCode":"92287","locality":"Schmidmühlen","municipality":{"key":"09371148","name":"Schmidmühlen, M","type":"Markt"},"district":{"key":"09371","name":"Amberg-Sulzbach","type":"Landkreis"},"federalState":{"key":"09","name":"Bayern"}},{"name":"Hauptstr.","postalCode":"92287","locality":"Schmidmühlen","municipality":{"key":"09371148","name":"Schmidmühlen, M","type":"Markt"},"district":{"key":"09371","name":"Amberg-Sulzbach","type":"Landkreis"},"federalState":{"key":"09","name":"Bayern"}},{"name":"Herzog-Ludwig-Str.","postalCode":"92287","locality":"Schmidmühlen","municipality":{"key":"09371148","name":"Schmidmühlen, M","type":"Markt"},"district":{"key":"09371","name":"Amberg-Sulzbach","type":"Landkreis"},"federalState":{"key":"09","name":"Bayern"}},{"name":"Hochweg","postalCode":"92287","locality":"Schmidmühlen","municipality":{"key":"09371148","name":"Schmidmühlen, M","type":"Markt"},"district":{"key":"09371","name":"Amberg-Sulzbach","type":"Landkreis"},"federalState":{"key":"09","name":"Bayern"}},{"name":"Hohenburger Str.","postalCode":"92287","locality":"Schmidmühlen","municipality":{"key":"09371148","name":"Schmidmühlen, M","type":"Markt"},"district":{"key":"09371","name":"Amberg-Sulzbach","type":"Landkreis"},"federalState":{"key":"09","name":"Bayern"}},{"name":"Imkerstr.","postalCode":"92287","locality":"Schmidmühlen","municipality":{"key":"09371148","name":"Schmidmühlen, M","type":"Markt"},"district":{"key":"09371","name":"Amberg-Sulzbach","type":"Landkreis"},"federalState":{"key":"09","name":"Bayern"}},{"name":"In der Zell","postalCode":"92287","locality":"Schmidmühlen","municipality":{"key":"09371148","name":"Schmidmühlen, M","type":"Markt"},"district":{"key":"09371","name":"Amberg-Sulzbach","type":"Landkreis"},"federalState":{"key":"09","name":"Bayern"}},{"name":"Kallmünzer Str.","postalCode":"92287","locality":"Schmidmühlen","municipality":{"key":"09371148","name":"Schmidmühlen, M","type":"Markt"},"district":{"key":"09371","name":"Amberg-Sulzbach","type":"Landkreis"},"federalState":{"key":"09","name":"Bayern"}},{"name":"Kreuzbergstr.","postalCode":"92287","locality":"Schmidmühlen","municipality":{"key":"09371148","name":"Schmidmühlen, M","type":"Markt"},"district":{"key":"09371","name":"Amberg-Sulzbach","type":"Landkreis"},"federalState":{"key":"09","name":"Bayern"}},{"name":"Lanzenrieder Weg","postalCode":"92287","locality":"Schmidmühlen","municipality":{"key":"09371148","name":"Schmidmühlen, M","type":"Markt"},"district":{"key":"09371","name":"Amberg-Sulzbach","type":"Landkreis"},"federalState":{"key":"09","name":"Bayern"}},{"name":"Lärchenstr.","postalCode":"92287","locality":"Schmidmühlen","municipality":{"key":"09371148","name":"Schmidmühlen, M","type":"Markt"},"district":{"key":"09371","name":"Amberg-Sulzbach","type":"Landkreis"},"federalState":{"key":"09","name":"Bayern"}},{"name":"Lauterachblick","postalCode":"92287","locality":"Schmidmühlen","municipality":{"key":"09371148","name":"Schmidmühlen, M","type":"Markt"},"district":{"key":"09371","name":"Amberg-Sulzbach","type":"Landkreis"},"federalState":{"key":"09","name":"Bayern"}},{"name":"Lauterachtal-Radweg","postalCode":"92287","locality":"Schmidmühlen","municipality":{"key":"09371148","name":"Schmidmühlen, M","type":"Markt"},"district":{"key":"09371","name":"Amberg-Sulzbach","type":"Landkreis"},"federalState":{"key":"09","name":"Bayern"}},{"name":"Ledererhang","postalCode":"92287","locality":"Schmidmühlen","municipality":{"key":"09371148","name":"Schmidmühlen, M","type":"Markt"},"district":{"key":"09371","name":"Amberg-Sulzbach","type":"Landkreis"},"federalState":{"key":"09","name":"Bayern"}},{"name":"Pfarrer-Gillitzer-Str.","postalCode":"92287","locality":"Schmidmühlen","municipality":{"key":"09371148","name":"Schmidmühlen, M","type":"Markt"},"district":{"key":"09371","name":"Amberg-Sulzbach","type":"Landkreis"},"federalState":{"key":"09","name":"Bayern"}},{"name":"Pfarrer-Härtle-Str.","postalCode":"92287","locality":"Schmidmühlen","municipality":{"key":"09371148","name":"Schmidmühlen, M","type":"Markt"},"district":{"key":"09371","name":"Amberg-Sulzbach","type":"Landkreis"},"federalState":{"key":"09","name":"Bayern"}},{"name":"Pirkenhofstr.","postalCode":"92287","locality":"Schmidmühlen","municipality":{"key":"09371148","name":"Schmidmühlen, M","type":"Markt"},"district":{"key":"09371","name":"Amberg-Sulzbach","type":"Landkreis"},"federalState":{"key":"09","name":"Bayern"}},{"name":"Poststr.","postalCode":"92287","locality":"Schmidmühlen","municipality":{"key":"09371148","name":"Schmidmühlen, M","type":"Markt"},"district":{"key":"09371","name":"Amberg-Sulzbach","type":"Landkreis"},"federalState":{"key":"09","name":"Bayern"}},{"name":"Rathausstr.","postalCode":"92287","locality":"Schmidmühlen","municipality":{"key":"09371148","name":"Schmidmühlen, M","type":"Markt"},"district":{"key":"09371","name":"Amberg-Sulzbach","type":"Landkreis"},"federalState":{"key":"09","name":"Bayern"}},{"name":"Rosenstr.","postalCode":"92287","locality":"Schmidmühlen","municipality":{"key":"09371148","name":"Schmidmühlen, M","type":"Markt"},"district":{"key":"09371","name":"Amberg-Sulzbach","type":"Landkreis"},"federalState":{"key":"09","name":"Bayern"}},{"name":"Roßbergweg","postalCode":"92287","locality":"Schmidmühlen","municipality":{"key":"09371148","name":"Schmidmühlen, M","type":"Markt"},"district":{"key":"09371","name":"Amberg-Sulzbach","type":"Landkreis"},"federalState":{"key":"09","name":"Bayern"}},{"name":"Sandweg","postalCode":"92287","locality":"Schmidmühlen","municipality":{"key":"09371148","name":"Schmidmühlen, M","type":"Markt"},"district":{"key":"09371","name":"Amberg-Sulzbach","type":"Landkreis"},"federalState":{"key":"09","name":"Bayern"}},{"name":"Scharltalstr.","postalCode":"92287","locality":"Schmidmühlen","municipality":{"key":"09371148","name":"Schmidmühlen, M","type":"Markt"},"district":{"key":"09371","name":"Amberg-Sulzbach","type":"Landkreis"},"federalState":{"key":"09","name":"Bayern"}},{"name":"Schlehensteig","postalCode":"92287","locality":"Schmidmühlen","municipality":{"key":"09371148","name":"Schmidmühlen, M","type":"Markt"},"district":{"key":"09371","name":"Amberg-Sulzbach","type":"Landkreis"},"federalState":{"key":"09","name":"Bayern"}},{"name":"Schlocht","postalCode":"92287","locality":"Schmidmühlen","municipality":{"key":"09371148","name":"Schmidmühlen, M","type":"Markt"},"district":{"key":"09371","name":"Amberg-Sulzbach","type":"Landkreis"},"federalState":{"key":"09","name":"Bayern"}},{"name":"Schloßstr.","postalCode":"92287","locality":"Schmidmühlen","municipality":{"key":"09371148","name":"Schmidmühlen, M","type":"Markt"},"district":{"key":"09371","name":"Amberg-Sulzbach","type":"Landkreis"},"federalState":{"key":"09","name":"Bayern"}},{"name":"Schmidmühlener Str.","postalCode":"92287","locality":"Schmidmühlen","municipality":{"key":"09371148","name":"Schmidmühlen, M","type":"Markt"},"district":{"key":"09371","name":"Amberg-Sulzbach","type":"Landkreis"},"federalState":{"key":"09","name":"Bayern"}},{"name":"Schulgasse","postalCode":"92287","locality":"Schmidmühlen","municipality":{"key":"09371148","name":"Schmidmühlen, M","type":"Markt"},"district":{"key":"09371","name":"Amberg-Sulzbach","type":"Landkreis"},"federalState":{"key":"09","name":"Bayern"}},{"name":"Schweppermannstr.","postalCode":"92287","locality":"Schmidmühlen","municipality":{"key":"09371148","name":"Schmidmühlen, M","type":"Markt"},"district":{"key":"09371","name":"Amberg-Sulzbach","type":"Landkreis"},"federalState":{"key":"09","name":"Bayern"}},{"name":"Skulpturenweg-Erasmus Grasser","postalCode":"92287","locality":"Schmidmühlen","municipality":{"key":"09371148","name":"Schmidmühlen, M","type":"Markt"},"district":{"key":"09371","name":"Amberg-Sulzbach","type":"Landkreis"},"federalState":{"key":"09","name":"Bayern"}},{"name":"Sonnenstr.","postalCode":"92287","locality":"Schmidmühlen","municipality":{"key":"09371148","name":"Schmidmühlen, M","type":"Markt"},"district":{"key":"09371","name":"Amberg-Sulzbach","type":"Landkreis"},"federalState":{"key":"09","name":"Bayern"}},{"name":"St.-Ägidius-Str.","postalCode":"92287","locality":"Schmidmühlen","municipality":{"key":"09371148","name":"Schmidmühlen, M","type":"Markt"},"district":{"key":"09371","name":"Amberg-Sulzbach","type":"Landkreis"},"federalState":{"key":"09","name":"Bayern"}},{"name":"Tulpenstr.","postalCode":"92287","locality":"Schmidmühlen","municipality":{"key":"09371148","name":"Schmidmühlen, M","type":"Markt"},"district":{"key":"09371","name":"Amberg-Sulzbach","type":"Landkreis"},"federalState":{"key":"09","name":"Bayern"}},{"name":"Unterer Fallbergweg","postalCode":"92287","locality":"Schmidmühlen","municipality":{"key":"09371148","name":"Schmidmühlen, M","type":"Markt"},"district":{"key":"09371","name":"Amberg-Sulzbach","type":"Landkreis"},"federalState":{"key":"09","name":"Bayern"}},{"name":"Von-Andrian-Str.","postalCode":"92287","locality":"Schmidmühlen","municipality":{"key":"09371148","name":"Schmidmühlen, M","type":"Markt"},"district":{"key":"09371","name":"Amberg-Sulzbach","type":"Landkreis"},"federalState":{"key":"09","name":"Bayern"}},{"name":"Von-Spiering-Str.","postalCode":"92287","locality":"Schmidmühlen","municipality":{"key":"09371148","name":"Schmidmühlen, M","type":"Markt"},"district":{"key":"09371","name":"Amberg-Sulzbach","type":"Landkreis"},"federalState":{"key":"09","name":"Bayern"}},{"name":"Von-Vischbach-Str.","postalCode":"92287","locality":"Schmidmühlen","municipality":{"key":"09371148","name":"Schmidmühlen, M","type":"Markt"},"district":{"key":"09371","name":"Amberg-Sulzbach","type":"Landkreis"},"federalState":{"key":"09","name":"Bayern"}},{"name":"Weinbergweg","postalCode":"92287","locality":"Schmidmühlen","municipality":{"key":"09371148","name":"Schmidmühlen, M","type":"Markt"},"district":{"key":"09371","name":"Amberg-Sulzbach","type":"Landkreis"},"federalState":{"key":"09","name":"Bayern"}},{"name":"Wiesenweg","postalCode":"92287","locality":"Schmidmühlen","municipality":{"key":"09371148","name":"Schmidmühlen, M","type":"Markt"},"district":{"key":"09371","name":"Amberg-Sulzbach","type":"Landkreis"},"federalState":{"key":"09","name":"Bayern"}},{"name":"Wittelsbacherstr.","postalCode":"92287","locality":"Schmidmühlen","municipality":{"key":"09371148","name":"Schmidmühlen, M","type":"Markt"},"district":{"key":"09371","name":"Amberg-Sulzbach","type":"Landkreis"},"federalState":{"key":"09","name":"Bayern"}},{"name":"Ziegelhüttenweg","postalCode":"92287","locality":"Schmidmühlen","municipality":{"key":"09371148","name":"Schmidmühlen, M","type":"Markt"},"district":{"key":"09371","name":"Amberg-Sulzbach","type":"Landkreis"},"federalState":{"key":"09","name":"Bayern"}},{"name":"Zieglerweg","postalCode":"92287","locality":"Schmidmühlen","municipality":{"key":"09371148","name":"Schmidmühlen, M","type":"Markt"},"district":{"key":"09371","name":"Amberg-Sulzbach","type":"Landkreis"},"federalState":{"key":"09","name":"Bayern"}},]