[{"name":"Adelindisstr.","postalCode":"88422","locality":"Bad Buchau","municipality":{"key":"08426013","name":"Bad Buchau, Stadt","type":"Stadt"},"district":{"key":"08426","name":"Biberach","type":"Landkreis"},"federalState":{"key":"08","name":"Baden-Württemberg"}},{"name":"Albert Einstein Str.","postalCode":"88422","locality":"Bad Buchau","municipality":{"key":"08426013","name":"Bad Buchau, Stadt","type":"Stadt"},"district":{"key":"08426","name":"Biberach","type":"Landkreis"},"federalState":{"key":"08","name":"Baden-Württemberg"}},{"name":"Albert-Einstein-Str.","postalCode":"88422","locality":"Bad Buchau","municipality":{"key":"08426013","name":"Bad Buchau, Stadt","type":"Stadt"},"district":{"key":"08426","name":"Biberach","type":"Landkreis"},"federalState":{"key":"08","name":"Baden-Württemberg"}},{"name":"Allmannsweiler Str.","postalCode":"88422","locality":"Bad Buchau","municipality":{"key":"08426013","name":"Bad Buchau, Stadt","type":"Stadt"},"district":{"key":"08426","name":"Biberach","type":"Landkreis"},"federalState":{"key":"08","name":"Baden-Württemberg"}},{"name":"Am Bahndamm","postalCode":"88422","locality":"Bad Buchau","municipality":{"key":"08426013","name":"Bad Buchau, Stadt","type":"Stadt"},"district":{"key":"08426","name":"Biberach","type":"Landkreis"},"federalState":{"key":"08","name":"Baden-Württemberg"}},{"name":"Am Burrenkeller","postalCode":"88422","locality":"Bad Buchau","municipality":{"key":"08426013","name":"Bad Buchau, Stadt","type":"Stadt"},"district":{"key":"08426","name":"Biberach","type":"Landkreis"},"federalState":{"key":"08","name":"Baden-Württemberg"}},{"name":"archäologischer Moorlehrpfad","postalCode":"88422","locality":"Bad Buchau","municipality":{"key":"08426013","name":"Bad Buchau, Stadt","type":"Stadt"},"district":{"key":"08426","name":"Biberach","type":"Landkreis"},"federalState":{"key":"08","name":"Baden-Württemberg"}},{"name":"Auf dem Burren","postalCode":"88422","locality":"Bad Buchau","municipality":{"key":"08426013","name":"Bad Buchau, Stadt","type":"Stadt"},"district":{"key":"08426","name":"Biberach","type":"Landkreis"},"federalState":{"key":"08","name":"Baden-Württemberg"}},{"name":"Auf der Staig","postalCode":"88422","locality":"Bad Buchau","municipality":{"key":"08426013","name":"Bad Buchau, Stadt","type":"Stadt"},"district":{"key":"08426","name":"Biberach","type":"Landkreis"},"federalState":{"key":"08","name":"Baden-Württemberg"}},{"name":"August-Gröber-Platz","postalCode":"88422","locality":"Bad Buchau","municipality":{"key":"08426013","name":"Bad Buchau, Stadt","type":"Stadt"},"district":{"key":"08426","name":"Biberach","type":"Landkreis"},"federalState":{"key":"08","name":"Baden-Württemberg"}},{"name":"Bachgasse","postalCode":"88422","locality":"Bad Buchau","municipality":{"key":"08426013","name":"Bad Buchau, Stadt","type":"Stadt"},"district":{"key":"08426","name":"Biberach","type":"Landkreis"},"federalState":{"key":"08","name":"Baden-Württemberg"}},{"name":"Badgasse","postalCode":"88422","locality":"Bad Buchau","municipality":{"key":"08426013","name":"Bad Buchau, Stadt","type":"Stadt"},"district":{"key":"08426","name":"Biberach","type":"Landkreis"},"federalState":{"key":"08","name":"Baden-Württemberg"}},{"name":"Badhausstr.","postalCode":"88422","locality":"Bad Buchau","municipality":{"key":"08426013","name":"Bad Buchau, Stadt","type":"Stadt"},"district":{"key":"08426","name":"Biberach","type":"Landkreis"},"federalState":{"key":"08","name":"Baden-Württemberg"}},{"name":"Beim Bahnhof","postalCode":"88422","locality":"Bad Buchau","municipality":{"key":"08426013","name":"Bad Buchau, Stadt","type":"Stadt"},"district":{"key":"08426","name":"Biberach","type":"Landkreis"},"federalState":{"key":"08","name":"Baden-Württemberg"}},{"name":"Birkhahnweg","postalCode":"88422","locality":"Bad Buchau","municipality":{"key":"08426013","name":"Bad Buchau, Stadt","type":"Stadt"},"district":{"key":"08426","name":"Biberach","type":"Landkreis"},"federalState":{"key":"08","name":"Baden-Württemberg"}},{"name":"Bittelwiesenweg","postalCode":"88422","locality":"Bad Buchau","municipality":{"key":"08426013","name":"Bad Buchau, Stadt","type":"Stadt"},"district":{"key":"08426","name":"Biberach","type":"Landkreis"},"federalState":{"key":"08","name":"Baden-Württemberg"}},{"name":"Breite Str.","postalCode":"88422","locality":"Bad Buchau","municipality":{"key":"08426013","name":"Bad Buchau, Stadt","type":"Stadt"},"district":{"key":"08426","name":"Biberach","type":"Landkreis"},"federalState":{"key":"08","name":"Baden-Württemberg"}},{"name":"Christian-Koehler-Weg","postalCode":"88400","locality":"Biberach an der Riß","municipality":{"key":"08426021","name":"Biberach an der Riß, Stadt","type":"Große_Kreisstadt"},"district":{"key":"08426","name":"Biberach","type":"Landkreis"},"federalState":{"key":"08","name":"Baden-Württemberg"}},{"name":"Christian-Xeller-Weg","postalCode":"88400","locality":"Biberach an der Riß","municipality":{"key":"08426021","name":"Biberach an der Riß, Stadt","type":"Große_Kreisstadt"},"district":{"key":"08426","name":"Biberach","type":"Landkreis"},"federalState":{"key":"08","name":"Baden-Württemberg"}},{"name":"Clara-Schumann-Str.","postalCode":"88400","locality":"Biberach an der Riß","municipality":{"key":"08426021","name":"Biberach an der Riß, Stadt","type":"Große_Kreisstadt"},"district":{"key":"08426","name":"Biberach","type":"Landkreis"},"federalState":{"key":"08","name":"Baden-Württemberg"}},{"name":"Consulentengasse","postalCode":"88400","locality":"Biberach an der Riß","municipality":{"key":"08426021","name":"Biberach an der Riß, Stadt","type":"Große_Kreisstadt"},"district":{"key":"08426","name":"Biberach","type":"Landkreis"},"federalState":{"key":"08","name":"Baden-Württemberg"}},{"name":"Dinkelweg","postalCode":"88422","locality":"Bad Buchau","municipality":{"key":"08426013","name":"Bad Buchau, Stadt","type":"Stadt"},"district":{"key":"08426","name":"Biberach","type":"Landkreis"},"federalState":{"key":"08","name":"Baden-Württemberg"}},{"name":"Dr.-Wilhelm-Ladenburger-Str.","postalCode":"88422","locality":"Bad Buchau","municipality":{"key":"08426013","name":"Bad Buchau, Stadt","type":"Stadt"},"district":{"key":"08426","name":"Biberach","type":"Landkreis"},"federalState":{"key":"08","name":"Baden-Württemberg"}},{"name":"Dullenriedweg","postalCode":"88422","locality":"Bad Buchau","municipality":{"key":"08426013","name":"Bad Buchau, Stadt","type":"Stadt"},"district":{"key":"08426","name":"Biberach","type":"Landkreis"},"federalState":{"key":"08","name":"Baden-Württemberg"}},{"name":"Engelgasse","postalCode":"88422","locality":"Bad Buchau","municipality":{"key":"08426013","name":"Bad Buchau, Stadt","type":"Stadt"},"district":{"key":"08426","name":"Biberach","type":"Landkreis"},"federalState":{"key":"08","name":"Baden-Württemberg"}},{"name":"Federseeweg","postalCode":"88422","locality":"Bad Buchau","municipality":{"key":"08426013","name":"Bad Buchau, Stadt","type":"Stadt"},"district":{"key":"08426","name":"Biberach","type":"Landkreis"},"federalState":{"key":"08","name":"Baden-Württemberg"}},{"name":"Fischerhausen","postalCode":"88422","locality":"Bad Buchau","municipality":{"key":"08426013","name":"Bad Buchau, Stadt","type":"Stadt"},"district":{"key":"08426","name":"Biberach","type":"Landkreis"},"federalState":{"key":"08","name":"Baden-Württemberg"}},{"name":"Forststr.","postalCode":"88422","locality":"Bad Buchau","municipality":{"key":"08426013","name":"Bad Buchau, Stadt","type":"Stadt"},"district":{"key":"08426","name":"Biberach","type":"Landkreis"},"federalState":{"key":"08","name":"Baden-Württemberg"}},{"name":"Freihofgasse","postalCode":"88422","locality":"Bad Buchau","municipality":{"key":"08426013","name":"Bad Buchau, Stadt","type":"Stadt"},"district":{"key":"08426","name":"Biberach","type":"Landkreis"},"federalState":{"key":"08","name":"Baden-Württemberg"}},{"name":"Friedenstr.","postalCode":"88422","locality":"Bad Buchau","municipality":{"key":"08426013","name":"Bad Buchau, Stadt","type":"Stadt"},"district":{"key":"08426","name":"Biberach","type":"Landkreis"},"federalState":{"key":"08","name":"Baden-Württemberg"}},{"name":"Friedhofstr.","postalCode":"88422","locality":"Bad Buchau","municipality":{"key":"08426013","name":"Bad Buchau, Stadt","type":"Stadt"},"district":{"key":"08426","name":"Biberach","type":"Landkreis"},"federalState":{"key":"08","name":"Baden-Württemberg"}},{"name":"Galgentalstr.","postalCode":"88422","locality":"Bad Buchau","municipality":{"key":"08426013","name":"Bad Buchau, Stadt","type":"Stadt"},"district":{"key":"08426","name":"Biberach","type":"Landkreis"},"federalState":{"key":"08","name":"Baden-Württemberg"}},{"name":"Gartenstr.","postalCode":"88422","locality":"Bad Buchau","municipality":{"key":"08426013","name":"Bad Buchau, Stadt","type":"Stadt"},"district":{"key":"08426","name":"Biberach","type":"Landkreis"},"federalState":{"key":"08","name":"Baden-Württemberg"}},{"name":"Goethestr.","postalCode":"88422","locality":"Bad Buchau","municipality":{"key":"08426013","name":"Bad Buchau, Stadt","type":"Stadt"},"district":{"key":"08426","name":"Biberach","type":"Landkreis"},"federalState":{"key":"08","name":"Baden-Württemberg"}},{"name":"Gottlieb-Gnannt-Str.","postalCode":"88422","locality":"Bad Buchau","municipality":{"key":"08426013","name":"Bad Buchau, Stadt","type":"Stadt"},"district":{"key":"08426","name":"Biberach","type":"Landkreis"},"federalState":{"key":"08","name":"Baden-Württemberg"}},{"name":"Graf-Hatto-Str.","postalCode":"88422","locality":"Bad Buchau","municipality":{"key":"08426013","name":"Bad Buchau, Stadt","type":"Stadt"},"district":{"key":"08426","name":"Biberach","type":"Landkreis"},"federalState":{"key":"08","name":"Baden-Württemberg"}},{"name":"Grubenstr.","postalCode":"88422","locality":"Bad Buchau","municipality":{"key":"08426013","name":"Bad Buchau, Stadt","type":"Stadt"},"district":{"key":"08426","name":"Biberach","type":"Landkreis"},"federalState":{"key":"08","name":"Baden-Württemberg"}},{"name":"Hanfweiher","postalCode":"88422","locality":"Bad Buchau","municipality":{"key":"08426013","name":"Bad Buchau, Stadt","type":"Stadt"},"district":{"key":"08426","name":"Biberach","type":"Landkreis"},"federalState":{"key":"08","name":"Baden-Württemberg"}},{"name":"Hans-Kayser-Str.","postalCode":"88422","locality":"Bad Buchau","municipality":{"key":"08426013","name":"Bad Buchau, Stadt","type":"Stadt"},"district":{"key":"08426","name":"Biberach","type":"Landkreis"},"federalState":{"key":"08","name":"Baden-Württemberg"}},{"name":"Häselstr.","postalCode":"88422","locality":"Bad Buchau","municipality":{"key":"08426013","name":"Bad Buchau, Stadt","type":"Stadt"},"district":{"key":"08426","name":"Biberach","type":"Landkreis"},"federalState":{"key":"08","name":"Baden-Württemberg"}},{"name":"Hauptstr.","postalCode":"88422","locality":"Bad Buchau","municipality":{"key":"08426013","name":"Bad Buchau, Stadt","type":"Stadt"},"district":{"key":"08426","name":"Biberach","type":"Landkreis"},"federalState":{"key":"08","name":"Baden-Württemberg"}},{"name":"Helenenstr.","postalCode":"88422","locality":"Bad Buchau","municipality":{"key":"08426013","name":"Bad Buchau, Stadt","type":"Stadt"},"district":{"key":"08426","name":"Biberach","type":"Landkreis"},"federalState":{"key":"08","name":"Baden-Württemberg"}},{"name":"Hochgerichtstr.","postalCode":"88422","locality":"Bad Buchau","municipality":{"key":"08426013","name":"Bad Buchau, Stadt","type":"Stadt"},"district":{"key":"08426","name":"Biberach","type":"Landkreis"},"federalState":{"key":"08","name":"Baden-Württemberg"}},{"name":"Hofgartenstr.","postalCode":"88422","locality":"Bad Buchau","municipality":{"key":"08426013","name":"Bad Buchau, Stadt","type":"Stadt"},"district":{"key":"08426","name":"Biberach","type":"Landkreis"},"federalState":{"key":"08","name":"Baden-Württemberg"}},{"name":"Hölderlinstr.","postalCode":"88422","locality":"Bad Buchau","municipality":{"key":"08426013","name":"Bad Buchau, Stadt","type":"Stadt"},"district":{"key":"08426","name":"Biberach","type":"Landkreis"},"federalState":{"key":"08","name":"Baden-Württemberg"}},{"name":"Hopfenweg","postalCode":"88422","locality":"Bad Buchau","municipality":{"key":"08426013","name":"Bad Buchau, Stadt","type":"Stadt"},"district":{"key":"08426","name":"Biberach","type":"Landkreis"},"federalState":{"key":"08","name":"Baden-Württemberg"}},{"name":"Im Winkel","postalCode":"88422","locality":"Bad Buchau","municipality":{"key":"08426013","name":"Bad Buchau, Stadt","type":"Stadt"},"district":{"key":"08426","name":"Biberach","type":"Landkreis"},"federalState":{"key":"08","name":"Baden-Württemberg"}},{"name":"Inselstr.","postalCode":"88422","locality":"Bad Buchau","municipality":{"key":"08426013","name":"Bad Buchau, Stadt","type":"Stadt"},"district":{"key":"08426","name":"Biberach","type":"Landkreis"},"federalState":{"key":"08","name":"Baden-Württemberg"}},{"name":"Irmengardisstr.","postalCode":"88422","locality":"Bad Buchau","municipality":{"key":"08426013","name":"Bad Buchau, Stadt","type":"Stadt"},"district":{"key":"08426","name":"Biberach","type":"Landkreis"},"federalState":{"key":"08","name":"Baden-Württemberg"}},{"name":"Joseph-Erlanger-Str.","postalCode":"88422","locality":"Bad Buchau","municipality":{"key":"08426013","name":"Bad Buchau, Stadt","type":"Stadt"},"district":{"key":"08426","name":"Biberach","type":"Landkreis"},"federalState":{"key":"08","name":"Baden-Württemberg"}},{"name":"Judengasse","postalCode":"88422","locality":"Bad Buchau","municipality":{"key":"08426013","name":"Bad Buchau, Stadt","type":"Stadt"},"district":{"key":"08426","name":"Biberach","type":"Landkreis"},"federalState":{"key":"08","name":"Baden-Württemberg"}},{"name":"Julius-Laub-Str.","postalCode":"88422","locality":"Bad Buchau","municipality":{"key":"08426013","name":"Bad Buchau, Stadt","type":"Stadt"},"district":{"key":"08426","name":"Biberach","type":"Landkreis"},"federalState":{"key":"08","name":"Baden-Württemberg"}},{"name":"Kangen","postalCode":"88422","locality":"Bad Buchau","municipality":{"key":"08426013","name":"Bad Buchau, Stadt","type":"Stadt"},"district":{"key":"08426","name":"Biberach","type":"Landkreis"},"federalState":{"key":"08","name":"Baden-Württemberg"}},{"name":"Kapellenstr.","postalCode":"88422","locality":"Bad Buchau","municipality":{"key":"08426013","name":"Bad Buchau, Stadt","type":"Stadt"},"district":{"key":"08426","name":"Biberach","type":"Landkreis"},"federalState":{"key":"08","name":"Baden-Württemberg"}},{"name":"Kappeler Höhe","postalCode":"88422","locality":"Bad Buchau","municipality":{"key":"08426013","name":"Bad Buchau, Stadt","type":"Stadt"},"district":{"key":"08426","name":"Biberach","type":"Landkreis"},"federalState":{"key":"08","name":"Baden-Württemberg"}},{"name":"Karlstr.","postalCode":"88422","locality":"Bad Buchau","municipality":{"key":"08426013","name":"Bad Buchau, Stadt","type":"Stadt"},"district":{"key":"08426","name":"Biberach","type":"Landkreis"},"federalState":{"key":"08","name":"Baden-Württemberg"}},{"name":"Karpfenstr.","postalCode":"88422","locality":"Bad Buchau","municipality":{"key":"08426013","name":"Bad Buchau, Stadt","type":"Stadt"},"district":{"key":"08426","name":"Biberach","type":"Landkreis"},"federalState":{"key":"08","name":"Baden-Württemberg"}},{"name":"Kirchstr.","postalCode":"88422","locality":"Bad Buchau","municipality":{"key":"08426013","name":"Bad Buchau, Stadt","type":"Stadt"},"district":{"key":"08426","name":"Biberach","type":"Landkreis"},"federalState":{"key":"08","name":"Baden-Württemberg"}},{"name":"Kolpingstr.","postalCode":"88422","locality":"Bad Buchau","municipality":{"key":"08426013","name":"Bad Buchau, Stadt","type":"Stadt"},"district":{"key":"08426","name":"Biberach","type":"Landkreis"},"federalState":{"key":"08","name":"Baden-Württemberg"}},{"name":"Kurpark","postalCode":"88422","locality":"Bad Buchau","municipality":{"key":"08426013","name":"Bad Buchau, Stadt","type":"Stadt"},"district":{"key":"08426","name":"Biberach","type":"Landkreis"},"federalState":{"key":"08","name":"Baden-Württemberg"}},{"name":"Lehenstr.","postalCode":"88422","locality":"Bad Buchau","municipality":{"key":"08426013","name":"Bad Buchau, Stadt","type":"Stadt"},"district":{"key":"08426","name":"Biberach","type":"Landkreis"},"federalState":{"key":"08","name":"Baden-Württemberg"}},{"name":"Lina-Hähnle-Str.","postalCode":"88422","locality":"Bad Buchau","municipality":{"key":"08426013","name":"Bad Buchau, Stadt","type":"Stadt"},"district":{"key":"08426","name":"Biberach","type":"Landkreis"},"federalState":{"key":"08","name":"Baden-Württemberg"}},{"name":"Lindenstr.","postalCode":"88422","locality":"Bad Buchau","municipality":{"key":"08426013","name":"Bad Buchau, Stadt","type":"Stadt"},"district":{"key":"08426","name":"Biberach","type":"Landkreis"},"federalState":{"key":"08","name":"Baden-Württemberg"}},{"name":"Marktplatz","postalCode":"88422","locality":"Bad Buchau","municipality":{"key":"08426013","name":"Bad Buchau, Stadt","type":"Stadt"},"district":{"key":"08426","name":"Biberach","type":"Landkreis"},"federalState":{"key":"08","name":"Baden-Württemberg"}},{"name":"Michel-Buck-Str.","postalCode":"88422","locality":"Bad Buchau","municipality":{"key":"08426013","name":"Bad Buchau, Stadt","type":"Stadt"},"district":{"key":"08426","name":"Biberach","type":"Landkreis"},"federalState":{"key":"08","name":"Baden-Württemberg"}},{"name":"Mohrengasse","postalCode":"88422","locality":"Bad Buchau","municipality":{"key":"08426013","name":"Bad Buchau, Stadt","type":"Stadt"},"district":{"key":"08426","name":"Biberach","type":"Landkreis"},"federalState":{"key":"08","name":"Baden-Württemberg"}},{"name":"Moosburger Str.","postalCode":"88422","locality":"Bad Buchau","municipality":{"key":"08426013","name":"Bad Buchau, Stadt","type":"Stadt"},"district":{"key":"08426","name":"Biberach","type":"Landkreis"},"federalState":{"key":"08","name":"Baden-Württemberg"}},{"name":"Mörikestr.","postalCode":"88422","locality":"Bad Buchau","municipality":{"key":"08426013","name":"Bad Buchau, Stadt","type":"Stadt"},"district":{"key":"08426","name":"Biberach","type":"Landkreis"},"federalState":{"key":"08","name":"Baden-Württemberg"}},{"name":"Moritz-Vierfelder-Str.","postalCode":"88422","locality":"Bad Buchau","municipality":{"key":"08426013","name":"Bad Buchau, Stadt","type":"Stadt"},"district":{"key":"08426","name":"Biberach","type":"Landkreis"},"federalState":{"key":"08","name":"Baden-Württemberg"}},{"name":"Möwenweg","postalCode":"88422","locality":"Bad Buchau","municipality":{"key":"08426013","name":"Bad Buchau, Stadt","type":"Stadt"},"district":{"key":"08426","name":"Biberach","type":"Landkreis"},"federalState":{"key":"08","name":"Baden-Württemberg"}},{"name":"Mühlbachstr.","postalCode":"88422","locality":"Bad Buchau","municipality":{"key":"08426013","name":"Bad Buchau, Stadt","type":"Stadt"},"district":{"key":"08426","name":"Biberach","type":"Landkreis"},"federalState":{"key":"08","name":"Baden-Württemberg"}},{"name":"Neherstr.","postalCode":"88400","locality":"Biberach an der Riß","municipality":{"key":"08426021","name":"Biberach an der Riß, Stadt","type":"Große_Kreisstadt"},"district":{"key":"08426","name":"Biberach","type":"Landkreis"},"federalState":{"key":"08","name":"Baden-Württemberg"}},{"name":"Nelkenweg","postalCode":"88441","locality":"Mittelbiberach","municipality":{"key":"08426074","name":"Mittelbiberach","type":"Kreisangehörige_Gemeinde"},"district":{"key":"08426","name":"Biberach","type":"Landkreis"},"federalState":{"key":"08","name":"Baden-Württemberg"}},{"name":"Neue Gasse","postalCode":"88400","locality":"Biberach an der Riß","municipality":{"key":"08426021","name":"Biberach an der Riß, Stadt","type":"Große_Kreisstadt"},"district":{"key":"08426","name":"Biberach","type":"Landkreis"},"federalState":{"key":"08","name":"Baden-Württemberg"}},{"name":"Neue Heimat","postalCode":"88400","locality":"Biberach an der Riß","municipality":{"key":"08426021","name":"Biberach an der Riß, Stadt","type":"Große_Kreisstadt"},"district":{"key":"08426","name":"Biberach","type":"Landkreis"},"federalState":{"key":"08","name":"Baden-Württemberg"}},{"name":"Neusatzweg","postalCode":"88400","locality":"Biberach an der Riß","municipality":{"key":"08426021","name":"Biberach an der Riß, Stadt","type":"Große_Kreisstadt"},"district":{"key":"08426","name":"Biberach","type":"Landkreis"},"federalState":{"key":"08","name":"Baden-Württemberg"}},{"name":"Nickeleshalde","postalCode":"88400","locality":"Biberach an der Riß","municipality":{"key":"08426021","name":"Biberach an der Riß, Stadt","type":"Große_Kreisstadt"},"district":{"key":"08426","name":"Biberach","type":"Landkreis"},"federalState":{"key":"08","name":"Baden-Württemberg"}},{"name":"Oberbachstr.","postalCode":"88422","locality":"Bad Buchau","municipality":{"key":"08426013","name":"Bad Buchau, Stadt","type":"Stadt"},"district":{"key":"08426","name":"Biberach","type":"Landkreis"},"federalState":{"key":"08","name":"Baden-Württemberg"}},{"name":"Oberförster-Staudacher-Weg","postalCode":"88422","locality":"Bad Buchau","municipality":{"key":"08426013","name":"Bad Buchau, Stadt","type":"Stadt"},"district":{"key":"08426","name":"Biberach","type":"Landkreis"},"federalState":{"key":"08","name":"Baden-Württemberg"}},{"name":"Oggelshauser Str.","postalCode":"88422","locality":"Bad Buchau","municipality":{"key":"08426013","name":"Bad Buchau, Stadt","type":"Stadt"},"district":{"key":"08426","name":"Biberach","type":"Landkreis"},"federalState":{"key":"08","name":"Baden-Württemberg"}},{"name":"Paulstr.","postalCode":"88422","locality":"Bad Buchau","municipality":{"key":"08426013","name":"Bad Buchau, Stadt","type":"Stadt"},"district":{"key":"08426","name":"Biberach","type":"Landkreis"},"federalState":{"key":"08","name":"Baden-Württemberg"}},{"name":"Peterstr.","postalCode":"88422","locality":"Bad Buchau","municipality":{"key":"08426013","name":"Bad Buchau, Stadt","type":"Stadt"},"district":{"key":"08426","name":"Biberach","type":"Landkreis"},"federalState":{"key":"08","name":"Baden-Württemberg"}},{"name":"Plankentalstr.","postalCode":"88422","locality":"Bad Buchau","municipality":{"key":"08426013","name":"Bad Buchau, Stadt","type":"Stadt"},"district":{"key":"08426","name":"Biberach","type":"Landkreis"},"federalState":{"key":"08","name":"Baden-Württemberg"}},{"name":"Poststr.","postalCode":"88422","locality":"Bad Buchau","municipality":{"key":"08426013","name":"Bad Buchau, Stadt","type":"Stadt"},"district":{"key":"08426","name":"Biberach","type":"Landkreis"},"federalState":{"key":"08","name":"Baden-Württemberg"}},{"name":"Prälat-Endrich-Platz","postalCode":"88422","locality":"Bad Buchau","municipality":{"key":"08426013","name":"Bad Buchau, Stadt","type":"Stadt"},"district":{"key":"08426","name":"Biberach","type":"Landkreis"},"federalState":{"key":"08","name":"Baden-Württemberg"}},{"name":"Prof.-Dr.-Karl-Berner-Str.","postalCode":"88422","locality":"Bad Buchau","municipality":{"key":"08426013","name":"Bad Buchau, Stadt","type":"Stadt"},"district":{"key":"08426","name":"Biberach","type":"Landkreis"},"federalState":{"key":"08","name":"Baden-Württemberg"}},{"name":"Reiherweg","postalCode":"88422","locality":"Bad Buchau","municipality":{"key":"08426013","name":"Bad Buchau, Stadt","type":"Stadt"},"district":{"key":"08426","name":"Biberach","type":"Landkreis"},"federalState":{"key":"08","name":"Baden-Württemberg"}},{"name":"Riedlinger Str.","postalCode":"88422","locality":"Bad Buchau","municipality":{"key":"08426013","name":"Bad Buchau, Stadt","type":"Stadt"},"district":{"key":"08426","name":"Biberach","type":"Landkreis"},"federalState":{"key":"08","name":"Baden-Württemberg"}},{"name":"Schattenbachstr.","postalCode":"88422","locality":"Bad Buchau","municipality":{"key":"08426013","name":"Bad Buchau, Stadt","type":"Stadt"},"district":{"key":"08426","name":"Biberach","type":"Landkreis"},"federalState":{"key":"08","name":"Baden-Württemberg"}},{"name":"Schillerstr.","postalCode":"88422","locality":"Bad Buchau","municipality":{"key":"08426013","name":"Bad Buchau, Stadt","type":"Stadt"},"district":{"key":"08426","name":"Biberach","type":"Landkreis"},"federalState":{"key":"08","name":"Baden-Württemberg"}},{"name":"Schlossergasse","postalCode":"88422","locality":"Bad Buchau","municipality":{"key":"08426013","name":"Bad Buchau, Stadt","type":"Stadt"},"district":{"key":"08426","name":"Biberach","type":"Landkreis"},"federalState":{"key":"08","name":"Baden-Württemberg"}},{"name":"Schloßplatz","postalCode":"88422","locality":"Bad Buchau","municipality":{"key":"08426013","name":"Bad Buchau, Stadt","type":"Stadt"},"district":{"key":"08426","name":"Biberach","type":"Landkreis"},"federalState":{"key":"08","name":"Baden-Württemberg"}},{"name":"Schmiedgasse","postalCode":"88422","locality":"Bad Buchau","municipality":{"key":"08426013","name":"Bad Buchau, Stadt","type":"Stadt"},"district":{"key":"08426","name":"Biberach","type":"Landkreis"},"federalState":{"key":"08","name":"Baden-Württemberg"}},{"name":"Schulstr.","postalCode":"88422","locality":"Bad Buchau","municipality":{"key":"08426013","name":"Bad Buchau, Stadt","type":"Stadt"},"district":{"key":"08426","name":"Biberach","type":"Landkreis"},"federalState":{"key":"08","name":"Baden-Württemberg"}},{"name":"Schussenrieder Str.","postalCode":"88422","locality":"Bad Buchau","municipality":{"key":"08426013","name":"Bad Buchau, Stadt","type":"Stadt"},"district":{"key":"08426","name":"Biberach","type":"Landkreis"},"federalState":{"key":"08","name":"Baden-Württemberg"}},{"name":"Schustergasse","postalCode":"88422","locality":"Bad Buchau","municipality":{"key":"08426013","name":"Bad Buchau, Stadt","type":"Stadt"},"district":{"key":"08426","name":"Biberach","type":"Landkreis"},"federalState":{"key":"08","name":"Baden-Württemberg"}},{"name":"Schwanenweg","postalCode":"88422","locality":"Bad Buchau","municipality":{"key":"08426013","name":"Bad Buchau, Stadt","type":"Stadt"},"district":{"key":"08426","name":"Biberach","type":"Landkreis"},"federalState":{"key":"08","name":"Baden-Württemberg"}},{"name":"Seegasse","postalCode":"88422","locality":"Bad Buchau","municipality":{"key":"08426013","name":"Bad Buchau, Stadt","type":"Stadt"},"district":{"key":"08426","name":"Biberach","type":"Landkreis"},"federalState":{"key":"08","name":"Baden-Württemberg"}},{"name":"Spitalgasse","postalCode":"88422","locality":"Bad Buchau","municipality":{"key":"08426013","name":"Bad Buchau, Stadt","type":"Stadt"},"district":{"key":"08426","name":"Biberach","type":"Landkreis"},"federalState":{"key":"08","name":"Baden-Württemberg"}},{"name":"Storchenweg","postalCode":"88422","locality":"Bad Buchau","municipality":{"key":"08426013","name":"Bad Buchau, Stadt","type":"Stadt"},"district":{"key":"08426","name":"Biberach","type":"Landkreis"},"federalState":{"key":"08","name":"Baden-Württemberg"}},{"name":"Teuchelweg","postalCode":"88422","locality":"Bad Buchau","municipality":{"key":"08426013","name":"Bad Buchau, Stadt","type":"Stadt"},"district":{"key":"08426","name":"Biberach","type":"Landkreis"},"federalState":{"key":"08","name":"Baden-Württemberg"}},{"name":"Uhlandstr.","postalCode":"88422","locality":"Bad Buchau","municipality":{"key":"08426013","name":"Bad Buchau, Stadt","type":"Stadt"},"district":{"key":"08426","name":"Biberach","type":"Landkreis"},"federalState":{"key":"08","name":"Baden-Württemberg"}},{"name":"Unterbachstr.","postalCode":"88422","locality":"Bad Buchau","municipality":{"key":"08426013","name":"Bad Buchau, Stadt","type":"Stadt"},"district":{"key":"08426","name":"Biberach","type":"Landkreis"},"federalState":{"key":"08","name":"Baden-Württemberg"}},{"name":"Vogtstr.","postalCode":"88422","locality":"Bad Buchau","municipality":{"key":"08426013","name":"Bad Buchau, Stadt","type":"Stadt"},"district":{"key":"08426","name":"Biberach","type":"Landkreis"},"federalState":{"key":"08","name":"Baden-Württemberg"}},{"name":"Wasserburg","postalCode":"88422","locality":"Bad Buchau","municipality":{"key":"08426013","name":"Bad Buchau, Stadt","type":"Stadt"},"district":{"key":"08426","name":"Biberach","type":"Landkreis"},"federalState":{"key":"08","name":"Baden-Württemberg"}},{"name":"Weiherstr.","postalCode":"88422","locality":"Bad Buchau","municipality":{"key":"08426013","name":"Bad Buchau, Stadt","type":"Stadt"},"district":{"key":"08426","name":"Biberach","type":"Landkreis"},"federalState":{"key":"08","name":"Baden-Württemberg"}},{"name":"Wellerstr.","postalCode":"88422","locality":"Bad Buchau","municipality":{"key":"08426013","name":"Bad Buchau, Stadt","type":"Stadt"},"district":{"key":"08426","name":"Biberach","type":"Landkreis"},"federalState":{"key":"08","name":"Baden-Württemberg"}},{"name":"Wielandstr.","postalCode":"88422","locality":"Bad Buchau","municipality":{"key":"08426013","name":"Bad Buchau, Stadt","type":"Stadt"},"district":{"key":"08426","name":"Biberach","type":"Landkreis"},"federalState":{"key":"08","name":"Baden-Württemberg"}},{"name":"Wuhrstr.","postalCode":"88422","locality":"Bad Buchau","municipality":{"key":"08426013","name":"Bad Buchau, Stadt","type":"Stadt"},"district":{"key":"08426","name":"Biberach","type":"Landkreis"},"federalState":{"key":"08","name":"Baden-Württemberg"}},{"name":"Zehntscheuerstr.","postalCode":"88422","locality":"Bad Buchau","municipality":{"key":"08426013","name":"Bad Buchau, Stadt","type":"Stadt"},"district":{"key":"08426","name":"Biberach","type":"Landkreis"},"federalState":{"key":"08","name":"Baden-Württemberg"}},{"name":"Öschweg","postalCode":"88441","locality":"Mittelbiberach","municipality":{"key":"08426074","name":"Mittelbiberach","type":"Kreisangehörige_Gemeinde"},"district":{"key":"08426","name":"Biberach","type":"Landkreis"},"federalState":{"key":"08","name":"Baden-Württemberg"}},]