[{"name":"Aboldstr.","postalCode":"83135","locality":"Schechen","municipality":{"key":"09187142","name":"Schechen","type":"Kreisangehörige_Gemeinde"},"district":{"key":"09187","name":"Rosenheim","type":"Landkreis"},"federalState":{"key":"09","name":"Bayern"}},{"name":"Ahornstr.","postalCode":"83135","locality":"Schechen","municipality":{"key":"09187142","name":"Schechen","type":"Kreisangehörige_Gemeinde"},"district":{"key":"09187","name":"Rosenheim","type":"Landkreis"},"federalState":{"key":"09","name":"Bayern"}},{"name":"Alte Gärtnerei","postalCode":"83135","locality":"Schechen","municipality":{"key":"09187142","name":"Schechen","type":"Kreisangehörige_Gemeinde"},"district":{"key":"09187","name":"Rosenheim","type":"Landkreis"},"federalState":{"key":"09","name":"Bayern"}},{"name":"Am Anger","postalCode":"83135","locality":"Schechen","municipality":{"key":"09187142","name":"Schechen","type":"Kreisangehörige_Gemeinde"},"district":{"key":"09187","name":"Rosenheim","type":"Landkreis"},"federalState":{"key":"09","name":"Bayern"}},{"name":"Am Eschengrund","postalCode":"83135","locality":"Schechen","municipality":{"key":"09187142","name":"Schechen","type":"Kreisangehörige_Gemeinde"},"district":{"key":"09187","name":"Rosenheim","type":"Landkreis"},"federalState":{"key":"09","name":"Bayern"}},{"name":"Am Gries","postalCode":"83135","locality":"Schechen","municipality":{"key":"09187142","name":"Schechen","type":"Kreisangehörige_Gemeinde"},"district":{"key":"09187","name":"Rosenheim","type":"Landkreis"},"federalState":{"key":"09","name":"Bayern"}},{"name":"Am Sandberg","postalCode":"83135","locality":"Schechen","municipality":{"key":"09187142","name":"Schechen","type":"Kreisangehörige_Gemeinde"},"district":{"key":"09187","name":"Rosenheim","type":"Landkreis"},"federalState":{"key":"09","name":"Bayern"}},{"name":"Am Weiher","postalCode":"83135","locality":"Schechen","municipality":{"key":"09187142","name":"Schechen","type":"Kreisangehörige_Gemeinde"},"district":{"key":"09187","name":"Rosenheim","type":"Landkreis"},"federalState":{"key":"09","name":"Bayern"}},{"name":"Asternstr.","postalCode":"83135","locality":"Schechen","municipality":{"key":"09187142","name":"Schechen","type":"Kreisangehörige_Gemeinde"},"district":{"key":"09187","name":"Rosenheim","type":"Landkreis"},"federalState":{"key":"09","name":"Bayern"}},{"name":"Au","postalCode":"83135","locality":"Schechen","municipality":{"key":"09187142","name":"Schechen","type":"Kreisangehörige_Gemeinde"},"district":{"key":"09187","name":"Rosenheim","type":"Landkreis"},"federalState":{"key":"09","name":"Bayern"}},{"name":"Austr.","postalCode":"83135","locality":"Schechen","municipality":{"key":"09187142","name":"Schechen","type":"Kreisangehörige_Gemeinde"},"district":{"key":"09187","name":"Rosenheim","type":"Landkreis"},"federalState":{"key":"09","name":"Bayern"}},{"name":"Bahnhofstr.","postalCode":"83135","locality":"Schechen","municipality":{"key":"09187142","name":"Schechen","type":"Kreisangehörige_Gemeinde"},"district":{"key":"09187","name":"Rosenheim","type":"Landkreis"},"federalState":{"key":"09","name":"Bayern"}},{"name":"Birkenweg","postalCode":"83135","locality":"Schechen","municipality":{"key":"09187142","name":"Schechen","type":"Kreisangehörige_Gemeinde"},"district":{"key":"09187","name":"Rosenheim","type":"Landkreis"},"federalState":{"key":"09","name":"Bayern"}},{"name":"Blumenstr.","postalCode":"83135","locality":"Schechen","municipality":{"key":"09187142","name":"Schechen","type":"Kreisangehörige_Gemeinde"},"district":{"key":"09187","name":"Rosenheim","type":"Landkreis"},"federalState":{"key":"09","name":"Bayern"}},{"name":"Carl-Orff-Str.","postalCode":"83024","locality":"Rosenheim","municipality":{"key":"09163000","name":"Rosenheim","type":"Kreisfreie_Stadt"},"district":{"key":"09163","name":"Rosenheim","type":"Kreisfreie_Stadt"},"federalState":{"key":"09","name":"Bayern"}},{"name":"Carossastr.","postalCode":"83026","locality":"Rosenheim","municipality":{"key":"09163000","name":"Rosenheim","type":"Kreisfreie_Stadt"},"district":{"key":"09163","name":"Rosenheim","type":"Kreisfreie_Stadt"},"federalState":{"key":"09","name":"Bayern"}},{"name":"Caspar-Filser-Str.","postalCode":"83026","locality":"Rosenheim","municipality":{"key":"09163000","name":"Rosenheim","type":"Kreisfreie_Stadt"},"district":{"key":"09163","name":"Rosenheim","type":"Kreisfreie_Stadt"},"federalState":{"key":"09","name":"Bayern"}},{"name":"Chiemseestr.","postalCode":"83022","locality":"Rosenheim","municipality":{"key":"09163000","name":"Rosenheim","type":"Kreisfreie_Stadt"},"district":{"key":"09163","name":"Rosenheim","type":"Kreisfreie_Stadt"},"federalState":{"key":"09","name":"Bayern"}},{"name":"Christian-Mali-Weg","postalCode":"83026","locality":"Rosenheim","municipality":{"key":"09163000","name":"Rosenheim","type":"Kreisfreie_Stadt"},"district":{"key":"09163","name":"Rosenheim","type":"Kreisfreie_Stadt"},"federalState":{"key":"09","name":"Bayern"}},{"name":"Dekan-Allmer-Str.","postalCode":"83135","locality":"Schechen","municipality":{"key":"09187142","name":"Schechen","type":"Kreisangehörige_Gemeinde"},"district":{"key":"09187","name":"Rosenheim","type":"Landkreis"},"federalState":{"key":"09","name":"Bayern"}},{"name":"Dirhamerfeldstr.","postalCode":"83135","locality":"Schechen","municipality":{"key":"09187142","name":"Schechen","type":"Kreisangehörige_Gemeinde"},"district":{"key":"09187","name":"Rosenheim","type":"Landkreis"},"federalState":{"key":"09","name":"Bayern"}},{"name":"Dollbergstr.","postalCode":"83135","locality":"Schechen","municipality":{"key":"09187142","name":"Schechen","type":"Kreisangehörige_Gemeinde"},"district":{"key":"09187","name":"Rosenheim","type":"Landkreis"},"federalState":{"key":"09","name":"Bayern"}},{"name":"Ebenholzweg","postalCode":"83135","locality":"Schechen","municipality":{"key":"09187142","name":"Schechen","type":"Kreisangehörige_Gemeinde"},"district":{"key":"09187","name":"Rosenheim","type":"Landkreis"},"federalState":{"key":"09","name":"Bayern"}},{"name":"Eibenweg","postalCode":"83135","locality":"Schechen","municipality":{"key":"09187142","name":"Schechen","type":"Kreisangehörige_Gemeinde"},"district":{"key":"09187","name":"Rosenheim","type":"Landkreis"},"federalState":{"key":"09","name":"Bayern"}},{"name":"Eichenstr.","postalCode":"83135","locality":"Schechen","municipality":{"key":"09187142","name":"Schechen","type":"Kreisangehörige_Gemeinde"},"district":{"key":"09187","name":"Rosenheim","type":"Landkreis"},"federalState":{"key":"09","name":"Bayern"}},{"name":"Eichfeldstr.","postalCode":"83135","locality":"Schechen","municipality":{"key":"09187142","name":"Schechen","type":"Kreisangehörige_Gemeinde"},"district":{"key":"09187","name":"Rosenheim","type":"Landkreis"},"federalState":{"key":"09","name":"Bayern"}},{"name":"Erlenweg","postalCode":"83135","locality":"Schechen","municipality":{"key":"09187142","name":"Schechen","type":"Kreisangehörige_Gemeinde"},"district":{"key":"09187","name":"Rosenheim","type":"Landkreis"},"federalState":{"key":"09","name":"Bayern"}},{"name":"Fichtenweg","postalCode":"83135","locality":"Schechen","municipality":{"key":"09187142","name":"Schechen","type":"Kreisangehörige_Gemeinde"},"district":{"key":"09187","name":"Rosenheim","type":"Landkreis"},"federalState":{"key":"09","name":"Bayern"}},{"name":"Flurstr.","postalCode":"83135","locality":"Schechen","municipality":{"key":"09187142","name":"Schechen","type":"Kreisangehörige_Gemeinde"},"district":{"key":"09187","name":"Rosenheim","type":"Landkreis"},"federalState":{"key":"09","name":"Bayern"}},{"name":"Fröschlthal","postalCode":"83135","locality":"Schechen","municipality":{"key":"09187142","name":"Schechen","type":"Kreisangehörige_Gemeinde"},"district":{"key":"09187","name":"Rosenheim","type":"Landkreis"},"federalState":{"key":"09","name":"Bayern"}},{"name":"Frühlingstr.","postalCode":"83135","locality":"Schechen","municipality":{"key":"09187142","name":"Schechen","type":"Kreisangehörige_Gemeinde"},"district":{"key":"09187","name":"Rosenheim","type":"Landkreis"},"federalState":{"key":"09","name":"Bayern"}},{"name":"Gärtnerweg","postalCode":"83135","locality":"Schechen","municipality":{"key":"09187142","name":"Schechen","type":"Kreisangehörige_Gemeinde"},"district":{"key":"09187","name":"Rosenheim","type":"Landkreis"},"federalState":{"key":"09","name":"Bayern"}},{"name":"Grafinger Str.","postalCode":"83135","locality":"Schechen","municipality":{"key":"09187142","name":"Schechen","type":"Kreisangehörige_Gemeinde"},"district":{"key":"09187","name":"Rosenheim","type":"Landkreis"},"federalState":{"key":"09","name":"Bayern"}},{"name":"Haidacher Str.","postalCode":"83135","locality":"Schechen","municipality":{"key":"09187142","name":"Schechen","type":"Kreisangehörige_Gemeinde"},"district":{"key":"09187","name":"Rosenheim","type":"Landkreis"},"federalState":{"key":"09","name":"Bayern"}},{"name":"Hauptstr.","postalCode":"83135","locality":"Schechen","municipality":{"key":"09187142","name":"Schechen","type":"Kreisangehörige_Gemeinde"},"district":{"key":"09187","name":"Rosenheim","type":"Landkreis"},"federalState":{"key":"09","name":"Bayern"}},{"name":"Heiming","postalCode":"83135","locality":"Schechen","municipality":{"key":"09187142","name":"Schechen","type":"Kreisangehörige_Gemeinde"},"district":{"key":"09187","name":"Rosenheim","type":"Landkreis"},"federalState":{"key":"09","name":"Bayern"}},{"name":"Heiminger Str.","postalCode":"83135","locality":"Schechen","municipality":{"key":"09187142","name":"Schechen","type":"Kreisangehörige_Gemeinde"},"district":{"key":"09187","name":"Rosenheim","type":"Landkreis"},"federalState":{"key":"09","name":"Bayern"}},{"name":"Herbststr.","postalCode":"83135","locality":"Schechen","municipality":{"key":"09187142","name":"Schechen","type":"Kreisangehörige_Gemeinde"},"district":{"key":"09187","name":"Rosenheim","type":"Landkreis"},"federalState":{"key":"09","name":"Bayern"}},{"name":"Heuberg Str.","postalCode":"83135","locality":"Schechen","municipality":{"key":"09187142","name":"Schechen","type":"Kreisangehörige_Gemeinde"},"district":{"key":"09187","name":"Rosenheim","type":"Landkreis"},"federalState":{"key":"09","name":"Bayern"}},{"name":"Hochfeld","postalCode":"83135","locality":"Schechen","municipality":{"key":"09187142","name":"Schechen","type":"Kreisangehörige_Gemeinde"},"district":{"key":"09187","name":"Rosenheim","type":"Landkreis"},"federalState":{"key":"09","name":"Bayern"}},{"name":"Innstr.","postalCode":"83135","locality":"Schechen","municipality":{"key":"09187142","name":"Schechen","type":"Kreisangehörige_Gemeinde"},"district":{"key":"09187","name":"Rosenheim","type":"Landkreis"},"federalState":{"key":"09","name":"Bayern"}},{"name":"Jägerstr.","postalCode":"83024","locality":"Rosenheim","municipality":{"key":"09163000","name":"Rosenheim","type":"Kreisfreie_Stadt"},"district":{"key":"09163","name":"Rosenheim","type":"Kreisfreie_Stadt"},"federalState":{"key":"09","name":"Bayern"}},{"name":"Jahnstr.","postalCode":"83022","locality":"Rosenheim","municipality":{"key":"09163000","name":"Rosenheim","type":"Kreisfreie_Stadt"},"district":{"key":"09163","name":"Rosenheim","type":"Kreisfreie_Stadt"},"federalState":{"key":"09","name":"Bayern"}},{"name":"Jenbachweg","postalCode":"83026","locality":"Rosenheim","municipality":{"key":"09163000","name":"Rosenheim","type":"Kreisfreie_Stadt"},"district":{"key":"09163","name":"Rosenheim","type":"Kreisfreie_Stadt"},"federalState":{"key":"09","name":"Bayern"}},{"name":"Johannesweg","postalCode":"83026","locality":"Rosenheim","municipality":{"key":"09163000","name":"Rosenheim","type":"Kreisfreie_Stadt"},"district":{"key":"09163","name":"Rosenheim","type":"Kreisfreie_Stadt"},"federalState":{"key":"09","name":"Bayern"}},{"name":"Johann-Maier-Weg","postalCode":"83024","locality":"Rosenheim","municipality":{"key":"09163000","name":"Rosenheim","type":"Kreisfreie_Stadt"},"district":{"key":"09163","name":"Rosenheim","type":"Kreisfreie_Stadt"},"federalState":{"key":"09","name":"Bayern"}},{"name":"Johann-Sebastian-Bach-Str.","postalCode":"83024","locality":"Rosenheim","municipality":{"key":"09163000","name":"Rosenheim","type":"Kreisfreie_Stadt"},"district":{"key":"09163","name":"Rosenheim","type":"Kreisfreie_Stadt"},"federalState":{"key":"09","name":"Bayern"}},{"name":"Joseph-Haydn-Str.","postalCode":"83024","locality":"Rosenheim","municipality":{"key":"09163000","name":"Rosenheim","type":"Kreisfreie_Stadt"},"district":{"key":"09163","name":"Rosenheim","type":"Kreisfreie_Stadt"},"federalState":{"key":"09","name":"Bayern"}},{"name":"Justus-von-Liebig-Str.","postalCode":"83022","locality":"Rosenheim","municipality":{"key":"09163000","name":"Rosenheim","type":"Kreisfreie_Stadt"},"district":{"key":"09163","name":"Rosenheim","type":"Kreisfreie_Stadt"},"federalState":{"key":"09","name":"Bayern"}},{"name":"Kampenwandstr.","postalCode":"83135","locality":"Schechen","municipality":{"key":"09187142","name":"Schechen","type":"Kreisangehörige_Gemeinde"},"district":{"key":"09187","name":"Rosenheim","type":"Landkreis"},"federalState":{"key":"09","name":"Bayern"}},{"name":"Kapellenweg","postalCode":"83135","locality":"Schechen","municipality":{"key":"09187142","name":"Schechen","type":"Kreisangehörige_Gemeinde"},"district":{"key":"09187","name":"Rosenheim","type":"Landkreis"},"federalState":{"key":"09","name":"Bayern"}},{"name":"Kastenfeldstr.","postalCode":"83135","locality":"Schechen","municipality":{"key":"09187142","name":"Schechen","type":"Kreisangehörige_Gemeinde"},"district":{"key":"09187","name":"Rosenheim","type":"Landkreis"},"federalState":{"key":"09","name":"Bayern"}},{"name":"Kiefernweg","postalCode":"83135","locality":"Schechen","municipality":{"key":"09187142","name":"Schechen","type":"Kreisangehörige_Gemeinde"},"district":{"key":"09187","name":"Rosenheim","type":"Landkreis"},"federalState":{"key":"09","name":"Bayern"}},{"name":"Kirchgasse","postalCode":"83135","locality":"Schechen","municipality":{"key":"09187142","name":"Schechen","type":"Kreisangehörige_Gemeinde"},"district":{"key":"09187","name":"Rosenheim","type":"Landkreis"},"federalState":{"key":"09","name":"Bayern"}},{"name":"Kornbichlstr.","postalCode":"83135","locality":"Schechen","municipality":{"key":"09187142","name":"Schechen","type":"Kreisangehörige_Gemeinde"},"district":{"key":"09187","name":"Rosenheim","type":"Landkreis"},"federalState":{"key":"09","name":"Bayern"}},{"name":"Kranzhornstr.","postalCode":"83135","locality":"Schechen","municipality":{"key":"09187142","name":"Schechen","type":"Kreisangehörige_Gemeinde"},"district":{"key":"09187","name":"Rosenheim","type":"Landkreis"},"federalState":{"key":"09","name":"Bayern"}},{"name":"Kühlbrunnweg","postalCode":"83135","locality":"Schechen","municipality":{"key":"09187142","name":"Schechen","type":"Kreisangehörige_Gemeinde"},"district":{"key":"09187","name":"Rosenheim","type":"Landkreis"},"federalState":{"key":"09","name":"Bayern"}},{"name":"Lainerstr.","postalCode":"83135","locality":"Schechen","municipality":{"key":"09187142","name":"Schechen","type":"Kreisangehörige_Gemeinde"},"district":{"key":"09187","name":"Rosenheim","type":"Landkreis"},"federalState":{"key":"09","name":"Bayern"}},{"name":"Lärchenweg","postalCode":"83135","locality":"Schechen","municipality":{"key":"09187142","name":"Schechen","type":"Kreisangehörige_Gemeinde"},"district":{"key":"09187","name":"Rosenheim","type":"Landkreis"},"federalState":{"key":"09","name":"Bayern"}},{"name":"Lindenstr.","postalCode":"83135","locality":"Schechen","municipality":{"key":"09187142","name":"Schechen","type":"Kreisangehörige_Gemeinde"},"district":{"key":"09187","name":"Rosenheim","type":"Landkreis"},"federalState":{"key":"09","name":"Bayern"}},{"name":"Lochberg","postalCode":"83135","locality":"Schechen","municipality":{"key":"09187142","name":"Schechen","type":"Kreisangehörige_Gemeinde"},"district":{"key":"09187","name":"Rosenheim","type":"Landkreis"},"federalState":{"key":"09","name":"Bayern"}},{"name":"Lochfeldstr.","postalCode":"83135","locality":"Schechen","municipality":{"key":"09187142","name":"Schechen","type":"Kreisangehörige_Gemeinde"},"district":{"key":"09187","name":"Rosenheim","type":"Landkreis"},"federalState":{"key":"09","name":"Bayern"}},{"name":"Max-Linie","postalCode":"83135","locality":"Schechen","municipality":{"key":"09187142","name":"Schechen","type":"Kreisangehörige_Gemeinde"},"district":{"key":"09187","name":"Rosenheim","type":"Landkreis"},"federalState":{"key":"09","name":"Bayern"}},{"name":"Mühlpointstr.","postalCode":"83135","locality":"Schechen","municipality":{"key":"09187142","name":"Schechen","type":"Kreisangehörige_Gemeinde"},"district":{"key":"09187","name":"Rosenheim","type":"Landkreis"},"federalState":{"key":"09","name":"Bayern"}},{"name":"Nelkenweg","postalCode":"83135","locality":"Schechen","municipality":{"key":"09187142","name":"Schechen","type":"Kreisangehörige_Gemeinde"},"district":{"key":"09187","name":"Rosenheim","type":"Landkreis"},"federalState":{"key":"09","name":"Bayern"}},{"name":"Oberfeldstr.","postalCode":"83135","locality":"Schechen","municipality":{"key":"09187142","name":"Schechen","type":"Kreisangehörige_Gemeinde"},"district":{"key":"09187","name":"Rosenheim","type":"Landkreis"},"federalState":{"key":"09","name":"Bayern"}},{"name":"Pfunzener Weg","postalCode":"83135","locality":"Schechen","municipality":{"key":"09187142","name":"Schechen","type":"Kreisangehörige_Gemeinde"},"district":{"key":"09187","name":"Rosenheim","type":"Landkreis"},"federalState":{"key":"09","name":"Bayern"}},{"name":"Quirinstr.","postalCode":"83024","locality":"Rosenheim","municipality":{"key":"09163000","name":"Rosenheim","type":"Kreisfreie_Stadt"},"district":{"key":"09163","name":"Rosenheim","type":"Kreisfreie_Stadt"},"federalState":{"key":"09","name":"Bayern"}},{"name":"Reuthstr.","postalCode":"83135","locality":"Schechen","municipality":{"key":"09187142","name":"Schechen","type":"Kreisangehörige_Gemeinde"},"district":{"key":"09187","name":"Rosenheim","type":"Landkreis"},"federalState":{"key":"09","name":"Bayern"}},{"name":"Rosenheimer Str.","postalCode":"83135","locality":"Schechen","municipality":{"key":"09187142","name":"Schechen","type":"Kreisangehörige_Gemeinde"},"district":{"key":"09187","name":"Rosenheim","type":"Landkreis"},"federalState":{"key":"09","name":"Bayern"}},{"name":"Rosenweg","postalCode":"83135","locality":"Schechen","municipality":{"key":"09187142","name":"Schechen","type":"Kreisangehörige_Gemeinde"},"district":{"key":"09187","name":"Rosenheim","type":"Landkreis"},"federalState":{"key":"09","name":"Bayern"}},{"name":"Rothenpointstr.","postalCode":"83135","locality":"Schechen","municipality":{"key":"09187142","name":"Schechen","type":"Kreisangehörige_Gemeinde"},"district":{"key":"09187","name":"Rosenheim","type":"Landkreis"},"federalState":{"key":"09","name":"Bayern"}},{"name":"Schechener Str.","postalCode":"83135","locality":"Schechen","municipality":{"key":"09187142","name":"Schechen","type":"Kreisangehörige_Gemeinde"},"district":{"key":"09187","name":"Rosenheim","type":"Landkreis"},"federalState":{"key":"09","name":"Bayern"}},{"name":"Schloßweg","postalCode":"83135","locality":"Schechen","municipality":{"key":"09187142","name":"Schechen","type":"Kreisangehörige_Gemeinde"},"district":{"key":"09187","name":"Rosenheim","type":"Landkreis"},"federalState":{"key":"09","name":"Bayern"}},{"name":"Sommerfeldstr.","postalCode":"83135","locality":"Schechen","municipality":{"key":"09187142","name":"Schechen","type":"Kreisangehörige_Gemeinde"},"district":{"key":"09187","name":"Rosenheim","type":"Landkreis"},"federalState":{"key":"09","name":"Bayern"}},{"name":"Sommerstr.","postalCode":"83135","locality":"Schechen","municipality":{"key":"09187142","name":"Schechen","type":"Kreisangehörige_Gemeinde"},"district":{"key":"09187","name":"Rosenheim","type":"Landkreis"},"federalState":{"key":"09","name":"Bayern"}},{"name":"Steinbrückweg","postalCode":"83135","locality":"Schechen","municipality":{"key":"09187142","name":"Schechen","type":"Kreisangehörige_Gemeinde"},"district":{"key":"09187","name":"Rosenheim","type":"Landkreis"},"federalState":{"key":"09","name":"Bayern"}},{"name":"Tannenweg","postalCode":"83135","locality":"Schechen","municipality":{"key":"09187142","name":"Schechen","type":"Kreisangehörige_Gemeinde"},"district":{"key":"09187","name":"Rosenheim","type":"Landkreis"},"federalState":{"key":"09","name":"Bayern"}},{"name":"Tulpenstr.","postalCode":"83135","locality":"Schechen","municipality":{"key":"09187142","name":"Schechen","type":"Kreisangehörige_Gemeinde"},"district":{"key":"09187","name":"Rosenheim","type":"Landkreis"},"federalState":{"key":"09","name":"Bayern"}},{"name":"Ulmenstr.","postalCode":"83135","locality":"Schechen","municipality":{"key":"09187142","name":"Schechen","type":"Kreisangehörige_Gemeinde"},"district":{"key":"09187","name":"Rosenheim","type":"Landkreis"},"federalState":{"key":"09","name":"Bayern"}},{"name":"Unterfeldweg","postalCode":"83135","locality":"Schechen","municipality":{"key":"09187142","name":"Schechen","type":"Kreisangehörige_Gemeinde"},"district":{"key":"09187","name":"Rosenheim","type":"Landkreis"},"federalState":{"key":"09","name":"Bayern"}},{"name":"Verdunstr.","postalCode":"83026","locality":"Rosenheim","municipality":{"key":"09163000","name":"Rosenheim","type":"Kreisfreie_Stadt"},"district":{"key":"09163","name":"Rosenheim","type":"Kreisfreie_Stadt"},"federalState":{"key":"09","name":"Bayern"}},{"name":"Von-der-Tann-Str.","postalCode":"83022","locality":"Rosenheim","municipality":{"key":"09163000","name":"Rosenheim","type":"Kreisfreie_Stadt"},"district":{"key":"09163","name":"Rosenheim","type":"Kreisfreie_Stadt"},"federalState":{"key":"09","name":"Bayern"}},{"name":"Vorarlbergweg","postalCode":"83024","locality":"Rosenheim","municipality":{"key":"09163000","name":"Rosenheim","type":"Kreisfreie_Stadt"},"district":{"key":"09163","name":"Rosenheim","type":"Kreisfreie_Stadt"},"federalState":{"key":"09","name":"Bayern"}},{"name":"Weidenaustr.","postalCode":"83135","locality":"Schechen","municipality":{"key":"09187142","name":"Schechen","type":"Kreisangehörige_Gemeinde"},"district":{"key":"09187","name":"Rosenheim","type":"Landkreis"},"federalState":{"key":"09","name":"Bayern"}},{"name":"Wendelsteinstr.","postalCode":"83135","locality":"Schechen","municipality":{"key":"09187142","name":"Schechen","type":"Kreisangehörige_Gemeinde"},"district":{"key":"09187","name":"Rosenheim","type":"Landkreis"},"federalState":{"key":"09","name":"Bayern"}},{"name":"Zeisigweg","postalCode":"83026","locality":"Rosenheim","municipality":{"key":"09163000","name":"Rosenheim","type":"Kreisfreie_Stadt"},"district":{"key":"09163","name":"Rosenheim","type":"Kreisfreie_Stadt"},"federalState":{"key":"09","name":"Bayern"}},{"name":"Zellerhornstr.","postalCode":"83026","locality":"Rosenheim","municipality":{"key":"09163000","name":"Rosenheim","type":"Kreisfreie_Stadt"},"district":{"key":"09163","name":"Rosenheim","type":"Kreisfreie_Stadt"},"federalState":{"key":"09","name":"Bayern"}},{"name":"Zinnkopfstr.","postalCode":"83026","locality":"Rosenheim","municipality":{"key":"09163000","name":"Rosenheim","type":"Kreisfreie_Stadt"},"district":{"key":"09163","name":"Rosenheim","type":"Kreisfreie_Stadt"},"federalState":{"key":"09","name":"Bayern"}},{"name":"Zugspitzstr.","postalCode":"83026","locality":"Rosenheim","municipality":{"key":"09163000","name":"Rosenheim","type":"Kreisfreie_Stadt"},"district":{"key":"09163","name":"Rosenheim","type":"Kreisfreie_Stadt"},"federalState":{"key":"09","name":"Bayern"}},{"name":"Zum Junkernplatz","postalCode":"57520","locality":"Rosenheim","municipality":{"key":"07132095","name":"Rosenheim (Landkreis Altenkirchen)","type":"Kreisangehörige_Gemeinde"},"district":{"key":"07132","name":"Altenkirchen (Westerwald)","type":"Landkreis"},"federalState":{"key":"07","name":"Rheinland-Pfalz"}},{"name":"Zürnstr.","postalCode":"83024","locality":"Rosenheim","municipality":{"key":"09163000","name":"Rosenheim","type":"Kreisfreie_Stadt"},"district":{"key":"09163","name":"Rosenheim","type":"Kreisfreie_Stadt"},"federalState":{"key":"09","name":"Bayern"}},{"name":"Äußere Münchener Str.","postalCode":"83022","locality":"Rosenheim","municipality":{"key":"09163000","name":"Rosenheim","type":"Kreisfreie_Stadt"},"district":{"key":"09163","name":"Rosenheim","type":"Kreisfreie_Stadt"},"federalState":{"key":"09","name":"Bayern"}},{"name":"Äußere Münchener Str.","postalCode":"83026","locality":"Rosenheim","municipality":{"key":"09163000","name":"Rosenheim","type":"Kreisfreie_Stadt"},"district":{"key":"09163","name":"Rosenheim","type":"Kreisfreie_Stadt"},"federalState":{"key":"09","name":"Bayern"}},{"name":"Äußere Oberaustr.","postalCode":"83026","locality":"Rosenheim","municipality":{"key":"09163000","name":"Rosenheim","type":"Kreisfreie_Stadt"},"district":{"key":"09163","name":"Rosenheim","type":"Kreisfreie_Stadt"},"federalState":{"key":"09","name":"Bayern"}},]