[{"name":"Am Bullenhof","postalCode":"24641","locality":"Sievershütten","municipality":{"key":"01060077","name":"Sievershütten","type":"Kreisangehörige_Gemeinde"},"district":{"key":"01060","name":"Segeberg","type":"Kreis"},"federalState":{"key":"01","name":"Schleswig-Holstein"}},{"name":"Bollweg","postalCode":"24641","locality":"Sievershütten","municipality":{"key":"01060077","name":"Sievershütten","type":"Kreisangehörige_Gemeinde"},"district":{"key":"01060","name":"Segeberg","type":"Kreis"},"federalState":{"key":"01","name":"Schleswig-Holstein"}},{"name":"Brüchhorststr.","postalCode":"24641","locality":"Sievershütten","municipality":{"key":"01060077","name":"Sievershütten","type":"Kreisangehörige_Gemeinde"},"district":{"key":"01060","name":"Segeberg","type":"Kreis"},"federalState":{"key":"01","name":"Schleswig-Holstein"}},{"name":"Brunshorst","postalCode":"24641","locality":"Sievershütten","municipality":{"key":"01060077","name":"Sievershütten","type":"Kreisangehörige_Gemeinde"},"district":{"key":"01060","name":"Segeberg","type":"Kreis"},"federalState":{"key":"01","name":"Schleswig-Holstein"}},{"name":"Buschkoppel","postalCode":"24641","locality":"Sievershütten","municipality":{"key":"01060077","name":"Sievershütten","type":"Kreisangehörige_Gemeinde"},"district":{"key":"01060","name":"Segeberg","type":"Kreis"},"federalState":{"key":"01","name":"Schleswig-Holstein"}},{"name":"Carl-Stämmler-Weg","postalCode":"23795","locality":"Bad Segeberg","municipality":{"key":"01060005","name":"Bad Segeberg, Stadt","type":"Stadt"},"district":{"key":"01060","name":"Segeberg","type":"Kreis"},"federalState":{"key":"01","name":"Schleswig-Holstein"}},{"name":"Christian-Rohlfs-Str.","postalCode":"23795","locality":"Bad Segeberg","municipality":{"key":"01060005","name":"Bad Segeberg, Stadt","type":"Stadt"},"district":{"key":"01060","name":"Segeberg","type":"Kreis"},"federalState":{"key":"01","name":"Schleswig-Holstein"}},{"name":"Christiansfelde","postalCode":"23795","locality":"Bad Segeberg","municipality":{"key":"01060005","name":"Bad Segeberg, Stadt","type":"Stadt"},"district":{"key":"01060","name":"Segeberg","type":"Kreis"},"federalState":{"key":"01","name":"Schleswig-Holstein"}},{"name":"Dänischmüssen","postalCode":"24641","locality":"Sievershütten","municipality":{"key":"01060077","name":"Sievershütten","type":"Kreisangehörige_Gemeinde"},"district":{"key":"01060","name":"Segeberg","type":"Kreis"},"federalState":{"key":"01","name":"Schleswig-Holstein"}},{"name":"Efeustr.","postalCode":"23795","locality":"Bad Segeberg","municipality":{"key":"01060005","name":"Bad Segeberg, Stadt","type":"Stadt"},"district":{"key":"01060","name":"Segeberg","type":"Kreis"},"federalState":{"key":"01","name":"Schleswig-Holstein"}},{"name":"Eggerhorst","postalCode":"23795","locality":"Bad Segeberg","municipality":{"key":"01060005","name":"Bad Segeberg, Stadt","type":"Stadt"},"district":{"key":"01060","name":"Segeberg","type":"Kreis"},"federalState":{"key":"01","name":"Schleswig-Holstein"}},{"name":"Eichkamp","postalCode":"23795","locality":"Bad Segeberg","municipality":{"key":"01060005","name":"Bad Segeberg, Stadt","type":"Stadt"},"district":{"key":"01060","name":"Segeberg","type":"Kreis"},"federalState":{"key":"01","name":"Schleswig-Holstein"}},{"name":"Ernst-Wittmark-Park","postalCode":"23795","locality":"Bad Segeberg","municipality":{"key":"01060005","name":"Bad Segeberg, Stadt","type":"Stadt"},"district":{"key":"01060","name":"Segeberg","type":"Kreis"},"federalState":{"key":"01","name":"Schleswig-Holstein"}},{"name":"Esmarchstr.","postalCode":"23795","locality":"Bad Segeberg","municipality":{"key":"01060005","name":"Bad Segeberg, Stadt","type":"Stadt"},"district":{"key":"01060","name":"Segeberg","type":"Kreis"},"federalState":{"key":"01","name":"Schleswig-Holstein"}},{"name":"Eutiner Str.","postalCode":"23795","locality":"Bad Segeberg","municipality":{"key":"01060005","name":"Bad Segeberg, Stadt","type":"Stadt"},"district":{"key":"01060","name":"Segeberg","type":"Kreis"},"federalState":{"key":"01","name":"Schleswig-Holstein"}},{"name":"Falkenburger Str.","postalCode":"23795","locality":"Bad Segeberg","municipality":{"key":"01060005","name":"Bad Segeberg, Stadt","type":"Stadt"},"district":{"key":"01060","name":"Segeberg","type":"Kreis"},"federalState":{"key":"01","name":"Schleswig-Holstein"}},{"name":"Fehrsweg","postalCode":"23795","locality":"Bad Segeberg","municipality":{"key":"01060005","name":"Bad Segeberg, Stadt","type":"Stadt"},"district":{"key":"01060","name":"Segeberg","type":"Kreis"},"federalState":{"key":"01","name":"Schleswig-Holstein"}},{"name":"Feldstr.","postalCode":"23795","locality":"Bad Segeberg","municipality":{"key":"01060005","name":"Bad Segeberg, Stadt","type":"Stadt"},"district":{"key":"01060","name":"Segeberg","type":"Kreis"},"federalState":{"key":"01","name":"Schleswig-Holstein"}},{"name":"Fliederweg","postalCode":"23795","locality":"Bad Segeberg","municipality":{"key":"01060005","name":"Bad Segeberg, Stadt","type":"Stadt"},"district":{"key":"01060","name":"Segeberg","type":"Kreis"},"federalState":{"key":"01","name":"Schleswig-Holstein"}},{"name":"Fritz-Reuter-Weg","postalCode":"23795","locality":"Bad Segeberg","municipality":{"key":"01060005","name":"Bad Segeberg, Stadt","type":"Stadt"},"district":{"key":"01060","name":"Segeberg","type":"Kreis"},"federalState":{"key":"01","name":"Schleswig-Holstein"}},{"name":"Grevensberg","postalCode":"24641","locality":"Sievershütten","municipality":{"key":"01060077","name":"Sievershütten","type":"Kreisangehörige_Gemeinde"},"district":{"key":"01060","name":"Segeberg","type":"Kreis"},"federalState":{"key":"01","name":"Schleswig-Holstein"}},{"name":"Hasenhörn","postalCode":"24641","locality":"Sievershütten","municipality":{"key":"01060077","name":"Sievershütten","type":"Kreisangehörige_Gemeinde"},"district":{"key":"01060","name":"Segeberg","type":"Kreis"},"federalState":{"key":"01","name":"Schleswig-Holstein"}},{"name":"Heide","postalCode":"24641","locality":"Sievershütten","municipality":{"key":"01060077","name":"Sievershütten","type":"Kreisangehörige_Gemeinde"},"district":{"key":"01060","name":"Segeberg","type":"Kreis"},"federalState":{"key":"01","name":"Schleswig-Holstein"}},{"name":"Holstenstr.","postalCode":"24641","locality":"Sievershütten","municipality":{"key":"01060077","name":"Sievershütten","type":"Kreisangehörige_Gemeinde"},"district":{"key":"01060","name":"Segeberg","type":"Kreis"},"federalState":{"key":"01","name":"Schleswig-Holstein"}},{"name":"Im Busch","postalCode":"24641","locality":"Sievershütten","municipality":{"key":"01060077","name":"Sievershütten","type":"Kreisangehörige_Gemeinde"},"district":{"key":"01060","name":"Segeberg","type":"Kreis"},"federalState":{"key":"01","name":"Schleswig-Holstein"}},{"name":"Jasminstr.","postalCode":"23795","locality":"Bad Segeberg","municipality":{"key":"01060005","name":"Bad Segeberg, Stadt","type":"Stadt"},"district":{"key":"01060","name":"Segeberg","type":"Kreis"},"federalState":{"key":"01","name":"Schleswig-Holstein"}},{"name":"Julius-Leber-Str.","postalCode":"23795","locality":"Bad Segeberg","municipality":{"key":"01060005","name":"Bad Segeberg, Stadt","type":"Stadt"},"district":{"key":"01060","name":"Segeberg","type":"Kreis"},"federalState":{"key":"01","name":"Schleswig-Holstein"}},{"name":"Jürgensweg","postalCode":"23795","locality":"Bad Segeberg","municipality":{"key":"01060005","name":"Bad Segeberg, Stadt","type":"Stadt"},"district":{"key":"01060","name":"Segeberg","type":"Kreis"},"federalState":{"key":"01","name":"Schleswig-Holstein"}},{"name":"Kaltenkirchener Str.","postalCode":"24641","locality":"Sievershütten","municipality":{"key":"01060077","name":"Sievershütten","type":"Kreisangehörige_Gemeinde"},"district":{"key":"01060","name":"Segeberg","type":"Kreis"},"federalState":{"key":"01","name":"Schleswig-Holstein"}},{"name":"Kalte Weide","postalCode":"24641","locality":"Sievershütten","municipality":{"key":"01060077","name":"Sievershütten","type":"Kreisangehörige_Gemeinde"},"district":{"key":"01060","name":"Segeberg","type":"Kreis"},"federalState":{"key":"01","name":"Schleswig-Holstein"}},{"name":"Kirchstr.","postalCode":"24641","locality":"Sievershütten","municipality":{"key":"01060077","name":"Sievershütten","type":"Kreisangehörige_Gemeinde"},"district":{"key":"01060","name":"Segeberg","type":"Kreis"},"federalState":{"key":"01","name":"Schleswig-Holstein"}},{"name":"Kisdorfer Str.","postalCode":"24641","locality":"Sievershütten","municipality":{"key":"01060077","name":"Sievershütten","type":"Kreisangehörige_Gemeinde"},"district":{"key":"01060","name":"Segeberg","type":"Kreis"},"federalState":{"key":"01","name":"Schleswig-Holstein"}},{"name":"Lohe","postalCode":"24641","locality":"Sievershütten","municipality":{"key":"01060077","name":"Sievershütten","type":"Kreisangehörige_Gemeinde"},"district":{"key":"01060","name":"Segeberg","type":"Kreis"},"federalState":{"key":"01","name":"Schleswig-Holstein"}},{"name":"Mühlenstr.","postalCode":"24641","locality":"Sievershütten","municipality":{"key":"01060077","name":"Sievershütten","type":"Kreisangehörige_Gemeinde"},"district":{"key":"01060","name":"Segeberg","type":"Kreis"},"federalState":{"key":"01","name":"Schleswig-Holstein"}},{"name":"Nelkenweg","postalCode":"23795","locality":"Bad Segeberg","municipality":{"key":"01060005","name":"Bad Segeberg, Stadt","type":"Stadt"},"district":{"key":"01060","name":"Segeberg","type":"Kreis"},"federalState":{"key":"01","name":"Schleswig-Holstein"}},{"name":"Neuer Platz","postalCode":"23795","locality":"Bad Segeberg","municipality":{"key":"01060005","name":"Bad Segeberg, Stadt","type":"Stadt"},"district":{"key":"01060","name":"Segeberg","type":"Kreis"},"federalState":{"key":"01","name":"Schleswig-Holstein"}},{"name":"Neue Str.","postalCode":"23795","locality":"Bad Segeberg","municipality":{"key":"01060005","name":"Bad Segeberg, Stadt","type":"Stadt"},"district":{"key":"01060","name":"Segeberg","type":"Kreis"},"federalState":{"key":"01","name":"Schleswig-Holstein"}},{"name":"Neuland","postalCode":"23795","locality":"Bad Segeberg","municipality":{"key":"01060005","name":"Bad Segeberg, Stadt","type":"Stadt"},"district":{"key":"01060","name":"Segeberg","type":"Kreis"},"federalState":{"key":"01","name":"Schleswig-Holstein"}},{"name":"Oberbergstr.","postalCode":"23795","locality":"Bad Segeberg","municipality":{"key":"01060005","name":"Bad Segeberg, Stadt","type":"Stadt"},"district":{"key":"01060","name":"Segeberg","type":"Kreis"},"federalState":{"key":"01","name":"Schleswig-Holstein"}},{"name":"Oldesloer Str.","postalCode":"23795","locality":"Bad Segeberg","municipality":{"key":"01060005","name":"Bad Segeberg, Stadt","type":"Stadt"},"district":{"key":"01060","name":"Segeberg","type":"Kreis"},"federalState":{"key":"01","name":"Schleswig-Holstein"}},{"name":"Ostlandstr.","postalCode":"23795","locality":"Bad Segeberg","municipality":{"key":"01060005","name":"Bad Segeberg, Stadt","type":"Stadt"},"district":{"key":"01060","name":"Segeberg","type":"Kreis"},"federalState":{"key":"01","name":"Schleswig-Holstein"}},{"name":"Ostpreußenstr.","postalCode":"23795","locality":"Bad Segeberg","municipality":{"key":"01060005","name":"Bad Segeberg, Stadt","type":"Stadt"},"district":{"key":"01060","name":"Segeberg","type":"Kreis"},"federalState":{"key":"01","name":"Schleswig-Holstein"}},{"name":"Otto-Flath-Str.","postalCode":"23795","locality":"Bad Segeberg","municipality":{"key":"01060005","name":"Bad Segeberg, Stadt","type":"Stadt"},"district":{"key":"01060","name":"Segeberg","type":"Kreis"},"federalState":{"key":"01","name":"Schleswig-Holstein"}},{"name":"Peerhagen","postalCode":"24641","locality":"Sievershütten","municipality":{"key":"01060077","name":"Sievershütten","type":"Kreisangehörige_Gemeinde"},"district":{"key":"01060","name":"Segeberg","type":"Kreis"},"federalState":{"key":"01","name":"Schleswig-Holstein"}},{"name":"Rantzaustr.","postalCode":"23795","locality":"Bad Segeberg","municipality":{"key":"01060005","name":"Bad Segeberg, Stadt","type":"Stadt"},"district":{"key":"01060","name":"Segeberg","type":"Kreis"},"federalState":{"key":"01","name":"Schleswig-Holstein"}},{"name":"Redderblecken","postalCode":"23795","locality":"Bad Segeberg","municipality":{"key":"01060005","name":"Bad Segeberg, Stadt","type":"Stadt"},"district":{"key":"01060","name":"Segeberg","type":"Kreis"},"federalState":{"key":"01","name":"Schleswig-Holstein"}},{"name":"Riihimäkistr.","postalCode":"23795","locality":"Bad Segeberg","municipality":{"key":"01060005","name":"Bad Segeberg, Stadt","type":"Stadt"},"district":{"key":"01060","name":"Segeberg","type":"Kreis"},"federalState":{"key":"01","name":"Schleswig-Holstein"}},{"name":"Rosenstr.","postalCode":"23795","locality":"Bad Segeberg","municipality":{"key":"01060005","name":"Bad Segeberg, Stadt","type":"Stadt"},"district":{"key":"01060","name":"Segeberg","type":"Kreis"},"federalState":{"key":"01","name":"Schleswig-Holstein"}},{"name":"Rugenberg","postalCode":"23795","locality":"Bad Segeberg","municipality":{"key":"01060005","name":"Bad Segeberg, Stadt","type":"Stadt"},"district":{"key":"01060","name":"Segeberg","type":"Kreis"},"federalState":{"key":"01","name":"Schleswig-Holstein"}},{"name":"Schulsteig","postalCode":"24641","locality":"Sievershütten","municipality":{"key":"01060077","name":"Sievershütten","type":"Kreisangehörige_Gemeinde"},"district":{"key":"01060","name":"Segeberg","type":"Kreis"},"federalState":{"key":"01","name":"Schleswig-Holstein"}},{"name":"Struvenhüttener Str.","postalCode":"24641","locality":"Sievershütten","municipality":{"key":"01060077","name":"Sievershütten","type":"Kreisangehörige_Gemeinde"},"district":{"key":"01060","name":"Segeberg","type":"Kreis"},"federalState":{"key":"01","name":"Schleswig-Holstein"}},{"name":"Tannenweg","postalCode":"23795","locality":"Bad Segeberg","municipality":{"key":"01060005","name":"Bad Segeberg, Stadt","type":"Stadt"},"district":{"key":"01060","name":"Segeberg","type":"Kreis"},"federalState":{"key":"01","name":"Schleswig-Holstein"}},{"name":"Tegelkoppel","postalCode":"23795","locality":"Bad Segeberg","municipality":{"key":"01060005","name":"Bad Segeberg, Stadt","type":"Stadt"},"district":{"key":"01060","name":"Segeberg","type":"Kreis"},"federalState":{"key":"01","name":"Schleswig-Holstein"}},{"name":"Teichstr.","postalCode":"23795","locality":"Bad Segeberg","municipality":{"key":"01060005","name":"Bad Segeberg, Stadt","type":"Stadt"},"district":{"key":"01060","name":"Segeberg","type":"Kreis"},"federalState":{"key":"01","name":"Schleswig-Holstein"}},{"name":"Teterower Str.","postalCode":"23795","locality":"Bad Segeberg","municipality":{"key":"01060005","name":"Bad Segeberg, Stadt","type":"Stadt"},"district":{"key":"01060","name":"Segeberg","type":"Kreis"},"federalState":{"key":"01","name":"Schleswig-Holstein"}},{"name":"Theodor-Heuss-Ring","postalCode":"23795","locality":"Bad Segeberg","municipality":{"key":"01060005","name":"Bad Segeberg, Stadt","type":"Stadt"},"district":{"key":"01060","name":"Segeberg","type":"Kreis"},"federalState":{"key":"01","name":"Schleswig-Holstein"}},{"name":"Theodor-Storm-Str.","postalCode":"23795","locality":"Bad Segeberg","municipality":{"key":"01060005","name":"Bad Segeberg, Stadt","type":"Stadt"},"district":{"key":"01060","name":"Segeberg","type":"Kreis"},"federalState":{"key":"01","name":"Schleswig-Holstein"}},{"name":"Thoms Koppel","postalCode":"23795","locality":"Bad Segeberg","municipality":{"key":"01060005","name":"Bad Segeberg, Stadt","type":"Stadt"},"district":{"key":"01060","name":"Segeberg","type":"Kreis"},"federalState":{"key":"01","name":"Schleswig-Holstein"}},{"name":"Thüringer Str.","postalCode":"23795","locality":"Bad Segeberg","municipality":{"key":"01060005","name":"Bad Segeberg, Stadt","type":"Stadt"},"district":{"key":"01060","name":"Segeberg","type":"Kreis"},"federalState":{"key":"01","name":"Schleswig-Holstein"}},{"name":"Timm-Kröger-Weg","postalCode":"23795","locality":"Bad Segeberg","municipality":{"key":"01060005","name":"Bad Segeberg, Stadt","type":"Stadt"},"district":{"key":"01060","name":"Segeberg","type":"Kreis"},"federalState":{"key":"01","name":"Schleswig-Holstein"}},{"name":"Ulmenweg","postalCode":"24641","locality":"Sievershütten","municipality":{"key":"01060077","name":"Sievershütten","type":"Kreisangehörige_Gemeinde"},"district":{"key":"01060","name":"Segeberg","type":"Kreis"},"federalState":{"key":"01","name":"Schleswig-Holstein"}},{"name":"Vogtkamp","postalCode":"23795","locality":"Bad Segeberg","municipality":{"key":"01060005","name":"Bad Segeberg, Stadt","type":"Stadt"},"district":{"key":"01060","name":"Segeberg","type":"Kreis"},"federalState":{"key":"01","name":"Schleswig-Holstein"}},{"name":"Waldring","postalCode":"24641","locality":"Sievershütten","municipality":{"key":"01060077","name":"Sievershütten","type":"Kreisangehörige_Gemeinde"},"district":{"key":"01060","name":"Segeberg","type":"Kreis"},"federalState":{"key":"01","name":"Schleswig-Holstein"}},{"name":"Waldweg","postalCode":"24641","locality":"Sievershütten","municipality":{"key":"01060077","name":"Sievershütten","type":"Kreisangehörige_Gemeinde"},"district":{"key":"01060","name":"Segeberg","type":"Kreis"},"federalState":{"key":"01","name":"Schleswig-Holstein"}},{"name":"Wiesengrund","postalCode":"24641","locality":"Sievershütten","municipality":{"key":"01060077","name":"Sievershütten","type":"Kreisangehörige_Gemeinde"},"district":{"key":"01060","name":"Segeberg","type":"Kreis"},"federalState":{"key":"01","name":"Schleswig-Holstein"}},{"name":"Zum Zuschlag","postalCode":"24641","locality":"Sievershütten","municipality":{"key":"01060077","name":"Sievershütten","type":"Kreisangehörige_Gemeinde"},"district":{"key":"01060","name":"Segeberg","type":"Kreis"},"federalState":{"key":"01","name":"Schleswig-Holstein"}},]