[{"name":"Achtersweg","postalCode":"23948","locality":"Klütz","municipality":{"key":"13074039","name":"Klütz, Stadt","type":"Stadt"},"district":{"key":"13074","name":"Nordwestmecklenburg","type":"Landkreis"},"federalState":{"key":"13","name":"Mecklenburg-Vorpommern"}},{"name":"Am Alten Speicher","postalCode":"23948","locality":"Klütz","municipality":{"key":"13074039","name":"Klütz, Stadt","type":"Stadt"},"district":{"key":"13074","name":"Nordwestmecklenburg","type":"Landkreis"},"federalState":{"key":"13","name":"Mecklenburg-Vorpommern"}},{"name":"Am Bauernweg","postalCode":"23948","locality":"Klütz","municipality":{"key":"13074039","name":"Klütz, Stadt","type":"Stadt"},"district":{"key":"13074","name":"Nordwestmecklenburg","type":"Landkreis"},"federalState":{"key":"13","name":"Mecklenburg-Vorpommern"}},{"name":"Am Gutshof","postalCode":"23948","locality":"Klütz","municipality":{"key":"13074039","name":"Klütz, Stadt","type":"Stadt"},"district":{"key":"13074","name":"Nordwestmecklenburg","type":"Landkreis"},"federalState":{"key":"13","name":"Mecklenburg-Vorpommern"}},{"name":"Am Markt","postalCode":"23948","locality":"Klütz","municipality":{"key":"13074039","name":"Klütz, Stadt","type":"Stadt"},"district":{"key":"13074","name":"Nordwestmecklenburg","type":"Landkreis"},"federalState":{"key":"13","name":"Mecklenburg-Vorpommern"}},{"name":"Am Park","postalCode":"23948","locality":"Klütz","municipality":{"key":"13074039","name":"Klütz, Stadt","type":"Stadt"},"district":{"key":"13074","name":"Nordwestmecklenburg","type":"Landkreis"},"federalState":{"key":"13","name":"Mecklenburg-Vorpommern"}},{"name":"Am Steigstück","postalCode":"23948","locality":"Klütz","municipality":{"key":"13074039","name":"Klütz, Stadt","type":"Stadt"},"district":{"key":"13074","name":"Nordwestmecklenburg","type":"Landkreis"},"federalState":{"key":"13","name":"Mecklenburg-Vorpommern"}},{"name":"Am Turnplatz","postalCode":"23948","locality":"Klütz","municipality":{"key":"13074039","name":"Klütz, Stadt","type":"Stadt"},"district":{"key":"13074","name":"Nordwestmecklenburg","type":"Landkreis"},"federalState":{"key":"13","name":"Mecklenburg-Vorpommern"}},{"name":"Am Wasserwerk","postalCode":"23948","locality":"Klütz","municipality":{"key":"13074039","name":"Klütz, Stadt","type":"Stadt"},"district":{"key":"13074","name":"Nordwestmecklenburg","type":"Landkreis"},"federalState":{"key":"13","name":"Mecklenburg-Vorpommern"}},{"name":"An de Klützer Bäk","postalCode":"23948","locality":"Klütz","municipality":{"key":"13074039","name":"Klütz, Stadt","type":"Stadt"},"district":{"key":"13074","name":"Nordwestmecklenburg","type":"Landkreis"},"federalState":{"key":"13","name":"Mecklenburg-Vorpommern"}},{"name":"An der Bamburg","postalCode":"23948","locality":"Klütz","municipality":{"key":"13074039","name":"Klütz, Stadt","type":"Stadt"},"district":{"key":"13074","name":"Nordwestmecklenburg","type":"Landkreis"},"federalState":{"key":"13","name":"Mecklenburg-Vorpommern"}},{"name":"An der Chaussee","postalCode":"23948","locality":"Klütz","municipality":{"key":"13074039","name":"Klütz, Stadt","type":"Stadt"},"district":{"key":"13074","name":"Nordwestmecklenburg","type":"Landkreis"},"federalState":{"key":"13","name":"Mecklenburg-Vorpommern"}},{"name":"An der Festwiese","postalCode":"23948","locality":"Klütz","municipality":{"key":"13074039","name":"Klütz, Stadt","type":"Stadt"},"district":{"key":"13074","name":"Nordwestmecklenburg","type":"Landkreis"},"federalState":{"key":"13","name":"Mecklenburg-Vorpommern"}},{"name":"An der Mühle","postalCode":"23948","locality":"Klütz","municipality":{"key":"13074039","name":"Klütz, Stadt","type":"Stadt"},"district":{"key":"13074","name":"Nordwestmecklenburg","type":"Landkreis"},"federalState":{"key":"13","name":"Mecklenburg-Vorpommern"}},{"name":"An der Wiek","postalCode":"23948","locality":"Klütz","municipality":{"key":"13074039","name":"Klütz, Stadt","type":"Stadt"},"district":{"key":"13074","name":"Nordwestmecklenburg","type":"Landkreis"},"federalState":{"key":"13","name":"Mecklenburg-Vorpommern"}},{"name":"Bahnhofstr.","postalCode":"23948","locality":"Klütz","municipality":{"key":"13074039","name":"Klütz, Stadt","type":"Stadt"},"district":{"key":"13074","name":"Nordwestmecklenburg","type":"Landkreis"},"federalState":{"key":"13","name":"Mecklenburg-Vorpommern"}},{"name":"Boltenhagener Str.","postalCode":"23948","locality":"Klütz","municipality":{"key":"13074039","name":"Klütz, Stadt","type":"Stadt"},"district":{"key":"13074","name":"Nordwestmecklenburg","type":"Landkreis"},"federalState":{"key":"13","name":"Mecklenburg-Vorpommern"}},{"name":"Dorfstr.","postalCode":"23948","locality":"Klütz","municipality":{"key":"13074039","name":"Klütz, Stadt","type":"Stadt"},"district":{"key":"13074","name":"Nordwestmecklenburg","type":"Landkreis"},"federalState":{"key":"13","name":"Mecklenburg-Vorpommern"}},{"name":"Dorfstr. Grundshagen","postalCode":"23948","locality":"Klütz","municipality":{"key":"13074039","name":"Klütz, Stadt","type":"Stadt"},"district":{"key":"13074","name":"Nordwestmecklenburg","type":"Landkreis"},"federalState":{"key":"13","name":"Mecklenburg-Vorpommern"}},{"name":"Dorfstr. Hofzumfelde","postalCode":"23948","locality":"Klütz","municipality":{"key":"13074039","name":"Klütz, Stadt","type":"Stadt"},"district":{"key":"13074","name":"Nordwestmecklenburg","type":"Landkreis"},"federalState":{"key":"13","name":"Mecklenburg-Vorpommern"}},{"name":"Dwasswech","postalCode":"23948","locality":"Klütz","municipality":{"key":"13074039","name":"Klütz, Stadt","type":"Stadt"},"district":{"key":"13074","name":"Nordwestmecklenburg","type":"Landkreis"},"federalState":{"key":"13","name":"Mecklenburg-Vorpommern"}},{"name":"Eschenweg","postalCode":"23948","locality":"Klütz","municipality":{"key":"13074039","name":"Klütz, Stadt","type":"Stadt"},"district":{"key":"13074","name":"Nordwestmecklenburg","type":"Landkreis"},"federalState":{"key":"13","name":"Mecklenburg-Vorpommern"}},{"name":"Eulenkrug","postalCode":"23948","locality":"Klütz","municipality":{"key":"13074039","name":"Klütz, Stadt","type":"Stadt"},"district":{"key":"13074","name":"Nordwestmecklenburg","type":"Landkreis"},"federalState":{"key":"13","name":"Mecklenburg-Vorpommern"}},{"name":"Festonallee","postalCode":"23948","locality":"Klütz","municipality":{"key":"13074039","name":"Klütz, Stadt","type":"Stadt"},"district":{"key":"13074","name":"Nordwestmecklenburg","type":"Landkreis"},"federalState":{"key":"13","name":"Mecklenburg-Vorpommern"}},{"name":"Güldenhorn","postalCode":"23948","locality":"Klütz","municipality":{"key":"13074039","name":"Klütz, Stadt","type":"Stadt"},"district":{"key":"13074","name":"Nordwestmecklenburg","type":"Landkreis"},"federalState":{"key":"13","name":"Mecklenburg-Vorpommern"}},{"name":"Im Gewerbepark","postalCode":"23948","locality":"Klütz","municipality":{"key":"13074039","name":"Klütz, Stadt","type":"Stadt"},"district":{"key":"13074","name":"Nordwestmecklenburg","type":"Landkreis"},"federalState":{"key":"13","name":"Mecklenburg-Vorpommern"}},{"name":"Im Kaiser","postalCode":"23948","locality":"Klütz","municipality":{"key":"13074039","name":"Klütz, Stadt","type":"Stadt"},"district":{"key":"13074","name":"Nordwestmecklenburg","type":"Landkreis"},"federalState":{"key":"13","name":"Mecklenburg-Vorpommern"}},{"name":"Im Thurow","postalCode":"23948","locality":"Klütz","municipality":{"key":"13074039","name":"Klütz, Stadt","type":"Stadt"},"district":{"key":"13074","name":"Nordwestmecklenburg","type":"Landkreis"},"federalState":{"key":"13","name":"Mecklenburg-Vorpommern"}},{"name":"Klützer Stadtgarten","postalCode":"23948","locality":"Klütz","municipality":{"key":"13074039","name":"Klütz, Stadt","type":"Stadt"},"district":{"key":"13074","name":"Nordwestmecklenburg","type":"Landkreis"},"federalState":{"key":"13","name":"Mecklenburg-Vorpommern"}},{"name":"Klützer Str.","postalCode":"23948","locality":"Klütz","municipality":{"key":"13074039","name":"Klütz, Stadt","type":"Stadt"},"district":{"key":"13074","name":"Nordwestmecklenburg","type":"Landkreis"},"federalState":{"key":"13","name":"Mecklenburg-Vorpommern"}},{"name":"Lindenring","postalCode":"23948","locality":"Klütz","municipality":{"key":"13074039","name":"Klütz, Stadt","type":"Stadt"},"district":{"key":"13074","name":"Nordwestmecklenburg","type":"Landkreis"},"federalState":{"key":"13","name":"Mecklenburg-Vorpommern"}},{"name":"Lübecker Str.","postalCode":"23948","locality":"Klütz","municipality":{"key":"13074039","name":"Klütz, Stadt","type":"Stadt"},"district":{"key":"13074","name":"Nordwestmecklenburg","type":"Landkreis"},"federalState":{"key":"13","name":"Mecklenburg-Vorpommern"}},{"name":"Mühlenberg","postalCode":"23948","locality":"Klütz","municipality":{"key":"13074039","name":"Klütz, Stadt","type":"Stadt"},"district":{"key":"13074","name":"Nordwestmecklenburg","type":"Landkreis"},"federalState":{"key":"13","name":"Mecklenburg-Vorpommern"}},{"name":"Neue Reihe","postalCode":"23948","locality":"Klütz","municipality":{"key":"13074039","name":"Klütz, Stadt","type":"Stadt"},"district":{"key":"13074","name":"Nordwestmecklenburg","type":"Landkreis"},"federalState":{"key":"13","name":"Mecklenburg-Vorpommern"}},{"name":"Neuer Weg","postalCode":"23948","locality":"Klütz","municipality":{"key":"13074039","name":"Klütz, Stadt","type":"Stadt"},"district":{"key":"13074","name":"Nordwestmecklenburg","type":"Landkreis"},"federalState":{"key":"13","name":"Mecklenburg-Vorpommern"}},{"name":"Neue Siedlung","postalCode":"23948","locality":"Klütz","municipality":{"key":"13074039","name":"Klütz, Stadt","type":"Stadt"},"district":{"key":"13074","name":"Nordwestmecklenburg","type":"Landkreis"},"federalState":{"key":"13","name":"Mecklenburg-Vorpommern"}},{"name":"Neue Str.","postalCode":"23948","locality":"Klütz","municipality":{"key":"13074039","name":"Klütz, Stadt","type":"Stadt"},"district":{"key":"13074","name":"Nordwestmecklenburg","type":"Landkreis"},"federalState":{"key":"13","name":"Mecklenburg-Vorpommern"}},{"name":"Oberklützer Weg","postalCode":"23948","locality":"Klütz","municipality":{"key":"13074039","name":"Klütz, Stadt","type":"Stadt"},"district":{"key":"13074","name":"Nordwestmecklenburg","type":"Landkreis"},"federalState":{"key":"13","name":"Mecklenburg-Vorpommern"}},{"name":"Ostseeblick","postalCode":"23948","locality":"Klütz","municipality":{"key":"13074039","name":"Klütz, Stadt","type":"Stadt"},"district":{"key":"13074","name":"Nordwestmecklenburg","type":"Landkreis"},"federalState":{"key":"13","name":"Mecklenburg-Vorpommern"}},{"name":"Pfarrhufe","postalCode":"23948","locality":"Klütz","municipality":{"key":"13074039","name":"Klütz, Stadt","type":"Stadt"},"district":{"key":"13074","name":"Nordwestmecklenburg","type":"Landkreis"},"federalState":{"key":"13","name":"Mecklenburg-Vorpommern"}},{"name":"Predigerstr.","postalCode":"23948","locality":"Klütz","municipality":{"key":"13074039","name":"Klütz, Stadt","type":"Stadt"},"district":{"key":"13074","name":"Nordwestmecklenburg","type":"Landkreis"},"federalState":{"key":"13","name":"Mecklenburg-Vorpommern"}},{"name":"Reethausweg","postalCode":"23948","locality":"Klütz","municipality":{"key":"13074039","name":"Klütz, Stadt","type":"Stadt"},"district":{"key":"13074","name":"Nordwestmecklenburg","type":"Landkreis"},"federalState":{"key":"13","name":"Mecklenburg-Vorpommern"}},{"name":"Rudolf-Breitscheid-Str.","postalCode":"23948","locality":"Klütz","municipality":{"key":"13074039","name":"Klütz, Stadt","type":"Stadt"},"district":{"key":"13074","name":"Nordwestmecklenburg","type":"Landkreis"},"federalState":{"key":"13","name":"Mecklenburg-Vorpommern"}},{"name":"Schlosspark","postalCode":"23948","locality":"Klütz","municipality":{"key":"13074039","name":"Klütz, Stadt","type":"Stadt"},"district":{"key":"13074","name":"Nordwestmecklenburg","type":"Landkreis"},"federalState":{"key":"13","name":"Mecklenburg-Vorpommern"}},{"name":"Schloßstr.","postalCode":"23948","locality":"Klütz","municipality":{"key":"13074039","name":"Klütz, Stadt","type":"Stadt"},"district":{"key":"13074","name":"Nordwestmecklenburg","type":"Landkreis"},"federalState":{"key":"13","name":"Mecklenburg-Vorpommern"}},{"name":"Schulweg","postalCode":"23948","locality":"Klütz","municipality":{"key":"13074039","name":"Klütz, Stadt","type":"Stadt"},"district":{"key":"13074","name":"Nordwestmecklenburg","type":"Landkreis"},"federalState":{"key":"13","name":"Mecklenburg-Vorpommern"}},{"name":"St.-Jürgen-Ring","postalCode":"23948","locality":"Klütz","municipality":{"key":"13074039","name":"Klütz, Stadt","type":"Stadt"},"district":{"key":"13074","name":"Nordwestmecklenburg","type":"Landkreis"},"federalState":{"key":"13","name":"Mecklenburg-Vorpommern"}},{"name":"Str. des Friedens","postalCode":"23948","locality":"Klütz","municipality":{"key":"13074039","name":"Klütz, Stadt","type":"Stadt"},"district":{"key":"13074","name":"Nordwestmecklenburg","type":"Landkreis"},"federalState":{"key":"13","name":"Mecklenburg-Vorpommern"}},{"name":"Ulmenweg","postalCode":"23948","locality":"Klütz","municipality":{"key":"13074039","name":"Klütz, Stadt","type":"Stadt"},"district":{"key":"13074","name":"Nordwestmecklenburg","type":"Landkreis"},"federalState":{"key":"13","name":"Mecklenburg-Vorpommern"}},{"name":"Uns Hüsung","postalCode":"23948","locality":"Klütz","municipality":{"key":"13074039","name":"Klütz, Stadt","type":"Stadt"},"district":{"key":"13074","name":"Nordwestmecklenburg","type":"Landkreis"},"federalState":{"key":"13","name":"Mecklenburg-Vorpommern"}},{"name":"Wasserlehrpfad","postalCode":"23948","locality":"Klütz","municipality":{"key":"13074039","name":"Klütz, Stadt","type":"Stadt"},"district":{"key":"13074","name":"Nordwestmecklenburg","type":"Landkreis"},"federalState":{"key":"13","name":"Mecklenburg-Vorpommern"}},{"name":"Wismarsche Str.","postalCode":"23948","locality":"Klütz","municipality":{"key":"13074039","name":"Klütz, Stadt","type":"Stadt"},"district":{"key":"13074","name":"Nordwestmecklenburg","type":"Landkreis"},"federalState":{"key":"13","name":"Mecklenburg-Vorpommern"}},{"name":"Zur Allee","postalCode":"23948","locality":"Klütz","municipality":{"key":"13074039","name":"Klütz, Stadt","type":"Stadt"},"district":{"key":"13074","name":"Nordwestmecklenburg","type":"Landkreis"},"federalState":{"key":"13","name":"Mecklenburg-Vorpommern"}},{"name":"Zur Gärtnerei","postalCode":"23948","locality":"Klütz","municipality":{"key":"13074039","name":"Klütz, Stadt","type":"Stadt"},"district":{"key":"13074","name":"Nordwestmecklenburg","type":"Landkreis"},"federalState":{"key":"13","name":"Mecklenburg-Vorpommern"}},{"name":"Zur Traktorenwerkstatt","postalCode":"23948","locality":"Klütz","municipality":{"key":"13074039","name":"Klütz, Stadt","type":"Stadt"},"district":{"key":"13074","name":"Nordwestmecklenburg","type":"Landkreis"},"federalState":{"key":"13","name":"Mecklenburg-Vorpommern"}},]