[{"name":"Alte Silberwiese","postalCode":"57641","locality":"Oberlahr","municipality":{"key":"07132083","name":"Oberlahr","type":"Kreisangehörige_Gemeinde"},"district":{"key":"07132","name":"Altenkirchen (Westerwald)","type":"Landkreis"},"federalState":{"key":"07","name":"Rheinland-Pfalz"}},{"name":"Am Lahrbach","postalCode":"57641","locality":"Oberlahr","municipality":{"key":"07132083","name":"Oberlahr","type":"Kreisangehörige_Gemeinde"},"district":{"key":"07132","name":"Altenkirchen (Westerwald)","type":"Landkreis"},"federalState":{"key":"07","name":"Rheinland-Pfalz"}},{"name":"Am Silberhang","postalCode":"57641","locality":"Oberlahr","municipality":{"key":"07132083","name":"Oberlahr","type":"Kreisangehörige_Gemeinde"},"district":{"key":"07132","name":"Altenkirchen (Westerwald)","type":"Landkreis"},"federalState":{"key":"07","name":"Rheinland-Pfalz"}},{"name":"Bahnhofstr.","postalCode":"57641","locality":"Oberlahr","municipality":{"key":"07132083","name":"Oberlahr","type":"Kreisangehörige_Gemeinde"},"district":{"key":"07132","name":"Altenkirchen (Westerwald)","type":"Landkreis"},"federalState":{"key":"07","name":"Rheinland-Pfalz"}},{"name":"Bergstr.","postalCode":"57641","locality":"Oberlahr","municipality":{"key":"07132083","name":"Oberlahr","type":"Kreisangehörige_Gemeinde"},"district":{"key":"07132","name":"Altenkirchen (Westerwald)","type":"Landkreis"},"federalState":{"key":"07","name":"Rheinland-Pfalz"}},{"name":"Gartenstr.","postalCode":"57641","locality":"Oberlahr","municipality":{"key":"07132083","name":"Oberlahr","type":"Kreisangehörige_Gemeinde"},"district":{"key":"07132","name":"Altenkirchen (Westerwald)","type":"Landkreis"},"federalState":{"key":"07","name":"Rheinland-Pfalz"}},{"name":"Hauptstr.","postalCode":"57641","locality":"Oberlahr","municipality":{"key":"07132083","name":"Oberlahr","type":"Kreisangehörige_Gemeinde"},"district":{"key":"07132","name":"Altenkirchen (Westerwald)","type":"Landkreis"},"federalState":{"key":"07","name":"Rheinland-Pfalz"}},{"name":"Im Allen","postalCode":"57641","locality":"Oberlahr","municipality":{"key":"07132083","name":"Oberlahr","type":"Kreisangehörige_Gemeinde"},"district":{"key":"07132","name":"Altenkirchen (Westerwald)","type":"Landkreis"},"federalState":{"key":"07","name":"Rheinland-Pfalz"}},{"name":"Im Klingenthal","postalCode":"57641","locality":"Oberlahr","municipality":{"key":"07132083","name":"Oberlahr","type":"Kreisangehörige_Gemeinde"},"district":{"key":"07132","name":"Altenkirchen (Westerwald)","type":"Landkreis"},"federalState":{"key":"07","name":"Rheinland-Pfalz"}},{"name":"In der Kaul","postalCode":"57641","locality":"Oberlahr","municipality":{"key":"07132083","name":"Oberlahr","type":"Kreisangehörige_Gemeinde"},"district":{"key":"07132","name":"Altenkirchen (Westerwald)","type":"Landkreis"},"federalState":{"key":"07","name":"Rheinland-Pfalz"}},{"name":"Kirchstr.","postalCode":"57641","locality":"Oberlahr","municipality":{"key":"07132083","name":"Oberlahr","type":"Kreisangehörige_Gemeinde"},"district":{"key":"07132","name":"Altenkirchen (Westerwald)","type":"Landkreis"},"federalState":{"key":"07","name":"Rheinland-Pfalz"}},{"name":"Lammerichskaul","postalCode":"57641","locality":"Oberlahr","municipality":{"key":"07132083","name":"Oberlahr","type":"Kreisangehörige_Gemeinde"},"district":{"key":"07132","name":"Altenkirchen (Westerwald)","type":"Landkreis"},"federalState":{"key":"07","name":"Rheinland-Pfalz"}},{"name":"Langenauer Str.","postalCode":"57641","locality":"Oberlahr","municipality":{"key":"07132083","name":"Oberlahr","type":"Kreisangehörige_Gemeinde"},"district":{"key":"07132","name":"Altenkirchen (Westerwald)","type":"Landkreis"},"federalState":{"key":"07","name":"Rheinland-Pfalz"}},{"name":"Rosenstr.","postalCode":"57641","locality":"Oberlahr","municipality":{"key":"07132083","name":"Oberlahr","type":"Kreisangehörige_Gemeinde"},"district":{"key":"07132","name":"Altenkirchen (Westerwald)","type":"Landkreis"},"federalState":{"key":"07","name":"Rheinland-Pfalz"}},{"name":"Schulstr.","postalCode":"57641","locality":"Oberlahr","municipality":{"key":"07132083","name":"Oberlahr","type":"Kreisangehörige_Gemeinde"},"district":{"key":"07132","name":"Altenkirchen (Westerwald)","type":"Landkreis"},"federalState":{"key":"07","name":"Rheinland-Pfalz"}},{"name":"Silberwiesenstr.","postalCode":"57641","locality":"Oberlahr","municipality":{"key":"07132083","name":"Oberlahr","type":"Kreisangehörige_Gemeinde"},"district":{"key":"07132","name":"Altenkirchen (Westerwald)","type":"Landkreis"},"federalState":{"key":"07","name":"Rheinland-Pfalz"}},{"name":"Sonnenhang","postalCode":"57641","locality":"Oberlahr","municipality":{"key":"07132083","name":"Oberlahr","type":"Kreisangehörige_Gemeinde"},"district":{"key":"07132","name":"Altenkirchen (Westerwald)","type":"Landkreis"},"federalState":{"key":"07","name":"Rheinland-Pfalz"}},{"name":"Sonnenhang; Schulstr.","postalCode":"57641","locality":"Oberlahr","municipality":{"key":"07132083","name":"Oberlahr","type":"Kreisangehörige_Gemeinde"},"district":{"key":"07132","name":"Altenkirchen (Westerwald)","type":"Landkreis"},"federalState":{"key":"07","name":"Rheinland-Pfalz"}},{"name":"Südstr.","postalCode":"57641","locality":"Oberlahr","municipality":{"key":"07132083","name":"Oberlahr","type":"Kreisangehörige_Gemeinde"},"district":{"key":"07132","name":"Altenkirchen (Westerwald)","type":"Landkreis"},"federalState":{"key":"07","name":"Rheinland-Pfalz"}},{"name":"Toni-Reifenhäuser-Str.","postalCode":"57641","locality":"Oberlahr","municipality":{"key":"07132083","name":"Oberlahr","type":"Kreisangehörige_Gemeinde"},"district":{"key":"07132","name":"Altenkirchen (Westerwald)","type":"Landkreis"},"federalState":{"key":"07","name":"Rheinland-Pfalz"}},{"name":"Waldstr.","postalCode":"57641","locality":"Oberlahr","municipality":{"key":"07132083","name":"Oberlahr","type":"Kreisangehörige_Gemeinde"},"district":{"key":"07132","name":"Altenkirchen (Westerwald)","type":"Landkreis"},"federalState":{"key":"07","name":"Rheinland-Pfalz"}},{"name":"Wiesenstr.","postalCode":"57641","locality":"Oberlahr","municipality":{"key":"07132083","name":"Oberlahr","type":"Kreisangehörige_Gemeinde"},"district":{"key":"07132","name":"Altenkirchen (Westerwald)","type":"Landkreis"},"federalState":{"key":"07","name":"Rheinland-Pfalz"}},]