[{"name":"Am Bußkreuz","postalCode":"56412","locality":"Oberelbert","municipality":{"key":"07143057","name":"Oberelbert","type":"Kreisangehörige_Gemeinde"},"district":{"key":"07143","name":"Westerwaldkreis","type":"Landkreis"},"federalState":{"key":"07","name":"Rheinland-Pfalz"}},{"name":"Am Stelzenbach","postalCode":"56412","locality":"Oberelbert","municipality":{"key":"07143057","name":"Oberelbert","type":"Kreisangehörige_Gemeinde"},"district":{"key":"07143","name":"Westerwaldkreis","type":"Landkreis"},"federalState":{"key":"07","name":"Rheinland-Pfalz"}},{"name":"Am Tor","postalCode":"56412","locality":"Oberelbert","municipality":{"key":"07143057","name":"Oberelbert","type":"Kreisangehörige_Gemeinde"},"district":{"key":"07143","name":"Westerwaldkreis","type":"Landkreis"},"federalState":{"key":"07","name":"Rheinland-Pfalz"}},{"name":"Am Weikert","postalCode":"56412","locality":"Oberelbert","municipality":{"key":"07143057","name":"Oberelbert","type":"Kreisangehörige_Gemeinde"},"district":{"key":"07143","name":"Westerwaldkreis","type":"Landkreis"},"federalState":{"key":"07","name":"Rheinland-Pfalz"}},{"name":"Backhausstr.","postalCode":"56412","locality":"Oberelbert","municipality":{"key":"07143057","name":"Oberelbert","type":"Kreisangehörige_Gemeinde"},"district":{"key":"07143","name":"Westerwaldkreis","type":"Landkreis"},"federalState":{"key":"07","name":"Rheinland-Pfalz"}},{"name":"Brunnenstr.","postalCode":"56412","locality":"Oberelbert","municipality":{"key":"07143057","name":"Oberelbert","type":"Kreisangehörige_Gemeinde"},"district":{"key":"07143","name":"Westerwaldkreis","type":"Landkreis"},"federalState":{"key":"07","name":"Rheinland-Pfalz"}},{"name":"Hauptstr.","postalCode":"56412","locality":"Oberelbert","municipality":{"key":"07143057","name":"Oberelbert","type":"Kreisangehörige_Gemeinde"},"district":{"key":"07143","name":"Westerwaldkreis","type":"Landkreis"},"federalState":{"key":"07","name":"Rheinland-Pfalz"}},{"name":"Im Bamert","postalCode":"56412","locality":"Oberelbert","municipality":{"key":"07143057","name":"Oberelbert","type":"Kreisangehörige_Gemeinde"},"district":{"key":"07143","name":"Westerwaldkreis","type":"Landkreis"},"federalState":{"key":"07","name":"Rheinland-Pfalz"}},{"name":"Im Flürchen","postalCode":"56412","locality":"Oberelbert","municipality":{"key":"07143057","name":"Oberelbert","type":"Kreisangehörige_Gemeinde"},"district":{"key":"07143","name":"Westerwaldkreis","type":"Landkreis"},"federalState":{"key":"07","name":"Rheinland-Pfalz"}},{"name":"Im Krautfeld","postalCode":"56412","locality":"Oberelbert","municipality":{"key":"07143057","name":"Oberelbert","type":"Kreisangehörige_Gemeinde"},"district":{"key":"07143","name":"Westerwaldkreis","type":"Landkreis"},"federalState":{"key":"07","name":"Rheinland-Pfalz"}},{"name":"Im Seifen","postalCode":"56412","locality":"Oberelbert","municipality":{"key":"07143057","name":"Oberelbert","type":"Kreisangehörige_Gemeinde"},"district":{"key":"07143","name":"Westerwaldkreis","type":"Landkreis"},"federalState":{"key":"07","name":"Rheinland-Pfalz"}},{"name":"Im Winkel","postalCode":"56412","locality":"Oberelbert","municipality":{"key":"07143057","name":"Oberelbert","type":"Kreisangehörige_Gemeinde"},"district":{"key":"07143","name":"Westerwaldkreis","type":"Landkreis"},"federalState":{"key":"07","name":"Rheinland-Pfalz"}},{"name":"Jagdhausstr.","postalCode":"56412","locality":"Oberelbert","municipality":{"key":"07143057","name":"Oberelbert","type":"Kreisangehörige_Gemeinde"},"district":{"key":"07143","name":"Westerwaldkreis","type":"Landkreis"},"federalState":{"key":"07","name":"Rheinland-Pfalz"}},{"name":"Kirchstr.","postalCode":"56412","locality":"Oberelbert","municipality":{"key":"07143057","name":"Oberelbert","type":"Kreisangehörige_Gemeinde"},"district":{"key":"07143","name":"Westerwaldkreis","type":"Landkreis"},"federalState":{"key":"07","name":"Rheinland-Pfalz"}},{"name":"Lenzengarten","postalCode":"56412","locality":"Oberelbert","municipality":{"key":"07143057","name":"Oberelbert","type":"Kreisangehörige_Gemeinde"},"district":{"key":"07143","name":"Westerwaldkreis","type":"Landkreis"},"federalState":{"key":"07","name":"Rheinland-Pfalz"}},{"name":"Montabaurer Str.","postalCode":"56412","locality":"Oberelbert","municipality":{"key":"07143057","name":"Oberelbert","type":"Kreisangehörige_Gemeinde"},"district":{"key":"07143","name":"Westerwaldkreis","type":"Landkreis"},"federalState":{"key":"07","name":"Rheinland-Pfalz"}},{"name":"Steinstr.","postalCode":"56412","locality":"Oberelbert","municipality":{"key":"07143057","name":"Oberelbert","type":"Kreisangehörige_Gemeinde"},"district":{"key":"07143","name":"Westerwaldkreis","type":"Landkreis"},"federalState":{"key":"07","name":"Rheinland-Pfalz"}},{"name":"Stelzenbachstr.","postalCode":"56412","locality":"Oberelbert","municipality":{"key":"07143057","name":"Oberelbert","type":"Kreisangehörige_Gemeinde"},"district":{"key":"07143","name":"Westerwaldkreis","type":"Landkreis"},"federalState":{"key":"07","name":"Rheinland-Pfalz"}},{"name":"Südstr.","postalCode":"56412","locality":"Oberelbert","municipality":{"key":"07143057","name":"Oberelbert","type":"Kreisangehörige_Gemeinde"},"district":{"key":"07143","name":"Westerwaldkreis","type":"Landkreis"},"federalState":{"key":"07","name":"Rheinland-Pfalz"}},{"name":"Trifter Weg","postalCode":"56412","locality":"Oberelbert","municipality":{"key":"07143057","name":"Oberelbert","type":"Kreisangehörige_Gemeinde"},"district":{"key":"07143","name":"Westerwaldkreis","type":"Landkreis"},"federalState":{"key":"07","name":"Rheinland-Pfalz"}},{"name":"Waldstr.","postalCode":"56412","locality":"Oberelbert","municipality":{"key":"07143057","name":"Oberelbert","type":"Kreisangehörige_Gemeinde"},"district":{"key":"07143","name":"Westerwaldkreis","type":"Landkreis"},"federalState":{"key":"07","name":"Rheinland-Pfalz"}},{"name":"Wiesenstr.","postalCode":"56412","locality":"Oberelbert","municipality":{"key":"07143057","name":"Oberelbert","type":"Kreisangehörige_Gemeinde"},"district":{"key":"07143","name":"Westerwaldkreis","type":"Landkreis"},"federalState":{"key":"07","name":"Rheinland-Pfalz"}},{"name":"Zum Forellenhof","postalCode":"56412","locality":"Oberelbert","municipality":{"key":"07143057","name":"Oberelbert","type":"Kreisangehörige_Gemeinde"},"district":{"key":"07143","name":"Westerwaldkreis","type":"Landkreis"},"federalState":{"key":"07","name":"Rheinland-Pfalz"}},{"name":"Zum Wiesengrund","postalCode":"56412","locality":"Oberelbert","municipality":{"key":"07143057","name":"Oberelbert","type":"Kreisangehörige_Gemeinde"},"district":{"key":"07143","name":"Westerwaldkreis","type":"Landkreis"},"federalState":{"key":"07","name":"Rheinland-Pfalz"}},{"name":"Zur Erbenmühle","postalCode":"56412","locality":"Oberelbert","municipality":{"key":"07143057","name":"Oberelbert","type":"Kreisangehörige_Gemeinde"},"district":{"key":"07143","name":"Westerwaldkreis","type":"Landkreis"},"federalState":{"key":"07","name":"Rheinland-Pfalz"}},{"name":"Zur Festerling","postalCode":"56412","locality":"Oberelbert","municipality":{"key":"07143057","name":"Oberelbert","type":"Kreisangehörige_Gemeinde"},"district":{"key":"07143","name":"Westerwaldkreis","type":"Landkreis"},"federalState":{"key":"07","name":"Rheinland-Pfalz"}},]