[{"name":"Am Reichelberg","postalCode":"54516","locality":"Flußbach","municipality":{"key":"07231033","name":"Flußbach","type":"Kreisangehörige_Gemeinde"},"district":{"key":"07231","name":"Bernkastel-Wittlich","type":"Landkreis"},"federalState":{"key":"07","name":"Rheinland-Pfalz"}},{"name":"Auf dem Boden","postalCode":"54516","locality":"Flußbach","municipality":{"key":"07231033","name":"Flußbach","type":"Kreisangehörige_Gemeinde"},"district":{"key":"07231","name":"Bernkastel-Wittlich","type":"Landkreis"},"federalState":{"key":"07","name":"Rheinland-Pfalz"}},{"name":"Auf der Hüll","postalCode":"54516","locality":"Flußbach","municipality":{"key":"07231033","name":"Flußbach","type":"Kreisangehörige_Gemeinde"},"district":{"key":"07231","name":"Bernkastel-Wittlich","type":"Landkreis"},"federalState":{"key":"07","name":"Rheinland-Pfalz"}},{"name":"Hauptstr.","postalCode":"54516","locality":"Flußbach","municipality":{"key":"07231033","name":"Flußbach","type":"Kreisangehörige_Gemeinde"},"district":{"key":"07231","name":"Bernkastel-Wittlich","type":"Landkreis"},"federalState":{"key":"07","name":"Rheinland-Pfalz"}},{"name":"Hohlweg","postalCode":"54516","locality":"Flußbach","municipality":{"key":"07231033","name":"Flußbach","type":"Kreisangehörige_Gemeinde"},"district":{"key":"07231","name":"Bernkastel-Wittlich","type":"Landkreis"},"federalState":{"key":"07","name":"Rheinland-Pfalz"}},{"name":"Im Brühl","postalCode":"54516","locality":"Flußbach","municipality":{"key":"07231033","name":"Flußbach","type":"Kreisangehörige_Gemeinde"},"district":{"key":"07231","name":"Bernkastel-Wittlich","type":"Landkreis"},"federalState":{"key":"07","name":"Rheinland-Pfalz"}},{"name":"Im Entelt","postalCode":"54516","locality":"Flußbach","municipality":{"key":"07231033","name":"Flußbach","type":"Kreisangehörige_Gemeinde"},"district":{"key":"07231","name":"Bernkastel-Wittlich","type":"Landkreis"},"federalState":{"key":"07","name":"Rheinland-Pfalz"}},{"name":"Im Gartenfeld","postalCode":"54516","locality":"Flußbach","municipality":{"key":"07231033","name":"Flußbach","type":"Kreisangehörige_Gemeinde"},"district":{"key":"07231","name":"Bernkastel-Wittlich","type":"Landkreis"},"federalState":{"key":"07","name":"Rheinland-Pfalz"}},{"name":"Im Kordel","postalCode":"54516","locality":"Flußbach","municipality":{"key":"07231033","name":"Flußbach","type":"Kreisangehörige_Gemeinde"},"district":{"key":"07231","name":"Bernkastel-Wittlich","type":"Landkreis"},"federalState":{"key":"07","name":"Rheinland-Pfalz"}},{"name":"In den Zeinen","postalCode":"54516","locality":"Flußbach","municipality":{"key":"07231033","name":"Flußbach","type":"Kreisangehörige_Gemeinde"},"district":{"key":"07231","name":"Bernkastel-Wittlich","type":"Landkreis"},"federalState":{"key":"07","name":"Rheinland-Pfalz"}},{"name":"Kirchstr.","postalCode":"54516","locality":"Flußbach","municipality":{"key":"07231033","name":"Flußbach","type":"Kreisangehörige_Gemeinde"},"district":{"key":"07231","name":"Bernkastel-Wittlich","type":"Landkreis"},"federalState":{"key":"07","name":"Rheinland-Pfalz"}},{"name":"Nr 22","postalCode":"54516","locality":"Flußbach","municipality":{"key":"07231033","name":"Flußbach","type":"Kreisangehörige_Gemeinde"},"district":{"key":"07231","name":"Bernkastel-Wittlich","type":"Landkreis"},"federalState":{"key":"07","name":"Rheinland-Pfalz"}},{"name":"Siedlung","postalCode":"54516","locality":"Flußbach","municipality":{"key":"07231033","name":"Flußbach","type":"Kreisangehörige_Gemeinde"},"district":{"key":"07231","name":"Bernkastel-Wittlich","type":"Landkreis"},"federalState":{"key":"07","name":"Rheinland-Pfalz"}},{"name":"Wiesenweg","postalCode":"54516","locality":"Flußbach","municipality":{"key":"07231033","name":"Flußbach","type":"Kreisangehörige_Gemeinde"},"district":{"key":"07231","name":"Bernkastel-Wittlich","type":"Landkreis"},"federalState":{"key":"07","name":"Rheinland-Pfalz"}},{"name":"Zum Kalerkreuz","postalCode":"54516","locality":"Flußbach","municipality":{"key":"07231033","name":"Flußbach","type":"Kreisangehörige_Gemeinde"},"district":{"key":"07231","name":"Bernkastel-Wittlich","type":"Landkreis"},"federalState":{"key":"07","name":"Rheinland-Pfalz"}},{"name":"Zum Messeberg","postalCode":"54516","locality":"Flußbach","municipality":{"key":"07231033","name":"Flußbach","type":"Kreisangehörige_Gemeinde"},"district":{"key":"07231","name":"Bernkastel-Wittlich","type":"Landkreis"},"federalState":{"key":"07","name":"Rheinland-Pfalz"}},{"name":"Zum Schohfelder","postalCode":"54516","locality":"Flußbach","municipality":{"key":"07231033","name":"Flußbach","type":"Kreisangehörige_Gemeinde"},"district":{"key":"07231","name":"Bernkastel-Wittlich","type":"Landkreis"},"federalState":{"key":"07","name":"Rheinland-Pfalz"}},]