[{"key":"10169219","name":"Aemlisboden","postalCode":"3508","locality":"Arni BE","commune":{"key":"620","name":"Oberthal","shortName":"Oberthal"},"district":{"key":"246","name":"Verwaltungskreis Bern-Mittelland"},"canton":{"key":"2","code":"BE","name":"Bern / Berne"},"status":"Real"},{"key":"10169220","name":"Allmendweg","postalCode":"3508","locality":"Arni BE","commune":{"key":"620","name":"Oberthal","shortName":"Oberthal"},"district":{"key":"246","name":"Verwaltungskreis Bern-Mittelland"},"canton":{"key":"2","code":"BE","name":"Bern / Berne"},"status":"Real"},{"key":"10074798","name":"Arniberg","postalCode":"3508","locality":"Arni BE","commune":{"key":"620","name":"Oberthal","shortName":"Oberthal"},"district":{"key":"246","name":"Verwaltungskreis Bern-Mittelland"},"canton":{"key":"2","code":"BE","name":"Bern / Berne"},"status":"Real"},{"key":"10249562","name":"Arnimoos","postalCode":"3508","locality":"Arni BE","commune":{"key":"620","name":"Oberthal","shortName":"Oberthal"},"district":{"key":"246","name":"Verwaltungskreis Bern-Mittelland"},"canton":{"key":"2","code":"BE","name":"Bern / Berne"},"status":"Real"},{"key":"10162900","name":"Arnisägestrasse","postalCode":"3508","locality":"Arni BE","commune":{"key":"620","name":"Oberthal","shortName":"Oberthal"},"district":{"key":"246","name":"Verwaltungskreis Bern-Mittelland"},"canton":{"key":"2","code":"BE","name":"Bern / Berne"},"status":"Real"},{"key":"10169221","name":"Arnistrasse","postalCode":"3508","locality":"Arni BE","commune":{"key":"620","name":"Oberthal","shortName":"Oberthal"},"district":{"key":"246","name":"Verwaltungskreis Bern-Mittelland"},"canton":{"key":"2","code":"BE","name":"Bern / Berne"},"status":"Real"},{"key":"10124622","name":"Bächlen","postalCode":"3508","locality":"Arni BE","commune":{"key":"620","name":"Oberthal","shortName":"Oberthal"},"district":{"key":"246","name":"Verwaltungskreis Bern-Mittelland"},"canton":{"key":"2","code":"BE","name":"Bern / Berne"},"status":"Real"},{"key":"10180614","name":"Bergacker","postalCode":"3508","locality":"Arni BE","commune":{"key":"620","name":"Oberthal","shortName":"Oberthal"},"district":{"key":"246","name":"Verwaltungskreis Bern-Mittelland"},"canton":{"key":"2","code":"BE","name":"Bern / Berne"},"status":"Real"},{"key":"10061221","name":"Bifang","postalCode":"3508","locality":"Arni BE","commune":{"key":"620","name":"Oberthal","shortName":"Oberthal"},"district":{"key":"246","name":"Verwaltungskreis Bern-Mittelland"},"canton":{"key":"2","code":"BE","name":"Bern / Berne"},"status":"Real"},{"key":"10006490","name":"Birchbühl","postalCode":"3508","locality":"Arni BE","commune":{"key":"620","name":"Oberthal","shortName":"Oberthal"},"district":{"key":"246","name":"Verwaltungskreis Bern-Mittelland"},"canton":{"key":"2","code":"BE","name":"Bern / Berne"},"status":"Real"},{"key":"10060509","name":"Blasenneuhaus","postalCode":"3508","locality":"Arni BE","commune":{"key":"620","name":"Oberthal","shortName":"Oberthal"},"district":{"key":"246","name":"Verwaltungskreis Bern-Mittelland"},"canton":{"key":"2","code":"BE","name":"Bern / Berne"},"status":"Real"},{"key":"10216729","name":"Blasenwald","postalCode":"3508","locality":"Arni BE","commune":{"key":"620","name":"Oberthal","shortName":"Oberthal"},"district":{"key":"246","name":"Verwaltungskreis Bern-Mittelland"},"canton":{"key":"2","code":"BE","name":"Bern / Berne"},"status":"Real"},{"key":"10005229","name":"Bruch","postalCode":"3508","locality":"Arni BE","commune":{"key":"620","name":"Oberthal","shortName":"Oberthal"},"district":{"key":"246","name":"Verwaltungskreis Bern-Mittelland"},"canton":{"key":"2","code":"BE","name":"Bern / Berne"},"status":"Real"},{"key":"10169223","name":"Brunnenweg","postalCode":"3508","locality":"Arni BE","commune":{"key":"620","name":"Oberthal","shortName":"Oberthal"},"district":{"key":"246","name":"Verwaltungskreis Bern-Mittelland"},"canton":{"key":"2","code":"BE","name":"Bern / Berne"},"status":"Real"},{"key":"10169224","name":"Dreierweg","postalCode":"3508","locality":"Arni BE","commune":{"key":"620","name":"Oberthal","shortName":"Oberthal"},"district":{"key":"246","name":"Verwaltungskreis Bern-Mittelland"},"canton":{"key":"2","code":"BE","name":"Bern / Berne"},"status":"Real"},{"key":"10060510","name":"Ey","postalCode":"3508","locality":"Arni BE","commune":{"key":"620","name":"Oberthal","shortName":"Oberthal"},"district":{"key":"246","name":"Verwaltungskreis Bern-Mittelland"},"canton":{"key":"2","code":"BE","name":"Bern / Berne"},"status":"Real"},{"key":"10006491","name":"Eymatt","postalCode":"3508","locality":"Arni BE","commune":{"key":"620","name":"Oberthal","shortName":"Oberthal"},"district":{"key":"246","name":"Verwaltungskreis Bern-Mittelland"},"canton":{"key":"2","code":"BE","name":"Bern / Berne"},"status":"Real"},{"key":"10061222","name":"Finet","postalCode":"3508","locality":"Arni BE","commune":{"key":"620","name":"Oberthal","shortName":"Oberthal"},"district":{"key":"246","name":"Verwaltungskreis Bern-Mittelland"},"canton":{"key":"2","code":"BE","name":"Bern / Berne"},"status":"Real"},{"key":"10074799","name":"Galliloch","postalCode":"3508","locality":"Arni BE","commune":{"key":"620","name":"Oberthal","shortName":"Oberthal"},"district":{"key":"246","name":"Verwaltungskreis Bern-Mittelland"},"canton":{"key":"2","code":"BE","name":"Bern / Berne"},"status":"Real"},{"key":"10005224","name":"Gfell","postalCode":"3508","locality":"Arni BE","commune":{"key":"620","name":"Oberthal","shortName":"Oberthal"},"district":{"key":"246","name":"Verwaltungskreis Bern-Mittelland"},"canton":{"key":"2","code":"BE","name":"Bern / Berne"},"status":"Real"},{"key":"10115376","name":"Gfellscheuer","postalCode":"3508","locality":"Arni BE","commune":{"key":"620","name":"Oberthal","shortName":"Oberthal"},"district":{"key":"246","name":"Verwaltungskreis Bern-Mittelland"},"canton":{"key":"2","code":"BE","name":"Bern / Berne"},"status":"Real"},{"key":"10113789","name":"Gfellstutz","postalCode":"3508","locality":"Arni BE","commune":{"key":"620","name":"Oberthal","shortName":"Oberthal"},"district":{"key":"246","name":"Verwaltungskreis Bern-Mittelland"},"canton":{"key":"2","code":"BE","name":"Bern / Berne"},"status":"Real"},{"key":"10108226","name":"Guggerberg","postalCode":"3508","locality":"Arni BE","commune":{"key":"620","name":"Oberthal","shortName":"Oberthal"},"district":{"key":"246","name":"Verwaltungskreis Bern-Mittelland"},"canton":{"key":"2","code":"BE","name":"Bern / Berne"},"status":"Real"},{"key":"10006492","name":"Gutzlen","postalCode":"3508","locality":"Arni BE","commune":{"key":"620","name":"Oberthal","shortName":"Oberthal"},"district":{"key":"246","name":"Verwaltungskreis Bern-Mittelland"},"canton":{"key":"2","code":"BE","name":"Bern / Berne"},"status":"Real"},{"key":"10112642","name":"Habchegg","postalCode":"3508","locality":"Arni BE","commune":{"key":"620","name":"Oberthal","shortName":"Oberthal"},"district":{"key":"246","name":"Verwaltungskreis Bern-Mittelland"},"canton":{"key":"2","code":"BE","name":"Bern / Berne"},"status":"Real"},{"key":"10169225","name":"Habcheggweid","postalCode":"3508","locality":"Arni BE","commune":{"key":"620","name":"Oberthal","shortName":"Oberthal"},"district":{"key":"246","name":"Verwaltungskreis Bern-Mittelland"},"canton":{"key":"2","code":"BE","name":"Bern / Berne"},"status":"Real"},{"key":"10162901","name":"Hämlismattstrasse","postalCode":"3508","locality":"Arni BE","commune":{"key":"620","name":"Oberthal","shortName":"Oberthal"},"district":{"key":"246","name":"Verwaltungskreis Bern-Mittelland"},"canton":{"key":"2","code":"BE","name":"Bern / Berne"},"status":"Real"},{"key":"10006493","name":"Hämlismattweid","postalCode":"3508","locality":"Arni BE","commune":{"key":"620","name":"Oberthal","shortName":"Oberthal"},"district":{"key":"246","name":"Verwaltungskreis Bern-Mittelland"},"canton":{"key":"2","code":"BE","name":"Bern / Berne"},"status":"Real"},{"key":"10110016","name":"Hammegg","postalCode":"3508","locality":"Arni BE","commune":{"key":"620","name":"Oberthal","shortName":"Oberthal"},"district":{"key":"246","name":"Verwaltungskreis Bern-Mittelland"},"canton":{"key":"2","code":"BE","name":"Bern / Berne"},"status":"Real"},{"key":"10169226","name":"Hohniessen","postalCode":"3508","locality":"Arni BE","commune":{"key":"620","name":"Oberthal","shortName":"Oberthal"},"district":{"key":"246","name":"Verwaltungskreis Bern-Mittelland"},"canton":{"key":"2","code":"BE","name":"Bern / Berne"},"status":"Real"},{"key":"10169227","name":"Hölzli","postalCode":"3508","locality":"Arni BE","commune":{"key":"620","name":"Oberthal","shortName":"Oberthal"},"district":{"key":"246","name":"Verwaltungskreis Bern-Mittelland"},"canton":{"key":"2","code":"BE","name":"Bern / Berne"},"status":"Real"},{"key":"10166711","name":"Hühnerrütti","postalCode":"3508","locality":"Arni BE","commune":{"key":"620","name":"Oberthal","shortName":"Oberthal"},"district":{"key":"246","name":"Verwaltungskreis Bern-Mittelland"},"canton":{"key":"2","code":"BE","name":"Bern / Berne"},"status":"Real"},{"key":"10175393","name":"Kapf","postalCode":"3508","locality":"Arni BE","commune":{"key":"620","name":"Oberthal","shortName":"Oberthal"},"district":{"key":"246","name":"Verwaltungskreis Bern-Mittelland"},"canton":{"key":"2","code":"BE","name":"Bern / Berne"},"status":"Real"},{"key":"10060512","name":"Käpfli","postalCode":"3508","locality":"Arni BE","commune":{"key":"620","name":"Oberthal","shortName":"Oberthal"},"district":{"key":"246","name":"Verwaltungskreis Bern-Mittelland"},"canton":{"key":"2","code":"BE","name":"Bern / Berne"},"status":"Real"},{"key":"10006494","name":"Käsenthal","postalCode":"3508","locality":"Arni BE","commune":{"key":"620","name":"Oberthal","shortName":"Oberthal"},"district":{"key":"246","name":"Verwaltungskreis Bern-Mittelland"},"canton":{"key":"2","code":"BE","name":"Bern / Berne"},"status":"Real"},{"key":"10074800","name":"Kriesweg","postalCode":"3508","locality":"Arni BE","commune":{"key":"620","name":"Oberthal","shortName":"Oberthal"},"district":{"key":"246","name":"Verwaltungskreis Bern-Mittelland"},"canton":{"key":"2","code":"BE","name":"Bern / Berne"},"status":"Real"},{"key":"10060513","name":"Lütiwil","postalCode":"3508","locality":"Arni BE","commune":{"key":"620","name":"Oberthal","shortName":"Oberthal"},"district":{"key":"246","name":"Verwaltungskreis Bern-Mittelland"},"canton":{"key":"2","code":"BE","name":"Bern / Berne"},"status":"Real"},{"key":"10166712","name":"Lützelflühstrasse","postalCode":"3508","locality":"Arni BE","commune":{"key":"620","name":"Oberthal","shortName":"Oberthal"},"district":{"key":"246","name":"Verwaltungskreis Bern-Mittelland"},"canton":{"key":"2","code":"BE","name":"Bern / Berne"},"status":"Real"},{"key":"10006495","name":"Moosacker","postalCode":"3508","locality":"Arni BE","commune":{"key":"620","name":"Oberthal","shortName":"Oberthal"},"district":{"key":"246","name":"Verwaltungskreis Bern-Mittelland"},"canton":{"key":"2","code":"BE","name":"Bern / Berne"},"status":"Real"},{"key":"10006496","name":"Moosegg","postalCode":"3508","locality":"Arni BE","commune":{"key":"620","name":"Oberthal","shortName":"Oberthal"},"district":{"key":"246","name":"Verwaltungskreis Bern-Mittelland"},"canton":{"key":"2","code":"BE","name":"Bern / Berne"},"status":"Real"},{"key":"10166713","name":"Mooseggrain","postalCode":"3508","locality":"Arni BE","commune":{"key":"620","name":"Oberthal","shortName":"Oberthal"},"district":{"key":"246","name":"Verwaltungskreis Bern-Mittelland"},"canton":{"key":"2","code":"BE","name":"Bern / Berne"},"status":"Real"},{"key":"10131142","name":"Morgenegg","postalCode":"3508","locality":"Arni BE","commune":{"key":"620","name":"Oberthal","shortName":"Oberthal"},"district":{"key":"246","name":"Verwaltungskreis Bern-Mittelland"},"canton":{"key":"2","code":"BE","name":"Bern / Berne"},"status":"Real"},{"key":"10191647","name":"Mösli","postalCode":"3508","locality":"Arni BE","commune":{"key":"620","name":"Oberthal","shortName":"Oberthal"},"district":{"key":"246","name":"Verwaltungskreis Bern-Mittelland"},"canton":{"key":"2","code":"BE","name":"Bern / Berne"},"status":"Real"},{"key":"10166714","name":"Neunhaupt","postalCode":"3508","locality":"Arni BE","commune":{"key":"620","name":"Oberthal","shortName":"Oberthal"},"district":{"key":"246","name":"Verwaltungskreis Bern-Mittelland"},"canton":{"key":"2","code":"BE","name":"Bern / Berne"},"status":"Real"},{"key":"10168425","name":"Oelhausweg","postalCode":"3508","locality":"Arni BE","commune":{"key":"620","name":"Oberthal","shortName":"Oberthal"},"district":{"key":"246","name":"Verwaltungskreis Bern-Mittelland"},"canton":{"key":"2","code":"BE","name":"Bern / Berne"},"status":"Real"},{"key":"10061223","name":"Rohr","postalCode":"3508","locality":"Arni BE","commune":{"key":"620","name":"Oberthal","shortName":"Oberthal"},"district":{"key":"246","name":"Verwaltungskreis Bern-Mittelland"},"canton":{"key":"2","code":"BE","name":"Bern / Berne"},"status":"Real"},{"key":"10060514","name":"Rohrmatt","postalCode":"3508","locality":"Arni BE","commune":{"key":"620","name":"Oberthal","shortName":"Oberthal"},"district":{"key":"246","name":"Verwaltungskreis Bern-Mittelland"},"canton":{"key":"2","code":"BE","name":"Bern / Berne"},"status":"Real"},{"key":"10060515","name":"Rüppi","postalCode":"3508","locality":"Arni BE","commune":{"key":"620","name":"Oberthal","shortName":"Oberthal"},"district":{"key":"246","name":"Verwaltungskreis Bern-Mittelland"},"canton":{"key":"2","code":"BE","name":"Bern / Berne"},"status":"Real"},{"key":"10124623","name":"Ruthenmatt","postalCode":"3508","locality":"Arni BE","commune":{"key":"620","name":"Oberthal","shortName":"Oberthal"},"district":{"key":"246","name":"Verwaltungskreis Bern-Mittelland"},"canton":{"key":"2","code":"BE","name":"Bern / Berne"},"status":"Real"},{"key":"10168426","name":"Rütteli","postalCode":"3508","locality":"Arni BE","commune":{"key":"620","name":"Oberthal","shortName":"Oberthal"},"district":{"key":"246","name":"Verwaltungskreis Bern-Mittelland"},"canton":{"key":"2","code":"BE","name":"Bern / Berne"},"status":"Real"},{"key":"10006497","name":"Schafroth","postalCode":"3508","locality":"Arni BE","commune":{"key":"620","name":"Oberthal","shortName":"Oberthal"},"district":{"key":"246","name":"Verwaltungskreis Bern-Mittelland"},"canton":{"key":"2","code":"BE","name":"Bern / Berne"},"status":"Real"},{"key":"10074801","name":"Schiffmatt","postalCode":"3508","locality":"Arni BE","commune":{"key":"620","name":"Oberthal","shortName":"Oberthal"},"district":{"key":"246","name":"Verwaltungskreis Bern-Mittelland"},"canton":{"key":"2","code":"BE","name":"Bern / Berne"},"status":"Real"},{"key":"10168427","name":"Schmittenweg","postalCode":"3508","locality":"Arni BE","commune":{"key":"620","name":"Oberthal","shortName":"Oberthal"},"district":{"key":"246","name":"Verwaltungskreis Bern-Mittelland"},"canton":{"key":"2","code":"BE","name":"Bern / Berne"},"status":"Real"},{"key":"10005226","name":"Schönenwasenweid","postalCode":"3508","locality":"Arni BE","commune":{"key":"620","name":"Oberthal","shortName":"Oberthal"},"district":{"key":"246","name":"Verwaltungskreis Bern-Mittelland"},"canton":{"key":"2","code":"BE","name":"Bern / Berne"},"status":"Real"},{"key":"10110017","name":"Schönislehn","postalCode":"3508","locality":"Arni BE","commune":{"key":"620","name":"Oberthal","shortName":"Oberthal"},"district":{"key":"246","name":"Verwaltungskreis Bern-Mittelland"},"canton":{"key":"2","code":"BE","name":"Bern / Berne"},"status":"Real"},{"key":"10006498","name":"Schwendelweg","postalCode":"3508","locality":"Arni BE","commune":{"key":"620","name":"Oberthal","shortName":"Oberthal"},"district":{"key":"246","name":"Verwaltungskreis Bern-Mittelland"},"canton":{"key":"2","code":"BE","name":"Bern / Berne"},"status":"Real"},{"key":"10168428","name":"Sennackerweg","postalCode":"3508","locality":"Arni BE","commune":{"key":"620","name":"Oberthal","shortName":"Oberthal"},"district":{"key":"246","name":"Verwaltungskreis Bern-Mittelland"},"canton":{"key":"2","code":"BE","name":"Bern / Berne"},"status":"Real"},{"key":"10074802","name":"Spitzenstein","postalCode":"3508","locality":"Arni BE","commune":{"key":"620","name":"Oberthal","shortName":"Oberthal"},"district":{"key":"246","name":"Verwaltungskreis Bern-Mittelland"},"canton":{"key":"2","code":"BE","name":"Bern / Berne"},"status":"Real"},{"key":"10080530","name":"Spränzel","postalCode":"3508","locality":"Arni BE","commune":{"key":"620","name":"Oberthal","shortName":"Oberthal"},"district":{"key":"246","name":"Verwaltungskreis Bern-Mittelland"},"canton":{"key":"2","code":"BE","name":"Bern / Berne"},"status":"Real"},{"key":"10006499","name":"Stöckern","postalCode":"3508","locality":"Arni BE","commune":{"key":"620","name":"Oberthal","shortName":"Oberthal"},"district":{"key":"246","name":"Verwaltungskreis Bern-Mittelland"},"canton":{"key":"2","code":"BE","name":"Bern / Berne"},"status":"Real"},{"key":"10168429","name":"Sunnrain","postalCode":"3508","locality":"Arni BE","commune":{"key":"620","name":"Oberthal","shortName":"Oberthal"},"district":{"key":"246","name":"Verwaltungskreis Bern-Mittelland"},"canton":{"key":"2","code":"BE","name":"Bern / Berne"},"status":"Real"},{"key":"10006500","name":"Tanne","postalCode":"3508","locality":"Arni BE","commune":{"key":"620","name":"Oberthal","shortName":"Oberthal"},"district":{"key":"246","name":"Verwaltungskreis Bern-Mittelland"},"canton":{"key":"2","code":"BE","name":"Bern / Berne"},"status":"Real"},{"key":"10168430","name":"Vorder Gfell","postalCode":"3508","locality":"Arni BE","commune":{"key":"620","name":"Oberthal","shortName":"Oberthal"},"district":{"key":"246","name":"Verwaltungskreis Bern-Mittelland"},"canton":{"key":"2","code":"BE","name":"Bern / Berne"},"status":"Real"},{"key":"10168431","name":"Waldeckweg","postalCode":"3508","locality":"Arni BE","commune":{"key":"620","name":"Oberthal","shortName":"Oberthal"},"district":{"key":"246","name":"Verwaltungskreis Bern-Mittelland"},"canton":{"key":"2","code":"BE","name":"Bern / Berne"},"status":"Real"},{"key":"10006501","name":"Walke","postalCode":"3508","locality":"Arni BE","commune":{"key":"620","name":"Oberthal","shortName":"Oberthal"},"district":{"key":"246","name":"Verwaltungskreis Bern-Mittelland"},"canton":{"key":"2","code":"BE","name":"Bern / Berne"},"status":"Real"},{"key":"10060516","name":"Weidli","postalCode":"3508","locality":"Arni BE","commune":{"key":"620","name":"Oberthal","shortName":"Oberthal"},"district":{"key":"246","name":"Verwaltungskreis Bern-Mittelland"},"canton":{"key":"2","code":"BE","name":"Bern / Berne"},"status":"Real"},{"key":"10108227","name":"Winklen","postalCode":"3508","locality":"Arni BE","commune":{"key":"620","name":"Oberthal","shortName":"Oberthal"},"district":{"key":"246","name":"Verwaltungskreis Bern-Mittelland"},"canton":{"key":"2","code":"BE","name":"Bern / Berne"},"status":"Real"},{"key":"10168432","name":"Wuhlweid","postalCode":"3508","locality":"Arni BE","commune":{"key":"620","name":"Oberthal","shortName":"Oberthal"},"district":{"key":"246","name":"Verwaltungskreis Bern-Mittelland"},"canton":{"key":"2","code":"BE","name":"Bern / Berne"},"status":"Real"},]