[{"name":"Am Breiten Weg","postalCode":"55270","locality":"Essenheim","municipality":{"key":"07339017","name":"Essenheim","type":"Kreisangehörige_Gemeinde"},"district":{"key":"07339","name":"Mainz-Bingen","type":"Landkreis"},"federalState":{"key":"07","name":"Rheinland-Pfalz"}},{"name":"Am Dorfgraben","postalCode":"55270","locality":"Essenheim","municipality":{"key":"07339017","name":"Essenheim","type":"Kreisangehörige_Gemeinde"},"district":{"key":"07339","name":"Mainz-Bingen","type":"Landkreis"},"federalState":{"key":"07","name":"Rheinland-Pfalz"}},{"name":"Am Fasanenweg","postalCode":"55270","locality":"Essenheim","municipality":{"key":"07339017","name":"Essenheim","type":"Kreisangehörige_Gemeinde"},"district":{"key":"07339","name":"Mainz-Bingen","type":"Landkreis"},"federalState":{"key":"07","name":"Rheinland-Pfalz"}},{"name":"Am Finkenschlag","postalCode":"55270","locality":"Essenheim","municipality":{"key":"07339017","name":"Essenheim","type":"Kreisangehörige_Gemeinde"},"district":{"key":"07339","name":"Mainz-Bingen","type":"Landkreis"},"federalState":{"key":"07","name":"Rheinland-Pfalz"}},{"name":"Am Kappesfloß","postalCode":"55270","locality":"Essenheim","municipality":{"key":"07339017","name":"Essenheim","type":"Kreisangehörige_Gemeinde"},"district":{"key":"07339","name":"Mainz-Bingen","type":"Landkreis"},"federalState":{"key":"07","name":"Rheinland-Pfalz"}},{"name":"Am Römerberg","postalCode":"55270","locality":"Essenheim","municipality":{"key":"07339017","name":"Essenheim","type":"Kreisangehörige_Gemeinde"},"district":{"key":"07339","name":"Mainz-Bingen","type":"Landkreis"},"federalState":{"key":"07","name":"Rheinland-Pfalz"}},{"name":"Am Wohnberg","postalCode":"55270","locality":"Essenheim","municipality":{"key":"07339017","name":"Essenheim","type":"Kreisangehörige_Gemeinde"},"district":{"key":"07339","name":"Mainz-Bingen","type":"Landkreis"},"federalState":{"key":"07","name":"Rheinland-Pfalz"}},{"name":"An der Klingelpforte","postalCode":"55270","locality":"Essenheim","municipality":{"key":"07339017","name":"Essenheim","type":"Kreisangehörige_Gemeinde"},"district":{"key":"07339","name":"Mainz-Bingen","type":"Landkreis"},"federalState":{"key":"07","name":"Rheinland-Pfalz"}},{"name":"An der Steinern Brück","postalCode":"55270","locality":"Essenheim","municipality":{"key":"07339017","name":"Essenheim","type":"Kreisangehörige_Gemeinde"},"district":{"key":"07339","name":"Mainz-Bingen","type":"Landkreis"},"federalState":{"key":"07","name":"Rheinland-Pfalz"}},{"name":"Auf der Brück","postalCode":"55270","locality":"Essenheim","municipality":{"key":"07339017","name":"Essenheim","type":"Kreisangehörige_Gemeinde"},"district":{"key":"07339","name":"Mainz-Bingen","type":"Landkreis"},"federalState":{"key":"07","name":"Rheinland-Pfalz"}},{"name":"Auf der Muhl","postalCode":"55270","locality":"Essenheim","municipality":{"key":"07339017","name":"Essenheim","type":"Kreisangehörige_Gemeinde"},"district":{"key":"07339","name":"Mainz-Bingen","type":"Landkreis"},"federalState":{"key":"07","name":"Rheinland-Pfalz"}},{"name":"Auf der Steinkaut","postalCode":"55270","locality":"Essenheim","municipality":{"key":"07339017","name":"Essenheim","type":"Kreisangehörige_Gemeinde"},"district":{"key":"07339","name":"Mainz-Bingen","type":"Landkreis"},"federalState":{"key":"07","name":"Rheinland-Pfalz"}},{"name":"Beinweg","postalCode":"55270","locality":"Essenheim","municipality":{"key":"07339017","name":"Essenheim","type":"Kreisangehörige_Gemeinde"},"district":{"key":"07339","name":"Mainz-Bingen","type":"Landkreis"},"federalState":{"key":"07","name":"Rheinland-Pfalz"}},{"name":"Bergstr.","postalCode":"55270","locality":"Essenheim","municipality":{"key":"07339017","name":"Essenheim","type":"Kreisangehörige_Gemeinde"},"district":{"key":"07339","name":"Mainz-Bingen","type":"Landkreis"},"federalState":{"key":"07","name":"Rheinland-Pfalz"}},{"name":"Brinkelweg","postalCode":"55270","locality":"Essenheim","municipality":{"key":"07339017","name":"Essenheim","type":"Kreisangehörige_Gemeinde"},"district":{"key":"07339","name":"Mainz-Bingen","type":"Landkreis"},"federalState":{"key":"07","name":"Rheinland-Pfalz"}},{"name":"Büttenweg","postalCode":"55270","locality":"Essenheim","municipality":{"key":"07339017","name":"Essenheim","type":"Kreisangehörige_Gemeinde"},"district":{"key":"07339","name":"Mainz-Bingen","type":"Landkreis"},"federalState":{"key":"07","name":"Rheinland-Pfalz"}},{"name":"Domherrnstr.","postalCode":"55270","locality":"Essenheim","municipality":{"key":"07339017","name":"Essenheim","type":"Kreisangehörige_Gemeinde"},"district":{"key":"07339","name":"Mainz-Bingen","type":"Landkreis"},"federalState":{"key":"07","name":"Rheinland-Pfalz"}},{"name":"Dorfgraben","postalCode":"55270","locality":"Essenheim","municipality":{"key":"07339017","name":"Essenheim","type":"Kreisangehörige_Gemeinde"},"district":{"key":"07339","name":"Mainz-Bingen","type":"Landkreis"},"federalState":{"key":"07","name":"Rheinland-Pfalz"}},{"name":"Elsheimer Str.","postalCode":"55270","locality":"Essenheim","municipality":{"key":"07339017","name":"Essenheim","type":"Kreisangehörige_Gemeinde"},"district":{"key":"07339","name":"Mainz-Bingen","type":"Landkreis"},"federalState":{"key":"07","name":"Rheinland-Pfalz"}},{"name":"Elsheimer Weg","postalCode":"55270","locality":"Essenheim","municipality":{"key":"07339017","name":"Essenheim","type":"Kreisangehörige_Gemeinde"},"district":{"key":"07339","name":"Mainz-Bingen","type":"Landkreis"},"federalState":{"key":"07","name":"Rheinland-Pfalz"}},{"name":"Finther Weg","postalCode":"55270","locality":"Essenheim","municipality":{"key":"07339017","name":"Essenheim","type":"Kreisangehörige_Gemeinde"},"district":{"key":"07339","name":"Mainz-Bingen","type":"Landkreis"},"federalState":{"key":"07","name":"Rheinland-Pfalz"}},{"name":"Gartenweg","postalCode":"55270","locality":"Essenheim","municipality":{"key":"07339017","name":"Essenheim","type":"Kreisangehörige_Gemeinde"},"district":{"key":"07339","name":"Mainz-Bingen","type":"Landkreis"},"federalState":{"key":"07","name":"Rheinland-Pfalz"}},{"name":"Gehabertsweg","postalCode":"55270","locality":"Essenheim","municipality":{"key":"07339017","name":"Essenheim","type":"Kreisangehörige_Gemeinde"},"district":{"key":"07339","name":"Mainz-Bingen","type":"Landkreis"},"federalState":{"key":"07","name":"Rheinland-Pfalz"}},{"name":"Hähnerweg","postalCode":"55270","locality":"Essenheim","municipality":{"key":"07339017","name":"Essenheim","type":"Kreisangehörige_Gemeinde"},"district":{"key":"07339","name":"Mainz-Bingen","type":"Landkreis"},"federalState":{"key":"07","name":"Rheinland-Pfalz"}},{"name":"Hauptstr.","postalCode":"55270","locality":"Essenheim","municipality":{"key":"07339017","name":"Essenheim","type":"Kreisangehörige_Gemeinde"},"district":{"key":"07339","name":"Mainz-Bingen","type":"Landkreis"},"federalState":{"key":"07","name":"Rheinland-Pfalz"}},{"name":"Heddesheimer Weg","postalCode":"55270","locality":"Essenheim","municipality":{"key":"07339017","name":"Essenheim","type":"Kreisangehörige_Gemeinde"},"district":{"key":"07339","name":"Mainz-Bingen","type":"Landkreis"},"federalState":{"key":"07","name":"Rheinland-Pfalz"}},{"name":"Hintergasse","postalCode":"55270","locality":"Essenheim","municipality":{"key":"07339017","name":"Essenheim","type":"Kreisangehörige_Gemeinde"},"district":{"key":"07339","name":"Mainz-Bingen","type":"Landkreis"},"federalState":{"key":"07","name":"Rheinland-Pfalz"}},{"name":"Im Klotzklauer","postalCode":"55270","locality":"Essenheim","municipality":{"key":"07339017","name":"Essenheim","type":"Kreisangehörige_Gemeinde"},"district":{"key":"07339","name":"Mainz-Bingen","type":"Landkreis"},"federalState":{"key":"07","name":"Rheinland-Pfalz"}},{"name":"Im Plaul","postalCode":"55270","locality":"Essenheim","municipality":{"key":"07339017","name":"Essenheim","type":"Kreisangehörige_Gemeinde"},"district":{"key":"07339","name":"Mainz-Bingen","type":"Landkreis"},"federalState":{"key":"07","name":"Rheinland-Pfalz"}},{"name":"Im Weiher","postalCode":"55270","locality":"Essenheim","municipality":{"key":"07339017","name":"Essenheim","type":"Kreisangehörige_Gemeinde"},"district":{"key":"07339","name":"Mainz-Bingen","type":"Landkreis"},"federalState":{"key":"07","name":"Rheinland-Pfalz"}},{"name":"Im Weingarten","postalCode":"55270","locality":"Essenheim","municipality":{"key":"07339017","name":"Essenheim","type":"Kreisangehörige_Gemeinde"},"district":{"key":"07339","name":"Mainz-Bingen","type":"Landkreis"},"federalState":{"key":"07","name":"Rheinland-Pfalz"}},{"name":"In den Domherrngärten","postalCode":"55270","locality":"Essenheim","municipality":{"key":"07339017","name":"Essenheim","type":"Kreisangehörige_Gemeinde"},"district":{"key":"07339","name":"Mainz-Bingen","type":"Landkreis"},"federalState":{"key":"07","name":"Rheinland-Pfalz"}},{"name":"In der Bruchwiese","postalCode":"55270","locality":"Essenheim","municipality":{"key":"07339017","name":"Essenheim","type":"Kreisangehörige_Gemeinde"},"district":{"key":"07339","name":"Mainz-Bingen","type":"Landkreis"},"federalState":{"key":"07","name":"Rheinland-Pfalz"}},{"name":"Käferbeinstr.","postalCode":"55270","locality":"Essenheim","municipality":{"key":"07339017","name":"Essenheim","type":"Kreisangehörige_Gemeinde"},"district":{"key":"07339","name":"Mainz-Bingen","type":"Landkreis"},"federalState":{"key":"07","name":"Rheinland-Pfalz"}},{"name":"Katzenborn","postalCode":"55270","locality":"Essenheim","municipality":{"key":"07339017","name":"Essenheim","type":"Kreisangehörige_Gemeinde"},"district":{"key":"07339","name":"Mainz-Bingen","type":"Landkreis"},"federalState":{"key":"07","name":"Rheinland-Pfalz"}},{"name":"Kirchstr.","postalCode":"55270","locality":"Essenheim","municipality":{"key":"07339017","name":"Essenheim","type":"Kreisangehörige_Gemeinde"},"district":{"key":"07339","name":"Mainz-Bingen","type":"Landkreis"},"federalState":{"key":"07","name":"Rheinland-Pfalz"}},{"name":"Kirschgartenstr.","postalCode":"55270","locality":"Essenheim","municipality":{"key":"07339017","name":"Essenheim","type":"Kreisangehörige_Gemeinde"},"district":{"key":"07339","name":"Mainz-Bingen","type":"Landkreis"},"federalState":{"key":"07","name":"Rheinland-Pfalz"}},{"name":"Klappergasse","postalCode":"55270","locality":"Essenheim","municipality":{"key":"07339017","name":"Essenheim","type":"Kreisangehörige_Gemeinde"},"district":{"key":"07339","name":"Mainz-Bingen","type":"Landkreis"},"federalState":{"key":"07","name":"Rheinland-Pfalz"}},{"name":"Lindenstr.","postalCode":"55270","locality":"Essenheim","municipality":{"key":"07339017","name":"Essenheim","type":"Kreisangehörige_Gemeinde"},"district":{"key":"07339","name":"Mainz-Bingen","type":"Landkreis"},"federalState":{"key":"07","name":"Rheinland-Pfalz"}},{"name":"Mainzer Str.","postalCode":"55270","locality":"Essenheim","municipality":{"key":"07339017","name":"Essenheim","type":"Kreisangehörige_Gemeinde"},"district":{"key":"07339","name":"Mainz-Bingen","type":"Landkreis"},"federalState":{"key":"07","name":"Rheinland-Pfalz"}},{"name":"Mönchswiese","postalCode":"55270","locality":"Essenheim","municipality":{"key":"07339017","name":"Essenheim","type":"Kreisangehörige_Gemeinde"},"district":{"key":"07339","name":"Mainz-Bingen","type":"Landkreis"},"federalState":{"key":"07","name":"Rheinland-Pfalz"}},{"name":"Münchhofpforte","postalCode":"55270","locality":"Essenheim","municipality":{"key":"07339017","name":"Essenheim","type":"Kreisangehörige_Gemeinde"},"district":{"key":"07339","name":"Mainz-Bingen","type":"Landkreis"},"federalState":{"key":"07","name":"Rheinland-Pfalz"}},{"name":"Münchhofstr.","postalCode":"55270","locality":"Essenheim","municipality":{"key":"07339017","name":"Essenheim","type":"Kreisangehörige_Gemeinde"},"district":{"key":"07339","name":"Mainz-Bingen","type":"Landkreis"},"federalState":{"key":"07","name":"Rheinland-Pfalz"}},{"name":"Neubrunnenstr.","postalCode":"55270","locality":"Essenheim","municipality":{"key":"07339017","name":"Essenheim","type":"Kreisangehörige_Gemeinde"},"district":{"key":"07339","name":"Mainz-Bingen","type":"Landkreis"},"federalState":{"key":"07","name":"Rheinland-Pfalz"}},{"name":"Nieder-Olmer Str.","postalCode":"55270","locality":"Essenheim","municipality":{"key":"07339017","name":"Essenheim","type":"Kreisangehörige_Gemeinde"},"district":{"key":"07339","name":"Mainz-Bingen","type":"Landkreis"},"federalState":{"key":"07","name":"Rheinland-Pfalz"}},{"name":"Nothgasse","postalCode":"55270","locality":"Essenheim","municipality":{"key":"07339017","name":"Essenheim","type":"Kreisangehörige_Gemeinde"},"district":{"key":"07339","name":"Mainz-Bingen","type":"Landkreis"},"federalState":{"key":"07","name":"Rheinland-Pfalz"}},{"name":"Ostertalstr.","postalCode":"55270","locality":"Essenheim","municipality":{"key":"07339017","name":"Essenheim","type":"Kreisangehörige_Gemeinde"},"district":{"key":"07339","name":"Mainz-Bingen","type":"Landkreis"},"federalState":{"key":"07","name":"Rheinland-Pfalz"}},{"name":"Raiffeisenstr.","postalCode":"55270","locality":"Essenheim","municipality":{"key":"07339017","name":"Essenheim","type":"Kreisangehörige_Gemeinde"},"district":{"key":"07339","name":"Mainz-Bingen","type":"Landkreis"},"federalState":{"key":"07","name":"Rheinland-Pfalz"}},{"name":"Schulstr.","postalCode":"55270","locality":"Essenheim","municipality":{"key":"07339017","name":"Essenheim","type":"Kreisangehörige_Gemeinde"},"district":{"key":"07339","name":"Mainz-Bingen","type":"Landkreis"},"federalState":{"key":"07","name":"Rheinland-Pfalz"}},{"name":"Schwabenheimer Weg","postalCode":"55270","locality":"Essenheim","municipality":{"key":"07339017","name":"Essenheim","type":"Kreisangehörige_Gemeinde"},"district":{"key":"07339","name":"Mainz-Bingen","type":"Landkreis"},"federalState":{"key":"07","name":"Rheinland-Pfalz"}},{"name":"Stadecker Weg","postalCode":"55270","locality":"Essenheim","municipality":{"key":"07339017","name":"Essenheim","type":"Kreisangehörige_Gemeinde"},"district":{"key":"07339","name":"Mainz-Bingen","type":"Landkreis"},"federalState":{"key":"07","name":"Rheinland-Pfalz"}},{"name":"Stockgasse","postalCode":"55270","locality":"Essenheim","municipality":{"key":"07339017","name":"Essenheim","type":"Kreisangehörige_Gemeinde"},"district":{"key":"07339","name":"Mainz-Bingen","type":"Landkreis"},"federalState":{"key":"07","name":"Rheinland-Pfalz"}},{"name":"Str. der Champagne","postalCode":"55270","locality":"Essenheim","municipality":{"key":"07339017","name":"Essenheim","type":"Kreisangehörige_Gemeinde"},"district":{"key":"07339","name":"Mainz-Bingen","type":"Landkreis"},"federalState":{"key":"07","name":"Rheinland-Pfalz"}},{"name":"Teufelspfad","postalCode":"55270","locality":"Essenheim","municipality":{"key":"07339017","name":"Essenheim","type":"Kreisangehörige_Gemeinde"},"district":{"key":"07339","name":"Mainz-Bingen","type":"Landkreis"},"federalState":{"key":"07","name":"Rheinland-Pfalz"}},{"name":"Tiefenbornweg","postalCode":"55270","locality":"Essenheim","municipality":{"key":"07339017","name":"Essenheim","type":"Kreisangehörige_Gemeinde"},"district":{"key":"07339","name":"Mainz-Bingen","type":"Landkreis"},"federalState":{"key":"07","name":"Rheinland-Pfalz"}},{"name":"Ulmenstr.","postalCode":"55270","locality":"Essenheim","municipality":{"key":"07339017","name":"Essenheim","type":"Kreisangehörige_Gemeinde"},"district":{"key":"07339","name":"Mainz-Bingen","type":"Landkreis"},"federalState":{"key":"07","name":"Rheinland-Pfalz"}},{"name":"Untere Käferbeinstr.","postalCode":"55270","locality":"Essenheim","municipality":{"key":"07339017","name":"Essenheim","type":"Kreisangehörige_Gemeinde"},"district":{"key":"07339","name":"Mainz-Bingen","type":"Landkreis"},"federalState":{"key":"07","name":"Rheinland-Pfalz"}},{"name":"Wackernheimer Str.","postalCode":"55270","locality":"Essenheim","municipality":{"key":"07339017","name":"Essenheim","type":"Kreisangehörige_Gemeinde"},"district":{"key":"07339","name":"Mainz-Bingen","type":"Landkreis"},"federalState":{"key":"07","name":"Rheinland-Pfalz"}},{"name":"Weidenweg","postalCode":"55270","locality":"Essenheim","municipality":{"key":"07339017","name":"Essenheim","type":"Kreisangehörige_Gemeinde"},"district":{"key":"07339","name":"Mainz-Bingen","type":"Landkreis"},"federalState":{"key":"07","name":"Rheinland-Pfalz"}},{"name":"Windhäuser Weg","postalCode":"55270","locality":"Essenheim","municipality":{"key":"07339017","name":"Essenheim","type":"Kreisangehörige_Gemeinde"},"district":{"key":"07339","name":"Mainz-Bingen","type":"Landkreis"},"federalState":{"key":"07","name":"Rheinland-Pfalz"}},{"name":"Zum Klopp","postalCode":"55270","locality":"Essenheim","municipality":{"key":"07339017","name":"Essenheim","type":"Kreisangehörige_Gemeinde"},"district":{"key":"07339","name":"Mainz-Bingen","type":"Landkreis"},"federalState":{"key":"07","name":"Rheinland-Pfalz"}},{"name":"Zum Koppelberg","postalCode":"55270","locality":"Essenheim","municipality":{"key":"07339017","name":"Essenheim","type":"Kreisangehörige_Gemeinde"},"district":{"key":"07339","name":"Mainz-Bingen","type":"Landkreis"},"federalState":{"key":"07","name":"Rheinland-Pfalz"}},{"name":"Zum Weedgarten","postalCode":"55270","locality":"Essenheim","municipality":{"key":"07339017","name":"Essenheim","type":"Kreisangehörige_Gemeinde"},"district":{"key":"07339","name":"Mainz-Bingen","type":"Landkreis"},"federalState":{"key":"07","name":"Rheinland-Pfalz"}},]