[{"key":"10195621","name":"Arnistrasse","postalCode":"6482","locality":"Gurtnellen","commune":{"key":"1209","name":"Gurtnellen","shortName":"Gurtnellen"},"district":{"key":"400","name":"Kanton Uri"},"canton":{"key":"4","code":"UR","name":"Uri"},"status":"Real"},{"key":"10246619","name":"Arniweg","postalCode":"6482","locality":"Gurtnellen","commune":{"key":"1209","name":"Gurtnellen","shortName":"Gurtnellen"},"district":{"key":"400","name":"Kanton Uri"},"canton":{"key":"4","code":"UR","name":"Uri"},"status":"Real"},{"key":"10068120","name":"Bahnhofplatz","postalCode":"6482","locality":"Gurtnellen","commune":{"key":"1209","name":"Gurtnellen","shortName":"Gurtnellen"},"district":{"key":"400","name":"Kanton Uri"},"canton":{"key":"4","code":"UR","name":"Uri"},"status":"Real"},{"key":"10195595","name":"Balmstrasse","postalCode":"6482","locality":"Gurtnellen","commune":{"key":"1209","name":"Gurtnellen","shortName":"Gurtnellen"},"district":{"key":"400","name":"Kanton Uri"},"canton":{"key":"4","code":"UR","name":"Uri"},"status":"Real"},{"key":"10019896","name":"Bitzgensteinen","postalCode":"6482","locality":"Gurtnellen","commune":{"key":"1209","name":"Gurtnellen","shortName":"Gurtnellen"},"district":{"key":"400","name":"Kanton Uri"},"canton":{"key":"4","code":"UR","name":"Uri"},"status":"Real"},{"key":"10195596","name":"Bitzistrasse","postalCode":"6482","locality":"Gurtnellen","commune":{"key":"1209","name":"Gurtnellen","shortName":"Gurtnellen"},"district":{"key":"400","name":"Kanton Uri"},"canton":{"key":"4","code":"UR","name":"Uri"},"status":"Real"},{"key":"10246639","name":"Bocktal","postalCode":"6482","locality":"Gurtnellen","commune":{"key":"1209","name":"Gurtnellen","shortName":"Gurtnellen"},"district":{"key":"400","name":"Kanton Uri"},"canton":{"key":"4","code":"UR","name":"Uri"},"status":"Real"},{"key":"10246644","name":"Bristenberg","postalCode":"6482","locality":"Gurtnellen","commune":{"key":"1209","name":"Gurtnellen","shortName":"Gurtnellen"},"district":{"key":"400","name":"Kanton Uri"},"canton":{"key":"4","code":"UR","name":"Uri"},"status":"Real"},{"key":"10244068","name":"Butzen","postalCode":"6482","locality":"Gurtnellen","commune":{"key":"1209","name":"Gurtnellen","shortName":"Gurtnellen"},"district":{"key":"400","name":"Kanton Uri"},"canton":{"key":"4","code":"UR","name":"Uri"},"status":"Real"},{"key":"10246648","name":"Chäsgrueben","postalCode":"6482","locality":"Gurtnellen","commune":{"key":"1209","name":"Gurtnellen","shortName":"Gurtnellen"},"district":{"key":"400","name":"Kanton Uri"},"canton":{"key":"4","code":"UR","name":"Uri"},"status":"Real"},{"key":"10246669","name":"Chlirauft","postalCode":"6482","locality":"Gurtnellen","commune":{"key":"1209","name":"Gurtnellen","shortName":"Gurtnellen"},"district":{"key":"400","name":"Kanton Uri"},"canton":{"key":"4","code":"UR","name":"Uri"},"status":"Real"},{"key":"10087545","name":"Dorfstrasse","postalCode":"6482","locality":"Gurtnellen","commune":{"key":"1209","name":"Gurtnellen","shortName":"Gurtnellen"},"district":{"key":"400","name":"Kanton Uri"},"canton":{"key":"4","code":"UR","name":"Uri"},"status":"Real"},{"key":"10246652","name":"Egg","postalCode":"6482","locality":"Gurtnellen","commune":{"key":"1209","name":"Gurtnellen","shortName":"Gurtnellen"},"district":{"key":"400","name":"Kanton Uri"},"canton":{"key":"4","code":"UR","name":"Uri"},"status":"Real"},{"key":"10246670","name":"Erlen","postalCode":"6482","locality":"Gurtnellen","commune":{"key":"1209","name":"Gurtnellen","shortName":"Gurtnellen"},"district":{"key":"400","name":"Kanton Uri"},"canton":{"key":"4","code":"UR","name":"Uri"},"status":"Real"},{"key":"10111618","name":"Fabrikstrasse","postalCode":"6482","locality":"Gurtnellen","commune":{"key":"1209","name":"Gurtnellen","shortName":"Gurtnellen"},"district":{"key":"400","name":"Kanton Uri"},"canton":{"key":"4","code":"UR","name":"Uri"},"status":"Real"},{"key":"10195610","name":"Färch","postalCode":"6482","locality":"Gurtnellen","commune":{"key":"1209","name":"Gurtnellen","shortName":"Gurtnellen"},"district":{"key":"400","name":"Kanton Uri"},"canton":{"key":"4","code":"UR","name":"Uri"},"status":"Real"},{"key":"10246635","name":"Felliberg","postalCode":"6482","locality":"Gurtnellen","commune":{"key":"1209","name":"Gurtnellen","shortName":"Gurtnellen"},"district":{"key":"400","name":"Kanton Uri"},"canton":{"key":"4","code":"UR","name":"Uri"},"status":"Real"},{"key":"10062597","name":"Frohn","postalCode":"6482","locality":"Gurtnellen","commune":{"key":"1209","name":"Gurtnellen","shortName":"Gurtnellen"},"district":{"key":"400","name":"Kanton Uri"},"canton":{"key":"4","code":"UR","name":"Uri"},"status":"Real"},{"key":"10117415","name":"Gapil","postalCode":"6482","locality":"Gurtnellen","commune":{"key":"1209","name":"Gurtnellen","shortName":"Gurtnellen"},"district":{"key":"400","name":"Kanton Uri"},"canton":{"key":"4","code":"UR","name":"Uri"},"status":"Real"},{"key":"10062598","name":"Getzigen","postalCode":"6482","locality":"Gurtnellen","commune":{"key":"1209","name":"Gurtnellen","shortName":"Gurtnellen"},"district":{"key":"400","name":"Kanton Uri"},"canton":{"key":"4","code":"UR","name":"Uri"},"status":"Real"},{"key":"10087541","name":"Gotthardstrasse","postalCode":"6482","locality":"Gurtnellen","commune":{"key":"1209","name":"Gurtnellen","shortName":"Gurtnellen"},"district":{"key":"400","name":"Kanton Uri"},"canton":{"key":"4","code":"UR","name":"Uri"},"status":"Real"},{"key":"10204885","name":"Grosshus","postalCode":"6482","locality":"Gurtnellen","commune":{"key":"1209","name":"Gurtnellen","shortName":"Gurtnellen"},"district":{"key":"400","name":"Kanton Uri"},"canton":{"key":"4","code":"UR","name":"Uri"},"status":"Real"},{"key":"10019897","name":"Grossprächtigen","postalCode":"6482","locality":"Gurtnellen","commune":{"key":"1209","name":"Gurtnellen","shortName":"Gurtnellen"},"district":{"key":"400","name":"Kanton Uri"},"canton":{"key":"4","code":"UR","name":"Uri"},"status":"Real"},{"key":"10246651","name":"Grueben","postalCode":"6482","locality":"Gurtnellen","commune":{"key":"1209","name":"Gurtnellen","shortName":"Gurtnellen"},"district":{"key":"400","name":"Kanton Uri"},"canton":{"key":"4","code":"UR","name":"Uri"},"status":"Real"},{"key":"10195611","name":"Grünenwaldstrasse","postalCode":"6482","locality":"Gurtnellen","commune":{"key":"1209","name":"Gurtnellen","shortName":"Gurtnellen"},"district":{"key":"400","name":"Kanton Uri"},"canton":{"key":"4","code":"UR","name":"Uri"},"status":"Real"},{"key":"10195612","name":"Häggrigenstrasse","postalCode":"6482","locality":"Gurtnellen","commune":{"key":"1209","name":"Gurtnellen","shortName":"Gurtnellen"},"district":{"key":"400","name":"Kanton Uri"},"canton":{"key":"4","code":"UR","name":"Uri"},"status":"Real"},{"key":"10246646","name":"Hinterwaldi","postalCode":"6482","locality":"Gurtnellen","commune":{"key":"1209","name":"Gurtnellen","shortName":"Gurtnellen"},"district":{"key":"400","name":"Kanton Uri"},"canton":{"key":"4","code":"UR","name":"Uri"},"status":"Real"},{"key":"10195601","name":"Holderistrasse","postalCode":"6482","locality":"Gurtnellen","commune":{"key":"1209","name":"Gurtnellen","shortName":"Gurtnellen"},"district":{"key":"400","name":"Kanton Uri"},"canton":{"key":"4","code":"UR","name":"Uri"},"status":"Real"},{"key":"10246638","name":"Hütten","postalCode":"6482","locality":"Gurtnellen","commune":{"key":"1209","name":"Gurtnellen","shortName":"Gurtnellen"},"district":{"key":"400","name":"Kanton Uri"},"canton":{"key":"4","code":"UR","name":"Uri"},"status":"Real"},{"key":"10019899","name":"Miseli","postalCode":"6482","locality":"Gurtnellen","commune":{"key":"1209","name":"Gurtnellen","shortName":"Gurtnellen"},"district":{"key":"400","name":"Kanton Uri"},"canton":{"key":"4","code":"UR","name":"Uri"},"status":"Real"},{"key":"10068126","name":"Muren","postalCode":"6482","locality":"Gurtnellen","commune":{"key":"1209","name":"Gurtnellen","shortName":"Gurtnellen"},"district":{"key":"400","name":"Kanton Uri"},"canton":{"key":"4","code":"UR","name":"Uri"},"status":"Real"},{"key":"10246661","name":"Oberchäseren","postalCode":"6482","locality":"Gurtnellen","commune":{"key":"1209","name":"Gurtnellen","shortName":"Gurtnellen"},"district":{"key":"400","name":"Kanton Uri"},"canton":{"key":"4","code":"UR","name":"Uri"},"status":"Real"},{"key":"10246667","name":"Ober Hegen","postalCode":"6482","locality":"Gurtnellen","commune":{"key":"1209","name":"Gurtnellen","shortName":"Gurtnellen"},"district":{"key":"400","name":"Kanton Uri"},"canton":{"key":"4","code":"UR","name":"Uri"},"status":"Real"},{"key":"10246636","name":"Obermatt","postalCode":"6482","locality":"Gurtnellen","commune":{"key":"1209","name":"Gurtnellen","shortName":"Gurtnellen"},"district":{"key":"400","name":"Kanton Uri"},"canton":{"key":"4","code":"UR","name":"Uri"},"status":"Real"},{"key":"10195614","name":"Obermattstrasse","postalCode":"6482","locality":"Gurtnellen","commune":{"key":"1209","name":"Gurtnellen","shortName":"Gurtnellen"},"district":{"key":"400","name":"Kanton Uri"},"canton":{"key":"4","code":"UR","name":"Uri"},"status":"Real"},{"key":"10246668","name":"Rauft","postalCode":"6482","locality":"Gurtnellen","commune":{"key":"1209","name":"Gurtnellen","shortName":"Gurtnellen"},"district":{"key":"400","name":"Kanton Uri"},"canton":{"key":"4","code":"UR","name":"Uri"},"status":"Real"},{"key":"10246647","name":"Rinderboden","postalCode":"6482","locality":"Gurtnellen","commune":{"key":"1209","name":"Gurtnellen","shortName":"Gurtnellen"},"district":{"key":"400","name":"Kanton Uri"},"canton":{"key":"4","code":"UR","name":"Uri"},"status":"Real"},{"key":"10019900","name":"Ritrigen","postalCode":"6482","locality":"Gurtnellen","commune":{"key":"1209","name":"Gurtnellen","shortName":"Gurtnellen"},"district":{"key":"400","name":"Kanton Uri"},"canton":{"key":"4","code":"UR","name":"Uri"},"status":"Real"},{"key":"10246649","name":"Rosti","postalCode":"6482","locality":"Gurtnellen","commune":{"key":"1209","name":"Gurtnellen","shortName":"Gurtnellen"},"district":{"key":"400","name":"Kanton Uri"},"canton":{"key":"4","code":"UR","name":"Uri"},"status":"Planned"},{"key":"10246650","name":"Ruepenstafel","postalCode":"6482","locality":"Gurtnellen","commune":{"key":"1209","name":"Gurtnellen","shortName":"Gurtnellen"},"district":{"key":"400","name":"Kanton Uri"},"canton":{"key":"4","code":"UR","name":"Uri"},"status":"Real"},{"key":"10246654","name":"Schi","postalCode":"6482","locality":"Gurtnellen","commune":{"key":"1209","name":"Gurtnellen","shortName":"Gurtnellen"},"district":{"key":"400","name":"Kanton Uri"},"canton":{"key":"4","code":"UR","name":"Uri"},"status":"Real"},{"key":"10246656","name":"Schindlachtal","postalCode":"6482","locality":"Gurtnellen","commune":{"key":"1209","name":"Gurtnellen","shortName":"Gurtnellen"},"district":{"key":"400","name":"Kanton Uri"},"canton":{"key":"4","code":"UR","name":"Uri"},"status":"Real"},{"key":"10019901","name":"Schluchen","postalCode":"6482","locality":"Gurtnellen","commune":{"key":"1209","name":"Gurtnellen","shortName":"Gurtnellen"},"district":{"key":"400","name":"Kanton Uri"},"canton":{"key":"4","code":"UR","name":"Uri"},"status":"Real"},{"key":"10246658","name":"Schönenboden","postalCode":"6482","locality":"Gurtnellen","commune":{"key":"1209","name":"Gurtnellen","shortName":"Gurtnellen"},"district":{"key":"400","name":"Kanton Uri"},"canton":{"key":"4","code":"UR","name":"Uri"},"status":"Real"},{"key":"10246663","name":"Seewlisegg","postalCode":"6482","locality":"Gurtnellen","commune":{"key":"1209","name":"Gurtnellen","shortName":"Gurtnellen"},"district":{"key":"400","name":"Kanton Uri"},"canton":{"key":"4","code":"UR","name":"Uri"},"status":"Real"},{"key":"10246657","name":"Siechrut","postalCode":"6482","locality":"Gurtnellen","commune":{"key":"1209","name":"Gurtnellen","shortName":"Gurtnellen"},"district":{"key":"400","name":"Kanton Uri"},"canton":{"key":"4","code":"UR","name":"Uri"},"status":"Real"},{"key":"10246653","name":"Spicher","postalCode":"6482","locality":"Gurtnellen","commune":{"key":"1209","name":"Gurtnellen","shortName":"Gurtnellen"},"district":{"key":"400","name":"Kanton Uri"},"canton":{"key":"4","code":"UR","name":"Uri"},"status":"Real"},{"key":"10244069","name":"Staldi","postalCode":"6482","locality":"Gurtnellen","commune":{"key":"1209","name":"Gurtnellen","shortName":"Gurtnellen"},"district":{"key":"400","name":"Kanton Uri"},"canton":{"key":"4","code":"UR","name":"Uri"},"status":"Real"},{"key":"10246655","name":"Stäubenwald","postalCode":"6482","locality":"Gurtnellen","commune":{"key":"1209","name":"Gurtnellen","shortName":"Gurtnellen"},"district":{"key":"400","name":"Kanton Uri"},"canton":{"key":"4","code":"UR","name":"Uri"},"status":"Real"},{"key":"10195615","name":"Surütti","postalCode":"6482","locality":"Gurtnellen","commune":{"key":"1209","name":"Gurtnellen","shortName":"Gurtnellen"},"district":{"key":"400","name":"Kanton Uri"},"canton":{"key":"4","code":"UR","name":"Uri"},"status":"Real"},{"key":"10246637","name":"Treschhütte","postalCode":"6482","locality":"Gurtnellen","commune":{"key":"1209","name":"Gurtnellen","shortName":"Gurtnellen"},"district":{"key":"400","name":"Kanton Uri"},"canton":{"key":"4","code":"UR","name":"Uri"},"status":"Real"},{"key":"10195626","name":"Untere Hofstatt","postalCode":"6482","locality":"Gurtnellen","commune":{"key":"1209","name":"Gurtnellen","shortName":"Gurtnellen"},"district":{"key":"400","name":"Kanton Uri"},"canton":{"key":"4","code":"UR","name":"Uri"},"status":"Real"},{"key":"10246645","name":"Vorderwaldi","postalCode":"6482","locality":"Gurtnellen","commune":{"key":"1209","name":"Gurtnellen","shortName":"Gurtnellen"},"district":{"key":"400","name":"Kanton Uri"},"canton":{"key":"4","code":"UR","name":"Uri"},"status":"Real"},{"key":"10246640","name":"Vorder Waldichälen","postalCode":"6482","locality":"Gurtnellen","commune":{"key":"1209","name":"Gurtnellen","shortName":"Gurtnellen"},"district":{"key":"400","name":"Kanton Uri"},"canton":{"key":"4","code":"UR","name":"Uri"},"status":"Real"},{"key":"10019893","name":"Vreniberg","postalCode":"6482","locality":"Gurtnellen","commune":{"key":"1209","name":"Gurtnellen","shortName":"Gurtnellen"},"district":{"key":"400","name":"Kanton Uri"},"canton":{"key":"4","code":"UR","name":"Uri"},"status":"Real"},{"key":"10195619","name":"Waldistrasse","postalCode":"6482","locality":"Gurtnellen","commune":{"key":"1209","name":"Gurtnellen","shortName":"Gurtnellen"},"district":{"key":"400","name":"Kanton Uri"},"canton":{"key":"4","code":"UR","name":"Uri"},"status":"Real"},{"key":"10202958","name":"Weidli","postalCode":"6482","locality":"Gurtnellen","commune":{"key":"1209","name":"Gurtnellen","shortName":"Gurtnellen"},"district":{"key":"400","name":"Kanton Uri"},"canton":{"key":"4","code":"UR","name":"Uri"},"status":"Real"},{"key":"10246662","name":"Wichel","postalCode":"6482","locality":"Gurtnellen","commune":{"key":"1209","name":"Gurtnellen","shortName":"Gurtnellen"},"district":{"key":"400","name":"Kanton Uri"},"canton":{"key":"4","code":"UR","name":"Uri"},"status":"Real"},{"key":"10246659","name":"Wildampferen","postalCode":"6482","locality":"Gurtnellen","commune":{"key":"1209","name":"Gurtnellen","shortName":"Gurtnellen"},"district":{"key":"400","name":"Kanton Uri"},"canton":{"key":"4","code":"UR","name":"Uri"},"status":"Real"},{"key":"10246660","name":"Wolfbiel","postalCode":"6482","locality":"Gurtnellen","commune":{"key":"1209","name":"Gurtnellen","shortName":"Gurtnellen"},"district":{"key":"400","name":"Kanton Uri"},"canton":{"key":"4","code":"UR","name":"Uri"},"status":"Real"},]