[{"name":"Achtern Barg","postalCode":"22885","locality":"Barsbüttel","municipality":{"key":"01062009","name":"Barsbüttel","type":"Kreisangehörige_Gemeinde"},"district":{"key":"01062","name":"Stormarn","type":"Kreis"},"federalState":{"key":"01","name":"Schleswig-Holstein"}},{"name":"Achtern Diek","postalCode":"22885","locality":"Barsbüttel","municipality":{"key":"01062009","name":"Barsbüttel","type":"Kreisangehörige_Gemeinde"},"district":{"key":"01062","name":"Stormarn","type":"Kreis"},"federalState":{"key":"01","name":"Schleswig-Holstein"}},{"name":"Ahornweg","postalCode":"22885","locality":"Barsbüttel","municipality":{"key":"01062009","name":"Barsbüttel","type":"Kreisangehörige_Gemeinde"},"district":{"key":"01062","name":"Stormarn","type":"Kreis"},"federalState":{"key":"01","name":"Schleswig-Holstein"}},{"name":"Ahrenstwiete","postalCode":"22885","locality":"Barsbüttel","municipality":{"key":"01062009","name":"Barsbüttel","type":"Kreisangehörige_Gemeinde"},"district":{"key":"01062","name":"Stormarn","type":"Kreis"},"federalState":{"key":"01","name":"Schleswig-Holstein"}},{"name":"Alte Dorfstr.","postalCode":"22885","locality":"Barsbüttel","municipality":{"key":"01062009","name":"Barsbüttel","type":"Kreisangehörige_Gemeinde"},"district":{"key":"01062","name":"Stormarn","type":"Kreis"},"federalState":{"key":"01","name":"Schleswig-Holstein"}},{"name":"Alte Landstr.","postalCode":"22885","locality":"Barsbüttel","municipality":{"key":"01062009","name":"Barsbüttel","type":"Kreisangehörige_Gemeinde"},"district":{"key":"01062","name":"Stormarn","type":"Kreis"},"federalState":{"key":"01","name":"Schleswig-Holstein"}},{"name":"Am AKKU","postalCode":"22885","locality":"Barsbüttel","municipality":{"key":"01062009","name":"Barsbüttel","type":"Kreisangehörige_Gemeinde"},"district":{"key":"01062","name":"Stormarn","type":"Kreis"},"federalState":{"key":"01","name":"Schleswig-Holstein"}},{"name":"Am Bondenholz","postalCode":"22885","locality":"Barsbüttel","municipality":{"key":"01062009","name":"Barsbüttel","type":"Kreisangehörige_Gemeinde"},"district":{"key":"01062","name":"Stormarn","type":"Kreis"},"federalState":{"key":"01","name":"Schleswig-Holstein"}},{"name":"Am Dorfplatz","postalCode":"22885","locality":"Barsbüttel","municipality":{"key":"01062009","name":"Barsbüttel","type":"Kreisangehörige_Gemeinde"},"district":{"key":"01062","name":"Stormarn","type":"Kreis"},"federalState":{"key":"01","name":"Schleswig-Holstein"}},{"name":"Am Eichenhain","postalCode":"22885","locality":"Barsbüttel","municipality":{"key":"01062009","name":"Barsbüttel","type":"Kreisangehörige_Gemeinde"},"district":{"key":"01062","name":"Stormarn","type":"Kreis"},"federalState":{"key":"01","name":"Schleswig-Holstein"}},{"name":"Am Friedhof","postalCode":"22885","locality":"Barsbüttel","municipality":{"key":"01062009","name":"Barsbüttel","type":"Kreisangehörige_Gemeinde"},"district":{"key":"01062","name":"Stormarn","type":"Kreis"},"federalState":{"key":"01","name":"Schleswig-Holstein"}},{"name":"Am Glinder Weg","postalCode":"22885","locality":"Barsbüttel","municipality":{"key":"01062009","name":"Barsbüttel","type":"Kreisangehörige_Gemeinde"},"district":{"key":"01062","name":"Stormarn","type":"Kreis"},"federalState":{"key":"01","name":"Schleswig-Holstein"}},{"name":"Am Hainholz","postalCode":"22885","locality":"Barsbüttel","municipality":{"key":"01062009","name":"Barsbüttel","type":"Kreisangehörige_Gemeinde"},"district":{"key":"01062","name":"Stormarn","type":"Kreis"},"federalState":{"key":"01","name":"Schleswig-Holstein"}},{"name":"Am Hartsteinwerk","postalCode":"22885","locality":"Barsbüttel","municipality":{"key":"01062009","name":"Barsbüttel","type":"Kreisangehörige_Gemeinde"},"district":{"key":"01062","name":"Stormarn","type":"Kreis"},"federalState":{"key":"01","name":"Schleswig-Holstein"}},{"name":"Am Heidberg","postalCode":"22885","locality":"Barsbüttel","municipality":{"key":"01062009","name":"Barsbüttel","type":"Kreisangehörige_Gemeinde"},"district":{"key":"01062","name":"Stormarn","type":"Kreis"},"federalState":{"key":"01","name":"Schleswig-Holstein"}},{"name":"Amselweg","postalCode":"22885","locality":"Barsbüttel","municipality":{"key":"01062009","name":"Barsbüttel","type":"Kreisangehörige_Gemeinde"},"district":{"key":"01062","name":"Stormarn","type":"Kreis"},"federalState":{"key":"01","name":"Schleswig-Holstein"}},{"name":"Am Sportplatz","postalCode":"22885","locality":"Barsbüttel","municipality":{"key":"01062009","name":"Barsbüttel","type":"Kreisangehörige_Gemeinde"},"district":{"key":"01062","name":"Stormarn","type":"Kreis"},"federalState":{"key":"01","name":"Schleswig-Holstein"}},{"name":"Am Spritzenhaus","postalCode":"22885","locality":"Barsbüttel","municipality":{"key":"01062009","name":"Barsbüttel","type":"Kreisangehörige_Gemeinde"},"district":{"key":"01062","name":"Stormarn","type":"Kreis"},"federalState":{"key":"01","name":"Schleswig-Holstein"}},{"name":"Am Walde","postalCode":"22885","locality":"Barsbüttel","municipality":{"key":"01062009","name":"Barsbüttel","type":"Kreisangehörige_Gemeinde"},"district":{"key":"01062","name":"Stormarn","type":"Kreis"},"federalState":{"key":"01","name":"Schleswig-Holstein"}},{"name":"An den Brüchkoppeln","postalCode":"22885","locality":"Barsbüttel","municipality":{"key":"01062009","name":"Barsbüttel","type":"Kreisangehörige_Gemeinde"},"district":{"key":"01062","name":"Stormarn","type":"Kreis"},"federalState":{"key":"01","name":"Schleswig-Holstein"}},{"name":"An der Alten Schule","postalCode":"22885","locality":"Barsbüttel","municipality":{"key":"01062009","name":"Barsbüttel","type":"Kreisangehörige_Gemeinde"},"district":{"key":"01062","name":"Stormarn","type":"Kreis"},"federalState":{"key":"01","name":"Schleswig-Holstein"}},{"name":"An der Barsbek","postalCode":"22885","locality":"Barsbüttel","municipality":{"key":"01062009","name":"Barsbüttel","type":"Kreisangehörige_Gemeinde"},"district":{"key":"01062","name":"Stormarn","type":"Kreis"},"federalState":{"key":"01","name":"Schleswig-Holstein"}},{"name":"Bachstr.","postalCode":"22885","locality":"Barsbüttel","municipality":{"key":"01062009","name":"Barsbüttel","type":"Kreisangehörige_Gemeinde"},"district":{"key":"01062","name":"Stormarn","type":"Kreis"},"federalState":{"key":"01","name":"Schleswig-Holstein"}},{"name":"Bahnhofstr.","postalCode":"22885","locality":"Barsbüttel","municipality":{"key":"01062009","name":"Barsbüttel","type":"Kreisangehörige_Gemeinde"},"district":{"key":"01062","name":"Stormarn","type":"Kreis"},"federalState":{"key":"01","name":"Schleswig-Holstein"}},{"name":"Barsbütteler Hof","postalCode":"22885","locality":"Barsbüttel","municipality":{"key":"01062009","name":"Barsbüttel","type":"Kreisangehörige_Gemeinde"},"district":{"key":"01062","name":"Stormarn","type":"Kreis"},"federalState":{"key":"01","name":"Schleswig-Holstein"}},{"name":"Barsbütteler Landstr.","postalCode":"22885","locality":"Barsbüttel","municipality":{"key":"01062009","name":"Barsbüttel","type":"Kreisangehörige_Gemeinde"},"district":{"key":"01062","name":"Stormarn","type":"Kreis"},"federalState":{"key":"01","name":"Schleswig-Holstein"}},{"name":"Bei den Tannen","postalCode":"22885","locality":"Barsbüttel","municipality":{"key":"01062009","name":"Barsbüttel","type":"Kreisangehörige_Gemeinde"},"district":{"key":"01062","name":"Stormarn","type":"Kreis"},"federalState":{"key":"01","name":"Schleswig-Holstein"}},{"name":"Bergredder","postalCode":"22885","locality":"Barsbüttel","municipality":{"key":"01062009","name":"Barsbüttel","type":"Kreisangehörige_Gemeinde"},"district":{"key":"01062","name":"Stormarn","type":"Kreis"},"federalState":{"key":"01","name":"Schleswig-Holstein"}},{"name":"Bergweg","postalCode":"22885","locality":"Barsbüttel","municipality":{"key":"01062009","name":"Barsbüttel","type":"Kreisangehörige_Gemeinde"},"district":{"key":"01062","name":"Stormarn","type":"Kreis"},"federalState":{"key":"01","name":"Schleswig-Holstein"}},{"name":"Berliner Brücke","postalCode":"22885","locality":"Barsbüttel","municipality":{"key":"01062009","name":"Barsbüttel","type":"Kreisangehörige_Gemeinde"},"district":{"key":"01062","name":"Stormarn","type":"Kreis"},"federalState":{"key":"01","name":"Schleswig-Holstein"}},{"name":"Birkenweg","postalCode":"22885","locality":"Barsbüttel","municipality":{"key":"01062009","name":"Barsbüttel","type":"Kreisangehörige_Gemeinde"},"district":{"key":"01062","name":"Stormarn","type":"Kreis"},"federalState":{"key":"01","name":"Schleswig-Holstein"}},{"name":"Blangwiesen","postalCode":"22885","locality":"Barsbüttel","municipality":{"key":"01062009","name":"Barsbüttel","type":"Kreisangehörige_Gemeinde"},"district":{"key":"01062","name":"Stormarn","type":"Kreis"},"federalState":{"key":"01","name":"Schleswig-Holstein"}},{"name":"Blöcken","postalCode":"22885","locality":"Barsbüttel","municipality":{"key":"01062009","name":"Barsbüttel","type":"Kreisangehörige_Gemeinde"},"district":{"key":"01062","name":"Stormarn","type":"Kreis"},"federalState":{"key":"01","name":"Schleswig-Holstein"}},{"name":"Blumenstr.","postalCode":"22885","locality":"Barsbüttel","municipality":{"key":"01062009","name":"Barsbüttel","type":"Kreisangehörige_Gemeinde"},"district":{"key":"01062","name":"Stormarn","type":"Kreis"},"federalState":{"key":"01","name":"Schleswig-Holstein"}},{"name":"Brombeerkamp","postalCode":"22885","locality":"Barsbüttel","municipality":{"key":"01062009","name":"Barsbüttel","type":"Kreisangehörige_Gemeinde"},"district":{"key":"01062","name":"Stormarn","type":"Kreis"},"federalState":{"key":"01","name":"Schleswig-Holstein"}},{"name":"Buchenstr.","postalCode":"22885","locality":"Barsbüttel","municipality":{"key":"01062009","name":"Barsbüttel","type":"Kreisangehörige_Gemeinde"},"district":{"key":"01062","name":"Stormarn","type":"Kreis"},"federalState":{"key":"01","name":"Schleswig-Holstein"}},{"name":"Callingtonstr.","postalCode":"22885","locality":"Barsbüttel","municipality":{"key":"01062009","name":"Barsbüttel","type":"Kreisangehörige_Gemeinde"},"district":{"key":"01062","name":"Stormarn","type":"Kreis"},"federalState":{"key":"01","name":"Schleswig-Holstein"}},{"name":"Danziger Weg","postalCode":"22885","locality":"Barsbüttel","municipality":{"key":"01062009","name":"Barsbüttel","type":"Kreisangehörige_Gemeinde"},"district":{"key":"01062","name":"Stormarn","type":"Kreis"},"federalState":{"key":"01","name":"Schleswig-Holstein"}},{"name":"Diestelstieg","postalCode":"22885","locality":"Barsbüttel","municipality":{"key":"01062009","name":"Barsbüttel","type":"Kreisangehörige_Gemeinde"},"district":{"key":"01062","name":"Stormarn","type":"Kreis"},"federalState":{"key":"01","name":"Schleswig-Holstein"}},{"name":"Dorfring","postalCode":"22885","locality":"Barsbüttel","municipality":{"key":"01062009","name":"Barsbüttel","type":"Kreisangehörige_Gemeinde"},"district":{"key":"01062","name":"Stormarn","type":"Kreis"},"federalState":{"key":"01","name":"Schleswig-Holstein"}},{"name":"Dorfstr.","postalCode":"22885","locality":"Barsbüttel","municipality":{"key":"01062009","name":"Barsbüttel","type":"Kreisangehörige_Gemeinde"},"district":{"key":"01062","name":"Stormarn","type":"Kreis"},"federalState":{"key":"01","name":"Schleswig-Holstein"}},{"name":"Dornenweg","postalCode":"22885","locality":"Barsbüttel","municipality":{"key":"01062009","name":"Barsbüttel","type":"Kreisangehörige_Gemeinde"},"district":{"key":"01062","name":"Stormarn","type":"Kreis"},"federalState":{"key":"01","name":"Schleswig-Holstein"}},{"name":"Drift","postalCode":"22885","locality":"Barsbüttel","municipality":{"key":"01062009","name":"Barsbüttel","type":"Kreisangehörige_Gemeinde"},"district":{"key":"01062","name":"Stormarn","type":"Kreis"},"federalState":{"key":"01","name":"Schleswig-Holstein"}},{"name":"Ellerhoop","postalCode":"22885","locality":"Barsbüttel","municipality":{"key":"01062009","name":"Barsbüttel","type":"Kreisangehörige_Gemeinde"},"district":{"key":"01062","name":"Stormarn","type":"Kreis"},"federalState":{"key":"01","name":"Schleswig-Holstein"}},{"name":"Eulenring","postalCode":"22885","locality":"Barsbüttel","municipality":{"key":"01062009","name":"Barsbüttel","type":"Kreisangehörige_Gemeinde"},"district":{"key":"01062","name":"Stormarn","type":"Kreis"},"federalState":{"key":"01","name":"Schleswig-Holstein"}},{"name":"Falkenstr.","postalCode":"22885","locality":"Barsbüttel","municipality":{"key":"01062009","name":"Barsbüttel","type":"Kreisangehörige_Gemeinde"},"district":{"key":"01062","name":"Stormarn","type":"Kreis"},"federalState":{"key":"01","name":"Schleswig-Holstein"}},{"name":"Fasanenweg","postalCode":"22885","locality":"Barsbüttel","municipality":{"key":"01062009","name":"Barsbüttel","type":"Kreisangehörige_Gemeinde"},"district":{"key":"01062","name":"Stormarn","type":"Kreis"},"federalState":{"key":"01","name":"Schleswig-Holstein"}},{"name":"Feldweg","postalCode":"22885","locality":"Barsbüttel","municipality":{"key":"01062009","name":"Barsbüttel","type":"Kreisangehörige_Gemeinde"},"district":{"key":"01062","name":"Stormarn","type":"Kreis"},"federalState":{"key":"01","name":"Schleswig-Holstein"}},{"name":"Finkenweg","postalCode":"22885","locality":"Barsbüttel","municipality":{"key":"01062009","name":"Barsbüttel","type":"Kreisangehörige_Gemeinde"},"district":{"key":"01062","name":"Stormarn","type":"Kreis"},"federalState":{"key":"01","name":"Schleswig-Holstein"}},{"name":"Flessenrade","postalCode":"22885","locality":"Barsbüttel","municipality":{"key":"01062009","name":"Barsbüttel","type":"Kreisangehörige_Gemeinde"},"district":{"key":"01062","name":"Stormarn","type":"Kreis"},"federalState":{"key":"01","name":"Schleswig-Holstein"}},{"name":"Fliederweg","postalCode":"22885","locality":"Barsbüttel","municipality":{"key":"01062009","name":"Barsbüttel","type":"Kreisangehörige_Gemeinde"},"district":{"key":"01062","name":"Stormarn","type":"Kreis"},"federalState":{"key":"01","name":"Schleswig-Holstein"}},{"name":"Gartenstr.","postalCode":"22885","locality":"Barsbüttel","municipality":{"key":"01062009","name":"Barsbüttel","type":"Kreisangehörige_Gemeinde"},"district":{"key":"01062","name":"Stormarn","type":"Kreis"},"federalState":{"key":"01","name":"Schleswig-Holstein"}},{"name":"Gerhard-Wurst-Weg","postalCode":"22885","locality":"Barsbüttel","municipality":{"key":"01062009","name":"Barsbüttel","type":"Kreisangehörige_Gemeinde"},"district":{"key":"01062","name":"Stormarn","type":"Kreis"},"federalState":{"key":"01","name":"Schleswig-Holstein"}},{"name":"Glinder Weg","postalCode":"22885","locality":"Barsbüttel","municipality":{"key":"01062009","name":"Barsbüttel","type":"Kreisangehörige_Gemeinde"},"district":{"key":"01062","name":"Stormarn","type":"Kreis"},"federalState":{"key":"01","name":"Schleswig-Holstein"}},{"name":"Graal-Müritzer-Str.","postalCode":"22885","locality":"Barsbüttel","municipality":{"key":"01062009","name":"Barsbüttel","type":"Kreisangehörige_Gemeinde"},"district":{"key":"01062","name":"Stormarn","type":"Kreis"},"federalState":{"key":"01","name":"Schleswig-Holstein"}},{"name":"Grasweg","postalCode":"22885","locality":"Barsbüttel","municipality":{"key":"01062009","name":"Barsbüttel","type":"Kreisangehörige_Gemeinde"},"district":{"key":"01062","name":"Stormarn","type":"Kreis"},"federalState":{"key":"01","name":"Schleswig-Holstein"}},{"name":"Graumannsstieg","postalCode":"22885","locality":"Barsbüttel","municipality":{"key":"01062009","name":"Barsbüttel","type":"Kreisangehörige_Gemeinde"},"district":{"key":"01062","name":"Stormarn","type":"Kreis"},"federalState":{"key":"01","name":"Schleswig-Holstein"}},{"name":"Guipavasring","postalCode":"22885","locality":"Barsbüttel","municipality":{"key":"01062009","name":"Barsbüttel","type":"Kreisangehörige_Gemeinde"},"district":{"key":"01062","name":"Stormarn","type":"Kreis"},"federalState":{"key":"01","name":"Schleswig-Holstein"}},{"name":"Hagebuttenweg","postalCode":"22885","locality":"Barsbüttel","municipality":{"key":"01062009","name":"Barsbüttel","type":"Kreisangehörige_Gemeinde"},"district":{"key":"01062","name":"Stormarn","type":"Kreis"},"federalState":{"key":"01","name":"Schleswig-Holstein"}},{"name":"Haidestücken","postalCode":"22885","locality":"Barsbüttel","municipality":{"key":"01062009","name":"Barsbüttel","type":"Kreisangehörige_Gemeinde"},"district":{"key":"01062","name":"Stormarn","type":"Kreis"},"federalState":{"key":"01","name":"Schleswig-Holstein"}},{"name":"Haidkrugsweg","postalCode":"22885","locality":"Barsbüttel","municipality":{"key":"01062009","name":"Barsbüttel","type":"Kreisangehörige_Gemeinde"},"district":{"key":"01062","name":"Stormarn","type":"Kreis"},"federalState":{"key":"01","name":"Schleswig-Holstein"}},{"name":"Hauptstr.","postalCode":"22885","locality":"Barsbüttel","municipality":{"key":"01062009","name":"Barsbüttel","type":"Kreisangehörige_Gemeinde"},"district":{"key":"01062","name":"Stormarn","type":"Kreis"},"federalState":{"key":"01","name":"Schleswig-Holstein"}},{"name":"Hegenweg","postalCode":"22885","locality":"Barsbüttel","municipality":{"key":"01062009","name":"Barsbüttel","type":"Kreisangehörige_Gemeinde"},"district":{"key":"01062","name":"Stormarn","type":"Kreis"},"federalState":{"key":"01","name":"Schleswig-Holstein"}},{"name":"Heidkamp","postalCode":"22885","locality":"Barsbüttel","municipality":{"key":"01062009","name":"Barsbüttel","type":"Kreisangehörige_Gemeinde"},"district":{"key":"01062","name":"Stormarn","type":"Kreis"},"federalState":{"key":"01","name":"Schleswig-Holstein"}},{"name":"Heidkrugsweg","postalCode":"22885","locality":"Barsbüttel","municipality":{"key":"01062009","name":"Barsbüttel","type":"Kreisangehörige_Gemeinde"},"district":{"key":"01062","name":"Stormarn","type":"Kreis"},"federalState":{"key":"01","name":"Schleswig-Holstein"}},{"name":"Hinter den Höfen","postalCode":"22885","locality":"Barsbüttel","municipality":{"key":"01062009","name":"Barsbüttel","type":"Kreisangehörige_Gemeinde"},"district":{"key":"01062","name":"Stormarn","type":"Kreis"},"federalState":{"key":"01","name":"Schleswig-Holstein"}},{"name":"Hinterm Garten","postalCode":"22885","locality":"Barsbüttel","municipality":{"key":"01062009","name":"Barsbüttel","type":"Kreisangehörige_Gemeinde"},"district":{"key":"01062","name":"Stormarn","type":"Kreis"},"federalState":{"key":"01","name":"Schleswig-Holstein"}},{"name":"Holunderstieg","postalCode":"22885","locality":"Barsbüttel","municipality":{"key":"01062009","name":"Barsbüttel","type":"Kreisangehörige_Gemeinde"},"district":{"key":"01062","name":"Stormarn","type":"Kreis"},"federalState":{"key":"01","name":"Schleswig-Holstein"}},{"name":"Huuskoppel","postalCode":"22885","locality":"Barsbüttel","municipality":{"key":"01062009","name":"Barsbüttel","type":"Kreisangehörige_Gemeinde"},"district":{"key":"01062","name":"Stormarn","type":"Kreis"},"federalState":{"key":"01","name":"Schleswig-Holstein"}},{"name":"Industriestr.","postalCode":"22885","locality":"Barsbüttel","municipality":{"key":"01062009","name":"Barsbüttel","type":"Kreisangehörige_Gemeinde"},"district":{"key":"01062","name":"Stormarn","type":"Kreis"},"federalState":{"key":"01","name":"Schleswig-Holstein"}},{"name":"Kahlenredder","postalCode":"22885","locality":"Barsbüttel","municipality":{"key":"01062009","name":"Barsbüttel","type":"Kreisangehörige_Gemeinde"},"district":{"key":"01062","name":"Stormarn","type":"Kreis"},"federalState":{"key":"01","name":"Schleswig-Holstein"}},{"name":"Kastanienweg","postalCode":"22885","locality":"Barsbüttel","municipality":{"key":"01062009","name":"Barsbüttel","type":"Kreisangehörige_Gemeinde"},"district":{"key":"01062","name":"Stormarn","type":"Kreis"},"federalState":{"key":"01","name":"Schleswig-Holstein"}},{"name":"Katzenberg","postalCode":"22885","locality":"Barsbüttel","municipality":{"key":"01062009","name":"Barsbüttel","type":"Kreisangehörige_Gemeinde"},"district":{"key":"01062","name":"Stormarn","type":"Kreis"},"federalState":{"key":"01","name":"Schleswig-Holstein"}},{"name":"Keilaer Str.","postalCode":"22885","locality":"Barsbüttel","municipality":{"key":"01062009","name":"Barsbüttel","type":"Kreisangehörige_Gemeinde"},"district":{"key":"01062","name":"Stormarn","type":"Kreis"},"federalState":{"key":"01","name":"Schleswig-Holstein"}},{"name":"Kellerberg","postalCode":"22885","locality":"Barsbüttel","municipality":{"key":"01062009","name":"Barsbüttel","type":"Kreisangehörige_Gemeinde"},"district":{"key":"01062","name":"Stormarn","type":"Kreis"},"federalState":{"key":"01","name":"Schleswig-Holstein"}},{"name":"Kiebitzhörn","postalCode":"22885","locality":"Barsbüttel","municipality":{"key":"01062009","name":"Barsbüttel","type":"Kreisangehörige_Gemeinde"},"district":{"key":"01062","name":"Stormarn","type":"Kreis"},"federalState":{"key":"01","name":"Schleswig-Holstein"}},{"name":"Kirchenweg","postalCode":"22885","locality":"Barsbüttel","municipality":{"key":"01062009","name":"Barsbüttel","type":"Kreisangehörige_Gemeinde"},"district":{"key":"01062","name":"Stormarn","type":"Kreis"},"federalState":{"key":"01","name":"Schleswig-Holstein"}},{"name":"Kleeweg","postalCode":"22885","locality":"Barsbüttel","municipality":{"key":"01062009","name":"Barsbüttel","type":"Kreisangehörige_Gemeinde"},"district":{"key":"01062","name":"Stormarn","type":"Kreis"},"federalState":{"key":"01","name":"Schleswig-Holstein"}},{"name":"Kleiner Wischhoff","postalCode":"22885","locality":"Barsbüttel","municipality":{"key":"01062009","name":"Barsbüttel","type":"Kreisangehörige_Gemeinde"},"district":{"key":"01062","name":"Stormarn","type":"Kreis"},"federalState":{"key":"01","name":"Schleswig-Holstein"}},{"name":"Königsberger Weg","postalCode":"22885","locality":"Barsbüttel","municipality":{"key":"01062009","name":"Barsbüttel","type":"Kreisangehörige_Gemeinde"},"district":{"key":"01062","name":"Stormarn","type":"Kreis"},"federalState":{"key":"01","name":"Schleswig-Holstein"}},{"name":"Kornblumenring","postalCode":"22885","locality":"Barsbüttel","municipality":{"key":"01062009","name":"Barsbüttel","type":"Kreisangehörige_Gemeinde"},"district":{"key":"01062","name":"Stormarn","type":"Kreis"},"federalState":{"key":"01","name":"Schleswig-Holstein"}},{"name":"Kronshorster Weg","postalCode":"22885","locality":"Barsbüttel","municipality":{"key":"01062009","name":"Barsbüttel","type":"Kreisangehörige_Gemeinde"},"district":{"key":"01062","name":"Stormarn","type":"Kreis"},"federalState":{"key":"01","name":"Schleswig-Holstein"}},{"name":"Lerchenweg","postalCode":"22885","locality":"Barsbüttel","municipality":{"key":"01062009","name":"Barsbüttel","type":"Kreisangehörige_Gemeinde"},"district":{"key":"01062","name":"Stormarn","type":"Kreis"},"federalState":{"key":"01","name":"Schleswig-Holstein"}},{"name":"Lohe","postalCode":"22885","locality":"Barsbüttel","municipality":{"key":"01062009","name":"Barsbüttel","type":"Kreisangehörige_Gemeinde"},"district":{"key":"01062","name":"Stormarn","type":"Kreis"},"federalState":{"key":"01","name":"Schleswig-Holstein"}},{"name":"Lüttkoppel","postalCode":"22885","locality":"Barsbüttel","municipality":{"key":"01062009","name":"Barsbüttel","type":"Kreisangehörige_Gemeinde"},"district":{"key":"01062","name":"Stormarn","type":"Kreis"},"federalState":{"key":"01","name":"Schleswig-Holstein"}},{"name":"Meisenweg","postalCode":"22885","locality":"Barsbüttel","municipality":{"key":"01062009","name":"Barsbüttel","type":"Kreisangehörige_Gemeinde"},"district":{"key":"01062","name":"Stormarn","type":"Kreis"},"federalState":{"key":"01","name":"Schleswig-Holstein"}},{"name":"Mittelweg","postalCode":"22885","locality":"Barsbüttel","municipality":{"key":"01062009","name":"Barsbüttel","type":"Kreisangehörige_Gemeinde"},"district":{"key":"01062","name":"Stormarn","type":"Kreis"},"federalState":{"key":"01","name":"Schleswig-Holstein"}},{"name":"Möhlenredder","postalCode":"22885","locality":"Barsbüttel","municipality":{"key":"01062009","name":"Barsbüttel","type":"Kreisangehörige_Gemeinde"},"district":{"key":"01062","name":"Stormarn","type":"Kreis"},"federalState":{"key":"01","name":"Schleswig-Holstein"}},{"name":"Moorkoppel","postalCode":"22885","locality":"Barsbüttel","municipality":{"key":"01062009","name":"Barsbüttel","type":"Kreisangehörige_Gemeinde"},"district":{"key":"01062","name":"Stormarn","type":"Kreis"},"federalState":{"key":"01","name":"Schleswig-Holstein"}},{"name":"Mühlenkamp","postalCode":"22885","locality":"Barsbüttel","municipality":{"key":"01062009","name":"Barsbüttel","type":"Kreisangehörige_Gemeinde"},"district":{"key":"01062","name":"Stormarn","type":"Kreis"},"federalState":{"key":"01","name":"Schleswig-Holstein"}},{"name":"Pokkenräthen","postalCode":"22885","locality":"Barsbüttel","municipality":{"key":"01062009","name":"Barsbüttel","type":"Kreisangehörige_Gemeinde"},"district":{"key":"01062","name":"Stormarn","type":"Kreis"},"federalState":{"key":"01","name":"Schleswig-Holstein"}},{"name":"Querredder","postalCode":"22885","locality":"Barsbüttel","municipality":{"key":"01062009","name":"Barsbüttel","type":"Kreisangehörige_Gemeinde"},"district":{"key":"01062","name":"Stormarn","type":"Kreis"},"federalState":{"key":"01","name":"Schleswig-Holstein"}},{"name":"Querweg","postalCode":"22885","locality":"Barsbüttel","municipality":{"key":"01062009","name":"Barsbüttel","type":"Kreisangehörige_Gemeinde"},"district":{"key":"01062","name":"Stormarn","type":"Kreis"},"federalState":{"key":"01","name":"Schleswig-Holstein"}},{"name":"Rahlstedter Heideweg","postalCode":"22885","locality":"Barsbüttel","municipality":{"key":"01062009","name":"Barsbüttel","type":"Kreisangehörige_Gemeinde"},"district":{"key":"01062","name":"Stormarn","type":"Kreis"},"federalState":{"key":"01","name":"Schleswig-Holstein"}},{"name":"Rahlstedter Str.","postalCode":"22885","locality":"Barsbüttel","municipality":{"key":"01062009","name":"Barsbüttel","type":"Kreisangehörige_Gemeinde"},"district":{"key":"01062","name":"Stormarn","type":"Kreis"},"federalState":{"key":"01","name":"Schleswig-Holstein"}},{"name":"Rähnwischredder","postalCode":"22885","locality":"Barsbüttel","municipality":{"key":"01062009","name":"Barsbüttel","type":"Kreisangehörige_Gemeinde"},"district":{"key":"01062","name":"Stormarn","type":"Kreis"},"federalState":{"key":"01","name":"Schleswig-Holstein"}},{"name":"Redderbusch","postalCode":"22885","locality":"Barsbüttel","municipality":{"key":"01062009","name":"Barsbüttel","type":"Kreisangehörige_Gemeinde"},"district":{"key":"01062","name":"Stormarn","type":"Kreis"},"federalState":{"key":"01","name":"Schleswig-Holstein"}},{"name":"Reinbeker Str.","postalCode":"22885","locality":"Barsbüttel","municipality":{"key":"01062009","name":"Barsbüttel","type":"Kreisangehörige_Gemeinde"},"district":{"key":"01062","name":"Stormarn","type":"Kreis"},"federalState":{"key":"01","name":"Schleswig-Holstein"}},{"name":"Römsmoorweg","postalCode":"22885","locality":"Barsbüttel","municipality":{"key":"01062009","name":"Barsbüttel","type":"Kreisangehörige_Gemeinde"},"district":{"key":"01062","name":"Stormarn","type":"Kreis"},"federalState":{"key":"01","name":"Schleswig-Holstein"}},{"name":"Rosenweg","postalCode":"22885","locality":"Barsbüttel","municipality":{"key":"01062009","name":"Barsbüttel","type":"Kreisangehörige_Gemeinde"},"district":{"key":"01062","name":"Stormarn","type":"Kreis"},"federalState":{"key":"01","name":"Schleswig-Holstein"}},{"name":"Rüterberg","postalCode":"22885","locality":"Barsbüttel","municipality":{"key":"01062009","name":"Barsbüttel","type":"Kreisangehörige_Gemeinde"},"district":{"key":"01062","name":"Stormarn","type":"Kreis"},"federalState":{"key":"01","name":"Schleswig-Holstein"}},{"name":"Schlehenstieg","postalCode":"22885","locality":"Barsbüttel","municipality":{"key":"01062009","name":"Barsbüttel","type":"Kreisangehörige_Gemeinde"},"district":{"key":"01062","name":"Stormarn","type":"Kreis"},"federalState":{"key":"01","name":"Schleswig-Holstein"}},{"name":"Schulstr.","postalCode":"22885","locality":"Barsbüttel","municipality":{"key":"01062009","name":"Barsbüttel","type":"Kreisangehörige_Gemeinde"},"district":{"key":"01062","name":"Stormarn","type":"Kreis"},"federalState":{"key":"01","name":"Schleswig-Holstein"}},{"name":"Schwalbenring","postalCode":"22885","locality":"Barsbüttel","municipality":{"key":"01062009","name":"Barsbüttel","type":"Kreisangehörige_Gemeinde"},"district":{"key":"01062","name":"Stormarn","type":"Kreis"},"federalState":{"key":"01","name":"Schleswig-Holstein"}},{"name":"Solkowskyweg","postalCode":"22885","locality":"Barsbüttel","municipality":{"key":"01062009","name":"Barsbüttel","type":"Kreisangehörige_Gemeinde"},"district":{"key":"01062","name":"Stormarn","type":"Kreis"},"federalState":{"key":"01","name":"Schleswig-Holstein"}},{"name":"Soltausredder","postalCode":"22885","locality":"Barsbüttel","municipality":{"key":"01062009","name":"Barsbüttel","type":"Kreisangehörige_Gemeinde"},"district":{"key":"01062","name":"Stormarn","type":"Kreis"},"federalState":{"key":"01","name":"Schleswig-Holstein"}},{"name":"Speckenkamp","postalCode":"22885","locality":"Barsbüttel","municipality":{"key":"01062009","name":"Barsbüttel","type":"Kreisangehörige_Gemeinde"},"district":{"key":"01062","name":"Stormarn","type":"Kreis"},"federalState":{"key":"01","name":"Schleswig-Holstein"}},{"name":"Sperberweg","postalCode":"22885","locality":"Barsbüttel","municipality":{"key":"01062009","name":"Barsbüttel","type":"Kreisangehörige_Gemeinde"},"district":{"key":"01062","name":"Stormarn","type":"Kreis"},"federalState":{"key":"01","name":"Schleswig-Holstein"}},{"name":"Steinbeker Weg","postalCode":"22885","locality":"Barsbüttel","municipality":{"key":"01062009","name":"Barsbüttel","type":"Kreisangehörige_Gemeinde"},"district":{"key":"01062","name":"Stormarn","type":"Kreis"},"federalState":{"key":"01","name":"Schleswig-Holstein"}},{"name":"Stellauer Hauptstr.","postalCode":"22885","locality":"Barsbüttel","municipality":{"key":"01062009","name":"Barsbüttel","type":"Kreisangehörige_Gemeinde"},"district":{"key":"01062","name":"Stormarn","type":"Kreis"},"federalState":{"key":"01","name":"Schleswig-Holstein"}},{"name":"Stellauer Weg","postalCode":"22885","locality":"Barsbüttel","municipality":{"key":"01062009","name":"Barsbüttel","type":"Kreisangehörige_Gemeinde"},"district":{"key":"01062","name":"Stormarn","type":"Kreis"},"federalState":{"key":"01","name":"Schleswig-Holstein"}},{"name":"Stemwarder Landstr.","postalCode":"22885","locality":"Barsbüttel","municipality":{"key":"01062009","name":"Barsbüttel","type":"Kreisangehörige_Gemeinde"},"district":{"key":"01062","name":"Stormarn","type":"Kreis"},"federalState":{"key":"01","name":"Schleswig-Holstein"}},{"name":"Stiefenhoferplatz","postalCode":"22885","locality":"Barsbüttel","municipality":{"key":"01062009","name":"Barsbüttel","type":"Kreisangehörige_Gemeinde"},"district":{"key":"01062","name":"Stormarn","type":"Kreis"},"federalState":{"key":"01","name":"Schleswig-Holstein"}},{"name":"Stübels","postalCode":"22885","locality":"Barsbüttel","municipality":{"key":"01062009","name":"Barsbüttel","type":"Kreisangehörige_Gemeinde"},"district":{"key":"01062","name":"Stormarn","type":"Kreis"},"federalState":{"key":"01","name":"Schleswig-Holstein"}},{"name":"Stübkamp","postalCode":"22885","locality":"Barsbüttel","municipality":{"key":"01062009","name":"Barsbüttel","type":"Kreisangehörige_Gemeinde"},"district":{"key":"01062","name":"Stormarn","type":"Kreis"},"federalState":{"key":"01","name":"Schleswig-Holstein"}},{"name":"Thorkoppel","postalCode":"22885","locality":"Barsbüttel","municipality":{"key":"01062009","name":"Barsbüttel","type":"Kreisangehörige_Gemeinde"},"district":{"key":"01062","name":"Stormarn","type":"Kreis"},"federalState":{"key":"01","name":"Schleswig-Holstein"}},{"name":"Twiete","postalCode":"22885","locality":"Barsbüttel","municipality":{"key":"01062009","name":"Barsbüttel","type":"Kreisangehörige_Gemeinde"},"district":{"key":"01062","name":"Stormarn","type":"Kreis"},"federalState":{"key":"01","name":"Schleswig-Holstein"}},{"name":"Waldenburger Weg","postalCode":"22885","locality":"Barsbüttel","municipality":{"key":"01062009","name":"Barsbüttel","type":"Kreisangehörige_Gemeinde"},"district":{"key":"01062","name":"Stormarn","type":"Kreis"},"federalState":{"key":"01","name":"Schleswig-Holstein"}},{"name":"Waldweg","postalCode":"22885","locality":"Barsbüttel","municipality":{"key":"01062009","name":"Barsbüttel","type":"Kreisangehörige_Gemeinde"},"district":{"key":"01062","name":"Stormarn","type":"Kreis"},"federalState":{"key":"01","name":"Schleswig-Holstein"}},{"name":"Weidenweg","postalCode":"22885","locality":"Barsbüttel","municipality":{"key":"01062009","name":"Barsbüttel","type":"Kreisangehörige_Gemeinde"},"district":{"key":"01062","name":"Stormarn","type":"Kreis"},"federalState":{"key":"01","name":"Schleswig-Holstein"}},{"name":"Weißdornring","postalCode":"22885","locality":"Barsbüttel","municipality":{"key":"01062009","name":"Barsbüttel","type":"Kreisangehörige_Gemeinde"},"district":{"key":"01062","name":"Stormarn","type":"Kreis"},"federalState":{"key":"01","name":"Schleswig-Holstein"}},{"name":"Wiesenstr.","postalCode":"22885","locality":"Barsbüttel","municipality":{"key":"01062009","name":"Barsbüttel","type":"Kreisangehörige_Gemeinde"},"district":{"key":"01062","name":"Stormarn","type":"Kreis"},"federalState":{"key":"01","name":"Schleswig-Holstein"}},{"name":"Wiesenweg","postalCode":"22885","locality":"Barsbüttel","municipality":{"key":"01062009","name":"Barsbüttel","type":"Kreisangehörige_Gemeinde"},"district":{"key":"01062","name":"Stormarn","type":"Kreis"},"federalState":{"key":"01","name":"Schleswig-Holstein"}},{"name":"Willinghusener Birkenweg","postalCode":"22885","locality":"Barsbüttel","municipality":{"key":"01062009","name":"Barsbüttel","type":"Kreisangehörige_Gemeinde"},"district":{"key":"01062","name":"Stormarn","type":"Kreis"},"federalState":{"key":"01","name":"Schleswig-Holstein"}},{"name":"Willinghusener Landstr.","postalCode":"22885","locality":"Barsbüttel","municipality":{"key":"01062009","name":"Barsbüttel","type":"Kreisangehörige_Gemeinde"},"district":{"key":"01062","name":"Stormarn","type":"Kreis"},"federalState":{"key":"01","name":"Schleswig-Holstein"}},{"name":"Zum Dicken Busch","postalCode":"22885","locality":"Barsbüttel","municipality":{"key":"01062009","name":"Barsbüttel","type":"Kreisangehörige_Gemeinde"},"district":{"key":"01062","name":"Stormarn","type":"Kreis"},"federalState":{"key":"01","name":"Schleswig-Holstein"}},{"name":"Zum Ehrenhain","postalCode":"22885","locality":"Barsbüttel","municipality":{"key":"01062009","name":"Barsbüttel","type":"Kreisangehörige_Gemeinde"},"district":{"key":"01062","name":"Stormarn","type":"Kreis"},"federalState":{"key":"01","name":"Schleswig-Holstein"}},{"name":"Zum Rähnbach","postalCode":"22885","locality":"Barsbüttel","municipality":{"key":"01062009","name":"Barsbüttel","type":"Kreisangehörige_Gemeinde"},"district":{"key":"01062","name":"Stormarn","type":"Kreis"},"federalState":{"key":"01","name":"Schleswig-Holstein"}},{"name":"Zum Roggenhof","postalCode":"22885","locality":"Barsbüttel","municipality":{"key":"01062009","name":"Barsbüttel","type":"Kreisangehörige_Gemeinde"},"district":{"key":"01062","name":"Stormarn","type":"Kreis"},"federalState":{"key":"01","name":"Schleswig-Holstein"}},{"name":"Zum Tunnel","postalCode":"22885","locality":"Barsbüttel","municipality":{"key":"01062009","name":"Barsbüttel","type":"Kreisangehörige_Gemeinde"},"district":{"key":"01062","name":"Stormarn","type":"Kreis"},"federalState":{"key":"01","name":"Schleswig-Holstein"}},]