[{"name":"Am Ammelgraben","postalCode":"63934","locality":"Röllbach","municipality":{"key":"09676151","name":"Röllbach","type":"Kreisangehörige_Gemeinde"},"district":{"key":"09676","name":"Miltenberg","type":"Landkreis"},"federalState":{"key":"09","name":"Bayern"}},{"name":"Am Bangert","postalCode":"63934","locality":"Röllbach","municipality":{"key":"09676151","name":"Röllbach","type":"Kreisangehörige_Gemeinde"},"district":{"key":"09676","name":"Miltenberg","type":"Landkreis"},"federalState":{"key":"09","name":"Bayern"}},{"name":"Am Opersgraben","postalCode":"63934","locality":"Röllbach","municipality":{"key":"09676151","name":"Röllbach","type":"Kreisangehörige_Gemeinde"},"district":{"key":"09676","name":"Miltenberg","type":"Landkreis"},"federalState":{"key":"09","name":"Bayern"}},{"name":"Am Quintal","postalCode":"63934","locality":"Röllbach","municipality":{"key":"09676151","name":"Röllbach","type":"Kreisangehörige_Gemeinde"},"district":{"key":"09676","name":"Miltenberg","type":"Landkreis"},"federalState":{"key":"09","name":"Bayern"}},{"name":"Amselweg","postalCode":"63934","locality":"Röllbach","municipality":{"key":"09676151","name":"Röllbach","type":"Kreisangehörige_Gemeinde"},"district":{"key":"09676","name":"Miltenberg","type":"Landkreis"},"federalState":{"key":"09","name":"Bayern"}},{"name":"Am Wasen","postalCode":"63934","locality":"Röllbach","municipality":{"key":"09676151","name":"Röllbach","type":"Kreisangehörige_Gemeinde"},"district":{"key":"09676","name":"Miltenberg","type":"Landkreis"},"federalState":{"key":"09","name":"Bayern"}},{"name":"An der Schanz","postalCode":"63934","locality":"Röllbach","municipality":{"key":"09676151","name":"Röllbach","type":"Kreisangehörige_Gemeinde"},"district":{"key":"09676","name":"Miltenberg","type":"Landkreis"},"federalState":{"key":"09","name":"Bayern"}},{"name":"An der Steige","postalCode":"63934","locality":"Röllbach","municipality":{"key":"09676151","name":"Röllbach","type":"Kreisangehörige_Gemeinde"},"district":{"key":"09676","name":"Miltenberg","type":"Landkreis"},"federalState":{"key":"09","name":"Bayern"}},{"name":"An der Zeiselsmühle","postalCode":"63934","locality":"Röllbach","municipality":{"key":"09676151","name":"Röllbach","type":"Kreisangehörige_Gemeinde"},"district":{"key":"09676","name":"Miltenberg","type":"Landkreis"},"federalState":{"key":"09","name":"Bayern"}},{"name":"Boschstr.","postalCode":"63934","locality":"Röllbach","municipality":{"key":"09676151","name":"Röllbach","type":"Kreisangehörige_Gemeinde"},"district":{"key":"09676","name":"Miltenberg","type":"Landkreis"},"federalState":{"key":"09","name":"Bayern"}},{"name":"Cardijnstr.","postalCode":"63897","locality":"Miltenberg","municipality":{"key":"09676139","name":"Miltenberg, St","type":"Stadt"},"district":{"key":"09676","name":"Miltenberg","type":"Landkreis"},"federalState":{"key":"09","name":"Bayern"}},{"name":"Carl-Gerster-Str.","postalCode":"63897","locality":"Miltenberg","municipality":{"key":"09676139","name":"Miltenberg, St","type":"Stadt"},"district":{"key":"09676","name":"Miltenberg","type":"Landkreis"},"federalState":{"key":"09","name":"Bayern"}},{"name":"Daimlerstr.","postalCode":"63934","locality":"Röllbach","municipality":{"key":"09676151","name":"Röllbach","type":"Kreisangehörige_Gemeinde"},"district":{"key":"09676","name":"Miltenberg","type":"Landkreis"},"federalState":{"key":"09","name":"Bayern"}},{"name":"Deutscher Hof","postalCode":"63934","locality":"Röllbach","municipality":{"key":"09676151","name":"Röllbach","type":"Kreisangehörige_Gemeinde"},"district":{"key":"09676","name":"Miltenberg","type":"Landkreis"},"federalState":{"key":"09","name":"Bayern"}},{"name":"Dieselstr.","postalCode":"63934","locality":"Röllbach","municipality":{"key":"09676151","name":"Röllbach","type":"Kreisangehörige_Gemeinde"},"district":{"key":"09676","name":"Miltenberg","type":"Landkreis"},"federalState":{"key":"09","name":"Bayern"}},{"name":"Eselsweg","postalCode":"63934","locality":"Röllbach","municipality":{"key":"09676151","name":"Röllbach","type":"Kreisangehörige_Gemeinde"},"district":{"key":"09676","name":"Miltenberg","type":"Landkreis"},"federalState":{"key":"09","name":"Bayern"}},{"name":"Finkenweg","postalCode":"63934","locality":"Röllbach","municipality":{"key":"09676151","name":"Röllbach","type":"Kreisangehörige_Gemeinde"},"district":{"key":"09676","name":"Miltenberg","type":"Landkreis"},"federalState":{"key":"09","name":"Bayern"}},{"name":"Frühlingstr.","postalCode":"63934","locality":"Röllbach","municipality":{"key":"09676151","name":"Röllbach","type":"Kreisangehörige_Gemeinde"},"district":{"key":"09676","name":"Miltenberg","type":"Landkreis"},"federalState":{"key":"09","name":"Bayern"}},{"name":"Großheubacher Str.","postalCode":"63934","locality":"Röllbach","municipality":{"key":"09676151","name":"Röllbach","type":"Kreisangehörige_Gemeinde"},"district":{"key":"09676","name":"Miltenberg","type":"Landkreis"},"federalState":{"key":"09","name":"Bayern"}},{"name":"Hauptstr.","postalCode":"63934","locality":"Röllbach","municipality":{"key":"09676151","name":"Röllbach","type":"Kreisangehörige_Gemeinde"},"district":{"key":"09676","name":"Miltenberg","type":"Landkreis"},"federalState":{"key":"09","name":"Bayern"}},{"name":"Hirtengasse","postalCode":"63934","locality":"Röllbach","municipality":{"key":"09676151","name":"Röllbach","type":"Kreisangehörige_Gemeinde"},"district":{"key":"09676","name":"Miltenberg","type":"Landkreis"},"federalState":{"key":"09","name":"Bayern"}},{"name":"Im Steinig","postalCode":"63934","locality":"Röllbach","municipality":{"key":"09676151","name":"Röllbach","type":"Kreisangehörige_Gemeinde"},"district":{"key":"09676","name":"Miltenberg","type":"Landkreis"},"federalState":{"key":"09","name":"Bayern"}},{"name":"In den Vierteln","postalCode":"63934","locality":"Röllbach","municipality":{"key":"09676151","name":"Röllbach","type":"Kreisangehörige_Gemeinde"},"district":{"key":"09676","name":"Miltenberg","type":"Landkreis"},"federalState":{"key":"09","name":"Bayern"}},{"name":"In der Beune","postalCode":"63934","locality":"Röllbach","municipality":{"key":"09676151","name":"Röllbach","type":"Kreisangehörige_Gemeinde"},"district":{"key":"09676","name":"Miltenberg","type":"Landkreis"},"federalState":{"key":"09","name":"Bayern"}},{"name":"Jahnstr.","postalCode":"63934","locality":"Röllbach","municipality":{"key":"09676151","name":"Röllbach","type":"Kreisangehörige_Gemeinde"},"district":{"key":"09676","name":"Miltenberg","type":"Landkreis"},"federalState":{"key":"09","name":"Bayern"}},{"name":"Kapellenweg","postalCode":"63934","locality":"Röllbach","municipality":{"key":"09676151","name":"Röllbach","type":"Kreisangehörige_Gemeinde"},"district":{"key":"09676","name":"Miltenberg","type":"Landkreis"},"federalState":{"key":"09","name":"Bayern"}},{"name":"Kirchgasse","postalCode":"63934","locality":"Röllbach","municipality":{"key":"09676151","name":"Röllbach","type":"Kreisangehörige_Gemeinde"},"district":{"key":"09676","name":"Miltenberg","type":"Landkreis"},"federalState":{"key":"09","name":"Bayern"}},{"name":"Limesweg","postalCode":"63934","locality":"Röllbach","municipality":{"key":"09676151","name":"Röllbach","type":"Kreisangehörige_Gemeinde"},"district":{"key":"09676","name":"Miltenberg","type":"Landkreis"},"federalState":{"key":"09","name":"Bayern"}},{"name":"Meisenring","postalCode":"63934","locality":"Röllbach","municipality":{"key":"09676151","name":"Röllbach","type":"Kreisangehörige_Gemeinde"},"district":{"key":"09676","name":"Miltenberg","type":"Landkreis"},"federalState":{"key":"09","name":"Bayern"}},{"name":"Mönchberger Str.","postalCode":"63934","locality":"Röllbach","municipality":{"key":"09676151","name":"Röllbach","type":"Kreisangehörige_Gemeinde"},"district":{"key":"09676","name":"Miltenberg","type":"Landkreis"},"federalState":{"key":"09","name":"Bayern"}},{"name":"Neugasse","postalCode":"63934","locality":"Röllbach","municipality":{"key":"09676151","name":"Röllbach","type":"Kreisangehörige_Gemeinde"},"district":{"key":"09676","name":"Miltenberg","type":"Landkreis"},"federalState":{"key":"09","name":"Bayern"}},{"name":"Obere Bergstr.","postalCode":"63934","locality":"Röllbach","municipality":{"key":"09676151","name":"Röllbach","type":"Kreisangehörige_Gemeinde"},"district":{"key":"09676","name":"Miltenberg","type":"Landkreis"},"federalState":{"key":"09","name":"Bayern"}},{"name":"Odenwaldring","postalCode":"63934","locality":"Röllbach","municipality":{"key":"09676151","name":"Röllbach","type":"Kreisangehörige_Gemeinde"},"district":{"key":"09676","name":"Miltenberg","type":"Landkreis"},"federalState":{"key":"09","name":"Bayern"}},{"name":"Postweg","postalCode":"63934","locality":"Röllbach","municipality":{"key":"09676151","name":"Röllbach","type":"Kreisangehörige_Gemeinde"},"district":{"key":"09676","name":"Miltenberg","type":"Landkreis"},"federalState":{"key":"09","name":"Bayern"}},{"name":"Rhoenstr.","postalCode":"63934","locality":"Röllbach","municipality":{"key":"09676151","name":"Röllbach","type":"Kreisangehörige_Gemeinde"},"district":{"key":"09676","name":"Miltenberg","type":"Landkreis"},"federalState":{"key":"09","name":"Bayern"}},{"name":"Röllbacher Weg","postalCode":"63934","locality":"Röllbach","municipality":{"key":"09676151","name":"Röllbach","type":"Kreisangehörige_Gemeinde"},"district":{"key":"09676","name":"Miltenberg","type":"Landkreis"},"federalState":{"key":"09","name":"Bayern"}},{"name":"Röllfelder Str.","postalCode":"63934","locality":"Röllbach","municipality":{"key":"09676151","name":"Röllbach","type":"Kreisangehörige_Gemeinde"},"district":{"key":"09676","name":"Miltenberg","type":"Landkreis"},"federalState":{"key":"09","name":"Bayern"}},{"name":"Rosenstr.","postalCode":"63934","locality":"Röllbach","municipality":{"key":"09676151","name":"Röllbach","type":"Kreisangehörige_Gemeinde"},"district":{"key":"09676","name":"Miltenberg","type":"Landkreis"},"federalState":{"key":"09","name":"Bayern"}},{"name":"Rülesbergweg","postalCode":"63934","locality":"Röllbach","municipality":{"key":"09676151","name":"Röllbach","type":"Kreisangehörige_Gemeinde"},"district":{"key":"09676","name":"Miltenberg","type":"Landkreis"},"federalState":{"key":"09","name":"Bayern"}},{"name":"Sackgasse","postalCode":"63934","locality":"Röllbach","municipality":{"key":"09676151","name":"Röllbach","type":"Kreisangehörige_Gemeinde"},"district":{"key":"09676","name":"Miltenberg","type":"Landkreis"},"federalState":{"key":"09","name":"Bayern"}},{"name":"Schmachtenberger Str.","postalCode":"63934","locality":"Röllbach","municipality":{"key":"09676151","name":"Röllbach","type":"Kreisangehörige_Gemeinde"},"district":{"key":"09676","name":"Miltenberg","type":"Landkreis"},"federalState":{"key":"09","name":"Bayern"}},{"name":"Siemensstr.","postalCode":"63934","locality":"Röllbach","municipality":{"key":"09676151","name":"Röllbach","type":"Kreisangehörige_Gemeinde"},"district":{"key":"09676","name":"Miltenberg","type":"Landkreis"},"federalState":{"key":"09","name":"Bayern"}},{"name":"Spessartstr.","postalCode":"63934","locality":"Röllbach","municipality":{"key":"09676151","name":"Röllbach","type":"Kreisangehörige_Gemeinde"},"district":{"key":"09676","name":"Miltenberg","type":"Landkreis"},"federalState":{"key":"09","name":"Bayern"}},{"name":"Taunusstr.","postalCode":"63934","locality":"Röllbach","municipality":{"key":"09676151","name":"Röllbach","type":"Kreisangehörige_Gemeinde"},"district":{"key":"09676","name":"Miltenberg","type":"Landkreis"},"federalState":{"key":"09","name":"Bayern"}},{"name":"Untere Bergstr.","postalCode":"63934","locality":"Röllbach","municipality":{"key":"09676151","name":"Röllbach","type":"Kreisangehörige_Gemeinde"},"district":{"key":"09676","name":"Miltenberg","type":"Landkreis"},"federalState":{"key":"09","name":"Bayern"}},{"name":"Verbindungsweg","postalCode":"63897","locality":"Miltenberg","municipality":{"key":"09676139","name":"Miltenberg, St","type":"Stadt"},"district":{"key":"09676","name":"Miltenberg","type":"Landkreis"},"federalState":{"key":"09","name":"Bayern"}},{"name":"Vogelweiderweg","postalCode":"63897","locality":"Miltenberg","municipality":{"key":"09676139","name":"Miltenberg, St","type":"Stadt"},"district":{"key":"09676","name":"Miltenberg","type":"Landkreis"},"federalState":{"key":"09","name":"Bayern"}},{"name":"Von-Berlichingen-Str.","postalCode":"63897","locality":"Miltenberg","municipality":{"key":"09676139","name":"Miltenberg, St","type":"Stadt"},"district":{"key":"09676","name":"Miltenberg","type":"Landkreis"},"federalState":{"key":"09","name":"Bayern"}},{"name":"Von-Bodelschwingh-Str.","postalCode":"63897","locality":"Miltenberg","municipality":{"key":"09676139","name":"Miltenberg, St","type":"Stadt"},"district":{"key":"09676","name":"Miltenberg","type":"Landkreis"},"federalState":{"key":"09","name":"Bayern"}},{"name":"Von-Hauck-Str.","postalCode":"63897","locality":"Miltenberg","municipality":{"key":"09676139","name":"Miltenberg, St","type":"Stadt"},"district":{"key":"09676","name":"Miltenberg","type":"Landkreis"},"federalState":{"key":"09","name":"Bayern"}},{"name":"Von-Ketteler-Str.","postalCode":"63897","locality":"Miltenberg","municipality":{"key":"09676139","name":"Miltenberg, St","type":"Stadt"},"district":{"key":"09676","name":"Miltenberg","type":"Landkreis"},"federalState":{"key":"09","name":"Bayern"}},{"name":"Von-Stein-Str.","postalCode":"63897","locality":"Miltenberg","municipality":{"key":"09676139","name":"Miltenberg, St","type":"Stadt"},"district":{"key":"09676","name":"Miltenberg","type":"Landkreis"},"federalState":{"key":"09","name":"Bayern"}},{"name":"Wasenweg","postalCode":"63934","locality":"Röllbach","municipality":{"key":"09676151","name":"Röllbach","type":"Kreisangehörige_Gemeinde"},"district":{"key":"09676","name":"Miltenberg","type":"Landkreis"},"federalState":{"key":"09","name":"Bayern"}},{"name":"Ziegelgasse","postalCode":"63897","locality":"Miltenberg","municipality":{"key":"09676139","name":"Miltenberg, St","type":"Stadt"},"district":{"key":"09676","name":"Miltenberg","type":"Landkreis"},"federalState":{"key":"09","name":"Bayern"}},{"name":"Zunkenstr.","postalCode":"63897","locality":"Miltenberg","municipality":{"key":"09676139","name":"Miltenberg, St","type":"Stadt"},"district":{"key":"09676","name":"Miltenberg","type":"Landkreis"},"federalState":{"key":"09","name":"Bayern"}},{"name":"Zwillingsquellenweg","postalCode":"63897","locality":"Miltenberg","municipality":{"key":"09676139","name":"Miltenberg, St","type":"Stadt"},"district":{"key":"09676","name":"Miltenberg","type":"Landkreis"},"federalState":{"key":"09","name":"Bayern"}},{"name":"Älterwaldweg","postalCode":"63897","locality":"Miltenberg","municipality":{"key":"09676139","name":"Miltenberg, St","type":"Stadt"},"district":{"key":"09676","name":"Miltenberg","type":"Landkreis"},"federalState":{"key":"09","name":"Bayern"}},]