[{"name":"Adalbert-Stifter-Str.","postalCode":"95478","locality":"Kemnath","municipality":{"key":"09377129","name":"Kemnath, St","type":"Stadt"},"district":{"key":"09377","name":"Tirschenreuth","type":"Landkreis"},"federalState":{"key":"09","name":"Bayern"}},{"name":"Alte Amberger Str.","postalCode":"95478","locality":"Kemnath","municipality":{"key":"09377129","name":"Kemnath, St","type":"Stadt"},"district":{"key":"09377","name":"Tirschenreuth","type":"Landkreis"},"federalState":{"key":"09","name":"Bayern"}},{"name":"Alter Schulsteig","postalCode":"95478","locality":"Kemnath","municipality":{"key":"09377129","name":"Kemnath, St","type":"Stadt"},"district":{"key":"09377","name":"Tirschenreuth","type":"Landkreis"},"federalState":{"key":"09","name":"Bayern"}},{"name":"Alte Str.","postalCode":"95478","locality":"Kemnath","municipality":{"key":"09377129","name":"Kemnath, St","type":"Stadt"},"district":{"key":"09377","name":"Tirschenreuth","type":"Landkreis"},"federalState":{"key":"09","name":"Bayern"}},{"name":"Amberger Str.","postalCode":"95478","locality":"Kemnath","municipality":{"key":"09377129","name":"Kemnath, St","type":"Stadt"},"district":{"key":"09377","name":"Tirschenreuth","type":"Landkreis"},"federalState":{"key":"09","name":"Bayern"}},{"name":"Am Einlaß","postalCode":"95478","locality":"Kemnath","municipality":{"key":"09377129","name":"Kemnath, St","type":"Stadt"},"district":{"key":"09377","name":"Tirschenreuth","type":"Landkreis"},"federalState":{"key":"09","name":"Bayern"}},{"name":"Am Eisweiher","postalCode":"95478","locality":"Kemnath","municipality":{"key":"09377129","name":"Kemnath, St","type":"Stadt"},"district":{"key":"09377","name":"Tirschenreuth","type":"Landkreis"},"federalState":{"key":"09","name":"Bayern"}},{"name":"Am Kühberg","postalCode":"95478","locality":"Kemnath","municipality":{"key":"09377129","name":"Kemnath, St","type":"Stadt"},"district":{"key":"09377","name":"Tirschenreuth","type":"Landkreis"},"federalState":{"key":"09","name":"Bayern"}},{"name":"Am Langen Steg","postalCode":"95478","locality":"Kemnath","municipality":{"key":"09377129","name":"Kemnath, St","type":"Stadt"},"district":{"key":"09377","name":"Tirschenreuth","type":"Landkreis"},"federalState":{"key":"09","name":"Bayern"}},{"name":"Am Schloßberg","postalCode":"95478","locality":"Kemnath","municipality":{"key":"09377129","name":"Kemnath, St","type":"Stadt"},"district":{"key":"09377","name":"Tirschenreuth","type":"Landkreis"},"federalState":{"key":"09","name":"Bayern"}},{"name":"Am Silberbach","postalCode":"95478","locality":"Kemnath","municipality":{"key":"09377129","name":"Kemnath, St","type":"Stadt"},"district":{"key":"09377","name":"Tirschenreuth","type":"Landkreis"},"federalState":{"key":"09","name":"Bayern"}},{"name":"Anzensteinstr.","postalCode":"95478","locality":"Kemnath","municipality":{"key":"09377129","name":"Kemnath, St","type":"Stadt"},"district":{"key":"09377","name":"Tirschenreuth","type":"Landkreis"},"federalState":{"key":"09","name":"Bayern"}},{"name":"Armesbergstr.","postalCode":"95478","locality":"Kemnath","municipality":{"key":"09377129","name":"Kemnath, St","type":"Stadt"},"district":{"key":"09377","name":"Tirschenreuth","type":"Landkreis"},"federalState":{"key":"09","name":"Bayern"}},{"name":"Atzmannsberg","postalCode":"95478","locality":"Kemnath","municipality":{"key":"09377129","name":"Kemnath, St","type":"Stadt"},"district":{"key":"09377","name":"Tirschenreuth","type":"Landkreis"},"federalState":{"key":"09","name":"Bayern"}},{"name":"Atzmansberg","postalCode":"95478","locality":"Kemnath","municipality":{"key":"09377129","name":"Kemnath, St","type":"Stadt"},"district":{"key":"09377","name":"Tirschenreuth","type":"Landkreis"},"federalState":{"key":"09","name":"Bayern"}},{"name":"Badstr.","postalCode":"95478","locality":"Kemnath","municipality":{"key":"09377129","name":"Kemnath, St","type":"Stadt"},"district":{"key":"09377","name":"Tirschenreuth","type":"Landkreis"},"federalState":{"key":"09","name":"Bayern"}},{"name":"Bayreuther Str.","postalCode":"95478","locality":"Kemnath","municipality":{"key":"09377129","name":"Kemnath, St","type":"Stadt"},"district":{"key":"09377","name":"Tirschenreuth","type":"Landkreis"},"federalState":{"key":"09","name":"Bayern"}},{"name":"Berndorfer Str.","postalCode":"95478","locality":"Kemnath","municipality":{"key":"09377129","name":"Kemnath, St","type":"Stadt"},"district":{"key":"09377","name":"Tirschenreuth","type":"Landkreis"},"federalState":{"key":"09","name":"Bayern"}},{"name":"Bingarten","postalCode":"95478","locality":"Kemnath","municipality":{"key":"09377129","name":"Kemnath, St","type":"Stadt"},"district":{"key":"09377","name":"Tirschenreuth","type":"Landkreis"},"federalState":{"key":"09","name":"Bayern"}},{"name":"Brauhausstr.","postalCode":"95478","locality":"Kemnath","municipality":{"key":"09377129","name":"Kemnath, St","type":"Stadt"},"district":{"key":"09377","name":"Tirschenreuth","type":"Landkreis"},"federalState":{"key":"09","name":"Bayern"}},{"name":"Brunnenweg","postalCode":"95478","locality":"Kemnath","municipality":{"key":"09377129","name":"Kemnath, St","type":"Stadt"},"district":{"key":"09377","name":"Tirschenreuth","type":"Landkreis"},"federalState":{"key":"09","name":"Bayern"}},{"name":"Bürgermeister-Högl-Str.","postalCode":"95478","locality":"Kemnath","municipality":{"key":"09377129","name":"Kemnath, St","type":"Stadt"},"district":{"key":"09377","name":"Tirschenreuth","type":"Landkreis"},"federalState":{"key":"09","name":"Bayern"}},{"name":"Bürgermeister-Reger-Str.","postalCode":"95478","locality":"Kemnath","municipality":{"key":"09377129","name":"Kemnath, St","type":"Stadt"},"district":{"key":"09377","name":"Tirschenreuth","type":"Landkreis"},"federalState":{"key":"09","name":"Bayern"}},{"name":"Bürgermeister-Zetlmeisl-Str.","postalCode":"95478","locality":"Kemnath","municipality":{"key":"09377129","name":"Kemnath, St","type":"Stadt"},"district":{"key":"09377","name":"Tirschenreuth","type":"Landkreis"},"federalState":{"key":"09","name":"Bayern"}},{"name":"Burgweg","postalCode":"95478","locality":"Kemnath","municipality":{"key":"09377129","name":"Kemnath, St","type":"Stadt"},"district":{"key":"09377","name":"Tirschenreuth","type":"Landkreis"},"federalState":{"key":"09","name":"Bayern"}},{"name":"Cammerloher Platz","postalCode":"95478","locality":"Kemnath","municipality":{"key":"09377129","name":"Kemnath, St","type":"Stadt"},"district":{"key":"09377","name":"Tirschenreuth","type":"Landkreis"},"federalState":{"key":"09","name":"Bayern"}},{"name":"Danziger Str.","postalCode":"95478","locality":"Kemnath","municipality":{"key":"09377129","name":"Kemnath, St","type":"Stadt"},"district":{"key":"09377","name":"Tirschenreuth","type":"Landkreis"},"federalState":{"key":"09","name":"Bayern"}},{"name":"Dr.-Buchberger-Str.","postalCode":"95478","locality":"Kemnath","municipality":{"key":"09377129","name":"Kemnath, St","type":"Stadt"},"district":{"key":"09377","name":"Tirschenreuth","type":"Landkreis"},"federalState":{"key":"09","name":"Bayern"}},{"name":"Eisersdorfer Str.","postalCode":"95478","locality":"Kemnath","municipality":{"key":"09377129","name":"Kemnath, St","type":"Stadt"},"district":{"key":"09377","name":"Tirschenreuth","type":"Landkreis"},"federalState":{"key":"09","name":"Bayern"}},{"name":"Erbendorfer Str.","postalCode":"95478","locality":"Kemnath","municipality":{"key":"09377129","name":"Kemnath, St","type":"Stadt"},"district":{"key":"09377","name":"Tirschenreuth","type":"Landkreis"},"federalState":{"key":"09","name":"Bayern"}},{"name":"Falkensteinpark","postalCode":"95478","locality":"Kemnath","municipality":{"key":"09377129","name":"Kemnath, St","type":"Stadt"},"district":{"key":"09377","name":"Tirschenreuth","type":"Landkreis"},"federalState":{"key":"09","name":"Bayern"}},{"name":"Feyhöhe","postalCode":"95478","locality":"Kemnath","municipality":{"key":"09377129","name":"Kemnath, St","type":"Stadt"},"district":{"key":"09377","name":"Tirschenreuth","type":"Landkreis"},"federalState":{"key":"09","name":"Bayern"}},{"name":"Fichtelgebirgsstr.","postalCode":"95478","locality":"Kemnath","municipality":{"key":"09377129","name":"Kemnath, St","type":"Stadt"},"district":{"key":"09377","name":"Tirschenreuth","type":"Landkreis"},"federalState":{"key":"09","name":"Bayern"}},{"name":"Fortschau","postalCode":"95478","locality":"Kemnath","municipality":{"key":"09377129","name":"Kemnath, St","type":"Stadt"},"district":{"key":"09377","name":"Tirschenreuth","type":"Landkreis"},"federalState":{"key":"09","name":"Bayern"}},{"name":"Friedrichstr.","postalCode":"95478","locality":"Kemnath","municipality":{"key":"09377129","name":"Kemnath, St","type":"Stadt"},"district":{"key":"09377","name":"Tirschenreuth","type":"Landkreis"},"federalState":{"key":"09","name":"Bayern"}},{"name":"Gartenweg","postalCode":"95478","locality":"Kemnath","municipality":{"key":"09377129","name":"Kemnath, St","type":"Stadt"},"district":{"key":"09377","name":"Tirschenreuth","type":"Landkreis"},"federalState":{"key":"09","name":"Bayern"}},{"name":"Georg-Horn-Str.","postalCode":"95478","locality":"Kemnath","municipality":{"key":"09377129","name":"Kemnath, St","type":"Stadt"},"district":{"key":"09377","name":"Tirschenreuth","type":"Landkreis"},"federalState":{"key":"09","name":"Bayern"}},{"name":"Gerhart-Hauptmann-Str.","postalCode":"95478","locality":"Kemnath","municipality":{"key":"09377129","name":"Kemnath, St","type":"Stadt"},"district":{"key":"09377","name":"Tirschenreuth","type":"Landkreis"},"federalState":{"key":"09","name":"Bayern"}},{"name":"Godaser Str. (TIR 8)","postalCode":"95478","locality":"Kemnath","municipality":{"key":"09377129","name":"Kemnath, St","type":"Stadt"},"district":{"key":"09377","name":"Tirschenreuth","type":"Landkreis"},"federalState":{"key":"09","name":"Bayern"}},{"name":"Goldbergstr.","postalCode":"95478","locality":"Kemnath","municipality":{"key":"09377129","name":"Kemnath, St","type":"Stadt"},"district":{"key":"09377","name":"Tirschenreuth","type":"Landkreis"},"federalState":{"key":"09","name":"Bayern"}},{"name":"Guttenberg","postalCode":"95478","locality":"Kemnath","municipality":{"key":"09377129","name":"Kemnath, St","type":"Stadt"},"district":{"key":"09377","name":"Tirschenreuth","type":"Landkreis"},"federalState":{"key":"09","name":"Bayern"}},{"name":"Hagegassl","postalCode":"95478","locality":"Kemnath","municipality":{"key":"09377129","name":"Kemnath, St","type":"Stadt"},"district":{"key":"09377","name":"Tirschenreuth","type":"Landkreis"},"federalState":{"key":"09","name":"Bayern"}},{"name":"Hammergrabenstr.","postalCode":"95478","locality":"Kemnath","municipality":{"key":"09377129","name":"Kemnath, St","type":"Stadt"},"district":{"key":"09377","name":"Tirschenreuth","type":"Landkreis"},"federalState":{"key":"09","name":"Bayern"}},{"name":"Hinter dem Kloster","postalCode":"95478","locality":"Kemnath","municipality":{"key":"09377129","name":"Kemnath, St","type":"Stadt"},"district":{"key":"09377","name":"Tirschenreuth","type":"Landkreis"},"federalState":{"key":"09","name":"Bayern"}},{"name":"Hohe Str.","postalCode":"95478","locality":"Kemnath","municipality":{"key":"09377129","name":"Kemnath, St","type":"Stadt"},"district":{"key":"09377","name":"Tirschenreuth","type":"Landkreis"},"federalState":{"key":"09","name":"Bayern"}},{"name":"Hopfau","postalCode":"95478","locality":"Kemnath","municipality":{"key":"09377129","name":"Kemnath, St","type":"Stadt"},"district":{"key":"09377","name":"Tirschenreuth","type":"Landkreis"},"federalState":{"key":"09","name":"Bayern"}},{"name":"Hosleite","postalCode":"95478","locality":"Kemnath","municipality":{"key":"09377129","name":"Kemnath, St","type":"Stadt"},"district":{"key":"09377","name":"Tirschenreuth","type":"Landkreis"},"federalState":{"key":"09","name":"Bayern"}},{"name":"Im Hopfenthal","postalCode":"95478","locality":"Kemnath","municipality":{"key":"09377129","name":"Kemnath, St","type":"Stadt"},"district":{"key":"09377","name":"Tirschenreuth","type":"Landkreis"},"federalState":{"key":"09","name":"Bayern"}},{"name":"Im Höritz","postalCode":"95478","locality":"Kemnath","municipality":{"key":"09377129","name":"Kemnath, St","type":"Stadt"},"district":{"key":"09377","name":"Tirschenreuth","type":"Landkreis"},"federalState":{"key":"09","name":"Bayern"}},{"name":"Johannes-Tolhopf-Str.","postalCode":"95478","locality":"Kemnath","municipality":{"key":"09377129","name":"Kemnath, St","type":"Stadt"},"district":{"key":"09377","name":"Tirschenreuth","type":"Landkreis"},"federalState":{"key":"09","name":"Bayern"}},{"name":"Johann-Hader-Str.","postalCode":"95478","locality":"Kemnath","municipality":{"key":"09377129","name":"Kemnath, St","type":"Stadt"},"district":{"key":"09377","name":"Tirschenreuth","type":"Landkreis"},"federalState":{"key":"09","name":"Bayern"}},{"name":"Josef-von-Eichendorff-Str.","postalCode":"95478","locality":"Kemnath","municipality":{"key":"09377129","name":"Kemnath, St","type":"Stadt"},"district":{"key":"09377","name":"Tirschenreuth","type":"Landkreis"},"federalState":{"key":"09","name":"Bayern"}},{"name":"Kaibitz","postalCode":"95478","locality":"Kemnath","municipality":{"key":"09377129","name":"Kemnath, St","type":"Stadt"},"district":{"key":"09377","name":"Tirschenreuth","type":"Landkreis"},"federalState":{"key":"09","name":"Bayern"}},{"name":"Kardinal-Muench-Str.","postalCode":"95478","locality":"Kemnath","municipality":{"key":"09377129","name":"Kemnath, St","type":"Stadt"},"district":{"key":"09377","name":"Tirschenreuth","type":"Landkreis"},"federalState":{"key":"09","name":"Bayern"}},{"name":"Kemnather Str.","postalCode":"95478","locality":"Kemnath","municipality":{"key":"09377129","name":"Kemnath, St","type":"Stadt"},"district":{"key":"09377","name":"Tirschenreuth","type":"Landkreis"},"federalState":{"key":"09","name":"Bayern"}},{"name":"Klosterhofstr.","postalCode":"95478","locality":"Kemnath","municipality":{"key":"09377129","name":"Kemnath, St","type":"Stadt"},"district":{"key":"09377","name":"Tirschenreuth","type":"Landkreis"},"federalState":{"key":"09","name":"Bayern"}},{"name":"Köglitz","postalCode":"95478","locality":"Kemnath","municipality":{"key":"09377129","name":"Kemnath, St","type":"Stadt"},"district":{"key":"09377","name":"Tirschenreuth","type":"Landkreis"},"federalState":{"key":"09","name":"Bayern"}},{"name":"Königsberger Str.","postalCode":"95478","locality":"Kemnath","municipality":{"key":"09377129","name":"Kemnath, St","type":"Stadt"},"district":{"key":"09377","name":"Tirschenreuth","type":"Landkreis"},"federalState":{"key":"09","name":"Bayern"}},{"name":"Kuchenreuth","postalCode":"95478","locality":"Kemnath","municipality":{"key":"09377129","name":"Kemnath, St","type":"Stadt"},"district":{"key":"09377","name":"Tirschenreuth","type":"Landkreis"},"federalState":{"key":"09","name":"Bayern"}},{"name":"Kulmstr.","postalCode":"95478","locality":"Kemnath","municipality":{"key":"09377129","name":"Kemnath, St","type":"Stadt"},"district":{"key":"09377","name":"Tirschenreuth","type":"Landkreis"},"federalState":{"key":"09","name":"Bayern"}},{"name":"Lindenweg","postalCode":"95478","locality":"Kemnath","municipality":{"key":"09377129","name":"Kemnath, St","type":"Stadt"},"district":{"key":"09377","name":"Tirschenreuth","type":"Landkreis"},"federalState":{"key":"09","name":"Bayern"}},{"name":"Matthias-Widmann-Str.","postalCode":"95478","locality":"Kemnath","municipality":{"key":"09377129","name":"Kemnath, St","type":"Stadt"},"district":{"key":"09377","name":"Tirschenreuth","type":"Landkreis"},"federalState":{"key":"09","name":"Bayern"}},{"name":"Max-Reger-Str.","postalCode":"95478","locality":"Kemnath","municipality":{"key":"09377129","name":"Kemnath, St","type":"Stadt"},"district":{"key":"09377","name":"Tirschenreuth","type":"Landkreis"},"federalState":{"key":"09","name":"Bayern"}},{"name":"Neusteinreuth","postalCode":"95478","locality":"Kemnath","municipality":{"key":"09377129","name":"Kemnath, St","type":"Stadt"},"district":{"key":"09377","name":"Tirschenreuth","type":"Landkreis"},"federalState":{"key":"09","name":"Bayern"}},{"name":"Ochsenkopfstr.","postalCode":"95478","locality":"Kemnath","municipality":{"key":"09377129","name":"Kemnath, St","type":"Stadt"},"district":{"key":"09377","name":"Tirschenreuth","type":"Landkreis"},"federalState":{"key":"09","name":"Bayern"}},{"name":"Paul-Wann-Str.","postalCode":"95478","locality":"Kemnath","municipality":{"key":"09377129","name":"Kemnath, St","type":"Stadt"},"district":{"key":"09377","name":"Tirschenreuth","type":"Landkreis"},"federalState":{"key":"09","name":"Bayern"}},{"name":"Paul-Zeidler-Str.","postalCode":"95478","locality":"Kemnath","municipality":{"key":"09377129","name":"Kemnath, St","type":"Stadt"},"district":{"key":"09377","name":"Tirschenreuth","type":"Landkreis"},"federalState":{"key":"09","name":"Bayern"}},{"name":"Pfarrer-Arckhauer-Str.","postalCode":"95478","locality":"Kemnath","municipality":{"key":"09377129","name":"Kemnath, St","type":"Stadt"},"district":{"key":"09377","name":"Tirschenreuth","type":"Landkreis"},"federalState":{"key":"09","name":"Bayern"}},{"name":"Pfarrer-Pilz-Str.","postalCode":"95478","locality":"Kemnath","municipality":{"key":"09377129","name":"Kemnath, St","type":"Stadt"},"district":{"key":"09377","name":"Tirschenreuth","type":"Landkreis"},"federalState":{"key":"09","name":"Bayern"}},{"name":"Platz der Kontinente","postalCode":"95478","locality":"Kemnath","municipality":{"key":"09377129","name":"Kemnath, St","type":"Stadt"},"district":{"key":"09377","name":"Tirschenreuth","type":"Landkreis"},"federalState":{"key":"09","name":"Bayern"}},{"name":"Pommernstr.","postalCode":"95478","locality":"Kemnath","municipality":{"key":"09377129","name":"Kemnath, St","type":"Stadt"},"district":{"key":"09377","name":"Tirschenreuth","type":"Landkreis"},"federalState":{"key":"09","name":"Bayern"}},{"name":"Poststr.","postalCode":"95478","locality":"Kemnath","municipality":{"key":"09377129","name":"Kemnath, St","type":"Stadt"},"district":{"key":"09377","name":"Tirschenreuth","type":"Landkreis"},"federalState":{"key":"09","name":"Bayern"}},{"name":"Primianusplatz","postalCode":"95478","locality":"Kemnath","municipality":{"key":"09377129","name":"Kemnath, St","type":"Stadt"},"district":{"key":"09377","name":"Tirschenreuth","type":"Landkreis"},"federalState":{"key":"09","name":"Bayern"}},{"name":"Primianusstr.","postalCode":"95478","locality":"Kemnath","municipality":{"key":"09377129","name":"Kemnath, St","type":"Stadt"},"district":{"key":"09377","name":"Tirschenreuth","type":"Landkreis"},"federalState":{"key":"09","name":"Bayern"}},{"name":"Quellenweg","postalCode":"95478","locality":"Kemnath","municipality":{"key":"09377129","name":"Kemnath, St","type":"Stadt"},"district":{"key":"09377","name":"Tirschenreuth","type":"Landkreis"},"federalState":{"key":"09","name":"Bayern"}},{"name":"Raiffeisenstr.","postalCode":"95478","locality":"Kemnath","municipality":{"key":"09377129","name":"Kemnath, St","type":"Stadt"},"district":{"key":"09377","name":"Tirschenreuth","type":"Landkreis"},"federalState":{"key":"09","name":"Bayern"}},{"name":"Rathausplatz","postalCode":"95478","locality":"Kemnath","municipality":{"key":"09377129","name":"Kemnath, St","type":"Stadt"},"district":{"key":"09377","name":"Tirschenreuth","type":"Landkreis"},"federalState":{"key":"09","name":"Bayern"}},{"name":"Reuther Steig","postalCode":"95478","locality":"Kemnath","municipality":{"key":"09377129","name":"Kemnath, St","type":"Stadt"},"district":{"key":"09377","name":"Tirschenreuth","type":"Landkreis"},"federalState":{"key":"09","name":"Bayern"}},{"name":"Rohrwiesen","postalCode":"95478","locality":"Kemnath","municipality":{"key":"09377129","name":"Kemnath, St","type":"Stadt"},"district":{"key":"09377","name":"Tirschenreuth","type":"Landkreis"},"federalState":{"key":"09","name":"Bayern"}},{"name":"Röntgenstr.","postalCode":"95478","locality":"Kemnath","municipality":{"key":"09377129","name":"Kemnath, St","type":"Stadt"},"district":{"key":"09377","name":"Tirschenreuth","type":"Landkreis"},"federalState":{"key":"09","name":"Bayern"}},{"name":"Rosenweg","postalCode":"95478","locality":"Kemnath","municipality":{"key":"09377129","name":"Kemnath, St","type":"Stadt"},"district":{"key":"09377","name":"Tirschenreuth","type":"Landkreis"},"federalState":{"key":"09","name":"Bayern"}},{"name":"Schlesienstr.","postalCode":"95478","locality":"Kemnath","municipality":{"key":"09377129","name":"Kemnath, St","type":"Stadt"},"district":{"key":"09377","name":"Tirschenreuth","type":"Landkreis"},"federalState":{"key":"09","name":"Bayern"}},{"name":"Schloßbergstr.","postalCode":"95478","locality":"Kemnath","municipality":{"key":"09377129","name":"Kemnath, St","type":"Stadt"},"district":{"key":"09377","name":"Tirschenreuth","type":"Landkreis"},"federalState":{"key":"09","name":"Bayern"}},{"name":"Schmidtstr.","postalCode":"95478","locality":"Kemnath","municipality":{"key":"09377129","name":"Kemnath, St","type":"Stadt"},"district":{"key":"09377","name":"Tirschenreuth","type":"Landkreis"},"federalState":{"key":"09","name":"Bayern"}},{"name":"Schönreuth","postalCode":"95478","locality":"Kemnath","municipality":{"key":"09377129","name":"Kemnath, St","type":"Stadt"},"district":{"key":"09377","name":"Tirschenreuth","type":"Landkreis"},"federalState":{"key":"09","name":"Bayern"}},{"name":"Schulstr.","postalCode":"95478","locality":"Kemnath","municipality":{"key":"09377129","name":"Kemnath, St","type":"Stadt"},"district":{"key":"09377","name":"Tirschenreuth","type":"Landkreis"},"federalState":{"key":"09","name":"Bayern"}},{"name":"Schützengraben","postalCode":"95478","locality":"Kemnath","municipality":{"key":"09377129","name":"Kemnath, St","type":"Stadt"},"district":{"key":"09377","name":"Tirschenreuth","type":"Landkreis"},"federalState":{"key":"09","name":"Bayern"}},{"name":"Schweißenreuth","postalCode":"95478","locality":"Kemnath","municipality":{"key":"09377129","name":"Kemnath, St","type":"Stadt"},"district":{"key":"09377","name":"Tirschenreuth","type":"Landkreis"},"federalState":{"key":"09","name":"Bayern"}},{"name":"Seeleite","postalCode":"95478","locality":"Kemnath","municipality":{"key":"09377129","name":"Kemnath, St","type":"Stadt"},"district":{"key":"09377","name":"Tirschenreuth","type":"Landkreis"},"federalState":{"key":"09","name":"Bayern"}},{"name":"Seeleitenpark","postalCode":"95478","locality":"Kemnath","municipality":{"key":"09377129","name":"Kemnath, St","type":"Stadt"},"district":{"key":"09377","name":"Tirschenreuth","type":"Landkreis"},"federalState":{"key":"09","name":"Bayern"}},{"name":"Sigmund-Ehrnthaller-Str.","postalCode":"95478","locality":"Kemnath","municipality":{"key":"09377129","name":"Kemnath, St","type":"Stadt"},"district":{"key":"09377","name":"Tirschenreuth","type":"Landkreis"},"federalState":{"key":"09","name":"Bayern"}},{"name":"Steinwaldstr.","postalCode":"95478","locality":"Kemnath","municipality":{"key":"09377129","name":"Kemnath, St","type":"Stadt"},"district":{"key":"09377","name":"Tirschenreuth","type":"Landkreis"},"federalState":{"key":"09","name":"Bayern"}},{"name":"Sudetenlandstr.","postalCode":"95478","locality":"Kemnath","municipality":{"key":"09377129","name":"Kemnath, St","type":"Stadt"},"district":{"key":"09377","name":"Tirschenreuth","type":"Landkreis"},"federalState":{"key":"09","name":"Bayern"}},{"name":"Thoma-Gässchen","postalCode":"95478","locality":"Kemnath","municipality":{"key":"09377129","name":"Kemnath, St","type":"Stadt"},"district":{"key":"09377","name":"Tirschenreuth","type":"Landkreis"},"federalState":{"key":"09","name":"Bayern"}},{"name":"Trautenbergstr.","postalCode":"95478","locality":"Kemnath","municipality":{"key":"09377129","name":"Kemnath, St","type":"Stadt"},"district":{"key":"09377","name":"Tirschenreuth","type":"Landkreis"},"federalState":{"key":"09","name":"Bayern"}},{"name":"Unterer Markt","postalCode":"95478","locality":"Kemnath","municipality":{"key":"09377129","name":"Kemnath, St","type":"Stadt"},"district":{"key":"09377","name":"Tirschenreuth","type":"Landkreis"},"federalState":{"key":"09","name":"Bayern"}},{"name":"Vehstr.","postalCode":"95478","locality":"Kemnath","municipality":{"key":"09377129","name":"Kemnath, St","type":"Stadt"},"district":{"key":"09377","name":"Tirschenreuth","type":"Landkreis"},"federalState":{"key":"09","name":"Bayern"}},{"name":"Waldweg","postalCode":"95478","locality":"Kemnath","municipality":{"key":"09377129","name":"Kemnath, St","type":"Stadt"},"district":{"key":"09377","name":"Tirschenreuth","type":"Landkreis"},"federalState":{"key":"09","name":"Bayern"}},{"name":"Wehrgang","postalCode":"95478","locality":"Kemnath","municipality":{"key":"09377129","name":"Kemnath, St","type":"Stadt"},"district":{"key":"09377","name":"Tirschenreuth","type":"Landkreis"},"federalState":{"key":"09","name":"Bayern"}},{"name":"Weihergraben","postalCode":"95478","locality":"Kemnath","municipality":{"key":"09377129","name":"Kemnath, St","type":"Stadt"},"district":{"key":"09377","name":"Tirschenreuth","type":"Landkreis"},"federalState":{"key":"09","name":"Bayern"}},{"name":"Weinleite","postalCode":"95478","locality":"Kemnath","municipality":{"key":"09377129","name":"Kemnath, St","type":"Stadt"},"district":{"key":"09377","name":"Tirschenreuth","type":"Landkreis"},"federalState":{"key":"09","name":"Bayern"}},{"name":"Weißensteinstr.","postalCode":"95478","locality":"Kemnath","municipality":{"key":"09377129","name":"Kemnath, St","type":"Stadt"},"district":{"key":"09377","name":"Tirschenreuth","type":"Landkreis"},"federalState":{"key":"09","name":"Bayern"}},{"name":"Werner-von-Siemens-Str.","postalCode":"95478","locality":"Kemnath","municipality":{"key":"09377129","name":"Kemnath, St","type":"Stadt"},"district":{"key":"09377","name":"Tirschenreuth","type":"Landkreis"},"federalState":{"key":"09","name":"Bayern"}},{"name":"Wolfgang-Schmeltzl-Str.","postalCode":"95478","locality":"Kemnath","municipality":{"key":"09377129","name":"Kemnath, St","type":"Stadt"},"district":{"key":"09377","name":"Tirschenreuth","type":"Landkreis"},"federalState":{"key":"09","name":"Bayern"}},{"name":"Zum Hochgericht","postalCode":"95478","locality":"Kemnath","municipality":{"key":"09377129","name":"Kemnath, St","type":"Stadt"},"district":{"key":"09377","name":"Tirschenreuth","type":"Landkreis"},"federalState":{"key":"09","name":"Bayern"}},{"name":"Zwergau","postalCode":"95478","locality":"Kemnath","municipality":{"key":"09377129","name":"Kemnath, St","type":"Stadt"},"district":{"key":"09377","name":"Tirschenreuth","type":"Landkreis"},"federalState":{"key":"09","name":"Bayern"}},{"name":"Zwergauer Str.","postalCode":"95478","locality":"Kemnath","municipality":{"key":"09377129","name":"Kemnath, St","type":"Stadt"},"district":{"key":"09377","name":"Tirschenreuth","type":"Landkreis"},"federalState":{"key":"09","name":"Bayern"}},{"name":"Zwergau (TIR 32)","postalCode":"95478","locality":"Kemnath","municipality":{"key":"09377129","name":"Kemnath, St","type":"Stadt"},"district":{"key":"09377","name":"Tirschenreuth","type":"Landkreis"},"federalState":{"key":"09","name":"Bayern"}},{"name":"Äußere Regensburger Str.","postalCode":"95643","locality":"Tirschenreuth","municipality":{"key":"09377154","name":"Tirschenreuth, St","type":"Stadt"},"district":{"key":"09377","name":"Tirschenreuth","type":"Landkreis"},"federalState":{"key":"09","name":"Bayern"}},]