[{"name":"Am Gutshof","postalCode":"19258","locality":"Gresse","municipality":{"key":"13076054","name":"Gresse","type":"Kreisangehörige_Gemeinde"},"district":{"key":"13076","name":"Ludwigslust-Parchim","type":"Landkreis"},"federalState":{"key":"13","name":"Mecklenburg-Vorpommern"}},{"name":"Am Schloßteich","postalCode":"19258","locality":"Gresse","municipality":{"key":"13076054","name":"Gresse","type":"Kreisangehörige_Gemeinde"},"district":{"key":"13076","name":"Ludwigslust-Parchim","type":"Landkreis"},"federalState":{"key":"13","name":"Mecklenburg-Vorpommern"}},{"name":"Badekower Str.","postalCode":"19258","locality":"Gresse","municipality":{"key":"13076054","name":"Gresse","type":"Kreisangehörige_Gemeinde"},"district":{"key":"13076","name":"Ludwigslust-Parchim","type":"Landkreis"},"federalState":{"key":"13","name":"Mecklenburg-Vorpommern"}},{"name":"Dorfstr.","postalCode":"19258","locality":"Gresse","municipality":{"key":"13076054","name":"Gresse","type":"Kreisangehörige_Gemeinde"},"district":{"key":"13076","name":"Ludwigslust-Parchim","type":"Landkreis"},"federalState":{"key":"13","name":"Mecklenburg-Vorpommern"}},{"name":"Finkenhof","postalCode":"19258","locality":"Gresse","municipality":{"key":"13076054","name":"Gresse","type":"Kreisangehörige_Gemeinde"},"district":{"key":"13076","name":"Ludwigslust-Parchim","type":"Landkreis"},"federalState":{"key":"13","name":"Mecklenburg-Vorpommern"}},{"name":"Lindenallee","postalCode":"19258","locality":"Gresse","municipality":{"key":"13076054","name":"Gresse","type":"Kreisangehörige_Gemeinde"},"district":{"key":"13076","name":"Ludwigslust-Parchim","type":"Landkreis"},"federalState":{"key":"13","name":"Mecklenburg-Vorpommern"}},{"name":"Neuer Weg","postalCode":"19258","locality":"Gresse","municipality":{"key":"13076054","name":"Gresse","type":"Kreisangehörige_Gemeinde"},"district":{"key":"13076","name":"Ludwigslust-Parchim","type":"Landkreis"},"federalState":{"key":"13","name":"Mecklenburg-Vorpommern"}},{"name":"Schwanheider Str.","postalCode":"19258","locality":"Gresse","municipality":{"key":"13076054","name":"Gresse","type":"Kreisangehörige_Gemeinde"},"district":{"key":"13076","name":"Ludwigslust-Parchim","type":"Landkreis"},"federalState":{"key":"13","name":"Mecklenburg-Vorpommern"}},{"name":"Zarrentiner Str.","postalCode":"19258","locality":"Gresse","municipality":{"key":"13076054","name":"Gresse","type":"Kreisangehörige_Gemeinde"},"district":{"key":"13076","name":"Ludwigslust-Parchim","type":"Landkreis"},"federalState":{"key":"13","name":"Mecklenburg-Vorpommern"}},{"name":"Zum Finkenberg","postalCode":"19258","locality":"Gresse","municipality":{"key":"13076054","name":"Gresse","type":"Kreisangehörige_Gemeinde"},"district":{"key":"13076","name":"Ludwigslust-Parchim","type":"Landkreis"},"federalState":{"key":"13","name":"Mecklenburg-Vorpommern"}},{"name":"Zum Forsthof","postalCode":"19258","locality":"Gresse","municipality":{"key":"13076054","name":"Gresse","type":"Kreisangehörige_Gemeinde"},"district":{"key":"13076","name":"Ludwigslust-Parchim","type":"Landkreis"},"federalState":{"key":"13","name":"Mecklenburg-Vorpommern"}},{"name":"Zum Lehmberg","postalCode":"19258","locality":"Gresse","municipality":{"key":"13076054","name":"Gresse","type":"Kreisangehörige_Gemeinde"},"district":{"key":"13076","name":"Ludwigslust-Parchim","type":"Landkreis"},"federalState":{"key":"13","name":"Mecklenburg-Vorpommern"}},{"name":"Zum Reiterhof","postalCode":"19258","locality":"Gresse","municipality":{"key":"13076054","name":"Gresse","type":"Kreisangehörige_Gemeinde"},"district":{"key":"13076","name":"Ludwigslust-Parchim","type":"Landkreis"},"federalState":{"key":"13","name":"Mecklenburg-Vorpommern"}},]