[{"name":"ABC-Hügel","postalCode":"97762","locality":"Hammelburg","municipality":{"key":"09672127","name":"Hammelburg, St","type":"Stadt"},"district":{"key":"09672","name":"Bad Kissingen","type":"Landkreis"},"federalState":{"key":"09","name":"Bayern"}},{"name":"Adalbert-Stifter-Str.","postalCode":"97762","locality":"Hammelburg","municipality":{"key":"09672127","name":"Hammelburg, St","type":"Stadt"},"district":{"key":"09672","name":"Bad Kissingen","type":"Landkreis"},"federalState":{"key":"09","name":"Bayern"}},{"name":"Adolf-Kolping-Str.","postalCode":"97762","locality":"Hammelburg","municipality":{"key":"09672127","name":"Hammelburg, St","type":"Stadt"},"district":{"key":"09672","name":"Bad Kissingen","type":"Landkreis"},"federalState":{"key":"09","name":"Bayern"}},{"name":"Altbessinger Weg","postalCode":"97762","locality":"Hammelburg","municipality":{"key":"09672127","name":"Hammelburg, St","type":"Stadt"},"district":{"key":"09672","name":"Bad Kissingen","type":"Landkreis"},"federalState":{"key":"09","name":"Bayern"}},{"name":"alte Panzerspur","postalCode":"97762","locality":"Hammelburg","municipality":{"key":"09672127","name":"Hammelburg, St","type":"Stadt"},"district":{"key":"09672","name":"Bad Kissingen","type":"Landkreis"},"federalState":{"key":"09","name":"Bayern"}},{"name":"Alte Panzerstr.","postalCode":"97762","locality":"Hammelburg","municipality":{"key":"09672127","name":"Hammelburg, St","type":"Stadt"},"district":{"key":"09672","name":"Bad Kissingen","type":"Landkreis"},"federalState":{"key":"09","name":"Bayern"}},{"name":"Am Altenhof","postalCode":"97762","locality":"Hammelburg","municipality":{"key":"09672127","name":"Hammelburg, St","type":"Stadt"},"district":{"key":"09672","name":"Bad Kissingen","type":"Landkreis"},"federalState":{"key":"09","name":"Bayern"}},{"name":"Am Bahndamm","postalCode":"97762","locality":"Hammelburg","municipality":{"key":"09672127","name":"Hammelburg, St","type":"Stadt"},"district":{"key":"09672","name":"Bad Kissingen","type":"Landkreis"},"federalState":{"key":"09","name":"Bayern"}},{"name":"Am Bahnhof","postalCode":"97762","locality":"Hammelburg","municipality":{"key":"09672127","name":"Hammelburg, St","type":"Stadt"},"district":{"key":"09672","name":"Bad Kissingen","type":"Landkreis"},"federalState":{"key":"09","name":"Bayern"}},{"name":"Am Berg","postalCode":"97762","locality":"Hammelburg","municipality":{"key":"09672127","name":"Hammelburg, St","type":"Stadt"},"district":{"key":"09672","name":"Bad Kissingen","type":"Landkreis"},"federalState":{"key":"09","name":"Bayern"}},{"name":"Am Buchberg","postalCode":"97762","locality":"Hammelburg","municipality":{"key":"09672127","name":"Hammelburg, St","type":"Stadt"},"district":{"key":"09672","name":"Bad Kissingen","type":"Landkreis"},"federalState":{"key":"09","name":"Bayern"}},{"name":"Am Etzgarten","postalCode":"97762","locality":"Hammelburg","municipality":{"key":"09672127","name":"Hammelburg, St","type":"Stadt"},"district":{"key":"09672","name":"Bad Kissingen","type":"Landkreis"},"federalState":{"key":"09","name":"Bayern"}},{"name":"Am Galgenberg","postalCode":"97762","locality":"Hammelburg","municipality":{"key":"09672127","name":"Hammelburg, St","type":"Stadt"},"district":{"key":"09672","name":"Bad Kissingen","type":"Landkreis"},"federalState":{"key":"09","name":"Bayern"}},{"name":"Am Hahn","postalCode":"97762","locality":"Hammelburg","municipality":{"key":"09672127","name":"Hammelburg, St","type":"Stadt"},"district":{"key":"09672","name":"Bad Kissingen","type":"Landkreis"},"federalState":{"key":"09","name":"Bayern"}},{"name":"Am Heroldsberg","postalCode":"97762","locality":"Hammelburg","municipality":{"key":"09672127","name":"Hammelburg, St","type":"Stadt"},"district":{"key":"09672","name":"Bad Kissingen","type":"Landkreis"},"federalState":{"key":"09","name":"Bayern"}},{"name":"Am Kirchberg","postalCode":"97762","locality":"Hammelburg","municipality":{"key":"09672127","name":"Hammelburg, St","type":"Stadt"},"district":{"key":"09672","name":"Bad Kissingen","type":"Landkreis"},"federalState":{"key":"09","name":"Bayern"}},{"name":"Am Kohlbrunnen","postalCode":"97762","locality":"Hammelburg","municipality":{"key":"09672127","name":"Hammelburg, St","type":"Stadt"},"district":{"key":"09672","name":"Bad Kissingen","type":"Landkreis"},"federalState":{"key":"09","name":"Bayern"}},{"name":"Am Lindenberg","postalCode":"97762","locality":"Hammelburg","municipality":{"key":"09672127","name":"Hammelburg, St","type":"Stadt"},"district":{"key":"09672","name":"Bad Kissingen","type":"Landkreis"},"federalState":{"key":"09","name":"Bayern"}},{"name":"Am Marktplatz","postalCode":"97762","locality":"Hammelburg","municipality":{"key":"09672127","name":"Hammelburg, St","type":"Stadt"},"district":{"key":"09672","name":"Bad Kissingen","type":"Landkreis"},"federalState":{"key":"09","name":"Bayern"}},{"name":"Am Neuenberg","postalCode":"97762","locality":"Hammelburg","municipality":{"key":"09672127","name":"Hammelburg, St","type":"Stadt"},"district":{"key":"09672","name":"Bad Kissingen","type":"Landkreis"},"federalState":{"key":"09","name":"Bayern"}},{"name":"Am Neuenstein","postalCode":"97762","locality":"Hammelburg","municipality":{"key":"09672127","name":"Hammelburg, St","type":"Stadt"},"district":{"key":"09672","name":"Bad Kissingen","type":"Landkreis"},"federalState":{"key":"09","name":"Bayern"}},{"name":"Am Pfarrsacker","postalCode":"97762","locality":"Hammelburg","municipality":{"key":"09672127","name":"Hammelburg, St","type":"Stadt"},"district":{"key":"09672","name":"Bad Kissingen","type":"Landkreis"},"federalState":{"key":"09","name":"Bayern"}},{"name":"Am Reesbergweg","postalCode":"97762","locality":"Hammelburg","municipality":{"key":"09672127","name":"Hammelburg, St","type":"Stadt"},"district":{"key":"09672","name":"Bad Kissingen","type":"Landkreis"},"federalState":{"key":"09","name":"Bayern"}},{"name":"Am Reidelberg","postalCode":"97762","locality":"Hammelburg","municipality":{"key":"09672127","name":"Hammelburg, St","type":"Stadt"},"district":{"key":"09672","name":"Bad Kissingen","type":"Landkreis"},"federalState":{"key":"09","name":"Bayern"}},{"name":"Am Rod","postalCode":"97762","locality":"Hammelburg","municipality":{"key":"09672127","name":"Hammelburg, St","type":"Stadt"},"district":{"key":"09672","name":"Bad Kissingen","type":"Landkreis"},"federalState":{"key":"09","name":"Bayern"}},{"name":"Am Rothenstein","postalCode":"97762","locality":"Hammelburg","municipality":{"key":"09672127","name":"Hammelburg, St","type":"Stadt"},"district":{"key":"09672","name":"Bad Kissingen","type":"Landkreis"},"federalState":{"key":"09","name":"Bayern"}},{"name":"Am Schafberg","postalCode":"97762","locality":"Hammelburg","municipality":{"key":"09672127","name":"Hammelburg, St","type":"Stadt"},"district":{"key":"09672","name":"Bad Kissingen","type":"Landkreis"},"federalState":{"key":"09","name":"Bayern"}},{"name":"Am Schafhof","postalCode":"97762","locality":"Hammelburg","municipality":{"key":"09672127","name":"Hammelburg, St","type":"Stadt"},"district":{"key":"09672","name":"Bad Kissingen","type":"Landkreis"},"federalState":{"key":"09","name":"Bayern"}},{"name":"Am See","postalCode":"97762","locality":"Hammelburg","municipality":{"key":"09672127","name":"Hammelburg, St","type":"Stadt"},"district":{"key":"09672","name":"Bad Kissingen","type":"Landkreis"},"federalState":{"key":"09","name":"Bayern"}},{"name":"Amselweg","postalCode":"97762","locality":"Hammelburg","municipality":{"key":"09672127","name":"Hammelburg, St","type":"Stadt"},"district":{"key":"09672","name":"Bad Kissingen","type":"Landkreis"},"federalState":{"key":"09","name":"Bayern"}},{"name":"Am Sportzentrum","postalCode":"97762","locality":"Hammelburg","municipality":{"key":"09672127","name":"Hammelburg, St","type":"Stadt"},"district":{"key":"09672","name":"Bad Kissingen","type":"Landkreis"},"federalState":{"key":"09","name":"Bayern"}},{"name":"Am Stiegel","postalCode":"97762","locality":"Hammelburg","municipality":{"key":"09672127","name":"Hammelburg, St","type":"Stadt"},"district":{"key":"09672","name":"Bad Kissingen","type":"Landkreis"},"federalState":{"key":"09","name":"Bayern"}},{"name":"Am Sturmiusberg","postalCode":"97762","locality":"Hammelburg","municipality":{"key":"09672127","name":"Hammelburg, St","type":"Stadt"},"district":{"key":"09672","name":"Bad Kissingen","type":"Landkreis"},"federalState":{"key":"09","name":"Bayern"}},{"name":"Am Viehmarkt","postalCode":"97762","locality":"Hammelburg","municipality":{"key":"09672127","name":"Hammelburg, St","type":"Stadt"},"district":{"key":"09672","name":"Bad Kissingen","type":"Landkreis"},"federalState":{"key":"09","name":"Bayern"}},{"name":"Am Weiher","postalCode":"97762","locality":"Hammelburg","municipality":{"key":"09672127","name":"Hammelburg, St","type":"Stadt"},"district":{"key":"09672","name":"Bad Kissingen","type":"Landkreis"},"federalState":{"key":"09","name":"Bayern"}},{"name":"Am Weihertorplatz","postalCode":"97762","locality":"Hammelburg","municipality":{"key":"09672127","name":"Hammelburg, St","type":"Stadt"},"district":{"key":"09672","name":"Bad Kissingen","type":"Landkreis"},"federalState":{"key":"09","name":"Bayern"}},{"name":"Am Wurmberg","postalCode":"97762","locality":"Hammelburg","municipality":{"key":"09672127","name":"Hammelburg, St","type":"Stadt"},"district":{"key":"09672","name":"Bad Kissingen","type":"Landkreis"},"federalState":{"key":"09","name":"Bayern"}},{"name":"An den Kapellenäckern","postalCode":"97762","locality":"Hammelburg","municipality":{"key":"09672127","name":"Hammelburg, St","type":"Stadt"},"district":{"key":"09672","name":"Bad Kissingen","type":"Landkreis"},"federalState":{"key":"09","name":"Bayern"}},{"name":"An der Eich","postalCode":"97762","locality":"Hammelburg","municipality":{"key":"09672127","name":"Hammelburg, St","type":"Stadt"},"district":{"key":"09672","name":"Bad Kissingen","type":"Landkreis"},"federalState":{"key":"09","name":"Bayern"}},{"name":"An der Erthalhalle","postalCode":"97762","locality":"Hammelburg","municipality":{"key":"09672127","name":"Hammelburg, St","type":"Stadt"},"district":{"key":"09672","name":"Bad Kissingen","type":"Landkreis"},"federalState":{"key":"09","name":"Bayern"}},{"name":"An der Leite","postalCode":"97762","locality":"Hammelburg","municipality":{"key":"09672127","name":"Hammelburg, St","type":"Stadt"},"district":{"key":"09672","name":"Bad Kissingen","type":"Landkreis"},"federalState":{"key":"09","name":"Bayern"}},{"name":"An der Thulba","postalCode":"97762","locality":"Hammelburg","municipality":{"key":"09672127","name":"Hammelburg, St","type":"Stadt"},"district":{"key":"09672","name":"Bad Kissingen","type":"Landkreis"},"federalState":{"key":"09","name":"Bayern"}},{"name":"An der Walkmühle","postalCode":"97762","locality":"Hammelburg","municipality":{"key":"09672127","name":"Hammelburg, St","type":"Stadt"},"district":{"key":"09672","name":"Bad Kissingen","type":"Landkreis"},"federalState":{"key":"09","name":"Bayern"}},{"name":"Angelgasse","postalCode":"97762","locality":"Hammelburg","municipality":{"key":"09672127","name":"Hammelburg, St","type":"Stadt"},"district":{"key":"09672","name":"Bad Kissingen","type":"Landkreis"},"federalState":{"key":"09","name":"Bayern"}},{"name":"Bachgasse","postalCode":"97762","locality":"Hammelburg","municipality":{"key":"09672127","name":"Hammelburg, St","type":"Stadt"},"district":{"key":"09672","name":"Bad Kissingen","type":"Landkreis"},"federalState":{"key":"09","name":"Bayern"}},{"name":"Bachweinbergweg","postalCode":"97762","locality":"Hammelburg","municipality":{"key":"09672127","name":"Hammelburg, St","type":"Stadt"},"district":{"key":"09672","name":"Bad Kissingen","type":"Landkreis"},"federalState":{"key":"09","name":"Bayern"}},{"name":"Bahnhofstr.","postalCode":"97762","locality":"Hammelburg","municipality":{"key":"09672127","name":"Hammelburg, St","type":"Stadt"},"district":{"key":"09672","name":"Bad Kissingen","type":"Landkreis"},"federalState":{"key":"09","name":"Bayern"}},{"name":"Bahnweg","postalCode":"97762","locality":"Hammelburg","municipality":{"key":"09672127","name":"Hammelburg, St","type":"Stadt"},"district":{"key":"09672","name":"Bad Kissingen","type":"Landkreis"},"federalState":{"key":"09","name":"Bayern"}},{"name":"Bamberger Str.","postalCode":"97762","locality":"Hammelburg","municipality":{"key":"09672127","name":"Hammelburg, St","type":"Stadt"},"district":{"key":"09672","name":"Bad Kissingen","type":"Landkreis"},"federalState":{"key":"09","name":"Bayern"}},{"name":"Basaltstr.","postalCode":"97762","locality":"Hammelburg","municipality":{"key":"09672127","name":"Hammelburg, St","type":"Stadt"},"district":{"key":"09672","name":"Bad Kissingen","type":"Landkreis"},"federalState":{"key":"09","name":"Bayern"}},{"name":"Bayreuther Str.","postalCode":"97762","locality":"Hammelburg","municipality":{"key":"09672127","name":"Hammelburg, St","type":"Stadt"},"district":{"key":"09672","name":"Bad Kissingen","type":"Landkreis"},"federalState":{"key":"09","name":"Bayern"}},{"name":"Berliner Str.","postalCode":"97762","locality":"Hammelburg","municipality":{"key":"09672127","name":"Hammelburg, St","type":"Stadt"},"district":{"key":"09672","name":"Bad Kissingen","type":"Landkreis"},"federalState":{"key":"09","name":"Bayern"}},{"name":"Blumenstr.","postalCode":"97762","locality":"Hammelburg","municipality":{"key":"09672127","name":"Hammelburg, St","type":"Stadt"},"district":{"key":"09672","name":"Bad Kissingen","type":"Landkreis"},"federalState":{"key":"09","name":"Bayern"}},{"name":"Bodenäcker","postalCode":"97762","locality":"Hammelburg","municipality":{"key":"09672127","name":"Hammelburg, St","type":"Stadt"},"district":{"key":"09672","name":"Bad Kissingen","type":"Landkreis"},"federalState":{"key":"09","name":"Bayern"}},{"name":"Bonifatiusstr.","postalCode":"97762","locality":"Hammelburg","municipality":{"key":"09672127","name":"Hammelburg, St","type":"Stadt"},"district":{"key":"09672","name":"Bad Kissingen","type":"Landkreis"},"federalState":{"key":"09","name":"Bayern"}},{"name":"Breitenstein","postalCode":"97762","locality":"Hammelburg","municipality":{"key":"09672127","name":"Hammelburg, St","type":"Stadt"},"district":{"key":"09672","name":"Bad Kissingen","type":"Landkreis"},"federalState":{"key":"09","name":"Bayern"}},{"name":"Breslauer Str.","postalCode":"97762","locality":"Hammelburg","municipality":{"key":"09672127","name":"Hammelburg, St","type":"Stadt"},"district":{"key":"09672","name":"Bad Kissingen","type":"Landkreis"},"federalState":{"key":"09","name":"Bayern"}},{"name":"Brückenauer Str.","postalCode":"97762","locality":"Hammelburg","municipality":{"key":"09672127","name":"Hammelburg, St","type":"Stadt"},"district":{"key":"09672","name":"Bad Kissingen","type":"Landkreis"},"federalState":{"key":"09","name":"Bayern"}},{"name":"Brunnenweg","postalCode":"97762","locality":"Hammelburg","municipality":{"key":"09672127","name":"Hammelburg, St","type":"Stadt"},"district":{"key":"09672","name":"Bad Kissingen","type":"Landkreis"},"federalState":{"key":"09","name":"Bayern"}},{"name":"Bündweg","postalCode":"97762","locality":"Hammelburg","municipality":{"key":"09672127","name":"Hammelburg, St","type":"Stadt"},"district":{"key":"09672","name":"Bad Kissingen","type":"Landkreis"},"federalState":{"key":"09","name":"Bayern"}},{"name":"Burkardusweg","postalCode":"97762","locality":"Hammelburg","municipality":{"key":"09672127","name":"Hammelburg, St","type":"Stadt"},"district":{"key":"09672","name":"Bad Kissingen","type":"Landkreis"},"federalState":{"key":"09","name":"Bayern"}},{"name":"Coburger Str.","postalCode":"97762","locality":"Hammelburg","municipality":{"key":"09672127","name":"Hammelburg, St","type":"Stadt"},"district":{"key":"09672","name":"Bad Kissingen","type":"Landkreis"},"federalState":{"key":"09","name":"Bayern"}},{"name":"Cyriakusweg","postalCode":"97762","locality":"Hammelburg","municipality":{"key":"09672127","name":"Hammelburg, St","type":"Stadt"},"district":{"key":"09672","name":"Bad Kissingen","type":"Landkreis"},"federalState":{"key":"09","name":"Bayern"}},{"name":"Dalbergstr.","postalCode":"97762","locality":"Hammelburg","municipality":{"key":"09672127","name":"Hammelburg, St","type":"Stadt"},"district":{"key":"09672","name":"Bad Kissingen","type":"Landkreis"},"federalState":{"key":"09","name":"Bayern"}},{"name":"Danziger Str.","postalCode":"97762","locality":"Hammelburg","municipality":{"key":"09672127","name":"Hammelburg, St","type":"Stadt"},"district":{"key":"09672","name":"Bad Kissingen","type":"Landkreis"},"federalState":{"key":"09","name":"Bayern"}},{"name":"Diebacher Str.","postalCode":"97762","locality":"Hammelburg","municipality":{"key":"09672127","name":"Hammelburg, St","type":"Stadt"},"district":{"key":"09672","name":"Bad Kissingen","type":"Landkreis"},"federalState":{"key":"09","name":"Bayern"}},{"name":"Döllgasse","postalCode":"97762","locality":"Hammelburg","municipality":{"key":"09672127","name":"Hammelburg, St","type":"Stadt"},"district":{"key":"09672","name":"Bad Kissingen","type":"Landkreis"},"federalState":{"key":"09","name":"Bayern"}},{"name":"Dr.-Ewald-Str.","postalCode":"97762","locality":"Hammelburg","municipality":{"key":"09672127","name":"Hammelburg, St","type":"Stadt"},"district":{"key":"09672","name":"Bad Kissingen","type":"Landkreis"},"federalState":{"key":"09","name":"Bayern"}},{"name":"Dr.-Komp-Str.","postalCode":"97762","locality":"Hammelburg","municipality":{"key":"09672127","name":"Hammelburg, St","type":"Stadt"},"district":{"key":"09672","name":"Bad Kissingen","type":"Landkreis"},"federalState":{"key":"09","name":"Bayern"}},{"name":"Dr.-Probst-Str.","postalCode":"97762","locality":"Hammelburg","municipality":{"key":"09672127","name":"Hammelburg, St","type":"Stadt"},"district":{"key":"09672","name":"Bad Kissingen","type":"Landkreis"},"federalState":{"key":"09","name":"Bayern"}},{"name":"Dr.-Sell-Str.","postalCode":"97762","locality":"Hammelburg","municipality":{"key":"09672127","name":"Hammelburg, St","type":"Stadt"},"district":{"key":"09672","name":"Bad Kissingen","type":"Landkreis"},"federalState":{"key":"09","name":"Bayern"}},{"name":"Egerer Str.","postalCode":"97762","locality":"Hammelburg","municipality":{"key":"09672127","name":"Hammelburg, St","type":"Stadt"},"district":{"key":"09672","name":"Bad Kissingen","type":"Landkreis"},"federalState":{"key":"09","name":"Bayern"}},{"name":"ehem PzTrack","postalCode":"97762","locality":"Hammelburg","municipality":{"key":"09672127","name":"Hammelburg, St","type":"Stadt"},"district":{"key":"09672","name":"Bad Kissingen","type":"Landkreis"},"federalState":{"key":"09","name":"Bayern"}},{"name":"Eichendorffstr.","postalCode":"97762","locality":"Hammelburg","municipality":{"key":"09672127","name":"Hammelburg, St","type":"Stadt"},"district":{"key":"09672","name":"Bad Kissingen","type":"Landkreis"},"federalState":{"key":"09","name":"Bayern"}},{"name":"Elfershausener Str.","postalCode":"97762","locality":"Hammelburg","municipality":{"key":"09672127","name":"Hammelburg, St","type":"Stadt"},"district":{"key":"09672","name":"Bad Kissingen","type":"Landkreis"},"federalState":{"key":"09","name":"Bayern"}},{"name":"Elsengraben","postalCode":"97762","locality":"Hammelburg","municipality":{"key":"09672127","name":"Hammelburg, St","type":"Stadt"},"district":{"key":"09672","name":"Bad Kissingen","type":"Landkreis"},"federalState":{"key":"09","name":"Bayern"}},{"name":"Erlengasse","postalCode":"97762","locality":"Hammelburg","municipality":{"key":"09672127","name":"Hammelburg, St","type":"Stadt"},"district":{"key":"09672","name":"Bad Kissingen","type":"Landkreis"},"federalState":{"key":"09","name":"Bayern"}},{"name":"Eschenbachstr.","postalCode":"97762","locality":"Hammelburg","municipality":{"key":"09672127","name":"Hammelburg, St","type":"Stadt"},"district":{"key":"09672","name":"Bad Kissingen","type":"Landkreis"},"federalState":{"key":"09","name":"Bayern"}},{"name":"Eschenthalstr.","postalCode":"97762","locality":"Hammelburg","municipality":{"key":"09672127","name":"Hammelburg, St","type":"Stadt"},"district":{"key":"09672","name":"Bad Kissingen","type":"Landkreis"},"federalState":{"key":"09","name":"Bayern"}},{"name":"Eselspfad","postalCode":"97762","locality":"Hammelburg","municipality":{"key":"09672127","name":"Hammelburg, St","type":"Stadt"},"district":{"key":"09672","name":"Bad Kissingen","type":"Landkreis"},"federalState":{"key":"09","name":"Bayern"}},{"name":"Faulstiegstr.","postalCode":"97762","locality":"Hammelburg","municipality":{"key":"09672127","name":"Hammelburg, St","type":"Stadt"},"district":{"key":"09672","name":"Bad Kissingen","type":"Landkreis"},"federalState":{"key":"09","name":"Bayern"}},{"name":"Feuerthaler Str.","postalCode":"97762","locality":"Hammelburg","municipality":{"key":"09672127","name":"Hammelburg, St","type":"Stadt"},"district":{"key":"09672","name":"Bad Kissingen","type":"Landkreis"},"federalState":{"key":"09","name":"Bayern"}},{"name":"Fischergasse","postalCode":"97762","locality":"Hammelburg","municipality":{"key":"09672127","name":"Hammelburg, St","type":"Stadt"},"district":{"key":"09672","name":"Bad Kissingen","type":"Landkreis"},"federalState":{"key":"09","name":"Bayern"}},{"name":"Flachsacker","postalCode":"97762","locality":"Hammelburg","municipality":{"key":"09672127","name":"Hammelburg, St","type":"Stadt"},"district":{"key":"09672","name":"Bad Kissingen","type":"Landkreis"},"federalState":{"key":"09","name":"Bayern"}},{"name":"Formalausbildungsplatz","postalCode":"97762","locality":"Hammelburg","municipality":{"key":"09672127","name":"Hammelburg, St","type":"Stadt"},"district":{"key":"09672","name":"Bad Kissingen","type":"Landkreis"},"federalState":{"key":"09","name":"Bayern"}},{"name":"Franz-Bindrum-Weg","postalCode":"97762","locality":"Hammelburg","municipality":{"key":"09672127","name":"Hammelburg, St","type":"Stadt"},"district":{"key":"09672","name":"Bad Kissingen","type":"Landkreis"},"federalState":{"key":"09","name":"Bayern"}},{"name":"Freihof","postalCode":"97762","locality":"Hammelburg","municipality":{"key":"09672127","name":"Hammelburg, St","type":"Stadt"},"district":{"key":"09672","name":"Bad Kissingen","type":"Landkreis"},"federalState":{"key":"09","name":"Bayern"}},{"name":"Friedhofstr.","postalCode":"97762","locality":"Hammelburg","municipality":{"key":"09672127","name":"Hammelburg, St","type":"Stadt"},"district":{"key":"09672","name":"Bad Kissingen","type":"Landkreis"},"federalState":{"key":"09","name":"Bayern"}},{"name":"Friedrich-Müller-Str.","postalCode":"97762","locality":"Hammelburg","municipality":{"key":"09672127","name":"Hammelburg, St","type":"Stadt"},"district":{"key":"09672","name":"Bad Kissingen","type":"Landkreis"},"federalState":{"key":"09","name":"Bayern"}},{"name":"Frobeniusstr.","postalCode":"97762","locality":"Hammelburg","municipality":{"key":"09672127","name":"Hammelburg, St","type":"Stadt"},"district":{"key":"09672","name":"Bad Kissingen","type":"Landkreis"},"federalState":{"key":"09","name":"Bayern"}},{"name":"Frühlingsstr.","postalCode":"97762","locality":"Hammelburg","municipality":{"key":"09672127","name":"Hammelburg, St","type":"Stadt"},"district":{"key":"09672","name":"Bad Kissingen","type":"Landkreis"},"federalState":{"key":"09","name":"Bayern"}},{"name":"Fuchsstadter Weg","postalCode":"97762","locality":"Hammelburg","municipality":{"key":"09672127","name":"Hammelburg, St","type":"Stadt"},"district":{"key":"09672","name":"Bad Kissingen","type":"Landkreis"},"federalState":{"key":"09","name":"Bayern"}},{"name":"Fuhrmannsgasse","postalCode":"97762","locality":"Hammelburg","municipality":{"key":"09672127","name":"Hammelburg, St","type":"Stadt"},"district":{"key":"09672","name":"Bad Kissingen","type":"Landkreis"},"federalState":{"key":"09","name":"Bayern"}},{"name":"Fuldaer Str.","postalCode":"97762","locality":"Hammelburg","municipality":{"key":"09672127","name":"Hammelburg, St","type":"Stadt"},"district":{"key":"09672","name":"Bad Kissingen","type":"Landkreis"},"federalState":{"key":"09","name":"Bayern"}},{"name":"Galgenberg","postalCode":"97762","locality":"Hammelburg","municipality":{"key":"09672127","name":"Hammelburg, St","type":"Stadt"},"district":{"key":"09672","name":"Bad Kissingen","type":"Landkreis"},"federalState":{"key":"09","name":"Bayern"}},{"name":"Galmbacherstr.","postalCode":"97762","locality":"Hammelburg","municipality":{"key":"09672127","name":"Hammelburg, St","type":"Stadt"},"district":{"key":"09672","name":"Bad Kissingen","type":"Landkreis"},"federalState":{"key":"09","name":"Bayern"}},{"name":"Gartenstr.","postalCode":"97762","locality":"Hammelburg","municipality":{"key":"09672127","name":"Hammelburg, St","type":"Stadt"},"district":{"key":"09672","name":"Bad Kissingen","type":"Landkreis"},"federalState":{"key":"09","name":"Bayern"}},{"name":"Gauaschacher Str.","postalCode":"97762","locality":"Hammelburg","municipality":{"key":"09672127","name":"Hammelburg, St","type":"Stadt"},"district":{"key":"09672","name":"Bad Kissingen","type":"Landkreis"},"federalState":{"key":"09","name":"Bayern"}},{"name":"Gäulsgasse","postalCode":"97762","locality":"Hammelburg","municipality":{"key":"09672127","name":"Hammelburg, St","type":"Stadt"},"district":{"key":"09672","name":"Bad Kissingen","type":"Landkreis"},"federalState":{"key":"09","name":"Bayern"}},{"name":"Gebrüder-Schnack-Str.","postalCode":"97762","locality":"Hammelburg","municipality":{"key":"09672127","name":"Hammelburg, St","type":"Stadt"},"district":{"key":"09672","name":"Bad Kissingen","type":"Landkreis"},"federalState":{"key":"09","name":"Bayern"}},{"name":"Georg-Horn-Str.","postalCode":"97762","locality":"Hammelburg","municipality":{"key":"09672127","name":"Hammelburg, St","type":"Stadt"},"district":{"key":"09672","name":"Bad Kissingen","type":"Landkreis"},"federalState":{"key":"09","name":"Bayern"}},{"name":"Gommersberger Str.","postalCode":"97762","locality":"Hammelburg","municipality":{"key":"09672127","name":"Hammelburg, St","type":"Stadt"},"district":{"key":"09672","name":"Bad Kissingen","type":"Landkreis"},"federalState":{"key":"09","name":"Bayern"}},{"name":"Gösselberg","postalCode":"97762","locality":"Hammelburg","municipality":{"key":"09672127","name":"Hammelburg, St","type":"Stadt"},"district":{"key":"09672","name":"Bad Kissingen","type":"Landkreis"},"federalState":{"key":"09","name":"Bayern"}},{"name":"Gregor-Stolz-Str.","postalCode":"97762","locality":"Hammelburg","municipality":{"key":"09672127","name":"Hammelburg, St","type":"Stadt"},"district":{"key":"09672","name":"Bad Kissingen","type":"Landkreis"},"federalState":{"key":"09","name":"Bayern"}},{"name":"Grenzstr.","postalCode":"97762","locality":"Hammelburg","municipality":{"key":"09672127","name":"Hammelburg, St","type":"Stadt"},"district":{"key":"09672","name":"Bad Kissingen","type":"Landkreis"},"federalState":{"key":"09","name":"Bayern"}},{"name":"Grundweg","postalCode":"97762","locality":"Hammelburg","municipality":{"key":"09672127","name":"Hammelburg, St","type":"Stadt"},"district":{"key":"09672","name":"Bad Kissingen","type":"Landkreis"},"federalState":{"key":"09","name":"Bayern"}},{"name":"Gutenbergstr.","postalCode":"97762","locality":"Hammelburg","municipality":{"key":"09672127","name":"Hammelburg, St","type":"Stadt"},"district":{"key":"09672","name":"Bad Kissingen","type":"Landkreis"},"federalState":{"key":"09","name":"Bayern"}},{"name":"Häfnerstr.","postalCode":"97762","locality":"Hammelburg","municipality":{"key":"09672127","name":"Hammelburg, St","type":"Stadt"},"district":{"key":"09672","name":"Bad Kissingen","type":"Landkreis"},"federalState":{"key":"09","name":"Bayern"}},{"name":"Hedanstr.","postalCode":"97762","locality":"Hammelburg","municipality":{"key":"09672127","name":"Hammelburg, St","type":"Stadt"},"district":{"key":"09672","name":"Bad Kissingen","type":"Landkreis"},"federalState":{"key":"09","name":"Bayern"}},{"name":"Heergraben","postalCode":"97762","locality":"Hammelburg","municipality":{"key":"09672127","name":"Hammelburg, St","type":"Stadt"},"district":{"key":"09672","name":"Bad Kissingen","type":"Landkreis"},"federalState":{"key":"09","name":"Bayern"}},{"name":"Heerweg","postalCode":"97762","locality":"Hammelburg","municipality":{"key":"09672127","name":"Hammelburg, St","type":"Stadt"},"district":{"key":"09672","name":"Bad Kissingen","type":"Landkreis"},"federalState":{"key":"09","name":"Bayern"}},{"name":"Heiligenbaum","postalCode":"97762","locality":"Hammelburg","municipality":{"key":"09672127","name":"Hammelburg, St","type":"Stadt"},"district":{"key":"09672","name":"Bad Kissingen","type":"Landkreis"},"federalState":{"key":"09","name":"Bayern"}},{"name":"Heinrich-Ullrich-Str.","postalCode":"97762","locality":"Hammelburg","municipality":{"key":"09672127","name":"Hammelburg, St","type":"Stadt"},"district":{"key":"09672","name":"Bad Kissingen","type":"Landkreis"},"federalState":{"key":"09","name":"Bayern"}},{"name":"Henneberger Weg","postalCode":"97762","locality":"Hammelburg","municipality":{"key":"09672127","name":"Hammelburg, St","type":"Stadt"},"district":{"key":"09672","name":"Bad Kissingen","type":"Landkreis"},"federalState":{"key":"09","name":"Bayern"}},{"name":"Hinter den Zäunen","postalCode":"97762","locality":"Hammelburg","municipality":{"key":"09672127","name":"Hammelburg, St","type":"Stadt"},"district":{"key":"09672","name":"Bad Kissingen","type":"Landkreis"},"federalState":{"key":"09","name":"Bayern"}},{"name":"Hinterm Dorf","postalCode":"97762","locality":"Hammelburg","municipality":{"key":"09672127","name":"Hammelburg, St","type":"Stadt"},"district":{"key":"09672","name":"Bad Kissingen","type":"Landkreis"},"federalState":{"key":"09","name":"Bayern"}},{"name":"Hofstatt","postalCode":"97762","locality":"Hammelburg","municipality":{"key":"09672127","name":"Hammelburg, St","type":"Stadt"},"district":{"key":"09672","name":"Bad Kissingen","type":"Landkreis"},"federalState":{"key":"09","name":"Bayern"}},{"name":"Hundsfelder Str.","postalCode":"97762","locality":"Hammelburg","municipality":{"key":"09672127","name":"Hammelburg, St","type":"Stadt"},"district":{"key":"09672","name":"Bad Kissingen","type":"Landkreis"},"federalState":{"key":"09","name":"Bayern"}},{"name":"Im Korreusen","postalCode":"97762","locality":"Hammelburg","municipality":{"key":"09672127","name":"Hammelburg, St","type":"Stadt"},"district":{"key":"09672","name":"Bad Kissingen","type":"Landkreis"},"federalState":{"key":"09","name":"Bayern"}},{"name":"Johannes-Martin-Siedlung","postalCode":"97762","locality":"Hammelburg","municipality":{"key":"09672127","name":"Hammelburg, St","type":"Stadt"},"district":{"key":"09672","name":"Bad Kissingen","type":"Landkreis"},"federalState":{"key":"09","name":"Bayern"}},{"name":"Johann-Nepomuk-Str.","postalCode":"97762","locality":"Hammelburg","municipality":{"key":"09672127","name":"Hammelburg, St","type":"Stadt"},"district":{"key":"09672","name":"Bad Kissingen","type":"Landkreis"},"federalState":{"key":"09","name":"Bayern"}},{"name":"Josef-Bott-Str.","postalCode":"97762","locality":"Hammelburg","municipality":{"key":"09672127","name":"Hammelburg, St","type":"Stadt"},"district":{"key":"09672","name":"Bad Kissingen","type":"Landkreis"},"federalState":{"key":"09","name":"Bayern"}},{"name":"Josef-Schultheis-Str.","postalCode":"97762","locality":"Hammelburg","municipality":{"key":"09672127","name":"Hammelburg, St","type":"Stadt"},"district":{"key":"09672","name":"Bad Kissingen","type":"Landkreis"},"federalState":{"key":"09","name":"Bayern"}},{"name":"Judengasse","postalCode":"97762","locality":"Hammelburg","municipality":{"key":"09672127","name":"Hammelburg, St","type":"Stadt"},"district":{"key":"09672","name":"Bad Kissingen","type":"Landkreis"},"federalState":{"key":"09","name":"Bayern"}},{"name":"Julius-Bayer-Str.","postalCode":"97762","locality":"Hammelburg","municipality":{"key":"09672127","name":"Hammelburg, St","type":"Stadt"},"district":{"key":"09672","name":"Bad Kissingen","type":"Landkreis"},"federalState":{"key":"09","name":"Bayern"}},{"name":"Julius-Echter-Str.","postalCode":"97762","locality":"Hammelburg","municipality":{"key":"09672127","name":"Hammelburg, St","type":"Stadt"},"district":{"key":"09672","name":"Bad Kissingen","type":"Landkreis"},"federalState":{"key":"09","name":"Bayern"}},{"name":"Junkerstr.","postalCode":"97762","locality":"Hammelburg","municipality":{"key":"09672127","name":"Hammelburg, St","type":"Stadt"},"district":{"key":"09672","name":"Bad Kissingen","type":"Landkreis"},"federalState":{"key":"09","name":"Bayern"}},{"name":"Kantstr.","postalCode":"97762","locality":"Hammelburg","municipality":{"key":"09672127","name":"Hammelburg, St","type":"Stadt"},"district":{"key":"09672","name":"Bad Kissingen","type":"Landkreis"},"federalState":{"key":"09","name":"Bayern"}},{"name":"Kappellenweg","postalCode":"97762","locality":"Hammelburg","municipality":{"key":"09672127","name":"Hammelburg, St","type":"Stadt"},"district":{"key":"09672","name":"Bad Kissingen","type":"Landkreis"},"federalState":{"key":"09","name":"Bayern"}},{"name":"Karl-Kaiser-Str.","postalCode":"97762","locality":"Hammelburg","municipality":{"key":"09672127","name":"Hammelburg, St","type":"Stadt"},"district":{"key":"09672","name":"Bad Kissingen","type":"Landkreis"},"federalState":{"key":"09","name":"Bayern"}},{"name":"Karlsbader Str.","postalCode":"97762","locality":"Hammelburg","municipality":{"key":"09672127","name":"Hammelburg, St","type":"Stadt"},"district":{"key":"09672","name":"Bad Kissingen","type":"Landkreis"},"federalState":{"key":"09","name":"Bayern"}},{"name":"Kellergasse","postalCode":"97762","locality":"Hammelburg","municipality":{"key":"09672127","name":"Hammelburg, St","type":"Stadt"},"district":{"key":"09672","name":"Bad Kissingen","type":"Landkreis"},"federalState":{"key":"09","name":"Bayern"}},{"name":"Kilianstr.","postalCode":"97762","locality":"Hammelburg","municipality":{"key":"09672127","name":"Hammelburg, St","type":"Stadt"},"district":{"key":"09672","name":"Bad Kissingen","type":"Landkreis"},"federalState":{"key":"09","name":"Bayern"}},{"name":"Kirchgasse","postalCode":"97762","locality":"Hammelburg","municipality":{"key":"09672127","name":"Hammelburg, St","type":"Stadt"},"district":{"key":"09672","name":"Bad Kissingen","type":"Landkreis"},"federalState":{"key":"09","name":"Bayern"}},{"name":"Kirchgrundsiedlung","postalCode":"97762","locality":"Hammelburg","municipality":{"key":"09672127","name":"Hammelburg, St","type":"Stadt"},"district":{"key":"09672","name":"Bad Kissingen","type":"Landkreis"},"federalState":{"key":"09","name":"Bayern"}},{"name":"Kissinger Str.","postalCode":"97762","locality":"Hammelburg","municipality":{"key":"09672127","name":"Hammelburg, St","type":"Stadt"},"district":{"key":"09672","name":"Bad Kissingen","type":"Landkreis"},"federalState":{"key":"09","name":"Bayern"}},{"name":"Klingenbachweg","postalCode":"97762","locality":"Hammelburg","municipality":{"key":"09672127","name":"Hammelburg, St","type":"Stadt"},"district":{"key":"09672","name":"Bad Kissingen","type":"Landkreis"},"federalState":{"key":"09","name":"Bayern"}},{"name":"Klosterstr.","postalCode":"97762","locality":"Hammelburg","municipality":{"key":"09672127","name":"Hammelburg, St","type":"Stadt"},"district":{"key":"09672","name":"Bad Kissingen","type":"Landkreis"},"federalState":{"key":"09","name":"Bayern"}},{"name":"Kobelstr.","postalCode":"97762","locality":"Hammelburg","municipality":{"key":"09672127","name":"Hammelburg, St","type":"Stadt"},"district":{"key":"09672","name":"Bad Kissingen","type":"Landkreis"},"federalState":{"key":"09","name":"Bayern"}},{"name":"Königsberger Str.","postalCode":"97762","locality":"Hammelburg","municipality":{"key":"09672127","name":"Hammelburg, St","type":"Stadt"},"district":{"key":"09672","name":"Bad Kissingen","type":"Landkreis"},"federalState":{"key":"09","name":"Bayern"}},{"name":"Krämergasse","postalCode":"97762","locality":"Hammelburg","municipality":{"key":"09672127","name":"Hammelburg, St","type":"Stadt"},"district":{"key":"09672","name":"Bad Kissingen","type":"Landkreis"},"federalState":{"key":"09","name":"Bayern"}},{"name":"Kreuzgewänd","postalCode":"97762","locality":"Hammelburg","municipality":{"key":"09672127","name":"Hammelburg, St","type":"Stadt"},"district":{"key":"09672","name":"Bad Kissingen","type":"Landkreis"},"federalState":{"key":"09","name":"Bayern"}},{"name":"Kreuzstr.","postalCode":"97762","locality":"Hammelburg","municipality":{"key":"09672127","name":"Hammelburg, St","type":"Stadt"},"district":{"key":"09672","name":"Bad Kissingen","type":"Landkreis"},"federalState":{"key":"09","name":"Bayern"}},{"name":"Krötengasse","postalCode":"97762","locality":"Hammelburg","municipality":{"key":"09672127","name":"Hammelburg, St","type":"Stadt"},"district":{"key":"09672","name":"Bad Kissingen","type":"Landkreis"},"federalState":{"key":"09","name":"Bayern"}},{"name":"Langenacker Weg","postalCode":"97762","locality":"Hammelburg","municipality":{"key":"09672127","name":"Hammelburg, St","type":"Stadt"},"district":{"key":"09672","name":"Bad Kissingen","type":"Landkreis"},"federalState":{"key":"09","name":"Bayern"}},{"name":"Langer Graben","postalCode":"97762","locality":"Hammelburg","municipality":{"key":"09672127","name":"Hammelburg, St","type":"Stadt"},"district":{"key":"09672","name":"Bad Kissingen","type":"Landkreis"},"federalState":{"key":"09","name":"Bayern"}},{"name":"Laurenz-Koch-Str.","postalCode":"97762","locality":"Hammelburg","municipality":{"key":"09672127","name":"Hammelburg, St","type":"Stadt"},"district":{"key":"09672","name":"Bad Kissingen","type":"Landkreis"},"federalState":{"key":"09","name":"Bayern"}},{"name":"Leitenberg","postalCode":"97762","locality":"Hammelburg","municipality":{"key":"09672127","name":"Hammelburg, St","type":"Stadt"},"district":{"key":"09672","name":"Bad Kissingen","type":"Landkreis"},"federalState":{"key":"09","name":"Bayern"}},{"name":"Lerchenweg","postalCode":"97762","locality":"Hammelburg","municipality":{"key":"09672127","name":"Hammelburg, St","type":"Stadt"},"district":{"key":"09672","name":"Bad Kissingen","type":"Landkreis"},"federalState":{"key":"09","name":"Bayern"}},{"name":"Lindengasse","postalCode":"97762","locality":"Hammelburg","municipality":{"key":"09672127","name":"Hammelburg, St","type":"Stadt"},"district":{"key":"09672","name":"Bad Kissingen","type":"Landkreis"},"federalState":{"key":"09","name":"Bayern"}},{"name":"Lindenrainstr.","postalCode":"97762","locality":"Hammelburg","municipality":{"key":"09672127","name":"Hammelburg, St","type":"Stadt"},"district":{"key":"09672","name":"Bad Kissingen","type":"Landkreis"},"federalState":{"key":"09","name":"Bayern"}},{"name":"Linsenberg","postalCode":"97762","locality":"Hammelburg","municipality":{"key":"09672127","name":"Hammelburg, St","type":"Stadt"},"district":{"key":"09672","name":"Bad Kissingen","type":"Landkreis"},"federalState":{"key":"09","name":"Bayern"}},{"name":"Losenbach","postalCode":"97762","locality":"Hammelburg","municipality":{"key":"09672127","name":"Hammelburg, St","type":"Stadt"},"district":{"key":"09672","name":"Bad Kissingen","type":"Landkreis"},"federalState":{"key":"09","name":"Bayern"}},{"name":"Löwengasse","postalCode":"97762","locality":"Hammelburg","municipality":{"key":"09672127","name":"Hammelburg, St","type":"Stadt"},"district":{"key":"09672","name":"Bad Kissingen","type":"Landkreis"},"federalState":{"key":"09","name":"Bayern"}},{"name":"Ludwigstr.","postalCode":"97762","locality":"Hammelburg","municipality":{"key":"09672127","name":"Hammelburg, St","type":"Stadt"},"district":{"key":"09672","name":"Bad Kissingen","type":"Landkreis"},"federalState":{"key":"09","name":"Bayern"}},{"name":"Malteserstr.","postalCode":"97762","locality":"Hammelburg","municipality":{"key":"09672127","name":"Hammelburg, St","type":"Stadt"},"district":{"key":"09672","name":"Bad Kissingen","type":"Landkreis"},"federalState":{"key":"09","name":"Bayern"}},{"name":"Marienbader Str.","postalCode":"97762","locality":"Hammelburg","municipality":{"key":"09672127","name":"Hammelburg, St","type":"Stadt"},"district":{"key":"09672","name":"Bad Kissingen","type":"Landkreis"},"federalState":{"key":"09","name":"Bayern"}},{"name":"Martin-Luther-Weg","postalCode":"97762","locality":"Hammelburg","municipality":{"key":"09672127","name":"Hammelburg, St","type":"Stadt"},"district":{"key":"09672","name":"Bad Kissingen","type":"Landkreis"},"federalState":{"key":"09","name":"Bayern"}},{"name":"Martinstr.","postalCode":"97762","locality":"Hammelburg","municipality":{"key":"09672127","name":"Hammelburg, St","type":"Stadt"},"district":{"key":"09672","name":"Bad Kissingen","type":"Landkreis"},"federalState":{"key":"09","name":"Bayern"}},{"name":"Mauerweg","postalCode":"97762","locality":"Hammelburg","municipality":{"key":"09672127","name":"Hammelburg, St","type":"Stadt"},"district":{"key":"09672","name":"Bad Kissingen","type":"Landkreis"},"federalState":{"key":"09","name":"Bayern"}},{"name":"Mehlgasse","postalCode":"97762","locality":"Hammelburg","municipality":{"key":"09672127","name":"Hammelburg, St","type":"Stadt"},"district":{"key":"09672","name":"Bad Kissingen","type":"Landkreis"},"federalState":{"key":"09","name":"Bayern"}},{"name":"Michaelsweg","postalCode":"97762","locality":"Hammelburg","municipality":{"key":"09672127","name":"Hammelburg, St","type":"Stadt"},"district":{"key":"09672","name":"Bad Kissingen","type":"Landkreis"},"federalState":{"key":"09","name":"Bayern"}},{"name":"Michelbachweg","postalCode":"97762","locality":"Hammelburg","municipality":{"key":"09672127","name":"Hammelburg, St","type":"Stadt"},"district":{"key":"09672","name":"Bad Kissingen","type":"Landkreis"},"federalState":{"key":"09","name":"Bayern"}},{"name":"Miltenberger Str.","postalCode":"97762","locality":"Hammelburg","municipality":{"key":"09672127","name":"Hammelburg, St","type":"Stadt"},"district":{"key":"09672","name":"Bad Kissingen","type":"Landkreis"},"federalState":{"key":"09","name":"Bayern"}},{"name":"Mittelgewänd","postalCode":"97762","locality":"Hammelburg","municipality":{"key":"09672127","name":"Hammelburg, St","type":"Stadt"},"district":{"key":"09672","name":"Bad Kissingen","type":"Landkreis"},"federalState":{"key":"09","name":"Bayern"}},{"name":"Mönchsgasse","postalCode":"97762","locality":"Hammelburg","municipality":{"key":"09672127","name":"Hammelburg, St","type":"Stadt"},"district":{"key":"09672","name":"Bad Kissingen","type":"Landkreis"},"federalState":{"key":"09","name":"Bayern"}},{"name":"Morlesauer Str.","postalCode":"97762","locality":"Hammelburg","municipality":{"key":"09672127","name":"Hammelburg, St","type":"Stadt"},"district":{"key":"09672","name":"Bad Kissingen","type":"Landkreis"},"federalState":{"key":"09","name":"Bayern"}},{"name":"MTB","postalCode":"97762","locality":"Hammelburg","municipality":{"key":"09672127","name":"Hammelburg, St","type":"Stadt"},"district":{"key":"09672","name":"Bad Kissingen","type":"Landkreis"},"federalState":{"key":"09","name":"Bayern"}},{"name":"Mühlenweg","postalCode":"97762","locality":"Hammelburg","municipality":{"key":"09672127","name":"Hammelburg, St","type":"Stadt"},"district":{"key":"09672","name":"Bad Kissingen","type":"Landkreis"},"federalState":{"key":"09","name":"Bayern"}},{"name":"Münchner Str.","postalCode":"97762","locality":"Hammelburg","municipality":{"key":"09672127","name":"Hammelburg, St","type":"Stadt"},"district":{"key":"09672","name":"Bad Kissingen","type":"Landkreis"},"federalState":{"key":"09","name":"Bayern"}},{"name":"Neubaustr.","postalCode":"97762","locality":"Hammelburg","municipality":{"key":"09672127","name":"Hammelburg, St","type":"Stadt"},"district":{"key":"09672","name":"Bad Kissingen","type":"Landkreis"},"federalState":{"key":"09","name":"Bayern"}},{"name":"Nordring","postalCode":"97762","locality":"Hammelburg","municipality":{"key":"09672127","name":"Hammelburg, St","type":"Stadt"},"district":{"key":"09672","name":"Bad Kissingen","type":"Landkreis"},"federalState":{"key":"09","name":"Bayern"}},{"name":"Nürnberger Str.","postalCode":"97762","locality":"Hammelburg","municipality":{"key":"09672127","name":"Hammelburg, St","type":"Stadt"},"district":{"key":"09672","name":"Bad Kissingen","type":"Landkreis"},"federalState":{"key":"09","name":"Bayern"}},{"name":"Obere Au","postalCode":"97762","locality":"Hammelburg","municipality":{"key":"09672127","name":"Hammelburg, St","type":"Stadt"},"district":{"key":"09672","name":"Bad Kissingen","type":"Landkreis"},"federalState":{"key":"09","name":"Bayern"}},{"name":"Obere Stadtmauer","postalCode":"97762","locality":"Hammelburg","municipality":{"key":"09672127","name":"Hammelburg, St","type":"Stadt"},"district":{"key":"09672","name":"Bad Kissingen","type":"Landkreis"},"federalState":{"key":"09","name":"Bayern"}},{"name":"Oberfelder Str.","postalCode":"97762","locality":"Hammelburg","municipality":{"key":"09672127","name":"Hammelburg, St","type":"Stadt"},"district":{"key":"09672","name":"Bad Kissingen","type":"Landkreis"},"federalState":{"key":"09","name":"Bayern"}},{"name":"Obertor","postalCode":"97762","locality":"Hammelburg","municipality":{"key":"09672127","name":"Hammelburg, St","type":"Stadt"},"district":{"key":"09672","name":"Bad Kissingen","type":"Landkreis"},"federalState":{"key":"09","name":"Bayern"}},{"name":"Ochsenthaler Str.","postalCode":"97762","locality":"Hammelburg","municipality":{"key":"09672127","name":"Hammelburg, St","type":"Stadt"},"district":{"key":"09672","name":"Bad Kissingen","type":"Landkreis"},"federalState":{"key":"09","name":"Bayern"}},{"name":"Ofenthaler Weg","postalCode":"97762","locality":"Hammelburg","municipality":{"key":"09672127","name":"Hammelburg, St","type":"Stadt"},"district":{"key":"09672","name":"Bad Kissingen","type":"Landkreis"},"federalState":{"key":"09","name":"Bayern"}},{"name":"Oswald-Ackermann-Weg","postalCode":"97762","locality":"Hammelburg","municipality":{"key":"09672127","name":"Hammelburg, St","type":"Stadt"},"district":{"key":"09672","name":"Bad Kissingen","type":"Landkreis"},"federalState":{"key":"09","name":"Bayern"}},{"name":"Ottenberg","postalCode":"97762","locality":"Hammelburg","municipality":{"key":"09672127","name":"Hammelburg, St","type":"Stadt"},"district":{"key":"09672","name":"Bad Kissingen","type":"Landkreis"},"federalState":{"key":"09","name":"Bayern"}},{"name":"Paulstr.","postalCode":"97762","locality":"Hammelburg","municipality":{"key":"09672127","name":"Hammelburg, St","type":"Stadt"},"district":{"key":"09672","name":"Bad Kissingen","type":"Landkreis"},"federalState":{"key":"09","name":"Bayern"}},{"name":"Petergasse","postalCode":"97762","locality":"Hammelburg","municipality":{"key":"09672127","name":"Hammelburg, St","type":"Stadt"},"district":{"key":"09672","name":"Bad Kissingen","type":"Landkreis"},"federalState":{"key":"09","name":"Bayern"}},{"name":"Pfaffenbrunnen","postalCode":"97762","locality":"Hammelburg","municipality":{"key":"09672127","name":"Hammelburg, St","type":"Stadt"},"district":{"key":"09672","name":"Bad Kissingen","type":"Landkreis"},"federalState":{"key":"09","name":"Bayern"}},{"name":"Pfaffenhausener Str.","postalCode":"97762","locality":"Hammelburg","municipality":{"key":"09672127","name":"Hammelburg, St","type":"Stadt"},"district":{"key":"09672","name":"Bad Kissingen","type":"Landkreis"},"federalState":{"key":"09","name":"Bayern"}},{"name":"Pfaffstr.","postalCode":"97762","locality":"Hammelburg","municipality":{"key":"09672127","name":"Hammelburg, St","type":"Stadt"},"district":{"key":"09672","name":"Bad Kissingen","type":"Landkreis"},"federalState":{"key":"09","name":"Bayern"}},{"name":"Quellengasse","postalCode":"97688","locality":"Bad Kissingen","municipality":{"key":"09672114","name":"Bad Kissingen, GKSt","type":"Große_Kreisstadt"},"district":{"key":"09672","name":"Bad Kissingen","type":"Landkreis"},"federalState":{"key":"09","name":"Bayern"}},{"name":"Raiffeisengasse","postalCode":"97762","locality":"Hammelburg","municipality":{"key":"09672127","name":"Hammelburg, St","type":"Stadt"},"district":{"key":"09672","name":"Bad Kissingen","type":"Landkreis"},"federalState":{"key":"09","name":"Bayern"}},{"name":"Rappertstr.","postalCode":"97762","locality":"Hammelburg","municipality":{"key":"09672127","name":"Hammelburg, St","type":"Stadt"},"district":{"key":"09672","name":"Bad Kissingen","type":"Landkreis"},"federalState":{"key":"09","name":"Bayern"}},{"name":"Reichenberger Str.","postalCode":"97762","locality":"Hammelburg","municipality":{"key":"09672127","name":"Hammelburg, St","type":"Stadt"},"district":{"key":"09672","name":"Bad Kissingen","type":"Landkreis"},"federalState":{"key":"09","name":"Bayern"}},{"name":"Renzbergstr.","postalCode":"97762","locality":"Hammelburg","municipality":{"key":"09672127","name":"Hammelburg, St","type":"Stadt"},"district":{"key":"09672","name":"Bad Kissingen","type":"Landkreis"},"federalState":{"key":"09","name":"Bayern"}},{"name":"Reppergässchen","postalCode":"97762","locality":"Hammelburg","municipality":{"key":"09672127","name":"Hammelburg, St","type":"Stadt"},"district":{"key":"09672","name":"Bad Kissingen","type":"Landkreis"},"federalState":{"key":"09","name":"Bayern"}},{"name":"Reuthweg","postalCode":"97762","locality":"Hammelburg","municipality":{"key":"09672127","name":"Hammelburg, St","type":"Stadt"},"district":{"key":"09672","name":"Bad Kissingen","type":"Landkreis"},"federalState":{"key":"09","name":"Bayern"}},{"name":"Rhönstr.","postalCode":"97762","locality":"Hammelburg","municipality":{"key":"09672127","name":"Hammelburg, St","type":"Stadt"},"district":{"key":"09672","name":"Bad Kissingen","type":"Landkreis"},"federalState":{"key":"09","name":"Bayern"}},{"name":"Rineckerstr.","postalCode":"97762","locality":"Hammelburg","municipality":{"key":"09672127","name":"Hammelburg, St","type":"Stadt"},"district":{"key":"09672","name":"Bad Kissingen","type":"Landkreis"},"federalState":{"key":"09","name":"Bayern"}},{"name":"Ritter-von-Lang-Str.","postalCode":"97762","locality":"Hammelburg","municipality":{"key":"09672127","name":"Hammelburg, St","type":"Stadt"},"district":{"key":"09672","name":"Bad Kissingen","type":"Landkreis"},"federalState":{"key":"09","name":"Bayern"}},{"name":"Rote Ellern","postalCode":"97762","locality":"Hammelburg","municipality":{"key":"09672127","name":"Hammelburg, St","type":"Stadt"},"district":{"key":"09672","name":"Bad Kissingen","type":"Landkreis"},"federalState":{"key":"09","name":"Bayern"}},{"name":"Rote-Kreuz-Str.","postalCode":"97762","locality":"Hammelburg","municipality":{"key":"09672127","name":"Hammelburg, St","type":"Stadt"},"district":{"key":"09672","name":"Bad Kissingen","type":"Landkreis"},"federalState":{"key":"09","name":"Bayern"}},{"name":"Saalegasse","postalCode":"97762","locality":"Hammelburg","municipality":{"key":"09672127","name":"Hammelburg, St","type":"Stadt"},"district":{"key":"09672","name":"Bad Kissingen","type":"Landkreis"},"federalState":{"key":"09","name":"Bayern"}},{"name":"Saaletalstr.","postalCode":"97762","locality":"Hammelburg","municipality":{"key":"09672127","name":"Hammelburg, St","type":"Stadt"},"district":{"key":"09672","name":"Bad Kissingen","type":"Landkreis"},"federalState":{"key":"09","name":"Bayern"}},{"name":"Schafgasse","postalCode":"97762","locality":"Hammelburg","municipality":{"key":"09672127","name":"Hammelburg, St","type":"Stadt"},"district":{"key":"09672","name":"Bad Kissingen","type":"Landkreis"},"federalState":{"key":"09","name":"Bayern"}},{"name":"Schauppstr.","postalCode":"97762","locality":"Hammelburg","municipality":{"key":"09672127","name":"Hammelburg, St","type":"Stadt"},"district":{"key":"09672","name":"Bad Kissingen","type":"Landkreis"},"federalState":{"key":"09","name":"Bayern"}},{"name":"Schillerweg","postalCode":"97762","locality":"Hammelburg","municipality":{"key":"09672127","name":"Hammelburg, St","type":"Stadt"},"district":{"key":"09672","name":"Bad Kissingen","type":"Landkreis"},"federalState":{"key":"09","name":"Bayern"}},{"name":"Schlerethstr.","postalCode":"97762","locality":"Hammelburg","municipality":{"key":"09672127","name":"Hammelburg, St","type":"Stadt"},"district":{"key":"09672","name":"Bad Kissingen","type":"Landkreis"},"federalState":{"key":"09","name":"Bayern"}},{"name":"Schlettenhof","postalCode":"97762","locality":"Hammelburg","municipality":{"key":"09672127","name":"Hammelburg, St","type":"Stadt"},"district":{"key":"09672","name":"Bad Kissingen","type":"Landkreis"},"federalState":{"key":"09","name":"Bayern"}},{"name":"Schlossstr.","postalCode":"97762","locality":"Hammelburg","municipality":{"key":"09672127","name":"Hammelburg, St","type":"Stadt"},"district":{"key":"09672","name":"Bad Kissingen","type":"Landkreis"},"federalState":{"key":"09","name":"Bayern"}},{"name":"Schottenweg","postalCode":"97762","locality":"Hammelburg","municipality":{"key":"09672127","name":"Hammelburg, St","type":"Stadt"},"district":{"key":"09672","name":"Bad Kissingen","type":"Landkreis"},"federalState":{"key":"09","name":"Bayern"}},{"name":"Schrankenberg","postalCode":"97762","locality":"Hammelburg","municipality":{"key":"09672127","name":"Hammelburg, St","type":"Stadt"},"district":{"key":"09672","name":"Bad Kissingen","type":"Landkreis"},"federalState":{"key":"09","name":"Bayern"}},{"name":"Schulgasse","postalCode":"97762","locality":"Hammelburg","municipality":{"key":"09672127","name":"Hammelburg, St","type":"Stadt"},"district":{"key":"09672","name":"Bad Kissingen","type":"Landkreis"},"federalState":{"key":"09","name":"Bayern"}},{"name":"Schweinfurter Str.","postalCode":"97762","locality":"Hammelburg","municipality":{"key":"09672127","name":"Hammelburg, St","type":"Stadt"},"district":{"key":"09672","name":"Bad Kissingen","type":"Landkreis"},"federalState":{"key":"09","name":"Bayern"}},{"name":"Sebastiansstr.","postalCode":"97762","locality":"Hammelburg","municipality":{"key":"09672127","name":"Hammelburg, St","type":"Stadt"},"district":{"key":"09672","name":"Bad Kissingen","type":"Landkreis"},"federalState":{"key":"09","name":"Bayern"}},{"name":"Seelhausgasse","postalCode":"97762","locality":"Hammelburg","municipality":{"key":"09672127","name":"Hammelburg, St","type":"Stadt"},"district":{"key":"09672","name":"Bad Kissingen","type":"Landkreis"},"federalState":{"key":"09","name":"Bayern"}},{"name":"Seeshof","postalCode":"97762","locality":"Hammelburg","municipality":{"key":"09672127","name":"Hammelburg, St","type":"Stadt"},"district":{"key":"09672","name":"Bad Kissingen","type":"Landkreis"},"federalState":{"key":"09","name":"Bayern"}},{"name":"Seeshofer Str.","postalCode":"97762","locality":"Hammelburg","municipality":{"key":"09672127","name":"Hammelburg, St","type":"Stadt"},"district":{"key":"09672","name":"Bad Kissingen","type":"Landkreis"},"federalState":{"key":"09","name":"Bayern"}},{"name":"Siedlungsstr.","postalCode":"97762","locality":"Hammelburg","municipality":{"key":"09672127","name":"Hammelburg, St","type":"Stadt"},"district":{"key":"09672","name":"Bad Kissingen","type":"Landkreis"},"federalState":{"key":"09","name":"Bayern"}},{"name":"Sodenbergstr.","postalCode":"97762","locality":"Hammelburg","municipality":{"key":"09672127","name":"Hammelburg, St","type":"Stadt"},"district":{"key":"09672","name":"Bad Kissingen","type":"Landkreis"},"federalState":{"key":"09","name":"Bayern"}},{"name":"Sonnenweg","postalCode":"97762","locality":"Hammelburg","municipality":{"key":"09672127","name":"Hammelburg, St","type":"Stadt"},"district":{"key":"09672","name":"Bad Kissingen","type":"Landkreis"},"federalState":{"key":"09","name":"Bayern"}},{"name":"Spitalgasse","postalCode":"97762","locality":"Hammelburg","municipality":{"key":"09672127","name":"Hammelburg, St","type":"Stadt"},"district":{"key":"09672","name":"Bad Kissingen","type":"Landkreis"},"federalState":{"key":"09","name":"Bayern"}},{"name":"Sportplatzstr.","postalCode":"97762","locality":"Hammelburg","municipality":{"key":"09672127","name":"Hammelburg, St","type":"Stadt"},"district":{"key":"09672","name":"Bad Kissingen","type":"Landkreis"},"federalState":{"key":"09","name":"Bayern"}},{"name":"Stadtmuseum Herrenmühle","postalCode":"97762","locality":"Hammelburg","municipality":{"key":"09672127","name":"Hammelburg, St","type":"Stadt"},"district":{"key":"09672","name":"Bad Kissingen","type":"Landkreis"},"federalState":{"key":"09","name":"Bayern"}},{"name":"Stadtweg","postalCode":"97762","locality":"Hammelburg","municipality":{"key":"09672127","name":"Hammelburg, St","type":"Stadt"},"district":{"key":"09672","name":"Bad Kissingen","type":"Landkreis"},"federalState":{"key":"09","name":"Bayern"}},{"name":"Stettiner Str.","postalCode":"97762","locality":"Hammelburg","municipality":{"key":"09672127","name":"Hammelburg, St","type":"Stadt"},"district":{"key":"09672","name":"Bad Kissingen","type":"Landkreis"},"federalState":{"key":"09","name":"Bayern"}},{"name":"St.-Georg-Str.","postalCode":"97762","locality":"Hammelburg","municipality":{"key":"09672127","name":"Hammelburg, St","type":"Stadt"},"district":{"key":"09672","name":"Bad Kissingen","type":"Landkreis"},"federalState":{"key":"09","name":"Bayern"}},{"name":"St.-Sebastian-Str.","postalCode":"97762","locality":"Hammelburg","municipality":{"key":"09672127","name":"Hammelburg, St","type":"Stadt"},"district":{"key":"09672","name":"Bad Kissingen","type":"Landkreis"},"federalState":{"key":"09","name":"Bayern"}},{"name":"Stürzelberg","postalCode":"97762","locality":"Hammelburg","municipality":{"key":"09672127","name":"Hammelburg, St","type":"Stadt"},"district":{"key":"09672","name":"Bad Kissingen","type":"Landkreis"},"federalState":{"key":"09","name":"Bayern"}},{"name":"Südring","postalCode":"97762","locality":"Hammelburg","municipality":{"key":"09672127","name":"Hammelburg, St","type":"Stadt"},"district":{"key":"09672","name":"Bad Kissingen","type":"Landkreis"},"federalState":{"key":"09","name":"Bayern"}},{"name":"Teichweg","postalCode":"97762","locality":"Hammelburg","municipality":{"key":"09672127","name":"Hammelburg, St","type":"Stadt"},"district":{"key":"09672","name":"Bad Kissingen","type":"Landkreis"},"federalState":{"key":"09","name":"Bayern"}},{"name":"Thulba-Radweg","postalCode":"97762","locality":"Hammelburg","municipality":{"key":"09672127","name":"Hammelburg, St","type":"Stadt"},"district":{"key":"09672","name":"Bad Kissingen","type":"Landkreis"},"federalState":{"key":"09","name":"Bayern"}},{"name":"Tilsiter Str.","postalCode":"97762","locality":"Hammelburg","municipality":{"key":"09672127","name":"Hammelburg, St","type":"Stadt"},"district":{"key":"09672","name":"Bad Kissingen","type":"Landkreis"},"federalState":{"key":"09","name":"Bayern"}},{"name":"Torweg","postalCode":"97762","locality":"Hammelburg","municipality":{"key":"09672127","name":"Hammelburg, St","type":"Stadt"},"district":{"key":"09672","name":"Bad Kissingen","type":"Landkreis"},"federalState":{"key":"09","name":"Bayern"}},{"name":"Turnhouter Str.","postalCode":"97762","locality":"Hammelburg","municipality":{"key":"09672127","name":"Hammelburg, St","type":"Stadt"},"district":{"key":"09672","name":"Bad Kissingen","type":"Landkreis"},"federalState":{"key":"09","name":"Bayern"}},{"name":"Uferstr.","postalCode":"97762","locality":"Hammelburg","municipality":{"key":"09672127","name":"Hammelburg, St","type":"Stadt"},"district":{"key":"09672","name":"Bad Kissingen","type":"Landkreis"},"federalState":{"key":"09","name":"Bayern"}},{"name":"Untere Au","postalCode":"97762","locality":"Hammelburg","municipality":{"key":"09672127","name":"Hammelburg, St","type":"Stadt"},"district":{"key":"09672","name":"Bad Kissingen","type":"Landkreis"},"federalState":{"key":"09","name":"Bayern"}},{"name":"Untereschenbacher Str.","postalCode":"97762","locality":"Hammelburg","municipality":{"key":"09672127","name":"Hammelburg, St","type":"Stadt"},"district":{"key":"09672","name":"Bad Kissingen","type":"Landkreis"},"federalState":{"key":"09","name":"Bayern"}},{"name":"Urbanusweg","postalCode":"97762","locality":"Hammelburg","municipality":{"key":"09672127","name":"Hammelburg, St","type":"Stadt"},"district":{"key":"09672","name":"Bad Kissingen","type":"Landkreis"},"federalState":{"key":"09","name":"Bayern"}},{"name":"Valentinusweg","postalCode":"97762","locality":"Hammelburg","municipality":{"key":"09672127","name":"Hammelburg, St","type":"Stadt"},"district":{"key":"09672","name":"Bad Kissingen","type":"Landkreis"},"federalState":{"key":"09","name":"Bayern"}},{"name":"Viehmarkt","postalCode":"97762","locality":"Hammelburg","municipality":{"key":"09672127","name":"Hammelburg, St","type":"Stadt"},"district":{"key":"09672","name":"Bad Kissingen","type":"Landkreis"},"federalState":{"key":"09","name":"Bayern"}},{"name":"Vinzenz-Koch-Str.","postalCode":"97762","locality":"Hammelburg","municipality":{"key":"09672127","name":"Hammelburg, St","type":"Stadt"},"district":{"key":"09672","name":"Bad Kissingen","type":"Landkreis"},"federalState":{"key":"09","name":"Bayern"}},{"name":"Von-Altenburg-Str.","postalCode":"97762","locality":"Hammelburg","municipality":{"key":"09672127","name":"Hammelburg, St","type":"Stadt"},"district":{"key":"09672","name":"Bad Kissingen","type":"Landkreis"},"federalState":{"key":"09","name":"Bayern"}},{"name":"Von-der-Tann-Str.","postalCode":"97762","locality":"Hammelburg","municipality":{"key":"09672127","name":"Hammelburg, St","type":"Stadt"},"district":{"key":"09672","name":"Bad Kissingen","type":"Landkreis"},"federalState":{"key":"09","name":"Bayern"}},{"name":"Von-Erthal-Str.","postalCode":"97762","locality":"Hammelburg","municipality":{"key":"09672127","name":"Hammelburg, St","type":"Stadt"},"district":{"key":"09672","name":"Bad Kissingen","type":"Landkreis"},"federalState":{"key":"09","name":"Bayern"}},{"name":"Von-Hess-Str.","postalCode":"97762","locality":"Hammelburg","municipality":{"key":"09672127","name":"Hammelburg, St","type":"Stadt"},"district":{"key":"09672","name":"Bad Kissingen","type":"Landkreis"},"federalState":{"key":"09","name":"Bayern"}},{"name":"von-Hutten-Str.","postalCode":"97762","locality":"Hammelburg","municipality":{"key":"09672127","name":"Hammelburg, St","type":"Stadt"},"district":{"key":"09672","name":"Bad Kissingen","type":"Landkreis"},"federalState":{"key":"09","name":"Bayern"}},{"name":"Von-Schwalbach-Weg","postalCode":"97762","locality":"Hammelburg","municipality":{"key":"09672127","name":"Hammelburg, St","type":"Stadt"},"district":{"key":"09672","name":"Bad Kissingen","type":"Landkreis"},"federalState":{"key":"09","name":"Bayern"}},{"name":"von-Schwallbach-Weg","postalCode":"97762","locality":"Hammelburg","municipality":{"key":"09672127","name":"Hammelburg, St","type":"Stadt"},"district":{"key":"09672","name":"Bad Kissingen","type":"Landkreis"},"federalState":{"key":"09","name":"Bayern"}},{"name":"Von Thüngen Str.","postalCode":"97762","locality":"Hammelburg","municipality":{"key":"09672127","name":"Hammelburg, St","type":"Stadt"},"district":{"key":"09672","name":"Bad Kissingen","type":"Landkreis"},"federalState":{"key":"09","name":"Bayern"}},{"name":"Wagnerstr.","postalCode":"97762","locality":"Hammelburg","municipality":{"key":"09672127","name":"Hammelburg, St","type":"Stadt"},"district":{"key":"09672","name":"Bad Kissingen","type":"Landkreis"},"federalState":{"key":"09","name":"Bayern"}},{"name":"Waldsiedlung","postalCode":"97762","locality":"Hammelburg","municipality":{"key":"09672127","name":"Hammelburg, St","type":"Stadt"},"district":{"key":"09672","name":"Bad Kissingen","type":"Landkreis"},"federalState":{"key":"09","name":"Bayern"}},{"name":"Walterthalweg","postalCode":"97762","locality":"Hammelburg","municipality":{"key":"09672127","name":"Hammelburg, St","type":"Stadt"},"district":{"key":"09672","name":"Bad Kissingen","type":"Landkreis"},"federalState":{"key":"09","name":"Bayern"}},{"name":"Wankelstr.","postalCode":"97762","locality":"Hammelburg","municipality":{"key":"09672127","name":"Hammelburg, St","type":"Stadt"},"district":{"key":"09672","name":"Bad Kissingen","type":"Landkreis"},"federalState":{"key":"09","name":"Bayern"}},{"name":"Weberstr.","postalCode":"97762","locality":"Hammelburg","municipality":{"key":"09672127","name":"Hammelburg, St","type":"Stadt"},"district":{"key":"09672","name":"Bad Kissingen","type":"Landkreis"},"federalState":{"key":"09","name":"Bayern"}},{"name":"Wehrplatz","postalCode":"97762","locality":"Hammelburg","municipality":{"key":"09672127","name":"Hammelburg, St","type":"Stadt"},"district":{"key":"09672","name":"Bad Kissingen","type":"Landkreis"},"federalState":{"key":"09","name":"Bayern"}},{"name":"Weickersgrübener Str.","postalCode":"97762","locality":"Hammelburg","municipality":{"key":"09672127","name":"Hammelburg, St","type":"Stadt"},"district":{"key":"09672","name":"Bad Kissingen","type":"Landkreis"},"federalState":{"key":"09","name":"Bayern"}},{"name":"Weihertorstr.","postalCode":"97762","locality":"Hammelburg","municipality":{"key":"09672127","name":"Hammelburg, St","type":"Stadt"},"district":{"key":"09672","name":"Bad Kissingen","type":"Landkreis"},"federalState":{"key":"09","name":"Bayern"}},{"name":"Weinbergstr.","postalCode":"97762","locality":"Hammelburg","municipality":{"key":"09672127","name":"Hammelburg, St","type":"Stadt"},"district":{"key":"09672","name":"Bad Kissingen","type":"Landkreis"},"federalState":{"key":"09","name":"Bayern"}},{"name":"Wendelinusweg","postalCode":"97762","locality":"Hammelburg","municipality":{"key":"09672127","name":"Hammelburg, St","type":"Stadt"},"district":{"key":"09672","name":"Bad Kissingen","type":"Landkreis"},"federalState":{"key":"09","name":"Bayern"}},{"name":"Westheimer Str.","postalCode":"97762","locality":"Hammelburg","municipality":{"key":"09672127","name":"Hammelburg, St","type":"Stadt"},"district":{"key":"09672","name":"Bad Kissingen","type":"Landkreis"},"federalState":{"key":"09","name":"Bayern"}},{"name":"WH","postalCode":"97762","locality":"Hammelburg","municipality":{"key":"09672127","name":"Hammelburg, St","type":"Stadt"},"district":{"key":"09672","name":"Bad Kissingen","type":"Landkreis"},"federalState":{"key":"09","name":"Bayern"}},{"name":"Wiedenstr.","postalCode":"97762","locality":"Hammelburg","municipality":{"key":"09672127","name":"Hammelburg, St","type":"Stadt"},"district":{"key":"09672","name":"Bad Kissingen","type":"Landkreis"},"federalState":{"key":"09","name":"Bayern"}},{"name":"Willibrordstr.","postalCode":"97762","locality":"Hammelburg","municipality":{"key":"09672127","name":"Hammelburg, St","type":"Stadt"},"district":{"key":"09672","name":"Bad Kissingen","type":"Landkreis"},"federalState":{"key":"09","name":"Bayern"}},{"name":"Winzergasse","postalCode":"97762","locality":"Hammelburg","municipality":{"key":"09672127","name":"Hammelburg, St","type":"Stadt"},"district":{"key":"09672","name":"Bad Kissingen","type":"Landkreis"},"federalState":{"key":"09","name":"Bayern"}},{"name":"Würzburger Str.","postalCode":"97762","locality":"Hammelburg","municipality":{"key":"09672127","name":"Hammelburg, St","type":"Stadt"},"district":{"key":"09672","name":"Bad Kissingen","type":"Landkreis"},"federalState":{"key":"09","name":"Bayern"}},{"name":"Ysenburgstr.","postalCode":"97688","locality":"Bad Kissingen","municipality":{"key":"09672114","name":"Bad Kissingen, GKSt","type":"Große_Kreisstadt"},"district":{"key":"09672","name":"Bad Kissingen","type":"Landkreis"},"federalState":{"key":"09","name":"Bayern"}},{"name":"Zehnweg","postalCode":"97762","locality":"Hammelburg","municipality":{"key":"09672127","name":"Hammelburg, St","type":"Stadt"},"district":{"key":"09672","name":"Bad Kissingen","type":"Landkreis"},"federalState":{"key":"09","name":"Bayern"}},{"name":"Ziegelhütte","postalCode":"97762","locality":"Hammelburg","municipality":{"key":"09672127","name":"Hammelburg, St","type":"Stadt"},"district":{"key":"09672","name":"Bad Kissingen","type":"Landkreis"},"federalState":{"key":"09","name":"Bayern"}},{"name":"Zimmerplatz","postalCode":"97762","locality":"Hammelburg","municipality":{"key":"09672127","name":"Hammelburg, St","type":"Stadt"},"district":{"key":"09672","name":"Bad Kissingen","type":"Landkreis"},"federalState":{"key":"09","name":"Bayern"}},{"name":"Zum Bauholz","postalCode":"97762","locality":"Hammelburg","municipality":{"key":"09672127","name":"Hammelburg, St","type":"Stadt"},"district":{"key":"09672","name":"Bad Kissingen","type":"Landkreis"},"federalState":{"key":"09","name":"Bayern"}},{"name":"Zum Essbach","postalCode":"97762","locality":"Hammelburg","municipality":{"key":"09672127","name":"Hammelburg, St","type":"Stadt"},"district":{"key":"09672","name":"Bad Kissingen","type":"Landkreis"},"federalState":{"key":"09","name":"Bayern"}},{"name":"Zum Obstgarten","postalCode":"97762","locality":"Hammelburg","municipality":{"key":"09672127","name":"Hammelburg, St","type":"Stadt"},"district":{"key":"09672","name":"Bad Kissingen","type":"Landkreis"},"federalState":{"key":"09","name":"Bayern"}},{"name":"Zum Riedbrunnen","postalCode":"97762","locality":"Hammelburg","municipality":{"key":"09672127","name":"Hammelburg, St","type":"Stadt"},"district":{"key":"09672","name":"Bad Kissingen","type":"Landkreis"},"federalState":{"key":"09","name":"Bayern"}},{"name":"Zum Unterberg","postalCode":"97762","locality":"Hammelburg","municipality":{"key":"09672127","name":"Hammelburg, St","type":"Stadt"},"district":{"key":"09672","name":"Bad Kissingen","type":"Landkreis"},"federalState":{"key":"09","name":"Bayern"}},{"name":"Zur Kanzel","postalCode":"97762","locality":"Hammelburg","municipality":{"key":"09672127","name":"Hammelburg, St","type":"Stadt"},"district":{"key":"09672","name":"Bad Kissingen","type":"Landkreis"},"federalState":{"key":"09","name":"Bayern"}},{"name":"Zur Neumühle","postalCode":"97762","locality":"Hammelburg","municipality":{"key":"09672127","name":"Hammelburg, St","type":"Stadt"},"district":{"key":"09672","name":"Bad Kissingen","type":"Landkreis"},"federalState":{"key":"09","name":"Bayern"}},]