[{"name":"Am Bergele","postalCode":"87752","locality":"Holzgünz","municipality":{"key":"09778151","name":"Holzgünz","type":"Kreisangehörige_Gemeinde"},"district":{"key":"09778","name":"Unterallgäu","type":"Landkreis"},"federalState":{"key":"09","name":"Bayern"}},{"name":"Am Hang","postalCode":"87752","locality":"Holzgünz","municipality":{"key":"09778151","name":"Holzgünz","type":"Kreisangehörige_Gemeinde"},"district":{"key":"09778","name":"Unterallgäu","type":"Landkreis"},"federalState":{"key":"09","name":"Bayern"}},{"name":"Am Kohlbrunnen","postalCode":"87752","locality":"Holzgünz","municipality":{"key":"09778151","name":"Holzgünz","type":"Kreisangehörige_Gemeinde"},"district":{"key":"09778","name":"Unterallgäu","type":"Landkreis"},"federalState":{"key":"09","name":"Bayern"}},{"name":"Am Öschle","postalCode":"87752","locality":"Holzgünz","municipality":{"key":"09778151","name":"Holzgünz","type":"Kreisangehörige_Gemeinde"},"district":{"key":"09778","name":"Unterallgäu","type":"Landkreis"},"federalState":{"key":"09","name":"Bayern"}},{"name":"Bahnweg","postalCode":"87752","locality":"Holzgünz","municipality":{"key":"09778151","name":"Holzgünz","type":"Kreisangehörige_Gemeinde"},"district":{"key":"09778","name":"Unterallgäu","type":"Landkreis"},"federalState":{"key":"09","name":"Bayern"}},{"name":"Baumschulweg","postalCode":"87752","locality":"Holzgünz","municipality":{"key":"09778151","name":"Holzgünz","type":"Kreisangehörige_Gemeinde"},"district":{"key":"09778","name":"Unterallgäu","type":"Landkreis"},"federalState":{"key":"09","name":"Bayern"}},{"name":"Bgm.-Merk-Str.","postalCode":"87752","locality":"Holzgünz","municipality":{"key":"09778151","name":"Holzgünz","type":"Kreisangehörige_Gemeinde"},"district":{"key":"09778","name":"Unterallgäu","type":"Landkreis"},"federalState":{"key":"09","name":"Bayern"}},{"name":"Birkenweg","postalCode":"87752","locality":"Holzgünz","municipality":{"key":"09778151","name":"Holzgünz","type":"Kreisangehörige_Gemeinde"},"district":{"key":"09778","name":"Unterallgäu","type":"Landkreis"},"federalState":{"key":"09","name":"Bayern"}},{"name":"Eisenburger Weg","postalCode":"87752","locality":"Holzgünz","municipality":{"key":"09778151","name":"Holzgünz","type":"Kreisangehörige_Gemeinde"},"district":{"key":"09778","name":"Unterallgäu","type":"Landkreis"},"federalState":{"key":"09","name":"Bayern"}},{"name":"Frauentalstr.","postalCode":"87752","locality":"Holzgünz","municipality":{"key":"09778151","name":"Holzgünz","type":"Kreisangehörige_Gemeinde"},"district":{"key":"09778","name":"Unterallgäu","type":"Landkreis"},"federalState":{"key":"09","name":"Bayern"}},{"name":"Gartenstr.","postalCode":"87752","locality":"Holzgünz","municipality":{"key":"09778151","name":"Holzgünz","type":"Kreisangehörige_Gemeinde"},"district":{"key":"09778","name":"Unterallgäu","type":"Landkreis"},"federalState":{"key":"09","name":"Bayern"}},{"name":"Gewerbestr.","postalCode":"87752","locality":"Holzgünz","municipality":{"key":"09778151","name":"Holzgünz","type":"Kreisangehörige_Gemeinde"},"district":{"key":"09778","name":"Unterallgäu","type":"Landkreis"},"federalState":{"key":"09","name":"Bayern"}},{"name":"Hartstr.","postalCode":"87752","locality":"Holzgünz","municipality":{"key":"09778151","name":"Holzgünz","type":"Kreisangehörige_Gemeinde"},"district":{"key":"09778","name":"Unterallgäu","type":"Landkreis"},"federalState":{"key":"09","name":"Bayern"}},{"name":"Haselweg","postalCode":"87752","locality":"Holzgünz","municipality":{"key":"09778151","name":"Holzgünz","type":"Kreisangehörige_Gemeinde"},"district":{"key":"09778","name":"Unterallgäu","type":"Landkreis"},"federalState":{"key":"09","name":"Bayern"}},{"name":"Hauptstr.","postalCode":"87752","locality":"Holzgünz","municipality":{"key":"09778151","name":"Holzgünz","type":"Kreisangehörige_Gemeinde"},"district":{"key":"09778","name":"Unterallgäu","type":"Landkreis"},"federalState":{"key":"09","name":"Bayern"}},{"name":"Höhenstr.","postalCode":"87752","locality":"Holzgünz","municipality":{"key":"09778151","name":"Holzgünz","type":"Kreisangehörige_Gemeinde"},"district":{"key":"09778","name":"Unterallgäu","type":"Landkreis"},"federalState":{"key":"09","name":"Bayern"}},{"name":"Hoschmiweg","postalCode":"87752","locality":"Holzgünz","municipality":{"key":"09778151","name":"Holzgünz","type":"Kreisangehörige_Gemeinde"},"district":{"key":"09778","name":"Unterallgäu","type":"Landkreis"},"federalState":{"key":"09","name":"Bayern"}},{"name":"Im Tal","postalCode":"87752","locality":"Holzgünz","municipality":{"key":"09778151","name":"Holzgünz","type":"Kreisangehörige_Gemeinde"},"district":{"key":"09778","name":"Unterallgäu","type":"Landkreis"},"federalState":{"key":"09","name":"Bayern"}},{"name":"Jomaplatz","postalCode":"87752","locality":"Holzgünz","municipality":{"key":"09778151","name":"Holzgünz","type":"Kreisangehörige_Gemeinde"},"district":{"key":"09778","name":"Unterallgäu","type":"Landkreis"},"federalState":{"key":"09","name":"Bayern"}},{"name":"Kohbachweg","postalCode":"87752","locality":"Holzgünz","municipality":{"key":"09778151","name":"Holzgünz","type":"Kreisangehörige_Gemeinde"},"district":{"key":"09778","name":"Unterallgäu","type":"Landkreis"},"federalState":{"key":"09","name":"Bayern"}},{"name":"Kreuzherrnstr.","postalCode":"87752","locality":"Holzgünz","municipality":{"key":"09778151","name":"Holzgünz","type":"Kreisangehörige_Gemeinde"},"district":{"key":"09778","name":"Unterallgäu","type":"Landkreis"},"federalState":{"key":"09","name":"Bayern"}},{"name":"Memminger Str.","postalCode":"87752","locality":"Holzgünz","municipality":{"key":"09778151","name":"Holzgünz","type":"Kreisangehörige_Gemeinde"},"district":{"key":"09778","name":"Unterallgäu","type":"Landkreis"},"federalState":{"key":"09","name":"Bayern"}},{"name":"Niederrieder Str.","postalCode":"87752","locality":"Holzgünz","municipality":{"key":"09778151","name":"Holzgünz","type":"Kreisangehörige_Gemeinde"},"district":{"key":"09778","name":"Unterallgäu","type":"Landkreis"},"federalState":{"key":"09","name":"Bayern"}},{"name":"Nordring","postalCode":"87752","locality":"Holzgünz","municipality":{"key":"09778151","name":"Holzgünz","type":"Kreisangehörige_Gemeinde"},"district":{"key":"09778","name":"Unterallgäu","type":"Landkreis"},"federalState":{"key":"09","name":"Bayern"}},{"name":"Obere Krebsbachstr.","postalCode":"87752","locality":"Holzgünz","municipality":{"key":"09778151","name":"Holzgünz","type":"Kreisangehörige_Gemeinde"},"district":{"key":"09778","name":"Unterallgäu","type":"Landkreis"},"federalState":{"key":"09","name":"Bayern"}},{"name":"Reiterweg","postalCode":"87752","locality":"Holzgünz","municipality":{"key":"09778151","name":"Holzgünz","type":"Kreisangehörige_Gemeinde"},"district":{"key":"09778","name":"Unterallgäu","type":"Landkreis"},"federalState":{"key":"09","name":"Bayern"}},{"name":"Schloßweg","postalCode":"87752","locality":"Holzgünz","municipality":{"key":"09778151","name":"Holzgünz","type":"Kreisangehörige_Gemeinde"},"district":{"key":"09778","name":"Unterallgäu","type":"Landkreis"},"federalState":{"key":"09","name":"Bayern"}},{"name":"Schützenweg","postalCode":"87752","locality":"Holzgünz","municipality":{"key":"09778151","name":"Holzgünz","type":"Kreisangehörige_Gemeinde"},"district":{"key":"09778","name":"Unterallgäu","type":"Landkreis"},"federalState":{"key":"09","name":"Bayern"}},{"name":"Schwaighauser Str.","postalCode":"87752","locality":"Holzgünz","municipality":{"key":"09778151","name":"Holzgünz","type":"Kreisangehörige_Gemeinde"},"district":{"key":"09778","name":"Unterallgäu","type":"Landkreis"},"federalState":{"key":"09","name":"Bayern"}},{"name":"Schwaigstr.","postalCode":"87752","locality":"Holzgünz","municipality":{"key":"09778151","name":"Holzgünz","type":"Kreisangehörige_Gemeinde"},"district":{"key":"09778","name":"Unterallgäu","type":"Landkreis"},"federalState":{"key":"09","name":"Bayern"}},{"name":"Siedlerweg","postalCode":"87752","locality":"Holzgünz","municipality":{"key":"09778151","name":"Holzgünz","type":"Kreisangehörige_Gemeinde"},"district":{"key":"09778","name":"Unterallgäu","type":"Landkreis"},"federalState":{"key":"09","name":"Bayern"}},{"name":"Sonnenstr.","postalCode":"87752","locality":"Holzgünz","municipality":{"key":"09778151","name":"Holzgünz","type":"Kreisangehörige_Gemeinde"},"district":{"key":"09778","name":"Unterallgäu","type":"Landkreis"},"federalState":{"key":"09","name":"Bayern"}},{"name":"Talweg","postalCode":"87752","locality":"Holzgünz","municipality":{"key":"09778151","name":"Holzgünz","type":"Kreisangehörige_Gemeinde"},"district":{"key":"09778","name":"Unterallgäu","type":"Landkreis"},"federalState":{"key":"09","name":"Bayern"}},{"name":"Untere Krebsbachstr.","postalCode":"87752","locality":"Holzgünz","municipality":{"key":"09778151","name":"Holzgünz","type":"Kreisangehörige_Gemeinde"},"district":{"key":"09778","name":"Unterallgäu","type":"Landkreis"},"federalState":{"key":"09","name":"Bayern"}},{"name":"Unterharter Str.","postalCode":"87752","locality":"Holzgünz","municipality":{"key":"09778151","name":"Holzgünz","type":"Kreisangehörige_Gemeinde"},"district":{"key":"09778","name":"Unterallgäu","type":"Landkreis"},"federalState":{"key":"09","name":"Bayern"}},{"name":"Waldstr.","postalCode":"87752","locality":"Holzgünz","municipality":{"key":"09778151","name":"Holzgünz","type":"Kreisangehörige_Gemeinde"},"district":{"key":"09778","name":"Unterallgäu","type":"Landkreis"},"federalState":{"key":"09","name":"Bayern"}},{"name":"Wiesenstr.","postalCode":"87752","locality":"Holzgünz","municipality":{"key":"09778151","name":"Holzgünz","type":"Kreisangehörige_Gemeinde"},"district":{"key":"09778","name":"Unterallgäu","type":"Landkreis"},"federalState":{"key":"09","name":"Bayern"}},{"name":"Zwölferweg","postalCode":"87752","locality":"Holzgünz","municipality":{"key":"09778151","name":"Holzgünz","type":"Kreisangehörige_Gemeinde"},"district":{"key":"09778","name":"Unterallgäu","type":"Landkreis"},"federalState":{"key":"09","name":"Bayern"}},]