[{"name":"Am Dorfteich","postalCode":"25573","locality":"Beidenfleth","municipality":{"key":"01061007","name":"Beidenfleth","type":"Kreisangehörige_Gemeinde"},"district":{"key":"01061","name":"Steinburg","type":"Kreis"},"federalState":{"key":"01","name":"Schleswig-Holstein"}},{"name":"Am Pümpel","postalCode":"25573","locality":"Beidenfleth","municipality":{"key":"01061007","name":"Beidenfleth","type":"Kreisangehörige_Gemeinde"},"district":{"key":"01061","name":"Steinburg","type":"Kreis"},"federalState":{"key":"01","name":"Schleswig-Holstein"}},{"name":"Amselweg","postalCode":"25573","locality":"Beidenfleth","municipality":{"key":"01061007","name":"Beidenfleth","type":"Kreisangehörige_Gemeinde"},"district":{"key":"01061","name":"Steinburg","type":"Kreis"},"federalState":{"key":"01","name":"Schleswig-Holstein"}},{"name":"An der Fähre","postalCode":"25573","locality":"Beidenfleth","municipality":{"key":"01061007","name":"Beidenfleth","type":"Kreisangehörige_Gemeinde"},"district":{"key":"01061","name":"Steinburg","type":"Kreis"},"federalState":{"key":"01","name":"Schleswig-Holstein"}},{"name":"Bahnhofstr.","postalCode":"22964","locality":"Steinburg","municipality":{"key":"01062091","name":"Steinburg","type":"Kreisangehörige_Gemeinde"},"district":{"key":"01062","name":"Stormarn","type":"Kreis"},"federalState":{"key":"01","name":"Schleswig-Holstein"}},{"name":"Berodts Hof","postalCode":"22964","locality":"Steinburg","municipality":{"key":"01062091","name":"Steinburg","type":"Kreisangehörige_Gemeinde"},"district":{"key":"01062","name":"Stormarn","type":"Kreis"},"federalState":{"key":"01","name":"Schleswig-Holstein"}},{"name":"Beschkamp","postalCode":"22964","locality":"Steinburg","municipality":{"key":"01062091","name":"Steinburg","type":"Kreisangehörige_Gemeinde"},"district":{"key":"01062","name":"Stormarn","type":"Kreis"},"federalState":{"key":"01","name":"Schleswig-Holstein"}},{"name":"Blütenweg","postalCode":"22964","locality":"Steinburg","municipality":{"key":"01062091","name":"Steinburg","type":"Kreisangehörige_Gemeinde"},"district":{"key":"01062","name":"Stormarn","type":"Kreis"},"federalState":{"key":"01","name":"Schleswig-Holstein"}},{"name":"Deichreihe","postalCode":"25573","locality":"Beidenfleth","municipality":{"key":"01061007","name":"Beidenfleth","type":"Kreisangehörige_Gemeinde"},"district":{"key":"01061","name":"Steinburg","type":"Kreis"},"federalState":{"key":"01","name":"Schleswig-Holstein"}},{"name":"Eichedeer Str.","postalCode":"22964","locality":"Steinburg","municipality":{"key":"01062091","name":"Steinburg","type":"Kreisangehörige_Gemeinde"},"district":{"key":"01062","name":"Stormarn","type":"Kreis"},"federalState":{"key":"01","name":"Schleswig-Holstein"}},{"name":"Eichenkamp","postalCode":"22964","locality":"Steinburg","municipality":{"key":"01062091","name":"Steinburg","type":"Kreisangehörige_Gemeinde"},"district":{"key":"01062","name":"Stormarn","type":"Kreis"},"federalState":{"key":"01","name":"Schleswig-Holstein"}},{"name":"Finkenweg","postalCode":"25573","locality":"Beidenfleth","municipality":{"key":"01061007","name":"Beidenfleth","type":"Kreisangehörige_Gemeinde"},"district":{"key":"01061","name":"Steinburg","type":"Kreis"},"federalState":{"key":"01","name":"Schleswig-Holstein"}},{"name":"Fockendorf","postalCode":"25573","locality":"Beidenfleth","municipality":{"key":"01061007","name":"Beidenfleth","type":"Kreisangehörige_Gemeinde"},"district":{"key":"01061","name":"Steinburg","type":"Kreis"},"federalState":{"key":"01","name":"Schleswig-Holstein"}},{"name":"Groß Kampen","postalCode":"25573","locality":"Beidenfleth","municipality":{"key":"01061007","name":"Beidenfleth","type":"Kreisangehörige_Gemeinde"},"district":{"key":"01061","name":"Steinburg","type":"Kreis"},"federalState":{"key":"01","name":"Schleswig-Holstein"}},{"name":"Hinterm Dorf","postalCode":"25573","locality":"Beidenfleth","municipality":{"key":"01061007","name":"Beidenfleth","type":"Kreisangehörige_Gemeinde"},"district":{"key":"01061","name":"Steinburg","type":"Kreis"},"federalState":{"key":"01","name":"Schleswig-Holstein"}},{"name":"Im Wiesengrund","postalCode":"22964","locality":"Steinburg","municipality":{"key":"01062091","name":"Steinburg","type":"Kreisangehörige_Gemeinde"},"district":{"key":"01062","name":"Stormarn","type":"Kreis"},"federalState":{"key":"01","name":"Schleswig-Holstein"}},{"name":"Johanna Weg","postalCode":"22964","locality":"Steinburg","municipality":{"key":"01062091","name":"Steinburg","type":"Kreisangehörige_Gemeinde"},"district":{"key":"01062","name":"Stormarn","type":"Kreis"},"federalState":{"key":"01","name":"Schleswig-Holstein"}},{"name":"Kirchweg","postalCode":"25573","locality":"Beidenfleth","municipality":{"key":"01061007","name":"Beidenfleth","type":"Kreisangehörige_Gemeinde"},"district":{"key":"01061","name":"Steinburg","type":"Kreis"},"federalState":{"key":"01","name":"Schleswig-Holstein"}},{"name":"Klein Kampen","postalCode":"25573","locality":"Beidenfleth","municipality":{"key":"01061007","name":"Beidenfleth","type":"Kreisangehörige_Gemeinde"},"district":{"key":"01061","name":"Steinburg","type":"Kreis"},"federalState":{"key":"01","name":"Schleswig-Holstein"}},{"name":"Lerchenweg","postalCode":"25573","locality":"Beidenfleth","municipality":{"key":"01061007","name":"Beidenfleth","type":"Kreisangehörige_Gemeinde"},"district":{"key":"01061","name":"Steinburg","type":"Kreis"},"federalState":{"key":"01","name":"Schleswig-Holstein"}},{"name":"Meisenweg","postalCode":"25573","locality":"Beidenfleth","municipality":{"key":"01061007","name":"Beidenfleth","type":"Kreisangehörige_Gemeinde"},"district":{"key":"01061","name":"Steinburg","type":"Kreis"},"federalState":{"key":"01","name":"Schleswig-Holstein"}},{"name":"Negenhusen","postalCode":"25573","locality":"Beidenfleth","municipality":{"key":"01061007","name":"Beidenfleth","type":"Kreisangehörige_Gemeinde"},"district":{"key":"01061","name":"Steinburg","type":"Kreis"},"federalState":{"key":"01","name":"Schleswig-Holstein"}},{"name":"Oberes Dorf","postalCode":"25573","locality":"Beidenfleth","municipality":{"key":"01061007","name":"Beidenfleth","type":"Kreisangehörige_Gemeinde"},"district":{"key":"01061","name":"Steinburg","type":"Kreis"},"federalState":{"key":"01","name":"Schleswig-Holstein"}},{"name":"Paradies","postalCode":"22964","locality":"Steinburg","municipality":{"key":"01062091","name":"Steinburg","type":"Kreisangehörige_Gemeinde"},"district":{"key":"01062","name":"Stormarn","type":"Kreis"},"federalState":{"key":"01","name":"Schleswig-Holstein"}},{"name":"Poststr.","postalCode":"22964","locality":"Steinburg","municipality":{"key":"01062091","name":"Steinburg","type":"Kreisangehörige_Gemeinde"},"district":{"key":"01062","name":"Stormarn","type":"Kreis"},"federalState":{"key":"01","name":"Schleswig-Holstein"}},{"name":"Raumredder","postalCode":"22964","locality":"Steinburg","municipality":{"key":"01062091","name":"Steinburg","type":"Kreisangehörige_Gemeinde"},"district":{"key":"01062","name":"Stormarn","type":"Kreis"},"federalState":{"key":"01","name":"Schleswig-Holstein"}},{"name":"Redderweg","postalCode":"22964","locality":"Steinburg","municipality":{"key":"01062091","name":"Steinburg","type":"Kreisangehörige_Gemeinde"},"district":{"key":"01062","name":"Stormarn","type":"Kreis"},"federalState":{"key":"01","name":"Schleswig-Holstein"}},{"name":"Rosenweg","postalCode":"22964","locality":"Steinburg","municipality":{"key":"01062091","name":"Steinburg","type":"Kreisangehörige_Gemeinde"},"district":{"key":"01062","name":"Stormarn","type":"Kreis"},"federalState":{"key":"01","name":"Schleswig-Holstein"}},{"name":"Sösshusen","postalCode":"25573","locality":"Beidenfleth","municipality":{"key":"01061007","name":"Beidenfleth","type":"Kreisangehörige_Gemeinde"},"district":{"key":"01061","name":"Steinburg","type":"Kreis"},"federalState":{"key":"01","name":"Schleswig-Holstein"}},{"name":"Todendorfer Str.","postalCode":"22964","locality":"Steinburg","municipality":{"key":"01062091","name":"Steinburg","type":"Kreisangehörige_Gemeinde"},"district":{"key":"01062","name":"Stormarn","type":"Kreis"},"federalState":{"key":"01","name":"Schleswig-Holstein"}},{"name":"Tulpenweg","postalCode":"22964","locality":"Steinburg","municipality":{"key":"01062091","name":"Steinburg","type":"Kreisangehörige_Gemeinde"},"district":{"key":"01062","name":"Stormarn","type":"Kreis"},"federalState":{"key":"01","name":"Schleswig-Holstein"}},{"name":"Twiete","postalCode":"22964","locality":"Steinburg","municipality":{"key":"01062091","name":"Steinburg","type":"Kreisangehörige_Gemeinde"},"district":{"key":"01062","name":"Stormarn","type":"Kreis"},"federalState":{"key":"01","name":"Schleswig-Holstein"}},{"name":"Uhrendorf","postalCode":"25573","locality":"Beidenfleth","municipality":{"key":"01061007","name":"Beidenfleth","type":"Kreisangehörige_Gemeinde"},"district":{"key":"01061","name":"Steinburg","type":"Kreis"},"federalState":{"key":"01","name":"Schleswig-Holstein"}},{"name":"Unteres Dorf","postalCode":"25573","locality":"Beidenfleth","municipality":{"key":"01061007","name":"Beidenfleth","type":"Kreisangehörige_Gemeinde"},"district":{"key":"01061","name":"Steinburg","type":"Kreis"},"federalState":{"key":"01","name":"Schleswig-Holstein"}},]