[{"key":"10250071","name":"A53","postalCode":"8730","locality":"Uznach","commune":{"key":"3339","name":"Uznach","shortName":"Uznach"},"district":{"key":"1726","name":"Wahlkreis See-Gaster"},"canton":{"key":"17","code":"SG","name":"St. Gallen"},"status":"Real"},{"key":"10225443","name":"Aabachtobelstrasse","postalCode":"8730","locality":"Uznach","commune":{"key":"3339","name":"Uznach","shortName":"Uznach"},"district":{"key":"1726","name":"Wahlkreis See-Gaster"},"canton":{"key":"17","code":"SG","name":"St. Gallen"},"status":"Real"},{"key":"10225447","name":"Aabachtobelweg","postalCode":"8730","locality":"Uznach","commune":{"key":"3339","name":"Uznach","shortName":"Uznach"},"district":{"key":"1726","name":"Wahlkreis See-Gaster"},"canton":{"key":"17","code":"SG","name":"St. Gallen"},"status":"Real"},{"key":"10225451","name":"Aecheltschwilerstrasse","postalCode":"8730","locality":"Uznach","commune":{"key":"3339","name":"Uznach","shortName":"Uznach"},"district":{"key":"1726","name":"Wahlkreis See-Gaster"},"canton":{"key":"17","code":"SG","name":"St. Gallen"},"status":"Real"},{"key":"10225455","name":"Aeschensackweg","postalCode":"8730","locality":"Uznach","commune":{"key":"3339","name":"Uznach","shortName":"Uznach"},"district":{"key":"1726","name":"Wahlkreis See-Gaster"},"canton":{"key":"17","code":"SG","name":"St. Gallen"},"status":"Real"},{"key":"10242514","name":"Ahornstrasse","postalCode":"8730","locality":"Uznach","commune":{"key":"3339","name":"Uznach","shortName":"Uznach"},"district":{"key":"1726","name":"Wahlkreis See-Gaster"},"canton":{"key":"17","code":"SG","name":"St. Gallen"},"status":"Real"},{"key":"10171712","name":"Allmeindstrasse","postalCode":"8730","locality":"Uznach","commune":{"key":"3339","name":"Uznach","shortName":"Uznach"},"district":{"key":"1726","name":"Wahlkreis See-Gaster"},"canton":{"key":"17","code":"SG","name":"St. Gallen"},"status":"Real"},{"key":"10225459","name":"Altbadweg","postalCode":"8730","locality":"Uznach","commune":{"key":"3339","name":"Uznach","shortName":"Uznach"},"district":{"key":"1726","name":"Wahlkreis See-Gaster"},"canton":{"key":"17","code":"SG","name":"St. Gallen"},"status":"Real"},{"key":"10225463","name":"Alte Kirchgasse","postalCode":"8730","locality":"Uznach","commune":{"key":"3339","name":"Uznach","shortName":"Uznach"},"district":{"key":"1726","name":"Wahlkreis See-Gaster"},"canton":{"key":"17","code":"SG","name":"St. Gallen"},"status":"Real"},{"key":"10225471","name":"Altersheimweg","postalCode":"8730","locality":"Uznach","commune":{"key":"3339","name":"Uznach","shortName":"Uznach"},"district":{"key":"1726","name":"Wahlkreis See-Gaster"},"canton":{"key":"17","code":"SG","name":"St. Gallen"},"status":"Real"},{"key":"10058909","name":"Alte Schmiede","postalCode":"8730","locality":"Uznach","commune":{"key":"3339","name":"Uznach","shortName":"Uznach"},"district":{"key":"1726","name":"Wahlkreis See-Gaster"},"canton":{"key":"17","code":"SG","name":"St. Gallen"},"status":"Real"},{"key":"10094045","name":"Alte Uznabergstrasse","postalCode":"8730","locality":"Uznach","commune":{"key":"3339","name":"Uznach","shortName":"Uznach"},"district":{"key":"1726","name":"Wahlkreis See-Gaster"},"canton":{"key":"17","code":"SG","name":"St. Gallen"},"status":"Real"},{"key":"10225467","name":"Alte Zürcherstrasse","postalCode":"8730","locality":"Uznach","commune":{"key":"3339","name":"Uznach","shortName":"Uznach"},"district":{"key":"1726","name":"Wahlkreis See-Gaster"},"canton":{"key":"17","code":"SG","name":"St. Gallen"},"status":"Real"},{"key":"10250621","name":"Alte Zürcherstrasseweg","postalCode":"8730","locality":"Uznach","commune":{"key":"3339","name":"Uznach","shortName":"Uznach"},"district":{"key":"1726","name":"Wahlkreis See-Gaster"},"canton":{"key":"17","code":"SG","name":"St. Gallen"},"status":"Real"},{"key":"10186113","name":"Am Aabach","postalCode":"8730","locality":"Uznach","commune":{"key":"3339","name":"Uznach","shortName":"Uznach"},"district":{"key":"1726","name":"Wahlkreis See-Gaster"},"canton":{"key":"17","code":"SG","name":"St. Gallen"},"status":"Real"},{"key":"10250627","name":"Ausserhirschlandweg","postalCode":"8730","locality":"Uznach","commune":{"key":"3339","name":"Uznach","shortName":"Uznach"},"district":{"key":"1726","name":"Wahlkreis See-Gaster"},"canton":{"key":"17","code":"SG","name":"St. Gallen"},"status":"Real"},{"key":"10170254","name":"Bahnhof","postalCode":"8730","locality":"Uznach","commune":{"key":"3339","name":"Uznach","shortName":"Uznach"},"district":{"key":"1726","name":"Wahlkreis See-Gaster"},"canton":{"key":"17","code":"SG","name":"St. Gallen"},"status":"Real"},{"key":"10033535","name":"Bahnhofstrasse","postalCode":"8730","locality":"Uznach","commune":{"key":"3339","name":"Uznach","shortName":"Uznach"},"district":{"key":"1726","name":"Wahlkreis See-Gaster"},"canton":{"key":"17","code":"SG","name":"St. Gallen"},"status":"Real"},{"key":"10109462","name":"Benknerstrasse","postalCode":"8730","locality":"Uznach","commune":{"key":"3339","name":"Uznach","shortName":"Uznach"},"district":{"key":"1726","name":"Wahlkreis See-Gaster"},"canton":{"key":"17","code":"SG","name":"St. Gallen"},"status":"Real"},{"key":"10164419","name":"Berg","postalCode":"8730","locality":"Uznach","commune":{"key":"3339","name":"Uznach","shortName":"Uznach"},"district":{"key":"1726","name":"Wahlkreis See-Gaster"},"canton":{"key":"17","code":"SG","name":"St. Gallen"},"status":"Real"},{"key":"10225479","name":"Bergliweg","postalCode":"8730","locality":"Uznach","commune":{"key":"3339","name":"Uznach","shortName":"Uznach"},"district":{"key":"1726","name":"Wahlkreis See-Gaster"},"canton":{"key":"17","code":"SG","name":"St. Gallen"},"status":"Real"},{"key":"10033537","name":"Bifangstrasse","postalCode":"8730","locality":"Uznach","commune":{"key":"3339","name":"Uznach","shortName":"Uznach"},"district":{"key":"1726","name":"Wahlkreis See-Gaster"},"canton":{"key":"17","code":"SG","name":"St. Gallen"},"status":"Real"},{"key":"10225483","name":"Bleicherietstrasse","postalCode":"8730","locality":"Uznach","commune":{"key":"3339","name":"Uznach","shortName":"Uznach"},"district":{"key":"1726","name":"Wahlkreis See-Gaster"},"canton":{"key":"17","code":"SG","name":"St. Gallen"},"status":"Real"},{"key":"10164290","name":"Bleichestrasse","postalCode":"8730","locality":"Uznach","commune":{"key":"3339","name":"Uznach","shortName":"Uznach"},"district":{"key":"1726","name":"Wahlkreis See-Gaster"},"canton":{"key":"17","code":"SG","name":"St. Gallen"},"status":"Real"},{"key":"10033538","name":"Bohlstrasse","postalCode":"8730","locality":"Uznach","commune":{"key":"3339","name":"Uznach","shortName":"Uznach"},"district":{"key":"1726","name":"Wahlkreis See-Gaster"},"canton":{"key":"17","code":"SG","name":"St. Gallen"},"status":"Real"},{"key":"10225487","name":"Bohlweg","postalCode":"8730","locality":"Uznach","commune":{"key":"3339","name":"Uznach","shortName":"Uznach"},"district":{"key":"1726","name":"Wahlkreis See-Gaster"},"canton":{"key":"17","code":"SG","name":"St. Gallen"},"status":"Real"},{"key":"10225491","name":"Böllenbergstrasse","postalCode":"8730","locality":"Uznach","commune":{"key":"3339","name":"Uznach","shortName":"Uznach"},"district":{"key":"1726","name":"Wahlkreis See-Gaster"},"canton":{"key":"17","code":"SG","name":"St. Gallen"},"status":"Real"},{"key":"10228859","name":"Böllenbergstrasse","postalCode":"8730","locality":"Uznach","commune":{"key":"3339","name":"Uznach","shortName":"Uznach"},"district":{"key":"1726","name":"Wahlkreis See-Gaster"},"canton":{"key":"17","code":"SG","name":"St. Gallen"},"status":"Real"},{"key":"10225495","name":"Böllenbergtobelweg","postalCode":"8730","locality":"Uznach","commune":{"key":"3339","name":"Uznach","shortName":"Uznach"},"district":{"key":"1726","name":"Wahlkreis See-Gaster"},"canton":{"key":"17","code":"SG","name":"St. Gallen"},"status":"Real"},{"key":"10228863","name":"Böllenbergweg","postalCode":"8730","locality":"Uznach","commune":{"key":"3339","name":"Uznach","shortName":"Uznach"},"district":{"key":"1726","name":"Wahlkreis See-Gaster"},"canton":{"key":"17","code":"SG","name":"St. Gallen"},"status":"Real"},{"key":"10225499","name":"Böllenbergweg","postalCode":"8730","locality":"Uznach","commune":{"key":"3339","name":"Uznach","shortName":"Uznach"},"district":{"key":"1726","name":"Wahlkreis See-Gaster"},"canton":{"key":"17","code":"SG","name":"St. Gallen"},"status":"Real"},{"key":"10188789","name":"Brauereistrasse","postalCode":"8730","locality":"Uznach","commune":{"key":"3339","name":"Uznach","shortName":"Uznach"},"district":{"key":"1726","name":"Wahlkreis See-Gaster"},"canton":{"key":"17","code":"SG","name":"St. Gallen"},"status":"Real"},{"key":"10225503","name":"Brauereiweg","postalCode":"8730","locality":"Uznach","commune":{"key":"3339","name":"Uznach","shortName":"Uznach"},"district":{"key":"1726","name":"Wahlkreis See-Gaster"},"canton":{"key":"17","code":"SG","name":"St. Gallen"},"status":"Real"},{"key":"10075572","name":"Breitenstrasse","postalCode":"8730","locality":"Uznach","commune":{"key":"3339","name":"Uznach","shortName":"Uznach"},"district":{"key":"1726","name":"Wahlkreis See-Gaster"},"canton":{"key":"17","code":"SG","name":"St. Gallen"},"status":"Real"},{"key":"10094047","name":"Buchbergstrasse","postalCode":"8730","locality":"Uznach","commune":{"key":"3339","name":"Uznach","shortName":"Uznach"},"district":{"key":"1726","name":"Wahlkreis See-Gaster"},"canton":{"key":"17","code":"SG","name":"St. Gallen"},"status":"Real"},{"key":"10225507","name":"Buchsgartenweg","postalCode":"8730","locality":"Uznach","commune":{"key":"3339","name":"Uznach","shortName":"Uznach"},"district":{"key":"1726","name":"Wahlkreis See-Gaster"},"canton":{"key":"17","code":"SG","name":"St. Gallen"},"status":"Real"},{"key":"10075573","name":"Bühlstrasse","postalCode":"8730","locality":"Uznach","commune":{"key":"3339","name":"Uznach","shortName":"Uznach"},"district":{"key":"1726","name":"Wahlkreis See-Gaster"},"canton":{"key":"17","code":"SG","name":"St. Gallen"},"status":"Real"},{"key":"10094048","name":"Burgerfeldstrasse","postalCode":"8730","locality":"Uznach","commune":{"key":"3339","name":"Uznach","shortName":"Uznach"},"district":{"key":"1726","name":"Wahlkreis See-Gaster"},"canton":{"key":"17","code":"SG","name":"St. Gallen"},"status":"Real"},{"key":"10225510","name":"Burgerfeldweg","postalCode":"8730","locality":"Uznach","commune":{"key":"3339","name":"Uznach","shortName":"Uznach"},"district":{"key":"1726","name":"Wahlkreis See-Gaster"},"canton":{"key":"17","code":"SG","name":"St. Gallen"},"status":"Real"},{"key":"10013426","name":"Burgerrietstrasse","postalCode":"8730","locality":"Uznach","commune":{"key":"3339","name":"Uznach","shortName":"Uznach"},"district":{"key":"1726","name":"Wahlkreis See-Gaster"},"canton":{"key":"17","code":"SG","name":"St. Gallen"},"status":"Real"},{"key":"10033540","name":"Bürglen","postalCode":"8730","locality":"Uznach","commune":{"key":"3339","name":"Uznach","shortName":"Uznach"},"district":{"key":"1726","name":"Wahlkreis See-Gaster"},"canton":{"key":"17","code":"SG","name":"St. Gallen"},"status":"Real"},{"key":"10225514","name":"Bürglenweg","postalCode":"8730","locality":"Uznach","commune":{"key":"3339","name":"Uznach","shortName":"Uznach"},"district":{"key":"1726","name":"Wahlkreis See-Gaster"},"canton":{"key":"17","code":"SG","name":"St. Gallen"},"status":"Real"},{"key":"10225518","name":"Burgmauerstrasse","postalCode":"8730","locality":"Uznach","commune":{"key":"3339","name":"Uznach","shortName":"Uznach"},"district":{"key":"1726","name":"Wahlkreis See-Gaster"},"canton":{"key":"17","code":"SG","name":"St. Gallen"},"status":"Real"},{"key":"10225522","name":"Burgplatzstrasse","postalCode":"8730","locality":"Uznach","commune":{"key":"3339","name":"Uznach","shortName":"Uznach"},"district":{"key":"1726","name":"Wahlkreis See-Gaster"},"canton":{"key":"17","code":"SG","name":"St. Gallen"},"status":"Real"},{"key":"10225526","name":"Burgruinenweg","postalCode":"8730","locality":"Uznach","commune":{"key":"3339","name":"Uznach","shortName":"Uznach"},"district":{"key":"1726","name":"Wahlkreis See-Gaster"},"canton":{"key":"17","code":"SG","name":"St. Gallen"},"status":"Real"},{"key":"10033541","name":"Dachsegg","postalCode":"8730","locality":"Uznach","commune":{"key":"3339","name":"Uznach","shortName":"Uznach"},"district":{"key":"1726","name":"Wahlkreis See-Gaster"},"canton":{"key":"17","code":"SG","name":"St. Gallen"},"status":"Real"},{"key":"10225530","name":"Dachseggweg","postalCode":"8730","locality":"Uznach","commune":{"key":"3339","name":"Uznach","shortName":"Uznach"},"district":{"key":"1726","name":"Wahlkreis See-Gaster"},"canton":{"key":"17","code":"SG","name":"St. Gallen"},"status":"Real"},{"key":"10225534","name":"Dämmliweg","postalCode":"8730","locality":"Uznach","commune":{"key":"3339","name":"Uznach","shortName":"Uznach"},"district":{"key":"1726","name":"Wahlkreis See-Gaster"},"canton":{"key":"17","code":"SG","name":"St. Gallen"},"status":"Real"},{"key":"10033542","name":"Dattikonstrasse","postalCode":"8730","locality":"Uznach","commune":{"key":"3339","name":"Uznach","shortName":"Uznach"},"district":{"key":"1726","name":"Wahlkreis See-Gaster"},"canton":{"key":"17","code":"SG","name":"St. Gallen"},"status":"Real"},{"key":"10225538","name":"Dattikonweg","postalCode":"8730","locality":"Uznach","commune":{"key":"3339","name":"Uznach","shortName":"Uznach"},"district":{"key":"1726","name":"Wahlkreis See-Gaster"},"canton":{"key":"17","code":"SG","name":"St. Gallen"},"status":"Real"},{"key":"10094049","name":"Eisenbahnstrasse","postalCode":"8730","locality":"Uznach","commune":{"key":"3339","name":"Uznach","shortName":"Uznach"},"district":{"key":"1726","name":"Wahlkreis See-Gaster"},"canton":{"key":"17","code":"SG","name":"St. Gallen"},"status":"Real"},{"key":"10075574","name":"Entenseestrasse","postalCode":"8730","locality":"Uznach","commune":{"key":"3339","name":"Uznach","shortName":"Uznach"},"district":{"key":"1726","name":"Wahlkreis See-Gaster"},"canton":{"key":"17","code":"SG","name":"St. Gallen"},"status":"Real"},{"key":"10225546","name":"Entenseeweg","postalCode":"8730","locality":"Uznach","commune":{"key":"3339","name":"Uznach","shortName":"Uznach"},"district":{"key":"1726","name":"Wahlkreis See-Gaster"},"canton":{"key":"17","code":"SG","name":"St. Gallen"},"status":"Real"},{"key":"10250634","name":"Ernetschwilerbachstrasse","postalCode":"8730","locality":"Uznach","commune":{"key":"3339","name":"Uznach","shortName":"Uznach"},"district":{"key":"1726","name":"Wahlkreis See-Gaster"},"canton":{"key":"17","code":"SG","name":"St. Gallen"},"status":"Real"},{"key":"10225550","name":"Ernetschwilerbachweg","postalCode":"8730","locality":"Uznach","commune":{"key":"3339","name":"Uznach","shortName":"Uznach"},"district":{"key":"1726","name":"Wahlkreis See-Gaster"},"canton":{"key":"17","code":"SG","name":"St. Gallen"},"status":"Real"},{"key":"10122083","name":"Ernetschwilerstrasse","postalCode":"8730","locality":"Uznach","commune":{"key":"3339","name":"Uznach","shortName":"Uznach"},"district":{"key":"1726","name":"Wahlkreis See-Gaster"},"canton":{"key":"17","code":"SG","name":"St. Gallen"},"status":"Real"},{"key":"10114590","name":"Escherstrasse","postalCode":"8730","locality":"Uznach","commune":{"key":"3339","name":"Uznach","shortName":"Uznach"},"district":{"key":"1726","name":"Wahlkreis See-Gaster"},"canton":{"key":"17","code":"SG","name":"St. Gallen"},"status":"Real"},{"key":"10164292","name":"Escherwiesstrasse","postalCode":"8730","locality":"Uznach","commune":{"key":"3339","name":"Uznach","shortName":"Uznach"},"district":{"key":"1726","name":"Wahlkreis See-Gaster"},"canton":{"key":"17","code":"SG","name":"St. Gallen"},"status":"Real"},{"key":"10033543","name":"Etzelstrasse","postalCode":"8730","locality":"Uznach","commune":{"key":"3339","name":"Uznach","shortName":"Uznach"},"district":{"key":"1726","name":"Wahlkreis See-Gaster"},"canton":{"key":"17","code":"SG","name":"St. Gallen"},"status":"Real"},{"key":"10118284","name":"Felsenburgstrasse","postalCode":"8730","locality":"Uznach","commune":{"key":"3339","name":"Uznach","shortName":"Uznach"},"district":{"key":"1726","name":"Wahlkreis See-Gaster"},"canton":{"key":"17","code":"SG","name":"St. Gallen"},"status":"Real"},{"key":"10075575","name":"Frohe Aussicht","postalCode":"8730","locality":"Uznach","commune":{"key":"3339","name":"Uznach","shortName":"Uznach"},"district":{"key":"1726","name":"Wahlkreis See-Gaster"},"canton":{"key":"17","code":"SG","name":"St. Gallen"},"status":"Real"},{"key":"10225554","name":"Frohsinnstrasse","postalCode":"8730","locality":"Uznach","commune":{"key":"3339","name":"Uznach","shortName":"Uznach"},"district":{"key":"1726","name":"Wahlkreis See-Gaster"},"canton":{"key":"17","code":"SG","name":"St. Gallen"},"status":"Real"},{"key":"10225558","name":"Frohsinnweg","postalCode":"8730","locality":"Uznach","commune":{"key":"3339","name":"Uznach","shortName":"Uznach"},"district":{"key":"1726","name":"Wahlkreis See-Gaster"},"canton":{"key":"17","code":"SG","name":"St. Gallen"},"status":"Real"},{"key":"10046483","name":"Gallusstrasse","postalCode":"8730","locality":"Uznach","commune":{"key":"3339","name":"Uznach","shortName":"Uznach"},"district":{"key":"1726","name":"Wahlkreis See-Gaster"},"canton":{"key":"17","code":"SG","name":"St. Gallen"},"status":"Real"},{"key":"10225562","name":"Gasterkanalstrasse","postalCode":"8730","locality":"Uznach","commune":{"key":"3339","name":"Uznach","shortName":"Uznach"},"district":{"key":"1726","name":"Wahlkreis See-Gaster"},"canton":{"key":"17","code":"SG","name":"St. Gallen"},"status":"Real"},{"key":"10188790","name":"Gasterstrasse","postalCode":"8730","locality":"Uznach","commune":{"key":"3339","name":"Uznach","shortName":"Uznach"},"district":{"key":"1726","name":"Wahlkreis See-Gaster"},"canton":{"key":"17","code":"SG","name":"St. Gallen"},"status":"Real"},{"key":"10033544","name":"Gasterweg","postalCode":"8730","locality":"Uznach","commune":{"key":"3339","name":"Uznach","shortName":"Uznach"},"district":{"key":"1726","name":"Wahlkreis See-Gaster"},"canton":{"key":"17","code":"SG","name":"St. Gallen"},"status":"Real"},{"key":"10108117","name":"Gerbistrasse","postalCode":"8730","locality":"Uznach","commune":{"key":"3339","name":"Uznach","shortName":"Uznach"},"district":{"key":"1726","name":"Wahlkreis See-Gaster"},"canton":{"key":"17","code":"SG","name":"St. Gallen"},"status":"Real"},{"key":"10225566","name":"Gerbiweg","postalCode":"8730","locality":"Uznach","commune":{"key":"3339","name":"Uznach","shortName":"Uznach"},"district":{"key":"1726","name":"Wahlkreis See-Gaster"},"canton":{"key":"17","code":"SG","name":"St. Gallen"},"status":"Real"},{"key":"10017998","name":"Grinau","postalCode":"8730","locality":"Uznach","commune":{"key":"3339","name":"Uznach","shortName":"Uznach"},"district":{"key":"1726","name":"Wahlkreis See-Gaster"},"canton":{"key":"17","code":"SG","name":"St. Gallen"},"status":"Real"},{"key":"10033545","name":"Grynaustrasse","postalCode":"8730","locality":"Uznach","commune":{"key":"3339","name":"Uznach","shortName":"Uznach"},"district":{"key":"1726","name":"Wahlkreis See-Gaster"},"canton":{"key":"17","code":"SG","name":"St. Gallen"},"status":"Real"},{"key":"10225173","name":"Gublenstrasse","postalCode":"8730","locality":"Uznach","commune":{"key":"3339","name":"Uznach","shortName":"Uznach"},"district":{"key":"1726","name":"Wahlkreis See-Gaster"},"canton":{"key":"17","code":"SG","name":"St. Gallen"},"status":"Real"},{"key":"10225570","name":"Gublenstrasse","postalCode":"8730","locality":"Uznach","commune":{"key":"3339","name":"Uznach","shortName":"Uznach"},"district":{"key":"1726","name":"Wahlkreis See-Gaster"},"canton":{"key":"17","code":"SG","name":"St. Gallen"},"status":"Real"},{"key":"10225574","name":"Haldenstrasse","postalCode":"8730","locality":"Uznach","commune":{"key":"3339","name":"Uznach","shortName":"Uznach"},"district":{"key":"1726","name":"Wahlkreis See-Gaster"},"canton":{"key":"17","code":"SG","name":"St. Gallen"},"status":"Real"},{"key":"10075576","name":"Haselgässchen","postalCode":"8730","locality":"Uznach","commune":{"key":"3339","name":"Uznach","shortName":"Uznach"},"district":{"key":"1726","name":"Wahlkreis See-Gaster"},"canton":{"key":"17","code":"SG","name":"St. Gallen"},"status":"Real"},{"key":"10225578","name":"Hasenweidstrasse","postalCode":"8730","locality":"Uznach","commune":{"key":"3339","name":"Uznach","shortName":"Uznach"},"district":{"key":"1726","name":"Wahlkreis See-Gaster"},"canton":{"key":"17","code":"SG","name":"St. Gallen"},"status":"Real"},{"key":"10225582","name":"Hasenweidweg","postalCode":"8730","locality":"Uznach","commune":{"key":"3339","name":"Uznach","shortName":"Uznach"},"district":{"key":"1726","name":"Wahlkreis See-Gaster"},"canton":{"key":"17","code":"SG","name":"St. Gallen"},"status":"Real"},{"key":"10033546","name":"Hegnerrain","postalCode":"8730","locality":"Uznach","commune":{"key":"3339","name":"Uznach","shortName":"Uznach"},"district":{"key":"1726","name":"Wahlkreis See-Gaster"},"canton":{"key":"17","code":"SG","name":"St. Gallen"},"status":"Real"},{"key":"10225586","name":"Hegnerrainweg","postalCode":"8730","locality":"Uznach","commune":{"key":"3339","name":"Uznach","shortName":"Uznach"},"district":{"key":"1726","name":"Wahlkreis See-Gaster"},"canton":{"key":"17","code":"SG","name":"St. Gallen"},"status":"Real"},{"key":"10046484","name":"Hegnerstrasse","postalCode":"8730","locality":"Uznach","commune":{"key":"3339","name":"Uznach","shortName":"Uznach"},"district":{"key":"1726","name":"Wahlkreis See-Gaster"},"canton":{"key":"17","code":"SG","name":"St. Gallen"},"status":"Real"},{"key":"10033547","name":"Herrenackerstrasse","postalCode":"8730","locality":"Uznach","commune":{"key":"3339","name":"Uznach","shortName":"Uznach"},"district":{"key":"1726","name":"Wahlkreis See-Gaster"},"canton":{"key":"17","code":"SG","name":"St. Gallen"},"status":"Real"},{"key":"10075577","name":"Heubergstrasse","postalCode":"8730","locality":"Uznach","commune":{"key":"3339","name":"Uznach","shortName":"Uznach"},"district":{"key":"1726","name":"Wahlkreis See-Gaster"},"canton":{"key":"17","code":"SG","name":"St. Gallen"},"status":"Real"},{"key":"10225590","name":"Heuberg-Täliweg","postalCode":"8730","locality":"Uznach","commune":{"key":"3339","name":"Uznach","shortName":"Uznach"},"district":{"key":"1726","name":"Wahlkreis See-Gaster"},"canton":{"key":"17","code":"SG","name":"St. Gallen"},"status":"Real"},{"key":"10225594","name":"Heubergweg","postalCode":"8730","locality":"Uznach","commune":{"key":"3339","name":"Uznach","shortName":"Uznach"},"district":{"key":"1726","name":"Wahlkreis See-Gaster"},"canton":{"key":"17","code":"SG","name":"St. Gallen"},"status":"Real"},{"key":"10225598","name":"Hexenweg","postalCode":"8730","locality":"Uznach","commune":{"key":"3339","name":"Uznach","shortName":"Uznach"},"district":{"key":"1726","name":"Wahlkreis See-Gaster"},"canton":{"key":"17","code":"SG","name":"St. Gallen"},"status":"Real"},{"key":"10033548","name":"Hinterstadt","postalCode":"8730","locality":"Uznach","commune":{"key":"3339","name":"Uznach","shortName":"Uznach"},"district":{"key":"1726","name":"Wahlkreis See-Gaster"},"canton":{"key":"17","code":"SG","name":"St. Gallen"},"status":"Real"},{"key":"10190458","name":"Hirschwiese","postalCode":"8730","locality":"Uznach","commune":{"key":"3339","name":"Uznach","shortName":"Uznach"},"district":{"key":"1726","name":"Wahlkreis See-Gaster"},"canton":{"key":"17","code":"SG","name":"St. Gallen"},"status":"Real"},{"key":"10225602","name":"Hirschwieseweg","postalCode":"8730","locality":"Uznach","commune":{"key":"3339","name":"Uznach","shortName":"Uznach"},"district":{"key":"1726","name":"Wahlkreis See-Gaster"},"canton":{"key":"17","code":"SG","name":"St. Gallen"},"status":"Real"},{"key":"10033841","name":"Hirzlistrasse","postalCode":"8730","locality":"Uznach","commune":{"key":"3339","name":"Uznach","shortName":"Uznach"},"district":{"key":"1726","name":"Wahlkreis See-Gaster"},"canton":{"key":"17","code":"SG","name":"St. Gallen"},"status":"Real"},{"key":"10104593","name":"Hof","postalCode":"8730","locality":"Uznach","commune":{"key":"3339","name":"Uznach","shortName":"Uznach"},"district":{"key":"1726","name":"Wahlkreis See-Gaster"},"canton":{"key":"17","code":"SG","name":"St. Gallen"},"status":"Real"},{"key":"10188791","name":"Hofrain","postalCode":"8730","locality":"Uznach","commune":{"key":"3339","name":"Uznach","shortName":"Uznach"},"district":{"key":"1726","name":"Wahlkreis See-Gaster"},"canton":{"key":"17","code":"SG","name":"St. Gallen"},"status":"Real"},{"key":"10171711","name":"Hofrütistrasse","postalCode":"8730","locality":"Uznach","commune":{"key":"3339","name":"Uznach","shortName":"Uznach"},"district":{"key":"1726","name":"Wahlkreis See-Gaster"},"canton":{"key":"17","code":"SG","name":"St. Gallen"},"status":"Real"},{"key":"10096399","name":"Hofstrasse","postalCode":"8730","locality":"Uznach","commune":{"key":"3339","name":"Uznach","shortName":"Uznach"},"district":{"key":"1726","name":"Wahlkreis See-Gaster"},"canton":{"key":"17","code":"SG","name":"St. Gallen"},"status":"Real"},{"key":"10146295","name":"Höhenweg","postalCode":"8730","locality":"Uznach","commune":{"key":"3339","name":"Uznach","shortName":"Uznach"},"district":{"key":"1726","name":"Wahlkreis See-Gaster"},"canton":{"key":"17","code":"SG","name":"St. Gallen"},"status":"Real"},{"key":"10033842","name":"Im Bohl","postalCode":"8730","locality":"Uznach","commune":{"key":"3339","name":"Uznach","shortName":"Uznach"},"district":{"key":"1726","name":"Wahlkreis See-Gaster"},"canton":{"key":"17","code":"SG","name":"St. Gallen"},"status":"Real"},{"key":"10094052","name":"Im Freudmoos","postalCode":"8730","locality":"Uznach","commune":{"key":"3339","name":"Uznach","shortName":"Uznach"},"district":{"key":"1726","name":"Wahlkreis See-Gaster"},"canton":{"key":"17","code":"SG","name":"St. Gallen"},"status":"Real"},{"key":"10186639","name":"Imperhof","postalCode":"8730","locality":"Uznach","commune":{"key":"3339","name":"Uznach","shortName":"Uznach"},"district":{"key":"1726","name":"Wahlkreis See-Gaster"},"canton":{"key":"17","code":"SG","name":"St. Gallen"},"status":"Real"},{"key":"10225606","name":"Imperhofstrasse","postalCode":"8730","locality":"Uznach","commune":{"key":"3339","name":"Uznach","shortName":"Uznach"},"district":{"key":"1726","name":"Wahlkreis See-Gaster"},"canton":{"key":"17","code":"SG","name":"St. Gallen"},"status":"Real"},{"key":"10075578","name":"Im Zübli","postalCode":"8730","locality":"Uznach","commune":{"key":"3339","name":"Uznach","shortName":"Uznach"},"district":{"key":"1726","name":"Wahlkreis See-Gaster"},"canton":{"key":"17","code":"SG","name":"St. Gallen"},"status":"Real"},{"key":"10225610","name":"Kapellstrasse","postalCode":"8730","locality":"Uznach","commune":{"key":"3339","name":"Uznach","shortName":"Uznach"},"district":{"key":"1726","name":"Wahlkreis See-Gaster"},"canton":{"key":"17","code":"SG","name":"St. Gallen"},"status":"Real"},{"key":"10225614","name":"Kaplaneigässchen","postalCode":"8730","locality":"Uznach","commune":{"key":"3339","name":"Uznach","shortName":"Uznach"},"district":{"key":"1726","name":"Wahlkreis See-Gaster"},"canton":{"key":"17","code":"SG","name":"St. Gallen"},"status":"Real"},{"key":"10225618","name":"Kirchweg","postalCode":"8730","locality":"Uznach","commune":{"key":"3339","name":"Uznach","shortName":"Uznach"},"district":{"key":"1726","name":"Wahlkreis See-Gaster"},"canton":{"key":"17","code":"SG","name":"St. Gallen"},"status":"Real"},{"key":"10225622","name":"Krummackerstrasse","postalCode":"8730","locality":"Uznach","commune":{"key":"3339","name":"Uznach","shortName":"Uznach"},"district":{"key":"1726","name":"Wahlkreis See-Gaster"},"canton":{"key":"17","code":"SG","name":"St. Gallen"},"status":"Real"},{"key":"10033843","name":"Letzistrasse","postalCode":"8730","locality":"Uznach","commune":{"key":"3339","name":"Uznach","shortName":"Uznach"},"district":{"key":"1726","name":"Wahlkreis See-Gaster"},"canton":{"key":"17","code":"SG","name":"St. Gallen"},"status":"Real"},{"key":"10225626","name":"Letziweg","postalCode":"8730","locality":"Uznach","commune":{"key":"3339","name":"Uznach","shortName":"Uznach"},"district":{"key":"1726","name":"Wahlkreis See-Gaster"},"canton":{"key":"17","code":"SG","name":"St. Gallen"},"status":"Real"},{"key":"10225630","name":"Lindenbaumweg","postalCode":"8730","locality":"Uznach","commune":{"key":"3339","name":"Uznach","shortName":"Uznach"},"district":{"key":"1726","name":"Wahlkreis See-Gaster"},"canton":{"key":"17","code":"SG","name":"St. Gallen"},"status":"Real"},{"key":"10225634","name":"Lindenplatzweg","postalCode":"8730","locality":"Uznach","commune":{"key":"3339","name":"Uznach","shortName":"Uznach"},"district":{"key":"1726","name":"Wahlkreis See-Gaster"},"canton":{"key":"17","code":"SG","name":"St. Gallen"},"status":"Real"},{"key":"10123525","name":"Lindenstrasse","postalCode":"8730","locality":"Uznach","commune":{"key":"3339","name":"Uznach","shortName":"Uznach"},"district":{"key":"1726","name":"Wahlkreis See-Gaster"},"canton":{"key":"17","code":"SG","name":"St. Gallen"},"status":"Real"},{"key":"10225638","name":"Linthdammweg","postalCode":"8730","locality":"Uznach","commune":{"key":"3339","name":"Uznach","shortName":"Uznach"},"district":{"key":"1726","name":"Wahlkreis See-Gaster"},"canton":{"key":"17","code":"SG","name":"St. Gallen"},"status":"Real"},{"key":"10225646","name":"Linthofstrasse","postalCode":"8730","locality":"Uznach","commune":{"key":"3339","name":"Uznach","shortName":"Uznach"},"district":{"key":"1726","name":"Wahlkreis See-Gaster"},"canton":{"key":"17","code":"SG","name":"St. Gallen"},"status":"Real"},{"key":"10225650","name":"Linthparkweg","postalCode":"8730","locality":"Uznach","commune":{"key":"3339","name":"Uznach","shortName":"Uznach"},"district":{"key":"1726","name":"Wahlkreis See-Gaster"},"canton":{"key":"17","code":"SG","name":"St. Gallen"},"status":"Real"},{"key":"10225654","name":"Morgenstrasse","postalCode":"8730","locality":"Uznach","commune":{"key":"3339","name":"Uznach","shortName":"Uznach"},"district":{"key":"1726","name":"Wahlkreis See-Gaster"},"canton":{"key":"17","code":"SG","name":"St. Gallen"},"status":"Real"},{"key":"10225658","name":"Mövenstrasse","postalCode":"8730","locality":"Uznach","commune":{"key":"3339","name":"Uznach","shortName":"Uznach"},"district":{"key":"1726","name":"Wahlkreis See-Gaster"},"canton":{"key":"17","code":"SG","name":"St. Gallen"},"status":"Real"},{"key":"10225662","name":"Mühlauquartierweg","postalCode":"8730","locality":"Uznach","commune":{"key":"3339","name":"Uznach","shortName":"Uznach"},"district":{"key":"1726","name":"Wahlkreis See-Gaster"},"canton":{"key":"17","code":"SG","name":"St. Gallen"},"status":"Real"},{"key":"10033844","name":"Mühlaustrasse","postalCode":"8730","locality":"Uznach","commune":{"key":"3339","name":"Uznach","shortName":"Uznach"},"district":{"key":"1726","name":"Wahlkreis See-Gaster"},"canton":{"key":"17","code":"SG","name":"St. Gallen"},"status":"Real"},{"key":"10225666","name":"Mühlauweg","postalCode":"8730","locality":"Uznach","commune":{"key":"3339","name":"Uznach","shortName":"Uznach"},"district":{"key":"1726","name":"Wahlkreis See-Gaster"},"canton":{"key":"17","code":"SG","name":"St. Gallen"},"status":"Real"},{"key":"10146977","name":"Mühlebachstrasse","postalCode":"8730","locality":"Uznach","commune":{"key":"3339","name":"Uznach","shortName":"Uznach"},"district":{"key":"1726","name":"Wahlkreis See-Gaster"},"canton":{"key":"17","code":"SG","name":"St. Gallen"},"status":"Real"},{"key":"10046485","name":"Mürtschenstrasse","postalCode":"8730","locality":"Uznach","commune":{"key":"3339","name":"Uznach","shortName":"Uznach"},"district":{"key":"1726","name":"Wahlkreis See-Gaster"},"canton":{"key":"17","code":"SG","name":"St. Gallen"},"status":"Real"},{"key":"10225670","name":"Mürtschenweg","postalCode":"8730","locality":"Uznach","commune":{"key":"3339","name":"Uznach","shortName":"Uznach"},"district":{"key":"1726","name":"Wahlkreis See-Gaster"},"canton":{"key":"17","code":"SG","name":"St. Gallen"},"status":"Real"},{"key":"10225674","name":"Nebengrabenstrasse","postalCode":"8730","locality":"Uznach","commune":{"key":"3339","name":"Uznach","shortName":"Uznach"},"district":{"key":"1726","name":"Wahlkreis See-Gaster"},"canton":{"key":"17","code":"SG","name":"St. Gallen"},"status":"Real"},{"key":"10033845","name":"Niederwiesstrasse","postalCode":"8730","locality":"Uznach","commune":{"key":"3339","name":"Uznach","shortName":"Uznach"},"district":{"key":"1726","name":"Wahlkreis See-Gaster"},"canton":{"key":"17","code":"SG","name":"St. Gallen"},"status":"Real"},{"key":"10013719","name":"Obere Brauerei","postalCode":"8730","locality":"Uznach","commune":{"key":"3339","name":"Uznach","shortName":"Uznach"},"district":{"key":"1726","name":"Wahlkreis See-Gaster"},"canton":{"key":"17","code":"SG","name":"St. Gallen"},"status":"Real"},{"key":"10094054","name":"Obere Buchwaldstrasse","postalCode":"8730","locality":"Uznach","commune":{"key":"3339","name":"Uznach","shortName":"Uznach"},"district":{"key":"1726","name":"Wahlkreis See-Gaster"},"canton":{"key":"17","code":"SG","name":"St. Gallen"},"status":"Real"},{"key":"10075579","name":"Oberer Böllenberg","postalCode":"8730","locality":"Uznach","commune":{"key":"3339","name":"Uznach","shortName":"Uznach"},"district":{"key":"1726","name":"Wahlkreis See-Gaster"},"canton":{"key":"17","code":"SG","name":"St. Gallen"},"status":"Real"},{"key":"10225682","name":"Oberer Buchwaldweg","postalCode":"8730","locality":"Uznach","commune":{"key":"3339","name":"Uznach","shortName":"Uznach"},"district":{"key":"1726","name":"Wahlkreis See-Gaster"},"canton":{"key":"17","code":"SG","name":"St. Gallen"},"status":"Real"},{"key":"10075580","name":"Oberer Hegner","postalCode":"8730","locality":"Uznach","commune":{"key":"3339","name":"Uznach","shortName":"Uznach"},"district":{"key":"1726","name":"Wahlkreis See-Gaster"},"canton":{"key":"17","code":"SG","name":"St. Gallen"},"status":"Real"},{"key":"10033846","name":"Oberer Stadtgraben","postalCode":"8730","locality":"Uznach","commune":{"key":"3339","name":"Uznach","shortName":"Uznach"},"district":{"key":"1726","name":"Wahlkreis See-Gaster"},"canton":{"key":"17","code":"SG","name":"St. Gallen"},"status":"Real"},{"key":"10112035","name":"Obergasse","postalCode":"8730","locality":"Uznach","commune":{"key":"3339","name":"Uznach","shortName":"Uznach"},"district":{"key":"1726","name":"Wahlkreis See-Gaster"},"canton":{"key":"17","code":"SG","name":"St. Gallen"},"status":"Real"},{"key":"10224131","name":"Obstgartenweg","postalCode":"8730","locality":"Uznach","commune":{"key":"3339","name":"Uznach","shortName":"Uznach"},"district":{"key":"1726","name":"Wahlkreis See-Gaster"},"canton":{"key":"17","code":"SG","name":"St. Gallen"},"status":"Real"},{"key":"10225686","name":"Pius Rickenmannweg","postalCode":"8730","locality":"Uznach","commune":{"key":"3339","name":"Uznach","shortName":"Uznach"},"district":{"key":"1726","name":"Wahlkreis See-Gaster"},"canton":{"key":"17","code":"SG","name":"St. Gallen"},"status":"Real"},{"key":"10111454","name":"Pumpwerkstrasse","postalCode":"8730","locality":"Uznach","commune":{"key":"3339","name":"Uznach","shortName":"Uznach"},"district":{"key":"1726","name":"Wahlkreis See-Gaster"},"canton":{"key":"17","code":"SG","name":"St. Gallen"},"status":"Real"},{"key":"10225690","name":"Ranzachtobelweg","postalCode":"8730","locality":"Uznach","commune":{"key":"3339","name":"Uznach","shortName":"Uznach"},"district":{"key":"1726","name":"Wahlkreis See-Gaster"},"canton":{"key":"17","code":"SG","name":"St. Gallen"},"status":"Real"},{"key":"10225694","name":"Rathausgässchen","postalCode":"8730","locality":"Uznach","commune":{"key":"3339","name":"Uznach","shortName":"Uznach"},"district":{"key":"1726","name":"Wahlkreis See-Gaster"},"canton":{"key":"17","code":"SG","name":"St. Gallen"},"status":"Real"},{"key":"10094055","name":"Rebenretsch","postalCode":"8730","locality":"Uznach","commune":{"key":"3339","name":"Uznach","shortName":"Uznach"},"district":{"key":"1726","name":"Wahlkreis See-Gaster"},"canton":{"key":"17","code":"SG","name":"St. Gallen"},"status":"Real"},{"key":"10195027","name":"Rebenstrasse","postalCode":"8730","locality":"Uznach","commune":{"key":"3339","name":"Uznach","shortName":"Uznach"},"district":{"key":"1726","name":"Wahlkreis See-Gaster"},"canton":{"key":"17","code":"SG","name":"St. Gallen"},"status":"Real"},{"key":"10225698","name":"Rebenweg","postalCode":"8730","locality":"Uznach","commune":{"key":"3339","name":"Uznach","shortName":"Uznach"},"district":{"key":"1726","name":"Wahlkreis See-Gaster"},"canton":{"key":"17","code":"SG","name":"St. Gallen"},"status":"Real"},{"key":"10075581","name":"Remigihofstrasse","postalCode":"8730","locality":"Uznach","commune":{"key":"3339","name":"Uznach","shortName":"Uznach"},"district":{"key":"1726","name":"Wahlkreis See-Gaster"},"canton":{"key":"17","code":"SG","name":"St. Gallen"},"status":"Real"},{"key":"10225702","name":"Remigihofweg","postalCode":"8730","locality":"Uznach","commune":{"key":"3339","name":"Uznach","shortName":"Uznach"},"district":{"key":"1726","name":"Wahlkreis See-Gaster"},"canton":{"key":"17","code":"SG","name":"St. Gallen"},"status":"Real"},{"key":"10033847","name":"Rickenstrasse","postalCode":"8730","locality":"Uznach","commune":{"key":"3339","name":"Uznach","shortName":"Uznach"},"district":{"key":"1726","name":"Wahlkreis See-Gaster"},"canton":{"key":"17","code":"SG","name":"St. Gallen"},"status":"Real"},{"key":"10188792","name":"Rietstrasse","postalCode":"8730","locality":"Uznach","commune":{"key":"3339","name":"Uznach","shortName":"Uznach"},"district":{"key":"1726","name":"Wahlkreis See-Gaster"},"canton":{"key":"17","code":"SG","name":"St. Gallen"},"status":"Real"},{"key":"10225706","name":"Rietweg","postalCode":"8730","locality":"Uznach","commune":{"key":"3339","name":"Uznach","shortName":"Uznach"},"district":{"key":"1726","name":"Wahlkreis See-Gaster"},"canton":{"key":"17","code":"SG","name":"St. Gallen"},"status":"Real"},{"key":"10092824","name":"Rosenbergweg","postalCode":"8730","locality":"Uznach","commune":{"key":"3339","name":"Uznach","shortName":"Uznach"},"district":{"key":"1726","name":"Wahlkreis See-Gaster"},"canton":{"key":"17","code":"SG","name":"St. Gallen"},"status":"Real"},{"key":"10033848","name":"Rotfarb","postalCode":"8730","locality":"Uznach","commune":{"key":"3339","name":"Uznach","shortName":"Uznach"},"district":{"key":"1726","name":"Wahlkreis See-Gaster"},"canton":{"key":"17","code":"SG","name":"St. Gallen"},"status":"Real"},{"key":"10225710","name":"Rotfarb-Kanalweg","postalCode":"8730","locality":"Uznach","commune":{"key":"3339","name":"Uznach","shortName":"Uznach"},"district":{"key":"1726","name":"Wahlkreis See-Gaster"},"canton":{"key":"17","code":"SG","name":"St. Gallen"},"status":"Real"},{"key":"10225713","name":"Rotfarbweg","postalCode":"8730","locality":"Uznach","commune":{"key":"3339","name":"Uznach","shortName":"Uznach"},"district":{"key":"1726","name":"Wahlkreis See-Gaster"},"canton":{"key":"17","code":"SG","name":"St. Gallen"},"status":"Real"},{"key":"10149571","name":"Rütihaldestrasse","postalCode":"8730","locality":"Uznach","commune":{"key":"3339","name":"Uznach","shortName":"Uznach"},"district":{"key":"1726","name":"Wahlkreis See-Gaster"},"canton":{"key":"17","code":"SG","name":"St. Gallen"},"status":"Real"},{"key":"10225718","name":"Rütihaldeweg","postalCode":"8730","locality":"Uznach","commune":{"key":"3339","name":"Uznach","shortName":"Uznach"},"district":{"key":"1726","name":"Wahlkreis See-Gaster"},"canton":{"key":"17","code":"SG","name":"St. Gallen"},"status":"Real"},{"key":"10075582","name":"Rütistrasse","postalCode":"8730","locality":"Uznach","commune":{"key":"3339","name":"Uznach","shortName":"Uznach"},"district":{"key":"1726","name":"Wahlkreis See-Gaster"},"canton":{"key":"17","code":"SG","name":"St. Gallen"},"status":"Real"},{"key":"10225721","name":"Rütiweg","postalCode":"8730","locality":"Uznach","commune":{"key":"3339","name":"Uznach","shortName":"Uznach"},"district":{"key":"1726","name":"Wahlkreis See-Gaster"},"canton":{"key":"17","code":"SG","name":"St. Gallen"},"status":"Real"},{"key":"10225725","name":"Sägebachweg","postalCode":"8730","locality":"Uznach","commune":{"key":"3339","name":"Uznach","shortName":"Uznach"},"district":{"key":"1726","name":"Wahlkreis See-Gaster"},"canton":{"key":"17","code":"SG","name":"St. Gallen"},"status":"Real"},{"key":"10190459","name":"Sägestrasse","postalCode":"8730","locality":"Uznach","commune":{"key":"3339","name":"Uznach","shortName":"Uznach"},"district":{"key":"1726","name":"Wahlkreis See-Gaster"},"canton":{"key":"17","code":"SG","name":"St. Gallen"},"status":"Real"},{"key":"10162159","name":"Schloss Grynau","postalCode":"8730","locality":"Uznach","commune":{"key":"3339","name":"Uznach","shortName":"Uznach"},"district":{"key":"1726","name":"Wahlkreis See-Gaster"},"canton":{"key":"17","code":"SG","name":"St. Gallen"},"status":"Real"},{"key":"10225733","name":"Schularealweg","postalCode":"8730","locality":"Uznach","commune":{"key":"3339","name":"Uznach","shortName":"Uznach"},"district":{"key":"1726","name":"Wahlkreis See-Gaster"},"canton":{"key":"17","code":"SG","name":"St. Gallen"},"status":"Real"},{"key":"10033850","name":"Schulhausstrasse","postalCode":"8730","locality":"Uznach","commune":{"key":"3339","name":"Uznach","shortName":"Uznach"},"district":{"key":"1726","name":"Wahlkreis See-Gaster"},"canton":{"key":"17","code":"SG","name":"St. Gallen"},"status":"Real"},{"key":"10225737","name":"Schulhausweg","postalCode":"8730","locality":"Uznach","commune":{"key":"3339","name":"Uznach","shortName":"Uznach"},"district":{"key":"1726","name":"Wahlkreis See-Gaster"},"canton":{"key":"17","code":"SG","name":"St. Gallen"},"status":"Real"},{"key":"10033851","name":"Seeblickstrasse","postalCode":"8730","locality":"Uznach","commune":{"key":"3339","name":"Uznach","shortName":"Uznach"},"district":{"key":"1726","name":"Wahlkreis See-Gaster"},"canton":{"key":"17","code":"SG","name":"St. Gallen"},"status":"Real"},{"key":"10225741","name":"Seeblickweg","postalCode":"8730","locality":"Uznach","commune":{"key":"3339","name":"Uznach","shortName":"Uznach"},"district":{"key":"1726","name":"Wahlkreis See-Gaster"},"canton":{"key":"17","code":"SG","name":"St. Gallen"},"status":"Real"},{"key":"10225745","name":"Seidengasse","postalCode":"8730","locality":"Uznach","commune":{"key":"3339","name":"Uznach","shortName":"Uznach"},"district":{"key":"1726","name":"Wahlkreis See-Gaster"},"canton":{"key":"17","code":"SG","name":"St. Gallen"},"status":"Real"},{"key":"10225749","name":"Speer-Hirzlistrasse","postalCode":"8730","locality":"Uznach","commune":{"key":"3339","name":"Uznach","shortName":"Uznach"},"district":{"key":"1726","name":"Wahlkreis See-Gaster"},"canton":{"key":"17","code":"SG","name":"St. Gallen"},"status":"Real"},{"key":"10075583","name":"Speerstrasse","postalCode":"8730","locality":"Uznach","commune":{"key":"3339","name":"Uznach","shortName":"Uznach"},"district":{"key":"1726","name":"Wahlkreis See-Gaster"},"canton":{"key":"17","code":"SG","name":"St. Gallen"},"status":"Real"},{"key":"10033852","name":"Spinnereistrasse","postalCode":"8730","locality":"Uznach","commune":{"key":"3339","name":"Uznach","shortName":"Uznach"},"district":{"key":"1726","name":"Wahlkreis See-Gaster"},"canton":{"key":"17","code":"SG","name":"St. Gallen"},"status":"Real"},{"key":"10225753","name":"Sportplatzweg","postalCode":"8730","locality":"Uznach","commune":{"key":"3339","name":"Uznach","shortName":"Uznach"},"district":{"key":"1726","name":"Wahlkreis See-Gaster"},"canton":{"key":"17","code":"SG","name":"St. Gallen"},"status":"Real"},{"key":"10186115","name":"Städtchen","postalCode":"8730","locality":"Uznach","commune":{"key":"3339","name":"Uznach","shortName":"Uznach"},"district":{"key":"1726","name":"Wahlkreis See-Gaster"},"canton":{"key":"17","code":"SG","name":"St. Gallen"},"status":"Real"},{"key":"10033854","name":"Stegstrasse","postalCode":"8730","locality":"Uznach","commune":{"key":"3339","name":"Uznach","shortName":"Uznach"},"district":{"key":"1726","name":"Wahlkreis See-Gaster"},"canton":{"key":"17","code":"SG","name":"St. Gallen"},"status":"Real"},{"key":"10225757","name":"Steinbruchstrasse","postalCode":"8730","locality":"Uznach","commune":{"key":"3339","name":"Uznach","shortName":"Uznach"},"district":{"key":"1726","name":"Wahlkreis See-Gaster"},"canton":{"key":"17","code":"SG","name":"St. Gallen"},"status":"Real"},{"key":"10225761","name":"Steinenbachweg","postalCode":"8730","locality":"Uznach","commune":{"key":"3339","name":"Uznach","shortName":"Uznach"},"district":{"key":"1726","name":"Wahlkreis See-Gaster"},"canton":{"key":"17","code":"SG","name":"St. Gallen"},"status":"Real"},{"key":"10116511","name":"St. Gallerstrasse","postalCode":"8730","locality":"Uznach","commune":{"key":"3339","name":"Uznach","shortName":"Uznach"},"district":{"key":"1726","name":"Wahlkreis See-Gaster"},"canton":{"key":"17","code":"SG","name":"St. Gallen"},"status":"Real"},{"key":"10092826","name":"St. Josefstrasse","postalCode":"8730","locality":"Uznach","commune":{"key":"3339","name":"Uznach","shortName":"Uznach"},"district":{"key":"1726","name":"Wahlkreis See-Gaster"},"canton":{"key":"17","code":"SG","name":"St. Gallen"},"status":"Real"},{"key":"10033853","name":"St. Josefweg","postalCode":"8730","locality":"Uznach","commune":{"key":"3339","name":"Uznach","shortName":"Uznach"},"district":{"key":"1726","name":"Wahlkreis See-Gaster"},"canton":{"key":"17","code":"SG","name":"St. Gallen"},"status":"Real"},{"key":"10225765","name":"Storchenweg","postalCode":"8730","locality":"Uznach","commune":{"key":"3339","name":"Uznach","shortName":"Uznach"},"district":{"key":"1726","name":"Wahlkreis See-Gaster"},"canton":{"key":"17","code":"SG","name":"St. Gallen"},"status":"Real"},{"key":"10188793","name":"St. Otmarsberg","postalCode":"8730","locality":"Uznach","commune":{"key":"3339","name":"Uznach","shortName":"Uznach"},"district":{"key":"1726","name":"Wahlkreis See-Gaster"},"canton":{"key":"17","code":"SG","name":"St. Gallen"},"status":"Real"},{"key":"10225769","name":"Süsswinkelgässchen","postalCode":"8730","locality":"Uznach","commune":{"key":"3339","name":"Uznach","shortName":"Uznach"},"district":{"key":"1726","name":"Wahlkreis See-Gaster"},"canton":{"key":"17","code":"SG","name":"St. Gallen"},"status":"Real"},{"key":"10225773","name":"Taleggstrasse","postalCode":"8730","locality":"Uznach","commune":{"key":"3339","name":"Uznach","shortName":"Uznach"},"district":{"key":"1726","name":"Wahlkreis See-Gaster"},"canton":{"key":"17","code":"SG","name":"St. Gallen"},"status":"Real"},{"key":"10225777","name":"Taleggweg","postalCode":"8730","locality":"Uznach","commune":{"key":"3339","name":"Uznach","shortName":"Uznach"},"district":{"key":"1726","name":"Wahlkreis See-Gaster"},"canton":{"key":"17","code":"SG","name":"St. Gallen"},"status":"Real"},{"key":"10033855","name":"Täli","postalCode":"8730","locality":"Uznach","commune":{"key":"3339","name":"Uznach","shortName":"Uznach"},"district":{"key":"1726","name":"Wahlkreis See-Gaster"},"canton":{"key":"17","code":"SG","name":"St. Gallen"},"status":"Real"},{"key":"10171713","name":"Tälistrasse","postalCode":"8730","locality":"Uznach","commune":{"key":"3339","name":"Uznach","shortName":"Uznach"},"district":{"key":"1726","name":"Wahlkreis See-Gaster"},"canton":{"key":"17","code":"SG","name":"St. Gallen"},"status":"Real"},{"key":"10225781","name":"Täliweg","postalCode":"8730","locality":"Uznach","commune":{"key":"3339","name":"Uznach","shortName":"Uznach"},"district":{"key":"1726","name":"Wahlkreis See-Gaster"},"canton":{"key":"17","code":"SG","name":"St. Gallen"},"status":"Real"},{"key":"10075855","name":"Tönierstrasse","postalCode":"8730","locality":"Uznach","commune":{"key":"3339","name":"Uznach","shortName":"Uznach"},"district":{"key":"1726","name":"Wahlkreis See-Gaster"},"canton":{"key":"17","code":"SG","name":"St. Gallen"},"status":"Real"},{"key":"10225785","name":"Tönierwaldweg","postalCode":"8730","locality":"Uznach","commune":{"key":"3339","name":"Uznach","shortName":"Uznach"},"district":{"key":"1726","name":"Wahlkreis See-Gaster"},"canton":{"key":"17","code":"SG","name":"St. Gallen"},"status":"Real"},{"key":"10112036","name":"Tönierweg","postalCode":"8730","locality":"Uznach","commune":{"key":"3339","name":"Uznach","shortName":"Uznach"},"district":{"key":"1726","name":"Wahlkreis See-Gaster"},"canton":{"key":"17","code":"SG","name":"St. Gallen"},"status":"Real"},{"key":"10225789","name":"Tönierwiesweg","postalCode":"8730","locality":"Uznach","commune":{"key":"3339","name":"Uznach","shortName":"Uznach"},"district":{"key":"1726","name":"Wahlkreis See-Gaster"},"canton":{"key":"17","code":"SG","name":"St. Gallen"},"status":"Real"},{"key":"10225793","name":"Untere Buchwaldstrasse","postalCode":"8730","locality":"Uznach","commune":{"key":"3339","name":"Uznach","shortName":"Uznach"},"district":{"key":"1726","name":"Wahlkreis See-Gaster"},"canton":{"key":"17","code":"SG","name":"St. Gallen"},"status":"Real"},{"key":"10114591","name":"Unterer Böllenberg","postalCode":"8730","locality":"Uznach","commune":{"key":"3339","name":"Uznach","shortName":"Uznach"},"district":{"key":"1726","name":"Wahlkreis See-Gaster"},"canton":{"key":"17","code":"SG","name":"St. Gallen"},"status":"Real"},{"key":"10225797","name":"Unterer Buchwaldweg","postalCode":"8730","locality":"Uznach","commune":{"key":"3339","name":"Uznach","shortName":"Uznach"},"district":{"key":"1726","name":"Wahlkreis See-Gaster"},"canton":{"key":"17","code":"SG","name":"St. Gallen"},"status":"Real"},{"key":"10013427","name":"Unterer Stadtgraben","postalCode":"8730","locality":"Uznach","commune":{"key":"3339","name":"Uznach","shortName":"Uznach"},"district":{"key":"1726","name":"Wahlkreis See-Gaster"},"canton":{"key":"17","code":"SG","name":"St. Gallen"},"status":"Real"},{"key":"10225801","name":"Unterwerkweg","postalCode":"8730","locality":"Uznach","commune":{"key":"3339","name":"Uznach","shortName":"Uznach"},"district":{"key":"1726","name":"Wahlkreis See-Gaster"},"canton":{"key":"17","code":"SG","name":"St. Gallen"},"status":"Real"},{"key":"10092827","name":"Uznabergstrasse","postalCode":"8730","locality":"Uznach","commune":{"key":"3339","name":"Uznach","shortName":"Uznach"},"district":{"key":"1726","name":"Wahlkreis See-Gaster"},"canton":{"key":"17","code":"SG","name":"St. Gallen"},"status":"Real"},{"key":"10225805","name":"Uznabergweg","postalCode":"8730","locality":"Uznach","commune":{"key":"3339","name":"Uznach","shortName":"Uznach"},"district":{"key":"1726","name":"Wahlkreis See-Gaster"},"canton":{"key":"17","code":"SG","name":"St. Gallen"},"status":"Real"},{"key":"10122288","name":"Webereistrasse","postalCode":"8730","locality":"Uznach","commune":{"key":"3339","name":"Uznach","shortName":"Uznach"},"district":{"key":"1726","name":"Wahlkreis See-Gaster"},"canton":{"key":"17","code":"SG","name":"St. Gallen"},"status":"Real"},{"key":"10033856","name":"Weid","postalCode":"8730","locality":"Uznach","commune":{"key":"3339","name":"Uznach","shortName":"Uznach"},"district":{"key":"1726","name":"Wahlkreis See-Gaster"},"canton":{"key":"17","code":"SG","name":"St. Gallen"},"status":"Real"},{"key":"10159184","name":"Weiherhaus","postalCode":"8730","locality":"Uznach","commune":{"key":"3339","name":"Uznach","shortName":"Uznach"},"district":{"key":"1726","name":"Wahlkreis See-Gaster"},"canton":{"key":"17","code":"SG","name":"St. Gallen"},"status":"Real"},{"key":"10229262","name":"Weiherstrasse","postalCode":"8730","locality":"Uznach","commune":{"key":"3339","name":"Uznach","shortName":"Uznach"},"district":{"key":"1726","name":"Wahlkreis See-Gaster"},"canton":{"key":"17","code":"SG","name":"St. Gallen"},"status":"Real"},{"key":"10075856","name":"Weinbergstrasse","postalCode":"8730","locality":"Uznach","commune":{"key":"3339","name":"Uznach","shortName":"Uznach"},"district":{"key":"1726","name":"Wahlkreis See-Gaster"},"canton":{"key":"17","code":"SG","name":"St. Gallen"},"status":"Real"},{"key":"10127193","name":"Weinbergweg","postalCode":"8730","locality":"Uznach","commune":{"key":"3339","name":"Uznach","shortName":"Uznach"},"district":{"key":"1726","name":"Wahlkreis See-Gaster"},"canton":{"key":"17","code":"SG","name":"St. Gallen"},"status":"Real"},{"key":"10033857","name":"Weinrebestrasse","postalCode":"8730","locality":"Uznach","commune":{"key":"3339","name":"Uznach","shortName":"Uznach"},"district":{"key":"1726","name":"Wahlkreis See-Gaster"},"canton":{"key":"17","code":"SG","name":"St. Gallen"},"status":"Real"},{"key":"10229266","name":"Widmen-Bachtelweg","postalCode":"8730","locality":"Uznach","commune":{"key":"3339","name":"Uznach","shortName":"Uznach"},"district":{"key":"1726","name":"Wahlkreis See-Gaster"},"canton":{"key":"17","code":"SG","name":"St. Gallen"},"status":"Real"},{"key":"10033859","name":"Wiesenrain","postalCode":"8730","locality":"Uznach","commune":{"key":"3339","name":"Uznach","shortName":"Uznach"},"district":{"key":"1726","name":"Wahlkreis See-Gaster"},"canton":{"key":"17","code":"SG","name":"St. Gallen"},"status":"Real"},{"key":"10162751","name":"Wiesentalstrasse","postalCode":"8730","locality":"Uznach","commune":{"key":"3339","name":"Uznach","shortName":"Uznach"},"district":{"key":"1726","name":"Wahlkreis See-Gaster"},"canton":{"key":"17","code":"SG","name":"St. Gallen"},"status":"Real"},{"key":"10092828","name":"Zeughausstrasse","postalCode":"8730","locality":"Uznach","commune":{"key":"3339","name":"Uznach","shortName":"Uznach"},"district":{"key":"1726","name":"Wahlkreis See-Gaster"},"canton":{"key":"17","code":"SG","name":"St. Gallen"},"status":"Real"},{"key":"10188794","name":"Ziegelhofstrasse","postalCode":"8730","locality":"Uznach","commune":{"key":"3339","name":"Uznach","shortName":"Uznach"},"district":{"key":"1726","name":"Wahlkreis See-Gaster"},"canton":{"key":"17","code":"SG","name":"St. Gallen"},"status":"Real"},{"key":"10229270","name":"Ziegelhofweg","postalCode":"8730","locality":"Uznach","commune":{"key":"3339","name":"Uznach","shortName":"Uznach"},"district":{"key":"1726","name":"Wahlkreis See-Gaster"},"canton":{"key":"17","code":"SG","name":"St. Gallen"},"status":"Real"},{"key":"10033860","name":"Züblidörfli","postalCode":"8730","locality":"Uznach","commune":{"key":"3339","name":"Uznach","shortName":"Uznach"},"district":{"key":"1726","name":"Wahlkreis See-Gaster"},"canton":{"key":"17","code":"SG","name":"St. Gallen"},"status":"Real"},{"key":"10229274","name":"Zübliweg","postalCode":"8730","locality":"Uznach","commune":{"key":"3339","name":"Uznach","shortName":"Uznach"},"district":{"key":"1726","name":"Wahlkreis See-Gaster"},"canton":{"key":"17","code":"SG","name":"St. Gallen"},"status":"Real"},{"key":"10092829","name":"Zürcherstrasse","postalCode":"8730","locality":"Uznach","commune":{"key":"3339","name":"Uznach","shortName":"Uznach"},"district":{"key":"1726","name":"Wahlkreis See-Gaster"},"canton":{"key":"17","code":"SG","name":"St. Gallen"},"status":"Real"},{"key":"10075857","name":"Zwischenbäch","postalCode":"8730","locality":"Uznach","commune":{"key":"3339","name":"Uznach","shortName":"Uznach"},"district":{"key":"1726","name":"Wahlkreis See-Gaster"},"canton":{"key":"17","code":"SG","name":"St. Gallen"},"status":"Real"},{"key":"10229278","name":"Zwischenbächstrasse","postalCode":"8730","locality":"Uznach","commune":{"key":"3339","name":"Uznach","shortName":"Uznach"},"district":{"key":"1726","name":"Wahlkreis See-Gaster"},"canton":{"key":"17","code":"SG","name":"St. Gallen"},"status":"Real"},{"key":"10031966","name":"Ächeltschwilerstrasse","postalCode":"8730","locality":"Uznach","commune":{"key":"3339","name":"Uznach","shortName":"Uznach"},"district":{"key":"1726","name":"Wahlkreis See-Gaster"},"canton":{"key":"17","code":"SG","name":"St. Gallen"},"status":"Real"},]