[{"name":"Bitburger Str.","postalCode":"54675","locality":"Sinspelt","municipality":{"key":"07232122","name":"Sinspelt","type":"Kreisangehörige_Gemeinde"},"district":{"key":"07232","name":"Eifelkreis Bitburg-Prüm","type":"Landkreis"},"federalState":{"key":"07","name":"Rheinland-Pfalz"}},{"name":"Enztalstr.","postalCode":"54675","locality":"Sinspelt","municipality":{"key":"07232122","name":"Sinspelt","type":"Kreisangehörige_Gemeinde"},"district":{"key":"07232","name":"Eifelkreis Bitburg-Prüm","type":"Landkreis"},"federalState":{"key":"07","name":"Rheinland-Pfalz"}},{"name":"Forstweg","postalCode":"54675","locality":"Sinspelt","municipality":{"key":"07232122","name":"Sinspelt","type":"Kreisangehörige_Gemeinde"},"district":{"key":"07232","name":"Eifelkreis Bitburg-Prüm","type":"Landkreis"},"federalState":{"key":"07","name":"Rheinland-Pfalz"}},{"name":"Hauptstr.","postalCode":"54675","locality":"Sinspelt","municipality":{"key":"07232122","name":"Sinspelt","type":"Kreisangehörige_Gemeinde"},"district":{"key":"07232","name":"Eifelkreis Bitburg-Prüm","type":"Landkreis"},"federalState":{"key":"07","name":"Rheinland-Pfalz"}},{"name":"Im Steinborn","postalCode":"54675","locality":"Sinspelt","municipality":{"key":"07232122","name":"Sinspelt","type":"Kreisangehörige_Gemeinde"},"district":{"key":"07232","name":"Eifelkreis Bitburg-Prüm","type":"Landkreis"},"federalState":{"key":"07","name":"Rheinland-Pfalz"}},{"name":"In der Gracht","postalCode":"54675","locality":"Sinspelt","municipality":{"key":"07232122","name":"Sinspelt","type":"Kreisangehörige_Gemeinde"},"district":{"key":"07232","name":"Eifelkreis Bitburg-Prüm","type":"Landkreis"},"federalState":{"key":"07","name":"Rheinland-Pfalz"}},{"name":"Kirchweg","postalCode":"54675","locality":"Sinspelt","municipality":{"key":"07232122","name":"Sinspelt","type":"Kreisangehörige_Gemeinde"},"district":{"key":"07232","name":"Eifelkreis Bitburg-Prüm","type":"Landkreis"},"federalState":{"key":"07","name":"Rheinland-Pfalz"}},{"name":"Neuerburger Str.","postalCode":"54675","locality":"Sinspelt","municipality":{"key":"07232122","name":"Sinspelt","type":"Kreisangehörige_Gemeinde"},"district":{"key":"07232","name":"Eifelkreis Bitburg-Prüm","type":"Landkreis"},"federalState":{"key":"07","name":"Rheinland-Pfalz"}},{"name":"Radental","postalCode":"54675","locality":"Sinspelt","municipality":{"key":"07232122","name":"Sinspelt","type":"Kreisangehörige_Gemeinde"},"district":{"key":"07232","name":"Eifelkreis Bitburg-Prüm","type":"Landkreis"},"federalState":{"key":"07","name":"Rheinland-Pfalz"}},{"name":"Rotenweg","postalCode":"54675","locality":"Sinspelt","municipality":{"key":"07232122","name":"Sinspelt","type":"Kreisangehörige_Gemeinde"},"district":{"key":"07232","name":"Eifelkreis Bitburg-Prüm","type":"Landkreis"},"federalState":{"key":"07","name":"Rheinland-Pfalz"}},{"name":"Schulstr.","postalCode":"54675","locality":"Sinspelt","municipality":{"key":"07232122","name":"Sinspelt","type":"Kreisangehörige_Gemeinde"},"district":{"key":"07232","name":"Eifelkreis Bitburg-Prüm","type":"Landkreis"},"federalState":{"key":"07","name":"Rheinland-Pfalz"}},{"name":"Viandener Str.","postalCode":"54675","locality":"Sinspelt","municipality":{"key":"07232122","name":"Sinspelt","type":"Kreisangehörige_Gemeinde"},"district":{"key":"07232","name":"Eifelkreis Bitburg-Prüm","type":"Landkreis"},"federalState":{"key":"07","name":"Rheinland-Pfalz"}},]