[{"name":"Albert-Schweitzer Str.","postalCode":"26219","locality":"Bösel","municipality":{"key":"03453002","name":"Bösel","type":"Kreisangehörige_Gemeinde"},"district":{"key":"03453","name":"Cloppenburg","type":"Landkreis"},"federalState":{"key":"03","name":"Niedersachsen"}},{"name":"Am Barkenmoor","postalCode":"26219","locality":"Bösel","municipality":{"key":"03453002","name":"Bösel","type":"Kreisangehörige_Gemeinde"},"district":{"key":"03453","name":"Cloppenburg","type":"Landkreis"},"federalState":{"key":"03","name":"Niedersachsen"}},{"name":"Am Birkenmoor","postalCode":"26219","locality":"Bösel","municipality":{"key":"03453002","name":"Bösel","type":"Kreisangehörige_Gemeinde"},"district":{"key":"03453","name":"Cloppenburg","type":"Landkreis"},"federalState":{"key":"03","name":"Niedersachsen"}},{"name":"Am Dorfpark","postalCode":"26219","locality":"Bösel","municipality":{"key":"03453002","name":"Bösel","type":"Kreisangehörige_Gemeinde"},"district":{"key":"03453","name":"Cloppenburg","type":"Landkreis"},"federalState":{"key":"03","name":"Niedersachsen"}},{"name":"Am Grotegersberg","postalCode":"26219","locality":"Bösel","municipality":{"key":"03453002","name":"Bösel","type":"Kreisangehörige_Gemeinde"},"district":{"key":"03453","name":"Cloppenburg","type":"Landkreis"},"federalState":{"key":"03","name":"Niedersachsen"}},{"name":"Am Hook","postalCode":"26219","locality":"Bösel","municipality":{"key":"03453002","name":"Bösel","type":"Kreisangehörige_Gemeinde"},"district":{"key":"03453","name":"Cloppenburg","type":"Landkreis"},"federalState":{"key":"03","name":"Niedersachsen"}},{"name":"Am Kirchplatz","postalCode":"26219","locality":"Bösel","municipality":{"key":"03453002","name":"Bösel","type":"Kreisangehörige_Gemeinde"},"district":{"key":"03453","name":"Cloppenburg","type":"Landkreis"},"federalState":{"key":"03","name":"Niedersachsen"}},{"name":"Am Pool","postalCode":"26219","locality":"Bösel","municipality":{"key":"03453002","name":"Bösel","type":"Kreisangehörige_Gemeinde"},"district":{"key":"03453","name":"Cloppenburg","type":"Landkreis"},"federalState":{"key":"03","name":"Niedersachsen"}},{"name":"Amselstr.","postalCode":"26219","locality":"Bösel","municipality":{"key":"03453002","name":"Bösel","type":"Kreisangehörige_Gemeinde"},"district":{"key":"03453","name":"Cloppenburg","type":"Landkreis"},"federalState":{"key":"03","name":"Niedersachsen"}},{"name":"Am Sportplatz","postalCode":"26219","locality":"Bösel","municipality":{"key":"03453002","name":"Bösel","type":"Kreisangehörige_Gemeinde"},"district":{"key":"03453","name":"Cloppenburg","type":"Landkreis"},"federalState":{"key":"03","name":"Niedersachsen"}},{"name":"Am Steinkamp","postalCode":"26219","locality":"Bösel","municipality":{"key":"03453002","name":"Bösel","type":"Kreisangehörige_Gemeinde"},"district":{"key":"03453","name":"Cloppenburg","type":"Landkreis"},"federalState":{"key":"03","name":"Niedersachsen"}},{"name":"Am Tempelkamp","postalCode":"26219","locality":"Bösel","municipality":{"key":"03453002","name":"Bösel","type":"Kreisangehörige_Gemeinde"},"district":{"key":"03453","name":"Cloppenburg","type":"Landkreis"},"federalState":{"key":"03","name":"Niedersachsen"}},{"name":"Am Vehnemoor","postalCode":"26219","locality":"Bösel","municipality":{"key":"03453002","name":"Bösel","type":"Kreisangehörige_Gemeinde"},"district":{"key":"03453","name":"Cloppenburg","type":"Landkreis"},"federalState":{"key":"03","name":"Niedersachsen"}},{"name":"An der Vehne","postalCode":"26219","locality":"Bösel","municipality":{"key":"03453002","name":"Bösel","type":"Kreisangehörige_Gemeinde"},"district":{"key":"03453","name":"Cloppenburg","type":"Landkreis"},"federalState":{"key":"03","name":"Niedersachsen"}},{"name":"An der Welle","postalCode":"26219","locality":"Bösel","municipality":{"key":"03453002","name":"Bösel","type":"Kreisangehörige_Gemeinde"},"district":{"key":"03453","name":"Cloppenburg","type":"Landkreis"},"federalState":{"key":"03","name":"Niedersachsen"}},{"name":"Auf dem Esch","postalCode":"26219","locality":"Bösel","municipality":{"key":"03453002","name":"Bösel","type":"Kreisangehörige_Gemeinde"},"district":{"key":"03453","name":"Cloppenburg","type":"Landkreis"},"federalState":{"key":"03","name":"Niedersachsen"}},{"name":"Auf dem Rahe","postalCode":"26219","locality":"Bösel","municipality":{"key":"03453002","name":"Bösel","type":"Kreisangehörige_Gemeinde"},"district":{"key":"03453","name":"Cloppenburg","type":"Landkreis"},"federalState":{"key":"03","name":"Niedersachsen"}},{"name":"Aumühlen","postalCode":"26219","locality":"Bösel","municipality":{"key":"03453002","name":"Bösel","type":"Kreisangehörige_Gemeinde"},"district":{"key":"03453","name":"Cloppenburg","type":"Landkreis"},"federalState":{"key":"03","name":"Niedersachsen"}},{"name":"Azaleenstr.","postalCode":"26219","locality":"Bösel","municipality":{"key":"03453002","name":"Bösel","type":"Kreisangehörige_Gemeinde"},"district":{"key":"03453","name":"Cloppenburg","type":"Landkreis"},"federalState":{"key":"03","name":"Niedersachsen"}},{"name":"Bachmannsweg","postalCode":"26219","locality":"Bösel","municipality":{"key":"03453002","name":"Bösel","type":"Kreisangehörige_Gemeinde"},"district":{"key":"03453","name":"Cloppenburg","type":"Landkreis"},"federalState":{"key":"03","name":"Niedersachsen"}},{"name":"Bachstr.","postalCode":"26219","locality":"Bösel","municipality":{"key":"03453002","name":"Bösel","type":"Kreisangehörige_Gemeinde"},"district":{"key":"03453","name":"Cloppenburg","type":"Landkreis"},"federalState":{"key":"03","name":"Niedersachsen"}},{"name":"Bahnhofstr.","postalCode":"26219","locality":"Bösel","municipality":{"key":"03453002","name":"Bösel","type":"Kreisangehörige_Gemeinde"},"district":{"key":"03453","name":"Cloppenburg","type":"Landkreis"},"federalState":{"key":"03","name":"Niedersachsen"}},{"name":"Bahnstr.","postalCode":"26219","locality":"Bösel","municipality":{"key":"03453002","name":"Bösel","type":"Kreisangehörige_Gemeinde"},"district":{"key":"03453","name":"Cloppenburg","type":"Landkreis"},"federalState":{"key":"03","name":"Niedersachsen"}},{"name":"Beethovenstr.","postalCode":"26219","locality":"Bösel","municipality":{"key":"03453002","name":"Bösel","type":"Kreisangehörige_Gemeinde"},"district":{"key":"03453","name":"Cloppenburg","type":"Landkreis"},"federalState":{"key":"03","name":"Niedersachsen"}},{"name":"Begonienstr.","postalCode":"26219","locality":"Bösel","municipality":{"key":"03453002","name":"Bösel","type":"Kreisangehörige_Gemeinde"},"district":{"key":"03453","name":"Cloppenburg","type":"Landkreis"},"federalState":{"key":"03","name":"Niedersachsen"}},{"name":"Beim Pferdeschloot","postalCode":"26219","locality":"Bösel","municipality":{"key":"03453002","name":"Bösel","type":"Kreisangehörige_Gemeinde"},"district":{"key":"03453","name":"Cloppenburg","type":"Landkreis"},"federalState":{"key":"03","name":"Niedersachsen"}},{"name":"Beim Schullenort","postalCode":"26219","locality":"Bösel","municipality":{"key":"03453002","name":"Bösel","type":"Kreisangehörige_Gemeinde"},"district":{"key":"03453","name":"Cloppenburg","type":"Landkreis"},"federalState":{"key":"03","name":"Niedersachsen"}},{"name":"Beim Steinwitten","postalCode":"26219","locality":"Bösel","municipality":{"key":"03453002","name":"Bösel","type":"Kreisangehörige_Gemeinde"},"district":{"key":"03453","name":"Cloppenburg","type":"Landkreis"},"federalState":{"key":"03","name":"Niedersachsen"}},{"name":"Beim Tegelkamp","postalCode":"26219","locality":"Bösel","municipality":{"key":"03453002","name":"Bösel","type":"Kreisangehörige_Gemeinde"},"district":{"key":"03453","name":"Cloppenburg","type":"Landkreis"},"federalState":{"key":"03","name":"Niedersachsen"}},{"name":"Berliner Ring","postalCode":"26219","locality":"Bösel","municipality":{"key":"03453002","name":"Bösel","type":"Kreisangehörige_Gemeinde"},"district":{"key":"03453","name":"Cloppenburg","type":"Landkreis"},"federalState":{"key":"03","name":"Niedersachsen"}},{"name":"Bernethsdamm","postalCode":"26219","locality":"Bösel","municipality":{"key":"03453002","name":"Bösel","type":"Kreisangehörige_Gemeinde"},"district":{"key":"03453","name":"Cloppenburg","type":"Landkreis"},"federalState":{"key":"03","name":"Niedersachsen"}},{"name":"Birkenmoor","postalCode":"26219","locality":"Bösel","municipality":{"key":"03453002","name":"Bösel","type":"Kreisangehörige_Gemeinde"},"district":{"key":"03453","name":"Cloppenburg","type":"Landkreis"},"federalState":{"key":"03","name":"Niedersachsen"}},{"name":"Birkenstr.","postalCode":"26219","locality":"Bösel","municipality":{"key":"03453002","name":"Bösel","type":"Kreisangehörige_Gemeinde"},"district":{"key":"03453","name":"Cloppenburg","type":"Landkreis"},"federalState":{"key":"03","name":"Niedersachsen"}},{"name":"Birkenweg","postalCode":"26219","locality":"Bösel","municipality":{"key":"03453002","name":"Bösel","type":"Kreisangehörige_Gemeinde"},"district":{"key":"03453","name":"Cloppenburg","type":"Landkreis"},"federalState":{"key":"03","name":"Niedersachsen"}},{"name":"Blumenstr.","postalCode":"26219","locality":"Bösel","municipality":{"key":"03453002","name":"Bösel","type":"Kreisangehörige_Gemeinde"},"district":{"key":"03453","name":"Cloppenburg","type":"Landkreis"},"federalState":{"key":"03","name":"Niedersachsen"}},{"name":"Brahmsstr.","postalCode":"26219","locality":"Bösel","municipality":{"key":"03453002","name":"Bösel","type":"Kreisangehörige_Gemeinde"},"district":{"key":"03453","name":"Cloppenburg","type":"Landkreis"},"federalState":{"key":"03","name":"Niedersachsen"}},{"name":"Bremersdamm","postalCode":"26219","locality":"Bösel","municipality":{"key":"03453002","name":"Bösel","type":"Kreisangehörige_Gemeinde"},"district":{"key":"03453","name":"Cloppenburg","type":"Landkreis"},"federalState":{"key":"03","name":"Niedersachsen"}},{"name":"Breslauer Str.","postalCode":"26219","locality":"Bösel","municipality":{"key":"03453002","name":"Bösel","type":"Kreisangehörige_Gemeinde"},"district":{"key":"03453","name":"Cloppenburg","type":"Landkreis"},"federalState":{"key":"03","name":"Niedersachsen"}},{"name":"Bussardstr.","postalCode":"26219","locality":"Bösel","municipality":{"key":"03453002","name":"Bösel","type":"Kreisangehörige_Gemeinde"},"district":{"key":"03453","name":"Cloppenburg","type":"Landkreis"},"federalState":{"key":"03","name":"Niedersachsen"}},{"name":"Claudiusstr.","postalCode":"26219","locality":"Bösel","municipality":{"key":"03453002","name":"Bösel","type":"Kreisangehörige_Gemeinde"},"district":{"key":"03453","name":"Cloppenburg","type":"Landkreis"},"federalState":{"key":"03","name":"Niedersachsen"}},{"name":"Dahlienstr.","postalCode":"26219","locality":"Bösel","municipality":{"key":"03453002","name":"Bösel","type":"Kreisangehörige_Gemeinde"},"district":{"key":"03453","name":"Cloppenburg","type":"Landkreis"},"federalState":{"key":"03","name":"Niedersachsen"}},{"name":"Dorfpark Bösel","postalCode":"26219","locality":"Bösel","municipality":{"key":"03453002","name":"Bösel","type":"Kreisangehörige_Gemeinde"},"district":{"key":"03453","name":"Cloppenburg","type":"Landkreis"},"federalState":{"key":"03","name":"Niedersachsen"}},{"name":"Dr.-Apke-Str.","postalCode":"26219","locality":"Bösel","municipality":{"key":"03453002","name":"Bösel","type":"Kreisangehörige_Gemeinde"},"district":{"key":"03453","name":"Cloppenburg","type":"Landkreis"},"federalState":{"key":"03","name":"Niedersachsen"}},{"name":"Drosselstr.","postalCode":"26219","locality":"Bösel","municipality":{"key":"03453002","name":"Bösel","type":"Kreisangehörige_Gemeinde"},"district":{"key":"03453","name":"Cloppenburg","type":"Landkreis"},"federalState":{"key":"03","name":"Niedersachsen"}},{"name":"Edith-Stein-Str.","postalCode":"26219","locality":"Bösel","municipality":{"key":"03453002","name":"Bösel","type":"Kreisangehörige_Gemeinde"},"district":{"key":"03453","name":"Cloppenburg","type":"Landkreis"},"federalState":{"key":"03","name":"Niedersachsen"}},{"name":"Eichendorffstr.","postalCode":"26219","locality":"Bösel","municipality":{"key":"03453002","name":"Bösel","type":"Kreisangehörige_Gemeinde"},"district":{"key":"03453","name":"Cloppenburg","type":"Landkreis"},"federalState":{"key":"03","name":"Niedersachsen"}},{"name":"Eichenweg","postalCode":"26219","locality":"Bösel","municipality":{"key":"03453002","name":"Bösel","type":"Kreisangehörige_Gemeinde"},"district":{"key":"03453","name":"Cloppenburg","type":"Landkreis"},"federalState":{"key":"03","name":"Niedersachsen"}},{"name":"Erlenweg","postalCode":"26219","locality":"Bösel","municipality":{"key":"03453002","name":"Bösel","type":"Kreisangehörige_Gemeinde"},"district":{"key":"03453","name":"Cloppenburg","type":"Landkreis"},"federalState":{"key":"03","name":"Niedersachsen"}},{"name":"Eschstr.","postalCode":"26219","locality":"Bösel","municipality":{"key":"03453002","name":"Bösel","type":"Kreisangehörige_Gemeinde"},"district":{"key":"03453","name":"Cloppenburg","type":"Landkreis"},"federalState":{"key":"03","name":"Niedersachsen"}},{"name":"Falkenstr.","postalCode":"26219","locality":"Bösel","municipality":{"key":"03453002","name":"Bösel","type":"Kreisangehörige_Gemeinde"},"district":{"key":"03453","name":"Cloppenburg","type":"Landkreis"},"federalState":{"key":"03","name":"Niedersachsen"}},{"name":"Fasanenweg","postalCode":"26219","locality":"Bösel","municipality":{"key":"03453002","name":"Bösel","type":"Kreisangehörige_Gemeinde"},"district":{"key":"03453","name":"Cloppenburg","type":"Landkreis"},"federalState":{"key":"03","name":"Niedersachsen"}},{"name":"Finkenstr.","postalCode":"26219","locality":"Bösel","municipality":{"key":"03453002","name":"Bösel","type":"Kreisangehörige_Gemeinde"},"district":{"key":"03453","name":"Cloppenburg","type":"Landkreis"},"federalState":{"key":"03","name":"Niedersachsen"}},{"name":"Flachsweg","postalCode":"26219","locality":"Bösel","municipality":{"key":"03453002","name":"Bösel","type":"Kreisangehörige_Gemeinde"},"district":{"key":"03453","name":"Cloppenburg","type":"Landkreis"},"federalState":{"key":"03","name":"Niedersachsen"}},{"name":"Fladderburger Str.","postalCode":"26219","locality":"Bösel","municipality":{"key":"03453002","name":"Bösel","type":"Kreisangehörige_Gemeinde"},"district":{"key":"03453","name":"Cloppenburg","type":"Landkreis"},"federalState":{"key":"03","name":"Niedersachsen"}},{"name":"Fladderdamm","postalCode":"26219","locality":"Bösel","municipality":{"key":"03453002","name":"Bösel","type":"Kreisangehörige_Gemeinde"},"district":{"key":"03453","name":"Cloppenburg","type":"Landkreis"},"federalState":{"key":"03","name":"Niedersachsen"}},{"name":"Fliederstr.","postalCode":"26219","locality":"Bösel","municipality":{"key":"03453002","name":"Bösel","type":"Kreisangehörige_Gemeinde"},"district":{"key":"03453","name":"Cloppenburg","type":"Landkreis"},"federalState":{"key":"03","name":"Niedersachsen"}},{"name":"Franz-Meyer-Str.","postalCode":"26219","locality":"Bösel","municipality":{"key":"03453002","name":"Bösel","type":"Kreisangehörige_Gemeinde"},"district":{"key":"03453","name":"Cloppenburg","type":"Landkreis"},"federalState":{"key":"03","name":"Niedersachsen"}},{"name":"Friesoyther Str.","postalCode":"26219","locality":"Bösel","municipality":{"key":"03453002","name":"Bösel","type":"Kreisangehörige_Gemeinde"},"district":{"key":"03453","name":"Cloppenburg","type":"Landkreis"},"federalState":{"key":"03","name":"Niedersachsen"}},{"name":"Garreler Str.","postalCode":"26219","locality":"Bösel","municipality":{"key":"03453002","name":"Bösel","type":"Kreisangehörige_Gemeinde"},"district":{"key":"03453","name":"Cloppenburg","type":"Landkreis"},"federalState":{"key":"03","name":"Niedersachsen"}},{"name":"Gartenstr.","postalCode":"26219","locality":"Bösel","municipality":{"key":"03453002","name":"Bösel","type":"Kreisangehörige_Gemeinde"},"district":{"key":"03453","name":"Cloppenburg","type":"Landkreis"},"federalState":{"key":"03","name":"Niedersachsen"}},{"name":"Georg-Hoes-Str.","postalCode":"26219","locality":"Bösel","municipality":{"key":"03453002","name":"Bösel","type":"Kreisangehörige_Gemeinde"},"district":{"key":"03453","name":"Cloppenburg","type":"Landkreis"},"federalState":{"key":"03","name":"Niedersachsen"}},{"name":"Geschwister-Scholl-Str.","postalCode":"26219","locality":"Bösel","municipality":{"key":"03453002","name":"Bösel","type":"Kreisangehörige_Gemeinde"},"district":{"key":"03453","name":"Cloppenburg","type":"Landkreis"},"federalState":{"key":"03","name":"Niedersachsen"}},{"name":"Ginsterstr.","postalCode":"26219","locality":"Bösel","municipality":{"key":"03453002","name":"Bösel","type":"Kreisangehörige_Gemeinde"},"district":{"key":"03453","name":"Cloppenburg","type":"Landkreis"},"federalState":{"key":"03","name":"Niedersachsen"}},{"name":"Glaßdorfer Str.","postalCode":"26219","locality":"Bösel","municipality":{"key":"03453002","name":"Bösel","type":"Kreisangehörige_Gemeinde"},"district":{"key":"03453","name":"Cloppenburg","type":"Landkreis"},"federalState":{"key":"03","name":"Niedersachsen"}},{"name":"Goethestr.","postalCode":"26219","locality":"Bösel","municipality":{"key":"03453002","name":"Bösel","type":"Kreisangehörige_Gemeinde"},"district":{"key":"03453","name":"Cloppenburg","type":"Landkreis"},"federalState":{"key":"03","name":"Niedersachsen"}},{"name":"Habichtstr.","postalCode":"26219","locality":"Bösel","municipality":{"key":"03453002","name":"Bösel","type":"Kreisangehörige_Gemeinde"},"district":{"key":"03453","name":"Cloppenburg","type":"Landkreis"},"federalState":{"key":"03","name":"Niedersachsen"}},{"name":"Häherweg","postalCode":"26219","locality":"Bösel","municipality":{"key":"03453002","name":"Bösel","type":"Kreisangehörige_Gemeinde"},"district":{"key":"03453","name":"Cloppenburg","type":"Landkreis"},"federalState":{"key":"03","name":"Niedersachsen"}},{"name":"Hahnenbergsweg","postalCode":"26219","locality":"Bösel","municipality":{"key":"03453002","name":"Bösel","type":"Kreisangehörige_Gemeinde"},"district":{"key":"03453","name":"Cloppenburg","type":"Landkreis"},"federalState":{"key":"03","name":"Niedersachsen"}},{"name":"Händelstr.","postalCode":"26219","locality":"Bösel","municipality":{"key":"03453002","name":"Bösel","type":"Kreisangehörige_Gemeinde"},"district":{"key":"03453","name":"Cloppenburg","type":"Landkreis"},"federalState":{"key":"03","name":"Niedersachsen"}},{"name":"Harmsweg","postalCode":"26219","locality":"Bösel","municipality":{"key":"03453002","name":"Bösel","type":"Kreisangehörige_Gemeinde"},"district":{"key":"03453","name":"Cloppenburg","type":"Landkreis"},"federalState":{"key":"03","name":"Niedersachsen"}},{"name":"Haselnußweg","postalCode":"26219","locality":"Bösel","municipality":{"key":"03453002","name":"Bösel","type":"Kreisangehörige_Gemeinde"},"district":{"key":"03453","name":"Cloppenburg","type":"Landkreis"},"federalState":{"key":"03","name":"Niedersachsen"}},{"name":"Hasenweg","postalCode":"26219","locality":"Bösel","municipality":{"key":"03453002","name":"Bösel","type":"Kreisangehörige_Gemeinde"},"district":{"key":"03453","name":"Cloppenburg","type":"Landkreis"},"federalState":{"key":"03","name":"Niedersachsen"}},{"name":"Hauptstr.","postalCode":"26219","locality":"Bösel","municipality":{"key":"03453002","name":"Bösel","type":"Kreisangehörige_Gemeinde"},"district":{"key":"03453","name":"Cloppenburg","type":"Landkreis"},"federalState":{"key":"03","name":"Niedersachsen"}},{"name":"Heideweg","postalCode":"26219","locality":"Bösel","municipality":{"key":"03453002","name":"Bösel","type":"Kreisangehörige_Gemeinde"},"district":{"key":"03453","name":"Cloppenburg","type":"Landkreis"},"federalState":{"key":"03","name":"Niedersachsen"}},{"name":"Hempendamm","postalCode":"26219","locality":"Bösel","municipality":{"key":"03453002","name":"Bösel","type":"Kreisangehörige_Gemeinde"},"district":{"key":"03453","name":"Cloppenburg","type":"Landkreis"},"federalState":{"key":"03","name":"Niedersachsen"}},{"name":"Herderstr.","postalCode":"26219","locality":"Bösel","municipality":{"key":"03453002","name":"Bösel","type":"Kreisangehörige_Gemeinde"},"district":{"key":"03453","name":"Cloppenburg","type":"Landkreis"},"federalState":{"key":"03","name":"Niedersachsen"}},{"name":"Hinter dem Kronsberg","postalCode":"26219","locality":"Bösel","municipality":{"key":"03453002","name":"Bösel","type":"Kreisangehörige_Gemeinde"},"district":{"key":"03453","name":"Cloppenburg","type":"Landkreis"},"federalState":{"key":"03","name":"Niedersachsen"}},{"name":"Hinter dem Wall","postalCode":"26219","locality":"Bösel","municipality":{"key":"03453002","name":"Bösel","type":"Kreisangehörige_Gemeinde"},"district":{"key":"03453","name":"Cloppenburg","type":"Landkreis"},"federalState":{"key":"03","name":"Niedersachsen"}},{"name":"Hoher Damm","postalCode":"26219","locality":"Bösel","municipality":{"key":"03453002","name":"Bösel","type":"Kreisangehörige_Gemeinde"},"district":{"key":"03453","name":"Cloppenburg","type":"Landkreis"},"federalState":{"key":"03","name":"Niedersachsen"}},{"name":"Hölker Weg","postalCode":"26219","locality":"Bösel","municipality":{"key":"03453002","name":"Bösel","type":"Kreisangehörige_Gemeinde"},"district":{"key":"03453","name":"Cloppenburg","type":"Landkreis"},"federalState":{"key":"03","name":"Niedersachsen"}},{"name":"Holunderstr.","postalCode":"26219","locality":"Bösel","municipality":{"key":"03453002","name":"Bösel","type":"Kreisangehörige_Gemeinde"},"district":{"key":"03453","name":"Cloppenburg","type":"Landkreis"},"federalState":{"key":"03","name":"Niedersachsen"}},{"name":"Im Dorfe","postalCode":"26219","locality":"Bösel","municipality":{"key":"03453002","name":"Bösel","type":"Kreisangehörige_Gemeinde"},"district":{"key":"03453","name":"Cloppenburg","type":"Landkreis"},"federalState":{"key":"03","name":"Niedersachsen"}},{"name":"Industriestr.","postalCode":"26219","locality":"Bösel","municipality":{"key":"03453002","name":"Bösel","type":"Kreisangehörige_Gemeinde"},"district":{"key":"03453","name":"Cloppenburg","type":"Landkreis"},"federalState":{"key":"03","name":"Niedersachsen"}},{"name":"Industrieweg","postalCode":"26219","locality":"Bösel","municipality":{"key":"03453002","name":"Bösel","type":"Kreisangehörige_Gemeinde"},"district":{"key":"03453","name":"Cloppenburg","type":"Landkreis"},"federalState":{"key":"03","name":"Niedersachsen"}},{"name":"Jägerstr.","postalCode":"26219","locality":"Bösel","municipality":{"key":"03453002","name":"Bösel","type":"Kreisangehörige_Gemeinde"},"district":{"key":"03453","name":"Cloppenburg","type":"Landkreis"},"federalState":{"key":"03","name":"Niedersachsen"}},{"name":"Jahnstr.","postalCode":"26219","locality":"Bösel","municipality":{"key":"03453002","name":"Bösel","type":"Kreisangehörige_Gemeinde"},"district":{"key":"03453","name":"Cloppenburg","type":"Landkreis"},"federalState":{"key":"03","name":"Niedersachsen"}},{"name":"Jasminweg","postalCode":"26219","locality":"Bösel","municipality":{"key":"03453002","name":"Bösel","type":"Kreisangehörige_Gemeinde"},"district":{"key":"03453","name":"Cloppenburg","type":"Landkreis"},"federalState":{"key":"03","name":"Niedersachsen"}},{"name":"Joseph-Haydn-Str.","postalCode":"26219","locality":"Bösel","municipality":{"key":"03453002","name":"Bösel","type":"Kreisangehörige_Gemeinde"},"district":{"key":"03453","name":"Cloppenburg","type":"Landkreis"},"federalState":{"key":"03","name":"Niedersachsen"}},{"name":"Kampstr.","postalCode":"26219","locality":"Bösel","municipality":{"key":"03453002","name":"Bösel","type":"Kreisangehörige_Gemeinde"},"district":{"key":"03453","name":"Cloppenburg","type":"Landkreis"},"federalState":{"key":"03","name":"Niedersachsen"}},{"name":"Kanalstr.","postalCode":"26219","locality":"Bösel","municipality":{"key":"03453002","name":"Bösel","type":"Kreisangehörige_Gemeinde"},"district":{"key":"03453","name":"Cloppenburg","type":"Landkreis"},"federalState":{"key":"03","name":"Niedersachsen"}},{"name":"Kantinenstr.","postalCode":"26219","locality":"Bösel","municipality":{"key":"03453002","name":"Bösel","type":"Kreisangehörige_Gemeinde"},"district":{"key":"03453","name":"Cloppenburg","type":"Landkreis"},"federalState":{"key":"03","name":"Niedersachsen"}},{"name":"Kardinal-von-Galen-Str.","postalCode":"26219","locality":"Bösel","municipality":{"key":"03453002","name":"Bösel","type":"Kreisangehörige_Gemeinde"},"district":{"key":"03453","name":"Cloppenburg","type":"Landkreis"},"federalState":{"key":"03","name":"Niedersachsen"}},{"name":"Kartzfehner Weg","postalCode":"26219","locality":"Bösel","municipality":{"key":"03453002","name":"Bösel","type":"Kreisangehörige_Gemeinde"},"district":{"key":"03453","name":"Cloppenburg","type":"Landkreis"},"federalState":{"key":"03","name":"Niedersachsen"}},{"name":"Kiefernweg","postalCode":"26219","locality":"Bösel","municipality":{"key":"03453002","name":"Bösel","type":"Kreisangehörige_Gemeinde"},"district":{"key":"03453","name":"Cloppenburg","type":"Landkreis"},"federalState":{"key":"03","name":"Niedersachsen"}},{"name":"Klasmannsweg","postalCode":"26219","locality":"Bösel","municipality":{"key":"03453002","name":"Bösel","type":"Kreisangehörige_Gemeinde"},"district":{"key":"03453","name":"Cloppenburg","type":"Landkreis"},"federalState":{"key":"03","name":"Niedersachsen"}},{"name":"Kolpingstr.","postalCode":"26219","locality":"Bösel","municipality":{"key":"03453002","name":"Bösel","type":"Kreisangehörige_Gemeinde"},"district":{"key":"03453","name":"Cloppenburg","type":"Landkreis"},"federalState":{"key":"03","name":"Niedersachsen"}},{"name":"Königsberger Str.","postalCode":"26219","locality":"Bösel","municipality":{"key":"03453002","name":"Bösel","type":"Kreisangehörige_Gemeinde"},"district":{"key":"03453","name":"Cloppenburg","type":"Landkreis"},"federalState":{"key":"03","name":"Niedersachsen"}},{"name":"Kösliner Str.","postalCode":"26219","locality":"Bösel","municipality":{"key":"03453002","name":"Bösel","type":"Kreisangehörige_Gemeinde"},"district":{"key":"03453","name":"Cloppenburg","type":"Landkreis"},"federalState":{"key":"03","name":"Niedersachsen"}},{"name":"Krusenkamp","postalCode":"26219","locality":"Bösel","municipality":{"key":"03453002","name":"Bösel","type":"Kreisangehörige_Gemeinde"},"district":{"key":"03453","name":"Cloppenburg","type":"Landkreis"},"federalState":{"key":"03","name":"Niedersachsen"}},{"name":"Ladestr.","postalCode":"26219","locality":"Bösel","municipality":{"key":"03453002","name":"Bösel","type":"Kreisangehörige_Gemeinde"},"district":{"key":"03453","name":"Cloppenburg","type":"Landkreis"},"federalState":{"key":"03","name":"Niedersachsen"}},{"name":"Lerchenstr.","postalCode":"26219","locality":"Bösel","municipality":{"key":"03453002","name":"Bösel","type":"Kreisangehörige_Gemeinde"},"district":{"key":"03453","name":"Cloppenburg","type":"Landkreis"},"federalState":{"key":"03","name":"Niedersachsen"}},{"name":"Lessingstr.","postalCode":"26219","locality":"Bösel","municipality":{"key":"03453002","name":"Bösel","type":"Kreisangehörige_Gemeinde"},"district":{"key":"03453","name":"Cloppenburg","type":"Landkreis"},"federalState":{"key":"03","name":"Niedersachsen"}},{"name":"Ligusterweg","postalCode":"26219","locality":"Bösel","municipality":{"key":"03453002","name":"Bösel","type":"Kreisangehörige_Gemeinde"},"district":{"key":"03453","name":"Cloppenburg","type":"Landkreis"},"federalState":{"key":"03","name":"Niedersachsen"}},{"name":"Lilienstr.","postalCode":"26219","locality":"Bösel","municipality":{"key":"03453002","name":"Bösel","type":"Kreisangehörige_Gemeinde"},"district":{"key":"03453","name":"Cloppenburg","type":"Landkreis"},"federalState":{"key":"03","name":"Niedersachsen"}},{"name":"Lindenstr.","postalCode":"26219","locality":"Bösel","municipality":{"key":"03453002","name":"Bösel","type":"Kreisangehörige_Gemeinde"},"district":{"key":"03453","name":"Cloppenburg","type":"Landkreis"},"federalState":{"key":"03","name":"Niedersachsen"}},{"name":"Maximilian-Kolbe-Str.","postalCode":"26219","locality":"Bösel","municipality":{"key":"03453002","name":"Bösel","type":"Kreisangehörige_Gemeinde"},"district":{"key":"03453","name":"Cloppenburg","type":"Landkreis"},"federalState":{"key":"03","name":"Niedersachsen"}},{"name":"Meisenstr.","postalCode":"26219","locality":"Bösel","municipality":{"key":"03453002","name":"Bösel","type":"Kreisangehörige_Gemeinde"},"district":{"key":"03453","name":"Cloppenburg","type":"Landkreis"},"federalState":{"key":"03","name":"Niedersachsen"}},{"name":"Mohnstr.","postalCode":"26219","locality":"Bösel","municipality":{"key":"03453002","name":"Bösel","type":"Kreisangehörige_Gemeinde"},"district":{"key":"03453","name":"Cloppenburg","type":"Landkreis"},"federalState":{"key":"03","name":"Niedersachsen"}},{"name":"Mönnkehop","postalCode":"26219","locality":"Bösel","municipality":{"key":"03453002","name":"Bösel","type":"Kreisangehörige_Gemeinde"},"district":{"key":"03453","name":"Cloppenburg","type":"Landkreis"},"federalState":{"key":"03","name":"Niedersachsen"}},{"name":"Moorstr.","postalCode":"26219","locality":"Bösel","municipality":{"key":"03453002","name":"Bösel","type":"Kreisangehörige_Gemeinde"},"district":{"key":"03453","name":"Cloppenburg","type":"Landkreis"},"federalState":{"key":"03","name":"Niedersachsen"}},{"name":"Mörikeweg","postalCode":"26219","locality":"Bösel","municipality":{"key":"03453002","name":"Bösel","type":"Kreisangehörige_Gemeinde"},"district":{"key":"03453","name":"Cloppenburg","type":"Landkreis"},"federalState":{"key":"03","name":"Niedersachsen"}},{"name":"Mozartstr.","postalCode":"26219","locality":"Bösel","municipality":{"key":"03453002","name":"Bösel","type":"Kreisangehörige_Gemeinde"},"district":{"key":"03453","name":"Cloppenburg","type":"Landkreis"},"federalState":{"key":"03","name":"Niedersachsen"}},{"name":"Mühlenweg","postalCode":"26219","locality":"Bösel","municipality":{"key":"03453002","name":"Bösel","type":"Kreisangehörige_Gemeinde"},"district":{"key":"03453","name":"Cloppenburg","type":"Landkreis"},"federalState":{"key":"03","name":"Niedersachsen"}},{"name":"Nelkenweg","postalCode":"26219","locality":"Bösel","municipality":{"key":"03453002","name":"Bösel","type":"Kreisangehörige_Gemeinde"},"district":{"key":"03453","name":"Cloppenburg","type":"Landkreis"},"federalState":{"key":"03","name":"Niedersachsen"}},{"name":"Neuenkamp","postalCode":"26219","locality":"Bösel","municipality":{"key":"03453002","name":"Bösel","type":"Kreisangehörige_Gemeinde"},"district":{"key":"03453","name":"Cloppenburg","type":"Landkreis"},"federalState":{"key":"03","name":"Niedersachsen"}},{"name":"Neuland","postalCode":"26219","locality":"Bösel","municipality":{"key":"03453002","name":"Bösel","type":"Kreisangehörige_Gemeinde"},"district":{"key":"03453","name":"Cloppenburg","type":"Landkreis"},"federalState":{"key":"03","name":"Niedersachsen"}},{"name":"Oppelner Weg","postalCode":"26219","locality":"Bösel","municipality":{"key":"03453002","name":"Bösel","type":"Kreisangehörige_Gemeinde"},"district":{"key":"03453","name":"Cloppenburg","type":"Landkreis"},"federalState":{"key":"03","name":"Niedersachsen"}},{"name":"Overlaher Str.","postalCode":"26219","locality":"Bösel","municipality":{"key":"03453002","name":"Bösel","type":"Kreisangehörige_Gemeinde"},"district":{"key":"03453","name":"Cloppenburg","type":"Landkreis"},"federalState":{"key":"03","name":"Niedersachsen"}},{"name":"Parkstr.","postalCode":"26219","locality":"Bösel","municipality":{"key":"03453002","name":"Bösel","type":"Kreisangehörige_Gemeinde"},"district":{"key":"03453","name":"Cloppenburg","type":"Landkreis"},"federalState":{"key":"03","name":"Niedersachsen"}},{"name":"Pfarrer-Sommer-Str.","postalCode":"26219","locality":"Bösel","municipality":{"key":"03453002","name":"Bösel","type":"Kreisangehörige_Gemeinde"},"district":{"key":"03453","name":"Cloppenburg","type":"Landkreis"},"federalState":{"key":"03","name":"Niedersachsen"}},{"name":"Prinzendamm","postalCode":"26219","locality":"Bösel","municipality":{"key":"03453002","name":"Bösel","type":"Kreisangehörige_Gemeinde"},"district":{"key":"03453","name":"Cloppenburg","type":"Landkreis"},"federalState":{"key":"03","name":"Niedersachsen"}},{"name":"Raheweg","postalCode":"26219","locality":"Bösel","municipality":{"key":"03453002","name":"Bösel","type":"Kreisangehörige_Gemeinde"},"district":{"key":"03453","name":"Cloppenburg","type":"Landkreis"},"federalState":{"key":"03","name":"Niedersachsen"}},{"name":"Richard-Wagner-Str.","postalCode":"26219","locality":"Bösel","municipality":{"key":"03453002","name":"Bösel","type":"Kreisangehörige_Gemeinde"},"district":{"key":"03453","name":"Cloppenburg","type":"Landkreis"},"federalState":{"key":"03","name":"Niedersachsen"}},{"name":"Richtweg","postalCode":"26219","locality":"Bösel","municipality":{"key":"03453002","name":"Bösel","type":"Kreisangehörige_Gemeinde"},"district":{"key":"03453","name":"Cloppenburg","type":"Landkreis"},"federalState":{"key":"03","name":"Niedersachsen"}},{"name":"Rosenstr.","postalCode":"26219","locality":"Bösel","municipality":{"key":"03453002","name":"Bösel","type":"Kreisangehörige_Gemeinde"},"district":{"key":"03453","name":"Cloppenburg","type":"Landkreis"},"federalState":{"key":"03","name":"Niedersachsen"}},{"name":"Rote-Erde-Weg","postalCode":"26219","locality":"Bösel","municipality":{"key":"03453002","name":"Bösel","type":"Kreisangehörige_Gemeinde"},"district":{"key":"03453","name":"Cloppenburg","type":"Landkreis"},"federalState":{"key":"03","name":"Niedersachsen"}},{"name":"Rotkehlchenstr.","postalCode":"26219","locality":"Bösel","municipality":{"key":"03453002","name":"Bösel","type":"Kreisangehörige_Gemeinde"},"district":{"key":"03453","name":"Cloppenburg","type":"Landkreis"},"federalState":{"key":"03","name":"Niedersachsen"}},{"name":"Sandkamp","postalCode":"26219","locality":"Bösel","municipality":{"key":"03453002","name":"Bösel","type":"Kreisangehörige_Gemeinde"},"district":{"key":"03453","name":"Cloppenburg","type":"Landkreis"},"federalState":{"key":"03","name":"Niedersachsen"}},{"name":"Sandker Weg","postalCode":"26219","locality":"Bösel","municipality":{"key":"03453002","name":"Bösel","type":"Kreisangehörige_Gemeinde"},"district":{"key":"03453","name":"Cloppenburg","type":"Landkreis"},"federalState":{"key":"03","name":"Niedersachsen"}},{"name":"Schäferstr.","postalCode":"26219","locality":"Bösel","municipality":{"key":"03453002","name":"Bösel","type":"Kreisangehörige_Gemeinde"},"district":{"key":"03453","name":"Cloppenburg","type":"Landkreis"},"federalState":{"key":"03","name":"Niedersachsen"}},{"name":"Schillerstr.","postalCode":"26219","locality":"Bösel","municipality":{"key":"03453002","name":"Bösel","type":"Kreisangehörige_Gemeinde"},"district":{"key":"03453","name":"Cloppenburg","type":"Landkreis"},"federalState":{"key":"03","name":"Niedersachsen"}},{"name":"Schmäldamm","postalCode":"26219","locality":"Bösel","municipality":{"key":"03453002","name":"Bösel","type":"Kreisangehörige_Gemeinde"},"district":{"key":"03453","name":"Cloppenburg","type":"Landkreis"},"federalState":{"key":"03","name":"Niedersachsen"}},{"name":"Schönbergstr.","postalCode":"26219","locality":"Bösel","municipality":{"key":"03453002","name":"Bösel","type":"Kreisangehörige_Gemeinde"},"district":{"key":"03453","name":"Cloppenburg","type":"Landkreis"},"federalState":{"key":"03","name":"Niedersachsen"}},{"name":"Schubertstr.","postalCode":"26219","locality":"Bösel","municipality":{"key":"03453002","name":"Bösel","type":"Kreisangehörige_Gemeinde"},"district":{"key":"03453","name":"Cloppenburg","type":"Landkreis"},"federalState":{"key":"03","name":"Niedersachsen"}},{"name":"Schulstr.","postalCode":"26219","locality":"Bösel","municipality":{"key":"03453002","name":"Bösel","type":"Kreisangehörige_Gemeinde"},"district":{"key":"03453","name":"Cloppenburg","type":"Landkreis"},"federalState":{"key":"03","name":"Niedersachsen"}},{"name":"Schulweg","postalCode":"26219","locality":"Bösel","municipality":{"key":"03453002","name":"Bösel","type":"Kreisangehörige_Gemeinde"},"district":{"key":"03453","name":"Cloppenburg","type":"Landkreis"},"federalState":{"key":"03","name":"Niedersachsen"}},{"name":"Sperberstr.","postalCode":"26219","locality":"Bösel","municipality":{"key":"03453002","name":"Bösel","type":"Kreisangehörige_Gemeinde"},"district":{"key":"03453","name":"Cloppenburg","type":"Landkreis"},"federalState":{"key":"03","name":"Niedersachsen"}},{"name":"Steinbergsweg","postalCode":"26219","locality":"Bösel","municipality":{"key":"03453002","name":"Bösel","type":"Kreisangehörige_Gemeinde"},"district":{"key":"03453","name":"Cloppenburg","type":"Landkreis"},"federalState":{"key":"03","name":"Niedersachsen"}},{"name":"Steinkampsweg","postalCode":"26219","locality":"Bösel","municipality":{"key":"03453002","name":"Bösel","type":"Kreisangehörige_Gemeinde"},"district":{"key":"03453","name":"Cloppenburg","type":"Landkreis"},"federalState":{"key":"03","name":"Niedersachsen"}},{"name":"Südkamper Höhe","postalCode":"26219","locality":"Bösel","municipality":{"key":"03453002","name":"Bösel","type":"Kreisangehörige_Gemeinde"},"district":{"key":"03453","name":"Cloppenburg","type":"Landkreis"},"federalState":{"key":"03","name":"Niedersachsen"}},{"name":"Südkamper Ring","postalCode":"26219","locality":"Bösel","municipality":{"key":"03453002","name":"Bösel","type":"Kreisangehörige_Gemeinde"},"district":{"key":"03453","name":"Cloppenburg","type":"Landkreis"},"federalState":{"key":"03","name":"Niedersachsen"}},{"name":"Tannenkamp","postalCode":"26219","locality":"Bösel","municipality":{"key":"03453002","name":"Bösel","type":"Kreisangehörige_Gemeinde"},"district":{"key":"03453","name":"Cloppenburg","type":"Landkreis"},"federalState":{"key":"03","name":"Niedersachsen"}},{"name":"Tegelerskamp","postalCode":"26219","locality":"Bösel","municipality":{"key":"03453002","name":"Bösel","type":"Kreisangehörige_Gemeinde"},"district":{"key":"03453","name":"Cloppenburg","type":"Landkreis"},"federalState":{"key":"03","name":"Niedersachsen"}},{"name":"Tegelkamp","postalCode":"26219","locality":"Bösel","municipality":{"key":"03453002","name":"Bösel","type":"Kreisangehörige_Gemeinde"},"district":{"key":"03453","name":"Cloppenburg","type":"Landkreis"},"federalState":{"key":"03","name":"Niedersachsen"}},{"name":"Theodor-Storm-Str.","postalCode":"26219","locality":"Bösel","municipality":{"key":"03453002","name":"Bösel","type":"Kreisangehörige_Gemeinde"},"district":{"key":"03453","name":"Cloppenburg","type":"Landkreis"},"federalState":{"key":"03","name":"Niedersachsen"}},{"name":"Thüler Str.","postalCode":"26219","locality":"Bösel","municipality":{"key":"03453002","name":"Bösel","type":"Kreisangehörige_Gemeinde"},"district":{"key":"03453","name":"Cloppenburg","type":"Landkreis"},"federalState":{"key":"03","name":"Niedersachsen"}},{"name":"Tilsiter Str.","postalCode":"26219","locality":"Bösel","municipality":{"key":"03453002","name":"Bösel","type":"Kreisangehörige_Gemeinde"},"district":{"key":"03453","name":"Cloppenburg","type":"Landkreis"},"federalState":{"key":"03","name":"Niedersachsen"}},{"name":"Tulpenstr.","postalCode":"26219","locality":"Bösel","municipality":{"key":"03453002","name":"Bösel","type":"Kreisangehörige_Gemeinde"},"district":{"key":"03453","name":"Cloppenburg","type":"Landkreis"},"federalState":{"key":"03","name":"Niedersachsen"}},{"name":"Udetstr.","postalCode":"49661","locality":"Cloppenburg","municipality":{"key":"03453004","name":"Cloppenburg, Stadt","type":"Stadt"},"district":{"key":"03453","name":"Cloppenburg","type":"Landkreis"},"federalState":{"key":"03","name":"Niedersachsen"}},{"name":"Up de Höchde","postalCode":"49661","locality":"Cloppenburg","municipality":{"key":"03453004","name":"Cloppenburg, Stadt","type":"Stadt"},"district":{"key":"03453","name":"Cloppenburg","type":"Landkreis"},"federalState":{"key":"03","name":"Niedersachsen"}},{"name":"Up de Wör","postalCode":"49661","locality":"Cloppenburg","municipality":{"key":"03453004","name":"Cloppenburg, Stadt","type":"Stadt"},"district":{"key":"03453","name":"Cloppenburg","type":"Landkreis"},"federalState":{"key":"03","name":"Niedersachsen"}},{"name":"Upn Höft","postalCode":"49661","locality":"Cloppenburg","municipality":{"key":"03453004","name":"Cloppenburg, Stadt","type":"Stadt"},"district":{"key":"03453","name":"Cloppenburg","type":"Landkreis"},"federalState":{"key":"03","name":"Niedersachsen"}},{"name":"Ursulastr.","postalCode":"49661","locality":"Cloppenburg","municipality":{"key":"03453004","name":"Cloppenburg, Stadt","type":"Stadt"},"district":{"key":"03453","name":"Cloppenburg","type":"Landkreis"},"federalState":{"key":"03","name":"Niedersachsen"}},{"name":"Usedomstr.","postalCode":"49661","locality":"Cloppenburg","municipality":{"key":"03453004","name":"Cloppenburg, Stadt","type":"Stadt"},"district":{"key":"03453","name":"Cloppenburg","type":"Landkreis"},"federalState":{"key":"03","name":"Niedersachsen"}},{"name":"Veilchenweg","postalCode":"26219","locality":"Bösel","municipality":{"key":"03453002","name":"Bösel","type":"Kreisangehörige_Gemeinde"},"district":{"key":"03453","name":"Cloppenburg","type":"Landkreis"},"federalState":{"key":"03","name":"Niedersachsen"}},{"name":"Vidamer Str.","postalCode":"26219","locality":"Bösel","municipality":{"key":"03453002","name":"Bösel","type":"Kreisangehörige_Gemeinde"},"district":{"key":"03453","name":"Cloppenburg","type":"Landkreis"},"federalState":{"key":"03","name":"Niedersachsen"}},{"name":"Von-Ketteler-Str.","postalCode":"26219","locality":"Bösel","municipality":{"key":"03453002","name":"Bösel","type":"Kreisangehörige_Gemeinde"},"district":{"key":"03453","name":"Cloppenburg","type":"Landkreis"},"federalState":{"key":"03","name":"Niedersachsen"}},{"name":"Wacholderstr.","postalCode":"26219","locality":"Bösel","municipality":{"key":"03453002","name":"Bösel","type":"Kreisangehörige_Gemeinde"},"district":{"key":"03453","name":"Cloppenburg","type":"Landkreis"},"federalState":{"key":"03","name":"Niedersachsen"}},{"name":"Weidenstr.","postalCode":"26219","locality":"Bösel","municipality":{"key":"03453002","name":"Bösel","type":"Kreisangehörige_Gemeinde"},"district":{"key":"03453","name":"Cloppenburg","type":"Landkreis"},"federalState":{"key":"03","name":"Niedersachsen"}},{"name":"Wibbeltstr.","postalCode":"26219","locality":"Bösel","municipality":{"key":"03453002","name":"Bösel","type":"Kreisangehörige_Gemeinde"},"district":{"key":"03453","name":"Cloppenburg","type":"Landkreis"},"federalState":{"key":"03","name":"Niedersachsen"}},{"name":"Wiesenweg","postalCode":"26219","locality":"Bösel","municipality":{"key":"03453002","name":"Bösel","type":"Kreisangehörige_Gemeinde"},"district":{"key":"03453","name":"Cloppenburg","type":"Landkreis"},"federalState":{"key":"03","name":"Niedersachsen"}},{"name":"Willohstr.","postalCode":"26219","locality":"Bösel","municipality":{"key":"03453002","name":"Bösel","type":"Kreisangehörige_Gemeinde"},"district":{"key":"03453","name":"Cloppenburg","type":"Landkreis"},"federalState":{"key":"03","name":"Niedersachsen"}},{"name":"Zu den Eichen","postalCode":"26219","locality":"Bösel","municipality":{"key":"03453002","name":"Bösel","type":"Kreisangehörige_Gemeinde"},"district":{"key":"03453","name":"Cloppenburg","type":"Landkreis"},"federalState":{"key":"03","name":"Niedersachsen"}},{"name":"Zum Dustmeer","postalCode":"26219","locality":"Bösel","municipality":{"key":"03453002","name":"Bösel","type":"Kreisangehörige_Gemeinde"},"district":{"key":"03453","name":"Cloppenburg","type":"Landkreis"},"federalState":{"key":"03","name":"Niedersachsen"}},{"name":"Zum Sand","postalCode":"26219","locality":"Bösel","municipality":{"key":"03453002","name":"Bösel","type":"Kreisangehörige_Gemeinde"},"district":{"key":"03453","name":"Cloppenburg","type":"Landkreis"},"federalState":{"key":"03","name":"Niedersachsen"}},{"name":"Zum Sportplatz","postalCode":"26219","locality":"Bösel","municipality":{"key":"03453002","name":"Bösel","type":"Kreisangehörige_Gemeinde"},"district":{"key":"03453","name":"Cloppenburg","type":"Landkreis"},"federalState":{"key":"03","name":"Niedersachsen"}},{"name":"Zum Windpark","postalCode":"26219","locality":"Bösel","municipality":{"key":"03453002","name":"Bösel","type":"Kreisangehörige_Gemeinde"},"district":{"key":"03453","name":"Cloppenburg","type":"Landkreis"},"federalState":{"key":"03","name":"Niedersachsen"}},]