[{"name":"Abt-Moser-Str.","postalCode":"88339","locality":"Bad Waldsee","municipality":{"key":"08436009","name":"Bad Waldsee, Stadt","type":"Große_Kreisstadt"},"district":{"key":"08436","name":"Ravensburg","type":"Landkreis"},"federalState":{"key":"08","name":"Baden-Württemberg"}},{"name":"Achweg","postalCode":"88339","locality":"Bad Waldsee","municipality":{"key":"08436009","name":"Bad Waldsee, Stadt","type":"Große_Kreisstadt"},"district":{"key":"08436","name":"Ravensburg","type":"Landkreis"},"federalState":{"key":"08","name":"Baden-Württemberg"}},{"name":"Adlergasse","postalCode":"88339","locality":"Bad Waldsee","municipality":{"key":"08436009","name":"Bad Waldsee, Stadt","type":"Große_Kreisstadt"},"district":{"key":"08436","name":"Ravensburg","type":"Landkreis"},"federalState":{"key":"08","name":"Baden-Württemberg"}},{"name":"Ahornweg","postalCode":"88339","locality":"Bad Waldsee","municipality":{"key":"08436009","name":"Bad Waldsee, Stadt","type":"Große_Kreisstadt"},"district":{"key":"08436","name":"Ravensburg","type":"Landkreis"},"federalState":{"key":"08","name":"Baden-Württemberg"}},{"name":"Akazienweg","postalCode":"88339","locality":"Bad Waldsee","municipality":{"key":"08436009","name":"Bad Waldsee, Stadt","type":"Große_Kreisstadt"},"district":{"key":"08436","name":"Ravensburg","type":"Landkreis"},"federalState":{"key":"08","name":"Baden-Württemberg"}},{"name":"Alois-Lang-Str.","postalCode":"88339","locality":"Bad Waldsee","municipality":{"key":"08436009","name":"Bad Waldsee, Stadt","type":"Große_Kreisstadt"},"district":{"key":"08436","name":"Ravensburg","type":"Landkreis"},"federalState":{"key":"08","name":"Baden-Württemberg"}},{"name":"Altdorfer Str.","postalCode":"88339","locality":"Bad Waldsee","municipality":{"key":"08436009","name":"Bad Waldsee, Stadt","type":"Große_Kreisstadt"},"district":{"key":"08436","name":"Ravensburg","type":"Landkreis"},"federalState":{"key":"08","name":"Baden-Württemberg"}},{"name":"Alte Bachgasse","postalCode":"88339","locality":"Bad Waldsee","municipality":{"key":"08436009","name":"Bad Waldsee, Stadt","type":"Große_Kreisstadt"},"district":{"key":"08436","name":"Ravensburg","type":"Landkreis"},"federalState":{"key":"08","name":"Baden-Württemberg"}},{"name":"Alter Bühlweg","postalCode":"88339","locality":"Bad Waldsee","municipality":{"key":"08436009","name":"Bad Waldsee, Stadt","type":"Große_Kreisstadt"},"district":{"key":"08436","name":"Ravensburg","type":"Landkreis"},"federalState":{"key":"08","name":"Baden-Württemberg"}},{"name":"Am alten Sportplatz","postalCode":"88339","locality":"Bad Waldsee","municipality":{"key":"08436009","name":"Bad Waldsee, Stadt","type":"Große_Kreisstadt"},"district":{"key":"08436","name":"Ravensburg","type":"Landkreis"},"federalState":{"key":"08","name":"Baden-Württemberg"}},{"name":"Am Anger","postalCode":"88339","locality":"Bad Waldsee","municipality":{"key":"08436009","name":"Bad Waldsee, Stadt","type":"Große_Kreisstadt"},"district":{"key":"08436","name":"Ravensburg","type":"Landkreis"},"federalState":{"key":"08","name":"Baden-Württemberg"}},{"name":"Am Burgstock","postalCode":"88339","locality":"Bad Waldsee","municipality":{"key":"08436009","name":"Bad Waldsee, Stadt","type":"Große_Kreisstadt"},"district":{"key":"08436","name":"Ravensburg","type":"Landkreis"},"federalState":{"key":"08","name":"Baden-Württemberg"}},{"name":"Am Haidgauer Berg","postalCode":"88339","locality":"Bad Waldsee","municipality":{"key":"08436009","name":"Bad Waldsee, Stadt","type":"Große_Kreisstadt"},"district":{"key":"08436","name":"Ravensburg","type":"Landkreis"},"federalState":{"key":"08","name":"Baden-Württemberg"}},{"name":"Am Haisterbach","postalCode":"88339","locality":"Bad Waldsee","municipality":{"key":"08436009","name":"Bad Waldsee, Stadt","type":"Große_Kreisstadt"},"district":{"key":"08436","name":"Ravensburg","type":"Landkreis"},"federalState":{"key":"08","name":"Baden-Württemberg"}},{"name":"Am Hirschkeller","postalCode":"88339","locality":"Bad Waldsee","municipality":{"key":"08436009","name":"Bad Waldsee, Stadt","type":"Große_Kreisstadt"},"district":{"key":"08436","name":"Ravensburg","type":"Landkreis"},"federalState":{"key":"08","name":"Baden-Württemberg"}},{"name":"Am Hofgarten","postalCode":"88339","locality":"Bad Waldsee","municipality":{"key":"08436009","name":"Bad Waldsee, Stadt","type":"Große_Kreisstadt"},"district":{"key":"08436","name":"Ravensburg","type":"Landkreis"},"federalState":{"key":"08","name":"Baden-Württemberg"}},{"name":"Am Kornhaus","postalCode":"88339","locality":"Bad Waldsee","municipality":{"key":"08436009","name":"Bad Waldsee, Stadt","type":"Große_Kreisstadt"},"district":{"key":"08436","name":"Ravensburg","type":"Landkreis"},"federalState":{"key":"08","name":"Baden-Württemberg"}},{"name":"Am Lettenhof","postalCode":"88339","locality":"Bad Waldsee","municipality":{"key":"08436009","name":"Bad Waldsee, Stadt","type":"Große_Kreisstadt"},"district":{"key":"08436","name":"Ravensburg","type":"Landkreis"},"federalState":{"key":"08","name":"Baden-Württemberg"}},{"name":"Am Munzenried","postalCode":"88339","locality":"Bad Waldsee","municipality":{"key":"08436009","name":"Bad Waldsee, Stadt","type":"Große_Kreisstadt"},"district":{"key":"08436","name":"Ravensburg","type":"Landkreis"},"federalState":{"key":"08","name":"Baden-Württemberg"}},{"name":"Am Ravensburger Tor","postalCode":"88339","locality":"Bad Waldsee","municipality":{"key":"08436009","name":"Bad Waldsee, Stadt","type":"Große_Kreisstadt"},"district":{"key":"08436","name":"Ravensburg","type":"Landkreis"},"federalState":{"key":"08","name":"Baden-Württemberg"}},{"name":"Am Römerbühl","postalCode":"88339","locality":"Bad Waldsee","municipality":{"key":"08436009","name":"Bad Waldsee, Stadt","type":"Große_Kreisstadt"},"district":{"key":"08436","name":"Ravensburg","type":"Landkreis"},"federalState":{"key":"08","name":"Baden-Württemberg"}},{"name":"Amselweg","postalCode":"88339","locality":"Bad Waldsee","municipality":{"key":"08436009","name":"Bad Waldsee, Stadt","type":"Große_Kreisstadt"},"district":{"key":"08436","name":"Ravensburg","type":"Landkreis"},"federalState":{"key":"08","name":"Baden-Württemberg"}},{"name":"Am Sonnenberg","postalCode":"88339","locality":"Bad Waldsee","municipality":{"key":"08436009","name":"Bad Waldsee, Stadt","type":"Große_Kreisstadt"},"district":{"key":"08436","name":"Ravensburg","type":"Landkreis"},"federalState":{"key":"08","name":"Baden-Württemberg"}},{"name":"Am Stadtgraben","postalCode":"88339","locality":"Bad Waldsee","municipality":{"key":"08436009","name":"Bad Waldsee, Stadt","type":"Große_Kreisstadt"},"district":{"key":"08436","name":"Ravensburg","type":"Landkreis"},"federalState":{"key":"08","name":"Baden-Württemberg"}},{"name":"Am Tiergarten","postalCode":"88339","locality":"Bad Waldsee","municipality":{"key":"08436009","name":"Bad Waldsee, Stadt","type":"Große_Kreisstadt"},"district":{"key":"08436","name":"Ravensburg","type":"Landkreis"},"federalState":{"key":"08","name":"Baden-Württemberg"}},{"name":"Am Wespenmoos","postalCode":"88339","locality":"Bad Waldsee","municipality":{"key":"08436009","name":"Bad Waldsee, Stadt","type":"Große_Kreisstadt"},"district":{"key":"08436","name":"Ravensburg","type":"Landkreis"},"federalState":{"key":"08","name":"Baden-Württemberg"}},{"name":"Am Zettelbach","postalCode":"88339","locality":"Bad Waldsee","municipality":{"key":"08436009","name":"Bad Waldsee, Stadt","type":"Große_Kreisstadt"},"district":{"key":"08436","name":"Ravensburg","type":"Landkreis"},"federalState":{"key":"08","name":"Baden-Württemberg"}},{"name":"Anna-Warth-Str.","postalCode":"88339","locality":"Bad Waldsee","municipality":{"key":"08436009","name":"Bad Waldsee, Stadt","type":"Große_Kreisstadt"},"district":{"key":"08436","name":"Ravensburg","type":"Landkreis"},"federalState":{"key":"08","name":"Baden-Württemberg"}},{"name":"Anton-Bruckner-Str.","postalCode":"88339","locality":"Bad Waldsee","municipality":{"key":"08436009","name":"Bad Waldsee, Stadt","type":"Große_Kreisstadt"},"district":{"key":"08436","name":"Ravensburg","type":"Landkreis"},"federalState":{"key":"08","name":"Baden-Württemberg"}},{"name":"Augustinerstr.","postalCode":"88339","locality":"Bad Waldsee","municipality":{"key":"08436009","name":"Bad Waldsee, Stadt","type":"Große_Kreisstadt"},"district":{"key":"08436","name":"Ravensburg","type":"Landkreis"},"federalState":{"key":"08","name":"Baden-Württemberg"}},{"name":"Aulendorfer Str.","postalCode":"88339","locality":"Bad Waldsee","municipality":{"key":"08436009","name":"Bad Waldsee, Stadt","type":"Große_Kreisstadt"},"district":{"key":"08436","name":"Ravensburg","type":"Landkreis"},"federalState":{"key":"08","name":"Baden-Württemberg"}},{"name":"Badstr.","postalCode":"88339","locality":"Bad Waldsee","municipality":{"key":"08436009","name":"Bad Waldsee, Stadt","type":"Große_Kreisstadt"},"district":{"key":"08436","name":"Ravensburg","type":"Landkreis"},"federalState":{"key":"08","name":"Baden-Württemberg"}},{"name":"Bahnhalde","postalCode":"88339","locality":"Bad Waldsee","municipality":{"key":"08436009","name":"Bad Waldsee, Stadt","type":"Große_Kreisstadt"},"district":{"key":"08436","name":"Ravensburg","type":"Landkreis"},"federalState":{"key":"08","name":"Baden-Württemberg"}},{"name":"Bahnhofstr.","postalCode":"88339","locality":"Bad Waldsee","municipality":{"key":"08436009","name":"Bad Waldsee, Stadt","type":"Große_Kreisstadt"},"district":{"key":"08436","name":"Ravensburg","type":"Landkreis"},"federalState":{"key":"08","name":"Baden-Württemberg"}},{"name":"Baindter Str.","postalCode":"88339","locality":"Bad Waldsee","municipality":{"key":"08436009","name":"Bad Waldsee, Stadt","type":"Große_Kreisstadt"},"district":{"key":"08436","name":"Ravensburg","type":"Landkreis"},"federalState":{"key":"08","name":"Baden-Württemberg"}},{"name":"Ballenmoosweg","postalCode":"88339","locality":"Bad Waldsee","municipality":{"key":"08436009","name":"Bad Waldsee, Stadt","type":"Große_Kreisstadt"},"district":{"key":"08436","name":"Ravensburg","type":"Landkreis"},"federalState":{"key":"08","name":"Baden-Württemberg"}},{"name":"Bassenreute","postalCode":"88339","locality":"Bad Waldsee","municipality":{"key":"08436009","name":"Bad Waldsee, Stadt","type":"Große_Kreisstadt"},"district":{"key":"08436","name":"Ravensburg","type":"Landkreis"},"federalState":{"key":"08","name":"Baden-Württemberg"}},{"name":"Bauernjörgstr.","postalCode":"88339","locality":"Bad Waldsee","municipality":{"key":"08436009","name":"Bad Waldsee, Stadt","type":"Große_Kreisstadt"},"district":{"key":"08436","name":"Ravensburg","type":"Landkreis"},"federalState":{"key":"08","name":"Baden-Württemberg"}},{"name":"Beethovenstr.","postalCode":"88339","locality":"Bad Waldsee","municipality":{"key":"08436009","name":"Bad Waldsee, Stadt","type":"Große_Kreisstadt"},"district":{"key":"08436","name":"Ravensburg","type":"Landkreis"},"federalState":{"key":"08","name":"Baden-Württemberg"}},{"name":"Begonienweg","postalCode":"88339","locality":"Bad Waldsee","municipality":{"key":"08436009","name":"Bad Waldsee, Stadt","type":"Große_Kreisstadt"},"district":{"key":"08436","name":"Ravensburg","type":"Landkreis"},"federalState":{"key":"08","name":"Baden-Württemberg"}},{"name":"Bei der Stadtmauer","postalCode":"88339","locality":"Bad Waldsee","municipality":{"key":"08436009","name":"Bad Waldsee, Stadt","type":"Große_Kreisstadt"},"district":{"key":"08436","name":"Ravensburg","type":"Landkreis"},"federalState":{"key":"08","name":"Baden-Württemberg"}},{"name":"Beim Lammkeller","postalCode":"88339","locality":"Bad Waldsee","municipality":{"key":"08436009","name":"Bad Waldsee, Stadt","type":"Große_Kreisstadt"},"district":{"key":"08436","name":"Ravensburg","type":"Landkreis"},"federalState":{"key":"08","name":"Baden-Württemberg"}},{"name":"Beim Ried","postalCode":"88339","locality":"Bad Waldsee","municipality":{"key":"08436009","name":"Bad Waldsee, Stadt","type":"Große_Kreisstadt"},"district":{"key":"08436","name":"Ravensburg","type":"Landkreis"},"federalState":{"key":"08","name":"Baden-Württemberg"}},{"name":"Bergäcker","postalCode":"88339","locality":"Bad Waldsee","municipality":{"key":"08436009","name":"Bad Waldsee, Stadt","type":"Große_Kreisstadt"},"district":{"key":"08436","name":"Ravensburg","type":"Landkreis"},"federalState":{"key":"08","name":"Baden-Württemberg"}},{"name":"Bergstr.","postalCode":"88339","locality":"Bad Waldsee","municipality":{"key":"08436009","name":"Bad Waldsee, Stadt","type":"Große_Kreisstadt"},"district":{"key":"08436","name":"Ravensburg","type":"Landkreis"},"federalState":{"key":"08","name":"Baden-Württemberg"}},{"name":"Bernhardstr.","postalCode":"88339","locality":"Bad Waldsee","municipality":{"key":"08436009","name":"Bad Waldsee, Stadt","type":"Große_Kreisstadt"},"district":{"key":"08436","name":"Ravensburg","type":"Landkreis"},"federalState":{"key":"08","name":"Baden-Württemberg"}},{"name":"Biberacher Str.","postalCode":"88339","locality":"Bad Waldsee","municipality":{"key":"08436009","name":"Bad Waldsee, Stadt","type":"Große_Kreisstadt"},"district":{"key":"08436","name":"Ravensburg","type":"Landkreis"},"federalState":{"key":"08","name":"Baden-Württemberg"}},{"name":"Biegenwiesen","postalCode":"88339","locality":"Bad Waldsee","municipality":{"key":"08436009","name":"Bad Waldsee, Stadt","type":"Große_Kreisstadt"},"district":{"key":"08436","name":"Ravensburg","type":"Landkreis"},"federalState":{"key":"08","name":"Baden-Württemberg"}},{"name":"Birkenstr.","postalCode":"88339","locality":"Bad Waldsee","municipality":{"key":"08436009","name":"Bad Waldsee, Stadt","type":"Große_Kreisstadt"},"district":{"key":"08436","name":"Ravensburg","type":"Landkreis"},"federalState":{"key":"08","name":"Baden-Württemberg"}},{"name":"Bleichestr.","postalCode":"88339","locality":"Bad Waldsee","municipality":{"key":"08436009","name":"Bad Waldsee, Stadt","type":"Große_Kreisstadt"},"district":{"key":"08436","name":"Ravensburg","type":"Landkreis"},"federalState":{"key":"08","name":"Baden-Württemberg"}},{"name":"Blumenweg","postalCode":"88339","locality":"Bad Waldsee","municipality":{"key":"08436009","name":"Bad Waldsee, Stadt","type":"Große_Kreisstadt"},"district":{"key":"08436","name":"Ravensburg","type":"Landkreis"},"federalState":{"key":"08","name":"Baden-Württemberg"}},{"name":"Breiteweg","postalCode":"88339","locality":"Bad Waldsee","municipality":{"key":"08436009","name":"Bad Waldsee, Stadt","type":"Große_Kreisstadt"},"district":{"key":"08436","name":"Ravensburg","type":"Landkreis"},"federalState":{"key":"08","name":"Baden-Württemberg"}},{"name":"Brennereiweg","postalCode":"88339","locality":"Bad Waldsee","municipality":{"key":"08436009","name":"Bad Waldsee, Stadt","type":"Große_Kreisstadt"},"district":{"key":"08436","name":"Ravensburg","type":"Landkreis"},"federalState":{"key":"08","name":"Baden-Württemberg"}},{"name":"Brühlweg","postalCode":"88339","locality":"Bad Waldsee","municipality":{"key":"08436009","name":"Bad Waldsee, Stadt","type":"Große_Kreisstadt"},"district":{"key":"08436","name":"Ravensburg","type":"Landkreis"},"federalState":{"key":"08","name":"Baden-Württemberg"}},{"name":"Brunnenweg","postalCode":"88339","locality":"Bad Waldsee","municipality":{"key":"08436009","name":"Bad Waldsee, Stadt","type":"Große_Kreisstadt"},"district":{"key":"08436","name":"Ravensburg","type":"Landkreis"},"federalState":{"key":"08","name":"Baden-Württemberg"}},{"name":"Buchenweg","postalCode":"88339","locality":"Bad Waldsee","municipality":{"key":"08436009","name":"Bad Waldsee, Stadt","type":"Große_Kreisstadt"},"district":{"key":"08436","name":"Ravensburg","type":"Landkreis"},"federalState":{"key":"08","name":"Baden-Württemberg"}},{"name":"Buchholzweg","postalCode":"88339","locality":"Bad Waldsee","municipality":{"key":"08436009","name":"Bad Waldsee, Stadt","type":"Große_Kreisstadt"},"district":{"key":"08436","name":"Ravensburg","type":"Landkreis"},"federalState":{"key":"08","name":"Baden-Württemberg"}},{"name":"Bundesstr.","postalCode":"88339","locality":"Bad Waldsee","municipality":{"key":"08436009","name":"Bad Waldsee, Stadt","type":"Große_Kreisstadt"},"district":{"key":"08436","name":"Ravensburg","type":"Landkreis"},"federalState":{"key":"08","name":"Baden-Württemberg"}},{"name":"Bürgerstr.","postalCode":"88339","locality":"Bad Waldsee","municipality":{"key":"08436009","name":"Bad Waldsee, Stadt","type":"Große_Kreisstadt"},"district":{"key":"08436","name":"Ravensburg","type":"Landkreis"},"federalState":{"key":"08","name":"Baden-Württemberg"}},{"name":"Burghaldenweg","postalCode":"88339","locality":"Bad Waldsee","municipality":{"key":"08436009","name":"Bad Waldsee, Stadt","type":"Große_Kreisstadt"},"district":{"key":"08436","name":"Ravensburg","type":"Landkreis"},"federalState":{"key":"08","name":"Baden-Württemberg"}},{"name":"Burgstockstr.","postalCode":"88339","locality":"Bad Waldsee","municipality":{"key":"08436009","name":"Bad Waldsee, Stadt","type":"Große_Kreisstadt"},"district":{"key":"08436","name":"Ravensburg","type":"Landkreis"},"federalState":{"key":"08","name":"Baden-Württemberg"}},{"name":"Burgweiherstr.","postalCode":"88339","locality":"Bad Waldsee","municipality":{"key":"08436009","name":"Bad Waldsee, Stadt","type":"Große_Kreisstadt"},"district":{"key":"08436","name":"Ravensburg","type":"Landkreis"},"federalState":{"key":"08","name":"Baden-Württemberg"}},{"name":"Carlensteichweg","postalCode":"88339","locality":"Bad Waldsee","municipality":{"key":"08436009","name":"Bad Waldsee, Stadt","type":"Große_Kreisstadt"},"district":{"key":"08436","name":"Ravensburg","type":"Landkreis"},"federalState":{"key":"08","name":"Baden-Württemberg"}},{"name":"Chorherrenweg","postalCode":"88339","locality":"Bad Waldsee","municipality":{"key":"08436009","name":"Bad Waldsee, Stadt","type":"Große_Kreisstadt"},"district":{"key":"08436","name":"Ravensburg","type":"Landkreis"},"federalState":{"key":"08","name":"Baden-Württemberg"}},{"name":"Conradin-Kreutzer-Str.","postalCode":"88339","locality":"Bad Waldsee","municipality":{"key":"08436009","name":"Bad Waldsee, Stadt","type":"Große_Kreisstadt"},"district":{"key":"08436","name":"Ravensburg","type":"Landkreis"},"federalState":{"key":"08","name":"Baden-Württemberg"}},{"name":"Dachsweg","postalCode":"88339","locality":"Bad Waldsee","municipality":{"key":"08436009","name":"Bad Waldsee, Stadt","type":"Große_Kreisstadt"},"district":{"key":"08436","name":"Ravensburg","type":"Landkreis"},"federalState":{"key":"08","name":"Baden-Württemberg"}},{"name":"Dahlienweg","postalCode":"88339","locality":"Bad Waldsee","municipality":{"key":"08436009","name":"Bad Waldsee, Stadt","type":"Große_Kreisstadt"},"district":{"key":"08436","name":"Ravensburg","type":"Landkreis"},"federalState":{"key":"08","name":"Baden-Württemberg"}},{"name":"Dellenhag","postalCode":"88339","locality":"Bad Waldsee","municipality":{"key":"08436009","name":"Bad Waldsee, Stadt","type":"Große_Kreisstadt"},"district":{"key":"08436","name":"Ravensburg","type":"Landkreis"},"federalState":{"key":"08","name":"Baden-Württemberg"}},{"name":"Dinkelgasse","postalCode":"88339","locality":"Bad Waldsee","municipality":{"key":"08436009","name":"Bad Waldsee, Stadt","type":"Große_Kreisstadt"},"district":{"key":"08436","name":"Ravensburg","type":"Landkreis"},"federalState":{"key":"08","name":"Baden-Württemberg"}},{"name":"Distelweg","postalCode":"88339","locality":"Bad Waldsee","municipality":{"key":"08436009","name":"Bad Waldsee, Stadt","type":"Große_Kreisstadt"},"district":{"key":"08436","name":"Ravensburg","type":"Landkreis"},"federalState":{"key":"08","name":"Baden-Württemberg"}},{"name":"Döchtbühlweg","postalCode":"88339","locality":"Bad Waldsee","municipality":{"key":"08436009","name":"Bad Waldsee, Stadt","type":"Große_Kreisstadt"},"district":{"key":"08436","name":"Ravensburg","type":"Landkreis"},"federalState":{"key":"08","name":"Baden-Württemberg"}},{"name":"Dorfplatz","postalCode":"88339","locality":"Bad Waldsee","municipality":{"key":"08436009","name":"Bad Waldsee, Stadt","type":"Große_Kreisstadt"},"district":{"key":"08436","name":"Ravensburg","type":"Landkreis"},"federalState":{"key":"08","name":"Baden-Württemberg"}},{"name":"Dorfstr.","postalCode":"88339","locality":"Bad Waldsee","municipality":{"key":"08436009","name":"Bad Waldsee, Stadt","type":"Große_Kreisstadt"},"district":{"key":"08436","name":"Ravensburg","type":"Landkreis"},"federalState":{"key":"08","name":"Baden-Württemberg"}},{"name":"Drei-Eichen-Str.","postalCode":"88339","locality":"Bad Waldsee","municipality":{"key":"08436009","name":"Bad Waldsee, Stadt","type":"Große_Kreisstadt"},"district":{"key":"08436","name":"Ravensburg","type":"Landkreis"},"federalState":{"key":"08","name":"Baden-Württemberg"}},{"name":"Dreikönigsgasse","postalCode":"88339","locality":"Bad Waldsee","municipality":{"key":"08436009","name":"Bad Waldsee, Stadt","type":"Große_Kreisstadt"},"district":{"key":"08436","name":"Ravensburg","type":"Landkreis"},"federalState":{"key":"08","name":"Baden-Württemberg"}},{"name":"Dreimühlenweg","postalCode":"88339","locality":"Bad Waldsee","municipality":{"key":"08436009","name":"Bad Waldsee, Stadt","type":"Große_Kreisstadt"},"district":{"key":"08436","name":"Ravensburg","type":"Landkreis"},"federalState":{"key":"08","name":"Baden-Württemberg"}},{"name":"Drosselweg","postalCode":"88339","locality":"Bad Waldsee","municipality":{"key":"08436009","name":"Bad Waldsee, Stadt","type":"Große_Kreisstadt"},"district":{"key":"08436","name":"Ravensburg","type":"Landkreis"},"federalState":{"key":"08","name":"Baden-Württemberg"}},{"name":"Durlesbacher Str.","postalCode":"88339","locality":"Bad Waldsee","municipality":{"key":"08436009","name":"Bad Waldsee, Stadt","type":"Große_Kreisstadt"},"district":{"key":"08436","name":"Ravensburg","type":"Landkreis"},"federalState":{"key":"08","name":"Baden-Württemberg"}},{"name":"Durlesbachweg","postalCode":"88339","locality":"Bad Waldsee","municipality":{"key":"08436009","name":"Bad Waldsee, Stadt","type":"Große_Kreisstadt"},"district":{"key":"08436","name":"Ravensburg","type":"Landkreis"},"federalState":{"key":"08","name":"Baden-Württemberg"}},{"name":"Eberhardstr.","postalCode":"88339","locality":"Bad Waldsee","municipality":{"key":"08436009","name":"Bad Waldsee, Stadt","type":"Große_Kreisstadt"},"district":{"key":"08436","name":"Ravensburg","type":"Landkreis"},"federalState":{"key":"08","name":"Baden-Württemberg"}},{"name":"Egelseestr.","postalCode":"88339","locality":"Bad Waldsee","municipality":{"key":"08436009","name":"Bad Waldsee, Stadt","type":"Große_Kreisstadt"},"district":{"key":"08436","name":"Ravensburg","type":"Landkreis"},"federalState":{"key":"08","name":"Baden-Württemberg"}},{"name":"Eggmannsrieder Str.","postalCode":"88339","locality":"Bad Waldsee","municipality":{"key":"08436009","name":"Bad Waldsee, Stadt","type":"Große_Kreisstadt"},"district":{"key":"08436","name":"Ravensburg","type":"Landkreis"},"federalState":{"key":"08","name":"Baden-Württemberg"}},{"name":"Eibweg","postalCode":"88339","locality":"Bad Waldsee","municipality":{"key":"08436009","name":"Bad Waldsee, Stadt","type":"Große_Kreisstadt"},"district":{"key":"08436","name":"Ravensburg","type":"Landkreis"},"federalState":{"key":"08","name":"Baden-Württemberg"}},{"name":"Eichenweg","postalCode":"88339","locality":"Bad Waldsee","municipality":{"key":"08436009","name":"Bad Waldsee, Stadt","type":"Große_Kreisstadt"},"district":{"key":"08436","name":"Ravensburg","type":"Landkreis"},"federalState":{"key":"08","name":"Baden-Württemberg"}},{"name":"Eisenfurter Str.","postalCode":"88339","locality":"Bad Waldsee","municipality":{"key":"08436009","name":"Bad Waldsee, Stadt","type":"Große_Kreisstadt"},"district":{"key":"08436","name":"Ravensburg","type":"Landkreis"},"federalState":{"key":"08","name":"Baden-Württemberg"}},{"name":"Eiskopfweg","postalCode":"88339","locality":"Bad Waldsee","municipality":{"key":"08436009","name":"Bad Waldsee, Stadt","type":"Große_Kreisstadt"},"district":{"key":"08436","name":"Ravensburg","type":"Landkreis"},"federalState":{"key":"08","name":"Baden-Württemberg"}},{"name":"Elisabeth-Achler-Str.","postalCode":"88339","locality":"Bad Waldsee","municipality":{"key":"08436009","name":"Bad Waldsee, Stadt","type":"Große_Kreisstadt"},"district":{"key":"08436","name":"Ravensburg","type":"Landkreis"},"federalState":{"key":"08","name":"Baden-Württemberg"}},{"name":"Elsternweg","postalCode":"88339","locality":"Bad Waldsee","municipality":{"key":"08436009","name":"Bad Waldsee, Stadt","type":"Große_Kreisstadt"},"district":{"key":"08436","name":"Ravensburg","type":"Landkreis"},"federalState":{"key":"08","name":"Baden-Württemberg"}},{"name":"Elsterweg","postalCode":"88339","locality":"Bad Waldsee","municipality":{"key":"08436009","name":"Bad Waldsee, Stadt","type":"Große_Kreisstadt"},"district":{"key":"08436","name":"Ravensburg","type":"Landkreis"},"federalState":{"key":"08","name":"Baden-Württemberg"}},{"name":"Entenmoos","postalCode":"88339","locality":"Bad Waldsee","municipality":{"key":"08436009","name":"Bad Waldsee, Stadt","type":"Große_Kreisstadt"},"district":{"key":"08436","name":"Ravensburg","type":"Landkreis"},"federalState":{"key":"08","name":"Baden-Württemberg"}},{"name":"Erlenweg","postalCode":"88339","locality":"Bad Waldsee","municipality":{"key":"08436009","name":"Bad Waldsee, Stadt","type":"Große_Kreisstadt"},"district":{"key":"08436","name":"Ravensburg","type":"Landkreis"},"federalState":{"key":"08","name":"Baden-Württemberg"}},{"name":"Eschenweg","postalCode":"88339","locality":"Bad Waldsee","municipality":{"key":"08436009","name":"Bad Waldsee, Stadt","type":"Große_Kreisstadt"},"district":{"key":"08436","name":"Ravensburg","type":"Landkreis"},"federalState":{"key":"08","name":"Baden-Württemberg"}},{"name":"Eschlestr.","postalCode":"88339","locality":"Bad Waldsee","municipality":{"key":"08436009","name":"Bad Waldsee, Stadt","type":"Große_Kreisstadt"},"district":{"key":"08436","name":"Ravensburg","type":"Landkreis"},"federalState":{"key":"08","name":"Baden-Württemberg"}},{"name":"Falkenweg","postalCode":"88339","locality":"Bad Waldsee","municipality":{"key":"08436009","name":"Bad Waldsee, Stadt","type":"Große_Kreisstadt"},"district":{"key":"08436","name":"Ravensburg","type":"Landkreis"},"federalState":{"key":"08","name":"Baden-Württemberg"}},{"name":"Fasanenweg","postalCode":"88339","locality":"Bad Waldsee","municipality":{"key":"08436009","name":"Bad Waldsee, Stadt","type":"Große_Kreisstadt"},"district":{"key":"08436","name":"Ravensburg","type":"Landkreis"},"federalState":{"key":"08","name":"Baden-Württemberg"}},{"name":"Feldlerchenweg","postalCode":"88339","locality":"Bad Waldsee","municipality":{"key":"08436009","name":"Bad Waldsee, Stadt","type":"Große_Kreisstadt"},"district":{"key":"08436","name":"Ravensburg","type":"Landkreis"},"federalState":{"key":"08","name":"Baden-Württemberg"}},{"name":"Fichtenstr.","postalCode":"88339","locality":"Bad Waldsee","municipality":{"key":"08436009","name":"Bad Waldsee, Stadt","type":"Große_Kreisstadt"},"district":{"key":"08436","name":"Ravensburg","type":"Landkreis"},"federalState":{"key":"08","name":"Baden-Württemberg"}},{"name":"Finkenweg","postalCode":"88339","locality":"Bad Waldsee","municipality":{"key":"08436009","name":"Bad Waldsee, Stadt","type":"Große_Kreisstadt"},"district":{"key":"08436","name":"Ravensburg","type":"Landkreis"},"federalState":{"key":"08","name":"Baden-Württemberg"}},{"name":"Fischerweg","postalCode":"88339","locality":"Bad Waldsee","municipality":{"key":"08436009","name":"Bad Waldsee, Stadt","type":"Große_Kreisstadt"},"district":{"key":"08436","name":"Ravensburg","type":"Landkreis"},"federalState":{"key":"08","name":"Baden-Württemberg"}},{"name":"Fliederstr.","postalCode":"88339","locality":"Bad Waldsee","municipality":{"key":"08436009","name":"Bad Waldsee, Stadt","type":"Große_Kreisstadt"},"district":{"key":"08436","name":"Ravensburg","type":"Landkreis"},"federalState":{"key":"08","name":"Baden-Württemberg"}},{"name":"Flockenblumenweg","postalCode":"88339","locality":"Bad Waldsee","municipality":{"key":"08436009","name":"Bad Waldsee, Stadt","type":"Große_Kreisstadt"},"district":{"key":"08436","name":"Ravensburg","type":"Landkreis"},"federalState":{"key":"08","name":"Baden-Württemberg"}},{"name":"Fockentalstr.","postalCode":"88339","locality":"Bad Waldsee","municipality":{"key":"08436009","name":"Bad Waldsee, Stadt","type":"Große_Kreisstadt"},"district":{"key":"08436","name":"Ravensburg","type":"Landkreis"},"federalState":{"key":"08","name":"Baden-Württemberg"}},{"name":"Frankenweg","postalCode":"88339","locality":"Bad Waldsee","municipality":{"key":"08436009","name":"Bad Waldsee, Stadt","type":"Große_Kreisstadt"},"district":{"key":"08436","name":"Ravensburg","type":"Landkreis"},"federalState":{"key":"08","name":"Baden-Württemberg"}},{"name":"Franz-Lehar-Str.","postalCode":"88339","locality":"Bad Waldsee","municipality":{"key":"08436009","name":"Bad Waldsee, Stadt","type":"Große_Kreisstadt"},"district":{"key":"08436","name":"Ravensburg","type":"Landkreis"},"federalState":{"key":"08","name":"Baden-Württemberg"}},{"name":"Franz-Liszt-Str.","postalCode":"88339","locality":"Bad Waldsee","municipality":{"key":"08436009","name":"Bad Waldsee, Stadt","type":"Große_Kreisstadt"},"district":{"key":"08436","name":"Ravensburg","type":"Landkreis"},"federalState":{"key":"08","name":"Baden-Württemberg"}},{"name":"Franz-Schubert-Str.","postalCode":"88339","locality":"Bad Waldsee","municipality":{"key":"08436009","name":"Bad Waldsee, Stadt","type":"Große_Kreisstadt"},"district":{"key":"08436","name":"Ravensburg","type":"Landkreis"},"federalState":{"key":"08","name":"Baden-Württemberg"}},{"name":"Frauenbergstr.","postalCode":"88339","locality":"Bad Waldsee","municipality":{"key":"08436009","name":"Bad Waldsee, Stadt","type":"Große_Kreisstadt"},"district":{"key":"08436","name":"Ravensburg","type":"Landkreis"},"federalState":{"key":"08","name":"Baden-Württemberg"}},{"name":"Freiheitstr.","postalCode":"88339","locality":"Bad Waldsee","municipality":{"key":"08436009","name":"Bad Waldsee, Stadt","type":"Große_Kreisstadt"},"district":{"key":"08436","name":"Ravensburg","type":"Landkreis"},"federalState":{"key":"08","name":"Baden-Württemberg"}},{"name":"Friedenslinde","postalCode":"88339","locality":"Bad Waldsee","municipality":{"key":"08436009","name":"Bad Waldsee, Stadt","type":"Große_Kreisstadt"},"district":{"key":"08436","name":"Ravensburg","type":"Landkreis"},"federalState":{"key":"08","name":"Baden-Württemberg"}},{"name":"Friedensweg","postalCode":"88339","locality":"Bad Waldsee","municipality":{"key":"08436009","name":"Bad Waldsee, Stadt","type":"Große_Kreisstadt"},"district":{"key":"08436","name":"Ravensburg","type":"Landkreis"},"federalState":{"key":"08","name":"Baden-Württemberg"}},{"name":"Friedhofstr.","postalCode":"88339","locality":"Bad Waldsee","municipality":{"key":"08436009","name":"Bad Waldsee, Stadt","type":"Große_Kreisstadt"},"district":{"key":"08436","name":"Ravensburg","type":"Landkreis"},"federalState":{"key":"08","name":"Baden-Württemberg"}},{"name":"Furtsteggasse","postalCode":"88339","locality":"Bad Waldsee","municipality":{"key":"08436009","name":"Bad Waldsee, Stadt","type":"Große_Kreisstadt"},"district":{"key":"08436","name":"Ravensburg","type":"Landkreis"},"federalState":{"key":"08","name":"Baden-Württemberg"}},{"name":"Gaisbeurer Str.","postalCode":"88339","locality":"Bad Waldsee","municipality":{"key":"08436009","name":"Bad Waldsee, Stadt","type":"Große_Kreisstadt"},"district":{"key":"08436","name":"Ravensburg","type":"Landkreis"},"federalState":{"key":"08","name":"Baden-Württemberg"}},{"name":"Gartenstr.","postalCode":"88339","locality":"Bad Waldsee","municipality":{"key":"08436009","name":"Bad Waldsee, Stadt","type":"Große_Kreisstadt"},"district":{"key":"08436","name":"Ravensburg","type":"Landkreis"},"federalState":{"key":"08","name":"Baden-Württemberg"}},{"name":"Gassenäckerstr.","postalCode":"88339","locality":"Bad Waldsee","municipality":{"key":"08436009","name":"Bad Waldsee, Stadt","type":"Große_Kreisstadt"},"district":{"key":"08436","name":"Ravensburg","type":"Landkreis"},"federalState":{"key":"08","name":"Baden-Württemberg"}},{"name":"Geranienweg","postalCode":"88339","locality":"Bad Waldsee","municipality":{"key":"08436009","name":"Bad Waldsee, Stadt","type":"Große_Kreisstadt"},"district":{"key":"08436","name":"Ravensburg","type":"Landkreis"},"federalState":{"key":"08","name":"Baden-Württemberg"}},{"name":"Ghauweg","postalCode":"88339","locality":"Bad Waldsee","municipality":{"key":"08436009","name":"Bad Waldsee, Stadt","type":"Große_Kreisstadt"},"district":{"key":"08436","name":"Ravensburg","type":"Landkreis"},"federalState":{"key":"08","name":"Baden-Württemberg"}},{"name":"Ginsterweg","postalCode":"88339","locality":"Bad Waldsee","municipality":{"key":"08436009","name":"Bad Waldsee, Stadt","type":"Große_Kreisstadt"},"district":{"key":"08436","name":"Ravensburg","type":"Landkreis"},"federalState":{"key":"08","name":"Baden-Württemberg"}},{"name":"Goethestr.","postalCode":"88339","locality":"Bad Waldsee","municipality":{"key":"08436009","name":"Bad Waldsee, Stadt","type":"Große_Kreisstadt"},"district":{"key":"08436","name":"Ravensburg","type":"Landkreis"},"federalState":{"key":"08","name":"Baden-Württemberg"}},{"name":"Goldammerweg","postalCode":"88339","locality":"Bad Waldsee","municipality":{"key":"08436009","name":"Bad Waldsee, Stadt","type":"Große_Kreisstadt"},"district":{"key":"08436","name":"Ravensburg","type":"Landkreis"},"federalState":{"key":"08","name":"Baden-Württemberg"}},{"name":"Gottfried-Angerer-Str.","postalCode":"88339","locality":"Bad Waldsee","municipality":{"key":"08436009","name":"Bad Waldsee, Stadt","type":"Große_Kreisstadt"},"district":{"key":"08436","name":"Ravensburg","type":"Landkreis"},"federalState":{"key":"08","name":"Baden-Württemberg"}},{"name":"Grindelweg","postalCode":"88339","locality":"Bad Waldsee","municipality":{"key":"08436009","name":"Bad Waldsee, Stadt","type":"Große_Kreisstadt"},"district":{"key":"08436","name":"Ravensburg","type":"Landkreis"},"federalState":{"key":"08","name":"Baden-Württemberg"}},{"name":"Grüner Weg","postalCode":"88339","locality":"Bad Waldsee","municipality":{"key":"08436009","name":"Bad Waldsee, Stadt","type":"Große_Kreisstadt"},"district":{"key":"08436","name":"Ravensburg","type":"Landkreis"},"federalState":{"key":"08","name":"Baden-Württemberg"}},{"name":"Gustav-Mahler-Str.","postalCode":"88339","locality":"Bad Waldsee","municipality":{"key":"08436009","name":"Bad Waldsee, Stadt","type":"Große_Kreisstadt"},"district":{"key":"08436","name":"Ravensburg","type":"Landkreis"},"federalState":{"key":"08","name":"Baden-Württemberg"}},{"name":"Gut-Betha-Platz","postalCode":"88339","locality":"Bad Waldsee","municipality":{"key":"08436009","name":"Bad Waldsee, Stadt","type":"Große_Kreisstadt"},"district":{"key":"08436","name":"Ravensburg","type":"Landkreis"},"federalState":{"key":"08","name":"Baden-Württemberg"}},{"name":"Habsburger Str.","postalCode":"88339","locality":"Bad Waldsee","municipality":{"key":"08436009","name":"Bad Waldsee, Stadt","type":"Große_Kreisstadt"},"district":{"key":"08436","name":"Ravensburg","type":"Landkreis"},"federalState":{"key":"08","name":"Baden-Württemberg"}},{"name":"Haidgauer Str.","postalCode":"88339","locality":"Bad Waldsee","municipality":{"key":"08436009","name":"Bad Waldsee, Stadt","type":"Große_Kreisstadt"},"district":{"key":"08436","name":"Ravensburg","type":"Landkreis"},"federalState":{"key":"08","name":"Baden-Württemberg"}},{"name":"Haisterkircher Gasse","postalCode":"88339","locality":"Bad Waldsee","municipality":{"key":"08436009","name":"Bad Waldsee, Stadt","type":"Große_Kreisstadt"},"district":{"key":"08436","name":"Ravensburg","type":"Landkreis"},"federalState":{"key":"08","name":"Baden-Württemberg"}},{"name":"Händelstr.","postalCode":"88339","locality":"Bad Waldsee","municipality":{"key":"08436009","name":"Bad Waldsee, Stadt","type":"Große_Kreisstadt"},"district":{"key":"08436","name":"Ravensburg","type":"Landkreis"},"federalState":{"key":"08","name":"Baden-Württemberg"}},{"name":"Haselstockweg","postalCode":"88339","locality":"Bad Waldsee","municipality":{"key":"08436009","name":"Bad Waldsee, Stadt","type":"Große_Kreisstadt"},"district":{"key":"08436","name":"Ravensburg","type":"Landkreis"},"federalState":{"key":"08","name":"Baden-Württemberg"}},{"name":"Haslachstr.","postalCode":"88339","locality":"Bad Waldsee","municipality":{"key":"08436009","name":"Bad Waldsee, Stadt","type":"Große_Kreisstadt"},"district":{"key":"08436","name":"Ravensburg","type":"Landkreis"},"federalState":{"key":"08","name":"Baden-Württemberg"}},{"name":"Haslanden","postalCode":"88339","locality":"Bad Waldsee","municipality":{"key":"08436009","name":"Bad Waldsee, Stadt","type":"Große_Kreisstadt"},"district":{"key":"08436","name":"Ravensburg","type":"Landkreis"},"federalState":{"key":"08","name":"Baden-Württemberg"}},{"name":"Hauptstr.","postalCode":"88339","locality":"Bad Waldsee","municipality":{"key":"08436009","name":"Bad Waldsee, Stadt","type":"Große_Kreisstadt"},"district":{"key":"08436","name":"Ravensburg","type":"Landkreis"},"federalState":{"key":"08","name":"Baden-Württemberg"}},{"name":"Haydnweg","postalCode":"88339","locality":"Bad Waldsee","municipality":{"key":"08436009","name":"Bad Waldsee, Stadt","type":"Große_Kreisstadt"},"district":{"key":"08436","name":"Ravensburg","type":"Landkreis"},"federalState":{"key":"08","name":"Baden-Württemberg"}},{"name":"Heckengasse","postalCode":"88339","locality":"Bad Waldsee","municipality":{"key":"08436009","name":"Bad Waldsee, Stadt","type":"Große_Kreisstadt"},"district":{"key":"08436","name":"Ravensburg","type":"Landkreis"},"federalState":{"key":"08","name":"Baden-Württemberg"}},{"name":"Heinrich-Schütz-Str.","postalCode":"88339","locality":"Bad Waldsee","municipality":{"key":"08436009","name":"Bad Waldsee, Stadt","type":"Große_Kreisstadt"},"district":{"key":"08436","name":"Ravensburg","type":"Landkreis"},"federalState":{"key":"08","name":"Baden-Württemberg"}},{"name":"Herrgottsgasse","postalCode":"88339","locality":"Bad Waldsee","municipality":{"key":"08436009","name":"Bad Waldsee, Stadt","type":"Große_Kreisstadt"},"district":{"key":"08436","name":"Ravensburg","type":"Landkreis"},"federalState":{"key":"08","name":"Baden-Württemberg"}},{"name":"Heurenbacher Weg","postalCode":"88339","locality":"Bad Waldsee","municipality":{"key":"08436009","name":"Bad Waldsee, Stadt","type":"Große_Kreisstadt"},"district":{"key":"08436","name":"Ravensburg","type":"Landkreis"},"federalState":{"key":"08","name":"Baden-Württemberg"}},{"name":"Hirschhof","postalCode":"88339","locality":"Bad Waldsee","municipality":{"key":"08436009","name":"Bad Waldsee, Stadt","type":"Große_Kreisstadt"},"district":{"key":"08436","name":"Ravensburg","type":"Landkreis"},"federalState":{"key":"08","name":"Baden-Württemberg"}},{"name":"Hittelkofer Str.","postalCode":"88339","locality":"Bad Waldsee","municipality":{"key":"08436009","name":"Bad Waldsee, Stadt","type":"Große_Kreisstadt"},"district":{"key":"08436","name":"Ravensburg","type":"Landkreis"},"federalState":{"key":"08","name":"Baden-Württemberg"}},{"name":"Hittisweilerstr.","postalCode":"88339","locality":"Bad Waldsee","municipality":{"key":"08436009","name":"Bad Waldsee, Stadt","type":"Große_Kreisstadt"},"district":{"key":"08436","name":"Ravensburg","type":"Landkreis"},"federalState":{"key":"08","name":"Baden-Württemberg"}},{"name":"Hochwaldgasse","postalCode":"88339","locality":"Bad Waldsee","municipality":{"key":"08436009","name":"Bad Waldsee, Stadt","type":"Große_Kreisstadt"},"district":{"key":"08436","name":"Ravensburg","type":"Landkreis"},"federalState":{"key":"08","name":"Baden-Württemberg"}},{"name":"Hofraingasse","postalCode":"88339","locality":"Bad Waldsee","municipality":{"key":"08436009","name":"Bad Waldsee, Stadt","type":"Große_Kreisstadt"},"district":{"key":"08436","name":"Ravensburg","type":"Landkreis"},"federalState":{"key":"08","name":"Baden-Württemberg"}},{"name":"Höhenweg","postalCode":"88339","locality":"Bad Waldsee","municipality":{"key":"08436009","name":"Bad Waldsee, Stadt","type":"Große_Kreisstadt"},"district":{"key":"08436","name":"Ravensburg","type":"Landkreis"},"federalState":{"key":"08","name":"Baden-Württemberg"}},{"name":"Hohlgasse","postalCode":"88339","locality":"Bad Waldsee","municipality":{"key":"08436009","name":"Bad Waldsee, Stadt","type":"Große_Kreisstadt"},"district":{"key":"08436","name":"Ravensburg","type":"Landkreis"},"federalState":{"key":"08","name":"Baden-Württemberg"}},{"name":"Hölderlinweg","postalCode":"88339","locality":"Bad Waldsee","municipality":{"key":"08436009","name":"Bad Waldsee, Stadt","type":"Große_Kreisstadt"},"district":{"key":"08436","name":"Ravensburg","type":"Landkreis"},"federalState":{"key":"08","name":"Baden-Württemberg"}},{"name":"Holderweg","postalCode":"88339","locality":"Bad Waldsee","municipality":{"key":"08436009","name":"Bad Waldsee, Stadt","type":"Große_Kreisstadt"},"district":{"key":"08436","name":"Ravensburg","type":"Landkreis"},"federalState":{"key":"08","name":"Baden-Württemberg"}},{"name":"Holunderpfad","postalCode":"88339","locality":"Bad Waldsee","municipality":{"key":"08436009","name":"Bad Waldsee, Stadt","type":"Große_Kreisstadt"},"district":{"key":"08436","name":"Ravensburg","type":"Landkreis"},"federalState":{"key":"08","name":"Baden-Württemberg"}},{"name":"Hopfengasse","postalCode":"88339","locality":"Bad Waldsee","municipality":{"key":"08436009","name":"Bad Waldsee, Stadt","type":"Große_Kreisstadt"},"district":{"key":"08436","name":"Ravensburg","type":"Landkreis"},"federalState":{"key":"08","name":"Baden-Württemberg"}},{"name":"Hopfenweilerweg","postalCode":"88339","locality":"Bad Waldsee","municipality":{"key":"08436009","name":"Bad Waldsee, Stadt","type":"Große_Kreisstadt"},"district":{"key":"08436","name":"Ravensburg","type":"Landkreis"},"federalState":{"key":"08","name":"Baden-Württemberg"}},{"name":"Hubertusstr.","postalCode":"88339","locality":"Bad Waldsee","municipality":{"key":"08436009","name":"Bad Waldsee, Stadt","type":"Große_Kreisstadt"},"district":{"key":"08436","name":"Ravensburg","type":"Landkreis"},"federalState":{"key":"08","name":"Baden-Württemberg"}},{"name":"Hungerbergstr.","postalCode":"88339","locality":"Bad Waldsee","municipality":{"key":"08436009","name":"Bad Waldsee, Stadt","type":"Große_Kreisstadt"},"district":{"key":"08436","name":"Ravensburg","type":"Landkreis"},"federalState":{"key":"08","name":"Baden-Württemberg"}},{"name":"Hürstäckerweg","postalCode":"88339","locality":"Bad Waldsee","municipality":{"key":"08436009","name":"Bad Waldsee, Stadt","type":"Große_Kreisstadt"},"district":{"key":"08436","name":"Ravensburg","type":"Landkreis"},"federalState":{"key":"08","name":"Baden-Württemberg"}},{"name":"Immenweg","postalCode":"88339","locality":"Bad Waldsee","municipality":{"key":"08436009","name":"Bad Waldsee, Stadt","type":"Große_Kreisstadt"},"district":{"key":"08436","name":"Ravensburg","type":"Landkreis"},"federalState":{"key":"08","name":"Baden-Württemberg"}},{"name":"Irisweg","postalCode":"88339","locality":"Bad Waldsee","municipality":{"key":"08436009","name":"Bad Waldsee, Stadt","type":"Große_Kreisstadt"},"district":{"key":"08436","name":"Ravensburg","type":"Landkreis"},"federalState":{"key":"08","name":"Baden-Württemberg"}},{"name":"Isa-Boxler-Str.","postalCode":"88339","locality":"Bad Waldsee","municipality":{"key":"08436009","name":"Bad Waldsee, Stadt","type":"Große_Kreisstadt"},"district":{"key":"08436","name":"Ravensburg","type":"Landkreis"},"federalState":{"key":"08","name":"Baden-Württemberg"}},{"name":"Jahnstr.","postalCode":"88339","locality":"Bad Waldsee","municipality":{"key":"08436009","name":"Bad Waldsee, Stadt","type":"Große_Kreisstadt"},"district":{"key":"08436","name":"Ravensburg","type":"Landkreis"},"federalState":{"key":"08","name":"Baden-Württemberg"}},{"name":"Johannes-Brahms-Str.","postalCode":"88339","locality":"Bad Waldsee","municipality":{"key":"08436009","name":"Bad Waldsee, Stadt","type":"Große_Kreisstadt"},"district":{"key":"08436","name":"Ravensburg","type":"Landkreis"},"federalState":{"key":"08","name":"Baden-Württemberg"}},{"name":"Johann-Sailer-Str.","postalCode":"88339","locality":"Bad Waldsee","municipality":{"key":"08436009","name":"Bad Waldsee, Stadt","type":"Große_Kreisstadt"},"district":{"key":"08436","name":"Ravensburg","type":"Landkreis"},"federalState":{"key":"08","name":"Baden-Württemberg"}},{"name":"Johann-Sebastian-Bach-Str.","postalCode":"88339","locality":"Bad Waldsee","municipality":{"key":"08436009","name":"Bad Waldsee, Stadt","type":"Große_Kreisstadt"},"district":{"key":"08436","name":"Ravensburg","type":"Landkreis"},"federalState":{"key":"08","name":"Baden-Württemberg"}},{"name":"Jörg-Zürn-Str.","postalCode":"88339","locality":"Bad Waldsee","municipality":{"key":"08436009","name":"Bad Waldsee, Stadt","type":"Große_Kreisstadt"},"district":{"key":"08436","name":"Ravensburg","type":"Landkreis"},"federalState":{"key":"08","name":"Baden-Württemberg"}},{"name":"Josef-Krug-Str.","postalCode":"88339","locality":"Bad Waldsee","municipality":{"key":"08436009","name":"Bad Waldsee, Stadt","type":"Große_Kreisstadt"},"district":{"key":"08436","name":"Ravensburg","type":"Landkreis"},"federalState":{"key":"08","name":"Baden-Württemberg"}},{"name":"Josefsbrunnen","postalCode":"88339","locality":"Bad Waldsee","municipality":{"key":"08436009","name":"Bad Waldsee, Stadt","type":"Große_Kreisstadt"},"district":{"key":"08436","name":"Ravensburg","type":"Landkreis"},"federalState":{"key":"08","name":"Baden-Württemberg"}},{"name":"Kammermoosstr.","postalCode":"88339","locality":"Bad Waldsee","municipality":{"key":"08436009","name":"Bad Waldsee, Stadt","type":"Große_Kreisstadt"},"district":{"key":"08436","name":"Ravensburg","type":"Landkreis"},"federalState":{"key":"08","name":"Baden-Württemberg"}},{"name":"Kapellenweg","postalCode":"88339","locality":"Bad Waldsee","municipality":{"key":"08436009","name":"Bad Waldsee, Stadt","type":"Große_Kreisstadt"},"district":{"key":"08436","name":"Ravensburg","type":"Landkreis"},"federalState":{"key":"08","name":"Baden-Württemberg"}},{"name":"Kardinal-von-Rodt-Str.","postalCode":"88339","locality":"Bad Waldsee","municipality":{"key":"08436009","name":"Bad Waldsee, Stadt","type":"Große_Kreisstadt"},"district":{"key":"08436","name":"Ravensburg","type":"Landkreis"},"federalState":{"key":"08","name":"Baden-Württemberg"}},{"name":"Kastanienweg","postalCode":"88339","locality":"Bad Waldsee","municipality":{"key":"08436009","name":"Bad Waldsee, Stadt","type":"Große_Kreisstadt"},"district":{"key":"08436","name":"Ravensburg","type":"Landkreis"},"federalState":{"key":"08","name":"Baden-Württemberg"}},{"name":"Keltenweg","postalCode":"88339","locality":"Bad Waldsee","municipality":{"key":"08436009","name":"Bad Waldsee, Stadt","type":"Große_Kreisstadt"},"district":{"key":"08436","name":"Ravensburg","type":"Landkreis"},"federalState":{"key":"08","name":"Baden-Württemberg"}},{"name":"Kirchweg","postalCode":"88339","locality":"Bad Waldsee","municipality":{"key":"08436009","name":"Bad Waldsee, Stadt","type":"Große_Kreisstadt"},"district":{"key":"08436","name":"Ravensburg","type":"Landkreis"},"federalState":{"key":"08","name":"Baden-Württemberg"}},{"name":"Kirrlohstr.","postalCode":"88339","locality":"Bad Waldsee","municipality":{"key":"08436009","name":"Bad Waldsee, Stadt","type":"Große_Kreisstadt"},"district":{"key":"08436","name":"Ravensburg","type":"Landkreis"},"federalState":{"key":"08","name":"Baden-Württemberg"}},{"name":"Kleineschleweg","postalCode":"88339","locality":"Bad Waldsee","municipality":{"key":"08436009","name":"Bad Waldsee, Stadt","type":"Große_Kreisstadt"},"district":{"key":"08436","name":"Ravensburg","type":"Landkreis"},"federalState":{"key":"08","name":"Baden-Württemberg"}},{"name":"Klostergasse","postalCode":"88339","locality":"Bad Waldsee","municipality":{"key":"08436009","name":"Bad Waldsee, Stadt","type":"Große_Kreisstadt"},"district":{"key":"08436","name":"Ravensburg","type":"Landkreis"},"federalState":{"key":"08","name":"Baden-Württemberg"}},{"name":"Klosterhof","postalCode":"88339","locality":"Bad Waldsee","municipality":{"key":"08436009","name":"Bad Waldsee, Stadt","type":"Große_Kreisstadt"},"district":{"key":"08436","name":"Ravensburg","type":"Landkreis"},"federalState":{"key":"08","name":"Baden-Württemberg"}},{"name":"Köhlerweg","postalCode":"88339","locality":"Bad Waldsee","municipality":{"key":"08436009","name":"Bad Waldsee, Stadt","type":"Große_Kreisstadt"},"district":{"key":"08436","name":"Ravensburg","type":"Landkreis"},"federalState":{"key":"08","name":"Baden-Württemberg"}},{"name":"Kohlgasse","postalCode":"88339","locality":"Bad Waldsee","municipality":{"key":"08436009","name":"Bad Waldsee, Stadt","type":"Große_Kreisstadt"},"district":{"key":"08436","name":"Ravensburg","type":"Landkreis"},"federalState":{"key":"08","name":"Baden-Württemberg"}},{"name":"Kolpingstr.","postalCode":"88339","locality":"Bad Waldsee","municipality":{"key":"08436009","name":"Bad Waldsee, Stadt","type":"Große_Kreisstadt"},"district":{"key":"08436","name":"Ravensburg","type":"Landkreis"},"federalState":{"key":"08","name":"Baden-Württemberg"}},{"name":"Konstantin-Dausch-Str.","postalCode":"88339","locality":"Bad Waldsee","municipality":{"key":"08436009","name":"Bad Waldsee, Stadt","type":"Große_Kreisstadt"},"district":{"key":"08436","name":"Ravensburg","type":"Landkreis"},"federalState":{"key":"08","name":"Baden-Württemberg"}},{"name":"Kornblumenweg","postalCode":"88339","locality":"Bad Waldsee","municipality":{"key":"08436009","name":"Bad Waldsee, Stadt","type":"Große_Kreisstadt"},"district":{"key":"08436","name":"Ravensburg","type":"Landkreis"},"federalState":{"key":"08","name":"Baden-Württemberg"}},{"name":"Körnerweg","postalCode":"88339","locality":"Bad Waldsee","municipality":{"key":"08436009","name":"Bad Waldsee, Stadt","type":"Große_Kreisstadt"},"district":{"key":"08436","name":"Ravensburg","type":"Landkreis"},"federalState":{"key":"08","name":"Baden-Württemberg"}},{"name":"Kornweg","postalCode":"88339","locality":"Bad Waldsee","municipality":{"key":"08436009","name":"Bad Waldsee, Stadt","type":"Große_Kreisstadt"},"district":{"key":"08436","name":"Ravensburg","type":"Landkreis"},"federalState":{"key":"08","name":"Baden-Württemberg"}},{"name":"Kremserweg","postalCode":"88339","locality":"Bad Waldsee","municipality":{"key":"08436009","name":"Bad Waldsee, Stadt","type":"Große_Kreisstadt"},"district":{"key":"08436","name":"Ravensburg","type":"Landkreis"},"federalState":{"key":"08","name":"Baden-Württemberg"}},{"name":"Kümmerazhofer Str.","postalCode":"88339","locality":"Bad Waldsee","municipality":{"key":"08436009","name":"Bad Waldsee, Stadt","type":"Große_Kreisstadt"},"district":{"key":"08436","name":"Ravensburg","type":"Landkreis"},"federalState":{"key":"08","name":"Baden-Württemberg"}},{"name":"Kurpark","postalCode":"88339","locality":"Bad Waldsee","municipality":{"key":"08436009","name":"Bad Waldsee, Stadt","type":"Große_Kreisstadt"},"district":{"key":"08436","name":"Ravensburg","type":"Landkreis"},"federalState":{"key":"08","name":"Baden-Württemberg"}},{"name":"Kurt-Weill-Str.","postalCode":"88339","locality":"Bad Waldsee","municipality":{"key":"08436009","name":"Bad Waldsee, Stadt","type":"Große_Kreisstadt"},"district":{"key":"08436","name":"Ravensburg","type":"Landkreis"},"federalState":{"key":"08","name":"Baden-Württemberg"}},{"name":"Kurze Str.","postalCode":"88339","locality":"Bad Waldsee","municipality":{"key":"08436009","name":"Bad Waldsee, Stadt","type":"Große_Kreisstadt"},"district":{"key":"08436","name":"Ravensburg","type":"Landkreis"},"federalState":{"key":"08","name":"Baden-Württemberg"}},{"name":"Landstr.","postalCode":"88339","locality":"Bad Waldsee","municipality":{"key":"08436009","name":"Bad Waldsee, Stadt","type":"Große_Kreisstadt"},"district":{"key":"08436","name":"Ravensburg","type":"Landkreis"},"federalState":{"key":"08","name":"Baden-Württemberg"}},{"name":"Lehmgrubenweg","postalCode":"88339","locality":"Bad Waldsee","municipality":{"key":"08436009","name":"Bad Waldsee, Stadt","type":"Große_Kreisstadt"},"district":{"key":"08436","name":"Ravensburg","type":"Landkreis"},"federalState":{"key":"08","name":"Baden-Württemberg"}},{"name":"Lerchenweg","postalCode":"88339","locality":"Bad Waldsee","municipality":{"key":"08436009","name":"Bad Waldsee, Stadt","type":"Große_Kreisstadt"},"district":{"key":"08436","name":"Ravensburg","type":"Landkreis"},"federalState":{"key":"08","name":"Baden-Württemberg"}},{"name":"Lettenweg","postalCode":"88339","locality":"Bad Waldsee","municipality":{"key":"08436009","name":"Bad Waldsee, Stadt","type":"Große_Kreisstadt"},"district":{"key":"08436","name":"Ravensburg","type":"Landkreis"},"federalState":{"key":"08","name":"Baden-Württemberg"}},{"name":"Ligusterweg","postalCode":"88339","locality":"Bad Waldsee","municipality":{"key":"08436009","name":"Bad Waldsee, Stadt","type":"Große_Kreisstadt"},"district":{"key":"08436","name":"Ravensburg","type":"Landkreis"},"federalState":{"key":"08","name":"Baden-Württemberg"}},{"name":"Lilienweg","postalCode":"88339","locality":"Bad Waldsee","municipality":{"key":"08436009","name":"Bad Waldsee, Stadt","type":"Große_Kreisstadt"},"district":{"key":"08436","name":"Ravensburg","type":"Landkreis"},"federalState":{"key":"08","name":"Baden-Württemberg"}},{"name":"Lindenweg","postalCode":"88339","locality":"Bad Waldsee","municipality":{"key":"08436009","name":"Bad Waldsee, Stadt","type":"Große_Kreisstadt"},"district":{"key":"08436","name":"Ravensburg","type":"Landkreis"},"federalState":{"key":"08","name":"Baden-Württemberg"}},{"name":"Löhleweg","postalCode":"88339","locality":"Bad Waldsee","municipality":{"key":"08436009","name":"Bad Waldsee, Stadt","type":"Große_Kreisstadt"},"district":{"key":"08436","name":"Ravensburg","type":"Landkreis"},"federalState":{"key":"08","name":"Baden-Württemberg"}},{"name":"Lortzingstr.","postalCode":"88339","locality":"Bad Waldsee","municipality":{"key":"08436009","name":"Bad Waldsee, Stadt","type":"Große_Kreisstadt"},"district":{"key":"08436","name":"Ravensburg","type":"Landkreis"},"federalState":{"key":"08","name":"Baden-Württemberg"}},{"name":"Mahlgasse","postalCode":"88339","locality":"Bad Waldsee","municipality":{"key":"08436009","name":"Bad Waldsee, Stadt","type":"Große_Kreisstadt"},"district":{"key":"08436","name":"Ravensburg","type":"Landkreis"},"federalState":{"key":"08","name":"Baden-Württemberg"}},{"name":"Malterstr.","postalCode":"88339","locality":"Bad Waldsee","municipality":{"key":"08436009","name":"Bad Waldsee, Stadt","type":"Große_Kreisstadt"},"district":{"key":"08436","name":"Ravensburg","type":"Landkreis"},"federalState":{"key":"08","name":"Baden-Württemberg"}},{"name":"Mälzergasse","postalCode":"88339","locality":"Bad Waldsee","municipality":{"key":"08436009","name":"Bad Waldsee, Stadt","type":"Große_Kreisstadt"},"district":{"key":"08436","name":"Ravensburg","type":"Landkreis"},"federalState":{"key":"08","name":"Baden-Württemberg"}},{"name":"Marderweg","postalCode":"88339","locality":"Bad Waldsee","municipality":{"key":"08436009","name":"Bad Waldsee, Stadt","type":"Große_Kreisstadt"},"district":{"key":"08436","name":"Ravensburg","type":"Landkreis"},"federalState":{"key":"08","name":"Baden-Württemberg"}},{"name":"Maria-Menz-Str.","postalCode":"88339","locality":"Bad Waldsee","municipality":{"key":"08436009","name":"Bad Waldsee, Stadt","type":"Große_Kreisstadt"},"district":{"key":"08436","name":"Ravensburg","type":"Landkreis"},"federalState":{"key":"08","name":"Baden-Württemberg"}},{"name":"Maria-Müller-Gögler-Str.","postalCode":"88339","locality":"Bad Waldsee","municipality":{"key":"08436009","name":"Bad Waldsee, Stadt","type":"Große_Kreisstadt"},"district":{"key":"08436","name":"Ravensburg","type":"Landkreis"},"federalState":{"key":"08","name":"Baden-Württemberg"}},{"name":"Max-Reger-Str.","postalCode":"88339","locality":"Bad Waldsee","municipality":{"key":"08436009","name":"Bad Waldsee, Stadt","type":"Große_Kreisstadt"},"district":{"key":"08436","name":"Ravensburg","type":"Landkreis"},"federalState":{"key":"08","name":"Baden-Württemberg"}},{"name":"Meisenweg","postalCode":"88339","locality":"Bad Waldsee","municipality":{"key":"08436009","name":"Bad Waldsee, Stadt","type":"Große_Kreisstadt"},"district":{"key":"08436","name":"Ravensburg","type":"Landkreis"},"federalState":{"key":"08","name":"Baden-Württemberg"}},{"name":"Meisterberg","postalCode":"88339","locality":"Bad Waldsee","municipality":{"key":"08436009","name":"Bad Waldsee, Stadt","type":"Große_Kreisstadt"},"district":{"key":"08436","name":"Ravensburg","type":"Landkreis"},"federalState":{"key":"08","name":"Baden-Württemberg"}},{"name":"Mohnweg","postalCode":"88339","locality":"Bad Waldsee","municipality":{"key":"08436009","name":"Bad Waldsee, Stadt","type":"Große_Kreisstadt"},"district":{"key":"08436","name":"Ravensburg","type":"Landkreis"},"federalState":{"key":"08","name":"Baden-Württemberg"}},{"name":"Molitorstr.","postalCode":"88339","locality":"Bad Waldsee","municipality":{"key":"08436009","name":"Bad Waldsee, Stadt","type":"Große_Kreisstadt"},"district":{"key":"08436","name":"Ravensburg","type":"Landkreis"},"federalState":{"key":"08","name":"Baden-Württemberg"}},{"name":"Moorbirkenweg","postalCode":"88339","locality":"Bad Waldsee","municipality":{"key":"08436009","name":"Bad Waldsee, Stadt","type":"Große_Kreisstadt"},"district":{"key":"08436","name":"Ravensburg","type":"Landkreis"},"federalState":{"key":"08","name":"Baden-Württemberg"}},{"name":"Moorrainweg","postalCode":"88339","locality":"Bad Waldsee","municipality":{"key":"08436009","name":"Bad Waldsee, Stadt","type":"Große_Kreisstadt"},"district":{"key":"08436","name":"Ravensburg","type":"Landkreis"},"federalState":{"key":"08","name":"Baden-Württemberg"}},{"name":"Moortümpelweg","postalCode":"88339","locality":"Bad Waldsee","municipality":{"key":"08436009","name":"Bad Waldsee, Stadt","type":"Große_Kreisstadt"},"district":{"key":"08436","name":"Ravensburg","type":"Landkreis"},"federalState":{"key":"08","name":"Baden-Württemberg"}},{"name":"Mörikeweg","postalCode":"88339","locality":"Bad Waldsee","municipality":{"key":"08436009","name":"Bad Waldsee, Stadt","type":"Große_Kreisstadt"},"district":{"key":"08436","name":"Ravensburg","type":"Landkreis"},"federalState":{"key":"08","name":"Baden-Württemberg"}},{"name":"Möserweg","postalCode":"88339","locality":"Bad Waldsee","municipality":{"key":"08436009","name":"Bad Waldsee, Stadt","type":"Große_Kreisstadt"},"district":{"key":"08436","name":"Ravensburg","type":"Landkreis"},"federalState":{"key":"08","name":"Baden-Württemberg"}},{"name":"Mostgasse","postalCode":"88339","locality":"Bad Waldsee","municipality":{"key":"08436009","name":"Bad Waldsee, Stadt","type":"Große_Kreisstadt"},"district":{"key":"08436","name":"Ravensburg","type":"Landkreis"},"federalState":{"key":"08","name":"Baden-Württemberg"}},{"name":"Mozartstr.","postalCode":"88339","locality":"Bad Waldsee","municipality":{"key":"08436009","name":"Bad Waldsee, Stadt","type":"Große_Kreisstadt"},"district":{"key":"08436","name":"Ravensburg","type":"Landkreis"},"federalState":{"key":"08","name":"Baden-Württemberg"}},{"name":"Mühlbachweg","postalCode":"88339","locality":"Bad Waldsee","municipality":{"key":"08436009","name":"Bad Waldsee, Stadt","type":"Große_Kreisstadt"},"district":{"key":"08436","name":"Ravensburg","type":"Landkreis"},"federalState":{"key":"08","name":"Baden-Württemberg"}},{"name":"Mühlbergring","postalCode":"88339","locality":"Bad Waldsee","municipality":{"key":"08436009","name":"Bad Waldsee, Stadt","type":"Große_Kreisstadt"},"district":{"key":"08436","name":"Ravensburg","type":"Landkreis"},"federalState":{"key":"08","name":"Baden-Württemberg"}},{"name":"Mühlhauser Str.","postalCode":"88339","locality":"Bad Waldsee","municipality":{"key":"08436009","name":"Bad Waldsee, Stadt","type":"Große_Kreisstadt"},"district":{"key":"08436","name":"Ravensburg","type":"Landkreis"},"federalState":{"key":"08","name":"Baden-Württemberg"}},{"name":"Mühlweg","postalCode":"88339","locality":"Bad Waldsee","municipality":{"key":"08436009","name":"Bad Waldsee, Stadt","type":"Große_Kreisstadt"},"district":{"key":"08436","name":"Ravensburg","type":"Landkreis"},"federalState":{"key":"08","name":"Baden-Württemberg"}},{"name":"Mühlwiesenstr.","postalCode":"88339","locality":"Bad Waldsee","municipality":{"key":"08436009","name":"Bad Waldsee, Stadt","type":"Große_Kreisstadt"},"district":{"key":"08436","name":"Ravensburg","type":"Landkreis"},"federalState":{"key":"08","name":"Baden-Württemberg"}},{"name":"Müllerbühlstr.","postalCode":"88339","locality":"Bad Waldsee","municipality":{"key":"08436009","name":"Bad Waldsee, Stadt","type":"Große_Kreisstadt"},"district":{"key":"08436","name":"Ravensburg","type":"Landkreis"},"federalState":{"key":"08","name":"Baden-Württemberg"}},{"name":"Muschgaystr.","postalCode":"88339","locality":"Bad Waldsee","municipality":{"key":"08436009","name":"Bad Waldsee, Stadt","type":"Große_Kreisstadt"},"district":{"key":"08436","name":"Ravensburg","type":"Landkreis"},"federalState":{"key":"08","name":"Baden-Württemberg"}},{"name":"Nelkenweg","postalCode":"88339","locality":"Bad Waldsee","municipality":{"key":"08436009","name":"Bad Waldsee, Stadt","type":"Große_Kreisstadt"},"district":{"key":"08436","name":"Ravensburg","type":"Landkreis"},"federalState":{"key":"08","name":"Baden-Württemberg"}},{"name":"Neuer Schulweg","postalCode":"88339","locality":"Bad Waldsee","municipality":{"key":"08436009","name":"Bad Waldsee, Stadt","type":"Große_Kreisstadt"},"district":{"key":"08436","name":"Ravensburg","type":"Landkreis"},"federalState":{"key":"08","name":"Baden-Württemberg"}},{"name":"Niederersgasse","postalCode":"88339","locality":"Bad Waldsee","municipality":{"key":"08436009","name":"Bad Waldsee, Stadt","type":"Große_Kreisstadt"},"district":{"key":"08436","name":"Ravensburg","type":"Landkreis"},"federalState":{"key":"08","name":"Baden-Württemberg"}},{"name":"Oberamteigasse","postalCode":"88339","locality":"Bad Waldsee","municipality":{"key":"08436009","name":"Bad Waldsee, Stadt","type":"Große_Kreisstadt"},"district":{"key":"08436","name":"Ravensburg","type":"Landkreis"},"federalState":{"key":"08","name":"Baden-Württemberg"}},{"name":"Oberer Weg","postalCode":"88339","locality":"Bad Waldsee","municipality":{"key":"08436009","name":"Bad Waldsee, Stadt","type":"Große_Kreisstadt"},"district":{"key":"08436","name":"Ravensburg","type":"Landkreis"},"federalState":{"key":"08","name":"Baden-Württemberg"}},{"name":"Oberriedweg","postalCode":"88339","locality":"Bad Waldsee","municipality":{"key":"08436009","name":"Bad Waldsee, Stadt","type":"Große_Kreisstadt"},"district":{"key":"08436","name":"Ravensburg","type":"Landkreis"},"federalState":{"key":"08","name":"Baden-Württemberg"}},{"name":"Obstgarten","postalCode":"88339","locality":"Bad Waldsee","municipality":{"key":"08436009","name":"Bad Waldsee, Stadt","type":"Große_Kreisstadt"},"district":{"key":"08436","name":"Ravensburg","type":"Landkreis"},"federalState":{"key":"08","name":"Baden-Württemberg"}},{"name":"Orffstr.","postalCode":"88339","locality":"Bad Waldsee","municipality":{"key":"08436009","name":"Bad Waldsee, Stadt","type":"Große_Kreisstadt"},"district":{"key":"08436","name":"Ravensburg","type":"Landkreis"},"federalState":{"key":"08","name":"Baden-Württemberg"}},{"name":"Osterhofer Str.","postalCode":"88339","locality":"Bad Waldsee","municipality":{"key":"08436009","name":"Bad Waldsee, Stadt","type":"Große_Kreisstadt"},"district":{"key":"08436","name":"Ravensburg","type":"Landkreis"},"federalState":{"key":"08","name":"Baden-Württemberg"}},{"name":"Osterholzweg","postalCode":"88339","locality":"Bad Waldsee","municipality":{"key":"08436009","name":"Bad Waldsee, Stadt","type":"Große_Kreisstadt"},"district":{"key":"08436","name":"Ravensburg","type":"Landkreis"},"federalState":{"key":"08","name":"Baden-Württemberg"}},{"name":"Panoramaweg","postalCode":"88339","locality":"Bad Waldsee","municipality":{"key":"08436009","name":"Bad Waldsee, Stadt","type":"Große_Kreisstadt"},"district":{"key":"08436","name":"Ravensburg","type":"Landkreis"},"federalState":{"key":"08","name":"Baden-Württemberg"}},{"name":"Pappelweg","postalCode":"88339","locality":"Bad Waldsee","municipality":{"key":"08436009","name":"Bad Waldsee, Stadt","type":"Große_Kreisstadt"},"district":{"key":"08436","name":"Ravensburg","type":"Landkreis"},"federalState":{"key":"08","name":"Baden-Württemberg"}},{"name":"Park am Durlesbach","postalCode":"88339","locality":"Bad Waldsee","municipality":{"key":"08436009","name":"Bad Waldsee, Stadt","type":"Große_Kreisstadt"},"district":{"key":"08436","name":"Ravensburg","type":"Landkreis"},"federalState":{"key":"08","name":"Baden-Württemberg"}},{"name":"Paul-Lincke-Str.","postalCode":"88339","locality":"Bad Waldsee","municipality":{"key":"08436009","name":"Bad Waldsee, Stadt","type":"Große_Kreisstadt"},"district":{"key":"08436","name":"Ravensburg","type":"Landkreis"},"federalState":{"key":"08","name":"Baden-Württemberg"}},{"name":"Pestalozzistr.","postalCode":"88339","locality":"Bad Waldsee","municipality":{"key":"08436009","name":"Bad Waldsee, Stadt","type":"Große_Kreisstadt"},"district":{"key":"08436","name":"Ravensburg","type":"Landkreis"},"federalState":{"key":"08","name":"Baden-Württemberg"}},{"name":"Pfannenbühlstr.","postalCode":"88339","locality":"Bad Waldsee","municipality":{"key":"08436009","name":"Bad Waldsee, Stadt","type":"Große_Kreisstadt"},"district":{"key":"08436","name":"Ravensburg","type":"Landkreis"},"federalState":{"key":"08","name":"Baden-Württemberg"}},{"name":"Pfarrgasse","postalCode":"88339","locality":"Bad Waldsee","municipality":{"key":"08436009","name":"Bad Waldsee, Stadt","type":"Große_Kreisstadt"},"district":{"key":"08436","name":"Ravensburg","type":"Landkreis"},"federalState":{"key":"08","name":"Baden-Württemberg"}},{"name":"Postgasse","postalCode":"88339","locality":"Bad Waldsee","municipality":{"key":"08436009","name":"Bad Waldsee, Stadt","type":"Große_Kreisstadt"},"district":{"key":"08436","name":"Ravensburg","type":"Landkreis"},"federalState":{"key":"08","name":"Baden-Württemberg"}},{"name":"Primelweg","postalCode":"88339","locality":"Bad Waldsee","municipality":{"key":"08436009","name":"Bad Waldsee, Stadt","type":"Große_Kreisstadt"},"district":{"key":"08436","name":"Ravensburg","type":"Landkreis"},"federalState":{"key":"08","name":"Baden-Württemberg"}},{"name":"Propst-Kügelin-Str.","postalCode":"88339","locality":"Bad Waldsee","municipality":{"key":"08436009","name":"Bad Waldsee, Stadt","type":"Große_Kreisstadt"},"district":{"key":"08436","name":"Ravensburg","type":"Landkreis"},"federalState":{"key":"08","name":"Baden-Württemberg"}},{"name":"Rädlesbachweg","postalCode":"88339","locality":"Bad Waldsee","municipality":{"key":"08436009","name":"Bad Waldsee, Stadt","type":"Große_Kreisstadt"},"district":{"key":"08436","name":"Ravensburg","type":"Landkreis"},"federalState":{"key":"08","name":"Baden-Württemberg"}},{"name":"Ranzengasse","postalCode":"88339","locality":"Bad Waldsee","municipality":{"key":"08436009","name":"Bad Waldsee, Stadt","type":"Große_Kreisstadt"},"district":{"key":"08436","name":"Ravensburg","type":"Landkreis"},"federalState":{"key":"08","name":"Baden-Württemberg"}},{"name":"Rappbaint","postalCode":"88339","locality":"Bad Waldsee","municipality":{"key":"08436009","name":"Bad Waldsee, Stadt","type":"Große_Kreisstadt"},"district":{"key":"08436","name":"Ravensburg","type":"Landkreis"},"federalState":{"key":"08","name":"Baden-Württemberg"}},{"name":"Rathausstr.","postalCode":"88339","locality":"Bad Waldsee","municipality":{"key":"08436009","name":"Bad Waldsee, Stadt","type":"Große_Kreisstadt"},"district":{"key":"08436","name":"Ravensburg","type":"Landkreis"},"federalState":{"key":"08","name":"Baden-Württemberg"}},{"name":"Reutestr.","postalCode":"88339","locality":"Bad Waldsee","municipality":{"key":"08436009","name":"Bad Waldsee, Stadt","type":"Große_Kreisstadt"},"district":{"key":"08436","name":"Ravensburg","type":"Landkreis"},"federalState":{"key":"08","name":"Baden-Württemberg"}},{"name":"Richard-Strauß-Str.","postalCode":"88339","locality":"Bad Waldsee","municipality":{"key":"08436009","name":"Bad Waldsee, Stadt","type":"Große_Kreisstadt"},"district":{"key":"08436","name":"Ravensburg","type":"Landkreis"},"federalState":{"key":"08","name":"Baden-Württemberg"}},{"name":"Richard-Wagner-Str.","postalCode":"88339","locality":"Bad Waldsee","municipality":{"key":"08436009","name":"Bad Waldsee, Stadt","type":"Große_Kreisstadt"},"district":{"key":"08436","name":"Ravensburg","type":"Landkreis"},"federalState":{"key":"08","name":"Baden-Württemberg"}},{"name":"Richthofenstr.","postalCode":"88339","locality":"Bad Waldsee","municipality":{"key":"08436009","name":"Bad Waldsee, Stadt","type":"Große_Kreisstadt"},"district":{"key":"08436","name":"Ravensburg","type":"Landkreis"},"federalState":{"key":"08","name":"Baden-Württemberg"}},{"name":"Riedblick","postalCode":"88339","locality":"Bad Waldsee","municipality":{"key":"08436009","name":"Bad Waldsee, Stadt","type":"Große_Kreisstadt"},"district":{"key":"08436","name":"Ravensburg","type":"Landkreis"},"federalState":{"key":"08","name":"Baden-Württemberg"}},{"name":"Riedgasse","postalCode":"88339","locality":"Bad Waldsee","municipality":{"key":"08436009","name":"Bad Waldsee, Stadt","type":"Große_Kreisstadt"},"district":{"key":"08436","name":"Ravensburg","type":"Landkreis"},"federalState":{"key":"08","name":"Baden-Württemberg"}},{"name":"Riedwiesenweg","postalCode":"88339","locality":"Bad Waldsee","municipality":{"key":"08436009","name":"Bad Waldsee, Stadt","type":"Große_Kreisstadt"},"district":{"key":"08436","name":"Ravensburg","type":"Landkreis"},"federalState":{"key":"08","name":"Baden-Württemberg"}},{"name":"Rispenweg","postalCode":"88339","locality":"Bad Waldsee","municipality":{"key":"08436009","name":"Bad Waldsee, Stadt","type":"Große_Kreisstadt"},"district":{"key":"08436","name":"Ravensburg","type":"Landkreis"},"federalState":{"key":"08","name":"Baden-Württemberg"}},{"name":"Rissweg","postalCode":"88339","locality":"Bad Waldsee","municipality":{"key":"08436009","name":"Bad Waldsee, Stadt","type":"Große_Kreisstadt"},"district":{"key":"08436","name":"Ravensburg","type":"Landkreis"},"federalState":{"key":"08","name":"Baden-Württemberg"}},{"name":"Robert-Bosch-Str.","postalCode":"88339","locality":"Bad Waldsee","municipality":{"key":"08436009","name":"Bad Waldsee, Stadt","type":"Große_Kreisstadt"},"district":{"key":"08436","name":"Ravensburg","type":"Landkreis"},"federalState":{"key":"08","name":"Baden-Württemberg"}},{"name":"Robert-Koch-Str.","postalCode":"88339","locality":"Bad Waldsee","municipality":{"key":"08436009","name":"Bad Waldsee, Stadt","type":"Große_Kreisstadt"},"district":{"key":"08436","name":"Ravensburg","type":"Landkreis"},"federalState":{"key":"08","name":"Baden-Württemberg"}},{"name":"Robert-Schumann-Str.","postalCode":"88339","locality":"Bad Waldsee","municipality":{"key":"08436009","name":"Bad Waldsee, Stadt","type":"Große_Kreisstadt"},"district":{"key":"08436","name":"Ravensburg","type":"Landkreis"},"federalState":{"key":"08","name":"Baden-Württemberg"}},{"name":"Roggenweg","postalCode":"88339","locality":"Bad Waldsee","municipality":{"key":"08436009","name":"Bad Waldsee, Stadt","type":"Große_Kreisstadt"},"district":{"key":"08436","name":"Ravensburg","type":"Landkreis"},"federalState":{"key":"08","name":"Baden-Württemberg"}},{"name":"Römergasse","postalCode":"88339","locality":"Bad Waldsee","municipality":{"key":"08436009","name":"Bad Waldsee, Stadt","type":"Große_Kreisstadt"},"district":{"key":"08436","name":"Ravensburg","type":"Landkreis"},"federalState":{"key":"08","name":"Baden-Württemberg"}},{"name":"Römerstr.","postalCode":"88339","locality":"Bad Waldsee","municipality":{"key":"08436009","name":"Bad Waldsee, Stadt","type":"Große_Kreisstadt"},"district":{"key":"08436","name":"Ravensburg","type":"Landkreis"},"federalState":{"key":"08","name":"Baden-Württemberg"}},{"name":"Röschbühlweg","postalCode":"88339","locality":"Bad Waldsee","municipality":{"key":"08436009","name":"Bad Waldsee, Stadt","type":"Große_Kreisstadt"},"district":{"key":"08436","name":"Ravensburg","type":"Landkreis"},"federalState":{"key":"08","name":"Baden-Württemberg"}},{"name":"Rosenstr.","postalCode":"88339","locality":"Bad Waldsee","municipality":{"key":"08436009","name":"Bad Waldsee, Stadt","type":"Große_Kreisstadt"},"district":{"key":"08436","name":"Ravensburg","type":"Landkreis"},"federalState":{"key":"08","name":"Baden-Württemberg"}},{"name":"Rosmaringasse","postalCode":"88339","locality":"Bad Waldsee","municipality":{"key":"08436009","name":"Bad Waldsee, Stadt","type":"Große_Kreisstadt"},"district":{"key":"08436","name":"Ravensburg","type":"Landkreis"},"federalState":{"key":"08","name":"Baden-Württemberg"}},{"name":"Roßberger Str.","postalCode":"88339","locality":"Bad Waldsee","municipality":{"key":"08436009","name":"Bad Waldsee, Stadt","type":"Große_Kreisstadt"},"district":{"key":"08436","name":"Ravensburg","type":"Landkreis"},"federalState":{"key":"08","name":"Baden-Württemberg"}},{"name":"Roßruckstr.","postalCode":"88339","locality":"Bad Waldsee","municipality":{"key":"08436009","name":"Bad Waldsee, Stadt","type":"Große_Kreisstadt"},"district":{"key":"08436","name":"Ravensburg","type":"Landkreis"},"federalState":{"key":"08","name":"Baden-Württemberg"}},{"name":"Rotkreuzweg","postalCode":"88339","locality":"Bad Waldsee","municipality":{"key":"08436009","name":"Bad Waldsee, Stadt","type":"Große_Kreisstadt"},"district":{"key":"08436","name":"Ravensburg","type":"Landkreis"},"federalState":{"key":"08","name":"Baden-Württemberg"}},{"name":"Rotmilanweg","postalCode":"88339","locality":"Bad Waldsee","municipality":{"key":"08436009","name":"Bad Waldsee, Stadt","type":"Große_Kreisstadt"},"district":{"key":"08436","name":"Ravensburg","type":"Landkreis"},"federalState":{"key":"08","name":"Baden-Württemberg"}},{"name":"Sandweg","postalCode":"88339","locality":"Bad Waldsee","municipality":{"key":"08436009","name":"Bad Waldsee, Stadt","type":"Große_Kreisstadt"},"district":{"key":"08436","name":"Ravensburg","type":"Landkreis"},"federalState":{"key":"08","name":"Baden-Württemberg"}},{"name":"Sankt-Blasius-Weg","postalCode":"88339","locality":"Bad Waldsee","municipality":{"key":"08436009","name":"Bad Waldsee, Stadt","type":"Große_Kreisstadt"},"district":{"key":"08436","name":"Ravensburg","type":"Landkreis"},"federalState":{"key":"08","name":"Baden-Württemberg"}},{"name":"Saßweiherstr.","postalCode":"88339","locality":"Bad Waldsee","municipality":{"key":"08436009","name":"Bad Waldsee, Stadt","type":"Große_Kreisstadt"},"district":{"key":"08436","name":"Ravensburg","type":"Landkreis"},"federalState":{"key":"08","name":"Baden-Württemberg"}},{"name":"Schanzbühlweg","postalCode":"88339","locality":"Bad Waldsee","municipality":{"key":"08436009","name":"Bad Waldsee, Stadt","type":"Große_Kreisstadt"},"district":{"key":"08436","name":"Ravensburg","type":"Landkreis"},"federalState":{"key":"08","name":"Baden-Württemberg"}},{"name":"Schillerstr.","postalCode":"88339","locality":"Bad Waldsee","municipality":{"key":"08436009","name":"Bad Waldsee, Stadt","type":"Große_Kreisstadt"},"district":{"key":"08436","name":"Ravensburg","type":"Landkreis"},"federalState":{"key":"08","name":"Baden-Württemberg"}},{"name":"Schlehenhalde","postalCode":"88339","locality":"Bad Waldsee","municipality":{"key":"08436009","name":"Bad Waldsee, Stadt","type":"Große_Kreisstadt"},"district":{"key":"08436","name":"Ravensburg","type":"Landkreis"},"federalState":{"key":"08","name":"Baden-Württemberg"}},{"name":"Schlosspark","postalCode":"88339","locality":"Bad Waldsee","municipality":{"key":"08436009","name":"Bad Waldsee, Stadt","type":"Große_Kreisstadt"},"district":{"key":"08436","name":"Ravensburg","type":"Landkreis"},"federalState":{"key":"08","name":"Baden-Württemberg"}},{"name":"Schmiedsgasse","postalCode":"88339","locality":"Bad Waldsee","municipality":{"key":"08436009","name":"Bad Waldsee, Stadt","type":"Große_Kreisstadt"},"district":{"key":"08436","name":"Ravensburg","type":"Landkreis"},"federalState":{"key":"08","name":"Baden-Württemberg"}},{"name":"Schorrenbühl","postalCode":"88339","locality":"Bad Waldsee","municipality":{"key":"08436009","name":"Bad Waldsee, Stadt","type":"Große_Kreisstadt"},"district":{"key":"08436","name":"Ravensburg","type":"Landkreis"},"federalState":{"key":"08","name":"Baden-Württemberg"}},{"name":"Schorrenweg","postalCode":"88339","locality":"Bad Waldsee","municipality":{"key":"08436009","name":"Bad Waldsee, Stadt","type":"Große_Kreisstadt"},"district":{"key":"08436","name":"Ravensburg","type":"Landkreis"},"federalState":{"key":"08","name":"Baden-Württemberg"}},{"name":"Schudele-Str.","postalCode":"88339","locality":"Bad Waldsee","municipality":{"key":"08436009","name":"Bad Waldsee, Stadt","type":"Große_Kreisstadt"},"district":{"key":"08436","name":"Ravensburg","type":"Landkreis"},"federalState":{"key":"08","name":"Baden-Württemberg"}},{"name":"Schulgasse","postalCode":"88339","locality":"Bad Waldsee","municipality":{"key":"08436009","name":"Bad Waldsee, Stadt","type":"Große_Kreisstadt"},"district":{"key":"08436","name":"Ravensburg","type":"Landkreis"},"federalState":{"key":"08","name":"Baden-Württemberg"}},{"name":"Schützenstr.","postalCode":"88339","locality":"Bad Waldsee","municipality":{"key":"08436009","name":"Bad Waldsee, Stadt","type":"Große_Kreisstadt"},"district":{"key":"08436","name":"Ravensburg","type":"Landkreis"},"federalState":{"key":"08","name":"Baden-Württemberg"}},{"name":"Schwalbenweg","postalCode":"88339","locality":"Bad Waldsee","municipality":{"key":"08436009","name":"Bad Waldsee, Stadt","type":"Große_Kreisstadt"},"district":{"key":"08436","name":"Ravensburg","type":"Landkreis"},"federalState":{"key":"08","name":"Baden-Württemberg"}},{"name":"Schwanenberg","postalCode":"88339","locality":"Bad Waldsee","municipality":{"key":"08436009","name":"Bad Waldsee, Stadt","type":"Große_Kreisstadt"},"district":{"key":"08436","name":"Ravensburg","type":"Landkreis"},"federalState":{"key":"08","name":"Baden-Württemberg"}},{"name":"Schweizergasse","postalCode":"88339","locality":"Bad Waldsee","municipality":{"key":"08436009","name":"Bad Waldsee, Stadt","type":"Große_Kreisstadt"},"district":{"key":"08436","name":"Ravensburg","type":"Landkreis"},"federalState":{"key":"08","name":"Baden-Württemberg"}},{"name":"Sebastian-Kneipp-Weg","postalCode":"88339","locality":"Bad Waldsee","municipality":{"key":"08436009","name":"Bad Waldsee, Stadt","type":"Große_Kreisstadt"},"district":{"key":"08436","name":"Ravensburg","type":"Landkreis"},"federalState":{"key":"08","name":"Baden-Württemberg"}},{"name":"Sebastiansweg","postalCode":"88339","locality":"Bad Waldsee","municipality":{"key":"08436009","name":"Bad Waldsee, Stadt","type":"Große_Kreisstadt"},"district":{"key":"08436","name":"Ravensburg","type":"Landkreis"},"federalState":{"key":"08","name":"Baden-Württemberg"}},{"name":"Seedener Str.","postalCode":"88339","locality":"Bad Waldsee","municipality":{"key":"08436009","name":"Bad Waldsee, Stadt","type":"Große_Kreisstadt"},"district":{"key":"08436","name":"Ravensburg","type":"Landkreis"},"federalState":{"key":"08","name":"Baden-Württemberg"}},{"name":"Seeweg","postalCode":"88339","locality":"Bad Waldsee","municipality":{"key":"08436009","name":"Bad Waldsee, Stadt","type":"Große_Kreisstadt"},"district":{"key":"08436","name":"Ravensburg","type":"Landkreis"},"federalState":{"key":"08","name":"Baden-Württemberg"}},{"name":"Seidelbastweg","postalCode":"88339","locality":"Bad Waldsee","municipality":{"key":"08436009","name":"Bad Waldsee, Stadt","type":"Große_Kreisstadt"},"district":{"key":"08436","name":"Ravensburg","type":"Landkreis"},"federalState":{"key":"08","name":"Baden-Württemberg"}},{"name":"Seidenstr.","postalCode":"88339","locality":"Bad Waldsee","municipality":{"key":"08436009","name":"Bad Waldsee, Stadt","type":"Große_Kreisstadt"},"district":{"key":"08436","name":"Ravensburg","type":"Landkreis"},"federalState":{"key":"08","name":"Baden-Württemberg"}},{"name":"Sibylle-Schuler-Str.","postalCode":"88339","locality":"Bad Waldsee","municipality":{"key":"08436009","name":"Bad Waldsee, Stadt","type":"Große_Kreisstadt"},"district":{"key":"08436","name":"Ravensburg","type":"Landkreis"},"federalState":{"key":"08","name":"Baden-Württemberg"}},{"name":"Silcherweg","postalCode":"88339","locality":"Bad Waldsee","municipality":{"key":"08436009","name":"Bad Waldsee, Stadt","type":"Große_Kreisstadt"},"district":{"key":"08436","name":"Ravensburg","type":"Landkreis"},"federalState":{"key":"08","name":"Baden-Württemberg"}},{"name":"Simriweg","postalCode":"88339","locality":"Bad Waldsee","municipality":{"key":"08436009","name":"Bad Waldsee, Stadt","type":"Große_Kreisstadt"},"district":{"key":"08436","name":"Ravensburg","type":"Landkreis"},"federalState":{"key":"08","name":"Baden-Württemberg"}},{"name":"Soldenbachstr.","postalCode":"88339","locality":"Bad Waldsee","municipality":{"key":"08436009","name":"Bad Waldsee, Stadt","type":"Große_Kreisstadt"},"district":{"key":"08436","name":"Ravensburg","type":"Landkreis"},"federalState":{"key":"08","name":"Baden-Württemberg"}},{"name":"Sonnenblumenweg","postalCode":"88339","locality":"Bad Waldsee","municipality":{"key":"08436009","name":"Bad Waldsee, Stadt","type":"Große_Kreisstadt"},"district":{"key":"08436","name":"Ravensburg","type":"Landkreis"},"federalState":{"key":"08","name":"Baden-Württemberg"}},{"name":"Sonnenbühl","postalCode":"88339","locality":"Bad Waldsee","municipality":{"key":"08436009","name":"Bad Waldsee, Stadt","type":"Große_Kreisstadt"},"district":{"key":"08436","name":"Ravensburg","type":"Landkreis"},"federalState":{"key":"08","name":"Baden-Württemberg"}},{"name":"Sperrisweg","postalCode":"88339","locality":"Bad Waldsee","municipality":{"key":"08436009","name":"Bad Waldsee, Stadt","type":"Große_Kreisstadt"},"district":{"key":"08436","name":"Ravensburg","type":"Landkreis"},"federalState":{"key":"08","name":"Baden-Württemberg"}},{"name":"Spitalhof","postalCode":"88339","locality":"Bad Waldsee","municipality":{"key":"08436009","name":"Bad Waldsee, Stadt","type":"Große_Kreisstadt"},"district":{"key":"08436","name":"Ravensburg","type":"Landkreis"},"federalState":{"key":"08","name":"Baden-Württemberg"}},{"name":"Stauffenbergweg","postalCode":"88339","locality":"Bad Waldsee","municipality":{"key":"08436009","name":"Bad Waldsee, Stadt","type":"Große_Kreisstadt"},"district":{"key":"08436","name":"Ravensburg","type":"Landkreis"},"federalState":{"key":"08","name":"Baden-Württemberg"}},{"name":"Steinacher Str.","postalCode":"88339","locality":"Bad Waldsee","municipality":{"key":"08436009","name":"Bad Waldsee, Stadt","type":"Große_Kreisstadt"},"district":{"key":"08436","name":"Ravensburg","type":"Landkreis"},"federalState":{"key":"08","name":"Baden-Württemberg"}},{"name":"Steinenberger Str.","postalCode":"88339","locality":"Bad Waldsee","municipality":{"key":"08436009","name":"Bad Waldsee, Stadt","type":"Große_Kreisstadt"},"district":{"key":"08436","name":"Ravensburg","type":"Landkreis"},"federalState":{"key":"08","name":"Baden-Württemberg"}},{"name":"Sterngasse","postalCode":"88339","locality":"Bad Waldsee","municipality":{"key":"08436009","name":"Bad Waldsee, Stadt","type":"Große_Kreisstadt"},"district":{"key":"08436","name":"Ravensburg","type":"Landkreis"},"federalState":{"key":"08","name":"Baden-Württemberg"}},{"name":"St.-Florian-Weg","postalCode":"88339","locality":"Bad Waldsee","municipality":{"key":"08436009","name":"Bad Waldsee, Stadt","type":"Große_Kreisstadt"},"district":{"key":"08436","name":"Ravensburg","type":"Landkreis"},"federalState":{"key":"08","name":"Baden-Württemberg"}},{"name":"St.-Gallus-Weg","postalCode":"88339","locality":"Bad Waldsee","municipality":{"key":"08436009","name":"Bad Waldsee, Stadt","type":"Große_Kreisstadt"},"district":{"key":"08436","name":"Ravensburg","type":"Landkreis"},"federalState":{"key":"08","name":"Baden-Württemberg"}},{"name":"St.-Georg-Weg","postalCode":"88339","locality":"Bad Waldsee","municipality":{"key":"08436009","name":"Bad Waldsee, Stadt","type":"Große_Kreisstadt"},"district":{"key":"08436","name":"Ravensburg","type":"Landkreis"},"federalState":{"key":"08","name":"Baden-Württemberg"}},{"name":"St.-Johannes-Weg","postalCode":"88339","locality":"Bad Waldsee","municipality":{"key":"08436009","name":"Bad Waldsee, Stadt","type":"Große_Kreisstadt"},"district":{"key":"08436","name":"Ravensburg","type":"Landkreis"},"federalState":{"key":"08","name":"Baden-Württemberg"}},{"name":"St.-Leonhard-Str.","postalCode":"88339","locality":"Bad Waldsee","municipality":{"key":"08436009","name":"Bad Waldsee, Stadt","type":"Große_Kreisstadt"},"district":{"key":"08436","name":"Ravensburg","type":"Landkreis"},"federalState":{"key":"08","name":"Baden-Württemberg"}},{"name":"St.-Martin-Weg","postalCode":"88339","locality":"Bad Waldsee","municipality":{"key":"08436009","name":"Bad Waldsee, Stadt","type":"Große_Kreisstadt"},"district":{"key":"08436","name":"Ravensburg","type":"Landkreis"},"federalState":{"key":"08","name":"Baden-Württemberg"}},{"name":"St. Matthäus","postalCode":"88339","locality":"Bad Waldsee","municipality":{"key":"08436009","name":"Bad Waldsee, Stadt","type":"Große_Kreisstadt"},"district":{"key":"08436","name":"Ravensburg","type":"Landkreis"},"federalState":{"key":"08","name":"Baden-Württemberg"}},{"name":"St.-Nikolaus-Gasse","postalCode":"88339","locality":"Bad Waldsee","municipality":{"key":"08436009","name":"Bad Waldsee, Stadt","type":"Große_Kreisstadt"},"district":{"key":"08436","name":"Ravensburg","type":"Landkreis"},"federalState":{"key":"08","name":"Baden-Württemberg"}},{"name":"Strandbad Bad Waldsee","postalCode":"88339","locality":"Bad Waldsee","municipality":{"key":"08436009","name":"Bad Waldsee, Stadt","type":"Große_Kreisstadt"},"district":{"key":"08436","name":"Ravensburg","type":"Landkreis"},"federalState":{"key":"08","name":"Baden-Württemberg"}},{"name":"Strümpfelplatz","postalCode":"88339","locality":"Bad Waldsee","municipality":{"key":"08436009","name":"Bad Waldsee, Stadt","type":"Große_Kreisstadt"},"district":{"key":"08436","name":"Ravensburg","type":"Landkreis"},"federalState":{"key":"08","name":"Baden-Württemberg"}},{"name":"Tannenbühl","postalCode":"88339","locality":"Bad Waldsee","municipality":{"key":"08436009","name":"Bad Waldsee, Stadt","type":"Große_Kreisstadt"},"district":{"key":"08436","name":"Ravensburg","type":"Landkreis"},"federalState":{"key":"08","name":"Baden-Württemberg"}},{"name":"Tannwaldweg","postalCode":"88339","locality":"Bad Waldsee","municipality":{"key":"08436009","name":"Bad Waldsee, Stadt","type":"Große_Kreisstadt"},"district":{"key":"08436","name":"Ravensburg","type":"Landkreis"},"federalState":{"key":"08","name":"Baden-Württemberg"}},{"name":"Tannweiler Str.","postalCode":"88339","locality":"Bad Waldsee","municipality":{"key":"08436009","name":"Bad Waldsee, Stadt","type":"Große_Kreisstadt"},"district":{"key":"08436","name":"Ravensburg","type":"Landkreis"},"federalState":{"key":"08","name":"Baden-Württemberg"}},{"name":"Teichäckerweg","postalCode":"88339","locality":"Bad Waldsee","municipality":{"key":"08436009","name":"Bad Waldsee, Stadt","type":"Große_Kreisstadt"},"district":{"key":"08436","name":"Ravensburg","type":"Landkreis"},"federalState":{"key":"08","name":"Baden-Württemberg"}},{"name":"Torfweg","postalCode":"88339","locality":"Bad Waldsee","municipality":{"key":"08436009","name":"Bad Waldsee, Stadt","type":"Große_Kreisstadt"},"district":{"key":"08436","name":"Ravensburg","type":"Landkreis"},"federalState":{"key":"08","name":"Baden-Württemberg"}},{"name":"Trimm-Dich-Pfad","postalCode":"88339","locality":"Bad Waldsee","municipality":{"key":"08436009","name":"Bad Waldsee, Stadt","type":"Große_Kreisstadt"},"district":{"key":"08436","name":"Ravensburg","type":"Landkreis"},"federalState":{"key":"08","name":"Baden-Württemberg"}},{"name":"Tulpenweg","postalCode":"88339","locality":"Bad Waldsee","municipality":{"key":"08436009","name":"Bad Waldsee, Stadt","type":"Große_Kreisstadt"},"district":{"key":"08436","name":"Ravensburg","type":"Landkreis"},"federalState":{"key":"08","name":"Baden-Württemberg"}},{"name":"Uferweg","postalCode":"88339","locality":"Bad Waldsee","municipality":{"key":"08436009","name":"Bad Waldsee, Stadt","type":"Große_Kreisstadt"},"district":{"key":"08436","name":"Ravensburg","type":"Landkreis"},"federalState":{"key":"08","name":"Baden-Württemberg"}},{"name":"Uhlandstr.","postalCode":"88339","locality":"Bad Waldsee","municipality":{"key":"08436009","name":"Bad Waldsee, Stadt","type":"Große_Kreisstadt"},"district":{"key":"08436","name":"Ravensburg","type":"Landkreis"},"federalState":{"key":"08","name":"Baden-Württemberg"}},{"name":"Ulmenweg","postalCode":"88339","locality":"Bad Waldsee","municipality":{"key":"08436009","name":"Bad Waldsee, Stadt","type":"Große_Kreisstadt"},"district":{"key":"08436","name":"Ravensburg","type":"Landkreis"},"federalState":{"key":"08","name":"Baden-Württemberg"}},{"name":"Ulrich-Kuderer-Str.","postalCode":"88339","locality":"Bad Waldsee","municipality":{"key":"08436009","name":"Bad Waldsee, Stadt","type":"Große_Kreisstadt"},"district":{"key":"08436","name":"Ravensburg","type":"Landkreis"},"federalState":{"key":"08","name":"Baden-Württemberg"}},{"name":"Untere Bachäcker","postalCode":"88339","locality":"Bad Waldsee","municipality":{"key":"08436009","name":"Bad Waldsee, Stadt","type":"Große_Kreisstadt"},"district":{"key":"08436","name":"Ravensburg","type":"Landkreis"},"federalState":{"key":"08","name":"Baden-Württemberg"}},{"name":"Untermöllenbronn","postalCode":"88339","locality":"Bad Waldsee","municipality":{"key":"08436009","name":"Bad Waldsee, Stadt","type":"Große_Kreisstadt"},"district":{"key":"08436","name":"Ravensburg","type":"Landkreis"},"federalState":{"key":"08","name":"Baden-Württemberg"}},{"name":"Unterurbacher Weg","postalCode":"88339","locality":"Bad Waldsee","municipality":{"key":"08436009","name":"Bad Waldsee, Stadt","type":"Große_Kreisstadt"},"district":{"key":"08436","name":"Ravensburg","type":"Landkreis"},"federalState":{"key":"08","name":"Baden-Württemberg"}},{"name":"Urbachstr.","postalCode":"88339","locality":"Bad Waldsee","municipality":{"key":"08436009","name":"Bad Waldsee, Stadt","type":"Große_Kreisstadt"},"district":{"key":"08436","name":"Ravensburg","type":"Landkreis"},"federalState":{"key":"08","name":"Baden-Württemberg"}},{"name":"Urbach-Viadukt","postalCode":"88339","locality":"Bad Waldsee","municipality":{"key":"08436009","name":"Bad Waldsee, Stadt","type":"Große_Kreisstadt"},"district":{"key":"08436","name":"Ravensburg","type":"Landkreis"},"federalState":{"key":"08","name":"Baden-Württemberg"}},{"name":"Veilchenweg","postalCode":"88339","locality":"Bad Waldsee","municipality":{"key":"08436009","name":"Bad Waldsee, Stadt","type":"Große_Kreisstadt"},"district":{"key":"08436","name":"Ravensburg","type":"Landkreis"},"federalState":{"key":"08","name":"Baden-Württemberg"}},{"name":"Vogelbeerweg","postalCode":"88339","locality":"Bad Waldsee","municipality":{"key":"08436009","name":"Bad Waldsee, Stadt","type":"Große_Kreisstadt"},"district":{"key":"08436","name":"Ravensburg","type":"Landkreis"},"federalState":{"key":"08","name":"Baden-Württemberg"}},{"name":"Von-Rüti-Str.","postalCode":"88339","locality":"Bad Waldsee","municipality":{"key":"08436009","name":"Bad Waldsee, Stadt","type":"Große_Kreisstadt"},"district":{"key":"08436","name":"Ravensburg","type":"Landkreis"},"federalState":{"key":"08","name":"Baden-Württemberg"}},{"name":"Wacholderweg","postalCode":"88339","locality":"Bad Waldsee","municipality":{"key":"08436009","name":"Bad Waldsee, Stadt","type":"Große_Kreisstadt"},"district":{"key":"08436","name":"Ravensburg","type":"Landkreis"},"federalState":{"key":"08","name":"Baden-Württemberg"}},{"name":"Waldacker","postalCode":"88339","locality":"Bad Waldsee","municipality":{"key":"08436009","name":"Bad Waldsee, Stadt","type":"Große_Kreisstadt"},"district":{"key":"08436","name":"Ravensburg","type":"Landkreis"},"federalState":{"key":"08","name":"Baden-Württemberg"}},{"name":"Waldseer Str.","postalCode":"88339","locality":"Bad Waldsee","municipality":{"key":"08436009","name":"Bad Waldsee, Stadt","type":"Große_Kreisstadt"},"district":{"key":"08436","name":"Ravensburg","type":"Landkreis"},"federalState":{"key":"08","name":"Baden-Württemberg"}},{"name":"Weidenstr.","postalCode":"88339","locality":"Bad Waldsee","municipality":{"key":"08436009","name":"Bad Waldsee, Stadt","type":"Große_Kreisstadt"},"district":{"key":"08436","name":"Ravensburg","type":"Landkreis"},"federalState":{"key":"08","name":"Baden-Württemberg"}},{"name":"Weidenweg","postalCode":"88339","locality":"Bad Waldsee","municipality":{"key":"08436009","name":"Bad Waldsee, Stadt","type":"Große_Kreisstadt"},"district":{"key":"08436","name":"Ravensburg","type":"Landkreis"},"federalState":{"key":"08","name":"Baden-Württemberg"}},{"name":"Weiherweg","postalCode":"88339","locality":"Bad Waldsee","municipality":{"key":"08436009","name":"Bad Waldsee, Stadt","type":"Große_Kreisstadt"},"district":{"key":"08436","name":"Ravensburg","type":"Landkreis"},"federalState":{"key":"08","name":"Baden-Württemberg"}},{"name":"Weinhalde","postalCode":"88339","locality":"Bad Waldsee","municipality":{"key":"08436009","name":"Bad Waldsee, Stadt","type":"Große_Kreisstadt"},"district":{"key":"08436","name":"Ravensburg","type":"Landkreis"},"federalState":{"key":"08","name":"Baden-Württemberg"}},{"name":"Weißdornweg","postalCode":"88339","locality":"Bad Waldsee","municipality":{"key":"08436009","name":"Bad Waldsee, Stadt","type":"Große_Kreisstadt"},"district":{"key":"08436","name":"Ravensburg","type":"Landkreis"},"federalState":{"key":"08","name":"Baden-Württemberg"}},{"name":"Wendelinusstr.","postalCode":"88339","locality":"Bad Waldsee","municipality":{"key":"08436009","name":"Bad Waldsee, Stadt","type":"Große_Kreisstadt"},"district":{"key":"08436","name":"Ravensburg","type":"Landkreis"},"federalState":{"key":"08","name":"Baden-Württemberg"}},{"name":"Wettgasse","postalCode":"88339","locality":"Bad Waldsee","municipality":{"key":"08436009","name":"Bad Waldsee, Stadt","type":"Große_Kreisstadt"},"district":{"key":"08436","name":"Ravensburg","type":"Landkreis"},"federalState":{"key":"08","name":"Baden-Württemberg"}},{"name":"Wiesenstr.","postalCode":"88339","locality":"Bad Waldsee","municipality":{"key":"08436009","name":"Bad Waldsee, Stadt","type":"Große_Kreisstadt"},"district":{"key":"08436","name":"Ravensburg","type":"Landkreis"},"federalState":{"key":"08","name":"Baden-Württemberg"}},{"name":"Wilmenweg","postalCode":"88339","locality":"Bad Waldsee","municipality":{"key":"08436009","name":"Bad Waldsee, Stadt","type":"Große_Kreisstadt"},"district":{"key":"08436","name":"Ravensburg","type":"Landkreis"},"federalState":{"key":"08","name":"Baden-Württemberg"}},{"name":"Winterstetter Str.","postalCode":"88339","locality":"Bad Waldsee","municipality":{"key":"08436009","name":"Bad Waldsee, Stadt","type":"Große_Kreisstadt"},"district":{"key":"08436","name":"Ravensburg","type":"Landkreis"},"federalState":{"key":"08","name":"Baden-Württemberg"}},{"name":"Wolfegger Str.","postalCode":"88339","locality":"Bad Waldsee","municipality":{"key":"08436009","name":"Bad Waldsee, Stadt","type":"Große_Kreisstadt"},"district":{"key":"08436","name":"Ravensburg","type":"Landkreis"},"federalState":{"key":"08","name":"Baden-Württemberg"}},{"name":"Wolfsbühlweg","postalCode":"88339","locality":"Bad Waldsee","municipality":{"key":"08436009","name":"Bad Waldsee, Stadt","type":"Große_Kreisstadt"},"district":{"key":"08436","name":"Ravensburg","type":"Landkreis"},"federalState":{"key":"08","name":"Baden-Württemberg"}},{"name":"Wolpertsheimer Weg","postalCode":"88339","locality":"Bad Waldsee","municipality":{"key":"08436009","name":"Bad Waldsee, Stadt","type":"Große_Kreisstadt"},"district":{"key":"08436","name":"Ravensburg","type":"Landkreis"},"federalState":{"key":"08","name":"Baden-Württemberg"}},{"name":"Wurzacher Str.","postalCode":"88339","locality":"Bad Waldsee","municipality":{"key":"08436009","name":"Bad Waldsee, Stadt","type":"Große_Kreisstadt"},"district":{"key":"08436","name":"Ravensburg","type":"Landkreis"},"federalState":{"key":"08","name":"Baden-Württemberg"}},{"name":"Zeppelinstr.","postalCode":"88339","locality":"Bad Waldsee","municipality":{"key":"08436009","name":"Bad Waldsee, Stadt","type":"Große_Kreisstadt"},"district":{"key":"08436","name":"Ravensburg","type":"Landkreis"},"federalState":{"key":"08","name":"Baden-Württemberg"}},{"name":"Zimmerplatzstr.","postalCode":"88339","locality":"Bad Waldsee","municipality":{"key":"08436009","name":"Bad Waldsee, Stadt","type":"Große_Kreisstadt"},"district":{"key":"08436","name":"Ravensburg","type":"Landkreis"},"federalState":{"key":"08","name":"Baden-Württemberg"}},{"name":"Zum Eibhaus","postalCode":"88339","locality":"Bad Waldsee","municipality":{"key":"08436009","name":"Bad Waldsee, Stadt","type":"Große_Kreisstadt"},"district":{"key":"08436","name":"Ravensburg","type":"Landkreis"},"federalState":{"key":"08","name":"Baden-Württemberg"}},{"name":"Zur Grabener Höhe","postalCode":"88339","locality":"Bad Waldsee","municipality":{"key":"08436009","name":"Bad Waldsee, Stadt","type":"Große_Kreisstadt"},"district":{"key":"08436","name":"Ravensburg","type":"Landkreis"},"federalState":{"key":"08","name":"Baden-Württemberg"}},{"name":"Zur Spitzenkapelle","postalCode":"88339","locality":"Bad Waldsee","municipality":{"key":"08436009","name":"Bad Waldsee, Stadt","type":"Große_Kreisstadt"},"district":{"key":"08436","name":"Ravensburg","type":"Landkreis"},"federalState":{"key":"08","name":"Baden-Württemberg"}},{"name":"Ährenweg","postalCode":"88339","locality":"Bad Waldsee","municipality":{"key":"08436009","name":"Bad Waldsee, Stadt","type":"Große_Kreisstadt"},"district":{"key":"08436","name":"Ravensburg","type":"Landkreis"},"federalState":{"key":"08","name":"Baden-Württemberg"}},{"name":"Ölmannsgasse","postalCode":"88339","locality":"Bad Waldsee","municipality":{"key":"08436009","name":"Bad Waldsee, Stadt","type":"Große_Kreisstadt"},"district":{"key":"08436","name":"Ravensburg","type":"Landkreis"},"federalState":{"key":"08","name":"Baden-Württemberg"}},{"name":"Öschweg","postalCode":"88339","locality":"Bad Waldsee","municipality":{"key":"08436009","name":"Bad Waldsee, Stadt","type":"Große_Kreisstadt"},"district":{"key":"08436","name":"Ravensburg","type":"Landkreis"},"federalState":{"key":"08","name":"Baden-Württemberg"}},]