[{"name":"Aaweg","postalCode":"49497","locality":"Mettingen","municipality":{"key":"05566056","name":"Mettingen","type":"Kreisangehörige_Gemeinde"},"district":{"key":"05566","name":"Steinfurt","type":"Kreis"},"federalState":{"key":"05","name":"Nordrhein-Westfalen"}},{"name":"Ackerweg","postalCode":"49497","locality":"Mettingen","municipality":{"key":"05566056","name":"Mettingen","type":"Kreisangehörige_Gemeinde"},"district":{"key":"05566","name":"Steinfurt","type":"Kreis"},"federalState":{"key":"05","name":"Nordrhein-Westfalen"}},{"name":"Albrecht-Dürer-Str.","postalCode":"49497","locality":"Mettingen","municipality":{"key":"05566056","name":"Mettingen","type":"Kreisangehörige_Gemeinde"},"district":{"key":"05566","name":"Steinfurt","type":"Kreis"},"federalState":{"key":"05","name":"Nordrhein-Westfalen"}},{"name":"Alte Bockradener Str.","postalCode":"49497","locality":"Mettingen","municipality":{"key":"05566056","name":"Mettingen","type":"Kreisangehörige_Gemeinde"},"district":{"key":"05566","name":"Steinfurt","type":"Kreis"},"federalState":{"key":"05","name":"Nordrhein-Westfalen"}},{"name":"Altwilmsdorfer Str.","postalCode":"49497","locality":"Mettingen","municipality":{"key":"05566056","name":"Mettingen","type":"Kreisangehörige_Gemeinde"},"district":{"key":"05566","name":"Steinfurt","type":"Kreis"},"federalState":{"key":"05","name":"Nordrhein-Westfalen"}},{"name":"Am Freibad","postalCode":"49497","locality":"Mettingen","municipality":{"key":"05566056","name":"Mettingen","type":"Kreisangehörige_Gemeinde"},"district":{"key":"05566","name":"Steinfurt","type":"Kreis"},"federalState":{"key":"05","name":"Nordrhein-Westfalen"}},{"name":"Am Hang","postalCode":"49497","locality":"Mettingen","municipality":{"key":"05566056","name":"Mettingen","type":"Kreisangehörige_Gemeinde"},"district":{"key":"05566","name":"Steinfurt","type":"Kreis"},"federalState":{"key":"05","name":"Nordrhein-Westfalen"}},{"name":"Am Kolk","postalCode":"49497","locality":"Mettingen","municipality":{"key":"05566056","name":"Mettingen","type":"Kreisangehörige_Gemeinde"},"district":{"key":"05566","name":"Steinfurt","type":"Kreis"},"federalState":{"key":"05","name":"Nordrhein-Westfalen"}},{"name":"Am Krankenhaus","postalCode":"49497","locality":"Mettingen","municipality":{"key":"05566056","name":"Mettingen","type":"Kreisangehörige_Gemeinde"},"district":{"key":"05566","name":"Steinfurt","type":"Kreis"},"federalState":{"key":"05","name":"Nordrhein-Westfalen"}},{"name":"Am lütken Esch","postalCode":"49497","locality":"Mettingen","municipality":{"key":"05566056","name":"Mettingen","type":"Kreisangehörige_Gemeinde"},"district":{"key":"05566","name":"Steinfurt","type":"Kreis"},"federalState":{"key":"05","name":"Nordrhein-Westfalen"}},{"name":"Amselstr.","postalCode":"49497","locality":"Mettingen","municipality":{"key":"05566056","name":"Mettingen","type":"Kreisangehörige_Gemeinde"},"district":{"key":"05566","name":"Steinfurt","type":"Kreis"},"federalState":{"key":"05","name":"Nordrhein-Westfalen"}},{"name":"Amselweg","postalCode":"72358","locality":"Dormettingen","municipality":{"key":"08417015","name":"Dormettingen","type":"Kreisangehörige_Gemeinde"},"district":{"key":"08417","name":"Zollernalbkreis","type":"Landkreis"},"federalState":{"key":"08","name":"Baden-Württemberg"}},{"name":"Am Toschlag","postalCode":"49497","locality":"Mettingen","municipality":{"key":"05566056","name":"Mettingen","type":"Kreisangehörige_Gemeinde"},"district":{"key":"05566","name":"Steinfurt","type":"Kreis"},"federalState":{"key":"05","name":"Nordrhein-Westfalen"}},{"name":"Am Waldschlößchen","postalCode":"49497","locality":"Mettingen","municipality":{"key":"05566056","name":"Mettingen","type":"Kreisangehörige_Gemeinde"},"district":{"key":"05566","name":"Steinfurt","type":"Kreis"},"federalState":{"key":"05","name":"Nordrhein-Westfalen"}},{"name":"Am Wasserwerk","postalCode":"49497","locality":"Mettingen","municipality":{"key":"05566056","name":"Mettingen","type":"Kreisangehörige_Gemeinde"},"district":{"key":"05566","name":"Steinfurt","type":"Kreis"},"federalState":{"key":"05","name":"Nordrhein-Westfalen"}},{"name":"An den Wellen","postalCode":"49497","locality":"Mettingen","municipality":{"key":"05566056","name":"Mettingen","type":"Kreisangehörige_Gemeinde"},"district":{"key":"05566","name":"Steinfurt","type":"Kreis"},"federalState":{"key":"05","name":"Nordrhein-Westfalen"}},{"name":"An der Bräunegrube","postalCode":"72358","locality":"Dormettingen","municipality":{"key":"08417015","name":"Dormettingen","type":"Kreisangehörige_Gemeinde"},"district":{"key":"08417","name":"Zollernalbkreis","type":"Landkreis"},"federalState":{"key":"08","name":"Baden-Württemberg"}},{"name":"An der Nordbahn","postalCode":"49497","locality":"Mettingen","municipality":{"key":"05566056","name":"Mettingen","type":"Kreisangehörige_Gemeinde"},"district":{"key":"05566","name":"Steinfurt","type":"Kreis"},"federalState":{"key":"05","name":"Nordrhein-Westfalen"}},{"name":"Auf der Sonnenwiese","postalCode":"49497","locality":"Mettingen","municipality":{"key":"05566056","name":"Mettingen","type":"Kreisangehörige_Gemeinde"},"district":{"key":"05566","name":"Steinfurt","type":"Kreis"},"federalState":{"key":"05","name":"Nordrhein-Westfalen"}},{"name":"Bachstr.","postalCode":"49497","locality":"Mettingen","municipality":{"key":"05566056","name":"Mettingen","type":"Kreisangehörige_Gemeinde"},"district":{"key":"05566","name":"Steinfurt","type":"Kreis"},"federalState":{"key":"05","name":"Nordrhein-Westfalen"}},{"name":"Bahnhofstr.","postalCode":"49497","locality":"Mettingen","municipality":{"key":"05566056","name":"Mettingen","type":"Kreisangehörige_Gemeinde"},"district":{"key":"05566","name":"Steinfurt","type":"Kreis"},"federalState":{"key":"05","name":"Nordrhein-Westfalen"}},{"name":"Bahnhofstr.","postalCode":"72358","locality":"Dormettingen","municipality":{"key":"08417015","name":"Dormettingen","type":"Kreisangehörige_Gemeinde"},"district":{"key":"08417","name":"Zollernalbkreis","type":"Landkreis"},"federalState":{"key":"08","name":"Baden-Württemberg"}},{"name":"Beethovenstr.","postalCode":"72358","locality":"Dormettingen","municipality":{"key":"08417015","name":"Dormettingen","type":"Kreisangehörige_Gemeinde"},"district":{"key":"08417","name":"Zollernalbkreis","type":"Landkreis"},"federalState":{"key":"08","name":"Baden-Württemberg"}},{"name":"Bellevue","postalCode":"49497","locality":"Mettingen","municipality":{"key":"05566056","name":"Mettingen","type":"Kreisangehörige_Gemeinde"},"district":{"key":"05566","name":"Steinfurt","type":"Kreis"},"federalState":{"key":"05","name":"Nordrhein-Westfalen"}},{"name":"Berentelgweg","postalCode":"49497","locality":"Mettingen","municipality":{"key":"05566056","name":"Mettingen","type":"Kreisangehörige_Gemeinde"},"district":{"key":"05566","name":"Steinfurt","type":"Kreis"},"federalState":{"key":"05","name":"Nordrhein-Westfalen"}},{"name":"Bergstr.","postalCode":"49497","locality":"Mettingen","municipality":{"key":"05566056","name":"Mettingen","type":"Kreisangehörige_Gemeinde"},"district":{"key":"05566","name":"Steinfurt","type":"Kreis"},"federalState":{"key":"05","name":"Nordrhein-Westfalen"}},{"name":"Berg up Sonn","postalCode":"49497","locality":"Mettingen","municipality":{"key":"05566056","name":"Mettingen","type":"Kreisangehörige_Gemeinde"},"district":{"key":"05566","name":"Steinfurt","type":"Kreis"},"federalState":{"key":"05","name":"Nordrhein-Westfalen"}},{"name":"Birkenstr.","postalCode":"49497","locality":"Mettingen","municipality":{"key":"05566056","name":"Mettingen","type":"Kreisangehörige_Gemeinde"},"district":{"key":"05566","name":"Steinfurt","type":"Kreis"},"federalState":{"key":"05","name":"Nordrhein-Westfalen"}},{"name":"Birkenstr.","postalCode":"72358","locality":"Dormettingen","municipality":{"key":"08417015","name":"Dormettingen","type":"Kreisangehörige_Gemeinde"},"district":{"key":"08417","name":"Zollernalbkreis","type":"Landkreis"},"federalState":{"key":"08","name":"Baden-Württemberg"}},{"name":"Bischofstr.","postalCode":"49497","locality":"Mettingen","municipality":{"key":"05566056","name":"Mettingen","type":"Kreisangehörige_Gemeinde"},"district":{"key":"05566","name":"Steinfurt","type":"Kreis"},"federalState":{"key":"05","name":"Nordrhein-Westfalen"}},{"name":"Bodelschwinghstr.","postalCode":"49497","locality":"Mettingen","municipality":{"key":"05566056","name":"Mettingen","type":"Kreisangehörige_Gemeinde"},"district":{"key":"05566","name":"Steinfurt","type":"Kreis"},"federalState":{"key":"05","name":"Nordrhein-Westfalen"}},{"name":"Bolzstr.","postalCode":"72358","locality":"Dormettingen","municipality":{"key":"08417015","name":"Dormettingen","type":"Kreisangehörige_Gemeinde"},"district":{"key":"08417","name":"Zollernalbkreis","type":"Landkreis"},"federalState":{"key":"08","name":"Baden-Württemberg"}},{"name":"Bonhoefferstr.","postalCode":"49497","locality":"Mettingen","municipality":{"key":"05566056","name":"Mettingen","type":"Kreisangehörige_Gemeinde"},"district":{"key":"05566","name":"Steinfurt","type":"Kreis"},"federalState":{"key":"05","name":"Nordrhein-Westfalen"}},{"name":"Breslauer Ring","postalCode":"49497","locality":"Mettingen","municipality":{"key":"05566056","name":"Mettingen","type":"Kreisangehörige_Gemeinde"},"district":{"key":"05566","name":"Steinfurt","type":"Kreis"},"federalState":{"key":"05","name":"Nordrhein-Westfalen"}},{"name":"Brookstr.","postalCode":"49497","locality":"Mettingen","municipality":{"key":"05566056","name":"Mettingen","type":"Kreisangehörige_Gemeinde"},"district":{"key":"05566","name":"Steinfurt","type":"Kreis"},"federalState":{"key":"05","name":"Nordrhein-Westfalen"}},{"name":"Bruckgrabenstr.","postalCode":"72358","locality":"Dormettingen","municipality":{"key":"08417015","name":"Dormettingen","type":"Kreisangehörige_Gemeinde"},"district":{"key":"08417","name":"Zollernalbkreis","type":"Landkreis"},"federalState":{"key":"08","name":"Baden-Württemberg"}},{"name":"Bruckstr.","postalCode":"72358","locality":"Dormettingen","municipality":{"key":"08417015","name":"Dormettingen","type":"Kreisangehörige_Gemeinde"},"district":{"key":"08417","name":"Zollernalbkreis","type":"Landkreis"},"federalState":{"key":"08","name":"Baden-Württemberg"}},{"name":"Brühlstr.","postalCode":"72358","locality":"Dormettingen","municipality":{"key":"08417015","name":"Dormettingen","type":"Kreisangehörige_Gemeinde"},"district":{"key":"08417","name":"Zollernalbkreis","type":"Landkreis"},"federalState":{"key":"08","name":"Baden-Württemberg"}},{"name":"Brunnenstr.","postalCode":"72358","locality":"Dormettingen","municipality":{"key":"08417015","name":"Dormettingen","type":"Kreisangehörige_Gemeinde"},"district":{"key":"08417","name":"Zollernalbkreis","type":"Landkreis"},"federalState":{"key":"08","name":"Baden-Württemberg"}},{"name":"Brunsheider Weg","postalCode":"49497","locality":"Mettingen","municipality":{"key":"05566056","name":"Mettingen","type":"Kreisangehörige_Gemeinde"},"district":{"key":"05566","name":"Steinfurt","type":"Kreis"},"federalState":{"key":"05","name":"Nordrhein-Westfalen"}},{"name":"Bubensulz","postalCode":"72358","locality":"Dormettingen","municipality":{"key":"08417015","name":"Dormettingen","type":"Kreisangehörige_Gemeinde"},"district":{"key":"08417","name":"Zollernalbkreis","type":"Landkreis"},"federalState":{"key":"08","name":"Baden-Württemberg"}},{"name":"Bühlstr.","postalCode":"72358","locality":"Dormettingen","municipality":{"key":"08417015","name":"Dormettingen","type":"Kreisangehörige_Gemeinde"},"district":{"key":"08417","name":"Zollernalbkreis","type":"Landkreis"},"federalState":{"key":"08","name":"Baden-Württemberg"}},{"name":"Bürgermeister-Meyer-Str.","postalCode":"49497","locality":"Mettingen","municipality":{"key":"05566056","name":"Mettingen","type":"Kreisangehörige_Gemeinde"},"district":{"key":"05566","name":"Steinfurt","type":"Kreis"},"federalState":{"key":"05","name":"Nordrhein-Westfalen"}},{"name":"Burgstr.","postalCode":"49497","locality":"Mettingen","municipality":{"key":"05566056","name":"Mettingen","type":"Kreisangehörige_Gemeinde"},"district":{"key":"05566","name":"Steinfurt","type":"Kreis"},"federalState":{"key":"05","name":"Nordrhein-Westfalen"}},{"name":"Bushof","postalCode":"49497","locality":"Mettingen","municipality":{"key":"05566056","name":"Mettingen","type":"Kreisangehörige_Gemeinde"},"district":{"key":"05566","name":"Steinfurt","type":"Kreis"},"federalState":{"key":"05","name":"Nordrhein-Westfalen"}},{"name":"Clemensstr.","postalCode":"49497","locality":"Mettingen","municipality":{"key":"05566056","name":"Mettingen","type":"Kreisangehörige_Gemeinde"},"district":{"key":"05566","name":"Steinfurt","type":"Kreis"},"federalState":{"key":"05","name":"Nordrhein-Westfalen"}},{"name":"Dautmerger Str.","postalCode":"72358","locality":"Dormettingen","municipality":{"key":"08417015","name":"Dormettingen","type":"Kreisangehörige_Gemeinde"},"district":{"key":"08417","name":"Zollernalbkreis","type":"Landkreis"},"federalState":{"key":"08","name":"Baden-Württemberg"}},{"name":"Diekbreede","postalCode":"49497","locality":"Mettingen","municipality":{"key":"05566056","name":"Mettingen","type":"Kreisangehörige_Gemeinde"},"district":{"key":"05566","name":"Steinfurt","type":"Kreis"},"federalState":{"key":"05","name":"Nordrhein-Westfalen"}},{"name":"Droste-Hülshoff-Str.","postalCode":"49497","locality":"Mettingen","municipality":{"key":"05566056","name":"Mettingen","type":"Kreisangehörige_Gemeinde"},"district":{"key":"05566","name":"Steinfurt","type":"Kreis"},"federalState":{"key":"05","name":"Nordrhein-Westfalen"}},{"name":"Dürerweg","postalCode":"72358","locality":"Dormettingen","municipality":{"key":"08417015","name":"Dormettingen","type":"Kreisangehörige_Gemeinde"},"district":{"key":"08417","name":"Zollernalbkreis","type":"Landkreis"},"federalState":{"key":"08","name":"Baden-Württemberg"}},{"name":"Ebertstr.","postalCode":"72358","locality":"Dormettingen","municipality":{"key":"08417015","name":"Dormettingen","type":"Kreisangehörige_Gemeinde"},"district":{"key":"08417","name":"Zollernalbkreis","type":"Landkreis"},"federalState":{"key":"08","name":"Baden-Württemberg"}},{"name":"Eickholzgasse","postalCode":"49497","locality":"Mettingen","municipality":{"key":"05566056","name":"Mettingen","type":"Kreisangehörige_Gemeinde"},"district":{"key":"05566","name":"Steinfurt","type":"Kreis"},"federalState":{"key":"05","name":"Nordrhein-Westfalen"}},{"name":"Elsebrookweg","postalCode":"49497","locality":"Mettingen","municipality":{"key":"05566056","name":"Mettingen","type":"Kreisangehörige_Gemeinde"},"district":{"key":"05566","name":"Steinfurt","type":"Kreis"},"federalState":{"key":"05","name":"Nordrhein-Westfalen"}},{"name":"Enge Gasse","postalCode":"49497","locality":"Mettingen","municipality":{"key":"05566056","name":"Mettingen","type":"Kreisangehörige_Gemeinde"},"district":{"key":"05566","name":"Steinfurt","type":"Kreis"},"federalState":{"key":"05","name":"Nordrhein-Westfalen"}},{"name":"Erikastr.","postalCode":"49497","locality":"Mettingen","municipality":{"key":"05566056","name":"Mettingen","type":"Kreisangehörige_Gemeinde"},"district":{"key":"05566","name":"Steinfurt","type":"Kreis"},"federalState":{"key":"05","name":"Nordrhein-Westfalen"}},{"name":"Espeler Weg","postalCode":"49497","locality":"Mettingen","municipality":{"key":"05566056","name":"Mettingen","type":"Kreisangehörige_Gemeinde"},"district":{"key":"05566","name":"Steinfurt","type":"Kreis"},"federalState":{"key":"05","name":"Nordrhein-Westfalen"}},{"name":"Falkenstr.","postalCode":"49497","locality":"Mettingen","municipality":{"key":"05566056","name":"Mettingen","type":"Kreisangehörige_Gemeinde"},"district":{"key":"05566","name":"Steinfurt","type":"Kreis"},"federalState":{"key":"05","name":"Nordrhein-Westfalen"}},{"name":"Fangeweg","postalCode":"49497","locality":"Mettingen","municipality":{"key":"05566056","name":"Mettingen","type":"Kreisangehörige_Gemeinde"},"district":{"key":"05566","name":"Steinfurt","type":"Kreis"},"federalState":{"key":"05","name":"Nordrhein-Westfalen"}},{"name":"Fangkampstr.","postalCode":"49497","locality":"Mettingen","municipality":{"key":"05566056","name":"Mettingen","type":"Kreisangehörige_Gemeinde"},"district":{"key":"05566","name":"Steinfurt","type":"Kreis"},"federalState":{"key":"05","name":"Nordrhein-Westfalen"}},{"name":"Feldheider Weg","postalCode":"49497","locality":"Mettingen","municipality":{"key":"05566056","name":"Mettingen","type":"Kreisangehörige_Gemeinde"},"district":{"key":"05566","name":"Steinfurt","type":"Kreis"},"federalState":{"key":"05","name":"Nordrhein-Westfalen"}},{"name":"Fichtengrund","postalCode":"49497","locality":"Mettingen","municipality":{"key":"05566056","name":"Mettingen","type":"Kreisangehörige_Gemeinde"},"district":{"key":"05566","name":"Steinfurt","type":"Kreis"},"federalState":{"key":"05","name":"Nordrhein-Westfalen"}},{"name":"Finkenstr.","postalCode":"49497","locality":"Mettingen","municipality":{"key":"05566056","name":"Mettingen","type":"Kreisangehörige_Gemeinde"},"district":{"key":"05566","name":"Steinfurt","type":"Kreis"},"federalState":{"key":"05","name":"Nordrhein-Westfalen"}},{"name":"Finkenstr.","postalCode":"72358","locality":"Dormettingen","municipality":{"key":"08417015","name":"Dormettingen","type":"Kreisangehörige_Gemeinde"},"district":{"key":"08417","name":"Zollernalbkreis","type":"Landkreis"},"federalState":{"key":"08","name":"Baden-Württemberg"}},{"name":"Fliederstr.","postalCode":"72358","locality":"Dormettingen","municipality":{"key":"08417015","name":"Dormettingen","type":"Kreisangehörige_Gemeinde"},"district":{"key":"08417","name":"Zollernalbkreis","type":"Landkreis"},"federalState":{"key":"08","name":"Baden-Württemberg"}},{"name":"Flottowenweg","postalCode":"49497","locality":"Mettingen","municipality":{"key":"05566056","name":"Mettingen","type":"Kreisangehörige_Gemeinde"},"district":{"key":"05566","name":"Steinfurt","type":"Kreis"},"federalState":{"key":"05","name":"Nordrhein-Westfalen"}},{"name":"Friedrich-von-Schiller-Str.","postalCode":"49497","locality":"Mettingen","municipality":{"key":"05566056","name":"Mettingen","type":"Kreisangehörige_Gemeinde"},"district":{"key":"05566","name":"Steinfurt","type":"Kreis"},"federalState":{"key":"05","name":"Nordrhein-Westfalen"}},{"name":"Gartenstr.","postalCode":"49497","locality":"Mettingen","municipality":{"key":"05566056","name":"Mettingen","type":"Kreisangehörige_Gemeinde"},"district":{"key":"05566","name":"Steinfurt","type":"Kreis"},"federalState":{"key":"05","name":"Nordrhein-Westfalen"}},{"name":"Gartenstr.","postalCode":"72358","locality":"Dormettingen","municipality":{"key":"08417015","name":"Dormettingen","type":"Kreisangehörige_Gemeinde"},"district":{"key":"08417","name":"Zollernalbkreis","type":"Landkreis"},"federalState":{"key":"08","name":"Baden-Württemberg"}},{"name":"Georgstr.","postalCode":"49497","locality":"Mettingen","municipality":{"key":"05566056","name":"Mettingen","type":"Kreisangehörige_Gemeinde"},"district":{"key":"05566","name":"Steinfurt","type":"Kreis"},"federalState":{"key":"05","name":"Nordrhein-Westfalen"}},{"name":"Gerichtsweg","postalCode":"49497","locality":"Mettingen","municipality":{"key":"05566056","name":"Mettingen","type":"Kreisangehörige_Gemeinde"},"district":{"key":"05566","name":"Steinfurt","type":"Kreis"},"federalState":{"key":"05","name":"Nordrhein-Westfalen"}},{"name":"Geschwister-Scholl-Str.","postalCode":"49497","locality":"Mettingen","municipality":{"key":"05566056","name":"Mettingen","type":"Kreisangehörige_Gemeinde"},"district":{"key":"05566","name":"Steinfurt","type":"Kreis"},"federalState":{"key":"05","name":"Nordrhein-Westfalen"}},{"name":"Geschwister-Voß-Str.","postalCode":"49497","locality":"Mettingen","municipality":{"key":"05566056","name":"Mettingen","type":"Kreisangehörige_Gemeinde"},"district":{"key":"05566","name":"Steinfurt","type":"Kreis"},"federalState":{"key":"05","name":"Nordrhein-Westfalen"}},{"name":"Ginsterweg","postalCode":"49497","locality":"Mettingen","municipality":{"key":"05566056","name":"Mettingen","type":"Kreisangehörige_Gemeinde"},"district":{"key":"05566","name":"Steinfurt","type":"Kreis"},"federalState":{"key":"05","name":"Nordrhein-Westfalen"}},{"name":"Glatzer Str.","postalCode":"49497","locality":"Mettingen","municipality":{"key":"05566056","name":"Mettingen","type":"Kreisangehörige_Gemeinde"},"district":{"key":"05566","name":"Steinfurt","type":"Kreis"},"federalState":{"key":"05","name":"Nordrhein-Westfalen"}},{"name":"Große Str.","postalCode":"49497","locality":"Mettingen","municipality":{"key":"05566056","name":"Mettingen","type":"Kreisangehörige_Gemeinde"},"district":{"key":"05566","name":"Steinfurt","type":"Kreis"},"federalState":{"key":"05","name":"Nordrhein-Westfalen"}},{"name":"Grotemeyers Kamp","postalCode":"49497","locality":"Mettingen","municipality":{"key":"05566056","name":"Mettingen","type":"Kreisangehörige_Gemeinde"},"district":{"key":"05566","name":"Steinfurt","type":"Kreis"},"federalState":{"key":"05","name":"Nordrhein-Westfalen"}},{"name":"Gründkenliet","postalCode":"49497","locality":"Mettingen","municipality":{"key":"05566056","name":"Mettingen","type":"Kreisangehörige_Gemeinde"},"district":{"key":"05566","name":"Steinfurt","type":"Kreis"},"federalState":{"key":"05","name":"Nordrhein-Westfalen"}},{"name":"Hagebröcker Weg","postalCode":"49497","locality":"Mettingen","municipality":{"key":"05566056","name":"Mettingen","type":"Kreisangehörige_Gemeinde"},"district":{"key":"05566","name":"Steinfurt","type":"Kreis"},"federalState":{"key":"05","name":"Nordrhein-Westfalen"}},{"name":"Heideweg","postalCode":"49497","locality":"Mettingen","municipality":{"key":"05566056","name":"Mettingen","type":"Kreisangehörige_Gemeinde"},"district":{"key":"05566","name":"Steinfurt","type":"Kreis"},"federalState":{"key":"05","name":"Nordrhein-Westfalen"}},{"name":"Heiledornstr.","postalCode":"72358","locality":"Dormettingen","municipality":{"key":"08417015","name":"Dormettingen","type":"Kreisangehörige_Gemeinde"},"district":{"key":"08417","name":"Zollernalbkreis","type":"Landkreis"},"federalState":{"key":"08","name":"Baden-Württemberg"}},{"name":"Hirschberger Ring","postalCode":"49497","locality":"Mettingen","municipality":{"key":"05566056","name":"Mettingen","type":"Kreisangehörige_Gemeinde"},"district":{"key":"05566","name":"Steinfurt","type":"Kreis"},"federalState":{"key":"05","name":"Nordrhein-Westfalen"}},{"name":"Hofstr.","postalCode":"72358","locality":"Dormettingen","municipality":{"key":"08417015","name":"Dormettingen","type":"Kreisangehörige_Gemeinde"},"district":{"key":"08417","name":"Zollernalbkreis","type":"Landkreis"},"federalState":{"key":"08","name":"Baden-Württemberg"}},{"name":"Hölderlinstr.","postalCode":"72358","locality":"Dormettingen","municipality":{"key":"08417015","name":"Dormettingen","type":"Kreisangehörige_Gemeinde"},"district":{"key":"08417","name":"Zollernalbkreis","type":"Landkreis"},"federalState":{"key":"08","name":"Baden-Württemberg"}},{"name":"Holderweg","postalCode":"72358","locality":"Dormettingen","municipality":{"key":"08417015","name":"Dormettingen","type":"Kreisangehörige_Gemeinde"},"district":{"key":"08417","name":"Zollernalbkreis","type":"Landkreis"},"federalState":{"key":"08","name":"Baden-Württemberg"}},{"name":"Holgenwiesstr.","postalCode":"72358","locality":"Dormettingen","municipality":{"key":"08417015","name":"Dormettingen","type":"Kreisangehörige_Gemeinde"},"district":{"key":"08417","name":"Zollernalbkreis","type":"Landkreis"},"federalState":{"key":"08","name":"Baden-Württemberg"}},{"name":"Höveringhausener Kirchweg","postalCode":"49497","locality":"Mettingen","municipality":{"key":"05566056","name":"Mettingen","type":"Kreisangehörige_Gemeinde"},"district":{"key":"05566","name":"Steinfurt","type":"Kreis"},"federalState":{"key":"05","name":"Nordrhein-Westfalen"}},{"name":"Höveringhausener Schulweg","postalCode":"49497","locality":"Mettingen","municipality":{"key":"05566056","name":"Mettingen","type":"Kreisangehörige_Gemeinde"},"district":{"key":"05566","name":"Steinfurt","type":"Kreis"},"federalState":{"key":"05","name":"Nordrhein-Westfalen"}},{"name":"Hubertushöhe","postalCode":"49497","locality":"Mettingen","municipality":{"key":"05566056","name":"Mettingen","type":"Kreisangehörige_Gemeinde"},"district":{"key":"05566","name":"Steinfurt","type":"Kreis"},"federalState":{"key":"05","name":"Nordrhein-Westfalen"}},{"name":"Ibbenbürener Str.","postalCode":"49497","locality":"Mettingen","municipality":{"key":"05566056","name":"Mettingen","type":"Kreisangehörige_Gemeinde"},"district":{"key":"05566","name":"Steinfurt","type":"Kreis"},"federalState":{"key":"05","name":"Nordrhein-Westfalen"}},{"name":"Im Muckhorster Esch","postalCode":"49497","locality":"Mettingen","municipality":{"key":"05566056","name":"Mettingen","type":"Kreisangehörige_Gemeinde"},"district":{"key":"05566","name":"Steinfurt","type":"Kreis"},"federalState":{"key":"05","name":"Nordrhein-Westfalen"}},{"name":"Innere Dorfstr.","postalCode":"72358","locality":"Dormettingen","municipality":{"key":"08417015","name":"Dormettingen","type":"Kreisangehörige_Gemeinde"},"district":{"key":"08417","name":"Zollernalbkreis","type":"Landkreis"},"federalState":{"key":"08","name":"Baden-Württemberg"}},{"name":"Jahnstr.","postalCode":"72358","locality":"Dormettingen","municipality":{"key":"08417015","name":"Dormettingen","type":"Kreisangehörige_Gemeinde"},"district":{"key":"08417","name":"Zollernalbkreis","type":"Landkreis"},"federalState":{"key":"08","name":"Baden-Württemberg"}},{"name":"Josefstr.","postalCode":"49497","locality":"Mettingen","municipality":{"key":"05566056","name":"Mettingen","type":"Kreisangehörige_Gemeinde"},"district":{"key":"05566","name":"Steinfurt","type":"Kreis"},"federalState":{"key":"05","name":"Nordrhein-Westfalen"}},{"name":"Kaffeebühlstr.","postalCode":"72358","locality":"Dormettingen","municipality":{"key":"08417015","name":"Dormettingen","type":"Kreisangehörige_Gemeinde"},"district":{"key":"08417","name":"Zollernalbkreis","type":"Landkreis"},"federalState":{"key":"08","name":"Baden-Württemberg"}},{"name":"Kardinal-von-Galen-Str.","postalCode":"49497","locality":"Mettingen","municipality":{"key":"05566056","name":"Mettingen","type":"Kreisangehörige_Gemeinde"},"district":{"key":"05566","name":"Steinfurt","type":"Kreis"},"federalState":{"key":"05","name":"Nordrhein-Westfalen"}},{"name":"Kiefernstr.","postalCode":"49497","locality":"Mettingen","municipality":{"key":"05566056","name":"Mettingen","type":"Kreisangehörige_Gemeinde"},"district":{"key":"05566","name":"Steinfurt","type":"Kreis"},"federalState":{"key":"05","name":"Nordrhein-Westfalen"}},{"name":"Kirchengäßle","postalCode":"72358","locality":"Dormettingen","municipality":{"key":"08417015","name":"Dormettingen","type":"Kreisangehörige_Gemeinde"},"district":{"key":"08417","name":"Zollernalbkreis","type":"Landkreis"},"federalState":{"key":"08","name":"Baden-Württemberg"}},{"name":"Klötterhof","postalCode":"49497","locality":"Mettingen","municipality":{"key":"05566056","name":"Mettingen","type":"Kreisangehörige_Gemeinde"},"district":{"key":"05566","name":"Steinfurt","type":"Kreis"},"federalState":{"key":"05","name":"Nordrhein-Westfalen"}},{"name":"Knappenstr.","postalCode":"49497","locality":"Mettingen","municipality":{"key":"05566056","name":"Mettingen","type":"Kreisangehörige_Gemeinde"},"district":{"key":"05566","name":"Steinfurt","type":"Kreis"},"federalState":{"key":"05","name":"Nordrhein-Westfalen"}},{"name":"Knobenesch","postalCode":"49497","locality":"Mettingen","municipality":{"key":"05566056","name":"Mettingen","type":"Kreisangehörige_Gemeinde"},"district":{"key":"05566","name":"Steinfurt","type":"Kreis"},"federalState":{"key":"05","name":"Nordrhein-Westfalen"}},{"name":"Köllbachweg","postalCode":"49497","locality":"Mettingen","municipality":{"key":"05566056","name":"Mettingen","type":"Kreisangehörige_Gemeinde"},"district":{"key":"05566","name":"Steinfurt","type":"Kreis"},"federalState":{"key":"05","name":"Nordrhein-Westfalen"}},{"name":"Köllesch","postalCode":"49497","locality":"Mettingen","municipality":{"key":"05566056","name":"Mettingen","type":"Kreisangehörige_Gemeinde"},"district":{"key":"05566","name":"Steinfurt","type":"Kreis"},"federalState":{"key":"05","name":"Nordrhein-Westfalen"}},{"name":"Kolpingstr.","postalCode":"49497","locality":"Mettingen","municipality":{"key":"05566056","name":"Mettingen","type":"Kreisangehörige_Gemeinde"},"district":{"key":"05566","name":"Steinfurt","type":"Kreis"},"federalState":{"key":"05","name":"Nordrhein-Westfalen"}},{"name":"Kowallstr.","postalCode":"49497","locality":"Mettingen","municipality":{"key":"05566056","name":"Mettingen","type":"Kreisangehörige_Gemeinde"},"district":{"key":"05566","name":"Steinfurt","type":"Kreis"},"federalState":{"key":"05","name":"Nordrhein-Westfalen"}},{"name":"Kurzer Weg","postalCode":"49497","locality":"Mettingen","municipality":{"key":"05566056","name":"Mettingen","type":"Kreisangehörige_Gemeinde"},"district":{"key":"05566","name":"Steinfurt","type":"Kreis"},"federalState":{"key":"05","name":"Nordrhein-Westfalen"}},{"name":"Landeshuter Str.","postalCode":"49497","locality":"Mettingen","municipality":{"key":"05566056","name":"Mettingen","type":"Kreisangehörige_Gemeinde"},"district":{"key":"05566","name":"Steinfurt","type":"Kreis"},"federalState":{"key":"05","name":"Nordrhein-Westfalen"}},{"name":"Landrat-Schultz-Str.","postalCode":"49497","locality":"Mettingen","municipality":{"key":"05566056","name":"Mettingen","type":"Kreisangehörige_Gemeinde"},"district":{"key":"05566","name":"Steinfurt","type":"Kreis"},"federalState":{"key":"05","name":"Nordrhein-Westfalen"}},{"name":"Lange Gasse","postalCode":"72358","locality":"Dormettingen","municipality":{"key":"08417015","name":"Dormettingen","type":"Kreisangehörige_Gemeinde"},"district":{"key":"08417","name":"Zollernalbkreis","type":"Landkreis"},"federalState":{"key":"08","name":"Baden-Württemberg"}},{"name":"Lärchenweg","postalCode":"49497","locality":"Mettingen","municipality":{"key":"05566056","name":"Mettingen","type":"Kreisangehörige_Gemeinde"},"district":{"key":"05566","name":"Steinfurt","type":"Kreis"},"federalState":{"key":"05","name":"Nordrhein-Westfalen"}},{"name":"Laukampweg","postalCode":"49497","locality":"Mettingen","municipality":{"key":"05566056","name":"Mettingen","type":"Kreisangehörige_Gemeinde"},"district":{"key":"05566","name":"Steinfurt","type":"Kreis"},"federalState":{"key":"05","name":"Nordrhein-Westfalen"}},{"name":"Lerchenweg","postalCode":"72358","locality":"Dormettingen","municipality":{"key":"08417015","name":"Dormettingen","type":"Kreisangehörige_Gemeinde"},"district":{"key":"08417","name":"Zollernalbkreis","type":"Landkreis"},"federalState":{"key":"08","name":"Baden-Württemberg"}},{"name":"Liegnitzer Str.","postalCode":"49497","locality":"Mettingen","municipality":{"key":"05566056","name":"Mettingen","type":"Kreisangehörige_Gemeinde"},"district":{"key":"05566","name":"Steinfurt","type":"Kreis"},"federalState":{"key":"05","name":"Nordrhein-Westfalen"}},{"name":"Lindenhof","postalCode":"72358","locality":"Dormettingen","municipality":{"key":"08417015","name":"Dormettingen","type":"Kreisangehörige_Gemeinde"},"district":{"key":"08417","name":"Zollernalbkreis","type":"Landkreis"},"federalState":{"key":"08","name":"Baden-Württemberg"}},{"name":"Mariengrund","postalCode":"49497","locality":"Mettingen","municipality":{"key":"05566056","name":"Mettingen","type":"Kreisangehörige_Gemeinde"},"district":{"key":"05566","name":"Steinfurt","type":"Kreis"},"federalState":{"key":"05","name":"Nordrhein-Westfalen"}},{"name":"Markt","postalCode":"49497","locality":"Mettingen","municipality":{"key":"05566056","name":"Mettingen","type":"Kreisangehörige_Gemeinde"},"district":{"key":"05566","name":"Steinfurt","type":"Kreis"},"federalState":{"key":"05","name":"Nordrhein-Westfalen"}},{"name":"Meisenstr.","postalCode":"49497","locality":"Mettingen","municipality":{"key":"05566056","name":"Mettingen","type":"Kreisangehörige_Gemeinde"},"district":{"key":"05566","name":"Steinfurt","type":"Kreis"},"federalState":{"key":"05","name":"Nordrhein-Westfalen"}},{"name":"Meisenstr.","postalCode":"72358","locality":"Dormettingen","municipality":{"key":"08417015","name":"Dormettingen","type":"Kreisangehörige_Gemeinde"},"district":{"key":"08417","name":"Zollernalbkreis","type":"Landkreis"},"federalState":{"key":"08","name":"Baden-Württemberg"}},{"name":"Merschfeld","postalCode":"49497","locality":"Mettingen","municipality":{"key":"05566056","name":"Mettingen","type":"Kreisangehörige_Gemeinde"},"district":{"key":"05566","name":"Steinfurt","type":"Kreis"},"federalState":{"key":"05","name":"Nordrhein-Westfalen"}},{"name":"Merschweg","postalCode":"49497","locality":"Mettingen","municipality":{"key":"05566056","name":"Mettingen","type":"Kreisangehörige_Gemeinde"},"district":{"key":"05566","name":"Steinfurt","type":"Kreis"},"federalState":{"key":"05","name":"Nordrhein-Westfalen"}},{"name":"Mettinger Grenze","postalCode":"49497","locality":"Mettingen","municipality":{"key":"05566056","name":"Mettingen","type":"Kreisangehörige_Gemeinde"},"district":{"key":"05566","name":"Steinfurt","type":"Kreis"},"federalState":{"key":"05","name":"Nordrhein-Westfalen"}},{"name":"Moorstr.","postalCode":"49497","locality":"Mettingen","municipality":{"key":"05566056","name":"Mettingen","type":"Kreisangehörige_Gemeinde"},"district":{"key":"05566","name":"Steinfurt","type":"Kreis"},"federalState":{"key":"05","name":"Nordrhein-Westfalen"}},{"name":"Mozartstr.","postalCode":"72358","locality":"Dormettingen","municipality":{"key":"08417015","name":"Dormettingen","type":"Kreisangehörige_Gemeinde"},"district":{"key":"08417","name":"Zollernalbkreis","type":"Landkreis"},"federalState":{"key":"08","name":"Baden-Württemberg"}},{"name":"Muckhorster Weg","postalCode":"49497","locality":"Mettingen","municipality":{"key":"05566056","name":"Mettingen","type":"Kreisangehörige_Gemeinde"},"district":{"key":"05566","name":"Steinfurt","type":"Kreis"},"federalState":{"key":"05","name":"Nordrhein-Westfalen"}},{"name":"Mühlenstr.","postalCode":"49497","locality":"Mettingen","municipality":{"key":"05566056","name":"Mettingen","type":"Kreisangehörige_Gemeinde"},"district":{"key":"05566","name":"Steinfurt","type":"Kreis"},"federalState":{"key":"05","name":"Nordrhein-Westfalen"}},{"name":"Mühlweg","postalCode":"72358","locality":"Dormettingen","municipality":{"key":"08417015","name":"Dormettingen","type":"Kreisangehörige_Gemeinde"},"district":{"key":"08417","name":"Zollernalbkreis","type":"Landkreis"},"federalState":{"key":"08","name":"Baden-Württemberg"}},{"name":"Nagelmanns Moor","postalCode":"49497","locality":"Mettingen","municipality":{"key":"05566056","name":"Mettingen","type":"Kreisangehörige_Gemeinde"},"district":{"key":"05566","name":"Steinfurt","type":"Kreis"},"federalState":{"key":"05","name":"Nordrhein-Westfalen"}},{"name":"Neue Bockradener Str.","postalCode":"49497","locality":"Mettingen","municipality":{"key":"05566056","name":"Mettingen","type":"Kreisangehörige_Gemeinde"},"district":{"key":"05566","name":"Steinfurt","type":"Kreis"},"federalState":{"key":"05","name":"Nordrhein-Westfalen"}},{"name":"Neuenkirchener Str.","postalCode":"49497","locality":"Mettingen","municipality":{"key":"05566056","name":"Mettingen","type":"Kreisangehörige_Gemeinde"},"district":{"key":"05566","name":"Steinfurt","type":"Kreis"},"federalState":{"key":"05","name":"Nordrhein-Westfalen"}},{"name":"Neue Wiesen","postalCode":"72358","locality":"Dormettingen","municipality":{"key":"08417015","name":"Dormettingen","type":"Kreisangehörige_Gemeinde"},"district":{"key":"08417","name":"Zollernalbkreis","type":"Landkreis"},"federalState":{"key":"08","name":"Baden-Württemberg"}},{"name":"Niederländer Str.","postalCode":"49497","locality":"Mettingen","municipality":{"key":"05566056","name":"Mettingen","type":"Kreisangehörige_Gemeinde"},"district":{"key":"05566","name":"Steinfurt","type":"Kreis"},"federalState":{"key":"05","name":"Nordrhein-Westfalen"}},{"name":"Nierenburger Str.","postalCode":"49497","locality":"Mettingen","municipality":{"key":"05566056","name":"Mettingen","type":"Kreisangehörige_Gemeinde"},"district":{"key":"05566","name":"Steinfurt","type":"Kreis"},"federalState":{"key":"05","name":"Nordrhein-Westfalen"}},{"name":"Nießings Kamp","postalCode":"49497","locality":"Mettingen","municipality":{"key":"05566056","name":"Mettingen","type":"Kreisangehörige_Gemeinde"},"district":{"key":"05566","name":"Steinfurt","type":"Kreis"},"federalState":{"key":"05","name":"Nordrhein-Westfalen"}},{"name":"Nordhausener Eschweg","postalCode":"49497","locality":"Mettingen","municipality":{"key":"05566056","name":"Mettingen","type":"Kreisangehörige_Gemeinde"},"district":{"key":"05566","name":"Steinfurt","type":"Kreis"},"federalState":{"key":"05","name":"Nordrhein-Westfalen"}},{"name":"Nordstr.","postalCode":"49497","locality":"Mettingen","municipality":{"key":"05566056","name":"Mettingen","type":"Kreisangehörige_Gemeinde"},"district":{"key":"05566","name":"Steinfurt","type":"Kreis"},"federalState":{"key":"05","name":"Nordrhein-Westfalen"}},{"name":"Oberbreede","postalCode":"49497","locality":"Mettingen","municipality":{"key":"05566056","name":"Mettingen","type":"Kreisangehörige_Gemeinde"},"district":{"key":"05566","name":"Steinfurt","type":"Kreis"},"federalState":{"key":"05","name":"Nordrhein-Westfalen"}},{"name":"Obere Dorfstr.","postalCode":"72358","locality":"Dormettingen","municipality":{"key":"08417015","name":"Dormettingen","type":"Kreisangehörige_Gemeinde"},"district":{"key":"08417","name":"Zollernalbkreis","type":"Landkreis"},"federalState":{"key":"08","name":"Baden-Württemberg"}},{"name":"Osnabrücker Str.","postalCode":"49497","locality":"Mettingen","municipality":{"key":"05566056","name":"Mettingen","type":"Kreisangehörige_Gemeinde"},"district":{"key":"05566","name":"Steinfurt","type":"Kreis"},"federalState":{"key":"05","name":"Nordrhein-Westfalen"}},{"name":"Overbergstr.","postalCode":"49497","locality":"Mettingen","municipality":{"key":"05566056","name":"Mettingen","type":"Kreisangehörige_Gemeinde"},"district":{"key":"05566","name":"Steinfurt","type":"Kreis"},"federalState":{"key":"05","name":"Nordrhein-Westfalen"}},{"name":"Overgünnestr.","postalCode":"49497","locality":"Mettingen","municipality":{"key":"05566056","name":"Mettingen","type":"Kreisangehörige_Gemeinde"},"district":{"key":"05566","name":"Steinfurt","type":"Kreis"},"federalState":{"key":"05","name":"Nordrhein-Westfalen"}},{"name":"Pfarrer-Hüging-Str.","postalCode":"49497","locality":"Mettingen","municipality":{"key":"05566056","name":"Mettingen","type":"Kreisangehörige_Gemeinde"},"district":{"key":"05566","name":"Steinfurt","type":"Kreis"},"federalState":{"key":"05","name":"Nordrhein-Westfalen"}},{"name":"Querenbergstr.","postalCode":"49497","locality":"Mettingen","municipality":{"key":"05566056","name":"Mettingen","type":"Kreisangehörige_Gemeinde"},"district":{"key":"05566","name":"Steinfurt","type":"Kreis"},"federalState":{"key":"05","name":"Nordrhein-Westfalen"}},{"name":"Raalter Str.","postalCode":"49497","locality":"Mettingen","municipality":{"key":"05566056","name":"Mettingen","type":"Kreisangehörige_Gemeinde"},"district":{"key":"05566","name":"Steinfurt","type":"Kreis"},"federalState":{"key":"05","name":"Nordrhein-Westfalen"}},{"name":"Raiffeisenstr.","postalCode":"72358","locality":"Dormettingen","municipality":{"key":"08417015","name":"Dormettingen","type":"Kreisangehörige_Gemeinde"},"district":{"key":"08417","name":"Zollernalbkreis","type":"Landkreis"},"federalState":{"key":"08","name":"Baden-Württemberg"}},{"name":"Recker Grenze","postalCode":"49497","locality":"Mettingen","municipality":{"key":"05566056","name":"Mettingen","type":"Kreisangehörige_Gemeinde"},"district":{"key":"05566","name":"Steinfurt","type":"Kreis"},"federalState":{"key":"05","name":"Nordrhein-Westfalen"}},{"name":"Recker Str.","postalCode":"49497","locality":"Mettingen","municipality":{"key":"05566056","name":"Mettingen","type":"Kreisangehörige_Gemeinde"},"district":{"key":"05566","name":"Steinfurt","type":"Kreis"},"federalState":{"key":"05","name":"Nordrhein-Westfalen"}},{"name":"Riedbachstr.","postalCode":"72358","locality":"Dormettingen","municipality":{"key":"08417015","name":"Dormettingen","type":"Kreisangehörige_Gemeinde"},"district":{"key":"08417","name":"Zollernalbkreis","type":"Landkreis"},"federalState":{"key":"08","name":"Baden-Württemberg"}},{"name":"Riedweg","postalCode":"49497","locality":"Mettingen","municipality":{"key":"05566056","name":"Mettingen","type":"Kreisangehörige_Gemeinde"},"district":{"key":"05566","name":"Steinfurt","type":"Kreis"},"federalState":{"key":"05","name":"Nordrhein-Westfalen"}},{"name":"Ringstr.","postalCode":"49497","locality":"Mettingen","municipality":{"key":"05566056","name":"Mettingen","type":"Kreisangehörige_Gemeinde"},"district":{"key":"05566","name":"Steinfurt","type":"Kreis"},"federalState":{"key":"05","name":"Nordrhein-Westfalen"}},{"name":"Rollbreede","postalCode":"49497","locality":"Mettingen","municipality":{"key":"05566056","name":"Mettingen","type":"Kreisangehörige_Gemeinde"},"district":{"key":"05566","name":"Steinfurt","type":"Kreis"},"federalState":{"key":"05","name":"Nordrhein-Westfalen"}},{"name":"Rosenstr.","postalCode":"72358","locality":"Dormettingen","municipality":{"key":"08417015","name":"Dormettingen","type":"Kreisangehörige_Gemeinde"},"district":{"key":"08417","name":"Zollernalbkreis","type":"Landkreis"},"federalState":{"key":"08","name":"Baden-Württemberg"}},{"name":"Rostocker Ring","postalCode":"49497","locality":"Mettingen","municipality":{"key":"05566056","name":"Mettingen","type":"Kreisangehörige_Gemeinde"},"district":{"key":"05566","name":"Steinfurt","type":"Kreis"},"federalState":{"key":"05","name":"Nordrhein-Westfalen"}},{"name":"Schäfenloch","postalCode":"72358","locality":"Dormettingen","municipality":{"key":"08417015","name":"Dormettingen","type":"Kreisangehörige_Gemeinde"},"district":{"key":"08417","name":"Zollernalbkreis","type":"Landkreis"},"federalState":{"key":"08","name":"Baden-Württemberg"}},{"name":"Schillerstr.","postalCode":"72358","locality":"Dormettingen","municipality":{"key":"08417015","name":"Dormettingen","type":"Kreisangehörige_Gemeinde"},"district":{"key":"08417","name":"Zollernalbkreis","type":"Landkreis"},"federalState":{"key":"08","name":"Baden-Württemberg"}},{"name":"Schlangenpättken","postalCode":"49497","locality":"Mettingen","municipality":{"key":"05566056","name":"Mettingen","type":"Kreisangehörige_Gemeinde"},"district":{"key":"05566","name":"Steinfurt","type":"Kreis"},"federalState":{"key":"05","name":"Nordrhein-Westfalen"}},{"name":"Schlehenweg","postalCode":"49497","locality":"Mettingen","municipality":{"key":"05566056","name":"Mettingen","type":"Kreisangehörige_Gemeinde"},"district":{"key":"05566","name":"Steinfurt","type":"Kreis"},"federalState":{"key":"05","name":"Nordrhein-Westfalen"}},{"name":"Schniederbergstr.","postalCode":"49497","locality":"Mettingen","municipality":{"key":"05566056","name":"Mettingen","type":"Kreisangehörige_Gemeinde"},"district":{"key":"05566","name":"Steinfurt","type":"Kreis"},"federalState":{"key":"05","name":"Nordrhein-Westfalen"}},{"name":"Schulstr.","postalCode":"72358","locality":"Dormettingen","municipality":{"key":"08417015","name":"Dormettingen","type":"Kreisangehörige_Gemeinde"},"district":{"key":"08417","name":"Zollernalbkreis","type":"Landkreis"},"federalState":{"key":"08","name":"Baden-Württemberg"}},{"name":"Schultenstr.","postalCode":"49497","locality":"Mettingen","municipality":{"key":"05566056","name":"Mettingen","type":"Kreisangehörige_Gemeinde"},"district":{"key":"05566","name":"Steinfurt","type":"Kreis"},"federalState":{"key":"05","name":"Nordrhein-Westfalen"}},{"name":"Schwalbenweg","postalCode":"72358","locality":"Dormettingen","municipality":{"key":"08417015","name":"Dormettingen","type":"Kreisangehörige_Gemeinde"},"district":{"key":"08417","name":"Zollernalbkreis","type":"Landkreis"},"federalState":{"key":"08","name":"Baden-Württemberg"}},{"name":"Schwarze Str.","postalCode":"49497","locality":"Mettingen","municipality":{"key":"05566056","name":"Mettingen","type":"Kreisangehörige_Gemeinde"},"district":{"key":"05566","name":"Steinfurt","type":"Kreis"},"federalState":{"key":"05","name":"Nordrhein-Westfalen"}},{"name":"Schweriner Str.","postalCode":"49497","locality":"Mettingen","municipality":{"key":"05566056","name":"Mettingen","type":"Kreisangehörige_Gemeinde"},"district":{"key":"05566","name":"Steinfurt","type":"Kreis"},"federalState":{"key":"05","name":"Nordrhein-Westfalen"}},{"name":"Silcherstr.","postalCode":"72358","locality":"Dormettingen","municipality":{"key":"08417015","name":"Dormettingen","type":"Kreisangehörige_Gemeinde"},"district":{"key":"08417","name":"Zollernalbkreis","type":"Landkreis"},"federalState":{"key":"08","name":"Baden-Württemberg"}},{"name":"Sonnenstr.","postalCode":"49497","locality":"Mettingen","municipality":{"key":"05566056","name":"Mettingen","type":"Kreisangehörige_Gemeinde"},"district":{"key":"05566","name":"Steinfurt","type":"Kreis"},"federalState":{"key":"05","name":"Nordrhein-Westfalen"}},{"name":"Spielplatzweg","postalCode":"49497","locality":"Mettingen","municipality":{"key":"05566056","name":"Mettingen","type":"Kreisangehörige_Gemeinde"},"district":{"key":"05566","name":"Steinfurt","type":"Kreis"},"federalState":{"key":"05","name":"Nordrhein-Westfalen"}},{"name":"Stauffenbergstr.","postalCode":"49497","locality":"Mettingen","municipality":{"key":"05566056","name":"Mettingen","type":"Kreisangehörige_Gemeinde"},"district":{"key":"05566","name":"Steinfurt","type":"Kreis"},"federalState":{"key":"05","name":"Nordrhein-Westfalen"}},{"name":"Steigle","postalCode":"72358","locality":"Dormettingen","municipality":{"key":"08417015","name":"Dormettingen","type":"Kreisangehörige_Gemeinde"},"district":{"key":"08417","name":"Zollernalbkreis","type":"Landkreis"},"federalState":{"key":"08","name":"Baden-Württemberg"}},{"name":"Steinbreede","postalCode":"49497","locality":"Mettingen","municipality":{"key":"05566056","name":"Mettingen","type":"Kreisangehörige_Gemeinde"},"district":{"key":"05566","name":"Steinfurt","type":"Kreis"},"federalState":{"key":"05","name":"Nordrhein-Westfalen"}},{"name":"Strootbreede","postalCode":"49497","locality":"Mettingen","municipality":{"key":"05566056","name":"Mettingen","type":"Kreisangehörige_Gemeinde"},"district":{"key":"05566","name":"Steinfurt","type":"Kreis"},"federalState":{"key":"05","name":"Nordrhein-Westfalen"}},{"name":"Südstr.","postalCode":"49497","locality":"Mettingen","municipality":{"key":"05566056","name":"Mettingen","type":"Kreisangehörige_Gemeinde"},"district":{"key":"05566","name":"Steinfurt","type":"Kreis"},"federalState":{"key":"05","name":"Nordrhein-Westfalen"}},{"name":"Sunderstr.","postalCode":"49497","locality":"Mettingen","municipality":{"key":"05566056","name":"Mettingen","type":"Kreisangehörige_Gemeinde"},"district":{"key":"05566","name":"Steinfurt","type":"Kreis"},"federalState":{"key":"05","name":"Nordrhein-Westfalen"}},{"name":"Taubenstr.","postalCode":"49497","locality":"Mettingen","municipality":{"key":"05566056","name":"Mettingen","type":"Kreisangehörige_Gemeinde"},"district":{"key":"05566","name":"Steinfurt","type":"Kreis"},"federalState":{"key":"05","name":"Nordrhein-Westfalen"}},{"name":"Teichstr.","postalCode":"49497","locality":"Mettingen","municipality":{"key":"05566056","name":"Mettingen","type":"Kreisangehörige_Gemeinde"},"district":{"key":"05566","name":"Steinfurt","type":"Kreis"},"federalState":{"key":"05","name":"Nordrhein-Westfalen"}},{"name":"Ten-Brinken-Str.","postalCode":"49497","locality":"Mettingen","municipality":{"key":"05566056","name":"Mettingen","type":"Kreisangehörige_Gemeinde"},"district":{"key":"05566","name":"Steinfurt","type":"Kreis"},"federalState":{"key":"05","name":"Nordrhein-Westfalen"}},{"name":"Untere Höhe","postalCode":"72358","locality":"Dormettingen","municipality":{"key":"08417015","name":"Dormettingen","type":"Kreisangehörige_Gemeinde"},"district":{"key":"08417","name":"Zollernalbkreis","type":"Landkreis"},"federalState":{"key":"08","name":"Baden-Württemberg"}},{"name":"Unterer Weg","postalCode":"72358","locality":"Dormettingen","municipality":{"key":"08417015","name":"Dormettingen","type":"Kreisangehörige_Gemeinde"},"district":{"key":"08417","name":"Zollernalbkreis","type":"Landkreis"},"federalState":{"key":"08","name":"Baden-Württemberg"}},{"name":"Up'n Wall","postalCode":"49497","locality":"Mettingen","municipality":{"key":"05566056","name":"Mettingen","type":"Kreisangehörige_Gemeinde"},"district":{"key":"05566","name":"Steinfurt","type":"Kreis"},"federalState":{"key":"05","name":"Nordrhein-Westfalen"}},{"name":"von-Ketteler-Str.","postalCode":"49497","locality":"Mettingen","municipality":{"key":"05566056","name":"Mettingen","type":"Kreisangehörige_Gemeinde"},"district":{"key":"05566","name":"Steinfurt","type":"Kreis"},"federalState":{"key":"05","name":"Nordrhein-Westfalen"}},{"name":"Vor den Kämpen","postalCode":"49497","locality":"Mettingen","municipality":{"key":"05566056","name":"Mettingen","type":"Kreisangehörige_Gemeinde"},"district":{"key":"05566","name":"Steinfurt","type":"Kreis"},"federalState":{"key":"05","name":"Nordrhein-Westfalen"}},{"name":"Wacholderweg","postalCode":"49497","locality":"Mettingen","municipality":{"key":"05566056","name":"Mettingen","type":"Kreisangehörige_Gemeinde"},"district":{"key":"05566","name":"Steinfurt","type":"Kreis"},"federalState":{"key":"05","name":"Nordrhein-Westfalen"}},{"name":"Wagenfeldstr.","postalCode":"49497","locality":"Mettingen","municipality":{"key":"05566056","name":"Mettingen","type":"Kreisangehörige_Gemeinde"},"district":{"key":"05566","name":"Steinfurt","type":"Kreis"},"federalState":{"key":"05","name":"Nordrhein-Westfalen"}},{"name":"Waldenburger Str.","postalCode":"49497","locality":"Mettingen","municipality":{"key":"05566056","name":"Mettingen","type":"Kreisangehörige_Gemeinde"},"district":{"key":"05566","name":"Steinfurt","type":"Kreis"},"federalState":{"key":"05","name":"Nordrhein-Westfalen"}},{"name":"Waldweg","postalCode":"49497","locality":"Mettingen","municipality":{"key":"05566056","name":"Mettingen","type":"Kreisangehörige_Gemeinde"},"district":{"key":"05566","name":"Steinfurt","type":"Kreis"},"federalState":{"key":"05","name":"Nordrhein-Westfalen"}},{"name":"Wariner Str.","postalCode":"49497","locality":"Mettingen","municipality":{"key":"05566056","name":"Mettingen","type":"Kreisangehörige_Gemeinde"},"district":{"key":"05566","name":"Steinfurt","type":"Kreis"},"federalState":{"key":"05","name":"Nordrhein-Westfalen"}},{"name":"Wasenstr.","postalCode":"72358","locality":"Dormettingen","municipality":{"key":"08417015","name":"Dormettingen","type":"Kreisangehörige_Gemeinde"},"district":{"key":"08417","name":"Zollernalbkreis","type":"Landkreis"},"federalState":{"key":"08","name":"Baden-Württemberg"}},{"name":"Webergasse","postalCode":"72358","locality":"Dormettingen","municipality":{"key":"08417015","name":"Dormettingen","type":"Kreisangehörige_Gemeinde"},"district":{"key":"08417","name":"Zollernalbkreis","type":"Landkreis"},"federalState":{"key":"08","name":"Baden-Württemberg"}},{"name":"Westeresch","postalCode":"49497","locality":"Mettingen","municipality":{"key":"05566056","name":"Mettingen","type":"Kreisangehörige_Gemeinde"},"district":{"key":"05566","name":"Steinfurt","type":"Kreis"},"federalState":{"key":"05","name":"Nordrhein-Westfalen"}},{"name":"Westerkappelner Str.","postalCode":"49497","locality":"Mettingen","municipality":{"key":"05566056","name":"Mettingen","type":"Kreisangehörige_Gemeinde"},"district":{"key":"05566","name":"Steinfurt","type":"Kreis"},"federalState":{"key":"05","name":"Nordrhein-Westfalen"}},{"name":"Wibbeltstr.","postalCode":"49497","locality":"Mettingen","municipality":{"key":"05566056","name":"Mettingen","type":"Kreisangehörige_Gemeinde"},"district":{"key":"05566","name":"Steinfurt","type":"Kreis"},"federalState":{"key":"05","name":"Nordrhein-Westfalen"}},{"name":"Wieher Eschweg","postalCode":"49497","locality":"Mettingen","municipality":{"key":"05566056","name":"Mettingen","type":"Kreisangehörige_Gemeinde"},"district":{"key":"05566","name":"Steinfurt","type":"Kreis"},"federalState":{"key":"05","name":"Nordrhein-Westfalen"}},{"name":"Wieher Kirchweg","postalCode":"49497","locality":"Mettingen","municipality":{"key":"05566056","name":"Mettingen","type":"Kreisangehörige_Gemeinde"},"district":{"key":"05566","name":"Steinfurt","type":"Kreis"},"federalState":{"key":"05","name":"Nordrhein-Westfalen"}},{"name":"Wiesenweg","postalCode":"49497","locality":"Mettingen","municipality":{"key":"05566056","name":"Mettingen","type":"Kreisangehörige_Gemeinde"},"district":{"key":"05566","name":"Steinfurt","type":"Kreis"},"federalState":{"key":"05","name":"Nordrhein-Westfalen"}},{"name":"Wilhelm-Busch-Str.","postalCode":"49497","locality":"Mettingen","municipality":{"key":"05566056","name":"Mettingen","type":"Kreisangehörige_Gemeinde"},"district":{"key":"05566","name":"Steinfurt","type":"Kreis"},"federalState":{"key":"05","name":"Nordrhein-Westfalen"}},{"name":"Windmühlenweg","postalCode":"49497","locality":"Mettingen","municipality":{"key":"05566056","name":"Mettingen","type":"Kreisangehörige_Gemeinde"},"district":{"key":"05566","name":"Steinfurt","type":"Kreis"},"federalState":{"key":"05","name":"Nordrhein-Westfalen"}},{"name":"Winkelgasse","postalCode":"72358","locality":"Dormettingen","municipality":{"key":"08417015","name":"Dormettingen","type":"Kreisangehörige_Gemeinde"},"district":{"key":"08417","name":"Zollernalbkreis","type":"Landkreis"},"federalState":{"key":"08","name":"Baden-Württemberg"}},{"name":"Wismarer Str.","postalCode":"49497","locality":"Mettingen","municipality":{"key":"05566056","name":"Mettingen","type":"Kreisangehörige_Gemeinde"},"district":{"key":"05566","name":"Steinfurt","type":"Kreis"},"federalState":{"key":"05","name":"Nordrhein-Westfalen"}},{"name":"Woorteweg","postalCode":"49497","locality":"Mettingen","municipality":{"key":"05566056","name":"Mettingen","type":"Kreisangehörige_Gemeinde"},"district":{"key":"05566","name":"Steinfurt","type":"Kreis"},"federalState":{"key":"05","name":"Nordrhein-Westfalen"}},{"name":"Wöstenstr.","postalCode":"49497","locality":"Mettingen","municipality":{"key":"05566056","name":"Mettingen","type":"Kreisangehörige_Gemeinde"},"district":{"key":"05566","name":"Steinfurt","type":"Kreis"},"federalState":{"key":"05","name":"Nordrhein-Westfalen"}},{"name":"Wulwesweg","postalCode":"49497","locality":"Mettingen","municipality":{"key":"05566056","name":"Mettingen","type":"Kreisangehörige_Gemeinde"},"district":{"key":"05566","name":"Steinfurt","type":"Kreis"},"federalState":{"key":"05","name":"Nordrhein-Westfalen"}},{"name":"Zum Kippkesberg","postalCode":"49497","locality":"Mettingen","municipality":{"key":"05566056","name":"Mettingen","type":"Kreisangehörige_Gemeinde"},"district":{"key":"05566","name":"Steinfurt","type":"Kreis"},"federalState":{"key":"05","name":"Nordrhein-Westfalen"}},{"name":"Zum Liethof","postalCode":"49497","locality":"Mettingen","municipality":{"key":"05566056","name":"Mettingen","type":"Kreisangehörige_Gemeinde"},"district":{"key":"05566","name":"Steinfurt","type":"Kreis"},"federalState":{"key":"05","name":"Nordrhein-Westfalen"}},{"name":"Zum Nordschacht","postalCode":"49497","locality":"Mettingen","municipality":{"key":"05566056","name":"Mettingen","type":"Kreisangehörige_Gemeinde"},"district":{"key":"05566","name":"Steinfurt","type":"Kreis"},"federalState":{"key":"05","name":"Nordrhein-Westfalen"}},{"name":"Zum Wittenbrink","postalCode":"49497","locality":"Mettingen","municipality":{"key":"05566056","name":"Mettingen","type":"Kreisangehörige_Gemeinde"},"district":{"key":"05566","name":"Steinfurt","type":"Kreis"},"federalState":{"key":"05","name":"Nordrhein-Westfalen"}},{"name":"Zur Heinrichshöhe","postalCode":"49497","locality":"Mettingen","municipality":{"key":"05566056","name":"Mettingen","type":"Kreisangehörige_Gemeinde"},"district":{"key":"05566","name":"Steinfurt","type":"Kreis"},"federalState":{"key":"05","name":"Nordrhein-Westfalen"}},{"name":"Äußere Dorfstr.","postalCode":"72358","locality":"Dormettingen","municipality":{"key":"08417015","name":"Dormettingen","type":"Kreisangehörige_Gemeinde"},"district":{"key":"08417","name":"Zollernalbkreis","type":"Landkreis"},"federalState":{"key":"08","name":"Baden-Württemberg"}},]