[{"name":"Akazienweg","postalCode":"55595","locality":"Weinsheim","municipality":{"key":"07133112","name":"Weinsheim","type":"Kreisangehörige_Gemeinde"},"district":{"key":"07133","name":"Bad Kreuznach","type":"Landkreis"},"federalState":{"key":"07","name":"Rheinland-Pfalz"}},{"name":"Am Acker","postalCode":"54595","locality":"Weinsheim","municipality":{"key":"07232226","name":"Weinsheim","type":"Kreisangehörige_Gemeinde"},"district":{"key":"07232","name":"Eifelkreis Bitburg-Prüm","type":"Landkreis"},"federalState":{"key":"07","name":"Rheinland-Pfalz"}},{"name":"Am Bach","postalCode":"54595","locality":"Weinsheim","municipality":{"key":"07232226","name":"Weinsheim","type":"Kreisangehörige_Gemeinde"},"district":{"key":"07232","name":"Eifelkreis Bitburg-Prüm","type":"Landkreis"},"federalState":{"key":"07","name":"Rheinland-Pfalz"}},{"name":"Am Born","postalCode":"54595","locality":"Weinsheim","municipality":{"key":"07232226","name":"Weinsheim","type":"Kreisangehörige_Gemeinde"},"district":{"key":"07232","name":"Eifelkreis Bitburg-Prüm","type":"Landkreis"},"federalState":{"key":"07","name":"Rheinland-Pfalz"}},{"name":"Am Fossgraben","postalCode":"55595","locality":"Weinsheim","municipality":{"key":"07133112","name":"Weinsheim","type":"Kreisangehörige_Gemeinde"},"district":{"key":"07133","name":"Bad Kreuznach","type":"Landkreis"},"federalState":{"key":"07","name":"Rheinland-Pfalz"}},{"name":"Am Hang","postalCode":"54595","locality":"Weinsheim","municipality":{"key":"07232226","name":"Weinsheim","type":"Kreisangehörige_Gemeinde"},"district":{"key":"07232","name":"Eifelkreis Bitburg-Prüm","type":"Landkreis"},"federalState":{"key":"07","name":"Rheinland-Pfalz"}},{"name":"Am Hasselbach","postalCode":"55595","locality":"Weinsheim","municipality":{"key":"07133112","name":"Weinsheim","type":"Kreisangehörige_Gemeinde"},"district":{"key":"07133","name":"Bad Kreuznach","type":"Landkreis"},"federalState":{"key":"07","name":"Rheinland-Pfalz"}},{"name":"Am Kramberg","postalCode":"54595","locality":"Weinsheim","municipality":{"key":"07232226","name":"Weinsheim","type":"Kreisangehörige_Gemeinde"},"district":{"key":"07232","name":"Eifelkreis Bitburg-Prüm","type":"Landkreis"},"federalState":{"key":"07","name":"Rheinland-Pfalz"}},{"name":"Am Riethgen","postalCode":"54595","locality":"Weinsheim","municipality":{"key":"07232226","name":"Weinsheim","type":"Kreisangehörige_Gemeinde"},"district":{"key":"07232","name":"Eifelkreis Bitburg-Prüm","type":"Landkreis"},"federalState":{"key":"07","name":"Rheinland-Pfalz"}},{"name":"Am Römerberg","postalCode":"55595","locality":"Weinsheim","municipality":{"key":"07133112","name":"Weinsheim","type":"Kreisangehörige_Gemeinde"},"district":{"key":"07133","name":"Bad Kreuznach","type":"Landkreis"},"federalState":{"key":"07","name":"Rheinland-Pfalz"}},{"name":"Am Rotenberg","postalCode":"55595","locality":"Weinsheim","municipality":{"key":"07133112","name":"Weinsheim","type":"Kreisangehörige_Gemeinde"},"district":{"key":"07133","name":"Bad Kreuznach","type":"Landkreis"},"federalState":{"key":"07","name":"Rheinland-Pfalz"}},{"name":"Am Steineberg","postalCode":"54595","locality":"Weinsheim","municipality":{"key":"07232226","name":"Weinsheim","type":"Kreisangehörige_Gemeinde"},"district":{"key":"07232","name":"Eifelkreis Bitburg-Prüm","type":"Landkreis"},"federalState":{"key":"07","name":"Rheinland-Pfalz"}},{"name":"Auf dem Bungert","postalCode":"54595","locality":"Weinsheim","municipality":{"key":"07232226","name":"Weinsheim","type":"Kreisangehörige_Gemeinde"},"district":{"key":"07232","name":"Eifelkreis Bitburg-Prüm","type":"Landkreis"},"federalState":{"key":"07","name":"Rheinland-Pfalz"}},{"name":"Auf dem Hörnchen","postalCode":"55595","locality":"Weinsheim","municipality":{"key":"07133112","name":"Weinsheim","type":"Kreisangehörige_Gemeinde"},"district":{"key":"07133","name":"Bad Kreuznach","type":"Landkreis"},"federalState":{"key":"07","name":"Rheinland-Pfalz"}},{"name":"Auf dem Palmstein","postalCode":"55595","locality":"Weinsheim","municipality":{"key":"07133112","name":"Weinsheim","type":"Kreisangehörige_Gemeinde"},"district":{"key":"07133","name":"Bad Kreuznach","type":"Landkreis"},"federalState":{"key":"07","name":"Rheinland-Pfalz"}},{"name":"Auf der Schlund","postalCode":"54595","locality":"Weinsheim","municipality":{"key":"07232226","name":"Weinsheim","type":"Kreisangehörige_Gemeinde"},"district":{"key":"07232","name":"Eifelkreis Bitburg-Prüm","type":"Landkreis"},"federalState":{"key":"07","name":"Rheinland-Pfalz"}},{"name":"Auf der Subach","postalCode":"54595","locality":"Weinsheim","municipality":{"key":"07232226","name":"Weinsheim","type":"Kreisangehörige_Gemeinde"},"district":{"key":"07232","name":"Eifelkreis Bitburg-Prüm","type":"Landkreis"},"federalState":{"key":"07","name":"Rheinland-Pfalz"}},{"name":"Auf Hauwert","postalCode":"54595","locality":"Weinsheim","municipality":{"key":"07232226","name":"Weinsheim","type":"Kreisangehörige_Gemeinde"},"district":{"key":"07232","name":"Eifelkreis Bitburg-Prüm","type":"Landkreis"},"federalState":{"key":"07","name":"Rheinland-Pfalz"}},{"name":"Auf Hostert","postalCode":"54595","locality":"Weinsheim","municipality":{"key":"07232226","name":"Weinsheim","type":"Kreisangehörige_Gemeinde"},"district":{"key":"07232","name":"Eifelkreis Bitburg-Prüm","type":"Landkreis"},"federalState":{"key":"07","name":"Rheinland-Pfalz"}},{"name":"Auf Prüfeld","postalCode":"54595","locality":"Weinsheim","municipality":{"key":"07232226","name":"Weinsheim","type":"Kreisangehörige_Gemeinde"},"district":{"key":"07232","name":"Eifelkreis Bitburg-Prüm","type":"Landkreis"},"federalState":{"key":"07","name":"Rheinland-Pfalz"}},{"name":"Backesberg","postalCode":"54595","locality":"Weinsheim","municipality":{"key":"07232226","name":"Weinsheim","type":"Kreisangehörige_Gemeinde"},"district":{"key":"07232","name":"Eifelkreis Bitburg-Prüm","type":"Landkreis"},"federalState":{"key":"07","name":"Rheinland-Pfalz"}},{"name":"Backesgasse","postalCode":"55595","locality":"Weinsheim","municipality":{"key":"07133112","name":"Weinsheim","type":"Kreisangehörige_Gemeinde"},"district":{"key":"07133","name":"Bad Kreuznach","type":"Landkreis"},"federalState":{"key":"07","name":"Rheinland-Pfalz"}},{"name":"Bahnhofstr.","postalCode":"54595","locality":"Weinsheim","municipality":{"key":"07232226","name":"Weinsheim","type":"Kreisangehörige_Gemeinde"},"district":{"key":"07232","name":"Eifelkreis Bitburg-Prüm","type":"Landkreis"},"federalState":{"key":"07","name":"Rheinland-Pfalz"}},{"name":"Bahnhofstr.","postalCode":"55595","locality":"Weinsheim","municipality":{"key":"07133112","name":"Weinsheim","type":"Kreisangehörige_Gemeinde"},"district":{"key":"07133","name":"Bad Kreuznach","type":"Landkreis"},"federalState":{"key":"07","name":"Rheinland-Pfalz"}},{"name":"Bergstr.","postalCode":"55595","locality":"Weinsheim","municipality":{"key":"07133112","name":"Weinsheim","type":"Kreisangehörige_Gemeinde"},"district":{"key":"07133","name":"Bad Kreuznach","type":"Landkreis"},"federalState":{"key":"07","name":"Rheinland-Pfalz"}},{"name":"Birkenweg","postalCode":"54595","locality":"Weinsheim","municipality":{"key":"07232226","name":"Weinsheim","type":"Kreisangehörige_Gemeinde"},"district":{"key":"07232","name":"Eifelkreis Bitburg-Prüm","type":"Landkreis"},"federalState":{"key":"07","name":"Rheinland-Pfalz"}},{"name":"Brigittenweg","postalCode":"54595","locality":"Weinsheim","municipality":{"key":"07232226","name":"Weinsheim","type":"Kreisangehörige_Gemeinde"},"district":{"key":"07232","name":"Eifelkreis Bitburg-Prüm","type":"Landkreis"},"federalState":{"key":"07","name":"Rheinland-Pfalz"}},{"name":"Brückenstr.","postalCode":"54595","locality":"Weinsheim","municipality":{"key":"07232226","name":"Weinsheim","type":"Kreisangehörige_Gemeinde"},"district":{"key":"07232","name":"Eifelkreis Bitburg-Prüm","type":"Landkreis"},"federalState":{"key":"07","name":"Rheinland-Pfalz"}},{"name":"Bungscheid","postalCode":"54595","locality":"Weinsheim","municipality":{"key":"07232226","name":"Weinsheim","type":"Kreisangehörige_Gemeinde"},"district":{"key":"07232","name":"Eifelkreis Bitburg-Prüm","type":"Landkreis"},"federalState":{"key":"07","name":"Rheinland-Pfalz"}},{"name":"Dausfelder Str.","postalCode":"54595","locality":"Weinsheim","municipality":{"key":"07232226","name":"Weinsheim","type":"Kreisangehörige_Gemeinde"},"district":{"key":"07232","name":"Eifelkreis Bitburg-Prüm","type":"Landkreis"},"federalState":{"key":"07","name":"Rheinland-Pfalz"}},{"name":"Ellerbachstr.","postalCode":"55595","locality":"Weinsheim","municipality":{"key":"07133112","name":"Weinsheim","type":"Kreisangehörige_Gemeinde"},"district":{"key":"07133","name":"Bad Kreuznach","type":"Landkreis"},"federalState":{"key":"07","name":"Rheinland-Pfalz"}},{"name":"Fritz-Bohr-Str.","postalCode":"55595","locality":"Weinsheim","municipality":{"key":"07133112","name":"Weinsheim","type":"Kreisangehörige_Gemeinde"},"district":{"key":"07133","name":"Bad Kreuznach","type":"Landkreis"},"federalState":{"key":"07","name":"Rheinland-Pfalz"}},{"name":"Fronenberg","postalCode":"55595","locality":"Weinsheim","municipality":{"key":"07133112","name":"Weinsheim","type":"Kreisangehörige_Gemeinde"},"district":{"key":"07133","name":"Bad Kreuznach","type":"Landkreis"},"federalState":{"key":"07","name":"Rheinland-Pfalz"}},{"name":"Gartenstr.","postalCode":"54595","locality":"Weinsheim","municipality":{"key":"07232226","name":"Weinsheim","type":"Kreisangehörige_Gemeinde"},"district":{"key":"07232","name":"Eifelkreis Bitburg-Prüm","type":"Landkreis"},"federalState":{"key":"07","name":"Rheinland-Pfalz"}},{"name":"Gruschelheck","postalCode":"55595","locality":"Weinsheim","municipality":{"key":"07133112","name":"Weinsheim","type":"Kreisangehörige_Gemeinde"},"district":{"key":"07133","name":"Bad Kreuznach","type":"Landkreis"},"federalState":{"key":"07","name":"Rheinland-Pfalz"}},{"name":"Hamburger Str.","postalCode":"54595","locality":"Weinsheim","municipality":{"key":"07232226","name":"Weinsheim","type":"Kreisangehörige_Gemeinde"},"district":{"key":"07232","name":"Eifelkreis Bitburg-Prüm","type":"Landkreis"},"federalState":{"key":"07","name":"Rheinland-Pfalz"}},{"name":"Heiligenweg","postalCode":"54595","locality":"Weinsheim","municipality":{"key":"07232226","name":"Weinsheim","type":"Kreisangehörige_Gemeinde"},"district":{"key":"07232","name":"Eifelkreis Bitburg-Prüm","type":"Landkreis"},"federalState":{"key":"07","name":"Rheinland-Pfalz"}},{"name":"Hennikerweg","postalCode":"54595","locality":"Weinsheim","municipality":{"key":"07232226","name":"Weinsheim","type":"Kreisangehörige_Gemeinde"},"district":{"key":"07232","name":"Eifelkreis Bitburg-Prüm","type":"Landkreis"},"federalState":{"key":"07","name":"Rheinland-Pfalz"}},{"name":"Hubertusblick","postalCode":"54595","locality":"Weinsheim","municipality":{"key":"07232226","name":"Weinsheim","type":"Kreisangehörige_Gemeinde"},"district":{"key":"07232","name":"Eifelkreis Bitburg-Prüm","type":"Landkreis"},"federalState":{"key":"07","name":"Rheinland-Pfalz"}},{"name":"Hubertusweg","postalCode":"54595","locality":"Weinsheim","municipality":{"key":"07232226","name":"Weinsheim","type":"Kreisangehörige_Gemeinde"},"district":{"key":"07232","name":"Eifelkreis Bitburg-Prüm","type":"Landkreis"},"federalState":{"key":"07","name":"Rheinland-Pfalz"}},{"name":"Hüffelsheimer Str.","postalCode":"55595","locality":"Weinsheim","municipality":{"key":"07133112","name":"Weinsheim","type":"Kreisangehörige_Gemeinde"},"district":{"key":"07133","name":"Bad Kreuznach","type":"Landkreis"},"federalState":{"key":"07","name":"Rheinland-Pfalz"}},{"name":"Hundsgasse","postalCode":"55595","locality":"Weinsheim","municipality":{"key":"07133112","name":"Weinsheim","type":"Kreisangehörige_Gemeinde"},"district":{"key":"07133","name":"Bad Kreuznach","type":"Landkreis"},"federalState":{"key":"07","name":"Rheinland-Pfalz"}},{"name":"Im Auelsecken","postalCode":"54595","locality":"Weinsheim","municipality":{"key":"07232226","name":"Weinsheim","type":"Kreisangehörige_Gemeinde"},"district":{"key":"07232","name":"Eifelkreis Bitburg-Prüm","type":"Landkreis"},"federalState":{"key":"07","name":"Rheinland-Pfalz"}},{"name":"Im Gäßchen","postalCode":"54595","locality":"Weinsheim","municipality":{"key":"07232226","name":"Weinsheim","type":"Kreisangehörige_Gemeinde"},"district":{"key":"07232","name":"Eifelkreis Bitburg-Prüm","type":"Landkreis"},"federalState":{"key":"07","name":"Rheinland-Pfalz"}},{"name":"Im Wiesengrund","postalCode":"54595","locality":"Weinsheim","municipality":{"key":"07232226","name":"Weinsheim","type":"Kreisangehörige_Gemeinde"},"district":{"key":"07232","name":"Eifelkreis Bitburg-Prüm","type":"Landkreis"},"federalState":{"key":"07","name":"Rheinland-Pfalz"}},{"name":"Im Winkel","postalCode":"55595","locality":"Weinsheim","municipality":{"key":"07133112","name":"Weinsheim","type":"Kreisangehörige_Gemeinde"},"district":{"key":"07133","name":"Bad Kreuznach","type":"Landkreis"},"federalState":{"key":"07","name":"Rheinland-Pfalz"}},{"name":"Im Zillertal","postalCode":"54595","locality":"Weinsheim","municipality":{"key":"07232226","name":"Weinsheim","type":"Kreisangehörige_Gemeinde"},"district":{"key":"07232","name":"Eifelkreis Bitburg-Prüm","type":"Landkreis"},"federalState":{"key":"07","name":"Rheinland-Pfalz"}},{"name":"In der Kripp","postalCode":"55595","locality":"Weinsheim","municipality":{"key":"07133112","name":"Weinsheim","type":"Kreisangehörige_Gemeinde"},"district":{"key":"07133","name":"Bad Kreuznach","type":"Landkreis"},"federalState":{"key":"07","name":"Rheinland-Pfalz"}},{"name":"In der Lay","postalCode":"55595","locality":"Weinsheim","municipality":{"key":"07133112","name":"Weinsheim","type":"Kreisangehörige_Gemeinde"},"district":{"key":"07133","name":"Bad Kreuznach","type":"Landkreis"},"federalState":{"key":"07","name":"Rheinland-Pfalz"}},{"name":"Jakobsberg","postalCode":"55595","locality":"Weinsheim","municipality":{"key":"07133112","name":"Weinsheim","type":"Kreisangehörige_Gemeinde"},"district":{"key":"07133","name":"Bad Kreuznach","type":"Landkreis"},"federalState":{"key":"07","name":"Rheinland-Pfalz"}},{"name":"Kaffeegasse","postalCode":"55595","locality":"Weinsheim","municipality":{"key":"07133112","name":"Weinsheim","type":"Kreisangehörige_Gemeinde"},"district":{"key":"07133","name":"Bad Kreuznach","type":"Landkreis"},"federalState":{"key":"07","name":"Rheinland-Pfalz"}},{"name":"Kahlbach","postalCode":"54595","locality":"Weinsheim","municipality":{"key":"07232226","name":"Weinsheim","type":"Kreisangehörige_Gemeinde"},"district":{"key":"07232","name":"Eifelkreis Bitburg-Prüm","type":"Landkreis"},"federalState":{"key":"07","name":"Rheinland-Pfalz"}},{"name":"Kastanienweg","postalCode":"54595","locality":"Weinsheim","municipality":{"key":"07232226","name":"Weinsheim","type":"Kreisangehörige_Gemeinde"},"district":{"key":"07232","name":"Eifelkreis Bitburg-Prüm","type":"Landkreis"},"federalState":{"key":"07","name":"Rheinland-Pfalz"}},{"name":"Kirchblick","postalCode":"55595","locality":"Weinsheim","municipality":{"key":"07133112","name":"Weinsheim","type":"Kreisangehörige_Gemeinde"},"district":{"key":"07133","name":"Bad Kreuznach","type":"Landkreis"},"federalState":{"key":"07","name":"Rheinland-Pfalz"}},{"name":"Kirchgasse","postalCode":"55595","locality":"Weinsheim","municipality":{"key":"07133112","name":"Weinsheim","type":"Kreisangehörige_Gemeinde"},"district":{"key":"07133","name":"Bad Kreuznach","type":"Landkreis"},"federalState":{"key":"07","name":"Rheinland-Pfalz"}},{"name":"Kirchweg","postalCode":"54595","locality":"Weinsheim","municipality":{"key":"07232226","name":"Weinsheim","type":"Kreisangehörige_Gemeinde"},"district":{"key":"07232","name":"Eifelkreis Bitburg-Prüm","type":"Landkreis"},"federalState":{"key":"07","name":"Rheinland-Pfalz"}},{"name":"Kleinbahnstr.","postalCode":"55595","locality":"Weinsheim","municipality":{"key":"07133112","name":"Weinsheim","type":"Kreisangehörige_Gemeinde"},"district":{"key":"07133","name":"Bad Kreuznach","type":"Landkreis"},"federalState":{"key":"07","name":"Rheinland-Pfalz"}},{"name":"Kreuznacher Str.","postalCode":"55595","locality":"Weinsheim","municipality":{"key":"07133112","name":"Weinsheim","type":"Kreisangehörige_Gemeinde"},"district":{"key":"07133","name":"Bad Kreuznach","type":"Landkreis"},"federalState":{"key":"07","name":"Rheinland-Pfalz"}},{"name":"Lindenstr.","postalCode":"54595","locality":"Weinsheim","municipality":{"key":"07232226","name":"Weinsheim","type":"Kreisangehörige_Gemeinde"},"district":{"key":"07232","name":"Eifelkreis Bitburg-Prüm","type":"Landkreis"},"federalState":{"key":"07","name":"Rheinland-Pfalz"}},{"name":"Mühlbachstr.","postalCode":"54595","locality":"Weinsheim","municipality":{"key":"07232226","name":"Weinsheim","type":"Kreisangehörige_Gemeinde"},"district":{"key":"07232","name":"Eifelkreis Bitburg-Prüm","type":"Landkreis"},"federalState":{"key":"07","name":"Rheinland-Pfalz"}},{"name":"Mühlteichstr.","postalCode":"54595","locality":"Weinsheim","municipality":{"key":"07232226","name":"Weinsheim","type":"Kreisangehörige_Gemeinde"},"district":{"key":"07232","name":"Eifelkreis Bitburg-Prüm","type":"Landkreis"},"federalState":{"key":"07","name":"Rheinland-Pfalz"}},{"name":"Obere Industrie Str.","postalCode":"54595","locality":"Weinsheim","municipality":{"key":"07232226","name":"Weinsheim","type":"Kreisangehörige_Gemeinde"},"district":{"key":"07232","name":"Eifelkreis Bitburg-Prüm","type":"Landkreis"},"federalState":{"key":"07","name":"Rheinland-Pfalz"}},{"name":"Poststr.","postalCode":"54595","locality":"Weinsheim","municipality":{"key":"07232226","name":"Weinsheim","type":"Kreisangehörige_Gemeinde"},"district":{"key":"07232","name":"Eifelkreis Bitburg-Prüm","type":"Landkreis"},"federalState":{"key":"07","name":"Rheinland-Pfalz"}},{"name":"Raiffeisenstr.","postalCode":"55595","locality":"Weinsheim","municipality":{"key":"07133112","name":"Weinsheim","type":"Kreisangehörige_Gemeinde"},"district":{"key":"07133","name":"Bad Kreuznach","type":"Landkreis"},"federalState":{"key":"07","name":"Rheinland-Pfalz"}},{"name":"Ritzbach","postalCode":"54595","locality":"Weinsheim","municipality":{"key":"07232226","name":"Weinsheim","type":"Kreisangehörige_Gemeinde"},"district":{"key":"07232","name":"Eifelkreis Bitburg-Prüm","type":"Landkreis"},"federalState":{"key":"07","name":"Rheinland-Pfalz"}},{"name":"Saarbrücker Str.","postalCode":"55595","locality":"Weinsheim","municipality":{"key":"07133112","name":"Weinsheim","type":"Kreisangehörige_Gemeinde"},"district":{"key":"07133","name":"Bad Kreuznach","type":"Landkreis"},"federalState":{"key":"07","name":"Rheinland-Pfalz"}},{"name":"Schießgraben","postalCode":"55595","locality":"Weinsheim","municipality":{"key":"07133112","name":"Weinsheim","type":"Kreisangehörige_Gemeinde"},"district":{"key":"07133","name":"Bad Kreuznach","type":"Landkreis"},"federalState":{"key":"07","name":"Rheinland-Pfalz"}},{"name":"Schmitzpäsch","postalCode":"54595","locality":"Weinsheim","municipality":{"key":"07232226","name":"Weinsheim","type":"Kreisangehörige_Gemeinde"},"district":{"key":"07232","name":"Eifelkreis Bitburg-Prüm","type":"Landkreis"},"federalState":{"key":"07","name":"Rheinland-Pfalz"}},{"name":"Scholländer Weg","postalCode":"55595","locality":"Weinsheim","municipality":{"key":"07133112","name":"Weinsheim","type":"Kreisangehörige_Gemeinde"},"district":{"key":"07133","name":"Bad Kreuznach","type":"Landkreis"},"federalState":{"key":"07","name":"Rheinland-Pfalz"}},{"name":"Schulstr.","postalCode":"55595","locality":"Weinsheim","municipality":{"key":"07133112","name":"Weinsheim","type":"Kreisangehörige_Gemeinde"},"district":{"key":"07133","name":"Bad Kreuznach","type":"Landkreis"},"federalState":{"key":"07","name":"Rheinland-Pfalz"}},{"name":"Siedlung","postalCode":"54595","locality":"Weinsheim","municipality":{"key":"07232226","name":"Weinsheim","type":"Kreisangehörige_Gemeinde"},"district":{"key":"07232","name":"Eifelkreis Bitburg-Prüm","type":"Landkreis"},"federalState":{"key":"07","name":"Rheinland-Pfalz"}},{"name":"Sponheimer Str.","postalCode":"55595","locality":"Weinsheim","municipality":{"key":"07133112","name":"Weinsheim","type":"Kreisangehörige_Gemeinde"},"district":{"key":"07133","name":"Bad Kreuznach","type":"Landkreis"},"federalState":{"key":"07","name":"Rheinland-Pfalz"}},{"name":"Straßburger Str.","postalCode":"54595","locality":"Weinsheim","municipality":{"key":"07232226","name":"Weinsheim","type":"Kreisangehörige_Gemeinde"},"district":{"key":"07232","name":"Eifelkreis Bitburg-Prüm","type":"Landkreis"},"federalState":{"key":"07","name":"Rheinland-Pfalz"}},{"name":"Talstr.","postalCode":"54595","locality":"Weinsheim","municipality":{"key":"07232226","name":"Weinsheim","type":"Kreisangehörige_Gemeinde"},"district":{"key":"07232","name":"Eifelkreis Bitburg-Prüm","type":"Landkreis"},"federalState":{"key":"07","name":"Rheinland-Pfalz"}},{"name":"Taubenflur","postalCode":"54595","locality":"Weinsheim","municipality":{"key":"07232226","name":"Weinsheim","type":"Kreisangehörige_Gemeinde"},"district":{"key":"07232","name":"Eifelkreis Bitburg-Prüm","type":"Landkreis"},"federalState":{"key":"07","name":"Rheinland-Pfalz"}},{"name":"Unterm Kaulenberg","postalCode":"55595","locality":"Weinsheim","municipality":{"key":"07133112","name":"Weinsheim","type":"Kreisangehörige_Gemeinde"},"district":{"key":"07133","name":"Bad Kreuznach","type":"Landkreis"},"federalState":{"key":"07","name":"Rheinland-Pfalz"}},{"name":"Weidengarten","postalCode":"55595","locality":"Weinsheim","municipality":{"key":"07133112","name":"Weinsheim","type":"Kreisangehörige_Gemeinde"},"district":{"key":"07133","name":"Bad Kreuznach","type":"Landkreis"},"federalState":{"key":"07","name":"Rheinland-Pfalz"}},{"name":"Weinbergsblick","postalCode":"55595","locality":"Weinsheim","municipality":{"key":"07133112","name":"Weinsheim","type":"Kreisangehörige_Gemeinde"},"district":{"key":"07133","name":"Bad Kreuznach","type":"Landkreis"},"federalState":{"key":"07","name":"Rheinland-Pfalz"}},{"name":"Wiesenweg","postalCode":"54595","locality":"Weinsheim","municipality":{"key":"07232226","name":"Weinsheim","type":"Kreisangehörige_Gemeinde"},"district":{"key":"07232","name":"Eifelkreis Bitburg-Prüm","type":"Landkreis"},"federalState":{"key":"07","name":"Rheinland-Pfalz"}},{"name":"Willibrordstr.","postalCode":"54595","locality":"Weinsheim","municipality":{"key":"07232226","name":"Weinsheim","type":"Kreisangehörige_Gemeinde"},"district":{"key":"07232","name":"Eifelkreis Bitburg-Prüm","type":"Landkreis"},"federalState":{"key":"07","name":"Rheinland-Pfalz"}},{"name":"Zum Bahnhof","postalCode":"54595","locality":"Weinsheim","municipality":{"key":"07232226","name":"Weinsheim","type":"Kreisangehörige_Gemeinde"},"district":{"key":"07232","name":"Eifelkreis Bitburg-Prüm","type":"Landkreis"},"federalState":{"key":"07","name":"Rheinland-Pfalz"}},{"name":"Zum Burgring","postalCode":"54595","locality":"Weinsheim","municipality":{"key":"07232226","name":"Weinsheim","type":"Kreisangehörige_Gemeinde"},"district":{"key":"07232","name":"Eifelkreis Bitburg-Prüm","type":"Landkreis"},"federalState":{"key":"07","name":"Rheinland-Pfalz"}},{"name":"Zum Rosengarten","postalCode":"55595","locality":"Weinsheim","municipality":{"key":"07133112","name":"Weinsheim","type":"Kreisangehörige_Gemeinde"},"district":{"key":"07133","name":"Bad Kreuznach","type":"Landkreis"},"federalState":{"key":"07","name":"Rheinland-Pfalz"}},{"name":"Zum Wald","postalCode":"54595","locality":"Weinsheim","municipality":{"key":"07232226","name":"Weinsheim","type":"Kreisangehörige_Gemeinde"},"district":{"key":"07232","name":"Eifelkreis Bitburg-Prüm","type":"Landkreis"},"federalState":{"key":"07","name":"Rheinland-Pfalz"}},{"name":"Zur Hardt","postalCode":"54595","locality":"Weinsheim","municipality":{"key":"07232226","name":"Weinsheim","type":"Kreisangehörige_Gemeinde"},"district":{"key":"07232","name":"Eifelkreis Bitburg-Prüm","type":"Landkreis"},"federalState":{"key":"07","name":"Rheinland-Pfalz"}},{"name":"Zur Sprang","postalCode":"54595","locality":"Weinsheim","municipality":{"key":"07232226","name":"Weinsheim","type":"Kreisangehörige_Gemeinde"},"district":{"key":"07232","name":"Eifelkreis Bitburg-Prüm","type":"Landkreis"},"federalState":{"key":"07","name":"Rheinland-Pfalz"}},]