[{"name":"Altlewin","postalCode":"15320","locality":"Neutrebbin","municipality":{"key":"12064365","name":"Neutrebbin","type":"Kreisangehörige_Gemeinde"},"district":{"key":"12064","name":"Märkisch-Oderland","type":"Landkreis"},"federalState":{"key":"12","name":"Brandenburg"}},{"name":"Alttrebbiner Dorfstr.","postalCode":"15320","locality":"Neutrebbin","municipality":{"key":"12064365","name":"Neutrebbin","type":"Kreisangehörige_Gemeinde"},"district":{"key":"12064","name":"Märkisch-Oderland","type":"Landkreis"},"federalState":{"key":"12","name":"Brandenburg"}},{"name":"Alttrebbiner Hauptstr.","postalCode":"15320","locality":"Neutrebbin","municipality":{"key":"12064365","name":"Neutrebbin","type":"Kreisangehörige_Gemeinde"},"district":{"key":"12064","name":"Märkisch-Oderland","type":"Landkreis"},"federalState":{"key":"12","name":"Brandenburg"}},{"name":"Am Backofensteig","postalCode":"15320","locality":"Neutrebbin","municipality":{"key":"12064365","name":"Neutrebbin","type":"Kreisangehörige_Gemeinde"},"district":{"key":"12064","name":"Märkisch-Oderland","type":"Landkreis"},"federalState":{"key":"12","name":"Brandenburg"}},{"name":"Am Horst","postalCode":"15320","locality":"Neutrebbin","municipality":{"key":"12064365","name":"Neutrebbin","type":"Kreisangehörige_Gemeinde"},"district":{"key":"12064","name":"Märkisch-Oderland","type":"Landkreis"},"federalState":{"key":"12","name":"Brandenburg"}},{"name":"Am Mühlenberg","postalCode":"15320","locality":"Neutrebbin","municipality":{"key":"12064365","name":"Neutrebbin","type":"Kreisangehörige_Gemeinde"},"district":{"key":"12064","name":"Märkisch-Oderland","type":"Landkreis"},"federalState":{"key":"12","name":"Brandenburg"}},{"name":"Am Rodelberg","postalCode":"15320","locality":"Neutrebbin","municipality":{"key":"12064365","name":"Neutrebbin","type":"Kreisangehörige_Gemeinde"},"district":{"key":"12064","name":"Märkisch-Oderland","type":"Landkreis"},"federalState":{"key":"12","name":"Brandenburg"}},{"name":"Am Strom","postalCode":"15320","locality":"Neutrebbin","municipality":{"key":"12064365","name":"Neutrebbin","type":"Kreisangehörige_Gemeinde"},"district":{"key":"12064","name":"Märkisch-Oderland","type":"Landkreis"},"federalState":{"key":"12","name":"Brandenburg"}},{"name":"Ausbau Bahnhofstr.","postalCode":"15320","locality":"Neutrebbin","municipality":{"key":"12064365","name":"Neutrebbin","type":"Kreisangehörige_Gemeinde"},"district":{"key":"12064","name":"Märkisch-Oderland","type":"Landkreis"},"federalState":{"key":"12","name":"Brandenburg"}},{"name":"Ausbau Wriezener Str.","postalCode":"15320","locality":"Neutrebbin","municipality":{"key":"12064365","name":"Neutrebbin","type":"Kreisangehörige_Gemeinde"},"district":{"key":"12064","name":"Märkisch-Oderland","type":"Landkreis"},"federalState":{"key":"12","name":"Brandenburg"}},{"name":"Bahnhofstr.","postalCode":"15320","locality":"Neutrebbin","municipality":{"key":"12064365","name":"Neutrebbin","type":"Kreisangehörige_Gemeinde"},"district":{"key":"12064","name":"Märkisch-Oderland","type":"Landkreis"},"federalState":{"key":"12","name":"Brandenburg"}},{"name":"Dorfstr.","postalCode":"15320","locality":"Neutrebbin","municipality":{"key":"12064365","name":"Neutrebbin","type":"Kreisangehörige_Gemeinde"},"district":{"key":"12064","name":"Märkisch-Oderland","type":"Landkreis"},"federalState":{"key":"12","name":"Brandenburg"}},{"name":"Feldstr.","postalCode":"15320","locality":"Neutrebbin","municipality":{"key":"12064365","name":"Neutrebbin","type":"Kreisangehörige_Gemeinde"},"district":{"key":"12064","name":"Märkisch-Oderland","type":"Landkreis"},"federalState":{"key":"12","name":"Brandenburg"}},{"name":"Friedensplatz","postalCode":"15320","locality":"Neutrebbin","municipality":{"key":"12064365","name":"Neutrebbin","type":"Kreisangehörige_Gemeinde"},"district":{"key":"12064","name":"Märkisch-Oderland","type":"Landkreis"},"federalState":{"key":"12","name":"Brandenburg"}},{"name":"Gewerbegebiet","postalCode":"15320","locality":"Neutrebbin","municipality":{"key":"12064365","name":"Neutrebbin","type":"Kreisangehörige_Gemeinde"},"district":{"key":"12064","name":"Märkisch-Oderland","type":"Landkreis"},"federalState":{"key":"12","name":"Brandenburg"}},{"name":"Großbarnim","postalCode":"15320","locality":"Neutrebbin","municipality":{"key":"12064365","name":"Neutrebbin","type":"Kreisangehörige_Gemeinde"},"district":{"key":"12064","name":"Märkisch-Oderland","type":"Landkreis"},"federalState":{"key":"12","name":"Brandenburg"}},{"name":"Grube","postalCode":"15320","locality":"Neutrebbin","municipality":{"key":"12064365","name":"Neutrebbin","type":"Kreisangehörige_Gemeinde"},"district":{"key":"12064","name":"Märkisch-Oderland","type":"Landkreis"},"federalState":{"key":"12","name":"Brandenburg"}},{"name":"Hauptstr.","postalCode":"15320","locality":"Neutrebbin","municipality":{"key":"12064365","name":"Neutrebbin","type":"Kreisangehörige_Gemeinde"},"district":{"key":"12064","name":"Märkisch-Oderland","type":"Landkreis"},"federalState":{"key":"12","name":"Brandenburg"}},{"name":"Karl-Marx-Str.","postalCode":"15320","locality":"Neutrebbin","municipality":{"key":"12064365","name":"Neutrebbin","type":"Kreisangehörige_Gemeinde"},"district":{"key":"12064","name":"Märkisch-Oderland","type":"Landkreis"},"federalState":{"key":"12","name":"Brandenburg"}},{"name":"Kiebitzwinkel","postalCode":"15320","locality":"Neutrebbin","municipality":{"key":"12064365","name":"Neutrebbin","type":"Kreisangehörige_Gemeinde"},"district":{"key":"12064","name":"Märkisch-Oderland","type":"Landkreis"},"federalState":{"key":"12","name":"Brandenburg"}},{"name":"Kleinbarnim","postalCode":"15320","locality":"Neutrebbin","municipality":{"key":"12064365","name":"Neutrebbin","type":"Kreisangehörige_Gemeinde"},"district":{"key":"12064","name":"Märkisch-Oderland","type":"Landkreis"},"federalState":{"key":"12","name":"Brandenburg"}},{"name":"Liebesinsel","postalCode":"15320","locality":"Neutrebbin","municipality":{"key":"12064365","name":"Neutrebbin","type":"Kreisangehörige_Gemeinde"},"district":{"key":"12064","name":"Märkisch-Oderland","type":"Landkreis"},"federalState":{"key":"12","name":"Brandenburg"}},{"name":"Neubarnimer Dorfstr.","postalCode":"15320","locality":"Neutrebbin","municipality":{"key":"12064365","name":"Neutrebbin","type":"Kreisangehörige_Gemeinde"},"district":{"key":"12064","name":"Märkisch-Oderland","type":"Landkreis"},"federalState":{"key":"12","name":"Brandenburg"}},{"name":"Neunziger Winkel","postalCode":"15320","locality":"Neutrebbin","municipality":{"key":"12064365","name":"Neutrebbin","type":"Kreisangehörige_Gemeinde"},"district":{"key":"12064","name":"Märkisch-Oderland","type":"Landkreis"},"federalState":{"key":"12","name":"Brandenburg"}},{"name":"Oderbruchstr.","postalCode":"15320","locality":"Neutrebbin","municipality":{"key":"12064365","name":"Neutrebbin","type":"Kreisangehörige_Gemeinde"},"district":{"key":"12064","name":"Märkisch-Oderland","type":"Landkreis"},"federalState":{"key":"12","name":"Brandenburg"}},{"name":"Pappelweg","postalCode":"15320","locality":"Neutrebbin","municipality":{"key":"12064365","name":"Neutrebbin","type":"Kreisangehörige_Gemeinde"},"district":{"key":"12064","name":"Märkisch-Oderland","type":"Landkreis"},"federalState":{"key":"12","name":"Brandenburg"}},{"name":"Rohneweg","postalCode":"15320","locality":"Neutrebbin","municipality":{"key":"12064365","name":"Neutrebbin","type":"Kreisangehörige_Gemeinde"},"district":{"key":"12064","name":"Märkisch-Oderland","type":"Landkreis"},"federalState":{"key":"12","name":"Brandenburg"}},{"name":"Schließkenberg","postalCode":"15320","locality":"Neutrebbin","municipality":{"key":"12064365","name":"Neutrebbin","type":"Kreisangehörige_Gemeinde"},"district":{"key":"12064","name":"Märkisch-Oderland","type":"Landkreis"},"federalState":{"key":"12","name":"Brandenburg"}},{"name":"Siedlung","postalCode":"15320","locality":"Neutrebbin","municipality":{"key":"12064365","name":"Neutrebbin","type":"Kreisangehörige_Gemeinde"},"district":{"key":"12064","name":"Märkisch-Oderland","type":"Landkreis"},"federalState":{"key":"12","name":"Brandenburg"}},{"name":"Thöringswerder","postalCode":"15320","locality":"Neutrebbin","municipality":{"key":"12064365","name":"Neutrebbin","type":"Kreisangehörige_Gemeinde"},"district":{"key":"12064","name":"Märkisch-Oderland","type":"Landkreis"},"federalState":{"key":"12","name":"Brandenburg"}},{"name":"Wriezener Str.","postalCode":"15320","locality":"Neutrebbin","municipality":{"key":"12064365","name":"Neutrebbin","type":"Kreisangehörige_Gemeinde"},"district":{"key":"12064","name":"Märkisch-Oderland","type":"Landkreis"},"federalState":{"key":"12","name":"Brandenburg"}},]