[{"name":"Alter Reitplatz","postalCode":"25873","locality":"Oldersbek","municipality":{"key":"01054096","name":"Oldersbek","type":"Kreisangehörige_Gemeinde"},"district":{"key":"01054","name":"Nordfriesland","type":"Kreis"},"federalState":{"key":"01","name":"Schleswig-Holstein"}},{"name":"Am Bullweg","postalCode":"25873","locality":"Oldersbek","municipality":{"key":"01054096","name":"Oldersbek","type":"Kreisangehörige_Gemeinde"},"district":{"key":"01054","name":"Nordfriesland","type":"Kreis"},"federalState":{"key":"01","name":"Schleswig-Holstein"}},{"name":"Am Osterbarg","postalCode":"25873","locality":"Oldersbek","municipality":{"key":"01054096","name":"Oldersbek","type":"Kreisangehörige_Gemeinde"},"district":{"key":"01054","name":"Nordfriesland","type":"Kreis"},"federalState":{"key":"01","name":"Schleswig-Holstein"}},{"name":"Am Redder","postalCode":"25873","locality":"Oldersbek","municipality":{"key":"01054096","name":"Oldersbek","type":"Kreisangehörige_Gemeinde"},"district":{"key":"01054","name":"Nordfriesland","type":"Kreis"},"federalState":{"key":"01","name":"Schleswig-Holstein"}},{"name":"Dorfstr.","postalCode":"25873","locality":"Oldersbek","municipality":{"key":"01054096","name":"Oldersbek","type":"Kreisangehörige_Gemeinde"},"district":{"key":"01054","name":"Nordfriesland","type":"Kreis"},"federalState":{"key":"01","name":"Schleswig-Holstein"}},{"name":"Eiland","postalCode":"25873","locality":"Oldersbek","municipality":{"key":"01054096","name":"Oldersbek","type":"Kreisangehörige_Gemeinde"},"district":{"key":"01054","name":"Nordfriesland","type":"Kreis"},"federalState":{"key":"01","name":"Schleswig-Holstein"}},{"name":"Grünthal","postalCode":"25873","locality":"Oldersbek","municipality":{"key":"01054096","name":"Oldersbek","type":"Kreisangehörige_Gemeinde"},"district":{"key":"01054","name":"Nordfriesland","type":"Kreis"},"federalState":{"key":"01","name":"Schleswig-Holstein"}},{"name":"Hobedal","postalCode":"25873","locality":"Oldersbek","municipality":{"key":"01054096","name":"Oldersbek","type":"Kreisangehörige_Gemeinde"},"district":{"key":"01054","name":"Nordfriesland","type":"Kreis"},"federalState":{"key":"01","name":"Schleswig-Holstein"}},{"name":"Hohlheck","postalCode":"25873","locality":"Oldersbek","municipality":{"key":"01054096","name":"Oldersbek","type":"Kreisangehörige_Gemeinde"},"district":{"key":"01054","name":"Nordfriesland","type":"Kreis"},"federalState":{"key":"01","name":"Schleswig-Holstein"}},{"name":"Husumer Str.","postalCode":"25873","locality":"Oldersbek","municipality":{"key":"01054096","name":"Oldersbek","type":"Kreisangehörige_Gemeinde"},"district":{"key":"01054","name":"Nordfriesland","type":"Kreis"},"federalState":{"key":"01","name":"Schleswig-Holstein"}},{"name":"Knappweg","postalCode":"25873","locality":"Oldersbek","municipality":{"key":"01054096","name":"Oldersbek","type":"Kreisangehörige_Gemeinde"},"district":{"key":"01054","name":"Nordfriesland","type":"Kreis"},"federalState":{"key":"01","name":"Schleswig-Holstein"}},{"name":"Norderweg","postalCode":"25873","locality":"Oldersbek","municipality":{"key":"01054096","name":"Oldersbek","type":"Kreisangehörige_Gemeinde"},"district":{"key":"01054","name":"Nordfriesland","type":"Kreis"},"federalState":{"key":"01","name":"Schleswig-Holstein"}},{"name":"Ostenfelder Landstr.","postalCode":"25873","locality":"Oldersbek","municipality":{"key":"01054096","name":"Oldersbek","type":"Kreisangehörige_Gemeinde"},"district":{"key":"01054","name":"Nordfriesland","type":"Kreis"},"federalState":{"key":"01","name":"Schleswig-Holstein"}},{"name":"Ostergaard","postalCode":"25873","locality":"Oldersbek","municipality":{"key":"01054096","name":"Oldersbek","type":"Kreisangehörige_Gemeinde"},"district":{"key":"01054","name":"Nordfriesland","type":"Kreis"},"federalState":{"key":"01","name":"Schleswig-Holstein"}},{"name":"Schiddelgang","postalCode":"25873","locality":"Oldersbek","municipality":{"key":"01054096","name":"Oldersbek","type":"Kreisangehörige_Gemeinde"},"district":{"key":"01054","name":"Nordfriesland","type":"Kreis"},"federalState":{"key":"01","name":"Schleswig-Holstein"}},{"name":"Schulstr.","postalCode":"25873","locality":"Oldersbek","municipality":{"key":"01054096","name":"Oldersbek","type":"Kreisangehörige_Gemeinde"},"district":{"key":"01054","name":"Nordfriesland","type":"Kreis"},"federalState":{"key":"01","name":"Schleswig-Holstein"}},{"name":"Steinberg","postalCode":"25873","locality":"Oldersbek","municipality":{"key":"01054096","name":"Oldersbek","type":"Kreisangehörige_Gemeinde"},"district":{"key":"01054","name":"Nordfriesland","type":"Kreis"},"federalState":{"key":"01","name":"Schleswig-Holstein"}},{"name":"Steinbergweg","postalCode":"25873","locality":"Oldersbek","municipality":{"key":"01054096","name":"Oldersbek","type":"Kreisangehörige_Gemeinde"},"district":{"key":"01054","name":"Nordfriesland","type":"Kreis"},"federalState":{"key":"01","name":"Schleswig-Holstein"}},{"name":"Stensheck","postalCode":"25873","locality":"Oldersbek","municipality":{"key":"01054096","name":"Oldersbek","type":"Kreisangehörige_Gemeinde"},"district":{"key":"01054","name":"Nordfriesland","type":"Kreis"},"federalState":{"key":"01","name":"Schleswig-Holstein"}},{"name":"Stensheil","postalCode":"25873","locality":"Oldersbek","municipality":{"key":"01054096","name":"Oldersbek","type":"Kreisangehörige_Gemeinde"},"district":{"key":"01054","name":"Nordfriesland","type":"Kreis"},"federalState":{"key":"01","name":"Schleswig-Holstein"}},{"name":"Sumgeilweg","postalCode":"25873","locality":"Oldersbek","municipality":{"key":"01054096","name":"Oldersbek","type":"Kreisangehörige_Gemeinde"},"district":{"key":"01054","name":"Nordfriesland","type":"Kreis"},"federalState":{"key":"01","name":"Schleswig-Holstein"}},{"name":"Zur alten Mühle","postalCode":"25873","locality":"Oldersbek","municipality":{"key":"01054096","name":"Oldersbek","type":"Kreisangehörige_Gemeinde"},"district":{"key":"01054","name":"Nordfriesland","type":"Kreis"},"federalState":{"key":"01","name":"Schleswig-Holstein"}},]