[{"name":"Aachstr.","postalCode":"89601","locality":"Schelklingen","municipality":{"key":"08425108","name":"Schelklingen, Stadt","type":"Stadt"},"district":{"key":"08425","name":"Alb-Donau-Kreis","type":"Landkreis"},"federalState":{"key":"08","name":"Baden-Württemberg"}},{"name":"Alemannenstr.","postalCode":"89601","locality":"Schelklingen","municipality":{"key":"08425108","name":"Schelklingen, Stadt","type":"Stadt"},"district":{"key":"08425","name":"Alb-Donau-Kreis","type":"Landkreis"},"federalState":{"key":"08","name":"Baden-Württemberg"}},{"name":"Am Brühl","postalCode":"89601","locality":"Schelklingen","municipality":{"key":"08425108","name":"Schelklingen, Stadt","type":"Stadt"},"district":{"key":"08425","name":"Alb-Donau-Kreis","type":"Landkreis"},"federalState":{"key":"08","name":"Baden-Württemberg"}},{"name":"Am Hartenbuch","postalCode":"89601","locality":"Schelklingen","municipality":{"key":"08425108","name":"Schelklingen, Stadt","type":"Stadt"},"district":{"key":"08425","name":"Alb-Donau-Kreis","type":"Landkreis"},"federalState":{"key":"08","name":"Baden-Württemberg"}},{"name":"Am Hochberg","postalCode":"89601","locality":"Schelklingen","municipality":{"key":"08425108","name":"Schelklingen, Stadt","type":"Stadt"},"district":{"key":"08425","name":"Alb-Donau-Kreis","type":"Landkreis"},"federalState":{"key":"08","name":"Baden-Württemberg"}},{"name":"Am Kapellenberg","postalCode":"89601","locality":"Schelklingen","municipality":{"key":"08425108","name":"Schelklingen, Stadt","type":"Stadt"},"district":{"key":"08425","name":"Alb-Donau-Kreis","type":"Landkreis"},"federalState":{"key":"08","name":"Baden-Württemberg"}},{"name":"Am Lützelberg","postalCode":"89601","locality":"Schelklingen","municipality":{"key":"08425108","name":"Schelklingen, Stadt","type":"Stadt"},"district":{"key":"08425","name":"Alb-Donau-Kreis","type":"Landkreis"},"federalState":{"key":"08","name":"Baden-Württemberg"}},{"name":"Am Manzenbühl","postalCode":"89601","locality":"Schelklingen","municipality":{"key":"08425108","name":"Schelklingen, Stadt","type":"Stadt"},"district":{"key":"08425","name":"Alb-Donau-Kreis","type":"Landkreis"},"federalState":{"key":"08","name":"Baden-Württemberg"}},{"name":"Am Sonnenrain","postalCode":"89601","locality":"Schelklingen","municipality":{"key":"08425108","name":"Schelklingen, Stadt","type":"Stadt"},"district":{"key":"08425","name":"Alb-Donau-Kreis","type":"Landkreis"},"federalState":{"key":"08","name":"Baden-Württemberg"}},{"name":"Am Sportplatz","postalCode":"89601","locality":"Schelklingen","municipality":{"key":"08425108","name":"Schelklingen, Stadt","type":"Stadt"},"district":{"key":"08425","name":"Alb-Donau-Kreis","type":"Landkreis"},"federalState":{"key":"08","name":"Baden-Württemberg"}},{"name":"Am Steinsberg","postalCode":"89601","locality":"Schelklingen","municipality":{"key":"08425108","name":"Schelklingen, Stadt","type":"Stadt"},"district":{"key":"08425","name":"Alb-Donau-Kreis","type":"Landkreis"},"federalState":{"key":"08","name":"Baden-Württemberg"}},{"name":"Am Wasen","postalCode":"89601","locality":"Schelklingen","municipality":{"key":"08425108","name":"Schelklingen, Stadt","type":"Stadt"},"district":{"key":"08425","name":"Alb-Donau-Kreis","type":"Landkreis"},"federalState":{"key":"08","name":"Baden-Württemberg"}},{"name":"An der Kirchsteige","postalCode":"89601","locality":"Schelklingen","municipality":{"key":"08425108","name":"Schelklingen, Stadt","type":"Stadt"},"district":{"key":"08425","name":"Alb-Donau-Kreis","type":"Landkreis"},"federalState":{"key":"08","name":"Baden-Württemberg"}},{"name":"Angeleweg","postalCode":"89601","locality":"Schelklingen","municipality":{"key":"08425108","name":"Schelklingen, Stadt","type":"Stadt"},"district":{"key":"08425","name":"Alb-Donau-Kreis","type":"Landkreis"},"federalState":{"key":"08","name":"Baden-Württemberg"}},{"name":"Anselmstr.","postalCode":"89601","locality":"Schelklingen","municipality":{"key":"08425108","name":"Schelklingen, Stadt","type":"Stadt"},"district":{"key":"08425","name":"Alb-Donau-Kreis","type":"Landkreis"},"federalState":{"key":"08","name":"Baden-Württemberg"}},{"name":"Anton-Fischer-Weg","postalCode":"89601","locality":"Schelklingen","municipality":{"key":"08425108","name":"Schelklingen, Stadt","type":"Stadt"},"district":{"key":"08425","name":"Alb-Donau-Kreis","type":"Landkreis"},"federalState":{"key":"08","name":"Baden-Württemberg"}},{"name":"Antoniusweg","postalCode":"89601","locality":"Schelklingen","municipality":{"key":"08425108","name":"Schelklingen, Stadt","type":"Stadt"},"district":{"key":"08425","name":"Alb-Donau-Kreis","type":"Landkreis"},"federalState":{"key":"08","name":"Baden-Württemberg"}},{"name":"Auenweg","postalCode":"89601","locality":"Schelklingen","municipality":{"key":"08425108","name":"Schelklingen, Stadt","type":"Stadt"},"district":{"key":"08425","name":"Alb-Donau-Kreis","type":"Landkreis"},"federalState":{"key":"08","name":"Baden-Württemberg"}},{"name":"Bachweg","postalCode":"89601","locality":"Schelklingen","municipality":{"key":"08425108","name":"Schelklingen, Stadt","type":"Stadt"},"district":{"key":"08425","name":"Alb-Donau-Kreis","type":"Landkreis"},"federalState":{"key":"08","name":"Baden-Württemberg"}},{"name":"Bahnhofstr.","postalCode":"89601","locality":"Schelklingen","municipality":{"key":"08425108","name":"Schelklingen, Stadt","type":"Stadt"},"district":{"key":"08425","name":"Alb-Donau-Kreis","type":"Landkreis"},"federalState":{"key":"08","name":"Baden-Württemberg"}},{"name":"Bahnweg","postalCode":"89601","locality":"Schelklingen","municipality":{"key":"08425108","name":"Schelklingen, Stadt","type":"Stadt"},"district":{"key":"08425","name":"Alb-Donau-Kreis","type":"Landkreis"},"federalState":{"key":"08","name":"Baden-Württemberg"}},{"name":"Bärentalstr.","postalCode":"89601","locality":"Schelklingen","municipality":{"key":"08425108","name":"Schelklingen, Stadt","type":"Stadt"},"district":{"key":"08425","name":"Alb-Donau-Kreis","type":"Landkreis"},"federalState":{"key":"08","name":"Baden-Württemberg"}},{"name":"Baumgartenweg","postalCode":"89601","locality":"Schelklingen","municipality":{"key":"08425108","name":"Schelklingen, Stadt","type":"Stadt"},"district":{"key":"08425","name":"Alb-Donau-Kreis","type":"Landkreis"},"federalState":{"key":"08","name":"Baden-Württemberg"}},{"name":"Beim Kogelstein","postalCode":"89601","locality":"Schelklingen","municipality":{"key":"08425108","name":"Schelklingen, Stadt","type":"Stadt"},"district":{"key":"08425","name":"Alb-Donau-Kreis","type":"Landkreis"},"federalState":{"key":"08","name":"Baden-Württemberg"}},{"name":"Bemmelbergergasse","postalCode":"89601","locality":"Schelklingen","municipality":{"key":"08425108","name":"Schelklingen, Stadt","type":"Stadt"},"district":{"key":"08425","name":"Alb-Donau-Kreis","type":"Landkreis"},"federalState":{"key":"08","name":"Baden-Württemberg"}},{"name":"Bernentalstr.","postalCode":"89601","locality":"Schelklingen","municipality":{"key":"08425108","name":"Schelklingen, Stadt","type":"Stadt"},"district":{"key":"08425","name":"Alb-Donau-Kreis","type":"Landkreis"},"federalState":{"key":"08","name":"Baden-Württemberg"}},{"name":"Bestengasse","postalCode":"89601","locality":"Schelklingen","municipality":{"key":"08425108","name":"Schelklingen, Stadt","type":"Stadt"},"district":{"key":"08425","name":"Alb-Donau-Kreis","type":"Landkreis"},"federalState":{"key":"08","name":"Baden-Württemberg"}},{"name":"Beurenweg","postalCode":"89601","locality":"Schelklingen","municipality":{"key":"08425108","name":"Schelklingen, Stadt","type":"Stadt"},"district":{"key":"08425","name":"Alb-Donau-Kreis","type":"Landkreis"},"federalState":{"key":"08","name":"Baden-Württemberg"}},{"name":"Birkenweg","postalCode":"89601","locality":"Schelklingen","municipality":{"key":"08425108","name":"Schelklingen, Stadt","type":"Stadt"},"district":{"key":"08425","name":"Alb-Donau-Kreis","type":"Landkreis"},"federalState":{"key":"08","name":"Baden-Württemberg"}},{"name":"Blaubeurer Str.","postalCode":"89601","locality":"Schelklingen","municipality":{"key":"08425108","name":"Schelklingen, Stadt","type":"Stadt"},"district":{"key":"08425","name":"Alb-Donau-Kreis","type":"Landkreis"},"federalState":{"key":"08","name":"Baden-Württemberg"}},{"name":"Böttinger Str.","postalCode":"89601","locality":"Schelklingen","municipality":{"key":"08425108","name":"Schelklingen, Stadt","type":"Stadt"},"district":{"key":"08425","name":"Alb-Donau-Kreis","type":"Landkreis"},"federalState":{"key":"08","name":"Baden-Württemberg"}},{"name":"Breitlenstr.","postalCode":"89601","locality":"Schelklingen","municipality":{"key":"08425108","name":"Schelklingen, Stadt","type":"Stadt"},"district":{"key":"08425","name":"Alb-Donau-Kreis","type":"Landkreis"},"federalState":{"key":"08","name":"Baden-Württemberg"}},{"name":"Brielgasse","postalCode":"89601","locality":"Schelklingen","municipality":{"key":"08425108","name":"Schelklingen, Stadt","type":"Stadt"},"district":{"key":"08425","name":"Alb-Donau-Kreis","type":"Landkreis"},"federalState":{"key":"08","name":"Baden-Württemberg"}},{"name":"Brühlweg","postalCode":"89601","locality":"Schelklingen","municipality":{"key":"08425108","name":"Schelklingen, Stadt","type":"Stadt"},"district":{"key":"08425","name":"Alb-Donau-Kreis","type":"Landkreis"},"federalState":{"key":"08","name":"Baden-Württemberg"}},{"name":"Brunnenweg","postalCode":"89601","locality":"Schelklingen","municipality":{"key":"08425108","name":"Schelklingen, Stadt","type":"Stadt"},"district":{"key":"08425","name":"Alb-Donau-Kreis","type":"Landkreis"},"federalState":{"key":"08","name":"Baden-Württemberg"}},{"name":"Buchenhof","postalCode":"89601","locality":"Schelklingen","municipality":{"key":"08425108","name":"Schelklingen, Stadt","type":"Stadt"},"district":{"key":"08425","name":"Alb-Donau-Kreis","type":"Landkreis"},"federalState":{"key":"08","name":"Baden-Württemberg"}},{"name":"Buchgasse","postalCode":"89601","locality":"Schelklingen","municipality":{"key":"08425108","name":"Schelklingen, Stadt","type":"Stadt"},"district":{"key":"08425","name":"Alb-Donau-Kreis","type":"Landkreis"},"federalState":{"key":"08","name":"Baden-Württemberg"}},{"name":"Buchhaldenweg","postalCode":"89601","locality":"Schelklingen","municipality":{"key":"08425108","name":"Schelklingen, Stadt","type":"Stadt"},"district":{"key":"08425","name":"Alb-Donau-Kreis","type":"Landkreis"},"federalState":{"key":"08","name":"Baden-Württemberg"}},{"name":"Buchtalweg","postalCode":"89601","locality":"Schelklingen","municipality":{"key":"08425108","name":"Schelklingen, Stadt","type":"Stadt"},"district":{"key":"08425","name":"Alb-Donau-Kreis","type":"Landkreis"},"federalState":{"key":"08","name":"Baden-Württemberg"}},{"name":"Burgweg","postalCode":"89601","locality":"Schelklingen","municipality":{"key":"08425108","name":"Schelklingen, Stadt","type":"Stadt"},"district":{"key":"08425","name":"Alb-Donau-Kreis","type":"Landkreis"},"federalState":{"key":"08","name":"Baden-Württemberg"}},{"name":"Burrenweg","postalCode":"89601","locality":"Schelklingen","municipality":{"key":"08425108","name":"Schelklingen, Stadt","type":"Stadt"},"district":{"key":"08425","name":"Alb-Donau-Kreis","type":"Landkreis"},"federalState":{"key":"08","name":"Baden-Württemberg"}},{"name":"Diehlesgässle","postalCode":"89601","locality":"Schelklingen","municipality":{"key":"08425108","name":"Schelklingen, Stadt","type":"Stadt"},"district":{"key":"08425","name":"Alb-Donau-Kreis","type":"Landkreis"},"federalState":{"key":"08","name":"Baden-Württemberg"}},{"name":"Ehinger-Ebene-Weg","postalCode":"89601","locality":"Schelklingen","municipality":{"key":"08425108","name":"Schelklingen, Stadt","type":"Stadt"},"district":{"key":"08425","name":"Alb-Donau-Kreis","type":"Landkreis"},"federalState":{"key":"08","name":"Baden-Württemberg"}},{"name":"Ehinger Str.","postalCode":"89601","locality":"Schelklingen","municipality":{"key":"08425108","name":"Schelklingen, Stadt","type":"Stadt"},"district":{"key":"08425","name":"Alb-Donau-Kreis","type":"Landkreis"},"federalState":{"key":"08","name":"Baden-Württemberg"}},{"name":"Eichhalde","postalCode":"89601","locality":"Schelklingen","municipality":{"key":"08425108","name":"Schelklingen, Stadt","type":"Stadt"},"district":{"key":"08425","name":"Alb-Donau-Kreis","type":"Landkreis"},"federalState":{"key":"08","name":"Baden-Württemberg"}},{"name":"Eistalweg","postalCode":"89601","locality":"Schelklingen","municipality":{"key":"08425108","name":"Schelklingen, Stadt","type":"Stadt"},"district":{"key":"08425","name":"Alb-Donau-Kreis","type":"Landkreis"},"federalState":{"key":"08","name":"Baden-Württemberg"}},{"name":"Ellmendinger Str.","postalCode":"89601","locality":"Schelklingen","municipality":{"key":"08425108","name":"Schelklingen, Stadt","type":"Stadt"},"district":{"key":"08425","name":"Alb-Donau-Kreis","type":"Landkreis"},"federalState":{"key":"08","name":"Baden-Württemberg"}},{"name":"Espachweg","postalCode":"89601","locality":"Schelklingen","municipality":{"key":"08425108","name":"Schelklingen, Stadt","type":"Stadt"},"district":{"key":"08425","name":"Alb-Donau-Kreis","type":"Landkreis"},"federalState":{"key":"08","name":"Baden-Württemberg"}},{"name":"Fabrikstr.","postalCode":"89601","locality":"Schelklingen","municipality":{"key":"08425108","name":"Schelklingen, Stadt","type":"Stadt"},"district":{"key":"08425","name":"Alb-Donau-Kreis","type":"Landkreis"},"federalState":{"key":"08","name":"Baden-Württemberg"}},{"name":"Färbergasse","postalCode":"89601","locality":"Schelklingen","municipality":{"key":"08425108","name":"Schelklingen, Stadt","type":"Stadt"},"district":{"key":"08425","name":"Alb-Donau-Kreis","type":"Landkreis"},"federalState":{"key":"08","name":"Baden-Württemberg"}},{"name":"Felsenweg","postalCode":"89601","locality":"Schelklingen","municipality":{"key":"08425108","name":"Schelklingen, Stadt","type":"Stadt"},"district":{"key":"08425","name":"Alb-Donau-Kreis","type":"Landkreis"},"federalState":{"key":"08","name":"Baden-Württemberg"}},{"name":"Fischersteg","postalCode":"89601","locality":"Schelklingen","municipality":{"key":"08425108","name":"Schelklingen, Stadt","type":"Stadt"},"district":{"key":"08425","name":"Alb-Donau-Kreis","type":"Landkreis"},"federalState":{"key":"08","name":"Baden-Württemberg"}},{"name":"Fliederweg","postalCode":"89601","locality":"Schelklingen","municipality":{"key":"08425108","name":"Schelklingen, Stadt","type":"Stadt"},"district":{"key":"08425","name":"Alb-Donau-Kreis","type":"Landkreis"},"federalState":{"key":"08","name":"Baden-Württemberg"}},{"name":"Frankenstr.","postalCode":"89601","locality":"Schelklingen","municipality":{"key":"08425108","name":"Schelklingen, Stadt","type":"Stadt"},"district":{"key":"08425","name":"Alb-Donau-Kreis","type":"Landkreis"},"federalState":{"key":"08","name":"Baden-Württemberg"}},{"name":"Freybergstr.","postalCode":"89601","locality":"Schelklingen","municipality":{"key":"08425108","name":"Schelklingen, Stadt","type":"Stadt"},"district":{"key":"08425","name":"Alb-Donau-Kreis","type":"Landkreis"},"federalState":{"key":"08","name":"Baden-Württemberg"}},{"name":"Friedenstr.","postalCode":"89601","locality":"Schelklingen","municipality":{"key":"08425108","name":"Schelklingen, Stadt","type":"Stadt"},"district":{"key":"08425","name":"Alb-Donau-Kreis","type":"Landkreis"},"federalState":{"key":"08","name":"Baden-Württemberg"}},{"name":"Friedrich-List-Str.","postalCode":"89601","locality":"Schelklingen","municipality":{"key":"08425108","name":"Schelklingen, Stadt","type":"Stadt"},"district":{"key":"08425","name":"Alb-Donau-Kreis","type":"Landkreis"},"federalState":{"key":"08","name":"Baden-Württemberg"}},{"name":"Friedrich-Silcher-Str.","postalCode":"89601","locality":"Schelklingen","municipality":{"key":"08425108","name":"Schelklingen, Stadt","type":"Stadt"},"district":{"key":"08425","name":"Alb-Donau-Kreis","type":"Landkreis"},"federalState":{"key":"08","name":"Baden-Württemberg"}},{"name":"Froschweilerweg","postalCode":"89601","locality":"Schelklingen","municipality":{"key":"08425108","name":"Schelklingen, Stadt","type":"Stadt"},"district":{"key":"08425","name":"Alb-Donau-Kreis","type":"Landkreis"},"federalState":{"key":"08","name":"Baden-Württemberg"}},{"name":"Fuggergasse","postalCode":"89601","locality":"Schelklingen","municipality":{"key":"08425108","name":"Schelklingen, Stadt","type":"Stadt"},"district":{"key":"08425","name":"Alb-Donau-Kreis","type":"Landkreis"},"federalState":{"key":"08","name":"Baden-Württemberg"}},{"name":"Gartenweg","postalCode":"89601","locality":"Schelklingen","municipality":{"key":"08425108","name":"Schelklingen, Stadt","type":"Stadt"},"district":{"key":"08425","name":"Alb-Donau-Kreis","type":"Landkreis"},"federalState":{"key":"08","name":"Baden-Württemberg"}},{"name":"Gerhart-Hauptmann-Str.","postalCode":"89601","locality":"Schelklingen","municipality":{"key":"08425108","name":"Schelklingen, Stadt","type":"Stadt"},"district":{"key":"08425","name":"Alb-Donau-Kreis","type":"Landkreis"},"federalState":{"key":"08","name":"Baden-Württemberg"}},{"name":"Goethestr.","postalCode":"89601","locality":"Schelklingen","municipality":{"key":"08425108","name":"Schelklingen, Stadt","type":"Stadt"},"district":{"key":"08425","name":"Alb-Donau-Kreis","type":"Landkreis"},"federalState":{"key":"08","name":"Baden-Württemberg"}},{"name":"Grenzstr.","postalCode":"89601","locality":"Schelklingen","municipality":{"key":"08425108","name":"Schelklingen, Stadt","type":"Stadt"},"district":{"key":"08425","name":"Alb-Donau-Kreis","type":"Landkreis"},"federalState":{"key":"08","name":"Baden-Württemberg"}},{"name":"Häfnerweg","postalCode":"89601","locality":"Schelklingen","municipality":{"key":"08425108","name":"Schelklingen, Stadt","type":"Stadt"},"district":{"key":"08425","name":"Alb-Donau-Kreis","type":"Landkreis"},"federalState":{"key":"08","name":"Baden-Württemberg"}},{"name":"Haldenweg","postalCode":"89601","locality":"Schelklingen","municipality":{"key":"08425108","name":"Schelklingen, Stadt","type":"Stadt"},"district":{"key":"08425","name":"Alb-Donau-Kreis","type":"Landkreis"},"federalState":{"key":"08","name":"Baden-Württemberg"}},{"name":"Hammerstein","postalCode":"89601","locality":"Schelklingen","municipality":{"key":"08425108","name":"Schelklingen, Stadt","type":"Stadt"},"district":{"key":"08425","name":"Alb-Donau-Kreis","type":"Landkreis"},"federalState":{"key":"08","name":"Baden-Württemberg"}},{"name":"Hanswolfengasse","postalCode":"89601","locality":"Schelklingen","municipality":{"key":"08425108","name":"Schelklingen, Stadt","type":"Stadt"},"district":{"key":"08425","name":"Alb-Donau-Kreis","type":"Landkreis"},"federalState":{"key":"08","name":"Baden-Württemberg"}},{"name":"Harlandstr.","postalCode":"89601","locality":"Schelklingen","municipality":{"key":"08425108","name":"Schelklingen, Stadt","type":"Stadt"},"district":{"key":"08425","name":"Alb-Donau-Kreis","type":"Landkreis"},"federalState":{"key":"08","name":"Baden-Württemberg"}},{"name":"Harlanweg","postalCode":"89601","locality":"Schelklingen","municipality":{"key":"08425108","name":"Schelklingen, Stadt","type":"Stadt"},"district":{"key":"08425","name":"Alb-Donau-Kreis","type":"Landkreis"},"federalState":{"key":"08","name":"Baden-Württemberg"}},{"name":"Hauptstr.","postalCode":"89601","locality":"Schelklingen","municipality":{"key":"08425108","name":"Schelklingen, Stadt","type":"Stadt"},"district":{"key":"08425","name":"Alb-Donau-Kreis","type":"Landkreis"},"federalState":{"key":"08","name":"Baden-Württemberg"}},{"name":"Heinrich-Bebel-Str.","postalCode":"89601","locality":"Schelklingen","municipality":{"key":"08425108","name":"Schelklingen, Stadt","type":"Stadt"},"district":{"key":"08425","name":"Alb-Donau-Kreis","type":"Landkreis"},"federalState":{"key":"08","name":"Baden-Württemberg"}},{"name":"Heinrich-Günter-Str.","postalCode":"89601","locality":"Schelklingen","municipality":{"key":"08425108","name":"Schelklingen, Stadt","type":"Stadt"},"district":{"key":"08425","name":"Alb-Donau-Kreis","type":"Landkreis"},"federalState":{"key":"08","name":"Baden-Württemberg"}},{"name":"Herz-Jesu-Berg","postalCode":"89601","locality":"Schelklingen","municipality":{"key":"08425108","name":"Schelklingen, Stadt","type":"Stadt"},"district":{"key":"08425","name":"Alb-Donau-Kreis","type":"Landkreis"},"federalState":{"key":"08","name":"Baden-Württemberg"}},{"name":"Hilzbergweg","postalCode":"89601","locality":"Schelklingen","municipality":{"key":"08425108","name":"Schelklingen, Stadt","type":"Stadt"},"district":{"key":"08425","name":"Alb-Donau-Kreis","type":"Landkreis"},"federalState":{"key":"08","name":"Baden-Württemberg"}},{"name":"Hinter dem Weiher","postalCode":"89601","locality":"Schelklingen","municipality":{"key":"08425108","name":"Schelklingen, Stadt","type":"Stadt"},"district":{"key":"08425","name":"Alb-Donau-Kreis","type":"Landkreis"},"federalState":{"key":"08","name":"Baden-Württemberg"}},{"name":"Hinter der Kirche","postalCode":"89601","locality":"Schelklingen","municipality":{"key":"08425108","name":"Schelklingen, Stadt","type":"Stadt"},"district":{"key":"08425","name":"Alb-Donau-Kreis","type":"Landkreis"},"federalState":{"key":"08","name":"Baden-Württemberg"}},{"name":"Hintere Wiesen","postalCode":"89601","locality":"Schelklingen","municipality":{"key":"08425108","name":"Schelklingen, Stadt","type":"Stadt"},"district":{"key":"08425","name":"Alb-Donau-Kreis","type":"Landkreis"},"federalState":{"key":"08","name":"Baden-Württemberg"}},{"name":"Hirschgasse","postalCode":"89601","locality":"Schelklingen","municipality":{"key":"08425108","name":"Schelklingen, Stadt","type":"Stadt"},"district":{"key":"08425","name":"Alb-Donau-Kreis","type":"Landkreis"},"federalState":{"key":"08","name":"Baden-Württemberg"}},{"name":"Höhenweg","postalCode":"89601","locality":"Schelklingen","municipality":{"key":"08425108","name":"Schelklingen, Stadt","type":"Stadt"},"district":{"key":"08425","name":"Alb-Donau-Kreis","type":"Landkreis"},"federalState":{"key":"08","name":"Baden-Württemberg"}},{"name":"Hohler-Felsen-Weg","postalCode":"89601","locality":"Schelklingen","municipality":{"key":"08425108","name":"Schelklingen, Stadt","type":"Stadt"},"district":{"key":"08425","name":"Alb-Donau-Kreis","type":"Landkreis"},"federalState":{"key":"08","name":"Baden-Württemberg"}},{"name":"Hosenbändel","postalCode":"89601","locality":"Schelklingen","municipality":{"key":"08425108","name":"Schelklingen, Stadt","type":"Stadt"},"district":{"key":"08425","name":"Alb-Donau-Kreis","type":"Landkreis"},"federalState":{"key":"08","name":"Baden-Württemberg"}},{"name":"Hülengässle","postalCode":"89601","locality":"Schelklingen","municipality":{"key":"08425108","name":"Schelklingen, Stadt","type":"Stadt"},"district":{"key":"08425","name":"Alb-Donau-Kreis","type":"Landkreis"},"federalState":{"key":"08","name":"Baden-Württemberg"}},{"name":"Hüttener Str.","postalCode":"89601","locality":"Schelklingen","municipality":{"key":"08425108","name":"Schelklingen, Stadt","type":"Stadt"},"district":{"key":"08425","name":"Alb-Donau-Kreis","type":"Landkreis"},"federalState":{"key":"08","name":"Baden-Württemberg"}},{"name":"Im Längental","postalCode":"89601","locality":"Schelklingen","municipality":{"key":"08425108","name":"Schelklingen, Stadt","type":"Stadt"},"district":{"key":"08425","name":"Alb-Donau-Kreis","type":"Landkreis"},"federalState":{"key":"08","name":"Baden-Württemberg"}},{"name":"Im Oeschle","postalCode":"89601","locality":"Schelklingen","municipality":{"key":"08425108","name":"Schelklingen, Stadt","type":"Stadt"},"district":{"key":"08425","name":"Alb-Donau-Kreis","type":"Landkreis"},"federalState":{"key":"08","name":"Baden-Württemberg"}},{"name":"Im Weiten Tal","postalCode":"89601","locality":"Schelklingen","municipality":{"key":"08425108","name":"Schelklingen, Stadt","type":"Stadt"},"district":{"key":"08425","name":"Alb-Donau-Kreis","type":"Landkreis"},"federalState":{"key":"08","name":"Baden-Württemberg"}},{"name":"Industriestr.","postalCode":"89601","locality":"Schelklingen","municipality":{"key":"08425108","name":"Schelklingen, Stadt","type":"Stadt"},"district":{"key":"08425","name":"Alb-Donau-Kreis","type":"Landkreis"},"federalState":{"key":"08","name":"Baden-Württemberg"}},{"name":"Jahnstr.","postalCode":"89601","locality":"Schelklingen","municipality":{"key":"08425108","name":"Schelklingen, Stadt","type":"Stadt"},"district":{"key":"08425","name":"Alb-Donau-Kreis","type":"Landkreis"},"federalState":{"key":"08","name":"Baden-Württemberg"}},{"name":"Josef-Klarl-Allee","postalCode":"89601","locality":"Schelklingen","municipality":{"key":"08425108","name":"Schelklingen, Stadt","type":"Stadt"},"district":{"key":"08425","name":"Alb-Donau-Kreis","type":"Landkreis"},"federalState":{"key":"08","name":"Baden-Württemberg"}},{"name":"Justinger Weg","postalCode":"89601","locality":"Schelklingen","municipality":{"key":"08425108","name":"Schelklingen, Stadt","type":"Stadt"},"district":{"key":"08425","name":"Alb-Donau-Kreis","type":"Landkreis"},"federalState":{"key":"08","name":"Baden-Württemberg"}},{"name":"Kaimstr.","postalCode":"89601","locality":"Schelklingen","municipality":{"key":"08425108","name":"Schelklingen, Stadt","type":"Stadt"},"district":{"key":"08425","name":"Alb-Donau-Kreis","type":"Landkreis"},"federalState":{"key":"08","name":"Baden-Württemberg"}},{"name":"Kanzleigasse","postalCode":"89601","locality":"Schelklingen","municipality":{"key":"08425108","name":"Schelklingen, Stadt","type":"Stadt"},"district":{"key":"08425","name":"Alb-Donau-Kreis","type":"Landkreis"},"federalState":{"key":"08","name":"Baden-Württemberg"}},{"name":"Kapellenstr.","postalCode":"89601","locality":"Schelklingen","municipality":{"key":"08425108","name":"Schelklingen, Stadt","type":"Stadt"},"district":{"key":"08425","name":"Alb-Donau-Kreis","type":"Landkreis"},"federalState":{"key":"08","name":"Baden-Württemberg"}},{"name":"Kapfstr.","postalCode":"89601","locality":"Schelklingen","municipality":{"key":"08425108","name":"Schelklingen, Stadt","type":"Stadt"},"district":{"key":"08425","name":"Alb-Donau-Kreis","type":"Landkreis"},"federalState":{"key":"08","name":"Baden-Württemberg"}},{"name":"Karl-Ehmann-Str.","postalCode":"89601","locality":"Schelklingen","municipality":{"key":"08425108","name":"Schelklingen, Stadt","type":"Stadt"},"district":{"key":"08425","name":"Alb-Donau-Kreis","type":"Landkreis"},"federalState":{"key":"08","name":"Baden-Württemberg"}},{"name":"Karolingerstr.","postalCode":"89601","locality":"Schelklingen","municipality":{"key":"08425108","name":"Schelklingen, Stadt","type":"Stadt"},"district":{"key":"08425","name":"Alb-Donau-Kreis","type":"Landkreis"},"federalState":{"key":"08","name":"Baden-Württemberg"}},{"name":"Keltenstr.","postalCode":"89601","locality":"Schelklingen","municipality":{"key":"08425108","name":"Schelklingen, Stadt","type":"Stadt"},"district":{"key":"08425","name":"Alb-Donau-Kreis","type":"Landkreis"},"federalState":{"key":"08","name":"Baden-Württemberg"}},{"name":"Kirchplatz","postalCode":"89601","locality":"Schelklingen","municipality":{"key":"08425108","name":"Schelklingen, Stadt","type":"Stadt"},"district":{"key":"08425","name":"Alb-Donau-Kreis","type":"Landkreis"},"federalState":{"key":"08","name":"Baden-Württemberg"}},{"name":"Kirchstr.","postalCode":"89601","locality":"Schelklingen","municipality":{"key":"08425108","name":"Schelklingen, Stadt","type":"Stadt"},"district":{"key":"08425","name":"Alb-Donau-Kreis","type":"Landkreis"},"federalState":{"key":"08","name":"Baden-Württemberg"}},{"name":"Kleemeisterei","postalCode":"89601","locality":"Schelklingen","municipality":{"key":"08425108","name":"Schelklingen, Stadt","type":"Stadt"},"district":{"key":"08425","name":"Alb-Donau-Kreis","type":"Landkreis"},"federalState":{"key":"08","name":"Baden-Württemberg"}},{"name":"Konradistr.","postalCode":"89601","locality":"Schelklingen","municipality":{"key":"08425108","name":"Schelklingen, Stadt","type":"Stadt"},"district":{"key":"08425","name":"Alb-Donau-Kreis","type":"Landkreis"},"federalState":{"key":"08","name":"Baden-Württemberg"}},{"name":"Langengasse","postalCode":"89601","locality":"Schelklingen","municipality":{"key":"08425108","name":"Schelklingen, Stadt","type":"Stadt"},"district":{"key":"08425","name":"Alb-Donau-Kreis","type":"Landkreis"},"federalState":{"key":"08","name":"Baden-Württemberg"}},{"name":"Lindenstr.","postalCode":"89601","locality":"Schelklingen","municipality":{"key":"08425108","name":"Schelklingen, Stadt","type":"Stadt"},"district":{"key":"08425","name":"Alb-Donau-Kreis","type":"Landkreis"},"federalState":{"key":"08","name":"Baden-Württemberg"}},{"name":"Magolsheimer Str.","postalCode":"89601","locality":"Schelklingen","municipality":{"key":"08425108","name":"Schelklingen, Stadt","type":"Stadt"},"district":{"key":"08425","name":"Alb-Donau-Kreis","type":"Landkreis"},"federalState":{"key":"08","name":"Baden-Württemberg"}},{"name":"Marktstr.","postalCode":"89601","locality":"Schelklingen","municipality":{"key":"08425108","name":"Schelklingen, Stadt","type":"Stadt"},"district":{"key":"08425","name":"Alb-Donau-Kreis","type":"Landkreis"},"federalState":{"key":"08","name":"Baden-Württemberg"}},{"name":"Maximilian-Kottmann-Platz","postalCode":"89601","locality":"Schelklingen","municipality":{"key":"08425108","name":"Schelklingen, Stadt","type":"Stadt"},"district":{"key":"08425","name":"Alb-Donau-Kreis","type":"Landkreis"},"federalState":{"key":"08","name":"Baden-Württemberg"}},{"name":"Mehrstetter Str.","postalCode":"89601","locality":"Schelklingen","municipality":{"key":"08425108","name":"Schelklingen, Stadt","type":"Stadt"},"district":{"key":"08425","name":"Alb-Donau-Kreis","type":"Landkreis"},"federalState":{"key":"08","name":"Baden-Württemberg"}},{"name":"Merowingerstr.","postalCode":"89601","locality":"Schelklingen","municipality":{"key":"08425108","name":"Schelklingen, Stadt","type":"Stadt"},"district":{"key":"08425","name":"Alb-Donau-Kreis","type":"Landkreis"},"federalState":{"key":"08","name":"Baden-Württemberg"}},{"name":"Miehnsteige","postalCode":"89601","locality":"Schelklingen","municipality":{"key":"08425108","name":"Schelklingen, Stadt","type":"Stadt"},"district":{"key":"08425","name":"Alb-Donau-Kreis","type":"Landkreis"},"federalState":{"key":"08","name":"Baden-Württemberg"}},{"name":"Mohrengasse","postalCode":"89601","locality":"Schelklingen","municipality":{"key":"08425108","name":"Schelklingen, Stadt","type":"Stadt"},"district":{"key":"08425","name":"Alb-Donau-Kreis","type":"Landkreis"},"federalState":{"key":"08","name":"Baden-Württemberg"}},{"name":"Mönchgasse","postalCode":"89601","locality":"Schelklingen","municipality":{"key":"08425108","name":"Schelklingen, Stadt","type":"Stadt"},"district":{"key":"08425","name":"Alb-Donau-Kreis","type":"Landkreis"},"federalState":{"key":"08","name":"Baden-Württemberg"}},{"name":"Mörikestr.","postalCode":"89601","locality":"Schelklingen","municipality":{"key":"08425108","name":"Schelklingen, Stadt","type":"Stadt"},"district":{"key":"08425","name":"Alb-Donau-Kreis","type":"Landkreis"},"federalState":{"key":"08","name":"Baden-Württemberg"}},{"name":"Mühlstr.","postalCode":"89601","locality":"Schelklingen","municipality":{"key":"08425108","name":"Schelklingen, Stadt","type":"Stadt"},"district":{"key":"08425","name":"Alb-Donau-Kreis","type":"Landkreis"},"federalState":{"key":"08","name":"Baden-Württemberg"}},{"name":"Mühlwiesen","postalCode":"89601","locality":"Schelklingen","municipality":{"key":"08425108","name":"Schelklingen, Stadt","type":"Stadt"},"district":{"key":"08425","name":"Alb-Donau-Kreis","type":"Landkreis"},"federalState":{"key":"08","name":"Baden-Württemberg"}},{"name":"Müllergasse","postalCode":"89601","locality":"Schelklingen","municipality":{"key":"08425108","name":"Schelklingen, Stadt","type":"Stadt"},"district":{"key":"08425","name":"Alb-Donau-Kreis","type":"Landkreis"},"federalState":{"key":"08","name":"Baden-Württemberg"}},{"name":"Münsinger Str.","postalCode":"89601","locality":"Schelklingen","municipality":{"key":"08425108","name":"Schelklingen, Stadt","type":"Stadt"},"district":{"key":"08425","name":"Alb-Donau-Kreis","type":"Landkreis"},"federalState":{"key":"08","name":"Baden-Württemberg"}},{"name":"Nauklerstr.","postalCode":"89601","locality":"Schelklingen","municipality":{"key":"08425108","name":"Schelklingen, Stadt","type":"Stadt"},"district":{"key":"08425","name":"Alb-Donau-Kreis","type":"Landkreis"},"federalState":{"key":"08","name":"Baden-Württemberg"}},{"name":"Neue Str.","postalCode":"89601","locality":"Schelklingen","municipality":{"key":"08425108","name":"Schelklingen, Stadt","type":"Stadt"},"district":{"key":"08425","name":"Alb-Donau-Kreis","type":"Landkreis"},"federalState":{"key":"08","name":"Baden-Württemberg"}},{"name":"Neusteußlingen","postalCode":"89601","locality":"Schelklingen","municipality":{"key":"08425108","name":"Schelklingen, Stadt","type":"Stadt"},"district":{"key":"08425","name":"Alb-Donau-Kreis","type":"Landkreis"},"federalState":{"key":"08","name":"Baden-Württemberg"}},{"name":"Obere Halde","postalCode":"89601","locality":"Schelklingen","municipality":{"key":"08425108","name":"Schelklingen, Stadt","type":"Stadt"},"district":{"key":"08425","name":"Alb-Donau-Kreis","type":"Landkreis"},"federalState":{"key":"08","name":"Baden-Württemberg"}},{"name":"Oberschelklinger Weg","postalCode":"89601","locality":"Schelklingen","municipality":{"key":"08425108","name":"Schelklingen, Stadt","type":"Stadt"},"district":{"key":"08425","name":"Alb-Donau-Kreis","type":"Landkreis"},"federalState":{"key":"08","name":"Baden-Württemberg"}},{"name":"Panoramastr.","postalCode":"89601","locality":"Schelklingen","municipality":{"key":"08425108","name":"Schelklingen, Stadt","type":"Stadt"},"district":{"key":"08425","name":"Alb-Donau-Kreis","type":"Landkreis"},"federalState":{"key":"08","name":"Baden-Württemberg"}},{"name":"Paul-Wiegand-Str.","postalCode":"89601","locality":"Schelklingen","municipality":{"key":"08425108","name":"Schelklingen, Stadt","type":"Stadt"},"district":{"key":"08425","name":"Alb-Donau-Kreis","type":"Landkreis"},"federalState":{"key":"08","name":"Baden-Württemberg"}},{"name":"Philosophenweg","postalCode":"89601","locality":"Schelklingen","municipality":{"key":"08425108","name":"Schelklingen, Stadt","type":"Stadt"},"district":{"key":"08425","name":"Alb-Donau-Kreis","type":"Landkreis"},"federalState":{"key":"08","name":"Baden-Württemberg"}},{"name":"Poststr.","postalCode":"89601","locality":"Schelklingen","municipality":{"key":"08425108","name":"Schelklingen, Stadt","type":"Stadt"},"district":{"key":"08425","name":"Alb-Donau-Kreis","type":"Landkreis"},"federalState":{"key":"08","name":"Baden-Württemberg"}},{"name":"Reihingweg","postalCode":"89601","locality":"Schelklingen","municipality":{"key":"08425108","name":"Schelklingen, Stadt","type":"Stadt"},"district":{"key":"08425","name":"Alb-Donau-Kreis","type":"Landkreis"},"federalState":{"key":"08","name":"Baden-Württemberg"}},{"name":"Riedwiesenweg","postalCode":"89601","locality":"Schelklingen","municipality":{"key":"08425108","name":"Schelklingen, Stadt","type":"Stadt"},"district":{"key":"08425","name":"Alb-Donau-Kreis","type":"Landkreis"},"federalState":{"key":"08","name":"Baden-Württemberg"}},{"name":"Ringinger Str.","postalCode":"89601","locality":"Schelklingen","municipality":{"key":"08425108","name":"Schelklingen, Stadt","type":"Stadt"},"district":{"key":"08425","name":"Alb-Donau-Kreis","type":"Landkreis"},"federalState":{"key":"08","name":"Baden-Württemberg"}},{"name":"Ringstr.","postalCode":"89601","locality":"Schelklingen","municipality":{"key":"08425108","name":"Schelklingen, Stadt","type":"Stadt"},"district":{"key":"08425","name":"Alb-Donau-Kreis","type":"Landkreis"},"federalState":{"key":"08","name":"Baden-Württemberg"}},{"name":"Römerstr.","postalCode":"89601","locality":"Schelklingen","municipality":{"key":"08425108","name":"Schelklingen, Stadt","type":"Stadt"},"district":{"key":"08425","name":"Alb-Donau-Kreis","type":"Landkreis"},"federalState":{"key":"08","name":"Baden-Württemberg"}},{"name":"Rosenweg","postalCode":"89601","locality":"Schelklingen","municipality":{"key":"08425108","name":"Schelklingen, Stadt","type":"Stadt"},"district":{"key":"08425","name":"Alb-Donau-Kreis","type":"Landkreis"},"federalState":{"key":"08","name":"Baden-Württemberg"}},{"name":"Sankt-Afra-Weg","postalCode":"89601","locality":"Schelklingen","municipality":{"key":"08425108","name":"Schelklingen, Stadt","type":"Stadt"},"district":{"key":"08425","name":"Alb-Donau-Kreis","type":"Landkreis"},"federalState":{"key":"08","name":"Baden-Württemberg"}},{"name":"Sankt-Anna-Str.","postalCode":"89601","locality":"Schelklingen","municipality":{"key":"08425108","name":"Schelklingen, Stadt","type":"Stadt"},"district":{"key":"08425","name":"Alb-Donau-Kreis","type":"Landkreis"},"federalState":{"key":"08","name":"Baden-Württemberg"}},{"name":"Sankt-Antonius-Str.","postalCode":"89601","locality":"Schelklingen","municipality":{"key":"08425108","name":"Schelklingen, Stadt","type":"Stadt"},"district":{"key":"08425","name":"Alb-Donau-Kreis","type":"Landkreis"},"federalState":{"key":"08","name":"Baden-Württemberg"}},{"name":"Sankt-Oswald-Str.","postalCode":"89601","locality":"Schelklingen","municipality":{"key":"08425108","name":"Schelklingen, Stadt","type":"Stadt"},"district":{"key":"08425","name":"Alb-Donau-Kreis","type":"Landkreis"},"federalState":{"key":"08","name":"Baden-Württemberg"}},{"name":"Schelklingerbergweg","postalCode":"89601","locality":"Schelklingen","municipality":{"key":"08425108","name":"Schelklingen, Stadt","type":"Stadt"},"district":{"key":"08425","name":"Alb-Donau-Kreis","type":"Landkreis"},"federalState":{"key":"08","name":"Baden-Württemberg"}},{"name":"Schelklinger Str.","postalCode":"89601","locality":"Schelklingen","municipality":{"key":"08425108","name":"Schelklingen, Stadt","type":"Stadt"},"district":{"key":"08425","name":"Alb-Donau-Kreis","type":"Landkreis"},"federalState":{"key":"08","name":"Baden-Württemberg"}},{"name":"Schillerstr.","postalCode":"89601","locality":"Schelklingen","municipality":{"key":"08425108","name":"Schelklingen, Stadt","type":"Stadt"},"district":{"key":"08425","name":"Alb-Donau-Kreis","type":"Landkreis"},"federalState":{"key":"08","name":"Baden-Württemberg"}},{"name":"Schlehenweg","postalCode":"89601","locality":"Schelklingen","municipality":{"key":"08425108","name":"Schelklingen, Stadt","type":"Stadt"},"district":{"key":"08425","name":"Alb-Donau-Kreis","type":"Landkreis"},"federalState":{"key":"08","name":"Baden-Württemberg"}},{"name":"Schlesier Str.","postalCode":"89601","locality":"Schelklingen","municipality":{"key":"08425108","name":"Schelklingen, Stadt","type":"Stadt"},"district":{"key":"08425","name":"Alb-Donau-Kreis","type":"Landkreis"},"federalState":{"key":"08","name":"Baden-Württemberg"}},{"name":"Schloßberg","postalCode":"89601","locality":"Schelklingen","municipality":{"key":"08425108","name":"Schelklingen, Stadt","type":"Stadt"},"district":{"key":"08425","name":"Alb-Donau-Kreis","type":"Landkreis"},"federalState":{"key":"08","name":"Baden-Württemberg"}},{"name":"Schlosserstr.","postalCode":"89601","locality":"Schelklingen","municipality":{"key":"08425108","name":"Schelklingen, Stadt","type":"Stadt"},"district":{"key":"08425","name":"Alb-Donau-Kreis","type":"Landkreis"},"federalState":{"key":"08","name":"Baden-Württemberg"}},{"name":"Schloßgasse","postalCode":"89601","locality":"Schelklingen","municipality":{"key":"08425108","name":"Schelklingen, Stadt","type":"Stadt"},"district":{"key":"08425","name":"Alb-Donau-Kreis","type":"Landkreis"},"federalState":{"key":"08","name":"Baden-Württemberg"}},{"name":"Schmiechstr.","postalCode":"89601","locality":"Schelklingen","municipality":{"key":"08425108","name":"Schelklingen, Stadt","type":"Stadt"},"district":{"key":"08425","name":"Alb-Donau-Kreis","type":"Landkreis"},"federalState":{"key":"08","name":"Baden-Württemberg"}},{"name":"Schulstr.","postalCode":"89601","locality":"Schelklingen","municipality":{"key":"08425108","name":"Schelklingen, Stadt","type":"Stadt"},"district":{"key":"08425","name":"Alb-Donau-Kreis","type":"Landkreis"},"federalState":{"key":"08","name":"Baden-Württemberg"}},{"name":"Schwarzer-Weiher-Str.","postalCode":"89601","locality":"Schelklingen","municipality":{"key":"08425108","name":"Schelklingen, Stadt","type":"Stadt"},"district":{"key":"08425","name":"Alb-Donau-Kreis","type":"Landkreis"},"federalState":{"key":"08","name":"Baden-Württemberg"}},{"name":"Siedlerweg","postalCode":"89601","locality":"Schelklingen","municipality":{"key":"08425108","name":"Schelklingen, Stadt","type":"Stadt"},"district":{"key":"08425","name":"Alb-Donau-Kreis","type":"Landkreis"},"federalState":{"key":"08","name":"Baden-Württemberg"}},{"name":"Sommerberg","postalCode":"89601","locality":"Schelklingen","municipality":{"key":"08425108","name":"Schelklingen, Stadt","type":"Stadt"},"district":{"key":"08425","name":"Alb-Donau-Kreis","type":"Landkreis"},"federalState":{"key":"08","name":"Baden-Württemberg"}},{"name":"Sondernach","postalCode":"89601","locality":"Schelklingen","municipality":{"key":"08425108","name":"Schelklingen, Stadt","type":"Stadt"},"district":{"key":"08425","name":"Alb-Donau-Kreis","type":"Landkreis"},"federalState":{"key":"08","name":"Baden-Württemberg"}},{"name":"Spitalgasse","postalCode":"89601","locality":"Schelklingen","municipality":{"key":"08425108","name":"Schelklingen, Stadt","type":"Stadt"},"district":{"key":"08425","name":"Alb-Donau-Kreis","type":"Landkreis"},"federalState":{"key":"08","name":"Baden-Württemberg"}},{"name":"Springensteige","postalCode":"89601","locality":"Schelklingen","municipality":{"key":"08425108","name":"Schelklingen, Stadt","type":"Stadt"},"district":{"key":"08425","name":"Alb-Donau-Kreis","type":"Landkreis"},"federalState":{"key":"08","name":"Baden-Württemberg"}},{"name":"Stadtschreibereistr.","postalCode":"89601","locality":"Schelklingen","municipality":{"key":"08425108","name":"Schelklingen, Stadt","type":"Stadt"},"district":{"key":"08425","name":"Alb-Donau-Kreis","type":"Landkreis"},"federalState":{"key":"08","name":"Baden-Württemberg"}},{"name":"Staudenweg","postalCode":"89601","locality":"Schelklingen","municipality":{"key":"08425108","name":"Schelklingen, Stadt","type":"Stadt"},"district":{"key":"08425","name":"Alb-Donau-Kreis","type":"Landkreis"},"federalState":{"key":"08","name":"Baden-Württemberg"}},{"name":"Stauferweg","postalCode":"89601","locality":"Schelklingen","municipality":{"key":"08425108","name":"Schelklingen, Stadt","type":"Stadt"},"district":{"key":"08425","name":"Alb-Donau-Kreis","type":"Landkreis"},"federalState":{"key":"08","name":"Baden-Württemberg"}},{"name":"Steigle","postalCode":"89601","locality":"Schelklingen","municipality":{"key":"08425108","name":"Schelklingen, Stadt","type":"Stadt"},"district":{"key":"08425","name":"Alb-Donau-Kreis","type":"Landkreis"},"federalState":{"key":"08","name":"Baden-Württemberg"}},{"name":"Steigstr.","postalCode":"89601","locality":"Schelklingen","municipality":{"key":"08425108","name":"Schelklingen, Stadt","type":"Stadt"},"district":{"key":"08425","name":"Alb-Donau-Kreis","type":"Landkreis"},"federalState":{"key":"08","name":"Baden-Württemberg"}},{"name":"Stiegeleweg","postalCode":"89601","locality":"Schelklingen","municipality":{"key":"08425108","name":"Schelklingen, Stadt","type":"Stadt"},"district":{"key":"08425","name":"Alb-Donau-Kreis","type":"Landkreis"},"federalState":{"key":"08","name":"Baden-Württemberg"}},{"name":"Stöfflerweg","postalCode":"89601","locality":"Schelklingen","municipality":{"key":"08425108","name":"Schelklingen, Stadt","type":"Stadt"},"district":{"key":"08425","name":"Alb-Donau-Kreis","type":"Landkreis"},"federalState":{"key":"08","name":"Baden-Württemberg"}},{"name":"Stummengäßle","postalCode":"89601","locality":"Schelklingen","municipality":{"key":"08425108","name":"Schelklingen, Stadt","type":"Stadt"},"district":{"key":"08425","name":"Alb-Donau-Kreis","type":"Landkreis"},"federalState":{"key":"08","name":"Baden-Württemberg"}},{"name":"Talstr.","postalCode":"89601","locality":"Schelklingen","municipality":{"key":"08425108","name":"Schelklingen, Stadt","type":"Stadt"},"district":{"key":"08425","name":"Alb-Donau-Kreis","type":"Landkreis"},"federalState":{"key":"08","name":"Baden-Württemberg"}},{"name":"Uhlandstr.","postalCode":"89601","locality":"Schelklingen","municipality":{"key":"08425108","name":"Schelklingen, Stadt","type":"Stadt"},"district":{"key":"08425","name":"Alb-Donau-Kreis","type":"Landkreis"},"federalState":{"key":"08","name":"Baden-Württemberg"}},{"name":"Ulmer Str.","postalCode":"89601","locality":"Schelklingen","municipality":{"key":"08425108","name":"Schelklingen, Stadt","type":"Stadt"},"district":{"key":"08425","name":"Alb-Donau-Kreis","type":"Landkreis"},"federalState":{"key":"08","name":"Baden-Württemberg"}},{"name":"Untere Halde","postalCode":"89601","locality":"Schelklingen","municipality":{"key":"08425108","name":"Schelklingen, Stadt","type":"Stadt"},"district":{"key":"08425","name":"Alb-Donau-Kreis","type":"Landkreis"},"federalState":{"key":"08","name":"Baden-Württemberg"}},{"name":"Von-Fleck-Str.","postalCode":"89601","locality":"Schelklingen","municipality":{"key":"08425108","name":"Schelklingen, Stadt","type":"Stadt"},"district":{"key":"08425","name":"Alb-Donau-Kreis","type":"Landkreis"},"federalState":{"key":"08","name":"Baden-Württemberg"}},{"name":"Weite Str.","postalCode":"89601","locality":"Schelklingen","municipality":{"key":"08425108","name":"Schelklingen, Stadt","type":"Stadt"},"district":{"key":"08425","name":"Alb-Donau-Kreis","type":"Landkreis"},"federalState":{"key":"08","name":"Baden-Württemberg"}},{"name":"Wiesentalstr.","postalCode":"89601","locality":"Schelklingen","municipality":{"key":"08425108","name":"Schelklingen, Stadt","type":"Stadt"},"district":{"key":"08425","name":"Alb-Donau-Kreis","type":"Landkreis"},"federalState":{"key":"08","name":"Baden-Württemberg"}},{"name":"Wiesenweg","postalCode":"89601","locality":"Schelklingen","municipality":{"key":"08425108","name":"Schelklingen, Stadt","type":"Stadt"},"district":{"key":"08425","name":"Alb-Donau-Kreis","type":"Landkreis"},"federalState":{"key":"08","name":"Baden-Württemberg"}},{"name":"Zehntgasse","postalCode":"89601","locality":"Schelklingen","municipality":{"key":"08425108","name":"Schelklingen, Stadt","type":"Stadt"},"district":{"key":"08425","name":"Alb-Donau-Kreis","type":"Landkreis"},"federalState":{"key":"08","name":"Baden-Württemberg"}},{"name":"Zellerstr.","postalCode":"89601","locality":"Schelklingen","municipality":{"key":"08425108","name":"Schelklingen, Stadt","type":"Stadt"},"district":{"key":"08425","name":"Alb-Donau-Kreis","type":"Landkreis"},"federalState":{"key":"08","name":"Baden-Württemberg"}},{"name":"Zelterstr.","postalCode":"89601","locality":"Schelklingen","municipality":{"key":"08425108","name":"Schelklingen, Stadt","type":"Stadt"},"district":{"key":"08425","name":"Alb-Donau-Kreis","type":"Landkreis"},"federalState":{"key":"08","name":"Baden-Württemberg"}},{"name":"Zementwerk","postalCode":"89601","locality":"Schelklingen","municipality":{"key":"08425108","name":"Schelklingen, Stadt","type":"Stadt"},"district":{"key":"08425","name":"Alb-Donau-Kreis","type":"Landkreis"},"federalState":{"key":"08","name":"Baden-Württemberg"}},{"name":"Zollerplatz","postalCode":"89601","locality":"Schelklingen","municipality":{"key":"08425108","name":"Schelklingen, Stadt","type":"Stadt"},"district":{"key":"08425","name":"Alb-Donau-Kreis","type":"Landkreis"},"federalState":{"key":"08","name":"Baden-Württemberg"}},{"name":"Zum Kreuzberg","postalCode":"89601","locality":"Schelklingen","municipality":{"key":"08425108","name":"Schelklingen, Stadt","type":"Stadt"},"district":{"key":"08425","name":"Alb-Donau-Kreis","type":"Landkreis"},"federalState":{"key":"08","name":"Baden-Württemberg"}},{"name":"Zwerenbuchweg","postalCode":"89601","locality":"Schelklingen","municipality":{"key":"08425108","name":"Schelklingen, Stadt","type":"Stadt"},"district":{"key":"08425","name":"Alb-Donau-Kreis","type":"Landkreis"},"federalState":{"key":"08","name":"Baden-Württemberg"}},]