[{"name":"Am Brammerberg","postalCode":"24358","locality":"Ascheffel","municipality":{"key":"01058008","name":"Ascheffel","type":"Kreisangehörige_Gemeinde"},"district":{"key":"01058","name":"Rendsburg-Eckernförde","type":"Kreis"},"federalState":{"key":"01","name":"Schleswig-Holstein"}},{"name":"An der Forta","postalCode":"24358","locality":"Ascheffel","municipality":{"key":"01058008","name":"Ascheffel","type":"Kreisangehörige_Gemeinde"},"district":{"key":"01058","name":"Rendsburg-Eckernförde","type":"Kreis"},"federalState":{"key":"01","name":"Schleswig-Holstein"}},{"name":"Aschbergweg","postalCode":"24358","locality":"Ascheffel","municipality":{"key":"01058008","name":"Ascheffel","type":"Kreisangehörige_Gemeinde"},"district":{"key":"01058","name":"Rendsburg-Eckernförde","type":"Kreis"},"federalState":{"key":"01","name":"Schleswig-Holstein"}},{"name":"Bergstr.","postalCode":"24358","locality":"Ascheffel","municipality":{"key":"01058008","name":"Ascheffel","type":"Kreisangehörige_Gemeinde"},"district":{"key":"01058","name":"Rendsburg-Eckernförde","type":"Kreis"},"federalState":{"key":"01","name":"Schleswig-Holstein"}},{"name":"Clas Cuhlen","postalCode":"24358","locality":"Ascheffel","municipality":{"key":"01058008","name":"Ascheffel","type":"Kreisangehörige_Gemeinde"},"district":{"key":"01058","name":"Rendsburg-Eckernförde","type":"Kreis"},"federalState":{"key":"01","name":"Schleswig-Holstein"}},{"name":"Dorfstr.","postalCode":"24358","locality":"Ascheffel","municipality":{"key":"01058008","name":"Ascheffel","type":"Kreisangehörige_Gemeinde"},"district":{"key":"01058","name":"Rendsburg-Eckernförde","type":"Kreis"},"federalState":{"key":"01","name":"Schleswig-Holstein"}},{"name":"Förstereiweg","postalCode":"24358","locality":"Ascheffel","municipality":{"key":"01058008","name":"Ascheffel","type":"Kreisangehörige_Gemeinde"},"district":{"key":"01058","name":"Rendsburg-Eckernförde","type":"Kreis"},"federalState":{"key":"01","name":"Schleswig-Holstein"}},{"name":"Heerweg","postalCode":"24358","locality":"Ascheffel","municipality":{"key":"01058008","name":"Ascheffel","type":"Kreisangehörige_Gemeinde"},"district":{"key":"01058","name":"Rendsburg-Eckernförde","type":"Kreis"},"federalState":{"key":"01","name":"Schleswig-Holstein"}},{"name":"Heidberg","postalCode":"24358","locality":"Ascheffel","municipality":{"key":"01058008","name":"Ascheffel","type":"Kreisangehörige_Gemeinde"},"district":{"key":"01058","name":"Rendsburg-Eckernförde","type":"Kreis"},"federalState":{"key":"01","name":"Schleswig-Holstein"}},{"name":"Holzkoppel","postalCode":"24358","locality":"Ascheffel","municipality":{"key":"01058008","name":"Ascheffel","type":"Kreisangehörige_Gemeinde"},"district":{"key":"01058","name":"Rendsburg-Eckernförde","type":"Kreis"},"federalState":{"key":"01","name":"Schleswig-Holstein"}},{"name":"Hüttener Weg","postalCode":"24358","locality":"Ascheffel","municipality":{"key":"01058008","name":"Ascheffel","type":"Kreisangehörige_Gemeinde"},"district":{"key":"01058","name":"Rendsburg-Eckernförde","type":"Kreis"},"federalState":{"key":"01","name":"Schleswig-Holstein"}},{"name":"Im Winkel","postalCode":"24358","locality":"Ascheffel","municipality":{"key":"01058008","name":"Ascheffel","type":"Kreisangehörige_Gemeinde"},"district":{"key":"01058","name":"Rendsburg-Eckernförde","type":"Kreis"},"federalState":{"key":"01","name":"Schleswig-Holstein"}},{"name":"Klasrot","postalCode":"24358","locality":"Ascheffel","municipality":{"key":"01058008","name":"Ascheffel","type":"Kreisangehörige_Gemeinde"},"district":{"key":"01058","name":"Rendsburg-Eckernförde","type":"Kreis"},"federalState":{"key":"01","name":"Schleswig-Holstein"}},{"name":"Küsterkoppel","postalCode":"24358","locality":"Ascheffel","municipality":{"key":"01058008","name":"Ascheffel","type":"Kreisangehörige_Gemeinde"},"district":{"key":"01058","name":"Rendsburg-Eckernförde","type":"Kreis"},"federalState":{"key":"01","name":"Schleswig-Holstein"}},{"name":"Langstückenweg","postalCode":"24358","locality":"Ascheffel","municipality":{"key":"01058008","name":"Ascheffel","type":"Kreisangehörige_Gemeinde"},"district":{"key":"01058","name":"Rendsburg-Eckernförde","type":"Kreis"},"federalState":{"key":"01","name":"Schleswig-Holstein"}},{"name":"Mühlenweg","postalCode":"24358","locality":"Ascheffel","municipality":{"key":"01058008","name":"Ascheffel","type":"Kreisangehörige_Gemeinde"},"district":{"key":"01058","name":"Rendsburg-Eckernförde","type":"Kreis"},"federalState":{"key":"01","name":"Schleswig-Holstein"}},{"name":"Nordende","postalCode":"24358","locality":"Ascheffel","municipality":{"key":"01058008","name":"Ascheffel","type":"Kreisangehörige_Gemeinde"},"district":{"key":"01058","name":"Rendsburg-Eckernförde","type":"Kreis"},"federalState":{"key":"01","name":"Schleswig-Holstein"}},{"name":"Oberschoothorst","postalCode":"24358","locality":"Ascheffel","municipality":{"key":"01058008","name":"Ascheffel","type":"Kreisangehörige_Gemeinde"},"district":{"key":"01058","name":"Rendsburg-Eckernförde","type":"Kreis"},"federalState":{"key":"01","name":"Schleswig-Holstein"}},{"name":"Ringstr.","postalCode":"24358","locality":"Ascheffel","municipality":{"key":"01058008","name":"Ascheffel","type":"Kreisangehörige_Gemeinde"},"district":{"key":"01058","name":"Rendsburg-Eckernförde","type":"Kreis"},"federalState":{"key":"01","name":"Schleswig-Holstein"}},{"name":"Scheelsberg","postalCode":"24358","locality":"Ascheffel","municipality":{"key":"01058008","name":"Ascheffel","type":"Kreisangehörige_Gemeinde"},"district":{"key":"01058","name":"Rendsburg-Eckernförde","type":"Kreis"},"federalState":{"key":"01","name":"Schleswig-Holstein"}},{"name":"Schulberg","postalCode":"24358","locality":"Ascheffel","municipality":{"key":"01058008","name":"Ascheffel","type":"Kreisangehörige_Gemeinde"},"district":{"key":"01058","name":"Rendsburg-Eckernförde","type":"Kreis"},"federalState":{"key":"01","name":"Schleswig-Holstein"}},{"name":"Sesklint","postalCode":"24358","locality":"Ascheffel","municipality":{"key":"01058008","name":"Ascheffel","type":"Kreisangehörige_Gemeinde"},"district":{"key":"01058","name":"Rendsburg-Eckernförde","type":"Kreis"},"federalState":{"key":"01","name":"Schleswig-Holstein"}},{"name":"Silberbergen","postalCode":"24358","locality":"Ascheffel","municipality":{"key":"01058008","name":"Ascheffel","type":"Kreisangehörige_Gemeinde"},"district":{"key":"01058","name":"Rendsburg-Eckernförde","type":"Kreis"},"federalState":{"key":"01","name":"Schleswig-Holstein"}},{"name":"Südende","postalCode":"24358","locality":"Ascheffel","municipality":{"key":"01058008","name":"Ascheffel","type":"Kreisangehörige_Gemeinde"},"district":{"key":"01058","name":"Rendsburg-Eckernförde","type":"Kreis"},"federalState":{"key":"01","name":"Schleswig-Holstein"}},{"name":"Suhrfeld","postalCode":"24358","locality":"Ascheffel","municipality":{"key":"01058008","name":"Ascheffel","type":"Kreisangehörige_Gemeinde"},"district":{"key":"01058","name":"Rendsburg-Eckernförde","type":"Kreis"},"federalState":{"key":"01","name":"Schleswig-Holstein"}},{"name":"Unterschoothorst","postalCode":"24358","locality":"Ascheffel","municipality":{"key":"01058008","name":"Ascheffel","type":"Kreisangehörige_Gemeinde"},"district":{"key":"01058","name":"Rendsburg-Eckernförde","type":"Kreis"},"federalState":{"key":"01","name":"Schleswig-Holstein"}},{"name":"Vogelsang","postalCode":"24358","locality":"Ascheffel","municipality":{"key":"01058008","name":"Ascheffel","type":"Kreisangehörige_Gemeinde"},"district":{"key":"01058","name":"Rendsburg-Eckernförde","type":"Kreis"},"federalState":{"key":"01","name":"Schleswig-Holstein"}},]