[{"name":"Achterkamp","postalCode":"49846","locality":"Hoogstede","municipality":{"key":"03456009","name":"Hoogstede","type":"Kreisangehörige_Gemeinde"},"district":{"key":"03456","name":"Grafschaft Bentheim","type":"Landkreis"},"federalState":{"key":"03","name":"Niedersachsen"}},{"name":"Ahornstr.","postalCode":"49846","locality":"Hoogstede","municipality":{"key":"03456009","name":"Hoogstede","type":"Kreisangehörige_Gemeinde"},"district":{"key":"03456","name":"Grafschaft Bentheim","type":"Landkreis"},"federalState":{"key":"03","name":"Niedersachsen"}},{"name":"Am Bahnhof","postalCode":"49846","locality":"Hoogstede","municipality":{"key":"03456009","name":"Hoogstede","type":"Kreisangehörige_Gemeinde"},"district":{"key":"03456","name":"Grafschaft Bentheim","type":"Landkreis"},"federalState":{"key":"03","name":"Niedersachsen"}},{"name":"Am Bruchgraben","postalCode":"49846","locality":"Hoogstede","municipality":{"key":"03456009","name":"Hoogstede","type":"Kreisangehörige_Gemeinde"},"district":{"key":"03456","name":"Grafschaft Bentheim","type":"Landkreis"},"federalState":{"key":"03","name":"Niedersachsen"}},{"name":"Am Hüttenböilt","postalCode":"49846","locality":"Hoogstede","municipality":{"key":"03456009","name":"Hoogstede","type":"Kreisangehörige_Gemeinde"},"district":{"key":"03456","name":"Grafschaft Bentheim","type":"Landkreis"},"federalState":{"key":"03","name":"Niedersachsen"}},{"name":"Am Neuen Kamp","postalCode":"49846","locality":"Hoogstede","municipality":{"key":"03456009","name":"Hoogstede","type":"Kreisangehörige_Gemeinde"},"district":{"key":"03456","name":"Grafschaft Bentheim","type":"Landkreis"},"federalState":{"key":"03","name":"Niedersachsen"}},{"name":"Am Neuland","postalCode":"49846","locality":"Hoogstede","municipality":{"key":"03456009","name":"Hoogstede","type":"Kreisangehörige_Gemeinde"},"district":{"key":"03456","name":"Grafschaft Bentheim","type":"Landkreis"},"federalState":{"key":"03","name":"Niedersachsen"}},{"name":"Am Pferdekamp","postalCode":"49846","locality":"Hoogstede","municipality":{"key":"03456009","name":"Hoogstede","type":"Kreisangehörige_Gemeinde"},"district":{"key":"03456","name":"Grafschaft Bentheim","type":"Landkreis"},"federalState":{"key":"03","name":"Niedersachsen"}},{"name":"Am Schulfeld","postalCode":"49846","locality":"Hoogstede","municipality":{"key":"03456009","name":"Hoogstede","type":"Kreisangehörige_Gemeinde"},"district":{"key":"03456","name":"Grafschaft Bentheim","type":"Landkreis"},"federalState":{"key":"03","name":"Niedersachsen"}},{"name":"Am Voresch","postalCode":"49846","locality":"Hoogstede","municipality":{"key":"03456009","name":"Hoogstede","type":"Kreisangehörige_Gemeinde"},"district":{"key":"03456","name":"Grafschaft Bentheim","type":"Landkreis"},"federalState":{"key":"03","name":"Niedersachsen"}},{"name":"Am Wäldchen","postalCode":"49846","locality":"Hoogstede","municipality":{"key":"03456009","name":"Hoogstede","type":"Kreisangehörige_Gemeinde"},"district":{"key":"03456","name":"Grafschaft Bentheim","type":"Landkreis"},"federalState":{"key":"03","name":"Niedersachsen"}},{"name":"Arkel","postalCode":"49846","locality":"Hoogstede","municipality":{"key":"03456009","name":"Hoogstede","type":"Kreisangehörige_Gemeinde"},"district":{"key":"03456","name":"Grafschaft Bentheim","type":"Landkreis"},"federalState":{"key":"03","name":"Niedersachsen"}},{"name":"Bahnhofstr.","postalCode":"49846","locality":"Hoogstede","municipality":{"key":"03456009","name":"Hoogstede","type":"Kreisangehörige_Gemeinde"},"district":{"key":"03456","name":"Grafschaft Bentheim","type":"Landkreis"},"federalState":{"key":"03","name":"Niedersachsen"}},{"name":"Ballast","postalCode":"49846","locality":"Hoogstede","municipality":{"key":"03456009","name":"Hoogstede","type":"Kreisangehörige_Gemeinde"},"district":{"key":"03456","name":"Grafschaft Bentheim","type":"Landkreis"},"federalState":{"key":"03","name":"Niedersachsen"}},{"name":"Bathorner Diek","postalCode":"49846","locality":"Hoogstede","municipality":{"key":"03456009","name":"Hoogstede","type":"Kreisangehörige_Gemeinde"},"district":{"key":"03456","name":"Grafschaft Bentheim","type":"Landkreis"},"federalState":{"key":"03","name":"Niedersachsen"}},{"name":"Bathorner Siedlung","postalCode":"49846","locality":"Hoogstede","municipality":{"key":"03456009","name":"Hoogstede","type":"Kreisangehörige_Gemeinde"},"district":{"key":"03456","name":"Grafschaft Bentheim","type":"Landkreis"},"federalState":{"key":"03","name":"Niedersachsen"}},{"name":"Bergstr.","postalCode":"49846","locality":"Hoogstede","municipality":{"key":"03456009","name":"Hoogstede","type":"Kreisangehörige_Gemeinde"},"district":{"key":"03456","name":"Grafschaft Bentheim","type":"Landkreis"},"federalState":{"key":"03","name":"Niedersachsen"}},{"name":"Birkenstr.","postalCode":"49846","locality":"Hoogstede","municipality":{"key":"03456009","name":"Hoogstede","type":"Kreisangehörige_Gemeinde"},"district":{"key":"03456","name":"Grafschaft Bentheim","type":"Landkreis"},"federalState":{"key":"03","name":"Niedersachsen"}},{"name":"Blanke","postalCode":"49846","locality":"Hoogstede","municipality":{"key":"03456009","name":"Hoogstede","type":"Kreisangehörige_Gemeinde"},"district":{"key":"03456","name":"Grafschaft Bentheim","type":"Landkreis"},"federalState":{"key":"03","name":"Niedersachsen"}},{"name":"Böbbeldiek","postalCode":"49846","locality":"Hoogstede","municipality":{"key":"03456009","name":"Hoogstede","type":"Kreisangehörige_Gemeinde"},"district":{"key":"03456","name":"Grafschaft Bentheim","type":"Landkreis"},"federalState":{"key":"03","name":"Niedersachsen"}},{"name":"Bree","postalCode":"49846","locality":"Hoogstede","municipality":{"key":"03456009","name":"Hoogstede","type":"Kreisangehörige_Gemeinde"},"district":{"key":"03456","name":"Grafschaft Bentheim","type":"Landkreis"},"federalState":{"key":"03","name":"Niedersachsen"}},{"name":"Breslauer Str.","postalCode":"49846","locality":"Hoogstede","municipality":{"key":"03456009","name":"Hoogstede","type":"Kreisangehörige_Gemeinde"},"district":{"key":"03456","name":"Grafschaft Bentheim","type":"Landkreis"},"federalState":{"key":"03","name":"Niedersachsen"}},{"name":"Brookdiek","postalCode":"49846","locality":"Hoogstede","municipality":{"key":"03456009","name":"Hoogstede","type":"Kreisangehörige_Gemeinde"},"district":{"key":"03456","name":"Grafschaft Bentheim","type":"Landkreis"},"federalState":{"key":"03","name":"Niedersachsen"}},{"name":"Buchenstr.","postalCode":"49846","locality":"Hoogstede","municipality":{"key":"03456009","name":"Hoogstede","type":"Kreisangehörige_Gemeinde"},"district":{"key":"03456","name":"Grafschaft Bentheim","type":"Landkreis"},"federalState":{"key":"03","name":"Niedersachsen"}},{"name":"Bürgermeister-Harms-Ensink-Str.","postalCode":"49846","locality":"Hoogstede","municipality":{"key":"03456009","name":"Hoogstede","type":"Kreisangehörige_Gemeinde"},"district":{"key":"03456","name":"Grafschaft Bentheim","type":"Landkreis"},"federalState":{"key":"03","name":"Niedersachsen"}},{"name":"Deilmannstr.","postalCode":"49846","locality":"Hoogstede","municipality":{"key":"03456009","name":"Hoogstede","type":"Kreisangehörige_Gemeinde"},"district":{"key":"03456","name":"Grafschaft Bentheim","type":"Landkreis"},"federalState":{"key":"03","name":"Niedersachsen"}},{"name":"Eichenstr.","postalCode":"49846","locality":"Hoogstede","municipality":{"key":"03456009","name":"Hoogstede","type":"Kreisangehörige_Gemeinde"},"district":{"key":"03456","name":"Grafschaft Bentheim","type":"Landkreis"},"federalState":{"key":"03","name":"Niedersachsen"}},{"name":"Eschweg","postalCode":"49846","locality":"Hoogstede","municipality":{"key":"03456009","name":"Hoogstede","type":"Kreisangehörige_Gemeinde"},"district":{"key":"03456","name":"Grafschaft Bentheim","type":"Landkreis"},"federalState":{"key":"03","name":"Niedersachsen"}},{"name":"Feldweg","postalCode":"49846","locality":"Hoogstede","municipality":{"key":"03456009","name":"Hoogstede","type":"Kreisangehörige_Gemeinde"},"district":{"key":"03456","name":"Grafschaft Bentheim","type":"Landkreis"},"federalState":{"key":"03","name":"Niedersachsen"}},{"name":"Fischerstege","postalCode":"49846","locality":"Hoogstede","municipality":{"key":"03456009","name":"Hoogstede","type":"Kreisangehörige_Gemeinde"},"district":{"key":"03456","name":"Grafschaft Bentheim","type":"Landkreis"},"federalState":{"key":"03","name":"Niedersachsen"}},{"name":"Friedhofsweg","postalCode":"49846","locality":"Hoogstede","municipality":{"key":"03456009","name":"Hoogstede","type":"Kreisangehörige_Gemeinde"},"district":{"key":"03456","name":"Grafschaft Bentheim","type":"Landkreis"},"federalState":{"key":"03","name":"Niedersachsen"}},{"name":"Fürstenweg","postalCode":"49846","locality":"Hoogstede","municipality":{"key":"03456009","name":"Hoogstede","type":"Kreisangehörige_Gemeinde"},"district":{"key":"03456","name":"Grafschaft Bentheim","type":"Landkreis"},"federalState":{"key":"03","name":"Niedersachsen"}},{"name":"Furt","postalCode":"49846","locality":"Hoogstede","municipality":{"key":"03456009","name":"Hoogstede","type":"Kreisangehörige_Gemeinde"},"district":{"key":"03456","name":"Grafschaft Bentheim","type":"Landkreis"},"federalState":{"key":"03","name":"Niedersachsen"}},{"name":"Fuulstege","postalCode":"49846","locality":"Hoogstede","municipality":{"key":"03456009","name":"Hoogstede","type":"Kreisangehörige_Gemeinde"},"district":{"key":"03456","name":"Grafschaft Bentheim","type":"Landkreis"},"federalState":{"key":"03","name":"Niedersachsen"}},{"name":"Haferkamp","postalCode":"49846","locality":"Hoogstede","municipality":{"key":"03456009","name":"Hoogstede","type":"Kreisangehörige_Gemeinde"},"district":{"key":"03456","name":"Grafschaft Bentheim","type":"Landkreis"},"federalState":{"key":"03","name":"Niedersachsen"}},{"name":"Haftenkamper Diek","postalCode":"49846","locality":"Hoogstede","municipality":{"key":"03456009","name":"Hoogstede","type":"Kreisangehörige_Gemeinde"},"district":{"key":"03456","name":"Grafschaft Bentheim","type":"Landkreis"},"federalState":{"key":"03","name":"Niedersachsen"}},{"name":"Hauptstr.","postalCode":"49846","locality":"Hoogstede","municipality":{"key":"03456009","name":"Hoogstede","type":"Kreisangehörige_Gemeinde"},"district":{"key":"03456","name":"Grafschaft Bentheim","type":"Landkreis"},"federalState":{"key":"03","name":"Niedersachsen"}},{"name":"Hogen Böilt","postalCode":"49846","locality":"Hoogstede","municipality":{"key":"03456009","name":"Hoogstede","type":"Kreisangehörige_Gemeinde"},"district":{"key":"03456","name":"Grafschaft Bentheim","type":"Landkreis"},"federalState":{"key":"03","name":"Niedersachsen"}},{"name":"Hoher Esch","postalCode":"49846","locality":"Hoogstede","municipality":{"key":"03456009","name":"Hoogstede","type":"Kreisangehörige_Gemeinde"},"district":{"key":"03456","name":"Grafschaft Bentheim","type":"Landkreis"},"federalState":{"key":"03","name":"Niedersachsen"}},{"name":"Holunderweg","postalCode":"49846","locality":"Hoogstede","municipality":{"key":"03456009","name":"Hoogstede","type":"Kreisangehörige_Gemeinde"},"district":{"key":"03456","name":"Grafschaft Bentheim","type":"Landkreis"},"federalState":{"key":"03","name":"Niedersachsen"}},{"name":"Im Berg","postalCode":"49846","locality":"Hoogstede","municipality":{"key":"03456009","name":"Hoogstede","type":"Kreisangehörige_Gemeinde"},"district":{"key":"03456","name":"Grafschaft Bentheim","type":"Landkreis"},"federalState":{"key":"03","name":"Niedersachsen"}},{"name":"Im Dorf","postalCode":"49846","locality":"Hoogstede","municipality":{"key":"03456009","name":"Hoogstede","type":"Kreisangehörige_Gemeinde"},"district":{"key":"03456","name":"Grafschaft Bentheim","type":"Landkreis"},"federalState":{"key":"03","name":"Niedersachsen"}},{"name":"Int Swatte","postalCode":"49846","locality":"Hoogstede","municipality":{"key":"03456009","name":"Hoogstede","type":"Kreisangehörige_Gemeinde"},"district":{"key":"03456","name":"Grafschaft Bentheim","type":"Landkreis"},"federalState":{"key":"03","name":"Niedersachsen"}},{"name":"Kaller Mäss","postalCode":"49846","locality":"Hoogstede","municipality":{"key":"03456009","name":"Hoogstede","type":"Kreisangehörige_Gemeinde"},"district":{"key":"03456","name":"Grafschaft Bentheim","type":"Landkreis"},"federalState":{"key":"03","name":"Niedersachsen"}},{"name":"Kaller Weg","postalCode":"49846","locality":"Hoogstede","municipality":{"key":"03456009","name":"Hoogstede","type":"Kreisangehörige_Gemeinde"},"district":{"key":"03456","name":"Grafschaft Bentheim","type":"Landkreis"},"federalState":{"key":"03","name":"Niedersachsen"}},{"name":"Kampweg","postalCode":"49846","locality":"Hoogstede","municipality":{"key":"03456009","name":"Hoogstede","type":"Kreisangehörige_Gemeinde"},"district":{"key":"03456","name":"Grafschaft Bentheim","type":"Landkreis"},"federalState":{"key":"03","name":"Niedersachsen"}},{"name":"Kanalstr.","postalCode":"49846","locality":"Hoogstede","municipality":{"key":"03456009","name":"Hoogstede","type":"Kreisangehörige_Gemeinde"},"district":{"key":"03456","name":"Grafschaft Bentheim","type":"Landkreis"},"federalState":{"key":"03","name":"Niedersachsen"}},{"name":"Kölner Str.","postalCode":"49846","locality":"Hoogstede","municipality":{"key":"03456009","name":"Hoogstede","type":"Kreisangehörige_Gemeinde"},"district":{"key":"03456","name":"Grafschaft Bentheim","type":"Landkreis"},"federalState":{"key":"03","name":"Niedersachsen"}},{"name":"Königsberger Str.","postalCode":"49846","locality":"Hoogstede","municipality":{"key":"03456009","name":"Hoogstede","type":"Kreisangehörige_Gemeinde"},"district":{"key":"03456","name":"Grafschaft Bentheim","type":"Landkreis"},"federalState":{"key":"03","name":"Niedersachsen"}},{"name":"Koppeldiek","postalCode":"49846","locality":"Hoogstede","municipality":{"key":"03456009","name":"Hoogstede","type":"Kreisangehörige_Gemeinde"},"district":{"key":"03456","name":"Grafschaft Bentheim","type":"Landkreis"},"federalState":{"key":"03","name":"Niedersachsen"}},{"name":"Kornweg","postalCode":"49846","locality":"Hoogstede","municipality":{"key":"03456009","name":"Hoogstede","type":"Kreisangehörige_Gemeinde"},"district":{"key":"03456","name":"Grafschaft Bentheim","type":"Landkreis"},"federalState":{"key":"03","name":"Niedersachsen"}},{"name":"Lägen Diek","postalCode":"49846","locality":"Hoogstede","municipality":{"key":"03456009","name":"Hoogstede","type":"Kreisangehörige_Gemeinde"},"district":{"key":"03456","name":"Grafschaft Bentheim","type":"Landkreis"},"federalState":{"key":"03","name":"Niedersachsen"}},{"name":"Langenpatt","postalCode":"49846","locality":"Hoogstede","municipality":{"key":"03456009","name":"Hoogstede","type":"Kreisangehörige_Gemeinde"},"district":{"key":"03456","name":"Grafschaft Bentheim","type":"Landkreis"},"federalState":{"key":"03","name":"Niedersachsen"}},{"name":"Leeweg","postalCode":"49846","locality":"Hoogstede","municipality":{"key":"03456009","name":"Hoogstede","type":"Kreisangehörige_Gemeinde"},"district":{"key":"03456","name":"Grafschaft Bentheim","type":"Landkreis"},"federalState":{"key":"03","name":"Niedersachsen"}},{"name":"Lindenweg","postalCode":"49846","locality":"Hoogstede","municipality":{"key":"03456009","name":"Hoogstede","type":"Kreisangehörige_Gemeinde"},"district":{"key":"03456","name":"Grafschaft Bentheim","type":"Landkreis"},"federalState":{"key":"03","name":"Niedersachsen"}},{"name":"Markenweg","postalCode":"49846","locality":"Hoogstede","municipality":{"key":"03456009","name":"Hoogstede","type":"Kreisangehörige_Gemeinde"},"district":{"key":"03456","name":"Grafschaft Bentheim","type":"Landkreis"},"federalState":{"key":"03","name":"Niedersachsen"}},{"name":"Mässdiek","postalCode":"49846","locality":"Hoogstede","municipality":{"key":"03456009","name":"Hoogstede","type":"Kreisangehörige_Gemeinde"},"district":{"key":"03456","name":"Grafschaft Bentheim","type":"Landkreis"},"federalState":{"key":"03","name":"Niedersachsen"}},{"name":"Molkereistr.","postalCode":"49846","locality":"Hoogstede","municipality":{"key":"03456009","name":"Hoogstede","type":"Kreisangehörige_Gemeinde"},"district":{"key":"03456","name":"Grafschaft Bentheim","type":"Landkreis"},"federalState":{"key":"03","name":"Niedersachsen"}},{"name":"Möllengasse","postalCode":"49846","locality":"Hoogstede","municipality":{"key":"03456009","name":"Hoogstede","type":"Kreisangehörige_Gemeinde"},"district":{"key":"03456","name":"Grafschaft Bentheim","type":"Landkreis"},"federalState":{"key":"03","name":"Niedersachsen"}},{"name":"Möllenkamp","postalCode":"49846","locality":"Hoogstede","municipality":{"key":"03456009","name":"Hoogstede","type":"Kreisangehörige_Gemeinde"},"district":{"key":"03456","name":"Grafschaft Bentheim","type":"Landkreis"},"federalState":{"key":"03","name":"Niedersachsen"}},{"name":"Mühlenweg","postalCode":"49846","locality":"Hoogstede","municipality":{"key":"03456009","name":"Hoogstede","type":"Kreisangehörige_Gemeinde"},"district":{"key":"03456","name":"Grafschaft Bentheim","type":"Landkreis"},"federalState":{"key":"03","name":"Niedersachsen"}},{"name":"Osterwalder Weg","postalCode":"49846","locality":"Hoogstede","municipality":{"key":"03456009","name":"Hoogstede","type":"Kreisangehörige_Gemeinde"},"district":{"key":"03456","name":"Grafschaft Bentheim","type":"Landkreis"},"federalState":{"key":"03","name":"Niedersachsen"}},{"name":"Querstr.","postalCode":"49846","locality":"Hoogstede","municipality":{"key":"03456009","name":"Hoogstede","type":"Kreisangehörige_Gemeinde"},"district":{"key":"03456","name":"Grafschaft Bentheim","type":"Landkreis"},"federalState":{"key":"03","name":"Niedersachsen"}},{"name":"Roggenkamp","postalCode":"49846","locality":"Hoogstede","municipality":{"key":"03456009","name":"Hoogstede","type":"Kreisangehörige_Gemeinde"},"district":{"key":"03456","name":"Grafschaft Bentheim","type":"Landkreis"},"federalState":{"key":"03","name":"Niedersachsen"}},{"name":"Scheerhorner Siedlung","postalCode":"49846","locality":"Hoogstede","municipality":{"key":"03456009","name":"Hoogstede","type":"Kreisangehörige_Gemeinde"},"district":{"key":"03456","name":"Grafschaft Bentheim","type":"Landkreis"},"federalState":{"key":"03","name":"Niedersachsen"}},{"name":"Schlättstiege","postalCode":"49846","locality":"Hoogstede","municipality":{"key":"03456009","name":"Hoogstede","type":"Kreisangehörige_Gemeinde"},"district":{"key":"03456","name":"Grafschaft Bentheim","type":"Landkreis"},"federalState":{"key":"03","name":"Niedersachsen"}},{"name":"Schulstr.","postalCode":"49846","locality":"Hoogstede","municipality":{"key":"03456009","name":"Hoogstede","type":"Kreisangehörige_Gemeinde"},"district":{"key":"03456","name":"Grafschaft Bentheim","type":"Landkreis"},"federalState":{"key":"03","name":"Niedersachsen"}},{"name":"Schwarzer Diek","postalCode":"49846","locality":"Hoogstede","municipality":{"key":"03456009","name":"Hoogstede","type":"Kreisangehörige_Gemeinde"},"district":{"key":"03456","name":"Grafschaft Bentheim","type":"Landkreis"},"federalState":{"key":"03","name":"Niedersachsen"}},{"name":"Siedlerstr.","postalCode":"49846","locality":"Hoogstede","municipality":{"key":"03456009","name":"Hoogstede","type":"Kreisangehörige_Gemeinde"},"district":{"key":"03456","name":"Grafschaft Bentheim","type":"Landkreis"},"federalState":{"key":"03","name":"Niedersachsen"}},{"name":"Stauweg","postalCode":"49846","locality":"Hoogstede","municipality":{"key":"03456009","name":"Hoogstede","type":"Kreisangehörige_Gemeinde"},"district":{"key":"03456","name":"Grafschaft Bentheim","type":"Landkreis"},"federalState":{"key":"03","name":"Niedersachsen"}},{"name":"Stettiner Str.","postalCode":"49846","locality":"Hoogstede","municipality":{"key":"03456009","name":"Hoogstede","type":"Kreisangehörige_Gemeinde"},"district":{"key":"03456","name":"Grafschaft Bentheim","type":"Landkreis"},"federalState":{"key":"03","name":"Niedersachsen"}},{"name":"Sunnerkampstege","postalCode":"49846","locality":"Hoogstede","municipality":{"key":"03456009","name":"Hoogstede","type":"Kreisangehörige_Gemeinde"},"district":{"key":"03456","name":"Grafschaft Bentheim","type":"Landkreis"},"federalState":{"key":"03","name":"Niedersachsen"}},{"name":"Suurdiek","postalCode":"49846","locality":"Hoogstede","municipality":{"key":"03456009","name":"Hoogstede","type":"Kreisangehörige_Gemeinde"},"district":{"key":"03456","name":"Grafschaft Bentheim","type":"Landkreis"},"federalState":{"key":"03","name":"Niedersachsen"}},{"name":"Tilsiter Str.","postalCode":"49846","locality":"Hoogstede","municipality":{"key":"03456009","name":"Hoogstede","type":"Kreisangehörige_Gemeinde"},"district":{"key":"03456","name":"Grafschaft Bentheim","type":"Landkreis"},"federalState":{"key":"03","name":"Niedersachsen"}},{"name":"Tüschenweg","postalCode":"49846","locality":"Hoogstede","municipality":{"key":"03456009","name":"Hoogstede","type":"Kreisangehörige_Gemeinde"},"district":{"key":"03456","name":"Grafschaft Bentheim","type":"Landkreis"},"federalState":{"key":"03","name":"Niedersachsen"}},{"name":"Ulmenstr.","postalCode":"49846","locality":"Hoogstede","municipality":{"key":"03456009","name":"Hoogstede","type":"Kreisangehörige_Gemeinde"},"district":{"key":"03456","name":"Grafschaft Bentheim","type":"Landkreis"},"federalState":{"key":"03","name":"Niedersachsen"}},{"name":"Weidenstr.","postalCode":"49846","locality":"Hoogstede","municipality":{"key":"03456009","name":"Hoogstede","type":"Kreisangehörige_Gemeinde"},"district":{"key":"03456","name":"Grafschaft Bentheim","type":"Landkreis"},"federalState":{"key":"03","name":"Niedersachsen"}},{"name":"Wilsumer Str.","postalCode":"49846","locality":"Hoogstede","municipality":{"key":"03456009","name":"Hoogstede","type":"Kreisangehörige_Gemeinde"},"district":{"key":"03456","name":"Grafschaft Bentheim","type":"Landkreis"},"federalState":{"key":"03","name":"Niedersachsen"}},{"name":"Zum Ölbahnhof","postalCode":"49846","locality":"Hoogstede","municipality":{"key":"03456009","name":"Hoogstede","type":"Kreisangehörige_Gemeinde"},"district":{"key":"03456","name":"Grafschaft Bentheim","type":"Landkreis"},"federalState":{"key":"03","name":"Niedersachsen"}},{"name":"Zur Friedenseiche","postalCode":"49846","locality":"Hoogstede","municipality":{"key":"03456009","name":"Hoogstede","type":"Kreisangehörige_Gemeinde"},"district":{"key":"03456","name":"Grafschaft Bentheim","type":"Landkreis"},"federalState":{"key":"03","name":"Niedersachsen"}},{"name":"Zur Maate","postalCode":"49846","locality":"Hoogstede","municipality":{"key":"03456009","name":"Hoogstede","type":"Kreisangehörige_Gemeinde"},"district":{"key":"03456","name":"Grafschaft Bentheim","type":"Landkreis"},"federalState":{"key":"03","name":"Niedersachsen"}},]