[{"name":"Adalhardstr.","postalCode":"86845","locality":"Großaitingen","municipality":{"key":"09772151","name":"Großaitingen","type":"Kreisangehörige_Gemeinde"},"district":{"key":"09772","name":"Augsburg","type":"Landkreis"},"federalState":{"key":"09","name":"Bayern"}},{"name":"Ahornstr.","postalCode":"86845","locality":"Großaitingen","municipality":{"key":"09772151","name":"Großaitingen","type":"Kreisangehörige_Gemeinde"},"district":{"key":"09772","name":"Augsburg","type":"Landkreis"},"federalState":{"key":"09","name":"Bayern"}},{"name":"Aidostr.","postalCode":"86845","locality":"Großaitingen","municipality":{"key":"09772151","name":"Großaitingen","type":"Kreisangehörige_Gemeinde"},"district":{"key":"09772","name":"Augsburg","type":"Landkreis"},"federalState":{"key":"09","name":"Bayern"}},{"name":"Alemannenstr.","postalCode":"86845","locality":"Großaitingen","municipality":{"key":"09772151","name":"Großaitingen","type":"Kreisangehörige_Gemeinde"},"district":{"key":"09772","name":"Augsburg","type":"Landkreis"},"federalState":{"key":"09","name":"Bayern"}},{"name":"Alpenstr.","postalCode":"86845","locality":"Großaitingen","municipality":{"key":"09772151","name":"Großaitingen","type":"Kreisangehörige_Gemeinde"},"district":{"key":"09772","name":"Augsburg","type":"Landkreis"},"federalState":{"key":"09","name":"Bayern"}},{"name":"Alpseestr.","postalCode":"86845","locality":"Großaitingen","municipality":{"key":"09772151","name":"Großaitingen","type":"Kreisangehörige_Gemeinde"},"district":{"key":"09772","name":"Augsburg","type":"Landkreis"},"federalState":{"key":"09","name":"Bayern"}},{"name":"Alter Kirchweg","postalCode":"86845","locality":"Großaitingen","municipality":{"key":"09772151","name":"Großaitingen","type":"Kreisangehörige_Gemeinde"},"district":{"key":"09772","name":"Augsburg","type":"Landkreis"},"federalState":{"key":"09","name":"Bayern"}},{"name":"Am Alten Markt","postalCode":"86845","locality":"Großaitingen","municipality":{"key":"09772151","name":"Großaitingen","type":"Kreisangehörige_Gemeinde"},"district":{"key":"09772","name":"Augsburg","type":"Landkreis"},"federalState":{"key":"09","name":"Bayern"}},{"name":"Am Ängerle","postalCode":"86845","locality":"Großaitingen","municipality":{"key":"09772151","name":"Großaitingen","type":"Kreisangehörige_Gemeinde"},"district":{"key":"09772","name":"Augsburg","type":"Landkreis"},"federalState":{"key":"09","name":"Bayern"}},{"name":"Am Bauerngehau","postalCode":"86845","locality":"Großaitingen","municipality":{"key":"09772151","name":"Großaitingen","type":"Kreisangehörige_Gemeinde"},"district":{"key":"09772","name":"Augsburg","type":"Landkreis"},"federalState":{"key":"09","name":"Bayern"}},{"name":"Am Bühl","postalCode":"86845","locality":"Großaitingen","municipality":{"key":"09772151","name":"Großaitingen","type":"Kreisangehörige_Gemeinde"},"district":{"key":"09772","name":"Augsburg","type":"Landkreis"},"federalState":{"key":"09","name":"Bayern"}},{"name":"Am Hang","postalCode":"86845","locality":"Großaitingen","municipality":{"key":"09772151","name":"Großaitingen","type":"Kreisangehörige_Gemeinde"},"district":{"key":"09772","name":"Augsburg","type":"Landkreis"},"federalState":{"key":"09","name":"Bayern"}},{"name":"Am Kalkofen","postalCode":"86845","locality":"Großaitingen","municipality":{"key":"09772151","name":"Großaitingen","type":"Kreisangehörige_Gemeinde"},"district":{"key":"09772","name":"Augsburg","type":"Landkreis"},"federalState":{"key":"09","name":"Bayern"}},{"name":"Am Kapellenberg","postalCode":"86845","locality":"Großaitingen","municipality":{"key":"09772151","name":"Großaitingen","type":"Kreisangehörige_Gemeinde"},"district":{"key":"09772","name":"Augsburg","type":"Landkreis"},"federalState":{"key":"09","name":"Bayern"}},{"name":"Am Rain","postalCode":"86845","locality":"Großaitingen","municipality":{"key":"09772151","name":"Großaitingen","type":"Kreisangehörige_Gemeinde"},"district":{"key":"09772","name":"Augsburg","type":"Landkreis"},"federalState":{"key":"09","name":"Bayern"}},{"name":"Am Rapsfeld","postalCode":"86845","locality":"Großaitingen","municipality":{"key":"09772151","name":"Großaitingen","type":"Kreisangehörige_Gemeinde"},"district":{"key":"09772","name":"Augsburg","type":"Landkreis"},"federalState":{"key":"09","name":"Bayern"}},{"name":"Am Ringsee","postalCode":"86845","locality":"Großaitingen","municipality":{"key":"09772151","name":"Großaitingen","type":"Kreisangehörige_Gemeinde"},"district":{"key":"09772","name":"Augsburg","type":"Landkreis"},"federalState":{"key":"09","name":"Bayern"}},{"name":"Am Schloßanger","postalCode":"86845","locality":"Großaitingen","municipality":{"key":"09772151","name":"Großaitingen","type":"Kreisangehörige_Gemeinde"},"district":{"key":"09772","name":"Augsburg","type":"Landkreis"},"federalState":{"key":"09","name":"Bayern"}},{"name":"Am Wiesenrain","postalCode":"86845","locality":"Großaitingen","municipality":{"key":"09772151","name":"Großaitingen","type":"Kreisangehörige_Gemeinde"},"district":{"key":"09772","name":"Augsburg","type":"Landkreis"},"federalState":{"key":"09","name":"Bayern"}},{"name":"Am Wiesherrgottle","postalCode":"86845","locality":"Großaitingen","municipality":{"key":"09772151","name":"Großaitingen","type":"Kreisangehörige_Gemeinde"},"district":{"key":"09772","name":"Augsburg","type":"Landkreis"},"federalState":{"key":"09","name":"Bayern"}},{"name":"An den Sportplätzen","postalCode":"86845","locality":"Großaitingen","municipality":{"key":"09772151","name":"Großaitingen","type":"Kreisangehörige_Gemeinde"},"district":{"key":"09772","name":"Augsburg","type":"Landkreis"},"federalState":{"key":"09","name":"Bayern"}},{"name":"An der Alten Säge","postalCode":"86845","locality":"Großaitingen","municipality":{"key":"09772151","name":"Großaitingen","type":"Kreisangehörige_Gemeinde"},"district":{"key":"09772","name":"Augsburg","type":"Landkreis"},"federalState":{"key":"09","name":"Bayern"}},{"name":"An der Unteren Mühle","postalCode":"86845","locality":"Großaitingen","municipality":{"key":"09772151","name":"Großaitingen","type":"Kreisangehörige_Gemeinde"},"district":{"key":"09772","name":"Augsburg","type":"Landkreis"},"federalState":{"key":"09","name":"Bayern"}},{"name":"Angerweg","postalCode":"86845","locality":"Großaitingen","municipality":{"key":"09772151","name":"Großaitingen","type":"Kreisangehörige_Gemeinde"},"district":{"key":"09772","name":"Augsburg","type":"Landkreis"},"federalState":{"key":"09","name":"Bayern"}},{"name":"Aschenbrennerweg","postalCode":"86845","locality":"Großaitingen","municipality":{"key":"09772151","name":"Großaitingen","type":"Kreisangehörige_Gemeinde"},"district":{"key":"09772","name":"Augsburg","type":"Landkreis"},"federalState":{"key":"09","name":"Bayern"}},{"name":"Auenweg","postalCode":"86845","locality":"Großaitingen","municipality":{"key":"09772151","name":"Großaitingen","type":"Kreisangehörige_Gemeinde"},"district":{"key":"09772","name":"Augsburg","type":"Landkreis"},"federalState":{"key":"09","name":"Bayern"}},{"name":"Augsburger Str.","postalCode":"86845","locality":"Großaitingen","municipality":{"key":"09772151","name":"Großaitingen","type":"Kreisangehörige_Gemeinde"},"district":{"key":"09772","name":"Augsburg","type":"Landkreis"},"federalState":{"key":"09","name":"Bayern"}},{"name":"Bäckergasse","postalCode":"86845","locality":"Großaitingen","municipality":{"key":"09772151","name":"Großaitingen","type":"Kreisangehörige_Gemeinde"},"district":{"key":"09772","name":"Augsburg","type":"Landkreis"},"federalState":{"key":"09","name":"Bayern"}},{"name":"Bahnhofstr.","postalCode":"86845","locality":"Großaitingen","municipality":{"key":"09772151","name":"Großaitingen","type":"Kreisangehörige_Gemeinde"},"district":{"key":"09772","name":"Augsburg","type":"Landkreis"},"federalState":{"key":"09","name":"Bayern"}},{"name":"Birkacher Str.","postalCode":"86845","locality":"Großaitingen","municipality":{"key":"09772151","name":"Großaitingen","type":"Kreisangehörige_Gemeinde"},"district":{"key":"09772","name":"Augsburg","type":"Landkreis"},"federalState":{"key":"09","name":"Bayern"}},{"name":"Birkensteig","postalCode":"86845","locality":"Großaitingen","municipality":{"key":"09772151","name":"Großaitingen","type":"Kreisangehörige_Gemeinde"},"district":{"key":"09772","name":"Augsburg","type":"Landkreis"},"federalState":{"key":"09","name":"Bayern"}},{"name":"Bischof-Ulrich-Str.","postalCode":"86845","locality":"Großaitingen","municipality":{"key":"09772151","name":"Großaitingen","type":"Kreisangehörige_Gemeinde"},"district":{"key":"09772","name":"Augsburg","type":"Landkreis"},"federalState":{"key":"09","name":"Bayern"}},{"name":"Blumenweg","postalCode":"86845","locality":"Großaitingen","municipality":{"key":"09772151","name":"Großaitingen","type":"Kreisangehörige_Gemeinde"},"district":{"key":"09772","name":"Augsburg","type":"Landkreis"},"federalState":{"key":"09","name":"Bayern"}},{"name":"Bobinger Str.","postalCode":"86845","locality":"Großaitingen","municipality":{"key":"09772151","name":"Großaitingen","type":"Kreisangehörige_Gemeinde"},"district":{"key":"09772","name":"Augsburg","type":"Landkreis"},"federalState":{"key":"09","name":"Bayern"}},{"name":"Bodenseestr.","postalCode":"86845","locality":"Großaitingen","municipality":{"key":"09772151","name":"Großaitingen","type":"Kreisangehörige_Gemeinde"},"district":{"key":"09772","name":"Augsburg","type":"Landkreis"},"federalState":{"key":"09","name":"Bayern"}},{"name":"Brandangerweg","postalCode":"86845","locality":"Großaitingen","municipality":{"key":"09772151","name":"Großaitingen","type":"Kreisangehörige_Gemeinde"},"district":{"key":"09772","name":"Augsburg","type":"Landkreis"},"federalState":{"key":"09","name":"Bayern"}},{"name":"Breitenbergstr.","postalCode":"86845","locality":"Großaitingen","municipality":{"key":"09772151","name":"Großaitingen","type":"Kreisangehörige_Gemeinde"},"district":{"key":"09772","name":"Augsburg","type":"Landkreis"},"federalState":{"key":"09","name":"Bayern"}},{"name":"Brunnenweg","postalCode":"86845","locality":"Großaitingen","municipality":{"key":"09772151","name":"Großaitingen","type":"Kreisangehörige_Gemeinde"},"district":{"key":"09772","name":"Augsburg","type":"Landkreis"},"federalState":{"key":"09","name":"Bayern"}},{"name":"Buchenstr.","postalCode":"86845","locality":"Großaitingen","municipality":{"key":"09772151","name":"Großaitingen","type":"Kreisangehörige_Gemeinde"},"district":{"key":"09772","name":"Augsburg","type":"Landkreis"},"federalState":{"key":"09","name":"Bayern"}},{"name":"Cyrill-Kistler-Weg","postalCode":"86845","locality":"Großaitingen","municipality":{"key":"09772151","name":"Großaitingen","type":"Kreisangehörige_Gemeinde"},"district":{"key":"09772","name":"Augsburg","type":"Landkreis"},"federalState":{"key":"09","name":"Bayern"}},{"name":"Dinkelstr.","postalCode":"86845","locality":"Großaitingen","municipality":{"key":"09772151","name":"Großaitingen","type":"Kreisangehörige_Gemeinde"},"district":{"key":"09772","name":"Augsburg","type":"Landkreis"},"federalState":{"key":"09","name":"Bayern"}},{"name":"Dreifaltigkeitsweg","postalCode":"86845","locality":"Großaitingen","municipality":{"key":"09772151","name":"Großaitingen","type":"Kreisangehörige_Gemeinde"},"district":{"key":"09772","name":"Augsburg","type":"Landkreis"},"federalState":{"key":"09","name":"Bayern"}},{"name":"Eggerhofstr.","postalCode":"86845","locality":"Großaitingen","municipality":{"key":"09772151","name":"Großaitingen","type":"Kreisangehörige_Gemeinde"},"district":{"key":"09772","name":"Augsburg","type":"Landkreis"},"federalState":{"key":"09","name":"Bayern"}},{"name":"Eichenstr.","postalCode":"86845","locality":"Großaitingen","municipality":{"key":"09772151","name":"Großaitingen","type":"Kreisangehörige_Gemeinde"},"district":{"key":"09772","name":"Augsburg","type":"Landkreis"},"federalState":{"key":"09","name":"Bayern"}},{"name":"Erlenweg","postalCode":"86845","locality":"Großaitingen","municipality":{"key":"09772151","name":"Großaitingen","type":"Kreisangehörige_Gemeinde"},"district":{"key":"09772","name":"Augsburg","type":"Landkreis"},"federalState":{"key":"09","name":"Bayern"}},{"name":"Eschenstr.","postalCode":"86845","locality":"Großaitingen","municipality":{"key":"09772151","name":"Großaitingen","type":"Kreisangehörige_Gemeinde"},"district":{"key":"09772","name":"Augsburg","type":"Landkreis"},"federalState":{"key":"09","name":"Bayern"}},{"name":"Finkenweg","postalCode":"86845","locality":"Großaitingen","municipality":{"key":"09772151","name":"Großaitingen","type":"Kreisangehörige_Gemeinde"},"district":{"key":"09772","name":"Augsburg","type":"Landkreis"},"federalState":{"key":"09","name":"Bayern"}},{"name":"Fischerweg","postalCode":"86845","locality":"Großaitingen","municipality":{"key":"09772151","name":"Großaitingen","type":"Kreisangehörige_Gemeinde"},"district":{"key":"09772","name":"Augsburg","type":"Landkreis"},"federalState":{"key":"09","name":"Bayern"}},{"name":"Flurstr.","postalCode":"86845","locality":"Großaitingen","municipality":{"key":"09772151","name":"Großaitingen","type":"Kreisangehörige_Gemeinde"},"district":{"key":"09772","name":"Augsburg","type":"Landkreis"},"federalState":{"key":"09","name":"Bayern"}},{"name":"Föhrenweg","postalCode":"86845","locality":"Großaitingen","municipality":{"key":"09772151","name":"Großaitingen","type":"Kreisangehörige_Gemeinde"},"district":{"key":"09772","name":"Augsburg","type":"Landkreis"},"federalState":{"key":"09","name":"Bayern"}},{"name":"Forggenseestr.","postalCode":"86845","locality":"Großaitingen","municipality":{"key":"09772151","name":"Großaitingen","type":"Kreisangehörige_Gemeinde"},"district":{"key":"09772","name":"Augsburg","type":"Landkreis"},"federalState":{"key":"09","name":"Bayern"}},{"name":"Friedenstr.","postalCode":"86845","locality":"Großaitingen","municipality":{"key":"09772151","name":"Großaitingen","type":"Kreisangehörige_Gemeinde"},"district":{"key":"09772","name":"Augsburg","type":"Landkreis"},"federalState":{"key":"09","name":"Bayern"}},{"name":"Frühlingstr.","postalCode":"86845","locality":"Großaitingen","municipality":{"key":"09772151","name":"Großaitingen","type":"Kreisangehörige_Gemeinde"},"district":{"key":"09772","name":"Augsburg","type":"Landkreis"},"federalState":{"key":"09","name":"Bayern"}},{"name":"Gartenweg","postalCode":"86845","locality":"Großaitingen","municipality":{"key":"09772151","name":"Großaitingen","type":"Kreisangehörige_Gemeinde"},"district":{"key":"09772","name":"Augsburg","type":"Landkreis"},"federalState":{"key":"09","name":"Bayern"}},{"name":"Germanenstr.","postalCode":"86845","locality":"Großaitingen","municipality":{"key":"09772151","name":"Großaitingen","type":"Kreisangehörige_Gemeinde"},"district":{"key":"09772","name":"Augsburg","type":"Landkreis"},"federalState":{"key":"09","name":"Bayern"}},{"name":"Gnadental","postalCode":"86845","locality":"Großaitingen","municipality":{"key":"09772151","name":"Großaitingen","type":"Kreisangehörige_Gemeinde"},"district":{"key":"09772","name":"Augsburg","type":"Landkreis"},"federalState":{"key":"09","name":"Bayern"}},{"name":"Gotenstr.","postalCode":"86845","locality":"Großaitingen","municipality":{"key":"09772151","name":"Großaitingen","type":"Kreisangehörige_Gemeinde"},"district":{"key":"09772","name":"Augsburg","type":"Landkreis"},"federalState":{"key":"09","name":"Bayern"}},{"name":"Großaitinger Weg","postalCode":"86845","locality":"Großaitingen","municipality":{"key":"09772151","name":"Großaitingen","type":"Kreisangehörige_Gemeinde"},"district":{"key":"09772","name":"Augsburg","type":"Landkreis"},"federalState":{"key":"09","name":"Bayern"}},{"name":"Grüntenweg","postalCode":"86845","locality":"Großaitingen","municipality":{"key":"09772151","name":"Großaitingen","type":"Kreisangehörige_Gemeinde"},"district":{"key":"09772","name":"Augsburg","type":"Landkreis"},"federalState":{"key":"09","name":"Bayern"}},{"name":"Guggenberger Str.","postalCode":"86845","locality":"Großaitingen","municipality":{"key":"09772151","name":"Großaitingen","type":"Kreisangehörige_Gemeinde"},"district":{"key":"09772","name":"Augsburg","type":"Landkreis"},"federalState":{"key":"09","name":"Bayern"}},{"name":"Hardtstr.","postalCode":"86845","locality":"Großaitingen","municipality":{"key":"09772151","name":"Großaitingen","type":"Kreisangehörige_Gemeinde"},"district":{"key":"09772","name":"Augsburg","type":"Landkreis"},"federalState":{"key":"09","name":"Bayern"}},{"name":"Herrenberg","postalCode":"86845","locality":"Großaitingen","municipality":{"key":"09772151","name":"Großaitingen","type":"Kreisangehörige_Gemeinde"},"district":{"key":"09772","name":"Augsburg","type":"Landkreis"},"federalState":{"key":"09","name":"Bayern"}},{"name":"Heuweg","postalCode":"86845","locality":"Großaitingen","municipality":{"key":"09772151","name":"Großaitingen","type":"Kreisangehörige_Gemeinde"},"district":{"key":"09772","name":"Augsburg","type":"Landkreis"},"federalState":{"key":"09","name":"Bayern"}},{"name":"Hopfenseestr.","postalCode":"86845","locality":"Großaitingen","municipality":{"key":"09772151","name":"Großaitingen","type":"Kreisangehörige_Gemeinde"},"district":{"key":"09772","name":"Augsburg","type":"Landkreis"},"federalState":{"key":"09","name":"Bayern"}},{"name":"Hubertusweg","postalCode":"86845","locality":"Großaitingen","municipality":{"key":"09772151","name":"Großaitingen","type":"Kreisangehörige_Gemeinde"},"district":{"key":"09772","name":"Augsburg","type":"Landkreis"},"federalState":{"key":"09","name":"Bayern"}},{"name":"Imkerweg","postalCode":"86845","locality":"Großaitingen","municipality":{"key":"09772151","name":"Großaitingen","type":"Kreisangehörige_Gemeinde"},"district":{"key":"09772","name":"Augsburg","type":"Landkreis"},"federalState":{"key":"09","name":"Bayern"}},{"name":"Jagdweg","postalCode":"86169","locality":"Augsburg","municipality":{"key":"09761000","name":"Augsburg","type":"Kreisfreie_Stadt"},"district":{"key":"09761","name":"Augsburg","type":"Kreisfreie_Stadt"},"federalState":{"key":"09","name":"Bayern"}},{"name":"Jägerbachstr.","postalCode":"86179","locality":"Augsburg","municipality":{"key":"09761000","name":"Augsburg","type":"Kreisfreie_Stadt"},"district":{"key":"09761","name":"Augsburg","type":"Kreisfreie_Stadt"},"federalState":{"key":"09","name":"Bayern"}},{"name":"Jägergäßchen","postalCode":"86152","locality":"Augsburg","municipality":{"key":"09761000","name":"Augsburg","type":"Kreisfreie_Stadt"},"district":{"key":"09761","name":"Augsburg","type":"Kreisfreie_Stadt"},"federalState":{"key":"09","name":"Bayern"}},{"name":"Jahnstr.","postalCode":"86179","locality":"Augsburg","municipality":{"key":"09761000","name":"Augsburg","type":"Kreisfreie_Stadt"},"district":{"key":"09761","name":"Augsburg","type":"Kreisfreie_Stadt"},"federalState":{"key":"09","name":"Bayern"}},{"name":"Jakobermauer","postalCode":"86152","locality":"Augsburg","municipality":{"key":"09761000","name":"Augsburg","type":"Kreisfreie_Stadt"},"district":{"key":"09761","name":"Augsburg","type":"Kreisfreie_Stadt"},"federalState":{"key":"09","name":"Bayern"}},{"name":"Jakoberstr.","postalCode":"86152","locality":"Augsburg","municipality":{"key":"09761000","name":"Augsburg","type":"Kreisfreie_Stadt"},"district":{"key":"09761","name":"Augsburg","type":"Kreisfreie_Stadt"},"federalState":{"key":"09","name":"Bayern"}},{"name":"Jakoberstr.","postalCode":"86153","locality":"Augsburg","municipality":{"key":"09761000","name":"Augsburg","type":"Kreisfreie_Stadt"},"district":{"key":"09761","name":"Augsburg","type":"Kreisfreie_Stadt"},"federalState":{"key":"09","name":"Bayern"}},{"name":"Jakobertorplatz","postalCode":"86153","locality":"Augsburg","municipality":{"key":"09761000","name":"Augsburg","type":"Kreisfreie_Stadt"},"district":{"key":"09761","name":"Augsburg","type":"Kreisfreie_Stadt"},"federalState":{"key":"09","name":"Bayern"}},{"name":"Jakoberwallstr.","postalCode":"86152","locality":"Augsburg","municipality":{"key":"09761000","name":"Augsburg","type":"Kreisfreie_Stadt"},"district":{"key":"09761","name":"Augsburg","type":"Kreisfreie_Stadt"},"federalState":{"key":"09","name":"Bayern"}},{"name":"Jakoberwallstr.","postalCode":"86153","locality":"Augsburg","municipality":{"key":"09761000","name":"Augsburg","type":"Kreisfreie_Stadt"},"district":{"key":"09761","name":"Augsburg","type":"Kreisfreie_Stadt"},"federalState":{"key":"09","name":"Bayern"}},{"name":"Jakobine-Lauber-Str.","postalCode":"86157","locality":"Augsburg","municipality":{"key":"09761000","name":"Augsburg","type":"Kreisfreie_Stadt"},"district":{"key":"09761","name":"Augsburg","type":"Kreisfreie_Stadt"},"federalState":{"key":"09","name":"Bayern"}},{"name":"Jakob-Krause-Str.","postalCode":"86199","locality":"Augsburg","municipality":{"key":"09761000","name":"Augsburg","type":"Kreisfreie_Stadt"},"district":{"key":"09761","name":"Augsburg","type":"Kreisfreie_Stadt"},"federalState":{"key":"09","name":"Bayern"}},{"name":"Jakobsplatz","postalCode":"86152","locality":"Augsburg","municipality":{"key":"09761000","name":"Augsburg","type":"Kreisfreie_Stadt"},"district":{"key":"09761","name":"Augsburg","type":"Kreisfreie_Stadt"},"federalState":{"key":"09","name":"Bayern"}},{"name":"James-Cook-Str.","postalCode":"86156","locality":"Augsburg","municipality":{"key":"09761000","name":"Augsburg","type":"Kreisfreie_Stadt"},"district":{"key":"09761","name":"Augsburg","type":"Kreisfreie_Stadt"},"federalState":{"key":"09","name":"Bayern"}},{"name":"Jane-Addams-Str.","postalCode":"86156","locality":"Augsburg","municipality":{"key":"09761000","name":"Augsburg","type":"Kreisfreie_Stadt"},"district":{"key":"09761","name":"Augsburg","type":"Kreisfreie_Stadt"},"federalState":{"key":"09","name":"Bayern"}},{"name":"Jasminweg","postalCode":"86156","locality":"Augsburg","municipality":{"key":"09761000","name":"Augsburg","type":"Kreisfreie_Stadt"},"district":{"key":"09761","name":"Augsburg","type":"Kreisfreie_Stadt"},"federalState":{"key":"09","name":"Bayern"}},{"name":"Jean-Paul-Str.","postalCode":"86161","locality":"Augsburg","municipality":{"key":"09761000","name":"Augsburg","type":"Kreisfreie_Stadt"},"district":{"key":"09761","name":"Augsburg","type":"Kreisfreie_Stadt"},"federalState":{"key":"09","name":"Bayern"}},{"name":"Jedelhauserstr.","postalCode":"86156","locality":"Augsburg","municipality":{"key":"09761000","name":"Augsburg","type":"Kreisfreie_Stadt"},"district":{"key":"09761","name":"Augsburg","type":"Kreisfreie_Stadt"},"federalState":{"key":"09","name":"Bayern"}},{"name":"Jenaer Str.","postalCode":"86169","locality":"Augsburg","municipality":{"key":"09761000","name":"Augsburg","type":"Kreisfreie_Stadt"},"district":{"key":"09761","name":"Augsburg","type":"Kreisfreie_Stadt"},"federalState":{"key":"09","name":"Bayern"}},{"name":"Jesse-Owens-Str.","postalCode":"86157","locality":"Augsburg","municipality":{"key":"09761000","name":"Augsburg","type":"Kreisfreie_Stadt"},"district":{"key":"09761","name":"Augsburg","type":"Kreisfreie_Stadt"},"federalState":{"key":"09","name":"Bayern"}},{"name":"Jesuitengasse","postalCode":"86152","locality":"Augsburg","municipality":{"key":"09761000","name":"Augsburg","type":"Kreisfreie_Stadt"},"district":{"key":"09761","name":"Augsburg","type":"Kreisfreie_Stadt"},"federalState":{"key":"09","name":"Bayern"}},{"name":"Jochbergstr.","postalCode":"86163","locality":"Augsburg","municipality":{"key":"09761000","name":"Augsburg","type":"Kreisfreie_Stadt"},"district":{"key":"09761","name":"Augsburg","type":"Kreisfreie_Stadt"},"federalState":{"key":"09","name":"Bayern"}},{"name":"Johannes-Haag-Str.","postalCode":"86153","locality":"Augsburg","municipality":{"key":"09761000","name":"Augsburg","type":"Kreisfreie_Stadt"},"district":{"key":"09761","name":"Augsburg","type":"Kreisfreie_Stadt"},"federalState":{"key":"09","name":"Bayern"}},{"name":"Johannes-Holzer-Str.","postalCode":"86157","locality":"Augsburg","municipality":{"key":"09761000","name":"Augsburg","type":"Kreisfreie_Stadt"},"district":{"key":"09761","name":"Augsburg","type":"Kreisfreie_Stadt"},"federalState":{"key":"09","name":"Bayern"}},{"name":"Johannes-Rösle-Str.","postalCode":"86150","locality":"Augsburg","municipality":{"key":"09761000","name":"Augsburg","type":"Kreisfreie_Stadt"},"district":{"key":"09761","name":"Augsburg","type":"Kreisfreie_Stadt"},"federalState":{"key":"09","name":"Bayern"}},{"name":"Johannes-Rösle-Str.","postalCode":"86152","locality":"Augsburg","municipality":{"key":"09761000","name":"Augsburg","type":"Kreisfreie_Stadt"},"district":{"key":"09761","name":"Augsburg","type":"Kreisfreie_Stadt"},"federalState":{"key":"09","name":"Bayern"}},{"name":"Johann-Georg-Halske-Str.","postalCode":"86159","locality":"Augsburg","municipality":{"key":"09761000","name":"Augsburg","type":"Kreisfreie_Stadt"},"district":{"key":"09761","name":"Augsburg","type":"Kreisfreie_Stadt"},"federalState":{"key":"09","name":"Bayern"}},{"name":"Johann-Georg-Halske-Str.","postalCode":"86161","locality":"Augsburg","municipality":{"key":"09761000","name":"Augsburg","type":"Kreisfreie_Stadt"},"district":{"key":"09761","name":"Augsburg","type":"Kreisfreie_Stadt"},"federalState":{"key":"09","name":"Bayern"}},{"name":"Johannisgasse","postalCode":"86152","locality":"Augsburg","municipality":{"key":"09761000","name":"Augsburg","type":"Kreisfreie_Stadt"},"district":{"key":"09761","name":"Augsburg","type":"Kreisfreie_Stadt"},"federalState":{"key":"09","name":"Bayern"}},{"name":"Johann-Marxreiter-Weg","postalCode":"86199","locality":"Augsburg","municipality":{"key":"09761000","name":"Augsburg","type":"Kreisfreie_Stadt"},"district":{"key":"09761","name":"Augsburg","type":"Kreisfreie_Stadt"},"federalState":{"key":"09","name":"Bayern"}},{"name":"Johann-Sebastian-Bach-Str.","postalCode":"86199","locality":"Augsburg","municipality":{"key":"09761000","name":"Augsburg","type":"Kreisfreie_Stadt"},"district":{"key":"09761","name":"Augsburg","type":"Kreisfreie_Stadt"},"federalState":{"key":"09","name":"Bayern"}},{"name":"Johann-Strauß-Str.","postalCode":"86179","locality":"Augsburg","municipality":{"key":"09761000","name":"Augsburg","type":"Kreisfreie_Stadt"},"district":{"key":"09761","name":"Augsburg","type":"Kreisfreie_Stadt"},"federalState":{"key":"09","name":"Bayern"}},{"name":"Jörg-Breu-Str.","postalCode":"86154","locality":"Augsburg","municipality":{"key":"09761000","name":"Augsburg","type":"Kreisfreie_Stadt"},"district":{"key":"09761","name":"Augsburg","type":"Kreisfreie_Stadt"},"federalState":{"key":"09","name":"Bayern"}},{"name":"Jörg-Seld-Str.","postalCode":"86153","locality":"Augsburg","municipality":{"key":"09761000","name":"Augsburg","type":"Kreisfreie_Stadt"},"district":{"key":"09761","name":"Augsburg","type":"Kreisfreie_Stadt"},"federalState":{"key":"09","name":"Bayern"}},{"name":"Josef-Felder-Str.","postalCode":"86199","locality":"Augsburg","municipality":{"key":"09761000","name":"Augsburg","type":"Kreisfreie_Stadt"},"district":{"key":"09761","name":"Augsburg","type":"Kreisfreie_Stadt"},"federalState":{"key":"09","name":"Bayern"}},{"name":"Josef-Fischer-Platz","postalCode":"86157","locality":"Augsburg","municipality":{"key":"09761000","name":"Augsburg","type":"Kreisfreie_Stadt"},"district":{"key":"09761","name":"Augsburg","type":"Kreisfreie_Stadt"},"federalState":{"key":"09","name":"Bayern"}},{"name":"Josef-Kronthaler-Str.","postalCode":"86157","locality":"Augsburg","municipality":{"key":"09761000","name":"Augsburg","type":"Kreisfreie_Stadt"},"district":{"key":"09761","name":"Augsburg","type":"Kreisfreie_Stadt"},"federalState":{"key":"09","name":"Bayern"}},{"name":"Josef-Priller-Str.","postalCode":"86159","locality":"Augsburg","municipality":{"key":"09761000","name":"Augsburg","type":"Kreisfreie_Stadt"},"district":{"key":"09761","name":"Augsburg","type":"Kreisfreie_Stadt"},"federalState":{"key":"09","name":"Bayern"}},{"name":"Josef-Schorer-Str.","postalCode":"86179","locality":"Augsburg","municipality":{"key":"09761000","name":"Augsburg","type":"Kreisfreie_Stadt"},"district":{"key":"09761","name":"Augsburg","type":"Kreisfreie_Stadt"},"federalState":{"key":"09","name":"Bayern"}},{"name":"Joseph-Haas-Str.","postalCode":"86161","locality":"Augsburg","municipality":{"key":"09761000","name":"Augsburg","type":"Kreisfreie_Stadt"},"district":{"key":"09761","name":"Augsburg","type":"Kreisfreie_Stadt"},"federalState":{"key":"09","name":"Bayern"}},{"name":"Judenberg","postalCode":"86150","locality":"Augsburg","municipality":{"key":"09761000","name":"Augsburg","type":"Kreisfreie_Stadt"},"district":{"key":"09761","name":"Augsburg","type":"Kreisfreie_Stadt"},"federalState":{"key":"09","name":"Bayern"}},{"name":"Julius-Spokojny-Weg","postalCode":"86153","locality":"Augsburg","municipality":{"key":"09761000","name":"Augsburg","type":"Kreisfreie_Stadt"},"district":{"key":"09761","name":"Augsburg","type":"Kreisfreie_Stadt"},"federalState":{"key":"09","name":"Bayern"}},{"name":"Jupiterstr.","postalCode":"86179","locality":"Augsburg","municipality":{"key":"09761000","name":"Augsburg","type":"Kreisfreie_Stadt"},"district":{"key":"09761","name":"Augsburg","type":"Kreisfreie_Stadt"},"federalState":{"key":"09","name":"Bayern"}},{"name":"Kaiser-Otto-Str.","postalCode":"86845","locality":"Großaitingen","municipality":{"key":"09772151","name":"Großaitingen","type":"Kreisangehörige_Gemeinde"},"district":{"key":"09772","name":"Augsburg","type":"Landkreis"},"federalState":{"key":"09","name":"Bayern"}},{"name":"Karwendelstr.","postalCode":"86845","locality":"Großaitingen","municipality":{"key":"09772151","name":"Großaitingen","type":"Kreisangehörige_Gemeinde"},"district":{"key":"09772","name":"Augsburg","type":"Landkreis"},"federalState":{"key":"09","name":"Bayern"}},{"name":"Keltenstr.","postalCode":"86845","locality":"Großaitingen","municipality":{"key":"09772151","name":"Großaitingen","type":"Kreisangehörige_Gemeinde"},"district":{"key":"09772","name":"Augsburg","type":"Landkreis"},"federalState":{"key":"09","name":"Bayern"}},{"name":"Kirchgässle","postalCode":"86845","locality":"Großaitingen","municipality":{"key":"09772151","name":"Großaitingen","type":"Kreisangehörige_Gemeinde"},"district":{"key":"09772","name":"Augsburg","type":"Landkreis"},"federalState":{"key":"09","name":"Bayern"}},{"name":"Klaiberweg","postalCode":"86845","locality":"Großaitingen","municipality":{"key":"09772151","name":"Großaitingen","type":"Kreisangehörige_Gemeinde"},"district":{"key":"09772","name":"Augsburg","type":"Landkreis"},"federalState":{"key":"09","name":"Bayern"}},{"name":"Klimmacher Str.","postalCode":"86845","locality":"Großaitingen","municipality":{"key":"09772151","name":"Großaitingen","type":"Kreisangehörige_Gemeinde"},"district":{"key":"09772","name":"Augsburg","type":"Landkreis"},"federalState":{"key":"09","name":"Bayern"}},{"name":"Kornblumenweg","postalCode":"86845","locality":"Großaitingen","municipality":{"key":"09772151","name":"Großaitingen","type":"Kreisangehörige_Gemeinde"},"district":{"key":"09772","name":"Augsburg","type":"Landkreis"},"federalState":{"key":"09","name":"Bayern"}},{"name":"Kornweg","postalCode":"86845","locality":"Großaitingen","municipality":{"key":"09772151","name":"Großaitingen","type":"Kreisangehörige_Gemeinde"},"district":{"key":"09772","name":"Augsburg","type":"Landkreis"},"federalState":{"key":"09","name":"Bayern"}},{"name":"Krautgartenstr.","postalCode":"86845","locality":"Großaitingen","municipality":{"key":"09772151","name":"Großaitingen","type":"Kreisangehörige_Gemeinde"},"district":{"key":"09772","name":"Augsburg","type":"Landkreis"},"federalState":{"key":"09","name":"Bayern"}},{"name":"Lärchenweg","postalCode":"86845","locality":"Großaitingen","municipality":{"key":"09772151","name":"Großaitingen","type":"Kreisangehörige_Gemeinde"},"district":{"key":"09772","name":"Augsburg","type":"Landkreis"},"federalState":{"key":"09","name":"Bayern"}},{"name":"Leitenbergstr.","postalCode":"86845","locality":"Großaitingen","municipality":{"key":"09772151","name":"Großaitingen","type":"Kreisangehörige_Gemeinde"},"district":{"key":"09772","name":"Augsburg","type":"Landkreis"},"federalState":{"key":"09","name":"Bayern"}},{"name":"Lerchenfeldstr.","postalCode":"86845","locality":"Großaitingen","municipality":{"key":"09772151","name":"Großaitingen","type":"Kreisangehörige_Gemeinde"},"district":{"key":"09772","name":"Augsburg","type":"Landkreis"},"federalState":{"key":"09","name":"Bayern"}},{"name":"Ligusterweg","postalCode":"86845","locality":"Großaitingen","municipality":{"key":"09772151","name":"Großaitingen","type":"Kreisangehörige_Gemeinde"},"district":{"key":"09772","name":"Augsburg","type":"Landkreis"},"federalState":{"key":"09","name":"Bayern"}},{"name":"Lindauer Str.","postalCode":"86845","locality":"Großaitingen","municipality":{"key":"09772151","name":"Großaitingen","type":"Kreisangehörige_Gemeinde"},"district":{"key":"09772","name":"Augsburg","type":"Landkreis"},"federalState":{"key":"09","name":"Bayern"}},{"name":"Lindenweg","postalCode":"86845","locality":"Großaitingen","municipality":{"key":"09772151","name":"Großaitingen","type":"Kreisangehörige_Gemeinde"},"district":{"key":"09772","name":"Augsburg","type":"Landkreis"},"federalState":{"key":"09","name":"Bayern"}},{"name":"Mälzereistr.","postalCode":"86845","locality":"Großaitingen","municipality":{"key":"09772151","name":"Großaitingen","type":"Kreisangehörige_Gemeinde"},"district":{"key":"09772","name":"Augsburg","type":"Landkreis"},"federalState":{"key":"09","name":"Bayern"}},{"name":"Meisenweg","postalCode":"86845","locality":"Großaitingen","municipality":{"key":"09772151","name":"Großaitingen","type":"Kreisangehörige_Gemeinde"},"district":{"key":"09772","name":"Augsburg","type":"Landkreis"},"federalState":{"key":"09","name":"Bayern"}},{"name":"Mittelstetter Weg","postalCode":"86845","locality":"Großaitingen","municipality":{"key":"09772151","name":"Großaitingen","type":"Kreisangehörige_Gemeinde"},"district":{"key":"09772","name":"Augsburg","type":"Landkreis"},"federalState":{"key":"09","name":"Bayern"}},{"name":"Mohnweg","postalCode":"86845","locality":"Großaitingen","municipality":{"key":"09772151","name":"Großaitingen","type":"Kreisangehörige_Gemeinde"},"district":{"key":"09772","name":"Augsburg","type":"Landkreis"},"federalState":{"key":"09","name":"Bayern"}},{"name":"Mühlbergstr.","postalCode":"86845","locality":"Großaitingen","municipality":{"key":"09772151","name":"Großaitingen","type":"Kreisangehörige_Gemeinde"},"district":{"key":"09772","name":"Augsburg","type":"Landkreis"},"federalState":{"key":"09","name":"Bayern"}},{"name":"Mühlenweg","postalCode":"86845","locality":"Großaitingen","municipality":{"key":"09772151","name":"Großaitingen","type":"Kreisangehörige_Gemeinde"},"district":{"key":"09772","name":"Augsburg","type":"Landkreis"},"federalState":{"key":"09","name":"Bayern"}},{"name":"Mühlkreuzweg","postalCode":"86845","locality":"Großaitingen","municipality":{"key":"09772151","name":"Großaitingen","type":"Kreisangehörige_Gemeinde"},"district":{"key":"09772","name":"Augsburg","type":"Landkreis"},"federalState":{"key":"09","name":"Bayern"}},{"name":"Nagahama-Allee","postalCode":"86153","locality":"Augsburg","municipality":{"key":"09761000","name":"Augsburg","type":"Kreisfreie_Stadt"},"district":{"key":"09761","name":"Augsburg","type":"Kreisfreie_Stadt"},"federalState":{"key":"09","name":"Bayern"}},{"name":"Nagahama-Allee","postalCode":"86161","locality":"Augsburg","municipality":{"key":"09761000","name":"Augsburg","type":"Kreisfreie_Stadt"},"district":{"key":"09761","name":"Augsburg","type":"Kreisfreie_Stadt"},"federalState":{"key":"09","name":"Bayern"}},{"name":"Nanette-Streicher-Str.","postalCode":"86199","locality":"Augsburg","municipality":{"key":"09761000","name":"Augsburg","type":"Kreisfreie_Stadt"},"district":{"key":"09761","name":"Augsburg","type":"Kreisfreie_Stadt"},"federalState":{"key":"09","name":"Bayern"}},{"name":"Nansenstr.","postalCode":"86179","locality":"Augsburg","municipality":{"key":"09761000","name":"Augsburg","type":"Kreisfreie_Stadt"},"district":{"key":"09761","name":"Augsburg","type":"Kreisfreie_Stadt"},"federalState":{"key":"09","name":"Bayern"}},{"name":"Narzissenstr.","postalCode":"86179","locality":"Augsburg","municipality":{"key":"09761000","name":"Augsburg","type":"Kreisfreie_Stadt"},"district":{"key":"09761","name":"Augsburg","type":"Kreisfreie_Stadt"},"federalState":{"key":"09","name":"Bayern"}},{"name":"Nebelhornstr.","postalCode":"86163","locality":"Augsburg","municipality":{"key":"09761000","name":"Augsburg","type":"Kreisfreie_Stadt"},"district":{"key":"09761","name":"Augsburg","type":"Kreisfreie_Stadt"},"federalState":{"key":"09","name":"Bayern"}},{"name":"Neidhartstr.","postalCode":"86159","locality":"Augsburg","municipality":{"key":"09761000","name":"Augsburg","type":"Kreisfreie_Stadt"},"district":{"key":"09761","name":"Augsburg","type":"Kreisfreie_Stadt"},"federalState":{"key":"09","name":"Bayern"}},{"name":"Neißestr.","postalCode":"86165","locality":"Augsburg","municipality":{"key":"09761000","name":"Augsburg","type":"Kreisfreie_Stadt"},"district":{"key":"09761","name":"Augsburg","type":"Kreisfreie_Stadt"},"federalState":{"key":"09","name":"Bayern"}},{"name":"Nelkenstr.","postalCode":"86179","locality":"Augsburg","municipality":{"key":"09761000","name":"Augsburg","type":"Kreisfreie_Stadt"},"district":{"key":"09761","name":"Augsburg","type":"Kreisfreie_Stadt"},"federalState":{"key":"09","name":"Bayern"}},{"name":"Neptunstr.","postalCode":"86179","locality":"Augsburg","municipality":{"key":"09761000","name":"Augsburg","type":"Kreisfreie_Stadt"},"district":{"key":"09761","name":"Augsburg","type":"Kreisfreie_Stadt"},"federalState":{"key":"09","name":"Bayern"}},{"name":"Nesselwanger Str.","postalCode":"86163","locality":"Augsburg","municipality":{"key":"09761000","name":"Augsburg","type":"Kreisfreie_Stadt"},"district":{"key":"09761","name":"Augsburg","type":"Kreisfreie_Stadt"},"federalState":{"key":"09","name":"Bayern"}},{"name":"Neuburger Str.","postalCode":"86165","locality":"Augsburg","municipality":{"key":"09761000","name":"Augsburg","type":"Kreisfreie_Stadt"},"district":{"key":"09761","name":"Augsburg","type":"Kreisfreie_Stadt"},"federalState":{"key":"09","name":"Bayern"}},{"name":"Neuburger Str.","postalCode":"86167","locality":"Augsburg","municipality":{"key":"09761000","name":"Augsburg","type":"Kreisfreie_Stadt"},"district":{"key":"09761","name":"Augsburg","type":"Kreisfreie_Stadt"},"federalState":{"key":"09","name":"Bayern"}},{"name":"Neuburger Str.","postalCode":"86169","locality":"Augsburg","municipality":{"key":"09761000","name":"Augsburg","type":"Kreisfreie_Stadt"},"district":{"key":"09761","name":"Augsburg","type":"Kreisfreie_Stadt"},"federalState":{"key":"09","name":"Bayern"}},{"name":"Neudeker Str.","postalCode":"86199","locality":"Augsburg","municipality":{"key":"09761000","name":"Augsburg","type":"Kreisfreie_Stadt"},"district":{"key":"09761","name":"Augsburg","type":"Kreisfreie_Stadt"},"federalState":{"key":"09","name":"Bayern"}},{"name":"Neue Gasse","postalCode":"86152","locality":"Augsburg","municipality":{"key":"09761000","name":"Augsburg","type":"Kreisfreie_Stadt"},"district":{"key":"09761","name":"Augsburg","type":"Kreisfreie_Stadt"},"federalState":{"key":"09","name":"Bayern"}},{"name":"Neuer Gang","postalCode":"86150","locality":"Augsburg","municipality":{"key":"09761000","name":"Augsburg","type":"Kreisfreie_Stadt"},"district":{"key":"09761","name":"Augsburg","type":"Kreisfreie_Stadt"},"federalState":{"key":"09","name":"Bayern"}},{"name":"Neues Kautzengäßchen","postalCode":"86152","locality":"Augsburg","municipality":{"key":"09761000","name":"Augsburg","type":"Kreisfreie_Stadt"},"district":{"key":"09761","name":"Augsburg","type":"Kreisfreie_Stadt"},"federalState":{"key":"09","name":"Bayern"}},{"name":"Neufnachweg","postalCode":"86165","locality":"Augsburg","municipality":{"key":"09761000","name":"Augsburg","type":"Kreisfreie_Stadt"},"district":{"key":"09761","name":"Augsburg","type":"Kreisfreie_Stadt"},"federalState":{"key":"09","name":"Bayern"}},{"name":"Neuhäuserstr.","postalCode":"86154","locality":"Augsburg","municipality":{"key":"09761000","name":"Augsburg","type":"Kreisfreie_Stadt"},"district":{"key":"09761","name":"Augsburg","type":"Kreisfreie_Stadt"},"federalState":{"key":"09","name":"Bayern"}},{"name":"Neuhoferstr.","postalCode":"86154","locality":"Augsburg","municipality":{"key":"09761000","name":"Augsburg","type":"Kreisfreie_Stadt"},"district":{"key":"09761","name":"Augsburg","type":"Kreisfreie_Stadt"},"federalState":{"key":"09","name":"Bayern"}},{"name":"Neunkirchenstr.","postalCode":"86161","locality":"Augsburg","municipality":{"key":"09761000","name":"Augsburg","type":"Kreisfreie_Stadt"},"district":{"key":"09761","name":"Augsburg","type":"Kreisfreie_Stadt"},"federalState":{"key":"09","name":"Bayern"}},{"name":"Neusässer Str.","postalCode":"86156","locality":"Augsburg","municipality":{"key":"09761000","name":"Augsburg","type":"Kreisfreie_Stadt"},"district":{"key":"09761","name":"Augsburg","type":"Kreisfreie_Stadt"},"federalState":{"key":"09","name":"Bayern"}},{"name":"Neuschwansteinstr.","postalCode":"86163","locality":"Augsburg","municipality":{"key":"09761000","name":"Augsburg","type":"Kreisfreie_Stadt"},"district":{"key":"09761","name":"Augsburg","type":"Kreisfreie_Stadt"},"federalState":{"key":"09","name":"Bayern"}},{"name":"Nibelungenstr.","postalCode":"86152","locality":"Augsburg","municipality":{"key":"09761000","name":"Augsburg","type":"Kreisfreie_Stadt"},"district":{"key":"09761","name":"Augsburg","type":"Kreisfreie_Stadt"},"federalState":{"key":"09","name":"Bayern"}},{"name":"Nordendorfer Weg","postalCode":"86154","locality":"Augsburg","municipality":{"key":"09761000","name":"Augsburg","type":"Kreisfreie_Stadt"},"district":{"key":"09761","name":"Augsburg","type":"Kreisfreie_Stadt"},"federalState":{"key":"09","name":"Bayern"}},{"name":"Nordfriedhofstr.","postalCode":"86154","locality":"Augsburg","municipality":{"key":"09761000","name":"Augsburg","type":"Kreisfreie_Stadt"},"district":{"key":"09761","name":"Augsburg","type":"Kreisfreie_Stadt"},"federalState":{"key":"09","name":"Bayern"}},{"name":"Nördlingerstr.","postalCode":"86154","locality":"Augsburg","municipality":{"key":"09761000","name":"Augsburg","type":"Kreisfreie_Stadt"},"district":{"key":"09761","name":"Augsburg","type":"Kreisfreie_Stadt"},"federalState":{"key":"09","name":"Bayern"}},{"name":"Nordstr.","postalCode":"86179","locality":"Augsburg","municipality":{"key":"09761000","name":"Augsburg","type":"Kreisfreie_Stadt"},"district":{"key":"09761","name":"Augsburg","type":"Kreisfreie_Stadt"},"federalState":{"key":"09","name":"Bayern"}},{"name":"Novalisstr.","postalCode":"86157","locality":"Augsburg","municipality":{"key":"09761000","name":"Augsburg","type":"Kreisfreie_Stadt"},"district":{"key":"09761","name":"Augsburg","type":"Kreisfreie_Stadt"},"federalState":{"key":"09","name":"Bayern"}},{"name":"Nußbaumweg","postalCode":"86169","locality":"Augsburg","municipality":{"key":"09761000","name":"Augsburg","type":"Kreisfreie_Stadt"},"district":{"key":"09761","name":"Augsburg","type":"Kreisfreie_Stadt"},"federalState":{"key":"09","name":"Bayern"}},{"name":"Oberer Singoldweg","postalCode":"86845","locality":"Großaitingen","municipality":{"key":"09772151","name":"Großaitingen","type":"Kreisangehörige_Gemeinde"},"district":{"key":"09772","name":"Augsburg","type":"Landkreis"},"federalState":{"key":"09","name":"Bayern"}},{"name":"Oberfeldweg","postalCode":"86845","locality":"Großaitingen","municipality":{"key":"09772151","name":"Großaitingen","type":"Kreisangehörige_Gemeinde"},"district":{"key":"09772","name":"Augsburg","type":"Landkreis"},"federalState":{"key":"09","name":"Bayern"}},{"name":"Ostendweg","postalCode":"86845","locality":"Großaitingen","municipality":{"key":"09772151","name":"Großaitingen","type":"Kreisangehörige_Gemeinde"},"district":{"key":"09772","name":"Augsburg","type":"Landkreis"},"federalState":{"key":"09","name":"Bayern"}},{"name":"Ottilienweg","postalCode":"86845","locality":"Großaitingen","municipality":{"key":"09772151","name":"Großaitingen","type":"Kreisangehörige_Gemeinde"},"district":{"key":"09772","name":"Augsburg","type":"Landkreis"},"federalState":{"key":"09","name":"Bayern"}},{"name":"Pappelweg","postalCode":"86845","locality":"Großaitingen","municipality":{"key":"09772151","name":"Großaitingen","type":"Kreisangehörige_Gemeinde"},"district":{"key":"09772","name":"Augsburg","type":"Landkreis"},"federalState":{"key":"09","name":"Bayern"}},{"name":"Pförrenstr.","postalCode":"86845","locality":"Großaitingen","municipality":{"key":"09772151","name":"Großaitingen","type":"Kreisangehörige_Gemeinde"},"district":{"key":"09772","name":"Augsburg","type":"Landkreis"},"federalState":{"key":"09","name":"Bayern"}},{"name":"Poststr.","postalCode":"86845","locality":"Großaitingen","municipality":{"key":"09772151","name":"Großaitingen","type":"Kreisangehörige_Gemeinde"},"district":{"key":"09772","name":"Augsburg","type":"Landkreis"},"federalState":{"key":"09","name":"Bayern"}},{"name":"Probst-Gerhard-Str.","postalCode":"86845","locality":"Großaitingen","municipality":{"key":"09772151","name":"Großaitingen","type":"Kreisangehörige_Gemeinde"},"district":{"key":"09772","name":"Augsburg","type":"Landkreis"},"federalState":{"key":"09","name":"Bayern"}},{"name":"Quellenweg","postalCode":"86845","locality":"Großaitingen","municipality":{"key":"09772151","name":"Großaitingen","type":"Kreisangehörige_Gemeinde"},"district":{"key":"09772","name":"Augsburg","type":"Landkreis"},"federalState":{"key":"09","name":"Bayern"}},{"name":"Reinhartshauser Str.","postalCode":"86845","locality":"Großaitingen","municipality":{"key":"09772151","name":"Großaitingen","type":"Kreisangehörige_Gemeinde"},"district":{"key":"09772","name":"Augsburg","type":"Landkreis"},"federalState":{"key":"09","name":"Bayern"}},{"name":"Reinhartshofer Str.","postalCode":"86845","locality":"Großaitingen","municipality":{"key":"09772151","name":"Großaitingen","type":"Kreisangehörige_Gemeinde"},"district":{"key":"09772","name":"Augsburg","type":"Landkreis"},"federalState":{"key":"09","name":"Bayern"}},{"name":"Roggenstr.","postalCode":"86845","locality":"Großaitingen","municipality":{"key":"09772151","name":"Großaitingen","type":"Kreisangehörige_Gemeinde"},"district":{"key":"09772","name":"Augsburg","type":"Landkreis"},"federalState":{"key":"09","name":"Bayern"}},{"name":"Römerweg","postalCode":"86845","locality":"Großaitingen","municipality":{"key":"09772151","name":"Großaitingen","type":"Kreisangehörige_Gemeinde"},"district":{"key":"09772","name":"Augsburg","type":"Landkreis"},"federalState":{"key":"09","name":"Bayern"}},{"name":"Rot-Kreuz-Weg","postalCode":"86845","locality":"Großaitingen","municipality":{"key":"09772151","name":"Großaitingen","type":"Kreisangehörige_Gemeinde"},"district":{"key":"09772","name":"Augsburg","type":"Landkreis"},"federalState":{"key":"09","name":"Bayern"}},{"name":"Sackgasse","postalCode":"86845","locality":"Großaitingen","municipality":{"key":"09772151","name":"Großaitingen","type":"Kreisangehörige_Gemeinde"},"district":{"key":"09772","name":"Augsburg","type":"Landkreis"},"federalState":{"key":"09","name":"Bayern"}},{"name":"Schächerweg","postalCode":"86845","locality":"Großaitingen","municipality":{"key":"09772151","name":"Großaitingen","type":"Kreisangehörige_Gemeinde"},"district":{"key":"09772","name":"Augsburg","type":"Landkreis"},"federalState":{"key":"09","name":"Bayern"}},{"name":"Schanzweg","postalCode":"86845","locality":"Großaitingen","municipality":{"key":"09772151","name":"Großaitingen","type":"Kreisangehörige_Gemeinde"},"district":{"key":"09772","name":"Augsburg","type":"Landkreis"},"federalState":{"key":"09","name":"Bayern"}},{"name":"Scheppacher Str.","postalCode":"86845","locality":"Großaitingen","municipality":{"key":"09772151","name":"Großaitingen","type":"Kreisangehörige_Gemeinde"},"district":{"key":"09772","name":"Augsburg","type":"Landkreis"},"federalState":{"key":"09","name":"Bayern"}},{"name":"Schindelbergstr.","postalCode":"86845","locality":"Großaitingen","municipality":{"key":"09772151","name":"Großaitingen","type":"Kreisangehörige_Gemeinde"},"district":{"key":"09772","name":"Augsburg","type":"Landkreis"},"federalState":{"key":"09","name":"Bayern"}},{"name":"Schlehenweg","postalCode":"86845","locality":"Großaitingen","municipality":{"key":"09772151","name":"Großaitingen","type":"Kreisangehörige_Gemeinde"},"district":{"key":"09772","name":"Augsburg","type":"Landkreis"},"federalState":{"key":"09","name":"Bayern"}},{"name":"Schmiedberg","postalCode":"86845","locality":"Großaitingen","municipality":{"key":"09772151","name":"Großaitingen","type":"Kreisangehörige_Gemeinde"},"district":{"key":"09772","name":"Augsburg","type":"Landkreis"},"federalState":{"key":"09","name":"Bayern"}},{"name":"Schmiedgasse","postalCode":"86845","locality":"Großaitingen","municipality":{"key":"09772151","name":"Großaitingen","type":"Kreisangehörige_Gemeinde"},"district":{"key":"09772","name":"Augsburg","type":"Landkreis"},"federalState":{"key":"09","name":"Bayern"}},{"name":"Schnitterstr.","postalCode":"86845","locality":"Großaitingen","municipality":{"key":"09772151","name":"Großaitingen","type":"Kreisangehörige_Gemeinde"},"district":{"key":"09772","name":"Augsburg","type":"Landkreis"},"federalState":{"key":"09","name":"Bayern"}},{"name":"Schulstr.","postalCode":"86845","locality":"Großaitingen","municipality":{"key":"09772151","name":"Großaitingen","type":"Kreisangehörige_Gemeinde"},"district":{"key":"09772","name":"Augsburg","type":"Landkreis"},"federalState":{"key":"09","name":"Bayern"}},{"name":"Schützenstr.","postalCode":"86845","locality":"Großaitingen","municipality":{"key":"09772151","name":"Großaitingen","type":"Kreisangehörige_Gemeinde"},"district":{"key":"09772","name":"Augsburg","type":"Landkreis"},"federalState":{"key":"09","name":"Bayern"}},{"name":"Sebastianweg","postalCode":"86845","locality":"Großaitingen","municipality":{"key":"09772151","name":"Großaitingen","type":"Kreisangehörige_Gemeinde"},"district":{"key":"09772","name":"Augsburg","type":"Landkreis"},"federalState":{"key":"09","name":"Bayern"}},{"name":"Seidelbastweg","postalCode":"86845","locality":"Großaitingen","municipality":{"key":"09772151","name":"Großaitingen","type":"Kreisangehörige_Gemeinde"},"district":{"key":"09772","name":"Augsburg","type":"Landkreis"},"federalState":{"key":"09","name":"Bayern"}},{"name":"Sigerathweg","postalCode":"86845","locality":"Großaitingen","municipality":{"key":"09772151","name":"Großaitingen","type":"Kreisangehörige_Gemeinde"},"district":{"key":"09772","name":"Augsburg","type":"Landkreis"},"federalState":{"key":"09","name":"Bayern"}},{"name":"Singoldpark Mitte","postalCode":"86845","locality":"Großaitingen","municipality":{"key":"09772151","name":"Großaitingen","type":"Kreisangehörige_Gemeinde"},"district":{"key":"09772","name":"Augsburg","type":"Landkreis"},"federalState":{"key":"09","name":"Bayern"}},{"name":"Singoldpark Nord","postalCode":"86845","locality":"Großaitingen","municipality":{"key":"09772151","name":"Großaitingen","type":"Kreisangehörige_Gemeinde"},"district":{"key":"09772","name":"Augsburg","type":"Landkreis"},"federalState":{"key":"09","name":"Bayern"}},{"name":"Sinkelmahdstr.","postalCode":"86845","locality":"Großaitingen","municipality":{"key":"09772151","name":"Großaitingen","type":"Kreisangehörige_Gemeinde"},"district":{"key":"09772","name":"Augsburg","type":"Landkreis"},"federalState":{"key":"09","name":"Bayern"}},{"name":"Sonnleitenstr.","postalCode":"86845","locality":"Großaitingen","municipality":{"key":"09772151","name":"Großaitingen","type":"Kreisangehörige_Gemeinde"},"district":{"key":"09772","name":"Augsburg","type":"Landkreis"},"federalState":{"key":"09","name":"Bayern"}},{"name":"St.-Afra-Str.","postalCode":"86845","locality":"Großaitingen","municipality":{"key":"09772151","name":"Großaitingen","type":"Kreisangehörige_Gemeinde"},"district":{"key":"09772","name":"Augsburg","type":"Landkreis"},"federalState":{"key":"09","name":"Bayern"}},{"name":"Steingasse","postalCode":"86845","locality":"Großaitingen","municipality":{"key":"09772151","name":"Großaitingen","type":"Kreisangehörige_Gemeinde"},"district":{"key":"09772","name":"Augsburg","type":"Landkreis"},"federalState":{"key":"09","name":"Bayern"}},{"name":"St.-Justina-Weg","postalCode":"86845","locality":"Großaitingen","municipality":{"key":"09772151","name":"Großaitingen","type":"Kreisangehörige_Gemeinde"},"district":{"key":"09772","name":"Augsburg","type":"Landkreis"},"federalState":{"key":"09","name":"Bayern"}},{"name":"Stockmahdweg","postalCode":"86845","locality":"Großaitingen","municipality":{"key":"09772151","name":"Großaitingen","type":"Kreisangehörige_Gemeinde"},"district":{"key":"09772","name":"Augsburg","type":"Landkreis"},"federalState":{"key":"09","name":"Bayern"}},{"name":"St.-Radegundis-Str.","postalCode":"86845","locality":"Großaitingen","municipality":{"key":"09772151","name":"Großaitingen","type":"Kreisangehörige_Gemeinde"},"district":{"key":"09772","name":"Augsburg","type":"Landkreis"},"federalState":{"key":"09","name":"Bayern"}},{"name":"Tannenweg","postalCode":"86845","locality":"Großaitingen","municipality":{"key":"09772151","name":"Großaitingen","type":"Kreisangehörige_Gemeinde"},"district":{"key":"09772","name":"Augsburg","type":"Landkreis"},"federalState":{"key":"09","name":"Bayern"}},{"name":"Tiroler Weg","postalCode":"86845","locality":"Großaitingen","municipality":{"key":"09772151","name":"Großaitingen","type":"Kreisangehörige_Gemeinde"},"district":{"key":"09772","name":"Augsburg","type":"Landkreis"},"federalState":{"key":"09","name":"Bayern"}},{"name":"Ulmenweg","postalCode":"86845","locality":"Großaitingen","municipality":{"key":"09772151","name":"Großaitingen","type":"Kreisangehörige_Gemeinde"},"district":{"key":"09772","name":"Augsburg","type":"Landkreis"},"federalState":{"key":"09","name":"Bayern"}},{"name":"Untere Breiten","postalCode":"86845","locality":"Großaitingen","municipality":{"key":"09772151","name":"Großaitingen","type":"Kreisangehörige_Gemeinde"},"district":{"key":"09772","name":"Augsburg","type":"Landkreis"},"federalState":{"key":"09","name":"Bayern"}},{"name":"Unterer Anger","postalCode":"86845","locality":"Großaitingen","municipality":{"key":"09772151","name":"Großaitingen","type":"Kreisangehörige_Gemeinde"},"district":{"key":"09772","name":"Augsburg","type":"Landkreis"},"federalState":{"key":"09","name":"Bayern"}},{"name":"Unterer Singoldweg","postalCode":"86845","locality":"Großaitingen","municipality":{"key":"09772151","name":"Großaitingen","type":"Kreisangehörige_Gemeinde"},"district":{"key":"09772","name":"Augsburg","type":"Landkreis"},"federalState":{"key":"09","name":"Bayern"}},{"name":"Von-Lotzbeck-Str.","postalCode":"86845","locality":"Großaitingen","municipality":{"key":"09772151","name":"Großaitingen","type":"Kreisangehörige_Gemeinde"},"district":{"key":"09772","name":"Augsburg","type":"Landkreis"},"federalState":{"key":"09","name":"Bayern"}},{"name":"Waxensteinstr.","postalCode":"86845","locality":"Großaitingen","municipality":{"key":"09772151","name":"Großaitingen","type":"Kreisangehörige_Gemeinde"},"district":{"key":"09772","name":"Augsburg","type":"Landkreis"},"federalState":{"key":"09","name":"Bayern"}},{"name":"Weidenweg","postalCode":"86845","locality":"Großaitingen","municipality":{"key":"09772151","name":"Großaitingen","type":"Kreisangehörige_Gemeinde"},"district":{"key":"09772","name":"Augsburg","type":"Landkreis"},"federalState":{"key":"09","name":"Bayern"}},{"name":"Weihertalstr.","postalCode":"86845","locality":"Großaitingen","municipality":{"key":"09772151","name":"Großaitingen","type":"Kreisangehörige_Gemeinde"},"district":{"key":"09772","name":"Augsburg","type":"Landkreis"},"federalState":{"key":"09","name":"Bayern"}},{"name":"Weiherweg","postalCode":"86845","locality":"Großaitingen","municipality":{"key":"09772151","name":"Großaitingen","type":"Kreisangehörige_Gemeinde"},"district":{"key":"09772","name":"Augsburg","type":"Landkreis"},"federalState":{"key":"09","name":"Bayern"}},{"name":"Weißdornweg","postalCode":"86845","locality":"Großaitingen","municipality":{"key":"09772151","name":"Großaitingen","type":"Kreisangehörige_Gemeinde"},"district":{"key":"09772","name":"Augsburg","type":"Landkreis"},"federalState":{"key":"09","name":"Bayern"}},{"name":"Wendelin-Geßler-Str.","postalCode":"86845","locality":"Großaitingen","municipality":{"key":"09772151","name":"Großaitingen","type":"Kreisangehörige_Gemeinde"},"district":{"key":"09772","name":"Augsburg","type":"Landkreis"},"federalState":{"key":"09","name":"Bayern"}},{"name":"Wendelsteinstr.","postalCode":"86845","locality":"Großaitingen","municipality":{"key":"09772151","name":"Großaitingen","type":"Kreisangehörige_Gemeinde"},"district":{"key":"09772","name":"Augsburg","type":"Landkreis"},"federalState":{"key":"09","name":"Bayern"}},{"name":"Wertachpark","postalCode":"86845","locality":"Großaitingen","municipality":{"key":"09772151","name":"Großaitingen","type":"Kreisangehörige_Gemeinde"},"district":{"key":"09772","name":"Augsburg","type":"Landkreis"},"federalState":{"key":"09","name":"Bayern"}},{"name":"Wertachstr.","postalCode":"86845","locality":"Großaitingen","municipality":{"key":"09772151","name":"Großaitingen","type":"Kreisangehörige_Gemeinde"},"district":{"key":"09772","name":"Augsburg","type":"Landkreis"},"federalState":{"key":"09","name":"Bayern"}},{"name":"Westendweg","postalCode":"86845","locality":"Großaitingen","municipality":{"key":"09772151","name":"Großaitingen","type":"Kreisangehörige_Gemeinde"},"district":{"key":"09772","name":"Augsburg","type":"Landkreis"},"federalState":{"key":"09","name":"Bayern"}},{"name":"Wettersteinstr.","postalCode":"86845","locality":"Großaitingen","municipality":{"key":"09772151","name":"Großaitingen","type":"Kreisangehörige_Gemeinde"},"district":{"key":"09772","name":"Augsburg","type":"Landkreis"},"federalState":{"key":"09","name":"Bayern"}},{"name":"Wiesenweg","postalCode":"86845","locality":"Großaitingen","municipality":{"key":"09772151","name":"Großaitingen","type":"Kreisangehörige_Gemeinde"},"district":{"key":"09772","name":"Augsburg","type":"Landkreis"},"federalState":{"key":"09","name":"Bayern"}},{"name":"Yorckstr.","postalCode":"86165","locality":"Augsburg","municipality":{"key":"09761000","name":"Augsburg","type":"Kreisfreie_Stadt"},"district":{"key":"09761","name":"Augsburg","type":"Kreisfreie_Stadt"},"federalState":{"key":"09","name":"Bayern"}},{"name":"Zugspitzstr.","postalCode":"86845","locality":"Großaitingen","municipality":{"key":"09772151","name":"Großaitingen","type":"Kreisangehörige_Gemeinde"},"district":{"key":"09772","name":"Augsburg","type":"Landkreis"},"federalState":{"key":"09","name":"Bayern"}},{"name":"Zur Alten Ziegelei","postalCode":"86845","locality":"Großaitingen","municipality":{"key":"09772151","name":"Großaitingen","type":"Kreisangehörige_Gemeinde"},"district":{"key":"09772","name":"Augsburg","type":"Landkreis"},"federalState":{"key":"09","name":"Bayern"}},{"name":"Ährenstr.","postalCode":"86845","locality":"Großaitingen","municipality":{"key":"09772151","name":"Großaitingen","type":"Kreisangehörige_Gemeinde"},"district":{"key":"09772","name":"Augsburg","type":"Landkreis"},"federalState":{"key":"09","name":"Bayern"}},{"name":"Öglinstr.","postalCode":"86153","locality":"Augsburg","municipality":{"key":"09761000","name":"Augsburg","type":"Kreisfreie_Stadt"},"district":{"key":"09761","name":"Augsburg","type":"Kreisfreie_Stadt"},"federalState":{"key":"09","name":"Bayern"}},{"name":"Ölbachstr.","postalCode":"86179","locality":"Augsburg","municipality":{"key":"09761000","name":"Augsburg","type":"Kreisfreie_Stadt"},"district":{"key":"09761","name":"Augsburg","type":"Kreisfreie_Stadt"},"federalState":{"key":"09","name":"Bayern"}},]