[{"key":"10179036","name":"Adligenswilerstrasse","postalCode":"6030","locality":"Ebikon","commune":{"key":"1054","name":"Ebikon","shortName":"Ebikon"},"district":{"key":"312","name":"Wahlkreis Luzern-Land"},"canton":{"key":"3","code":"LU","name":"Luzern"},"status":"Real"},{"key":"10085677","name":"Aeschenmatte","postalCode":"6030","locality":"Ebikon","commune":{"key":"1054","name":"Ebikon","shortName":"Ebikon"},"district":{"key":"312","name":"Wahlkreis Luzern-Land"},"canton":{"key":"3","code":"LU","name":"Luzern"},"status":"Real"},{"key":"10085678","name":"Aeschenthürlistrasse","postalCode":"6030","locality":"Ebikon","commune":{"key":"1054","name":"Ebikon","shortName":"Ebikon"},"district":{"key":"312","name":"Wahlkreis Luzern-Land"},"canton":{"key":"3","code":"LU","name":"Luzern"},"status":"Real"},{"key":"10014740","name":"Alfred-Schindlerstrasse","postalCode":"6030","locality":"Ebikon","commune":{"key":"1054","name":"Ebikon","shortName":"Ebikon"},"district":{"key":"312","name":"Wahlkreis Luzern-Land"},"canton":{"key":"3","code":"LU","name":"Luzern"},"status":"Real"},{"key":"10127145","name":"Allmend","postalCode":"6244","locality":"Nebikon","commune":{"key":"1137","name":"Nebikon","shortName":"Nebikon"},"district":{"key":"315","name":"Wahlkreis Willisau"},"canton":{"key":"3","code":"LU","name":"Luzern"},"status":"Real"},{"key":"10082593","name":"Altishoferstrasse","postalCode":"6244","locality":"Nebikon","commune":{"key":"1137","name":"Nebikon","shortName":"Nebikon"},"district":{"key":"315","name":"Wahlkreis Willisau"},"canton":{"key":"3","code":"LU","name":"Luzern"},"status":"Real"},{"key":"10062898","name":"An der Luther","postalCode":"6244","locality":"Nebikon","commune":{"key":"1137","name":"Nebikon","shortName":"Nebikon"},"district":{"key":"315","name":"Wahlkreis Willisau"},"canton":{"key":"3","code":"LU","name":"Luzern"},"status":"Real"},{"key":"10170391","name":"Bächlimatt","postalCode":"6244","locality":"Nebikon","commune":{"key":"1137","name":"Nebikon","shortName":"Nebikon"},"district":{"key":"315","name":"Wahlkreis Willisau"},"canton":{"key":"3","code":"LU","name":"Luzern"},"status":"Real"},{"key":"10065474","name":"Bahnhofstrasse","postalCode":"6030","locality":"Ebikon","commune":{"key":"1054","name":"Ebikon","shortName":"Ebikon"},"district":{"key":"312","name":"Wahlkreis Luzern-Land"},"canton":{"key":"3","code":"LU","name":"Luzern"},"status":"Real"},{"key":"10116571","name":"Bahnhofstrasse","postalCode":"6244","locality":"Nebikon","commune":{"key":"1137","name":"Nebikon","shortName":"Nebikon"},"district":{"key":"315","name":"Wahlkreis Willisau"},"canton":{"key":"3","code":"LU","name":"Luzern"},"status":"Real"},{"key":"10020393","name":"Baumacher","postalCode":"6244","locality":"Nebikon","commune":{"key":"1137","name":"Nebikon","shortName":"Nebikon"},"district":{"key":"315","name":"Wahlkreis Willisau"},"canton":{"key":"3","code":"LU","name":"Luzern"},"status":"Real"},{"key":"10014741","name":"Bergstrasse","postalCode":"6030","locality":"Ebikon","commune":{"key":"1054","name":"Ebikon","shortName":"Ebikon"},"district":{"key":"312","name":"Wahlkreis Luzern-Land"},"canton":{"key":"3","code":"LU","name":"Luzern"},"status":"Real"},{"key":"10020394","name":"Blattenacher","postalCode":"6244","locality":"Nebikon","commune":{"key":"1137","name":"Nebikon","shortName":"Nebikon"},"district":{"key":"315","name":"Wahlkreis Willisau"},"canton":{"key":"3","code":"LU","name":"Luzern"},"status":"Real"},{"key":"10062899","name":"Blattengasse","postalCode":"6244","locality":"Nebikon","commune":{"key":"1137","name":"Nebikon","shortName":"Nebikon"},"district":{"key":"315","name":"Wahlkreis Willisau"},"canton":{"key":"3","code":"LU","name":"Luzern"},"status":"Real"},{"key":"10158326","name":"Buchrainstrasse","postalCode":"6030","locality":"Ebikon","commune":{"key":"1054","name":"Ebikon","shortName":"Ebikon"},"district":{"key":"312","name":"Wahlkreis Luzern-Land"},"canton":{"key":"3","code":"LU","name":"Luzern"},"status":"Real"},{"key":"10020395","name":"Büelen","postalCode":"6244","locality":"Nebikon","commune":{"key":"1137","name":"Nebikon","shortName":"Nebikon"},"district":{"key":"315","name":"Wahlkreis Willisau"},"canton":{"key":"3","code":"LU","name":"Luzern"},"status":"Real"},{"key":"10014742","name":"Bühlrain","postalCode":"6030","locality":"Ebikon","commune":{"key":"1054","name":"Ebikon","shortName":"Ebikon"},"district":{"key":"312","name":"Wahlkreis Luzern-Land"},"canton":{"key":"3","code":"LU","name":"Luzern"},"status":"Real"},{"key":"10085679","name":"Chäppelimattstrasse","postalCode":"6030","locality":"Ebikon","commune":{"key":"1054","name":"Ebikon","shortName":"Ebikon"},"district":{"key":"312","name":"Wahlkreis Luzern-Land"},"canton":{"key":"3","code":"LU","name":"Luzern"},"status":"Real"},{"key":"10082594","name":"Chriesiacher","postalCode":"6244","locality":"Nebikon","commune":{"key":"1137","name":"Nebikon","shortName":"Nebikon"},"district":{"key":"315","name":"Wahlkreis Willisau"},"canton":{"key":"3","code":"LU","name":"Luzern"},"status":"Real"},{"key":"10114104","name":"Dorf","postalCode":"6244","locality":"Nebikon","commune":{"key":"1137","name":"Nebikon","shortName":"Nebikon"},"district":{"key":"315","name":"Wahlkreis Willisau"},"canton":{"key":"3","code":"LU","name":"Luzern"},"status":"Real"},{"key":"10167877","name":"Dorfmatt","postalCode":"6244","locality":"Nebikon","commune":{"key":"1137","name":"Nebikon","shortName":"Nebikon"},"district":{"key":"315","name":"Wahlkreis Willisau"},"canton":{"key":"3","code":"LU","name":"Luzern"},"status":"Real"},{"key":"10014743","name":"Dorfstrasse","postalCode":"6030","locality":"Ebikon","commune":{"key":"1054","name":"Ebikon","shortName":"Ebikon"},"district":{"key":"312","name":"Wahlkreis Luzern-Land"},"canton":{"key":"3","code":"LU","name":"Luzern"},"status":"Real"},{"key":"10208083","name":"Ebisquare-Strasse","postalCode":"6030","locality":"Ebikon","commune":{"key":"1054","name":"Ebikon","shortName":"Ebikon"},"district":{"key":"312","name":"Wahlkreis Luzern-Land"},"canton":{"key":"3","code":"LU","name":"Luzern"},"status":"Real"},{"key":"10207181","name":"Ebrütistrasse","postalCode":"6030","locality":"Ebikon","commune":{"key":"1054","name":"Ebikon","shortName":"Ebikon"},"district":{"key":"312","name":"Wahlkreis Luzern-Land"},"canton":{"key":"3","code":"LU","name":"Luzern"},"status":"Real"},{"key":"10020396","name":"Egolzwilerstrasse","postalCode":"6244","locality":"Nebikon","commune":{"key":"1137","name":"Nebikon","shortName":"Nebikon"},"district":{"key":"315","name":"Wahlkreis Willisau"},"canton":{"key":"3","code":"LU","name":"Luzern"},"status":"Real"},{"key":"10105656","name":"Eschenweg","postalCode":"6030","locality":"Ebikon","commune":{"key":"1054","name":"Ebikon","shortName":"Ebikon"},"district":{"key":"312","name":"Wahlkreis Luzern-Land"},"canton":{"key":"3","code":"LU","name":"Luzern"},"status":"Real"},{"key":"10159166","name":"Fährihus","postalCode":"6030","locality":"Ebikon","commune":{"key":"1054","name":"Ebikon","shortName":"Ebikon"},"district":{"key":"312","name":"Wahlkreis Luzern-Land"},"canton":{"key":"3","code":"LU","name":"Luzern"},"status":"Real"},{"key":"10062900","name":"Feldacher","postalCode":"6244","locality":"Nebikon","commune":{"key":"1137","name":"Nebikon","shortName":"Nebikon"},"district":{"key":"315","name":"Wahlkreis Willisau"},"canton":{"key":"3","code":"LU","name":"Luzern"},"status":"Real"},{"key":"10170566","name":"Feldmatt","postalCode":"6030","locality":"Ebikon","commune":{"key":"1054","name":"Ebikon","shortName":"Ebikon"},"district":{"key":"312","name":"Wahlkreis Luzern-Land"},"canton":{"key":"3","code":"LU","name":"Luzern"},"status":"Real"},{"key":"10212422","name":"Feldstrasse","postalCode":"6244","locality":"Nebikon","commune":{"key":"1137","name":"Nebikon","shortName":"Nebikon"},"district":{"key":"315","name":"Wahlkreis Willisau"},"canton":{"key":"3","code":"LU","name":"Luzern"},"status":"Real"},{"key":"10111772","name":"Fildernrain","postalCode":"6030","locality":"Ebikon","commune":{"key":"1054","name":"Ebikon","shortName":"Ebikon"},"district":{"key":"312","name":"Wahlkreis Luzern-Land"},"canton":{"key":"3","code":"LU","name":"Luzern"},"status":"Real"},{"key":"10014745","name":"Fildernstrasse","postalCode":"6030","locality":"Ebikon","commune":{"key":"1054","name":"Ebikon","shortName":"Ebikon"},"district":{"key":"312","name":"Wahlkreis Luzern-Land"},"canton":{"key":"3","code":"LU","name":"Luzern"},"status":"Real"},{"key":"10020397","name":"Flüeggen","postalCode":"6244","locality":"Nebikon","commune":{"key":"1137","name":"Nebikon","shortName":"Nebikon"},"district":{"key":"315","name":"Wahlkreis Willisau"},"canton":{"key":"3","code":"LU","name":"Luzern"},"status":"Real"},{"key":"10017385","name":"Flüeggen","postalCode":"6244","locality":"Nebikon","commune":{"key":"1137","name":"Nebikon","shortName":"Nebikon"},"district":{"key":"315","name":"Wahlkreis Willisau"},"canton":{"key":"3","code":"LU","name":"Luzern"},"status":"Real"},{"key":"10065475","name":"Flurstrasse","postalCode":"6030","locality":"Ebikon","commune":{"key":"1054","name":"Ebikon","shortName":"Ebikon"},"district":{"key":"312","name":"Wahlkreis Luzern-Land"},"canton":{"key":"3","code":"LU","name":"Luzern"},"status":"Real"},{"key":"10131219","name":"Fröscherengasse","postalCode":"6244","locality":"Nebikon","commune":{"key":"1137","name":"Nebikon","shortName":"Nebikon"},"district":{"key":"315","name":"Wahlkreis Willisau"},"canton":{"key":"3","code":"LU","name":"Luzern"},"status":"Real"},{"key":"10062901","name":"Galgenhölzli","postalCode":"6244","locality":"Nebikon","commune":{"key":"1137","name":"Nebikon","shortName":"Nebikon"},"district":{"key":"315","name":"Wahlkreis Willisau"},"canton":{"key":"3","code":"LU","name":"Luzern"},"status":"Real"},{"key":"10014746","name":"Gartenweg","postalCode":"6030","locality":"Ebikon","commune":{"key":"1054","name":"Ebikon","shortName":"Ebikon"},"district":{"key":"312","name":"Wahlkreis Luzern-Land"},"canton":{"key":"3","code":"LU","name":"Luzern"},"status":"Real"},{"key":"10020400","name":"Gässli","postalCode":"6244","locality":"Nebikon","commune":{"key":"1137","name":"Nebikon","shortName":"Nebikon"},"district":{"key":"315","name":"Wahlkreis Willisau"},"canton":{"key":"3","code":"LU","name":"Luzern"},"status":"Real"},{"key":"10020398","name":"Geisacherweg","postalCode":"6244","locality":"Nebikon","commune":{"key":"1137","name":"Nebikon","shortName":"Nebikon"},"district":{"key":"315","name":"Wahlkreis Willisau"},"canton":{"key":"3","code":"LU","name":"Luzern"},"status":"Real"},{"key":"10179037","name":"Gerbering","postalCode":"6030","locality":"Ebikon","commune":{"key":"1054","name":"Ebikon","shortName":"Ebikon"},"district":{"key":"312","name":"Wahlkreis Luzern-Land"},"canton":{"key":"3","code":"LU","name":"Luzern"},"status":"Real"},{"key":"10116719","name":"Glängweg","postalCode":"6244","locality":"Nebikon","commune":{"key":"1137","name":"Nebikon","shortName":"Nebikon"},"district":{"key":"315","name":"Wahlkreis Willisau"},"canton":{"key":"3","code":"LU","name":"Luzern"},"status":"Real"},{"key":"10114105","name":"Graben","postalCode":"6244","locality":"Nebikon","commune":{"key":"1137","name":"Nebikon","shortName":"Nebikon"},"district":{"key":"315","name":"Wahlkreis Willisau"},"canton":{"key":"3","code":"LU","name":"Luzern"},"status":"Real"},{"key":"10017730","name":"Grossmatt","postalCode":"6244","locality":"Nebikon","commune":{"key":"1137","name":"Nebikon","shortName":"Nebikon"},"district":{"key":"315","name":"Wahlkreis Willisau"},"canton":{"key":"3","code":"LU","name":"Luzern"},"status":"Real"},{"key":"10020399","name":"Gründenweg","postalCode":"6244","locality":"Nebikon","commune":{"key":"1137","name":"Nebikon","shortName":"Nebikon"},"district":{"key":"315","name":"Wahlkreis Willisau"},"canton":{"key":"3","code":"LU","name":"Luzern"},"status":"Real"},{"key":"10062902","name":"Grütstrasse","postalCode":"6244","locality":"Nebikon","commune":{"key":"1137","name":"Nebikon","shortName":"Nebikon"},"district":{"key":"315","name":"Wahlkreis Willisau"},"canton":{"key":"3","code":"LU","name":"Luzern"},"status":"Real"},{"key":"10082595","name":"Gschwäbring","postalCode":"6244","locality":"Nebikon","commune":{"key":"1137","name":"Nebikon","shortName":"Nebikon"},"district":{"key":"315","name":"Wahlkreis Willisau"},"canton":{"key":"3","code":"LU","name":"Luzern"},"status":"Real"},{"key":"10014747","name":"Haltenrain","postalCode":"6030","locality":"Ebikon","commune":{"key":"1054","name":"Ebikon","shortName":"Ebikon"},"district":{"key":"312","name":"Wahlkreis Luzern-Land"},"canton":{"key":"3","code":"LU","name":"Luzern"},"status":"Real"},{"key":"10085681","name":"Haltenstrasse","postalCode":"6030","locality":"Ebikon","commune":{"key":"1054","name":"Ebikon","shortName":"Ebikon"},"district":{"key":"312","name":"Wahlkreis Luzern-Land"},"canton":{"key":"3","code":"LU","name":"Luzern"},"status":"Real"},{"key":"10188639","name":"Hartenfelsrain","postalCode":"6030","locality":"Ebikon","commune":{"key":"1054","name":"Ebikon","shortName":"Ebikon"},"district":{"key":"312","name":"Wahlkreis Luzern-Land"},"canton":{"key":"3","code":"LU","name":"Luzern"},"status":"Real"},{"key":"10014748","name":"Hartenfelsstrasse","postalCode":"6030","locality":"Ebikon","commune":{"key":"1054","name":"Ebikon","shortName":"Ebikon"},"district":{"key":"312","name":"Wahlkreis Luzern-Land"},"canton":{"key":"3","code":"LU","name":"Luzern"},"status":"Real"},{"key":"10085682","name":"Hartenfelsweg","postalCode":"6030","locality":"Ebikon","commune":{"key":"1054","name":"Ebikon","shortName":"Ebikon"},"district":{"key":"312","name":"Wahlkreis Luzern-Land"},"canton":{"key":"3","code":"LU","name":"Luzern"},"status":"Real"},{"key":"10015867","name":"Herrenweg","postalCode":"6030","locality":"Ebikon","commune":{"key":"1054","name":"Ebikon","shortName":"Ebikon"},"district":{"key":"312","name":"Wahlkreis Luzern-Land"},"canton":{"key":"3","code":"LU","name":"Luzern"},"status":"Real"},{"key":"10139110","name":"Hinder Rätlisbach","postalCode":"6030","locality":"Ebikon","commune":{"key":"1054","name":"Ebikon","shortName":"Ebikon"},"district":{"key":"312","name":"Wahlkreis Luzern-Land"},"canton":{"key":"3","code":"LU","name":"Luzern"},"status":"Real"},{"key":"10117072","name":"Höchmattweg","postalCode":"6030","locality":"Ebikon","commune":{"key":"1054","name":"Ebikon","shortName":"Ebikon"},"district":{"key":"312","name":"Wahlkreis Luzern-Land"},"canton":{"key":"3","code":"LU","name":"Luzern"},"status":"Real"},{"key":"10085683","name":"Höchweidstrasse","postalCode":"6030","locality":"Ebikon","commune":{"key":"1054","name":"Ebikon","shortName":"Ebikon"},"district":{"key":"312","name":"Wahlkreis Luzern-Land"},"canton":{"key":"3","code":"LU","name":"Luzern"},"status":"Real"},{"key":"10020401","name":"Hofacher","postalCode":"6244","locality":"Nebikon","commune":{"key":"1137","name":"Nebikon","shortName":"Nebikon"},"district":{"key":"315","name":"Wahlkreis Willisau"},"canton":{"key":"3","code":"LU","name":"Luzern"},"status":"Real"},{"key":"10105657","name":"Höflirain","postalCode":"6030","locality":"Ebikon","commune":{"key":"1054","name":"Ebikon","shortName":"Ebikon"},"district":{"key":"312","name":"Wahlkreis Luzern-Land"},"canton":{"key":"3","code":"LU","name":"Luzern"},"status":"Real"},{"key":"10015869","name":"Höflistrasse","postalCode":"6030","locality":"Ebikon","commune":{"key":"1054","name":"Ebikon","shortName":"Ebikon"},"district":{"key":"312","name":"Wahlkreis Luzern-Land"},"canton":{"key":"3","code":"LU","name":"Luzern"},"status":"Real"},{"key":"10015868","name":"Hofmattstrasse","postalCode":"6030","locality":"Ebikon","commune":{"key":"1054","name":"Ebikon","shortName":"Ebikon"},"district":{"key":"312","name":"Wahlkreis Luzern-Land"},"canton":{"key":"3","code":"LU","name":"Luzern"},"status":"Real"},{"key":"10179038","name":"Hohlenweg","postalCode":"6030","locality":"Ebikon","commune":{"key":"1054","name":"Ebikon","shortName":"Ebikon"},"district":{"key":"312","name":"Wahlkreis Luzern-Land"},"canton":{"key":"3","code":"LU","name":"Luzern"},"status":"Real"},{"key":"10163658","name":"Im Chienis","postalCode":"6244","locality":"Nebikon","commune":{"key":"1137","name":"Nebikon","shortName":"Nebikon"},"district":{"key":"315","name":"Wahlkreis Willisau"},"canton":{"key":"3","code":"LU","name":"Luzern"},"status":"Real"},{"key":"10103312","name":"Im Winkel","postalCode":"6244","locality":"Nebikon","commune":{"key":"1137","name":"Nebikon","shortName":"Nebikon"},"district":{"key":"315","name":"Wahlkreis Willisau"},"canton":{"key":"3","code":"LU","name":"Luzern"},"status":"Real"},{"key":"10062903","name":"In der Breiten","postalCode":"6244","locality":"Nebikon","commune":{"key":"1137","name":"Nebikon","shortName":"Nebikon"},"district":{"key":"315","name":"Wahlkreis Willisau"},"canton":{"key":"3","code":"LU","name":"Luzern"},"status":"Real"},{"key":"10185842","name":"Industriestrasse","postalCode":"6030","locality":"Ebikon","commune":{"key":"1054","name":"Ebikon","shortName":"Ebikon"},"district":{"key":"312","name":"Wahlkreis Luzern-Land"},"canton":{"key":"3","code":"LU","name":"Luzern"},"status":"Real"},{"key":"10103695","name":"Kantonsstrasse","postalCode":"6244","locality":"Nebikon","commune":{"key":"1137","name":"Nebikon","shortName":"Nebikon"},"district":{"key":"315","name":"Wahlkreis Willisau"},"canton":{"key":"3","code":"LU","name":"Luzern"},"status":"Real"},{"key":"10206242","name":"Kantonsstrasse","postalCode":"6244","locality":"Nebikon","commune":{"key":"1137","name":"Nebikon","shortName":"Nebikon"},"district":{"key":"315","name":"Wahlkreis Willisau"},"canton":{"key":"3","code":"LU","name":"Luzern"},"status":"Real"},{"key":"10082596","name":"Kapellenstrasse","postalCode":"6244","locality":"Nebikon","commune":{"key":"1137","name":"Nebikon","shortName":"Nebikon"},"district":{"key":"315","name":"Wahlkreis Willisau"},"canton":{"key":"3","code":"LU","name":"Luzern"},"status":"Real"},{"key":"10085684","name":"Kapellenweg","postalCode":"6030","locality":"Ebikon","commune":{"key":"1054","name":"Ebikon","shortName":"Ebikon"},"district":{"key":"312","name":"Wahlkreis Luzern-Land"},"canton":{"key":"3","code":"LU","name":"Luzern"},"status":"Real"},{"key":"10010278","name":"Kaspar-Kopp-Strasse","postalCode":"6030","locality":"Ebikon","commune":{"key":"1054","name":"Ebikon","shortName":"Ebikon"},"district":{"key":"312","name":"Wahlkreis Luzern-Land"},"canton":{"key":"3","code":"LU","name":"Luzern"},"status":"Real"},{"key":"10020402","name":"Kaufhausweg","postalCode":"6244","locality":"Nebikon","commune":{"key":"1137","name":"Nebikon","shortName":"Nebikon"},"district":{"key":"315","name":"Wahlkreis Willisau"},"canton":{"key":"3","code":"LU","name":"Luzern"},"status":"Real"},{"key":"10207182","name":"Keramikstrasse","postalCode":"6030","locality":"Ebikon","commune":{"key":"1054","name":"Ebikon","shortName":"Ebikon"},"district":{"key":"312","name":"Wahlkreis Luzern-Land"},"canton":{"key":"3","code":"LU","name":"Luzern"},"status":"Real"},{"key":"10010279","name":"Keramikweg","postalCode":"6030","locality":"Ebikon","commune":{"key":"1054","name":"Ebikon","shortName":"Ebikon"},"district":{"key":"312","name":"Wahlkreis Luzern-Land"},"canton":{"key":"3","code":"LU","name":"Luzern"},"status":"Real"},{"key":"10062904","name":"Kirchplatz","postalCode":"6244","locality":"Nebikon","commune":{"key":"1137","name":"Nebikon","shortName":"Nebikon"},"district":{"key":"315","name":"Wahlkreis Willisau"},"canton":{"key":"3","code":"LU","name":"Luzern"},"status":"Real"},{"key":"10114106","name":"Kirchstrasse","postalCode":"6244","locality":"Nebikon","commune":{"key":"1137","name":"Nebikon","shortName":"Nebikon"},"district":{"key":"315","name":"Wahlkreis Willisau"},"canton":{"key":"3","code":"LU","name":"Luzern"},"status":"Real"},{"key":"10207183","name":"Klaraweg","postalCode":"6030","locality":"Ebikon","commune":{"key":"1054","name":"Ebikon","shortName":"Ebikon"},"district":{"key":"312","name":"Wahlkreis Luzern-Land"},"canton":{"key":"3","code":"LU","name":"Luzern"},"status":"Real"},{"key":"10137161","name":"Kollermatte","postalCode":"6244","locality":"Nebikon","commune":{"key":"1137","name":"Nebikon","shortName":"Nebikon"},"district":{"key":"315","name":"Wahlkreis Willisau"},"canton":{"key":"3","code":"LU","name":"Luzern"},"status":"Real"},{"key":"10123205","name":"Lamperdingerweg","postalCode":"6030","locality":"Ebikon","commune":{"key":"1054","name":"Ebikon","shortName":"Ebikon"},"district":{"key":"312","name":"Wahlkreis Luzern-Land"},"canton":{"key":"3","code":"LU","name":"Luzern"},"status":"Real"},{"key":"10085685","name":"Lindenbergstrasse","postalCode":"6030","locality":"Ebikon","commune":{"key":"1054","name":"Ebikon","shortName":"Ebikon"},"district":{"key":"312","name":"Wahlkreis Luzern-Land"},"canton":{"key":"3","code":"LU","name":"Luzern"},"status":"Real"},{"key":"10189727","name":"Lindenhof","postalCode":"6030","locality":"Ebikon","commune":{"key":"1054","name":"Ebikon","shortName":"Ebikon"},"district":{"key":"312","name":"Wahlkreis Luzern-Land"},"canton":{"key":"3","code":"LU","name":"Luzern"},"status":"Real"},{"key":"10179039","name":"Lischenstrasse","postalCode":"6030","locality":"Ebikon","commune":{"key":"1054","name":"Ebikon","shortName":"Ebikon"},"district":{"key":"312","name":"Wahlkreis Luzern-Land"},"canton":{"key":"3","code":"LU","name":"Luzern"},"status":"Real"},{"key":"10082597","name":"Luthernmatte","postalCode":"6244","locality":"Nebikon","commune":{"key":"1137","name":"Nebikon","shortName":"Nebikon"},"district":{"key":"315","name":"Wahlkreis Willisau"},"canton":{"key":"3","code":"LU","name":"Luzern"},"status":"Real"},{"key":"10010280","name":"Luzernerstrasse","postalCode":"6030","locality":"Ebikon","commune":{"key":"1054","name":"Ebikon","shortName":"Ebikon"},"district":{"key":"312","name":"Wahlkreis Luzern-Land"},"canton":{"key":"3","code":"LU","name":"Luzern"},"status":"Real"},{"key":"10085686","name":"Maihofstrasse","postalCode":"6030","locality":"Ebikon","commune":{"key":"1054","name":"Ebikon","shortName":"Ebikon"},"district":{"key":"312","name":"Wahlkreis Luzern-Land"},"canton":{"key":"3","code":"LU","name":"Luzern"},"status":"Real"},{"key":"10130524","name":"Mittlerfildern","postalCode":"6030","locality":"Ebikon","commune":{"key":"1054","name":"Ebikon","shortName":"Ebikon"},"district":{"key":"312","name":"Wahlkreis Luzern-Land"},"canton":{"key":"3","code":"LU","name":"Luzern"},"status":"Real"},{"key":"10166239","name":"Mittlerriedholz","postalCode":"6030","locality":"Ebikon","commune":{"key":"1054","name":"Ebikon","shortName":"Ebikon"},"district":{"key":"312","name":"Wahlkreis Luzern-Land"},"canton":{"key":"3","code":"LU","name":"Luzern"},"status":"Real"},{"key":"10020403","name":"Möösli","postalCode":"6244","locality":"Nebikon","commune":{"key":"1137","name":"Nebikon","shortName":"Nebikon"},"district":{"key":"315","name":"Wahlkreis Willisau"},"canton":{"key":"3","code":"LU","name":"Luzern"},"status":"Real"},{"key":"10162098","name":"Mühlebachweg","postalCode":"6030","locality":"Ebikon","commune":{"key":"1054","name":"Ebikon","shortName":"Ebikon"},"district":{"key":"312","name":"Wahlkreis Luzern-Land"},"canton":{"key":"3","code":"LU","name":"Luzern"},"status":"Real"},{"key":"10010281","name":"Mühlegg","postalCode":"6030","locality":"Ebikon","commune":{"key":"1054","name":"Ebikon","shortName":"Ebikon"},"district":{"key":"312","name":"Wahlkreis Luzern-Land"},"canton":{"key":"3","code":"LU","name":"Luzern"},"status":"Real"},{"key":"10010282","name":"Mühlehofstrasse","postalCode":"6030","locality":"Ebikon","commune":{"key":"1054","name":"Ebikon","shortName":"Ebikon"},"district":{"key":"312","name":"Wahlkreis Luzern-Land"},"canton":{"key":"3","code":"LU","name":"Luzern"},"status":"Real"},{"key":"10105658","name":"Mühleweg","postalCode":"6030","locality":"Ebikon","commune":{"key":"1054","name":"Ebikon","shortName":"Ebikon"},"district":{"key":"312","name":"Wahlkreis Luzern-Land"},"canton":{"key":"3","code":"LU","name":"Luzern"},"status":"Real"},{"key":"10010283","name":"Neubüel","postalCode":"6030","locality":"Ebikon","commune":{"key":"1054","name":"Ebikon","shortName":"Ebikon"},"district":{"key":"312","name":"Wahlkreis Luzern-Land"},"canton":{"key":"3","code":"LU","name":"Luzern"},"status":"Real"},{"key":"10120200","name":"Neufildere","postalCode":"6030","locality":"Ebikon","commune":{"key":"1054","name":"Ebikon","shortName":"Ebikon"},"district":{"key":"312","name":"Wahlkreis Luzern-Land"},"canton":{"key":"3","code":"LU","name":"Luzern"},"status":"Real"},{"key":"10114665","name":"Neuhaltenring","postalCode":"6030","locality":"Ebikon","commune":{"key":"1054","name":"Ebikon","shortName":"Ebikon"},"district":{"key":"312","name":"Wahlkreis Luzern-Land"},"canton":{"key":"3","code":"LU","name":"Luzern"},"status":"Real"},{"key":"10010284","name":"Neuhaltenstrasse","postalCode":"6030","locality":"Ebikon","commune":{"key":"1054","name":"Ebikon","shortName":"Ebikon"},"district":{"key":"312","name":"Wahlkreis Luzern-Land"},"canton":{"key":"3","code":"LU","name":"Luzern"},"status":"Real"},{"key":"10065477","name":"Ober Äbrüti","postalCode":"6030","locality":"Ebikon","commune":{"key":"1054","name":"Ebikon","shortName":"Ebikon"},"district":{"key":"312","name":"Wahlkreis Luzern-Land"},"canton":{"key":"3","code":"LU","name":"Luzern"},"status":"Real"},{"key":"10085961","name":"Oberdierikonerstrasse","postalCode":"6030","locality":"Ebikon","commune":{"key":"1054","name":"Ebikon","shortName":"Ebikon"},"district":{"key":"312","name":"Wahlkreis Luzern-Land"},"canton":{"key":"3","code":"LU","name":"Luzern"},"status":"Real"},{"key":"10062905","name":"Oberdorf","postalCode":"6244","locality":"Nebikon","commune":{"key":"1137","name":"Nebikon","shortName":"Nebikon"},"district":{"key":"315","name":"Wahlkreis Willisau"},"canton":{"key":"3","code":"LU","name":"Luzern"},"status":"Real"},{"key":"10010285","name":"Oberschachenstrasse","postalCode":"6030","locality":"Ebikon","commune":{"key":"1054","name":"Ebikon","shortName":"Ebikon"},"district":{"key":"312","name":"Wahlkreis Luzern-Land"},"canton":{"key":"3","code":"LU","name":"Luzern"},"status":"Real"},{"key":"10010286","name":"Oberschachenweg","postalCode":"6030","locality":"Ebikon","commune":{"key":"1054","name":"Ebikon","shortName":"Ebikon"},"district":{"key":"312","name":"Wahlkreis Luzern-Land"},"canton":{"key":"3","code":"LU","name":"Luzern"},"status":"Real"},{"key":"10139127","name":"Obfalken","postalCode":"6030","locality":"Ebikon","commune":{"key":"1054","name":"Ebikon","shortName":"Ebikon"},"district":{"key":"312","name":"Wahlkreis Luzern-Land"},"canton":{"key":"3","code":"LU","name":"Luzern"},"status":"Real"},{"key":"10179040","name":"Ottigenbühl","postalCode":"6030","locality":"Ebikon","commune":{"key":"1054","name":"Ebikon","shortName":"Ebikon"},"district":{"key":"312","name":"Wahlkreis Luzern-Land"},"canton":{"key":"3","code":"LU","name":"Luzern"},"status":"Real"},{"key":"10065478","name":"Ottigenbühlrain","postalCode":"6030","locality":"Ebikon","commune":{"key":"1054","name":"Ebikon","shortName":"Ebikon"},"district":{"key":"312","name":"Wahlkreis Luzern-Land"},"canton":{"key":"3","code":"LU","name":"Luzern"},"status":"Real"},{"key":"10111773","name":"Ottigenbühlring","postalCode":"6030","locality":"Ebikon","commune":{"key":"1054","name":"Ebikon","shortName":"Ebikon"},"district":{"key":"312","name":"Wahlkreis Luzern-Land"},"canton":{"key":"3","code":"LU","name":"Luzern"},"status":"Real"},{"key":"10085962","name":"Ottigenbühlstrasse","postalCode":"6030","locality":"Ebikon","commune":{"key":"1054","name":"Ebikon","shortName":"Ebikon"},"district":{"key":"312","name":"Wahlkreis Luzern-Land"},"canton":{"key":"3","code":"LU","name":"Luzern"},"status":"Real"},{"key":"10010287","name":"Panoramastrasse","postalCode":"6030","locality":"Ebikon","commune":{"key":"1054","name":"Ebikon","shortName":"Ebikon"},"district":{"key":"312","name":"Wahlkreis Luzern-Land"},"canton":{"key":"3","code":"LU","name":"Luzern"},"status":"Real"},{"key":"10065479","name":"Pilatusweg","postalCode":"6030","locality":"Ebikon","commune":{"key":"1054","name":"Ebikon","shortName":"Ebikon"},"district":{"key":"312","name":"Wahlkreis Luzern-Land"},"canton":{"key":"3","code":"LU","name":"Luzern"},"status":"Real"},{"key":"10010288","name":"Pilgerweg","postalCode":"6030","locality":"Ebikon","commune":{"key":"1054","name":"Ebikon","shortName":"Ebikon"},"district":{"key":"312","name":"Wahlkreis Luzern-Land"},"canton":{"key":"3","code":"LU","name":"Luzern"},"status":"Real"},{"key":"10010289","name":"Rankstrasse","postalCode":"6030","locality":"Ebikon","commune":{"key":"1054","name":"Ebikon","shortName":"Ebikon"},"district":{"key":"312","name":"Wahlkreis Luzern-Land"},"canton":{"key":"3","code":"LU","name":"Luzern"},"status":"Real"},{"key":"10085963","name":"Rasiweg","postalCode":"6030","locality":"Ebikon","commune":{"key":"1054","name":"Ebikon","shortName":"Ebikon"},"district":{"key":"312","name":"Wahlkreis Luzern-Land"},"canton":{"key":"3","code":"LU","name":"Luzern"},"status":"Real"},{"key":"10020404","name":"Rehhalden","postalCode":"6244","locality":"Nebikon","commune":{"key":"1137","name":"Nebikon","shortName":"Nebikon"},"district":{"key":"315","name":"Wahlkreis Willisau"},"canton":{"key":"3","code":"LU","name":"Luzern"},"status":"Real"},{"key":"10058696","name":"Riedholz","postalCode":"6030","locality":"Ebikon","commune":{"key":"1054","name":"Ebikon","shortName":"Ebikon"},"district":{"key":"312","name":"Wahlkreis Luzern-Land"},"canton":{"key":"3","code":"LU","name":"Luzern"},"status":"Real"},{"key":"10189728","name":"Riedholzrain","postalCode":"6030","locality":"Ebikon","commune":{"key":"1054","name":"Ebikon","shortName":"Ebikon"},"district":{"key":"312","name":"Wahlkreis Luzern-Land"},"canton":{"key":"3","code":"LU","name":"Luzern"},"status":"Real"},{"key":"10128710","name":"Riedholzstrasse","postalCode":"6030","locality":"Ebikon","commune":{"key":"1054","name":"Ebikon","shortName":"Ebikon"},"district":{"key":"312","name":"Wahlkreis Luzern-Land"},"canton":{"key":"3","code":"LU","name":"Luzern"},"status":"Real"},{"key":"10010290","name":"Riedholzweid","postalCode":"6030","locality":"Ebikon","commune":{"key":"1054","name":"Ebikon","shortName":"Ebikon"},"district":{"key":"312","name":"Wahlkreis Luzern-Land"},"canton":{"key":"3","code":"LU","name":"Luzern"},"status":"Real"},{"key":"10123263","name":"Riedmattstrasse","postalCode":"6030","locality":"Ebikon","commune":{"key":"1054","name":"Ebikon","shortName":"Ebikon"},"district":{"key":"312","name":"Wahlkreis Luzern-Land"},"canton":{"key":"3","code":"LU","name":"Luzern"},"status":"Real"},{"key":"10065480","name":"Rigiweg","postalCode":"6030","locality":"Ebikon","commune":{"key":"1054","name":"Ebikon","shortName":"Ebikon"},"district":{"key":"312","name":"Wahlkreis Luzern-Land"},"canton":{"key":"3","code":"LU","name":"Luzern"},"status":"Real"},{"key":"10128711","name":"Rischring","postalCode":"6030","locality":"Ebikon","commune":{"key":"1054","name":"Ebikon","shortName":"Ebikon"},"district":{"key":"312","name":"Wahlkreis Luzern-Land"},"canton":{"key":"3","code":"LU","name":"Luzern"},"status":"Real"},{"key":"10155113","name":"Rischstrasse","postalCode":"6030","locality":"Ebikon","commune":{"key":"1054","name":"Ebikon","shortName":"Ebikon"},"district":{"key":"312","name":"Wahlkreis Luzern-Land"},"canton":{"key":"3","code":"LU","name":"Luzern"},"status":"Real"},{"key":"10010291","name":"Ronmatte","postalCode":"6030","locality":"Ebikon","commune":{"key":"1054","name":"Ebikon","shortName":"Ebikon"},"district":{"key":"312","name":"Wahlkreis Luzern-Land"},"canton":{"key":"3","code":"LU","name":"Luzern"},"status":"Real"},{"key":"10120554","name":"Ronstrasse","postalCode":"6030","locality":"Ebikon","commune":{"key":"1054","name":"Ebikon","shortName":"Ebikon"},"district":{"key":"312","name":"Wahlkreis Luzern-Land"},"canton":{"key":"3","code":"LU","name":"Luzern"},"status":"Real"},{"key":"10179032","name":"Ronstrasse","postalCode":"6030","locality":"Ebikon","commune":{"key":"1054","name":"Ebikon","shortName":"Ebikon"},"district":{"key":"312","name":"Wahlkreis Luzern-Land"},"canton":{"key":"3","code":"LU","name":"Luzern"},"status":"Real"},{"key":"10209673","name":"Rotseestrasse","postalCode":"6030","locality":"Ebikon","commune":{"key":"1054","name":"Ebikon","shortName":"Ebikon"},"district":{"key":"312","name":"Wahlkreis Luzern-Land"},"canton":{"key":"3","code":"LU","name":"Luzern"},"status":"Real"},{"key":"10010292","name":"Rotseeweg","postalCode":"6030","locality":"Ebikon","commune":{"key":"1054","name":"Ebikon","shortName":"Ebikon"},"district":{"key":"312","name":"Wahlkreis Luzern-Land"},"canton":{"key":"3","code":"LU","name":"Luzern"},"status":"Real"},{"key":"10166443","name":"Rüslen","postalCode":"6244","locality":"Nebikon","commune":{"key":"1137","name":"Nebikon","shortName":"Nebikon"},"district":{"key":"315","name":"Wahlkreis Willisau"},"canton":{"key":"3","code":"LU","name":"Luzern"},"status":"Real"},{"key":"10020405","name":"Rüslenweg","postalCode":"6244","locality":"Nebikon","commune":{"key":"1137","name":"Nebikon","shortName":"Nebikon"},"district":{"key":"315","name":"Wahlkreis Willisau"},"canton":{"key":"3","code":"LU","name":"Luzern"},"status":"Real"},{"key":"10065481","name":"Rütimattrain","postalCode":"6030","locality":"Ebikon","commune":{"key":"1054","name":"Ebikon","shortName":"Ebikon"},"district":{"key":"312","name":"Wahlkreis Luzern-Land"},"canton":{"key":"3","code":"LU","name":"Luzern"},"status":"Real"},{"key":"10085964","name":"Rütimattstrasse","postalCode":"6030","locality":"Ebikon","commune":{"key":"1054","name":"Ebikon","shortName":"Ebikon"},"district":{"key":"312","name":"Wahlkreis Luzern-Land"},"canton":{"key":"3","code":"LU","name":"Luzern"},"status":"Real"},{"key":"10010293","name":"Sagenblickhöhe","postalCode":"6030","locality":"Ebikon","commune":{"key":"1054","name":"Ebikon","shortName":"Ebikon"},"district":{"key":"312","name":"Wahlkreis Luzern-Land"},"canton":{"key":"3","code":"LU","name":"Luzern"},"status":"Real"},{"key":"10010294","name":"Sagenblickstrasse","postalCode":"6030","locality":"Ebikon","commune":{"key":"1054","name":"Ebikon","shortName":"Ebikon"},"district":{"key":"312","name":"Wahlkreis Luzern-Land"},"canton":{"key":"3","code":"LU","name":"Luzern"},"status":"Real"},{"key":"10065482","name":"Sagenblickweg","postalCode":"6030","locality":"Ebikon","commune":{"key":"1054","name":"Ebikon","shortName":"Ebikon"},"district":{"key":"312","name":"Wahlkreis Luzern-Land"},"canton":{"key":"3","code":"LU","name":"Luzern"},"status":"Real"},{"key":"10083957","name":"Sagenhofrain","postalCode":"6030","locality":"Ebikon","commune":{"key":"1054","name":"Ebikon","shortName":"Ebikon"},"district":{"key":"312","name":"Wahlkreis Luzern-Land"},"canton":{"key":"3","code":"LU","name":"Luzern"},"status":"Real"},{"key":"10010295","name":"Sagenhofstrasse","postalCode":"6030","locality":"Ebikon","commune":{"key":"1054","name":"Ebikon","shortName":"Ebikon"},"district":{"key":"312","name":"Wahlkreis Luzern-Land"},"canton":{"key":"3","code":"LU","name":"Luzern"},"status":"Real"},{"key":"10010296","name":"Sagenhofweg","postalCode":"6030","locality":"Ebikon","commune":{"key":"1054","name":"Ebikon","shortName":"Ebikon"},"district":{"key":"312","name":"Wahlkreis Luzern-Land"},"canton":{"key":"3","code":"LU","name":"Luzern"},"status":"Real"},{"key":"10105660","name":"Sagenhofweid","postalCode":"6030","locality":"Ebikon","commune":{"key":"1054","name":"Ebikon","shortName":"Ebikon"},"district":{"key":"312","name":"Wahlkreis Luzern-Land"},"canton":{"key":"3","code":"LU","name":"Luzern"},"status":"Real"},{"key":"10083958","name":"Sagenstrasse","postalCode":"6030","locality":"Ebikon","commune":{"key":"1054","name":"Ebikon","shortName":"Ebikon"},"district":{"key":"312","name":"Wahlkreis Luzern-Land"},"canton":{"key":"3","code":"LU","name":"Luzern"},"status":"Real"},{"key":"10251441","name":"Sagiweg","postalCode":"6030","locality":"Ebikon","commune":{"key":"1054","name":"Ebikon","shortName":"Ebikon"},"district":{"key":"312","name":"Wahlkreis Luzern-Land"},"canton":{"key":"3","code":"LU","name":"Luzern"},"status":"Real"},{"key":"10111774","name":"Schachenstrasse","postalCode":"6030","locality":"Ebikon","commune":{"key":"1054","name":"Ebikon","shortName":"Ebikon"},"district":{"key":"312","name":"Wahlkreis Luzern-Land"},"canton":{"key":"3","code":"LU","name":"Luzern"},"status":"Real"},{"key":"10102762","name":"Schachenweg","postalCode":"6030","locality":"Ebikon","commune":{"key":"1054","name":"Ebikon","shortName":"Ebikon"},"district":{"key":"312","name":"Wahlkreis Luzern-Land"},"canton":{"key":"3","code":"LU","name":"Luzern"},"status":"Real"},{"key":"10188640","name":"Schachenweidrain","postalCode":"6030","locality":"Ebikon","commune":{"key":"1054","name":"Ebikon","shortName":"Ebikon"},"district":{"key":"312","name":"Wahlkreis Luzern-Land"},"canton":{"key":"3","code":"LU","name":"Luzern"},"status":"Real"},{"key":"10179042","name":"Schachenweidstrasse","postalCode":"6030","locality":"Ebikon","commune":{"key":"1054","name":"Ebikon","shortName":"Ebikon"},"district":{"key":"312","name":"Wahlkreis Luzern-Land"},"canton":{"key":"3","code":"LU","name":"Luzern"},"status":"Real"},{"key":"10029335","name":"Schlössli","postalCode":"6030","locality":"Ebikon","commune":{"key":"1054","name":"Ebikon","shortName":"Ebikon"},"district":{"key":"312","name":"Wahlkreis Luzern-Land"},"canton":{"key":"3","code":"LU","name":"Luzern"},"status":"Real"},{"key":"10010297","name":"Schlösslistrasse","postalCode":"6030","locality":"Ebikon","commune":{"key":"1054","name":"Ebikon","shortName":"Ebikon"},"district":{"key":"312","name":"Wahlkreis Luzern-Land"},"canton":{"key":"3","code":"LU","name":"Luzern"},"status":"Real"},{"key":"10010298","name":"Schmiedhof","postalCode":"6030","locality":"Ebikon","commune":{"key":"1054","name":"Ebikon","shortName":"Ebikon"},"district":{"key":"312","name":"Wahlkreis Luzern-Land"},"canton":{"key":"3","code":"LU","name":"Luzern"},"status":"Real"},{"key":"10205874","name":"Schmiedhofstrasse","postalCode":"6030","locality":"Ebikon","commune":{"key":"1054","name":"Ebikon","shortName":"Ebikon"},"district":{"key":"312","name":"Wahlkreis Luzern-Land"},"canton":{"key":"3","code":"LU","name":"Luzern"},"status":"Real"},{"key":"10065483","name":"Schulhausstrasse","postalCode":"6030","locality":"Ebikon","commune":{"key":"1054","name":"Ebikon","shortName":"Ebikon"},"district":{"key":"312","name":"Wahlkreis Luzern-Land"},"canton":{"key":"3","code":"LU","name":"Luzern"},"status":"Real"},{"key":"10065484","name":"Schulweg","postalCode":"6030","locality":"Ebikon","commune":{"key":"1054","name":"Ebikon","shortName":"Ebikon"},"district":{"key":"312","name":"Wahlkreis Luzern-Land"},"canton":{"key":"3","code":"LU","name":"Luzern"},"status":"Real"},{"key":"10020406","name":"Schürgasse","postalCode":"6244","locality":"Nebikon","commune":{"key":"1137","name":"Nebikon","shortName":"Nebikon"},"district":{"key":"315","name":"Wahlkreis Willisau"},"canton":{"key":"3","code":"LU","name":"Luzern"},"status":"Real"},{"key":"10062906","name":"Schürmatte","postalCode":"6244","locality":"Nebikon","commune":{"key":"1137","name":"Nebikon","shortName":"Nebikon"},"district":{"key":"315","name":"Wahlkreis Willisau"},"canton":{"key":"3","code":"LU","name":"Luzern"},"status":"Real"},{"key":"10065485","name":"Sonnenterrasse","postalCode":"6030","locality":"Ebikon","commune":{"key":"1054","name":"Ebikon","shortName":"Ebikon"},"district":{"key":"312","name":"Wahlkreis Luzern-Land"},"canton":{"key":"3","code":"LU","name":"Luzern"},"status":"Real"},{"key":"10010300","name":"Sonnhalderain","postalCode":"6030","locality":"Ebikon","commune":{"key":"1054","name":"Ebikon","shortName":"Ebikon"},"district":{"key":"312","name":"Wahlkreis Luzern-Land"},"canton":{"key":"3","code":"LU","name":"Luzern"},"status":"Real"},{"key":"10065486","name":"Sonnhaldestrasse","postalCode":"6030","locality":"Ebikon","commune":{"key":"1054","name":"Ebikon","shortName":"Ebikon"},"district":{"key":"312","name":"Wahlkreis Luzern-Land"},"canton":{"key":"3","code":"LU","name":"Luzern"},"status":"Real"},{"key":"10010299","name":"Sonnhaldeweg","postalCode":"6030","locality":"Ebikon","commune":{"key":"1054","name":"Ebikon","shortName":"Ebikon"},"district":{"key":"312","name":"Wahlkreis Luzern-Land"},"canton":{"key":"3","code":"LU","name":"Luzern"},"status":"Real"},{"key":"10082598","name":"Stägenrain","postalCode":"6244","locality":"Nebikon","commune":{"key":"1137","name":"Nebikon","shortName":"Nebikon"},"district":{"key":"315","name":"Wahlkreis Willisau"},"canton":{"key":"3","code":"LU","name":"Luzern"},"status":"Real"},{"key":"10052565","name":"Stämpfel","postalCode":"6244","locality":"Nebikon","commune":{"key":"1137","name":"Nebikon","shortName":"Nebikon"},"district":{"key":"315","name":"Wahlkreis Willisau"},"canton":{"key":"3","code":"LU","name":"Luzern"},"status":"Real"},{"key":"10062907","name":"Stämpfelbergstrasse","postalCode":"6244","locality":"Nebikon","commune":{"key":"1137","name":"Nebikon","shortName":"Nebikon"},"district":{"key":"315","name":"Wahlkreis Willisau"},"canton":{"key":"3","code":"LU","name":"Luzern"},"status":"Real"},{"key":"10186693","name":"Stämpfelfeld","postalCode":"6244","locality":"Nebikon","commune":{"key":"1137","name":"Nebikon","shortName":"Nebikon"},"district":{"key":"315","name":"Wahlkreis Willisau"},"canton":{"key":"3","code":"LU","name":"Luzern"},"status":"Real"},{"key":"10055893","name":"St. Annastrasse","postalCode":"6030","locality":"Ebikon","commune":{"key":"1054","name":"Ebikon","shortName":"Ebikon"},"district":{"key":"312","name":"Wahlkreis Luzern-Land"},"canton":{"key":"3","code":"LU","name":"Luzern"},"status":"Real"},{"key":"10014694","name":"Stuben","postalCode":"6030","locality":"Ebikon","commune":{"key":"1054","name":"Ebikon","shortName":"Ebikon"},"district":{"key":"312","name":"Wahlkreis Luzern-Land"},"canton":{"key":"3","code":"LU","name":"Luzern"},"status":"Real"},{"key":"10055815","name":"Stuben","postalCode":"6030","locality":"Ebikon","commune":{"key":"1054","name":"Ebikon","shortName":"Ebikon"},"district":{"key":"312","name":"Wahlkreis Luzern-Land"},"canton":{"key":"3","code":"LU","name":"Luzern"},"status":"Real"},{"key":"10083959","name":"Stubenhof","postalCode":"6030","locality":"Ebikon","commune":{"key":"1054","name":"Ebikon","shortName":"Ebikon"},"district":{"key":"312","name":"Wahlkreis Luzern-Land"},"canton":{"key":"3","code":"LU","name":"Luzern"},"status":"Real"},{"key":"10085658","name":"Stubenweid","postalCode":"6030","locality":"Ebikon","commune":{"key":"1054","name":"Ebikon","shortName":"Ebikon"},"district":{"key":"312","name":"Wahlkreis Luzern-Land"},"canton":{"key":"3","code":"LU","name":"Luzern"},"status":"Real"},{"key":"10168064","name":"Trumpf-Buur","postalCode":"6030","locality":"Ebikon","commune":{"key":"1054","name":"Ebikon","shortName":"Ebikon"},"district":{"key":"312","name":"Wahlkreis Luzern-Land"},"canton":{"key":"3","code":"LU","name":"Luzern"},"status":"Real"},{"key":"10020407","name":"Türliacher","postalCode":"6244","locality":"Nebikon","commune":{"key":"1137","name":"Nebikon","shortName":"Nebikon"},"district":{"key":"315","name":"Wahlkreis Willisau"},"canton":{"key":"3","code":"LU","name":"Luzern"},"status":"Real"},{"key":"10010301","name":"Unter Äbrüti","postalCode":"6030","locality":"Ebikon","commune":{"key":"1054","name":"Ebikon","shortName":"Ebikon"},"district":{"key":"312","name":"Wahlkreis Luzern-Land"},"canton":{"key":"3","code":"LU","name":"Luzern"},"status":"Real"},{"key":"10010302","name":"Vogelsang","postalCode":"6030","locality":"Ebikon","commune":{"key":"1054","name":"Ebikon","shortName":"Ebikon"},"district":{"key":"312","name":"Wahlkreis Luzern-Land"},"canton":{"key":"3","code":"LU","name":"Luzern"},"status":"Real"},{"key":"10114107","name":"Vorstatt","postalCode":"6244","locality":"Nebikon","commune":{"key":"1137","name":"Nebikon","shortName":"Nebikon"},"district":{"key":"315","name":"Wahlkreis Willisau"},"canton":{"key":"3","code":"LU","name":"Luzern"},"status":"Real"},{"key":"10132206","name":"Waldihofstrasse","postalCode":"6030","locality":"Ebikon","commune":{"key":"1054","name":"Ebikon","shortName":"Ebikon"},"district":{"key":"312","name":"Wahlkreis Luzern-Land"},"canton":{"key":"3","code":"LU","name":"Luzern"},"status":"Real"},{"key":"10168945","name":"Walter Linsenmaierweg","postalCode":"6030","locality":"Ebikon","commune":{"key":"1054","name":"Ebikon","shortName":"Ebikon"},"district":{"key":"312","name":"Wahlkreis Luzern-Land"},"canton":{"key":"3","code":"LU","name":"Luzern"},"status":"Real"},{"key":"10170224","name":"Weichlenstrasse","postalCode":"6030","locality":"Ebikon","commune":{"key":"1054","name":"Ebikon","shortName":"Ebikon"},"district":{"key":"312","name":"Wahlkreis Luzern-Land"},"canton":{"key":"3","code":"LU","name":"Luzern"},"status":"Real"},{"key":"10117960","name":"Weid","postalCode":"6244","locality":"Nebikon","commune":{"key":"1137","name":"Nebikon","shortName":"Nebikon"},"district":{"key":"315","name":"Wahlkreis Willisau"},"canton":{"key":"3","code":"LU","name":"Luzern"},"status":"Real"},{"key":"10129754","name":"Wellbergstrasse","postalCode":"6244","locality":"Nebikon","commune":{"key":"1137","name":"Nebikon","shortName":"Nebikon"},"district":{"key":"315","name":"Wahlkreis Willisau"},"canton":{"key":"3","code":"LU","name":"Luzern"},"status":"Real"},{"key":"10117073","name":"Wydenhofstrasse","postalCode":"6030","locality":"Ebikon","commune":{"key":"1054","name":"Ebikon","shortName":"Ebikon"},"district":{"key":"312","name":"Wahlkreis Luzern-Land"},"canton":{"key":"3","code":"LU","name":"Luzern"},"status":"Real"},{"key":"10062908","name":"Wydenmatt","postalCode":"6244","locality":"Nebikon","commune":{"key":"1137","name":"Nebikon","shortName":"Nebikon"},"district":{"key":"315","name":"Wahlkreis Willisau"},"canton":{"key":"3","code":"LU","name":"Luzern"},"status":"Real"},{"key":"10055894","name":"Wydenstrasse","postalCode":"6030","locality":"Ebikon","commune":{"key":"1054","name":"Ebikon","shortName":"Ebikon"},"district":{"key":"312","name":"Wahlkreis Luzern-Land"},"canton":{"key":"3","code":"LU","name":"Luzern"},"status":"Real"},{"key":"10179043","name":"Zentralstrasse","postalCode":"6030","locality":"Ebikon","commune":{"key":"1054","name":"Ebikon","shortName":"Ebikon"},"district":{"key":"312","name":"Wahlkreis Luzern-Land"},"canton":{"key":"3","code":"LU","name":"Luzern"},"status":"Real"},{"key":"10083960","name":"Zugerstrasse","postalCode":"6030","locality":"Ebikon","commune":{"key":"1054","name":"Ebikon","shortName":"Ebikon"},"district":{"key":"312","name":"Wahlkreis Luzern-Land"},"canton":{"key":"3","code":"LU","name":"Luzern"},"status":"Real"},]