[{"name":"Alte Schmiede","postalCode":"26835","locality":"Brinkum","municipality":{"key":"03457003","name":"Brinkum","type":"Kreisangehörige_Gemeinde"},"district":{"key":"03457","name":"Leer","type":"Landkreis"},"federalState":{"key":"03","name":"Niedersachsen"}},{"name":"Am Alten Moor","postalCode":"26835","locality":"Brinkum","municipality":{"key":"03457003","name":"Brinkum","type":"Kreisangehörige_Gemeinde"},"district":{"key":"03457","name":"Leer","type":"Landkreis"},"federalState":{"key":"03","name":"Niedersachsen"}},{"name":"Am Alten Sportplatz","postalCode":"26835","locality":"Brinkum","municipality":{"key":"03457003","name":"Brinkum","type":"Kreisangehörige_Gemeinde"},"district":{"key":"03457","name":"Leer","type":"Landkreis"},"federalState":{"key":"03","name":"Niedersachsen"}},{"name":"Am Brink","postalCode":"26835","locality":"Brinkum","municipality":{"key":"03457003","name":"Brinkum","type":"Kreisangehörige_Gemeinde"},"district":{"key":"03457","name":"Leer","type":"Landkreis"},"federalState":{"key":"03","name":"Niedersachsen"}},{"name":"Bargenweg","postalCode":"26835","locality":"Brinkum","municipality":{"key":"03457003","name":"Brinkum","type":"Kreisangehörige_Gemeinde"},"district":{"key":"03457","name":"Leer","type":"Landkreis"},"federalState":{"key":"03","name":"Niedersachsen"}},{"name":"Burgring","postalCode":"26835","locality":"Brinkum","municipality":{"key":"03457003","name":"Brinkum","type":"Kreisangehörige_Gemeinde"},"district":{"key":"03457","name":"Leer","type":"Landkreis"},"federalState":{"key":"03","name":"Niedersachsen"}},{"name":"Coloniestr.","postalCode":"26835","locality":"Brinkum","municipality":{"key":"03457003","name":"Brinkum","type":"Kreisangehörige_Gemeinde"},"district":{"key":"03457","name":"Leer","type":"Landkreis"},"federalState":{"key":"03","name":"Niedersachsen"}},{"name":"Coordes Kamp","postalCode":"26835","locality":"Brinkum","municipality":{"key":"03457003","name":"Brinkum","type":"Kreisangehörige_Gemeinde"},"district":{"key":"03457","name":"Leer","type":"Landkreis"},"federalState":{"key":"03","name":"Niedersachsen"}},{"name":"Dorfweg","postalCode":"26835","locality":"Brinkum","municipality":{"key":"03457003","name":"Brinkum","type":"Kreisangehörige_Gemeinde"},"district":{"key":"03457","name":"Leer","type":"Landkreis"},"federalState":{"key":"03","name":"Niedersachsen"}},{"name":"Edzardstr.","postalCode":"26789","locality":"Leer","municipality":{"key":"03457013","name":"Leer (Ostfriesland), Stadt","type":"Stadt"},"district":{"key":"03457","name":"Leer","type":"Landkreis"},"federalState":{"key":"03","name":"Niedersachsen"}},{"name":"Efeustr.","postalCode":"26789","locality":"Leer","municipality":{"key":"03457013","name":"Leer (Ostfriesland), Stadt","type":"Stadt"},"district":{"key":"03457","name":"Leer","type":"Landkreis"},"federalState":{"key":"03","name":"Niedersachsen"}},{"name":"Eichendorffstr.","postalCode":"26789","locality":"Leer","municipality":{"key":"03457013","name":"Leer (Ostfriesland), Stadt","type":"Stadt"},"district":{"key":"03457","name":"Leer","type":"Landkreis"},"federalState":{"key":"03","name":"Niedersachsen"}},{"name":"Eichenweg","postalCode":"26789","locality":"Leer","municipality":{"key":"03457013","name":"Leer (Ostfriesland), Stadt","type":"Stadt"},"district":{"key":"03457","name":"Leer","type":"Landkreis"},"federalState":{"key":"03","name":"Niedersachsen"}},{"name":"Eichhornweg","postalCode":"26789","locality":"Leer","municipality":{"key":"03457013","name":"Leer (Ostfriesland), Stadt","type":"Stadt"},"district":{"key":"03457","name":"Leer","type":"Landkreis"},"federalState":{"key":"03","name":"Niedersachsen"}},{"name":"Eidtmannsweg","postalCode":"26789","locality":"Leer","municipality":{"key":"03457013","name":"Leer (Ostfriesland), Stadt","type":"Stadt"},"district":{"key":"03457","name":"Leer","type":"Landkreis"},"federalState":{"key":"03","name":"Niedersachsen"}},{"name":"Einbrooksweg","postalCode":"26789","locality":"Leer","municipality":{"key":"03457013","name":"Leer (Ostfriesland), Stadt","type":"Stadt"},"district":{"key":"03457","name":"Leer","type":"Landkreis"},"federalState":{"key":"03","name":"Niedersachsen"}},{"name":"Einsteinstr.","postalCode":"26789","locality":"Leer","municipality":{"key":"03457013","name":"Leer (Ostfriesland), Stadt","type":"Stadt"},"district":{"key":"03457","name":"Leer","type":"Landkreis"},"federalState":{"key":"03","name":"Niedersachsen"}},{"name":"Eisenbahnweg","postalCode":"26789","locality":"Leer","municipality":{"key":"03457013","name":"Leer (Ostfriesland), Stadt","type":"Stadt"},"district":{"key":"03457","name":"Leer","type":"Landkreis"},"federalState":{"key":"03","name":"Niedersachsen"}},{"name":"Eisinghausener Str.","postalCode":"26789","locality":"Leer","municipality":{"key":"03457013","name":"Leer (Ostfriesland), Stadt","type":"Stadt"},"district":{"key":"03457","name":"Leer","type":"Landkreis"},"federalState":{"key":"03","name":"Niedersachsen"}},{"name":"Elsternweg","postalCode":"26789","locality":"Leer","municipality":{"key":"03457013","name":"Leer (Ostfriesland), Stadt","type":"Stadt"},"district":{"key":"03457","name":"Leer","type":"Landkreis"},"federalState":{"key":"03","name":"Niedersachsen"}},{"name":"EmsPark-Drehscheibe","postalCode":"26789","locality":"Leer","municipality":{"key":"03457013","name":"Leer (Ostfriesland), Stadt","type":"Stadt"},"district":{"key":"03457","name":"Leer","type":"Landkreis"},"federalState":{"key":"03","name":"Niedersachsen"}},{"name":"Emsstr.","postalCode":"26789","locality":"Leer","municipality":{"key":"03457013","name":"Leer (Ostfriesland), Stadt","type":"Stadt"},"district":{"key":"03457","name":"Leer","type":"Landkreis"},"federalState":{"key":"03","name":"Niedersachsen"}},{"name":"Enno-Hektor-Str.","postalCode":"26789","locality":"Leer","municipality":{"key":"03457013","name":"Leer (Ostfriesland), Stadt","type":"Stadt"},"district":{"key":"03457","name":"Leer","type":"Landkreis"},"federalState":{"key":"03","name":"Niedersachsen"}},{"name":"Enno-Ludwig-Str.","postalCode":"26789","locality":"Leer","municipality":{"key":"03457013","name":"Leer (Ostfriesland), Stadt","type":"Stadt"},"district":{"key":"03457","name":"Leer","type":"Landkreis"},"federalState":{"key":"03","name":"Niedersachsen"}},{"name":"Erikastr.","postalCode":"26789","locality":"Leer","municipality":{"key":"03457013","name":"Leer (Ostfriesland), Stadt","type":"Stadt"},"district":{"key":"03457","name":"Leer","type":"Landkreis"},"federalState":{"key":"03","name":"Niedersachsen"}},{"name":"Erlebachstr.","postalCode":"26789","locality":"Leer","municipality":{"key":"03457013","name":"Leer (Ostfriesland), Stadt","type":"Stadt"},"district":{"key":"03457","name":"Leer","type":"Landkreis"},"federalState":{"key":"03","name":"Niedersachsen"}},{"name":"Erlenweg","postalCode":"26789","locality":"Leer","municipality":{"key":"03457013","name":"Leer (Ostfriesland), Stadt","type":"Stadt"},"district":{"key":"03457","name":"Leer","type":"Landkreis"},"federalState":{"key":"03","name":"Niedersachsen"}},{"name":"Ernst-Pagels-Weg","postalCode":"26789","locality":"Leer","municipality":{"key":"03457013","name":"Leer (Ostfriesland), Stadt","type":"Stadt"},"district":{"key":"03457","name":"Leer","type":"Landkreis"},"federalState":{"key":"03","name":"Niedersachsen"}},{"name":"Ernst-Reuter-Platz","postalCode":"26789","locality":"Leer","municipality":{"key":"03457013","name":"Leer (Ostfriesland), Stadt","type":"Stadt"},"district":{"key":"03457","name":"Leer","type":"Landkreis"},"federalState":{"key":"03","name":"Niedersachsen"}},{"name":"Eschenweg","postalCode":"26789","locality":"Leer","municipality":{"key":"03457013","name":"Leer (Ostfriesland), Stadt","type":"Stadt"},"district":{"key":"03457","name":"Leer","type":"Landkreis"},"federalState":{"key":"03","name":"Niedersachsen"}},{"name":"Esklumer Fährweg","postalCode":"26789","locality":"Leer","municipality":{"key":"03457013","name":"Leer (Ostfriesland), Stadt","type":"Stadt"},"district":{"key":"03457","name":"Leer","type":"Landkreis"},"federalState":{"key":"03","name":"Niedersachsen"}},{"name":"Espenweg","postalCode":"26789","locality":"Leer","municipality":{"key":"03457013","name":"Leer (Ostfriesland), Stadt","type":"Stadt"},"district":{"key":"03457","name":"Leer","type":"Landkreis"},"federalState":{"key":"03","name":"Niedersachsen"}},{"name":"Euckenstr.","postalCode":"26789","locality":"Leer","municipality":{"key":"03457013","name":"Leer (Ostfriesland), Stadt","type":"Stadt"},"district":{"key":"03457","name":"Leer","type":"Landkreis"},"federalState":{"key":"03","name":"Niedersachsen"}},{"name":"Evenburgallee","postalCode":"26789","locality":"Leer","municipality":{"key":"03457013","name":"Leer (Ostfriesland), Stadt","type":"Stadt"},"district":{"key":"03457","name":"Leer","type":"Landkreis"},"federalState":{"key":"03","name":"Niedersachsen"}},{"name":"Evenburgpark","postalCode":"26789","locality":"Leer","municipality":{"key":"03457013","name":"Leer (Ostfriesland), Stadt","type":"Stadt"},"district":{"key":"03457","name":"Leer","type":"Landkreis"},"federalState":{"key":"03","name":"Niedersachsen"}},{"name":"Evertskamp","postalCode":"26789","locality":"Leer","municipality":{"key":"03457013","name":"Leer (Ostfriesland), Stadt","type":"Stadt"},"district":{"key":"03457","name":"Leer","type":"Landkreis"},"federalState":{"key":"03","name":"Niedersachsen"}},{"name":"Feldstückenstr.","postalCode":"26835","locality":"Brinkum","municipality":{"key":"03457003","name":"Brinkum","type":"Kreisangehörige_Gemeinde"},"district":{"key":"03457","name":"Leer","type":"Landkreis"},"federalState":{"key":"03","name":"Niedersachsen"}},{"name":"Gastenstückenweg","postalCode":"26835","locality":"Brinkum","municipality":{"key":"03457003","name":"Brinkum","type":"Kreisangehörige_Gemeinde"},"district":{"key":"03457","name":"Leer","type":"Landkreis"},"federalState":{"key":"03","name":"Niedersachsen"}},{"name":"Gewerbestr.","postalCode":"26835","locality":"Brinkum","municipality":{"key":"03457003","name":"Brinkum","type":"Kreisangehörige_Gemeinde"},"district":{"key":"03457","name":"Leer","type":"Landkreis"},"federalState":{"key":"03","name":"Niedersachsen"}},{"name":"Grüner Weg","postalCode":"26835","locality":"Brinkum","municipality":{"key":"03457003","name":"Brinkum","type":"Kreisangehörige_Gemeinde"},"district":{"key":"03457","name":"Leer","type":"Landkreis"},"federalState":{"key":"03","name":"Niedersachsen"}},{"name":"Heckenweg","postalCode":"26835","locality":"Brinkum","municipality":{"key":"03457003","name":"Brinkum","type":"Kreisangehörige_Gemeinde"},"district":{"key":"03457","name":"Leer","type":"Landkreis"},"federalState":{"key":"03","name":"Niedersachsen"}},{"name":"Heidfeldstr.","postalCode":"26835","locality":"Brinkum","municipality":{"key":"03457003","name":"Brinkum","type":"Kreisangehörige_Gemeinde"},"district":{"key":"03457","name":"Leer","type":"Landkreis"},"federalState":{"key":"03","name":"Niedersachsen"}},{"name":"Im Dorfe","postalCode":"26835","locality":"Brinkum","municipality":{"key":"03457003","name":"Brinkum","type":"Kreisangehörige_Gemeinde"},"district":{"key":"03457","name":"Leer","type":"Landkreis"},"federalState":{"key":"03","name":"Niedersachsen"}},{"name":"Immegastr.","postalCode":"26835","locality":"Brinkum","municipality":{"key":"03457003","name":"Brinkum","type":"Kreisangehörige_Gemeinde"},"district":{"key":"03457","name":"Leer","type":"Landkreis"},"federalState":{"key":"03","name":"Niedersachsen"}},{"name":"Jockkampsweg","postalCode":"26835","locality":"Brinkum","municipality":{"key":"03457003","name":"Brinkum","type":"Kreisangehörige_Gemeinde"},"district":{"key":"03457","name":"Leer","type":"Landkreis"},"federalState":{"key":"03","name":"Niedersachsen"}},{"name":"Kahlfeldstr.","postalCode":"26835","locality":"Brinkum","municipality":{"key":"03457003","name":"Brinkum","type":"Kreisangehörige_Gemeinde"},"district":{"key":"03457","name":"Leer","type":"Landkreis"},"federalState":{"key":"03","name":"Niedersachsen"}},{"name":"Kirchstr.","postalCode":"26835","locality":"Brinkum","municipality":{"key":"03457003","name":"Brinkum","type":"Kreisangehörige_Gemeinde"},"district":{"key":"03457","name":"Leer","type":"Landkreis"},"federalState":{"key":"03","name":"Niedersachsen"}},{"name":"Kleingaster Str.","postalCode":"26835","locality":"Brinkum","municipality":{"key":"03457003","name":"Brinkum","type":"Kreisangehörige_Gemeinde"},"district":{"key":"03457","name":"Leer","type":"Landkreis"},"federalState":{"key":"03","name":"Niedersachsen"}},{"name":"Kleinheseler Moorweg","postalCode":"26835","locality":"Brinkum","municipality":{"key":"03457003","name":"Brinkum","type":"Kreisangehörige_Gemeinde"},"district":{"key":"03457","name":"Leer","type":"Landkreis"},"federalState":{"key":"03","name":"Niedersachsen"}},{"name":"Klosterstr.","postalCode":"26835","locality":"Brinkum","municipality":{"key":"03457003","name":"Brinkum","type":"Kreisangehörige_Gemeinde"},"district":{"key":"03457","name":"Leer","type":"Landkreis"},"federalState":{"key":"03","name":"Niedersachsen"}},{"name":"Leeraner Str.","postalCode":"26835","locality":"Brinkum","municipality":{"key":"03457003","name":"Brinkum","type":"Kreisangehörige_Gemeinde"},"district":{"key":"03457","name":"Leer","type":"Landkreis"},"federalState":{"key":"03","name":"Niedersachsen"}},{"name":"Liddenweg","postalCode":"26835","locality":"Brinkum","municipality":{"key":"03457003","name":"Brinkum","type":"Kreisangehörige_Gemeinde"},"district":{"key":"03457","name":"Leer","type":"Landkreis"},"federalState":{"key":"03","name":"Niedersachsen"}},{"name":"Meerweg","postalCode":"26835","locality":"Brinkum","municipality":{"key":"03457003","name":"Brinkum","type":"Kreisangehörige_Gemeinde"},"district":{"key":"03457","name":"Leer","type":"Landkreis"},"federalState":{"key":"03","name":"Niedersachsen"}},{"name":"Mittelweg","postalCode":"26835","locality":"Brinkum","municipality":{"key":"03457003","name":"Brinkum","type":"Kreisangehörige_Gemeinde"},"district":{"key":"03457","name":"Leer","type":"Landkreis"},"federalState":{"key":"03","name":"Niedersachsen"}},{"name":"Neue Str.","postalCode":"26835","locality":"Brinkum","municipality":{"key":"03457003","name":"Brinkum","type":"Kreisangehörige_Gemeinde"},"district":{"key":"03457","name":"Leer","type":"Landkreis"},"federalState":{"key":"03","name":"Niedersachsen"}},{"name":"Neulandstr.","postalCode":"26835","locality":"Brinkum","municipality":{"key":"03457003","name":"Brinkum","type":"Kreisangehörige_Gemeinde"},"district":{"key":"03457","name":"Leer","type":"Landkreis"},"federalState":{"key":"03","name":"Niedersachsen"}},{"name":"Nückestr.","postalCode":"26835","locality":"Brinkum","municipality":{"key":"03457003","name":"Brinkum","type":"Kreisangehörige_Gemeinde"},"district":{"key":"03457","name":"Leer","type":"Landkreis"},"federalState":{"key":"03","name":"Niedersachsen"}},{"name":"Osterstr.","postalCode":"26835","locality":"Brinkum","municipality":{"key":"03457003","name":"Brinkum","type":"Kreisangehörige_Gemeinde"},"district":{"key":"03457","name":"Leer","type":"Landkreis"},"federalState":{"key":"03","name":"Niedersachsen"}},{"name":"Pappelweg","postalCode":"26835","locality":"Brinkum","municipality":{"key":"03457003","name":"Brinkum","type":"Kreisangehörige_Gemeinde"},"district":{"key":"03457","name":"Leer","type":"Landkreis"},"federalState":{"key":"03","name":"Niedersachsen"}},{"name":"Querweg","postalCode":"26789","locality":"Leer","municipality":{"key":"03457013","name":"Leer (Ostfriesland), Stadt","type":"Stadt"},"district":{"key":"03457","name":"Leer","type":"Landkreis"},"federalState":{"key":"03","name":"Niedersachsen"}},{"name":"Rebhuhnweg","postalCode":"26789","locality":"Leer","municipality":{"key":"03457013","name":"Leer (Ostfriesland), Stadt","type":"Stadt"},"district":{"key":"03457","name":"Leer","type":"Landkreis"},"federalState":{"key":"03","name":"Niedersachsen"}},{"name":"Reetweg","postalCode":"26789","locality":"Leer","municipality":{"key":"03457013","name":"Leer (Ostfriesland), Stadt","type":"Stadt"},"district":{"key":"03457","name":"Leer","type":"Landkreis"},"federalState":{"key":"03","name":"Niedersachsen"}},{"name":"Reformierter Kirchgang","postalCode":"26789","locality":"Leer","municipality":{"key":"03457013","name":"Leer (Ostfriesland), Stadt","type":"Stadt"},"district":{"key":"03457","name":"Leer","type":"Landkreis"},"federalState":{"key":"03","name":"Niedersachsen"}},{"name":"Reformierter Schulgang","postalCode":"26789","locality":"Leer","municipality":{"key":"03457013","name":"Leer (Ostfriesland), Stadt","type":"Stadt"},"district":{"key":"03457","name":"Leer","type":"Landkreis"},"federalState":{"key":"03","name":"Niedersachsen"}},{"name":"Reimersstr.","postalCode":"26789","locality":"Leer","municipality":{"key":"03457013","name":"Leer (Ostfriesland), Stadt","type":"Stadt"},"district":{"key":"03457","name":"Leer","type":"Landkreis"},"federalState":{"key":"03","name":"Niedersachsen"}},{"name":"Rembrandtstr.","postalCode":"26789","locality":"Leer","municipality":{"key":"03457013","name":"Leer (Ostfriesland), Stadt","type":"Stadt"},"district":{"key":"03457","name":"Leer","type":"Landkreis"},"federalState":{"key":"03","name":"Niedersachsen"}},{"name":"Riedweg","postalCode":"26789","locality":"Leer","municipality":{"key":"03457013","name":"Leer (Ostfriesland), Stadt","type":"Stadt"},"district":{"key":"03457","name":"Leer","type":"Landkreis"},"federalState":{"key":"03","name":"Niedersachsen"}},{"name":"Riemtappenweg","postalCode":"26789","locality":"Leer","municipality":{"key":"03457013","name":"Leer (Ostfriesland), Stadt","type":"Stadt"},"district":{"key":"03457","name":"Leer","type":"Landkreis"},"federalState":{"key":"03","name":"Niedersachsen"}},{"name":"Rigaer Str.","postalCode":"26789","locality":"Leer","municipality":{"key":"03457013","name":"Leer (Ostfriesland), Stadt","type":"Stadt"},"district":{"key":"03457","name":"Leer","type":"Landkreis"},"federalState":{"key":"03","name":"Niedersachsen"}},{"name":"Ringstr.","postalCode":"26789","locality":"Leer","municipality":{"key":"03457013","name":"Leer (Ostfriesland), Stadt","type":"Stadt"},"district":{"key":"03457","name":"Leer","type":"Landkreis"},"federalState":{"key":"03","name":"Niedersachsen"}},{"name":"Ritterstr.","postalCode":"26789","locality":"Leer","municipality":{"key":"03457013","name":"Leer (Ostfriesland), Stadt","type":"Stadt"},"district":{"key":"03457","name":"Leer","type":"Landkreis"},"federalState":{"key":"03","name":"Niedersachsen"}},{"name":"Robert-Koch-Str.","postalCode":"26789","locality":"Leer","municipality":{"key":"03457013","name":"Leer (Ostfriesland), Stadt","type":"Stadt"},"district":{"key":"03457","name":"Leer","type":"Landkreis"},"federalState":{"key":"03","name":"Niedersachsen"}},{"name":"Roggenmühle","postalCode":"26789","locality":"Leer","municipality":{"key":"03457013","name":"Leer (Ostfriesland), Stadt","type":"Stadt"},"district":{"key":"03457","name":"Leer","type":"Landkreis"},"federalState":{"key":"03","name":"Niedersachsen"}},{"name":"Roggenweg","postalCode":"26789","locality":"Leer","municipality":{"key":"03457013","name":"Leer (Ostfriesland), Stadt","type":"Stadt"},"district":{"key":"03457","name":"Leer","type":"Landkreis"},"federalState":{"key":"03","name":"Niedersachsen"}},{"name":"Rolfskamp","postalCode":"26789","locality":"Leer","municipality":{"key":"03457013","name":"Leer (Ostfriesland), Stadt","type":"Stadt"},"district":{"key":"03457","name":"Leer","type":"Landkreis"},"federalState":{"key":"03","name":"Niedersachsen"}},{"name":"Röntgenstr.","postalCode":"26789","locality":"Leer","municipality":{"key":"03457013","name":"Leer (Ostfriesland), Stadt","type":"Stadt"},"district":{"key":"03457","name":"Leer","type":"Landkreis"},"federalState":{"key":"03","name":"Niedersachsen"}},{"name":"Rosenstr.","postalCode":"26789","locality":"Leer","municipality":{"key":"03457013","name":"Leer (Ostfriesland), Stadt","type":"Stadt"},"district":{"key":"03457","name":"Leer","type":"Landkreis"},"federalState":{"key":"03","name":"Niedersachsen"}},{"name":"Rosmarinweg","postalCode":"26789","locality":"Leer","municipality":{"key":"03457013","name":"Leer (Ostfriesland), Stadt","type":"Stadt"},"district":{"key":"03457","name":"Leer","type":"Landkreis"},"federalState":{"key":"03","name":"Niedersachsen"}},{"name":"Rotdornstr.","postalCode":"26789","locality":"Leer","municipality":{"key":"03457013","name":"Leer (Ostfriesland), Stadt","type":"Stadt"},"district":{"key":"03457","name":"Leer","type":"Landkreis"},"federalState":{"key":"03","name":"Niedersachsen"}},{"name":"Roter Weg","postalCode":"26789","locality":"Leer","municipality":{"key":"03457013","name":"Leer (Ostfriesland), Stadt","type":"Stadt"},"district":{"key":"03457","name":"Leer","type":"Landkreis"},"federalState":{"key":"03","name":"Niedersachsen"}},{"name":"Rotkehlchenweg","postalCode":"26789","locality":"Leer","municipality":{"key":"03457013","name":"Leer (Ostfriesland), Stadt","type":"Stadt"},"district":{"key":"03457","name":"Leer","type":"Landkreis"},"federalState":{"key":"03","name":"Niedersachsen"}},{"name":"Rüskenweg","postalCode":"26789","locality":"Leer","municipality":{"key":"03457013","name":"Leer (Ostfriesland), Stadt","type":"Stadt"},"district":{"key":"03457","name":"Leer","type":"Landkreis"},"federalState":{"key":"03","name":"Niedersachsen"}},{"name":"Rymeerstr.","postalCode":"26789","locality":"Leer","municipality":{"key":"03457013","name":"Leer (Ostfriesland), Stadt","type":"Stadt"},"district":{"key":"03457","name":"Leer","type":"Landkreis"},"federalState":{"key":"03","name":"Niedersachsen"}},{"name":"Schleiweg","postalCode":"26835","locality":"Brinkum","municipality":{"key":"03457003","name":"Brinkum","type":"Kreisangehörige_Gemeinde"},"district":{"key":"03457","name":"Leer","type":"Landkreis"},"federalState":{"key":"03","name":"Niedersachsen"}},{"name":"Schmiedeweg","postalCode":"26835","locality":"Brinkum","municipality":{"key":"03457003","name":"Brinkum","type":"Kreisangehörige_Gemeinde"},"district":{"key":"03457","name":"Leer","type":"Landkreis"},"federalState":{"key":"03","name":"Niedersachsen"}},{"name":"Schulstr.","postalCode":"26835","locality":"Brinkum","municipality":{"key":"03457003","name":"Brinkum","type":"Kreisangehörige_Gemeinde"},"district":{"key":"03457","name":"Leer","type":"Landkreis"},"federalState":{"key":"03","name":"Niedersachsen"}},{"name":"Schützenring","postalCode":"26835","locality":"Brinkum","municipality":{"key":"03457003","name":"Brinkum","type":"Kreisangehörige_Gemeinde"},"district":{"key":"03457","name":"Leer","type":"Landkreis"},"federalState":{"key":"03","name":"Niedersachsen"}},{"name":"Schwarzdobbenweg","postalCode":"26835","locality":"Brinkum","municipality":{"key":"03457003","name":"Brinkum","type":"Kreisangehörige_Gemeinde"},"district":{"key":"03457","name":"Leer","type":"Landkreis"},"federalState":{"key":"03","name":"Niedersachsen"}},{"name":"Siebenberger Str.","postalCode":"26835","locality":"Brinkum","municipality":{"key":"03457003","name":"Brinkum","type":"Kreisangehörige_Gemeinde"},"district":{"key":"03457","name":"Leer","type":"Landkreis"},"federalState":{"key":"03","name":"Niedersachsen"}},{"name":"Sniedersweg","postalCode":"26835","locality":"Brinkum","municipality":{"key":"03457003","name":"Brinkum","type":"Kreisangehörige_Gemeinde"},"district":{"key":"03457","name":"Leer","type":"Landkreis"},"federalState":{"key":"03","name":"Niedersachsen"}},{"name":"Stallackerweg","postalCode":"26835","locality":"Brinkum","municipality":{"key":"03457003","name":"Brinkum","type":"Kreisangehörige_Gemeinde"},"district":{"key":"03457","name":"Leer","type":"Landkreis"},"federalState":{"key":"03","name":"Niedersachsen"}},{"name":"Steenkelandstr.","postalCode":"26835","locality":"Brinkum","municipality":{"key":"03457003","name":"Brinkum","type":"Kreisangehörige_Gemeinde"},"district":{"key":"03457","name":"Leer","type":"Landkreis"},"federalState":{"key":"03","name":"Niedersachsen"}},{"name":"Süderstr.","postalCode":"26835","locality":"Brinkum","municipality":{"key":"03457003","name":"Brinkum","type":"Kreisangehörige_Gemeinde"},"district":{"key":"03457","name":"Leer","type":"Landkreis"},"federalState":{"key":"03","name":"Niedersachsen"}},{"name":"Tannenweg","postalCode":"26789","locality":"Leer","municipality":{"key":"03457013","name":"Leer (Ostfriesland), Stadt","type":"Stadt"},"district":{"key":"03457","name":"Leer","type":"Landkreis"},"federalState":{"key":"03","name":"Niedersachsen"}},{"name":"Teutonenstr.","postalCode":"26789","locality":"Leer","municipality":{"key":"03457013","name":"Leer (Ostfriesland), Stadt","type":"Stadt"},"district":{"key":"03457","name":"Leer","type":"Landkreis"},"federalState":{"key":"03","name":"Niedersachsen"}},{"name":"Theodor-Storm-Str.","postalCode":"26789","locality":"Leer","municipality":{"key":"03457013","name":"Leer (Ostfriesland), Stadt","type":"Stadt"},"district":{"key":"03457","name":"Leer","type":"Landkreis"},"federalState":{"key":"03","name":"Niedersachsen"}},{"name":"Thomastr.","postalCode":"26789","locality":"Leer","municipality":{"key":"03457013","name":"Leer (Ostfriesland), Stadt","type":"Stadt"},"district":{"key":"03457","name":"Leer","type":"Landkreis"},"federalState":{"key":"03","name":"Niedersachsen"}},{"name":"Tjackleger Fährweg","postalCode":"26789","locality":"Leer","municipality":{"key":"03457013","name":"Leer (Ostfriesland), Stadt","type":"Stadt"},"district":{"key":"03457","name":"Leer","type":"Landkreis"},"federalState":{"key":"03","name":"Niedersachsen"}},{"name":"Tjalkweg","postalCode":"26789","locality":"Leer","municipality":{"key":"03457013","name":"Leer (Ostfriesland), Stadt","type":"Stadt"},"district":{"key":"03457","name":"Leer","type":"Landkreis"},"federalState":{"key":"03","name":"Niedersachsen"}},{"name":"Torfweg","postalCode":"26789","locality":"Leer","municipality":{"key":"03457013","name":"Leer (Ostfriesland), Stadt","type":"Stadt"},"district":{"key":"03457","name":"Leer","type":"Landkreis"},"federalState":{"key":"03","name":"Niedersachsen"}},{"name":"Torumer Str.","postalCode":"26789","locality":"Leer","municipality":{"key":"03457013","name":"Leer (Ostfriesland), Stadt","type":"Stadt"},"district":{"key":"03457","name":"Leer","type":"Landkreis"},"federalState":{"key":"03","name":"Niedersachsen"}},{"name":"Tulpenstr.","postalCode":"26789","locality":"Leer","municipality":{"key":"03457013","name":"Leer (Ostfriesland), Stadt","type":"Stadt"},"district":{"key":"03457","name":"Leer","type":"Landkreis"},"federalState":{"key":"03","name":"Niedersachsen"}},{"name":"Turnerweg","postalCode":"26789","locality":"Leer","municipality":{"key":"03457013","name":"Leer (Ostfriesland), Stadt","type":"Stadt"},"district":{"key":"03457","name":"Leer","type":"Landkreis"},"federalState":{"key":"03","name":"Niedersachsen"}},{"name":"Unter den Lidden","postalCode":"26835","locality":"Brinkum","municipality":{"key":"03457003","name":"Brinkum","type":"Kreisangehörige_Gemeinde"},"district":{"key":"03457","name":"Leer","type":"Landkreis"},"federalState":{"key":"03","name":"Niedersachsen"}},{"name":"Voßbargweg","postalCode":"26835","locality":"Brinkum","municipality":{"key":"03457003","name":"Brinkum","type":"Kreisangehörige_Gemeinde"},"district":{"key":"03457","name":"Leer","type":"Landkreis"},"federalState":{"key":"03","name":"Niedersachsen"}},{"name":"Westergaste","postalCode":"26835","locality":"Brinkum","municipality":{"key":"03457003","name":"Brinkum","type":"Kreisangehörige_Gemeinde"},"district":{"key":"03457","name":"Leer","type":"Landkreis"},"federalState":{"key":"03","name":"Niedersachsen"}},{"name":"Zeppelinstr.","postalCode":"26789","locality":"Leer","municipality":{"key":"03457013","name":"Leer (Ostfriesland), Stadt","type":"Stadt"},"district":{"key":"03457","name":"Leer","type":"Landkreis"},"federalState":{"key":"03","name":"Niedersachsen"}},{"name":"Ziegeleistr.","postalCode":"26789","locality":"Leer","municipality":{"key":"03457013","name":"Leer (Ostfriesland), Stadt","type":"Stadt"},"district":{"key":"03457","name":"Leer","type":"Landkreis"},"federalState":{"key":"03","name":"Niedersachsen"}},{"name":"Zoostr.","postalCode":"26789","locality":"Leer","municipality":{"key":"03457013","name":"Leer (Ostfriesland), Stadt","type":"Stadt"},"district":{"key":"03457","name":"Leer","type":"Landkreis"},"federalState":{"key":"03","name":"Niedersachsen"}},{"name":"Zum Hammrich","postalCode":"26789","locality":"Leer","municipality":{"key":"03457013","name":"Leer (Ostfriesland), Stadt","type":"Stadt"},"district":{"key":"03457","name":"Leer","type":"Landkreis"},"federalState":{"key":"03","name":"Niedersachsen"}},{"name":"Zum Voßberg","postalCode":"26789","locality":"Leer","municipality":{"key":"03457013","name":"Leer (Ostfriesland), Stadt","type":"Stadt"},"district":{"key":"03457","name":"Leer","type":"Landkreis"},"federalState":{"key":"03","name":"Niedersachsen"}},{"name":"Zur Koppel","postalCode":"26789","locality":"Leer","municipality":{"key":"03457013","name":"Leer (Ostfriesland), Stadt","type":"Stadt"},"district":{"key":"03457","name":"Leer","type":"Landkreis"},"federalState":{"key":"03","name":"Niedersachsen"}},]