[{"name":"251/252","postalCode":"82467","locality":"Garmisch-Partenkirchen","municipality":{"key":"09180117","name":"Garmisch-Partenkirchen, M","type":"Markt"},"district":{"key":"09180","name":"Garmisch-Partenkirchen","type":"Landkreis"},"federalState":{"key":"09","name":"Bayern"}},{"name":"255","postalCode":"82467","locality":"Garmisch-Partenkirchen","municipality":{"key":"09180117","name":"Garmisch-Partenkirchen, M","type":"Markt"},"district":{"key":"09180","name":"Garmisch-Partenkirchen","type":"Landkreis"},"federalState":{"key":"09","name":"Bayern"}},{"name":"Alpenstr.","postalCode":"82418","locality":"Spatzenhausen","municipality":{"key":"09180133","name":"Spatzenhausen","type":"Kreisangehörige_Gemeinde"},"district":{"key":"09180","name":"Garmisch-Partenkirchen","type":"Landkreis"},"federalState":{"key":"09","name":"Bayern"}},{"name":"An der Salzstr.","postalCode":"82418","locality":"Spatzenhausen","municipality":{"key":"09180133","name":"Spatzenhausen","type":"Kreisangehörige_Gemeinde"},"district":{"key":"09180","name":"Garmisch-Partenkirchen","type":"Landkreis"},"federalState":{"key":"09","name":"Bayern"}},{"name":"Angerstr.","postalCode":"82447","locality":"Spatzenhausen","municipality":{"key":"09180133","name":"Spatzenhausen","type":"Kreisangehörige_Gemeinde"},"district":{"key":"09180","name":"Garmisch-Partenkirchen","type":"Landkreis"},"federalState":{"key":"09","name":"Bayern"}},{"name":"Auweg","postalCode":"82447","locality":"Spatzenhausen","municipality":{"key":"09180133","name":"Spatzenhausen","type":"Kreisangehörige_Gemeinde"},"district":{"key":"09180","name":"Garmisch-Partenkirchen","type":"Landkreis"},"federalState":{"key":"09","name":"Bayern"}},{"name":"Baderseestr.","postalCode":"82467","locality":"Garmisch-Partenkirchen","municipality":{"key":"09180117","name":"Garmisch-Partenkirchen, M","type":"Markt"},"district":{"key":"09180","name":"Garmisch-Partenkirchen","type":"Landkreis"},"federalState":{"key":"09","name":"Bayern"}},{"name":"Badgasse","postalCode":"82467","locality":"Garmisch-Partenkirchen","municipality":{"key":"09180117","name":"Garmisch-Partenkirchen, M","type":"Markt"},"district":{"key":"09180","name":"Garmisch-Partenkirchen","type":"Landkreis"},"federalState":{"key":"09","name":"Bayern"}},{"name":"Bahnhof","postalCode":"82467","locality":"Garmisch-Partenkirchen","municipality":{"key":"09180117","name":"Garmisch-Partenkirchen, M","type":"Markt"},"district":{"key":"09180","name":"Garmisch-Partenkirchen","type":"Landkreis"},"federalState":{"key":"09","name":"Bayern"}},{"name":"Bahnhofstr.","postalCode":"82467","locality":"Garmisch-Partenkirchen","municipality":{"key":"09180117","name":"Garmisch-Partenkirchen, M","type":"Markt"},"district":{"key":"09180","name":"Garmisch-Partenkirchen","type":"Landkreis"},"federalState":{"key":"09","name":"Bayern"}},{"name":"Ballengasse","postalCode":"82467","locality":"Garmisch-Partenkirchen","municipality":{"key":"09180117","name":"Garmisch-Partenkirchen, M","type":"Markt"},"district":{"key":"09180","name":"Garmisch-Partenkirchen","type":"Landkreis"},"federalState":{"key":"09","name":"Bayern"}},{"name":"Bankgasse","postalCode":"82467","locality":"Garmisch-Partenkirchen","municipality":{"key":"09180117","name":"Garmisch-Partenkirchen, M","type":"Markt"},"district":{"key":"09180","name":"Garmisch-Partenkirchen","type":"Landkreis"},"federalState":{"key":"09","name":"Bayern"}},{"name":"Bannholzweg","postalCode":"82467","locality":"Garmisch-Partenkirchen","municipality":{"key":"09180117","name":"Garmisch-Partenkirchen, M","type":"Markt"},"district":{"key":"09180","name":"Garmisch-Partenkirchen","type":"Landkreis"},"federalState":{"key":"09","name":"Bayern"}},{"name":"Bärenalpstr.","postalCode":"82467","locality":"Garmisch-Partenkirchen","municipality":{"key":"09180117","name":"Garmisch-Partenkirchen, M","type":"Markt"},"district":{"key":"09180","name":"Garmisch-Partenkirchen","type":"Landkreis"},"federalState":{"key":"09","name":"Bayern"}},{"name":"Barfußpfad","postalCode":"82467","locality":"Garmisch-Partenkirchen","municipality":{"key":"09180117","name":"Garmisch-Partenkirchen, M","type":"Markt"},"district":{"key":"09180","name":"Garmisch-Partenkirchen","type":"Landkreis"},"federalState":{"key":"09","name":"Bayern"}},{"name":"Bernadeinweg","postalCode":"82467","locality":"Garmisch-Partenkirchen","municipality":{"key":"09180117","name":"Garmisch-Partenkirchen, M","type":"Markt"},"district":{"key":"09180","name":"Garmisch-Partenkirchen","type":"Landkreis"},"federalState":{"key":"09","name":"Bayern"}},{"name":"Birktalstr.","postalCode":"82467","locality":"Garmisch-Partenkirchen","municipality":{"key":"09180117","name":"Garmisch-Partenkirchen, M","type":"Markt"},"district":{"key":"09180","name":"Garmisch-Partenkirchen","type":"Landkreis"},"federalState":{"key":"09","name":"Bayern"}},{"name":"Bischofweg","postalCode":"82467","locality":"Garmisch-Partenkirchen","municipality":{"key":"09180117","name":"Garmisch-Partenkirchen, M","type":"Markt"},"district":{"key":"09180","name":"Garmisch-Partenkirchen","type":"Landkreis"},"federalState":{"key":"09","name":"Bayern"}},{"name":"Blumenstr.","postalCode":"82467","locality":"Garmisch-Partenkirchen","municipality":{"key":"09180117","name":"Garmisch-Partenkirchen, M","type":"Markt"},"district":{"key":"09180","name":"Garmisch-Partenkirchen","type":"Landkreis"},"federalState":{"key":"09","name":"Bayern"}},{"name":"Brandstr.","postalCode":"82467","locality":"Garmisch-Partenkirchen","municipality":{"key":"09180117","name":"Garmisch-Partenkirchen, M","type":"Markt"},"district":{"key":"09180","name":"Garmisch-Partenkirchen","type":"Landkreis"},"federalState":{"key":"09","name":"Bayern"}},{"name":"Brauhausstr.","postalCode":"82467","locality":"Garmisch-Partenkirchen","municipality":{"key":"09180117","name":"Garmisch-Partenkirchen, M","type":"Markt"},"district":{"key":"09180","name":"Garmisch-Partenkirchen","type":"Landkreis"},"federalState":{"key":"09","name":"Bayern"}},{"name":"Breitenauer Str.","postalCode":"82467","locality":"Garmisch-Partenkirchen","municipality":{"key":"09180117","name":"Garmisch-Partenkirchen, M","type":"Markt"},"district":{"key":"09180","name":"Garmisch-Partenkirchen","type":"Landkreis"},"federalState":{"key":"09","name":"Bayern"}},{"name":"Brunnhäuslweg","postalCode":"82467","locality":"Garmisch-Partenkirchen","municipality":{"key":"09180117","name":"Garmisch-Partenkirchen, M","type":"Markt"},"district":{"key":"09180","name":"Garmisch-Partenkirchen","type":"Landkreis"},"federalState":{"key":"09","name":"Bayern"}},{"name":"Brunntalstr.","postalCode":"82467","locality":"Garmisch-Partenkirchen","municipality":{"key":"09180117","name":"Garmisch-Partenkirchen, M","type":"Markt"},"district":{"key":"09180","name":"Garmisch-Partenkirchen","type":"Landkreis"},"federalState":{"key":"09","name":"Bayern"}},{"name":"Buchbergweg","postalCode":"82467","locality":"Garmisch-Partenkirchen","municipality":{"key":"09180117","name":"Garmisch-Partenkirchen, M","type":"Markt"},"district":{"key":"09180","name":"Garmisch-Partenkirchen","type":"Landkreis"},"federalState":{"key":"09","name":"Bayern"}},{"name":"Bürgermeister-Neidlinger-Platz","postalCode":"82467","locality":"Garmisch-Partenkirchen","municipality":{"key":"09180117","name":"Garmisch-Partenkirchen, M","type":"Markt"},"district":{"key":"09180","name":"Garmisch-Partenkirchen","type":"Landkreis"},"federalState":{"key":"09","name":"Bayern"}},{"name":"Bürgermeister-Vogel-Weg","postalCode":"82467","locality":"Garmisch-Partenkirchen","municipality":{"key":"09180117","name":"Garmisch-Partenkirchen, M","type":"Markt"},"district":{"key":"09180","name":"Garmisch-Partenkirchen","type":"Landkreis"},"federalState":{"key":"09","name":"Bayern"}},{"name":"Burgfeldstr.","postalCode":"82467","locality":"Garmisch-Partenkirchen","municipality":{"key":"09180117","name":"Garmisch-Partenkirchen, M","type":"Markt"},"district":{"key":"09180","name":"Garmisch-Partenkirchen","type":"Landkreis"},"federalState":{"key":"09","name":"Bayern"}},{"name":"Burgstr.","postalCode":"82467","locality":"Garmisch-Partenkirchen","municipality":{"key":"09180117","name":"Garmisch-Partenkirchen, M","type":"Markt"},"district":{"key":"09180","name":"Garmisch-Partenkirchen","type":"Landkreis"},"federalState":{"key":"09","name":"Bayern"}},{"name":"Chamonixstr.","postalCode":"82467","locality":"Garmisch-Partenkirchen","municipality":{"key":"09180117","name":"Garmisch-Partenkirchen, M","type":"Markt"},"district":{"key":"09180","name":"Garmisch-Partenkirchen","type":"Landkreis"},"federalState":{"key":"09","name":"Bayern"}},{"name":"Dorfstr.","postalCode":"82418","locality":"Spatzenhausen","municipality":{"key":"09180133","name":"Spatzenhausen","type":"Kreisangehörige_Gemeinde"},"district":{"key":"09180","name":"Garmisch-Partenkirchen","type":"Landkreis"},"federalState":{"key":"09","name":"Bayern"}},{"name":"Dorfstr.","postalCode":"82447","locality":"Spatzenhausen","municipality":{"key":"09180133","name":"Spatzenhausen","type":"Kreisangehörige_Gemeinde"},"district":{"key":"09180","name":"Garmisch-Partenkirchen","type":"Landkreis"},"federalState":{"key":"09","name":"Bayern"}},{"name":"Eichweideweg","postalCode":"82418","locality":"Spatzenhausen","municipality":{"key":"09180133","name":"Spatzenhausen","type":"Kreisangehörige_Gemeinde"},"district":{"key":"09180","name":"Garmisch-Partenkirchen","type":"Landkreis"},"federalState":{"key":"09","name":"Bayern"}},{"name":"Falkensteinstr.","postalCode":"82467","locality":"Garmisch-Partenkirchen","municipality":{"key":"09180117","name":"Garmisch-Partenkirchen, M","type":"Markt"},"district":{"key":"09180","name":"Garmisch-Partenkirchen","type":"Landkreis"},"federalState":{"key":"09","name":"Bayern"}},{"name":"Falkenstr.","postalCode":"82467","locality":"Garmisch-Partenkirchen","municipality":{"key":"09180117","name":"Garmisch-Partenkirchen, M","type":"Markt"},"district":{"key":"09180","name":"Garmisch-Partenkirchen","type":"Landkreis"},"federalState":{"key":"09","name":"Bayern"}},{"name":"Farchanter Str.","postalCode":"82467","locality":"Garmisch-Partenkirchen","municipality":{"key":"09180117","name":"Garmisch-Partenkirchen, M","type":"Markt"},"district":{"key":"09180","name":"Garmisch-Partenkirchen","type":"Landkreis"},"federalState":{"key":"09","name":"Bayern"}},{"name":"Faukenstr.","postalCode":"82467","locality":"Garmisch-Partenkirchen","municipality":{"key":"09180117","name":"Garmisch-Partenkirchen, M","type":"Markt"},"district":{"key":"09180","name":"Garmisch-Partenkirchen","type":"Landkreis"},"federalState":{"key":"09","name":"Bayern"}},{"name":"Feldernkopfstr.","postalCode":"82467","locality":"Garmisch-Partenkirchen","municipality":{"key":"09180117","name":"Garmisch-Partenkirchen, M","type":"Markt"},"district":{"key":"09180","name":"Garmisch-Partenkirchen","type":"Landkreis"},"federalState":{"key":"09","name":"Bayern"}},{"name":"Feldstr.","postalCode":"82467","locality":"Garmisch-Partenkirchen","municipality":{"key":"09180117","name":"Garmisch-Partenkirchen, M","type":"Markt"},"district":{"key":"09180","name":"Garmisch-Partenkirchen","type":"Landkreis"},"federalState":{"key":"09","name":"Bayern"}},{"name":"Ferdinand-Barth-Str.","postalCode":"82467","locality":"Garmisch-Partenkirchen","municipality":{"key":"09180117","name":"Garmisch-Partenkirchen, M","type":"Markt"},"district":{"key":"09180","name":"Garmisch-Partenkirchen","type":"Landkreis"},"federalState":{"key":"09","name":"Bayern"}},{"name":"Fichtackerstr.","postalCode":"82467","locality":"Garmisch-Partenkirchen","municipality":{"key":"09180117","name":"Garmisch-Partenkirchen, M","type":"Markt"},"district":{"key":"09180","name":"Garmisch-Partenkirchen","type":"Landkreis"},"federalState":{"key":"09","name":"Bayern"}},{"name":"Finkenstr.","postalCode":"82467","locality":"Garmisch-Partenkirchen","municipality":{"key":"09180117","name":"Garmisch-Partenkirchen, M","type":"Markt"},"district":{"key":"09180","name":"Garmisch-Partenkirchen","type":"Landkreis"},"federalState":{"key":"09","name":"Bayern"}},{"name":"Flurstr.","postalCode":"82467","locality":"Garmisch-Partenkirchen","municipality":{"key":"09180117","name":"Garmisch-Partenkirchen, M","type":"Markt"},"district":{"key":"09180","name":"Garmisch-Partenkirchen","type":"Landkreis"},"federalState":{"key":"09","name":"Bayern"}},{"name":"Föhrenweg","postalCode":"82467","locality":"Garmisch-Partenkirchen","municipality":{"key":"09180117","name":"Garmisch-Partenkirchen, M","type":"Markt"},"district":{"key":"09180","name":"Garmisch-Partenkirchen","type":"Landkreis"},"federalState":{"key":"09","name":"Bayern"}},{"name":"Forstamtweg","postalCode":"82467","locality":"Garmisch-Partenkirchen","municipality":{"key":"09180117","name":"Garmisch-Partenkirchen, M","type":"Markt"},"district":{"key":"09180","name":"Garmisch-Partenkirchen","type":"Landkreis"},"federalState":{"key":"09","name":"Bayern"}},{"name":"Forsterweg","postalCode":"82467","locality":"Garmisch-Partenkirchen","municipality":{"key":"09180117","name":"Garmisch-Partenkirchen, M","type":"Markt"},"district":{"key":"09180","name":"Garmisch-Partenkirchen","type":"Landkreis"},"federalState":{"key":"09","name":"Bayern"}},{"name":"Frauenalpweg","postalCode":"82467","locality":"Garmisch-Partenkirchen","municipality":{"key":"09180117","name":"Garmisch-Partenkirchen, M","type":"Markt"},"district":{"key":"09180","name":"Garmisch-Partenkirchen","type":"Landkreis"},"federalState":{"key":"09","name":"Bayern"}},{"name":"Frickenweg","postalCode":"82467","locality":"Garmisch-Partenkirchen","municipality":{"key":"09180117","name":"Garmisch-Partenkirchen, M","type":"Markt"},"district":{"key":"09180","name":"Garmisch-Partenkirchen","type":"Landkreis"},"federalState":{"key":"09","name":"Bayern"}},{"name":"Friedhofstr.","postalCode":"82467","locality":"Garmisch-Partenkirchen","municipality":{"key":"09180117","name":"Garmisch-Partenkirchen, M","type":"Markt"},"district":{"key":"09180","name":"Garmisch-Partenkirchen","type":"Landkreis"},"federalState":{"key":"09","name":"Bayern"}},{"name":"Frillenseestr.","postalCode":"82467","locality":"Garmisch-Partenkirchen","municipality":{"key":"09180117","name":"Garmisch-Partenkirchen, M","type":"Markt"},"district":{"key":"09180","name":"Garmisch-Partenkirchen","type":"Landkreis"},"federalState":{"key":"09","name":"Bayern"}},{"name":"Fritz-Müller-Str.","postalCode":"82467","locality":"Garmisch-Partenkirchen","municipality":{"key":"09180117","name":"Garmisch-Partenkirchen, M","type":"Markt"},"district":{"key":"09180","name":"Garmisch-Partenkirchen","type":"Landkreis"},"federalState":{"key":"09","name":"Bayern"}},{"name":"Frühlingstr.","postalCode":"82467","locality":"Garmisch-Partenkirchen","municipality":{"key":"09180117","name":"Garmisch-Partenkirchen, M","type":"Markt"},"district":{"key":"09180","name":"Garmisch-Partenkirchen","type":"Landkreis"},"federalState":{"key":"09","name":"Bayern"}},{"name":"Fürstenstr.","postalCode":"82467","locality":"Garmisch-Partenkirchen","municipality":{"key":"09180117","name":"Garmisch-Partenkirchen, M","type":"Markt"},"district":{"key":"09180","name":"Garmisch-Partenkirchen","type":"Landkreis"},"federalState":{"key":"09","name":"Bayern"}},{"name":"Gaifweg","postalCode":"82467","locality":"Garmisch-Partenkirchen","municipality":{"key":"09180117","name":"Garmisch-Partenkirchen, M","type":"Markt"},"district":{"key":"09180","name":"Garmisch-Partenkirchen","type":"Landkreis"},"federalState":{"key":"09","name":"Bayern"}},{"name":"Gamsangerweg","postalCode":"82467","locality":"Garmisch-Partenkirchen","municipality":{"key":"09180117","name":"Garmisch-Partenkirchen, M","type":"Markt"},"district":{"key":"09180","name":"Garmisch-Partenkirchen","type":"Landkreis"},"federalState":{"key":"09","name":"Bayern"}},{"name":"Gänsländerweg","postalCode":"82467","locality":"Garmisch-Partenkirchen","municipality":{"key":"09180117","name":"Garmisch-Partenkirchen, M","type":"Markt"},"district":{"key":"09180","name":"Garmisch-Partenkirchen","type":"Landkreis"},"federalState":{"key":"09","name":"Bayern"}},{"name":"Gartenstr.","postalCode":"82467","locality":"Garmisch-Partenkirchen","municipality":{"key":"09180117","name":"Garmisch-Partenkirchen, M","type":"Markt"},"district":{"key":"09180","name":"Garmisch-Partenkirchen","type":"Landkreis"},"federalState":{"key":"09","name":"Bayern"}},{"name":"Gehfeldstr.","postalCode":"82467","locality":"Garmisch-Partenkirchen","municipality":{"key":"09180117","name":"Garmisch-Partenkirchen, M","type":"Markt"},"district":{"key":"09180","name":"Garmisch-Partenkirchen","type":"Landkreis"},"federalState":{"key":"09","name":"Bayern"}},{"name":"Gelbes Gwänd Steig","postalCode":"82467","locality":"Garmisch-Partenkirchen","municipality":{"key":"09180117","name":"Garmisch-Partenkirchen, M","type":"Markt"},"district":{"key":"09180","name":"Garmisch-Partenkirchen","type":"Landkreis"},"federalState":{"key":"09","name":"Bayern"}},{"name":"Gernackerstr.","postalCode":"82467","locality":"Garmisch-Partenkirchen","municipality":{"key":"09180117","name":"Garmisch-Partenkirchen, M","type":"Markt"},"district":{"key":"09180","name":"Garmisch-Partenkirchen","type":"Landkreis"},"federalState":{"key":"09","name":"Bayern"}},{"name":"Goethestr.","postalCode":"82467","locality":"Garmisch-Partenkirchen","municipality":{"key":"09180117","name":"Garmisch-Partenkirchen, M","type":"Markt"},"district":{"key":"09180","name":"Garmisch-Partenkirchen","type":"Landkreis"},"federalState":{"key":"09","name":"Bayern"}},{"name":"Grainauer Weg","postalCode":"82467","locality":"Garmisch-Partenkirchen","municipality":{"key":"09180117","name":"Garmisch-Partenkirchen, M","type":"Markt"},"district":{"key":"09180","name":"Garmisch-Partenkirchen","type":"Landkreis"},"federalState":{"key":"09","name":"Bayern"}},{"name":"Grasbergstr.","postalCode":"82467","locality":"Garmisch-Partenkirchen","municipality":{"key":"09180117","name":"Garmisch-Partenkirchen, M","type":"Markt"},"district":{"key":"09180","name":"Garmisch-Partenkirchen","type":"Landkreis"},"federalState":{"key":"09","name":"Bayern"}},{"name":"Griesgartenstr.","postalCode":"82467","locality":"Garmisch-Partenkirchen","municipality":{"key":"09180117","name":"Garmisch-Partenkirchen, M","type":"Markt"},"district":{"key":"09180","name":"Garmisch-Partenkirchen","type":"Landkreis"},"federalState":{"key":"09","name":"Bayern"}},{"name":"Griesstr.","postalCode":"82467","locality":"Garmisch-Partenkirchen","municipality":{"key":"09180117","name":"Garmisch-Partenkirchen, M","type":"Markt"},"district":{"key":"09180","name":"Garmisch-Partenkirchen","type":"Landkreis"},"federalState":{"key":"09","name":"Bayern"}},{"name":"Grubenkopfstr.","postalCode":"82467","locality":"Garmisch-Partenkirchen","municipality":{"key":"09180117","name":"Garmisch-Partenkirchen, M","type":"Markt"},"district":{"key":"09180","name":"Garmisch-Partenkirchen","type":"Landkreis"},"federalState":{"key":"09","name":"Bayern"}},{"name":"Grubstr.","postalCode":"82467","locality":"Garmisch-Partenkirchen","municipality":{"key":"09180117","name":"Garmisch-Partenkirchen, M","type":"Markt"},"district":{"key":"09180","name":"Garmisch-Partenkirchen","type":"Landkreis"},"federalState":{"key":"09","name":"Bayern"}},{"name":"Gsteigstr.","postalCode":"82467","locality":"Garmisch-Partenkirchen","municipality":{"key":"09180117","name":"Garmisch-Partenkirchen, M","type":"Markt"},"district":{"key":"09180","name":"Garmisch-Partenkirchen","type":"Landkreis"},"federalState":{"key":"09","name":"Bayern"}},{"name":"Heimgartenweg","postalCode":"82418","locality":"Spatzenhausen","municipality":{"key":"09180133","name":"Spatzenhausen","type":"Kreisangehörige_Gemeinde"},"district":{"key":"09180","name":"Garmisch-Partenkirchen","type":"Landkreis"},"federalState":{"key":"09","name":"Bayern"}},{"name":"Hofheimer Str.","postalCode":"82418","locality":"Spatzenhausen","municipality":{"key":"09180133","name":"Spatzenhausen","type":"Kreisangehörige_Gemeinde"},"district":{"key":"09180","name":"Garmisch-Partenkirchen","type":"Landkreis"},"federalState":{"key":"09","name":"Bayern"}},{"name":"Hofheimer Str.","postalCode":"82447","locality":"Spatzenhausen","municipality":{"key":"09180133","name":"Spatzenhausen","type":"Kreisangehörige_Gemeinde"},"district":{"key":"09180","name":"Garmisch-Partenkirchen","type":"Landkreis"},"federalState":{"key":"09","name":"Bayern"}},{"name":"Im Steingrüschl","postalCode":"82467","locality":"Garmisch-Partenkirchen","municipality":{"key":"09180117","name":"Garmisch-Partenkirchen, M","type":"Markt"},"district":{"key":"09180","name":"Garmisch-Partenkirchen","type":"Landkreis"},"federalState":{"key":"09","name":"Bayern"}},{"name":"Im Weidle","postalCode":"82467","locality":"Garmisch-Partenkirchen","municipality":{"key":"09180117","name":"Garmisch-Partenkirchen, M","type":"Markt"},"district":{"key":"09180","name":"Garmisch-Partenkirchen","type":"Landkreis"},"federalState":{"key":"09","name":"Bayern"}},{"name":"Im Winkl","postalCode":"82467","locality":"Garmisch-Partenkirchen","municipality":{"key":"09180117","name":"Garmisch-Partenkirchen, M","type":"Markt"},"district":{"key":"09180","name":"Garmisch-Partenkirchen","type":"Landkreis"},"federalState":{"key":"09","name":"Bayern"}},{"name":"Innerer Birktalweg","postalCode":"82467","locality":"Garmisch-Partenkirchen","municipality":{"key":"09180117","name":"Garmisch-Partenkirchen, M","type":"Markt"},"district":{"key":"09180","name":"Garmisch-Partenkirchen","type":"Landkreis"},"federalState":{"key":"09","name":"Bayern"}},{"name":"Jahnstr.","postalCode":"82467","locality":"Garmisch-Partenkirchen","municipality":{"key":"09180117","name":"Garmisch-Partenkirchen, M","type":"Markt"},"district":{"key":"09180","name":"Garmisch-Partenkirchen","type":"Landkreis"},"federalState":{"key":"09","name":"Bayern"}},{"name":"Jochstr.","postalCode":"82467","locality":"Garmisch-Partenkirchen","municipality":{"key":"09180117","name":"Garmisch-Partenkirchen, M","type":"Markt"},"district":{"key":"09180","name":"Garmisch-Partenkirchen","type":"Landkreis"},"federalState":{"key":"09","name":"Bayern"}},{"name":"Juchtweg","postalCode":"82467","locality":"Garmisch-Partenkirchen","municipality":{"key":"09180117","name":"Garmisch-Partenkirchen, M","type":"Markt"},"district":{"key":"09180","name":"Garmisch-Partenkirchen","type":"Landkreis"},"federalState":{"key":"09","name":"Bayern"}},{"name":"Jungfernweg","postalCode":"82467","locality":"Garmisch-Partenkirchen","municipality":{"key":"09180117","name":"Garmisch-Partenkirchen, M","type":"Markt"},"district":{"key":"09180","name":"Garmisch-Partenkirchen","type":"Landkreis"},"federalState":{"key":"09","name":"Bayern"}},{"name":"Kirchenstr.","postalCode":"82447","locality":"Spatzenhausen","municipality":{"key":"09180133","name":"Spatzenhausen","type":"Kreisangehörige_Gemeinde"},"district":{"key":"09180","name":"Garmisch-Partenkirchen","type":"Landkreis"},"federalState":{"key":"09","name":"Bayern"}},{"name":"Kirchweg","postalCode":"82418","locality":"Spatzenhausen","municipality":{"key":"09180133","name":"Spatzenhausen","type":"Kreisangehörige_Gemeinde"},"district":{"key":"09180","name":"Garmisch-Partenkirchen","type":"Landkreis"},"federalState":{"key":"09","name":"Bayern"}},{"name":"Lagerhausstr.","postalCode":"82467","locality":"Garmisch-Partenkirchen","municipality":{"key":"09180117","name":"Garmisch-Partenkirchen, M","type":"Markt"},"district":{"key":"09180","name":"Garmisch-Partenkirchen","type":"Landkreis"},"federalState":{"key":"09","name":"Bayern"}},{"name":"Lahnewiesstr.","postalCode":"82467","locality":"Garmisch-Partenkirchen","municipality":{"key":"09180117","name":"Garmisch-Partenkirchen, M","type":"Markt"},"district":{"key":"09180","name":"Garmisch-Partenkirchen","type":"Landkreis"},"federalState":{"key":"09","name":"Bayern"}},{"name":"Längenwangstr.","postalCode":"82467","locality":"Garmisch-Partenkirchen","municipality":{"key":"09180117","name":"Garmisch-Partenkirchen, M","type":"Markt"},"district":{"key":"09180","name":"Garmisch-Partenkirchen","type":"Landkreis"},"federalState":{"key":"09","name":"Bayern"}},{"name":"Lazarettstr.","postalCode":"82467","locality":"Garmisch-Partenkirchen","municipality":{"key":"09180117","name":"Garmisch-Partenkirchen, M","type":"Markt"},"district":{"key":"09180","name":"Garmisch-Partenkirchen","type":"Landkreis"},"federalState":{"key":"09","name":"Bayern"}},{"name":"Leitenfeldstr.","postalCode":"82467","locality":"Garmisch-Partenkirchen","municipality":{"key":"09180117","name":"Garmisch-Partenkirchen, M","type":"Markt"},"district":{"key":"09180","name":"Garmisch-Partenkirchen","type":"Landkreis"},"federalState":{"key":"09","name":"Bayern"}},{"name":"Leitlestr.","postalCode":"82467","locality":"Garmisch-Partenkirchen","municipality":{"key":"09180117","name":"Garmisch-Partenkirchen, M","type":"Markt"},"district":{"key":"09180","name":"Garmisch-Partenkirchen","type":"Landkreis"},"federalState":{"key":"09","name":"Bayern"}},{"name":"Lerchenweg","postalCode":"82467","locality":"Garmisch-Partenkirchen","municipality":{"key":"09180117","name":"Garmisch-Partenkirchen, M","type":"Markt"},"district":{"key":"09180","name":"Garmisch-Partenkirchen","type":"Landkreis"},"federalState":{"key":"09","name":"Bayern"}},{"name":"Loisachstr.","postalCode":"82467","locality":"Garmisch-Partenkirchen","municipality":{"key":"09180117","name":"Garmisch-Partenkirchen, M","type":"Markt"},"district":{"key":"09180","name":"Garmisch-Partenkirchen","type":"Landkreis"},"federalState":{"key":"09","name":"Bayern"}},{"name":"Ludwigstr.","postalCode":"82467","locality":"Garmisch-Partenkirchen","municipality":{"key":"09180117","name":"Garmisch-Partenkirchen, M","type":"Markt"},"district":{"key":"09180","name":"Garmisch-Partenkirchen","type":"Landkreis"},"federalState":{"key":"09","name":"Bayern"}},{"name":"Ludwig-Thoma-Str.","postalCode":"82467","locality":"Garmisch-Partenkirchen","municipality":{"key":"09180117","name":"Garmisch-Partenkirchen, M","type":"Markt"},"district":{"key":"09180","name":"Garmisch-Partenkirchen","type":"Landkreis"},"federalState":{"key":"09","name":"Bayern"}},{"name":"Lüßstr.","postalCode":"82467","locality":"Garmisch-Partenkirchen","municipality":{"key":"09180117","name":"Garmisch-Partenkirchen, M","type":"Markt"},"district":{"key":"09180","name":"Garmisch-Partenkirchen","type":"Landkreis"},"federalState":{"key":"09","name":"Bayern"}},{"name":"Marienplatz","postalCode":"82467","locality":"Garmisch-Partenkirchen","municipality":{"key":"09180117","name":"Garmisch-Partenkirchen, M","type":"Markt"},"district":{"key":"09180","name":"Garmisch-Partenkirchen","type":"Landkreis"},"federalState":{"key":"09","name":"Bayern"}},{"name":"Martin-Luther-Platz","postalCode":"82467","locality":"Garmisch-Partenkirchen","municipality":{"key":"09180117","name":"Garmisch-Partenkirchen, M","type":"Markt"},"district":{"key":"09180","name":"Garmisch-Partenkirchen","type":"Landkreis"},"federalState":{"key":"09","name":"Bayern"}},{"name":"Martinswinkelstr.","postalCode":"82467","locality":"Garmisch-Partenkirchen","municipality":{"key":"09180117","name":"Garmisch-Partenkirchen, M","type":"Markt"},"district":{"key":"09180","name":"Garmisch-Partenkirchen","type":"Landkreis"},"federalState":{"key":"09","name":"Bayern"}},{"name":"Maximilianstr.","postalCode":"82467","locality":"Garmisch-Partenkirchen","municipality":{"key":"09180117","name":"Garmisch-Partenkirchen, M","type":"Markt"},"district":{"key":"09180","name":"Garmisch-Partenkirchen","type":"Landkreis"},"federalState":{"key":"09","name":"Bayern"}},{"name":"Maxstadtstr.","postalCode":"82467","locality":"Garmisch-Partenkirchen","municipality":{"key":"09180117","name":"Garmisch-Partenkirchen, M","type":"Markt"},"district":{"key":"09180","name":"Garmisch-Partenkirchen","type":"Landkreis"},"federalState":{"key":"09","name":"Bayern"}},{"name":"Meisenstr.","postalCode":"82467","locality":"Garmisch-Partenkirchen","municipality":{"key":"09180117","name":"Garmisch-Partenkirchen, M","type":"Markt"},"district":{"key":"09180","name":"Garmisch-Partenkirchen","type":"Landkreis"},"federalState":{"key":"09","name":"Bayern"}},{"name":"Michael Ende Kurpark","postalCode":"82467","locality":"Garmisch-Partenkirchen","municipality":{"key":"09180117","name":"Garmisch-Partenkirchen, M","type":"Markt"},"district":{"key":"09180","name":"Garmisch-Partenkirchen","type":"Landkreis"},"federalState":{"key":"09","name":"Bayern"}},{"name":"Mittenwalder Str.","postalCode":"82467","locality":"Garmisch-Partenkirchen","municipality":{"key":"09180117","name":"Garmisch-Partenkirchen, M","type":"Markt"},"district":{"key":"09180","name":"Garmisch-Partenkirchen","type":"Landkreis"},"federalState":{"key":"09","name":"Bayern"}},{"name":"Mitterfeldstr.","postalCode":"82467","locality":"Garmisch-Partenkirchen","municipality":{"key":"09180117","name":"Garmisch-Partenkirchen, M","type":"Markt"},"district":{"key":"09180","name":"Garmisch-Partenkirchen","type":"Landkreis"},"federalState":{"key":"09","name":"Bayern"}},{"name":"Mohrenplatz","postalCode":"82467","locality":"Garmisch-Partenkirchen","municipality":{"key":"09180117","name":"Garmisch-Partenkirchen, M","type":"Markt"},"district":{"key":"09180","name":"Garmisch-Partenkirchen","type":"Landkreis"},"federalState":{"key":"09","name":"Bayern"}},{"name":"Mühlstr.","postalCode":"82467","locality":"Garmisch-Partenkirchen","municipality":{"key":"09180117","name":"Garmisch-Partenkirchen, M","type":"Markt"},"district":{"key":"09180","name":"Garmisch-Partenkirchen","type":"Landkreis"},"federalState":{"key":"09","name":"Bayern"}},{"name":"Münchner Str.","postalCode":"82467","locality":"Garmisch-Partenkirchen","municipality":{"key":"09180117","name":"Garmisch-Partenkirchen, M","type":"Markt"},"district":{"key":"09180","name":"Garmisch-Partenkirchen","type":"Landkreis"},"federalState":{"key":"09","name":"Bayern"}},{"name":"Mustersteinstr.","postalCode":"82467","locality":"Garmisch-Partenkirchen","municipality":{"key":"09180117","name":"Garmisch-Partenkirchen, M","type":"Markt"},"district":{"key":"09180","name":"Garmisch-Partenkirchen","type":"Landkreis"},"federalState":{"key":"09","name":"Bayern"}},{"name":"Notkarstr.","postalCode":"82467","locality":"Garmisch-Partenkirchen","municipality":{"key":"09180117","name":"Garmisch-Partenkirchen, M","type":"Markt"},"district":{"key":"09180","name":"Garmisch-Partenkirchen","type":"Landkreis"},"federalState":{"key":"09","name":"Bayern"}},{"name":"Olympiastr.","postalCode":"82447","locality":"Spatzenhausen","municipality":{"key":"09180133","name":"Spatzenhausen","type":"Kreisangehörige_Gemeinde"},"district":{"key":"09180","name":"Garmisch-Partenkirchen","type":"Landkreis"},"federalState":{"key":"09","name":"Bayern"}},{"name":"Pfaffangerweg","postalCode":"82418","locality":"Spatzenhausen","municipality":{"key":"09180133","name":"Spatzenhausen","type":"Kreisangehörige_Gemeinde"},"district":{"key":"09180","name":"Garmisch-Partenkirchen","type":"Landkreis"},"federalState":{"key":"09","name":"Bayern"}},{"name":"Pullachstr.","postalCode":"82447","locality":"Spatzenhausen","municipality":{"key":"09180133","name":"Spatzenhausen","type":"Kreisangehörige_Gemeinde"},"district":{"key":"09180","name":"Garmisch-Partenkirchen","type":"Landkreis"},"federalState":{"key":"09","name":"Bayern"}},{"name":"Rathausplatz","postalCode":"82467","locality":"Garmisch-Partenkirchen","municipality":{"key":"09180117","name":"Garmisch-Partenkirchen, M","type":"Markt"},"district":{"key":"09180","name":"Garmisch-Partenkirchen","type":"Landkreis"},"federalState":{"key":"09","name":"Bayern"}},{"name":"Rathausstr.","postalCode":"82467","locality":"Garmisch-Partenkirchen","municipality":{"key":"09180117","name":"Garmisch-Partenkirchen, M","type":"Markt"},"district":{"key":"09180","name":"Garmisch-Partenkirchen","type":"Landkreis"},"federalState":{"key":"09","name":"Bayern"}},{"name":"Reintalstr.","postalCode":"82467","locality":"Garmisch-Partenkirchen","municipality":{"key":"09180117","name":"Garmisch-Partenkirchen, M","type":"Markt"},"district":{"key":"09180","name":"Garmisch-Partenkirchen","type":"Landkreis"},"federalState":{"key":"09","name":"Bayern"}},{"name":"Reitleweg","postalCode":"82467","locality":"Garmisch-Partenkirchen","municipality":{"key":"09180117","name":"Garmisch-Partenkirchen, M","type":"Markt"},"district":{"key":"09180","name":"Garmisch-Partenkirchen","type":"Landkreis"},"federalState":{"key":"09","name":"Bayern"}},{"name":"Reschbergweg","postalCode":"82467","locality":"Garmisch-Partenkirchen","municipality":{"key":"09180117","name":"Garmisch-Partenkirchen, M","type":"Markt"},"district":{"key":"09180","name":"Garmisch-Partenkirchen","type":"Landkreis"},"federalState":{"key":"09","name":"Bayern"}},{"name":"Riedweg","postalCode":"82467","locality":"Garmisch-Partenkirchen","municipality":{"key":"09180117","name":"Garmisch-Partenkirchen, M","type":"Markt"},"district":{"key":"09180","name":"Garmisch-Partenkirchen","type":"Landkreis"},"federalState":{"key":"09","name":"Bayern"}},{"name":"Riedwiesenstr.","postalCode":"82467","locality":"Garmisch-Partenkirchen","municipality":{"key":"09180117","name":"Garmisch-Partenkirchen, M","type":"Markt"},"district":{"key":"09180","name":"Garmisch-Partenkirchen","type":"Landkreis"},"federalState":{"key":"09","name":"Bayern"}},{"name":"Rießackerstr.","postalCode":"82467","locality":"Garmisch-Partenkirchen","municipality":{"key":"09180117","name":"Garmisch-Partenkirchen, M","type":"Markt"},"district":{"key":"09180","name":"Garmisch-Partenkirchen","type":"Landkreis"},"federalState":{"key":"09","name":"Bayern"}},{"name":"Rießerkopfstr.","postalCode":"82467","locality":"Garmisch-Partenkirchen","municipality":{"key":"09180117","name":"Garmisch-Partenkirchen, M","type":"Markt"},"district":{"key":"09180","name":"Garmisch-Partenkirchen","type":"Landkreis"},"federalState":{"key":"09","name":"Bayern"}},{"name":"Rießerseefußweg","postalCode":"82467","locality":"Garmisch-Partenkirchen","municipality":{"key":"09180117","name":"Garmisch-Partenkirchen, M","type":"Markt"},"district":{"key":"09180","name":"Garmisch-Partenkirchen","type":"Landkreis"},"federalState":{"key":"09","name":"Bayern"}},{"name":"Rießersee Fußweg","postalCode":"82467","locality":"Garmisch-Partenkirchen","municipality":{"key":"09180117","name":"Garmisch-Partenkirchen, M","type":"Markt"},"district":{"key":"09180","name":"Garmisch-Partenkirchen","type":"Landkreis"},"federalState":{"key":"09","name":"Bayern"}},{"name":"Rießerseestr.","postalCode":"82467","locality":"Garmisch-Partenkirchen","municipality":{"key":"09180117","name":"Garmisch-Partenkirchen, M","type":"Markt"},"district":{"key":"09180","name":"Garmisch-Partenkirchen","type":"Landkreis"},"federalState":{"key":"09","name":"Bayern"}},{"name":"Riffelstr.","postalCode":"82467","locality":"Garmisch-Partenkirchen","municipality":{"key":"09180117","name":"Garmisch-Partenkirchen, M","type":"Markt"},"district":{"key":"09180","name":"Garmisch-Partenkirchen","type":"Landkreis"},"federalState":{"key":"09","name":"Bayern"}},{"name":"Römerstr.","postalCode":"82467","locality":"Garmisch-Partenkirchen","municipality":{"key":"09180117","name":"Garmisch-Partenkirchen, M","type":"Markt"},"district":{"key":"09180","name":"Garmisch-Partenkirchen","type":"Landkreis"},"federalState":{"key":"09","name":"Bayern"}},{"name":"Roßalmweg","postalCode":"82467","locality":"Garmisch-Partenkirchen","municipality":{"key":"09180117","name":"Garmisch-Partenkirchen, M","type":"Markt"},"district":{"key":"09180","name":"Garmisch-Partenkirchen","type":"Landkreis"},"federalState":{"key":"09","name":"Bayern"}},{"name":"Samweberstr.","postalCode":"82467","locality":"Garmisch-Partenkirchen","municipality":{"key":"09180117","name":"Garmisch-Partenkirchen, M","type":"Markt"},"district":{"key":"09180","name":"Garmisch-Partenkirchen","type":"Landkreis"},"federalState":{"key":"09","name":"Bayern"}},{"name":"Sankt-Anton-Str.","postalCode":"82467","locality":"Garmisch-Partenkirchen","municipality":{"key":"09180117","name":"Garmisch-Partenkirchen, M","type":"Markt"},"district":{"key":"09180","name":"Garmisch-Partenkirchen","type":"Landkreis"},"federalState":{"key":"09","name":"Bayern"}},{"name":"Sankt-Martin-Str.","postalCode":"82467","locality":"Garmisch-Partenkirchen","municipality":{"key":"09180117","name":"Garmisch-Partenkirchen, M","type":"Markt"},"district":{"key":"09180","name":"Garmisch-Partenkirchen","type":"Landkreis"},"federalState":{"key":"09","name":"Bayern"}},{"name":"Schachenstr.","postalCode":"82467","locality":"Garmisch-Partenkirchen","municipality":{"key":"09180117","name":"Garmisch-Partenkirchen, M","type":"Markt"},"district":{"key":"09180","name":"Garmisch-Partenkirchen","type":"Landkreis"},"federalState":{"key":"09","name":"Bayern"}},{"name":"Schalmeiweg","postalCode":"82467","locality":"Garmisch-Partenkirchen","municipality":{"key":"09180117","name":"Garmisch-Partenkirchen, M","type":"Markt"},"district":{"key":"09180","name":"Garmisch-Partenkirchen","type":"Landkreis"},"federalState":{"key":"09","name":"Bayern"}},{"name":"Schillerstr.","postalCode":"82467","locality":"Garmisch-Partenkirchen","municipality":{"key":"09180117","name":"Garmisch-Partenkirchen, M","type":"Markt"},"district":{"key":"09180","name":"Garmisch-Partenkirchen","type":"Landkreis"},"federalState":{"key":"09","name":"Bayern"}},{"name":"Schloßangerstr.","postalCode":"82467","locality":"Garmisch-Partenkirchen","municipality":{"key":"09180117","name":"Garmisch-Partenkirchen, M","type":"Markt"},"district":{"key":"09180","name":"Garmisch-Partenkirchen","type":"Landkreis"},"federalState":{"key":"09","name":"Bayern"}},{"name":"Schloßwaldstr.","postalCode":"82467","locality":"Garmisch-Partenkirchen","municipality":{"key":"09180117","name":"Garmisch-Partenkirchen, M","type":"Markt"},"district":{"key":"09180","name":"Garmisch-Partenkirchen","type":"Landkreis"},"federalState":{"key":"09","name":"Bayern"}},{"name":"Schloßweg","postalCode":"82467","locality":"Garmisch-Partenkirchen","municipality":{"key":"09180117","name":"Garmisch-Partenkirchen, M","type":"Markt"},"district":{"key":"09180","name":"Garmisch-Partenkirchen","type":"Landkreis"},"federalState":{"key":"09","name":"Bayern"}},{"name":"Schmalenau","postalCode":"82467","locality":"Garmisch-Partenkirchen","municipality":{"key":"09180117","name":"Garmisch-Partenkirchen, M","type":"Markt"},"district":{"key":"09180","name":"Garmisch-Partenkirchen","type":"Landkreis"},"federalState":{"key":"09","name":"Bayern"}},{"name":"Schmiedstr.","postalCode":"82467","locality":"Garmisch-Partenkirchen","municipality":{"key":"09180117","name":"Garmisch-Partenkirchen, M","type":"Markt"},"district":{"key":"09180","name":"Garmisch-Partenkirchen","type":"Landkreis"},"federalState":{"key":"09","name":"Bayern"}},{"name":"Schnitzschulstr.","postalCode":"82467","locality":"Garmisch-Partenkirchen","municipality":{"key":"09180117","name":"Garmisch-Partenkirchen, M","type":"Markt"},"district":{"key":"09180","name":"Garmisch-Partenkirchen","type":"Landkreis"},"federalState":{"key":"09","name":"Bayern"}},{"name":"Schönaustr.","postalCode":"82467","locality":"Garmisch-Partenkirchen","municipality":{"key":"09180117","name":"Garmisch-Partenkirchen, M","type":"Markt"},"district":{"key":"09180","name":"Garmisch-Partenkirchen","type":"Landkreis"},"federalState":{"key":"09","name":"Bayern"}},{"name":"Schönbergstr.","postalCode":"82467","locality":"Garmisch-Partenkirchen","municipality":{"key":"09180117","name":"Garmisch-Partenkirchen, M","type":"Markt"},"district":{"key":"09180","name":"Garmisch-Partenkirchen","type":"Landkreis"},"federalState":{"key":"09","name":"Bayern"}},{"name":"Schornstr.","postalCode":"82467","locality":"Garmisch-Partenkirchen","municipality":{"key":"09180117","name":"Garmisch-Partenkirchen, M","type":"Markt"},"district":{"key":"09180","name":"Garmisch-Partenkirchen","type":"Landkreis"},"federalState":{"key":"09","name":"Bayern"}},{"name":"Schulstr.","postalCode":"82467","locality":"Garmisch-Partenkirchen","municipality":{"key":"09180117","name":"Garmisch-Partenkirchen, M","type":"Markt"},"district":{"key":"09180","name":"Garmisch-Partenkirchen","type":"Landkreis"},"federalState":{"key":"09","name":"Bayern"}},{"name":"Schußangerweg","postalCode":"82467","locality":"Garmisch-Partenkirchen","municipality":{"key":"09180117","name":"Garmisch-Partenkirchen, M","type":"Markt"},"district":{"key":"09180","name":"Garmisch-Partenkirchen","type":"Landkreis"},"federalState":{"key":"09","name":"Bayern"}},{"name":"Schüsselkarweg","postalCode":"82467","locality":"Garmisch-Partenkirchen","municipality":{"key":"09180117","name":"Garmisch-Partenkirchen, M","type":"Markt"},"district":{"key":"09180","name":"Garmisch-Partenkirchen","type":"Landkreis"},"federalState":{"key":"09","name":"Bayern"}},{"name":"Schützensteig","postalCode":"82467","locality":"Garmisch-Partenkirchen","municipality":{"key":"09180117","name":"Garmisch-Partenkirchen, M","type":"Markt"},"district":{"key":"09180","name":"Garmisch-Partenkirchen","type":"Landkreis"},"federalState":{"key":"09","name":"Bayern"}},{"name":"Schützenstr.","postalCode":"82467","locality":"Garmisch-Partenkirchen","municipality":{"key":"09180117","name":"Garmisch-Partenkirchen, M","type":"Markt"},"district":{"key":"09180","name":"Garmisch-Partenkirchen","type":"Landkreis"},"federalState":{"key":"09","name":"Bayern"}},{"name":"Schwalbenstr.","postalCode":"82467","locality":"Garmisch-Partenkirchen","municipality":{"key":"09180117","name":"Garmisch-Partenkirchen, M","type":"Markt"},"district":{"key":"09180","name":"Garmisch-Partenkirchen","type":"Landkreis"},"federalState":{"key":"09","name":"Bayern"}},{"name":"Schwarzenkopfweg","postalCode":"82467","locality":"Garmisch-Partenkirchen","municipality":{"key":"09180117","name":"Garmisch-Partenkirchen, M","type":"Markt"},"district":{"key":"09180","name":"Garmisch-Partenkirchen","type":"Landkreis"},"federalState":{"key":"09","name":"Bayern"}},{"name":"Silberackerstr.","postalCode":"82467","locality":"Garmisch-Partenkirchen","municipality":{"key":"09180117","name":"Garmisch-Partenkirchen, M","type":"Markt"},"district":{"key":"09180","name":"Garmisch-Partenkirchen","type":"Landkreis"},"federalState":{"key":"09","name":"Bayern"}},{"name":"Soiernweg","postalCode":"82467","locality":"Garmisch-Partenkirchen","municipality":{"key":"09180117","name":"Garmisch-Partenkirchen, M","type":"Markt"},"district":{"key":"09180","name":"Garmisch-Partenkirchen","type":"Landkreis"},"federalState":{"key":"09","name":"Bayern"}},{"name":"Sonnenbergstr.","postalCode":"82467","locality":"Garmisch-Partenkirchen","municipality":{"key":"09180117","name":"Garmisch-Partenkirchen, M","type":"Markt"},"district":{"key":"09180","name":"Garmisch-Partenkirchen","type":"Landkreis"},"federalState":{"key":"09","name":"Bayern"}},{"name":"Sonnenstr.","postalCode":"82467","locality":"Garmisch-Partenkirchen","municipality":{"key":"09180117","name":"Garmisch-Partenkirchen, M","type":"Markt"},"district":{"key":"09180","name":"Garmisch-Partenkirchen","type":"Landkreis"},"federalState":{"key":"09","name":"Bayern"}},{"name":"Stegerwaldstr.","postalCode":"82467","locality":"Garmisch-Partenkirchen","municipality":{"key":"09180117","name":"Garmisch-Partenkirchen, M","type":"Markt"},"district":{"key":"09180","name":"Garmisch-Partenkirchen","type":"Landkreis"},"federalState":{"key":"09","name":"Bayern"}},{"name":"Steigfeldstr.","postalCode":"82467","locality":"Garmisch-Partenkirchen","municipality":{"key":"09180117","name":"Garmisch-Partenkirchen, M","type":"Markt"},"district":{"key":"09180","name":"Garmisch-Partenkirchen","type":"Landkreis"},"federalState":{"key":"09","name":"Bayern"}},{"name":"Stiefelfeld Fußweg","postalCode":"82467","locality":"Garmisch-Partenkirchen","municipality":{"key":"09180117","name":"Garmisch-Partenkirchen, M","type":"Markt"},"district":{"key":"09180","name":"Garmisch-Partenkirchen","type":"Landkreis"},"federalState":{"key":"09","name":"Bayern"}},{"name":"Storistr.","postalCode":"82467","locality":"Garmisch-Partenkirchen","municipality":{"key":"09180117","name":"Garmisch-Partenkirchen, M","type":"Markt"},"district":{"key":"09180","name":"Garmisch-Partenkirchen","type":"Landkreis"},"federalState":{"key":"09","name":"Bayern"}},{"name":"Stuibenweg","postalCode":"82467","locality":"Garmisch-Partenkirchen","municipality":{"key":"09180117","name":"Garmisch-Partenkirchen, M","type":"Markt"},"district":{"key":"09180","name":"Garmisch-Partenkirchen","type":"Landkreis"},"federalState":{"key":"09","name":"Bayern"}},{"name":"Talackerstr.","postalCode":"82467","locality":"Garmisch-Partenkirchen","municipality":{"key":"09180117","name":"Garmisch-Partenkirchen, M","type":"Markt"},"district":{"key":"09180","name":"Garmisch-Partenkirchen","type":"Landkreis"},"federalState":{"key":"09","name":"Bayern"}},{"name":"Tegernauweg","postalCode":"82467","locality":"Garmisch-Partenkirchen","municipality":{"key":"09180117","name":"Garmisch-Partenkirchen, M","type":"Markt"},"district":{"key":"09180","name":"Garmisch-Partenkirchen","type":"Landkreis"},"federalState":{"key":"09","name":"Bayern"}},{"name":"Thomas-Knorr-Str.","postalCode":"82467","locality":"Garmisch-Partenkirchen","municipality":{"key":"09180117","name":"Garmisch-Partenkirchen, M","type":"Markt"},"district":{"key":"09180","name":"Garmisch-Partenkirchen","type":"Landkreis"},"federalState":{"key":"09","name":"Bayern"}},{"name":"Törlenstr.","postalCode":"82467","locality":"Garmisch-Partenkirchen","municipality":{"key":"09180117","name":"Garmisch-Partenkirchen, M","type":"Markt"},"district":{"key":"09180","name":"Garmisch-Partenkirchen","type":"Landkreis"},"federalState":{"key":"09","name":"Bayern"}},{"name":"Triftstr.","postalCode":"82467","locality":"Garmisch-Partenkirchen","municipality":{"key":"09180117","name":"Garmisch-Partenkirchen, M","type":"Markt"},"district":{"key":"09180","name":"Garmisch-Partenkirchen","type":"Landkreis"},"federalState":{"key":"09","name":"Bayern"}},{"name":"Turmackerstr.","postalCode":"82467","locality":"Garmisch-Partenkirchen","municipality":{"key":"09180117","name":"Garmisch-Partenkirchen, M","type":"Markt"},"district":{"key":"09180","name":"Garmisch-Partenkirchen","type":"Landkreis"},"federalState":{"key":"09","name":"Bayern"}},{"name":"Unterfeldstr.","postalCode":"82467","locality":"Garmisch-Partenkirchen","municipality":{"key":"09180117","name":"Garmisch-Partenkirchen, M","type":"Markt"},"district":{"key":"09180","name":"Garmisch-Partenkirchen","type":"Landkreis"},"federalState":{"key":"09","name":"Bayern"}},{"name":"Von-Brug-Str.","postalCode":"82467","locality":"Garmisch-Partenkirchen","municipality":{"key":"09180117","name":"Garmisch-Partenkirchen, M","type":"Markt"},"district":{"key":"09180","name":"Garmisch-Partenkirchen","type":"Landkreis"},"federalState":{"key":"09","name":"Bayern"}},{"name":"Von-Defregger-Str.","postalCode":"82467","locality":"Garmisch-Partenkirchen","municipality":{"key":"09180117","name":"Garmisch-Partenkirchen, M","type":"Markt"},"district":{"key":"09180","name":"Garmisch-Partenkirchen","type":"Landkreis"},"federalState":{"key":"09","name":"Bayern"}},{"name":"Von-Kobell-Str.","postalCode":"82467","locality":"Garmisch-Partenkirchen","municipality":{"key":"09180117","name":"Garmisch-Partenkirchen, M","type":"Markt"},"district":{"key":"09180","name":"Garmisch-Partenkirchen","type":"Landkreis"},"federalState":{"key":"09","name":"Bayern"}},{"name":"Von-Müller-Str.","postalCode":"82467","locality":"Garmisch-Partenkirchen","municipality":{"key":"09180117","name":"Garmisch-Partenkirchen, M","type":"Markt"},"district":{"key":"09180","name":"Garmisch-Partenkirchen","type":"Landkreis"},"federalState":{"key":"09","name":"Bayern"}},{"name":"Waltersberg","postalCode":"82447","locality":"Spatzenhausen","municipality":{"key":"09180133","name":"Spatzenhausen","type":"Kreisangehörige_Gemeinde"},"district":{"key":"09180","name":"Garmisch-Partenkirchen","type":"Landkreis"},"federalState":{"key":"09","name":"Bayern"}},{"name":"Waltersberger Str.","postalCode":"82418","locality":"Spatzenhausen","municipality":{"key":"09180133","name":"Spatzenhausen","type":"Kreisangehörige_Gemeinde"},"district":{"key":"09180","name":"Garmisch-Partenkirchen","type":"Landkreis"},"federalState":{"key":"09","name":"Bayern"}},{"name":"Wettersteinstr.","postalCode":"82418","locality":"Spatzenhausen","municipality":{"key":"09180133","name":"Spatzenhausen","type":"Kreisangehörige_Gemeinde"},"district":{"key":"09180","name":"Garmisch-Partenkirchen","type":"Landkreis"},"federalState":{"key":"09","name":"Bayern"}},{"name":"Zugspitzstr.","postalCode":"82418","locality":"Spatzenhausen","municipality":{"key":"09180133","name":"Spatzenhausen","type":"Kreisangehörige_Gemeinde"},"district":{"key":"09180","name":"Garmisch-Partenkirchen","type":"Landkreis"},"federalState":{"key":"09","name":"Bayern"}},{"name":"Äußere Maximilianstr.","postalCode":"82467","locality":"Garmisch-Partenkirchen","municipality":{"key":"09180117","name":"Garmisch-Partenkirchen, M","type":"Markt"},"district":{"key":"09180","name":"Garmisch-Partenkirchen","type":"Landkreis"},"federalState":{"key":"09","name":"Bayern"}},{"name":"Öfele","postalCode":"82467","locality":"Garmisch-Partenkirchen","municipality":{"key":"09180117","name":"Garmisch-Partenkirchen, M","type":"Markt"},"district":{"key":"09180","name":"Garmisch-Partenkirchen","type":"Landkreis"},"federalState":{"key":"09","name":"Bayern"}},]