[{"key":"16076003","name":"Bad Köstritz, Stadt","type":"Stadt","postalCode":"07586","multiplePostalCodes":false,"association":{"key":"16076","name":"Bad Köstritz, Stadt","type":"Erfüllende_Gemeinde"},"district":{"key":"16076","name":"Greiz","type":"Landkreis"},"federalState":{"key":"16","name":"Thüringen"}},{"key":"16076004","name":"Berga/Elster, Stadt","type":"Stadt","postalCode":"07980","multiplePostalCodes":false,"association":{"key":"16076","name":"Berga/Elster, Stadt","type":"Verbandsfreie_Gemeinde"},"district":{"key":"16076","name":"Greiz","type":"Landkreis"},"federalState":{"key":"16","name":"Thüringen"}},{"key":"16076006","name":"Bethenhausen","type":"Kreisangehörige_Gemeinde","postalCode":"07554","multiplePostalCodes":true,"association":{"key":"16076","name":"Am Brahmetal","type":"Verwaltungsgemeinschaft"},"district":{"key":"16076","name":"Greiz","type":"Landkreis"},"federalState":{"key":"16","name":"Thüringen"}},{"key":"16076007","name":"Bocka","type":"Kreisangehörige_Gemeinde","postalCode":"07589","multiplePostalCodes":false,"association":{"key":"16076","name":"Münchenbernsdorf","type":"Verwaltungsgemeinschaft"},"district":{"key":"16076","name":"Greiz","type":"Landkreis"},"federalState":{"key":"16","name":"Thüringen"}},{"key":"16076008","name":"Brahmenau","type":"Kreisangehörige_Gemeinde","postalCode":"07554","multiplePostalCodes":true,"association":{"key":"16076","name":"Am Brahmetal","type":"Verwaltungsgemeinschaft"},"district":{"key":"16076","name":"Greiz","type":"Landkreis"},"federalState":{"key":"16","name":"Thüringen"}},{"key":"16076009","name":"Braunichswalde","type":"Kreisangehörige_Gemeinde","postalCode":"07580","multiplePostalCodes":true,"association":{"key":"16076","name":"Wünschendorf/Elster","type":"Verwaltungsgemeinschaft"},"district":{"key":"16076","name":"Greiz","type":"Landkreis"},"federalState":{"key":"16","name":"Thüringen"}},{"key":"16076012","name":"Caaschwitz","type":"Kreisangehörige_Gemeinde","postalCode":"07586","multiplePostalCodes":false,"association":{"key":"16076","name":"Bad Köstritz, Stadt","type":"Erfüllende_Gemeinde"},"district":{"key":"16076","name":"Greiz","type":"Landkreis"},"federalState":{"key":"16","name":"Thüringen"}},{"key":"16076014","name":"Crimla","type":"Kreisangehörige_Gemeinde","postalCode":"07557","multiplePostalCodes":true,"association":{"key":"16076","name":"Weida, Stadt","type":"Erfüllende_Gemeinde"},"district":{"key":"16076","name":"Greiz","type":"Landkreis"},"federalState":{"key":"16","name":"Thüringen"}},{"key":"16076017","name":"Endschütz","type":"Kreisangehörige_Gemeinde","postalCode":"07570","multiplePostalCodes":false,"association":{"key":"16076","name":"Wünschendorf/Elster","type":"Verwaltungsgemeinschaft"},"district":{"key":"16076","name":"Greiz","type":"Landkreis"},"federalState":{"key":"16","name":"Thüringen"}},{"key":"16076019","name":"Gauern","type":"Kreisangehörige_Gemeinde","postalCode":"07580","multiplePostalCodes":true,"association":{"key":"16076","name":"Wünschendorf/Elster","type":"Verwaltungsgemeinschaft"},"district":{"key":"16076","name":"Greiz","type":"Landkreis"},"federalState":{"key":"16","name":"Thüringen"}},{"key":"16076022","name":"Greiz, Stadt","type":"Stadt","postalCode":"07973","multiplePostalCodes":false,"association":{"key":"16076","name":"Greiz, Stadt","type":"Verbandsfreie_Gemeinde"},"district":{"key":"16076","name":"Greiz","type":"Landkreis"},"federalState":{"key":"16","name":"Thüringen"}},{"key":"16076023","name":"Großenstein","type":"Kreisangehörige_Gemeinde","postalCode":"07580","multiplePostalCodes":false,"association":{"key":"16076","name":"Am Brahmetal","type":"Verwaltungsgemeinschaft"},"district":{"key":"16076","name":"Greiz","type":"Landkreis"},"federalState":{"key":"16","name":"Thüringen"}},{"key":"16076026","name":"Hartmannsdorf","type":"Kreisangehörige_Gemeinde","postalCode":"07586","multiplePostalCodes":false,"association":{"key":"16076","name":"Bad Köstritz, Stadt","type":"Erfüllende_Gemeinde"},"district":{"key":"16076","name":"Greiz","type":"Landkreis"},"federalState":{"key":"16","name":"Thüringen"}},{"key":"16076027","name":"Hilbersdorf","type":"Kreisangehörige_Gemeinde","postalCode":"07580","multiplePostalCodes":true,"association":{"key":"16076","name":"Wünschendorf/Elster","type":"Verwaltungsgemeinschaft"},"district":{"key":"16076","name":"Greiz","type":"Landkreis"},"federalState":{"key":"16","name":"Thüringen"}},{"key":"16076028","name":"Hirschfeld","type":"Kreisangehörige_Gemeinde","postalCode":"07554","multiplePostalCodes":true,"association":{"key":"16076","name":"Am Brahmetal","type":"Verwaltungsgemeinschaft"},"district":{"key":"16076","name":"Greiz","type":"Landkreis"},"federalState":{"key":"16","name":"Thüringen"}},{"key":"16076029","name":"Hohenleuben, Stadt","type":"Stadt","postalCode":"07958","multiplePostalCodes":true,"association":{"key":"16076","name":"Langenwetzendorf","type":"Erfüllende_Gemeinde"},"district":{"key":"16076","name":"Greiz","type":"Landkreis"},"federalState":{"key":"16","name":"Thüringen"}},{"key":"16076033","name":"Hundhaupten","type":"Kreisangehörige_Gemeinde","postalCode":"07557","multiplePostalCodes":true,"association":{"key":"16076","name":"Münchenbernsdorf","type":"Verwaltungsgemeinschaft"},"district":{"key":"16076","name":"Greiz","type":"Landkreis"},"federalState":{"key":"16","name":"Thüringen"}},{"key":"16076034","name":"Kauern","type":"Kreisangehörige_Gemeinde","postalCode":"07554","multiplePostalCodes":true,"association":{"key":"16076","name":"Wünschendorf/Elster","type":"Verwaltungsgemeinschaft"},"district":{"key":"16076","name":"Greiz","type":"Landkreis"},"federalState":{"key":"16","name":"Thüringen"}},{"key":"16076036","name":"Korbußen","type":"Kreisangehörige_Gemeinde","postalCode":"07554","multiplePostalCodes":true,"association":{"key":"16076","name":"Am Brahmetal","type":"Verwaltungsgemeinschaft"},"district":{"key":"16076","name":"Greiz","type":"Landkreis"},"federalState":{"key":"16","name":"Thüringen"}},{"key":"16076038","name":"Kühdorf","type":"Kreisangehörige_Gemeinde","postalCode":"07980","multiplePostalCodes":true,"association":{"key":"16076","name":"Langenwetzendorf","type":"Erfüllende_Gemeinde"},"district":{"key":"16076","name":"Greiz","type":"Landkreis"},"federalState":{"key":"16","name":"Thüringen"}},{"key":"16076039","name":"Langenwetzendorf","type":"Kreisangehörige_Gemeinde","postalCode":"07957","multiplePostalCodes":false,"association":{"key":"16076","name":"Langenwetzendorf","type":"Erfüllende_Gemeinde"},"district":{"key":"16076","name":"Greiz","type":"Landkreis"},"federalState":{"key":"16","name":"Thüringen"}},{"key":"16076041","name":"Langenwolschendorf","type":"Kreisangehörige_Gemeinde","postalCode":"07937","multiplePostalCodes":false,"association":{"key":"16076","name":"Zeulenroda-Triebes, Stadt","type":"Erfüllende_Gemeinde"},"district":{"key":"16076","name":"Greiz","type":"Landkreis"},"federalState":{"key":"16","name":"Thüringen"}},{"key":"16076042","name":"Lederhose","type":"Kreisangehörige_Gemeinde","postalCode":"07589","multiplePostalCodes":false,"association":{"key":"16076","name":"Münchenbernsdorf","type":"Verwaltungsgemeinschaft"},"district":{"key":"16076","name":"Greiz","type":"Landkreis"},"federalState":{"key":"16","name":"Thüringen"}},{"key":"16076043","name":"Linda b. Weida","type":"Kreisangehörige_Gemeinde","postalCode":"07580","multiplePostalCodes":true,"association":{"key":"16076","name":"Wünschendorf/Elster","type":"Verwaltungsgemeinschaft"},"district":{"key":"16076","name":"Greiz","type":"Landkreis"},"federalState":{"key":"16","name":"Thüringen"}},{"key":"16076044","name":"Lindenkreuz","type":"Kreisangehörige_Gemeinde","postalCode":"07589","multiplePostalCodes":false,"association":{"key":"16076","name":"Münchenbernsdorf","type":"Verwaltungsgemeinschaft"},"district":{"key":"16076","name":"Greiz","type":"Landkreis"},"federalState":{"key":"16","name":"Thüringen"}},{"key":"16076049","name":"Münchenbernsdorf, Stadt","type":"Stadt","postalCode":"07589","multiplePostalCodes":false,"association":{"key":"16076","name":"Münchenbernsdorf","type":"Verwaltungsgemeinschaft"},"district":{"key":"16076","name":"Greiz","type":"Landkreis"},"federalState":{"key":"16","name":"Thüringen"}},{"key":"16076055","name":"Paitzdorf","type":"Kreisangehörige_Gemeinde","postalCode":"07580","multiplePostalCodes":true,"association":{"key":"16076","name":"Wünschendorf/Elster","type":"Verwaltungsgemeinschaft"},"district":{"key":"16076","name":"Greiz","type":"Landkreis"},"federalState":{"key":"16","name":"Thüringen"}},{"key":"16076058","name":"Pölzig","type":"Kreisangehörige_Gemeinde","postalCode":"07554","multiplePostalCodes":true,"association":{"key":"16076","name":"Am Brahmetal","type":"Verwaltungsgemeinschaft"},"district":{"key":"16076","name":"Greiz","type":"Landkreis"},"federalState":{"key":"16","name":"Thüringen"}},{"key":"16076059","name":"Reichstädt","type":"Kreisangehörige_Gemeinde","postalCode":"07580","multiplePostalCodes":false,"association":{"key":"16076","name":"Am Brahmetal","type":"Verwaltungsgemeinschaft"},"district":{"key":"16076","name":"Greiz","type":"Landkreis"},"federalState":{"key":"16","name":"Thüringen"}},{"key":"16076061","name":"Ronneburg, Stadt","type":"Stadt","postalCode":"07580","multiplePostalCodes":false,"association":{"key":"16076","name":"Ronneburg, Stadt","type":"Verbandsfreie_Gemeinde"},"district":{"key":"16076","name":"Greiz","type":"Landkreis"},"federalState":{"key":"16","name":"Thüringen"}},{"key":"16076062","name":"Rückersdorf","type":"Kreisangehörige_Gemeinde","postalCode":"07580","multiplePostalCodes":true,"association":{"key":"16076","name":"Wünschendorf/Elster","type":"Verwaltungsgemeinschaft"},"district":{"key":"16076","name":"Greiz","type":"Landkreis"},"federalState":{"key":"16","name":"Thüringen"}},{"key":"16076064","name":"Saara","type":"Kreisangehörige_Gemeinde","postalCode":"07589","multiplePostalCodes":false,"association":{"key":"16076","name":"Münchenbernsdorf","type":"Verwaltungsgemeinschaft"},"district":{"key":"16076","name":"Greiz","type":"Landkreis"},"federalState":{"key":"16","name":"Thüringen"}},{"key":"16076067","name":"Schwaara","type":"Kreisangehörige_Gemeinde","postalCode":"07554","multiplePostalCodes":true,"association":{"key":"16076","name":"Am Brahmetal","type":"Verwaltungsgemeinschaft"},"district":{"key":"16076","name":"Greiz","type":"Landkreis"},"federalState":{"key":"16","name":"Thüringen"}},{"key":"16076068","name":"Schwarzbach","type":"Kreisangehörige_Gemeinde","postalCode":"07589","multiplePostalCodes":false,"association":{"key":"16076","name":"Münchenbernsdorf","type":"Verwaltungsgemeinschaft"},"district":{"key":"16076","name":"Greiz","type":"Landkreis"},"federalState":{"key":"16","name":"Thüringen"}},{"key":"16076069","name":"Seelingstädt","type":"Kreisangehörige_Gemeinde","postalCode":"07580","multiplePostalCodes":true,"association":{"key":"16076","name":"Wünschendorf/Elster","type":"Verwaltungsgemeinschaft"},"district":{"key":"16076","name":"Greiz","type":"Landkreis"},"federalState":{"key":"16","name":"Thüringen"}},{"key":"16076074","name":"Teichwitz","type":"Kreisangehörige_Gemeinde","postalCode":"07570","multiplePostalCodes":false,"association":{"key":"16076","name":"Wünschendorf/Elster","type":"Verwaltungsgemeinschaft"},"district":{"key":"16076","name":"Greiz","type":"Landkreis"},"federalState":{"key":"16","name":"Thüringen"}},{"key":"16076079","name":"Weida, Stadt","type":"Stadt","postalCode":"07570","multiplePostalCodes":false,"association":{"key":"16076","name":"Weida, Stadt","type":"Erfüllende_Gemeinde"},"district":{"key":"16076","name":"Greiz","type":"Landkreis"},"federalState":{"key":"16","name":"Thüringen"}},{"key":"16076081","name":"Weißendorf","type":"Kreisangehörige_Gemeinde","postalCode":"07950","multiplePostalCodes":true,"association":{"key":"16076","name":"Zeulenroda-Triebes, Stadt","type":"Erfüllende_Gemeinde"},"district":{"key":"16076","name":"Greiz","type":"Landkreis"},"federalState":{"key":"16","name":"Thüringen"}},{"key":"16076084","name":"Wünschendorf/Elster","type":"Kreisangehörige_Gemeinde","postalCode":"07570","multiplePostalCodes":false,"association":{"key":"16076","name":"Wünschendorf/Elster","type":"Verwaltungsgemeinschaft"},"district":{"key":"16076","name":"Greiz","type":"Landkreis"},"federalState":{"key":"16","name":"Thüringen"}},{"key":"16076086","name":"Zedlitz","type":"Kreisangehörige_Gemeinde","postalCode":"07557","multiplePostalCodes":true,"association":{"key":"16076","name":"Münchenbernsdorf","type":"Verwaltungsgemeinschaft"},"district":{"key":"16076","name":"Greiz","type":"Landkreis"},"federalState":{"key":"16","name":"Thüringen"}},{"key":"16076087","name":"Zeulenroda-Triebes, Stadt","type":"Stadt","postalCode":"07937","multiplePostalCodes":true,"association":{"key":"16076","name":"Zeulenroda-Triebes, Stadt","type":"Erfüllende_Gemeinde"},"district":{"key":"16076","name":"Greiz","type":"Landkreis"},"federalState":{"key":"16","name":"Thüringen"}},{"key":"16076088","name":"Harth-Pöllnitz","type":"Kreisangehörige_Gemeinde","postalCode":"07570","multiplePostalCodes":false,"association":{"key":"16076","name":"Harth-Pöllnitz","type":"Verbandsfreie_Gemeinde"},"district":{"key":"16076","name":"Greiz","type":"Landkreis"},"federalState":{"key":"16","name":"Thüringen"}},{"key":"16076089","name":"Kraftsdorf","type":"Kreisangehörige_Gemeinde","postalCode":"07586","multiplePostalCodes":false,"association":{"key":"16076","name":"Kraftsdorf","type":"Verbandsfreie_Gemeinde"},"district":{"key":"16076","name":"Greiz","type":"Landkreis"},"federalState":{"key":"16","name":"Thüringen"}},{"key":"16076092","name":"Auma-Weidatal, Stadt","type":"Stadt","postalCode":"07955","multiplePostalCodes":false,"association":{"key":"16076","name":"Auma-Weidatal, Stadt","type":"Verbandsfreie_Gemeinde"},"district":{"key":"16076","name":"Greiz","type":"Landkreis"},"federalState":{"key":"16","name":"Thüringen"}},{"key":"16076093","name":"Mohlsdorf-Teichwolframsdorf","type":"Kreisangehörige_Gemeinde","postalCode":"07987","multiplePostalCodes":false,"association":{"key":"16076","name":"Mohlsdorf-Teichwolframsdorf","type":"Verbandsfreie_Gemeinde"},"district":{"key":"16076","name":"Greiz","type":"Landkreis"},"federalState":{"key":"16","name":"Thüringen"}}]