[{"name":"Am Kaiserberg","postalCode":"07646","locality":"Mörsdorf","municipality":{"key":"16074059","name":"Mörsdorf","type":"Kreisangehörige_Gemeinde"},"district":{"key":"16074","name":"Saale-Holzland-Kreis","type":"Landkreis"},"federalState":{"key":"16","name":"Thüringen"}},{"name":"Am Räderweg","postalCode":"07646","locality":"Mörsdorf","municipality":{"key":"16074059","name":"Mörsdorf","type":"Kreisangehörige_Gemeinde"},"district":{"key":"16074","name":"Saale-Holzland-Kreis","type":"Landkreis"},"federalState":{"key":"16","name":"Thüringen"}},{"name":"Am Rimsche","postalCode":"56290","locality":"Mörsdorf","municipality":{"key":"07140503","name":"Mörsdorf","type":"Kreisangehörige_Gemeinde"},"district":{"key":"07140","name":"Rhein-Hunsrück-Kreis","type":"Landkreis"},"federalState":{"key":"07","name":"Rheinland-Pfalz"}},{"name":"An den Trillers Büschen","postalCode":"07646","locality":"Mörsdorf","municipality":{"key":"16074059","name":"Mörsdorf","type":"Kreisangehörige_Gemeinde"},"district":{"key":"16074","name":"Saale-Holzland-Kreis","type":"Landkreis"},"federalState":{"key":"16","name":"Thüringen"}},{"name":"An der Windmühle","postalCode":"07646","locality":"Mörsdorf","municipality":{"key":"16074059","name":"Mörsdorf","type":"Kreisangehörige_Gemeinde"},"district":{"key":"16074","name":"Saale-Holzland-Kreis","type":"Landkreis"},"federalState":{"key":"16","name":"Thüringen"}},{"name":"Auf dem Berg","postalCode":"07646","locality":"Mörsdorf","municipality":{"key":"16074059","name":"Mörsdorf","type":"Kreisangehörige_Gemeinde"},"district":{"key":"16074","name":"Saale-Holzland-Kreis","type":"Landkreis"},"federalState":{"key":"16","name":"Thüringen"}},{"name":"Auf der Lex","postalCode":"56290","locality":"Mörsdorf","municipality":{"key":"07140503","name":"Mörsdorf","type":"Kreisangehörige_Gemeinde"},"district":{"key":"07140","name":"Rhein-Hunsrück-Kreis","type":"Landkreis"},"federalState":{"key":"07","name":"Rheinland-Pfalz"}},{"name":"Beurenkern","postalCode":"56290","locality":"Mörsdorf","municipality":{"key":"07140503","name":"Mörsdorf","type":"Kreisangehörige_Gemeinde"},"district":{"key":"07140","name":"Rhein-Hunsrück-Kreis","type":"Landkreis"},"federalState":{"key":"07","name":"Rheinland-Pfalz"}},{"name":"Birkenweg","postalCode":"56290","locality":"Mörsdorf","municipality":{"key":"07140503","name":"Mörsdorf","type":"Kreisangehörige_Gemeinde"},"district":{"key":"07140","name":"Rhein-Hunsrück-Kreis","type":"Landkreis"},"federalState":{"key":"07","name":"Rheinland-Pfalz"}},{"name":"Bollberger Str.","postalCode":"07646","locality":"Mörsdorf","municipality":{"key":"16074059","name":"Mörsdorf","type":"Kreisangehörige_Gemeinde"},"district":{"key":"16074","name":"Saale-Holzland-Kreis","type":"Landkreis"},"federalState":{"key":"16","name":"Thüringen"}},{"name":"Bucher Weg","postalCode":"56290","locality":"Mörsdorf","municipality":{"key":"07140503","name":"Mörsdorf","type":"Kreisangehörige_Gemeinde"},"district":{"key":"07140","name":"Rhein-Hunsrück-Kreis","type":"Landkreis"},"federalState":{"key":"07","name":"Rheinland-Pfalz"}},{"name":"Die Marck","postalCode":"07646","locality":"Mörsdorf","municipality":{"key":"16074059","name":"Mörsdorf","type":"Kreisangehörige_Gemeinde"},"district":{"key":"16074","name":"Saale-Holzland-Kreis","type":"Landkreis"},"federalState":{"key":"16","name":"Thüringen"}},{"name":"Dorfstr.","postalCode":"07646","locality":"Mörsdorf","municipality":{"key":"16074059","name":"Mörsdorf","type":"Kreisangehörige_Gemeinde"},"district":{"key":"16074","name":"Saale-Holzland-Kreis","type":"Landkreis"},"federalState":{"key":"16","name":"Thüringen"}},{"name":"Dornaischer Weg","postalCode":"07646","locality":"Mörsdorf","municipality":{"key":"16074059","name":"Mörsdorf","type":"Kreisangehörige_Gemeinde"},"district":{"key":"16074","name":"Saale-Holzland-Kreis","type":"Landkreis"},"federalState":{"key":"16","name":"Thüringen"}},{"name":"Dünnbachtal","postalCode":"56290","locality":"Mörsdorf","municipality":{"key":"07140503","name":"Mörsdorf","type":"Kreisangehörige_Gemeinde"},"district":{"key":"07140","name":"Rhein-Hunsrück-Kreis","type":"Landkreis"},"federalState":{"key":"07","name":"Rheinland-Pfalz"}},{"name":"Eigenheimstr.","postalCode":"07646","locality":"Mörsdorf","municipality":{"key":"16074059","name":"Mörsdorf","type":"Kreisangehörige_Gemeinde"},"district":{"key":"16074","name":"Saale-Holzland-Kreis","type":"Landkreis"},"federalState":{"key":"16","name":"Thüringen"}},{"name":"Fuchsgasse","postalCode":"56290","locality":"Mörsdorf","municipality":{"key":"07140503","name":"Mörsdorf","type":"Kreisangehörige_Gemeinde"},"district":{"key":"07140","name":"Rhein-Hunsrück-Kreis","type":"Landkreis"},"federalState":{"key":"07","name":"Rheinland-Pfalz"}},{"name":"Gartenweg","postalCode":"56290","locality":"Mörsdorf","municipality":{"key":"07140503","name":"Mörsdorf","type":"Kreisangehörige_Gemeinde"},"district":{"key":"07140","name":"Rhein-Hunsrück-Kreis","type":"Landkreis"},"federalState":{"key":"07","name":"Rheinland-Pfalz"}},{"name":"Hauptstr.","postalCode":"07646","locality":"Mörsdorf","municipality":{"key":"16074059","name":"Mörsdorf","type":"Kreisangehörige_Gemeinde"},"district":{"key":"16074","name":"Saale-Holzland-Kreis","type":"Landkreis"},"federalState":{"key":"16","name":"Thüringen"}},{"name":"Heckweg","postalCode":"56290","locality":"Mörsdorf","municipality":{"key":"07140503","name":"Mörsdorf","type":"Kreisangehörige_Gemeinde"},"district":{"key":"07140","name":"Rhein-Hunsrück-Kreis","type":"Landkreis"},"federalState":{"key":"07","name":"Rheinland-Pfalz"}},{"name":"In der Breitwies","postalCode":"56290","locality":"Mörsdorf","municipality":{"key":"07140503","name":"Mörsdorf","type":"Kreisangehörige_Gemeinde"},"district":{"key":"07140","name":"Rhein-Hunsrück-Kreis","type":"Landkreis"},"federalState":{"key":"07","name":"Rheinland-Pfalz"}},{"name":"Kastellauner Str.","postalCode":"56290","locality":"Mörsdorf","municipality":{"key":"07140503","name":"Mörsdorf","type":"Kreisangehörige_Gemeinde"},"district":{"key":"07140","name":"Rhein-Hunsrück-Kreis","type":"Landkreis"},"federalState":{"key":"07","name":"Rheinland-Pfalz"}},{"name":"Keltenweg","postalCode":"56290","locality":"Mörsdorf","municipality":{"key":"07140503","name":"Mörsdorf","type":"Kreisangehörige_Gemeinde"},"district":{"key":"07140","name":"Rhein-Hunsrück-Kreis","type":"Landkreis"},"federalState":{"key":"07","name":"Rheinland-Pfalz"}},{"name":"Kindergartenstr.","postalCode":"56290","locality":"Mörsdorf","municipality":{"key":"07140503","name":"Mörsdorf","type":"Kreisangehörige_Gemeinde"},"district":{"key":"07140","name":"Rhein-Hunsrück-Kreis","type":"Landkreis"},"federalState":{"key":"07","name":"Rheinland-Pfalz"}},{"name":"Kirchgasse","postalCode":"07646","locality":"Mörsdorf","municipality":{"key":"16074059","name":"Mörsdorf","type":"Kreisangehörige_Gemeinde"},"district":{"key":"16074","name":"Saale-Holzland-Kreis","type":"Landkreis"},"federalState":{"key":"16","name":"Thüringen"}},{"name":"Kirchstr.","postalCode":"56290","locality":"Mörsdorf","municipality":{"key":"07140503","name":"Mörsdorf","type":"Kreisangehörige_Gemeinde"},"district":{"key":"07140","name":"Rhein-Hunsrück-Kreis","type":"Landkreis"},"federalState":{"key":"07","name":"Rheinland-Pfalz"}},{"name":"Klosterstr.","postalCode":"56290","locality":"Mörsdorf","municipality":{"key":"07140503","name":"Mörsdorf","type":"Kreisangehörige_Gemeinde"},"district":{"key":"07140","name":"Rhein-Hunsrück-Kreis","type":"Landkreis"},"federalState":{"key":"07","name":"Rheinland-Pfalz"}},{"name":"Lahrer Str.","postalCode":"56290","locality":"Mörsdorf","municipality":{"key":"07140503","name":"Mörsdorf","type":"Kreisangehörige_Gemeinde"},"district":{"key":"07140","name":"Rhein-Hunsrück-Kreis","type":"Landkreis"},"federalState":{"key":"07","name":"Rheinland-Pfalz"}},{"name":"Laiengärten","postalCode":"56290","locality":"Mörsdorf","municipality":{"key":"07140503","name":"Mörsdorf","type":"Kreisangehörige_Gemeinde"},"district":{"key":"07140","name":"Rhein-Hunsrück-Kreis","type":"Landkreis"},"federalState":{"key":"07","name":"Rheinland-Pfalz"}},{"name":"Mühlenweg","postalCode":"56290","locality":"Mörsdorf","municipality":{"key":"07140503","name":"Mörsdorf","type":"Kreisangehörige_Gemeinde"},"district":{"key":"07140","name":"Rhein-Hunsrück-Kreis","type":"Landkreis"},"federalState":{"key":"07","name":"Rheinland-Pfalz"}},{"name":"Oelsnitztal","postalCode":"07646","locality":"Mörsdorf","municipality":{"key":"16074059","name":"Mörsdorf","type":"Kreisangehörige_Gemeinde"},"district":{"key":"16074","name":"Saale-Holzland-Kreis","type":"Landkreis"},"federalState":{"key":"16","name":"Thüringen"}},{"name":"Pfefferberg","postalCode":"07646","locality":"Mörsdorf","municipality":{"key":"16074059","name":"Mörsdorf","type":"Kreisangehörige_Gemeinde"},"district":{"key":"16074","name":"Saale-Holzland-Kreis","type":"Landkreis"},"federalState":{"key":"16","name":"Thüringen"}},{"name":"Pohlstr.","postalCode":"56290","locality":"Mörsdorf","municipality":{"key":"07140503","name":"Mörsdorf","type":"Kreisangehörige_Gemeinde"},"district":{"key":"07140","name":"Rhein-Hunsrück-Kreis","type":"Landkreis"},"federalState":{"key":"07","name":"Rheinland-Pfalz"}},{"name":"Ringelweg","postalCode":"56290","locality":"Mörsdorf","municipality":{"key":"07140503","name":"Mörsdorf","type":"Kreisangehörige_Gemeinde"},"district":{"key":"07140","name":"Rhein-Hunsrück-Kreis","type":"Landkreis"},"federalState":{"key":"07","name":"Rheinland-Pfalz"}},{"name":"St.Castor Str.","postalCode":"56290","locality":"Mörsdorf","municipality":{"key":"07140503","name":"Mörsdorf","type":"Kreisangehörige_Gemeinde"},"district":{"key":"07140","name":"Rhein-Hunsrück-Kreis","type":"Landkreis"},"federalState":{"key":"07","name":"Rheinland-Pfalz"}},{"name":"Talrandweg","postalCode":"56290","locality":"Mörsdorf","municipality":{"key":"07140503","name":"Mörsdorf","type":"Kreisangehörige_Gemeinde"},"district":{"key":"07140","name":"Rhein-Hunsrück-Kreis","type":"Landkreis"},"federalState":{"key":"07","name":"Rheinland-Pfalz"}},{"name":"Teufelstalweg","postalCode":"07646","locality":"Mörsdorf","municipality":{"key":"16074059","name":"Mörsdorf","type":"Kreisangehörige_Gemeinde"},"district":{"key":"16074","name":"Saale-Holzland-Kreis","type":"Landkreis"},"federalState":{"key":"16","name":"Thüringen"}},{"name":"Tommerweg","postalCode":"56290","locality":"Mörsdorf","municipality":{"key":"07140503","name":"Mörsdorf","type":"Kreisangehörige_Gemeinde"},"district":{"key":"07140","name":"Rhein-Hunsrück-Kreis","type":"Landkreis"},"federalState":{"key":"07","name":"Rheinland-Pfalz"}},{"name":"Treiser Str.","postalCode":"56290","locality":"Mörsdorf","municipality":{"key":"07140503","name":"Mörsdorf","type":"Kreisangehörige_Gemeinde"},"district":{"key":"07140","name":"Rhein-Hunsrück-Kreis","type":"Landkreis"},"federalState":{"key":"07","name":"Rheinland-Pfalz"}},{"name":"Untere Kirchstr.","postalCode":"56290","locality":"Mörsdorf","municipality":{"key":"07140503","name":"Mörsdorf","type":"Kreisangehörige_Gemeinde"},"district":{"key":"07140","name":"Rhein-Hunsrück-Kreis","type":"Landkreis"},"federalState":{"key":"07","name":"Rheinland-Pfalz"}},{"name":"Unterer Dorfplatz","postalCode":"07646","locality":"Mörsdorf","municipality":{"key":"16074059","name":"Mörsdorf","type":"Kreisangehörige_Gemeinde"},"district":{"key":"16074","name":"Saale-Holzland-Kreis","type":"Landkreis"},"federalState":{"key":"16","name":"Thüringen"}},{"name":"Windorfer Str.","postalCode":"56290","locality":"Mörsdorf","municipality":{"key":"07140503","name":"Mörsdorf","type":"Kreisangehörige_Gemeinde"},"district":{"key":"07140","name":"Rhein-Hunsrück-Kreis","type":"Landkreis"},"federalState":{"key":"07","name":"Rheinland-Pfalz"}},{"name":"Winkelwies","postalCode":"56290","locality":"Mörsdorf","municipality":{"key":"07140503","name":"Mörsdorf","type":"Kreisangehörige_Gemeinde"},"district":{"key":"07140","name":"Rhein-Hunsrück-Kreis","type":"Landkreis"},"federalState":{"key":"07","name":"Rheinland-Pfalz"}},{"name":"Zum Kaisertal","postalCode":"07646","locality":"Mörsdorf","municipality":{"key":"16074059","name":"Mörsdorf","type":"Kreisangehörige_Gemeinde"},"district":{"key":"16074","name":"Saale-Holzland-Kreis","type":"Landkreis"},"federalState":{"key":"16","name":"Thüringen"}},]