[{"name":"Am Kirlesberg","postalCode":"89365","locality":"Röfingen","municipality":{"key":"09774178","name":"Röfingen","type":"Kreisangehörige_Gemeinde"},"district":{"key":"09774","name":"Günzburg","type":"Landkreis"},"federalState":{"key":"09","name":"Bayern"}},{"name":"Am Oberfeld","postalCode":"89365","locality":"Röfingen","municipality":{"key":"09774178","name":"Röfingen","type":"Kreisangehörige_Gemeinde"},"district":{"key":"09774","name":"Günzburg","type":"Landkreis"},"federalState":{"key":"09","name":"Bayern"}},{"name":"Augsburger Str.","postalCode":"89365","locality":"Röfingen","municipality":{"key":"09774178","name":"Röfingen","type":"Kreisangehörige_Gemeinde"},"district":{"key":"09774","name":"Günzburg","type":"Landkreis"},"federalState":{"key":"09","name":"Bayern"}},{"name":"Bachstr.","postalCode":"89365","locality":"Röfingen","municipality":{"key":"09774178","name":"Röfingen","type":"Kreisangehörige_Gemeinde"},"district":{"key":"09774","name":"Günzburg","type":"Landkreis"},"federalState":{"key":"09","name":"Bayern"}},{"name":"Bahnhofweg","postalCode":"89365","locality":"Röfingen","municipality":{"key":"09774178","name":"Röfingen","type":"Kreisangehörige_Gemeinde"},"district":{"key":"09774","name":"Günzburg","type":"Landkreis"},"federalState":{"key":"09","name":"Bayern"}},{"name":"Bergstr.","postalCode":"89365","locality":"Röfingen","municipality":{"key":"09774178","name":"Röfingen","type":"Kreisangehörige_Gemeinde"},"district":{"key":"09774","name":"Günzburg","type":"Landkreis"},"federalState":{"key":"09","name":"Bayern"}},{"name":"Birkenweg","postalCode":"89365","locality":"Röfingen","municipality":{"key":"09774178","name":"Röfingen","type":"Kreisangehörige_Gemeinde"},"district":{"key":"09774","name":"Günzburg","type":"Landkreis"},"federalState":{"key":"09","name":"Bayern"}},{"name":"Bürgermeister-Dr.-Anton-Geier-Str.","postalCode":"89365","locality":"Röfingen","municipality":{"key":"09774178","name":"Röfingen","type":"Kreisangehörige_Gemeinde"},"district":{"key":"09774","name":"Günzburg","type":"Landkreis"},"federalState":{"key":"09","name":"Bayern"}},{"name":"Carl von Linde Str.","postalCode":"89312","locality":"Günzburg","municipality":{"key":"09774135","name":"Günzburg, GKSt","type":"Große_Kreisstadt"},"district":{"key":"09774","name":"Günzburg","type":"Landkreis"},"federalState":{"key":"09","name":"Bayern"}},{"name":"Castellstr.","postalCode":"87634","locality":"Obergünzburg","municipality":{"key":"09777154","name":"Obergünzburg, M","type":"Markt"},"district":{"key":"09777","name":"Ostallgäu","type":"Landkreis"},"federalState":{"key":"09","name":"Bayern"}},{"name":"Christa-Wall-Str.","postalCode":"89312","locality":"Günzburg","municipality":{"key":"09774135","name":"Günzburg, GKSt","type":"Große_Kreisstadt"},"district":{"key":"09774","name":"Günzburg","type":"Landkreis"},"federalState":{"key":"09","name":"Bayern"}},{"name":"Christian-Frank-Weg","postalCode":"89312","locality":"Günzburg","municipality":{"key":"09774135","name":"Günzburg, GKSt","type":"Große_Kreisstadt"},"district":{"key":"09774","name":"Günzburg","type":"Landkreis"},"federalState":{"key":"09","name":"Bayern"}},{"name":"Christoph-Rodt-Str.","postalCode":"89312","locality":"Günzburg","municipality":{"key":"09774135","name":"Günzburg, GKSt","type":"Große_Kreisstadt"},"district":{"key":"09774","name":"Günzburg","type":"Landkreis"},"federalState":{"key":"09","name":"Bayern"}},{"name":"Clotzstr.","postalCode":"89312","locality":"Günzburg","municipality":{"key":"09774135","name":"Günzburg, GKSt","type":"Große_Kreisstadt"},"district":{"key":"09774","name":"Günzburg","type":"Landkreis"},"federalState":{"key":"09","name":"Bayern"}},{"name":"Dahlienweg","postalCode":"89312","locality":"Günzburg","municipality":{"key":"09774135","name":"Günzburg, GKSt","type":"Große_Kreisstadt"},"district":{"key":"09774","name":"Günzburg","type":"Landkreis"},"federalState":{"key":"09","name":"Bayern"}},{"name":"Daimlerstr.","postalCode":"89312","locality":"Günzburg","municipality":{"key":"09774135","name":"Günzburg, GKSt","type":"Große_Kreisstadt"},"district":{"key":"09774","name":"Günzburg","type":"Landkreis"},"federalState":{"key":"09","name":"Bayern"}},{"name":"Damaschkestr.","postalCode":"89312","locality":"Günzburg","municipality":{"key":"09774135","name":"Günzburg, GKSt","type":"Große_Kreisstadt"},"district":{"key":"09774","name":"Günzburg","type":"Landkreis"},"federalState":{"key":"09","name":"Bayern"}},{"name":"Dannesgässele","postalCode":"87634","locality":"Obergünzburg","municipality":{"key":"09777154","name":"Obergünzburg, M","type":"Markt"},"district":{"key":"09777","name":"Ostallgäu","type":"Landkreis"},"federalState":{"key":"09","name":"Bayern"}},{"name":"Danziger Str.","postalCode":"89312","locality":"Günzburg","municipality":{"key":"09774135","name":"Günzburg, GKSt","type":"Große_Kreisstadt"},"district":{"key":"09774","name":"Günzburg","type":"Landkreis"},"federalState":{"key":"09","name":"Bayern"}},{"name":"Deffinger Weg","postalCode":"89312","locality":"Günzburg","municipality":{"key":"09774135","name":"Günzburg, GKSt","type":"Große_Kreisstadt"},"district":{"key":"09774","name":"Günzburg","type":"Landkreis"},"federalState":{"key":"09","name":"Bayern"}},{"name":"Denzinger Str.","postalCode":"89312","locality":"Günzburg","municipality":{"key":"09774135","name":"Günzburg, GKSt","type":"Große_Kreisstadt"},"district":{"key":"09774","name":"Günzburg","type":"Landkreis"},"federalState":{"key":"09","name":"Bayern"}},{"name":"Deutsch-Zepling-Str.","postalCode":"89312","locality":"Günzburg","municipality":{"key":"09774135","name":"Günzburg, GKSt","type":"Große_Kreisstadt"},"district":{"key":"09774","name":"Günzburg","type":"Landkreis"},"federalState":{"key":"09","name":"Bayern"}},{"name":"Dillinger Str.","postalCode":"89312","locality":"Günzburg","municipality":{"key":"09774135","name":"Günzburg, GKSt","type":"Große_Kreisstadt"},"district":{"key":"09774","name":"Günzburg","type":"Landkreis"},"federalState":{"key":"09","name":"Bayern"}},{"name":"Doktor-Eberl-Str.","postalCode":"87634","locality":"Obergünzburg","municipality":{"key":"09777154","name":"Obergünzburg, M","type":"Markt"},"district":{"key":"09777","name":"Ostallgäu","type":"Landkreis"},"federalState":{"key":"09","name":"Bayern"}},{"name":"Doktor-Friton-Str.","postalCode":"89312","locality":"Günzburg","municipality":{"key":"09774135","name":"Günzburg, GKSt","type":"Große_Kreisstadt"},"district":{"key":"09774","name":"Günzburg","type":"Landkreis"},"federalState":{"key":"09","name":"Bayern"}},{"name":"Donaubrunnenweg","postalCode":"89312","locality":"Günzburg","municipality":{"key":"09774135","name":"Günzburg, GKSt","type":"Große_Kreisstadt"},"district":{"key":"09774","name":"Günzburg","type":"Landkreis"},"federalState":{"key":"09","name":"Bayern"}},{"name":"Donaustr.","postalCode":"89312","locality":"Günzburg","municipality":{"key":"09774135","name":"Günzburg, GKSt","type":"Große_Kreisstadt"},"district":{"key":"09774","name":"Günzburg","type":"Landkreis"},"federalState":{"key":"09","name":"Bayern"}},{"name":"Dorngasse","postalCode":"89312","locality":"Günzburg","municipality":{"key":"09774135","name":"Günzburg, GKSt","type":"Große_Kreisstadt"},"district":{"key":"09774","name":"Günzburg","type":"Landkreis"},"federalState":{"key":"09","name":"Bayern"}},{"name":"Dossenbergerstr.","postalCode":"89312","locality":"Günzburg","municipality":{"key":"09774135","name":"Günzburg, GKSt","type":"Große_Kreisstadt"},"district":{"key":"09774","name":"Günzburg","type":"Landkreis"},"federalState":{"key":"09","name":"Bayern"}},{"name":"Dr.-Birner-Str.","postalCode":"89312","locality":"Günzburg","municipality":{"key":"09774135","name":"Günzburg, GKSt","type":"Große_Kreisstadt"},"district":{"key":"09774","name":"Günzburg","type":"Landkreis"},"federalState":{"key":"09","name":"Bayern"}},{"name":"Dreirosenberg","postalCode":"89312","locality":"Günzburg","municipality":{"key":"09774135","name":"Günzburg, GKSt","type":"Große_Kreisstadt"},"district":{"key":"09774","name":"Günzburg","type":"Landkreis"},"federalState":{"key":"09","name":"Bayern"}},{"name":"Dr.-Friton-Str.","postalCode":"89312","locality":"Günzburg","municipality":{"key":"09774135","name":"Günzburg, GKSt","type":"Große_Kreisstadt"},"district":{"key":"09774","name":"Günzburg","type":"Landkreis"},"federalState":{"key":"09","name":"Bayern"}},{"name":"Drillgasse","postalCode":"89312","locality":"Günzburg","municipality":{"key":"09774135","name":"Günzburg, GKSt","type":"Große_Kreisstadt"},"district":{"key":"09774","name":"Günzburg","type":"Landkreis"},"federalState":{"key":"09","name":"Bayern"}},{"name":"Drosselweg","postalCode":"89312","locality":"Günzburg","municipality":{"key":"09774135","name":"Günzburg, GKSt","type":"Große_Kreisstadt"},"district":{"key":"09774","name":"Günzburg","type":"Landkreis"},"federalState":{"key":"09","name":"Bayern"}},{"name":"Dürerstr.","postalCode":"89312","locality":"Günzburg","municipality":{"key":"09774135","name":"Günzburg, GKSt","type":"Große_Kreisstadt"},"district":{"key":"09774","name":"Günzburg","type":"Landkreis"},"federalState":{"key":"09","name":"Bayern"}},{"name":"Ebersbacher Str.","postalCode":"87634","locality":"Obergünzburg","municipality":{"key":"09777154","name":"Obergünzburg, M","type":"Markt"},"district":{"key":"09777","name":"Ostallgäu","type":"Landkreis"},"federalState":{"key":"09","name":"Bayern"}},{"name":"Edelweißstr.","postalCode":"87634","locality":"Obergünzburg","municipality":{"key":"09777154","name":"Obergünzburg, M","type":"Markt"},"district":{"key":"09777","name":"Ostallgäu","type":"Landkreis"},"federalState":{"key":"09","name":"Bayern"}},{"name":"Edlhardstr.","postalCode":"89312","locality":"Günzburg","municipality":{"key":"09774135","name":"Günzburg, GKSt","type":"Große_Kreisstadt"},"district":{"key":"09774","name":"Günzburg","type":"Landkreis"},"federalState":{"key":"09","name":"Bayern"}},{"name":"Egelseegasse","postalCode":"89312","locality":"Günzburg","municipality":{"key":"09774135","name":"Günzburg, GKSt","type":"Große_Kreisstadt"},"district":{"key":"09774","name":"Günzburg","type":"Landkreis"},"federalState":{"key":"09","name":"Bayern"}},{"name":"Egerländer Weg","postalCode":"89312","locality":"Günzburg","municipality":{"key":"09774135","name":"Günzburg, GKSt","type":"Große_Kreisstadt"},"district":{"key":"09774","name":"Günzburg","type":"Landkreis"},"federalState":{"key":"09","name":"Bayern"}},{"name":"Eglofser Str.","postalCode":"87634","locality":"Obergünzburg","municipality":{"key":"09777154","name":"Obergünzburg, M","type":"Markt"},"district":{"key":"09777","name":"Ostallgäu","type":"Landkreis"},"federalState":{"key":"09","name":"Bayern"}},{"name":"Eichendorffstr.","postalCode":"89312","locality":"Günzburg","municipality":{"key":"09774135","name":"Günzburg, GKSt","type":"Große_Kreisstadt"},"district":{"key":"09774","name":"Günzburg","type":"Landkreis"},"federalState":{"key":"09","name":"Bayern"}},{"name":"Eichenweg","postalCode":"87634","locality":"Obergünzburg","municipality":{"key":"09777154","name":"Obergünzburg, M","type":"Markt"},"district":{"key":"09777","name":"Ostallgäu","type":"Landkreis"},"federalState":{"key":"09","name":"Bayern"}},{"name":"Eichenweg","postalCode":"89312","locality":"Günzburg","municipality":{"key":"09774135","name":"Günzburg, GKSt","type":"Große_Kreisstadt"},"district":{"key":"09774","name":"Günzburg","type":"Landkreis"},"federalState":{"key":"09","name":"Bayern"}},{"name":"Eisenhausgasse","postalCode":"89312","locality":"Günzburg","municipality":{"key":"09774135","name":"Günzburg, GKSt","type":"Große_Kreisstadt"},"district":{"key":"09774","name":"Günzburg","type":"Landkreis"},"federalState":{"key":"09","name":"Bayern"}},{"name":"Eisenlauerstr.","postalCode":"89312","locality":"Günzburg","municipality":{"key":"09774135","name":"Günzburg, GKSt","type":"Große_Kreisstadt"},"district":{"key":"09774","name":"Günzburg","type":"Landkreis"},"federalState":{"key":"09","name":"Bayern"}},{"name":"Elsa-Brändström-Str.","postalCode":"89312","locality":"Günzburg","municipality":{"key":"09774135","name":"Günzburg, GKSt","type":"Große_Kreisstadt"},"district":{"key":"09774","name":"Günzburg","type":"Landkreis"},"federalState":{"key":"09","name":"Bayern"}},{"name":"Enderlestr.","postalCode":"89312","locality":"Günzburg","municipality":{"key":"09774135","name":"Günzburg, GKSt","type":"Große_Kreisstadt"},"district":{"key":"09774","name":"Günzburg","type":"Landkreis"},"federalState":{"key":"09","name":"Bayern"}},{"name":"Entenmoos","postalCode":"87634","locality":"Obergünzburg","municipality":{"key":"09777154","name":"Obergünzburg, M","type":"Markt"},"district":{"key":"09777","name":"Ostallgäu","type":"Landkreis"},"federalState":{"key":"09","name":"Bayern"}},{"name":"Enzianstr.","postalCode":"89312","locality":"Günzburg","municipality":{"key":"09774135","name":"Günzburg, GKSt","type":"Große_Kreisstadt"},"district":{"key":"09774","name":"Günzburg","type":"Landkreis"},"federalState":{"key":"09","name":"Bayern"}},{"name":"Enzianweg","postalCode":"87634","locality":"Obergünzburg","municipality":{"key":"09777154","name":"Obergünzburg, M","type":"Markt"},"district":{"key":"09777","name":"Ostallgäu","type":"Landkreis"},"federalState":{"key":"09","name":"Bayern"}},{"name":"Erlenbadweg","postalCode":"89312","locality":"Günzburg","municipality":{"key":"09774135","name":"Günzburg, GKSt","type":"Große_Kreisstadt"},"district":{"key":"09774","name":"Günzburg","type":"Landkreis"},"federalState":{"key":"09","name":"Bayern"}},{"name":"Erzherzog-Ferdinand-Str.","postalCode":"89312","locality":"Günzburg","municipality":{"key":"09774135","name":"Günzburg, GKSt","type":"Große_Kreisstadt"},"district":{"key":"09774","name":"Günzburg","type":"Landkreis"},"federalState":{"key":"09","name":"Bayern"}},{"name":"Eschenlohweg","postalCode":"87634","locality":"Obergünzburg","municipality":{"key":"09777154","name":"Obergünzburg, M","type":"Markt"},"district":{"key":"09777","name":"Ostallgäu","type":"Landkreis"},"federalState":{"key":"09","name":"Bayern"}},{"name":"Eythstr.","postalCode":"89312","locality":"Günzburg","municipality":{"key":"09774135","name":"Günzburg, GKSt","type":"Große_Kreisstadt"},"district":{"key":"09774","name":"Günzburg","type":"Landkreis"},"federalState":{"key":"09","name":"Bayern"}},{"name":"Feldstr.","postalCode":"89365","locality":"Röfingen","municipality":{"key":"09774178","name":"Röfingen","type":"Kreisangehörige_Gemeinde"},"district":{"key":"09774","name":"Günzburg","type":"Landkreis"},"federalState":{"key":"09","name":"Bayern"}},{"name":"Flurstr.","postalCode":"89365","locality":"Röfingen","municipality":{"key":"09774178","name":"Röfingen","type":"Kreisangehörige_Gemeinde"},"district":{"key":"09774","name":"Günzburg","type":"Landkreis"},"federalState":{"key":"09","name":"Bayern"}},{"name":"Gartenstr.","postalCode":"89365","locality":"Röfingen","municipality":{"key":"09774178","name":"Röfingen","type":"Kreisangehörige_Gemeinde"},"district":{"key":"09774","name":"Günzburg","type":"Landkreis"},"federalState":{"key":"09","name":"Bayern"}},{"name":"Grenzstr.","postalCode":"89365","locality":"Röfingen","municipality":{"key":"09774178","name":"Röfingen","type":"Kreisangehörige_Gemeinde"},"district":{"key":"09774","name":"Günzburg","type":"Landkreis"},"federalState":{"key":"09","name":"Bayern"}},{"name":"Haldenwanger Str.","postalCode":"89365","locality":"Röfingen","municipality":{"key":"09774178","name":"Röfingen","type":"Kreisangehörige_Gemeinde"},"district":{"key":"09774","name":"Günzburg","type":"Landkreis"},"federalState":{"key":"09","name":"Bayern"}},{"name":"Hauptstr.","postalCode":"89365","locality":"Röfingen","municipality":{"key":"09774178","name":"Röfingen","type":"Kreisangehörige_Gemeinde"},"district":{"key":"09774","name":"Günzburg","type":"Landkreis"},"federalState":{"key":"09","name":"Bayern"}},{"name":"Hinter den Gärten","postalCode":"89365","locality":"Röfingen","municipality":{"key":"09774178","name":"Röfingen","type":"Kreisangehörige_Gemeinde"},"district":{"key":"09774","name":"Günzburg","type":"Landkreis"},"federalState":{"key":"09","name":"Bayern"}},{"name":"Hohlweg","postalCode":"89365","locality":"Röfingen","municipality":{"key":"09774178","name":"Röfingen","type":"Kreisangehörige_Gemeinde"},"district":{"key":"09774","name":"Günzburg","type":"Landkreis"},"federalState":{"key":"09","name":"Bayern"}},{"name":"Holunderweg","postalCode":"89365","locality":"Röfingen","municipality":{"key":"09774178","name":"Röfingen","type":"Kreisangehörige_Gemeinde"},"district":{"key":"09774","name":"Günzburg","type":"Landkreis"},"federalState":{"key":"09","name":"Bayern"}},{"name":"Hühleweg","postalCode":"89365","locality":"Röfingen","municipality":{"key":"09774178","name":"Röfingen","type":"Kreisangehörige_Gemeinde"},"district":{"key":"09774","name":"Günzburg","type":"Landkreis"},"federalState":{"key":"09","name":"Bayern"}},{"name":"Ichenhauser Str.","postalCode":"89312","locality":"Günzburg","municipality":{"key":"09774135","name":"Günzburg, GKSt","type":"Große_Kreisstadt"},"district":{"key":"09774","name":"Günzburg","type":"Landkreis"},"federalState":{"key":"09","name":"Bayern"}},{"name":"Iglauer Str.","postalCode":"87634","locality":"Obergünzburg","municipality":{"key":"09777154","name":"Obergünzburg, M","type":"Markt"},"district":{"key":"09777","name":"Ostallgäu","type":"Landkreis"},"federalState":{"key":"09","name":"Bayern"}},{"name":"Im Gehag","postalCode":"89312","locality":"Günzburg","municipality":{"key":"09774135","name":"Günzburg, GKSt","type":"Große_Kreisstadt"},"district":{"key":"09774","name":"Günzburg","type":"Landkreis"},"federalState":{"key":"09","name":"Bayern"}},{"name":"Im Gnadenfeld","postalCode":"89312","locality":"Günzburg","municipality":{"key":"09774135","name":"Günzburg, GKSt","type":"Große_Kreisstadt"},"district":{"key":"09774","name":"Günzburg","type":"Landkreis"},"federalState":{"key":"09","name":"Bayern"}},{"name":"Im Günztal","postalCode":"89312","locality":"Günzburg","municipality":{"key":"09774135","name":"Günzburg, GKSt","type":"Große_Kreisstadt"},"district":{"key":"09774","name":"Günzburg","type":"Landkreis"},"federalState":{"key":"09","name":"Bayern"}},{"name":"Imhofstr.","postalCode":"89312","locality":"Günzburg","municipality":{"key":"09774135","name":"Günzburg, GKSt","type":"Große_Kreisstadt"},"district":{"key":"09774","name":"Günzburg","type":"Landkreis"},"federalState":{"key":"09","name":"Bayern"}},{"name":"Im Jacklbauernfeld","postalCode":"89312","locality":"Günzburg","municipality":{"key":"09774135","name":"Günzburg, GKSt","type":"Große_Kreisstadt"},"district":{"key":"09774","name":"Günzburg","type":"Landkreis"},"federalState":{"key":"09","name":"Bayern"}},{"name":"Immelmannstr.","postalCode":"89312","locality":"Günzburg","municipality":{"key":"09774135","name":"Günzburg, GKSt","type":"Große_Kreisstadt"},"district":{"key":"09774","name":"Günzburg","type":"Landkreis"},"federalState":{"key":"09","name":"Bayern"}},{"name":"Im Wang","postalCode":"87634","locality":"Obergünzburg","municipality":{"key":"09777154","name":"Obergünzburg, M","type":"Markt"},"district":{"key":"09777","name":"Ostallgäu","type":"Landkreis"},"federalState":{"key":"09","name":"Bayern"}},{"name":"Im Winkel","postalCode":"89312","locality":"Günzburg","municipality":{"key":"09774135","name":"Günzburg, GKSt","type":"Große_Kreisstadt"},"district":{"key":"09774","name":"Günzburg","type":"Landkreis"},"federalState":{"key":"09","name":"Bayern"}},{"name":"In der Hetz","postalCode":"89312","locality":"Günzburg","municipality":{"key":"09774135","name":"Günzburg, GKSt","type":"Große_Kreisstadt"},"district":{"key":"09774","name":"Günzburg","type":"Landkreis"},"federalState":{"key":"09","name":"Bayern"}},{"name":"Ingeborg-Bachmann-Weg","postalCode":"89312","locality":"Günzburg","municipality":{"key":"09774135","name":"Günzburg, GKSt","type":"Große_Kreisstadt"},"district":{"key":"09774","name":"Günzburg","type":"Landkreis"},"federalState":{"key":"09","name":"Bayern"}},{"name":"Institutstr.","postalCode":"89312","locality":"Günzburg","municipality":{"key":"09774135","name":"Günzburg, GKSt","type":"Große_Kreisstadt"},"district":{"key":"09774","name":"Günzburg","type":"Landkreis"},"federalState":{"key":"09","name":"Bayern"}},{"name":"Jägerndorfer Str.","postalCode":"89312","locality":"Günzburg","municipality":{"key":"09774135","name":"Günzburg, GKSt","type":"Große_Kreisstadt"},"district":{"key":"09774","name":"Günzburg","type":"Landkreis"},"federalState":{"key":"09","name":"Bayern"}},{"name":"Jahnstr.","postalCode":"89312","locality":"Günzburg","municipality":{"key":"09774135","name":"Günzburg, GKSt","type":"Große_Kreisstadt"},"district":{"key":"09774","name":"Günzburg","type":"Landkreis"},"federalState":{"key":"09","name":"Bayern"}},{"name":"Jahnweg","postalCode":"87634","locality":"Obergünzburg","municipality":{"key":"09777154","name":"Obergünzburg, M","type":"Markt"},"district":{"key":"09777","name":"Ostallgäu","type":"Landkreis"},"federalState":{"key":"09","name":"Bayern"}},{"name":"Johannes-Eck-Str.","postalCode":"89312","locality":"Günzburg","municipality":{"key":"09774135","name":"Günzburg, GKSt","type":"Große_Kreisstadt"},"district":{"key":"09774","name":"Günzburg","type":"Landkreis"},"federalState":{"key":"09","name":"Bayern"}},{"name":"Johann-Kempter-Str.","postalCode":"89312","locality":"Günzburg","municipality":{"key":"09774135","name":"Günzburg, GKSt","type":"Große_Kreisstadt"},"district":{"key":"09774","name":"Günzburg","type":"Landkreis"},"federalState":{"key":"09","name":"Bayern"}},{"name":"Johann-Litzel-Str.","postalCode":"89312","locality":"Günzburg","municipality":{"key":"09774135","name":"Günzburg, GKSt","type":"Große_Kreisstadt"},"district":{"key":"09774","name":"Günzburg","type":"Landkreis"},"federalState":{"key":"09","name":"Bayern"}},{"name":"Johann-Sauter-Str.","postalCode":"89312","locality":"Günzburg","municipality":{"key":"09774135","name":"Günzburg, GKSt","type":"Große_Kreisstadt"},"district":{"key":"09774","name":"Günzburg","type":"Landkreis"},"federalState":{"key":"09","name":"Bayern"}},{"name":"Josef-Haas-Str.","postalCode":"89312","locality":"Günzburg","municipality":{"key":"09774135","name":"Günzburg, GKSt","type":"Große_Kreisstadt"},"district":{"key":"09774","name":"Günzburg","type":"Landkreis"},"federalState":{"key":"09","name":"Bayern"}},{"name":"Josef-Kuhn-Str.","postalCode":"89312","locality":"Günzburg","municipality":{"key":"09774135","name":"Günzburg, GKSt","type":"Große_Kreisstadt"},"district":{"key":"09774","name":"Günzburg","type":"Landkreis"},"federalState":{"key":"09","name":"Bayern"}},{"name":"Judenweg","postalCode":"89312","locality":"Günzburg","municipality":{"key":"09774135","name":"Günzburg, GKSt","type":"Große_Kreisstadt"},"district":{"key":"09774","name":"Günzburg","type":"Landkreis"},"federalState":{"key":"09","name":"Bayern"}},{"name":"Junkersstr.","postalCode":"89312","locality":"Günzburg","municipality":{"key":"09774135","name":"Günzburg, GKSt","type":"Große_Kreisstadt"},"district":{"key":"09774","name":"Günzburg","type":"Landkreis"},"federalState":{"key":"09","name":"Bayern"}},{"name":"Kantstr.","postalCode":"89312","locality":"Günzburg","municipality":{"key":"09774135","name":"Günzburg, GKSt","type":"Große_Kreisstadt"},"district":{"key":"09774","name":"Günzburg","type":"Landkreis"},"federalState":{"key":"09","name":"Bayern"}},{"name":"Kapellenweg","postalCode":"87634","locality":"Obergünzburg","municipality":{"key":"09777154","name":"Obergünzburg, M","type":"Markt"},"district":{"key":"09777","name":"Ostallgäu","type":"Landkreis"},"federalState":{"key":"09","name":"Bayern"}},{"name":"Kapellenweg","postalCode":"89312","locality":"Günzburg","municipality":{"key":"09774135","name":"Günzburg, GKSt","type":"Große_Kreisstadt"},"district":{"key":"09774","name":"Günzburg","type":"Landkreis"},"federalState":{"key":"09","name":"Bayern"}},{"name":"Kapitän-Nauer-Str.","postalCode":"87634","locality":"Obergünzburg","municipality":{"key":"09777154","name":"Obergünzburg, M","type":"Markt"},"district":{"key":"09777","name":"Ostallgäu","type":"Landkreis"},"federalState":{"key":"09","name":"Bayern"}},{"name":"Kappenzipfel","postalCode":"89312","locality":"Günzburg","municipality":{"key":"09774135","name":"Günzburg, GKSt","type":"Große_Kreisstadt"},"district":{"key":"09774","name":"Günzburg","type":"Landkreis"},"federalState":{"key":"09","name":"Bayern"}},{"name":"Kapuzinergasse","postalCode":"89312","locality":"Günzburg","municipality":{"key":"09774135","name":"Günzburg, GKSt","type":"Große_Kreisstadt"},"district":{"key":"09774","name":"Günzburg","type":"Landkreis"},"federalState":{"key":"09","name":"Bayern"}},{"name":"Karl-Danner-Str.","postalCode":"89312","locality":"Günzburg","municipality":{"key":"09774135","name":"Günzburg, GKSt","type":"Große_Kreisstadt"},"district":{"key":"09774","name":"Günzburg","type":"Landkreis"},"federalState":{"key":"09","name":"Bayern"}},{"name":"Karl-Mengele-Str.","postalCode":"89312","locality":"Günzburg","municipality":{"key":"09774135","name":"Günzburg, GKSt","type":"Große_Kreisstadt"},"district":{"key":"09774","name":"Günzburg","type":"Landkreis"},"federalState":{"key":"09","name":"Bayern"}},{"name":"Karlsbader Weg","postalCode":"89312","locality":"Günzburg","municipality":{"key":"09774135","name":"Günzburg, GKSt","type":"Große_Kreisstadt"},"district":{"key":"09774","name":"Günzburg","type":"Landkreis"},"federalState":{"key":"09","name":"Bayern"}},{"name":"Kasparstr.","postalCode":"87634","locality":"Obergünzburg","municipality":{"key":"09777154","name":"Obergünzburg, M","type":"Markt"},"district":{"key":"09777","name":"Ostallgäu","type":"Landkreis"},"federalState":{"key":"09","name":"Bayern"}},{"name":"Kaufbeurer Str.","postalCode":"87634","locality":"Obergünzburg","municipality":{"key":"09777154","name":"Obergünzburg, M","type":"Markt"},"district":{"key":"09777","name":"Ostallgäu","type":"Landkreis"},"federalState":{"key":"09","name":"Bayern"}},{"name":"Kemptener Str.","postalCode":"87634","locality":"Obergünzburg","municipality":{"key":"09777154","name":"Obergünzburg, M","type":"Markt"},"district":{"key":"09777","name":"Ostallgäu","type":"Landkreis"},"federalState":{"key":"09","name":"Bayern"}},{"name":"Kimmerle-Ring","postalCode":"89312","locality":"Günzburg","municipality":{"key":"09774135","name":"Günzburg, GKSt","type":"Große_Kreisstadt"},"district":{"key":"09774","name":"Günzburg","type":"Landkreis"},"federalState":{"key":"09","name":"Bayern"}},{"name":"Kirchgasse","postalCode":"87634","locality":"Obergünzburg","municipality":{"key":"09777154","name":"Obergünzburg, M","type":"Markt"},"district":{"key":"09777","name":"Ostallgäu","type":"Landkreis"},"federalState":{"key":"09","name":"Bayern"}},{"name":"Kirchstr.","postalCode":"89312","locality":"Günzburg","municipality":{"key":"09774135","name":"Günzburg, GKSt","type":"Große_Kreisstadt"},"district":{"key":"09774","name":"Günzburg","type":"Landkreis"},"federalState":{"key":"09","name":"Bayern"}},{"name":"Kirchweg","postalCode":"87634","locality":"Obergünzburg","municipality":{"key":"09777154","name":"Obergünzburg, M","type":"Markt"},"district":{"key":"09777","name":"Ostallgäu","type":"Landkreis"},"federalState":{"key":"09","name":"Bayern"}},{"name":"Kirnerstr.","postalCode":"89312","locality":"Günzburg","municipality":{"key":"09774135","name":"Günzburg, GKSt","type":"Große_Kreisstadt"},"district":{"key":"09774","name":"Günzburg","type":"Landkreis"},"federalState":{"key":"09","name":"Bayern"}},{"name":"Klingelpark","postalCode":"89312","locality":"Günzburg","municipality":{"key":"09774135","name":"Günzburg, GKSt","type":"Große_Kreisstadt"},"district":{"key":"09774","name":"Günzburg","type":"Landkreis"},"federalState":{"key":"09","name":"Bayern"}},{"name":"Klingelstr.","postalCode":"89312","locality":"Günzburg","municipality":{"key":"09774135","name":"Günzburg, GKSt","type":"Große_Kreisstadt"},"district":{"key":"09774","name":"Günzburg","type":"Landkreis"},"federalState":{"key":"09","name":"Bayern"}},{"name":"Klosterweg","postalCode":"87634","locality":"Obergünzburg","municipality":{"key":"09777154","name":"Obergünzburg, M","type":"Markt"},"district":{"key":"09777","name":"Ostallgäu","type":"Landkreis"},"federalState":{"key":"09","name":"Bayern"}},{"name":"Kohlstattweg","postalCode":"89312","locality":"Günzburg","municipality":{"key":"09774135","name":"Günzburg, GKSt","type":"Große_Kreisstadt"},"district":{"key":"09774","name":"Günzburg","type":"Landkreis"},"federalState":{"key":"09","name":"Bayern"}},{"name":"Königsberger Str.","postalCode":"89312","locality":"Günzburg","municipality":{"key":"09774135","name":"Günzburg, GKSt","type":"Große_Kreisstadt"},"district":{"key":"09774","name":"Günzburg","type":"Landkreis"},"federalState":{"key":"09","name":"Bayern"}},{"name":"Königswiesenweg","postalCode":"89312","locality":"Günzburg","municipality":{"key":"09774135","name":"Günzburg, GKSt","type":"Große_Kreisstadt"},"district":{"key":"09774","name":"Günzburg","type":"Landkreis"},"federalState":{"key":"09","name":"Bayern"}},{"name":"Kornblumenstr.","postalCode":"89312","locality":"Günzburg","municipality":{"key":"09774135","name":"Günzburg, GKSt","type":"Große_Kreisstadt"},"district":{"key":"09774","name":"Günzburg","type":"Landkreis"},"federalState":{"key":"09","name":"Bayern"}},{"name":"Kötzer Weg","postalCode":"89312","locality":"Günzburg","municipality":{"key":"09774135","name":"Günzburg, GKSt","type":"Große_Kreisstadt"},"district":{"key":"09774","name":"Günzburg","type":"Landkreis"},"federalState":{"key":"09","name":"Bayern"}},{"name":"Krankenhausstr.","postalCode":"87634","locality":"Obergünzburg","municipality":{"key":"09777154","name":"Obergünzburg, M","type":"Markt"},"district":{"key":"09777","name":"Ostallgäu","type":"Landkreis"},"federalState":{"key":"09","name":"Bayern"}},{"name":"Krankenhausstr.","postalCode":"89312","locality":"Günzburg","municipality":{"key":"09774135","name":"Günzburg, GKSt","type":"Große_Kreisstadt"},"district":{"key":"09774","name":"Günzburg","type":"Landkreis"},"federalState":{"key":"09","name":"Bayern"}},{"name":"Krautgartenesch","postalCode":"87634","locality":"Obergünzburg","municipality":{"key":"09777154","name":"Obergünzburg, M","type":"Markt"},"district":{"key":"09777","name":"Ostallgäu","type":"Landkreis"},"federalState":{"key":"09","name":"Bayern"}},{"name":"Kreuzbergweg","postalCode":"87634","locality":"Obergünzburg","municipality":{"key":"09777154","name":"Obergünzburg, M","type":"Markt"},"district":{"key":"09777","name":"Ostallgäu","type":"Landkreis"},"federalState":{"key":"09","name":"Bayern"}},{"name":"Krokusweg","postalCode":"87634","locality":"Obergünzburg","municipality":{"key":"09777154","name":"Obergünzburg, M","type":"Markt"},"district":{"key":"09777","name":"Ostallgäu","type":"Landkreis"},"federalState":{"key":"09","name":"Bayern"}},{"name":"Krokusweg","postalCode":"89312","locality":"Günzburg","municipality":{"key":"09774135","name":"Günzburg, GKSt","type":"Große_Kreisstadt"},"district":{"key":"09774","name":"Günzburg","type":"Landkreis"},"federalState":{"key":"09","name":"Bayern"}},{"name":"Kruckenbergstr.","postalCode":"89312","locality":"Günzburg","municipality":{"key":"09774135","name":"Günzburg, GKSt","type":"Große_Kreisstadt"},"district":{"key":"09774","name":"Günzburg","type":"Landkreis"},"federalState":{"key":"09","name":"Bayern"}},{"name":"Krummer Weg","postalCode":"89312","locality":"Günzburg","municipality":{"key":"09774135","name":"Günzburg, GKSt","type":"Große_Kreisstadt"},"district":{"key":"09774","name":"Günzburg","type":"Landkreis"},"federalState":{"key":"09","name":"Bayern"}},{"name":"Kuhberg","postalCode":"89312","locality":"Günzburg","municipality":{"key":"09774135","name":"Günzburg, GKSt","type":"Große_Kreisstadt"},"district":{"key":"09774","name":"Günzburg","type":"Landkreis"},"federalState":{"key":"09","name":"Bayern"}},{"name":"Kühlbachweg","postalCode":"89312","locality":"Günzburg","municipality":{"key":"09774135","name":"Günzburg, GKSt","type":"Große_Kreisstadt"},"district":{"key":"09774","name":"Günzburg","type":"Landkreis"},"federalState":{"key":"09","name":"Bayern"}},{"name":"Kupferschmiedeweg","postalCode":"87634","locality":"Obergünzburg","municipality":{"key":"09777154","name":"Obergünzburg, M","type":"Markt"},"district":{"key":"09777","name":"Ostallgäu","type":"Landkreis"},"federalState":{"key":"09","name":"Bayern"}},{"name":"Kurzer Weg","postalCode":"89312","locality":"Günzburg","municipality":{"key":"09774135","name":"Günzburg, GKSt","type":"Große_Kreisstadt"},"district":{"key":"09774","name":"Günzburg","type":"Landkreis"},"federalState":{"key":"09","name":"Bayern"}},{"name":"Kutschenweg","postalCode":"89312","locality":"Günzburg","municipality":{"key":"09774135","name":"Günzburg, GKSt","type":"Große_Kreisstadt"},"district":{"key":"09774","name":"Günzburg","type":"Landkreis"},"federalState":{"key":"09","name":"Bayern"}},{"name":"Lauinger Str.","postalCode":"89365","locality":"Röfingen","municipality":{"key":"09774178","name":"Röfingen","type":"Kreisangehörige_Gemeinde"},"district":{"key":"09774","name":"Günzburg","type":"Landkreis"},"federalState":{"key":"09","name":"Bayern"}},{"name":"Marienstr.","postalCode":"89365","locality":"Röfingen","municipality":{"key":"09774178","name":"Röfingen","type":"Kreisangehörige_Gemeinde"},"district":{"key":"09774","name":"Günzburg","type":"Landkreis"},"federalState":{"key":"09","name":"Bayern"}},{"name":"Nagelschmiedeweg","postalCode":"87634","locality":"Obergünzburg","municipality":{"key":"09777154","name":"Obergünzburg, M","type":"Markt"},"district":{"key":"09777","name":"Ostallgäu","type":"Landkreis"},"federalState":{"key":"09","name":"Bayern"}},{"name":"Naturlehrpfad","postalCode":"89312","locality":"Günzburg","municipality":{"key":"09774135","name":"Günzburg, GKSt","type":"Große_Kreisstadt"},"district":{"key":"09774","name":"Günzburg","type":"Landkreis"},"federalState":{"key":"09","name":"Bayern"}},{"name":"Nelkenweg","postalCode":"87634","locality":"Obergünzburg","municipality":{"key":"09777154","name":"Obergünzburg, M","type":"Markt"},"district":{"key":"09777","name":"Ostallgäu","type":"Landkreis"},"federalState":{"key":"09","name":"Bayern"}},{"name":"Nelkenweg","postalCode":"89312","locality":"Günzburg","municipality":{"key":"09774135","name":"Günzburg, GKSt","type":"Große_Kreisstadt"},"district":{"key":"09774","name":"Günzburg","type":"Landkreis"},"federalState":{"key":"09","name":"Bayern"}},{"name":"Neubauerngäßle","postalCode":"87634","locality":"Obergünzburg","municipality":{"key":"09777154","name":"Obergünzburg, M","type":"Markt"},"district":{"key":"09777","name":"Ostallgäu","type":"Landkreis"},"federalState":{"key":"09","name":"Bayern"}},{"name":"Nikolausberg","postalCode":"87634","locality":"Obergünzburg","municipality":{"key":"09777154","name":"Obergünzburg, M","type":"Markt"},"district":{"key":"09777","name":"Ostallgäu","type":"Landkreis"},"federalState":{"key":"09","name":"Bayern"}},{"name":"Nikolausweg","postalCode":"87634","locality":"Obergünzburg","municipality":{"key":"09777154","name":"Obergünzburg, M","type":"Markt"},"district":{"key":"09777","name":"Ostallgäu","type":"Landkreis"},"federalState":{"key":"09","name":"Bayern"}},{"name":"Nördliches Günztal","postalCode":"89312","locality":"Günzburg","municipality":{"key":"09774135","name":"Günzburg, GKSt","type":"Große_Kreisstadt"},"district":{"key":"09774","name":"Günzburg","type":"Landkreis"},"federalState":{"key":"09","name":"Bayern"}},{"name":"Nordstr.","postalCode":"89312","locality":"Günzburg","municipality":{"key":"09774135","name":"Günzburg, GKSt","type":"Große_Kreisstadt"},"district":{"key":"09774","name":"Günzburg","type":"Landkreis"},"federalState":{"key":"09","name":"Bayern"}},{"name":"Nornheimer Berg","postalCode":"89312","locality":"Günzburg","municipality":{"key":"09774135","name":"Günzburg, GKSt","type":"Große_Kreisstadt"},"district":{"key":"09774","name":"Günzburg","type":"Landkreis"},"federalState":{"key":"09","name":"Bayern"}},{"name":"Nornheimer Str.","postalCode":"89312","locality":"Günzburg","municipality":{"key":"09774135","name":"Günzburg, GKSt","type":"Große_Kreisstadt"},"district":{"key":"09774","name":"Günzburg","type":"Landkreis"},"federalState":{"key":"09","name":"Bayern"}},{"name":"Nusser-von-Nußeck-Str.","postalCode":"89312","locality":"Günzburg","municipality":{"key":"09774135","name":"Günzburg, GKSt","type":"Große_Kreisstadt"},"district":{"key":"09774","name":"Günzburg","type":"Landkreis"},"federalState":{"key":"09","name":"Bayern"}},{"name":"Obere Str.","postalCode":"89365","locality":"Röfingen","municipality":{"key":"09774178","name":"Röfingen","type":"Kreisangehörige_Gemeinde"},"district":{"key":"09774","name":"Günzburg","type":"Landkreis"},"federalState":{"key":"09","name":"Bayern"}},{"name":"Pappelweg","postalCode":"89312","locality":"Günzburg","municipality":{"key":"09774135","name":"Günzburg, GKSt","type":"Große_Kreisstadt"},"district":{"key":"09774","name":"Günzburg","type":"Landkreis"},"federalState":{"key":"09","name":"Bayern"}},{"name":"Park im ehemaligen Hofgarten","postalCode":"89312","locality":"Günzburg","municipality":{"key":"09774135","name":"Günzburg, GKSt","type":"Große_Kreisstadt"},"district":{"key":"09774","name":"Günzburg","type":"Landkreis"},"federalState":{"key":"09","name":"Bayern"}},{"name":"Parkstr.","postalCode":"89312","locality":"Günzburg","municipality":{"key":"09774135","name":"Günzburg, GKSt","type":"Große_Kreisstadt"},"district":{"key":"09774","name":"Günzburg","type":"Landkreis"},"federalState":{"key":"09","name":"Bayern"}},{"name":"Paul-Auer-Str.","postalCode":"89312","locality":"Günzburg","municipality":{"key":"09774135","name":"Günzburg, GKSt","type":"Große_Kreisstadt"},"district":{"key":"09774","name":"Günzburg","type":"Landkreis"},"federalState":{"key":"09","name":"Bayern"}},{"name":"Pestalozzistr.","postalCode":"89312","locality":"Günzburg","municipality":{"key":"09774135","name":"Günzburg, GKSt","type":"Große_Kreisstadt"},"district":{"key":"09774","name":"Günzburg","type":"Landkreis"},"federalState":{"key":"09","name":"Bayern"}},{"name":"Peter-Henlein-Str.","postalCode":"89312","locality":"Günzburg","municipality":{"key":"09774135","name":"Günzburg, GKSt","type":"Große_Kreisstadt"},"district":{"key":"09774","name":"Günzburg","type":"Landkreis"},"federalState":{"key":"09","name":"Bayern"}},{"name":"Pfarrer-Bunz-Str.","postalCode":"89312","locality":"Günzburg","municipality":{"key":"09774135","name":"Günzburg, GKSt","type":"Große_Kreisstadt"},"district":{"key":"09774","name":"Günzburg","type":"Landkreis"},"federalState":{"key":"09","name":"Bayern"}},{"name":"Pfarrgasse","postalCode":"89312","locality":"Günzburg","municipality":{"key":"09774135","name":"Günzburg, GKSt","type":"Große_Kreisstadt"},"district":{"key":"09774","name":"Günzburg","type":"Landkreis"},"federalState":{"key":"09","name":"Bayern"}},{"name":"Pfarrhofplatz","postalCode":"89312","locality":"Günzburg","municipality":{"key":"09774135","name":"Günzburg, GKSt","type":"Große_Kreisstadt"},"district":{"key":"09774","name":"Günzburg","type":"Landkreis"},"federalState":{"key":"09","name":"Bayern"}},{"name":"Pfarrweg","postalCode":"87634","locality":"Obergünzburg","municipality":{"key":"09777154","name":"Obergünzburg, M","type":"Markt"},"district":{"key":"09777","name":"Ostallgäu","type":"Landkreis"},"federalState":{"key":"09","name":"Bayern"}},{"name":"Philippine-Welser-Str.","postalCode":"89312","locality":"Günzburg","municipality":{"key":"09774135","name":"Günzburg, GKSt","type":"Große_Kreisstadt"},"district":{"key":"09774","name":"Günzburg","type":"Landkreis"},"federalState":{"key":"09","name":"Bayern"}},{"name":"Pointgasse","postalCode":"89312","locality":"Günzburg","municipality":{"key":"09774135","name":"Günzburg, GKSt","type":"Große_Kreisstadt"},"district":{"key":"09774","name":"Günzburg","type":"Landkreis"},"federalState":{"key":"09","name":"Bayern"}},{"name":"Pommernweg","postalCode":"87634","locality":"Obergünzburg","municipality":{"key":"09777154","name":"Obergünzburg, M","type":"Markt"},"district":{"key":"09777","name":"Ostallgäu","type":"Landkreis"},"federalState":{"key":"09","name":"Bayern"}},{"name":"Postgasse","postalCode":"89312","locality":"Günzburg","municipality":{"key":"09774135","name":"Günzburg, GKSt","type":"Große_Kreisstadt"},"district":{"key":"09774","name":"Günzburg","type":"Landkreis"},"federalState":{"key":"09","name":"Bayern"}},{"name":"Poststr.","postalCode":"87634","locality":"Obergünzburg","municipality":{"key":"09777154","name":"Obergünzburg, M","type":"Markt"},"district":{"key":"09777","name":"Ostallgäu","type":"Landkreis"},"federalState":{"key":"09","name":"Bayern"}},{"name":"Primelweg","postalCode":"87634","locality":"Obergünzburg","municipality":{"key":"09777154","name":"Obergünzburg, M","type":"Markt"},"district":{"key":"09777","name":"Ostallgäu","type":"Landkreis"},"federalState":{"key":"09","name":"Bayern"}},{"name":"Rosengäßchen","postalCode":"89365","locality":"Röfingen","municipality":{"key":"09774178","name":"Röfingen","type":"Kreisangehörige_Gemeinde"},"district":{"key":"09774","name":"Günzburg","type":"Landkreis"},"federalState":{"key":"09","name":"Bayern"}},{"name":"Sankt Leonhardstr.","postalCode":"89365","locality":"Röfingen","municipality":{"key":"09774178","name":"Röfingen","type":"Kreisangehörige_Gemeinde"},"district":{"key":"09774","name":"Günzburg","type":"Landkreis"},"federalState":{"key":"09","name":"Bayern"}},{"name":"Schönstr.","postalCode":"89365","locality":"Röfingen","municipality":{"key":"09774178","name":"Röfingen","type":"Kreisangehörige_Gemeinde"},"district":{"key":"09774","name":"Günzburg","type":"Landkreis"},"federalState":{"key":"09","name":"Bayern"}},{"name":"Schulstr.","postalCode":"89365","locality":"Röfingen","municipality":{"key":"09774178","name":"Röfingen","type":"Kreisangehörige_Gemeinde"},"district":{"key":"09774","name":"Günzburg","type":"Landkreis"},"federalState":{"key":"09","name":"Bayern"}},{"name":"Sonnenstr.","postalCode":"89365","locality":"Röfingen","municipality":{"key":"09774178","name":"Röfingen","type":"Kreisangehörige_Gemeinde"},"district":{"key":"09774","name":"Günzburg","type":"Landkreis"},"federalState":{"key":"09","name":"Bayern"}},{"name":"Thannhauser Str.","postalCode":"89365","locality":"Röfingen","municipality":{"key":"09774178","name":"Röfingen","type":"Kreisangehörige_Gemeinde"},"district":{"key":"09774","name":"Günzburg","type":"Landkreis"},"federalState":{"key":"09","name":"Bayern"}},{"name":"Triebstr.","postalCode":"89365","locality":"Röfingen","municipality":{"key":"09774178","name":"Röfingen","type":"Kreisangehörige_Gemeinde"},"district":{"key":"09774","name":"Günzburg","type":"Landkreis"},"federalState":{"key":"09","name":"Bayern"}},{"name":"Uhlandstr.","postalCode":"89312","locality":"Günzburg","municipality":{"key":"09774135","name":"Günzburg, GKSt","type":"Große_Kreisstadt"},"district":{"key":"09774","name":"Günzburg","type":"Landkreis"},"federalState":{"key":"09","name":"Bayern"}},{"name":"Uhresweg","postalCode":"87634","locality":"Obergünzburg","municipality":{"key":"09777154","name":"Obergünzburg, M","type":"Markt"},"district":{"key":"09777","name":"Ostallgäu","type":"Landkreis"},"federalState":{"key":"09","name":"Bayern"}},{"name":"Ulmer-Boten-Weg","postalCode":"89312","locality":"Günzburg","municipality":{"key":"09774135","name":"Günzburg, GKSt","type":"Große_Kreisstadt"},"district":{"key":"09774","name":"Günzburg","type":"Landkreis"},"federalState":{"key":"09","name":"Bayern"}},{"name":"Ulmer Str.","postalCode":"89312","locality":"Günzburg","municipality":{"key":"09774135","name":"Günzburg, GKSt","type":"Große_Kreisstadt"},"district":{"key":"09774","name":"Günzburg","type":"Landkreis"},"federalState":{"key":"09","name":"Bayern"}},{"name":"Ulrich-Rapp-Str.","postalCode":"87634","locality":"Obergünzburg","municipality":{"key":"09777154","name":"Obergünzburg, M","type":"Markt"},"district":{"key":"09777","name":"Ostallgäu","type":"Landkreis"},"federalState":{"key":"09","name":"Bayern"}},{"name":"Ulrichstr.","postalCode":"89312","locality":"Günzburg","municipality":{"key":"09774135","name":"Günzburg, GKSt","type":"Große_Kreisstadt"},"district":{"key":"09774","name":"Günzburg","type":"Landkreis"},"federalState":{"key":"09","name":"Bayern"}},{"name":"Ulugasse","postalCode":"89312","locality":"Günzburg","municipality":{"key":"09774135","name":"Günzburg, GKSt","type":"Große_Kreisstadt"},"district":{"key":"09774","name":"Günzburg","type":"Landkreis"},"federalState":{"key":"09","name":"Bayern"}},{"name":"Untere Dorfstr.","postalCode":"89312","locality":"Günzburg","municipality":{"key":"09774135","name":"Günzburg, GKSt","type":"Große_Kreisstadt"},"district":{"key":"09774","name":"Günzburg","type":"Landkreis"},"federalState":{"key":"09","name":"Bayern"}},{"name":"Unterer Markt","postalCode":"87634","locality":"Obergünzburg","municipality":{"key":"09777154","name":"Obergünzburg, M","type":"Markt"},"district":{"key":"09777","name":"Ostallgäu","type":"Landkreis"},"federalState":{"key":"09","name":"Bayern"}},{"name":"Unterer Moosweg","postalCode":"89312","locality":"Günzburg","municipality":{"key":"09774135","name":"Günzburg, GKSt","type":"Große_Kreisstadt"},"district":{"key":"09774","name":"Günzburg","type":"Landkreis"},"federalState":{"key":"09","name":"Bayern"}},{"name":"Veilchenweg","postalCode":"89312","locality":"Günzburg","municipality":{"key":"09774135","name":"Günzburg, GKSt","type":"Große_Kreisstadt"},"district":{"key":"09774","name":"Günzburg","type":"Landkreis"},"federalState":{"key":"09","name":"Bayern"}},{"name":"Verkehrsinsel","postalCode":"89312","locality":"Günzburg","municipality":{"key":"09774135","name":"Günzburg, GKSt","type":"Große_Kreisstadt"},"district":{"key":"09774","name":"Günzburg","type":"Landkreis"},"federalState":{"key":"09","name":"Bayern"}},{"name":"Via-Julia-Ring","postalCode":"89312","locality":"Günzburg","municipality":{"key":"09774135","name":"Günzburg, GKSt","type":"Große_Kreisstadt"},"district":{"key":"09774","name":"Günzburg","type":"Landkreis"},"federalState":{"key":"09","name":"Bayern"}},{"name":"Viehweidweg","postalCode":"87634","locality":"Obergünzburg","municipality":{"key":"09777154","name":"Obergünzburg, M","type":"Markt"},"district":{"key":"09777","name":"Ostallgäu","type":"Landkreis"},"federalState":{"key":"09","name":"Bayern"}},{"name":"Vinzentinerinnenweg","postalCode":"87634","locality":"Obergünzburg","municipality":{"key":"09777154","name":"Obergünzburg, M","type":"Markt"},"district":{"key":"09777","name":"Ostallgäu","type":"Landkreis"},"federalState":{"key":"09","name":"Bayern"}},{"name":"Violastr.","postalCode":"89312","locality":"Günzburg","municipality":{"key":"09774135","name":"Günzburg, GKSt","type":"Große_Kreisstadt"},"district":{"key":"09774","name":"Günzburg","type":"Landkreis"},"federalState":{"key":"09","name":"Bayern"}},{"name":"Von-Burkhardt-Str.","postalCode":"89312","locality":"Günzburg","municipality":{"key":"09774135","name":"Günzburg, GKSt","type":"Große_Kreisstadt"},"district":{"key":"09774","name":"Günzburg","type":"Landkreis"},"federalState":{"key":"09","name":"Bayern"}},{"name":"Von-Gielsberg-Str.","postalCode":"89312","locality":"Günzburg","municipality":{"key":"09774135","name":"Günzburg, GKSt","type":"Große_Kreisstadt"},"district":{"key":"09774","name":"Günzburg","type":"Landkreis"},"federalState":{"key":"09","name":"Bayern"}},{"name":"Von-Grafenegg-Str.","postalCode":"87634","locality":"Obergünzburg","municipality":{"key":"09777154","name":"Obergünzburg, M","type":"Markt"},"district":{"key":"09777","name":"Ostallgäu","type":"Landkreis"},"federalState":{"key":"09","name":"Bayern"}},{"name":"Von-Greyerz-Str.","postalCode":"89312","locality":"Günzburg","municipality":{"key":"09774135","name":"Günzburg, GKSt","type":"Große_Kreisstadt"},"district":{"key":"09774","name":"Günzburg","type":"Landkreis"},"federalState":{"key":"09","name":"Bayern"}},{"name":"Von-Grünenstein-Str.","postalCode":"87634","locality":"Obergünzburg","municipality":{"key":"09777154","name":"Obergünzburg, M","type":"Markt"},"district":{"key":"09777","name":"Ostallgäu","type":"Landkreis"},"federalState":{"key":"09","name":"Bayern"}},{"name":"Von-Maldeghem-Str.","postalCode":"89312","locality":"Günzburg","municipality":{"key":"09774135","name":"Günzburg, GKSt","type":"Große_Kreisstadt"},"district":{"key":"09774","name":"Günzburg","type":"Landkreis"},"federalState":{"key":"09","name":"Bayern"}},{"name":"Von-Richthofen-Str.","postalCode":"89312","locality":"Günzburg","municipality":{"key":"09774135","name":"Günzburg, GKSt","type":"Große_Kreisstadt"},"district":{"key":"09774","name":"Günzburg","type":"Landkreis"},"federalState":{"key":"09","name":"Bayern"}},{"name":"Von-Riedheim-Str.","postalCode":"89312","locality":"Günzburg","municipality":{"key":"09774135","name":"Günzburg, GKSt","type":"Große_Kreisstadt"},"district":{"key":"09774","name":"Günzburg","type":"Landkreis"},"federalState":{"key":"09","name":"Bayern"}},{"name":"Von-Schönau-Weg","postalCode":"87634","locality":"Obergünzburg","municipality":{"key":"09777154","name":"Obergünzburg, M","type":"Markt"},"district":{"key":"09777","name":"Ostallgäu","type":"Landkreis"},"federalState":{"key":"09","name":"Bayern"}},{"name":"Von-Stain-Str.","postalCode":"89312","locality":"Günzburg","municipality":{"key":"09774135","name":"Günzburg, GKSt","type":"Große_Kreisstadt"},"district":{"key":"09774","name":"Günzburg","type":"Landkreis"},"federalState":{"key":"09","name":"Bayern"}},{"name":"Von-Stuben-Str.","postalCode":"87634","locality":"Obergünzburg","municipality":{"key":"09777154","name":"Obergünzburg, M","type":"Markt"},"district":{"key":"09777","name":"Ostallgäu","type":"Landkreis"},"federalState":{"key":"09","name":"Bayern"}},{"name":"Wäsleinstr.","postalCode":"89365","locality":"Röfingen","municipality":{"key":"09774178","name":"Röfingen","type":"Kreisangehörige_Gemeinde"},"district":{"key":"09774","name":"Günzburg","type":"Landkreis"},"federalState":{"key":"09","name":"Bayern"}},{"name":"Xaver-Bayer-Str.","postalCode":"89312","locality":"Günzburg","municipality":{"key":"09774135","name":"Günzburg, GKSt","type":"Große_Kreisstadt"},"district":{"key":"09774","name":"Günzburg","type":"Landkreis"},"federalState":{"key":"09","name":"Bayern"}},{"name":"Ziegelstr.","postalCode":"89365","locality":"Röfingen","municipality":{"key":"09774178","name":"Röfingen","type":"Kreisangehörige_Gemeinde"},"district":{"key":"09774","name":"Günzburg","type":"Landkreis"},"federalState":{"key":"09","name":"Bayern"}},{"name":"Äußere Brunnengasse","postalCode":"89312","locality":"Günzburg","municipality":{"key":"09774135","name":"Günzburg, GKSt","type":"Große_Kreisstadt"},"district":{"key":"09774","name":"Günzburg","type":"Landkreis"},"federalState":{"key":"09","name":"Bayern"}},{"name":"Öschweg","postalCode":"87634","locality":"Obergünzburg","municipality":{"key":"09777154","name":"Obergünzburg, M","type":"Markt"},"district":{"key":"09777","name":"Ostallgäu","type":"Landkreis"},"federalState":{"key":"09","name":"Bayern"}},]