[{"key":"10147150","name":"Via A. Daldini","postalCode":"6943","locality":"Vezia","commune":{"key":"5231","name":"Vezia","shortName":"Vezia"},"district":{"key":"2105","name":"Distretto di Lugano"},"canton":{"key":"21","code":"TI","name":"Ticino"},"status":"Real"},{"key":"10194646","name":"Via ai Cedri","postalCode":"6943","locality":"Vezia","commune":{"key":"5231","name":"Vezia","shortName":"Vezia"},"district":{"key":"2105","name":"Distretto di Lugano"},"canton":{"key":"21","code":"TI","name":"Ticino"},"status":"Real"},{"key":"10147151","name":"Via ai Forni","postalCode":"6943","locality":"Vezia","commune":{"key":"5231","name":"Vezia","shortName":"Vezia"},"district":{"key":"2105","name":"Distretto di Lugano"},"canton":{"key":"21","code":"TI","name":"Ticino"},"status":"Real"},{"key":"10147152","name":"Via ai Lotti","postalCode":"6943","locality":"Vezia","commune":{"key":"5231","name":"Vezia","shortName":"Vezia"},"district":{"key":"2105","name":"Distretto di Lugano"},"canton":{"key":"21","code":"TI","name":"Ticino"},"status":"Real"},{"key":"10147153","name":"Via ai Platani","postalCode":"6943","locality":"Vezia","commune":{"key":"5231","name":"Vezia","shortName":"Vezia"},"district":{"key":"2105","name":"Distretto di Lugano"},"canton":{"key":"21","code":"TI","name":"Ticino"},"status":"Real"},{"key":"10147154","name":"Via ai Ronchi","postalCode":"6943","locality":"Vezia","commune":{"key":"5231","name":"Vezia","shortName":"Vezia"},"district":{"key":"2105","name":"Distretto di Lugano"},"canton":{"key":"21","code":"TI","name":"Ticino"},"status":"Real"},{"key":"10151791","name":"Via alla Cassina","postalCode":"6943","locality":"Vezia","commune":{"key":"5231","name":"Vezia","shortName":"Vezia"},"district":{"key":"2105","name":"Distretto di Lugano"},"canton":{"key":"21","code":"TI","name":"Ticino"},"status":"Real"},{"key":"10147155","name":"Via alla Monda","postalCode":"6943","locality":"Vezia","commune":{"key":"5231","name":"Vezia","shortName":"Vezia"},"district":{"key":"2105","name":"Distretto di Lugano"},"canton":{"key":"21","code":"TI","name":"Ticino"},"status":"Real"},{"key":"10158665","name":"Via al Mulino","postalCode":"6943","locality":"Vezia","commune":{"key":"5231","name":"Vezia","shortName":"Vezia"},"district":{"key":"2105","name":"Distretto di Lugano"},"canton":{"key":"21","code":"TI","name":"Ticino"},"status":"Real"},{"key":"10147159","name":"Via Borromini","postalCode":"6943","locality":"Vezia","commune":{"key":"5231","name":"Vezia","shortName":"Vezia"},"district":{"key":"2105","name":"Distretto di Lugano"},"canton":{"key":"21","code":"TI","name":"Ticino"},"status":"Real"},{"key":"10147156","name":"Via Ca' del Caccia","postalCode":"6943","locality":"Vezia","commune":{"key":"5231","name":"Vezia","shortName":"Vezia"},"district":{"key":"2105","name":"Distretto di Lugano"},"canton":{"key":"21","code":"TI","name":"Ticino"},"status":"Real"},{"key":"10237880","name":"Via Costa","postalCode":"6943","locality":"Vezia","commune":{"key":"5231","name":"Vezia","shortName":"Vezia"},"district":{"key":"2105","name":"Distretto di Lugano"},"canton":{"key":"21","code":"TI","name":"Ticino"},"status":"Real"},{"key":"10135942","name":"Via Crespera","postalCode":"6943","locality":"Vezia","commune":{"key":"5231","name":"Vezia","shortName":"Vezia"},"district":{"key":"2105","name":"Distretto di Lugano"},"canton":{"key":"21","code":"TI","name":"Ticino"},"status":"Real"},{"key":"10147157","name":"Via del Sole","postalCode":"6943","locality":"Vezia","commune":{"key":"5231","name":"Vezia","shortName":"Vezia"},"district":{"key":"2105","name":"Distretto di Lugano"},"canton":{"key":"21","code":"TI","name":"Ticino"},"status":"Real"},{"key":"10142162","name":"Via Ernesto Otto Bally","postalCode":"6943","locality":"Vezia","commune":{"key":"5231","name":"Vezia","shortName":"Vezia"},"district":{"key":"2105","name":"Distretto di Lugano"},"canton":{"key":"21","code":"TI","name":"Ticino"},"status":"Real"},{"key":"10147158","name":"Via Ferrata","postalCode":"6943","locality":"Vezia","commune":{"key":"5231","name":"Vezia","shortName":"Vezia"},"district":{"key":"2105","name":"Distretto di Lugano"},"canton":{"key":"21","code":"TI","name":"Ticino"},"status":"Real"},{"key":"10147160","name":"Via Gerbone","postalCode":"6943","locality":"Vezia","commune":{"key":"5231","name":"Vezia","shortName":"Vezia"},"district":{"key":"2105","name":"Distretto di Lugano"},"canton":{"key":"21","code":"TI","name":"Ticino"},"status":"Real"},{"key":"10147161","name":"Via Kosciuszko","postalCode":"6943","locality":"Vezia","commune":{"key":"5231","name":"Vezia","shortName":"Vezia"},"district":{"key":"2105","name":"Distretto di Lugano"},"canton":{"key":"21","code":"TI","name":"Ticino"},"status":"Real"},{"key":"10147162","name":"Via Luvelina","postalCode":"6943","locality":"Vezia","commune":{"key":"5231","name":"Vezia","shortName":"Vezia"},"district":{"key":"2105","name":"Distretto di Lugano"},"canton":{"key":"21","code":"TI","name":"Ticino"},"status":"Real"},{"key":"10147163","name":"Via Malombra","postalCode":"6943","locality":"Vezia","commune":{"key":"5231","name":"Vezia","shortName":"Vezia"},"district":{"key":"2105","name":"Distretto di Lugano"},"canton":{"key":"21","code":"TI","name":"Ticino"},"status":"Real"},{"key":"10147164","name":"Via Marnigo","postalCode":"6943","locality":"Vezia","commune":{"key":"5231","name":"Vezia","shortName":"Vezia"},"district":{"key":"2105","name":"Distretto di Lugano"},"canton":{"key":"21","code":"TI","name":"Ticino"},"status":"Real"},{"key":"10134965","name":"Via Mattro","postalCode":"6943","locality":"Vezia","commune":{"key":"5231","name":"Vezia","shortName":"Vezia"},"district":{"key":"2105","name":"Distretto di Lugano"},"canton":{"key":"21","code":"TI","name":"Ticino"},"status":"Real"},{"key":"10147166","name":"Via Morbio","postalCode":"6943","locality":"Vezia","commune":{"key":"5231","name":"Vezia","shortName":"Vezia"},"district":{"key":"2105","name":"Distretto di Lugano"},"canton":{"key":"21","code":"TI","name":"Ticino"},"status":"Real"},{"key":"10147167","name":"Via Morosini","postalCode":"6943","locality":"Vezia","commune":{"key":"5231","name":"Vezia","shortName":"Vezia"},"district":{"key":"2105","name":"Distretto di Lugano"},"canton":{"key":"21","code":"TI","name":"Ticino"},"status":"Real"},{"key":"10147168","name":"Via Regina","postalCode":"6943","locality":"Vezia","commune":{"key":"5231","name":"Vezia","shortName":"Vezia"},"district":{"key":"2105","name":"Distretto di Lugano"},"canton":{"key":"21","code":"TI","name":"Ticino"},"status":"Real"},{"key":"10147169","name":"Via Ressega","postalCode":"6943","locality":"Vezia","commune":{"key":"5231","name":"Vezia","shortName":"Vezia"},"district":{"key":"2105","name":"Distretto di Lugano"},"canton":{"key":"21","code":"TI","name":"Ticino"},"status":"Real"},{"key":"10147170","name":"Via San Gottardo","postalCode":"6943","locality":"Vezia","commune":{"key":"5231","name":"Vezia","shortName":"Vezia"},"district":{"key":"2105","name":"Distretto di Lugano"},"canton":{"key":"21","code":"TI","name":"Ticino"},"status":"Real"},{"key":"10147171","name":"Via San Martino","postalCode":"6943","locality":"Vezia","commune":{"key":"5231","name":"Vezia","shortName":"Vezia"},"district":{"key":"2105","name":"Distretto di Lugano"},"canton":{"key":"21","code":"TI","name":"Ticino"},"status":"Real"},{"key":"10147172","name":"Via Selva","postalCode":"6943","locality":"Vezia","commune":{"key":"5231","name":"Vezia","shortName":"Vezia"},"district":{"key":"2105","name":"Distretto di Lugano"},"canton":{"key":"21","code":"TI","name":"Ticino"},"status":"Real"},{"key":"10147173","name":"Via Streccia","postalCode":"6943","locality":"Vezia","commune":{"key":"5231","name":"Vezia","shortName":"Vezia"},"district":{"key":"2105","name":"Distretto di Lugano"},"canton":{"key":"21","code":"TI","name":"Ticino"},"status":"Real"},{"key":"10147174","name":"Vicolo Antico","postalCode":"6943","locality":"Vezia","commune":{"key":"5231","name":"Vezia","shortName":"Vezia"},"district":{"key":"2105","name":"Distretto di Lugano"},"canton":{"key":"21","code":"TI","name":"Ticino"},"status":"Real"},]