[{"name":"Adalbert-Stifter-Str.","postalCode":"69245","locality":"Bammental","municipality":{"key":"08226006","name":"Bammental","type":"Kreisangehörige_Gemeinde"},"district":{"key":"08226","name":"Rhein-Neckar-Kreis","type":"Landkreis"},"federalState":{"key":"08","name":"Baden-Württemberg"}},{"name":"Ahornweg","postalCode":"69245","locality":"Bammental","municipality":{"key":"08226006","name":"Bammental","type":"Kreisangehörige_Gemeinde"},"district":{"key":"08226","name":"Rhein-Neckar-Kreis","type":"Landkreis"},"federalState":{"key":"08","name":"Baden-Württemberg"}},{"name":"Alfons-Mauser-Str.","postalCode":"69245","locality":"Bammental","municipality":{"key":"08226006","name":"Bammental","type":"Kreisangehörige_Gemeinde"},"district":{"key":"08226","name":"Rhein-Neckar-Kreis","type":"Landkreis"},"federalState":{"key":"08","name":"Baden-Württemberg"}},{"name":"Alter Bachweg","postalCode":"69245","locality":"Bammental","municipality":{"key":"08226006","name":"Bammental","type":"Kreisangehörige_Gemeinde"},"district":{"key":"08226","name":"Rhein-Neckar-Kreis","type":"Landkreis"},"federalState":{"key":"08","name":"Baden-Württemberg"}},{"name":"Alter Steigplatz","postalCode":"69245","locality":"Bammental","municipality":{"key":"08226006","name":"Bammental","type":"Kreisangehörige_Gemeinde"},"district":{"key":"08226","name":"Rhein-Neckar-Kreis","type":"Landkreis"},"federalState":{"key":"08","name":"Baden-Württemberg"}},{"name":"Alte Steigstr.","postalCode":"69245","locality":"Bammental","municipality":{"key":"08226006","name":"Bammental","type":"Kreisangehörige_Gemeinde"},"district":{"key":"08226","name":"Rhein-Neckar-Kreis","type":"Landkreis"},"federalState":{"key":"08","name":"Baden-Württemberg"}},{"name":"Am Heldenberg","postalCode":"69245","locality":"Bammental","municipality":{"key":"08226006","name":"Bammental","type":"Kreisangehörige_Gemeinde"},"district":{"key":"08226","name":"Rhein-Neckar-Kreis","type":"Landkreis"},"federalState":{"key":"08","name":"Baden-Württemberg"}},{"name":"Am Krähberg","postalCode":"69245","locality":"Bammental","municipality":{"key":"08226006","name":"Bammental","type":"Kreisangehörige_Gemeinde"},"district":{"key":"08226","name":"Rhein-Neckar-Kreis","type":"Landkreis"},"federalState":{"key":"08","name":"Baden-Württemberg"}},{"name":"Ammelwiesenweg","postalCode":"69245","locality":"Bammental","municipality":{"key":"08226006","name":"Bammental","type":"Kreisangehörige_Gemeinde"},"district":{"key":"08226","name":"Rhein-Neckar-Kreis","type":"Landkreis"},"federalState":{"key":"08","name":"Baden-Württemberg"}},{"name":"Am Steinling","postalCode":"69245","locality":"Bammental","municipality":{"key":"08226006","name":"Bammental","type":"Kreisangehörige_Gemeinde"},"district":{"key":"08226","name":"Rhein-Neckar-Kreis","type":"Landkreis"},"federalState":{"key":"08","name":"Baden-Württemberg"}},{"name":"Bammentaler Str.","postalCode":"69245","locality":"Bammental","municipality":{"key":"08226006","name":"Bammental","type":"Kreisangehörige_Gemeinde"},"district":{"key":"08226","name":"Rhein-Neckar-Kreis","type":"Landkreis"},"federalState":{"key":"08","name":"Baden-Württemberg"}},{"name":"Bammertsbergweg","postalCode":"69245","locality":"Bammental","municipality":{"key":"08226006","name":"Bammental","type":"Kreisangehörige_Gemeinde"},"district":{"key":"08226","name":"Rhein-Neckar-Kreis","type":"Landkreis"},"federalState":{"key":"08","name":"Baden-Württemberg"}},{"name":"Beethovenstr.","postalCode":"69245","locality":"Bammental","municipality":{"key":"08226006","name":"Bammental","type":"Kreisangehörige_Gemeinde"},"district":{"key":"08226","name":"Rhein-Neckar-Kreis","type":"Landkreis"},"federalState":{"key":"08","name":"Baden-Württemberg"}},{"name":"Bergweg","postalCode":"69245","locality":"Bammental","municipality":{"key":"08226006","name":"Bammental","type":"Kreisangehörige_Gemeinde"},"district":{"key":"08226","name":"Rhein-Neckar-Kreis","type":"Landkreis"},"federalState":{"key":"08","name":"Baden-Württemberg"}},{"name":"Bleichwiesenweg","postalCode":"69245","locality":"Bammental","municipality":{"key":"08226006","name":"Bammental","type":"Kreisangehörige_Gemeinde"},"district":{"key":"08226","name":"Rhein-Neckar-Kreis","type":"Landkreis"},"federalState":{"key":"08","name":"Baden-Württemberg"}},{"name":"Blumenstr.","postalCode":"69245","locality":"Bammental","municipality":{"key":"08226006","name":"Bammental","type":"Kreisangehörige_Gemeinde"},"district":{"key":"08226","name":"Rhein-Neckar-Kreis","type":"Landkreis"},"federalState":{"key":"08","name":"Baden-Württemberg"}},{"name":"Brucknerstr.","postalCode":"69245","locality":"Bammental","municipality":{"key":"08226006","name":"Bammental","type":"Kreisangehörige_Gemeinde"},"district":{"key":"08226","name":"Rhein-Neckar-Kreis","type":"Landkreis"},"federalState":{"key":"08","name":"Baden-Württemberg"}},{"name":"Brünnlesweg","postalCode":"69245","locality":"Bammental","municipality":{"key":"08226006","name":"Bammental","type":"Kreisangehörige_Gemeinde"},"district":{"key":"08226","name":"Rhein-Neckar-Kreis","type":"Landkreis"},"federalState":{"key":"08","name":"Baden-Württemberg"}},{"name":"Carl-Maria-von-Weber-Str.","postalCode":"69245","locality":"Bammental","municipality":{"key":"08226006","name":"Bammental","type":"Kreisangehörige_Gemeinde"},"district":{"key":"08226","name":"Rhein-Neckar-Kreis","type":"Landkreis"},"federalState":{"key":"08","name":"Baden-Württemberg"}},{"name":"Carl-Orff-Str.","postalCode":"69245","locality":"Bammental","municipality":{"key":"08226006","name":"Bammental","type":"Kreisangehörige_Gemeinde"},"district":{"key":"08226","name":"Rhein-Neckar-Kreis","type":"Landkreis"},"federalState":{"key":"08","name":"Baden-Württemberg"}},{"name":"Dammweg","postalCode":"69245","locality":"Bammental","municipality":{"key":"08226006","name":"Bammental","type":"Kreisangehörige_Gemeinde"},"district":{"key":"08226","name":"Rhein-Neckar-Kreis","type":"Landkreis"},"federalState":{"key":"08","name":"Baden-Württemberg"}},{"name":"Donauschwabenweg","postalCode":"69245","locality":"Bammental","municipality":{"key":"08226006","name":"Bammental","type":"Kreisangehörige_Gemeinde"},"district":{"key":"08226","name":"Rhein-Neckar-Kreis","type":"Landkreis"},"federalState":{"key":"08","name":"Baden-Württemberg"}},{"name":"Eichendorffweg","postalCode":"69245","locality":"Bammental","municipality":{"key":"08226006","name":"Bammental","type":"Kreisangehörige_Gemeinde"},"district":{"key":"08226","name":"Rhein-Neckar-Kreis","type":"Landkreis"},"federalState":{"key":"08","name":"Baden-Württemberg"}},{"name":"Eselsweg","postalCode":"69245","locality":"Bammental","municipality":{"key":"08226006","name":"Bammental","type":"Kreisangehörige_Gemeinde"},"district":{"key":"08226","name":"Rhein-Neckar-Kreis","type":"Landkreis"},"federalState":{"key":"08","name":"Baden-Württemberg"}},{"name":"Fabrikstr.","postalCode":"69245","locality":"Bammental","municipality":{"key":"08226006","name":"Bammental","type":"Kreisangehörige_Gemeinde"},"district":{"key":"08226","name":"Rhein-Neckar-Kreis","type":"Landkreis"},"federalState":{"key":"08","name":"Baden-Württemberg"}},{"name":"Fasanenweg","postalCode":"69245","locality":"Bammental","municipality":{"key":"08226006","name":"Bammental","type":"Kreisangehörige_Gemeinde"},"district":{"key":"08226","name":"Rhein-Neckar-Kreis","type":"Landkreis"},"federalState":{"key":"08","name":"Baden-Württemberg"}},{"name":"Fester Weg","postalCode":"69245","locality":"Bammental","municipality":{"key":"08226006","name":"Bammental","type":"Kreisangehörige_Gemeinde"},"district":{"key":"08226","name":"Rhein-Neckar-Kreis","type":"Landkreis"},"federalState":{"key":"08","name":"Baden-Württemberg"}},{"name":"Fischersberg","postalCode":"69245","locality":"Bammental","municipality":{"key":"08226006","name":"Bammental","type":"Kreisangehörige_Gemeinde"},"district":{"key":"08226","name":"Rhein-Neckar-Kreis","type":"Landkreis"},"federalState":{"key":"08","name":"Baden-Württemberg"}},{"name":"Flachslöcherweg","postalCode":"69245","locality":"Bammental","municipality":{"key":"08226006","name":"Bammental","type":"Kreisangehörige_Gemeinde"},"district":{"key":"08226","name":"Rhein-Neckar-Kreis","type":"Landkreis"},"federalState":{"key":"08","name":"Baden-Württemberg"}},{"name":"Fliederstr.","postalCode":"69245","locality":"Bammental","municipality":{"key":"08226006","name":"Bammental","type":"Kreisangehörige_Gemeinde"},"district":{"key":"08226","name":"Rhein-Neckar-Kreis","type":"Landkreis"},"federalState":{"key":"08","name":"Baden-Württemberg"}},{"name":"Flußgasse","postalCode":"69245","locality":"Bammental","municipality":{"key":"08226006","name":"Bammental","type":"Kreisangehörige_Gemeinde"},"district":{"key":"08226","name":"Rhein-Neckar-Kreis","type":"Landkreis"},"federalState":{"key":"08","name":"Baden-Württemberg"}},{"name":"Forlenweg","postalCode":"69245","locality":"Bammental","municipality":{"key":"08226006","name":"Bammental","type":"Kreisangehörige_Gemeinde"},"district":{"key":"08226","name":"Rhein-Neckar-Kreis","type":"Landkreis"},"federalState":{"key":"08","name":"Baden-Württemberg"}},{"name":"Friedhofstr.","postalCode":"69245","locality":"Bammental","municipality":{"key":"08226006","name":"Bammental","type":"Kreisangehörige_Gemeinde"},"district":{"key":"08226","name":"Rhein-Neckar-Kreis","type":"Landkreis"},"federalState":{"key":"08","name":"Baden-Württemberg"}},{"name":"Friedhofsweg","postalCode":"69245","locality":"Bammental","municipality":{"key":"08226006","name":"Bammental","type":"Kreisangehörige_Gemeinde"},"district":{"key":"08226","name":"Rhein-Neckar-Kreis","type":"Landkreis"},"federalState":{"key":"08","name":"Baden-Württemberg"}},{"name":"Fuchslöcherweg","postalCode":"69245","locality":"Bammental","municipality":{"key":"08226006","name":"Bammental","type":"Kreisangehörige_Gemeinde"},"district":{"key":"08226","name":"Rhein-Neckar-Kreis","type":"Landkreis"},"federalState":{"key":"08","name":"Baden-Württemberg"}},{"name":"Gaiberger Str.","postalCode":"69245","locality":"Bammental","municipality":{"key":"08226006","name":"Bammental","type":"Kreisangehörige_Gemeinde"},"district":{"key":"08226","name":"Rhein-Neckar-Kreis","type":"Landkreis"},"federalState":{"key":"08","name":"Baden-Württemberg"}},{"name":"Galgenhangweg","postalCode":"69245","locality":"Bammental","municipality":{"key":"08226006","name":"Bammental","type":"Kreisangehörige_Gemeinde"},"district":{"key":"08226","name":"Rhein-Neckar-Kreis","type":"Landkreis"},"federalState":{"key":"08","name":"Baden-Württemberg"}},{"name":"Gartenstr.","postalCode":"69245","locality":"Bammental","municipality":{"key":"08226006","name":"Bammental","type":"Kreisangehörige_Gemeinde"},"district":{"key":"08226","name":"Rhein-Neckar-Kreis","type":"Landkreis"},"federalState":{"key":"08","name":"Baden-Württemberg"}},{"name":"Gerhart-Hauptmann-Str.","postalCode":"69245","locality":"Bammental","municipality":{"key":"08226006","name":"Bammental","type":"Kreisangehörige_Gemeinde"},"district":{"key":"08226","name":"Rhein-Neckar-Kreis","type":"Landkreis"},"federalState":{"key":"08","name":"Baden-Württemberg"}},{"name":"Grenzweg","postalCode":"69245","locality":"Bammental","municipality":{"key":"08226006","name":"Bammental","type":"Kreisangehörige_Gemeinde"},"district":{"key":"08226","name":"Rhein-Neckar-Kreis","type":"Landkreis"},"federalState":{"key":"08","name":"Baden-Württemberg"}},{"name":"Großer Höhenweg","postalCode":"69245","locality":"Bammental","municipality":{"key":"08226006","name":"Bammental","type":"Kreisangehörige_Gemeinde"},"district":{"key":"08226","name":"Rhein-Neckar-Kreis","type":"Landkreis"},"federalState":{"key":"08","name":"Baden-Württemberg"}},{"name":"Grüner Baum-Weg","postalCode":"69245","locality":"Bammental","municipality":{"key":"08226006","name":"Bammental","type":"Kreisangehörige_Gemeinde"},"district":{"key":"08226","name":"Rhein-Neckar-Kreis","type":"Landkreis"},"federalState":{"key":"08","name":"Baden-Württemberg"}},{"name":"Guttenbergstr.","postalCode":"69245","locality":"Bammental","municipality":{"key":"08226006","name":"Bammental","type":"Kreisangehörige_Gemeinde"},"district":{"key":"08226","name":"Rhein-Neckar-Kreis","type":"Landkreis"},"federalState":{"key":"08","name":"Baden-Württemberg"}},{"name":"Händelstr.","postalCode":"69245","locality":"Bammental","municipality":{"key":"08226006","name":"Bammental","type":"Kreisangehörige_Gemeinde"},"district":{"key":"08226","name":"Rhein-Neckar-Kreis","type":"Landkreis"},"federalState":{"key":"08","name":"Baden-Württemberg"}},{"name":"Hangweg","postalCode":"69245","locality":"Bammental","municipality":{"key":"08226006","name":"Bammental","type":"Kreisangehörige_Gemeinde"},"district":{"key":"08226","name":"Rhein-Neckar-Kreis","type":"Landkreis"},"federalState":{"key":"08","name":"Baden-Württemberg"}},{"name":"Hans-Thoma-Weg","postalCode":"69245","locality":"Bammental","municipality":{"key":"08226006","name":"Bammental","type":"Kreisangehörige_Gemeinde"},"district":{"key":"08226","name":"Rhein-Neckar-Kreis","type":"Landkreis"},"federalState":{"key":"08","name":"Baden-Württemberg"}},{"name":"Hasensprungweg","postalCode":"69245","locality":"Bammental","municipality":{"key":"08226006","name":"Bammental","type":"Kreisangehörige_Gemeinde"},"district":{"key":"08226","name":"Rhein-Neckar-Kreis","type":"Landkreis"},"federalState":{"key":"08","name":"Baden-Württemberg"}},{"name":"Hauptstr.","postalCode":"69245","locality":"Bammental","municipality":{"key":"08226006","name":"Bammental","type":"Kreisangehörige_Gemeinde"},"district":{"key":"08226","name":"Rhein-Neckar-Kreis","type":"Landkreis"},"federalState":{"key":"08","name":"Baden-Württemberg"}},{"name":"Haydnstr.","postalCode":"69245","locality":"Bammental","municipality":{"key":"08226006","name":"Bammental","type":"Kreisangehörige_Gemeinde"},"district":{"key":"08226","name":"Rhein-Neckar-Kreis","type":"Landkreis"},"federalState":{"key":"08","name":"Baden-Württemberg"}},{"name":"Heldenweg","postalCode":"69245","locality":"Bammental","municipality":{"key":"08226006","name":"Bammental","type":"Kreisangehörige_Gemeinde"},"district":{"key":"08226","name":"Rhein-Neckar-Kreis","type":"Landkreis"},"federalState":{"key":"08","name":"Baden-Württemberg"}},{"name":"Hermann-Löns-Weg","postalCode":"69245","locality":"Bammental","municipality":{"key":"08226006","name":"Bammental","type":"Kreisangehörige_Gemeinde"},"district":{"key":"08226","name":"Rhein-Neckar-Kreis","type":"Landkreis"},"federalState":{"key":"08","name":"Baden-Württemberg"}},{"name":"Hesselweg","postalCode":"69245","locality":"Bammental","municipality":{"key":"08226006","name":"Bammental","type":"Kreisangehörige_Gemeinde"},"district":{"key":"08226","name":"Rhein-Neckar-Kreis","type":"Landkreis"},"federalState":{"key":"08","name":"Baden-Württemberg"}},{"name":"Hindemithweg","postalCode":"69245","locality":"Bammental","municipality":{"key":"08226006","name":"Bammental","type":"Kreisangehörige_Gemeinde"},"district":{"key":"08226","name":"Rhein-Neckar-Kreis","type":"Landkreis"},"federalState":{"key":"08","name":"Baden-Württemberg"}},{"name":"Hofäckerstr.","postalCode":"69245","locality":"Bammental","municipality":{"key":"08226006","name":"Bammental","type":"Kreisangehörige_Gemeinde"},"district":{"key":"08226","name":"Rhein-Neckar-Kreis","type":"Landkreis"},"federalState":{"key":"08","name":"Baden-Württemberg"}},{"name":"Höhenweg","postalCode":"69245","locality":"Bammental","municipality":{"key":"08226006","name":"Bammental","type":"Kreisangehörige_Gemeinde"},"district":{"key":"08226","name":"Rhein-Neckar-Kreis","type":"Landkreis"},"federalState":{"key":"08","name":"Baden-Württemberg"}},{"name":"Im Boden","postalCode":"69245","locality":"Bammental","municipality":{"key":"08226006","name":"Bammental","type":"Kreisangehörige_Gemeinde"},"district":{"key":"08226","name":"Rhein-Neckar-Kreis","type":"Landkreis"},"federalState":{"key":"08","name":"Baden-Württemberg"}},{"name":"Im Degen","postalCode":"69245","locality":"Bammental","municipality":{"key":"08226006","name":"Bammental","type":"Kreisangehörige_Gemeinde"},"district":{"key":"08226","name":"Rhein-Neckar-Kreis","type":"Landkreis"},"federalState":{"key":"08","name":"Baden-Württemberg"}},{"name":"Im Grund","postalCode":"69245","locality":"Bammental","municipality":{"key":"08226006","name":"Bammental","type":"Kreisangehörige_Gemeinde"},"district":{"key":"08226","name":"Rhein-Neckar-Kreis","type":"Landkreis"},"federalState":{"key":"08","name":"Baden-Württemberg"}},{"name":"Im Schlag","postalCode":"69245","locality":"Bammental","municipality":{"key":"08226006","name":"Bammental","type":"Kreisangehörige_Gemeinde"},"district":{"key":"08226","name":"Rhein-Neckar-Kreis","type":"Landkreis"},"federalState":{"key":"08","name":"Baden-Württemberg"}},{"name":"In den Brunnenwiesen","postalCode":"69245","locality":"Bammental","municipality":{"key":"08226006","name":"Bammental","type":"Kreisangehörige_Gemeinde"},"district":{"key":"08226","name":"Rhein-Neckar-Kreis","type":"Landkreis"},"federalState":{"key":"08","name":"Baden-Württemberg"}},{"name":"Industriestr.","postalCode":"69245","locality":"Bammental","municipality":{"key":"08226006","name":"Bammental","type":"Kreisangehörige_Gemeinde"},"district":{"key":"08226","name":"Rhein-Neckar-Kreis","type":"Landkreis"},"federalState":{"key":"08","name":"Baden-Württemberg"}},{"name":"Johann-Sebastian-Bach-Str.","postalCode":"69245","locality":"Bammental","municipality":{"key":"08226006","name":"Bammental","type":"Kreisangehörige_Gemeinde"},"district":{"key":"08226","name":"Rhein-Neckar-Kreis","type":"Landkreis"},"federalState":{"key":"08","name":"Baden-Württemberg"}},{"name":"Jugendheimweg","postalCode":"69245","locality":"Bammental","municipality":{"key":"08226006","name":"Bammental","type":"Kreisangehörige_Gemeinde"},"district":{"key":"08226","name":"Rhein-Neckar-Kreis","type":"Landkreis"},"federalState":{"key":"08","name":"Baden-Württemberg"}},{"name":"Kalkbrunnenweg","postalCode":"69245","locality":"Bammental","municipality":{"key":"08226006","name":"Bammental","type":"Kreisangehörige_Gemeinde"},"district":{"key":"08226","name":"Rhein-Neckar-Kreis","type":"Landkreis"},"federalState":{"key":"08","name":"Baden-Württemberg"}},{"name":"Kiesgrabenweg","postalCode":"69245","locality":"Bammental","municipality":{"key":"08226006","name":"Bammental","type":"Kreisangehörige_Gemeinde"},"district":{"key":"08226","name":"Rhein-Neckar-Kreis","type":"Landkreis"},"federalState":{"key":"08","name":"Baden-Württemberg"}},{"name":"Kirchbergstr.","postalCode":"69245","locality":"Bammental","municipality":{"key":"08226006","name":"Bammental","type":"Kreisangehörige_Gemeinde"},"district":{"key":"08226","name":"Rhein-Neckar-Kreis","type":"Landkreis"},"federalState":{"key":"08","name":"Baden-Württemberg"}},{"name":"Kirchenrainweg","postalCode":"69245","locality":"Bammental","municipality":{"key":"08226006","name":"Bammental","type":"Kreisangehörige_Gemeinde"},"district":{"key":"08226","name":"Rhein-Neckar-Kreis","type":"Landkreis"},"federalState":{"key":"08","name":"Baden-Württemberg"}},{"name":"Königstuhlblick","postalCode":"69245","locality":"Bammental","municipality":{"key":"08226006","name":"Bammental","type":"Kreisangehörige_Gemeinde"},"district":{"key":"08226","name":"Rhein-Neckar-Kreis","type":"Landkreis"},"federalState":{"key":"08","name":"Baden-Württemberg"}},{"name":"Kraichgaublick","postalCode":"69245","locality":"Bammental","municipality":{"key":"08226006","name":"Bammental","type":"Kreisangehörige_Gemeinde"},"district":{"key":"08226","name":"Rhein-Neckar-Kreis","type":"Landkreis"},"federalState":{"key":"08","name":"Baden-Württemberg"}},{"name":"Kriegsmühle","postalCode":"69151","locality":"Bammental","municipality":{"key":"08226006","name":"Bammental","type":"Kreisangehörige_Gemeinde"},"district":{"key":"08226","name":"Rhein-Neckar-Kreis","type":"Landkreis"},"federalState":{"key":"08","name":"Baden-Württemberg"}},{"name":"Kurpfalzring","postalCode":"69245","locality":"Bammental","municipality":{"key":"08226006","name":"Bammental","type":"Kreisangehörige_Gemeinde"},"district":{"key":"08226","name":"Rhein-Neckar-Kreis","type":"Landkreis"},"federalState":{"key":"08","name":"Baden-Württemberg"}},{"name":"Lachenweg","postalCode":"69245","locality":"Bammental","municipality":{"key":"08226006","name":"Bammental","type":"Kreisangehörige_Gemeinde"},"district":{"key":"08226","name":"Rhein-Neckar-Kreis","type":"Landkreis"},"federalState":{"key":"08","name":"Baden-Württemberg"}},{"name":"Langheckenstr.","postalCode":"69245","locality":"Bammental","municipality":{"key":"08226006","name":"Bammental","type":"Kreisangehörige_Gemeinde"},"district":{"key":"08226","name":"Rhein-Neckar-Kreis","type":"Landkreis"},"federalState":{"key":"08","name":"Baden-Württemberg"}},{"name":"Lärchenweg","postalCode":"69245","locality":"Bammental","municipality":{"key":"08226006","name":"Bammental","type":"Kreisangehörige_Gemeinde"},"district":{"key":"08226","name":"Rhein-Neckar-Kreis","type":"Landkreis"},"federalState":{"key":"08","name":"Baden-Württemberg"}},{"name":"Leharstr.","postalCode":"69245","locality":"Bammental","municipality":{"key":"08226006","name":"Bammental","type":"Kreisangehörige_Gemeinde"},"district":{"key":"08226","name":"Rhein-Neckar-Kreis","type":"Landkreis"},"federalState":{"key":"08","name":"Baden-Württemberg"}},{"name":"Lilienstr.","postalCode":"69245","locality":"Bammental","municipality":{"key":"08226006","name":"Bammental","type":"Kreisangehörige_Gemeinde"},"district":{"key":"08226","name":"Rhein-Neckar-Kreis","type":"Landkreis"},"federalState":{"key":"08","name":"Baden-Württemberg"}},{"name":"Lisztstr.","postalCode":"69245","locality":"Bammental","municipality":{"key":"08226006","name":"Bammental","type":"Kreisangehörige_Gemeinde"},"district":{"key":"08226","name":"Rhein-Neckar-Kreis","type":"Landkreis"},"federalState":{"key":"08","name":"Baden-Württemberg"}},{"name":"Lochwiesenweg","postalCode":"69245","locality":"Bammental","municipality":{"key":"08226006","name":"Bammental","type":"Kreisangehörige_Gemeinde"},"district":{"key":"08226","name":"Rhein-Neckar-Kreis","type":"Landkreis"},"federalState":{"key":"08","name":"Baden-Württemberg"}},{"name":"Losenbergweg","postalCode":"69245","locality":"Bammental","municipality":{"key":"08226006","name":"Bammental","type":"Kreisangehörige_Gemeinde"},"district":{"key":"08226","name":"Rhein-Neckar-Kreis","type":"Landkreis"},"federalState":{"key":"08","name":"Baden-Württemberg"}},{"name":"Lui-Allee","postalCode":"69245","locality":"Bammental","municipality":{"key":"08226006","name":"Bammental","type":"Kreisangehörige_Gemeinde"},"district":{"key":"08226","name":"Rhein-Neckar-Kreis","type":"Landkreis"},"federalState":{"key":"08","name":"Baden-Württemberg"}},{"name":"Max-Reger-Str.","postalCode":"69245","locality":"Bammental","municipality":{"key":"08226006","name":"Bammental","type":"Kreisangehörige_Gemeinde"},"district":{"key":"08226","name":"Rhein-Neckar-Kreis","type":"Landkreis"},"federalState":{"key":"08","name":"Baden-Württemberg"}},{"name":"Mittlerer Bachseitenweg","postalCode":"69245","locality":"Bammental","municipality":{"key":"08226006","name":"Bammental","type":"Kreisangehörige_Gemeinde"},"district":{"key":"08226","name":"Rhein-Neckar-Kreis","type":"Landkreis"},"federalState":{"key":"08","name":"Baden-Württemberg"}},{"name":"Mittlerer Bergweg","postalCode":"69245","locality":"Bammental","municipality":{"key":"08226006","name":"Bammental","type":"Kreisangehörige_Gemeinde"},"district":{"key":"08226","name":"Rhein-Neckar-Kreis","type":"Landkreis"},"federalState":{"key":"08","name":"Baden-Württemberg"}},{"name":"Mittlerer Neuer Weg","postalCode":"69245","locality":"Bammental","municipality":{"key":"08226006","name":"Bammental","type":"Kreisangehörige_Gemeinde"},"district":{"key":"08226","name":"Rhein-Neckar-Kreis","type":"Landkreis"},"federalState":{"key":"08","name":"Baden-Württemberg"}},{"name":"Mozartstr.","postalCode":"69245","locality":"Bammental","municipality":{"key":"08226006","name":"Bammental","type":"Kreisangehörige_Gemeinde"},"district":{"key":"08226","name":"Rhein-Neckar-Kreis","type":"Landkreis"},"federalState":{"key":"08","name":"Baden-Württemberg"}},{"name":"Mühlweg","postalCode":"69245","locality":"Bammental","municipality":{"key":"08226006","name":"Bammental","type":"Kreisangehörige_Gemeinde"},"district":{"key":"08226","name":"Rhein-Neckar-Kreis","type":"Landkreis"},"federalState":{"key":"08","name":"Baden-Württemberg"}},{"name":"Oberdorfstr.","postalCode":"69245","locality":"Bammental","municipality":{"key":"08226006","name":"Bammental","type":"Kreisangehörige_Gemeinde"},"district":{"key":"08226","name":"Rhein-Neckar-Kreis","type":"Landkreis"},"federalState":{"key":"08","name":"Baden-Württemberg"}},{"name":"Oberer Blumenstrichweg","postalCode":"69245","locality":"Bammental","municipality":{"key":"08226006","name":"Bammental","type":"Kreisangehörige_Gemeinde"},"district":{"key":"08226","name":"Rhein-Neckar-Kreis","type":"Landkreis"},"federalState":{"key":"08","name":"Baden-Württemberg"}},{"name":"Oberer Grenzweg","postalCode":"69245","locality":"Bammental","municipality":{"key":"08226006","name":"Bammental","type":"Kreisangehörige_Gemeinde"},"district":{"key":"08226","name":"Rhein-Neckar-Kreis","type":"Landkreis"},"federalState":{"key":"08","name":"Baden-Württemberg"}},{"name":"Oberer Neuer Weg","postalCode":"69245","locality":"Bammental","municipality":{"key":"08226006","name":"Bammental","type":"Kreisangehörige_Gemeinde"},"district":{"key":"08226","name":"Rhein-Neckar-Kreis","type":"Landkreis"},"federalState":{"key":"08","name":"Baden-Württemberg"}},{"name":"Odenwaldblick","postalCode":"69245","locality":"Bammental","municipality":{"key":"08226006","name":"Bammental","type":"Kreisangehörige_Gemeinde"},"district":{"key":"08226","name":"Rhein-Neckar-Kreis","type":"Landkreis"},"federalState":{"key":"08","name":"Baden-Württemberg"}},{"name":"Paul-Lincke-Weg","postalCode":"69245","locality":"Bammental","municipality":{"key":"08226006","name":"Bammental","type":"Kreisangehörige_Gemeinde"},"district":{"key":"08226","name":"Rhein-Neckar-Kreis","type":"Landkreis"},"federalState":{"key":"08","name":"Baden-Württemberg"}},{"name":"Peter-Hebel-Weg","postalCode":"69245","locality":"Bammental","municipality":{"key":"08226006","name":"Bammental","type":"Kreisangehörige_Gemeinde"},"district":{"key":"08226","name":"Rhein-Neckar-Kreis","type":"Landkreis"},"federalState":{"key":"08","name":"Baden-Württemberg"}},{"name":"Pfarrgasse","postalCode":"69245","locality":"Bammental","municipality":{"key":"08226006","name":"Bammental","type":"Kreisangehörige_Gemeinde"},"district":{"key":"08226","name":"Rhein-Neckar-Kreis","type":"Landkreis"},"federalState":{"key":"08","name":"Baden-Württemberg"}},{"name":"Pfitznerstr.","postalCode":"69245","locality":"Bammental","municipality":{"key":"08226006","name":"Bammental","type":"Kreisangehörige_Gemeinde"},"district":{"key":"08226","name":"Rhein-Neckar-Kreis","type":"Landkreis"},"federalState":{"key":"08","name":"Baden-Württemberg"}},{"name":"Postweg","postalCode":"69245","locality":"Bammental","municipality":{"key":"08226006","name":"Bammental","type":"Kreisangehörige_Gemeinde"},"district":{"key":"08226","name":"Rhein-Neckar-Kreis","type":"Landkreis"},"federalState":{"key":"08","name":"Baden-Württemberg"}},{"name":"Reilsheimer Mühlweg","postalCode":"69245","locality":"Bammental","municipality":{"key":"08226006","name":"Bammental","type":"Kreisangehörige_Gemeinde"},"district":{"key":"08226","name":"Rhein-Neckar-Kreis","type":"Landkreis"},"federalState":{"key":"08","name":"Baden-Württemberg"}},{"name":"Reilsheimer Str.","postalCode":"69245","locality":"Bammental","municipality":{"key":"08226006","name":"Bammental","type":"Kreisangehörige_Gemeinde"},"district":{"key":"08226","name":"Rhein-Neckar-Kreis","type":"Landkreis"},"federalState":{"key":"08","name":"Baden-Württemberg"}},{"name":"Reitersbuckel","postalCode":"69245","locality":"Bammental","municipality":{"key":"08226006","name":"Bammental","type":"Kreisangehörige_Gemeinde"},"district":{"key":"08226","name":"Rhein-Neckar-Kreis","type":"Landkreis"},"federalState":{"key":"08","name":"Baden-Württemberg"}},{"name":"Reitweg","postalCode":"69245","locality":"Bammental","municipality":{"key":"08226006","name":"Bammental","type":"Kreisangehörige_Gemeinde"},"district":{"key":"08226","name":"Rhein-Neckar-Kreis","type":"Landkreis"},"federalState":{"key":"08","name":"Baden-Württemberg"}},{"name":"Richard-Strauß-Str.","postalCode":"69245","locality":"Bammental","municipality":{"key":"08226006","name":"Bammental","type":"Kreisangehörige_Gemeinde"},"district":{"key":"08226","name":"Rhein-Neckar-Kreis","type":"Landkreis"},"federalState":{"key":"08","name":"Baden-Württemberg"}},{"name":"Ringstr.","postalCode":"69245","locality":"Bammental","municipality":{"key":"08226006","name":"Bammental","type":"Kreisangehörige_Gemeinde"},"district":{"key":"08226","name":"Rhein-Neckar-Kreis","type":"Landkreis"},"federalState":{"key":"08","name":"Baden-Württemberg"}},{"name":"Römerweg","postalCode":"69245","locality":"Bammental","municipality":{"key":"08226006","name":"Bammental","type":"Kreisangehörige_Gemeinde"},"district":{"key":"08226","name":"Rhein-Neckar-Kreis","type":"Landkreis"},"federalState":{"key":"08","name":"Baden-Württemberg"}},{"name":"Rosenstr.","postalCode":"69245","locality":"Bammental","municipality":{"key":"08226006","name":"Bammental","type":"Kreisangehörige_Gemeinde"},"district":{"key":"08226","name":"Rhein-Neckar-Kreis","type":"Landkreis"},"federalState":{"key":"08","name":"Baden-Württemberg"}},{"name":"Rotenbergweg","postalCode":"69245","locality":"Bammental","municipality":{"key":"08226006","name":"Bammental","type":"Kreisangehörige_Gemeinde"},"district":{"key":"08226","name":"Rhein-Neckar-Kreis","type":"Landkreis"},"federalState":{"key":"08","name":"Baden-Württemberg"}},{"name":"Rückenweg","postalCode":"69245","locality":"Bammental","municipality":{"key":"08226006","name":"Bammental","type":"Kreisangehörige_Gemeinde"},"district":{"key":"08226","name":"Rhein-Neckar-Kreis","type":"Landkreis"},"federalState":{"key":"08","name":"Baden-Württemberg"}},{"name":"Sackweg","postalCode":"69245","locality":"Bammental","municipality":{"key":"08226006","name":"Bammental","type":"Kreisangehörige_Gemeinde"},"district":{"key":"08226","name":"Rhein-Neckar-Kreis","type":"Landkreis"},"federalState":{"key":"08","name":"Baden-Württemberg"}},{"name":"Satzenbuckelweg","postalCode":"69245","locality":"Bammental","municipality":{"key":"08226006","name":"Bammental","type":"Kreisangehörige_Gemeinde"},"district":{"key":"08226","name":"Rhein-Neckar-Kreis","type":"Landkreis"},"federalState":{"key":"08","name":"Baden-Württemberg"}},{"name":"Schubertstr.","postalCode":"69245","locality":"Bammental","municipality":{"key":"08226006","name":"Bammental","type":"Kreisangehörige_Gemeinde"},"district":{"key":"08226","name":"Rhein-Neckar-Kreis","type":"Landkreis"},"federalState":{"key":"08","name":"Baden-Württemberg"}},{"name":"Schulstr.","postalCode":"69245","locality":"Bammental","municipality":{"key":"08226006","name":"Bammental","type":"Kreisangehörige_Gemeinde"},"district":{"key":"08226","name":"Rhein-Neckar-Kreis","type":"Landkreis"},"federalState":{"key":"08","name":"Baden-Württemberg"}},{"name":"Schumannstr.","postalCode":"69245","locality":"Bammental","municipality":{"key":"08226006","name":"Bammental","type":"Kreisangehörige_Gemeinde"},"district":{"key":"08226","name":"Rhein-Neckar-Kreis","type":"Landkreis"},"federalState":{"key":"08","name":"Baden-Württemberg"}},{"name":"Schützenhausstr.","postalCode":"69245","locality":"Bammental","municipality":{"key":"08226006","name":"Bammental","type":"Kreisangehörige_Gemeinde"},"district":{"key":"08226","name":"Rhein-Neckar-Kreis","type":"Landkreis"},"federalState":{"key":"08","name":"Baden-Württemberg"}},{"name":"Schwimmbadstr.","postalCode":"69245","locality":"Bammental","municipality":{"key":"08226006","name":"Bammental","type":"Kreisangehörige_Gemeinde"},"district":{"key":"08226","name":"Rhein-Neckar-Kreis","type":"Landkreis"},"federalState":{"key":"08","name":"Baden-Württemberg"}},{"name":"Silcherweg","postalCode":"69245","locality":"Bammental","municipality":{"key":"08226006","name":"Bammental","type":"Kreisangehörige_Gemeinde"},"district":{"key":"08226","name":"Rhein-Neckar-Kreis","type":"Landkreis"},"federalState":{"key":"08","name":"Baden-Württemberg"}},{"name":"Steinäckerstr.","postalCode":"69245","locality":"Bammental","municipality":{"key":"08226006","name":"Bammental","type":"Kreisangehörige_Gemeinde"},"district":{"key":"08226","name":"Rhein-Neckar-Kreis","type":"Landkreis"},"federalState":{"key":"08","name":"Baden-Württemberg"}},{"name":"Tauschackerweg","postalCode":"69245","locality":"Bammental","municipality":{"key":"08226006","name":"Bammental","type":"Kreisangehörige_Gemeinde"},"district":{"key":"08226","name":"Rhein-Neckar-Kreis","type":"Landkreis"},"federalState":{"key":"08","name":"Baden-Württemberg"}},{"name":"Teichweg","postalCode":"69245","locality":"Bammental","municipality":{"key":"08226006","name":"Bammental","type":"Kreisangehörige_Gemeinde"},"district":{"key":"08226","name":"Rhein-Neckar-Kreis","type":"Landkreis"},"federalState":{"key":"08","name":"Baden-Württemberg"}},{"name":"Tobiasbuckel","postalCode":"69245","locality":"Bammental","municipality":{"key":"08226006","name":"Bammental","type":"Kreisangehörige_Gemeinde"},"district":{"key":"08226","name":"Rhein-Neckar-Kreis","type":"Landkreis"},"federalState":{"key":"08","name":"Baden-Württemberg"}},{"name":"Totenweg","postalCode":"69245","locality":"Bammental","municipality":{"key":"08226006","name":"Bammental","type":"Kreisangehörige_Gemeinde"},"district":{"key":"08226","name":"Rhein-Neckar-Kreis","type":"Landkreis"},"federalState":{"key":"08","name":"Baden-Württemberg"}},{"name":"Tulpenstr.","postalCode":"69245","locality":"Bammental","municipality":{"key":"08226006","name":"Bammental","type":"Kreisangehörige_Gemeinde"},"district":{"key":"08226","name":"Rhein-Neckar-Kreis","type":"Landkreis"},"federalState":{"key":"08","name":"Baden-Württemberg"}},{"name":"Unter der Steige","postalCode":"69245","locality":"Bammental","municipality":{"key":"08226006","name":"Bammental","type":"Kreisangehörige_Gemeinde"},"district":{"key":"08226","name":"Rhein-Neckar-Kreis","type":"Landkreis"},"federalState":{"key":"08","name":"Baden-Württemberg"}},{"name":"Unterer Blumenstrichweg","postalCode":"69245","locality":"Bammental","municipality":{"key":"08226006","name":"Bammental","type":"Kreisangehörige_Gemeinde"},"district":{"key":"08226","name":"Rhein-Neckar-Kreis","type":"Landkreis"},"federalState":{"key":"08","name":"Baden-Württemberg"}},{"name":"Unterer Neuer Weg","postalCode":"69245","locality":"Bammental","municipality":{"key":"08226006","name":"Bammental","type":"Kreisangehörige_Gemeinde"},"district":{"key":"08226","name":"Rhein-Neckar-Kreis","type":"Landkreis"},"federalState":{"key":"08","name":"Baden-Württemberg"}},{"name":"Unterer Schwerspatweg","postalCode":"69245","locality":"Bammental","municipality":{"key":"08226006","name":"Bammental","type":"Kreisangehörige_Gemeinde"},"district":{"key":"08226","name":"Rhein-Neckar-Kreis","type":"Landkreis"},"federalState":{"key":"08","name":"Baden-Württemberg"}},{"name":"Vertusplatz","postalCode":"69245","locality":"Bammental","municipality":{"key":"08226006","name":"Bammental","type":"Kreisangehörige_Gemeinde"},"district":{"key":"08226","name":"Rhein-Neckar-Kreis","type":"Landkreis"},"federalState":{"key":"08","name":"Baden-Württemberg"}},{"name":"Viehtriebweg","postalCode":"69245","locality":"Bammental","municipality":{"key":"08226006","name":"Bammental","type":"Kreisangehörige_Gemeinde"},"district":{"key":"08226","name":"Rhein-Neckar-Kreis","type":"Landkreis"},"federalState":{"key":"08","name":"Baden-Württemberg"}},{"name":"Vorschlehern","postalCode":"69245","locality":"Bammental","municipality":{"key":"08226006","name":"Bammental","type":"Kreisangehörige_Gemeinde"},"district":{"key":"08226","name":"Rhein-Neckar-Kreis","type":"Landkreis"},"federalState":{"key":"08","name":"Baden-Württemberg"}},{"name":"Vorstädtl","postalCode":"69245","locality":"Bammental","municipality":{"key":"08226006","name":"Bammental","type":"Kreisangehörige_Gemeinde"},"district":{"key":"08226","name":"Rhein-Neckar-Kreis","type":"Landkreis"},"federalState":{"key":"08","name":"Baden-Württemberg"}},{"name":"Waldschwimmbad Bammental","postalCode":"69245","locality":"Bammental","municipality":{"key":"08226006","name":"Bammental","type":"Kreisangehörige_Gemeinde"},"district":{"key":"08226","name":"Rhein-Neckar-Kreis","type":"Landkreis"},"federalState":{"key":"08","name":"Baden-Württemberg"}},{"name":"Waldstr.","postalCode":"69245","locality":"Bammental","municipality":{"key":"08226006","name":"Bammental","type":"Kreisangehörige_Gemeinde"},"district":{"key":"08226","name":"Rhein-Neckar-Kreis","type":"Landkreis"},"federalState":{"key":"08","name":"Baden-Württemberg"}},{"name":"Weihwiesenweg","postalCode":"69245","locality":"Bammental","municipality":{"key":"08226006","name":"Bammental","type":"Kreisangehörige_Gemeinde"},"district":{"key":"08226","name":"Rhein-Neckar-Kreis","type":"Landkreis"},"federalState":{"key":"08","name":"Baden-Württemberg"}},{"name":"Wiesenbacher Landstr.","postalCode":"69245","locality":"Bammental","municipality":{"key":"08226006","name":"Bammental","type":"Kreisangehörige_Gemeinde"},"district":{"key":"08226","name":"Rhein-Neckar-Kreis","type":"Landkreis"},"federalState":{"key":"08","name":"Baden-Württemberg"}},{"name":"Wiesenbacher Str.","postalCode":"69245","locality":"Bammental","municipality":{"key":"08226006","name":"Bammental","type":"Kreisangehörige_Gemeinde"},"district":{"key":"08226","name":"Rhein-Neckar-Kreis","type":"Landkreis"},"federalState":{"key":"08","name":"Baden-Württemberg"}},]