[{"name":"Ahornweg","postalCode":"92715","locality":"Püchersreuth","municipality":{"key":"09374150","name":"Püchersreuth","type":"Kreisangehörige_Gemeinde"},"district":{"key":"09374","name":"Neustadt a.d.Waldnaab","type":"Landkreis"},"federalState":{"key":"09","name":"Bayern"}},{"name":"Am Bühl","postalCode":"92715","locality":"Püchersreuth","municipality":{"key":"09374150","name":"Püchersreuth","type":"Kreisangehörige_Gemeinde"},"district":{"key":"09374","name":"Neustadt a.d.Waldnaab","type":"Landkreis"},"federalState":{"key":"09","name":"Bayern"}},{"name":"Am Gries","postalCode":"92715","locality":"Püchersreuth","municipality":{"key":"09374150","name":"Püchersreuth","type":"Kreisangehörige_Gemeinde"},"district":{"key":"09374","name":"Neustadt a.d.Waldnaab","type":"Landkreis"},"federalState":{"key":"09","name":"Bayern"}},{"name":"Am Hundsrück","postalCode":"92715","locality":"Püchersreuth","municipality":{"key":"09374150","name":"Püchersreuth","type":"Kreisangehörige_Gemeinde"},"district":{"key":"09374","name":"Neustadt a.d.Waldnaab","type":"Landkreis"},"federalState":{"key":"09","name":"Bayern"}},{"name":"Am Lindenstock","postalCode":"92715","locality":"Püchersreuth","municipality":{"key":"09374150","name":"Püchersreuth","type":"Kreisangehörige_Gemeinde"},"district":{"key":"09374","name":"Neustadt a.d.Waldnaab","type":"Landkreis"},"federalState":{"key":"09","name":"Bayern"}},{"name":"B15","postalCode":"92715","locality":"Püchersreuth","municipality":{"key":"09374150","name":"Püchersreuth","type":"Kreisangehörige_Gemeinde"},"district":{"key":"09374","name":"Neustadt a.d.Waldnaab","type":"Landkreis"},"federalState":{"key":"09","name":"Bayern"}},{"name":"Bergweg","postalCode":"92715","locality":"Püchersreuth","municipality":{"key":"09374150","name":"Püchersreuth","type":"Kreisangehörige_Gemeinde"},"district":{"key":"09374","name":"Neustadt a.d.Waldnaab","type":"Landkreis"},"federalState":{"key":"09","name":"Bayern"}},{"name":"Bernhard-Roth-Weg","postalCode":"92715","locality":"Püchersreuth","municipality":{"key":"09374150","name":"Püchersreuth","type":"Kreisangehörige_Gemeinde"},"district":{"key":"09374","name":"Neustadt a.d.Waldnaab","type":"Landkreis"},"federalState":{"key":"09","name":"Bayern"}},{"name":"Birkenweg","postalCode":"92715","locality":"Püchersreuth","municipality":{"key":"09374150","name":"Püchersreuth","type":"Kreisangehörige_Gemeinde"},"district":{"key":"09374","name":"Neustadt a.d.Waldnaab","type":"Landkreis"},"federalState":{"key":"09","name":"Bayern"}},{"name":"Brunnenpaint","postalCode":"92715","locality":"Püchersreuth","municipality":{"key":"09374150","name":"Püchersreuth","type":"Kreisangehörige_Gemeinde"},"district":{"key":"09374","name":"Neustadt a.d.Waldnaab","type":"Landkreis"},"federalState":{"key":"09","name":"Bayern"}},{"name":"Brunnenweg","postalCode":"92715","locality":"Püchersreuth","municipality":{"key":"09374150","name":"Püchersreuth","type":"Kreisangehörige_Gemeinde"},"district":{"key":"09374","name":"Neustadt a.d.Waldnaab","type":"Landkreis"},"federalState":{"key":"09","name":"Bayern"}},{"name":"Buchgasse","postalCode":"92715","locality":"Püchersreuth","municipality":{"key":"09374150","name":"Püchersreuth","type":"Kreisangehörige_Gemeinde"},"district":{"key":"09374","name":"Neustadt a.d.Waldnaab","type":"Landkreis"},"federalState":{"key":"09","name":"Bayern"}},{"name":"Dorfstr.","postalCode":"92715","locality":"Püchersreuth","municipality":{"key":"09374150","name":"Püchersreuth","type":"Kreisangehörige_Gemeinde"},"district":{"key":"09374","name":"Neustadt a.d.Waldnaab","type":"Landkreis"},"federalState":{"key":"09","name":"Bayern"}},{"name":"Eichenweg","postalCode":"92715","locality":"Püchersreuth","municipality":{"key":"09374150","name":"Püchersreuth","type":"Kreisangehörige_Gemeinde"},"district":{"key":"09374","name":"Neustadt a.d.Waldnaab","type":"Landkreis"},"federalState":{"key":"09","name":"Bayern"}},{"name":"Erlenweg","postalCode":"92715","locality":"Püchersreuth","municipality":{"key":"09374150","name":"Püchersreuth","type":"Kreisangehörige_Gemeinde"},"district":{"key":"09374","name":"Neustadt a.d.Waldnaab","type":"Landkreis"},"federalState":{"key":"09","name":"Bayern"}},{"name":"Eschenweg","postalCode":"92715","locality":"Püchersreuth","municipality":{"key":"09374150","name":"Püchersreuth","type":"Kreisangehörige_Gemeinde"},"district":{"key":"09374","name":"Neustadt a.d.Waldnaab","type":"Landkreis"},"federalState":{"key":"09","name":"Bayern"}},{"name":"Fichtenweg","postalCode":"92715","locality":"Püchersreuth","municipality":{"key":"09374150","name":"Püchersreuth","type":"Kreisangehörige_Gemeinde"},"district":{"key":"09374","name":"Neustadt a.d.Waldnaab","type":"Landkreis"},"federalState":{"key":"09","name":"Bayern"}},{"name":"Floßer Str.","postalCode":"92715","locality":"Püchersreuth","municipality":{"key":"09374150","name":"Püchersreuth","type":"Kreisangehörige_Gemeinde"},"district":{"key":"09374","name":"Neustadt a.d.Waldnaab","type":"Landkreis"},"federalState":{"key":"09","name":"Bayern"}},{"name":"Flurstr.","postalCode":"92715","locality":"Püchersreuth","municipality":{"key":"09374150","name":"Püchersreuth","type":"Kreisangehörige_Gemeinde"},"district":{"key":"09374","name":"Neustadt a.d.Waldnaab","type":"Landkreis"},"federalState":{"key":"09","name":"Bayern"}},{"name":"Freiherr-von-Hundt-Str.","postalCode":"92715","locality":"Püchersreuth","municipality":{"key":"09374150","name":"Püchersreuth","type":"Kreisangehörige_Gemeinde"},"district":{"key":"09374","name":"Neustadt a.d.Waldnaab","type":"Landkreis"},"federalState":{"key":"09","name":"Bayern"}},{"name":"Friedhofweg","postalCode":"92715","locality":"Püchersreuth","municipality":{"key":"09374150","name":"Püchersreuth","type":"Kreisangehörige_Gemeinde"},"district":{"key":"09374","name":"Neustadt a.d.Waldnaab","type":"Landkreis"},"federalState":{"key":"09","name":"Bayern"}},{"name":"Gartenweg","postalCode":"92715","locality":"Püchersreuth","municipality":{"key":"09374150","name":"Püchersreuth","type":"Kreisangehörige_Gemeinde"},"district":{"key":"09374","name":"Neustadt a.d.Waldnaab","type":"Landkreis"},"federalState":{"key":"09","name":"Bayern"}},{"name":"Greutweg","postalCode":"92715","locality":"Püchersreuth","municipality":{"key":"09374150","name":"Püchersreuth","type":"Kreisangehörige_Gemeinde"},"district":{"key":"09374","name":"Neustadt a.d.Waldnaab","type":"Landkreis"},"federalState":{"key":"09","name":"Bayern"}},{"name":"Hauptstr.","postalCode":"92715","locality":"Püchersreuth","municipality":{"key":"09374150","name":"Püchersreuth","type":"Kreisangehörige_Gemeinde"},"district":{"key":"09374","name":"Neustadt a.d.Waldnaab","type":"Landkreis"},"federalState":{"key":"09","name":"Bayern"}},{"name":"Hutzlmühlstr.","postalCode":"92715","locality":"Püchersreuth","municipality":{"key":"09374150","name":"Püchersreuth","type":"Kreisangehörige_Gemeinde"},"district":{"key":"09374","name":"Neustadt a.d.Waldnaab","type":"Landkreis"},"federalState":{"key":"09","name":"Bayern"}},{"name":"Ilsenbacher Str.","postalCode":"92715","locality":"Püchersreuth","municipality":{"key":"09374150","name":"Püchersreuth","type":"Kreisangehörige_Gemeinde"},"district":{"key":"09374","name":"Neustadt a.d.Waldnaab","type":"Landkreis"},"federalState":{"key":"09","name":"Bayern"}},{"name":"Kahhof","postalCode":"92715","locality":"Püchersreuth","municipality":{"key":"09374150","name":"Püchersreuth","type":"Kreisangehörige_Gemeinde"},"district":{"key":"09374","name":"Neustadt a.d.Waldnaab","type":"Landkreis"},"federalState":{"key":"09","name":"Bayern"}},{"name":"Kahhofer Str.","postalCode":"92715","locality":"Püchersreuth","municipality":{"key":"09374150","name":"Püchersreuth","type":"Kreisangehörige_Gemeinde"},"district":{"key":"09374","name":"Neustadt a.d.Waldnaab","type":"Landkreis"},"federalState":{"key":"09","name":"Bayern"}},{"name":"Kahhofweg","postalCode":"92715","locality":"Püchersreuth","municipality":{"key":"09374150","name":"Püchersreuth","type":"Kreisangehörige_Gemeinde"},"district":{"key":"09374","name":"Neustadt a.d.Waldnaab","type":"Landkreis"},"federalState":{"key":"09","name":"Bayern"}},{"name":"Kastanienweg","postalCode":"92715","locality":"Püchersreuth","municipality":{"key":"09374150","name":"Püchersreuth","type":"Kreisangehörige_Gemeinde"},"district":{"key":"09374","name":"Neustadt a.d.Waldnaab","type":"Landkreis"},"federalState":{"key":"09","name":"Bayern"}},{"name":"Kirchenstr.","postalCode":"92715","locality":"Püchersreuth","municipality":{"key":"09374150","name":"Püchersreuth","type":"Kreisangehörige_Gemeinde"},"district":{"key":"09374","name":"Neustadt a.d.Waldnaab","type":"Landkreis"},"federalState":{"key":"09","name":"Bayern"}},{"name":"Kirchplatz","postalCode":"92715","locality":"Püchersreuth","municipality":{"key":"09374150","name":"Püchersreuth","type":"Kreisangehörige_Gemeinde"},"district":{"key":"09374","name":"Neustadt a.d.Waldnaab","type":"Landkreis"},"federalState":{"key":"09","name":"Bayern"}},{"name":"Lamplmühlstr.","postalCode":"92715","locality":"Püchersreuth","municipality":{"key":"09374150","name":"Püchersreuth","type":"Kreisangehörige_Gemeinde"},"district":{"key":"09374","name":"Neustadt a.d.Waldnaab","type":"Landkreis"},"federalState":{"key":"09","name":"Bayern"}},{"name":"Lärchenweg","postalCode":"92715","locality":"Püchersreuth","municipality":{"key":"09374150","name":"Püchersreuth","type":"Kreisangehörige_Gemeinde"},"district":{"key":"09374","name":"Neustadt a.d.Waldnaab","type":"Landkreis"},"federalState":{"key":"09","name":"Bayern"}},{"name":"Lohweg","postalCode":"92715","locality":"Püchersreuth","municipality":{"key":"09374150","name":"Püchersreuth","type":"Kreisangehörige_Gemeinde"},"district":{"key":"09374","name":"Neustadt a.d.Waldnaab","type":"Landkreis"},"federalState":{"key":"09","name":"Bayern"}},{"name":"Mitteldorf","postalCode":"92715","locality":"Püchersreuth","municipality":{"key":"09374150","name":"Püchersreuth","type":"Kreisangehörige_Gemeinde"},"district":{"key":"09374","name":"Neustadt a.d.Waldnaab","type":"Landkreis"},"federalState":{"key":"09","name":"Bayern"}},{"name":"Mitteldorfer Str.","postalCode":"92715","locality":"Püchersreuth","municipality":{"key":"09374150","name":"Püchersreuth","type":"Kreisangehörige_Gemeinde"},"district":{"key":"09374","name":"Neustadt a.d.Waldnaab","type":"Landkreis"},"federalState":{"key":"09","name":"Bayern"}},{"name":"Neuhauser Str.","postalCode":"92715","locality":"Püchersreuth","municipality":{"key":"09374150","name":"Püchersreuth","type":"Kreisangehörige_Gemeinde"},"district":{"key":"09374","name":"Neustadt a.d.Waldnaab","type":"Landkreis"},"federalState":{"key":"09","name":"Bayern"}},{"name":"Neustädter Str.","postalCode":"92715","locality":"Püchersreuth","municipality":{"key":"09374150","name":"Püchersreuth","type":"Kreisangehörige_Gemeinde"},"district":{"key":"09374","name":"Neustadt a.d.Waldnaab","type":"Landkreis"},"federalState":{"key":"09","name":"Bayern"}},{"name":"Pfaffenreuth","postalCode":"92715","locality":"Püchersreuth","municipality":{"key":"09374150","name":"Püchersreuth","type":"Kreisangehörige_Gemeinde"},"district":{"key":"09374","name":"Neustadt a.d.Waldnaab","type":"Landkreis"},"federalState":{"key":"09","name":"Bayern"}},{"name":"Pfarrgasse","postalCode":"92715","locality":"Püchersreuth","municipality":{"key":"09374150","name":"Püchersreuth","type":"Kreisangehörige_Gemeinde"},"district":{"key":"09374","name":"Neustadt a.d.Waldnaab","type":"Landkreis"},"federalState":{"key":"09","name":"Bayern"}},{"name":"Reiterweg","postalCode":"92715","locality":"Püchersreuth","municipality":{"key":"09374150","name":"Püchersreuth","type":"Kreisangehörige_Gemeinde"},"district":{"key":"09374","name":"Neustadt a.d.Waldnaab","type":"Landkreis"},"federalState":{"key":"09","name":"Bayern"}},{"name":"Ringweg","postalCode":"92715","locality":"Püchersreuth","municipality":{"key":"09374150","name":"Püchersreuth","type":"Kreisangehörige_Gemeinde"},"district":{"key":"09374","name":"Neustadt a.d.Waldnaab","type":"Landkreis"},"federalState":{"key":"09","name":"Bayern"}},{"name":"Rotzendorf","postalCode":"92715","locality":"Püchersreuth","municipality":{"key":"09374150","name":"Püchersreuth","type":"Kreisangehörige_Gemeinde"},"district":{"key":"09374","name":"Neustadt a.d.Waldnaab","type":"Landkreis"},"federalState":{"key":"09","name":"Bayern"}},{"name":"Störnsteiner Str.","postalCode":"92715","locality":"Püchersreuth","municipality":{"key":"09374150","name":"Püchersreuth","type":"Kreisangehörige_Gemeinde"},"district":{"key":"09374","name":"Neustadt a.d.Waldnaab","type":"Landkreis"},"federalState":{"key":"09","name":"Bayern"}},{"name":"Tannenweg","postalCode":"92715","locality":"Püchersreuth","municipality":{"key":"09374150","name":"Püchersreuth","type":"Kreisangehörige_Gemeinde"},"district":{"key":"09374","name":"Neustadt a.d.Waldnaab","type":"Landkreis"},"federalState":{"key":"09","name":"Bayern"}},{"name":"Walpersreuth","postalCode":"92715","locality":"Püchersreuth","municipality":{"key":"09374150","name":"Püchersreuth","type":"Kreisangehörige_Gemeinde"},"district":{"key":"09374","name":"Neustadt a.d.Waldnaab","type":"Landkreis"},"federalState":{"key":"09","name":"Bayern"}},]