[{"key":"10006443","name":"Ackerweg","postalCode":"8952","locality":"Schlieren","commune":{"key":"247","name":"Schlieren","shortName":"Schlieren"},"district":{"key":"111","name":"Bezirk Dietikon"},"canton":{"key":"1","code":"ZH","name":"Zürich"},"status":"Real"},{"key":"10126733","name":"Ahornweg","postalCode":"8952","locality":"Schlieren","commune":{"key":"247","name":"Schlieren","shortName":"Schlieren"},"district":{"key":"111","name":"Bezirk Dietikon"},"canton":{"key":"1","code":"ZH","name":"Zürich"},"status":"Real"},{"key":"10006444","name":"Allmendstrasse","postalCode":"8952","locality":"Schlieren","commune":{"key":"247","name":"Schlieren","shortName":"Schlieren"},"district":{"key":"111","name":"Bezirk Dietikon"},"canton":{"key":"1","code":"ZH","name":"Zürich"},"status":"Real"},{"key":"10178612","name":"Alter Zürichweg","postalCode":"8952","locality":"Schlieren","commune":{"key":"247","name":"Schlieren","shortName":"Schlieren"},"district":{"key":"111","name":"Bezirk Dietikon"},"canton":{"key":"1","code":"ZH","name":"Zürich"},"status":"Real"},{"key":"10126734","name":"Alte Uitikonerstrasse","postalCode":"8952","locality":"Schlieren","commune":{"key":"247","name":"Schlieren","shortName":"Schlieren"},"district":{"key":"111","name":"Bezirk Dietikon"},"canton":{"key":"1","code":"ZH","name":"Zürich"},"status":"Real"},{"key":"10054780","name":"Austrasse","postalCode":"8952","locality":"Schlieren","commune":{"key":"247","name":"Schlieren","shortName":"Schlieren"},"district":{"key":"111","name":"Bezirk Dietikon"},"canton":{"key":"1","code":"ZH","name":"Zürich"},"status":"Real"},{"key":"10006445","name":"Bachstrasse","postalCode":"8952","locality":"Schlieren","commune":{"key":"247","name":"Schlieren","shortName":"Schlieren"},"district":{"key":"111","name":"Bezirk Dietikon"},"canton":{"key":"1","code":"ZH","name":"Zürich"},"status":"Real"},{"key":"10059309","name":"Bäckerstrasse","postalCode":"8952","locality":"Schlieren","commune":{"key":"247","name":"Schlieren","shortName":"Schlieren"},"district":{"key":"111","name":"Bezirk Dietikon"},"canton":{"key":"1","code":"ZH","name":"Zürich"},"status":"Real"},{"key":"10105216","name":"Badenerstrasse","postalCode":"8952","locality":"Schlieren","commune":{"key":"247","name":"Schlieren","shortName":"Schlieren"},"district":{"key":"111","name":"Bezirk Dietikon"},"canton":{"key":"1","code":"ZH","name":"Zürich"},"status":"Real"},{"key":"10150621","name":"Bädentalweg","postalCode":"8952","locality":"Schlieren","commune":{"key":"247","name":"Schlieren","shortName":"Schlieren"},"district":{"key":"111","name":"Bezirk Dietikon"},"canton":{"key":"1","code":"ZH","name":"Zürich"},"status":"Real"},{"key":"10098530","name":"Bahnhofstrasse","postalCode":"8952","locality":"Schlieren","commune":{"key":"247","name":"Schlieren","shortName":"Schlieren"},"district":{"key":"111","name":"Bezirk Dietikon"},"canton":{"key":"1","code":"ZH","name":"Zürich"},"status":"Real"},{"key":"10248343","name":"Bahnweg","postalCode":"8952","locality":"Schlieren","commune":{"key":"247","name":"Schlieren","shortName":"Schlieren"},"district":{"key":"111","name":"Bezirk Dietikon"},"canton":{"key":"1","code":"ZH","name":"Zürich"},"status":"Real"},{"key":"10074817","name":"Ballonstrasse","postalCode":"8952","locality":"Schlieren","commune":{"key":"247","name":"Schlieren","shortName":"Schlieren"},"district":{"key":"111","name":"Bezirk Dietikon"},"canton":{"key":"1","code":"ZH","name":"Zürich"},"status":"Real"},{"key":"10166070","name":"Ballonstrasse","postalCode":"8952","locality":"Schlieren","commune":{"key":"247","name":"Schlieren","shortName":"Schlieren"},"district":{"key":"111","name":"Bezirk Dietikon"},"canton":{"key":"1","code":"ZH","name":"Zürich"},"status":"Real"},{"key":"10111559","name":"Bernstrasse","postalCode":"8952","locality":"Schlieren","commune":{"key":"247","name":"Schlieren","shortName":"Schlieren"},"district":{"key":"111","name":"Bezirk Dietikon"},"canton":{"key":"1","code":"ZH","name":"Zürich"},"status":"Real"},{"key":"10125964","name":"Betschenrohr","postalCode":"8952","locality":"Schlieren","commune":{"key":"247","name":"Schlieren","shortName":"Schlieren"},"district":{"key":"111","name":"Bezirk Dietikon"},"canton":{"key":"1","code":"ZH","name":"Zürich"},"status":"Real"},{"key":"10054781","name":"Bodenweg","postalCode":"8952","locality":"Schlieren","commune":{"key":"247","name":"Schlieren","shortName":"Schlieren"},"district":{"key":"111","name":"Bezirk Dietikon"},"canton":{"key":"1","code":"ZH","name":"Zürich"},"status":"Real"},{"key":"10248402","name":"Brachweg","postalCode":"8952","locality":"Schlieren","commune":{"key":"247","name":"Schlieren","shortName":"Schlieren"},"district":{"key":"111","name":"Bezirk Dietikon"},"canton":{"key":"1","code":"ZH","name":"Zürich"},"status":"Real"},{"key":"10118000","name":"Brandstrasse","postalCode":"8952","locality":"Schlieren","commune":{"key":"247","name":"Schlieren","shortName":"Schlieren"},"district":{"key":"111","name":"Bezirk Dietikon"},"canton":{"key":"1","code":"ZH","name":"Zürich"},"status":"Real"},{"key":"10150617","name":"Brööggenweg","postalCode":"8952","locality":"Schlieren","commune":{"key":"247","name":"Schlieren","shortName":"Schlieren"},"district":{"key":"111","name":"Bezirk Dietikon"},"canton":{"key":"1","code":"ZH","name":"Zürich"},"status":"Real"},{"key":"10006446","name":"Brunnackersteig","postalCode":"8952","locality":"Schlieren","commune":{"key":"247","name":"Schlieren","shortName":"Schlieren"},"district":{"key":"111","name":"Bezirk Dietikon"},"canton":{"key":"1","code":"ZH","name":"Zürich"},"status":"Real"},{"key":"10074818","name":"Brunngasse","postalCode":"8952","locality":"Schlieren","commune":{"key":"247","name":"Schlieren","shortName":"Schlieren"},"district":{"key":"111","name":"Bezirk Dietikon"},"canton":{"key":"1","code":"ZH","name":"Zürich"},"status":"Real"},{"key":"10006447","name":"Bühlackerstrasse","postalCode":"8952","locality":"Schlieren","commune":{"key":"247","name":"Schlieren","shortName":"Schlieren"},"district":{"key":"111","name":"Bezirk Dietikon"},"canton":{"key":"1","code":"ZH","name":"Zürich"},"status":"Real"},{"key":"10059308","name":"Bundentalstrasse","postalCode":"8952","locality":"Schlieren","commune":{"key":"247","name":"Schlieren","shortName":"Schlieren"},"district":{"key":"111","name":"Bezirk Dietikon"},"canton":{"key":"1","code":"ZH","name":"Zürich"},"status":"Real"},{"key":"10126735","name":"Chambweg","postalCode":"8952","locality":"Schlieren","commune":{"key":"247","name":"Schlieren","shortName":"Schlieren"},"district":{"key":"111","name":"Bezirk Dietikon"},"canton":{"key":"1","code":"ZH","name":"Zürich"},"status":"Real"},{"key":"10006448","name":"Dammweg","postalCode":"8952","locality":"Schlieren","commune":{"key":"247","name":"Schlieren","shortName":"Schlieren"},"district":{"key":"111","name":"Bezirk Dietikon"},"canton":{"key":"1","code":"ZH","name":"Zürich"},"status":"Real"},{"key":"10054782","name":"Dörnliackerstrasse","postalCode":"8952","locality":"Schlieren","commune":{"key":"247","name":"Schlieren","shortName":"Schlieren"},"district":{"key":"111","name":"Bezirk Dietikon"},"canton":{"key":"1","code":"ZH","name":"Zürich"},"status":"Real"},{"key":"10074819","name":"Engstringerstrasse","postalCode":"8952","locality":"Schlieren","commune":{"key":"247","name":"Schlieren","shortName":"Schlieren"},"district":{"key":"111","name":"Bezirk Dietikon"},"canton":{"key":"1","code":"ZH","name":"Zürich"},"status":"Real"},{"key":"10006451","name":"Färberhüslistrasse","postalCode":"8952","locality":"Schlieren","commune":{"key":"247","name":"Schlieren","shortName":"Schlieren"},"district":{"key":"111","name":"Bezirk Dietikon"},"canton":{"key":"1","code":"ZH","name":"Zürich"},"status":"Real"},{"key":"10125968","name":"Färbiplatz","postalCode":"8952","locality":"Schlieren","commune":{"key":"247","name":"Schlieren","shortName":"Schlieren"},"district":{"key":"111","name":"Bezirk Dietikon"},"canton":{"key":"1","code":"ZH","name":"Zürich"},"status":"Real"},{"key":"10126736","name":"Färbiweg","postalCode":"8952","locality":"Schlieren","commune":{"key":"247","name":"Schlieren","shortName":"Schlieren"},"district":{"key":"111","name":"Bezirk Dietikon"},"canton":{"key":"1","code":"ZH","name":"Zürich"},"status":"Real"},{"key":"10006449","name":"Feldstrasse","postalCode":"8952","locality":"Schlieren","commune":{"key":"247","name":"Schlieren","shortName":"Schlieren"},"district":{"key":"111","name":"Bezirk Dietikon"},"canton":{"key":"1","code":"ZH","name":"Zürich"},"status":"Real"},{"key":"10248740","name":"Feusisbergliweg","postalCode":"8952","locality":"Schlieren","commune":{"key":"247","name":"Schlieren","shortName":"Schlieren"},"district":{"key":"111","name":"Bezirk Dietikon"},"canton":{"key":"1","code":"ZH","name":"Zürich"},"status":"Real"},{"key":"10006450","name":"Flöhrebenstrasse","postalCode":"8952","locality":"Schlieren","commune":{"key":"247","name":"Schlieren","shortName":"Schlieren"},"district":{"key":"111","name":"Bezirk Dietikon"},"canton":{"key":"1","code":"ZH","name":"Zürich"},"status":"Real"},{"key":"10054783","name":"Fluegartenstrasse","postalCode":"8952","locality":"Schlieren","commune":{"key":"247","name":"Schlieren","shortName":"Schlieren"},"district":{"key":"111","name":"Bezirk Dietikon"},"canton":{"key":"1","code":"ZH","name":"Zürich"},"status":"Real"},{"key":"10248623","name":"Fluegartenweg","postalCode":"8952","locality":"Schlieren","commune":{"key":"247","name":"Schlieren","shortName":"Schlieren"},"district":{"key":"111","name":"Bezirk Dietikon"},"canton":{"key":"1","code":"ZH","name":"Zürich"},"status":"Real"},{"key":"10059311","name":"Föhrenweg","postalCode":"8952","locality":"Schlieren","commune":{"key":"247","name":"Schlieren","shortName":"Schlieren"},"district":{"key":"111","name":"Bezirk Dietikon"},"canton":{"key":"1","code":"ZH","name":"Zürich"},"status":"Real"},{"key":"10127300","name":"Fossertstrasse","postalCode":"8952","locality":"Schlieren","commune":{"key":"247","name":"Schlieren","shortName":"Schlieren"},"district":{"key":"111","name":"Bezirk Dietikon"},"canton":{"key":"1","code":"ZH","name":"Zürich"},"status":"Real"},{"key":"10178613","name":"Freiestrasse","postalCode":"8952","locality":"Schlieren","commune":{"key":"247","name":"Schlieren","shortName":"Schlieren"},"district":{"key":"111","name":"Bezirk Dietikon"},"canton":{"key":"1","code":"ZH","name":"Zürich"},"status":"Real"},{"key":"10074820","name":"Friedaustrasse","postalCode":"8952","locality":"Schlieren","commune":{"key":"247","name":"Schlieren","shortName":"Schlieren"},"district":{"key":"111","name":"Bezirk Dietikon"},"canton":{"key":"1","code":"ZH","name":"Zürich"},"status":"Real"},{"key":"10098531","name":"Friedhofstrasse","postalCode":"8952","locality":"Schlieren","commune":{"key":"247","name":"Schlieren","shortName":"Schlieren"},"district":{"key":"111","name":"Bezirk Dietikon"},"canton":{"key":"1","code":"ZH","name":"Zürich"},"status":"Real"},{"key":"10054784","name":"Gartenstrasse","postalCode":"8952","locality":"Schlieren","commune":{"key":"247","name":"Schlieren","shortName":"Schlieren"},"district":{"key":"111","name":"Bezirk Dietikon"},"canton":{"key":"1","code":"ZH","name":"Zürich"},"status":"Real"},{"key":"10125962","name":"Gasometerstrasse","postalCode":"8952","locality":"Schlieren","commune":{"key":"247","name":"Schlieren","shortName":"Schlieren"},"district":{"key":"111","name":"Bezirk Dietikon"},"canton":{"key":"1","code":"ZH","name":"Zürich"},"status":"Real"},{"key":"10006452","name":"Gaswerkstrasse","postalCode":"8952","locality":"Schlieren","commune":{"key":"247","name":"Schlieren","shortName":"Schlieren"},"district":{"key":"111","name":"Bezirk Dietikon"},"canton":{"key":"1","code":"ZH","name":"Zürich"},"status":"Real"},{"key":"10248689","name":"Geissweid","postalCode":"8952","locality":"Schlieren","commune":{"key":"247","name":"Schlieren","shortName":"Schlieren"},"district":{"key":"111","name":"Bezirk Dietikon"},"canton":{"key":"1","code":"ZH","name":"Zürich"},"status":"Real"},{"key":"10143442","name":"Goldschlägiplatz","postalCode":"8952","locality":"Schlieren","commune":{"key":"247","name":"Schlieren","shortName":"Schlieren"},"district":{"key":"111","name":"Bezirk Dietikon"},"canton":{"key":"1","code":"ZH","name":"Zürich"},"status":"Real"},{"key":"10124101","name":"Goldschlägistrasse","postalCode":"8952","locality":"Schlieren","commune":{"key":"247","name":"Schlieren","shortName":"Schlieren"},"district":{"key":"111","name":"Bezirk Dietikon"},"canton":{"key":"1","code":"ZH","name":"Zürich"},"status":"Real"},{"key":"10006453","name":"Grabenstrasse","postalCode":"8952","locality":"Schlieren","commune":{"key":"247","name":"Schlieren","shortName":"Schlieren"},"district":{"key":"111","name":"Bezirk Dietikon"},"canton":{"key":"1","code":"ZH","name":"Zürich"},"status":"Real"},{"key":"10248830","name":"Grossmoosweg","postalCode":"8952","locality":"Schlieren","commune":{"key":"247","name":"Schlieren","shortName":"Schlieren"},"district":{"key":"111","name":"Bezirk Dietikon"},"canton":{"key":"1","code":"ZH","name":"Zürich"},"status":"Real"},{"key":"10248323","name":"Gugelweg","postalCode":"8952","locality":"Schlieren","commune":{"key":"247","name":"Schlieren","shortName":"Schlieren"},"district":{"key":"111","name":"Bezirk Dietikon"},"canton":{"key":"1","code":"ZH","name":"Zürich"},"status":"Real"},{"key":"10054785","name":"Guggsbühlstrasse","postalCode":"8952","locality":"Schlieren","commune":{"key":"247","name":"Schlieren","shortName":"Schlieren"},"district":{"key":"111","name":"Bezirk Dietikon"},"canton":{"key":"1","code":"ZH","name":"Zürich"},"status":"Real"},{"key":"10006454","name":"Güterstrasse","postalCode":"8952","locality":"Schlieren","commune":{"key":"247","name":"Schlieren","shortName":"Schlieren"},"district":{"key":"111","name":"Bezirk Dietikon"},"canton":{"key":"1","code":"ZH","name":"Zürich"},"status":"Real"},{"key":"10105478","name":"Gyrhalde","postalCode":"8952","locality":"Schlieren","commune":{"key":"247","name":"Schlieren","shortName":"Schlieren"},"district":{"key":"111","name":"Bezirk Dietikon"},"canton":{"key":"1","code":"ZH","name":"Zürich"},"status":"Real"},{"key":"10127301","name":"Gyrhaldensteig","postalCode":"8952","locality":"Schlieren","commune":{"key":"247","name":"Schlieren","shortName":"Schlieren"},"district":{"key":"111","name":"Bezirk Dietikon"},"canton":{"key":"1","code":"ZH","name":"Zürich"},"status":"Real"},{"key":"10006455","name":"Haldenweg","postalCode":"8952","locality":"Schlieren","commune":{"key":"247","name":"Schlieren","shortName":"Schlieren"},"district":{"key":"111","name":"Bezirk Dietikon"},"canton":{"key":"1","code":"ZH","name":"Zürich"},"status":"Real"},{"key":"10248815","name":"Hanenbühlweg","postalCode":"8952","locality":"Schlieren","commune":{"key":"247","name":"Schlieren","shortName":"Schlieren"},"district":{"key":"111","name":"Bezirk Dietikon"},"canton":{"key":"1","code":"ZH","name":"Zürich"},"status":"Real"},{"key":"10054786","name":"Hangstrasse","postalCode":"8952","locality":"Schlieren","commune":{"key":"247","name":"Schlieren","shortName":"Schlieren"},"district":{"key":"111","name":"Bezirk Dietikon"},"canton":{"key":"1","code":"ZH","name":"Zürich"},"status":"Real"},{"key":"10150615","name":"Härdlerweg","postalCode":"8952","locality":"Schlieren","commune":{"key":"247","name":"Schlieren","shortName":"Schlieren"},"district":{"key":"111","name":"Bezirk Dietikon"},"canton":{"key":"1","code":"ZH","name":"Zürich"},"status":"Real"},{"key":"10006456","name":"Heimeliweg","postalCode":"8952","locality":"Schlieren","commune":{"key":"247","name":"Schlieren","shortName":"Schlieren"},"district":{"key":"111","name":"Bezirk Dietikon"},"canton":{"key":"1","code":"ZH","name":"Zürich"},"status":"Real"},{"key":"10059312","name":"Herrenwiesenstrasse","postalCode":"8952","locality":"Schlieren","commune":{"key":"247","name":"Schlieren","shortName":"Schlieren"},"district":{"key":"111","name":"Bezirk Dietikon"},"canton":{"key":"1","code":"ZH","name":"Zürich"},"status":"Real"},{"key":"10074821","name":"Hofackerstrasse","postalCode":"8952","locality":"Schlieren","commune":{"key":"247","name":"Schlieren","shortName":"Schlieren"},"district":{"key":"111","name":"Bezirk Dietikon"},"canton":{"key":"1","code":"ZH","name":"Zürich"},"status":"Real"},{"key":"10175846","name":"Hohfurrenstrasse","postalCode":"8952","locality":"Schlieren","commune":{"key":"247","name":"Schlieren","shortName":"Schlieren"},"district":{"key":"111","name":"Bezirk Dietikon"},"canton":{"key":"1","code":"ZH","name":"Zürich"},"status":"Real"},{"key":"10118001","name":"Hüblerweg","postalCode":"8952","locality":"Schlieren","commune":{"key":"247","name":"Schlieren","shortName":"Schlieren"},"district":{"key":"111","name":"Bezirk Dietikon"},"canton":{"key":"1","code":"ZH","name":"Zürich"},"status":"Real"},{"key":"10111560","name":"Ifangstrasse","postalCode":"8952","locality":"Schlieren","commune":{"key":"247","name":"Schlieren","shortName":"Schlieren"},"district":{"key":"111","name":"Bezirk Dietikon"},"canton":{"key":"1","code":"ZH","name":"Zürich"},"status":"Real"},{"key":"10150484","name":"Im Altholz","postalCode":"8952","locality":"Schlieren","commune":{"key":"247","name":"Schlieren","shortName":"Schlieren"},"district":{"key":"111","name":"Bezirk Dietikon"},"canton":{"key":"1","code":"ZH","name":"Zürich"},"status":"Real"},{"key":"10127302","name":"Im Bergbrunnen","postalCode":"8952","locality":"Schlieren","commune":{"key":"247","name":"Schlieren","shortName":"Schlieren"},"district":{"key":"111","name":"Bezirk Dietikon"},"canton":{"key":"1","code":"ZH","name":"Zürich"},"status":"Real"},{"key":"10125960","name":"Im Cholholz","postalCode":"8952","locality":"Schlieren","commune":{"key":"247","name":"Schlieren","shortName":"Schlieren"},"district":{"key":"111","name":"Bezirk Dietikon"},"canton":{"key":"1","code":"ZH","name":"Zürich"},"status":"Real"},{"key":"10125958","name":"Im Haselmoos","postalCode":"8952","locality":"Schlieren","commune":{"key":"247","name":"Schlieren","shortName":"Schlieren"},"district":{"key":"111","name":"Bezirk Dietikon"},"canton":{"key":"1","code":"ZH","name":"Zürich"},"status":"Real"},{"key":"10125957","name":"Im Herrenhölzli","postalCode":"8952","locality":"Schlieren","commune":{"key":"247","name":"Schlieren","shortName":"Schlieren"},"district":{"key":"111","name":"Bezirk Dietikon"},"canton":{"key":"1","code":"ZH","name":"Zürich"},"status":"Real"},{"key":"10248501","name":"Im Känzeli","postalCode":"8952","locality":"Schlieren","commune":{"key":"247","name":"Schlieren","shortName":"Schlieren"},"district":{"key":"111","name":"Bezirk Dietikon"},"canton":{"key":"1","code":"ZH","name":"Zürich"},"status":"Real"},{"key":"10150482","name":"Im Länzelmoos","postalCode":"8952","locality":"Schlieren","commune":{"key":"247","name":"Schlieren","shortName":"Schlieren"},"district":{"key":"111","name":"Bezirk Dietikon"},"canton":{"key":"1","code":"ZH","name":"Zürich"},"status":"Real"},{"key":"10150619","name":"Im oberen Berg","postalCode":"8952","locality":"Schlieren","commune":{"key":"247","name":"Schlieren","shortName":"Schlieren"},"district":{"key":"111","name":"Bezirk Dietikon"},"canton":{"key":"1","code":"ZH","name":"Zürich"},"status":"Real"},{"key":"10150620","name":"Im Schlattacher","postalCode":"8952","locality":"Schlieren","commune":{"key":"247","name":"Schlieren","shortName":"Schlieren"},"district":{"key":"111","name":"Bezirk Dietikon"},"canton":{"key":"1","code":"ZH","name":"Zürich"},"status":"Real"},{"key":"10125961","name":"Im Schlattbrünneli","postalCode":"8952","locality":"Schlieren","commune":{"key":"247","name":"Schlieren","shortName":"Schlieren"},"district":{"key":"111","name":"Bezirk Dietikon"},"canton":{"key":"1","code":"ZH","name":"Zürich"},"status":"Real"},{"key":"10150618","name":"Im Stärpel","postalCode":"8952","locality":"Schlieren","commune":{"key":"247","name":"Schlieren","shortName":"Schlieren"},"district":{"key":"111","name":"Bezirk Dietikon"},"canton":{"key":"1","code":"ZH","name":"Zürich"},"status":"Real"},{"key":"10150616","name":"Im Trubler","postalCode":"8952","locality":"Schlieren","commune":{"key":"247","name":"Schlieren","shortName":"Schlieren"},"district":{"key":"111","name":"Bezirk Dietikon"},"canton":{"key":"1","code":"ZH","name":"Zürich"},"status":"Real"},{"key":"10150483","name":"In der Risi","postalCode":"8952","locality":"Schlieren","commune":{"key":"247","name":"Schlieren","shortName":"Schlieren"},"district":{"key":"111","name":"Bezirk Dietikon"},"canton":{"key":"1","code":"ZH","name":"Zürich"},"status":"Real"},{"key":"10175600","name":"Industriestrasse","postalCode":"8952","locality":"Schlieren","commune":{"key":"247","name":"Schlieren","shortName":"Schlieren"},"district":{"key":"111","name":"Bezirk Dietikon"},"canton":{"key":"1","code":"ZH","name":"Zürich"},"status":"Real"},{"key":"10178614","name":"Kalktarrenstrasse","postalCode":"8952","locality":"Schlieren","commune":{"key":"247","name":"Schlieren","shortName":"Schlieren"},"district":{"key":"111","name":"Bezirk Dietikon"},"canton":{"key":"1","code":"ZH","name":"Zürich"},"status":"Real"},{"key":"10074822","name":"Kampstrasse","postalCode":"8952","locality":"Schlieren","commune":{"key":"247","name":"Schlieren","shortName":"Schlieren"},"district":{"key":"111","name":"Bezirk Dietikon"},"canton":{"key":"1","code":"ZH","name":"Zürich"},"status":"Real"},{"key":"10150481","name":"Känzeliweg","postalCode":"8952","locality":"Schlieren","commune":{"key":"247","name":"Schlieren","shortName":"Schlieren"},"district":{"key":"111","name":"Bezirk Dietikon"},"canton":{"key":"1","code":"ZH","name":"Zürich"},"status":"Real"},{"key":"10105479","name":"Kesslerstrasse","postalCode":"8952","locality":"Schlieren","commune":{"key":"247","name":"Schlieren","shortName":"Schlieren"},"district":{"key":"111","name":"Bezirk Dietikon"},"canton":{"key":"1","code":"ZH","name":"Zürich"},"status":"Real"},{"key":"10098532","name":"Kesslerweg","postalCode":"8952","locality":"Schlieren","commune":{"key":"247","name":"Schlieren","shortName":"Schlieren"},"district":{"key":"111","name":"Bezirk Dietikon"},"canton":{"key":"1","code":"ZH","name":"Zürich"},"status":"Real"},{"key":"10006457","name":"Kilchbühlstrasse","postalCode":"8952","locality":"Schlieren","commune":{"key":"247","name":"Schlieren","shortName":"Schlieren"},"district":{"key":"111","name":"Bezirk Dietikon"},"canton":{"key":"1","code":"ZH","name":"Zürich"},"status":"Real"},{"key":"10006458","name":"Kirchgasse","postalCode":"8952","locality":"Schlieren","commune":{"key":"247","name":"Schlieren","shortName":"Schlieren"},"district":{"key":"111","name":"Bezirk Dietikon"},"canton":{"key":"1","code":"ZH","name":"Zürich"},"status":"Real"},{"key":"10055527","name":"Kleinzelglistrasse","postalCode":"8952","locality":"Schlieren","commune":{"key":"247","name":"Schlieren","shortName":"Schlieren"},"district":{"key":"111","name":"Bezirk Dietikon"},"canton":{"key":"1","code":"ZH","name":"Zürich"},"status":"Real"},{"key":"10127304","name":"Kleinzelgliweg","postalCode":"8952","locality":"Schlieren","commune":{"key":"247","name":"Schlieren","shortName":"Schlieren"},"district":{"key":"111","name":"Bezirk Dietikon"},"canton":{"key":"1","code":"ZH","name":"Zürich"},"status":"Real"},{"key":"10127305","name":"Kohlenweg","postalCode":"8952","locality":"Schlieren","commune":{"key":"247","name":"Schlieren","shortName":"Schlieren"},"district":{"key":"111","name":"Bezirk Dietikon"},"canton":{"key":"1","code":"ZH","name":"Zürich"},"status":"Real"},{"key":"10074823","name":"Kohlestrasse","postalCode":"8952","locality":"Schlieren","commune":{"key":"247","name":"Schlieren","shortName":"Schlieren"},"district":{"key":"111","name":"Bezirk Dietikon"},"canton":{"key":"1","code":"ZH","name":"Zürich"},"status":"Real"},{"key":"10006459","name":"Lachernweg","postalCode":"8952","locality":"Schlieren","commune":{"key":"247","name":"Schlieren","shortName":"Schlieren"},"district":{"key":"111","name":"Bezirk Dietikon"},"canton":{"key":"1","code":"ZH","name":"Zürich"},"status":"Real"},{"key":"10248592","name":"Lampertshaldenweg","postalCode":"8952","locality":"Schlieren","commune":{"key":"247","name":"Schlieren","shortName":"Schlieren"},"district":{"key":"111","name":"Bezirk Dietikon"},"canton":{"key":"1","code":"ZH","name":"Zürich"},"status":"Real"},{"key":"10006460","name":"Landhausweg","postalCode":"8952","locality":"Schlieren","commune":{"key":"247","name":"Schlieren","shortName":"Schlieren"},"district":{"key":"111","name":"Bezirk Dietikon"},"canton":{"key":"1","code":"ZH","name":"Zürich"},"status":"Real"},{"key":"10098533","name":"Langackerstrasse","postalCode":"8952","locality":"Schlieren","commune":{"key":"247","name":"Schlieren","shortName":"Schlieren"},"district":{"key":"111","name":"Bezirk Dietikon"},"canton":{"key":"1","code":"ZH","name":"Zürich"},"status":"Real"},{"key":"10074825","name":"Lättenstrasse","postalCode":"8952","locality":"Schlieren","commune":{"key":"247","name":"Schlieren","shortName":"Schlieren"},"district":{"key":"111","name":"Bezirk Dietikon"},"canton":{"key":"1","code":"ZH","name":"Zürich"},"status":"Real"},{"key":"10006461","name":"Leemannstrasse","postalCode":"8952","locality":"Schlieren","commune":{"key":"247","name":"Schlieren","shortName":"Schlieren"},"district":{"key":"111","name":"Bezirk Dietikon"},"canton":{"key":"1","code":"ZH","name":"Zürich"},"status":"Real"},{"key":"10074824","name":"Leuengasse","postalCode":"8952","locality":"Schlieren","commune":{"key":"247","name":"Schlieren","shortName":"Schlieren"},"district":{"key":"111","name":"Bezirk Dietikon"},"canton":{"key":"1","code":"ZH","name":"Zürich"},"status":"Real"},{"key":"10006462","name":"Lilienweg","postalCode":"8952","locality":"Schlieren","commune":{"key":"247","name":"Schlieren","shortName":"Schlieren"},"district":{"key":"111","name":"Bezirk Dietikon"},"canton":{"key":"1","code":"ZH","name":"Zürich"},"status":"Real"},{"key":"10006463","name":"Limmataustrasse","postalCode":"8952","locality":"Schlieren","commune":{"key":"247","name":"Schlieren","shortName":"Schlieren"},"district":{"key":"111","name":"Bezirk Dietikon"},"canton":{"key":"1","code":"ZH","name":"Zürich"},"status":"Real"},{"key":"10059313","name":"Limmatstrasse","postalCode":"8952","locality":"Schlieren","commune":{"key":"247","name":"Schlieren","shortName":"Schlieren"},"district":{"key":"111","name":"Bezirk Dietikon"},"canton":{"key":"1","code":"ZH","name":"Zürich"},"status":"Real"},{"key":"10127306","name":"Limmatweg","postalCode":"8952","locality":"Schlieren","commune":{"key":"247","name":"Schlieren","shortName":"Schlieren"},"district":{"key":"111","name":"Bezirk Dietikon"},"canton":{"key":"1","code":"ZH","name":"Zürich"},"status":"Real"},{"key":"10245438","name":"Löölimoosstrasse","postalCode":"8952","locality":"Schlieren","commune":{"key":"247","name":"Schlieren","shortName":"Schlieren"},"district":{"key":"111","name":"Bezirk Dietikon"},"canton":{"key":"1","code":"ZH","name":"Zürich"},"status":"Real"},{"key":"10127307","name":"Lorenackerweg","postalCode":"8952","locality":"Schlieren","commune":{"key":"247","name":"Schlieren","shortName":"Schlieren"},"district":{"key":"111","name":"Bezirk Dietikon"},"canton":{"key":"1","code":"ZH","name":"Zürich"},"status":"Real"},{"key":"10178615","name":"Maienweg","postalCode":"8952","locality":"Schlieren","commune":{"key":"247","name":"Schlieren","shortName":"Schlieren"},"district":{"key":"111","name":"Bezirk Dietikon"},"canton":{"key":"1","code":"ZH","name":"Zürich"},"status":"Real"},{"key":"10111561","name":"Mattenweg","postalCode":"8952","locality":"Schlieren","commune":{"key":"247","name":"Schlieren","shortName":"Schlieren"},"district":{"key":"111","name":"Bezirk Dietikon"},"canton":{"key":"1","code":"ZH","name":"Zürich"},"status":"Real"},{"key":"10006464","name":"Moosstrasse","postalCode":"8952","locality":"Schlieren","commune":{"key":"247","name":"Schlieren","shortName":"Schlieren"},"district":{"key":"111","name":"Bezirk Dietikon"},"canton":{"key":"1","code":"ZH","name":"Zürich"},"status":"Real"},{"key":"10116896","name":"Mühleackerstrasse","postalCode":"8952","locality":"Schlieren","commune":{"key":"247","name":"Schlieren","shortName":"Schlieren"},"district":{"key":"111","name":"Bezirk Dietikon"},"canton":{"key":"1","code":"ZH","name":"Zürich"},"status":"Real"},{"key":"10127308","name":"Müliweg","postalCode":"8952","locality":"Schlieren","commune":{"key":"247","name":"Schlieren","shortName":"Schlieren"},"district":{"key":"111","name":"Bezirk Dietikon"},"canton":{"key":"1","code":"ZH","name":"Zürich"},"status":"Real"},{"key":"10006465","name":"Müllerstrasse","postalCode":"8952","locality":"Schlieren","commune":{"key":"247","name":"Schlieren","shortName":"Schlieren"},"district":{"key":"111","name":"Bezirk Dietikon"},"canton":{"key":"1","code":"ZH","name":"Zürich"},"status":"Real"},{"key":"10074826","name":"Nassackerstrasse","postalCode":"8952","locality":"Schlieren","commune":{"key":"247","name":"Schlieren","shortName":"Schlieren"},"district":{"key":"111","name":"Bezirk Dietikon"},"canton":{"key":"1","code":"ZH","name":"Zürich"},"status":"Real"},{"key":"10170602","name":"Neue Fossertstrasse","postalCode":"8952","locality":"Schlieren","commune":{"key":"247","name":"Schlieren","shortName":"Schlieren"},"district":{"key":"111","name":"Bezirk Dietikon"},"canton":{"key":"1","code":"ZH","name":"Zürich"},"status":"Real"},{"key":"10006466","name":"Obere Bachstrasse","postalCode":"8952","locality":"Schlieren","commune":{"key":"247","name":"Schlieren","shortName":"Schlieren"},"district":{"key":"111","name":"Bezirk Dietikon"},"canton":{"key":"1","code":"ZH","name":"Zürich"},"status":"Real"},{"key":"10245439","name":"Oberengstringerweg","postalCode":"8952","locality":"Schlieren","commune":{"key":"247","name":"Schlieren","shortName":"Schlieren"},"district":{"key":"111","name":"Bezirk Dietikon"},"canton":{"key":"1","code":"ZH","name":"Zürich"},"status":"Real"},{"key":"10127309","name":"Oeliweg","postalCode":"8952","locality":"Schlieren","commune":{"key":"247","name":"Schlieren","shortName":"Schlieren"},"district":{"key":"111","name":"Bezirk Dietikon"},"canton":{"key":"1","code":"ZH","name":"Zürich"},"status":"Real"},{"key":"10170603","name":"Parkallee","postalCode":"8952","locality":"Schlieren","commune":{"key":"247","name":"Schlieren","shortName":"Schlieren"},"district":{"key":"111","name":"Bezirk Dietikon"},"canton":{"key":"1","code":"ZH","name":"Zürich"},"status":"Real"},{"key":"10170604","name":"Parkweg","postalCode":"8952","locality":"Schlieren","commune":{"key":"247","name":"Schlieren","shortName":"Schlieren"},"district":{"key":"111","name":"Bezirk Dietikon"},"canton":{"key":"1","code":"ZH","name":"Zürich"},"status":"Real"},{"key":"10006467","name":"Pestalozziweg","postalCode":"8952","locality":"Schlieren","commune":{"key":"247","name":"Schlieren","shortName":"Schlieren"},"district":{"key":"111","name":"Bezirk Dietikon"},"canton":{"key":"1","code":"ZH","name":"Zürich"},"status":"Real"},{"key":"10074827","name":"Pflugstrasse","postalCode":"8952","locality":"Schlieren","commune":{"key":"247","name":"Schlieren","shortName":"Schlieren"},"district":{"key":"111","name":"Bezirk Dietikon"},"canton":{"key":"1","code":"ZH","name":"Zürich"},"status":"Real"},{"key":"10127310","name":"Pflugweg","postalCode":"8952","locality":"Schlieren","commune":{"key":"247","name":"Schlieren","shortName":"Schlieren"},"district":{"key":"111","name":"Bezirk Dietikon"},"canton":{"key":"1","code":"ZH","name":"Zürich"},"status":"Real"},{"key":"10125959","name":"Prügelgasse","postalCode":"8952","locality":"Schlieren","commune":{"key":"247","name":"Schlieren","shortName":"Schlieren"},"district":{"key":"111","name":"Bezirk Dietikon"},"canton":{"key":"1","code":"ZH","name":"Zürich"},"status":"Real"},{"key":"10248877","name":"Pumpwerkweg","postalCode":"8952","locality":"Schlieren","commune":{"key":"247","name":"Schlieren","shortName":"Schlieren"},"district":{"key":"111","name":"Bezirk Dietikon"},"canton":{"key":"1","code":"ZH","name":"Zürich"},"status":"Real"},{"key":"10059314","name":"Rainweg","postalCode":"8952","locality":"Schlieren","commune":{"key":"247","name":"Schlieren","shortName":"Schlieren"},"district":{"key":"111","name":"Bezirk Dietikon"},"canton":{"key":"1","code":"ZH","name":"Zürich"},"status":"Real"},{"key":"10245440","name":"Ratzenhaldenweg","postalCode":"8952","locality":"Schlieren","commune":{"key":"247","name":"Schlieren","shortName":"Schlieren"},"district":{"key":"111","name":"Bezirk Dietikon"},"canton":{"key":"1","code":"ZH","name":"Zürich"},"status":"Real"},{"key":"10165122","name":"Reitmenstrasse","postalCode":"8952","locality":"Schlieren","commune":{"key":"247","name":"Schlieren","shortName":"Schlieren"},"district":{"key":"111","name":"Bezirk Dietikon"},"canton":{"key":"1","code":"ZH","name":"Zürich"},"status":"Real"},{"key":"10127311","name":"Reitmenweg","postalCode":"8952","locality":"Schlieren","commune":{"key":"247","name":"Schlieren","shortName":"Schlieren"},"district":{"key":"111","name":"Bezirk Dietikon"},"canton":{"key":"1","code":"ZH","name":"Zürich"},"status":"Real"},{"key":"10245441","name":"Reservoirstrasse","postalCode":"8952","locality":"Schlieren","commune":{"key":"247","name":"Schlieren","shortName":"Schlieren"},"district":{"key":"111","name":"Bezirk Dietikon"},"canton":{"key":"1","code":"ZH","name":"Zürich"},"status":"Real"},{"key":"10006468","name":"Rietbachstrasse","postalCode":"8952","locality":"Schlieren","commune":{"key":"247","name":"Schlieren","shortName":"Schlieren"},"district":{"key":"111","name":"Bezirk Dietikon"},"canton":{"key":"1","code":"ZH","name":"Zürich"},"status":"Real"},{"key":"10164447","name":"Ringstrasse","postalCode":"8952","locality":"Schlieren","commune":{"key":"247","name":"Schlieren","shortName":"Schlieren"},"district":{"key":"111","name":"Bezirk Dietikon"},"canton":{"key":"1","code":"ZH","name":"Zürich"},"status":"Real"},{"key":"10178616","name":"Rohrstrasse","postalCode":"8952","locality":"Schlieren","commune":{"key":"247","name":"Schlieren","shortName":"Schlieren"},"district":{"key":"111","name":"Bezirk Dietikon"},"canton":{"key":"1","code":"ZH","name":"Zürich"},"status":"Real"},{"key":"10144300","name":"Rohrweg","postalCode":"8952","locality":"Schlieren","commune":{"key":"247","name":"Schlieren","shortName":"Schlieren"},"district":{"key":"111","name":"Bezirk Dietikon"},"canton":{"key":"1","code":"ZH","name":"Zürich"},"status":"Real"},{"key":"10190080","name":"Römergasse","postalCode":"8952","locality":"Schlieren","commune":{"key":"247","name":"Schlieren","shortName":"Schlieren"},"district":{"key":"111","name":"Bezirk Dietikon"},"canton":{"key":"1","code":"ZH","name":"Zürich"},"status":"Real"},{"key":"10006750","name":"Rosenweg","postalCode":"8952","locality":"Schlieren","commune":{"key":"247","name":"Schlieren","shortName":"Schlieren"},"district":{"key":"111","name":"Bezirk Dietikon"},"canton":{"key":"1","code":"ZH","name":"Zürich"},"status":"Real"},{"key":"10182269","name":"Rotbuchenweg","postalCode":"8952","locality":"Schlieren","commune":{"key":"247","name":"Schlieren","shortName":"Schlieren"},"district":{"key":"111","name":"Bezirk Dietikon"},"canton":{"key":"1","code":"ZH","name":"Zürich"},"status":"Real"},{"key":"10159669","name":"Rotstiftweg","postalCode":"8952","locality":"Schlieren","commune":{"key":"247","name":"Schlieren","shortName":"Schlieren"},"district":{"key":"111","name":"Bezirk Dietikon"},"canton":{"key":"1","code":"ZH","name":"Zürich"},"status":"Real"},{"key":"10115215","name":"Rütirain","postalCode":"8952","locality":"Schlieren","commune":{"key":"247","name":"Schlieren","shortName":"Schlieren"},"district":{"key":"111","name":"Bezirk Dietikon"},"canton":{"key":"1","code":"ZH","name":"Zürich"},"status":"Real"},{"key":"10127981","name":"Rütistrasse","postalCode":"8952","locality":"Schlieren","commune":{"key":"247","name":"Schlieren","shortName":"Schlieren"},"district":{"key":"111","name":"Bezirk Dietikon"},"canton":{"key":"1","code":"ZH","name":"Zürich"},"status":"Real"},{"key":"10111562","name":"Sägestrasse","postalCode":"8952","locality":"Schlieren","commune":{"key":"247","name":"Schlieren","shortName":"Schlieren"},"district":{"key":"111","name":"Bezirk Dietikon"},"canton":{"key":"1","code":"ZH","name":"Zürich"},"status":"Real"},{"key":"10125966","name":"Salmenplatz","postalCode":"8952","locality":"Schlieren","commune":{"key":"247","name":"Schlieren","shortName":"Schlieren"},"district":{"key":"111","name":"Bezirk Dietikon"},"canton":{"key":"1","code":"ZH","name":"Zürich"},"status":"Real"},{"key":"10150480","name":"Sandbühlweg","postalCode":"8952","locality":"Schlieren","commune":{"key":"247","name":"Schlieren","shortName":"Schlieren"},"district":{"key":"111","name":"Bezirk Dietikon"},"canton":{"key":"1","code":"ZH","name":"Zürich"},"status":"Real"},{"key":"10125965","name":"Schneeglöggli-Weg","postalCode":"8952","locality":"Schlieren","commune":{"key":"247","name":"Schlieren","shortName":"Schlieren"},"district":{"key":"111","name":"Bezirk Dietikon"},"canton":{"key":"1","code":"ZH","name":"Zürich"},"status":"Real"},{"key":"10074828","name":"Schönenwerdstrasse","postalCode":"8952","locality":"Schlieren","commune":{"key":"247","name":"Schlieren","shortName":"Schlieren"},"district":{"key":"111","name":"Bezirk Dietikon"},"canton":{"key":"1","code":"ZH","name":"Zürich"},"status":"Real"},{"key":"10006751","name":"Schulstrasse","postalCode":"8952","locality":"Schlieren","commune":{"key":"247","name":"Schlieren","shortName":"Schlieren"},"district":{"key":"111","name":"Bezirk Dietikon"},"canton":{"key":"1","code":"ZH","name":"Zürich"},"status":"Real"},{"key":"10006752","name":"Schürrainweg","postalCode":"8952","locality":"Schlieren","commune":{"key":"247","name":"Schlieren","shortName":"Schlieren"},"district":{"key":"111","name":"Bezirk Dietikon"},"canton":{"key":"1","code":"ZH","name":"Zürich"},"status":"Real"},{"key":"10245442","name":"Schützenhausstrasse","postalCode":"8952","locality":"Schlieren","commune":{"key":"247","name":"Schlieren","shortName":"Schlieren"},"district":{"key":"111","name":"Bezirk Dietikon"},"canton":{"key":"1","code":"ZH","name":"Zürich"},"status":"Real"},{"key":"10006753","name":"Sonnenhofstrasse","postalCode":"8952","locality":"Schlieren","commune":{"key":"247","name":"Schlieren","shortName":"Schlieren"},"district":{"key":"111","name":"Bezirk Dietikon"},"canton":{"key":"1","code":"ZH","name":"Zürich"},"status":"Real"},{"key":"10059315","name":"Spitalstrasse","postalCode":"8952","locality":"Schlieren","commune":{"key":"247","name":"Schlieren","shortName":"Schlieren"},"district":{"key":"111","name":"Bezirk Dietikon"},"canton":{"key":"1","code":"ZH","name":"Zürich"},"status":"Real"},{"key":"10125967","name":"Stadthausplatz","postalCode":"8952","locality":"Schlieren","commune":{"key":"247","name":"Schlieren","shortName":"Schlieren"},"district":{"key":"111","name":"Bezirk Dietikon"},"canton":{"key":"1","code":"ZH","name":"Zürich"},"status":"Real"},{"key":"10210433","name":"Stadtplatz","postalCode":"8952","locality":"Schlieren","commune":{"key":"247","name":"Schlieren","shortName":"Schlieren"},"district":{"key":"111","name":"Bezirk Dietikon"},"canton":{"key":"1","code":"ZH","name":"Zürich"},"status":"Real"},{"key":"10127313","name":"Stärpelweg","postalCode":"8952","locality":"Schlieren","commune":{"key":"247","name":"Schlieren","shortName":"Schlieren"},"district":{"key":"111","name":"Bezirk Dietikon"},"canton":{"key":"1","code":"ZH","name":"Zürich"},"status":"Real"},{"key":"10122767","name":"Stationsstrasse","postalCode":"8952","locality":"Schlieren","commune":{"key":"247","name":"Schlieren","shortName":"Schlieren"},"district":{"key":"111","name":"Bezirk Dietikon"},"canton":{"key":"1","code":"ZH","name":"Zürich"},"status":"Real"},{"key":"10172262","name":"Steinackerstrasse","postalCode":"8952","locality":"Schlieren","commune":{"key":"247","name":"Schlieren","shortName":"Schlieren"},"district":{"key":"111","name":"Bezirk Dietikon"},"canton":{"key":"1","code":"ZH","name":"Zürich"},"status":"Real"},{"key":"10074829","name":"Steinwiesenstrasse","postalCode":"8952","locality":"Schlieren","commune":{"key":"247","name":"Schlieren","shortName":"Schlieren"},"district":{"key":"111","name":"Bezirk Dietikon"},"canton":{"key":"1","code":"ZH","name":"Zürich"},"status":"Real"},{"key":"10164448","name":"Storchenstrasse","postalCode":"8952","locality":"Schlieren","commune":{"key":"247","name":"Schlieren","shortName":"Schlieren"},"district":{"key":"111","name":"Bezirk Dietikon"},"canton":{"key":"1","code":"ZH","name":"Zürich"},"status":"Real"},{"key":"10178617","name":"Südstrasse","postalCode":"8952","locality":"Schlieren","commune":{"key":"247","name":"Schlieren","shortName":"Schlieren"},"district":{"key":"111","name":"Bezirk Dietikon"},"canton":{"key":"1","code":"ZH","name":"Zürich"},"status":"Real"},{"key":"10159670","name":"Trislerstrasse","postalCode":"8952","locality":"Schlieren","commune":{"key":"247","name":"Schlieren","shortName":"Schlieren"},"district":{"key":"111","name":"Bezirk Dietikon"},"canton":{"key":"1","code":"ZH","name":"Zürich"},"status":"Real"},{"key":"10159216","name":"Turmstrasse","postalCode":"8952","locality":"Schlieren","commune":{"key":"247","name":"Schlieren","shortName":"Schlieren"},"district":{"key":"111","name":"Bezirk Dietikon"},"canton":{"key":"1","code":"ZH","name":"Zürich"},"status":"Real"},{"key":"10006754","name":"Turmstrasse","postalCode":"8952","locality":"Schlieren","commune":{"key":"247","name":"Schlieren","shortName":"Schlieren"},"district":{"key":"111","name":"Bezirk Dietikon"},"canton":{"key":"1","code":"ZH","name":"Zürich"},"status":"Real"},{"key":"10105480","name":"Uitikonerstrasse","postalCode":"8952","locality":"Schlieren","commune":{"key":"247","name":"Schlieren","shortName":"Schlieren"},"district":{"key":"111","name":"Bezirk Dietikon"},"canton":{"key":"1","code":"ZH","name":"Zürich"},"status":"Real"},{"key":"10074830","name":"Unterrohrstrasse","postalCode":"8952","locality":"Schlieren","commune":{"key":"247","name":"Schlieren","shortName":"Schlieren"},"district":{"key":"111","name":"Bezirk Dietikon"},"canton":{"key":"1","code":"ZH","name":"Zürich"},"status":"Real"},{"key":"10125963","name":"Unterrohrweg","postalCode":"8952","locality":"Schlieren","commune":{"key":"247","name":"Schlieren","shortName":"Schlieren"},"district":{"key":"111","name":"Bezirk Dietikon"},"canton":{"key":"1","code":"ZH","name":"Zürich"},"status":"Real"},{"key":"10006755","name":"Urdorferstrasse","postalCode":"8952","locality":"Schlieren","commune":{"key":"247","name":"Schlieren","shortName":"Schlieren"},"district":{"key":"111","name":"Bezirk Dietikon"},"canton":{"key":"1","code":"ZH","name":"Zürich"},"status":"Real"},{"key":"10006756","name":"Wagistrasse","postalCode":"8952","locality":"Schlieren","commune":{"key":"247","name":"Schlieren","shortName":"Schlieren"},"district":{"key":"111","name":"Bezirk Dietikon"},"canton":{"key":"1","code":"ZH","name":"Zürich"},"status":"Real"},{"key":"10006757","name":"Wiesenstrasse","postalCode":"8952","locality":"Schlieren","commune":{"key":"247","name":"Schlieren","shortName":"Schlieren"},"district":{"key":"111","name":"Bezirk Dietikon"},"canton":{"key":"1","code":"ZH","name":"Zürich"},"status":"Real"},{"key":"10074831","name":"Zelgliweg","postalCode":"8952","locality":"Schlieren","commune":{"key":"247","name":"Schlieren","shortName":"Schlieren"},"district":{"key":"111","name":"Bezirk Dietikon"},"canton":{"key":"1","code":"ZH","name":"Zürich"},"status":"Real"},{"key":"10006758","name":"Zürcherstrasse","postalCode":"8952","locality":"Schlieren","commune":{"key":"247","name":"Schlieren","shortName":"Schlieren"},"district":{"key":"111","name":"Bezirk Dietikon"},"canton":{"key":"1","code":"ZH","name":"Zürich"},"status":"Real"},{"key":"10060423","name":"Zwiegartenstrasse","postalCode":"8952","locality":"Schlieren","commune":{"key":"247","name":"Schlieren","shortName":"Schlieren"},"district":{"key":"111","name":"Bezirk Dietikon"},"canton":{"key":"1","code":"ZH","name":"Zürich"},"status":"Real"},{"key":"10126737","name":"Überlandstrasse","postalCode":"8952","locality":"Schlieren","commune":{"key":"247","name":"Schlieren","shortName":"Schlieren"},"district":{"key":"111","name":"Bezirk Dietikon"},"canton":{"key":"1","code":"ZH","name":"Zürich"},"status":"Real"},]