[{"name":"Adam-Marsch-Str.","postalCode":"63073","locality":"Offenbach am Main","municipality":{"key":"06413000","name":"Offenbach am Main, Stadt","type":"Kreisfreie_Stadt"},"district":{"key":"06413","name":"Offenbach am Main, Stadt","type":"Kreisfreie_Stadt"},"federalState":{"key":"06","name":"Hessen"}},{"name":"Adolf-Kolping-Platz","postalCode":"63075","locality":"Offenbach am Main","municipality":{"key":"06413000","name":"Offenbach am Main, Stadt","type":"Kreisfreie_Stadt"},"district":{"key":"06413","name":"Offenbach am Main, Stadt","type":"Kreisfreie_Stadt"},"federalState":{"key":"06","name":"Hessen"}},{"name":"Ahornstr.","postalCode":"63071","locality":"Offenbach am Main","municipality":{"key":"06413000","name":"Offenbach am Main, Stadt","type":"Kreisfreie_Stadt"},"district":{"key":"06413","name":"Offenbach am Main, Stadt","type":"Kreisfreie_Stadt"},"federalState":{"key":"06","name":"Hessen"}},{"name":"Akazienweg","postalCode":"63075","locality":"Offenbach am Main","municipality":{"key":"06413000","name":"Offenbach am Main, Stadt","type":"Kreisfreie_Stadt"},"district":{"key":"06413","name":"Offenbach am Main, Stadt","type":"Kreisfreie_Stadt"},"federalState":{"key":"06","name":"Hessen"}},{"name":"Alfred-Delp-Str.","postalCode":"63075","locality":"Offenbach am Main","municipality":{"key":"06413000","name":"Offenbach am Main, Stadt","type":"Kreisfreie_Stadt"},"district":{"key":"06413","name":"Offenbach am Main, Stadt","type":"Kreisfreie_Stadt"},"federalState":{"key":"06","name":"Hessen"}},{"name":"Alicestr.","postalCode":"63075","locality":"Offenbach am Main","municipality":{"key":"06413000","name":"Offenbach am Main, Stadt","type":"Kreisfreie_Stadt"},"district":{"key":"06413","name":"Offenbach am Main, Stadt","type":"Kreisfreie_Stadt"},"federalState":{"key":"06","name":"Hessen"}},{"name":"Allmeyweg","postalCode":"63075","locality":"Offenbach am Main","municipality":{"key":"06413000","name":"Offenbach am Main, Stadt","type":"Kreisfreie_Stadt"},"district":{"key":"06413","name":"Offenbach am Main, Stadt","type":"Kreisfreie_Stadt"},"federalState":{"key":"06","name":"Hessen"}},{"name":"Alt-Bieber","postalCode":"63073","locality":"Offenbach am Main","municipality":{"key":"06413000","name":"Offenbach am Main, Stadt","type":"Kreisfreie_Stadt"},"district":{"key":"06413","name":"Offenbach am Main, Stadt","type":"Kreisfreie_Stadt"},"federalState":{"key":"06","name":"Hessen"}},{"name":"Alte Babenhäuser Str.","postalCode":"63069","locality":"Offenbach am Main","municipality":{"key":"06413000","name":"Offenbach am Main, Stadt","type":"Kreisfreie_Stadt"},"district":{"key":"06413","name":"Offenbach am Main, Stadt","type":"Kreisfreie_Stadt"},"federalState":{"key":"06","name":"Hessen"}},{"name":"Alter Heusenstammer Weg","postalCode":"63069","locality":"Offenbach am Main","municipality":{"key":"06413000","name":"Offenbach am Main, Stadt","type":"Kreisfreie_Stadt"},"district":{"key":"06413","name":"Offenbach am Main, Stadt","type":"Kreisfreie_Stadt"},"federalState":{"key":"06","name":"Hessen"}},{"name":"Alter Heusenstammer Weg","postalCode":"63071","locality":"Offenbach am Main","municipality":{"key":"06413000","name":"Offenbach am Main, Stadt","type":"Kreisfreie_Stadt"},"district":{"key":"06413","name":"Offenbach am Main, Stadt","type":"Kreisfreie_Stadt"},"federalState":{"key":"06","name":"Hessen"}},{"name":"Altkönigstr.","postalCode":"63075","locality":"Offenbach am Main","municipality":{"key":"06413000","name":"Offenbach am Main, Stadt","type":"Kreisfreie_Stadt"},"district":{"key":"06413","name":"Offenbach am Main, Stadt","type":"Kreisfreie_Stadt"},"federalState":{"key":"06","name":"Hessen"}},{"name":"Am alten Judenfriedhof","postalCode":"63065","locality":"Offenbach am Main","municipality":{"key":"06413000","name":"Offenbach am Main, Stadt","type":"Kreisfreie_Stadt"},"district":{"key":"06413","name":"Offenbach am Main, Stadt","type":"Kreisfreie_Stadt"},"federalState":{"key":"06","name":"Hessen"}},{"name":"Am Anger","postalCode":"63075","locality":"Offenbach am Main","municipality":{"key":"06413000","name":"Offenbach am Main, Stadt","type":"Kreisfreie_Stadt"},"district":{"key":"06413","name":"Offenbach am Main, Stadt","type":"Kreisfreie_Stadt"},"federalState":{"key":"06","name":"Hessen"}},{"name":"Am Aussichtsturm","postalCode":"63073","locality":"Offenbach am Main","municipality":{"key":"06413000","name":"Offenbach am Main, Stadt","type":"Kreisfreie_Stadt"},"district":{"key":"06413","name":"Offenbach am Main, Stadt","type":"Kreisfreie_Stadt"},"federalState":{"key":"06","name":"Hessen"}},{"name":"Am Entensee","postalCode":"63075","locality":"Offenbach am Main","municipality":{"key":"06413000","name":"Offenbach am Main, Stadt","type":"Kreisfreie_Stadt"},"district":{"key":"06413","name":"Offenbach am Main, Stadt","type":"Kreisfreie_Stadt"},"federalState":{"key":"06","name":"Hessen"}},{"name":"Am Grenzgraben","postalCode":"63067","locality":"Offenbach am Main","municipality":{"key":"06413000","name":"Offenbach am Main, Stadt","type":"Kreisfreie_Stadt"},"district":{"key":"06413","name":"Offenbach am Main, Stadt","type":"Kreisfreie_Stadt"},"federalState":{"key":"06","name":"Hessen"}},{"name":"Am Hafendeck","postalCode":"63067","locality":"Offenbach am Main","municipality":{"key":"06413000","name":"Offenbach am Main, Stadt","type":"Kreisfreie_Stadt"},"district":{"key":"06413","name":"Offenbach am Main, Stadt","type":"Kreisfreie_Stadt"},"federalState":{"key":"06","name":"Hessen"}},{"name":"Am Heiligenstock","postalCode":"63073","locality":"Offenbach am Main","municipality":{"key":"06413000","name":"Offenbach am Main, Stadt","type":"Kreisfreie_Stadt"},"district":{"key":"06413","name":"Offenbach am Main, Stadt","type":"Kreisfreie_Stadt"},"federalState":{"key":"06","name":"Hessen"}},{"name":"Am Hinterberg","postalCode":"63073","locality":"Offenbach am Main","municipality":{"key":"06413000","name":"Offenbach am Main, Stadt","type":"Kreisfreie_Stadt"},"district":{"key":"06413","name":"Offenbach am Main, Stadt","type":"Kreisfreie_Stadt"},"federalState":{"key":"06","name":"Hessen"}},{"name":"Am Hirtenschild","postalCode":"63073","locality":"Offenbach am Main","municipality":{"key":"06413000","name":"Offenbach am Main, Stadt","type":"Kreisfreie_Stadt"},"district":{"key":"06413","name":"Offenbach am Main, Stadt","type":"Kreisfreie_Stadt"},"federalState":{"key":"06","name":"Hessen"}},{"name":"Am Kandel","postalCode":"63073","locality":"Offenbach am Main","municipality":{"key":"06413000","name":"Offenbach am Main, Stadt","type":"Kreisfreie_Stadt"},"district":{"key":"06413","name":"Offenbach am Main, Stadt","type":"Kreisfreie_Stadt"},"federalState":{"key":"06","name":"Hessen"}},{"name":"Am Klingenrain","postalCode":"63075","locality":"Offenbach am Main","municipality":{"key":"06413000","name":"Offenbach am Main, Stadt","type":"Kreisfreie_Stadt"},"district":{"key":"06413","name":"Offenbach am Main, Stadt","type":"Kreisfreie_Stadt"},"federalState":{"key":"06","name":"Hessen"}},{"name":"Am Maingarten","postalCode":"63075","locality":"Offenbach am Main","municipality":{"key":"06413000","name":"Offenbach am Main, Stadt","type":"Kreisfreie_Stadt"},"district":{"key":"06413","name":"Offenbach am Main, Stadt","type":"Kreisfreie_Stadt"},"federalState":{"key":"06","name":"Hessen"}},{"name":"Am Michelsee","postalCode":"63073","locality":"Offenbach am Main","municipality":{"key":"06413000","name":"Offenbach am Main, Stadt","type":"Kreisfreie_Stadt"},"district":{"key":"06413","name":"Offenbach am Main, Stadt","type":"Kreisfreie_Stadt"},"federalState":{"key":"06","name":"Hessen"}},{"name":"Am Mühlwehr","postalCode":"63073","locality":"Offenbach am Main","municipality":{"key":"06413000","name":"Offenbach am Main, Stadt","type":"Kreisfreie_Stadt"},"district":{"key":"06413","name":"Offenbach am Main, Stadt","type":"Kreisfreie_Stadt"},"federalState":{"key":"06","name":"Hessen"}},{"name":"Am Park","postalCode":"63075","locality":"Offenbach am Main","municipality":{"key":"06413000","name":"Offenbach am Main, Stadt","type":"Kreisfreie_Stadt"},"district":{"key":"06413","name":"Offenbach am Main, Stadt","type":"Kreisfreie_Stadt"},"federalState":{"key":"06","name":"Hessen"}},{"name":"Am Pfortengraben","postalCode":"63075","locality":"Offenbach am Main","municipality":{"key":"06413000","name":"Offenbach am Main, Stadt","type":"Kreisfreie_Stadt"},"district":{"key":"06413","name":"Offenbach am Main, Stadt","type":"Kreisfreie_Stadt"},"federalState":{"key":"06","name":"Hessen"}},{"name":"Am Rebstock","postalCode":"63073","locality":"Offenbach am Main","municipality":{"key":"06413000","name":"Offenbach am Main, Stadt","type":"Kreisfreie_Stadt"},"district":{"key":"06413","name":"Offenbach am Main, Stadt","type":"Kreisfreie_Stadt"},"federalState":{"key":"06","name":"Hessen"}},{"name":"Am Rosenbusch","postalCode":"63075","locality":"Offenbach am Main","municipality":{"key":"06413000","name":"Offenbach am Main, Stadt","type":"Kreisfreie_Stadt"},"district":{"key":"06413","name":"Offenbach am Main, Stadt","type":"Kreisfreie_Stadt"},"federalState":{"key":"06","name":"Hessen"}},{"name":"Am Schießberg","postalCode":"63073","locality":"Offenbach am Main","municipality":{"key":"06413000","name":"Offenbach am Main, Stadt","type":"Kreisfreie_Stadt"},"district":{"key":"06413","name":"Offenbach am Main, Stadt","type":"Kreisfreie_Stadt"},"federalState":{"key":"06","name":"Hessen"}},{"name":"Am Schneckenberg","postalCode":"63075","locality":"Offenbach am Main","municipality":{"key":"06413000","name":"Offenbach am Main, Stadt","type":"Kreisfreie_Stadt"},"district":{"key":"06413","name":"Offenbach am Main, Stadt","type":"Kreisfreie_Stadt"},"federalState":{"key":"06","name":"Hessen"}},{"name":"Amsterdamer Str.","postalCode":"63067","locality":"Offenbach am Main","municipality":{"key":"06413000","name":"Offenbach am Main, Stadt","type":"Kreisfreie_Stadt"},"district":{"key":"06413","name":"Offenbach am Main, Stadt","type":"Kreisfreie_Stadt"},"federalState":{"key":"06","name":"Hessen"}},{"name":"Am Stützel","postalCode":"63073","locality":"Offenbach am Main","municipality":{"key":"06413000","name":"Offenbach am Main, Stadt","type":"Kreisfreie_Stadt"},"district":{"key":"06413","name":"Offenbach am Main, Stadt","type":"Kreisfreie_Stadt"},"federalState":{"key":"06","name":"Hessen"}},{"name":"Am Waldeck","postalCode":"63073","locality":"Offenbach am Main","municipality":{"key":"06413000","name":"Offenbach am Main, Stadt","type":"Kreisfreie_Stadt"},"district":{"key":"06413","name":"Offenbach am Main, Stadt","type":"Kreisfreie_Stadt"},"federalState":{"key":"06","name":"Hessen"}},{"name":"Am Waldpark","postalCode":"63071","locality":"Offenbach am Main","municipality":{"key":"06413000","name":"Offenbach am Main, Stadt","type":"Kreisfreie_Stadt"},"district":{"key":"06413","name":"Offenbach am Main, Stadt","type":"Kreisfreie_Stadt"},"federalState":{"key":"06","name":"Hessen"}},{"name":"Am Waldrand","postalCode":"63075","locality":"Offenbach am Main","municipality":{"key":"06413000","name":"Offenbach am Main, Stadt","type":"Kreisfreie_Stadt"},"district":{"key":"06413","name":"Offenbach am Main, Stadt","type":"Kreisfreie_Stadt"},"federalState":{"key":"06","name":"Hessen"}},{"name":"Am Waldschwimmbad","postalCode":"63069","locality":"Offenbach am Main","municipality":{"key":"06413000","name":"Offenbach am Main, Stadt","type":"Kreisfreie_Stadt"},"district":{"key":"06413","name":"Offenbach am Main, Stadt","type":"Kreisfreie_Stadt"},"federalState":{"key":"06","name":"Hessen"}},{"name":"Am Wiesengrund","postalCode":"63075","locality":"Offenbach am Main","municipality":{"key":"06413000","name":"Offenbach am Main, Stadt","type":"Kreisfreie_Stadt"},"district":{"key":"06413","name":"Offenbach am Main, Stadt","type":"Kreisfreie_Stadt"},"federalState":{"key":"06","name":"Hessen"}},{"name":"An den Linden","postalCode":"63075","locality":"Offenbach am Main","municipality":{"key":"06413000","name":"Offenbach am Main, Stadt","type":"Kreisfreie_Stadt"},"district":{"key":"06413","name":"Offenbach am Main, Stadt","type":"Kreisfreie_Stadt"},"federalState":{"key":"06","name":"Hessen"}},{"name":"An der Roten Warte","postalCode":"63075","locality":"Offenbach am Main","municipality":{"key":"06413000","name":"Offenbach am Main, Stadt","type":"Kreisfreie_Stadt"},"district":{"key":"06413","name":"Offenbach am Main, Stadt","type":"Kreisfreie_Stadt"},"federalState":{"key":"06","name":"Hessen"}},{"name":"Andréstr.","postalCode":"63067","locality":"Offenbach am Main","municipality":{"key":"06413000","name":"Offenbach am Main, Stadt","type":"Kreisfreie_Stadt"},"district":{"key":"06413","name":"Offenbach am Main, Stadt","type":"Kreisfreie_Stadt"},"federalState":{"key":"06","name":"Hessen"}},{"name":"Anhalter Str.","postalCode":"63075","locality":"Offenbach am Main","municipality":{"key":"06413000","name":"Offenbach am Main, Stadt","type":"Kreisfreie_Stadt"},"district":{"key":"06413","name":"Offenbach am Main, Stadt","type":"Kreisfreie_Stadt"},"federalState":{"key":"06","name":"Hessen"}},{"name":"Annastr.","postalCode":"63071","locality":"Offenbach am Main","municipality":{"key":"06413000","name":"Offenbach am Main, Stadt","type":"Kreisfreie_Stadt"},"district":{"key":"06413","name":"Offenbach am Main, Stadt","type":"Kreisfreie_Stadt"},"federalState":{"key":"06","name":"Hessen"}},{"name":"Annelise-Heikaus-Str.","postalCode":"63075","locality":"Offenbach am Main","municipality":{"key":"06413000","name":"Offenbach am Main, Stadt","type":"Kreisfreie_Stadt"},"district":{"key":"06413","name":"Offenbach am Main, Stadt","type":"Kreisfreie_Stadt"},"federalState":{"key":"06","name":"Hessen"}},{"name":"Anton-Bruckner-Str.","postalCode":"63069","locality":"Offenbach am Main","municipality":{"key":"06413000","name":"Offenbach am Main, Stadt","type":"Kreisfreie_Stadt"},"district":{"key":"06413","name":"Offenbach am Main, Stadt","type":"Kreisfreie_Stadt"},"federalState":{"key":"06","name":"Hessen"}},{"name":"Anzengruberstr.","postalCode":"63073","locality":"Offenbach am Main","municipality":{"key":"06413000","name":"Offenbach am Main, Stadt","type":"Kreisfreie_Stadt"},"district":{"key":"06413","name":"Offenbach am Main, Stadt","type":"Kreisfreie_Stadt"},"federalState":{"key":"06","name":"Hessen"}},{"name":"Arendsstr.","postalCode":"63075","locality":"Offenbach am Main","municipality":{"key":"06413000","name":"Offenbach am Main, Stadt","type":"Kreisfreie_Stadt"},"district":{"key":"06413","name":"Offenbach am Main, Stadt","type":"Kreisfreie_Stadt"},"federalState":{"key":"06","name":"Hessen"}},{"name":"Arndtstr.","postalCode":"63069","locality":"Offenbach am Main","municipality":{"key":"06413000","name":"Offenbach am Main, Stadt","type":"Kreisfreie_Stadt"},"district":{"key":"06413","name":"Offenbach am Main, Stadt","type":"Kreisfreie_Stadt"},"federalState":{"key":"06","name":"Hessen"}},{"name":"Arnoldstr.","postalCode":"63075","locality":"Offenbach am Main","municipality":{"key":"06413000","name":"Offenbach am Main, Stadt","type":"Kreisfreie_Stadt"},"district":{"key":"06413","name":"Offenbach am Main, Stadt","type":"Kreisfreie_Stadt"},"federalState":{"key":"06","name":"Hessen"}},{"name":"Babenhäuser Schneise","postalCode":"63069","locality":"Offenbach am Main","municipality":{"key":"06413000","name":"Offenbach am Main, Stadt","type":"Kreisfreie_Stadt"},"district":{"key":"06413","name":"Offenbach am Main, Stadt","type":"Kreisfreie_Stadt"},"federalState":{"key":"06","name":"Hessen"}},{"name":"Bachstr.","postalCode":"63071","locality":"Offenbach am Main","municipality":{"key":"06413000","name":"Offenbach am Main, Stadt","type":"Kreisfreie_Stadt"},"district":{"key":"06413","name":"Offenbach am Main, Stadt","type":"Kreisfreie_Stadt"},"federalState":{"key":"06","name":"Hessen"}},{"name":"Backstr.","postalCode":"63069","locality":"Offenbach am Main","municipality":{"key":"06413000","name":"Offenbach am Main, Stadt","type":"Kreisfreie_Stadt"},"district":{"key":"06413","name":"Offenbach am Main, Stadt","type":"Kreisfreie_Stadt"},"federalState":{"key":"06","name":"Hessen"}},{"name":"Bahnhofstr.","postalCode":"63067","locality":"Offenbach am Main","municipality":{"key":"06413000","name":"Offenbach am Main, Stadt","type":"Kreisfreie_Stadt"},"district":{"key":"06413","name":"Offenbach am Main, Stadt","type":"Kreisfreie_Stadt"},"federalState":{"key":"06","name":"Hessen"}},{"name":"Beethovenstr.","postalCode":"63069","locality":"Offenbach am Main","municipality":{"key":"06413000","name":"Offenbach am Main, Stadt","type":"Kreisfreie_Stadt"},"district":{"key":"06413","name":"Offenbach am Main, Stadt","type":"Kreisfreie_Stadt"},"federalState":{"key":"06","name":"Hessen"}},{"name":"Bergstr.","postalCode":"63073","locality":"Offenbach am Main","municipality":{"key":"06413000","name":"Offenbach am Main, Stadt","type":"Kreisfreie_Stadt"},"district":{"key":"06413","name":"Offenbach am Main, Stadt","type":"Kreisfreie_Stadt"},"federalState":{"key":"06","name":"Hessen"}},{"name":"Berliner Str.","postalCode":"63065","locality":"Offenbach am Main","municipality":{"key":"06413000","name":"Offenbach am Main, Stadt","type":"Kreisfreie_Stadt"},"district":{"key":"06413","name":"Offenbach am Main, Stadt","type":"Kreisfreie_Stadt"},"federalState":{"key":"06","name":"Hessen"}},{"name":"Berliner Str.","postalCode":"63067","locality":"Offenbach am Main","municipality":{"key":"06413000","name":"Offenbach am Main, Stadt","type":"Kreisfreie_Stadt"},"district":{"key":"06413","name":"Offenbach am Main, Stadt","type":"Kreisfreie_Stadt"},"federalState":{"key":"06","name":"Hessen"}},{"name":"Bernardstr.","postalCode":"63065","locality":"Offenbach am Main","municipality":{"key":"06413000","name":"Offenbach am Main, Stadt","type":"Kreisfreie_Stadt"},"district":{"key":"06413","name":"Offenbach am Main, Stadt","type":"Kreisfreie_Stadt"},"federalState":{"key":"06","name":"Hessen"}},{"name":"Bernardstr.","postalCode":"63067","locality":"Offenbach am Main","municipality":{"key":"06413000","name":"Offenbach am Main, Stadt","type":"Kreisfreie_Stadt"},"district":{"key":"06413","name":"Offenbach am Main, Stadt","type":"Kreisfreie_Stadt"},"federalState":{"key":"06","name":"Hessen"}},{"name":"Bert-Brecht-Str.","postalCode":"63069","locality":"Offenbach am Main","municipality":{"key":"06413000","name":"Offenbach am Main, Stadt","type":"Kreisfreie_Stadt"},"district":{"key":"06413","name":"Offenbach am Main, Stadt","type":"Kreisfreie_Stadt"},"federalState":{"key":"06","name":"Hessen"}},{"name":"Bertha-von-Suttner-Str.","postalCode":"63073","locality":"Offenbach am Main","municipality":{"key":"06413000","name":"Offenbach am Main, Stadt","type":"Kreisfreie_Stadt"},"district":{"key":"06413","name":"Offenbach am Main, Stadt","type":"Kreisfreie_Stadt"},"federalState":{"key":"06","name":"Hessen"}},{"name":"Bestewiesenschneise","postalCode":"63069","locality":"Offenbach am Main","municipality":{"key":"06413000","name":"Offenbach am Main, Stadt","type":"Kreisfreie_Stadt"},"district":{"key":"06413","name":"Offenbach am Main, Stadt","type":"Kreisfreie_Stadt"},"federalState":{"key":"06","name":"Hessen"}},{"name":"Bethnal-Green-Str.","postalCode":"63069","locality":"Offenbach am Main","municipality":{"key":"06413000","name":"Offenbach am Main, Stadt","type":"Kreisfreie_Stadt"},"district":{"key":"06413","name":"Offenbach am Main, Stadt","type":"Kreisfreie_Stadt"},"federalState":{"key":"06","name":"Hessen"}},{"name":"Bettinastr.","postalCode":"63067","locality":"Offenbach am Main","municipality":{"key":"06413000","name":"Offenbach am Main, Stadt","type":"Kreisfreie_Stadt"},"district":{"key":"06413","name":"Offenbach am Main, Stadt","type":"Kreisfreie_Stadt"},"federalState":{"key":"06","name":"Hessen"}},{"name":"Bieberer Feldschneise","postalCode":"63073","locality":"Offenbach am Main","municipality":{"key":"06413000","name":"Offenbach am Main, Stadt","type":"Kreisfreie_Stadt"},"district":{"key":"06413","name":"Offenbach am Main, Stadt","type":"Kreisfreie_Stadt"},"federalState":{"key":"06","name":"Hessen"}},{"name":"Bieberer Str.","postalCode":"63065","locality":"Offenbach am Main","municipality":{"key":"06413000","name":"Offenbach am Main, Stadt","type":"Kreisfreie_Stadt"},"district":{"key":"06413","name":"Offenbach am Main, Stadt","type":"Kreisfreie_Stadt"},"federalState":{"key":"06","name":"Hessen"}},{"name":"Bieberer Str.","postalCode":"63071","locality":"Offenbach am Main","municipality":{"key":"06413000","name":"Offenbach am Main, Stadt","type":"Kreisfreie_Stadt"},"district":{"key":"06413","name":"Offenbach am Main, Stadt","type":"Kreisfreie_Stadt"},"federalState":{"key":"06","name":"Hessen"}},{"name":"Bieberer Str.","postalCode":"63073","locality":"Offenbach am Main","municipality":{"key":"06413000","name":"Offenbach am Main, Stadt","type":"Kreisfreie_Stadt"},"district":{"key":"06413","name":"Offenbach am Main, Stadt","type":"Kreisfreie_Stadt"},"federalState":{"key":"06","name":"Hessen"}},{"name":"Bieberer Wiesenschneise","postalCode":"63071","locality":"Offenbach am Main","municipality":{"key":"06413000","name":"Offenbach am Main, Stadt","type":"Kreisfreie_Stadt"},"district":{"key":"06413","name":"Offenbach am Main, Stadt","type":"Kreisfreie_Stadt"},"federalState":{"key":"06","name":"Hessen"}},{"name":"Bieberer Wiesenschneise","postalCode":"63073","locality":"Offenbach am Main","municipality":{"key":"06413000","name":"Offenbach am Main, Stadt","type":"Kreisfreie_Stadt"},"district":{"key":"06413","name":"Offenbach am Main, Stadt","type":"Kreisfreie_Stadt"},"federalState":{"key":"06","name":"Hessen"}},{"name":"Biebernseeweg","postalCode":"63075","locality":"Offenbach am Main","municipality":{"key":"06413000","name":"Offenbach am Main, Stadt","type":"Kreisfreie_Stadt"},"district":{"key":"06413","name":"Offenbach am Main, Stadt","type":"Kreisfreie_Stadt"},"federalState":{"key":"06","name":"Hessen"}},{"name":"Bierbrauerweg","postalCode":"63071","locality":"Offenbach am Main","municipality":{"key":"06413000","name":"Offenbach am Main, Stadt","type":"Kreisfreie_Stadt"},"district":{"key":"06413","name":"Offenbach am Main, Stadt","type":"Kreisfreie_Stadt"},"federalState":{"key":"06","name":"Hessen"}},{"name":"Bildstockstr.","postalCode":"63075","locality":"Offenbach am Main","municipality":{"key":"06413000","name":"Offenbach am Main, Stadt","type":"Kreisfreie_Stadt"},"district":{"key":"06413","name":"Offenbach am Main, Stadt","type":"Kreisfreie_Stadt"},"federalState":{"key":"06","name":"Hessen"}},{"name":"Birkenlohrstr.","postalCode":"63069","locality":"Offenbach am Main","municipality":{"key":"06413000","name":"Offenbach am Main, Stadt","type":"Kreisfreie_Stadt"},"district":{"key":"06413","name":"Offenbach am Main, Stadt","type":"Kreisfreie_Stadt"},"federalState":{"key":"06","name":"Hessen"}},{"name":"Birnenweg","postalCode":"63075","locality":"Offenbach am Main","municipality":{"key":"06413000","name":"Offenbach am Main, Stadt","type":"Kreisfreie_Stadt"},"district":{"key":"06413","name":"Offenbach am Main, Stadt","type":"Kreisfreie_Stadt"},"federalState":{"key":"06","name":"Hessen"}},{"name":"Bischofsheimer Weg","postalCode":"63075","locality":"Offenbach am Main","municipality":{"key":"06413000","name":"Offenbach am Main, Stadt","type":"Kreisfreie_Stadt"},"district":{"key":"06413","name":"Offenbach am Main, Stadt","type":"Kreisfreie_Stadt"},"federalState":{"key":"06","name":"Hessen"}},{"name":"Bismarckstr.","postalCode":"63065","locality":"Offenbach am Main","municipality":{"key":"06413000","name":"Offenbach am Main, Stadt","type":"Kreisfreie_Stadt"},"district":{"key":"06413","name":"Offenbach am Main, Stadt","type":"Kreisfreie_Stadt"},"federalState":{"key":"06","name":"Hessen"}},{"name":"Bismarckstr.","postalCode":"63067","locality":"Offenbach am Main","municipality":{"key":"06413000","name":"Offenbach am Main, Stadt","type":"Kreisfreie_Stadt"},"district":{"key":"06413","name":"Offenbach am Main, Stadt","type":"Kreisfreie_Stadt"},"federalState":{"key":"06","name":"Hessen"}},{"name":"Bismarckstr.","postalCode":"63069","locality":"Offenbach am Main","municipality":{"key":"06413000","name":"Offenbach am Main, Stadt","type":"Kreisfreie_Stadt"},"district":{"key":"06413","name":"Offenbach am Main, Stadt","type":"Kreisfreie_Stadt"},"federalState":{"key":"06","name":"Hessen"}},{"name":"Bleichstr.","postalCode":"63065","locality":"Offenbach am Main","municipality":{"key":"06413000","name":"Offenbach am Main, Stadt","type":"Kreisfreie_Stadt"},"district":{"key":"06413","name":"Offenbach am Main, Stadt","type":"Kreisfreie_Stadt"},"federalState":{"key":"06","name":"Hessen"}},{"name":"Blücherstr.","postalCode":"63071","locality":"Offenbach am Main","municipality":{"key":"06413000","name":"Offenbach am Main, Stadt","type":"Kreisfreie_Stadt"},"district":{"key":"06413","name":"Offenbach am Main, Stadt","type":"Kreisfreie_Stadt"},"federalState":{"key":"06","name":"Hessen"}},{"name":"Blumenstr.","postalCode":"63069","locality":"Offenbach am Main","municipality":{"key":"06413000","name":"Offenbach am Main, Stadt","type":"Kreisfreie_Stadt"},"district":{"key":"06413","name":"Offenbach am Main, Stadt","type":"Kreisfreie_Stadt"},"federalState":{"key":"06","name":"Hessen"}},{"name":"Bockschneise","postalCode":"63069","locality":"Offenbach am Main","municipality":{"key":"06413000","name":"Offenbach am Main, Stadt","type":"Kreisfreie_Stadt"},"district":{"key":"06413","name":"Offenbach am Main, Stadt","type":"Kreisfreie_Stadt"},"federalState":{"key":"06","name":"Hessen"}},{"name":"Böhmerwaldweg","postalCode":"63069","locality":"Offenbach am Main","municipality":{"key":"06413000","name":"Offenbach am Main, Stadt","type":"Kreisfreie_Stadt"},"district":{"key":"06413","name":"Offenbach am Main, Stadt","type":"Kreisfreie_Stadt"},"federalState":{"key":"06","name":"Hessen"}},{"name":"Bollmann Str.","postalCode":"63075","locality":"Offenbach am Main","municipality":{"key":"06413000","name":"Offenbach am Main, Stadt","type":"Kreisfreie_Stadt"},"district":{"key":"06413","name":"Offenbach am Main, Stadt","type":"Kreisfreie_Stadt"},"federalState":{"key":"06","name":"Hessen"}},{"name":"Boschweg","postalCode":"63071","locality":"Offenbach am Main","municipality":{"key":"06413000","name":"Offenbach am Main, Stadt","type":"Kreisfreie_Stadt"},"district":{"key":"06413","name":"Offenbach am Main, Stadt","type":"Kreisfreie_Stadt"},"federalState":{"key":"06","name":"Hessen"}},{"name":"Brahmsstr.","postalCode":"63069","locality":"Offenbach am Main","municipality":{"key":"06413000","name":"Offenbach am Main, Stadt","type":"Kreisfreie_Stadt"},"district":{"key":"06413","name":"Offenbach am Main, Stadt","type":"Kreisfreie_Stadt"},"federalState":{"key":"06","name":"Hessen"}},{"name":"Brandenburger Str.","postalCode":"63075","locality":"Offenbach am Main","municipality":{"key":"06413000","name":"Offenbach am Main, Stadt","type":"Kreisfreie_Stadt"},"district":{"key":"06413","name":"Offenbach am Main, Stadt","type":"Kreisfreie_Stadt"},"federalState":{"key":"06","name":"Hessen"}},{"name":"Brandsbornstr.","postalCode":"63069","locality":"Offenbach am Main","municipality":{"key":"06413000","name":"Offenbach am Main, Stadt","type":"Kreisfreie_Stadt"},"district":{"key":"06413","name":"Offenbach am Main, Stadt","type":"Kreisfreie_Stadt"},"federalState":{"key":"06","name":"Hessen"}},{"name":"Braunseeschneise","postalCode":"63073","locality":"Offenbach am Main","municipality":{"key":"06413000","name":"Offenbach am Main, Stadt","type":"Kreisfreie_Stadt"},"district":{"key":"06413","name":"Offenbach am Main, Stadt","type":"Kreisfreie_Stadt"},"federalState":{"key":"06","name":"Hessen"}},{"name":"Bregenzer Str.","postalCode":"63073","locality":"Offenbach am Main","municipality":{"key":"06413000","name":"Offenbach am Main, Stadt","type":"Kreisfreie_Stadt"},"district":{"key":"06413","name":"Offenbach am Main, Stadt","type":"Kreisfreie_Stadt"},"federalState":{"key":"06","name":"Hessen"}},{"name":"Breite Str.","postalCode":"63075","locality":"Offenbach am Main","municipality":{"key":"06413000","name":"Offenbach am Main, Stadt","type":"Kreisfreie_Stadt"},"district":{"key":"06413","name":"Offenbach am Main, Stadt","type":"Kreisfreie_Stadt"},"federalState":{"key":"06","name":"Hessen"}},{"name":"Bremer Str.","postalCode":"63073","locality":"Offenbach am Main","municipality":{"key":"06413000","name":"Offenbach am Main, Stadt","type":"Kreisfreie_Stadt"},"district":{"key":"06413","name":"Offenbach am Main, Stadt","type":"Kreisfreie_Stadt"},"federalState":{"key":"06","name":"Hessen"}},{"name":"Brielsweg","postalCode":"63075","locality":"Offenbach am Main","municipality":{"key":"06413000","name":"Offenbach am Main, Stadt","type":"Kreisfreie_Stadt"},"district":{"key":"06413","name":"Offenbach am Main, Stadt","type":"Kreisfreie_Stadt"},"federalState":{"key":"06","name":"Hessen"}},{"name":"Brinkstr.","postalCode":"63069","locality":"Offenbach am Main","municipality":{"key":"06413000","name":"Offenbach am Main, Stadt","type":"Kreisfreie_Stadt"},"district":{"key":"06413","name":"Offenbach am Main, Stadt","type":"Kreisfreie_Stadt"},"federalState":{"key":"06","name":"Hessen"}},{"name":"Brockmannstr.","postalCode":"63075","locality":"Offenbach am Main","municipality":{"key":"06413000","name":"Offenbach am Main, Stadt","type":"Kreisfreie_Stadt"},"district":{"key":"06413","name":"Offenbach am Main, Stadt","type":"Kreisfreie_Stadt"},"federalState":{"key":"06","name":"Hessen"}},{"name":"Bruchschneise","postalCode":"63073","locality":"Offenbach am Main","municipality":{"key":"06413000","name":"Offenbach am Main, Stadt","type":"Kreisfreie_Stadt"},"district":{"key":"06413","name":"Offenbach am Main, Stadt","type":"Kreisfreie_Stadt"},"federalState":{"key":"06","name":"Hessen"}},{"name":"Brückenstr.","postalCode":"63073","locality":"Offenbach am Main","municipality":{"key":"06413000","name":"Offenbach am Main, Stadt","type":"Kreisfreie_Stadt"},"district":{"key":"06413","name":"Offenbach am Main, Stadt","type":"Kreisfreie_Stadt"},"federalState":{"key":"06","name":"Hessen"}},{"name":"Brüder-Grimm-Str.","postalCode":"63069","locality":"Offenbach am Main","municipality":{"key":"06413000","name":"Offenbach am Main, Stadt","type":"Kreisfreie_Stadt"},"district":{"key":"06413","name":"Offenbach am Main, Stadt","type":"Kreisfreie_Stadt"},"federalState":{"key":"06","name":"Hessen"}},{"name":"Carl-Legien-Str.","postalCode":"63073","locality":"Offenbach am Main","municipality":{"key":"06413000","name":"Offenbach am Main, Stadt","type":"Kreisfreie_Stadt"},"district":{"key":"06413","name":"Offenbach am Main, Stadt","type":"Kreisfreie_Stadt"},"federalState":{"key":"06","name":"Hessen"}},{"name":"Carl-Maria-von-Weber-Str.","postalCode":"63069","locality":"Offenbach am Main","municipality":{"key":"06413000","name":"Offenbach am Main, Stadt","type":"Kreisfreie_Stadt"},"district":{"key":"06413","name":"Offenbach am Main, Stadt","type":"Kreisfreie_Stadt"},"federalState":{"key":"06","name":"Hessen"}},{"name":"Carl-von-Ossietzky-Weg","postalCode":"63069","locality":"Offenbach am Main","municipality":{"key":"06413000","name":"Offenbach am Main, Stadt","type":"Kreisfreie_Stadt"},"district":{"key":"06413","name":"Offenbach am Main, Stadt","type":"Kreisfreie_Stadt"},"federalState":{"key":"06","name":"Hessen"}},{"name":"Christian-Pleß-Str.","postalCode":"63069","locality":"Offenbach am Main","municipality":{"key":"06413000","name":"Offenbach am Main, Stadt","type":"Kreisfreie_Stadt"},"district":{"key":"06413","name":"Offenbach am Main, Stadt","type":"Kreisfreie_Stadt"},"federalState":{"key":"06","name":"Hessen"}},{"name":"Clara-Grein-Str.","postalCode":"63075","locality":"Offenbach am Main","municipality":{"key":"06413000","name":"Offenbach am Main, Stadt","type":"Kreisfreie_Stadt"},"district":{"key":"06413","name":"Offenbach am Main, Stadt","type":"Kreisfreie_Stadt"},"federalState":{"key":"06","name":"Hessen"}},{"name":"Cronberger Str.","postalCode":"63075","locality":"Offenbach am Main","municipality":{"key":"06413000","name":"Offenbach am Main, Stadt","type":"Kreisfreie_Stadt"},"district":{"key":"06413","name":"Offenbach am Main, Stadt","type":"Kreisfreie_Stadt"},"federalState":{"key":"06","name":"Hessen"}},{"name":"Dag-Hammarskjöld-Platz","postalCode":"63071","locality":"Offenbach am Main","municipality":{"key":"06413000","name":"Offenbach am Main, Stadt","type":"Kreisfreie_Stadt"},"district":{"key":"06413","name":"Offenbach am Main, Stadt","type":"Kreisfreie_Stadt"},"federalState":{"key":"06","name":"Hessen"}},{"name":"Dahlienweg","postalCode":"63075","locality":"Offenbach am Main","municipality":{"key":"06413000","name":"Offenbach am Main, Stadt","type":"Kreisfreie_Stadt"},"district":{"key":"06413","name":"Offenbach am Main, Stadt","type":"Kreisfreie_Stadt"},"federalState":{"key":"06","name":"Hessen"}},{"name":"Daimlerstr.","postalCode":"63071","locality":"Offenbach am Main","municipality":{"key":"06413000","name":"Offenbach am Main, Stadt","type":"Kreisfreie_Stadt"},"district":{"key":"06413","name":"Offenbach am Main, Stadt","type":"Kreisfreie_Stadt"},"federalState":{"key":"06","name":"Hessen"}},{"name":"Danziger Str.","postalCode":"63075","locality":"Offenbach am Main","municipality":{"key":"06413000","name":"Offenbach am Main, Stadt","type":"Kreisfreie_Stadt"},"district":{"key":"06413","name":"Offenbach am Main, Stadt","type":"Kreisfreie_Stadt"},"federalState":{"key":"06","name":"Hessen"}},{"name":"Darmstädter Str.","postalCode":"63069","locality":"Offenbach am Main","municipality":{"key":"06413000","name":"Offenbach am Main, Stadt","type":"Kreisfreie_Stadt"},"district":{"key":"06413","name":"Offenbach am Main, Stadt","type":"Kreisfreie_Stadt"},"federalState":{"key":"06","name":"Hessen"}},{"name":"Dickstr.","postalCode":"63069","locality":"Offenbach am Main","municipality":{"key":"06413000","name":"Offenbach am Main, Stadt","type":"Kreisfreie_Stadt"},"district":{"key":"06413","name":"Offenbach am Main, Stadt","type":"Kreisfreie_Stadt"},"federalState":{"key":"06","name":"Hessen"}},{"name":"Dielmannstr.","postalCode":"63069","locality":"Offenbach am Main","municipality":{"key":"06413000","name":"Offenbach am Main, Stadt","type":"Kreisfreie_Stadt"},"district":{"key":"06413","name":"Offenbach am Main, Stadt","type":"Kreisfreie_Stadt"},"federalState":{"key":"06","name":"Hessen"}},{"name":"Dieselstr.","postalCode":"63071","locality":"Offenbach am Main","municipality":{"key":"06413000","name":"Offenbach am Main, Stadt","type":"Kreisfreie_Stadt"},"district":{"key":"06413","name":"Offenbach am Main, Stadt","type":"Kreisfreie_Stadt"},"federalState":{"key":"06","name":"Hessen"}},{"name":"Dietesheimer Str.","postalCode":"63073","locality":"Offenbach am Main","municipality":{"key":"06413000","name":"Offenbach am Main, Stadt","type":"Kreisfreie_Stadt"},"district":{"key":"06413","name":"Offenbach am Main, Stadt","type":"Kreisfreie_Stadt"},"federalState":{"key":"06","name":"Hessen"}},{"name":"Dietrich-Bonhoeffer-Str.","postalCode":"63075","locality":"Offenbach am Main","municipality":{"key":"06413000","name":"Offenbach am Main, Stadt","type":"Kreisfreie_Stadt"},"district":{"key":"06413","name":"Offenbach am Main, Stadt","type":"Kreisfreie_Stadt"},"federalState":{"key":"06","name":"Hessen"}},{"name":"Dietzenbacher Schneise","postalCode":"63069","locality":"Offenbach am Main","municipality":{"key":"06413000","name":"Offenbach am Main, Stadt","type":"Kreisfreie_Stadt"},"district":{"key":"06413","name":"Offenbach am Main, Stadt","type":"Kreisfreie_Stadt"},"federalState":{"key":"06","name":"Hessen"}},{"name":"Dietzenbacher Str.","postalCode":"63069","locality":"Offenbach am Main","municipality":{"key":"06413000","name":"Offenbach am Main, Stadt","type":"Kreisfreie_Stadt"},"district":{"key":"06413","name":"Offenbach am Main, Stadt","type":"Kreisfreie_Stadt"},"federalState":{"key":"06","name":"Hessen"}},{"name":"Ditmar-Schaup-Brücke","postalCode":"63069","locality":"Offenbach am Main","municipality":{"key":"06413000","name":"Offenbach am Main, Stadt","type":"Kreisfreie_Stadt"},"district":{"key":"06413","name":"Offenbach am Main, Stadt","type":"Kreisfreie_Stadt"},"federalState":{"key":"06","name":"Hessen"}},{"name":"Dompassage","postalCode":"63067","locality":"Offenbach am Main","municipality":{"key":"06413000","name":"Offenbach am Main, Stadt","type":"Kreisfreie_Stadt"},"district":{"key":"06413","name":"Offenbach am Main, Stadt","type":"Kreisfreie_Stadt"},"federalState":{"key":"06","name":"Hessen"}},{"name":"Domstr.","postalCode":"63067","locality":"Offenbach am Main","municipality":{"key":"06413000","name":"Offenbach am Main, Stadt","type":"Kreisfreie_Stadt"},"district":{"key":"06413","name":"Offenbach am Main, Stadt","type":"Kreisfreie_Stadt"},"federalState":{"key":"06","name":"Hessen"}},{"name":"Donauweg","postalCode":"63071","locality":"Offenbach am Main","municipality":{"key":"06413000","name":"Offenbach am Main, Stadt","type":"Kreisfreie_Stadt"},"district":{"key":"06413","name":"Offenbach am Main, Stadt","type":"Kreisfreie_Stadt"},"federalState":{"key":"06","name":"Hessen"}},{"name":"Dornbergerstr.","postalCode":"63075","locality":"Offenbach am Main","municipality":{"key":"06413000","name":"Offenbach am Main, Stadt","type":"Kreisfreie_Stadt"},"district":{"key":"06413","name":"Offenbach am Main, Stadt","type":"Kreisfreie_Stadt"},"federalState":{"key":"06","name":"Hessen"}},{"name":"Dornbuschstr.","postalCode":"63071","locality":"Offenbach am Main","municipality":{"key":"06413000","name":"Offenbach am Main, Stadt","type":"Kreisfreie_Stadt"},"district":{"key":"06413","name":"Offenbach am Main, Stadt","type":"Kreisfreie_Stadt"},"federalState":{"key":"06","name":"Hessen"}},{"name":"Dörnigheimer Str.","postalCode":"63075","locality":"Offenbach am Main","municipality":{"key":"06413000","name":"Offenbach am Main, Stadt","type":"Kreisfreie_Stadt"},"district":{"key":"06413","name":"Offenbach am Main, Stadt","type":"Kreisfreie_Stadt"},"federalState":{"key":"06","name":"Hessen"}},{"name":"Drachenwiese","postalCode":"63069","locality":"Offenbach am Main","municipality":{"key":"06413000","name":"Offenbach am Main, Stadt","type":"Kreisfreie_Stadt"},"district":{"key":"06413","name":"Offenbach am Main, Stadt","type":"Kreisfreie_Stadt"},"federalState":{"key":"06","name":"Hessen"}},{"name":"Dreieichpark","postalCode":"63067","locality":"Offenbach am Main","municipality":{"key":"06413000","name":"Offenbach am Main, Stadt","type":"Kreisfreie_Stadt"},"district":{"key":"06413","name":"Offenbach am Main, Stadt","type":"Kreisfreie_Stadt"},"federalState":{"key":"06","name":"Hessen"}},{"name":"Dreieichring","postalCode":"63067","locality":"Offenbach am Main","municipality":{"key":"06413000","name":"Offenbach am Main, Stadt","type":"Kreisfreie_Stadt"},"district":{"key":"06413","name":"Offenbach am Main, Stadt","type":"Kreisfreie_Stadt"},"federalState":{"key":"06","name":"Hessen"}},{"name":"Dreiherrnsteinweg","postalCode":"63069","locality":"Offenbach am Main","municipality":{"key":"06413000","name":"Offenbach am Main, Stadt","type":"Kreisfreie_Stadt"},"district":{"key":"06413","name":"Offenbach am Main, Stadt","type":"Kreisfreie_Stadt"},"federalState":{"key":"06","name":"Hessen"}},{"name":"Dr.-Georg-Volk-Weg","postalCode":"63075","locality":"Offenbach am Main","municipality":{"key":"06413000","name":"Offenbach am Main, Stadt","type":"Kreisfreie_Stadt"},"district":{"key":"06413","name":"Offenbach am Main, Stadt","type":"Kreisfreie_Stadt"},"federalState":{"key":"06","name":"Hessen"}},{"name":"Dr.-Karl-Reiß-Weg","postalCode":"63075","locality":"Offenbach am Main","municipality":{"key":"06413000","name":"Offenbach am Main, Stadt","type":"Kreisfreie_Stadt"},"district":{"key":"06413","name":"Offenbach am Main, Stadt","type":"Kreisfreie_Stadt"},"federalState":{"key":"06","name":"Hessen"}},{"name":"Dr.-Köhler-Str.","postalCode":"63069","locality":"Offenbach am Main","municipality":{"key":"06413000","name":"Offenbach am Main, Stadt","type":"Kreisfreie_Stadt"},"district":{"key":"06413","name":"Offenbach am Main, Stadt","type":"Kreisfreie_Stadt"},"federalState":{"key":"06","name":"Hessen"}},{"name":"Dr.-Rebentisch-Str.","postalCode":"63069","locality":"Offenbach am Main","municipality":{"key":"06413000","name":"Offenbach am Main, Stadt","type":"Kreisfreie_Stadt"},"district":{"key":"06413","name":"Offenbach am Main, Stadt","type":"Kreisfreie_Stadt"},"federalState":{"key":"06","name":"Hessen"}},{"name":"Dr.-Rosa-Goldschmidt-Str.","postalCode":"63075","locality":"Offenbach am Main","municipality":{"key":"06413000","name":"Offenbach am Main, Stadt","type":"Kreisfreie_Stadt"},"district":{"key":"06413","name":"Offenbach am Main, Stadt","type":"Kreisfreie_Stadt"},"federalState":{"key":"06","name":"Hessen"}},{"name":"Eberhard-von-Rochow-Str.","postalCode":"63069","locality":"Offenbach am Main","municipality":{"key":"06413000","name":"Offenbach am Main, Stadt","type":"Kreisfreie_Stadt"},"district":{"key":"06413","name":"Offenbach am Main, Stadt","type":"Kreisfreie_Stadt"},"federalState":{"key":"06","name":"Hessen"}},{"name":"Eberhard-von-Rochow-Str.","postalCode":"63071","locality":"Offenbach am Main","municipality":{"key":"06413000","name":"Offenbach am Main, Stadt","type":"Kreisfreie_Stadt"},"district":{"key":"06413","name":"Offenbach am Main, Stadt","type":"Kreisfreie_Stadt"},"federalState":{"key":"06","name":"Hessen"}},{"name":"Ebsenweg","postalCode":"63069","locality":"Offenbach am Main","municipality":{"key":"06413000","name":"Offenbach am Main, Stadt","type":"Kreisfreie_Stadt"},"district":{"key":"06413","name":"Offenbach am Main, Stadt","type":"Kreisfreie_Stadt"},"federalState":{"key":"06","name":"Hessen"}},{"name":"Edel-Gasch-Str.","postalCode":"63075","locality":"Offenbach am Main","municipality":{"key":"06413000","name":"Offenbach am Main, Stadt","type":"Kreisfreie_Stadt"},"district":{"key":"06413","name":"Offenbach am Main, Stadt","type":"Kreisfreie_Stadt"},"federalState":{"key":"06","name":"Hessen"}},{"name":"Edelsheimerstr.","postalCode":"63075","locality":"Offenbach am Main","municipality":{"key":"06413000","name":"Offenbach am Main, Stadt","type":"Kreisfreie_Stadt"},"district":{"key":"06413","name":"Offenbach am Main, Stadt","type":"Kreisfreie_Stadt"},"federalState":{"key":"06","name":"Hessen"}},{"name":"Edith-Stein-Str.","postalCode":"63075","locality":"Offenbach am Main","municipality":{"key":"06413000","name":"Offenbach am Main, Stadt","type":"Kreisfreie_Stadt"},"district":{"key":"06413","name":"Offenbach am Main, Stadt","type":"Kreisfreie_Stadt"},"federalState":{"key":"06","name":"Hessen"}},{"name":"Eduard-Oehler-Str.","postalCode":"63075","locality":"Offenbach am Main","municipality":{"key":"06413000","name":"Offenbach am Main, Stadt","type":"Kreisfreie_Stadt"},"district":{"key":"06413","name":"Offenbach am Main, Stadt","type":"Kreisfreie_Stadt"},"federalState":{"key":"06","name":"Hessen"}},{"name":"Efeuweg","postalCode":"63075","locality":"Offenbach am Main","municipality":{"key":"06413000","name":"Offenbach am Main, Stadt","type":"Kreisfreie_Stadt"},"district":{"key":"06413","name":"Offenbach am Main, Stadt","type":"Kreisfreie_Stadt"},"federalState":{"key":"06","name":"Hessen"}},{"name":"Egerländer Str.","postalCode":"63069","locality":"Offenbach am Main","municipality":{"key":"06413000","name":"Offenbach am Main, Stadt","type":"Kreisfreie_Stadt"},"district":{"key":"06413","name":"Offenbach am Main, Stadt","type":"Kreisfreie_Stadt"},"federalState":{"key":"06","name":"Hessen"}},{"name":"Eginhardstr.","postalCode":"63071","locality":"Offenbach am Main","municipality":{"key":"06413000","name":"Offenbach am Main, Stadt","type":"Kreisfreie_Stadt"},"district":{"key":"06413","name":"Offenbach am Main, Stadt","type":"Kreisfreie_Stadt"},"federalState":{"key":"06","name":"Hessen"}},{"name":"Eichenallee","postalCode":"63075","locality":"Offenbach am Main","municipality":{"key":"06413000","name":"Offenbach am Main, Stadt","type":"Kreisfreie_Stadt"},"district":{"key":"06413","name":"Offenbach am Main, Stadt","type":"Kreisfreie_Stadt"},"federalState":{"key":"06","name":"Hessen"}},{"name":"Eichwaldweg","postalCode":"63069","locality":"Offenbach am Main","municipality":{"key":"06413000","name":"Offenbach am Main, Stadt","type":"Kreisfreie_Stadt"},"district":{"key":"06413","name":"Offenbach am Main, Stadt","type":"Kreisfreie_Stadt"},"federalState":{"key":"06","name":"Hessen"}},{"name":"Eifelweg","postalCode":"63069","locality":"Offenbach am Main","municipality":{"key":"06413000","name":"Offenbach am Main, Stadt","type":"Kreisfreie_Stadt"},"district":{"key":"06413","name":"Offenbach am Main, Stadt","type":"Kreisfreie_Stadt"},"federalState":{"key":"06","name":"Hessen"}},{"name":"Eigenheimstr.","postalCode":"63071","locality":"Offenbach am Main","municipality":{"key":"06413000","name":"Offenbach am Main, Stadt","type":"Kreisfreie_Stadt"},"district":{"key":"06413","name":"Offenbach am Main, Stadt","type":"Kreisfreie_Stadt"},"federalState":{"key":"06","name":"Hessen"}},{"name":"Elbestr.","postalCode":"63071","locality":"Offenbach am Main","municipality":{"key":"06413000","name":"Offenbach am Main, Stadt","type":"Kreisfreie_Stadt"},"district":{"key":"06413","name":"Offenbach am Main, Stadt","type":"Kreisfreie_Stadt"},"federalState":{"key":"06","name":"Hessen"}},{"name":"Elisabethenstr.","postalCode":"63071","locality":"Offenbach am Main","municipality":{"key":"06413000","name":"Offenbach am Main, Stadt","type":"Kreisfreie_Stadt"},"district":{"key":"06413","name":"Offenbach am Main, Stadt","type":"Kreisfreie_Stadt"},"federalState":{"key":"06","name":"Hessen"}},{"name":"Elisabeth-Selbert-Steg","postalCode":"63067","locality":"Offenbach am Main","municipality":{"key":"06413000","name":"Offenbach am Main, Stadt","type":"Kreisfreie_Stadt"},"district":{"key":"06413","name":"Offenbach am Main, Stadt","type":"Kreisfreie_Stadt"},"federalState":{"key":"06","name":"Hessen"}},{"name":"Ellenbogengasse","postalCode":"63067","locality":"Offenbach am Main","municipality":{"key":"06413000","name":"Offenbach am Main, Stadt","type":"Kreisfreie_Stadt"},"district":{"key":"06413","name":"Offenbach am Main, Stadt","type":"Kreisfreie_Stadt"},"federalState":{"key":"06","name":"Hessen"}},{"name":"Elsa-Brändström-Str.","postalCode":"63075","locality":"Offenbach am Main","municipality":{"key":"06413000","name":"Offenbach am Main, Stadt","type":"Kreisfreie_Stadt"},"district":{"key":"06413","name":"Offenbach am Main, Stadt","type":"Kreisfreie_Stadt"},"federalState":{"key":"06","name":"Hessen"}},{"name":"Elsawaweg","postalCode":"63071","locality":"Offenbach am Main","municipality":{"key":"06413000","name":"Offenbach am Main, Stadt","type":"Kreisfreie_Stadt"},"district":{"key":"06413","name":"Offenbach am Main, Stadt","type":"Kreisfreie_Stadt"},"federalState":{"key":"06","name":"Hessen"}},{"name":"Else-Sterne-Roth-Str.","postalCode":"63075","locality":"Offenbach am Main","municipality":{"key":"06413000","name":"Offenbach am Main, Stadt","type":"Kreisfreie_Stadt"},"district":{"key":"06413","name":"Offenbach am Main, Stadt","type":"Kreisfreie_Stadt"},"federalState":{"key":"06","name":"Hessen"}},{"name":"Emdener Str.","postalCode":"63073","locality":"Offenbach am Main","municipality":{"key":"06413000","name":"Offenbach am Main, Stadt","type":"Kreisfreie_Stadt"},"district":{"key":"06413","name":"Offenbach am Main, Stadt","type":"Kreisfreie_Stadt"},"federalState":{"key":"06","name":"Hessen"}},{"name":"Emmastr.","postalCode":"63071","locality":"Offenbach am Main","municipality":{"key":"06413000","name":"Offenbach am Main, Stadt","type":"Kreisfreie_Stadt"},"district":{"key":"06413","name":"Offenbach am Main, Stadt","type":"Kreisfreie_Stadt"},"federalState":{"key":"06","name":"Hessen"}},{"name":"Engelsgäßchen","postalCode":"63075","locality":"Offenbach am Main","municipality":{"key":"06413000","name":"Offenbach am Main, Stadt","type":"Kreisfreie_Stadt"},"district":{"key":"06413","name":"Offenbach am Main, Stadt","type":"Kreisfreie_Stadt"},"federalState":{"key":"06","name":"Hessen"}},{"name":"Enkheimer Str.","postalCode":"63075","locality":"Offenbach am Main","municipality":{"key":"06413000","name":"Offenbach am Main, Stadt","type":"Kreisfreie_Stadt"},"district":{"key":"06413","name":"Offenbach am Main, Stadt","type":"Kreisfreie_Stadt"},"federalState":{"key":"06","name":"Hessen"}},{"name":"Eppsteiner Str.","postalCode":"63075","locality":"Offenbach am Main","municipality":{"key":"06413000","name":"Offenbach am Main, Stadt","type":"Kreisfreie_Stadt"},"district":{"key":"06413","name":"Offenbach am Main, Stadt","type":"Kreisfreie_Stadt"},"federalState":{"key":"06","name":"Hessen"}},{"name":"Erfaweg","postalCode":"63071","locality":"Offenbach am Main","municipality":{"key":"06413000","name":"Offenbach am Main, Stadt","type":"Kreisfreie_Stadt"},"district":{"key":"06413","name":"Offenbach am Main, Stadt","type":"Kreisfreie_Stadt"},"federalState":{"key":"06","name":"Hessen"}},{"name":"Erich-Ollenhauer-Str.","postalCode":"63073","locality":"Offenbach am Main","municipality":{"key":"06413000","name":"Offenbach am Main, Stadt","type":"Kreisfreie_Stadt"},"district":{"key":"06413","name":"Offenbach am Main, Stadt","type":"Kreisfreie_Stadt"},"federalState":{"key":"06","name":"Hessen"}},{"name":"Erlenbruchstr.","postalCode":"63071","locality":"Offenbach am Main","municipality":{"key":"06413000","name":"Offenbach am Main, Stadt","type":"Kreisfreie_Stadt"},"district":{"key":"06413","name":"Offenbach am Main, Stadt","type":"Kreisfreie_Stadt"},"federalState":{"key":"06","name":"Hessen"}},{"name":"Erlenstegschneise","postalCode":"63071","locality":"Offenbach am Main","municipality":{"key":"06413000","name":"Offenbach am Main, Stadt","type":"Kreisfreie_Stadt"},"district":{"key":"06413","name":"Offenbach am Main, Stadt","type":"Kreisfreie_Stadt"},"federalState":{"key":"06","name":"Hessen"}},{"name":"Erlenstegschneise","postalCode":"63073","locality":"Offenbach am Main","municipality":{"key":"06413000","name":"Offenbach am Main, Stadt","type":"Kreisfreie_Stadt"},"district":{"key":"06413","name":"Offenbach am Main, Stadt","type":"Kreisfreie_Stadt"},"federalState":{"key":"06","name":"Hessen"}},{"name":"Erlenstegscshneise","postalCode":"63073","locality":"Offenbach am Main","municipality":{"key":"06413000","name":"Offenbach am Main, Stadt","type":"Kreisfreie_Stadt"},"district":{"key":"06413","name":"Offenbach am Main, Stadt","type":"Kreisfreie_Stadt"},"federalState":{"key":"06","name":"Hessen"}},{"name":"Ermlandweg","postalCode":"63069","locality":"Offenbach am Main","municipality":{"key":"06413000","name":"Offenbach am Main, Stadt","type":"Kreisfreie_Stadt"},"district":{"key":"06413","name":"Offenbach am Main, Stadt","type":"Kreisfreie_Stadt"},"federalState":{"key":"06","name":"Hessen"}},{"name":"Eschstr.","postalCode":"63069","locality":"Offenbach am Main","municipality":{"key":"06413000","name":"Offenbach am Main, Stadt","type":"Kreisfreie_Stadt"},"district":{"key":"06413","name":"Offenbach am Main, Stadt","type":"Kreisfreie_Stadt"},"federalState":{"key":"06","name":"Hessen"}},{"name":"Eupener Str.","postalCode":"63069","locality":"Offenbach am Main","municipality":{"key":"06413000","name":"Offenbach am Main, Stadt","type":"Kreisfreie_Stadt"},"district":{"key":"06413","name":"Offenbach am Main, Stadt","type":"Kreisfreie_Stadt"},"federalState":{"key":"06","name":"Hessen"}},{"name":"Fachackerweg","postalCode":"63067","locality":"Offenbach am Main","municipality":{"key":"06413000","name":"Offenbach am Main, Stadt","type":"Kreisfreie_Stadt"},"district":{"key":"06413","name":"Offenbach am Main, Stadt","type":"Kreisfreie_Stadt"},"federalState":{"key":"06","name":"Hessen"}},{"name":"Fachweg","postalCode":"63075","locality":"Offenbach am Main","municipality":{"key":"06413000","name":"Offenbach am Main, Stadt","type":"Kreisfreie_Stadt"},"district":{"key":"06413","name":"Offenbach am Main, Stadt","type":"Kreisfreie_Stadt"},"federalState":{"key":"06","name":"Hessen"}},{"name":"Falltorstr.","postalCode":"63075","locality":"Offenbach am Main","municipality":{"key":"06413000","name":"Offenbach am Main, Stadt","type":"Kreisfreie_Stadt"},"district":{"key":"06413","name":"Offenbach am Main, Stadt","type":"Kreisfreie_Stadt"},"federalState":{"key":"06","name":"Hessen"}},{"name":"Fechenheimer Str.","postalCode":"63075","locality":"Offenbach am Main","municipality":{"key":"06413000","name":"Offenbach am Main, Stadt","type":"Kreisfreie_Stadt"},"district":{"key":"06413","name":"Offenbach am Main, Stadt","type":"Kreisfreie_Stadt"},"federalState":{"key":"06","name":"Hessen"}},{"name":"Feldbergweg","postalCode":"63069","locality":"Offenbach am Main","municipality":{"key":"06413000","name":"Offenbach am Main, Stadt","type":"Kreisfreie_Stadt"},"district":{"key":"06413","name":"Offenbach am Main, Stadt","type":"Kreisfreie_Stadt"},"federalState":{"key":"06","name":"Hessen"}},{"name":"Feldstr.","postalCode":"63065","locality":"Offenbach am Main","municipality":{"key":"06413000","name":"Offenbach am Main, Stadt","type":"Kreisfreie_Stadt"},"district":{"key":"06413","name":"Offenbach am Main, Stadt","type":"Kreisfreie_Stadt"},"federalState":{"key":"06","name":"Hessen"}},{"name":"Feldstr.","postalCode":"63071","locality":"Offenbach am Main","municipality":{"key":"06413000","name":"Offenbach am Main, Stadt","type":"Kreisfreie_Stadt"},"district":{"key":"06413","name":"Offenbach am Main, Stadt","type":"Kreisfreie_Stadt"},"federalState":{"key":"06","name":"Hessen"}},{"name":"Felix-Mendelssohn-Str.","postalCode":"63069","locality":"Offenbach am Main","municipality":{"key":"06413000","name":"Offenbach am Main, Stadt","type":"Kreisfreie_Stadt"},"district":{"key":"06413","name":"Offenbach am Main, Stadt","type":"Kreisfreie_Stadt"},"federalState":{"key":"06","name":"Hessen"}},{"name":"Ferdinand-Porsche-Str.","postalCode":"63073","locality":"Offenbach am Main","municipality":{"key":"06413000","name":"Offenbach am Main, Stadt","type":"Kreisfreie_Stadt"},"district":{"key":"06413","name":"Offenbach am Main, Stadt","type":"Kreisfreie_Stadt"},"federalState":{"key":"06","name":"Hessen"}},{"name":"Fichtestr.","postalCode":"63071","locality":"Offenbach am Main","municipality":{"key":"06413000","name":"Offenbach am Main, Stadt","type":"Kreisfreie_Stadt"},"district":{"key":"06413","name":"Offenbach am Main, Stadt","type":"Kreisfreie_Stadt"},"federalState":{"key":"06","name":"Hessen"}},{"name":"Finkenstr.","postalCode":"63069","locality":"Offenbach am Main","municipality":{"key":"06413000","name":"Offenbach am Main, Stadt","type":"Kreisfreie_Stadt"},"district":{"key":"06413","name":"Offenbach am Main, Stadt","type":"Kreisfreie_Stadt"},"federalState":{"key":"06","name":"Hessen"}},{"name":"Fischergasse","postalCode":"63075","locality":"Offenbach am Main","municipality":{"key":"06413000","name":"Offenbach am Main, Stadt","type":"Kreisfreie_Stadt"},"district":{"key":"06413","name":"Offenbach am Main, Stadt","type":"Kreisfreie_Stadt"},"federalState":{"key":"06","name":"Hessen"}},{"name":"Flurstr.","postalCode":"63073","locality":"Offenbach am Main","municipality":{"key":"06413000","name":"Offenbach am Main, Stadt","type":"Kreisfreie_Stadt"},"district":{"key":"06413","name":"Offenbach am Main, Stadt","type":"Kreisfreie_Stadt"},"federalState":{"key":"06","name":"Hessen"}},{"name":"Flutstr.","postalCode":"63071","locality":"Offenbach am Main","municipality":{"key":"06413000","name":"Offenbach am Main, Stadt","type":"Kreisfreie_Stadt"},"district":{"key":"06413","name":"Offenbach am Main, Stadt","type":"Kreisfreie_Stadt"},"federalState":{"key":"06","name":"Hessen"}},{"name":"Forstmeisterschneise","postalCode":"63069","locality":"Offenbach am Main","municipality":{"key":"06413000","name":"Offenbach am Main, Stadt","type":"Kreisfreie_Stadt"},"district":{"key":"06413","name":"Offenbach am Main, Stadt","type":"Kreisfreie_Stadt"},"federalState":{"key":"06","name":"Hessen"}},{"name":"Frankenstr.","postalCode":"63075","locality":"Offenbach am Main","municipality":{"key":"06413000","name":"Offenbach am Main, Stadt","type":"Kreisfreie_Stadt"},"district":{"key":"06413","name":"Offenbach am Main, Stadt","type":"Kreisfreie_Stadt"},"federalState":{"key":"06","name":"Hessen"}},{"name":"Frankfurter Str.","postalCode":"63065","locality":"Offenbach am Main","municipality":{"key":"06413000","name":"Offenbach am Main, Stadt","type":"Kreisfreie_Stadt"},"district":{"key":"06413","name":"Offenbach am Main, Stadt","type":"Kreisfreie_Stadt"},"federalState":{"key":"06","name":"Hessen"}},{"name":"Frankfurter Str.","postalCode":"63067","locality":"Offenbach am Main","municipality":{"key":"06413000","name":"Offenbach am Main, Stadt","type":"Kreisfreie_Stadt"},"district":{"key":"06413","name":"Offenbach am Main, Stadt","type":"Kreisfreie_Stadt"},"federalState":{"key":"06","name":"Hessen"}},{"name":"Franz-Liszt-Str.","postalCode":"63069","locality":"Offenbach am Main","municipality":{"key":"06413000","name":"Offenbach am Main, Stadt","type":"Kreisfreie_Stadt"},"district":{"key":"06413","name":"Offenbach am Main, Stadt","type":"Kreisfreie_Stadt"},"federalState":{"key":"06","name":"Hessen"}},{"name":"Französisches Gäßchen","postalCode":"63065","locality":"Offenbach am Main","municipality":{"key":"06413000","name":"Offenbach am Main, Stadt","type":"Kreisfreie_Stadt"},"district":{"key":"06413","name":"Offenbach am Main, Stadt","type":"Kreisfreie_Stadt"},"federalState":{"key":"06","name":"Hessen"}},{"name":"Frauhohlwiesenweg","postalCode":"63075","locality":"Offenbach am Main","municipality":{"key":"06413000","name":"Offenbach am Main, Stadt","type":"Kreisfreie_Stadt"},"district":{"key":"06413","name":"Offenbach am Main, Stadt","type":"Kreisfreie_Stadt"},"federalState":{"key":"06","name":"Hessen"}},{"name":"Freiherr-vom-Stein-Str.","postalCode":"63071","locality":"Offenbach am Main","municipality":{"key":"06413000","name":"Offenbach am Main, Stadt","type":"Kreisfreie_Stadt"},"district":{"key":"06413","name":"Offenbach am Main, Stadt","type":"Kreisfreie_Stadt"},"federalState":{"key":"06","name":"Hessen"}},{"name":"Freiligrathstr.","postalCode":"63071","locality":"Offenbach am Main","municipality":{"key":"06413000","name":"Offenbach am Main, Stadt","type":"Kreisfreie_Stadt"},"district":{"key":"06413","name":"Offenbach am Main, Stadt","type":"Kreisfreie_Stadt"},"federalState":{"key":"06","name":"Hessen"}},{"name":"Friedensstr.","postalCode":"63071","locality":"Offenbach am Main","municipality":{"key":"06413000","name":"Offenbach am Main, Stadt","type":"Kreisfreie_Stadt"},"district":{"key":"06413","name":"Offenbach am Main, Stadt","type":"Kreisfreie_Stadt"},"federalState":{"key":"06","name":"Hessen"}},{"name":"Friedhofstr.","postalCode":"63065","locality":"Offenbach am Main","municipality":{"key":"06413000","name":"Offenbach am Main, Stadt","type":"Kreisfreie_Stadt"},"district":{"key":"06413","name":"Offenbach am Main, Stadt","type":"Kreisfreie_Stadt"},"federalState":{"key":"06","name":"Hessen"}},{"name":"Friedrichsring","postalCode":"63069","locality":"Offenbach am Main","municipality":{"key":"06413000","name":"Offenbach am Main, Stadt","type":"Kreisfreie_Stadt"},"district":{"key":"06413","name":"Offenbach am Main, Stadt","type":"Kreisfreie_Stadt"},"federalState":{"key":"06","name":"Hessen"}},{"name":"Friedrichsring","postalCode":"63071","locality":"Offenbach am Main","municipality":{"key":"06413000","name":"Offenbach am Main, Stadt","type":"Kreisfreie_Stadt"},"district":{"key":"06413","name":"Offenbach am Main, Stadt","type":"Kreisfreie_Stadt"},"federalState":{"key":"06","name":"Hessen"}},{"name":"Friedrichstr.","postalCode":"63065","locality":"Offenbach am Main","municipality":{"key":"06413000","name":"Offenbach am Main, Stadt","type":"Kreisfreie_Stadt"},"district":{"key":"06413","name":"Offenbach am Main, Stadt","type":"Kreisfreie_Stadt"},"federalState":{"key":"06","name":"Hessen"}},{"name":"Friesenstr.","postalCode":"63075","locality":"Offenbach am Main","municipality":{"key":"06413000","name":"Offenbach am Main, Stadt","type":"Kreisfreie_Stadt"},"district":{"key":"06413","name":"Offenbach am Main, Stadt","type":"Kreisfreie_Stadt"},"federalState":{"key":"06","name":"Hessen"}},{"name":"Fritz-Erler-Str.","postalCode":"63073","locality":"Offenbach am Main","municipality":{"key":"06413000","name":"Offenbach am Main, Stadt","type":"Kreisfreie_Stadt"},"district":{"key":"06413","name":"Offenbach am Main, Stadt","type":"Kreisfreie_Stadt"},"federalState":{"key":"06","name":"Hessen"}},{"name":"Fritz-Remy-Str.","postalCode":"63071","locality":"Offenbach am Main","municipality":{"key":"06413000","name":"Offenbach am Main, Stadt","type":"Kreisfreie_Stadt"},"district":{"key":"06413","name":"Offenbach am Main, Stadt","type":"Kreisfreie_Stadt"},"federalState":{"key":"06","name":"Hessen"}},{"name":"Frühlingsaustr.","postalCode":"63069","locality":"Offenbach am Main","municipality":{"key":"06413000","name":"Offenbach am Main, Stadt","type":"Kreisfreie_Stadt"},"district":{"key":"06413","name":"Offenbach am Main, Stadt","type":"Kreisfreie_Stadt"},"federalState":{"key":"06","name":"Hessen"}},{"name":"Fuchsbau","postalCode":"63075","locality":"Offenbach am Main","municipality":{"key":"06413000","name":"Offenbach am Main, Stadt","type":"Kreisfreie_Stadt"},"district":{"key":"06413","name":"Offenbach am Main, Stadt","type":"Kreisfreie_Stadt"},"federalState":{"key":"06","name":"Hessen"}},{"name":"Fuchsplattweg","postalCode":"63069","locality":"Offenbach am Main","municipality":{"key":"06413000","name":"Offenbach am Main, Stadt","type":"Kreisfreie_Stadt"},"district":{"key":"06413","name":"Offenbach am Main, Stadt","type":"Kreisfreie_Stadt"},"federalState":{"key":"06","name":"Hessen"}},{"name":"Gabelsbergerstr.","postalCode":"63069","locality":"Offenbach am Main","municipality":{"key":"06413000","name":"Offenbach am Main, Stadt","type":"Kreisfreie_Stadt"},"district":{"key":"06413","name":"Offenbach am Main, Stadt","type":"Kreisfreie_Stadt"},"federalState":{"key":"06","name":"Hessen"}},{"name":"Gambachschneise","postalCode":"63069","locality":"Offenbach am Main","municipality":{"key":"06413000","name":"Offenbach am Main, Stadt","type":"Kreisfreie_Stadt"},"district":{"key":"06413","name":"Offenbach am Main, Stadt","type":"Kreisfreie_Stadt"},"federalState":{"key":"06","name":"Hessen"}},{"name":"Gartenfeldstr.","postalCode":"63071","locality":"Offenbach am Main","municipality":{"key":"06413000","name":"Offenbach am Main, Stadt","type":"Kreisfreie_Stadt"},"district":{"key":"06413","name":"Offenbach am Main, Stadt","type":"Kreisfreie_Stadt"},"federalState":{"key":"06","name":"Hessen"}},{"name":"Gartenstr.","postalCode":"63071","locality":"Offenbach am Main","municipality":{"key":"06413000","name":"Offenbach am Main, Stadt","type":"Kreisfreie_Stadt"},"district":{"key":"06413","name":"Offenbach am Main, Stadt","type":"Kreisfreie_Stadt"},"federalState":{"key":"06","name":"Hessen"}},{"name":"Gaußstr.","postalCode":"63071","locality":"Offenbach am Main","municipality":{"key":"06413000","name":"Offenbach am Main, Stadt","type":"Kreisfreie_Stadt"},"district":{"key":"06413","name":"Offenbach am Main, Stadt","type":"Kreisfreie_Stadt"},"federalState":{"key":"06","name":"Hessen"}},{"name":"Geisfeldkreisel","postalCode":"63069","locality":"Offenbach am Main","municipality":{"key":"06413000","name":"Offenbach am Main, Stadt","type":"Kreisfreie_Stadt"},"district":{"key":"06413","name":"Offenbach am Main, Stadt","type":"Kreisfreie_Stadt"},"federalState":{"key":"06","name":"Hessen"}},{"name":"Geishornstr.","postalCode":"63069","locality":"Offenbach am Main","municipality":{"key":"06413000","name":"Offenbach am Main, Stadt","type":"Kreisfreie_Stadt"},"district":{"key":"06413","name":"Offenbach am Main, Stadt","type":"Kreisfreie_Stadt"},"federalState":{"key":"06","name":"Hessen"}},{"name":"Geisschneise","postalCode":"63069","locality":"Offenbach am Main","municipality":{"key":"06413000","name":"Offenbach am Main, Stadt","type":"Kreisfreie_Stadt"},"district":{"key":"06413","name":"Offenbach am Main, Stadt","type":"Kreisfreie_Stadt"},"federalState":{"key":"06","name":"Hessen"}},{"name":"Geleitsstr.","postalCode":"63065","locality":"Offenbach am Main","municipality":{"key":"06413000","name":"Offenbach am Main, Stadt","type":"Kreisfreie_Stadt"},"district":{"key":"06413","name":"Offenbach am Main, Stadt","type":"Kreisfreie_Stadt"},"federalState":{"key":"06","name":"Hessen"}},{"name":"Geleitsstr.","postalCode":"63067","locality":"Offenbach am Main","municipality":{"key":"06413000","name":"Offenbach am Main, Stadt","type":"Kreisfreie_Stadt"},"district":{"key":"06413","name":"Offenbach am Main, Stadt","type":"Kreisfreie_Stadt"},"federalState":{"key":"06","name":"Hessen"}},{"name":"Geleitsweg","postalCode":"63075","locality":"Offenbach am Main","municipality":{"key":"06413000","name":"Offenbach am Main, Stadt","type":"Kreisfreie_Stadt"},"district":{"key":"06413","name":"Offenbach am Main, Stadt","type":"Kreisfreie_Stadt"},"federalState":{"key":"06","name":"Hessen"}},{"name":"Georg-Büchner-Weg","postalCode":"63069","locality":"Offenbach am Main","municipality":{"key":"06413000","name":"Offenbach am Main, Stadt","type":"Kreisfreie_Stadt"},"district":{"key":"06413","name":"Offenbach am Main, Stadt","type":"Kreisfreie_Stadt"},"federalState":{"key":"06","name":"Hessen"}},{"name":"Gerberstr.","postalCode":"63065","locality":"Offenbach am Main","municipality":{"key":"06413000","name":"Offenbach am Main, Stadt","type":"Kreisfreie_Stadt"},"district":{"key":"06413","name":"Offenbach am Main, Stadt","type":"Kreisfreie_Stadt"},"federalState":{"key":"06","name":"Hessen"}},{"name":"Gerhard-Becker-Str.","postalCode":"63075","locality":"Offenbach am Main","municipality":{"key":"06413000","name":"Offenbach am Main, Stadt","type":"Kreisfreie_Stadt"},"district":{"key":"06413","name":"Offenbach am Main, Stadt","type":"Kreisfreie_Stadt"},"federalState":{"key":"06","name":"Hessen"}},{"name":"Gerhart-Hauptmann-Str.","postalCode":"63071","locality":"Offenbach am Main","municipality":{"key":"06413000","name":"Offenbach am Main, Stadt","type":"Kreisfreie_Stadt"},"district":{"key":"06413","name":"Offenbach am Main, Stadt","type":"Kreisfreie_Stadt"},"federalState":{"key":"06","name":"Hessen"}},{"name":"Germaniastr.","postalCode":"63073","locality":"Offenbach am Main","municipality":{"key":"06413000","name":"Offenbach am Main, Stadt","type":"Kreisfreie_Stadt"},"district":{"key":"06413","name":"Offenbach am Main, Stadt","type":"Kreisfreie_Stadt"},"federalState":{"key":"06","name":"Hessen"}},{"name":"Gersprenzweg","postalCode":"63071","locality":"Offenbach am Main","municipality":{"key":"06413000","name":"Offenbach am Main, Stadt","type":"Kreisfreie_Stadt"},"district":{"key":"06413","name":"Offenbach am Main, Stadt","type":"Kreisfreie_Stadt"},"federalState":{"key":"06","name":"Hessen"}},{"name":"Geschwister-Scholl-Str.","postalCode":"63071","locality":"Offenbach am Main","municipality":{"key":"06413000","name":"Offenbach am Main, Stadt","type":"Kreisfreie_Stadt"},"district":{"key":"06413","name":"Offenbach am Main, Stadt","type":"Kreisfreie_Stadt"},"federalState":{"key":"06","name":"Hessen"}},{"name":"Gießener Weg","postalCode":"63075","locality":"Offenbach am Main","municipality":{"key":"06413000","name":"Offenbach am Main, Stadt","type":"Kreisfreie_Stadt"},"district":{"key":"06413","name":"Offenbach am Main, Stadt","type":"Kreisfreie_Stadt"},"federalState":{"key":"06","name":"Hessen"}},{"name":"Ginsterpfad","postalCode":"63075","locality":"Offenbach am Main","municipality":{"key":"06413000","name":"Offenbach am Main, Stadt","type":"Kreisfreie_Stadt"},"district":{"key":"06413","name":"Offenbach am Main, Stadt","type":"Kreisfreie_Stadt"},"federalState":{"key":"06","name":"Hessen"}},{"name":"Ginsterweg","postalCode":"63075","locality":"Offenbach am Main","municipality":{"key":"06413000","name":"Offenbach am Main, Stadt","type":"Kreisfreie_Stadt"},"district":{"key":"06413","name":"Offenbach am Main, Stadt","type":"Kreisfreie_Stadt"},"federalState":{"key":"06","name":"Hessen"}},{"name":"Glockengasse","postalCode":"63065","locality":"Offenbach am Main","municipality":{"key":"06413000","name":"Offenbach am Main, Stadt","type":"Kreisfreie_Stadt"},"district":{"key":"06413","name":"Offenbach am Main, Stadt","type":"Kreisfreie_Stadt"},"federalState":{"key":"06","name":"Hessen"}},{"name":"Goerdelerstr.","postalCode":"63071","locality":"Offenbach am Main","municipality":{"key":"06413000","name":"Offenbach am Main, Stadt","type":"Kreisfreie_Stadt"},"district":{"key":"06413","name":"Offenbach am Main, Stadt","type":"Kreisfreie_Stadt"},"federalState":{"key":"06","name":"Hessen"}},{"name":"Goetheplatz","postalCode":"63067","locality":"Offenbach am Main","municipality":{"key":"06413000","name":"Offenbach am Main, Stadt","type":"Kreisfreie_Stadt"},"district":{"key":"06413","name":"Offenbach am Main, Stadt","type":"Kreisfreie_Stadt"},"federalState":{"key":"06","name":"Hessen"}},{"name":"Goethering","postalCode":"63067","locality":"Offenbach am Main","municipality":{"key":"06413000","name":"Offenbach am Main, Stadt","type":"Kreisfreie_Stadt"},"district":{"key":"06413","name":"Offenbach am Main, Stadt","type":"Kreisfreie_Stadt"},"federalState":{"key":"06","name":"Hessen"}},{"name":"Goethestr.","postalCode":"63065","locality":"Offenbach am Main","municipality":{"key":"06413000","name":"Offenbach am Main, Stadt","type":"Kreisfreie_Stadt"},"district":{"key":"06413","name":"Offenbach am Main, Stadt","type":"Kreisfreie_Stadt"},"federalState":{"key":"06","name":"Hessen"}},{"name":"Goethestr.","postalCode":"63067","locality":"Offenbach am Main","municipality":{"key":"06413000","name":"Offenbach am Main, Stadt","type":"Kreisfreie_Stadt"},"district":{"key":"06413","name":"Offenbach am Main, Stadt","type":"Kreisfreie_Stadt"},"federalState":{"key":"06","name":"Hessen"}},{"name":"Goldbergstr.","postalCode":"63073","locality":"Offenbach am Main","municipality":{"key":"06413000","name":"Offenbach am Main, Stadt","type":"Kreisfreie_Stadt"},"district":{"key":"06413","name":"Offenbach am Main, Stadt","type":"Kreisfreie_Stadt"},"federalState":{"key":"06","name":"Hessen"}},{"name":"Gottfried-Schaider-Str.","postalCode":"63075","locality":"Offenbach am Main","municipality":{"key":"06413000","name":"Offenbach am Main, Stadt","type":"Kreisfreie_Stadt"},"district":{"key":"06413","name":"Offenbach am Main, Stadt","type":"Kreisfreie_Stadt"},"federalState":{"key":"06","name":"Hessen"}},{"name":"Grabenstr.","postalCode":"63071","locality":"Offenbach am Main","municipality":{"key":"06413000","name":"Offenbach am Main, Stadt","type":"Kreisfreie_Stadt"},"district":{"key":"06413","name":"Offenbach am Main, Stadt","type":"Kreisfreie_Stadt"},"federalState":{"key":"06","name":"Hessen"}},{"name":"Gravenbruchweg","postalCode":"63069","locality":"Offenbach am Main","municipality":{"key":"06413000","name":"Offenbach am Main, Stadt","type":"Kreisfreie_Stadt"},"district":{"key":"06413","name":"Offenbach am Main, Stadt","type":"Kreisfreie_Stadt"},"federalState":{"key":"06","name":"Hessen"}},{"name":"Grazer Str.","postalCode":"63073","locality":"Offenbach am Main","municipality":{"key":"06413000","name":"Offenbach am Main, Stadt","type":"Kreisfreie_Stadt"},"district":{"key":"06413","name":"Offenbach am Main, Stadt","type":"Kreisfreie_Stadt"},"federalState":{"key":"06","name":"Hessen"}},{"name":"Grenzweg","postalCode":"63075","locality":"Offenbach am Main","municipality":{"key":"06413000","name":"Offenbach am Main, Stadt","type":"Kreisfreie_Stadt"},"district":{"key":"06413","name":"Offenbach am Main, Stadt","type":"Kreisfreie_Stadt"},"federalState":{"key":"06","name":"Hessen"}},{"name":"Gretel-Maraldo-Str.","postalCode":"63075","locality":"Offenbach am Main","municipality":{"key":"06413000","name":"Offenbach am Main, Stadt","type":"Kreisfreie_Stadt"},"district":{"key":"06413","name":"Offenbach am Main, Stadt","type":"Kreisfreie_Stadt"},"federalState":{"key":"06","name":"Hessen"}},{"name":"Großer Biergrund","postalCode":"63065","locality":"Offenbach am Main","municipality":{"key":"06413000","name":"Offenbach am Main, Stadt","type":"Kreisfreie_Stadt"},"district":{"key":"06413","name":"Offenbach am Main, Stadt","type":"Kreisfreie_Stadt"},"federalState":{"key":"06","name":"Hessen"}},{"name":"Groß-Hasenbach-Str.","postalCode":"63065","locality":"Offenbach am Main","municipality":{"key":"06413000","name":"Offenbach am Main, Stadt","type":"Kreisfreie_Stadt"},"district":{"key":"06413","name":"Offenbach am Main, Stadt","type":"Kreisfreie_Stadt"},"federalState":{"key":"06","name":"Hessen"}},{"name":"Grünring","postalCode":"63069","locality":"Offenbach am Main","municipality":{"key":"06413000","name":"Offenbach am Main, Stadt","type":"Kreisfreie_Stadt"},"district":{"key":"06413","name":"Offenbach am Main, Stadt","type":"Kreisfreie_Stadt"},"federalState":{"key":"06","name":"Hessen"}},{"name":"Gustav-Adolf-Str.","postalCode":"63069","locality":"Offenbach am Main","municipality":{"key":"06413000","name":"Offenbach am Main, Stadt","type":"Kreisfreie_Stadt"},"district":{"key":"06413","name":"Offenbach am Main, Stadt","type":"Kreisfreie_Stadt"},"federalState":{"key":"06","name":"Hessen"}},{"name":"Gustav-Stresemann-Str.","postalCode":"63073","locality":"Offenbach am Main","municipality":{"key":"06413000","name":"Offenbach am Main, Stadt","type":"Kreisfreie_Stadt"},"district":{"key":"06413","name":"Offenbach am Main, Stadt","type":"Kreisfreie_Stadt"},"federalState":{"key":"06","name":"Hessen"}},{"name":"Gutenbergstr.","postalCode":"63069","locality":"Offenbach am Main","municipality":{"key":"06413000","name":"Offenbach am Main, Stadt","type":"Kreisfreie_Stadt"},"district":{"key":"06413","name":"Offenbach am Main, Stadt","type":"Kreisfreie_Stadt"},"federalState":{"key":"06","name":"Hessen"}},{"name":"Hafenallee","postalCode":"63065","locality":"Offenbach am Main","municipality":{"key":"06413000","name":"Offenbach am Main, Stadt","type":"Kreisfreie_Stadt"},"district":{"key":"06413","name":"Offenbach am Main, Stadt","type":"Kreisfreie_Stadt"},"federalState":{"key":"06","name":"Hessen"}},{"name":"Hafenallee","postalCode":"63067","locality":"Offenbach am Main","municipality":{"key":"06413000","name":"Offenbach am Main, Stadt","type":"Kreisfreie_Stadt"},"district":{"key":"06413","name":"Offenbach am Main, Stadt","type":"Kreisfreie_Stadt"},"federalState":{"key":"06","name":"Hessen"}},{"name":"Hafeninsel","postalCode":"63067","locality":"Offenbach am Main","municipality":{"key":"06413000","name":"Offenbach am Main, Stadt","type":"Kreisfreie_Stadt"},"district":{"key":"06413","name":"Offenbach am Main, Stadt","type":"Kreisfreie_Stadt"},"federalState":{"key":"06","name":"Hessen"}},{"name":"Hainbachweg","postalCode":"63071","locality":"Offenbach am Main","municipality":{"key":"06413000","name":"Offenbach am Main, Stadt","type":"Kreisfreie_Stadt"},"district":{"key":"06413","name":"Offenbach am Main, Stadt","type":"Kreisfreie_Stadt"},"federalState":{"key":"06","name":"Hessen"}},{"name":"Hainerweg","postalCode":"63071","locality":"Offenbach am Main","municipality":{"key":"06413000","name":"Offenbach am Main, Stadt","type":"Kreisfreie_Stadt"},"district":{"key":"06413","name":"Offenbach am Main, Stadt","type":"Kreisfreie_Stadt"},"federalState":{"key":"06","name":"Hessen"}},{"name":"Hainstädter Str.","postalCode":"63073","locality":"Offenbach am Main","municipality":{"key":"06413000","name":"Offenbach am Main, Stadt","type":"Kreisfreie_Stadt"},"district":{"key":"06413","name":"Offenbach am Main, Stadt","type":"Kreisfreie_Stadt"},"federalState":{"key":"06","name":"Hessen"}},{"name":"Hamburger Str.","postalCode":"63073","locality":"Offenbach am Main","municipality":{"key":"06413000","name":"Offenbach am Main, Stadt","type":"Kreisfreie_Stadt"},"district":{"key":"06413","name":"Offenbach am Main, Stadt","type":"Kreisfreie_Stadt"},"federalState":{"key":"06","name":"Hessen"}},{"name":"Hanauer Str.","postalCode":"63075","locality":"Offenbach am Main","municipality":{"key":"06413000","name":"Offenbach am Main, Stadt","type":"Kreisfreie_Stadt"},"district":{"key":"06413","name":"Offenbach am Main, Stadt","type":"Kreisfreie_Stadt"},"federalState":{"key":"06","name":"Hessen"}},{"name":"Händelplatz","postalCode":"63069","locality":"Offenbach am Main","municipality":{"key":"06413000","name":"Offenbach am Main, Stadt","type":"Kreisfreie_Stadt"},"district":{"key":"06413","name":"Offenbach am Main, Stadt","type":"Kreisfreie_Stadt"},"federalState":{"key":"06","name":"Hessen"}},{"name":"Harrasweg","postalCode":"63073","locality":"Offenbach am Main","municipality":{"key":"06413000","name":"Offenbach am Main, Stadt","type":"Kreisfreie_Stadt"},"district":{"key":"06413","name":"Offenbach am Main, Stadt","type":"Kreisfreie_Stadt"},"federalState":{"key":"06","name":"Hessen"}},{"name":"Hauffstr.","postalCode":"63069","locality":"Offenbach am Main","municipality":{"key":"06413000","name":"Offenbach am Main, Stadt","type":"Kreisfreie_Stadt"},"district":{"key":"06413","name":"Offenbach am Main, Stadt","type":"Kreisfreie_Stadt"},"federalState":{"key":"06","name":"Hessen"}},{"name":"Haydnstr.","postalCode":"63069","locality":"Offenbach am Main","municipality":{"key":"06413000","name":"Offenbach am Main, Stadt","type":"Kreisfreie_Stadt"},"district":{"key":"06413","name":"Offenbach am Main, Stadt","type":"Kreisfreie_Stadt"},"federalState":{"key":"06","name":"Hessen"}},{"name":"Hebestr.","postalCode":"63065","locality":"Offenbach am Main","municipality":{"key":"06413000","name":"Offenbach am Main, Stadt","type":"Kreisfreie_Stadt"},"district":{"key":"06413","name":"Offenbach am Main, Stadt","type":"Kreisfreie_Stadt"},"federalState":{"key":"06","name":"Hessen"}},{"name":"Heckenpfad","postalCode":"63075","locality":"Offenbach am Main","municipality":{"key":"06413000","name":"Offenbach am Main, Stadt","type":"Kreisfreie_Stadt"},"district":{"key":"06413","name":"Offenbach am Main, Stadt","type":"Kreisfreie_Stadt"},"federalState":{"key":"06","name":"Hessen"}},{"name":"Heinrich-Heine-Str.","postalCode":"63071","locality":"Offenbach am Main","municipality":{"key":"06413000","name":"Offenbach am Main, Stadt","type":"Kreisfreie_Stadt"},"district":{"key":"06413","name":"Offenbach am Main, Stadt","type":"Kreisfreie_Stadt"},"federalState":{"key":"06","name":"Hessen"}},{"name":"Heinrich-Krumm-Str.","postalCode":"63073","locality":"Offenbach am Main","municipality":{"key":"06413000","name":"Offenbach am Main, Stadt","type":"Kreisfreie_Stadt"},"district":{"key":"06413","name":"Offenbach am Main, Stadt","type":"Kreisfreie_Stadt"},"federalState":{"key":"06","name":"Hessen"}},{"name":"Helene-Mayer-Str.","postalCode":"63069","locality":"Offenbach am Main","municipality":{"key":"06413000","name":"Offenbach am Main, Stadt","type":"Kreisfreie_Stadt"},"district":{"key":"06413","name":"Offenbach am Main, Stadt","type":"Kreisfreie_Stadt"},"federalState":{"key":"06","name":"Hessen"}},{"name":"Herderstr.","postalCode":"63073","locality":"Offenbach am Main","municipality":{"key":"06413000","name":"Offenbach am Main, Stadt","type":"Kreisfreie_Stadt"},"district":{"key":"06413","name":"Offenbach am Main, Stadt","type":"Kreisfreie_Stadt"},"federalState":{"key":"06","name":"Hessen"}},{"name":"Hergenröderstr.","postalCode":"63069","locality":"Offenbach am Main","municipality":{"key":"06413000","name":"Offenbach am Main, Stadt","type":"Kreisfreie_Stadt"},"district":{"key":"06413","name":"Offenbach am Main, Stadt","type":"Kreisfreie_Stadt"},"federalState":{"key":"06","name":"Hessen"}},{"name":"Hergenröderweg","postalCode":"63069","locality":"Offenbach am Main","municipality":{"key":"06413000","name":"Offenbach am Main, Stadt","type":"Kreisfreie_Stadt"},"district":{"key":"06413","name":"Offenbach am Main, Stadt","type":"Kreisfreie_Stadt"},"federalState":{"key":"06","name":"Hessen"}},{"name":"Hermann-Löns-Str.","postalCode":"63069","locality":"Offenbach am Main","municipality":{"key":"06413000","name":"Offenbach am Main, Stadt","type":"Kreisfreie_Stadt"},"district":{"key":"06413","name":"Offenbach am Main, Stadt","type":"Kreisfreie_Stadt"},"federalState":{"key":"06","name":"Hessen"}},{"name":"Hermann-Steinhäuser-Str.","postalCode":"63065","locality":"Offenbach am Main","municipality":{"key":"06413000","name":"Offenbach am Main, Stadt","type":"Kreisfreie_Stadt"},"district":{"key":"06413","name":"Offenbach am Main, Stadt","type":"Kreisfreie_Stadt"},"federalState":{"key":"06","name":"Hessen"}},{"name":"Hermannstr.","postalCode":"63069","locality":"Offenbach am Main","municipality":{"key":"06413000","name":"Offenbach am Main, Stadt","type":"Kreisfreie_Stadt"},"district":{"key":"06413","name":"Offenbach am Main, Stadt","type":"Kreisfreie_Stadt"},"federalState":{"key":"06","name":"Hessen"}},{"name":"Herrnstr.","postalCode":"63065","locality":"Offenbach am Main","municipality":{"key":"06413000","name":"Offenbach am Main, Stadt","type":"Kreisfreie_Stadt"},"district":{"key":"06413","name":"Offenbach am Main, Stadt","type":"Kreisfreie_Stadt"},"federalState":{"key":"06","name":"Hessen"}},{"name":"Hertzweg","postalCode":"63071","locality":"Offenbach am Main","municipality":{"key":"06413000","name":"Offenbach am Main, Stadt","type":"Kreisfreie_Stadt"},"district":{"key":"06413","name":"Offenbach am Main, Stadt","type":"Kreisfreie_Stadt"},"federalState":{"key":"06","name":"Hessen"}},{"name":"Herzogstr.","postalCode":"63071","locality":"Offenbach am Main","municipality":{"key":"06413000","name":"Offenbach am Main, Stadt","type":"Kreisfreie_Stadt"},"district":{"key":"06413","name":"Offenbach am Main, Stadt","type":"Kreisfreie_Stadt"},"federalState":{"key":"06","name":"Hessen"}},{"name":"Hesselbuschstr.","postalCode":"63075","locality":"Offenbach am Main","municipality":{"key":"06413000","name":"Offenbach am Main, Stadt","type":"Kreisfreie_Stadt"},"district":{"key":"06413","name":"Offenbach am Main, Stadt","type":"Kreisfreie_Stadt"},"federalState":{"key":"06","name":"Hessen"}},{"name":"Hessenring","postalCode":"63071","locality":"Offenbach am Main","municipality":{"key":"06413000","name":"Offenbach am Main, Stadt","type":"Kreisfreie_Stadt"},"district":{"key":"06413","name":"Offenbach am Main, Stadt","type":"Kreisfreie_Stadt"},"federalState":{"key":"06","name":"Hessen"}},{"name":"Hessenstr.","postalCode":"63075","locality":"Offenbach am Main","municipality":{"key":"06413000","name":"Offenbach am Main, Stadt","type":"Kreisfreie_Stadt"},"district":{"key":"06413","name":"Offenbach am Main, Stadt","type":"Kreisfreie_Stadt"},"federalState":{"key":"06","name":"Hessen"}},{"name":"Heusenstammer-Feld-Schneise","postalCode":"63073","locality":"Offenbach am Main","municipality":{"key":"06413000","name":"Offenbach am Main, Stadt","type":"Kreisfreie_Stadt"},"district":{"key":"06413","name":"Offenbach am Main, Stadt","type":"Kreisfreie_Stadt"},"federalState":{"key":"06","name":"Hessen"}},{"name":"Heusenstammer Schneise","postalCode":"63069","locality":"Offenbach am Main","municipality":{"key":"06413000","name":"Offenbach am Main, Stadt","type":"Kreisfreie_Stadt"},"district":{"key":"06413","name":"Offenbach am Main, Stadt","type":"Kreisfreie_Stadt"},"federalState":{"key":"06","name":"Hessen"}},{"name":"Heusenstammer Weg","postalCode":"63071","locality":"Offenbach am Main","municipality":{"key":"06413000","name":"Offenbach am Main, Stadt","type":"Kreisfreie_Stadt"},"district":{"key":"06413","name":"Offenbach am Main, Stadt","type":"Kreisfreie_Stadt"},"federalState":{"key":"06","name":"Hessen"}},{"name":"Heusenstammer Weg","postalCode":"63073","locality":"Offenbach am Main","municipality":{"key":"06413000","name":"Offenbach am Main, Stadt","type":"Kreisfreie_Stadt"},"district":{"key":"06413","name":"Offenbach am Main, Stadt","type":"Kreisfreie_Stadt"},"federalState":{"key":"06","name":"Hessen"}},{"name":"Hinterwaldweg","postalCode":"63069","locality":"Offenbach am Main","municipality":{"key":"06413000","name":"Offenbach am Main, Stadt","type":"Kreisfreie_Stadt"},"district":{"key":"06413","name":"Offenbach am Main, Stadt","type":"Kreisfreie_Stadt"},"federalState":{"key":"06","name":"Hessen"}},{"name":"Hochrainstr.","postalCode":"63067","locality":"Offenbach am Main","municipality":{"key":"06413000","name":"Offenbach am Main, Stadt","type":"Kreisfreie_Stadt"},"district":{"key":"06413","name":"Offenbach am Main, Stadt","type":"Kreisfreie_Stadt"},"federalState":{"key":"06","name":"Hessen"}},{"name":"Hochstädter Str.","postalCode":"63075","locality":"Offenbach am Main","municipality":{"key":"06413000","name":"Offenbach am Main, Stadt","type":"Kreisfreie_Stadt"},"district":{"key":"06413","name":"Offenbach am Main, Stadt","type":"Kreisfreie_Stadt"},"federalState":{"key":"06","name":"Hessen"}},{"name":"Hochstr.","postalCode":"63073","locality":"Offenbach am Main","municipality":{"key":"06413000","name":"Offenbach am Main, Stadt","type":"Kreisfreie_Stadt"},"district":{"key":"06413","name":"Offenbach am Main, Stadt","type":"Kreisfreie_Stadt"},"federalState":{"key":"06","name":"Hessen"}},{"name":"Hofstr.","postalCode":"63075","locality":"Offenbach am Main","municipality":{"key":"06413000","name":"Offenbach am Main, Stadt","type":"Kreisfreie_Stadt"},"district":{"key":"06413","name":"Offenbach am Main, Stadt","type":"Kreisfreie_Stadt"},"federalState":{"key":"06","name":"Hessen"}},{"name":"Hohe Str.","postalCode":"63069","locality":"Offenbach am Main","municipality":{"key":"06413000","name":"Offenbach am Main, Stadt","type":"Kreisfreie_Stadt"},"district":{"key":"06413","name":"Offenbach am Main, Stadt","type":"Kreisfreie_Stadt"},"federalState":{"key":"06","name":"Hessen"}},{"name":"Hölderlinstr.","postalCode":"63071","locality":"Offenbach am Main","municipality":{"key":"06413000","name":"Offenbach am Main, Stadt","type":"Kreisfreie_Stadt"},"district":{"key":"06413","name":"Offenbach am Main, Stadt","type":"Kreisfreie_Stadt"},"federalState":{"key":"06","name":"Hessen"}},{"name":"Holunderweg","postalCode":"63075","locality":"Offenbach am Main","municipality":{"key":"06413000","name":"Offenbach am Main, Stadt","type":"Kreisfreie_Stadt"},"district":{"key":"06413","name":"Offenbach am Main, Stadt","type":"Kreisfreie_Stadt"},"federalState":{"key":"06","name":"Hessen"}},{"name":"Holzwiesenweg","postalCode":"63073","locality":"Offenbach am Main","municipality":{"key":"06413000","name":"Offenbach am Main, Stadt","type":"Kreisfreie_Stadt"},"district":{"key":"06413","name":"Offenbach am Main, Stadt","type":"Kreisfreie_Stadt"},"federalState":{"key":"06","name":"Hessen"}},{"name":"Hospitalstr.","postalCode":"63065","locality":"Offenbach am Main","municipality":{"key":"06413000","name":"Offenbach am Main, Stadt","type":"Kreisfreie_Stadt"},"district":{"key":"06413","name":"Offenbach am Main, Stadt","type":"Kreisfreie_Stadt"},"federalState":{"key":"06","name":"Hessen"}},{"name":"Hugo-Eberhardt-Weg","postalCode":"63069","locality":"Offenbach am Main","municipality":{"key":"06413000","name":"Offenbach am Main, Stadt","type":"Kreisfreie_Stadt"},"district":{"key":"06413","name":"Offenbach am Main, Stadt","type":"Kreisfreie_Stadt"},"federalState":{"key":"06","name":"Hessen"}},{"name":"Hugo-Wolf-Str.","postalCode":"63069","locality":"Offenbach am Main","municipality":{"key":"06413000","name":"Offenbach am Main, Stadt","type":"Kreisfreie_Stadt"},"district":{"key":"06413","name":"Offenbach am Main, Stadt","type":"Kreisfreie_Stadt"},"federalState":{"key":"06","name":"Hessen"}},{"name":"Humboldtstr.","postalCode":"63069","locality":"Offenbach am Main","municipality":{"key":"06413000","name":"Offenbach am Main, Stadt","type":"Kreisfreie_Stadt"},"district":{"key":"06413","name":"Offenbach am Main, Stadt","type":"Kreisfreie_Stadt"},"federalState":{"key":"06","name":"Hessen"}},{"name":"Hunsrückweg","postalCode":"63069","locality":"Offenbach am Main","municipality":{"key":"06413000","name":"Offenbach am Main, Stadt","type":"Kreisfreie_Stadt"},"district":{"key":"06413","name":"Offenbach am Main, Stadt","type":"Kreisfreie_Stadt"},"federalState":{"key":"06","name":"Hessen"}},{"name":"Im Birkengrund","postalCode":"63073","locality":"Offenbach am Main","municipality":{"key":"06413000","name":"Offenbach am Main, Stadt","type":"Kreisfreie_Stadt"},"district":{"key":"06413","name":"Offenbach am Main, Stadt","type":"Kreisfreie_Stadt"},"federalState":{"key":"06","name":"Hessen"}},{"name":"Im Eschig","postalCode":"63075","locality":"Offenbach am Main","municipality":{"key":"06413000","name":"Offenbach am Main, Stadt","type":"Kreisfreie_Stadt"},"district":{"key":"06413","name":"Offenbach am Main, Stadt","type":"Kreisfreie_Stadt"},"federalState":{"key":"06","name":"Hessen"}},{"name":"Im Flieder","postalCode":"63075","locality":"Offenbach am Main","municipality":{"key":"06413000","name":"Offenbach am Main, Stadt","type":"Kreisfreie_Stadt"},"district":{"key":"06413","name":"Offenbach am Main, Stadt","type":"Kreisfreie_Stadt"},"federalState":{"key":"06","name":"Hessen"}},{"name":"Im Frankfurter Grund","postalCode":"63073","locality":"Offenbach am Main","municipality":{"key":"06413000","name":"Offenbach am Main, Stadt","type":"Kreisfreie_Stadt"},"district":{"key":"06413","name":"Offenbach am Main, Stadt","type":"Kreisfreie_Stadt"},"federalState":{"key":"06","name":"Hessen"}},{"name":"Im Gartenfeld","postalCode":"63075","locality":"Offenbach am Main","municipality":{"key":"06413000","name":"Offenbach am Main, Stadt","type":"Kreisfreie_Stadt"},"district":{"key":"06413","name":"Offenbach am Main, Stadt","type":"Kreisfreie_Stadt"},"federalState":{"key":"06","name":"Hessen"}},{"name":"Im Gartenrain","postalCode":"63075","locality":"Offenbach am Main","municipality":{"key":"06413000","name":"Offenbach am Main, Stadt","type":"Kreisfreie_Stadt"},"district":{"key":"06413","name":"Offenbach am Main, Stadt","type":"Kreisfreie_Stadt"},"federalState":{"key":"06","name":"Hessen"}},{"name":"Im Großen Ahl","postalCode":"63075","locality":"Offenbach am Main","municipality":{"key":"06413000","name":"Offenbach am Main, Stadt","type":"Kreisfreie_Stadt"},"district":{"key":"06413","name":"Offenbach am Main, Stadt","type":"Kreisfreie_Stadt"},"federalState":{"key":"06","name":"Hessen"}},{"name":"Im Grünen Grund","postalCode":"63075","locality":"Offenbach am Main","municipality":{"key":"06413000","name":"Offenbach am Main, Stadt","type":"Kreisfreie_Stadt"},"district":{"key":"06413","name":"Offenbach am Main, Stadt","type":"Kreisfreie_Stadt"},"federalState":{"key":"06","name":"Hessen"}},{"name":"Im Hain","postalCode":"63075","locality":"Offenbach am Main","municipality":{"key":"06413000","name":"Offenbach am Main, Stadt","type":"Kreisfreie_Stadt"},"district":{"key":"06413","name":"Offenbach am Main, Stadt","type":"Kreisfreie_Stadt"},"federalState":{"key":"06","name":"Hessen"}},{"name":"Im Mittelfeld","postalCode":"63075","locality":"Offenbach am Main","municipality":{"key":"06413000","name":"Offenbach am Main, Stadt","type":"Kreisfreie_Stadt"},"district":{"key":"06413","name":"Offenbach am Main, Stadt","type":"Kreisfreie_Stadt"},"federalState":{"key":"06","name":"Hessen"}},{"name":"In den Bruchgärten","postalCode":"63073","locality":"Offenbach am Main","municipality":{"key":"06413000","name":"Offenbach am Main, Stadt","type":"Kreisfreie_Stadt"},"district":{"key":"06413","name":"Offenbach am Main, Stadt","type":"Kreisfreie_Stadt"},"federalState":{"key":"06","name":"Hessen"}},{"name":"In den Lindengärten","postalCode":"63073","locality":"Offenbach am Main","municipality":{"key":"06413000","name":"Offenbach am Main, Stadt","type":"Kreisfreie_Stadt"},"district":{"key":"06413","name":"Offenbach am Main, Stadt","type":"Kreisfreie_Stadt"},"federalState":{"key":"06","name":"Hessen"}},{"name":"In den Obstgärten","postalCode":"63075","locality":"Offenbach am Main","municipality":{"key":"06413000","name":"Offenbach am Main, Stadt","type":"Kreisfreie_Stadt"},"district":{"key":"06413","name":"Offenbach am Main, Stadt","type":"Kreisfreie_Stadt"},"federalState":{"key":"06","name":"Hessen"}},{"name":"In den Rosengärten","postalCode":"63075","locality":"Offenbach am Main","municipality":{"key":"06413000","name":"Offenbach am Main, Stadt","type":"Kreisfreie_Stadt"},"district":{"key":"06413","name":"Offenbach am Main, Stadt","type":"Kreisfreie_Stadt"},"federalState":{"key":"06","name":"Hessen"}},{"name":"In den Tannen","postalCode":"63075","locality":"Offenbach am Main","municipality":{"key":"06413000","name":"Offenbach am Main, Stadt","type":"Kreisfreie_Stadt"},"district":{"key":"06413","name":"Offenbach am Main, Stadt","type":"Kreisfreie_Stadt"},"federalState":{"key":"06","name":"Hessen"}},{"name":"In den Weingärten","postalCode":"63075","locality":"Offenbach am Main","municipality":{"key":"06413000","name":"Offenbach am Main, Stadt","type":"Kreisfreie_Stadt"},"district":{"key":"06413","name":"Offenbach am Main, Stadt","type":"Kreisfreie_Stadt"},"federalState":{"key":"06","name":"Hessen"}},{"name":"In der Tränk","postalCode":"63075","locality":"Offenbach am Main","municipality":{"key":"06413000","name":"Offenbach am Main, Stadt","type":"Kreisfreie_Stadt"},"district":{"key":"06413","name":"Offenbach am Main, Stadt","type":"Kreisfreie_Stadt"},"federalState":{"key":"06","name":"Hessen"}},{"name":"Innsbrucker Str.","postalCode":"63073","locality":"Offenbach am Main","municipality":{"key":"06413000","name":"Offenbach am Main, Stadt","type":"Kreisfreie_Stadt"},"district":{"key":"06413","name":"Offenbach am Main, Stadt","type":"Kreisfreie_Stadt"},"federalState":{"key":"06","name":"Hessen"}},{"name":"Isenburger Str.","postalCode":"63069","locality":"Offenbach am Main","municipality":{"key":"06413000","name":"Offenbach am Main, Stadt","type":"Kreisfreie_Stadt"},"district":{"key":"06413","name":"Offenbach am Main, Stadt","type":"Kreisfreie_Stadt"},"federalState":{"key":"06","name":"Hessen"}},{"name":"Isenburgring","postalCode":"63069","locality":"Offenbach am Main","municipality":{"key":"06413000","name":"Offenbach am Main, Stadt","type":"Kreisfreie_Stadt"},"district":{"key":"06413","name":"Offenbach am Main, Stadt","type":"Kreisfreie_Stadt"},"federalState":{"key":"06","name":"Hessen"}},{"name":"Jacques-Offenbach-Str.","postalCode":"63069","locality":"Offenbach am Main","municipality":{"key":"06413000","name":"Offenbach am Main, Stadt","type":"Kreisfreie_Stadt"},"district":{"key":"06413","name":"Offenbach am Main, Stadt","type":"Kreisfreie_Stadt"},"federalState":{"key":"06","name":"Hessen"}},{"name":"Jägerweg","postalCode":"63069","locality":"Offenbach am Main","municipality":{"key":"06413000","name":"Offenbach am Main, Stadt","type":"Kreisfreie_Stadt"},"district":{"key":"06413","name":"Offenbach am Main, Stadt","type":"Kreisfreie_Stadt"},"federalState":{"key":"06","name":"Hessen"}},{"name":"Jahnstr.","postalCode":"63075","locality":"Offenbach am Main","municipality":{"key":"06413000","name":"Offenbach am Main, Stadt","type":"Kreisfreie_Stadt"},"district":{"key":"06413","name":"Offenbach am Main, Stadt","type":"Kreisfreie_Stadt"},"federalState":{"key":"06","name":"Hessen"}},{"name":"Jakob-Mönch-Str.","postalCode":"63073","locality":"Offenbach am Main","municipality":{"key":"06413000","name":"Offenbach am Main, Stadt","type":"Kreisfreie_Stadt"},"district":{"key":"06413","name":"Offenbach am Main, Stadt","type":"Kreisfreie_Stadt"},"federalState":{"key":"06","name":"Hessen"}},{"name":"Jean-Weipert-Str.","postalCode":"63065","locality":"Offenbach am Main","municipality":{"key":"06413000","name":"Offenbach am Main, Stadt","type":"Kreisfreie_Stadt"},"district":{"key":"06413","name":"Offenbach am Main, Stadt","type":"Kreisfreie_Stadt"},"federalState":{"key":"06","name":"Hessen"}},{"name":"Jean-Weipert-Str.","postalCode":"63067","locality":"Offenbach am Main","municipality":{"key":"06413000","name":"Offenbach am Main, Stadt","type":"Kreisfreie_Stadt"},"district":{"key":"06413","name":"Offenbach am Main, Stadt","type":"Kreisfreie_Stadt"},"federalState":{"key":"06","name":"Hessen"}},{"name":"J.-F.-Kennedy-Promenade","postalCode":"63069","locality":"Offenbach am Main","municipality":{"key":"06413000","name":"Offenbach am Main, Stadt","type":"Kreisfreie_Stadt"},"district":{"key":"06413","name":"Offenbach am Main, Stadt","type":"Kreisfreie_Stadt"},"federalState":{"key":"06","name":"Hessen"}},{"name":"Johannes-Morhart-Str.","postalCode":"63067","locality":"Offenbach am Main","municipality":{"key":"06413000","name":"Offenbach am Main, Stadt","type":"Kreisfreie_Stadt"},"district":{"key":"06413","name":"Offenbach am Main, Stadt","type":"Kreisfreie_Stadt"},"federalState":{"key":"06","name":"Hessen"}},{"name":"Jossaweg","postalCode":"63071","locality":"Offenbach am Main","municipality":{"key":"06413000","name":"Offenbach am Main, Stadt","type":"Kreisfreie_Stadt"},"district":{"key":"06413","name":"Offenbach am Main, Stadt","type":"Kreisfreie_Stadt"},"federalState":{"key":"06","name":"Hessen"}},{"name":"Judenbuschschneise","postalCode":"63069","locality":"Offenbach am Main","municipality":{"key":"06413000","name":"Offenbach am Main, Stadt","type":"Kreisfreie_Stadt"},"district":{"key":"06413","name":"Offenbach am Main, Stadt","type":"Kreisfreie_Stadt"},"federalState":{"key":"06","name":"Hessen"}},{"name":"Julie-Heraeus-Str.","postalCode":"63073","locality":"Offenbach am Main","municipality":{"key":"06413000","name":"Offenbach am Main, Stadt","type":"Kreisfreie_Stadt"},"district":{"key":"06413","name":"Offenbach am Main, Stadt","type":"Kreisfreie_Stadt"},"federalState":{"key":"06","name":"Hessen"}},{"name":"Julius-Leber-Str.","postalCode":"63071","locality":"Offenbach am Main","municipality":{"key":"06413000","name":"Offenbach am Main, Stadt","type":"Kreisfreie_Stadt"},"district":{"key":"06413","name":"Offenbach am Main, Stadt","type":"Kreisfreie_Stadt"},"federalState":{"key":"06","name":"Hessen"}},{"name":"Kahlweg","postalCode":"63071","locality":"Offenbach am Main","municipality":{"key":"06413000","name":"Offenbach am Main, Stadt","type":"Kreisfreie_Stadt"},"district":{"key":"06413","name":"Offenbach am Main, Stadt","type":"Kreisfreie_Stadt"},"federalState":{"key":"06","name":"Hessen"}},{"name":"Kaiserleipromenade","postalCode":"63067","locality":"Offenbach am Main","municipality":{"key":"06413000","name":"Offenbach am Main, Stadt","type":"Kreisfreie_Stadt"},"district":{"key":"06413","name":"Offenbach am Main, Stadt","type":"Kreisfreie_Stadt"},"federalState":{"key":"06","name":"Hessen"}},{"name":"Kaiserleistr.","postalCode":"63067","locality":"Offenbach am Main","municipality":{"key":"06413000","name":"Offenbach am Main, Stadt","type":"Kreisfreie_Stadt"},"district":{"key":"06413","name":"Offenbach am Main, Stadt","type":"Kreisfreie_Stadt"},"federalState":{"key":"06","name":"Hessen"}},{"name":"Kaiserstr.","postalCode":"63065","locality":"Offenbach am Main","municipality":{"key":"06413000","name":"Offenbach am Main, Stadt","type":"Kreisfreie_Stadt"},"district":{"key":"06413","name":"Offenbach am Main, Stadt","type":"Kreisfreie_Stadt"},"federalState":{"key":"06","name":"Hessen"}},{"name":"Kalte-Klinge-Schneise","postalCode":"63069","locality":"Offenbach am Main","municipality":{"key":"06413000","name":"Offenbach am Main, Stadt","type":"Kreisfreie_Stadt"},"district":{"key":"06413","name":"Offenbach am Main, Stadt","type":"Kreisfreie_Stadt"},"federalState":{"key":"06","name":"Hessen"}},{"name":"Kantstr.","postalCode":"63067","locality":"Offenbach am Main","municipality":{"key":"06413000","name":"Offenbach am Main, Stadt","type":"Kreisfreie_Stadt"},"district":{"key":"06413","name":"Offenbach am Main, Stadt","type":"Kreisfreie_Stadt"},"federalState":{"key":"06","name":"Hessen"}},{"name":"Karl-Carstens-Platz","postalCode":"63067","locality":"Offenbach am Main","municipality":{"key":"06413000","name":"Offenbach am Main, Stadt","type":"Kreisfreie_Stadt"},"district":{"key":"06413","name":"Offenbach am Main, Stadt","type":"Kreisfreie_Stadt"},"federalState":{"key":"06","name":"Hessen"}},{"name":"Karl-Ferdinand-Becker-Weg","postalCode":"63069","locality":"Offenbach am Main","municipality":{"key":"06413000","name":"Offenbach am Main, Stadt","type":"Kreisfreie_Stadt"},"district":{"key":"06413","name":"Offenbach am Main, Stadt","type":"Kreisfreie_Stadt"},"federalState":{"key":"06","name":"Hessen"}},{"name":"Karl-Herdt-Weg","postalCode":"63075","locality":"Offenbach am Main","municipality":{"key":"06413000","name":"Offenbach am Main, Stadt","type":"Kreisfreie_Stadt"},"district":{"key":"06413","name":"Offenbach am Main, Stadt","type":"Kreisfreie_Stadt"},"federalState":{"key":"06","name":"Hessen"}},{"name":"Karl-Nahrgang-Weg","postalCode":"63075","locality":"Offenbach am Main","municipality":{"key":"06413000","name":"Offenbach am Main, Stadt","type":"Kreisfreie_Stadt"},"district":{"key":"06413","name":"Offenbach am Main, Stadt","type":"Kreisfreie_Stadt"},"federalState":{"key":"06","name":"Hessen"}},{"name":"Karlstr.","postalCode":"63065","locality":"Offenbach am Main","municipality":{"key":"06413000","name":"Offenbach am Main, Stadt","type":"Kreisfreie_Stadt"},"district":{"key":"06413","name":"Offenbach am Main, Stadt","type":"Kreisfreie_Stadt"},"federalState":{"key":"06","name":"Hessen"}},{"name":"Karlstr.","postalCode":"63071","locality":"Offenbach am Main","municipality":{"key":"06413000","name":"Offenbach am Main, Stadt","type":"Kreisfreie_Stadt"},"district":{"key":"06413","name":"Offenbach am Main, Stadt","type":"Kreisfreie_Stadt"},"federalState":{"key":"06","name":"Hessen"}},{"name":"Karolingerstr.","postalCode":"63075","locality":"Offenbach am Main","municipality":{"key":"06413000","name":"Offenbach am Main, Stadt","type":"Kreisfreie_Stadt"},"district":{"key":"06413","name":"Offenbach am Main, Stadt","type":"Kreisfreie_Stadt"},"federalState":{"key":"06","name":"Hessen"}},{"name":"Kasernenstr.","postalCode":"63065","locality":"Offenbach am Main","municipality":{"key":"06413000","name":"Offenbach am Main, Stadt","type":"Kreisfreie_Stadt"},"district":{"key":"06413","name":"Offenbach am Main, Stadt","type":"Kreisfreie_Stadt"},"federalState":{"key":"06","name":"Hessen"}},{"name":"Kastanienstr.","postalCode":"63075","locality":"Offenbach am Main","municipality":{"key":"06413000","name":"Offenbach am Main, Stadt","type":"Kreisfreie_Stadt"},"district":{"key":"06413","name":"Offenbach am Main, Stadt","type":"Kreisfreie_Stadt"},"federalState":{"key":"06","name":"Hessen"}},{"name":"Kaufunger-Wald-Weg","postalCode":"63069","locality":"Offenbach am Main","municipality":{"key":"06413000","name":"Offenbach am Main, Stadt","type":"Kreisfreie_Stadt"},"district":{"key":"06413","name":"Offenbach am Main, Stadt","type":"Kreisfreie_Stadt"},"federalState":{"key":"06","name":"Hessen"}},{"name":"Kékuléstr.","postalCode":"63075","locality":"Offenbach am Main","municipality":{"key":"06413000","name":"Offenbach am Main, Stadt","type":"Kreisfreie_Stadt"},"district":{"key":"06413","name":"Offenbach am Main, Stadt","type":"Kreisfreie_Stadt"},"federalState":{"key":"06","name":"Hessen"}},{"name":"Kettelerstr.","postalCode":"63075","locality":"Offenbach am Main","municipality":{"key":"06413000","name":"Offenbach am Main, Stadt","type":"Kreisfreie_Stadt"},"district":{"key":"06413","name":"Offenbach am Main, Stadt","type":"Kreisfreie_Stadt"},"federalState":{"key":"06","name":"Hessen"}},{"name":"Kiefern-Neuheeg-Schneise","postalCode":"63069","locality":"Offenbach am Main","municipality":{"key":"06413000","name":"Offenbach am Main, Stadt","type":"Kreisfreie_Stadt"},"district":{"key":"06413","name":"Offenbach am Main, Stadt","type":"Kreisfreie_Stadt"},"federalState":{"key":"06","name":"Hessen"}},{"name":"Kinzigweg","postalCode":"63071","locality":"Offenbach am Main","municipality":{"key":"06413000","name":"Offenbach am Main, Stadt","type":"Kreisfreie_Stadt"},"district":{"key":"06413","name":"Offenbach am Main, Stadt","type":"Kreisfreie_Stadt"},"federalState":{"key":"06","name":"Hessen"}},{"name":"Kirchenpfad","postalCode":"63069","locality":"Offenbach am Main","municipality":{"key":"06413000","name":"Offenbach am Main, Stadt","type":"Kreisfreie_Stadt"},"district":{"key":"06413","name":"Offenbach am Main, Stadt","type":"Kreisfreie_Stadt"},"federalState":{"key":"06","name":"Hessen"}},{"name":"Kirchgasse","postalCode":"63065","locality":"Offenbach am Main","municipality":{"key":"06413000","name":"Offenbach am Main, Stadt","type":"Kreisfreie_Stadt"},"district":{"key":"06413","name":"Offenbach am Main, Stadt","type":"Kreisfreie_Stadt"},"federalState":{"key":"06","name":"Hessen"}},{"name":"Kleewasem","postalCode":"63073","locality":"Offenbach am Main","municipality":{"key":"06413000","name":"Offenbach am Main, Stadt","type":"Kreisfreie_Stadt"},"district":{"key":"06413","name":"Offenbach am Main, Stadt","type":"Kreisfreie_Stadt"},"federalState":{"key":"06","name":"Hessen"}},{"name":"Kleine Bleiche","postalCode":"63065","locality":"Offenbach am Main","municipality":{"key":"06413000","name":"Offenbach am Main, Stadt","type":"Kreisfreie_Stadt"},"district":{"key":"06413","name":"Offenbach am Main, Stadt","type":"Kreisfreie_Stadt"},"federalState":{"key":"06","name":"Hessen"}},{"name":"Kleines Gäßchen","postalCode":"63075","locality":"Offenbach am Main","municipality":{"key":"06413000","name":"Offenbach am Main, Stadt","type":"Kreisfreie_Stadt"},"district":{"key":"06413","name":"Offenbach am Main, Stadt","type":"Kreisfreie_Stadt"},"federalState":{"key":"06","name":"Hessen"}},{"name":"Klingenstr.","postalCode":"63075","locality":"Offenbach am Main","municipality":{"key":"06413000","name":"Offenbach am Main, Stadt","type":"Kreisfreie_Stadt"},"district":{"key":"06413","name":"Offenbach am Main, Stadt","type":"Kreisfreie_Stadt"},"federalState":{"key":"06","name":"Hessen"}},{"name":"Klingsporstr.","postalCode":"63067","locality":"Offenbach am Main","municipality":{"key":"06413000","name":"Offenbach am Main, Stadt","type":"Kreisfreie_Stadt"},"district":{"key":"06413","name":"Offenbach am Main, Stadt","type":"Kreisfreie_Stadt"},"federalState":{"key":"06","name":"Hessen"}},{"name":"Klopstockstr.","postalCode":"63073","locality":"Offenbach am Main","municipality":{"key":"06413000","name":"Offenbach am Main, Stadt","type":"Kreisfreie_Stadt"},"district":{"key":"06413","name":"Offenbach am Main, Stadt","type":"Kreisfreie_Stadt"},"federalState":{"key":"06","name":"Hessen"}},{"name":"Konrad-Adenauer-Str.","postalCode":"63073","locality":"Offenbach am Main","municipality":{"key":"06413000","name":"Offenbach am Main, Stadt","type":"Kreisfreie_Stadt"},"district":{"key":"06413","name":"Offenbach am Main, Stadt","type":"Kreisfreie_Stadt"},"federalState":{"key":"06","name":"Hessen"}},{"name":"Kopernikusstr.","postalCode":"63071","locality":"Offenbach am Main","municipality":{"key":"06413000","name":"Offenbach am Main, Stadt","type":"Kreisfreie_Stadt"},"district":{"key":"06413","name":"Offenbach am Main, Stadt","type":"Kreisfreie_Stadt"},"federalState":{"key":"06","name":"Hessen"}},{"name":"Körnerstr.","postalCode":"63067","locality":"Offenbach am Main","municipality":{"key":"06413000","name":"Offenbach am Main, Stadt","type":"Kreisfreie_Stadt"},"district":{"key":"06413","name":"Offenbach am Main, Stadt","type":"Kreisfreie_Stadt"},"federalState":{"key":"06","name":"Hessen"}},{"name":"Kornkammer","postalCode":"63075","locality":"Offenbach am Main","municipality":{"key":"06413000","name":"Offenbach am Main, Stadt","type":"Kreisfreie_Stadt"},"district":{"key":"06413","name":"Offenbach am Main, Stadt","type":"Kreisfreie_Stadt"},"federalState":{"key":"06","name":"Hessen"}},{"name":"Krafftstr.","postalCode":"63065","locality":"Offenbach am Main","municipality":{"key":"06413000","name":"Offenbach am Main, Stadt","type":"Kreisfreie_Stadt"},"district":{"key":"06413","name":"Offenbach am Main, Stadt","type":"Kreisfreie_Stadt"},"federalState":{"key":"06","name":"Hessen"}},{"name":"Kreuzfeldweg","postalCode":"63069","locality":"Offenbach am Main","municipality":{"key":"06413000","name":"Offenbach am Main, Stadt","type":"Kreisfreie_Stadt"},"district":{"key":"06413","name":"Offenbach am Main, Stadt","type":"Kreisfreie_Stadt"},"federalState":{"key":"06","name":"Hessen"}},{"name":"Kreuzstr.","postalCode":"63075","locality":"Offenbach am Main","municipality":{"key":"06413000","name":"Offenbach am Main, Stadt","type":"Kreisfreie_Stadt"},"district":{"key":"06413","name":"Offenbach am Main, Stadt","type":"Kreisfreie_Stadt"},"federalState":{"key":"06","name":"Hessen"}},{"name":"Krimmerstr.","postalCode":"63067","locality":"Offenbach am Main","municipality":{"key":"06413000","name":"Offenbach am Main, Stadt","type":"Kreisfreie_Stadt"},"district":{"key":"06413","name":"Offenbach am Main, Stadt","type":"Kreisfreie_Stadt"},"federalState":{"key":"06","name":"Hessen"}},{"name":"Krokusweg","postalCode":"63075","locality":"Offenbach am Main","municipality":{"key":"06413000","name":"Offenbach am Main, Stadt","type":"Kreisfreie_Stadt"},"district":{"key":"06413","name":"Offenbach am Main, Stadt","type":"Kreisfreie_Stadt"},"federalState":{"key":"06","name":"Hessen"}},{"name":"Krotzenburger Str.","postalCode":"63073","locality":"Offenbach am Main","municipality":{"key":"06413000","name":"Offenbach am Main, Stadt","type":"Kreisfreie_Stadt"},"district":{"key":"06413","name":"Offenbach am Main, Stadt","type":"Kreisfreie_Stadt"},"federalState":{"key":"06","name":"Hessen"}},{"name":"Kühruhschneise","postalCode":"63069","locality":"Offenbach am Main","municipality":{"key":"06413000","name":"Offenbach am Main, Stadt","type":"Kreisfreie_Stadt"},"district":{"key":"06413","name":"Offenbach am Main, Stadt","type":"Kreisfreie_Stadt"},"federalState":{"key":"06","name":"Hessen"}},{"name":"Kurfürstenstr.","postalCode":"63075","locality":"Offenbach am Main","municipality":{"key":"06413000","name":"Offenbach am Main, Stadt","type":"Kreisfreie_Stadt"},"district":{"key":"06413","name":"Offenbach am Main, Stadt","type":"Kreisfreie_Stadt"},"federalState":{"key":"06","name":"Hessen"}},{"name":"Kurhessenplatz","postalCode":"63075","locality":"Offenbach am Main","municipality":{"key":"06413000","name":"Offenbach am Main, Stadt","type":"Kreisfreie_Stadt"},"district":{"key":"06413","name":"Offenbach am Main, Stadt","type":"Kreisfreie_Stadt"},"federalState":{"key":"06","name":"Hessen"}},{"name":"Kurhessenstr.","postalCode":"63075","locality":"Offenbach am Main","municipality":{"key":"06413000","name":"Offenbach am Main, Stadt","type":"Kreisfreie_Stadt"},"district":{"key":"06413","name":"Offenbach am Main, Stadt","type":"Kreisfreie_Stadt"},"federalState":{"key":"06","name":"Hessen"}},{"name":"Kurt-Schumacher-Str.","postalCode":"63073","locality":"Offenbach am Main","municipality":{"key":"06413000","name":"Offenbach am Main, Stadt","type":"Kreisfreie_Stadt"},"district":{"key":"06413","name":"Offenbach am Main, Stadt","type":"Kreisfreie_Stadt"},"federalState":{"key":"06","name":"Hessen"}},{"name":"Kurt-Tucholsky-Str.","postalCode":"63069","locality":"Offenbach am Main","municipality":{"key":"06413000","name":"Offenbach am Main, Stadt","type":"Kreisfreie_Stadt"},"district":{"key":"06413","name":"Offenbach am Main, Stadt","type":"Kreisfreie_Stadt"},"federalState":{"key":"06","name":"Hessen"}},{"name":"Kurze Str.","postalCode":"63065","locality":"Offenbach am Main","municipality":{"key":"06413000","name":"Offenbach am Main, Stadt","type":"Kreisfreie_Stadt"},"district":{"key":"06413","name":"Offenbach am Main, Stadt","type":"Kreisfreie_Stadt"},"federalState":{"key":"06","name":"Hessen"}},{"name":"Lachwiesen","postalCode":"63075","locality":"Offenbach am Main","municipality":{"key":"06413000","name":"Offenbach am Main, Stadt","type":"Kreisfreie_Stadt"},"district":{"key":"06413","name":"Offenbach am Main, Stadt","type":"Kreisfreie_Stadt"},"federalState":{"key":"06","name":"Hessen"}},{"name":"Lahnstr.","postalCode":"63073","locality":"Offenbach am Main","municipality":{"key":"06413000","name":"Offenbach am Main, Stadt","type":"Kreisfreie_Stadt"},"district":{"key":"06413","name":"Offenbach am Main, Stadt","type":"Kreisfreie_Stadt"},"federalState":{"key":"06","name":"Hessen"}},{"name":"Lämmerspieler Weg","postalCode":"63071","locality":"Offenbach am Main","municipality":{"key":"06413000","name":"Offenbach am Main, Stadt","type":"Kreisfreie_Stadt"},"district":{"key":"06413","name":"Offenbach am Main, Stadt","type":"Kreisfreie_Stadt"},"federalState":{"key":"06","name":"Hessen"}},{"name":"Lämmerspieler Weg","postalCode":"63075","locality":"Offenbach am Main","municipality":{"key":"06413000","name":"Offenbach am Main, Stadt","type":"Kreisfreie_Stadt"},"district":{"key":"06413","name":"Offenbach am Main, Stadt","type":"Kreisfreie_Stadt"},"federalState":{"key":"06","name":"Hessen"}},{"name":"Lammertstr.","postalCode":"63075","locality":"Offenbach am Main","municipality":{"key":"06413000","name":"Offenbach am Main, Stadt","type":"Kreisfreie_Stadt"},"district":{"key":"06413","name":"Offenbach am Main, Stadt","type":"Kreisfreie_Stadt"},"federalState":{"key":"06","name":"Hessen"}},{"name":"Landgrafenring","postalCode":"63071","locality":"Offenbach am Main","municipality":{"key":"06413000","name":"Offenbach am Main, Stadt","type":"Kreisfreie_Stadt"},"district":{"key":"06413","name":"Offenbach am Main, Stadt","type":"Kreisfreie_Stadt"},"federalState":{"key":"06","name":"Hessen"}},{"name":"Landgrafenstr.","postalCode":"63071","locality":"Offenbach am Main","municipality":{"key":"06413000","name":"Offenbach am Main, Stadt","type":"Kreisfreie_Stadt"},"district":{"key":"06413","name":"Offenbach am Main, Stadt","type":"Kreisfreie_Stadt"},"federalState":{"key":"06","name":"Hessen"}},{"name":"Landgraf-Friedrich-Str.","postalCode":"63075","locality":"Offenbach am Main","municipality":{"key":"06413000","name":"Offenbach am Main, Stadt","type":"Kreisfreie_Stadt"},"district":{"key":"06413","name":"Offenbach am Main, Stadt","type":"Kreisfreie_Stadt"},"federalState":{"key":"06","name":"Hessen"}},{"name":"Langener Str.","postalCode":"63073","locality":"Offenbach am Main","municipality":{"key":"06413000","name":"Offenbach am Main, Stadt","type":"Kreisfreie_Stadt"},"district":{"key":"06413","name":"Offenbach am Main, Stadt","type":"Kreisfreie_Stadt"},"federalState":{"key":"06","name":"Hessen"}},{"name":"Langschneise","postalCode":"63069","locality":"Offenbach am Main","municipality":{"key":"06413000","name":"Offenbach am Main, Stadt","type":"Kreisfreie_Stadt"},"district":{"key":"06413","name":"Offenbach am Main, Stadt","type":"Kreisfreie_Stadt"},"federalState":{"key":"06","name":"Hessen"}},{"name":"Langschneise","postalCode":"63071","locality":"Offenbach am Main","municipality":{"key":"06413000","name":"Offenbach am Main, Stadt","type":"Kreisfreie_Stadt"},"district":{"key":"06413","name":"Offenbach am Main, Stadt","type":"Kreisfreie_Stadt"},"federalState":{"key":"06","name":"Hessen"}},{"name":"Langstr.","postalCode":"63075","locality":"Offenbach am Main","municipality":{"key":"06413000","name":"Offenbach am Main, Stadt","type":"Kreisfreie_Stadt"},"district":{"key":"06413","name":"Offenbach am Main, Stadt","type":"Kreisfreie_Stadt"},"federalState":{"key":"06","name":"Hessen"}},{"name":"Lärchenpfad","postalCode":"63075","locality":"Offenbach am Main","municipality":{"key":"06413000","name":"Offenbach am Main, Stadt","type":"Kreisfreie_Stadt"},"district":{"key":"06413","name":"Offenbach am Main, Stadt","type":"Kreisfreie_Stadt"},"federalState":{"key":"06","name":"Hessen"}},{"name":"Lärchenschneise","postalCode":"63069","locality":"Offenbach am Main","municipality":{"key":"06413000","name":"Offenbach am Main, Stadt","type":"Kreisfreie_Stadt"},"district":{"key":"06413","name":"Offenbach am Main, Stadt","type":"Kreisfreie_Stadt"},"federalState":{"key":"06","name":"Hessen"}},{"name":"Larochestr.","postalCode":"63075","locality":"Offenbach am Main","municipality":{"key":"06413000","name":"Offenbach am Main, Stadt","type":"Kreisfreie_Stadt"},"district":{"key":"06413","name":"Offenbach am Main, Stadt","type":"Kreisfreie_Stadt"},"federalState":{"key":"06","name":"Hessen"}},{"name":"Laskastr.","postalCode":"63075","locality":"Offenbach am Main","municipality":{"key":"06413000","name":"Offenbach am Main, Stadt","type":"Kreisfreie_Stadt"},"district":{"key":"06413","name":"Offenbach am Main, Stadt","type":"Kreisfreie_Stadt"},"federalState":{"key":"06","name":"Hessen"}},{"name":"Lausitzer Str.","postalCode":"63075","locality":"Offenbach am Main","municipality":{"key":"06413000","name":"Offenbach am Main, Stadt","type":"Kreisfreie_Stadt"},"district":{"key":"06413","name":"Offenbach am Main, Stadt","type":"Kreisfreie_Stadt"},"federalState":{"key":"06","name":"Hessen"}},{"name":"Lauterbornweg","postalCode":"63069","locality":"Offenbach am Main","municipality":{"key":"06413000","name":"Offenbach am Main, Stadt","type":"Kreisfreie_Stadt"},"district":{"key":"06413","name":"Offenbach am Main, Stadt","type":"Kreisfreie_Stadt"},"federalState":{"key":"06","name":"Hessen"}},{"name":"Lautzenhardtweg","postalCode":"63069","locality":"Offenbach am Main","municipality":{"key":"06413000","name":"Offenbach am Main, Stadt","type":"Kreisfreie_Stadt"},"district":{"key":"06413","name":"Offenbach am Main, Stadt","type":"Kreisfreie_Stadt"},"federalState":{"key":"06","name":"Hessen"}},{"name":"Lehenstr.","postalCode":"63069","locality":"Offenbach am Main","municipality":{"key":"06413000","name":"Offenbach am Main, Stadt","type":"Kreisfreie_Stadt"},"district":{"key":"06413","name":"Offenbach am Main, Stadt","type":"Kreisfreie_Stadt"},"federalState":{"key":"06","name":"Hessen"}},{"name":"Lehrstr.","postalCode":"63075","locality":"Offenbach am Main","municipality":{"key":"06413000","name":"Offenbach am Main, Stadt","type":"Kreisfreie_Stadt"},"district":{"key":"06413","name":"Offenbach am Main, Stadt","type":"Kreisfreie_Stadt"},"federalState":{"key":"06","name":"Hessen"}},{"name":"Leibnizstr.","postalCode":"63071","locality":"Offenbach am Main","municipality":{"key":"06413000","name":"Offenbach am Main, Stadt","type":"Kreisfreie_Stadt"},"district":{"key":"06413","name":"Offenbach am Main, Stadt","type":"Kreisfreie_Stadt"},"federalState":{"key":"06","name":"Hessen"}},{"name":"Leimenkautschneise","postalCode":"63071","locality":"Offenbach am Main","municipality":{"key":"06413000","name":"Offenbach am Main, Stadt","type":"Kreisfreie_Stadt"},"district":{"key":"06413","name":"Offenbach am Main, Stadt","type":"Kreisfreie_Stadt"},"federalState":{"key":"06","name":"Hessen"}},{"name":"Leimenkautschneise","postalCode":"63073","locality":"Offenbach am Main","municipality":{"key":"06413000","name":"Offenbach am Main, Stadt","type":"Kreisfreie_Stadt"},"district":{"key":"06413","name":"Offenbach am Main, Stadt","type":"Kreisfreie_Stadt"},"federalState":{"key":"06","name":"Hessen"}},{"name":"Lena-Heim-Str.","postalCode":"63075","locality":"Offenbach am Main","municipality":{"key":"06413000","name":"Offenbach am Main, Stadt","type":"Kreisfreie_Stadt"},"district":{"key":"06413","name":"Offenbach am Main, Stadt","type":"Kreisfreie_Stadt"},"federalState":{"key":"06","name":"Hessen"}},{"name":"Leopold-Bode-Str.","postalCode":"63071","locality":"Offenbach am Main","municipality":{"key":"06413000","name":"Offenbach am Main, Stadt","type":"Kreisfreie_Stadt"},"district":{"key":"06413","name":"Offenbach am Main, Stadt","type":"Kreisfreie_Stadt"},"federalState":{"key":"06","name":"Hessen"}},{"name":"Lessingstr.","postalCode":"63073","locality":"Offenbach am Main","municipality":{"key":"06413000","name":"Offenbach am Main, Stadt","type":"Kreisfreie_Stadt"},"district":{"key":"06413","name":"Offenbach am Main, Stadt","type":"Kreisfreie_Stadt"},"federalState":{"key":"06","name":"Hessen"}},{"name":"Lettigkautschneise","postalCode":"63069","locality":"Offenbach am Main","municipality":{"key":"06413000","name":"Offenbach am Main, Stadt","type":"Kreisfreie_Stadt"},"district":{"key":"06413","name":"Offenbach am Main, Stadt","type":"Kreisfreie_Stadt"},"federalState":{"key":"06","name":"Hessen"}},{"name":"Lichtenplattenweg","postalCode":"63071","locality":"Offenbach am Main","municipality":{"key":"06413000","name":"Offenbach am Main, Stadt","type":"Kreisfreie_Stadt"},"district":{"key":"06413","name":"Offenbach am Main, Stadt","type":"Kreisfreie_Stadt"},"federalState":{"key":"06","name":"Hessen"}},{"name":"Liebigstr.","postalCode":"63069","locality":"Offenbach am Main","municipality":{"key":"06413000","name":"Offenbach am Main, Stadt","type":"Kreisfreie_Stadt"},"district":{"key":"06413","name":"Offenbach am Main, Stadt","type":"Kreisfreie_Stadt"},"federalState":{"key":"06","name":"Hessen"}},{"name":"Lilienthalstr.","postalCode":"63073","locality":"Offenbach am Main","municipality":{"key":"06413000","name":"Offenbach am Main, Stadt","type":"Kreisfreie_Stadt"},"district":{"key":"06413","name":"Offenbach am Main, Stadt","type":"Kreisfreie_Stadt"},"federalState":{"key":"06","name":"Hessen"}},{"name":"Lili-Park","postalCode":"63065","locality":"Offenbach am Main","municipality":{"key":"06413000","name":"Offenbach am Main, Stadt","type":"Kreisfreie_Stadt"},"district":{"key":"06413","name":"Offenbach am Main, Stadt","type":"Kreisfreie_Stadt"},"federalState":{"key":"06","name":"Hessen"}},{"name":"Lilistr.","postalCode":"63067","locality":"Offenbach am Main","municipality":{"key":"06413000","name":"Offenbach am Main, Stadt","type":"Kreisfreie_Stadt"},"district":{"key":"06413","name":"Offenbach am Main, Stadt","type":"Kreisfreie_Stadt"},"federalState":{"key":"06","name":"Hessen"}},{"name":"Limburger Weg","postalCode":"63075","locality":"Offenbach am Main","municipality":{"key":"06413000","name":"Offenbach am Main, Stadt","type":"Kreisfreie_Stadt"},"district":{"key":"06413","name":"Offenbach am Main, Stadt","type":"Kreisfreie_Stadt"},"federalState":{"key":"06","name":"Hessen"}},{"name":"Lindenstr.","postalCode":"63071","locality":"Offenbach am Main","municipality":{"key":"06413000","name":"Offenbach am Main, Stadt","type":"Kreisfreie_Stadt"},"district":{"key":"06413","name":"Offenbach am Main, Stadt","type":"Kreisfreie_Stadt"},"federalState":{"key":"06","name":"Hessen"}},{"name":"Linsenberg","postalCode":"63065","locality":"Offenbach am Main","municipality":{"key":"06413000","name":"Offenbach am Main, Stadt","type":"Kreisfreie_Stadt"},"district":{"key":"06413","name":"Offenbach am Main, Stadt","type":"Kreisfreie_Stadt"},"federalState":{"key":"06","name":"Hessen"}},{"name":"Linzer Str.","postalCode":"63073","locality":"Offenbach am Main","municipality":{"key":"06413000","name":"Offenbach am Main, Stadt","type":"Kreisfreie_Stadt"},"district":{"key":"06413","name":"Offenbach am Main, Stadt","type":"Kreisfreie_Stadt"},"federalState":{"key":"06","name":"Hessen"}},{"name":"Lohrweg","postalCode":"63071","locality":"Offenbach am Main","municipality":{"key":"06413000","name":"Offenbach am Main, Stadt","type":"Kreisfreie_Stadt"},"district":{"key":"06413","name":"Offenbach am Main, Stadt","type":"Kreisfreie_Stadt"},"federalState":{"key":"06","name":"Hessen"}},{"name":"Lohweg","postalCode":"63075","locality":"Offenbach am Main","municipality":{"key":"06413000","name":"Offenbach am Main, Stadt","type":"Kreisfreie_Stadt"},"district":{"key":"06413","name":"Offenbach am Main, Stadt","type":"Kreisfreie_Stadt"},"federalState":{"key":"06","name":"Hessen"}},{"name":"Lortzingstr.","postalCode":"63069","locality":"Offenbach am Main","municipality":{"key":"06413000","name":"Offenbach am Main, Stadt","type":"Kreisfreie_Stadt"},"district":{"key":"06413","name":"Offenbach am Main, Stadt","type":"Kreisfreie_Stadt"},"federalState":{"key":"06","name":"Hessen"}},{"name":"Löwenstr.","postalCode":"63067","locality":"Offenbach am Main","municipality":{"key":"06413000","name":"Offenbach am Main, Stadt","type":"Kreisfreie_Stadt"},"district":{"key":"06413","name":"Offenbach am Main, Stadt","type":"Kreisfreie_Stadt"},"federalState":{"key":"06","name":"Hessen"}},{"name":"Lübecker Str.","postalCode":"63073","locality":"Offenbach am Main","municipality":{"key":"06413000","name":"Offenbach am Main, Stadt","type":"Kreisfreie_Stadt"},"district":{"key":"06413","name":"Offenbach am Main, Stadt","type":"Kreisfreie_Stadt"},"federalState":{"key":"06","name":"Hessen"}},{"name":"Ludo-Mayer-Str.","postalCode":"63065","locality":"Offenbach am Main","municipality":{"key":"06413000","name":"Offenbach am Main, Stadt","type":"Kreisfreie_Stadt"},"district":{"key":"06413","name":"Offenbach am Main, Stadt","type":"Kreisfreie_Stadt"},"federalState":{"key":"06","name":"Hessen"}},{"name":"Ludwigstr.","postalCode":"63067","locality":"Offenbach am Main","municipality":{"key":"06413000","name":"Offenbach am Main, Stadt","type":"Kreisfreie_Stadt"},"district":{"key":"06413","name":"Offenbach am Main, Stadt","type":"Kreisfreie_Stadt"},"federalState":{"key":"06","name":"Hessen"}},{"name":"Luisenstr.","postalCode":"63067","locality":"Offenbach am Main","municipality":{"key":"06413000","name":"Offenbach am Main, Stadt","type":"Kreisfreie_Stadt"},"district":{"key":"06413","name":"Offenbach am Main, Stadt","type":"Kreisfreie_Stadt"},"federalState":{"key":"06","name":"Hessen"}},{"name":"Lupinenweg","postalCode":"63075","locality":"Offenbach am Main","municipality":{"key":"06413000","name":"Offenbach am Main, Stadt","type":"Kreisfreie_Stadt"},"district":{"key":"06413","name":"Offenbach am Main, Stadt","type":"Kreisfreie_Stadt"},"federalState":{"key":"06","name":"Hessen"}},{"name":"Lützowstr.","postalCode":"63067","locality":"Offenbach am Main","municipality":{"key":"06413000","name":"Offenbach am Main, Stadt","type":"Kreisfreie_Stadt"},"district":{"key":"06413","name":"Offenbach am Main, Stadt","type":"Kreisfreie_Stadt"},"federalState":{"key":"06","name":"Hessen"}},{"name":"Maindammweg","postalCode":"63065","locality":"Offenbach am Main","municipality":{"key":"06413000","name":"Offenbach am Main, Stadt","type":"Kreisfreie_Stadt"},"district":{"key":"06413","name":"Offenbach am Main, Stadt","type":"Kreisfreie_Stadt"},"federalState":{"key":"06","name":"Hessen"}},{"name":"Mainkai","postalCode":"63067","locality":"Offenbach am Main","municipality":{"key":"06413000","name":"Offenbach am Main, Stadt","type":"Kreisfreie_Stadt"},"district":{"key":"06413","name":"Offenbach am Main, Stadt","type":"Kreisfreie_Stadt"},"federalState":{"key":"06","name":"Hessen"}},{"name":"Mainkurstr.","postalCode":"63075","locality":"Offenbach am Main","municipality":{"key":"06413000","name":"Offenbach am Main, Stadt","type":"Kreisfreie_Stadt"},"district":{"key":"06413","name":"Offenbach am Main, Stadt","type":"Kreisfreie_Stadt"},"federalState":{"key":"06","name":"Hessen"}},{"name":"Mainländer Str.","postalCode":"63069","locality":"Offenbach am Main","municipality":{"key":"06413000","name":"Offenbach am Main, Stadt","type":"Kreisfreie_Stadt"},"district":{"key":"06413","name":"Offenbach am Main, Stadt","type":"Kreisfreie_Stadt"},"federalState":{"key":"06","name":"Hessen"}},{"name":"Mainstr.","postalCode":"63065","locality":"Offenbach am Main","municipality":{"key":"06413000","name":"Offenbach am Main, Stadt","type":"Kreisfreie_Stadt"},"district":{"key":"06413","name":"Offenbach am Main, Stadt","type":"Kreisfreie_Stadt"},"federalState":{"key":"06","name":"Hessen"}},{"name":"Mainstr.","postalCode":"63075","locality":"Offenbach am Main","municipality":{"key":"06413000","name":"Offenbach am Main, Stadt","type":"Kreisfreie_Stadt"},"district":{"key":"06413","name":"Offenbach am Main, Stadt","type":"Kreisfreie_Stadt"},"federalState":{"key":"06","name":"Hessen"}},{"name":"Mainuferradweg","postalCode":"63069","locality":"Offenbach am Main","municipality":{"key":"06413000","name":"Offenbach am Main, Stadt","type":"Kreisfreie_Stadt"},"district":{"key":"06413","name":"Offenbach am Main, Stadt","type":"Kreisfreie_Stadt"},"federalState":{"key":"06","name":"Hessen"}},{"name":"Mainzer Ring","postalCode":"63075","locality":"Offenbach am Main","municipality":{"key":"06413000","name":"Offenbach am Main, Stadt","type":"Kreisfreie_Stadt"},"district":{"key":"06413","name":"Offenbach am Main, Stadt","type":"Kreisfreie_Stadt"},"federalState":{"key":"06","name":"Hessen"}},{"name":"Manchotstr.","postalCode":"63069","locality":"Offenbach am Main","municipality":{"key":"06413000","name":"Offenbach am Main, Stadt","type":"Kreisfreie_Stadt"},"district":{"key":"06413","name":"Offenbach am Main, Stadt","type":"Kreisfreie_Stadt"},"federalState":{"key":"06","name":"Hessen"}},{"name":"Maria-Kurt-Str.","postalCode":"63073","locality":"Offenbach am Main","municipality":{"key":"06413000","name":"Offenbach am Main, Stadt","type":"Kreisfreie_Stadt"},"district":{"key":"06413","name":"Offenbach am Main, Stadt","type":"Kreisfreie_Stadt"},"federalState":{"key":"06","name":"Hessen"}},{"name":"Marienstr.","postalCode":"63069","locality":"Offenbach am Main","municipality":{"key":"06413000","name":"Offenbach am Main, Stadt","type":"Kreisfreie_Stadt"},"district":{"key":"06413","name":"Offenbach am Main, Stadt","type":"Kreisfreie_Stadt"},"federalState":{"key":"06","name":"Hessen"}},{"name":"Marktplatz","postalCode":"63065","locality":"Offenbach am Main","municipality":{"key":"06413000","name":"Offenbach am Main, Stadt","type":"Kreisfreie_Stadt"},"district":{"key":"06413","name":"Offenbach am Main, Stadt","type":"Kreisfreie_Stadt"},"federalState":{"key":"06","name":"Hessen"}},{"name":"Markusplatz","postalCode":"63071","locality":"Offenbach am Main","municipality":{"key":"06413000","name":"Offenbach am Main, Stadt","type":"Kreisfreie_Stadt"},"district":{"key":"06413","name":"Offenbach am Main, Stadt","type":"Kreisfreie_Stadt"},"federalState":{"key":"06","name":"Hessen"}},{"name":"Markwaldstr.","postalCode":"63073","locality":"Offenbach am Main","municipality":{"key":"06413000","name":"Offenbach am Main, Stadt","type":"Kreisfreie_Stadt"},"district":{"key":"06413","name":"Offenbach am Main, Stadt","type":"Kreisfreie_Stadt"},"federalState":{"key":"06","name":"Hessen"}},{"name":"Marstallstr.","postalCode":"63075","locality":"Offenbach am Main","municipality":{"key":"06413000","name":"Offenbach am Main, Stadt","type":"Kreisfreie_Stadt"},"district":{"key":"06413","name":"Offenbach am Main, Stadt","type":"Kreisfreie_Stadt"},"federalState":{"key":"06","name":"Hessen"}},{"name":"Martin-Luther-Park","postalCode":"63065","locality":"Offenbach am Main","municipality":{"key":"06413000","name":"Offenbach am Main, Stadt","type":"Kreisfreie_Stadt"},"district":{"key":"06413","name":"Offenbach am Main, Stadt","type":"Kreisfreie_Stadt"},"federalState":{"key":"06","name":"Hessen"}},{"name":"Masurenweg","postalCode":"63069","locality":"Offenbach am Main","municipality":{"key":"06413000","name":"Offenbach am Main, Stadt","type":"Kreisfreie_Stadt"},"district":{"key":"06413","name":"Offenbach am Main, Stadt","type":"Kreisfreie_Stadt"},"federalState":{"key":"06","name":"Hessen"}},{"name":"Mater-Bonifacia-Weg","postalCode":"63071","locality":"Offenbach am Main","municipality":{"key":"06413000","name":"Offenbach am Main, Stadt","type":"Kreisfreie_Stadt"},"district":{"key":"06413","name":"Offenbach am Main, Stadt","type":"Kreisfreie_Stadt"},"federalState":{"key":"06","name":"Hessen"}},{"name":"Mathildenplatz","postalCode":"63065","locality":"Offenbach am Main","municipality":{"key":"06413000","name":"Offenbach am Main, Stadt","type":"Kreisfreie_Stadt"},"district":{"key":"06413","name":"Offenbach am Main, Stadt","type":"Kreisfreie_Stadt"},"federalState":{"key":"06","name":"Hessen"}},{"name":"Mathildenstr.","postalCode":"63065","locality":"Offenbach am Main","municipality":{"key":"06413000","name":"Offenbach am Main, Stadt","type":"Kreisfreie_Stadt"},"district":{"key":"06413","name":"Offenbach am Main, Stadt","type":"Kreisfreie_Stadt"},"federalState":{"key":"06","name":"Hessen"}},{"name":"Matthias-Erzberger-Str.","postalCode":"63073","locality":"Offenbach am Main","municipality":{"key":"06413000","name":"Offenbach am Main, Stadt","type":"Kreisfreie_Stadt"},"district":{"key":"06413","name":"Offenbach am Main, Stadt","type":"Kreisfreie_Stadt"},"federalState":{"key":"06","name":"Hessen"}},{"name":"Mauerfeldstr.","postalCode":"63073","locality":"Offenbach am Main","municipality":{"key":"06413000","name":"Offenbach am Main, Stadt","type":"Kreisfreie_Stadt"},"district":{"key":"06413","name":"Offenbach am Main, Stadt","type":"Kreisfreie_Stadt"},"federalState":{"key":"06","name":"Hessen"}},{"name":"Mäuslachschneise","postalCode":"63071","locality":"Offenbach am Main","municipality":{"key":"06413000","name":"Offenbach am Main, Stadt","type":"Kreisfreie_Stadt"},"district":{"key":"06413","name":"Offenbach am Main, Stadt","type":"Kreisfreie_Stadt"},"federalState":{"key":"06","name":"Hessen"}},{"name":"Max-Dienemann-Weg","postalCode":"63065","locality":"Offenbach am Main","municipality":{"key":"06413000","name":"Offenbach am Main, Stadt","type":"Kreisfreie_Stadt"},"district":{"key":"06413","name":"Offenbach am Main, Stadt","type":"Kreisfreie_Stadt"},"federalState":{"key":"06","name":"Hessen"}},{"name":"Maximilian-Kolbe-Str.","postalCode":"63075","locality":"Offenbach am Main","municipality":{"key":"06413000","name":"Offenbach am Main, Stadt","type":"Kreisfreie_Stadt"},"district":{"key":"06413","name":"Offenbach am Main, Stadt","type":"Kreisfreie_Stadt"},"federalState":{"key":"06","name":"Hessen"}},{"name":"Max-Reger-Str.","postalCode":"63069","locality":"Offenbach am Main","municipality":{"key":"06413000","name":"Offenbach am Main, Stadt","type":"Kreisfreie_Stadt"},"district":{"key":"06413","name":"Offenbach am Main, Stadt","type":"Kreisfreie_Stadt"},"federalState":{"key":"06","name":"Hessen"}},{"name":"Max-Willner Platz","postalCode":"63067","locality":"Offenbach am Main","municipality":{"key":"06413000","name":"Offenbach am Main, Stadt","type":"Kreisfreie_Stadt"},"district":{"key":"06413","name":"Offenbach am Main, Stadt","type":"Kreisfreie_Stadt"},"federalState":{"key":"06","name":"Hessen"}},{"name":"Maybachstr.","postalCode":"63071","locality":"Offenbach am Main","municipality":{"key":"06413000","name":"Offenbach am Main, Stadt","type":"Kreisfreie_Stadt"},"district":{"key":"06413","name":"Offenbach am Main, Stadt","type":"Kreisfreie_Stadt"},"federalState":{"key":"06","name":"Hessen"}},{"name":"Mecklenburger Str.","postalCode":"63075","locality":"Offenbach am Main","municipality":{"key":"06413000","name":"Offenbach am Main, Stadt","type":"Kreisfreie_Stadt"},"district":{"key":"06413","name":"Offenbach am Main, Stadt","type":"Kreisfreie_Stadt"},"federalState":{"key":"06","name":"Hessen"}},{"name":"Memeler Str.","postalCode":"63075","locality":"Offenbach am Main","municipality":{"key":"06413000","name":"Offenbach am Main, Stadt","type":"Kreisfreie_Stadt"},"district":{"key":"06413","name":"Offenbach am Main, Stadt","type":"Kreisfreie_Stadt"},"federalState":{"key":"06","name":"Hessen"}},{"name":"Merianstr.","postalCode":"63069","locality":"Offenbach am Main","municipality":{"key":"06413000","name":"Offenbach am Main, Stadt","type":"Kreisfreie_Stadt"},"district":{"key":"06413","name":"Offenbach am Main, Stadt","type":"Kreisfreie_Stadt"},"federalState":{"key":"06","name":"Hessen"}},{"name":"Merowingerstr.","postalCode":"63075","locality":"Offenbach am Main","municipality":{"key":"06413000","name":"Offenbach am Main, Stadt","type":"Kreisfreie_Stadt"},"district":{"key":"06413","name":"Offenbach am Main, Stadt","type":"Kreisfreie_Stadt"},"federalState":{"key":"06","name":"Hessen"}},{"name":"Mittelschneise","postalCode":"63071","locality":"Offenbach am Main","municipality":{"key":"06413000","name":"Offenbach am Main, Stadt","type":"Kreisfreie_Stadt"},"district":{"key":"06413","name":"Offenbach am Main, Stadt","type":"Kreisfreie_Stadt"},"federalState":{"key":"06","name":"Hessen"}},{"name":"Mittelseestr.","postalCode":"63065","locality":"Offenbach am Main","municipality":{"key":"06413000","name":"Offenbach am Main, Stadt","type":"Kreisfreie_Stadt"},"district":{"key":"06413","name":"Offenbach am Main, Stadt","type":"Kreisfreie_Stadt"},"federalState":{"key":"06","name":"Hessen"}},{"name":"Mödlingstr.","postalCode":"63069","locality":"Offenbach am Main","municipality":{"key":"06413000","name":"Offenbach am Main, Stadt","type":"Kreisfreie_Stadt"},"district":{"key":"06413","name":"Offenbach am Main, Stadt","type":"Kreisfreie_Stadt"},"federalState":{"key":"06","name":"Hessen"}},{"name":"Mozartweg","postalCode":"63065","locality":"Offenbach am Main","municipality":{"key":"06413000","name":"Offenbach am Main, Stadt","type":"Kreisfreie_Stadt"},"district":{"key":"06413","name":"Offenbach am Main, Stadt","type":"Kreisfreie_Stadt"},"federalState":{"key":"06","name":"Hessen"}},{"name":"Mühlbachweg","postalCode":"63071","locality":"Offenbach am Main","municipality":{"key":"06413000","name":"Offenbach am Main, Stadt","type":"Kreisfreie_Stadt"},"district":{"key":"06413","name":"Offenbach am Main, Stadt","type":"Kreisfreie_Stadt"},"federalState":{"key":"06","name":"Hessen"}},{"name":"Mühlheimer Str.","postalCode":"63065","locality":"Offenbach am Main","municipality":{"key":"06413000","name":"Offenbach am Main, Stadt","type":"Kreisfreie_Stadt"},"district":{"key":"06413","name":"Offenbach am Main, Stadt","type":"Kreisfreie_Stadt"},"federalState":{"key":"06","name":"Hessen"}},{"name":"Mühlheimer Str.","postalCode":"63075","locality":"Offenbach am Main","municipality":{"key":"06413000","name":"Offenbach am Main, Stadt","type":"Kreisfreie_Stadt"},"district":{"key":"06413","name":"Offenbach am Main, Stadt","type":"Kreisfreie_Stadt"},"federalState":{"key":"06","name":"Hessen"}},{"name":"Müllergäßchen","postalCode":"63075","locality":"Offenbach am Main","municipality":{"key":"06413000","name":"Offenbach am Main, Stadt","type":"Kreisfreie_Stadt"},"district":{"key":"06413","name":"Offenbach am Main, Stadt","type":"Kreisfreie_Stadt"},"federalState":{"key":"06","name":"Hessen"}},{"name":"Müllerweg","postalCode":"63069","locality":"Offenbach am Main","municipality":{"key":"06413000","name":"Offenbach am Main, Stadt","type":"Kreisfreie_Stadt"},"district":{"key":"06413","name":"Offenbach am Main, Stadt","type":"Kreisfreie_Stadt"},"federalState":{"key":"06","name":"Hessen"}},{"name":"Müllerweg","postalCode":"63071","locality":"Offenbach am Main","municipality":{"key":"06413000","name":"Offenbach am Main, Stadt","type":"Kreisfreie_Stadt"},"district":{"key":"06413","name":"Offenbach am Main, Stadt","type":"Kreisfreie_Stadt"},"federalState":{"key":"06","name":"Hessen"}},{"name":"Mümlingweg","postalCode":"63071","locality":"Offenbach am Main","municipality":{"key":"06413000","name":"Offenbach am Main, Stadt","type":"Kreisfreie_Stadt"},"district":{"key":"06413","name":"Offenbach am Main, Stadt","type":"Kreisfreie_Stadt"},"federalState":{"key":"06","name":"Hessen"}},{"name":"Münzenbergerstr.","postalCode":"63075","locality":"Offenbach am Main","municipality":{"key":"06413000","name":"Offenbach am Main, Stadt","type":"Kreisfreie_Stadt"},"district":{"key":"06413","name":"Offenbach am Main, Stadt","type":"Kreisfreie_Stadt"},"federalState":{"key":"06","name":"Hessen"}},{"name":"Nahestr.","postalCode":"63073","locality":"Offenbach am Main","municipality":{"key":"06413000","name":"Offenbach am Main, Stadt","type":"Kreisfreie_Stadt"},"district":{"key":"06413","name":"Offenbach am Main, Stadt","type":"Kreisfreie_Stadt"},"federalState":{"key":"06","name":"Hessen"}},{"name":"Natur-Lehrgarten","postalCode":"63071","locality":"Offenbach am Main","municipality":{"key":"06413000","name":"Offenbach am Main, Stadt","type":"Kreisfreie_Stadt"},"district":{"key":"06413","name":"Offenbach am Main, Stadt","type":"Kreisfreie_Stadt"},"federalState":{"key":"06","name":"Hessen"}},{"name":"Neckarstr.","postalCode":"63071","locality":"Offenbach am Main","municipality":{"key":"06413000","name":"Offenbach am Main, Stadt","type":"Kreisfreie_Stadt"},"district":{"key":"06413","name":"Offenbach am Main, Stadt","type":"Kreisfreie_Stadt"},"federalState":{"key":"06","name":"Hessen"}},{"name":"Nelkenweg","postalCode":"63075","locality":"Offenbach am Main","municipality":{"key":"06413000","name":"Offenbach am Main, Stadt","type":"Kreisfreie_Stadt"},"district":{"key":"06413","name":"Offenbach am Main, Stadt","type":"Kreisfreie_Stadt"},"federalState":{"key":"06","name":"Hessen"}},{"name":"Neuer Weg","postalCode":"63069","locality":"Offenbach am Main","municipality":{"key":"06413000","name":"Offenbach am Main, Stadt","type":"Kreisfreie_Stadt"},"district":{"key":"06413","name":"Offenbach am Main, Stadt","type":"Kreisfreie_Stadt"},"federalState":{"key":"06","name":"Hessen"}},{"name":"Neugasse","postalCode":"63075","locality":"Offenbach am Main","municipality":{"key":"06413000","name":"Offenbach am Main, Stadt","type":"Kreisfreie_Stadt"},"district":{"key":"06413","name":"Offenbach am Main, Stadt","type":"Kreisfreie_Stadt"},"federalState":{"key":"06","name":"Hessen"}},{"name":"Neusalzer Str.","postalCode":"63069","locality":"Offenbach am Main","municipality":{"key":"06413000","name":"Offenbach am Main, Stadt","type":"Kreisfreie_Stadt"},"district":{"key":"06413","name":"Offenbach am Main, Stadt","type":"Kreisfreie_Stadt"},"federalState":{"key":"06","name":"Hessen"}},{"name":"Neusalzer Str.","postalCode":"63071","locality":"Offenbach am Main","municipality":{"key":"06413000","name":"Offenbach am Main, Stadt","type":"Kreisfreie_Stadt"},"district":{"key":"06413","name":"Offenbach am Main, Stadt","type":"Kreisfreie_Stadt"},"federalState":{"key":"06","name":"Hessen"}},{"name":"Niddaweg","postalCode":"63071","locality":"Offenbach am Main","municipality":{"key":"06413000","name":"Offenbach am Main, Stadt","type":"Kreisfreie_Stadt"},"district":{"key":"06413","name":"Offenbach am Main, Stadt","type":"Kreisfreie_Stadt"},"federalState":{"key":"06","name":"Hessen"}},{"name":"Niedergasse","postalCode":"63075","locality":"Offenbach am Main","municipality":{"key":"06413000","name":"Offenbach am Main, Stadt","type":"Kreisfreie_Stadt"},"district":{"key":"06413","name":"Offenbach am Main, Stadt","type":"Kreisfreie_Stadt"},"federalState":{"key":"06","name":"Hessen"}},{"name":"Nordring","postalCode":"63065","locality":"Offenbach am Main","municipality":{"key":"06413000","name":"Offenbach am Main, Stadt","type":"Kreisfreie_Stadt"},"district":{"key":"06413","name":"Offenbach am Main, Stadt","type":"Kreisfreie_Stadt"},"federalState":{"key":"06","name":"Hessen"}},{"name":"Nordring","postalCode":"63067","locality":"Offenbach am Main","municipality":{"key":"06413000","name":"Offenbach am Main, Stadt","type":"Kreisfreie_Stadt"},"district":{"key":"06413","name":"Offenbach am Main, Stadt","type":"Kreisfreie_Stadt"},"federalState":{"key":"06","name":"Hessen"}},{"name":"Obere Grenzstr.","postalCode":"63071","locality":"Offenbach am Main","municipality":{"key":"06413000","name":"Offenbach am Main, Stadt","type":"Kreisfreie_Stadt"},"district":{"key":"06413","name":"Offenbach am Main, Stadt","type":"Kreisfreie_Stadt"},"federalState":{"key":"06","name":"Hessen"}},{"name":"oberer Molenpark","postalCode":"63067","locality":"Offenbach am Main","municipality":{"key":"06413000","name":"Offenbach am Main, Stadt","type":"Kreisfreie_Stadt"},"district":{"key":"06413","name":"Offenbach am Main, Stadt","type":"Kreisfreie_Stadt"},"federalState":{"key":"06","name":"Hessen"}},{"name":"Oberfeldstr.","postalCode":"63075","locality":"Offenbach am Main","municipality":{"key":"06413000","name":"Offenbach am Main, Stadt","type":"Kreisfreie_Stadt"},"district":{"key":"06413","name":"Offenbach am Main, Stadt","type":"Kreisfreie_Stadt"},"federalState":{"key":"06","name":"Hessen"}},{"name":"Oberhofstr.","postalCode":"63073","locality":"Offenbach am Main","municipality":{"key":"06413000","name":"Offenbach am Main, Stadt","type":"Kreisfreie_Stadt"},"district":{"key":"06413","name":"Offenbach am Main, Stadt","type":"Kreisfreie_Stadt"},"federalState":{"key":"06","name":"Hessen"}},{"name":"Obermühlstr.","postalCode":"63073","locality":"Offenbach am Main","municipality":{"key":"06413000","name":"Offenbach am Main, Stadt","type":"Kreisfreie_Stadt"},"district":{"key":"06413","name":"Offenbach am Main, Stadt","type":"Kreisfreie_Stadt"},"federalState":{"key":"06","name":"Hessen"}},{"name":"Obertshäuser Wegschneise","postalCode":"63073","locality":"Offenbach am Main","municipality":{"key":"06413000","name":"Offenbach am Main, Stadt","type":"Kreisfreie_Stadt"},"district":{"key":"06413","name":"Offenbach am Main, Stadt","type":"Kreisfreie_Stadt"},"federalState":{"key":"06","name":"Hessen"}},{"name":"Odenwaldring","postalCode":"63069","locality":"Offenbach am Main","municipality":{"key":"06413000","name":"Offenbach am Main, Stadt","type":"Kreisfreie_Stadt"},"district":{"key":"06413","name":"Offenbach am Main, Stadt","type":"Kreisfreie_Stadt"},"federalState":{"key":"06","name":"Hessen"}},{"name":"Offenbacher Str.","postalCode":"63075","locality":"Offenbach am Main","municipality":{"key":"06413000","name":"Offenbach am Main, Stadt","type":"Kreisfreie_Stadt"},"district":{"key":"06413","name":"Offenbach am Main, Stadt","type":"Kreisfreie_Stadt"},"federalState":{"key":"06","name":"Hessen"}},{"name":"Oleanderweg","postalCode":"63075","locality":"Offenbach am Main","municipality":{"key":"06413000","name":"Offenbach am Main, Stadt","type":"Kreisfreie_Stadt"},"district":{"key":"06413","name":"Offenbach am Main, Stadt","type":"Kreisfreie_Stadt"},"federalState":{"key":"06","name":"Hessen"}},{"name":"Oppelner Str.","postalCode":"63071","locality":"Offenbach am Main","municipality":{"key":"06413000","name":"Offenbach am Main, Stadt","type":"Kreisfreie_Stadt"},"district":{"key":"06413","name":"Offenbach am Main, Stadt","type":"Kreisfreie_Stadt"},"federalState":{"key":"06","name":"Hessen"}},{"name":"Ostendplatz","postalCode":"63073","locality":"Offenbach am Main","municipality":{"key":"06413000","name":"Offenbach am Main, Stadt","type":"Kreisfreie_Stadt"},"district":{"key":"06413","name":"Offenbach am Main, Stadt","type":"Kreisfreie_Stadt"},"federalState":{"key":"06","name":"Hessen"}},{"name":"Ostpreußenstr.","postalCode":"63069","locality":"Offenbach am Main","municipality":{"key":"06413000","name":"Offenbach am Main, Stadt","type":"Kreisfreie_Stadt"},"district":{"key":"06413","name":"Offenbach am Main, Stadt","type":"Kreisfreie_Stadt"},"federalState":{"key":"06","name":"Hessen"}},{"name":"Ostschneise","postalCode":"63069","locality":"Offenbach am Main","municipality":{"key":"06413000","name":"Offenbach am Main, Stadt","type":"Kreisfreie_Stadt"},"district":{"key":"06413","name":"Offenbach am Main, Stadt","type":"Kreisfreie_Stadt"},"federalState":{"key":"06","name":"Hessen"}},{"name":"Oswald-von-Nell-Breuning-Str.","postalCode":"63069","locality":"Offenbach am Main","municipality":{"key":"06413000","name":"Offenbach am Main, Stadt","type":"Kreisfreie_Stadt"},"district":{"key":"06413","name":"Offenbach am Main, Stadt","type":"Kreisfreie_Stadt"},"federalState":{"key":"06","name":"Hessen"}},{"name":"Ottersfuhrstr.","postalCode":"63073","locality":"Offenbach am Main","municipality":{"key":"06413000","name":"Offenbach am Main, Stadt","type":"Kreisfreie_Stadt"},"district":{"key":"06413","name":"Offenbach am Main, Stadt","type":"Kreisfreie_Stadt"},"federalState":{"key":"06","name":"Hessen"}},{"name":"Ottilia-Carolina-Moufang-Str.","postalCode":"63075","locality":"Offenbach am Main","municipality":{"key":"06413000","name":"Offenbach am Main, Stadt","type":"Kreisfreie_Stadt"},"district":{"key":"06413","name":"Offenbach am Main, Stadt","type":"Kreisfreie_Stadt"},"federalState":{"key":"06","name":"Hessen"}},{"name":"Otto-Scheugenpflug-Str.","postalCode":"63073","locality":"Offenbach am Main","municipality":{"key":"06413000","name":"Offenbach am Main, Stadt","type":"Kreisfreie_Stadt"},"district":{"key":"06413","name":"Offenbach am Main, Stadt","type":"Kreisfreie_Stadt"},"federalState":{"key":"06","name":"Hessen"}},{"name":"Otto-Steinwachs-Weg","postalCode":"63065","locality":"Offenbach am Main","municipality":{"key":"06413000","name":"Offenbach am Main, Stadt","type":"Kreisfreie_Stadt"},"district":{"key":"06413","name":"Offenbach am Main, Stadt","type":"Kreisfreie_Stadt"},"federalState":{"key":"06","name":"Hessen"}},{"name":"Park & Spielplatz im Hinterhof","postalCode":"63065","locality":"Offenbach am Main","municipality":{"key":"06413000","name":"Offenbach am Main, Stadt","type":"Kreisfreie_Stadt"},"district":{"key":"06413","name":"Offenbach am Main, Stadt","type":"Kreisfreie_Stadt"},"federalState":{"key":"06","name":"Hessen"}},{"name":"Parkstr.","postalCode":"63067","locality":"Offenbach am Main","municipality":{"key":"06413000","name":"Offenbach am Main, Stadt","type":"Kreisfreie_Stadt"},"district":{"key":"06413","name":"Offenbach am Main, Stadt","type":"Kreisfreie_Stadt"},"federalState":{"key":"06","name":"Hessen"}},{"name":"Pater-Förg-Weg","postalCode":"63075","locality":"Offenbach am Main","municipality":{"key":"06413000","name":"Offenbach am Main, Stadt","type":"Kreisfreie_Stadt"},"district":{"key":"06413","name":"Offenbach am Main, Stadt","type":"Kreisfreie_Stadt"},"federalState":{"key":"06","name":"Hessen"}},{"name":"Paul-Löbe-Str.","postalCode":"63073","locality":"Offenbach am Main","municipality":{"key":"06413000","name":"Offenbach am Main, Stadt","type":"Kreisfreie_Stadt"},"district":{"key":"06413","name":"Offenbach am Main, Stadt","type":"Kreisfreie_Stadt"},"federalState":{"key":"06","name":"Hessen"}},{"name":"Pechschneise","postalCode":"63069","locality":"Offenbach am Main","municipality":{"key":"06413000","name":"Offenbach am Main, Stadt","type":"Kreisfreie_Stadt"},"district":{"key":"06413","name":"Offenbach am Main, Stadt","type":"Kreisfreie_Stadt"},"federalState":{"key":"06","name":"Hessen"}},{"name":"Pfaffenpfad","postalCode":"63075","locality":"Offenbach am Main","municipality":{"key":"06413000","name":"Offenbach am Main, Stadt","type":"Kreisfreie_Stadt"},"district":{"key":"06413","name":"Offenbach am Main, Stadt","type":"Kreisfreie_Stadt"},"federalState":{"key":"06","name":"Hessen"}},{"name":"Pfaffenweg","postalCode":"63075","locality":"Offenbach am Main","municipality":{"key":"06413000","name":"Offenbach am Main, Stadt","type":"Kreisfreie_Stadt"},"district":{"key":"06413","name":"Offenbach am Main, Stadt","type":"Kreisfreie_Stadt"},"federalState":{"key":"06","name":"Hessen"}},{"name":"Pfarrer-Kaspar-Walter-Str.","postalCode":"63073","locality":"Offenbach am Main","municipality":{"key":"06413000","name":"Offenbach am Main, Stadt","type":"Kreisfreie_Stadt"},"district":{"key":"06413","name":"Offenbach am Main, Stadt","type":"Kreisfreie_Stadt"},"federalState":{"key":"06","name":"Hessen"}},{"name":"Pfarrgasse","postalCode":"63073","locality":"Offenbach am Main","municipality":{"key":"06413000","name":"Offenbach am Main, Stadt","type":"Kreisfreie_Stadt"},"district":{"key":"06413","name":"Offenbach am Main, Stadt","type":"Kreisfreie_Stadt"},"federalState":{"key":"06","name":"Hessen"}},{"name":"Philipp-Reis-Str.","postalCode":"63073","locality":"Offenbach am Main","municipality":{"key":"06413000","name":"Offenbach am Main, Stadt","type":"Kreisfreie_Stadt"},"district":{"key":"06413","name":"Offenbach am Main, Stadt","type":"Kreisfreie_Stadt"},"federalState":{"key":"06","name":"Hessen"}},{"name":"Phillipp-Ullrich-Str.","postalCode":"63073","locality":"Offenbach am Main","municipality":{"key":"06413000","name":"Offenbach am Main, Stadt","type":"Kreisfreie_Stadt"},"district":{"key":"06413","name":"Offenbach am Main, Stadt","type":"Kreisfreie_Stadt"},"federalState":{"key":"06","name":"Hessen"}},{"name":"Phillip-Ullrich-Str.","postalCode":"63073","locality":"Offenbach am Main","municipality":{"key":"06413000","name":"Offenbach am Main, Stadt","type":"Kreisfreie_Stadt"},"district":{"key":"06413","name":"Offenbach am Main, Stadt","type":"Kreisfreie_Stadt"},"federalState":{"key":"06","name":"Hessen"}},{"name":"Pirazzistr.","postalCode":"63067","locality":"Offenbach am Main","municipality":{"key":"06413000","name":"Offenbach am Main, Stadt","type":"Kreisfreie_Stadt"},"district":{"key":"06413","name":"Offenbach am Main, Stadt","type":"Kreisfreie_Stadt"},"federalState":{"key":"06","name":"Hessen"}},{"name":"Pommernstr.","postalCode":"63069","locality":"Offenbach am Main","municipality":{"key":"06413000","name":"Offenbach am Main, Stadt","type":"Kreisfreie_Stadt"},"district":{"key":"06413","name":"Offenbach am Main, Stadt","type":"Kreisfreie_Stadt"},"federalState":{"key":"06","name":"Hessen"}},{"name":"Poststr.","postalCode":"63073","locality":"Offenbach am Main","municipality":{"key":"06413000","name":"Offenbach am Main, Stadt","type":"Kreisfreie_Stadt"},"district":{"key":"06413","name":"Offenbach am Main, Stadt","type":"Kreisfreie_Stadt"},"federalState":{"key":"06","name":"Hessen"}},{"name":"Primelweg","postalCode":"63075","locality":"Offenbach am Main","municipality":{"key":"06413000","name":"Offenbach am Main, Stadt","type":"Kreisfreie_Stadt"},"district":{"key":"06413","name":"Offenbach am Main, Stadt","type":"Kreisfreie_Stadt"},"federalState":{"key":"06","name":"Hessen"}},{"name":"Prinz-Georg-Str.","postalCode":"63075","locality":"Offenbach am Main","municipality":{"key":"06413000","name":"Offenbach am Main, Stadt","type":"Kreisfreie_Stadt"},"district":{"key":"06413","name":"Offenbach am Main, Stadt","type":"Kreisfreie_Stadt"},"federalState":{"key":"06","name":"Hessen"}},{"name":"Provisorische Anbindung zur Walter-Spiller-Brücke","postalCode":"63067","locality":"Offenbach am Main","municipality":{"key":"06413000","name":"Offenbach am Main, Stadt","type":"Kreisfreie_Stadt"},"district":{"key":"06413","name":"Offenbach am Main, Stadt","type":"Kreisfreie_Stadt"},"federalState":{"key":"06","name":"Hessen"}},{"name":"Puteauxpromenade","postalCode":"63071","locality":"Offenbach am Main","municipality":{"key":"06413000","name":"Offenbach am Main, Stadt","type":"Kreisfreie_Stadt"},"district":{"key":"06413","name":"Offenbach am Main, Stadt","type":"Kreisfreie_Stadt"},"federalState":{"key":"06","name":"Hessen"}},{"name":"Querstr.","postalCode":"63065","locality":"Offenbach am Main","municipality":{"key":"06413000","name":"Offenbach am Main, Stadt","type":"Kreisfreie_Stadt"},"district":{"key":"06413","name":"Offenbach am Main, Stadt","type":"Kreisfreie_Stadt"},"federalState":{"key":"06","name":"Hessen"}},{"name":"Radfeldstr.","postalCode":"63071","locality":"Offenbach am Main","municipality":{"key":"06413000","name":"Offenbach am Main, Stadt","type":"Kreisfreie_Stadt"},"district":{"key":"06413","name":"Offenbach am Main, Stadt","type":"Kreisfreie_Stadt"},"federalState":{"key":"06","name":"Hessen"}},{"name":"Rathausgasse","postalCode":"63073","locality":"Offenbach am Main","municipality":{"key":"06413000","name":"Offenbach am Main, Stadt","type":"Kreisfreie_Stadt"},"district":{"key":"06413","name":"Offenbach am Main, Stadt","type":"Kreisfreie_Stadt"},"federalState":{"key":"06","name":"Hessen"}},{"name":"Rathenaustr.","postalCode":"63065","locality":"Offenbach am Main","municipality":{"key":"06413000","name":"Offenbach am Main, Stadt","type":"Kreisfreie_Stadt"},"district":{"key":"06413","name":"Offenbach am Main, Stadt","type":"Kreisfreie_Stadt"},"federalState":{"key":"06","name":"Hessen"}},{"name":"Rathenaustr.","postalCode":"63067","locality":"Offenbach am Main","municipality":{"key":"06413000","name":"Offenbach am Main, Stadt","type":"Kreisfreie_Stadt"},"district":{"key":"06413","name":"Offenbach am Main, Stadt","type":"Kreisfreie_Stadt"},"federalState":{"key":"06","name":"Hessen"}},{"name":"Regina-Jonas-Weg","postalCode":"63065","locality":"Offenbach am Main","municipality":{"key":"06413000","name":"Offenbach am Main, Stadt","type":"Kreisfreie_Stadt"},"district":{"key":"06413","name":"Offenbach am Main, Stadt","type":"Kreisfreie_Stadt"},"federalState":{"key":"06","name":"Hessen"}},{"name":"Rehschneise","postalCode":"63069","locality":"Offenbach am Main","municipality":{"key":"06413000","name":"Offenbach am Main, Stadt","type":"Kreisfreie_Stadt"},"district":{"key":"06413","name":"Offenbach am Main, Stadt","type":"Kreisfreie_Stadt"},"federalState":{"key":"06","name":"Hessen"}},{"name":"Reichertweg","postalCode":"63069","locality":"Offenbach am Main","municipality":{"key":"06413000","name":"Offenbach am Main, Stadt","type":"Kreisfreie_Stadt"},"district":{"key":"06413","name":"Offenbach am Main, Stadt","type":"Kreisfreie_Stadt"},"federalState":{"key":"06","name":"Hessen"}},{"name":"Reinhardswaldweg","postalCode":"63069","locality":"Offenbach am Main","municipality":{"key":"06413000","name":"Offenbach am Main, Stadt","type":"Kreisfreie_Stadt"},"district":{"key":"06413","name":"Offenbach am Main, Stadt","type":"Kreisfreie_Stadt"},"federalState":{"key":"06","name":"Hessen"}},{"name":"Rembrücker Wegschneise","postalCode":"63073","locality":"Offenbach am Main","municipality":{"key":"06413000","name":"Offenbach am Main, Stadt","type":"Kreisfreie_Stadt"},"district":{"key":"06413","name":"Offenbach am Main, Stadt","type":"Kreisfreie_Stadt"},"federalState":{"key":"06","name":"Hessen"}},{"name":"Rheinstr.","postalCode":"63071","locality":"Offenbach am Main","municipality":{"key":"06413000","name":"Offenbach am Main, Stadt","type":"Kreisfreie_Stadt"},"district":{"key":"06413","name":"Offenbach am Main, Stadt","type":"Kreisfreie_Stadt"},"federalState":{"key":"06","name":"Hessen"}},{"name":"Rhönstr.","postalCode":"63071","locality":"Offenbach am Main","municipality":{"key":"06413000","name":"Offenbach am Main, Stadt","type":"Kreisfreie_Stadt"},"district":{"key":"06413","name":"Offenbach am Main, Stadt","type":"Kreisfreie_Stadt"},"federalState":{"key":"06","name":"Hessen"}},{"name":"Richard-Wagner-Str.","postalCode":"63069","locality":"Offenbach am Main","municipality":{"key":"06413000","name":"Offenbach am Main, Stadt","type":"Kreisfreie_Stadt"},"district":{"key":"06413","name":"Offenbach am Main, Stadt","type":"Kreisfreie_Stadt"},"federalState":{"key":"06","name":"Hessen"}},{"name":"Riethgasse","postalCode":"63075","locality":"Offenbach am Main","municipality":{"key":"06413000","name":"Offenbach am Main, Stadt","type":"Kreisfreie_Stadt"},"district":{"key":"06413","name":"Offenbach am Main, Stadt","type":"Kreisfreie_Stadt"},"federalState":{"key":"06","name":"Hessen"}},{"name":"Robert-Koch-Str.","postalCode":"63069","locality":"Offenbach am Main","municipality":{"key":"06413000","name":"Offenbach am Main, Stadt","type":"Kreisfreie_Stadt"},"district":{"key":"06413","name":"Offenbach am Main, Stadt","type":"Kreisfreie_Stadt"},"federalState":{"key":"06","name":"Hessen"}},{"name":"Rodauweg","postalCode":"63071","locality":"Offenbach am Main","municipality":{"key":"06413000","name":"Offenbach am Main, Stadt","type":"Kreisfreie_Stadt"},"district":{"key":"06413","name":"Offenbach am Main, Stadt","type":"Kreisfreie_Stadt"},"federalState":{"key":"06","name":"Hessen"}},{"name":"Rödernstr.","postalCode":"63067","locality":"Offenbach am Main","municipality":{"key":"06413000","name":"Offenbach am Main, Stadt","type":"Kreisfreie_Stadt"},"district":{"key":"06413","name":"Offenbach am Main, Stadt","type":"Kreisfreie_Stadt"},"federalState":{"key":"06","name":"Hessen"}},{"name":"Rohrmühlstr.","postalCode":"63075","locality":"Offenbach am Main","municipality":{"key":"06413000","name":"Offenbach am Main, Stadt","type":"Kreisfreie_Stadt"},"district":{"key":"06413","name":"Offenbach am Main, Stadt","type":"Kreisfreie_Stadt"},"federalState":{"key":"06","name":"Hessen"}},{"name":"Rohrstr.","postalCode":"63075","locality":"Offenbach am Main","municipality":{"key":"06413000","name":"Offenbach am Main, Stadt","type":"Kreisfreie_Stadt"},"district":{"key":"06413","name":"Offenbach am Main, Stadt","type":"Kreisfreie_Stadt"},"federalState":{"key":"06","name":"Hessen"}},{"name":"Rohrweg","postalCode":"63075","locality":"Offenbach am Main","municipality":{"key":"06413000","name":"Offenbach am Main, Stadt","type":"Kreisfreie_Stadt"},"district":{"key":"06413","name":"Offenbach am Main, Stadt","type":"Kreisfreie_Stadt"},"federalState":{"key":"06","name":"Hessen"}},{"name":"Rolandpark","postalCode":"63069","locality":"Offenbach am Main","municipality":{"key":"06413000","name":"Offenbach am Main, Stadt","type":"Kreisfreie_Stadt"},"district":{"key":"06413","name":"Offenbach am Main, Stadt","type":"Kreisfreie_Stadt"},"federalState":{"key":"06","name":"Hessen"}},{"name":"Roseggerstr.","postalCode":"63073","locality":"Offenbach am Main","municipality":{"key":"06413000","name":"Offenbach am Main, Stadt","type":"Kreisfreie_Stadt"},"district":{"key":"06413","name":"Offenbach am Main, Stadt","type":"Kreisfreie_Stadt"},"federalState":{"key":"06","name":"Hessen"}},{"name":"Rosenaustr.","postalCode":"63069","locality":"Offenbach am Main","municipality":{"key":"06413000","name":"Offenbach am Main, Stadt","type":"Kreisfreie_Stadt"},"district":{"key":"06413","name":"Offenbach am Main, Stadt","type":"Kreisfreie_Stadt"},"federalState":{"key":"06","name":"Hessen"}},{"name":"Rostocker Str.","postalCode":"63073","locality":"Offenbach am Main","municipality":{"key":"06413000","name":"Offenbach am Main, Stadt","type":"Kreisfreie_Stadt"},"district":{"key":"06413","name":"Offenbach am Main, Stadt","type":"Kreisfreie_Stadt"},"federalState":{"key":"06","name":"Hessen"}},{"name":"Rotdornweg","postalCode":"63075","locality":"Offenbach am Main","municipality":{"key":"06413000","name":"Offenbach am Main, Stadt","type":"Kreisfreie_Stadt"},"district":{"key":"06413","name":"Offenbach am Main, Stadt","type":"Kreisfreie_Stadt"},"federalState":{"key":"06","name":"Hessen"}},{"name":"Rowentastr.","postalCode":"63071","locality":"Offenbach am Main","municipality":{"key":"06413000","name":"Offenbach am Main, Stadt","type":"Kreisfreie_Stadt"},"district":{"key":"06413","name":"Offenbach am Main, Stadt","type":"Kreisfreie_Stadt"},"federalState":{"key":"06","name":"Hessen"}},{"name":"Rubensstr.","postalCode":"63073","locality":"Offenbach am Main","municipality":{"key":"06413000","name":"Offenbach am Main, Stadt","type":"Kreisfreie_Stadt"},"district":{"key":"06413","name":"Offenbach am Main, Stadt","type":"Kreisfreie_Stadt"},"federalState":{"key":"06","name":"Hessen"}},{"name":"Rügener Str.","postalCode":"63075","locality":"Offenbach am Main","municipality":{"key":"06413000","name":"Offenbach am Main, Stadt","type":"Kreisfreie_Stadt"},"district":{"key":"06413","name":"Offenbach am Main, Stadt","type":"Kreisfreie_Stadt"},"federalState":{"key":"06","name":"Hessen"}},{"name":"Rumpenheimer Schloßgasse","postalCode":"63075","locality":"Offenbach am Main","municipality":{"key":"06413000","name":"Offenbach am Main, Stadt","type":"Kreisfreie_Stadt"},"district":{"key":"06413","name":"Offenbach am Main, Stadt","type":"Kreisfreie_Stadt"},"federalState":{"key":"06","name":"Hessen"}},{"name":"Rumpenheimer Str.","postalCode":"63075","locality":"Offenbach am Main","municipality":{"key":"06413000","name":"Offenbach am Main, Stadt","type":"Kreisfreie_Stadt"},"district":{"key":"06413","name":"Offenbach am Main, Stadt","type":"Kreisfreie_Stadt"},"federalState":{"key":"06","name":"Hessen"}},{"name":"Saaleweg","postalCode":"63071","locality":"Offenbach am Main","municipality":{"key":"06413000","name":"Offenbach am Main, Stadt","type":"Kreisfreie_Stadt"},"district":{"key":"06413","name":"Offenbach am Main, Stadt","type":"Kreisfreie_Stadt"},"federalState":{"key":"06","name":"Hessen"}},{"name":"Sachsenstr.","postalCode":"63075","locality":"Offenbach am Main","municipality":{"key":"06413000","name":"Offenbach am Main, Stadt","type":"Kreisfreie_Stadt"},"district":{"key":"06413","name":"Offenbach am Main, Stadt","type":"Kreisfreie_Stadt"},"federalState":{"key":"06","name":"Hessen"}},{"name":"Saligstr.","postalCode":"63069","locality":"Offenbach am Main","municipality":{"key":"06413000","name":"Offenbach am Main, Stadt","type":"Kreisfreie_Stadt"},"district":{"key":"06413","name":"Offenbach am Main, Stadt","type":"Kreisfreie_Stadt"},"federalState":{"key":"06","name":"Hessen"}},{"name":"Salomon-Formstecher-Weg","postalCode":"63065","locality":"Offenbach am Main","municipality":{"key":"06413000","name":"Offenbach am Main, Stadt","type":"Kreisfreie_Stadt"},"district":{"key":"06413","name":"Offenbach am Main, Stadt","type":"Kreisfreie_Stadt"},"federalState":{"key":"06","name":"Hessen"}},{"name":"Salzburger Str.","postalCode":"63073","locality":"Offenbach am Main","municipality":{"key":"06413000","name":"Offenbach am Main, Stadt","type":"Kreisfreie_Stadt"},"district":{"key":"06413","name":"Offenbach am Main, Stadt","type":"Kreisfreie_Stadt"},"federalState":{"key":"06","name":"Hessen"}},{"name":"Samlandweg","postalCode":"63069","locality":"Offenbach am Main","municipality":{"key":"06413000","name":"Offenbach am Main, Stadt","type":"Kreisfreie_Stadt"},"district":{"key":"06413","name":"Offenbach am Main, Stadt","type":"Kreisfreie_Stadt"},"federalState":{"key":"06","name":"Hessen"}},{"name":"Sandgasse","postalCode":"63065","locality":"Offenbach am Main","municipality":{"key":"06413000","name":"Offenbach am Main, Stadt","type":"Kreisfreie_Stadt"},"district":{"key":"06413","name":"Offenbach am Main, Stadt","type":"Kreisfreie_Stadt"},"federalState":{"key":"06","name":"Hessen"}},{"name":"Schäferbornweg","postalCode":"63069","locality":"Offenbach am Main","municipality":{"key":"06413000","name":"Offenbach am Main, Stadt","type":"Kreisfreie_Stadt"},"district":{"key":"06413","name":"Offenbach am Main, Stadt","type":"Kreisfreie_Stadt"},"federalState":{"key":"06","name":"Hessen"}},{"name":"Schäferstr.","postalCode":"63069","locality":"Offenbach am Main","municipality":{"key":"06413000","name":"Offenbach am Main, Stadt","type":"Kreisfreie_Stadt"},"district":{"key":"06413","name":"Offenbach am Main, Stadt","type":"Kreisfreie_Stadt"},"federalState":{"key":"06","name":"Hessen"}},{"name":"Scharfensteinerstr.","postalCode":"63075","locality":"Offenbach am Main","municipality":{"key":"06413000","name":"Offenbach am Main, Stadt","type":"Kreisfreie_Stadt"},"district":{"key":"06413","name":"Offenbach am Main, Stadt","type":"Kreisfreie_Stadt"},"federalState":{"key":"06","name":"Hessen"}},{"name":"Scheffelplatz","postalCode":"63071","locality":"Offenbach am Main","municipality":{"key":"06413000","name":"Offenbach am Main, Stadt","type":"Kreisfreie_Stadt"},"district":{"key":"06413","name":"Offenbach am Main, Stadt","type":"Kreisfreie_Stadt"},"federalState":{"key":"06","name":"Hessen"}},{"name":"Scheffelstr.","postalCode":"63071","locality":"Offenbach am Main","municipality":{"key":"06413000","name":"Offenbach am Main, Stadt","type":"Kreisfreie_Stadt"},"district":{"key":"06413","name":"Offenbach am Main, Stadt","type":"Kreisfreie_Stadt"},"federalState":{"key":"06","name":"Hessen"}},{"name":"Schifferstr.","postalCode":"63075","locality":"Offenbach am Main","municipality":{"key":"06413000","name":"Offenbach am Main, Stadt","type":"Kreisfreie_Stadt"},"district":{"key":"06413","name":"Offenbach am Main, Stadt","type":"Kreisfreie_Stadt"},"federalState":{"key":"06","name":"Hessen"}},{"name":"Schillerplatz","postalCode":"63067","locality":"Offenbach am Main","municipality":{"key":"06413000","name":"Offenbach am Main, Stadt","type":"Kreisfreie_Stadt"},"district":{"key":"06413","name":"Offenbach am Main, Stadt","type":"Kreisfreie_Stadt"},"federalState":{"key":"06","name":"Hessen"}},{"name":"Schillerstr.","postalCode":"63073","locality":"Offenbach am Main","municipality":{"key":"06413000","name":"Offenbach am Main, Stadt","type":"Kreisfreie_Stadt"},"district":{"key":"06413","name":"Offenbach am Main, Stadt","type":"Kreisfreie_Stadt"},"federalState":{"key":"06","name":"Hessen"}},{"name":"Schillstr.","postalCode":"63067","locality":"Offenbach am Main","municipality":{"key":"06413000","name":"Offenbach am Main, Stadt","type":"Kreisfreie_Stadt"},"district":{"key":"06413","name":"Offenbach am Main, Stadt","type":"Kreisfreie_Stadt"},"federalState":{"key":"06","name":"Hessen"}},{"name":"Schlesierstr.","postalCode":"63069","locality":"Offenbach am Main","municipality":{"key":"06413000","name":"Offenbach am Main, Stadt","type":"Kreisfreie_Stadt"},"district":{"key":"06413","name":"Offenbach am Main, Stadt","type":"Kreisfreie_Stadt"},"federalState":{"key":"06","name":"Hessen"}},{"name":"Schloßgartenstr.","postalCode":"63075","locality":"Offenbach am Main","municipality":{"key":"06413000","name":"Offenbach am Main, Stadt","type":"Kreisfreie_Stadt"},"district":{"key":"06413","name":"Offenbach am Main, Stadt","type":"Kreisfreie_Stadt"},"federalState":{"key":"06","name":"Hessen"}},{"name":"Schloßgrabengasse","postalCode":"63065","locality":"Offenbach am Main","municipality":{"key":"06413000","name":"Offenbach am Main, Stadt","type":"Kreisfreie_Stadt"},"district":{"key":"06413","name":"Offenbach am Main, Stadt","type":"Kreisfreie_Stadt"},"federalState":{"key":"06","name":"Hessen"}},{"name":"Schloßmühlstr.","postalCode":"63073","locality":"Offenbach am Main","municipality":{"key":"06413000","name":"Offenbach am Main, Stadt","type":"Kreisfreie_Stadt"},"district":{"key":"06413","name":"Offenbach am Main, Stadt","type":"Kreisfreie_Stadt"},"federalState":{"key":"06","name":"Hessen"}},{"name":"Schloßstr.","postalCode":"63065","locality":"Offenbach am Main","municipality":{"key":"06413000","name":"Offenbach am Main, Stadt","type":"Kreisfreie_Stadt"},"district":{"key":"06413","name":"Offenbach am Main, Stadt","type":"Kreisfreie_Stadt"},"federalState":{"key":"06","name":"Hessen"}},{"name":"Schmiedegasse","postalCode":"63075","locality":"Offenbach am Main","municipality":{"key":"06413000","name":"Offenbach am Main, Stadt","type":"Kreisfreie_Stadt"},"district":{"key":"06413","name":"Offenbach am Main, Stadt","type":"Kreisfreie_Stadt"},"federalState":{"key":"06","name":"Hessen"}},{"name":"Schnegelbachweg","postalCode":"63065","locality":"Offenbach am Main","municipality":{"key":"06413000","name":"Offenbach am Main, Stadt","type":"Kreisfreie_Stadt"},"district":{"key":"06413","name":"Offenbach am Main, Stadt","type":"Kreisfreie_Stadt"},"federalState":{"key":"06","name":"Hessen"}},{"name":"Schöffenstr.","postalCode":"63075","locality":"Offenbach am Main","municipality":{"key":"06413000","name":"Offenbach am Main, Stadt","type":"Kreisfreie_Stadt"},"district":{"key":"06413","name":"Offenbach am Main, Stadt","type":"Kreisfreie_Stadt"},"federalState":{"key":"06","name":"Hessen"}},{"name":"Schönbornstr.","postalCode":"63075","locality":"Offenbach am Main","municipality":{"key":"06413000","name":"Offenbach am Main, Stadt","type":"Kreisfreie_Stadt"},"district":{"key":"06413","name":"Offenbach am Main, Stadt","type":"Kreisfreie_Stadt"},"federalState":{"key":"06","name":"Hessen"}},{"name":"Schöne Aussicht","postalCode":"63065","locality":"Offenbach am Main","municipality":{"key":"06413000","name":"Offenbach am Main, Stadt","type":"Kreisfreie_Stadt"},"district":{"key":"06413","name":"Offenbach am Main, Stadt","type":"Kreisfreie_Stadt"},"federalState":{"key":"06","name":"Hessen"}},{"name":"Schopenhauerstr.","postalCode":"63069","locality":"Offenbach am Main","municipality":{"key":"06413000","name":"Offenbach am Main, Stadt","type":"Kreisfreie_Stadt"},"district":{"key":"06413","name":"Offenbach am Main, Stadt","type":"Kreisfreie_Stadt"},"federalState":{"key":"06","name":"Hessen"}},{"name":"Schreberstr.","postalCode":"63069","locality":"Offenbach am Main","municipality":{"key":"06413000","name":"Offenbach am Main, Stadt","type":"Kreisfreie_Stadt"},"district":{"key":"06413","name":"Offenbach am Main, Stadt","type":"Kreisfreie_Stadt"},"federalState":{"key":"06","name":"Hessen"}},{"name":"Schubertstr.","postalCode":"63069","locality":"Offenbach am Main","municipality":{"key":"06413000","name":"Offenbach am Main, Stadt","type":"Kreisfreie_Stadt"},"district":{"key":"06413","name":"Offenbach am Main, Stadt","type":"Kreisfreie_Stadt"},"federalState":{"key":"06","name":"Hessen"}},{"name":"Schuckertweg","postalCode":"63071","locality":"Offenbach am Main","municipality":{"key":"06413000","name":"Offenbach am Main, Stadt","type":"Kreisfreie_Stadt"},"district":{"key":"06413","name":"Offenbach am Main, Stadt","type":"Kreisfreie_Stadt"},"federalState":{"key":"06","name":"Hessen"}},{"name":"Schumannstr.","postalCode":"63069","locality":"Offenbach am Main","municipality":{"key":"06413000","name":"Offenbach am Main, Stadt","type":"Kreisfreie_Stadt"},"district":{"key":"06413","name":"Offenbach am Main, Stadt","type":"Kreisfreie_Stadt"},"federalState":{"key":"06","name":"Hessen"}},{"name":"Schutzbaumstr.","postalCode":"63073","locality":"Offenbach am Main","municipality":{"key":"06413000","name":"Offenbach am Main, Stadt","type":"Kreisfreie_Stadt"},"district":{"key":"06413","name":"Offenbach am Main, Stadt","type":"Kreisfreie_Stadt"},"federalState":{"key":"06","name":"Hessen"}},{"name":"Schwarzwaldweg","postalCode":"63069","locality":"Offenbach am Main","municipality":{"key":"06413000","name":"Offenbach am Main, Stadt","type":"Kreisfreie_Stadt"},"district":{"key":"06413","name":"Offenbach am Main, Stadt","type":"Kreisfreie_Stadt"},"federalState":{"key":"06","name":"Hessen"}},{"name":"Seestr.","postalCode":"63075","locality":"Offenbach am Main","municipality":{"key":"06413000","name":"Offenbach am Main, Stadt","type":"Kreisfreie_Stadt"},"district":{"key":"06413","name":"Offenbach am Main, Stadt","type":"Kreisfreie_Stadt"},"federalState":{"key":"06","name":"Hessen"}},{"name":"Seeweg","postalCode":"63075","locality":"Offenbach am Main","municipality":{"key":"06413000","name":"Offenbach am Main, Stadt","type":"Kreisfreie_Stadt"},"district":{"key":"06413","name":"Offenbach am Main, Stadt","type":"Kreisfreie_Stadt"},"federalState":{"key":"06","name":"Hessen"}},{"name":"Seligenstädter Str.","postalCode":"63073","locality":"Offenbach am Main","municipality":{"key":"06413000","name":"Offenbach am Main, Stadt","type":"Kreisfreie_Stadt"},"district":{"key":"06413","name":"Offenbach am Main, Stadt","type":"Kreisfreie_Stadt"},"federalState":{"key":"06","name":"Hessen"}},{"name":"Senefelderstr.","postalCode":"63069","locality":"Offenbach am Main","municipality":{"key":"06413000","name":"Offenbach am Main, Stadt","type":"Kreisfreie_Stadt"},"district":{"key":"06413","name":"Offenbach am Main, Stadt","type":"Kreisfreie_Stadt"},"federalState":{"key":"06","name":"Hessen"}},{"name":"Siebeneichen","postalCode":"63073","locality":"Offenbach am Main","municipality":{"key":"06413000","name":"Offenbach am Main, Stadt","type":"Kreisfreie_Stadt"},"district":{"key":"06413","name":"Offenbach am Main, Stadt","type":"Kreisfreie_Stadt"},"federalState":{"key":"06","name":"Hessen"}},{"name":"Siegfried-Guggenheim-Weg","postalCode":"63069","locality":"Offenbach am Main","municipality":{"key":"06413000","name":"Offenbach am Main, Stadt","type":"Kreisfreie_Stadt"},"district":{"key":"06413","name":"Offenbach am Main, Stadt","type":"Kreisfreie_Stadt"},"federalState":{"key":"06","name":"Hessen"}},{"name":"Siemensstr.","postalCode":"63071","locality":"Offenbach am Main","municipality":{"key":"06413000","name":"Offenbach am Main, Stadt","type":"Kreisfreie_Stadt"},"district":{"key":"06413","name":"Offenbach am Main, Stadt","type":"Kreisfreie_Stadt"},"federalState":{"key":"06","name":"Hessen"}},{"name":"Sinnweg","postalCode":"63071","locality":"Offenbach am Main","municipality":{"key":"06413000","name":"Offenbach am Main, Stadt","type":"Kreisfreie_Stadt"},"district":{"key":"06413","name":"Offenbach am Main, Stadt","type":"Kreisfreie_Stadt"},"federalState":{"key":"06","name":"Hessen"}},{"name":"Sonnenpfad","postalCode":"63075","locality":"Offenbach am Main","municipality":{"key":"06413000","name":"Offenbach am Main, Stadt","type":"Kreisfreie_Stadt"},"district":{"key":"06413","name":"Offenbach am Main, Stadt","type":"Kreisfreie_Stadt"},"federalState":{"key":"06","name":"Hessen"}},{"name":"Sophie-von-La-Roche-Platz","postalCode":"63065","locality":"Offenbach am Main","municipality":{"key":"06413000","name":"Offenbach am Main, Stadt","type":"Kreisfreie_Stadt"},"district":{"key":"06413","name":"Offenbach am Main, Stadt","type":"Kreisfreie_Stadt"},"federalState":{"key":"06","name":"Hessen"}},{"name":"Spatzennest","postalCode":"63075","locality":"Offenbach am Main","municipality":{"key":"06413000","name":"Offenbach am Main, Stadt","type":"Kreisfreie_Stadt"},"district":{"key":"06413","name":"Offenbach am Main, Stadt","type":"Kreisfreie_Stadt"},"federalState":{"key":"06","name":"Hessen"}},{"name":"Spessartring","postalCode":"63071","locality":"Offenbach am Main","municipality":{"key":"06413000","name":"Offenbach am Main, Stadt","type":"Kreisfreie_Stadt"},"district":{"key":"06413","name":"Offenbach am Main, Stadt","type":"Kreisfreie_Stadt"},"federalState":{"key":"06","name":"Hessen"}},{"name":"Speyerstr.","postalCode":"63065","locality":"Offenbach am Main","municipality":{"key":"06413000","name":"Offenbach am Main, Stadt","type":"Kreisfreie_Stadt"},"district":{"key":"06413","name":"Offenbach am Main, Stadt","type":"Kreisfreie_Stadt"},"federalState":{"key":"06","name":"Hessen"}},{"name":"Spießstr.","postalCode":"63071","locality":"Offenbach am Main","municipality":{"key":"06413000","name":"Offenbach am Main, Stadt","type":"Kreisfreie_Stadt"},"district":{"key":"06413","name":"Offenbach am Main, Stadt","type":"Kreisfreie_Stadt"},"federalState":{"key":"06","name":"Hessen"}},{"name":"Sprendlinger Landstr.","postalCode":"63067","locality":"Offenbach am Main","municipality":{"key":"06413000","name":"Offenbach am Main, Stadt","type":"Kreisfreie_Stadt"},"district":{"key":"06413","name":"Offenbach am Main, Stadt","type":"Kreisfreie_Stadt"},"federalState":{"key":"06","name":"Hessen"}},{"name":"Sprendlinger Landstr.","postalCode":"63069","locality":"Offenbach am Main","municipality":{"key":"06413000","name":"Offenbach am Main, Stadt","type":"Kreisfreie_Stadt"},"district":{"key":"06413","name":"Offenbach am Main, Stadt","type":"Kreisfreie_Stadt"},"federalState":{"key":"06","name":"Hessen"}},{"name":"Sprendlinger Landstr.","postalCode":"63263","locality":"Offenbach am Main","municipality":{"key":"06413000","name":"Offenbach am Main, Stadt","type":"Kreisfreie_Stadt"},"district":{"key":"06413","name":"Offenbach am Main, Stadt","type":"Kreisfreie_Stadt"},"federalState":{"key":"06","name":"Hessen"}},{"name":"Tambourweg","postalCode":"63071","locality":"Offenbach am Main","municipality":{"key":"06413000","name":"Offenbach am Main, Stadt","type":"Kreisfreie_Stadt"},"district":{"key":"06413","name":"Offenbach am Main, Stadt","type":"Kreisfreie_Stadt"},"federalState":{"key":"06","name":"Hessen"}},{"name":"Tauberweg","postalCode":"63071","locality":"Offenbach am Main","municipality":{"key":"06413000","name":"Offenbach am Main, Stadt","type":"Kreisfreie_Stadt"},"district":{"key":"06413","name":"Offenbach am Main, Stadt","type":"Kreisfreie_Stadt"},"federalState":{"key":"06","name":"Hessen"}},{"name":"Taunusring","postalCode":"63069","locality":"Offenbach am Main","municipality":{"key":"06413000","name":"Offenbach am Main, Stadt","type":"Kreisfreie_Stadt"},"district":{"key":"06413","name":"Offenbach am Main, Stadt","type":"Kreisfreie_Stadt"},"federalState":{"key":"06","name":"Hessen"}},{"name":"Taunusstr.","postalCode":"63067","locality":"Offenbach am Main","municipality":{"key":"06413000","name":"Offenbach am Main, Stadt","type":"Kreisfreie_Stadt"},"district":{"key":"06413","name":"Offenbach am Main, Stadt","type":"Kreisfreie_Stadt"},"federalState":{"key":"06","name":"Hessen"}},{"name":"Tempelseepark","postalCode":"63071","locality":"Offenbach am Main","municipality":{"key":"06413000","name":"Offenbach am Main, Stadt","type":"Kreisfreie_Stadt"},"district":{"key":"06413","name":"Offenbach am Main, Stadt","type":"Kreisfreie_Stadt"},"federalState":{"key":"06","name":"Hessen"}},{"name":"Tempelseestr.","postalCode":"63071","locality":"Offenbach am Main","municipality":{"key":"06413000","name":"Offenbach am Main, Stadt","type":"Kreisfreie_Stadt"},"district":{"key":"06413","name":"Offenbach am Main, Stadt","type":"Kreisfreie_Stadt"},"federalState":{"key":"06","name":"Hessen"}},{"name":"Tennisstr.","postalCode":"63069","locality":"Offenbach am Main","municipality":{"key":"06413000","name":"Offenbach am Main, Stadt","type":"Kreisfreie_Stadt"},"district":{"key":"06413","name":"Offenbach am Main, Stadt","type":"Kreisfreie_Stadt"},"federalState":{"key":"06","name":"Hessen"}},{"name":"Thüringer Str.","postalCode":"63075","locality":"Offenbach am Main","municipality":{"key":"06413000","name":"Offenbach am Main, Stadt","type":"Kreisfreie_Stadt"},"district":{"key":"06413","name":"Offenbach am Main, Stadt","type":"Kreisfreie_Stadt"},"federalState":{"key":"06","name":"Hessen"}},{"name":"Trappbörnchen","postalCode":"63073","locality":"Offenbach am Main","municipality":{"key":"06413000","name":"Offenbach am Main, Stadt","type":"Kreisfreie_Stadt"},"district":{"key":"06413","name":"Offenbach am Main, Stadt","type":"Kreisfreie_Stadt"},"federalState":{"key":"06","name":"Hessen"}},{"name":"Tulpenhofstr.","postalCode":"63067","locality":"Offenbach am Main","municipality":{"key":"06413000","name":"Offenbach am Main, Stadt","type":"Kreisfreie_Stadt"},"district":{"key":"06413","name":"Offenbach am Main, Stadt","type":"Kreisfreie_Stadt"},"federalState":{"key":"06","name":"Hessen"}},{"name":"Tulpenweg","postalCode":"63075","locality":"Offenbach am Main","municipality":{"key":"06413000","name":"Offenbach am Main, Stadt","type":"Kreisfreie_Stadt"},"district":{"key":"06413","name":"Offenbach am Main, Stadt","type":"Kreisfreie_Stadt"},"federalState":{"key":"06","name":"Hessen"}},{"name":"Uhlandstr.","postalCode":"63073","locality":"Offenbach am Main","municipality":{"key":"06413000","name":"Offenbach am Main, Stadt","type":"Kreisfreie_Stadt"},"district":{"key":"06413","name":"Offenbach am Main, Stadt","type":"Kreisfreie_Stadt"},"federalState":{"key":"06","name":"Hessen"}},{"name":"Ulmenstr.","postalCode":"63075","locality":"Offenbach am Main","municipality":{"key":"06413000","name":"Offenbach am Main, Stadt","type":"Kreisfreie_Stadt"},"district":{"key":"06413","name":"Offenbach am Main, Stadt","type":"Kreisfreie_Stadt"},"federalState":{"key":"06","name":"Hessen"}},{"name":"Ulrichschneise","postalCode":"63073","locality":"Offenbach am Main","municipality":{"key":"06413000","name":"Offenbach am Main, Stadt","type":"Kreisfreie_Stadt"},"district":{"key":"06413","name":"Offenbach am Main, Stadt","type":"Kreisfreie_Stadt"},"federalState":{"key":"06","name":"Hessen"}},{"name":"Untere Grenzstr.","postalCode":"63071","locality":"Offenbach am Main","municipality":{"key":"06413000","name":"Offenbach am Main, Stadt","type":"Kreisfreie_Stadt"},"district":{"key":"06413","name":"Offenbach am Main, Stadt","type":"Kreisfreie_Stadt"},"federalState":{"key":"06","name":"Hessen"}},{"name":"Untere Grenzstr.","postalCode":"63075","locality":"Offenbach am Main","municipality":{"key":"06413000","name":"Offenbach am Main, Stadt","type":"Kreisfreie_Stadt"},"district":{"key":"06413","name":"Offenbach am Main, Stadt","type":"Kreisfreie_Stadt"},"federalState":{"key":"06","name":"Hessen"}},{"name":"Unterer Molenpark","postalCode":"63067","locality":"Offenbach am Main","municipality":{"key":"06413000","name":"Offenbach am Main, Stadt","type":"Kreisfreie_Stadt"},"district":{"key":"06413","name":"Offenbach am Main, Stadt","type":"Kreisfreie_Stadt"},"federalState":{"key":"06","name":"Hessen"}},{"name":"Untergasse","postalCode":"63075","locality":"Offenbach am Main","municipality":{"key":"06413000","name":"Offenbach am Main, Stadt","type":"Kreisfreie_Stadt"},"district":{"key":"06413","name":"Offenbach am Main, Stadt","type":"Kreisfreie_Stadt"},"federalState":{"key":"06","name":"Hessen"}},{"name":"Veilchenweg","postalCode":"63075","locality":"Offenbach am Main","municipality":{"key":"06413000","name":"Offenbach am Main, Stadt","type":"Kreisfreie_Stadt"},"district":{"key":"06413","name":"Offenbach am Main, Stadt","type":"Kreisfreie_Stadt"},"federalState":{"key":"06","name":"Hessen"}},{"name":"Viehweidschneise","postalCode":"63073","locality":"Offenbach am Main","municipality":{"key":"06413000","name":"Offenbach am Main, Stadt","type":"Kreisfreie_Stadt"},"district":{"key":"06413","name":"Offenbach am Main, Stadt","type":"Kreisfreie_Stadt"},"federalState":{"key":"06","name":"Hessen"}},{"name":"Vilbeler Str.","postalCode":"63073","locality":"Offenbach am Main","municipality":{"key":"06413000","name":"Offenbach am Main, Stadt","type":"Kreisfreie_Stadt"},"district":{"key":"06413","name":"Offenbach am Main, Stadt","type":"Kreisfreie_Stadt"},"federalState":{"key":"06","name":"Hessen"}},{"name":"Vogelsbergweg","postalCode":"63069","locality":"Offenbach am Main","municipality":{"key":"06413000","name":"Offenbach am Main, Stadt","type":"Kreisfreie_Stadt"},"district":{"key":"06413","name":"Offenbach am Main, Stadt","type":"Kreisfreie_Stadt"},"federalState":{"key":"06","name":"Hessen"}},{"name":"Von-Behring-Str.","postalCode":"63075","locality":"Offenbach am Main","municipality":{"key":"06413000","name":"Offenbach am Main, Stadt","type":"Kreisfreie_Stadt"},"district":{"key":"06413","name":"Offenbach am Main, Stadt","type":"Kreisfreie_Stadt"},"federalState":{"key":"06","name":"Hessen"}},{"name":"Von-Brentano-Str.","postalCode":"63073","locality":"Offenbach am Main","municipality":{"key":"06413000","name":"Offenbach am Main, Stadt","type":"Kreisfreie_Stadt"},"district":{"key":"06413","name":"Offenbach am Main, Stadt","type":"Kreisfreie_Stadt"},"federalState":{"key":"06","name":"Hessen"}},{"name":"Vorderwaldweg","postalCode":"63069","locality":"Offenbach am Main","municipality":{"key":"06413000","name":"Offenbach am Main, Stadt","type":"Kreisfreie_Stadt"},"district":{"key":"06413","name":"Offenbach am Main, Stadt","type":"Kreisfreie_Stadt"},"federalState":{"key":"06","name":"Hessen"}},{"name":"Waitzenäckerstr.","postalCode":"63075","locality":"Offenbach am Main","municipality":{"key":"06413000","name":"Offenbach am Main, Stadt","type":"Kreisfreie_Stadt"},"district":{"key":"06413","name":"Offenbach am Main, Stadt","type":"Kreisfreie_Stadt"},"federalState":{"key":"06","name":"Hessen"}},{"name":"Waldenburger Weg","postalCode":"63069","locality":"Offenbach am Main","municipality":{"key":"06413000","name":"Offenbach am Main, Stadt","type":"Kreisfreie_Stadt"},"district":{"key":"06413","name":"Offenbach am Main, Stadt","type":"Kreisfreie_Stadt"},"federalState":{"key":"06","name":"Hessen"}},{"name":"Waldhofstr.","postalCode":"63073","locality":"Offenbach am Main","municipality":{"key":"06413000","name":"Offenbach am Main, Stadt","type":"Kreisfreie_Stadt"},"district":{"key":"06413","name":"Offenbach am Main, Stadt","type":"Kreisfreie_Stadt"},"federalState":{"key":"06","name":"Hessen"}},{"name":"Waldstr.","postalCode":"63065","locality":"Offenbach am Main","municipality":{"key":"06413000","name":"Offenbach am Main, Stadt","type":"Kreisfreie_Stadt"},"district":{"key":"06413","name":"Offenbach am Main, Stadt","type":"Kreisfreie_Stadt"},"federalState":{"key":"06","name":"Hessen"}},{"name":"Waldstr.","postalCode":"63069","locality":"Offenbach am Main","municipality":{"key":"06413000","name":"Offenbach am Main, Stadt","type":"Kreisfreie_Stadt"},"district":{"key":"06413","name":"Offenbach am Main, Stadt","type":"Kreisfreie_Stadt"},"federalState":{"key":"06","name":"Hessen"}},{"name":"Waldstr.","postalCode":"63071","locality":"Offenbach am Main","municipality":{"key":"06413000","name":"Offenbach am Main, Stadt","type":"Kreisfreie_Stadt"},"district":{"key":"06413","name":"Offenbach am Main, Stadt","type":"Kreisfreie_Stadt"},"federalState":{"key":"06","name":"Hessen"}},{"name":"Waldweg","postalCode":"63075","locality":"Offenbach am Main","municipality":{"key":"06413000","name":"Offenbach am Main, Stadt","type":"Kreisfreie_Stadt"},"district":{"key":"06413","name":"Offenbach am Main, Stadt","type":"Kreisfreie_Stadt"},"federalState":{"key":"06","name":"Hessen"}},{"name":"Walpertswiesenweg","postalCode":"63073","locality":"Offenbach am Main","municipality":{"key":"06413000","name":"Offenbach am Main, Stadt","type":"Kreisfreie_Stadt"},"district":{"key":"06413","name":"Offenbach am Main, Stadt","type":"Kreisfreie_Stadt"},"federalState":{"key":"06","name":"Hessen"}},{"name":"Walter Passage","postalCode":"63065","locality":"Offenbach am Main","municipality":{"key":"06413000","name":"Offenbach am Main, Stadt","type":"Kreisfreie_Stadt"},"district":{"key":"06413","name":"Offenbach am Main, Stadt","type":"Kreisfreie_Stadt"},"federalState":{"key":"06","name":"Hessen"}},{"name":"Walter-Spiller-Brücke","postalCode":"63067","locality":"Offenbach am Main","municipality":{"key":"06413000","name":"Offenbach am Main, Stadt","type":"Kreisfreie_Stadt"},"district":{"key":"06413","name":"Offenbach am Main, Stadt","type":"Kreisfreie_Stadt"},"federalState":{"key":"06","name":"Hessen"}},{"name":"Warschauer Str.","postalCode":"63067","locality":"Offenbach am Main","municipality":{"key":"06413000","name":"Offenbach am Main, Stadt","type":"Kreisfreie_Stadt"},"district":{"key":"06413","name":"Offenbach am Main, Stadt","type":"Kreisfreie_Stadt"},"federalState":{"key":"06","name":"Hessen"}},{"name":"Weidigweg","postalCode":"63069","locality":"Offenbach am Main","municipality":{"key":"06413000","name":"Offenbach am Main, Stadt","type":"Kreisfreie_Stadt"},"district":{"key":"06413","name":"Offenbach am Main, Stadt","type":"Kreisfreie_Stadt"},"federalState":{"key":"06","name":"Hessen"}},{"name":"Weikertsblochstr.","postalCode":"63069","locality":"Offenbach am Main","municipality":{"key":"06413000","name":"Offenbach am Main, Stadt","type":"Kreisfreie_Stadt"},"district":{"key":"06413","name":"Offenbach am Main, Stadt","type":"Kreisfreie_Stadt"},"federalState":{"key":"06","name":"Hessen"}},{"name":"Weilburger Weg","postalCode":"63075","locality":"Offenbach am Main","municipality":{"key":"06413000","name":"Offenbach am Main, Stadt","type":"Kreisfreie_Stadt"},"district":{"key":"06413","name":"Offenbach am Main, Stadt","type":"Kreisfreie_Stadt"},"federalState":{"key":"06","name":"Hessen"}},{"name":"Weinbergstr.","postalCode":"63073","locality":"Offenbach am Main","municipality":{"key":"06413000","name":"Offenbach am Main, Stadt","type":"Kreisfreie_Stadt"},"district":{"key":"06413","name":"Offenbach am Main, Stadt","type":"Kreisfreie_Stadt"},"federalState":{"key":"06","name":"Hessen"}},{"name":"Welfenstr.","postalCode":"63075","locality":"Offenbach am Main","municipality":{"key":"06413000","name":"Offenbach am Main, Stadt","type":"Kreisfreie_Stadt"},"district":{"key":"06413","name":"Offenbach am Main, Stadt","type":"Kreisfreie_Stadt"},"federalState":{"key":"06","name":"Hessen"}},{"name":"Wendelsweg","postalCode":"63069","locality":"Offenbach am Main","municipality":{"key":"06413000","name":"Offenbach am Main, Stadt","type":"Kreisfreie_Stadt"},"district":{"key":"06413","name":"Offenbach am Main, Stadt","type":"Kreisfreie_Stadt"},"federalState":{"key":"06","name":"Hessen"}},{"name":"Wenkenwiesenweg","postalCode":"63073","locality":"Offenbach am Main","municipality":{"key":"06413000","name":"Offenbach am Main, Stadt","type":"Kreisfreie_Stadt"},"district":{"key":"06413","name":"Offenbach am Main, Stadt","type":"Kreisfreie_Stadt"},"federalState":{"key":"06","name":"Hessen"}},{"name":"Werraweg","postalCode":"63071","locality":"Offenbach am Main","municipality":{"key":"06413000","name":"Offenbach am Main, Stadt","type":"Kreisfreie_Stadt"},"district":{"key":"06413","name":"Offenbach am Main, Stadt","type":"Kreisfreie_Stadt"},"federalState":{"key":"06","name":"Hessen"}},{"name":"Weserstr.","postalCode":"63071","locality":"Offenbach am Main","municipality":{"key":"06413000","name":"Offenbach am Main, Stadt","type":"Kreisfreie_Stadt"},"district":{"key":"06413","name":"Offenbach am Main, Stadt","type":"Kreisfreie_Stadt"},"federalState":{"key":"06","name":"Hessen"}},{"name":"Westerwaldweg","postalCode":"63069","locality":"Offenbach am Main","municipality":{"key":"06413000","name":"Offenbach am Main, Stadt","type":"Kreisfreie_Stadt"},"district":{"key":"06413","name":"Offenbach am Main, Stadt","type":"Kreisfreie_Stadt"},"federalState":{"key":"06","name":"Hessen"}},{"name":"Wetterpark","postalCode":"63071","locality":"Offenbach am Main","municipality":{"key":"06413000","name":"Offenbach am Main, Stadt","type":"Kreisfreie_Stadt"},"district":{"key":"06413","name":"Offenbach am Main, Stadt","type":"Kreisfreie_Stadt"},"federalState":{"key":"06","name":"Hessen"}},{"name":"Wiener Ring","postalCode":"63073","locality":"Offenbach am Main","municipality":{"key":"06413000","name":"Offenbach am Main, Stadt","type":"Kreisfreie_Stadt"},"district":{"key":"06413","name":"Offenbach am Main, Stadt","type":"Kreisfreie_Stadt"},"federalState":{"key":"06","name":"Hessen"}},{"name":"Wiesenstr.","postalCode":"63071","locality":"Offenbach am Main","municipality":{"key":"06413000","name":"Offenbach am Main, Stadt","type":"Kreisfreie_Stadt"},"district":{"key":"06413","name":"Offenbach am Main, Stadt","type":"Kreisfreie_Stadt"},"federalState":{"key":"06","name":"Hessen"}},{"name":"Wikingerstr.","postalCode":"63073","locality":"Offenbach am Main","municipality":{"key":"06413000","name":"Offenbach am Main, Stadt","type":"Kreisfreie_Stadt"},"district":{"key":"06413","name":"Offenbach am Main, Stadt","type":"Kreisfreie_Stadt"},"federalState":{"key":"06","name":"Hessen"}},{"name":"Wilhelm-Busch-Str.","postalCode":"63075","locality":"Offenbach am Main","municipality":{"key":"06413000","name":"Offenbach am Main, Stadt","type":"Kreisfreie_Stadt"},"district":{"key":"06413","name":"Offenbach am Main, Stadt","type":"Kreisfreie_Stadt"},"federalState":{"key":"06","name":"Hessen"}},{"name":"Wilhelm-Knöchel-Weg","postalCode":"63075","locality":"Offenbach am Main","municipality":{"key":"06413000","name":"Offenbach am Main, Stadt","type":"Kreisfreie_Stadt"},"district":{"key":"06413","name":"Offenbach am Main, Stadt","type":"Kreisfreie_Stadt"},"federalState":{"key":"06","name":"Hessen"}},{"name":"Wilhelm-Leuschner-Str.","postalCode":"63071","locality":"Offenbach am Main","municipality":{"key":"06413000","name":"Offenbach am Main, Stadt","type":"Kreisfreie_Stadt"},"district":{"key":"06413","name":"Offenbach am Main, Stadt","type":"Kreisfreie_Stadt"},"federalState":{"key":"06","name":"Hessen"}},{"name":"Wilhelm-Schramm-Str.","postalCode":"63071","locality":"Offenbach am Main","municipality":{"key":"06413000","name":"Offenbach am Main, Stadt","type":"Kreisfreie_Stadt"},"district":{"key":"06413","name":"Offenbach am Main, Stadt","type":"Kreisfreie_Stadt"},"federalState":{"key":"06","name":"Hessen"}},{"name":"Wilhelmsplatz","postalCode":"63065","locality":"Offenbach am Main","municipality":{"key":"06413000","name":"Offenbach am Main, Stadt","type":"Kreisfreie_Stadt"},"district":{"key":"06413","name":"Offenbach am Main, Stadt","type":"Kreisfreie_Stadt"},"federalState":{"key":"06","name":"Hessen"}},{"name":"Wilhelmstr.","postalCode":"63065","locality":"Offenbach am Main","municipality":{"key":"06413000","name":"Offenbach am Main, Stadt","type":"Kreisfreie_Stadt"},"district":{"key":"06413","name":"Offenbach am Main, Stadt","type":"Kreisfreie_Stadt"},"federalState":{"key":"06","name":"Hessen"}},{"name":"Wilhelmstr.","postalCode":"63071","locality":"Offenbach am Main","municipality":{"key":"06413000","name":"Offenbach am Main, Stadt","type":"Kreisfreie_Stadt"},"district":{"key":"06413","name":"Offenbach am Main, Stadt","type":"Kreisfreie_Stadt"},"federalState":{"key":"06","name":"Hessen"}},{"name":"Wilhelm-Weber-Weg","postalCode":"63069","locality":"Offenbach am Main","municipality":{"key":"06413000","name":"Offenbach am Main, Stadt","type":"Kreisfreie_Stadt"},"district":{"key":"06413","name":"Offenbach am Main, Stadt","type":"Kreisfreie_Stadt"},"federalState":{"key":"06","name":"Hessen"}},{"name":"Willemerstr.","postalCode":"63067","locality":"Offenbach am Main","municipality":{"key":"06413000","name":"Offenbach am Main, Stadt","type":"Kreisfreie_Stadt"},"district":{"key":"06413","name":"Offenbach am Main, Stadt","type":"Kreisfreie_Stadt"},"federalState":{"key":"06","name":"Hessen"}},{"name":"Willi-Bauer-Str.","postalCode":"63073","locality":"Offenbach am Main","municipality":{"key":"06413000","name":"Offenbach am Main, Stadt","type":"Kreisfreie_Stadt"},"district":{"key":"06413","name":"Offenbach am Main, Stadt","type":"Kreisfreie_Stadt"},"federalState":{"key":"06","name":"Hessen"}},{"name":"Wingertstr.","postalCode":"63073","locality":"Offenbach am Main","municipality":{"key":"06413000","name":"Offenbach am Main, Stadt","type":"Kreisfreie_Stadt"},"district":{"key":"06413","name":"Offenbach am Main, Stadt","type":"Kreisfreie_Stadt"},"federalState":{"key":"06","name":"Hessen"}},{"name":"Wintergasse","postalCode":"63075","locality":"Offenbach am Main","municipality":{"key":"06413000","name":"Offenbach am Main, Stadt","type":"Kreisfreie_Stadt"},"district":{"key":"06413","name":"Offenbach am Main, Stadt","type":"Kreisfreie_Stadt"},"federalState":{"key":"06","name":"Hessen"}},{"name":"Wolframstr.","postalCode":"63067","locality":"Offenbach am Main","municipality":{"key":"06413000","name":"Offenbach am Main, Stadt","type":"Kreisfreie_Stadt"},"district":{"key":"06413","name":"Offenbach am Main, Stadt","type":"Kreisfreie_Stadt"},"federalState":{"key":"06","name":"Hessen"}},{"name":"Wolfsheckenweg","postalCode":"63073","locality":"Offenbach am Main","municipality":{"key":"06413000","name":"Offenbach am Main, Stadt","type":"Kreisfreie_Stadt"},"district":{"key":"06413","name":"Offenbach am Main, Stadt","type":"Kreisfreie_Stadt"},"federalState":{"key":"06","name":"Hessen"}},{"name":"Würzburger Str.","postalCode":"63073","locality":"Offenbach am Main","municipality":{"key":"06413000","name":"Offenbach am Main, Stadt","type":"Kreisfreie_Stadt"},"district":{"key":"06413","name":"Offenbach am Main, Stadt","type":"Kreisfreie_Stadt"},"federalState":{"key":"06","name":"Hessen"}},{"name":"Yorckstr.","postalCode":"63073","locality":"Offenbach am Main","municipality":{"key":"06413000","name":"Offenbach am Main, Stadt","type":"Kreisfreie_Stadt"},"district":{"key":"06413","name":"Offenbach am Main, Stadt","type":"Kreisfreie_Stadt"},"federalState":{"key":"06","name":"Hessen"}},{"name":"Ziegelstr.","postalCode":"63065","locality":"Offenbach am Main","municipality":{"key":"06413000","name":"Offenbach am Main, Stadt","type":"Kreisfreie_Stadt"},"district":{"key":"06413","name":"Offenbach am Main, Stadt","type":"Kreisfreie_Stadt"},"federalState":{"key":"06","name":"Hessen"}},{"name":"Zu den Mainwiesen","postalCode":"63075","locality":"Offenbach am Main","municipality":{"key":"06413000","name":"Offenbach am Main, Stadt","type":"Kreisfreie_Stadt"},"district":{"key":"06413","name":"Offenbach am Main, Stadt","type":"Kreisfreie_Stadt"},"federalState":{"key":"06","name":"Hessen"}},{"name":"Zum Mühler","postalCode":"63075","locality":"Offenbach am Main","municipality":{"key":"06413000","name":"Offenbach am Main, Stadt","type":"Kreisfreie_Stadt"},"district":{"key":"06413","name":"Offenbach am Main, Stadt","type":"Kreisfreie_Stadt"},"federalState":{"key":"06","name":"Hessen"}},{"name":"Zwingerweg","postalCode":"63069","locality":"Offenbach am Main","municipality":{"key":"06413000","name":"Offenbach am Main, Stadt","type":"Kreisfreie_Stadt"},"district":{"key":"06413","name":"Offenbach am Main, Stadt","type":"Kreisfreie_Stadt"},"federalState":{"key":"06","name":"Hessen"}},{"name":"Änne-Salzmann-Platz","postalCode":"63075","locality":"Offenbach am Main","municipality":{"key":"06413000","name":"Offenbach am Main, Stadt","type":"Kreisfreie_Stadt"},"district":{"key":"06413","name":"Offenbach am Main, Stadt","type":"Kreisfreie_Stadt"},"federalState":{"key":"06","name":"Hessen"}},]