[{"name":"Grabenstr.","postalCode":"54655","locality":"Malbergweich","municipality":{"key":"07232076","name":"Malbergweich","type":"Kreisangehörige_Gemeinde"},"district":{"key":"07232","name":"Eifelkreis Bitburg-Prüm","type":"Landkreis"},"federalState":{"key":"07","name":"Rheinland-Pfalz"}},{"name":"Hauptstr.","postalCode":"54655","locality":"Malbergweich","municipality":{"key":"07232076","name":"Malbergweich","type":"Kreisangehörige_Gemeinde"},"district":{"key":"07232","name":"Eifelkreis Bitburg-Prüm","type":"Landkreis"},"federalState":{"key":"07","name":"Rheinland-Pfalz"}},{"name":"Im Kreuzenberg","postalCode":"54655","locality":"Malbergweich","municipality":{"key":"07232076","name":"Malbergweich","type":"Kreisangehörige_Gemeinde"},"district":{"key":"07232","name":"Eifelkreis Bitburg-Prüm","type":"Landkreis"},"federalState":{"key":"07","name":"Rheinland-Pfalz"}},{"name":"L 34","postalCode":"54655","locality":"Malbergweich","municipality":{"key":"07232076","name":"Malbergweich","type":"Kreisangehörige_Gemeinde"},"district":{"key":"07232","name":"Eifelkreis Bitburg-Prüm","type":"Landkreis"},"federalState":{"key":"07","name":"Rheinland-Pfalz"}},{"name":"Neidenbacher Str.","postalCode":"54655","locality":"Malbergweich","municipality":{"key":"07232076","name":"Malbergweich","type":"Kreisangehörige_Gemeinde"},"district":{"key":"07232","name":"Eifelkreis Bitburg-Prüm","type":"Landkreis"},"federalState":{"key":"07","name":"Rheinland-Pfalz"}},{"name":"Schulstr.","postalCode":"54655","locality":"Malbergweich","municipality":{"key":"07232076","name":"Malbergweich","type":"Kreisangehörige_Gemeinde"},"district":{"key":"07232","name":"Eifelkreis Bitburg-Prüm","type":"Landkreis"},"federalState":{"key":"07","name":"Rheinland-Pfalz"}},{"name":"Sportplatzstr.","postalCode":"54655","locality":"Malbergweich","municipality":{"key":"07232076","name":"Malbergweich","type":"Kreisangehörige_Gemeinde"},"district":{"key":"07232","name":"Eifelkreis Bitburg-Prüm","type":"Landkreis"},"federalState":{"key":"07","name":"Rheinland-Pfalz"}},{"name":"Talweg","postalCode":"54655","locality":"Malbergweich","municipality":{"key":"07232076","name":"Malbergweich","type":"Kreisangehörige_Gemeinde"},"district":{"key":"07232","name":"Eifelkreis Bitburg-Prüm","type":"Landkreis"},"federalState":{"key":"07","name":"Rheinland-Pfalz"}},{"name":"Zum Steinacker","postalCode":"54655","locality":"Malbergweich","municipality":{"key":"07232076","name":"Malbergweich","type":"Kreisangehörige_Gemeinde"},"district":{"key":"07232","name":"Eifelkreis Bitburg-Prüm","type":"Landkreis"},"federalState":{"key":"07","name":"Rheinland-Pfalz"}},]