[{"name":"1000m Gerade","postalCode":"84174","locality":"Eching","municipality":{"key":"09274124","name":"Eching","type":"Kreisangehörige_Gemeinde"},"district":{"key":"09274","name":"Landshut","type":"Landkreis"},"federalState":{"key":"09","name":"Bayern"}},{"name":"Aalweg","postalCode":"84174","locality":"Eching","municipality":{"key":"09274124","name":"Eching","type":"Kreisangehörige_Gemeinde"},"district":{"key":"09274","name":"Landshut","type":"Landkreis"},"federalState":{"key":"09","name":"Bayern"}},{"name":"Abweg","postalCode":"75391","locality":"Gechingen","municipality":{"key":"08235029","name":"Gechingen","type":"Kreisangehörige_Gemeinde"},"district":{"key":"08235","name":"Calw","type":"Landkreis"},"federalState":{"key":"08","name":"Baden-Württemberg"}},{"name":"Achalmstr.","postalCode":"72379","locality":"Hechingen","municipality":{"key":"08417031","name":"Hechingen, Stadt","type":"Stadt"},"district":{"key":"08417","name":"Zollernalbkreis","type":"Landkreis"},"federalState":{"key":"08","name":"Baden-Württemberg"}},{"name":"Achatsmühle","postalCode":"84174","locality":"Eching","municipality":{"key":"09274124","name":"Eching","type":"Kreisangehörige_Gemeinde"},"district":{"key":"09274","name":"Landshut","type":"Landkreis"},"federalState":{"key":"09","name":"Bayern"}},{"name":"Achberg","postalCode":"83259","locality":"Schleching","municipality":{"key":"09189141","name":"Schleching","type":"Kreisangehörige_Gemeinde"},"district":{"key":"09189","name":"Traunstein","type":"Landkreis"},"federalState":{"key":"09","name":"Bayern"}},{"name":"Achenfeldweg","postalCode":"83259","locality":"Schleching","municipality":{"key":"09189141","name":"Schleching","type":"Kreisangehörige_Gemeinde"},"district":{"key":"09189","name":"Traunstein","type":"Landkreis"},"federalState":{"key":"09","name":"Bayern"}},{"name":"Achentalstr.","postalCode":"83259","locality":"Schleching","municipality":{"key":"09189141","name":"Schleching","type":"Kreisangehörige_Gemeinde"},"district":{"key":"09189","name":"Traunstein","type":"Landkreis"},"federalState":{"key":"09","name":"Bayern"}},{"name":"Adelmannweg","postalCode":"73579","locality":"Schechingen","municipality":{"key":"08136062","name":"Schechingen","type":"Kreisangehörige_Gemeinde"},"district":{"key":"08136","name":"Ostalbkreis","type":"Landkreis"},"federalState":{"key":"08","name":"Baden-Württemberg"}},{"name":"Adolph-Kolping-Str.","postalCode":"72379","locality":"Hechingen","municipality":{"key":"08417031","name":"Hechingen, Stadt","type":"Stadt"},"district":{"key":"08417","name":"Zollernalbkreis","type":"Landkreis"},"federalState":{"key":"08","name":"Baden-Württemberg"}},{"name":"Ahornstr.","postalCode":"84174","locality":"Eching","municipality":{"key":"09274124","name":"Eching","type":"Kreisangehörige_Gemeinde"},"district":{"key":"09274","name":"Landshut","type":"Landkreis"},"federalState":{"key":"09","name":"Bayern"}},{"name":"Ahornweg","postalCode":"85386","locality":"Eching","municipality":{"key":"09178120","name":"Eching","type":"Kreisangehörige_Gemeinde"},"district":{"key":"09178","name":"Freising","type":"Landkreis"},"federalState":{"key":"09","name":"Bayern"}},{"name":"Akazienweg","postalCode":"75391","locality":"Gechingen","municipality":{"key":"08235029","name":"Gechingen","type":"Kreisangehörige_Gemeinde"},"district":{"key":"08235","name":"Calw","type":"Landkreis"},"federalState":{"key":"08","name":"Baden-Württemberg"}},{"name":"Albert-Camus-Str.","postalCode":"85386","locality":"Eching","municipality":{"key":"09178120","name":"Eching","type":"Kreisangehörige_Gemeinde"},"district":{"key":"09178","name":"Freising","type":"Landkreis"},"federalState":{"key":"09","name":"Bayern"}},{"name":"Albert-Einstein-Str.","postalCode":"72379","locality":"Hechingen","municipality":{"key":"08417031","name":"Hechingen, Stadt","type":"Stadt"},"district":{"key":"08417","name":"Zollernalbkreis","type":"Landkreis"},"federalState":{"key":"08","name":"Baden-Württemberg"}},{"name":"Albert-Schweitzer-Weg","postalCode":"72379","locality":"Hechingen","municipality":{"key":"08417031","name":"Hechingen, Stadt","type":"Stadt"},"district":{"key":"08417","name":"Zollernalbkreis","type":"Landkreis"},"federalState":{"key":"08","name":"Baden-Württemberg"}},{"name":"Albstr.","postalCode":"72379","locality":"Hechingen","municipality":{"key":"08417031","name":"Hechingen, Stadt","type":"Stadt"},"district":{"key":"08417","name":"Zollernalbkreis","type":"Landkreis"},"federalState":{"key":"08","name":"Baden-Württemberg"}},{"name":"Albstr.","postalCode":"73579","locality":"Schechingen","municipality":{"key":"08136062","name":"Schechingen","type":"Kreisangehörige_Gemeinde"},"district":{"key":"08136","name":"Ostalbkreis","type":"Landkreis"},"federalState":{"key":"08","name":"Baden-Württemberg"}},{"name":"Alemannenstr.","postalCode":"72379","locality":"Hechingen","municipality":{"key":"08417031","name":"Hechingen, Stadt","type":"Stadt"},"district":{"key":"08417","name":"Zollernalbkreis","type":"Landkreis"},"federalState":{"key":"08","name":"Baden-Württemberg"}},{"name":"Alemannenstr.","postalCode":"75391","locality":"Gechingen","municipality":{"key":"08235029","name":"Gechingen","type":"Kreisangehörige_Gemeinde"},"district":{"key":"08235","name":"Calw","type":"Landkreis"},"federalState":{"key":"08","name":"Baden-Württemberg"}},{"name":"Alfred-Delp-Str.","postalCode":"85386","locality":"Eching","municipality":{"key":"09178120","name":"Eching","type":"Kreisangehörige_Gemeinde"},"district":{"key":"09178","name":"Freising","type":"Landkreis"},"federalState":{"key":"09","name":"Bayern"}},{"name":"Alpbachstr.","postalCode":"83259","locality":"Schleching","municipality":{"key":"09189141","name":"Schleching","type":"Kreisangehörige_Gemeinde"},"district":{"key":"09189","name":"Traunstein","type":"Landkreis"},"federalState":{"key":"09","name":"Bayern"}},{"name":"Alpweg","postalCode":"83259","locality":"Schleching","municipality":{"key":"09189141","name":"Schleching","type":"Kreisangehörige_Gemeinde"},"district":{"key":"09189","name":"Traunstein","type":"Landkreis"},"federalState":{"key":"09","name":"Bayern"}},{"name":"Alte Bergstr.","postalCode":"84174","locality":"Eching","municipality":{"key":"09274124","name":"Eching","type":"Kreisangehörige_Gemeinde"},"district":{"key":"09274","name":"Landshut","type":"Landkreis"},"federalState":{"key":"09","name":"Bayern"}},{"name":"Alte Rottenburger Str.","postalCode":"72379","locality":"Hechingen","municipality":{"key":"08417031","name":"Hechingen, Stadt","type":"Stadt"},"district":{"key":"08417","name":"Zollernalbkreis","type":"Landkreis"},"federalState":{"key":"08","name":"Baden-Württemberg"}},{"name":"Alte Str.","postalCode":"72379","locality":"Hechingen","municipality":{"key":"08417031","name":"Hechingen, Stadt","type":"Stadt"},"district":{"key":"08417","name":"Zollernalbkreis","type":"Landkreis"},"federalState":{"key":"08","name":"Baden-Württemberg"}},{"name":"Alte Ziegelei","postalCode":"85386","locality":"Eching","municipality":{"key":"09178120","name":"Eching","type":"Kreisangehörige_Gemeinde"},"district":{"key":"09178","name":"Freising","type":"Landkreis"},"federalState":{"key":"09","name":"Bayern"}},{"name":"Althengstetter Str.","postalCode":"75391","locality":"Gechingen","municipality":{"key":"08235029","name":"Gechingen","type":"Kreisangehörige_Gemeinde"},"district":{"key":"08235","name":"Calw","type":"Landkreis"},"federalState":{"key":"08","name":"Baden-Württemberg"}},{"name":"Am Anger","postalCode":"82279","locality":"Eching am Ammersee","municipality":{"key":"09181115","name":"Eching am Ammersee","type":"Kreisangehörige_Gemeinde"},"district":{"key":"09181","name":"Landsberg am Lech","type":"Landkreis"},"federalState":{"key":"09","name":"Bayern"}},{"name":"Am Anger","postalCode":"84174","locality":"Eching","municipality":{"key":"09274124","name":"Eching","type":"Kreisangehörige_Gemeinde"},"district":{"key":"09274","name":"Landshut","type":"Landkreis"},"federalState":{"key":"09","name":"Bayern"}},{"name":"Am Anger","postalCode":"85386","locality":"Eching","municipality":{"key":"09178120","name":"Eching","type":"Kreisangehörige_Gemeinde"},"district":{"key":"09178","name":"Freising","type":"Landkreis"},"federalState":{"key":"09","name":"Bayern"}},{"name":"Am Bachl","postalCode":"84174","locality":"Eching","municipality":{"key":"09274124","name":"Eching","type":"Kreisangehörige_Gemeinde"},"district":{"key":"09274","name":"Landshut","type":"Landkreis"},"federalState":{"key":"09","name":"Bayern"}},{"name":"Am Baumgraben","postalCode":"84174","locality":"Eching","municipality":{"key":"09274124","name":"Eching","type":"Kreisangehörige_Gemeinde"},"district":{"key":"09274","name":"Landshut","type":"Landkreis"},"federalState":{"key":"09","name":"Bayern"}},{"name":"Am Berg","postalCode":"72379","locality":"Hechingen","municipality":{"key":"08417031","name":"Hechingen, Stadt","type":"Stadt"},"district":{"key":"08417","name":"Zollernalbkreis","type":"Landkreis"},"federalState":{"key":"08","name":"Baden-Württemberg"}},{"name":"Am Bichel","postalCode":"86759","locality":"Wechingen","municipality":{"key":"09779226","name":"Wechingen","type":"Kreisangehörige_Gemeinde"},"district":{"key":"09779","name":"Donau-Ries","type":"Landkreis"},"federalState":{"key":"09","name":"Bayern"}},{"name":"Am Dorfbrunnen","postalCode":"72379","locality":"Hechingen","municipality":{"key":"08417031","name":"Hechingen, Stadt","type":"Stadt"},"district":{"key":"08417","name":"Zollernalbkreis","type":"Landkreis"},"federalState":{"key":"08","name":"Baden-Württemberg"}},{"name":"Am Erlbach","postalCode":"84174","locality":"Eching","municipality":{"key":"09274124","name":"Eching","type":"Kreisangehörige_Gemeinde"},"district":{"key":"09274","name":"Landshut","type":"Landkreis"},"federalState":{"key":"09","name":"Bayern"}},{"name":"Am Ettenbach","postalCode":"72379","locality":"Hechingen","municipality":{"key":"08417031","name":"Hechingen, Stadt","type":"Stadt"},"district":{"key":"08417","name":"Zollernalbkreis","type":"Landkreis"},"federalState":{"key":"08","name":"Baden-Württemberg"}},{"name":"Am Fasanengarten","postalCode":"72379","locality":"Hechingen","municipality":{"key":"08417031","name":"Hechingen, Stadt","type":"Stadt"},"district":{"key":"08417","name":"Zollernalbkreis","type":"Landkreis"},"federalState":{"key":"08","name":"Baden-Württemberg"}},{"name":"Am Feldrain","postalCode":"84174","locality":"Eching","municipality":{"key":"09274124","name":"Eching","type":"Kreisangehörige_Gemeinde"},"district":{"key":"09274","name":"Landshut","type":"Landkreis"},"federalState":{"key":"09","name":"Bayern"}},{"name":"Am Fichtenwald","postalCode":"72379","locality":"Hechingen","municipality":{"key":"08417031","name":"Hechingen, Stadt","type":"Stadt"},"district":{"key":"08417","name":"Zollernalbkreis","type":"Landkreis"},"federalState":{"key":"08","name":"Baden-Württemberg"}},{"name":"Am Freibad","postalCode":"73579","locality":"Schechingen","municipality":{"key":"08136062","name":"Schechingen","type":"Kreisangehörige_Gemeinde"},"district":{"key":"08136","name":"Ostalbkreis","type":"Landkreis"},"federalState":{"key":"08","name":"Baden-Württemberg"}},{"name":"Am Fretz","postalCode":"85386","locality":"Eching","municipality":{"key":"09178120","name":"Eching","type":"Kreisangehörige_Gemeinde"},"district":{"key":"09178","name":"Freising","type":"Landkreis"},"federalState":{"key":"09","name":"Bayern"}},{"name":"Am Fürstengarten","postalCode":"72379","locality":"Hechingen","municipality":{"key":"08417031","name":"Hechingen, Stadt","type":"Stadt"},"district":{"key":"08417","name":"Zollernalbkreis","type":"Landkreis"},"federalState":{"key":"08","name":"Baden-Württemberg"}},{"name":"Am Gänsfuß","postalCode":"82279","locality":"Eching am Ammersee","municipality":{"key":"09181115","name":"Eching am Ammersee","type":"Kreisangehörige_Gemeinde"},"district":{"key":"09181","name":"Landsberg am Lech","type":"Landkreis"},"federalState":{"key":"09","name":"Bayern"}},{"name":"Am Gässerl","postalCode":"82279","locality":"Eching am Ammersee","municipality":{"key":"09181115","name":"Eching am Ammersee","type":"Kreisangehörige_Gemeinde"},"district":{"key":"09181","name":"Landsberg am Lech","type":"Landkreis"},"federalState":{"key":"09","name":"Bayern"}},{"name":"Am Geflügelhof","postalCode":"85386","locality":"Eching","municipality":{"key":"09178120","name":"Eching","type":"Kreisangehörige_Gemeinde"},"district":{"key":"09178","name":"Freising","type":"Landkreis"},"federalState":{"key":"09","name":"Bayern"}},{"name":"Am Graben","postalCode":"72379","locality":"Hechingen","municipality":{"key":"08417031","name":"Hechingen, Stadt","type":"Stadt"},"district":{"key":"08417","name":"Zollernalbkreis","type":"Landkreis"},"federalState":{"key":"08","name":"Baden-Württemberg"}},{"name":"Am Hag","postalCode":"72379","locality":"Hechingen","municipality":{"key":"08417031","name":"Hechingen, Stadt","type":"Stadt"},"district":{"key":"08417","name":"Zollernalbkreis","type":"Landkreis"},"federalState":{"key":"08","name":"Baden-Württemberg"}},{"name":"Am Haller","postalCode":"84174","locality":"Eching","municipality":{"key":"09274124","name":"Eching","type":"Kreisangehörige_Gemeinde"},"district":{"key":"09274","name":"Landshut","type":"Landkreis"},"federalState":{"key":"09","name":"Bayern"}},{"name":"Am Hang","postalCode":"82279","locality":"Eching am Ammersee","municipality":{"key":"09181115","name":"Eching am Ammersee","type":"Kreisangehörige_Gemeinde"},"district":{"key":"09181","name":"Landsberg am Lech","type":"Landkreis"},"federalState":{"key":"09","name":"Bayern"}},{"name":"Bachgasse","postalCode":"73579","locality":"Schechingen","municipality":{"key":"08136062","name":"Schechingen","type":"Kreisangehörige_Gemeinde"},"district":{"key":"08136","name":"Ostalbkreis","type":"Landkreis"},"federalState":{"key":"08","name":"Baden-Württemberg"}},{"name":"Bachstr.","postalCode":"72379","locality":"Hechingen","municipality":{"key":"08417031","name":"Hechingen, Stadt","type":"Stadt"},"district":{"key":"08417","name":"Zollernalbkreis","type":"Landkreis"},"federalState":{"key":"08","name":"Baden-Württemberg"}},{"name":"Bachstr.","postalCode":"84174","locality":"Eching","municipality":{"key":"09274124","name":"Eching","type":"Kreisangehörige_Gemeinde"},"district":{"key":"09274","name":"Landshut","type":"Landkreis"},"federalState":{"key":"09","name":"Bayern"}},{"name":"Badstr.","postalCode":"72379","locality":"Hechingen","municipality":{"key":"08417031","name":"Hechingen, Stadt","type":"Stadt"},"district":{"key":"08417","name":"Zollernalbkreis","type":"Landkreis"},"federalState":{"key":"08","name":"Baden-Württemberg"}},{"name":"Badstr.","postalCode":"73579","locality":"Schechingen","municipality":{"key":"08136062","name":"Schechingen","type":"Kreisangehörige_Gemeinde"},"district":{"key":"08136","name":"Ostalbkreis","type":"Landkreis"},"federalState":{"key":"08","name":"Baden-Württemberg"}},{"name":"Bahnhofstr.","postalCode":"72379","locality":"Hechingen","municipality":{"key":"08417031","name":"Hechingen, Stadt","type":"Stadt"},"district":{"key":"08417","name":"Zollernalbkreis","type":"Landkreis"},"federalState":{"key":"08","name":"Baden-Württemberg"}},{"name":"Bahnhofstr.","postalCode":"85386","locality":"Eching","municipality":{"key":"09178120","name":"Eching","type":"Kreisangehörige_Gemeinde"},"district":{"key":"09178","name":"Freising","type":"Landkreis"},"federalState":{"key":"09","name":"Bayern"}},{"name":"Bahnhofstr.","postalCode":"86759","locality":"Wechingen","municipality":{"key":"09779226","name":"Wechingen","type":"Kreisangehörige_Gemeinde"},"district":{"key":"09779","name":"Donau-Ries","type":"Landkreis"},"federalState":{"key":"09","name":"Bayern"}},{"name":"Bahnhof Zollern","postalCode":"72379","locality":"Hechingen","municipality":{"key":"08417031","name":"Hechingen, Stadt","type":"Stadt"},"district":{"key":"08417","name":"Zollernalbkreis","type":"Landkreis"},"federalState":{"key":"08","name":"Baden-Württemberg"}},{"name":"Banater Weg","postalCode":"72379","locality":"Hechingen","municipality":{"key":"08417031","name":"Hechingen, Stadt","type":"Stadt"},"district":{"key":"08417","name":"Zollernalbkreis","type":"Landkreis"},"federalState":{"key":"08","name":"Baden-Württemberg"}},{"name":"Bandelgasse","postalCode":"73579","locality":"Schechingen","municipality":{"key":"08136062","name":"Schechingen","type":"Kreisangehörige_Gemeinde"},"district":{"key":"08136","name":"Ostalbkreis","type":"Landkreis"},"federalState":{"key":"08","name":"Baden-Württemberg"}},{"name":"Bannholzstr.","postalCode":"73579","locality":"Schechingen","municipality":{"key":"08136062","name":"Schechingen","type":"Kreisangehörige_Gemeinde"},"district":{"key":"08136","name":"Ostalbkreis","type":"Landkreis"},"federalState":{"key":"08","name":"Baden-Württemberg"}},{"name":"Barbarossastr.","postalCode":"73579","locality":"Schechingen","municipality":{"key":"08136062","name":"Schechingen","type":"Kreisangehörige_Gemeinde"},"district":{"key":"08136","name":"Ostalbkreis","type":"Landkreis"},"federalState":{"key":"08","name":"Baden-Württemberg"}},{"name":"Barthl-Mayer-Weg","postalCode":"85386","locality":"Eching","municipality":{"key":"09178120","name":"Eching","type":"Kreisangehörige_Gemeinde"},"district":{"key":"09178","name":"Freising","type":"Landkreis"},"federalState":{"key":"09","name":"Bayern"}},{"name":"Batschkaweg","postalCode":"72379","locality":"Hechingen","municipality":{"key":"08417031","name":"Hechingen, Stadt","type":"Stadt"},"district":{"key":"08417","name":"Zollernalbkreis","type":"Landkreis"},"federalState":{"key":"08","name":"Baden-Württemberg"}},{"name":"Baumgartenstr.","postalCode":"72379","locality":"Hechingen","municipality":{"key":"08417031","name":"Hechingen, Stadt","type":"Stadt"},"district":{"key":"08417","name":"Zollernalbkreis","type":"Landkreis"},"federalState":{"key":"08","name":"Baden-Württemberg"}},{"name":"Bäumlesweg","postalCode":"73579","locality":"Schechingen","municipality":{"key":"08136062","name":"Schechingen","type":"Kreisangehörige_Gemeinde"},"district":{"key":"08136","name":"Ostalbkreis","type":"Landkreis"},"federalState":{"key":"08","name":"Baden-Württemberg"}},{"name":"Baustr.","postalCode":"85386","locality":"Eching","municipality":{"key":"09178120","name":"Eching","type":"Kreisangehörige_Gemeinde"},"district":{"key":"09178","name":"Freising","type":"Landkreis"},"federalState":{"key":"09","name":"Bayern"}},{"name":"Beggenegartweg","postalCode":"75391","locality":"Gechingen","municipality":{"key":"08235029","name":"Gechingen","type":"Kreisangehörige_Gemeinde"},"district":{"key":"08235","name":"Calw","type":"Landkreis"},"federalState":{"key":"08","name":"Baden-Württemberg"}},{"name":"Bei der Molke","postalCode":"75391","locality":"Gechingen","municipality":{"key":"08235029","name":"Gechingen","type":"Kreisangehörige_Gemeinde"},"district":{"key":"08235","name":"Calw","type":"Landkreis"},"federalState":{"key":"08","name":"Baden-Württemberg"}},{"name":"Beim Eichhörnle","postalCode":"75391","locality":"Gechingen","municipality":{"key":"08235029","name":"Gechingen","type":"Kreisangehörige_Gemeinde"},"district":{"key":"08235","name":"Calw","type":"Landkreis"},"federalState":{"key":"08","name":"Baden-Württemberg"}},{"name":"Berghofener Str.","postalCode":"84174","locality":"Eching","municipality":{"key":"09274124","name":"Eching","type":"Kreisangehörige_Gemeinde"},"district":{"key":"09274","name":"Landshut","type":"Landkreis"},"federalState":{"key":"09","name":"Bayern"}},{"name":"Bergstr.","postalCode":"72379","locality":"Hechingen","municipality":{"key":"08417031","name":"Hechingen, Stadt","type":"Stadt"},"district":{"key":"08417","name":"Zollernalbkreis","type":"Landkreis"},"federalState":{"key":"08","name":"Baden-Württemberg"}},{"name":"Bergstr.","postalCode":"85386","locality":"Eching","municipality":{"key":"09178120","name":"Eching","type":"Kreisangehörige_Gemeinde"},"district":{"key":"09178","name":"Freising","type":"Landkreis"},"federalState":{"key":"09","name":"Bayern"}},{"name":"Bergwaldsteige","postalCode":"75391","locality":"Gechingen","municipality":{"key":"08235029","name":"Gechingen","type":"Kreisangehörige_Gemeinde"},"district":{"key":"08235","name":"Calw","type":"Landkreis"},"federalState":{"key":"08","name":"Baden-Württemberg"}},{"name":"Bergwaldstr.","postalCode":"75391","locality":"Gechingen","municipality":{"key":"08235029","name":"Gechingen","type":"Kreisangehörige_Gemeinde"},"district":{"key":"08235","name":"Calw","type":"Landkreis"},"federalState":{"key":"08","name":"Baden-Württemberg"}},{"name":"Bergweg","postalCode":"72379","locality":"Hechingen","municipality":{"key":"08417031","name":"Hechingen, Stadt","type":"Stadt"},"district":{"key":"08417","name":"Zollernalbkreis","type":"Landkreis"},"federalState":{"key":"08","name":"Baden-Württemberg"}},{"name":"Bernerstr.","postalCode":"72379","locality":"Hechingen","municipality":{"key":"08417031","name":"Hechingen, Stadt","type":"Stadt"},"district":{"key":"08417","name":"Zollernalbkreis","type":"Landkreis"},"federalState":{"key":"08","name":"Baden-Württemberg"}},{"name":"Bernhard-Lichtenberg-Str.","postalCode":"85386","locality":"Eching","municipality":{"key":"09178120","name":"Eching","type":"Kreisangehörige_Gemeinde"},"district":{"key":"09178","name":"Freising","type":"Landkreis"},"federalState":{"key":"09","name":"Bayern"}},{"name":"Bert-Brecht-Str.","postalCode":"85386","locality":"Eching","municipality":{"key":"09178120","name":"Eching","type":"Kreisangehörige_Gemeinde"},"district":{"key":"09178","name":"Freising","type":"Landkreis"},"federalState":{"key":"09","name":"Bayern"}},{"name":"Beund","postalCode":"72379","locality":"Hechingen","municipality":{"key":"08417031","name":"Hechingen, Stadt","type":"Stadt"},"district":{"key":"08417","name":"Zollernalbkreis","type":"Landkreis"},"federalState":{"key":"08","name":"Baden-Württemberg"}},{"name":"Beurener Str.","postalCode":"72379","locality":"Hechingen","municipality":{"key":"08417031","name":"Hechingen, Stadt","type":"Stadt"},"district":{"key":"08417","name":"Zollernalbkreis","type":"Landkreis"},"federalState":{"key":"08","name":"Baden-Württemberg"}},{"name":"Bichlfeldstr.","postalCode":"83259","locality":"Schleching","municipality":{"key":"09189141","name":"Schleching","type":"Kreisangehörige_Gemeinde"},"district":{"key":"09189","name":"Traunstein","type":"Landkreis"},"federalState":{"key":"09","name":"Bayern"}},{"name":"Bichlmannstr.","postalCode":"84174","locality":"Eching","municipality":{"key":"09274124","name":"Eching","type":"Kreisangehörige_Gemeinde"},"district":{"key":"09274","name":"Landshut","type":"Landkreis"},"federalState":{"key":"09","name":"Bayern"}},{"name":"Bierweg","postalCode":"72379","locality":"Hechingen","municipality":{"key":"08417031","name":"Hechingen, Stadt","type":"Stadt"},"district":{"key":"08417","name":"Zollernalbkreis","type":"Landkreis"},"federalState":{"key":"08","name":"Baden-Württemberg"}},{"name":"Bildäckerstr.","postalCode":"72379","locality":"Hechingen","municipality":{"key":"08417031","name":"Hechingen, Stadt","type":"Stadt"},"district":{"key":"08417","name":"Zollernalbkreis","type":"Landkreis"},"federalState":{"key":"08","name":"Baden-Württemberg"}},{"name":"Bins","postalCode":"72379","locality":"Hechingen","municipality":{"key":"08417031","name":"Hechingen, Stadt","type":"Stadt"},"district":{"key":"08417","name":"Zollernalbkreis","type":"Landkreis"},"federalState":{"key":"08","name":"Baden-Württemberg"}},{"name":"Birkenstr.","postalCode":"84174","locality":"Eching","municipality":{"key":"09274124","name":"Eching","type":"Kreisangehörige_Gemeinde"},"district":{"key":"09274","name":"Landshut","type":"Landkreis"},"federalState":{"key":"09","name":"Bayern"}},{"name":"Birkenweg","postalCode":"72379","locality":"Hechingen","municipality":{"key":"08417031","name":"Hechingen, Stadt","type":"Stadt"},"district":{"key":"08417","name":"Zollernalbkreis","type":"Landkreis"},"federalState":{"key":"08","name":"Baden-Württemberg"}},{"name":"Birkenweg","postalCode":"85386","locality":"Eching","municipality":{"key":"09178120","name":"Eching","type":"Kreisangehörige_Gemeinde"},"district":{"key":"09178","name":"Freising","type":"Landkreis"},"federalState":{"key":"09","name":"Bayern"}},{"name":"Birnenstr.","postalCode":"84174","locality":"Eching","municipality":{"key":"09274124","name":"Eching","type":"Kreisangehörige_Gemeinde"},"district":{"key":"09274","name":"Landshut","type":"Landkreis"},"federalState":{"key":"09","name":"Bayern"}},{"name":"Bischof-Anno-Platz","postalCode":"85386","locality":"Eching","municipality":{"key":"09178120","name":"Eching","type":"Kreisangehörige_Gemeinde"},"district":{"key":"09178","name":"Freising","type":"Landkreis"},"federalState":{"key":"09","name":"Bayern"}},{"name":"Bisinger Str.","postalCode":"72379","locality":"Hechingen","municipality":{"key":"08417031","name":"Hechingen, Stadt","type":"Stadt"},"district":{"key":"08417","name":"Zollernalbkreis","type":"Landkreis"},"federalState":{"key":"08","name":"Baden-Württemberg"}},{"name":"Bismarckstr.","postalCode":"72379","locality":"Hechingen","municipality":{"key":"08417031","name":"Hechingen, Stadt","type":"Stadt"},"district":{"key":"08417","name":"Zollernalbkreis","type":"Landkreis"},"federalState":{"key":"08","name":"Baden-Württemberg"}},{"name":"Bleichbergstr.","postalCode":"72379","locality":"Hechingen","municipality":{"key":"08417031","name":"Hechingen, Stadt","type":"Stadt"},"district":{"key":"08417","name":"Zollernalbkreis","type":"Landkreis"},"federalState":{"key":"08","name":"Baden-Württemberg"}},{"name":"Blumenstetterstr.","postalCode":"72379","locality":"Hechingen","municipality":{"key":"08417031","name":"Hechingen, Stadt","type":"Stadt"},"district":{"key":"08417","name":"Zollernalbkreis","type":"Landkreis"},"federalState":{"key":"08","name":"Baden-Württemberg"}},{"name":"Blumenweg","postalCode":"72379","locality":"Hechingen","municipality":{"key":"08417031","name":"Hechingen, Stadt","type":"Stadt"},"district":{"key":"08417","name":"Zollernalbkreis","type":"Landkreis"},"federalState":{"key":"08","name":"Baden-Württemberg"}},{"name":"Blütenstr.","postalCode":"85386","locality":"Eching","municipality":{"key":"09178120","name":"Eching","type":"Kreisangehörige_Gemeinde"},"district":{"key":"09178","name":"Freising","type":"Landkreis"},"federalState":{"key":"09","name":"Bayern"}},{"name":"Bodelshausener Str.","postalCode":"72379","locality":"Hechingen","municipality":{"key":"08417031","name":"Hechingen, Stadt","type":"Stadt"},"district":{"key":"08417","name":"Zollernalbkreis","type":"Landkreis"},"federalState":{"key":"08","name":"Baden-Württemberg"}},{"name":"Böhmerwaldstr.","postalCode":"85386","locality":"Eching","municipality":{"key":"09178120","name":"Eching","type":"Kreisangehörige_Gemeinde"},"district":{"key":"09178","name":"Freising","type":"Landkreis"},"federalState":{"key":"09","name":"Bayern"}},{"name":"Calwer Str.","postalCode":"75391","locality":"Gechingen","municipality":{"key":"08235029","name":"Gechingen","type":"Kreisangehörige_Gemeinde"},"district":{"key":"08235","name":"Calw","type":"Landkreis"},"federalState":{"key":"08","name":"Baden-Württemberg"}},{"name":"Carl-Baur-Weg","postalCode":"72379","locality":"Hechingen","municipality":{"key":"08417031","name":"Hechingen, Stadt","type":"Stadt"},"district":{"key":"08417","name":"Zollernalbkreis","type":"Landkreis"},"federalState":{"key":"08","name":"Baden-Württemberg"}},{"name":"Dachsweg","postalCode":"75391","locality":"Gechingen","municipality":{"key":"08235029","name":"Gechingen","type":"Kreisangehörige_Gemeinde"},"district":{"key":"08235","name":"Calw","type":"Landkreis"},"federalState":{"key":"08","name":"Baden-Württemberg"}},{"name":"Dachteler Str.","postalCode":"75391","locality":"Gechingen","municipality":{"key":"08235029","name":"Gechingen","type":"Kreisangehörige_Gemeinde"},"district":{"key":"08235","name":"Calw","type":"Landkreis"},"federalState":{"key":"08","name":"Baden-Württemberg"}},{"name":"Dahlienstr.","postalCode":"84174","locality":"Eching","municipality":{"key":"09274124","name":"Eching","type":"Kreisangehörige_Gemeinde"},"district":{"key":"09274","name":"Landshut","type":"Landkreis"},"federalState":{"key":"09","name":"Bayern"}},{"name":"Dahlienweg","postalCode":"75391","locality":"Gechingen","municipality":{"key":"08235029","name":"Gechingen","type":"Kreisangehörige_Gemeinde"},"district":{"key":"08235","name":"Calw","type":"Landkreis"},"federalState":{"key":"08","name":"Baden-Württemberg"}},{"name":"Daimlerstr.","postalCode":"72379","locality":"Hechingen","municipality":{"key":"08417031","name":"Hechingen, Stadt","type":"Stadt"},"district":{"key":"08417","name":"Zollernalbkreis","type":"Landkreis"},"federalState":{"key":"08","name":"Baden-Württemberg"}},{"name":"Daimlerstr.","postalCode":"75391","locality":"Gechingen","municipality":{"key":"08235029","name":"Gechingen","type":"Kreisangehörige_Gemeinde"},"district":{"key":"08235","name":"Calw","type":"Landkreis"},"federalState":{"key":"08","name":"Baden-Württemberg"}},{"name":"Daitenhausener Str.","postalCode":"85386","locality":"Eching","municipality":{"key":"09178120","name":"Eching","type":"Kreisangehörige_Gemeinde"},"district":{"key":"09178","name":"Freising","type":"Landkreis"},"federalState":{"key":"09","name":"Bayern"}},{"name":"Dalsenstr.","postalCode":"83259","locality":"Schleching","municipality":{"key":"09189141","name":"Schleching","type":"Kreisangehörige_Gemeinde"},"district":{"key":"09189","name":"Traunstein","type":"Landkreis"},"federalState":{"key":"09","name":"Bayern"}},{"name":"Danziger Str.","postalCode":"85386","locality":"Eching","municipality":{"key":"09178120","name":"Eching","type":"Kreisangehörige_Gemeinde"},"district":{"key":"09178","name":"Freising","type":"Landkreis"},"federalState":{"key":"09","name":"Bayern"}},{"name":"Deckenpfronner Planie","postalCode":"75391","locality":"Gechingen","municipality":{"key":"08235029","name":"Gechingen","type":"Kreisangehörige_Gemeinde"},"district":{"key":"08235","name":"Calw","type":"Landkreis"},"federalState":{"key":"08","name":"Baden-Württemberg"}},{"name":"derzeit Baustr.","postalCode":"85386","locality":"Eching","municipality":{"key":"09178120","name":"Eching","type":"Kreisangehörige_Gemeinde"},"district":{"key":"09178","name":"Freising","type":"Landkreis"},"federalState":{"key":"09","name":"Bayern"}},{"name":"Dieselstr.","postalCode":"85386","locality":"Eching","municipality":{"key":"09178120","name":"Eching","type":"Kreisangehörige_Gemeinde"},"district":{"key":"09178","name":"Freising","type":"Landkreis"},"federalState":{"key":"09","name":"Bayern"}},{"name":"Dietersheimer Str.","postalCode":"85386","locality":"Eching","municipality":{"key":"09178120","name":"Eching","type":"Kreisangehörige_Gemeinde"},"district":{"key":"09178","name":"Freising","type":"Landkreis"},"federalState":{"key":"09","name":"Bayern"}},{"name":"Dietrich-Bonhoeffer-Str.","postalCode":"85386","locality":"Eching","municipality":{"key":"09178120","name":"Eching","type":"Kreisangehörige_Gemeinde"},"district":{"key":"09178","name":"Freising","type":"Landkreis"},"federalState":{"key":"09","name":"Bayern"}},{"name":"Dinkelstr.","postalCode":"84174","locality":"Eching","municipality":{"key":"09274124","name":"Eching","type":"Kreisangehörige_Gemeinde"},"district":{"key":"09274","name":"Landshut","type":"Landkreis"},"federalState":{"key":"09","name":"Bayern"}},{"name":"Distelweg","postalCode":"75391","locality":"Gechingen","municipality":{"key":"08235029","name":"Gechingen","type":"Kreisangehörige_Gemeinde"},"district":{"key":"08235","name":"Calw","type":"Landkreis"},"federalState":{"key":"08","name":"Baden-Württemberg"}},{"name":"Dominikanerweg","postalCode":"72379","locality":"Hechingen","municipality":{"key":"08417031","name":"Hechingen, Stadt","type":"Stadt"},"district":{"key":"08417","name":"Zollernalbkreis","type":"Landkreis"},"federalState":{"key":"08","name":"Baden-Württemberg"}},{"name":"Donauschwabenstr.","postalCode":"85386","locality":"Eching","municipality":{"key":"09178120","name":"Eching","type":"Kreisangehörige_Gemeinde"},"district":{"key":"09178","name":"Freising","type":"Landkreis"},"federalState":{"key":"09","name":"Bayern"}},{"name":"Dorfäckerstr.","postalCode":"75391","locality":"Gechingen","municipality":{"key":"08235029","name":"Gechingen","type":"Kreisangehörige_Gemeinde"},"district":{"key":"08235","name":"Calw","type":"Landkreis"},"federalState":{"key":"08","name":"Baden-Württemberg"}},{"name":"Dorfstr.","postalCode":"72379","locality":"Hechingen","municipality":{"key":"08417031","name":"Hechingen, Stadt","type":"Stadt"},"district":{"key":"08417","name":"Zollernalbkreis","type":"Landkreis"},"federalState":{"key":"08","name":"Baden-Württemberg"}},{"name":"Dorfstr.","postalCode":"73579","locality":"Schechingen","municipality":{"key":"08136062","name":"Schechingen","type":"Kreisangehörige_Gemeinde"},"district":{"key":"08136","name":"Ostalbkreis","type":"Landkreis"},"federalState":{"key":"08","name":"Baden-Württemberg"}},{"name":"Dorfstr.","postalCode":"84174","locality":"Eching","municipality":{"key":"09274124","name":"Eching","type":"Kreisangehörige_Gemeinde"},"district":{"key":"09274","name":"Landshut","type":"Landkreis"},"federalState":{"key":"09","name":"Bayern"}},{"name":"Dorfstr.","postalCode":"86759","locality":"Wechingen","municipality":{"key":"09779226","name":"Wechingen","type":"Kreisangehörige_Gemeinde"},"district":{"key":"09779","name":"Donau-Ries","type":"Landkreis"},"federalState":{"key":"09","name":"Bayern"}},{"name":"Dreifürstenstr.","postalCode":"72379","locality":"Hechingen","municipality":{"key":"08417031","name":"Hechingen, Stadt","type":"Stadt"},"district":{"key":"08417","name":"Zollernalbkreis","type":"Landkreis"},"federalState":{"key":"08","name":"Baden-Württemberg"}},{"name":"Dresdner Str.","postalCode":"85386","locality":"Eching","municipality":{"key":"09178120","name":"Eching","type":"Kreisangehörige_Gemeinde"},"district":{"key":"09178","name":"Freising","type":"Landkreis"},"federalState":{"key":"09","name":"Bayern"}},{"name":"Drosselweg","postalCode":"72379","locality":"Hechingen","municipality":{"key":"08417031","name":"Hechingen, Stadt","type":"Stadt"},"district":{"key":"08417","name":"Zollernalbkreis","type":"Landkreis"},"federalState":{"key":"08","name":"Baden-Württemberg"}},{"name":"Drosselweg","postalCode":"75391","locality":"Gechingen","municipality":{"key":"08235029","name":"Gechingen","type":"Kreisangehörige_Gemeinde"},"district":{"key":"08235","name":"Calw","type":"Landkreis"},"federalState":{"key":"08","name":"Baden-Württemberg"}},{"name":"Drosselweg","postalCode":"82279","locality":"Eching am Ammersee","municipality":{"key":"09181115","name":"Eching am Ammersee","type":"Kreisangehörige_Gemeinde"},"district":{"key":"09181","name":"Landsberg am Lech","type":"Landkreis"},"federalState":{"key":"09","name":"Bayern"}},{"name":"Ebenau","postalCode":"84174","locality":"Eching","municipality":{"key":"09274124","name":"Eching","type":"Kreisangehörige_Gemeinde"},"district":{"key":"09274","name":"Landshut","type":"Landkreis"},"federalState":{"key":"09","name":"Bayern"}},{"name":"Echinger Str.","postalCode":"85386","locality":"Eching","municipality":{"key":"09178120","name":"Eching","type":"Kreisangehörige_Gemeinde"},"district":{"key":"09178","name":"Freising","type":"Landkreis"},"federalState":{"key":"09","name":"Bayern"}},{"name":"Edith-Stein-Str.","postalCode":"85386","locality":"Eching","municipality":{"key":"09178120","name":"Eching","type":"Kreisangehörige_Gemeinde"},"district":{"key":"09178","name":"Freising","type":"Landkreis"},"federalState":{"key":"09","name":"Bayern"}},{"name":"Egerländerstr.","postalCode":"85386","locality":"Eching","municipality":{"key":"09178120","name":"Eching","type":"Kreisangehörige_Gemeinde"},"district":{"key":"09178","name":"Freising","type":"Landkreis"},"federalState":{"key":"09","name":"Bayern"}},{"name":"Ehrenbergweg","postalCode":"72379","locality":"Hechingen","municipality":{"key":"08417031","name":"Hechingen, Stadt","type":"Stadt"},"district":{"key":"08417","name":"Zollernalbkreis","type":"Landkreis"},"federalState":{"key":"08","name":"Baden-Württemberg"}},{"name":"Ehrenwald","postalCode":"72379","locality":"Hechingen","municipality":{"key":"08417031","name":"Hechingen, Stadt","type":"Stadt"},"district":{"key":"08417","name":"Zollernalbkreis","type":"Landkreis"},"federalState":{"key":"08","name":"Baden-Württemberg"}},{"name":"Eichendorffstr.","postalCode":"75391","locality":"Gechingen","municipality":{"key":"08235029","name":"Gechingen","type":"Kreisangehörige_Gemeinde"},"district":{"key":"08235","name":"Calw","type":"Landkreis"},"federalState":{"key":"08","name":"Baden-Württemberg"}},{"name":"Eichendorffweg","postalCode":"72379","locality":"Hechingen","municipality":{"key":"08417031","name":"Hechingen, Stadt","type":"Stadt"},"district":{"key":"08417","name":"Zollernalbkreis","type":"Landkreis"},"federalState":{"key":"08","name":"Baden-Württemberg"}},{"name":"Eichenstr.","postalCode":"84174","locality":"Eching","municipality":{"key":"09274124","name":"Eching","type":"Kreisangehörige_Gemeinde"},"district":{"key":"09274","name":"Landshut","type":"Landkreis"},"federalState":{"key":"09","name":"Bayern"}},{"name":"Eichenweg","postalCode":"85386","locality":"Eching","municipality":{"key":"09178120","name":"Eching","type":"Kreisangehörige_Gemeinde"},"district":{"key":"09178","name":"Freising","type":"Landkreis"},"federalState":{"key":"09","name":"Bayern"}},{"name":"Eichgasse","postalCode":"72379","locality":"Hechingen","municipality":{"key":"08417031","name":"Hechingen, Stadt","type":"Stadt"},"district":{"key":"08417","name":"Zollernalbkreis","type":"Landkreis"},"federalState":{"key":"08","name":"Baden-Württemberg"}},{"name":"Einäckerstr.","postalCode":"83259","locality":"Schleching","municipality":{"key":"09189141","name":"Schleching","type":"Kreisangehörige_Gemeinde"},"district":{"key":"09189","name":"Traunstein","type":"Landkreis"},"federalState":{"key":"09","name":"Bayern"}},{"name":"Einfangweg","postalCode":"83259","locality":"Schleching","municipality":{"key":"09189141","name":"Schleching","type":"Kreisangehörige_Gemeinde"},"district":{"key":"09189","name":"Traunstein","type":"Landkreis"},"federalState":{"key":"09","name":"Bayern"}},{"name":"Eitel-Fritz-Str.","postalCode":"72379","locality":"Hechingen","municipality":{"key":"08417031","name":"Hechingen, Stadt","type":"Stadt"},"district":{"key":"08417","name":"Zollernalbkreis","type":"Landkreis"},"federalState":{"key":"08","name":"Baden-Württemberg"}},{"name":"Emil-Weil-Weg","postalCode":"72379","locality":"Hechingen","municipality":{"key":"08417031","name":"Hechingen, Stadt","type":"Stadt"},"district":{"key":"08417","name":"Zollernalbkreis","type":"Landkreis"},"federalState":{"key":"08","name":"Baden-Württemberg"}},{"name":"Emperbichlstr.","postalCode":"83259","locality":"Schleching","municipality":{"key":"09189141","name":"Schleching","type":"Kreisangehörige_Gemeinde"},"district":{"key":"09189","name":"Traunstein","type":"Landkreis"},"federalState":{"key":"09","name":"Bayern"}},{"name":"Engelhofstr.","postalCode":"85386","locality":"Eching","municipality":{"key":"09178120","name":"Eching","type":"Kreisangehörige_Gemeinde"},"district":{"key":"09178","name":"Freising","type":"Landkreis"},"federalState":{"key":"09","name":"Bayern"}},{"name":"Engerait","postalCode":"83259","locality":"Schleching","municipality":{"key":"09189141","name":"Schleching","type":"Kreisangehörige_Gemeinde"},"district":{"key":"09189","name":"Traunstein","type":"Landkreis"},"federalState":{"key":"09","name":"Bayern"}},{"name":"Erdinger Str.","postalCode":"84174","locality":"Eching","municipality":{"key":"09274124","name":"Eching","type":"Kreisangehörige_Gemeinde"},"district":{"key":"09274","name":"Landshut","type":"Landkreis"},"federalState":{"key":"09","name":"Bayern"}},{"name":"Erholungsgebiet Hollerner See","postalCode":"85386","locality":"Eching","municipality":{"key":"09178120","name":"Eching","type":"Kreisangehörige_Gemeinde"},"district":{"key":"09178","name":"Freising","type":"Landkreis"},"federalState":{"key":"09","name":"Bayern"}},{"name":"Erlenstr.","postalCode":"72379","locality":"Hechingen","municipality":{"key":"08417031","name":"Hechingen, Stadt","type":"Stadt"},"district":{"key":"08417","name":"Zollernalbkreis","type":"Landkreis"},"federalState":{"key":"08","name":"Baden-Württemberg"}},{"name":"Erlenstr.","postalCode":"84174","locality":"Eching","municipality":{"key":"09274124","name":"Eching","type":"Kreisangehörige_Gemeinde"},"district":{"key":"09274","name":"Landshut","type":"Landkreis"},"federalState":{"key":"09","name":"Bayern"}},{"name":"Erlenweg","postalCode":"75391","locality":"Gechingen","municipality":{"key":"08235029","name":"Gechingen","type":"Kreisangehörige_Gemeinde"},"district":{"key":"08235","name":"Calw","type":"Landkreis"},"federalState":{"key":"08","name":"Baden-Württemberg"}},{"name":"Erlenweg","postalCode":"85386","locality":"Eching","municipality":{"key":"09178120","name":"Eching","type":"Kreisangehörige_Gemeinde"},"district":{"key":"09178","name":"Freising","type":"Landkreis"},"federalState":{"key":"09","name":"Bayern"}},{"name":"Ermelesstr.","postalCode":"72379","locality":"Hechingen","municipality":{"key":"08417031","name":"Hechingen, Stadt","type":"Stadt"},"district":{"key":"08417","name":"Zollernalbkreis","type":"Landkreis"},"federalState":{"key":"08","name":"Baden-Württemberg"}},{"name":"Ernst-Senn-Weg","postalCode":"72379","locality":"Hechingen","municipality":{"key":"08417031","name":"Hechingen, Stadt","type":"Stadt"},"district":{"key":"08417","name":"Zollernalbkreis","type":"Landkreis"},"federalState":{"key":"08","name":"Baden-Württemberg"}},{"name":"Eschenweg","postalCode":"85386","locality":"Eching","municipality":{"key":"09178120","name":"Eching","type":"Kreisangehörige_Gemeinde"},"district":{"key":"09178","name":"Freising","type":"Landkreis"},"federalState":{"key":"09","name":"Bayern"}},{"name":"Eugen-Schuhmacher-Weg","postalCode":"72379","locality":"Hechingen","municipality":{"key":"08417031","name":"Hechingen, Stadt","type":"Stadt"},"district":{"key":"08417","name":"Zollernalbkreis","type":"Landkreis"},"federalState":{"key":"08","name":"Baden-Württemberg"}},{"name":"Europakreisel","postalCode":"72379","locality":"Hechingen","municipality":{"key":"08417031","name":"Hechingen, Stadt","type":"Stadt"},"district":{"key":"08417","name":"Zollernalbkreis","type":"Landkreis"},"federalState":{"key":"08","name":"Baden-Württemberg"}},{"name":"Eveltstr.","postalCode":"72379","locality":"Hechingen","municipality":{"key":"08417031","name":"Hechingen, Stadt","type":"Stadt"},"district":{"key":"08417","name":"Zollernalbkreis","type":"Landkreis"},"federalState":{"key":"08","name":"Baden-Württemberg"}},{"name":"Falkenstr.","postalCode":"75391","locality":"Gechingen","municipality":{"key":"08235029","name":"Gechingen","type":"Kreisangehörige_Gemeinde"},"district":{"key":"08235","name":"Calw","type":"Landkreis"},"federalState":{"key":"08","name":"Baden-Württemberg"}},{"name":"Falkenstr.","postalCode":"84174","locality":"Eching","municipality":{"key":"09274124","name":"Eching","type":"Kreisangehörige_Gemeinde"},"district":{"key":"09274","name":"Landshut","type":"Landkreis"},"federalState":{"key":"09","name":"Bayern"}},{"name":"Fasanenweg","postalCode":"72379","locality":"Hechingen","municipality":{"key":"08417031","name":"Hechingen, Stadt","type":"Stadt"},"district":{"key":"08417","name":"Zollernalbkreis","type":"Landkreis"},"federalState":{"key":"08","name":"Baden-Württemberg"}},{"name":"Fasanenweg","postalCode":"75391","locality":"Gechingen","municipality":{"key":"08235029","name":"Gechingen","type":"Kreisangehörige_Gemeinde"},"district":{"key":"08235","name":"Calw","type":"Landkreis"},"federalState":{"key":"08","name":"Baden-Württemberg"}},{"name":"Fasanenweg","postalCode":"82279","locality":"Eching am Ammersee","municipality":{"key":"09181115","name":"Eching am Ammersee","type":"Kreisangehörige_Gemeinde"},"district":{"key":"09181","name":"Landsberg am Lech","type":"Landkreis"},"federalState":{"key":"09","name":"Bayern"}},{"name":"Fehraltorferweg","postalCode":"72379","locality":"Hechingen","municipality":{"key":"08417031","name":"Hechingen, Stadt","type":"Stadt"},"district":{"key":"08417","name":"Zollernalbkreis","type":"Landkreis"},"federalState":{"key":"08","name":"Baden-Württemberg"}},{"name":"Feldstr.","postalCode":"85386","locality":"Eching","municipality":{"key":"09178120","name":"Eching","type":"Kreisangehörige_Gemeinde"},"district":{"key":"09178","name":"Freising","type":"Landkreis"},"federalState":{"key":"09","name":"Bayern"}},{"name":"Ferdinand-Häusler-Str.","postalCode":"72379","locality":"Hechingen","municipality":{"key":"08417031","name":"Hechingen, Stadt","type":"Stadt"},"district":{"key":"08417","name":"Zollernalbkreis","type":"Landkreis"},"federalState":{"key":"08","name":"Baden-Württemberg"}},{"name":"Ferdinand-Wolf-Str.","postalCode":"72379","locality":"Hechingen","municipality":{"key":"08417031","name":"Hechingen, Stadt","type":"Stadt"},"district":{"key":"08417","name":"Zollernalbkreis","type":"Landkreis"},"federalState":{"key":"08","name":"Baden-Württemberg"}},{"name":"Festplatz","postalCode":"72379","locality":"Hechingen","municipality":{"key":"08417031","name":"Hechingen, Stadt","type":"Stadt"},"district":{"key":"08417","name":"Zollernalbkreis","type":"Landkreis"},"federalState":{"key":"08","name":"Baden-Württemberg"}},{"name":"Fichtenweg","postalCode":"85386","locality":"Eching","municipality":{"key":"09178120","name":"Eching","type":"Kreisangehörige_Gemeinde"},"district":{"key":"09178","name":"Freising","type":"Landkreis"},"federalState":{"key":"09","name":"Bayern"}},{"name":"Finkenstr.","postalCode":"84174","locality":"Eching","municipality":{"key":"09274124","name":"Eching","type":"Kreisangehörige_Gemeinde"},"district":{"key":"09274","name":"Landshut","type":"Landkreis"},"federalState":{"key":"09","name":"Bayern"}},{"name":"Finkenweg","postalCode":"72379","locality":"Hechingen","municipality":{"key":"08417031","name":"Hechingen, Stadt","type":"Stadt"},"district":{"key":"08417","name":"Zollernalbkreis","type":"Landkreis"},"federalState":{"key":"08","name":"Baden-Württemberg"}},{"name":"Finkenweg","postalCode":"75391","locality":"Gechingen","municipality":{"key":"08235029","name":"Gechingen","type":"Kreisangehörige_Gemeinde"},"district":{"key":"08235","name":"Calw","type":"Landkreis"},"federalState":{"key":"08","name":"Baden-Württemberg"}},{"name":"Finkenweg","postalCode":"82279","locality":"Eching am Ammersee","municipality":{"key":"09181115","name":"Eching am Ammersee","type":"Kreisangehörige_Gemeinde"},"district":{"key":"09181","name":"Landsberg am Lech","type":"Landkreis"},"federalState":{"key":"09","name":"Bayern"}},{"name":"Finkenweg","postalCode":"85386","locality":"Eching","municipality":{"key":"09178120","name":"Eching","type":"Kreisangehörige_Gemeinde"},"district":{"key":"09178","name":"Freising","type":"Landkreis"},"federalState":{"key":"09","name":"Bayern"}},{"name":"Firststr.","postalCode":"72379","locality":"Hechingen","municipality":{"key":"08417031","name":"Hechingen, Stadt","type":"Stadt"},"district":{"key":"08417","name":"Zollernalbkreis","type":"Landkreis"},"federalState":{"key":"08","name":"Baden-Württemberg"}},{"name":"Fischerstr.","postalCode":"84174","locality":"Eching","municipality":{"key":"09274124","name":"Eching","type":"Kreisangehörige_Gemeinde"},"district":{"key":"09274","name":"Landshut","type":"Landkreis"},"federalState":{"key":"09","name":"Bayern"}},{"name":"Florianstr.","postalCode":"72379","locality":"Hechingen","municipality":{"key":"08417031","name":"Hechingen, Stadt","type":"Stadt"},"district":{"key":"08417","name":"Zollernalbkreis","type":"Landkreis"},"federalState":{"key":"08","name":"Baden-Württemberg"}},{"name":"Forchenstr.","postalCode":"75391","locality":"Gechingen","municipality":{"key":"08235029","name":"Gechingen","type":"Kreisangehörige_Gemeinde"},"district":{"key":"08235","name":"Calw","type":"Landkreis"},"federalState":{"key":"08","name":"Baden-Württemberg"}},{"name":"Forellenweg","postalCode":"84174","locality":"Eching","municipality":{"key":"09274124","name":"Eching","type":"Kreisangehörige_Gemeinde"},"district":{"key":"09274","name":"Landshut","type":"Landkreis"},"federalState":{"key":"09","name":"Bayern"}},{"name":"Frankstr.","postalCode":"72379","locality":"Hechingen","municipality":{"key":"08417031","name":"Hechingen, Stadt","type":"Stadt"},"district":{"key":"08417","name":"Zollernalbkreis","type":"Landkreis"},"federalState":{"key":"08","name":"Baden-Württemberg"}},{"name":"Frauengartenstr.","postalCode":"72379","locality":"Hechingen","municipality":{"key":"08417031","name":"Hechingen, Stadt","type":"Stadt"},"district":{"key":"08417","name":"Zollernalbkreis","type":"Landkreis"},"federalState":{"key":"08","name":"Baden-Württemberg"}},{"name":"Fraunhoferstr.","postalCode":"85386","locality":"Eching","municipality":{"key":"09178120","name":"Eching","type":"Kreisangehörige_Gemeinde"},"district":{"key":"09178","name":"Freising","type":"Landkreis"},"federalState":{"key":"09","name":"Bayern"}},{"name":"Fred-West-Str.","postalCode":"72379","locality":"Hechingen","municipality":{"key":"08417031","name":"Hechingen, Stadt","type":"Stadt"},"district":{"key":"08417","name":"Zollernalbkreis","type":"Landkreis"},"federalState":{"key":"08","name":"Baden-Württemberg"}},{"name":"Freisinger Landstr.","postalCode":"85386","locality":"Eching","municipality":{"key":"09178120","name":"Eching","type":"Kreisangehörige_Gemeinde"},"district":{"key":"09178","name":"Freising","type":"Landkreis"},"federalState":{"key":"09","name":"Bayern"}},{"name":"Freisinger Str.","postalCode":"85386","locality":"Eching","municipality":{"key":"09178120","name":"Eching","type":"Kreisangehörige_Gemeinde"},"district":{"key":"09178","name":"Freising","type":"Landkreis"},"federalState":{"key":"09","name":"Bayern"}},{"name":"Fricourtweg","postalCode":"72379","locality":"Hechingen","municipality":{"key":"08417031","name":"Hechingen, Stadt","type":"Stadt"},"district":{"key":"08417","name":"Zollernalbkreis","type":"Landkreis"},"federalState":{"key":"08","name":"Baden-Württemberg"}},{"name":"Friedhofstr.","postalCode":"73579","locality":"Schechingen","municipality":{"key":"08136062","name":"Schechingen","type":"Kreisangehörige_Gemeinde"},"district":{"key":"08136","name":"Ostalbkreis","type":"Landkreis"},"federalState":{"key":"08","name":"Baden-Württemberg"}},{"name":"Friedhofweg","postalCode":"72379","locality":"Hechingen","municipality":{"key":"08417031","name":"Hechingen, Stadt","type":"Stadt"},"district":{"key":"08417","name":"Zollernalbkreis","type":"Landkreis"},"federalState":{"key":"08","name":"Baden-Württemberg"}},{"name":"Friedrich-List-Str.","postalCode":"72379","locality":"Hechingen","municipality":{"key":"08417031","name":"Hechingen, Stadt","type":"Stadt"},"district":{"key":"08417","name":"Zollernalbkreis","type":"Landkreis"},"federalState":{"key":"08","name":"Baden-Württemberg"}},{"name":"Friedrichstr.","postalCode":"72379","locality":"Hechingen","municipality":{"key":"08417031","name":"Hechingen, Stadt","type":"Stadt"},"district":{"key":"08417","name":"Zollernalbkreis","type":"Landkreis"},"federalState":{"key":"08","name":"Baden-Württemberg"}},{"name":"Friedrich-Wolf-Weg","postalCode":"72379","locality":"Hechingen","municipality":{"key":"08417031","name":"Hechingen, Stadt","type":"Stadt"},"district":{"key":"08417","name":"Zollernalbkreis","type":"Landkreis"},"federalState":{"key":"08","name":"Baden-Württemberg"}},{"name":"Fröttmaninger Str.","postalCode":"85386","locality":"Eching","municipality":{"key":"09178120","name":"Eching","type":"Kreisangehörige_Gemeinde"},"district":{"key":"09178","name":"Freising","type":"Landkreis"},"federalState":{"key":"09","name":"Bayern"}},{"name":"Frühlingstr.","postalCode":"85386","locality":"Eching","municipality":{"key":"09178120","name":"Eching","type":"Kreisangehörige_Gemeinde"},"district":{"key":"09178","name":"Freising","type":"Landkreis"},"federalState":{"key":"09","name":"Bayern"}},{"name":"Fuchsbergstr.","postalCode":"85386","locality":"Eching","municipality":{"key":"09178120","name":"Eching","type":"Kreisangehörige_Gemeinde"},"district":{"key":"09178","name":"Freising","type":"Landkreis"},"federalState":{"key":"09","name":"Bayern"}},{"name":"Fuchsleite","postalCode":"85386","locality":"Eching","municipality":{"key":"09178120","name":"Eching","type":"Kreisangehörige_Gemeinde"},"district":{"key":"09178","name":"Freising","type":"Landkreis"},"federalState":{"key":"09","name":"Bayern"}},{"name":"Fuchsweg","postalCode":"84174","locality":"Eching","municipality":{"key":"09274124","name":"Eching","type":"Kreisangehörige_Gemeinde"},"district":{"key":"09274","name":"Landshut","type":"Landkreis"},"federalState":{"key":"09","name":"Bayern"}},{"name":"Fürstenstr.","postalCode":"72379","locality":"Hechingen","municipality":{"key":"08417031","name":"Hechingen, Stadt","type":"Stadt"},"district":{"key":"08417","name":"Zollernalbkreis","type":"Landkreis"},"federalState":{"key":"08","name":"Baden-Württemberg"}},{"name":"Fürstin-Eugenie-Str.","postalCode":"72379","locality":"Hechingen","municipality":{"key":"08417031","name":"Hechingen, Stadt","type":"Stadt"},"district":{"key":"08417","name":"Zollernalbkreis","type":"Landkreis"},"federalState":{"key":"08","name":"Baden-Württemberg"}},{"name":"Furthstr.","postalCode":"75391","locality":"Gechingen","municipality":{"key":"08235029","name":"Gechingen","type":"Kreisangehörige_Gemeinde"},"district":{"key":"08235","name":"Calw","type":"Landkreis"},"federalState":{"key":"08","name":"Baden-Württemberg"}},{"name":"Gammertinger Str.","postalCode":"72379","locality":"Hechingen","municipality":{"key":"08417031","name":"Hechingen, Stadt","type":"Stadt"},"district":{"key":"08417","name":"Zollernalbkreis","type":"Landkreis"},"federalState":{"key":"08","name":"Baden-Württemberg"}},{"name":"Garchinger Str.","postalCode":"85386","locality":"Eching","municipality":{"key":"09178120","name":"Eching","type":"Kreisangehörige_Gemeinde"},"district":{"key":"09178","name":"Freising","type":"Landkreis"},"federalState":{"key":"09","name":"Bayern"}},{"name":"Gartenstr.","postalCode":"72379","locality":"Hechingen","municipality":{"key":"08417031","name":"Hechingen, Stadt","type":"Stadt"},"district":{"key":"08417","name":"Zollernalbkreis","type":"Landkreis"},"federalState":{"key":"08","name":"Baden-Württemberg"}},{"name":"Gartenstr.","postalCode":"75391","locality":"Gechingen","municipality":{"key":"08235029","name":"Gechingen","type":"Kreisangehörige_Gemeinde"},"district":{"key":"08235","name":"Calw","type":"Landkreis"},"federalState":{"key":"08","name":"Baden-Württemberg"}},{"name":"Gartenstr.","postalCode":"82279","locality":"Eching am Ammersee","municipality":{"key":"09181115","name":"Eching am Ammersee","type":"Kreisangehörige_Gemeinde"},"district":{"key":"09181","name":"Landsberg am Lech","type":"Landkreis"},"federalState":{"key":"09","name":"Bayern"}},{"name":"Gartenstr.","postalCode":"84174","locality":"Eching","municipality":{"key":"09274124","name":"Eching","type":"Kreisangehörige_Gemeinde"},"district":{"key":"09274","name":"Landshut","type":"Landkreis"},"federalState":{"key":"09","name":"Bayern"}},{"name":"Gartenstr.","postalCode":"85386","locality":"Eching","municipality":{"key":"09178120","name":"Eching","type":"Kreisangehörige_Gemeinde"},"district":{"key":"09178","name":"Freising","type":"Landkreis"},"federalState":{"key":"09","name":"Bayern"}},{"name":"Gartenstr.","postalCode":"86759","locality":"Wechingen","municipality":{"key":"09779226","name":"Wechingen","type":"Kreisangehörige_Gemeinde"},"district":{"key":"09779","name":"Donau-Ries","type":"Landkreis"},"federalState":{"key":"09","name":"Bayern"}},{"name":"Gartenweg","postalCode":"73579","locality":"Schechingen","municipality":{"key":"08136062","name":"Schechingen","type":"Kreisangehörige_Gemeinde"},"district":{"key":"08136","name":"Ostalbkreis","type":"Landkreis"},"federalState":{"key":"08","name":"Baden-Württemberg"}},{"name":"Gartenweg","postalCode":"83259","locality":"Schleching","municipality":{"key":"09189141","name":"Schleching","type":"Kreisangehörige_Gemeinde"},"district":{"key":"09189","name":"Traunstein","type":"Landkreis"},"federalState":{"key":"09","name":"Bayern"}},{"name":"Gärtenweg","postalCode":"72379","locality":"Hechingen","municipality":{"key":"08417031","name":"Hechingen, Stadt","type":"Stadt"},"district":{"key":"08417","name":"Zollernalbkreis","type":"Landkreis"},"federalState":{"key":"08","name":"Baden-Württemberg"}},{"name":"Gässle","postalCode":"72379","locality":"Hechingen","municipality":{"key":"08417031","name":"Hechingen, Stadt","type":"Stadt"},"district":{"key":"08417","name":"Zollernalbkreis","type":"Landkreis"},"federalState":{"key":"08","name":"Baden-Württemberg"}},{"name":"Gäßle","postalCode":"73579","locality":"Schechingen","municipality":{"key":"08136062","name":"Schechingen","type":"Kreisangehörige_Gemeinde"},"district":{"key":"08136","name":"Ostalbkreis","type":"Landkreis"},"federalState":{"key":"08","name":"Baden-Württemberg"}},{"name":"Gasteigweg","postalCode":"83259","locality":"Schleching","municipality":{"key":"09189141","name":"Schleching","type":"Kreisangehörige_Gemeinde"},"district":{"key":"09189","name":"Traunstein","type":"Landkreis"},"federalState":{"key":"09","name":"Bayern"}},{"name":"Geigelsteinstr.","postalCode":"83259","locality":"Schleching","municipality":{"key":"09189141","name":"Schleching","type":"Kreisangehörige_Gemeinde"},"district":{"key":"09189","name":"Traunstein","type":"Landkreis"},"federalState":{"key":"09","name":"Bayern"}},{"name":"Geigenweg","postalCode":"72379","locality":"Hechingen","municipality":{"key":"08417031","name":"Hechingen, Stadt","type":"Stadt"},"district":{"key":"08417","name":"Zollernalbkreis","type":"Landkreis"},"federalState":{"key":"08","name":"Baden-Württemberg"}},{"name":"Georg-Kollmannsberger-Str.","postalCode":"85386","locality":"Eching","municipality":{"key":"09178120","name":"Eching","type":"Kreisangehörige_Gemeinde"},"district":{"key":"09178","name":"Freising","type":"Landkreis"},"federalState":{"key":"09","name":"Bayern"}},{"name":"Gerberweg","postalCode":"75391","locality":"Gechingen","municipality":{"key":"08235029","name":"Gechingen","type":"Kreisangehörige_Gemeinde"},"district":{"key":"08235","name":"Calw","type":"Landkreis"},"federalState":{"key":"08","name":"Baden-Württemberg"}},{"name":"Gerstäckenweg","postalCode":"83259","locality":"Schleching","municipality":{"key":"09189141","name":"Schleching","type":"Kreisangehörige_Gemeinde"},"district":{"key":"09189","name":"Traunstein","type":"Landkreis"},"federalState":{"key":"09","name":"Bayern"}},{"name":"Gerstenstr.","postalCode":"84174","locality":"Eching","municipality":{"key":"09274124","name":"Eching","type":"Kreisangehörige_Gemeinde"},"district":{"key":"09274","name":"Landshut","type":"Landkreis"},"federalState":{"key":"09","name":"Bayern"}},{"name":"Geschwister-Scholl-Str.","postalCode":"85386","locality":"Eching","municipality":{"key":"09178120","name":"Eching","type":"Kreisangehörige_Gemeinde"},"district":{"key":"09178","name":"Freising","type":"Landkreis"},"federalState":{"key":"09","name":"Bayern"}},{"name":"Getreidestr.","postalCode":"84174","locality":"Eching","municipality":{"key":"09274124","name":"Eching","type":"Kreisangehörige_Gemeinde"},"district":{"key":"09274","name":"Landshut","type":"Landkreis"},"federalState":{"key":"09","name":"Bayern"}},{"name":"Gfrörerstr.","postalCode":"72379","locality":"Hechingen","municipality":{"key":"08417031","name":"Hechingen, Stadt","type":"Stadt"},"district":{"key":"08417","name":"Zollernalbkreis","type":"Landkreis"},"federalState":{"key":"08","name":"Baden-Württemberg"}},{"name":"Gloecklesweg","postalCode":"72379","locality":"Hechingen","municipality":{"key":"08417031","name":"Hechingen, Stadt","type":"Stadt"},"district":{"key":"08417","name":"Zollernalbkreis","type":"Landkreis"},"federalState":{"key":"08","name":"Baden-Württemberg"}},{"name":"Goethestr.","postalCode":"72379","locality":"Hechingen","municipality":{"key":"08417031","name":"Hechingen, Stadt","type":"Stadt"},"district":{"key":"08417","name":"Zollernalbkreis","type":"Landkreis"},"federalState":{"key":"08","name":"Baden-Württemberg"}},{"name":"Goethestr.","postalCode":"75391","locality":"Gechingen","municipality":{"key":"08235029","name":"Gechingen","type":"Kreisangehörige_Gemeinde"},"district":{"key":"08235","name":"Calw","type":"Landkreis"},"federalState":{"key":"08","name":"Baden-Württemberg"}},{"name":"Goethestr.","postalCode":"85386","locality":"Eching","municipality":{"key":"09178120","name":"Eching","type":"Kreisangehörige_Gemeinde"},"district":{"key":"09178","name":"Freising","type":"Landkreis"},"federalState":{"key":"09","name":"Bayern"}},{"name":"Goldschmiedstr.","postalCode":"72379","locality":"Hechingen","municipality":{"key":"08417031","name":"Hechingen, Stadt","type":"Stadt"},"district":{"key":"08417","name":"Zollernalbkreis","type":"Landkreis"},"federalState":{"key":"08","name":"Baden-Württemberg"}},{"name":"Graf-Friedrich-Weg","postalCode":"72379","locality":"Hechingen","municipality":{"key":"08417031","name":"Hechingen, Stadt","type":"Stadt"},"district":{"key":"08417","name":"Zollernalbkreis","type":"Landkreis"},"federalState":{"key":"08","name":"Baden-Württemberg"}},{"name":"Graf-von-Stauffenberg-Str.","postalCode":"85386","locality":"Eching","municipality":{"key":"09178120","name":"Eching","type":"Kreisangehörige_Gemeinde"},"district":{"key":"09178","name":"Freising","type":"Landkreis"},"federalState":{"key":"09","name":"Bayern"}},{"name":"Greifenberger Str.","postalCode":"82279","locality":"Eching am Ammersee","municipality":{"key":"09181115","name":"Eching am Ammersee","type":"Kreisangehörige_Gemeinde"},"district":{"key":"09181","name":"Landsberg am Lech","type":"Landkreis"},"federalState":{"key":"09","name":"Bayern"}},{"name":"Greutweg","postalCode":"72379","locality":"Hechingen","municipality":{"key":"08417031","name":"Hechingen, Stadt","type":"Stadt"},"district":{"key":"08417","name":"Zollernalbkreis","type":"Landkreis"},"federalState":{"key":"08","name":"Baden-Württemberg"}},{"name":"Grosselfinger Str.","postalCode":"72379","locality":"Hechingen","municipality":{"key":"08417031","name":"Hechingen, Stadt","type":"Stadt"},"district":{"key":"08417","name":"Zollernalbkreis","type":"Landkreis"},"federalState":{"key":"08","name":"Baden-Württemberg"}},{"name":"Großnweg","postalCode":"83259","locality":"Schleching","municipality":{"key":"09189141","name":"Schleching","type":"Kreisangehörige_Gemeinde"},"district":{"key":"09189","name":"Traunstein","type":"Landkreis"},"federalState":{"key":"09","name":"Bayern"}},{"name":"Grundhauallee","postalCode":"75391","locality":"Gechingen","municipality":{"key":"08235029","name":"Gechingen","type":"Kreisangehörige_Gemeinde"},"district":{"key":"08235","name":"Calw","type":"Landkreis"},"federalState":{"key":"08","name":"Baden-Württemberg"}},{"name":"Gründleweg","postalCode":"75391","locality":"Gechingen","municipality":{"key":"08235029","name":"Gechingen","type":"Kreisangehörige_Gemeinde"},"district":{"key":"08235","name":"Calw","type":"Landkreis"},"federalState":{"key":"08","name":"Baden-Württemberg"}},{"name":"Gültlinger Str.","postalCode":"75391","locality":"Gechingen","municipality":{"key":"08235029","name":"Gechingen","type":"Kreisangehörige_Gemeinde"},"district":{"key":"08235","name":"Calw","type":"Landkreis"},"federalState":{"key":"08","name":"Baden-Württemberg"}},{"name":"Günzenhausener Str.","postalCode":"85386","locality":"Eching","municipality":{"key":"09178120","name":"Eching","type":"Kreisangehörige_Gemeinde"},"district":{"key":"09178","name":"Freising","type":"Landkreis"},"federalState":{"key":"09","name":"Bayern"}},{"name":"Gutenbergstr.","postalCode":"72379","locality":"Hechingen","municipality":{"key":"08417031","name":"Hechingen, Stadt","type":"Stadt"},"district":{"key":"08417","name":"Zollernalbkreis","type":"Landkreis"},"federalState":{"key":"08","name":"Baden-Württemberg"}},{"name":"Gut Hollern","postalCode":"85386","locality":"Eching","municipality":{"key":"09178120","name":"Eching","type":"Kreisangehörige_Gemeinde"},"district":{"key":"09178","name":"Freising","type":"Landkreis"},"federalState":{"key":"09","name":"Bayern"}},{"name":"Gutleuthausstr.","postalCode":"72379","locality":"Hechingen","municipality":{"key":"08417031","name":"Hechingen, Stadt","type":"Stadt"},"district":{"key":"08417","name":"Zollernalbkreis","type":"Landkreis"},"federalState":{"key":"08","name":"Baden-Württemberg"}},{"name":"Gymnasiumstr.","postalCode":"72379","locality":"Hechingen","municipality":{"key":"08417031","name":"Hechingen, Stadt","type":"Stadt"},"district":{"key":"08417","name":"Zollernalbkreis","type":"Landkreis"},"federalState":{"key":"08","name":"Baden-Württemberg"}},{"name":"Haarpoint","postalCode":"84174","locality":"Eching","municipality":{"key":"09274124","name":"Eching","type":"Kreisangehörige_Gemeinde"},"district":{"key":"09274","name":"Landshut","type":"Landkreis"},"federalState":{"key":"09","name":"Bayern"}},{"name":"Häberle-Planie","postalCode":"75391","locality":"Gechingen","municipality":{"key":"08235029","name":"Gechingen","type":"Kreisangehörige_Gemeinde"},"district":{"key":"08235","name":"Calw","type":"Landkreis"},"federalState":{"key":"08","name":"Baden-Württemberg"}},{"name":"Hagelhof","postalCode":"72379","locality":"Hechingen","municipality":{"key":"08417031","name":"Hechingen, Stadt","type":"Stadt"},"district":{"key":"08417","name":"Zollernalbkreis","type":"Landkreis"},"federalState":{"key":"08","name":"Baden-Württemberg"}},{"name":"Haglweg","postalCode":"84174","locality":"Eching","municipality":{"key":"09274124","name":"Eching","type":"Kreisangehörige_Gemeinde"},"district":{"key":"09274","name":"Landshut","type":"Landkreis"},"federalState":{"key":"09","name":"Bayern"}},{"name":"Hagstr.","postalCode":"73579","locality":"Schechingen","municipality":{"key":"08136062","name":"Schechingen","type":"Kreisangehörige_Gemeinde"},"district":{"key":"08136","name":"Ostalbkreis","type":"Landkreis"},"federalState":{"key":"08","name":"Baden-Württemberg"}},{"name":"Haigerlocher Str.","postalCode":"72379","locality":"Hechingen","municipality":{"key":"08417031","name":"Hechingen, Stadt","type":"Stadt"},"district":{"key":"08417","name":"Zollernalbkreis","type":"Landkreis"},"federalState":{"key":"08","name":"Baden-Württemberg"}},{"name":"Haimhausener Str.","postalCode":"85386","locality":"Eching","municipality":{"key":"09178120","name":"Eching","type":"Kreisangehörige_Gemeinde"},"district":{"key":"09178","name":"Freising","type":"Landkreis"},"federalState":{"key":"09","name":"Bayern"}},{"name":"Halde","postalCode":"72379","locality":"Hechingen","municipality":{"key":"08417031","name":"Hechingen, Stadt","type":"Stadt"},"district":{"key":"08417","name":"Zollernalbkreis","type":"Landkreis"},"federalState":{"key":"08","name":"Baden-Württemberg"}},{"name":"Haldenbergweg","postalCode":"72379","locality":"Hechingen","municipality":{"key":"08417031","name":"Hechingen, Stadt","type":"Stadt"},"district":{"key":"08417","name":"Zollernalbkreis","type":"Landkreis"},"federalState":{"key":"08","name":"Baden-Württemberg"}},{"name":"Haldenstr.","postalCode":"72379","locality":"Hechingen","municipality":{"key":"08417031","name":"Hechingen, Stadt","type":"Stadt"},"district":{"key":"08417","name":"Zollernalbkreis","type":"Landkreis"},"federalState":{"key":"08","name":"Baden-Württemberg"}},{"name":"Haldenweg","postalCode":"72379","locality":"Hechingen","municipality":{"key":"08417031","name":"Hechingen, Stadt","type":"Stadt"},"district":{"key":"08417","name":"Zollernalbkreis","type":"Landkreis"},"federalState":{"key":"08","name":"Baden-Württemberg"}},{"name":"Hanfgartenstr.","postalCode":"73579","locality":"Schechingen","municipality":{"key":"08136062","name":"Schechingen","type":"Kreisangehörige_Gemeinde"},"district":{"key":"08136","name":"Ostalbkreis","type":"Landkreis"},"federalState":{"key":"08","name":"Baden-Württemberg"}},{"name":"Hans-Amann-Str.","postalCode":"72379","locality":"Hechingen","municipality":{"key":"08417031","name":"Hechingen, Stadt","type":"Stadt"},"district":{"key":"08417","name":"Zollernalbkreis","type":"Landkreis"},"federalState":{"key":"08","name":"Baden-Württemberg"}},{"name":"Hanselmühle","postalCode":"84174","locality":"Eching","municipality":{"key":"09274124","name":"Eching","type":"Kreisangehörige_Gemeinde"},"district":{"key":"09274","name":"Landshut","type":"Landkreis"},"federalState":{"key":"09","name":"Bayern"}},{"name":"Hargetweg","postalCode":"73579","locality":"Schechingen","municipality":{"key":"08136062","name":"Schechingen","type":"Kreisangehörige_Gemeinde"},"district":{"key":"08136","name":"Ostalbkreis","type":"Landkreis"},"federalState":{"key":"08","name":"Baden-Württemberg"}},{"name":"Hartstr.","postalCode":"85386","locality":"Eching","municipality":{"key":"09178120","name":"Eching","type":"Kreisangehörige_Gemeinde"},"district":{"key":"09178","name":"Freising","type":"Landkreis"},"federalState":{"key":"09","name":"Bayern"}},{"name":"Haselfurther Str.","postalCode":"84174","locality":"Eching","municipality":{"key":"09274124","name":"Eching","type":"Kreisangehörige_Gemeinde"},"district":{"key":"09274","name":"Landshut","type":"Landkreis"},"federalState":{"key":"09","name":"Bayern"}},{"name":"Hauffstr.","postalCode":"75391","locality":"Gechingen","municipality":{"key":"08235029","name":"Gechingen","type":"Kreisangehörige_Gemeinde"},"district":{"key":"08235","name":"Calw","type":"Landkreis"},"federalState":{"key":"08","name":"Baden-Württemberg"}},{"name":"Haunwanger Str.","postalCode":"84174","locality":"Eching","municipality":{"key":"09274124","name":"Eching","type":"Kreisangehörige_Gemeinde"},"district":{"key":"09274","name":"Landshut","type":"Landkreis"},"federalState":{"key":"09","name":"Bayern"}},{"name":"Hauptstr.","postalCode":"73579","locality":"Schechingen","municipality":{"key":"08136062","name":"Schechingen","type":"Kreisangehörige_Gemeinde"},"district":{"key":"08136","name":"Ostalbkreis","type":"Landkreis"},"federalState":{"key":"08","name":"Baden-Württemberg"}},{"name":"Hauptstr.","postalCode":"75391","locality":"Gechingen","municipality":{"key":"08235029","name":"Gechingen","type":"Kreisangehörige_Gemeinde"},"district":{"key":"08235","name":"Calw","type":"Landkreis"},"federalState":{"key":"08","name":"Baden-Württemberg"}},{"name":"Hauptstr.","postalCode":"83259","locality":"Schleching","municipality":{"key":"09189141","name":"Schleching","type":"Kreisangehörige_Gemeinde"},"district":{"key":"09189","name":"Traunstein","type":"Landkreis"},"federalState":{"key":"09","name":"Bayern"}},{"name":"Hauptstr.","postalCode":"84174","locality":"Eching","municipality":{"key":"09274124","name":"Eching","type":"Kreisangehörige_Gemeinde"},"district":{"key":"09274","name":"Landshut","type":"Landkreis"},"federalState":{"key":"09","name":"Bayern"}},{"name":"Hauptstr.","postalCode":"85386","locality":"Eching","municipality":{"key":"09178120","name":"Eching","type":"Kreisangehörige_Gemeinde"},"district":{"key":"09178","name":"Freising","type":"Landkreis"},"federalState":{"key":"09","name":"Bayern"}},{"name":"Hausener Str.","postalCode":"72379","locality":"Hechingen","municipality":{"key":"08417031","name":"Hechingen, Stadt","type":"Stadt"},"district":{"key":"08417","name":"Zollernalbkreis","type":"Landkreis"},"federalState":{"key":"08","name":"Baden-Württemberg"}},{"name":"Hausfeldweg","postalCode":"83259","locality":"Schleching","municipality":{"key":"09189141","name":"Schleching","type":"Kreisangehörige_Gemeinde"},"district":{"key":"09189","name":"Traunstein","type":"Landkreis"},"federalState":{"key":"09","name":"Bayern"}},{"name":"Hechinger Str.","postalCode":"72379","locality":"Hechingen","municipality":{"key":"08417031","name":"Hechingen, Stadt","type":"Stadt"},"district":{"key":"08417","name":"Zollernalbkreis","type":"Landkreis"},"federalState":{"key":"08","name":"Baden-Württemberg"}},{"name":"Hechtweg","postalCode":"84174","locality":"Eching","municipality":{"key":"09274124","name":"Eching","type":"Kreisangehörige_Gemeinde"},"district":{"key":"09274","name":"Landshut","type":"Landkreis"},"federalState":{"key":"09","name":"Bayern"}},{"name":"Heckenhartweg","postalCode":"72379","locality":"Hechingen","municipality":{"key":"08417031","name":"Hechingen, Stadt","type":"Stadt"},"district":{"key":"08417","name":"Zollernalbkreis","type":"Landkreis"},"federalState":{"key":"08","name":"Baden-Württemberg"}},{"name":"Heidestr.","postalCode":"85386","locality":"Eching","municipality":{"key":"09178120","name":"Eching","type":"Kreisangehörige_Gemeinde"},"district":{"key":"09178","name":"Freising","type":"Landkreis"},"federalState":{"key":"09","name":"Bayern"}},{"name":"Heiligkreuzstr.","postalCode":"72379","locality":"Hechingen","municipality":{"key":"08417031","name":"Hechingen, Stadt","type":"Stadt"},"district":{"key":"08417","name":"Zollernalbkreis","type":"Landkreis"},"federalState":{"key":"08","name":"Baden-Württemberg"}},{"name":"Heimatkreuzstr.","postalCode":"83259","locality":"Schleching","municipality":{"key":"09189141","name":"Schleching","type":"Kreisangehörige_Gemeinde"},"district":{"key":"09189","name":"Traunstein","type":"Landkreis"},"federalState":{"key":"09","name":"Bayern"}},{"name":"Heimgarten","postalCode":"82279","locality":"Eching am Ammersee","municipality":{"key":"09181115","name":"Eching am Ammersee","type":"Kreisangehörige_Gemeinde"},"district":{"key":"09181","name":"Landsberg am Lech","type":"Landkreis"},"federalState":{"key":"09","name":"Bayern"}},{"name":"Heinrich-Böll-Str.","postalCode":"85386","locality":"Eching","municipality":{"key":"09178120","name":"Eching","type":"Kreisangehörige_Gemeinde"},"district":{"key":"09178","name":"Freising","type":"Landkreis"},"federalState":{"key":"09","name":"Bayern"}},{"name":"Heinzelwinkler Str.","postalCode":"84174","locality":"Eching","municipality":{"key":"09274124","name":"Eching","type":"Kreisangehörige_Gemeinde"},"district":{"key":"09274","name":"Landshut","type":"Landkreis"},"federalState":{"key":"09","name":"Bayern"}},{"name":"Heisenbergstr.","postalCode":"85386","locality":"Eching","municipality":{"key":"09178120","name":"Eching","type":"Kreisangehörige_Gemeinde"},"district":{"key":"09178","name":"Freising","type":"Landkreis"},"federalState":{"key":"09","name":"Bayern"}},{"name":"Herbststr.","postalCode":"85386","locality":"Eching","municipality":{"key":"09178120","name":"Eching","type":"Kreisangehörige_Gemeinde"},"district":{"key":"09178","name":"Freising","type":"Landkreis"},"federalState":{"key":"09","name":"Bayern"}},{"name":"Herderstr.","postalCode":"85386","locality":"Eching","municipality":{"key":"09178120","name":"Eching","type":"Kreisangehörige_Gemeinde"},"district":{"key":"09178","name":"Freising","type":"Landkreis"},"federalState":{"key":"09","name":"Bayern"}},{"name":"Herdweg","postalCode":"75391","locality":"Gechingen","municipality":{"key":"08235029","name":"Gechingen","type":"Kreisangehörige_Gemeinde"},"district":{"key":"08235","name":"Calw","type":"Landkreis"},"federalState":{"key":"08","name":"Baden-Württemberg"}},{"name":"Hermann-Hesse-Str.","postalCode":"75391","locality":"Gechingen","municipality":{"key":"08235029","name":"Gechingen","type":"Kreisangehörige_Gemeinde"},"district":{"key":"08235","name":"Calw","type":"Landkreis"},"federalState":{"key":"08","name":"Baden-Württemberg"}},{"name":"Hermann-Löns-Weg","postalCode":"75391","locality":"Gechingen","municipality":{"key":"08235029","name":"Gechingen","type":"Kreisangehörige_Gemeinde"},"district":{"key":"08235","name":"Calw","type":"Landkreis"},"federalState":{"key":"08","name":"Baden-Württemberg"}},{"name":"Herrenackerstr.","postalCode":"72379","locality":"Hechingen","municipality":{"key":"08417031","name":"Hechingen, Stadt","type":"Stadt"},"district":{"key":"08417","name":"Zollernalbkreis","type":"Landkreis"},"federalState":{"key":"08","name":"Baden-Württemberg"}},{"name":"Heselweg","postalCode":"73579","locality":"Schechingen","municipality":{"key":"08136062","name":"Schechingen","type":"Kreisangehörige_Gemeinde"},"district":{"key":"08136","name":"Ostalbkreis","type":"Landkreis"},"federalState":{"key":"08","name":"Baden-Württemberg"}},{"name":"Hessenberg","postalCode":"73579","locality":"Schechingen","municipality":{"key":"08136062","name":"Schechingen","type":"Kreisangehörige_Gemeinde"},"district":{"key":"08136","name":"Ostalbkreis","type":"Landkreis"},"federalState":{"key":"08","name":"Baden-Württemberg"}},{"name":"Hilbweg","postalCode":"72379","locality":"Hechingen","municipality":{"key":"08417031","name":"Hechingen, Stadt","type":"Stadt"},"district":{"key":"08417","name":"Zollernalbkreis","type":"Landkreis"},"federalState":{"key":"08","name":"Baden-Württemberg"}},{"name":"Hinter dem Hölzle","postalCode":"72379","locality":"Hechingen","municipality":{"key":"08417031","name":"Hechingen, Stadt","type":"Stadt"},"district":{"key":"08417","name":"Zollernalbkreis","type":"Landkreis"},"federalState":{"key":"08","name":"Baden-Württemberg"}},{"name":"Hinter Höfen","postalCode":"72379","locality":"Hechingen","municipality":{"key":"08417031","name":"Hechingen, Stadt","type":"Stadt"},"district":{"key":"08417","name":"Zollernalbkreis","type":"Landkreis"},"federalState":{"key":"08","name":"Baden-Württemberg"}},{"name":"Hirtenstr.","postalCode":"85386","locality":"Eching","municipality":{"key":"09178120","name":"Eching","type":"Kreisangehörige_Gemeinde"},"district":{"key":"09178","name":"Freising","type":"Landkreis"},"federalState":{"key":"09","name":"Bayern"}},{"name":"Hirtenweg","postalCode":"73579","locality":"Schechingen","municipality":{"key":"08136062","name":"Schechingen","type":"Kreisangehörige_Gemeinde"},"district":{"key":"08136","name":"Ostalbkreis","type":"Landkreis"},"federalState":{"key":"08","name":"Baden-Württemberg"}},{"name":"Hirtenweg","postalCode":"86759","locality":"Wechingen","municipality":{"key":"09779226","name":"Wechingen","type":"Kreisangehörige_Gemeinde"},"district":{"key":"09779","name":"Donau-Ries","type":"Landkreis"},"federalState":{"key":"09","name":"Bayern"}},{"name":"Im Auchtert","postalCode":"72379","locality":"Hechingen","municipality":{"key":"08417031","name":"Hechingen, Stadt","type":"Stadt"},"district":{"key":"08417","name":"Zollernalbkreis","type":"Landkreis"},"federalState":{"key":"08","name":"Baden-Württemberg"}},{"name":"Im Augstäcker","postalCode":"75391","locality":"Gechingen","municipality":{"key":"08235029","name":"Gechingen","type":"Kreisangehörige_Gemeinde"},"district":{"key":"08235","name":"Calw","type":"Landkreis"},"federalState":{"key":"08","name":"Baden-Württemberg"}},{"name":"Im Bach","postalCode":"86759","locality":"Wechingen","municipality":{"key":"09779226","name":"Wechingen","type":"Kreisangehörige_Gemeinde"},"district":{"key":"09779","name":"Donau-Ries","type":"Landkreis"},"federalState":{"key":"09","name":"Bayern"}},{"name":"Im Baumgarten","postalCode":"72379","locality":"Hechingen","municipality":{"key":"08417031","name":"Hechingen, Stadt","type":"Stadt"},"district":{"key":"08417","name":"Zollernalbkreis","type":"Landkreis"},"federalState":{"key":"08","name":"Baden-Württemberg"}},{"name":"Im Egert","postalCode":"72379","locality":"Hechingen","municipality":{"key":"08417031","name":"Hechingen, Stadt","type":"Stadt"},"district":{"key":"08417","name":"Zollernalbkreis","type":"Landkreis"},"federalState":{"key":"08","name":"Baden-Württemberg"}},{"name":"Im Eierle","postalCode":"72379","locality":"Hechingen","municipality":{"key":"08417031","name":"Hechingen, Stadt","type":"Stadt"},"district":{"key":"08417","name":"Zollernalbkreis","type":"Landkreis"},"federalState":{"key":"08","name":"Baden-Württemberg"}},{"name":"Im Eiterbach","postalCode":"72379","locality":"Hechingen","municipality":{"key":"08417031","name":"Hechingen, Stadt","type":"Stadt"},"district":{"key":"08417","name":"Zollernalbkreis","type":"Landkreis"},"federalState":{"key":"08","name":"Baden-Württemberg"}},{"name":"Im Etzental","postalCode":"72379","locality":"Hechingen","municipality":{"key":"08417031","name":"Hechingen, Stadt","type":"Stadt"},"district":{"key":"08417","name":"Zollernalbkreis","type":"Landkreis"},"federalState":{"key":"08","name":"Baden-Württemberg"}},{"name":"Im Fuchsbau","postalCode":"75391","locality":"Gechingen","municipality":{"key":"08235029","name":"Gechingen","type":"Kreisangehörige_Gemeinde"},"district":{"key":"08235","name":"Calw","type":"Landkreis"},"federalState":{"key":"08","name":"Baden-Württemberg"}},{"name":"Im Gaiern","postalCode":"72379","locality":"Hechingen","municipality":{"key":"08417031","name":"Hechingen, Stadt","type":"Stadt"},"district":{"key":"08417","name":"Zollernalbkreis","type":"Landkreis"},"federalState":{"key":"08","name":"Baden-Württemberg"}},{"name":"Im Gänseblümchen","postalCode":"75391","locality":"Gechingen","municipality":{"key":"08235029","name":"Gechingen","type":"Kreisangehörige_Gemeinde"},"district":{"key":"08235","name":"Calw","type":"Landkreis"},"federalState":{"key":"08","name":"Baden-Württemberg"}},{"name":"Im Gänswasen","postalCode":"75391","locality":"Gechingen","municipality":{"key":"08235029","name":"Gechingen","type":"Kreisangehörige_Gemeinde"},"district":{"key":"08235","name":"Calw","type":"Landkreis"},"federalState":{"key":"08","name":"Baden-Württemberg"}},{"name":"Im Gäßle","postalCode":"75391","locality":"Gechingen","municipality":{"key":"08235029","name":"Gechingen","type":"Kreisangehörige_Gemeinde"},"district":{"key":"08235","name":"Calw","type":"Landkreis"},"federalState":{"key":"08","name":"Baden-Württemberg"}},{"name":"Im Hahnenberg","postalCode":"75391","locality":"Gechingen","municipality":{"key":"08235029","name":"Gechingen","type":"Kreisangehörige_Gemeinde"},"district":{"key":"08235","name":"Calw","type":"Landkreis"},"federalState":{"key":"08","name":"Baden-Württemberg"}},{"name":"Im Haugenbrühl","postalCode":"72379","locality":"Hechingen","municipality":{"key":"08417031","name":"Hechingen, Stadt","type":"Stadt"},"district":{"key":"08417","name":"Zollernalbkreis","type":"Landkreis"},"federalState":{"key":"08","name":"Baden-Württemberg"}},{"name":"Im Helle","postalCode":"72379","locality":"Hechingen","municipality":{"key":"08417031","name":"Hechingen, Stadt","type":"Stadt"},"district":{"key":"08417","name":"Zollernalbkreis","type":"Landkreis"},"federalState":{"key":"08","name":"Baden-Württemberg"}},{"name":"Im Höfle","postalCode":"72379","locality":"Hechingen","municipality":{"key":"08417031","name":"Hechingen, Stadt","type":"Stadt"},"district":{"key":"08417","name":"Zollernalbkreis","type":"Landkreis"},"federalState":{"key":"08","name":"Baden-Württemberg"}},{"name":"Im Kessler","postalCode":"72379","locality":"Hechingen","municipality":{"key":"08417031","name":"Hechingen, Stadt","type":"Stadt"},"district":{"key":"08417","name":"Zollernalbkreis","type":"Landkreis"},"federalState":{"key":"08","name":"Baden-Württemberg"}},{"name":"Im Maierhof","postalCode":"72379","locality":"Hechingen","municipality":{"key":"08417031","name":"Hechingen, Stadt","type":"Stadt"},"district":{"key":"08417","name":"Zollernalbkreis","type":"Landkreis"},"federalState":{"key":"08","name":"Baden-Württemberg"}},{"name":"Im Mehlsack","postalCode":"72379","locality":"Hechingen","municipality":{"key":"08417031","name":"Hechingen, Stadt","type":"Stadt"},"district":{"key":"08417","name":"Zollernalbkreis","type":"Landkreis"},"federalState":{"key":"08","name":"Baden-Württemberg"}},{"name":"Im Oberdorf","postalCode":"72379","locality":"Hechingen","municipality":{"key":"08417031","name":"Hechingen, Stadt","type":"Stadt"},"district":{"key":"08417","name":"Zollernalbkreis","type":"Landkreis"},"federalState":{"key":"08","name":"Baden-Württemberg"}},{"name":"Im Oberdorf","postalCode":"86759","locality":"Wechingen","municipality":{"key":"09779226","name":"Wechingen","type":"Kreisangehörige_Gemeinde"},"district":{"key":"09779","name":"Donau-Ries","type":"Landkreis"},"federalState":{"key":"09","name":"Bayern"}},{"name":"Im Priel","postalCode":"86759","locality":"Wechingen","municipality":{"key":"09779226","name":"Wechingen","type":"Kreisangehörige_Gemeinde"},"district":{"key":"09779","name":"Donau-Ries","type":"Landkreis"},"federalState":{"key":"09","name":"Bayern"}},{"name":"Im Prinzling","postalCode":"72379","locality":"Hechingen","municipality":{"key":"08417031","name":"Hechingen, Stadt","type":"Stadt"},"district":{"key":"08417","name":"Zollernalbkreis","type":"Landkreis"},"federalState":{"key":"08","name":"Baden-Württemberg"}},{"name":"Im Spagen","postalCode":"73579","locality":"Schechingen","municipality":{"key":"08136062","name":"Schechingen","type":"Kreisangehörige_Gemeinde"},"district":{"key":"08136","name":"Ostalbkreis","type":"Landkreis"},"federalState":{"key":"08","name":"Baden-Württemberg"}},{"name":"Im Spatzennest","postalCode":"75391","locality":"Gechingen","municipality":{"key":"08235029","name":"Gechingen","type":"Kreisangehörige_Gemeinde"},"district":{"key":"08235","name":"Calw","type":"Landkreis"},"federalState":{"key":"08","name":"Baden-Württemberg"}},{"name":"Im Torgarten","postalCode":"86759","locality":"Wechingen","municipality":{"key":"09779226","name":"Wechingen","type":"Kreisangehörige_Gemeinde"},"district":{"key":"09779","name":"Donau-Ries","type":"Landkreis"},"federalState":{"key":"09","name":"Bayern"}},{"name":"Im Unterdorf","postalCode":"86759","locality":"Wechingen","municipality":{"key":"09779226","name":"Wechingen","type":"Kreisangehörige_Gemeinde"},"district":{"key":"09779","name":"Donau-Ries","type":"Landkreis"},"federalState":{"key":"09","name":"Bayern"}},{"name":"Im Weglanger","postalCode":"72379","locality":"Hechingen","municipality":{"key":"08417031","name":"Hechingen, Stadt","type":"Stadt"},"district":{"key":"08417","name":"Zollernalbkreis","type":"Landkreis"},"federalState":{"key":"08","name":"Baden-Württemberg"}},{"name":"Im Weiher","postalCode":"72379","locality":"Hechingen","municipality":{"key":"08417031","name":"Hechingen, Stadt","type":"Stadt"},"district":{"key":"08417","name":"Zollernalbkreis","type":"Landkreis"},"federalState":{"key":"08","name":"Baden-Württemberg"}},{"name":"Im Wörth","postalCode":"86759","locality":"Wechingen","municipality":{"key":"09779226","name":"Wechingen","type":"Kreisangehörige_Gemeinde"},"district":{"key":"09779","name":"Donau-Ries","type":"Landkreis"},"federalState":{"key":"09","name":"Bayern"}},{"name":"Im Zinken","postalCode":"72379","locality":"Hechingen","municipality":{"key":"08417031","name":"Hechingen, Stadt","type":"Stadt"},"district":{"key":"08417","name":"Zollernalbkreis","type":"Landkreis"},"federalState":{"key":"08","name":"Baden-Württemberg"}},{"name":"In den Bronnwiesen","postalCode":"72379","locality":"Hechingen","municipality":{"key":"08417031","name":"Hechingen, Stadt","type":"Stadt"},"district":{"key":"08417","name":"Zollernalbkreis","type":"Landkreis"},"federalState":{"key":"08","name":"Baden-Württemberg"}},{"name":"In den Gaßäckern","postalCode":"72379","locality":"Hechingen","municipality":{"key":"08417031","name":"Hechingen, Stadt","type":"Stadt"},"district":{"key":"08417","name":"Zollernalbkreis","type":"Landkreis"},"federalState":{"key":"08","name":"Baden-Württemberg"}},{"name":"In den Maltwiesen","postalCode":"72379","locality":"Hechingen","municipality":{"key":"08417031","name":"Hechingen, Stadt","type":"Stadt"},"district":{"key":"08417","name":"Zollernalbkreis","type":"Landkreis"},"federalState":{"key":"08","name":"Baden-Württemberg"}},{"name":"In den Schelmenäckern","postalCode":"72379","locality":"Hechingen","municipality":{"key":"08417031","name":"Hechingen, Stadt","type":"Stadt"},"district":{"key":"08417","name":"Zollernalbkreis","type":"Landkreis"},"federalState":{"key":"08","name":"Baden-Württemberg"}},{"name":"In den Schwitzwiesen","postalCode":"72379","locality":"Hechingen","municipality":{"key":"08417031","name":"Hechingen, Stadt","type":"Stadt"},"district":{"key":"08417","name":"Zollernalbkreis","type":"Landkreis"},"federalState":{"key":"08","name":"Baden-Württemberg"}},{"name":"In den Seelenäckern","postalCode":"72379","locality":"Hechingen","municipality":{"key":"08417031","name":"Hechingen, Stadt","type":"Stadt"},"district":{"key":"08417","name":"Zollernalbkreis","type":"Landkreis"},"federalState":{"key":"08","name":"Baden-Württemberg"}},{"name":"In der Steige","postalCode":"75391","locality":"Gechingen","municipality":{"key":"08235029","name":"Gechingen","type":"Kreisangehörige_Gemeinde"},"district":{"key":"08235","name":"Calw","type":"Landkreis"},"federalState":{"key":"08","name":"Baden-Württemberg"}},{"name":"Irmstr.","postalCode":"75391","locality":"Gechingen","municipality":{"key":"08235029","name":"Gechingen","type":"Kreisangehörige_Gemeinde"},"district":{"key":"08235","name":"Calw","type":"Landkreis"},"federalState":{"key":"08","name":"Baden-Württemberg"}},{"name":"Isarstr.","postalCode":"84174","locality":"Eching","municipality":{"key":"09274124","name":"Eching","type":"Kreisangehörige_Gemeinde"},"district":{"key":"09274","name":"Landshut","type":"Landkreis"},"federalState":{"key":"09","name":"Bayern"}},{"name":"Isarstr.","postalCode":"85386","locality":"Eching","municipality":{"key":"09178120","name":"Eching","type":"Kreisangehörige_Gemeinde"},"district":{"key":"09178","name":"Freising","type":"Landkreis"},"federalState":{"key":"09","name":"Bayern"}},{"name":"Jägersteig","postalCode":"72379","locality":"Hechingen","municipality":{"key":"08417031","name":"Hechingen, Stadt","type":"Stadt"},"district":{"key":"08417","name":"Zollernalbkreis","type":"Landkreis"},"federalState":{"key":"08","name":"Baden-Württemberg"}},{"name":"Jägerweg","postalCode":"85386","locality":"Eching","municipality":{"key":"09178120","name":"Eching","type":"Kreisangehörige_Gemeinde"},"district":{"key":"09178","name":"Freising","type":"Landkreis"},"federalState":{"key":"09","name":"Bayern"}},{"name":"Jahnstr.","postalCode":"72379","locality":"Hechingen","municipality":{"key":"08417031","name":"Hechingen, Stadt","type":"Stadt"},"district":{"key":"08417","name":"Zollernalbkreis","type":"Landkreis"},"federalState":{"key":"08","name":"Baden-Württemberg"}},{"name":"Jakob-Meiland-Str.","postalCode":"72379","locality":"Hechingen","municipality":{"key":"08417031","name":"Hechingen, Stadt","type":"Stadt"},"district":{"key":"08417","name":"Zollernalbkreis","type":"Landkreis"},"federalState":{"key":"08","name":"Baden-Württemberg"}},{"name":"Jaugengasse","postalCode":"73579","locality":"Schechingen","municipality":{"key":"08136062","name":"Schechingen","type":"Kreisangehörige_Gemeinde"},"district":{"key":"08136","name":"Ostalbkreis","type":"Landkreis"},"federalState":{"key":"08","name":"Baden-Württemberg"}},{"name":"Johannesweg","postalCode":"85386","locality":"Eching","municipality":{"key":"09178120","name":"Eching","type":"Kreisangehörige_Gemeinde"},"district":{"key":"09178","name":"Freising","type":"Landkreis"},"federalState":{"key":"09","name":"Bayern"}},{"name":"Johann-Strauß-Str.","postalCode":"72379","locality":"Hechingen","municipality":{"key":"08417031","name":"Hechingen, Stadt","type":"Stadt"},"district":{"key":"08417","name":"Zollernalbkreis","type":"Landkreis"},"federalState":{"key":"08","name":"Baden-Württemberg"}},{"name":"Josef-Baur-Str.","postalCode":"72379","locality":"Hechingen","municipality":{"key":"08417031","name":"Hechingen, Stadt","type":"Stadt"},"district":{"key":"08417","name":"Zollernalbkreis","type":"Landkreis"},"federalState":{"key":"08","name":"Baden-Württemberg"}},{"name":"Joseph-Wilhelm-Weg","postalCode":"72379","locality":"Hechingen","municipality":{"key":"08417031","name":"Hechingen, Stadt","type":"Stadt"},"district":{"key":"08417","name":"Zollernalbkreis","type":"Landkreis"},"federalState":{"key":"08","name":"Baden-Württemberg"}},{"name":"Joseph-Wolf-Str.","postalCode":"72379","locality":"Hechingen","municipality":{"key":"08417031","name":"Hechingen, Stadt","type":"Stadt"},"district":{"key":"08417","name":"Zollernalbkreis","type":"Landkreis"},"federalState":{"key":"08","name":"Baden-Württemberg"}},{"name":"Jos-Niklas-Weg","postalCode":"72379","locality":"Hechingen","municipality":{"key":"08417031","name":"Hechingen, Stadt","type":"Stadt"},"district":{"key":"08417","name":"Zollernalbkreis","type":"Landkreis"},"federalState":{"key":"08","name":"Baden-Württemberg"}},{"name":"Junginger Str.","postalCode":"72379","locality":"Hechingen","municipality":{"key":"08417031","name":"Hechingen, Stadt","type":"Stadt"},"district":{"key":"08417","name":"Zollernalbkreis","type":"Landkreis"},"federalState":{"key":"08","name":"Baden-Württemberg"}},{"name":"Justinus-Kerner-Str.","postalCode":"72379","locality":"Hechingen","municipality":{"key":"08417031","name":"Hechingen, Stadt","type":"Stadt"},"district":{"key":"08417","name":"Zollernalbkreis","type":"Landkreis"},"federalState":{"key":"08","name":"Baden-Württemberg"}},{"name":"K3259","postalCode":"73579","locality":"Schechingen","municipality":{"key":"08136062","name":"Schechingen","type":"Kreisangehörige_Gemeinde"},"district":{"key":"08136","name":"Ostalbkreis","type":"Landkreis"},"federalState":{"key":"08","name":"Baden-Württemberg"}},{"name":"Kaaganger Str.","postalCode":"82279","locality":"Eching am Ammersee","municipality":{"key":"09181115","name":"Eching am Ammersee","type":"Kreisangehörige_Gemeinde"},"district":{"key":"09181","name":"Landsberg am Lech","type":"Landkreis"},"federalState":{"key":"09","name":"Bayern"}},{"name":"Kaiser-Friedrich-Str.","postalCode":"73579","locality":"Schechingen","municipality":{"key":"08136062","name":"Schechingen","type":"Kreisangehörige_Gemeinde"},"district":{"key":"08136","name":"Ostalbkreis","type":"Landkreis"},"federalState":{"key":"08","name":"Baden-Württemberg"}},{"name":"Kajetan-Koller-Weg","postalCode":"72379","locality":"Hechingen","municipality":{"key":"08417031","name":"Hechingen, Stadt","type":"Stadt"},"district":{"key":"08417","name":"Zollernalbkreis","type":"Landkreis"},"federalState":{"key":"08","name":"Baden-Württemberg"}},{"name":"Kamillenstr.","postalCode":"85386","locality":"Eching","municipality":{"key":"09178120","name":"Eching","type":"Kreisangehörige_Gemeinde"},"district":{"key":"09178","name":"Freising","type":"Landkreis"},"federalState":{"key":"09","name":"Bayern"}},{"name":"Kammersteigstr.","postalCode":"83259","locality":"Schleching","municipality":{"key":"09189141","name":"Schleching","type":"Kreisangehörige_Gemeinde"},"district":{"key":"09189","name":"Traunstein","type":"Landkreis"},"federalState":{"key":"09","name":"Bayern"}},{"name":"Kampenwandstr.","postalCode":"83259","locality":"Schleching","municipality":{"key":"09189141","name":"Schleching","type":"Kreisangehörige_Gemeinde"},"district":{"key":"09189","name":"Traunstein","type":"Landkreis"},"federalState":{"key":"09","name":"Bayern"}},{"name":"Kantstr.","postalCode":"72379","locality":"Hechingen","municipality":{"key":"08417031","name":"Hechingen, Stadt","type":"Stadt"},"district":{"key":"08417","name":"Zollernalbkreis","type":"Landkreis"},"federalState":{"key":"08","name":"Baden-Württemberg"}},{"name":"Kanzleistr.","postalCode":"72379","locality":"Hechingen","municipality":{"key":"08417031","name":"Hechingen, Stadt","type":"Stadt"},"district":{"key":"08417","name":"Zollernalbkreis","type":"Landkreis"},"federalState":{"key":"08","name":"Baden-Württemberg"}},{"name":"Kapellenacker","postalCode":"84174","locality":"Eching","municipality":{"key":"09274124","name":"Eching","type":"Kreisangehörige_Gemeinde"},"district":{"key":"09274","name":"Landshut","type":"Landkreis"},"federalState":{"key":"09","name":"Bayern"}},{"name":"Kapellenstr.","postalCode":"72379","locality":"Hechingen","municipality":{"key":"08417031","name":"Hechingen, Stadt","type":"Stadt"},"district":{"key":"08417","name":"Zollernalbkreis","type":"Landkreis"},"federalState":{"key":"08","name":"Baden-Württemberg"}},{"name":"Kapellenweg","postalCode":"83259","locality":"Schleching","municipality":{"key":"09189141","name":"Schleching","type":"Kreisangehörige_Gemeinde"},"district":{"key":"09189","name":"Traunstein","type":"Landkreis"},"federalState":{"key":"09","name":"Bayern"}},{"name":"Kapfgasse","postalCode":"72379","locality":"Hechingen","municipality":{"key":"08417031","name":"Hechingen, Stadt","type":"Stadt"},"district":{"key":"08417","name":"Zollernalbkreis","type":"Landkreis"},"federalState":{"key":"08","name":"Baden-Württemberg"}},{"name":"Kappelweg","postalCode":"73579","locality":"Schechingen","municipality":{"key":"08136062","name":"Schechingen","type":"Kreisangehörige_Gemeinde"},"district":{"key":"08136","name":"Ostalbkreis","type":"Landkreis"},"federalState":{"key":"08","name":"Baden-Württemberg"}},{"name":"Karl-Kneidl-Weg","postalCode":"85386","locality":"Eching","municipality":{"key":"09178120","name":"Eching","type":"Kreisangehörige_Gemeinde"},"district":{"key":"09178","name":"Freising","type":"Landkreis"},"federalState":{"key":"09","name":"Bayern"}},{"name":"Karl-Leisner-Str.","postalCode":"85386","locality":"Eching","municipality":{"key":"09178120","name":"Eching","type":"Kreisangehörige_Gemeinde"},"district":{"key":"09178","name":"Freising","type":"Landkreis"},"federalState":{"key":"09","name":"Bayern"}},{"name":"Kärntner Str.","postalCode":"72379","locality":"Hechingen","municipality":{"key":"08417031","name":"Hechingen, Stadt","type":"Stadt"},"district":{"key":"08417","name":"Zollernalbkreis","type":"Landkreis"},"federalState":{"key":"08","name":"Baden-Württemberg"}},{"name":"Karpfenstr.","postalCode":"84174","locality":"Eching","municipality":{"key":"09274124","name":"Eching","type":"Kreisangehörige_Gemeinde"},"district":{"key":"09274","name":"Landshut","type":"Landkreis"},"federalState":{"key":"09","name":"Bayern"}},{"name":"Kasernenstr.","postalCode":"72379","locality":"Hechingen","municipality":{"key":"08417031","name":"Hechingen, Stadt","type":"Stadt"},"district":{"key":"08417","name":"Zollernalbkreis","type":"Landkreis"},"federalState":{"key":"08","name":"Baden-Württemberg"}},{"name":"Katharinenstr.","postalCode":"72379","locality":"Hechingen","municipality":{"key":"08417031","name":"Hechingen, Stadt","type":"Stadt"},"district":{"key":"08417","name":"Zollernalbkreis","type":"Landkreis"},"federalState":{"key":"08","name":"Baden-Württemberg"}},{"name":"Katzbachweg","postalCode":"83259","locality":"Schleching","municipality":{"key":"09189141","name":"Schleching","type":"Kreisangehörige_Gemeinde"},"district":{"key":"09189","name":"Traunstein","type":"Landkreis"},"federalState":{"key":"09","name":"Bayern"}},{"name":"Kaufhausstr.","postalCode":"72379","locality":"Hechingen","municipality":{"key":"08417031","name":"Hechingen, Stadt","type":"Stadt"},"district":{"key":"08417","name":"Zollernalbkreis","type":"Landkreis"},"federalState":{"key":"08","name":"Baden-Württemberg"}},{"name":"Kaullastr.","postalCode":"72379","locality":"Hechingen","municipality":{"key":"08417031","name":"Hechingen, Stadt","type":"Stadt"},"district":{"key":"08417","name":"Zollernalbkreis","type":"Landkreis"},"federalState":{"key":"08","name":"Baden-Württemberg"}},{"name":"Kegeltorweg","postalCode":"72379","locality":"Hechingen","municipality":{"key":"08417031","name":"Hechingen, Stadt","type":"Stadt"},"district":{"key":"08417","name":"Zollernalbkreis","type":"Landkreis"},"federalState":{"key":"08","name":"Baden-Württemberg"}},{"name":"Keltenstr.","postalCode":"75391","locality":"Gechingen","municipality":{"key":"08235029","name":"Gechingen","type":"Kreisangehörige_Gemeinde"},"district":{"key":"08235","name":"Calw","type":"Landkreis"},"federalState":{"key":"08","name":"Baden-Württemberg"}},{"name":"Keltenweg","postalCode":"86759","locality":"Wechingen","municipality":{"key":"09779226","name":"Wechingen","type":"Kreisangehörige_Gemeinde"},"district":{"key":"09779","name":"Donau-Ries","type":"Landkreis"},"federalState":{"key":"09","name":"Bayern"}},{"name":"Kernerstr.","postalCode":"75391","locality":"Gechingen","municipality":{"key":"08235029","name":"Gechingen","type":"Kreisangehörige_Gemeinde"},"district":{"key":"08235","name":"Calw","type":"Landkreis"},"federalState":{"key":"08","name":"Baden-Württemberg"}},{"name":"Kesselfeld","postalCode":"73579","locality":"Schechingen","municipality":{"key":"08136062","name":"Schechingen","type":"Kreisangehörige_Gemeinde"},"district":{"key":"08136","name":"Ostalbkreis","type":"Landkreis"},"federalState":{"key":"08","name":"Baden-Württemberg"}},{"name":"Kiesbergstr.","postalCode":"72379","locality":"Hechingen","municipality":{"key":"08417031","name":"Hechingen, Stadt","type":"Stadt"},"district":{"key":"08417","name":"Zollernalbkreis","type":"Landkreis"},"federalState":{"key":"08","name":"Baden-Württemberg"}},{"name":"Killertalstr.","postalCode":"72379","locality":"Hechingen","municipality":{"key":"08417031","name":"Hechingen, Stadt","type":"Stadt"},"district":{"key":"08417","name":"Zollernalbkreis","type":"Landkreis"},"federalState":{"key":"08","name":"Baden-Württemberg"}},{"name":"Kindergartenweg","postalCode":"83259","locality":"Schleching","municipality":{"key":"09189141","name":"Schleching","type":"Kreisangehörige_Gemeinde"},"district":{"key":"09189","name":"Traunstein","type":"Landkreis"},"federalState":{"key":"09","name":"Bayern"}},{"name":"Kirchgaß","postalCode":"86759","locality":"Wechingen","municipality":{"key":"09779226","name":"Wechingen","type":"Kreisangehörige_Gemeinde"},"district":{"key":"09779","name":"Donau-Ries","type":"Landkreis"},"federalState":{"key":"09","name":"Bayern"}},{"name":"Kirchgasse","postalCode":"84174","locality":"Eching","municipality":{"key":"09274124","name":"Eching","type":"Kreisangehörige_Gemeinde"},"district":{"key":"09274","name":"Landshut","type":"Landkreis"},"federalState":{"key":"09","name":"Bayern"}},{"name":"Kirchgasse","postalCode":"86759","locality":"Wechingen","municipality":{"key":"09779226","name":"Wechingen","type":"Kreisangehörige_Gemeinde"},"district":{"key":"09779","name":"Donau-Ries","type":"Landkreis"},"federalState":{"key":"09","name":"Bayern"}},{"name":"Kirchgäßle","postalCode":"72379","locality":"Hechingen","municipality":{"key":"08417031","name":"Hechingen, Stadt","type":"Stadt"},"district":{"key":"08417","name":"Zollernalbkreis","type":"Landkreis"},"federalState":{"key":"08","name":"Baden-Württemberg"}},{"name":"Kirchhaldeweg","postalCode":"75391","locality":"Gechingen","municipality":{"key":"08235029","name":"Gechingen","type":"Kreisangehörige_Gemeinde"},"district":{"key":"08235","name":"Calw","type":"Landkreis"},"federalState":{"key":"08","name":"Baden-Württemberg"}},{"name":"Kirchhoffstr.","postalCode":"85386","locality":"Eching","municipality":{"key":"09178120","name":"Eching","type":"Kreisangehörige_Gemeinde"},"district":{"key":"09178","name":"Freising","type":"Landkreis"},"federalState":{"key":"09","name":"Bayern"}},{"name":"Kirchplatz","postalCode":"72379","locality":"Hechingen","municipality":{"key":"08417031","name":"Hechingen, Stadt","type":"Stadt"},"district":{"key":"08417","name":"Zollernalbkreis","type":"Landkreis"},"federalState":{"key":"08","name":"Baden-Württemberg"}},{"name":"Kirchplatz","postalCode":"83259","locality":"Schleching","municipality":{"key":"09189141","name":"Schleching","type":"Kreisangehörige_Gemeinde"},"district":{"key":"09189","name":"Traunstein","type":"Landkreis"},"federalState":{"key":"09","name":"Bayern"}},{"name":"Kirchstr.","postalCode":"72379","locality":"Hechingen","municipality":{"key":"08417031","name":"Hechingen, Stadt","type":"Stadt"},"district":{"key":"08417","name":"Zollernalbkreis","type":"Landkreis"},"federalState":{"key":"08","name":"Baden-Württemberg"}},{"name":"Kirchstr.","postalCode":"75391","locality":"Gechingen","municipality":{"key":"08235029","name":"Gechingen","type":"Kreisangehörige_Gemeinde"},"district":{"key":"08235","name":"Calw","type":"Landkreis"},"federalState":{"key":"08","name":"Baden-Württemberg"}},{"name":"Kirchstr.","postalCode":"85386","locality":"Eching","municipality":{"key":"09178120","name":"Eching","type":"Kreisangehörige_Gemeinde"},"district":{"key":"09178","name":"Freising","type":"Landkreis"},"federalState":{"key":"09","name":"Bayern"}},{"name":"Kirchweg","postalCode":"72379","locality":"Hechingen","municipality":{"key":"08417031","name":"Hechingen, Stadt","type":"Stadt"},"district":{"key":"08417","name":"Zollernalbkreis","type":"Landkreis"},"federalState":{"key":"08","name":"Baden-Württemberg"}},{"name":"Kirschenstr.","postalCode":"84174","locality":"Eching","municipality":{"key":"09274124","name":"Eching","type":"Kreisangehörige_Gemeinde"},"district":{"key":"09274","name":"Landshut","type":"Landkreis"},"federalState":{"key":"09","name":"Bayern"}},{"name":"Kleinfeldweg","postalCode":"83259","locality":"Schleching","municipality":{"key":"09189141","name":"Schleching","type":"Kreisangehörige_Gemeinde"},"district":{"key":"09189","name":"Traunstein","type":"Landkreis"},"federalState":{"key":"09","name":"Bayern"}},{"name":"Kleiststr.","postalCode":"85386","locality":"Eching","municipality":{"key":"09178120","name":"Eching","type":"Kreisangehörige_Gemeinde"},"district":{"key":"09178","name":"Freising","type":"Landkreis"},"federalState":{"key":"09","name":"Bayern"}},{"name":"Klosterberg","postalCode":"84174","locality":"Eching","municipality":{"key":"09274124","name":"Eching","type":"Kreisangehörige_Gemeinde"},"district":{"key":"09274","name":"Landshut","type":"Landkreis"},"federalState":{"key":"09","name":"Bayern"}},{"name":"Klostergarten Stetten","postalCode":"72379","locality":"Hechingen","municipality":{"key":"08417031","name":"Hechingen, Stadt","type":"Stadt"},"district":{"key":"08417","name":"Zollernalbkreis","type":"Landkreis"},"federalState":{"key":"08","name":"Baden-Württemberg"}},{"name":"Klostersteige","postalCode":"72379","locality":"Hechingen","municipality":{"key":"08417031","name":"Hechingen, Stadt","type":"Stadt"},"district":{"key":"08417","name":"Zollernalbkreis","type":"Landkreis"},"federalState":{"key":"08","name":"Baden-Württemberg"}},{"name":"Klosterstr.","postalCode":"72379","locality":"Hechingen","municipality":{"key":"08417031","name":"Hechingen, Stadt","type":"Stadt"},"district":{"key":"08417","name":"Zollernalbkreis","type":"Landkreis"},"federalState":{"key":"08","name":"Baden-Württemberg"}},{"name":"Laitgai","postalCode":"72379","locality":"Hechingen","municipality":{"key":"08417031","name":"Hechingen, Stadt","type":"Stadt"},"district":{"key":"08417","name":"Zollernalbkreis","type":"Landkreis"},"federalState":{"key":"08","name":"Baden-Württemberg"}},{"name":"Landerhauser Weg","postalCode":"83259","locality":"Schleching","municipality":{"key":"09189141","name":"Schleching","type":"Kreisangehörige_Gemeinde"},"district":{"key":"09189","name":"Traunstein","type":"Landkreis"},"federalState":{"key":"09","name":"Bayern"}},{"name":"Landstr.","postalCode":"72379","locality":"Hechingen","municipality":{"key":"08417031","name":"Hechingen, Stadt","type":"Stadt"},"district":{"key":"08417","name":"Zollernalbkreis","type":"Landkreis"},"federalState":{"key":"08","name":"Baden-Württemberg"}},{"name":"Langäcker","postalCode":"72379","locality":"Hechingen","municipality":{"key":"08417031","name":"Hechingen, Stadt","type":"Stadt"},"district":{"key":"08417","name":"Zollernalbkreis","type":"Landkreis"},"federalState":{"key":"08","name":"Baden-Württemberg"}},{"name":"Langäckerstr.","postalCode":"82279","locality":"Eching am Ammersee","municipality":{"key":"09181115","name":"Eching am Ammersee","type":"Kreisangehörige_Gemeinde"},"district":{"key":"09181","name":"Landsberg am Lech","type":"Landkreis"},"federalState":{"key":"09","name":"Bayern"}},{"name":"Langackerweg","postalCode":"83259","locality":"Schleching","municipality":{"key":"09189141","name":"Schleching","type":"Kreisangehörige_Gemeinde"},"district":{"key":"09189","name":"Traunstein","type":"Landkreis"},"federalState":{"key":"09","name":"Bayern"}},{"name":"Lange Gasse","postalCode":"85386","locality":"Eching","municipality":{"key":"09178120","name":"Eching","type":"Kreisangehörige_Gemeinde"},"district":{"key":"09178","name":"Freising","type":"Landkreis"},"federalState":{"key":"09","name":"Bayern"}},{"name":"Lange Hecke","postalCode":"86759","locality":"Wechingen","municipality":{"key":"09779226","name":"Wechingen","type":"Kreisangehörige_Gemeinde"},"district":{"key":"09779","name":"Donau-Ries","type":"Landkreis"},"federalState":{"key":"09","name":"Bayern"}},{"name":"Langenstr.","postalCode":"73579","locality":"Schechingen","municipality":{"key":"08136062","name":"Schechingen","type":"Kreisangehörige_Gemeinde"},"district":{"key":"08136","name":"Ostalbkreis","type":"Landkreis"},"federalState":{"key":"08","name":"Baden-Württemberg"}},{"name":"Lange Str.","postalCode":"72379","locality":"Hechingen","municipality":{"key":"08417031","name":"Hechingen, Stadt","type":"Stadt"},"district":{"key":"08417","name":"Zollernalbkreis","type":"Landkreis"},"federalState":{"key":"08","name":"Baden-Württemberg"}},{"name":"Lanzinger Str.","postalCode":"83259","locality":"Schleching","municipality":{"key":"09189141","name":"Schleching","type":"Kreisangehörige_Gemeinde"},"district":{"key":"09189","name":"Traunstein","type":"Landkreis"},"federalState":{"key":"09","name":"Bayern"}},{"name":"Lärchenweg","postalCode":"75391","locality":"Gechingen","municipality":{"key":"08235029","name":"Gechingen","type":"Kreisangehörige_Gemeinde"},"district":{"key":"08235","name":"Calw","type":"Landkreis"},"federalState":{"key":"08","name":"Baden-Württemberg"}},{"name":"Laubacher Str.","postalCode":"73579","locality":"Schechingen","municipality":{"key":"08136062","name":"Schechingen","type":"Kreisangehörige_Gemeinde"},"district":{"key":"08136","name":"Ostalbkreis","type":"Landkreis"},"federalState":{"key":"08","name":"Baden-Württemberg"}},{"name":"Lehenweg","postalCode":"75391","locality":"Gechingen","municipality":{"key":"08235029","name":"Gechingen","type":"Kreisangehörige_Gemeinde"},"district":{"key":"08235","name":"Calw","type":"Landkreis"},"federalState":{"key":"08","name":"Baden-Württemberg"}},{"name":"Lehmackerweg","postalCode":"83259","locality":"Schleching","municipality":{"key":"09189141","name":"Schleching","type":"Kreisangehörige_Gemeinde"},"district":{"key":"09189","name":"Traunstein","type":"Landkreis"},"federalState":{"key":"09","name":"Bayern"}},{"name":"Leinweiler Str.","postalCode":"73579","locality":"Schechingen","municipality":{"key":"08136062","name":"Schechingen","type":"Kreisangehörige_Gemeinde"},"district":{"key":"08136","name":"Ostalbkreis","type":"Landkreis"},"federalState":{"key":"08","name":"Baden-Württemberg"}},{"name":"Leitenstr.","postalCode":"85386","locality":"Eching","municipality":{"key":"09178120","name":"Eching","type":"Kreisangehörige_Gemeinde"},"district":{"key":"09178","name":"Freising","type":"Landkreis"},"federalState":{"key":"09","name":"Bayern"}},{"name":"Lena-Christ-Str.","postalCode":"85386","locality":"Eching","municipality":{"key":"09178120","name":"Eching","type":"Kreisangehörige_Gemeinde"},"district":{"key":"09178","name":"Freising","type":"Landkreis"},"federalState":{"key":"09","name":"Bayern"}},{"name":"Lenauweg","postalCode":"72379","locality":"Hechingen","municipality":{"key":"08417031","name":"Hechingen, Stadt","type":"Stadt"},"district":{"key":"08417","name":"Zollernalbkreis","type":"Landkreis"},"federalState":{"key":"08","name":"Baden-Württemberg"}},{"name":"Leon-Schmalzbach-Weg","postalCode":"72379","locality":"Hechingen","municipality":{"key":"08417031","name":"Hechingen, Stadt","type":"Stadt"},"district":{"key":"08417","name":"Zollernalbkreis","type":"Landkreis"},"federalState":{"key":"08","name":"Baden-Württemberg"}},{"name":"Leo-Saurer-Str.","postalCode":"72379","locality":"Hechingen","municipality":{"key":"08417031","name":"Hechingen, Stadt","type":"Stadt"},"district":{"key":"08417","name":"Zollernalbkreis","type":"Landkreis"},"federalState":{"key":"08","name":"Baden-Württemberg"}},{"name":"Lerchenstr.","postalCode":"84174","locality":"Eching","municipality":{"key":"09274124","name":"Eching","type":"Kreisangehörige_Gemeinde"},"district":{"key":"09274","name":"Landshut","type":"Landkreis"},"federalState":{"key":"09","name":"Bayern"}},{"name":"Lerchenweg","postalCode":"72379","locality":"Hechingen","municipality":{"key":"08417031","name":"Hechingen, Stadt","type":"Stadt"},"district":{"key":"08417","name":"Zollernalbkreis","type":"Landkreis"},"federalState":{"key":"08","name":"Baden-Württemberg"}},{"name":"Lerchenweg","postalCode":"82279","locality":"Eching am Ammersee","municipality":{"key":"09181115","name":"Eching am Ammersee","type":"Kreisangehörige_Gemeinde"},"district":{"key":"09181","name":"Landsberg am Lech","type":"Landkreis"},"federalState":{"key":"09","name":"Bayern"}},{"name":"Lerchenweg","postalCode":"85386","locality":"Eching","municipality":{"key":"09178120","name":"Eching","type":"Kreisangehörige_Gemeinde"},"district":{"key":"09178","name":"Freising","type":"Landkreis"},"federalState":{"key":"09","name":"Bayern"}},{"name":"Lessingstr.","postalCode":"75391","locality":"Gechingen","municipality":{"key":"08235029","name":"Gechingen","type":"Kreisangehörige_Gemeinde"},"district":{"key":"08235","name":"Calw","type":"Landkreis"},"federalState":{"key":"08","name":"Baden-Württemberg"}},{"name":"Lessingstr.","postalCode":"85386","locality":"Eching","municipality":{"key":"09178120","name":"Eching","type":"Kreisangehörige_Gemeinde"},"district":{"key":"09178","name":"Freising","type":"Landkreis"},"federalState":{"key":"09","name":"Bayern"}},{"name":"Lettengasse","postalCode":"73579","locality":"Schechingen","municipality":{"key":"08136062","name":"Schechingen","type":"Kreisangehörige_Gemeinde"},"district":{"key":"08136","name":"Ostalbkreis","type":"Landkreis"},"federalState":{"key":"08","name":"Baden-Württemberg"}},{"name":"Lettenweg","postalCode":"73579","locality":"Schechingen","municipality":{"key":"08136062","name":"Schechingen","type":"Kreisangehörige_Gemeinde"},"district":{"key":"08136","name":"Ostalbkreis","type":"Landkreis"},"federalState":{"key":"08","name":"Baden-Württemberg"}},{"name":"Leviweg","postalCode":"72379","locality":"Hechingen","municipality":{"key":"08417031","name":"Hechingen, Stadt","type":"Stadt"},"district":{"key":"08417","name":"Zollernalbkreis","type":"Landkreis"},"federalState":{"key":"08","name":"Baden-Württemberg"}},{"name":"Libellenweg","postalCode":"84174","locality":"Eching","municipality":{"key":"09274124","name":"Eching","type":"Kreisangehörige_Gemeinde"},"district":{"key":"09274","name":"Landshut","type":"Landkreis"},"federalState":{"key":"09","name":"Bayern"}},{"name":"Lichteweg","postalCode":"75391","locality":"Gechingen","municipality":{"key":"08235029","name":"Gechingen","type":"Kreisangehörige_Gemeinde"},"district":{"key":"08235","name":"Calw","type":"Landkreis"},"federalState":{"key":"08","name":"Baden-Württemberg"}},{"name":"Lichtweg","postalCode":"85386","locality":"Eching","municipality":{"key":"09178120","name":"Eching","type":"Kreisangehörige_Gemeinde"},"district":{"key":"09178","name":"Freising","type":"Landkreis"},"federalState":{"key":"09","name":"Bayern"}},{"name":"Liebigstr.","postalCode":"85386","locality":"Eching","municipality":{"key":"09178120","name":"Eching","type":"Kreisangehörige_Gemeinde"},"district":{"key":"09178","name":"Freising","type":"Landkreis"},"federalState":{"key":"09","name":"Bayern"}},{"name":"Lilienstr.","postalCode":"85386","locality":"Eching","municipality":{"key":"09178120","name":"Eching","type":"Kreisangehörige_Gemeinde"},"district":{"key":"09178","name":"Freising","type":"Landkreis"},"federalState":{"key":"09","name":"Bayern"}},{"name":"Lilienweg","postalCode":"75391","locality":"Gechingen","municipality":{"key":"08235029","name":"Gechingen","type":"Kreisangehörige_Gemeinde"},"district":{"key":"08235","name":"Calw","type":"Landkreis"},"federalState":{"key":"08","name":"Baden-Württemberg"}},{"name":"Lilienweg","postalCode":"84174","locality":"Eching","municipality":{"key":"09274124","name":"Eching","type":"Kreisangehörige_Gemeinde"},"district":{"key":"09274","name":"Landshut","type":"Landkreis"},"federalState":{"key":"09","name":"Bayern"}},{"name":"Limesstr.","postalCode":"73579","locality":"Schechingen","municipality":{"key":"08136062","name":"Schechingen","type":"Kreisangehörige_Gemeinde"},"district":{"key":"08136","name":"Ostalbkreis","type":"Landkreis"},"federalState":{"key":"08","name":"Baden-Württemberg"}},{"name":"Lindäckerweg","postalCode":"83259","locality":"Schleching","municipality":{"key":"09189141","name":"Schleching","type":"Kreisangehörige_Gemeinde"},"district":{"key":"09189","name":"Traunstein","type":"Landkreis"},"federalState":{"key":"09","name":"Bayern"}},{"name":"Lindengasse","postalCode":"72379","locality":"Hechingen","municipality":{"key":"08417031","name":"Hechingen, Stadt","type":"Stadt"},"district":{"key":"08417","name":"Zollernalbkreis","type":"Landkreis"},"federalState":{"key":"08","name":"Baden-Württemberg"}},{"name":"Lindenstr.","postalCode":"72379","locality":"Hechingen","municipality":{"key":"08417031","name":"Hechingen, Stadt","type":"Stadt"},"district":{"key":"08417","name":"Zollernalbkreis","type":"Landkreis"},"federalState":{"key":"08","name":"Baden-Württemberg"}},{"name":"Lindenstr.","postalCode":"75391","locality":"Gechingen","municipality":{"key":"08235029","name":"Gechingen","type":"Kreisangehörige_Gemeinde"},"district":{"key":"08235","name":"Calw","type":"Landkreis"},"federalState":{"key":"08","name":"Baden-Württemberg"}},{"name":"Lindenstr.","postalCode":"84174","locality":"Eching","municipality":{"key":"09274124","name":"Eching","type":"Kreisangehörige_Gemeinde"},"district":{"key":"09274","name":"Landshut","type":"Landkreis"},"federalState":{"key":"09","name":"Bayern"}},{"name":"Lindenweg","postalCode":"85386","locality":"Eching","municipality":{"key":"09178120","name":"Eching","type":"Kreisangehörige_Gemeinde"},"district":{"key":"09178","name":"Freising","type":"Landkreis"},"federalState":{"key":"09","name":"Bayern"}},{"name":"Linsenäcker","postalCode":"72379","locality":"Hechingen","municipality":{"key":"08417031","name":"Hechingen, Stadt","type":"Stadt"},"district":{"key":"08417","name":"Zollernalbkreis","type":"Landkreis"},"federalState":{"key":"08","name":"Baden-Württemberg"}},{"name":"Loherfeldstr.","postalCode":"83259","locality":"Schleching","municipality":{"key":"09189141","name":"Schleching","type":"Kreisangehörige_Gemeinde"},"district":{"key":"09189","name":"Traunstein","type":"Landkreis"},"federalState":{"key":"09","name":"Bayern"}},{"name":"Lohhofer Str.","postalCode":"85386","locality":"Eching","municipality":{"key":"09178120","name":"Eching","type":"Kreisangehörige_Gemeinde"},"district":{"key":"09178","name":"Freising","type":"Landkreis"},"federalState":{"key":"09","name":"Bayern"}},{"name":"Lohweg","postalCode":"85386","locality":"Eching","municipality":{"key":"09178120","name":"Eching","type":"Kreisangehörige_Gemeinde"},"district":{"key":"09178","name":"Freising","type":"Landkreis"},"federalState":{"key":"09","name":"Bayern"}},{"name":"Lotzenäcker","postalCode":"72379","locality":"Hechingen","municipality":{"key":"08417031","name":"Hechingen, Stadt","type":"Stadt"},"district":{"key":"08417","name":"Zollernalbkreis","type":"Landkreis"},"federalState":{"key":"08","name":"Baden-Württemberg"}},{"name":"Löwenstr.","postalCode":"72379","locality":"Hechingen","municipality":{"key":"08417031","name":"Hechingen, Stadt","type":"Stadt"},"district":{"key":"08417","name":"Zollernalbkreis","type":"Landkreis"},"federalState":{"key":"08","name":"Baden-Württemberg"}},{"name":"Maasen Planie","postalCode":"75391","locality":"Gechingen","municipality":{"key":"08235029","name":"Gechingen","type":"Kreisangehörige_Gemeinde"},"district":{"key":"08235","name":"Calw","type":"Landkreis"},"federalState":{"key":"08","name":"Baden-Württemberg"}},{"name":"Maisbachweg","postalCode":"83259","locality":"Schleching","municipality":{"key":"09189141","name":"Schleching","type":"Kreisangehörige_Gemeinde"},"district":{"key":"09189","name":"Traunstein","type":"Landkreis"},"federalState":{"key":"09","name":"Bayern"}},{"name":"Maischer Str.","postalCode":"85386","locality":"Eching","municipality":{"key":"09178120","name":"Eching","type":"Kreisangehörige_Gemeinde"},"district":{"key":"09178","name":"Freising","type":"Landkreis"},"federalState":{"key":"09","name":"Bayern"}},{"name":"Maisteigstr.","postalCode":"85386","locality":"Eching","municipality":{"key":"09178120","name":"Eching","type":"Kreisangehörige_Gemeinde"},"district":{"key":"09178","name":"Freising","type":"Landkreis"},"federalState":{"key":"09","name":"Bayern"}},{"name":"Mallershofener Weg","postalCode":"85386","locality":"Eching","municipality":{"key":"09178120","name":"Eching","type":"Kreisangehörige_Gemeinde"},"district":{"key":"09178","name":"Freising","type":"Landkreis"},"federalState":{"key":"09","name":"Bayern"}},{"name":"Maltwies","postalCode":"72379","locality":"Hechingen","municipality":{"key":"08417031","name":"Hechingen, Stadt","type":"Stadt"},"district":{"key":"08417","name":"Zollernalbkreis","type":"Landkreis"},"federalState":{"key":"08","name":"Baden-Württemberg"}},{"name":"Marderweg","postalCode":"75391","locality":"Gechingen","municipality":{"key":"08235029","name":"Gechingen","type":"Kreisangehörige_Gemeinde"},"district":{"key":"08235","name":"Calw","type":"Landkreis"},"federalState":{"key":"08","name":"Baden-Württemberg"}},{"name":"Margeritenstr.","postalCode":"85386","locality":"Eching","municipality":{"key":"09178120","name":"Eching","type":"Kreisangehörige_Gemeinde"},"district":{"key":"09178","name":"Freising","type":"Landkreis"},"federalState":{"key":"09","name":"Bayern"}},{"name":"Margeritenweg","postalCode":"84174","locality":"Eching","municipality":{"key":"09274124","name":"Eching","type":"Kreisangehörige_Gemeinde"},"district":{"key":"09274","name":"Landshut","type":"Landkreis"},"federalState":{"key":"09","name":"Bayern"}},{"name":"Maria-Link-Str.","postalCode":"85386","locality":"Eching","municipality":{"key":"09178120","name":"Eching","type":"Kreisangehörige_Gemeinde"},"district":{"key":"09178","name":"Freising","type":"Landkreis"},"federalState":{"key":"09","name":"Bayern"}},{"name":"Marienstr.","postalCode":"85386","locality":"Eching","municipality":{"key":"09178120","name":"Eching","type":"Kreisangehörige_Gemeinde"},"district":{"key":"09178","name":"Freising","type":"Landkreis"},"federalState":{"key":"09","name":"Bayern"}},{"name":"Markhaulinie","postalCode":"75391","locality":"Gechingen","municipality":{"key":"08235029","name":"Gechingen","type":"Kreisangehörige_Gemeinde"},"district":{"key":"08235","name":"Calw","type":"Landkreis"},"federalState":{"key":"08","name":"Baden-Württemberg"}},{"name":"Marktgasse","postalCode":"86759","locality":"Wechingen","municipality":{"key":"09779226","name":"Wechingen","type":"Kreisangehörige_Gemeinde"},"district":{"key":"09779","name":"Donau-Ries","type":"Landkreis"},"federalState":{"key":"09","name":"Bayern"}},{"name":"Marktplatz","postalCode":"72379","locality":"Hechingen","municipality":{"key":"08417031","name":"Hechingen, Stadt","type":"Stadt"},"district":{"key":"08417","name":"Zollernalbkreis","type":"Landkreis"},"federalState":{"key":"08","name":"Baden-Württemberg"}},{"name":"Marktplatz","postalCode":"73579","locality":"Schechingen","municipality":{"key":"08136062","name":"Schechingen","type":"Kreisangehörige_Gemeinde"},"district":{"key":"08136","name":"Ostalbkreis","type":"Landkreis"},"federalState":{"key":"08","name":"Baden-Württemberg"}},{"name":"Marktstr.","postalCode":"72379","locality":"Hechingen","municipality":{"key":"08417031","name":"Hechingen, Stadt","type":"Stadt"},"district":{"key":"08417","name":"Zollernalbkreis","type":"Landkreis"},"federalState":{"key":"08","name":"Baden-Württemberg"}},{"name":"Marquartsteiner Str.","postalCode":"83259","locality":"Schleching","municipality":{"key":"09189141","name":"Schleching","type":"Kreisangehörige_Gemeinde"},"district":{"key":"09189","name":"Traunstein","type":"Landkreis"},"federalState":{"key":"09","name":"Bayern"}},{"name":"Martinstr.","postalCode":"72379","locality":"Hechingen","municipality":{"key":"08417031","name":"Hechingen, Stadt","type":"Stadt"},"district":{"key":"08417","name":"Zollernalbkreis","type":"Landkreis"},"federalState":{"key":"08","name":"Baden-Württemberg"}},{"name":"Massenhausener Str.","postalCode":"85386","locality":"Eching","municipality":{"key":"09178120","name":"Eching","type":"Kreisangehörige_Gemeinde"},"district":{"key":"09178","name":"Freising","type":"Landkreis"},"federalState":{"key":"09","name":"Bayern"}},{"name":"Masurenweg","postalCode":"72379","locality":"Hechingen","municipality":{"key":"08417031","name":"Hechingen, Stadt","type":"Stadt"},"district":{"key":"08417","name":"Zollernalbkreis","type":"Landkreis"},"federalState":{"key":"08","name":"Baden-Württemberg"}},{"name":"Max-Eyth-Str.","postalCode":"72379","locality":"Hechingen","municipality":{"key":"08417031","name":"Hechingen, Stadt","type":"Stadt"},"district":{"key":"08417","name":"Zollernalbkreis","type":"Landkreis"},"federalState":{"key":"08","name":"Baden-Württemberg"}},{"name":"Maximilian-Kolbe Str.","postalCode":"85386","locality":"Eching","municipality":{"key":"09178120","name":"Eching","type":"Kreisangehörige_Gemeinde"},"district":{"key":"09178","name":"Freising","type":"Landkreis"},"federalState":{"key":"09","name":"Bayern"}},{"name":"Max-Planck-Str.","postalCode":"72379","locality":"Hechingen","municipality":{"key":"08417031","name":"Hechingen, Stadt","type":"Stadt"},"district":{"key":"08417","name":"Zollernalbkreis","type":"Landkreis"},"federalState":{"key":"08","name":"Baden-Württemberg"}},{"name":"Meierweg","postalCode":"86759","locality":"Wechingen","municipality":{"key":"09779226","name":"Wechingen","type":"Kreisangehörige_Gemeinde"},"district":{"key":"09779","name":"Donau-Ries","type":"Landkreis"},"federalState":{"key":"09","name":"Bayern"}},{"name":"Meisenstr.","postalCode":"84174","locality":"Eching","municipality":{"key":"09274124","name":"Eching","type":"Kreisangehörige_Gemeinde"},"district":{"key":"09274","name":"Landshut","type":"Landkreis"},"federalState":{"key":"09","name":"Bayern"}},{"name":"Meisenweg","postalCode":"72379","locality":"Hechingen","municipality":{"key":"08417031","name":"Hechingen, Stadt","type":"Stadt"},"district":{"key":"08417","name":"Zollernalbkreis","type":"Landkreis"},"federalState":{"key":"08","name":"Baden-Württemberg"}},{"name":"Meisenweg","postalCode":"75391","locality":"Gechingen","municipality":{"key":"08235029","name":"Gechingen","type":"Kreisangehörige_Gemeinde"},"district":{"key":"08235","name":"Calw","type":"Landkreis"},"federalState":{"key":"08","name":"Baden-Württemberg"}},{"name":"Meisenweg","postalCode":"85386","locality":"Eching","municipality":{"key":"09178120","name":"Eching","type":"Kreisangehörige_Gemeinde"},"district":{"key":"09178","name":"Freising","type":"Landkreis"},"federalState":{"key":"09","name":"Bayern"}},{"name":"Metzgergasse","postalCode":"75391","locality":"Gechingen","municipality":{"key":"08235029","name":"Gechingen","type":"Kreisangehörige_Gemeinde"},"district":{"key":"08235","name":"Calw","type":"Landkreis"},"federalState":{"key":"08","name":"Baden-Württemberg"}},{"name":"Mitteldorf","postalCode":"72379","locality":"Hechingen","municipality":{"key":"08417031","name":"Hechingen, Stadt","type":"Stadt"},"district":{"key":"08417","name":"Zollernalbkreis","type":"Landkreis"},"federalState":{"key":"08","name":"Baden-Württemberg"}},{"name":"Mittenheimer Str.","postalCode":"85386","locality":"Eching","municipality":{"key":"09178120","name":"Eching","type":"Kreisangehörige_Gemeinde"},"district":{"key":"09178","name":"Freising","type":"Landkreis"},"federalState":{"key":"09","name":"Bayern"}},{"name":"Mönchweg","postalCode":"75391","locality":"Gechingen","municipality":{"key":"08235029","name":"Gechingen","type":"Kreisangehörige_Gemeinde"},"district":{"key":"08235","name":"Calw","type":"Landkreis"},"federalState":{"key":"08","name":"Baden-Württemberg"}},{"name":"Moosachstr.","postalCode":"85386","locality":"Eching","municipality":{"key":"09178120","name":"Eching","type":"Kreisangehörige_Gemeinde"},"district":{"key":"09178","name":"Freising","type":"Landkreis"},"federalState":{"key":"09","name":"Bayern"}},{"name":"Moosstr.","postalCode":"82279","locality":"Eching am Ammersee","municipality":{"key":"09181115","name":"Eching am Ammersee","type":"Kreisangehörige_Gemeinde"},"district":{"key":"09181","name":"Landsberg am Lech","type":"Landkreis"},"federalState":{"key":"09","name":"Bayern"}},{"name":"Mörikestr.","postalCode":"72379","locality":"Hechingen","municipality":{"key":"08417031","name":"Hechingen, Stadt","type":"Stadt"},"district":{"key":"08417","name":"Zollernalbkreis","type":"Landkreis"},"federalState":{"key":"08","name":"Baden-Württemberg"}},{"name":"Mörikestr.","postalCode":"75391","locality":"Gechingen","municipality":{"key":"08235029","name":"Gechingen","type":"Kreisangehörige_Gemeinde"},"district":{"key":"08235","name":"Calw","type":"Landkreis"},"federalState":{"key":"08","name":"Baden-Württemberg"}},{"name":"Mörikeweg","postalCode":"72379","locality":"Hechingen","municipality":{"key":"08417031","name":"Hechingen, Stadt","type":"Stadt"},"district":{"key":"08417","name":"Zollernalbkreis","type":"Landkreis"},"federalState":{"key":"08","name":"Baden-Württemberg"}},{"name":"Mössinger Str.","postalCode":"72379","locality":"Hechingen","municipality":{"key":"08417031","name":"Hechingen, Stadt","type":"Stadt"},"district":{"key":"08417","name":"Zollernalbkreis","type":"Landkreis"},"federalState":{"key":"08","name":"Baden-Württemberg"}},{"name":"Mövenweg","postalCode":"82279","locality":"Eching am Ammersee","municipality":{"key":"09181115","name":"Eching am Ammersee","type":"Kreisangehörige_Gemeinde"},"district":{"key":"09181","name":"Landsberg am Lech","type":"Landkreis"},"federalState":{"key":"09","name":"Bayern"}},{"name":"Mozartstr.","postalCode":"72379","locality":"Hechingen","municipality":{"key":"08417031","name":"Hechingen, Stadt","type":"Stadt"},"district":{"key":"08417","name":"Zollernalbkreis","type":"Landkreis"},"federalState":{"key":"08","name":"Baden-Württemberg"}},{"name":"Mühläckerstr.","postalCode":"72379","locality":"Hechingen","municipality":{"key":"08417031","name":"Hechingen, Stadt","type":"Stadt"},"district":{"key":"08417","name":"Zollernalbkreis","type":"Landkreis"},"federalState":{"key":"08","name":"Baden-Württemberg"}},{"name":"Mühlauer Str.","postalCode":"83259","locality":"Schleching","municipality":{"key":"09189141","name":"Schleching","type":"Kreisangehörige_Gemeinde"},"district":{"key":"09189","name":"Traunstein","type":"Landkreis"},"federalState":{"key":"09","name":"Bayern"}},{"name":"Mühlbachweg","postalCode":"83259","locality":"Schleching","municipality":{"key":"09189141","name":"Schleching","type":"Kreisangehörige_Gemeinde"},"district":{"key":"09189","name":"Traunstein","type":"Landkreis"},"federalState":{"key":"09","name":"Bayern"}},{"name":"Mühlbergweg","postalCode":"83259","locality":"Schleching","municipality":{"key":"09189141","name":"Schleching","type":"Kreisangehörige_Gemeinde"},"district":{"key":"09189","name":"Traunstein","type":"Landkreis"},"federalState":{"key":"09","name":"Bayern"}},{"name":"Mühlenstr.","postalCode":"83259","locality":"Schleching","municipality":{"key":"09189141","name":"Schleching","type":"Kreisangehörige_Gemeinde"},"district":{"key":"09189","name":"Traunstein","type":"Landkreis"},"federalState":{"key":"09","name":"Bayern"}},{"name":"Mühlenstr.","postalCode":"84174","locality":"Eching","municipality":{"key":"09274124","name":"Eching","type":"Kreisangehörige_Gemeinde"},"district":{"key":"09274","name":"Landshut","type":"Landkreis"},"federalState":{"key":"09","name":"Bayern"}},{"name":"Mühlenweg","postalCode":"72379","locality":"Hechingen","municipality":{"key":"08417031","name":"Hechingen, Stadt","type":"Stadt"},"district":{"key":"08417","name":"Zollernalbkreis","type":"Landkreis"},"federalState":{"key":"08","name":"Baden-Württemberg"}},{"name":"Mühlenweg","postalCode":"85386","locality":"Eching","municipality":{"key":"09178120","name":"Eching","type":"Kreisangehörige_Gemeinde"},"district":{"key":"09178","name":"Freising","type":"Landkreis"},"federalState":{"key":"09","name":"Bayern"}},{"name":"Mühlhofstr.","postalCode":"72379","locality":"Hechingen","municipality":{"key":"08417031","name":"Hechingen, Stadt","type":"Stadt"},"district":{"key":"08417","name":"Zollernalbkreis","type":"Landkreis"},"federalState":{"key":"08","name":"Baden-Württemberg"}},{"name":"Mühlstetten","postalCode":"84174","locality":"Eching","municipality":{"key":"09274124","name":"Eching","type":"Kreisangehörige_Gemeinde"},"district":{"key":"09274","name":"Landshut","type":"Landkreis"},"federalState":{"key":"09","name":"Bayern"}},{"name":"Nelkenstr.","postalCode":"84174","locality":"Eching","municipality":{"key":"09274124","name":"Eching","type":"Kreisangehörige_Gemeinde"},"district":{"key":"09274","name":"Landshut","type":"Landkreis"},"federalState":{"key":"09","name":"Bayern"}},{"name":"Nelkenstr.","postalCode":"85386","locality":"Eching","municipality":{"key":"09178120","name":"Eching","type":"Kreisangehörige_Gemeinde"},"district":{"key":"09178","name":"Freising","type":"Landkreis"},"federalState":{"key":"09","name":"Bayern"}},{"name":"Nelkenweg","postalCode":"75391","locality":"Gechingen","municipality":{"key":"08235029","name":"Gechingen","type":"Kreisangehörige_Gemeinde"},"district":{"key":"08235","name":"Calw","type":"Landkreis"},"federalState":{"key":"08","name":"Baden-Württemberg"}},{"name":"Nelly-Sachs-Str.","postalCode":"85386","locality":"Eching","municipality":{"key":"09178120","name":"Eching","type":"Kreisangehörige_Gemeinde"},"district":{"key":"09178","name":"Freising","type":"Landkreis"},"federalState":{"key":"09","name":"Bayern"}},{"name":"Neubergstr.","postalCode":"72379","locality":"Hechingen","municipality":{"key":"08417031","name":"Hechingen, Stadt","type":"Stadt"},"district":{"key":"08417","name":"Zollernalbkreis","type":"Landkreis"},"federalState":{"key":"08","name":"Baden-Württemberg"}},{"name":"Neue Hechinger Str.","postalCode":"72379","locality":"Hechingen","municipality":{"key":"08417031","name":"Hechingen, Stadt","type":"Stadt"},"district":{"key":"08417","name":"Zollernalbkreis","type":"Landkreis"},"federalState":{"key":"08","name":"Baden-Württemberg"}},{"name":"Neue Rottenburger Str.","postalCode":"72379","locality":"Hechingen","municipality":{"key":"08417031","name":"Hechingen, Stadt","type":"Stadt"},"district":{"key":"08417","name":"Zollernalbkreis","type":"Landkreis"},"federalState":{"key":"08","name":"Baden-Württemberg"}},{"name":"Neustr.","postalCode":"72379","locality":"Hechingen","municipality":{"key":"08417031","name":"Hechingen, Stadt","type":"Stadt"},"district":{"key":"08417","name":"Zollernalbkreis","type":"Landkreis"},"federalState":{"key":"08","name":"Baden-Württemberg"}},{"name":"Niederhechinger Str.","postalCode":"72379","locality":"Hechingen","municipality":{"key":"08417031","name":"Hechingen, Stadt","type":"Stadt"},"district":{"key":"08417","name":"Zollernalbkreis","type":"Landkreis"},"federalState":{"key":"08","name":"Baden-Württemberg"}},{"name":"Nierlochstr.","postalCode":"72379","locality":"Hechingen","municipality":{"key":"08417031","name":"Hechingen, Stadt","type":"Stadt"},"district":{"key":"08417","name":"Zollernalbkreis","type":"Landkreis"},"federalState":{"key":"08","name":"Baden-Württemberg"}},{"name":"Oberau","postalCode":"83259","locality":"Schleching","municipality":{"key":"09189141","name":"Schleching","type":"Kreisangehörige_Gemeinde"},"district":{"key":"09189","name":"Traunstein","type":"Landkreis"},"federalState":{"key":"09","name":"Bayern"}},{"name":"Obere Bergstr.","postalCode":"84174","locality":"Eching","municipality":{"key":"09274124","name":"Eching","type":"Kreisangehörige_Gemeinde"},"district":{"key":"09274","name":"Landshut","type":"Landkreis"},"federalState":{"key":"09","name":"Bayern"}},{"name":"Obere Dornäcker","postalCode":"72379","locality":"Hechingen","municipality":{"key":"08417031","name":"Hechingen, Stadt","type":"Stadt"},"district":{"key":"08417","name":"Zollernalbkreis","type":"Landkreis"},"federalState":{"key":"08","name":"Baden-Württemberg"}},{"name":"Obere Gärten","postalCode":"72379","locality":"Hechingen","municipality":{"key":"08417031","name":"Hechingen, Stadt","type":"Stadt"},"district":{"key":"08417","name":"Zollernalbkreis","type":"Landkreis"},"federalState":{"key":"08","name":"Baden-Württemberg"}},{"name":"Obere-Gärten-Weg","postalCode":"72379","locality":"Hechingen","municipality":{"key":"08417031","name":"Hechingen, Stadt","type":"Stadt"},"district":{"key":"08417","name":"Zollernalbkreis","type":"Landkreis"},"federalState":{"key":"08","name":"Baden-Württemberg"}},{"name":"Obere Hauptstr.","postalCode":"85386","locality":"Eching","municipality":{"key":"09178120","name":"Eching","type":"Kreisangehörige_Gemeinde"},"district":{"key":"09178","name":"Freising","type":"Landkreis"},"federalState":{"key":"09","name":"Bayern"}},{"name":"Obere Mühlstr.","postalCode":"72379","locality":"Hechingen","municipality":{"key":"08417031","name":"Hechingen, Stadt","type":"Stadt"},"district":{"key":"08417","name":"Zollernalbkreis","type":"Landkreis"},"federalState":{"key":"08","name":"Baden-Württemberg"}},{"name":"Oberhauser Str.","postalCode":"72379","locality":"Hechingen","municipality":{"key":"08417031","name":"Hechingen, Stadt","type":"Stadt"},"district":{"key":"08417","name":"Zollernalbkreis","type":"Landkreis"},"federalState":{"key":"08","name":"Baden-Württemberg"}},{"name":"Obertorplatz","postalCode":"72379","locality":"Hechingen","municipality":{"key":"08417031","name":"Hechingen, Stadt","type":"Stadt"},"district":{"key":"08417","name":"Zollernalbkreis","type":"Landkreis"},"federalState":{"key":"08","name":"Baden-Württemberg"}},{"name":"Ochsenweid","postalCode":"72379","locality":"Hechingen","municipality":{"key":"08417031","name":"Hechingen, Stadt","type":"Stadt"},"district":{"key":"08417","name":"Zollernalbkreis","type":"Landkreis"},"federalState":{"key":"08","name":"Baden-Württemberg"}},{"name":"Oelser Str.","postalCode":"72379","locality":"Hechingen","municipality":{"key":"08417031","name":"Hechingen, Stadt","type":"Stadt"},"district":{"key":"08417","name":"Zollernalbkreis","type":"Landkreis"},"federalState":{"key":"08","name":"Baden-Württemberg"}},{"name":"Ohmstr.","postalCode":"85386","locality":"Eching","municipality":{"key":"09178120","name":"Eching","type":"Kreisangehörige_Gemeinde"},"district":{"key":"09178","name":"Freising","type":"Landkreis"},"federalState":{"key":"09","name":"Bayern"}},{"name":"Ostpreußenstr.","postalCode":"85386","locality":"Eching","municipality":{"key":"09178120","name":"Eching","type":"Kreisangehörige_Gemeinde"},"district":{"key":"09178","name":"Freising","type":"Landkreis"},"federalState":{"key":"09","name":"Bayern"}},{"name":"Ottenburgstr.","postalCode":"85386","locality":"Eching","municipality":{"key":"09178120","name":"Eching","type":"Kreisangehörige_Gemeinde"},"district":{"key":"09178","name":"Freising","type":"Landkreis"},"federalState":{"key":"09","name":"Bayern"}},{"name":"Otto-Buckenmaier-Str.","postalCode":"72379","locality":"Hechingen","municipality":{"key":"08417031","name":"Hechingen, Stadt","type":"Stadt"},"district":{"key":"08417","name":"Zollernalbkreis","type":"Landkreis"},"federalState":{"key":"08","name":"Baden-Württemberg"}},{"name":"Ottostr.","postalCode":"85386","locality":"Eching","municipality":{"key":"09178120","name":"Eching","type":"Kreisangehörige_Gemeinde"},"district":{"key":"09178","name":"Freising","type":"Landkreis"},"federalState":{"key":"09","name":"Bayern"}},{"name":"Painhofenerstr.","postalCode":"82279","locality":"Eching am Ammersee","municipality":{"key":"09181115","name":"Eching am Ammersee","type":"Kreisangehörige_Gemeinde"},"district":{"key":"09181","name":"Landsberg am Lech","type":"Landkreis"},"federalState":{"key":"09","name":"Bayern"}},{"name":"Panoramastr.","postalCode":"72379","locality":"Hechingen","municipality":{"key":"08417031","name":"Hechingen, Stadt","type":"Stadt"},"district":{"key":"08417","name":"Zollernalbkreis","type":"Landkreis"},"federalState":{"key":"08","name":"Baden-Württemberg"}},{"name":"Panoramastr.","postalCode":"73579","locality":"Schechingen","municipality":{"key":"08136062","name":"Schechingen","type":"Kreisangehörige_Gemeinde"},"district":{"key":"08136","name":"Ostalbkreis","type":"Landkreis"},"federalState":{"key":"08","name":"Baden-Württemberg"}},{"name":"Pater-Rupert-Mayer-Str.","postalCode":"85386","locality":"Eching","municipality":{"key":"09178120","name":"Eching","type":"Kreisangehörige_Gemeinde"},"district":{"key":"09178","name":"Freising","type":"Landkreis"},"federalState":{"key":"09","name":"Bayern"}},{"name":"Paul-Käsmaier-Str.","postalCode":"85386","locality":"Eching","municipality":{"key":"09178120","name":"Eching","type":"Kreisangehörige_Gemeinde"},"district":{"key":"09178","name":"Freising","type":"Landkreis"},"federalState":{"key":"09","name":"Bayern"}},{"name":"Pfarrstr.","postalCode":"84174","locality":"Eching","municipality":{"key":"09274124","name":"Eching","type":"Kreisangehörige_Gemeinde"},"district":{"key":"09274","name":"Landshut","type":"Landkreis"},"federalState":{"key":"09","name":"Bayern"}},{"name":"Pfarrweg","postalCode":"72379","locality":"Hechingen","municipality":{"key":"08417031","name":"Hechingen, Stadt","type":"Stadt"},"district":{"key":"08417","name":"Zollernalbkreis","type":"Landkreis"},"federalState":{"key":"08","name":"Baden-Württemberg"}},{"name":"Pflaumenweg","postalCode":"84174","locality":"Eching","municipality":{"key":"09274124","name":"Eching","type":"Kreisangehörige_Gemeinde"},"district":{"key":"09274","name":"Landshut","type":"Landkreis"},"federalState":{"key":"09","name":"Bayern"}},{"name":"Porschestr.","postalCode":"75391","locality":"Gechingen","municipality":{"key":"08235029","name":"Gechingen","type":"Kreisangehörige_Gemeinde"},"district":{"key":"08235","name":"Calw","type":"Landkreis"},"federalState":{"key":"08","name":"Baden-Württemberg"}},{"name":"Posthalterweg","postalCode":"83259","locality":"Schleching","municipality":{"key":"09189141","name":"Schleching","type":"Kreisangehörige_Gemeinde"},"district":{"key":"09189","name":"Traunstein","type":"Landkreis"},"federalState":{"key":"09","name":"Bayern"}},{"name":"Poststr.","postalCode":"85386","locality":"Eching","municipality":{"key":"09178120","name":"Eching","type":"Kreisangehörige_Gemeinde"},"district":{"key":"09178","name":"Freising","type":"Landkreis"},"federalState":{"key":"09","name":"Bayern"}},{"name":"Potsdammer Platz","postalCode":"72379","locality":"Hechingen","municipality":{"key":"08417031","name":"Hechingen, Stadt","type":"Stadt"},"district":{"key":"08417","name":"Zollernalbkreis","type":"Landkreis"},"federalState":{"key":"08","name":"Baden-Württemberg"}},{"name":"Prager Str.","postalCode":"72379","locality":"Hechingen","municipality":{"key":"08417031","name":"Hechingen, Stadt","type":"Stadt"},"district":{"key":"08417","name":"Zollernalbkreis","type":"Landkreis"},"federalState":{"key":"08","name":"Baden-Württemberg"}},{"name":"Primelstr.","postalCode":"85386","locality":"Eching","municipality":{"key":"09178120","name":"Eching","type":"Kreisangehörige_Gemeinde"},"district":{"key":"09178","name":"Freising","type":"Landkreis"},"federalState":{"key":"09","name":"Bayern"}},{"name":"Professor-Kurt-Huber-Str.","postalCode":"85386","locality":"Eching","municipality":{"key":"09178120","name":"Eching","type":"Kreisangehörige_Gemeinde"},"district":{"key":"09178","name":"Freising","type":"Landkreis"},"federalState":{"key":"09","name":"Bayern"}},{"name":"Professor-Schuler-Str.","postalCode":"72379","locality":"Hechingen","municipality":{"key":"08417031","name":"Hechingen, Stadt","type":"Stadt"},"district":{"key":"08417","name":"Zollernalbkreis","type":"Landkreis"},"federalState":{"key":"08","name":"Baden-Württemberg"}},{"name":"Rabenstr.","postalCode":"72379","locality":"Hechingen","municipality":{"key":"08417031","name":"Hechingen, Stadt","type":"Stadt"},"district":{"key":"08417","name":"Zollernalbkreis","type":"Landkreis"},"federalState":{"key":"08","name":"Baden-Württemberg"}},{"name":"Raichbergstr.","postalCode":"72379","locality":"Hechingen","municipality":{"key":"08417031","name":"Hechingen, Stadt","type":"Stadt"},"district":{"key":"08417","name":"Zollernalbkreis","type":"Landkreis"},"federalState":{"key":"08","name":"Baden-Württemberg"}},{"name":"Raiffeisenstr.","postalCode":"73579","locality":"Schechingen","municipality":{"key":"08136062","name":"Schechingen","type":"Kreisangehörige_Gemeinde"},"district":{"key":"08136","name":"Ostalbkreis","type":"Landkreis"},"federalState":{"key":"08","name":"Baden-Württemberg"}},{"name":"Raiffeisenstr.","postalCode":"85386","locality":"Eching","municipality":{"key":"09178120","name":"Eching","type":"Kreisangehörige_Gemeinde"},"district":{"key":"09178","name":"Freising","type":"Landkreis"},"federalState":{"key":"09","name":"Bayern"}},{"name":"Raiffeisenstr.","postalCode":"86759","locality":"Wechingen","municipality":{"key":"09779226","name":"Wechingen","type":"Kreisangehörige_Gemeinde"},"district":{"key":"09779","name":"Donau-Ries","type":"Landkreis"},"federalState":{"key":"09","name":"Bayern"}},{"name":"Rainackerweg","postalCode":"83259","locality":"Schleching","municipality":{"key":"09189141","name":"Schleching","type":"Kreisangehörige_Gemeinde"},"district":{"key":"09189","name":"Traunstein","type":"Landkreis"},"federalState":{"key":"09","name":"Bayern"}},{"name":"Raitener Str.","postalCode":"83259","locality":"Schleching","municipality":{"key":"09189141","name":"Schleching","type":"Kreisangehörige_Gemeinde"},"district":{"key":"09189","name":"Traunstein","type":"Landkreis"},"federalState":{"key":"09","name":"Bayern"}},{"name":"Rathausstr.","postalCode":"72379","locality":"Hechingen","municipality":{"key":"08417031","name":"Hechingen, Stadt","type":"Stadt"},"district":{"key":"08417","name":"Zollernalbkreis","type":"Landkreis"},"federalState":{"key":"08","name":"Baden-Württemberg"}},{"name":"Reichenbachstr.","postalCode":"72379","locality":"Hechingen","municipality":{"key":"08417031","name":"Hechingen, Stadt","type":"Stadt"},"district":{"key":"08417","name":"Zollernalbkreis","type":"Landkreis"},"federalState":{"key":"08","name":"Baden-Württemberg"}},{"name":"Reicherts Planie","postalCode":"75391","locality":"Gechingen","municipality":{"key":"08235029","name":"Gechingen","type":"Kreisangehörige_Gemeinde"},"district":{"key":"08235","name":"Calw","type":"Landkreis"},"federalState":{"key":"08","name":"Baden-Württemberg"}},{"name":"Reinetalweg","postalCode":"72379","locality":"Hechingen","municipality":{"key":"08417031","name":"Hechingen, Stadt","type":"Stadt"},"district":{"key":"08417","name":"Zollernalbkreis","type":"Landkreis"},"federalState":{"key":"08","name":"Baden-Württemberg"}},{"name":"Reitergasse","postalCode":"72379","locality":"Hechingen","municipality":{"key":"08417031","name":"Hechingen, Stadt","type":"Stadt"},"district":{"key":"08417","name":"Zollernalbkreis","type":"Landkreis"},"federalState":{"key":"08","name":"Baden-Württemberg"}},{"name":"Renkenweg","postalCode":"84174","locality":"Eching","municipality":{"key":"09274124","name":"Eching","type":"Kreisangehörige_Gemeinde"},"district":{"key":"09274","name":"Landshut","type":"Landkreis"},"federalState":{"key":"09","name":"Bayern"}},{"name":"Reuteweg","postalCode":"72379","locality":"Hechingen","municipality":{"key":"08417031","name":"Hechingen, Stadt","type":"Stadt"},"district":{"key":"08417","name":"Zollernalbkreis","type":"Landkreis"},"federalState":{"key":"08","name":"Baden-Württemberg"}},{"name":"Riedenloh","postalCode":"73579","locality":"Schechingen","municipality":{"key":"08136062","name":"Schechingen","type":"Kreisangehörige_Gemeinde"},"district":{"key":"08136","name":"Ostalbkreis","type":"Landkreis"},"federalState":{"key":"08","name":"Baden-Württemberg"}},{"name":"Riedenweg","postalCode":"73579","locality":"Schechingen","municipality":{"key":"08136062","name":"Schechingen","type":"Kreisangehörige_Gemeinde"},"district":{"key":"08136","name":"Ostalbkreis","type":"Landkreis"},"federalState":{"key":"08","name":"Baden-Württemberg"}},{"name":"Riedstr.","postalCode":"73579","locality":"Schechingen","municipality":{"key":"08136062","name":"Schechingen","type":"Kreisangehörige_Gemeinde"},"district":{"key":"08136","name":"Ostalbkreis","type":"Landkreis"},"federalState":{"key":"08","name":"Baden-Württemberg"}},{"name":"Riedwiesen","postalCode":"75391","locality":"Gechingen","municipality":{"key":"08235029","name":"Gechingen","type":"Kreisangehörige_Gemeinde"},"district":{"key":"08235","name":"Calw","type":"Landkreis"},"federalState":{"key":"08","name":"Baden-Württemberg"}},{"name":"Ringstr.","postalCode":"72379","locality":"Hechingen","municipality":{"key":"08417031","name":"Hechingen, Stadt","type":"Stadt"},"district":{"key":"08417","name":"Zollernalbkreis","type":"Landkreis"},"federalState":{"key":"08","name":"Baden-Württemberg"}},{"name":"Ringstr.","postalCode":"82279","locality":"Eching am Ammersee","municipality":{"key":"09181115","name":"Eching am Ammersee","type":"Kreisangehörige_Gemeinde"},"district":{"key":"09181","name":"Landsberg am Lech","type":"Landkreis"},"federalState":{"key":"09","name":"Bayern"}},{"name":"Ringstr.","postalCode":"85386","locality":"Eching","municipality":{"key":"09178120","name":"Eching","type":"Kreisangehörige_Gemeinde"},"district":{"key":"09178","name":"Freising","type":"Landkreis"},"federalState":{"key":"09","name":"Bayern"}},{"name":"Ringstr.","postalCode":"86759","locality":"Wechingen","municipality":{"key":"09779226","name":"Wechingen","type":"Kreisangehörige_Gemeinde"},"district":{"key":"09779","name":"Donau-Ries","type":"Landkreis"},"federalState":{"key":"09","name":"Bayern"}},{"name":"Ritterspornweg","postalCode":"75391","locality":"Gechingen","municipality":{"key":"08235029","name":"Gechingen","type":"Kreisangehörige_Gemeinde"},"district":{"key":"08235","name":"Calw","type":"Landkreis"},"federalState":{"key":"08","name":"Baden-Württemberg"}},{"name":"Robert-Bosch-Str.","postalCode":"75391","locality":"Gechingen","municipality":{"key":"08235029","name":"Gechingen","type":"Kreisangehörige_Gemeinde"},"district":{"key":"08235","name":"Calw","type":"Landkreis"},"federalState":{"key":"08","name":"Baden-Württemberg"}},{"name":"Roggenweg","postalCode":"84174","locality":"Eching","municipality":{"key":"09274124","name":"Eching","type":"Kreisangehörige_Gemeinde"},"district":{"key":"09274","name":"Landshut","type":"Landkreis"},"federalState":{"key":"09","name":"Bayern"}},{"name":"Römerstr.","postalCode":"72379","locality":"Hechingen","municipality":{"key":"08417031","name":"Hechingen, Stadt","type":"Stadt"},"district":{"key":"08417","name":"Zollernalbkreis","type":"Landkreis"},"federalState":{"key":"08","name":"Baden-Württemberg"}},{"name":"Römerweg","postalCode":"86759","locality":"Wechingen","municipality":{"key":"09779226","name":"Wechingen","type":"Kreisangehörige_Gemeinde"},"district":{"key":"09779","name":"Donau-Ries","type":"Landkreis"},"federalState":{"key":"09","name":"Bayern"}},{"name":"Roseggerstr.","postalCode":"75391","locality":"Gechingen","municipality":{"key":"08235029","name":"Gechingen","type":"Kreisangehörige_Gemeinde"},"district":{"key":"08235","name":"Calw","type":"Landkreis"},"federalState":{"key":"08","name":"Baden-Württemberg"}},{"name":"Rosengasse","postalCode":"85386","locality":"Eching","municipality":{"key":"09178120","name":"Eching","type":"Kreisangehörige_Gemeinde"},"district":{"key":"09178","name":"Freising","type":"Landkreis"},"federalState":{"key":"09","name":"Bayern"}},{"name":"Rosensteinstr.","postalCode":"73579","locality":"Schechingen","municipality":{"key":"08136062","name":"Schechingen","type":"Kreisangehörige_Gemeinde"},"district":{"key":"08136","name":"Ostalbkreis","type":"Landkreis"},"federalState":{"key":"08","name":"Baden-Württemberg"}},{"name":"Rosenstr.","postalCode":"72379","locality":"Hechingen","municipality":{"key":"08417031","name":"Hechingen, Stadt","type":"Stadt"},"district":{"key":"08417","name":"Zollernalbkreis","type":"Landkreis"},"federalState":{"key":"08","name":"Baden-Württemberg"}},{"name":"Rosenstr.","postalCode":"84174","locality":"Eching","municipality":{"key":"09274124","name":"Eching","type":"Kreisangehörige_Gemeinde"},"district":{"key":"09274","name":"Landshut","type":"Landkreis"},"federalState":{"key":"09","name":"Bayern"}},{"name":"Rosenweg","postalCode":"73579","locality":"Schechingen","municipality":{"key":"08136062","name":"Schechingen","type":"Kreisangehörige_Gemeinde"},"district":{"key":"08136","name":"Ostalbkreis","type":"Landkreis"},"federalState":{"key":"08","name":"Baden-Württemberg"}},{"name":"Rosenweg","postalCode":"75391","locality":"Gechingen","municipality":{"key":"08235029","name":"Gechingen","type":"Kreisangehörige_Gemeinde"},"district":{"key":"08235","name":"Calw","type":"Landkreis"},"federalState":{"key":"08","name":"Baden-Württemberg"}},{"name":"Rossbergerstr.","postalCode":"85386","locality":"Eching","municipality":{"key":"09178120","name":"Eching","type":"Kreisangehörige_Gemeinde"},"district":{"key":"09178","name":"Freising","type":"Landkreis"},"federalState":{"key":"09","name":"Bayern"}},{"name":"Roßbergstr.","postalCode":"72379","locality":"Hechingen","municipality":{"key":"08417031","name":"Hechingen, Stadt","type":"Stadt"},"district":{"key":"08417","name":"Zollernalbkreis","type":"Landkreis"},"federalState":{"key":"08","name":"Baden-Württemberg"}},{"name":"Röte","postalCode":"72379","locality":"Hechingen","municipality":{"key":"08417031","name":"Hechingen, Stadt","type":"Stadt"},"district":{"key":"08417","name":"Zollernalbkreis","type":"Landkreis"},"federalState":{"key":"08","name":"Baden-Württemberg"}},{"name":"Runkellenstr.","postalCode":"72379","locality":"Hechingen","municipality":{"key":"08417031","name":"Hechingen, Stadt","type":"Stadt"},"district":{"key":"08417","name":"Zollernalbkreis","type":"Landkreis"},"federalState":{"key":"08","name":"Baden-Württemberg"}},{"name":"Saiblingstr.","postalCode":"84174","locality":"Eching","municipality":{"key":"09274124","name":"Eching","type":"Kreisangehörige_Gemeinde"},"district":{"key":"09274","name":"Landshut","type":"Landkreis"},"federalState":{"key":"09","name":"Bayern"}},{"name":"Saichlinger","postalCode":"72379","locality":"Hechingen","municipality":{"key":"08417031","name":"Hechingen, Stadt","type":"Stadt"},"district":{"key":"08417","name":"Zollernalbkreis","type":"Landkreis"},"federalState":{"key":"08","name":"Baden-Württemberg"}},{"name":"Samuel-Mayer-Weg","postalCode":"72379","locality":"Hechingen","municipality":{"key":"08417031","name":"Hechingen, Stadt","type":"Stadt"},"district":{"key":"08417","name":"Zollernalbkreis","type":"Landkreis"},"federalState":{"key":"08","name":"Baden-Württemberg"}},{"name":"Saumseligkeitsweg","postalCode":"75391","locality":"Gechingen","municipality":{"key":"08235029","name":"Gechingen","type":"Kreisangehörige_Gemeinde"},"district":{"key":"08235","name":"Calw","type":"Landkreis"},"federalState":{"key":"08","name":"Baden-Württemberg"}},{"name":"Schadenweilerstr.","postalCode":"72379","locality":"Hechingen","municipality":{"key":"08417031","name":"Hechingen, Stadt","type":"Stadt"},"district":{"key":"08417","name":"Zollernalbkreis","type":"Landkreis"},"federalState":{"key":"08","name":"Baden-Württemberg"}},{"name":"Schafwiesenstr.","postalCode":"73579","locality":"Schechingen","municipality":{"key":"08136062","name":"Schechingen","type":"Kreisangehörige_Gemeinde"},"district":{"key":"08136","name":"Ostalbkreis","type":"Landkreis"},"federalState":{"key":"08","name":"Baden-Württemberg"}},{"name":"Schalksburgstr.","postalCode":"72379","locality":"Hechingen","municipality":{"key":"08417031","name":"Hechingen, Stadt","type":"Stadt"},"district":{"key":"08417","name":"Zollernalbkreis","type":"Landkreis"},"federalState":{"key":"08","name":"Baden-Württemberg"}},{"name":"Schattseitweg","postalCode":"83259","locality":"Schleching","municipality":{"key":"09189141","name":"Schleching","type":"Kreisangehörige_Gemeinde"},"district":{"key":"09189","name":"Traunstein","type":"Landkreis"},"federalState":{"key":"09","name":"Bayern"}},{"name":"Schelmfleckweg","postalCode":"83259","locality":"Schleching","municipality":{"key":"09189141","name":"Schleching","type":"Kreisangehörige_Gemeinde"},"district":{"key":"09189","name":"Traunstein","type":"Landkreis"},"federalState":{"key":"09","name":"Bayern"}},{"name":"Schießbergstr.","postalCode":"73579","locality":"Schechingen","municipality":{"key":"08136062","name":"Schechingen","type":"Kreisangehörige_Gemeinde"},"district":{"key":"08136","name":"Ostalbkreis","type":"Landkreis"},"federalState":{"key":"08","name":"Baden-Württemberg"}},{"name":"Schillerstr.","postalCode":"72379","locality":"Hechingen","municipality":{"key":"08417031","name":"Hechingen, Stadt","type":"Stadt"},"district":{"key":"08417","name":"Zollernalbkreis","type":"Landkreis"},"federalState":{"key":"08","name":"Baden-Württemberg"}},{"name":"Schillerstr.","postalCode":"75391","locality":"Gechingen","municipality":{"key":"08235029","name":"Gechingen","type":"Kreisangehörige_Gemeinde"},"district":{"key":"08235","name":"Calw","type":"Landkreis"},"federalState":{"key":"08","name":"Baden-Württemberg"}},{"name":"Schillerstr.","postalCode":"85386","locality":"Eching","municipality":{"key":"09178120","name":"Eching","type":"Kreisangehörige_Gemeinde"},"district":{"key":"09178","name":"Freising","type":"Landkreis"},"federalState":{"key":"09","name":"Bayern"}},{"name":"Schlagfeldweg","postalCode":"83259","locality":"Schleching","municipality":{"key":"09189141","name":"Schleching","type":"Kreisangehörige_Gemeinde"},"district":{"key":"09189","name":"Traunstein","type":"Landkreis"},"federalState":{"key":"09","name":"Bayern"}},{"name":"Schlatter Str.","postalCode":"72379","locality":"Hechingen","municipality":{"key":"08417031","name":"Hechingen, Stadt","type":"Stadt"},"district":{"key":"08417","name":"Zollernalbkreis","type":"Landkreis"},"federalState":{"key":"08","name":"Baden-Württemberg"}},{"name":"Schlechinger Str.","postalCode":"83259","locality":"Schleching","municipality":{"key":"09189141","name":"Schleching","type":"Kreisangehörige_Gemeinde"},"district":{"key":"09189","name":"Traunstein","type":"Landkreis"},"federalState":{"key":"09","name":"Bayern"}},{"name":"Schlehenstr.","postalCode":"85386","locality":"Eching","municipality":{"key":"09178120","name":"Eching","type":"Kreisangehörige_Gemeinde"},"district":{"key":"09178","name":"Freising","type":"Landkreis"},"federalState":{"key":"09","name":"Bayern"}},{"name":"Schlehenweg","postalCode":"75391","locality":"Gechingen","municipality":{"key":"08235029","name":"Gechingen","type":"Kreisangehörige_Gemeinde"},"district":{"key":"08235","name":"Calw","type":"Landkreis"},"federalState":{"key":"08","name":"Baden-Württemberg"}},{"name":"Schleienweg","postalCode":"84174","locality":"Eching","municipality":{"key":"09274124","name":"Eching","type":"Kreisangehörige_Gemeinde"},"district":{"key":"09274","name":"Landshut","type":"Landkreis"},"federalState":{"key":"09","name":"Bayern"}},{"name":"Schleißheimer Str.","postalCode":"85386","locality":"Eching","municipality":{"key":"09178120","name":"Eching","type":"Kreisangehörige_Gemeinde"},"district":{"key":"09178","name":"Freising","type":"Landkreis"},"federalState":{"key":"09","name":"Bayern"}},{"name":"Schlesierstr.","postalCode":"85386","locality":"Eching","municipality":{"key":"09178120","name":"Eching","type":"Kreisangehörige_Gemeinde"},"district":{"key":"09178","name":"Freising","type":"Landkreis"},"federalState":{"key":"09","name":"Bayern"}},{"name":"Schloßackerstr.","postalCode":"72379","locality":"Hechingen","municipality":{"key":"08417031","name":"Hechingen, Stadt","type":"Stadt"},"district":{"key":"08417","name":"Zollernalbkreis","type":"Landkreis"},"federalState":{"key":"08","name":"Baden-Württemberg"}},{"name":"Schloßberg","postalCode":"85386","locality":"Eching","municipality":{"key":"09178120","name":"Eching","type":"Kreisangehörige_Gemeinde"},"district":{"key":"09178","name":"Freising","type":"Landkreis"},"federalState":{"key":"09","name":"Bayern"}},{"name":"Schloßberg Park","postalCode":"72379","locality":"Hechingen","municipality":{"key":"08417031","name":"Hechingen, Stadt","type":"Stadt"},"district":{"key":"08417","name":"Zollernalbkreis","type":"Landkreis"},"federalState":{"key":"08","name":"Baden-Württemberg"}},{"name":"Schloßgarten","postalCode":"73579","locality":"Schechingen","municipality":{"key":"08136062","name":"Schechingen","type":"Kreisangehörige_Gemeinde"},"district":{"key":"08136","name":"Ostalbkreis","type":"Landkreis"},"federalState":{"key":"08","name":"Baden-Württemberg"}},{"name":"Schloß Lindich","postalCode":"72379","locality":"Hechingen","municipality":{"key":"08417031","name":"Hechingen, Stadt","type":"Stadt"},"district":{"key":"08417","name":"Zollernalbkreis","type":"Landkreis"},"federalState":{"key":"08","name":"Baden-Württemberg"}},{"name":"Schlossplatz","postalCode":"72379","locality":"Hechingen","municipality":{"key":"08417031","name":"Hechingen, Stadt","type":"Stadt"},"district":{"key":"08417","name":"Zollernalbkreis","type":"Landkreis"},"federalState":{"key":"08","name":"Baden-Württemberg"}},{"name":"Schloßplatz","postalCode":"72379","locality":"Hechingen","municipality":{"key":"08417031","name":"Hechingen, Stadt","type":"Stadt"},"district":{"key":"08417","name":"Zollernalbkreis","type":"Landkreis"},"federalState":{"key":"08","name":"Baden-Württemberg"}},{"name":"Schloßstr.","postalCode":"72379","locality":"Hechingen","municipality":{"key":"08417031","name":"Hechingen, Stadt","type":"Stadt"},"district":{"key":"08417","name":"Zollernalbkreis","type":"Landkreis"},"federalState":{"key":"08","name":"Baden-Württemberg"}},{"name":"Schloßstr.","postalCode":"84174","locality":"Eching","municipality":{"key":"09274124","name":"Eching","type":"Kreisangehörige_Gemeinde"},"district":{"key":"09274","name":"Landshut","type":"Landkreis"},"federalState":{"key":"09","name":"Bayern"}},{"name":"Schmidtestr.","postalCode":"72379","locality":"Hechingen","municipality":{"key":"08417031","name":"Hechingen, Stadt","type":"Stadt"},"district":{"key":"08417","name":"Zollernalbkreis","type":"Landkreis"},"federalState":{"key":"08","name":"Baden-Württemberg"}},{"name":"Schmiedleiten","postalCode":"84174","locality":"Eching","municipality":{"key":"09274124","name":"Eching","type":"Kreisangehörige_Gemeinde"},"district":{"key":"09274","name":"Landshut","type":"Landkreis"},"federalState":{"key":"09","name":"Bayern"}},{"name":"Schmugglerweg","postalCode":"83259","locality":"Schleching","municipality":{"key":"09189141","name":"Schleching","type":"Kreisangehörige_Gemeinde"},"district":{"key":"09189","name":"Traunstein","type":"Landkreis"},"federalState":{"key":"09","name":"Bayern"}},{"name":"Schrofen","postalCode":"72379","locality":"Hechingen","municipality":{"key":"08417031","name":"Hechingen, Stadt","type":"Stadt"},"district":{"key":"08417","name":"Zollernalbkreis","type":"Landkreis"},"federalState":{"key":"08","name":"Baden-Württemberg"}},{"name":"Schrögerfeld","postalCode":"84174","locality":"Eching","municipality":{"key":"09274124","name":"Eching","type":"Kreisangehörige_Gemeinde"},"district":{"key":"09274","name":"Landshut","type":"Landkreis"},"federalState":{"key":"09","name":"Bayern"}},{"name":"Schubartstr.","postalCode":"75391","locality":"Gechingen","municipality":{"key":"08235029","name":"Gechingen","type":"Kreisangehörige_Gemeinde"},"district":{"key":"08235","name":"Calw","type":"Landkreis"},"federalState":{"key":"08","name":"Baden-Württemberg"}},{"name":"Schubertstr.","postalCode":"72379","locality":"Hechingen","municipality":{"key":"08417031","name":"Hechingen, Stadt","type":"Stadt"},"district":{"key":"08417","name":"Zollernalbkreis","type":"Landkreis"},"federalState":{"key":"08","name":"Baden-Württemberg"}},{"name":"Schulerstr.","postalCode":"72379","locality":"Hechingen","municipality":{"key":"08417031","name":"Hechingen, Stadt","type":"Stadt"},"district":{"key":"08417","name":"Zollernalbkreis","type":"Landkreis"},"federalState":{"key":"08","name":"Baden-Württemberg"}},{"name":"Schulstr.","postalCode":"72379","locality":"Hechingen","municipality":{"key":"08417031","name":"Hechingen, Stadt","type":"Stadt"},"district":{"key":"08417","name":"Zollernalbkreis","type":"Landkreis"},"federalState":{"key":"08","name":"Baden-Württemberg"}},{"name":"Schulstr.","postalCode":"83259","locality":"Schleching","municipality":{"key":"09189141","name":"Schleching","type":"Kreisangehörige_Gemeinde"},"district":{"key":"09189","name":"Traunstein","type":"Landkreis"},"federalState":{"key":"09","name":"Bayern"}},{"name":"Schulstr.","postalCode":"85386","locality":"Eching","municipality":{"key":"09178120","name":"Eching","type":"Kreisangehörige_Gemeinde"},"district":{"key":"09178","name":"Freising","type":"Landkreis"},"federalState":{"key":"09","name":"Bayern"}},{"name":"Schulweg","postalCode":"75391","locality":"Gechingen","municipality":{"key":"08235029","name":"Gechingen","type":"Kreisangehörige_Gemeinde"},"district":{"key":"08235","name":"Calw","type":"Landkreis"},"federalState":{"key":"08","name":"Baden-Württemberg"}},{"name":"Schulweg","postalCode":"86759","locality":"Wechingen","municipality":{"key":"09779226","name":"Wechingen","type":"Kreisangehörige_Gemeinde"},"district":{"key":"09779","name":"Donau-Ries","type":"Landkreis"},"federalState":{"key":"09","name":"Bayern"}},{"name":"Schüttestr.","postalCode":"72379","locality":"Hechingen","municipality":{"key":"08417031","name":"Hechingen, Stadt","type":"Stadt"},"district":{"key":"08417","name":"Zollernalbkreis","type":"Landkreis"},"federalState":{"key":"08","name":"Baden-Württemberg"}},{"name":"Schützenstr.","postalCode":"72379","locality":"Hechingen","municipality":{"key":"08417031","name":"Hechingen, Stadt","type":"Stadt"},"district":{"key":"08417","name":"Zollernalbkreis","type":"Landkreis"},"federalState":{"key":"08","name":"Baden-Württemberg"}},{"name":"Schützenstr.","postalCode":"84174","locality":"Eching","municipality":{"key":"09274124","name":"Eching","type":"Kreisangehörige_Gemeinde"},"district":{"key":"09274","name":"Landshut","type":"Landkreis"},"federalState":{"key":"09","name":"Bayern"}},{"name":"Schwaiba","postalCode":"84174","locality":"Eching","municipality":{"key":"09274124","name":"Eching","type":"Kreisangehörige_Gemeinde"},"district":{"key":"09274","name":"Landshut","type":"Landkreis"},"federalState":{"key":"09","name":"Bayern"}},{"name":"Schwaiblreuth","postalCode":"84174","locality":"Eching","municipality":{"key":"09274124","name":"Eching","type":"Kreisangehörige_Gemeinde"},"district":{"key":"09274","name":"Landshut","type":"Landkreis"},"federalState":{"key":"09","name":"Bayern"}},{"name":"Schwalbenweg","postalCode":"72379","locality":"Hechingen","municipality":{"key":"08417031","name":"Hechingen, Stadt","type":"Stadt"},"district":{"key":"08417","name":"Zollernalbkreis","type":"Landkreis"},"federalState":{"key":"08","name":"Baden-Württemberg"}},{"name":"Schwalbenweg","postalCode":"75391","locality":"Gechingen","municipality":{"key":"08235029","name":"Gechingen","type":"Kreisangehörige_Gemeinde"},"district":{"key":"08235","name":"Calw","type":"Landkreis"},"federalState":{"key":"08","name":"Baden-Württemberg"}},{"name":"Talaue","postalCode":"75391","locality":"Gechingen","municipality":{"key":"08235029","name":"Gechingen","type":"Kreisangehörige_Gemeinde"},"district":{"key":"08235","name":"Calw","type":"Landkreis"},"federalState":{"key":"08","name":"Baden-Württemberg"}},{"name":"Talstr.","postalCode":"72379","locality":"Hechingen","municipality":{"key":"08417031","name":"Hechingen, Stadt","type":"Stadt"},"district":{"key":"08417","name":"Zollernalbkreis","type":"Landkreis"},"federalState":{"key":"08","name":"Baden-Württemberg"}},{"name":"Talstr.","postalCode":"75391","locality":"Gechingen","municipality":{"key":"08235029","name":"Gechingen","type":"Kreisangehörige_Gemeinde"},"district":{"key":"08235","name":"Calw","type":"Landkreis"},"federalState":{"key":"08","name":"Baden-Württemberg"}},{"name":"Tannenstr.","postalCode":"82279","locality":"Eching am Ammersee","municipality":{"key":"09181115","name":"Eching am Ammersee","type":"Kreisangehörige_Gemeinde"},"district":{"key":"09181","name":"Landsberg am Lech","type":"Landkreis"},"federalState":{"key":"09","name":"Bayern"}},{"name":"Tannenstr.","postalCode":"84174","locality":"Eching","municipality":{"key":"09274124","name":"Eching","type":"Kreisangehörige_Gemeinde"},"district":{"key":"09274","name":"Landshut","type":"Landkreis"},"federalState":{"key":"09","name":"Bayern"}},{"name":"Taubenschmidstr.","postalCode":"72379","locality":"Hechingen","municipality":{"key":"08417031","name":"Hechingen, Stadt","type":"Stadt"},"district":{"key":"08417","name":"Zollernalbkreis","type":"Landkreis"},"federalState":{"key":"08","name":"Baden-Württemberg"}},{"name":"Thal","postalCode":"84174","locality":"Eching","municipality":{"key":"09274124","name":"Eching","type":"Kreisangehörige_Gemeinde"},"district":{"key":"09274","name":"Landshut","type":"Landkreis"},"federalState":{"key":"09","name":"Bayern"}},{"name":"Thalberg","postalCode":"82279","locality":"Eching am Ammersee","municipality":{"key":"09181115","name":"Eching am Ammersee","type":"Kreisangehörige_Gemeinde"},"district":{"key":"09181","name":"Landsberg am Lech","type":"Landkreis"},"federalState":{"key":"09","name":"Bayern"}},{"name":"Theresienstr.","postalCode":"85386","locality":"Eching","municipality":{"key":"09178120","name":"Eching","type":"Kreisangehörige_Gemeinde"},"district":{"key":"09178","name":"Freising","type":"Landkreis"},"federalState":{"key":"09","name":"Bayern"}},{"name":"Thomas-Mann-Str.","postalCode":"85386","locality":"Eching","municipality":{"key":"09178120","name":"Eching","type":"Kreisangehörige_Gemeinde"},"district":{"key":"09178","name":"Freising","type":"Landkreis"},"federalState":{"key":"09","name":"Bayern"}},{"name":"Thomasstr.","postalCode":"72379","locality":"Hechingen","municipality":{"key":"08417031","name":"Hechingen, Stadt","type":"Stadt"},"district":{"key":"08417","name":"Zollernalbkreis","type":"Landkreis"},"federalState":{"key":"08","name":"Baden-Württemberg"}},{"name":"Tiefenweg","postalCode":"72379","locality":"Hechingen","municipality":{"key":"08417031","name":"Hechingen, Stadt","type":"Stadt"},"district":{"key":"08417","name":"Zollernalbkreis","type":"Landkreis"},"federalState":{"key":"08","name":"Baden-Württemberg"}},{"name":"Tobelstr.","postalCode":"72379","locality":"Hechingen","municipality":{"key":"08417031","name":"Hechingen, Stadt","type":"Stadt"},"district":{"key":"08417","name":"Zollernalbkreis","type":"Landkreis"},"federalState":{"key":"08","name":"Baden-Württemberg"}},{"name":"Torweg","postalCode":"75391","locality":"Gechingen","municipality":{"key":"08235029","name":"Gechingen","type":"Kreisangehörige_Gemeinde"},"district":{"key":"08235","name":"Calw","type":"Landkreis"},"federalState":{"key":"08","name":"Baden-Württemberg"}},{"name":"Traufblick","postalCode":"72379","locality":"Hechingen","municipality":{"key":"08417031","name":"Hechingen, Stadt","type":"Stadt"},"district":{"key":"08417","name":"Zollernalbkreis","type":"Landkreis"},"federalState":{"key":"08","name":"Baden-Württemberg"}},{"name":"Trezzano-Str.","postalCode":"85386","locality":"Eching","municipality":{"key":"09178120","name":"Eching","type":"Kreisangehörige_Gemeinde"},"district":{"key":"09178","name":"Freising","type":"Landkreis"},"federalState":{"key":"09","name":"Bayern"}},{"name":"Trieb","postalCode":"72379","locality":"Hechingen","municipality":{"key":"08417031","name":"Hechingen, Stadt","type":"Stadt"},"district":{"key":"08417","name":"Zollernalbkreis","type":"Landkreis"},"federalState":{"key":"08","name":"Baden-Württemberg"}},{"name":"Tübinger Str.","postalCode":"72379","locality":"Hechingen","municipality":{"key":"08417031","name":"Hechingen, Stadt","type":"Stadt"},"district":{"key":"08417","name":"Zollernalbkreis","type":"Landkreis"},"federalState":{"key":"08","name":"Baden-Württemberg"}},{"name":"Tulpenstr.","postalCode":"72379","locality":"Hechingen","municipality":{"key":"08417031","name":"Hechingen, Stadt","type":"Stadt"},"district":{"key":"08417","name":"Zollernalbkreis","type":"Landkreis"},"federalState":{"key":"08","name":"Baden-Württemberg"}},{"name":"Tulpenstr.","postalCode":"84174","locality":"Eching","municipality":{"key":"09274124","name":"Eching","type":"Kreisangehörige_Gemeinde"},"district":{"key":"09274","name":"Landshut","type":"Landkreis"},"federalState":{"key":"09","name":"Bayern"}},{"name":"Tulpenstr.","postalCode":"85386","locality":"Eching","municipality":{"key":"09178120","name":"Eching","type":"Kreisangehörige_Gemeinde"},"district":{"key":"09178","name":"Freising","type":"Landkreis"},"federalState":{"key":"09","name":"Bayern"}},{"name":"Tulpenweg","postalCode":"75391","locality":"Gechingen","municipality":{"key":"08235029","name":"Gechingen","type":"Kreisangehörige_Gemeinde"},"district":{"key":"08235","name":"Calw","type":"Landkreis"},"federalState":{"key":"08","name":"Baden-Württemberg"}},{"name":"Turmstr.","postalCode":"72379","locality":"Hechingen","municipality":{"key":"08417031","name":"Hechingen, Stadt","type":"Stadt"},"district":{"key":"08417","name":"Zollernalbkreis","type":"Landkreis"},"federalState":{"key":"08","name":"Baden-Württemberg"}},{"name":"Uhlandstr.","postalCode":"72379","locality":"Hechingen","municipality":{"key":"08417031","name":"Hechingen, Stadt","type":"Stadt"},"district":{"key":"08417","name":"Zollernalbkreis","type":"Landkreis"},"federalState":{"key":"08","name":"Baden-Württemberg"}},{"name":"Uhlandstr.","postalCode":"75391","locality":"Gechingen","municipality":{"key":"08235029","name":"Gechingen","type":"Kreisangehörige_Gemeinde"},"district":{"key":"08235","name":"Calw","type":"Landkreis"},"federalState":{"key":"08","name":"Baden-Württemberg"}},{"name":"Uhlandstr.","postalCode":"85386","locality":"Eching","municipality":{"key":"09178120","name":"Eching","type":"Kreisangehörige_Gemeinde"},"district":{"key":"09178","name":"Freising","type":"Landkreis"},"federalState":{"key":"09","name":"Bayern"}},{"name":"Uhlandweg","postalCode":"72379","locality":"Hechingen","municipality":{"key":"08417031","name":"Hechingen, Stadt","type":"Stadt"},"district":{"key":"08417","name":"Zollernalbkreis","type":"Landkreis"},"federalState":{"key":"08","name":"Baden-Württemberg"}},{"name":"Ulmenweg","postalCode":"83259","locality":"Schleching","municipality":{"key":"09189141","name":"Schleching","type":"Kreisangehörige_Gemeinde"},"district":{"key":"09189","name":"Traunstein","type":"Landkreis"},"federalState":{"key":"09","name":"Bayern"}},{"name":"Unterdorf","postalCode":"72379","locality":"Hechingen","municipality":{"key":"08417031","name":"Hechingen, Stadt","type":"Stadt"},"district":{"key":"08417","name":"Zollernalbkreis","type":"Landkreis"},"federalState":{"key":"08","name":"Baden-Württemberg"}},{"name":"Untere Dorfstr.","postalCode":"72379","locality":"Hechingen","municipality":{"key":"08417031","name":"Hechingen, Stadt","type":"Stadt"},"district":{"key":"08417","name":"Zollernalbkreis","type":"Landkreis"},"federalState":{"key":"08","name":"Baden-Württemberg"}},{"name":"Untere Dornäcker","postalCode":"72379","locality":"Hechingen","municipality":{"key":"08417031","name":"Hechingen, Stadt","type":"Stadt"},"district":{"key":"08417","name":"Zollernalbkreis","type":"Landkreis"},"federalState":{"key":"08","name":"Baden-Württemberg"}},{"name":"Untere Hauptstr.","postalCode":"85386","locality":"Eching","municipality":{"key":"09178120","name":"Eching","type":"Kreisangehörige_Gemeinde"},"district":{"key":"09178","name":"Freising","type":"Landkreis"},"federalState":{"key":"09","name":"Bayern"}},{"name":"Untere Mühlstr.","postalCode":"72379","locality":"Hechingen","municipality":{"key":"08417031","name":"Hechingen, Stadt","type":"Stadt"},"district":{"key":"08417","name":"Zollernalbkreis","type":"Landkreis"},"federalState":{"key":"08","name":"Baden-Württemberg"}},{"name":"Unterer Kirchweg","postalCode":"72379","locality":"Hechingen","municipality":{"key":"08417031","name":"Hechingen, Stadt","type":"Stadt"},"district":{"key":"08417","name":"Zollernalbkreis","type":"Landkreis"},"federalState":{"key":"08","name":"Baden-Württemberg"}},{"name":"Unterer Stockenwaldweg","postalCode":"75391","locality":"Gechingen","municipality":{"key":"08235029","name":"Gechingen","type":"Kreisangehörige_Gemeinde"},"district":{"key":"08235","name":"Calw","type":"Landkreis"},"federalState":{"key":"08","name":"Baden-Württemberg"}},{"name":"Urbanstr.","postalCode":"72379","locality":"Hechingen","municipality":{"key":"08417031","name":"Hechingen, Stadt","type":"Stadt"},"district":{"key":"08417","name":"Zollernalbkreis","type":"Landkreis"},"federalState":{"key":"08","name":"Baden-Württemberg"}},{"name":"Uttinger Str.","postalCode":"82279","locality":"Eching am Ammersee","municipality":{"key":"09181115","name":"Eching am Ammersee","type":"Kreisangehörige_Gemeinde"},"district":{"key":"09181","name":"Landsberg am Lech","type":"Landkreis"},"federalState":{"key":"09","name":"Bayern"}},{"name":"Valentinstr.","postalCode":"72379","locality":"Hechingen","municipality":{"key":"08417031","name":"Hechingen, Stadt","type":"Stadt"},"district":{"key":"08417","name":"Zollernalbkreis","type":"Landkreis"},"federalState":{"key":"08","name":"Baden-Württemberg"}},{"name":"Veilchenweg","postalCode":"75391","locality":"Gechingen","municipality":{"key":"08235029","name":"Gechingen","type":"Kreisangehörige_Gemeinde"},"district":{"key":"08235","name":"Calw","type":"Landkreis"},"federalState":{"key":"08","name":"Baden-Württemberg"}},{"name":"Veilchenweg","postalCode":"84174","locality":"Eching","municipality":{"key":"09274124","name":"Eching","type":"Kreisangehörige_Gemeinde"},"district":{"key":"09274","name":"Landshut","type":"Landkreis"},"federalState":{"key":"09","name":"Bayern"}},{"name":"Villa Eugenia Park","postalCode":"72379","locality":"Hechingen","municipality":{"key":"08417031","name":"Hechingen, Stadt","type":"Stadt"},"district":{"key":"08417","name":"Zollernalbkreis","type":"Landkreis"},"federalState":{"key":"08","name":"Baden-Württemberg"}},{"name":"Vordere Bronnwiesen","postalCode":"72379","locality":"Hechingen","municipality":{"key":"08417031","name":"Hechingen, Stadt","type":"Stadt"},"district":{"key":"08417","name":"Zollernalbkreis","type":"Landkreis"},"federalState":{"key":"08","name":"Baden-Württemberg"}},{"name":"Waagstr.","postalCode":"85386","locality":"Eching","municipality":{"key":"09178120","name":"Eching","type":"Kreisangehörige_Gemeinde"},"district":{"key":"09178","name":"Freising","type":"Landkreis"},"federalState":{"key":"09","name":"Bayern"}},{"name":"Wacholderweg","postalCode":"75391","locality":"Gechingen","municipality":{"key":"08235029","name":"Gechingen","type":"Kreisangehörige_Gemeinde"},"district":{"key":"08235","name":"Calw","type":"Landkreis"},"federalState":{"key":"08","name":"Baden-Württemberg"}},{"name":"Wagenäcker","postalCode":"84174","locality":"Eching","municipality":{"key":"09274124","name":"Eching","type":"Kreisangehörige_Gemeinde"},"district":{"key":"09274","name":"Landshut","type":"Landkreis"},"federalState":{"key":"09","name":"Bayern"}},{"name":"Wagreiner Str.","postalCode":"83259","locality":"Schleching","municipality":{"key":"09189141","name":"Schleching","type":"Kreisangehörige_Gemeinde"},"district":{"key":"09189","name":"Traunstein","type":"Landkreis"},"federalState":{"key":"09","name":"Bayern"}},{"name":"Walchenstr.","postalCode":"72379","locality":"Hechingen","municipality":{"key":"08417031","name":"Hechingen, Stadt","type":"Stadt"},"district":{"key":"08417","name":"Zollernalbkreis","type":"Landkreis"},"federalState":{"key":"08","name":"Baden-Württemberg"}},{"name":"Waldweg","postalCode":"84174","locality":"Eching","municipality":{"key":"09274124","name":"Eching","type":"Kreisangehörige_Gemeinde"},"district":{"key":"09274","name":"Landshut","type":"Landkreis"},"federalState":{"key":"09","name":"Bayern"}},{"name":"Waldweg","postalCode":"85386","locality":"Eching","municipality":{"key":"09178120","name":"Eching","type":"Kreisangehörige_Gemeinde"},"district":{"key":"09178","name":"Freising","type":"Landkreis"},"federalState":{"key":"09","name":"Bayern"}},{"name":"Walkenmühleweg","postalCode":"72379","locality":"Hechingen","municipality":{"key":"08417031","name":"Hechingen, Stadt","type":"Stadt"},"district":{"key":"08417","name":"Zollernalbkreis","type":"Landkreis"},"federalState":{"key":"08","name":"Baden-Württemberg"}},{"name":"Wallerstr.","postalCode":"84174","locality":"Eching","municipality":{"key":"09274124","name":"Eching","type":"Kreisangehörige_Gemeinde"},"district":{"key":"09274","name":"Landshut","type":"Landkreis"},"federalState":{"key":"09","name":"Bayern"}},{"name":"Wasenweg","postalCode":"84174","locality":"Eching","municipality":{"key":"09274124","name":"Eching","type":"Kreisangehörige_Gemeinde"},"district":{"key":"09274","name":"Landshut","type":"Landkreis"},"federalState":{"key":"09","name":"Bayern"}},{"name":"Wasserbruck","postalCode":"84174","locality":"Eching","municipality":{"key":"09274124","name":"Eching","type":"Kreisangehörige_Gemeinde"},"district":{"key":"09274","name":"Landshut","type":"Landkreis"},"federalState":{"key":"09","name":"Bayern"}},{"name":"Wasserteich Planie","postalCode":"75391","locality":"Gechingen","municipality":{"key":"08235029","name":"Gechingen","type":"Kreisangehörige_Gemeinde"},"district":{"key":"08235","name":"Calw","type":"Landkreis"},"federalState":{"key":"08","name":"Baden-Württemberg"}},{"name":"Wehrstr.","postalCode":"84174","locality":"Eching","municipality":{"key":"09274124","name":"Eching","type":"Kreisangehörige_Gemeinde"},"district":{"key":"09274","name":"Landshut","type":"Landkreis"},"federalState":{"key":"09","name":"Bayern"}},{"name":"Weidenweg","postalCode":"72379","locality":"Hechingen","municipality":{"key":"08417031","name":"Hechingen, Stadt","type":"Stadt"},"district":{"key":"08417","name":"Zollernalbkreis","type":"Landkreis"},"federalState":{"key":"08","name":"Baden-Württemberg"}},{"name":"Weidenweg","postalCode":"82279","locality":"Eching am Ammersee","municipality":{"key":"09181115","name":"Eching am Ammersee","type":"Kreisangehörige_Gemeinde"},"district":{"key":"09181","name":"Landsberg am Lech","type":"Landkreis"},"federalState":{"key":"09","name":"Bayern"}},{"name":"Weidenweg","postalCode":"85386","locality":"Eching","municipality":{"key":"09178120","name":"Eching","type":"Kreisangehörige_Gemeinde"},"district":{"key":"09178","name":"Freising","type":"Landkreis"},"federalState":{"key":"09","name":"Bayern"}},{"name":"Weihergasse","postalCode":"73579","locality":"Schechingen","municipality":{"key":"08136062","name":"Schechingen","type":"Kreisangehörige_Gemeinde"},"district":{"key":"08136","name":"Ostalbkreis","type":"Landkreis"},"federalState":{"key":"08","name":"Baden-Württemberg"}},{"name":"Weiherstr.","postalCode":"84174","locality":"Eching","municipality":{"key":"09274124","name":"Eching","type":"Kreisangehörige_Gemeinde"},"district":{"key":"09274","name":"Landshut","type":"Landkreis"},"federalState":{"key":"09","name":"Bayern"}},{"name":"Weilenbergweg","postalCode":"72379","locality":"Hechingen","municipality":{"key":"08417031","name":"Hechingen, Stadt","type":"Stadt"},"district":{"key":"08417","name":"Zollernalbkreis","type":"Landkreis"},"federalState":{"key":"08","name":"Baden-Württemberg"}},{"name":"Weilheimer Halde Weg","postalCode":"72379","locality":"Hechingen","municipality":{"key":"08417031","name":"Hechingen, Stadt","type":"Stadt"},"district":{"key":"08417","name":"Zollernalbkreis","type":"Landkreis"},"federalState":{"key":"08","name":"Baden-Württemberg"}},{"name":"Weilheimer Str.","postalCode":"72379","locality":"Hechingen","municipality":{"key":"08417031","name":"Hechingen, Stadt","type":"Stadt"},"district":{"key":"08417","name":"Zollernalbkreis","type":"Landkreis"},"federalState":{"key":"08","name":"Baden-Württemberg"}},{"name":"Weinberg","postalCode":"84174","locality":"Eching","municipality":{"key":"09274124","name":"Eching","type":"Kreisangehörige_Gemeinde"},"district":{"key":"09274","name":"Landshut","type":"Landkreis"},"federalState":{"key":"09","name":"Bayern"}},{"name":"Weinbergstr.","postalCode":"72379","locality":"Hechingen","municipality":{"key":"08417031","name":"Hechingen, Stadt","type":"Stadt"},"district":{"key":"08417","name":"Zollernalbkreis","type":"Landkreis"},"federalState":{"key":"08","name":"Baden-Württemberg"}},{"name":"Weinbergstr.","postalCode":"85386","locality":"Eching","municipality":{"key":"09178120","name":"Eching","type":"Kreisangehörige_Gemeinde"},"district":{"key":"09178","name":"Freising","type":"Landkreis"},"federalState":{"key":"09","name":"Bayern"}},{"name":"Weingartenstr.","postalCode":"75391","locality":"Gechingen","municipality":{"key":"08235029","name":"Gechingen","type":"Kreisangehörige_Gemeinde"},"district":{"key":"08235","name":"Calw","type":"Landkreis"},"federalState":{"key":"08","name":"Baden-Württemberg"}},{"name":"Weißkreuzstr.","postalCode":"72379","locality":"Hechingen","municipality":{"key":"08417031","name":"Hechingen, Stadt","type":"Stadt"},"district":{"key":"08417","name":"Zollernalbkreis","type":"Landkreis"},"federalState":{"key":"08","name":"Baden-Württemberg"}},{"name":"Weitwiesstr.","postalCode":"83259","locality":"Schleching","municipality":{"key":"09189141","name":"Schleching","type":"Kreisangehörige_Gemeinde"},"district":{"key":"09189","name":"Traunstein","type":"Landkreis"},"federalState":{"key":"09","name":"Bayern"}},{"name":"Weixerauer Str.","postalCode":"84174","locality":"Eching","municipality":{"key":"09274124","name":"Eching","type":"Kreisangehörige_Gemeinde"},"district":{"key":"09274","name":"Landshut","type":"Landkreis"},"federalState":{"key":"09","name":"Bayern"}},{"name":"Weizenstr.","postalCode":"84174","locality":"Eching","municipality":{"key":"09274124","name":"Eching","type":"Kreisangehörige_Gemeinde"},"district":{"key":"09274","name":"Landshut","type":"Landkreis"},"federalState":{"key":"09","name":"Bayern"}},{"name":"Wendelin-Nufer-Str.","postalCode":"72379","locality":"Hechingen","municipality":{"key":"08417031","name":"Hechingen, Stadt","type":"Stadt"},"district":{"key":"08417","name":"Zollernalbkreis","type":"Landkreis"},"federalState":{"key":"08","name":"Baden-Württemberg"}},{"name":"Wernesäcker","postalCode":"72379","locality":"Hechingen","municipality":{"key":"08417031","name":"Hechingen, Stadt","type":"Stadt"},"district":{"key":"08417","name":"Zollernalbkreis","type":"Landkreis"},"federalState":{"key":"08","name":"Baden-Württemberg"}},{"name":"Westerfeldstr.","postalCode":"73579","locality":"Schechingen","municipality":{"key":"08136062","name":"Schechingen","type":"Kreisangehörige_Gemeinde"},"district":{"key":"08136","name":"Ostalbkreis","type":"Landkreis"},"federalState":{"key":"08","name":"Baden-Württemberg"}},{"name":"Wiegnerstr.","postalCode":"85386","locality":"Eching","municipality":{"key":"09178120","name":"Eching","type":"Kreisangehörige_Gemeinde"},"district":{"key":"09178","name":"Freising","type":"Landkreis"},"federalState":{"key":"09","name":"Bayern"}},{"name":"Wielandstr.","postalCode":"85386","locality":"Eching","municipality":{"key":"09178120","name":"Eching","type":"Kreisangehörige_Gemeinde"},"district":{"key":"09178","name":"Freising","type":"Landkreis"},"federalState":{"key":"09","name":"Bayern"}},{"name":"Wielandweg","postalCode":"72379","locality":"Hechingen","municipality":{"key":"08417031","name":"Hechingen, Stadt","type":"Stadt"},"district":{"key":"08417","name":"Zollernalbkreis","type":"Landkreis"},"federalState":{"key":"08","name":"Baden-Württemberg"}},{"name":"Wiener Str.","postalCode":"72379","locality":"Hechingen","municipality":{"key":"08417031","name":"Hechingen, Stadt","type":"Stadt"},"district":{"key":"08417","name":"Zollernalbkreis","type":"Landkreis"},"federalState":{"key":"08","name":"Baden-Württemberg"}},{"name":"Wieselweg","postalCode":"75391","locality":"Gechingen","municipality":{"key":"08235029","name":"Gechingen","type":"Kreisangehörige_Gemeinde"},"district":{"key":"08235","name":"Calw","type":"Landkreis"},"federalState":{"key":"08","name":"Baden-Württemberg"}},{"name":"Wiesenbreite","postalCode":"86759","locality":"Wechingen","municipality":{"key":"09779226","name":"Wechingen","type":"Kreisangehörige_Gemeinde"},"district":{"key":"09779","name":"Donau-Ries","type":"Landkreis"},"federalState":{"key":"09","name":"Bayern"}},{"name":"Wiesenstr.","postalCode":"72379","locality":"Hechingen","municipality":{"key":"08417031","name":"Hechingen, Stadt","type":"Stadt"},"district":{"key":"08417","name":"Zollernalbkreis","type":"Landkreis"},"federalState":{"key":"08","name":"Baden-Württemberg"}},{"name":"Wiesenstr.","postalCode":"84174","locality":"Eching","municipality":{"key":"09274124","name":"Eching","type":"Kreisangehörige_Gemeinde"},"district":{"key":"09274","name":"Landshut","type":"Landkreis"},"federalState":{"key":"09","name":"Bayern"}},{"name":"Wiesenweg","postalCode":"86759","locality":"Wechingen","municipality":{"key":"09779226","name":"Wechingen","type":"Kreisangehörige_Gemeinde"},"district":{"key":"09779","name":"Donau-Ries","type":"Landkreis"},"federalState":{"key":"09","name":"Bayern"}},{"name":"Wildäcker","postalCode":"72379","locality":"Hechingen","municipality":{"key":"08417031","name":"Hechingen, Stadt","type":"Stadt"},"district":{"key":"08417","name":"Zollernalbkreis","type":"Landkreis"},"federalState":{"key":"08","name":"Baden-Württemberg"}},{"name":"Wildermuthstr.","postalCode":"72379","locality":"Hechingen","municipality":{"key":"08417031","name":"Hechingen, Stadt","type":"Stadt"},"district":{"key":"08417","name":"Zollernalbkreis","type":"Landkreis"},"federalState":{"key":"08","name":"Baden-Württemberg"}},{"name":"Wildweg","postalCode":"85386","locality":"Eching","municipality":{"key":"09178120","name":"Eching","type":"Kreisangehörige_Gemeinde"},"district":{"key":"09178","name":"Freising","type":"Landkreis"},"federalState":{"key":"09","name":"Bayern"}},{"name":"Wilhelm-Leuschner-Str.","postalCode":"85386","locality":"Eching","municipality":{"key":"09178120","name":"Eching","type":"Kreisangehörige_Gemeinde"},"district":{"key":"09178","name":"Freising","type":"Landkreis"},"federalState":{"key":"09","name":"Bayern"}},{"name":"Wilhelmstr.","postalCode":"72379","locality":"Hechingen","municipality":{"key":"08417031","name":"Hechingen, Stadt","type":"Stadt"},"district":{"key":"08417","name":"Zollernalbkreis","type":"Landkreis"},"federalState":{"key":"08","name":"Baden-Württemberg"}},{"name":"Wilh.-Friedr.-Laur-Weg","postalCode":"72379","locality":"Hechingen","municipality":{"key":"08417031","name":"Hechingen, Stadt","type":"Stadt"},"district":{"key":"08417","name":"Zollernalbkreis","type":"Landkreis"},"federalState":{"key":"08","name":"Baden-Württemberg"}},{"name":"Willi-Graf-Str.","postalCode":"85386","locality":"Eching","municipality":{"key":"09178120","name":"Eching","type":"Kreisangehörige_Gemeinde"},"district":{"key":"09178","name":"Freising","type":"Landkreis"},"federalState":{"key":"09","name":"Bayern"}},{"name":"Windachstr.","postalCode":"82279","locality":"Eching am Ammersee","municipality":{"key":"09181115","name":"Eching am Ammersee","type":"Kreisangehörige_Gemeinde"},"district":{"key":"09181","name":"Landsberg am Lech","type":"Landkreis"},"federalState":{"key":"09","name":"Bayern"}},{"name":"Windtener Str.","postalCode":"84174","locality":"Eching","municipality":{"key":"09274124","name":"Eching","type":"Kreisangehörige_Gemeinde"},"district":{"key":"09274","name":"Landshut","type":"Landkreis"},"federalState":{"key":"09","name":"Bayern"}},{"name":"Zanderweg","postalCode":"84174","locality":"Eching","municipality":{"key":"09274124","name":"Eching","type":"Kreisangehörige_Gemeinde"},"district":{"key":"09274","name":"Landshut","type":"Landkreis"},"federalState":{"key":"09","name":"Bayern"}},{"name":"Zankenhauser Str.","postalCode":"82279","locality":"Eching am Ammersee","municipality":{"key":"09181115","name":"Eching am Ammersee","type":"Kreisangehörige_Gemeinde"},"district":{"key":"09181","name":"Landsberg am Lech","type":"Landkreis"},"federalState":{"key":"09","name":"Bayern"}},{"name":"Zellerweg","postalCode":"72379","locality":"Hechingen","municipality":{"key":"08417031","name":"Hechingen, Stadt","type":"Stadt"},"district":{"key":"08417","name":"Zollernalbkreis","type":"Landkreis"},"federalState":{"key":"08","name":"Baden-Württemberg"}},{"name":"Zinkenstr.","postalCode":"72379","locality":"Hechingen","municipality":{"key":"08417031","name":"Hechingen, Stadt","type":"Stadt"},"district":{"key":"08417","name":"Zollernalbkreis","type":"Landkreis"},"federalState":{"key":"08","name":"Baden-Württemberg"}},{"name":"Zollerbergstr.","postalCode":"72379","locality":"Hechingen","municipality":{"key":"08417031","name":"Hechingen, Stadt","type":"Stadt"},"district":{"key":"08417","name":"Zollernalbkreis","type":"Landkreis"},"federalState":{"key":"08","name":"Baden-Württemberg"}},{"name":"Zollerblickstr.","postalCode":"72379","locality":"Hechingen","municipality":{"key":"08417031","name":"Hechingen, Stadt","type":"Stadt"},"district":{"key":"08417","name":"Zollernalbkreis","type":"Landkreis"},"federalState":{"key":"08","name":"Baden-Württemberg"}},{"name":"Zollernstr.","postalCode":"72379","locality":"Hechingen","municipality":{"key":"08417031","name":"Hechingen, Stadt","type":"Stadt"},"district":{"key":"08417","name":"Zollernalbkreis","type":"Landkreis"},"federalState":{"key":"08","name":"Baden-Württemberg"}},{"name":"Zollerstr.","postalCode":"72379","locality":"Hechingen","municipality":{"key":"08417031","name":"Hechingen, Stadt","type":"Stadt"},"district":{"key":"08417","name":"Zollernalbkreis","type":"Landkreis"},"federalState":{"key":"08","name":"Baden-Württemberg"}},{"name":"Zollerstr.","postalCode":"86759","locality":"Wechingen","municipality":{"key":"09779226","name":"Wechingen","type":"Kreisangehörige_Gemeinde"},"district":{"key":"09779","name":"Donau-Ries","type":"Landkreis"},"federalState":{"key":"09","name":"Bayern"}},{"name":"Zu den Linden","postalCode":"72379","locality":"Hechingen","municipality":{"key":"08417031","name":"Hechingen, Stadt","type":"Stadt"},"district":{"key":"08417","name":"Zollernalbkreis","type":"Landkreis"},"federalState":{"key":"08","name":"Baden-Württemberg"}},{"name":"Zum Brunnen","postalCode":"72379","locality":"Hechingen","municipality":{"key":"08417031","name":"Hechingen, Stadt","type":"Stadt"},"district":{"key":"08417","name":"Zollernalbkreis","type":"Landkreis"},"federalState":{"key":"08","name":"Baden-Württemberg"}},{"name":"Zum Eichet","postalCode":"82279","locality":"Eching am Ammersee","municipality":{"key":"09181115","name":"Eching am Ammersee","type":"Kreisangehörige_Gemeinde"},"district":{"key":"09181","name":"Landsberg am Lech","type":"Landkreis"},"federalState":{"key":"09","name":"Bayern"}},{"name":"Zum Ochsenrain","postalCode":"72379","locality":"Hechingen","municipality":{"key":"08417031","name":"Hechingen, Stadt","type":"Stadt"},"district":{"key":"08417","name":"Zollernalbkreis","type":"Landkreis"},"federalState":{"key":"08","name":"Baden-Württemberg"}},{"name":"Zur Au","postalCode":"85386","locality":"Eching","municipality":{"key":"09178120","name":"Eching","type":"Kreisangehörige_Gemeinde"},"district":{"key":"09178","name":"Freising","type":"Landkreis"},"federalState":{"key":"09","name":"Bayern"}},{"name":"Zur Ebene","postalCode":"72379","locality":"Hechingen","municipality":{"key":"08417031","name":"Hechingen, Stadt","type":"Stadt"},"district":{"key":"08417","name":"Zollernalbkreis","type":"Landkreis"},"federalState":{"key":"08","name":"Baden-Württemberg"}},{"name":"Zur Point","postalCode":"85386","locality":"Eching","municipality":{"key":"09178120","name":"Eching","type":"Kreisangehörige_Gemeinde"},"district":{"key":"09178","name":"Freising","type":"Landkreis"},"federalState":{"key":"09","name":"Bayern"}},{"name":"Zusserfeldstr.","postalCode":"84174","locality":"Eching","municipality":{"key":"09274124","name":"Eching","type":"Kreisangehörige_Gemeinde"},"district":{"key":"09274","name":"Landshut","type":"Landkreis"},"federalState":{"key":"09","name":"Bayern"}},{"name":"Zwillstr.","postalCode":"83259","locality":"Schleching","municipality":{"key":"09189141","name":"Schleching","type":"Kreisangehörige_Gemeinde"},"district":{"key":"09189","name":"Traunstein","type":"Landkreis"},"federalState":{"key":"09","name":"Bayern"}},{"name":"Ährenweg","postalCode":"85375","locality":"Neufahrn bei Freising","municipality":{"key":"09178145","name":"Neufahrn b.Freising","type":"Kreisangehörige_Gemeinde"},"district":{"key":"09178","name":"Freising","type":"Landkreis"},"federalState":{"key":"09","name":"Bayern"}},{"name":"Äußere Fürholzer Str.","postalCode":"85375","locality":"Neufahrn bei Freising","municipality":{"key":"09178145","name":"Neufahrn b.Freising","type":"Kreisangehörige_Gemeinde"},"district":{"key":"09178","name":"Freising","type":"Landkreis"},"federalState":{"key":"09","name":"Bayern"}},]