[{"key":"10078875","name":"Alte Badenerstrasse","postalCode":"8173","locality":"Neerach","commune":{"key":"88","name":"Neerach","shortName":"Neerach"},"district":{"key":"104","name":"Bezirk Dielsdorf"},"canton":{"key":"1","code":"ZH","name":"Zürich"},"status":"Real"},{"key":"10189882","name":"Alte Neeracherstrasse","postalCode":"8173","locality":"Neerach","commune":{"key":"88","name":"Neerach","shortName":"Neerach"},"district":{"key":"104","name":"Bezirk Dielsdorf"},"canton":{"key":"1","code":"ZH","name":"Zürich"},"status":"Real"},{"key":"10000148","name":"Bachserstrasse","postalCode":"8173","locality":"Neerach","commune":{"key":"88","name":"Neerach","shortName":"Neerach"},"district":{"key":"104","name":"Bezirk Dielsdorf"},"canton":{"key":"1","code":"ZH","name":"Zürich"},"status":"Real"},{"key":"10120452","name":"Bachserweg","postalCode":"8173","locality":"Neerach","commune":{"key":"88","name":"Neerach","shortName":"Neerach"},"district":{"key":"104","name":"Bezirk Dielsdorf"},"canton":{"key":"1","code":"ZH","name":"Zürich"},"status":"Real"},{"key":"10247790","name":"Bifigstrasse","postalCode":"8173","locality":"Neerach","commune":{"key":"88","name":"Neerach","shortName":"Neerach"},"district":{"key":"104","name":"Bezirk Dielsdorf"},"canton":{"key":"1","code":"ZH","name":"Zürich"},"status":"Real"},{"key":"10127958","name":"Binzmühlestrasse","postalCode":"8173","locality":"Neerach","commune":{"key":"88","name":"Neerach","shortName":"Neerach"},"district":{"key":"104","name":"Bezirk Dielsdorf"},"canton":{"key":"1","code":"ZH","name":"Zürich"},"status":"Real"},{"key":"10000149","name":"Birchlistrasse","postalCode":"8173","locality":"Neerach","commune":{"key":"88","name":"Neerach","shortName":"Neerach"},"district":{"key":"104","name":"Bezirk Dielsdorf"},"canton":{"key":"1","code":"ZH","name":"Zürich"},"status":"Real"},{"key":"10078876","name":"Buckstrasse","postalCode":"8173","locality":"Neerach","commune":{"key":"88","name":"Neerach","shortName":"Neerach"},"district":{"key":"104","name":"Bezirk Dielsdorf"},"canton":{"key":"1","code":"ZH","name":"Zürich"},"status":"Real"},{"key":"10241329","name":"Büelstrasse","postalCode":"8173","locality":"Neerach","commune":{"key":"88","name":"Neerach","shortName":"Neerach"},"district":{"key":"104","name":"Bezirk Dielsdorf"},"canton":{"key":"1","code":"ZH","name":"Zürich"},"status":"Real"},{"key":"10120454","name":"Deckerweg","postalCode":"8173","locality":"Neerach","commune":{"key":"88","name":"Neerach","shortName":"Neerach"},"district":{"key":"104","name":"Bezirk Dielsdorf"},"canton":{"key":"1","code":"ZH","name":"Zürich"},"status":"Real"},{"key":"10000150","name":"Dielsdorferstrasse","postalCode":"8173","locality":"Neerach","commune":{"key":"88","name":"Neerach","shortName":"Neerach"},"district":{"key":"104","name":"Bezirk Dielsdorf"},"canton":{"key":"1","code":"ZH","name":"Zürich"},"status":"Real"},{"key":"10061058","name":"Dorfstrasse","postalCode":"8173","locality":"Neerach","commune":{"key":"88","name":"Neerach","shortName":"Neerach"},"district":{"key":"104","name":"Bezirk Dielsdorf"},"canton":{"key":"1","code":"ZH","name":"Zürich"},"status":"Real"},{"key":"10078877","name":"Dorfwiesenstrasse","postalCode":"8173","locality":"Neerach","commune":{"key":"88","name":"Neerach","shortName":"Neerach"},"district":{"key":"104","name":"Bezirk Dielsdorf"},"canton":{"key":"1","code":"ZH","name":"Zürich"},"status":"Real"},{"key":"10120455","name":"Fabrikweg","postalCode":"8173","locality":"Neerach","commune":{"key":"88","name":"Neerach","shortName":"Neerach"},"district":{"key":"104","name":"Bezirk Dielsdorf"},"canton":{"key":"1","code":"ZH","name":"Zürich"},"status":"Real"},{"key":"10000152","name":"Gätzibrunnenstrasse","postalCode":"8173","locality":"Neerach","commune":{"key":"88","name":"Neerach","shortName":"Neerach"},"district":{"key":"104","name":"Bezirk Dielsdorf"},"canton":{"key":"1","code":"ZH","name":"Zürich"},"status":"Real"},{"key":"10247798","name":"Geerenweg","postalCode":"8173","locality":"Neerach","commune":{"key":"88","name":"Neerach","shortName":"Neerach"},"district":{"key":"104","name":"Bezirk Dielsdorf"},"canton":{"key":"1","code":"ZH","name":"Zürich"},"status":"Real"},{"key":"10000151","name":"Geigenmühlestrasse","postalCode":"8173","locality":"Neerach","commune":{"key":"88","name":"Neerach","shortName":"Neerach"},"district":{"key":"104","name":"Bezirk Dielsdorf"},"canton":{"key":"1","code":"ZH","name":"Zürich"},"status":"Real"},{"key":"10113345","name":"Geigenmühleweg","postalCode":"8173","locality":"Neerach","commune":{"key":"88","name":"Neerach","shortName":"Neerach"},"district":{"key":"104","name":"Bezirk Dielsdorf"},"canton":{"key":"1","code":"ZH","name":"Zürich"},"status":"Real"},{"key":"10061060","name":"Häldelistrasse","postalCode":"8173","locality":"Neerach","commune":{"key":"88","name":"Neerach","shortName":"Neerach"},"district":{"key":"104","name":"Bezirk Dielsdorf"},"canton":{"key":"1","code":"ZH","name":"Zürich"},"status":"Real"},{"key":"10126950","name":"Häldeliweg","postalCode":"8173","locality":"Neerach","commune":{"key":"88","name":"Neerach","shortName":"Neerach"},"district":{"key":"104","name":"Bezirk Dielsdorf"},"canton":{"key":"1","code":"ZH","name":"Zürich"},"status":"Real"},{"key":"10078878","name":"Haldenstrasse","postalCode":"8173","locality":"Neerach","commune":{"key":"88","name":"Neerach","shortName":"Neerach"},"district":{"key":"104","name":"Bezirk Dielsdorf"},"canton":{"key":"1","code":"ZH","name":"Zürich"},"status":"Real"},{"key":"10126951","name":"Haldenweg","postalCode":"8173","locality":"Neerach","commune":{"key":"88","name":"Neerach","shortName":"Neerach"},"district":{"key":"104","name":"Bezirk Dielsdorf"},"canton":{"key":"1","code":"ZH","name":"Zürich"},"status":"Real"},{"key":"10153712","name":"Hänkelbodenstrasse","postalCode":"8173","locality":"Neerach","commune":{"key":"88","name":"Neerach","shortName":"Neerach"},"district":{"key":"104","name":"Bezirk Dielsdorf"},"canton":{"key":"1","code":"ZH","name":"Zürich"},"status":"Real"},{"key":"10241343","name":"Hauweg","postalCode":"8173","locality":"Neerach","commune":{"key":"88","name":"Neerach","shortName":"Neerach"},"district":{"key":"104","name":"Bezirk Dielsdorf"},"canton":{"key":"1","code":"ZH","name":"Zürich"},"status":"Real"},{"key":"10061059","name":"Heitligstrasse","postalCode":"8173","locality":"Neerach","commune":{"key":"88","name":"Neerach","shortName":"Neerach"},"district":{"key":"104","name":"Bezirk Dielsdorf"},"canton":{"key":"1","code":"ZH","name":"Zürich"},"status":"Real"},{"key":"10112398","name":"Hochfelderstrasse","postalCode":"8173","locality":"Neerach","commune":{"key":"88","name":"Neerach","shortName":"Neerach"},"district":{"key":"104","name":"Bezirk Dielsdorf"},"canton":{"key":"1","code":"ZH","name":"Zürich"},"status":"Real"},{"key":"10000153","name":"Hofacherstrasse","postalCode":"8173","locality":"Neerach","commune":{"key":"88","name":"Neerach","shortName":"Neerach"},"district":{"key":"104","name":"Bezirk Dielsdorf"},"canton":{"key":"1","code":"ZH","name":"Zürich"},"status":"Real"},{"key":"10078879","name":"Hohfuristrasse","postalCode":"8173","locality":"Neerach","commune":{"key":"88","name":"Neerach","shortName":"Neerach"},"district":{"key":"104","name":"Bezirk Dielsdorf"},"canton":{"key":"1","code":"ZH","name":"Zürich"},"status":"Real"},{"key":"10000154","name":"Hohmattrainstrasse","postalCode":"8173","locality":"Neerach","commune":{"key":"88","name":"Neerach","shortName":"Neerach"},"district":{"key":"104","name":"Bezirk Dielsdorf"},"canton":{"key":"1","code":"ZH","name":"Zürich"},"status":"Real"},{"key":"10126952","name":"Hohmattrainweg","postalCode":"8173","locality":"Neerach","commune":{"key":"88","name":"Neerach","shortName":"Neerach"},"district":{"key":"104","name":"Bezirk Dielsdorf"},"canton":{"key":"1","code":"ZH","name":"Zürich"},"status":"Real"},{"key":"10110235","name":"Hohmattstrasse","postalCode":"8173","locality":"Neerach","commune":{"key":"88","name":"Neerach","shortName":"Neerach"},"district":{"key":"104","name":"Bezirk Dielsdorf"},"canton":{"key":"1","code":"ZH","name":"Zürich"},"status":"Real"},{"key":"10126953","name":"Hohmattweg","postalCode":"8173","locality":"Neerach","commune":{"key":"88","name":"Neerach","shortName":"Neerach"},"district":{"key":"104","name":"Bezirk Dielsdorf"},"canton":{"key":"1","code":"ZH","name":"Zürich"},"status":"Real"},{"key":"10241340","name":"Höribergstrasse","postalCode":"8173","locality":"Neerach","commune":{"key":"88","name":"Neerach","shortName":"Neerach"},"district":{"key":"104","name":"Bezirk Dielsdorf"},"canton":{"key":"1","code":"ZH","name":"Zürich"},"status":"Real"},{"key":"10115559","name":"Im Bramen","postalCode":"8173","locality":"Neerach","commune":{"key":"88","name":"Neerach","shortName":"Neerach"},"district":{"key":"104","name":"Bezirk Dielsdorf"},"canton":{"key":"1","code":"ZH","name":"Zürich"},"status":"Real"},{"key":"10000155","name":"Im Gentsch","postalCode":"8173","locality":"Neerach","commune":{"key":"88","name":"Neerach","shortName":"Neerach"},"district":{"key":"104","name":"Bezirk Dielsdorf"},"canton":{"key":"1","code":"ZH","name":"Zürich"},"status":"Real"},{"key":"10133986","name":"Im Juch","postalCode":"8173","locality":"Neerach","commune":{"key":"88","name":"Neerach","shortName":"Neerach"},"district":{"key":"104","name":"Bezirk Dielsdorf"},"canton":{"key":"1","code":"ZH","name":"Zürich"},"status":"Real"},{"key":"10000156","name":"Im Roracher","postalCode":"8173","locality":"Neerach","commune":{"key":"88","name":"Neerach","shortName":"Neerach"},"district":{"key":"104","name":"Bezirk Dielsdorf"},"canton":{"key":"1","code":"ZH","name":"Zürich"},"status":"Real"},{"key":"10061061","name":"In der Mettlen","postalCode":"8173","locality":"Neerach","commune":{"key":"88","name":"Neerach","shortName":"Neerach"},"district":{"key":"104","name":"Bezirk Dielsdorf"},"canton":{"key":"1","code":"ZH","name":"Zürich"},"status":"Real"},{"key":"10078880","name":"Juchstrasse","postalCode":"8173","locality":"Neerach","commune":{"key":"88","name":"Neerach","shortName":"Neerach"},"district":{"key":"104","name":"Bezirk Dielsdorf"},"canton":{"key":"1","code":"ZH","name":"Zürich"},"status":"Real"},{"key":"10126954","name":"Juchweg","postalCode":"8173","locality":"Neerach","commune":{"key":"88","name":"Neerach","shortName":"Neerach"},"district":{"key":"104","name":"Bezirk Dielsdorf"},"canton":{"key":"1","code":"ZH","name":"Zürich"},"status":"Real"},{"key":"10115560","name":"Kaiserstuhlstrasse","postalCode":"8173","locality":"Neerach","commune":{"key":"88","name":"Neerach","shortName":"Neerach"},"district":{"key":"104","name":"Bezirk Dielsdorf"},"canton":{"key":"1","code":"ZH","name":"Zürich"},"status":"Real"},{"key":"10054330","name":"Kernensee","postalCode":"8173","locality":"Neerach","commune":{"key":"88","name":"Neerach","shortName":"Neerach"},"district":{"key":"104","name":"Bezirk Dielsdorf"},"canton":{"key":"1","code":"ZH","name":"Zürich"},"status":"Real"},{"key":"10126955","name":"Klötiweg","postalCode":"8173","locality":"Neerach","commune":{"key":"88","name":"Neerach","shortName":"Neerach"},"district":{"key":"104","name":"Bezirk Dielsdorf"},"canton":{"key":"1","code":"ZH","name":"Zürich"},"status":"Real"},{"key":"10012744","name":"Langgrabenhof","postalCode":"8173","locality":"Neerach","commune":{"key":"88","name":"Neerach","shortName":"Neerach"},"district":{"key":"104","name":"Bezirk Dielsdorf"},"canton":{"key":"1","code":"ZH","name":"Zürich"},"status":"Real"},{"key":"10241327","name":"Langhardstrasse","postalCode":"8173","locality":"Neerach","commune":{"key":"88","name":"Neerach","shortName":"Neerach"},"district":{"key":"104","name":"Bezirk Dielsdorf"},"canton":{"key":"1","code":"ZH","name":"Zürich"},"status":"Real"},{"key":"10200310","name":"Mannacher","postalCode":"8173","locality":"Neerach","commune":{"key":"88","name":"Neerach","shortName":"Neerach"},"district":{"key":"104","name":"Bezirk Dielsdorf"},"canton":{"key":"1","code":"ZH","name":"Zürich"},"status":"Real"},{"key":"10126956","name":"Milchhüttenweg","postalCode":"8173","locality":"Neerach","commune":{"key":"88","name":"Neerach","shortName":"Neerach"},"district":{"key":"104","name":"Bezirk Dielsdorf"},"canton":{"key":"1","code":"ZH","name":"Zürich"},"status":"Real"},{"key":"10109363","name":"Mühlewiesenstrasse","postalCode":"8173","locality":"Neerach","commune":{"key":"88","name":"Neerach","shortName":"Neerach"},"district":{"key":"104","name":"Bezirk Dielsdorf"},"canton":{"key":"1","code":"ZH","name":"Zürich"},"status":"Real"},{"key":"10191198","name":"Müliweg","postalCode":"8173","locality":"Neerach","commune":{"key":"88","name":"Neerach","shortName":"Neerach"},"district":{"key":"104","name":"Bezirk Dielsdorf"},"canton":{"key":"1","code":"ZH","name":"Zürich"},"status":"Real"},{"key":"10000157","name":"Neeracherstrasse","postalCode":"8173","locality":"Neerach","commune":{"key":"88","name":"Neerach","shortName":"Neerach"},"district":{"key":"104","name":"Bezirk Dielsdorf"},"canton":{"key":"1","code":"ZH","name":"Zürich"},"status":"Real"},{"key":"10078881","name":"Ob der Mur","postalCode":"8173","locality":"Neerach","commune":{"key":"88","name":"Neerach","shortName":"Neerach"},"district":{"key":"104","name":"Bezirk Dielsdorf"},"canton":{"key":"1","code":"ZH","name":"Zürich"},"status":"Real"},{"key":"10175567","name":"Oberfeldstrasse","postalCode":"8173","locality":"Neerach","commune":{"key":"88","name":"Neerach","shortName":"Neerach"},"district":{"key":"104","name":"Bezirk Dielsdorf"},"canton":{"key":"1","code":"ZH","name":"Zürich"},"status":"Real"},{"key":"10061062","name":"Oberholzstrasse","postalCode":"8173","locality":"Neerach","commune":{"key":"88","name":"Neerach","shortName":"Neerach"},"district":{"key":"104","name":"Bezirk Dielsdorf"},"canton":{"key":"1","code":"ZH","name":"Zürich"},"status":"Real"},{"key":"10126957","name":"Oberholzweg","postalCode":"8173","locality":"Neerach","commune":{"key":"88","name":"Neerach","shortName":"Neerach"},"district":{"key":"104","name":"Bezirk Dielsdorf"},"canton":{"key":"1","code":"ZH","name":"Zürich"},"status":"Real"},{"key":"10126958","name":"Postweg","postalCode":"8173","locality":"Neerach","commune":{"key":"88","name":"Neerach","shortName":"Neerach"},"district":{"key":"104","name":"Bezirk Dielsdorf"},"canton":{"key":"1","code":"ZH","name":"Zürich"},"status":"Real"},{"key":"10110976","name":"Püntstrasse","postalCode":"8173","locality":"Neerach","commune":{"key":"88","name":"Neerach","shortName":"Neerach"},"district":{"key":"104","name":"Bezirk Dielsdorf"},"canton":{"key":"1","code":"ZH","name":"Zürich"},"status":"Real"},{"key":"10078882","name":"Rebhaldenstrasse","postalCode":"8173","locality":"Neerach","commune":{"key":"88","name":"Neerach","shortName":"Neerach"},"district":{"key":"104","name":"Bezirk Dielsdorf"},"canton":{"key":"1","code":"ZH","name":"Zürich"},"status":"Real"},{"key":"10126959","name":"Rebhaldenweg","postalCode":"8173","locality":"Neerach","commune":{"key":"88","name":"Neerach","shortName":"Neerach"},"district":{"key":"104","name":"Bezirk Dielsdorf"},"canton":{"key":"1","code":"ZH","name":"Zürich"},"status":"Real"},{"key":"10148333","name":"Rennweg","postalCode":"8173","locality":"Neerach","commune":{"key":"88","name":"Neerach","shortName":"Neerach"},"district":{"key":"104","name":"Bezirk Dielsdorf"},"canton":{"key":"1","code":"ZH","name":"Zürich"},"status":"Real"},{"key":"10098137","name":"Riblistrasse","postalCode":"8173","locality":"Neerach","commune":{"key":"88","name":"Neerach","shortName":"Neerach"},"district":{"key":"104","name":"Bezirk Dielsdorf"},"canton":{"key":"1","code":"ZH","name":"Zürich"},"status":"Real"},{"key":"10000159","name":"Riedacherstrasse","postalCode":"8173","locality":"Neerach","commune":{"key":"88","name":"Neerach","shortName":"Neerach"},"district":{"key":"104","name":"Bezirk Dielsdorf"},"canton":{"key":"1","code":"ZH","name":"Zürich"},"status":"Real"},{"key":"10151399","name":"Riedterstrasse","postalCode":"8173","locality":"Neerach","commune":{"key":"88","name":"Neerach","shortName":"Neerach"},"district":{"key":"104","name":"Bezirk Dielsdorf"},"canton":{"key":"1","code":"ZH","name":"Zürich"},"status":"Real"},{"key":"10000160","name":"Rigistrasse","postalCode":"8173","locality":"Neerach","commune":{"key":"88","name":"Neerach","shortName":"Neerach"},"district":{"key":"104","name":"Bezirk Dielsdorf"},"canton":{"key":"1","code":"ZH","name":"Zürich"},"status":"Real"},{"key":"10055067","name":"Rüterspüelstrasse","postalCode":"8173","locality":"Neerach","commune":{"key":"88","name":"Neerach","shortName":"Neerach"},"district":{"key":"104","name":"Bezirk Dielsdorf"},"canton":{"key":"1","code":"ZH","name":"Zürich"},"status":"Real"},{"key":"10000161","name":"Sallenstrasse","postalCode":"8173","locality":"Neerach","commune":{"key":"88","name":"Neerach","shortName":"Neerach"},"district":{"key":"104","name":"Bezirk Dielsdorf"},"canton":{"key":"1","code":"ZH","name":"Zürich"},"status":"Real"},{"key":"10061063","name":"Sandbuckstrasse","postalCode":"8173","locality":"Neerach","commune":{"key":"88","name":"Neerach","shortName":"Neerach"},"district":{"key":"104","name":"Bezirk Dielsdorf"},"canton":{"key":"1","code":"ZH","name":"Zürich"},"status":"Real"},{"key":"10114091","name":"Schützenhausstrasse","postalCode":"8173","locality":"Neerach","commune":{"key":"88","name":"Neerach","shortName":"Neerach"},"district":{"key":"104","name":"Bezirk Dielsdorf"},"canton":{"key":"1","code":"ZH","name":"Zürich"},"status":"Real"},{"key":"10241342","name":"Schwamenholzstrasse","postalCode":"8173","locality":"Neerach","commune":{"key":"88","name":"Neerach","shortName":"Neerach"},"district":{"key":"104","name":"Bezirk Dielsdorf"},"canton":{"key":"1","code":"ZH","name":"Zürich"},"status":"Real"},{"key":"10148257","name":"Stadlerstrasse","postalCode":"8173","locality":"Neerach","commune":{"key":"88","name":"Neerach","shortName":"Neerach"},"district":{"key":"104","name":"Bezirk Dielsdorf"},"canton":{"key":"1","code":"ZH","name":"Zürich"},"status":"Real"},{"key":"10078883","name":"Steinmaurstrasse","postalCode":"8173","locality":"Neerach","commune":{"key":"88","name":"Neerach","shortName":"Neerach"},"district":{"key":"104","name":"Bezirk Dielsdorf"},"canton":{"key":"1","code":"ZH","name":"Zürich"},"status":"Real"},{"key":"10247794","name":"Steinwisweg","postalCode":"8173","locality":"Neerach","commune":{"key":"88","name":"Neerach","shortName":"Neerach"},"district":{"key":"104","name":"Bezirk Dielsdorf"},"canton":{"key":"1","code":"ZH","name":"Zürich"},"status":"Real"},{"key":"10055068","name":"Stigstrasse","postalCode":"8173","locality":"Neerach","commune":{"key":"88","name":"Neerach","shortName":"Neerach"},"district":{"key":"104","name":"Bezirk Dielsdorf"},"canton":{"key":"1","code":"ZH","name":"Zürich"},"status":"Real"},{"key":"10241326","name":"Storchenstrasse","postalCode":"8173","locality":"Neerach","commune":{"key":"88","name":"Neerach","shortName":"Neerach"},"district":{"key":"104","name":"Bezirk Dielsdorf"},"canton":{"key":"1","code":"ZH","name":"Zürich"},"status":"Real"},{"key":"10145733","name":"Strickhof","postalCode":"8173","locality":"Neerach","commune":{"key":"88","name":"Neerach","shortName":"Neerach"},"district":{"key":"104","name":"Bezirk Dielsdorf"},"canton":{"key":"1","code":"ZH","name":"Zürich"},"status":"Real"},{"key":"10148211","name":"Umfahrungsstrasse","postalCode":"8173","locality":"Neerach","commune":{"key":"88","name":"Neerach","shortName":"Neerach"},"district":{"key":"104","name":"Bezirk Dielsdorf"},"canton":{"key":"1","code":"ZH","name":"Zürich"},"status":"Real"},{"key":"10000162","name":"Untere Mühle","postalCode":"8173","locality":"Neerach","commune":{"key":"88","name":"Neerach","shortName":"Neerach"},"district":{"key":"104","name":"Bezirk Dielsdorf"},"canton":{"key":"1","code":"ZH","name":"Zürich"},"status":"Real"},{"key":"10000163","name":"Vogtmühlestrasse","postalCode":"8173","locality":"Neerach","commune":{"key":"88","name":"Neerach","shortName":"Neerach"},"district":{"key":"104","name":"Bezirk Dielsdorf"},"canton":{"key":"1","code":"ZH","name":"Zürich"},"status":"Real"},{"key":"10247802","name":"Vormadstrasse","postalCode":"8173","locality":"Neerach","commune":{"key":"88","name":"Neerach","shortName":"Neerach"},"district":{"key":"104","name":"Bezirk Dielsdorf"},"canton":{"key":"1","code":"ZH","name":"Zürich"},"status":"Real"},{"key":"10241328","name":"Wannenstrasse","postalCode":"8173","locality":"Neerach","commune":{"key":"88","name":"Neerach","shortName":"Neerach"},"district":{"key":"104","name":"Bezirk Dielsdorf"},"canton":{"key":"1","code":"ZH","name":"Zürich"},"status":"Real"},{"key":"10078884","name":"Wehntalerstrasse","postalCode":"8173","locality":"Neerach","commune":{"key":"88","name":"Neerach","shortName":"Neerach"},"district":{"key":"104","name":"Bezirk Dielsdorf"},"canton":{"key":"1","code":"ZH","name":"Zürich"},"status":"Real"},{"key":"10241341","name":"Wisenweg","postalCode":"8173","locality":"Neerach","commune":{"key":"88","name":"Neerach","shortName":"Neerach"},"district":{"key":"104","name":"Bezirk Dielsdorf"},"canton":{"key":"1","code":"ZH","name":"Zürich"},"status":"Real"},{"key":"10061064","name":"Zürcherstrasse","postalCode":"8173","locality":"Neerach","commune":{"key":"88","name":"Neerach","shortName":"Neerach"},"district":{"key":"104","name":"Bezirk Dielsdorf"},"canton":{"key":"1","code":"ZH","name":"Zürich"},"status":"Real"},{"key":"10000164","name":"Züriacherstrasse","postalCode":"8173","locality":"Neerach","commune":{"key":"88","name":"Neerach","shortName":"Neerach"},"district":{"key":"104","name":"Bezirk Dielsdorf"},"canton":{"key":"1","code":"ZH","name":"Zürich"},"status":"Real"},{"key":"10055069","name":"Zwinghofstrasse","postalCode":"8173","locality":"Neerach","commune":{"key":"88","name":"Neerach","shortName":"Neerach"},"district":{"key":"104","name":"Bezirk Dielsdorf"},"canton":{"key":"1","code":"ZH","name":"Zürich"},"status":"Real"},]