[{"name":"1045","postalCode":"74670","locality":"Forchtenberg","municipality":{"key":"08126028","name":"Forchtenberg, Stadt","type":"Stadt"},"district":{"key":"08126","name":"Hohenlohekreis","type":"Landkreis"},"federalState":{"key":"08","name":"Baden-Württemberg"}},{"name":"Ahornstr.","postalCode":"74670","locality":"Forchtenberg","municipality":{"key":"08126028","name":"Forchtenberg, Stadt","type":"Stadt"},"district":{"key":"08126","name":"Hohenlohekreis","type":"Landkreis"},"federalState":{"key":"08","name":"Baden-Württemberg"}},{"name":"Akazienweg","postalCode":"74670","locality":"Forchtenberg","municipality":{"key":"08126028","name":"Forchtenberg, Stadt","type":"Stadt"},"district":{"key":"08126","name":"Hohenlohekreis","type":"Landkreis"},"federalState":{"key":"08","name":"Baden-Württemberg"}},{"name":"Alemannenstr.","postalCode":"74670","locality":"Forchtenberg","municipality":{"key":"08126028","name":"Forchtenberg, Stadt","type":"Stadt"},"district":{"key":"08126","name":"Hohenlohekreis","type":"Landkreis"},"federalState":{"key":"08","name":"Baden-Württemberg"}},{"name":"Am Bahnhof","postalCode":"74670","locality":"Forchtenberg","municipality":{"key":"08126028","name":"Forchtenberg, Stadt","type":"Stadt"},"district":{"key":"08126","name":"Hohenlohekreis","type":"Landkreis"},"federalState":{"key":"08","name":"Baden-Württemberg"}},{"name":"Am Diebsturm","postalCode":"74670","locality":"Forchtenberg","municipality":{"key":"08126028","name":"Forchtenberg, Stadt","type":"Stadt"},"district":{"key":"08126","name":"Hohenlohekreis","type":"Landkreis"},"federalState":{"key":"08","name":"Baden-Württemberg"}},{"name":"Am Kaibach","postalCode":"74670","locality":"Forchtenberg","municipality":{"key":"08126028","name":"Forchtenberg, Stadt","type":"Stadt"},"district":{"key":"08126","name":"Hohenlohekreis","type":"Landkreis"},"federalState":{"key":"08","name":"Baden-Württemberg"}},{"name":"Am Kocherberg","postalCode":"74670","locality":"Forchtenberg","municipality":{"key":"08126028","name":"Forchtenberg, Stadt","type":"Stadt"},"district":{"key":"08126","name":"Hohenlohekreis","type":"Landkreis"},"federalState":{"key":"08","name":"Baden-Württemberg"}},{"name":"Amselweg","postalCode":"74670","locality":"Forchtenberg","municipality":{"key":"08126028","name":"Forchtenberg, Stadt","type":"Stadt"},"district":{"key":"08126","name":"Hohenlohekreis","type":"Landkreis"},"federalState":{"key":"08","name":"Baden-Württemberg"}},{"name":"Am Singhäusle","postalCode":"74670","locality":"Forchtenberg","municipality":{"key":"08126028","name":"Forchtenberg, Stadt","type":"Stadt"},"district":{"key":"08126","name":"Hohenlohekreis","type":"Landkreis"},"federalState":{"key":"08","name":"Baden-Württemberg"}},{"name":"Am Wachsberg","postalCode":"74670","locality":"Forchtenberg","municipality":{"key":"08126028","name":"Forchtenberg, Stadt","type":"Stadt"},"district":{"key":"08126","name":"Hohenlohekreis","type":"Landkreis"},"federalState":{"key":"08","name":"Baden-Württemberg"}},{"name":"Am Waldberg","postalCode":"74670","locality":"Forchtenberg","municipality":{"key":"08126028","name":"Forchtenberg, Stadt","type":"Stadt"},"district":{"key":"08126","name":"Hohenlohekreis","type":"Landkreis"},"federalState":{"key":"08","name":"Baden-Württemberg"}},{"name":"Am Würzburger Tor","postalCode":"74670","locality":"Forchtenberg","municipality":{"key":"08126028","name":"Forchtenberg, Stadt","type":"Stadt"},"district":{"key":"08126","name":"Hohenlohekreis","type":"Landkreis"},"federalState":{"key":"08","name":"Baden-Württemberg"}},{"name":"Am Ziegelberg","postalCode":"74670","locality":"Forchtenberg","municipality":{"key":"08126028","name":"Forchtenberg, Stadt","type":"Stadt"},"district":{"key":"08126","name":"Hohenlohekreis","type":"Landkreis"},"federalState":{"key":"08","name":"Baden-Württemberg"}},{"name":"An der Mutstaffel","postalCode":"74670","locality":"Forchtenberg","municipality":{"key":"08126028","name":"Forchtenberg, Stadt","type":"Stadt"},"district":{"key":"08126","name":"Hohenlohekreis","type":"Landkreis"},"federalState":{"key":"08","name":"Baden-Württemberg"}},{"name":"Bahnhofstr.","postalCode":"74670","locality":"Forchtenberg","municipality":{"key":"08126028","name":"Forchtenberg, Stadt","type":"Stadt"},"district":{"key":"08126","name":"Hohenlohekreis","type":"Landkreis"},"federalState":{"key":"08","name":"Baden-Württemberg"}},{"name":"Beerbergstr.","postalCode":"74670","locality":"Forchtenberg","municipality":{"key":"08126028","name":"Forchtenberg, Stadt","type":"Stadt"},"district":{"key":"08126","name":"Hohenlohekreis","type":"Landkreis"},"federalState":{"key":"08","name":"Baden-Württemberg"}},{"name":"Bei der Kelter","postalCode":"74670","locality":"Forchtenberg","municipality":{"key":"08126028","name":"Forchtenberg, Stadt","type":"Stadt"},"district":{"key":"08126","name":"Hohenlohekreis","type":"Landkreis"},"federalState":{"key":"08","name":"Baden-Württemberg"}},{"name":"Bergstr.","postalCode":"74670","locality":"Forchtenberg","municipality":{"key":"08126028","name":"Forchtenberg, Stadt","type":"Stadt"},"district":{"key":"08126","name":"Hohenlohekreis","type":"Landkreis"},"federalState":{"key":"08","name":"Baden-Württemberg"}},{"name":"Blumengasse","postalCode":"74670","locality":"Forchtenberg","municipality":{"key":"08126028","name":"Forchtenberg, Stadt","type":"Stadt"},"district":{"key":"08126","name":"Hohenlohekreis","type":"Landkreis"},"federalState":{"key":"08","name":"Baden-Württemberg"}},{"name":"Bonholzweg","postalCode":"74670","locality":"Forchtenberg","municipality":{"key":"08126028","name":"Forchtenberg, Stadt","type":"Stadt"},"district":{"key":"08126","name":"Hohenlohekreis","type":"Landkreis"},"federalState":{"key":"08","name":"Baden-Württemberg"}},{"name":"Brechdarrweg","postalCode":"74670","locality":"Forchtenberg","municipality":{"key":"08126028","name":"Forchtenberg, Stadt","type":"Stadt"},"district":{"key":"08126","name":"Hohenlohekreis","type":"Landkreis"},"federalState":{"key":"08","name":"Baden-Württemberg"}},{"name":"Brunnengasse","postalCode":"74670","locality":"Forchtenberg","municipality":{"key":"08126028","name":"Forchtenberg, Stadt","type":"Stadt"},"district":{"key":"08126","name":"Hohenlohekreis","type":"Landkreis"},"federalState":{"key":"08","name":"Baden-Württemberg"}},{"name":"Brunnensteige","postalCode":"74670","locality":"Forchtenberg","municipality":{"key":"08126028","name":"Forchtenberg, Stadt","type":"Stadt"},"district":{"key":"08126","name":"Hohenlohekreis","type":"Landkreis"},"federalState":{"key":"08","name":"Baden-Württemberg"}},{"name":"Brunnenweg","postalCode":"74670","locality":"Forchtenberg","municipality":{"key":"08126028","name":"Forchtenberg, Stadt","type":"Stadt"},"district":{"key":"08126","name":"Hohenlohekreis","type":"Landkreis"},"federalState":{"key":"08","name":"Baden-Württemberg"}},{"name":"Buchenhain","postalCode":"74670","locality":"Forchtenberg","municipality":{"key":"08126028","name":"Forchtenberg, Stadt","type":"Stadt"},"district":{"key":"08126","name":"Hohenlohekreis","type":"Landkreis"},"federalState":{"key":"08","name":"Baden-Württemberg"}},{"name":"Burgrain","postalCode":"74670","locality":"Forchtenberg","municipality":{"key":"08126028","name":"Forchtenberg, Stadt","type":"Stadt"},"district":{"key":"08126","name":"Hohenlohekreis","type":"Landkreis"},"federalState":{"key":"08","name":"Baden-Württemberg"}},{"name":"Büschelhofer Str.","postalCode":"74670","locality":"Forchtenberg","municipality":{"key":"08126028","name":"Forchtenberg, Stadt","type":"Stadt"},"district":{"key":"08126","name":"Hohenlohekreis","type":"Landkreis"},"federalState":{"key":"08","name":"Baden-Württemberg"}},{"name":"Carl-Arnold-Str.","postalCode":"74670","locality":"Forchtenberg","municipality":{"key":"08126028","name":"Forchtenberg, Stadt","type":"Stadt"},"district":{"key":"08126","name":"Hohenlohekreis","type":"Landkreis"},"federalState":{"key":"08","name":"Baden-Württemberg"}},{"name":"Dorfstr.","postalCode":"74670","locality":"Forchtenberg","municipality":{"key":"08126028","name":"Forchtenberg, Stadt","type":"Stadt"},"district":{"key":"08126","name":"Hohenlohekreis","type":"Landkreis"},"federalState":{"key":"08","name":"Baden-Württemberg"}},{"name":"Dürre Gärten","postalCode":"74670","locality":"Forchtenberg","municipality":{"key":"08126028","name":"Forchtenberg, Stadt","type":"Stadt"},"district":{"key":"08126","name":"Hohenlohekreis","type":"Landkreis"},"federalState":{"key":"08","name":"Baden-Württemberg"}},{"name":"Eichelshofer Weg","postalCode":"74670","locality":"Forchtenberg","municipality":{"key":"08126028","name":"Forchtenberg, Stadt","type":"Stadt"},"district":{"key":"08126","name":"Hohenlohekreis","type":"Landkreis"},"federalState":{"key":"08","name":"Baden-Württemberg"}},{"name":"Eisenhutsteige","postalCode":"74670","locality":"Forchtenberg","municipality":{"key":"08126028","name":"Forchtenberg, Stadt","type":"Stadt"},"district":{"key":"08126","name":"Hohenlohekreis","type":"Landkreis"},"federalState":{"key":"08","name":"Baden-Württemberg"}},{"name":"Elsbeerweg","postalCode":"74670","locality":"Forchtenberg","municipality":{"key":"08126028","name":"Forchtenberg, Stadt","type":"Stadt"},"district":{"key":"08126","name":"Hohenlohekreis","type":"Landkreis"},"federalState":{"key":"08","name":"Baden-Württemberg"}},{"name":"Erbweg","postalCode":"74670","locality":"Forchtenberg","municipality":{"key":"08126028","name":"Forchtenberg, Stadt","type":"Stadt"},"district":{"key":"08126","name":"Hohenlohekreis","type":"Landkreis"},"federalState":{"key":"08","name":"Baden-Württemberg"}},{"name":"Erlenweg","postalCode":"74670","locality":"Forchtenberg","municipality":{"key":"08126028","name":"Forchtenberg, Stadt","type":"Stadt"},"district":{"key":"08126","name":"Hohenlohekreis","type":"Landkreis"},"federalState":{"key":"08","name":"Baden-Württemberg"}},{"name":"Ernsbacher Str.","postalCode":"74670","locality":"Forchtenberg","municipality":{"key":"08126028","name":"Forchtenberg, Stadt","type":"Stadt"},"district":{"key":"08126","name":"Hohenlohekreis","type":"Landkreis"},"federalState":{"key":"08","name":"Baden-Württemberg"}},{"name":"Ernsbacher Weg","postalCode":"74670","locality":"Forchtenberg","municipality":{"key":"08126028","name":"Forchtenberg, Stadt","type":"Stadt"},"district":{"key":"08126","name":"Hohenlohekreis","type":"Landkreis"},"federalState":{"key":"08","name":"Baden-Württemberg"}},{"name":"Finkenweg","postalCode":"74670","locality":"Forchtenberg","municipality":{"key":"08126028","name":"Forchtenberg, Stadt","type":"Stadt"},"district":{"key":"08126","name":"Hohenlohekreis","type":"Landkreis"},"federalState":{"key":"08","name":"Baden-Württemberg"}},{"name":"Forchtenberger Str.","postalCode":"74670","locality":"Forchtenberg","municipality":{"key":"08126028","name":"Forchtenberg, Stadt","type":"Stadt"},"district":{"key":"08126","name":"Hohenlohekreis","type":"Landkreis"},"federalState":{"key":"08","name":"Baden-Württemberg"}},{"name":"Frankenstr.","postalCode":"74670","locality":"Forchtenberg","municipality":{"key":"08126028","name":"Forchtenberg, Stadt","type":"Stadt"},"district":{"key":"08126","name":"Hohenlohekreis","type":"Landkreis"},"federalState":{"key":"08","name":"Baden-Württemberg"}},{"name":"Friedhof","postalCode":"74670","locality":"Forchtenberg","municipality":{"key":"08126028","name":"Forchtenberg, Stadt","type":"Stadt"},"district":{"key":"08126","name":"Hohenlohekreis","type":"Landkreis"},"federalState":{"key":"08","name":"Baden-Württemberg"}},{"name":"Gaisberg","postalCode":"74670","locality":"Forchtenberg","municipality":{"key":"08126028","name":"Forchtenberg, Stadt","type":"Stadt"},"district":{"key":"08126","name":"Hohenlohekreis","type":"Landkreis"},"federalState":{"key":"08","name":"Baden-Württemberg"}},{"name":"Gaisbergweg","postalCode":"74670","locality":"Forchtenberg","municipality":{"key":"08126028","name":"Forchtenberg, Stadt","type":"Stadt"},"district":{"key":"08126","name":"Hohenlohekreis","type":"Landkreis"},"federalState":{"key":"08","name":"Baden-Württemberg"}},{"name":"Gänsäcker","postalCode":"74670","locality":"Forchtenberg","municipality":{"key":"08126028","name":"Forchtenberg, Stadt","type":"Stadt"},"district":{"key":"08126","name":"Hohenlohekreis","type":"Landkreis"},"federalState":{"key":"08","name":"Baden-Württemberg"}},{"name":"Gartenstr.","postalCode":"74670","locality":"Forchtenberg","municipality":{"key":"08126028","name":"Forchtenberg, Stadt","type":"Stadt"},"district":{"key":"08126","name":"Hohenlohekreis","type":"Landkreis"},"federalState":{"key":"08","name":"Baden-Württemberg"}},{"name":"Gartenweg","postalCode":"74670","locality":"Forchtenberg","municipality":{"key":"08126028","name":"Forchtenberg, Stadt","type":"Stadt"},"district":{"key":"08126","name":"Hohenlohekreis","type":"Landkreis"},"federalState":{"key":"08","name":"Baden-Württemberg"}},{"name":"Gehäumahdweg","postalCode":"74670","locality":"Forchtenberg","municipality":{"key":"08126028","name":"Forchtenberg, Stadt","type":"Stadt"},"district":{"key":"08126","name":"Hohenlohekreis","type":"Landkreis"},"federalState":{"key":"08","name":"Baden-Württemberg"}},{"name":"Gerbergasse","postalCode":"74670","locality":"Forchtenberg","municipality":{"key":"08126028","name":"Forchtenberg, Stadt","type":"Stadt"},"district":{"key":"08126","name":"Hohenlohekreis","type":"Landkreis"},"federalState":{"key":"08","name":"Baden-Württemberg"}},{"name":"Geschwister-Scholl-Str.","postalCode":"74670","locality":"Forchtenberg","municipality":{"key":"08126028","name":"Forchtenberg, Stadt","type":"Stadt"},"district":{"key":"08126","name":"Hohenlohekreis","type":"Landkreis"},"federalState":{"key":"08","name":"Baden-Württemberg"}},{"name":"Gradmannstr.","postalCode":"74670","locality":"Forchtenberg","municipality":{"key":"08126028","name":"Forchtenberg, Stadt","type":"Stadt"},"district":{"key":"08126","name":"Hohenlohekreis","type":"Landkreis"},"federalState":{"key":"08","name":"Baden-Württemberg"}},{"name":"Große Wiese","postalCode":"74670","locality":"Forchtenberg","municipality":{"key":"08126028","name":"Forchtenberg, Stadt","type":"Stadt"},"district":{"key":"08126","name":"Hohenlohekreis","type":"Landkreis"},"federalState":{"key":"08","name":"Baden-Württemberg"}},{"name":"Haberhof","postalCode":"74670","locality":"Forchtenberg","municipality":{"key":"08126028","name":"Forchtenberg, Stadt","type":"Stadt"},"district":{"key":"08126","name":"Hohenlohekreis","type":"Landkreis"},"federalState":{"key":"08","name":"Baden-Württemberg"}},{"name":"Hafenmarktgasse","postalCode":"74670","locality":"Forchtenberg","municipality":{"key":"08126028","name":"Forchtenberg, Stadt","type":"Stadt"},"district":{"key":"08126","name":"Hohenlohekreis","type":"Landkreis"},"federalState":{"key":"08","name":"Baden-Württemberg"}},{"name":"Hagweg","postalCode":"74670","locality":"Forchtenberg","municipality":{"key":"08126028","name":"Forchtenberg, Stadt","type":"Stadt"},"district":{"key":"08126","name":"Hohenlohekreis","type":"Landkreis"},"federalState":{"key":"08","name":"Baden-Württemberg"}},{"name":"Häldebeneweg","postalCode":"74670","locality":"Forchtenberg","municipality":{"key":"08126028","name":"Forchtenberg, Stadt","type":"Stadt"},"district":{"key":"08126","name":"Hohenlohekreis","type":"Landkreis"},"federalState":{"key":"08","name":"Baden-Württemberg"}},{"name":"Häldeweg","postalCode":"74670","locality":"Forchtenberg","municipality":{"key":"08126028","name":"Forchtenberg, Stadt","type":"Stadt"},"district":{"key":"08126","name":"Hohenlohekreis","type":"Landkreis"},"federalState":{"key":"08","name":"Baden-Württemberg"}},{"name":"Hauptstr.","postalCode":"74670","locality":"Forchtenberg","municipality":{"key":"08126028","name":"Forchtenberg, Stadt","type":"Stadt"},"district":{"key":"08126","name":"Hohenlohekreis","type":"Landkreis"},"federalState":{"key":"08","name":"Baden-Württemberg"}},{"name":"Hintere Str.","postalCode":"74670","locality":"Forchtenberg","municipality":{"key":"08126028","name":"Forchtenberg, Stadt","type":"Stadt"},"district":{"key":"08126","name":"Hohenlohekreis","type":"Landkreis"},"federalState":{"key":"08","name":"Baden-Württemberg"}},{"name":"Hofgärtenweg","postalCode":"74670","locality":"Forchtenberg","municipality":{"key":"08126028","name":"Forchtenberg, Stadt","type":"Stadt"},"district":{"key":"08126","name":"Hohenlohekreis","type":"Landkreis"},"federalState":{"key":"08","name":"Baden-Württemberg"}},{"name":"Hofstr.","postalCode":"74670","locality":"Forchtenberg","municipality":{"key":"08126028","name":"Forchtenberg, Stadt","type":"Stadt"},"district":{"key":"08126","name":"Hohenlohekreis","type":"Landkreis"},"federalState":{"key":"08","name":"Baden-Württemberg"}},{"name":"Hohenlohestr.","postalCode":"74670","locality":"Forchtenberg","municipality":{"key":"08126028","name":"Forchtenberg, Stadt","type":"Stadt"},"district":{"key":"08126","name":"Hohenlohekreis","type":"Landkreis"},"federalState":{"key":"08","name":"Baden-Württemberg"}},{"name":"Hohensall","postalCode":"74670","locality":"Forchtenberg","municipality":{"key":"08126028","name":"Forchtenberg, Stadt","type":"Stadt"},"district":{"key":"08126","name":"Hohenlohekreis","type":"Landkreis"},"federalState":{"key":"08","name":"Baden-Württemberg"}},{"name":"Hohensaller Weg","postalCode":"74670","locality":"Forchtenberg","municipality":{"key":"08126028","name":"Forchtenberg, Stadt","type":"Stadt"},"district":{"key":"08126","name":"Hohenlohekreis","type":"Landkreis"},"federalState":{"key":"08","name":"Baden-Württemberg"}},{"name":"Hohe Str.","postalCode":"74670","locality":"Forchtenberg","municipality":{"key":"08126028","name":"Forchtenberg, Stadt","type":"Stadt"},"district":{"key":"08126","name":"Hohenlohekreis","type":"Landkreis"},"federalState":{"key":"08","name":"Baden-Württemberg"}},{"name":"Holzweg","postalCode":"74670","locality":"Forchtenberg","municipality":{"key":"08126028","name":"Forchtenberg, Stadt","type":"Stadt"},"district":{"key":"08126","name":"Hohenlohekreis","type":"Landkreis"},"federalState":{"key":"08","name":"Baden-Württemberg"}},{"name":"Holzweiler","postalCode":"74670","locality":"Forchtenberg","municipality":{"key":"08126028","name":"Forchtenberg, Stadt","type":"Stadt"},"district":{"key":"08126","name":"Hohenlohekreis","type":"Landkreis"},"federalState":{"key":"08","name":"Baden-Württemberg"}},{"name":"Hüfengasse","postalCode":"74670","locality":"Forchtenberg","municipality":{"key":"08126028","name":"Forchtenberg, Stadt","type":"Stadt"},"district":{"key":"08126","name":"Hohenlohekreis","type":"Landkreis"},"federalState":{"key":"08","name":"Baden-Württemberg"}},{"name":"Im Börzel","postalCode":"74670","locality":"Forchtenberg","municipality":{"key":"08126028","name":"Forchtenberg, Stadt","type":"Stadt"},"district":{"key":"08126","name":"Hohenlohekreis","type":"Landkreis"},"federalState":{"key":"08","name":"Baden-Württemberg"}},{"name":"Im Bühl","postalCode":"74670","locality":"Forchtenberg","municipality":{"key":"08126028","name":"Forchtenberg, Stadt","type":"Stadt"},"district":{"key":"08126","name":"Hohenlohekreis","type":"Landkreis"},"federalState":{"key":"08","name":"Baden-Württemberg"}},{"name":"Im Kupfertal","postalCode":"74670","locality":"Forchtenberg","municipality":{"key":"08126028","name":"Forchtenberg, Stadt","type":"Stadt"},"district":{"key":"08126","name":"Hohenlohekreis","type":"Landkreis"},"federalState":{"key":"08","name":"Baden-Württemberg"}},{"name":"Impfelbergweg","postalCode":"74670","locality":"Forchtenberg","municipality":{"key":"08126028","name":"Forchtenberg, Stadt","type":"Stadt"},"district":{"key":"08126","name":"Hohenlohekreis","type":"Landkreis"},"federalState":{"key":"08","name":"Baden-Württemberg"}},{"name":"Im Platzfeld","postalCode":"74670","locality":"Forchtenberg","municipality":{"key":"08126028","name":"Forchtenberg, Stadt","type":"Stadt"},"district":{"key":"08126","name":"Hohenlohekreis","type":"Landkreis"},"federalState":{"key":"08","name":"Baden-Württemberg"}},{"name":"Im Rösrain","postalCode":"74670","locality":"Forchtenberg","municipality":{"key":"08126028","name":"Forchtenberg, Stadt","type":"Stadt"},"district":{"key":"08126","name":"Hohenlohekreis","type":"Landkreis"},"federalState":{"key":"08","name":"Baden-Württemberg"}},{"name":"Im Schloßfeld","postalCode":"74670","locality":"Forchtenberg","municipality":{"key":"08126028","name":"Forchtenberg, Stadt","type":"Stadt"},"district":{"key":"08126","name":"Hohenlohekreis","type":"Landkreis"},"federalState":{"key":"08","name":"Baden-Württemberg"}},{"name":"Im Spitzen","postalCode":"74670","locality":"Forchtenberg","municipality":{"key":"08126028","name":"Forchtenberg, Stadt","type":"Stadt"},"district":{"key":"08126","name":"Hohenlohekreis","type":"Landkreis"},"federalState":{"key":"08","name":"Baden-Württemberg"}},{"name":"Im Waldfeld","postalCode":"74670","locality":"Forchtenberg","municipality":{"key":"08126028","name":"Forchtenberg, Stadt","type":"Stadt"},"district":{"key":"08126","name":"Hohenlohekreis","type":"Landkreis"},"federalState":{"key":"08","name":"Baden-Württemberg"}},{"name":"In den Halsäckern","postalCode":"74670","locality":"Forchtenberg","municipality":{"key":"08126028","name":"Forchtenberg, Stadt","type":"Stadt"},"district":{"key":"08126","name":"Hohenlohekreis","type":"Landkreis"},"federalState":{"key":"08","name":"Baden-Württemberg"}},{"name":"In den Hofäckern","postalCode":"74670","locality":"Forchtenberg","municipality":{"key":"08126028","name":"Forchtenberg, Stadt","type":"Stadt"},"district":{"key":"08126","name":"Hohenlohekreis","type":"Landkreis"},"federalState":{"key":"08","name":"Baden-Württemberg"}},{"name":"In den Schwarzäckern","postalCode":"74670","locality":"Forchtenberg","municipality":{"key":"08126028","name":"Forchtenberg, Stadt","type":"Stadt"},"district":{"key":"08126","name":"Hohenlohekreis","type":"Landkreis"},"federalState":{"key":"08","name":"Baden-Württemberg"}},{"name":"In den Zeiläckern","postalCode":"74670","locality":"Forchtenberg","municipality":{"key":"08126028","name":"Forchtenberg, Stadt","type":"Stadt"},"district":{"key":"08126","name":"Hohenlohekreis","type":"Landkreis"},"federalState":{"key":"08","name":"Baden-Württemberg"}},{"name":"In der Setz","postalCode":"74670","locality":"Forchtenberg","municipality":{"key":"08126028","name":"Forchtenberg, Stadt","type":"Stadt"},"district":{"key":"08126","name":"Hohenlohekreis","type":"Landkreis"},"federalState":{"key":"08","name":"Baden-Württemberg"}},{"name":"Jagsthäuser Str.","postalCode":"74670","locality":"Forchtenberg","municipality":{"key":"08126028","name":"Forchtenberg, Stadt","type":"Stadt"},"district":{"key":"08126","name":"Hohenlohekreis","type":"Landkreis"},"federalState":{"key":"08","name":"Baden-Württemberg"}},{"name":"Judenwaldweg","postalCode":"74670","locality":"Forchtenberg","municipality":{"key":"08126028","name":"Forchtenberg, Stadt","type":"Stadt"},"district":{"key":"08126","name":"Hohenlohekreis","type":"Landkreis"},"federalState":{"key":"08","name":"Baden-Württemberg"}},{"name":"Kanalweg","postalCode":"74670","locality":"Forchtenberg","municipality":{"key":"08126028","name":"Forchtenberg, Stadt","type":"Stadt"},"district":{"key":"08126","name":"Hohenlohekreis","type":"Landkreis"},"federalState":{"key":"08","name":"Baden-Württemberg"}},{"name":"Kastanienallee","postalCode":"74670","locality":"Forchtenberg","municipality":{"key":"08126028","name":"Forchtenberg, Stadt","type":"Stadt"},"district":{"key":"08126","name":"Hohenlohekreis","type":"Landkreis"},"federalState":{"key":"08","name":"Baden-Württemberg"}},{"name":"Kastanienweg","postalCode":"74670","locality":"Forchtenberg","municipality":{"key":"08126028","name":"Forchtenberg, Stadt","type":"Stadt"},"district":{"key":"08126","name":"Hohenlohekreis","type":"Landkreis"},"federalState":{"key":"08","name":"Baden-Württemberg"}},{"name":"Kirchgasse","postalCode":"74670","locality":"Forchtenberg","municipality":{"key":"08126028","name":"Forchtenberg, Stadt","type":"Stadt"},"district":{"key":"08126","name":"Hohenlohekreis","type":"Landkreis"},"federalState":{"key":"08","name":"Baden-Württemberg"}},{"name":"Kirchplatz","postalCode":"74670","locality":"Forchtenberg","municipality":{"key":"08126028","name":"Forchtenberg, Stadt","type":"Stadt"},"district":{"key":"08126","name":"Hohenlohekreis","type":"Landkreis"},"federalState":{"key":"08","name":"Baden-Württemberg"}},{"name":"Kirchweg","postalCode":"74670","locality":"Forchtenberg","municipality":{"key":"08126028","name":"Forchtenberg, Stadt","type":"Stadt"},"district":{"key":"08126","name":"Hohenlohekreis","type":"Landkreis"},"federalState":{"key":"08","name":"Baden-Württemberg"}},{"name":"Kleiner Schulweg","postalCode":"74670","locality":"Forchtenberg","municipality":{"key":"08126028","name":"Forchtenberg, Stadt","type":"Stadt"},"district":{"key":"08126","name":"Hohenlohekreis","type":"Landkreis"},"federalState":{"key":"08","name":"Baden-Württemberg"}},{"name":"Klosterwaldstr.","postalCode":"74670","locality":"Forchtenberg","municipality":{"key":"08126028","name":"Forchtenberg, Stadt","type":"Stadt"},"district":{"key":"08126","name":"Hohenlohekreis","type":"Landkreis"},"federalState":{"key":"08","name":"Baden-Württemberg"}},{"name":"Kocherhangweg","postalCode":"74670","locality":"Forchtenberg","municipality":{"key":"08126028","name":"Forchtenberg, Stadt","type":"Stadt"},"district":{"key":"08126","name":"Hohenlohekreis","type":"Landkreis"},"federalState":{"key":"08","name":"Baden-Württemberg"}},{"name":"Kochertalstr.","postalCode":"74670","locality":"Forchtenberg","municipality":{"key":"08126028","name":"Forchtenberg, Stadt","type":"Stadt"},"district":{"key":"08126","name":"Hohenlohekreis","type":"Landkreis"},"federalState":{"key":"08","name":"Baden-Württemberg"}},{"name":"Kopernikusstr.","postalCode":"74670","locality":"Forchtenberg","municipality":{"key":"08126028","name":"Forchtenberg, Stadt","type":"Stadt"},"district":{"key":"08126","name":"Hohenlohekreis","type":"Landkreis"},"federalState":{"key":"08","name":"Baden-Württemberg"}},{"name":"Kreuzweg","postalCode":"74670","locality":"Forchtenberg","municipality":{"key":"08126028","name":"Forchtenberg, Stadt","type":"Stadt"},"district":{"key":"08126","name":"Hohenlohekreis","type":"Landkreis"},"federalState":{"key":"08","name":"Baden-Württemberg"}},{"name":"Kupfertalweg","postalCode":"74670","locality":"Forchtenberg","municipality":{"key":"08126028","name":"Forchtenberg, Stadt","type":"Stadt"},"district":{"key":"08126","name":"Hohenlohekreis","type":"Landkreis"},"federalState":{"key":"08","name":"Baden-Württemberg"}},{"name":"Lerchenstr.","postalCode":"74670","locality":"Forchtenberg","municipality":{"key":"08126028","name":"Forchtenberg, Stadt","type":"Stadt"},"district":{"key":"08126","name":"Hohenlohekreis","type":"Landkreis"},"federalState":{"key":"08","name":"Baden-Württemberg"}},{"name":"Limesstr.","postalCode":"74670","locality":"Forchtenberg","municipality":{"key":"08126028","name":"Forchtenberg, Stadt","type":"Stadt"},"district":{"key":"08126","name":"Hohenlohekreis","type":"Landkreis"},"federalState":{"key":"08","name":"Baden-Württemberg"}},{"name":"Lohbucherweg","postalCode":"74670","locality":"Forchtenberg","municipality":{"key":"08126028","name":"Forchtenberg, Stadt","type":"Stadt"},"district":{"key":"08126","name":"Hohenlohekreis","type":"Landkreis"},"federalState":{"key":"08","name":"Baden-Württemberg"}},{"name":"Lutzengäßle","postalCode":"74670","locality":"Forchtenberg","municipality":{"key":"08126028","name":"Forchtenberg, Stadt","type":"Stadt"},"district":{"key":"08126","name":"Hohenlohekreis","type":"Landkreis"},"federalState":{"key":"08","name":"Baden-Württemberg"}},{"name":"Marktplatz","postalCode":"74670","locality":"Forchtenberg","municipality":{"key":"08126028","name":"Forchtenberg, Stadt","type":"Stadt"},"district":{"key":"08126","name":"Hohenlohekreis","type":"Landkreis"},"federalState":{"key":"08","name":"Baden-Württemberg"}},{"name":"Marktstr.","postalCode":"74670","locality":"Forchtenberg","municipality":{"key":"08126028","name":"Forchtenberg, Stadt","type":"Stadt"},"district":{"key":"08126","name":"Hohenlohekreis","type":"Landkreis"},"federalState":{"key":"08","name":"Baden-Württemberg"}},{"name":"Max-Eyth-Str.","postalCode":"74670","locality":"Forchtenberg","municipality":{"key":"08126028","name":"Forchtenberg, Stadt","type":"Stadt"},"district":{"key":"08126","name":"Hohenlohekreis","type":"Landkreis"},"federalState":{"key":"08","name":"Baden-Württemberg"}},{"name":"Metzdorfer Str.","postalCode":"74670","locality":"Forchtenberg","municipality":{"key":"08126028","name":"Forchtenberg, Stadt","type":"Stadt"},"district":{"key":"08126","name":"Hohenlohekreis","type":"Landkreis"},"federalState":{"key":"08","name":"Baden-Württemberg"}},{"name":"Michael-Kern-Str.","postalCode":"74670","locality":"Forchtenberg","municipality":{"key":"08126028","name":"Forchtenberg, Stadt","type":"Stadt"},"district":{"key":"08126","name":"Hohenlohekreis","type":"Landkreis"},"federalState":{"key":"08","name":"Baden-Württemberg"}},{"name":"Mittlerer Sulzschlagweg","postalCode":"74670","locality":"Forchtenberg","municipality":{"key":"08126028","name":"Forchtenberg, Stadt","type":"Stadt"},"district":{"key":"08126","name":"Hohenlohekreis","type":"Landkreis"},"federalState":{"key":"08","name":"Baden-Württemberg"}},{"name":"Mühlgasse","postalCode":"74670","locality":"Forchtenberg","municipality":{"key":"08126028","name":"Forchtenberg, Stadt","type":"Stadt"},"district":{"key":"08126","name":"Hohenlohekreis","type":"Landkreis"},"federalState":{"key":"08","name":"Baden-Württemberg"}},{"name":"Mühlweg","postalCode":"74670","locality":"Forchtenberg","municipality":{"key":"08126028","name":"Forchtenberg, Stadt","type":"Stadt"},"district":{"key":"08126","name":"Hohenlohekreis","type":"Landkreis"},"federalState":{"key":"08","name":"Baden-Württemberg"}},{"name":"Muthofer Str.","postalCode":"74670","locality":"Forchtenberg","municipality":{"key":"08126028","name":"Forchtenberg, Stadt","type":"Stadt"},"district":{"key":"08126","name":"Hohenlohekreis","type":"Landkreis"},"federalState":{"key":"08","name":"Baden-Württemberg"}},{"name":"Neuzaunweg","postalCode":"74670","locality":"Forchtenberg","municipality":{"key":"08126028","name":"Forchtenberg, Stadt","type":"Stadt"},"district":{"key":"08126","name":"Hohenlohekreis","type":"Landkreis"},"federalState":{"key":"08","name":"Baden-Württemberg"}},{"name":"Obere Kirchgasse","postalCode":"74670","locality":"Forchtenberg","municipality":{"key":"08126028","name":"Forchtenberg, Stadt","type":"Stadt"},"district":{"key":"08126","name":"Hohenlohekreis","type":"Landkreis"},"federalState":{"key":"08","name":"Baden-Württemberg"}},{"name":"Oberer Kupferberg","postalCode":"74670","locality":"Forchtenberg","municipality":{"key":"08126028","name":"Forchtenberg, Stadt","type":"Stadt"},"district":{"key":"08126","name":"Hohenlohekreis","type":"Landkreis"},"federalState":{"key":"08","name":"Baden-Württemberg"}},{"name":"Oberweiler","postalCode":"74670","locality":"Forchtenberg","municipality":{"key":"08126028","name":"Forchtenberg, Stadt","type":"Stadt"},"district":{"key":"08126","name":"Hohenlohekreis","type":"Landkreis"},"federalState":{"key":"08","name":"Baden-Württemberg"}},{"name":"Orbachstr.","postalCode":"74670","locality":"Forchtenberg","municipality":{"key":"08126028","name":"Forchtenberg, Stadt","type":"Stadt"},"district":{"key":"08126","name":"Hohenlohekreis","type":"Landkreis"},"federalState":{"key":"08","name":"Baden-Württemberg"}},{"name":"Pfaffenholz","postalCode":"74670","locality":"Forchtenberg","municipality":{"key":"08126028","name":"Forchtenberg, Stadt","type":"Stadt"},"district":{"key":"08126","name":"Hohenlohekreis","type":"Landkreis"},"federalState":{"key":"08","name":"Baden-Württemberg"}},{"name":"Pfaffenholzweg","postalCode":"74670","locality":"Forchtenberg","municipality":{"key":"08126028","name":"Forchtenberg, Stadt","type":"Stadt"},"district":{"key":"08126","name":"Hohenlohekreis","type":"Landkreis"},"federalState":{"key":"08","name":"Baden-Württemberg"}},{"name":"Pfarrgasse","postalCode":"74670","locality":"Forchtenberg","municipality":{"key":"08126028","name":"Forchtenberg, Stadt","type":"Stadt"},"district":{"key":"08126","name":"Hohenlohekreis","type":"Landkreis"},"federalState":{"key":"08","name":"Baden-Württemberg"}},{"name":"Pferchgasse","postalCode":"74670","locality":"Forchtenberg","municipality":{"key":"08126028","name":"Forchtenberg, Stadt","type":"Stadt"},"district":{"key":"08126","name":"Hohenlohekreis","type":"Landkreis"},"federalState":{"key":"08","name":"Baden-Württemberg"}},{"name":"Posaunengasse","postalCode":"74670","locality":"Forchtenberg","municipality":{"key":"08126028","name":"Forchtenberg, Stadt","type":"Stadt"},"district":{"key":"08126","name":"Hohenlohekreis","type":"Landkreis"},"federalState":{"key":"08","name":"Baden-Württemberg"}},{"name":"Rathausstr.","postalCode":"74670","locality":"Forchtenberg","municipality":{"key":"08126028","name":"Forchtenberg, Stadt","type":"Stadt"},"district":{"key":"08126","name":"Hohenlohekreis","type":"Landkreis"},"federalState":{"key":"08","name":"Baden-Württemberg"}},{"name":"Rauhbusch","postalCode":"74670","locality":"Forchtenberg","municipality":{"key":"08126028","name":"Forchtenberg, Stadt","type":"Stadt"},"district":{"key":"08126","name":"Hohenlohekreis","type":"Landkreis"},"federalState":{"key":"08","name":"Baden-Württemberg"}},{"name":"Römerstr.","postalCode":"74670","locality":"Forchtenberg","municipality":{"key":"08126028","name":"Forchtenberg, Stadt","type":"Stadt"},"district":{"key":"08126","name":"Hohenlohekreis","type":"Landkreis"},"federalState":{"key":"08","name":"Baden-Württemberg"}},{"name":"Röntgenstr.","postalCode":"74670","locality":"Forchtenberg","municipality":{"key":"08126028","name":"Forchtenberg, Stadt","type":"Stadt"},"district":{"key":"08126","name":"Hohenlohekreis","type":"Landkreis"},"federalState":{"key":"08","name":"Baden-Württemberg"}},{"name":"Rosenweg","postalCode":"74670","locality":"Forchtenberg","municipality":{"key":"08126028","name":"Forchtenberg, Stadt","type":"Stadt"},"district":{"key":"08126","name":"Hohenlohekreis","type":"Landkreis"},"federalState":{"key":"08","name":"Baden-Württemberg"}},{"name":"Sallenhauptweg","postalCode":"74670","locality":"Forchtenberg","municipality":{"key":"08126028","name":"Forchtenberg, Stadt","type":"Stadt"},"district":{"key":"08126","name":"Hohenlohekreis","type":"Landkreis"},"federalState":{"key":"08","name":"Baden-Württemberg"}},{"name":"Sallweg","postalCode":"74670","locality":"Forchtenberg","municipality":{"key":"08126028","name":"Forchtenberg, Stadt","type":"Stadt"},"district":{"key":"08126","name":"Hohenlohekreis","type":"Landkreis"},"federalState":{"key":"08","name":"Baden-Württemberg"}},{"name":"Sausenwiesen","postalCode":"74670","locality":"Forchtenberg","municipality":{"key":"08126028","name":"Forchtenberg, Stadt","type":"Stadt"},"district":{"key":"08126","name":"Hohenlohekreis","type":"Landkreis"},"federalState":{"key":"08","name":"Baden-Württemberg"}},{"name":"Schellenbergweg","postalCode":"74670","locality":"Forchtenberg","municipality":{"key":"08126028","name":"Forchtenberg, Stadt","type":"Stadt"},"district":{"key":"08126","name":"Hohenlohekreis","type":"Landkreis"},"federalState":{"key":"08","name":"Baden-Württemberg"}},{"name":"Schiedberg","postalCode":"74670","locality":"Forchtenberg","municipality":{"key":"08126028","name":"Forchtenberg, Stadt","type":"Stadt"},"district":{"key":"08126","name":"Hohenlohekreis","type":"Landkreis"},"federalState":{"key":"08","name":"Baden-Württemberg"}},{"name":"Schießhof","postalCode":"74639","locality":"Forchtenberg","municipality":{"key":"08126028","name":"Forchtenberg, Stadt","type":"Stadt"},"district":{"key":"08126","name":"Hohenlohekreis","type":"Landkreis"},"federalState":{"key":"08","name":"Baden-Württemberg"}},{"name":"Schleierhof","postalCode":"74670","locality":"Forchtenberg","municipality":{"key":"08126028","name":"Forchtenberg, Stadt","type":"Stadt"},"district":{"key":"08126","name":"Hohenlohekreis","type":"Landkreis"},"federalState":{"key":"08","name":"Baden-Württemberg"}},{"name":"Schliffersteige","postalCode":"74670","locality":"Forchtenberg","municipality":{"key":"08126028","name":"Forchtenberg, Stadt","type":"Stadt"},"district":{"key":"08126","name":"Hohenlohekreis","type":"Landkreis"},"federalState":{"key":"08","name":"Baden-Württemberg"}},{"name":"Schlossbergweg","postalCode":"74670","locality":"Forchtenberg","municipality":{"key":"08126028","name":"Forchtenberg, Stadt","type":"Stadt"},"district":{"key":"08126","name":"Hohenlohekreis","type":"Landkreis"},"federalState":{"key":"08","name":"Baden-Württemberg"}},{"name":"Schloßstr.","postalCode":"74670","locality":"Forchtenberg","municipality":{"key":"08126028","name":"Forchtenberg, Stadt","type":"Stadt"},"district":{"key":"08126","name":"Hohenlohekreis","type":"Landkreis"},"federalState":{"key":"08","name":"Baden-Württemberg"}},{"name":"Schöntaler Str.","postalCode":"74670","locality":"Forchtenberg","municipality":{"key":"08126028","name":"Forchtenberg, Stadt","type":"Stadt"},"district":{"key":"08126","name":"Hohenlohekreis","type":"Landkreis"},"federalState":{"key":"08","name":"Baden-Württemberg"}},{"name":"Schulstr.","postalCode":"74670","locality":"Forchtenberg","municipality":{"key":"08126028","name":"Forchtenberg, Stadt","type":"Stadt"},"district":{"key":"08126","name":"Hohenlohekreis","type":"Landkreis"},"federalState":{"key":"08","name":"Baden-Württemberg"}},{"name":"Schwarzenweiler","postalCode":"74670","locality":"Forchtenberg","municipality":{"key":"08126028","name":"Forchtenberg, Stadt","type":"Stadt"},"district":{"key":"08126","name":"Hohenlohekreis","type":"Landkreis"},"federalState":{"key":"08","name":"Baden-Württemberg"}},{"name":"Seeackerweg","postalCode":"74670","locality":"Forchtenberg","municipality":{"key":"08126028","name":"Forchtenberg, Stadt","type":"Stadt"},"district":{"key":"08126","name":"Hohenlohekreis","type":"Landkreis"},"federalState":{"key":"08","name":"Baden-Württemberg"}},{"name":"Seeweg","postalCode":"74670","locality":"Forchtenberg","municipality":{"key":"08126028","name":"Forchtenberg, Stadt","type":"Stadt"},"district":{"key":"08126","name":"Hohenlohekreis","type":"Landkreis"},"federalState":{"key":"08","name":"Baden-Württemberg"}},{"name":"Sindringer Str.","postalCode":"74670","locality":"Forchtenberg","municipality":{"key":"08126028","name":"Forchtenberg, Stadt","type":"Stadt"},"district":{"key":"08126","name":"Hohenlohekreis","type":"Landkreis"},"federalState":{"key":"08","name":"Baden-Württemberg"}},{"name":"Sonnenhalde","postalCode":"74670","locality":"Forchtenberg","municipality":{"key":"08126028","name":"Forchtenberg, Stadt","type":"Stadt"},"district":{"key":"08126","name":"Hohenlohekreis","type":"Landkreis"},"federalState":{"key":"08","name":"Baden-Württemberg"}},{"name":"Sulzschlagweg","postalCode":"74670","locality":"Forchtenberg","municipality":{"key":"08126028","name":"Forchtenberg, Stadt","type":"Stadt"},"district":{"key":"08126","name":"Hohenlohekreis","type":"Landkreis"},"federalState":{"key":"08","name":"Baden-Württemberg"}},{"name":"Tiroler-Seen-Weg","postalCode":"74670","locality":"Forchtenberg","municipality":{"key":"08126028","name":"Forchtenberg, Stadt","type":"Stadt"},"district":{"key":"08126","name":"Hohenlohekreis","type":"Landkreis"},"federalState":{"key":"08","name":"Baden-Württemberg"}},{"name":"Tuchbleiche","postalCode":"74670","locality":"Forchtenberg","municipality":{"key":"08126028","name":"Forchtenberg, Stadt","type":"Stadt"},"district":{"key":"08126","name":"Hohenlohekreis","type":"Landkreis"},"federalState":{"key":"08","name":"Baden-Württemberg"}},{"name":"Uhlandstr.","postalCode":"74670","locality":"Forchtenberg","municipality":{"key":"08126028","name":"Forchtenberg, Stadt","type":"Stadt"},"district":{"key":"08126","name":"Hohenlohekreis","type":"Landkreis"},"federalState":{"key":"08","name":"Baden-Württemberg"}},{"name":"Untere Gasse","postalCode":"74670","locality":"Forchtenberg","municipality":{"key":"08126028","name":"Forchtenberg, Stadt","type":"Stadt"},"district":{"key":"08126","name":"Hohenlohekreis","type":"Landkreis"},"federalState":{"key":"08","name":"Baden-Württemberg"}},{"name":"Untere Plan","postalCode":"74670","locality":"Forchtenberg","municipality":{"key":"08126028","name":"Forchtenberg, Stadt","type":"Stadt"},"district":{"key":"08126","name":"Hohenlohekreis","type":"Landkreis"},"federalState":{"key":"08","name":"Baden-Württemberg"}},{"name":"Unterer Häldeweg","postalCode":"74670","locality":"Forchtenberg","municipality":{"key":"08126028","name":"Forchtenberg, Stadt","type":"Stadt"},"district":{"key":"08126","name":"Hohenlohekreis","type":"Landkreis"},"federalState":{"key":"08","name":"Baden-Württemberg"}},{"name":"Untere Str.","postalCode":"74670","locality":"Forchtenberg","municipality":{"key":"08126028","name":"Forchtenberg, Stadt","type":"Stadt"},"district":{"key":"08126","name":"Hohenlohekreis","type":"Landkreis"},"federalState":{"key":"08","name":"Baden-Württemberg"}},{"name":"Waldfeldweg","postalCode":"74670","locality":"Forchtenberg","municipality":{"key":"08126028","name":"Forchtenberg, Stadt","type":"Stadt"},"district":{"key":"08126","name":"Hohenlohekreis","type":"Landkreis"},"federalState":{"key":"08","name":"Baden-Württemberg"}},{"name":"Wannenweg","postalCode":"74670","locality":"Forchtenberg","municipality":{"key":"08126028","name":"Forchtenberg, Stadt","type":"Stadt"},"district":{"key":"08126","name":"Hohenlohekreis","type":"Landkreis"},"federalState":{"key":"08","name":"Baden-Württemberg"}},{"name":"Wasen","postalCode":"74670","locality":"Forchtenberg","municipality":{"key":"08126028","name":"Forchtenberg, Stadt","type":"Stadt"},"district":{"key":"08126","name":"Hohenlohekreis","type":"Landkreis"},"federalState":{"key":"08","name":"Baden-Württemberg"}},{"name":"Weinbergweg","postalCode":"74670","locality":"Forchtenberg","municipality":{"key":"08126028","name":"Forchtenberg, Stadt","type":"Stadt"},"district":{"key":"08126","name":"Hohenlohekreis","type":"Landkreis"},"federalState":{"key":"08","name":"Baden-Württemberg"}},{"name":"Weinsteige","postalCode":"74670","locality":"Forchtenberg","municipality":{"key":"08126028","name":"Forchtenberg, Stadt","type":"Stadt"},"district":{"key":"08126","name":"Hohenlohekreis","type":"Landkreis"},"federalState":{"key":"08","name":"Baden-Württemberg"}},{"name":"Weißbacher Str.","postalCode":"74670","locality":"Forchtenberg","municipality":{"key":"08126028","name":"Forchtenberg, Stadt","type":"Stadt"},"district":{"key":"08126","name":"Hohenlohekreis","type":"Landkreis"},"federalState":{"key":"08","name":"Baden-Württemberg"}},{"name":"Wibelstr.","postalCode":"74670","locality":"Forchtenberg","municipality":{"key":"08126028","name":"Forchtenberg, Stadt","type":"Stadt"},"district":{"key":"08126","name":"Hohenlohekreis","type":"Landkreis"},"federalState":{"key":"08","name":"Baden-Württemberg"}},{"name":"Wiesenweg","postalCode":"74670","locality":"Forchtenberg","municipality":{"key":"08126028","name":"Forchtenberg, Stadt","type":"Stadt"},"district":{"key":"08126","name":"Hohenlohekreis","type":"Landkreis"},"federalState":{"key":"08","name":"Baden-Württemberg"}},{"name":"Wohlmuthäuser Str.","postalCode":"74670","locality":"Forchtenberg","municipality":{"key":"08126028","name":"Forchtenberg, Stadt","type":"Stadt"},"district":{"key":"08126","name":"Hohenlohekreis","type":"Landkreis"},"federalState":{"key":"08","name":"Baden-Württemberg"}},{"name":"Wolfsbusch","postalCode":"74670","locality":"Forchtenberg","municipality":{"key":"08126028","name":"Forchtenberg, Stadt","type":"Stadt"},"district":{"key":"08126","name":"Hohenlohekreis","type":"Landkreis"},"federalState":{"key":"08","name":"Baden-Württemberg"}},{"name":"Wülfinger Str.","postalCode":"74670","locality":"Forchtenberg","municipality":{"key":"08126028","name":"Forchtenberg, Stadt","type":"Stadt"},"district":{"key":"08126","name":"Hohenlohekreis","type":"Landkreis"},"federalState":{"key":"08","name":"Baden-Württemberg"}},{"name":"Wüstenbergweg","postalCode":"74670","locality":"Forchtenberg","municipality":{"key":"08126028","name":"Forchtenberg, Stadt","type":"Stadt"},"district":{"key":"08126","name":"Hohenlohekreis","type":"Landkreis"},"federalState":{"key":"08","name":"Baden-Württemberg"}},{"name":"Zacksteige","postalCode":"74670","locality":"Forchtenberg","municipality":{"key":"08126028","name":"Forchtenberg, Stadt","type":"Stadt"},"district":{"key":"08126","name":"Hohenlohekreis","type":"Landkreis"},"federalState":{"key":"08","name":"Baden-Württemberg"}},{"name":"Ziegelbergweg","postalCode":"74670","locality":"Forchtenberg","municipality":{"key":"08126028","name":"Forchtenberg, Stadt","type":"Stadt"},"district":{"key":"08126","name":"Hohenlohekreis","type":"Landkreis"},"federalState":{"key":"08","name":"Baden-Württemberg"}},{"name":"Ziegelsteige","postalCode":"74670","locality":"Forchtenberg","municipality":{"key":"08126028","name":"Forchtenberg, Stadt","type":"Stadt"},"district":{"key":"08126","name":"Hohenlohekreis","type":"Landkreis"},"federalState":{"key":"08","name":"Baden-Württemberg"}},{"name":"Zweiflinger Weg","postalCode":"74670","locality":"Forchtenberg","municipality":{"key":"08126028","name":"Forchtenberg, Stadt","type":"Stadt"},"district":{"key":"08126","name":"Hohenlohekreis","type":"Landkreis"},"federalState":{"key":"08","name":"Baden-Württemberg"}},{"name":"Öhringer Steige","postalCode":"74670","locality":"Forchtenberg","municipality":{"key":"08126028","name":"Forchtenberg, Stadt","type":"Stadt"},"district":{"key":"08126","name":"Hohenlohekreis","type":"Landkreis"},"federalState":{"key":"08","name":"Baden-Württemberg"}},{"name":"Öhringer Str.","postalCode":"74670","locality":"Forchtenberg","municipality":{"key":"08126028","name":"Forchtenberg, Stadt","type":"Stadt"},"district":{"key":"08126","name":"Hohenlohekreis","type":"Landkreis"},"federalState":{"key":"08","name":"Baden-Württemberg"}},]