[{"name":"Auf dem Klei","postalCode":"39343","locality":"Beendorf","municipality":{"key":"15083060","name":"Beendorf","type":"Kreisangehörige_Gemeinde"},"district":{"key":"15083","name":"Börde","type":"Landkreis"},"federalState":{"key":"15","name":"Sachsen-Anhalt"}},{"name":"Bahnhofstr.","postalCode":"39343","locality":"Beendorf","municipality":{"key":"15083060","name":"Beendorf","type":"Kreisangehörige_Gemeinde"},"district":{"key":"15083","name":"Börde","type":"Landkreis"},"federalState":{"key":"15","name":"Sachsen-Anhalt"}},{"name":"Chausseehausweg","postalCode":"39221","locality":"Bördeland","municipality":{"key":"15089042","name":"Bördeland","type":"Kreisangehörige_Gemeinde"},"district":{"key":"15089","name":"Salzlandkreis","type":"Landkreis"},"federalState":{"key":"15","name":"Sachsen-Anhalt"}},{"name":"Chausseestr.","postalCode":"39221","locality":"Bördeland","municipality":{"key":"15089042","name":"Bördeland","type":"Kreisangehörige_Gemeinde"},"district":{"key":"15089","name":"Salzlandkreis","type":"Landkreis"},"federalState":{"key":"15","name":"Sachsen-Anhalt"}},{"name":"Clara-Zetkin-Str.","postalCode":"39435","locality":"Bördeaue","municipality":{"key":"15089041","name":"Bördeaue","type":"Kreisangehörige_Gemeinde"},"district":{"key":"15089","name":"Salzlandkreis","type":"Landkreis"},"federalState":{"key":"15","name":"Sachsen-Anhalt"}},{"name":"Dachsweg","postalCode":"39167","locality":"Hohe Börde","municipality":{"key":"15083298","name":"Hohe Börde","type":"Kreisangehörige_Gemeinde"},"district":{"key":"15083","name":"Börde","type":"Landkreis"},"federalState":{"key":"15","name":"Sachsen-Anhalt"}},{"name":"Dahlenwarsleber Str.","postalCode":"39326","locality":"Hohe Börde","municipality":{"key":"15083298","name":"Hohe Börde","type":"Kreisangehörige_Gemeinde"},"district":{"key":"15083","name":"Börde","type":"Landkreis"},"federalState":{"key":"15","name":"Sachsen-Anhalt"}},{"name":"Dahlenwarsleber Str.","postalCode":"39326","locality":"Niedere Börde","municipality":{"key":"15083390","name":"Niedere Börde","type":"Kreisangehörige_Gemeinde"},"district":{"key":"15083","name":"Börde","type":"Landkreis"},"federalState":{"key":"15","name":"Sachsen-Anhalt"}},{"name":"Dahlienstr.","postalCode":"39326","locality":"Hohe Börde","municipality":{"key":"15083298","name":"Hohe Börde","type":"Kreisangehörige_Gemeinde"},"district":{"key":"15083","name":"Börde","type":"Landkreis"},"federalState":{"key":"15","name":"Sachsen-Anhalt"}},{"name":"Dahlienweg","postalCode":"39221","locality":"Bördeland","municipality":{"key":"15089042","name":"Bördeland","type":"Kreisangehörige_Gemeinde"},"district":{"key":"15089","name":"Salzlandkreis","type":"Landkreis"},"federalState":{"key":"15","name":"Sachsen-Anhalt"}},{"name":"Dammweg","postalCode":"39164","locality":"Wanzleben-Börde","municipality":{"key":"15083531","name":"Wanzleben-Börde, Stadt","type":"Stadt"},"district":{"key":"15083","name":"Börde","type":"Landkreis"},"federalState":{"key":"15","name":"Sachsen-Anhalt"}},{"name":"Darre","postalCode":"39164","locality":"Wanzleben-Börde","municipality":{"key":"15083531","name":"Wanzleben-Börde, Stadt","type":"Stadt"},"district":{"key":"15083","name":"Börde","type":"Landkreis"},"federalState":{"key":"15","name":"Sachsen-Anhalt"}},{"name":"Darrhof","postalCode":"39164","locality":"Wanzleben-Börde","municipality":{"key":"15083531","name":"Wanzleben-Börde, Stadt","type":"Stadt"},"district":{"key":"15083","name":"Börde","type":"Landkreis"},"federalState":{"key":"15","name":"Sachsen-Anhalt"}},{"name":"Darrweg","postalCode":"39167","locality":"Hohe Börde","municipality":{"key":"15083298","name":"Hohe Börde","type":"Kreisangehörige_Gemeinde"},"district":{"key":"15083","name":"Börde","type":"Landkreis"},"federalState":{"key":"15","name":"Sachsen-Anhalt"}},{"name":"Darrwiesenweg","postalCode":"39167","locality":"Hohe Börde","municipality":{"key":"15083298","name":"Hohe Börde","type":"Kreisangehörige_Gemeinde"},"district":{"key":"15083","name":"Börde","type":"Landkreis"},"federalState":{"key":"15","name":"Sachsen-Anhalt"}},{"name":"Das Amt","postalCode":"39343","locality":"Hohe Börde","municipality":{"key":"15083298","name":"Hohe Börde","type":"Kreisangehörige_Gemeinde"},"district":{"key":"15083","name":"Börde","type":"Landkreis"},"federalState":{"key":"15","name":"Sachsen-Anhalt"}},{"name":"Die Lange Str.","postalCode":"39164","locality":"Wanzleben-Börde","municipality":{"key":"15083531","name":"Wanzleben-Börde, Stadt","type":"Stadt"},"district":{"key":"15083","name":"Börde","type":"Landkreis"},"federalState":{"key":"15","name":"Sachsen-Anhalt"}},{"name":"Diesdorfer Weg","postalCode":"39167","locality":"Hohe Börde","municipality":{"key":"15083298","name":"Hohe Börde","type":"Kreisangehörige_Gemeinde"},"district":{"key":"15083","name":"Börde","type":"Landkreis"},"federalState":{"key":"15","name":"Sachsen-Anhalt"}},{"name":"Dodeleber Weg","postalCode":"39164","locality":"Wanzleben-Börde","municipality":{"key":"15083531","name":"Wanzleben-Börde, Stadt","type":"Stadt"},"district":{"key":"15083","name":"Börde","type":"Landkreis"},"federalState":{"key":"15","name":"Sachsen-Anhalt"}},{"name":"Domerslebener Str.","postalCode":"39164","locality":"Wanzleben-Börde","municipality":{"key":"15083531","name":"Wanzleben-Börde, Stadt","type":"Stadt"},"district":{"key":"15083","name":"Börde","type":"Landkreis"},"federalState":{"key":"15","name":"Sachsen-Anhalt"}},{"name":"Domersleber Str.","postalCode":"39167","locality":"Hohe Börde","municipality":{"key":"15083298","name":"Hohe Börde","type":"Kreisangehörige_Gemeinde"},"district":{"key":"15083","name":"Börde","type":"Landkreis"},"federalState":{"key":"15","name":"Sachsen-Anhalt"}},{"name":"Domersleber Weg","postalCode":"39164","locality":"Wanzleben-Börde","municipality":{"key":"15083531","name":"Wanzleben-Börde, Stadt","type":"Stadt"},"district":{"key":"15083","name":"Börde","type":"Landkreis"},"federalState":{"key":"15","name":"Sachsen-Anhalt"}},{"name":"Domersleber Weg","postalCode":"39167","locality":"Hohe Börde","municipality":{"key":"15083298","name":"Hohe Börde","type":"Kreisangehörige_Gemeinde"},"district":{"key":"15083","name":"Börde","type":"Landkreis"},"federalState":{"key":"15","name":"Sachsen-Anhalt"}},{"name":"Dönstedter Weg","postalCode":"39343","locality":"Hohe Börde","municipality":{"key":"15083298","name":"Hohe Börde","type":"Kreisangehörige_Gemeinde"},"district":{"key":"15083","name":"Börde","type":"Landkreis"},"federalState":{"key":"15","name":"Sachsen-Anhalt"}},{"name":"Dorfstr.","postalCode":"39164","locality":"Wanzleben-Börde","municipality":{"key":"15083531","name":"Wanzleben-Börde, Stadt","type":"Stadt"},"district":{"key":"15083","name":"Börde","type":"Landkreis"},"federalState":{"key":"15","name":"Sachsen-Anhalt"}},{"name":"Dorfstr.","postalCode":"39167","locality":"Hohe Börde","municipality":{"key":"15083298","name":"Hohe Börde","type":"Kreisangehörige_Gemeinde"},"district":{"key":"15083","name":"Börde","type":"Landkreis"},"federalState":{"key":"15","name":"Sachsen-Anhalt"}},{"name":"Dorfstr.","postalCode":"39221","locality":"Bördeland","municipality":{"key":"15089042","name":"Bördeland","type":"Kreisangehörige_Gemeinde"},"district":{"key":"15089","name":"Salzlandkreis","type":"Landkreis"},"federalState":{"key":"15","name":"Sachsen-Anhalt"}},{"name":"Dorfstr.","postalCode":"39326","locality":"Niedere Börde","municipality":{"key":"15083390","name":"Niedere Börde","type":"Kreisangehörige_Gemeinde"},"district":{"key":"15083","name":"Börde","type":"Landkreis"},"federalState":{"key":"15","name":"Sachsen-Anhalt"}},{"name":"Dorfstr.","postalCode":"39343","locality":"Hohe Börde","municipality":{"key":"15083298","name":"Hohe Börde","type":"Kreisangehörige_Gemeinde"},"district":{"key":"15083","name":"Börde","type":"Landkreis"},"federalState":{"key":"15","name":"Sachsen-Anhalt"}},{"name":"Drackenstedter Str.","postalCode":"39167","locality":"Hohe Börde","municipality":{"key":"15083298","name":"Hohe Börde","type":"Kreisangehörige_Gemeinde"},"district":{"key":"15083","name":"Börde","type":"Landkreis"},"federalState":{"key":"15","name":"Sachsen-Anhalt"}},{"name":"Drackenstedter Weg","postalCode":"39167","locality":"Hohe Börde","municipality":{"key":"15083298","name":"Hohe Börde","type":"Kreisangehörige_Gemeinde"},"district":{"key":"15083","name":"Börde","type":"Landkreis"},"federalState":{"key":"15","name":"Sachsen-Anhalt"}},{"name":"Dreilebener Bahnhof","postalCode":"39164","locality":"Wanzleben-Börde","municipality":{"key":"15083531","name":"Wanzleben-Börde, Stadt","type":"Stadt"},"district":{"key":"15083","name":"Börde","type":"Landkreis"},"federalState":{"key":"15","name":"Sachsen-Anhalt"}},{"name":"Dreilebener Str.","postalCode":"39164","locality":"Wanzleben-Börde","municipality":{"key":"15083531","name":"Wanzleben-Börde, Stadt","type":"Stadt"},"district":{"key":"15083","name":"Börde","type":"Landkreis"},"federalState":{"key":"15","name":"Sachsen-Anhalt"}},{"name":"Dr.-Hübener-Str.","postalCode":"39164","locality":"Wanzleben-Börde","municipality":{"key":"15083531","name":"Wanzleben-Börde, Stadt","type":"Stadt"},"district":{"key":"15083","name":"Börde","type":"Landkreis"},"federalState":{"key":"15","name":"Sachsen-Anhalt"}},{"name":"Dr.-Johannes-Robert-Becher-Str.","postalCode":"39164","locality":"Wanzleben-Börde","municipality":{"key":"15083531","name":"Wanzleben-Börde, Stadt","type":"Stadt"},"district":{"key":"15083","name":"Börde","type":"Landkreis"},"federalState":{"key":"15","name":"Sachsen-Anhalt"}},{"name":"Drosselweg","postalCode":"39167","locality":"Hohe Börde","municipality":{"key":"15083298","name":"Hohe Börde","type":"Kreisangehörige_Gemeinde"},"district":{"key":"15083","name":"Börde","type":"Landkreis"},"federalState":{"key":"15","name":"Sachsen-Anhalt"}},{"name":"Drosselweg","postalCode":"39221","locality":"Bördeland","municipality":{"key":"15089042","name":"Bördeland","type":"Kreisangehörige_Gemeinde"},"district":{"key":"15089","name":"Salzlandkreis","type":"Landkreis"},"federalState":{"key":"15","name":"Sachsen-Anhalt"}},{"name":"Drosselweg","postalCode":"39343","locality":"Hohe Börde","municipality":{"key":"15083298","name":"Hohe Börde","type":"Kreisangehörige_Gemeinde"},"district":{"key":"15083","name":"Börde","type":"Landkreis"},"federalState":{"key":"15","name":"Sachsen-Anhalt"}},{"name":"Druxberger Weg","postalCode":"39343","locality":"Hohe Börde","municipality":{"key":"15083298","name":"Hohe Börde","type":"Kreisangehörige_Gemeinde"},"district":{"key":"15083","name":"Börde","type":"Landkreis"},"federalState":{"key":"15","name":"Sachsen-Anhalt"}},{"name":"Dunkelstr.","postalCode":"39221","locality":"Bördeland","municipality":{"key":"15089042","name":"Bördeland","type":"Kreisangehörige_Gemeinde"},"district":{"key":"15089","name":"Salzlandkreis","type":"Landkreis"},"federalState":{"key":"15","name":"Sachsen-Anhalt"}},{"name":"Ebendorfer Str.","postalCode":"39326","locality":"Niedere Börde","municipality":{"key":"15083390","name":"Niedere Börde","type":"Kreisangehörige_Gemeinde"},"district":{"key":"15083","name":"Börde","type":"Landkreis"},"federalState":{"key":"15","name":"Sachsen-Anhalt"}},{"name":"Eckstr.","postalCode":"39448","locality":"Börde-Hakel","municipality":{"key":"15089043","name":"Börde-Hakel","type":"Kreisangehörige_Gemeinde"},"district":{"key":"15089","name":"Salzlandkreis","type":"Landkreis"},"federalState":{"key":"15","name":"Sachsen-Anhalt"}},{"name":"Egelner Str.","postalCode":"39448","locality":"Börde-Hakel","municipality":{"key":"15089043","name":"Börde-Hakel","type":"Kreisangehörige_Gemeinde"},"district":{"key":"15089","name":"Salzlandkreis","type":"Landkreis"},"federalState":{"key":"15","name":"Sachsen-Anhalt"}},{"name":"Egelnscher Weg","postalCode":"39448","locality":"Börde-Hakel","municipality":{"key":"15089043","name":"Börde-Hakel","type":"Kreisangehörige_Gemeinde"},"district":{"key":"15089","name":"Salzlandkreis","type":"Landkreis"},"federalState":{"key":"15","name":"Sachsen-Anhalt"}},{"name":"Egelnsche Str.","postalCode":"39435","locality":"Bördeaue","municipality":{"key":"15089041","name":"Bördeaue","type":"Kreisangehörige_Gemeinde"},"district":{"key":"15089","name":"Salzlandkreis","type":"Landkreis"},"federalState":{"key":"15","name":"Sachsen-Anhalt"}},{"name":"Eggersdorfer Chaussee","postalCode":"39221","locality":"Bördeland","municipality":{"key":"15089042","name":"Bördeland","type":"Kreisangehörige_Gemeinde"},"district":{"key":"15089","name":"Salzlandkreis","type":"Landkreis"},"federalState":{"key":"15","name":"Sachsen-Anhalt"}},{"name":"ehem. Plankener Chaussee","postalCode":"39326","locality":"Niedere Börde","municipality":{"key":"15083390","name":"Niedere Börde","type":"Kreisangehörige_Gemeinde"},"district":{"key":"15083","name":"Börde","type":"Landkreis"},"federalState":{"key":"15","name":"Sachsen-Anhalt"}},{"name":"Eiche","postalCode":"39343","locality":"Hohe Börde","municipality":{"key":"15083298","name":"Hohe Börde","type":"Kreisangehörige_Gemeinde"},"district":{"key":"15083","name":"Börde","type":"Landkreis"},"federalState":{"key":"15","name":"Sachsen-Anhalt"}},{"name":"Eichenbarleber Str.","postalCode":"39343","locality":"Hohe Börde","municipality":{"key":"15083298","name":"Hohe Börde","type":"Kreisangehörige_Gemeinde"},"district":{"key":"15083","name":"Börde","type":"Landkreis"},"federalState":{"key":"15","name":"Sachsen-Anhalt"}},{"name":"Eichenbarleber Weg","postalCode":"39343","locality":"Hohe Börde","municipality":{"key":"15083298","name":"Hohe Börde","type":"Kreisangehörige_Gemeinde"},"district":{"key":"15083","name":"Börde","type":"Landkreis"},"federalState":{"key":"15","name":"Sachsen-Anhalt"}},{"name":"Eichenbreite","postalCode":"39167","locality":"Hohe Börde","municipality":{"key":"15083298","name":"Hohe Börde","type":"Kreisangehörige_Gemeinde"},"district":{"key":"15083","name":"Börde","type":"Landkreis"},"federalState":{"key":"15","name":"Sachsen-Anhalt"}},{"name":"Eichplatz","postalCode":"39164","locality":"Wanzleben-Börde","municipality":{"key":"15083531","name":"Wanzleben-Börde, Stadt","type":"Stadt"},"district":{"key":"15083","name":"Börde","type":"Landkreis"},"federalState":{"key":"15","name":"Sachsen-Anhalt"}},{"name":"Eichplatz","postalCode":"39326","locality":"Niedere Börde","municipality":{"key":"15083390","name":"Niedere Börde","type":"Kreisangehörige_Gemeinde"},"district":{"key":"15083","name":"Börde","type":"Landkreis"},"federalState":{"key":"15","name":"Sachsen-Anhalt"}},{"name":"Eickendorfer Str.","postalCode":"39221","locality":"Bördeland","municipality":{"key":"15089042","name":"Bördeland","type":"Kreisangehörige_Gemeinde"},"district":{"key":"15089","name":"Salzlandkreis","type":"Landkreis"},"federalState":{"key":"15","name":"Sachsen-Anhalt"}},{"name":"Eickendorfer Weg","postalCode":"39221","locality":"Bördeland","municipality":{"key":"15089042","name":"Bördeland","type":"Kreisangehörige_Gemeinde"},"district":{"key":"15089","name":"Salzlandkreis","type":"Landkreis"},"federalState":{"key":"15","name":"Sachsen-Anhalt"}},{"name":"Eierstr.","postalCode":"39343","locality":"Hohe Börde","municipality":{"key":"15083298","name":"Hohe Börde","type":"Kreisangehörige_Gemeinde"},"district":{"key":"15083","name":"Börde","type":"Landkreis"},"federalState":{"key":"15","name":"Sachsen-Anhalt"}},{"name":"Einzelgehöfte","postalCode":"39164","locality":"Wanzleben-Börde","municipality":{"key":"15083531","name":"Wanzleben-Börde, Stadt","type":"Stadt"},"district":{"key":"15083","name":"Börde","type":"Landkreis"},"federalState":{"key":"15","name":"Sachsen-Anhalt"}},{"name":"Elsterweg","postalCode":"39167","locality":"Hohe Börde","municipality":{"key":"15083298","name":"Hohe Börde","type":"Kreisangehörige_Gemeinde"},"district":{"key":"15083","name":"Börde","type":"Landkreis"},"federalState":{"key":"15","name":"Sachsen-Anhalt"}},{"name":"Elsterweg","postalCode":"39221","locality":"Bördeland","municipality":{"key":"15089042","name":"Bördeland","type":"Kreisangehörige_Gemeinde"},"district":{"key":"15089","name":"Salzlandkreis","type":"Landkreis"},"federalState":{"key":"15","name":"Sachsen-Anhalt"}},{"name":"Emdener Feldweg","postalCode":"39343","locality":"Hohe Börde","municipality":{"key":"15083298","name":"Hohe Börde","type":"Kreisangehörige_Gemeinde"},"district":{"key":"15083","name":"Börde","type":"Landkreis"},"federalState":{"key":"15","name":"Sachsen-Anhalt"}},{"name":"Emdener Weg","postalCode":"39343","locality":"Hohe Börde","municipality":{"key":"15083298","name":"Hohe Börde","type":"Kreisangehörige_Gemeinde"},"district":{"key":"15083","name":"Börde","type":"Landkreis"},"federalState":{"key":"15","name":"Sachsen-Anhalt"}},{"name":"Enge Str.","postalCode":"39164","locality":"Wanzleben-Börde","municipality":{"key":"15083531","name":"Wanzleben-Börde, Stadt","type":"Stadt"},"district":{"key":"15083","name":"Börde","type":"Landkreis"},"federalState":{"key":"15","name":"Sachsen-Anhalt"}},{"name":"Erlenweg","postalCode":"39167","locality":"Hohe Börde","municipality":{"key":"15083298","name":"Hohe Börde","type":"Kreisangehörige_Gemeinde"},"district":{"key":"15083","name":"Börde","type":"Landkreis"},"federalState":{"key":"15","name":"Sachsen-Anhalt"}},{"name":"Erlenweg","postalCode":"39326","locality":"Niedere Börde","municipality":{"key":"15083390","name":"Niedere Börde","type":"Kreisangehörige_Gemeinde"},"district":{"key":"15083","name":"Börde","type":"Landkreis"},"federalState":{"key":"15","name":"Sachsen-Anhalt"}},{"name":"Ernst-Thälmann-Platz","postalCode":"39164","locality":"Wanzleben-Börde","municipality":{"key":"15083531","name":"Wanzleben-Börde, Stadt","type":"Stadt"},"district":{"key":"15083","name":"Börde","type":"Landkreis"},"federalState":{"key":"15","name":"Sachsen-Anhalt"}},{"name":"Ernst-Thälmann-Str.","postalCode":"39164","locality":"Wanzleben-Börde","municipality":{"key":"15083531","name":"Wanzleben-Börde, Stadt","type":"Stadt"},"district":{"key":"15083","name":"Börde","type":"Landkreis"},"federalState":{"key":"15","name":"Sachsen-Anhalt"}},{"name":"Ernst-Thälmann-Str.","postalCode":"39167","locality":"Hohe Börde","municipality":{"key":"15083298","name":"Hohe Börde","type":"Kreisangehörige_Gemeinde"},"district":{"key":"15083","name":"Börde","type":"Landkreis"},"federalState":{"key":"15","name":"Sachsen-Anhalt"}},{"name":"Ernst-Thälmann-Str.","postalCode":"39221","locality":"Bördeland","municipality":{"key":"15089042","name":"Bördeland","type":"Kreisangehörige_Gemeinde"},"district":{"key":"15089","name":"Salzlandkreis","type":"Landkreis"},"federalState":{"key":"15","name":"Sachsen-Anhalt"}},{"name":"Ernst-Thälmann-Str.","postalCode":"39435","locality":"Bördeaue","municipality":{"key":"15089041","name":"Bördeaue","type":"Kreisangehörige_Gemeinde"},"district":{"key":"15089","name":"Salzlandkreis","type":"Landkreis"},"federalState":{"key":"15","name":"Sachsen-Anhalt"}},{"name":"Eschenweg","postalCode":"39167","locality":"Hohe Börde","municipality":{"key":"15083298","name":"Hohe Börde","type":"Kreisangehörige_Gemeinde"},"district":{"key":"15083","name":"Börde","type":"Landkreis"},"federalState":{"key":"15","name":"Sachsen-Anhalt"}},{"name":"Fabrikstr.","postalCode":"39221","locality":"Bördeland","municipality":{"key":"15089042","name":"Bördeland","type":"Kreisangehörige_Gemeinde"},"district":{"key":"15089","name":"Salzlandkreis","type":"Landkreis"},"federalState":{"key":"15","name":"Sachsen-Anhalt"}},{"name":"Fabrikstr.","postalCode":"39326","locality":"Niedere Börde","municipality":{"key":"15083390","name":"Niedere Börde","type":"Kreisangehörige_Gemeinde"},"district":{"key":"15083","name":"Börde","type":"Landkreis"},"federalState":{"key":"15","name":"Sachsen-Anhalt"}},{"name":"Fabrikstr.","postalCode":"39448","locality":"Börde-Hakel","municipality":{"key":"15089043","name":"Börde-Hakel","type":"Kreisangehörige_Gemeinde"},"district":{"key":"15089","name":"Salzlandkreis","type":"Landkreis"},"federalState":{"key":"15","name":"Sachsen-Anhalt"}},{"name":"Fabrikweg","postalCode":"39167","locality":"Hohe Börde","municipality":{"key":"15083298","name":"Hohe Börde","type":"Kreisangehörige_Gemeinde"},"district":{"key":"15083","name":"Börde","type":"Landkreis"},"federalState":{"key":"15","name":"Sachsen-Anhalt"}},{"name":"Fasanenweg","postalCode":"39167","locality":"Hohe Börde","municipality":{"key":"15083298","name":"Hohe Börde","type":"Kreisangehörige_Gemeinde"},"district":{"key":"15083","name":"Börde","type":"Landkreis"},"federalState":{"key":"15","name":"Sachsen-Anhalt"}},{"name":"Feldstr.","postalCode":"39164","locality":"Wanzleben-Börde","municipality":{"key":"15083531","name":"Wanzleben-Börde, Stadt","type":"Stadt"},"district":{"key":"15083","name":"Börde","type":"Landkreis"},"federalState":{"key":"15","name":"Sachsen-Anhalt"}},{"name":"Feldstr.","postalCode":"39221","locality":"Bördeland","municipality":{"key":"15089042","name":"Bördeland","type":"Kreisangehörige_Gemeinde"},"district":{"key":"15089","name":"Salzlandkreis","type":"Landkreis"},"federalState":{"key":"15","name":"Sachsen-Anhalt"}},{"name":"Feldstr.","postalCode":"39326","locality":"Niedere Börde","municipality":{"key":"15083390","name":"Niedere Börde","type":"Kreisangehörige_Gemeinde"},"district":{"key":"15083","name":"Börde","type":"Landkreis"},"federalState":{"key":"15","name":"Sachsen-Anhalt"}},{"name":"Feldstr.","postalCode":"39435","locality":"Bördeaue","municipality":{"key":"15089041","name":"Bördeaue","type":"Kreisangehörige_Gemeinde"},"district":{"key":"15089","name":"Salzlandkreis","type":"Landkreis"},"federalState":{"key":"15","name":"Sachsen-Anhalt"}},{"name":"Feldstr.","postalCode":"39448","locality":"Börde-Hakel","municipality":{"key":"15089043","name":"Börde-Hakel","type":"Kreisangehörige_Gemeinde"},"district":{"key":"15089","name":"Salzlandkreis","type":"Landkreis"},"federalState":{"key":"15","name":"Sachsen-Anhalt"}},{"name":"Ferdinand-Lentjes-Str.","postalCode":"39167","locality":"Hohe Börde","municipality":{"key":"15083298","name":"Hohe Börde","type":"Kreisangehörige_Gemeinde"},"district":{"key":"15083","name":"Börde","type":"Landkreis"},"federalState":{"key":"15","name":"Sachsen-Anhalt"}},{"name":"Festwiese Biere","postalCode":"39221","locality":"Bördeland","municipality":{"key":"15089042","name":"Bördeland","type":"Kreisangehörige_Gemeinde"},"district":{"key":"15089","name":"Salzlandkreis","type":"Landkreis"},"federalState":{"key":"15","name":"Sachsen-Anhalt"}},{"name":"Finkenweg","postalCode":"39221","locality":"Bördeland","municipality":{"key":"15089042","name":"Bördeland","type":"Kreisangehörige_Gemeinde"},"district":{"key":"15089","name":"Salzlandkreis","type":"Landkreis"},"federalState":{"key":"15","name":"Sachsen-Anhalt"}},{"name":"Fleischergasse","postalCode":"39448","locality":"Börde-Hakel","municipality":{"key":"15089043","name":"Börde-Hakel","type":"Kreisangehörige_Gemeinde"},"district":{"key":"15089","name":"Salzlandkreis","type":"Landkreis"},"federalState":{"key":"15","name":"Sachsen-Anhalt"}},{"name":"Fliederstr.","postalCode":"39221","locality":"Bördeland","municipality":{"key":"15089042","name":"Bördeland","type":"Kreisangehörige_Gemeinde"},"district":{"key":"15089","name":"Salzlandkreis","type":"Landkreis"},"federalState":{"key":"15","name":"Sachsen-Anhalt"}},{"name":"Fliederweg","postalCode":"39164","locality":"Wanzleben-Börde","municipality":{"key":"15083531","name":"Wanzleben-Börde, Stadt","type":"Stadt"},"district":{"key":"15083","name":"Börde","type":"Landkreis"},"federalState":{"key":"15","name":"Sachsen-Anhalt"}},{"name":"Fliederweg","postalCode":"39167","locality":"Hohe Börde","municipality":{"key":"15083298","name":"Hohe Börde","type":"Kreisangehörige_Gemeinde"},"district":{"key":"15083","name":"Börde","type":"Landkreis"},"federalState":{"key":"15","name":"Sachsen-Anhalt"}},{"name":"Florian-Geyer-Str.","postalCode":"39221","locality":"Bördeland","municipality":{"key":"15089042","name":"Bördeland","type":"Kreisangehörige_Gemeinde"},"district":{"key":"15089","name":"Salzlandkreis","type":"Landkreis"},"federalState":{"key":"15","name":"Sachsen-Anhalt"}},{"name":"Förderstedter Str.","postalCode":"39221","locality":"Bördeland","municipality":{"key":"15089042","name":"Bördeland","type":"Kreisangehörige_Gemeinde"},"district":{"key":"15089","name":"Salzlandkreis","type":"Landkreis"},"federalState":{"key":"15","name":"Sachsen-Anhalt"}},{"name":"Förderstedter Weg","postalCode":"39221","locality":"Bördeland","municipality":{"key":"15089042","name":"Bördeland","type":"Kreisangehörige_Gemeinde"},"district":{"key":"15089","name":"Salzlandkreis","type":"Landkreis"},"federalState":{"key":"15","name":"Sachsen-Anhalt"}},{"name":"Försterweg","postalCode":"39448","locality":"Börde-Hakel","municipality":{"key":"15089043","name":"Börde-Hakel","type":"Kreisangehörige_Gemeinde"},"district":{"key":"15089","name":"Salzlandkreis","type":"Landkreis"},"federalState":{"key":"15","name":"Sachsen-Anhalt"}},{"name":"Franz-Mehring-Str.","postalCode":"39435","locality":"Bördeaue","municipality":{"key":"15089041","name":"Bördeaue","type":"Kreisangehörige_Gemeinde"},"district":{"key":"15089","name":"Salzlandkreis","type":"Landkreis"},"federalState":{"key":"15","name":"Sachsen-Anhalt"}},{"name":"Freie Str.","postalCode":"39435","locality":"Bördeaue","municipality":{"key":"15089041","name":"Bördeaue","type":"Kreisangehörige_Gemeinde"},"district":{"key":"15089","name":"Salzlandkreis","type":"Landkreis"},"federalState":{"key":"15","name":"Sachsen-Anhalt"}},{"name":"Freiheit","postalCode":"39326","locality":"Niedere Börde","municipality":{"key":"15083390","name":"Niedere Börde","type":"Kreisangehörige_Gemeinde"},"district":{"key":"15083","name":"Börde","type":"Landkreis"},"federalState":{"key":"15","name":"Sachsen-Anhalt"}},{"name":"Friedensallee","postalCode":"39326","locality":"Niedere Börde","municipality":{"key":"15083390","name":"Niedere Börde","type":"Kreisangehörige_Gemeinde"},"district":{"key":"15083","name":"Börde","type":"Landkreis"},"federalState":{"key":"15","name":"Sachsen-Anhalt"}},{"name":"Friedensplatz","postalCode":"39164","locality":"Wanzleben-Börde","municipality":{"key":"15083531","name":"Wanzleben-Börde, Stadt","type":"Stadt"},"district":{"key":"15083","name":"Börde","type":"Landkreis"},"federalState":{"key":"15","name":"Sachsen-Anhalt"}},{"name":"Friedensplatz","postalCode":"39448","locality":"Börde-Hakel","municipality":{"key":"15089043","name":"Börde-Hakel","type":"Kreisangehörige_Gemeinde"},"district":{"key":"15089","name":"Salzlandkreis","type":"Landkreis"},"federalState":{"key":"15","name":"Sachsen-Anhalt"}},{"name":"Friedensring","postalCode":"39435","locality":"Bördeaue","municipality":{"key":"15089041","name":"Bördeaue","type":"Kreisangehörige_Gemeinde"},"district":{"key":"15089","name":"Salzlandkreis","type":"Landkreis"},"federalState":{"key":"15","name":"Sachsen-Anhalt"}},{"name":"Friedensstr.","postalCode":"39164","locality":"Wanzleben-Börde","municipality":{"key":"15083531","name":"Wanzleben-Börde, Stadt","type":"Stadt"},"district":{"key":"15083","name":"Börde","type":"Landkreis"},"federalState":{"key":"15","name":"Sachsen-Anhalt"}},{"name":"Friedensstr.","postalCode":"39167","locality":"Hohe Börde","municipality":{"key":"15083298","name":"Hohe Börde","type":"Kreisangehörige_Gemeinde"},"district":{"key":"15083","name":"Börde","type":"Landkreis"},"federalState":{"key":"15","name":"Sachsen-Anhalt"}},{"name":"Friedensstr.","postalCode":"39343","locality":"Hohe Börde","municipality":{"key":"15083298","name":"Hohe Börde","type":"Kreisangehörige_Gemeinde"},"district":{"key":"15083","name":"Börde","type":"Landkreis"},"federalState":{"key":"15","name":"Sachsen-Anhalt"}},{"name":"Friedensstr.","postalCode":"39448","locality":"Börde-Hakel","municipality":{"key":"15089043","name":"Börde-Hakel","type":"Kreisangehörige_Gemeinde"},"district":{"key":"15089","name":"Salzlandkreis","type":"Landkreis"},"federalState":{"key":"15","name":"Sachsen-Anhalt"}},{"name":"Friedenstr.","postalCode":"39221","locality":"Bördeland","municipality":{"key":"15089042","name":"Bördeland","type":"Kreisangehörige_Gemeinde"},"district":{"key":"15089","name":"Salzlandkreis","type":"Landkreis"},"federalState":{"key":"15","name":"Sachsen-Anhalt"}},{"name":"Friedrich-Ebert-Gasse","postalCode":"39164","locality":"Wanzleben-Börde","municipality":{"key":"15083531","name":"Wanzleben-Börde, Stadt","type":"Stadt"},"district":{"key":"15083","name":"Börde","type":"Landkreis"},"federalState":{"key":"15","name":"Sachsen-Anhalt"}},{"name":"Friedrich-Ebert-Str.","postalCode":"39164","locality":"Wanzleben-Börde","municipality":{"key":"15083531","name":"Wanzleben-Börde, Stadt","type":"Stadt"},"district":{"key":"15083","name":"Börde","type":"Landkreis"},"federalState":{"key":"15","name":"Sachsen-Anhalt"}},{"name":"Friedrich-Ebert-Str.","postalCode":"39167","locality":"Hohe Börde","municipality":{"key":"15083298","name":"Hohe Börde","type":"Kreisangehörige_Gemeinde"},"district":{"key":"15083","name":"Börde","type":"Landkreis"},"federalState":{"key":"15","name":"Sachsen-Anhalt"}},{"name":"Friedrich-Ebert-Str.","postalCode":"39448","locality":"Börde-Hakel","municipality":{"key":"15089043","name":"Börde-Hakel","type":"Kreisangehörige_Gemeinde"},"district":{"key":"15089","name":"Salzlandkreis","type":"Landkreis"},"federalState":{"key":"15","name":"Sachsen-Anhalt"}},{"name":"Friedrich-Ebert-Weg","postalCode":"39164","locality":"Wanzleben-Börde","municipality":{"key":"15083531","name":"Wanzleben-Börde, Stadt","type":"Stadt"},"district":{"key":"15083","name":"Börde","type":"Landkreis"},"federalState":{"key":"15","name":"Sachsen-Anhalt"}},{"name":"Friedrich-Engels-Str.","postalCode":"39164","locality":"Wanzleben-Börde","municipality":{"key":"15083531","name":"Wanzleben-Börde, Stadt","type":"Stadt"},"district":{"key":"15083","name":"Börde","type":"Landkreis"},"federalState":{"key":"15","name":"Sachsen-Anhalt"}},{"name":"Friedrich-Engels-Str.","postalCode":"39435","locality":"Bördeaue","municipality":{"key":"15089041","name":"Bördeaue","type":"Kreisangehörige_Gemeinde"},"district":{"key":"15089","name":"Salzlandkreis","type":"Landkreis"},"federalState":{"key":"15","name":"Sachsen-Anhalt"}},{"name":"Friedrich-Engels-Str.","postalCode":"39448","locality":"Börde-Hakel","municipality":{"key":"15089043","name":"Börde-Hakel","type":"Kreisangehörige_Gemeinde"},"district":{"key":"15089","name":"Salzlandkreis","type":"Landkreis"},"federalState":{"key":"15","name":"Sachsen-Anhalt"}},{"name":"Friedrich-Loose-Str.","postalCode":"39221","locality":"Bördeland","municipality":{"key":"15089042","name":"Bördeland","type":"Kreisangehörige_Gemeinde"},"district":{"key":"15089","name":"Salzlandkreis","type":"Landkreis"},"federalState":{"key":"15","name":"Sachsen-Anhalt"}},{"name":"Frohser Weg","postalCode":"39221","locality":"Bördeland","municipality":{"key":"15089042","name":"Bördeland","type":"Kreisangehörige_Gemeinde"},"district":{"key":"15089","name":"Salzlandkreis","type":"Landkreis"},"federalState":{"key":"15","name":"Sachsen-Anhalt"}},{"name":"Fuchsweg","postalCode":"39167","locality":"Hohe Börde","municipality":{"key":"15083298","name":"Hohe Börde","type":"Kreisangehörige_Gemeinde"},"district":{"key":"15083","name":"Börde","type":"Landkreis"},"federalState":{"key":"15","name":"Sachsen-Anhalt"}},{"name":"Fuhrmannsweg","postalCode":"39343","locality":"Hohe Börde","municipality":{"key":"15083298","name":"Hohe Börde","type":"Kreisangehörige_Gemeinde"},"district":{"key":"15083","name":"Börde","type":"Landkreis"},"federalState":{"key":"15","name":"Sachsen-Anhalt"}},{"name":"Grenzweg","postalCode":"39343","locality":"Beendorf","municipality":{"key":"15083060","name":"Beendorf","type":"Kreisangehörige_Gemeinde"},"district":{"key":"15083","name":"Börde","type":"Landkreis"},"federalState":{"key":"15","name":"Sachsen-Anhalt"}},{"name":"Helmstedter Str.","postalCode":"39343","locality":"Beendorf","municipality":{"key":"15083060","name":"Beendorf","type":"Kreisangehörige_Gemeinde"},"district":{"key":"15083","name":"Börde","type":"Landkreis"},"federalState":{"key":"15","name":"Sachsen-Anhalt"}},{"name":"Hinter den Höfen","postalCode":"39343","locality":"Beendorf","municipality":{"key":"15083060","name":"Beendorf","type":"Kreisangehörige_Gemeinde"},"district":{"key":"15083","name":"Börde","type":"Landkreis"},"federalState":{"key":"15","name":"Sachsen-Anhalt"}},{"name":"Im Kloster","postalCode":"39343","locality":"Beendorf","municipality":{"key":"15083060","name":"Beendorf","type":"Kreisangehörige_Gemeinde"},"district":{"key":"15083","name":"Börde","type":"Landkreis"},"federalState":{"key":"15","name":"Sachsen-Anhalt"}},{"name":"Im See","postalCode":"39343","locality":"Beendorf","municipality":{"key":"15083060","name":"Beendorf","type":"Kreisangehörige_Gemeinde"},"district":{"key":"15083","name":"Börde","type":"Landkreis"},"federalState":{"key":"15","name":"Sachsen-Anhalt"}},{"name":"Jersleber Str.","postalCode":"39326","locality":"Niedere Börde","municipality":{"key":"15083390","name":"Niedere Börde","type":"Kreisangehörige_Gemeinde"},"district":{"key":"15083","name":"Börde","type":"Landkreis"},"federalState":{"key":"15","name":"Sachsen-Anhalt"}},{"name":"Jersleber Weg","postalCode":"39326","locality":"Niedere Börde","municipality":{"key":"15083390","name":"Niedere Börde","type":"Kreisangehörige_Gemeinde"},"district":{"key":"15083","name":"Börde","type":"Landkreis"},"federalState":{"key":"15","name":"Sachsen-Anhalt"}},{"name":"Johann-Gottfried-Herder-Weg","postalCode":"39164","locality":"Wanzleben-Börde","municipality":{"key":"15083531","name":"Wanzleben-Börde, Stadt","type":"Stadt"},"district":{"key":"15083","name":"Börde","type":"Landkreis"},"federalState":{"key":"15","name":"Sachsen-Anhalt"}},{"name":"Johann-Wolfgang-von-Goethe-Str.","postalCode":"39164","locality":"Wanzleben-Börde","municipality":{"key":"15083531","name":"Wanzleben-Börde, Stadt","type":"Stadt"},"district":{"key":"15083","name":"Börde","type":"Landkreis"},"federalState":{"key":"15","name":"Sachsen-Anhalt"}},{"name":"Kirchstr.","postalCode":"39343","locality":"Beendorf","municipality":{"key":"15083060","name":"Beendorf","type":"Kreisangehörige_Gemeinde"},"district":{"key":"15083","name":"Börde","type":"Landkreis"},"federalState":{"key":"15","name":"Sachsen-Anhalt"}},{"name":"Ladenstr.","postalCode":"39164","locality":"Wanzleben-Börde","municipality":{"key":"15083531","name":"Wanzleben-Börde, Stadt","type":"Stadt"},"district":{"key":"15083","name":"Börde","type":"Landkreis"},"federalState":{"key":"15","name":"Sachsen-Anhalt"}},{"name":"Lange Hauptstr.","postalCode":"39164","locality":"Wanzleben-Börde","municipality":{"key":"15083531","name":"Wanzleben-Börde, Stadt","type":"Stadt"},"district":{"key":"15083","name":"Börde","type":"Landkreis"},"federalState":{"key":"15","name":"Sachsen-Anhalt"}},{"name":"Langenweddinger Str.","postalCode":"39164","locality":"Wanzleben-Börde","municipality":{"key":"15083531","name":"Wanzleben-Börde, Stadt","type":"Stadt"},"district":{"key":"15083","name":"Börde","type":"Landkreis"},"federalState":{"key":"15","name":"Sachsen-Anhalt"}},{"name":"Langer Schlag","postalCode":"39326","locality":"Niedere Börde","municipality":{"key":"15083390","name":"Niedere Börde","type":"Kreisangehörige_Gemeinde"},"district":{"key":"15083","name":"Börde","type":"Landkreis"},"federalState":{"key":"15","name":"Sachsen-Anhalt"}},{"name":"Langestr.","postalCode":"39221","locality":"Bördeland","municipality":{"key":"15089042","name":"Bördeland","type":"Kreisangehörige_Gemeinde"},"district":{"key":"15089","name":"Salzlandkreis","type":"Landkreis"},"federalState":{"key":"15","name":"Sachsen-Anhalt"}},{"name":"Lange Str.","postalCode":"39164","locality":"Wanzleben-Börde","municipality":{"key":"15083531","name":"Wanzleben-Börde, Stadt","type":"Stadt"},"district":{"key":"15083","name":"Börde","type":"Landkreis"},"federalState":{"key":"15","name":"Sachsen-Anhalt"}},{"name":"Lange Str.","postalCode":"39221","locality":"Bördeland","municipality":{"key":"15089042","name":"Bördeland","type":"Kreisangehörige_Gemeinde"},"district":{"key":"15089","name":"Salzlandkreis","type":"Landkreis"},"federalState":{"key":"15","name":"Sachsen-Anhalt"}},{"name":"Lange Str.","postalCode":"39326","locality":"Niedere Börde","municipality":{"key":"15083390","name":"Niedere Börde","type":"Kreisangehörige_Gemeinde"},"district":{"key":"15083","name":"Börde","type":"Landkreis"},"federalState":{"key":"15","name":"Sachsen-Anhalt"}},{"name":"Lange Str.","postalCode":"39448","locality":"Börde-Hakel","municipality":{"key":"15089043","name":"Börde-Hakel","type":"Kreisangehörige_Gemeinde"},"district":{"key":"15089","name":"Salzlandkreis","type":"Landkreis"},"federalState":{"key":"15","name":"Sachsen-Anhalt"}},{"name":"Lehrergärten","postalCode":"39435","locality":"Bördeaue","municipality":{"key":"15089041","name":"Bördeaue","type":"Kreisangehörige_Gemeinde"},"district":{"key":"15089","name":"Salzlandkreis","type":"Landkreis"},"federalState":{"key":"15","name":"Sachsen-Anhalt"}},{"name":"Leninstr.","postalCode":"39448","locality":"Börde-Hakel","municipality":{"key":"15089043","name":"Börde-Hakel","type":"Kreisangehörige_Gemeinde"},"district":{"key":"15089","name":"Salzlandkreis","type":"Landkreis"},"federalState":{"key":"15","name":"Sachsen-Anhalt"}},{"name":"Lerchenweg","postalCode":"39167","locality":"Hohe Börde","municipality":{"key":"15083298","name":"Hohe Börde","type":"Kreisangehörige_Gemeinde"},"district":{"key":"15083","name":"Börde","type":"Landkreis"},"federalState":{"key":"15","name":"Sachsen-Anhalt"}},{"name":"Lerchenweg","postalCode":"39326","locality":"Niedere Börde","municipality":{"key":"15083390","name":"Niedere Börde","type":"Kreisangehörige_Gemeinde"},"district":{"key":"15083","name":"Börde","type":"Landkreis"},"federalState":{"key":"15","name":"Sachsen-Anhalt"}},{"name":"Lessingweg","postalCode":"39167","locality":"Hohe Börde","municipality":{"key":"15083298","name":"Hohe Börde","type":"Kreisangehörige_Gemeinde"},"district":{"key":"15083","name":"Börde","type":"Landkreis"},"federalState":{"key":"15","name":"Sachsen-Anhalt"}},{"name":"Lilienstr.","postalCode":"39221","locality":"Bördeland","municipality":{"key":"15089042","name":"Bördeland","type":"Kreisangehörige_Gemeinde"},"district":{"key":"15089","name":"Salzlandkreis","type":"Landkreis"},"federalState":{"key":"15","name":"Sachsen-Anhalt"}},{"name":"Lilienstr.","postalCode":"39326","locality":"Hohe Börde","municipality":{"key":"15083298","name":"Hohe Börde","type":"Kreisangehörige_Gemeinde"},"district":{"key":"15083","name":"Börde","type":"Landkreis"},"federalState":{"key":"15","name":"Sachsen-Anhalt"}},{"name":"Lilienweg","postalCode":"39164","locality":"Wanzleben-Börde","municipality":{"key":"15083531","name":"Wanzleben-Börde, Stadt","type":"Stadt"},"district":{"key":"15083","name":"Börde","type":"Landkreis"},"federalState":{"key":"15","name":"Sachsen-Anhalt"}},{"name":"Lindenallee","postalCode":"39164","locality":"Wanzleben-Börde","municipality":{"key":"15083531","name":"Wanzleben-Börde, Stadt","type":"Stadt"},"district":{"key":"15083","name":"Börde","type":"Landkreis"},"federalState":{"key":"15","name":"Sachsen-Anhalt"}},{"name":"Lindenplatz","postalCode":"39326","locality":"Hohe Börde","municipality":{"key":"15083298","name":"Hohe Börde","type":"Kreisangehörige_Gemeinde"},"district":{"key":"15083","name":"Börde","type":"Landkreis"},"federalState":{"key":"15","name":"Sachsen-Anhalt"}},{"name":"Lindenplatz","postalCode":"39435","locality":"Bördeaue","municipality":{"key":"15089041","name":"Bördeaue","type":"Kreisangehörige_Gemeinde"},"district":{"key":"15089","name":"Salzlandkreis","type":"Landkreis"},"federalState":{"key":"15","name":"Sachsen-Anhalt"}},{"name":"Lindenpromenade","postalCode":"39164","locality":"Wanzleben-Börde","municipality":{"key":"15083531","name":"Wanzleben-Börde, Stadt","type":"Stadt"},"district":{"key":"15083","name":"Börde","type":"Landkreis"},"federalState":{"key":"15","name":"Sachsen-Anhalt"}},{"name":"Lindenstr.","postalCode":"39164","locality":"Wanzleben-Börde","municipality":{"key":"15083531","name":"Wanzleben-Börde, Stadt","type":"Stadt"},"district":{"key":"15083","name":"Börde","type":"Landkreis"},"federalState":{"key":"15","name":"Sachsen-Anhalt"}},{"name":"Lindenstr.","postalCode":"39167","locality":"Hohe Börde","municipality":{"key":"15083298","name":"Hohe Börde","type":"Kreisangehörige_Gemeinde"},"district":{"key":"15083","name":"Börde","type":"Landkreis"},"federalState":{"key":"15","name":"Sachsen-Anhalt"}},{"name":"Lindenstr.","postalCode":"39221","locality":"Bördeland","municipality":{"key":"15089042","name":"Bördeland","type":"Kreisangehörige_Gemeinde"},"district":{"key":"15089","name":"Salzlandkreis","type":"Landkreis"},"federalState":{"key":"15","name":"Sachsen-Anhalt"}},{"name":"Lindenstr.","postalCode":"39326","locality":"Niedere Börde","municipality":{"key":"15083390","name":"Niedere Börde","type":"Kreisangehörige_Gemeinde"},"district":{"key":"15083","name":"Börde","type":"Landkreis"},"federalState":{"key":"15","name":"Sachsen-Anhalt"}},{"name":"Lindenstr.","postalCode":"39448","locality":"Börde-Hakel","municipality":{"key":"15089043","name":"Börde-Hakel","type":"Kreisangehörige_Gemeinde"},"district":{"key":"15089","name":"Salzlandkreis","type":"Landkreis"},"federalState":{"key":"15","name":"Sachsen-Anhalt"}},{"name":"Lindenweg","postalCode":"39164","locality":"Wanzleben-Börde","municipality":{"key":"15083531","name":"Wanzleben-Börde, Stadt","type":"Stadt"},"district":{"key":"15083","name":"Börde","type":"Landkreis"},"federalState":{"key":"15","name":"Sachsen-Anhalt"}},{"name":"Lindenweg","postalCode":"39167","locality":"Hohe Börde","municipality":{"key":"15083298","name":"Hohe Börde","type":"Kreisangehörige_Gemeinde"},"district":{"key":"15083","name":"Börde","type":"Landkreis"},"federalState":{"key":"15","name":"Sachsen-Anhalt"}},{"name":"Lindenweg","postalCode":"39326","locality":"Niedere Börde","municipality":{"key":"15083390","name":"Niedere Börde","type":"Kreisangehörige_Gemeinde"},"district":{"key":"15083","name":"Börde","type":"Landkreis"},"federalState":{"key":"15","name":"Sachsen-Anhalt"}},{"name":"Lindenweg","postalCode":"39343","locality":"Hohe Börde","municipality":{"key":"15083298","name":"Hohe Börde","type":"Kreisangehörige_Gemeinde"},"district":{"key":"15083","name":"Börde","type":"Landkreis"},"federalState":{"key":"15","name":"Sachsen-Anhalt"}},{"name":"Lindhorster Str.","postalCode":"39326","locality":"Niedere Börde","municipality":{"key":"15083390","name":"Niedere Börde","type":"Kreisangehörige_Gemeinde"},"district":{"key":"15083","name":"Börde","type":"Landkreis"},"federalState":{"key":"15","name":"Sachsen-Anhalt"}},{"name":"Lithenbergstr.","postalCode":"39326","locality":"Niedere Börde","municipality":{"key":"15083390","name":"Niedere Börde","type":"Kreisangehörige_Gemeinde"},"district":{"key":"15083","name":"Börde","type":"Landkreis"},"federalState":{"key":"15","name":"Sachsen-Anhalt"}},{"name":"Loricaweg","postalCode":"39221","locality":"Bördeland","municipality":{"key":"15089042","name":"Bördeland","type":"Kreisangehörige_Gemeinde"},"district":{"key":"15089","name":"Salzlandkreis","type":"Landkreis"},"federalState":{"key":"15","name":"Sachsen-Anhalt"}},{"name":"Lüneburger Heerstr.","postalCode":"39343","locality":"Hohe Börde","municipality":{"key":"15083298","name":"Hohe Börde","type":"Kreisangehörige_Gemeinde"},"district":{"key":"15083","name":"Börde","type":"Landkreis"},"federalState":{"key":"15","name":"Sachsen-Anhalt"}},{"name":"Lüneburger Str.","postalCode":"39167","locality":"Hohe Börde","municipality":{"key":"15083298","name":"Hohe Börde","type":"Kreisangehörige_Gemeinde"},"district":{"key":"15083","name":"Börde","type":"Landkreis"},"federalState":{"key":"15","name":"Sachsen-Anhalt"}},{"name":"Lust","postalCode":"39448","locality":"Börde-Hakel","municipality":{"key":"15089043","name":"Börde-Hakel","type":"Kreisangehörige_Gemeinde"},"district":{"key":"15089","name":"Salzlandkreis","type":"Landkreis"},"federalState":{"key":"15","name":"Sachsen-Anhalt"}},{"name":"Mittelstr.","postalCode":"39343","locality":"Beendorf","municipality":{"key":"15083060","name":"Beendorf","type":"Kreisangehörige_Gemeinde"},"district":{"key":"15083","name":"Börde","type":"Landkreis"},"federalState":{"key":"15","name":"Sachsen-Anhalt"}},{"name":"Mittelweg","postalCode":"39343","locality":"Beendorf","municipality":{"key":"15083060","name":"Beendorf","type":"Kreisangehörige_Gemeinde"},"district":{"key":"15083","name":"Börde","type":"Landkreis"},"federalState":{"key":"15","name":"Sachsen-Anhalt"}},{"name":"Mühlenkamp","postalCode":"39343","locality":"Beendorf","municipality":{"key":"15083060","name":"Beendorf","type":"Kreisangehörige_Gemeinde"},"district":{"key":"15083","name":"Börde","type":"Landkreis"},"federalState":{"key":"15","name":"Sachsen-Anhalt"}},{"name":"Nelkenhof","postalCode":"39221","locality":"Bördeland","municipality":{"key":"15089042","name":"Bördeland","type":"Kreisangehörige_Gemeinde"},"district":{"key":"15089","name":"Salzlandkreis","type":"Landkreis"},"federalState":{"key":"15","name":"Sachsen-Anhalt"}},{"name":"Nelkenweg","postalCode":"39167","locality":"Hohe Börde","municipality":{"key":"15083298","name":"Hohe Börde","type":"Kreisangehörige_Gemeinde"},"district":{"key":"15083","name":"Börde","type":"Landkreis"},"federalState":{"key":"15","name":"Sachsen-Anhalt"}},{"name":"Neue Hauptstr.","postalCode":"39164","locality":"Wanzleben-Börde","municipality":{"key":"15083531","name":"Wanzleben-Börde, Stadt","type":"Stadt"},"district":{"key":"15083","name":"Börde","type":"Landkreis"},"federalState":{"key":"15","name":"Sachsen-Anhalt"}},{"name":"Neuer Hof","postalCode":"39326","locality":"Niedere Börde","municipality":{"key":"15083390","name":"Niedere Börde","type":"Kreisangehörige_Gemeinde"},"district":{"key":"15083","name":"Börde","type":"Landkreis"},"federalState":{"key":"15","name":"Sachsen-Anhalt"}},{"name":"Neuer Hof","postalCode":"39448","locality":"Börde-Hakel","municipality":{"key":"15089043","name":"Börde-Hakel","type":"Kreisangehörige_Gemeinde"},"district":{"key":"15089","name":"Salzlandkreis","type":"Landkreis"},"federalState":{"key":"15","name":"Sachsen-Anhalt"}},{"name":"Neuer Weg","postalCode":"39167","locality":"Hohe Börde","municipality":{"key":"15083298","name":"Hohe Börde","type":"Kreisangehörige_Gemeinde"},"district":{"key":"15083","name":"Börde","type":"Landkreis"},"federalState":{"key":"15","name":"Sachsen-Anhalt"}},{"name":"Neuer Weg","postalCode":"39326","locality":"Niedere Börde","municipality":{"key":"15083390","name":"Niedere Börde","type":"Kreisangehörige_Gemeinde"},"district":{"key":"15083","name":"Börde","type":"Landkreis"},"federalState":{"key":"15","name":"Sachsen-Anhalt"}},{"name":"Neuer Weg","postalCode":"39448","locality":"Börde-Hakel","municipality":{"key":"15089043","name":"Börde-Hakel","type":"Kreisangehörige_Gemeinde"},"district":{"key":"15089","name":"Salzlandkreis","type":"Landkreis"},"federalState":{"key":"15","name":"Sachsen-Anhalt"}},{"name":"Neue Siedlung","postalCode":"39164","locality":"Wanzleben-Börde","municipality":{"key":"15083531","name":"Wanzleben-Börde, Stadt","type":"Stadt"},"district":{"key":"15083","name":"Börde","type":"Landkreis"},"federalState":{"key":"15","name":"Sachsen-Anhalt"}},{"name":"Neue Siedlung","postalCode":"39343","locality":"Hohe Börde","municipality":{"key":"15083298","name":"Hohe Börde","type":"Kreisangehörige_Gemeinde"},"district":{"key":"15083","name":"Börde","type":"Landkreis"},"federalState":{"key":"15","name":"Sachsen-Anhalt"}},{"name":"Neue Str.","postalCode":"39167","locality":"Hohe Börde","municipality":{"key":"15083298","name":"Hohe Börde","type":"Kreisangehörige_Gemeinde"},"district":{"key":"15083","name":"Börde","type":"Landkreis"},"federalState":{"key":"15","name":"Sachsen-Anhalt"}},{"name":"Neue Str.","postalCode":"39221","locality":"Bördeland","municipality":{"key":"15089042","name":"Bördeland","type":"Kreisangehörige_Gemeinde"},"district":{"key":"15089","name":"Salzlandkreis","type":"Landkreis"},"federalState":{"key":"15","name":"Sachsen-Anhalt"}},{"name":"Neue Str.","postalCode":"39326","locality":"Hohe Börde","municipality":{"key":"15083298","name":"Hohe Börde","type":"Kreisangehörige_Gemeinde"},"district":{"key":"15083","name":"Börde","type":"Landkreis"},"federalState":{"key":"15","name":"Sachsen-Anhalt"}},{"name":"Neue Str.","postalCode":"39326","locality":"Niedere Börde","municipality":{"key":"15083390","name":"Niedere Börde","type":"Kreisangehörige_Gemeinde"},"district":{"key":"15083","name":"Börde","type":"Landkreis"},"federalState":{"key":"15","name":"Sachsen-Anhalt"}},{"name":"Neue Str.","postalCode":"39448","locality":"Börde-Hakel","municipality":{"key":"15089043","name":"Börde-Hakel","type":"Kreisangehörige_Gemeinde"},"district":{"key":"15089","name":"Salzlandkreis","type":"Landkreis"},"federalState":{"key":"15","name":"Sachsen-Anhalt"}},{"name":"Neue Tor","postalCode":"39448","locality":"Börde-Hakel","municipality":{"key":"15089043","name":"Börde-Hakel","type":"Kreisangehörige_Gemeinde"},"district":{"key":"15089","name":"Salzlandkreis","type":"Landkreis"},"federalState":{"key":"15","name":"Sachsen-Anhalt"}},{"name":"Neuhäuserstr.","postalCode":"39221","locality":"Bördeland","municipality":{"key":"15089042","name":"Bördeland","type":"Kreisangehörige_Gemeinde"},"district":{"key":"15089","name":"Salzlandkreis","type":"Landkreis"},"federalState":{"key":"15","name":"Sachsen-Anhalt"}},{"name":"Neustadt","postalCode":"39448","locality":"Börde-Hakel","municipality":{"key":"15089043","name":"Börde-Hakel","type":"Kreisangehörige_Gemeinde"},"district":{"key":"15089","name":"Salzlandkreis","type":"Landkreis"},"federalState":{"key":"15","name":"Sachsen-Anhalt"}},{"name":"Neustädter Str.","postalCode":"39221","locality":"Bördeland","municipality":{"key":"15089042","name":"Bördeland","type":"Kreisangehörige_Gemeinde"},"district":{"key":"15089","name":"Salzlandkreis","type":"Landkreis"},"federalState":{"key":"15","name":"Sachsen-Anhalt"}},{"name":"Neustädter Str.","postalCode":"39448","locality":"Börde-Hakel","municipality":{"key":"15089043","name":"Börde-Hakel","type":"Kreisangehörige_Gemeinde"},"district":{"key":"15089","name":"Salzlandkreis","type":"Landkreis"},"federalState":{"key":"15","name":"Sachsen-Anhalt"}},{"name":"Nickelweg","postalCode":"39221","locality":"Bördeland","municipality":{"key":"15089042","name":"Bördeland","type":"Kreisangehörige_Gemeinde"},"district":{"key":"15089","name":"Salzlandkreis","type":"Landkreis"},"federalState":{"key":"15","name":"Sachsen-Anhalt"}},{"name":"Niebelungenstr.","postalCode":"39167","locality":"Hohe Börde","municipality":{"key":"15083298","name":"Hohe Börde","type":"Kreisangehörige_Gemeinde"},"district":{"key":"15083","name":"Börde","type":"Landkreis"},"federalState":{"key":"15","name":"Sachsen-Anhalt"}},{"name":"Niederndodelebener Str.","postalCode":"39164","locality":"Wanzleben-Börde","municipality":{"key":"15083531","name":"Wanzleben-Börde, Stadt","type":"Stadt"},"district":{"key":"15083","name":"Börde","type":"Landkreis"},"federalState":{"key":"15","name":"Sachsen-Anhalt"}},{"name":"Niederndodelebener Str.","postalCode":"39167","locality":"Hohe Börde","municipality":{"key":"15083298","name":"Hohe Börde","type":"Kreisangehörige_Gemeinde"},"district":{"key":"15083","name":"Börde","type":"Landkreis"},"federalState":{"key":"15","name":"Sachsen-Anhalt"}},{"name":"Niederndodeleber Str.","postalCode":"39167","locality":"Hohe Börde","municipality":{"key":"15083298","name":"Hohe Börde","type":"Kreisangehörige_Gemeinde"},"district":{"key":"15083","name":"Börde","type":"Landkreis"},"federalState":{"key":"15","name":"Sachsen-Anhalt"}},{"name":"Niemöller-Privatweg","postalCode":"39167","locality":"Hohe Börde","municipality":{"key":"15083298","name":"Hohe Börde","type":"Kreisangehörige_Gemeinde"},"district":{"key":"15083","name":"Börde","type":"Landkreis"},"federalState":{"key":"15","name":"Sachsen-Anhalt"}},{"name":"Nietenweg","postalCode":"39221","locality":"Bördeland","municipality":{"key":"15089042","name":"Bördeland","type":"Kreisangehörige_Gemeinde"},"district":{"key":"15089","name":"Salzlandkreis","type":"Landkreis"},"federalState":{"key":"15","name":"Sachsen-Anhalt"}},{"name":"Nordgermerslebener Str.","postalCode":"39343","locality":"Hohe Börde","municipality":{"key":"15083298","name":"Hohe Börde","type":"Kreisangehörige_Gemeinde"},"district":{"key":"15083","name":"Börde","type":"Landkreis"},"federalState":{"key":"15","name":"Sachsen-Anhalt"}},{"name":"Nordgermersleber Weg","postalCode":"39343","locality":"Hohe Börde","municipality":{"key":"15083298","name":"Hohe Börde","type":"Kreisangehörige_Gemeinde"},"district":{"key":"15083","name":"Börde","type":"Landkreis"},"federalState":{"key":"15","name":"Sachsen-Anhalt"}},{"name":"Nordstr.","postalCode":"39164","locality":"Wanzleben-Börde","municipality":{"key":"15083531","name":"Wanzleben-Börde, Stadt","type":"Stadt"},"district":{"key":"15083","name":"Börde","type":"Landkreis"},"federalState":{"key":"15","name":"Sachsen-Anhalt"}},{"name":"Nordstr.","postalCode":"39221","locality":"Bördeland","municipality":{"key":"15089042","name":"Bördeland","type":"Kreisangehörige_Gemeinde"},"district":{"key":"15089","name":"Salzlandkreis","type":"Landkreis"},"federalState":{"key":"15","name":"Sachsen-Anhalt"}},{"name":"Obere Gehrecken","postalCode":"39167","locality":"Hohe Börde","municipality":{"key":"15083298","name":"Hohe Börde","type":"Kreisangehörige_Gemeinde"},"district":{"key":"15083","name":"Börde","type":"Landkreis"},"federalState":{"key":"15","name":"Sachsen-Anhalt"}},{"name":"Oberer Hohenwarsleber Weg","postalCode":"39167","locality":"Hohe Börde","municipality":{"key":"15083298","name":"Hohe Börde","type":"Kreisangehörige_Gemeinde"},"district":{"key":"15083","name":"Börde","type":"Landkreis"},"federalState":{"key":"15","name":"Sachsen-Anhalt"}},{"name":"Oberes Sülzetal","postalCode":"39167","locality":"Hohe Börde","municipality":{"key":"15083298","name":"Hohe Börde","type":"Kreisangehörige_Gemeinde"},"district":{"key":"15083","name":"Börde","type":"Landkreis"},"federalState":{"key":"15","name":"Sachsen-Anhalt"}},{"name":"Ochtmerlseber Weg","postalCode":"39167","locality":"Hohe Börde","municipality":{"key":"15083298","name":"Hohe Börde","type":"Kreisangehörige_Gemeinde"},"district":{"key":"15083","name":"Börde","type":"Landkreis"},"federalState":{"key":"15","name":"Sachsen-Anhalt"}},{"name":"Ohregarten","postalCode":"39326","locality":"Niedere Börde","municipality":{"key":"15083390","name":"Niedere Börde","type":"Kreisangehörige_Gemeinde"},"district":{"key":"15083","name":"Börde","type":"Landkreis"},"federalState":{"key":"15","name":"Sachsen-Anhalt"}},{"name":"Okendorfer Weg","postalCode":"39164","locality":"Wanzleben-Börde","municipality":{"key":"15083531","name":"Wanzleben-Börde, Stadt","type":"Stadt"},"district":{"key":"15083","name":"Börde","type":"Landkreis"},"federalState":{"key":"15","name":"Sachsen-Anhalt"}},{"name":"Olbe-Hopfenteich-Weg","postalCode":"39167","locality":"Hohe Börde","municipality":{"key":"15083298","name":"Hohe Börde","type":"Kreisangehörige_Gemeinde"},"district":{"key":"15083","name":"Börde","type":"Landkreis"},"federalState":{"key":"15","name":"Sachsen-Anhalt"}},{"name":"Olvenstedter Weg","postalCode":"39167","locality":"Hohe Börde","municipality":{"key":"15083298","name":"Hohe Börde","type":"Kreisangehörige_Gemeinde"},"district":{"key":"15083","name":"Börde","type":"Landkreis"},"federalState":{"key":"15","name":"Sachsen-Anhalt"}},{"name":"Ordensbreite","postalCode":"39164","locality":"Wanzleben-Börde","municipality":{"key":"15083531","name":"Wanzleben-Börde, Stadt","type":"Stadt"},"district":{"key":"15083","name":"Börde","type":"Landkreis"},"federalState":{"key":"15","name":"Sachsen-Anhalt"}},{"name":"Osterwiesenstr.","postalCode":"39167","locality":"Hohe Börde","municipality":{"key":"15083298","name":"Hohe Börde","type":"Kreisangehörige_Gemeinde"},"district":{"key":"15083","name":"Börde","type":"Landkreis"},"federalState":{"key":"15","name":"Sachsen-Anhalt"}},{"name":"Ottersleber Tor","postalCode":"39164","locality":"Wanzleben-Börde","municipality":{"key":"15083531","name":"Wanzleben-Börde, Stadt","type":"Stadt"},"district":{"key":"15083","name":"Börde","type":"Landkreis"},"federalState":{"key":"15","name":"Sachsen-Anhalt"}},{"name":"Ottersleber Weg","postalCode":"39167","locality":"Hohe Börde","municipality":{"key":"15083298","name":"Hohe Börde","type":"Kreisangehörige_Gemeinde"},"district":{"key":"15083","name":"Börde","type":"Landkreis"},"federalState":{"key":"15","name":"Sachsen-Anhalt"}},{"name":"Otto-Grotewohl-Str.","postalCode":"39167","locality":"Hohe Börde","municipality":{"key":"15083298","name":"Hohe Börde","type":"Kreisangehörige_Gemeinde"},"district":{"key":"15083","name":"Börde","type":"Landkreis"},"federalState":{"key":"15","name":"Sachsen-Anhalt"}},{"name":"Papenweg","postalCode":"39343","locality":"Beendorf","municipality":{"key":"15083060","name":"Beendorf","type":"Kreisangehörige_Gemeinde"},"district":{"key":"15083","name":"Börde","type":"Landkreis"},"federalState":{"key":"15","name":"Sachsen-Anhalt"}},{"name":"Parkstr.","postalCode":"39343","locality":"Beendorf","municipality":{"key":"15083060","name":"Beendorf","type":"Kreisangehörige_Gemeinde"},"district":{"key":"15083","name":"Börde","type":"Landkreis"},"federalState":{"key":"15","name":"Sachsen-Anhalt"}},{"name":"Quergasse","postalCode":"39221","locality":"Bördeland","municipality":{"key":"15089042","name":"Bördeland","type":"Kreisangehörige_Gemeinde"},"district":{"key":"15089","name":"Salzlandkreis","type":"Landkreis"},"federalState":{"key":"15","name":"Sachsen-Anhalt"}},{"name":"Querstr.","postalCode":"39164","locality":"Wanzleben-Börde","municipality":{"key":"15083531","name":"Wanzleben-Börde, Stadt","type":"Stadt"},"district":{"key":"15083","name":"Börde","type":"Landkreis"},"federalState":{"key":"15","name":"Sachsen-Anhalt"}},{"name":"Querstr.","postalCode":"39221","locality":"Bördeland","municipality":{"key":"15089042","name":"Bördeland","type":"Kreisangehörige_Gemeinde"},"district":{"key":"15089","name":"Salzlandkreis","type":"Landkreis"},"federalState":{"key":"15","name":"Sachsen-Anhalt"}},{"name":"Querstr.","postalCode":"39343","locality":"Hohe Börde","municipality":{"key":"15083298","name":"Hohe Börde","type":"Kreisangehörige_Gemeinde"},"district":{"key":"15083","name":"Börde","type":"Landkreis"},"federalState":{"key":"15","name":"Sachsen-Anhalt"}},{"name":"Rundahlsweg","postalCode":"39343","locality":"Beendorf","municipality":{"key":"15083060","name":"Beendorf","type":"Kreisangehörige_Gemeinde"},"district":{"key":"15083","name":"Börde","type":"Landkreis"},"federalState":{"key":"15","name":"Sachsen-Anhalt"}},{"name":"Sandweg","postalCode":"39343","locality":"Beendorf","municipality":{"key":"15083060","name":"Beendorf","type":"Kreisangehörige_Gemeinde"},"district":{"key":"15083","name":"Börde","type":"Landkreis"},"federalState":{"key":"15","name":"Sachsen-Anhalt"}},{"name":"Schulplatz","postalCode":"39343","locality":"Beendorf","municipality":{"key":"15083060","name":"Beendorf","type":"Kreisangehörige_Gemeinde"},"district":{"key":"15083","name":"Börde","type":"Landkreis"},"federalState":{"key":"15","name":"Sachsen-Anhalt"}},{"name":"Schulstr.","postalCode":"39343","locality":"Beendorf","municipality":{"key":"15083060","name":"Beendorf","type":"Kreisangehörige_Gemeinde"},"district":{"key":"15083","name":"Börde","type":"Landkreis"},"federalState":{"key":"15","name":"Sachsen-Anhalt"}},{"name":"Schwanefelder Str.","postalCode":"39343","locality":"Beendorf","municipality":{"key":"15083060","name":"Beendorf","type":"Kreisangehörige_Gemeinde"},"district":{"key":"15083","name":"Börde","type":"Landkreis"},"federalState":{"key":"15","name":"Sachsen-Anhalt"}},{"name":"Seeberg","postalCode":"39343","locality":"Beendorf","municipality":{"key":"15083060","name":"Beendorf","type":"Kreisangehörige_Gemeinde"},"district":{"key":"15083","name":"Börde","type":"Landkreis"},"federalState":{"key":"15","name":"Sachsen-Anhalt"}},{"name":"Steinstr.","postalCode":"39343","locality":"Beendorf","municipality":{"key":"15083060","name":"Beendorf","type":"Kreisangehörige_Gemeinde"},"district":{"key":"15083","name":"Börde","type":"Landkreis"},"federalState":{"key":"15","name":"Sachsen-Anhalt"}},{"name":"Talgrabenweg","postalCode":"39167","locality":"Hohe Börde","municipality":{"key":"15083298","name":"Hohe Börde","type":"Kreisangehörige_Gemeinde"},"district":{"key":"15083","name":"Börde","type":"Landkreis"},"federalState":{"key":"15","name":"Sachsen-Anhalt"}},{"name":"Talsbergweg","postalCode":"39221","locality":"Bördeland","municipality":{"key":"15089042","name":"Bördeland","type":"Kreisangehörige_Gemeinde"},"district":{"key":"15089","name":"Salzlandkreis","type":"Landkreis"},"federalState":{"key":"15","name":"Sachsen-Anhalt"}},{"name":"Tartarenberg","postalCode":"39164","locality":"Wanzleben-Börde","municipality":{"key":"15083531","name":"Wanzleben-Börde, Stadt","type":"Stadt"},"district":{"key":"15083","name":"Börde","type":"Landkreis"},"federalState":{"key":"15","name":"Sachsen-Anhalt"}},{"name":"Tarthuner Str.","postalCode":"39435","locality":"Bördeaue","municipality":{"key":"15089041","name":"Bördeaue","type":"Kreisangehörige_Gemeinde"},"district":{"key":"15089","name":"Salzlandkreis","type":"Landkreis"},"federalState":{"key":"15","name":"Sachsen-Anhalt"}},{"name":"Teerstr.","postalCode":"39326","locality":"Niedere Börde","municipality":{"key":"15083390","name":"Niedere Börde","type":"Kreisangehörige_Gemeinde"},"district":{"key":"15083","name":"Börde","type":"Landkreis"},"federalState":{"key":"15","name":"Sachsen-Anhalt"}},{"name":"Teichstr.","postalCode":"39164","locality":"Wanzleben-Börde","municipality":{"key":"15083531","name":"Wanzleben-Börde, Stadt","type":"Stadt"},"district":{"key":"15083","name":"Börde","type":"Landkreis"},"federalState":{"key":"15","name":"Sachsen-Anhalt"}},{"name":"Teichstr.","postalCode":"39221","locality":"Bördeland","municipality":{"key":"15089042","name":"Bördeland","type":"Kreisangehörige_Gemeinde"},"district":{"key":"15089","name":"Salzlandkreis","type":"Landkreis"},"federalState":{"key":"15","name":"Sachsen-Anhalt"}},{"name":"Teichstr.","postalCode":"39326","locality":"Niedere Börde","municipality":{"key":"15083390","name":"Niedere Börde","type":"Kreisangehörige_Gemeinde"},"district":{"key":"15083","name":"Börde","type":"Landkreis"},"federalState":{"key":"15","name":"Sachsen-Anhalt"}},{"name":"Teichstr.","postalCode":"39345","locality":"Niedere Börde","municipality":{"key":"15083390","name":"Niedere Börde","type":"Kreisangehörige_Gemeinde"},"district":{"key":"15083","name":"Börde","type":"Landkreis"},"federalState":{"key":"15","name":"Sachsen-Anhalt"}},{"name":"Teichstr.","postalCode":"39448","locality":"Börde-Hakel","municipality":{"key":"15089043","name":"Börde-Hakel","type":"Kreisangehörige_Gemeinde"},"district":{"key":"15089","name":"Salzlandkreis","type":"Landkreis"},"federalState":{"key":"15","name":"Sachsen-Anhalt"}},{"name":"Teichweg","postalCode":"39164","locality":"Wanzleben-Börde","municipality":{"key":"15083531","name":"Wanzleben-Börde, Stadt","type":"Stadt"},"district":{"key":"15083","name":"Börde","type":"Landkreis"},"federalState":{"key":"15","name":"Sachsen-Anhalt"}},{"name":"Teichweg","postalCode":"39326","locality":"Hohe Börde","municipality":{"key":"15083298","name":"Hohe Börde","type":"Kreisangehörige_Gemeinde"},"district":{"key":"15083","name":"Börde","type":"Landkreis"},"federalState":{"key":"15","name":"Sachsen-Anhalt"}},{"name":"Telzweg","postalCode":"39326","locality":"Niedere Börde","municipality":{"key":"15083390","name":"Niedere Börde","type":"Kreisangehörige_Gemeinde"},"district":{"key":"15083","name":"Börde","type":"Landkreis"},"federalState":{"key":"15","name":"Sachsen-Anhalt"}},{"name":"Thälmannstr.","postalCode":"39448","locality":"Börde-Hakel","municipality":{"key":"15089043","name":"Börde-Hakel","type":"Kreisangehörige_Gemeinde"},"district":{"key":"15089","name":"Salzlandkreis","type":"Landkreis"},"federalState":{"key":"15","name":"Sachsen-Anhalt"}},{"name":"Thielestr.","postalCode":"39343","locality":"Hohe Börde","municipality":{"key":"15083298","name":"Hohe Börde","type":"Kreisangehörige_Gemeinde"},"district":{"key":"15083","name":"Börde","type":"Landkreis"},"federalState":{"key":"15","name":"Sachsen-Anhalt"}},{"name":"Thingplatz","postalCode":"39164","locality":"Wanzleben-Börde","municipality":{"key":"15083531","name":"Wanzleben-Börde, Stadt","type":"Stadt"},"district":{"key":"15083","name":"Börde","type":"Landkreis"},"federalState":{"key":"15","name":"Sachsen-Anhalt"}},{"name":"Thomas-Müntzer-Platz","postalCode":"39343","locality":"Hohe Börde","municipality":{"key":"15083298","name":"Hohe Börde","type":"Kreisangehörige_Gemeinde"},"district":{"key":"15083","name":"Börde","type":"Landkreis"},"federalState":{"key":"15","name":"Sachsen-Anhalt"}},{"name":"Thomas-Müntzer-Siedlung","postalCode":"39435","locality":"Bördeaue","municipality":{"key":"15089041","name":"Bördeaue","type":"Kreisangehörige_Gemeinde"},"district":{"key":"15089","name":"Salzlandkreis","type":"Landkreis"},"federalState":{"key":"15","name":"Sachsen-Anhalt"}},{"name":"Thomas-Müntzer-Siedlung","postalCode":"39448","locality":"Börde-Hakel","municipality":{"key":"15089043","name":"Börde-Hakel","type":"Kreisangehörige_Gemeinde"},"district":{"key":"15089","name":"Salzlandkreis","type":"Landkreis"},"federalState":{"key":"15","name":"Sachsen-Anhalt"}},{"name":"Thomas-Müntzer-Str.","postalCode":"39164","locality":"Wanzleben-Börde","municipality":{"key":"15083531","name":"Wanzleben-Börde, Stadt","type":"Stadt"},"district":{"key":"15083","name":"Börde","type":"Landkreis"},"federalState":{"key":"15","name":"Sachsen-Anhalt"}},{"name":"Thomas-Müntzer-Str.","postalCode":"39167","locality":"Hohe Börde","municipality":{"key":"15083298","name":"Hohe Börde","type":"Kreisangehörige_Gemeinde"},"district":{"key":"15083","name":"Börde","type":"Landkreis"},"federalState":{"key":"15","name":"Sachsen-Anhalt"}},{"name":"Thomas-Müntzer-Str.","postalCode":"39343","locality":"Hohe Börde","municipality":{"key":"15083298","name":"Hohe Börde","type":"Kreisangehörige_Gemeinde"},"district":{"key":"15083","name":"Börde","type":"Landkreis"},"federalState":{"key":"15","name":"Sachsen-Anhalt"}},{"name":"Thomas-Müntzer-Weg","postalCode":"39164","locality":"Wanzleben-Börde","municipality":{"key":"15083531","name":"Wanzleben-Börde, Stadt","type":"Stadt"},"district":{"key":"15083","name":"Börde","type":"Landkreis"},"federalState":{"key":"15","name":"Sachsen-Anhalt"}},{"name":"Thorstr.","postalCode":"39435","locality":"Bördeaue","municipality":{"key":"15089041","name":"Bördeaue","type":"Kreisangehörige_Gemeinde"},"district":{"key":"15089","name":"Salzlandkreis","type":"Landkreis"},"federalState":{"key":"15","name":"Sachsen-Anhalt"}},{"name":"Torgartenstr.","postalCode":"39164","locality":"Wanzleben-Börde","municipality":{"key":"15083531","name":"Wanzleben-Börde, Stadt","type":"Stadt"},"district":{"key":"15083","name":"Börde","type":"Landkreis"},"federalState":{"key":"15","name":"Sachsen-Anhalt"}},{"name":"Torstr.","postalCode":"39435","locality":"Bördeaue","municipality":{"key":"15089041","name":"Bördeaue","type":"Kreisangehörige_Gemeinde"},"district":{"key":"15089","name":"Salzlandkreis","type":"Landkreis"},"federalState":{"key":"15","name":"Sachsen-Anhalt"}},{"name":"Tränkestr.","postalCode":"39221","locality":"Bördeland","municipality":{"key":"15089042","name":"Bördeland","type":"Kreisangehörige_Gemeinde"},"district":{"key":"15089","name":"Salzlandkreis","type":"Landkreis"},"federalState":{"key":"15","name":"Sachsen-Anhalt"}},{"name":"Tränketor","postalCode":"39221","locality":"Bördeland","municipality":{"key":"15089042","name":"Bördeland","type":"Kreisangehörige_Gemeinde"},"district":{"key":"15089","name":"Salzlandkreis","type":"Landkreis"},"federalState":{"key":"15","name":"Sachsen-Anhalt"}},{"name":"Trappenweg","postalCode":"39167","locality":"Hohe Börde","municipality":{"key":"15083298","name":"Hohe Börde","type":"Kreisangehörige_Gemeinde"},"district":{"key":"15083","name":"Börde","type":"Landkreis"},"federalState":{"key":"15","name":"Sachsen-Anhalt"}},{"name":"Trappenweg","postalCode":"39221","locality":"Bördeland","municipality":{"key":"15089042","name":"Bördeland","type":"Kreisangehörige_Gemeinde"},"district":{"key":"15089","name":"Salzlandkreis","type":"Landkreis"},"federalState":{"key":"15","name":"Sachsen-Anhalt"}},{"name":"Trift","postalCode":"39164","locality":"Wanzleben-Börde","municipality":{"key":"15083531","name":"Wanzleben-Börde, Stadt","type":"Stadt"},"district":{"key":"15083","name":"Börde","type":"Landkreis"},"federalState":{"key":"15","name":"Sachsen-Anhalt"}},{"name":"Tulpenhof","postalCode":"39221","locality":"Bördeland","municipality":{"key":"15089042","name":"Bördeland","type":"Kreisangehörige_Gemeinde"},"district":{"key":"15089","name":"Salzlandkreis","type":"Landkreis"},"federalState":{"key":"15","name":"Sachsen-Anhalt"}},{"name":"Tulpenweg","postalCode":"39164","locality":"Wanzleben-Börde","municipality":{"key":"15083531","name":"Wanzleben-Börde, Stadt","type":"Stadt"},"district":{"key":"15083","name":"Börde","type":"Landkreis"},"federalState":{"key":"15","name":"Sachsen-Anhalt"}},{"name":"Tulpenweg","postalCode":"39167","locality":"Hohe Börde","municipality":{"key":"15083298","name":"Hohe Börde","type":"Kreisangehörige_Gemeinde"},"district":{"key":"15083","name":"Börde","type":"Landkreis"},"federalState":{"key":"15","name":"Sachsen-Anhalt"}},{"name":"Tulpenweg","postalCode":"39221","locality":"Bördeland","municipality":{"key":"15089042","name":"Bördeland","type":"Kreisangehörige_Gemeinde"},"district":{"key":"15089","name":"Salzlandkreis","type":"Landkreis"},"federalState":{"key":"15","name":"Sachsen-Anhalt"}},{"name":"Tulpenweg","postalCode":"39326","locality":"Hohe Börde","municipality":{"key":"15083298","name":"Hohe Börde","type":"Kreisangehörige_Gemeinde"},"district":{"key":"15083","name":"Börde","type":"Landkreis"},"federalState":{"key":"15","name":"Sachsen-Anhalt"}},{"name":"Tundersleber Str.","postalCode":"39343","locality":"Hohe Börde","municipality":{"key":"15083298","name":"Hohe Börde","type":"Kreisangehörige_Gemeinde"},"district":{"key":"15083","name":"Börde","type":"Landkreis"},"federalState":{"key":"15","name":"Sachsen-Anhalt"}},{"name":"Tundersleber Weg","postalCode":"39343","locality":"Hohe Börde","municipality":{"key":"15083298","name":"Hohe Börde","type":"Kreisangehörige_Gemeinde"},"district":{"key":"15083","name":"Börde","type":"Landkreis"},"federalState":{"key":"15","name":"Sachsen-Anhalt"}},{"name":"Turmstr.","postalCode":"39164","locality":"Wanzleben-Börde","municipality":{"key":"15083531","name":"Wanzleben-Börde, Stadt","type":"Stadt"},"district":{"key":"15083","name":"Börde","type":"Landkreis"},"federalState":{"key":"15","name":"Sachsen-Anhalt"}},{"name":"Turnplatz","postalCode":"39221","locality":"Bördeland","municipality":{"key":"15089042","name":"Bördeland","type":"Kreisangehörige_Gemeinde"},"district":{"key":"15089","name":"Salzlandkreis","type":"Landkreis"},"federalState":{"key":"15","name":"Sachsen-Anhalt"}},{"name":"Twedge","postalCode":"39343","locality":"Hohe Börde","municipality":{"key":"15083298","name":"Hohe Börde","type":"Kreisangehörige_Gemeinde"},"district":{"key":"15083","name":"Börde","type":"Landkreis"},"federalState":{"key":"15","name":"Sachsen-Anhalt"}},{"name":"Uhlenhoch","postalCode":"39167","locality":"Hohe Börde","municipality":{"key":"15083298","name":"Hohe Börde","type":"Kreisangehörige_Gemeinde"},"district":{"key":"15083","name":"Börde","type":"Landkreis"},"federalState":{"key":"15","name":"Sachsen-Anhalt"}},{"name":"Ulmenweg","postalCode":"39167","locality":"Hohe Börde","municipality":{"key":"15083298","name":"Hohe Börde","type":"Kreisangehörige_Gemeinde"},"district":{"key":"15083","name":"Börde","type":"Landkreis"},"federalState":{"key":"15","name":"Sachsen-Anhalt"}},{"name":"Ulrichstr.","postalCode":"39221","locality":"Bördeland","municipality":{"key":"15089042","name":"Bördeland","type":"Kreisangehörige_Gemeinde"},"district":{"key":"15089","name":"Salzlandkreis","type":"Landkreis"},"federalState":{"key":"15","name":"Sachsen-Anhalt"}},{"name":"Umgehungsstr.","postalCode":"39164","locality":"Wanzleben-Börde","municipality":{"key":"15083531","name":"Wanzleben-Börde, Stadt","type":"Stadt"},"district":{"key":"15083","name":"Börde","type":"Landkreis"},"federalState":{"key":"15","name":"Sachsen-Anhalt"}},{"name":"Umgehungsstr.","postalCode":"39326","locality":"Hohe Börde","municipality":{"key":"15083298","name":"Hohe Börde","type":"Kreisangehörige_Gemeinde"},"district":{"key":"15083","name":"Börde","type":"Landkreis"},"federalState":{"key":"15","name":"Sachsen-Anhalt"}},{"name":"Unseburger Str.","postalCode":"39435","locality":"Bördeaue","municipality":{"key":"15089041","name":"Bördeaue","type":"Kreisangehörige_Gemeinde"},"district":{"key":"15089","name":"Salzlandkreis","type":"Landkreis"},"federalState":{"key":"15","name":"Sachsen-Anhalt"}},{"name":"Unter den Linden","postalCode":"39164","locality":"Wanzleben-Börde","municipality":{"key":"15083531","name":"Wanzleben-Börde, Stadt","type":"Stadt"},"district":{"key":"15083","name":"Börde","type":"Landkreis"},"federalState":{"key":"15","name":"Sachsen-Anhalt"}},{"name":"Unter den Linden","postalCode":"39221","locality":"Bördeland","municipality":{"key":"15089042","name":"Bördeland","type":"Kreisangehörige_Gemeinde"},"district":{"key":"15089","name":"Salzlandkreis","type":"Landkreis"},"federalState":{"key":"15","name":"Sachsen-Anhalt"}},{"name":"Untere Gehrecken","postalCode":"39167","locality":"Hohe Börde","municipality":{"key":"15083298","name":"Hohe Börde","type":"Kreisangehörige_Gemeinde"},"district":{"key":"15083","name":"Börde","type":"Landkreis"},"federalState":{"key":"15","name":"Sachsen-Anhalt"}},{"name":"Unterer Hohenwarsleber Weg","postalCode":"39167","locality":"Hohe Börde","municipality":{"key":"15083298","name":"Hohe Börde","type":"Kreisangehörige_Gemeinde"},"district":{"key":"15083","name":"Börde","type":"Landkreis"},"federalState":{"key":"15","name":"Sachsen-Anhalt"}},{"name":"Vahldorfer Weg","postalCode":"39326","locality":"Niedere Börde","municipality":{"key":"15083390","name":"Niedere Börde","type":"Kreisangehörige_Gemeinde"},"district":{"key":"15083","name":"Börde","type":"Landkreis"},"federalState":{"key":"15","name":"Sachsen-Anhalt"}},{"name":"Viehmarkt","postalCode":"39221","locality":"Bördeland","municipality":{"key":"15089042","name":"Bördeland","type":"Kreisangehörige_Gemeinde"},"district":{"key":"15089","name":"Salzlandkreis","type":"Landkreis"},"federalState":{"key":"15","name":"Sachsen-Anhalt"}},{"name":"Vogelbreite","postalCode":"39167","locality":"Hohe Börde","municipality":{"key":"15083298","name":"Hohe Börde","type":"Kreisangehörige_Gemeinde"},"district":{"key":"15083","name":"Börde","type":"Landkreis"},"federalState":{"key":"15","name":"Sachsen-Anhalt"}},{"name":"Vogelgesang","postalCode":"39221","locality":"Bördeland","municipality":{"key":"15089042","name":"Bördeland","type":"Kreisangehörige_Gemeinde"},"district":{"key":"15089","name":"Salzlandkreis","type":"Landkreis"},"federalState":{"key":"15","name":"Sachsen-Anhalt"}},{"name":"Vogelsang","postalCode":"39221","locality":"Bördeland","municipality":{"key":"15089042","name":"Bördeland","type":"Kreisangehörige_Gemeinde"},"district":{"key":"15089","name":"Salzlandkreis","type":"Landkreis"},"federalState":{"key":"15","name":"Sachsen-Anhalt"}},{"name":"Vor dem Hohen Tor","postalCode":"39164","locality":"Wanzleben-Börde","municipality":{"key":"15083531","name":"Wanzleben-Börde, Stadt","type":"Stadt"},"district":{"key":"15083","name":"Börde","type":"Landkreis"},"federalState":{"key":"15","name":"Sachsen-Anhalt"}},{"name":"Vor dem Kirchtore","postalCode":"39164","locality":"Wanzleben-Börde","municipality":{"key":"15083531","name":"Wanzleben-Börde, Stadt","type":"Stadt"},"district":{"key":"15083","name":"Börde","type":"Landkreis"},"federalState":{"key":"15","name":"Sachsen-Anhalt"}},{"name":"Vor dem Mühlentor","postalCode":"39221","locality":"Bördeland","municipality":{"key":"15089042","name":"Bördeland","type":"Kreisangehörige_Gemeinde"},"district":{"key":"15089","name":"Salzlandkreis","type":"Landkreis"},"federalState":{"key":"15","name":"Sachsen-Anhalt"}},{"name":"Vor dem Rittertor","postalCode":"39164","locality":"Wanzleben-Börde","municipality":{"key":"15083531","name":"Wanzleben-Börde, Stadt","type":"Stadt"},"district":{"key":"15083","name":"Börde","type":"Landkreis"},"federalState":{"key":"15","name":"Sachsen-Anhalt"}},{"name":"Vor dem Schloßtor","postalCode":"39164","locality":"Wanzleben-Börde","municipality":{"key":"15083531","name":"Wanzleben-Börde, Stadt","type":"Stadt"},"district":{"key":"15083","name":"Börde","type":"Landkreis"},"federalState":{"key":"15","name":"Sachsen-Anhalt"}},{"name":"Vor dem Sportplatz","postalCode":"39164","locality":"Wanzleben-Börde","municipality":{"key":"15083531","name":"Wanzleben-Börde, Stadt","type":"Stadt"},"district":{"key":"15083","name":"Börde","type":"Landkreis"},"federalState":{"key":"15","name":"Sachsen-Anhalt"}},{"name":"Vor dem Tore","postalCode":"39326","locality":"Niedere Börde","municipality":{"key":"15083390","name":"Niedere Börde","type":"Kreisangehörige_Gemeinde"},"district":{"key":"15083","name":"Börde","type":"Landkreis"},"federalState":{"key":"15","name":"Sachsen-Anhalt"}},{"name":"Vor dem Tore","postalCode":"39343","locality":"Hohe Börde","municipality":{"key":"15083298","name":"Hohe Börde","type":"Kreisangehörige_Gemeinde"},"district":{"key":"15083","name":"Börde","type":"Landkreis"},"federalState":{"key":"15","name":"Sachsen-Anhalt"}},{"name":"Vor dem Tore","postalCode":"39448","locality":"Börde-Hakel","municipality":{"key":"15089043","name":"Börde-Hakel","type":"Kreisangehörige_Gemeinde"},"district":{"key":"15089","name":"Salzlandkreis","type":"Landkreis"},"federalState":{"key":"15","name":"Sachsen-Anhalt"}},{"name":"Vor dem Welschen Tor","postalCode":"39164","locality":"Wanzleben-Börde","municipality":{"key":"15083531","name":"Wanzleben-Börde, Stadt","type":"Stadt"},"district":{"key":"15083","name":"Börde","type":"Landkreis"},"federalState":{"key":"15","name":"Sachsen-Anhalt"}},{"name":"Vor der Reihe","postalCode":"39343","locality":"Hohe Börde","municipality":{"key":"15083298","name":"Hohe Börde","type":"Kreisangehörige_Gemeinde"},"district":{"key":"15083","name":"Börde","type":"Landkreis"},"federalState":{"key":"15","name":"Sachsen-Anhalt"}},{"name":"Vor der Scheue","postalCode":"39343","locality":"Hohe Börde","municipality":{"key":"15083298","name":"Hohe Börde","type":"Kreisangehörige_Gemeinde"},"district":{"key":"15083","name":"Börde","type":"Landkreis"},"federalState":{"key":"15","name":"Sachsen-Anhalt"}},{"name":"Walbecker Str.","postalCode":"39164","locality":"Wanzleben-Börde","municipality":{"key":"15083531","name":"Wanzleben-Börde, Stadt","type":"Stadt"},"district":{"key":"15083","name":"Börde","type":"Landkreis"},"federalState":{"key":"15","name":"Sachsen-Anhalt"}},{"name":"Waldsiedlung","postalCode":"39343","locality":"Hohe Börde","municipality":{"key":"15083298","name":"Hohe Börde","type":"Kreisangehörige_Gemeinde"},"district":{"key":"15083","name":"Börde","type":"Landkreis"},"federalState":{"key":"15","name":"Sachsen-Anhalt"}},{"name":"Waldstr.","postalCode":"39164","locality":"Wanzleben-Börde","municipality":{"key":"15083531","name":"Wanzleben-Börde, Stadt","type":"Stadt"},"district":{"key":"15083","name":"Börde","type":"Landkreis"},"federalState":{"key":"15","name":"Sachsen-Anhalt"}},{"name":"Waldweg","postalCode":"39164","locality":"Wanzleben-Börde","municipality":{"key":"15083531","name":"Wanzleben-Börde, Stadt","type":"Stadt"},"district":{"key":"15083","name":"Börde","type":"Landkreis"},"federalState":{"key":"15","name":"Sachsen-Anhalt"}},{"name":"Wallstr.","postalCode":"39435","locality":"Bördeaue","municipality":{"key":"15089041","name":"Bördeaue","type":"Kreisangehörige_Gemeinde"},"district":{"key":"15089","name":"Salzlandkreis","type":"Landkreis"},"federalState":{"key":"15","name":"Sachsen-Anhalt"}},{"name":"Walter-Husemann-Str.","postalCode":"39435","locality":"Bördeaue","municipality":{"key":"15089041","name":"Bördeaue","type":"Kreisangehörige_Gemeinde"},"district":{"key":"15089","name":"Salzlandkreis","type":"Landkreis"},"federalState":{"key":"15","name":"Sachsen-Anhalt"}},{"name":"Walther-Rathenau-Str.","postalCode":"39164","locality":"Wanzleben-Börde","municipality":{"key":"15083531","name":"Wanzleben-Börde, Stadt","type":"Stadt"},"district":{"key":"15083","name":"Börde","type":"Landkreis"},"federalState":{"key":"15","name":"Sachsen-Anhalt"}},{"name":"Walther-Rathenau-Str.","postalCode":"39167","locality":"Hohe Börde","municipality":{"key":"15083298","name":"Hohe Börde","type":"Kreisangehörige_Gemeinde"},"district":{"key":"15083","name":"Börde","type":"Landkreis"},"federalState":{"key":"15","name":"Sachsen-Anhalt"}},{"name":"Wanzlebener Allee","postalCode":"39164","locality":"Wanzleben-Börde","municipality":{"key":"15083531","name":"Wanzleben-Börde, Stadt","type":"Stadt"},"district":{"key":"15083","name":"Börde","type":"Landkreis"},"federalState":{"key":"15","name":"Sachsen-Anhalt"}},{"name":"Wanzlebener Chaussee","postalCode":"39164","locality":"Wanzleben-Börde","municipality":{"key":"15083531","name":"Wanzleben-Börde, Stadt","type":"Stadt"},"district":{"key":"15083","name":"Börde","type":"Landkreis"},"federalState":{"key":"15","name":"Sachsen-Anhalt"}},{"name":"Wanzlebener Str.","postalCode":"39164","locality":"Wanzleben-Börde","municipality":{"key":"15083531","name":"Wanzleben-Börde, Stadt","type":"Stadt"},"district":{"key":"15083","name":"Börde","type":"Landkreis"},"federalState":{"key":"15","name":"Sachsen-Anhalt"}},{"name":"Wanzlebener Weg","postalCode":"39164","locality":"Wanzleben-Börde","municipality":{"key":"15083531","name":"Wanzleben-Börde, Stadt","type":"Stadt"},"district":{"key":"15083","name":"Börde","type":"Landkreis"},"federalState":{"key":"15","name":"Sachsen-Anhalt"}},{"name":"Wartbergstr.","postalCode":"39167","locality":"Hohe Börde","municipality":{"key":"15083298","name":"Hohe Börde","type":"Kreisangehörige_Gemeinde"},"district":{"key":"15083","name":"Börde","type":"Landkreis"},"federalState":{"key":"15","name":"Sachsen-Anhalt"}},{"name":"Wedringer Str.","postalCode":"39345","locality":"Niedere Börde","municipality":{"key":"15083390","name":"Niedere Börde","type":"Kreisangehörige_Gemeinde"},"district":{"key":"15083","name":"Börde","type":"Landkreis"},"federalState":{"key":"15","name":"Sachsen-Anhalt"}},{"name":"Weidenufer","postalCode":"39448","locality":"Börde-Hakel","municipality":{"key":"15089043","name":"Börde-Hakel","type":"Kreisangehörige_Gemeinde"},"district":{"key":"15089","name":"Salzlandkreis","type":"Landkreis"},"federalState":{"key":"15","name":"Sachsen-Anhalt"}},{"name":"Weidenweg","postalCode":"39343","locality":"Hohe Börde","municipality":{"key":"15083298","name":"Hohe Börde","type":"Kreisangehörige_Gemeinde"},"district":{"key":"15083","name":"Börde","type":"Landkreis"},"federalState":{"key":"15","name":"Sachsen-Anhalt"}},{"name":"Weithochstr.","postalCode":"39448","locality":"Börde-Hakel","municipality":{"key":"15089043","name":"Börde-Hakel","type":"Kreisangehörige_Gemeinde"},"district":{"key":"15089","name":"Salzlandkreis","type":"Landkreis"},"federalState":{"key":"15","name":"Sachsen-Anhalt"}},{"name":"Weizengrund","postalCode":"39167","locality":"Hohe Börde","municipality":{"key":"15083298","name":"Hohe Börde","type":"Kreisangehörige_Gemeinde"},"district":{"key":"15083","name":"Börde","type":"Landkreis"},"federalState":{"key":"15","name":"Sachsen-Anhalt"}},{"name":"Wellenbergstr.","postalCode":"39343","locality":"Hohe Börde","municipality":{"key":"15083298","name":"Hohe Börde","type":"Kreisangehörige_Gemeinde"},"district":{"key":"15083","name":"Börde","type":"Landkreis"},"federalState":{"key":"15","name":"Sachsen-Anhalt"}},{"name":"Wellener Str.","postalCode":"39167","locality":"Hohe Börde","municipality":{"key":"15083298","name":"Hohe Börde","type":"Kreisangehörige_Gemeinde"},"district":{"key":"15083","name":"Börde","type":"Landkreis"},"federalState":{"key":"15","name":"Sachsen-Anhalt"}},{"name":"Wellener Weg","postalCode":"39167","locality":"Hohe Börde","municipality":{"key":"15083298","name":"Hohe Börde","type":"Kreisangehörige_Gemeinde"},"district":{"key":"15083","name":"Börde","type":"Landkreis"},"federalState":{"key":"15","name":"Sachsen-Anhalt"}},{"name":"Wellener Weg","postalCode":"39343","locality":"Hohe Börde","municipality":{"key":"15083298","name":"Hohe Börde","type":"Kreisangehörige_Gemeinde"},"district":{"key":"15083","name":"Börde","type":"Landkreis"},"federalState":{"key":"15","name":"Sachsen-Anhalt"}},{"name":"Wellner Str.","postalCode":"39164","locality":"Wanzleben-Börde","municipality":{"key":"15083531","name":"Wanzleben-Börde, Stadt","type":"Stadt"},"district":{"key":"15083","name":"Börde","type":"Landkreis"},"federalState":{"key":"15","name":"Sachsen-Anhalt"}},{"name":"Welsche Mühle","postalCode":"39164","locality":"Wanzleben-Börde","municipality":{"key":"15083531","name":"Wanzleben-Börde, Stadt","type":"Stadt"},"district":{"key":"15083","name":"Börde","type":"Landkreis"},"federalState":{"key":"15","name":"Sachsen-Anhalt"}},{"name":"Welsche Str.","postalCode":"39164","locality":"Wanzleben-Börde","municipality":{"key":"15083531","name":"Wanzleben-Börde, Stadt","type":"Stadt"},"district":{"key":"15083","name":"Börde","type":"Landkreis"},"federalState":{"key":"15","name":"Sachsen-Anhalt"}},{"name":"Welslebener Str.","postalCode":"39221","locality":"Bördeland","municipality":{"key":"15089042","name":"Bördeland","type":"Kreisangehörige_Gemeinde"},"district":{"key":"15089","name":"Salzlandkreis","type":"Landkreis"},"federalState":{"key":"15","name":"Sachsen-Anhalt"}},{"name":"Wendische Str.","postalCode":"39221","locality":"Bördeland","municipality":{"key":"15089042","name":"Bördeland","type":"Kreisangehörige_Gemeinde"},"district":{"key":"15089","name":"Salzlandkreis","type":"Landkreis"},"federalState":{"key":"15","name":"Sachsen-Anhalt"}},{"name":"Westerntor","postalCode":"39326","locality":"Niedere Börde","municipality":{"key":"15083390","name":"Niedere Börde","type":"Kreisangehörige_Gemeinde"},"district":{"key":"15083","name":"Börde","type":"Landkreis"},"federalState":{"key":"15","name":"Sachsen-Anhalt"}},{"name":"Westertor","postalCode":"39326","locality":"Niedere Börde","municipality":{"key":"15083390","name":"Niedere Börde","type":"Kreisangehörige_Gemeinde"},"district":{"key":"15083","name":"Börde","type":"Landkreis"},"federalState":{"key":"15","name":"Sachsen-Anhalt"}},{"name":"Westerwiesenweg","postalCode":"39167","locality":"Hohe Börde","municipality":{"key":"15083298","name":"Hohe Börde","type":"Kreisangehörige_Gemeinde"},"district":{"key":"15083","name":"Börde","type":"Landkreis"},"federalState":{"key":"15","name":"Sachsen-Anhalt"}},{"name":"Weststr.","postalCode":"39221","locality":"Bördeland","municipality":{"key":"15089042","name":"Bördeland","type":"Kreisangehörige_Gemeinde"},"district":{"key":"15089","name":"Salzlandkreis","type":"Landkreis"},"federalState":{"key":"15","name":"Sachsen-Anhalt"}},{"name":"Wiesenblick","postalCode":"39164","locality":"Wanzleben-Börde","municipality":{"key":"15083531","name":"Wanzleben-Börde, Stadt","type":"Stadt"},"district":{"key":"15083","name":"Börde","type":"Landkreis"},"federalState":{"key":"15","name":"Sachsen-Anhalt"}},{"name":"Wiesengrund","postalCode":"39167","locality":"Hohe Börde","municipality":{"key":"15083298","name":"Hohe Börde","type":"Kreisangehörige_Gemeinde"},"district":{"key":"15083","name":"Börde","type":"Landkreis"},"federalState":{"key":"15","name":"Sachsen-Anhalt"}},{"name":"Wiesenstr.","postalCode":"39221","locality":"Bördeland","municipality":{"key":"15089042","name":"Bördeland","type":"Kreisangehörige_Gemeinde"},"district":{"key":"15089","name":"Salzlandkreis","type":"Landkreis"},"federalState":{"key":"15","name":"Sachsen-Anhalt"}},{"name":"Wiesentor","postalCode":"39326","locality":"Niedere Börde","municipality":{"key":"15083390","name":"Niedere Börde","type":"Kreisangehörige_Gemeinde"},"district":{"key":"15083","name":"Börde","type":"Landkreis"},"federalState":{"key":"15","name":"Sachsen-Anhalt"}},{"name":"Wiesenweg","postalCode":"39164","locality":"Wanzleben-Börde","municipality":{"key":"15083531","name":"Wanzleben-Börde, Stadt","type":"Stadt"},"district":{"key":"15083","name":"Börde","type":"Landkreis"},"federalState":{"key":"15","name":"Sachsen-Anhalt"}},{"name":"Wiesenweg","postalCode":"39167","locality":"Hohe Börde","municipality":{"key":"15083298","name":"Hohe Börde","type":"Kreisangehörige_Gemeinde"},"district":{"key":"15083","name":"Börde","type":"Landkreis"},"federalState":{"key":"15","name":"Sachsen-Anhalt"}},{"name":"Wiesenweg","postalCode":"39343","locality":"Hohe Börde","municipality":{"key":"15083298","name":"Hohe Börde","type":"Kreisangehörige_Gemeinde"},"district":{"key":"15083","name":"Börde","type":"Landkreis"},"federalState":{"key":"15","name":"Sachsen-Anhalt"}},{"name":"Windmühlenbreite","postalCode":"39164","locality":"Wanzleben-Börde","municipality":{"key":"15083531","name":"Wanzleben-Börde, Stadt","type":"Stadt"},"district":{"key":"15083","name":"Börde","type":"Landkreis"},"federalState":{"key":"15","name":"Sachsen-Anhalt"}},{"name":"Winkel","postalCode":"39164","locality":"Wanzleben-Börde","municipality":{"key":"15083531","name":"Wanzleben-Börde, Stadt","type":"Stadt"},"district":{"key":"15083","name":"Börde","type":"Landkreis"},"federalState":{"key":"15","name":"Sachsen-Anhalt"}},{"name":"Winkel","postalCode":"39167","locality":"Hohe Börde","municipality":{"key":"15083298","name":"Hohe Börde","type":"Kreisangehörige_Gemeinde"},"district":{"key":"15083","name":"Börde","type":"Landkreis"},"federalState":{"key":"15","name":"Sachsen-Anhalt"}},{"name":"Winkel","postalCode":"39326","locality":"Niedere Börde","municipality":{"key":"15083390","name":"Niedere Börde","type":"Kreisangehörige_Gemeinde"},"district":{"key":"15083","name":"Börde","type":"Landkreis"},"federalState":{"key":"15","name":"Sachsen-Anhalt"}},{"name":"Winkelgartenstr.","postalCode":"39221","locality":"Bördeland","municipality":{"key":"15089042","name":"Bördeland","type":"Kreisangehörige_Gemeinde"},"district":{"key":"15089","name":"Salzlandkreis","type":"Landkreis"},"federalState":{"key":"15","name":"Sachsen-Anhalt"}},{"name":"Wöhllstr.","postalCode":"39435","locality":"Bördeaue","municipality":{"key":"15089041","name":"Bördeaue","type":"Kreisangehörige_Gemeinde"},"district":{"key":"15089","name":"Salzlandkreis","type":"Landkreis"},"federalState":{"key":"15","name":"Sachsen-Anhalt"}},{"name":"Wollgasse","postalCode":"39167","locality":"Hohe Börde","municipality":{"key":"15083298","name":"Hohe Börde","type":"Kreisangehörige_Gemeinde"},"district":{"key":"15083","name":"Börde","type":"Landkreis"},"federalState":{"key":"15","name":"Sachsen-Anhalt"}},{"name":"Wolmirstedter Str.","postalCode":"39326","locality":"Niedere Börde","municipality":{"key":"15083390","name":"Niedere Börde","type":"Kreisangehörige_Gemeinde"},"district":{"key":"15083","name":"Börde","type":"Landkreis"},"federalState":{"key":"15","name":"Sachsen-Anhalt"}},{"name":"Worth","postalCode":"39221","locality":"Bördeland","municipality":{"key":"15089042","name":"Bördeland","type":"Kreisangehörige_Gemeinde"},"district":{"key":"15089","name":"Salzlandkreis","type":"Landkreis"},"federalState":{"key":"15","name":"Sachsen-Anhalt"}},{"name":"Worthstr.","postalCode":"39435","locality":"Bördeaue","municipality":{"key":"15089041","name":"Bördeaue","type":"Kreisangehörige_Gemeinde"},"district":{"key":"15089","name":"Salzlandkreis","type":"Landkreis"},"federalState":{"key":"15","name":"Sachsen-Anhalt"}},{"name":"Worthstr.","postalCode":"39448","locality":"Börde-Hakel","municipality":{"key":"15089043","name":"Börde-Hakel","type":"Kreisangehörige_Gemeinde"},"district":{"key":"15089","name":"Salzlandkreis","type":"Landkreis"},"federalState":{"key":"15","name":"Sachsen-Anhalt"}},{"name":"Zenser Str.","postalCode":"39221","locality":"Bördeland","municipality":{"key":"15089042","name":"Bördeland","type":"Kreisangehörige_Gemeinde"},"district":{"key":"15089","name":"Salzlandkreis","type":"Landkreis"},"federalState":{"key":"15","name":"Sachsen-Anhalt"}},{"name":"Zollstange","postalCode":"39343","locality":"Hohe Börde","municipality":{"key":"15083298","name":"Hohe Börde","type":"Kreisangehörige_Gemeinde"},"district":{"key":"15083","name":"Börde","type":"Landkreis"},"federalState":{"key":"15","name":"Sachsen-Anhalt"}},{"name":"Zum Anger","postalCode":"39343","locality":"Hohe Börde","municipality":{"key":"15083298","name":"Hohe Börde","type":"Kreisangehörige_Gemeinde"},"district":{"key":"15083","name":"Börde","type":"Landkreis"},"federalState":{"key":"15","name":"Sachsen-Anhalt"}},{"name":"Zum Fahlen Klei","postalCode":"39326","locality":"Niedere Börde","municipality":{"key":"15083390","name":"Niedere Börde","type":"Kreisangehörige_Gemeinde"},"district":{"key":"15083","name":"Börde","type":"Landkreis"},"federalState":{"key":"15","name":"Sachsen-Anhalt"}},{"name":"Zum Feld","postalCode":"39167","locality":"Hohe Börde","municipality":{"key":"15083298","name":"Hohe Börde","type":"Kreisangehörige_Gemeinde"},"district":{"key":"15083","name":"Börde","type":"Landkreis"},"federalState":{"key":"15","name":"Sachsen-Anhalt"}},{"name":"Zum Gut","postalCode":"39343","locality":"Hohe Börde","municipality":{"key":"15083298","name":"Hohe Börde","type":"Kreisangehörige_Gemeinde"},"district":{"key":"15083","name":"Börde","type":"Landkreis"},"federalState":{"key":"15","name":"Sachsen-Anhalt"}},{"name":"Zum Hoppelberg","postalCode":"39164","locality":"Wanzleben-Börde","municipality":{"key":"15083531","name":"Wanzleben-Börde, Stadt","type":"Stadt"},"district":{"key":"15083","name":"Börde","type":"Landkreis"},"federalState":{"key":"15","name":"Sachsen-Anhalt"}},{"name":"Zum Kaliberg","postalCode":"39326","locality":"Niedere Börde","municipality":{"key":"15083390","name":"Niedere Börde","type":"Kreisangehörige_Gemeinde"},"district":{"key":"15083","name":"Börde","type":"Landkreis"},"federalState":{"key":"15","name":"Sachsen-Anhalt"}},{"name":"Zum Krug","postalCode":"39343","locality":"Hohe Börde","municipality":{"key":"15083298","name":"Hohe Börde","type":"Kreisangehörige_Gemeinde"},"district":{"key":"15083","name":"Börde","type":"Landkreis"},"federalState":{"key":"15","name":"Sachsen-Anhalt"}},{"name":"Zum Olbetal","postalCode":"39343","locality":"Hohe Börde","municipality":{"key":"15083298","name":"Hohe Börde","type":"Kreisangehörige_Gemeinde"},"district":{"key":"15083","name":"Börde","type":"Landkreis"},"federalState":{"key":"15","name":"Sachsen-Anhalt"}},{"name":"Zum Raukler","postalCode":"39326","locality":"Hohe Börde","municipality":{"key":"15083298","name":"Hohe Börde","type":"Kreisangehörige_Gemeinde"},"district":{"key":"15083","name":"Börde","type":"Landkreis"},"federalState":{"key":"15","name":"Sachsen-Anhalt"}},{"name":"Zum Schloss","postalCode":"39167","locality":"Hohe Börde","municipality":{"key":"15083298","name":"Hohe Börde","type":"Kreisangehörige_Gemeinde"},"district":{"key":"15083","name":"Börde","type":"Landkreis"},"federalState":{"key":"15","name":"Sachsen-Anhalt"}},{"name":"Zum See","postalCode":"39326","locality":"Niedere Börde","municipality":{"key":"15083390","name":"Niedere Börde","type":"Kreisangehörige_Gemeinde"},"district":{"key":"15083","name":"Börde","type":"Landkreis"},"federalState":{"key":"15","name":"Sachsen-Anhalt"}},{"name":"Zum Seeblick","postalCode":"39326","locality":"Hohe Börde","municipality":{"key":"15083298","name":"Hohe Börde","type":"Kreisangehörige_Gemeinde"},"district":{"key":"15083","name":"Börde","type":"Landkreis"},"federalState":{"key":"15","name":"Sachsen-Anhalt"}},{"name":"Zum Siekweg","postalCode":"39343","locality":"Hohe Börde","municipality":{"key":"15083298","name":"Hohe Börde","type":"Kreisangehörige_Gemeinde"},"district":{"key":"15083","name":"Börde","type":"Landkreis"},"federalState":{"key":"15","name":"Sachsen-Anhalt"}},{"name":"Zum Sportplatz","postalCode":"39164","locality":"Wanzleben-Börde","municipality":{"key":"15083531","name":"Wanzleben-Börde, Stadt","type":"Stadt"},"district":{"key":"15083","name":"Börde","type":"Landkreis"},"federalState":{"key":"15","name":"Sachsen-Anhalt"}},{"name":"Zum Sportplatz","postalCode":"39343","locality":"Hohe Börde","municipality":{"key":"15083298","name":"Hohe Börde","type":"Kreisangehörige_Gemeinde"},"district":{"key":"15083","name":"Börde","type":"Landkreis"},"federalState":{"key":"15","name":"Sachsen-Anhalt"}},{"name":"Zum Stobenbrunnen","postalCode":"39343","locality":"Hohe Börde","municipality":{"key":"15083298","name":"Hohe Börde","type":"Kreisangehörige_Gemeinde"},"district":{"key":"15083","name":"Börde","type":"Landkreis"},"federalState":{"key":"15","name":"Sachsen-Anhalt"}},{"name":"Zum Tal","postalCode":"39167","locality":"Hohe Börde","municipality":{"key":"15083298","name":"Hohe Börde","type":"Kreisangehörige_Gemeinde"},"district":{"key":"15083","name":"Börde","type":"Landkreis"},"federalState":{"key":"15","name":"Sachsen-Anhalt"}},{"name":"Zum Wasserturm","postalCode":"39448","locality":"Börde-Hakel","municipality":{"key":"15089043","name":"Börde-Hakel","type":"Kreisangehörige_Gemeinde"},"district":{"key":"15089","name":"Salzlandkreis","type":"Landkreis"},"federalState":{"key":"15","name":"Sachsen-Anhalt"}},{"name":"Zum Wehr","postalCode":"39343","locality":"Hohe Börde","municipality":{"key":"15083298","name":"Hohe Börde","type":"Kreisangehörige_Gemeinde"},"district":{"key":"15083","name":"Börde","type":"Landkreis"},"federalState":{"key":"15","name":"Sachsen-Anhalt"}},{"name":"Zum Weißen Schacht","postalCode":"39343","locality":"Hohe Börde","municipality":{"key":"15083298","name":"Hohe Börde","type":"Kreisangehörige_Gemeinde"},"district":{"key":"15083","name":"Börde","type":"Landkreis"},"federalState":{"key":"15","name":"Sachsen-Anhalt"}},{"name":"Zum Winkel","postalCode":"39343","locality":"Hohe Börde","municipality":{"key":"15083298","name":"Hohe Börde","type":"Kreisangehörige_Gemeinde"},"district":{"key":"15083","name":"Börde","type":"Landkreis"},"federalState":{"key":"15","name":"Sachsen-Anhalt"}},{"name":"Zur alten Mühle","postalCode":"39326","locality":"Hohe Börde","municipality":{"key":"15083298","name":"Hohe Börde","type":"Kreisangehörige_Gemeinde"},"district":{"key":"15083","name":"Börde","type":"Landkreis"},"federalState":{"key":"15","name":"Sachsen-Anhalt"}},{"name":"Zur Daukuhle","postalCode":"39326","locality":"Niedere Börde","municipality":{"key":"15083390","name":"Niedere Börde","type":"Kreisangehörige_Gemeinde"},"district":{"key":"15083","name":"Börde","type":"Landkreis"},"federalState":{"key":"15","name":"Sachsen-Anhalt"}},{"name":"Zur hohlen Grube","postalCode":"39221","locality":"Bördeland","municipality":{"key":"15089042","name":"Bördeland","type":"Kreisangehörige_Gemeinde"},"district":{"key":"15089","name":"Salzlandkreis","type":"Landkreis"},"federalState":{"key":"15","name":"Sachsen-Anhalt"}},{"name":"Zur Jagdhütte","postalCode":"39164","locality":"Wanzleben-Börde","municipality":{"key":"15083531","name":"Wanzleben-Börde, Stadt","type":"Stadt"},"district":{"key":"15083","name":"Börde","type":"Landkreis"},"federalState":{"key":"15","name":"Sachsen-Anhalt"}},{"name":"Zur K1155","postalCode":"39167","locality":"Hohe Börde","municipality":{"key":"15083298","name":"Hohe Börde","type":"Kreisangehörige_Gemeinde"},"district":{"key":"15083","name":"Börde","type":"Landkreis"},"federalState":{"key":"15","name":"Sachsen-Anhalt"}},{"name":"Zur Magdeburger Str.","postalCode":"39164","locality":"Wanzleben-Börde","municipality":{"key":"15083531","name":"Wanzleben-Börde, Stadt","type":"Stadt"},"district":{"key":"15083","name":"Börde","type":"Landkreis"},"federalState":{"key":"15","name":"Sachsen-Anhalt"}},{"name":"Zur Molkerei","postalCode":"39448","locality":"Börde-Hakel","municipality":{"key":"15089043","name":"Börde-Hakel","type":"Kreisangehörige_Gemeinde"},"district":{"key":"15089","name":"Salzlandkreis","type":"Landkreis"},"federalState":{"key":"15","name":"Sachsen-Anhalt"}},{"name":"Zur Röthe","postalCode":"39164","locality":"Wanzleben-Börde","municipality":{"key":"15083531","name":"Wanzleben-Börde, Stadt","type":"Stadt"},"district":{"key":"15083","name":"Börde","type":"Landkreis"},"federalState":{"key":"15","name":"Sachsen-Anhalt"}},{"name":"Zur Technik","postalCode":"39221","locality":"Bördeland","municipality":{"key":"15089042","name":"Bördeland","type":"Kreisangehörige_Gemeinde"},"district":{"key":"15089","name":"Salzlandkreis","type":"Landkreis"},"federalState":{"key":"15","name":"Sachsen-Anhalt"}},{"name":"Zur Wilke","postalCode":"39326","locality":"Niedere Börde","municipality":{"key":"15083390","name":"Niedere Börde","type":"Kreisangehörige_Gemeinde"},"district":{"key":"15083","name":"Börde","type":"Landkreis"},"federalState":{"key":"15","name":"Sachsen-Anhalt"}},{"name":"Zur Zollstange","postalCode":"39343","locality":"Hohe Börde","municipality":{"key":"15083298","name":"Hohe Börde","type":"Kreisangehörige_Gemeinde"},"district":{"key":"15083","name":"Börde","type":"Landkreis"},"federalState":{"key":"15","name":"Sachsen-Anhalt"}},{"name":"Österling","postalCode":"39164","locality":"Wanzleben-Börde","municipality":{"key":"15083531","name":"Wanzleben-Börde, Stadt","type":"Stadt"},"district":{"key":"15083","name":"Börde","type":"Landkreis"},"federalState":{"key":"15","name":"Sachsen-Anhalt"}},]