[{"name":"Achalmstr.","postalCode":"73230","locality":"Kirchheim unter Teck","municipality":{"key":"08116033","name":"Kirchheim unter Teck, Stadt","type":"Große_Kreisstadt"},"district":{"key":"08116","name":"Esslingen","type":"Landkreis"},"federalState":{"key":"08","name":"Baden-Württemberg"}},{"name":"Aichelbergstr.","postalCode":"73230","locality":"Kirchheim unter Teck","municipality":{"key":"08116033","name":"Kirchheim unter Teck, Stadt","type":"Große_Kreisstadt"},"district":{"key":"08116","name":"Esslingen","type":"Landkreis"},"federalState":{"key":"08","name":"Baden-Württemberg"}},{"name":"Albert-Schweitzer-Str.","postalCode":"73230","locality":"Kirchheim unter Teck","municipality":{"key":"08116033","name":"Kirchheim unter Teck, Stadt","type":"Große_Kreisstadt"},"district":{"key":"08116","name":"Esslingen","type":"Landkreis"},"federalState":{"key":"08","name":"Baden-Württemberg"}},{"name":"Albstr.","postalCode":"73230","locality":"Kirchheim unter Teck","municipality":{"key":"08116033","name":"Kirchheim unter Teck, Stadt","type":"Große_Kreisstadt"},"district":{"key":"08116","name":"Esslingen","type":"Landkreis"},"federalState":{"key":"08","name":"Baden-Württemberg"}},{"name":"Alemannenstr.","postalCode":"73230","locality":"Kirchheim unter Teck","municipality":{"key":"08116033","name":"Kirchheim unter Teck, Stadt","type":"Große_Kreisstadt"},"district":{"key":"08116","name":"Esslingen","type":"Landkreis"},"federalState":{"key":"08","name":"Baden-Württemberg"}},{"name":"Alleenstr.","postalCode":"73230","locality":"Kirchheim unter Teck","municipality":{"key":"08116033","name":"Kirchheim unter Teck, Stadt","type":"Große_Kreisstadt"},"district":{"key":"08116","name":"Esslingen","type":"Landkreis"},"federalState":{"key":"08","name":"Baden-Württemberg"}},{"name":"Allmerweg","postalCode":"73230","locality":"Kirchheim unter Teck","municipality":{"key":"08116033","name":"Kirchheim unter Teck, Stadt","type":"Große_Kreisstadt"},"district":{"key":"08116","name":"Esslingen","type":"Landkreis"},"federalState":{"key":"08","name":"Baden-Württemberg"}},{"name":"Alte Kirchheimer Str.","postalCode":"73230","locality":"Kirchheim unter Teck","municipality":{"key":"08116033","name":"Kirchheim unter Teck, Stadt","type":"Große_Kreisstadt"},"district":{"key":"08116","name":"Esslingen","type":"Landkreis"},"federalState":{"key":"08","name":"Baden-Württemberg"}},{"name":"Alte Plochinger Steige","postalCode":"73230","locality":"Kirchheim unter Teck","municipality":{"key":"08116033","name":"Kirchheim unter Teck, Stadt","type":"Große_Kreisstadt"},"district":{"key":"08116","name":"Esslingen","type":"Landkreis"},"federalState":{"key":"08","name":"Baden-Württemberg"}},{"name":"Alte Schlierbacher Str.","postalCode":"73230","locality":"Kirchheim unter Teck","municipality":{"key":"08116033","name":"Kirchheim unter Teck, Stadt","type":"Große_Kreisstadt"},"district":{"key":"08116","name":"Esslingen","type":"Landkreis"},"federalState":{"key":"08","name":"Baden-Württemberg"}},{"name":"Alte Weilheimer Str.","postalCode":"73230","locality":"Kirchheim unter Teck","municipality":{"key":"08116033","name":"Kirchheim unter Teck, Stadt","type":"Große_Kreisstadt"},"district":{"key":"08116","name":"Esslingen","type":"Landkreis"},"federalState":{"key":"08","name":"Baden-Württemberg"}},{"name":"Altvaterweg","postalCode":"73230","locality":"Kirchheim unter Teck","municipality":{"key":"08116033","name":"Kirchheim unter Teck, Stadt","type":"Große_Kreisstadt"},"district":{"key":"08116","name":"Esslingen","type":"Landkreis"},"federalState":{"key":"08","name":"Baden-Württemberg"}},{"name":"Am Gänskragen","postalCode":"73230","locality":"Kirchheim unter Teck","municipality":{"key":"08116033","name":"Kirchheim unter Teck, Stadt","type":"Große_Kreisstadt"},"district":{"key":"08116","name":"Esslingen","type":"Landkreis"},"federalState":{"key":"08","name":"Baden-Württemberg"}},{"name":"Am Haselbusch","postalCode":"73230","locality":"Kirchheim unter Teck","municipality":{"key":"08116033","name":"Kirchheim unter Teck, Stadt","type":"Große_Kreisstadt"},"district":{"key":"08116","name":"Esslingen","type":"Landkreis"},"federalState":{"key":"08","name":"Baden-Württemberg"}},{"name":"Am Hegelesberg","postalCode":"73230","locality":"Kirchheim unter Teck","municipality":{"key":"08116033","name":"Kirchheim unter Teck, Stadt","type":"Große_Kreisstadt"},"district":{"key":"08116","name":"Esslingen","type":"Landkreis"},"federalState":{"key":"08","name":"Baden-Württemberg"}},{"name":"Am Hohenreisach","postalCode":"73230","locality":"Kirchheim unter Teck","municipality":{"key":"08116033","name":"Kirchheim unter Teck, Stadt","type":"Große_Kreisstadt"},"district":{"key":"08116","name":"Esslingen","type":"Landkreis"},"federalState":{"key":"08","name":"Baden-Württemberg"}},{"name":"Am Holderbusch","postalCode":"73230","locality":"Kirchheim unter Teck","municipality":{"key":"08116033","name":"Kirchheim unter Teck, Stadt","type":"Große_Kreisstadt"},"district":{"key":"08116","name":"Esslingen","type":"Landkreis"},"federalState":{"key":"08","name":"Baden-Württemberg"}},{"name":"Am Kegelesbach","postalCode":"73230","locality":"Kirchheim unter Teck","municipality":{"key":"08116033","name":"Kirchheim unter Teck, Stadt","type":"Große_Kreisstadt"},"district":{"key":"08116","name":"Esslingen","type":"Landkreis"},"federalState":{"key":"08","name":"Baden-Württemberg"}},{"name":"Am Lindele","postalCode":"73230","locality":"Kirchheim unter Teck","municipality":{"key":"08116033","name":"Kirchheim unter Teck, Stadt","type":"Große_Kreisstadt"},"district":{"key":"08116","name":"Esslingen","type":"Landkreis"},"federalState":{"key":"08","name":"Baden-Württemberg"}},{"name":"Am Ochsenrain","postalCode":"73230","locality":"Kirchheim unter Teck","municipality":{"key":"08116033","name":"Kirchheim unter Teck, Stadt","type":"Große_Kreisstadt"},"district":{"key":"08116","name":"Esslingen","type":"Landkreis"},"federalState":{"key":"08","name":"Baden-Württemberg"}},{"name":"Amselweg","postalCode":"73230","locality":"Kirchheim unter Teck","municipality":{"key":"08116033","name":"Kirchheim unter Teck, Stadt","type":"Große_Kreisstadt"},"district":{"key":"08116","name":"Esslingen","type":"Landkreis"},"federalState":{"key":"08","name":"Baden-Württemberg"}},{"name":"Am Wasen","postalCode":"73230","locality":"Kirchheim unter Teck","municipality":{"key":"08116033","name":"Kirchheim unter Teck, Stadt","type":"Große_Kreisstadt"},"district":{"key":"08116","name":"Esslingen","type":"Landkreis"},"federalState":{"key":"08","name":"Baden-Württemberg"}},{"name":"Am Wiesenrain","postalCode":"73230","locality":"Kirchheim unter Teck","municipality":{"key":"08116033","name":"Kirchheim unter Teck, Stadt","type":"Große_Kreisstadt"},"district":{"key":"08116","name":"Esslingen","type":"Landkreis"},"federalState":{"key":"08","name":"Baden-Württemberg"}},{"name":"Annabergstr.","postalCode":"73230","locality":"Kirchheim unter Teck","municipality":{"key":"08116033","name":"Kirchheim unter Teck, Stadt","type":"Große_Kreisstadt"},"district":{"key":"08116","name":"Esslingen","type":"Landkreis"},"federalState":{"key":"08","name":"Baden-Württemberg"}},{"name":"Arberstr.","postalCode":"73230","locality":"Kirchheim unter Teck","municipality":{"key":"08116033","name":"Kirchheim unter Teck, Stadt","type":"Große_Kreisstadt"},"district":{"key":"08116","name":"Esslingen","type":"Landkreis"},"federalState":{"key":"08","name":"Baden-Württemberg"}},{"name":"Argonnenweg","postalCode":"73230","locality":"Kirchheim unter Teck","municipality":{"key":"08116033","name":"Kirchheim unter Teck, Stadt","type":"Große_Kreisstadt"},"district":{"key":"08116","name":"Esslingen","type":"Landkreis"},"federalState":{"key":"08","name":"Baden-Württemberg"}},{"name":"Armbruststr.","postalCode":"73230","locality":"Kirchheim unter Teck","municipality":{"key":"08116033","name":"Kirchheim unter Teck, Stadt","type":"Große_Kreisstadt"},"district":{"key":"08116","name":"Esslingen","type":"Landkreis"},"federalState":{"key":"08","name":"Baden-Württemberg"}},{"name":"Arnulfstr.","postalCode":"73230","locality":"Kirchheim unter Teck","municipality":{"key":"08116033","name":"Kirchheim unter Teck, Stadt","type":"Große_Kreisstadt"},"district":{"key":"08116","name":"Esslingen","type":"Landkreis"},"federalState":{"key":"08","name":"Baden-Württemberg"}},{"name":"Asangweg","postalCode":"73230","locality":"Kirchheim unter Teck","municipality":{"key":"08116033","name":"Kirchheim unter Teck, Stadt","type":"Große_Kreisstadt"},"district":{"key":"08116","name":"Esslingen","type":"Landkreis"},"federalState":{"key":"08","name":"Baden-Württemberg"}},{"name":"Asbachweg","postalCode":"73230","locality":"Kirchheim unter Teck","municipality":{"key":"08116033","name":"Kirchheim unter Teck, Stadt","type":"Große_Kreisstadt"},"district":{"key":"08116","name":"Esslingen","type":"Landkreis"},"federalState":{"key":"08","name":"Baden-Württemberg"}},{"name":"Asternweg","postalCode":"73230","locality":"Kirchheim unter Teck","municipality":{"key":"08116033","name":"Kirchheim unter Teck, Stadt","type":"Große_Kreisstadt"},"district":{"key":"08116","name":"Esslingen","type":"Landkreis"},"federalState":{"key":"08","name":"Baden-Württemberg"}},{"name":"Auerbacherweg","postalCode":"73230","locality":"Kirchheim unter Teck","municipality":{"key":"08116033","name":"Kirchheim unter Teck, Stadt","type":"Große_Kreisstadt"},"district":{"key":"08116","name":"Esslingen","type":"Landkreis"},"federalState":{"key":"08","name":"Baden-Württemberg"}},{"name":"Auf dem Berg","postalCode":"73230","locality":"Kirchheim unter Teck","municipality":{"key":"08116033","name":"Kirchheim unter Teck, Stadt","type":"Große_Kreisstadt"},"district":{"key":"08116","name":"Esslingen","type":"Landkreis"},"federalState":{"key":"08","name":"Baden-Württemberg"}},{"name":"Austr.","postalCode":"73230","locality":"Kirchheim unter Teck","municipality":{"key":"08116033","name":"Kirchheim unter Teck, Stadt","type":"Große_Kreisstadt"},"district":{"key":"08116","name":"Esslingen","type":"Landkreis"},"federalState":{"key":"08","name":"Baden-Württemberg"}},{"name":"Bachstr.","postalCode":"73230","locality":"Kirchheim unter Teck","municipality":{"key":"08116033","name":"Kirchheim unter Teck, Stadt","type":"Große_Kreisstadt"},"district":{"key":"08116","name":"Esslingen","type":"Landkreis"},"federalState":{"key":"08","name":"Baden-Württemberg"}},{"name":"Badwiesen","postalCode":"73230","locality":"Kirchheim unter Teck","municipality":{"key":"08116033","name":"Kirchheim unter Teck, Stadt","type":"Große_Kreisstadt"},"district":{"key":"08116","name":"Esslingen","type":"Landkreis"},"federalState":{"key":"08","name":"Baden-Württemberg"}},{"name":"Bahnhofstr.","postalCode":"73230","locality":"Kirchheim unter Teck","municipality":{"key":"08116033","name":"Kirchheim unter Teck, Stadt","type":"Große_Kreisstadt"},"district":{"key":"08116","name":"Esslingen","type":"Landkreis"},"federalState":{"key":"08","name":"Baden-Württemberg"}},{"name":"Bärsauweg","postalCode":"73230","locality":"Kirchheim unter Teck","municipality":{"key":"08116033","name":"Kirchheim unter Teck, Stadt","type":"Große_Kreisstadt"},"district":{"key":"08116","name":"Esslingen","type":"Landkreis"},"federalState":{"key":"08","name":"Baden-Württemberg"}},{"name":"Beethovenstr.","postalCode":"73230","locality":"Kirchheim unter Teck","municipality":{"key":"08116033","name":"Kirchheim unter Teck, Stadt","type":"Große_Kreisstadt"},"district":{"key":"08116","name":"Esslingen","type":"Landkreis"},"federalState":{"key":"08","name":"Baden-Württemberg"}},{"name":"Beim Hungerbrünnele","postalCode":"73230","locality":"Kirchheim unter Teck","municipality":{"key":"08116033","name":"Kirchheim unter Teck, Stadt","type":"Große_Kreisstadt"},"district":{"key":"08116","name":"Esslingen","type":"Landkreis"},"federalState":{"key":"08","name":"Baden-Württemberg"}},{"name":"Beim Schießwasen","postalCode":"73230","locality":"Kirchheim unter Teck","municipality":{"key":"08116033","name":"Kirchheim unter Teck, Stadt","type":"Große_Kreisstadt"},"district":{"key":"08116","name":"Esslingen","type":"Landkreis"},"federalState":{"key":"08","name":"Baden-Württemberg"}},{"name":"Beim Siechenkirchle","postalCode":"73230","locality":"Kirchheim unter Teck","municipality":{"key":"08116033","name":"Kirchheim unter Teck, Stadt","type":"Große_Kreisstadt"},"district":{"key":"08116","name":"Esslingen","type":"Landkreis"},"federalState":{"key":"08","name":"Baden-Württemberg"}},{"name":"Beim Südbahnhof","postalCode":"73230","locality":"Kirchheim unter Teck","municipality":{"key":"08116033","name":"Kirchheim unter Teck, Stadt","type":"Große_Kreisstadt"},"district":{"key":"08116","name":"Esslingen","type":"Landkreis"},"federalState":{"key":"08","name":"Baden-Württemberg"}},{"name":"Benzenhofweg","postalCode":"73230","locality":"Kirchheim unter Teck","municipality":{"key":"08116033","name":"Kirchheim unter Teck, Stadt","type":"Große_Kreisstadt"},"district":{"key":"08116","name":"Esslingen","type":"Landkreis"},"federalState":{"key":"08","name":"Baden-Württemberg"}},{"name":"Bergstr.","postalCode":"73230","locality":"Kirchheim unter Teck","municipality":{"key":"08116033","name":"Kirchheim unter Teck, Stadt","type":"Große_Kreisstadt"},"district":{"key":"08116","name":"Esslingen","type":"Landkreis"},"federalState":{"key":"08","name":"Baden-Württemberg"}},{"name":"Bettenhardtweg","postalCode":"73230","locality":"Kirchheim unter Teck","municipality":{"key":"08116033","name":"Kirchheim unter Teck, Stadt","type":"Große_Kreisstadt"},"district":{"key":"08116","name":"Esslingen","type":"Landkreis"},"federalState":{"key":"08","name":"Baden-Württemberg"}},{"name":"Bettenhartweg","postalCode":"73230","locality":"Kirchheim unter Teck","municipality":{"key":"08116033","name":"Kirchheim unter Teck, Stadt","type":"Große_Kreisstadt"},"district":{"key":"08116","name":"Esslingen","type":"Landkreis"},"federalState":{"key":"08","name":"Baden-Württemberg"}},{"name":"Birkenallee","postalCode":"73230","locality":"Kirchheim unter Teck","municipality":{"key":"08116033","name":"Kirchheim unter Teck, Stadt","type":"Große_Kreisstadt"},"district":{"key":"08116","name":"Esslingen","type":"Landkreis"},"federalState":{"key":"08","name":"Baden-Württemberg"}},{"name":"Birkenweg","postalCode":"73230","locality":"Kirchheim unter Teck","municipality":{"key":"08116033","name":"Kirchheim unter Teck, Stadt","type":"Große_Kreisstadt"},"district":{"key":"08116","name":"Esslingen","type":"Landkreis"},"federalState":{"key":"08","name":"Baden-Württemberg"}},{"name":"Birkhahnweg","postalCode":"73230","locality":"Kirchheim unter Teck","municipality":{"key":"08116033","name":"Kirchheim unter Teck, Stadt","type":"Große_Kreisstadt"},"district":{"key":"08116","name":"Esslingen","type":"Landkreis"},"federalState":{"key":"08","name":"Baden-Württemberg"}},{"name":"Birkhauweg","postalCode":"73230","locality":"Kirchheim unter Teck","municipality":{"key":"08116033","name":"Kirchheim unter Teck, Stadt","type":"Große_Kreisstadt"},"district":{"key":"08116","name":"Esslingen","type":"Landkreis"},"federalState":{"key":"08","name":"Baden-Württemberg"}},{"name":"Bismarckstr.","postalCode":"73230","locality":"Kirchheim unter Teck","municipality":{"key":"08116033","name":"Kirchheim unter Teck, Stadt","type":"Große_Kreisstadt"},"district":{"key":"08116","name":"Esslingen","type":"Landkreis"},"federalState":{"key":"08","name":"Baden-Württemberg"}},{"name":"Bissinger Str.","postalCode":"73230","locality":"Kirchheim unter Teck","municipality":{"key":"08116033","name":"Kirchheim unter Teck, Stadt","type":"Große_Kreisstadt"},"district":{"key":"08116","name":"Esslingen","type":"Landkreis"},"federalState":{"key":"08","name":"Baden-Württemberg"}},{"name":"Bleicherwiesen","postalCode":"73230","locality":"Kirchheim unter Teck","municipality":{"key":"08116033","name":"Kirchheim unter Teck, Stadt","type":"Große_Kreisstadt"},"district":{"key":"08116","name":"Esslingen","type":"Landkreis"},"federalState":{"key":"08","name":"Baden-Württemberg"}},{"name":"Bleichestr.","postalCode":"73230","locality":"Kirchheim unter Teck","municipality":{"key":"08116033","name":"Kirchheim unter Teck, Stadt","type":"Große_Kreisstadt"},"district":{"key":"08116","name":"Esslingen","type":"Landkreis"},"federalState":{"key":"08","name":"Baden-Württemberg"}},{"name":"Blumenstr.","postalCode":"73230","locality":"Kirchheim unter Teck","municipality":{"key":"08116033","name":"Kirchheim unter Teck, Stadt","type":"Große_Kreisstadt"},"district":{"key":"08116","name":"Esslingen","type":"Landkreis"},"federalState":{"key":"08","name":"Baden-Württemberg"}},{"name":"Bodelschwinghweg","postalCode":"73230","locality":"Kirchheim unter Teck","municipality":{"key":"08116033","name":"Kirchheim unter Teck, Stadt","type":"Große_Kreisstadt"},"district":{"key":"08116","name":"Esslingen","type":"Landkreis"},"federalState":{"key":"08","name":"Baden-Württemberg"}},{"name":"Bodelshofer Weg","postalCode":"73230","locality":"Kirchheim unter Teck","municipality":{"key":"08116033","name":"Kirchheim unter Teck, Stadt","type":"Große_Kreisstadt"},"district":{"key":"08116","name":"Esslingen","type":"Landkreis"},"federalState":{"key":"08","name":"Baden-Württemberg"}},{"name":"Bohnauweg","postalCode":"73230","locality":"Kirchheim unter Teck","municipality":{"key":"08116033","name":"Kirchheim unter Teck, Stadt","type":"Große_Kreisstadt"},"district":{"key":"08116","name":"Esslingen","type":"Landkreis"},"federalState":{"key":"08","name":"Baden-Württemberg"}},{"name":"Boschstr.","postalCode":"73230","locality":"Kirchheim unter Teck","municipality":{"key":"08116033","name":"Kirchheim unter Teck, Stadt","type":"Große_Kreisstadt"},"district":{"key":"08116","name":"Esslingen","type":"Landkreis"},"federalState":{"key":"08","name":"Baden-Württemberg"}},{"name":"Bosslerstr.","postalCode":"73230","locality":"Kirchheim unter Teck","municipality":{"key":"08116033","name":"Kirchheim unter Teck, Stadt","type":"Große_Kreisstadt"},"district":{"key":"08116","name":"Esslingen","type":"Landkreis"},"federalState":{"key":"08","name":"Baden-Württemberg"}},{"name":"Boßlerweg","postalCode":"73230","locality":"Kirchheim unter Teck","municipality":{"key":"08116033","name":"Kirchheim unter Teck, Stadt","type":"Große_Kreisstadt"},"district":{"key":"08116","name":"Esslingen","type":"Landkreis"},"federalState":{"key":"08","name":"Baden-Württemberg"}},{"name":"Brahmsstr.","postalCode":"73230","locality":"Kirchheim unter Teck","municipality":{"key":"08116033","name":"Kirchheim unter Teck, Stadt","type":"Große_Kreisstadt"},"district":{"key":"08116","name":"Esslingen","type":"Landkreis"},"federalState":{"key":"08","name":"Baden-Württemberg"}},{"name":"Braike","postalCode":"73230","locality":"Kirchheim unter Teck","municipality":{"key":"08116033","name":"Kirchheim unter Teck, Stadt","type":"Große_Kreisstadt"},"district":{"key":"08116","name":"Esslingen","type":"Landkreis"},"federalState":{"key":"08","name":"Baden-Württemberg"}},{"name":"Breitensteinstr.","postalCode":"73230","locality":"Kirchheim unter Teck","municipality":{"key":"08116033","name":"Kirchheim unter Teck, Stadt","type":"Große_Kreisstadt"},"district":{"key":"08116","name":"Esslingen","type":"Landkreis"},"federalState":{"key":"08","name":"Baden-Württemberg"}},{"name":"Bruckwiesen","postalCode":"73230","locality":"Kirchheim unter Teck","municipality":{"key":"08116033","name":"Kirchheim unter Teck, Stadt","type":"Große_Kreisstadt"},"district":{"key":"08116","name":"Esslingen","type":"Landkreis"},"federalState":{"key":"08","name":"Baden-Württemberg"}},{"name":"Brühlstr.","postalCode":"73230","locality":"Kirchheim unter Teck","municipality":{"key":"08116033","name":"Kirchheim unter Teck, Stadt","type":"Große_Kreisstadt"},"district":{"key":"08116","name":"Esslingen","type":"Landkreis"},"federalState":{"key":"08","name":"Baden-Württemberg"}},{"name":"Brunnenstr.","postalCode":"73230","locality":"Kirchheim unter Teck","municipality":{"key":"08116033","name":"Kirchheim unter Teck, Stadt","type":"Große_Kreisstadt"},"district":{"key":"08116","name":"Esslingen","type":"Landkreis"},"federalState":{"key":"08","name":"Baden-Württemberg"}},{"name":"Buchenweg","postalCode":"73230","locality":"Kirchheim unter Teck","municipality":{"key":"08116033","name":"Kirchheim unter Teck, Stadt","type":"Große_Kreisstadt"},"district":{"key":"08116","name":"Esslingen","type":"Landkreis"},"federalState":{"key":"08","name":"Baden-Württemberg"}},{"name":"Buchhartweg","postalCode":"73230","locality":"Kirchheim unter Teck","municipality":{"key":"08116033","name":"Kirchheim unter Teck, Stadt","type":"Große_Kreisstadt"},"district":{"key":"08116","name":"Esslingen","type":"Landkreis"},"federalState":{"key":"08","name":"Baden-Württemberg"}},{"name":"Buckeliger Weg","postalCode":"73230","locality":"Kirchheim unter Teck","municipality":{"key":"08116033","name":"Kirchheim unter Teck, Stadt","type":"Große_Kreisstadt"},"district":{"key":"08116","name":"Esslingen","type":"Landkreis"},"federalState":{"key":"08","name":"Baden-Württemberg"}},{"name":"Bulkesweg","postalCode":"73230","locality":"Kirchheim unter Teck","municipality":{"key":"08116033","name":"Kirchheim unter Teck, Stadt","type":"Große_Kreisstadt"},"district":{"key":"08116","name":"Esslingen","type":"Landkreis"},"federalState":{"key":"08","name":"Baden-Württemberg"}},{"name":"Bürgerpark Herrschaftsgärten","postalCode":"73230","locality":"Kirchheim unter Teck","municipality":{"key":"08116033","name":"Kirchheim unter Teck, Stadt","type":"Große_Kreisstadt"},"district":{"key":"08116","name":"Esslingen","type":"Landkreis"},"federalState":{"key":"08","name":"Baden-Württemberg"}},{"name":"Bürgerseesträßle","postalCode":"73230","locality":"Kirchheim unter Teck","municipality":{"key":"08116033","name":"Kirchheim unter Teck, Stadt","type":"Große_Kreisstadt"},"district":{"key":"08116","name":"Esslingen","type":"Landkreis"},"federalState":{"key":"08","name":"Baden-Württemberg"}},{"name":"Burgtobelweg","postalCode":"73230","locality":"Kirchheim unter Teck","municipality":{"key":"08116033","name":"Kirchheim unter Teck, Stadt","type":"Große_Kreisstadt"},"district":{"key":"08116","name":"Esslingen","type":"Landkreis"},"federalState":{"key":"08","name":"Baden-Württemberg"}},{"name":"Bussardweg","postalCode":"73230","locality":"Kirchheim unter Teck","municipality":{"key":"08116033","name":"Kirchheim unter Teck, Stadt","type":"Große_Kreisstadt"},"district":{"key":"08116","name":"Esslingen","type":"Landkreis"},"federalState":{"key":"08","name":"Baden-Württemberg"}},{"name":"Carl-Mayer-Str.","postalCode":"73230","locality":"Kirchheim unter Teck","municipality":{"key":"08116033","name":"Kirchheim unter Teck, Stadt","type":"Große_Kreisstadt"},"district":{"key":"08116","name":"Esslingen","type":"Landkreis"},"federalState":{"key":"08","name":"Baden-Württemberg"}},{"name":"Charlottenstr.","postalCode":"73230","locality":"Kirchheim unter Teck","municipality":{"key":"08116033","name":"Kirchheim unter Teck, Stadt","type":"Große_Kreisstadt"},"district":{"key":"08116","name":"Esslingen","type":"Landkreis"},"federalState":{"key":"08","name":"Baden-Württemberg"}},{"name":"Christofstr.","postalCode":"73230","locality":"Kirchheim unter Teck","municipality":{"key":"08116033","name":"Kirchheim unter Teck, Stadt","type":"Große_Kreisstadt"},"district":{"key":"08116","name":"Esslingen","type":"Landkreis"},"federalState":{"key":"08","name":"Baden-Württemberg"}},{"name":"Cranachweg","postalCode":"73230","locality":"Kirchheim unter Teck","municipality":{"key":"08116033","name":"Kirchheim unter Teck, Stadt","type":"Große_Kreisstadt"},"district":{"key":"08116","name":"Esslingen","type":"Landkreis"},"federalState":{"key":"08","name":"Baden-Württemberg"}},{"name":"Dachsbauweg","postalCode":"73230","locality":"Kirchheim unter Teck","municipality":{"key":"08116033","name":"Kirchheim unter Teck, Stadt","type":"Große_Kreisstadt"},"district":{"key":"08116","name":"Esslingen","type":"Landkreis"},"federalState":{"key":"08","name":"Baden-Württemberg"}},{"name":"Dachsweg","postalCode":"73230","locality":"Kirchheim unter Teck","municipality":{"key":"08116033","name":"Kirchheim unter Teck, Stadt","type":"Große_Kreisstadt"},"district":{"key":"08116","name":"Esslingen","type":"Landkreis"},"federalState":{"key":"08","name":"Baden-Württemberg"}},{"name":"Dahlienweg","postalCode":"73230","locality":"Kirchheim unter Teck","municipality":{"key":"08116033","name":"Kirchheim unter Teck, Stadt","type":"Große_Kreisstadt"},"district":{"key":"08116","name":"Esslingen","type":"Landkreis"},"federalState":{"key":"08","name":"Baden-Württemberg"}},{"name":"Daimlerstr.","postalCode":"73230","locality":"Kirchheim unter Teck","municipality":{"key":"08116033","name":"Kirchheim unter Teck, Stadt","type":"Große_Kreisstadt"},"district":{"key":"08116","name":"Esslingen","type":"Landkreis"},"federalState":{"key":"08","name":"Baden-Württemberg"}},{"name":"Dettinger Str.","postalCode":"73230","locality":"Kirchheim unter Teck","municipality":{"key":"08116033","name":"Kirchheim unter Teck, Stadt","type":"Große_Kreisstadt"},"district":{"key":"08116","name":"Esslingen","type":"Landkreis"},"federalState":{"key":"08","name":"Baden-Württemberg"}},{"name":"Dieselstr.","postalCode":"73230","locality":"Kirchheim unter Teck","municipality":{"key":"08116033","name":"Kirchheim unter Teck, Stadt","type":"Große_Kreisstadt"},"district":{"key":"08116","name":"Esslingen","type":"Landkreis"},"federalState":{"key":"08","name":"Baden-Württemberg"}},{"name":"Dinkelweg","postalCode":"73230","locality":"Kirchheim unter Teck","municipality":{"key":"08116033","name":"Kirchheim unter Teck, Stadt","type":"Große_Kreisstadt"},"district":{"key":"08116","name":"Esslingen","type":"Landkreis"},"federalState":{"key":"08","name":"Baden-Württemberg"}},{"name":"Donauschwabenstr.","postalCode":"73230","locality":"Kirchheim unter Teck","municipality":{"key":"08116033","name":"Kirchheim unter Teck, Stadt","type":"Große_Kreisstadt"},"district":{"key":"08116","name":"Esslingen","type":"Landkreis"},"federalState":{"key":"08","name":"Baden-Württemberg"}},{"name":"Dornwald","postalCode":"73230","locality":"Kirchheim unter Teck","municipality":{"key":"08116033","name":"Kirchheim unter Teck, Stadt","type":"Große_Kreisstadt"},"district":{"key":"08116","name":"Esslingen","type":"Landkreis"},"federalState":{"key":"08","name":"Baden-Württemberg"}},{"name":"Dreikönigskeller","postalCode":"73230","locality":"Kirchheim unter Teck","municipality":{"key":"08116033","name":"Kirchheim unter Teck, Stadt","type":"Große_Kreisstadt"},"district":{"key":"08116","name":"Esslingen","type":"Landkreis"},"federalState":{"key":"08","name":"Baden-Württemberg"}},{"name":"Dreikönigstr.","postalCode":"73230","locality":"Kirchheim unter Teck","municipality":{"key":"08116033","name":"Kirchheim unter Teck, Stadt","type":"Große_Kreisstadt"},"district":{"key":"08116","name":"Esslingen","type":"Landkreis"},"federalState":{"key":"08","name":"Baden-Württemberg"}},{"name":"Dürerweg","postalCode":"73230","locality":"Kirchheim unter Teck","municipality":{"key":"08116033","name":"Kirchheim unter Teck, Stadt","type":"Große_Kreisstadt"},"district":{"key":"08116","name":"Esslingen","type":"Landkreis"},"federalState":{"key":"08","name":"Baden-Württemberg"}},{"name":"Ebener Weg","postalCode":"73230","locality":"Kirchheim unter Teck","municipality":{"key":"08116033","name":"Kirchheim unter Teck, Stadt","type":"Große_Kreisstadt"},"district":{"key":"08116","name":"Esslingen","type":"Landkreis"},"federalState":{"key":"08","name":"Baden-Württemberg"}},{"name":"Egartweg","postalCode":"73230","locality":"Kirchheim unter Teck","municipality":{"key":"08116033","name":"Kirchheim unter Teck, Stadt","type":"Große_Kreisstadt"},"district":{"key":"08116","name":"Esslingen","type":"Landkreis"},"federalState":{"key":"08","name":"Baden-Württemberg"}},{"name":"Egelsbergstr.","postalCode":"73230","locality":"Kirchheim unter Teck","municipality":{"key":"08116033","name":"Kirchheim unter Teck, Stadt","type":"Große_Kreisstadt"},"district":{"key":"08116","name":"Esslingen","type":"Landkreis"},"federalState":{"key":"08","name":"Baden-Württemberg"}},{"name":"Eichelhäherweg","postalCode":"73230","locality":"Kirchheim unter Teck","municipality":{"key":"08116033","name":"Kirchheim unter Teck, Stadt","type":"Große_Kreisstadt"},"district":{"key":"08116","name":"Esslingen","type":"Landkreis"},"federalState":{"key":"08","name":"Baden-Württemberg"}},{"name":"Eichendorffstr.","postalCode":"73230","locality":"Kirchheim unter Teck","municipality":{"key":"08116033","name":"Kirchheim unter Teck, Stadt","type":"Große_Kreisstadt"},"district":{"key":"08116","name":"Esslingen","type":"Landkreis"},"federalState":{"key":"08","name":"Baden-Württemberg"}},{"name":"Eichwiesen","postalCode":"73230","locality":"Kirchheim unter Teck","municipality":{"key":"08116033","name":"Kirchheim unter Teck, Stadt","type":"Große_Kreisstadt"},"district":{"key":"08116","name":"Esslingen","type":"Landkreis"},"federalState":{"key":"08","name":"Baden-Württemberg"}},{"name":"Einsteinstr.","postalCode":"73230","locality":"Kirchheim unter Teck","municipality":{"key":"08116033","name":"Kirchheim unter Teck, Stadt","type":"Große_Kreisstadt"},"district":{"key":"08116","name":"Esslingen","type":"Landkreis"},"federalState":{"key":"08","name":"Baden-Württemberg"}},{"name":"Eisenbahnstr.","postalCode":"73230","locality":"Kirchheim unter Teck","municipality":{"key":"08116033","name":"Kirchheim unter Teck, Stadt","type":"Große_Kreisstadt"},"district":{"key":"08116","name":"Esslingen","type":"Landkreis"},"federalState":{"key":"08","name":"Baden-Württemberg"}},{"name":"Eisenwinkelweg","postalCode":"73230","locality":"Kirchheim unter Teck","municipality":{"key":"08116033","name":"Kirchheim unter Teck, Stadt","type":"Große_Kreisstadt"},"district":{"key":"08116","name":"Esslingen","type":"Landkreis"},"federalState":{"key":"08","name":"Baden-Württemberg"}},{"name":"Elsterweg","postalCode":"73230","locality":"Kirchheim unter Teck","municipality":{"key":"08116033","name":"Kirchheim unter Teck, Stadt","type":"Große_Kreisstadt"},"district":{"key":"08116","name":"Esslingen","type":"Landkreis"},"federalState":{"key":"08","name":"Baden-Württemberg"}},{"name":"Enzianweg","postalCode":"73230","locality":"Kirchheim unter Teck","municipality":{"key":"08116033","name":"Kirchheim unter Teck, Stadt","type":"Große_Kreisstadt"},"district":{"key":"08116","name":"Esslingen","type":"Landkreis"},"federalState":{"key":"08","name":"Baden-Württemberg"}},{"name":"Erkenbergstr.","postalCode":"73230","locality":"Kirchheim unter Teck","municipality":{"key":"08116033","name":"Kirchheim unter Teck, Stadt","type":"Große_Kreisstadt"},"district":{"key":"08116","name":"Esslingen","type":"Landkreis"},"federalState":{"key":"08","name":"Baden-Württemberg"}},{"name":"Erlengartenweg","postalCode":"73230","locality":"Kirchheim unter Teck","municipality":{"key":"08116033","name":"Kirchheim unter Teck, Stadt","type":"Große_Kreisstadt"},"district":{"key":"08116","name":"Esslingen","type":"Landkreis"},"federalState":{"key":"08","name":"Baden-Württemberg"}},{"name":"Erlenweg","postalCode":"73230","locality":"Kirchheim unter Teck","municipality":{"key":"08116033","name":"Kirchheim unter Teck, Stadt","type":"Große_Kreisstadt"},"district":{"key":"08116","name":"Esslingen","type":"Landkreis"},"federalState":{"key":"08","name":"Baden-Württemberg"}},{"name":"Ernst-Thierer-Weg","postalCode":"73230","locality":"Kirchheim unter Teck","municipality":{"key":"08116033","name":"Kirchheim unter Teck, Stadt","type":"Große_Kreisstadt"},"district":{"key":"08116","name":"Esslingen","type":"Landkreis"},"federalState":{"key":"08","name":"Baden-Württemberg"}},{"name":"Eschenweg","postalCode":"73230","locality":"Kirchheim unter Teck","municipality":{"key":"08116033","name":"Kirchheim unter Teck, Stadt","type":"Große_Kreisstadt"},"district":{"key":"08116","name":"Esslingen","type":"Landkreis"},"federalState":{"key":"08","name":"Baden-Württemberg"}},{"name":"Esslinger Steige","postalCode":"73230","locality":"Kirchheim unter Teck","municipality":{"key":"08116033","name":"Kirchheim unter Teck, Stadt","type":"Große_Kreisstadt"},"district":{"key":"08116","name":"Esslingen","type":"Landkreis"},"federalState":{"key":"08","name":"Baden-Württemberg"}},{"name":"Eugenstr.","postalCode":"73230","locality":"Kirchheim unter Teck","municipality":{"key":"08116033","name":"Kirchheim unter Teck, Stadt","type":"Große_Kreisstadt"},"district":{"key":"08116","name":"Esslingen","type":"Landkreis"},"federalState":{"key":"08","name":"Baden-Württemberg"}},{"name":"Eulenrain","postalCode":"73230","locality":"Kirchheim unter Teck","municipality":{"key":"08116033","name":"Kirchheim unter Teck, Stadt","type":"Große_Kreisstadt"},"district":{"key":"08116","name":"Esslingen","type":"Landkreis"},"federalState":{"key":"08","name":"Baden-Württemberg"}},{"name":"Faberweg","postalCode":"73230","locality":"Kirchheim unter Teck","municipality":{"key":"08116033","name":"Kirchheim unter Teck, Stadt","type":"Große_Kreisstadt"},"district":{"key":"08116","name":"Esslingen","type":"Landkreis"},"federalState":{"key":"08","name":"Baden-Württemberg"}},{"name":"Fabrikstr.","postalCode":"73230","locality":"Kirchheim unter Teck","municipality":{"key":"08116033","name":"Kirchheim unter Teck, Stadt","type":"Große_Kreisstadt"},"district":{"key":"08116","name":"Esslingen","type":"Landkreis"},"federalState":{"key":"08","name":"Baden-Württemberg"}},{"name":"Falkenweg","postalCode":"73230","locality":"Kirchheim unter Teck","municipality":{"key":"08116033","name":"Kirchheim unter Teck, Stadt","type":"Große_Kreisstadt"},"district":{"key":"08116","name":"Esslingen","type":"Landkreis"},"federalState":{"key":"08","name":"Baden-Württemberg"}},{"name":"Färberstr.","postalCode":"73230","locality":"Kirchheim unter Teck","municipality":{"key":"08116033","name":"Kirchheim unter Teck, Stadt","type":"Große_Kreisstadt"},"district":{"key":"08116","name":"Esslingen","type":"Landkreis"},"federalState":{"key":"08","name":"Baden-Württemberg"}},{"name":"Fasanenweg","postalCode":"73230","locality":"Kirchheim unter Teck","municipality":{"key":"08116033","name":"Kirchheim unter Teck, Stadt","type":"Große_Kreisstadt"},"district":{"key":"08116","name":"Esslingen","type":"Landkreis"},"federalState":{"key":"08","name":"Baden-Württemberg"}},{"name":"Fauslerstr.","postalCode":"73230","locality":"Kirchheim unter Teck","municipality":{"key":"08116033","name":"Kirchheim unter Teck, Stadt","type":"Große_Kreisstadt"},"district":{"key":"08116","name":"Esslingen","type":"Landkreis"},"federalState":{"key":"08","name":"Baden-Württemberg"}},{"name":"Fichtenstr.","postalCode":"73230","locality":"Kirchheim unter Teck","municipality":{"key":"08116033","name":"Kirchheim unter Teck, Stadt","type":"Große_Kreisstadt"},"district":{"key":"08116","name":"Esslingen","type":"Landkreis"},"federalState":{"key":"08","name":"Baden-Württemberg"}},{"name":"Finkenweg","postalCode":"73230","locality":"Kirchheim unter Teck","municipality":{"key":"08116033","name":"Kirchheim unter Teck, Stadt","type":"Große_Kreisstadt"},"district":{"key":"08116","name":"Esslingen","type":"Landkreis"},"federalState":{"key":"08","name":"Baden-Württemberg"}},{"name":"Flachsäcker","postalCode":"73230","locality":"Kirchheim unter Teck","municipality":{"key":"08116033","name":"Kirchheim unter Teck, Stadt","type":"Große_Kreisstadt"},"district":{"key":"08116","name":"Esslingen","type":"Landkreis"},"federalState":{"key":"08","name":"Baden-Württemberg"}},{"name":"Flandernstr.","postalCode":"73230","locality":"Kirchheim unter Teck","municipality":{"key":"08116033","name":"Kirchheim unter Teck, Stadt","type":"Große_Kreisstadt"},"district":{"key":"08116","name":"Esslingen","type":"Landkreis"},"federalState":{"key":"08","name":"Baden-Württemberg"}},{"name":"Fliederweg","postalCode":"73230","locality":"Kirchheim unter Teck","municipality":{"key":"08116033","name":"Kirchheim unter Teck, Stadt","type":"Große_Kreisstadt"},"district":{"key":"08116","name":"Esslingen","type":"Landkreis"},"federalState":{"key":"08","name":"Baden-Württemberg"}},{"name":"Föhrenweg","postalCode":"73230","locality":"Kirchheim unter Teck","municipality":{"key":"08116033","name":"Kirchheim unter Teck, Stadt","type":"Große_Kreisstadt"},"district":{"key":"08116","name":"Esslingen","type":"Landkreis"},"federalState":{"key":"08","name":"Baden-Württemberg"}},{"name":"Franz-Schubert-Weg","postalCode":"73230","locality":"Kirchheim unter Teck","municipality":{"key":"08116033","name":"Kirchheim unter Teck, Stadt","type":"Große_Kreisstadt"},"district":{"key":"08116","name":"Esslingen","type":"Landkreis"},"federalState":{"key":"08","name":"Baden-Württemberg"}},{"name":"Freihofweg","postalCode":"73230","locality":"Kirchheim unter Teck","municipality":{"key":"08116033","name":"Kirchheim unter Teck, Stadt","type":"Große_Kreisstadt"},"district":{"key":"08116","name":"Esslingen","type":"Landkreis"},"federalState":{"key":"08","name":"Baden-Württemberg"}},{"name":"Freiwaldaustr.","postalCode":"73230","locality":"Kirchheim unter Teck","municipality":{"key":"08116033","name":"Kirchheim unter Teck, Stadt","type":"Große_Kreisstadt"},"district":{"key":"08116","name":"Esslingen","type":"Landkreis"},"federalState":{"key":"08","name":"Baden-Württemberg"}},{"name":"Friedhofweg","postalCode":"73230","locality":"Kirchheim unter Teck","municipality":{"key":"08116033","name":"Kirchheim unter Teck, Stadt","type":"Große_Kreisstadt"},"district":{"key":"08116","name":"Esslingen","type":"Landkreis"},"federalState":{"key":"08","name":"Baden-Württemberg"}},{"name":"Friedrichstr.","postalCode":"73230","locality":"Kirchheim unter Teck","municipality":{"key":"08116033","name":"Kirchheim unter Teck, Stadt","type":"Große_Kreisstadt"},"district":{"key":"08116","name":"Esslingen","type":"Landkreis"},"federalState":{"key":"08","name":"Baden-Württemberg"}},{"name":"Friedrich-Tritschler-Str.","postalCode":"73230","locality":"Kirchheim unter Teck","municipality":{"key":"08116033","name":"Kirchheim unter Teck, Stadt","type":"Große_Kreisstadt"},"district":{"key":"08116","name":"Esslingen","type":"Landkreis"},"federalState":{"key":"08","name":"Baden-Württemberg"}},{"name":"Fuchstriebweg","postalCode":"73230","locality":"Kirchheim unter Teck","municipality":{"key":"08116033","name":"Kirchheim unter Teck, Stadt","type":"Große_Kreisstadt"},"district":{"key":"08116","name":"Esslingen","type":"Landkreis"},"federalState":{"key":"08","name":"Baden-Württemberg"}},{"name":"Fuchsweg","postalCode":"73230","locality":"Kirchheim unter Teck","municipality":{"key":"08116033","name":"Kirchheim unter Teck, Stadt","type":"Große_Kreisstadt"},"district":{"key":"08116","name":"Esslingen","type":"Landkreis"},"federalState":{"key":"08","name":"Baden-Württemberg"}},{"name":"Gaiserplatz","postalCode":"73230","locality":"Kirchheim unter Teck","municipality":{"key":"08116033","name":"Kirchheim unter Teck, Stadt","type":"Große_Kreisstadt"},"district":{"key":"08116","name":"Esslingen","type":"Landkreis"},"federalState":{"key":"08","name":"Baden-Württemberg"}},{"name":"Gaisgasse","postalCode":"73230","locality":"Kirchheim unter Teck","municipality":{"key":"08116033","name":"Kirchheim unter Teck, Stadt","type":"Große_Kreisstadt"},"district":{"key":"08116","name":"Esslingen","type":"Landkreis"},"federalState":{"key":"08","name":"Baden-Württemberg"}},{"name":"Gaisrainweg","postalCode":"73230","locality":"Kirchheim unter Teck","municipality":{"key":"08116033","name":"Kirchheim unter Teck, Stadt","type":"Große_Kreisstadt"},"district":{"key":"08116","name":"Esslingen","type":"Landkreis"},"federalState":{"key":"08","name":"Baden-Württemberg"}},{"name":"Galgenberg","postalCode":"73230","locality":"Kirchheim unter Teck","municipality":{"key":"08116033","name":"Kirchheim unter Teck, Stadt","type":"Große_Kreisstadt"},"district":{"key":"08116","name":"Esslingen","type":"Landkreis"},"federalState":{"key":"08","name":"Baden-Württemberg"}},{"name":"Gartenstr.","postalCode":"73230","locality":"Kirchheim unter Teck","municipality":{"key":"08116033","name":"Kirchheim unter Teck, Stadt","type":"Große_Kreisstadt"},"district":{"key":"08116","name":"Esslingen","type":"Landkreis"},"federalState":{"key":"08","name":"Baden-Württemberg"}},{"name":"Gerberstr.","postalCode":"73230","locality":"Kirchheim unter Teck","municipality":{"key":"08116033","name":"Kirchheim unter Teck, Stadt","type":"Große_Kreisstadt"},"district":{"key":"08116","name":"Esslingen","type":"Landkreis"},"federalState":{"key":"08","name":"Baden-Württemberg"}},{"name":"Gerstenweg","postalCode":"73230","locality":"Kirchheim unter Teck","municipality":{"key":"08116033","name":"Kirchheim unter Teck, Stadt","type":"Große_Kreisstadt"},"district":{"key":"08116","name":"Esslingen","type":"Landkreis"},"federalState":{"key":"08","name":"Baden-Württemberg"}},{"name":"Gewann Asang","postalCode":"73230","locality":"Kirchheim unter Teck","municipality":{"key":"08116033","name":"Kirchheim unter Teck, Stadt","type":"Große_Kreisstadt"},"district":{"key":"08116","name":"Esslingen","type":"Landkreis"},"federalState":{"key":"08","name":"Baden-Württemberg"}},{"name":"Gießnauweg","postalCode":"73230","locality":"Kirchheim unter Teck","municipality":{"key":"08116033","name":"Kirchheim unter Teck, Stadt","type":"Große_Kreisstadt"},"district":{"key":"08116","name":"Esslingen","type":"Landkreis"},"federalState":{"key":"08","name":"Baden-Württemberg"}},{"name":"Ginsterweg","postalCode":"73230","locality":"Kirchheim unter Teck","municipality":{"key":"08116033","name":"Kirchheim unter Teck, Stadt","type":"Große_Kreisstadt"},"district":{"key":"08116","name":"Esslingen","type":"Landkreis"},"federalState":{"key":"08","name":"Baden-Württemberg"}},{"name":"Goethestr.","postalCode":"73230","locality":"Kirchheim unter Teck","municipality":{"key":"08116033","name":"Kirchheim unter Teck, Stadt","type":"Große_Kreisstadt"},"district":{"key":"08116","name":"Esslingen","type":"Landkreis"},"federalState":{"key":"08","name":"Baden-Württemberg"}},{"name":"Gräfenbergweg","postalCode":"73230","locality":"Kirchheim unter Teck","municipality":{"key":"08116033","name":"Kirchheim unter Teck, Stadt","type":"Große_Kreisstadt"},"district":{"key":"08116","name":"Esslingen","type":"Landkreis"},"federalState":{"key":"08","name":"Baden-Württemberg"}},{"name":"Grenzweg","postalCode":"73230","locality":"Kirchheim unter Teck","municipality":{"key":"08116033","name":"Kirchheim unter Teck, Stadt","type":"Große_Kreisstadt"},"district":{"key":"08116","name":"Esslingen","type":"Landkreis"},"federalState":{"key":"08","name":"Baden-Württemberg"}},{"name":"Grünewaldweg","postalCode":"73230","locality":"Kirchheim unter Teck","municipality":{"key":"08116033","name":"Kirchheim unter Teck, Stadt","type":"Große_Kreisstadt"},"district":{"key":"08116","name":"Esslingen","type":"Landkreis"},"federalState":{"key":"08","name":"Baden-Württemberg"}},{"name":"Gutenbergstr.","postalCode":"73230","locality":"Kirchheim unter Teck","municipality":{"key":"08116033","name":"Kirchheim unter Teck, Stadt","type":"Große_Kreisstadt"},"district":{"key":"08116","name":"Esslingen","type":"Landkreis"},"federalState":{"key":"08","name":"Baden-Württemberg"}},{"name":"Haarletweg","postalCode":"73230","locality":"Kirchheim unter Teck","municipality":{"key":"08116033","name":"Kirchheim unter Teck, Stadt","type":"Große_Kreisstadt"},"district":{"key":"08116","name":"Esslingen","type":"Landkreis"},"federalState":{"key":"08","name":"Baden-Württemberg"}},{"name":"Habichtweg","postalCode":"73230","locality":"Kirchheim unter Teck","municipality":{"key":"08116033","name":"Kirchheim unter Teck, Stadt","type":"Große_Kreisstadt"},"district":{"key":"08116","name":"Esslingen","type":"Landkreis"},"federalState":{"key":"08","name":"Baden-Württemberg"}},{"name":"Hafenkäs","postalCode":"73230","locality":"Kirchheim unter Teck","municipality":{"key":"08116033","name":"Kirchheim unter Teck, Stadt","type":"Große_Kreisstadt"},"district":{"key":"08116","name":"Esslingen","type":"Landkreis"},"federalState":{"key":"08","name":"Baden-Württemberg"}},{"name":"Hahnweidstr.","postalCode":"73230","locality":"Kirchheim unter Teck","municipality":{"key":"08116033","name":"Kirchheim unter Teck, Stadt","type":"Große_Kreisstadt"},"district":{"key":"08116","name":"Esslingen","type":"Landkreis"},"federalState":{"key":"08","name":"Baden-Württemberg"}},{"name":"Hain der Kulturen - Bürgerpark Herrschaftsgärten","postalCode":"73230","locality":"Kirchheim unter Teck","municipality":{"key":"08116033","name":"Kirchheim unter Teck, Stadt","type":"Große_Kreisstadt"},"district":{"key":"08116","name":"Esslingen","type":"Landkreis"},"federalState":{"key":"08","name":"Baden-Württemberg"}},{"name":"Hakenäckerweg","postalCode":"73230","locality":"Kirchheim unter Teck","municipality":{"key":"08116033","name":"Kirchheim unter Teck, Stadt","type":"Große_Kreisstadt"},"district":{"key":"08116","name":"Esslingen","type":"Landkreis"},"federalState":{"key":"08","name":"Baden-Württemberg"}},{"name":"Haldenstr.","postalCode":"73230","locality":"Kirchheim unter Teck","municipality":{"key":"08116033","name":"Kirchheim unter Teck, Stadt","type":"Große_Kreisstadt"},"district":{"key":"08116","name":"Esslingen","type":"Landkreis"},"federalState":{"key":"08","name":"Baden-Württemberg"}},{"name":"Haldenweg","postalCode":"73230","locality":"Kirchheim unter Teck","municipality":{"key":"08116033","name":"Kirchheim unter Teck, Stadt","type":"Große_Kreisstadt"},"district":{"key":"08116","name":"Esslingen","type":"Landkreis"},"federalState":{"key":"08","name":"Baden-Württemberg"}},{"name":"Hammerschmiedgasse","postalCode":"73230","locality":"Kirchheim unter Teck","municipality":{"key":"08116033","name":"Kirchheim unter Teck, Stadt","type":"Große_Kreisstadt"},"district":{"key":"08116","name":"Esslingen","type":"Landkreis"},"federalState":{"key":"08","name":"Baden-Württemberg"}},{"name":"Hanfstr.","postalCode":"73230","locality":"Kirchheim unter Teck","municipality":{"key":"08116033","name":"Kirchheim unter Teck, Stadt","type":"Große_Kreisstadt"},"district":{"key":"08116","name":"Esslingen","type":"Landkreis"},"federalState":{"key":"08","name":"Baden-Württemberg"}},{"name":"Hans-Thoma-Weg","postalCode":"73230","locality":"Kirchheim unter Teck","municipality":{"key":"08116033","name":"Kirchheim unter Teck, Stadt","type":"Große_Kreisstadt"},"district":{"key":"08116","name":"Esslingen","type":"Landkreis"},"federalState":{"key":"08","name":"Baden-Württemberg"}},{"name":"Hardtstr.","postalCode":"73230","locality":"Kirchheim unter Teck","municipality":{"key":"08116033","name":"Kirchheim unter Teck, Stadt","type":"Große_Kreisstadt"},"district":{"key":"08116","name":"Esslingen","type":"Landkreis"},"federalState":{"key":"08","name":"Baden-Württemberg"}},{"name":"Härlingweg","postalCode":"73230","locality":"Kirchheim unter Teck","municipality":{"key":"08116033","name":"Kirchheim unter Teck, Stadt","type":"Große_Kreisstadt"},"district":{"key":"08116","name":"Esslingen","type":"Landkreis"},"federalState":{"key":"08","name":"Baden-Württemberg"}},{"name":"Häusleweg","postalCode":"73230","locality":"Kirchheim unter Teck","municipality":{"key":"08116033","name":"Kirchheim unter Teck, Stadt","type":"Große_Kreisstadt"},"district":{"key":"08116","name":"Esslingen","type":"Landkreis"},"federalState":{"key":"08","name":"Baden-Württemberg"}},{"name":"Haydnstr.","postalCode":"73230","locality":"Kirchheim unter Teck","municipality":{"key":"08116033","name":"Kirchheim unter Teck, Stadt","type":"Große_Kreisstadt"},"district":{"key":"08116","name":"Esslingen","type":"Landkreis"},"federalState":{"key":"08","name":"Baden-Württemberg"}},{"name":"Hegelstr.","postalCode":"73230","locality":"Kirchheim unter Teck","municipality":{"key":"08116033","name":"Kirchheim unter Teck, Stadt","type":"Große_Kreisstadt"},"district":{"key":"08116","name":"Esslingen","type":"Landkreis"},"federalState":{"key":"08","name":"Baden-Württemberg"}},{"name":"Heimensteinstr.","postalCode":"73230","locality":"Kirchheim unter Teck","municipality":{"key":"08116033","name":"Kirchheim unter Teck, Stadt","type":"Große_Kreisstadt"},"district":{"key":"08116","name":"Esslingen","type":"Landkreis"},"federalState":{"key":"08","name":"Baden-Württemberg"}},{"name":"Heimenwiesen","postalCode":"73230","locality":"Kirchheim unter Teck","municipality":{"key":"08116033","name":"Kirchheim unter Teck, Stadt","type":"Große_Kreisstadt"},"district":{"key":"08116","name":"Esslingen","type":"Landkreis"},"federalState":{"key":"08","name":"Baden-Württemberg"}},{"name":"Henriettenstr.","postalCode":"73230","locality":"Kirchheim unter Teck","municipality":{"key":"08116033","name":"Kirchheim unter Teck, Stadt","type":"Große_Kreisstadt"},"district":{"key":"08116","name":"Esslingen","type":"Landkreis"},"federalState":{"key":"08","name":"Baden-Württemberg"}},{"name":"Henzlerweg","postalCode":"73230","locality":"Kirchheim unter Teck","municipality":{"key":"08116033","name":"Kirchheim unter Teck, Stadt","type":"Große_Kreisstadt"},"district":{"key":"08116","name":"Esslingen","type":"Landkreis"},"federalState":{"key":"08","name":"Baden-Württemberg"}},{"name":"Herderstr.","postalCode":"73230","locality":"Kirchheim unter Teck","municipality":{"key":"08116033","name":"Kirchheim unter Teck, Stadt","type":"Große_Kreisstadt"},"district":{"key":"08116","name":"Esslingen","type":"Landkreis"},"federalState":{"key":"08","name":"Baden-Württemberg"}},{"name":"Herdfeldstr.","postalCode":"73230","locality":"Kirchheim unter Teck","municipality":{"key":"08116033","name":"Kirchheim unter Teck, Stadt","type":"Große_Kreisstadt"},"district":{"key":"08116","name":"Esslingen","type":"Landkreis"},"federalState":{"key":"08","name":"Baden-Württemberg"}},{"name":"Hermann-Hesse-Str.","postalCode":"73230","locality":"Kirchheim unter Teck","municipality":{"key":"08116033","name":"Kirchheim unter Teck, Stadt","type":"Große_Kreisstadt"},"district":{"key":"08116","name":"Esslingen","type":"Landkreis"},"federalState":{"key":"08","name":"Baden-Württemberg"}},{"name":"Hermann-Kurz-Str.","postalCode":"73230","locality":"Kirchheim unter Teck","municipality":{"key":"08116033","name":"Kirchheim unter Teck, Stadt","type":"Große_Kreisstadt"},"district":{"key":"08116","name":"Esslingen","type":"Landkreis"},"federalState":{"key":"08","name":"Baden-Württemberg"}},{"name":"Hermann-Löns-Weg","postalCode":"73230","locality":"Kirchheim unter Teck","municipality":{"key":"08116033","name":"Kirchheim unter Teck, Stadt","type":"Große_Kreisstadt"},"district":{"key":"08116","name":"Esslingen","type":"Landkreis"},"federalState":{"key":"08","name":"Baden-Württemberg"}},{"name":"Herrschaftsweg","postalCode":"73230","locality":"Kirchheim unter Teck","municipality":{"key":"08116033","name":"Kirchheim unter Teck, Stadt","type":"Große_Kreisstadt"},"district":{"key":"08116","name":"Esslingen","type":"Landkreis"},"federalState":{"key":"08","name":"Baden-Württemberg"}},{"name":"Heuhausweg","postalCode":"73230","locality":"Kirchheim unter Teck","municipality":{"key":"08116033","name":"Kirchheim unter Teck, Stadt","type":"Große_Kreisstadt"},"district":{"key":"08116","name":"Esslingen","type":"Landkreis"},"federalState":{"key":"08","name":"Baden-Württemberg"}},{"name":"Hindenburgstr.","postalCode":"73230","locality":"Kirchheim unter Teck","municipality":{"key":"08116033","name":"Kirchheim unter Teck, Stadt","type":"Große_Kreisstadt"},"district":{"key":"08116","name":"Esslingen","type":"Landkreis"},"federalState":{"key":"08","name":"Baden-Württemberg"}},{"name":"Hinter der Wette","postalCode":"73230","locality":"Kirchheim unter Teck","municipality":{"key":"08116033","name":"Kirchheim unter Teck, Stadt","type":"Große_Kreisstadt"},"district":{"key":"08116","name":"Esslingen","type":"Landkreis"},"federalState":{"key":"08","name":"Baden-Württemberg"}},{"name":"Hintere Str.","postalCode":"73230","locality":"Kirchheim unter Teck","municipality":{"key":"08116033","name":"Kirchheim unter Teck, Stadt","type":"Große_Kreisstadt"},"district":{"key":"08116","name":"Esslingen","type":"Landkreis"},"federalState":{"key":"08","name":"Baden-Württemberg"}},{"name":"Hirschgasse","postalCode":"73230","locality":"Kirchheim unter Teck","municipality":{"key":"08116033","name":"Kirchheim unter Teck, Stadt","type":"Große_Kreisstadt"},"district":{"key":"08116","name":"Esslingen","type":"Landkreis"},"federalState":{"key":"08","name":"Baden-Württemberg"}},{"name":"Hochwiesen","postalCode":"73230","locality":"Kirchheim unter Teck","municipality":{"key":"08116033","name":"Kirchheim unter Teck, Stadt","type":"Große_Kreisstadt"},"district":{"key":"08116","name":"Esslingen","type":"Landkreis"},"federalState":{"key":"08","name":"Baden-Württemberg"}},{"name":"Hofbaumgärten","postalCode":"73230","locality":"Kirchheim unter Teck","municipality":{"key":"08116033","name":"Kirchheim unter Teck, Stadt","type":"Große_Kreisstadt"},"district":{"key":"08116","name":"Esslingen","type":"Landkreis"},"federalState":{"key":"08","name":"Baden-Württemberg"}},{"name":"Hofstr.","postalCode":"73230","locality":"Kirchheim unter Teck","municipality":{"key":"08116033","name":"Kirchheim unter Teck, Stadt","type":"Große_Kreisstadt"},"district":{"key":"08116","name":"Esslingen","type":"Landkreis"},"federalState":{"key":"08","name":"Baden-Württemberg"}},{"name":"Hohenbolweg","postalCode":"73230","locality":"Kirchheim unter Teck","municipality":{"key":"08116033","name":"Kirchheim unter Teck, Stadt","type":"Große_Kreisstadt"},"district":{"key":"08116","name":"Esslingen","type":"Landkreis"},"federalState":{"key":"08","name":"Baden-Württemberg"}},{"name":"Hohenneuffenstr.","postalCode":"73230","locality":"Kirchheim unter Teck","municipality":{"key":"08116033","name":"Kirchheim unter Teck, Stadt","type":"Große_Kreisstadt"},"district":{"key":"08116","name":"Esslingen","type":"Landkreis"},"federalState":{"key":"08","name":"Baden-Württemberg"}},{"name":"Hohenstaufenstr.","postalCode":"73230","locality":"Kirchheim unter Teck","municipality":{"key":"08116033","name":"Kirchheim unter Teck, Stadt","type":"Große_Kreisstadt"},"district":{"key":"08116","name":"Esslingen","type":"Landkreis"},"federalState":{"key":"08","name":"Baden-Württemberg"}},{"name":"Hohe Str.","postalCode":"73230","locality":"Kirchheim unter Teck","municipality":{"key":"08116033","name":"Kirchheim unter Teck, Stadt","type":"Große_Kreisstadt"},"district":{"key":"08116","name":"Esslingen","type":"Landkreis"},"federalState":{"key":"08","name":"Baden-Württemberg"}},{"name":"Holbeinweg","postalCode":"73230","locality":"Kirchheim unter Teck","municipality":{"key":"08116033","name":"Kirchheim unter Teck, Stadt","type":"Große_Kreisstadt"},"district":{"key":"08116","name":"Esslingen","type":"Landkreis"},"federalState":{"key":"08","name":"Baden-Württemberg"}},{"name":"Hölderlinstr.","postalCode":"73230","locality":"Kirchheim unter Teck","municipality":{"key":"08116033","name":"Kirchheim unter Teck, Stadt","type":"Große_Kreisstadt"},"district":{"key":"08116","name":"Esslingen","type":"Landkreis"},"federalState":{"key":"08","name":"Baden-Württemberg"}},{"name":"Holzmadener Str.","postalCode":"73230","locality":"Kirchheim unter Teck","municipality":{"key":"08116033","name":"Kirchheim unter Teck, Stadt","type":"Große_Kreisstadt"},"district":{"key":"08116","name":"Esslingen","type":"Landkreis"},"federalState":{"key":"08","name":"Baden-Württemberg"}},{"name":"Hörnlestr.","postalCode":"73230","locality":"Kirchheim unter Teck","municipality":{"key":"08116033","name":"Kirchheim unter Teck, Stadt","type":"Große_Kreisstadt"},"district":{"key":"08116","name":"Esslingen","type":"Landkreis"},"federalState":{"key":"08","name":"Baden-Württemberg"}},{"name":"Hugo-Wolf-Weg","postalCode":"73230","locality":"Kirchheim unter Teck","municipality":{"key":"08116033","name":"Kirchheim unter Teck, Stadt","type":"Große_Kreisstadt"},"district":{"key":"08116","name":"Esslingen","type":"Landkreis"},"federalState":{"key":"08","name":"Baden-Württemberg"}},{"name":"Hülenbergstr.","postalCode":"73230","locality":"Kirchheim unter Teck","municipality":{"key":"08116033","name":"Kirchheim unter Teck, Stadt","type":"Große_Kreisstadt"},"district":{"key":"08116","name":"Esslingen","type":"Landkreis"},"federalState":{"key":"08","name":"Baden-Württemberg"}},{"name":"Iglauerweg","postalCode":"73230","locality":"Kirchheim unter Teck","municipality":{"key":"08116033","name":"Kirchheim unter Teck, Stadt","type":"Große_Kreisstadt"},"district":{"key":"08116","name":"Esslingen","type":"Landkreis"},"federalState":{"key":"08","name":"Baden-Württemberg"}},{"name":"Iltisweg","postalCode":"73230","locality":"Kirchheim unter Teck","municipality":{"key":"08116033","name":"Kirchheim unter Teck, Stadt","type":"Große_Kreisstadt"},"district":{"key":"08116","name":"Esslingen","type":"Landkreis"},"federalState":{"key":"08","name":"Baden-Württemberg"}},{"name":"Im Auchtert","postalCode":"73230","locality":"Kirchheim unter Teck","municipality":{"key":"08116033","name":"Kirchheim unter Teck, Stadt","type":"Große_Kreisstadt"},"district":{"key":"08116","name":"Esslingen","type":"Landkreis"},"federalState":{"key":"08","name":"Baden-Württemberg"}},{"name":"Im Bitterling","postalCode":"73230","locality":"Kirchheim unter Teck","municipality":{"key":"08116033","name":"Kirchheim unter Teck, Stadt","type":"Große_Kreisstadt"},"district":{"key":"08116","name":"Esslingen","type":"Landkreis"},"federalState":{"key":"08","name":"Baden-Württemberg"}},{"name":"Im Böckeler","postalCode":"73230","locality":"Kirchheim unter Teck","municipality":{"key":"08116033","name":"Kirchheim unter Teck, Stadt","type":"Große_Kreisstadt"},"district":{"key":"08116","name":"Esslingen","type":"Landkreis"},"federalState":{"key":"08","name":"Baden-Württemberg"}},{"name":"Im Brühl","postalCode":"73230","locality":"Kirchheim unter Teck","municipality":{"key":"08116033","name":"Kirchheim unter Teck, Stadt","type":"Große_Kreisstadt"},"district":{"key":"08116","name":"Esslingen","type":"Landkreis"},"federalState":{"key":"08","name":"Baden-Württemberg"}},{"name":"Im Doschler","postalCode":"73230","locality":"Kirchheim unter Teck","municipality":{"key":"08116033","name":"Kirchheim unter Teck, Stadt","type":"Große_Kreisstadt"},"district":{"key":"08116","name":"Esslingen","type":"Landkreis"},"federalState":{"key":"08","name":"Baden-Württemberg"}},{"name":"Im Feldle","postalCode":"73230","locality":"Kirchheim unter Teck","municipality":{"key":"08116033","name":"Kirchheim unter Teck, Stadt","type":"Große_Kreisstadt"},"district":{"key":"08116","name":"Esslingen","type":"Landkreis"},"federalState":{"key":"08","name":"Baden-Württemberg"}},{"name":"Im Gässle","postalCode":"73230","locality":"Kirchheim unter Teck","municipality":{"key":"08116033","name":"Kirchheim unter Teck, Stadt","type":"Große_Kreisstadt"},"district":{"key":"08116","name":"Esslingen","type":"Landkreis"},"federalState":{"key":"08","name":"Baden-Württemberg"}},{"name":"Im Greutle","postalCode":"73230","locality":"Kirchheim unter Teck","municipality":{"key":"08116033","name":"Kirchheim unter Teck, Stadt","type":"Große_Kreisstadt"},"district":{"key":"08116","name":"Esslingen","type":"Landkreis"},"federalState":{"key":"08","name":"Baden-Württemberg"}},{"name":"Im Hag","postalCode":"73230","locality":"Kirchheim unter Teck","municipality":{"key":"08116033","name":"Kirchheim unter Teck, Stadt","type":"Große_Kreisstadt"},"district":{"key":"08116","name":"Esslingen","type":"Landkreis"},"federalState":{"key":"08","name":"Baden-Württemberg"}},{"name":"Im Heges","postalCode":"73230","locality":"Kirchheim unter Teck","municipality":{"key":"08116033","name":"Kirchheim unter Teck, Stadt","type":"Große_Kreisstadt"},"district":{"key":"08116","name":"Esslingen","type":"Landkreis"},"federalState":{"key":"08","name":"Baden-Württemberg"}},{"name":"Im Hofstättle","postalCode":"73230","locality":"Kirchheim unter Teck","municipality":{"key":"08116033","name":"Kirchheim unter Teck, Stadt","type":"Große_Kreisstadt"},"district":{"key":"08116","name":"Esslingen","type":"Landkreis"},"federalState":{"key":"08","name":"Baden-Württemberg"}},{"name":"Im Käppele","postalCode":"73230","locality":"Kirchheim unter Teck","municipality":{"key":"08116033","name":"Kirchheim unter Teck, Stadt","type":"Große_Kreisstadt"},"district":{"key":"08116","name":"Esslingen","type":"Landkreis"},"federalState":{"key":"08","name":"Baden-Württemberg"}},{"name":"Im Leiblensbett","postalCode":"73230","locality":"Kirchheim unter Teck","municipality":{"key":"08116033","name":"Kirchheim unter Teck, Stadt","type":"Große_Kreisstadt"},"district":{"key":"08116","name":"Esslingen","type":"Landkreis"},"federalState":{"key":"08","name":"Baden-Württemberg"}},{"name":"Im Mühlgarten","postalCode":"73230","locality":"Kirchheim unter Teck","municipality":{"key":"08116033","name":"Kirchheim unter Teck, Stadt","type":"Große_Kreisstadt"},"district":{"key":"08116","name":"Esslingen","type":"Landkreis"},"federalState":{"key":"08","name":"Baden-Württemberg"}},{"name":"Im Münzen","postalCode":"73230","locality":"Kirchheim unter Teck","municipality":{"key":"08116033","name":"Kirchheim unter Teck, Stadt","type":"Große_Kreisstadt"},"district":{"key":"08116","name":"Esslingen","type":"Landkreis"},"federalState":{"key":"08","name":"Baden-Württemberg"}},{"name":"Im Nägelestal","postalCode":"73230","locality":"Kirchheim unter Teck","municipality":{"key":"08116033","name":"Kirchheim unter Teck, Stadt","type":"Große_Kreisstadt"},"district":{"key":"08116","name":"Esslingen","type":"Landkreis"},"federalState":{"key":"08","name":"Baden-Württemberg"}},{"name":"Im Oberhof","postalCode":"73230","locality":"Kirchheim unter Teck","municipality":{"key":"08116033","name":"Kirchheim unter Teck, Stadt","type":"Große_Kreisstadt"},"district":{"key":"08116","name":"Esslingen","type":"Landkreis"},"federalState":{"key":"08","name":"Baden-Württemberg"}},{"name":"Im Tobel","postalCode":"73230","locality":"Kirchheim unter Teck","municipality":{"key":"08116033","name":"Kirchheim unter Teck, Stadt","type":"Große_Kreisstadt"},"district":{"key":"08116","name":"Esslingen","type":"Landkreis"},"federalState":{"key":"08","name":"Baden-Württemberg"}},{"name":"In den Stellegärten","postalCode":"73230","locality":"Kirchheim unter Teck","municipality":{"key":"08116033","name":"Kirchheim unter Teck, Stadt","type":"Große_Kreisstadt"},"district":{"key":"08116","name":"Esslingen","type":"Landkreis"},"federalState":{"key":"08","name":"Baden-Württemberg"}},{"name":"In den Stuben","postalCode":"73230","locality":"Kirchheim unter Teck","municipality":{"key":"08116033","name":"Kirchheim unter Teck, Stadt","type":"Große_Kreisstadt"},"district":{"key":"08116","name":"Esslingen","type":"Landkreis"},"federalState":{"key":"08","name":"Baden-Württemberg"}},{"name":"In der Warth","postalCode":"73230","locality":"Kirchheim unter Teck","municipality":{"key":"08116033","name":"Kirchheim unter Teck, Stadt","type":"Große_Kreisstadt"},"district":{"key":"08116","name":"Esslingen","type":"Landkreis"},"federalState":{"key":"08","name":"Baden-Württemberg"}},{"name":"Isolde-Kurz-Str.","postalCode":"73230","locality":"Kirchheim unter Teck","municipality":{"key":"08116033","name":"Kirchheim unter Teck, Stadt","type":"Große_Kreisstadt"},"district":{"key":"08116","name":"Esslingen","type":"Landkreis"},"federalState":{"key":"08","name":"Baden-Württemberg"}},{"name":"Jahnstr.","postalCode":"73230","locality":"Kirchheim unter Teck","municipality":{"key":"08116033","name":"Kirchheim unter Teck, Stadt","type":"Große_Kreisstadt"},"district":{"key":"08116","name":"Esslingen","type":"Landkreis"},"federalState":{"key":"08","name":"Baden-Württemberg"}},{"name":"Jakobstr.","postalCode":"73230","locality":"Kirchheim unter Teck","municipality":{"key":"08116033","name":"Kirchheim unter Teck, Stadt","type":"Große_Kreisstadt"},"district":{"key":"08116","name":"Esslingen","type":"Landkreis"},"federalState":{"key":"08","name":"Baden-Württemberg"}},{"name":"Jesinger Halde","postalCode":"73230","locality":"Kirchheim unter Teck","municipality":{"key":"08116033","name":"Kirchheim unter Teck, Stadt","type":"Große_Kreisstadt"},"district":{"key":"08116","name":"Esslingen","type":"Landkreis"},"federalState":{"key":"08","name":"Baden-Württemberg"}},{"name":"Jesinger Str.","postalCode":"73230","locality":"Kirchheim unter Teck","municipality":{"key":"08116033","name":"Kirchheim unter Teck, Stadt","type":"Große_Kreisstadt"},"district":{"key":"08116","name":"Esslingen","type":"Landkreis"},"federalState":{"key":"08","name":"Baden-Württemberg"}},{"name":"Johannes-Kepler-Str.","postalCode":"73230","locality":"Kirchheim unter Teck","municipality":{"key":"08116033","name":"Kirchheim unter Teck, Stadt","type":"Große_Kreisstadt"},"district":{"key":"08116","name":"Esslingen","type":"Landkreis"},"federalState":{"key":"08","name":"Baden-Württemberg"}},{"name":"Johann-Konzelmann-Weg","postalCode":"73230","locality":"Kirchheim unter Teck","municipality":{"key":"08116033","name":"Kirchheim unter Teck, Stadt","type":"Große_Kreisstadt"},"district":{"key":"08116","name":"Esslingen","type":"Landkreis"},"federalState":{"key":"08","name":"Baden-Württemberg"}},{"name":"Johann-Sebastian-Bach-Str.","postalCode":"73230","locality":"Kirchheim unter Teck","municipality":{"key":"08116033","name":"Kirchheim unter Teck, Stadt","type":"Große_Kreisstadt"},"district":{"key":"08116","name":"Esslingen","type":"Landkreis"},"federalState":{"key":"08","name":"Baden-Württemberg"}},{"name":"Jusiweg","postalCode":"73230","locality":"Kirchheim unter Teck","municipality":{"key":"08116033","name":"Kirchheim unter Teck, Stadt","type":"Große_Kreisstadt"},"district":{"key":"08116","name":"Esslingen","type":"Landkreis"},"federalState":{"key":"08","name":"Baden-Württemberg"}},{"name":"Kaimstr.","postalCode":"73230","locality":"Kirchheim unter Teck","municipality":{"key":"08116033","name":"Kirchheim unter Teck, Stadt","type":"Große_Kreisstadt"},"district":{"key":"08116","name":"Esslingen","type":"Landkreis"},"federalState":{"key":"08","name":"Baden-Württemberg"}},{"name":"Kanalstr.","postalCode":"73230","locality":"Kirchheim unter Teck","municipality":{"key":"08116033","name":"Kirchheim unter Teck, Stadt","type":"Große_Kreisstadt"},"district":{"key":"08116","name":"Esslingen","type":"Landkreis"},"federalState":{"key":"08","name":"Baden-Württemberg"}},{"name":"Kanalweg","postalCode":"73230","locality":"Kirchheim unter Teck","municipality":{"key":"08116033","name":"Kirchheim unter Teck, Stadt","type":"Große_Kreisstadt"},"district":{"key":"08116","name":"Esslingen","type":"Landkreis"},"federalState":{"key":"08","name":"Baden-Württemberg"}},{"name":"Kapellenstr.","postalCode":"73230","locality":"Kirchheim unter Teck","municipality":{"key":"08116033","name":"Kirchheim unter Teck, Stadt","type":"Große_Kreisstadt"},"district":{"key":"08116","name":"Esslingen","type":"Landkreis"},"federalState":{"key":"08","name":"Baden-Württemberg"}},{"name":"Karlsbaderstr.","postalCode":"73230","locality":"Kirchheim unter Teck","municipality":{"key":"08116033","name":"Kirchheim unter Teck, Stadt","type":"Große_Kreisstadt"},"district":{"key":"08116","name":"Esslingen","type":"Landkreis"},"federalState":{"key":"08","name":"Baden-Württemberg"}},{"name":"Karpatenweg","postalCode":"73230","locality":"Kirchheim unter Teck","municipality":{"key":"08116033","name":"Kirchheim unter Teck, Stadt","type":"Große_Kreisstadt"},"district":{"key":"08116","name":"Esslingen","type":"Landkreis"},"federalState":{"key":"08","name":"Baden-Württemberg"}},{"name":"Kegeleicheweg","postalCode":"73230","locality":"Kirchheim unter Teck","municipality":{"key":"08116033","name":"Kirchheim unter Teck, Stadt","type":"Große_Kreisstadt"},"district":{"key":"08116","name":"Esslingen","type":"Landkreis"},"federalState":{"key":"08","name":"Baden-Württemberg"}},{"name":"Kelterstr.","postalCode":"73230","locality":"Kirchheim unter Teck","municipality":{"key":"08116033","name":"Kirchheim unter Teck, Stadt","type":"Große_Kreisstadt"},"district":{"key":"08116","name":"Esslingen","type":"Landkreis"},"federalState":{"key":"08","name":"Baden-Württemberg"}},{"name":"Keplerstr.","postalCode":"73230","locality":"Kirchheim unter Teck","municipality":{"key":"08116033","name":"Kirchheim unter Teck, Stadt","type":"Große_Kreisstadt"},"district":{"key":"08116","name":"Esslingen","type":"Landkreis"},"federalState":{"key":"08","name":"Baden-Württemberg"}},{"name":"Kernerstr.","postalCode":"73230","locality":"Kirchheim unter Teck","municipality":{"key":"08116033","name":"Kirchheim unter Teck, Stadt","type":"Große_Kreisstadt"},"district":{"key":"08116","name":"Esslingen","type":"Landkreis"},"federalState":{"key":"08","name":"Baden-Württemberg"}},{"name":"Kiebitzweg","postalCode":"73230","locality":"Kirchheim unter Teck","municipality":{"key":"08116033","name":"Kirchheim unter Teck, Stadt","type":"Große_Kreisstadt"},"district":{"key":"08116","name":"Esslingen","type":"Landkreis"},"federalState":{"key":"08","name":"Baden-Württemberg"}},{"name":"Kiefernstr.","postalCode":"73230","locality":"Kirchheim unter Teck","municipality":{"key":"08116033","name":"Kirchheim unter Teck, Stadt","type":"Große_Kreisstadt"},"district":{"key":"08116","name":"Esslingen","type":"Landkreis"},"federalState":{"key":"08","name":"Baden-Württemberg"}},{"name":"Kirchheimer Str.","postalCode":"73230","locality":"Kirchheim unter Teck","municipality":{"key":"08116033","name":"Kirchheim unter Teck, Stadt","type":"Große_Kreisstadt"},"district":{"key":"08116","name":"Esslingen","type":"Landkreis"},"federalState":{"key":"08","name":"Baden-Württemberg"}},{"name":"Kirchhofstr.","postalCode":"73230","locality":"Kirchheim unter Teck","municipality":{"key":"08116033","name":"Kirchheim unter Teck, Stadt","type":"Große_Kreisstadt"},"district":{"key":"08116","name":"Esslingen","type":"Landkreis"},"federalState":{"key":"08","name":"Baden-Württemberg"}},{"name":"Kirchstr.","postalCode":"73230","locality":"Kirchheim unter Teck","municipality":{"key":"08116033","name":"Kirchheim unter Teck, Stadt","type":"Große_Kreisstadt"},"district":{"key":"08116","name":"Esslingen","type":"Landkreis"},"federalState":{"key":"08","name":"Baden-Württemberg"}},{"name":"Kitteneshalde","postalCode":"73230","locality":"Kirchheim unter Teck","municipality":{"key":"08116033","name":"Kirchheim unter Teck, Stadt","type":"Große_Kreisstadt"},"district":{"key":"08116","name":"Esslingen","type":"Landkreis"},"federalState":{"key":"08","name":"Baden-Württemberg"}},{"name":"Klosterstr.","postalCode":"73230","locality":"Kirchheim unter Teck","municipality":{"key":"08116033","name":"Kirchheim unter Teck, Stadt","type":"Große_Kreisstadt"},"district":{"key":"08116","name":"Esslingen","type":"Landkreis"},"federalState":{"key":"08","name":"Baden-Württemberg"}},{"name":"Klosterwiese","postalCode":"73230","locality":"Kirchheim unter Teck","municipality":{"key":"08116033","name":"Kirchheim unter Teck, Stadt","type":"Große_Kreisstadt"},"district":{"key":"08116","name":"Esslingen","type":"Landkreis"},"federalState":{"key":"08","name":"Baden-Württemberg"}},{"name":"Kolbstr.","postalCode":"73230","locality":"Kirchheim unter Teck","municipality":{"key":"08116033","name":"Kirchheim unter Teck, Stadt","type":"Große_Kreisstadt"},"district":{"key":"08116","name":"Esslingen","type":"Landkreis"},"federalState":{"key":"08","name":"Baden-Württemberg"}},{"name":"Konrad-Widerholt Grundschule Schulhof","postalCode":"73230","locality":"Kirchheim unter Teck","municipality":{"key":"08116033","name":"Kirchheim unter Teck, Stadt","type":"Große_Kreisstadt"},"district":{"key":"08116","name":"Esslingen","type":"Landkreis"},"federalState":{"key":"08","name":"Baden-Württemberg"}},{"name":"Kopernikusstr.","postalCode":"73230","locality":"Kirchheim unter Teck","municipality":{"key":"08116033","name":"Kirchheim unter Teck, Stadt","type":"Große_Kreisstadt"},"district":{"key":"08116","name":"Esslingen","type":"Landkreis"},"federalState":{"key":"08","name":"Baden-Württemberg"}},{"name":"Kornbergstr.","postalCode":"73230","locality":"Kirchheim unter Teck","municipality":{"key":"08116033","name":"Kirchheim unter Teck, Stadt","type":"Große_Kreisstadt"},"district":{"key":"08116","name":"Esslingen","type":"Landkreis"},"federalState":{"key":"08","name":"Baden-Württemberg"}},{"name":"Krebenstr.","postalCode":"73230","locality":"Kirchheim unter Teck","municipality":{"key":"08116033","name":"Kirchheim unter Teck, Stadt","type":"Große_Kreisstadt"},"district":{"key":"08116","name":"Esslingen","type":"Landkreis"},"federalState":{"key":"08","name":"Baden-Württemberg"}},{"name":"Kruichling","postalCode":"73230","locality":"Kirchheim unter Teck","municipality":{"key":"08116033","name":"Kirchheim unter Teck, Stadt","type":"Große_Kreisstadt"},"district":{"key":"08116","name":"Esslingen","type":"Landkreis"},"federalState":{"key":"08","name":"Baden-Württemberg"}},{"name":"Krumme Str.","postalCode":"73230","locality":"Kirchheim unter Teck","municipality":{"key":"08116033","name":"Kirchheim unter Teck, Stadt","type":"Große_Kreisstadt"},"district":{"key":"08116","name":"Esslingen","type":"Landkreis"},"federalState":{"key":"08","name":"Baden-Württemberg"}},{"name":"Krummgässle","postalCode":"73230","locality":"Kirchheim unter Teck","municipality":{"key":"08116033","name":"Kirchheim unter Teck, Stadt","type":"Große_Kreisstadt"},"district":{"key":"08116","name":"Esslingen","type":"Landkreis"},"federalState":{"key":"08","name":"Baden-Württemberg"}},{"name":"Lämmlestr.","postalCode":"73230","locality":"Kirchheim unter Teck","municipality":{"key":"08116033","name":"Kirchheim unter Teck, Stadt","type":"Große_Kreisstadt"},"district":{"key":"08116","name":"Esslingen","type":"Landkreis"},"federalState":{"key":"08","name":"Baden-Württemberg"}},{"name":"Lammstr.","postalCode":"73230","locality":"Kirchheim unter Teck","municipality":{"key":"08116033","name":"Kirchheim unter Teck, Stadt","type":"Große_Kreisstadt"},"district":{"key":"08116","name":"Esslingen","type":"Landkreis"},"federalState":{"key":"08","name":"Baden-Württemberg"}},{"name":"Lange Morgen","postalCode":"73230","locality":"Kirchheim unter Teck","municipality":{"key":"08116033","name":"Kirchheim unter Teck, Stadt","type":"Große_Kreisstadt"},"district":{"key":"08116","name":"Esslingen","type":"Landkreis"},"federalState":{"key":"08","name":"Baden-Württemberg"}},{"name":"Laubersberg","postalCode":"73230","locality":"Kirchheim unter Teck","municipality":{"key":"08116033","name":"Kirchheim unter Teck, Stadt","type":"Große_Kreisstadt"},"district":{"key":"08116","name":"Esslingen","type":"Landkreis"},"federalState":{"key":"08","name":"Baden-Württemberg"}},{"name":"Lauereicheweg","postalCode":"73230","locality":"Kirchheim unter Teck","municipality":{"key":"08116033","name":"Kirchheim unter Teck, Stadt","type":"Große_Kreisstadt"},"district":{"key":"08116","name":"Esslingen","type":"Landkreis"},"federalState":{"key":"08","name":"Baden-Württemberg"}},{"name":"Läuleweg","postalCode":"73230","locality":"Kirchheim unter Teck","municipality":{"key":"08116033","name":"Kirchheim unter Teck, Stadt","type":"Große_Kreisstadt"},"district":{"key":"08116","name":"Esslingen","type":"Landkreis"},"federalState":{"key":"08","name":"Baden-Württemberg"}},{"name":"Laurachsträßle","postalCode":"73230","locality":"Kirchheim unter Teck","municipality":{"key":"08116033","name":"Kirchheim unter Teck, Stadt","type":"Große_Kreisstadt"},"district":{"key":"08116","name":"Esslingen","type":"Landkreis"},"federalState":{"key":"08","name":"Baden-Württemberg"}},{"name":"Lauterkanal Renaturierung","postalCode":"73230","locality":"Kirchheim unter Teck","municipality":{"key":"08116033","name":"Kirchheim unter Teck, Stadt","type":"Große_Kreisstadt"},"district":{"key":"08116","name":"Esslingen","type":"Landkreis"},"federalState":{"key":"08","name":"Baden-Württemberg"}},{"name":"Lauterstr.","postalCode":"73230","locality":"Kirchheim unter Teck","municipality":{"key":"08116033","name":"Kirchheim unter Teck, Stadt","type":"Große_Kreisstadt"},"district":{"key":"08116","name":"Esslingen","type":"Landkreis"},"federalState":{"key":"08","name":"Baden-Württemberg"}},{"name":"Leibnizstr.","postalCode":"73230","locality":"Kirchheim unter Teck","municipality":{"key":"08116033","name":"Kirchheim unter Teck, Stadt","type":"Große_Kreisstadt"},"district":{"key":"08116","name":"Esslingen","type":"Landkreis"},"federalState":{"key":"08","name":"Baden-Württemberg"}},{"name":"Lenaustr.","postalCode":"73230","locality":"Kirchheim unter Teck","municipality":{"key":"08116033","name":"Kirchheim unter Teck, Stadt","type":"Große_Kreisstadt"},"district":{"key":"08116","name":"Esslingen","type":"Landkreis"},"federalState":{"key":"08","name":"Baden-Württemberg"}},{"name":"Lenninger Str.","postalCode":"73230","locality":"Kirchheim unter Teck","municipality":{"key":"08116033","name":"Kirchheim unter Teck, Stadt","type":"Große_Kreisstadt"},"district":{"key":"08116","name":"Esslingen","type":"Landkreis"},"federalState":{"key":"08","name":"Baden-Württemberg"}},{"name":"Lerchenweg","postalCode":"73230","locality":"Kirchheim unter Teck","municipality":{"key":"08116033","name":"Kirchheim unter Teck, Stadt","type":"Große_Kreisstadt"},"district":{"key":"08116","name":"Esslingen","type":"Landkreis"},"federalState":{"key":"08","name":"Baden-Württemberg"}},{"name":"Lessingstr.","postalCode":"73230","locality":"Kirchheim unter Teck","municipality":{"key":"08116033","name":"Kirchheim unter Teck, Stadt","type":"Große_Kreisstadt"},"district":{"key":"08116","name":"Esslingen","type":"Landkreis"},"federalState":{"key":"08","name":"Baden-Württemberg"}},{"name":"Lettenäckerstr.","postalCode":"73230","locality":"Kirchheim unter Teck","municipality":{"key":"08116033","name":"Kirchheim unter Teck, Stadt","type":"Große_Kreisstadt"},"district":{"key":"08116","name":"Esslingen","type":"Landkreis"},"federalState":{"key":"08","name":"Baden-Württemberg"}},{"name":"Lichtensteinstr.","postalCode":"73230","locality":"Kirchheim unter Teck","municipality":{"key":"08116033","name":"Kirchheim unter Teck, Stadt","type":"Große_Kreisstadt"},"district":{"key":"08116","name":"Esslingen","type":"Landkreis"},"federalState":{"key":"08","name":"Baden-Württemberg"}},{"name":"Liebigstr.","postalCode":"73230","locality":"Kirchheim unter Teck","municipality":{"key":"08116033","name":"Kirchheim unter Teck, Stadt","type":"Große_Kreisstadt"},"district":{"key":"08116","name":"Esslingen","type":"Landkreis"},"federalState":{"key":"08","name":"Baden-Württemberg"}},{"name":"Lilienweg","postalCode":"73230","locality":"Kirchheim unter Teck","municipality":{"key":"08116033","name":"Kirchheim unter Teck, Stadt","type":"Große_Kreisstadt"},"district":{"key":"08116","name":"Esslingen","type":"Landkreis"},"federalState":{"key":"08","name":"Baden-Württemberg"}},{"name":"Limburgstr.","postalCode":"73230","locality":"Kirchheim unter Teck","municipality":{"key":"08116033","name":"Kirchheim unter Teck, Stadt","type":"Große_Kreisstadt"},"district":{"key":"08116","name":"Esslingen","type":"Landkreis"},"federalState":{"key":"08","name":"Baden-Württemberg"}},{"name":"Lindachallee","postalCode":"73230","locality":"Kirchheim unter Teck","municipality":{"key":"08116033","name":"Kirchheim unter Teck, Stadt","type":"Große_Kreisstadt"},"district":{"key":"08116","name":"Esslingen","type":"Landkreis"},"federalState":{"key":"08","name":"Baden-Württemberg"}},{"name":"Lindachstr.","postalCode":"73230","locality":"Kirchheim unter Teck","municipality":{"key":"08116033","name":"Kirchheim unter Teck, Stadt","type":"Große_Kreisstadt"},"district":{"key":"08116","name":"Esslingen","type":"Landkreis"},"federalState":{"key":"08","name":"Baden-Württemberg"}},{"name":"Lindachweg","postalCode":"73230","locality":"Kirchheim unter Teck","municipality":{"key":"08116033","name":"Kirchheim unter Teck, Stadt","type":"Große_Kreisstadt"},"district":{"key":"08116","name":"Esslingen","type":"Landkreis"},"federalState":{"key":"08","name":"Baden-Württemberg"}},{"name":"Lindenstr.","postalCode":"73230","locality":"Kirchheim unter Teck","municipality":{"key":"08116033","name":"Kirchheim unter Teck, Stadt","type":"Große_Kreisstadt"},"district":{"key":"08116","name":"Esslingen","type":"Landkreis"},"federalState":{"key":"08","name":"Baden-Württemberg"}},{"name":"Lindorfer Str.","postalCode":"73230","locality":"Kirchheim unter Teck","municipality":{"key":"08116033","name":"Kirchheim unter Teck, Stadt","type":"Große_Kreisstadt"},"district":{"key":"08116","name":"Esslingen","type":"Landkreis"},"federalState":{"key":"08","name":"Baden-Württemberg"}},{"name":"Lindorfer Weg","postalCode":"73230","locality":"Kirchheim unter Teck","municipality":{"key":"08116033","name":"Kirchheim unter Teck, Stadt","type":"Große_Kreisstadt"},"district":{"key":"08116","name":"Esslingen","type":"Landkreis"},"federalState":{"key":"08","name":"Baden-Württemberg"}},{"name":"Linkstr.","postalCode":"73230","locality":"Kirchheim unter Teck","municipality":{"key":"08116033","name":"Kirchheim unter Teck, Stadt","type":"Große_Kreisstadt"},"district":{"key":"08116","name":"Esslingen","type":"Landkreis"},"federalState":{"key":"08","name":"Baden-Württemberg"}},{"name":"Lise-Meitner-Str.","postalCode":"73230","locality":"Kirchheim unter Teck","municipality":{"key":"08116033","name":"Kirchheim unter Teck, Stadt","type":"Große_Kreisstadt"},"district":{"key":"08116","name":"Esslingen","type":"Landkreis"},"federalState":{"key":"08","name":"Baden-Württemberg"}},{"name":"Liststr.","postalCode":"73230","locality":"Kirchheim unter Teck","municipality":{"key":"08116033","name":"Kirchheim unter Teck, Stadt","type":"Große_Kreisstadt"},"district":{"key":"08116","name":"Esslingen","type":"Landkreis"},"federalState":{"key":"08","name":"Baden-Württemberg"}},{"name":"Lochweg","postalCode":"73230","locality":"Kirchheim unter Teck","municipality":{"key":"08116033","name":"Kirchheim unter Teck, Stadt","type":"Große_Kreisstadt"},"district":{"key":"08116","name":"Esslingen","type":"Landkreis"},"federalState":{"key":"08","name":"Baden-Württemberg"}},{"name":"Lohmühlgasse","postalCode":"73230","locality":"Kirchheim unter Teck","municipality":{"key":"08116033","name":"Kirchheim unter Teck, Stadt","type":"Große_Kreisstadt"},"district":{"key":"08116","name":"Esslingen","type":"Landkreis"},"federalState":{"key":"08","name":"Baden-Württemberg"}},{"name":"Luchsweg","postalCode":"73230","locality":"Kirchheim unter Teck","municipality":{"key":"08116033","name":"Kirchheim unter Teck, Stadt","type":"Große_Kreisstadt"},"district":{"key":"08116","name":"Esslingen","type":"Landkreis"},"federalState":{"key":"08","name":"Baden-Württemberg"}},{"name":"Ludwig-Finckh-Str.","postalCode":"73230","locality":"Kirchheim unter Teck","municipality":{"key":"08116033","name":"Kirchheim unter Teck, Stadt","type":"Große_Kreisstadt"},"district":{"key":"08116","name":"Esslingen","type":"Landkreis"},"federalState":{"key":"08","name":"Baden-Württemberg"}},{"name":"Ludwigstr.","postalCode":"73230","locality":"Kirchheim unter Teck","municipality":{"key":"08116033","name":"Kirchheim unter Teck, Stadt","type":"Große_Kreisstadt"},"district":{"key":"08116","name":"Esslingen","type":"Landkreis"},"federalState":{"key":"08","name":"Baden-Württemberg"}},{"name":"Maiglöckchenweg","postalCode":"73230","locality":"Kirchheim unter Teck","municipality":{"key":"08116033","name":"Kirchheim unter Teck, Stadt","type":"Große_Kreisstadt"},"district":{"key":"08116","name":"Esslingen","type":"Landkreis"},"federalState":{"key":"08","name":"Baden-Württemberg"}},{"name":"Mannsbergstr.","postalCode":"73230","locality":"Kirchheim unter Teck","municipality":{"key":"08116033","name":"Kirchheim unter Teck, Stadt","type":"Große_Kreisstadt"},"district":{"key":"08116","name":"Esslingen","type":"Landkreis"},"federalState":{"key":"08","name":"Baden-Württemberg"}},{"name":"Marderweg","postalCode":"73230","locality":"Kirchheim unter Teck","municipality":{"key":"08116033","name":"Kirchheim unter Teck, Stadt","type":"Große_Kreisstadt"},"district":{"key":"08116","name":"Esslingen","type":"Landkreis"},"federalState":{"key":"08","name":"Baden-Württemberg"}},{"name":"Maria-Merian-Str.","postalCode":"73230","locality":"Kirchheim unter Teck","municipality":{"key":"08116033","name":"Kirchheim unter Teck, Stadt","type":"Große_Kreisstadt"},"district":{"key":"08116","name":"Esslingen","type":"Landkreis"},"federalState":{"key":"08","name":"Baden-Württemberg"}},{"name":"Marie-Curie-Str.","postalCode":"73230","locality":"Kirchheim unter Teck","municipality":{"key":"08116033","name":"Kirchheim unter Teck, Stadt","type":"Große_Kreisstadt"},"district":{"key":"08116","name":"Esslingen","type":"Landkreis"},"federalState":{"key":"08","name":"Baden-Württemberg"}},{"name":"Marienstr.","postalCode":"73230","locality":"Kirchheim unter Teck","municipality":{"key":"08116033","name":"Kirchheim unter Teck, Stadt","type":"Große_Kreisstadt"},"district":{"key":"08116","name":"Esslingen","type":"Landkreis"},"federalState":{"key":"08","name":"Baden-Württemberg"}},{"name":"Marktplatz","postalCode":"73230","locality":"Kirchheim unter Teck","municipality":{"key":"08116033","name":"Kirchheim unter Teck, Stadt","type":"Große_Kreisstadt"},"district":{"key":"08116","name":"Esslingen","type":"Landkreis"},"federalState":{"key":"08","name":"Baden-Württemberg"}},{"name":"Marktstr.","postalCode":"73230","locality":"Kirchheim unter Teck","municipality":{"key":"08116033","name":"Kirchheim unter Teck, Stadt","type":"Große_Kreisstadt"},"district":{"key":"08116","name":"Esslingen","type":"Landkreis"},"federalState":{"key":"08","name":"Baden-Württemberg"}},{"name":"Max-Eyth-Str.","postalCode":"73230","locality":"Kirchheim unter Teck","municipality":{"key":"08116033","name":"Kirchheim unter Teck, Stadt","type":"Große_Kreisstadt"},"district":{"key":"08116","name":"Esslingen","type":"Landkreis"},"federalState":{"key":"08","name":"Baden-Württemberg"}},{"name":"Max-Planck-Str.","postalCode":"73230","locality":"Kirchheim unter Teck","municipality":{"key":"08116033","name":"Kirchheim unter Teck, Stadt","type":"Große_Kreisstadt"},"district":{"key":"08116","name":"Esslingen","type":"Landkreis"},"federalState":{"key":"08","name":"Baden-Württemberg"}},{"name":"Max-Reger-Weg","postalCode":"73230","locality":"Kirchheim unter Teck","municipality":{"key":"08116033","name":"Kirchheim unter Teck, Stadt","type":"Große_Kreisstadt"},"district":{"key":"08116","name":"Esslingen","type":"Landkreis"},"federalState":{"key":"08","name":"Baden-Württemberg"}},{"name":"Maybachstr.","postalCode":"73230","locality":"Kirchheim unter Teck","municipality":{"key":"08116033","name":"Kirchheim unter Teck, Stadt","type":"Große_Kreisstadt"},"district":{"key":"08116","name":"Esslingen","type":"Landkreis"},"federalState":{"key":"08","name":"Baden-Württemberg"}},{"name":"Metzinger Str.","postalCode":"73230","locality":"Kirchheim unter Teck","municipality":{"key":"08116033","name":"Kirchheim unter Teck, Stadt","type":"Große_Kreisstadt"},"district":{"key":"08116","name":"Esslingen","type":"Landkreis"},"federalState":{"key":"08","name":"Baden-Württemberg"}},{"name":"Milanweg","postalCode":"73230","locality":"Kirchheim unter Teck","municipality":{"key":"08116033","name":"Kirchheim unter Teck, Stadt","type":"Große_Kreisstadt"},"district":{"key":"08116","name":"Esslingen","type":"Landkreis"},"federalState":{"key":"08","name":"Baden-Württemberg"}},{"name":"Milcherberg","postalCode":"73230","locality":"Kirchheim unter Teck","municipality":{"key":"08116033","name":"Kirchheim unter Teck, Stadt","type":"Große_Kreisstadt"},"district":{"key":"08116","name":"Esslingen","type":"Landkreis"},"federalState":{"key":"08","name":"Baden-Württemberg"}},{"name":"Milchstr.","postalCode":"73230","locality":"Kirchheim unter Teck","municipality":{"key":"08116033","name":"Kirchheim unter Teck, Stadt","type":"Große_Kreisstadt"},"district":{"key":"08116","name":"Esslingen","type":"Landkreis"},"federalState":{"key":"08","name":"Baden-Württemberg"}},{"name":"Mittlerer Hauweg","postalCode":"73230","locality":"Kirchheim unter Teck","municipality":{"key":"08116033","name":"Kirchheim unter Teck, Stadt","type":"Große_Kreisstadt"},"district":{"key":"08116","name":"Esslingen","type":"Landkreis"},"federalState":{"key":"08","name":"Baden-Württemberg"}},{"name":"Mittlere Str.","postalCode":"73230","locality":"Kirchheim unter Teck","municipality":{"key":"08116033","name":"Kirchheim unter Teck, Stadt","type":"Große_Kreisstadt"},"district":{"key":"08116","name":"Esslingen","type":"Landkreis"},"federalState":{"key":"08","name":"Baden-Württemberg"}},{"name":"Mörikestr.","postalCode":"73230","locality":"Kirchheim unter Teck","municipality":{"key":"08116033","name":"Kirchheim unter Teck, Stadt","type":"Große_Kreisstadt"},"district":{"key":"08116","name":"Esslingen","type":"Landkreis"},"federalState":{"key":"08","name":"Baden-Württemberg"}},{"name":"Mozartstr.","postalCode":"73230","locality":"Kirchheim unter Teck","municipality":{"key":"08116033","name":"Kirchheim unter Teck, Stadt","type":"Große_Kreisstadt"},"district":{"key":"08116","name":"Esslingen","type":"Landkreis"},"federalState":{"key":"08","name":"Baden-Württemberg"}},{"name":"Mühläckerstr.","postalCode":"73230","locality":"Kirchheim unter Teck","municipality":{"key":"08116033","name":"Kirchheim unter Teck, Stadt","type":"Große_Kreisstadt"},"district":{"key":"08116","name":"Esslingen","type":"Landkreis"},"federalState":{"key":"08","name":"Baden-Württemberg"}},{"name":"Mühlsteige","postalCode":"73230","locality":"Kirchheim unter Teck","municipality":{"key":"08116033","name":"Kirchheim unter Teck, Stadt","type":"Große_Kreisstadt"},"district":{"key":"08116","name":"Esslingen","type":"Landkreis"},"federalState":{"key":"08","name":"Baden-Württemberg"}},{"name":"Mühlstr.","postalCode":"73230","locality":"Kirchheim unter Teck","municipality":{"key":"08116033","name":"Kirchheim unter Teck, Stadt","type":"Große_Kreisstadt"},"district":{"key":"08116","name":"Esslingen","type":"Landkreis"},"federalState":{"key":"08","name":"Baden-Württemberg"}},{"name":"Müllergasse","postalCode":"73230","locality":"Kirchheim unter Teck","municipality":{"key":"08116033","name":"Kirchheim unter Teck, Stadt","type":"Große_Kreisstadt"},"district":{"key":"08116","name":"Esslingen","type":"Landkreis"},"federalState":{"key":"08","name":"Baden-Württemberg"}},{"name":"Naberner Str.","postalCode":"73230","locality":"Kirchheim unter Teck","municipality":{"key":"08116033","name":"Kirchheim unter Teck, Stadt","type":"Große_Kreisstadt"},"district":{"key":"08116","name":"Esslingen","type":"Landkreis"},"federalState":{"key":"08","name":"Baden-Württemberg"}},{"name":"Naherholungsgebiet Bürgerseen","postalCode":"73230","locality":"Kirchheim unter Teck","municipality":{"key":"08116033","name":"Kirchheim unter Teck, Stadt","type":"Große_Kreisstadt"},"district":{"key":"08116","name":"Esslingen","type":"Landkreis"},"federalState":{"key":"08","name":"Baden-Württemberg"}},{"name":"Nelkenweg","postalCode":"73230","locality":"Kirchheim unter Teck","municipality":{"key":"08116033","name":"Kirchheim unter Teck, Stadt","type":"Große_Kreisstadt"},"district":{"key":"08116","name":"Esslingen","type":"Landkreis"},"federalState":{"key":"08","name":"Baden-Württemberg"}},{"name":"Neue Str.","postalCode":"73230","locality":"Kirchheim unter Teck","municipality":{"key":"08116033","name":"Kirchheim unter Teck, Stadt","type":"Große_Kreisstadt"},"district":{"key":"08116","name":"Esslingen","type":"Landkreis"},"federalState":{"key":"08","name":"Baden-Württemberg"}},{"name":"Neue Weilheimer Str.","postalCode":"73230","locality":"Kirchheim unter Teck","municipality":{"key":"08116033","name":"Kirchheim unter Teck, Stadt","type":"Große_Kreisstadt"},"district":{"key":"08116","name":"Esslingen","type":"Landkreis"},"federalState":{"key":"08","name":"Baden-Württemberg"}},{"name":"Neuffenstr.","postalCode":"73230","locality":"Kirchheim unter Teck","municipality":{"key":"08116033","name":"Kirchheim unter Teck, Stadt","type":"Große_Kreisstadt"},"district":{"key":"08116","name":"Esslingen","type":"Landkreis"},"federalState":{"key":"08","name":"Baden-Württemberg"}},{"name":"Nördlicher Traufweg","postalCode":"73230","locality":"Kirchheim unter Teck","municipality":{"key":"08116033","name":"Kirchheim unter Teck, Stadt","type":"Große_Kreisstadt"},"district":{"key":"08116","name":"Esslingen","type":"Landkreis"},"federalState":{"key":"08","name":"Baden-Württemberg"}},{"name":"Notzinger Steige","postalCode":"73230","locality":"Kirchheim unter Teck","municipality":{"key":"08116033","name":"Kirchheim unter Teck, Stadt","type":"Große_Kreisstadt"},"district":{"key":"08116","name":"Esslingen","type":"Landkreis"},"federalState":{"key":"08","name":"Baden-Württemberg"}},{"name":"Notzinger Str.","postalCode":"73230","locality":"Kirchheim unter Teck","municipality":{"key":"08116033","name":"Kirchheim unter Teck, Stadt","type":"Große_Kreisstadt"},"district":{"key":"08116","name":"Esslingen","type":"Landkreis"},"federalState":{"key":"08","name":"Baden-Württemberg"}},{"name":"Nürtinger Str.","postalCode":"73230","locality":"Kirchheim unter Teck","municipality":{"key":"08116033","name":"Kirchheim unter Teck, Stadt","type":"Große_Kreisstadt"},"district":{"key":"08116","name":"Esslingen","type":"Landkreis"},"federalState":{"key":"08","name":"Baden-Württemberg"}},{"name":"Nusshans","postalCode":"73230","locality":"Kirchheim unter Teck","municipality":{"key":"08116033","name":"Kirchheim unter Teck, Stadt","type":"Große_Kreisstadt"},"district":{"key":"08116","name":"Esslingen","type":"Landkreis"},"federalState":{"key":"08","name":"Baden-Württemberg"}},{"name":"Ob dem Traubenweg","postalCode":"73230","locality":"Kirchheim unter Teck","municipality":{"key":"08116033","name":"Kirchheim unter Teck, Stadt","type":"Große_Kreisstadt"},"district":{"key":"08116","name":"Esslingen","type":"Landkreis"},"federalState":{"key":"08","name":"Baden-Württemberg"}},{"name":"Oberboihinger Str.","postalCode":"73230","locality":"Kirchheim unter Teck","municipality":{"key":"08116033","name":"Kirchheim unter Teck, Stadt","type":"Große_Kreisstadt"},"district":{"key":"08116","name":"Esslingen","type":"Landkreis"},"federalState":{"key":"08","name":"Baden-Württemberg"}},{"name":"Oberer Sportplatzweg","postalCode":"73230","locality":"Kirchheim unter Teck","municipality":{"key":"08116033","name":"Kirchheim unter Teck, Stadt","type":"Große_Kreisstadt"},"district":{"key":"08116","name":"Esslingen","type":"Landkreis"},"federalState":{"key":"08","name":"Baden-Württemberg"}},{"name":"Obere Steinstr.","postalCode":"73230","locality":"Kirchheim unter Teck","municipality":{"key":"08116033","name":"Kirchheim unter Teck, Stadt","type":"Große_Kreisstadt"},"district":{"key":"08116","name":"Esslingen","type":"Landkreis"},"federalState":{"key":"08","name":"Baden-Württemberg"}},{"name":"Ochsengässle","postalCode":"73230","locality":"Kirchheim unter Teck","municipality":{"key":"08116033","name":"Kirchheim unter Teck, Stadt","type":"Große_Kreisstadt"},"district":{"key":"08116","name":"Esslingen","type":"Landkreis"},"federalState":{"key":"08","name":"Baden-Württemberg"}},{"name":"Ohmdbachweg","postalCode":"73230","locality":"Kirchheim unter Teck","municipality":{"key":"08116033","name":"Kirchheim unter Teck, Stadt","type":"Große_Kreisstadt"},"district":{"key":"08116","name":"Esslingen","type":"Landkreis"},"federalState":{"key":"08","name":"Baden-Württemberg"}},{"name":"Osianderstr.","postalCode":"73230","locality":"Kirchheim unter Teck","municipality":{"key":"08116033","name":"Kirchheim unter Teck, Stadt","type":"Große_Kreisstadt"},"district":{"key":"08116","name":"Esslingen","type":"Landkreis"},"federalState":{"key":"08","name":"Baden-Württemberg"}},{"name":"Ottenäcker","postalCode":"73230","locality":"Kirchheim unter Teck","municipality":{"key":"08116033","name":"Kirchheim unter Teck, Stadt","type":"Große_Kreisstadt"},"district":{"key":"08116","name":"Esslingen","type":"Landkreis"},"federalState":{"key":"08","name":"Baden-Württemberg"}},{"name":"Otto-Mörike-Str.","postalCode":"73230","locality":"Kirchheim unter Teck","municipality":{"key":"08116033","name":"Kirchheim unter Teck, Stadt","type":"Große_Kreisstadt"},"district":{"key":"08116","name":"Esslingen","type":"Landkreis"},"federalState":{"key":"08","name":"Baden-Württemberg"}},{"name":"Panoramastr.","postalCode":"73230","locality":"Kirchheim unter Teck","municipality":{"key":"08116033","name":"Kirchheim unter Teck, Stadt","type":"Große_Kreisstadt"},"district":{"key":"08116","name":"Esslingen","type":"Landkreis"},"federalState":{"key":"08","name":"Baden-Württemberg"}},{"name":"Panoramaweg","postalCode":"73230","locality":"Kirchheim unter Teck","municipality":{"key":"08116033","name":"Kirchheim unter Teck, Stadt","type":"Große_Kreisstadt"},"district":{"key":"08116","name":"Esslingen","type":"Landkreis"},"federalState":{"key":"08","name":"Baden-Württemberg"}},{"name":"Paracelsusstr.","postalCode":"73230","locality":"Kirchheim unter Teck","municipality":{"key":"08116033","name":"Kirchheim unter Teck, Stadt","type":"Große_Kreisstadt"},"district":{"key":"08116","name":"Esslingen","type":"Landkreis"},"federalState":{"key":"08","name":"Baden-Württemberg"}},{"name":"Paradiesstr.","postalCode":"73230","locality":"Kirchheim unter Teck","municipality":{"key":"08116033","name":"Kirchheim unter Teck, Stadt","type":"Große_Kreisstadt"},"district":{"key":"08116","name":"Esslingen","type":"Landkreis"},"federalState":{"key":"08","name":"Baden-Württemberg"}},{"name":"Paulinenstr.","postalCode":"73230","locality":"Kirchheim unter Teck","municipality":{"key":"08116033","name":"Kirchheim unter Teck, Stadt","type":"Große_Kreisstadt"},"district":{"key":"08116","name":"Esslingen","type":"Landkreis"},"federalState":{"key":"08","name":"Baden-Württemberg"}},{"name":"Paul-Schempp-Web","postalCode":"73230","locality":"Kirchheim unter Teck","municipality":{"key":"08116033","name":"Kirchheim unter Teck, Stadt","type":"Große_Kreisstadt"},"district":{"key":"08116","name":"Esslingen","type":"Landkreis"},"federalState":{"key":"08","name":"Baden-Württemberg"}},{"name":"Pfaffenhalde","postalCode":"73230","locality":"Kirchheim unter Teck","municipality":{"key":"08116033","name":"Kirchheim unter Teck, Stadt","type":"Große_Kreisstadt"},"district":{"key":"08116","name":"Esslingen","type":"Landkreis"},"federalState":{"key":"08","name":"Baden-Württemberg"}},{"name":"Pirolweg","postalCode":"73230","locality":"Kirchheim unter Teck","municipality":{"key":"08116033","name":"Kirchheim unter Teck, Stadt","type":"Große_Kreisstadt"},"district":{"key":"08116","name":"Esslingen","type":"Landkreis"},"federalState":{"key":"08","name":"Baden-Württemberg"}},{"name":"Plochinger Str.","postalCode":"73230","locality":"Kirchheim unter Teck","municipality":{"key":"08116033","name":"Kirchheim unter Teck, Stadt","type":"Große_Kreisstadt"},"district":{"key":"08116","name":"Esslingen","type":"Landkreis"},"federalState":{"key":"08","name":"Baden-Württemberg"}},{"name":"Primelweg","postalCode":"73230","locality":"Kirchheim unter Teck","municipality":{"key":"08116033","name":"Kirchheim unter Teck, Stadt","type":"Große_Kreisstadt"},"district":{"key":"08116","name":"Esslingen","type":"Landkreis"},"federalState":{"key":"08","name":"Baden-Württemberg"}},{"name":"Quellenweg","postalCode":"73230","locality":"Kirchheim unter Teck","municipality":{"key":"08116033","name":"Kirchheim unter Teck, Stadt","type":"Große_Kreisstadt"},"district":{"key":"08116","name":"Esslingen","type":"Landkreis"},"federalState":{"key":"08","name":"Baden-Württemberg"}},{"name":"Rambouillet-Platz","postalCode":"73230","locality":"Kirchheim unter Teck","municipality":{"key":"08116033","name":"Kirchheim unter Teck, Stadt","type":"Große_Kreisstadt"},"district":{"key":"08116","name":"Esslingen","type":"Landkreis"},"federalState":{"key":"08","name":"Baden-Württemberg"}},{"name":"Randeckstr.","postalCode":"73230","locality":"Kirchheim unter Teck","municipality":{"key":"08116033","name":"Kirchheim unter Teck, Stadt","type":"Große_Kreisstadt"},"district":{"key":"08116","name":"Esslingen","type":"Landkreis"},"federalState":{"key":"08","name":"Baden-Württemberg"}},{"name":"Rappen","postalCode":"73230","locality":"Kirchheim unter Teck","municipality":{"key":"08116033","name":"Kirchheim unter Teck, Stadt","type":"Große_Kreisstadt"},"district":{"key":"08116","name":"Esslingen","type":"Landkreis"},"federalState":{"key":"08","name":"Baden-Württemberg"}},{"name":"Rauberweg","postalCode":"73230","locality":"Kirchheim unter Teck","municipality":{"key":"08116033","name":"Kirchheim unter Teck, Stadt","type":"Große_Kreisstadt"},"district":{"key":"08116","name":"Esslingen","type":"Landkreis"},"federalState":{"key":"08","name":"Baden-Württemberg"}},{"name":"Raunerstr.","postalCode":"73230","locality":"Kirchheim unter Teck","municipality":{"key":"08116033","name":"Kirchheim unter Teck, Stadt","type":"Große_Kreisstadt"},"district":{"key":"08116","name":"Esslingen","type":"Landkreis"},"federalState":{"key":"08","name":"Baden-Württemberg"}},{"name":"Rembrandtweg","postalCode":"73230","locality":"Kirchheim unter Teck","municipality":{"key":"08116033","name":"Kirchheim unter Teck, Stadt","type":"Große_Kreisstadt"},"district":{"key":"08116","name":"Esslingen","type":"Landkreis"},"federalState":{"key":"08","name":"Baden-Württemberg"}},{"name":"Resedenweg","postalCode":"73230","locality":"Kirchheim unter Teck","municipality":{"key":"08116033","name":"Kirchheim unter Teck, Stadt","type":"Große_Kreisstadt"},"district":{"key":"08116","name":"Esslingen","type":"Landkreis"},"federalState":{"key":"08","name":"Baden-Württemberg"}},{"name":"Reuderner Str.","postalCode":"73230","locality":"Kirchheim unter Teck","municipality":{"key":"08116033","name":"Kirchheim unter Teck, Stadt","type":"Große_Kreisstadt"},"district":{"key":"08116","name":"Esslingen","type":"Landkreis"},"federalState":{"key":"08","name":"Baden-Württemberg"}},{"name":"Reußensteinstr.","postalCode":"73230","locality":"Kirchheim unter Teck","municipality":{"key":"08116033","name":"Kirchheim unter Teck, Stadt","type":"Große_Kreisstadt"},"district":{"key":"08116","name":"Esslingen","type":"Landkreis"},"federalState":{"key":"08","name":"Baden-Württemberg"}},{"name":"Reutlinger Str.","postalCode":"73230","locality":"Kirchheim unter Teck","municipality":{"key":"08116033","name":"Kirchheim unter Teck, Stadt","type":"Große_Kreisstadt"},"district":{"key":"08116","name":"Esslingen","type":"Landkreis"},"federalState":{"key":"08","name":"Baden-Württemberg"}},{"name":"Richard-Wagner-Str.","postalCode":"73230","locality":"Kirchheim unter Teck","municipality":{"key":"08116033","name":"Kirchheim unter Teck, Stadt","type":"Große_Kreisstadt"},"district":{"key":"08116","name":"Esslingen","type":"Landkreis"},"federalState":{"key":"08","name":"Baden-Württemberg"}},{"name":"Roggenäckerstr.","postalCode":"73230","locality":"Kirchheim unter Teck","municipality":{"key":"08116033","name":"Kirchheim unter Teck, Stadt","type":"Große_Kreisstadt"},"district":{"key":"08116","name":"Esslingen","type":"Landkreis"},"federalState":{"key":"08","name":"Baden-Württemberg"}},{"name":"Römersteinstr.","postalCode":"73230","locality":"Kirchheim unter Teck","municipality":{"key":"08116033","name":"Kirchheim unter Teck, Stadt","type":"Große_Kreisstadt"},"district":{"key":"08116","name":"Esslingen","type":"Landkreis"},"federalState":{"key":"08","name":"Baden-Württemberg"}},{"name":"Röntgenstr.","postalCode":"73230","locality":"Kirchheim unter Teck","municipality":{"key":"08116033","name":"Kirchheim unter Teck, Stadt","type":"Große_Kreisstadt"},"district":{"key":"08116","name":"Esslingen","type":"Landkreis"},"federalState":{"key":"08","name":"Baden-Württemberg"}},{"name":"Rosa-Heinzelmann-Str.","postalCode":"73230","locality":"Kirchheim unter Teck","municipality":{"key":"08116033","name":"Kirchheim unter Teck, Stadt","type":"Große_Kreisstadt"},"district":{"key":"08116","name":"Esslingen","type":"Landkreis"},"federalState":{"key":"08","name":"Baden-Württemberg"}},{"name":"Roseggerstr.","postalCode":"73230","locality":"Kirchheim unter Teck","municipality":{"key":"08116033","name":"Kirchheim unter Teck, Stadt","type":"Große_Kreisstadt"},"district":{"key":"08116","name":"Esslingen","type":"Landkreis"},"federalState":{"key":"08","name":"Baden-Württemberg"}},{"name":"Rosenhofweg","postalCode":"73230","locality":"Kirchheim unter Teck","municipality":{"key":"08116033","name":"Kirchheim unter Teck, Stadt","type":"Große_Kreisstadt"},"district":{"key":"08116","name":"Esslingen","type":"Landkreis"},"federalState":{"key":"08","name":"Baden-Württemberg"}},{"name":"Rosenstr.","postalCode":"73230","locality":"Kirchheim unter Teck","municipality":{"key":"08116033","name":"Kirchheim unter Teck, Stadt","type":"Große_Kreisstadt"},"district":{"key":"08116","name":"Esslingen","type":"Landkreis"},"federalState":{"key":"08","name":"Baden-Württemberg"}},{"name":"Rossbergstr.","postalCode":"73230","locality":"Kirchheim unter Teck","municipality":{"key":"08116033","name":"Kirchheim unter Teck, Stadt","type":"Große_Kreisstadt"},"district":{"key":"08116","name":"Esslingen","type":"Landkreis"},"federalState":{"key":"08","name":"Baden-Württemberg"}},{"name":"Roßmarkt","postalCode":"73230","locality":"Kirchheim unter Teck","municipality":{"key":"08116033","name":"Kirchheim unter Teck, Stadt","type":"Große_Kreisstadt"},"district":{"key":"08116","name":"Esslingen","type":"Landkreis"},"federalState":{"key":"08","name":"Baden-Württemberg"}},{"name":"Rotdornweg","postalCode":"73230","locality":"Kirchheim unter Teck","municipality":{"key":"08116033","name":"Kirchheim unter Teck, Stadt","type":"Große_Kreisstadt"},"district":{"key":"08116","name":"Esslingen","type":"Landkreis"},"federalState":{"key":"08","name":"Baden-Württemberg"}},{"name":"Rote Morgen","postalCode":"73230","locality":"Kirchheim unter Teck","municipality":{"key":"08116033","name":"Kirchheim unter Teck, Stadt","type":"Große_Kreisstadt"},"district":{"key":"08116","name":"Esslingen","type":"Landkreis"},"federalState":{"key":"08","name":"Baden-Württemberg"}},{"name":"Rubensweg","postalCode":"73230","locality":"Kirchheim unter Teck","municipality":{"key":"08116033","name":"Kirchheim unter Teck, Stadt","type":"Große_Kreisstadt"},"district":{"key":"08116","name":"Esslingen","type":"Landkreis"},"federalState":{"key":"08","name":"Baden-Württemberg"}},{"name":"Rübholzweg","postalCode":"73230","locality":"Kirchheim unter Teck","municipality":{"key":"08116033","name":"Kirchheim unter Teck, Stadt","type":"Große_Kreisstadt"},"district":{"key":"08116","name":"Esslingen","type":"Landkreis"},"federalState":{"key":"08","name":"Baden-Württemberg"}},{"name":"Ruchenwaldweg","postalCode":"73230","locality":"Kirchheim unter Teck","municipality":{"key":"08116033","name":"Kirchheim unter Teck, Stadt","type":"Große_Kreisstadt"},"district":{"key":"08116","name":"Esslingen","type":"Landkreis"},"federalState":{"key":"08","name":"Baden-Württemberg"}},{"name":"Saarstr.","postalCode":"73230","locality":"Kirchheim unter Teck","municipality":{"key":"08116033","name":"Kirchheim unter Teck, Stadt","type":"Große_Kreisstadt"},"district":{"key":"08116","name":"Esslingen","type":"Landkreis"},"federalState":{"key":"08","name":"Baden-Württemberg"}},{"name":"Saatschulweg","postalCode":"73230","locality":"Kirchheim unter Teck","municipality":{"key":"08116033","name":"Kirchheim unter Teck, Stadt","type":"Große_Kreisstadt"},"district":{"key":"08116","name":"Esslingen","type":"Landkreis"},"federalState":{"key":"08","name":"Baden-Württemberg"}},{"name":"Sägmühlestr.","postalCode":"73230","locality":"Kirchheim unter Teck","municipality":{"key":"08116033","name":"Kirchheim unter Teck, Stadt","type":"Große_Kreisstadt"},"district":{"key":"08116","name":"Esslingen","type":"Landkreis"},"federalState":{"key":"08","name":"Baden-Württemberg"}},{"name":"Salbeiweg","postalCode":"73230","locality":"Kirchheim unter Teck","municipality":{"key":"08116033","name":"Kirchheim unter Teck, Stadt","type":"Große_Kreisstadt"},"district":{"key":"08116","name":"Esslingen","type":"Landkreis"},"federalState":{"key":"08","name":"Baden-Württemberg"}},{"name":"Salzäcker","postalCode":"73230","locality":"Kirchheim unter Teck","municipality":{"key":"08116033","name":"Kirchheim unter Teck, Stadt","type":"Große_Kreisstadt"},"district":{"key":"08116","name":"Esslingen","type":"Landkreis"},"federalState":{"key":"08","name":"Baden-Württemberg"}},{"name":"Salzackerweg","postalCode":"73230","locality":"Kirchheim unter Teck","municipality":{"key":"08116033","name":"Kirchheim unter Teck, Stadt","type":"Große_Kreisstadt"},"district":{"key":"08116","name":"Esslingen","type":"Landkreis"},"federalState":{"key":"08","name":"Baden-Württemberg"}},{"name":"Sauhagtraufweg","postalCode":"73230","locality":"Kirchheim unter Teck","municipality":{"key":"08116033","name":"Kirchheim unter Teck, Stadt","type":"Große_Kreisstadt"},"district":{"key":"08116","name":"Esslingen","type":"Landkreis"},"federalState":{"key":"08","name":"Baden-Württemberg"}},{"name":"Schafhofweg","postalCode":"73230","locality":"Kirchheim unter Teck","municipality":{"key":"08116033","name":"Kirchheim unter Teck, Stadt","type":"Große_Kreisstadt"},"district":{"key":"08116","name":"Esslingen","type":"Landkreis"},"federalState":{"key":"08","name":"Baden-Württemberg"}},{"name":"Schanzenwegle","postalCode":"73230","locality":"Kirchheim unter Teck","municipality":{"key":"08116033","name":"Kirchheim unter Teck, Stadt","type":"Große_Kreisstadt"},"district":{"key":"08116","name":"Esslingen","type":"Landkreis"},"federalState":{"key":"08","name":"Baden-Württemberg"}},{"name":"Scheffelstr.","postalCode":"73230","locality":"Kirchheim unter Teck","municipality":{"key":"08116033","name":"Kirchheim unter Teck, Stadt","type":"Große_Kreisstadt"},"district":{"key":"08116","name":"Esslingen","type":"Landkreis"},"federalState":{"key":"08","name":"Baden-Württemberg"}},{"name":"Schiefer Sträßchen","postalCode":"73230","locality":"Kirchheim unter Teck","municipality":{"key":"08116033","name":"Kirchheim unter Teck, Stadt","type":"Große_Kreisstadt"},"district":{"key":"08116","name":"Esslingen","type":"Landkreis"},"federalState":{"key":"08","name":"Baden-Württemberg"}},{"name":"Schießbahnsträßchen","postalCode":"73230","locality":"Kirchheim unter Teck","municipality":{"key":"08116033","name":"Kirchheim unter Teck, Stadt","type":"Große_Kreisstadt"},"district":{"key":"08116","name":"Esslingen","type":"Landkreis"},"federalState":{"key":"08","name":"Baden-Württemberg"}},{"name":"Schillerstr.","postalCode":"73230","locality":"Kirchheim unter Teck","municipality":{"key":"08116033","name":"Kirchheim unter Teck, Stadt","type":"Große_Kreisstadt"},"district":{"key":"08116","name":"Esslingen","type":"Landkreis"},"federalState":{"key":"08","name":"Baden-Württemberg"}},{"name":"Schimmingweg","postalCode":"73230","locality":"Kirchheim unter Teck","municipality":{"key":"08116033","name":"Kirchheim unter Teck, Stadt","type":"Große_Kreisstadt"},"district":{"key":"08116","name":"Esslingen","type":"Landkreis"},"federalState":{"key":"08","name":"Baden-Württemberg"}},{"name":"Schlachthausstr.","postalCode":"73230","locality":"Kirchheim unter Teck","municipality":{"key":"08116033","name":"Kirchheim unter Teck, Stadt","type":"Große_Kreisstadt"},"district":{"key":"08116","name":"Esslingen","type":"Landkreis"},"federalState":{"key":"08","name":"Baden-Württemberg"}},{"name":"Schlattweg","postalCode":"73230","locality":"Kirchheim unter Teck","municipality":{"key":"08116033","name":"Kirchheim unter Teck, Stadt","type":"Große_Kreisstadt"},"district":{"key":"08116","name":"Esslingen","type":"Landkreis"},"federalState":{"key":"08","name":"Baden-Württemberg"}},{"name":"Schlehenweg","postalCode":"73230","locality":"Kirchheim unter Teck","municipality":{"key":"08116033","name":"Kirchheim unter Teck, Stadt","type":"Große_Kreisstadt"},"district":{"key":"08116","name":"Esslingen","type":"Landkreis"},"federalState":{"key":"08","name":"Baden-Württemberg"}},{"name":"Schlierbacher Str.","postalCode":"73230","locality":"Kirchheim unter Teck","municipality":{"key":"08116033","name":"Kirchheim unter Teck, Stadt","type":"Große_Kreisstadt"},"district":{"key":"08116","name":"Esslingen","type":"Landkreis"},"federalState":{"key":"08","name":"Baden-Württemberg"}},{"name":"Schlösslesweg","postalCode":"73230","locality":"Kirchheim unter Teck","municipality":{"key":"08116033","name":"Kirchheim unter Teck, Stadt","type":"Große_Kreisstadt"},"district":{"key":"08116","name":"Esslingen","type":"Landkreis"},"federalState":{"key":"08","name":"Baden-Württemberg"}},{"name":"Schloßplatz","postalCode":"73230","locality":"Kirchheim unter Teck","municipality":{"key":"08116033","name":"Kirchheim unter Teck, Stadt","type":"Große_Kreisstadt"},"district":{"key":"08116","name":"Esslingen","type":"Landkreis"},"federalState":{"key":"08","name":"Baden-Württemberg"}},{"name":"Schmiedstr.","postalCode":"73230","locality":"Kirchheim unter Teck","municipality":{"key":"08116033","name":"Kirchheim unter Teck, Stadt","type":"Große_Kreisstadt"},"district":{"key":"08116","name":"Esslingen","type":"Landkreis"},"federalState":{"key":"08","name":"Baden-Württemberg"}},{"name":"Schöllkopfstr.","postalCode":"73230","locality":"Kirchheim unter Teck","municipality":{"key":"08116033","name":"Kirchheim unter Teck, Stadt","type":"Große_Kreisstadt"},"district":{"key":"08116","name":"Esslingen","type":"Landkreis"},"federalState":{"key":"08","name":"Baden-Württemberg"}},{"name":"Schönbergstr.","postalCode":"73230","locality":"Kirchheim unter Teck","municipality":{"key":"08116033","name":"Kirchheim unter Teck, Stadt","type":"Große_Kreisstadt"},"district":{"key":"08116","name":"Esslingen","type":"Landkreis"},"federalState":{"key":"08","name":"Baden-Württemberg"}},{"name":"Schönblickstr.","postalCode":"73230","locality":"Kirchheim unter Teck","municipality":{"key":"08116033","name":"Kirchheim unter Teck, Stadt","type":"Große_Kreisstadt"},"district":{"key":"08116","name":"Esslingen","type":"Landkreis"},"federalState":{"key":"08","name":"Baden-Württemberg"}},{"name":"Schongauerweg","postalCode":"73230","locality":"Kirchheim unter Teck","municipality":{"key":"08116033","name":"Kirchheim unter Teck, Stadt","type":"Große_Kreisstadt"},"district":{"key":"08116","name":"Esslingen","type":"Landkreis"},"federalState":{"key":"08","name":"Baden-Württemberg"}},{"name":"Schuhstr.","postalCode":"73230","locality":"Kirchheim unter Teck","municipality":{"key":"08116033","name":"Kirchheim unter Teck, Stadt","type":"Große_Kreisstadt"},"district":{"key":"08116","name":"Esslingen","type":"Landkreis"},"federalState":{"key":"08","name":"Baden-Württemberg"}},{"name":"Schülestr.","postalCode":"73230","locality":"Kirchheim unter Teck","municipality":{"key":"08116033","name":"Kirchheim unter Teck, Stadt","type":"Große_Kreisstadt"},"district":{"key":"08116","name":"Esslingen","type":"Landkreis"},"federalState":{"key":"08","name":"Baden-Württemberg"}},{"name":"Seestr.","postalCode":"73230","locality":"Kirchheim unter Teck","municipality":{"key":"08116033","name":"Kirchheim unter Teck, Stadt","type":"Große_Kreisstadt"},"district":{"key":"08116","name":"Esslingen","type":"Landkreis"},"federalState":{"key":"08","name":"Baden-Württemberg"}},{"name":"Seeweg","postalCode":"73230","locality":"Kirchheim unter Teck","municipality":{"key":"08116033","name":"Kirchheim unter Teck, Stadt","type":"Große_Kreisstadt"},"district":{"key":"08116","name":"Esslingen","type":"Landkreis"},"federalState":{"key":"08","name":"Baden-Württemberg"}},{"name":"Seminarstr.","postalCode":"73230","locality":"Kirchheim unter Teck","municipality":{"key":"08116033","name":"Kirchheim unter Teck, Stadt","type":"Große_Kreisstadt"},"district":{"key":"08116","name":"Esslingen","type":"Landkreis"},"federalState":{"key":"08","name":"Baden-Württemberg"}},{"name":"Senefelderstr.","postalCode":"73230","locality":"Kirchheim unter Teck","municipality":{"key":"08116033","name":"Kirchheim unter Teck, Stadt","type":"Große_Kreisstadt"},"district":{"key":"08116","name":"Esslingen","type":"Landkreis"},"federalState":{"key":"08","name":"Baden-Württemberg"}},{"name":"Sibyllenweg","postalCode":"73230","locality":"Kirchheim unter Teck","municipality":{"key":"08116033","name":"Kirchheim unter Teck, Stadt","type":"Große_Kreisstadt"},"district":{"key":"08116","name":"Esslingen","type":"Landkreis"},"federalState":{"key":"08","name":"Baden-Württemberg"}},{"name":"Siemensstr.","postalCode":"73230","locality":"Kirchheim unter Teck","municipality":{"key":"08116033","name":"Kirchheim unter Teck, Stadt","type":"Große_Kreisstadt"},"district":{"key":"08116","name":"Esslingen","type":"Landkreis"},"federalState":{"key":"08","name":"Baden-Württemberg"}},{"name":"Silcherstr.","postalCode":"73230","locality":"Kirchheim unter Teck","municipality":{"key":"08116033","name":"Kirchheim unter Teck, Stadt","type":"Große_Kreisstadt"},"district":{"key":"08116","name":"Esslingen","type":"Landkreis"},"federalState":{"key":"08","name":"Baden-Württemberg"}},{"name":"Sonnenwiese","postalCode":"73230","locality":"Kirchheim unter Teck","municipality":{"key":"08116033","name":"Kirchheim unter Teck, Stadt","type":"Große_Kreisstadt"},"district":{"key":"08116","name":"Esslingen","type":"Landkreis"},"federalState":{"key":"08","name":"Baden-Württemberg"}},{"name":"Sophienstr.","postalCode":"73230","locality":"Kirchheim unter Teck","municipality":{"key":"08116033","name":"Kirchheim unter Teck, Stadt","type":"Große_Kreisstadt"},"district":{"key":"08116","name":"Esslingen","type":"Landkreis"},"federalState":{"key":"08","name":"Baden-Württemberg"}},{"name":"Sperberweg","postalCode":"73230","locality":"Kirchheim unter Teck","municipality":{"key":"08116033","name":"Kirchheim unter Teck, Stadt","type":"Große_Kreisstadt"},"district":{"key":"08116","name":"Esslingen","type":"Landkreis"},"federalState":{"key":"08","name":"Baden-Württemberg"}},{"name":"Spitalweg","postalCode":"73230","locality":"Kirchheim unter Teck","municipality":{"key":"08116033","name":"Kirchheim unter Teck, Stadt","type":"Große_Kreisstadt"},"district":{"key":"08116","name":"Esslingen","type":"Landkreis"},"federalState":{"key":"08","name":"Baden-Württemberg"}},{"name":"Spitzwegstr.","postalCode":"73230","locality":"Kirchheim unter Teck","municipality":{"key":"08116033","name":"Kirchheim unter Teck, Stadt","type":"Große_Kreisstadt"},"district":{"key":"08116","name":"Esslingen","type":"Landkreis"},"federalState":{"key":"08","name":"Baden-Württemberg"}},{"name":"Sportheimweg","postalCode":"73230","locality":"Kirchheim unter Teck","municipality":{"key":"08116033","name":"Kirchheim unter Teck, Stadt","type":"Große_Kreisstadt"},"district":{"key":"08116","name":"Esslingen","type":"Landkreis"},"federalState":{"key":"08","name":"Baden-Württemberg"}},{"name":"Sportplatzweg","postalCode":"73230","locality":"Kirchheim unter Teck","municipality":{"key":"08116033","name":"Kirchheim unter Teck, Stadt","type":"Große_Kreisstadt"},"district":{"key":"08116","name":"Esslingen","type":"Landkreis"},"federalState":{"key":"08","name":"Baden-Württemberg"}},{"name":"Staufenstr.","postalCode":"73230","locality":"Kirchheim unter Teck","municipality":{"key":"08116033","name":"Kirchheim unter Teck, Stadt","type":"Große_Kreisstadt"},"district":{"key":"08116","name":"Esslingen","type":"Landkreis"},"federalState":{"key":"08","name":"Baden-Württemberg"}},{"name":"Stefan-Lochner-Weg","postalCode":"73230","locality":"Kirchheim unter Teck","municipality":{"key":"08116033","name":"Kirchheim unter Teck, Stadt","type":"Große_Kreisstadt"},"district":{"key":"08116","name":"Esslingen","type":"Landkreis"},"federalState":{"key":"08","name":"Baden-Württemberg"}},{"name":"Stegleswiesen","postalCode":"73230","locality":"Kirchheim unter Teck","municipality":{"key":"08116033","name":"Kirchheim unter Teck, Stadt","type":"Große_Kreisstadt"},"district":{"key":"08116","name":"Esslingen","type":"Landkreis"},"federalState":{"key":"08","name":"Baden-Württemberg"}},{"name":"Steiglesäcker","postalCode":"73230","locality":"Kirchheim unter Teck","municipality":{"key":"08116033","name":"Kirchheim unter Teck, Stadt","type":"Große_Kreisstadt"},"district":{"key":"08116","name":"Esslingen","type":"Landkreis"},"federalState":{"key":"08","name":"Baden-Württemberg"}},{"name":"Steigstr.","postalCode":"73230","locality":"Kirchheim unter Teck","municipality":{"key":"08116033","name":"Kirchheim unter Teck, Stadt","type":"Große_Kreisstadt"},"district":{"key":"08116","name":"Esslingen","type":"Landkreis"},"federalState":{"key":"08","name":"Baden-Württemberg"}},{"name":"Steingaustr.","postalCode":"73230","locality":"Kirchheim unter Teck","municipality":{"key":"08116033","name":"Kirchheim unter Teck, Stadt","type":"Große_Kreisstadt"},"district":{"key":"08116","name":"Esslingen","type":"Landkreis"},"federalState":{"key":"08","name":"Baden-Württemberg"}},{"name":"Steingrubenweg","postalCode":"73230","locality":"Kirchheim unter Teck","municipality":{"key":"08116033","name":"Kirchheim unter Teck, Stadt","type":"Große_Kreisstadt"},"district":{"key":"08116","name":"Esslingen","type":"Landkreis"},"federalState":{"key":"08","name":"Baden-Württemberg"}},{"name":"Steinriegelweg","postalCode":"73230","locality":"Kirchheim unter Teck","municipality":{"key":"08116033","name":"Kirchheim unter Teck, Stadt","type":"Große_Kreisstadt"},"district":{"key":"08116","name":"Esslingen","type":"Landkreis"},"federalState":{"key":"08","name":"Baden-Württemberg"}},{"name":"Sterrichweg","postalCode":"73230","locality":"Kirchheim unter Teck","municipality":{"key":"08116033","name":"Kirchheim unter Teck, Stadt","type":"Große_Kreisstadt"},"district":{"key":"08116","name":"Esslingen","type":"Landkreis"},"federalState":{"key":"08","name":"Baden-Württemberg"}},{"name":"Tachenhäuser Sträßchen","postalCode":"73230","locality":"Kirchheim unter Teck","municipality":{"key":"08116033","name":"Kirchheim unter Teck, Stadt","type":"Große_Kreisstadt"},"district":{"key":"08116","name":"Esslingen","type":"Landkreis"},"federalState":{"key":"08","name":"Baden-Württemberg"}},{"name":"Tannenbergstr.","postalCode":"73230","locality":"Kirchheim unter Teck","municipality":{"key":"08116033","name":"Kirchheim unter Teck, Stadt","type":"Große_Kreisstadt"},"district":{"key":"08116","name":"Esslingen","type":"Landkreis"},"federalState":{"key":"08","name":"Baden-Württemberg"}},{"name":"Tannenweg","postalCode":"73230","locality":"Kirchheim unter Teck","municipality":{"key":"08116033","name":"Kirchheim unter Teck, Stadt","type":"Große_Kreisstadt"},"district":{"key":"08116","name":"Esslingen","type":"Landkreis"},"federalState":{"key":"08","name":"Baden-Württemberg"}},{"name":"Teckstr.","postalCode":"73230","locality":"Kirchheim unter Teck","municipality":{"key":"08116033","name":"Kirchheim unter Teck, Stadt","type":"Große_Kreisstadt"},"district":{"key":"08116","name":"Esslingen","type":"Landkreis"},"federalState":{"key":"08","name":"Baden-Württemberg"}},{"name":"Teufelsbrunnenweg","postalCode":"73230","locality":"Kirchheim unter Teck","municipality":{"key":"08116033","name":"Kirchheim unter Teck, Stadt","type":"Große_Kreisstadt"},"district":{"key":"08116","name":"Esslingen","type":"Landkreis"},"federalState":{"key":"08","name":"Baden-Württemberg"}},{"name":"Theodor-Körner-Str.","postalCode":"73230","locality":"Kirchheim unter Teck","municipality":{"key":"08116033","name":"Kirchheim unter Teck, Stadt","type":"Große_Kreisstadt"},"district":{"key":"08116","name":"Esslingen","type":"Landkreis"},"federalState":{"key":"08","name":"Baden-Württemberg"}},{"name":"Tobelstr.","postalCode":"73230","locality":"Kirchheim unter Teck","municipality":{"key":"08116033","name":"Kirchheim unter Teck, Stadt","type":"Große_Kreisstadt"},"district":{"key":"08116","name":"Esslingen","type":"Landkreis"},"federalState":{"key":"08","name":"Baden-Württemberg"}},{"name":"Tobelweg","postalCode":"73230","locality":"Kirchheim unter Teck","municipality":{"key":"08116033","name":"Kirchheim unter Teck, Stadt","type":"Große_Kreisstadt"},"district":{"key":"08116","name":"Esslingen","type":"Landkreis"},"federalState":{"key":"08","name":"Baden-Württemberg"}},{"name":"Traufweg","postalCode":"73230","locality":"Kirchheim unter Teck","municipality":{"key":"08116033","name":"Kirchheim unter Teck, Stadt","type":"Große_Kreisstadt"},"district":{"key":"08116","name":"Esslingen","type":"Landkreis"},"federalState":{"key":"08","name":"Baden-Württemberg"}},{"name":"Tübinger Str.","postalCode":"73230","locality":"Kirchheim unter Teck","municipality":{"key":"08116033","name":"Kirchheim unter Teck, Stadt","type":"Große_Kreisstadt"},"district":{"key":"08116","name":"Esslingen","type":"Landkreis"},"federalState":{"key":"08","name":"Baden-Württemberg"}},{"name":"Tulpenweg","postalCode":"73230","locality":"Kirchheim unter Teck","municipality":{"key":"08116033","name":"Kirchheim unter Teck, Stadt","type":"Große_Kreisstadt"},"district":{"key":"08116","name":"Esslingen","type":"Landkreis"},"federalState":{"key":"08","name":"Baden-Württemberg"}},{"name":"Turmbergstr.","postalCode":"73230","locality":"Kirchheim unter Teck","municipality":{"key":"08116033","name":"Kirchheim unter Teck, Stadt","type":"Große_Kreisstadt"},"district":{"key":"08116","name":"Esslingen","type":"Landkreis"},"federalState":{"key":"08","name":"Baden-Württemberg"}},{"name":"Turmstr.","postalCode":"73230","locality":"Kirchheim unter Teck","municipality":{"key":"08116033","name":"Kirchheim unter Teck, Stadt","type":"Große_Kreisstadt"},"district":{"key":"08116","name":"Esslingen","type":"Landkreis"},"federalState":{"key":"08","name":"Baden-Württemberg"}},{"name":"Uhlandstr.","postalCode":"73230","locality":"Kirchheim unter Teck","municipality":{"key":"08116033","name":"Kirchheim unter Teck, Stadt","type":"Große_Kreisstadt"},"district":{"key":"08116","name":"Esslingen","type":"Landkreis"},"federalState":{"key":"08","name":"Baden-Württemberg"}},{"name":"Ulmer Str.","postalCode":"73230","locality":"Kirchheim unter Teck","municipality":{"key":"08116033","name":"Kirchheim unter Teck, Stadt","type":"Große_Kreisstadt"},"district":{"key":"08116","name":"Esslingen","type":"Landkreis"},"federalState":{"key":"08","name":"Baden-Württemberg"}},{"name":"Ulrichstr.","postalCode":"73230","locality":"Kirchheim unter Teck","municipality":{"key":"08116033","name":"Kirchheim unter Teck, Stadt","type":"Große_Kreisstadt"},"district":{"key":"08116","name":"Esslingen","type":"Landkreis"},"federalState":{"key":"08","name":"Baden-Württemberg"}},{"name":"Unter der Halde","postalCode":"73230","locality":"Kirchheim unter Teck","municipality":{"key":"08116033","name":"Kirchheim unter Teck, Stadt","type":"Große_Kreisstadt"},"district":{"key":"08116","name":"Esslingen","type":"Landkreis"},"federalState":{"key":"08","name":"Baden-Württemberg"}},{"name":"Unterer Haldenweg","postalCode":"73230","locality":"Kirchheim unter Teck","municipality":{"key":"08116033","name":"Kirchheim unter Teck, Stadt","type":"Große_Kreisstadt"},"district":{"key":"08116","name":"Esslingen","type":"Landkreis"},"federalState":{"key":"08","name":"Baden-Württemberg"}},{"name":"Untere Steinstr.","postalCode":"73230","locality":"Kirchheim unter Teck","municipality":{"key":"08116033","name":"Kirchheim unter Teck, Stadt","type":"Große_Kreisstadt"},"district":{"key":"08116","name":"Esslingen","type":"Landkreis"},"federalState":{"key":"08","name":"Baden-Württemberg"}},{"name":"Uracher Str.","postalCode":"73230","locality":"Kirchheim unter Teck","municipality":{"key":"08116033","name":"Kirchheim unter Teck, Stadt","type":"Große_Kreisstadt"},"district":{"key":"08116","name":"Esslingen","type":"Landkreis"},"federalState":{"key":"08","name":"Baden-Württemberg"}},{"name":"Veilchenweg","postalCode":"73230","locality":"Kirchheim unter Teck","municipality":{"key":"08116033","name":"Kirchheim unter Teck, Stadt","type":"Große_Kreisstadt"},"district":{"key":"08116","name":"Esslingen","type":"Landkreis"},"federalState":{"key":"08","name":"Baden-Württemberg"}},{"name":"Verbindungsbauwerk 10","postalCode":"73230","locality":"Kirchheim unter Teck","municipality":{"key":"08116033","name":"Kirchheim unter Teck, Stadt","type":"Große_Kreisstadt"},"district":{"key":"08116","name":"Esslingen","type":"Landkreis"},"federalState":{"key":"08","name":"Baden-Württemberg"}},{"name":"Verbindungsbauwerk 11","postalCode":"73230","locality":"Kirchheim unter Teck","municipality":{"key":"08116033","name":"Kirchheim unter Teck, Stadt","type":"Große_Kreisstadt"},"district":{"key":"08116","name":"Esslingen","type":"Landkreis"},"federalState":{"key":"08","name":"Baden-Württemberg"}},{"name":"Verbindungsbauwerk 12","postalCode":"73230","locality":"Kirchheim unter Teck","municipality":{"key":"08116033","name":"Kirchheim unter Teck, Stadt","type":"Große_Kreisstadt"},"district":{"key":"08116","name":"Esslingen","type":"Landkreis"},"federalState":{"key":"08","name":"Baden-Württemberg"}},{"name":"Verbindungsbauwerk 13","postalCode":"73230","locality":"Kirchheim unter Teck","municipality":{"key":"08116033","name":"Kirchheim unter Teck, Stadt","type":"Große_Kreisstadt"},"district":{"key":"08116","name":"Esslingen","type":"Landkreis"},"federalState":{"key":"08","name":"Baden-Württemberg"}},{"name":"Verbindungsbauwerk 14","postalCode":"73230","locality":"Kirchheim unter Teck","municipality":{"key":"08116033","name":"Kirchheim unter Teck, Stadt","type":"Große_Kreisstadt"},"district":{"key":"08116","name":"Esslingen","type":"Landkreis"},"federalState":{"key":"08","name":"Baden-Württemberg"}},{"name":"Verbindungsbauwerk 15","postalCode":"73230","locality":"Kirchheim unter Teck","municipality":{"key":"08116033","name":"Kirchheim unter Teck, Stadt","type":"Große_Kreisstadt"},"district":{"key":"08116","name":"Esslingen","type":"Landkreis"},"federalState":{"key":"08","name":"Baden-Württemberg"}},{"name":"Verbindungsbauwerk 16","postalCode":"73230","locality":"Kirchheim unter Teck","municipality":{"key":"08116033","name":"Kirchheim unter Teck, Stadt","type":"Große_Kreisstadt"},"district":{"key":"08116","name":"Esslingen","type":"Landkreis"},"federalState":{"key":"08","name":"Baden-Württemberg"}},{"name":"Verbindungsbauwerk 6","postalCode":"73230","locality":"Kirchheim unter Teck","municipality":{"key":"08116033","name":"Kirchheim unter Teck, Stadt","type":"Große_Kreisstadt"},"district":{"key":"08116","name":"Esslingen","type":"Landkreis"},"federalState":{"key":"08","name":"Baden-Württemberg"}},{"name":"Verbindungsbauwerk 7","postalCode":"73230","locality":"Kirchheim unter Teck","municipality":{"key":"08116033","name":"Kirchheim unter Teck, Stadt","type":"Große_Kreisstadt"},"district":{"key":"08116","name":"Esslingen","type":"Landkreis"},"federalState":{"key":"08","name":"Baden-Württemberg"}},{"name":"Verbindungsbauwerk 8","postalCode":"73230","locality":"Kirchheim unter Teck","municipality":{"key":"08116033","name":"Kirchheim unter Teck, Stadt","type":"Große_Kreisstadt"},"district":{"key":"08116","name":"Esslingen","type":"Landkreis"},"federalState":{"key":"08","name":"Baden-Württemberg"}},{"name":"Verbindungsbauwerk 9","postalCode":"73230","locality":"Kirchheim unter Teck","municipality":{"key":"08116033","name":"Kirchheim unter Teck, Stadt","type":"Große_Kreisstadt"},"district":{"key":"08116","name":"Esslingen","type":"Landkreis"},"federalState":{"key":"08","name":"Baden-Württemberg"}},{"name":"Verbindung Schülestr. Kolbstr.","postalCode":"73230","locality":"Kirchheim unter Teck","municipality":{"key":"08116033","name":"Kirchheim unter Teck, Stadt","type":"Große_Kreisstadt"},"district":{"key":"08116","name":"Esslingen","type":"Landkreis"},"federalState":{"key":"08","name":"Baden-Württemberg"}},{"name":"Villastr.","postalCode":"73230","locality":"Kirchheim unter Teck","municipality":{"key":"08116033","name":"Kirchheim unter Teck, Stadt","type":"Große_Kreisstadt"},"district":{"key":"08116","name":"Esslingen","type":"Landkreis"},"federalState":{"key":"08","name":"Baden-Württemberg"}},{"name":"Vordere Str.","postalCode":"73230","locality":"Kirchheim unter Teck","municipality":{"key":"08116033","name":"Kirchheim unter Teck, Stadt","type":"Große_Kreisstadt"},"district":{"key":"08116","name":"Esslingen","type":"Landkreis"},"federalState":{"key":"08","name":"Baden-Württemberg"}},{"name":"Wacholderweg","postalCode":"73230","locality":"Kirchheim unter Teck","municipality":{"key":"08116033","name":"Kirchheim unter Teck, Stadt","type":"Große_Kreisstadt"},"district":{"key":"08116","name":"Esslingen","type":"Landkreis"},"federalState":{"key":"08","name":"Baden-Württemberg"}},{"name":"Waldheimweg","postalCode":"73230","locality":"Kirchheim unter Teck","municipality":{"key":"08116033","name":"Kirchheim unter Teck, Stadt","type":"Große_Kreisstadt"},"district":{"key":"08116","name":"Esslingen","type":"Landkreis"},"federalState":{"key":"08","name":"Baden-Württemberg"}},{"name":"Waldstr.","postalCode":"73230","locality":"Kirchheim unter Teck","municipality":{"key":"08116033","name":"Kirchheim unter Teck, Stadt","type":"Große_Kreisstadt"},"district":{"key":"08116","name":"Esslingen","type":"Landkreis"},"federalState":{"key":"08","name":"Baden-Württemberg"}},{"name":"Walkstr.","postalCode":"73230","locality":"Kirchheim unter Teck","municipality":{"key":"08116033","name":"Kirchheim unter Teck, Stadt","type":"Große_Kreisstadt"},"district":{"key":"08116","name":"Esslingen","type":"Landkreis"},"federalState":{"key":"08","name":"Baden-Württemberg"}},{"name":"Wangerhaldenweg","postalCode":"73230","locality":"Kirchheim unter Teck","municipality":{"key":"08116033","name":"Kirchheim unter Teck, Stadt","type":"Große_Kreisstadt"},"district":{"key":"08116","name":"Esslingen","type":"Landkreis"},"federalState":{"key":"08","name":"Baden-Württemberg"}},{"name":"Wannenweg","postalCode":"73230","locality":"Kirchheim unter Teck","municipality":{"key":"08116033","name":"Kirchheim unter Teck, Stadt","type":"Große_Kreisstadt"},"district":{"key":"08116","name":"Esslingen","type":"Landkreis"},"federalState":{"key":"08","name":"Baden-Württemberg"}},{"name":"Wechseleicheweg","postalCode":"73230","locality":"Kirchheim unter Teck","municipality":{"key":"08116033","name":"Kirchheim unter Teck, Stadt","type":"Große_Kreisstadt"},"district":{"key":"08116","name":"Esslingen","type":"Landkreis"},"federalState":{"key":"08","name":"Baden-Württemberg"}},{"name":"Wechselweg","postalCode":"73230","locality":"Kirchheim unter Teck","municipality":{"key":"08116033","name":"Kirchheim unter Teck, Stadt","type":"Große_Kreisstadt"},"district":{"key":"08116","name":"Esslingen","type":"Landkreis"},"federalState":{"key":"08","name":"Baden-Württemberg"}},{"name":"Wehrstr.","postalCode":"73230","locality":"Kirchheim unter Teck","municipality":{"key":"08116033","name":"Kirchheim unter Teck, Stadt","type":"Große_Kreisstadt"},"district":{"key":"08116","name":"Esslingen","type":"Landkreis"},"federalState":{"key":"08","name":"Baden-Württemberg"}},{"name":"Weihenweg","postalCode":"73230","locality":"Kirchheim unter Teck","municipality":{"key":"08116033","name":"Kirchheim unter Teck, Stadt","type":"Große_Kreisstadt"},"district":{"key":"08116","name":"Esslingen","type":"Landkreis"},"federalState":{"key":"08","name":"Baden-Württemberg"}},{"name":"Weiherstr.","postalCode":"73230","locality":"Kirchheim unter Teck","municipality":{"key":"08116033","name":"Kirchheim unter Teck, Stadt","type":"Große_Kreisstadt"},"district":{"key":"08116","name":"Esslingen","type":"Landkreis"},"federalState":{"key":"08","name":"Baden-Württemberg"}},{"name":"Weileräcker","postalCode":"73230","locality":"Kirchheim unter Teck","municipality":{"key":"08116033","name":"Kirchheim unter Teck, Stadt","type":"Große_Kreisstadt"},"district":{"key":"08116","name":"Esslingen","type":"Landkreis"},"federalState":{"key":"08","name":"Baden-Württemberg"}},{"name":"Weiler Schafhof","postalCode":"73230","locality":"Kirchheim unter Teck","municipality":{"key":"08116033","name":"Kirchheim unter Teck, Stadt","type":"Große_Kreisstadt"},"district":{"key":"08116","name":"Esslingen","type":"Landkreis"},"federalState":{"key":"08","name":"Baden-Württemberg"}},{"name":"Weilheimer Str.","postalCode":"73230","locality":"Kirchheim unter Teck","municipality":{"key":"08116033","name":"Kirchheim unter Teck, Stadt","type":"Große_Kreisstadt"},"district":{"key":"08116","name":"Esslingen","type":"Landkreis"},"federalState":{"key":"08","name":"Baden-Württemberg"}},{"name":"Weinbergweg","postalCode":"73230","locality":"Kirchheim unter Teck","municipality":{"key":"08116033","name":"Kirchheim unter Teck, Stadt","type":"Große_Kreisstadt"},"district":{"key":"08116","name":"Esslingen","type":"Landkreis"},"federalState":{"key":"08","name":"Baden-Württemberg"}},{"name":"Weisestr.","postalCode":"73230","locality":"Kirchheim unter Teck","municipality":{"key":"08116033","name":"Kirchheim unter Teck, Stadt","type":"Große_Kreisstadt"},"district":{"key":"08116","name":"Esslingen","type":"Landkreis"},"federalState":{"key":"08","name":"Baden-Württemberg"}},{"name":"Weißdornweg","postalCode":"73230","locality":"Kirchheim unter Teck","municipality":{"key":"08116033","name":"Kirchheim unter Teck, Stadt","type":"Große_Kreisstadt"},"district":{"key":"08116","name":"Esslingen","type":"Landkreis"},"federalState":{"key":"08","name":"Baden-Württemberg"}},{"name":"Wellingerkopfweg","postalCode":"73230","locality":"Kirchheim unter Teck","municipality":{"key":"08116033","name":"Kirchheim unter Teck, Stadt","type":"Große_Kreisstadt"},"district":{"key":"08116","name":"Esslingen","type":"Landkreis"},"federalState":{"key":"08","name":"Baden-Württemberg"}},{"name":"Wellinger Traufweg","postalCode":"73230","locality":"Kirchheim unter Teck","municipality":{"key":"08116033","name":"Kirchheim unter Teck, Stadt","type":"Große_Kreisstadt"},"district":{"key":"08116","name":"Esslingen","type":"Landkreis"},"federalState":{"key":"08","name":"Baden-Württemberg"}},{"name":"Wellingstr.","postalCode":"73230","locality":"Kirchheim unter Teck","municipality":{"key":"08116033","name":"Kirchheim unter Teck, Stadt","type":"Große_Kreisstadt"},"district":{"key":"08116","name":"Esslingen","type":"Landkreis"},"federalState":{"key":"08","name":"Baden-Württemberg"}},{"name":"Wendlinger Weg","postalCode":"73230","locality":"Kirchheim unter Teck","municipality":{"key":"08116033","name":"Kirchheim unter Teck, Stadt","type":"Große_Kreisstadt"},"district":{"key":"08116","name":"Esslingen","type":"Landkreis"},"federalState":{"key":"08","name":"Baden-Württemberg"}},{"name":"Weppachweg","postalCode":"73230","locality":"Kirchheim unter Teck","municipality":{"key":"08116033","name":"Kirchheim unter Teck, Stadt","type":"Große_Kreisstadt"},"district":{"key":"08116","name":"Esslingen","type":"Landkreis"},"federalState":{"key":"08","name":"Baden-Württemberg"}},{"name":"Westerbachstr.","postalCode":"73230","locality":"Kirchheim unter Teck","municipality":{"key":"08116033","name":"Kirchheim unter Teck, Stadt","type":"Große_Kreisstadt"},"district":{"key":"08116","name":"Esslingen","type":"Landkreis"},"federalState":{"key":"08","name":"Baden-Württemberg"}},{"name":"Widerholtplatz","postalCode":"73230","locality":"Kirchheim unter Teck","municipality":{"key":"08116033","name":"Kirchheim unter Teck, Stadt","type":"Große_Kreisstadt"},"district":{"key":"08116","name":"Esslingen","type":"Landkreis"},"federalState":{"key":"08","name":"Baden-Württemberg"}},{"name":"Widerholtstr.","postalCode":"73230","locality":"Kirchheim unter Teck","municipality":{"key":"08116033","name":"Kirchheim unter Teck, Stadt","type":"Große_Kreisstadt"},"district":{"key":"08116","name":"Esslingen","type":"Landkreis"},"federalState":{"key":"08","name":"Baden-Württemberg"}},{"name":"Wielandstr.","postalCode":"73230","locality":"Kirchheim unter Teck","municipality":{"key":"08116033","name":"Kirchheim unter Teck, Stadt","type":"Große_Kreisstadt"},"district":{"key":"08116","name":"Esslingen","type":"Landkreis"},"federalState":{"key":"08","name":"Baden-Württemberg"}},{"name":"Wiesach","postalCode":"73230","locality":"Kirchheim unter Teck","municipality":{"key":"08116033","name":"Kirchheim unter Teck, Stadt","type":"Große_Kreisstadt"},"district":{"key":"08116","name":"Esslingen","type":"Landkreis"},"federalState":{"key":"08","name":"Baden-Württemberg"}},{"name":"Wieselweg","postalCode":"73230","locality":"Kirchheim unter Teck","municipality":{"key":"08116033","name":"Kirchheim unter Teck, Stadt","type":"Große_Kreisstadt"},"district":{"key":"08116","name":"Esslingen","type":"Landkreis"},"federalState":{"key":"08","name":"Baden-Württemberg"}},{"name":"Wiesenweg","postalCode":"73230","locality":"Kirchheim unter Teck","municipality":{"key":"08116033","name":"Kirchheim unter Teck, Stadt","type":"Große_Kreisstadt"},"district":{"key":"08116","name":"Esslingen","type":"Landkreis"},"federalState":{"key":"08","name":"Baden-Württemberg"}},{"name":"Wilhelm-Hauff-Str.","postalCode":"73230","locality":"Kirchheim unter Teck","municipality":{"key":"08116033","name":"Kirchheim unter Teck, Stadt","type":"Große_Kreisstadt"},"district":{"key":"08116","name":"Esslingen","type":"Landkreis"},"federalState":{"key":"08","name":"Baden-Württemberg"}},{"name":"Wilhelm-Raabe-Str.","postalCode":"73230","locality":"Kirchheim unter Teck","municipality":{"key":"08116033","name":"Kirchheim unter Teck, Stadt","type":"Große_Kreisstadt"},"district":{"key":"08116","name":"Esslingen","type":"Landkreis"},"federalState":{"key":"08","name":"Baden-Württemberg"}},{"name":"Wilhelmstr.","postalCode":"73230","locality":"Kirchheim unter Teck","municipality":{"key":"08116033","name":"Kirchheim unter Teck, Stadt","type":"Große_Kreisstadt"},"district":{"key":"08116","name":"Esslingen","type":"Landkreis"},"federalState":{"key":"08","name":"Baden-Württemberg"}},{"name":"Wolf-Hirth-Str.","postalCode":"73230","locality":"Kirchheim unter Teck","municipality":{"key":"08116033","name":"Kirchheim unter Teck, Stadt","type":"Große_Kreisstadt"},"district":{"key":"08116","name":"Esslingen","type":"Landkreis"},"federalState":{"key":"08","name":"Baden-Württemberg"}},{"name":"Wollmarktstr.","postalCode":"73230","locality":"Kirchheim unter Teck","municipality":{"key":"08116033","name":"Kirchheim unter Teck, Stadt","type":"Große_Kreisstadt"},"district":{"key":"08116","name":"Esslingen","type":"Landkreis"},"federalState":{"key":"08","name":"Baden-Württemberg"}},{"name":"Zähringer Str.","postalCode":"73230","locality":"Kirchheim unter Teck","municipality":{"key":"08116033","name":"Kirchheim unter Teck, Stadt","type":"Große_Kreisstadt"},"district":{"key":"08116","name":"Esslingen","type":"Landkreis"},"federalState":{"key":"08","name":"Baden-Württemberg"}},{"name":"Zementstr.","postalCode":"73230","locality":"Kirchheim unter Teck","municipality":{"key":"08116033","name":"Kirchheim unter Teck, Stadt","type":"Große_Kreisstadt"},"district":{"key":"08116","name":"Esslingen","type":"Landkreis"},"federalState":{"key":"08","name":"Baden-Württemberg"}},{"name":"Zeppelinstr.","postalCode":"73230","locality":"Kirchheim unter Teck","municipality":{"key":"08116033","name":"Kirchheim unter Teck, Stadt","type":"Große_Kreisstadt"},"district":{"key":"08116","name":"Esslingen","type":"Landkreis"},"federalState":{"key":"08","name":"Baden-Württemberg"}},{"name":"Ziegelstr.","postalCode":"73230","locality":"Kirchheim unter Teck","municipality":{"key":"08116033","name":"Kirchheim unter Teck, Stadt","type":"Große_Kreisstadt"},"district":{"key":"08116","name":"Esslingen","type":"Landkreis"},"federalState":{"key":"08","name":"Baden-Württemberg"}},{"name":"Zollerstr.","postalCode":"73230","locality":"Kirchheim unter Teck","municipality":{"key":"08116033","name":"Kirchheim unter Teck, Stadt","type":"Große_Kreisstadt"},"district":{"key":"08116","name":"Esslingen","type":"Landkreis"},"federalState":{"key":"08","name":"Baden-Württemberg"}},{"name":"Zu den Schafhofäckern","postalCode":"73230","locality":"Kirchheim unter Teck","municipality":{"key":"08116033","name":"Kirchheim unter Teck, Stadt","type":"Große_Kreisstadt"},"district":{"key":"08116","name":"Esslingen","type":"Landkreis"},"federalState":{"key":"08","name":"Baden-Württemberg"}},{"name":"Zum Hinteren Berg","postalCode":"73230","locality":"Kirchheim unter Teck","municipality":{"key":"08116033","name":"Kirchheim unter Teck, Stadt","type":"Große_Kreisstadt"},"district":{"key":"08116","name":"Esslingen","type":"Landkreis"},"federalState":{"key":"08","name":"Baden-Württemberg"}},{"name":"Zum Rübholz","postalCode":"73230","locality":"Kirchheim unter Teck","municipality":{"key":"08116033","name":"Kirchheim unter Teck, Stadt","type":"Große_Kreisstadt"},"district":{"key":"08116","name":"Esslingen","type":"Landkreis"},"federalState":{"key":"08","name":"Baden-Württemberg"}},{"name":"Zum Sonnensee","postalCode":"73230","locality":"Kirchheim unter Teck","municipality":{"key":"08116033","name":"Kirchheim unter Teck, Stadt","type":"Große_Kreisstadt"},"district":{"key":"08116","name":"Esslingen","type":"Landkreis"},"federalState":{"key":"08","name":"Baden-Württemberg"}},{"name":"Zum Trösterbrünnele","postalCode":"73230","locality":"Kirchheim unter Teck","municipality":{"key":"08116033","name":"Kirchheim unter Teck, Stadt","type":"Große_Kreisstadt"},"district":{"key":"08116","name":"Esslingen","type":"Landkreis"},"federalState":{"key":"08","name":"Baden-Württemberg"}},{"name":"Öschweg","postalCode":"73230","locality":"Kirchheim unter Teck","municipality":{"key":"08116033","name":"Kirchheim unter Teck, Stadt","type":"Große_Kreisstadt"},"district":{"key":"08116","name":"Esslingen","type":"Landkreis"},"federalState":{"key":"08","name":"Baden-Württemberg"}},{"name":"Ötlingen Festpark","postalCode":"73230","locality":"Kirchheim unter Teck","municipality":{"key":"08116033","name":"Kirchheim unter Teck, Stadt","type":"Große_Kreisstadt"},"district":{"key":"08116","name":"Esslingen","type":"Landkreis"},"federalState":{"key":"08","name":"Baden-Württemberg"}},{"name":"Ötlinger Str.","postalCode":"73230","locality":"Kirchheim unter Teck","municipality":{"key":"08116033","name":"Kirchheim unter Teck, Stadt","type":"Große_Kreisstadt"},"district":{"key":"08116","name":"Esslingen","type":"Landkreis"},"federalState":{"key":"08","name":"Baden-Württemberg"}},{"name":"Ötlinger Waldweg","postalCode":"73230","locality":"Kirchheim unter Teck","municipality":{"key":"08116033","name":"Kirchheim unter Teck, Stadt","type":"Große_Kreisstadt"},"district":{"key":"08116","name":"Esslingen","type":"Landkreis"},"federalState":{"key":"08","name":"Baden-Württemberg"}},]