[{"key":"10030359","name":"Allmend","postalCode":"9205","locality":"Waldkirch","commune":{"key":"3444","name":"Waldkirch","shortName":"Waldkirch"},"district":{"key":"1721","name":"Wahlkreis St. Gallen"},"canton":{"key":"17","code":"SG","name":"St. Gallen"},"status":"Real"},{"key":"10234657","name":"Allmendstrasse","postalCode":"9205","locality":"Waldkirch","commune":{"key":"3444","name":"Waldkirch","shortName":"Waldkirch"},"district":{"key":"1721","name":"Wahlkreis St. Gallen"},"canton":{"key":"17","code":"SG","name":"St. Gallen"},"status":"Real"},{"key":"10056884","name":"Alte Mühle","postalCode":"9205","locality":"Waldkirch","commune":{"key":"3444","name":"Waldkirch","shortName":"Waldkirch"},"district":{"key":"1721","name":"Wahlkreis St. Gallen"},"canton":{"key":"17","code":"SG","name":"St. Gallen"},"status":"Real"},{"key":"10234661","name":"Andwilermoosstrasse","postalCode":"9205","locality":"Waldkirch","commune":{"key":"3444","name":"Waldkirch","shortName":"Waldkirch"},"district":{"key":"1721","name":"Wahlkreis St. Gallen"},"canton":{"key":"17","code":"SG","name":"St. Gallen"},"status":"Real"},{"key":"10234665","name":"Anschwilerwald","postalCode":"9205","locality":"Waldkirch","commune":{"key":"3444","name":"Waldkirch","shortName":"Waldkirch"},"district":{"key":"1721","name":"Wahlkreis St. Gallen"},"canton":{"key":"17","code":"SG","name":"St. Gallen"},"status":"Real"},{"key":"10234669","name":"Anschwilerwaldstrasse","postalCode":"9205","locality":"Waldkirch","commune":{"key":"3444","name":"Waldkirch","shortName":"Waldkirch"},"district":{"key":"1721","name":"Wahlkreis St. Gallen"},"canton":{"key":"17","code":"SG","name":"St. Gallen"},"status":"Real"},{"key":"10191103","name":"Arneggerstrasse","postalCode":"9205","locality":"Waldkirch","commune":{"key":"3444","name":"Waldkirch","shortName":"Waldkirch"},"district":{"key":"1721","name":"Wahlkreis St. Gallen"},"canton":{"key":"17","code":"SG","name":"St. Gallen"},"status":"Real"},{"key":"10067718","name":"Bächliweg","postalCode":"9205","locality":"Waldkirch","commune":{"key":"3444","name":"Waldkirch","shortName":"Waldkirch"},"district":{"key":"1721","name":"Wahlkreis St. Gallen"},"canton":{"key":"17","code":"SG","name":"St. Gallen"},"status":"Real"},{"key":"10227894","name":"Bergholz","postalCode":"9205","locality":"Waldkirch","commune":{"key":"3444","name":"Waldkirch","shortName":"Waldkirch"},"district":{"key":"1721","name":"Wahlkreis St. Gallen"},"canton":{"key":"17","code":"SG","name":"St. Gallen"},"status":"Real"},{"key":"10227898","name":"Bergholzstrasse","postalCode":"9205","locality":"Waldkirch","commune":{"key":"3444","name":"Waldkirch","shortName":"Waldkirch"},"district":{"key":"1721","name":"Wahlkreis St. Gallen"},"canton":{"key":"17","code":"SG","name":"St. Gallen"},"status":"Real"},{"key":"10231978","name":"Bergholzweg","postalCode":"9205","locality":"Waldkirch","commune":{"key":"3444","name":"Waldkirch","shortName":"Waldkirch"},"district":{"key":"1721","name":"Wahlkreis St. Gallen"},"canton":{"key":"17","code":"SG","name":"St. Gallen"},"status":"Real"},{"key":"10231982","name":"Bergwisen","postalCode":"9205","locality":"Waldkirch","commune":{"key":"3444","name":"Waldkirch","shortName":"Waldkirch"},"district":{"key":"1721","name":"Wahlkreis St. Gallen"},"canton":{"key":"17","code":"SG","name":"St. Gallen"},"status":"Real"},{"key":"10097350","name":"Bernhardsrüti","postalCode":"9205","locality":"Waldkirch","commune":{"key":"3444","name":"Waldkirch","shortName":"Waldkirch"},"district":{"key":"1721","name":"Wahlkreis St. Gallen"},"canton":{"key":"17","code":"SG","name":"St. Gallen"},"status":"Real"},{"key":"10106832","name":"Bernhardzellerstrasse","postalCode":"9205","locality":"Waldkirch","commune":{"key":"3444","name":"Waldkirch","shortName":"Waldkirch"},"district":{"key":"1721","name":"Wahlkreis St. Gallen"},"canton":{"key":"17","code":"SG","name":"St. Gallen"},"status":"Real"},{"key":"10030360","name":"Bethlehem","postalCode":"9205","locality":"Waldkirch","commune":{"key":"3444","name":"Waldkirch","shortName":"Waldkirch"},"district":{"key":"1721","name":"Wahlkreis St. Gallen"},"canton":{"key":"17","code":"SG","name":"St. Gallen"},"status":"Real"},{"key":"10227918","name":"Bethlehemstrasse","postalCode":"9205","locality":"Waldkirch","commune":{"key":"3444","name":"Waldkirch","shortName":"Waldkirch"},"district":{"key":"1721","name":"Wahlkreis St. Gallen"},"canton":{"key":"17","code":"SG","name":"St. Gallen"},"status":"Real"},{"key":"10227922","name":"Bethlehemweg","postalCode":"9205","locality":"Waldkirch","commune":{"key":"3444","name":"Waldkirch","shortName":"Waldkirch"},"district":{"key":"1721","name":"Wahlkreis St. Gallen"},"canton":{"key":"17","code":"SG","name":"St. Gallen"},"status":"Real"},{"key":"10184867","name":"Bilchegg","postalCode":"9205","locality":"Waldkirch","commune":{"key":"3444","name":"Waldkirch","shortName":"Waldkirch"},"district":{"key":"1721","name":"Wahlkreis St. Gallen"},"canton":{"key":"17","code":"SG","name":"St. Gallen"},"status":"Real"},{"key":"10227926","name":"Bildtannenbachweg","postalCode":"9205","locality":"Waldkirch","commune":{"key":"3444","name":"Waldkirch","shortName":"Waldkirch"},"district":{"key":"1721","name":"Wahlkreis St. Gallen"},"canton":{"key":"17","code":"SG","name":"St. Gallen"},"status":"Real"},{"key":"10227930","name":"Bildtannenstrasse","postalCode":"9205","locality":"Waldkirch","commune":{"key":"3444","name":"Waldkirch","shortName":"Waldkirch"},"district":{"key":"1721","name":"Wahlkreis St. Gallen"},"canton":{"key":"17","code":"SG","name":"St. Gallen"},"status":"Real"},{"key":"10232013","name":"Bildtannenweg","postalCode":"9205","locality":"Waldkirch","commune":{"key":"3444","name":"Waldkirch","shortName":"Waldkirch"},"district":{"key":"1721","name":"Wahlkreis St. Gallen"},"canton":{"key":"17","code":"SG","name":"St. Gallen"},"status":"Real"},{"key":"10181411","name":"Birkenstrasse","postalCode":"9205","locality":"Waldkirch","commune":{"key":"3444","name":"Waldkirch","shortName":"Waldkirch"},"district":{"key":"1721","name":"Wahlkreis St. Gallen"},"canton":{"key":"17","code":"SG","name":"St. Gallen"},"status":"Real"},{"key":"10232017","name":"Bischofszellerstrasse","postalCode":"9205","locality":"Waldkirch","commune":{"key":"3444","name":"Waldkirch","shortName":"Waldkirch"},"district":{"key":"1721","name":"Wahlkreis St. Gallen"},"canton":{"key":"17","code":"SG","name":"St. Gallen"},"status":"Real"},{"key":"10234750","name":"Bisihusweg","postalCode":"9205","locality":"Waldkirch","commune":{"key":"3444","name":"Waldkirch","shortName":"Waldkirch"},"district":{"key":"1721","name":"Wahlkreis St. Gallen"},"canton":{"key":"17","code":"SG","name":"St. Gallen"},"status":"Real"},{"key":"10234766","name":"Bösbrüggliwaldweg","postalCode":"9205","locality":"Waldkirch","commune":{"key":"3444","name":"Waldkirch","shortName":"Waldkirch"},"district":{"key":"1721","name":"Wahlkreis St. Gallen"},"canton":{"key":"17","code":"SG","name":"St. Gallen"},"status":"Real"},{"key":"10234770","name":"Breitenwaldweg","postalCode":"9205","locality":"Waldkirch","commune":{"key":"3444","name":"Waldkirch","shortName":"Waldkirch"},"district":{"key":"1721","name":"Wahlkreis St. Gallen"},"canton":{"key":"17","code":"SG","name":"St. Gallen"},"status":"Real"},{"key":"10030361","name":"Brüelstrasse","postalCode":"9205","locality":"Waldkirch","commune":{"key":"3444","name":"Waldkirch","shortName":"Waldkirch"},"district":{"key":"1721","name":"Wahlkreis St. Gallen"},"canton":{"key":"17","code":"SG","name":"St. Gallen"},"status":"Real"},{"key":"10097351","name":"Buchenstrasse","postalCode":"9205","locality":"Waldkirch","commune":{"key":"3444","name":"Waldkirch","shortName":"Waldkirch"},"district":{"key":"1721","name":"Wahlkreis St. Gallen"},"canton":{"key":"17","code":"SG","name":"St. Gallen"},"status":"Real"},{"key":"10030362","name":"Buech","postalCode":"9205","locality":"Waldkirch","commune":{"key":"3444","name":"Waldkirch","shortName":"Waldkirch"},"district":{"key":"1721","name":"Wahlkreis St. Gallen"},"canton":{"key":"17","code":"SG","name":"St. Gallen"},"status":"Real"},{"key":"10232056","name":"Buechmüli","postalCode":"9205","locality":"Waldkirch","commune":{"key":"3444","name":"Waldkirch","shortName":"Waldkirch"},"district":{"key":"1721","name":"Wahlkreis St. Gallen"},"canton":{"key":"17","code":"SG","name":"St. Gallen"},"status":"Real"},{"key":"10232060","name":"Buechmülistrasse","postalCode":"9205","locality":"Waldkirch","commune":{"key":"3444","name":"Waldkirch","shortName":"Waldkirch"},"district":{"key":"1721","name":"Wahlkreis St. Gallen"},"canton":{"key":"17","code":"SG","name":"St. Gallen"},"status":"Real"},{"key":"10232064","name":"Buechweg","postalCode":"9205","locality":"Waldkirch","commune":{"key":"3444","name":"Waldkirch","shortName":"Waldkirch"},"district":{"key":"1721","name":"Wahlkreis St. Gallen"},"canton":{"key":"17","code":"SG","name":"St. Gallen"},"status":"Real"},{"key":"10110631","name":"Buechwisenstrasse","postalCode":"9205","locality":"Waldkirch","commune":{"key":"3444","name":"Waldkirch","shortName":"Waldkirch"},"district":{"key":"1721","name":"Wahlkreis St. Gallen"},"canton":{"key":"17","code":"SG","name":"St. Gallen"},"status":"Real"},{"key":"10234119","name":"Buechwisenweg","postalCode":"9205","locality":"Waldkirch","commune":{"key":"3444","name":"Waldkirch","shortName":"Waldkirch"},"district":{"key":"1721","name":"Wahlkreis St. Gallen"},"canton":{"key":"17","code":"SG","name":"St. Gallen"},"status":"Real"},{"key":"10030363","name":"Büntstrasse","postalCode":"9205","locality":"Waldkirch","commune":{"key":"3444","name":"Waldkirch","shortName":"Waldkirch"},"district":{"key":"1721","name":"Wahlkreis St. Gallen"},"canton":{"key":"17","code":"SG","name":"St. Gallen"},"status":"Real"},{"key":"10232072","name":"Büntweg","postalCode":"9205","locality":"Waldkirch","commune":{"key":"3444","name":"Waldkirch","shortName":"Waldkirch"},"district":{"key":"1721","name":"Wahlkreis St. Gallen"},"canton":{"key":"17","code":"SG","name":"St. Gallen"},"status":"Real"},{"key":"10174134","name":"Büntwisenstrasse","postalCode":"9205","locality":"Waldkirch","commune":{"key":"3444","name":"Waldkirch","shortName":"Waldkirch"},"district":{"key":"1721","name":"Wahlkreis St. Gallen"},"canton":{"key":"17","code":"SG","name":"St. Gallen"},"status":"Real"},{"key":"10232076","name":"Büntwisenweg","postalCode":"9205","locality":"Waldkirch","commune":{"key":"3444","name":"Waldkirch","shortName":"Waldkirch"},"district":{"key":"1721","name":"Wahlkreis St. Gallen"},"canton":{"key":"17","code":"SG","name":"St. Gallen"},"status":"Real"},{"key":"10234136","name":"Chenner","postalCode":"9205","locality":"Waldkirch","commune":{"key":"3444","name":"Waldkirch","shortName":"Waldkirch"},"district":{"key":"1721","name":"Wahlkreis St. Gallen"},"canton":{"key":"17","code":"SG","name":"St. Gallen"},"status":"Real"},{"key":"10232096","name":"Cholplatzstrasse","postalCode":"9205","locality":"Waldkirch","commune":{"key":"3444","name":"Waldkirch","shortName":"Waldkirch"},"district":{"key":"1721","name":"Wahlkreis St. Gallen"},"canton":{"key":"17","code":"SG","name":"St. Gallen"},"status":"Real"},{"key":"10056883","name":"Chorb","postalCode":"9205","locality":"Waldkirch","commune":{"key":"3444","name":"Waldkirch","shortName":"Waldkirch"},"district":{"key":"1721","name":"Wahlkreis St. Gallen"},"canton":{"key":"17","code":"SG","name":"St. Gallen"},"status":"Real"},{"key":"10249864","name":"Chorbstrasse","postalCode":"9205","locality":"Waldkirch","commune":{"key":"3444","name":"Waldkirch","shortName":"Waldkirch"},"district":{"key":"1721","name":"Wahlkreis St. Gallen"},"canton":{"key":"17","code":"SG","name":"St. Gallen"},"status":"Real"},{"key":"10234834","name":"Chorbweg","postalCode":"9205","locality":"Waldkirch","commune":{"key":"3444","name":"Waldkirch","shortName":"Waldkirch"},"district":{"key":"1721","name":"Wahlkreis St. Gallen"},"canton":{"key":"17","code":"SG","name":"St. Gallen"},"status":"Real"},{"key":"10232104","name":"Chrättliholzweg","postalCode":"9205","locality":"Waldkirch","commune":{"key":"3444","name":"Waldkirch","shortName":"Waldkirch"},"district":{"key":"1721","name":"Wahlkreis St. Gallen"},"canton":{"key":"17","code":"SG","name":"St. Gallen"},"status":"Real"},{"key":"10232120","name":"Chueweidwaldweg","postalCode":"9205","locality":"Waldkirch","commune":{"key":"3444","name":"Waldkirch","shortName":"Waldkirch"},"district":{"key":"1721","name":"Wahlkreis St. Gallen"},"canton":{"key":"17","code":"SG","name":"St. Gallen"},"status":"Real"},{"key":"10137653","name":"Dahlienstrasse","postalCode":"9205","locality":"Waldkirch","commune":{"key":"3444","name":"Waldkirch","shortName":"Waldkirch"},"district":{"key":"1721","name":"Wahlkreis St. Gallen"},"canton":{"key":"17","code":"SG","name":"St. Gallen"},"status":"Real"},{"key":"10119480","name":"Dorfeggstrasse","postalCode":"9205","locality":"Waldkirch","commune":{"key":"3444","name":"Waldkirch","shortName":"Waldkirch"},"district":{"key":"1721","name":"Wahlkreis St. Gallen"},"canton":{"key":"17","code":"SG","name":"St. Gallen"},"status":"Real"},{"key":"10097352","name":"Dorfeggweg","postalCode":"9205","locality":"Waldkirch","commune":{"key":"3444","name":"Waldkirch","shortName":"Waldkirch"},"district":{"key":"1721","name":"Wahlkreis St. Gallen"},"canton":{"key":"17","code":"SG","name":"St. Gallen"},"status":"Real"},{"key":"10030364","name":"Dorfstrasse","postalCode":"9205","locality":"Waldkirch","commune":{"key":"3444","name":"Waldkirch","shortName":"Waldkirch"},"district":{"key":"1721","name":"Wahlkreis St. Gallen"},"canton":{"key":"17","code":"SG","name":"St. Gallen"},"status":"Real"},{"key":"10232144","name":"Dorfweg","postalCode":"9205","locality":"Waldkirch","commune":{"key":"3444","name":"Waldkirch","shortName":"Waldkirch"},"district":{"key":"1721","name":"Wahlkreis St. Gallen"},"canton":{"key":"17","code":"SG","name":"St. Gallen"},"status":"Real"},{"key":"10030365","name":"Ebnet","postalCode":"9205","locality":"Waldkirch","commune":{"key":"3444","name":"Waldkirch","shortName":"Waldkirch"},"district":{"key":"1721","name":"Wahlkreis St. Gallen"},"canton":{"key":"17","code":"SG","name":"St. Gallen"},"status":"Real"},{"key":"10232152","name":"Ebneter Hofweg","postalCode":"9205","locality":"Waldkirch","commune":{"key":"3444","name":"Waldkirch","shortName":"Waldkirch"},"district":{"key":"1721","name":"Wahlkreis St. Gallen"},"canton":{"key":"17","code":"SG","name":"St. Gallen"},"status":"Real"},{"key":"10067719","name":"Edlischwil","postalCode":"9205","locality":"Waldkirch","commune":{"key":"3444","name":"Waldkirch","shortName":"Waldkirch"},"district":{"key":"1721","name":"Wahlkreis St. Gallen"},"canton":{"key":"17","code":"SG","name":"St. Gallen"},"status":"Real"},{"key":"10030366","name":"Egelsee","postalCode":"9205","locality":"Waldkirch","commune":{"key":"3444","name":"Waldkirch","shortName":"Waldkirch"},"district":{"key":"1721","name":"Wahlkreis St. Gallen"},"canton":{"key":"17","code":"SG","name":"St. Gallen"},"status":"Real"},{"key":"10232160","name":"Egelseestrasse","postalCode":"9205","locality":"Waldkirch","commune":{"key":"3444","name":"Waldkirch","shortName":"Waldkirch"},"district":{"key":"1721","name":"Wahlkreis St. Gallen"},"canton":{"key":"17","code":"SG","name":"St. Gallen"},"status":"Real"},{"key":"10232164","name":"Egelseeweg","postalCode":"9205","locality":"Waldkirch","commune":{"key":"3444","name":"Waldkirch","shortName":"Waldkirch"},"district":{"key":"1721","name":"Wahlkreis St. Gallen"},"canton":{"key":"17","code":"SG","name":"St. Gallen"},"status":"Real"},{"key":"10030367","name":"Egg","postalCode":"9205","locality":"Waldkirch","commune":{"key":"3444","name":"Waldkirch","shortName":"Waldkirch"},"district":{"key":"1721","name":"Wahlkreis St. Gallen"},"canton":{"key":"17","code":"SG","name":"St. Gallen"},"status":"Real"},{"key":"10232172","name":"Eggstrasse","postalCode":"9205","locality":"Waldkirch","commune":{"key":"3444","name":"Waldkirch","shortName":"Waldkirch"},"district":{"key":"1721","name":"Wahlkreis St. Gallen"},"canton":{"key":"17","code":"SG","name":"St. Gallen"},"status":"Real"},{"key":"10232176","name":"Eichen","postalCode":"9205","locality":"Waldkirch","commune":{"key":"3444","name":"Waldkirch","shortName":"Waldkirch"},"district":{"key":"1721","name":"Wahlkreis St. Gallen"},"canton":{"key":"17","code":"SG","name":"St. Gallen"},"status":"Real"},{"key":"10232180","name":"Eichenweg","postalCode":"9205","locality":"Waldkirch","commune":{"key":"3444","name":"Waldkirch","shortName":"Waldkirch"},"district":{"key":"1721","name":"Wahlkreis St. Gallen"},"canton":{"key":"17","code":"SG","name":"St. Gallen"},"status":"Real"},{"key":"10232184","name":"Eichwisen","postalCode":"9205","locality":"Waldkirch","commune":{"key":"3444","name":"Waldkirch","shortName":"Waldkirch"},"district":{"key":"1721","name":"Wahlkreis St. Gallen"},"canton":{"key":"17","code":"SG","name":"St. Gallen"},"status":"Real"},{"key":"10067720","name":"Erlenstrasse","postalCode":"9205","locality":"Waldkirch","commune":{"key":"3444","name":"Waldkirch","shortName":"Waldkirch"},"district":{"key":"1721","name":"Wahlkreis St. Gallen"},"canton":{"key":"17","code":"SG","name":"St. Gallen"},"status":"Real"},{"key":"10097353","name":"Felsenhof","postalCode":"9205","locality":"Waldkirch","commune":{"key":"3444","name":"Waldkirch","shortName":"Waldkirch"},"district":{"key":"1721","name":"Wahlkreis St. Gallen"},"canton":{"key":"17","code":"SG","name":"St. Gallen"},"status":"Real"},{"key":"10181412","name":"Fillisweid","postalCode":"9205","locality":"Waldkirch","commune":{"key":"3444","name":"Waldkirch","shortName":"Waldkirch"},"district":{"key":"1721","name":"Wahlkreis St. Gallen"},"canton":{"key":"17","code":"SG","name":"St. Gallen"},"status":"Real"},{"key":"10232200","name":"Fillisweidstrasse","postalCode":"9205","locality":"Waldkirch","commune":{"key":"3444","name":"Waldkirch","shortName":"Waldkirch"},"district":{"key":"1721","name":"Wahlkreis St. Gallen"},"canton":{"key":"17","code":"SG","name":"St. Gallen"},"status":"Real"},{"key":"10232204","name":"Fillisweidwaldweg","postalCode":"9205","locality":"Waldkirch","commune":{"key":"3444","name":"Waldkirch","shortName":"Waldkirch"},"district":{"key":"1721","name":"Wahlkreis St. Gallen"},"canton":{"key":"17","code":"SG","name":"St. Gallen"},"status":"Real"},{"key":"10232208","name":"Fillisweidweg","postalCode":"9205","locality":"Waldkirch","commune":{"key":"3444","name":"Waldkirch","shortName":"Waldkirch"},"district":{"key":"1721","name":"Wahlkreis St. Gallen"},"canton":{"key":"17","code":"SG","name":"St. Gallen"},"status":"Real"},{"key":"10124011","name":"Fliederstrasse","postalCode":"9205","locality":"Waldkirch","commune":{"key":"3444","name":"Waldkirch","shortName":"Waldkirch"},"district":{"key":"1721","name":"Wahlkreis St. Gallen"},"canton":{"key":"17","code":"SG","name":"St. Gallen"},"status":"Real"},{"key":"10030368","name":"Floraweg","postalCode":"9205","locality":"Waldkirch","commune":{"key":"3444","name":"Waldkirch","shortName":"Waldkirch"},"district":{"key":"1721","name":"Wahlkreis St. Gallen"},"canton":{"key":"17","code":"SG","name":"St. Gallen"},"status":"Real"},{"key":"10103199","name":"Flurhof","postalCode":"9205","locality":"Waldkirch","commune":{"key":"3444","name":"Waldkirch","shortName":"Waldkirch"},"district":{"key":"1721","name":"Wahlkreis St. Gallen"},"canton":{"key":"17","code":"SG","name":"St. Gallen"},"status":"Real"},{"key":"10232212","name":"Freibergermoosweg","postalCode":"9205","locality":"Waldkirch","commune":{"key":"3444","name":"Waldkirch","shortName":"Waldkirch"},"district":{"key":"1721","name":"Wahlkreis St. Gallen"},"canton":{"key":"17","code":"SG","name":"St. Gallen"},"status":"Real"},{"key":"10232216","name":"Freihirtenstrasse","postalCode":"9205","locality":"Waldkirch","commune":{"key":"3444","name":"Waldkirch","shortName":"Waldkirch"},"district":{"key":"1721","name":"Wahlkreis St. Gallen"},"canton":{"key":"17","code":"SG","name":"St. Gallen"},"status":"Real"},{"key":"10232220","name":"Friedeggweg","postalCode":"9205","locality":"Waldkirch","commune":{"key":"3444","name":"Waldkirch","shortName":"Waldkirch"},"district":{"key":"1721","name":"Wahlkreis St. Gallen"},"canton":{"key":"17","code":"SG","name":"St. Gallen"},"status":"Real"},{"key":"10030369","name":"Frohheim","postalCode":"9205","locality":"Waldkirch","commune":{"key":"3444","name":"Waldkirch","shortName":"Waldkirch"},"district":{"key":"1721","name":"Wahlkreis St. Gallen"},"canton":{"key":"17","code":"SG","name":"St. Gallen"},"status":"Real"},{"key":"10191383","name":"Frommhusen","postalCode":"9205","locality":"Waldkirch","commune":{"key":"3444","name":"Waldkirch","shortName":"Waldkirch"},"district":{"key":"1721","name":"Wahlkreis St. Gallen"},"canton":{"key":"17","code":"SG","name":"St. Gallen"},"status":"Real"},{"key":"10232224","name":"Frommhusenstrasse","postalCode":"9205","locality":"Waldkirch","commune":{"key":"3444","name":"Waldkirch","shortName":"Waldkirch"},"district":{"key":"1721","name":"Wahlkreis St. Gallen"},"canton":{"key":"17","code":"SG","name":"St. Gallen"},"status":"Real"},{"key":"10232228","name":"Frommhusenweg","postalCode":"9205","locality":"Waldkirch","commune":{"key":"3444","name":"Waldkirch","shortName":"Waldkirch"},"district":{"key":"1721","name":"Wahlkreis St. Gallen"},"canton":{"key":"17","code":"SG","name":"St. Gallen"},"status":"Real"},{"key":"10224019","name":"Fronackerenstrasse","postalCode":"9205","locality":"Waldkirch","commune":{"key":"3444","name":"Waldkirch","shortName":"Waldkirch"},"district":{"key":"1721","name":"Wahlkreis St. Gallen"},"canton":{"key":"17","code":"SG","name":"St. Gallen"},"status":"Real"},{"key":"10152039","name":"Gartenweg","postalCode":"9205","locality":"Waldkirch","commune":{"key":"3444","name":"Waldkirch","shortName":"Waldkirch"},"district":{"key":"1721","name":"Wahlkreis St. Gallen"},"canton":{"key":"17","code":"SG","name":"St. Gallen"},"status":"Real"},{"key":"10224024","name":"Gauhusenstrasse","postalCode":"9205","locality":"Waldkirch","commune":{"key":"3444","name":"Waldkirch","shortName":"Waldkirch"},"district":{"key":"1721","name":"Wahlkreis St. Gallen"},"canton":{"key":"17","code":"SG","name":"St. Gallen"},"status":"Real"},{"key":"10097354","name":"Geisshus","postalCode":"9205","locality":"Waldkirch","commune":{"key":"3444","name":"Waldkirch","shortName":"Waldkirch"},"district":{"key":"1721","name":"Wahlkreis St. Gallen"},"canton":{"key":"17","code":"SG","name":"St. Gallen"},"status":"Real"},{"key":"10224028","name":"Geisshusstrasse","postalCode":"9205","locality":"Waldkirch","commune":{"key":"3444","name":"Waldkirch","shortName":"Waldkirch"},"district":{"key":"1721","name":"Wahlkreis St. Gallen"},"canton":{"key":"17","code":"SG","name":"St. Gallen"},"status":"Real"},{"key":"10030370","name":"Gellwil","postalCode":"9205","locality":"Waldkirch","commune":{"key":"3444","name":"Waldkirch","shortName":"Waldkirch"},"district":{"key":"1721","name":"Wahlkreis St. Gallen"},"canton":{"key":"17","code":"SG","name":"St. Gallen"},"status":"Real"},{"key":"10224032","name":"Gellwilstrasse","postalCode":"9205","locality":"Waldkirch","commune":{"key":"3444","name":"Waldkirch","shortName":"Waldkirch"},"district":{"key":"1721","name":"Wahlkreis St. Gallen"},"canton":{"key":"17","code":"SG","name":"St. Gallen"},"status":"Real"},{"key":"10224038","name":"Gellwilweg","postalCode":"9205","locality":"Waldkirch","commune":{"key":"3444","name":"Waldkirch","shortName":"Waldkirch"},"district":{"key":"1721","name":"Wahlkreis St. Gallen"},"canton":{"key":"17","code":"SG","name":"St. Gallen"},"status":"Real"},{"key":"10224048","name":"Gerstenmoosstrasse","postalCode":"9205","locality":"Waldkirch","commune":{"key":"3444","name":"Waldkirch","shortName":"Waldkirch"},"district":{"key":"1721","name":"Wahlkreis St. Gallen"},"canton":{"key":"17","code":"SG","name":"St. Gallen"},"status":"Real"},{"key":"10224052","name":"Giessbachstrasse","postalCode":"9205","locality":"Waldkirch","commune":{"key":"3444","name":"Waldkirch","shortName":"Waldkirch"},"district":{"key":"1721","name":"Wahlkreis St. Gallen"},"canton":{"key":"17","code":"SG","name":"St. Gallen"},"status":"Real"},{"key":"10228698","name":"Gmeinweidweg","postalCode":"9205","locality":"Waldkirch","commune":{"key":"3444","name":"Waldkirch","shortName":"Waldkirch"},"district":{"key":"1721","name":"Wahlkreis St. Gallen"},"canton":{"key":"17","code":"SG","name":"St. Gallen"},"status":"Real"},{"key":"10186591","name":"Grimm","postalCode":"9205","locality":"Waldkirch","commune":{"key":"3444","name":"Waldkirch","shortName":"Waldkirch"},"district":{"key":"1721","name":"Wahlkreis St. Gallen"},"canton":{"key":"17","code":"SG","name":"St. Gallen"},"status":"Real"},{"key":"10232288","name":"Grimmstrasse","postalCode":"9205","locality":"Waldkirch","commune":{"key":"3444","name":"Waldkirch","shortName":"Waldkirch"},"district":{"key":"1721","name":"Wahlkreis St. Gallen"},"canton":{"key":"17","code":"SG","name":"St. Gallen"},"status":"Real"},{"key":"10234339","name":"Grimmweg","postalCode":"9205","locality":"Waldkirch","commune":{"key":"3444","name":"Waldkirch","shortName":"Waldkirch"},"district":{"key":"1721","name":"Wahlkreis St. Gallen"},"canton":{"key":"17","code":"SG","name":"St. Gallen"},"status":"Real"},{"key":"10234343","name":"Grimmwisenweg","postalCode":"9205","locality":"Waldkirch","commune":{"key":"3444","name":"Waldkirch","shortName":"Waldkirch"},"district":{"key":"1721","name":"Wahlkreis St. Gallen"},"canton":{"key":"17","code":"SG","name":"St. Gallen"},"status":"Real"},{"key":"10234351","name":"Grundwisen","postalCode":"9205","locality":"Waldkirch","commune":{"key":"3444","name":"Waldkirch","shortName":"Waldkirch"},"district":{"key":"1721","name":"Wahlkreis St. Gallen"},"canton":{"key":"17","code":"SG","name":"St. Gallen"},"status":"Real"},{"key":"10234355","name":"Gruttenwisenstrasse","postalCode":"9205","locality":"Waldkirch","commune":{"key":"3444","name":"Waldkirch","shortName":"Waldkirch"},"district":{"key":"1721","name":"Wahlkreis St. Gallen"},"canton":{"key":"17","code":"SG","name":"St. Gallen"},"status":"Real"},{"key":"10234375","name":"Grüttweidweg","postalCode":"9205","locality":"Waldkirch","commune":{"key":"3444","name":"Waldkirch","shortName":"Waldkirch"},"district":{"key":"1721","name":"Wahlkreis St. Gallen"},"canton":{"key":"17","code":"SG","name":"St. Gallen"},"status":"Real"},{"key":"10234383","name":"Haldenwisweg","postalCode":"9205","locality":"Waldkirch","commune":{"key":"3444","name":"Waldkirch","shortName":"Waldkirch"},"district":{"key":"1721","name":"Wahlkreis St. Gallen"},"canton":{"key":"17","code":"SG","name":"St. Gallen"},"status":"Real"},{"key":"10056885","name":"Hall","postalCode":"9205","locality":"Waldkirch","commune":{"key":"3444","name":"Waldkirch","shortName":"Waldkirch"},"district":{"key":"1721","name":"Wahlkreis St. Gallen"},"canton":{"key":"17","code":"SG","name":"St. Gallen"},"status":"Real"},{"key":"10234391","name":"Hallstrasse","postalCode":"9205","locality":"Waldkirch","commune":{"key":"3444","name":"Waldkirch","shortName":"Waldkirch"},"district":{"key":"1721","name":"Wahlkreis St. Gallen"},"canton":{"key":"17","code":"SG","name":"St. Gallen"},"status":"Real"},{"key":"10234395","name":"Hallweg","postalCode":"9205","locality":"Waldkirch","commune":{"key":"3444","name":"Waldkirch","shortName":"Waldkirch"},"district":{"key":"1721","name":"Wahlkreis St. Gallen"},"canton":{"key":"17","code":"SG","name":"St. Gallen"},"status":"Real"},{"key":"10191104","name":"Hasenberg","postalCode":"9205","locality":"Waldkirch","commune":{"key":"3444","name":"Waldkirch","shortName":"Waldkirch"},"district":{"key":"1721","name":"Wahlkreis St. Gallen"},"canton":{"key":"17","code":"SG","name":"St. Gallen"},"status":"Real"},{"key":"10234399","name":"Hasenbergstrasse","postalCode":"9205","locality":"Waldkirch","commune":{"key":"3444","name":"Waldkirch","shortName":"Waldkirch"},"district":{"key":"1721","name":"Wahlkreis St. Gallen"},"canton":{"key":"17","code":"SG","name":"St. Gallen"},"status":"Real"},{"key":"10232355","name":"Hasenberg-Weiherweg","postalCode":"9205","locality":"Waldkirch","commune":{"key":"3444","name":"Waldkirch","shortName":"Waldkirch"},"district":{"key":"1721","name":"Wahlkreis St. Gallen"},"canton":{"key":"17","code":"SG","name":"St. Gallen"},"status":"Real"},{"key":"10224144","name":"Haslenholzstrasse","postalCode":"9205","locality":"Waldkirch","commune":{"key":"3444","name":"Waldkirch","shortName":"Waldkirch"},"district":{"key":"1721","name":"Wahlkreis St. Gallen"},"canton":{"key":"17","code":"SG","name":"St. Gallen"},"status":"Real"},{"key":"10224149","name":"Hasumerstrasse","postalCode":"9205","locality":"Waldkirch","commune":{"key":"3444","name":"Waldkirch","shortName":"Waldkirch"},"district":{"key":"1721","name":"Wahlkreis St. Gallen"},"canton":{"key":"17","code":"SG","name":"St. Gallen"},"status":"Real"},{"key":"10097355","name":"Hauptwilerstrasse","postalCode":"9205","locality":"Waldkirch","commune":{"key":"3444","name":"Waldkirch","shortName":"Waldkirch"},"district":{"key":"1721","name":"Wahlkreis St. Gallen"},"canton":{"key":"17","code":"SG","name":"St. Gallen"},"status":"Real"},{"key":"10067722","name":"Heldstrasse","postalCode":"9205","locality":"Waldkirch","commune":{"key":"3444","name":"Waldkirch","shortName":"Waldkirch"},"district":{"key":"1721","name":"Wahlkreis St. Gallen"},"canton":{"key":"17","code":"SG","name":"St. Gallen"},"status":"Real"},{"key":"10225170","name":"Heldweg","postalCode":"9205","locality":"Waldkirch","commune":{"key":"3444","name":"Waldkirch","shortName":"Waldkirch"},"district":{"key":"1721","name":"Wahlkreis St. Gallen"},"canton":{"key":"17","code":"SG","name":"St. Gallen"},"status":"Real"},{"key":"10030371","name":"Hirschgarten","postalCode":"9205","locality":"Waldkirch","commune":{"key":"3444","name":"Waldkirch","shortName":"Waldkirch"},"district":{"key":"1721","name":"Wahlkreis St. Gallen"},"canton":{"key":"17","code":"SG","name":"St. Gallen"},"status":"Real"},{"key":"10181413","name":"Hirschgartenstrasse","postalCode":"9205","locality":"Waldkirch","commune":{"key":"3444","name":"Waldkirch","shortName":"Waldkirch"},"district":{"key":"1721","name":"Wahlkreis St. Gallen"},"canton":{"key":"17","code":"SG","name":"St. Gallen"},"status":"Real"},{"key":"10225178","name":"Hirschgartenweg","postalCode":"9205","locality":"Waldkirch","commune":{"key":"3444","name":"Waldkirch","shortName":"Waldkirch"},"district":{"key":"1721","name":"Wahlkreis St. Gallen"},"canton":{"key":"17","code":"SG","name":"St. Gallen"},"status":"Real"},{"key":"10225182","name":"Höfliweg","postalCode":"9205","locality":"Waldkirch","commune":{"key":"3444","name":"Waldkirch","shortName":"Waldkirch"},"district":{"key":"1721","name":"Wahlkreis St. Gallen"},"canton":{"key":"17","code":"SG","name":"St. Gallen"},"status":"Real"},{"key":"10097356","name":"Hohenrainstrasse","postalCode":"9205","locality":"Waldkirch","commune":{"key":"3444","name":"Waldkirch","shortName":"Waldkirch"},"district":{"key":"1721","name":"Wahlkreis St. Gallen"},"canton":{"key":"17","code":"SG","name":"St. Gallen"},"status":"Real"},{"key":"10225186","name":"Hohentannenstrasse","postalCode":"9205","locality":"Waldkirch","commune":{"key":"3444","name":"Waldkirch","shortName":"Waldkirch"},"district":{"key":"1721","name":"Wahlkreis St. Gallen"},"canton":{"key":"17","code":"SG","name":"St. Gallen"},"status":"Real"},{"key":"10106833","name":"Hohfirst","postalCode":"9205","locality":"Waldkirch","commune":{"key":"3444","name":"Waldkirch","shortName":"Waldkirch"},"district":{"key":"1721","name":"Wahlkreis St. Gallen"},"canton":{"key":"17","code":"SG","name":"St. Gallen"},"status":"Real"},{"key":"10056886","name":"Hospert","postalCode":"9205","locality":"Waldkirch","commune":{"key":"3444","name":"Waldkirch","shortName":"Waldkirch"},"district":{"key":"1721","name":"Wahlkreis St. Gallen"},"canton":{"key":"17","code":"SG","name":"St. Gallen"},"status":"Real"},{"key":"10132590","name":"Hueb","postalCode":"9205","locality":"Waldkirch","commune":{"key":"3444","name":"Waldkirch","shortName":"Waldkirch"},"district":{"key":"1721","name":"Wahlkreis St. Gallen"},"canton":{"key":"17","code":"SG","name":"St. Gallen"},"status":"Real"},{"key":"10225194","name":"Huebstrasse","postalCode":"9205","locality":"Waldkirch","commune":{"key":"3444","name":"Waldkirch","shortName":"Waldkirch"},"district":{"key":"1721","name":"Wahlkreis St. Gallen"},"canton":{"key":"17","code":"SG","name":"St. Gallen"},"status":"Real"},{"key":"10225210","name":"Im Ebnet","postalCode":"9205","locality":"Waldkirch","commune":{"key":"3444","name":"Waldkirch","shortName":"Waldkirch"},"district":{"key":"1721","name":"Wahlkreis St. Gallen"},"canton":{"key":"17","code":"SG","name":"St. Gallen"},"status":"Real"},{"key":"10225222","name":"Im Obergrimm","postalCode":"9205","locality":"Waldkirch","commune":{"key":"3444","name":"Waldkirch","shortName":"Waldkirch"},"district":{"key":"1721","name":"Wahlkreis St. Gallen"},"canton":{"key":"17","code":"SG","name":"St. Gallen"},"status":"Real"},{"key":"10228870","name":"Im Oberwil","postalCode":"9205","locality":"Waldkirch","commune":{"key":"3444","name":"Waldkirch","shortName":"Waldkirch"},"district":{"key":"1721","name":"Wahlkreis St. Gallen"},"canton":{"key":"17","code":"SG","name":"St. Gallen"},"status":"Real"},{"key":"10228874","name":"Im Schachen","postalCode":"9205","locality":"Waldkirch","commune":{"key":"3444","name":"Waldkirch","shortName":"Waldkirch"},"district":{"key":"1721","name":"Wahlkreis St. Gallen"},"canton":{"key":"17","code":"SG","name":"St. Gallen"},"status":"Real"},{"key":"10228882","name":"Im Vögeliberg","postalCode":"9205","locality":"Waldkirch","commune":{"key":"3444","name":"Waldkirch","shortName":"Waldkirch"},"district":{"key":"1721","name":"Wahlkreis St. Gallen"},"canton":{"key":"17","code":"SG","name":"St. Gallen"},"status":"Real"},{"key":"10228886","name":"Im wisse Weg","postalCode":"9205","locality":"Waldkirch","commune":{"key":"3444","name":"Waldkirch","shortName":"Waldkirch"},"district":{"key":"1721","name":"Wahlkreis St. Gallen"},"canton":{"key":"17","code":"SG","name":"St. Gallen"},"status":"Real"},{"key":"10228890","name":"In Vormülenen","postalCode":"9205","locality":"Waldkirch","commune":{"key":"3444","name":"Waldkirch","shortName":"Waldkirch"},"district":{"key":"1721","name":"Wahlkreis St. Gallen"},"canton":{"key":"17","code":"SG","name":"St. Gallen"},"status":"Real"},{"key":"10229128","name":"Juggen","postalCode":"9205","locality":"Waldkirch","commune":{"key":"3444","name":"Waldkirch","shortName":"Waldkirch"},"district":{"key":"1721","name":"Wahlkreis St. Gallen"},"canton":{"key":"17","code":"SG","name":"St. Gallen"},"status":"Real"},{"key":"10030372","name":"Juggenwald","postalCode":"9205","locality":"Waldkirch","commune":{"key":"3444","name":"Waldkirch","shortName":"Waldkirch"},"district":{"key":"1721","name":"Wahlkreis St. Gallen"},"canton":{"key":"17","code":"SG","name":"St. Gallen"},"status":"Real"},{"key":"10229132","name":"Juggenwaldstrasse","postalCode":"9205","locality":"Waldkirch","commune":{"key":"3444","name":"Waldkirch","shortName":"Waldkirch"},"district":{"key":"1721","name":"Wahlkreis St. Gallen"},"canton":{"key":"17","code":"SG","name":"St. Gallen"},"status":"Real"},{"key":"10229136","name":"Juggenweg","postalCode":"9205","locality":"Waldkirch","commune":{"key":"3444","name":"Waldkirch","shortName":"Waldkirch"},"district":{"key":"1721","name":"Wahlkreis St. Gallen"},"canton":{"key":"17","code":"SG","name":"St. Gallen"},"status":"Real"},{"key":"10229140","name":"Kieselbergweg","postalCode":"9205","locality":"Waldkirch","commune":{"key":"3444","name":"Waldkirch","shortName":"Waldkirch"},"district":{"key":"1721","name":"Wahlkreis St. Gallen"},"canton":{"key":"17","code":"SG","name":"St. Gallen"},"status":"Real"},{"key":"10229144","name":"Kirchbergstrasse","postalCode":"9205","locality":"Waldkirch","commune":{"key":"3444","name":"Waldkirch","shortName":"Waldkirch"},"district":{"key":"1721","name":"Wahlkreis St. Gallen"},"canton":{"key":"17","code":"SG","name":"St. Gallen"},"status":"Real"},{"key":"10229148","name":"Kirchbergweg","postalCode":"9205","locality":"Waldkirch","commune":{"key":"3444","name":"Waldkirch","shortName":"Waldkirch"},"district":{"key":"1721","name":"Wahlkreis St. Gallen"},"canton":{"key":"17","code":"SG","name":"St. Gallen"},"status":"Real"},{"key":"10056887","name":"Langenland","postalCode":"9205","locality":"Waldkirch","commune":{"key":"3444","name":"Waldkirch","shortName":"Waldkirch"},"district":{"key":"1721","name":"Wahlkreis St. Gallen"},"canton":{"key":"17","code":"SG","name":"St. Gallen"},"status":"Real"},{"key":"10229156","name":"Langenlandstrasse","postalCode":"9205","locality":"Waldkirch","commune":{"key":"3444","name":"Waldkirch","shortName":"Waldkirch"},"district":{"key":"1721","name":"Wahlkreis St. Gallen"},"canton":{"key":"17","code":"SG","name":"St. Gallen"},"status":"Real"},{"key":"10229160","name":"Langwisen","postalCode":"9205","locality":"Waldkirch","commune":{"key":"3444","name":"Waldkirch","shortName":"Waldkirch"},"district":{"key":"1721","name":"Wahlkreis St. Gallen"},"canton":{"key":"17","code":"SG","name":"St. Gallen"},"status":"Real"},{"key":"10229164","name":"Langwisenstrasse","postalCode":"9205","locality":"Waldkirch","commune":{"key":"3444","name":"Waldkirch","shortName":"Waldkirch"},"district":{"key":"1721","name":"Wahlkreis St. Gallen"},"canton":{"key":"17","code":"SG","name":"St. Gallen"},"status":"Real"},{"key":"10030373","name":"Laubbach","postalCode":"9205","locality":"Waldkirch","commune":{"key":"3444","name":"Waldkirch","shortName":"Waldkirch"},"district":{"key":"1721","name":"Wahlkreis St. Gallen"},"canton":{"key":"17","code":"SG","name":"St. Gallen"},"status":"Real"},{"key":"10114424","name":"Leh","postalCode":"9205","locality":"Waldkirch","commune":{"key":"3444","name":"Waldkirch","shortName":"Waldkirch"},"district":{"key":"1721","name":"Wahlkreis St. Gallen"},"canton":{"key":"17","code":"SG","name":"St. Gallen"},"status":"Real"},{"key":"10225284","name":"Lehbachstrasse","postalCode":"9205","locality":"Waldkirch","commune":{"key":"3444","name":"Waldkirch","shortName":"Waldkirch"},"district":{"key":"1721","name":"Wahlkreis St. Gallen"},"canton":{"key":"17","code":"SG","name":"St. Gallen"},"status":"Real"},{"key":"10225288","name":"Lehbachweg","postalCode":"9205","locality":"Waldkirch","commune":{"key":"3444","name":"Waldkirch","shortName":"Waldkirch"},"district":{"key":"1721","name":"Wahlkreis St. Gallen"},"canton":{"key":"17","code":"SG","name":"St. Gallen"},"status":"Real"},{"key":"10225292","name":"Lehstrasse","postalCode":"9205","locality":"Waldkirch","commune":{"key":"3444","name":"Waldkirch","shortName":"Waldkirch"},"district":{"key":"1721","name":"Wahlkreis St. Gallen"},"canton":{"key":"17","code":"SG","name":"St. Gallen"},"status":"Real"},{"key":"10030374","name":"Leimatbachstrasse","postalCode":"9205","locality":"Waldkirch","commune":{"key":"3444","name":"Waldkirch","shortName":"Waldkirch"},"district":{"key":"1721","name":"Wahlkreis St. Gallen"},"canton":{"key":"17","code":"SG","name":"St. Gallen"},"status":"Real"},{"key":"10067725","name":"Leimatstrasse","postalCode":"9205","locality":"Waldkirch","commune":{"key":"3444","name":"Waldkirch","shortName":"Waldkirch"},"district":{"key":"1721","name":"Wahlkreis St. Gallen"},"canton":{"key":"17","code":"SG","name":"St. Gallen"},"status":"Real"},{"key":"10225296","name":"Leimatweg","postalCode":"9205","locality":"Waldkirch","commune":{"key":"3444","name":"Waldkirch","shortName":"Waldkirch"},"district":{"key":"1721","name":"Wahlkreis St. Gallen"},"canton":{"key":"17","code":"SG","name":"St. Gallen"},"status":"Real"},{"key":"10225300","name":"Leitobel","postalCode":"9205","locality":"Waldkirch","commune":{"key":"3444","name":"Waldkirch","shortName":"Waldkirch"},"district":{"key":"1721","name":"Wahlkreis St. Gallen"},"canton":{"key":"17","code":"SG","name":"St. Gallen"},"status":"Real"},{"key":"10228958","name":"Leitobelweg","postalCode":"9205","locality":"Waldkirch","commune":{"key":"3444","name":"Waldkirch","shortName":"Waldkirch"},"district":{"key":"1721","name":"Wahlkreis St. Gallen"},"canton":{"key":"17","code":"SG","name":"St. Gallen"},"status":"Real"},{"key":"10124016","name":"Lilienstrasse","postalCode":"9205","locality":"Waldkirch","commune":{"key":"3444","name":"Waldkirch","shortName":"Waldkirch"},"district":{"key":"1721","name":"Wahlkreis St. Gallen"},"canton":{"key":"17","code":"SG","name":"St. Gallen"},"status":"Real"},{"key":"10110632","name":"Loch","postalCode":"9205","locality":"Waldkirch","commune":{"key":"3444","name":"Waldkirch","shortName":"Waldkirch"},"district":{"key":"1721","name":"Wahlkreis St. Gallen"},"canton":{"key":"17","code":"SG","name":"St. Gallen"},"status":"Real"},{"key":"10097357","name":"Maregg","postalCode":"9205","locality":"Waldkirch","commune":{"key":"3444","name":"Waldkirch","shortName":"Waldkirch"},"district":{"key":"1721","name":"Wahlkreis St. Gallen"},"canton":{"key":"17","code":"SG","name":"St. Gallen"},"status":"Real"},{"key":"10030375","name":"Meersburgwisen","postalCode":"9205","locality":"Waldkirch","commune":{"key":"3444","name":"Waldkirch","shortName":"Waldkirch"},"district":{"key":"1721","name":"Wahlkreis St. Gallen"},"canton":{"key":"17","code":"SG","name":"St. Gallen"},"status":"Real"},{"key":"10225320","name":"Meersburgwisenstrasse","postalCode":"9205","locality":"Waldkirch","commune":{"key":"3444","name":"Waldkirch","shortName":"Waldkirch"},"district":{"key":"1721","name":"Wahlkreis St. Gallen"},"canton":{"key":"17","code":"SG","name":"St. Gallen"},"status":"Real"},{"key":"10250623","name":"Meersburgwisenweg","postalCode":"9205","locality":"Waldkirch","commune":{"key":"3444","name":"Waldkirch","shortName":"Waldkirch"},"district":{"key":"1721","name":"Wahlkreis St. Gallen"},"canton":{"key":"17","code":"SG","name":"St. Gallen"},"status":"Real"},{"key":"10191384","name":"Mölbach","postalCode":"9205","locality":"Waldkirch","commune":{"key":"3444","name":"Waldkirch","shortName":"Waldkirch"},"district":{"key":"1721","name":"Wahlkreis St. Gallen"},"canton":{"key":"17","code":"SG","name":"St. Gallen"},"status":"Real"},{"key":"10228982","name":"Mölbachhölzliweg","postalCode":"9205","locality":"Waldkirch","commune":{"key":"3444","name":"Waldkirch","shortName":"Waldkirch"},"district":{"key":"1721","name":"Wahlkreis St. Gallen"},"canton":{"key":"17","code":"SG","name":"St. Gallen"},"status":"Real"},{"key":"10228986","name":"Mölbachtobel","postalCode":"9205","locality":"Waldkirch","commune":{"key":"3444","name":"Waldkirch","shortName":"Waldkirch"},"district":{"key":"1721","name":"Wahlkreis St. Gallen"},"canton":{"key":"17","code":"SG","name":"St. Gallen"},"status":"Real"},{"key":"10228990","name":"Mölbachtobelstrasse","postalCode":"9205","locality":"Waldkirch","commune":{"key":"3444","name":"Waldkirch","shortName":"Waldkirch"},"district":{"key":"1721","name":"Wahlkreis St. Gallen"},"canton":{"key":"17","code":"SG","name":"St. Gallen"},"status":"Real"},{"key":"10229232","name":"Mollen","postalCode":"9205","locality":"Waldkirch","commune":{"key":"3444","name":"Waldkirch","shortName":"Waldkirch"},"district":{"key":"1721","name":"Wahlkreis St. Gallen"},"canton":{"key":"17","code":"SG","name":"St. Gallen"},"status":"Real"},{"key":"10225344","name":"Mollenstrasse","postalCode":"9205","locality":"Waldkirch","commune":{"key":"3444","name":"Waldkirch","shortName":"Waldkirch"},"district":{"key":"1721","name":"Wahlkreis St. Gallen"},"canton":{"key":"17","code":"SG","name":"St. Gallen"},"status":"Real"},{"key":"10225348","name":"Mollenwaldweg","postalCode":"9205","locality":"Waldkirch","commune":{"key":"3444","name":"Waldkirch","shortName":"Waldkirch"},"district":{"key":"1721","name":"Wahlkreis St. Gallen"},"canton":{"key":"17","code":"SG","name":"St. Gallen"},"status":"Real"},{"key":"10229244","name":"Mollenweg","postalCode":"9205","locality":"Waldkirch","commune":{"key":"3444","name":"Waldkirch","shortName":"Waldkirch"},"district":{"key":"1721","name":"Wahlkreis St. Gallen"},"canton":{"key":"17","code":"SG","name":"St. Gallen"},"status":"Real"},{"key":"10229248","name":"Mollenwisen","postalCode":"9205","locality":"Waldkirch","commune":{"key":"3444","name":"Waldkirch","shortName":"Waldkirch"},"district":{"key":"1721","name":"Wahlkreis St. Gallen"},"canton":{"key":"17","code":"SG","name":"St. Gallen"},"status":"Real"},{"key":"10229252","name":"Mollenwisenbachweg","postalCode":"9205","locality":"Waldkirch","commune":{"key":"3444","name":"Waldkirch","shortName":"Waldkirch"},"district":{"key":"1721","name":"Wahlkreis St. Gallen"},"canton":{"key":"17","code":"SG","name":"St. Gallen"},"status":"Real"},{"key":"10105499","name":"Moos","postalCode":"9205","locality":"Waldkirch","commune":{"key":"3444","name":"Waldkirch","shortName":"Waldkirch"},"district":{"key":"1721","name":"Wahlkreis St. Gallen"},"canton":{"key":"17","code":"SG","name":"St. Gallen"},"status":"Real"},{"key":"10030376","name":"Mooshueb","postalCode":"9205","locality":"Waldkirch","commune":{"key":"3444","name":"Waldkirch","shortName":"Waldkirch"},"district":{"key":"1721","name":"Wahlkreis St. Gallen"},"canton":{"key":"17","code":"SG","name":"St. Gallen"},"status":"Real"},{"key":"10225360","name":"Mooshuebstrasse","postalCode":"9205","locality":"Waldkirch","commune":{"key":"3444","name":"Waldkirch","shortName":"Waldkirch"},"district":{"key":"1721","name":"Wahlkreis St. Gallen"},"canton":{"key":"17","code":"SG","name":"St. Gallen"},"status":"Real"},{"key":"10225364","name":"Moosstrasse","postalCode":"9205","locality":"Waldkirch","commune":{"key":"3444","name":"Waldkirch","shortName":"Waldkirch"},"district":{"key":"1721","name":"Wahlkreis St. Gallen"},"canton":{"key":"17","code":"SG","name":"St. Gallen"},"status":"Real"},{"key":"10225368","name":"Möslenwis","postalCode":"9205","locality":"Waldkirch","commune":{"key":"3444","name":"Waldkirch","shortName":"Waldkirch"},"district":{"key":"1721","name":"Wahlkreis St. Gallen"},"canton":{"key":"17","code":"SG","name":"St. Gallen"},"status":"Real"},{"key":"10225372","name":"Mülrütistrasse","postalCode":"9205","locality":"Waldkirch","commune":{"key":"3444","name":"Waldkirch","shortName":"Waldkirch"},"district":{"key":"1721","name":"Wahlkreis St. Gallen"},"canton":{"key":"17","code":"SG","name":"St. Gallen"},"status":"Real"},{"key":"10233126","name":"Mülrütiweg","postalCode":"9205","locality":"Waldkirch","commune":{"key":"3444","name":"Waldkirch","shortName":"Waldkirch"},"district":{"key":"1721","name":"Wahlkreis St. Gallen"},"canton":{"key":"17","code":"SG","name":"St. Gallen"},"status":"Real"},{"key":"10056888","name":"Murisweid","postalCode":"9205","locality":"Waldkirch","commune":{"key":"3444","name":"Waldkirch","shortName":"Waldkirch"},"district":{"key":"1721","name":"Wahlkreis St. Gallen"},"canton":{"key":"17","code":"SG","name":"St. Gallen"},"status":"Real"},{"key":"10233130","name":"Murisweidstrasse","postalCode":"9205","locality":"Waldkirch","commune":{"key":"3444","name":"Waldkirch","shortName":"Waldkirch"},"district":{"key":"1721","name":"Wahlkreis St. Gallen"},"canton":{"key":"17","code":"SG","name":"St. Gallen"},"status":"Real"},{"key":"10233134","name":"Nasenweg","postalCode":"9205","locality":"Waldkirch","commune":{"key":"3444","name":"Waldkirch","shortName":"Waldkirch"},"district":{"key":"1721","name":"Wahlkreis St. Gallen"},"canton":{"key":"17","code":"SG","name":"St. Gallen"},"status":"Real"},{"key":"10097358","name":"Nelkenstrasse","postalCode":"9205","locality":"Waldkirch","commune":{"key":"3444","name":"Waldkirch","shortName":"Waldkirch"},"district":{"key":"1721","name":"Wahlkreis St. Gallen"},"canton":{"key":"17","code":"SG","name":"St. Gallen"},"status":"Real"},{"key":"10251067","name":"Neubrunn","postalCode":"9205","locality":"Waldkirch","commune":{"key":"3444","name":"Waldkirch","shortName":"Waldkirch"},"district":{"key":"1721","name":"Wahlkreis St. Gallen"},"canton":{"key":"17","code":"SG","name":"St. Gallen"},"status":"Real"},{"key":"10168883","name":"Neubrunnstrasse","postalCode":"9205","locality":"Waldkirch","commune":{"key":"3444","name":"Waldkirch","shortName":"Waldkirch"},"district":{"key":"1721","name":"Wahlkreis St. Gallen"},"canton":{"key":"17","code":"SG","name":"St. Gallen"},"status":"Real"},{"key":"10225396","name":"Neubrunnweg","postalCode":"9205","locality":"Waldkirch","commune":{"key":"3444","name":"Waldkirch","shortName":"Waldkirch"},"district":{"key":"1721","name":"Wahlkreis St. Gallen"},"canton":{"key":"17","code":"SG","name":"St. Gallen"},"status":"Real"},{"key":"10030377","name":"Neueggstrasse","postalCode":"9205","locality":"Waldkirch","commune":{"key":"3444","name":"Waldkirch","shortName":"Waldkirch"},"district":{"key":"1721","name":"Wahlkreis St. Gallen"},"canton":{"key":"17","code":"SG","name":"St. Gallen"},"status":"Real"},{"key":"10030378","name":"Neuhof","postalCode":"9205","locality":"Waldkirch","commune":{"key":"3444","name":"Waldkirch","shortName":"Waldkirch"},"district":{"key":"1721","name":"Wahlkreis St. Gallen"},"canton":{"key":"17","code":"SG","name":"St. Gallen"},"status":"Real"},{"key":"10225400","name":"Neuhofstrasse","postalCode":"9205","locality":"Waldkirch","commune":{"key":"3444","name":"Waldkirch","shortName":"Waldkirch"},"district":{"key":"1721","name":"Wahlkreis St. Gallen"},"canton":{"key":"17","code":"SG","name":"St. Gallen"},"status":"Real"},{"key":"10229057","name":"Neuhofweg","postalCode":"9205","locality":"Waldkirch","commune":{"key":"3444","name":"Waldkirch","shortName":"Waldkirch"},"district":{"key":"1721","name":"Wahlkreis St. Gallen"},"canton":{"key":"17","code":"SG","name":"St. Gallen"},"status":"Real"},{"key":"10229061","name":"Nidergschlachtstrasse","postalCode":"9205","locality":"Waldkirch","commune":{"key":"3444","name":"Waldkirch","shortName":"Waldkirch"},"district":{"key":"1721","name":"Wahlkreis St. Gallen"},"canton":{"key":"17","code":"SG","name":"St. Gallen"},"status":"Real"},{"key":"10229065","name":"Niderleggiweg","postalCode":"9205","locality":"Waldkirch","commune":{"key":"3444","name":"Waldkirch","shortName":"Waldkirch"},"district":{"key":"1721","name":"Wahlkreis St. Gallen"},"canton":{"key":"17","code":"SG","name":"St. Gallen"},"status":"Real"},{"key":"10191105","name":"Niederwil","postalCode":"9205","locality":"Waldkirch","commune":{"key":"3444","name":"Waldkirch","shortName":"Waldkirch"},"district":{"key":"1721","name":"Wahlkreis St. Gallen"},"canton":{"key":"17","code":"SG","name":"St. Gallen"},"status":"Real"},{"key":"10229069","name":"Niederwilermoosweg","postalCode":"9205","locality":"Waldkirch","commune":{"key":"3444","name":"Waldkirch","shortName":"Waldkirch"},"district":{"key":"1721","name":"Wahlkreis St. Gallen"},"canton":{"key":"17","code":"SG","name":"St. Gallen"},"status":"Real"},{"key":"10229073","name":"Niederwilerwisstrasse","postalCode":"9205","locality":"Waldkirch","commune":{"key":"3444","name":"Waldkirch","shortName":"Waldkirch"},"district":{"key":"1721","name":"Wahlkreis St. Gallen"},"canton":{"key":"17","code":"SG","name":"St. Gallen"},"status":"Real"},{"key":"10233170","name":"Niederwilerwisweg","postalCode":"9205","locality":"Waldkirch","commune":{"key":"3444","name":"Waldkirch","shortName":"Waldkirch"},"district":{"key":"1721","name":"Wahlkreis St. Gallen"},"canton":{"key":"17","code":"SG","name":"St. Gallen"},"status":"Real"},{"key":"10233174","name":"Niederwilstrasse","postalCode":"9205","locality":"Waldkirch","commune":{"key":"3444","name":"Waldkirch","shortName":"Waldkirch"},"district":{"key":"1721","name":"Wahlkreis St. Gallen"},"canton":{"key":"17","code":"SG","name":"St. Gallen"},"status":"Real"},{"key":"10233178","name":"Oberarneggerstrasse","postalCode":"9205","locality":"Waldkirch","commune":{"key":"3444","name":"Waldkirch","shortName":"Waldkirch"},"district":{"key":"1721","name":"Wahlkreis St. Gallen"},"canton":{"key":"17","code":"SG","name":"St. Gallen"},"status":"Real"},{"key":"10233182","name":"Oberbleichenbachstrasse","postalCode":"9205","locality":"Waldkirch","commune":{"key":"3444","name":"Waldkirch","shortName":"Waldkirch"},"district":{"key":"1721","name":"Wahlkreis St. Gallen"},"canton":{"key":"17","code":"SG","name":"St. Gallen"},"status":"Real"},{"key":"10067727","name":"Oberdorfstrasse","postalCode":"9205","locality":"Waldkirch","commune":{"key":"3444","name":"Waldkirch","shortName":"Waldkirch"},"district":{"key":"1721","name":"Wahlkreis St. Gallen"},"canton":{"key":"17","code":"SG","name":"St. Gallen"},"status":"Real"},{"key":"10233186","name":"Oberdorfweg","postalCode":"9205","locality":"Waldkirch","commune":{"key":"3444","name":"Waldkirch","shortName":"Waldkirch"},"district":{"key":"1721","name":"Wahlkreis St. Gallen"},"canton":{"key":"17","code":"SG","name":"St. Gallen"},"status":"Real"},{"key":"10233190","name":"Obere Bösbrügglistrasse","postalCode":"9205","locality":"Waldkirch","commune":{"key":"3444","name":"Waldkirch","shortName":"Waldkirch"},"district":{"key":"1721","name":"Wahlkreis St. Gallen"},"canton":{"key":"17","code":"SG","name":"St. Gallen"},"status":"Real"},{"key":"10097359","name":"Obere Chennerstrasse","postalCode":"9205","locality":"Waldkirch","commune":{"key":"3444","name":"Waldkirch","shortName":"Waldkirch"},"district":{"key":"1721","name":"Wahlkreis St. Gallen"},"canton":{"key":"17","code":"SG","name":"St. Gallen"},"status":"Real"},{"key":"10233194","name":"Obere Tierlihuebstrasse","postalCode":"9205","locality":"Waldkirch","commune":{"key":"3444","name":"Waldkirch","shortName":"Waldkirch"},"district":{"key":"1721","name":"Wahlkreis St. Gallen"},"canton":{"key":"17","code":"SG","name":"St. Gallen"},"status":"Real"},{"key":"10233198","name":"Obere Tuggsteinstrasse","postalCode":"9205","locality":"Waldkirch","commune":{"key":"3444","name":"Waldkirch","shortName":"Waldkirch"},"district":{"key":"1721","name":"Wahlkreis St. Gallen"},"canton":{"key":"17","code":"SG","name":"St. Gallen"},"status":"Real"},{"key":"10225461","name":"Obergässchen","postalCode":"9205","locality":"Waldkirch","commune":{"key":"3444","name":"Waldkirch","shortName":"Waldkirch"},"district":{"key":"1721","name":"Wahlkreis St. Gallen"},"canton":{"key":"17","code":"SG","name":"St. Gallen"},"status":"Real"},{"key":"10181414","name":"Obergrimm","postalCode":"9205","locality":"Waldkirch","commune":{"key":"3444","name":"Waldkirch","shortName":"Waldkirch"},"district":{"key":"1721","name":"Wahlkreis St. Gallen"},"canton":{"key":"17","code":"SG","name":"St. Gallen"},"status":"Real"},{"key":"10225465","name":"Obergrimmer-Kiesgrubenweg","postalCode":"9205","locality":"Waldkirch","commune":{"key":"3444","name":"Waldkirch","shortName":"Waldkirch"},"district":{"key":"1721","name":"Wahlkreis St. Gallen"},"canton":{"key":"17","code":"SG","name":"St. Gallen"},"status":"Real"},{"key":"10225469","name":"Obergrimmstrasse","postalCode":"9205","locality":"Waldkirch","commune":{"key":"3444","name":"Waldkirch","shortName":"Waldkirch"},"district":{"key":"1721","name":"Wahlkreis St. Gallen"},"canton":{"key":"17","code":"SG","name":"St. Gallen"},"status":"Real"},{"key":"10225473","name":"Obergrimmweg","postalCode":"9205","locality":"Waldkirch","commune":{"key":"3444","name":"Waldkirch","shortName":"Waldkirch"},"district":{"key":"1721","name":"Wahlkreis St. Gallen"},"canton":{"key":"17","code":"SG","name":"St. Gallen"},"status":"Real"},{"key":"10030668","name":"Oberwaldstrasse","postalCode":"9205","locality":"Waldkirch","commune":{"key":"3444","name":"Waldkirch","shortName":"Waldkirch"},"district":{"key":"1721","name":"Wahlkreis St. Gallen"},"canton":{"key":"17","code":"SG","name":"St. Gallen"},"status":"Real"},{"key":"10110633","name":"Oberwil","postalCode":"9205","locality":"Waldkirch","commune":{"key":"3444","name":"Waldkirch","shortName":"Waldkirch"},"district":{"key":"1721","name":"Wahlkreis St. Gallen"},"canton":{"key":"17","code":"SG","name":"St. Gallen"},"status":"Real"},{"key":"10230156","name":"Oberwilstrasse","postalCode":"9205","locality":"Waldkirch","commune":{"key":"3444","name":"Waldkirch","shortName":"Waldkirch"},"district":{"key":"1721","name":"Wahlkreis St. Gallen"},"canton":{"key":"17","code":"SG","name":"St. Gallen"},"status":"Real"},{"key":"10230160","name":"Oberwilweg","postalCode":"9205","locality":"Waldkirch","commune":{"key":"3444","name":"Waldkirch","shortName":"Waldkirch"},"district":{"key":"1721","name":"Wahlkreis St. Gallen"},"canton":{"key":"17","code":"SG","name":"St. Gallen"},"status":"Real"},{"key":"10230168","name":"Ochsenweidwaldweg","postalCode":"9205","locality":"Waldkirch","commune":{"key":"3444","name":"Waldkirch","shortName":"Waldkirch"},"district":{"key":"1721","name":"Wahlkreis St. Gallen"},"canton":{"key":"17","code":"SG","name":"St. Gallen"},"status":"Real"},{"key":"10230172","name":"Ochsenweidweg","postalCode":"9205","locality":"Waldkirch","commune":{"key":"3444","name":"Waldkirch","shortName":"Waldkirch"},"district":{"key":"1721","name":"Wahlkreis St. Gallen"},"canton":{"key":"17","code":"SG","name":"St. Gallen"},"status":"Real"},{"key":"10230176","name":"Paierrainweg","postalCode":"9205","locality":"Waldkirch","commune":{"key":"3444","name":"Waldkirch","shortName":"Waldkirch"},"district":{"key":"1721","name":"Wahlkreis St. Gallen"},"canton":{"key":"17","code":"SG","name":"St. Gallen"},"status":"Real"},{"key":"10225505","name":"Pfisterweidweg","postalCode":"9205","locality":"Waldkirch","commune":{"key":"3444","name":"Waldkirch","shortName":"Waldkirch"},"district":{"key":"1721","name":"Wahlkreis St. Gallen"},"canton":{"key":"17","code":"SG","name":"St. Gallen"},"status":"Real"},{"key":"10225513","name":"Rainweg","postalCode":"9205","locality":"Waldkirch","commune":{"key":"3444","name":"Waldkirch","shortName":"Waldkirch"},"district":{"key":"1721","name":"Wahlkreis St. Gallen"},"canton":{"key":"17","code":"SG","name":"St. Gallen"},"status":"Real"},{"key":"10131538","name":"Rickenhueb","postalCode":"9205","locality":"Waldkirch","commune":{"key":"3444","name":"Waldkirch","shortName":"Waldkirch"},"district":{"key":"1721","name":"Wahlkreis St. Gallen"},"canton":{"key":"17","code":"SG","name":"St. Gallen"},"status":"Real"},{"key":"10233253","name":"Rickenhuebhölzliweg","postalCode":"9205","locality":"Waldkirch","commune":{"key":"3444","name":"Waldkirch","shortName":"Waldkirch"},"district":{"key":"1721","name":"Wahlkreis St. Gallen"},"canton":{"key":"17","code":"SG","name":"St. Gallen"},"status":"Real"},{"key":"10233257","name":"Rickenhuebweg","postalCode":"9205","locality":"Waldkirch","commune":{"key":"3444","name":"Waldkirch","shortName":"Waldkirch"},"district":{"key":"1721","name":"Wahlkreis St. Gallen"},"canton":{"key":"17","code":"SG","name":"St. Gallen"},"status":"Real"},{"key":"10030669","name":"Rickenhus","postalCode":"9205","locality":"Waldkirch","commune":{"key":"3444","name":"Waldkirch","shortName":"Waldkirch"},"district":{"key":"1721","name":"Wahlkreis St. Gallen"},"canton":{"key":"17","code":"SG","name":"St. Gallen"},"status":"Real"},{"key":"10233261","name":"Rickenhusstrasse","postalCode":"9205","locality":"Waldkirch","commune":{"key":"3444","name":"Waldkirch","shortName":"Waldkirch"},"district":{"key":"1721","name":"Wahlkreis St. Gallen"},"canton":{"key":"17","code":"SG","name":"St. Gallen"},"status":"Real"},{"key":"10233265","name":"Rickenhusweg","postalCode":"9205","locality":"Waldkirch","commune":{"key":"3444","name":"Waldkirch","shortName":"Waldkirch"},"district":{"key":"1721","name":"Wahlkreis St. Gallen"},"canton":{"key":"17","code":"SG","name":"St. Gallen"},"status":"Real"},{"key":"10233269","name":"Rickenhuswisenweg","postalCode":"9205","locality":"Waldkirch","commune":{"key":"3444","name":"Waldkirch","shortName":"Waldkirch"},"district":{"key":"1721","name":"Wahlkreis St. Gallen"},"canton":{"key":"17","code":"SG","name":"St. Gallen"},"status":"Real"},{"key":"10056889","name":"Riet","postalCode":"9205","locality":"Waldkirch","commune":{"key":"3444","name":"Waldkirch","shortName":"Waldkirch"},"district":{"key":"1721","name":"Wahlkreis St. Gallen"},"canton":{"key":"17","code":"SG","name":"St. Gallen"},"status":"Real"},{"key":"10233273","name":"Rietstrasse","postalCode":"9205","locality":"Waldkirch","commune":{"key":"3444","name":"Waldkirch","shortName":"Waldkirch"},"district":{"key":"1721","name":"Wahlkreis St. Gallen"},"canton":{"key":"17","code":"SG","name":"St. Gallen"},"status":"Real"},{"key":"10097360","name":"Ronwil","postalCode":"9205","locality":"Waldkirch","commune":{"key":"3444","name":"Waldkirch","shortName":"Waldkirch"},"district":{"key":"1721","name":"Wahlkreis St. Gallen"},"canton":{"key":"17","code":"SG","name":"St. Gallen"},"status":"Real"},{"key":"10110912","name":"Ronwilerberg","postalCode":"9205","locality":"Waldkirch","commune":{"key":"3444","name":"Waldkirch","shortName":"Waldkirch"},"district":{"key":"1721","name":"Wahlkreis St. Gallen"},"canton":{"key":"17","code":"SG","name":"St. Gallen"},"status":"Real"},{"key":"10233285","name":"Ronwilerstrasse","postalCode":"9205","locality":"Waldkirch","commune":{"key":"3444","name":"Waldkirch","shortName":"Waldkirch"},"district":{"key":"1721","name":"Wahlkreis St. Gallen"},"canton":{"key":"17","code":"SG","name":"St. Gallen"},"status":"Real"},{"key":"10089684","name":"Ronwilerweg","postalCode":"9205","locality":"Waldkirch","commune":{"key":"3444","name":"Waldkirch","shortName":"Waldkirch"},"district":{"key":"1721","name":"Wahlkreis St. Gallen"},"canton":{"key":"17","code":"SG","name":"St. Gallen"},"status":"Real"},{"key":"10067728","name":"Rosenheimweg","postalCode":"9205","locality":"Waldkirch","commune":{"key":"3444","name":"Waldkirch","shortName":"Waldkirch"},"district":{"key":"1721","name":"Wahlkreis St. Gallen"},"canton":{"key":"17","code":"SG","name":"St. Gallen"},"status":"Real"},{"key":"10097361","name":"Rötelbach","postalCode":"9205","locality":"Waldkirch","commune":{"key":"3444","name":"Waldkirch","shortName":"Waldkirch"},"district":{"key":"1721","name":"Wahlkreis St. Gallen"},"canton":{"key":"17","code":"SG","name":"St. Gallen"},"status":"Real"},{"key":"10233289","name":"Rötelbachstrasse","postalCode":"9205","locality":"Waldkirch","commune":{"key":"3444","name":"Waldkirch","shortName":"Waldkirch"},"district":{"key":"1721","name":"Wahlkreis St. Gallen"},"canton":{"key":"17","code":"SG","name":"St. Gallen"},"status":"Real"},{"key":"10225553","name":"Rötelbachweg","postalCode":"9205","locality":"Waldkirch","commune":{"key":"3444","name":"Waldkirch","shortName":"Waldkirch"},"district":{"key":"1721","name":"Wahlkreis St. Gallen"},"canton":{"key":"17","code":"SG","name":"St. Gallen"},"status":"Real"},{"key":"10225589","name":"Rugglishuebstrasse","postalCode":"9205","locality":"Waldkirch","commune":{"key":"3444","name":"Waldkirch","shortName":"Waldkirch"},"district":{"key":"1721","name":"Wahlkreis St. Gallen"},"canton":{"key":"17","code":"SG","name":"St. Gallen"},"status":"Real"},{"key":"10225597","name":"Rütibüelstrasse","postalCode":"9205","locality":"Waldkirch","commune":{"key":"3444","name":"Waldkirch","shortName":"Waldkirch"},"district":{"key":"1721","name":"Wahlkreis St. Gallen"},"canton":{"key":"17","code":"SG","name":"St. Gallen"},"status":"Real"},{"key":"10233342","name":"Rütistrasse","postalCode":"9205","locality":"Waldkirch","commune":{"key":"3444","name":"Waldkirch","shortName":"Waldkirch"},"district":{"key":"1721","name":"Wahlkreis St. Gallen"},"canton":{"key":"17","code":"SG","name":"St. Gallen"},"status":"Real"},{"key":"10251069","name":"Schachen","postalCode":"9205","locality":"Waldkirch","commune":{"key":"3444","name":"Waldkirch","shortName":"Waldkirch"},"district":{"key":"1721","name":"Wahlkreis St. Gallen"},"canton":{"key":"17","code":"SG","name":"St. Gallen"},"status":"Real"},{"key":"10225621","name":"Schachenstrasse","postalCode":"9205","locality":"Waldkirch","commune":{"key":"3444","name":"Waldkirch","shortName":"Waldkirch"},"district":{"key":"1721","name":"Wahlkreis St. Gallen"},"canton":{"key":"17","code":"SG","name":"St. Gallen"},"status":"Real"},{"key":"10030671","name":"Schauberg","postalCode":"9205","locality":"Waldkirch","commune":{"key":"3444","name":"Waldkirch","shortName":"Waldkirch"},"district":{"key":"1721","name":"Wahlkreis St. Gallen"},"canton":{"key":"17","code":"SG","name":"St. Gallen"},"status":"Real"},{"key":"10225625","name":"Schaubergstrasse","postalCode":"9205","locality":"Waldkirch","commune":{"key":"3444","name":"Waldkirch","shortName":"Waldkirch"},"district":{"key":"1721","name":"Wahlkreis St. Gallen"},"canton":{"key":"17","code":"SG","name":"St. Gallen"},"status":"Real"},{"key":"10225633","name":"Schaubergwaldweg","postalCode":"9205","locality":"Waldkirch","commune":{"key":"3444","name":"Waldkirch","shortName":"Waldkirch"},"district":{"key":"1721","name":"Wahlkreis St. Gallen"},"canton":{"key":"17","code":"SG","name":"St. Gallen"},"status":"Real"},{"key":"10225637","name":"Schaubergweg","postalCode":"9205","locality":"Waldkirch","commune":{"key":"3444","name":"Waldkirch","shortName":"Waldkirch"},"district":{"key":"1721","name":"Wahlkreis St. Gallen"},"canton":{"key":"17","code":"SG","name":"St. Gallen"},"status":"Real"},{"key":"10097362","name":"Scheiwil","postalCode":"9205","locality":"Waldkirch","commune":{"key":"3444","name":"Waldkirch","shortName":"Waldkirch"},"district":{"key":"1721","name":"Wahlkreis St. Gallen"},"canton":{"key":"17","code":"SG","name":"St. Gallen"},"status":"Real"},{"key":"10229566","name":"Scheiwilstrasse","postalCode":"9205","locality":"Waldkirch","commune":{"key":"3444","name":"Waldkirch","shortName":"Waldkirch"},"district":{"key":"1721","name":"Wahlkreis St. Gallen"},"canton":{"key":"17","code":"SG","name":"St. Gallen"},"status":"Real"},{"key":"10067729","name":"Schloss","postalCode":"9205","locality":"Waldkirch","commune":{"key":"3444","name":"Waldkirch","shortName":"Waldkirch"},"district":{"key":"1721","name":"Wahlkreis St. Gallen"},"canton":{"key":"17","code":"SG","name":"St. Gallen"},"status":"Real"},{"key":"10181415","name":"Schlössli","postalCode":"9205","locality":"Waldkirch","commune":{"key":"3444","name":"Waldkirch","shortName":"Waldkirch"},"district":{"key":"1721","name":"Wahlkreis St. Gallen"},"canton":{"key":"17","code":"SG","name":"St. Gallen"},"status":"Real"},{"key":"10229570","name":"Schlössliweg","postalCode":"9205","locality":"Waldkirch","commune":{"key":"3444","name":"Waldkirch","shortName":"Waldkirch"},"district":{"key":"1721","name":"Wahlkreis St. Gallen"},"canton":{"key":"17","code":"SG","name":"St. Gallen"},"status":"Real"},{"key":"10229574","name":"Schlossstrasse","postalCode":"9205","locality":"Waldkirch","commune":{"key":"3444","name":"Waldkirch","shortName":"Waldkirch"},"district":{"key":"1721","name":"Wahlkreis St. Gallen"},"canton":{"key":"17","code":"SG","name":"St. Gallen"},"status":"Real"},{"key":"10229578","name":"Schlosswisen","postalCode":"9205","locality":"Waldkirch","commune":{"key":"3444","name":"Waldkirch","shortName":"Waldkirch"},"district":{"key":"1721","name":"Wahlkreis St. Gallen"},"canton":{"key":"17","code":"SG","name":"St. Gallen"},"status":"Real"},{"key":"10229582","name":"Schlosswisenweg","postalCode":"9205","locality":"Waldkirch","commune":{"key":"3444","name":"Waldkirch","shortName":"Waldkirch"},"district":{"key":"1721","name":"Wahlkreis St. Gallen"},"canton":{"key":"17","code":"SG","name":"St. Gallen"},"status":"Real"},{"key":"10229590","name":"Schnatstrasse","postalCode":"9205","locality":"Waldkirch","commune":{"key":"3444","name":"Waldkirch","shortName":"Waldkirch"},"district":{"key":"1721","name":"Wahlkreis St. Gallen"},"canton":{"key":"17","code":"SG","name":"St. Gallen"},"status":"Real"},{"key":"10030672","name":"Schuepis","postalCode":"9205","locality":"Waldkirch","commune":{"key":"3444","name":"Waldkirch","shortName":"Waldkirch"},"district":{"key":"1721","name":"Wahlkreis St. Gallen"},"canton":{"key":"17","code":"SG","name":"St. Gallen"},"status":"Real"},{"key":"10229598","name":"Schuepiswaldweg","postalCode":"9205","locality":"Waldkirch","commune":{"key":"3444","name":"Waldkirch","shortName":"Waldkirch"},"district":{"key":"1721","name":"Wahlkreis St. Gallen"},"canton":{"key":"17","code":"SG","name":"St. Gallen"},"status":"Real"},{"key":"10229602","name":"Schuepisweg","postalCode":"9205","locality":"Waldkirch","commune":{"key":"3444","name":"Waldkirch","shortName":"Waldkirch"},"district":{"key":"1721","name":"Wahlkreis St. Gallen"},"canton":{"key":"17","code":"SG","name":"St. Gallen"},"status":"Real"},{"key":"10229605","name":"Schulweg","postalCode":"9205","locality":"Waldkirch","commune":{"key":"3444","name":"Waldkirch","shortName":"Waldkirch"},"district":{"key":"1721","name":"Wahlkreis St. Gallen"},"canton":{"key":"17","code":"SG","name":"St. Gallen"},"status":"Real"},{"key":"10132591","name":"Schüsselloo","postalCode":"9205","locality":"Waldkirch","commune":{"key":"3444","name":"Waldkirch","shortName":"Waldkirch"},"district":{"key":"1721","name":"Wahlkreis St. Gallen"},"canton":{"key":"17","code":"SG","name":"St. Gallen"},"status":"Real"},{"key":"10229609","name":"Schüsselloostrasse","postalCode":"9205","locality":"Waldkirch","commune":{"key":"3444","name":"Waldkirch","shortName":"Waldkirch"},"district":{"key":"1721","name":"Wahlkreis St. Gallen"},"canton":{"key":"17","code":"SG","name":"St. Gallen"},"status":"Real"},{"key":"10229613","name":"Schüssellooweg","postalCode":"9205","locality":"Waldkirch","commune":{"key":"3444","name":"Waldkirch","shortName":"Waldkirch"},"district":{"key":"1721","name":"Wahlkreis St. Gallen"},"canton":{"key":"17","code":"SG","name":"St. Gallen"},"status":"Real"},{"key":"10097363","name":"Schützengasse","postalCode":"9205","locality":"Waldkirch","commune":{"key":"3444","name":"Waldkirch","shortName":"Waldkirch"},"district":{"key":"1721","name":"Wahlkreis St. Gallen"},"canton":{"key":"17","code":"SG","name":"St. Gallen"},"status":"Real"},{"key":"10229617","name":"Schützenhausweg","postalCode":"9205","locality":"Waldkirch","commune":{"key":"3444","name":"Waldkirch","shortName":"Waldkirch"},"district":{"key":"1721","name":"Wahlkreis St. Gallen"},"canton":{"key":"17","code":"SG","name":"St. Gallen"},"status":"Real"},{"key":"10030673","name":"Schützenweg","postalCode":"9205","locality":"Waldkirch","commune":{"key":"3444","name":"Waldkirch","shortName":"Waldkirch"},"district":{"key":"1721","name":"Wahlkreis St. Gallen"},"canton":{"key":"17","code":"SG","name":"St. Gallen"},"status":"Real"},{"key":"10229621","name":"Sentiswis","postalCode":"9205","locality":"Waldkirch","commune":{"key":"3444","name":"Waldkirch","shortName":"Waldkirch"},"district":{"key":"1721","name":"Wahlkreis St. Gallen"},"canton":{"key":"17","code":"SG","name":"St. Gallen"},"status":"Real"},{"key":"10067731","name":"Sonnenberg","postalCode":"9205","locality":"Waldkirch","commune":{"key":"3444","name":"Waldkirch","shortName":"Waldkirch"},"district":{"key":"1721","name":"Wahlkreis St. Gallen"},"canton":{"key":"17","code":"SG","name":"St. Gallen"},"status":"Real"},{"key":"10229633","name":"Sonnenbergbachweg","postalCode":"9205","locality":"Waldkirch","commune":{"key":"3444","name":"Waldkirch","shortName":"Waldkirch"},"district":{"key":"1721","name":"Wahlkreis St. Gallen"},"canton":{"key":"17","code":"SG","name":"St. Gallen"},"status":"Real"},{"key":"10230627","name":"Sonnenbergstrasse","postalCode":"9205","locality":"Waldkirch","commune":{"key":"3444","name":"Waldkirch","shortName":"Waldkirch"},"district":{"key":"1721","name":"Wahlkreis St. Gallen"},"canton":{"key":"17","code":"SG","name":"St. Gallen"},"status":"Real"},{"key":"10191106","name":"Sonnenhügel","postalCode":"9205","locality":"Waldkirch","commune":{"key":"3444","name":"Waldkirch","shortName":"Waldkirch"},"district":{"key":"1721","name":"Wahlkreis St. Gallen"},"canton":{"key":"17","code":"SG","name":"St. Gallen"},"status":"Real"},{"key":"10230635","name":"Sonnenhügelweg","postalCode":"9205","locality":"Waldkirch","commune":{"key":"3444","name":"Waldkirch","shortName":"Waldkirch"},"district":{"key":"1721","name":"Wahlkreis St. Gallen"},"canton":{"key":"17","code":"SG","name":"St. Gallen"},"status":"Real"},{"key":"10097364","name":"Sonnenrainstrasse","postalCode":"9205","locality":"Waldkirch","commune":{"key":"3444","name":"Waldkirch","shortName":"Waldkirch"},"district":{"key":"1721","name":"Wahlkreis St. Gallen"},"canton":{"key":"17","code":"SG","name":"St. Gallen"},"status":"Real"},{"key":"10030674","name":"Sonnmatt","postalCode":"9205","locality":"Waldkirch","commune":{"key":"3444","name":"Waldkirch","shortName":"Waldkirch"},"district":{"key":"1721","name":"Wahlkreis St. Gallen"},"canton":{"key":"17","code":"SG","name":"St. Gallen"},"status":"Real"},{"key":"10230639","name":"Sonnmattweg","postalCode":"9205","locality":"Waldkirch","commune":{"key":"3444","name":"Waldkirch","shortName":"Waldkirch"},"district":{"key":"1721","name":"Wahlkreis St. Gallen"},"canton":{"key":"17","code":"SG","name":"St. Gallen"},"status":"Real"},{"key":"10030675","name":"Sparbüel","postalCode":"9205","locality":"Waldkirch","commune":{"key":"3444","name":"Waldkirch","shortName":"Waldkirch"},"district":{"key":"1721","name":"Wahlkreis St. Gallen"},"canton":{"key":"17","code":"SG","name":"St. Gallen"},"status":"Real"},{"key":"10230647","name":"Sparbüelstrasse","postalCode":"9205","locality":"Waldkirch","commune":{"key":"3444","name":"Waldkirch","shortName":"Waldkirch"},"district":{"key":"1721","name":"Wahlkreis St. Gallen"},"canton":{"key":"17","code":"SG","name":"St. Gallen"},"status":"Real"},{"key":"10230403","name":"Sparbüelweg","postalCode":"9205","locality":"Waldkirch","commune":{"key":"3444","name":"Waldkirch","shortName":"Waldkirch"},"district":{"key":"1721","name":"Wahlkreis St. Gallen"},"canton":{"key":"17","code":"SG","name":"St. Gallen"},"status":"Real"},{"key":"10181416","name":"Stärkliswil","postalCode":"9205","locality":"Waldkirch","commune":{"key":"3444","name":"Waldkirch","shortName":"Waldkirch"},"district":{"key":"1721","name":"Wahlkreis St. Gallen"},"canton":{"key":"17","code":"SG","name":"St. Gallen"},"status":"Real"},{"key":"10230413","name":"Stärkliswiler-Weiherweg","postalCode":"9205","locality":"Waldkirch","commune":{"key":"3444","name":"Waldkirch","shortName":"Waldkirch"},"district":{"key":"1721","name":"Wahlkreis St. Gallen"},"canton":{"key":"17","code":"SG","name":"St. Gallen"},"status":"Real"},{"key":"10110634","name":"Steigstrasse","postalCode":"9205","locality":"Waldkirch","commune":{"key":"3444","name":"Waldkirch","shortName":"Waldkirch"},"district":{"key":"1721","name":"Wahlkreis St. Gallen"},"canton":{"key":"17","code":"SG","name":"St. Gallen"},"status":"Real"},{"key":"10249868","name":"Stöcklenweg","postalCode":"9205","locality":"Waldkirch","commune":{"key":"3444","name":"Waldkirch","shortName":"Waldkirch"},"district":{"key":"1721","name":"Wahlkreis St. Gallen"},"canton":{"key":"17","code":"SG","name":"St. Gallen"},"status":"Real"},{"key":"10067732","name":"St. Pelagibergstrasse","postalCode":"9205","locality":"Waldkirch","commune":{"key":"3444","name":"Waldkirch","shortName":"Waldkirch"},"district":{"key":"1721","name":"Wahlkreis St. Gallen"},"canton":{"key":"17","code":"SG","name":"St. Gallen"},"status":"Real"},{"key":"10230418","name":"Strickweg","postalCode":"9205","locality":"Waldkirch","commune":{"key":"3444","name":"Waldkirch","shortName":"Waldkirch"},"district":{"key":"1721","name":"Wahlkreis St. Gallen"},"canton":{"key":"17","code":"SG","name":"St. Gallen"},"status":"Real"},{"key":"10030676","name":"Tal","postalCode":"9205","locality":"Waldkirch","commune":{"key":"3444","name":"Waldkirch","shortName":"Waldkirch"},"district":{"key":"1721","name":"Wahlkreis St. Gallen"},"canton":{"key":"17","code":"SG","name":"St. Gallen"},"status":"Real"},{"key":"10114481","name":"Talermoos","postalCode":"9205","locality":"Waldkirch","commune":{"key":"3444","name":"Waldkirch","shortName":"Waldkirch"},"district":{"key":"1721","name":"Wahlkreis St. Gallen"},"canton":{"key":"17","code":"SG","name":"St. Gallen"},"status":"Real"},{"key":"10230422","name":"Talermoosweg","postalCode":"9205","locality":"Waldkirch","commune":{"key":"3444","name":"Waldkirch","shortName":"Waldkirch"},"district":{"key":"1721","name":"Wahlkreis St. Gallen"},"canton":{"key":"17","code":"SG","name":"St. Gallen"},"status":"Real"},{"key":"10230426","name":"Talstrasse","postalCode":"9205","locality":"Waldkirch","commune":{"key":"3444","name":"Waldkirch","shortName":"Waldkirch"},"district":{"key":"1721","name":"Wahlkreis St. Gallen"},"canton":{"key":"17","code":"SG","name":"St. Gallen"},"status":"Real"},{"key":"10114425","name":"Tannenberg","postalCode":"9205","locality":"Waldkirch","commune":{"key":"3444","name":"Waldkirch","shortName":"Waldkirch"},"district":{"key":"1721","name":"Wahlkreis St. Gallen"},"canton":{"key":"17","code":"SG","name":"St. Gallen"},"status":"Real"},{"key":"10230434","name":"Tannenbergstrasse","postalCode":"9205","locality":"Waldkirch","commune":{"key":"3444","name":"Waldkirch","shortName":"Waldkirch"},"district":{"key":"1721","name":"Wahlkreis St. Gallen"},"canton":{"key":"17","code":"SG","name":"St. Gallen"},"status":"Real"},{"key":"10230438","name":"Tannenbergwaldstrasse","postalCode":"9205","locality":"Waldkirch","commune":{"key":"3444","name":"Waldkirch","shortName":"Waldkirch"},"district":{"key":"1721","name":"Wahlkreis St. Gallen"},"canton":{"key":"17","code":"SG","name":"St. Gallen"},"status":"Real"},{"key":"10230693","name":"Tannenbergweg","postalCode":"9205","locality":"Waldkirch","commune":{"key":"3444","name":"Waldkirch","shortName":"Waldkirch"},"district":{"key":"1721","name":"Wahlkreis St. Gallen"},"canton":{"key":"17","code":"SG","name":"St. Gallen"},"status":"Real"},{"key":"10230697","name":"Tannenrain","postalCode":"9205","locality":"Waldkirch","commune":{"key":"3444","name":"Waldkirch","shortName":"Waldkirch"},"district":{"key":"1721","name":"Wahlkreis St. Gallen"},"canton":{"key":"17","code":"SG","name":"St. Gallen"},"status":"Real"},{"key":"10230701","name":"Tannenrainwaldstrasse","postalCode":"9205","locality":"Waldkirch","commune":{"key":"3444","name":"Waldkirch","shortName":"Waldkirch"},"district":{"key":"1721","name":"Wahlkreis St. Gallen"},"canton":{"key":"17","code":"SG","name":"St. Gallen"},"status":"Real"},{"key":"10230705","name":"Täschenweg","postalCode":"9205","locality":"Waldkirch","commune":{"key":"3444","name":"Waldkirch","shortName":"Waldkirch"},"district":{"key":"1721","name":"Wahlkreis St. Gallen"},"canton":{"key":"17","code":"SG","name":"St. Gallen"},"status":"Real"},{"key":"10030677","name":"Tierlihueb","postalCode":"9205","locality":"Waldkirch","commune":{"key":"3444","name":"Waldkirch","shortName":"Waldkirch"},"district":{"key":"1721","name":"Wahlkreis St. Gallen"},"canton":{"key":"17","code":"SG","name":"St. Gallen"},"status":"Real"},{"key":"10230709","name":"Tierlihuebstrasse","postalCode":"9205","locality":"Waldkirch","commune":{"key":"3444","name":"Waldkirch","shortName":"Waldkirch"},"district":{"key":"1721","name":"Wahlkreis St. Gallen"},"canton":{"key":"17","code":"SG","name":"St. Gallen"},"status":"Real"},{"key":"10030678","name":"Tobel","postalCode":"9205","locality":"Waldkirch","commune":{"key":"3444","name":"Waldkirch","shortName":"Waldkirch"},"district":{"key":"1721","name":"Wahlkreis St. Gallen"},"canton":{"key":"17","code":"SG","name":"St. Gallen"},"status":"Real"},{"key":"10230713","name":"Tobelstrasse","postalCode":"9205","locality":"Waldkirch","commune":{"key":"3444","name":"Waldkirch","shortName":"Waldkirch"},"district":{"key":"1721","name":"Wahlkreis St. Gallen"},"canton":{"key":"17","code":"SG","name":"St. Gallen"},"status":"Real"},{"key":"10230717","name":"Tobelweg","postalCode":"9205","locality":"Waldkirch","commune":{"key":"3444","name":"Waldkirch","shortName":"Waldkirch"},"district":{"key":"1721","name":"Wahlkreis St. Gallen"},"canton":{"key":"17","code":"SG","name":"St. Gallen"},"status":"Real"},{"key":"10251070","name":"Tuggstein","postalCode":"9205","locality":"Waldkirch","commune":{"key":"3444","name":"Waldkirch","shortName":"Waldkirch"},"district":{"key":"1721","name":"Wahlkreis St. Gallen"},"canton":{"key":"17","code":"SG","name":"St. Gallen"},"status":"Real"},{"key":"10165083","name":"Tulpenstrasse","postalCode":"9205","locality":"Waldkirch","commune":{"key":"3444","name":"Waldkirch","shortName":"Waldkirch"},"district":{"key":"1721","name":"Wahlkreis St. Gallen"},"canton":{"key":"17","code":"SG","name":"St. Gallen"},"status":"Real"},{"key":"10165457","name":"Tulpenweg","postalCode":"9205","locality":"Waldkirch","commune":{"key":"3444","name":"Waldkirch","shortName":"Waldkirch"},"district":{"key":"1721","name":"Wahlkreis St. Gallen"},"canton":{"key":"17","code":"SG","name":"St. Gallen"},"status":"Real"},{"key":"10230729","name":"Ueblisgatterstrasse","postalCode":"9205","locality":"Waldkirch","commune":{"key":"3444","name":"Waldkirch","shortName":"Waldkirch"},"district":{"key":"1721","name":"Wahlkreis St. Gallen"},"canton":{"key":"17","code":"SG","name":"St. Gallen"},"status":"Real"},{"key":"10067733","name":"Unterdorfweg","postalCode":"9205","locality":"Waldkirch","commune":{"key":"3444","name":"Waldkirch","shortName":"Waldkirch"},"district":{"key":"1721","name":"Wahlkreis St. Gallen"},"canton":{"key":"17","code":"SG","name":"St. Gallen"},"status":"Real"},{"key":"10230732","name":"Untere Bösbrügglistrasse","postalCode":"9205","locality":"Waldkirch","commune":{"key":"3444","name":"Waldkirch","shortName":"Waldkirch"},"district":{"key":"1721","name":"Wahlkreis St. Gallen"},"canton":{"key":"17","code":"SG","name":"St. Gallen"},"status":"Real"},{"key":"10097365","name":"Untere Chennerstrasse","postalCode":"9205","locality":"Waldkirch","commune":{"key":"3444","name":"Waldkirch","shortName":"Waldkirch"},"district":{"key":"1721","name":"Wahlkreis St. Gallen"},"canton":{"key":"17","code":"SG","name":"St. Gallen"},"status":"Real"},{"key":"10230741","name":"Unterer Chennerweg","postalCode":"9205","locality":"Waldkirch","commune":{"key":"3444","name":"Waldkirch","shortName":"Waldkirch"},"district":{"key":"1721","name":"Wahlkreis St. Gallen"},"canton":{"key":"17","code":"SG","name":"St. Gallen"},"status":"Real"},{"key":"10230745","name":"Unterer Tierlihuebweg","postalCode":"9205","locality":"Waldkirch","commune":{"key":"3444","name":"Waldkirch","shortName":"Waldkirch"},"district":{"key":"1721","name":"Wahlkreis St. Gallen"},"canton":{"key":"17","code":"SG","name":"St. Gallen"},"status":"Real"},{"key":"10230737","name":"Untere Tuggsteinstrasse","postalCode":"9205","locality":"Waldkirch","commune":{"key":"3444","name":"Waldkirch","shortName":"Waldkirch"},"district":{"key":"1721","name":"Wahlkreis St. Gallen"},"canton":{"key":"17","code":"SG","name":"St. Gallen"},"status":"Real"},{"key":"10067734","name":"Vögeliberg","postalCode":"9205","locality":"Waldkirch","commune":{"key":"3444","name":"Waldkirch","shortName":"Waldkirch"},"district":{"key":"1721","name":"Wahlkreis St. Gallen"},"canton":{"key":"17","code":"SG","name":"St. Gallen"},"status":"Real"},{"key":"10230753","name":"Vögelibergstrasse","postalCode":"9205","locality":"Waldkirch","commune":{"key":"3444","name":"Waldkirch","shortName":"Waldkirch"},"district":{"key":"1721","name":"Wahlkreis St. Gallen"},"canton":{"key":"17","code":"SG","name":"St. Gallen"},"status":"Real"},{"key":"10226292","name":"Vögelibergwaldweg","postalCode":"9205","locality":"Waldkirch","commune":{"key":"3444","name":"Waldkirch","shortName":"Waldkirch"},"district":{"key":"1721","name":"Wahlkreis St. Gallen"},"canton":{"key":"17","code":"SG","name":"St. Gallen"},"status":"Real"},{"key":"10226296","name":"Vögelibergweg","postalCode":"9205","locality":"Waldkirch","commune":{"key":"3444","name":"Waldkirch","shortName":"Waldkirch"},"district":{"key":"1721","name":"Wahlkreis St. Gallen"},"canton":{"key":"17","code":"SG","name":"St. Gallen"},"status":"Real"},{"key":"10226300","name":"Vögelibergwisenweg","postalCode":"9205","locality":"Waldkirch","commune":{"key":"3444","name":"Waldkirch","shortName":"Waldkirch"},"district":{"key":"1721","name":"Wahlkreis St. Gallen"},"canton":{"key":"17","code":"SG","name":"St. Gallen"},"status":"Real"},{"key":"10226304","name":"Vorderer Bergwisenweg","postalCode":"9205","locality":"Waldkirch","commune":{"key":"3444","name":"Waldkirch","shortName":"Waldkirch"},"district":{"key":"1721","name":"Wahlkreis St. Gallen"},"canton":{"key":"17","code":"SG","name":"St. Gallen"},"status":"Real"},{"key":"10030679","name":"Vormülenen","postalCode":"9205","locality":"Waldkirch","commune":{"key":"3444","name":"Waldkirch","shortName":"Waldkirch"},"district":{"key":"1721","name":"Wahlkreis St. Gallen"},"canton":{"key":"17","code":"SG","name":"St. Gallen"},"status":"Real"},{"key":"10226308","name":"Vormülenenstrasse","postalCode":"9205","locality":"Waldkirch","commune":{"key":"3444","name":"Waldkirch","shortName":"Waldkirch"},"district":{"key":"1721","name":"Wahlkreis St. Gallen"},"canton":{"key":"17","code":"SG","name":"St. Gallen"},"status":"Real"},{"key":"10232789","name":"Vormülenenweg","postalCode":"9205","locality":"Waldkirch","commune":{"key":"3444","name":"Waldkirch","shortName":"Waldkirch"},"district":{"key":"1721","name":"Wahlkreis St. Gallen"},"canton":{"key":"17","code":"SG","name":"St. Gallen"},"status":"Real"},{"key":"10030680","name":"Wannenwis","postalCode":"9205","locality":"Waldkirch","commune":{"key":"3444","name":"Waldkirch","shortName":"Waldkirch"},"district":{"key":"1721","name":"Wahlkreis St. Gallen"},"canton":{"key":"17","code":"SG","name":"St. Gallen"},"status":"Real"},{"key":"10230560","name":"Wannenwisstrasse","postalCode":"9205","locality":"Waldkirch","commune":{"key":"3444","name":"Waldkirch","shortName":"Waldkirch"},"district":{"key":"1721","name":"Wahlkreis St. Gallen"},"canton":{"key":"17","code":"SG","name":"St. Gallen"},"status":"Real"},{"key":"10230564","name":"Weidholzweg","postalCode":"9205","locality":"Waldkirch","commune":{"key":"3444","name":"Waldkirch","shortName":"Waldkirch"},"district":{"key":"1721","name":"Wahlkreis St. Gallen"},"canton":{"key":"17","code":"SG","name":"St. Gallen"},"status":"Real"},{"key":"10230568","name":"Weidwisweg","postalCode":"9205","locality":"Waldkirch","commune":{"key":"3444","name":"Waldkirch","shortName":"Waldkirch"},"district":{"key":"1721","name":"Wahlkreis St. Gallen"},"canton":{"key":"17","code":"SG","name":"St. Gallen"},"status":"Real"},{"key":"10181687","name":"Weier","postalCode":"9205","locality":"Waldkirch","commune":{"key":"3444","name":"Waldkirch","shortName":"Waldkirch"},"district":{"key":"1721","name":"Wahlkreis St. Gallen"},"canton":{"key":"17","code":"SG","name":"St. Gallen"},"status":"Real"},{"key":"10230572","name":"Weierstrasse","postalCode":"9205","locality":"Waldkirch","commune":{"key":"3444","name":"Waldkirch","shortName":"Waldkirch"},"district":{"key":"1721","name":"Wahlkreis St. Gallen"},"canton":{"key":"17","code":"SG","name":"St. Gallen"},"status":"Real"},{"key":"10230579","name":"Werkhofstrasse","postalCode":"9205","locality":"Waldkirch","commune":{"key":"3444","name":"Waldkirch","shortName":"Waldkirch"},"district":{"key":"1721","name":"Wahlkreis St. Gallen"},"canton":{"key":"17","code":"SG","name":"St. Gallen"},"status":"Real"},{"key":"10067735","name":"Widenhueb","postalCode":"9205","locality":"Waldkirch","commune":{"key":"3444","name":"Waldkirch","shortName":"Waldkirch"},"district":{"key":"1721","name":"Wahlkreis St. Gallen"},"canton":{"key":"17","code":"SG","name":"St. Gallen"},"status":"Real"},{"key":"10230582","name":"Widenhuebhölzlistrasse","postalCode":"9205","locality":"Waldkirch","commune":{"key":"3444","name":"Waldkirch","shortName":"Waldkirch"},"district":{"key":"1721","name":"Wahlkreis St. Gallen"},"canton":{"key":"17","code":"SG","name":"St. Gallen"},"status":"Real"},{"key":"10230586","name":"Widenhuebstrasse","postalCode":"9205","locality":"Waldkirch","commune":{"key":"3444","name":"Waldkirch","shortName":"Waldkirch"},"district":{"key":"1721","name":"Wahlkreis St. Gallen"},"canton":{"key":"17","code":"SG","name":"St. Gallen"},"status":"Real"},{"key":"10230591","name":"Wilen","postalCode":"9205","locality":"Waldkirch","commune":{"key":"3444","name":"Waldkirch","shortName":"Waldkirch"},"district":{"key":"1721","name":"Wahlkreis St. Gallen"},"canton":{"key":"17","code":"SG","name":"St. Gallen"},"status":"Real"},{"key":"10030681","name":"Wilenstrasse","postalCode":"9205","locality":"Waldkirch","commune":{"key":"3444","name":"Waldkirch","shortName":"Waldkirch"},"district":{"key":"1721","name":"Wahlkreis St. Gallen"},"canton":{"key":"17","code":"SG","name":"St. Gallen"},"status":"Real"},{"key":"10230595","name":"Wilenweg","postalCode":"9205","locality":"Waldkirch","commune":{"key":"3444","name":"Waldkirch","shortName":"Waldkirch"},"district":{"key":"1721","name":"Wahlkreis St. Gallen"},"canton":{"key":"17","code":"SG","name":"St. Gallen"},"status":"Real"},{"key":"10230603","name":"Winterburgweg","postalCode":"9205","locality":"Waldkirch","commune":{"key":"3444","name":"Waldkirch","shortName":"Waldkirch"},"district":{"key":"1721","name":"Wahlkreis St. Gallen"},"canton":{"key":"17","code":"SG","name":"St. Gallen"},"status":"Real"},{"key":"10030682","name":"Wis","postalCode":"9205","locality":"Waldkirch","commune":{"key":"3444","name":"Waldkirch","shortName":"Waldkirch"},"district":{"key":"1721","name":"Wahlkreis St. Gallen"},"canton":{"key":"17","code":"SG","name":"St. Gallen"},"status":"Real"},{"key":"10067736","name":"Wisental","postalCode":"9205","locality":"Waldkirch","commune":{"key":"3444","name":"Waldkirch","shortName":"Waldkirch"},"district":{"key":"1721","name":"Wahlkreis St. Gallen"},"canton":{"key":"17","code":"SG","name":"St. Gallen"},"status":"Real"},{"key":"10230607","name":"Wisentalstrasse","postalCode":"9205","locality":"Waldkirch","commune":{"key":"3444","name":"Waldkirch","shortName":"Waldkirch"},"district":{"key":"1721","name":"Wahlkreis St. Gallen"},"canton":{"key":"17","code":"SG","name":"St. Gallen"},"status":"Real"},{"key":"10230611","name":"Wisstrasse","postalCode":"9205","locality":"Waldkirch","commune":{"key":"3444","name":"Waldkirch","shortName":"Waldkirch"},"district":{"key":"1721","name":"Wahlkreis St. Gallen"},"canton":{"key":"17","code":"SG","name":"St. Gallen"},"status":"Real"},{"key":"10030683","name":"Wolfetswis","postalCode":"9205","locality":"Waldkirch","commune":{"key":"3444","name":"Waldkirch","shortName":"Waldkirch"},"district":{"key":"1721","name":"Wahlkreis St. Gallen"},"canton":{"key":"17","code":"SG","name":"St. Gallen"},"status":"Real"},{"key":"10230615","name":"Wolfetswisstrasse","postalCode":"9205","locality":"Waldkirch","commune":{"key":"3444","name":"Waldkirch","shortName":"Waldkirch"},"district":{"key":"1721","name":"Wahlkreis St. Gallen"},"canton":{"key":"17","code":"SG","name":"St. Gallen"},"status":"Real"},{"key":"10230619","name":"Wolfhagweg","postalCode":"9205","locality":"Waldkirch","commune":{"key":"3444","name":"Waldkirch","shortName":"Waldkirch"},"district":{"key":"1721","name":"Wahlkreis St. Gallen"},"canton":{"key":"17","code":"SG","name":"St. Gallen"},"status":"Real"},{"key":"10191107","name":"Zil","postalCode":"9205","locality":"Waldkirch","commune":{"key":"3444","name":"Waldkirch","shortName":"Waldkirch"},"district":{"key":"1721","name":"Wahlkreis St. Gallen"},"canton":{"key":"17","code":"SG","name":"St. Gallen"},"status":"Real"},{"key":"10230623","name":"Zilweg","postalCode":"9205","locality":"Waldkirch","commune":{"key":"3444","name":"Waldkirch","shortName":"Waldkirch"},"district":{"key":"1721","name":"Wahlkreis St. Gallen"},"canton":{"key":"17","code":"SG","name":"St. Gallen"},"status":"Real"},]