[{"name":"Ahornweg","postalCode":"01477","locality":"Arnsdorf","municipality":{"key":"14625010","name":"Arnsdorf","type":"Kreisangehörige_Gemeinde"},"district":{"key":"14625","name":"Bautzen","type":"Landkreis"},"federalState":{"key":"14","name":"Sachsen"}},{"name":"Alleenweg","postalCode":"01477","locality":"Arnsdorf","municipality":{"key":"14625010","name":"Arnsdorf","type":"Kreisangehörige_Gemeinde"},"district":{"key":"14625","name":"Bautzen","type":"Landkreis"},"federalState":{"key":"14","name":"Sachsen"}},{"name":"Alleeweg","postalCode":"01477","locality":"Arnsdorf","municipality":{"key":"14625010","name":"Arnsdorf","type":"Kreisangehörige_Gemeinde"},"district":{"key":"14625","name":"Bautzen","type":"Landkreis"},"federalState":{"key":"14","name":"Sachsen"}},{"name":"Alte Arnsdorfer Str.","postalCode":"01477","locality":"Arnsdorf","municipality":{"key":"14625010","name":"Arnsdorf","type":"Kreisangehörige_Gemeinde"},"district":{"key":"14625","name":"Bautzen","type":"Landkreis"},"federalState":{"key":"14","name":"Sachsen"}},{"name":"Alte Bautzner Str.","postalCode":"01477","locality":"Arnsdorf","municipality":{"key":"14625010","name":"Arnsdorf","type":"Kreisangehörige_Gemeinde"},"district":{"key":"14625","name":"Bautzen","type":"Landkreis"},"federalState":{"key":"14","name":"Sachsen"}},{"name":"Alter Bahnhof","postalCode":"01477","locality":"Arnsdorf","municipality":{"key":"14625010","name":"Arnsdorf","type":"Kreisangehörige_Gemeinde"},"district":{"key":"14625","name":"Bautzen","type":"Landkreis"},"federalState":{"key":"14","name":"Sachsen"}},{"name":"Alter Hörnelweg","postalCode":"01477","locality":"Arnsdorf","municipality":{"key":"14625010","name":"Arnsdorf","type":"Kreisangehörige_Gemeinde"},"district":{"key":"14625","name":"Bautzen","type":"Landkreis"},"federalState":{"key":"14","name":"Sachsen"}},{"name":"Am Anger","postalCode":"01477","locality":"Arnsdorf","municipality":{"key":"14625010","name":"Arnsdorf","type":"Kreisangehörige_Gemeinde"},"district":{"key":"14625","name":"Bautzen","type":"Landkreis"},"federalState":{"key":"14","name":"Sachsen"}},{"name":"Am Freizeitpark","postalCode":"01477","locality":"Arnsdorf","municipality":{"key":"14625010","name":"Arnsdorf","type":"Kreisangehörige_Gemeinde"},"district":{"key":"14625","name":"Bautzen","type":"Landkreis"},"federalState":{"key":"14","name":"Sachsen"}},{"name":"Am Gewerbegebiet","postalCode":"01477","locality":"Arnsdorf","municipality":{"key":"14625010","name":"Arnsdorf","type":"Kreisangehörige_Gemeinde"},"district":{"key":"14625","name":"Bautzen","type":"Landkreis"},"federalState":{"key":"14","name":"Sachsen"}},{"name":"Am Graseteich","postalCode":"01477","locality":"Arnsdorf","municipality":{"key":"14625010","name":"Arnsdorf","type":"Kreisangehörige_Gemeinde"},"district":{"key":"14625","name":"Bautzen","type":"Landkreis"},"federalState":{"key":"14","name":"Sachsen"}},{"name":"Am Schwedenteich","postalCode":"01477","locality":"Arnsdorf","municipality":{"key":"14625010","name":"Arnsdorf","type":"Kreisangehörige_Gemeinde"},"district":{"key":"14625","name":"Bautzen","type":"Landkreis"},"federalState":{"key":"14","name":"Sachsen"}},{"name":"Am Steinhübel","postalCode":"01477","locality":"Arnsdorf","municipality":{"key":"14625010","name":"Arnsdorf","type":"Kreisangehörige_Gemeinde"},"district":{"key":"14625","name":"Bautzen","type":"Landkreis"},"federalState":{"key":"14","name":"Sachsen"}},{"name":"Am Stockteich","postalCode":"01477","locality":"Arnsdorf","municipality":{"key":"14625010","name":"Arnsdorf","type":"Kreisangehörige_Gemeinde"},"district":{"key":"14625","name":"Bautzen","type":"Landkreis"},"federalState":{"key":"14","name":"Sachsen"}},{"name":"Am Vogelberg","postalCode":"01477","locality":"Arnsdorf","municipality":{"key":"14625010","name":"Arnsdorf","type":"Kreisangehörige_Gemeinde"},"district":{"key":"14625","name":"Bautzen","type":"Landkreis"},"federalState":{"key":"14","name":"Sachsen"}},{"name":"An den Eichwiesen","postalCode":"01477","locality":"Arnsdorf","municipality":{"key":"14625010","name":"Arnsdorf","type":"Kreisangehörige_Gemeinde"},"district":{"key":"14625","name":"Bautzen","type":"Landkreis"},"federalState":{"key":"14","name":"Sachsen"}},{"name":"Auenweg","postalCode":"01477","locality":"Arnsdorf","municipality":{"key":"14625010","name":"Arnsdorf","type":"Kreisangehörige_Gemeinde"},"district":{"key":"14625","name":"Bautzen","type":"Landkreis"},"federalState":{"key":"14","name":"Sachsen"}},{"name":"August-Bebel-Str.","postalCode":"01477","locality":"Arnsdorf","municipality":{"key":"14625010","name":"Arnsdorf","type":"Kreisangehörige_Gemeinde"},"district":{"key":"14625","name":"Bautzen","type":"Landkreis"},"federalState":{"key":"14","name":"Sachsen"}},{"name":"Bahnhäuser","postalCode":"01477","locality":"Arnsdorf","municipality":{"key":"14625010","name":"Arnsdorf","type":"Kreisangehörige_Gemeinde"},"district":{"key":"14625","name":"Bautzen","type":"Landkreis"},"federalState":{"key":"14","name":"Sachsen"}},{"name":"Bahnhofstr.","postalCode":"01477","locality":"Arnsdorf","municipality":{"key":"14625010","name":"Arnsdorf","type":"Kreisangehörige_Gemeinde"},"district":{"key":"14625","name":"Bautzen","type":"Landkreis"},"federalState":{"key":"14","name":"Sachsen"}},{"name":"Bautzner Landstr.","postalCode":"01477","locality":"Arnsdorf","municipality":{"key":"14625010","name":"Arnsdorf","type":"Kreisangehörige_Gemeinde"},"district":{"key":"14625","name":"Bautzen","type":"Landkreis"},"federalState":{"key":"14","name":"Sachsen"}},{"name":"Beethovenstr.","postalCode":"01477","locality":"Arnsdorf","municipality":{"key":"14625010","name":"Arnsdorf","type":"Kreisangehörige_Gemeinde"},"district":{"key":"14625","name":"Bautzen","type":"Landkreis"},"federalState":{"key":"14","name":"Sachsen"}},{"name":"Bergstr.","postalCode":"01477","locality":"Arnsdorf","municipality":{"key":"14625010","name":"Arnsdorf","type":"Kreisangehörige_Gemeinde"},"district":{"key":"14625","name":"Bautzen","type":"Landkreis"},"federalState":{"key":"14","name":"Sachsen"}},{"name":"Birkenweg","postalCode":"01477","locality":"Arnsdorf","municipality":{"key":"14625010","name":"Arnsdorf","type":"Kreisangehörige_Gemeinde"},"district":{"key":"14625","name":"Bautzen","type":"Landkreis"},"federalState":{"key":"14","name":"Sachsen"}},{"name":"Bischofsweg","postalCode":"01477","locality":"Arnsdorf","municipality":{"key":"14625010","name":"Arnsdorf","type":"Kreisangehörige_Gemeinde"},"district":{"key":"14625","name":"Bautzen","type":"Landkreis"},"federalState":{"key":"14","name":"Sachsen"}},{"name":"Blumenweg","postalCode":"01477","locality":"Arnsdorf","municipality":{"key":"14625010","name":"Arnsdorf","type":"Kreisangehörige_Gemeinde"},"district":{"key":"14625","name":"Bautzen","type":"Landkreis"},"federalState":{"key":"14","name":"Sachsen"}},{"name":"Buchenweg","postalCode":"01477","locality":"Arnsdorf","municipality":{"key":"14625010","name":"Arnsdorf","type":"Kreisangehörige_Gemeinde"},"district":{"key":"14625","name":"Bautzen","type":"Landkreis"},"federalState":{"key":"14","name":"Sachsen"}},{"name":"Clara-Zetkin-Str.","postalCode":"02625","locality":"Bautzen","municipality":{"key":"14625020","name":"Bautzen / Budyšin, Stadt","type":"Stadt"},"district":{"key":"14625","name":"Bautzen","type":"Landkreis"},"federalState":{"key":"14","name":"Sachsen"}},{"name":"Czornebohstr.","postalCode":"02625","locality":"Bautzen","municipality":{"key":"14625020","name":"Bautzen / Budyšin, Stadt","type":"Stadt"},"district":{"key":"14625","name":"Bautzen","type":"Landkreis"},"federalState":{"key":"14","name":"Sachsen"}},{"name":"Dachsstiege","postalCode":"01477","locality":"Arnsdorf","municipality":{"key":"14625010","name":"Arnsdorf","type":"Kreisangehörige_Gemeinde"},"district":{"key":"14625","name":"Bautzen","type":"Landkreis"},"federalState":{"key":"14","name":"Sachsen"}},{"name":"Dammweg","postalCode":"01477","locality":"Arnsdorf","municipality":{"key":"14625010","name":"Arnsdorf","type":"Kreisangehörige_Gemeinde"},"district":{"key":"14625","name":"Bautzen","type":"Landkreis"},"federalState":{"key":"14","name":"Sachsen"}},{"name":"Dittersbacher Str.","postalCode":"01477","locality":"Arnsdorf","municipality":{"key":"14625010","name":"Arnsdorf","type":"Kreisangehörige_Gemeinde"},"district":{"key":"14625","name":"Bautzen","type":"Landkreis"},"federalState":{"key":"14","name":"Sachsen"}},{"name":"Dr.-Kurt-Fischer-Siedlung","postalCode":"01477","locality":"Arnsdorf","municipality":{"key":"14625010","name":"Arnsdorf","type":"Kreisangehörige_Gemeinde"},"district":{"key":"14625","name":"Bautzen","type":"Landkreis"},"federalState":{"key":"14","name":"Sachsen"}},{"name":"Edelmannweg","postalCode":"01477","locality":"Arnsdorf","municipality":{"key":"14625010","name":"Arnsdorf","type":"Kreisangehörige_Gemeinde"},"district":{"key":"14625","name":"Bautzen","type":"Landkreis"},"federalState":{"key":"14","name":"Sachsen"}},{"name":"Eigenheimstr.","postalCode":"01477","locality":"Arnsdorf","municipality":{"key":"14625010","name":"Arnsdorf","type":"Kreisangehörige_Gemeinde"},"district":{"key":"14625","name":"Bautzen","type":"Landkreis"},"federalState":{"key":"14","name":"Sachsen"}},{"name":"Eisenbahnweg","postalCode":"01477","locality":"Arnsdorf","municipality":{"key":"14625010","name":"Arnsdorf","type":"Kreisangehörige_Gemeinde"},"district":{"key":"14625","name":"Bautzen","type":"Landkreis"},"federalState":{"key":"14","name":"Sachsen"}},{"name":"Elfriede-Lohse-Wächtler-Weg","postalCode":"01477","locality":"Arnsdorf","municipality":{"key":"14625010","name":"Arnsdorf","type":"Kreisangehörige_Gemeinde"},"district":{"key":"14625","name":"Bautzen","type":"Landkreis"},"federalState":{"key":"14","name":"Sachsen"}},{"name":"Erich-Mühsam-Str.","postalCode":"01477","locality":"Arnsdorf","municipality":{"key":"14625010","name":"Arnsdorf","type":"Kreisangehörige_Gemeinde"},"district":{"key":"14625","name":"Bautzen","type":"Landkreis"},"federalState":{"key":"14","name":"Sachsen"}},{"name":"Erlenweg","postalCode":"01477","locality":"Arnsdorf","municipality":{"key":"14625010","name":"Arnsdorf","type":"Kreisangehörige_Gemeinde"},"district":{"key":"14625","name":"Bautzen","type":"Landkreis"},"federalState":{"key":"14","name":"Sachsen"}},{"name":"Ernst-Thälmann-Str.","postalCode":"01477","locality":"Arnsdorf","municipality":{"key":"14625010","name":"Arnsdorf","type":"Kreisangehörige_Gemeinde"},"district":{"key":"14625","name":"Bautzen","type":"Landkreis"},"federalState":{"key":"14","name":"Sachsen"}},{"name":"F-Flügel","postalCode":"01477","locality":"Arnsdorf","municipality":{"key":"14625010","name":"Arnsdorf","type":"Kreisangehörige_Gemeinde"},"district":{"key":"14625","name":"Bautzen","type":"Landkreis"},"federalState":{"key":"14","name":"Sachsen"}},{"name":"Fiebiggasse","postalCode":"01477","locality":"Arnsdorf","municipality":{"key":"14625010","name":"Arnsdorf","type":"Kreisangehörige_Gemeinde"},"district":{"key":"14625","name":"Bautzen","type":"Landkreis"},"federalState":{"key":"14","name":"Sachsen"}},{"name":"Flächteichweg","postalCode":"01477","locality":"Arnsdorf","municipality":{"key":"14625010","name":"Arnsdorf","type":"Kreisangehörige_Gemeinde"},"district":{"key":"14625","name":"Bautzen","type":"Landkreis"},"federalState":{"key":"14","name":"Sachsen"}},{"name":"Fliederweg","postalCode":"01477","locality":"Arnsdorf","municipality":{"key":"14625010","name":"Arnsdorf","type":"Kreisangehörige_Gemeinde"},"district":{"key":"14625","name":"Bautzen","type":"Landkreis"},"federalState":{"key":"14","name":"Sachsen"}},{"name":"Flügel 16","postalCode":"01477","locality":"Arnsdorf","municipality":{"key":"14625010","name":"Arnsdorf","type":"Kreisangehörige_Gemeinde"},"district":{"key":"14625","name":"Bautzen","type":"Landkreis"},"federalState":{"key":"14","name":"Sachsen"}},{"name":"Flügel 18","postalCode":"01477","locality":"Arnsdorf","municipality":{"key":"14625010","name":"Arnsdorf","type":"Kreisangehörige_Gemeinde"},"district":{"key":"14625","name":"Bautzen","type":"Landkreis"},"federalState":{"key":"14","name":"Sachsen"}},{"name":"Flügel 19","postalCode":"01477","locality":"Arnsdorf","municipality":{"key":"14625010","name":"Arnsdorf","type":"Kreisangehörige_Gemeinde"},"district":{"key":"14625","name":"Bautzen","type":"Landkreis"},"federalState":{"key":"14","name":"Sachsen"}},{"name":"Flügel 20","postalCode":"01477","locality":"Arnsdorf","municipality":{"key":"14625010","name":"Arnsdorf","type":"Kreisangehörige_Gemeinde"},"district":{"key":"14625","name":"Bautzen","type":"Landkreis"},"federalState":{"key":"14","name":"Sachsen"}},{"name":"Flügel 21","postalCode":"01477","locality":"Arnsdorf","municipality":{"key":"14625010","name":"Arnsdorf","type":"Kreisangehörige_Gemeinde"},"district":{"key":"14625","name":"Bautzen","type":"Landkreis"},"federalState":{"key":"14","name":"Sachsen"}},{"name":"Flügel 22","postalCode":"01477","locality":"Arnsdorf","municipality":{"key":"14625010","name":"Arnsdorf","type":"Kreisangehörige_Gemeinde"},"district":{"key":"14625","name":"Bautzen","type":"Landkreis"},"federalState":{"key":"14","name":"Sachsen"}},{"name":"Flügel 23","postalCode":"01477","locality":"Arnsdorf","municipality":{"key":"14625010","name":"Arnsdorf","type":"Kreisangehörige_Gemeinde"},"district":{"key":"14625","name":"Bautzen","type":"Landkreis"},"federalState":{"key":"14","name":"Sachsen"}},{"name":"Flügel 24","postalCode":"01477","locality":"Arnsdorf","municipality":{"key":"14625010","name":"Arnsdorf","type":"Kreisangehörige_Gemeinde"},"district":{"key":"14625","name":"Bautzen","type":"Landkreis"},"federalState":{"key":"14","name":"Sachsen"}},{"name":"Flügel 25","postalCode":"01477","locality":"Arnsdorf","municipality":{"key":"14625010","name":"Arnsdorf","type":"Kreisangehörige_Gemeinde"},"district":{"key":"14625","name":"Bautzen","type":"Landkreis"},"federalState":{"key":"14","name":"Sachsen"}},{"name":"Flügel 26","postalCode":"01477","locality":"Arnsdorf","municipality":{"key":"14625010","name":"Arnsdorf","type":"Kreisangehörige_Gemeinde"},"district":{"key":"14625","name":"Bautzen","type":"Landkreis"},"federalState":{"key":"14","name":"Sachsen"}},{"name":"Flügel J","postalCode":"01477","locality":"Arnsdorf","municipality":{"key":"14625010","name":"Arnsdorf","type":"Kreisangehörige_Gemeinde"},"district":{"key":"14625","name":"Bautzen","type":"Landkreis"},"federalState":{"key":"14","name":"Sachsen"}},{"name":"Forstmeisterweg","postalCode":"01477","locality":"Arnsdorf","municipality":{"key":"14625010","name":"Arnsdorf","type":"Kreisangehörige_Gemeinde"},"district":{"key":"14625","name":"Bautzen","type":"Landkreis"},"federalState":{"key":"14","name":"Sachsen"}},{"name":"Friedensstr.","postalCode":"01477","locality":"Arnsdorf","municipality":{"key":"14625010","name":"Arnsdorf","type":"Kreisangehörige_Gemeinde"},"district":{"key":"14625","name":"Bautzen","type":"Landkreis"},"federalState":{"key":"14","name":"Sachsen"}},{"name":"Friedrich-Wolf-Str.","postalCode":"01477","locality":"Arnsdorf","municipality":{"key":"14625010","name":"Arnsdorf","type":"Kreisangehörige_Gemeinde"},"district":{"key":"14625","name":"Bautzen","type":"Landkreis"},"federalState":{"key":"14","name":"Sachsen"}},{"name":"Fuchsstiege","postalCode":"01477","locality":"Arnsdorf","municipality":{"key":"14625010","name":"Arnsdorf","type":"Kreisangehörige_Gemeinde"},"district":{"key":"14625","name":"Bautzen","type":"Landkreis"},"federalState":{"key":"14","name":"Sachsen"}},{"name":"Garten der Sinne","postalCode":"01477","locality":"Arnsdorf","municipality":{"key":"14625010","name":"Arnsdorf","type":"Kreisangehörige_Gemeinde"},"district":{"key":"14625","name":"Bautzen","type":"Landkreis"},"federalState":{"key":"14","name":"Sachsen"}},{"name":"Gerhart-Hauptmann-Str.","postalCode":"01477","locality":"Arnsdorf","municipality":{"key":"14625010","name":"Arnsdorf","type":"Kreisangehörige_Gemeinde"},"district":{"key":"14625","name":"Bautzen","type":"Landkreis"},"federalState":{"key":"14","name":"Sachsen"}},{"name":"Geschwister-Scholl-Str.","postalCode":"01477","locality":"Arnsdorf","municipality":{"key":"14625010","name":"Arnsdorf","type":"Kreisangehörige_Gemeinde"},"district":{"key":"14625","name":"Bautzen","type":"Landkreis"},"federalState":{"key":"14","name":"Sachsen"}},{"name":"G-Flügel","postalCode":"01477","locality":"Arnsdorf","municipality":{"key":"14625010","name":"Arnsdorf","type":"Kreisangehörige_Gemeinde"},"district":{"key":"14625","name":"Bautzen","type":"Landkreis"},"federalState":{"key":"14","name":"Sachsen"}},{"name":"Glashüttenstr.","postalCode":"01477","locality":"Arnsdorf","municipality":{"key":"14625010","name":"Arnsdorf","type":"Kreisangehörige_Gemeinde"},"district":{"key":"14625","name":"Bautzen","type":"Landkreis"},"federalState":{"key":"14","name":"Sachsen"}},{"name":"Goethestr.","postalCode":"01477","locality":"Arnsdorf","municipality":{"key":"14625010","name":"Arnsdorf","type":"Kreisangehörige_Gemeinde"},"district":{"key":"14625","name":"Bautzen","type":"Landkreis"},"federalState":{"key":"14","name":"Sachsen"}},{"name":"Grenzweg","postalCode":"01477","locality":"Arnsdorf","municipality":{"key":"14625010","name":"Arnsdorf","type":"Kreisangehörige_Gemeinde"},"district":{"key":"14625","name":"Bautzen","type":"Landkreis"},"federalState":{"key":"14","name":"Sachsen"}},{"name":"Großerkmannsdorfer Str.","postalCode":"01477","locality":"Arnsdorf","municipality":{"key":"14625010","name":"Arnsdorf","type":"Kreisangehörige_Gemeinde"},"district":{"key":"14625","name":"Bautzen","type":"Landkreis"},"federalState":{"key":"14","name":"Sachsen"}},{"name":"Großröhrsdorfer Str.","postalCode":"01477","locality":"Arnsdorf","municipality":{"key":"14625010","name":"Arnsdorf","type":"Kreisangehörige_Gemeinde"},"district":{"key":"14625","name":"Bautzen","type":"Landkreis"},"federalState":{"key":"14","name":"Sachsen"}},{"name":"Hainweg","postalCode":"01477","locality":"Arnsdorf","municipality":{"key":"14625010","name":"Arnsdorf","type":"Kreisangehörige_Gemeinde"},"district":{"key":"14625","name":"Bautzen","type":"Landkreis"},"federalState":{"key":"14","name":"Sachsen"}},{"name":"Haselweg","postalCode":"01477","locality":"Arnsdorf","municipality":{"key":"14625010","name":"Arnsdorf","type":"Kreisangehörige_Gemeinde"},"district":{"key":"14625","name":"Bautzen","type":"Landkreis"},"federalState":{"key":"14","name":"Sachsen"}},{"name":"Hauptstr.","postalCode":"01477","locality":"Arnsdorf","municipality":{"key":"14625010","name":"Arnsdorf","type":"Kreisangehörige_Gemeinde"},"district":{"key":"14625","name":"Bautzen","type":"Landkreis"},"federalState":{"key":"14","name":"Sachsen"}},{"name":"Heideparkring","postalCode":"01477","locality":"Arnsdorf","municipality":{"key":"14625010","name":"Arnsdorf","type":"Kreisangehörige_Gemeinde"},"district":{"key":"14625","name":"Bautzen","type":"Landkreis"},"federalState":{"key":"14","name":"Sachsen"}},{"name":"Heuweg","postalCode":"01477","locality":"Arnsdorf","municipality":{"key":"14625010","name":"Arnsdorf","type":"Kreisangehörige_Gemeinde"},"district":{"key":"14625","name":"Bautzen","type":"Landkreis"},"federalState":{"key":"14","name":"Sachsen"}},{"name":"Hirschstange","postalCode":"01477","locality":"Arnsdorf","municipality":{"key":"14625010","name":"Arnsdorf","type":"Kreisangehörige_Gemeinde"},"district":{"key":"14625","name":"Bautzen","type":"Landkreis"},"federalState":{"key":"14","name":"Sachsen"}},{"name":"Hirschsteig","postalCode":"01477","locality":"Arnsdorf","municipality":{"key":"14625010","name":"Arnsdorf","type":"Kreisangehörige_Gemeinde"},"district":{"key":"14625","name":"Bautzen","type":"Landkreis"},"federalState":{"key":"14","name":"Sachsen"}},{"name":"Hofehäuser","postalCode":"01477","locality":"Arnsdorf","municipality":{"key":"14625010","name":"Arnsdorf","type":"Kreisangehörige_Gemeinde"},"district":{"key":"14625","name":"Bautzen","type":"Landkreis"},"federalState":{"key":"14","name":"Sachsen"}},{"name":"Hörnelweg","postalCode":"01477","locality":"Arnsdorf","municipality":{"key":"14625010","name":"Arnsdorf","type":"Kreisangehörige_Gemeinde"},"district":{"key":"14625","name":"Bautzen","type":"Landkreis"},"federalState":{"key":"14","name":"Sachsen"}},{"name":"Hufelandstr.","postalCode":"01477","locality":"Arnsdorf","municipality":{"key":"14625010","name":"Arnsdorf","type":"Kreisangehörige_Gemeinde"},"district":{"key":"14625","name":"Bautzen","type":"Landkreis"},"federalState":{"key":"14","name":"Sachsen"}},{"name":"H-Weg","postalCode":"01477","locality":"Arnsdorf","municipality":{"key":"14625010","name":"Arnsdorf","type":"Kreisangehörige_Gemeinde"},"district":{"key":"14625","name":"Bautzen","type":"Landkreis"},"federalState":{"key":"14","name":"Sachsen"}},{"name":"Innere Lauenstr.","postalCode":"02625","locality":"Bautzen","municipality":{"key":"14625020","name":"Bautzen / Budyšin, Stadt","type":"Stadt"},"district":{"key":"14625","name":"Bautzen","type":"Landkreis"},"federalState":{"key":"14","name":"Sachsen"}},{"name":"Jagdflügelweg","postalCode":"01477","locality":"Arnsdorf","municipality":{"key":"14625010","name":"Arnsdorf","type":"Kreisangehörige_Gemeinde"},"district":{"key":"14625","name":"Bautzen","type":"Landkreis"},"federalState":{"key":"14","name":"Sachsen"}},{"name":"Jagdweg","postalCode":"01477","locality":"Arnsdorf","municipality":{"key":"14625010","name":"Arnsdorf","type":"Kreisangehörige_Gemeinde"},"district":{"key":"14625","name":"Bautzen","type":"Landkreis"},"federalState":{"key":"14","name":"Sachsen"}},{"name":"J.-J.-Kaendler-Str.","postalCode":"01477","locality":"Arnsdorf","municipality":{"key":"14625010","name":"Arnsdorf","type":"Kreisangehörige_Gemeinde"},"district":{"key":"14625","name":"Bautzen","type":"Landkreis"},"federalState":{"key":"14","name":"Sachsen"}},{"name":"Karl-Liebknecht-Str.","postalCode":"01477","locality":"Arnsdorf","municipality":{"key":"14625010","name":"Arnsdorf","type":"Kreisangehörige_Gemeinde"},"district":{"key":"14625","name":"Bautzen","type":"Landkreis"},"federalState":{"key":"14","name":"Sachsen"}},{"name":"Karswaldsiedlung","postalCode":"01477","locality":"Arnsdorf","municipality":{"key":"14625010","name":"Arnsdorf","type":"Kreisangehörige_Gemeinde"},"district":{"key":"14625","name":"Bautzen","type":"Landkreis"},"federalState":{"key":"14","name":"Sachsen"}},{"name":"Karswaldstr.","postalCode":"01477","locality":"Arnsdorf","municipality":{"key":"14625010","name":"Arnsdorf","type":"Kreisangehörige_Gemeinde"},"district":{"key":"14625","name":"Bautzen","type":"Landkreis"},"federalState":{"key":"14","name":"Sachsen"}},{"name":"Käthe-Kollwitz-Str.","postalCode":"01477","locality":"Arnsdorf","municipality":{"key":"14625010","name":"Arnsdorf","type":"Kreisangehörige_Gemeinde"},"district":{"key":"14625","name":"Bautzen","type":"Landkreis"},"federalState":{"key":"14","name":"Sachsen"}},{"name":"Kirchstr.","postalCode":"01477","locality":"Arnsdorf","municipality":{"key":"14625010","name":"Arnsdorf","type":"Kreisangehörige_Gemeinde"},"district":{"key":"14625","name":"Bautzen","type":"Landkreis"},"federalState":{"key":"14","name":"Sachsen"}},{"name":"Kleinröhrsdorfer Str.","postalCode":"01477","locality":"Arnsdorf","municipality":{"key":"14625010","name":"Arnsdorf","type":"Kreisangehörige_Gemeinde"},"district":{"key":"14625","name":"Bautzen","type":"Landkreis"},"federalState":{"key":"14","name":"Sachsen"}},{"name":"Kleinwolmsdorfer Str.","postalCode":"01477","locality":"Arnsdorf","municipality":{"key":"14625010","name":"Arnsdorf","type":"Kreisangehörige_Gemeinde"},"district":{"key":"14625","name":"Bautzen","type":"Landkreis"},"federalState":{"key":"14","name":"Sachsen"}},{"name":"Kohlsdorfweg","postalCode":"01477","locality":"Arnsdorf","municipality":{"key":"14625010","name":"Arnsdorf","type":"Kreisangehörige_Gemeinde"},"district":{"key":"14625","name":"Bautzen","type":"Landkreis"},"federalState":{"key":"14","name":"Sachsen"}},{"name":"Kurt-Richter-Weg","postalCode":"01477","locality":"Arnsdorf","municipality":{"key":"14625010","name":"Arnsdorf","type":"Kreisangehörige_Gemeinde"},"district":{"key":"14625","name":"Bautzen","type":"Landkreis"},"federalState":{"key":"14","name":"Sachsen"}},{"name":"Kurzer Weg","postalCode":"01477","locality":"Arnsdorf","municipality":{"key":"14625010","name":"Arnsdorf","type":"Kreisangehörige_Gemeinde"},"district":{"key":"14625","name":"Bautzen","type":"Landkreis"},"federalState":{"key":"14","name":"Sachsen"}},{"name":"Lehmgrubenweg","postalCode":"01477","locality":"Arnsdorf","municipality":{"key":"14625010","name":"Arnsdorf","type":"Kreisangehörige_Gemeinde"},"district":{"key":"14625","name":"Bautzen","type":"Landkreis"},"federalState":{"key":"14","name":"Sachsen"}},{"name":"Leiermühlenweg","postalCode":"01477","locality":"Arnsdorf","municipality":{"key":"14625010","name":"Arnsdorf","type":"Kreisangehörige_Gemeinde"},"district":{"key":"14625","name":"Bautzen","type":"Landkreis"},"federalState":{"key":"14","name":"Sachsen"}},{"name":"Lindenweg","postalCode":"01477","locality":"Arnsdorf","municipality":{"key":"14625010","name":"Arnsdorf","type":"Kreisangehörige_Gemeinde"},"district":{"key":"14625","name":"Bautzen","type":"Landkreis"},"federalState":{"key":"14","name":"Sachsen"}},{"name":"Markt","postalCode":"01477","locality":"Arnsdorf","municipality":{"key":"14625010","name":"Arnsdorf","type":"Kreisangehörige_Gemeinde"},"district":{"key":"14625","name":"Bautzen","type":"Landkreis"},"federalState":{"key":"14","name":"Sachsen"}},{"name":"Martin-Luther-Str.","postalCode":"01477","locality":"Arnsdorf","municipality":{"key":"14625010","name":"Arnsdorf","type":"Kreisangehörige_Gemeinde"},"district":{"key":"14625","name":"Bautzen","type":"Landkreis"},"federalState":{"key":"14","name":"Sachsen"}},{"name":"Mittelpaß","postalCode":"01477","locality":"Arnsdorf","municipality":{"key":"14625010","name":"Arnsdorf","type":"Kreisangehörige_Gemeinde"},"district":{"key":"14625","name":"Bautzen","type":"Landkreis"},"federalState":{"key":"14","name":"Sachsen"}},{"name":"Mittelstr.","postalCode":"01477","locality":"Arnsdorf","municipality":{"key":"14625010","name":"Arnsdorf","type":"Kreisangehörige_Gemeinde"},"district":{"key":"14625","name":"Bautzen","type":"Landkreis"},"federalState":{"key":"14","name":"Sachsen"}},{"name":"Moorsteig","postalCode":"01477","locality":"Arnsdorf","municipality":{"key":"14625010","name":"Arnsdorf","type":"Kreisangehörige_Gemeinde"},"district":{"key":"14625","name":"Bautzen","type":"Landkreis"},"federalState":{"key":"14","name":"Sachsen"}},{"name":"Mozartstr.","postalCode":"01477","locality":"Arnsdorf","municipality":{"key":"14625010","name":"Arnsdorf","type":"Kreisangehörige_Gemeinde"},"district":{"key":"14625","name":"Bautzen","type":"Landkreis"},"federalState":{"key":"14","name":"Sachsen"}},{"name":"Mühlstr.","postalCode":"01477","locality":"Arnsdorf","municipality":{"key":"14625010","name":"Arnsdorf","type":"Kreisangehörige_Gemeinde"},"district":{"key":"14625","name":"Bautzen","type":"Landkreis"},"federalState":{"key":"14","name":"Sachsen"}},{"name":"Mühlweg","postalCode":"01477","locality":"Arnsdorf","municipality":{"key":"14625010","name":"Arnsdorf","type":"Kreisangehörige_Gemeinde"},"district":{"key":"14625","name":"Bautzen","type":"Landkreis"},"federalState":{"key":"14","name":"Sachsen"}},{"name":"Niederstr.","postalCode":"01477","locality":"Arnsdorf","municipality":{"key":"14625010","name":"Arnsdorf","type":"Kreisangehörige_Gemeinde"},"district":{"key":"14625","name":"Bautzen","type":"Landkreis"},"federalState":{"key":"14","name":"Sachsen"}},{"name":"Nordstr.","postalCode":"01477","locality":"Arnsdorf","municipality":{"key":"14625010","name":"Arnsdorf","type":"Kreisangehörige_Gemeinde"},"district":{"key":"14625","name":"Bautzen","type":"Landkreis"},"federalState":{"key":"14","name":"Sachsen"}},{"name":"Nullweg","postalCode":"01477","locality":"Arnsdorf","municipality":{"key":"14625010","name":"Arnsdorf","type":"Kreisangehörige_Gemeinde"},"district":{"key":"14625","name":"Bautzen","type":"Landkreis"},"federalState":{"key":"14","name":"Sachsen"}},{"name":"Obere Glashüttensiedlung","postalCode":"01477","locality":"Arnsdorf","municipality":{"key":"14625010","name":"Arnsdorf","type":"Kreisangehörige_Gemeinde"},"district":{"key":"14625","name":"Bautzen","type":"Landkreis"},"federalState":{"key":"14","name":"Sachsen"}},{"name":"Oberstr.","postalCode":"01477","locality":"Arnsdorf","municipality":{"key":"14625010","name":"Arnsdorf","type":"Kreisangehörige_Gemeinde"},"district":{"key":"14625","name":"Bautzen","type":"Landkreis"},"federalState":{"key":"14","name":"Sachsen"}},{"name":"Pfarrer-Dr.-Satlow-Weg","postalCode":"01477","locality":"Arnsdorf","municipality":{"key":"14625010","name":"Arnsdorf","type":"Kreisangehörige_Gemeinde"},"district":{"key":"14625","name":"Bautzen","type":"Landkreis"},"federalState":{"key":"14","name":"Sachsen"}},{"name":"Pirnascher Weg","postalCode":"01477","locality":"Arnsdorf","municipality":{"key":"14625010","name":"Arnsdorf","type":"Kreisangehörige_Gemeinde"},"district":{"key":"14625","name":"Bautzen","type":"Landkreis"},"federalState":{"key":"14","name":"Sachsen"}},{"name":"Poststr.","postalCode":"01477","locality":"Arnsdorf","municipality":{"key":"14625010","name":"Arnsdorf","type":"Kreisangehörige_Gemeinde"},"district":{"key":"14625","name":"Bautzen","type":"Landkreis"},"federalState":{"key":"14","name":"Sachsen"}},{"name":"Radeberger Str.","postalCode":"01477","locality":"Arnsdorf","municipality":{"key":"14625010","name":"Arnsdorf","type":"Kreisangehörige_Gemeinde"},"district":{"key":"14625","name":"Bautzen","type":"Landkreis"},"federalState":{"key":"14","name":"Sachsen"}},{"name":"Röderstr.","postalCode":"01477","locality":"Arnsdorf","municipality":{"key":"14625010","name":"Arnsdorf","type":"Kreisangehörige_Gemeinde"},"district":{"key":"14625","name":"Bautzen","type":"Landkreis"},"federalState":{"key":"14","name":"Sachsen"}},{"name":"Röderweg","postalCode":"01477","locality":"Arnsdorf","municipality":{"key":"14625010","name":"Arnsdorf","type":"Kreisangehörige_Gemeinde"},"district":{"key":"14625","name":"Bautzen","type":"Landkreis"},"federalState":{"key":"14","name":"Sachsen"}},{"name":"Rossendorfer Weg","postalCode":"01477","locality":"Arnsdorf","municipality":{"key":"14625010","name":"Arnsdorf","type":"Kreisangehörige_Gemeinde"},"district":{"key":"14625","name":"Bautzen","type":"Landkreis"},"federalState":{"key":"14","name":"Sachsen"}},{"name":"Rudolf-Breitscheid-Str.","postalCode":"01477","locality":"Arnsdorf","municipality":{"key":"14625010","name":"Arnsdorf","type":"Kreisangehörige_Gemeinde"},"district":{"key":"14625","name":"Bautzen","type":"Landkreis"},"federalState":{"key":"14","name":"Sachsen"}},{"name":"Sandweg","postalCode":"01477","locality":"Arnsdorf","municipality":{"key":"14625010","name":"Arnsdorf","type":"Kreisangehörige_Gemeinde"},"district":{"key":"14625","name":"Bautzen","type":"Landkreis"},"federalState":{"key":"14","name":"Sachsen"}},{"name":"Schenkhübelweg","postalCode":"01477","locality":"Arnsdorf","municipality":{"key":"14625010","name":"Arnsdorf","type":"Kreisangehörige_Gemeinde"},"district":{"key":"14625","name":"Bautzen","type":"Landkreis"},"federalState":{"key":"14","name":"Sachsen"}},{"name":"Schillerstr.","postalCode":"01477","locality":"Arnsdorf","municipality":{"key":"14625010","name":"Arnsdorf","type":"Kreisangehörige_Gemeinde"},"district":{"key":"14625","name":"Bautzen","type":"Landkreis"},"federalState":{"key":"14","name":"Sachsen"}},{"name":"Schulberg","postalCode":"01477","locality":"Arnsdorf","municipality":{"key":"14625010","name":"Arnsdorf","type":"Kreisangehörige_Gemeinde"},"district":{"key":"14625","name":"Bautzen","type":"Landkreis"},"federalState":{"key":"14","name":"Sachsen"}},{"name":"Schweineweg","postalCode":"01477","locality":"Arnsdorf","municipality":{"key":"14625010","name":"Arnsdorf","type":"Kreisangehörige_Gemeinde"},"district":{"key":"14625","name":"Bautzen","type":"Landkreis"},"federalState":{"key":"14","name":"Sachsen"}},{"name":"Seeligstädter Str.","postalCode":"01477","locality":"Arnsdorf","municipality":{"key":"14625010","name":"Arnsdorf","type":"Kreisangehörige_Gemeinde"},"district":{"key":"14625","name":"Bautzen","type":"Landkreis"},"federalState":{"key":"14","name":"Sachsen"}},{"name":"Seifenbergweg","postalCode":"01477","locality":"Arnsdorf","municipality":{"key":"14625010","name":"Arnsdorf","type":"Kreisangehörige_Gemeinde"},"district":{"key":"14625","name":"Bautzen","type":"Landkreis"},"federalState":{"key":"14","name":"Sachsen"}},{"name":"Seitenweg","postalCode":"01477","locality":"Arnsdorf","municipality":{"key":"14625010","name":"Arnsdorf","type":"Kreisangehörige_Gemeinde"},"district":{"key":"14625","name":"Bautzen","type":"Landkreis"},"federalState":{"key":"14","name":"Sachsen"}},{"name":"Siedlungsweg","postalCode":"01477","locality":"Arnsdorf","municipality":{"key":"14625010","name":"Arnsdorf","type":"Kreisangehörige_Gemeinde"},"district":{"key":"14625","name":"Bautzen","type":"Landkreis"},"federalState":{"key":"14","name":"Sachsen"}},{"name":"Sommerweg","postalCode":"01477","locality":"Arnsdorf","municipality":{"key":"14625010","name":"Arnsdorf","type":"Kreisangehörige_Gemeinde"},"district":{"key":"14625","name":"Bautzen","type":"Landkreis"},"federalState":{"key":"14","name":"Sachsen"}},{"name":"Stiehl´s Weg","postalCode":"01477","locality":"Arnsdorf","municipality":{"key":"14625010","name":"Arnsdorf","type":"Kreisangehörige_Gemeinde"},"district":{"key":"14625","name":"Bautzen","type":"Landkreis"},"federalState":{"key":"14","name":"Sachsen"}},{"name":"Stolpener Str.","postalCode":"01477","locality":"Arnsdorf","municipality":{"key":"14625010","name":"Arnsdorf","type":"Kreisangehörige_Gemeinde"},"district":{"key":"14625","name":"Bautzen","type":"Landkreis"},"federalState":{"key":"14","name":"Sachsen"}},{"name":"Stolpsteig","postalCode":"01477","locality":"Arnsdorf","municipality":{"key":"14625010","name":"Arnsdorf","type":"Kreisangehörige_Gemeinde"},"district":{"key":"14625","name":"Bautzen","type":"Landkreis"},"federalState":{"key":"14","name":"Sachsen"}},{"name":"Südstr.","postalCode":"01477","locality":"Arnsdorf","municipality":{"key":"14625010","name":"Arnsdorf","type":"Kreisangehörige_Gemeinde"},"district":{"key":"14625","name":"Bautzen","type":"Landkreis"},"federalState":{"key":"14","name":"Sachsen"}},{"name":"Talblick","postalCode":"01477","locality":"Arnsdorf","municipality":{"key":"14625010","name":"Arnsdorf","type":"Kreisangehörige_Gemeinde"},"district":{"key":"14625","name":"Bautzen","type":"Landkreis"},"federalState":{"key":"14","name":"Sachsen"}},{"name":"Tannebergstr.","postalCode":"01477","locality":"Arnsdorf","municipality":{"key":"14625010","name":"Arnsdorf","type":"Kreisangehörige_Gemeinde"},"district":{"key":"14625","name":"Bautzen","type":"Landkreis"},"federalState":{"key":"14","name":"Sachsen"}},{"name":"Tausendfüßlergasse","postalCode":"01477","locality":"Arnsdorf","municipality":{"key":"14625010","name":"Arnsdorf","type":"Kreisangehörige_Gemeinde"},"district":{"key":"14625","name":"Bautzen","type":"Landkreis"},"federalState":{"key":"14","name":"Sachsen"}},{"name":"Tausendfüßlergässl","postalCode":"01477","locality":"Arnsdorf","municipality":{"key":"14625010","name":"Arnsdorf","type":"Kreisangehörige_Gemeinde"},"district":{"key":"14625","name":"Bautzen","type":"Landkreis"},"federalState":{"key":"14","name":"Sachsen"}},{"name":"Teichstr.","postalCode":"01477","locality":"Arnsdorf","municipality":{"key":"14625010","name":"Arnsdorf","type":"Kreisangehörige_Gemeinde"},"district":{"key":"14625","name":"Bautzen","type":"Landkreis"},"federalState":{"key":"14","name":"Sachsen"}},{"name":"Teichzipfelweg","postalCode":"01477","locality":"Arnsdorf","municipality":{"key":"14625010","name":"Arnsdorf","type":"Kreisangehörige_Gemeinde"},"district":{"key":"14625","name":"Bautzen","type":"Landkreis"},"federalState":{"key":"14","name":"Sachsen"}},{"name":"Teufelspass","postalCode":"01477","locality":"Arnsdorf","municipality":{"key":"14625010","name":"Arnsdorf","type":"Kreisangehörige_Gemeinde"},"district":{"key":"14625","name":"Bautzen","type":"Landkreis"},"federalState":{"key":"14","name":"Sachsen"}},{"name":"Untere Glashüttensiedlung","postalCode":"01477","locality":"Arnsdorf","municipality":{"key":"14625010","name":"Arnsdorf","type":"Kreisangehörige_Gemeinde"},"district":{"key":"14625","name":"Bautzen","type":"Landkreis"},"federalState":{"key":"14","name":"Sachsen"}},{"name":"Veilchenberg","postalCode":"02625","locality":"Bautzen","municipality":{"key":"14625020","name":"Bautzen / Budyšin, Stadt","type":"Stadt"},"district":{"key":"14625","name":"Bautzen","type":"Landkreis"},"federalState":{"key":"14","name":"Sachsen"}},{"name":"Vor dem Gerbertor","postalCode":"02625","locality":"Bautzen","municipality":{"key":"14625020","name":"Bautzen / Budyšin, Stadt","type":"Stadt"},"district":{"key":"14625","name":"Bautzen","type":"Landkreis"},"federalState":{"key":"14","name":"Sachsen"}},{"name":"Vor dem Schülertor","postalCode":"02625","locality":"Bautzen","municipality":{"key":"14625020","name":"Bautzen / Budyšin, Stadt","type":"Stadt"},"district":{"key":"14625","name":"Bautzen","type":"Landkreis"},"federalState":{"key":"14","name":"Sachsen"}},{"name":"Vor der Fischerpforte","postalCode":"02625","locality":"Bautzen","municipality":{"key":"14625020","name":"Bautzen / Budyšin, Stadt","type":"Stadt"},"district":{"key":"14625","name":"Bautzen","type":"Landkreis"},"federalState":{"key":"14","name":"Sachsen"}},{"name":"Waldsiedlung","postalCode":"01477","locality":"Arnsdorf","municipality":{"key":"14625010","name":"Arnsdorf","type":"Kreisangehörige_Gemeinde"},"district":{"key":"14625","name":"Bautzen","type":"Landkreis"},"federalState":{"key":"14","name":"Sachsen"}},{"name":"Weststr.","postalCode":"01477","locality":"Arnsdorf","municipality":{"key":"14625010","name":"Arnsdorf","type":"Kreisangehörige_Gemeinde"},"district":{"key":"14625","name":"Bautzen","type":"Landkreis"},"federalState":{"key":"14","name":"Sachsen"}},{"name":"Wiesenweg","postalCode":"01477","locality":"Arnsdorf","municipality":{"key":"14625010","name":"Arnsdorf","type":"Kreisangehörige_Gemeinde"},"district":{"key":"14625","name":"Bautzen","type":"Landkreis"},"federalState":{"key":"14","name":"Sachsen"}},{"name":"Wilschdorfer Str.","postalCode":"01477","locality":"Arnsdorf","municipality":{"key":"14625010","name":"Arnsdorf","type":"Kreisangehörige_Gemeinde"},"district":{"key":"14625","name":"Bautzen","type":"Landkreis"},"federalState":{"key":"14","name":"Sachsen"}},{"name":"Wirtschaftsweg","postalCode":"01477","locality":"Arnsdorf","municipality":{"key":"14625010","name":"Arnsdorf","type":"Kreisangehörige_Gemeinde"},"district":{"key":"14625","name":"Bautzen","type":"Landkreis"},"federalState":{"key":"14","name":"Sachsen"}},{"name":"Yorckstr.","postalCode":"02625","locality":"Bautzen","municipality":{"key":"14625020","name":"Bautzen / Budyšin, Stadt","type":"Stadt"},"district":{"key":"14625","name":"Bautzen","type":"Landkreis"},"federalState":{"key":"14","name":"Sachsen"}},{"name":"Zum Steinberg","postalCode":"01477","locality":"Arnsdorf","municipality":{"key":"14625010","name":"Arnsdorf","type":"Kreisangehörige_Gemeinde"},"district":{"key":"14625","name":"Bautzen","type":"Landkreis"},"federalState":{"key":"14","name":"Sachsen"}},{"name":"Zum Teichhaus","postalCode":"01477","locality":"Arnsdorf","municipality":{"key":"14625010","name":"Arnsdorf","type":"Kreisangehörige_Gemeinde"},"district":{"key":"14625","name":"Bautzen","type":"Landkreis"},"federalState":{"key":"14","name":"Sachsen"}},{"name":"Zum Wiesengrund","postalCode":"01477","locality":"Arnsdorf","municipality":{"key":"14625010","name":"Arnsdorf","type":"Kreisangehörige_Gemeinde"},"district":{"key":"14625","name":"Bautzen","type":"Landkreis"},"federalState":{"key":"14","name":"Sachsen"}},{"name":"Zur Massenei","postalCode":"01477","locality":"Arnsdorf","municipality":{"key":"14625010","name":"Arnsdorf","type":"Kreisangehörige_Gemeinde"},"district":{"key":"14625","name":"Bautzen","type":"Landkreis"},"federalState":{"key":"14","name":"Sachsen"}},{"name":"Äußere Lauenstr.","postalCode":"02625","locality":"Bautzen","municipality":{"key":"14625020","name":"Bautzen / Budyšin, Stadt","type":"Stadt"},"district":{"key":"14625","name":"Bautzen","type":"Landkreis"},"federalState":{"key":"14","name":"Sachsen"}},]