[{"name":"Alte Gasse","postalCode":"56459","locality":"Elbingen","municipality":{"key":"07143501","name":"Elbingen","type":"Kreisangehörige_Gemeinde"},"district":{"key":"07143","name":"Westerwaldkreis","type":"Landkreis"},"federalState":{"key":"07","name":"Rheinland-Pfalz"}},{"name":"Am Hainchen","postalCode":"56459","locality":"Elbingen","municipality":{"key":"07143501","name":"Elbingen","type":"Kreisangehörige_Gemeinde"},"district":{"key":"07143","name":"Westerwaldkreis","type":"Landkreis"},"federalState":{"key":"07","name":"Rheinland-Pfalz"}},{"name":"Am Hainchesberg","postalCode":"56459","locality":"Elbingen","municipality":{"key":"07143501","name":"Elbingen","type":"Kreisangehörige_Gemeinde"},"district":{"key":"07143","name":"Westerwaldkreis","type":"Landkreis"},"federalState":{"key":"07","name":"Rheinland-Pfalz"}},{"name":"Bahnhofstr.","postalCode":"56459","locality":"Elbingen","municipality":{"key":"07143501","name":"Elbingen","type":"Kreisangehörige_Gemeinde"},"district":{"key":"07143","name":"Westerwaldkreis","type":"Landkreis"},"federalState":{"key":"07","name":"Rheinland-Pfalz"}},{"name":"Bergstr.","postalCode":"56459","locality":"Elbingen","municipality":{"key":"07143501","name":"Elbingen","type":"Kreisangehörige_Gemeinde"},"district":{"key":"07143","name":"Westerwaldkreis","type":"Landkreis"},"federalState":{"key":"07","name":"Rheinland-Pfalz"}},{"name":"Brückenstr.","postalCode":"56459","locality":"Elbingen","municipality":{"key":"07143501","name":"Elbingen","type":"Kreisangehörige_Gemeinde"},"district":{"key":"07143","name":"Westerwaldkreis","type":"Landkreis"},"federalState":{"key":"07","name":"Rheinland-Pfalz"}},{"name":"Eichelgarten","postalCode":"56459","locality":"Elbingen","municipality":{"key":"07143501","name":"Elbingen","type":"Kreisangehörige_Gemeinde"},"district":{"key":"07143","name":"Westerwaldkreis","type":"Landkreis"},"federalState":{"key":"07","name":"Rheinland-Pfalz"}},{"name":"Hauptstr.","postalCode":"56459","locality":"Elbingen","municipality":{"key":"07143501","name":"Elbingen","type":"Kreisangehörige_Gemeinde"},"district":{"key":"07143","name":"Westerwaldkreis","type":"Landkreis"},"federalState":{"key":"07","name":"Rheinland-Pfalz"}},{"name":"Im Esch","postalCode":"56459","locality":"Elbingen","municipality":{"key":"07143501","name":"Elbingen","type":"Kreisangehörige_Gemeinde"},"district":{"key":"07143","name":"Westerwaldkreis","type":"Landkreis"},"federalState":{"key":"07","name":"Rheinland-Pfalz"}},{"name":"In der Mehleck","postalCode":"56459","locality":"Elbingen","municipality":{"key":"07143501","name":"Elbingen","type":"Kreisangehörige_Gemeinde"},"district":{"key":"07143","name":"Westerwaldkreis","type":"Landkreis"},"federalState":{"key":"07","name":"Rheinland-Pfalz"}},{"name":"Neustr.","postalCode":"56459","locality":"Elbingen","municipality":{"key":"07143501","name":"Elbingen","type":"Kreisangehörige_Gemeinde"},"district":{"key":"07143","name":"Westerwaldkreis","type":"Landkreis"},"federalState":{"key":"07","name":"Rheinland-Pfalz"}},{"name":"Spiesmühle","postalCode":"56459","locality":"Elbingen","municipality":{"key":"07143501","name":"Elbingen","type":"Kreisangehörige_Gemeinde"},"district":{"key":"07143","name":"Westerwaldkreis","type":"Landkreis"},"federalState":{"key":"07","name":"Rheinland-Pfalz"}},{"name":"Westert","postalCode":"56459","locality":"Elbingen","municipality":{"key":"07143501","name":"Elbingen","type":"Kreisangehörige_Gemeinde"},"district":{"key":"07143","name":"Westerwaldkreis","type":"Landkreis"},"federalState":{"key":"07","name":"Rheinland-Pfalz"}},{"name":"Wiesenstr.","postalCode":"56459","locality":"Elbingen","municipality":{"key":"07143501","name":"Elbingen","type":"Kreisangehörige_Gemeinde"},"district":{"key":"07143","name":"Westerwaldkreis","type":"Landkreis"},"federalState":{"key":"07","name":"Rheinland-Pfalz"}},{"name":"WW 1","postalCode":"56459","locality":"Elbingen","municipality":{"key":"07143501","name":"Elbingen","type":"Kreisangehörige_Gemeinde"},"district":{"key":"07143","name":"Westerwaldkreis","type":"Landkreis"},"federalState":{"key":"07","name":"Rheinland-Pfalz"}},{"name":"WW E 1","postalCode":"56459","locality":"Elbingen","municipality":{"key":"07143501","name":"Elbingen","type":"Kreisangehörige_Gemeinde"},"district":{"key":"07143","name":"Westerwaldkreis","type":"Landkreis"},"federalState":{"key":"07","name":"Rheinland-Pfalz"}},{"name":"Zum Roth","postalCode":"56459","locality":"Elbingen","municipality":{"key":"07143501","name":"Elbingen","type":"Kreisangehörige_Gemeinde"},"district":{"key":"07143","name":"Westerwaldkreis","type":"Landkreis"},"federalState":{"key":"07","name":"Rheinland-Pfalz"}},]