[{"name":"Altbahnhofstr.","postalCode":"57578","locality":"Elkenroth","municipality":{"key":"07132025","name":"Elkenroth","type":"Kreisangehörige_Gemeinde"},"district":{"key":"07132","name":"Altenkirchen (Westerwald)","type":"Landkreis"},"federalState":{"key":"07","name":"Rheinland-Pfalz"}},{"name":"Amselweg","postalCode":"57578","locality":"Elkenroth","municipality":{"key":"07132025","name":"Elkenroth","type":"Kreisangehörige_Gemeinde"},"district":{"key":"07132","name":"Altenkirchen (Westerwald)","type":"Landkreis"},"federalState":{"key":"07","name":"Rheinland-Pfalz"}},{"name":"Annaweg","postalCode":"57578","locality":"Elkenroth","municipality":{"key":"07132025","name":"Elkenroth","type":"Kreisangehörige_Gemeinde"},"district":{"key":"07132","name":"Altenkirchen (Westerwald)","type":"Landkreis"},"federalState":{"key":"07","name":"Rheinland-Pfalz"}},{"name":"Auwiese","postalCode":"57578","locality":"Elkenroth","municipality":{"key":"07132025","name":"Elkenroth","type":"Kreisangehörige_Gemeinde"},"district":{"key":"07132","name":"Altenkirchen (Westerwald)","type":"Landkreis"},"federalState":{"key":"07","name":"Rheinland-Pfalz"}},{"name":"Bergstr.","postalCode":"57578","locality":"Elkenroth","municipality":{"key":"07132025","name":"Elkenroth","type":"Kreisangehörige_Gemeinde"},"district":{"key":"07132","name":"Altenkirchen (Westerwald)","type":"Landkreis"},"federalState":{"key":"07","name":"Rheinland-Pfalz"}},{"name":"Betzdorfer Str.","postalCode":"57578","locality":"Elkenroth","municipality":{"key":"07132025","name":"Elkenroth","type":"Kreisangehörige_Gemeinde"},"district":{"key":"07132","name":"Altenkirchen (Westerwald)","type":"Landkreis"},"federalState":{"key":"07","name":"Rheinland-Pfalz"}},{"name":"Birkenweg","postalCode":"57578","locality":"Elkenroth","municipality":{"key":"07132025","name":"Elkenroth","type":"Kreisangehörige_Gemeinde"},"district":{"key":"07132","name":"Altenkirchen (Westerwald)","type":"Landkreis"},"federalState":{"key":"07","name":"Rheinland-Pfalz"}},{"name":"Brunkelweg","postalCode":"57578","locality":"Elkenroth","municipality":{"key":"07132025","name":"Elkenroth","type":"Kreisangehörige_Gemeinde"},"district":{"key":"07132","name":"Altenkirchen (Westerwald)","type":"Landkreis"},"federalState":{"key":"07","name":"Rheinland-Pfalz"}},{"name":"Brunnenweg","postalCode":"57578","locality":"Elkenroth","municipality":{"key":"07132025","name":"Elkenroth","type":"Kreisangehörige_Gemeinde"},"district":{"key":"07132","name":"Altenkirchen (Westerwald)","type":"Landkreis"},"federalState":{"key":"07","name":"Rheinland-Pfalz"}},{"name":"Clausenburgstr.","postalCode":"57578","locality":"Elkenroth","municipality":{"key":"07132025","name":"Elkenroth","type":"Kreisangehörige_Gemeinde"},"district":{"key":"07132","name":"Altenkirchen (Westerwald)","type":"Landkreis"},"federalState":{"key":"07","name":"Rheinland-Pfalz"}},{"name":"Drosselweg","postalCode":"57578","locality":"Elkenroth","municipality":{"key":"07132025","name":"Elkenroth","type":"Kreisangehörige_Gemeinde"},"district":{"key":"07132","name":"Altenkirchen (Westerwald)","type":"Landkreis"},"federalState":{"key":"07","name":"Rheinland-Pfalz"}},{"name":"Elisabethstr.","postalCode":"57578","locality":"Elkenroth","municipality":{"key":"07132025","name":"Elkenroth","type":"Kreisangehörige_Gemeinde"},"district":{"key":"07132","name":"Altenkirchen (Westerwald)","type":"Landkreis"},"federalState":{"key":"07","name":"Rheinland-Pfalz"}},{"name":"Finkenweg","postalCode":"57578","locality":"Elkenroth","municipality":{"key":"07132025","name":"Elkenroth","type":"Kreisangehörige_Gemeinde"},"district":{"key":"07132","name":"Altenkirchen (Westerwald)","type":"Landkreis"},"federalState":{"key":"07","name":"Rheinland-Pfalz"}},{"name":"Gartenstr.","postalCode":"57578","locality":"Elkenroth","municipality":{"key":"07132025","name":"Elkenroth","type":"Kreisangehörige_Gemeinde"},"district":{"key":"07132","name":"Altenkirchen (Westerwald)","type":"Landkreis"},"federalState":{"key":"07","name":"Rheinland-Pfalz"}},{"name":"Hachenburger Str.","postalCode":"57578","locality":"Elkenroth","municipality":{"key":"07132025","name":"Elkenroth","type":"Kreisangehörige_Gemeinde"},"district":{"key":"07132","name":"Altenkirchen (Westerwald)","type":"Landkreis"},"federalState":{"key":"07","name":"Rheinland-Pfalz"}},{"name":"Heckenweg","postalCode":"57578","locality":"Elkenroth","municipality":{"key":"07132025","name":"Elkenroth","type":"Kreisangehörige_Gemeinde"},"district":{"key":"07132","name":"Altenkirchen (Westerwald)","type":"Landkreis"},"federalState":{"key":"07","name":"Rheinland-Pfalz"}},{"name":"Heisterstr.","postalCode":"57578","locality":"Elkenroth","municipality":{"key":"07132025","name":"Elkenroth","type":"Kreisangehörige_Gemeinde"},"district":{"key":"07132","name":"Altenkirchen (Westerwald)","type":"Landkreis"},"federalState":{"key":"07","name":"Rheinland-Pfalz"}},{"name":"Hildburgstr.","postalCode":"57578","locality":"Elkenroth","municipality":{"key":"07132025","name":"Elkenroth","type":"Kreisangehörige_Gemeinde"},"district":{"key":"07132","name":"Altenkirchen (Westerwald)","type":"Landkreis"},"federalState":{"key":"07","name":"Rheinland-Pfalz"}},{"name":"Hirtenwiese","postalCode":"57578","locality":"Elkenroth","municipality":{"key":"07132025","name":"Elkenroth","type":"Kreisangehörige_Gemeinde"},"district":{"key":"07132","name":"Altenkirchen (Westerwald)","type":"Landkreis"},"federalState":{"key":"07","name":"Rheinland-Pfalz"}},{"name":"Höhenweg","postalCode":"57578","locality":"Elkenroth","municipality":{"key":"07132025","name":"Elkenroth","type":"Kreisangehörige_Gemeinde"},"district":{"key":"07132","name":"Altenkirchen (Westerwald)","type":"Landkreis"},"federalState":{"key":"07","name":"Rheinland-Pfalz"}},{"name":"Hollerweg","postalCode":"57578","locality":"Elkenroth","municipality":{"key":"07132025","name":"Elkenroth","type":"Kreisangehörige_Gemeinde"},"district":{"key":"07132","name":"Altenkirchen (Westerwald)","type":"Landkreis"},"federalState":{"key":"07","name":"Rheinland-Pfalz"}},{"name":"Im Elbbachtal","postalCode":"57578","locality":"Elkenroth","municipality":{"key":"07132025","name":"Elkenroth","type":"Kreisangehörige_Gemeinde"},"district":{"key":"07132","name":"Altenkirchen (Westerwald)","type":"Landkreis"},"federalState":{"key":"07","name":"Rheinland-Pfalz"}},{"name":"Jochweg","postalCode":"57578","locality":"Elkenroth","municipality":{"key":"07132025","name":"Elkenroth","type":"Kreisangehörige_Gemeinde"},"district":{"key":"07132","name":"Altenkirchen (Westerwald)","type":"Landkreis"},"federalState":{"key":"07","name":"Rheinland-Pfalz"}},{"name":"Kampfgartenweg","postalCode":"57578","locality":"Elkenroth","municipality":{"key":"07132025","name":"Elkenroth","type":"Kreisangehörige_Gemeinde"},"district":{"key":"07132","name":"Altenkirchen (Westerwald)","type":"Landkreis"},"federalState":{"key":"07","name":"Rheinland-Pfalz"}},{"name":"Kirchstr.","postalCode":"57578","locality":"Elkenroth","municipality":{"key":"07132025","name":"Elkenroth","type":"Kreisangehörige_Gemeinde"},"district":{"key":"07132","name":"Altenkirchen (Westerwald)","type":"Landkreis"},"federalState":{"key":"07","name":"Rheinland-Pfalz"}},{"name":"Kreuzgartenweg","postalCode":"57578","locality":"Elkenroth","municipality":{"key":"07132025","name":"Elkenroth","type":"Kreisangehörige_Gemeinde"},"district":{"key":"07132","name":"Altenkirchen (Westerwald)","type":"Landkreis"},"federalState":{"key":"07","name":"Rheinland-Pfalz"}},{"name":"Löhstr.","postalCode":"57578","locality":"Elkenroth","municipality":{"key":"07132025","name":"Elkenroth","type":"Kreisangehörige_Gemeinde"},"district":{"key":"07132","name":"Altenkirchen (Westerwald)","type":"Landkreis"},"federalState":{"key":"07","name":"Rheinland-Pfalz"}},{"name":"Marienberger Str.","postalCode":"57578","locality":"Elkenroth","municipality":{"key":"07132025","name":"Elkenroth","type":"Kreisangehörige_Gemeinde"},"district":{"key":"07132","name":"Altenkirchen (Westerwald)","type":"Landkreis"},"federalState":{"key":"07","name":"Rheinland-Pfalz"}},{"name":"Mittelstr.","postalCode":"57578","locality":"Elkenroth","municipality":{"key":"07132025","name":"Elkenroth","type":"Kreisangehörige_Gemeinde"},"district":{"key":"07132","name":"Altenkirchen (Westerwald)","type":"Landkreis"},"federalState":{"key":"07","name":"Rheinland-Pfalz"}},{"name":"Naurother Str.","postalCode":"57578","locality":"Elkenroth","municipality":{"key":"07132025","name":"Elkenroth","type":"Kreisangehörige_Gemeinde"},"district":{"key":"07132","name":"Altenkirchen (Westerwald)","type":"Landkreis"},"federalState":{"key":"07","name":"Rheinland-Pfalz"}},{"name":"Oststr.","postalCode":"57578","locality":"Elkenroth","municipality":{"key":"07132025","name":"Elkenroth","type":"Kreisangehörige_Gemeinde"},"district":{"key":"07132","name":"Altenkirchen (Westerwald)","type":"Landkreis"},"federalState":{"key":"07","name":"Rheinland-Pfalz"}},{"name":"Parkstr.","postalCode":"57578","locality":"Elkenroth","municipality":{"key":"07132025","name":"Elkenroth","type":"Kreisangehörige_Gemeinde"},"district":{"key":"07132","name":"Altenkirchen (Westerwald)","type":"Landkreis"},"federalState":{"key":"07","name":"Rheinland-Pfalz"}},{"name":"Rainstr.","postalCode":"57578","locality":"Elkenroth","municipality":{"key":"07132025","name":"Elkenroth","type":"Kreisangehörige_Gemeinde"},"district":{"key":"07132","name":"Altenkirchen (Westerwald)","type":"Landkreis"},"federalState":{"key":"07","name":"Rheinland-Pfalz"}},{"name":"Ringstr.","postalCode":"57578","locality":"Elkenroth","municipality":{"key":"07132025","name":"Elkenroth","type":"Kreisangehörige_Gemeinde"},"district":{"key":"07132","name":"Altenkirchen (Westerwald)","type":"Landkreis"},"federalState":{"key":"07","name":"Rheinland-Pfalz"}},{"name":"Rosenweg","postalCode":"57578","locality":"Elkenroth","municipality":{"key":"07132025","name":"Elkenroth","type":"Kreisangehörige_Gemeinde"},"district":{"key":"07132","name":"Altenkirchen (Westerwald)","type":"Landkreis"},"federalState":{"key":"07","name":"Rheinland-Pfalz"}},{"name":"Schmiedeweg","postalCode":"57578","locality":"Elkenroth","municipality":{"key":"07132025","name":"Elkenroth","type":"Kreisangehörige_Gemeinde"},"district":{"key":"07132","name":"Altenkirchen (Westerwald)","type":"Landkreis"},"federalState":{"key":"07","name":"Rheinland-Pfalz"}},{"name":"Schulweg","postalCode":"57578","locality":"Elkenroth","municipality":{"key":"07132025","name":"Elkenroth","type":"Kreisangehörige_Gemeinde"},"district":{"key":"07132","name":"Altenkirchen (Westerwald)","type":"Landkreis"},"federalState":{"key":"07","name":"Rheinland-Pfalz"}},{"name":"Steilweg","postalCode":"57578","locality":"Elkenroth","municipality":{"key":"07132025","name":"Elkenroth","type":"Kreisangehörige_Gemeinde"},"district":{"key":"07132","name":"Altenkirchen (Westerwald)","type":"Landkreis"},"federalState":{"key":"07","name":"Rheinland-Pfalz"}},{"name":"Steinbornstr.","postalCode":"57578","locality":"Elkenroth","municipality":{"key":"07132025","name":"Elkenroth","type":"Kreisangehörige_Gemeinde"},"district":{"key":"07132","name":"Altenkirchen (Westerwald)","type":"Landkreis"},"federalState":{"key":"07","name":"Rheinland-Pfalz"}},{"name":"Steinstr.","postalCode":"57578","locality":"Elkenroth","municipality":{"key":"07132025","name":"Elkenroth","type":"Kreisangehörige_Gemeinde"},"district":{"key":"07132","name":"Altenkirchen (Westerwald)","type":"Landkreis"},"federalState":{"key":"07","name":"Rheinland-Pfalz"}},{"name":"Struthweg","postalCode":"57578","locality":"Elkenroth","municipality":{"key":"07132025","name":"Elkenroth","type":"Kreisangehörige_Gemeinde"},"district":{"key":"07132","name":"Altenkirchen (Westerwald)","type":"Landkreis"},"federalState":{"key":"07","name":"Rheinland-Pfalz"}},{"name":"Südstr.","postalCode":"57578","locality":"Elkenroth","municipality":{"key":"07132025","name":"Elkenroth","type":"Kreisangehörige_Gemeinde"},"district":{"key":"07132","name":"Altenkirchen (Westerwald)","type":"Landkreis"},"federalState":{"key":"07","name":"Rheinland-Pfalz"}},{"name":"Wanderweg","postalCode":"57578","locality":"Elkenroth","municipality":{"key":"07132025","name":"Elkenroth","type":"Kreisangehörige_Gemeinde"},"district":{"key":"07132","name":"Altenkirchen (Westerwald)","type":"Landkreis"},"federalState":{"key":"07","name":"Rheinland-Pfalz"}},{"name":"Weiherstr.","postalCode":"57578","locality":"Elkenroth","municipality":{"key":"07132025","name":"Elkenroth","type":"Kreisangehörige_Gemeinde"},"district":{"key":"07132","name":"Altenkirchen (Westerwald)","type":"Landkreis"},"federalState":{"key":"07","name":"Rheinland-Pfalz"}},{"name":"Weitefelder Str.","postalCode":"57578","locality":"Elkenroth","municipality":{"key":"07132025","name":"Elkenroth","type":"Kreisangehörige_Gemeinde"},"district":{"key":"07132","name":"Altenkirchen (Westerwald)","type":"Landkreis"},"federalState":{"key":"07","name":"Rheinland-Pfalz"}},{"name":"Zum Seeweiher","postalCode":"57578","locality":"Elkenroth","municipality":{"key":"07132025","name":"Elkenroth","type":"Kreisangehörige_Gemeinde"},"district":{"key":"07132","name":"Altenkirchen (Westerwald)","type":"Landkreis"},"federalState":{"key":"07","name":"Rheinland-Pfalz"}},]