[{"key":"10001965","name":"Acherstrasse","postalCode":"8630","locality":"Rüti ZH","commune":{"key":"118","name":"Rüti (ZH)","shortName":"Rüti (ZH)"},"district":{"key":"105","name":"Bezirk Hinwil"},"canton":{"key":"1","code":"ZH","name":"Zürich"},"status":"Real"},{"key":"10001966","name":"Ahornweg","postalCode":"8630","locality":"Rüti ZH","commune":{"key":"118","name":"Rüti (ZH)","shortName":"Rüti (ZH)"},"district":{"key":"105","name":"Bezirk Hinwil"},"canton":{"key":"1","code":"ZH","name":"Zürich"},"status":"Real"},{"key":"10078841","name":"Alpenblickstrasse","postalCode":"8630","locality":"Rüti ZH","commune":{"key":"118","name":"Rüti (ZH)","shortName":"Rüti (ZH)"},"district":{"key":"105","name":"Bezirk Hinwil"},"canton":{"key":"1","code":"ZH","name":"Zürich"},"status":"Real"},{"key":"10001967","name":"Alpenstrasse","postalCode":"8630","locality":"Rüti ZH","commune":{"key":"118","name":"Rüti (ZH)","shortName":"Rüti (ZH)"},"district":{"key":"105","name":"Bezirk Hinwil"},"canton":{"key":"1","code":"ZH","name":"Zürich"},"status":"Real"},{"key":"10060948","name":"Alt-Ferrachstrasse","postalCode":"8630","locality":"Rüti ZH","commune":{"key":"118","name":"Rüti (ZH)","shortName":"Rüti (ZH)"},"district":{"key":"105","name":"Bezirk Hinwil"},"canton":{"key":"1","code":"ZH","name":"Zürich"},"status":"Real"},{"key":"10001968","name":"Amthofstrasse","postalCode":"8630","locality":"Rüti ZH","commune":{"key":"118","name":"Rüti (ZH)","shortName":"Rüti (ZH)"},"district":{"key":"105","name":"Bezirk Hinwil"},"canton":{"key":"1","code":"ZH","name":"Zürich"},"status":"Real"},{"key":"10001969","name":"Aubrigstrasse","postalCode":"8630","locality":"Rüti ZH","commune":{"key":"118","name":"Rüti (ZH)","shortName":"Rüti (ZH)"},"district":{"key":"105","name":"Bezirk Hinwil"},"canton":{"key":"1","code":"ZH","name":"Zürich"},"status":"Real"},{"key":"10079106","name":"Bachtelstrasse","postalCode":"8630","locality":"Rüti ZH","commune":{"key":"118","name":"Rüti (ZH)","shortName":"Rüti (ZH)"},"district":{"key":"105","name":"Bezirk Hinwil"},"canton":{"key":"1","code":"ZH","name":"Zürich"},"status":"Real"},{"key":"10126321","name":"Bäckerstrasse","postalCode":"8630","locality":"Rüti ZH","commune":{"key":"118","name":"Rüti (ZH)","shortName":"Rüti (ZH)"},"district":{"key":"105","name":"Bezirk Hinwil"},"canton":{"key":"1","code":"ZH","name":"Zürich"},"status":"Real"},{"key":"10001970","name":"Bahnhofstrasse","postalCode":"8630","locality":"Rüti ZH","commune":{"key":"118","name":"Rüti (ZH)","shortName":"Rüti (ZH)"},"district":{"key":"105","name":"Bezirk Hinwil"},"canton":{"key":"1","code":"ZH","name":"Zürich"},"status":"Real"},{"key":"10109257","name":"Bahnweg","postalCode":"8630","locality":"Rüti ZH","commune":{"key":"118","name":"Rüti (ZH)","shortName":"Rüti (ZH)"},"district":{"key":"105","name":"Bezirk Hinwil"},"canton":{"key":"1","code":"ZH","name":"Zürich"},"status":"Real"},{"key":"10060949","name":"Bandwiesstrasse","postalCode":"8630","locality":"Rüti ZH","commune":{"key":"118","name":"Rüti (ZH)","shortName":"Rüti (ZH)"},"district":{"key":"105","name":"Bezirk Hinwil"},"canton":{"key":"1","code":"ZH","name":"Zürich"},"status":"Real"},{"key":"10079107","name":"Barenbergstrasse","postalCode":"8630","locality":"Rüti ZH","commune":{"key":"118","name":"Rüti (ZH)","shortName":"Rüti (ZH)"},"district":{"key":"105","name":"Bezirk Hinwil"},"canton":{"key":"1","code":"ZH","name":"Zürich"},"status":"Real"},{"key":"10113251","name":"Batzbergstrasse","postalCode":"8630","locality":"Rüti ZH","commune":{"key":"118","name":"Rüti (ZH)","shortName":"Rüti (ZH)"},"district":{"key":"105","name":"Bezirk Hinwil"},"canton":{"key":"1","code":"ZH","name":"Zürich"},"status":"Real"},{"key":"10151571","name":"Batzbergweg","postalCode":"8630","locality":"Rüti ZH","commune":{"key":"118","name":"Rüti (ZH)","shortName":"Rüti (ZH)"},"district":{"key":"105","name":"Bezirk Hinwil"},"canton":{"key":"1","code":"ZH","name":"Zürich"},"status":"Real"},{"key":"10001971","name":"Bauhofstrasse","postalCode":"8630","locality":"Rüti ZH","commune":{"key":"118","name":"Rüti (ZH)","shortName":"Rüti (ZH)"},"district":{"key":"105","name":"Bezirk Hinwil"},"canton":{"key":"1","code":"ZH","name":"Zürich"},"status":"Real"},{"key":"10003659","name":"Begonienstrasse","postalCode":"8630","locality":"Rüti ZH","commune":{"key":"118","name":"Rüti (ZH)","shortName":"Rüti (ZH)"},"district":{"key":"105","name":"Bezirk Hinwil"},"canton":{"key":"1","code":"ZH","name":"Zürich"},"status":"Real"},{"key":"10060950","name":"Bergacherstrasse","postalCode":"8630","locality":"Rüti ZH","commune":{"key":"118","name":"Rüti (ZH)","shortName":"Rüti (ZH)"},"district":{"key":"105","name":"Bezirk Hinwil"},"canton":{"key":"1","code":"ZH","name":"Zürich"},"status":"Real"},{"key":"10079108","name":"Bergacherweg","postalCode":"8630","locality":"Rüti ZH","commune":{"key":"118","name":"Rüti (ZH)","shortName":"Rüti (ZH)"},"district":{"key":"105","name":"Bezirk Hinwil"},"canton":{"key":"1","code":"ZH","name":"Zürich"},"status":"Real"},{"key":"10003660","name":"Bergblickstrasse","postalCode":"8630","locality":"Rüti ZH","commune":{"key":"118","name":"Rüti (ZH)","shortName":"Rüti (ZH)"},"district":{"key":"105","name":"Bezirk Hinwil"},"canton":{"key":"1","code":"ZH","name":"Zürich"},"status":"Real"},{"key":"10003661","name":"Berghofstrasse","postalCode":"8630","locality":"Rüti ZH","commune":{"key":"118","name":"Rüti (ZH)","shortName":"Rüti (ZH)"},"district":{"key":"105","name":"Bezirk Hinwil"},"canton":{"key":"1","code":"ZH","name":"Zürich"},"status":"Real"},{"key":"10079109","name":"Berghofweg","postalCode":"8630","locality":"Rüti ZH","commune":{"key":"118","name":"Rüti (ZH)","shortName":"Rüti (ZH)"},"district":{"key":"105","name":"Bezirk Hinwil"},"canton":{"key":"1","code":"ZH","name":"Zürich"},"status":"Real"},{"key":"10003662","name":"Bergli","postalCode":"8630","locality":"Rüti ZH","commune":{"key":"118","name":"Rüti (ZH)","shortName":"Rüti (ZH)"},"district":{"key":"105","name":"Bezirk Hinwil"},"canton":{"key":"1","code":"ZH","name":"Zürich"},"status":"Real"},{"key":"10060951","name":"Bergstrasse","postalCode":"8630","locality":"Rüti ZH","commune":{"key":"118","name":"Rüti (ZH)","shortName":"Rüti (ZH)"},"district":{"key":"105","name":"Bezirk Hinwil"},"canton":{"key":"1","code":"ZH","name":"Zürich"},"status":"Real"},{"key":"10109258","name":"Breitenhofstrasse","postalCode":"8630","locality":"Rüti ZH","commune":{"key":"118","name":"Rüti (ZH)","shortName":"Rüti (ZH)"},"district":{"key":"105","name":"Bezirk Hinwil"},"canton":{"key":"1","code":"ZH","name":"Zürich"},"status":"Real"},{"key":"10003663","name":"Buechstrasse","postalCode":"8630","locality":"Rüti ZH","commune":{"key":"118","name":"Rüti (ZH)","shortName":"Rüti (ZH)"},"district":{"key":"105","name":"Bezirk Hinwil"},"canton":{"key":"1","code":"ZH","name":"Zürich"},"status":"Real"},{"key":"10052207","name":"Büel","postalCode":"8630","locality":"Rüti ZH","commune":{"key":"118","name":"Rüti (ZH)","shortName":"Rüti (ZH)"},"district":{"key":"105","name":"Bezirk Hinwil"},"canton":{"key":"1","code":"ZH","name":"Zürich"},"status":"Real"},{"key":"10126322","name":"Burgweg","postalCode":"8630","locality":"Rüti ZH","commune":{"key":"118","name":"Rüti (ZH)","shortName":"Rüti (ZH)"},"district":{"key":"105","name":"Bezirk Hinwil"},"canton":{"key":"1","code":"ZH","name":"Zürich"},"status":"Real"},{"key":"10117554","name":"Caspar-Honegger-Strasse","postalCode":"8630","locality":"Rüti ZH","commune":{"key":"118","name":"Rüti (ZH)","shortName":"Rüti (ZH)"},"district":{"key":"105","name":"Bezirk Hinwil"},"canton":{"key":"1","code":"ZH","name":"Zürich"},"status":"Real"},{"key":"10003680","name":"Chüeweid","postalCode":"8630","locality":"Rüti ZH","commune":{"key":"118","name":"Rüti (ZH)","shortName":"Rüti (ZH)"},"district":{"key":"105","name":"Bezirk Hinwil"},"canton":{"key":"1","code":"ZH","name":"Zürich"},"status":"Real"},{"key":"10003664","name":"Claridenstrasse","postalCode":"8630","locality":"Rüti ZH","commune":{"key":"118","name":"Rüti (ZH)","shortName":"Rüti (ZH)"},"district":{"key":"105","name":"Bezirk Hinwil"},"canton":{"key":"1","code":"ZH","name":"Zürich"},"status":"Real"},{"key":"10121782","name":"Dachseggstrasse","postalCode":"8630","locality":"Rüti ZH","commune":{"key":"118","name":"Rüti (ZH)","shortName":"Rüti (ZH)"},"district":{"key":"105","name":"Bezirk Hinwil"},"canton":{"key":"1","code":"ZH","name":"Zürich"},"status":"Real"},{"key":"10060952","name":"Dorfstrasse","postalCode":"8630","locality":"Rüti ZH","commune":{"key":"118","name":"Rüti (ZH)","shortName":"Rüti (ZH)"},"district":{"key":"105","name":"Bezirk Hinwil"},"canton":{"key":"1","code":"ZH","name":"Zürich"},"status":"Real"},{"key":"10003665","name":"Drei Eichen","postalCode":"8630","locality":"Rüti ZH","commune":{"key":"118","name":"Rüti (ZH)","shortName":"Rüti (ZH)"},"district":{"key":"105","name":"Bezirk Hinwil"},"canton":{"key":"1","code":"ZH","name":"Zürich"},"status":"Real"},{"key":"10079110","name":"Eichwiesstrasse","postalCode":"8630","locality":"Rüti ZH","commune":{"key":"118","name":"Rüti (ZH)","shortName":"Rüti (ZH)"},"district":{"key":"105","name":"Bezirk Hinwil"},"canton":{"key":"1","code":"ZH","name":"Zürich"},"status":"Real"},{"key":"10003666","name":"Eichwiesweg","postalCode":"8630","locality":"Rüti ZH","commune":{"key":"118","name":"Rüti (ZH)","shortName":"Rüti (ZH)"},"district":{"key":"105","name":"Bezirk Hinwil"},"canton":{"key":"1","code":"ZH","name":"Zürich"},"status":"Real"},{"key":"10060953","name":"Eschenbacherstrasse","postalCode":"8630","locality":"Rüti ZH","commune":{"key":"118","name":"Rüti (ZH)","shortName":"Rüti (ZH)"},"district":{"key":"105","name":"Bezirk Hinwil"},"canton":{"key":"1","code":"ZH","name":"Zürich"},"status":"Real"},{"key":"10003667","name":"Eschenmattstrasse","postalCode":"8630","locality":"Rüti ZH","commune":{"key":"118","name":"Rüti (ZH)","shortName":"Rüti (ZH)"},"district":{"key":"105","name":"Bezirk Hinwil"},"canton":{"key":"1","code":"ZH","name":"Zürich"},"status":"Real"},{"key":"10079111","name":"Eschenmattweg","postalCode":"8630","locality":"Rüti ZH","commune":{"key":"118","name":"Rüti (ZH)","shortName":"Rüti (ZH)"},"district":{"key":"105","name":"Bezirk Hinwil"},"canton":{"key":"1","code":"ZH","name":"Zürich"},"status":"Real"},{"key":"10003668","name":"Etzelstrasse","postalCode":"8630","locality":"Rüti ZH","commune":{"key":"118","name":"Rüti (ZH)","shortName":"Rüti (ZH)"},"district":{"key":"105","name":"Bezirk Hinwil"},"canton":{"key":"1","code":"ZH","name":"Zürich"},"status":"Real"},{"key":"10003671","name":"Fägswilerstrasse","postalCode":"8630","locality":"Rüti ZH","commune":{"key":"118","name":"Rüti (ZH)","shortName":"Rüti (ZH)"},"district":{"key":"105","name":"Bezirk Hinwil"},"canton":{"key":"1","code":"ZH","name":"Zürich"},"status":"Real"},{"key":"10003669","name":"Falkenstrasse","postalCode":"8630","locality":"Rüti ZH","commune":{"key":"118","name":"Rüti (ZH)","shortName":"Rüti (ZH)"},"district":{"key":"105","name":"Bezirk Hinwil"},"canton":{"key":"1","code":"ZH","name":"Zürich"},"status":"Real"},{"key":"10109259","name":"Feienstrasse","postalCode":"8630","locality":"Rüti ZH","commune":{"key":"118","name":"Rüti (ZH)","shortName":"Rüti (ZH)"},"district":{"key":"105","name":"Bezirk Hinwil"},"canton":{"key":"1","code":"ZH","name":"Zürich"},"status":"Real"},{"key":"10079112","name":"Feienweg","postalCode":"8630","locality":"Rüti ZH","commune":{"key":"118","name":"Rüti (ZH)","shortName":"Rüti (ZH)"},"district":{"key":"105","name":"Bezirk Hinwil"},"canton":{"key":"1","code":"ZH","name":"Zürich"},"status":"Real"},{"key":"10189908","name":"Ferrachstrasse","postalCode":"8630","locality":"Rüti ZH","commune":{"key":"118","name":"Rüti (ZH)","shortName":"Rüti (ZH)"},"district":{"key":"105","name":"Bezirk Hinwil"},"canton":{"key":"1","code":"ZH","name":"Zürich"},"status":"Real"},{"key":"10148570","name":"Friedeggstrasse","postalCode":"8630","locality":"Rüti ZH","commune":{"key":"118","name":"Rüti (ZH)","shortName":"Rüti (ZH)"},"district":{"key":"105","name":"Bezirk Hinwil"},"canton":{"key":"1","code":"ZH","name":"Zürich"},"status":"Real"},{"key":"10003670","name":"Friedhofstrasse","postalCode":"8630","locality":"Rüti ZH","commune":{"key":"118","name":"Rüti (ZH)","shortName":"Rüti (ZH)"},"district":{"key":"105","name":"Bezirk Hinwil"},"canton":{"key":"1","code":"ZH","name":"Zürich"},"status":"Real"},{"key":"10113252","name":"Frohberg","postalCode":"8630","locality":"Rüti ZH","commune":{"key":"118","name":"Rüti (ZH)","shortName":"Rüti (ZH)"},"district":{"key":"105","name":"Bezirk Hinwil"},"canton":{"key":"1","code":"ZH","name":"Zürich"},"status":"Real"},{"key":"10079113","name":"Frohwiesstrasse","postalCode":"8630","locality":"Rüti ZH","commune":{"key":"118","name":"Rüti (ZH)","shortName":"Rüti (ZH)"},"district":{"key":"105","name":"Bezirk Hinwil"},"canton":{"key":"1","code":"ZH","name":"Zürich"},"status":"Real"},{"key":"10060954","name":"Gartenstrasse","postalCode":"8630","locality":"Rüti ZH","commune":{"key":"118","name":"Rüti (ZH)","shortName":"Rüti (ZH)"},"district":{"key":"105","name":"Bezirk Hinwil"},"canton":{"key":"1","code":"ZH","name":"Zürich"},"status":"Real"},{"key":"10127960","name":"Gmeindrütistrasse","postalCode":"8630","locality":"Rüti ZH","commune":{"key":"118","name":"Rüti (ZH)","shortName":"Rüti (ZH)"},"district":{"key":"105","name":"Bezirk Hinwil"},"canton":{"key":"1","code":"ZH","name":"Zürich"},"status":"Real"},{"key":"10079114","name":"Goldbachstrasse","postalCode":"8630","locality":"Rüti ZH","commune":{"key":"118","name":"Rüti (ZH)","shortName":"Rüti (ZH)"},"district":{"key":"105","name":"Bezirk Hinwil"},"canton":{"key":"1","code":"ZH","name":"Zürich"},"status":"Real"},{"key":"10133457","name":"Grafstrasse","postalCode":"8630","locality":"Rüti ZH","commune":{"key":"118","name":"Rüti (ZH)","shortName":"Rüti (ZH)"},"district":{"key":"105","name":"Bezirk Hinwil"},"canton":{"key":"1","code":"ZH","name":"Zürich"},"status":"Real"},{"key":"10242347","name":"Grossacherweg","postalCode":"8630","locality":"Rüti ZH","commune":{"key":"118","name":"Rüti (ZH)","shortName":"Rüti (ZH)"},"district":{"key":"105","name":"Bezirk Hinwil"},"canton":{"key":"1","code":"ZH","name":"Zürich"},"status":"Real"},{"key":"10148571","name":"Gruebenplatz","postalCode":"8630","locality":"Rüti ZH","commune":{"key":"118","name":"Rüti (ZH)","shortName":"Rüti (ZH)"},"district":{"key":"105","name":"Bezirk Hinwil"},"canton":{"key":"1","code":"ZH","name":"Zürich"},"status":"Real"},{"key":"10052208","name":"Gruebensteg","postalCode":"8630","locality":"Rüti ZH","commune":{"key":"118","name":"Rüti (ZH)","shortName":"Rüti (ZH)"},"district":{"key":"105","name":"Bezirk Hinwil"},"canton":{"key":"1","code":"ZH","name":"Zürich"},"status":"Real"},{"key":"10125614","name":"Gubelhöhe","postalCode":"8630","locality":"Rüti ZH","commune":{"key":"118","name":"Rüti (ZH)","shortName":"Rüti (ZH)"},"district":{"key":"105","name":"Bezirk Hinwil"},"canton":{"key":"1","code":"ZH","name":"Zürich"},"status":"Real"},{"key":"10060955","name":"Gubelstrasse","postalCode":"8630","locality":"Rüti ZH","commune":{"key":"118","name":"Rüti (ZH)","shortName":"Rüti (ZH)"},"district":{"key":"105","name":"Bezirk Hinwil"},"canton":{"key":"1","code":"ZH","name":"Zürich"},"status":"Real"},{"key":"10003672","name":"Haldengutstrasse","postalCode":"8630","locality":"Rüti ZH","commune":{"key":"118","name":"Rüti (ZH)","shortName":"Rüti (ZH)"},"district":{"key":"105","name":"Bezirk Hinwil"},"canton":{"key":"1","code":"ZH","name":"Zürich"},"status":"Real"},{"key":"10079115","name":"Haltbergstrasse","postalCode":"8630","locality":"Rüti ZH","commune":{"key":"118","name":"Rüti (ZH)","shortName":"Rüti (ZH)"},"district":{"key":"105","name":"Bezirk Hinwil"},"canton":{"key":"1","code":"ZH","name":"Zürich"},"status":"Real"},{"key":"10146163","name":"Härtiplatz","postalCode":"8630","locality":"Rüti ZH","commune":{"key":"118","name":"Rüti (ZH)","shortName":"Rüti (ZH)"},"district":{"key":"105","name":"Bezirk Hinwil"},"canton":{"key":"1","code":"ZH","name":"Zürich"},"status":"Real"},{"key":"10146164","name":"Hauptstrasse","postalCode":"8630","locality":"Rüti ZH","commune":{"key":"118","name":"Rüti (ZH)","shortName":"Rüti (ZH)"},"district":{"key":"105","name":"Bezirk Hinwil"},"canton":{"key":"1","code":"ZH","name":"Zürich"},"status":"Real"},{"key":"10003673","name":"Hintergasse","postalCode":"8630","locality":"Rüti ZH","commune":{"key":"118","name":"Rüti (ZH)","shortName":"Rüti (ZH)"},"district":{"key":"105","name":"Bezirk Hinwil"},"canton":{"key":"1","code":"ZH","name":"Zürich"},"status":"Real"},{"key":"10109260","name":"Hirschenstrasse","postalCode":"8630","locality":"Rüti ZH","commune":{"key":"118","name":"Rüti (ZH)","shortName":"Rüti (ZH)"},"district":{"key":"105","name":"Bezirk Hinwil"},"canton":{"key":"1","code":"ZH","name":"Zürich"},"status":"Real"},{"key":"10060956","name":"Hofacher","postalCode":"8630","locality":"Rüti ZH","commune":{"key":"118","name":"Rüti (ZH)","shortName":"Rüti (ZH)"},"district":{"key":"105","name":"Bezirk Hinwil"},"canton":{"key":"1","code":"ZH","name":"Zürich"},"status":"Real"},{"key":"10003674","name":"Hofwiesenstrasse","postalCode":"8630","locality":"Rüti ZH","commune":{"key":"118","name":"Rüti (ZH)","shortName":"Rüti (ZH)"},"district":{"key":"105","name":"Bezirk Hinwil"},"canton":{"key":"1","code":"ZH","name":"Zürich"},"status":"Real"},{"key":"10079116","name":"Honeggrainstrasse","postalCode":"8630","locality":"Rüti ZH","commune":{"key":"118","name":"Rüti (ZH)","shortName":"Rüti (ZH)"},"district":{"key":"105","name":"Bezirk Hinwil"},"canton":{"key":"1","code":"ZH","name":"Zürich"},"status":"Real"},{"key":"10003675","name":"Hosberg","postalCode":"8630","locality":"Rüti ZH","commune":{"key":"118","name":"Rüti (ZH)","shortName":"Rüti (ZH)"},"district":{"key":"105","name":"Bezirk Hinwil"},"canton":{"key":"1","code":"ZH","name":"Zürich"},"status":"Real"},{"key":"10060957","name":"Hüllistein","postalCode":"8630","locality":"Rüti ZH","commune":{"key":"118","name":"Rüti (ZH)","shortName":"Rüti (ZH)"},"district":{"key":"105","name":"Bezirk Hinwil"},"canton":{"key":"1","code":"ZH","name":"Zürich"},"status":"Real"},{"key":"10003676","name":"Im Chlaus","postalCode":"8630","locality":"Rüti ZH","commune":{"key":"118","name":"Rüti (ZH)","shortName":"Rüti (ZH)"},"district":{"key":"105","name":"Bezirk Hinwil"},"canton":{"key":"1","code":"ZH","name":"Zürich"},"status":"Real"},{"key":"10113253","name":"Im Gubel","postalCode":"8630","locality":"Rüti ZH","commune":{"key":"118","name":"Rüti (ZH)","shortName":"Rüti (ZH)"},"district":{"key":"105","name":"Bezirk Hinwil"},"canton":{"key":"1","code":"ZH","name":"Zürich"},"status":"Real"},{"key":"10060958","name":"Im Niggitalring","postalCode":"8630","locality":"Rüti ZH","commune":{"key":"118","name":"Rüti (ZH)","shortName":"Rüti (ZH)"},"district":{"key":"105","name":"Bezirk Hinwil"},"canton":{"key":"1","code":"ZH","name":"Zürich"},"status":"Real"},{"key":"10003677","name":"Inselweg","postalCode":"8630","locality":"Rüti ZH","commune":{"key":"118","name":"Rüti (ZH)","shortName":"Rüti (ZH)"},"district":{"key":"105","name":"Bezirk Hinwil"},"canton":{"key":"1","code":"ZH","name":"Zürich"},"status":"Real"},{"key":"10055905","name":"Joweidstrasse","postalCode":"8630","locality":"Rüti ZH","commune":{"key":"118","name":"Rüti (ZH)","shortName":"Rüti (ZH)"},"district":{"key":"105","name":"Bezirk Hinwil"},"canton":{"key":"1","code":"ZH","name":"Zürich"},"status":"Real"},{"key":"10127611","name":"Joweid Zentrum","postalCode":"8630","locality":"Rüti ZH","commune":{"key":"118","name":"Rüti (ZH)","shortName":"Rüti (ZH)"},"district":{"key":"105","name":"Bezirk Hinwil"},"canton":{"key":"1","code":"ZH","name":"Zürich"},"status":"Real"},{"key":"10127487","name":"Joweid-Zentrum","postalCode":"8630","locality":"Rüti ZH","commune":{"key":"118","name":"Rüti (ZH)","shortName":"Rüti (ZH)"},"district":{"key":"105","name":"Bezirk Hinwil"},"canton":{"key":"1","code":"ZH","name":"Zürich"},"status":"Real"},{"key":"10079117","name":"Kehrwiesenstrasse","postalCode":"8630","locality":"Rüti ZH","commune":{"key":"118","name":"Rüti (ZH)","shortName":"Rüti (ZH)"},"district":{"key":"105","name":"Bezirk Hinwil"},"canton":{"key":"1","code":"ZH","name":"Zürich"},"status":"Real"},{"key":"10003678","name":"Klosterhof","postalCode":"8630","locality":"Rüti ZH","commune":{"key":"118","name":"Rüti (ZH)","shortName":"Rüti (ZH)"},"district":{"key":"105","name":"Bezirk Hinwil"},"canton":{"key":"1","code":"ZH","name":"Zürich"},"status":"Real"},{"key":"10060959","name":"Knechtacherstrasse","postalCode":"8630","locality":"Rüti ZH","commune":{"key":"118","name":"Rüti (ZH)","shortName":"Rüti (ZH)"},"district":{"key":"105","name":"Bezirk Hinwil"},"canton":{"key":"1","code":"ZH","name":"Zürich"},"status":"Real"},{"key":"10003679","name":"Konsumstrasse","postalCode":"8630","locality":"Rüti ZH","commune":{"key":"118","name":"Rüti (ZH)","shortName":"Rüti (ZH)"},"district":{"key":"105","name":"Bezirk Hinwil"},"canton":{"key":"1","code":"ZH","name":"Zürich"},"status":"Real"},{"key":"10146165","name":"Krematoriumstrasse","postalCode":"8630","locality":"Rüti ZH","commune":{"key":"118","name":"Rüti (ZH)","shortName":"Rüti (ZH)"},"district":{"key":"105","name":"Bezirk Hinwil"},"canton":{"key":"1","code":"ZH","name":"Zürich"},"status":"Real"},{"key":"10055906","name":"Kühweidstrasse","postalCode":"8630","locality":"Rüti ZH","commune":{"key":"118","name":"Rüti (ZH)","shortName":"Rüti (ZH)"},"district":{"key":"105","name":"Bezirk Hinwil"},"canton":{"key":"1","code":"ZH","name":"Zürich"},"status":"Real"},{"key":"10109261","name":"Langacher","postalCode":"8630","locality":"Rüti ZH","commune":{"key":"118","name":"Rüti (ZH)","shortName":"Rüti (ZH)"},"district":{"key":"105","name":"Bezirk Hinwil"},"canton":{"key":"1","code":"ZH","name":"Zürich"},"status":"Real"},{"key":"10058895","name":"Langacker","postalCode":"8630","locality":"Rüti ZH","commune":{"key":"118","name":"Rüti (ZH)","shortName":"Rüti (ZH)"},"district":{"key":"105","name":"Bezirk Hinwil"},"canton":{"key":"1","code":"ZH","name":"Zürich"},"status":"Real"},{"key":"10125615","name":"Laufenbach","postalCode":"8630","locality":"Rüti ZH","commune":{"key":"118","name":"Rüti (ZH)","shortName":"Rüti (ZH)"},"district":{"key":"105","name":"Bezirk Hinwil"},"canton":{"key":"1","code":"ZH","name":"Zürich"},"status":"Real"},{"key":"10060960","name":"Lindenbergstrasse","postalCode":"8630","locality":"Rüti ZH","commune":{"key":"118","name":"Rüti (ZH)","shortName":"Rüti (ZH)"},"district":{"key":"105","name":"Bezirk Hinwil"},"canton":{"key":"1","code":"ZH","name":"Zürich"},"status":"Real"},{"key":"10055907","name":"Lindenbergweg","postalCode":"8630","locality":"Rüti ZH","commune":{"key":"118","name":"Rüti (ZH)","shortName":"Rüti (ZH)"},"district":{"key":"105","name":"Bezirk Hinwil"},"canton":{"key":"1","code":"ZH","name":"Zürich"},"status":"Real"},{"key":"10003681","name":"Lochacher","postalCode":"8630","locality":"Rüti ZH","commune":{"key":"118","name":"Rüti (ZH)","shortName":"Rüti (ZH)"},"district":{"key":"105","name":"Bezirk Hinwil"},"canton":{"key":"1","code":"ZH","name":"Zürich"},"status":"Real"},{"key":"10162001","name":"Lorenwäldlistrasse","postalCode":"8630","locality":"Rüti ZH","commune":{"key":"118","name":"Rüti (ZH)","shortName":"Rüti (ZH)"},"district":{"key":"105","name":"Bezirk Hinwil"},"canton":{"key":"1","code":"ZH","name":"Zürich"},"status":"Real"},{"key":"10000082","name":"Lorenweg","postalCode":"8630","locality":"Rüti ZH","commune":{"key":"118","name":"Rüti (ZH)","shortName":"Rüti (ZH)"},"district":{"key":"105","name":"Bezirk Hinwil"},"canton":{"key":"1","code":"ZH","name":"Zürich"},"status":"Real"},{"key":"10151572","name":"Löwenplatz","postalCode":"8630","locality":"Rüti ZH","commune":{"key":"118","name":"Rüti (ZH)","shortName":"Rüti (ZH)"},"district":{"key":"105","name":"Bezirk Hinwil"},"canton":{"key":"1","code":"ZH","name":"Zürich"},"status":"Real"},{"key":"10000083","name":"Matten","postalCode":"8630","locality":"Rüti ZH","commune":{"key":"118","name":"Rüti (ZH)","shortName":"Rüti (ZH)"},"district":{"key":"105","name":"Bezirk Hinwil"},"canton":{"key":"1","code":"ZH","name":"Zürich"},"status":"Real"},{"key":"10113254","name":"Moos","postalCode":"8630","locality":"Rüti ZH","commune":{"key":"118","name":"Rüti (ZH)","shortName":"Rüti (ZH)"},"district":{"key":"105","name":"Bezirk Hinwil"},"canton":{"key":"1","code":"ZH","name":"Zürich"},"status":"Real"},{"key":"10180217","name":"Moosstrasse","postalCode":"8630","locality":"Rüti ZH","commune":{"key":"118","name":"Rüti (ZH)","shortName":"Rüti (ZH)"},"district":{"key":"105","name":"Bezirk Hinwil"},"canton":{"key":"1","code":"ZH","name":"Zürich"},"status":"Real"},{"key":"10079118","name":"Mürtschenstrasse","postalCode":"8630","locality":"Rüti ZH","commune":{"key":"118","name":"Rüti (ZH)","shortName":"Rüti (ZH)"},"district":{"key":"105","name":"Bezirk Hinwil"},"canton":{"key":"1","code":"ZH","name":"Zürich"},"status":"Real"},{"key":"10000084","name":"Nauengüetli","postalCode":"8630","locality":"Rüti ZH","commune":{"key":"118","name":"Rüti (ZH)","shortName":"Rüti (ZH)"},"district":{"key":"105","name":"Bezirk Hinwil"},"canton":{"key":"1","code":"ZH","name":"Zürich"},"status":"Real"},{"key":"10060961","name":"Neuguetstrasse","postalCode":"8630","locality":"Rüti ZH","commune":{"key":"118","name":"Rüti (ZH)","shortName":"Rüti (ZH)"},"district":{"key":"105","name":"Bezirk Hinwil"},"canton":{"key":"1","code":"ZH","name":"Zürich"},"status":"Real"},{"key":"10055908","name":"Neuguetweg","postalCode":"8630","locality":"Rüti ZH","commune":{"key":"118","name":"Rüti (ZH)","shortName":"Rüti (ZH)"},"district":{"key":"105","name":"Bezirk Hinwil"},"canton":{"key":"1","code":"ZH","name":"Zürich"},"status":"Real"},{"key":"10079119","name":"Neuhofstrasse","postalCode":"8630","locality":"Rüti ZH","commune":{"key":"118","name":"Rüti (ZH)","shortName":"Rüti (ZH)"},"district":{"key":"105","name":"Bezirk Hinwil"},"canton":{"key":"1","code":"ZH","name":"Zürich"},"status":"Real"},{"key":"10000086","name":"Neuhusstrasse","postalCode":"8630","locality":"Rüti ZH","commune":{"key":"118","name":"Rüti (ZH)","shortName":"Rüti (ZH)"},"district":{"key":"105","name":"Bezirk Hinwil"},"canton":{"key":"1","code":"ZH","name":"Zürich"},"status":"Real"},{"key":"10153126","name":"Neuhusweg","postalCode":"8630","locality":"Rüti ZH","commune":{"key":"118","name":"Rüti (ZH)","shortName":"Rüti (ZH)"},"district":{"key":"105","name":"Bezirk Hinwil"},"canton":{"key":"1","code":"ZH","name":"Zürich"},"status":"Real"},{"key":"10055909","name":"Neuwiesenstrasse","postalCode":"8630","locality":"Rüti ZH","commune":{"key":"118","name":"Rüti (ZH)","shortName":"Rüti (ZH)"},"district":{"key":"105","name":"Bezirk Hinwil"},"canton":{"key":"1","code":"ZH","name":"Zürich"},"status":"Real"},{"key":"10169304","name":"Neu York","postalCode":"8630","locality":"Rüti ZH","commune":{"key":"118","name":"Rüti (ZH)","shortName":"Rüti (ZH)"},"district":{"key":"105","name":"Bezirk Hinwil"},"canton":{"key":"1","code":"ZH","name":"Zürich"},"status":"Real"},{"key":"10098156","name":"Neu Yorkstrasse","postalCode":"8630","locality":"Rüti ZH","commune":{"key":"118","name":"Rüti (ZH)","shortName":"Rüti (ZH)"},"district":{"key":"105","name":"Bezirk Hinwil"},"canton":{"key":"1","code":"ZH","name":"Zürich"},"status":"Real"},{"key":"10000085","name":"Neu Yorkweg","postalCode":"8630","locality":"Rüti ZH","commune":{"key":"118","name":"Rüti (ZH)","shortName":"Rüti (ZH)"},"district":{"key":"105","name":"Bezirk Hinwil"},"canton":{"key":"1","code":"ZH","name":"Zürich"},"status":"Real"},{"key":"10000087","name":"Niggitalrain","postalCode":"8630","locality":"Rüti ZH","commune":{"key":"118","name":"Rüti (ZH)","shortName":"Rüti (ZH)"},"district":{"key":"105","name":"Bezirk Hinwil"},"canton":{"key":"1","code":"ZH","name":"Zürich"},"status":"Real"},{"key":"10189909","name":"Niggitalstrasse","postalCode":"8630","locality":"Rüti ZH","commune":{"key":"118","name":"Rüti (ZH)","shortName":"Rüti (ZH)"},"district":{"key":"105","name":"Bezirk Hinwil"},"canton":{"key":"1","code":"ZH","name":"Zürich"},"status":"Real"},{"key":"10190608","name":"Niggitalweg","postalCode":"8630","locality":"Rüti ZH","commune":{"key":"118","name":"Rüti (ZH)","shortName":"Rüti (ZH)"},"district":{"key":"105","name":"Bezirk Hinwil"},"canton":{"key":"1","code":"ZH","name":"Zürich"},"status":"Real"},{"key":"10151573","name":"Niggitalweidholzweg","postalCode":"8630","locality":"Rüti ZH","commune":{"key":"118","name":"Rüti (ZH)","shortName":"Rüti (ZH)"},"district":{"key":"105","name":"Bezirk Hinwil"},"canton":{"key":"1","code":"ZH","name":"Zürich"},"status":"Real"},{"key":"10000088","name":"Oberhaltberg","postalCode":"8630","locality":"Rüti ZH","commune":{"key":"118","name":"Rüti (ZH)","shortName":"Rüti (ZH)"},"district":{"key":"105","name":"Bezirk Hinwil"},"canton":{"key":"1","code":"ZH","name":"Zürich"},"status":"Real"},{"key":"10132199","name":"Ober Moos","postalCode":"8630","locality":"Rüti ZH","commune":{"key":"118","name":"Rüti (ZH)","shortName":"Rüti (ZH)"},"district":{"key":"105","name":"Bezirk Hinwil"},"canton":{"key":"1","code":"ZH","name":"Zürich"},"status":"Real"},{"key":"10109262","name":"Oberwis","postalCode":"8630","locality":"Rüti ZH","commune":{"key":"118","name":"Rüti (ZH)","shortName":"Rüti (ZH)"},"district":{"key":"105","name":"Bezirk Hinwil"},"canton":{"key":"1","code":"ZH","name":"Zürich"},"status":"Real"},{"key":"10148572","name":"Pfauenplatz","postalCode":"8630","locality":"Rüti ZH","commune":{"key":"118","name":"Rüti (ZH)","shortName":"Rüti (ZH)"},"district":{"key":"105","name":"Bezirk Hinwil"},"canton":{"key":"1","code":"ZH","name":"Zürich"},"status":"Real"},{"key":"10060962","name":"Platten","postalCode":"8630","locality":"Rüti ZH","commune":{"key":"118","name":"Rüti (ZH)","shortName":"Rüti (ZH)"},"district":{"key":"105","name":"Bezirk Hinwil"},"canton":{"key":"1","code":"ZH","name":"Zürich"},"status":"Real"},{"key":"10125616","name":"Rain","postalCode":"8630","locality":"Rüti ZH","commune":{"key":"118","name":"Rüti (ZH)","shortName":"Rüti (ZH)"},"district":{"key":"105","name":"Bezirk Hinwil"},"canton":{"key":"1","code":"ZH","name":"Zürich"},"status":"Real"},{"key":"10079120","name":"Rapperswilerstrasse","postalCode":"8630","locality":"Rüti ZH","commune":{"key":"118","name":"Rüti (ZH)","shortName":"Rüti (ZH)"},"district":{"key":"105","name":"Bezirk Hinwil"},"canton":{"key":"1","code":"ZH","name":"Zürich"},"status":"Real"},{"key":"10148573","name":"Riederen","postalCode":"8630","locality":"Rüti ZH","commune":{"key":"118","name":"Rüti (ZH)","shortName":"Rüti (ZH)"},"district":{"key":"105","name":"Bezirk Hinwil"},"canton":{"key":"1","code":"ZH","name":"Zürich"},"status":"Real"},{"key":"10055910","name":"Rietstrasse","postalCode":"8630","locality":"Rüti ZH","commune":{"key":"118","name":"Rüti (ZH)","shortName":"Rüti (ZH)"},"district":{"key":"105","name":"Bezirk Hinwil"},"canton":{"key":"1","code":"ZH","name":"Zürich"},"status":"Real"},{"key":"10000089","name":"Rosenbergstrasse","postalCode":"8630","locality":"Rüti ZH","commune":{"key":"118","name":"Rüti (ZH)","shortName":"Rüti (ZH)"},"district":{"key":"105","name":"Bezirk Hinwil"},"canton":{"key":"1","code":"ZH","name":"Zürich"},"status":"Real"},{"key":"10000090","name":"Rosenburg","postalCode":"8630","locality":"Rüti ZH","commune":{"key":"118","name":"Rüti (ZH)","shortName":"Rüti (ZH)"},"district":{"key":"105","name":"Bezirk Hinwil"},"canton":{"key":"1","code":"ZH","name":"Zürich"},"status":"Real"},{"key":"10060963","name":"Rosenburgstrasse","postalCode":"8630","locality":"Rüti ZH","commune":{"key":"118","name":"Rüti (ZH)","shortName":"Rüti (ZH)"},"district":{"key":"105","name":"Bezirk Hinwil"},"canton":{"key":"1","code":"ZH","name":"Zürich"},"status":"Real"},{"key":"10098157","name":"Rosenheimstrasse","postalCode":"8630","locality":"Rüti ZH","commune":{"key":"118","name":"Rüti (ZH)","shortName":"Rüti (ZH)"},"district":{"key":"105","name":"Bezirk Hinwil"},"canton":{"key":"1","code":"ZH","name":"Zürich"},"status":"Real"},{"key":"10000091","name":"Rosenstrasse","postalCode":"8630","locality":"Rüti ZH","commune":{"key":"118","name":"Rüti (ZH)","shortName":"Rüti (ZH)"},"district":{"key":"105","name":"Bezirk Hinwil"},"canton":{"key":"1","code":"ZH","name":"Zürich"},"status":"Real"},{"key":"10146166","name":"Rossweidweg","postalCode":"8630","locality":"Rüti ZH","commune":{"key":"118","name":"Rüti (ZH)","shortName":"Rüti (ZH)"},"district":{"key":"105","name":"Bezirk Hinwil"},"canton":{"key":"1","code":"ZH","name":"Zürich"},"status":"Real"},{"key":"10079121","name":"Rütiwald","postalCode":"8630","locality":"Rüti ZH","commune":{"key":"118","name":"Rüti (ZH)","shortName":"Rüti (ZH)"},"district":{"key":"105","name":"Bezirk Hinwil"},"canton":{"key":"1","code":"ZH","name":"Zürich"},"status":"Real"},{"key":"10000291","name":"Säntisweg","postalCode":"8630","locality":"Rüti ZH","commune":{"key":"118","name":"Rüti (ZH)","shortName":"Rüti (ZH)"},"district":{"key":"105","name":"Bezirk Hinwil"},"canton":{"key":"1","code":"ZH","name":"Zürich"},"status":"Real"},{"key":"10203355","name":"Schanzweg","postalCode":"8630","locality":"Rüti ZH","commune":{"key":"118","name":"Rüti (ZH)","shortName":"Rüti (ZH)"},"district":{"key":"105","name":"Bezirk Hinwil"},"canton":{"key":"1","code":"ZH","name":"Zürich"},"status":"Real"},{"key":"10000093","name":"Scheibenstrasse","postalCode":"8630","locality":"Rüti ZH","commune":{"key":"118","name":"Rüti (ZH)","shortName":"Rüti (ZH)"},"district":{"key":"105","name":"Bezirk Hinwil"},"canton":{"key":"1","code":"ZH","name":"Zürich"},"status":"Real"},{"key":"10052210","name":"Schlad","postalCode":"8630","locality":"Rüti ZH","commune":{"key":"118","name":"Rüti (ZH)","shortName":"Rüti (ZH)"},"district":{"key":"105","name":"Bezirk Hinwil"},"canton":{"key":"1","code":"ZH","name":"Zürich"},"status":"Real"},{"key":"10060964","name":"Schleipfiweg","postalCode":"8630","locality":"Rüti ZH","commune":{"key":"118","name":"Rüti (ZH)","shortName":"Rüti (ZH)"},"district":{"key":"105","name":"Bezirk Hinwil"},"canton":{"key":"1","code":"ZH","name":"Zürich"},"status":"Real"},{"key":"10183181","name":"Schlossbergstrasse","postalCode":"8630","locality":"Rüti ZH","commune":{"key":"118","name":"Rüti (ZH)","shortName":"Rüti (ZH)"},"district":{"key":"105","name":"Bezirk Hinwil"},"canton":{"key":"1","code":"ZH","name":"Zürich"},"status":"Real"},{"key":"10079122","name":"Schlosserstrasse","postalCode":"8630","locality":"Rüti ZH","commune":{"key":"118","name":"Rüti (ZH)","shortName":"Rüti (ZH)"},"district":{"key":"105","name":"Bezirk Hinwil"},"canton":{"key":"1","code":"ZH","name":"Zürich"},"status":"Real"},{"key":"10060965","name":"Schöneggstrasse","postalCode":"8630","locality":"Rüti ZH","commune":{"key":"118","name":"Rüti (ZH)","shortName":"Rüti (ZH)"},"district":{"key":"105","name":"Bezirk Hinwil"},"canton":{"key":"1","code":"ZH","name":"Zürich"},"status":"Real"},{"key":"10110381","name":"Schulstrasse","postalCode":"8630","locality":"Rüti ZH","commune":{"key":"118","name":"Rüti (ZH)","shortName":"Rüti (ZH)"},"district":{"key":"105","name":"Bezirk Hinwil"},"canton":{"key":"1","code":"ZH","name":"Zürich"},"status":"Real"},{"key":"10133458","name":"Schützenweg","postalCode":"8630","locality":"Rüti ZH","commune":{"key":"118","name":"Rüti (ZH)","shortName":"Rüti (ZH)"},"district":{"key":"105","name":"Bezirk Hinwil"},"canton":{"key":"1","code":"ZH","name":"Zürich"},"status":"Real"},{"key":"10106605","name":"Schwarz","postalCode":"8630","locality":"Rüti ZH","commune":{"key":"118","name":"Rüti (ZH)","shortName":"Rüti (ZH)"},"district":{"key":"105","name":"Bezirk Hinwil"},"canton":{"key":"1","code":"ZH","name":"Zürich"},"status":"Real"},{"key":"10133459","name":"Seefeldplatz","postalCode":"8630","locality":"Rüti ZH","commune":{"key":"118","name":"Rüti (ZH)","shortName":"Rüti (ZH)"},"district":{"key":"105","name":"Bezirk Hinwil"},"canton":{"key":"1","code":"ZH","name":"Zürich"},"status":"Real"},{"key":"10079123","name":"Seefeldstrasse","postalCode":"8630","locality":"Rüti ZH","commune":{"key":"118","name":"Rüti (ZH)","shortName":"Rüti (ZH)"},"district":{"key":"105","name":"Bezirk Hinwil"},"canton":{"key":"1","code":"ZH","name":"Zürich"},"status":"Real"},{"key":"10000094","name":"Sonneckstrasse","postalCode":"8630","locality":"Rüti ZH","commune":{"key":"118","name":"Rüti (ZH)","shortName":"Rüti (ZH)"},"district":{"key":"105","name":"Bezirk Hinwil"},"canton":{"key":"1","code":"ZH","name":"Zürich"},"status":"Real"},{"key":"10110382","name":"Sonnenbühlweg","postalCode":"8630","locality":"Rüti ZH","commune":{"key":"118","name":"Rüti (ZH)","shortName":"Rüti (ZH)"},"district":{"key":"105","name":"Bezirk Hinwil"},"canton":{"key":"1","code":"ZH","name":"Zürich"},"status":"Real"},{"key":"10079124","name":"Sonnengartenstrasse","postalCode":"8630","locality":"Rüti ZH","commune":{"key":"118","name":"Rüti (ZH)","shortName":"Rüti (ZH)"},"district":{"key":"105","name":"Bezirk Hinwil"},"canton":{"key":"1","code":"ZH","name":"Zürich"},"status":"Real"},{"key":"10060966","name":"Sonnenhofweg","postalCode":"8630","locality":"Rüti ZH","commune":{"key":"118","name":"Rüti (ZH)","shortName":"Rüti (ZH)"},"district":{"key":"105","name":"Bezirk Hinwil"},"canton":{"key":"1","code":"ZH","name":"Zürich"},"status":"Real"},{"key":"10000095","name":"Sonnenplatz","postalCode":"8630","locality":"Rüti ZH","commune":{"key":"118","name":"Rüti (ZH)","shortName":"Rüti (ZH)"},"district":{"key":"105","name":"Bezirk Hinwil"},"canton":{"key":"1","code":"ZH","name":"Zürich"},"status":"Real"},{"key":"10000286","name":"Speerstrasse","postalCode":"8630","locality":"Rüti ZH","commune":{"key":"118","name":"Rüti (ZH)","shortName":"Rüti (ZH)"},"district":{"key":"105","name":"Bezirk Hinwil"},"canton":{"key":"1","code":"ZH","name":"Zürich"},"status":"Real"},{"key":"10000287","name":"Speerweg","postalCode":"8630","locality":"Rüti ZH","commune":{"key":"118","name":"Rüti (ZH)","shortName":"Rüti (ZH)"},"district":{"key":"105","name":"Bezirk Hinwil"},"canton":{"key":"1","code":"ZH","name":"Zürich"},"status":"Real"},{"key":"10000288","name":"Spitalstrasse","postalCode":"8630","locality":"Rüti ZH","commune":{"key":"118","name":"Rüti (ZH)","shortName":"Rüti (ZH)"},"district":{"key":"105","name":"Bezirk Hinwil"},"canton":{"key":"1","code":"ZH","name":"Zürich"},"status":"Real"},{"key":"10079125","name":"Steinacherstrasse","postalCode":"8630","locality":"Rüti ZH","commune":{"key":"118","name":"Rüti (ZH)","shortName":"Rüti (ZH)"},"district":{"key":"105","name":"Bezirk Hinwil"},"canton":{"key":"1","code":"ZH","name":"Zürich"},"status":"Real"},{"key":"10060967","name":"Steingartenstrasse","postalCode":"8630","locality":"Rüti ZH","commune":{"key":"118","name":"Rüti (ZH)","shortName":"Rüti (ZH)"},"district":{"key":"105","name":"Bezirk Hinwil"},"canton":{"key":"1","code":"ZH","name":"Zürich"},"status":"Real"},{"key":"10000289","name":"Steinstrasse","postalCode":"8630","locality":"Rüti ZH","commune":{"key":"118","name":"Rüti (ZH)","shortName":"Rüti (ZH)"},"district":{"key":"105","name":"Bezirk Hinwil"},"canton":{"key":"1","code":"ZH","name":"Zürich"},"status":"Real"},{"key":"10000290","name":"Steinwiesenstrasse","postalCode":"8630","locality":"Rüti ZH","commune":{"key":"118","name":"Rüti (ZH)","shortName":"Rüti (ZH)"},"district":{"key":"105","name":"Bezirk Hinwil"},"canton":{"key":"1","code":"ZH","name":"Zürich"},"status":"Real"},{"key":"10052211","name":"Stockacher","postalCode":"8630","locality":"Rüti ZH","commune":{"key":"118","name":"Rüti (ZH)","shortName":"Rüti (ZH)"},"district":{"key":"105","name":"Bezirk Hinwil"},"canton":{"key":"1","code":"ZH","name":"Zürich"},"status":"Real"},{"key":"10133460","name":"Stoffelweg","postalCode":"8630","locality":"Rüti ZH","commune":{"key":"118","name":"Rüti (ZH)","shortName":"Rüti (ZH)"},"district":{"key":"105","name":"Bezirk Hinwil"},"canton":{"key":"1","code":"ZH","name":"Zürich"},"status":"Real"},{"key":"10018967","name":"Sunnenberg","postalCode":"8630","locality":"Rüti ZH","commune":{"key":"118","name":"Rüti (ZH)","shortName":"Rüti (ZH)"},"district":{"key":"105","name":"Bezirk Hinwil"},"canton":{"key":"1","code":"ZH","name":"Zürich"},"status":"Real"},{"key":"10117555","name":"Talacherstrasse","postalCode":"8630","locality":"Rüti ZH","commune":{"key":"118","name":"Rüti (ZH)","shortName":"Rüti (ZH)"},"district":{"key":"105","name":"Bezirk Hinwil"},"canton":{"key":"1","code":"ZH","name":"Zürich"},"status":"Real"},{"key":"10110383","name":"Talgartenstrasse","postalCode":"8630","locality":"Rüti ZH","commune":{"key":"118","name":"Rüti (ZH)","shortName":"Rüti (ZH)"},"district":{"key":"105","name":"Bezirk Hinwil"},"canton":{"key":"1","code":"ZH","name":"Zürich"},"status":"Real"},{"key":"10060968","name":"Talgartenweg","postalCode":"8630","locality":"Rüti ZH","commune":{"key":"118","name":"Rüti (ZH)","shortName":"Rüti (ZH)"},"district":{"key":"105","name":"Bezirk Hinwil"},"canton":{"key":"1","code":"ZH","name":"Zürich"},"status":"Real"},{"key":"10126808","name":"Tannägertenstrasse","postalCode":"8630","locality":"Rüti ZH","commune":{"key":"118","name":"Rüti (ZH)","shortName":"Rüti (ZH)"},"district":{"key":"105","name":"Bezirk Hinwil"},"canton":{"key":"1","code":"ZH","name":"Zürich"},"status":"Real"},{"key":"10000292","name":"Tannenbergweg","postalCode":"8630","locality":"Rüti ZH","commune":{"key":"118","name":"Rüti (ZH)","shortName":"Rüti (ZH)"},"district":{"key":"105","name":"Bezirk Hinwil"},"canton":{"key":"1","code":"ZH","name":"Zürich"},"status":"Real"},{"key":"10060969","name":"Täusistrasse","postalCode":"8630","locality":"Rüti ZH","commune":{"key":"118","name":"Rüti (ZH)","shortName":"Rüti (ZH)"},"district":{"key":"105","name":"Bezirk Hinwil"},"canton":{"key":"1","code":"ZH","name":"Zürich"},"status":"Real"},{"key":"10000295","name":"Täusiweg","postalCode":"8630","locality":"Rüti ZH","commune":{"key":"118","name":"Rüti (ZH)","shortName":"Rüti (ZH)"},"district":{"key":"105","name":"Bezirk Hinwil"},"canton":{"key":"1","code":"ZH","name":"Zürich"},"status":"Real"},{"key":"10079126","name":"Tiefenbrunnenstrasse","postalCode":"8630","locality":"Rüti ZH","commune":{"key":"118","name":"Rüti (ZH)","shortName":"Rüti (ZH)"},"district":{"key":"105","name":"Bezirk Hinwil"},"canton":{"key":"1","code":"ZH","name":"Zürich"},"status":"Real"},{"key":"10079404","name":"Tobelstrasse","postalCode":"8630","locality":"Rüti ZH","commune":{"key":"118","name":"Rüti (ZH)","shortName":"Rüti (ZH)"},"district":{"key":"105","name":"Bezirk Hinwil"},"canton":{"key":"1","code":"ZH","name":"Zürich"},"status":"Real"},{"key":"10000293","name":"Trümmlenweg","postalCode":"8630","locality":"Rüti ZH","commune":{"key":"118","name":"Rüti (ZH)","shortName":"Rüti (ZH)"},"district":{"key":"105","name":"Bezirk Hinwil"},"canton":{"key":"1","code":"ZH","name":"Zürich"},"status":"Real"},{"key":"10000294","name":"Tunnelstrasse","postalCode":"8630","locality":"Rüti ZH","commune":{"key":"118","name":"Rüti (ZH)","shortName":"Rüti (ZH)"},"district":{"key":"105","name":"Bezirk Hinwil"},"canton":{"key":"1","code":"ZH","name":"Zürich"},"status":"Real"},{"key":"10141554","name":"Türkenweg","postalCode":"8630","locality":"Rüti ZH","commune":{"key":"118","name":"Rüti (ZH)","shortName":"Rüti (ZH)"},"district":{"key":"105","name":"Bezirk Hinwil"},"canton":{"key":"1","code":"ZH","name":"Zürich"},"status":"Real"},{"key":"10119335","name":"Unter Moos","postalCode":"8630","locality":"Rüti ZH","commune":{"key":"118","name":"Rüti (ZH)","shortName":"Rüti (ZH)"},"district":{"key":"105","name":"Bezirk Hinwil"},"canton":{"key":"1","code":"ZH","name":"Zürich"},"status":"Real"},{"key":"10141555","name":"Unterwiesplatz","postalCode":"8630","locality":"Rüti ZH","commune":{"key":"118","name":"Rüti (ZH)","shortName":"Rüti (ZH)"},"district":{"key":"105","name":"Bezirk Hinwil"},"canton":{"key":"1","code":"ZH","name":"Zürich"},"status":"Real"},{"key":"10113255","name":"Unterwiesstrasse","postalCode":"8630","locality":"Rüti ZH","commune":{"key":"118","name":"Rüti (ZH)","shortName":"Rüti (ZH)"},"district":{"key":"105","name":"Bezirk Hinwil"},"canton":{"key":"1","code":"ZH","name":"Zürich"},"status":"Real"},{"key":"10018977","name":"Wacht","postalCode":"8630","locality":"Rüti ZH","commune":{"key":"118","name":"Rüti (ZH)","shortName":"Rüti (ZH)"},"district":{"key":"105","name":"Bezirk Hinwil"},"canton":{"key":"1","code":"ZH","name":"Zürich"},"status":"Real"},{"key":"10000296","name":"Walderstrasse","postalCode":"8630","locality":"Rüti ZH","commune":{"key":"118","name":"Rüti (ZH)","shortName":"Rüti (ZH)"},"district":{"key":"105","name":"Bezirk Hinwil"},"canton":{"key":"1","code":"ZH","name":"Zürich"},"status":"Real"},{"key":"10079127","name":"Weid","postalCode":"8630","locality":"Rüti ZH","commune":{"key":"118","name":"Rüti (ZH)","shortName":"Rüti (ZH)"},"district":{"key":"105","name":"Bezirk Hinwil"},"canton":{"key":"1","code":"ZH","name":"Zürich"},"status":"Real"},{"key":"10122476","name":"Weier","postalCode":"8630","locality":"Rüti ZH","commune":{"key":"118","name":"Rüti (ZH)","shortName":"Rüti (ZH)"},"district":{"key":"105","name":"Bezirk Hinwil"},"canton":{"key":"1","code":"ZH","name":"Zürich"},"status":"Real"},{"key":"10052212","name":"Weierbach","postalCode":"8630","locality":"Rüti ZH","commune":{"key":"118","name":"Rüti (ZH)","shortName":"Rüti (ZH)"},"district":{"key":"105","name":"Bezirk Hinwil"},"canton":{"key":"1","code":"ZH","name":"Zürich"},"status":"Real"},{"key":"10000297","name":"Weierstrasse","postalCode":"8630","locality":"Rüti ZH","commune":{"key":"118","name":"Rüti (ZH)","shortName":"Rüti (ZH)"},"district":{"key":"105","name":"Bezirk Hinwil"},"canton":{"key":"1","code":"ZH","name":"Zürich"},"status":"Real"},{"key":"10079128","name":"Weinbergstrasse","postalCode":"8630","locality":"Rüti ZH","commune":{"key":"118","name":"Rüti (ZH)","shortName":"Rüti (ZH)"},"district":{"key":"105","name":"Bezirk Hinwil"},"canton":{"key":"1","code":"ZH","name":"Zürich"},"status":"Real"},{"key":"10000298","name":"Werkstrasse","postalCode":"8630","locality":"Rüti ZH","commune":{"key":"118","name":"Rüti (ZH)","shortName":"Rüti (ZH)"},"district":{"key":"105","name":"Bezirk Hinwil"},"canton":{"key":"1","code":"ZH","name":"Zürich"},"status":"Real"},{"key":"10189910","name":"Werner-Weber-Strasse","postalCode":"8630","locality":"Rüti ZH","commune":{"key":"118","name":"Rüti (ZH)","shortName":"Rüti (ZH)"},"district":{"key":"105","name":"Bezirk Hinwil"},"canton":{"key":"1","code":"ZH","name":"Zürich"},"status":"Real"},{"key":"10110384","name":"Wettsteinweg","postalCode":"8630","locality":"Rüti ZH","commune":{"key":"118","name":"Rüti (ZH)","shortName":"Rüti (ZH)"},"district":{"key":"105","name":"Bezirk Hinwil"},"canton":{"key":"1","code":"ZH","name":"Zürich"},"status":"Real"},{"key":"10150029","name":"Widacherplatz","postalCode":"8630","locality":"Rüti ZH","commune":{"key":"118","name":"Rüti (ZH)","shortName":"Rüti (ZH)"},"district":{"key":"105","name":"Bezirk Hinwil"},"canton":{"key":"1","code":"ZH","name":"Zürich"},"status":"Real"},{"key":"10079129","name":"Widacherstrasse","postalCode":"8630","locality":"Rüti ZH","commune":{"key":"118","name":"Rüti (ZH)","shortName":"Rüti (ZH)"},"district":{"key":"105","name":"Bezirk Hinwil"},"canton":{"key":"1","code":"ZH","name":"Zürich"},"status":"Real"},{"key":"10000299","name":"Widacherweg","postalCode":"8630","locality":"Rüti ZH","commune":{"key":"118","name":"Rüti (ZH)","shortName":"Rüti (ZH)"},"district":{"key":"105","name":"Bezirk Hinwil"},"canton":{"key":"1","code":"ZH","name":"Zürich"},"status":"Real"},{"key":"10125617","name":"Widenweg","postalCode":"8630","locality":"Rüti ZH","commune":{"key":"118","name":"Rüti (ZH)","shortName":"Rüti (ZH)"},"district":{"key":"105","name":"Bezirk Hinwil"},"canton":{"key":"1","code":"ZH","name":"Zürich"},"status":"Real"},{"key":"10117618","name":"Wiesenstrasse","postalCode":"8630","locality":"Rüti ZH","commune":{"key":"118","name":"Rüti (ZH)","shortName":"Rüti (ZH)"},"district":{"key":"105","name":"Bezirk Hinwil"},"canton":{"key":"1","code":"ZH","name":"Zürich"},"status":"Real"},{"key":"10000300","name":"Wiesentalstrasse","postalCode":"8630","locality":"Rüti ZH","commune":{"key":"118","name":"Rüti (ZH)","shortName":"Rüti (ZH)"},"district":{"key":"105","name":"Bezirk Hinwil"},"canton":{"key":"1","code":"ZH","name":"Zürich"},"status":"Real"},{"key":"10079130","name":"Wiesriedtstrasse","postalCode":"8630","locality":"Rüti ZH","commune":{"key":"118","name":"Rüti (ZH)","shortName":"Rüti (ZH)"},"district":{"key":"105","name":"Bezirk Hinwil"},"canton":{"key":"1","code":"ZH","name":"Zürich"},"status":"Real"},{"key":"10000301","name":"Wiesriedtweg","postalCode":"8630","locality":"Rüti ZH","commune":{"key":"118","name":"Rüti (ZH)","shortName":"Rüti (ZH)"},"district":{"key":"105","name":"Bezirk Hinwil"},"canton":{"key":"1","code":"ZH","name":"Zürich"},"status":"Real"},{"key":"10000302","name":"Würzhaldenstrasse","postalCode":"8630","locality":"Rüti ZH","commune":{"key":"118","name":"Rüti (ZH)","shortName":"Rüti (ZH)"},"district":{"key":"105","name":"Bezirk Hinwil"},"canton":{"key":"1","code":"ZH","name":"Zürich"},"status":"Real"},{"key":"10000303","name":"Zelghalde","postalCode":"8630","locality":"Rüti ZH","commune":{"key":"118","name":"Rüti (ZH)","shortName":"Rüti (ZH)"},"district":{"key":"105","name":"Bezirk Hinwil"},"canton":{"key":"1","code":"ZH","name":"Zürich"},"status":"Real"},{"key":"10114445","name":"Zelgstrasse","postalCode":"8630","locality":"Rüti ZH","commune":{"key":"118","name":"Rüti (ZH)","shortName":"Rüti (ZH)"},"district":{"key":"105","name":"Bezirk Hinwil"},"canton":{"key":"1","code":"ZH","name":"Zürich"},"status":"Real"},]