[{"name":"Alte Kuseler Str.","postalCode":"66871","locality":"Haschbach am Remigiusberg","municipality":{"key":"07336034","name":"Haschbach am Remigiusberg","type":"Kreisangehörige_Gemeinde"},"district":{"key":"07336","name":"Kusel","type":"Landkreis"},"federalState":{"key":"07","name":"Rheinland-Pfalz"}},{"name":"Am Feldchen","postalCode":"66871","locality":"Haschbach am Remigiusberg","municipality":{"key":"07336034","name":"Haschbach am Remigiusberg","type":"Kreisangehörige_Gemeinde"},"district":{"key":"07336","name":"Kusel","type":"Landkreis"},"federalState":{"key":"07","name":"Rheinland-Pfalz"}},{"name":"Am Lambertsbaum","postalCode":"66871","locality":"Haschbach am Remigiusberg","municipality":{"key":"07336034","name":"Haschbach am Remigiusberg","type":"Kreisangehörige_Gemeinde"},"district":{"key":"07336","name":"Kusel","type":"Landkreis"},"federalState":{"key":"07","name":"Rheinland-Pfalz"}},{"name":"Am Sonnenberg","postalCode":"67753","locality":"Aschbach","municipality":{"key":"07336005","name":"Aschbach","type":"Kreisangehörige_Gemeinde"},"district":{"key":"07336","name":"Kusel","type":"Landkreis"},"federalState":{"key":"07","name":"Rheinland-Pfalz"}},{"name":"Auf der Höll","postalCode":"66871","locality":"Haschbach am Remigiusberg","municipality":{"key":"07336034","name":"Haschbach am Remigiusberg","type":"Kreisangehörige_Gemeinde"},"district":{"key":"07336","name":"Kusel","type":"Landkreis"},"federalState":{"key":"07","name":"Rheinland-Pfalz"}},{"name":"Auf'm Acker","postalCode":"66871","locality":"Haschbach am Remigiusberg","municipality":{"key":"07336034","name":"Haschbach am Remigiusberg","type":"Kreisangehörige_Gemeinde"},"district":{"key":"07336","name":"Kusel","type":"Landkreis"},"federalState":{"key":"07","name":"Rheinland-Pfalz"}},{"name":"Bachstr.","postalCode":"67753","locality":"Aschbach","municipality":{"key":"07336005","name":"Aschbach","type":"Kreisangehörige_Gemeinde"},"district":{"key":"07336","name":"Kusel","type":"Landkreis"},"federalState":{"key":"07","name":"Rheinland-Pfalz"}},{"name":"Bergstr.","postalCode":"67753","locality":"Aschbach","municipality":{"key":"07336005","name":"Aschbach","type":"Kreisangehörige_Gemeinde"},"district":{"key":"07336","name":"Kusel","type":"Landkreis"},"federalState":{"key":"07","name":"Rheinland-Pfalz"}},{"name":"Christian-Böhmer-Weg","postalCode":"66869","locality":"Kusel","municipality":{"key":"07336055","name":"Kusel, Stadt","type":"Stadt"},"district":{"key":"07336","name":"Kusel","type":"Landkreis"},"federalState":{"key":"07","name":"Rheinland-Pfalz"}},{"name":"Danziger Str.","postalCode":"66869","locality":"Kusel","municipality":{"key":"07336055","name":"Kusel, Stadt","type":"Stadt"},"district":{"key":"07336","name":"Kusel","type":"Landkreis"},"federalState":{"key":"07","name":"Rheinland-Pfalz"}},{"name":"Dr.-Albert-Jung-Str.","postalCode":"66869","locality":"Kusel","municipality":{"key":"07336055","name":"Kusel, Stadt","type":"Stadt"},"district":{"key":"07336","name":"Kusel","type":"Landkreis"},"federalState":{"key":"07","name":"Rheinland-Pfalz"}},{"name":"Etschberger Weg","postalCode":"66871","locality":"Haschbach am Remigiusberg","municipality":{"key":"07336034","name":"Haschbach am Remigiusberg","type":"Kreisangehörige_Gemeinde"},"district":{"key":"07336","name":"Kusel","type":"Landkreis"},"federalState":{"key":"07","name":"Rheinland-Pfalz"}},{"name":"Friedhofstr.","postalCode":"67753","locality":"Aschbach","municipality":{"key":"07336005","name":"Aschbach","type":"Kreisangehörige_Gemeinde"},"district":{"key":"07336","name":"Kusel","type":"Landkreis"},"federalState":{"key":"07","name":"Rheinland-Pfalz"}},{"name":"Gartenstr.","postalCode":"66869","locality":"Kusel","municipality":{"key":"07336055","name":"Kusel, Stadt","type":"Stadt"},"district":{"key":"07336","name":"Kusel","type":"Landkreis"},"federalState":{"key":"07","name":"Rheinland-Pfalz"}},{"name":"Glanstr.","postalCode":"66869","locality":"Kusel","municipality":{"key":"07336055","name":"Kusel, Stadt","type":"Stadt"},"district":{"key":"07336","name":"Kusel","type":"Landkreis"},"federalState":{"key":"07","name":"Rheinland-Pfalz"}},{"name":"Großenstein","postalCode":"66869","locality":"Kusel","municipality":{"key":"07336055","name":"Kusel, Stadt","type":"Stadt"},"district":{"key":"07336","name":"Kusel","type":"Landkreis"},"federalState":{"key":"07","name":"Rheinland-Pfalz"}},{"name":"Hauptstr.","postalCode":"66871","locality":"Haschbach am Remigiusberg","municipality":{"key":"07336034","name":"Haschbach am Remigiusberg","type":"Kreisangehörige_Gemeinde"},"district":{"key":"07336","name":"Kusel","type":"Landkreis"},"federalState":{"key":"07","name":"Rheinland-Pfalz"}},{"name":"Hauptstr.","postalCode":"67753","locality":"Aschbach","municipality":{"key":"07336005","name":"Aschbach","type":"Kreisangehörige_Gemeinde"},"district":{"key":"07336","name":"Kusel","type":"Landkreis"},"federalState":{"key":"07","name":"Rheinland-Pfalz"}},{"name":"Im Brühl","postalCode":"66869","locality":"Kusel","municipality":{"key":"07336055","name":"Kusel, Stadt","type":"Stadt"},"district":{"key":"07336","name":"Kusel","type":"Landkreis"},"federalState":{"key":"07","name":"Rheinland-Pfalz"}},{"name":"Im Flur","postalCode":"66869","locality":"Kusel","municipality":{"key":"07336055","name":"Kusel, Stadt","type":"Stadt"},"district":{"key":"07336","name":"Kusel","type":"Landkreis"},"federalState":{"key":"07","name":"Rheinland-Pfalz"}},{"name":"Im Höfchen","postalCode":"66869","locality":"Kusel","municipality":{"key":"07336055","name":"Kusel, Stadt","type":"Stadt"},"district":{"key":"07336","name":"Kusel","type":"Landkreis"},"federalState":{"key":"07","name":"Rheinland-Pfalz"}},{"name":"Im Tälchen","postalCode":"66869","locality":"Kusel","municipality":{"key":"07336055","name":"Kusel, Stadt","type":"Stadt"},"district":{"key":"07336","name":"Kusel","type":"Landkreis"},"federalState":{"key":"07","name":"Rheinland-Pfalz"}},{"name":"Industriestr.","postalCode":"66869","locality":"Kusel","municipality":{"key":"07336055","name":"Kusel, Stadt","type":"Stadt"},"district":{"key":"07336","name":"Kusel","type":"Landkreis"},"federalState":{"key":"07","name":"Rheinland-Pfalz"}},{"name":"Kieselbachstr.","postalCode":"67753","locality":"Aschbach","municipality":{"key":"07336005","name":"Aschbach","type":"Kreisangehörige_Gemeinde"},"district":{"key":"07336","name":"Kusel","type":"Landkreis"},"federalState":{"key":"07","name":"Rheinland-Pfalz"}},{"name":"Landsteinstr.","postalCode":"66871","locality":"Haschbach am Remigiusberg","municipality":{"key":"07336034","name":"Haschbach am Remigiusberg","type":"Kreisangehörige_Gemeinde"},"district":{"key":"07336","name":"Kusel","type":"Landkreis"},"federalState":{"key":"07","name":"Rheinland-Pfalz"}},{"name":"Langenbergstr.","postalCode":"66871","locality":"Haschbach am Remigiusberg","municipality":{"key":"07336034","name":"Haschbach am Remigiusberg","type":"Kreisangehörige_Gemeinde"},"district":{"key":"07336","name":"Kusel","type":"Landkreis"},"federalState":{"key":"07","name":"Rheinland-Pfalz"}},{"name":"Münchtalstr.","postalCode":"66871","locality":"Haschbach am Remigiusberg","municipality":{"key":"07336034","name":"Haschbach am Remigiusberg","type":"Kreisangehörige_Gemeinde"},"district":{"key":"07336","name":"Kusel","type":"Landkreis"},"federalState":{"key":"07","name":"Rheinland-Pfalz"}},{"name":"Niederhoferstr.","postalCode":"66869","locality":"Kusel","municipality":{"key":"07336055","name":"Kusel, Stadt","type":"Stadt"},"district":{"key":"07336","name":"Kusel","type":"Landkreis"},"federalState":{"key":"07","name":"Rheinland-Pfalz"}},{"name":"Oberer Holler","postalCode":"66869","locality":"Kusel","municipality":{"key":"07336055","name":"Kusel, Stadt","type":"Stadt"},"district":{"key":"07336","name":"Kusel","type":"Landkreis"},"federalState":{"key":"07","name":"Rheinland-Pfalz"}},{"name":"Pitzerstr.","postalCode":"67753","locality":"Aschbach","municipality":{"key":"07336005","name":"Aschbach","type":"Kreisangehörige_Gemeinde"},"district":{"key":"07336","name":"Kusel","type":"Landkreis"},"federalState":{"key":"07","name":"Rheinland-Pfalz"}},{"name":"Rammelsbacher Str.","postalCode":"66871","locality":"Haschbach am Remigiusberg","municipality":{"key":"07336034","name":"Haschbach am Remigiusberg","type":"Kreisangehörige_Gemeinde"},"district":{"key":"07336","name":"Kusel","type":"Landkreis"},"federalState":{"key":"07","name":"Rheinland-Pfalz"}},{"name":"Remigiusbergstr.","postalCode":"66871","locality":"Haschbach am Remigiusberg","municipality":{"key":"07336034","name":"Haschbach am Remigiusberg","type":"Kreisangehörige_Gemeinde"},"district":{"key":"07336","name":"Kusel","type":"Landkreis"},"federalState":{"key":"07","name":"Rheinland-Pfalz"}},{"name":"Schießplatz","postalCode":"66869","locality":"Kusel","municipality":{"key":"07336055","name":"Kusel, Stadt","type":"Stadt"},"district":{"key":"07336","name":"Kusel","type":"Landkreis"},"federalState":{"key":"07","name":"Rheinland-Pfalz"}},{"name":"Schleipweg","postalCode":"66869","locality":"Kusel","municipality":{"key":"07336055","name":"Kusel, Stadt","type":"Stadt"},"district":{"key":"07336","name":"Kusel","type":"Landkreis"},"federalState":{"key":"07","name":"Rheinland-Pfalz"}},{"name":"Schloßhöhe","postalCode":"66869","locality":"Kusel","municipality":{"key":"07336055","name":"Kusel, Stadt","type":"Stadt"},"district":{"key":"07336","name":"Kusel","type":"Landkreis"},"federalState":{"key":"07","name":"Rheinland-Pfalz"}},{"name":"Schulweg","postalCode":"66869","locality":"Kusel","municipality":{"key":"07336055","name":"Kusel, Stadt","type":"Stadt"},"district":{"key":"07336","name":"Kusel","type":"Landkreis"},"federalState":{"key":"07","name":"Rheinland-Pfalz"}},{"name":"Schwebelstr.","postalCode":"66869","locality":"Kusel","municipality":{"key":"07336055","name":"Kusel, Stadt","type":"Stadt"},"district":{"key":"07336","name":"Kusel","type":"Landkreis"},"federalState":{"key":"07","name":"Rheinland-Pfalz"}},{"name":"Triebstr.","postalCode":"66869","locality":"Kusel","municipality":{"key":"07336055","name":"Kusel, Stadt","type":"Stadt"},"district":{"key":"07336","name":"Kusel","type":"Landkreis"},"federalState":{"key":"07","name":"Rheinland-Pfalz"}},{"name":"Trierer Str.","postalCode":"66869","locality":"Kusel","municipality":{"key":"07336055","name":"Kusel, Stadt","type":"Stadt"},"district":{"key":"07336","name":"Kusel","type":"Landkreis"},"federalState":{"key":"07","name":"Rheinland-Pfalz"}},{"name":"Tuchrahmstr.","postalCode":"66869","locality":"Kusel","municipality":{"key":"07336055","name":"Kusel, Stadt","type":"Stadt"},"district":{"key":"07336","name":"Kusel","type":"Landkreis"},"federalState":{"key":"07","name":"Rheinland-Pfalz"}},{"name":"Tuchrahmtreppchen","postalCode":"66869","locality":"Kusel","municipality":{"key":"07336055","name":"Kusel, Stadt","type":"Stadt"},"district":{"key":"07336","name":"Kusel","type":"Landkreis"},"federalState":{"key":"07","name":"Rheinland-Pfalz"}},{"name":"Unterm Feist","postalCode":"66869","locality":"Kusel","municipality":{"key":"07336055","name":"Kusel, Stadt","type":"Stadt"},"district":{"key":"07336","name":"Kusel","type":"Landkreis"},"federalState":{"key":"07","name":"Rheinland-Pfalz"}},{"name":"Vogelsang","postalCode":"66869","locality":"Kusel","municipality":{"key":"07336055","name":"Kusel, Stadt","type":"Stadt"},"district":{"key":"07336","name":"Kusel","type":"Landkreis"},"federalState":{"key":"07","name":"Rheinland-Pfalz"}},{"name":"Wingertstr.","postalCode":"66871","locality":"Haschbach am Remigiusberg","municipality":{"key":"07336034","name":"Haschbach am Remigiusberg","type":"Kreisangehörige_Gemeinde"},"district":{"key":"07336","name":"Kusel","type":"Landkreis"},"federalState":{"key":"07","name":"Rheinland-Pfalz"}},{"name":"Zalaweg","postalCode":"66869","locality":"Kusel","municipality":{"key":"07336055","name":"Kusel, Stadt","type":"Stadt"},"district":{"key":"07336","name":"Kusel","type":"Landkreis"},"federalState":{"key":"07","name":"Rheinland-Pfalz"}},{"name":"Zieselbach","postalCode":"66869","locality":"Kusel","municipality":{"key":"07336055","name":"Kusel, Stadt","type":"Stadt"},"district":{"key":"07336","name":"Kusel","type":"Landkreis"},"federalState":{"key":"07","name":"Rheinland-Pfalz"}},{"name":"Zum halben Mond","postalCode":"66869","locality":"Kusel","municipality":{"key":"07336055","name":"Kusel, Stadt","type":"Stadt"},"district":{"key":"07336","name":"Kusel","type":"Landkreis"},"federalState":{"key":"07","name":"Rheinland-Pfalz"}},{"name":"Zur Winterhelle","postalCode":"66869","locality":"Kusel","municipality":{"key":"07336055","name":"Kusel, Stadt","type":"Stadt"},"district":{"key":"07336","name":"Kusel","type":"Landkreis"},"federalState":{"key":"07","name":"Rheinland-Pfalz"}},]