[{"name":"Alte Str.","postalCode":"63868","locality":"Großwallstadt","municipality":{"key":"09676126","name":"Großwallstadt","type":"Kreisangehörige_Gemeinde"},"district":{"key":"09676","name":"Miltenberg","type":"Landkreis"},"federalState":{"key":"09","name":"Bayern"}},{"name":"Altmauerweg","postalCode":"63868","locality":"Großwallstadt","municipality":{"key":"09676126","name":"Großwallstadt","type":"Kreisangehörige_Gemeinde"},"district":{"key":"09676","name":"Miltenberg","type":"Landkreis"},"federalState":{"key":"09","name":"Bayern"}},{"name":"Am Alten Brunnen","postalCode":"63868","locality":"Großwallstadt","municipality":{"key":"09676126","name":"Großwallstadt","type":"Kreisangehörige_Gemeinde"},"district":{"key":"09676","name":"Miltenberg","type":"Landkreis"},"federalState":{"key":"09","name":"Bayern"}},{"name":"Am Hohen Ufer","postalCode":"63868","locality":"Großwallstadt","municipality":{"key":"09676126","name":"Großwallstadt","type":"Kreisangehörige_Gemeinde"},"district":{"key":"09676","name":"Miltenberg","type":"Landkreis"},"federalState":{"key":"09","name":"Bayern"}},{"name":"Am Kehlpfad","postalCode":"63868","locality":"Großwallstadt","municipality":{"key":"09676126","name":"Großwallstadt","type":"Kreisangehörige_Gemeinde"},"district":{"key":"09676","name":"Miltenberg","type":"Landkreis"},"federalState":{"key":"09","name":"Bayern"}},{"name":"Am Kreuzpfad","postalCode":"63868","locality":"Großwallstadt","municipality":{"key":"09676126","name":"Großwallstadt","type":"Kreisangehörige_Gemeinde"},"district":{"key":"09676","name":"Miltenberg","type":"Landkreis"},"federalState":{"key":"09","name":"Bayern"}},{"name":"Am Krontal","postalCode":"63868","locality":"Großwallstadt","municipality":{"key":"09676126","name":"Großwallstadt","type":"Kreisangehörige_Gemeinde"},"district":{"key":"09676","name":"Miltenberg","type":"Landkreis"},"federalState":{"key":"09","name":"Bayern"}},{"name":"Am Neubergsweg","postalCode":"63868","locality":"Großwallstadt","municipality":{"key":"09676126","name":"Großwallstadt","type":"Kreisangehörige_Gemeinde"},"district":{"key":"09676","name":"Miltenberg","type":"Landkreis"},"federalState":{"key":"09","name":"Bayern"}},{"name":"Am Schießhaus","postalCode":"63868","locality":"Großwallstadt","municipality":{"key":"09676126","name":"Großwallstadt","type":"Kreisangehörige_Gemeinde"},"district":{"key":"09676","name":"Miltenberg","type":"Landkreis"},"federalState":{"key":"09","name":"Bayern"}},{"name":"Am Südkreisel","postalCode":"63868","locality":"Großwallstadt","municipality":{"key":"09676126","name":"Großwallstadt","type":"Kreisangehörige_Gemeinde"},"district":{"key":"09676","name":"Miltenberg","type":"Landkreis"},"federalState":{"key":"09","name":"Bayern"}},{"name":"Am Wellenhäuschen","postalCode":"63868","locality":"Großwallstadt","municipality":{"key":"09676126","name":"Großwallstadt","type":"Kreisangehörige_Gemeinde"},"district":{"key":"09676","name":"Miltenberg","type":"Landkreis"},"federalState":{"key":"09","name":"Bayern"}},{"name":"Ankergasse","postalCode":"63868","locality":"Großwallstadt","municipality":{"key":"09676126","name":"Großwallstadt","type":"Kreisangehörige_Gemeinde"},"district":{"key":"09676","name":"Miltenberg","type":"Landkreis"},"federalState":{"key":"09","name":"Bayern"}},{"name":"Bayernstr.","postalCode":"63868","locality":"Großwallstadt","municipality":{"key":"09676126","name":"Großwallstadt","type":"Kreisangehörige_Gemeinde"},"district":{"key":"09676","name":"Miltenberg","type":"Landkreis"},"federalState":{"key":"09","name":"Bayern"}},{"name":"Birkenstr.","postalCode":"63868","locality":"Großwallstadt","municipality":{"key":"09676126","name":"Großwallstadt","type":"Kreisangehörige_Gemeinde"},"district":{"key":"09676","name":"Miltenberg","type":"Landkreis"},"federalState":{"key":"09","name":"Bayern"}},{"name":"Brunhildstr.","postalCode":"63868","locality":"Großwallstadt","municipality":{"key":"09676126","name":"Großwallstadt","type":"Kreisangehörige_Gemeinde"},"district":{"key":"09676","name":"Miltenberg","type":"Landkreis"},"federalState":{"key":"09","name":"Bayern"}},{"name":"Buchenstr.","postalCode":"63868","locality":"Großwallstadt","municipality":{"key":"09676126","name":"Großwallstadt","type":"Kreisangehörige_Gemeinde"},"district":{"key":"09676","name":"Miltenberg","type":"Landkreis"},"federalState":{"key":"09","name":"Bayern"}},{"name":"Burgunderstr.","postalCode":"63868","locality":"Großwallstadt","municipality":{"key":"09676126","name":"Großwallstadt","type":"Kreisangehörige_Gemeinde"},"district":{"key":"09676","name":"Miltenberg","type":"Landkreis"},"federalState":{"key":"09","name":"Bayern"}},{"name":"Cardijnstr.","postalCode":"63897","locality":"Miltenberg","municipality":{"key":"09676139","name":"Miltenberg, St","type":"Stadt"},"district":{"key":"09676","name":"Miltenberg","type":"Landkreis"},"federalState":{"key":"09","name":"Bayern"}},{"name":"Carl-Gerster-Str.","postalCode":"63897","locality":"Miltenberg","municipality":{"key":"09676139","name":"Miltenberg, St","type":"Stadt"},"district":{"key":"09676","name":"Miltenberg","type":"Landkreis"},"federalState":{"key":"09","name":"Bayern"}},{"name":"Dahlienstr.","postalCode":"63868","locality":"Großwallstadt","municipality":{"key":"09676126","name":"Großwallstadt","type":"Kreisangehörige_Gemeinde"},"district":{"key":"09676","name":"Miltenberg","type":"Landkreis"},"federalState":{"key":"09","name":"Bayern"}},{"name":"Don-Bosco-Str.","postalCode":"63868","locality":"Großwallstadt","municipality":{"key":"09676126","name":"Großwallstadt","type":"Kreisangehörige_Gemeinde"},"district":{"key":"09676","name":"Miltenberg","type":"Landkreis"},"federalState":{"key":"09","name":"Bayern"}},{"name":"Einsteinstr.","postalCode":"63868","locality":"Großwallstadt","municipality":{"key":"09676126","name":"Großwallstadt","type":"Kreisangehörige_Gemeinde"},"district":{"key":"09676","name":"Miltenberg","type":"Landkreis"},"federalState":{"key":"09","name":"Bayern"}},{"name":"Engelgasse","postalCode":"63868","locality":"Großwallstadt","municipality":{"key":"09676126","name":"Großwallstadt","type":"Kreisangehörige_Gemeinde"},"district":{"key":"09676","name":"Miltenberg","type":"Landkreis"},"federalState":{"key":"09","name":"Bayern"}},{"name":"Erzgrabenweg","postalCode":"63868","locality":"Großwallstadt","municipality":{"key":"09676126","name":"Großwallstadt","type":"Kreisangehörige_Gemeinde"},"district":{"key":"09676","name":"Miltenberg","type":"Landkreis"},"federalState":{"key":"09","name":"Bayern"}},{"name":"Fliederstr.","postalCode":"63868","locality":"Großwallstadt","municipality":{"key":"09676126","name":"Großwallstadt","type":"Kreisangehörige_Gemeinde"},"district":{"key":"09676","name":"Miltenberg","type":"Landkreis"},"federalState":{"key":"09","name":"Bayern"}},{"name":"Frankenstr.","postalCode":"63868","locality":"Großwallstadt","municipality":{"key":"09676126","name":"Großwallstadt","type":"Kreisangehörige_Gemeinde"},"district":{"key":"09676","name":"Miltenberg","type":"Landkreis"},"federalState":{"key":"09","name":"Bayern"}},{"name":"Friedenstr.","postalCode":"63868","locality":"Großwallstadt","municipality":{"key":"09676126","name":"Großwallstadt","type":"Kreisangehörige_Gemeinde"},"district":{"key":"09676","name":"Miltenberg","type":"Landkreis"},"federalState":{"key":"09","name":"Bayern"}},{"name":"Friedhofstr.","postalCode":"63868","locality":"Großwallstadt","municipality":{"key":"09676126","name":"Großwallstadt","type":"Kreisangehörige_Gemeinde"},"district":{"key":"09676","name":"Miltenberg","type":"Landkreis"},"federalState":{"key":"09","name":"Bayern"}},{"name":"Frohnhallenweg","postalCode":"63868","locality":"Großwallstadt","municipality":{"key":"09676126","name":"Großwallstadt","type":"Kreisangehörige_Gemeinde"},"district":{"key":"09676","name":"Miltenberg","type":"Landkreis"},"federalState":{"key":"09","name":"Bayern"}},{"name":"Fronhallenweg","postalCode":"63868","locality":"Großwallstadt","municipality":{"key":"09676126","name":"Großwallstadt","type":"Kreisangehörige_Gemeinde"},"district":{"key":"09676","name":"Miltenberg","type":"Landkreis"},"federalState":{"key":"09","name":"Bayern"}},{"name":"Frühlingstr.","postalCode":"63868","locality":"Großwallstadt","municipality":{"key":"09676126","name":"Großwallstadt","type":"Kreisangehörige_Gemeinde"},"district":{"key":"09676","name":"Miltenberg","type":"Landkreis"},"federalState":{"key":"09","name":"Bayern"}},{"name":"Gartenstr.","postalCode":"63868","locality":"Großwallstadt","municipality":{"key":"09676126","name":"Großwallstadt","type":"Kreisangehörige_Gemeinde"},"district":{"key":"09676","name":"Miltenberg","type":"Landkreis"},"federalState":{"key":"09","name":"Bayern"}},{"name":"Goethestr.","postalCode":"63868","locality":"Großwallstadt","municipality":{"key":"09676126","name":"Großwallstadt","type":"Kreisangehörige_Gemeinde"},"district":{"key":"09676","name":"Miltenberg","type":"Landkreis"},"federalState":{"key":"09","name":"Bayern"}},{"name":"Großostheimer Str.","postalCode":"63868","locality":"Großwallstadt","municipality":{"key":"09676126","name":"Großwallstadt","type":"Kreisangehörige_Gemeinde"},"district":{"key":"09676","name":"Miltenberg","type":"Landkreis"},"federalState":{"key":"09","name":"Bayern"}},{"name":"Grundtalring","postalCode":"63868","locality":"Großwallstadt","municipality":{"key":"09676126","name":"Großwallstadt","type":"Kreisangehörige_Gemeinde"},"district":{"key":"09676","name":"Miltenberg","type":"Landkreis"},"federalState":{"key":"09","name":"Bayern"}},{"name":"Hagenstr.","postalCode":"63868","locality":"Großwallstadt","municipality":{"key":"09676126","name":"Großwallstadt","type":"Kreisangehörige_Gemeinde"},"district":{"key":"09676","name":"Miltenberg","type":"Landkreis"},"federalState":{"key":"09","name":"Bayern"}},{"name":"Haggraben","postalCode":"63868","locality":"Großwallstadt","municipality":{"key":"09676126","name":"Großwallstadt","type":"Kreisangehörige_Gemeinde"},"district":{"key":"09676","name":"Miltenberg","type":"Landkreis"},"federalState":{"key":"09","name":"Bayern"}},{"name":"Hauptstr.","postalCode":"63868","locality":"Großwallstadt","municipality":{"key":"09676126","name":"Großwallstadt","type":"Kreisangehörige_Gemeinde"},"district":{"key":"09676","name":"Miltenberg","type":"Landkreis"},"federalState":{"key":"09","name":"Bayern"}},{"name":"Hintergasse","postalCode":"63868","locality":"Großwallstadt","municipality":{"key":"09676126","name":"Großwallstadt","type":"Kreisangehörige_Gemeinde"},"district":{"key":"09676","name":"Miltenberg","type":"Landkreis"},"federalState":{"key":"09","name":"Bayern"}},{"name":"Hinterm Turm","postalCode":"63868","locality":"Großwallstadt","municipality":{"key":"09676126","name":"Großwallstadt","type":"Kreisangehörige_Gemeinde"},"district":{"key":"09676","name":"Miltenberg","type":"Landkreis"},"federalState":{"key":"09","name":"Bayern"}},{"name":"Industriering","postalCode":"63868","locality":"Großwallstadt","municipality":{"key":"09676126","name":"Großwallstadt","type":"Kreisangehörige_Gemeinde"},"district":{"key":"09676","name":"Miltenberg","type":"Landkreis"},"federalState":{"key":"09","name":"Bayern"}},{"name":"Jahnstr.","postalCode":"63868","locality":"Großwallstadt","municipality":{"key":"09676126","name":"Großwallstadt","type":"Kreisangehörige_Gemeinde"},"district":{"key":"09676","name":"Miltenberg","type":"Landkreis"},"federalState":{"key":"09","name":"Bayern"}},{"name":"Kantstr.","postalCode":"63868","locality":"Großwallstadt","municipality":{"key":"09676126","name":"Großwallstadt","type":"Kreisangehörige_Gemeinde"},"district":{"key":"09676","name":"Miltenberg","type":"Landkreis"},"federalState":{"key":"09","name":"Bayern"}},{"name":"Kehlgrabenstr.","postalCode":"63868","locality":"Großwallstadt","municipality":{"key":"09676126","name":"Großwallstadt","type":"Kreisangehörige_Gemeinde"},"district":{"key":"09676","name":"Miltenberg","type":"Landkreis"},"federalState":{"key":"09","name":"Bayern"}},{"name":"Kettelerstr.","postalCode":"63868","locality":"Großwallstadt","municipality":{"key":"09676126","name":"Großwallstadt","type":"Kreisangehörige_Gemeinde"},"district":{"key":"09676","name":"Miltenberg","type":"Landkreis"},"federalState":{"key":"09","name":"Bayern"}},{"name":"Kirchgasse","postalCode":"63868","locality":"Großwallstadt","municipality":{"key":"09676126","name":"Großwallstadt","type":"Kreisangehörige_Gemeinde"},"district":{"key":"09676","name":"Miltenberg","type":"Landkreis"},"federalState":{"key":"09","name":"Bayern"}},{"name":"Kolpingstr.","postalCode":"63868","locality":"Großwallstadt","municipality":{"key":"09676126","name":"Großwallstadt","type":"Kreisangehörige_Gemeinde"},"district":{"key":"09676","name":"Miltenberg","type":"Landkreis"},"federalState":{"key":"09","name":"Bayern"}},{"name":"Krimhildstr.","postalCode":"63868","locality":"Großwallstadt","municipality":{"key":"09676126","name":"Großwallstadt","type":"Kreisangehörige_Gemeinde"},"district":{"key":"09676","name":"Miltenberg","type":"Landkreis"},"federalState":{"key":"09","name":"Bayern"}},{"name":"Krokusstr.","postalCode":"63868","locality":"Großwallstadt","municipality":{"key":"09676126","name":"Großwallstadt","type":"Kreisangehörige_Gemeinde"},"district":{"key":"09676","name":"Miltenberg","type":"Landkreis"},"federalState":{"key":"09","name":"Bayern"}},{"name":"Lessingstr.","postalCode":"63868","locality":"Großwallstadt","municipality":{"key":"09676126","name":"Großwallstadt","type":"Kreisangehörige_Gemeinde"},"district":{"key":"09676","name":"Miltenberg","type":"Landkreis"},"federalState":{"key":"09","name":"Bayern"}},{"name":"Lilienstr.","postalCode":"63868","locality":"Großwallstadt","municipality":{"key":"09676126","name":"Großwallstadt","type":"Kreisangehörige_Gemeinde"},"district":{"key":"09676","name":"Miltenberg","type":"Landkreis"},"federalState":{"key":"09","name":"Bayern"}},{"name":"Lindenstr.","postalCode":"63868","locality":"Großwallstadt","municipality":{"key":"09676126","name":"Großwallstadt","type":"Kreisangehörige_Gemeinde"},"district":{"key":"09676","name":"Miltenberg","type":"Landkreis"},"federalState":{"key":"09","name":"Bayern"}},{"name":"Lützeltaler Str.","postalCode":"63868","locality":"Großwallstadt","municipality":{"key":"09676126","name":"Großwallstadt","type":"Kreisangehörige_Gemeinde"},"district":{"key":"09676","name":"Miltenberg","type":"Landkreis"},"federalState":{"key":"09","name":"Bayern"}},{"name":"Mainstr.","postalCode":"63868","locality":"Großwallstadt","municipality":{"key":"09676126","name":"Großwallstadt","type":"Kreisangehörige_Gemeinde"},"district":{"key":"09676","name":"Miltenberg","type":"Landkreis"},"federalState":{"key":"09","name":"Bayern"}},{"name":"Marienstr.","postalCode":"63868","locality":"Großwallstadt","municipality":{"key":"09676126","name":"Großwallstadt","type":"Kreisangehörige_Gemeinde"},"district":{"key":"09676","name":"Miltenberg","type":"Landkreis"},"federalState":{"key":"09","name":"Bayern"}},{"name":"Mömlinger Str.","postalCode":"63868","locality":"Großwallstadt","municipality":{"key":"09676126","name":"Großwallstadt","type":"Kreisangehörige_Gemeinde"},"district":{"key":"09676","name":"Miltenberg","type":"Landkreis"},"federalState":{"key":"09","name":"Bayern"}},{"name":"Mozartring","postalCode":"63868","locality":"Großwallstadt","municipality":{"key":"09676126","name":"Großwallstadt","type":"Kreisangehörige_Gemeinde"},"district":{"key":"09676","name":"Miltenberg","type":"Landkreis"},"federalState":{"key":"09","name":"Bayern"}},{"name":"Nelkenstr.","postalCode":"63868","locality":"Großwallstadt","municipality":{"key":"09676126","name":"Großwallstadt","type":"Kreisangehörige_Gemeinde"},"district":{"key":"09676","name":"Miltenberg","type":"Landkreis"},"federalState":{"key":"09","name":"Bayern"}},{"name":"Neubaugasse","postalCode":"63868","locality":"Großwallstadt","municipality":{"key":"09676126","name":"Großwallstadt","type":"Kreisangehörige_Gemeinde"},"district":{"key":"09676","name":"Miltenberg","type":"Landkreis"},"federalState":{"key":"09","name":"Bayern"}},{"name":"Nibelungenstr.","postalCode":"63868","locality":"Großwallstadt","municipality":{"key":"09676126","name":"Großwallstadt","type":"Kreisangehörige_Gemeinde"},"district":{"key":"09676","name":"Miltenberg","type":"Landkreis"},"federalState":{"key":"09","name":"Bayern"}},{"name":"Niedernberger Str.","postalCode":"63868","locality":"Großwallstadt","municipality":{"key":"09676126","name":"Großwallstadt","type":"Kreisangehörige_Gemeinde"},"district":{"key":"09676","name":"Miltenberg","type":"Landkreis"},"federalState":{"key":"09","name":"Bayern"}},{"name":"Nordring","postalCode":"63868","locality":"Großwallstadt","municipality":{"key":"09676126","name":"Großwallstadt","type":"Kreisangehörige_Gemeinde"},"district":{"key":"09676","name":"Miltenberg","type":"Landkreis"},"federalState":{"key":"09","name":"Bayern"}},{"name":"Obere Fährgasse","postalCode":"63868","locality":"Großwallstadt","municipality":{"key":"09676126","name":"Großwallstadt","type":"Kreisangehörige_Gemeinde"},"district":{"key":"09676","name":"Miltenberg","type":"Landkreis"},"federalState":{"key":"09","name":"Bayern"}},{"name":"Obernburger Str.","postalCode":"63868","locality":"Großwallstadt","municipality":{"key":"09676126","name":"Großwallstadt","type":"Kreisangehörige_Gemeinde"},"district":{"key":"09676","name":"Miltenberg","type":"Landkreis"},"federalState":{"key":"09","name":"Bayern"}},{"name":"Odenwaldstr.","postalCode":"63868","locality":"Großwallstadt","municipality":{"key":"09676126","name":"Großwallstadt","type":"Kreisangehörige_Gemeinde"},"district":{"key":"09676","name":"Miltenberg","type":"Landkreis"},"federalState":{"key":"09","name":"Bayern"}},{"name":"Paradiesäcker","postalCode":"63868","locality":"Großwallstadt","municipality":{"key":"09676126","name":"Großwallstadt","type":"Kreisangehörige_Gemeinde"},"district":{"key":"09676","name":"Miltenberg","type":"Landkreis"},"federalState":{"key":"09","name":"Bayern"}},{"name":"Pfarrer-Henning-Str.","postalCode":"63868","locality":"Großwallstadt","municipality":{"key":"09676126","name":"Großwallstadt","type":"Kreisangehörige_Gemeinde"},"district":{"key":"09676","name":"Miltenberg","type":"Landkreis"},"federalState":{"key":"09","name":"Bayern"}},{"name":"Pfarrer-Ott-Str.","postalCode":"63868","locality":"Großwallstadt","municipality":{"key":"09676126","name":"Großwallstadt","type":"Kreisangehörige_Gemeinde"},"district":{"key":"09676","name":"Miltenberg","type":"Landkreis"},"federalState":{"key":"09","name":"Bayern"}},{"name":"Quellenstr.","postalCode":"63868","locality":"Großwallstadt","municipality":{"key":"09676126","name":"Großwallstadt","type":"Kreisangehörige_Gemeinde"},"district":{"key":"09676","name":"Miltenberg","type":"Landkreis"},"federalState":{"key":"09","name":"Bayern"}},{"name":"Reichartshäuserhof","postalCode":"63868","locality":"Großwallstadt","municipality":{"key":"09676126","name":"Großwallstadt","type":"Kreisangehörige_Gemeinde"},"district":{"key":"09676","name":"Miltenberg","type":"Landkreis"},"federalState":{"key":"09","name":"Bayern"}},{"name":"Rosenstr.","postalCode":"63868","locality":"Großwallstadt","municipality":{"key":"09676126","name":"Großwallstadt","type":"Kreisangehörige_Gemeinde"},"district":{"key":"09676","name":"Miltenberg","type":"Landkreis"},"federalState":{"key":"09","name":"Bayern"}},{"name":"Schillerring","postalCode":"63868","locality":"Großwallstadt","municipality":{"key":"09676126","name":"Großwallstadt","type":"Kreisangehörige_Gemeinde"},"district":{"key":"09676","name":"Miltenberg","type":"Landkreis"},"federalState":{"key":"09","name":"Bayern"}},{"name":"Schlesierstr.","postalCode":"63868","locality":"Großwallstadt","municipality":{"key":"09676126","name":"Großwallstadt","type":"Kreisangehörige_Gemeinde"},"district":{"key":"09676","name":"Miltenberg","type":"Landkreis"},"federalState":{"key":"09","name":"Bayern"}},{"name":"Schloßstr.","postalCode":"63868","locality":"Großwallstadt","municipality":{"key":"09676126","name":"Großwallstadt","type":"Kreisangehörige_Gemeinde"},"district":{"key":"09676","name":"Miltenberg","type":"Landkreis"},"federalState":{"key":"09","name":"Bayern"}},{"name":"Schmalzgasse","postalCode":"63868","locality":"Großwallstadt","municipality":{"key":"09676126","name":"Großwallstadt","type":"Kreisangehörige_Gemeinde"},"district":{"key":"09676","name":"Miltenberg","type":"Landkreis"},"federalState":{"key":"09","name":"Bayern"}},{"name":"Schulstr.","postalCode":"63868","locality":"Großwallstadt","municipality":{"key":"09676126","name":"Großwallstadt","type":"Kreisangehörige_Gemeinde"},"district":{"key":"09676","name":"Miltenberg","type":"Landkreis"},"federalState":{"key":"09","name":"Bayern"}},{"name":"Seeblick","postalCode":"63868","locality":"Großwallstadt","municipality":{"key":"09676126","name":"Großwallstadt","type":"Kreisangehörige_Gemeinde"},"district":{"key":"09676","name":"Miltenberg","type":"Landkreis"},"federalState":{"key":"09","name":"Bayern"}},{"name":"Siegfriedstr.","postalCode":"63868","locality":"Großwallstadt","municipality":{"key":"09676126","name":"Großwallstadt","type":"Kreisangehörige_Gemeinde"},"district":{"key":"09676","name":"Miltenberg","type":"Landkreis"},"federalState":{"key":"09","name":"Bayern"}},{"name":"Spessartstr.","postalCode":"63868","locality":"Großwallstadt","municipality":{"key":"09676126","name":"Großwallstadt","type":"Kreisangehörige_Gemeinde"},"district":{"key":"09676","name":"Miltenberg","type":"Landkreis"},"federalState":{"key":"09","name":"Bayern"}},{"name":"Sportplatzstr.","postalCode":"63868","locality":"Großwallstadt","municipality":{"key":"09676126","name":"Großwallstadt","type":"Kreisangehörige_Gemeinde"},"district":{"key":"09676","name":"Miltenberg","type":"Landkreis"},"federalState":{"key":"09","name":"Bayern"}},{"name":"Sudetenstr.","postalCode":"63868","locality":"Großwallstadt","municipality":{"key":"09676126","name":"Großwallstadt","type":"Kreisangehörige_Gemeinde"},"district":{"key":"09676","name":"Miltenberg","type":"Landkreis"},"federalState":{"key":"09","name":"Bayern"}},{"name":"Südkreisel","postalCode":"63868","locality":"Großwallstadt","municipality":{"key":"09676126","name":"Großwallstadt","type":"Kreisangehörige_Gemeinde"},"district":{"key":"09676","name":"Miltenberg","type":"Landkreis"},"federalState":{"key":"09","name":"Bayern"}},{"name":"Turmstr.","postalCode":"63868","locality":"Großwallstadt","municipality":{"key":"09676126","name":"Großwallstadt","type":"Kreisangehörige_Gemeinde"},"district":{"key":"09676","name":"Miltenberg","type":"Landkreis"},"federalState":{"key":"09","name":"Bayern"}},{"name":"Unterer Gänsbergweg","postalCode":"63897","locality":"Miltenberg","municipality":{"key":"09676139","name":"Miltenberg, St","type":"Stadt"},"district":{"key":"09676","name":"Miltenberg","type":"Landkreis"},"federalState":{"key":"09","name":"Bayern"}},{"name":"Unterer Hartungsweg","postalCode":"63897","locality":"Miltenberg","municipality":{"key":"09676139","name":"Miltenberg, St","type":"Stadt"},"district":{"key":"09676","name":"Miltenberg","type":"Landkreis"},"federalState":{"key":"09","name":"Bayern"}},{"name":"Unterer Hüttenweg","postalCode":"63897","locality":"Miltenberg","municipality":{"key":"09676139","name":"Miltenberg, St","type":"Stadt"},"district":{"key":"09676","name":"Miltenberg","type":"Landkreis"},"federalState":{"key":"09","name":"Bayern"}},{"name":"Unterer Steigeweg","postalCode":"63897","locality":"Miltenberg","municipality":{"key":"09676139","name":"Miltenberg, St","type":"Stadt"},"district":{"key":"09676","name":"Miltenberg","type":"Landkreis"},"federalState":{"key":"09","name":"Bayern"}},{"name":"Untere-Walldürner-Str.","postalCode":"63897","locality":"Miltenberg","municipality":{"key":"09676139","name":"Miltenberg, St","type":"Stadt"},"district":{"key":"09676","name":"Miltenberg","type":"Landkreis"},"federalState":{"key":"09","name":"Bayern"}},{"name":"Verbindungsweg","postalCode":"63897","locality":"Miltenberg","municipality":{"key":"09676139","name":"Miltenberg, St","type":"Stadt"},"district":{"key":"09676","name":"Miltenberg","type":"Landkreis"},"federalState":{"key":"09","name":"Bayern"}},{"name":"Vogelweiderweg","postalCode":"63897","locality":"Miltenberg","municipality":{"key":"09676139","name":"Miltenberg, St","type":"Stadt"},"district":{"key":"09676","name":"Miltenberg","type":"Landkreis"},"federalState":{"key":"09","name":"Bayern"}},{"name":"Von-Berlichingen-Str.","postalCode":"63897","locality":"Miltenberg","municipality":{"key":"09676139","name":"Miltenberg, St","type":"Stadt"},"district":{"key":"09676","name":"Miltenberg","type":"Landkreis"},"federalState":{"key":"09","name":"Bayern"}},{"name":"Von-Bodelschwingh-Str.","postalCode":"63897","locality":"Miltenberg","municipality":{"key":"09676139","name":"Miltenberg, St","type":"Stadt"},"district":{"key":"09676","name":"Miltenberg","type":"Landkreis"},"federalState":{"key":"09","name":"Bayern"}},{"name":"Von-Hauck-Str.","postalCode":"63897","locality":"Miltenberg","municipality":{"key":"09676139","name":"Miltenberg, St","type":"Stadt"},"district":{"key":"09676","name":"Miltenberg","type":"Landkreis"},"federalState":{"key":"09","name":"Bayern"}},{"name":"Von-Ketteler-Str.","postalCode":"63897","locality":"Miltenberg","municipality":{"key":"09676139","name":"Miltenberg, St","type":"Stadt"},"district":{"key":"09676","name":"Miltenberg","type":"Landkreis"},"federalState":{"key":"09","name":"Bayern"}},{"name":"Von-Stein-Str.","postalCode":"63897","locality":"Miltenberg","municipality":{"key":"09676139","name":"Miltenberg, St","type":"Stadt"},"district":{"key":"09676","name":"Miltenberg","type":"Landkreis"},"federalState":{"key":"09","name":"Bayern"}},{"name":"Wagnerstr.","postalCode":"63868","locality":"Großwallstadt","municipality":{"key":"09676126","name":"Großwallstadt","type":"Kreisangehörige_Gemeinde"},"district":{"key":"09676","name":"Miltenberg","type":"Landkreis"},"federalState":{"key":"09","name":"Bayern"}},{"name":"Wallstr.","postalCode":"63868","locality":"Großwallstadt","municipality":{"key":"09676126","name":"Großwallstadt","type":"Kreisangehörige_Gemeinde"},"district":{"key":"09676","name":"Miltenberg","type":"Landkreis"},"federalState":{"key":"09","name":"Bayern"}},{"name":"Weichgasse","postalCode":"63868","locality":"Großwallstadt","municipality":{"key":"09676126","name":"Großwallstadt","type":"Kreisangehörige_Gemeinde"},"district":{"key":"09676","name":"Miltenberg","type":"Landkreis"},"federalState":{"key":"09","name":"Bayern"}},{"name":"Westring","postalCode":"63868","locality":"Großwallstadt","municipality":{"key":"09676126","name":"Großwallstadt","type":"Kreisangehörige_Gemeinde"},"district":{"key":"09676","name":"Miltenberg","type":"Landkreis"},"federalState":{"key":"09","name":"Bayern"}},{"name":"Ziegelgasse","postalCode":"63897","locality":"Miltenberg","municipality":{"key":"09676139","name":"Miltenberg, St","type":"Stadt"},"district":{"key":"09676","name":"Miltenberg","type":"Landkreis"},"federalState":{"key":"09","name":"Bayern"}},{"name":"Zunkenstr.","postalCode":"63897","locality":"Miltenberg","municipality":{"key":"09676139","name":"Miltenberg, St","type":"Stadt"},"district":{"key":"09676","name":"Miltenberg","type":"Landkreis"},"federalState":{"key":"09","name":"Bayern"}},{"name":"Zwillingsquellenweg","postalCode":"63897","locality":"Miltenberg","municipality":{"key":"09676139","name":"Miltenberg, St","type":"Stadt"},"district":{"key":"09676","name":"Miltenberg","type":"Landkreis"},"federalState":{"key":"09","name":"Bayern"}},{"name":"Älterwaldweg","postalCode":"63897","locality":"Miltenberg","municipality":{"key":"09676139","name":"Miltenberg, St","type":"Stadt"},"district":{"key":"09676","name":"Miltenberg","type":"Landkreis"},"federalState":{"key":"09","name":"Bayern"}},]