[{"key":"10259717","name":"Corvatsch","postalCode":"7513","locality":"Silvaplana-Surlej","commune":{"key":"3790","name":"Silvaplana","shortName":"Silvaplana"},"district":{"key":"1846","name":"Region Maloja"},"canton":{"key":"18","code":"GR","name":"Graubünden / Grigioni / Grischun"},"status":"Real"},{"key":"10216621","name":"La Choma","postalCode":"7513","locality":"Silvaplana-Surlej","commune":{"key":"3790","name":"Silvaplana","shortName":"Silvaplana"},"district":{"key":"1846","name":"Region Maloja"},"canton":{"key":"18","code":"GR","name":"Graubünden / Grigioni / Grischun"},"status":"Real"},{"key":"10216623","name":"Riva Crastatscha","postalCode":"7513","locality":"Silvaplana-Surlej","commune":{"key":"3790","name":"Silvaplana","shortName":"Silvaplana"},"district":{"key":"1846","name":"Region Maloja"},"canton":{"key":"18","code":"GR","name":"Graubünden / Grigioni / Grischun"},"status":"Real"},{"key":"10123778","name":"Senda Aguagliöls","postalCode":"7513","locality":"Silvaplana-Surlej","commune":{"key":"3790","name":"Silvaplana","shortName":"Silvaplana"},"district":{"key":"1846","name":"Region Maloja"},"canton":{"key":"18","code":"GR","name":"Graubünden / Grigioni / Grischun"},"status":"Real"},{"key":"10250455","name":"Senda da l'Anda Nuota","postalCode":"7513","locality":"Silvaplana","commune":{"key":"3790","name":"Silvaplana","shortName":"Silvaplana"},"district":{"key":"1846","name":"Region Maloja"},"canton":{"key":"18","code":"GR","name":"Graubünden / Grigioni / Grischun"},"status":"Real"},{"key":"10215390","name":"Senda da la Sela","postalCode":"7513","locality":"Silvaplana-Surlej","commune":{"key":"3790","name":"Silvaplana","shortName":"Silvaplana"},"district":{"key":"1846","name":"Region Maloja"},"canton":{"key":"18","code":"GR","name":"Graubünden / Grigioni / Grischun"},"status":"Real"},{"key":"10148006","name":"Senda dal Lej","postalCode":"7513","locality":"Silvaplana","commune":{"key":"3790","name":"Silvaplana","shortName":"Silvaplana"},"district":{"key":"1846","name":"Region Maloja"},"canton":{"key":"18","code":"GR","name":"Graubünden / Grigioni / Grischun"},"status":"Real"},{"key":"10215394","name":"Senda dal Lej Nair","postalCode":"7513","locality":"Silvaplana-Surlej","commune":{"key":"3790","name":"Silvaplana","shortName":"Silvaplana"},"district":{"key":"1846","name":"Region Maloja"},"canton":{"key":"18","code":"GR","name":"Graubünden / Grigioni / Grischun"},"status":"Real"},{"key":"10215397","name":"Senda dal Lej Zuppo","postalCode":"7513","locality":"Silvaplana-Surlej","commune":{"key":"3790","name":"Silvaplana","shortName":"Silvaplana"},"district":{"key":"1846","name":"Region Maloja"},"canton":{"key":"18","code":"GR","name":"Graubünden / Grigioni / Grischun"},"status":"Real"},{"key":"10215399","name":"Senda God Mez","postalCode":"7513","locality":"Silvaplana-Surlej","commune":{"key":"3790","name":"Silvaplana","shortName":"Silvaplana"},"district":{"key":"1846","name":"Region Maloja"},"canton":{"key":"18","code":"GR","name":"Graubünden / Grigioni / Grischun"},"status":"Real"},{"key":"10215402","name":"Senda Maria Barkani","postalCode":"7513","locality":"Silvaplana-Surlej","commune":{"key":"3790","name":"Silvaplana","shortName":"Silvaplana"},"district":{"key":"1846","name":"Region Maloja"},"canton":{"key":"18","code":"GR","name":"Graubünden / Grigioni / Grischun"},"status":"Real"},{"key":"10215405","name":"Senda Schinellas","postalCode":"7513","locality":"Silvaplana-Surlej","commune":{"key":"3790","name":"Silvaplana","shortName":"Silvaplana"},"district":{"key":"1846","name":"Region Maloja"},"canton":{"key":"18","code":"GR","name":"Graubünden / Grigioni / Grischun"},"status":"Real"},{"key":"10215407","name":"Senda Selettà","postalCode":"7513","locality":"Silvaplana-Surlej","commune":{"key":"3790","name":"Silvaplana","shortName":"Silvaplana"},"district":{"key":"1846","name":"Region Maloja"},"canton":{"key":"18","code":"GR","name":"Graubünden / Grigioni / Grischun"},"status":"Real"},{"key":"10039219","name":"Stradun Chantunel","postalCode":"7513","locality":"Silvaplana","commune":{"key":"3790","name":"Silvaplana","shortName":"Silvaplana"},"district":{"key":"1846","name":"Region Maloja"},"canton":{"key":"18","code":"GR","name":"Graubünden / Grigioni / Grischun"},"status":"Real"},{"key":"10048417","name":"Truoch Pignia","postalCode":"7513","locality":"Silvaplana","commune":{"key":"3790","name":"Silvaplana","shortName":"Silvaplana"},"district":{"key":"1846","name":"Region Maloja"},"canton":{"key":"18","code":"GR","name":"Graubünden / Grigioni / Grischun"},"status":"Real"},{"key":"10131107","name":"Via Chadaunchels","postalCode":"7513","locality":"Silvaplana-Surlej","commune":{"key":"3790","name":"Silvaplana","shortName":"Silvaplana"},"district":{"key":"1846","name":"Region Maloja"},"canton":{"key":"18","code":"GR","name":"Graubünden / Grigioni / Grischun"},"status":"Real"},{"key":"10039220","name":"Via Chaunt Baselgia","postalCode":"7513","locality":"Silvaplana","commune":{"key":"3790","name":"Silvaplana","shortName":"Silvaplana"},"district":{"key":"1846","name":"Region Maloja"},"canton":{"key":"18","code":"GR","name":"Graubünden / Grigioni / Grischun"},"status":"Real"},{"key":"10259018","name":"Via Curtinella","postalCode":"7513","locality":"Silvaplana-Surlej","commune":{"key":"3790","name":"Silvaplana","shortName":"Silvaplana"},"district":{"key":"1846","name":"Region Maloja"},"canton":{"key":"18","code":"GR","name":"Graubünden / Grigioni / Grischun"},"status":"Real"},{"key":"10095134","name":"Via da Bos-cha","postalCode":"7513","locality":"Silvaplana","commune":{"key":"3790","name":"Silvaplana","shortName":"Silvaplana"},"district":{"key":"1846","name":"Region Maloja"},"canton":{"key":"18","code":"GR","name":"Graubünden / Grigioni / Grischun"},"status":"Real"},{"key":"10035898","name":"Via da l'Alp","postalCode":"7513","locality":"Silvaplana-Surlej","commune":{"key":"3790","name":"Silvaplana","shortName":"Silvaplana"},"district":{"key":"1846","name":"Region Maloja"},"canton":{"key":"18","code":"GR","name":"Graubünden / Grigioni / Grischun"},"status":"Real"},{"key":"10215410","name":"Via da la Palüd Lungia","postalCode":"7513","locality":"Silvaplana-Surlej","commune":{"key":"3790","name":"Silvaplana","shortName":"Silvaplana"},"district":{"key":"1846","name":"Region Maloja"},"canton":{"key":"18","code":"GR","name":"Graubünden / Grigioni / Grischun"},"status":"Real"},{"key":"10035899","name":"Via da las Palüds","postalCode":"7513","locality":"Silvaplana-Surlej","commune":{"key":"3790","name":"Silvaplana","shortName":"Silvaplana"},"district":{"key":"1846","name":"Region Maloja"},"canton":{"key":"18","code":"GR","name":"Graubünden / Grigioni / Grischun"},"status":"Real"},{"key":"10108196","name":"Via dal Chanel","postalCode":"7513","locality":"Silvaplana","commune":{"key":"3790","name":"Silvaplana","shortName":"Silvaplana"},"district":{"key":"1846","name":"Region Maloja"},"canton":{"key":"18","code":"GR","name":"Graubünden / Grigioni / Grischun"},"status":"Real"},{"key":"10035900","name":"Via dal Chastè","postalCode":"7513","locality":"Silvaplana-Surlej","commune":{"key":"3790","name":"Silvaplana","shortName":"Silvaplana"},"district":{"key":"1846","name":"Region Maloja"},"canton":{"key":"18","code":"GR","name":"Graubünden / Grigioni / Grischun"},"status":"Real"},{"key":"10078379","name":"Via dal Corvatsch","postalCode":"7513","locality":"Silvaplana-Surlej","commune":{"key":"3790","name":"Silvaplana","shortName":"Silvaplana"},"district":{"key":"1846","name":"Region Maloja"},"canton":{"key":"18","code":"GR","name":"Graubünden / Grigioni / Grischun"},"status":"Real"},{"key":"10095135","name":"Via dal Crap Alv","postalCode":"7513","locality":"Silvaplana-Surlej","commune":{"key":"3790","name":"Silvaplana","shortName":"Silvaplana"},"district":{"key":"1846","name":"Region Maloja"},"canton":{"key":"18","code":"GR","name":"Graubünden / Grigioni / Grischun"},"status":"Real"},{"key":"10175495","name":"Via dal Farrer","postalCode":"7513","locality":"Silvaplana","commune":{"key":"3790","name":"Silvaplana","shortName":"Silvaplana"},"district":{"key":"1846","name":"Region Maloja"},"canton":{"key":"18","code":"GR","name":"Graubünden / Grigioni / Grischun"},"status":"Real"},{"key":"10170796","name":"Via dal Güglia","postalCode":"7513","locality":"Silvaplana","commune":{"key":"3790","name":"Silvaplana","shortName":"Silvaplana"},"district":{"key":"1846","name":"Region Maloja"},"canton":{"key":"18","code":"GR","name":"Graubünden / Grigioni / Grischun"},"status":"Real"},{"key":"10215413","name":"Via dals Chavals","postalCode":"7513","locality":"Silvaplana","commune":{"key":"3790","name":"Silvaplana","shortName":"Silvaplana"},"district":{"key":"1846","name":"Region Maloja"},"canton":{"key":"18","code":"GR","name":"Graubünden / Grigioni / Grischun"},"status":"Real"},{"key":"10095136","name":"Via dals Clos","postalCode":"7513","locality":"Silvaplana-Surlej","commune":{"key":"3790","name":"Silvaplana","shortName":"Silvaplana"},"district":{"key":"1846","name":"Region Maloja"},"canton":{"key":"18","code":"GR","name":"Graubünden / Grigioni / Grischun"},"status":"Real"},{"key":"10035902","name":"Via dals Salschs","postalCode":"7513","locality":"Silvaplana-Surlej","commune":{"key":"3790","name":"Silvaplana","shortName":"Silvaplana"},"district":{"key":"1846","name":"Region Maloja"},"canton":{"key":"18","code":"GR","name":"Graubünden / Grigioni / Grischun"},"status":"Real"},{"key":"10039218","name":"Via dal Sunteri","postalCode":"7513","locality":"Silvaplana","commune":{"key":"3790","name":"Silvaplana","shortName":"Silvaplana"},"district":{"key":"1846","name":"Region Maloja"},"canton":{"key":"18","code":"GR","name":"Graubünden / Grigioni / Grischun"},"status":"Real"},{"key":"10035901","name":"Via dal Zardin","postalCode":"7513","locality":"Silvaplana-Surlej","commune":{"key":"3790","name":"Silvaplana","shortName":"Silvaplana"},"district":{"key":"1846","name":"Region Maloja"},"canton":{"key":"18","code":"GR","name":"Graubünden / Grigioni / Grischun"},"status":"Real"},{"key":"10185539","name":"Via da Surlej","postalCode":"7513","locality":"Silvaplana","commune":{"key":"3790","name":"Silvaplana","shortName":"Silvaplana"},"district":{"key":"1846","name":"Region Maloja"},"canton":{"key":"18","code":"GR","name":"Graubünden / Grigioni / Grischun"},"status":"Real"},{"key":"10185539","name":"Via da Surlej","postalCode":"7513","locality":"Silvaplana-Surlej","commune":{"key":"3790","name":"Silvaplana","shortName":"Silvaplana"},"district":{"key":"1846","name":"Region Maloja"},"canton":{"key":"18","code":"GR","name":"Graubünden / Grigioni / Grischun"},"status":"Real"},{"key":"10095132","name":"Via Davous Selva","postalCode":"7513","locality":"Silvaplana-Surlej","commune":{"key":"3790","name":"Silvaplana","shortName":"Silvaplana"},"district":{"key":"1846","name":"Region Maloja"},"canton":{"key":"18","code":"GR","name":"Graubünden / Grigioni / Grischun"},"status":"Real"},{"key":"10035897","name":"Via d'Immez","postalCode":"7513","locality":"Silvaplana-Surlej","commune":{"key":"3790","name":"Silvaplana","shortName":"Silvaplana"},"district":{"key":"1846","name":"Region Maloja"},"canton":{"key":"18","code":"GR","name":"Graubünden / Grigioni / Grischun"},"status":"Real"},{"key":"10078376","name":"Via Foppas","postalCode":"7513","locality":"Silvaplana-Surlej","commune":{"key":"3790","name":"Silvaplana","shortName":"Silvaplana"},"district":{"key":"1846","name":"Region Maloja"},"canton":{"key":"18","code":"GR","name":"Graubünden / Grigioni / Grischun"},"status":"Real"},{"key":"10108195","name":"Via Maistra","postalCode":"7513","locality":"Silvaplana","commune":{"key":"3790","name":"Silvaplana","shortName":"Silvaplana"},"district":{"key":"1846","name":"Region Maloja"},"canton":{"key":"18","code":"GR","name":"Graubünden / Grigioni / Grischun"},"status":"Real"},{"key":"10129817","name":"Via Mulets","postalCode":"7513","locality":"Silvaplana","commune":{"key":"3790","name":"Silvaplana","shortName":"Silvaplana"},"district":{"key":"1846","name":"Region Maloja"},"canton":{"key":"18","code":"GR","name":"Graubünden / Grigioni / Grischun"},"status":"Real"},{"key":"10039221","name":"Via Munterots","postalCode":"7513","locality":"Silvaplana","commune":{"key":"3790","name":"Silvaplana","shortName":"Silvaplana"},"district":{"key":"1846","name":"Region Maloja"},"canton":{"key":"18","code":"GR","name":"Graubünden / Grigioni / Grischun"},"status":"Real"},{"key":"10215421","name":"Via Pantschrauna","postalCode":"7513","locality":"Silvaplana-Surlej","commune":{"key":"3790","name":"Silvaplana","shortName":"Silvaplana"},"district":{"key":"1846","name":"Region Maloja"},"canton":{"key":"18","code":"GR","name":"Graubünden / Grigioni / Grischun"},"status":"Real"},{"key":"10106585","name":"Via Piz Sura","postalCode":"7513","locality":"Silvaplana","commune":{"key":"3790","name":"Silvaplana","shortName":"Silvaplana"},"district":{"key":"1846","name":"Region Maloja"},"canton":{"key":"18","code":"GR","name":"Graubünden / Grigioni / Grischun"},"status":"Real"},{"key":"10039222","name":"Via Plazzet","postalCode":"7513","locality":"Silvaplana","commune":{"key":"3790","name":"Silvaplana","shortName":"Silvaplana"},"district":{"key":"1846","name":"Region Maloja"},"canton":{"key":"18","code":"GR","name":"Graubünden / Grigioni / Grischun"},"status":"Real"},{"key":"10190143","name":"Via Prasüras","postalCode":"7513","locality":"Silvaplana","commune":{"key":"3790","name":"Silvaplana","shortName":"Silvaplana"},"district":{"key":"1846","name":"Region Maloja"},"canton":{"key":"18","code":"GR","name":"Graubünden / Grigioni / Grischun"},"status":"Real"},{"key":"10039223","name":"Via Ruinas","postalCode":"7513","locality":"Silvaplana-Surlej","commune":{"key":"3790","name":"Silvaplana","shortName":"Silvaplana"},"district":{"key":"1846","name":"Region Maloja"},"canton":{"key":"18","code":"GR","name":"Graubünden / Grigioni / Grischun"},"status":"Real"},{"key":"10175494","name":"Via Sturetscha","postalCode":"7513","locality":"Silvaplana-Surlej","commune":{"key":"3790","name":"Silvaplana","shortName":"Silvaplana"},"district":{"key":"1846","name":"Region Maloja"},"canton":{"key":"18","code":"GR","name":"Graubünden / Grigioni / Grischun"},"status":"Real"},{"key":"10095133","name":"Via suot Pignia","postalCode":"7513","locality":"Silvaplana","commune":{"key":"3790","name":"Silvaplana","shortName":"Silvaplana"},"district":{"key":"1846","name":"Region Maloja"},"canton":{"key":"18","code":"GR","name":"Graubünden / Grigioni / Grischun"},"status":"Real"},{"key":"10035896","name":"Via Traviers","postalCode":"7513","locality":"Silvaplana","commune":{"key":"3790","name":"Silvaplana","shortName":"Silvaplana"},"district":{"key":"1846","name":"Region Maloja"},"canton":{"key":"18","code":"GR","name":"Graubünden / Grigioni / Grischun"},"status":"Real"},{"key":"10078378","name":"Via Veglia","postalCode":"7513","locality":"Silvaplana","commune":{"key":"3790","name":"Silvaplana","shortName":"Silvaplana"},"district":{"key":"1846","name":"Region Maloja"},"canton":{"key":"18","code":"GR","name":"Graubünden / Grigioni / Grischun"},"status":"Real"},{"key":"10035903","name":"Via vers Chardens","postalCode":"7513","locality":"Silvaplana","commune":{"key":"3790","name":"Silvaplana","shortName":"Silvaplana"},"district":{"key":"1846","name":"Region Maloja"},"canton":{"key":"18","code":"GR","name":"Graubünden / Grigioni / Grischun"},"status":"Real"},{"key":"10095137","name":"Via vers Mulins","postalCode":"7513","locality":"Silvaplana","commune":{"key":"3790","name":"Silvaplana","shortName":"Silvaplana"},"district":{"key":"1846","name":"Region Maloja"},"canton":{"key":"18","code":"GR","name":"Graubünden / Grigioni / Grischun"},"status":"Real"},]