[{"key":"10031569","name":"Am Stei","postalCode":"8225","locality":"Siblingen","commune":{"key":"2953","name":"Siblingen","shortName":"Siblingen"},"district":{"key":"1404","name":"Bezirk Schleitheim"},"canton":{"key":"14","code":"SH","name":"Schaffhausen"},"status":"Real"},{"key":"10085777","name":"Auf der Breite","postalCode":"8225","locality":"Siblingen","commune":{"key":"2953","name":"Siblingen","shortName":"Siblingen"},"district":{"key":"1404","name":"Bezirk Schleitheim"},"canton":{"key":"14","code":"SH","name":"Schaffhausen"},"status":"Real"},{"key":"10031570","name":"Breitestrasse","postalCode":"8225","locality":"Siblingen","commune":{"key":"2953","name":"Siblingen","shortName":"Siblingen"},"district":{"key":"1404","name":"Bezirk Schleitheim"},"canton":{"key":"14","code":"SH","name":"Schaffhausen"},"status":"Real"},{"key":"10026318","name":"Brunnenhof","postalCode":"8225","locality":"Siblingen","commune":{"key":"2953","name":"Siblingen","shortName":"Siblingen"},"district":{"key":"1404","name":"Bezirk Schleitheim"},"canton":{"key":"14","code":"SH","name":"Schaffhausen"},"status":"Real"},{"key":"10085778","name":"Burghaldenstrasse","postalCode":"8225","locality":"Siblingen","commune":{"key":"2953","name":"Siblingen","shortName":"Siblingen"},"district":{"key":"1404","name":"Bezirk Schleitheim"},"canton":{"key":"14","code":"SH","name":"Schaffhausen"},"status":"Real"},{"key":"10073369","name":"Fohrenhof","postalCode":"8225","locality":"Siblingen","commune":{"key":"2953","name":"Siblingen","shortName":"Siblingen"},"district":{"key":"1404","name":"Bezirk Schleitheim"},"canton":{"key":"14","code":"SH","name":"Schaffhausen"},"status":"Real"},{"key":"10212514","name":"Gächlingerstrasse","postalCode":"8225","locality":"Siblingen","commune":{"key":"2953","name":"Siblingen","shortName":"Siblingen"},"district":{"key":"1404","name":"Bezirk Schleitheim"},"canton":{"key":"14","code":"SH","name":"Schaffhausen"},"status":"Real"},{"key":"10031571","name":"Gewerbestrasse","postalCode":"8225","locality":"Siblingen","commune":{"key":"2953","name":"Siblingen","shortName":"Siblingen"},"district":{"key":"1404","name":"Bezirk Schleitheim"},"canton":{"key":"14","code":"SH","name":"Schaffhausen"},"status":"Real"},{"key":"10192061","name":"Ghahof","postalCode":"8225","locality":"Siblingen","commune":{"key":"2953","name":"Siblingen","shortName":"Siblingen"},"district":{"key":"1404","name":"Bezirk Schleitheim"},"canton":{"key":"14","code":"SH","name":"Schaffhausen"},"status":"Real"},{"key":"10212518","name":"Ghastrasse","postalCode":"8225","locality":"Siblingen","commune":{"key":"2953","name":"Siblingen","shortName":"Siblingen"},"district":{"key":"1404","name":"Bezirk Schleitheim"},"canton":{"key":"14","code":"SH","name":"Schaffhausen"},"status":"Real"},{"key":"10113212","name":"Grabenstrasse","postalCode":"8225","locality":"Siblingen","commune":{"key":"2953","name":"Siblingen","shortName":"Siblingen"},"district":{"key":"1404","name":"Bezirk Schleitheim"},"canton":{"key":"14","code":"SH","name":"Schaffhausen"},"status":"Real"},{"key":"10187862","name":"Gruberhof","postalCode":"8225","locality":"Siblingen","commune":{"key":"2953","name":"Siblingen","shortName":"Siblingen"},"district":{"key":"1404","name":"Bezirk Schleitheim"},"canton":{"key":"14","code":"SH","name":"Schaffhausen"},"status":"Real"},{"key":"10031572","name":"Gruberstrasse","postalCode":"8225","locality":"Siblingen","commune":{"key":"2953","name":"Siblingen","shortName":"Siblingen"},"district":{"key":"1404","name":"Bezirk Schleitheim"},"canton":{"key":"14","code":"SH","name":"Schaffhausen"},"status":"Real"},{"key":"10103230","name":"Halde","postalCode":"8225","locality":"Siblingen","commune":{"key":"2953","name":"Siblingen","shortName":"Siblingen"},"district":{"key":"1404","name":"Bezirk Schleitheim"},"canton":{"key":"14","code":"SH","name":"Schaffhausen"},"status":"Real"},{"key":"10080408","name":"Hauptstrasse","postalCode":"8225","locality":"Siblingen","commune":{"key":"2953","name":"Siblingen","shortName":"Siblingen"},"district":{"key":"1404","name":"Bezirk Schleitheim"},"canton":{"key":"14","code":"SH","name":"Schaffhausen"},"status":"Real"},{"key":"10031573","name":"Heppenacker","postalCode":"8225","locality":"Siblingen","commune":{"key":"2953","name":"Siblingen","shortName":"Siblingen"},"district":{"key":"1404","name":"Bezirk Schleitheim"},"canton":{"key":"14","code":"SH","name":"Schaffhausen"},"status":"Real"},{"key":"10179744","name":"Hofackerstrasse","postalCode":"8225","locality":"Siblingen","commune":{"key":"2953","name":"Siblingen","shortName":"Siblingen"},"district":{"key":"1404","name":"Bezirk Schleitheim"},"canton":{"key":"14","code":"SH","name":"Schaffhausen"},"status":"Real"},{"key":"10026321","name":"Hürstenhof","postalCode":"8225","locality":"Siblingen","commune":{"key":"2953","name":"Siblingen","shortName":"Siblingen"},"district":{"key":"1404","name":"Bezirk Schleitheim"},"canton":{"key":"14","code":"SH","name":"Schaffhausen"},"status":"Real"},{"key":"10073370","name":"Im Winkel","postalCode":"8225","locality":"Siblingen","commune":{"key":"2953","name":"Siblingen","shortName":"Siblingen"},"district":{"key":"1404","name":"Bezirk Schleitheim"},"canton":{"key":"14","code":"SH","name":"Schaffhausen"},"status":"Real"},{"key":"10080409","name":"In der Au","postalCode":"8225","locality":"Siblingen","commune":{"key":"2953","name":"Siblingen","shortName":"Siblingen"},"district":{"key":"1404","name":"Bezirk Schleitheim"},"canton":{"key":"14","code":"SH","name":"Schaffhausen"},"status":"Real"},{"key":"10180889","name":"Lettengarten","postalCode":"8225","locality":"Siblingen","commune":{"key":"2953","name":"Siblingen","shortName":"Siblingen"},"district":{"key":"1404","name":"Bezirk Schleitheim"},"canton":{"key":"14","code":"SH","name":"Schaffhausen"},"status":"Real"},{"key":"10031574","name":"Mühlenstrasse","postalCode":"8225","locality":"Siblingen","commune":{"key":"2953","name":"Siblingen","shortName":"Siblingen"},"district":{"key":"1404","name":"Bezirk Schleitheim"},"canton":{"key":"14","code":"SH","name":"Schaffhausen"},"status":"Real"},{"key":"10134705","name":"Nebental","postalCode":"8225","locality":"Siblingen","commune":{"key":"2953","name":"Siblingen","shortName":"Siblingen"},"district":{"key":"1404","name":"Bezirk Schleitheim"},"canton":{"key":"14","code":"SH","name":"Schaffhausen"},"status":"Real"},{"key":"10053254","name":"Nebental","postalCode":"8225","locality":"Siblingen","commune":{"key":"2953","name":"Siblingen","shortName":"Siblingen"},"district":{"key":"1404","name":"Bezirk Schleitheim"},"canton":{"key":"14","code":"SH","name":"Schaffhausen"},"status":"Real"},{"key":"10143056","name":"Obere Burghalde","postalCode":"8225","locality":"Siblingen","commune":{"key":"2953","name":"Siblingen","shortName":"Siblingen"},"district":{"key":"1404","name":"Bezirk Schleitheim"},"canton":{"key":"14","code":"SH","name":"Schaffhausen"},"status":"Real"},{"key":"10031575","name":"Obere Mühle","postalCode":"8225","locality":"Siblingen","commune":{"key":"2953","name":"Siblingen","shortName":"Siblingen"},"district":{"key":"1404","name":"Bezirk Schleitheim"},"canton":{"key":"14","code":"SH","name":"Schaffhausen"},"status":"Real"},{"key":"10080410","name":"Raabuck","postalCode":"8225","locality":"Siblingen","commune":{"key":"2953","name":"Siblingen","shortName":"Siblingen"},"district":{"key":"1404","name":"Bezirk Schleitheim"},"canton":{"key":"14","code":"SH","name":"Schaffhausen"},"status":"Real"},{"key":"10110818","name":"Raastrasse","postalCode":"8225","locality":"Siblingen","commune":{"key":"2953","name":"Siblingen","shortName":"Siblingen"},"district":{"key":"1404","name":"Bezirk Schleitheim"},"canton":{"key":"14","code":"SH","name":"Schaffhausen"},"status":"Real"},{"key":"10031577","name":"Randenstrasse","postalCode":"8225","locality":"Siblingen","commune":{"key":"2953","name":"Siblingen","shortName":"Siblingen"},"district":{"key":"1404","name":"Bezirk Schleitheim"},"canton":{"key":"14","code":"SH","name":"Schaffhausen"},"status":"Real"},{"key":"10080411","name":"Rietstrasse","postalCode":"8225","locality":"Siblingen","commune":{"key":"2953","name":"Siblingen","shortName":"Siblingen"},"district":{"key":"1404","name":"Bezirk Schleitheim"},"canton":{"key":"14","code":"SH","name":"Schaffhausen"},"status":"Real"},{"key":"10210845","name":"Rogackerweg","postalCode":"8225","locality":"Siblingen","commune":{"key":"2953","name":"Siblingen","shortName":"Siblingen"},"district":{"key":"1404","name":"Bezirk Schleitheim"},"canton":{"key":"14","code":"SH","name":"Schaffhausen"},"status":"Real"},{"key":"10254296","name":"Roosse","postalCode":"8225","locality":"Siblingen","commune":{"key":"2953","name":"Siblingen","shortName":"Siblingen"},"district":{"key":"1404","name":"Bezirk Schleitheim"},"canton":{"key":"14","code":"SH","name":"Schaffhausen"},"status":"Real"},{"key":"10104510","name":"Rosenacker","postalCode":"8225","locality":"Siblingen","commune":{"key":"2953","name":"Siblingen","shortName":"Siblingen"},"district":{"key":"1404","name":"Bezirk Schleitheim"},"canton":{"key":"14","code":"SH","name":"Schaffhausen"},"status":"Real"},{"key":"10031578","name":"Schoopacker","postalCode":"8225","locality":"Siblingen","commune":{"key":"2953","name":"Siblingen","shortName":"Siblingen"},"district":{"key":"1404","name":"Bezirk Schleitheim"},"canton":{"key":"14","code":"SH","name":"Schaffhausen"},"status":"Real"},{"key":"10122646","name":"Schulstrasse","postalCode":"8225","locality":"Siblingen","commune":{"key":"2953","name":"Siblingen","shortName":"Siblingen"},"district":{"key":"1404","name":"Bezirk Schleitheim"},"canton":{"key":"14","code":"SH","name":"Schaffhausen"},"status":"Real"},{"key":"10031579","name":"Siblingerhöhe","postalCode":"8225","locality":"Siblingen","commune":{"key":"2953","name":"Siblingen","shortName":"Siblingen"},"district":{"key":"1404","name":"Bezirk Schleitheim"},"canton":{"key":"14","code":"SH","name":"Schaffhausen"},"status":"Real"},{"key":"10212449","name":"Tiefenbachweg","postalCode":"8225","locality":"Siblingen","commune":{"key":"2953","name":"Siblingen","shortName":"Siblingen"},"district":{"key":"1404","name":"Bezirk Schleitheim"},"canton":{"key":"14","code":"SH","name":"Schaffhausen"},"status":"Real"},{"key":"10031580","name":"Tüelgasse","postalCode":"8225","locality":"Siblingen","commune":{"key":"2953","name":"Siblingen","shortName":"Siblingen"},"district":{"key":"1404","name":"Bezirk Schleitheim"},"canton":{"key":"14","code":"SH","name":"Schaffhausen"},"status":"Real"},{"key":"10135339","name":"Untere Burghalde","postalCode":"8225","locality":"Siblingen","commune":{"key":"2953","name":"Siblingen","shortName":"Siblingen"},"district":{"key":"1404","name":"Bezirk Schleitheim"},"canton":{"key":"14","code":"SH","name":"Schaffhausen"},"status":"Real"},{"key":"10087212","name":"Waldhof","postalCode":"8225","locality":"Siblingen","commune":{"key":"2953","name":"Siblingen","shortName":"Siblingen"},"district":{"key":"1404","name":"Bezirk Schleitheim"},"canton":{"key":"14","code":"SH","name":"Schaffhausen"},"status":"Real"},{"key":"10179745","name":"Wasenacker","postalCode":"8225","locality":"Siblingen","commune":{"key":"2953","name":"Siblingen","shortName":"Siblingen"},"district":{"key":"1404","name":"Bezirk Schleitheim"},"canton":{"key":"14","code":"SH","name":"Schaffhausen"},"status":"Real"},]