[{"name":"Achelstädter Weg","postalCode":"99448","locality":"Kranichfeld","municipality":{"key":"16071046","name":"Kranichfeld, Stadt","type":"Stadt"},"district":{"key":"16071","name":"Weimarer Land","type":"Landkreis"},"federalState":{"key":"16","name":"Thüringen"}},{"name":"Alexanderstr.","postalCode":"99448","locality":"Kranichfeld","municipality":{"key":"16071046","name":"Kranichfeld, Stadt","type":"Stadt"},"district":{"key":"16071","name":"Weimarer Land","type":"Landkreis"},"federalState":{"key":"16","name":"Thüringen"}},{"name":"Am Bahnhof","postalCode":"99448","locality":"Kranichfeld","municipality":{"key":"16071046","name":"Kranichfeld, Stadt","type":"Stadt"},"district":{"key":"16071","name":"Weimarer Land","type":"Landkreis"},"federalState":{"key":"16","name":"Thüringen"}},{"name":"Am Bommelsberg","postalCode":"99448","locality":"Kranichfeld","municipality":{"key":"16071046","name":"Kranichfeld, Stadt","type":"Stadt"},"district":{"key":"16071","name":"Weimarer Land","type":"Landkreis"},"federalState":{"key":"16","name":"Thüringen"}},{"name":"Am Freibad","postalCode":"99448","locality":"Kranichfeld","municipality":{"key":"16071046","name":"Kranichfeld, Stadt","type":"Stadt"},"district":{"key":"16071","name":"Weimarer Land","type":"Landkreis"},"federalState":{"key":"16","name":"Thüringen"}},{"name":"Am Kindergarten","postalCode":"99448","locality":"Kranichfeld","municipality":{"key":"16071046","name":"Kranichfeld, Stadt","type":"Stadt"},"district":{"key":"16071","name":"Weimarer Land","type":"Landkreis"},"federalState":{"key":"16","name":"Thüringen"}},{"name":"Am Maientännig","postalCode":"99448","locality":"Kranichfeld","municipality":{"key":"16071046","name":"Kranichfeld, Stadt","type":"Stadt"},"district":{"key":"16071","name":"Weimarer Land","type":"Landkreis"},"federalState":{"key":"16","name":"Thüringen"}},{"name":"Am Neuen Mahle","postalCode":"99448","locality":"Kranichfeld","municipality":{"key":"16071046","name":"Kranichfeld, Stadt","type":"Stadt"},"district":{"key":"16071","name":"Weimarer Land","type":"Landkreis"},"federalState":{"key":"16","name":"Thüringen"}},{"name":"Am Oberschloss","postalCode":"99448","locality":"Kranichfeld","municipality":{"key":"16071046","name":"Kranichfeld, Stadt","type":"Stadt"},"district":{"key":"16071","name":"Weimarer Land","type":"Landkreis"},"federalState":{"key":"16","name":"Thüringen"}},{"name":"Am Sandberg","postalCode":"99448","locality":"Kranichfeld","municipality":{"key":"16071046","name":"Kranichfeld, Stadt","type":"Stadt"},"district":{"key":"16071","name":"Weimarer Land","type":"Landkreis"},"federalState":{"key":"16","name":"Thüringen"}},{"name":"Am Schönblick","postalCode":"99448","locality":"Kranichfeld","municipality":{"key":"16071046","name":"Kranichfeld, Stadt","type":"Stadt"},"district":{"key":"16071","name":"Weimarer Land","type":"Landkreis"},"federalState":{"key":"16","name":"Thüringen"}},{"name":"Am Sportplatz","postalCode":"99448","locality":"Kranichfeld","municipality":{"key":"16071046","name":"Kranichfeld, Stadt","type":"Stadt"},"district":{"key":"16071","name":"Weimarer Land","type":"Landkreis"},"federalState":{"key":"16","name":"Thüringen"}},{"name":"Am Walde","postalCode":"99448","locality":"Kranichfeld","municipality":{"key":"16071046","name":"Kranichfeld, Stadt","type":"Stadt"},"district":{"key":"16071","name":"Weimarer Land","type":"Landkreis"},"federalState":{"key":"16","name":"Thüringen"}},{"name":"Am Wolfshölzchen","postalCode":"99448","locality":"Kranichfeld","municipality":{"key":"16071046","name":"Kranichfeld, Stadt","type":"Stadt"},"district":{"key":"16071","name":"Weimarer Land","type":"Landkreis"},"federalState":{"key":"16","name":"Thüringen"}},{"name":"An der Waldbühne","postalCode":"99448","locality":"Kranichfeld","municipality":{"key":"16071046","name":"Kranichfeld, Stadt","type":"Stadt"},"district":{"key":"16071","name":"Weimarer Land","type":"Landkreis"},"federalState":{"key":"16","name":"Thüringen"}},{"name":"Anger","postalCode":"99448","locality":"Kranichfeld","municipality":{"key":"16071046","name":"Kranichfeld, Stadt","type":"Stadt"},"district":{"key":"16071","name":"Weimarer Land","type":"Landkreis"},"federalState":{"key":"16","name":"Thüringen"}},{"name":"Arnstädter Str.","postalCode":"99448","locality":"Kranichfeld","municipality":{"key":"16071046","name":"Kranichfeld, Stadt","type":"Stadt"},"district":{"key":"16071","name":"Weimarer Land","type":"Landkreis"},"federalState":{"key":"16","name":"Thüringen"}},{"name":"Auenweg","postalCode":"99448","locality":"Kranichfeld","municipality":{"key":"16071046","name":"Kranichfeld, Stadt","type":"Stadt"},"district":{"key":"16071","name":"Weimarer Land","type":"Landkreis"},"federalState":{"key":"16","name":"Thüringen"}},{"name":"Bahnhofstr.","postalCode":"99448","locality":"Kranichfeld","municipality":{"key":"16071046","name":"Kranichfeld, Stadt","type":"Stadt"},"district":{"key":"16071","name":"Weimarer Land","type":"Landkreis"},"federalState":{"key":"16","name":"Thüringen"}},{"name":"Baumgartenbrücke","postalCode":"99448","locality":"Kranichfeld","municipality":{"key":"16071046","name":"Kranichfeld, Stadt","type":"Stadt"},"district":{"key":"16071","name":"Weimarer Land","type":"Landkreis"},"federalState":{"key":"16","name":"Thüringen"}},{"name":"Bernhardstr.","postalCode":"99448","locality":"Kranichfeld","municipality":{"key":"16071046","name":"Kranichfeld, Stadt","type":"Stadt"},"district":{"key":"16071","name":"Weimarer Land","type":"Landkreis"},"federalState":{"key":"16","name":"Thüringen"}},{"name":"Buchenweg","postalCode":"99448","locality":"Kranichfeld","municipality":{"key":"16071046","name":"Kranichfeld, Stadt","type":"Stadt"},"district":{"key":"16071","name":"Weimarer Land","type":"Landkreis"},"federalState":{"key":"16","name":"Thüringen"}},{"name":"Dorfstr.","postalCode":"99448","locality":"Kranichfeld","municipality":{"key":"16071046","name":"Kranichfeld, Stadt","type":"Stadt"},"district":{"key":"16071","name":"Weimarer Land","type":"Landkreis"},"federalState":{"key":"16","name":"Thüringen"}},{"name":"Ellichleber Weg","postalCode":"99448","locality":"Kranichfeld","municipality":{"key":"16071046","name":"Kranichfeld, Stadt","type":"Stadt"},"district":{"key":"16071","name":"Weimarer Land","type":"Landkreis"},"federalState":{"key":"16","name":"Thüringen"}},{"name":"Erfurter Str.","postalCode":"99448","locality":"Kranichfeld","municipality":{"key":"16071046","name":"Kranichfeld, Stadt","type":"Stadt"},"district":{"key":"16071","name":"Weimarer Land","type":"Landkreis"},"federalState":{"key":"16","name":"Thüringen"}},{"name":"Friedhofstr.","postalCode":"99448","locality":"Kranichfeld","municipality":{"key":"16071046","name":"Kranichfeld, Stadt","type":"Stadt"},"district":{"key":"16071","name":"Weimarer Land","type":"Landkreis"},"federalState":{"key":"16","name":"Thüringen"}},{"name":"Gänseleite","postalCode":"99448","locality":"Kranichfeld","municipality":{"key":"16071046","name":"Kranichfeld, Stadt","type":"Stadt"},"district":{"key":"16071","name":"Weimarer Land","type":"Landkreis"},"federalState":{"key":"16","name":"Thüringen"}},{"name":"Georgsgasse","postalCode":"99448","locality":"Kranichfeld","municipality":{"key":"16071046","name":"Kranichfeld, Stadt","type":"Stadt"},"district":{"key":"16071","name":"Weimarer Land","type":"Landkreis"},"federalState":{"key":"16","name":"Thüringen"}},{"name":"Georgstr.","postalCode":"99448","locality":"Kranichfeld","municipality":{"key":"16071046","name":"Kranichfeld, Stadt","type":"Stadt"},"district":{"key":"16071","name":"Weimarer Land","type":"Landkreis"},"federalState":{"key":"16","name":"Thüringen"}},{"name":"Große Gebind","postalCode":"99448","locality":"Kranichfeld","municipality":{"key":"16071046","name":"Kranichfeld, Stadt","type":"Stadt"},"district":{"key":"16071","name":"Weimarer Land","type":"Landkreis"},"federalState":{"key":"16","name":"Thüringen"}},{"name":"Hauptstr.","postalCode":"99448","locality":"Kranichfeld","municipality":{"key":"16071046","name":"Kranichfeld, Stadt","type":"Stadt"},"district":{"key":"16071","name":"Weimarer Land","type":"Landkreis"},"federalState":{"key":"16","name":"Thüringen"}},{"name":"Heinrich-Heine-Str.","postalCode":"99448","locality":"Kranichfeld","municipality":{"key":"16071046","name":"Kranichfeld, Stadt","type":"Stadt"},"district":{"key":"16071","name":"Weimarer Land","type":"Landkreis"},"federalState":{"key":"16","name":"Thüringen"}},{"name":"Hintere Harth","postalCode":"99448","locality":"Kranichfeld","municipality":{"key":"16071046","name":"Kranichfeld, Stadt","type":"Stadt"},"district":{"key":"16071","name":"Weimarer Land","type":"Landkreis"},"federalState":{"key":"16","name":"Thüringen"}},{"name":"Ilmenauer Str.","postalCode":"99448","locality":"Kranichfeld","municipality":{"key":"16071046","name":"Kranichfeld, Stadt","type":"Stadt"},"district":{"key":"16071","name":"Weimarer Land","type":"Landkreis"},"federalState":{"key":"16","name":"Thüringen"}},{"name":"Im Dorfe","postalCode":"99448","locality":"Kranichfeld","municipality":{"key":"16071046","name":"Kranichfeld, Stadt","type":"Stadt"},"district":{"key":"16071","name":"Weimarer Land","type":"Landkreis"},"federalState":{"key":"16","name":"Thüringen"}},{"name":"In der Mühle","postalCode":"99448","locality":"Kranichfeld","municipality":{"key":"16071046","name":"Kranichfeld, Stadt","type":"Stadt"},"district":{"key":"16071","name":"Weimarer Land","type":"Landkreis"},"federalState":{"key":"16","name":"Thüringen"}},{"name":"Jakobshöhe","postalCode":"99448","locality":"Kranichfeld","municipality":{"key":"16071046","name":"Kranichfeld, Stadt","type":"Stadt"},"district":{"key":"16071","name":"Weimarer Land","type":"Landkreis"},"federalState":{"key":"16","name":"Thüringen"}},{"name":"Jakobstr.","postalCode":"99448","locality":"Kranichfeld","municipality":{"key":"16071046","name":"Kranichfeld, Stadt","type":"Stadt"},"district":{"key":"16071","name":"Weimarer Land","type":"Landkreis"},"federalState":{"key":"16","name":"Thüringen"}},{"name":"Kastanienweg","postalCode":"99448","locality":"Kranichfeld","municipality":{"key":"16071046","name":"Kranichfeld, Stadt","type":"Stadt"},"district":{"key":"16071","name":"Weimarer Land","type":"Landkreis"},"federalState":{"key":"16","name":"Thüringen"}},{"name":"Kirchplatz","postalCode":"99448","locality":"Kranichfeld","municipality":{"key":"16071046","name":"Kranichfeld, Stadt","type":"Stadt"},"district":{"key":"16071","name":"Weimarer Land","type":"Landkreis"},"federalState":{"key":"16","name":"Thüringen"}},{"name":"Kleine Gebind","postalCode":"99448","locality":"Kranichfeld","municipality":{"key":"16071046","name":"Kranichfeld, Stadt","type":"Stadt"},"district":{"key":"16071","name":"Weimarer Land","type":"Landkreis"},"federalState":{"key":"16","name":"Thüringen"}},{"name":"Lichttalsweg","postalCode":"99448","locality":"Kranichfeld","municipality":{"key":"16071046","name":"Kranichfeld, Stadt","type":"Stadt"},"district":{"key":"16071","name":"Weimarer Land","type":"Landkreis"},"federalState":{"key":"16","name":"Thüringen"}},{"name":"Lindental","postalCode":"99448","locality":"Kranichfeld","municipality":{"key":"16071046","name":"Kranichfeld, Stadt","type":"Stadt"},"district":{"key":"16071","name":"Weimarer Land","type":"Landkreis"},"federalState":{"key":"16","name":"Thüringen"}},{"name":"Markt","postalCode":"99448","locality":"Kranichfeld","municipality":{"key":"16071046","name":"Kranichfeld, Stadt","type":"Stadt"},"district":{"key":"16071","name":"Weimarer Land","type":"Landkreis"},"federalState":{"key":"16","name":"Thüringen"}},{"name":"Mittlerer Botenweg","postalCode":"99448","locality":"Kranichfeld","municipality":{"key":"16071046","name":"Kranichfeld, Stadt","type":"Stadt"},"district":{"key":"16071","name":"Weimarer Land","type":"Landkreis"},"federalState":{"key":"16","name":"Thüringen"}},{"name":"Mohrentaler Str.","postalCode":"99448","locality":"Kranichfeld","municipality":{"key":"16071046","name":"Kranichfeld, Stadt","type":"Stadt"},"district":{"key":"16071","name":"Weimarer Land","type":"Landkreis"},"federalState":{"key":"16","name":"Thüringen"}},{"name":"Molkereistr.","postalCode":"99448","locality":"Kranichfeld","municipality":{"key":"16071046","name":"Kranichfeld, Stadt","type":"Stadt"},"district":{"key":"16071","name":"Weimarer Land","type":"Landkreis"},"federalState":{"key":"16","name":"Thüringen"}},{"name":"Mühlweg","postalCode":"99448","locality":"Kranichfeld","municipality":{"key":"16071046","name":"Kranichfeld, Stadt","type":"Stadt"},"district":{"key":"16071","name":"Weimarer Land","type":"Landkreis"},"federalState":{"key":"16","name":"Thüringen"}},{"name":"Neue Str.","postalCode":"99448","locality":"Kranichfeld","municipality":{"key":"16071046","name":"Kranichfeld, Stadt","type":"Stadt"},"district":{"key":"16071","name":"Weimarer Land","type":"Landkreis"},"federalState":{"key":"16","name":"Thüringen"}},{"name":"Neumalsweg","postalCode":"99448","locality":"Kranichfeld","municipality":{"key":"16071046","name":"Kranichfeld, Stadt","type":"Stadt"},"district":{"key":"16071","name":"Weimarer Land","type":"Landkreis"},"federalState":{"key":"16","name":"Thüringen"}},{"name":"Obere Arnstädter Str.","postalCode":"99448","locality":"Kranichfeld","municipality":{"key":"16071046","name":"Kranichfeld, Stadt","type":"Stadt"},"district":{"key":"16071","name":"Weimarer Land","type":"Landkreis"},"federalState":{"key":"16","name":"Thüringen"}},{"name":"Oberer Botenweg","postalCode":"99448","locality":"Kranichfeld","municipality":{"key":"16071046","name":"Kranichfeld, Stadt","type":"Stadt"},"district":{"key":"16071","name":"Weimarer Land","type":"Landkreis"},"federalState":{"key":"16","name":"Thüringen"}},{"name":"Obergasse","postalCode":"99448","locality":"Kranichfeld","municipality":{"key":"16071046","name":"Kranichfeld, Stadt","type":"Stadt"},"district":{"key":"16071","name":"Weimarer Land","type":"Landkreis"},"federalState":{"key":"16","name":"Thüringen"}},{"name":"Rittersdorfer Str.","postalCode":"99448","locality":"Kranichfeld","municipality":{"key":"16071046","name":"Kranichfeld, Stadt","type":"Stadt"},"district":{"key":"16071","name":"Weimarer Land","type":"Landkreis"},"federalState":{"key":"16","name":"Thüringen"}},{"name":"Rosengasse","postalCode":"99448","locality":"Kranichfeld","municipality":{"key":"16071046","name":"Kranichfeld, Stadt","type":"Stadt"},"district":{"key":"16071","name":"Weimarer Land","type":"Landkreis"},"federalState":{"key":"16","name":"Thüringen"}},{"name":"Rudolf-Baumbach-Str.","postalCode":"99448","locality":"Kranichfeld","municipality":{"key":"16071046","name":"Kranichfeld, Stadt","type":"Stadt"},"district":{"key":"16071","name":"Weimarer Land","type":"Landkreis"},"federalState":{"key":"16","name":"Thüringen"}},{"name":"Ruhmberg","postalCode":"99448","locality":"Kranichfeld","municipality":{"key":"16071046","name":"Kranichfeld, Stadt","type":"Stadt"},"district":{"key":"16071","name":"Weimarer Land","type":"Landkreis"},"federalState":{"key":"16","name":"Thüringen"}},{"name":"Ruhmbergsweg","postalCode":"99448","locality":"Kranichfeld","municipality":{"key":"16071046","name":"Kranichfeld, Stadt","type":"Stadt"},"district":{"key":"16071","name":"Weimarer Land","type":"Landkreis"},"federalState":{"key":"16","name":"Thüringen"}},{"name":"Sandbergstr.","postalCode":"99448","locality":"Kranichfeld","municipality":{"key":"16071046","name":"Kranichfeld, Stadt","type":"Stadt"},"district":{"key":"16071","name":"Weimarer Land","type":"Landkreis"},"federalState":{"key":"16","name":"Thüringen"}},{"name":"Schloßberg","postalCode":"99448","locality":"Kranichfeld","municipality":{"key":"16071046","name":"Kranichfeld, Stadt","type":"Stadt"},"district":{"key":"16071","name":"Weimarer Land","type":"Landkreis"},"federalState":{"key":"16","name":"Thüringen"}},{"name":"Schloßgasse","postalCode":"99448","locality":"Kranichfeld","municipality":{"key":"16071046","name":"Kranichfeld, Stadt","type":"Stadt"},"district":{"key":"16071","name":"Weimarer Land","type":"Landkreis"},"federalState":{"key":"16","name":"Thüringen"}},{"name":"Schützenstr.","postalCode":"99448","locality":"Kranichfeld","municipality":{"key":"16071046","name":"Kranichfeld, Stadt","type":"Stadt"},"district":{"key":"16071","name":"Weimarer Land","type":"Landkreis"},"federalState":{"key":"16","name":"Thüringen"}},{"name":"Stedtener Str.","postalCode":"99448","locality":"Kranichfeld","municipality":{"key":"16071046","name":"Kranichfeld, Stadt","type":"Stadt"},"district":{"key":"16071","name":"Weimarer Land","type":"Landkreis"},"federalState":{"key":"16","name":"Thüringen"}},{"name":"Stephanshöhe","postalCode":"99448","locality":"Kranichfeld","municipality":{"key":"16071046","name":"Kranichfeld, Stadt","type":"Stadt"},"district":{"key":"16071","name":"Weimarer Land","type":"Landkreis"},"federalState":{"key":"16","name":"Thüringen"}},{"name":"Stiede","postalCode":"99448","locality":"Kranichfeld","municipality":{"key":"16071046","name":"Kranichfeld, Stadt","type":"Stadt"},"district":{"key":"16071","name":"Weimarer Land","type":"Landkreis"},"federalState":{"key":"16","name":"Thüringen"}},{"name":"Str. des Friedens","postalCode":"99448","locality":"Kranichfeld","municipality":{"key":"16071046","name":"Kranichfeld, Stadt","type":"Stadt"},"district":{"key":"16071","name":"Weimarer Land","type":"Landkreis"},"federalState":{"key":"16","name":"Thüringen"}},{"name":"Unterer Botenweg","postalCode":"99448","locality":"Kranichfeld","municipality":{"key":"16071046","name":"Kranichfeld, Stadt","type":"Stadt"},"district":{"key":"16071","name":"Weimarer Land","type":"Landkreis"},"federalState":{"key":"16","name":"Thüringen"}},{"name":"Unterm Maienhölzchen","postalCode":"99448","locality":"Kranichfeld","municipality":{"key":"16071046","name":"Kranichfeld, Stadt","type":"Stadt"},"district":{"key":"16071","name":"Weimarer Land","type":"Landkreis"},"federalState":{"key":"16","name":"Thüringen"}},{"name":"Waidweg","postalCode":"99448","locality":"Kranichfeld","municipality":{"key":"16071046","name":"Kranichfeld, Stadt","type":"Stadt"},"district":{"key":"16071","name":"Weimarer Land","type":"Landkreis"},"federalState":{"key":"16","name":"Thüringen"}},{"name":"Weimarische Str.","postalCode":"99448","locality":"Kranichfeld","municipality":{"key":"16071046","name":"Kranichfeld, Stadt","type":"Stadt"},"district":{"key":"16071","name":"Weimarer Land","type":"Landkreis"},"federalState":{"key":"16","name":"Thüringen"}},{"name":"Zieglersgrund","postalCode":"99448","locality":"Kranichfeld","municipality":{"key":"16071046","name":"Kranichfeld, Stadt","type":"Stadt"},"district":{"key":"16071","name":"Weimarer Land","type":"Landkreis"},"federalState":{"key":"16","name":"Thüringen"}},{"name":"Zwetschgenweg","postalCode":"99448","locality":"Kranichfeld","municipality":{"key":"16071046","name":"Kranichfeld, Stadt","type":"Stadt"},"district":{"key":"16071","name":"Weimarer Land","type":"Landkreis"},"federalState":{"key":"16","name":"Thüringen"}},]