[{"name":"Akazienweg","postalCode":"75053","locality":"Gondelsheim","municipality":{"key":"08215025","name":"Gondelsheim","type":"Kreisangehörige_Gemeinde"},"district":{"key":"08215","name":"Karlsruhe","type":"Landkreis"},"federalState":{"key":"08","name":"Baden-Württemberg"}},{"name":"Alte Neibsheimer Str.","postalCode":"75053","locality":"Gondelsheim","municipality":{"key":"08215025","name":"Gondelsheim","type":"Kreisangehörige_Gemeinde"},"district":{"key":"08215","name":"Karlsruhe","type":"Landkreis"},"federalState":{"key":"08","name":"Baden-Württemberg"}},{"name":"Altenwingertweg","postalCode":"75053","locality":"Gondelsheim","municipality":{"key":"08215025","name":"Gondelsheim","type":"Kreisangehörige_Gemeinde"},"district":{"key":"08215","name":"Karlsruhe","type":"Landkreis"},"federalState":{"key":"08","name":"Baden-Württemberg"}},{"name":"Am Alten Sportplatz","postalCode":"75053","locality":"Gondelsheim","municipality":{"key":"08215025","name":"Gondelsheim","type":"Kreisangehörige_Gemeinde"},"district":{"key":"08215","name":"Karlsruhe","type":"Landkreis"},"federalState":{"key":"08","name":"Baden-Württemberg"}},{"name":"Am Kirrloch","postalCode":"75053","locality":"Gondelsheim","municipality":{"key":"08215025","name":"Gondelsheim","type":"Kreisangehörige_Gemeinde"},"district":{"key":"08215","name":"Karlsruhe","type":"Landkreis"},"federalState":{"key":"08","name":"Baden-Württemberg"}},{"name":"An der Sägmühle","postalCode":"75053","locality":"Gondelsheim","municipality":{"key":"08215025","name":"Gondelsheim","type":"Kreisangehörige_Gemeinde"},"district":{"key":"08215","name":"Karlsruhe","type":"Landkreis"},"federalState":{"key":"08","name":"Baden-Württemberg"}},{"name":"An der Sommerhälde","postalCode":"75053","locality":"Gondelsheim","municipality":{"key":"08215025","name":"Gondelsheim","type":"Kreisangehörige_Gemeinde"},"district":{"key":"08215","name":"Karlsruhe","type":"Landkreis"},"federalState":{"key":"08","name":"Baden-Württemberg"}},{"name":"Andreas-Heck-Str.","postalCode":"75053","locality":"Gondelsheim","municipality":{"key":"08215025","name":"Gondelsheim","type":"Kreisangehörige_Gemeinde"},"district":{"key":"08215","name":"Karlsruhe","type":"Landkreis"},"federalState":{"key":"08","name":"Baden-Württemberg"}},{"name":"André-Vasseur-Str.","postalCode":"75053","locality":"Gondelsheim","municipality":{"key":"08215025","name":"Gondelsheim","type":"Kreisangehörige_Gemeinde"},"district":{"key":"08215","name":"Karlsruhe","type":"Landkreis"},"federalState":{"key":"08","name":"Baden-Württemberg"}},{"name":"Auf dem Eiskeller","postalCode":"75053","locality":"Gondelsheim","municipality":{"key":"08215025","name":"Gondelsheim","type":"Kreisangehörige_Gemeinde"},"district":{"key":"08215","name":"Karlsruhe","type":"Landkreis"},"federalState":{"key":"08","name":"Baden-Württemberg"}},{"name":"Auf dem Schlossbuckel","postalCode":"75053","locality":"Gondelsheim","municipality":{"key":"08215025","name":"Gondelsheim","type":"Kreisangehörige_Gemeinde"},"district":{"key":"08215","name":"Karlsruhe","type":"Landkreis"},"federalState":{"key":"08","name":"Baden-Württemberg"}},{"name":"Auf der Liß","postalCode":"75053","locality":"Gondelsheim","municipality":{"key":"08215025","name":"Gondelsheim","type":"Kreisangehörige_Gemeinde"},"district":{"key":"08215","name":"Karlsruhe","type":"Landkreis"},"federalState":{"key":"08","name":"Baden-Württemberg"}},{"name":"Auf der Mühlhecke","postalCode":"75053","locality":"Gondelsheim","municipality":{"key":"08215025","name":"Gondelsheim","type":"Kreisangehörige_Gemeinde"},"district":{"key":"08215","name":"Karlsruhe","type":"Landkreis"},"federalState":{"key":"08","name":"Baden-Württemberg"}},{"name":"Bachstr.","postalCode":"75053","locality":"Gondelsheim","municipality":{"key":"08215025","name":"Gondelsheim","type":"Kreisangehörige_Gemeinde"},"district":{"key":"08215","name":"Karlsruhe","type":"Landkreis"},"federalState":{"key":"08","name":"Baden-Württemberg"}},{"name":"Bahnhofstr.","postalCode":"75053","locality":"Gondelsheim","municipality":{"key":"08215025","name":"Gondelsheim","type":"Kreisangehörige_Gemeinde"},"district":{"key":"08215","name":"Karlsruhe","type":"Landkreis"},"federalState":{"key":"08","name":"Baden-Württemberg"}},{"name":"Bahnwärterhaus","postalCode":"75053","locality":"Gondelsheim","municipality":{"key":"08215025","name":"Gondelsheim","type":"Kreisangehörige_Gemeinde"},"district":{"key":"08215","name":"Karlsruhe","type":"Landkreis"},"federalState":{"key":"08","name":"Baden-Württemberg"}},{"name":"Bergstr.","postalCode":"75053","locality":"Gondelsheim","municipality":{"key":"08215025","name":"Gondelsheim","type":"Kreisangehörige_Gemeinde"},"district":{"key":"08215","name":"Karlsruhe","type":"Landkreis"},"federalState":{"key":"08","name":"Baden-Württemberg"}},{"name":"Blumenstr.","postalCode":"75053","locality":"Gondelsheim","municipality":{"key":"08215025","name":"Gondelsheim","type":"Kreisangehörige_Gemeinde"},"district":{"key":"08215","name":"Karlsruhe","type":"Landkreis"},"federalState":{"key":"08","name":"Baden-Württemberg"}},{"name":"Brettener Str.","postalCode":"75053","locality":"Gondelsheim","municipality":{"key":"08215025","name":"Gondelsheim","type":"Kreisangehörige_Gemeinde"},"district":{"key":"08215","name":"Karlsruhe","type":"Landkreis"},"federalState":{"key":"08","name":"Baden-Württemberg"}},{"name":"Bruchsaler Str.","postalCode":"75053","locality":"Gondelsheim","municipality":{"key":"08215025","name":"Gondelsheim","type":"Kreisangehörige_Gemeinde"},"district":{"key":"08215","name":"Karlsruhe","type":"Landkreis"},"federalState":{"key":"08","name":"Baden-Württemberg"}},{"name":"Bruchweg","postalCode":"75053","locality":"Gondelsheim","municipality":{"key":"08215025","name":"Gondelsheim","type":"Kreisangehörige_Gemeinde"},"district":{"key":"08215","name":"Karlsruhe","type":"Landkreis"},"federalState":{"key":"08","name":"Baden-Württemberg"}},{"name":"Brunnenberg","postalCode":"75053","locality":"Gondelsheim","municipality":{"key":"08215025","name":"Gondelsheim","type":"Kreisangehörige_Gemeinde"},"district":{"key":"08215","name":"Karlsruhe","type":"Landkreis"},"federalState":{"key":"08","name":"Baden-Württemberg"}},{"name":"Budakezi-Piliscsaba-Weg","postalCode":"75053","locality":"Gondelsheim","municipality":{"key":"08215025","name":"Gondelsheim","type":"Kreisangehörige_Gemeinde"},"district":{"key":"08215","name":"Karlsruhe","type":"Landkreis"},"federalState":{"key":"08","name":"Baden-Württemberg"}},{"name":"Cäciliastr.","postalCode":"76135","locality":"Karlsruhe","municipality":{"key":"08212000","name":"Karlsruhe, Stadt","type":"Stadtkreis"},"district":{"key":"08212","name":"Karlsruhe, Stadtkreis","type":"Stadtkreis"},"federalState":{"key":"08","name":"Baden-Württemberg"}},{"name":"Cannstatter Str.","postalCode":"76228","locality":"Karlsruhe","municipality":{"key":"08212000","name":"Karlsruhe, Stadt","type":"Stadtkreis"},"district":{"key":"08212","name":"Karlsruhe, Stadtkreis","type":"Stadtkreis"},"federalState":{"key":"08","name":"Baden-Württemberg"}},{"name":"Carl-Hofer-Str.","postalCode":"76227","locality":"Karlsruhe","municipality":{"key":"08212000","name":"Karlsruhe, Stadt","type":"Stadtkreis"},"district":{"key":"08212","name":"Karlsruhe, Stadtkreis","type":"Stadtkreis"},"federalState":{"key":"08","name":"Baden-Württemberg"}},{"name":"Carl-Langhein-Str.","postalCode":"76229","locality":"Karlsruhe","municipality":{"key":"08212000","name":"Karlsruhe, Stadt","type":"Stadtkreis"},"district":{"key":"08212","name":"Karlsruhe, Stadtkreis","type":"Stadtkreis"},"federalState":{"key":"08","name":"Baden-Württemberg"}},{"name":"Carl-Metz-Str.","postalCode":"76185","locality":"Karlsruhe","municipality":{"key":"08212000","name":"Karlsruhe, Stadt","type":"Stadtkreis"},"district":{"key":"08212","name":"Karlsruhe, Stadtkreis","type":"Stadtkreis"},"federalState":{"key":"08","name":"Baden-Württemberg"}},{"name":"Carl-Schäfer-Str.","postalCode":"76187","locality":"Karlsruhe","municipality":{"key":"08212000","name":"Karlsruhe, Stadt","type":"Stadtkreis"},"district":{"key":"08212","name":"Karlsruhe, Stadtkreis","type":"Stadtkreis"},"federalState":{"key":"08","name":"Baden-Württemberg"}},{"name":"Carl-Schurz-Str.","postalCode":"76187","locality":"Karlsruhe","municipality":{"key":"08212000","name":"Karlsruhe, Stadt","type":"Stadtkreis"},"district":{"key":"08212","name":"Karlsruhe, Stadtkreis","type":"Stadtkreis"},"federalState":{"key":"08","name":"Baden-Württemberg"}},{"name":"Charlottenplatz","postalCode":"76185","locality":"Karlsruhe","municipality":{"key":"08212000","name":"Karlsruhe, Stadt","type":"Stadtkreis"},"district":{"key":"08212","name":"Karlsruhe, Stadtkreis","type":"Stadtkreis"},"federalState":{"key":"08","name":"Baden-Württemberg"}},{"name":"Charlottenstr.","postalCode":"76185","locality":"Karlsruhe","municipality":{"key":"08212000","name":"Karlsruhe, Stadt","type":"Stadtkreis"},"district":{"key":"08212","name":"Karlsruhe, Stadtkreis","type":"Stadtkreis"},"federalState":{"key":"08","name":"Baden-Württemberg"}},{"name":"Christian-Schneider-Str.","postalCode":"76185","locality":"Karlsruhe","municipality":{"key":"08212000","name":"Karlsruhe, Stadt","type":"Stadtkreis"},"district":{"key":"08212","name":"Karlsruhe, Stadtkreis","type":"Stadtkreis"},"federalState":{"key":"08","name":"Baden-Württemberg"}},{"name":"Christofstr.","postalCode":"76227","locality":"Karlsruhe","municipality":{"key":"08212000","name":"Karlsruhe, Stadt","type":"Stadtkreis"},"district":{"key":"08212","name":"Karlsruhe, Stadtkreis","type":"Stadtkreis"},"federalState":{"key":"08","name":"Baden-Württemberg"}},{"name":"Citypark Stadtpark","postalCode":"76137","locality":"Karlsruhe","municipality":{"key":"08212000","name":"Karlsruhe, Stadt","type":"Stadtkreis"},"district":{"key":"08212","name":"Karlsruhe, Stadtkreis","type":"Stadtkreis"},"federalState":{"key":"08","name":"Baden-Württemberg"}},{"name":"Curjel-und-Moser-Str.","postalCode":"76187","locality":"Karlsruhe","municipality":{"key":"08212000","name":"Karlsruhe, Stadt","type":"Stadtkreis"},"district":{"key":"08212","name":"Karlsruhe, Stadtkreis","type":"Stadtkreis"},"federalState":{"key":"08","name":"Baden-Württemberg"}},{"name":"Dossental","postalCode":"75053","locality":"Gondelsheim","municipality":{"key":"08215025","name":"Gondelsheim","type":"Kreisangehörige_Gemeinde"},"district":{"key":"08215","name":"Karlsruhe","type":"Landkreis"},"federalState":{"key":"08","name":"Baden-Württemberg"}},{"name":"Erdbeerhof","postalCode":"75053","locality":"Gondelsheim","municipality":{"key":"08215025","name":"Gondelsheim","type":"Kreisangehörige_Gemeinde"},"district":{"key":"08215","name":"Karlsruhe","type":"Landkreis"},"federalState":{"key":"08","name":"Baden-Württemberg"}},{"name":"Fasanenstr.","postalCode":"75053","locality":"Gondelsheim","municipality":{"key":"08215025","name":"Gondelsheim","type":"Kreisangehörige_Gemeinde"},"district":{"key":"08215","name":"Karlsruhe","type":"Landkreis"},"federalState":{"key":"08","name":"Baden-Württemberg"}},{"name":"Finkenweg","postalCode":"75053","locality":"Gondelsheim","municipality":{"key":"08215025","name":"Gondelsheim","type":"Kreisangehörige_Gemeinde"},"district":{"key":"08215","name":"Karlsruhe","type":"Landkreis"},"federalState":{"key":"08","name":"Baden-Württemberg"}},{"name":"Friedenstr.","postalCode":"75053","locality":"Gondelsheim","municipality":{"key":"08215025","name":"Gondelsheim","type":"Kreisangehörige_Gemeinde"},"district":{"key":"08215","name":"Karlsruhe","type":"Landkreis"},"federalState":{"key":"08","name":"Baden-Württemberg"}},{"name":"Friedhofstr.","postalCode":"75053","locality":"Gondelsheim","municipality":{"key":"08215025","name":"Gondelsheim","type":"Kreisangehörige_Gemeinde"},"district":{"key":"08215","name":"Karlsruhe","type":"Landkreis"},"federalState":{"key":"08","name":"Baden-Württemberg"}},{"name":"Froschgasse","postalCode":"75053","locality":"Gondelsheim","municipality":{"key":"08215025","name":"Gondelsheim","type":"Kreisangehörige_Gemeinde"},"district":{"key":"08215","name":"Karlsruhe","type":"Landkreis"},"federalState":{"key":"08","name":"Baden-Württemberg"}},{"name":"Gallertergrundweg","postalCode":"75053","locality":"Gondelsheim","municipality":{"key":"08215025","name":"Gondelsheim","type":"Kreisangehörige_Gemeinde"},"district":{"key":"08215","name":"Karlsruhe","type":"Landkreis"},"federalState":{"key":"08","name":"Baden-Württemberg"}},{"name":"Gartenstr.","postalCode":"75053","locality":"Gondelsheim","municipality":{"key":"08215025","name":"Gondelsheim","type":"Kreisangehörige_Gemeinde"},"district":{"key":"08215","name":"Karlsruhe","type":"Landkreis"},"federalState":{"key":"08","name":"Baden-Württemberg"}},{"name":"Gewerbestr.","postalCode":"75053","locality":"Gondelsheim","municipality":{"key":"08215025","name":"Gondelsheim","type":"Kreisangehörige_Gemeinde"},"district":{"key":"08215","name":"Karlsruhe","type":"Landkreis"},"federalState":{"key":"08","name":"Baden-Württemberg"}},{"name":"Gölswiesen","postalCode":"75053","locality":"Gondelsheim","municipality":{"key":"08215025","name":"Gondelsheim","type":"Kreisangehörige_Gemeinde"},"district":{"key":"08215","name":"Karlsruhe","type":"Landkreis"},"federalState":{"key":"08","name":"Baden-Württemberg"}},{"name":"Graf-Douglas-Str.","postalCode":"75053","locality":"Gondelsheim","municipality":{"key":"08215025","name":"Gondelsheim","type":"Kreisangehörige_Gemeinde"},"district":{"key":"08215","name":"Karlsruhe","type":"Landkreis"},"federalState":{"key":"08","name":"Baden-Württemberg"}},{"name":"Hagelhäldenweg","postalCode":"75053","locality":"Gondelsheim","municipality":{"key":"08215025","name":"Gondelsheim","type":"Kreisangehörige_Gemeinde"},"district":{"key":"08215","name":"Karlsruhe","type":"Landkreis"},"federalState":{"key":"08","name":"Baden-Württemberg"}},{"name":"Hirschgartenstr.","postalCode":"75053","locality":"Gondelsheim","municipality":{"key":"08215025","name":"Gondelsheim","type":"Kreisangehörige_Gemeinde"},"district":{"key":"08215","name":"Karlsruhe","type":"Landkreis"},"federalState":{"key":"08","name":"Baden-Württemberg"}},{"name":"Hölderlinweg","postalCode":"75053","locality":"Gondelsheim","municipality":{"key":"08215025","name":"Gondelsheim","type":"Kreisangehörige_Gemeinde"},"district":{"key":"08215","name":"Karlsruhe","type":"Landkreis"},"federalState":{"key":"08","name":"Baden-Württemberg"}},{"name":"Im Metzgerteich","postalCode":"75053","locality":"Gondelsheim","municipality":{"key":"08215025","name":"Gondelsheim","type":"Kreisangehörige_Gemeinde"},"district":{"key":"08215","name":"Karlsruhe","type":"Landkreis"},"federalState":{"key":"08","name":"Baden-Württemberg"}},{"name":"Im Trödtler","postalCode":"75053","locality":"Gondelsheim","municipality":{"key":"08215025","name":"Gondelsheim","type":"Kreisangehörige_Gemeinde"},"district":{"key":"08215","name":"Karlsruhe","type":"Landkreis"},"federalState":{"key":"08","name":"Baden-Württemberg"}},{"name":"In den Buchen","postalCode":"75053","locality":"Gondelsheim","municipality":{"key":"08215025","name":"Gondelsheim","type":"Kreisangehörige_Gemeinde"},"district":{"key":"08215","name":"Karlsruhe","type":"Landkreis"},"federalState":{"key":"08","name":"Baden-Württemberg"}},{"name":"In der Hofstadt","postalCode":"75053","locality":"Gondelsheim","municipality":{"key":"08215025","name":"Gondelsheim","type":"Kreisangehörige_Gemeinde"},"district":{"key":"08215","name":"Karlsruhe","type":"Landkreis"},"federalState":{"key":"08","name":"Baden-Württemberg"}},{"name":"Industriestr.","postalCode":"75053","locality":"Gondelsheim","municipality":{"key":"08215025","name":"Gondelsheim","type":"Kreisangehörige_Gemeinde"},"district":{"key":"08215","name":"Karlsruhe","type":"Landkreis"},"federalState":{"key":"08","name":"Baden-Württemberg"}},{"name":"Jacob-Hecht-Str.","postalCode":"75053","locality":"Gondelsheim","municipality":{"key":"08215025","name":"Gondelsheim","type":"Kreisangehörige_Gemeinde"},"district":{"key":"08215","name":"Karlsruhe","type":"Landkreis"},"federalState":{"key":"08","name":"Baden-Württemberg"}},{"name":"Jahnstr.","postalCode":"75053","locality":"Gondelsheim","municipality":{"key":"08215025","name":"Gondelsheim","type":"Kreisangehörige_Gemeinde"},"district":{"key":"08215","name":"Karlsruhe","type":"Landkreis"},"federalState":{"key":"08","name":"Baden-Württemberg"}},{"name":"Jöhlinger Str.","postalCode":"75053","locality":"Gondelsheim","municipality":{"key":"08215025","name":"Gondelsheim","type":"Kreisangehörige_Gemeinde"},"district":{"key":"08215","name":"Karlsruhe","type":"Landkreis"},"federalState":{"key":"08","name":"Baden-Württemberg"}},{"name":"Josephine-Benz-Str.","postalCode":"75053","locality":"Gondelsheim","municipality":{"key":"08215025","name":"Gondelsheim","type":"Kreisangehörige_Gemeinde"},"district":{"key":"08215","name":"Karlsruhe","type":"Landkreis"},"federalState":{"key":"08","name":"Baden-Württemberg"}},{"name":"Jostenbuckel","postalCode":"75053","locality":"Gondelsheim","municipality":{"key":"08215025","name":"Gondelsheim","type":"Kreisangehörige_Gemeinde"},"district":{"key":"08215","name":"Karlsruhe","type":"Landkreis"},"federalState":{"key":"08","name":"Baden-Württemberg"}},{"name":"Kanalweg","postalCode":"75053","locality":"Gondelsheim","municipality":{"key":"08215025","name":"Gondelsheim","type":"Kreisangehörige_Gemeinde"},"district":{"key":"08215","name":"Karlsruhe","type":"Landkreis"},"federalState":{"key":"08","name":"Baden-Württemberg"}},{"name":"Karlstr.","postalCode":"75053","locality":"Gondelsheim","municipality":{"key":"08215025","name":"Gondelsheim","type":"Kreisangehörige_Gemeinde"},"district":{"key":"08215","name":"Karlsruhe","type":"Landkreis"},"federalState":{"key":"08","name":"Baden-Württemberg"}},{"name":"Kirchbergstr.","postalCode":"75053","locality":"Gondelsheim","municipality":{"key":"08215025","name":"Gondelsheim","type":"Kreisangehörige_Gemeinde"},"district":{"key":"08215","name":"Karlsruhe","type":"Landkreis"},"federalState":{"key":"08","name":"Baden-Württemberg"}},{"name":"Kurpfalzstr.","postalCode":"75053","locality":"Gondelsheim","municipality":{"key":"08215025","name":"Gondelsheim","type":"Kreisangehörige_Gemeinde"},"district":{"key":"08215","name":"Karlsruhe","type":"Landkreis"},"federalState":{"key":"08","name":"Baden-Württemberg"}},{"name":"Leitergasse","postalCode":"75053","locality":"Gondelsheim","municipality":{"key":"08215025","name":"Gondelsheim","type":"Kreisangehörige_Gemeinde"},"district":{"key":"08215","name":"Karlsruhe","type":"Landkreis"},"federalState":{"key":"08","name":"Baden-Württemberg"}},{"name":"Markgrafenstr.","postalCode":"75053","locality":"Gondelsheim","municipality":{"key":"08215025","name":"Gondelsheim","type":"Kreisangehörige_Gemeinde"},"district":{"key":"08215","name":"Karlsruhe","type":"Landkreis"},"federalState":{"key":"08","name":"Baden-Württemberg"}},{"name":"Meierhof","postalCode":"75053","locality":"Gondelsheim","municipality":{"key":"08215025","name":"Gondelsheim","type":"Kreisangehörige_Gemeinde"},"district":{"key":"08215","name":"Karlsruhe","type":"Landkreis"},"federalState":{"key":"08","name":"Baden-Württemberg"}},{"name":"Mentzinger Str.","postalCode":"75053","locality":"Gondelsheim","municipality":{"key":"08215025","name":"Gondelsheim","type":"Kreisangehörige_Gemeinde"},"district":{"key":"08215","name":"Karlsruhe","type":"Landkreis"},"federalState":{"key":"08","name":"Baden-Württemberg"}},{"name":"Mühlstr.","postalCode":"75053","locality":"Gondelsheim","municipality":{"key":"08215025","name":"Gondelsheim","type":"Kreisangehörige_Gemeinde"},"district":{"key":"08215","name":"Karlsruhe","type":"Landkreis"},"federalState":{"key":"08","name":"Baden-Württemberg"}},{"name":"Neibsheimer Str.","postalCode":"75053","locality":"Gondelsheim","municipality":{"key":"08215025","name":"Gondelsheim","type":"Kreisangehörige_Gemeinde"},"district":{"key":"08215","name":"Karlsruhe","type":"Landkreis"},"federalState":{"key":"08","name":"Baden-Württemberg"}},{"name":"Neuer Weg","postalCode":"75053","locality":"Gondelsheim","municipality":{"key":"08215025","name":"Gondelsheim","type":"Kreisangehörige_Gemeinde"},"district":{"key":"08215","name":"Karlsruhe","type":"Landkreis"},"federalState":{"key":"08","name":"Baden-Württemberg"}},{"name":"Norbert-Baumann-Weg","postalCode":"75053","locality":"Gondelsheim","municipality":{"key":"08215025","name":"Gondelsheim","type":"Kreisangehörige_Gemeinde"},"district":{"key":"08215","name":"Karlsruhe","type":"Landkreis"},"federalState":{"key":"08","name":"Baden-Württemberg"}},{"name":"Obergrombacher Str.","postalCode":"75053","locality":"Gondelsheim","municipality":{"key":"08215025","name":"Gondelsheim","type":"Kreisangehörige_Gemeinde"},"district":{"key":"08215","name":"Karlsruhe","type":"Landkreis"},"federalState":{"key":"08","name":"Baden-Württemberg"}},{"name":"Parkweg","postalCode":"75053","locality":"Gondelsheim","municipality":{"key":"08215025","name":"Gondelsheim","type":"Kreisangehörige_Gemeinde"},"district":{"key":"08215","name":"Karlsruhe","type":"Landkreis"},"federalState":{"key":"08","name":"Baden-Württemberg"}},{"name":"Pfarrgasse","postalCode":"75053","locality":"Gondelsheim","municipality":{"key":"08215025","name":"Gondelsheim","type":"Kreisangehörige_Gemeinde"},"district":{"key":"08215","name":"Karlsruhe","type":"Landkreis"},"federalState":{"key":"08","name":"Baden-Württemberg"}},{"name":"Postweg","postalCode":"75053","locality":"Gondelsheim","municipality":{"key":"08215025","name":"Gondelsheim","type":"Kreisangehörige_Gemeinde"},"district":{"key":"08215","name":"Karlsruhe","type":"Landkreis"},"federalState":{"key":"08","name":"Baden-Württemberg"}},{"name":"Quellenstr.","postalCode":"76228","locality":"Karlsruhe","municipality":{"key":"08212000","name":"Karlsruhe, Stadt","type":"Stadtkreis"},"district":{"key":"08212","name":"Karlsruhe, Stadtkreis","type":"Stadtkreis"},"federalState":{"key":"08","name":"Baden-Württemberg"}},{"name":"Querstr.","postalCode":"76189","locality":"Karlsruhe","municipality":{"key":"08212000","name":"Karlsruhe, Stadt","type":"Stadtkreis"},"district":{"key":"08212","name":"Karlsruhe, Stadtkreis","type":"Stadtkreis"},"federalState":{"key":"08","name":"Baden-Württemberg"}},{"name":"Ritterstr.","postalCode":"75053","locality":"Gondelsheim","municipality":{"key":"08215025","name":"Gondelsheim","type":"Kreisangehörige_Gemeinde"},"district":{"key":"08215","name":"Karlsruhe","type":"Landkreis"},"federalState":{"key":"08","name":"Baden-Württemberg"}},{"name":"Rosenweg","postalCode":"75053","locality":"Gondelsheim","municipality":{"key":"08215025","name":"Gondelsheim","type":"Kreisangehörige_Gemeinde"},"district":{"key":"08215","name":"Karlsruhe","type":"Landkreis"},"federalState":{"key":"08","name":"Baden-Württemberg"}},{"name":"Rössener Grund","postalCode":"75053","locality":"Gondelsheim","municipality":{"key":"08215025","name":"Gondelsheim","type":"Kreisangehörige_Gemeinde"},"district":{"key":"08215","name":"Karlsruhe","type":"Landkreis"},"federalState":{"key":"08","name":"Baden-Württemberg"}},{"name":"Sandhöhle","postalCode":"75053","locality":"Gondelsheim","municipality":{"key":"08215025","name":"Gondelsheim","type":"Kreisangehörige_Gemeinde"},"district":{"key":"08215","name":"Karlsruhe","type":"Landkreis"},"federalState":{"key":"08","name":"Baden-Württemberg"}},{"name":"Schillerweg","postalCode":"75053","locality":"Gondelsheim","municipality":{"key":"08215025","name":"Gondelsheim","type":"Kreisangehörige_Gemeinde"},"district":{"key":"08215","name":"Karlsruhe","type":"Landkreis"},"federalState":{"key":"08","name":"Baden-Württemberg"}},{"name":"Schlosspark","postalCode":"75053","locality":"Gondelsheim","municipality":{"key":"08215025","name":"Gondelsheim","type":"Kreisangehörige_Gemeinde"},"district":{"key":"08215","name":"Karlsruhe","type":"Landkreis"},"federalState":{"key":"08","name":"Baden-Württemberg"}},{"name":"Schlosswiesen","postalCode":"75053","locality":"Gondelsheim","municipality":{"key":"08215025","name":"Gondelsheim","type":"Kreisangehörige_Gemeinde"},"district":{"key":"08215","name":"Karlsruhe","type":"Landkreis"},"federalState":{"key":"08","name":"Baden-Württemberg"}},{"name":"Schulstr.","postalCode":"75053","locality":"Gondelsheim","municipality":{"key":"08215025","name":"Gondelsheim","type":"Kreisangehörige_Gemeinde"},"district":{"key":"08215","name":"Karlsruhe","type":"Landkreis"},"federalState":{"key":"08","name":"Baden-Württemberg"}},{"name":"Silbergasse","postalCode":"75053","locality":"Gondelsheim","municipality":{"key":"08215025","name":"Gondelsheim","type":"Kreisangehörige_Gemeinde"},"district":{"key":"08215","name":"Karlsruhe","type":"Landkreis"},"federalState":{"key":"08","name":"Baden-Württemberg"}},{"name":"Silcherweg","postalCode":"75053","locality":"Gondelsheim","municipality":{"key":"08215025","name":"Gondelsheim","type":"Kreisangehörige_Gemeinde"},"district":{"key":"08215","name":"Karlsruhe","type":"Landkreis"},"federalState":{"key":"08","name":"Baden-Württemberg"}},{"name":"Sonnenhalde","postalCode":"75053","locality":"Gondelsheim","municipality":{"key":"08215025","name":"Gondelsheim","type":"Kreisangehörige_Gemeinde"},"district":{"key":"08215","name":"Karlsruhe","type":"Landkreis"},"federalState":{"key":"08","name":"Baden-Württemberg"}},{"name":"Sparbachstr.","postalCode":"75053","locality":"Gondelsheim","municipality":{"key":"08215025","name":"Gondelsheim","type":"Kreisangehörige_Gemeinde"},"district":{"key":"08215","name":"Karlsruhe","type":"Landkreis"},"federalState":{"key":"08","name":"Baden-Württemberg"}},{"name":"Südendstr.","postalCode":"75053","locality":"Gondelsheim","municipality":{"key":"08215025","name":"Gondelsheim","type":"Kreisangehörige_Gemeinde"},"district":{"key":"08215","name":"Karlsruhe","type":"Landkreis"},"federalState":{"key":"08","name":"Baden-Württemberg"}},{"name":"Talstr.","postalCode":"75053","locality":"Gondelsheim","municipality":{"key":"08215025","name":"Gondelsheim","type":"Kreisangehörige_Gemeinde"},"district":{"key":"08215","name":"Karlsruhe","type":"Landkreis"},"federalState":{"key":"08","name":"Baden-Württemberg"}},{"name":"Turmweg","postalCode":"75053","locality":"Gondelsheim","municipality":{"key":"08215025","name":"Gondelsheim","type":"Kreisangehörige_Gemeinde"},"district":{"key":"08215","name":"Karlsruhe","type":"Landkreis"},"federalState":{"key":"08","name":"Baden-Württemberg"}},{"name":"Uhlandweg","postalCode":"75053","locality":"Gondelsheim","municipality":{"key":"08215025","name":"Gondelsheim","type":"Kreisangehörige_Gemeinde"},"district":{"key":"08215","name":"Karlsruhe","type":"Landkreis"},"federalState":{"key":"08","name":"Baden-Württemberg"}},{"name":"Veilchenstr.","postalCode":"75053","locality":"Gondelsheim","municipality":{"key":"08215025","name":"Gondelsheim","type":"Kreisangehörige_Gemeinde"},"district":{"key":"08215","name":"Karlsruhe","type":"Landkreis"},"federalState":{"key":"08","name":"Baden-Württemberg"}},{"name":"Wiesenstr.","postalCode":"75053","locality":"Gondelsheim","municipality":{"key":"08215025","name":"Gondelsheim","type":"Kreisangehörige_Gemeinde"},"district":{"key":"08215","name":"Karlsruhe","type":"Landkreis"},"federalState":{"key":"08","name":"Baden-Württemberg"}},{"name":"Yburgweg","postalCode":"76189","locality":"Karlsruhe","municipality":{"key":"08212000","name":"Karlsruhe, Stadt","type":"Stadtkreis"},"district":{"key":"08212","name":"Karlsruhe, Stadtkreis","type":"Stadtkreis"},"federalState":{"key":"08","name":"Baden-Württemberg"}},{"name":"Yorckplatz","postalCode":"76135","locality":"Karlsruhe","municipality":{"key":"08212000","name":"Karlsruhe, Stadt","type":"Stadtkreis"},"district":{"key":"08212","name":"Karlsruhe, Stadtkreis","type":"Stadtkreis"},"federalState":{"key":"08","name":"Baden-Württemberg"}},{"name":"Yorckstr.","postalCode":"76185","locality":"Karlsruhe","municipality":{"key":"08212000","name":"Karlsruhe, Stadt","type":"Stadtkreis"},"district":{"key":"08212","name":"Karlsruhe, Stadtkreis","type":"Stadtkreis"},"federalState":{"key":"08","name":"Baden-Württemberg"}},{"name":"Zähringerstr.","postalCode":"76131","locality":"Karlsruhe","municipality":{"key":"08212000","name":"Karlsruhe, Stadt","type":"Stadtkreis"},"district":{"key":"08212","name":"Karlsruhe, Stadtkreis","type":"Stadtkreis"},"federalState":{"key":"08","name":"Baden-Württemberg"}},{"name":"Zähringerstr.","postalCode":"76133","locality":"Karlsruhe","municipality":{"key":"08212000","name":"Karlsruhe, Stadt","type":"Stadtkreis"},"district":{"key":"08212","name":"Karlsruhe, Stadtkreis","type":"Stadtkreis"},"federalState":{"key":"08","name":"Baden-Württemberg"}},{"name":"Zamenhofstr.","postalCode":"76131","locality":"Karlsruhe","municipality":{"key":"08212000","name":"Karlsruhe, Stadt","type":"Stadtkreis"},"district":{"key":"08212","name":"Karlsruhe, Stadtkreis","type":"Stadtkreis"},"federalState":{"key":"08","name":"Baden-Württemberg"}},{"name":"Zanderweg","postalCode":"76189","locality":"Karlsruhe","municipality":{"key":"08212000","name":"Karlsruhe, Stadt","type":"Stadtkreis"},"district":{"key":"08212","name":"Karlsruhe, Stadtkreis","type":"Stadtkreis"},"federalState":{"key":"08","name":"Baden-Württemberg"}},{"name":"Zedernweg","postalCode":"76149","locality":"Karlsruhe","municipality":{"key":"08212000","name":"Karlsruhe, Stadt","type":"Stadtkreis"},"district":{"key":"08212","name":"Karlsruhe, Stadtkreis","type":"Stadtkreis"},"federalState":{"key":"08","name":"Baden-Württemberg"}},{"name":"Zehntstr.","postalCode":"76227","locality":"Karlsruhe","municipality":{"key":"08212000","name":"Karlsruhe, Stadt","type":"Stadtkreis"},"district":{"key":"08212","name":"Karlsruhe, Stadtkreis","type":"Stadtkreis"},"federalState":{"key":"08","name":"Baden-Württemberg"}},{"name":"Zehntwaldstr.","postalCode":"76149","locality":"Karlsruhe","municipality":{"key":"08212000","name":"Karlsruhe, Stadt","type":"Stadtkreis"},"district":{"key":"08212","name":"Karlsruhe, Stadtkreis","type":"Stadtkreis"},"federalState":{"key":"08","name":"Baden-Württemberg"}},{"name":"Zeisigweg","postalCode":"76149","locality":"Karlsruhe","municipality":{"key":"08212000","name":"Karlsruhe, Stadt","type":"Stadtkreis"},"district":{"key":"08212","name":"Karlsruhe, Stadtkreis","type":"Stadtkreis"},"federalState":{"key":"08","name":"Baden-Württemberg"}},{"name":"Zentralhof","postalCode":"76133","locality":"Karlsruhe","municipality":{"key":"08212000","name":"Karlsruhe, Stadt","type":"Stadtkreis"},"district":{"key":"08212","name":"Karlsruhe, Stadtkreis","type":"Stadtkreis"},"federalState":{"key":"08","name":"Baden-Württemberg"}},{"name":"Zeppelinstr.","postalCode":"76185","locality":"Karlsruhe","municipality":{"key":"08212000","name":"Karlsruhe, Stadt","type":"Stadtkreis"},"district":{"key":"08212","name":"Karlsruhe, Stadtkreis","type":"Stadtkreis"},"federalState":{"key":"08","name":"Baden-Württemberg"}},{"name":"Ziegeleistr.","postalCode":"76229","locality":"Karlsruhe","municipality":{"key":"08212000","name":"Karlsruhe, Stadt","type":"Stadtkreis"},"district":{"key":"08212","name":"Karlsruhe, Stadtkreis","type":"Stadtkreis"},"federalState":{"key":"08","name":"Baden-Württemberg"}},{"name":"Ziegelstr.","postalCode":"76185","locality":"Karlsruhe","municipality":{"key":"08212000","name":"Karlsruhe, Stadt","type":"Stadtkreis"},"district":{"key":"08212","name":"Karlsruhe, Stadtkreis","type":"Stadtkreis"},"federalState":{"key":"08","name":"Baden-Württemberg"}},{"name":"Zietenstr.","postalCode":"76185","locality":"Karlsruhe","municipality":{"key":"08212000","name":"Karlsruhe, Stadt","type":"Stadtkreis"},"district":{"key":"08212","name":"Karlsruhe, Stadtkreis","type":"Stadtkreis"},"federalState":{"key":"08","name":"Baden-Württemberg"}},{"name":"Zikadenweg","postalCode":"76189","locality":"Karlsruhe","municipality":{"key":"08212000","name":"Karlsruhe, Stadt","type":"Stadtkreis"},"district":{"key":"08212","name":"Karlsruhe, Stadtkreis","type":"Stadtkreis"},"federalState":{"key":"08","name":"Baden-Württemberg"}},{"name":"Zimmerstr.","postalCode":"76137","locality":"Karlsruhe","municipality":{"key":"08212000","name":"Karlsruhe, Stadt","type":"Stadtkreis"},"district":{"key":"08212","name":"Karlsruhe, Stadtkreis","type":"Stadtkreis"},"federalState":{"key":"08","name":"Baden-Württemberg"}},{"name":"Zipser Str.","postalCode":"76227","locality":"Karlsruhe","municipality":{"key":"08212000","name":"Karlsruhe, Stadt","type":"Stadtkreis"},"district":{"key":"08212","name":"Karlsruhe, Stadtkreis","type":"Stadtkreis"},"federalState":{"key":"08","name":"Baden-Württemberg"}},{"name":"Zirbenweg","postalCode":"76149","locality":"Karlsruhe","municipality":{"key":"08212000","name":"Karlsruhe, Stadt","type":"Stadtkreis"},"district":{"key":"08212","name":"Karlsruhe, Stadtkreis","type":"Stadtkreis"},"federalState":{"key":"08","name":"Baden-Württemberg"}},{"name":"Zirkel","postalCode":"76131","locality":"Karlsruhe","municipality":{"key":"08212000","name":"Karlsruhe, Stadt","type":"Stadtkreis"},"district":{"key":"08212","name":"Karlsruhe, Stadtkreis","type":"Stadtkreis"},"federalState":{"key":"08","name":"Baden-Württemberg"}},{"name":"Zirkel","postalCode":"76133","locality":"Karlsruhe","municipality":{"key":"08212000","name":"Karlsruhe, Stadt","type":"Stadtkreis"},"district":{"key":"08212","name":"Karlsruhe, Stadtkreis","type":"Stadtkreis"},"federalState":{"key":"08","name":"Baden-Württemberg"}},{"name":"Zollstr.","postalCode":"76189","locality":"Karlsruhe","municipality":{"key":"08212000","name":"Karlsruhe, Stadt","type":"Stadtkreis"},"district":{"key":"08212","name":"Karlsruhe, Stadtkreis","type":"Stadtkreis"},"federalState":{"key":"08","name":"Baden-Württemberg"}},{"name":"Zoologischer Stadtgarten","postalCode":"76137","locality":"Karlsruhe","municipality":{"key":"08212000","name":"Karlsruhe, Stadt","type":"Stadtkreis"},"district":{"key":"08212","name":"Karlsruhe, Stadtkreis","type":"Stadtkreis"},"federalState":{"key":"08","name":"Baden-Württemberg"}},{"name":"Zum Heidenfeld","postalCode":"76228","locality":"Karlsruhe","municipality":{"key":"08212000","name":"Karlsruhe, Stadt","type":"Stadtkreis"},"district":{"key":"08212","name":"Karlsruhe, Stadtkreis","type":"Stadtkreis"},"federalState":{"key":"08","name":"Baden-Württemberg"}},{"name":"Zum Sportzentrum","postalCode":"76228","locality":"Karlsruhe","municipality":{"key":"08212000","name":"Karlsruhe, Stadt","type":"Stadtkreis"},"district":{"key":"08212","name":"Karlsruhe, Stadtkreis","type":"Stadtkreis"},"federalState":{"key":"08","name":"Baden-Württemberg"}},{"name":"Zum Wald","postalCode":"76228","locality":"Karlsruhe","municipality":{"key":"08212000","name":"Karlsruhe, Stadt","type":"Stadtkreis"},"district":{"key":"08212","name":"Karlsruhe, Stadtkreis","type":"Stadtkreis"},"federalState":{"key":"08","name":"Baden-Württemberg"}},{"name":"Zündhütle Weg","postalCode":"76228","locality":"Karlsruhe","municipality":{"key":"08212000","name":"Karlsruhe, Stadt","type":"Stadtkreis"},"district":{"key":"08212","name":"Karlsruhe, Stadtkreis","type":"Stadtkreis"},"federalState":{"key":"08","name":"Baden-Württemberg"}},{"name":"Zunftstr.","postalCode":"76227","locality":"Karlsruhe","municipality":{"key":"08212000","name":"Karlsruhe, Stadt","type":"Stadtkreis"},"district":{"key":"08212","name":"Karlsruhe, Stadtkreis","type":"Stadtkreis"},"federalState":{"key":"08","name":"Baden-Württemberg"}},{"name":"Zur Dorfwies","postalCode":"76228","locality":"Karlsruhe","municipality":{"key":"08212000","name":"Karlsruhe, Stadt","type":"Stadtkreis"},"district":{"key":"08212","name":"Karlsruhe, Stadtkreis","type":"Stadtkreis"},"federalState":{"key":"08","name":"Baden-Württemberg"}},{"name":"Zur Schmalzwies","postalCode":"76228","locality":"Karlsruhe","municipality":{"key":"08212000","name":"Karlsruhe, Stadt","type":"Stadtkreis"},"district":{"key":"08212","name":"Karlsruhe, Stadtkreis","type":"Stadtkreis"},"federalState":{"key":"08","name":"Baden-Württemberg"}},{"name":"Zur Seeplatte","postalCode":"76228","locality":"Karlsruhe","municipality":{"key":"08212000","name":"Karlsruhe, Stadt","type":"Stadtkreis"},"district":{"key":"08212","name":"Karlsruhe, Stadtkreis","type":"Stadtkreis"},"federalState":{"key":"08","name":"Baden-Württemberg"}},{"name":"Zur Ziegelhütte","postalCode":"76228","locality":"Karlsruhe","municipality":{"key":"08212000","name":"Karlsruhe, Stadt","type":"Stadtkreis"},"district":{"key":"08212","name":"Karlsruhe, Stadtkreis","type":"Stadtkreis"},"federalState":{"key":"08","name":"Baden-Württemberg"}},{"name":"Zweibrückener Str.","postalCode":"76228","locality":"Karlsruhe","municipality":{"key":"08212000","name":"Karlsruhe, Stadt","type":"Stadtkreis"},"district":{"key":"08212","name":"Karlsruhe, Stadtkreis","type":"Stadtkreis"},"federalState":{"key":"08","name":"Baden-Württemberg"}},{"name":"Zwergenweg","postalCode":"76199","locality":"Karlsruhe","municipality":{"key":"08212000","name":"Karlsruhe, Stadt","type":"Stadtkreis"},"district":{"key":"08212","name":"Karlsruhe, Stadtkreis","type":"Stadtkreis"},"federalState":{"key":"08","name":"Baden-Württemberg"}},{"name":"Zwickauer Str.","postalCode":"76139","locality":"Karlsruhe","municipality":{"key":"08212000","name":"Karlsruhe, Stadt","type":"Stadtkreis"},"district":{"key":"08212","name":"Karlsruhe, Stadtkreis","type":"Stadtkreis"},"federalState":{"key":"08","name":"Baden-Württemberg"}},{"name":"Zypressenweg","postalCode":"76149","locality":"Karlsruhe","municipality":{"key":"08212000","name":"Karlsruhe, Stadt","type":"Stadtkreis"},"district":{"key":"08212","name":"Karlsruhe, Stadtkreis","type":"Stadtkreis"},"federalState":{"key":"08","name":"Baden-Württemberg"}},{"name":"Ährenweg","postalCode":"76135","locality":"Karlsruhe","municipality":{"key":"08212000","name":"Karlsruhe, Stadt","type":"Stadtkreis"},"district":{"key":"08212","name":"Karlsruhe, Stadtkreis","type":"Stadtkreis"},"federalState":{"key":"08","name":"Baden-Württemberg"}},{"name":"Ölgartenweg","postalCode":"76189","locality":"Karlsruhe","municipality":{"key":"08212000","name":"Karlsruhe, Stadt","type":"Stadtkreis"},"district":{"key":"08212","name":"Karlsruhe, Stadtkreis","type":"Stadtkreis"},"federalState":{"key":"08","name":"Baden-Württemberg"}},{"name":"Östliche Rheinbrückenstr.","postalCode":"76187","locality":"Karlsruhe","municipality":{"key":"08212000","name":"Karlsruhe, Stadt","type":"Stadtkreis"},"district":{"key":"08212","name":"Karlsruhe, Stadtkreis","type":"Stadtkreis"},"federalState":{"key":"08","name":"Baden-Württemberg"}},]