[{"name":"Ackerstr.","postalCode":"06773","locality":"Gräfenhainichen","municipality":{"key":"15091110","name":"Gräfenhainichen, Stadt","type":"Stadt"},"district":{"key":"15091","name":"Wittenberg","type":"Landkreis"},"federalState":{"key":"15","name":"Sachsen-Anhalt"}},{"name":"Ackerweg","postalCode":"06773","locality":"Gräfenhainichen","municipality":{"key":"15091110","name":"Gräfenhainichen, Stadt","type":"Stadt"},"district":{"key":"15091","name":"Wittenberg","type":"Landkreis"},"federalState":{"key":"15","name":"Sachsen-Anhalt"}},{"name":"Adam-Weise-Str.","postalCode":"06773","locality":"Gräfenhainichen","municipality":{"key":"15091110","name":"Gräfenhainichen, Stadt","type":"Stadt"},"district":{"key":"15091","name":"Wittenberg","type":"Landkreis"},"federalState":{"key":"15","name":"Sachsen-Anhalt"}},{"name":"Alte Dübener Str.","postalCode":"06773","locality":"Gräfenhainichen","municipality":{"key":"15091110","name":"Gräfenhainichen, Stadt","type":"Stadt"},"district":{"key":"15091","name":"Wittenberg","type":"Landkreis"},"federalState":{"key":"15","name":"Sachsen-Anhalt"}},{"name":"Alte Nordstr.","postalCode":"06773","locality":"Gräfenhainichen","municipality":{"key":"15091110","name":"Gräfenhainichen, Stadt","type":"Stadt"},"district":{"key":"15091","name":"Wittenberg","type":"Landkreis"},"federalState":{"key":"15","name":"Sachsen-Anhalt"}},{"name":"Alter I-Weg","postalCode":"06772","locality":"Gräfenhainichen","municipality":{"key":"15091110","name":"Gräfenhainichen, Stadt","type":"Stadt"},"district":{"key":"15091","name":"Wittenberg","type":"Landkreis"},"federalState":{"key":"15","name":"Sachsen-Anhalt"}},{"name":"Alt-Golpaer Str.","postalCode":"06772","locality":"Gräfenhainichen","municipality":{"key":"15091110","name":"Gräfenhainichen, Stadt","type":"Stadt"},"district":{"key":"15091","name":"Wittenberg","type":"Landkreis"},"federalState":{"key":"15","name":"Sachsen-Anhalt"}},{"name":"Altjeßnitzer Str.","postalCode":"06772","locality":"Gräfenhainichen","municipality":{"key":"15091110","name":"Gräfenhainichen, Stadt","type":"Stadt"},"district":{"key":"15091","name":"Wittenberg","type":"Landkreis"},"federalState":{"key":"15","name":"Sachsen-Anhalt"}},{"name":"Am Anglerheim","postalCode":"06772","locality":"Gräfenhainichen","municipality":{"key":"15091110","name":"Gräfenhainichen, Stadt","type":"Stadt"},"district":{"key":"15091","name":"Wittenberg","type":"Landkreis"},"federalState":{"key":"15","name":"Sachsen-Anhalt"}},{"name":"Am Bahhof","postalCode":"06772","locality":"Gräfenhainichen","municipality":{"key":"15091110","name":"Gräfenhainichen, Stadt","type":"Stadt"},"district":{"key":"15091","name":"Wittenberg","type":"Landkreis"},"federalState":{"key":"15","name":"Sachsen-Anhalt"}},{"name":"Am Bühl","postalCode":"06773","locality":"Gräfenhainichen","municipality":{"key":"15091110","name":"Gräfenhainichen, Stadt","type":"Stadt"},"district":{"key":"15091","name":"Wittenberg","type":"Landkreis"},"federalState":{"key":"15","name":"Sachsen-Anhalt"}},{"name":"Am Ende-Str.","postalCode":"06773","locality":"Gräfenhainichen","municipality":{"key":"15091110","name":"Gräfenhainichen, Stadt","type":"Stadt"},"district":{"key":"15091","name":"Wittenberg","type":"Landkreis"},"federalState":{"key":"15","name":"Sachsen-Anhalt"}},{"name":"Am Hain","postalCode":"06773","locality":"Gräfenhainichen","municipality":{"key":"15091110","name":"Gräfenhainichen, Stadt","type":"Stadt"},"district":{"key":"15091","name":"Wittenberg","type":"Landkreis"},"federalState":{"key":"15","name":"Sachsen-Anhalt"}},{"name":"Am Kühlen Morgen","postalCode":"06773","locality":"Gräfenhainichen","municipality":{"key":"15091110","name":"Gräfenhainichen, Stadt","type":"Stadt"},"district":{"key":"15091","name":"Wittenberg","type":"Landkreis"},"federalState":{"key":"15","name":"Sachsen-Anhalt"}},{"name":"Am Park","postalCode":"06772","locality":"Gräfenhainichen","municipality":{"key":"15091110","name":"Gräfenhainichen, Stadt","type":"Stadt"},"district":{"key":"15091","name":"Wittenberg","type":"Landkreis"},"federalState":{"key":"15","name":"Sachsen-Anhalt"}},{"name":"Am Park","postalCode":"06773","locality":"Gräfenhainichen","municipality":{"key":"15091110","name":"Gräfenhainichen, Stadt","type":"Stadt"},"district":{"key":"15091","name":"Wittenberg","type":"Landkreis"},"federalState":{"key":"15","name":"Sachsen-Anhalt"}},{"name":"Am See","postalCode":"06772","locality":"Gräfenhainichen","municipality":{"key":"15091110","name":"Gräfenhainichen, Stadt","type":"Stadt"},"district":{"key":"15091","name":"Wittenberg","type":"Landkreis"},"federalState":{"key":"15","name":"Sachsen-Anhalt"}},{"name":"Amselweg","postalCode":"06773","locality":"Gräfenhainichen","municipality":{"key":"15091110","name":"Gräfenhainichen, Stadt","type":"Stadt"},"district":{"key":"15091","name":"Wittenberg","type":"Landkreis"},"federalState":{"key":"15","name":"Sachsen-Anhalt"}},{"name":"Am Stadion","postalCode":"06772","locality":"Gräfenhainichen","municipality":{"key":"15091110","name":"Gräfenhainichen, Stadt","type":"Stadt"},"district":{"key":"15091","name":"Wittenberg","type":"Landkreis"},"federalState":{"key":"15","name":"Sachsen-Anhalt"}},{"name":"Am Wäldchen","postalCode":"06772","locality":"Gräfenhainichen","municipality":{"key":"15091110","name":"Gräfenhainichen, Stadt","type":"Stadt"},"district":{"key":"15091","name":"Wittenberg","type":"Landkreis"},"federalState":{"key":"15","name":"Sachsen-Anhalt"}},{"name":"Am Waldrand","postalCode":"06773","locality":"Gräfenhainichen","municipality":{"key":"15091110","name":"Gräfenhainichen, Stadt","type":"Stadt"},"district":{"key":"15091","name":"Wittenberg","type":"Landkreis"},"federalState":{"key":"15","name":"Sachsen-Anhalt"}},{"name":"Am Wall","postalCode":"06772","locality":"Gräfenhainichen","municipality":{"key":"15091110","name":"Gräfenhainichen, Stadt","type":"Stadt"},"district":{"key":"15091","name":"Wittenberg","type":"Landkreis"},"federalState":{"key":"15","name":"Sachsen-Anhalt"}},{"name":"Am Wasserturm","postalCode":"06772","locality":"Gräfenhainichen","municipality":{"key":"15091110","name":"Gräfenhainichen, Stadt","type":"Stadt"},"district":{"key":"15091","name":"Wittenberg","type":"Landkreis"},"federalState":{"key":"15","name":"Sachsen-Anhalt"}},{"name":"Am Wiesengrund","postalCode":"06772","locality":"Gräfenhainichen","municipality":{"key":"15091110","name":"Gräfenhainichen, Stadt","type":"Stadt"},"district":{"key":"15091","name":"Wittenberg","type":"Landkreis"},"federalState":{"key":"15","name":"Sachsen-Anhalt"}},{"name":"An der Neuen Warte","postalCode":"06772","locality":"Gräfenhainichen","municipality":{"key":"15091110","name":"Gräfenhainichen, Stadt","type":"Stadt"},"district":{"key":"15091","name":"Wittenberg","type":"Landkreis"},"federalState":{"key":"15","name":"Sachsen-Anhalt"}},{"name":"Ankerweg","postalCode":"06773","locality":"Gräfenhainichen","municipality":{"key":"15091110","name":"Gräfenhainichen, Stadt","type":"Stadt"},"district":{"key":"15091","name":"Wittenberg","type":"Landkreis"},"federalState":{"key":"15","name":"Sachsen-Anhalt"}},{"name":"Anton-Saefkow-Str.","postalCode":"06772","locality":"Gräfenhainichen","municipality":{"key":"15091110","name":"Gräfenhainichen, Stadt","type":"Stadt"},"district":{"key":"15091","name":"Wittenberg","type":"Landkreis"},"federalState":{"key":"15","name":"Sachsen-Anhalt"}},{"name":"August-Bebel-Platz","postalCode":"06772","locality":"Gräfenhainichen","municipality":{"key":"15091110","name":"Gräfenhainichen, Stadt","type":"Stadt"},"district":{"key":"15091","name":"Wittenberg","type":"Landkreis"},"federalState":{"key":"15","name":"Sachsen-Anhalt"}},{"name":"August-Bebel-Str.","postalCode":"06772","locality":"Gräfenhainichen","municipality":{"key":"15091110","name":"Gräfenhainichen, Stadt","type":"Stadt"},"district":{"key":"15091","name":"Wittenberg","type":"Landkreis"},"federalState":{"key":"15","name":"Sachsen-Anhalt"}},{"name":"August-Bebel-Str.","postalCode":"06773","locality":"Gräfenhainichen","municipality":{"key":"15091110","name":"Gräfenhainichen, Stadt","type":"Stadt"},"district":{"key":"15091","name":"Wittenberg","type":"Landkreis"},"federalState":{"key":"15","name":"Sachsen-Anhalt"}},{"name":"Bachstr.","postalCode":"06772","locality":"Gräfenhainichen","municipality":{"key":"15091110","name":"Gräfenhainichen, Stadt","type":"Stadt"},"district":{"key":"15091","name":"Wittenberg","type":"Landkreis"},"federalState":{"key":"15","name":"Sachsen-Anhalt"}},{"name":"Bachstr.","postalCode":"06773","locality":"Gräfenhainichen","municipality":{"key":"15091110","name":"Gräfenhainichen, Stadt","type":"Stadt"},"district":{"key":"15091","name":"Wittenberg","type":"Landkreis"},"federalState":{"key":"15","name":"Sachsen-Anhalt"}},{"name":"Bahnhofstr.","postalCode":"06772","locality":"Gräfenhainichen","municipality":{"key":"15091110","name":"Gräfenhainichen, Stadt","type":"Stadt"},"district":{"key":"15091","name":"Wittenberg","type":"Landkreis"},"federalState":{"key":"15","name":"Sachsen-Anhalt"}},{"name":"Bahnhofstr.","postalCode":"06773","locality":"Gräfenhainichen","municipality":{"key":"15091110","name":"Gräfenhainichen, Stadt","type":"Stadt"},"district":{"key":"15091","name":"Wittenberg","type":"Landkreis"},"federalState":{"key":"15","name":"Sachsen-Anhalt"}},{"name":"Bahnweg","postalCode":"06772","locality":"Gräfenhainichen","municipality":{"key":"15091110","name":"Gräfenhainichen, Stadt","type":"Stadt"},"district":{"key":"15091","name":"Wittenberg","type":"Landkreis"},"federalState":{"key":"15","name":"Sachsen-Anhalt"}},{"name":"Barbaraweg","postalCode":"06773","locality":"Gräfenhainichen","municipality":{"key":"15091110","name":"Gräfenhainichen, Stadt","type":"Stadt"},"district":{"key":"15091","name":"Wittenberg","type":"Landkreis"},"federalState":{"key":"15","name":"Sachsen-Anhalt"}},{"name":"Bauernweg","postalCode":"06772","locality":"Gräfenhainichen","municipality":{"key":"15091110","name":"Gräfenhainichen, Stadt","type":"Stadt"},"district":{"key":"15091","name":"Wittenberg","type":"Landkreis"},"federalState":{"key":"15","name":"Sachsen-Anhalt"}},{"name":"Beethovenstr.","postalCode":"06772","locality":"Gräfenhainichen","municipality":{"key":"15091110","name":"Gräfenhainichen, Stadt","type":"Stadt"},"district":{"key":"15091","name":"Wittenberg","type":"Landkreis"},"federalState":{"key":"15","name":"Sachsen-Anhalt"}},{"name":"Bergmannssiedlung","postalCode":"06772","locality":"Gräfenhainichen","municipality":{"key":"15091110","name":"Gräfenhainichen, Stadt","type":"Stadt"},"district":{"key":"15091","name":"Wittenberg","type":"Landkreis"},"federalState":{"key":"15","name":"Sachsen-Anhalt"}},{"name":"Bergmannsweg","postalCode":"06772","locality":"Gräfenhainichen","municipality":{"key":"15091110","name":"Gräfenhainichen, Stadt","type":"Stadt"},"district":{"key":"15091","name":"Wittenberg","type":"Landkreis"},"federalState":{"key":"15","name":"Sachsen-Anhalt"}},{"name":"Berliner Str.","postalCode":"06773","locality":"Gräfenhainichen","municipality":{"key":"15091110","name":"Gräfenhainichen, Stadt","type":"Stadt"},"district":{"key":"15091","name":"Wittenberg","type":"Landkreis"},"federalState":{"key":"15","name":"Sachsen-Anhalt"}},{"name":"Beutelhaldenweg","postalCode":"06773","locality":"Gräfenhainichen","municipality":{"key":"15091110","name":"Gräfenhainichen, Stadt","type":"Stadt"},"district":{"key":"15091","name":"Wittenberg","type":"Landkreis"},"federalState":{"key":"15","name":"Sachsen-Anhalt"}},{"name":"Bienenkorb","postalCode":"06772","locality":"Gräfenhainichen","municipality":{"key":"15091110","name":"Gräfenhainichen, Stadt","type":"Stadt"},"district":{"key":"15091","name":"Wittenberg","type":"Landkreis"},"federalState":{"key":"15","name":"Sachsen-Anhalt"}},{"name":"Bierweg","postalCode":"06772","locality":"Gräfenhainichen","municipality":{"key":"15091110","name":"Gräfenhainichen, Stadt","type":"Stadt"},"district":{"key":"15091","name":"Wittenberg","type":"Landkreis"},"federalState":{"key":"15","name":"Sachsen-Anhalt"}},{"name":"Birkenweg","postalCode":"06773","locality":"Gräfenhainichen","municipality":{"key":"15091110","name":"Gräfenhainichen, Stadt","type":"Stadt"},"district":{"key":"15091","name":"Wittenberg","type":"Landkreis"},"federalState":{"key":"15","name":"Sachsen-Anhalt"}},{"name":"Bitterfelder Str.","postalCode":"06773","locality":"Gräfenhainichen","municipality":{"key":"15091110","name":"Gräfenhainichen, Stadt","type":"Stadt"},"district":{"key":"15091","name":"Wittenberg","type":"Landkreis"},"federalState":{"key":"15","name":"Sachsen-Anhalt"}},{"name":"Blockweg","postalCode":"06772","locality":"Gräfenhainichen","municipality":{"key":"15091110","name":"Gräfenhainichen, Stadt","type":"Stadt"},"district":{"key":"15091","name":"Wittenberg","type":"Landkreis"},"federalState":{"key":"15","name":"Sachsen-Anhalt"}},{"name":"Brotweg","postalCode":"06772","locality":"Gräfenhainichen","municipality":{"key":"15091110","name":"Gräfenhainichen, Stadt","type":"Stadt"},"district":{"key":"15091","name":"Wittenberg","type":"Landkreis"},"federalState":{"key":"15","name":"Sachsen-Anhalt"}},{"name":"Brückgasse","postalCode":"06773","locality":"Gräfenhainichen","municipality":{"key":"15091110","name":"Gräfenhainichen, Stadt","type":"Stadt"},"district":{"key":"15091","name":"Wittenberg","type":"Landkreis"},"federalState":{"key":"15","name":"Sachsen-Anhalt"}},{"name":"Buchholz","postalCode":"06773","locality":"Gräfenhainichen","municipality":{"key":"15091110","name":"Gräfenhainichen, Stadt","type":"Stadt"},"district":{"key":"15091","name":"Wittenberg","type":"Landkreis"},"federalState":{"key":"15","name":"Sachsen-Anhalt"}},{"name":"Burgkemnitzer Str.","postalCode":"06772","locality":"Gräfenhainichen","municipality":{"key":"15091110","name":"Gräfenhainichen, Stadt","type":"Stadt"},"district":{"key":"15091","name":"Wittenberg","type":"Landkreis"},"federalState":{"key":"15","name":"Sachsen-Anhalt"}},{"name":"Campingplatz","postalCode":"06772","locality":"Gräfenhainichen","municipality":{"key":"15091110","name":"Gräfenhainichen, Stadt","type":"Stadt"},"district":{"key":"15091","name":"Wittenberg","type":"Landkreis"},"federalState":{"key":"15","name":"Sachsen-Anhalt"}},{"name":"Carl-von-Ossietzky-Str.","postalCode":"06772","locality":"Gräfenhainichen","municipality":{"key":"15091110","name":"Gräfenhainichen, Stadt","type":"Stadt"},"district":{"key":"15091","name":"Wittenberg","type":"Landkreis"},"federalState":{"key":"15","name":"Sachsen-Anhalt"}},{"name":"Clare-Zetkin-Str.","postalCode":"06772","locality":"Gräfenhainichen","municipality":{"key":"15091110","name":"Gräfenhainichen, Stadt","type":"Stadt"},"district":{"key":"15091","name":"Wittenberg","type":"Landkreis"},"federalState":{"key":"15","name":"Sachsen-Anhalt"}},{"name":"Dachszange","postalCode":"06772","locality":"Gräfenhainichen","municipality":{"key":"15091110","name":"Gräfenhainichen, Stadt","type":"Stadt"},"district":{"key":"15091","name":"Wittenberg","type":"Landkreis"},"federalState":{"key":"15","name":"Sachsen-Anhalt"}},{"name":"Damaschkestr.","postalCode":"06773","locality":"Gräfenhainichen","municipality":{"key":"15091110","name":"Gräfenhainichen, Stadt","type":"Stadt"},"district":{"key":"15091","name":"Wittenberg","type":"Landkreis"},"federalState":{"key":"15","name":"Sachsen-Anhalt"}},{"name":"Denkmalsweg","postalCode":"06773","locality":"Gräfenhainichen","municipality":{"key":"15091110","name":"Gräfenhainichen, Stadt","type":"Stadt"},"district":{"key":"15091","name":"Wittenberg","type":"Landkreis"},"federalState":{"key":"15","name":"Sachsen-Anhalt"}},{"name":"Der alte I-Weg","postalCode":"06772","locality":"Gräfenhainichen","municipality":{"key":"15091110","name":"Gräfenhainichen, Stadt","type":"Stadt"},"district":{"key":"15091","name":"Wittenberg","type":"Landkreis"},"federalState":{"key":"15","name":"Sachsen-Anhalt"}},{"name":"Der große Anger","postalCode":"06773","locality":"Gräfenhainichen","municipality":{"key":"15091110","name":"Gräfenhainichen, Stadt","type":"Stadt"},"district":{"key":"15091","name":"Wittenberg","type":"Landkreis"},"federalState":{"key":"15","name":"Sachsen-Anhalt"}},{"name":"Die 13","postalCode":"06773","locality":"Gräfenhainichen","municipality":{"key":"15091110","name":"Gräfenhainichen, Stadt","type":"Stadt"},"district":{"key":"15091","name":"Wittenberg","type":"Landkreis"},"federalState":{"key":"15","name":"Sachsen-Anhalt"}},{"name":"Die 16","postalCode":"06773","locality":"Gräfenhainichen","municipality":{"key":"15091110","name":"Gräfenhainichen, Stadt","type":"Stadt"},"district":{"key":"15091","name":"Wittenberg","type":"Landkreis"},"federalState":{"key":"15","name":"Sachsen-Anhalt"}},{"name":"Die Zwölf","postalCode":"06772","locality":"Gräfenhainichen","municipality":{"key":"15091110","name":"Gräfenhainichen, Stadt","type":"Stadt"},"district":{"key":"15091","name":"Wittenberg","type":"Landkreis"},"federalState":{"key":"15","name":"Sachsen-Anhalt"}},{"name":"Die Zwölf","postalCode":"06773","locality":"Gräfenhainichen","municipality":{"key":"15091110","name":"Gräfenhainichen, Stadt","type":"Stadt"},"district":{"key":"15091","name":"Wittenberg","type":"Landkreis"},"federalState":{"key":"15","name":"Sachsen-Anhalt"}},{"name":"D-Linie","postalCode":"06772","locality":"Gräfenhainichen","municipality":{"key":"15091110","name":"Gräfenhainichen, Stadt","type":"Stadt"},"district":{"key":"15091","name":"Wittenberg","type":"Landkreis"},"federalState":{"key":"15","name":"Sachsen-Anhalt"}},{"name":"D-Linie (Eisenhammerlinie)","postalCode":"06772","locality":"Gräfenhainichen","municipality":{"key":"15091110","name":"Gräfenhainichen, Stadt","type":"Stadt"},"district":{"key":"15091","name":"Wittenberg","type":"Landkreis"},"federalState":{"key":"15","name":"Sachsen-Anhalt"}},{"name":"Dorfplatz","postalCode":"06773","locality":"Gräfenhainichen","municipality":{"key":"15091110","name":"Gräfenhainichen, Stadt","type":"Stadt"},"district":{"key":"15091","name":"Wittenberg","type":"Landkreis"},"federalState":{"key":"15","name":"Sachsen-Anhalt"}},{"name":"Dorfstr.","postalCode":"06773","locality":"Gräfenhainichen","municipality":{"key":"15091110","name":"Gräfenhainichen, Stadt","type":"Stadt"},"district":{"key":"15091","name":"Wittenberg","type":"Landkreis"},"federalState":{"key":"15","name":"Sachsen-Anhalt"}},{"name":"Dornewitzer Str.","postalCode":"06773","locality":"Gräfenhainichen","municipality":{"key":"15091110","name":"Gräfenhainichen, Stadt","type":"Stadt"},"district":{"key":"15091","name":"Wittenberg","type":"Landkreis"},"federalState":{"key":"15","name":"Sachsen-Anhalt"}},{"name":"Dübener Str.","postalCode":"06772","locality":"Gräfenhainichen","municipality":{"key":"15091110","name":"Gräfenhainichen, Stadt","type":"Stadt"},"district":{"key":"15091","name":"Wittenberg","type":"Landkreis"},"federalState":{"key":"15","name":"Sachsen-Anhalt"}},{"name":"Dübener Str.","postalCode":"06773","locality":"Gräfenhainichen","municipality":{"key":"15091110","name":"Gräfenhainichen, Stadt","type":"Stadt"},"district":{"key":"15091","name":"Wittenberg","type":"Landkreis"},"federalState":{"key":"15","name":"Sachsen-Anhalt"}},{"name":"Eisenbahnstr.","postalCode":"06773","locality":"Gräfenhainichen","municipality":{"key":"15091110","name":"Gräfenhainichen, Stadt","type":"Stadt"},"district":{"key":"15091","name":"Wittenberg","type":"Landkreis"},"federalState":{"key":"15","name":"Sachsen-Anhalt"}},{"name":"Eisenhammer","postalCode":"06772","locality":"Gräfenhainichen","municipality":{"key":"15091110","name":"Gräfenhainichen, Stadt","type":"Stadt"},"district":{"key":"15091","name":"Wittenberg","type":"Landkreis"},"federalState":{"key":"15","name":"Sachsen-Anhalt"}},{"name":"Ernst-Moyat-Str.","postalCode":"06772","locality":"Gräfenhainichen","municipality":{"key":"15091110","name":"Gräfenhainichen, Stadt","type":"Stadt"},"district":{"key":"15091","name":"Wittenberg","type":"Landkreis"},"federalState":{"key":"15","name":"Sachsen-Anhalt"}},{"name":"Ernst-Thälmann-Str.","postalCode":"06772","locality":"Gräfenhainichen","municipality":{"key":"15091110","name":"Gräfenhainichen, Stadt","type":"Stadt"},"district":{"key":"15091","name":"Wittenberg","type":"Landkreis"},"federalState":{"key":"15","name":"Sachsen-Anhalt"}},{"name":"Fahringsmühle","postalCode":"06773","locality":"Gräfenhainichen","municipality":{"key":"15091110","name":"Gräfenhainichen, Stadt","type":"Stadt"},"district":{"key":"15091","name":"Wittenberg","type":"Landkreis"},"federalState":{"key":"15","name":"Sachsen-Anhalt"}},{"name":"Fahringsstr.","postalCode":"06773","locality":"Gräfenhainichen","municipality":{"key":"15091110","name":"Gräfenhainichen, Stadt","type":"Stadt"},"district":{"key":"15091","name":"Wittenberg","type":"Landkreis"},"federalState":{"key":"15","name":"Sachsen-Anhalt"}},{"name":"Feldstr.","postalCode":"06772","locality":"Gräfenhainichen","municipality":{"key":"15091110","name":"Gräfenhainichen, Stadt","type":"Stadt"},"district":{"key":"15091","name":"Wittenberg","type":"Landkreis"},"federalState":{"key":"15","name":"Sachsen-Anhalt"}},{"name":"Feldstr.","postalCode":"06773","locality":"Gräfenhainichen","municipality":{"key":"15091110","name":"Gräfenhainichen, Stadt","type":"Stadt"},"district":{"key":"15091","name":"Wittenberg","type":"Landkreis"},"federalState":{"key":"15","name":"Sachsen-Anhalt"}},{"name":"Finkenweg","postalCode":"06773","locality":"Gräfenhainichen","municipality":{"key":"15091110","name":"Gräfenhainichen, Stadt","type":"Stadt"},"district":{"key":"15091","name":"Wittenberg","type":"Landkreis"},"federalState":{"key":"15","name":"Sachsen-Anhalt"}},{"name":"Flachhaus","postalCode":"06772","locality":"Gräfenhainichen","municipality":{"key":"15091110","name":"Gräfenhainichen, Stadt","type":"Stadt"},"district":{"key":"15091","name":"Wittenberg","type":"Landkreis"},"federalState":{"key":"15","name":"Sachsen-Anhalt"}},{"name":"Flügelhorn","postalCode":"06773","locality":"Gräfenhainichen","municipality":{"key":"15091110","name":"Gräfenhainichen, Stadt","type":"Stadt"},"district":{"key":"15091","name":"Wittenberg","type":"Landkreis"},"federalState":{"key":"15","name":"Sachsen-Anhalt"}},{"name":"Flurweg","postalCode":"06772","locality":"Gräfenhainichen","municipality":{"key":"15091110","name":"Gräfenhainichen, Stadt","type":"Stadt"},"district":{"key":"15091","name":"Wittenberg","type":"Landkreis"},"federalState":{"key":"15","name":"Sachsen-Anhalt"}},{"name":"Flurweg","postalCode":"06773","locality":"Gräfenhainichen","municipality":{"key":"15091110","name":"Gräfenhainichen, Stadt","type":"Stadt"},"district":{"key":"15091","name":"Wittenberg","type":"Landkreis"},"federalState":{"key":"15","name":"Sachsen-Anhalt"}},{"name":"Freiligrathstr.","postalCode":"06772","locality":"Gräfenhainichen","municipality":{"key":"15091110","name":"Gräfenhainichen, Stadt","type":"Stadt"},"district":{"key":"15091","name":"Wittenberg","type":"Landkreis"},"federalState":{"key":"15","name":"Sachsen-Anhalt"}},{"name":"Friedensplatz","postalCode":"06773","locality":"Gräfenhainichen","municipality":{"key":"15091110","name":"Gräfenhainichen, Stadt","type":"Stadt"},"district":{"key":"15091","name":"Wittenberg","type":"Landkreis"},"federalState":{"key":"15","name":"Sachsen-Anhalt"}},{"name":"Friedrich-Ebert-Str.","postalCode":"06772","locality":"Gräfenhainichen","municipality":{"key":"15091110","name":"Gräfenhainichen, Stadt","type":"Stadt"},"district":{"key":"15091","name":"Wittenberg","type":"Landkreis"},"federalState":{"key":"15","name":"Sachsen-Anhalt"}},{"name":"Friedrich-Ebert-Str.","postalCode":"06773","locality":"Gräfenhainichen","municipality":{"key":"15091110","name":"Gräfenhainichen, Stadt","type":"Stadt"},"district":{"key":"15091","name":"Wittenberg","type":"Landkreis"},"federalState":{"key":"15","name":"Sachsen-Anhalt"}},{"name":"Friedrich-Engels-Str.","postalCode":"06772","locality":"Gräfenhainichen","municipality":{"key":"15091110","name":"Gräfenhainichen, Stadt","type":"Stadt"},"district":{"key":"15091","name":"Wittenberg","type":"Landkreis"},"federalState":{"key":"15","name":"Sachsen-Anhalt"}},{"name":"Friedrichstr.","postalCode":"06773","locality":"Gräfenhainichen","municipality":{"key":"15091110","name":"Gräfenhainichen, Stadt","type":"Stadt"},"district":{"key":"15091","name":"Wittenberg","type":"Landkreis"},"federalState":{"key":"15","name":"Sachsen-Anhalt"}},{"name":"Gabellinie","postalCode":"06773","locality":"Gräfenhainichen","municipality":{"key":"15091110","name":"Gräfenhainichen, Stadt","type":"Stadt"},"district":{"key":"15091","name":"Wittenberg","type":"Landkreis"},"federalState":{"key":"15","name":"Sachsen-Anhalt"}},{"name":"Gabelsbergweg","postalCode":"06772","locality":"Gräfenhainichen","municipality":{"key":"15091110","name":"Gräfenhainichen, Stadt","type":"Stadt"},"district":{"key":"15091","name":"Wittenberg","type":"Landkreis"},"federalState":{"key":"15","name":"Sachsen-Anhalt"}},{"name":"Gadewitzer Weg","postalCode":"06773","locality":"Gräfenhainichen","municipality":{"key":"15091110","name":"Gräfenhainichen, Stadt","type":"Stadt"},"district":{"key":"15091","name":"Wittenberg","type":"Landkreis"},"federalState":{"key":"15","name":"Sachsen-Anhalt"}},{"name":"Galgenberg","postalCode":"06773","locality":"Gräfenhainichen","municipality":{"key":"15091110","name":"Gräfenhainichen, Stadt","type":"Stadt"},"district":{"key":"15091","name":"Wittenberg","type":"Landkreis"},"federalState":{"key":"15","name":"Sachsen-Anhalt"}},{"name":"Gartenstr.","postalCode":"06773","locality":"Gräfenhainichen","municipality":{"key":"15091110","name":"Gräfenhainichen, Stadt","type":"Stadt"},"district":{"key":"15091","name":"Wittenberg","type":"Landkreis"},"federalState":{"key":"15","name":"Sachsen-Anhalt"}},{"name":"Gartenweg","postalCode":"06772","locality":"Gräfenhainichen","municipality":{"key":"15091110","name":"Gräfenhainichen, Stadt","type":"Stadt"},"district":{"key":"15091","name":"Wittenberg","type":"Landkreis"},"federalState":{"key":"15","name":"Sachsen-Anhalt"}},{"name":"Gartenweg","postalCode":"06773","locality":"Gräfenhainichen","municipality":{"key":"15091110","name":"Gräfenhainichen, Stadt","type":"Stadt"},"district":{"key":"15091","name":"Wittenberg","type":"Landkreis"},"federalState":{"key":"15","name":"Sachsen-Anhalt"}},{"name":"Georg-Forster-Str.","postalCode":"06773","locality":"Gräfenhainichen","municipality":{"key":"15091110","name":"Gräfenhainichen, Stadt","type":"Stadt"},"district":{"key":"15091","name":"Wittenberg","type":"Landkreis"},"federalState":{"key":"15","name":"Sachsen-Anhalt"}},{"name":"Georg - Schumann - Platz","postalCode":"06772","locality":"Gräfenhainichen","municipality":{"key":"15091110","name":"Gräfenhainichen, Stadt","type":"Stadt"},"district":{"key":"15091","name":"Wittenberg","type":"Landkreis"},"federalState":{"key":"15","name":"Sachsen-Anhalt"}},{"name":"G.-F.-Händel-Str.","postalCode":"06772","locality":"Gräfenhainichen","municipality":{"key":"15091110","name":"Gräfenhainichen, Stadt","type":"Stadt"},"district":{"key":"15091","name":"Wittenberg","type":"Landkreis"},"federalState":{"key":"15","name":"Sachsen-Anhalt"}},{"name":"Gleinermühlenweg","postalCode":"06772","locality":"Gräfenhainichen","municipality":{"key":"15091110","name":"Gräfenhainichen, Stadt","type":"Stadt"},"district":{"key":"15091","name":"Wittenberg","type":"Landkreis"},"federalState":{"key":"15","name":"Sachsen-Anhalt"}},{"name":"Glück-Auf-Str.","postalCode":"06773","locality":"Gräfenhainichen","municipality":{"key":"15091110","name":"Gräfenhainichen, Stadt","type":"Stadt"},"district":{"key":"15091","name":"Wittenberg","type":"Landkreis"},"federalState":{"key":"15","name":"Sachsen-Anhalt"}},{"name":"Goethehain","postalCode":"06772","locality":"Gräfenhainichen","municipality":{"key":"15091110","name":"Gräfenhainichen, Stadt","type":"Stadt"},"district":{"key":"15091","name":"Wittenberg","type":"Landkreis"},"federalState":{"key":"15","name":"Sachsen-Anhalt"}},{"name":"Golpaer Str.","postalCode":"06772","locality":"Gräfenhainichen","municipality":{"key":"15091110","name":"Gräfenhainichen, Stadt","type":"Stadt"},"district":{"key":"15091","name":"Wittenberg","type":"Landkreis"},"federalState":{"key":"15","name":"Sachsen-Anhalt"}},{"name":"Goltewitzer Str.","postalCode":"06773","locality":"Gräfenhainichen","municipality":{"key":"15091110","name":"Gräfenhainichen, Stadt","type":"Stadt"},"district":{"key":"15091","name":"Wittenberg","type":"Landkreis"},"federalState":{"key":"15","name":"Sachsen-Anhalt"}},{"name":"Gräfenhainicher Str.","postalCode":"06773","locality":"Gräfenhainichen","municipality":{"key":"15091110","name":"Gräfenhainichen, Stadt","type":"Stadt"},"district":{"key":"15091","name":"Wittenberg","type":"Landkreis"},"federalState":{"key":"15","name":"Sachsen-Anhalt"}},{"name":"Gremminer Str.","postalCode":"06773","locality":"Gräfenhainichen","municipality":{"key":"15091110","name":"Gräfenhainichen, Stadt","type":"Stadt"},"district":{"key":"15091","name":"Wittenberg","type":"Landkreis"},"federalState":{"key":"15","name":"Sachsen-Anhalt"}},{"name":"Gremminer Weg","postalCode":"06773","locality":"Gräfenhainichen","municipality":{"key":"15091110","name":"Gräfenhainichen, Stadt","type":"Stadt"},"district":{"key":"15091","name":"Wittenberg","type":"Landkreis"},"federalState":{"key":"15","name":"Sachsen-Anhalt"}},{"name":"Grüne Gasse","postalCode":"06773","locality":"Gräfenhainichen","municipality":{"key":"15091110","name":"Gräfenhainichen, Stadt","type":"Stadt"},"district":{"key":"15091","name":"Wittenberg","type":"Landkreis"},"federalState":{"key":"15","name":"Sachsen-Anhalt"}},{"name":"Hainleite","postalCode":"06773","locality":"Gräfenhainichen","municipality":{"key":"15091110","name":"Gräfenhainichen, Stadt","type":"Stadt"},"district":{"key":"15091","name":"Wittenberg","type":"Landkreis"},"federalState":{"key":"15","name":"Sachsen-Anhalt"}},{"name":"Hainmühlenweg","postalCode":"06773","locality":"Gräfenhainichen","municipality":{"key":"15091110","name":"Gräfenhainichen, Stadt","type":"Stadt"},"district":{"key":"15091","name":"Wittenberg","type":"Landkreis"},"federalState":{"key":"15","name":"Sachsen-Anhalt"}},{"name":"Halbe Mond","postalCode":"06772","locality":"Gräfenhainichen","municipality":{"key":"15091110","name":"Gräfenhainichen, Stadt","type":"Stadt"},"district":{"key":"15091","name":"Wittenberg","type":"Landkreis"},"federalState":{"key":"15","name":"Sachsen-Anhalt"}},{"name":"Hammerweg","postalCode":"06772","locality":"Gräfenhainichen","municipality":{"key":"15091110","name":"Gräfenhainichen, Stadt","type":"Stadt"},"district":{"key":"15091","name":"Wittenberg","type":"Landkreis"},"federalState":{"key":"15","name":"Sachsen-Anhalt"}},{"name":"Hauptstr.","postalCode":"06772","locality":"Gräfenhainichen","municipality":{"key":"15091110","name":"Gräfenhainichen, Stadt","type":"Stadt"},"district":{"key":"15091","name":"Wittenberg","type":"Landkreis"},"federalState":{"key":"15","name":"Sachsen-Anhalt"}},{"name":"Hauptstr.","postalCode":"06773","locality":"Gräfenhainichen","municipality":{"key":"15091110","name":"Gräfenhainichen, Stadt","type":"Stadt"},"district":{"key":"15091","name":"Wittenberg","type":"Landkreis"},"federalState":{"key":"15","name":"Sachsen-Anhalt"}},{"name":"Heideblick","postalCode":"06773","locality":"Gräfenhainichen","municipality":{"key":"15091110","name":"Gräfenhainichen, Stadt","type":"Stadt"},"district":{"key":"15091","name":"Wittenberg","type":"Landkreis"},"federalState":{"key":"15","name":"Sachsen-Anhalt"}},{"name":"Heinrich-Heine-Str.","postalCode":"06772","locality":"Gräfenhainichen","municipality":{"key":"15091110","name":"Gräfenhainichen, Stadt","type":"Stadt"},"district":{"key":"15091","name":"Wittenberg","type":"Landkreis"},"federalState":{"key":"15","name":"Sachsen-Anhalt"}},{"name":"Hirschweg","postalCode":"06772","locality":"Gräfenhainichen","municipality":{"key":"15091110","name":"Gräfenhainichen, Stadt","type":"Stadt"},"district":{"key":"15091","name":"Wittenberg","type":"Landkreis"},"federalState":{"key":"15","name":"Sachsen-Anhalt"}},{"name":"Hugo-Winckler-Str.","postalCode":"06773","locality":"Gräfenhainichen","municipality":{"key":"15091110","name":"Gräfenhainichen, Stadt","type":"Stadt"},"district":{"key":"15091","name":"Wittenberg","type":"Landkreis"},"federalState":{"key":"15","name":"Sachsen-Anhalt"}},{"name":"H-Weg","postalCode":"06772","locality":"Gräfenhainichen","municipality":{"key":"15091110","name":"Gräfenhainichen, Stadt","type":"Stadt"},"district":{"key":"15091","name":"Wittenberg","type":"Landkreis"},"federalState":{"key":"15","name":"Sachsen-Anhalt"}},{"name":"I-Linie","postalCode":"06772","locality":"Gräfenhainichen","municipality":{"key":"15091110","name":"Gräfenhainichen, Stadt","type":"Stadt"},"district":{"key":"15091","name":"Wittenberg","type":"Landkreis"},"federalState":{"key":"15","name":"Sachsen-Anhalt"}},{"name":"I-Linie","postalCode":"06773","locality":"Gräfenhainichen","municipality":{"key":"15091110","name":"Gräfenhainichen, Stadt","type":"Stadt"},"district":{"key":"15091","name":"Wittenberg","type":"Landkreis"},"federalState":{"key":"15","name":"Sachsen-Anhalt"}},{"name":"Jagdhausweg","postalCode":"06772","locality":"Gräfenhainichen","municipality":{"key":"15091110","name":"Gräfenhainichen, Stadt","type":"Stadt"},"district":{"key":"15091","name":"Wittenberg","type":"Landkreis"},"federalState":{"key":"15","name":"Sachsen-Anhalt"}},{"name":"Johann-Gottfried-Galle-Str.","postalCode":"06773","locality":"Gräfenhainichen","municipality":{"key":"15091110","name":"Gräfenhainichen, Stadt","type":"Stadt"},"district":{"key":"15091","name":"Wittenberg","type":"Landkreis"},"federalState":{"key":"15","name":"Sachsen-Anhalt"}},{"name":"Joseph-Haydn-Str.","postalCode":"06772","locality":"Gräfenhainichen","municipality":{"key":"15091110","name":"Gräfenhainichen, Stadt","type":"Stadt"},"district":{"key":"15091","name":"Wittenberg","type":"Landkreis"},"federalState":{"key":"15","name":"Sachsen-Anhalt"}},{"name":"Jösigkstr.","postalCode":"06773","locality":"Gräfenhainichen","municipality":{"key":"15091110","name":"Gräfenhainichen, Stadt","type":"Stadt"},"district":{"key":"15091","name":"Wittenberg","type":"Landkreis"},"federalState":{"key":"15","name":"Sachsen-Anhalt"}},{"name":"J.-S.-Bach-Str.","postalCode":"06772","locality":"Gräfenhainichen","municipality":{"key":"15091110","name":"Gräfenhainichen, Stadt","type":"Stadt"},"district":{"key":"15091","name":"Wittenberg","type":"Landkreis"},"federalState":{"key":"15","name":"Sachsen-Anhalt"}},{"name":"Jüdenberger Dorfstr.","postalCode":"06773","locality":"Gräfenhainichen","municipality":{"key":"15091110","name":"Gräfenhainichen, Stadt","type":"Stadt"},"district":{"key":"15091","name":"Wittenberg","type":"Landkreis"},"federalState":{"key":"15","name":"Sachsen-Anhalt"}},{"name":"Jüdenberger Hauptstr.","postalCode":"06773","locality":"Gräfenhainichen","municipality":{"key":"15091110","name":"Gräfenhainichen, Stadt","type":"Stadt"},"district":{"key":"15091","name":"Wittenberg","type":"Landkreis"},"federalState":{"key":"15","name":"Sachsen-Anhalt"}},{"name":"Jüdenberger Str.","postalCode":"06772","locality":"Gräfenhainichen","municipality":{"key":"15091110","name":"Gräfenhainichen, Stadt","type":"Stadt"},"district":{"key":"15091","name":"Wittenberg","type":"Landkreis"},"federalState":{"key":"15","name":"Sachsen-Anhalt"}},{"name":"Karl-Liebknecht-Str.","postalCode":"06772","locality":"Gräfenhainichen","municipality":{"key":"15091110","name":"Gräfenhainichen, Stadt","type":"Stadt"},"district":{"key":"15091","name":"Wittenberg","type":"Landkreis"},"federalState":{"key":"15","name":"Sachsen-Anhalt"}},{"name":"Karl-Liebknecht-Str.","postalCode":"06773","locality":"Gräfenhainichen","municipality":{"key":"15091110","name":"Gräfenhainichen, Stadt","type":"Stadt"},"district":{"key":"15091","name":"Wittenberg","type":"Landkreis"},"federalState":{"key":"15","name":"Sachsen-Anhalt"}},{"name":"Karl-Marx-Str.","postalCode":"06772","locality":"Gräfenhainichen","municipality":{"key":"15091110","name":"Gräfenhainichen, Stadt","type":"Stadt"},"district":{"key":"15091","name":"Wittenberg","type":"Landkreis"},"federalState":{"key":"15","name":"Sachsen-Anhalt"}},{"name":"K-Flügel","postalCode":"06772","locality":"Gräfenhainichen","municipality":{"key":"15091110","name":"Gräfenhainichen, Stadt","type":"Stadt"},"district":{"key":"15091","name":"Wittenberg","type":"Landkreis"},"federalState":{"key":"15","name":"Sachsen-Anhalt"}},{"name":"Kirchplatz","postalCode":"06773","locality":"Gräfenhainichen","municipality":{"key":"15091110","name":"Gräfenhainichen, Stadt","type":"Stadt"},"district":{"key":"15091","name":"Wittenberg","type":"Landkreis"},"federalState":{"key":"15","name":"Sachsen-Anhalt"}},{"name":"Kleine Str.","postalCode":"06772","locality":"Gräfenhainichen","municipality":{"key":"15091110","name":"Gräfenhainichen, Stadt","type":"Stadt"},"district":{"key":"15091","name":"Wittenberg","type":"Landkreis"},"federalState":{"key":"15","name":"Sachsen-Anhalt"}},{"name":"Koppeltsgrundweg","postalCode":"06773","locality":"Gräfenhainichen","municipality":{"key":"15091110","name":"Gräfenhainichen, Stadt","type":"Stadt"},"district":{"key":"15091","name":"Wittenberg","type":"Landkreis"},"federalState":{"key":"15","name":"Sachsen-Anhalt"}},{"name":"Kraftwerkstr.","postalCode":"06772","locality":"Gräfenhainichen","municipality":{"key":"15091110","name":"Gräfenhainichen, Stadt","type":"Stadt"},"district":{"key":"15091","name":"Wittenberg","type":"Landkreis"},"federalState":{"key":"15","name":"Sachsen-Anhalt"}},{"name":"Kranichweg","postalCode":"06773","locality":"Gräfenhainichen","municipality":{"key":"15091110","name":"Gräfenhainichen, Stadt","type":"Stadt"},"district":{"key":"15091","name":"Wittenberg","type":"Landkreis"},"federalState":{"key":"15","name":"Sachsen-Anhalt"}},{"name":"Kreuzweg","postalCode":"06773","locality":"Gräfenhainichen","municipality":{"key":"15091110","name":"Gräfenhainichen, Stadt","type":"Stadt"},"district":{"key":"15091","name":"Wittenberg","type":"Landkreis"},"federalState":{"key":"15","name":"Sachsen-Anhalt"}},{"name":"Krinaer Str.","postalCode":"06772","locality":"Gräfenhainichen","municipality":{"key":"15091110","name":"Gräfenhainichen, Stadt","type":"Stadt"},"district":{"key":"15091","name":"Wittenberg","type":"Landkreis"},"federalState":{"key":"15","name":"Sachsen-Anhalt"}},{"name":"Landschulheim","postalCode":"06772","locality":"Gräfenhainichen","municipality":{"key":"15091110","name":"Gräfenhainichen, Stadt","type":"Stadt"},"district":{"key":"15091","name":"Wittenberg","type":"Landkreis"},"federalState":{"key":"15","name":"Sachsen-Anhalt"}},{"name":"Leinewebergasse","postalCode":"06773","locality":"Gräfenhainichen","municipality":{"key":"15091110","name":"Gräfenhainichen, Stadt","type":"Stadt"},"district":{"key":"15091","name":"Wittenberg","type":"Landkreis"},"federalState":{"key":"15","name":"Sachsen-Anhalt"}},{"name":"Leninplatz","postalCode":"06772","locality":"Gräfenhainichen","municipality":{"key":"15091110","name":"Gräfenhainichen, Stadt","type":"Stadt"},"district":{"key":"15091","name":"Wittenberg","type":"Landkreis"},"federalState":{"key":"15","name":"Sachsen-Anhalt"}},{"name":"Leninstr.","postalCode":"06772","locality":"Gräfenhainichen","municipality":{"key":"15091110","name":"Gräfenhainichen, Stadt","type":"Stadt"},"district":{"key":"15091","name":"Wittenberg","type":"Landkreis"},"federalState":{"key":"15","name":"Sachsen-Anhalt"}},{"name":"Lessingstr.","postalCode":"06772","locality":"Gräfenhainichen","municipality":{"key":"15091110","name":"Gräfenhainichen, Stadt","type":"Stadt"},"district":{"key":"15091","name":"Wittenberg","type":"Landkreis"},"federalState":{"key":"15","name":"Sachsen-Anhalt"}},{"name":"Lindenallee","postalCode":"06773","locality":"Gräfenhainichen","municipality":{"key":"15091110","name":"Gräfenhainichen, Stadt","type":"Stadt"},"district":{"key":"15091","name":"Wittenberg","type":"Landkreis"},"federalState":{"key":"15","name":"Sachsen-Anhalt"}},{"name":"Ludwig-Jahn-Str.","postalCode":"06773","locality":"Gräfenhainichen","municipality":{"key":"15091110","name":"Gräfenhainichen, Stadt","type":"Stadt"},"district":{"key":"15091","name":"Wittenberg","type":"Landkreis"},"federalState":{"key":"15","name":"Sachsen-Anhalt"}},{"name":"Lutherweg","postalCode":"06773","locality":"Gräfenhainichen","municipality":{"key":"15091110","name":"Gräfenhainichen, Stadt","type":"Stadt"},"district":{"key":"15091","name":"Wittenberg","type":"Landkreis"},"federalState":{"key":"15","name":"Sachsen-Anhalt"}},{"name":"Mescheider Str.","postalCode":"06773","locality":"Gräfenhainichen","municipality":{"key":"15091110","name":"Gräfenhainichen, Stadt","type":"Stadt"},"district":{"key":"15091","name":"Wittenberg","type":"Landkreis"},"federalState":{"key":"15","name":"Sachsen-Anhalt"}},{"name":"Mittelstr.","postalCode":"06773","locality":"Gräfenhainichen","municipality":{"key":"15091110","name":"Gräfenhainichen, Stadt","type":"Stadt"},"district":{"key":"15091","name":"Wittenberg","type":"Landkreis"},"federalState":{"key":"15","name":"Sachsen-Anhalt"}},{"name":"Möhlauer Str.","postalCode":"06773","locality":"Gräfenhainichen","municipality":{"key":"15091110","name":"Gräfenhainichen, Stadt","type":"Stadt"},"district":{"key":"15091","name":"Wittenberg","type":"Landkreis"},"federalState":{"key":"15","name":"Sachsen-Anhalt"}},{"name":"Müchauer Mühle","postalCode":"06773","locality":"Gräfenhainichen","municipality":{"key":"15091110","name":"Gräfenhainichen, Stadt","type":"Stadt"},"district":{"key":"15091","name":"Wittenberg","type":"Landkreis"},"federalState":{"key":"15","name":"Sachsen-Anhalt"}},{"name":"Mühlenstr.","postalCode":"06773","locality":"Gräfenhainichen","municipality":{"key":"15091110","name":"Gräfenhainichen, Stadt","type":"Stadt"},"district":{"key":"15091","name":"Wittenberg","type":"Landkreis"},"federalState":{"key":"15","name":"Sachsen-Anhalt"}},{"name":"Mühlenweg","postalCode":"06773","locality":"Gräfenhainichen","municipality":{"key":"15091110","name":"Gräfenhainichen, Stadt","type":"Stadt"},"district":{"key":"15091","name":"Wittenberg","type":"Landkreis"},"federalState":{"key":"15","name":"Sachsen-Anhalt"}},{"name":"Mühlstr.","postalCode":"06773","locality":"Gräfenhainichen","municipality":{"key":"15091110","name":"Gräfenhainichen, Stadt","type":"Stadt"},"district":{"key":"15091","name":"Wittenberg","type":"Landkreis"},"federalState":{"key":"15","name":"Sachsen-Anhalt"}},{"name":"M-Weg","postalCode":"06772","locality":"Gräfenhainichen","municipality":{"key":"15091110","name":"Gräfenhainichen, Stadt","type":"Stadt"},"district":{"key":"15091","name":"Wittenberg","type":"Landkreis"},"federalState":{"key":"15","name":"Sachsen-Anhalt"}},{"name":"Nachtigallenweg","postalCode":"06773","locality":"Gräfenhainichen","municipality":{"key":"15091110","name":"Gräfenhainichen, Stadt","type":"Stadt"},"district":{"key":"15091","name":"Wittenberg","type":"Landkreis"},"federalState":{"key":"15","name":"Sachsen-Anhalt"}},{"name":"Neue Engelsstr.","postalCode":"06772","locality":"Gräfenhainichen","municipality":{"key":"15091110","name":"Gräfenhainichen, Stadt","type":"Stadt"},"district":{"key":"15091","name":"Wittenberg","type":"Landkreis"},"federalState":{"key":"15","name":"Sachsen-Anhalt"}},{"name":"Neue Heinestr.","postalCode":"06772","locality":"Gräfenhainichen","municipality":{"key":"15091110","name":"Gräfenhainichen, Stadt","type":"Stadt"},"district":{"key":"15091","name":"Wittenberg","type":"Landkreis"},"federalState":{"key":"15","name":"Sachsen-Anhalt"}},{"name":"Neuer Weg","postalCode":"06772","locality":"Gräfenhainichen","municipality":{"key":"15091110","name":"Gräfenhainichen, Stadt","type":"Stadt"},"district":{"key":"15091","name":"Wittenberg","type":"Landkreis"},"federalState":{"key":"15","name":"Sachsen-Anhalt"}},{"name":"Neuer Weg","postalCode":"06773","locality":"Gräfenhainichen","municipality":{"key":"15091110","name":"Gräfenhainichen, Stadt","type":"Stadt"},"district":{"key":"15091","name":"Wittenberg","type":"Landkreis"},"federalState":{"key":"15","name":"Sachsen-Anhalt"}},{"name":"Neue Thälmannstr.","postalCode":"06772","locality":"Gräfenhainichen","municipality":{"key":"15091110","name":"Gräfenhainichen, Stadt","type":"Stadt"},"district":{"key":"15091","name":"Wittenberg","type":"Landkreis"},"federalState":{"key":"15","name":"Sachsen-Anhalt"}},{"name":"Nordweg","postalCode":"06772","locality":"Gräfenhainichen","municipality":{"key":"15091110","name":"Gräfenhainichen, Stadt","type":"Stadt"},"district":{"key":"15091","name":"Wittenberg","type":"Landkreis"},"federalState":{"key":"15","name":"Sachsen-Anhalt"}},{"name":"Oberer Flurweg","postalCode":"06772","locality":"Gräfenhainichen","municipality":{"key":"15091110","name":"Gräfenhainichen, Stadt","type":"Stadt"},"district":{"key":"15091","name":"Wittenberg","type":"Landkreis"},"federalState":{"key":"15","name":"Sachsen-Anhalt"}},{"name":"Oberstr.","postalCode":"06772","locality":"Gräfenhainichen","municipality":{"key":"15091110","name":"Gräfenhainichen, Stadt","type":"Stadt"},"district":{"key":"15091","name":"Wittenberg","type":"Landkreis"},"federalState":{"key":"15","name":"Sachsen-Anhalt"}},{"name":"Oranienbaumer Str.","postalCode":"06773","locality":"Gräfenhainichen","municipality":{"key":"15091110","name":"Gräfenhainichen, Stadt","type":"Stadt"},"district":{"key":"15091","name":"Wittenberg","type":"Landkreis"},"federalState":{"key":"15","name":"Sachsen-Anhalt"}},{"name":"Ottostr.","postalCode":"06773","locality":"Gräfenhainichen","municipality":{"key":"15091110","name":"Gräfenhainichen, Stadt","type":"Stadt"},"district":{"key":"15091","name":"Wittenberg","type":"Landkreis"},"federalState":{"key":"15","name":"Sachsen-Anhalt"}},{"name":"Parkstr.","postalCode":"06773","locality":"Gräfenhainichen","municipality":{"key":"15091110","name":"Gräfenhainichen, Stadt","type":"Stadt"},"district":{"key":"15091","name":"Wittenberg","type":"Landkreis"},"federalState":{"key":"15","name":"Sachsen-Anhalt"}},{"name":"Pfahlbrückenweg","postalCode":"06772","locality":"Gräfenhainichen","municipality":{"key":"15091110","name":"Gräfenhainichen, Stadt","type":"Stadt"},"district":{"key":"15091","name":"Wittenberg","type":"Landkreis"},"federalState":{"key":"15","name":"Sachsen-Anhalt"}},{"name":"Pfortenstr.","postalCode":"06773","locality":"Gräfenhainichen","municipality":{"key":"15091110","name":"Gräfenhainichen, Stadt","type":"Stadt"},"district":{"key":"15091","name":"Wittenberg","type":"Landkreis"},"federalState":{"key":"15","name":"Sachsen-Anhalt"}},{"name":"Platz des Friedens","postalCode":"06772","locality":"Gräfenhainichen","municipality":{"key":"15091110","name":"Gräfenhainichen, Stadt","type":"Stadt"},"district":{"key":"15091","name":"Wittenberg","type":"Landkreis"},"federalState":{"key":"15","name":"Sachsen-Anhalt"}},{"name":"P-Linie","postalCode":"06772","locality":"Gräfenhainichen","municipality":{"key":"15091110","name":"Gräfenhainichen, Stadt","type":"Stadt"},"district":{"key":"15091","name":"Wittenberg","type":"Landkreis"},"federalState":{"key":"15","name":"Sachsen-Anhalt"}},{"name":"P-Linie","postalCode":"06773","locality":"Gräfenhainichen","municipality":{"key":"15091110","name":"Gräfenhainichen, Stadt","type":"Stadt"},"district":{"key":"15091","name":"Wittenberg","type":"Landkreis"},"federalState":{"key":"15","name":"Sachsen-Anhalt"}},{"name":"Poetenweg","postalCode":"06773","locality":"Gräfenhainichen","municipality":{"key":"15091110","name":"Gräfenhainichen, Stadt","type":"Stadt"},"district":{"key":"15091","name":"Wittenberg","type":"Landkreis"},"federalState":{"key":"15","name":"Sachsen-Anhalt"}},{"name":"Pöplitzer Weg","postalCode":"06772","locality":"Gräfenhainichen","municipality":{"key":"15091110","name":"Gräfenhainichen, Stadt","type":"Stadt"},"district":{"key":"15091","name":"Wittenberg","type":"Landkreis"},"federalState":{"key":"15","name":"Sachsen-Anhalt"}},{"name":"Puschkinstr.","postalCode":"06772","locality":"Gräfenhainichen","municipality":{"key":"15091110","name":"Gräfenhainichen, Stadt","type":"Stadt"},"district":{"key":"15091","name":"Wittenberg","type":"Landkreis"},"federalState":{"key":"15","name":"Sachsen-Anhalt"}},{"name":"Querstr.","postalCode":"06773","locality":"Gräfenhainichen","municipality":{"key":"15091110","name":"Gräfenhainichen, Stadt","type":"Stadt"},"district":{"key":"15091","name":"Wittenberg","type":"Landkreis"},"federalState":{"key":"15","name":"Sachsen-Anhalt"}},{"name":"Radiser Str.","postalCode":"06773","locality":"Gräfenhainichen","municipality":{"key":"15091110","name":"Gräfenhainichen, Stadt","type":"Stadt"},"district":{"key":"15091","name":"Wittenberg","type":"Landkreis"},"federalState":{"key":"15","name":"Sachsen-Anhalt"}},{"name":"Raguhner Str.","postalCode":"06772","locality":"Gräfenhainichen","municipality":{"key":"15091110","name":"Gräfenhainichen, Stadt","type":"Stadt"},"district":{"key":"15091","name":"Wittenberg","type":"Landkreis"},"federalState":{"key":"15","name":"Sachsen-Anhalt"}},{"name":"Rathausplatz","postalCode":"06772","locality":"Gräfenhainichen","municipality":{"key":"15091110","name":"Gräfenhainichen, Stadt","type":"Stadt"},"district":{"key":"15091","name":"Wittenberg","type":"Landkreis"},"federalState":{"key":"15","name":"Sachsen-Anhalt"}},{"name":"Rathenaustr.","postalCode":"06773","locality":"Gräfenhainichen","municipality":{"key":"15091110","name":"Gräfenhainichen, Stadt","type":"Stadt"},"district":{"key":"15091","name":"Wittenberg","type":"Landkreis"},"federalState":{"key":"15","name":"Sachsen-Anhalt"}},{"name":"Reichsapfelweg","postalCode":"06772","locality":"Gräfenhainichen","municipality":{"key":"15091110","name":"Gräfenhainichen, Stadt","type":"Stadt"},"district":{"key":"15091","name":"Wittenberg","type":"Landkreis"},"federalState":{"key":"15","name":"Sachsen-Anhalt"}},{"name":"Reichsapfelweg","postalCode":"06773","locality":"Gräfenhainichen","municipality":{"key":"15091110","name":"Gräfenhainichen, Stadt","type":"Stadt"},"district":{"key":"15091","name":"Wittenberg","type":"Landkreis"},"federalState":{"key":"15","name":"Sachsen-Anhalt"}},{"name":"Reinharzer Weg","postalCode":"06772","locality":"Gräfenhainichen","municipality":{"key":"15091110","name":"Gräfenhainichen, Stadt","type":"Stadt"},"district":{"key":"15091","name":"Wittenberg","type":"Landkreis"},"federalState":{"key":"15","name":"Sachsen-Anhalt"}},{"name":"Rennstrecke","postalCode":"06773","locality":"Gräfenhainichen","municipality":{"key":"15091110","name":"Gräfenhainichen, Stadt","type":"Stadt"},"district":{"key":"15091","name":"Wittenberg","type":"Landkreis"},"federalState":{"key":"15","name":"Sachsen-Anhalt"}},{"name":"Ringweg","postalCode":"06772","locality":"Gräfenhainichen","municipality":{"key":"15091110","name":"Gräfenhainichen, Stadt","type":"Stadt"},"district":{"key":"15091","name":"Wittenberg","type":"Landkreis"},"federalState":{"key":"15","name":"Sachsen-Anhalt"}},{"name":"Robert-Koch-Str.","postalCode":"06772","locality":"Gräfenhainichen","municipality":{"key":"15091110","name":"Gräfenhainichen, Stadt","type":"Stadt"},"district":{"key":"15091","name":"Wittenberg","type":"Landkreis"},"federalState":{"key":"15","name":"Sachsen-Anhalt"}},{"name":"Robert-Schumann-Str.","postalCode":"06772","locality":"Gräfenhainichen","municipality":{"key":"15091110","name":"Gräfenhainichen, Stadt","type":"Stadt"},"district":{"key":"15091","name":"Wittenberg","type":"Landkreis"},"federalState":{"key":"15","name":"Sachsen-Anhalt"}},{"name":"Robertstr.","postalCode":"06773","locality":"Gräfenhainichen","municipality":{"key":"15091110","name":"Gräfenhainichen, Stadt","type":"Stadt"},"district":{"key":"15091","name":"Wittenberg","type":"Landkreis"},"federalState":{"key":"15","name":"Sachsen-Anhalt"}},{"name":"Rosa-Luxemburg-Str.","postalCode":"06772","locality":"Gräfenhainichen","municipality":{"key":"15091110","name":"Gräfenhainichen, Stadt","type":"Stadt"},"district":{"key":"15091","name":"Wittenberg","type":"Landkreis"},"federalState":{"key":"15","name":"Sachsen-Anhalt"}},{"name":"Rosa-Luxemburg-Str.","postalCode":"06773","locality":"Gräfenhainichen","municipality":{"key":"15091110","name":"Gräfenhainichen, Stadt","type":"Stadt"},"district":{"key":"15091","name":"Wittenberg","type":"Landkreis"},"federalState":{"key":"15","name":"Sachsen-Anhalt"}},{"name":"Rotkehlchenweg","postalCode":"06773","locality":"Gräfenhainichen","municipality":{"key":"15091110","name":"Gräfenhainichen, Stadt","type":"Stadt"},"district":{"key":"15091","name":"Wittenberg","type":"Landkreis"},"federalState":{"key":"15","name":"Sachsen-Anhalt"}},{"name":"Rudolf-Breitscheid-Str.","postalCode":"06772","locality":"Gräfenhainichen","municipality":{"key":"15091110","name":"Gräfenhainichen, Stadt","type":"Stadt"},"district":{"key":"15091","name":"Wittenberg","type":"Landkreis"},"federalState":{"key":"15","name":"Sachsen-Anhalt"}},{"name":"Rudolf-Breitscheid-Str.","postalCode":"06773","locality":"Gräfenhainichen","municipality":{"key":"15091110","name":"Gräfenhainichen, Stadt","type":"Stadt"},"district":{"key":"15091","name":"Wittenberg","type":"Landkreis"},"federalState":{"key":"15","name":"Sachsen-Anhalt"}},{"name":"Schillerstr.","postalCode":"06772","locality":"Gräfenhainichen","municipality":{"key":"15091110","name":"Gräfenhainichen, Stadt","type":"Stadt"},"district":{"key":"15091","name":"Wittenberg","type":"Landkreis"},"federalState":{"key":"15","name":"Sachsen-Anhalt"}},{"name":"Schleesener Str.","postalCode":"06773","locality":"Gräfenhainichen","municipality":{"key":"15091110","name":"Gräfenhainichen, Stadt","type":"Stadt"},"district":{"key":"15091","name":"Wittenberg","type":"Landkreis"},"federalState":{"key":"15","name":"Sachsen-Anhalt"}},{"name":"Schleesener Weg","postalCode":"06773","locality":"Gräfenhainichen","municipality":{"key":"15091110","name":"Gräfenhainichen, Stadt","type":"Stadt"},"district":{"key":"15091","name":"Wittenberg","type":"Landkreis"},"federalState":{"key":"15","name":"Sachsen-Anhalt"}},{"name":"Schloßpark","postalCode":"06773","locality":"Gräfenhainichen","municipality":{"key":"15091110","name":"Gräfenhainichen, Stadt","type":"Stadt"},"district":{"key":"15091","name":"Wittenberg","type":"Landkreis"},"federalState":{"key":"15","name":"Sachsen-Anhalt"}},{"name":"Schloßstr.","postalCode":"06773","locality":"Gräfenhainichen","municipality":{"key":"15091110","name":"Gräfenhainichen, Stadt","type":"Stadt"},"district":{"key":"15091","name":"Wittenberg","type":"Landkreis"},"federalState":{"key":"15","name":"Sachsen-Anhalt"}},{"name":"Schmiedeberger Str.","postalCode":"06772","locality":"Gräfenhainichen","municipality":{"key":"15091110","name":"Gräfenhainichen, Stadt","type":"Stadt"},"district":{"key":"15091","name":"Wittenberg","type":"Landkreis"},"federalState":{"key":"15","name":"Sachsen-Anhalt"}},{"name":"Schmiedeberger Str.","postalCode":"06773","locality":"Gräfenhainichen","municipality":{"key":"15091110","name":"Gräfenhainichen, Stadt","type":"Stadt"},"district":{"key":"15091","name":"Wittenberg","type":"Landkreis"},"federalState":{"key":"15","name":"Sachsen-Anhalt"}},{"name":"Schmiedeberger Weg","postalCode":"06772","locality":"Gräfenhainichen","municipality":{"key":"15091110","name":"Gräfenhainichen, Stadt","type":"Stadt"},"district":{"key":"15091","name":"Wittenberg","type":"Landkreis"},"federalState":{"key":"15","name":"Sachsen-Anhalt"}},{"name":"Schulgartenweg","postalCode":"06772","locality":"Gräfenhainichen","municipality":{"key":"15091110","name":"Gräfenhainichen, Stadt","type":"Stadt"},"district":{"key":"15091","name":"Wittenberg","type":"Landkreis"},"federalState":{"key":"15","name":"Sachsen-Anhalt"}},{"name":"Schulstr.","postalCode":"06772","locality":"Gräfenhainichen","municipality":{"key":"15091110","name":"Gräfenhainichen, Stadt","type":"Stadt"},"district":{"key":"15091","name":"Wittenberg","type":"Landkreis"},"federalState":{"key":"15","name":"Sachsen-Anhalt"}},{"name":"Schulstr.","postalCode":"06773","locality":"Gräfenhainichen","municipality":{"key":"15091110","name":"Gräfenhainichen, Stadt","type":"Stadt"},"district":{"key":"15091","name":"Wittenberg","type":"Landkreis"},"federalState":{"key":"15","name":"Sachsen-Anhalt"}},{"name":"Schwalbenweg","postalCode":"06773","locality":"Gräfenhainichen","municipality":{"key":"15091110","name":"Gräfenhainichen, Stadt","type":"Stadt"},"district":{"key":"15091","name":"Wittenberg","type":"Landkreis"},"federalState":{"key":"15","name":"Sachsen-Anhalt"}},{"name":"Schwemsaler Str.","postalCode":"06772","locality":"Gräfenhainichen","municipality":{"key":"15091110","name":"Gräfenhainichen, Stadt","type":"Stadt"},"district":{"key":"15091","name":"Wittenberg","type":"Landkreis"},"federalState":{"key":"15","name":"Sachsen-Anhalt"}},{"name":"Seeweg","postalCode":"06772","locality":"Gräfenhainichen","municipality":{"key":"15091110","name":"Gräfenhainichen, Stadt","type":"Stadt"},"district":{"key":"15091","name":"Wittenberg","type":"Landkreis"},"federalState":{"key":"15","name":"Sachsen-Anhalt"}},{"name":"Söllichauer Str.","postalCode":"06772","locality":"Gräfenhainichen","municipality":{"key":"15091110","name":"Gräfenhainichen, Stadt","type":"Stadt"},"district":{"key":"15091","name":"Wittenberg","type":"Landkreis"},"federalState":{"key":"15","name":"Sachsen-Anhalt"}},{"name":"Söllichauer Str.","postalCode":"06773","locality":"Gräfenhainichen","municipality":{"key":"15091110","name":"Gräfenhainichen, Stadt","type":"Stadt"},"district":{"key":"15091","name":"Wittenberg","type":"Landkreis"},"federalState":{"key":"15","name":"Sachsen-Anhalt"}},{"name":"Sollnitzer Str.","postalCode":"06772","locality":"Gräfenhainichen","municipality":{"key":"15091110","name":"Gräfenhainichen, Stadt","type":"Stadt"},"district":{"key":"15091","name":"Wittenberg","type":"Landkreis"},"federalState":{"key":"15","name":"Sachsen-Anhalt"}},{"name":"Stelenweg","postalCode":"06772","locality":"Gräfenhainichen","municipality":{"key":"15091110","name":"Gräfenhainichen, Stadt","type":"Stadt"},"district":{"key":"15091","name":"Wittenberg","type":"Landkreis"},"federalState":{"key":"15","name":"Sachsen-Anhalt"}},{"name":"Sternlinie","postalCode":"06773","locality":"Gräfenhainichen","municipality":{"key":"15091110","name":"Gräfenhainichen, Stadt","type":"Stadt"},"district":{"key":"15091","name":"Wittenberg","type":"Landkreis"},"federalState":{"key":"15","name":"Sachsen-Anhalt"}},{"name":"Str. der DSF","postalCode":"06772","locality":"Gräfenhainichen","municipality":{"key":"15091110","name":"Gräfenhainichen, Stadt","type":"Stadt"},"district":{"key":"15091","name":"Wittenberg","type":"Landkreis"},"federalState":{"key":"15","name":"Sachsen-Anhalt"}},{"name":"Str. der Jugend","postalCode":"06773","locality":"Gräfenhainichen","municipality":{"key":"15091110","name":"Gräfenhainichen, Stadt","type":"Stadt"},"district":{"key":"15091","name":"Wittenberg","type":"Landkreis"},"federalState":{"key":"15","name":"Sachsen-Anhalt"}},{"name":"Str. des Friedens","postalCode":"06772","locality":"Gräfenhainichen","municipality":{"key":"15091110","name":"Gräfenhainichen, Stadt","type":"Stadt"},"district":{"key":"15091","name":"Wittenberg","type":"Landkreis"},"federalState":{"key":"15","name":"Sachsen-Anhalt"}},{"name":"Str. des Friedens","postalCode":"06773","locality":"Gräfenhainichen","municipality":{"key":"15091110","name":"Gräfenhainichen, Stadt","type":"Stadt"},"district":{"key":"15091","name":"Wittenberg","type":"Landkreis"},"federalState":{"key":"15","name":"Sachsen-Anhalt"}},{"name":"Strohwalder Str.","postalCode":"06773","locality":"Gräfenhainichen","municipality":{"key":"15091110","name":"Gräfenhainichen, Stadt","type":"Stadt"},"district":{"key":"15091","name":"Wittenberg","type":"Landkreis"},"federalState":{"key":"15","name":"Sachsen-Anhalt"}},{"name":"Südstr.","postalCode":"06773","locality":"Gräfenhainichen","municipality":{"key":"15091110","name":"Gräfenhainichen, Stadt","type":"Stadt"},"district":{"key":"15091","name":"Wittenberg","type":"Landkreis"},"federalState":{"key":"15","name":"Sachsen-Anhalt"}},{"name":"Tabaksweg","postalCode":"06773","locality":"Gräfenhainichen","municipality":{"key":"15091110","name":"Gräfenhainichen, Stadt","type":"Stadt"},"district":{"key":"15091","name":"Wittenberg","type":"Landkreis"},"federalState":{"key":"15","name":"Sachsen-Anhalt"}},{"name":"Taubenweg","postalCode":"06773","locality":"Gräfenhainichen","municipality":{"key":"15091110","name":"Gräfenhainichen, Stadt","type":"Stadt"},"district":{"key":"15091","name":"Wittenberg","type":"Landkreis"},"federalState":{"key":"15","name":"Sachsen-Anhalt"}},{"name":"Teichstr.","postalCode":"06773","locality":"Gräfenhainichen","municipality":{"key":"15091110","name":"Gräfenhainichen, Stadt","type":"Stadt"},"district":{"key":"15091","name":"Wittenberg","type":"Landkreis"},"federalState":{"key":"15","name":"Sachsen-Anhalt"}},{"name":"Teichwiesenweg","postalCode":"06772","locality":"Gräfenhainichen","municipality":{"key":"15091110","name":"Gräfenhainichen, Stadt","type":"Stadt"},"district":{"key":"15091","name":"Wittenberg","type":"Landkreis"},"federalState":{"key":"15","name":"Sachsen-Anhalt"}},{"name":"Theodor-Kömer-Str.","postalCode":"06772","locality":"Gräfenhainichen","municipality":{"key":"15091110","name":"Gräfenhainichen, Stadt","type":"Stadt"},"district":{"key":"15091","name":"Wittenberg","type":"Landkreis"},"federalState":{"key":"15","name":"Sachsen-Anhalt"}},{"name":"Tornauer Hauptstr.","postalCode":"06772","locality":"Gräfenhainichen","municipality":{"key":"15091110","name":"Gräfenhainichen, Stadt","type":"Stadt"},"district":{"key":"15091","name":"Wittenberg","type":"Landkreis"},"federalState":{"key":"15","name":"Sachsen-Anhalt"}},{"name":"Triftweg","postalCode":"06773","locality":"Gräfenhainichen","municipality":{"key":"15091110","name":"Gräfenhainichen, Stadt","type":"Stadt"},"district":{"key":"15091","name":"Wittenberg","type":"Landkreis"},"federalState":{"key":"15","name":"Sachsen-Anhalt"}},{"name":"Uferpromenade","postalCode":"06772","locality":"Gräfenhainichen","municipality":{"key":"15091110","name":"Gräfenhainichen, Stadt","type":"Stadt"},"district":{"key":"15091","name":"Wittenberg","type":"Landkreis"},"federalState":{"key":"15","name":"Sachsen-Anhalt"}},{"name":"Unterer Flurweg","postalCode":"06772","locality":"Gräfenhainichen","municipality":{"key":"15091110","name":"Gräfenhainichen, Stadt","type":"Stadt"},"district":{"key":"15091","name":"Wittenberg","type":"Landkreis"},"federalState":{"key":"15","name":"Sachsen-Anhalt"}},{"name":"Uthmannstr.","postalCode":"06772","locality":"Gräfenhainichen","municipality":{"key":"15091110","name":"Gräfenhainichen, Stadt","type":"Stadt"},"district":{"key":"15091","name":"Wittenberg","type":"Landkreis"},"federalState":{"key":"15","name":"Sachsen-Anhalt"}},{"name":"Veilchenweg","postalCode":"19322","locality":"Wittenberge","municipality":{"key":"12070424","name":"Wittenberge, Stadt","type":"Stadt"},"district":{"key":"12070","name":"Prignitz","type":"Landkreis"},"federalState":{"key":"12","name":"Brandenburg"}},{"name":"Veritas-Sportpark","postalCode":"19322","locality":"Wittenberge","municipality":{"key":"12070424","name":"Wittenberge, Stadt","type":"Stadt"},"district":{"key":"12070","name":"Prignitz","type":"Landkreis"},"federalState":{"key":"12","name":"Brandenburg"}},{"name":"Virchowstr.","postalCode":"06886","locality":"Wittenberg","municipality":{"key":"15091375","name":"Wittenberg, Lutherstadt","type":"Stadt"},"district":{"key":"15091","name":"Wittenberg","type":"Landkreis"},"federalState":{"key":"15","name":"Sachsen-Anhalt"}},{"name":"Waldesruh","postalCode":"06772","locality":"Gräfenhainichen","municipality":{"key":"15091110","name":"Gräfenhainichen, Stadt","type":"Stadt"},"district":{"key":"15091","name":"Wittenberg","type":"Landkreis"},"federalState":{"key":"15","name":"Sachsen-Anhalt"}},{"name":"Waldweg","postalCode":"06772","locality":"Gräfenhainichen","municipality":{"key":"15091110","name":"Gräfenhainichen, Stadt","type":"Stadt"},"district":{"key":"15091","name":"Wittenberg","type":"Landkreis"},"federalState":{"key":"15","name":"Sachsen-Anhalt"}},{"name":"Waldweg","postalCode":"06773","locality":"Gräfenhainichen","municipality":{"key":"15091110","name":"Gräfenhainichen, Stadt","type":"Stadt"},"district":{"key":"15091","name":"Wittenberg","type":"Landkreis"},"federalState":{"key":"15","name":"Sachsen-Anhalt"}},{"name":"Walther-Rathenau-Platz","postalCode":"06772","locality":"Gräfenhainichen","municipality":{"key":"15091110","name":"Gräfenhainichen, Stadt","type":"Stadt"},"district":{"key":"15091","name":"Wittenberg","type":"Landkreis"},"federalState":{"key":"15","name":"Sachsen-Anhalt"}},{"name":"Werkstatthaus","postalCode":"06772","locality":"Gräfenhainichen","municipality":{"key":"15091110","name":"Gräfenhainichen, Stadt","type":"Stadt"},"district":{"key":"15091","name":"Wittenberg","type":"Landkreis"},"federalState":{"key":"15","name":"Sachsen-Anhalt"}},{"name":"Weststr.","postalCode":"06773","locality":"Gräfenhainichen","municipality":{"key":"15091110","name":"Gräfenhainichen, Stadt","type":"Stadt"},"district":{"key":"15091","name":"Wittenberg","type":"Landkreis"},"federalState":{"key":"15","name":"Sachsen-Anhalt"}},{"name":"Wiesenweg","postalCode":"06772","locality":"Gräfenhainichen","municipality":{"key":"15091110","name":"Gräfenhainichen, Stadt","type":"Stadt"},"district":{"key":"15091","name":"Wittenberg","type":"Landkreis"},"federalState":{"key":"15","name":"Sachsen-Anhalt"}},{"name":"Wilhelm-Külz-Str.","postalCode":"06772","locality":"Gräfenhainichen","municipality":{"key":"15091110","name":"Gräfenhainichen, Stadt","type":"Stadt"},"district":{"key":"15091","name":"Wittenberg","type":"Landkreis"},"federalState":{"key":"15","name":"Sachsen-Anhalt"}},{"name":"Wilhelm-Pieck-Platz","postalCode":"06772","locality":"Gräfenhainichen","municipality":{"key":"15091110","name":"Gräfenhainichen, Stadt","type":"Stadt"},"district":{"key":"15091","name":"Wittenberg","type":"Landkreis"},"federalState":{"key":"15","name":"Sachsen-Anhalt"}},{"name":"Wilhelm-Pieck-Str.","postalCode":"06773","locality":"Gräfenhainichen","municipality":{"key":"15091110","name":"Gräfenhainichen, Stadt","type":"Stadt"},"district":{"key":"15091","name":"Wittenberg","type":"Landkreis"},"federalState":{"key":"15","name":"Sachsen-Anhalt"}},{"name":"Windmühlenstr.","postalCode":"06773","locality":"Gräfenhainichen","municipality":{"key":"15091110","name":"Gräfenhainichen, Stadt","type":"Stadt"},"district":{"key":"15091","name":"Wittenberg","type":"Landkreis"},"federalState":{"key":"15","name":"Sachsen-Anhalt"}},{"name":"Wittenberger Str.","postalCode":"06772","locality":"Gräfenhainichen","municipality":{"key":"15091110","name":"Gräfenhainichen, Stadt","type":"Stadt"},"district":{"key":"15091","name":"Wittenberg","type":"Landkreis"},"federalState":{"key":"15","name":"Sachsen-Anhalt"}},{"name":"Wittenberger Str.","postalCode":"06773","locality":"Gräfenhainichen","municipality":{"key":"15091110","name":"Gräfenhainichen, Stadt","type":"Stadt"},"district":{"key":"15091","name":"Wittenberg","type":"Landkreis"},"federalState":{"key":"15","name":"Sachsen-Anhalt"}},{"name":"Wurzelweg","postalCode":"06772","locality":"Gräfenhainichen","municipality":{"key":"15091110","name":"Gräfenhainichen, Stadt","type":"Stadt"},"district":{"key":"15091","name":"Wittenberg","type":"Landkreis"},"federalState":{"key":"15","name":"Sachsen-Anhalt"}},{"name":"Zilleweg","postalCode":"06772","locality":"Gräfenhainichen","municipality":{"key":"15091110","name":"Gräfenhainichen, Stadt","type":"Stadt"},"district":{"key":"15091","name":"Wittenberg","type":"Landkreis"},"federalState":{"key":"15","name":"Sachsen-Anhalt"}},]