[{"name":"Adolfstr.","postalCode":"15370","locality":"Petershagen/Eggersdorf","municipality":{"key":"12064380","name":"Petershagen/Eggersdorf","type":"Kreisangehörige_Gemeinde"},"district":{"key":"12064","name":"Märkisch-Oderland","type":"Landkreis"},"federalState":{"key":"12","name":"Brandenburg"}},{"name":"Ahornallee","postalCode":"15345","locality":"Petershagen/Eggersdorf","municipality":{"key":"12064380","name":"Petershagen/Eggersdorf","type":"Kreisangehörige_Gemeinde"},"district":{"key":"12064","name":"Märkisch-Oderland","type":"Landkreis"},"federalState":{"key":"12","name":"Brandenburg"}},{"name":"Ahornallee","postalCode":"15370","locality":"Petershagen/Eggersdorf","municipality":{"key":"12064380","name":"Petershagen/Eggersdorf","type":"Kreisangehörige_Gemeinde"},"district":{"key":"12064","name":"Märkisch-Oderland","type":"Landkreis"},"federalState":{"key":"12","name":"Brandenburg"}},{"name":"Akazienstr.","postalCode":"15345","locality":"Petershagen/Eggersdorf","municipality":{"key":"12064380","name":"Petershagen/Eggersdorf","type":"Kreisangehörige_Gemeinde"},"district":{"key":"12064","name":"Märkisch-Oderland","type":"Landkreis"},"federalState":{"key":"12","name":"Brandenburg"}},{"name":"Albertstr.","postalCode":"15370","locality":"Petershagen/Eggersdorf","municipality":{"key":"12064380","name":"Petershagen/Eggersdorf","type":"Kreisangehörige_Gemeinde"},"district":{"key":"12064","name":"Märkisch-Oderland","type":"Landkreis"},"federalState":{"key":"12","name":"Brandenburg"}},{"name":"Alexander-Giertz-Str.","postalCode":"15370","locality":"Petershagen/Eggersdorf","municipality":{"key":"12064380","name":"Petershagen/Eggersdorf","type":"Kreisangehörige_Gemeinde"},"district":{"key":"12064","name":"Märkisch-Oderland","type":"Landkreis"},"federalState":{"key":"12","name":"Brandenburg"}},{"name":"Altlandsberger Chaussee","postalCode":"15345","locality":"Petershagen/Eggersdorf","municipality":{"key":"12064380","name":"Petershagen/Eggersdorf","type":"Kreisangehörige_Gemeinde"},"district":{"key":"12064","name":"Märkisch-Oderland","type":"Landkreis"},"federalState":{"key":"12","name":"Brandenburg"}},{"name":"Am Fuchsbau","postalCode":"15345","locality":"Petershagen/Eggersdorf","municipality":{"key":"12064380","name":"Petershagen/Eggersdorf","type":"Kreisangehörige_Gemeinde"},"district":{"key":"12064","name":"Märkisch-Oderland","type":"Landkreis"},"federalState":{"key":"12","name":"Brandenburg"}},{"name":"Am Markt","postalCode":"15345","locality":"Petershagen/Eggersdorf","municipality":{"key":"12064380","name":"Petershagen/Eggersdorf","type":"Kreisangehörige_Gemeinde"},"district":{"key":"12064","name":"Märkisch-Oderland","type":"Landkreis"},"federalState":{"key":"12","name":"Brandenburg"}},{"name":"Am Pfuhl","postalCode":"15345","locality":"Petershagen/Eggersdorf","municipality":{"key":"12064380","name":"Petershagen/Eggersdorf","type":"Kreisangehörige_Gemeinde"},"district":{"key":"12064","name":"Märkisch-Oderland","type":"Landkreis"},"federalState":{"key":"12","name":"Brandenburg"}},{"name":"Am Schäferberg","postalCode":"15370","locality":"Petershagen/Eggersdorf","municipality":{"key":"12064380","name":"Petershagen/Eggersdorf","type":"Kreisangehörige_Gemeinde"},"district":{"key":"12064","name":"Märkisch-Oderland","type":"Landkreis"},"federalState":{"key":"12","name":"Brandenburg"}},{"name":"An der Forst","postalCode":"15370","locality":"Petershagen/Eggersdorf","municipality":{"key":"12064380","name":"Petershagen/Eggersdorf","type":"Kreisangehörige_Gemeinde"},"district":{"key":"12064","name":"Märkisch-Oderland","type":"Landkreis"},"federalState":{"key":"12","name":"Brandenburg"}},{"name":"Andreas-Hofer-Str.","postalCode":"15370","locality":"Petershagen/Eggersdorf","municipality":{"key":"12064380","name":"Petershagen/Eggersdorf","type":"Kreisangehörige_Gemeinde"},"district":{"key":"12064","name":"Märkisch-Oderland","type":"Landkreis"},"federalState":{"key":"12","name":"Brandenburg"}},{"name":"Annenstr.","postalCode":"15370","locality":"Petershagen/Eggersdorf","municipality":{"key":"12064380","name":"Petershagen/Eggersdorf","type":"Kreisangehörige_Gemeinde"},"district":{"key":"12064","name":"Märkisch-Oderland","type":"Landkreis"},"federalState":{"key":"12","name":"Brandenburg"}},{"name":"Auguststr.","postalCode":"15370","locality":"Petershagen/Eggersdorf","municipality":{"key":"12064380","name":"Petershagen/Eggersdorf","type":"Kreisangehörige_Gemeinde"},"district":{"key":"12064","name":"Märkisch-Oderland","type":"Landkreis"},"federalState":{"key":"12","name":"Brandenburg"}},{"name":"Bachstr.","postalCode":"15370","locality":"Petershagen/Eggersdorf","municipality":{"key":"12064380","name":"Petershagen/Eggersdorf","type":"Kreisangehörige_Gemeinde"},"district":{"key":"12064","name":"Märkisch-Oderland","type":"Landkreis"},"federalState":{"key":"12","name":"Brandenburg"}},{"name":"Badstr.","postalCode":"15370","locality":"Petershagen/Eggersdorf","municipality":{"key":"12064380","name":"Petershagen/Eggersdorf","type":"Kreisangehörige_Gemeinde"},"district":{"key":"12064","name":"Märkisch-Oderland","type":"Landkreis"},"federalState":{"key":"12","name":"Brandenburg"}},{"name":"Bahnhofstr.","postalCode":"15345","locality":"Petershagen/Eggersdorf","municipality":{"key":"12064380","name":"Petershagen/Eggersdorf","type":"Kreisangehörige_Gemeinde"},"district":{"key":"12064","name":"Märkisch-Oderland","type":"Landkreis"},"federalState":{"key":"12","name":"Brandenburg"}},{"name":"Bahnhofstr.","postalCode":"15370","locality":"Petershagen/Eggersdorf","municipality":{"key":"12064380","name":"Petershagen/Eggersdorf","type":"Kreisangehörige_Gemeinde"},"district":{"key":"12064","name":"Märkisch-Oderland","type":"Landkreis"},"federalState":{"key":"12","name":"Brandenburg"}},{"name":"Barnimstr.","postalCode":"15345","locality":"Petershagen/Eggersdorf","municipality":{"key":"12064380","name":"Petershagen/Eggersdorf","type":"Kreisangehörige_Gemeinde"},"district":{"key":"12064","name":"Märkisch-Oderland","type":"Landkreis"},"federalState":{"key":"12","name":"Brandenburg"}},{"name":"Beethovenstr.","postalCode":"15370","locality":"Petershagen/Eggersdorf","municipality":{"key":"12064380","name":"Petershagen/Eggersdorf","type":"Kreisangehörige_Gemeinde"},"district":{"key":"12064","name":"Märkisch-Oderland","type":"Landkreis"},"federalState":{"key":"12","name":"Brandenburg"}},{"name":"Bellevuestr.","postalCode":"15370","locality":"Petershagen/Eggersdorf","municipality":{"key":"12064380","name":"Petershagen/Eggersdorf","type":"Kreisangehörige_Gemeinde"},"district":{"key":"12064","name":"Märkisch-Oderland","type":"Landkreis"},"federalState":{"key":"12","name":"Brandenburg"}},{"name":"Bermannstr.","postalCode":"15345","locality":"Petershagen/Eggersdorf","municipality":{"key":"12064380","name":"Petershagen/Eggersdorf","type":"Kreisangehörige_Gemeinde"},"district":{"key":"12064","name":"Märkisch-Oderland","type":"Landkreis"},"federalState":{"key":"12","name":"Brandenburg"}},{"name":"Birkenallee","postalCode":"15370","locality":"Petershagen/Eggersdorf","municipality":{"key":"12064380","name":"Petershagen/Eggersdorf","type":"Kreisangehörige_Gemeinde"},"district":{"key":"12064","name":"Märkisch-Oderland","type":"Landkreis"},"federalState":{"key":"12","name":"Brandenburg"}},{"name":"Birkenstr.","postalCode":"15345","locality":"Petershagen/Eggersdorf","municipality":{"key":"12064380","name":"Petershagen/Eggersdorf","type":"Kreisangehörige_Gemeinde"},"district":{"key":"12064","name":"Märkisch-Oderland","type":"Landkreis"},"federalState":{"key":"12","name":"Brandenburg"}},{"name":"Bötzseestr.","postalCode":"15345","locality":"Petershagen/Eggersdorf","municipality":{"key":"12064380","name":"Petershagen/Eggersdorf","type":"Kreisangehörige_Gemeinde"},"district":{"key":"12064","name":"Märkisch-Oderland","type":"Landkreis"},"federalState":{"key":"12","name":"Brandenburg"}},{"name":"Bruchmühler Str.","postalCode":"15370","locality":"Petershagen/Eggersdorf","municipality":{"key":"12064380","name":"Petershagen/Eggersdorf","type":"Kreisangehörige_Gemeinde"},"district":{"key":"12064","name":"Märkisch-Oderland","type":"Landkreis"},"federalState":{"key":"12","name":"Brandenburg"}},{"name":"Brunnerstr.","postalCode":"15370","locality":"Petershagen/Eggersdorf","municipality":{"key":"12064380","name":"Petershagen/Eggersdorf","type":"Kreisangehörige_Gemeinde"},"district":{"key":"12064","name":"Märkisch-Oderland","type":"Landkreis"},"federalState":{"key":"12","name":"Brandenburg"}},{"name":"Catholystr.","postalCode":"15345","locality":"Petershagen/Eggersdorf","municipality":{"key":"12064380","name":"Petershagen/Eggersdorf","type":"Kreisangehörige_Gemeinde"},"district":{"key":"12064","name":"Märkisch-Oderland","type":"Landkreis"},"federalState":{"key":"12","name":"Brandenburg"}},{"name":"Charlottenstr.","postalCode":"15370","locality":"Petershagen/Eggersdorf","municipality":{"key":"12064380","name":"Petershagen/Eggersdorf","type":"Kreisangehörige_Gemeinde"},"district":{"key":"12064","name":"Märkisch-Oderland","type":"Landkreis"},"federalState":{"key":"12","name":"Brandenburg"}},{"name":"Clara-Zetkin-Str.","postalCode":"15370","locality":"Petershagen/Eggersdorf","municipality":{"key":"12064380","name":"Petershagen/Eggersdorf","type":"Kreisangehörige_Gemeinde"},"district":{"key":"12064","name":"Märkisch-Oderland","type":"Landkreis"},"federalState":{"key":"12","name":"Brandenburg"}},{"name":"Donaustr.","postalCode":"15370","locality":"Petershagen/Eggersdorf","municipality":{"key":"12064380","name":"Petershagen/Eggersdorf","type":"Kreisangehörige_Gemeinde"},"district":{"key":"12064","name":"Märkisch-Oderland","type":"Landkreis"},"federalState":{"key":"12","name":"Brandenburg"}},{"name":"Dorfplatz","postalCode":"15370","locality":"Petershagen/Eggersdorf","municipality":{"key":"12064380","name":"Petershagen/Eggersdorf","type":"Kreisangehörige_Gemeinde"},"district":{"key":"12064","name":"Märkisch-Oderland","type":"Landkreis"},"federalState":{"key":"12","name":"Brandenburg"}},{"name":"Dorfstr.","postalCode":"15370","locality":"Petershagen/Eggersdorf","municipality":{"key":"12064380","name":"Petershagen/Eggersdorf","type":"Kreisangehörige_Gemeinde"},"district":{"key":"12064","name":"Märkisch-Oderland","type":"Landkreis"},"federalState":{"key":"12","name":"Brandenburg"}},{"name":"Dorotheenstr.","postalCode":"15370","locality":"Petershagen/Eggersdorf","municipality":{"key":"12064380","name":"Petershagen/Eggersdorf","type":"Kreisangehörige_Gemeinde"},"district":{"key":"12064","name":"Märkisch-Oderland","type":"Landkreis"},"federalState":{"key":"12","name":"Brandenburg"}},{"name":"Dr.-Manasse-Str.","postalCode":"15370","locality":"Petershagen/Eggersdorf","municipality":{"key":"12064380","name":"Petershagen/Eggersdorf","type":"Kreisangehörige_Gemeinde"},"district":{"key":"12064","name":"Märkisch-Oderland","type":"Landkreis"},"federalState":{"key":"12","name":"Brandenburg"}},{"name":"Ebereschenstr.","postalCode":"15370","locality":"Petershagen/Eggersdorf","municipality":{"key":"12064380","name":"Petershagen/Eggersdorf","type":"Kreisangehörige_Gemeinde"},"district":{"key":"12064","name":"Märkisch-Oderland","type":"Landkreis"},"federalState":{"key":"12","name":"Brandenburg"}},{"name":"Edvard-Grieg-Weg","postalCode":"15345","locality":"Petershagen/Eggersdorf","municipality":{"key":"12064380","name":"Petershagen/Eggersdorf","type":"Kreisangehörige_Gemeinde"},"district":{"key":"12064","name":"Märkisch-Oderland","type":"Landkreis"},"federalState":{"key":"12","name":"Brandenburg"}},{"name":"Eggersdorfer Chaussee","postalCode":"15370","locality":"Petershagen/Eggersdorf","municipality":{"key":"12064380","name":"Petershagen/Eggersdorf","type":"Kreisangehörige_Gemeinde"},"district":{"key":"12064","name":"Märkisch-Oderland","type":"Landkreis"},"federalState":{"key":"12","name":"Brandenburg"}},{"name":"Eggersdorfer Str.","postalCode":"15370","locality":"Petershagen/Eggersdorf","municipality":{"key":"12064380","name":"Petershagen/Eggersdorf","type":"Kreisangehörige_Gemeinde"},"district":{"key":"12064","name":"Märkisch-Oderland","type":"Landkreis"},"federalState":{"key":"12","name":"Brandenburg"}},{"name":"Eggersdorfer Weg","postalCode":"15345","locality":"Petershagen/Eggersdorf","municipality":{"key":"12064380","name":"Petershagen/Eggersdorf","type":"Kreisangehörige_Gemeinde"},"district":{"key":"12064","name":"Märkisch-Oderland","type":"Landkreis"},"federalState":{"key":"12","name":"Brandenburg"}},{"name":"Eichenallee","postalCode":"15345","locality":"Petershagen/Eggersdorf","municipality":{"key":"12064380","name":"Petershagen/Eggersdorf","type":"Kreisangehörige_Gemeinde"},"district":{"key":"12064","name":"Märkisch-Oderland","type":"Landkreis"},"federalState":{"key":"12","name":"Brandenburg"}},{"name":"Elbestr.","postalCode":"15370","locality":"Petershagen/Eggersdorf","municipality":{"key":"12064380","name":"Petershagen/Eggersdorf","type":"Kreisangehörige_Gemeinde"},"district":{"key":"12064","name":"Märkisch-Oderland","type":"Landkreis"},"federalState":{"key":"12","name":"Brandenburg"}},{"name":"Ernst-Thälmann-Str.","postalCode":"15345","locality":"Petershagen/Eggersdorf","municipality":{"key":"12064380","name":"Petershagen/Eggersdorf","type":"Kreisangehörige_Gemeinde"},"district":{"key":"12064","name":"Märkisch-Oderland","type":"Landkreis"},"federalState":{"key":"12","name":"Brandenburg"}},{"name":"Eschenallee","postalCode":"15345","locality":"Petershagen/Eggersdorf","municipality":{"key":"12064380","name":"Petershagen/Eggersdorf","type":"Kreisangehörige_Gemeinde"},"district":{"key":"12064","name":"Märkisch-Oderland","type":"Landkreis"},"federalState":{"key":"12","name":"Brandenburg"}},{"name":"Fasanenstr.","postalCode":"15370","locality":"Petershagen/Eggersdorf","municipality":{"key":"12064380","name":"Petershagen/Eggersdorf","type":"Kreisangehörige_Gemeinde"},"district":{"key":"12064","name":"Märkisch-Oderland","type":"Landkreis"},"federalState":{"key":"12","name":"Brandenburg"}},{"name":"Feldstr.","postalCode":"15345","locality":"Petershagen/Eggersdorf","municipality":{"key":"12064380","name":"Petershagen/Eggersdorf","type":"Kreisangehörige_Gemeinde"},"district":{"key":"12064","name":"Märkisch-Oderland","type":"Landkreis"},"federalState":{"key":"12","name":"Brandenburg"}},{"name":"Ferdinand-Dam-Str.","postalCode":"15345","locality":"Petershagen/Eggersdorf","municipality":{"key":"12064380","name":"Petershagen/Eggersdorf","type":"Kreisangehörige_Gemeinde"},"district":{"key":"12064","name":"Märkisch-Oderland","type":"Landkreis"},"federalState":{"key":"12","name":"Brandenburg"}},{"name":"Fichtenstr.","postalCode":"15345","locality":"Petershagen/Eggersdorf","municipality":{"key":"12064380","name":"Petershagen/Eggersdorf","type":"Kreisangehörige_Gemeinde"},"district":{"key":"12064","name":"Märkisch-Oderland","type":"Landkreis"},"federalState":{"key":"12","name":"Brandenburg"}},{"name":"Fichtestr.","postalCode":"15370","locality":"Petershagen/Eggersdorf","municipality":{"key":"12064380","name":"Petershagen/Eggersdorf","type":"Kreisangehörige_Gemeinde"},"district":{"key":"12064","name":"Märkisch-Oderland","type":"Landkreis"},"federalState":{"key":"12","name":"Brandenburg"}},{"name":"Fließstr.","postalCode":"15345","locality":"Petershagen/Eggersdorf","municipality":{"key":"12064380","name":"Petershagen/Eggersdorf","type":"Kreisangehörige_Gemeinde"},"district":{"key":"12064","name":"Märkisch-Oderland","type":"Landkreis"},"federalState":{"key":"12","name":"Brandenburg"}},{"name":"Florastr.","postalCode":"15370","locality":"Petershagen/Eggersdorf","municipality":{"key":"12064380","name":"Petershagen/Eggersdorf","type":"Kreisangehörige_Gemeinde"},"district":{"key":"12064","name":"Märkisch-Oderland","type":"Landkreis"},"federalState":{"key":"12","name":"Brandenburg"}},{"name":"Fontaneweg","postalCode":"15345","locality":"Petershagen/Eggersdorf","municipality":{"key":"12064380","name":"Petershagen/Eggersdorf","type":"Kreisangehörige_Gemeinde"},"district":{"key":"12064","name":"Märkisch-Oderland","type":"Landkreis"},"federalState":{"key":"12","name":"Brandenburg"}},{"name":"Franz-Lahde-Str.","postalCode":"15370","locality":"Petershagen/Eggersdorf","municipality":{"key":"12064380","name":"Petershagen/Eggersdorf","type":"Kreisangehörige_Gemeinde"},"district":{"key":"12064","name":"Märkisch-Oderland","type":"Landkreis"},"federalState":{"key":"12","name":"Brandenburg"}},{"name":"Fredersdorfer Str.","postalCode":"15370","locality":"Petershagen/Eggersdorf","municipality":{"key":"12064380","name":"Petershagen/Eggersdorf","type":"Kreisangehörige_Gemeinde"},"district":{"key":"12064","name":"Märkisch-Oderland","type":"Landkreis"},"federalState":{"key":"12","name":"Brandenburg"}},{"name":"Friedhofstr.","postalCode":"15370","locality":"Petershagen/Eggersdorf","municipality":{"key":"12064380","name":"Petershagen/Eggersdorf","type":"Kreisangehörige_Gemeinde"},"district":{"key":"12064","name":"Märkisch-Oderland","type":"Landkreis"},"federalState":{"key":"12","name":"Brandenburg"}},{"name":"Friedrichstr.","postalCode":"15345","locality":"Petershagen/Eggersdorf","municipality":{"key":"12064380","name":"Petershagen/Eggersdorf","type":"Kreisangehörige_Gemeinde"},"district":{"key":"12064","name":"Märkisch-Oderland","type":"Landkreis"},"federalState":{"key":"12","name":"Brandenburg"}},{"name":"Gartenstr.","postalCode":"15345","locality":"Petershagen/Eggersdorf","municipality":{"key":"12064380","name":"Petershagen/Eggersdorf","type":"Kreisangehörige_Gemeinde"},"district":{"key":"12064","name":"Märkisch-Oderland","type":"Landkreis"},"federalState":{"key":"12","name":"Brandenburg"}},{"name":"Gartenstr.","postalCode":"15370","locality":"Petershagen/Eggersdorf","municipality":{"key":"12064380","name":"Petershagen/Eggersdorf","type":"Kreisangehörige_Gemeinde"},"district":{"key":"12064","name":"Märkisch-Oderland","type":"Landkreis"},"federalState":{"key":"12","name":"Brandenburg"}},{"name":"Garzauer Str.","postalCode":"15345","locality":"Petershagen/Eggersdorf","municipality":{"key":"12064380","name":"Petershagen/Eggersdorf","type":"Kreisangehörige_Gemeinde"},"district":{"key":"12064","name":"Märkisch-Oderland","type":"Landkreis"},"federalState":{"key":"12","name":"Brandenburg"}},{"name":"Georgstr.","postalCode":"15345","locality":"Petershagen/Eggersdorf","municipality":{"key":"12064380","name":"Petershagen/Eggersdorf","type":"Kreisangehörige_Gemeinde"},"district":{"key":"12064","name":"Märkisch-Oderland","type":"Landkreis"},"federalState":{"key":"12","name":"Brandenburg"}},{"name":"Gerdastr.","postalCode":"15370","locality":"Petershagen/Eggersdorf","municipality":{"key":"12064380","name":"Petershagen/Eggersdorf","type":"Kreisangehörige_Gemeinde"},"district":{"key":"12064","name":"Märkisch-Oderland","type":"Landkreis"},"federalState":{"key":"12","name":"Brandenburg"}},{"name":"Goethestr.","postalCode":"15345","locality":"Petershagen/Eggersdorf","municipality":{"key":"12064380","name":"Petershagen/Eggersdorf","type":"Kreisangehörige_Gemeinde"},"district":{"key":"12064","name":"Märkisch-Oderland","type":"Landkreis"},"federalState":{"key":"12","name":"Brandenburg"}},{"name":"Goethestr.","postalCode":"15370","locality":"Petershagen/Eggersdorf","municipality":{"key":"12064380","name":"Petershagen/Eggersdorf","type":"Kreisangehörige_Gemeinde"},"district":{"key":"12064","name":"Märkisch-Oderland","type":"Landkreis"},"federalState":{"key":"12","name":"Brandenburg"}},{"name":"Gravenhainstr.","postalCode":"15370","locality":"Petershagen/Eggersdorf","municipality":{"key":"12064380","name":"Petershagen/Eggersdorf","type":"Kreisangehörige_Gemeinde"},"district":{"key":"12064","name":"Märkisch-Oderland","type":"Landkreis"},"federalState":{"key":"12","name":"Brandenburg"}},{"name":"Grazer Str.","postalCode":"15345","locality":"Petershagen/Eggersdorf","municipality":{"key":"12064380","name":"Petershagen/Eggersdorf","type":"Kreisangehörige_Gemeinde"},"district":{"key":"12064","name":"Märkisch-Oderland","type":"Landkreis"},"federalState":{"key":"12","name":"Brandenburg"}},{"name":"Grenzstr.","postalCode":"15345","locality":"Petershagen/Eggersdorf","municipality":{"key":"12064380","name":"Petershagen/Eggersdorf","type":"Kreisangehörige_Gemeinde"},"district":{"key":"12064","name":"Märkisch-Oderland","type":"Landkreis"},"federalState":{"key":"12","name":"Brandenburg"}},{"name":"Grenzstr.","postalCode":"15370","locality":"Petershagen/Eggersdorf","municipality":{"key":"12064380","name":"Petershagen/Eggersdorf","type":"Kreisangehörige_Gemeinde"},"district":{"key":"12064","name":"Märkisch-Oderland","type":"Landkreis"},"federalState":{"key":"12","name":"Brandenburg"}},{"name":"Güntherallee","postalCode":"15345","locality":"Petershagen/Eggersdorf","municipality":{"key":"12064380","name":"Petershagen/Eggersdorf","type":"Kreisangehörige_Gemeinde"},"district":{"key":"12064","name":"Märkisch-Oderland","type":"Landkreis"},"federalState":{"key":"12","name":"Brandenburg"}},{"name":"Gürtelstr.","postalCode":"15370","locality":"Petershagen/Eggersdorf","municipality":{"key":"12064380","name":"Petershagen/Eggersdorf","type":"Kreisangehörige_Gemeinde"},"district":{"key":"12064","name":"Märkisch-Oderland","type":"Landkreis"},"federalState":{"key":"12","name":"Brandenburg"}},{"name":"Gutenbergstr.","postalCode":"15370","locality":"Petershagen/Eggersdorf","municipality":{"key":"12064380","name":"Petershagen/Eggersdorf","type":"Kreisangehörige_Gemeinde"},"district":{"key":"12064","name":"Märkisch-Oderland","type":"Landkreis"},"federalState":{"key":"12","name":"Brandenburg"}},{"name":"Händelweg","postalCode":"15345","locality":"Petershagen/Eggersdorf","municipality":{"key":"12064380","name":"Petershagen/Eggersdorf","type":"Kreisangehörige_Gemeinde"},"district":{"key":"12064","name":"Märkisch-Oderland","type":"Landkreis"},"federalState":{"key":"12","name":"Brandenburg"}},{"name":"Hardenbergstr.","postalCode":"15370","locality":"Petershagen/Eggersdorf","municipality":{"key":"12064380","name":"Petershagen/Eggersdorf","type":"Kreisangehörige_Gemeinde"},"district":{"key":"12064","name":"Märkisch-Oderland","type":"Landkreis"},"federalState":{"key":"12","name":"Brandenburg"}},{"name":"Haselaustr.","postalCode":"15345","locality":"Petershagen/Eggersdorf","municipality":{"key":"12064380","name":"Petershagen/Eggersdorf","type":"Kreisangehörige_Gemeinde"},"district":{"key":"12064","name":"Märkisch-Oderland","type":"Landkreis"},"federalState":{"key":"12","name":"Brandenburg"}},{"name":"Hauffstr.","postalCode":"15370","locality":"Petershagen/Eggersdorf","municipality":{"key":"12064380","name":"Petershagen/Eggersdorf","type":"Kreisangehörige_Gemeinde"},"district":{"key":"12064","name":"Märkisch-Oderland","type":"Landkreis"},"federalState":{"key":"12","name":"Brandenburg"}},{"name":"Havelstr.","postalCode":"15370","locality":"Petershagen/Eggersdorf","municipality":{"key":"12064380","name":"Petershagen/Eggersdorf","type":"Kreisangehörige_Gemeinde"},"district":{"key":"12064","name":"Märkisch-Oderland","type":"Landkreis"},"federalState":{"key":"12","name":"Brandenburg"}},{"name":"Heidestr.","postalCode":"15345","locality":"Petershagen/Eggersdorf","municipality":{"key":"12064380","name":"Petershagen/Eggersdorf","type":"Kreisangehörige_Gemeinde"},"district":{"key":"12064","name":"Märkisch-Oderland","type":"Landkreis"},"federalState":{"key":"12","name":"Brandenburg"}},{"name":"Heinestr.","postalCode":"15370","locality":"Petershagen/Eggersdorf","municipality":{"key":"12064380","name":"Petershagen/Eggersdorf","type":"Kreisangehörige_Gemeinde"},"district":{"key":"12064","name":"Märkisch-Oderland","type":"Landkreis"},"federalState":{"key":"12","name":"Brandenburg"}},{"name":"Helvetiastr.","postalCode":"15370","locality":"Petershagen/Eggersdorf","municipality":{"key":"12064380","name":"Petershagen/Eggersdorf","type":"Kreisangehörige_Gemeinde"},"district":{"key":"12064","name":"Märkisch-Oderland","type":"Landkreis"},"federalState":{"key":"12","name":"Brandenburg"}},{"name":"Herderstr.","postalCode":"15370","locality":"Petershagen/Eggersdorf","municipality":{"key":"12064380","name":"Petershagen/Eggersdorf","type":"Kreisangehörige_Gemeinde"},"district":{"key":"12064","name":"Märkisch-Oderland","type":"Landkreis"},"federalState":{"key":"12","name":"Brandenburg"}},{"name":"Hermann-Löns-Str.","postalCode":"15345","locality":"Petershagen/Eggersdorf","municipality":{"key":"12064380","name":"Petershagen/Eggersdorf","type":"Kreisangehörige_Gemeinde"},"district":{"key":"12064","name":"Märkisch-Oderland","type":"Landkreis"},"federalState":{"key":"12","name":"Brandenburg"}},{"name":"Hermannstr.","postalCode":"15370","locality":"Petershagen/Eggersdorf","municipality":{"key":"12064380","name":"Petershagen/Eggersdorf","type":"Kreisangehörige_Gemeinde"},"district":{"key":"12064","name":"Märkisch-Oderland","type":"Landkreis"},"federalState":{"key":"12","name":"Brandenburg"}},{"name":"Hermann-Woyack-Str.","postalCode":"15370","locality":"Petershagen/Eggersdorf","municipality":{"key":"12064380","name":"Petershagen/Eggersdorf","type":"Kreisangehörige_Gemeinde"},"district":{"key":"12064","name":"Märkisch-Oderland","type":"Landkreis"},"federalState":{"key":"12","name":"Brandenburg"}},{"name":"Hertastr.","postalCode":"15370","locality":"Petershagen/Eggersdorf","municipality":{"key":"12064380","name":"Petershagen/Eggersdorf","type":"Kreisangehörige_Gemeinde"},"district":{"key":"12064","name":"Märkisch-Oderland","type":"Landkreis"},"federalState":{"key":"12","name":"Brandenburg"}},{"name":"Hildegardstr.","postalCode":"15370","locality":"Petershagen/Eggersdorf","municipality":{"key":"12064380","name":"Petershagen/Eggersdorf","type":"Kreisangehörige_Gemeinde"},"district":{"key":"12064","name":"Märkisch-Oderland","type":"Landkreis"},"federalState":{"key":"12","name":"Brandenburg"}},{"name":"Hinter der Rennbahn","postalCode":"15345","locality":"Petershagen/Eggersdorf","municipality":{"key":"12064380","name":"Petershagen/Eggersdorf","type":"Kreisangehörige_Gemeinde"},"district":{"key":"12064","name":"Märkisch-Oderland","type":"Landkreis"},"federalState":{"key":"12","name":"Brandenburg"}},{"name":"Hölderlinstr.","postalCode":"15370","locality":"Petershagen/Eggersdorf","municipality":{"key":"12064380","name":"Petershagen/Eggersdorf","type":"Kreisangehörige_Gemeinde"},"district":{"key":"12064","name":"Märkisch-Oderland","type":"Landkreis"},"federalState":{"key":"12","name":"Brandenburg"}},{"name":"Hubertusallee","postalCode":"15370","locality":"Petershagen/Eggersdorf","municipality":{"key":"12064380","name":"Petershagen/Eggersdorf","type":"Kreisangehörige_Gemeinde"},"district":{"key":"12064","name":"Märkisch-Oderland","type":"Landkreis"},"federalState":{"key":"12","name":"Brandenburg"}},{"name":"Idastr.","postalCode":"15370","locality":"Petershagen/Eggersdorf","municipality":{"key":"12064380","name":"Petershagen/Eggersdorf","type":"Kreisangehörige_Gemeinde"},"district":{"key":"12064","name":"Märkisch-Oderland","type":"Landkreis"},"federalState":{"key":"12","name":"Brandenburg"}},{"name":"Ilsenstr.","postalCode":"15370","locality":"Petershagen/Eggersdorf","municipality":{"key":"12064380","name":"Petershagen/Eggersdorf","type":"Kreisangehörige_Gemeinde"},"district":{"key":"12064","name":"Märkisch-Oderland","type":"Landkreis"},"federalState":{"key":"12","name":"Brandenburg"}},{"name":"Jägerstr.","postalCode":"15345","locality":"Petershagen/Eggersdorf","municipality":{"key":"12064380","name":"Petershagen/Eggersdorf","type":"Kreisangehörige_Gemeinde"},"district":{"key":"12064","name":"Märkisch-Oderland","type":"Landkreis"},"federalState":{"key":"12","name":"Brandenburg"}},{"name":"Jahnstr.","postalCode":"15370","locality":"Petershagen/Eggersdorf","municipality":{"key":"12064380","name":"Petershagen/Eggersdorf","type":"Kreisangehörige_Gemeinde"},"district":{"key":"12064","name":"Märkisch-Oderland","type":"Landkreis"},"federalState":{"key":"12","name":"Brandenburg"}},{"name":"Johannesstr.","postalCode":"15345","locality":"Petershagen/Eggersdorf","municipality":{"key":"12064380","name":"Petershagen/Eggersdorf","type":"Kreisangehörige_Gemeinde"},"district":{"key":"12064","name":"Märkisch-Oderland","type":"Landkreis"},"federalState":{"key":"12","name":"Brandenburg"}},{"name":"Johannesstr.","postalCode":"15370","locality":"Petershagen/Eggersdorf","municipality":{"key":"12064380","name":"Petershagen/Eggersdorf","type":"Kreisangehörige_Gemeinde"},"district":{"key":"12064","name":"Märkisch-Oderland","type":"Landkreis"},"federalState":{"key":"12","name":"Brandenburg"}},{"name":"Karl-Liebknecht-Str.","postalCode":"15345","locality":"Petershagen/Eggersdorf","municipality":{"key":"12064380","name":"Petershagen/Eggersdorf","type":"Kreisangehörige_Gemeinde"},"district":{"key":"12064","name":"Märkisch-Oderland","type":"Landkreis"},"federalState":{"key":"12","name":"Brandenburg"}},{"name":"Karl-Liebknecht-Str.","postalCode":"15370","locality":"Petershagen/Eggersdorf","municipality":{"key":"12064380","name":"Petershagen/Eggersdorf","type":"Kreisangehörige_Gemeinde"},"district":{"key":"12064","name":"Märkisch-Oderland","type":"Landkreis"},"federalState":{"key":"12","name":"Brandenburg"}},{"name":"Karl-Marx-Str.","postalCode":"15345","locality":"Petershagen/Eggersdorf","municipality":{"key":"12064380","name":"Petershagen/Eggersdorf","type":"Kreisangehörige_Gemeinde"},"district":{"key":"12064","name":"Märkisch-Oderland","type":"Landkreis"},"federalState":{"key":"12","name":"Brandenburg"}},{"name":"Karl-Münz-Str.","postalCode":"15370","locality":"Petershagen/Eggersdorf","municipality":{"key":"12064380","name":"Petershagen/Eggersdorf","type":"Kreisangehörige_Gemeinde"},"district":{"key":"12064","name":"Märkisch-Oderland","type":"Landkreis"},"federalState":{"key":"12","name":"Brandenburg"}},{"name":"Karlstr.","postalCode":"15370","locality":"Petershagen/Eggersdorf","municipality":{"key":"12064380","name":"Petershagen/Eggersdorf","type":"Kreisangehörige_Gemeinde"},"district":{"key":"12064","name":"Märkisch-Oderland","type":"Landkreis"},"federalState":{"key":"12","name":"Brandenburg"}},{"name":"Kastanienallee","postalCode":"15345","locality":"Petershagen/Eggersdorf","municipality":{"key":"12064380","name":"Petershagen/Eggersdorf","type":"Kreisangehörige_Gemeinde"},"district":{"key":"12064","name":"Märkisch-Oderland","type":"Landkreis"},"federalState":{"key":"12","name":"Brandenburg"}},{"name":"Käthe-Kollwitz-Ring","postalCode":"15370","locality":"Petershagen/Eggersdorf","municipality":{"key":"12064380","name":"Petershagen/Eggersdorf","type":"Kreisangehörige_Gemeinde"},"district":{"key":"12064","name":"Märkisch-Oderland","type":"Landkreis"},"federalState":{"key":"12","name":"Brandenburg"}},{"name":"Kiefernstr.","postalCode":"15345","locality":"Petershagen/Eggersdorf","municipality":{"key":"12064380","name":"Petershagen/Eggersdorf","type":"Kreisangehörige_Gemeinde"},"district":{"key":"12064","name":"Märkisch-Oderland","type":"Landkreis"},"federalState":{"key":"12","name":"Brandenburg"}},{"name":"Kleiststr.","postalCode":"15370","locality":"Petershagen/Eggersdorf","municipality":{"key":"12064380","name":"Petershagen/Eggersdorf","type":"Kreisangehörige_Gemeinde"},"district":{"key":"12064","name":"Märkisch-Oderland","type":"Landkreis"},"federalState":{"key":"12","name":"Brandenburg"}},{"name":"Klopstockstr.","postalCode":"15370","locality":"Petershagen/Eggersdorf","municipality":{"key":"12064380","name":"Petershagen/Eggersdorf","type":"Kreisangehörige_Gemeinde"},"district":{"key":"12064","name":"Märkisch-Oderland","type":"Landkreis"},"federalState":{"key":"12","name":"Brandenburg"}},{"name":"Körnerstr.","postalCode":"15345","locality":"Petershagen/Eggersdorf","municipality":{"key":"12064380","name":"Petershagen/Eggersdorf","type":"Kreisangehörige_Gemeinde"},"district":{"key":"12064","name":"Märkisch-Oderland","type":"Landkreis"},"federalState":{"key":"12","name":"Brandenburg"}},{"name":"Körnerstr.","postalCode":"15370","locality":"Petershagen/Eggersdorf","municipality":{"key":"12064380","name":"Petershagen/Eggersdorf","type":"Kreisangehörige_Gemeinde"},"district":{"key":"12064","name":"Märkisch-Oderland","type":"Landkreis"},"federalState":{"key":"12","name":"Brandenburg"}},{"name":"Körperstr.","postalCode":"15370","locality":"Petershagen/Eggersdorf","municipality":{"key":"12064380","name":"Petershagen/Eggersdorf","type":"Kreisangehörige_Gemeinde"},"district":{"key":"12064","name":"Märkisch-Oderland","type":"Landkreis"},"federalState":{"key":"12","name":"Brandenburg"}},{"name":"Kurze Str.","postalCode":"15345","locality":"Petershagen/Eggersdorf","municipality":{"key":"12064380","name":"Petershagen/Eggersdorf","type":"Kreisangehörige_Gemeinde"},"district":{"key":"12064","name":"Märkisch-Oderland","type":"Landkreis"},"federalState":{"key":"12","name":"Brandenburg"}},{"name":"Lakgrabenweg","postalCode":"15345","locality":"Petershagen/Eggersdorf","municipality":{"key":"12064380","name":"Petershagen/Eggersdorf","type":"Kreisangehörige_Gemeinde"},"district":{"key":"12064","name":"Märkisch-Oderland","type":"Landkreis"},"federalState":{"key":"12","name":"Brandenburg"}},{"name":"Landhausstr.","postalCode":"15345","locality":"Petershagen/Eggersdorf","municipality":{"key":"12064380","name":"Petershagen/Eggersdorf","type":"Kreisangehörige_Gemeinde"},"district":{"key":"12064","name":"Märkisch-Oderland","type":"Landkreis"},"federalState":{"key":"12","name":"Brandenburg"}},{"name":"Landsberger Str.","postalCode":"15345","locality":"Petershagen/Eggersdorf","municipality":{"key":"12064380","name":"Petershagen/Eggersdorf","type":"Kreisangehörige_Gemeinde"},"district":{"key":"12064","name":"Märkisch-Oderland","type":"Landkreis"},"federalState":{"key":"12","name":"Brandenburg"}},{"name":"Lenaustr.","postalCode":"15370","locality":"Petershagen/Eggersdorf","municipality":{"key":"12064380","name":"Petershagen/Eggersdorf","type":"Kreisangehörige_Gemeinde"},"district":{"key":"12064","name":"Märkisch-Oderland","type":"Landkreis"},"federalState":{"key":"12","name":"Brandenburg"}},{"name":"Lessingstr.","postalCode":"15345","locality":"Petershagen/Eggersdorf","municipality":{"key":"12064380","name":"Petershagen/Eggersdorf","type":"Kreisangehörige_Gemeinde"},"district":{"key":"12064","name":"Märkisch-Oderland","type":"Landkreis"},"federalState":{"key":"12","name":"Brandenburg"}},{"name":"Lessingstr.","postalCode":"15370","locality":"Petershagen/Eggersdorf","municipality":{"key":"12064380","name":"Petershagen/Eggersdorf","type":"Kreisangehörige_Gemeinde"},"district":{"key":"12064","name":"Märkisch-Oderland","type":"Landkreis"},"federalState":{"key":"12","name":"Brandenburg"}},{"name":"Lindenallee","postalCode":"15345","locality":"Petershagen/Eggersdorf","municipality":{"key":"12064380","name":"Petershagen/Eggersdorf","type":"Kreisangehörige_Gemeinde"},"district":{"key":"12064","name":"Märkisch-Oderland","type":"Landkreis"},"federalState":{"key":"12","name":"Brandenburg"}},{"name":"Lindenstr.","postalCode":"15370","locality":"Petershagen/Eggersdorf","municipality":{"key":"12064380","name":"Petershagen/Eggersdorf","type":"Kreisangehörige_Gemeinde"},"district":{"key":"12064","name":"Märkisch-Oderland","type":"Landkreis"},"federalState":{"key":"12","name":"Brandenburg"}},{"name":"Linzer Str.","postalCode":"15345","locality":"Petershagen/Eggersdorf","municipality":{"key":"12064380","name":"Petershagen/Eggersdorf","type":"Kreisangehörige_Gemeinde"},"district":{"key":"12064","name":"Märkisch-Oderland","type":"Landkreis"},"federalState":{"key":"12","name":"Brandenburg"}},{"name":"Lucasstr.","postalCode":"15370","locality":"Petershagen/Eggersdorf","municipality":{"key":"12064380","name":"Petershagen/Eggersdorf","type":"Kreisangehörige_Gemeinde"},"district":{"key":"12064","name":"Märkisch-Oderland","type":"Landkreis"},"federalState":{"key":"12","name":"Brandenburg"}},{"name":"Ludwigstr.","postalCode":"15345","locality":"Petershagen/Eggersdorf","municipality":{"key":"12064380","name":"Petershagen/Eggersdorf","type":"Kreisangehörige_Gemeinde"},"district":{"key":"12064","name":"Märkisch-Oderland","type":"Landkreis"},"federalState":{"key":"12","name":"Brandenburg"}},{"name":"Luisenstr.","postalCode":"15370","locality":"Petershagen/Eggersdorf","municipality":{"key":"12064380","name":"Petershagen/Eggersdorf","type":"Kreisangehörige_Gemeinde"},"district":{"key":"12064","name":"Märkisch-Oderland","type":"Landkreis"},"federalState":{"key":"12","name":"Brandenburg"}},{"name":"Luisenweg","postalCode":"15345","locality":"Petershagen/Eggersdorf","municipality":{"key":"12064380","name":"Petershagen/Eggersdorf","type":"Kreisangehörige_Gemeinde"},"district":{"key":"12064","name":"Märkisch-Oderland","type":"Landkreis"},"federalState":{"key":"12","name":"Brandenburg"}},{"name":"Mainstr.","postalCode":"15370","locality":"Petershagen/Eggersdorf","municipality":{"key":"12064380","name":"Petershagen/Eggersdorf","type":"Kreisangehörige_Gemeinde"},"district":{"key":"12064","name":"Märkisch-Oderland","type":"Landkreis"},"federalState":{"key":"12","name":"Brandenburg"}},{"name":"Margaretenstr.","postalCode":"15370","locality":"Petershagen/Eggersdorf","municipality":{"key":"12064380","name":"Petershagen/Eggersdorf","type":"Kreisangehörige_Gemeinde"},"district":{"key":"12064","name":"Märkisch-Oderland","type":"Landkreis"},"federalState":{"key":"12","name":"Brandenburg"}},{"name":"Marienstr.","postalCode":"15370","locality":"Petershagen/Eggersdorf","municipality":{"key":"12064380","name":"Petershagen/Eggersdorf","type":"Kreisangehörige_Gemeinde"},"district":{"key":"12064","name":"Märkisch-Oderland","type":"Landkreis"},"federalState":{"key":"12","name":"Brandenburg"}},{"name":"Mierwerder Weg","postalCode":"15370","locality":"Petershagen/Eggersdorf","municipality":{"key":"12064380","name":"Petershagen/Eggersdorf","type":"Kreisangehörige_Gemeinde"},"district":{"key":"12064","name":"Märkisch-Oderland","type":"Landkreis"},"federalState":{"key":"12","name":"Brandenburg"}},{"name":"Mittelstr.","postalCode":"15345","locality":"Petershagen/Eggersdorf","municipality":{"key":"12064380","name":"Petershagen/Eggersdorf","type":"Kreisangehörige_Gemeinde"},"district":{"key":"12064","name":"Märkisch-Oderland","type":"Landkreis"},"federalState":{"key":"12","name":"Brandenburg"}},{"name":"Mittelstr.","postalCode":"15370","locality":"Petershagen/Eggersdorf","municipality":{"key":"12064380","name":"Petershagen/Eggersdorf","type":"Kreisangehörige_Gemeinde"},"district":{"key":"12064","name":"Märkisch-Oderland","type":"Landkreis"},"federalState":{"key":"12","name":"Brandenburg"}},{"name":"Mittelweg","postalCode":"15345","locality":"Petershagen/Eggersdorf","municipality":{"key":"12064380","name":"Petershagen/Eggersdorf","type":"Kreisangehörige_Gemeinde"},"district":{"key":"12064","name":"Märkisch-Oderland","type":"Landkreis"},"federalState":{"key":"12","name":"Brandenburg"}},{"name":"Mozartstr.","postalCode":"15345","locality":"Petershagen/Eggersdorf","municipality":{"key":"12064380","name":"Petershagen/Eggersdorf","type":"Kreisangehörige_Gemeinde"},"district":{"key":"12064","name":"Märkisch-Oderland","type":"Landkreis"},"federalState":{"key":"12","name":"Brandenburg"}},{"name":"Mozartstr.","postalCode":"15370","locality":"Petershagen/Eggersdorf","municipality":{"key":"12064380","name":"Petershagen/Eggersdorf","type":"Kreisangehörige_Gemeinde"},"district":{"key":"12064","name":"Märkisch-Oderland","type":"Landkreis"},"federalState":{"key":"12","name":"Brandenburg"}},{"name":"Mühlenstr.","postalCode":"15345","locality":"Petershagen/Eggersdorf","municipality":{"key":"12064380","name":"Petershagen/Eggersdorf","type":"Kreisangehörige_Gemeinde"},"district":{"key":"12064","name":"Märkisch-Oderland","type":"Landkreis"},"federalState":{"key":"12","name":"Brandenburg"}},{"name":"Müllerstr.","postalCode":"15370","locality":"Petershagen/Eggersdorf","municipality":{"key":"12064380","name":"Petershagen/Eggersdorf","type":"Kreisangehörige_Gemeinde"},"district":{"key":"12064","name":"Märkisch-Oderland","type":"Landkreis"},"federalState":{"key":"12","name":"Brandenburg"}},{"name":"Neckarstr.","postalCode":"15370","locality":"Petershagen/Eggersdorf","municipality":{"key":"12064380","name":"Petershagen/Eggersdorf","type":"Kreisangehörige_Gemeinde"},"district":{"key":"12064","name":"Märkisch-Oderland","type":"Landkreis"},"federalState":{"key":"12","name":"Brandenburg"}},{"name":"Netzestr.","postalCode":"15370","locality":"Petershagen/Eggersdorf","municipality":{"key":"12064380","name":"Petershagen/Eggersdorf","type":"Kreisangehörige_Gemeinde"},"district":{"key":"12064","name":"Märkisch-Oderland","type":"Landkreis"},"federalState":{"key":"12","name":"Brandenburg"}},{"name":"Neue Str.","postalCode":"15345","locality":"Petershagen/Eggersdorf","municipality":{"key":"12064380","name":"Petershagen/Eggersdorf","type":"Kreisangehörige_Gemeinde"},"district":{"key":"12064","name":"Märkisch-Oderland","type":"Landkreis"},"federalState":{"key":"12","name":"Brandenburg"}},{"name":"Oderstr.","postalCode":"15370","locality":"Petershagen/Eggersdorf","municipality":{"key":"12064380","name":"Petershagen/Eggersdorf","type":"Kreisangehörige_Gemeinde"},"district":{"key":"12064","name":"Märkisch-Oderland","type":"Landkreis"},"federalState":{"key":"12","name":"Brandenburg"}},{"name":"Pappelstr.","postalCode":"15345","locality":"Petershagen/Eggersdorf","municipality":{"key":"12064380","name":"Petershagen/Eggersdorf","type":"Kreisangehörige_Gemeinde"},"district":{"key":"12064","name":"Märkisch-Oderland","type":"Landkreis"},"federalState":{"key":"12","name":"Brandenburg"}},{"name":"Paradiesstr.","postalCode":"15370","locality":"Petershagen/Eggersdorf","municipality":{"key":"12064380","name":"Petershagen/Eggersdorf","type":"Kreisangehörige_Gemeinde"},"district":{"key":"12064","name":"Märkisch-Oderland","type":"Landkreis"},"federalState":{"key":"12","name":"Brandenburg"}},{"name":"Petershagener Chaussee","postalCode":"15345","locality":"Petershagen/Eggersdorf","municipality":{"key":"12064380","name":"Petershagen/Eggersdorf","type":"Kreisangehörige_Gemeinde"},"district":{"key":"12064","name":"Märkisch-Oderland","type":"Landkreis"},"federalState":{"key":"12","name":"Brandenburg"}},{"name":"Platanenallee","postalCode":"15345","locality":"Petershagen/Eggersdorf","municipality":{"key":"12064380","name":"Petershagen/Eggersdorf","type":"Kreisangehörige_Gemeinde"},"district":{"key":"12064","name":"Märkisch-Oderland","type":"Landkreis"},"federalState":{"key":"12","name":"Brandenburg"}},{"name":"Pohrtstr.","postalCode":"15345","locality":"Petershagen/Eggersdorf","municipality":{"key":"12064380","name":"Petershagen/Eggersdorf","type":"Kreisangehörige_Gemeinde"},"district":{"key":"12064","name":"Märkisch-Oderland","type":"Landkreis"},"federalState":{"key":"12","name":"Brandenburg"}},{"name":"Postbruchweg","postalCode":"15345","locality":"Petershagen/Eggersdorf","municipality":{"key":"12064380","name":"Petershagen/Eggersdorf","type":"Kreisangehörige_Gemeinde"},"district":{"key":"12064","name":"Märkisch-Oderland","type":"Landkreis"},"federalState":{"key":"12","name":"Brandenburg"}},{"name":"Poststr.","postalCode":"15370","locality":"Petershagen/Eggersdorf","municipality":{"key":"12064380","name":"Petershagen/Eggersdorf","type":"Kreisangehörige_Gemeinde"},"district":{"key":"12064","name":"Märkisch-Oderland","type":"Landkreis"},"federalState":{"key":"12","name":"Brandenburg"}},{"name":"Rathausstr.","postalCode":"15370","locality":"Petershagen/Eggersdorf","municipality":{"key":"12064380","name":"Petershagen/Eggersdorf","type":"Kreisangehörige_Gemeinde"},"district":{"key":"12064","name":"Märkisch-Oderland","type":"Landkreis"},"federalState":{"key":"12","name":"Brandenburg"}},{"name":"Rehwinkel","postalCode":"15345","locality":"Petershagen/Eggersdorf","municipality":{"key":"12064380","name":"Petershagen/Eggersdorf","type":"Kreisangehörige_Gemeinde"},"district":{"key":"12064","name":"Märkisch-Oderland","type":"Landkreis"},"federalState":{"key":"12","name":"Brandenburg"}},{"name":"Reuterstr.","postalCode":"15370","locality":"Petershagen/Eggersdorf","municipality":{"key":"12064380","name":"Petershagen/Eggersdorf","type":"Kreisangehörige_Gemeinde"},"district":{"key":"12064","name":"Märkisch-Oderland","type":"Landkreis"},"federalState":{"key":"12","name":"Brandenburg"}},{"name":"Rheinstr.","postalCode":"15370","locality":"Petershagen/Eggersdorf","municipality":{"key":"12064380","name":"Petershagen/Eggersdorf","type":"Kreisangehörige_Gemeinde"},"district":{"key":"12064","name":"Märkisch-Oderland","type":"Landkreis"},"federalState":{"key":"12","name":"Brandenburg"}},{"name":"Richardstr.","postalCode":"15370","locality":"Petershagen/Eggersdorf","municipality":{"key":"12064380","name":"Petershagen/Eggersdorf","type":"Kreisangehörige_Gemeinde"},"district":{"key":"12064","name":"Märkisch-Oderland","type":"Landkreis"},"federalState":{"key":"12","name":"Brandenburg"}},{"name":"Rohrwiesenweg","postalCode":"15370","locality":"Petershagen/Eggersdorf","municipality":{"key":"12064380","name":"Petershagen/Eggersdorf","type":"Kreisangehörige_Gemeinde"},"district":{"key":"12064","name":"Märkisch-Oderland","type":"Landkreis"},"federalState":{"key":"12","name":"Brandenburg"}},{"name":"Rosa-Luxemburg-Str.","postalCode":"15345","locality":"Petershagen/Eggersdorf","municipality":{"key":"12064380","name":"Petershagen/Eggersdorf","type":"Kreisangehörige_Gemeinde"},"district":{"key":"12064","name":"Märkisch-Oderland","type":"Landkreis"},"federalState":{"key":"12","name":"Brandenburg"}},{"name":"Roseggerstr.","postalCode":"15370","locality":"Petershagen/Eggersdorf","municipality":{"key":"12064380","name":"Petershagen/Eggersdorf","type":"Kreisangehörige_Gemeinde"},"district":{"key":"12064","name":"Märkisch-Oderland","type":"Landkreis"},"federalState":{"key":"12","name":"Brandenburg"}},{"name":"Rosenstr.","postalCode":"15345","locality":"Petershagen/Eggersdorf","municipality":{"key":"12064380","name":"Petershagen/Eggersdorf","type":"Kreisangehörige_Gemeinde"},"district":{"key":"12064","name":"Märkisch-Oderland","type":"Landkreis"},"federalState":{"key":"12","name":"Brandenburg"}},{"name":"Rosenstr.","postalCode":"15370","locality":"Petershagen/Eggersdorf","municipality":{"key":"12064380","name":"Petershagen/Eggersdorf","type":"Kreisangehörige_Gemeinde"},"district":{"key":"12064","name":"Märkisch-Oderland","type":"Landkreis"},"federalState":{"key":"12","name":"Brandenburg"}},{"name":"Rotdornstr.","postalCode":"15345","locality":"Petershagen/Eggersdorf","municipality":{"key":"12064380","name":"Petershagen/Eggersdorf","type":"Kreisangehörige_Gemeinde"},"district":{"key":"12064","name":"Märkisch-Oderland","type":"Landkreis"},"federalState":{"key":"12","name":"Brandenburg"}},{"name":"Rückertstr.","postalCode":"15370","locality":"Petershagen/Eggersdorf","municipality":{"key":"12064380","name":"Petershagen/Eggersdorf","type":"Kreisangehörige_Gemeinde"},"district":{"key":"12064","name":"Märkisch-Oderland","type":"Landkreis"},"federalState":{"key":"12","name":"Brandenburg"}},{"name":"Saalestr.","postalCode":"15370","locality":"Petershagen/Eggersdorf","municipality":{"key":"12064380","name":"Petershagen/Eggersdorf","type":"Kreisangehörige_Gemeinde"},"district":{"key":"12064","name":"Märkisch-Oderland","type":"Landkreis"},"federalState":{"key":"12","name":"Brandenburg"}},{"name":"Schenkendorfstr.","postalCode":"15370","locality":"Petershagen/Eggersdorf","municipality":{"key":"12064380","name":"Petershagen/Eggersdorf","type":"Kreisangehörige_Gemeinde"},"district":{"key":"12064","name":"Märkisch-Oderland","type":"Landkreis"},"federalState":{"key":"12","name":"Brandenburg"}},{"name":"Schillerstr.","postalCode":"15345","locality":"Petershagen/Eggersdorf","municipality":{"key":"12064380","name":"Petershagen/Eggersdorf","type":"Kreisangehörige_Gemeinde"},"district":{"key":"12064","name":"Märkisch-Oderland","type":"Landkreis"},"federalState":{"key":"12","name":"Brandenburg"}},{"name":"Schillerstr.","postalCode":"15370","locality":"Petershagen/Eggersdorf","municipality":{"key":"12064380","name":"Petershagen/Eggersdorf","type":"Kreisangehörige_Gemeinde"},"district":{"key":"12064","name":"Märkisch-Oderland","type":"Landkreis"},"federalState":{"key":"12","name":"Brandenburg"}},{"name":"Seemannstr.","postalCode":"15345","locality":"Petershagen/Eggersdorf","municipality":{"key":"12064380","name":"Petershagen/Eggersdorf","type":"Kreisangehörige_Gemeinde"},"district":{"key":"12064","name":"Märkisch-Oderland","type":"Landkreis"},"federalState":{"key":"12","name":"Brandenburg"}},{"name":"Seestr.","postalCode":"15370","locality":"Petershagen/Eggersdorf","municipality":{"key":"12064380","name":"Petershagen/Eggersdorf","type":"Kreisangehörige_Gemeinde"},"district":{"key":"12064","name":"Märkisch-Oderland","type":"Landkreis"},"federalState":{"key":"12","name":"Brandenburg"}},{"name":"Simrockstr.","postalCode":"15370","locality":"Petershagen/Eggersdorf","municipality":{"key":"12064380","name":"Petershagen/Eggersdorf","type":"Kreisangehörige_Gemeinde"},"district":{"key":"12064","name":"Märkisch-Oderland","type":"Landkreis"},"federalState":{"key":"12","name":"Brandenburg"}},{"name":"Sonnenstr.","postalCode":"15370","locality":"Petershagen/Eggersdorf","municipality":{"key":"12064380","name":"Petershagen/Eggersdorf","type":"Kreisangehörige_Gemeinde"},"district":{"key":"12064","name":"Märkisch-Oderland","type":"Landkreis"},"federalState":{"key":"12","name":"Brandenburg"}},{"name":"Sophienstr.","postalCode":"15370","locality":"Petershagen/Eggersdorf","municipality":{"key":"12064380","name":"Petershagen/Eggersdorf","type":"Kreisangehörige_Gemeinde"},"district":{"key":"12064","name":"Märkisch-Oderland","type":"Landkreis"},"federalState":{"key":"12","name":"Brandenburg"}},{"name":"Spreestr.","postalCode":"15370","locality":"Petershagen/Eggersdorf","municipality":{"key":"12064380","name":"Petershagen/Eggersdorf","type":"Kreisangehörige_Gemeinde"},"district":{"key":"12064","name":"Märkisch-Oderland","type":"Landkreis"},"federalState":{"key":"12","name":"Brandenburg"}},{"name":"Stienitzallee","postalCode":"15370","locality":"Petershagen/Eggersdorf","municipality":{"key":"12064380","name":"Petershagen/Eggersdorf","type":"Kreisangehörige_Gemeinde"},"district":{"key":"12064","name":"Märkisch-Oderland","type":"Landkreis"},"federalState":{"key":"12","name":"Brandenburg"}},{"name":"Stiller Grund","postalCode":"15345","locality":"Petershagen/Eggersdorf","municipality":{"key":"12064380","name":"Petershagen/Eggersdorf","type":"Kreisangehörige_Gemeinde"},"district":{"key":"12064","name":"Märkisch-Oderland","type":"Landkreis"},"federalState":{"key":"12","name":"Brandenburg"}},{"name":"Stormstr.","postalCode":"15370","locality":"Petershagen/Eggersdorf","municipality":{"key":"12064380","name":"Petershagen/Eggersdorf","type":"Kreisangehörige_Gemeinde"},"district":{"key":"12064","name":"Märkisch-Oderland","type":"Landkreis"},"federalState":{"key":"12","name":"Brandenburg"}},{"name":"Strausberger Str.","postalCode":"15345","locality":"Petershagen/Eggersdorf","municipality":{"key":"12064380","name":"Petershagen/Eggersdorf","type":"Kreisangehörige_Gemeinde"},"district":{"key":"12064","name":"Märkisch-Oderland","type":"Landkreis"},"federalState":{"key":"12","name":"Brandenburg"}},{"name":"Tasdorfer Str.","postalCode":"15345","locality":"Petershagen/Eggersdorf","municipality":{"key":"12064380","name":"Petershagen/Eggersdorf","type":"Kreisangehörige_Gemeinde"},"district":{"key":"12064","name":"Märkisch-Oderland","type":"Landkreis"},"federalState":{"key":"12","name":"Brandenburg"}},{"name":"Tasdorfer Str.","postalCode":"15370","locality":"Petershagen/Eggersdorf","municipality":{"key":"12064380","name":"Petershagen/Eggersdorf","type":"Kreisangehörige_Gemeinde"},"district":{"key":"12064","name":"Märkisch-Oderland","type":"Landkreis"},"federalState":{"key":"12","name":"Brandenburg"}},{"name":"Teutonenstr.","postalCode":"15370","locality":"Petershagen/Eggersdorf","municipality":{"key":"12064380","name":"Petershagen/Eggersdorf","type":"Kreisangehörige_Gemeinde"},"district":{"key":"12064","name":"Märkisch-Oderland","type":"Landkreis"},"federalState":{"key":"12","name":"Brandenburg"}},{"name":"Thälmann-Str.","postalCode":"15370","locality":"Petershagen/Eggersdorf","municipality":{"key":"12064380","name":"Petershagen/Eggersdorf","type":"Kreisangehörige_Gemeinde"},"district":{"key":"12064","name":"Märkisch-Oderland","type":"Landkreis"},"federalState":{"key":"12","name":"Brandenburg"}},{"name":"Triftstr.","postalCode":"15370","locality":"Petershagen/Eggersdorf","municipality":{"key":"12064380","name":"Petershagen/Eggersdorf","type":"Kreisangehörige_Gemeinde"},"district":{"key":"12064","name":"Märkisch-Oderland","type":"Landkreis"},"federalState":{"key":"12","name":"Brandenburg"}},{"name":"Uhlandstr.","postalCode":"15370","locality":"Petershagen/Eggersdorf","municipality":{"key":"12064380","name":"Petershagen/Eggersdorf","type":"Kreisangehörige_Gemeinde"},"district":{"key":"12064","name":"Märkisch-Oderland","type":"Landkreis"},"federalState":{"key":"12","name":"Brandenburg"}},{"name":"Ulmenallee","postalCode":"15345","locality":"Petershagen/Eggersdorf","municipality":{"key":"12064380","name":"Petershagen/Eggersdorf","type":"Kreisangehörige_Gemeinde"},"district":{"key":"12064","name":"Märkisch-Oderland","type":"Landkreis"},"federalState":{"key":"12","name":"Brandenburg"}},{"name":"Umgehungsstr.","postalCode":"15345","locality":"Petershagen/Eggersdorf","municipality":{"key":"12064380","name":"Petershagen/Eggersdorf","type":"Kreisangehörige_Gemeinde"},"district":{"key":"12064","name":"Märkisch-Oderland","type":"Landkreis"},"federalState":{"key":"12","name":"Brandenburg"}},{"name":"Umgehungsstr.","postalCode":"15370","locality":"Petershagen/Eggersdorf","municipality":{"key":"12064380","name":"Petershagen/Eggersdorf","type":"Kreisangehörige_Gemeinde"},"district":{"key":"12064","name":"Märkisch-Oderland","type":"Landkreis"},"federalState":{"key":"12","name":"Brandenburg"}},{"name":"Unionstr.","postalCode":"15370","locality":"Petershagen/Eggersdorf","municipality":{"key":"12064380","name":"Petershagen/Eggersdorf","type":"Kreisangehörige_Gemeinde"},"district":{"key":"12064","name":"Märkisch-Oderland","type":"Landkreis"},"federalState":{"key":"12","name":"Brandenburg"}},{"name":"Verdiweg","postalCode":"15345","locality":"Petershagen/Eggersdorf","municipality":{"key":"12064380","name":"Petershagen/Eggersdorf","type":"Kreisangehörige_Gemeinde"},"district":{"key":"12064","name":"Märkisch-Oderland","type":"Landkreis"},"federalState":{"key":"12","name":"Brandenburg"}},{"name":"Viktoriastr.","postalCode":"15345","locality":"Petershagen/Eggersdorf","municipality":{"key":"12064380","name":"Petershagen/Eggersdorf","type":"Kreisangehörige_Gemeinde"},"district":{"key":"12064","name":"Märkisch-Oderland","type":"Landkreis"},"federalState":{"key":"12","name":"Brandenburg"}},{"name":"Vivaldiweg","postalCode":"15345","locality":"Petershagen/Eggersdorf","municipality":{"key":"12064380","name":"Petershagen/Eggersdorf","type":"Kreisangehörige_Gemeinde"},"district":{"key":"12064","name":"Märkisch-Oderland","type":"Landkreis"},"federalState":{"key":"12","name":"Brandenburg"}},{"name":"Wagnerstr.","postalCode":"15345","locality":"Petershagen/Eggersdorf","municipality":{"key":"12064380","name":"Petershagen/Eggersdorf","type":"Kreisangehörige_Gemeinde"},"district":{"key":"12064","name":"Märkisch-Oderland","type":"Landkreis"},"federalState":{"key":"12","name":"Brandenburg"}},{"name":"Wagnerstr.","postalCode":"15370","locality":"Petershagen/Eggersdorf","municipality":{"key":"12064380","name":"Petershagen/Eggersdorf","type":"Kreisangehörige_Gemeinde"},"district":{"key":"12064","name":"Märkisch-Oderland","type":"Landkreis"},"federalState":{"key":"12","name":"Brandenburg"}},{"name":"Waldfriedenstr.","postalCode":"15370","locality":"Petershagen/Eggersdorf","municipality":{"key":"12064380","name":"Petershagen/Eggersdorf","type":"Kreisangehörige_Gemeinde"},"district":{"key":"12064","name":"Märkisch-Oderland","type":"Landkreis"},"federalState":{"key":"12","name":"Brandenburg"}},{"name":"Waldstr.","postalCode":"15345","locality":"Petershagen/Eggersdorf","municipality":{"key":"12064380","name":"Petershagen/Eggersdorf","type":"Kreisangehörige_Gemeinde"},"district":{"key":"12064","name":"Märkisch-Oderland","type":"Landkreis"},"federalState":{"key":"12","name":"Brandenburg"}},{"name":"Waldstr.","postalCode":"15370","locality":"Petershagen/Eggersdorf","municipality":{"key":"12064380","name":"Petershagen/Eggersdorf","type":"Kreisangehörige_Gemeinde"},"district":{"key":"12064","name":"Märkisch-Oderland","type":"Landkreis"},"federalState":{"key":"12","name":"Brandenburg"}},{"name":"Warthestr.","postalCode":"15370","locality":"Petershagen/Eggersdorf","municipality":{"key":"12064380","name":"Petershagen/Eggersdorf","type":"Kreisangehörige_Gemeinde"},"district":{"key":"12064","name":"Märkisch-Oderland","type":"Landkreis"},"federalState":{"key":"12","name":"Brandenburg"}},{"name":"Wasserstr.","postalCode":"15370","locality":"Petershagen/Eggersdorf","municipality":{"key":"12064380","name":"Petershagen/Eggersdorf","type":"Kreisangehörige_Gemeinde"},"district":{"key":"12064","name":"Märkisch-Oderland","type":"Landkreis"},"federalState":{"key":"12","name":"Brandenburg"}},{"name":"Weidenweg","postalCode":"15345","locality":"Petershagen/Eggersdorf","municipality":{"key":"12064380","name":"Petershagen/Eggersdorf","type":"Kreisangehörige_Gemeinde"},"district":{"key":"12064","name":"Märkisch-Oderland","type":"Landkreis"},"federalState":{"key":"12","name":"Brandenburg"}},{"name":"Weserstr.","postalCode":"15370","locality":"Petershagen/Eggersdorf","municipality":{"key":"12064380","name":"Petershagen/Eggersdorf","type":"Kreisangehörige_Gemeinde"},"district":{"key":"12064","name":"Märkisch-Oderland","type":"Landkreis"},"federalState":{"key":"12","name":"Brandenburg"}},{"name":"Wielandstr.","postalCode":"15370","locality":"Petershagen/Eggersdorf","municipality":{"key":"12064380","name":"Petershagen/Eggersdorf","type":"Kreisangehörige_Gemeinde"},"district":{"key":"12064","name":"Märkisch-Oderland","type":"Landkreis"},"federalState":{"key":"12","name":"Brandenburg"}},{"name":"Wiener Str.","postalCode":"15345","locality":"Petershagen/Eggersdorf","municipality":{"key":"12064380","name":"Petershagen/Eggersdorf","type":"Kreisangehörige_Gemeinde"},"district":{"key":"12064","name":"Märkisch-Oderland","type":"Landkreis"},"federalState":{"key":"12","name":"Brandenburg"}},{"name":"Wiesenstr.","postalCode":"15370","locality":"Petershagen/Eggersdorf","municipality":{"key":"12064380","name":"Petershagen/Eggersdorf","type":"Kreisangehörige_Gemeinde"},"district":{"key":"12064","name":"Märkisch-Oderland","type":"Landkreis"},"federalState":{"key":"12","name":"Brandenburg"}},{"name":"Wildenbruchstr.","postalCode":"15370","locality":"Petershagen/Eggersdorf","municipality":{"key":"12064380","name":"Petershagen/Eggersdorf","type":"Kreisangehörige_Gemeinde"},"district":{"key":"12064","name":"Märkisch-Oderland","type":"Landkreis"},"federalState":{"key":"12","name":"Brandenburg"}},{"name":"Wilhelm-Abel-Weg","postalCode":"15370","locality":"Petershagen/Eggersdorf","municipality":{"key":"12064380","name":"Petershagen/Eggersdorf","type":"Kreisangehörige_Gemeinde"},"district":{"key":"12064","name":"Märkisch-Oderland","type":"Landkreis"},"federalState":{"key":"12","name":"Brandenburg"}},{"name":"Wilhelm-Busch-Str.","postalCode":"15370","locality":"Petershagen/Eggersdorf","municipality":{"key":"12064380","name":"Petershagen/Eggersdorf","type":"Kreisangehörige_Gemeinde"},"district":{"key":"12064","name":"Märkisch-Oderland","type":"Landkreis"},"federalState":{"key":"12","name":"Brandenburg"}},{"name":"Wilhelm-Pieck-Str.","postalCode":"15370","locality":"Petershagen/Eggersdorf","municipality":{"key":"12064380","name":"Petershagen/Eggersdorf","type":"Kreisangehörige_Gemeinde"},"district":{"key":"12064","name":"Märkisch-Oderland","type":"Landkreis"},"federalState":{"key":"12","name":"Brandenburg"}},{"name":"Wilhelmstr.","postalCode":"15345","locality":"Petershagen/Eggersdorf","municipality":{"key":"12064380","name":"Petershagen/Eggersdorf","type":"Kreisangehörige_Gemeinde"},"district":{"key":"12064","name":"Märkisch-Oderland","type":"Landkreis"},"federalState":{"key":"12","name":"Brandenburg"}},{"name":"Wilhelm-Tell-Str.","postalCode":"15370","locality":"Petershagen/Eggersdorf","municipality":{"key":"12064380","name":"Petershagen/Eggersdorf","type":"Kreisangehörige_Gemeinde"},"district":{"key":"12064","name":"Märkisch-Oderland","type":"Landkreis"},"federalState":{"key":"12","name":"Brandenburg"}},]