[{"name":"Alte Landstr.","postalCode":"24894","locality":"Twedt","municipality":{"key":"01059097","name":"Twedt","type":"Kreisangehörige_Gemeinde"},"district":{"key":"01059","name":"Schleswig-Flensburg","type":"Kreis"},"federalState":{"key":"01","name":"Schleswig-Holstein"}},{"name":"Boholzau","postalCode":"24894","locality":"Twedt","municipality":{"key":"01059097","name":"Twedt","type":"Kreisangehörige_Gemeinde"},"district":{"key":"01059","name":"Schleswig-Flensburg","type":"Kreis"},"federalState":{"key":"01","name":"Schleswig-Holstein"}},{"name":"Bundesstr.","postalCode":"24894","locality":"Twedt","municipality":{"key":"01059097","name":"Twedt","type":"Kreisangehörige_Gemeinde"},"district":{"key":"01059","name":"Schleswig-Flensburg","type":"Kreis"},"federalState":{"key":"01","name":"Schleswig-Holstein"}},{"name":"Buschau","postalCode":"24894","locality":"Twedt","municipality":{"key":"01059097","name":"Twedt","type":"Kreisangehörige_Gemeinde"},"district":{"key":"01059","name":"Schleswig-Flensburg","type":"Kreis"},"federalState":{"key":"01","name":"Schleswig-Holstein"}},{"name":"Dorfstr.","postalCode":"24894","locality":"Twedt","municipality":{"key":"01059097","name":"Twedt","type":"Kreisangehörige_Gemeinde"},"district":{"key":"01059","name":"Schleswig-Flensburg","type":"Kreis"},"federalState":{"key":"01","name":"Schleswig-Holstein"}},{"name":"Dornhöh","postalCode":"24894","locality":"Twedt","municipality":{"key":"01059097","name":"Twedt","type":"Kreisangehörige_Gemeinde"},"district":{"key":"01059","name":"Schleswig-Flensburg","type":"Kreis"},"federalState":{"key":"01","name":"Schleswig-Holstein"}},{"name":"Grumby","postalCode":"24894","locality":"Twedt","municipality":{"key":"01059097","name":"Twedt","type":"Kreisangehörige_Gemeinde"},"district":{"key":"01059","name":"Schleswig-Flensburg","type":"Kreis"},"federalState":{"key":"01","name":"Schleswig-Holstein"}},{"name":"Hoffnungstal","postalCode":"24894","locality":"Twedt","municipality":{"key":"01059097","name":"Twedt","type":"Kreisangehörige_Gemeinde"},"district":{"key":"01059","name":"Schleswig-Flensburg","type":"Kreis"},"federalState":{"key":"01","name":"Schleswig-Holstein"}},{"name":"Hörneck","postalCode":"24894","locality":"Twedt","municipality":{"key":"01059097","name":"Twedt","type":"Kreisangehörige_Gemeinde"},"district":{"key":"01059","name":"Schleswig-Flensburg","type":"Kreis"},"federalState":{"key":"01","name":"Schleswig-Holstein"}},{"name":"Kappelner Str.","postalCode":"24894","locality":"Twedt","municipality":{"key":"01059097","name":"Twedt","type":"Kreisangehörige_Gemeinde"},"district":{"key":"01059","name":"Schleswig-Flensburg","type":"Kreis"},"federalState":{"key":"01","name":"Schleswig-Holstein"}},{"name":"Kastanienallee","postalCode":"24894","locality":"Twedt","municipality":{"key":"01059097","name":"Twedt","type":"Kreisangehörige_Gemeinde"},"district":{"key":"01059","name":"Schleswig-Flensburg","type":"Kreis"},"federalState":{"key":"01","name":"Schleswig-Holstein"}},{"name":"Margarethenweg","postalCode":"24894","locality":"Twedt","municipality":{"key":"01059097","name":"Twedt","type":"Kreisangehörige_Gemeinde"},"district":{"key":"01059","name":"Schleswig-Flensburg","type":"Kreis"},"federalState":{"key":"01","name":"Schleswig-Holstein"}},{"name":"Schmiedestr.","postalCode":"24894","locality":"Twedt","municipality":{"key":"01059097","name":"Twedt","type":"Kreisangehörige_Gemeinde"},"district":{"key":"01059","name":"Schleswig-Flensburg","type":"Kreis"},"federalState":{"key":"01","name":"Schleswig-Holstein"}},{"name":"Tolkschubyer Str.","postalCode":"24894","locality":"Twedt","municipality":{"key":"01059097","name":"Twedt","type":"Kreisangehörige_Gemeinde"},"district":{"key":"01059","name":"Schleswig-Flensburg","type":"Kreis"},"federalState":{"key":"01","name":"Schleswig-Holstein"}},{"name":"Unter den Linden","postalCode":"24894","locality":"Twedt","municipality":{"key":"01059097","name":"Twedt","type":"Kreisangehörige_Gemeinde"},"district":{"key":"01059","name":"Schleswig-Flensburg","type":"Kreis"},"federalState":{"key":"01","name":"Schleswig-Holstein"}},]