[{"key":"13074001","name":"Alt Meteln","type":"Kreisangehörige_Gemeinde","postalCode":"19069","multiplePostalCodes":false,"association":{"key":"13074","name":"Lützow-Lübstorf","type":"Amt"},"district":{"key":"13074","name":"Nordwestmecklenburg","type":"Landkreis"},"federalState":{"key":"13","name":"Mecklenburg-Vorpommern"}},{"key":"13074002","name":"Bad Kleinen","type":"Kreisangehörige_Gemeinde","postalCode":"23996","multiplePostalCodes":false,"association":{"key":"13074","name":"Dorf Mecklenburg-Bad Kleinen","type":"Amt"},"district":{"key":"13074","name":"Nordwestmecklenburg","type":"Landkreis"},"federalState":{"key":"13","name":"Mecklenburg-Vorpommern"}},{"key":"13074003","name":"Barnekow","type":"Kreisangehörige_Gemeinde","postalCode":"23968","multiplePostalCodes":false,"association":{"key":"13074","name":"Dorf Mecklenburg-Bad Kleinen","type":"Amt"},"district":{"key":"13074","name":"Nordwestmecklenburg","type":"Landkreis"},"federalState":{"key":"13","name":"Mecklenburg-Vorpommern"}},{"key":"13074004","name":"Benz","type":"Kreisangehörige_Gemeinde","postalCode":"23970","multiplePostalCodes":false,"association":{"key":"13074","name":"Neuburg","type":"Amt"},"district":{"key":"13074","name":"Nordwestmecklenburg","type":"Landkreis"},"federalState":{"key":"13","name":"Mecklenburg-Vorpommern"}},{"key":"13074005","name":"Bernstorf","type":"Kreisangehörige_Gemeinde","postalCode":"23936","multiplePostalCodes":false,"association":{"key":"13074","name":"Grevesmühlen-Land","type":"Amt"},"district":{"key":"13074","name":"Nordwestmecklenburg","type":"Landkreis"},"federalState":{"key":"13","name":"Mecklenburg-Vorpommern"}},{"key":"13074006","name":"Bibow","type":"Kreisangehörige_Gemeinde","postalCode":"19417","multiplePostalCodes":false,"association":{"key":"13074","name":"Neukloster-Warin","type":"Amt"},"district":{"key":"13074","name":"Nordwestmecklenburg","type":"Landkreis"},"federalState":{"key":"13","name":"Mecklenburg-Vorpommern"}},{"key":"13074007","name":"Blowatz","type":"Kreisangehörige_Gemeinde","postalCode":"23974","multiplePostalCodes":false,"association":{"key":"13074","name":"Neuburg","type":"Amt"},"district":{"key":"13074","name":"Nordwestmecklenburg","type":"Landkreis"},"federalState":{"key":"13","name":"Mecklenburg-Vorpommern"}},{"key":"13074008","name":"Bobitz","type":"Kreisangehörige_Gemeinde","postalCode":"23996","multiplePostalCodes":true,"association":{"key":"13074","name":"Dorf Mecklenburg-Bad Kleinen","type":"Amt"},"district":{"key":"13074","name":"Nordwestmecklenburg","type":"Landkreis"},"federalState":{"key":"13","name":"Mecklenburg-Vorpommern"}},{"key":"13074009","name":"Boiensdorf","type":"Kreisangehörige_Gemeinde","postalCode":"23974","multiplePostalCodes":false,"association":{"key":"13074","name":"Neuburg","type":"Amt"},"district":{"key":"13074","name":"Nordwestmecklenburg","type":"Landkreis"},"federalState":{"key":"13","name":"Mecklenburg-Vorpommern"}},{"key":"13074010","name":"Boltenhagen, Ostseebad","type":"Kreisangehörige_Gemeinde","postalCode":"23946","multiplePostalCodes":true,"association":{"key":"13074","name":"Klützer Winkel","type":"Amt"},"district":{"key":"13074","name":"Nordwestmecklenburg","type":"Landkreis"},"federalState":{"key":"13","name":"Mecklenburg-Vorpommern"}},{"key":"13074012","name":"Brüsewitz","type":"Kreisangehörige_Gemeinde","postalCode":"19071","multiplePostalCodes":false,"association":{"key":"13074","name":"Lützow-Lübstorf","type":"Amt"},"district":{"key":"13074","name":"Nordwestmecklenburg","type":"Landkreis"},"federalState":{"key":"13","name":"Mecklenburg-Vorpommern"}},{"key":"13074013","name":"Carlow","type":"Kreisangehörige_Gemeinde","postalCode":"19217","multiplePostalCodes":false,"association":{"key":"13074","name":"Rehna","type":"Amt"},"district":{"key":"13074","name":"Nordwestmecklenburg","type":"Landkreis"},"federalState":{"key":"13","name":"Mecklenburg-Vorpommern"}},{"key":"13074014","name":"Cramonshagen","type":"Kreisangehörige_Gemeinde","postalCode":"19071","multiplePostalCodes":false,"association":{"key":"13074","name":"Lützow-Lübstorf","type":"Amt"},"district":{"key":"13074","name":"Nordwestmecklenburg","type":"Landkreis"},"federalState":{"key":"13","name":"Mecklenburg-Vorpommern"}},{"key":"13074015","name":"Dalberg-Wendelstorf","type":"Kreisangehörige_Gemeinde","postalCode":"19071","multiplePostalCodes":false,"association":{"key":"13074","name":"Lützow-Lübstorf","type":"Amt"},"district":{"key":"13074","name":"Nordwestmecklenburg","type":"Landkreis"},"federalState":{"key":"13","name":"Mecklenburg-Vorpommern"}},{"key":"13074016","name":"Damshagen","type":"Kreisangehörige_Gemeinde","postalCode":"23948","multiplePostalCodes":true,"association":{"key":"13074","name":"Klützer Winkel","type":"Amt"},"district":{"key":"13074","name":"Nordwestmecklenburg","type":"Landkreis"},"federalState":{"key":"13","name":"Mecklenburg-Vorpommern"}},{"key":"13074017","name":"Dassow, Stadt","type":"Stadt","postalCode":"23942","multiplePostalCodes":false,"association":{"key":"13074","name":"Schönberger Land","type":"Amt"},"district":{"key":"13074","name":"Nordwestmecklenburg","type":"Landkreis"},"federalState":{"key":"13","name":"Mecklenburg-Vorpommern"}},{"key":"13074018","name":"Dechow","type":"Kreisangehörige_Gemeinde","postalCode":"19217","multiplePostalCodes":false,"association":{"key":"13074","name":"Rehna","type":"Amt"},"district":{"key":"13074","name":"Nordwestmecklenburg","type":"Landkreis"},"federalState":{"key":"13","name":"Mecklenburg-Vorpommern"}},{"key":"13074019","name":"Dorf Mecklenburg","type":"Kreisangehörige_Gemeinde","postalCode":"23972","multiplePostalCodes":false,"association":{"key":"13074","name":"Dorf Mecklenburg-Bad Kleinen","type":"Amt"},"district":{"key":"13074","name":"Nordwestmecklenburg","type":"Landkreis"},"federalState":{"key":"13","name":"Mecklenburg-Vorpommern"}},{"key":"13074020","name":"Dragun","type":"Kreisangehörige_Gemeinde","postalCode":"19205","multiplePostalCodes":false,"association":{"key":"13074","name":"Gadebusch","type":"Amt"},"district":{"key":"13074","name":"Nordwestmecklenburg","type":"Landkreis"},"federalState":{"key":"13","name":"Mecklenburg-Vorpommern"}},{"key":"13074021","name":"Gadebusch, Stadt","type":"Stadt","postalCode":"19205","multiplePostalCodes":false,"association":{"key":"13074","name":"Gadebusch","type":"Amt"},"district":{"key":"13074","name":"Nordwestmecklenburg","type":"Landkreis"},"federalState":{"key":"13","name":"Mecklenburg-Vorpommern"}},{"key":"13074022","name":"Gägelow","type":"Kreisangehörige_Gemeinde","postalCode":"23968","multiplePostalCodes":false,"association":{"key":"13074","name":"Grevesmühlen-Land","type":"Amt"},"district":{"key":"13074","name":"Nordwestmecklenburg","type":"Landkreis"},"federalState":{"key":"13","name":"Mecklenburg-Vorpommern"}},{"key":"13074023","name":"Glasin","type":"Kreisangehörige_Gemeinde","postalCode":"23992","multiplePostalCodes":false,"association":{"key":"13074","name":"Neukloster-Warin","type":"Amt"},"district":{"key":"13074","name":"Nordwestmecklenburg","type":"Landkreis"},"federalState":{"key":"13","name":"Mecklenburg-Vorpommern"}},{"key":"13074024","name":"Gottesgabe","type":"Kreisangehörige_Gemeinde","postalCode":"19209","multiplePostalCodes":false,"association":{"key":"13074","name":"Lützow-Lübstorf","type":"Amt"},"district":{"key":"13074","name":"Nordwestmecklenburg","type":"Landkreis"},"federalState":{"key":"13","name":"Mecklenburg-Vorpommern"}},{"key":"13074025","name":"Grambow","type":"Kreisangehörige_Gemeinde","postalCode":"19071","multiplePostalCodes":true,"association":{"key":"13074","name":"Lützow-Lübstorf","type":"Amt"},"district":{"key":"13074","name":"Nordwestmecklenburg","type":"Landkreis"},"federalState":{"key":"13","name":"Mecklenburg-Vorpommern"}},{"key":"13074026","name":"Grevesmühlen, Stadt","type":"Stadt","postalCode":"23936","multiplePostalCodes":false,"association":{"key":"13074","name":"Grevesmühlen, Stadt","type":"Verbandsfreie_Gemeinde"},"district":{"key":"13074","name":"Nordwestmecklenburg","type":"Landkreis"},"federalState":{"key":"13","name":"Mecklenburg-Vorpommern"}},{"key":"13074027","name":"Grieben","type":"Kreisangehörige_Gemeinde","postalCode":"23936","multiplePostalCodes":false,"association":{"key":"13074","name":"Schönberger Land","type":"Amt"},"district":{"key":"13074","name":"Nordwestmecklenburg","type":"Landkreis"},"federalState":{"key":"13","name":"Mecklenburg-Vorpommern"}},{"key":"13074028","name":"Groß Molzahn","type":"Kreisangehörige_Gemeinde","postalCode":"19217","multiplePostalCodes":false,"association":{"key":"13074","name":"Rehna","type":"Amt"},"district":{"key":"13074","name":"Nordwestmecklenburg","type":"Landkreis"},"federalState":{"key":"13","name":"Mecklenburg-Vorpommern"}},{"key":"13074030","name":"Groß Stieten","type":"Kreisangehörige_Gemeinde","postalCode":"23972","multiplePostalCodes":false,"association":{"key":"13074","name":"Dorf Mecklenburg-Bad Kleinen","type":"Amt"},"district":{"key":"13074","name":"Nordwestmecklenburg","type":"Landkreis"},"federalState":{"key":"13","name":"Mecklenburg-Vorpommern"}},{"key":"13074031","name":"Hohen Viecheln","type":"Kreisangehörige_Gemeinde","postalCode":"23996","multiplePostalCodes":false,"association":{"key":"13074","name":"Dorf Mecklenburg-Bad Kleinen","type":"Amt"},"district":{"key":"13074","name":"Nordwestmecklenburg","type":"Landkreis"},"federalState":{"key":"13","name":"Mecklenburg-Vorpommern"}},{"key":"13074032","name":"Hohenkirchen","type":"Kreisangehörige_Gemeinde","postalCode":"23968","multiplePostalCodes":true,"association":{"key":"13074","name":"Klützer Winkel","type":"Amt"},"district":{"key":"13074","name":"Nordwestmecklenburg","type":"Landkreis"},"federalState":{"key":"13","name":"Mecklenburg-Vorpommern"}},{"key":"13074033","name":"Holdorf","type":"Kreisangehörige_Gemeinde","postalCode":"19217","multiplePostalCodes":true,"association":{"key":"13074","name":"Rehna","type":"Amt"},"district":{"key":"13074","name":"Nordwestmecklenburg","type":"Landkreis"},"federalState":{"key":"13","name":"Mecklenburg-Vorpommern"}},{"key":"13074034","name":"Hornstorf","type":"Kreisangehörige_Gemeinde","postalCode":"23974","multiplePostalCodes":true,"association":{"key":"13074","name":"Neuburg","type":"Amt"},"district":{"key":"13074","name":"Nordwestmecklenburg","type":"Landkreis"},"federalState":{"key":"13","name":"Mecklenburg-Vorpommern"}},{"key":"13074035","name":"Insel Poel, Ostseebad","type":"Kreisangehörige_Gemeinde","postalCode":"23999","multiplePostalCodes":false,"association":{"key":"13074","name":"Insel Poel, Ostseebad","type":"Verbandsfreie_Gemeinde"},"district":{"key":"13074","name":"Nordwestmecklenburg","type":"Landkreis"},"federalState":{"key":"13","name":"Mecklenburg-Vorpommern"}},{"key":"13074036","name":"Jesendorf","type":"Kreisangehörige_Gemeinde","postalCode":"19417","multiplePostalCodes":false,"association":{"key":"13074","name":"Neukloster-Warin","type":"Amt"},"district":{"key":"13074","name":"Nordwestmecklenburg","type":"Landkreis"},"federalState":{"key":"13","name":"Mecklenburg-Vorpommern"}},{"key":"13074037","name":"Kalkhorst","type":"Kreisangehörige_Gemeinde","postalCode":"23942","multiplePostalCodes":true,"association":{"key":"13074","name":"Klützer Winkel","type":"Amt"},"district":{"key":"13074","name":"Nordwestmecklenburg","type":"Landkreis"},"federalState":{"key":"13","name":"Mecklenburg-Vorpommern"}},{"key":"13074038","name":"Klein Trebbow","type":"Kreisangehörige_Gemeinde","postalCode":"19069","multiplePostalCodes":false,"association":{"key":"13074","name":"Lützow-Lübstorf","type":"Amt"},"district":{"key":"13074","name":"Nordwestmecklenburg","type":"Landkreis"},"federalState":{"key":"13","name":"Mecklenburg-Vorpommern"}},{"key":"13074039","name":"Klütz, Stadt","type":"Stadt","postalCode":"23948","multiplePostalCodes":true,"association":{"key":"13074","name":"Klützer Winkel","type":"Amt"},"district":{"key":"13074","name":"Nordwestmecklenburg","type":"Landkreis"},"federalState":{"key":"13","name":"Mecklenburg-Vorpommern"}},{"key":"13074040","name":"Kneese","type":"Kreisangehörige_Gemeinde","postalCode":"19205","multiplePostalCodes":false,"association":{"key":"13074","name":"Gadebusch","type":"Amt"},"district":{"key":"13074","name":"Nordwestmecklenburg","type":"Landkreis"},"federalState":{"key":"13","name":"Mecklenburg-Vorpommern"}},{"key":"13074042","name":"Königsfeld","type":"Kreisangehörige_Gemeinde","postalCode":"19217","multiplePostalCodes":false,"association":{"key":"13074","name":"Rehna","type":"Amt"},"district":{"key":"13074","name":"Nordwestmecklenburg","type":"Landkreis"},"federalState":{"key":"13","name":"Mecklenburg-Vorpommern"}},{"key":"13074043","name":"Krembz","type":"Kreisangehörige_Gemeinde","postalCode":"19205","multiplePostalCodes":false,"association":{"key":"13074","name":"Gadebusch","type":"Amt"},"district":{"key":"13074","name":"Nordwestmecklenburg","type":"Landkreis"},"federalState":{"key":"13","name":"Mecklenburg-Vorpommern"}},{"key":"13074044","name":"Krusenhagen","type":"Kreisangehörige_Gemeinde","postalCode":"23974","multiplePostalCodes":false,"association":{"key":"13074","name":"Neuburg","type":"Amt"},"district":{"key":"13074","name":"Nordwestmecklenburg","type":"Landkreis"},"federalState":{"key":"13","name":"Mecklenburg-Vorpommern"}},{"key":"13074046","name":"Lübberstorf","type":"Kreisangehörige_Gemeinde","postalCode":"23992","multiplePostalCodes":false,"association":{"key":"13074","name":"Neukloster-Warin","type":"Amt"},"district":{"key":"13074","name":"Nordwestmecklenburg","type":"Landkreis"},"federalState":{"key":"13","name":"Mecklenburg-Vorpommern"}},{"key":"13074047","name":"Lübow","type":"Kreisangehörige_Gemeinde","postalCode":"23972","multiplePostalCodes":false,"association":{"key":"13074","name":"Dorf Mecklenburg-Bad Kleinen","type":"Amt"},"district":{"key":"13074","name":"Nordwestmecklenburg","type":"Landkreis"},"federalState":{"key":"13","name":"Mecklenburg-Vorpommern"}},{"key":"13074048","name":"Lübstorf","type":"Kreisangehörige_Gemeinde","postalCode":"19069","multiplePostalCodes":false,"association":{"key":"13074","name":"Lützow-Lübstorf","type":"Amt"},"district":{"key":"13074","name":"Nordwestmecklenburg","type":"Landkreis"},"federalState":{"key":"13","name":"Mecklenburg-Vorpommern"}},{"key":"13074049","name":"Lüdersdorf","type":"Kreisangehörige_Gemeinde","postalCode":"23923","multiplePostalCodes":false,"association":{"key":"13074","name":"Schönberger Land","type":"Amt"},"district":{"key":"13074","name":"Nordwestmecklenburg","type":"Landkreis"},"federalState":{"key":"13","name":"Mecklenburg-Vorpommern"}},{"key":"13074050","name":"Lützow","type":"Kreisangehörige_Gemeinde","postalCode":"19209","multiplePostalCodes":false,"association":{"key":"13074","name":"Lützow-Lübstorf","type":"Amt"},"district":{"key":"13074","name":"Nordwestmecklenburg","type":"Landkreis"},"federalState":{"key":"13","name":"Mecklenburg-Vorpommern"}},{"key":"13074052","name":"Menzendorf","type":"Kreisangehörige_Gemeinde","postalCode":"23923","multiplePostalCodes":false,"association":{"key":"13074","name":"Schönberger Land","type":"Amt"},"district":{"key":"13074","name":"Nordwestmecklenburg","type":"Landkreis"},"federalState":{"key":"13","name":"Mecklenburg-Vorpommern"}},{"key":"13074053","name":"Metelsdorf","type":"Kreisangehörige_Gemeinde","postalCode":"23972","multiplePostalCodes":false,"association":{"key":"13074","name":"Dorf Mecklenburg-Bad Kleinen","type":"Amt"},"district":{"key":"13074","name":"Nordwestmecklenburg","type":"Landkreis"},"federalState":{"key":"13","name":"Mecklenburg-Vorpommern"}},{"key":"13074054","name":"Mühlen Eichsen","type":"Kreisangehörige_Gemeinde","postalCode":"19205","multiplePostalCodes":false,"association":{"key":"13074","name":"Gadebusch","type":"Amt"},"district":{"key":"13074","name":"Nordwestmecklenburg","type":"Landkreis"},"federalState":{"key":"13","name":"Mecklenburg-Vorpommern"}},{"key":"13074056","name":"Neuburg","type":"Kreisangehörige_Gemeinde","postalCode":"23974","multiplePostalCodes":false,"association":{"key":"13074","name":"Neuburg","type":"Amt"},"district":{"key":"13074","name":"Nordwestmecklenburg","type":"Landkreis"},"federalState":{"key":"13","name":"Mecklenburg-Vorpommern"}},{"key":"13074057","name":"Neukloster, Stadt","type":"Stadt","postalCode":"23992","multiplePostalCodes":false,"association":{"key":"13074","name":"Neukloster-Warin","type":"Amt"},"district":{"key":"13074","name":"Nordwestmecklenburg","type":"Landkreis"},"federalState":{"key":"13","name":"Mecklenburg-Vorpommern"}},{"key":"13074060","name":"Passee","type":"Kreisangehörige_Gemeinde","postalCode":"23992","multiplePostalCodes":false,"association":{"key":"13074","name":"Neukloster-Warin","type":"Amt"},"district":{"key":"13074","name":"Nordwestmecklenburg","type":"Landkreis"},"federalState":{"key":"13","name":"Mecklenburg-Vorpommern"}},{"key":"13074061","name":"Perlin","type":"Kreisangehörige_Gemeinde","postalCode":"19209","multiplePostalCodes":false,"association":{"key":"13074","name":"Lützow-Lübstorf","type":"Amt"},"district":{"key":"13074","name":"Nordwestmecklenburg","type":"Landkreis"},"federalState":{"key":"13","name":"Mecklenburg-Vorpommern"}},{"key":"13074062","name":"Pingelshagen","type":"Kreisangehörige_Gemeinde","postalCode":"19069","multiplePostalCodes":false,"association":{"key":"13074","name":"Lützow-Lübstorf","type":"Amt"},"district":{"key":"13074","name":"Nordwestmecklenburg","type":"Landkreis"},"federalState":{"key":"13","name":"Mecklenburg-Vorpommern"}},{"key":"13074064","name":"Pokrent","type":"Kreisangehörige_Gemeinde","postalCode":"19205","multiplePostalCodes":false,"association":{"key":"13074","name":"Lützow-Lübstorf","type":"Amt"},"district":{"key":"13074","name":"Nordwestmecklenburg","type":"Landkreis"},"federalState":{"key":"13","name":"Mecklenburg-Vorpommern"}},{"key":"13074065","name":"Rehna, Stadt","type":"Stadt","postalCode":"19217","multiplePostalCodes":false,"association":{"key":"13074","name":"Rehna","type":"Amt"},"district":{"key":"13074","name":"Nordwestmecklenburg","type":"Landkreis"},"federalState":{"key":"13","name":"Mecklenburg-Vorpommern"}},{"key":"13074066","name":"Rieps","type":"Kreisangehörige_Gemeinde","postalCode":"19217","multiplePostalCodes":false,"association":{"key":"13074","name":"Rehna","type":"Amt"},"district":{"key":"13074","name":"Nordwestmecklenburg","type":"Landkreis"},"federalState":{"key":"13","name":"Mecklenburg-Vorpommern"}},{"key":"13074067","name":"Roduchelstorf","type":"Kreisangehörige_Gemeinde","postalCode":"23923","multiplePostalCodes":false,"association":{"key":"13074","name":"Schönberger Land","type":"Amt"},"district":{"key":"13074","name":"Nordwestmecklenburg","type":"Landkreis"},"federalState":{"key":"13","name":"Mecklenburg-Vorpommern"}},{"key":"13074068","name":"Roggendorf","type":"Kreisangehörige_Gemeinde","postalCode":"19205","multiplePostalCodes":false,"association":{"key":"13074","name":"Gadebusch","type":"Amt"},"district":{"key":"13074","name":"Nordwestmecklenburg","type":"Landkreis"},"federalState":{"key":"13","name":"Mecklenburg-Vorpommern"}},{"key":"13074069","name":"Roggenstorf","type":"Kreisangehörige_Gemeinde","postalCode":"23936","multiplePostalCodes":false,"association":{"key":"13074","name":"Grevesmühlen-Land","type":"Amt"},"district":{"key":"13074","name":"Nordwestmecklenburg","type":"Landkreis"},"federalState":{"key":"13","name":"Mecklenburg-Vorpommern"}},{"key":"13074070","name":"Rögnitz","type":"Kreisangehörige_Gemeinde","postalCode":"19205","multiplePostalCodes":false,"association":{"key":"13074","name":"Gadebusch","type":"Amt"},"district":{"key":"13074","name":"Nordwestmecklenburg","type":"Landkreis"},"federalState":{"key":"13","name":"Mecklenburg-Vorpommern"}},{"key":"13074071","name":"Rüting","type":"Kreisangehörige_Gemeinde","postalCode":"23936","multiplePostalCodes":false,"association":{"key":"13074","name":"Grevesmühlen-Land","type":"Amt"},"district":{"key":"13074","name":"Nordwestmecklenburg","type":"Landkreis"},"federalState":{"key":"13","name":"Mecklenburg-Vorpommern"}},{"key":"13074072","name":"Schildetal","type":"Kreisangehörige_Gemeinde","postalCode":"19209","multiplePostalCodes":false,"association":{"key":"13074","name":"Lützow-Lübstorf","type":"Amt"},"district":{"key":"13074","name":"Nordwestmecklenburg","type":"Landkreis"},"federalState":{"key":"13","name":"Mecklenburg-Vorpommern"}},{"key":"13074073","name":"Schlagsdorf","type":"Kreisangehörige_Gemeinde","postalCode":"19217","multiplePostalCodes":false,"association":{"key":"13074","name":"Rehna","type":"Amt"},"district":{"key":"13074","name":"Nordwestmecklenburg","type":"Landkreis"},"federalState":{"key":"13","name":"Mecklenburg-Vorpommern"}},{"key":"13074074","name":"Schönberg, Stadt","type":"Stadt","postalCode":"23923","multiplePostalCodes":false,"association":{"key":"13074","name":"Schönberger Land","type":"Amt"},"district":{"key":"13074","name":"Nordwestmecklenburg","type":"Landkreis"},"federalState":{"key":"13","name":"Mecklenburg-Vorpommern"}},{"key":"13074075","name":"Seehof","type":"Kreisangehörige_Gemeinde","postalCode":"19069","multiplePostalCodes":false,"association":{"key":"13074","name":"Lützow-Lübstorf","type":"Amt"},"district":{"key":"13074","name":"Nordwestmecklenburg","type":"Landkreis"},"federalState":{"key":"13","name":"Mecklenburg-Vorpommern"}},{"key":"13074076","name":"Selmsdorf","type":"Kreisangehörige_Gemeinde","postalCode":"23923","multiplePostalCodes":false,"association":{"key":"13074","name":"Schönberger Land","type":"Amt"},"district":{"key":"13074","name":"Nordwestmecklenburg","type":"Landkreis"},"federalState":{"key":"13","name":"Mecklenburg-Vorpommern"}},{"key":"13074077","name":"Testorf-Steinfort","type":"Kreisangehörige_Gemeinde","postalCode":"23936","multiplePostalCodes":false,"association":{"key":"13074","name":"Grevesmühlen-Land","type":"Amt"},"district":{"key":"13074","name":"Nordwestmecklenburg","type":"Landkreis"},"federalState":{"key":"13","name":"Mecklenburg-Vorpommern"}},{"key":"13074078","name":"Thandorf","type":"Kreisangehörige_Gemeinde","postalCode":"19217","multiplePostalCodes":false,"association":{"key":"13074","name":"Rehna","type":"Amt"},"district":{"key":"13074","name":"Nordwestmecklenburg","type":"Landkreis"},"federalState":{"key":"13","name":"Mecklenburg-Vorpommern"}},{"key":"13074079","name":"Upahl","type":"Kreisangehörige_Gemeinde","postalCode":"23936","multiplePostalCodes":false,"association":{"key":"13074","name":"Grevesmühlen-Land","type":"Amt"},"district":{"key":"13074","name":"Nordwestmecklenburg","type":"Landkreis"},"federalState":{"key":"13","name":"Mecklenburg-Vorpommern"}},{"key":"13074080","name":"Utecht","type":"Kreisangehörige_Gemeinde","postalCode":"19217","multiplePostalCodes":false,"association":{"key":"13074","name":"Rehna","type":"Amt"},"district":{"key":"13074","name":"Nordwestmecklenburg","type":"Landkreis"},"federalState":{"key":"13","name":"Mecklenburg-Vorpommern"}},{"key":"13074081","name":"Veelböken","type":"Kreisangehörige_Gemeinde","postalCode":"19205","multiplePostalCodes":false,"association":{"key":"13074","name":"Gadebusch","type":"Amt"},"district":{"key":"13074","name":"Nordwestmecklenburg","type":"Landkreis"},"federalState":{"key":"13","name":"Mecklenburg-Vorpommern"}},{"key":"13074082","name":"Ventschow","type":"Kreisangehörige_Gemeinde","postalCode":"19417","multiplePostalCodes":false,"association":{"key":"13074","name":"Dorf Mecklenburg-Bad Kleinen","type":"Amt"},"district":{"key":"13074","name":"Nordwestmecklenburg","type":"Landkreis"},"federalState":{"key":"13","name":"Mecklenburg-Vorpommern"}},{"key":"13074084","name":"Warin, Stadt","type":"Stadt","postalCode":"19417","multiplePostalCodes":false,"association":{"key":"13074","name":"Neukloster-Warin","type":"Amt"},"district":{"key":"13074","name":"Nordwestmecklenburg","type":"Landkreis"},"federalState":{"key":"13","name":"Mecklenburg-Vorpommern"}},{"key":"13074085","name":"Warnow","type":"Kreisangehörige_Gemeinde","postalCode":"23936","multiplePostalCodes":true,"association":{"key":"13074","name":"Grevesmühlen-Land","type":"Amt"},"district":{"key":"13074","name":"Nordwestmecklenburg","type":"Landkreis"},"federalState":{"key":"13","name":"Mecklenburg-Vorpommern"}},{"key":"13074087","name":"Wismar, Hansestadt","type":"Stadt","postalCode":"23966","multiplePostalCodes":true,"association":{"key":"13074","name":"Wismar, Hansestadt","type":"Verbandsfreie_Gemeinde"},"district":{"key":"13074","name":"Nordwestmecklenburg","type":"Landkreis"},"federalState":{"key":"13","name":"Mecklenburg-Vorpommern"}},{"key":"13074088","name":"Zickhusen","type":"Kreisangehörige_Gemeinde","postalCode":"19069","multiplePostalCodes":false,"association":{"key":"13074","name":"Lützow-Lübstorf","type":"Amt"},"district":{"key":"13074","name":"Nordwestmecklenburg","type":"Landkreis"},"federalState":{"key":"13","name":"Mecklenburg-Vorpommern"}},{"key":"13074089","name":"Zierow","type":"Kreisangehörige_Gemeinde","postalCode":"23968","multiplePostalCodes":false,"association":{"key":"13074","name":"Klützer Winkel","type":"Amt"},"district":{"key":"13074","name":"Nordwestmecklenburg","type":"Landkreis"},"federalState":{"key":"13","name":"Mecklenburg-Vorpommern"}},{"key":"13074090","name":"Zurow","type":"Kreisangehörige_Gemeinde","postalCode":"23992","multiplePostalCodes":false,"association":{"key":"13074","name":"Neukloster-Warin","type":"Amt"},"district":{"key":"13074","name":"Nordwestmecklenburg","type":"Landkreis"},"federalState":{"key":"13","name":"Mecklenburg-Vorpommern"}},{"key":"13074091","name":"Züsow","type":"Kreisangehörige_Gemeinde","postalCode":"23992","multiplePostalCodes":false,"association":{"key":"13074","name":"Neukloster-Warin","type":"Amt"},"district":{"key":"13074","name":"Nordwestmecklenburg","type":"Landkreis"},"federalState":{"key":"13","name":"Mecklenburg-Vorpommern"}},{"key":"13074092","name":"Wedendorfersee","type":"Kreisangehörige_Gemeinde","postalCode":"19217","multiplePostalCodes":false,"association":{"key":"13074","name":"Rehna","type":"Amt"},"district":{"key":"13074","name":"Nordwestmecklenburg","type":"Landkreis"},"federalState":{"key":"13","name":"Mecklenburg-Vorpommern"}},{"key":"13074093","name":"Stepenitztal","type":"Kreisangehörige_Gemeinde","postalCode":"23936","multiplePostalCodes":false,"association":{"key":"13074","name":"Grevesmühlen-Land","type":"Amt"},"district":{"key":"13074","name":"Nordwestmecklenburg","type":"Landkreis"},"federalState":{"key":"13","name":"Mecklenburg-Vorpommern"}},{"key":"13074094","name":"Siemz-Niendorf","type":"Kreisangehörige_Gemeinde","postalCode":"23923","multiplePostalCodes":false,"association":{"key":"13074","name":"Schönberger Land","type":"Amt"},"district":{"key":"13074","name":"Nordwestmecklenburg","type":"Landkreis"},"federalState":{"key":"13","name":"Mecklenburg-Vorpommern"}}]