[{"key":"10016901","name":"Avenue de la Gare","postalCode":"1630","locality":"Bulle","commune":{"key":"2125","name":"Bulle","shortName":"Bulle"},"district":{"key":"1003","name":"District de la Gruyère"},"canton":{"key":"10","code":"FR","name":"Fribourg / Freiburg"},"status":"Real"},{"key":"10122831","name":"Bas-de-la-Fin","postalCode":"1453","locality":"Bullet","commune":{"key":"5552","name":"Bullet","shortName":"Bullet"},"district":{"key":"2224","name":"District du Jura-Nord vaudois"},"canton":{"key":"22","code":"VD","name":"Vaud"},"status":"Real"},{"key":"10253373","name":"Belle Joux","postalCode":"1630","locality":"Bulle","commune":{"key":"2125","name":"Bulle","shortName":"Bulle"},"district":{"key":"1003","name":"District de la Gruyère"},"canton":{"key":"10","code":"FR","name":"Fribourg / Freiburg"},"status":"Real"},{"key":"10181051","name":"Chemin de Biffé","postalCode":"1630","locality":"Bulle","commune":{"key":"2125","name":"Bulle","shortName":"Bulle"},"district":{"key":"1003","name":"District de la Gruyère"},"canton":{"key":"10","code":"FR","name":"Fribourg / Freiburg"},"status":"Real"},{"key":"10122952","name":"Chemin de Bouleyres","postalCode":"1630","locality":"Bulle","commune":{"key":"2125","name":"Bulle","shortName":"Bulle"},"district":{"key":"1003","name":"District de la Gruyère"},"canton":{"key":"10","code":"FR","name":"Fribourg / Freiburg"},"status":"Real"},{"key":"10144901","name":"Chemin de Câtillon","postalCode":"1630","locality":"Bulle","commune":{"key":"2125","name":"Bulle","shortName":"Bulle"},"district":{"key":"1003","name":"District de la Gruyère"},"canton":{"key":"10","code":"FR","name":"Fribourg / Freiburg"},"status":"Real"},{"key":"10016905","name":"Chemin de Chalamala","postalCode":"1630","locality":"Bulle","commune":{"key":"2125","name":"Bulle","shortName":"Bulle"},"district":{"key":"1003","name":"District de la Gruyère"},"canton":{"key":"10","code":"FR","name":"Fribourg / Freiburg"},"status":"Real"},{"key":"10104331","name":"Chemin de Champ-Francey","postalCode":"1630","locality":"Bulle","commune":{"key":"2125","name":"Bulle","shortName":"Bulle"},"district":{"key":"1003","name":"District de la Gruyère"},"canton":{"key":"10","code":"FR","name":"Fribourg / Freiburg"},"status":"Real"},{"key":"10016906","name":"Chemin de Clos-Regots","postalCode":"1630","locality":"Bulle","commune":{"key":"2125","name":"Bulle","shortName":"Bulle"},"district":{"key":"1003","name":"District de la Gruyère"},"canton":{"key":"10","code":"FR","name":"Fribourg / Freiburg"},"status":"Real"},{"key":"10120570","name":"Chemin de Croix-Blanche","postalCode":"1630","locality":"Bulle","commune":{"key":"2125","name":"Bulle","shortName":"Bulle"},"district":{"key":"1003","name":"District de la Gruyère"},"canton":{"key":"10","code":"FR","name":"Fribourg / Freiburg"},"status":"Real"},{"key":"10089276","name":"Chemin de Cuquerens","postalCode":"1630","locality":"Bulle","commune":{"key":"2125","name":"Bulle","shortName":"Bulle"},"district":{"key":"1003","name":"District de la Gruyère"},"canton":{"key":"10","code":"FR","name":"Fribourg / Freiburg"},"status":"Real"},{"key":"10206508","name":"Chemin de Folliéran","postalCode":"1630","locality":"Bulle","commune":{"key":"2125","name":"Bulle","shortName":"Bulle"},"district":{"key":"1003","name":"District de la Gruyère"},"canton":{"key":"10","code":"FR","name":"Fribourg / Freiburg"},"status":"Real"},{"key":"10145839","name":"Chemin de Fontanette","postalCode":"1630","locality":"Bulle","commune":{"key":"2125","name":"Bulle","shortName":"Bulle"},"district":{"key":"1003","name":"District de la Gruyère"},"canton":{"key":"10","code":"FR","name":"Fribourg / Freiburg"},"status":"Real"},{"key":"10016907","name":"Chemin de Halage","postalCode":"1630","locality":"Bulle","commune":{"key":"2125","name":"Bulle","shortName":"Bulle"},"district":{"key":"1003","name":"District de la Gruyère"},"canton":{"key":"10","code":"FR","name":"Fribourg / Freiburg"},"status":"Real"},{"key":"10089278","name":"Chemin de l'Abbé-Maignon","postalCode":"1630","locality":"Bulle","commune":{"key":"2125","name":"Bulle","shortName":"Bulle"},"district":{"key":"1003","name":"District de la Gruyère"},"canton":{"key":"10","code":"FR","name":"Fribourg / Freiburg"},"status":"Real"},{"key":"10120363","name":"Chemin de la Belle-Luce","postalCode":"1630","locality":"Bulle","commune":{"key":"2125","name":"Bulle","shortName":"Bulle"},"district":{"key":"1003","name":"District de la Gruyère"},"canton":{"key":"10","code":"FR","name":"Fribourg / Freiburg"},"status":"Real"},{"key":"10016910","name":"Chemin de la Buchille","postalCode":"1630","locality":"Bulle","commune":{"key":"2125","name":"Bulle","shortName":"Bulle"},"district":{"key":"1003","name":"District de la Gruyère"},"canton":{"key":"10","code":"FR","name":"Fribourg / Freiburg"},"status":"Real"},{"key":"10145705","name":"Chemin de la Corna","postalCode":"1630","locality":"Bulle","commune":{"key":"2125","name":"Bulle","shortName":"Bulle"},"district":{"key":"1003","name":"District de la Gruyère"},"canton":{"key":"10","code":"FR","name":"Fribourg / Freiburg"},"status":"Real"},{"key":"10100370","name":"Chemin de la Crochère","postalCode":"1453","locality":"Bullet","commune":{"key":"5552","name":"Bullet","shortName":"Bullet"},"district":{"key":"2224","name":"District du Jura-Nord vaudois"},"canton":{"key":"22","code":"VD","name":"Vaud"},"status":"Real"},{"key":"10079786","name":"Chemin de la Dérupe","postalCode":"1453","locality":"Bullet","commune":{"key":"5552","name":"Bullet","shortName":"Bullet"},"district":{"key":"2224","name":"District du Jura-Nord vaudois"},"canton":{"key":"22","code":"VD","name":"Vaud"},"status":"Real"},{"key":"10127328","name":"Chemin de la Dôle","postalCode":"1453","locality":"Bullet","commune":{"key":"5552","name":"Bullet","shortName":"Bullet"},"district":{"key":"2224","name":"District du Jura-Nord vaudois"},"canton":{"key":"22","code":"VD","name":"Vaud"},"status":"Real"},{"key":"10055669","name":"Chemin de la Grande-Gîte","postalCode":"1630","locality":"Bulle","commune":{"key":"2125","name":"Bulle","shortName":"Bulle"},"district":{"key":"1003","name":"District de la Gruyère"},"canton":{"key":"10","code":"FR","name":"Fribourg / Freiburg"},"status":"Real"},{"key":"10016911","name":"Chemin de la Monse","postalCode":"1630","locality":"Bulle","commune":{"key":"2125","name":"Bulle","shortName":"Bulle"},"district":{"key":"1003","name":"District de la Gruyère"},"canton":{"key":"10","code":"FR","name":"Fribourg / Freiburg"},"status":"Real"},{"key":"10089279","name":"Chemin de la Pépinière","postalCode":"1630","locality":"Bulle","commune":{"key":"2125","name":"Bulle","shortName":"Bulle"},"district":{"key":"1003","name":"District de la Gruyère"},"canton":{"key":"10","code":"FR","name":"Fribourg / Freiburg"},"status":"Real"},{"key":"10145843","name":"Chemin de la Poya","postalCode":"1630","locality":"Bulle","commune":{"key":"2125","name":"Bulle","shortName":"Bulle"},"district":{"key":"1003","name":"District de la Gruyère"},"canton":{"key":"10","code":"FR","name":"Fribourg / Freiburg"},"status":"Real"},{"key":"10068208","name":"Chemin de la Réche","postalCode":"1630","locality":"Bulle","commune":{"key":"2125","name":"Bulle","shortName":"Bulle"},"district":{"key":"1003","name":"District de la Gruyère"},"canton":{"key":"10","code":"FR","name":"Fribourg / Freiburg"},"status":"Real"},{"key":"10143429","name":"Chemin de l'Areney","postalCode":"1630","locality":"Bulle","commune":{"key":"2125","name":"Bulle","shortName":"Bulle"},"district":{"key":"1003","name":"District de la Gruyère"},"canton":{"key":"10","code":"FR","name":"Fribourg / Freiburg"},"status":"Real"},{"key":"10161555","name":"Chemin de l'Aurore","postalCode":"1630","locality":"Bulle","commune":{"key":"2125","name":"Bulle","shortName":"Bulle"},"district":{"key":"1003","name":"District de la Gruyère"},"canton":{"key":"10","code":"FR","name":"Fribourg / Freiburg"},"status":"Real"},{"key":"10211371","name":"Chemin de l'Etoile Polaire","postalCode":"1453","locality":"Bullet","commune":{"key":"5552","name":"Bullet","shortName":"Bullet"},"district":{"key":"2224","name":"District du Jura-Nord vaudois"},"canton":{"key":"22","code":"VD","name":"Vaud"},"status":"Real"},{"key":"10016908","name":"Chemin de Longeraye","postalCode":"1630","locality":"Bulle","commune":{"key":"2125","name":"Bulle","shortName":"Bulle"},"district":{"key":"1003","name":"District de la Gruyère"},"canton":{"key":"10","code":"FR","name":"Fribourg / Freiburg"},"status":"Real"},{"key":"10089277","name":"Chemin de Montcalia","postalCode":"1630","locality":"Bulle","commune":{"key":"2125","name":"Bulle","shortName":"Bulle"},"district":{"key":"1003","name":"District de la Gruyère"},"canton":{"key":"10","code":"FR","name":"Fribourg / Freiburg"},"status":"Real"},{"key":"10161554","name":"Chemin de Plaisance","postalCode":"1630","locality":"Bulle","commune":{"key":"2125","name":"Bulle","shortName":"Bulle"},"district":{"key":"1003","name":"District de la Gruyère"},"canton":{"key":"10","code":"FR","name":"Fribourg / Freiburg"},"status":"Real"},{"key":"10178688","name":"Chemin de Planchy","postalCode":"1630","locality":"Bulle","commune":{"key":"2125","name":"Bulle","shortName":"Bulle"},"district":{"key":"1003","name":"District de la Gruyère"},"canton":{"key":"10","code":"FR","name":"Fribourg / Freiburg"},"status":"Real"},{"key":"10156854","name":"Chemin de Pré-Vert","postalCode":"1630","locality":"Bulle","commune":{"key":"2125","name":"Bulle","shortName":"Bulle"},"district":{"key":"1003","name":"District de la Gruyère"},"canton":{"key":"10","code":"FR","name":"Fribourg / Freiburg"},"status":"Real"},{"key":"10181331","name":"Chemin des Abattoirs","postalCode":"1630","locality":"Bulle","commune":{"key":"2125","name":"Bulle","shortName":"Bulle"},"district":{"key":"1003","name":"District de la Gruyère"},"canton":{"key":"10","code":"FR","name":"Fribourg / Freiburg"},"status":"Real"},{"key":"10144900","name":"Chemin des Armaillis","postalCode":"1630","locality":"Bulle","commune":{"key":"2125","name":"Bulle","shortName":"Bulle"},"district":{"key":"1003","name":"District de la Gruyère"},"canton":{"key":"10","code":"FR","name":"Fribourg / Freiburg"},"status":"Real"},{"key":"10055670","name":"Chemin des Artisans","postalCode":"1630","locality":"Bulle","commune":{"key":"2125","name":"Bulle","shortName":"Bulle"},"district":{"key":"1003","name":"District de la Gruyère"},"canton":{"key":"10","code":"FR","name":"Fribourg / Freiburg"},"status":"Real"},{"key":"10158921","name":"Chemin des Aubépines","postalCode":"1630","locality":"Bulle","commune":{"key":"2125","name":"Bulle","shortName":"Bulle"},"district":{"key":"1003","name":"District de la Gruyère"},"canton":{"key":"10","code":"FR","name":"Fribourg / Freiburg"},"status":"Real"},{"key":"10068207","name":"Chemin de Saucens","postalCode":"1630","locality":"Bulle","commune":{"key":"2125","name":"Bulle","shortName":"Bulle"},"district":{"key":"1003","name":"District de la Gruyère"},"canton":{"key":"10","code":"FR","name":"Fribourg / Freiburg"},"status":"Real"},{"key":"10163172","name":"Chemin des Campanules","postalCode":"1630","locality":"Bulle","commune":{"key":"2125","name":"Bulle","shortName":"Bulle"},"district":{"key":"1003","name":"District de la Gruyère"},"canton":{"key":"10","code":"FR","name":"Fribourg / Freiburg"},"status":"Real"},{"key":"10167409","name":"Chemin des Celtes","postalCode":"1630","locality":"Bulle","commune":{"key":"2125","name":"Bulle","shortName":"Bulle"},"district":{"key":"1003","name":"District de la Gruyère"},"canton":{"key":"10","code":"FR","name":"Fribourg / Freiburg"},"status":"Real"},{"key":"10168439","name":"Chemin des Cerisiers","postalCode":"1630","locality":"Bulle","commune":{"key":"2125","name":"Bulle","shortName":"Bulle"},"district":{"key":"1003","name":"District de la Gruyère"},"canton":{"key":"10","code":"FR","name":"Fribourg / Freiburg"},"status":"Real"},{"key":"10191531","name":"Chemin des Charmilles","postalCode":"1630","locality":"Bulle","commune":{"key":"2125","name":"Bulle","shortName":"Bulle"},"district":{"key":"1003","name":"District de la Gruyère"},"canton":{"key":"10","code":"FR","name":"Fribourg / Freiburg"},"status":"Real"},{"key":"10147762","name":"Chemin des Châtaigniers","postalCode":"1630","locality":"Bulle","commune":{"key":"2125","name":"Bulle","shortName":"Bulle"},"district":{"key":"1003","name":"District de la Gruyère"},"canton":{"key":"10","code":"FR","name":"Fribourg / Freiburg"},"status":"Real"},{"key":"10016913","name":"Chemin des Chenevières","postalCode":"1630","locality":"Bulle","commune":{"key":"2125","name":"Bulle","shortName":"Bulle"},"district":{"key":"1003","name":"District de la Gruyère"},"canton":{"key":"10","code":"FR","name":"Fribourg / Freiburg"},"status":"Real"},{"key":"10122064","name":"Chemin des Citards","postalCode":"1630","locality":"Bulle","commune":{"key":"2125","name":"Bulle","shortName":"Bulle"},"district":{"key":"1003","name":"District de la Gruyère"},"canton":{"key":"10","code":"FR","name":"Fribourg / Freiburg"},"status":"Real"},{"key":"10253408","name":"Chemin des Citards","postalCode":"1630","locality":"Bulle","commune":{"key":"2125","name":"Bulle","shortName":"Bulle"},"district":{"key":"1003","name":"District de la Gruyère"},"canton":{"key":"10","code":"FR","name":"Fribourg / Freiburg"},"status":"Real"},{"key":"10016914","name":"Chemin des Combes","postalCode":"1630","locality":"Bulle","commune":{"key":"2125","name":"Bulle","shortName":"Bulle"},"district":{"key":"1003","name":"District de la Gruyère"},"canton":{"key":"10","code":"FR","name":"Fribourg / Freiburg"},"status":"Real"},{"key":"10102535","name":"Chemin des Coquilles","postalCode":"1630","locality":"Bulle","commune":{"key":"2125","name":"Bulle","shortName":"Bulle"},"district":{"key":"1003","name":"District de la Gruyère"},"canton":{"key":"10","code":"FR","name":"Fribourg / Freiburg"},"status":"Real"},{"key":"10151644","name":"Chemin des Cours","postalCode":"1630","locality":"Bulle","commune":{"key":"2125","name":"Bulle","shortName":"Bulle"},"district":{"key":"1003","name":"District de la Gruyère"},"canton":{"key":"10","code":"FR","name":"Fribourg / Freiburg"},"status":"Real"},{"key":"10089280","name":"Chemin des Crêts","postalCode":"1630","locality":"Bulle","commune":{"key":"2125","name":"Bulle","shortName":"Bulle"},"district":{"key":"1003","name":"District de la Gruyère"},"canton":{"key":"10","code":"FR","name":"Fribourg / Freiburg"},"status":"Real"},{"key":"10100373","name":"Chemin des Crosats","postalCode":"1453","locality":"Bullet","commune":{"key":"5552","name":"Bullet","shortName":"Bullet"},"district":{"key":"2224","name":"District du Jura-Nord vaudois"},"canton":{"key":"22","code":"VD","name":"Vaud"},"status":"Real"},{"key":"10102813","name":"Chemin des Monts","postalCode":"1630","locality":"Bulle","commune":{"key":"2125","name":"Bulle","shortName":"Bulle"},"district":{"key":"1003","name":"District de la Gruyère"},"canton":{"key":"10","code":"FR","name":"Fribourg / Freiburg"},"status":"Real"},{"key":"10118447","name":"Grande Charrière","postalCode":"1453","locality":"Bullet","commune":{"key":"5552","name":"Bullet","shortName":"Bullet"},"district":{"key":"2224","name":"District du Jura-Nord vaudois"},"canton":{"key":"22","code":"VD","name":"Vaud"},"status":"Real"},{"key":"10016920","name":"Grand-Rue","postalCode":"1630","locality":"Bulle","commune":{"key":"2125","name":"Bulle","shortName":"Bulle"},"district":{"key":"1003","name":"District de la Gruyère"},"canton":{"key":"10","code":"FR","name":"Fribourg / Freiburg"},"status":"Real"},{"key":"10253982","name":"Joux Derrière","postalCode":"1630","locality":"Bulle","commune":{"key":"2125","name":"Bulle","shortName":"Bulle"},"district":{"key":"1003","name":"District de la Gruyère"},"canton":{"key":"10","code":"FR","name":"Fribourg / Freiburg"},"status":"Real"},{"key":"10253422","name":"Joux-Derrières-d'Amont","postalCode":"1630","locality":"Bulle","commune":{"key":"2125","name":"Bulle","shortName":"Bulle"},"district":{"key":"1003","name":"District de la Gruyère"},"canton":{"key":"10","code":"FR","name":"Fribourg / Freiburg"},"status":"Real"},{"key":"10146070","name":"Joux-Derrières-d'Avau","postalCode":"1630","locality":"Bulle","commune":{"key":"2125","name":"Bulle","shortName":"Bulle"},"district":{"key":"1003","name":"District de la Gruyère"},"canton":{"key":"10","code":"FR","name":"Fribourg / Freiburg"},"status":"Real"},{"key":"10252733","name":"La Benda","postalCode":"1630","locality":"Bulle","commune":{"key":"2125","name":"Bulle","shortName":"Bulle"},"district":{"key":"1003","name":"District de la Gruyère"},"canton":{"key":"10","code":"FR","name":"Fribourg / Freiburg"},"status":"Real"},{"key":"10100372","name":"La Bullatonne-Dessous","postalCode":"1453","locality":"Bullet","commune":{"key":"5552","name":"Bullet","shortName":"Bullet"},"district":{"key":"2224","name":"District du Jura-Nord vaudois"},"canton":{"key":"22","code":"VD","name":"Vaud"},"status":"Real"},{"key":"10044623","name":"La Bullatonne-Dessus","postalCode":"1453","locality":"Bullet","commune":{"key":"5552","name":"Bullet","shortName":"Bullet"},"district":{"key":"2224","name":"District du Jura-Nord vaudois"},"canton":{"key":"22","code":"VD","name":"Vaud"},"status":"Real"},{"key":"10041530","name":"La Cruchaude","postalCode":"1453","locality":"Bullet","commune":{"key":"5552","name":"Bullet","shortName":"Bullet"},"district":{"key":"2224","name":"District du Jura-Nord vaudois"},"canton":{"key":"22","code":"VD","name":"Vaud"},"status":"Real"},{"key":"10079789","name":"La Frêtaz","postalCode":"1453","locality":"Bullet","commune":{"key":"5552","name":"Bullet","shortName":"Bullet"},"district":{"key":"2224","name":"District du Jura-Nord vaudois"},"canton":{"key":"22","code":"VD","name":"Vaud"},"status":"Real"},{"key":"10208391","name":"La Grandsonne Dessous","postalCode":"1453","locality":"Bullet","commune":{"key":"5552","name":"Bullet","shortName":"Bullet"},"district":{"key":"2224","name":"District du Jura-Nord vaudois"},"canton":{"key":"22","code":"VD","name":"Vaud"},"status":"Real"},{"key":"10247440","name":"La Grandsonne Dessus","postalCode":"1453","locality":"Bullet","commune":{"key":"5552","name":"Bullet","shortName":"Bullet"},"district":{"key":"2224","name":"District du Jura-Nord vaudois"},"canton":{"key":"22","code":"VD","name":"Vaud"},"status":"Real"},{"key":"10252800","name":"La Mossetta","postalCode":"1630","locality":"Bulle","commune":{"key":"2125","name":"Bulle","shortName":"Bulle"},"district":{"key":"1003","name":"District de la Gruyère"},"canton":{"key":"10","code":"FR","name":"Fribourg / Freiburg"},"status":"Real"},{"key":"10016921","name":"La Rieta","postalCode":"1630","locality":"Bulle","commune":{"key":"2125","name":"Bulle","shortName":"Bulle"},"district":{"key":"1003","name":"District de la Gruyère"},"canton":{"key":"10","code":"FR","name":"Fribourg / Freiburg"},"status":"Real"},{"key":"10103432","name":"Les Cernets-Dessus","postalCode":"1453","locality":"Bullet","commune":{"key":"5552","name":"Bullet","shortName":"Bullet"},"district":{"key":"2224","name":"District du Jura-Nord vaudois"},"canton":{"key":"22","code":"VD","name":"Vaud"},"status":"Real"},{"key":"10041533","name":"Les Cluds","postalCode":"1453","locality":"Bullet","commune":{"key":"5552","name":"Bullet","shortName":"Bullet"},"district":{"key":"2224","name":"District du Jura-Nord vaudois"},"canton":{"key":"22","code":"VD","name":"Vaud"},"status":"Real"},{"key":"10041534","name":"Les Granges-Champod","postalCode":"1453","locality":"Bullet","commune":{"key":"5552","name":"Bullet","shortName":"Bullet"},"district":{"key":"2224","name":"District du Jura-Nord vaudois"},"canton":{"key":"22","code":"VD","name":"Vaud"},"status":"Real"},{"key":"10059166","name":"Les Illards","postalCode":"1453","locality":"Bullet","commune":{"key":"5552","name":"Bullet","shortName":"Bullet"},"district":{"key":"2224","name":"District du Jura-Nord vaudois"},"canton":{"key":"22","code":"VD","name":"Vaud"},"status":"Real"},{"key":"10100374","name":"Les Pequeux","postalCode":"1453","locality":"Bullet","commune":{"key":"5552","name":"Bullet","shortName":"Bullet"},"district":{"key":"2224","name":"District du Jura-Nord vaudois"},"canton":{"key":"22","code":"VD","name":"Vaud"},"status":"Real"},{"key":"10253776","name":"Les Portes d'en Haut","postalCode":"1630","locality":"Bulle","commune":{"key":"2125","name":"Bulle","shortName":"Bulle"},"district":{"key":"1003","name":"District de la Gruyère"},"canton":{"key":"10","code":"FR","name":"Fribourg / Freiburg"},"status":"Real"},{"key":"10184938","name":"Les Preisettes","postalCode":"1453","locality":"Bullet","commune":{"key":"5552","name":"Bullet","shortName":"Bullet"},"district":{"key":"2224","name":"District du Jura-Nord vaudois"},"canton":{"key":"22","code":"VD","name":"Vaud"},"status":"Real"},{"key":"10107973","name":"Les Tempêteries","postalCode":"1453","locality":"Bullet","commune":{"key":"5552","name":"Bullet","shortName":"Bullet"},"district":{"key":"2224","name":"District du Jura-Nord vaudois"},"canton":{"key":"22","code":"VD","name":"Vaud"},"status":"Real"},{"key":"10041536","name":"Petite Charrière","postalCode":"1453","locality":"Bullet","commune":{"key":"5552","name":"Bullet","shortName":"Bullet"},"district":{"key":"2224","name":"District du Jura-Nord vaudois"},"canton":{"key":"22","code":"VD","name":"Vaud"},"status":"Real"},{"key":"10058614","name":"Place de la Gare","postalCode":"1630","locality":"Bulle","commune":{"key":"2125","name":"Bulle","shortName":"Bulle"},"district":{"key":"1003","name":"District de la Gruyère"},"canton":{"key":"10","code":"FR","name":"Fribourg / Freiburg"},"status":"Real"},{"key":"10102536","name":"Place des Alpes","postalCode":"1630","locality":"Bulle","commune":{"key":"2125","name":"Bulle","shortName":"Bulle"},"district":{"key":"1003","name":"District de la Gruyère"},"canton":{"key":"10","code":"FR","name":"Fribourg / Freiburg"},"status":"Real"},{"key":"10118056","name":"Place du Tilleul","postalCode":"1630","locality":"Bulle","commune":{"key":"2125","name":"Bulle","shortName":"Bulle"},"district":{"key":"1003","name":"District de la Gruyère"},"canton":{"key":"10","code":"FR","name":"Fribourg / Freiburg"},"status":"Real"},{"key":"10252698","name":"Poil-de-Chien","postalCode":"1630","locality":"Bulle","commune":{"key":"2125","name":"Bulle","shortName":"Bulle"},"district":{"key":"1003","name":"District de la Gruyère"},"canton":{"key":"10","code":"FR","name":"Fribourg / Freiburg"},"status":"Real"},{"key":"10016922","name":"Promenade de la Trême","postalCode":"1630","locality":"Bulle","commune":{"key":"2125","name":"Bulle","shortName":"Bulle"},"district":{"key":"1003","name":"District de la Gruyère"},"canton":{"key":"10","code":"FR","name":"Fribourg / Freiburg"},"status":"Real"},{"key":"10158928","name":"Route de Fribourg","postalCode":"1630","locality":"Bulle","commune":{"key":"2125","name":"Bulle","shortName":"Bulle"},"district":{"key":"1003","name":"District de la Gruyère"},"canton":{"key":"10","code":"FR","name":"Fribourg / Freiburg"},"status":"Real"},{"key":"10068210","name":"Route de la Pâla","postalCode":"1630","locality":"Bulle","commune":{"key":"2125","name":"Bulle","shortName":"Bulle"},"district":{"key":"1003","name":"District de la Gruyère"},"canton":{"key":"10","code":"FR","name":"Fribourg / Freiburg"},"status":"Real"},{"key":"10151978","name":"Route de la Part-Dieu","postalCode":"1630","locality":"Bulle","commune":{"key":"2125","name":"Bulle","shortName":"Bulle"},"district":{"key":"1003","name":"District de la Gruyère"},"canton":{"key":"10","code":"FR","name":"Fribourg / Freiburg"},"status":"Real"},{"key":"10016924","name":"Route de la Part-Dieu","postalCode":"1630","locality":"Bulle","commune":{"key":"2125","name":"Bulle","shortName":"Bulle"},"district":{"key":"1003","name":"District de la Gruyère"},"canton":{"key":"10","code":"FR","name":"Fribourg / Freiburg"},"status":"Real"},{"key":"10122121","name":"Route de Mauborget","postalCode":"1453","locality":"Bullet","commune":{"key":"5552","name":"Bullet","shortName":"Bullet"},"district":{"key":"2224","name":"District du Jura-Nord vaudois"},"canton":{"key":"22","code":"VD","name":"Vaud"},"status":"Real"},{"key":"10089284","name":"Route de Morlon","postalCode":"1630","locality":"Bulle","commune":{"key":"2125","name":"Bulle","shortName":"Bulle"},"district":{"key":"1003","name":"District de la Gruyère"},"canton":{"key":"10","code":"FR","name":"Fribourg / Freiburg"},"status":"Real"},{"key":"10016923","name":"Route de Riaz","postalCode":"1630","locality":"Bulle","commune":{"key":"2125","name":"Bulle","shortName":"Bulle"},"district":{"key":"1003","name":"District de la Gruyère"},"canton":{"key":"10","code":"FR","name":"Fribourg / Freiburg"},"status":"Real"},{"key":"10079791","name":"Route de Sainte-Croix","postalCode":"1453","locality":"Bullet","commune":{"key":"5552","name":"Bullet","shortName":"Bullet"},"district":{"key":"2224","name":"District du Jura-Nord vaudois"},"canton":{"key":"22","code":"VD","name":"Vaud"},"status":"Real"},{"key":"10100369","name":"Route des Alpes","postalCode":"1453","locality":"Bullet","commune":{"key":"5552","name":"Bullet","shortName":"Bullet"},"district":{"key":"2224","name":"District du Jura-Nord vaudois"},"canton":{"key":"22","code":"VD","name":"Vaud"},"status":"Real"},{"key":"10100376","name":"Route du Château","postalCode":"1453","locality":"Bullet","commune":{"key":"5552","name":"Bullet","shortName":"Bullet"},"district":{"key":"2224","name":"District du Jura-Nord vaudois"},"canton":{"key":"22","code":"VD","name":"Vaud"},"status":"Real"},{"key":"10089285","name":"Route du Verdel","postalCode":"1630","locality":"Bulle","commune":{"key":"2125","name":"Bulle","shortName":"Bulle"},"district":{"key":"1003","name":"District de la Gruyère"},"canton":{"key":"10","code":"FR","name":"Fribourg / Freiburg"},"status":"Real"},{"key":"10252728","name":"Route Principale","postalCode":"1630","locality":"Bulle","commune":{"key":"2125","name":"Bulle","shortName":"Bulle"},"district":{"key":"1003","name":"District de la Gruyère"},"canton":{"key":"10","code":"FR","name":"Fribourg / Freiburg"},"status":"Real"},{"key":"10016925","name":"Rue Albert-Rieter","postalCode":"1630","locality":"Bulle","commune":{"key":"2125","name":"Bulle","shortName":"Bulle"},"district":{"key":"1003","name":"District de la Gruyère"},"canton":{"key":"10","code":"FR","name":"Fribourg / Freiburg"},"status":"Real"},{"key":"10089286","name":"Rue Auguste-Majeux","postalCode":"1630","locality":"Bulle","commune":{"key":"2125","name":"Bulle","shortName":"Bulle"},"district":{"key":"1003","name":"District de la Gruyère"},"canton":{"key":"10","code":"FR","name":"Fribourg / Freiburg"},"status":"Real"},{"key":"10168449","name":"Rue de Battentin","postalCode":"1630","locality":"Bulle","commune":{"key":"2125","name":"Bulle","shortName":"Bulle"},"district":{"key":"1003","name":"District de la Gruyère"},"canton":{"key":"10","code":"FR","name":"Fribourg / Freiburg"},"status":"Real"},{"key":"10016928","name":"Rue de Champ-Barby","postalCode":"1630","locality":"Bulle","commune":{"key":"2125","name":"Bulle","shortName":"Bulle"},"district":{"key":"1003","name":"District de la Gruyère"},"canton":{"key":"10","code":"FR","name":"Fribourg / Freiburg"},"status":"Real"},{"key":"10089289","name":"Rue de Corbières","postalCode":"1630","locality":"Bulle","commune":{"key":"2125","name":"Bulle","shortName":"Bulle"},"district":{"key":"1003","name":"District de la Gruyère"},"canton":{"key":"10","code":"FR","name":"Fribourg / Freiburg"},"status":"Real"},{"key":"10178689","name":"Rue de Dardens","postalCode":"1630","locality":"Bulle","commune":{"key":"2125","name":"Bulle","shortName":"Bulle"},"district":{"key":"1003","name":"District de la Gruyère"},"canton":{"key":"10","code":"FR","name":"Fribourg / Freiburg"},"status":"Real"},{"key":"10016929","name":"Rue de Gruyères","postalCode":"1630","locality":"Bulle","commune":{"key":"2125","name":"Bulle","shortName":"Bulle"},"district":{"key":"1003","name":"District de la Gruyère"},"canton":{"key":"10","code":"FR","name":"Fribourg / Freiburg"},"status":"Real"},{"key":"10182850","name":"Rue de Jéricho","postalCode":"1630","locality":"Bulle","commune":{"key":"2125","name":"Bulle","shortName":"Bulle"},"district":{"key":"1003","name":"District de la Gruyère"},"canton":{"key":"10","code":"FR","name":"Fribourg / Freiburg"},"status":"Real"},{"key":"10018025","name":"Rue de l'Abbé-Bovet","postalCode":"1630","locality":"Bulle","commune":{"key":"2125","name":"Bulle","shortName":"Bulle"},"district":{"key":"1003","name":"District de la Gruyère"},"canton":{"key":"10","code":"FR","name":"Fribourg / Freiburg"},"status":"Real"},{"key":"10089291","name":"Rue de la Berra","postalCode":"1630","locality":"Bulle","commune":{"key":"2125","name":"Bulle","shortName":"Bulle"},"district":{"key":"1003","name":"District de la Gruyère"},"canton":{"key":"10","code":"FR","name":"Fribourg / Freiburg"},"status":"Real"},{"key":"10120364","name":"Rue de la Combaz","postalCode":"1630","locality":"Bulle","commune":{"key":"2125","name":"Bulle","shortName":"Bulle"},"district":{"key":"1003","name":"District de la Gruyère"},"canton":{"key":"10","code":"FR","name":"Fribourg / Freiburg"},"status":"Real"},{"key":"10190505","name":"Rue de la Condémine","postalCode":"1630","locality":"Bulle","commune":{"key":"2125","name":"Bulle","shortName":"Bulle"},"district":{"key":"1003","name":"District de la Gruyère"},"canton":{"key":"10","code":"FR","name":"Fribourg / Freiburg"},"status":"Real"},{"key":"10089292","name":"Rue de la Léchère","postalCode":"1630","locality":"Bulle","commune":{"key":"2125","name":"Bulle","shortName":"Bulle"},"district":{"key":"1003","name":"District de la Gruyère"},"canton":{"key":"10","code":"FR","name":"Fribourg / Freiburg"},"status":"Real"},{"key":"10018027","name":"Rue de la Lécheretta","postalCode":"1630","locality":"Bulle","commune":{"key":"2125","name":"Bulle","shortName":"Bulle"},"district":{"key":"1003","name":"District de la Gruyère"},"canton":{"key":"10","code":"FR","name":"Fribourg / Freiburg"},"status":"Real"},{"key":"10018028","name":"Rue de la Paix","postalCode":"1630","locality":"Bulle","commune":{"key":"2125","name":"Bulle","shortName":"Bulle"},"district":{"key":"1003","name":"District de la Gruyère"},"canton":{"key":"10","code":"FR","name":"Fribourg / Freiburg"},"status":"Real"},{"key":"10089293","name":"Rue de la Poterne","postalCode":"1630","locality":"Bulle","commune":{"key":"2125","name":"Bulle","shortName":"Bulle"},"district":{"key":"1003","name":"District de la Gruyère"},"canton":{"key":"10","code":"FR","name":"Fribourg / Freiburg"},"status":"Real"},{"key":"10018030","name":"Rue de la Promenade","postalCode":"1630","locality":"Bulle","commune":{"key":"2125","name":"Bulle","shortName":"Bulle"},"district":{"key":"1003","name":"District de la Gruyère"},"canton":{"key":"10","code":"FR","name":"Fribourg / Freiburg"},"status":"Real"},{"key":"10068213","name":"Rue de la Sionge","postalCode":"1630","locality":"Bulle","commune":{"key":"2125","name":"Bulle","shortName":"Bulle"},"district":{"key":"1003","name":"District de la Gruyère"},"canton":{"key":"10","code":"FR","name":"Fribourg / Freiburg"},"status":"Real"},{"key":"10102538","name":"Rue de la Toula","postalCode":"1630","locality":"Bulle","commune":{"key":"2125","name":"Bulle","shortName":"Bulle"},"district":{"key":"1003","name":"District de la Gruyère"},"canton":{"key":"10","code":"FR","name":"Fribourg / Freiburg"},"status":"Real"},{"key":"10018031","name":"Rue de la Vudalla","postalCode":"1630","locality":"Bulle","commune":{"key":"2125","name":"Bulle","shortName":"Bulle"},"district":{"key":"1003","name":"District de la Gruyère"},"canton":{"key":"10","code":"FR","name":"Fribourg / Freiburg"},"status":"Real"},{"key":"10122953","name":"Rue de l'Essert","postalCode":"1630","locality":"Bulle","commune":{"key":"2125","name":"Bulle","shortName":"Bulle"},"district":{"key":"1003","name":"District de la Gruyère"},"canton":{"key":"10","code":"FR","name":"Fribourg / Freiburg"},"status":"Real"},{"key":"10068212","name":"Rue de l'Etang","postalCode":"1630","locality":"Bulle","commune":{"key":"2125","name":"Bulle","shortName":"Bulle"},"district":{"key":"1003","name":"District de la Gruyère"},"canton":{"key":"10","code":"FR","name":"Fribourg / Freiburg"},"status":"Real"},{"key":"10019238","name":"Rue de l'Europe","postalCode":"1630","locality":"Bulle","commune":{"key":"2125","name":"Bulle","shortName":"Bulle"},"district":{"key":"1003","name":"District de la Gruyère"},"canton":{"key":"10","code":"FR","name":"Fribourg / Freiburg"},"status":"Real"},{"key":"10134636","name":"Rue de l'Industrie","postalCode":"1453","locality":"Bullet","commune":{"key":"5552","name":"Bullet","shortName":"Bullet"},"district":{"key":"2224","name":"District du Jura-Nord vaudois"},"canton":{"key":"22","code":"VD","name":"Vaud"},"status":"Real"},{"key":"10018026","name":"Rue de l'Industrie","postalCode":"1630","locality":"Bulle","commune":{"key":"2125","name":"Bulle","shortName":"Bulle"},"district":{"key":"1003","name":"District de la Gruyère"},"canton":{"key":"10","code":"FR","name":"Fribourg / Freiburg"},"status":"Real"},{"key":"10181333","name":"Rue de l'Ondine","postalCode":"1630","locality":"Bulle","commune":{"key":"2125","name":"Bulle","shortName":"Bulle"},"district":{"key":"1003","name":"District de la Gruyère"},"canton":{"key":"10","code":"FR","name":"Fribourg / Freiburg"},"status":"Real"},{"key":"10089290","name":"Rue de Montsalvens","postalCode":"1630","locality":"Bulle","commune":{"key":"2125","name":"Bulle","shortName":"Bulle"},"district":{"key":"1003","name":"District de la Gruyère"},"canton":{"key":"10","code":"FR","name":"Fribourg / Freiburg"},"status":"Real"},{"key":"10016930","name":"Rue de Palud","postalCode":"1630","locality":"Bulle","commune":{"key":"2125","name":"Bulle","shortName":"Bulle"},"district":{"key":"1003","name":"District de la Gruyère"},"canton":{"key":"10","code":"FR","name":"Fribourg / Freiburg"},"status":"Real"},{"key":"10018032","name":"Rue des Albergeux","postalCode":"1630","locality":"Bulle","commune":{"key":"2125","name":"Bulle","shortName":"Bulle"},"district":{"key":"1003","name":"District de la Gruyère"},"canton":{"key":"10","code":"FR","name":"Fribourg / Freiburg"},"status":"Real"},{"key":"10018033","name":"Rue des Alpettes","postalCode":"1630","locality":"Bulle","commune":{"key":"2125","name":"Bulle","shortName":"Bulle"},"district":{"key":"1003","name":"District de la Gruyère"},"canton":{"key":"10","code":"FR","name":"Fribourg / Freiburg"},"status":"Real"},{"key":"10104333","name":"Rue des Colombettes","postalCode":"1630","locality":"Bulle","commune":{"key":"2125","name":"Bulle","shortName":"Bulle"},"district":{"key":"1003","name":"District de la Gruyère"},"canton":{"key":"10","code":"FR","name":"Fribourg / Freiburg"},"status":"Real"},{"key":"10089295","name":"Rue des Jordils","postalCode":"1630","locality":"Bulle","commune":{"key":"2125","name":"Bulle","shortName":"Bulle"},"district":{"key":"1003","name":"District de la Gruyère"},"canton":{"key":"10","code":"FR","name":"Fribourg / Freiburg"},"status":"Real"},{"key":"10018034","name":"Rue des Remparts","postalCode":"1630","locality":"Bulle","commune":{"key":"2125","name":"Bulle","shortName":"Bulle"},"district":{"key":"1003","name":"District de la Gruyère"},"canton":{"key":"10","code":"FR","name":"Fribourg / Freiburg"},"status":"Real"},{"key":"10162529","name":"Rue des Trois-Trèfles","postalCode":"1630","locality":"Bulle","commune":{"key":"2125","name":"Bulle","shortName":"Bulle"},"district":{"key":"1003","name":"District de la Gruyère"},"canton":{"key":"10","code":"FR","name":"Fribourg / Freiburg"},"status":"Real"},{"key":"10176885","name":"Rue des Usiniers","postalCode":"1630","locality":"Bulle","commune":{"key":"2125","name":"Bulle","shortName":"Bulle"},"district":{"key":"1003","name":"District de la Gruyère"},"canton":{"key":"10","code":"FR","name":"Fribourg / Freiburg"},"status":"Real"},{"key":"10089296","name":"Rue des Vanils","postalCode":"1630","locality":"Bulle","commune":{"key":"2125","name":"Bulle","shortName":"Bulle"},"district":{"key":"1003","name":"District de la Gruyère"},"canton":{"key":"10","code":"FR","name":"Fribourg / Freiburg"},"status":"Real"},{"key":"10016931","name":"Rue de Vevey","postalCode":"1630","locality":"Bulle","commune":{"key":"2125","name":"Bulle","shortName":"Bulle"},"district":{"key":"1003","name":"District de la Gruyère"},"canton":{"key":"10","code":"FR","name":"Fribourg / Freiburg"},"status":"Real"},{"key":"10163011","name":"Rue de Vuippens","postalCode":"1630","locality":"Bulle","commune":{"key":"2125","name":"Bulle","shortName":"Bulle"},"district":{"key":"1003","name":"District de la Gruyère"},"canton":{"key":"10","code":"FR","name":"Fribourg / Freiburg"},"status":"Real"},]