[{"name":"Almersbacher Weg","postalCode":"56659","locality":"Burgbrohl","municipality":{"key":"07131202","name":"Burgbrohl","type":"Kreisangehörige_Gemeinde"},"district":{"key":"07131","name":"Ahrweiler","type":"Landkreis"},"federalState":{"key":"07","name":"Rheinland-Pfalz"}},{"name":"Alte Hohl","postalCode":"56598","locality":"Rheinbrohl","municipality":{"key":"07138063","name":"Rheinbrohl","type":"Kreisangehörige_Gemeinde"},"district":{"key":"07138","name":"Neuwied","type":"Landkreis"},"federalState":{"key":"07","name":"Rheinland-Pfalz"}},{"name":"Am Dicktberg","postalCode":"56656","locality":"Brohl-Lützing","municipality":{"key":"07131014","name":"Brohl-Lützing","type":"Kreisangehörige_Gemeinde"},"district":{"key":"07131","name":"Ahrweiler","type":"Landkreis"},"federalState":{"key":"07","name":"Rheinland-Pfalz"}},{"name":"Am Finkenberg","postalCode":"56659","locality":"Burgbrohl","municipality":{"key":"07131202","name":"Burgbrohl","type":"Kreisangehörige_Gemeinde"},"district":{"key":"07131","name":"Ahrweiler","type":"Landkreis"},"federalState":{"key":"07","name":"Rheinland-Pfalz"}},{"name":"Am Gotteshäuschen","postalCode":"56656","locality":"Brohl-Lützing","municipality":{"key":"07131014","name":"Brohl-Lützing","type":"Kreisangehörige_Gemeinde"},"district":{"key":"07131","name":"Ahrweiler","type":"Landkreis"},"federalState":{"key":"07","name":"Rheinland-Pfalz"}},{"name":"Am Hofacker","postalCode":"56598","locality":"Rheinbrohl","municipality":{"key":"07138063","name":"Rheinbrohl","type":"Kreisangehörige_Gemeinde"},"district":{"key":"07138","name":"Neuwied","type":"Landkreis"},"federalState":{"key":"07","name":"Rheinland-Pfalz"}},{"name":"Am Kirchberg","postalCode":"56659","locality":"Burgbrohl","municipality":{"key":"07131202","name":"Burgbrohl","type":"Kreisangehörige_Gemeinde"},"district":{"key":"07131","name":"Ahrweiler","type":"Landkreis"},"federalState":{"key":"07","name":"Rheinland-Pfalz"}},{"name":"Amselweg","postalCode":"56656","locality":"Brohl-Lützing","municipality":{"key":"07131014","name":"Brohl-Lützing","type":"Kreisangehörige_Gemeinde"},"district":{"key":"07131","name":"Ahrweiler","type":"Landkreis"},"federalState":{"key":"07","name":"Rheinland-Pfalz"}},{"name":"Am Siegerborn","postalCode":"56656","locality":"Brohl-Lützing","municipality":{"key":"07131014","name":"Brohl-Lützing","type":"Kreisangehörige_Gemeinde"},"district":{"key":"07131","name":"Ahrweiler","type":"Landkreis"},"federalState":{"key":"07","name":"Rheinland-Pfalz"}},{"name":"Am Wasserturm","postalCode":"56656","locality":"Brohl-Lützing","municipality":{"key":"07131014","name":"Brohl-Lützing","type":"Kreisangehörige_Gemeinde"},"district":{"key":"07131","name":"Ahrweiler","type":"Landkreis"},"federalState":{"key":"07","name":"Rheinland-Pfalz"}},{"name":"Am Weier","postalCode":"56598","locality":"Rheinbrohl","municipality":{"key":"07138063","name":"Rheinbrohl","type":"Kreisangehörige_Gemeinde"},"district":{"key":"07138","name":"Neuwied","type":"Landkreis"},"federalState":{"key":"07","name":"Rheinland-Pfalz"}},{"name":"An den Kirschbäumen","postalCode":"56659","locality":"Burgbrohl","municipality":{"key":"07131202","name":"Burgbrohl","type":"Kreisangehörige_Gemeinde"},"district":{"key":"07131","name":"Ahrweiler","type":"Landkreis"},"federalState":{"key":"07","name":"Rheinland-Pfalz"}},{"name":"An der Goldgrube","postalCode":"56656","locality":"Brohl-Lützing","municipality":{"key":"07131014","name":"Brohl-Lützing","type":"Kreisangehörige_Gemeinde"},"district":{"key":"07131","name":"Ahrweiler","type":"Landkreis"},"federalState":{"key":"07","name":"Rheinland-Pfalz"}},{"name":"Arienheller","postalCode":"56598","locality":"Rheinbrohl","municipality":{"key":"07138063","name":"Rheinbrohl","type":"Kreisangehörige_Gemeinde"},"district":{"key":"07138","name":"Neuwied","type":"Landkreis"},"federalState":{"key":"07","name":"Rheinland-Pfalz"}},{"name":"Arienheller Str.","postalCode":"56598","locality":"Rheinbrohl","municipality":{"key":"07138063","name":"Rheinbrohl","type":"Kreisangehörige_Gemeinde"},"district":{"key":"07138","name":"Neuwied","type":"Landkreis"},"federalState":{"key":"07","name":"Rheinland-Pfalz"}},{"name":"Artilleriestr.","postalCode":"56656","locality":"Brohl-Lützing","municipality":{"key":"07131014","name":"Brohl-Lützing","type":"Kreisangehörige_Gemeinde"},"district":{"key":"07131","name":"Ahrweiler","type":"Landkreis"},"federalState":{"key":"07","name":"Rheinland-Pfalz"}},{"name":"Auf dem Berg","postalCode":"56659","locality":"Burgbrohl","municipality":{"key":"07131202","name":"Burgbrohl","type":"Kreisangehörige_Gemeinde"},"district":{"key":"07131","name":"Ahrweiler","type":"Landkreis"},"federalState":{"key":"07","name":"Rheinland-Pfalz"}},{"name":"Auf dem Limes","postalCode":"56598","locality":"Rheinbrohl","municipality":{"key":"07138063","name":"Rheinbrohl","type":"Kreisangehörige_Gemeinde"},"district":{"key":"07138","name":"Neuwied","type":"Landkreis"},"federalState":{"key":"07","name":"Rheinland-Pfalz"}},{"name":"Auf dem Pflanzenberg","postalCode":"56598","locality":"Rheinbrohl","municipality":{"key":"07138063","name":"Rheinbrohl","type":"Kreisangehörige_Gemeinde"},"district":{"key":"07138","name":"Neuwied","type":"Landkreis"},"federalState":{"key":"07","name":"Rheinland-Pfalz"}},{"name":"Auf dem Rümmer","postalCode":"56598","locality":"Rheinbrohl","municipality":{"key":"07138063","name":"Rheinbrohl","type":"Kreisangehörige_Gemeinde"},"district":{"key":"07138","name":"Neuwied","type":"Landkreis"},"federalState":{"key":"07","name":"Rheinland-Pfalz"}},{"name":"Auf dem Sand","postalCode":"56598","locality":"Rheinbrohl","municipality":{"key":"07138063","name":"Rheinbrohl","type":"Kreisangehörige_Gemeinde"},"district":{"key":"07138","name":"Neuwied","type":"Landkreis"},"federalState":{"key":"07","name":"Rheinland-Pfalz"}},{"name":"Auf dem Schiebel","postalCode":"56656","locality":"Brohl-Lützing","municipality":{"key":"07131014","name":"Brohl-Lützing","type":"Kreisangehörige_Gemeinde"},"district":{"key":"07131","name":"Ahrweiler","type":"Landkreis"},"federalState":{"key":"07","name":"Rheinland-Pfalz"}},{"name":"Auf den Morgen","postalCode":"56659","locality":"Burgbrohl","municipality":{"key":"07131202","name":"Burgbrohl","type":"Kreisangehörige_Gemeinde"},"district":{"key":"07131","name":"Ahrweiler","type":"Landkreis"},"federalState":{"key":"07","name":"Rheinland-Pfalz"}},{"name":"Auf der Ansatz","postalCode":"56656","locality":"Brohl-Lützing","municipality":{"key":"07131014","name":"Brohl-Lützing","type":"Kreisangehörige_Gemeinde"},"district":{"key":"07131","name":"Ahrweiler","type":"Landkreis"},"federalState":{"key":"07","name":"Rheinland-Pfalz"}},{"name":"Auf der Burg","postalCode":"56659","locality":"Burgbrohl","municipality":{"key":"07131202","name":"Burgbrohl","type":"Kreisangehörige_Gemeinde"},"district":{"key":"07131","name":"Ahrweiler","type":"Landkreis"},"federalState":{"key":"07","name":"Rheinland-Pfalz"}},{"name":"Auf der Dau","postalCode":"56659","locality":"Burgbrohl","municipality":{"key":"07131202","name":"Burgbrohl","type":"Kreisangehörige_Gemeinde"},"district":{"key":"07131","name":"Ahrweiler","type":"Landkreis"},"federalState":{"key":"07","name":"Rheinland-Pfalz"}},{"name":"Auf der Hurst","postalCode":"56656","locality":"Brohl-Lützing","municipality":{"key":"07131014","name":"Brohl-Lützing","type":"Kreisangehörige_Gemeinde"},"district":{"key":"07131","name":"Ahrweiler","type":"Landkreis"},"federalState":{"key":"07","name":"Rheinland-Pfalz"}},{"name":"Auf Kalker","postalCode":"56656","locality":"Brohl-Lützing","municipality":{"key":"07131014","name":"Brohl-Lützing","type":"Kreisangehörige_Gemeinde"},"district":{"key":"07131","name":"Ahrweiler","type":"Landkreis"},"federalState":{"key":"07","name":"Rheinland-Pfalz"}},{"name":"Bachstr.","postalCode":"56598","locality":"Rheinbrohl","municipality":{"key":"07138063","name":"Rheinbrohl","type":"Kreisangehörige_Gemeinde"},"district":{"key":"07138","name":"Neuwied","type":"Landkreis"},"federalState":{"key":"07","name":"Rheinland-Pfalz"}},{"name":"Bachstr.","postalCode":"56659","locality":"Burgbrohl","municipality":{"key":"07131202","name":"Burgbrohl","type":"Kreisangehörige_Gemeinde"},"district":{"key":"07131","name":"Ahrweiler","type":"Landkreis"},"federalState":{"key":"07","name":"Rheinland-Pfalz"}},{"name":"Bachwiesenweg","postalCode":"56598","locality":"Rheinbrohl","municipality":{"key":"07138063","name":"Rheinbrohl","type":"Kreisangehörige_Gemeinde"},"district":{"key":"07138","name":"Neuwied","type":"Landkreis"},"federalState":{"key":"07","name":"Rheinland-Pfalz"}},{"name":"Bahnhofstr.","postalCode":"56656","locality":"Brohl-Lützing","municipality":{"key":"07131014","name":"Brohl-Lützing","type":"Kreisangehörige_Gemeinde"},"district":{"key":"07131","name":"Ahrweiler","type":"Landkreis"},"federalState":{"key":"07","name":"Rheinland-Pfalz"}},{"name":"Beethovenstr.","postalCode":"56598","locality":"Rheinbrohl","municipality":{"key":"07138063","name":"Rheinbrohl","type":"Kreisangehörige_Gemeinde"},"district":{"key":"07138","name":"Neuwied","type":"Landkreis"},"federalState":{"key":"07","name":"Rheinland-Pfalz"}},{"name":"Bergstr.","postalCode":"56656","locality":"Brohl-Lützing","municipality":{"key":"07131014","name":"Brohl-Lützing","type":"Kreisangehörige_Gemeinde"},"district":{"key":"07131","name":"Ahrweiler","type":"Landkreis"},"federalState":{"key":"07","name":"Rheinland-Pfalz"}},{"name":"Bergweg","postalCode":"56598","locality":"Rheinbrohl","municipality":{"key":"07138063","name":"Rheinbrohl","type":"Kreisangehörige_Gemeinde"},"district":{"key":"07138","name":"Neuwied","type":"Landkreis"},"federalState":{"key":"07","name":"Rheinland-Pfalz"}},{"name":"Beuner Weg","postalCode":"56659","locality":"Burgbrohl","municipality":{"key":"07131202","name":"Burgbrohl","type":"Kreisangehörige_Gemeinde"},"district":{"key":"07131","name":"Ahrweiler","type":"Landkreis"},"federalState":{"key":"07","name":"Rheinland-Pfalz"}},{"name":"Bitzerweg","postalCode":"56598","locality":"Rheinbrohl","municipality":{"key":"07138063","name":"Rheinbrohl","type":"Kreisangehörige_Gemeinde"},"district":{"key":"07138","name":"Neuwied","type":"Landkreis"},"federalState":{"key":"07","name":"Rheinland-Pfalz"}},{"name":"Braunsbergweg","postalCode":"56656","locality":"Brohl-Lützing","municipality":{"key":"07131014","name":"Brohl-Lützing","type":"Kreisangehörige_Gemeinde"},"district":{"key":"07131","name":"Ahrweiler","type":"Landkreis"},"federalState":{"key":"07","name":"Rheinland-Pfalz"}},{"name":"Brohler Weg","postalCode":"56659","locality":"Burgbrohl","municipality":{"key":"07131202","name":"Burgbrohl","type":"Kreisangehörige_Gemeinde"},"district":{"key":"07131","name":"Ahrweiler","type":"Landkreis"},"federalState":{"key":"07","name":"Rheinland-Pfalz"}},{"name":"Brohltalblick","postalCode":"56656","locality":"Brohl-Lützing","municipality":{"key":"07131014","name":"Brohl-Lützing","type":"Kreisangehörige_Gemeinde"},"district":{"key":"07131","name":"Ahrweiler","type":"Landkreis"},"federalState":{"key":"07","name":"Rheinland-Pfalz"}},{"name":"Brohltalblick","postalCode":"56659","locality":"Burgbrohl","municipality":{"key":"07131202","name":"Burgbrohl","type":"Kreisangehörige_Gemeinde"},"district":{"key":"07131","name":"Ahrweiler","type":"Landkreis"},"federalState":{"key":"07","name":"Rheinland-Pfalz"}},{"name":"Brohltalstr.","postalCode":"56656","locality":"Brohl-Lützing","municipality":{"key":"07131014","name":"Brohl-Lützing","type":"Kreisangehörige_Gemeinde"},"district":{"key":"07131","name":"Ahrweiler","type":"Landkreis"},"federalState":{"key":"07","name":"Rheinland-Pfalz"}},{"name":"Brohltalstr.","postalCode":"56659","locality":"Burgbrohl","municipality":{"key":"07131202","name":"Burgbrohl","type":"Kreisangehörige_Gemeinde"},"district":{"key":"07131","name":"Ahrweiler","type":"Landkreis"},"federalState":{"key":"07","name":"Rheinland-Pfalz"}},{"name":"Buchholz","postalCode":"56659","locality":"Burgbrohl","municipality":{"key":"07131202","name":"Burgbrohl","type":"Kreisangehörige_Gemeinde"},"district":{"key":"07131","name":"Ahrweiler","type":"Landkreis"},"federalState":{"key":"07","name":"Rheinland-Pfalz"}},{"name":"Buchholzerweg","postalCode":"56659","locality":"Burgbrohl","municipality":{"key":"07131202","name":"Burgbrohl","type":"Kreisangehörige_Gemeinde"},"district":{"key":"07131","name":"Ahrweiler","type":"Landkreis"},"federalState":{"key":"07","name":"Rheinland-Pfalz"}},{"name":"Buchholzer Weg","postalCode":"56659","locality":"Burgbrohl","municipality":{"key":"07131202","name":"Burgbrohl","type":"Kreisangehörige_Gemeinde"},"district":{"key":"07131","name":"Ahrweiler","type":"Landkreis"},"federalState":{"key":"07","name":"Rheinland-Pfalz"}},{"name":"Büngertchen","postalCode":"56656","locality":"Brohl-Lützing","municipality":{"key":"07131014","name":"Brohl-Lützing","type":"Kreisangehörige_Gemeinde"},"district":{"key":"07131","name":"Ahrweiler","type":"Landkreis"},"federalState":{"key":"07","name":"Rheinland-Pfalz"}},{"name":"Burgstr.","postalCode":"56656","locality":"Brohl-Lützing","municipality":{"key":"07131014","name":"Brohl-Lützing","type":"Kreisangehörige_Gemeinde"},"district":{"key":"07131","name":"Ahrweiler","type":"Landkreis"},"federalState":{"key":"07","name":"Rheinland-Pfalz"}},{"name":"Burgweg","postalCode":"56659","locality":"Burgbrohl","municipality":{"key":"07131202","name":"Burgbrohl","type":"Kreisangehörige_Gemeinde"},"district":{"key":"07131","name":"Ahrweiler","type":"Landkreis"},"federalState":{"key":"07","name":"Rheinland-Pfalz"}},{"name":"Camille-Goupil-Platz","postalCode":"56598","locality":"Rheinbrohl","municipality":{"key":"07138063","name":"Rheinbrohl","type":"Kreisangehörige_Gemeinde"},"district":{"key":"07138","name":"Neuwied","type":"Landkreis"},"federalState":{"key":"07","name":"Rheinland-Pfalz"}},{"name":"Degensmühle","postalCode":"56659","locality":"Burgbrohl","municipality":{"key":"07131202","name":"Burgbrohl","type":"Kreisangehörige_Gemeinde"},"district":{"key":"07131","name":"Ahrweiler","type":"Landkreis"},"federalState":{"key":"07","name":"Rheinland-Pfalz"}},{"name":"Delmondstr.","postalCode":"56598","locality":"Rheinbrohl","municipality":{"key":"07138063","name":"Rheinbrohl","type":"Kreisangehörige_Gemeinde"},"district":{"key":"07138","name":"Neuwied","type":"Landkreis"},"federalState":{"key":"07","name":"Rheinland-Pfalz"}},{"name":"Dielsberg","postalCode":"56598","locality":"Rheinbrohl","municipality":{"key":"07138063","name":"Rheinbrohl","type":"Kreisangehörige_Gemeinde"},"district":{"key":"07138","name":"Neuwied","type":"Landkreis"},"federalState":{"key":"07","name":"Rheinland-Pfalz"}},{"name":"Doktor-Josef-Horbach-Str.","postalCode":"56598","locality":"Rheinbrohl","municipality":{"key":"07138063","name":"Rheinbrohl","type":"Kreisangehörige_Gemeinde"},"district":{"key":"07138","name":"Neuwied","type":"Landkreis"},"federalState":{"key":"07","name":"Rheinland-Pfalz"}},{"name":"Dorfplatz","postalCode":"56659","locality":"Burgbrohl","municipality":{"key":"07131202","name":"Burgbrohl","type":"Kreisangehörige_Gemeinde"},"district":{"key":"07131","name":"Ahrweiler","type":"Landkreis"},"federalState":{"key":"07","name":"Rheinland-Pfalz"}},{"name":"Dorfstr.","postalCode":"56598","locality":"Rheinbrohl","municipality":{"key":"07138063","name":"Rheinbrohl","type":"Kreisangehörige_Gemeinde"},"district":{"key":"07138","name":"Neuwied","type":"Landkreis"},"federalState":{"key":"07","name":"Rheinland-Pfalz"}},{"name":"Eifelblick","postalCode":"56656","locality":"Brohl-Lützing","municipality":{"key":"07131014","name":"Brohl-Lützing","type":"Kreisangehörige_Gemeinde"},"district":{"key":"07131","name":"Ahrweiler","type":"Landkreis"},"federalState":{"key":"07","name":"Rheinland-Pfalz"}},{"name":"Elzgasse","postalCode":"56754","locality":"Brohl","municipality":{"key":"07135016","name":"Brohl","type":"Kreisangehörige_Gemeinde"},"district":{"key":"07135","name":"Cochem-Zell","type":"Landkreis"},"federalState":{"key":"07","name":"Rheinland-Pfalz"}},{"name":"Erlenstr.","postalCode":"56659","locality":"Burgbrohl","municipality":{"key":"07131202","name":"Burgbrohl","type":"Kreisangehörige_Gemeinde"},"district":{"key":"07131","name":"Ahrweiler","type":"Landkreis"},"federalState":{"key":"07","name":"Rheinland-Pfalz"}},{"name":"Eselsweg","postalCode":"56659","locality":"Burgbrohl","municipality":{"key":"07131202","name":"Burgbrohl","type":"Kreisangehörige_Gemeinde"},"district":{"key":"07131","name":"Ahrweiler","type":"Landkreis"},"federalState":{"key":"07","name":"Rheinland-Pfalz"}},{"name":"Fährstr.","postalCode":"56598","locality":"Rheinbrohl","municipality":{"key":"07138063","name":"Rheinbrohl","type":"Kreisangehörige_Gemeinde"},"district":{"key":"07138","name":"Neuwied","type":"Landkreis"},"federalState":{"key":"07","name":"Rheinland-Pfalz"}},{"name":"Ferdinand-Schmitz-Str.","postalCode":"56598","locality":"Rheinbrohl","municipality":{"key":"07138063","name":"Rheinbrohl","type":"Kreisangehörige_Gemeinde"},"district":{"key":"07138","name":"Neuwied","type":"Landkreis"},"federalState":{"key":"07","name":"Rheinland-Pfalz"}},{"name":"Friedhofsweg","postalCode":"56598","locality":"Rheinbrohl","municipality":{"key":"07138063","name":"Rheinbrohl","type":"Kreisangehörige_Gemeinde"},"district":{"key":"07138","name":"Neuwied","type":"Landkreis"},"federalState":{"key":"07","name":"Rheinland-Pfalz"}},{"name":"Friedrich-Ebert-Str.","postalCode":"56598","locality":"Rheinbrohl","municipality":{"key":"07138063","name":"Rheinbrohl","type":"Kreisangehörige_Gemeinde"},"district":{"key":"07138","name":"Neuwied","type":"Landkreis"},"federalState":{"key":"07","name":"Rheinland-Pfalz"}},{"name":"Fritz-Beck-Str.","postalCode":"56656","locality":"Brohl-Lützing","municipality":{"key":"07131014","name":"Brohl-Lützing","type":"Kreisangehörige_Gemeinde"},"district":{"key":"07131","name":"Ahrweiler","type":"Landkreis"},"federalState":{"key":"07","name":"Rheinland-Pfalz"}},{"name":"Fritz-Beck-Str.","postalCode":"56659","locality":"Burgbrohl","municipality":{"key":"07131202","name":"Burgbrohl","type":"Kreisangehörige_Gemeinde"},"district":{"key":"07131","name":"Ahrweiler","type":"Landkreis"},"federalState":{"key":"07","name":"Rheinland-Pfalz"}},{"name":"Fröshölter Weg","postalCode":"56598","locality":"Rheinbrohl","municipality":{"key":"07138063","name":"Rheinbrohl","type":"Kreisangehörige_Gemeinde"},"district":{"key":"07138","name":"Neuwied","type":"Landkreis"},"federalState":{"key":"07","name":"Rheinland-Pfalz"}},{"name":"Gartenstr.","postalCode":"56656","locality":"Brohl-Lützing","municipality":{"key":"07131014","name":"Brohl-Lützing","type":"Kreisangehörige_Gemeinde"},"district":{"key":"07131","name":"Ahrweiler","type":"Landkreis"},"federalState":{"key":"07","name":"Rheinland-Pfalz"}},{"name":"Gartenweg","postalCode":"56754","locality":"Brohl","municipality":{"key":"07135016","name":"Brohl","type":"Kreisangehörige_Gemeinde"},"district":{"key":"07135","name":"Cochem-Zell","type":"Landkreis"},"federalState":{"key":"07","name":"Rheinland-Pfalz"}},{"name":"Gaulental","postalCode":"56598","locality":"Rheinbrohl","municipality":{"key":"07138063","name":"Rheinbrohl","type":"Kreisangehörige_Gemeinde"},"district":{"key":"07138","name":"Neuwied","type":"Landkreis"},"federalState":{"key":"07","name":"Rheinland-Pfalz"}},{"name":"Gleeser Str.","postalCode":"56659","locality":"Burgbrohl","municipality":{"key":"07131202","name":"Burgbrohl","type":"Kreisangehörige_Gemeinde"},"district":{"key":"07131","name":"Ahrweiler","type":"Landkreis"},"federalState":{"key":"07","name":"Rheinland-Pfalz"}},{"name":"Goethestr.","postalCode":"56598","locality":"Rheinbrohl","municipality":{"key":"07138063","name":"Rheinbrohl","type":"Kreisangehörige_Gemeinde"},"district":{"key":"07138","name":"Neuwied","type":"Landkreis"},"federalState":{"key":"07","name":"Rheinland-Pfalz"}},{"name":"Grabenstr.","postalCode":"56598","locality":"Rheinbrohl","municipality":{"key":"07138063","name":"Rheinbrohl","type":"Kreisangehörige_Gemeinde"},"district":{"key":"07138","name":"Neuwied","type":"Landkreis"},"federalState":{"key":"07","name":"Rheinland-Pfalz"}},{"name":"Greimerstalweg","postalCode":"56659","locality":"Burgbrohl","municipality":{"key":"07131202","name":"Burgbrohl","type":"Kreisangehörige_Gemeinde"},"district":{"key":"07131","name":"Ahrweiler","type":"Landkreis"},"federalState":{"key":"07","name":"Rheinland-Pfalz"}},{"name":"Hauptstr.","postalCode":"56598","locality":"Rheinbrohl","municipality":{"key":"07138063","name":"Rheinbrohl","type":"Kreisangehörige_Gemeinde"},"district":{"key":"07138","name":"Neuwied","type":"Landkreis"},"federalState":{"key":"07","name":"Rheinland-Pfalz"}},{"name":"Hauptstr.","postalCode":"56656","locality":"Brohl-Lützing","municipality":{"key":"07131014","name":"Brohl-Lützing","type":"Kreisangehörige_Gemeinde"},"district":{"key":"07131","name":"Ahrweiler","type":"Landkreis"},"federalState":{"key":"07","name":"Rheinland-Pfalz"}},{"name":"Hauptstr.","postalCode":"56659","locality":"Burgbrohl","municipality":{"key":"07131202","name":"Burgbrohl","type":"Kreisangehörige_Gemeinde"},"district":{"key":"07131","name":"Ahrweiler","type":"Landkreis"},"federalState":{"key":"07","name":"Rheinland-Pfalz"}},{"name":"Hauptstr.","postalCode":"56754","locality":"Brohl","municipality":{"key":"07135016","name":"Brohl","type":"Kreisangehörige_Gemeinde"},"district":{"key":"07135","name":"Cochem-Zell","type":"Landkreis"},"federalState":{"key":"07","name":"Rheinland-Pfalz"}},{"name":"Hellersberg","postalCode":"56656","locality":"Brohl-Lützing","municipality":{"key":"07131014","name":"Brohl-Lützing","type":"Kreisangehörige_Gemeinde"},"district":{"key":"07131","name":"Ahrweiler","type":"Landkreis"},"federalState":{"key":"07","name":"Rheinland-Pfalz"}},{"name":"Hellgasse","postalCode":"56598","locality":"Rheinbrohl","municipality":{"key":"07138063","name":"Rheinbrohl","type":"Kreisangehörige_Gemeinde"},"district":{"key":"07138","name":"Neuwied","type":"Landkreis"},"federalState":{"key":"07","name":"Rheinland-Pfalz"}},{"name":"Herchenbergweg","postalCode":"56659","locality":"Burgbrohl","municipality":{"key":"07131202","name":"Burgbrohl","type":"Kreisangehörige_Gemeinde"},"district":{"key":"07131","name":"Ahrweiler","type":"Landkreis"},"federalState":{"key":"07","name":"Rheinland-Pfalz"}},{"name":"Hermann-Gilles-Str.","postalCode":"56659","locality":"Burgbrohl","municipality":{"key":"07131202","name":"Burgbrohl","type":"Kreisangehörige_Gemeinde"},"district":{"key":"07131","name":"Ahrweiler","type":"Landkreis"},"federalState":{"key":"07","name":"Rheinland-Pfalz"}},{"name":"Hilgersstr.","postalCode":"56598","locality":"Rheinbrohl","municipality":{"key":"07138063","name":"Rheinbrohl","type":"Kreisangehörige_Gemeinde"},"district":{"key":"07138","name":"Neuwied","type":"Landkreis"},"federalState":{"key":"07","name":"Rheinland-Pfalz"}},{"name":"HIlgerstr.","postalCode":"56598","locality":"Rheinbrohl","municipality":{"key":"07138063","name":"Rheinbrohl","type":"Kreisangehörige_Gemeinde"},"district":{"key":"07138","name":"Neuwied","type":"Landkreis"},"federalState":{"key":"07","name":"Rheinland-Pfalz"}},{"name":"Hoher Weg","postalCode":"56659","locality":"Burgbrohl","municipality":{"key":"07131202","name":"Burgbrohl","type":"Kreisangehörige_Gemeinde"},"district":{"key":"07131","name":"Ahrweiler","type":"Landkreis"},"federalState":{"key":"07","name":"Rheinland-Pfalz"}},{"name":"Hohlstr.","postalCode":"56754","locality":"Brohl","municipality":{"key":"07135016","name":"Brohl","type":"Kreisangehörige_Gemeinde"},"district":{"key":"07135","name":"Cochem-Zell","type":"Landkreis"},"federalState":{"key":"07","name":"Rheinland-Pfalz"}},{"name":"Hohlweg","postalCode":"56659","locality":"Burgbrohl","municipality":{"key":"07131202","name":"Burgbrohl","type":"Kreisangehörige_Gemeinde"},"district":{"key":"07131","name":"Ahrweiler","type":"Landkreis"},"federalState":{"key":"07","name":"Rheinland-Pfalz"}},{"name":"Holzweg","postalCode":"56598","locality":"Rheinbrohl","municipality":{"key":"07138063","name":"Rheinbrohl","type":"Kreisangehörige_Gemeinde"},"district":{"key":"07138","name":"Neuwied","type":"Landkreis"},"federalState":{"key":"07","name":"Rheinland-Pfalz"}},{"name":"Hönninger Pfad","postalCode":"56598","locality":"Rheinbrohl","municipality":{"key":"07138063","name":"Rheinbrohl","type":"Kreisangehörige_Gemeinde"},"district":{"key":"07138","name":"Neuwied","type":"Landkreis"},"federalState":{"key":"07","name":"Rheinland-Pfalz"}},{"name":"Horsterstr.","postalCode":"56656","locality":"Brohl-Lützing","municipality":{"key":"07131014","name":"Brohl-Lützing","type":"Kreisangehörige_Gemeinde"},"district":{"key":"07131","name":"Ahrweiler","type":"Landkreis"},"federalState":{"key":"07","name":"Rheinland-Pfalz"}},{"name":"Im Effig","postalCode":"56659","locality":"Burgbrohl","municipality":{"key":"07131202","name":"Burgbrohl","type":"Kreisangehörige_Gemeinde"},"district":{"key":"07131","name":"Ahrweiler","type":"Landkreis"},"federalState":{"key":"07","name":"Rheinland-Pfalz"}},{"name":"Im Graben","postalCode":"56656","locality":"Brohl-Lützing","municipality":{"key":"07131014","name":"Brohl-Lützing","type":"Kreisangehörige_Gemeinde"},"district":{"key":"07131","name":"Ahrweiler","type":"Landkreis"},"federalState":{"key":"07","name":"Rheinland-Pfalz"}},{"name":"Im Kessel","postalCode":"56656","locality":"Brohl-Lützing","municipality":{"key":"07131014","name":"Brohl-Lützing","type":"Kreisangehörige_Gemeinde"},"district":{"key":"07131","name":"Ahrweiler","type":"Landkreis"},"federalState":{"key":"07","name":"Rheinland-Pfalz"}},{"name":"Im Krätzchen","postalCode":"56656","locality":"Brohl-Lützing","municipality":{"key":"07131014","name":"Brohl-Lützing","type":"Kreisangehörige_Gemeinde"},"district":{"key":"07131","name":"Ahrweiler","type":"Landkreis"},"federalState":{"key":"07","name":"Rheinland-Pfalz"}},{"name":"Im Lammertal","postalCode":"56656","locality":"Brohl-Lützing","municipality":{"key":"07131014","name":"Brohl-Lützing","type":"Kreisangehörige_Gemeinde"},"district":{"key":"07131","name":"Ahrweiler","type":"Landkreis"},"federalState":{"key":"07","name":"Rheinland-Pfalz"}},{"name":"Im Lampental","postalCode":"56598","locality":"Rheinbrohl","municipality":{"key":"07138063","name":"Rheinbrohl","type":"Kreisangehörige_Gemeinde"},"district":{"key":"07138","name":"Neuwied","type":"Landkreis"},"federalState":{"key":"07","name":"Rheinland-Pfalz"}},{"name":"Im Sauerhals","postalCode":"56656","locality":"Brohl-Lützing","municipality":{"key":"07131014","name":"Brohl-Lützing","type":"Kreisangehörige_Gemeinde"},"district":{"key":"07131","name":"Ahrweiler","type":"Landkreis"},"federalState":{"key":"07","name":"Rheinland-Pfalz"}},{"name":"Im Sonnenwinkel","postalCode":"56659","locality":"Burgbrohl","municipality":{"key":"07131202","name":"Burgbrohl","type":"Kreisangehörige_Gemeinde"},"district":{"key":"07131","name":"Ahrweiler","type":"Landkreis"},"federalState":{"key":"07","name":"Rheinland-Pfalz"}},{"name":"Im Teichheck","postalCode":"56656","locality":"Brohl-Lützing","municipality":{"key":"07131014","name":"Brohl-Lützing","type":"Kreisangehörige_Gemeinde"},"district":{"key":"07131","name":"Ahrweiler","type":"Landkreis"},"federalState":{"key":"07","name":"Rheinland-Pfalz"}},{"name":"Im Wingert","postalCode":"56659","locality":"Burgbrohl","municipality":{"key":"07131202","name":"Burgbrohl","type":"Kreisangehörige_Gemeinde"},"district":{"key":"07131","name":"Ahrweiler","type":"Landkreis"},"federalState":{"key":"07","name":"Rheinland-Pfalz"}},{"name":"In der Geich","postalCode":"56754","locality":"Brohl","municipality":{"key":"07135016","name":"Brohl","type":"Kreisangehörige_Gemeinde"},"district":{"key":"07135","name":"Cochem-Zell","type":"Landkreis"},"federalState":{"key":"07","name":"Rheinland-Pfalz"}},{"name":"In der Hohl","postalCode":"56659","locality":"Burgbrohl","municipality":{"key":"07131202","name":"Burgbrohl","type":"Kreisangehörige_Gemeinde"},"district":{"key":"07131","name":"Ahrweiler","type":"Landkreis"},"federalState":{"key":"07","name":"Rheinland-Pfalz"}},{"name":"In der Maar","postalCode":"56598","locality":"Rheinbrohl","municipality":{"key":"07138063","name":"Rheinbrohl","type":"Kreisangehörige_Gemeinde"},"district":{"key":"07138","name":"Neuwied","type":"Landkreis"},"federalState":{"key":"07","name":"Rheinland-Pfalz"}},{"name":"Industriestr.","postalCode":"56598","locality":"Rheinbrohl","municipality":{"key":"07138063","name":"Rheinbrohl","type":"Kreisangehörige_Gemeinde"},"district":{"key":"07138","name":"Neuwied","type":"Landkreis"},"federalState":{"key":"07","name":"Rheinland-Pfalz"}},{"name":"Jagdhaus Wilhelmsruh","postalCode":"56598","locality":"Rheinbrohl","municipality":{"key":"07138063","name":"Rheinbrohl","type":"Kreisangehörige_Gemeinde"},"district":{"key":"07138","name":"Neuwied","type":"Landkreis"},"federalState":{"key":"07","name":"Rheinland-Pfalz"}},{"name":"Jahnstr.","postalCode":"56598","locality":"Rheinbrohl","municipality":{"key":"07138063","name":"Rheinbrohl","type":"Kreisangehörige_Gemeinde"},"district":{"key":"07138","name":"Neuwied","type":"Landkreis"},"federalState":{"key":"07","name":"Rheinland-Pfalz"}},{"name":"Jahnstr.","postalCode":"56659","locality":"Burgbrohl","municipality":{"key":"07131202","name":"Burgbrohl","type":"Kreisangehörige_Gemeinde"},"district":{"key":"07131","name":"Ahrweiler","type":"Landkreis"},"federalState":{"key":"07","name":"Rheinland-Pfalz"}},{"name":"Johanna-Löwenherz-Str.","postalCode":"56598","locality":"Rheinbrohl","municipality":{"key":"07138063","name":"Rheinbrohl","type":"Kreisangehörige_Gemeinde"},"district":{"key":"07138","name":"Neuwied","type":"Landkreis"},"federalState":{"key":"07","name":"Rheinland-Pfalz"}},{"name":"Johann-Jacobs-Str.","postalCode":"56656","locality":"Brohl-Lützing","municipality":{"key":"07131014","name":"Brohl-Lützing","type":"Kreisangehörige_Gemeinde"},"district":{"key":"07131","name":"Ahrweiler","type":"Landkreis"},"federalState":{"key":"07","name":"Rheinland-Pfalz"}},{"name":"Josef-Leusch-Str.","postalCode":"56656","locality":"Brohl-Lützing","municipality":{"key":"07131014","name":"Brohl-Lützing","type":"Kreisangehörige_Gemeinde"},"district":{"key":"07131","name":"Ahrweiler","type":"Landkreis"},"federalState":{"key":"07","name":"Rheinland-Pfalz"}},{"name":"Kaiserswerther Str.","postalCode":"56598","locality":"Rheinbrohl","municipality":{"key":"07138063","name":"Rheinbrohl","type":"Kreisangehörige_Gemeinde"},"district":{"key":"07138","name":"Neuwied","type":"Landkreis"},"federalState":{"key":"07","name":"Rheinland-Pfalz"}},{"name":"Kaltenbachtal","postalCode":"56598","locality":"Rheinbrohl","municipality":{"key":"07138063","name":"Rheinbrohl","type":"Kreisangehörige_Gemeinde"},"district":{"key":"07138","name":"Neuwied","type":"Landkreis"},"federalState":{"key":"07","name":"Rheinland-Pfalz"}},{"name":"Katharinaweg","postalCode":"56656","locality":"Brohl-Lützing","municipality":{"key":"07131014","name":"Brohl-Lützing","type":"Kreisangehörige_Gemeinde"},"district":{"key":"07131","name":"Ahrweiler","type":"Landkreis"},"federalState":{"key":"07","name":"Rheinland-Pfalz"}},{"name":"Kehrstr.","postalCode":"56598","locality":"Rheinbrohl","municipality":{"key":"07138063","name":"Rheinbrohl","type":"Kreisangehörige_Gemeinde"},"district":{"key":"07138","name":"Neuwied","type":"Landkreis"},"federalState":{"key":"07","name":"Rheinland-Pfalz"}},{"name":"Kirchstr.","postalCode":"56598","locality":"Rheinbrohl","municipality":{"key":"07138063","name":"Rheinbrohl","type":"Kreisangehörige_Gemeinde"},"district":{"key":"07138","name":"Neuwied","type":"Landkreis"},"federalState":{"key":"07","name":"Rheinland-Pfalz"}},{"name":"Kirchstr.","postalCode":"56656","locality":"Brohl-Lützing","municipality":{"key":"07131014","name":"Brohl-Lützing","type":"Kreisangehörige_Gemeinde"},"district":{"key":"07131","name":"Ahrweiler","type":"Landkreis"},"federalState":{"key":"07","name":"Rheinland-Pfalz"}},{"name":"Kirchstr.","postalCode":"56659","locality":"Burgbrohl","municipality":{"key":"07131202","name":"Burgbrohl","type":"Kreisangehörige_Gemeinde"},"district":{"key":"07131","name":"Ahrweiler","type":"Landkreis"},"federalState":{"key":"07","name":"Rheinland-Pfalz"}},{"name":"Kleingasse","postalCode":"56754","locality":"Brohl","municipality":{"key":"07135016","name":"Brohl","type":"Kreisangehörige_Gemeinde"},"district":{"key":"07135","name":"Cochem-Zell","type":"Landkreis"},"federalState":{"key":"07","name":"Rheinland-Pfalz"}},{"name":"Koblenzer Str.","postalCode":"56656","locality":"Brohl-Lützing","municipality":{"key":"07131014","name":"Brohl-Lützing","type":"Kreisangehörige_Gemeinde"},"district":{"key":"07131","name":"Ahrweiler","type":"Landkreis"},"federalState":{"key":"07","name":"Rheinland-Pfalz"}},{"name":"Kolpingstr.","postalCode":"56598","locality":"Rheinbrohl","municipality":{"key":"07138063","name":"Rheinbrohl","type":"Kreisangehörige_Gemeinde"},"district":{"key":"07138","name":"Neuwied","type":"Landkreis"},"federalState":{"key":"07","name":"Rheinland-Pfalz"}},{"name":"Lavaweg","postalCode":"56659","locality":"Burgbrohl","municipality":{"key":"07131202","name":"Burgbrohl","type":"Kreisangehörige_Gemeinde"},"district":{"key":"07131","name":"Ahrweiler","type":"Landkreis"},"federalState":{"key":"07","name":"Rheinland-Pfalz"}},{"name":"Lembergweg","postalCode":"56598","locality":"Rheinbrohl","municipality":{"key":"07138063","name":"Rheinbrohl","type":"Kreisangehörige_Gemeinde"},"district":{"key":"07138","name":"Neuwied","type":"Landkreis"},"federalState":{"key":"07","name":"Rheinland-Pfalz"}},{"name":"Leo-Stausberg-Str.","postalCode":"56656","locality":"Brohl-Lützing","municipality":{"key":"07131014","name":"Brohl-Lützing","type":"Kreisangehörige_Gemeinde"},"district":{"key":"07131","name":"Ahrweiler","type":"Landkreis"},"federalState":{"key":"07","name":"Rheinland-Pfalz"}},{"name":"Lerchenweg","postalCode":"56656","locality":"Brohl-Lützing","municipality":{"key":"07131014","name":"Brohl-Lützing","type":"Kreisangehörige_Gemeinde"},"district":{"key":"07131","name":"Ahrweiler","type":"Landkreis"},"federalState":{"key":"07","name":"Rheinland-Pfalz"}},{"name":"Lerchenweg","postalCode":"56659","locality":"Burgbrohl","municipality":{"key":"07131202","name":"Burgbrohl","type":"Kreisangehörige_Gemeinde"},"district":{"key":"07131","name":"Ahrweiler","type":"Landkreis"},"federalState":{"key":"07","name":"Rheinland-Pfalz"}},{"name":"Leyler Weg","postalCode":"56656","locality":"Brohl-Lützing","municipality":{"key":"07131014","name":"Brohl-Lützing","type":"Kreisangehörige_Gemeinde"},"district":{"key":"07131","name":"Ahrweiler","type":"Landkreis"},"federalState":{"key":"07","name":"Rheinland-Pfalz"}},{"name":"Limesweg","postalCode":"56598","locality":"Rheinbrohl","municipality":{"key":"07138063","name":"Rheinbrohl","type":"Kreisangehörige_Gemeinde"},"district":{"key":"07138","name":"Neuwied","type":"Landkreis"},"federalState":{"key":"07","name":"Rheinland-Pfalz"}},{"name":"Lindenstr.","postalCode":"56659","locality":"Burgbrohl","municipality":{"key":"07131202","name":"Burgbrohl","type":"Kreisangehörige_Gemeinde"},"district":{"key":"07131","name":"Ahrweiler","type":"Landkreis"},"federalState":{"key":"07","name":"Rheinland-Pfalz"}},{"name":"Lützingerstr.","postalCode":"56656","locality":"Brohl-Lützing","municipality":{"key":"07131014","name":"Brohl-Lützing","type":"Kreisangehörige_Gemeinde"},"district":{"key":"07131","name":"Ahrweiler","type":"Landkreis"},"federalState":{"key":"07","name":"Rheinland-Pfalz"}},{"name":"Maria-Hilf-Str.","postalCode":"56598","locality":"Rheinbrohl","municipality":{"key":"07138063","name":"Rheinbrohl","type":"Kreisangehörige_Gemeinde"},"district":{"key":"07138","name":"Neuwied","type":"Landkreis"},"federalState":{"key":"07","name":"Rheinland-Pfalz"}},{"name":"Matthiasstr.","postalCode":"56659","locality":"Burgbrohl","municipality":{"key":"07131202","name":"Burgbrohl","type":"Kreisangehörige_Gemeinde"},"district":{"key":"07131","name":"Ahrweiler","type":"Landkreis"},"federalState":{"key":"07","name":"Rheinland-Pfalz"}},{"name":"Mehlhellerweg","postalCode":"56598","locality":"Rheinbrohl","municipality":{"key":"07138063","name":"Rheinbrohl","type":"Kreisangehörige_Gemeinde"},"district":{"key":"07138","name":"Neuwied","type":"Landkreis"},"federalState":{"key":"07","name":"Rheinland-Pfalz"}},{"name":"Mittelstr.","postalCode":"56656","locality":"Brohl-Lützing","municipality":{"key":"07131014","name":"Brohl-Lützing","type":"Kreisangehörige_Gemeinde"},"district":{"key":"07131","name":"Ahrweiler","type":"Landkreis"},"federalState":{"key":"07","name":"Rheinland-Pfalz"}},{"name":"Mittelstr.","postalCode":"56659","locality":"Burgbrohl","municipality":{"key":"07131202","name":"Burgbrohl","type":"Kreisangehörige_Gemeinde"},"district":{"key":"07131","name":"Ahrweiler","type":"Landkreis"},"federalState":{"key":"07","name":"Rheinland-Pfalz"}},{"name":"Mozartstr.","postalCode":"56598","locality":"Rheinbrohl","municipality":{"key":"07138063","name":"Rheinbrohl","type":"Kreisangehörige_Gemeinde"},"district":{"key":"07138","name":"Neuwied","type":"Landkreis"},"federalState":{"key":"07","name":"Rheinland-Pfalz"}},{"name":"Mühlengasse","postalCode":"56659","locality":"Burgbrohl","municipality":{"key":"07131202","name":"Burgbrohl","type":"Kreisangehörige_Gemeinde"},"district":{"key":"07131","name":"Ahrweiler","type":"Landkreis"},"federalState":{"key":"07","name":"Rheinland-Pfalz"}},{"name":"Mühlenpfad","postalCode":"56598","locality":"Rheinbrohl","municipality":{"key":"07138063","name":"Rheinbrohl","type":"Kreisangehörige_Gemeinde"},"district":{"key":"07138","name":"Neuwied","type":"Landkreis"},"federalState":{"key":"07","name":"Rheinland-Pfalz"}},{"name":"Mühlenstr.","postalCode":"56656","locality":"Brohl-Lützing","municipality":{"key":"07131014","name":"Brohl-Lützing","type":"Kreisangehörige_Gemeinde"},"district":{"key":"07131","name":"Ahrweiler","type":"Landkreis"},"federalState":{"key":"07","name":"Rheinland-Pfalz"}},{"name":"Mühlweg","postalCode":"56754","locality":"Brohl","municipality":{"key":"07135016","name":"Brohl","type":"Kreisangehörige_Gemeinde"},"district":{"key":"07135","name":"Cochem-Zell","type":"Landkreis"},"federalState":{"key":"07","name":"Rheinland-Pfalz"}},{"name":"Neu Buchholz","postalCode":"56659","locality":"Burgbrohl","municipality":{"key":"07131202","name":"Burgbrohl","type":"Kreisangehörige_Gemeinde"},"district":{"key":"07131","name":"Ahrweiler","type":"Landkreis"},"federalState":{"key":"07","name":"Rheinland-Pfalz"}},{"name":"Neue Hohl","postalCode":"56598","locality":"Rheinbrohl","municipality":{"key":"07138063","name":"Rheinbrohl","type":"Kreisangehörige_Gemeinde"},"district":{"key":"07138","name":"Neuwied","type":"Landkreis"},"federalState":{"key":"07","name":"Rheinland-Pfalz"}},{"name":"Neugasse","postalCode":"56754","locality":"Brohl","municipality":{"key":"07135016","name":"Brohl","type":"Kreisangehörige_Gemeinde"},"district":{"key":"07135","name":"Cochem-Zell","type":"Landkreis"},"federalState":{"key":"07","name":"Rheinland-Pfalz"}},{"name":"Neuwiese","postalCode":"56659","locality":"Burgbrohl","municipality":{"key":"07131202","name":"Burgbrohl","type":"Kreisangehörige_Gemeinde"},"district":{"key":"07131","name":"Ahrweiler","type":"Landkreis"},"federalState":{"key":"07","name":"Rheinland-Pfalz"}},{"name":"Nückental","postalCode":"56659","locality":"Burgbrohl","municipality":{"key":"07131202","name":"Burgbrohl","type":"Kreisangehörige_Gemeinde"},"district":{"key":"07131","name":"Ahrweiler","type":"Landkreis"},"federalState":{"key":"07","name":"Rheinland-Pfalz"}},{"name":"Oberster Bergweg","postalCode":"56598","locality":"Rheinbrohl","municipality":{"key":"07138063","name":"Rheinbrohl","type":"Kreisangehörige_Gemeinde"},"district":{"key":"07138","name":"Neuwied","type":"Landkreis"},"federalState":{"key":"07","name":"Rheinland-Pfalz"}},{"name":"Pater-Paulsen-Str.","postalCode":"56656","locality":"Brohl-Lützing","municipality":{"key":"07131014","name":"Brohl-Lützing","type":"Kreisangehörige_Gemeinde"},"district":{"key":"07131","name":"Ahrweiler","type":"Landkreis"},"federalState":{"key":"07","name":"Rheinland-Pfalz"}},{"name":"Pfarrer-Geyermann-Str.","postalCode":"56598","locality":"Rheinbrohl","municipality":{"key":"07138063","name":"Rheinbrohl","type":"Kreisangehörige_Gemeinde"},"district":{"key":"07138","name":"Neuwied","type":"Landkreis"},"federalState":{"key":"07","name":"Rheinland-Pfalz"}},{"name":"Pfarrer-Volk-Str.","postalCode":"56598","locality":"Rheinbrohl","municipality":{"key":"07138063","name":"Rheinbrohl","type":"Kreisangehörige_Gemeinde"},"district":{"key":"07138","name":"Neuwied","type":"Landkreis"},"federalState":{"key":"07","name":"Rheinland-Pfalz"}},{"name":"Poststr.","postalCode":"56598","locality":"Rheinbrohl","municipality":{"key":"07138063","name":"Rheinbrohl","type":"Kreisangehörige_Gemeinde"},"district":{"key":"07138","name":"Neuwied","type":"Landkreis"},"federalState":{"key":"07","name":"Rheinland-Pfalz"}},{"name":"Quellenstr.","postalCode":"56656","locality":"Brohl-Lützing","municipality":{"key":"07131014","name":"Brohl-Lützing","type":"Kreisangehörige_Gemeinde"},"district":{"key":"07131","name":"Ahrweiler","type":"Landkreis"},"federalState":{"key":"07","name":"Rheinland-Pfalz"}},{"name":"Quellenweg","postalCode":"56656","locality":"Brohl-Lützing","municipality":{"key":"07131014","name":"Brohl-Lützing","type":"Kreisangehörige_Gemeinde"},"district":{"key":"07131","name":"Ahrweiler","type":"Landkreis"},"federalState":{"key":"07","name":"Rheinland-Pfalz"}},{"name":"Quellenweg","postalCode":"56659","locality":"Burgbrohl","municipality":{"key":"07131202","name":"Burgbrohl","type":"Kreisangehörige_Gemeinde"},"district":{"key":"07131","name":"Ahrweiler","type":"Landkreis"},"federalState":{"key":"07","name":"Rheinland-Pfalz"}},{"name":"Rheinstr.","postalCode":"56656","locality":"Brohl-Lützing","municipality":{"key":"07131014","name":"Brohl-Lützing","type":"Kreisangehörige_Gemeinde"},"district":{"key":"07131","name":"Ahrweiler","type":"Landkreis"},"federalState":{"key":"07","name":"Rheinland-Pfalz"}},{"name":"Rhodiusstr.","postalCode":"56659","locality":"Burgbrohl","municipality":{"key":"07131202","name":"Burgbrohl","type":"Kreisangehörige_Gemeinde"},"district":{"key":"07131","name":"Ahrweiler","type":"Landkreis"},"federalState":{"key":"07","name":"Rheinland-Pfalz"}},{"name":"Ringstr.","postalCode":"56659","locality":"Burgbrohl","municipality":{"key":"07131202","name":"Burgbrohl","type":"Kreisangehörige_Gemeinde"},"district":{"key":"07131","name":"Ahrweiler","type":"Landkreis"},"federalState":{"key":"07","name":"Rheinland-Pfalz"}},{"name":"Roeserberg","postalCode":"56754","locality":"Brohl","municipality":{"key":"07135016","name":"Brohl","type":"Kreisangehörige_Gemeinde"},"district":{"key":"07135","name":"Cochem-Zell","type":"Landkreis"},"federalState":{"key":"07","name":"Rheinland-Pfalz"}},{"name":"Rohrpfad","postalCode":"56598","locality":"Rheinbrohl","municipality":{"key":"07138063","name":"Rheinbrohl","type":"Kreisangehörige_Gemeinde"},"district":{"key":"07138","name":"Neuwied","type":"Landkreis"},"federalState":{"key":"07","name":"Rheinland-Pfalz"}},{"name":"Römerbergstr.","postalCode":"56598","locality":"Rheinbrohl","municipality":{"key":"07138063","name":"Rheinbrohl","type":"Kreisangehörige_Gemeinde"},"district":{"key":"07138","name":"Neuwied","type":"Landkreis"},"federalState":{"key":"07","name":"Rheinland-Pfalz"}},{"name":"Römerring","postalCode":"56598","locality":"Rheinbrohl","municipality":{"key":"07138063","name":"Rheinbrohl","type":"Kreisangehörige_Gemeinde"},"district":{"key":"07138","name":"Neuwied","type":"Landkreis"},"federalState":{"key":"07","name":"Rheinland-Pfalz"}},{"name":"Rosenstr.","postalCode":"56656","locality":"Brohl-Lützing","municipality":{"key":"07131014","name":"Brohl-Lützing","type":"Kreisangehörige_Gemeinde"},"district":{"key":"07131","name":"Ahrweiler","type":"Landkreis"},"federalState":{"key":"07","name":"Rheinland-Pfalz"}},{"name":"Schillerstr.","postalCode":"56598","locality":"Rheinbrohl","municipality":{"key":"07138063","name":"Rheinbrohl","type":"Kreisangehörige_Gemeinde"},"district":{"key":"07138","name":"Neuwied","type":"Landkreis"},"federalState":{"key":"07","name":"Rheinland-Pfalz"}},{"name":"Schubertstr.","postalCode":"56598","locality":"Rheinbrohl","municipality":{"key":"07138063","name":"Rheinbrohl","type":"Kreisangehörige_Gemeinde"},"district":{"key":"07138","name":"Neuwied","type":"Landkreis"},"federalState":{"key":"07","name":"Rheinland-Pfalz"}},{"name":"Schulstr.","postalCode":"56598","locality":"Rheinbrohl","municipality":{"key":"07138063","name":"Rheinbrohl","type":"Kreisangehörige_Gemeinde"},"district":{"key":"07138","name":"Neuwied","type":"Landkreis"},"federalState":{"key":"07","name":"Rheinland-Pfalz"}},{"name":"Schulstr.","postalCode":"56656","locality":"Brohl-Lützing","municipality":{"key":"07131014","name":"Brohl-Lützing","type":"Kreisangehörige_Gemeinde"},"district":{"key":"07131","name":"Ahrweiler","type":"Landkreis"},"federalState":{"key":"07","name":"Rheinland-Pfalz"}},{"name":"Schulstr.","postalCode":"56659","locality":"Burgbrohl","municipality":{"key":"07131202","name":"Burgbrohl","type":"Kreisangehörige_Gemeinde"},"district":{"key":"07131","name":"Ahrweiler","type":"Landkreis"},"federalState":{"key":"07","name":"Rheinland-Pfalz"}},{"name":"Schulstr.","postalCode":"56754","locality":"Brohl","municipality":{"key":"07135016","name":"Brohl","type":"Kreisangehörige_Gemeinde"},"district":{"key":"07135","name":"Cochem-Zell","type":"Landkreis"},"federalState":{"key":"07","name":"Rheinland-Pfalz"}},{"name":"Schützenweg","postalCode":"56659","locality":"Burgbrohl","municipality":{"key":"07131202","name":"Burgbrohl","type":"Kreisangehörige_Gemeinde"},"district":{"key":"07131","name":"Ahrweiler","type":"Landkreis"},"federalState":{"key":"07","name":"Rheinland-Pfalz"}},{"name":"Schwester-Urbitia-Str.","postalCode":"56598","locality":"Rheinbrohl","municipality":{"key":"07138063","name":"Rheinbrohl","type":"Kreisangehörige_Gemeinde"},"district":{"key":"07138","name":"Neuwied","type":"Landkreis"},"federalState":{"key":"07","name":"Rheinland-Pfalz"}},{"name":"Seitheller Weg","postalCode":"56598","locality":"Rheinbrohl","municipality":{"key":"07138063","name":"Rheinbrohl","type":"Kreisangehörige_Gemeinde"},"district":{"key":"07138","name":"Neuwied","type":"Landkreis"},"federalState":{"key":"07","name":"Rheinland-Pfalz"}},{"name":"Sonnenstr.","postalCode":"56656","locality":"Brohl-Lützing","municipality":{"key":"07131014","name":"Brohl-Lützing","type":"Kreisangehörige_Gemeinde"},"district":{"key":"07131","name":"Ahrweiler","type":"Landkreis"},"federalState":{"key":"07","name":"Rheinland-Pfalz"}},{"name":"Steinbergsweg","postalCode":"56656","locality":"Brohl-Lützing","municipality":{"key":"07131014","name":"Brohl-Lützing","type":"Kreisangehörige_Gemeinde"},"district":{"key":"07131","name":"Ahrweiler","type":"Landkreis"},"federalState":{"key":"07","name":"Rheinland-Pfalz"}},{"name":"St. Lambertusstr.","postalCode":"56656","locality":"Brohl-Lützing","municipality":{"key":"07131014","name":"Brohl-Lützing","type":"Kreisangehörige_Gemeinde"},"district":{"key":"07131","name":"Ahrweiler","type":"Landkreis"},"federalState":{"key":"07","name":"Rheinland-Pfalz"}},{"name":"Südstr.","postalCode":"56659","locality":"Burgbrohl","municipality":{"key":"07131202","name":"Burgbrohl","type":"Kreisangehörige_Gemeinde"},"district":{"key":"07131","name":"Ahrweiler","type":"Landkreis"},"federalState":{"key":"07","name":"Rheinland-Pfalz"}},{"name":"Tannenweg","postalCode":"56656","locality":"Brohl-Lützing","municipality":{"key":"07131014","name":"Brohl-Lützing","type":"Kreisangehörige_Gemeinde"},"district":{"key":"07131","name":"Ahrweiler","type":"Landkreis"},"federalState":{"key":"07","name":"Rheinland-Pfalz"}},{"name":"Tönissteinerstr.","postalCode":"56659","locality":"Burgbrohl","municipality":{"key":"07131202","name":"Burgbrohl","type":"Kreisangehörige_Gemeinde"},"district":{"key":"07131","name":"Ahrweiler","type":"Landkreis"},"federalState":{"key":"07","name":"Rheinland-Pfalz"}},{"name":"Uckerhöhler Weg","postalCode":"56598","locality":"Rheinbrohl","municipality":{"key":"07138063","name":"Rheinbrohl","type":"Kreisangehörige_Gemeinde"},"district":{"key":"07138","name":"Neuwied","type":"Landkreis"},"federalState":{"key":"07","name":"Rheinland-Pfalz"}},{"name":"Unter dem Eiberg","postalCode":"56656","locality":"Brohl-Lützing","municipality":{"key":"07131014","name":"Brohl-Lützing","type":"Kreisangehörige_Gemeinde"},"district":{"key":"07131","name":"Ahrweiler","type":"Landkreis"},"federalState":{"key":"07","name":"Rheinland-Pfalz"}},{"name":"Unter dem Erdelsweiher","postalCode":"56659","locality":"Burgbrohl","municipality":{"key":"07131202","name":"Burgbrohl","type":"Kreisangehörige_Gemeinde"},"district":{"key":"07131","name":"Ahrweiler","type":"Landkreis"},"federalState":{"key":"07","name":"Rheinland-Pfalz"}},{"name":"Unterster Bergweg","postalCode":"56598","locality":"Rheinbrohl","municipality":{"key":"07138063","name":"Rheinbrohl","type":"Kreisangehörige_Gemeinde"},"district":{"key":"07138","name":"Neuwied","type":"Landkreis"},"federalState":{"key":"07","name":"Rheinland-Pfalz"}},{"name":"Vitumhof","postalCode":"56659","locality":"Burgbrohl","municipality":{"key":"07131202","name":"Burgbrohl","type":"Kreisangehörige_Gemeinde"},"district":{"key":"07131","name":"Ahrweiler","type":"Landkreis"},"federalState":{"key":"07","name":"Rheinland-Pfalz"}},{"name":"Vitusweg","postalCode":"56659","locality":"Burgbrohl","municipality":{"key":"07131202","name":"Burgbrohl","type":"Kreisangehörige_Gemeinde"},"district":{"key":"07131","name":"Ahrweiler","type":"Landkreis"},"federalState":{"key":"07","name":"Rheinland-Pfalz"}},{"name":"Vogtstr.","postalCode":"56598","locality":"Rheinbrohl","municipality":{"key":"07138063","name":"Rheinbrohl","type":"Kreisangehörige_Gemeinde"},"district":{"key":"07138","name":"Neuwied","type":"Landkreis"},"federalState":{"key":"07","name":"Rheinland-Pfalz"}},{"name":"Von Brule Str.","postalCode":"56659","locality":"Burgbrohl","municipality":{"key":"07131202","name":"Burgbrohl","type":"Kreisangehörige_Gemeinde"},"district":{"key":"07131","name":"Ahrweiler","type":"Landkreis"},"federalState":{"key":"07","name":"Rheinland-Pfalz"}},{"name":"Vulkanstr.","postalCode":"56659","locality":"Burgbrohl","municipality":{"key":"07131202","name":"Burgbrohl","type":"Kreisangehörige_Gemeinde"},"district":{"key":"07131","name":"Ahrweiler","type":"Landkreis"},"federalState":{"key":"07","name":"Rheinland-Pfalz"}},{"name":"Vulkan- und Panoramaweg (Zuweg)","postalCode":"56659","locality":"Burgbrohl","municipality":{"key":"07131202","name":"Burgbrohl","type":"Kreisangehörige_Gemeinde"},"district":{"key":"07131","name":"Ahrweiler","type":"Landkreis"},"federalState":{"key":"07","name":"Rheinland-Pfalz"}},{"name":"Waldstr.","postalCode":"56656","locality":"Brohl-Lützing","municipality":{"key":"07131014","name":"Brohl-Lützing","type":"Kreisangehörige_Gemeinde"},"district":{"key":"07131","name":"Ahrweiler","type":"Landkreis"},"federalState":{"key":"07","name":"Rheinland-Pfalz"}},{"name":"Waldweg","postalCode":"56754","locality":"Brohl","municipality":{"key":"07135016","name":"Brohl","type":"Kreisangehörige_Gemeinde"},"district":{"key":"07135","name":"Cochem-Zell","type":"Landkreis"},"federalState":{"key":"07","name":"Rheinland-Pfalz"}},{"name":"Wallgasse","postalCode":"56598","locality":"Rheinbrohl","municipality":{"key":"07138063","name":"Rheinbrohl","type":"Kreisangehörige_Gemeinde"},"district":{"key":"07138","name":"Neuwied","type":"Landkreis"},"federalState":{"key":"07","name":"Rheinland-Pfalz"}},{"name":"Wassenacher Hohl","postalCode":"56659","locality":"Burgbrohl","municipality":{"key":"07131202","name":"Burgbrohl","type":"Kreisangehörige_Gemeinde"},"district":{"key":"07131","name":"Ahrweiler","type":"Landkreis"},"federalState":{"key":"07","name":"Rheinland-Pfalz"}},{"name":"Wassenacker Hohl","postalCode":"56659","locality":"Burgbrohl","municipality":{"key":"07131202","name":"Burgbrohl","type":"Kreisangehörige_Gemeinde"},"district":{"key":"07131","name":"Ahrweiler","type":"Landkreis"},"federalState":{"key":"07","name":"Rheinland-Pfalz"}},{"name":"Weilerweg","postalCode":"56754","locality":"Brohl","municipality":{"key":"07135016","name":"Brohl","type":"Kreisangehörige_Gemeinde"},"district":{"key":"07135","name":"Cochem-Zell","type":"Landkreis"},"federalState":{"key":"07","name":"Rheinland-Pfalz"}},{"name":"Wiesenstr.","postalCode":"56656","locality":"Brohl-Lützing","municipality":{"key":"07131014","name":"Brohl-Lützing","type":"Kreisangehörige_Gemeinde"},"district":{"key":"07131","name":"Ahrweiler","type":"Landkreis"},"federalState":{"key":"07","name":"Rheinland-Pfalz"}},{"name":"Wilhelm-Bell-Str.","postalCode":"56659","locality":"Burgbrohl","municipality":{"key":"07131202","name":"Burgbrohl","type":"Kreisangehörige_Gemeinde"},"district":{"key":"07131","name":"Ahrweiler","type":"Landkreis"},"federalState":{"key":"07","name":"Rheinland-Pfalz"}},{"name":"Wilhelmstr.","postalCode":"56598","locality":"Rheinbrohl","municipality":{"key":"07138063","name":"Rheinbrohl","type":"Kreisangehörige_Gemeinde"},"district":{"key":"07138","name":"Neuwied","type":"Landkreis"},"federalState":{"key":"07","name":"Rheinland-Pfalz"}},{"name":"Zehnthof-Platz","postalCode":"56598","locality":"Rheinbrohl","municipality":{"key":"07138063","name":"Rheinbrohl","type":"Kreisangehörige_Gemeinde"},"district":{"key":"07138","name":"Neuwied","type":"Landkreis"},"federalState":{"key":"07","name":"Rheinland-Pfalz"}},{"name":"Zeibstr.","postalCode":"56656","locality":"Brohl-Lützing","municipality":{"key":"07131014","name":"Brohl-Lützing","type":"Kreisangehörige_Gemeinde"},"district":{"key":"07131","name":"Ahrweiler","type":"Landkreis"},"federalState":{"key":"07","name":"Rheinland-Pfalz"}},{"name":"Zum Heiligenhäuschen","postalCode":"56659","locality":"Burgbrohl","municipality":{"key":"07131202","name":"Burgbrohl","type":"Kreisangehörige_Gemeinde"},"district":{"key":"07131","name":"Ahrweiler","type":"Landkreis"},"federalState":{"key":"07","name":"Rheinland-Pfalz"}},{"name":"Zur Mühle","postalCode":"56598","locality":"Rheinbrohl","municipality":{"key":"07138063","name":"Rheinbrohl","type":"Kreisangehörige_Gemeinde"},"district":{"key":"07138","name":"Neuwied","type":"Landkreis"},"federalState":{"key":"07","name":"Rheinland-Pfalz"}},]