[{"name":"Akazienweg","postalCode":"96152","locality":"Burghaslach","municipality":{"key":"09575116","name":"Burghaslach, M","type":"Markt"},"district":{"key":"09575","name":"Neustadt a.d.Aisch-Bad Windsheim","type":"Landkreis"},"federalState":{"key":"09","name":"Bayern"}},{"name":"Alte Schulgasse","postalCode":"96152","locality":"Burghaslach","municipality":{"key":"09575116","name":"Burghaslach, M","type":"Markt"},"district":{"key":"09575","name":"Neustadt a.d.Aisch-Bad Windsheim","type":"Landkreis"},"federalState":{"key":"09","name":"Bayern"}},{"name":"Am Forstberg","postalCode":"96152","locality":"Burghaslach","municipality":{"key":"09575116","name":"Burghaslach, M","type":"Markt"},"district":{"key":"09575","name":"Neustadt a.d.Aisch-Bad Windsheim","type":"Landkreis"},"federalState":{"key":"09","name":"Bayern"}},{"name":"Am Schopfensee","postalCode":"96152","locality":"Burghaslach","municipality":{"key":"09575116","name":"Burghaslach, M","type":"Markt"},"district":{"key":"09575","name":"Neustadt a.d.Aisch-Bad Windsheim","type":"Landkreis"},"federalState":{"key":"09","name":"Bayern"}},{"name":"An der Eichelfahrt","postalCode":"96152","locality":"Burghaslach","municipality":{"key":"09575116","name":"Burghaslach, M","type":"Markt"},"district":{"key":"09575","name":"Neustadt a.d.Aisch-Bad Windsheim","type":"Landkreis"},"federalState":{"key":"09","name":"Bayern"}},{"name":"Asternweg","postalCode":"96152","locality":"Burghaslach","municipality":{"key":"09575116","name":"Burghaslach, M","type":"Markt"},"district":{"key":"09575","name":"Neustadt a.d.Aisch-Bad Windsheim","type":"Landkreis"},"federalState":{"key":"09","name":"Bayern"}},{"name":"Bamberger Str.","postalCode":"96152","locality":"Burghaslach","municipality":{"key":"09575116","name":"Burghaslach, M","type":"Markt"},"district":{"key":"09575","name":"Neustadt a.d.Aisch-Bad Windsheim","type":"Landkreis"},"federalState":{"key":"09","name":"Bayern"}},{"name":"Birkenstr.","postalCode":"96152","locality":"Burghaslach","municipality":{"key":"09575116","name":"Burghaslach, M","type":"Markt"},"district":{"key":"09575","name":"Neustadt a.d.Aisch-Bad Windsheim","type":"Landkreis"},"federalState":{"key":"09","name":"Bayern"}},{"name":"Breitenlohe","postalCode":"96152","locality":"Burghaslach","municipality":{"key":"09575116","name":"Burghaslach, M","type":"Markt"},"district":{"key":"09575","name":"Neustadt a.d.Aisch-Bad Windsheim","type":"Landkreis"},"federalState":{"key":"09","name":"Bayern"}},{"name":"Buchbacher Str.","postalCode":"96152","locality":"Burghaslach","municipality":{"key":"09575116","name":"Burghaslach, M","type":"Markt"},"district":{"key":"09575","name":"Neustadt a.d.Aisch-Bad Windsheim","type":"Landkreis"},"federalState":{"key":"09","name":"Bayern"}},{"name":"Buchmühle","postalCode":"96152","locality":"Burghaslach","municipality":{"key":"09575116","name":"Burghaslach, M","type":"Markt"},"district":{"key":"09575","name":"Neustadt a.d.Aisch-Bad Windsheim","type":"Landkreis"},"federalState":{"key":"09","name":"Bayern"}},{"name":"Burghöchstadt","postalCode":"96152","locality":"Burghaslach","municipality":{"key":"09575116","name":"Burghaslach, M","type":"Markt"},"district":{"key":"09575","name":"Neustadt a.d.Aisch-Bad Windsheim","type":"Landkreis"},"federalState":{"key":"09","name":"Bayern"}},{"name":"Ellerberg","postalCode":"96152","locality":"Burghaslach","municipality":{"key":"09575116","name":"Burghaslach, M","type":"Markt"},"district":{"key":"09575","name":"Neustadt a.d.Aisch-Bad Windsheim","type":"Landkreis"},"federalState":{"key":"09","name":"Bayern"}},{"name":"Ernst-A.-Bettag-Allee","postalCode":"96152","locality":"Burghaslach","municipality":{"key":"09575116","name":"Burghaslach, M","type":"Markt"},"district":{"key":"09575","name":"Neustadt a.d.Aisch-Bad Windsheim","type":"Landkreis"},"federalState":{"key":"09","name":"Bayern"}},{"name":"Freihaslach","postalCode":"96152","locality":"Burghaslach","municipality":{"key":"09575116","name":"Burghaslach, M","type":"Markt"},"district":{"key":"09575","name":"Neustadt a.d.Aisch-Bad Windsheim","type":"Landkreis"},"federalState":{"key":"09","name":"Bayern"}},{"name":"Fürstenforster Str.","postalCode":"96152","locality":"Burghaslach","municipality":{"key":"09575116","name":"Burghaslach, M","type":"Markt"},"district":{"key":"09575","name":"Neustadt a.d.Aisch-Bad Windsheim","type":"Landkreis"},"federalState":{"key":"09","name":"Bayern"}},{"name":"Gartenstr.","postalCode":"96152","locality":"Burghaslach","municipality":{"key":"09575116","name":"Burghaslach, M","type":"Markt"},"district":{"key":"09575","name":"Neustadt a.d.Aisch-Bad Windsheim","type":"Landkreis"},"federalState":{"key":"09","name":"Bayern"}},{"name":"Griffenberg","postalCode":"96152","locality":"Burghaslach","municipality":{"key":"09575116","name":"Burghaslach, M","type":"Markt"},"district":{"key":"09575","name":"Neustadt a.d.Aisch-Bad Windsheim","type":"Landkreis"},"federalState":{"key":"09","name":"Bayern"}},{"name":"Haslachstr.","postalCode":"96152","locality":"Burghaslach","municipality":{"key":"09575116","name":"Burghaslach, M","type":"Markt"},"district":{"key":"09575","name":"Neustadt a.d.Aisch-Bad Windsheim","type":"Landkreis"},"federalState":{"key":"09","name":"Bayern"}},{"name":"Hofgasse","postalCode":"96152","locality":"Burghaslach","municipality":{"key":"09575116","name":"Burghaslach, M","type":"Markt"},"district":{"key":"09575","name":"Neustadt a.d.Aisch-Bad Windsheim","type":"Landkreis"},"federalState":{"key":"09","name":"Bayern"}},{"name":"Kastanienweg","postalCode":"96152","locality":"Burghaslach","municipality":{"key":"09575116","name":"Burghaslach, M","type":"Markt"},"district":{"key":"09575","name":"Neustadt a.d.Aisch-Bad Windsheim","type":"Landkreis"},"federalState":{"key":"09","name":"Bayern"}},{"name":"Kirchplatz","postalCode":"96152","locality":"Burghaslach","municipality":{"key":"09575116","name":"Burghaslach, M","type":"Markt"},"district":{"key":"09575","name":"Neustadt a.d.Aisch-Bad Windsheim","type":"Landkreis"},"federalState":{"key":"09","name":"Bayern"}},{"name":"Kirchrimbach","postalCode":"96152","locality":"Burghaslach","municipality":{"key":"09575116","name":"Burghaslach, M","type":"Markt"},"district":{"key":"09575","name":"Neustadt a.d.Aisch-Bad Windsheim","type":"Landkreis"},"federalState":{"key":"09","name":"Bayern"}},{"name":"Kirschenallee","postalCode":"96152","locality":"Burghaslach","municipality":{"key":"09575116","name":"Burghaslach, M","type":"Markt"},"district":{"key":"09575","name":"Neustadt a.d.Aisch-Bad Windsheim","type":"Landkreis"},"federalState":{"key":"09","name":"Bayern"}},{"name":"Laubanger","postalCode":"96152","locality":"Burghaslach","municipality":{"key":"09575116","name":"Burghaslach, M","type":"Markt"},"district":{"key":"09575","name":"Neustadt a.d.Aisch-Bad Windsheim","type":"Landkreis"},"federalState":{"key":"09","name":"Bayern"}},{"name":"Leonhard-Höfler-Str.","postalCode":"96152","locality":"Burghaslach","municipality":{"key":"09575116","name":"Burghaslach, M","type":"Markt"},"district":{"key":"09575","name":"Neustadt a.d.Aisch-Bad Windsheim","type":"Landkreis"},"federalState":{"key":"09","name":"Bayern"}},{"name":"Lindenweg","postalCode":"96152","locality":"Burghaslach","municipality":{"key":"09575116","name":"Burghaslach, M","type":"Markt"},"district":{"key":"09575","name":"Neustadt a.d.Aisch-Bad Windsheim","type":"Landkreis"},"federalState":{"key":"09","name":"Bayern"}},{"name":"Marktplatz","postalCode":"96152","locality":"Burghaslach","municipality":{"key":"09575116","name":"Burghaslach, M","type":"Markt"},"district":{"key":"09575","name":"Neustadt a.d.Aisch-Bad Windsheim","type":"Landkreis"},"federalState":{"key":"09","name":"Bayern"}},{"name":"Mühlgasse","postalCode":"96152","locality":"Burghaslach","municipality":{"key":"09575116","name":"Burghaslach, M","type":"Markt"},"district":{"key":"09575","name":"Neustadt a.d.Aisch-Bad Windsheim","type":"Landkreis"},"federalState":{"key":"09","name":"Bayern"}},{"name":"Münchhof","postalCode":"96152","locality":"Burghaslach","municipality":{"key":"09575116","name":"Burghaslach, M","type":"Markt"},"district":{"key":"09575","name":"Neustadt a.d.Aisch-Bad Windsheim","type":"Landkreis"},"federalState":{"key":"09","name":"Bayern"}},{"name":"Nelkenweg","postalCode":"96152","locality":"Burghaslach","municipality":{"key":"09575116","name":"Burghaslach, M","type":"Markt"},"district":{"key":"09575","name":"Neustadt a.d.Aisch-Bad Windsheim","type":"Landkreis"},"federalState":{"key":"09","name":"Bayern"}},{"name":"Neustädter Str.","postalCode":"96152","locality":"Burghaslach","municipality":{"key":"09575116","name":"Burghaslach, M","type":"Markt"},"district":{"key":"09575","name":"Neustadt a.d.Aisch-Bad Windsheim","type":"Landkreis"},"federalState":{"key":"09","name":"Bayern"}},{"name":"Niederndorf","postalCode":"96152","locality":"Burghaslach","municipality":{"key":"09575116","name":"Burghaslach, M","type":"Markt"},"district":{"key":"09575","name":"Neustadt a.d.Aisch-Bad Windsheim","type":"Landkreis"},"federalState":{"key":"09","name":"Bayern"}},{"name":"Nürnberger Str.","postalCode":"96152","locality":"Burghaslach","municipality":{"key":"09575116","name":"Burghaslach, M","type":"Markt"},"district":{"key":"09575","name":"Neustadt a.d.Aisch-Bad Windsheim","type":"Landkreis"},"federalState":{"key":"09","name":"Bayern"}},{"name":"Oberrimbach","postalCode":"96152","locality":"Burghaslach","municipality":{"key":"09575116","name":"Burghaslach, M","type":"Markt"},"district":{"key":"09575","name":"Neustadt a.d.Aisch-Bad Windsheim","type":"Landkreis"},"federalState":{"key":"09","name":"Bayern"}},{"name":"Pfarrgasse","postalCode":"96152","locality":"Burghaslach","municipality":{"key":"09575116","name":"Burghaslach, M","type":"Markt"},"district":{"key":"09575","name":"Neustadt a.d.Aisch-Bad Windsheim","type":"Landkreis"},"federalState":{"key":"09","name":"Bayern"}},{"name":"Poppenleiten","postalCode":"96152","locality":"Burghaslach","municipality":{"key":"09575116","name":"Burghaslach, M","type":"Markt"},"district":{"key":"09575","name":"Neustadt a.d.Aisch-Bad Windsheim","type":"Landkreis"},"federalState":{"key":"09","name":"Bayern"}},{"name":"Rosenweg","postalCode":"96152","locality":"Burghaslach","municipality":{"key":"09575116","name":"Burghaslach, M","type":"Markt"},"district":{"key":"09575","name":"Neustadt a.d.Aisch-Bad Windsheim","type":"Landkreis"},"federalState":{"key":"09","name":"Bayern"}},{"name":"Röthenweg","postalCode":"96152","locality":"Burghaslach","municipality":{"key":"09575116","name":"Burghaslach, M","type":"Markt"},"district":{"key":"09575","name":"Neustadt a.d.Aisch-Bad Windsheim","type":"Landkreis"},"federalState":{"key":"09","name":"Bayern"}},{"name":"Schlüsselfelder Weg","postalCode":"96152","locality":"Burghaslach","municipality":{"key":"09575116","name":"Burghaslach, M","type":"Markt"},"district":{"key":"09575","name":"Neustadt a.d.Aisch-Bad Windsheim","type":"Landkreis"},"federalState":{"key":"09","name":"Bayern"}},{"name":"Seestr.","postalCode":"96152","locality":"Burghaslach","municipality":{"key":"09575116","name":"Burghaslach, M","type":"Markt"},"district":{"key":"09575","name":"Neustadt a.d.Aisch-Bad Windsheim","type":"Landkreis"},"federalState":{"key":"09","name":"Bayern"}},{"name":"Tulpenweg","postalCode":"96152","locality":"Burghaslach","municipality":{"key":"09575116","name":"Burghaslach, M","type":"Markt"},"district":{"key":"09575","name":"Neustadt a.d.Aisch-Bad Windsheim","type":"Landkreis"},"federalState":{"key":"09","name":"Bayern"}},{"name":"Würzburger Str.","postalCode":"96152","locality":"Burghaslach","municipality":{"key":"09575116","name":"Burghaslach, M","type":"Markt"},"district":{"key":"09575","name":"Neustadt a.d.Aisch-Bad Windsheim","type":"Landkreis"},"federalState":{"key":"09","name":"Bayern"}},]