[{"key":"10006179","name":"Alchenberg","postalCode":"3472","locality":"Wynigen","commune":{"key":"424","name":"Wynigen","shortName":"Wynigen"},"district":{"key":"245","name":"Verwaltungskreis Emmental"},"canton":{"key":"2","code":"BE","name":"Bern / Berne"},"status":"Real"},{"key":"10182030","name":"Alchenstorfstrasse","postalCode":"3472","locality":"Wynigen","commune":{"key":"424","name":"Wynigen","shortName":"Wynigen"},"district":{"key":"245","name":"Verwaltungskreis Emmental"},"canton":{"key":"2","code":"BE","name":"Bern / Berne"},"status":"Real"},{"key":"10217024","name":"Allmänd","postalCode":"3472","locality":"Wynigen","commune":{"key":"424","name":"Wynigen","shortName":"Wynigen"},"district":{"key":"245","name":"Verwaltungskreis Emmental"},"canton":{"key":"2","code":"BE","name":"Bern / Berne"},"status":"Real"},{"key":"10123891","name":"Ausserhaus","postalCode":"3472","locality":"Wynigen","commune":{"key":"424","name":"Wynigen","shortName":"Wynigen"},"district":{"key":"245","name":"Verwaltungskreis Emmental"},"canton":{"key":"2","code":"BE","name":"Bern / Berne"},"status":"Real"},{"key":"10006180","name":"Beerigütsch","postalCode":"3472","locality":"Wynigen","commune":{"key":"424","name":"Wynigen","shortName":"Wynigen"},"district":{"key":"245","name":"Verwaltungskreis Emmental"},"canton":{"key":"2","code":"BE","name":"Bern / Berne"},"status":"Real"},{"key":"10006181","name":"Bergli","postalCode":"3472","locality":"Wynigen","commune":{"key":"424","name":"Wynigen","shortName":"Wynigen"},"district":{"key":"245","name":"Verwaltungskreis Emmental"},"canton":{"key":"2","code":"BE","name":"Bern / Berne"},"status":"Real"},{"key":"10112108","name":"Bickigen","postalCode":"3472","locality":"Wynigen","commune":{"key":"424","name":"Wynigen","shortName":"Wynigen"},"district":{"key":"245","name":"Verwaltungskreis Emmental"},"canton":{"key":"2","code":"BE","name":"Bern / Berne"},"status":"Real"},{"key":"10067204","name":"Bifang","postalCode":"3472","locality":"Wynigen","commune":{"key":"424","name":"Wynigen","shortName":"Wynigen"},"district":{"key":"245","name":"Verwaltungskreis Emmental"},"canton":{"key":"2","code":"BE","name":"Bern / Berne"},"status":"Real"},{"key":"10149171","name":"Bifangmatt","postalCode":"3472","locality":"Wynigen","commune":{"key":"424","name":"Wynigen","shortName":"Wynigen"},"district":{"key":"245","name":"Verwaltungskreis Emmental"},"canton":{"key":"2","code":"BE","name":"Bern / Berne"},"status":"Real"},{"key":"10177654","name":"Breitslohn","postalCode":"3472","locality":"Wynigen","commune":{"key":"424","name":"Wynigen","shortName":"Wynigen"},"district":{"key":"245","name":"Verwaltungskreis Emmental"},"canton":{"key":"2","code":"BE","name":"Bern / Berne"},"status":"Real"},{"key":"10189801","name":"Brittenberg","postalCode":"3472","locality":"Wynigen","commune":{"key":"424","name":"Wynigen","shortName":"Wynigen"},"district":{"key":"245","name":"Verwaltungskreis Emmental"},"canton":{"key":"2","code":"BE","name":"Bern / Berne"},"status":"Real"},{"key":"10006182","name":"Brückhalde","postalCode":"3472","locality":"Wynigen","commune":{"key":"424","name":"Wynigen","shortName":"Wynigen"},"district":{"key":"245","name":"Verwaltungskreis Emmental"},"canton":{"key":"2","code":"BE","name":"Bern / Berne"},"status":"Real"},{"key":"10006183","name":"Buchacker","postalCode":"3472","locality":"Wynigen","commune":{"key":"424","name":"Wynigen","shortName":"Wynigen"},"district":{"key":"245","name":"Verwaltungskreis Emmental"},"canton":{"key":"2","code":"BE","name":"Bern / Berne"},"status":"Real"},{"key":"10067205","name":"Bühl","postalCode":"3472","locality":"Wynigen","commune":{"key":"424","name":"Wynigen","shortName":"Wynigen"},"district":{"key":"245","name":"Verwaltungskreis Emmental"},"canton":{"key":"2","code":"BE","name":"Bern / Berne"},"status":"Real"},{"key":"10088329","name":"Bühlweidli","postalCode":"3472","locality":"Wynigen","commune":{"key":"424","name":"Wynigen","shortName":"Wynigen"},"district":{"key":"245","name":"Verwaltungskreis Emmental"},"canton":{"key":"2","code":"BE","name":"Bern / Berne"},"status":"Real"},{"key":"10160083","name":"Burgerweg","postalCode":"3472","locality":"Wynigen","commune":{"key":"424","name":"Wynigen","shortName":"Wynigen"},"district":{"key":"245","name":"Verwaltungskreis Emmental"},"canton":{"key":"2","code":"BE","name":"Bern / Berne"},"status":"Real"},{"key":"10217032","name":"Chänerechrain","postalCode":"3472","locality":"Wynigen","commune":{"key":"424","name":"Wynigen","shortName":"Wynigen"},"district":{"key":"245","name":"Verwaltungskreis Emmental"},"canton":{"key":"2","code":"BE","name":"Bern / Berne"},"status":"Real"},{"key":"10217037","name":"Chastematt","postalCode":"3472","locality":"Wynigen","commune":{"key":"424","name":"Wynigen","shortName":"Wynigen"},"district":{"key":"245","name":"Verwaltungskreis Emmental"},"canton":{"key":"2","code":"BE","name":"Bern / Berne"},"status":"Real"},{"key":"10148076","name":"Chnubelacher","postalCode":"3472","locality":"Wynigen","commune":{"key":"424","name":"Wynigen","shortName":"Wynigen"},"district":{"key":"245","name":"Verwaltungskreis Emmental"},"canton":{"key":"2","code":"BE","name":"Bern / Berne"},"status":"Real"},{"key":"10006184","name":"Dorfstrasse","postalCode":"3472","locality":"Wynigen","commune":{"key":"424","name":"Wynigen","shortName":"Wynigen"},"district":{"key":"245","name":"Verwaltungskreis Emmental"},"canton":{"key":"2","code":"BE","name":"Bern / Berne"},"status":"Real"},{"key":"10178996","name":"Eich","postalCode":"3472","locality":"Wynigen","commune":{"key":"424","name":"Wynigen","shortName":"Wynigen"},"district":{"key":"245","name":"Verwaltungskreis Emmental"},"canton":{"key":"2","code":"BE","name":"Bern / Berne"},"status":"Real"},{"key":"10126157","name":"Flüehliackerweg","postalCode":"3472","locality":"Wynigen","commune":{"key":"424","name":"Wynigen","shortName":"Wynigen"},"district":{"key":"245","name":"Verwaltungskreis Emmental"},"canton":{"key":"2","code":"BE","name":"Bern / Berne"},"status":"Real"},{"key":"10006469","name":"Flüehliweg","postalCode":"3472","locality":"Wynigen","commune":{"key":"424","name":"Wynigen","shortName":"Wynigen"},"district":{"key":"245","name":"Verwaltungskreis Emmental"},"canton":{"key":"2","code":"BE","name":"Bern / Berne"},"status":"Real"},{"key":"10006470","name":"Fuhren","postalCode":"3472","locality":"Wynigen","commune":{"key":"424","name":"Wynigen","shortName":"Wynigen"},"district":{"key":"245","name":"Verwaltungskreis Emmental"},"canton":{"key":"2","code":"BE","name":"Bern / Berne"},"status":"Real"},{"key":"10067209","name":"Gässli","postalCode":"3472","locality":"Wynigen","commune":{"key":"424","name":"Wynigen","shortName":"Wynigen"},"district":{"key":"245","name":"Verwaltungskreis Emmental"},"canton":{"key":"2","code":"BE","name":"Bern / Berne"},"status":"Real"},{"key":"10067208","name":"Grossmatt","postalCode":"3472","locality":"Wynigen","commune":{"key":"424","name":"Wynigen","shortName":"Wynigen"},"district":{"key":"245","name":"Verwaltungskreis Emmental"},"canton":{"key":"2","code":"BE","name":"Bern / Berne"},"status":"Real"},{"key":"10088330","name":"Grüttermatt","postalCode":"3472","locality":"Wynigen","commune":{"key":"424","name":"Wynigen","shortName":"Wynigen"},"district":{"key":"245","name":"Verwaltungskreis Emmental"},"canton":{"key":"2","code":"BE","name":"Bern / Berne"},"status":"Real"},{"key":"10177655","name":"Haselmatt","postalCode":"3472","locality":"Wynigen","commune":{"key":"424","name":"Wynigen","shortName":"Wynigen"},"district":{"key":"245","name":"Verwaltungskreis Emmental"},"canton":{"key":"2","code":"BE","name":"Bern / Berne"},"status":"Real"},{"key":"10006471","name":"Hellsauer","postalCode":"3472","locality":"Wynigen","commune":{"key":"424","name":"Wynigen","shortName":"Wynigen"},"district":{"key":"245","name":"Verwaltungskreis Emmental"},"canton":{"key":"2","code":"BE","name":"Bern / Berne"},"status":"Real"},{"key":"10129729","name":"Hinterbrügglen","postalCode":"3472","locality":"Wynigen","commune":{"key":"424","name":"Wynigen","shortName":"Wynigen"},"district":{"key":"245","name":"Verwaltungskreis Emmental"},"canton":{"key":"2","code":"BE","name":"Bern / Berne"},"status":"Real"},{"key":"10067210","name":"Hinterbühl","postalCode":"3472","locality":"Wynigen","commune":{"key":"424","name":"Wynigen","shortName":"Wynigen"},"district":{"key":"245","name":"Verwaltungskreis Emmental"},"canton":{"key":"2","code":"BE","name":"Bern / Berne"},"status":"Real"},{"key":"10198791","name":"Hinterkehr","postalCode":"3472","locality":"Wynigen","commune":{"key":"424","name":"Wynigen","shortName":"Wynigen"},"district":{"key":"245","name":"Verwaltungskreis Emmental"},"canton":{"key":"2","code":"BE","name":"Bern / Berne"},"status":"Real"},{"key":"10124898","name":"Hirsbrunnen","postalCode":"3472","locality":"Wynigen","commune":{"key":"424","name":"Wynigen","shortName":"Wynigen"},"district":{"key":"245","name":"Verwaltungskreis Emmental"},"canton":{"key":"2","code":"BE","name":"Bern / Berne"},"status":"Real"},{"key":"10217046","name":"Hirserewald","postalCode":"3472","locality":"Wynigen","commune":{"key":"424","name":"Wynigen","shortName":"Wynigen"},"district":{"key":"245","name":"Verwaltungskreis Emmental"},"canton":{"key":"2","code":"BE","name":"Bern / Berne"},"status":"Real"},{"key":"10120145","name":"Hirsern","postalCode":"3472","locality":"Wynigen","commune":{"key":"424","name":"Wynigen","shortName":"Wynigen"},"district":{"key":"245","name":"Verwaltungskreis Emmental"},"canton":{"key":"2","code":"BE","name":"Bern / Berne"},"status":"Real"},{"key":"10112109","name":"Hofholz","postalCode":"3472","locality":"Wynigen","commune":{"key":"424","name":"Wynigen","shortName":"Wynigen"},"district":{"key":"245","name":"Verwaltungskreis Emmental"},"canton":{"key":"2","code":"BE","name":"Bern / Berne"},"status":"Real"},{"key":"10067211","name":"Hohfuhren","postalCode":"3472","locality":"Wynigen","commune":{"key":"424","name":"Wynigen","shortName":"Wynigen"},"district":{"key":"245","name":"Verwaltungskreis Emmental"},"canton":{"key":"2","code":"BE","name":"Bern / Berne"},"status":"Real"},{"key":"10004463","name":"Hübeli","postalCode":"3472","locality":"Wynigen","commune":{"key":"424","name":"Wynigen","shortName":"Wynigen"},"district":{"key":"245","name":"Verwaltungskreis Emmental"},"canton":{"key":"2","code":"BE","name":"Bern / Berne"},"status":"Real"},{"key":"10006472","name":"Kaltacker","postalCode":"3472","locality":"Wynigen","commune":{"key":"424","name":"Wynigen","shortName":"Wynigen"},"district":{"key":"245","name":"Verwaltungskreis Emmental"},"canton":{"key":"2","code":"BE","name":"Bern / Berne"},"status":"Real"},{"key":"10006473","name":"Kanzel","postalCode":"3472","locality":"Wynigen","commune":{"key":"424","name":"Wynigen","shortName":"Wynigen"},"district":{"key":"245","name":"Verwaltungskreis Emmental"},"canton":{"key":"2","code":"BE","name":"Bern / Berne"},"status":"Real"},{"key":"10122605","name":"Kappelen","postalCode":"3472","locality":"Wynigen","commune":{"key":"424","name":"Wynigen","shortName":"Wynigen"},"district":{"key":"245","name":"Verwaltungskreis Emmental"},"canton":{"key":"2","code":"BE","name":"Bern / Berne"},"status":"Real"},{"key":"10067212","name":"Kappelenbad","postalCode":"3472","locality":"Wynigen","commune":{"key":"424","name":"Wynigen","shortName":"Wynigen"},"district":{"key":"245","name":"Verwaltungskreis Emmental"},"canton":{"key":"2","code":"BE","name":"Bern / Berne"},"status":"Real"},{"key":"10006474","name":"Kappelenstrasse","postalCode":"3472","locality":"Wynigen","commune":{"key":"424","name":"Wynigen","shortName":"Wynigen"},"district":{"key":"245","name":"Verwaltungskreis Emmental"},"canton":{"key":"2","code":"BE","name":"Bern / Berne"},"status":"Real"},{"key":"10006475","name":"Kappelenweid","postalCode":"3472","locality":"Wynigen","commune":{"key":"424","name":"Wynigen","shortName":"Wynigen"},"district":{"key":"245","name":"Verwaltungskreis Emmental"},"canton":{"key":"2","code":"BE","name":"Bern / Berne"},"status":"Real"},{"key":"10088331","name":"Kasten","postalCode":"3472","locality":"Wynigen","commune":{"key":"424","name":"Wynigen","shortName":"Wynigen"},"district":{"key":"245","name":"Verwaltungskreis Emmental"},"canton":{"key":"2","code":"BE","name":"Bern / Berne"},"status":"Real"},{"key":"10067213","name":"Kehr","postalCode":"3472","locality":"Wynigen","commune":{"key":"424","name":"Wynigen","shortName":"Wynigen"},"district":{"key":"245","name":"Verwaltungskreis Emmental"},"canton":{"key":"2","code":"BE","name":"Bern / Berne"},"status":"Real"},{"key":"10177656","name":"Klösterli","postalCode":"3472","locality":"Wynigen","commune":{"key":"424","name":"Wynigen","shortName":"Wynigen"},"district":{"key":"245","name":"Verwaltungskreis Emmental"},"canton":{"key":"2","code":"BE","name":"Bern / Berne"},"status":"Real"},{"key":"10006476","name":"Krausen","postalCode":"3472","locality":"Wynigen","commune":{"key":"424","name":"Wynigen","shortName":"Wynigen"},"district":{"key":"245","name":"Verwaltungskreis Emmental"},"canton":{"key":"2","code":"BE","name":"Bern / Berne"},"status":"Real"},{"key":"10045536","name":"Krausenmatt","postalCode":"3472","locality":"Wynigen","commune":{"key":"424","name":"Wynigen","shortName":"Wynigen"},"district":{"key":"245","name":"Verwaltungskreis Emmental"},"canton":{"key":"2","code":"BE","name":"Bern / Berne"},"status":"Real"},{"key":"10159373","name":"Länghüsli","postalCode":"3472","locality":"Wynigen","commune":{"key":"424","name":"Wynigen","shortName":"Wynigen"},"district":{"key":"245","name":"Verwaltungskreis Emmental"},"canton":{"key":"2","code":"BE","name":"Bern / Berne"},"status":"Real"},{"key":"10004735","name":"Leggiswil","postalCode":"3472","locality":"Wynigen","commune":{"key":"424","name":"Wynigen","shortName":"Wynigen"},"district":{"key":"245","name":"Verwaltungskreis Emmental"},"canton":{"key":"2","code":"BE","name":"Bern / Berne"},"status":"Real"},{"key":"10088332","name":"Leggiswilstrasse","postalCode":"3472","locality":"Wynigen","commune":{"key":"424","name":"Wynigen","shortName":"Wynigen"},"district":{"key":"245","name":"Verwaltungskreis Emmental"},"canton":{"key":"2","code":"BE","name":"Bern / Berne"},"status":"Real"},{"key":"10006477","name":"Leimern","postalCode":"3472","locality":"Wynigen","commune":{"key":"424","name":"Wynigen","shortName":"Wynigen"},"district":{"key":"245","name":"Verwaltungskreis Emmental"},"canton":{"key":"2","code":"BE","name":"Bern / Berne"},"status":"Real"},{"key":"10067215","name":"Leumberg","postalCode":"3472","locality":"Wynigen","commune":{"key":"424","name":"Wynigen","shortName":"Wynigen"},"district":{"key":"245","name":"Verwaltungskreis Emmental"},"canton":{"key":"2","code":"BE","name":"Bern / Berne"},"status":"Real"},{"key":"10004718","name":"Leumbergegg","postalCode":"3472","locality":"Wynigen","commune":{"key":"424","name":"Wynigen","shortName":"Wynigen"},"district":{"key":"245","name":"Verwaltungskreis Emmental"},"canton":{"key":"2","code":"BE","name":"Bern / Berne"},"status":"Real"},{"key":"10217050","name":"Lochmattsite","postalCode":"3472","locality":"Wynigen","commune":{"key":"424","name":"Wynigen","shortName":"Wynigen"},"district":{"key":"245","name":"Verwaltungskreis Emmental"},"canton":{"key":"2","code":"BE","name":"Bern / Berne"},"status":"Real"},{"key":"10004719","name":"Lorraine","postalCode":"3472","locality":"Wynigen","commune":{"key":"424","name":"Wynigen","shortName":"Wynigen"},"district":{"key":"245","name":"Verwaltungskreis Emmental"},"canton":{"key":"2","code":"BE","name":"Bern / Berne"},"status":"Real"},{"key":"10067216","name":"Luegstrasse","postalCode":"3472","locality":"Wynigen","commune":{"key":"424","name":"Wynigen","shortName":"Wynigen"},"district":{"key":"245","name":"Verwaltungskreis Emmental"},"canton":{"key":"2","code":"BE","name":"Bern / Berne"},"status":"Real"},{"key":"10066851","name":"Matten","postalCode":"3472","locality":"Wynigen","commune":{"key":"424","name":"Wynigen","shortName":"Wynigen"},"district":{"key":"245","name":"Verwaltungskreis Emmental"},"canton":{"key":"2","code":"BE","name":"Bern / Berne"},"status":"Real"},{"key":"10112110","name":"Mingeri","postalCode":"3472","locality":"Wynigen","commune":{"key":"424","name":"Wynigen","shortName":"Wynigen"},"district":{"key":"245","name":"Verwaltungskreis Emmental"},"canton":{"key":"2","code":"BE","name":"Bern / Berne"},"status":"Real"},{"key":"10088333","name":"Mistelberg","postalCode":"3472","locality":"Wynigen","commune":{"key":"424","name":"Wynigen","shortName":"Wynigen"},"district":{"key":"245","name":"Verwaltungskreis Emmental"},"canton":{"key":"2","code":"BE","name":"Bern / Berne"},"status":"Real"},{"key":"10104050","name":"Mistelbrunnen","postalCode":"3472","locality":"Wynigen","commune":{"key":"424","name":"Wynigen","shortName":"Wynigen"},"district":{"key":"245","name":"Verwaltungskreis Emmental"},"canton":{"key":"2","code":"BE","name":"Bern / Berne"},"status":"Real"},{"key":"10144283","name":"Mühlebachweg","postalCode":"3472","locality":"Wynigen","commune":{"key":"424","name":"Wynigen","shortName":"Wynigen"},"district":{"key":"245","name":"Verwaltungskreis Emmental"},"canton":{"key":"2","code":"BE","name":"Bern / Berne"},"status":"Real"},{"key":"10004720","name":"Neuhaus","postalCode":"3472","locality":"Wynigen","commune":{"key":"424","name":"Wynigen","shortName":"Wynigen"},"district":{"key":"245","name":"Verwaltungskreis Emmental"},"canton":{"key":"2","code":"BE","name":"Bern / Berne"},"status":"Real"},{"key":"10189803","name":"Neumattweg","postalCode":"3472","locality":"Wynigen","commune":{"key":"424","name":"Wynigen","shortName":"Wynigen"},"district":{"key":"245","name":"Verwaltungskreis Emmental"},"canton":{"key":"2","code":"BE","name":"Bern / Berne"},"status":"Real"},{"key":"10177657","name":"Oberbühl","postalCode":"3472","locality":"Wynigen","commune":{"key":"424","name":"Wynigen","shortName":"Wynigen"},"district":{"key":"245","name":"Verwaltungskreis Emmental"},"canton":{"key":"2","code":"BE","name":"Bern / Berne"},"status":"Real"},{"key":"10242726","name":"Oenzlen","postalCode":"3472","locality":"Wynigen","commune":{"key":"424","name":"Wynigen","shortName":"Wynigen"},"district":{"key":"245","name":"Verwaltungskreis Emmental"},"canton":{"key":"2","code":"BE","name":"Bern / Berne"},"status":"Real"},{"key":"10004721","name":"Planetenweg","postalCode":"3472","locality":"Wynigen","commune":{"key":"424","name":"Wynigen","shortName":"Wynigen"},"district":{"key":"245","name":"Verwaltungskreis Emmental"},"canton":{"key":"2","code":"BE","name":"Bern / Berne"},"status":"Real"},{"key":"10179956","name":"Rebhaldeweg","postalCode":"3472","locality":"Wynigen","commune":{"key":"424","name":"Wynigen","shortName":"Wynigen"},"district":{"key":"245","name":"Verwaltungskreis Emmental"},"canton":{"key":"2","code":"BE","name":"Bern / Berne"},"status":"Real"},{"key":"10088334","name":"Rehhalde","postalCode":"3472","locality":"Wynigen","commune":{"key":"424","name":"Wynigen","shortName":"Wynigen"},"district":{"key":"245","name":"Verwaltungskreis Emmental"},"canton":{"key":"2","code":"BE","name":"Bern / Berne"},"status":"Real"},{"key":"10124899","name":"Riedern","postalCode":"3472","locality":"Wynigen","commune":{"key":"424","name":"Wynigen","shortName":"Wynigen"},"district":{"key":"245","name":"Verwaltungskreis Emmental"},"canton":{"key":"2","code":"BE","name":"Bern / Berne"},"status":"Real"},{"key":"10004722","name":"Riedtwilstrasse","postalCode":"3472","locality":"Wynigen","commune":{"key":"424","name":"Wynigen","shortName":"Wynigen"},"district":{"key":"245","name":"Verwaltungskreis Emmental"},"canton":{"key":"2","code":"BE","name":"Bern / Berne"},"status":"Real"},{"key":"10065384","name":"Ringgeliweg","postalCode":"3472","locality":"Wynigen","commune":{"key":"424","name":"Wynigen","shortName":"Wynigen"},"district":{"key":"245","name":"Verwaltungskreis Emmental"},"canton":{"key":"2","code":"BE","name":"Bern / Berne"},"status":"Real"},{"key":"10217053","name":"Ryschhaule","postalCode":"3472","locality":"Wynigen","commune":{"key":"424","name":"Wynigen","shortName":"Wynigen"},"district":{"key":"245","name":"Verwaltungskreis Emmental"},"canton":{"key":"2","code":"BE","name":"Bern / Berne"},"status":"Real"},{"key":"10004723","name":"Sandacker","postalCode":"3472","locality":"Wynigen","commune":{"key":"424","name":"Wynigen","shortName":"Wynigen"},"district":{"key":"245","name":"Verwaltungskreis Emmental"},"canton":{"key":"2","code":"BE","name":"Bern / Berne"},"status":"Real"},{"key":"10065385","name":"Schmiedenmatt","postalCode":"3472","locality":"Wynigen","commune":{"key":"424","name":"Wynigen","shortName":"Wynigen"},"district":{"key":"245","name":"Verwaltungskreis Emmental"},"canton":{"key":"2","code":"BE","name":"Bern / Berne"},"status":"Real"},{"key":"10004724","name":"Schützenweg","postalCode":"3472","locality":"Wynigen","commune":{"key":"424","name":"Wynigen","shortName":"Wynigen"},"district":{"key":"245","name":"Verwaltungskreis Emmental"},"canton":{"key":"2","code":"BE","name":"Bern / Berne"},"status":"Real"},{"key":"10177658","name":"Schwanden","postalCode":"3472","locality":"Wynigen","commune":{"key":"424","name":"Wynigen","shortName":"Wynigen"},"district":{"key":"245","name":"Verwaltungskreis Emmental"},"canton":{"key":"2","code":"BE","name":"Bern / Berne"},"status":"Real"},{"key":"10114456","name":"Sollberg","postalCode":"3472","locality":"Wynigen","commune":{"key":"424","name":"Wynigen","shortName":"Wynigen"},"district":{"key":"245","name":"Verwaltungskreis Emmental"},"canton":{"key":"2","code":"BE","name":"Bern / Berne"},"status":"Real"},{"key":"10182031","name":"Sonnhaldeweg","postalCode":"3472","locality":"Wynigen","commune":{"key":"424","name":"Wynigen","shortName":"Wynigen"},"district":{"key":"245","name":"Verwaltungskreis Emmental"},"canton":{"key":"2","code":"BE","name":"Bern / Berne"},"status":"Real"},{"key":"10004725","name":"Sonnrain","postalCode":"3472","locality":"Wynigen","commune":{"key":"424","name":"Wynigen","shortName":"Wynigen"},"district":{"key":"245","name":"Verwaltungskreis Emmental"},"canton":{"key":"2","code":"BE","name":"Bern / Berne"},"status":"Real"},{"key":"10045539","name":"Spitzboden","postalCode":"3472","locality":"Wynigen","commune":{"key":"424","name":"Wynigen","shortName":"Wynigen"},"district":{"key":"245","name":"Verwaltungskreis Emmental"},"canton":{"key":"2","code":"BE","name":"Bern / Berne"},"status":"Real"},{"key":"10065386","name":"Steinern","postalCode":"3472","locality":"Wynigen","commune":{"key":"424","name":"Wynigen","shortName":"Wynigen"},"district":{"key":"245","name":"Verwaltungskreis Emmental"},"canton":{"key":"2","code":"BE","name":"Bern / Berne"},"status":"Real"},{"key":"10005555","name":"Stockacker","postalCode":"3472","locality":"Wynigen","commune":{"key":"424","name":"Wynigen","shortName":"Wynigen"},"district":{"key":"245","name":"Verwaltungskreis Emmental"},"canton":{"key":"2","code":"BE","name":"Bern / Berne"},"status":"Real"},{"key":"10112111","name":"Stockacker","postalCode":"3472","locality":"Wynigen","commune":{"key":"424","name":"Wynigen","shortName":"Wynigen"},"district":{"key":"245","name":"Verwaltungskreis Emmental"},"canton":{"key":"2","code":"BE","name":"Bern / Berne"},"status":"Real"},{"key":"10004726","name":"Tal","postalCode":"3472","locality":"Wynigen","commune":{"key":"424","name":"Wynigen","shortName":"Wynigen"},"district":{"key":"245","name":"Verwaltungskreis Emmental"},"canton":{"key":"2","code":"BE","name":"Bern / Berne"},"status":"Real"},{"key":"10191630","name":"Tannwald","postalCode":"3472","locality":"Wynigen","commune":{"key":"424","name":"Wynigen","shortName":"Wynigen"},"district":{"key":"245","name":"Verwaltungskreis Emmental"},"canton":{"key":"2","code":"BE","name":"Bern / Berne"},"status":"Real"},{"key":"10088336","name":"Tannwaldmoosweg","postalCode":"3472","locality":"Wynigen","commune":{"key":"424","name":"Wynigen","shortName":"Wynigen"},"district":{"key":"245","name":"Verwaltungskreis Emmental"},"canton":{"key":"2","code":"BE","name":"Bern / Berne"},"status":"Real"},{"key":"10065387","name":"Tönihaus","postalCode":"3472","locality":"Wynigen","commune":{"key":"424","name":"Wynigen","shortName":"Wynigen"},"district":{"key":"245","name":"Verwaltungskreis Emmental"},"canton":{"key":"2","code":"BE","name":"Bern / Berne"},"status":"Real"},{"key":"10004727","name":"Unterbühl","postalCode":"3472","locality":"Wynigen","commune":{"key":"424","name":"Wynigen","shortName":"Wynigen"},"district":{"key":"245","name":"Verwaltungskreis Emmental"},"canton":{"key":"2","code":"BE","name":"Bern / Berne"},"status":"Real"},{"key":"10196279","name":"Vorder Breitslohn","postalCode":"3472","locality":"Wynigen","commune":{"key":"424","name":"Wynigen","shortName":"Wynigen"},"district":{"key":"245","name":"Verwaltungskreis Emmental"},"canton":{"key":"2","code":"BE","name":"Bern / Berne"},"status":"Real"},{"key":"10065388","name":"Welschhaus","postalCode":"3472","locality":"Wynigen","commune":{"key":"424","name":"Wynigen","shortName":"Wynigen"},"district":{"key":"245","name":"Verwaltungskreis Emmental"},"canton":{"key":"2","code":"BE","name":"Bern / Berne"},"status":"Real"},{"key":"10045540","name":"Weslen","postalCode":"3472","locality":"Wynigen","commune":{"key":"424","name":"Wynigen","shortName":"Wynigen"},"district":{"key":"245","name":"Verwaltungskreis Emmental"},"canton":{"key":"2","code":"BE","name":"Bern / Berne"},"status":"Real"},{"key":"10124900","name":"Zelg","postalCode":"3472","locality":"Wynigen","commune":{"key":"424","name":"Wynigen","shortName":"Wynigen"},"district":{"key":"245","name":"Verwaltungskreis Emmental"},"canton":{"key":"2","code":"BE","name":"Bern / Berne"},"status":"Real"},{"key":"10117122","name":"Zelgweg","postalCode":"3472","locality":"Wynigen","commune":{"key":"424","name":"Wynigen","shortName":"Wynigen"},"district":{"key":"245","name":"Verwaltungskreis Emmental"},"canton":{"key":"2","code":"BE","name":"Bern / Berne"},"status":"Real"},]