[{"name":"Am Helgenhof","postalCode":"56479","locality":"Irmtraut","municipality":{"key":"07143246","name":"Irmtraut","type":"Kreisangehörige_Gemeinde"},"district":{"key":"07143","name":"Westerwaldkreis","type":"Landkreis"},"federalState":{"key":"07","name":"Rheinland-Pfalz"}},{"name":"Am Hof","postalCode":"56479","locality":"Irmtraut","municipality":{"key":"07143246","name":"Irmtraut","type":"Kreisangehörige_Gemeinde"},"district":{"key":"07143","name":"Westerwaldkreis","type":"Landkreis"},"federalState":{"key":"07","name":"Rheinland-Pfalz"}},{"name":"Bergstr.","postalCode":"56479","locality":"Irmtraut","municipality":{"key":"07143246","name":"Irmtraut","type":"Kreisangehörige_Gemeinde"},"district":{"key":"07143","name":"Westerwaldkreis","type":"Landkreis"},"federalState":{"key":"07","name":"Rheinland-Pfalz"}},{"name":"Bollersheeg","postalCode":"56479","locality":"Irmtraut","municipality":{"key":"07143246","name":"Irmtraut","type":"Kreisangehörige_Gemeinde"},"district":{"key":"07143","name":"Westerwaldkreis","type":"Landkreis"},"federalState":{"key":"07","name":"Rheinland-Pfalz"}},{"name":"Brückenstr.","postalCode":"56479","locality":"Irmtraut","municipality":{"key":"07143246","name":"Irmtraut","type":"Kreisangehörige_Gemeinde"},"district":{"key":"07143","name":"Westerwaldkreis","type":"Landkreis"},"federalState":{"key":"07","name":"Rheinland-Pfalz"}},{"name":"Im Mühlenstück","postalCode":"56479","locality":"Irmtraut","municipality":{"key":"07143246","name":"Irmtraut","type":"Kreisangehörige_Gemeinde"},"district":{"key":"07143","name":"Westerwaldkreis","type":"Landkreis"},"federalState":{"key":"07","name":"Rheinland-Pfalz"}},{"name":"In der Hohl","postalCode":"56479","locality":"Irmtraut","municipality":{"key":"07143246","name":"Irmtraut","type":"Kreisangehörige_Gemeinde"},"district":{"key":"07143","name":"Westerwaldkreis","type":"Landkreis"},"federalState":{"key":"07","name":"Rheinland-Pfalz"}},{"name":"In der Lehmkaut","postalCode":"56479","locality":"Irmtraut","municipality":{"key":"07143246","name":"Irmtraut","type":"Kreisangehörige_Gemeinde"},"district":{"key":"07143","name":"Westerwaldkreis","type":"Landkreis"},"federalState":{"key":"07","name":"Rheinland-Pfalz"}},{"name":"Kirchplatz","postalCode":"56479","locality":"Irmtraut","municipality":{"key":"07143246","name":"Irmtraut","type":"Kreisangehörige_Gemeinde"},"district":{"key":"07143","name":"Westerwaldkreis","type":"Landkreis"},"federalState":{"key":"07","name":"Rheinland-Pfalz"}},{"name":"Kirchstr.","postalCode":"56479","locality":"Irmtraut","municipality":{"key":"07143246","name":"Irmtraut","type":"Kreisangehörige_Gemeinde"},"district":{"key":"07143","name":"Westerwaldkreis","type":"Landkreis"},"federalState":{"key":"07","name":"Rheinland-Pfalz"}},{"name":"Kreuzstr.","postalCode":"56479","locality":"Irmtraut","municipality":{"key":"07143246","name":"Irmtraut","type":"Kreisangehörige_Gemeinde"},"district":{"key":"07143","name":"Westerwaldkreis","type":"Landkreis"},"federalState":{"key":"07","name":"Rheinland-Pfalz"}},{"name":"Langewies","postalCode":"56479","locality":"Irmtraut","municipality":{"key":"07143246","name":"Irmtraut","type":"Kreisangehörige_Gemeinde"},"district":{"key":"07143","name":"Westerwaldkreis","type":"Landkreis"},"federalState":{"key":"07","name":"Rheinland-Pfalz"}},{"name":"Lerchenstr.","postalCode":"56479","locality":"Irmtraut","municipality":{"key":"07143246","name":"Irmtraut","type":"Kreisangehörige_Gemeinde"},"district":{"key":"07143","name":"Westerwaldkreis","type":"Landkreis"},"federalState":{"key":"07","name":"Rheinland-Pfalz"}},{"name":"Mainzer Landstr.","postalCode":"56479","locality":"Irmtraut","municipality":{"key":"07143246","name":"Irmtraut","type":"Kreisangehörige_Gemeinde"},"district":{"key":"07143","name":"Westerwaldkreis","type":"Landkreis"},"federalState":{"key":"07","name":"Rheinland-Pfalz"}},{"name":"Ober dem Dorfe","postalCode":"56479","locality":"Irmtraut","municipality":{"key":"07143246","name":"Irmtraut","type":"Kreisangehörige_Gemeinde"},"district":{"key":"07143","name":"Westerwaldkreis","type":"Landkreis"},"federalState":{"key":"07","name":"Rheinland-Pfalz"}},{"name":"Ostendstr.","postalCode":"56479","locality":"Irmtraut","municipality":{"key":"07143246","name":"Irmtraut","type":"Kreisangehörige_Gemeinde"},"district":{"key":"07143","name":"Westerwaldkreis","type":"Landkreis"},"federalState":{"key":"07","name":"Rheinland-Pfalz"}},{"name":"Reuscherstr.","postalCode":"56479","locality":"Irmtraut","municipality":{"key":"07143246","name":"Irmtraut","type":"Kreisangehörige_Gemeinde"},"district":{"key":"07143","name":"Westerwaldkreis","type":"Landkreis"},"federalState":{"key":"07","name":"Rheinland-Pfalz"}},{"name":"Schulstr.","postalCode":"56479","locality":"Irmtraut","municipality":{"key":"07143246","name":"Irmtraut","type":"Kreisangehörige_Gemeinde"},"district":{"key":"07143","name":"Westerwaldkreis","type":"Landkreis"},"federalState":{"key":"07","name":"Rheinland-Pfalz"}},{"name":"Waldstr.","postalCode":"56479","locality":"Irmtraut","municipality":{"key":"07143246","name":"Irmtraut","type":"Kreisangehörige_Gemeinde"},"district":{"key":"07143","name":"Westerwaldkreis","type":"Landkreis"},"federalState":{"key":"07","name":"Rheinland-Pfalz"}},{"name":"Weilburger Str.","postalCode":"56479","locality":"Irmtraut","municipality":{"key":"07143246","name":"Irmtraut","type":"Kreisangehörige_Gemeinde"},"district":{"key":"07143","name":"Westerwaldkreis","type":"Landkreis"},"federalState":{"key":"07","name":"Rheinland-Pfalz"}},{"name":"Westring","postalCode":"56479","locality":"Irmtraut","municipality":{"key":"07143246","name":"Irmtraut","type":"Kreisangehörige_Gemeinde"},"district":{"key":"07143","name":"Westerwaldkreis","type":"Landkreis"},"federalState":{"key":"07","name":"Rheinland-Pfalz"}},{"name":"Wiesenstr.","postalCode":"56479","locality":"Irmtraut","municipality":{"key":"07143246","name":"Irmtraut","type":"Kreisangehörige_Gemeinde"},"district":{"key":"07143","name":"Westerwaldkreis","type":"Landkreis"},"federalState":{"key":"07","name":"Rheinland-Pfalz"}},]