[{"name":"Aidlinger Str.","postalCode":"82395","locality":"Obersöchering","municipality":{"key":"09190136","name":"Obersöchering","type":"Kreisangehörige_Gemeinde"},"district":{"key":"09190","name":"Weilheim-Schongau","type":"Landkreis"},"federalState":{"key":"09","name":"Bayern"}},{"name":"Alpenstr.","postalCode":"82395","locality":"Obersöchering","municipality":{"key":"09190136","name":"Obersöchering","type":"Kreisangehörige_Gemeinde"},"district":{"key":"09190","name":"Weilheim-Schongau","type":"Landkreis"},"federalState":{"key":"09","name":"Bayern"}},{"name":"Am Anger","postalCode":"82395","locality":"Obersöchering","municipality":{"key":"09190136","name":"Obersöchering","type":"Kreisangehörige_Gemeinde"},"district":{"key":"09190","name":"Weilheim-Schongau","type":"Landkreis"},"federalState":{"key":"09","name":"Bayern"}},{"name":"Am Hausanger","postalCode":"82395","locality":"Obersöchering","municipality":{"key":"09190136","name":"Obersöchering","type":"Kreisangehörige_Gemeinde"},"district":{"key":"09190","name":"Weilheim-Schongau","type":"Landkreis"},"federalState":{"key":"09","name":"Bayern"}},{"name":"Badeseestr.","postalCode":"82395","locality":"Obersöchering","municipality":{"key":"09190136","name":"Obersöchering","type":"Kreisangehörige_Gemeinde"},"district":{"key":"09190","name":"Weilheim-Schongau","type":"Landkreis"},"federalState":{"key":"09","name":"Bayern"}},{"name":"Bergweg","postalCode":"82395","locality":"Obersöchering","municipality":{"key":"09190136","name":"Obersöchering","type":"Kreisangehörige_Gemeinde"},"district":{"key":"09190","name":"Weilheim-Schongau","type":"Landkreis"},"federalState":{"key":"09","name":"Bayern"}},{"name":"Blumenweg","postalCode":"82395","locality":"Obersöchering","municipality":{"key":"09190136","name":"Obersöchering","type":"Kreisangehörige_Gemeinde"},"district":{"key":"09190","name":"Weilheim-Schongau","type":"Landkreis"},"federalState":{"key":"09","name":"Bayern"}},{"name":"Dorfstr.","postalCode":"82395","locality":"Obersöchering","municipality":{"key":"09190136","name":"Obersöchering","type":"Kreisangehörige_Gemeinde"},"district":{"key":"09190","name":"Weilheim-Schongau","type":"Landkreis"},"federalState":{"key":"09","name":"Bayern"}},{"name":"Egenrieder Weg","postalCode":"82395","locality":"Obersöchering","municipality":{"key":"09190136","name":"Obersöchering","type":"Kreisangehörige_Gemeinde"},"district":{"key":"09190","name":"Weilheim-Schongau","type":"Landkreis"},"federalState":{"key":"09","name":"Bayern"}},{"name":"Enzianweg","postalCode":"82395","locality":"Obersöchering","municipality":{"key":"09190136","name":"Obersöchering","type":"Kreisangehörige_Gemeinde"},"district":{"key":"09190","name":"Weilheim-Schongau","type":"Landkreis"},"federalState":{"key":"09","name":"Bayern"}},{"name":"Frühlingsweg","postalCode":"82395","locality":"Obersöchering","municipality":{"key":"09190136","name":"Obersöchering","type":"Kreisangehörige_Gemeinde"},"district":{"key":"09190","name":"Weilheim-Schongau","type":"Landkreis"},"federalState":{"key":"09","name":"Bayern"}},{"name":"Gartenstr.","postalCode":"82395","locality":"Obersöchering","municipality":{"key":"09190136","name":"Obersöchering","type":"Kreisangehörige_Gemeinde"},"district":{"key":"09190","name":"Weilheim-Schongau","type":"Landkreis"},"federalState":{"key":"09","name":"Bayern"}},{"name":"Gewerbestr.","postalCode":"82395","locality":"Obersöchering","municipality":{"key":"09190136","name":"Obersöchering","type":"Kreisangehörige_Gemeinde"},"district":{"key":"09190","name":"Weilheim-Schongau","type":"Landkreis"},"federalState":{"key":"09","name":"Bayern"}},{"name":"Habacher Str.","postalCode":"82395","locality":"Obersöchering","municipality":{"key":"09190136","name":"Obersöchering","type":"Kreisangehörige_Gemeinde"},"district":{"key":"09190","name":"Weilheim-Schongau","type":"Landkreis"},"federalState":{"key":"09","name":"Bayern"}},{"name":"Hardtweg","postalCode":"82395","locality":"Obersöchering","municipality":{"key":"09190136","name":"Obersöchering","type":"Kreisangehörige_Gemeinde"},"district":{"key":"09190","name":"Weilheim-Schongau","type":"Landkreis"},"federalState":{"key":"09","name":"Bayern"}},{"name":"Hauptstr.","postalCode":"82395","locality":"Obersöchering","municipality":{"key":"09190136","name":"Obersöchering","type":"Kreisangehörige_Gemeinde"},"district":{"key":"09190","name":"Weilheim-Schongau","type":"Landkreis"},"federalState":{"key":"09","name":"Bayern"}},{"name":"Herbstweg","postalCode":"82395","locality":"Obersöchering","municipality":{"key":"09190136","name":"Obersöchering","type":"Kreisangehörige_Gemeinde"},"district":{"key":"09190","name":"Weilheim-Schongau","type":"Landkreis"},"federalState":{"key":"09","name":"Bayern"}},{"name":"Hochbreiten","postalCode":"82395","locality":"Obersöchering","municipality":{"key":"09190136","name":"Obersöchering","type":"Kreisangehörige_Gemeinde"},"district":{"key":"09190","name":"Weilheim-Schongau","type":"Landkreis"},"federalState":{"key":"09","name":"Bayern"}},{"name":"Hofheimer Str.","postalCode":"82395","locality":"Obersöchering","municipality":{"key":"09190136","name":"Obersöchering","type":"Kreisangehörige_Gemeinde"},"district":{"key":"09190","name":"Weilheim-Schongau","type":"Landkreis"},"federalState":{"key":"09","name":"Bayern"}},{"name":"Kirchplatz","postalCode":"82395","locality":"Obersöchering","municipality":{"key":"09190136","name":"Obersöchering","type":"Kreisangehörige_Gemeinde"},"district":{"key":"09190","name":"Weilheim-Schongau","type":"Landkreis"},"federalState":{"key":"09","name":"Bayern"}},{"name":"Kirchstr.","postalCode":"82395","locality":"Obersöchering","municipality":{"key":"09190136","name":"Obersöchering","type":"Kreisangehörige_Gemeinde"},"district":{"key":"09190","name":"Weilheim-Schongau","type":"Landkreis"},"federalState":{"key":"09","name":"Bayern"}},{"name":"Langackerweg","postalCode":"82395","locality":"Obersöchering","municipality":{"key":"09190136","name":"Obersöchering","type":"Kreisangehörige_Gemeinde"},"district":{"key":"09190","name":"Weilheim-Schongau","type":"Landkreis"},"federalState":{"key":"09","name":"Bayern"}},{"name":"Liebfrauenstr.","postalCode":"82395","locality":"Obersöchering","municipality":{"key":"09190136","name":"Obersöchering","type":"Kreisangehörige_Gemeinde"},"district":{"key":"09190","name":"Weilheim-Schongau","type":"Landkreis"},"federalState":{"key":"09","name":"Bayern"}},{"name":"Mühlweg","postalCode":"82395","locality":"Obersöchering","municipality":{"key":"09190136","name":"Obersöchering","type":"Kreisangehörige_Gemeinde"},"district":{"key":"09190","name":"Weilheim-Schongau","type":"Landkreis"},"federalState":{"key":"09","name":"Bayern"}},{"name":"Obere Riedl","postalCode":"82395","locality":"Obersöchering","municipality":{"key":"09190136","name":"Obersöchering","type":"Kreisangehörige_Gemeinde"},"district":{"key":"09190","name":"Weilheim-Schongau","type":"Landkreis"},"federalState":{"key":"09","name":"Bayern"}},{"name":"Ringstr.","postalCode":"82395","locality":"Obersöchering","municipality":{"key":"09190136","name":"Obersöchering","type":"Kreisangehörige_Gemeinde"},"district":{"key":"09190","name":"Weilheim-Schongau","type":"Landkreis"},"federalState":{"key":"09","name":"Bayern"}},{"name":"Rosenweg","postalCode":"82395","locality":"Obersöchering","municipality":{"key":"09190136","name":"Obersöchering","type":"Kreisangehörige_Gemeinde"},"district":{"key":"09190","name":"Weilheim-Schongau","type":"Landkreis"},"federalState":{"key":"09","name":"Bayern"}},{"name":"Seeweg","postalCode":"82395","locality":"Obersöchering","municipality":{"key":"09190136","name":"Obersöchering","type":"Kreisangehörige_Gemeinde"},"district":{"key":"09190","name":"Weilheim-Schongau","type":"Landkreis"},"federalState":{"key":"09","name":"Bayern"}},{"name":"Spatzenhausener Str.","postalCode":"82395","locality":"Obersöchering","municipality":{"key":"09190136","name":"Obersöchering","type":"Kreisangehörige_Gemeinde"},"district":{"key":"09190","name":"Weilheim-Schongau","type":"Landkreis"},"federalState":{"key":"09","name":"Bayern"}},{"name":"Sportanger","postalCode":"82395","locality":"Obersöchering","municipality":{"key":"09190136","name":"Obersöchering","type":"Kreisangehörige_Gemeinde"},"district":{"key":"09190","name":"Weilheim-Schongau","type":"Landkreis"},"federalState":{"key":"09","name":"Bayern"}},{"name":"Steigweg","postalCode":"82395","locality":"Obersöchering","municipality":{"key":"09190136","name":"Obersöchering","type":"Kreisangehörige_Gemeinde"},"district":{"key":"09190","name":"Weilheim-Schongau","type":"Landkreis"},"federalState":{"key":"09","name":"Bayern"}},{"name":"Talwiesweg","postalCode":"82395","locality":"Obersöchering","municipality":{"key":"09190136","name":"Obersöchering","type":"Kreisangehörige_Gemeinde"},"district":{"key":"09190","name":"Weilheim-Schongau","type":"Landkreis"},"federalState":{"key":"09","name":"Bayern"}},{"name":"Tradweg","postalCode":"82395","locality":"Obersöchering","municipality":{"key":"09190136","name":"Obersöchering","type":"Kreisangehörige_Gemeinde"},"district":{"key":"09190","name":"Weilheim-Schongau","type":"Landkreis"},"federalState":{"key":"09","name":"Bayern"}},{"name":"Untergasse","postalCode":"82395","locality":"Obersöchering","municipality":{"key":"09190136","name":"Obersöchering","type":"Kreisangehörige_Gemeinde"},"district":{"key":"09190","name":"Weilheim-Schongau","type":"Landkreis"},"federalState":{"key":"09","name":"Bayern"}},{"name":"Weilheimer Str.","postalCode":"82395","locality":"Obersöchering","municipality":{"key":"09190136","name":"Obersöchering","type":"Kreisangehörige_Gemeinde"},"district":{"key":"09190","name":"Weilheim-Schongau","type":"Landkreis"},"federalState":{"key":"09","name":"Bayern"}},{"name":"Zugspitzweg","postalCode":"82395","locality":"Obersöchering","municipality":{"key":"09190136","name":"Obersöchering","type":"Kreisangehörige_Gemeinde"},"district":{"key":"09190","name":"Weilheim-Schongau","type":"Landkreis"},"federalState":{"key":"09","name":"Bayern"}},]