[{"name":"Allenstr.","postalCode":"56745","locality":"Weibern","municipality":{"key":"07131211","name":"Weibern","type":"Kreisangehörige_Gemeinde"},"district":{"key":"07131","name":"Ahrweiler","type":"Landkreis"},"federalState":{"key":"07","name":"Rheinland-Pfalz"}},{"name":"Am Nelkenberg","postalCode":"56745","locality":"Weibern","municipality":{"key":"07131211","name":"Weibern","type":"Kreisangehörige_Gemeinde"},"district":{"key":"07131","name":"Ahrweiler","type":"Landkreis"},"federalState":{"key":"07","name":"Rheinland-Pfalz"}},{"name":"Am Sonnenhang","postalCode":"56745","locality":"Weibern","municipality":{"key":"07131211","name":"Weibern","type":"Kreisangehörige_Gemeinde"},"district":{"key":"07131","name":"Ahrweiler","type":"Landkreis"},"federalState":{"key":"07","name":"Rheinland-Pfalz"}},{"name":"Auf Ahlenbuch","postalCode":"56745","locality":"Weibern","municipality":{"key":"07131211","name":"Weibern","type":"Kreisangehörige_Gemeinde"},"district":{"key":"07131","name":"Ahrweiler","type":"Landkreis"},"federalState":{"key":"07","name":"Rheinland-Pfalz"}},{"name":"Auf Buschacker","postalCode":"56745","locality":"Weibern","municipality":{"key":"07131211","name":"Weibern","type":"Kreisangehörige_Gemeinde"},"district":{"key":"07131","name":"Ahrweiler","type":"Landkreis"},"federalState":{"key":"07","name":"Rheinland-Pfalz"}},{"name":"Auf Köhnerrain","postalCode":"56745","locality":"Weibern","municipality":{"key":"07131211","name":"Weibern","type":"Kreisangehörige_Gemeinde"},"district":{"key":"07131","name":"Ahrweiler","type":"Landkreis"},"federalState":{"key":"07","name":"Rheinland-Pfalz"}},{"name":"Bahnhofstr.","postalCode":"56745","locality":"Weibern","municipality":{"key":"07131211","name":"Weibern","type":"Kreisangehörige_Gemeinde"},"district":{"key":"07131","name":"Ahrweiler","type":"Landkreis"},"federalState":{"key":"07","name":"Rheinland-Pfalz"}},{"name":"Bergstr.","postalCode":"56745","locality":"Weibern","municipality":{"key":"07131211","name":"Weibern","type":"Kreisangehörige_Gemeinde"},"district":{"key":"07131","name":"Ahrweiler","type":"Landkreis"},"federalState":{"key":"07","name":"Rheinland-Pfalz"}},{"name":"Buchenweg","postalCode":"56745","locality":"Weibern","municipality":{"key":"07131211","name":"Weibern","type":"Kreisangehörige_Gemeinde"},"district":{"key":"07131","name":"Ahrweiler","type":"Landkreis"},"federalState":{"key":"07","name":"Rheinland-Pfalz"}},{"name":"Carl-von-Ehrenwall-Allee","postalCode":"53474","locality":"Bad Neuenahr-Ahrweiler","municipality":{"key":"07131007","name":"Bad Neuenahr-Ahrweiler, Stadt","type":"Stadt"},"district":{"key":"07131","name":"Ahrweiler","type":"Landkreis"},"federalState":{"key":"07","name":"Rheinland-Pfalz"}},{"name":"Carl-Weisgerber-Weg","postalCode":"53474","locality":"Bad Neuenahr-Ahrweiler","municipality":{"key":"07131007","name":"Bad Neuenahr-Ahrweiler, Stadt","type":"Stadt"},"district":{"key":"07131","name":"Ahrweiler","type":"Landkreis"},"federalState":{"key":"07","name":"Rheinland-Pfalz"}},{"name":"Casinostr.","postalCode":"53474","locality":"Bad Neuenahr-Ahrweiler","municipality":{"key":"07131007","name":"Bad Neuenahr-Ahrweiler, Stadt","type":"Stadt"},"district":{"key":"07131","name":"Ahrweiler","type":"Landkreis"},"federalState":{"key":"07","name":"Rheinland-Pfalz"}},{"name":"Christian-Develich-Str.","postalCode":"53474","locality":"Bad Neuenahr-Ahrweiler","municipality":{"key":"07131007","name":"Bad Neuenahr-Ahrweiler, Stadt","type":"Stadt"},"district":{"key":"07131","name":"Ahrweiler","type":"Landkreis"},"federalState":{"key":"07","name":"Rheinland-Pfalz"}},{"name":"Christian-Ulrich-Str.","postalCode":"53474","locality":"Bad Neuenahr-Ahrweiler","municipality":{"key":"07131007","name":"Bad Neuenahr-Ahrweiler, Stadt","type":"Stadt"},"district":{"key":"07131","name":"Ahrweiler","type":"Landkreis"},"federalState":{"key":"07","name":"Rheinland-Pfalz"}},{"name":"Christine-Demmer-Str.","postalCode":"53474","locality":"Bad Neuenahr-Ahrweiler","municipality":{"key":"07131007","name":"Bad Neuenahr-Ahrweiler, Stadt","type":"Stadt"},"district":{"key":"07131","name":"Ahrweiler","type":"Landkreis"},"federalState":{"key":"07","name":"Rheinland-Pfalz"}},{"name":"Christopherusweg","postalCode":"53474","locality":"Bad Neuenahr-Ahrweiler","municipality":{"key":"07131007","name":"Bad Neuenahr-Ahrweiler, Stadt","type":"Stadt"},"district":{"key":"07131","name":"Ahrweiler","type":"Landkreis"},"federalState":{"key":"07","name":"Rheinland-Pfalz"}},{"name":"Cyrillus-Jarre-Str.","postalCode":"53474","locality":"Bad Neuenahr-Ahrweiler","municipality":{"key":"07131007","name":"Bad Neuenahr-Ahrweiler, Stadt","type":"Stadt"},"district":{"key":"07131","name":"Ahrweiler","type":"Landkreis"},"federalState":{"key":"07","name":"Rheinland-Pfalz"}},{"name":"Dahlienweg","postalCode":"56745","locality":"Weibern","municipality":{"key":"07131211","name":"Weibern","type":"Kreisangehörige_Gemeinde"},"district":{"key":"07131","name":"Ahrweiler","type":"Landkreis"},"federalState":{"key":"07","name":"Rheinland-Pfalz"}},{"name":"Dorfstr.","postalCode":"56745","locality":"Weibern","municipality":{"key":"07131211","name":"Weibern","type":"Kreisangehörige_Gemeinde"},"district":{"key":"07131","name":"Ahrweiler","type":"Landkreis"},"federalState":{"key":"07","name":"Rheinland-Pfalz"}},{"name":"Eichertstr.","postalCode":"56745","locality":"Weibern","municipality":{"key":"07131211","name":"Weibern","type":"Kreisangehörige_Gemeinde"},"district":{"key":"07131","name":"Ahrweiler","type":"Landkreis"},"federalState":{"key":"07","name":"Rheinland-Pfalz"}},{"name":"Frankenstr.","postalCode":"56745","locality":"Weibern","municipality":{"key":"07131211","name":"Weibern","type":"Kreisangehörige_Gemeinde"},"district":{"key":"07131","name":"Ahrweiler","type":"Landkreis"},"federalState":{"key":"07","name":"Rheinland-Pfalz"}},{"name":"Gartenstr.","postalCode":"53474","locality":"Bad Neuenahr-Ahrweiler","municipality":{"key":"07131007","name":"Bad Neuenahr-Ahrweiler, Stadt","type":"Stadt"},"district":{"key":"07131","name":"Ahrweiler","type":"Landkreis"},"federalState":{"key":"07","name":"Rheinland-Pfalz"}},{"name":"Georg-Habighorst-Str.","postalCode":"53474","locality":"Bad Neuenahr-Ahrweiler","municipality":{"key":"07131007","name":"Bad Neuenahr-Ahrweiler, Stadt","type":"Stadt"},"district":{"key":"07131","name":"Ahrweiler","type":"Landkreis"},"federalState":{"key":"07","name":"Rheinland-Pfalz"}},{"name":"Georg-Kreuzberg-Str.","postalCode":"53474","locality":"Bad Neuenahr-Ahrweiler","municipality":{"key":"07131007","name":"Bad Neuenahr-Ahrweiler, Stadt","type":"Stadt"},"district":{"key":"07131","name":"Ahrweiler","type":"Landkreis"},"federalState":{"key":"07","name":"Rheinland-Pfalz"}},{"name":"Georg-Kreuzberg-Weg","postalCode":"53474","locality":"Bad Neuenahr-Ahrweiler","municipality":{"key":"07131007","name":"Bad Neuenahr-Ahrweiler, Stadt","type":"Stadt"},"district":{"key":"07131","name":"Ahrweiler","type":"Landkreis"},"federalState":{"key":"07","name":"Rheinland-Pfalz"}},{"name":"Gierenzheimer Str.","postalCode":"53474","locality":"Bad Neuenahr-Ahrweiler","municipality":{"key":"07131007","name":"Bad Neuenahr-Ahrweiler, Stadt","type":"Stadt"},"district":{"key":"07131","name":"Ahrweiler","type":"Landkreis"},"federalState":{"key":"07","name":"Rheinland-Pfalz"}},{"name":"Giesenstr.","postalCode":"53474","locality":"Bad Neuenahr-Ahrweiler","municipality":{"key":"07131007","name":"Bad Neuenahr-Ahrweiler, Stadt","type":"Stadt"},"district":{"key":"07131","name":"Ahrweiler","type":"Landkreis"},"federalState":{"key":"07","name":"Rheinland-Pfalz"}},{"name":"Gildenstr.","postalCode":"53474","locality":"Bad Neuenahr-Ahrweiler","municipality":{"key":"07131007","name":"Bad Neuenahr-Ahrweiler, Stadt","type":"Stadt"},"district":{"key":"07131","name":"Ahrweiler","type":"Landkreis"},"federalState":{"key":"07","name":"Rheinland-Pfalz"}},{"name":"Ginsterweg","postalCode":"53474","locality":"Bad Neuenahr-Ahrweiler","municipality":{"key":"07131007","name":"Bad Neuenahr-Ahrweiler, Stadt","type":"Stadt"},"district":{"key":"07131","name":"Ahrweiler","type":"Landkreis"},"federalState":{"key":"07","name":"Rheinland-Pfalz"}},{"name":"Godenelterweg","postalCode":"53474","locality":"Bad Neuenahr-Ahrweiler","municipality":{"key":"07131007","name":"Bad Neuenahr-Ahrweiler, Stadt","type":"Stadt"},"district":{"key":"07131","name":"Ahrweiler","type":"Landkreis"},"federalState":{"key":"07","name":"Rheinland-Pfalz"}},{"name":"Goethestr.","postalCode":"53474","locality":"Bad Neuenahr-Ahrweiler","municipality":{"key":"07131007","name":"Bad Neuenahr-Ahrweiler, Stadt","type":"Stadt"},"district":{"key":"07131","name":"Ahrweiler","type":"Landkreis"},"federalState":{"key":"07","name":"Rheinland-Pfalz"}},{"name":"Göppinger Str.","postalCode":"53474","locality":"Bad Neuenahr-Ahrweiler","municipality":{"key":"07131007","name":"Bad Neuenahr-Ahrweiler, Stadt","type":"Stadt"},"district":{"key":"07131","name":"Ahrweiler","type":"Landkreis"},"federalState":{"key":"07","name":"Rheinland-Pfalz"}},{"name":"Grabenstr.","postalCode":"53474","locality":"Bad Neuenahr-Ahrweiler","municipality":{"key":"07131007","name":"Bad Neuenahr-Ahrweiler, Stadt","type":"Stadt"},"district":{"key":"07131","name":"Ahrweiler","type":"Landkreis"},"federalState":{"key":"07","name":"Rheinland-Pfalz"}},{"name":"Gradenhofstr.","postalCode":"53474","locality":"Bad Neuenahr-Ahrweiler","municipality":{"key":"07131007","name":"Bad Neuenahr-Ahrweiler, Stadt","type":"Stadt"},"district":{"key":"07131","name":"Ahrweiler","type":"Landkreis"},"federalState":{"key":"07","name":"Rheinland-Pfalz"}},{"name":"Graf-Are-Str.","postalCode":"53474","locality":"Bad Neuenahr-Ahrweiler","municipality":{"key":"07131007","name":"Bad Neuenahr-Ahrweiler, Stadt","type":"Stadt"},"district":{"key":"07131","name":"Ahrweiler","type":"Landkreis"},"federalState":{"key":"07","name":"Rheinland-Pfalz"}},{"name":"Graf-Otto-Str.","postalCode":"53474","locality":"Bad Neuenahr-Ahrweiler","municipality":{"key":"07131007","name":"Bad Neuenahr-Ahrweiler, Stadt","type":"Stadt"},"district":{"key":"07131","name":"Ahrweiler","type":"Landkreis"},"federalState":{"key":"07","name":"Rheinland-Pfalz"}},{"name":"Graf-Otto-Weg","postalCode":"53474","locality":"Bad Neuenahr-Ahrweiler","municipality":{"key":"07131007","name":"Bad Neuenahr-Ahrweiler, Stadt","type":"Stadt"},"district":{"key":"07131","name":"Ahrweiler","type":"Landkreis"},"federalState":{"key":"07","name":"Rheinland-Pfalz"}},{"name":"Grafschafter Str.","postalCode":"53474","locality":"Bad Neuenahr-Ahrweiler","municipality":{"key":"07131007","name":"Bad Neuenahr-Ahrweiler, Stadt","type":"Stadt"},"district":{"key":"07131","name":"Ahrweiler","type":"Landkreis"},"federalState":{"key":"07","name":"Rheinland-Pfalz"}},{"name":"Greener Weg","postalCode":"53474","locality":"Bad Neuenahr-Ahrweiler","municipality":{"key":"07131007","name":"Bad Neuenahr-Ahrweiler, Stadt","type":"Stadt"},"district":{"key":"07131","name":"Ahrweiler","type":"Landkreis"},"federalState":{"key":"07","name":"Rheinland-Pfalz"}},{"name":"Großer Weg","postalCode":"53474","locality":"Bad Neuenahr-Ahrweiler","municipality":{"key":"07131007","name":"Bad Neuenahr-Ahrweiler, Stadt","type":"Stadt"},"district":{"key":"07131","name":"Ahrweiler","type":"Landkreis"},"federalState":{"key":"07","name":"Rheinland-Pfalz"}},{"name":"Grüner Weg","postalCode":"53474","locality":"Bad Neuenahr-Ahrweiler","municipality":{"key":"07131007","name":"Bad Neuenahr-Ahrweiler, Stadt","type":"Stadt"},"district":{"key":"07131","name":"Ahrweiler","type":"Landkreis"},"federalState":{"key":"07","name":"Rheinland-Pfalz"}},{"name":"Heideweg","postalCode":"56745","locality":"Weibern","municipality":{"key":"07131211","name":"Weibern","type":"Kreisangehörige_Gemeinde"},"district":{"key":"07131","name":"Ahrweiler","type":"Landkreis"},"federalState":{"key":"07","name":"Rheinland-Pfalz"}},{"name":"Hommersbergstr.","postalCode":"56745","locality":"Weibern","municipality":{"key":"07131211","name":"Weibern","type":"Kreisangehörige_Gemeinde"},"district":{"key":"07131","name":"Ahrweiler","type":"Landkreis"},"federalState":{"key":"07","name":"Rheinland-Pfalz"}},{"name":"Im Frohntal","postalCode":"56745","locality":"Weibern","municipality":{"key":"07131211","name":"Weibern","type":"Kreisangehörige_Gemeinde"},"district":{"key":"07131","name":"Ahrweiler","type":"Landkreis"},"federalState":{"key":"07","name":"Rheinland-Pfalz"}},{"name":"Im Kehlgarten","postalCode":"56745","locality":"Weibern","municipality":{"key":"07131211","name":"Weibern","type":"Kreisangehörige_Gemeinde"},"district":{"key":"07131","name":"Ahrweiler","type":"Landkreis"},"federalState":{"key":"07","name":"Rheinland-Pfalz"}},{"name":"Im Wiesengrund","postalCode":"56745","locality":"Weibern","municipality":{"key":"07131211","name":"Weibern","type":"Kreisangehörige_Gemeinde"},"district":{"key":"07131","name":"Ahrweiler","type":"Landkreis"},"federalState":{"key":"07","name":"Rheinland-Pfalz"}},{"name":"Jahnstr.","postalCode":"53474","locality":"Bad Neuenahr-Ahrweiler","municipality":{"key":"07131007","name":"Bad Neuenahr-Ahrweiler, Stadt","type":"Stadt"},"district":{"key":"07131","name":"Ahrweiler","type":"Landkreis"},"federalState":{"key":"07","name":"Rheinland-Pfalz"}},{"name":"Jakob-Rausch-Str.","postalCode":"53474","locality":"Bad Neuenahr-Ahrweiler","municipality":{"key":"07131007","name":"Bad Neuenahr-Ahrweiler, Stadt","type":"Stadt"},"district":{"key":"07131","name":"Ahrweiler","type":"Landkreis"},"federalState":{"key":"07","name":"Rheinland-Pfalz"}},{"name":"Jesuitenstr.","postalCode":"53474","locality":"Bad Neuenahr-Ahrweiler","municipality":{"key":"07131007","name":"Bad Neuenahr-Ahrweiler, Stadt","type":"Stadt"},"district":{"key":"07131","name":"Ahrweiler","type":"Landkreis"},"federalState":{"key":"07","name":"Rheinland-Pfalz"}},{"name":"Joerresstr.","postalCode":"53474","locality":"Bad Neuenahr-Ahrweiler","municipality":{"key":"07131007","name":"Bad Neuenahr-Ahrweiler, Stadt","type":"Stadt"},"district":{"key":"07131","name":"Ahrweiler","type":"Landkreis"},"federalState":{"key":"07","name":"Rheinland-Pfalz"}},{"name":"Johannes-Kirschweng-Str.","postalCode":"53474","locality":"Bad Neuenahr-Ahrweiler","municipality":{"key":"07131007","name":"Bad Neuenahr-Ahrweiler, Stadt","type":"Stadt"},"district":{"key":"07131","name":"Ahrweiler","type":"Landkreis"},"federalState":{"key":"07","name":"Rheinland-Pfalz"}},{"name":"Johannes-Müller-Str.","postalCode":"53474","locality":"Bad Neuenahr-Ahrweiler","municipality":{"key":"07131007","name":"Bad Neuenahr-Ahrweiler, Stadt","type":"Stadt"},"district":{"key":"07131","name":"Ahrweiler","type":"Landkreis"},"federalState":{"key":"07","name":"Rheinland-Pfalz"}},{"name":"Johannisbergweg","postalCode":"53474","locality":"Bad Neuenahr-Ahrweiler","municipality":{"key":"07131007","name":"Bad Neuenahr-Ahrweiler, Stadt","type":"Stadt"},"district":{"key":"07131","name":"Ahrweiler","type":"Landkreis"},"federalState":{"key":"07","name":"Rheinland-Pfalz"}},{"name":"Johannisstr.","postalCode":"53474","locality":"Bad Neuenahr-Ahrweiler","municipality":{"key":"07131007","name":"Bad Neuenahr-Ahrweiler, Stadt","type":"Stadt"},"district":{"key":"07131","name":"Ahrweiler","type":"Landkreis"},"federalState":{"key":"07","name":"Rheinland-Pfalz"}},{"name":"Johanniswall","postalCode":"53474","locality":"Bad Neuenahr-Ahrweiler","municipality":{"key":"07131007","name":"Bad Neuenahr-Ahrweiler, Stadt","type":"Stadt"},"district":{"key":"07131","name":"Ahrweiler","type":"Landkreis"},"federalState":{"key":"07","name":"Rheinland-Pfalz"}},{"name":"Josef-Dickopf-Str.","postalCode":"53474","locality":"Bad Neuenahr-Ahrweiler","municipality":{"key":"07131007","name":"Bad Neuenahr-Ahrweiler, Stadt","type":"Stadt"},"district":{"key":"07131","name":"Ahrweiler","type":"Landkreis"},"federalState":{"key":"07","name":"Rheinland-Pfalz"}},{"name":"Josef-Schäfer-Weg","postalCode":"53474","locality":"Bad Neuenahr-Ahrweiler","municipality":{"key":"07131007","name":"Bad Neuenahr-Ahrweiler, Stadt","type":"Stadt"},"district":{"key":"07131","name":"Ahrweiler","type":"Landkreis"},"federalState":{"key":"07","name":"Rheinland-Pfalz"}},{"name":"Josefstr.","postalCode":"53474","locality":"Bad Neuenahr-Ahrweiler","municipality":{"key":"07131007","name":"Bad Neuenahr-Ahrweiler, Stadt","type":"Stadt"},"district":{"key":"07131","name":"Ahrweiler","type":"Landkreis"},"federalState":{"key":"07","name":"Rheinland-Pfalz"}},{"name":"Jülichstr.","postalCode":"53474","locality":"Bad Neuenahr-Ahrweiler","municipality":{"key":"07131007","name":"Bad Neuenahr-Ahrweiler, Stadt","type":"Stadt"},"district":{"key":"07131","name":"Ahrweiler","type":"Landkreis"},"federalState":{"key":"07","name":"Rheinland-Pfalz"}},{"name":"Keltenstr.","postalCode":"56745","locality":"Weibern","municipality":{"key":"07131211","name":"Weibern","type":"Kreisangehörige_Gemeinde"},"district":{"key":"07131","name":"Ahrweiler","type":"Landkreis"},"federalState":{"key":"07","name":"Rheinland-Pfalz"}},{"name":"Kirchstr.","postalCode":"56745","locality":"Weibern","municipality":{"key":"07131211","name":"Weibern","type":"Kreisangehörige_Gemeinde"},"district":{"key":"07131","name":"Ahrweiler","type":"Landkreis"},"federalState":{"key":"07","name":"Rheinland-Pfalz"}},{"name":"Konnstr.","postalCode":"56745","locality":"Weibern","municipality":{"key":"07131211","name":"Weibern","type":"Kreisangehörige_Gemeinde"},"district":{"key":"07131","name":"Ahrweiler","type":"Landkreis"},"federalState":{"key":"07","name":"Rheinland-Pfalz"}},{"name":"Löhstr.","postalCode":"56745","locality":"Weibern","municipality":{"key":"07131211","name":"Weibern","type":"Kreisangehörige_Gemeinde"},"district":{"key":"07131","name":"Ahrweiler","type":"Landkreis"},"federalState":{"key":"07","name":"Rheinland-Pfalz"}},{"name":"Maispiel","postalCode":"56745","locality":"Weibern","municipality":{"key":"07131211","name":"Weibern","type":"Kreisangehörige_Gemeinde"},"district":{"key":"07131","name":"Ahrweiler","type":"Landkreis"},"federalState":{"key":"07","name":"Rheinland-Pfalz"}},{"name":"Nachtigallenschlag","postalCode":"53474","locality":"Bad Neuenahr-Ahrweiler","municipality":{"key":"07131007","name":"Bad Neuenahr-Ahrweiler, Stadt","type":"Stadt"},"district":{"key":"07131","name":"Ahrweiler","type":"Landkreis"},"federalState":{"key":"07","name":"Rheinland-Pfalz"}},{"name":"Nelkenweg","postalCode":"53474","locality":"Bad Neuenahr-Ahrweiler","municipality":{"key":"07131007","name":"Bad Neuenahr-Ahrweiler, Stadt","type":"Stadt"},"district":{"key":"07131","name":"Ahrweiler","type":"Landkreis"},"federalState":{"key":"07","name":"Rheinland-Pfalz"}},{"name":"Neuenahrer Str.","postalCode":"53474","locality":"Bad Neuenahr-Ahrweiler","municipality":{"key":"07131007","name":"Bad Neuenahr-Ahrweiler, Stadt","type":"Stadt"},"district":{"key":"07131","name":"Ahrweiler","type":"Landkreis"},"federalState":{"key":"07","name":"Rheinland-Pfalz"}},{"name":"Neuer Weg","postalCode":"53474","locality":"Bad Neuenahr-Ahrweiler","municipality":{"key":"07131007","name":"Bad Neuenahr-Ahrweiler, Stadt","type":"Stadt"},"district":{"key":"07131","name":"Ahrweiler","type":"Landkreis"},"federalState":{"key":"07","name":"Rheinland-Pfalz"}},{"name":"Niessen Weg","postalCode":"53474","locality":"Bad Neuenahr-Ahrweiler","municipality":{"key":"07131007","name":"Bad Neuenahr-Ahrweiler, Stadt","type":"Stadt"},"district":{"key":"07131","name":"Ahrweiler","type":"Landkreis"},"federalState":{"key":"07","name":"Rheinland-Pfalz"}},{"name":"Nikolaus-Bahles-Str.","postalCode":"53474","locality":"Bad Neuenahr-Ahrweiler","municipality":{"key":"07131007","name":"Bad Neuenahr-Ahrweiler, Stadt","type":"Stadt"},"district":{"key":"07131","name":"Ahrweiler","type":"Landkreis"},"federalState":{"key":"07","name":"Rheinland-Pfalz"}},{"name":"Nikolaus-Molitor-Str.","postalCode":"53474","locality":"Bad Neuenahr-Ahrweiler","municipality":{"key":"07131007","name":"Bad Neuenahr-Ahrweiler, Stadt","type":"Stadt"},"district":{"key":"07131","name":"Ahrweiler","type":"Landkreis"},"federalState":{"key":"07","name":"Rheinland-Pfalz"}},{"name":"Nordstr.","postalCode":"53474","locality":"Bad Neuenahr-Ahrweiler","municipality":{"key":"07131007","name":"Bad Neuenahr-Ahrweiler, Stadt","type":"Stadt"},"district":{"key":"07131","name":"Ahrweiler","type":"Landkreis"},"federalState":{"key":"07","name":"Rheinland-Pfalz"}},{"name":"Ober den Gärten","postalCode":"53474","locality":"Bad Neuenahr-Ahrweiler","municipality":{"key":"07131007","name":"Bad Neuenahr-Ahrweiler, Stadt","type":"Stadt"},"district":{"key":"07131","name":"Ahrweiler","type":"Landkreis"},"federalState":{"key":"07","name":"Rheinland-Pfalz"}},{"name":"Oberhutstr.","postalCode":"53474","locality":"Bad Neuenahr-Ahrweiler","municipality":{"key":"07131007","name":"Bad Neuenahr-Ahrweiler, Stadt","type":"Stadt"},"district":{"key":"07131","name":"Ahrweiler","type":"Landkreis"},"federalState":{"key":"07","name":"Rheinland-Pfalz"}},{"name":"Oberstr.","postalCode":"53474","locality":"Bad Neuenahr-Ahrweiler","municipality":{"key":"07131007","name":"Bad Neuenahr-Ahrweiler, Stadt","type":"Stadt"},"district":{"key":"07131","name":"Ahrweiler","type":"Landkreis"},"federalState":{"key":"07","name":"Rheinland-Pfalz"}},{"name":"Orsbeckstr.","postalCode":"53474","locality":"Bad Neuenahr-Ahrweiler","municipality":{"key":"07131007","name":"Bad Neuenahr-Ahrweiler, Stadt","type":"Stadt"},"district":{"key":"07131","name":"Ahrweiler","type":"Landkreis"},"federalState":{"key":"07","name":"Rheinland-Pfalz"}},{"name":"Oststr.","postalCode":"53474","locality":"Bad Neuenahr-Ahrweiler","municipality":{"key":"07131007","name":"Bad Neuenahr-Ahrweiler, Stadt","type":"Stadt"},"district":{"key":"07131","name":"Ahrweiler","type":"Landkreis"},"federalState":{"key":"07","name":"Rheinland-Pfalz"}},{"name":"Otlerstr.","postalCode":"53474","locality":"Bad Neuenahr-Ahrweiler","municipality":{"key":"07131007","name":"Bad Neuenahr-Ahrweiler, Stadt","type":"Stadt"},"district":{"key":"07131","name":"Ahrweiler","type":"Landkreis"},"federalState":{"key":"07","name":"Rheinland-Pfalz"}},{"name":"Pfarrer-Kost-Platz","postalCode":"56745","locality":"Weibern","municipality":{"key":"07131211","name":"Weibern","type":"Kreisangehörige_Gemeinde"},"district":{"key":"07131","name":"Ahrweiler","type":"Landkreis"},"federalState":{"key":"07","name":"Rheinland-Pfalz"}},{"name":"Quellenstr.","postalCode":"53474","locality":"Bad Neuenahr-Ahrweiler","municipality":{"key":"07131007","name":"Bad Neuenahr-Ahrweiler, Stadt","type":"Stadt"},"district":{"key":"07131","name":"Ahrweiler","type":"Landkreis"},"federalState":{"key":"07","name":"Rheinland-Pfalz"}},{"name":"Römerstr.","postalCode":"56745","locality":"Weibern","municipality":{"key":"07131211","name":"Weibern","type":"Kreisangehörige_Gemeinde"},"district":{"key":"07131","name":"Ahrweiler","type":"Landkreis"},"federalState":{"key":"07","name":"Rheinland-Pfalz"}},{"name":"Schulstr.","postalCode":"56745","locality":"Weibern","municipality":{"key":"07131211","name":"Weibern","type":"Kreisangehörige_Gemeinde"},"district":{"key":"07131","name":"Ahrweiler","type":"Landkreis"},"federalState":{"key":"07","name":"Rheinland-Pfalz"}},{"name":"Steinmetzweg","postalCode":"56745","locality":"Weibern","municipality":{"key":"07131211","name":"Weibern","type":"Kreisangehörige_Gemeinde"},"district":{"key":"07131","name":"Ahrweiler","type":"Landkreis"},"federalState":{"key":"07","name":"Rheinland-Pfalz"}},{"name":"Tannenweg","postalCode":"56745","locality":"Weibern","municipality":{"key":"07131211","name":"Weibern","type":"Kreisangehörige_Gemeinde"},"district":{"key":"07131","name":"Ahrweiler","type":"Landkreis"},"federalState":{"key":"07","name":"Rheinland-Pfalz"}},{"name":"Tuffsteinstr.","postalCode":"56745","locality":"Weibern","municipality":{"key":"07131211","name":"Weibern","type":"Kreisangehörige_Gemeinde"},"district":{"key":"07131","name":"Ahrweiler","type":"Landkreis"},"federalState":{"key":"07","name":"Rheinland-Pfalz"}},{"name":"Uhlandstr.","postalCode":"53474","locality":"Bad Neuenahr-Ahrweiler","municipality":{"key":"07131007","name":"Bad Neuenahr-Ahrweiler, Stadt","type":"Stadt"},"district":{"key":"07131","name":"Ahrweiler","type":"Landkreis"},"federalState":{"key":"07","name":"Rheinland-Pfalz"}},{"name":"Ulmenweg","postalCode":"53474","locality":"Bad Neuenahr-Ahrweiler","municipality":{"key":"07131007","name":"Bad Neuenahr-Ahrweiler, Stadt","type":"Stadt"},"district":{"key":"07131","name":"Ahrweiler","type":"Landkreis"},"federalState":{"key":"07","name":"Rheinland-Pfalz"}},{"name":"Unterstr.","postalCode":"53474","locality":"Bad Neuenahr-Ahrweiler","municipality":{"key":"07131007","name":"Bad Neuenahr-Ahrweiler, Stadt","type":"Stadt"},"district":{"key":"07131","name":"Ahrweiler","type":"Landkreis"},"federalState":{"key":"07","name":"Rheinland-Pfalz"}},{"name":"Ursulinenstr.","postalCode":"53474","locality":"Bad Neuenahr-Ahrweiler","municipality":{"key":"07131007","name":"Bad Neuenahr-Ahrweiler, Stadt","type":"Stadt"},"district":{"key":"07131","name":"Ahrweiler","type":"Landkreis"},"federalState":{"key":"07","name":"Rheinland-Pfalz"}},{"name":"Vehner Weg","postalCode":"53474","locality":"Bad Neuenahr-Ahrweiler","municipality":{"key":"07131007","name":"Bad Neuenahr-Ahrweiler, Stadt","type":"Stadt"},"district":{"key":"07131","name":"Ahrweiler","type":"Landkreis"},"federalState":{"key":"07","name":"Rheinland-Pfalz"}},{"name":"Veltenstr.","postalCode":"53474","locality":"Bad Neuenahr-Ahrweiler","municipality":{"key":"07131007","name":"Bad Neuenahr-Ahrweiler, Stadt","type":"Stadt"},"district":{"key":"07131","name":"Ahrweiler","type":"Landkreis"},"federalState":{"key":"07","name":"Rheinland-Pfalz"}},{"name":"Vinxtweg","postalCode":"53474","locality":"Bad Neuenahr-Ahrweiler","municipality":{"key":"07131007","name":"Bad Neuenahr-Ahrweiler, Stadt","type":"Stadt"},"district":{"key":"07131","name":"Ahrweiler","type":"Landkreis"},"federalState":{"key":"07","name":"Rheinland-Pfalz"}},{"name":"Waldstr.","postalCode":"56745","locality":"Weibern","municipality":{"key":"07131211","name":"Weibern","type":"Kreisangehörige_Gemeinde"},"district":{"key":"07131","name":"Ahrweiler","type":"Landkreis"},"federalState":{"key":"07","name":"Rheinland-Pfalz"}},{"name":"Winkelweg","postalCode":"56745","locality":"Weibern","municipality":{"key":"07131211","name":"Weibern","type":"Kreisangehörige_Gemeinde"},"district":{"key":"07131","name":"Ahrweiler","type":"Landkreis"},"federalState":{"key":"07","name":"Rheinland-Pfalz"}},{"name":"Zur Geisley","postalCode":"56745","locality":"Weibern","municipality":{"key":"07131211","name":"Weibern","type":"Kreisangehörige_Gemeinde"},"district":{"key":"07131","name":"Ahrweiler","type":"Landkreis"},"federalState":{"key":"07","name":"Rheinland-Pfalz"}},]