[{"name":"16-Büchles-Weg","postalCode":"71735","locality":"Eberdingen","municipality":{"key":"08118012","name":"Eberdingen","type":"Kreisangehörige_Gemeinde"},"district":{"key":"08118","name":"Ludwigsburg","type":"Landkreis"},"federalState":{"key":"08","name":"Baden-Württemberg"}},{"name":"1. Waldweg","postalCode":"75038","locality":"Oberderdingen","municipality":{"key":"08215059","name":"Oberderdingen","type":"Kreisangehörige_Gemeinde"},"district":{"key":"08215","name":"Karlsruhe","type":"Landkreis"},"federalState":{"key":"08","name":"Baden-Württemberg"}},{"name":"2. Waldweg","postalCode":"75038","locality":"Oberderdingen","municipality":{"key":"08215059","name":"Oberderdingen","type":"Kreisangehörige_Gemeinde"},"district":{"key":"08215","name":"Karlsruhe","type":"Landkreis"},"federalState":{"key":"08","name":"Baden-Württemberg"}},{"name":"3. Waldweg","postalCode":"75038","locality":"Oberderdingen","municipality":{"key":"08215059","name":"Oberderdingen","type":"Kreisangehörige_Gemeinde"},"district":{"key":"08215","name":"Karlsruhe","type":"Landkreis"},"federalState":{"key":"08","name":"Baden-Württemberg"}},{"name":"Ahornweg","postalCode":"85669","locality":"Pastetten","municipality":{"key":"09177135","name":"Pastetten","type":"Kreisangehörige_Gemeinde"},"district":{"key":"09177","name":"Erding","type":"Landkreis"},"federalState":{"key":"09","name":"Bayern"}},{"name":"Am Etzfeld","postalCode":"85669","locality":"Pastetten","municipality":{"key":"09177135","name":"Pastetten","type":"Kreisangehörige_Gemeinde"},"district":{"key":"09177","name":"Erding","type":"Landkreis"},"federalState":{"key":"09","name":"Bayern"}},{"name":"Am Freibach","postalCode":"85669","locality":"Pastetten","municipality":{"key":"09177135","name":"Pastetten","type":"Kreisangehörige_Gemeinde"},"district":{"key":"09177","name":"Erding","type":"Landkreis"},"federalState":{"key":"09","name":"Bayern"}},{"name":"Am Hirschbach","postalCode":"85669","locality":"Pastetten","municipality":{"key":"09177135","name":"Pastetten","type":"Kreisangehörige_Gemeinde"},"district":{"key":"09177","name":"Erding","type":"Landkreis"},"federalState":{"key":"09","name":"Bayern"}},{"name":"Am Kühbrunnen","postalCode":"85669","locality":"Pastetten","municipality":{"key":"09177135","name":"Pastetten","type":"Kreisangehörige_Gemeinde"},"district":{"key":"09177","name":"Erding","type":"Landkreis"},"federalState":{"key":"09","name":"Bayern"}},{"name":"Am Schmidberg","postalCode":"85669","locality":"Pastetten","municipality":{"key":"09177135","name":"Pastetten","type":"Kreisangehörige_Gemeinde"},"district":{"key":"09177","name":"Erding","type":"Landkreis"},"federalState":{"key":"09","name":"Bayern"}},{"name":"Amselweg","postalCode":"85669","locality":"Pastetten","municipality":{"key":"09177135","name":"Pastetten","type":"Kreisangehörige_Gemeinde"},"district":{"key":"09177","name":"Erding","type":"Landkreis"},"federalState":{"key":"09","name":"Bayern"}},{"name":"Am Spielplatz","postalCode":"85669","locality":"Pastetten","municipality":{"key":"09177135","name":"Pastetten","type":"Kreisangehörige_Gemeinde"},"district":{"key":"09177","name":"Erding","type":"Landkreis"},"federalState":{"key":"09","name":"Bayern"}},{"name":"Am Weiher","postalCode":"85669","locality":"Pastetten","municipality":{"key":"09177135","name":"Pastetten","type":"Kreisangehörige_Gemeinde"},"district":{"key":"09177","name":"Erding","type":"Landkreis"},"federalState":{"key":"09","name":"Bayern"}},{"name":"An der Säge","postalCode":"85669","locality":"Pastetten","municipality":{"key":"09177135","name":"Pastetten","type":"Kreisangehörige_Gemeinde"},"district":{"key":"09177","name":"Erding","type":"Landkreis"},"federalState":{"key":"09","name":"Bayern"}},{"name":"An der Weide","postalCode":"85669","locality":"Pastetten","municipality":{"key":"09177135","name":"Pastetten","type":"Kreisangehörige_Gemeinde"},"district":{"key":"09177","name":"Erding","type":"Landkreis"},"federalState":{"key":"09","name":"Bayern"}},{"name":"Anger","postalCode":"85669","locality":"Pastetten","municipality":{"key":"09177135","name":"Pastetten","type":"Kreisangehörige_Gemeinde"},"district":{"key":"09177","name":"Erding","type":"Landkreis"},"federalState":{"key":"09","name":"Bayern"}},{"name":"Bergstr.","postalCode":"85669","locality":"Pastetten","municipality":{"key":"09177135","name":"Pastetten","type":"Kreisangehörige_Gemeinde"},"district":{"key":"09177","name":"Erding","type":"Landkreis"},"federalState":{"key":"09","name":"Bayern"}},{"name":"Birkenstr.","postalCode":"85669","locality":"Pastetten","municipality":{"key":"09177135","name":"Pastetten","type":"Kreisangehörige_Gemeinde"},"district":{"key":"09177","name":"Erding","type":"Landkreis"},"federalState":{"key":"09","name":"Bayern"}},{"name":"Camp Reinsehlen","postalCode":"29640","locality":"Schneverdingen","municipality":{"key":"03358019","name":"Schneverdingen, Stadt","type":"Stadt"},"district":{"key":"03358","name":"Heidekreis","type":"Landkreis"},"federalState":{"key":"03","name":"Niedersachsen"}},{"name":"Cantlerstr.","postalCode":"85435","locality":"Erding","municipality":{"key":"09177117","name":"Erding, GKSt","type":"Große_Kreisstadt"},"district":{"key":"09177","name":"Erding","type":"Landkreis"},"federalState":{"key":"09","name":"Bayern"}},{"name":"Carl-Neff-Str.","postalCode":"75038","locality":"Oberderdingen","municipality":{"key":"08215059","name":"Oberderdingen","type":"Kreisangehörige_Gemeinde"},"district":{"key":"08215","name":"Karlsruhe","type":"Landkreis"},"federalState":{"key":"08","name":"Baden-Württemberg"}},{"name":"Carl-Orff-Weg","postalCode":"70771","locality":"Leinfelden-Echterdingen","municipality":{"key":"08116078","name":"Leinfelden-Echterdingen, Stadt","type":"Große_Kreisstadt"},"district":{"key":"08116","name":"Esslingen","type":"Landkreis"},"federalState":{"key":"08","name":"Baden-Württemberg"}},{"name":"Carl-Spitzweg-Str.","postalCode":"70771","locality":"Leinfelden-Echterdingen","municipality":{"key":"08116078","name":"Leinfelden-Echterdingen, Stadt","type":"Große_Kreisstadt"},"district":{"key":"08116","name":"Esslingen","type":"Landkreis"},"federalState":{"key":"08","name":"Baden-Württemberg"}},{"name":"Charlottenweg","postalCode":"70771","locality":"Leinfelden-Echterdingen","municipality":{"key":"08116078","name":"Leinfelden-Echterdingen, Stadt","type":"Große_Kreisstadt"},"district":{"key":"08116","name":"Esslingen","type":"Landkreis"},"federalState":{"key":"08","name":"Baden-Württemberg"}},{"name":"Chisonestr.","postalCode":"75038","locality":"Oberderdingen","municipality":{"key":"08215059","name":"Oberderdingen","type":"Kreisangehörige_Gemeinde"},"district":{"key":"08215","name":"Karlsruhe","type":"Landkreis"},"federalState":{"key":"08","name":"Baden-Württemberg"}},{"name":"Christian-Jorhan-Str.","postalCode":"85445","locality":"Oberding","municipality":{"key":"09177133","name":"Oberding","type":"Kreisangehörige_Gemeinde"},"district":{"key":"09177","name":"Erding","type":"Landkreis"},"federalState":{"key":"09","name":"Bayern"}},{"name":"Christofstr.","postalCode":"71701","locality":"Schwieberdingen","municipality":{"key":"08118067","name":"Schwieberdingen","type":"Kreisangehörige_Gemeinde"},"district":{"key":"08118","name":"Ludwigsburg","type":"Landkreis"},"federalState":{"key":"08","name":"Baden-Württemberg"}},{"name":"Christofstr.","postalCode":"72127","locality":"Kusterdingen","municipality":{"key":"08416023","name":"Kusterdingen","type":"Kreisangehörige_Gemeinde"},"district":{"key":"08416","name":"Tübingen","type":"Landkreis"},"federalState":{"key":"08","name":"Baden-Württemberg"}},{"name":"Christophstr.","postalCode":"70771","locality":"Leinfelden-Echterdingen","municipality":{"key":"08116078","name":"Leinfelden-Echterdingen, Stadt","type":"Große_Kreisstadt"},"district":{"key":"08116","name":"Esslingen","type":"Landkreis"},"federalState":{"key":"08","name":"Baden-Württemberg"}},{"name":"Clara-Schumann-Str.","postalCode":"71701","locality":"Schwieberdingen","municipality":{"key":"08118067","name":"Schwieberdingen","type":"Kreisangehörige_Gemeinde"},"district":{"key":"08118","name":"Ludwigsburg","type":"Landkreis"},"federalState":{"key":"08","name":"Baden-Württemberg"}},{"name":"Claudiusstr.","postalCode":"70771","locality":"Leinfelden-Echterdingen","municipality":{"key":"08116078","name":"Leinfelden-Echterdingen, Stadt","type":"Große_Kreisstadt"},"district":{"key":"08116","name":"Esslingen","type":"Landkreis"},"federalState":{"key":"08","name":"Baden-Württemberg"}},{"name":"Claudiusstr.","postalCode":"71735","locality":"Eberdingen","municipality":{"key":"08118012","name":"Eberdingen","type":"Kreisangehörige_Gemeinde"},"district":{"key":"08118","name":"Ludwigsburg","type":"Landkreis"},"federalState":{"key":"08","name":"Baden-Württemberg"}},{"name":"Combastr.","postalCode":"75038","locality":"Oberderdingen","municipality":{"key":"08215059","name":"Oberderdingen","type":"Kreisangehörige_Gemeinde"},"district":{"key":"08215","name":"Karlsruhe","type":"Landkreis"},"federalState":{"key":"08","name":"Baden-Württemberg"}},{"name":"Cookstr.","postalCode":"70771","locality":"Leinfelden-Echterdingen","municipality":{"key":"08116078","name":"Leinfelden-Echterdingen, Stadt","type":"Große_Kreisstadt"},"district":{"key":"08116","name":"Esslingen","type":"Landkreis"},"federalState":{"key":"08","name":"Baden-Württemberg"}},{"name":"Dürnberg","postalCode":"85669","locality":"Pastetten","municipality":{"key":"09177135","name":"Pastetten","type":"Kreisangehörige_Gemeinde"},"district":{"key":"09177","name":"Erding","type":"Landkreis"},"federalState":{"key":"09","name":"Bayern"}},{"name":"Eiblweg","postalCode":"85669","locality":"Pastetten","municipality":{"key":"09177135","name":"Pastetten","type":"Kreisangehörige_Gemeinde"},"district":{"key":"09177","name":"Erding","type":"Landkreis"},"federalState":{"key":"09","name":"Bayern"}},{"name":"Erdinger Str.","postalCode":"85669","locality":"Pastetten","municipality":{"key":"09177135","name":"Pastetten","type":"Kreisangehörige_Gemeinde"},"district":{"key":"09177","name":"Erding","type":"Landkreis"},"federalState":{"key":"09","name":"Bayern"}},{"name":"Erlenweg","postalCode":"85669","locality":"Pastetten","municipality":{"key":"09177135","name":"Pastetten","type":"Kreisangehörige_Gemeinde"},"district":{"key":"09177","name":"Erding","type":"Landkreis"},"federalState":{"key":"09","name":"Bayern"}},{"name":"Eschenweg","postalCode":"85669","locality":"Pastetten","municipality":{"key":"09177135","name":"Pastetten","type":"Kreisangehörige_Gemeinde"},"district":{"key":"09177","name":"Erding","type":"Landkreis"},"federalState":{"key":"09","name":"Bayern"}},{"name":"Eulenweg","postalCode":"85669","locality":"Pastetten","municipality":{"key":"09177135","name":"Pastetten","type":"Kreisangehörige_Gemeinde"},"district":{"key":"09177","name":"Erding","type":"Landkreis"},"federalState":{"key":"09","name":"Bayern"}},{"name":"Falkenweg","postalCode":"85669","locality":"Pastetten","municipality":{"key":"09177135","name":"Pastetten","type":"Kreisangehörige_Gemeinde"},"district":{"key":"09177","name":"Erding","type":"Landkreis"},"federalState":{"key":"09","name":"Bayern"}},{"name":"Fasanenweg","postalCode":"85669","locality":"Pastetten","municipality":{"key":"09177135","name":"Pastetten","type":"Kreisangehörige_Gemeinde"},"district":{"key":"09177","name":"Erding","type":"Landkreis"},"federalState":{"key":"09","name":"Bayern"}},{"name":"Feldstr.","postalCode":"85669","locality":"Pastetten","municipality":{"key":"09177135","name":"Pastetten","type":"Kreisangehörige_Gemeinde"},"district":{"key":"09177","name":"Erding","type":"Landkreis"},"federalState":{"key":"09","name":"Bayern"}},{"name":"Fichtenstr.","postalCode":"85669","locality":"Pastetten","municipality":{"key":"09177135","name":"Pastetten","type":"Kreisangehörige_Gemeinde"},"district":{"key":"09177","name":"Erding","type":"Landkreis"},"federalState":{"key":"09","name":"Bayern"}},{"name":"Flurstr.","postalCode":"85669","locality":"Pastetten","municipality":{"key":"09177135","name":"Pastetten","type":"Kreisangehörige_Gemeinde"},"district":{"key":"09177","name":"Erding","type":"Landkreis"},"federalState":{"key":"09","name":"Bayern"}},{"name":"Fröbelweg","postalCode":"85669","locality":"Pastetten","municipality":{"key":"09177135","name":"Pastetten","type":"Kreisangehörige_Gemeinde"},"district":{"key":"09177","name":"Erding","type":"Landkreis"},"federalState":{"key":"09","name":"Bayern"}},{"name":"Gächt","postalCode":"72127","locality":"Kusterdingen","municipality":{"key":"08416023","name":"Kusterdingen","type":"Kreisangehörige_Gemeinde"},"district":{"key":"08416","name":"Tübingen","type":"Landkreis"},"federalState":{"key":"08","name":"Baden-Württemberg"}},{"name":"Gaisbergweg","postalCode":"75038","locality":"Oberderdingen","municipality":{"key":"08215059","name":"Oberderdingen","type":"Kreisangehörige_Gemeinde"},"district":{"key":"08215","name":"Karlsruhe","type":"Landkreis"},"federalState":{"key":"08","name":"Baden-Württemberg"}},{"name":"Galle-Berger-Weg","postalCode":"29640","locality":"Schneverdingen","municipality":{"key":"03358019","name":"Schneverdingen, Stadt","type":"Stadt"},"district":{"key":"03358","name":"Heidekreis","type":"Landkreis"},"federalState":{"key":"03","name":"Niedersachsen"}},{"name":"Gallhorner Flatt","postalCode":"29640","locality":"Schneverdingen","municipality":{"key":"03358019","name":"Schneverdingen, Stadt","type":"Stadt"},"district":{"key":"03358","name":"Heidekreis","type":"Landkreis"},"federalState":{"key":"03","name":"Niedersachsen"}},{"name":"Gallhorner Weg","postalCode":"29640","locality":"Schneverdingen","municipality":{"key":"03358019","name":"Schneverdingen, Stadt","type":"Stadt"},"district":{"key":"03358","name":"Heidekreis","type":"Landkreis"},"federalState":{"key":"03","name":"Niedersachsen"}},{"name":"Gallierweg","postalCode":"71735","locality":"Eberdingen","municipality":{"key":"08118012","name":"Eberdingen","type":"Kreisangehörige_Gemeinde"},"district":{"key":"08118","name":"Ludwigsburg","type":"Landkreis"},"federalState":{"key":"08","name":"Baden-Württemberg"}},{"name":"Ganghoferstr.","postalCode":"85435","locality":"Erding","municipality":{"key":"09177117","name":"Erding, GKSt","type":"Große_Kreisstadt"},"district":{"key":"09177","name":"Erding","type":"Landkreis"},"federalState":{"key":"09","name":"Bayern"}},{"name":"Gartenstr.","postalCode":"29640","locality":"Schneverdingen","municipality":{"key":"03358019","name":"Schneverdingen, Stadt","type":"Stadt"},"district":{"key":"03358","name":"Heidekreis","type":"Landkreis"},"federalState":{"key":"03","name":"Niedersachsen"}},{"name":"Gartenstr.","postalCode":"70771","locality":"Leinfelden-Echterdingen","municipality":{"key":"08116078","name":"Leinfelden-Echterdingen, Stadt","type":"Große_Kreisstadt"},"district":{"key":"08116","name":"Esslingen","type":"Landkreis"},"federalState":{"key":"08","name":"Baden-Württemberg"}},{"name":"Gartenstr.","postalCode":"71701","locality":"Schwieberdingen","municipality":{"key":"08118067","name":"Schwieberdingen","type":"Kreisangehörige_Gemeinde"},"district":{"key":"08118","name":"Ludwigsburg","type":"Landkreis"},"federalState":{"key":"08","name":"Baden-Württemberg"}},{"name":"Gartenstr.","postalCode":"71735","locality":"Eberdingen","municipality":{"key":"08118012","name":"Eberdingen","type":"Kreisangehörige_Gemeinde"},"district":{"key":"08118","name":"Ludwigsburg","type":"Landkreis"},"federalState":{"key":"08","name":"Baden-Württemberg"}},{"name":"Gartenstr.","postalCode":"72127","locality":"Kusterdingen","municipality":{"key":"08416023","name":"Kusterdingen","type":"Kreisangehörige_Gemeinde"},"district":{"key":"08416","name":"Tübingen","type":"Landkreis"},"federalState":{"key":"08","name":"Baden-Württemberg"}},{"name":"Gartenstr.","postalCode":"72131","locality":"Ofterdingen","municipality":{"key":"08416031","name":"Ofterdingen","type":"Kreisangehörige_Gemeinde"},"district":{"key":"08416","name":"Tübingen","type":"Landkreis"},"federalState":{"key":"08","name":"Baden-Württemberg"}},{"name":"Gartenstr.","postalCode":"75038","locality":"Oberderdingen","municipality":{"key":"08215059","name":"Oberderdingen","type":"Kreisangehörige_Gemeinde"},"district":{"key":"08215","name":"Karlsruhe","type":"Landkreis"},"federalState":{"key":"08","name":"Baden-Württemberg"}},{"name":"Gartenstr.","postalCode":"79291","locality":"Merdingen","municipality":{"key":"08315072","name":"Merdingen","type":"Kreisangehörige_Gemeinde"},"district":{"key":"08315","name":"Breisgau-Hochschwarzwald","type":"Landkreis"},"federalState":{"key":"08","name":"Baden-Württemberg"}},{"name":"Gartenstr.","postalCode":"79364","locality":"Malterdingen","municipality":{"key":"08316024","name":"Malterdingen","type":"Kreisangehörige_Gemeinde"},"district":{"key":"08316","name":"Emmendingen","type":"Landkreis"},"federalState":{"key":"08","name":"Baden-Württemberg"}},{"name":"Gartenstr.","postalCode":"85445","locality":"Oberding","municipality":{"key":"09177133","name":"Oberding","type":"Kreisangehörige_Gemeinde"},"district":{"key":"09177","name":"Erding","type":"Landkreis"},"federalState":{"key":"09","name":"Bayern"}},{"name":"Gartenstr.","postalCode":"86862","locality":"Lamerdingen","municipality":{"key":"09777145","name":"Lamerdingen","type":"Kreisangehörige_Gemeinde"},"district":{"key":"09777","name":"Ostallgäu","type":"Landkreis"},"federalState":{"key":"09","name":"Bayern"}},{"name":"Gartenweg","postalCode":"85435","locality":"Erding","municipality":{"key":"09177117","name":"Erding, GKSt","type":"Große_Kreisstadt"},"district":{"key":"09177","name":"Erding","type":"Landkreis"},"federalState":{"key":"09","name":"Bayern"}},{"name":"Gärtnerweg","postalCode":"85435","locality":"Erding","municipality":{"key":"09177117","name":"Erding, GKSt","type":"Große_Kreisstadt"},"district":{"key":"09177","name":"Erding","type":"Landkreis"},"federalState":{"key":"09","name":"Bayern"}},{"name":"Gässle","postalCode":"72127","locality":"Kusterdingen","municipality":{"key":"08416023","name":"Kusterdingen","type":"Kreisangehörige_Gemeinde"},"district":{"key":"08416","name":"Tübingen","type":"Landkreis"},"federalState":{"key":"08","name":"Baden-Württemberg"}},{"name":"Gaugrafenweg","postalCode":"85435","locality":"Erding","municipality":{"key":"09177117","name":"Erding, GKSt","type":"Große_Kreisstadt"},"district":{"key":"09177","name":"Erding","type":"Landkreis"},"federalState":{"key":"09","name":"Bayern"}},{"name":"Gaußstr.","postalCode":"70771","locality":"Leinfelden-Echterdingen","municipality":{"key":"08116078","name":"Leinfelden-Echterdingen, Stadt","type":"Große_Kreisstadt"},"district":{"key":"08116","name":"Esslingen","type":"Landkreis"},"federalState":{"key":"08","name":"Baden-Württemberg"}},{"name":"Geheimrat-Irl-Str.","postalCode":"85435","locality":"Erding","municipality":{"key":"09177117","name":"Erding, GKSt","type":"Große_Kreisstadt"},"district":{"key":"09177","name":"Erding","type":"Landkreis"},"federalState":{"key":"09","name":"Bayern"}},{"name":"Gehrweg","postalCode":"72127","locality":"Kusterdingen","municipality":{"key":"08416023","name":"Kusterdingen","type":"Kreisangehörige_Gemeinde"},"district":{"key":"08416","name":"Tübingen","type":"Landkreis"},"federalState":{"key":"08","name":"Baden-Württemberg"}},{"name":"Geisberg","postalCode":"86735","locality":"Amerdingen","municipality":{"key":"09779112","name":"Amerdingen","type":"Kreisangehörige_Gemeinde"},"district":{"key":"09779","name":"Donau-Ries","type":"Landkreis"},"federalState":{"key":"09","name":"Bayern"}},{"name":"Geislinger Str.","postalCode":"85435","locality":"Erding","municipality":{"key":"09177117","name":"Erding, GKSt","type":"Große_Kreisstadt"},"district":{"key":"09177","name":"Erding","type":"Landkreis"},"federalState":{"key":"09","name":"Bayern"}},{"name":"Gemeinschaftsstr.","postalCode":"85435","locality":"Erding","municipality":{"key":"09177117","name":"Erding, GKSt","type":"Große_Kreisstadt"},"district":{"key":"09177","name":"Erding","type":"Landkreis"},"federalState":{"key":"09","name":"Bayern"}},{"name":"Gennachstr.","postalCode":"86862","locality":"Lamerdingen","municipality":{"key":"09777145","name":"Lamerdingen","type":"Kreisangehörige_Gemeinde"},"district":{"key":"09777","name":"Ostallgäu","type":"Landkreis"},"federalState":{"key":"09","name":"Bayern"}},{"name":"Georgenbergstr.","postalCode":"72131","locality":"Ofterdingen","municipality":{"key":"08416031","name":"Ofterdingen","type":"Kreisangehörige_Gemeinde"},"district":{"key":"08416","name":"Tübingen","type":"Landkreis"},"federalState":{"key":"08","name":"Baden-Württemberg"}},{"name":"Georgenstr.","postalCode":"85435","locality":"Erding","municipality":{"key":"09177117","name":"Erding, GKSt","type":"Große_Kreisstadt"},"district":{"key":"09177","name":"Erding","type":"Landkreis"},"federalState":{"key":"09","name":"Bayern"}},{"name":"Georg-Friedrich-Händel-Str.","postalCode":"85435","locality":"Erding","municipality":{"key":"09177117","name":"Erding, GKSt","type":"Große_Kreisstadt"},"district":{"key":"09177","name":"Erding","type":"Landkreis"},"federalState":{"key":"09","name":"Bayern"}},{"name":"Georg-Friedrich-Händel-Weg","postalCode":"70771","locality":"Leinfelden-Echterdingen","municipality":{"key":"08116078","name":"Leinfelden-Echterdingen, Stadt","type":"Große_Kreisstadt"},"district":{"key":"08116","name":"Esslingen","type":"Landkreis"},"federalState":{"key":"08","name":"Baden-Württemberg"}},{"name":"Georg-Grauer-Str.","postalCode":"72127","locality":"Kusterdingen","municipality":{"key":"08416023","name":"Kusterdingen","type":"Kreisangehörige_Gemeinde"},"district":{"key":"08416","name":"Tübingen","type":"Landkreis"},"federalState":{"key":"08","name":"Baden-Württemberg"}},{"name":"Georgstr.","postalCode":"72127","locality":"Kusterdingen","municipality":{"key":"08416023","name":"Kusterdingen","type":"Kreisangehörige_Gemeinde"},"district":{"key":"08416","name":"Tübingen","type":"Landkreis"},"federalState":{"key":"08","name":"Baden-Württemberg"}},{"name":"Georg-Zilker-Str.","postalCode":"85435","locality":"Erding","municipality":{"key":"09177117","name":"Erding, GKSt","type":"Große_Kreisstadt"},"district":{"key":"09177","name":"Erding","type":"Landkreis"},"federalState":{"key":"09","name":"Bayern"}},{"name":"Geranienstr.","postalCode":"70771","locality":"Leinfelden-Echterdingen","municipality":{"key":"08116078","name":"Leinfelden-Echterdingen, Stadt","type":"Große_Kreisstadt"},"district":{"key":"08116","name":"Esslingen","type":"Landkreis"},"federalState":{"key":"08","name":"Baden-Württemberg"}},{"name":"Gerberstr.","postalCode":"71701","locality":"Schwieberdingen","municipality":{"key":"08118067","name":"Schwieberdingen","type":"Kreisangehörige_Gemeinde"},"district":{"key":"08118","name":"Ludwigsburg","type":"Landkreis"},"federalState":{"key":"08","name":"Baden-Württemberg"}},{"name":"Gerberstr.","postalCode":"85435","locality":"Erding","municipality":{"key":"09177117","name":"Erding, GKSt","type":"Große_Kreisstadt"},"district":{"key":"09177","name":"Erding","type":"Landkreis"},"federalState":{"key":"09","name":"Bayern"}},{"name":"Gerberweg","postalCode":"29640","locality":"Schneverdingen","municipality":{"key":"03358019","name":"Schneverdingen, Stadt","type":"Stadt"},"district":{"key":"03358","name":"Heidekreis","type":"Landkreis"},"federalState":{"key":"03","name":"Niedersachsen"}},{"name":"Gerhart-Hauptmann-Str.","postalCode":"71735","locality":"Eberdingen","municipality":{"key":"08118012","name":"Eberdingen","type":"Kreisangehörige_Gemeinde"},"district":{"key":"08118","name":"Ludwigsburg","type":"Landkreis"},"federalState":{"key":"08","name":"Baden-Württemberg"}},{"name":"Gerhart-Hauptmann-Str.","postalCode":"75038","locality":"Oberderdingen","municipality":{"key":"08215059","name":"Oberderdingen","type":"Kreisangehörige_Gemeinde"},"district":{"key":"08215","name":"Karlsruhe","type":"Landkreis"},"federalState":{"key":"08","name":"Baden-Württemberg"}},{"name":"Germanenstr.","postalCode":"70771","locality":"Leinfelden-Echterdingen","municipality":{"key":"08116078","name":"Leinfelden-Echterdingen, Stadt","type":"Große_Kreisstadt"},"district":{"key":"08116","name":"Esslingen","type":"Landkreis"},"federalState":{"key":"08","name":"Baden-Württemberg"}},{"name":"Germanenstr.","postalCode":"71735","locality":"Eberdingen","municipality":{"key":"08118012","name":"Eberdingen","type":"Kreisangehörige_Gemeinde"},"district":{"key":"08118","name":"Ludwigsburg","type":"Landkreis"},"federalState":{"key":"08","name":"Baden-Württemberg"}},{"name":"Germanenweg","postalCode":"75038","locality":"Oberderdingen","municipality":{"key":"08215059","name":"Oberderdingen","type":"Kreisangehörige_Gemeinde"},"district":{"key":"08215","name":"Karlsruhe","type":"Landkreis"},"federalState":{"key":"08","name":"Baden-Württemberg"}},{"name":"Gernbergweg","postalCode":"86862","locality":"Lamerdingen","municipality":{"key":"09777145","name":"Lamerdingen","type":"Kreisangehörige_Gemeinde"},"district":{"key":"09777","name":"Ostallgäu","type":"Landkreis"},"federalState":{"key":"09","name":"Bayern"}},{"name":"Gerokstr.","postalCode":"71735","locality":"Eberdingen","municipality":{"key":"08118012","name":"Eberdingen","type":"Kreisangehörige_Gemeinde"},"district":{"key":"08118","name":"Ludwigsburg","type":"Landkreis"},"federalState":{"key":"08","name":"Baden-Württemberg"}},{"name":"Gerokstr.","postalCode":"72131","locality":"Ofterdingen","municipality":{"key":"08416031","name":"Ofterdingen","type":"Kreisangehörige_Gemeinde"},"district":{"key":"08416","name":"Tübingen","type":"Landkreis"},"federalState":{"key":"08","name":"Baden-Württemberg"}},{"name":"Gerstenstieg","postalCode":"29640","locality":"Schneverdingen","municipality":{"key":"03358019","name":"Schneverdingen, Stadt","type":"Stadt"},"district":{"key":"03358","name":"Heidekreis","type":"Landkreis"},"federalState":{"key":"03","name":"Niedersachsen"}},{"name":"Geschamp","postalCode":"29640","locality":"Schneverdingen","municipality":{"key":"03358019","name":"Schneverdingen, Stadt","type":"Stadt"},"district":{"key":"03358","name":"Heidekreis","type":"Landkreis"},"federalState":{"key":"03","name":"Niedersachsen"}},{"name":"Haidberger Str.","postalCode":"85669","locality":"Pastetten","municipality":{"key":"09177135","name":"Pastetten","type":"Kreisangehörige_Gemeinde"},"district":{"key":"09177","name":"Erding","type":"Landkreis"},"federalState":{"key":"09","name":"Bayern"}},{"name":"Harthofener Str.","postalCode":"85669","locality":"Pastetten","municipality":{"key":"09177135","name":"Pastetten","type":"Kreisangehörige_Gemeinde"},"district":{"key":"09177","name":"Erding","type":"Landkreis"},"federalState":{"key":"09","name":"Bayern"}},{"name":"Hauptstr.","postalCode":"85669","locality":"Pastetten","municipality":{"key":"09177135","name":"Pastetten","type":"Kreisangehörige_Gemeinde"},"district":{"key":"09177","name":"Erding","type":"Landkreis"},"federalState":{"key":"09","name":"Bayern"}},{"name":"Hohenlindener Str.","postalCode":"85669","locality":"Pastetten","municipality":{"key":"09177135","name":"Pastetten","type":"Kreisangehörige_Gemeinde"},"district":{"key":"09177","name":"Erding","type":"Landkreis"},"federalState":{"key":"09","name":"Bayern"}},{"name":"Isener Str.","postalCode":"85669","locality":"Pastetten","municipality":{"key":"09177135","name":"Pastetten","type":"Kreisangehörige_Gemeinde"},"district":{"key":"09177","name":"Erding","type":"Landkreis"},"federalState":{"key":"09","name":"Bayern"}},{"name":"Jägerhausrichtweg","postalCode":"75038","locality":"Oberderdingen","municipality":{"key":"08215059","name":"Oberderdingen","type":"Kreisangehörige_Gemeinde"},"district":{"key":"08215","name":"Karlsruhe","type":"Landkreis"},"federalState":{"key":"08","name":"Baden-Württemberg"}},{"name":"Jägerstr.","postalCode":"70771","locality":"Leinfelden-Echterdingen","municipality":{"key":"08116078","name":"Leinfelden-Echterdingen, Stadt","type":"Große_Kreisstadt"},"district":{"key":"08116","name":"Esslingen","type":"Landkreis"},"federalState":{"key":"08","name":"Baden-Württemberg"}},{"name":"Jahnstr.","postalCode":"70771","locality":"Leinfelden-Echterdingen","municipality":{"key":"08116078","name":"Leinfelden-Echterdingen, Stadt","type":"Große_Kreisstadt"},"district":{"key":"08116","name":"Esslingen","type":"Landkreis"},"federalState":{"key":"08","name":"Baden-Württemberg"}},{"name":"Jahnstr.","postalCode":"72127","locality":"Kusterdingen","municipality":{"key":"08416023","name":"Kusterdingen","type":"Kreisangehörige_Gemeinde"},"district":{"key":"08416","name":"Tübingen","type":"Landkreis"},"federalState":{"key":"08","name":"Baden-Württemberg"}},{"name":"Jahnstr.","postalCode":"72131","locality":"Ofterdingen","municipality":{"key":"08416031","name":"Ofterdingen","type":"Kreisangehörige_Gemeinde"},"district":{"key":"08416","name":"Tübingen","type":"Landkreis"},"federalState":{"key":"08","name":"Baden-Württemberg"}},{"name":"Jakob-Kaindl-Str.","postalCode":"85435","locality":"Erding","municipality":{"key":"09177117","name":"Erding, GKSt","type":"Große_Kreisstadt"},"district":{"key":"09177","name":"Erding","type":"Landkreis"},"federalState":{"key":"09","name":"Bayern"}},{"name":"Jakobstr.","postalCode":"70771","locality":"Leinfelden-Echterdingen","municipality":{"key":"08116078","name":"Leinfelden-Echterdingen, Stadt","type":"Große_Kreisstadt"},"district":{"key":"08116","name":"Esslingen","type":"Landkreis"},"federalState":{"key":"08","name":"Baden-Württemberg"}},{"name":"Jakob-Wandel-Weg","postalCode":"72127","locality":"Kusterdingen","municipality":{"key":"08416023","name":"Kusterdingen","type":"Kreisangehörige_Gemeinde"},"district":{"key":"08416","name":"Tübingen","type":"Landkreis"},"federalState":{"key":"08","name":"Baden-Württemberg"}},{"name":"Jan-Ullrich-Str.","postalCode":"79291","locality":"Merdingen","municipality":{"key":"08315072","name":"Merdingen","type":"Kreisangehörige_Gemeinde"},"district":{"key":"08315","name":"Breisgau-Hochschwarzwald","type":"Landkreis"},"federalState":{"key":"08","name":"Baden-Württemberg"}},{"name":"Jean-Dumas-Str.","postalCode":"75038","locality":"Oberderdingen","municipality":{"key":"08215059","name":"Oberderdingen","type":"Kreisangehörige_Gemeinde"},"district":{"key":"08215","name":"Karlsruhe","type":"Landkreis"},"federalState":{"key":"08","name":"Baden-Württemberg"}},{"name":"Jettenburger Str.","postalCode":"72127","locality":"Kusterdingen","municipality":{"key":"08416023","name":"Kusterdingen","type":"Kreisangehörige_Gemeinde"},"district":{"key":"08416","name":"Tübingen","type":"Landkreis"},"federalState":{"key":"08","name":"Baden-Württemberg"}},{"name":"Joachim-von-Schröder-Str.","postalCode":"70771","locality":"Leinfelden-Echterdingen","municipality":{"key":"08116078","name":"Leinfelden-Echterdingen, Stadt","type":"Große_Kreisstadt"},"district":{"key":"08116","name":"Esslingen","type":"Landkreis"},"federalState":{"key":"08","name":"Baden-Württemberg"}},{"name":"Jochbergweg","postalCode":"85435","locality":"Erding","municipality":{"key":"09177117","name":"Erding, GKSt","type":"Große_Kreisstadt"},"district":{"key":"09177","name":"Erding","type":"Landkreis"},"federalState":{"key":"09","name":"Bayern"}},{"name":"Johann-Auer-Str.","postalCode":"85435","locality":"Erding","municipality":{"key":"09177117","name":"Erding, GKSt","type":"Große_Kreisstadt"},"district":{"key":"09177","name":"Erding","type":"Landkreis"},"federalState":{"key":"09","name":"Bayern"}},{"name":"Johannisweg","postalCode":"86862","locality":"Lamerdingen","municipality":{"key":"09777145","name":"Lamerdingen","type":"Kreisangehörige_Gemeinde"},"district":{"key":"09777","name":"Ostallgäu","type":"Landkreis"},"federalState":{"key":"09","name":"Bayern"}},{"name":"Johann-Joseph-Abert-Weg","postalCode":"70771","locality":"Leinfelden-Echterdingen","municipality":{"key":"08116078","name":"Leinfelden-Echterdingen, Stadt","type":"Große_Kreisstadt"},"district":{"key":"08116","name":"Esslingen","type":"Landkreis"},"federalState":{"key":"08","name":"Baden-Württemberg"}},{"name":"Johann-Sebastian-Bach-Str.","postalCode":"70771","locality":"Leinfelden-Echterdingen","municipality":{"key":"08116078","name":"Leinfelden-Echterdingen, Stadt","type":"Große_Kreisstadt"},"district":{"key":"08116","name":"Esslingen","type":"Landkreis"},"federalState":{"key":"08","name":"Baden-Württemberg"}},{"name":"Johann-Sebastian-Bach-Str.","postalCode":"85435","locality":"Erding","municipality":{"key":"09177117","name":"Erding, GKSt","type":"Große_Kreisstadt"},"district":{"key":"09177","name":"Erding","type":"Landkreis"},"federalState":{"key":"09","name":"Bayern"}},{"name":"Johann-Strauß-Weg","postalCode":"70771","locality":"Leinfelden-Echterdingen","municipality":{"key":"08116078","name":"Leinfelden-Echterdingen, Stadt","type":"Große_Kreisstadt"},"district":{"key":"08116","name":"Esslingen","type":"Landkreis"},"federalState":{"key":"08","name":"Baden-Württemberg"}},{"name":"Jörg-Töber-Weg","postalCode":"71701","locality":"Schwieberdingen","municipality":{"key":"08118067","name":"Schwieberdingen","type":"Kreisangehörige_Gemeinde"},"district":{"key":"08118","name":"Ludwigsburg","type":"Landkreis"},"federalState":{"key":"08","name":"Baden-Württemberg"}},{"name":"Josef-Herz-Str.","postalCode":"85435","locality":"Erding","municipality":{"key":"09177117","name":"Erding, GKSt","type":"Große_Kreisstadt"},"district":{"key":"09177","name":"Erding","type":"Landkreis"},"federalState":{"key":"09","name":"Bayern"}},{"name":"Josef-Schwankl-Str.","postalCode":"85435","locality":"Erding","municipality":{"key":"09177117","name":"Erding, GKSt","type":"Große_Kreisstadt"},"district":{"key":"09177","name":"Erding","type":"Landkreis"},"federalState":{"key":"09","name":"Bayern"}},{"name":"Junkerstr.","postalCode":"29640","locality":"Schneverdingen","municipality":{"key":"03358019","name":"Schneverdingen, Stadt","type":"Stadt"},"district":{"key":"03358","name":"Heidekreis","type":"Landkreis"},"federalState":{"key":"03","name":"Niedersachsen"}},{"name":"Juraweg","postalCode":"70771","locality":"Leinfelden-Echterdingen","municipality":{"key":"08116078","name":"Leinfelden-Echterdingen, Stadt","type":"Große_Kreisstadt"},"district":{"key":"08116","name":"Esslingen","type":"Landkreis"},"federalState":{"key":"08","name":"Baden-Württemberg"}},{"name":"Justus-von-Liebig-Str.","postalCode":"85435","locality":"Erding","municipality":{"key":"09177117","name":"Erding, GKSt","type":"Große_Kreisstadt"},"district":{"key":"09177","name":"Erding","type":"Landkreis"},"federalState":{"key":"09","name":"Bayern"}},{"name":"Kreuzstr.","postalCode":"85669","locality":"Pastetten","municipality":{"key":"09177135","name":"Pastetten","type":"Kreisangehörige_Gemeinde"},"district":{"key":"09177","name":"Erding","type":"Landkreis"},"federalState":{"key":"09","name":"Bayern"}},{"name":"Lindenstr.","postalCode":"85669","locality":"Pastetten","municipality":{"key":"09177135","name":"Pastetten","type":"Kreisangehörige_Gemeinde"},"district":{"key":"09177","name":"Erding","type":"Landkreis"},"federalState":{"key":"09","name":"Bayern"}},{"name":"Lohfeld","postalCode":"85669","locality":"Pastetten","municipality":{"key":"09177135","name":"Pastetten","type":"Kreisangehörige_Gemeinde"},"district":{"key":"09177","name":"Erding","type":"Landkreis"},"federalState":{"key":"09","name":"Bayern"}},{"name":"Moosanger","postalCode":"85669","locality":"Pastetten","municipality":{"key":"09177135","name":"Pastetten","type":"Kreisangehörige_Gemeinde"},"district":{"key":"09177","name":"Erding","type":"Landkreis"},"federalState":{"key":"09","name":"Bayern"}},{"name":"Moosstr.","postalCode":"85669","locality":"Pastetten","municipality":{"key":"09177135","name":"Pastetten","type":"Kreisangehörige_Gemeinde"},"district":{"key":"09177","name":"Erding","type":"Landkreis"},"federalState":{"key":"09","name":"Bayern"}},{"name":"Nährenwaldweg","postalCode":"70771","locality":"Leinfelden-Echterdingen","municipality":{"key":"08116078","name":"Leinfelden-Echterdingen, Stadt","type":"Große_Kreisstadt"},"district":{"key":"08116","name":"Esslingen","type":"Landkreis"},"federalState":{"key":"08","name":"Baden-Württemberg"}},{"name":"Narzissenstr.","postalCode":"70771","locality":"Leinfelden-Echterdingen","municipality":{"key":"08116078","name":"Leinfelden-Echterdingen, Stadt","type":"Große_Kreisstadt"},"district":{"key":"08116","name":"Esslingen","type":"Landkreis"},"federalState":{"key":"08","name":"Baden-Württemberg"}},{"name":"Nasses Alleele","postalCode":"70771","locality":"Leinfelden-Echterdingen","municipality":{"key":"08116078","name":"Leinfelden-Echterdingen, Stadt","type":"Große_Kreisstadt"},"district":{"key":"08116","name":"Esslingen","type":"Landkreis"},"federalState":{"key":"08","name":"Baden-Württemberg"}},{"name":"Naumannstr.","postalCode":"70771","locality":"Leinfelden-Echterdingen","municipality":{"key":"08116078","name":"Leinfelden-Echterdingen, Stadt","type":"Große_Kreisstadt"},"district":{"key":"08116","name":"Esslingen","type":"Landkreis"},"federalState":{"key":"08","name":"Baden-Württemberg"}},{"name":"Neckar-Alb-Str.","postalCode":"72127","locality":"Kusterdingen","municipality":{"key":"08416023","name":"Kusterdingen","type":"Kreisangehörige_Gemeinde"},"district":{"key":"08416","name":"Tübingen","type":"Landkreis"},"federalState":{"key":"08","name":"Baden-Württemberg"}},{"name":"Nelkenstr.","postalCode":"70771","locality":"Leinfelden-Echterdingen","municipality":{"key":"08116078","name":"Leinfelden-Echterdingen, Stadt","type":"Große_Kreisstadt"},"district":{"key":"08116","name":"Esslingen","type":"Landkreis"},"federalState":{"key":"08","name":"Baden-Württemberg"}},{"name":"Nelkenstr.","postalCode":"72127","locality":"Kusterdingen","municipality":{"key":"08416023","name":"Kusterdingen","type":"Kreisangehörige_Gemeinde"},"district":{"key":"08416","name":"Tübingen","type":"Landkreis"},"federalState":{"key":"08","name":"Baden-Württemberg"}},{"name":"Nelkenstr.","postalCode":"72131","locality":"Ofterdingen","municipality":{"key":"08416031","name":"Ofterdingen","type":"Kreisangehörige_Gemeinde"},"district":{"key":"08416","name":"Tübingen","type":"Landkreis"},"federalState":{"key":"08","name":"Baden-Württemberg"}},{"name":"Nelkenweg","postalCode":"79364","locality":"Malterdingen","municipality":{"key":"08316024","name":"Malterdingen","type":"Kreisangehörige_Gemeinde"},"district":{"key":"08316","name":"Emmendingen","type":"Landkreis"},"federalState":{"key":"08","name":"Baden-Württemberg"}},{"name":"Nenkershölzleweg","postalCode":"70771","locality":"Leinfelden-Echterdingen","municipality":{"key":"08116078","name":"Leinfelden-Echterdingen, Stadt","type":"Große_Kreisstadt"},"district":{"key":"08116","name":"Esslingen","type":"Landkreis"},"federalState":{"key":"08","name":"Baden-Württemberg"}},{"name":"Nerzweg","postalCode":"70771","locality":"Leinfelden-Echterdingen","municipality":{"key":"08116078","name":"Leinfelden-Echterdingen, Stadt","type":"Große_Kreisstadt"},"district":{"key":"08116","name":"Esslingen","type":"Landkreis"},"federalState":{"key":"08","name":"Baden-Württemberg"}},{"name":"Neue Str.","postalCode":"29640","locality":"Schneverdingen","municipality":{"key":"03358019","name":"Schneverdingen, Stadt","type":"Stadt"},"district":{"key":"03358","name":"Heidekreis","type":"Landkreis"},"federalState":{"key":"03","name":"Niedersachsen"}},{"name":"Neuffenstr.","postalCode":"70771","locality":"Leinfelden-Echterdingen","municipality":{"key":"08116078","name":"Leinfelden-Echterdingen, Stadt","type":"Große_Kreisstadt"},"district":{"key":"08116","name":"Esslingen","type":"Landkreis"},"federalState":{"key":"08","name":"Baden-Württemberg"}},{"name":"Neuffenstr.","postalCode":"72127","locality":"Kusterdingen","municipality":{"key":"08416023","name":"Kusterdingen","type":"Kreisangehörige_Gemeinde"},"district":{"key":"08416","name":"Tübingen","type":"Landkreis"},"federalState":{"key":"08","name":"Baden-Württemberg"}},{"name":"Neuffenstr.","postalCode":"72131","locality":"Ofterdingen","municipality":{"key":"08416031","name":"Ofterdingen","type":"Kreisangehörige_Gemeinde"},"district":{"key":"08416","name":"Tübingen","type":"Landkreis"},"federalState":{"key":"08","name":"Baden-Württemberg"}},{"name":"Neunkircherweg","postalCode":"79291","locality":"Merdingen","municipality":{"key":"08315072","name":"Merdingen","type":"Kreisangehörige_Gemeinde"},"district":{"key":"08315","name":"Breisgau-Hochschwarzwald","type":"Landkreis"},"federalState":{"key":"08","name":"Baden-Württemberg"}},{"name":"Nikolaus-Döllel-Str.","postalCode":"85435","locality":"Erding","municipality":{"key":"09177117","name":"Erding, GKSt","type":"Große_Kreisstadt"},"district":{"key":"09177","name":"Erding","type":"Landkreis"},"federalState":{"key":"09","name":"Bayern"}},{"name":"Nikolaus-Otto-Str.","postalCode":"70771","locality":"Leinfelden-Echterdingen","municipality":{"key":"08116078","name":"Leinfelden-Echterdingen, Stadt","type":"Große_Kreisstadt"},"district":{"key":"08116","name":"Esslingen","type":"Landkreis"},"federalState":{"key":"08","name":"Baden-Württemberg"}},{"name":"Nippenburger Str.","postalCode":"71701","locality":"Schwieberdingen","municipality":{"key":"08118067","name":"Schwieberdingen","type":"Kreisangehörige_Gemeinde"},"district":{"key":"08118","name":"Ludwigsburg","type":"Landkreis"},"federalState":{"key":"08","name":"Baden-Württemberg"}},{"name":"Nonnenweg","postalCode":"72131","locality":"Ofterdingen","municipality":{"key":"08416031","name":"Ofterdingen","type":"Kreisangehörige_Gemeinde"},"district":{"key":"08416","name":"Tübingen","type":"Landkreis"},"federalState":{"key":"08","name":"Baden-Württemberg"}},{"name":"Nordstr.","postalCode":"29640","locality":"Schneverdingen","municipality":{"key":"03358019","name":"Schneverdingen, Stadt","type":"Stadt"},"district":{"key":"03358","name":"Heidekreis","type":"Landkreis"},"federalState":{"key":"03","name":"Niedersachsen"}},{"name":"Nord-Süd-Str.","postalCode":"70771","locality":"Leinfelden-Echterdingen","municipality":{"key":"08116078","name":"Leinfelden-Echterdingen, Stadt","type":"Große_Kreisstadt"},"district":{"key":"08116","name":"Esslingen","type":"Landkreis"},"federalState":{"key":"08","name":"Baden-Württemberg"}},{"name":"Notburgaweg","postalCode":"85445","locality":"Oberding","municipality":{"key":"09177133","name":"Oberding","type":"Kreisangehörige_Gemeinde"},"district":{"key":"09177","name":"Erding","type":"Landkreis"},"federalState":{"key":"09","name":"Bayern"}},{"name":"Novalisweg","postalCode":"71735","locality":"Eberdingen","municipality":{"key":"08118012","name":"Eberdingen","type":"Kreisangehörige_Gemeinde"},"district":{"key":"08118","name":"Ludwigsburg","type":"Landkreis"},"federalState":{"key":"08","name":"Baden-Württemberg"}},{"name":"Novalisweg","postalCode":"72131","locality":"Ofterdingen","municipality":{"key":"08416031","name":"Ofterdingen","type":"Kreisangehörige_Gemeinde"},"district":{"key":"08416","name":"Tübingen","type":"Landkreis"},"federalState":{"key":"08","name":"Baden-Württemberg"}},{"name":"Nusbaumer Str.","postalCode":"54675","locality":"Hommerdingen","municipality":{"key":"07232054","name":"Hommerdingen","type":"Kreisangehörige_Gemeinde"},"district":{"key":"07232","name":"Eifelkreis Bitburg-Prüm","type":"Landkreis"},"federalState":{"key":"07","name":"Rheinland-Pfalz"}},{"name":"Nußbaumstr.","postalCode":"85435","locality":"Erding","municipality":{"key":"09177117","name":"Erding, GKSt","type":"Große_Kreisstadt"},"district":{"key":"09177","name":"Erding","type":"Landkreis"},"federalState":{"key":"09","name":"Bayern"}},{"name":"Nussbaumweg","postalCode":"29640","locality":"Schneverdingen","municipality":{"key":"03358019","name":"Schneverdingen, Stadt","type":"Stadt"},"district":{"key":"03358","name":"Heidekreis","type":"Landkreis"},"federalState":{"key":"03","name":"Niedersachsen"}},{"name":"Nußbaumweg","postalCode":"71735","locality":"Eberdingen","municipality":{"key":"08118012","name":"Eberdingen","type":"Kreisangehörige_Gemeinde"},"district":{"key":"08118","name":"Ludwigsburg","type":"Landkreis"},"federalState":{"key":"08","name":"Baden-Württemberg"}},{"name":"Nussdorfer Str.","postalCode":"71735","locality":"Eberdingen","municipality":{"key":"08118012","name":"Eberdingen","type":"Kreisangehörige_Gemeinde"},"district":{"key":"08118","name":"Ludwigsburg","type":"Landkreis"},"federalState":{"key":"08","name":"Baden-Württemberg"}},{"name":"Oberau","postalCode":"85669","locality":"Pastetten","municipality":{"key":"09177135","name":"Pastetten","type":"Kreisangehörige_Gemeinde"},"district":{"key":"09177","name":"Erding","type":"Landkreis"},"federalState":{"key":"09","name":"Bayern"}},{"name":"Pastettener Str.","postalCode":"85669","locality":"Pastetten","municipality":{"key":"09177135","name":"Pastetten","type":"Kreisangehörige_Gemeinde"},"district":{"key":"09177","name":"Erding","type":"Landkreis"},"federalState":{"key":"09","name":"Bayern"}},{"name":"Pfarrer-Melf-Str.","postalCode":"85669","locality":"Pastetten","municipality":{"key":"09177135","name":"Pastetten","type":"Kreisangehörige_Gemeinde"},"district":{"key":"09177","name":"Erding","type":"Landkreis"},"federalState":{"key":"09","name":"Bayern"}},{"name":"Pfarrer-Riedmaier-Str.","postalCode":"85669","locality":"Pastetten","municipality":{"key":"09177135","name":"Pastetten","type":"Kreisangehörige_Gemeinde"},"district":{"key":"09177","name":"Erding","type":"Landkreis"},"federalState":{"key":"09","name":"Bayern"}},{"name":"Quellenstr.","postalCode":"71735","locality":"Eberdingen","municipality":{"key":"08118012","name":"Eberdingen","type":"Kreisangehörige_Gemeinde"},"district":{"key":"08118","name":"Ludwigsburg","type":"Landkreis"},"federalState":{"key":"08","name":"Baden-Württemberg"}},{"name":"Querweg","postalCode":"29640","locality":"Schneverdingen","municipality":{"key":"03358019","name":"Schneverdingen, Stadt","type":"Stadt"},"district":{"key":"03358","name":"Heidekreis","type":"Landkreis"},"federalState":{"key":"03","name":"Niedersachsen"}},{"name":"Raiffeisenstr.","postalCode":"85669","locality":"Pastetten","municipality":{"key":"09177135","name":"Pastetten","type":"Kreisangehörige_Gemeinde"},"district":{"key":"09177","name":"Erding","type":"Landkreis"},"federalState":{"key":"09","name":"Bayern"}},{"name":"Rebhuhnweg","postalCode":"85669","locality":"Pastetten","municipality":{"key":"09177135","name":"Pastetten","type":"Kreisangehörige_Gemeinde"},"district":{"key":"09177","name":"Erding","type":"Landkreis"},"federalState":{"key":"09","name":"Bayern"}},{"name":"Ringstr.","postalCode":"85669","locality":"Pastetten","municipality":{"key":"09177135","name":"Pastetten","type":"Kreisangehörige_Gemeinde"},"district":{"key":"09177","name":"Erding","type":"Landkreis"},"federalState":{"key":"09","name":"Bayern"}},{"name":"Schützenstr.","postalCode":"85669","locality":"Pastetten","municipality":{"key":"09177135","name":"Pastetten","type":"Kreisangehörige_Gemeinde"},"district":{"key":"09177","name":"Erding","type":"Landkreis"},"federalState":{"key":"09","name":"Bayern"}},{"name":"Spatenweg","postalCode":"85669","locality":"Pastetten","municipality":{"key":"09177135","name":"Pastetten","type":"Kreisangehörige_Gemeinde"},"district":{"key":"09177","name":"Erding","type":"Landkreis"},"federalState":{"key":"09","name":"Bayern"}},{"name":"Steidler-Ring","postalCode":"85669","locality":"Pastetten","municipality":{"key":"09177135","name":"Pastetten","type":"Kreisangehörige_Gemeinde"},"district":{"key":"09177","name":"Erding","type":"Landkreis"},"federalState":{"key":"09","name":"Bayern"}},{"name":"Steinfeldstr.","postalCode":"85669","locality":"Pastetten","municipality":{"key":"09177135","name":"Pastetten","type":"Kreisangehörige_Gemeinde"},"district":{"key":"09177","name":"Erding","type":"Landkreis"},"federalState":{"key":"09","name":"Bayern"}},{"name":"Tadinger Str.","postalCode":"85669","locality":"Pastetten","municipality":{"key":"09177135","name":"Pastetten","type":"Kreisangehörige_Gemeinde"},"district":{"key":"09177","name":"Erding","type":"Landkreis"},"federalState":{"key":"09","name":"Bayern"}},{"name":"Uhlandstr.","postalCode":"70771","locality":"Leinfelden-Echterdingen","municipality":{"key":"08116078","name":"Leinfelden-Echterdingen, Stadt","type":"Große_Kreisstadt"},"district":{"key":"08116","name":"Esslingen","type":"Landkreis"},"federalState":{"key":"08","name":"Baden-Württemberg"}},{"name":"Uhlandstr.","postalCode":"71735","locality":"Eberdingen","municipality":{"key":"08118012","name":"Eberdingen","type":"Kreisangehörige_Gemeinde"},"district":{"key":"08118","name":"Ludwigsburg","type":"Landkreis"},"federalState":{"key":"08","name":"Baden-Württemberg"}},{"name":"Uhlandstr.","postalCode":"72127","locality":"Kusterdingen","municipality":{"key":"08416023","name":"Kusterdingen","type":"Kreisangehörige_Gemeinde"},"district":{"key":"08416","name":"Tübingen","type":"Landkreis"},"federalState":{"key":"08","name":"Baden-Württemberg"}},{"name":"Uhlandstr.","postalCode":"72131","locality":"Ofterdingen","municipality":{"key":"08416031","name":"Ofterdingen","type":"Kreisangehörige_Gemeinde"},"district":{"key":"08416","name":"Tübingen","type":"Landkreis"},"federalState":{"key":"08","name":"Baden-Württemberg"}},{"name":"Uhlandstr.","postalCode":"75038","locality":"Oberderdingen","municipality":{"key":"08215059","name":"Oberderdingen","type":"Kreisangehörige_Gemeinde"},"district":{"key":"08215","name":"Karlsruhe","type":"Landkreis"},"federalState":{"key":"08","name":"Baden-Württemberg"}},{"name":"Uhlandstr.","postalCode":"85435","locality":"Erding","municipality":{"key":"09177117","name":"Erding, GKSt","type":"Große_Kreisstadt"},"district":{"key":"09177","name":"Erding","type":"Landkreis"},"federalState":{"key":"09","name":"Bayern"}},{"name":"Uhlandweg","postalCode":"71701","locality":"Schwieberdingen","municipality":{"key":"08118067","name":"Schwieberdingen","type":"Kreisangehörige_Gemeinde"},"district":{"key":"08118","name":"Ludwigsburg","type":"Landkreis"},"federalState":{"key":"08","name":"Baden-Württemberg"}},{"name":"Uhlbergstr.","postalCode":"70771","locality":"Leinfelden-Echterdingen","municipality":{"key":"08116078","name":"Leinfelden-Echterdingen, Stadt","type":"Große_Kreisstadt"},"district":{"key":"08116","name":"Esslingen","type":"Landkreis"},"federalState":{"key":"08","name":"Baden-Württemberg"}},{"name":"Ulmenstr.","postalCode":"85435","locality":"Erding","municipality":{"key":"09177117","name":"Erding, GKSt","type":"Große_Kreisstadt"},"district":{"key":"09177","name":"Erding","type":"Landkreis"},"federalState":{"key":"09","name":"Bayern"}},{"name":"Ulmenweg","postalCode":"29640","locality":"Schneverdingen","municipality":{"key":"03358019","name":"Schneverdingen, Stadt","type":"Stadt"},"district":{"key":"03358","name":"Heidekreis","type":"Landkreis"},"federalState":{"key":"03","name":"Niedersachsen"}},{"name":"Ulmenweg","postalCode":"70771","locality":"Leinfelden-Echterdingen","municipality":{"key":"08116078","name":"Leinfelden-Echterdingen, Stadt","type":"Große_Kreisstadt"},"district":{"key":"08116","name":"Esslingen","type":"Landkreis"},"federalState":{"key":"08","name":"Baden-Württemberg"}},{"name":"Ulmer Str.","postalCode":"70771","locality":"Leinfelden-Echterdingen","municipality":{"key":"08116078","name":"Leinfelden-Echterdingen, Stadt","type":"Große_Kreisstadt"},"district":{"key":"08116","name":"Esslingen","type":"Landkreis"},"federalState":{"key":"08","name":"Baden-Württemberg"}},{"name":"Ulrichstr.","postalCode":"70771","locality":"Leinfelden-Echterdingen","municipality":{"key":"08116078","name":"Leinfelden-Echterdingen, Stadt","type":"Große_Kreisstadt"},"district":{"key":"08116","name":"Esslingen","type":"Landkreis"},"federalState":{"key":"08","name":"Baden-Württemberg"}},{"name":"Ulrichstr.","postalCode":"72127","locality":"Kusterdingen","municipality":{"key":"08416023","name":"Kusterdingen","type":"Kreisangehörige_Gemeinde"},"district":{"key":"08416","name":"Tübingen","type":"Landkreis"},"federalState":{"key":"08","name":"Baden-Württemberg"}},{"name":"Ulrichstr.","postalCode":"86735","locality":"Amerdingen","municipality":{"key":"09779112","name":"Amerdingen","type":"Kreisangehörige_Gemeinde"},"district":{"key":"09779","name":"Donau-Ries","type":"Landkreis"},"federalState":{"key":"09","name":"Bayern"}},{"name":"Ungerhaldenweg","postalCode":"70771","locality":"Leinfelden-Echterdingen","municipality":{"key":"08116078","name":"Leinfelden-Echterdingen, Stadt","type":"Große_Kreisstadt"},"district":{"key":"08116","name":"Esslingen","type":"Landkreis"},"federalState":{"key":"08","name":"Baden-Württemberg"}},{"name":"Unteraicher Weg","postalCode":"70771","locality":"Leinfelden-Echterdingen","municipality":{"key":"08116078","name":"Leinfelden-Echterdingen, Stadt","type":"Große_Kreisstadt"},"district":{"key":"08116","name":"Esslingen","type":"Landkreis"},"federalState":{"key":"08","name":"Baden-Württemberg"}},{"name":"Unter dem Mähringer Weg","postalCode":"72127","locality":"Kusterdingen","municipality":{"key":"08416023","name":"Kusterdingen","type":"Kreisangehörige_Gemeinde"},"district":{"key":"08416","name":"Tübingen","type":"Landkreis"},"federalState":{"key":"08","name":"Baden-Württemberg"}},{"name":"Untere Gärten","postalCode":"70771","locality":"Leinfelden-Echterdingen","municipality":{"key":"08116078","name":"Leinfelden-Echterdingen, Stadt","type":"Große_Kreisstadt"},"district":{"key":"08116","name":"Esslingen","type":"Landkreis"},"federalState":{"key":"08","name":"Baden-Württemberg"}},{"name":"Untere Halde","postalCode":"70771","locality":"Leinfelden-Echterdingen","municipality":{"key":"08116078","name":"Leinfelden-Echterdingen, Stadt","type":"Große_Kreisstadt"},"district":{"key":"08116","name":"Esslingen","type":"Landkreis"},"federalState":{"key":"08","name":"Baden-Württemberg"}},{"name":"Unterer Banholzweg","postalCode":"70771","locality":"Leinfelden-Echterdingen","municipality":{"key":"08116078","name":"Leinfelden-Echterdingen, Stadt","type":"Große_Kreisstadt"},"district":{"key":"08116","name":"Esslingen","type":"Landkreis"},"federalState":{"key":"08","name":"Baden-Württemberg"}},{"name":"Unterer Brandweg","postalCode":"70771","locality":"Leinfelden-Echterdingen","municipality":{"key":"08116078","name":"Leinfelden-Echterdingen, Stadt","type":"Große_Kreisstadt"},"district":{"key":"08116","name":"Esslingen","type":"Landkreis"},"federalState":{"key":"08","name":"Baden-Württemberg"}},{"name":"Unterer Dettenackerweg","postalCode":"71735","locality":"Eberdingen","municipality":{"key":"08118012","name":"Eberdingen","type":"Kreisangehörige_Gemeinde"},"district":{"key":"08118","name":"Ludwigsburg","type":"Landkreis"},"federalState":{"key":"08","name":"Baden-Württemberg"}},{"name":"Unterer Kasparswald","postalCode":"70771","locality":"Leinfelden-Echterdingen","municipality":{"key":"08116078","name":"Leinfelden-Echterdingen, Stadt","type":"Große_Kreisstadt"},"district":{"key":"08116","name":"Esslingen","type":"Landkreis"},"federalState":{"key":"08","name":"Baden-Württemberg"}},{"name":"Unterer Wolfentalweg","postalCode":"79364","locality":"Malterdingen","municipality":{"key":"08316024","name":"Malterdingen","type":"Kreisangehörige_Gemeinde"},"district":{"key":"08316","name":"Emmendingen","type":"Landkreis"},"federalState":{"key":"08","name":"Baden-Württemberg"}},{"name":"Untertorstr.","postalCode":"70771","locality":"Leinfelden-Echterdingen","municipality":{"key":"08116078","name":"Leinfelden-Echterdingen, Stadt","type":"Große_Kreisstadt"},"district":{"key":"08116","name":"Esslingen","type":"Landkreis"},"federalState":{"key":"08","name":"Baden-Württemberg"}},{"name":"Unterwald","postalCode":"79364","locality":"Malterdingen","municipality":{"key":"08316024","name":"Malterdingen","type":"Kreisangehörige_Gemeinde"},"district":{"key":"08316","name":"Emmendingen","type":"Landkreis"},"federalState":{"key":"08","name":"Baden-Württemberg"}},{"name":"Untuchtstr.","postalCode":"70771","locality":"Leinfelden-Echterdingen","municipality":{"key":"08116078","name":"Leinfelden-Echterdingen, Stadt","type":"Große_Kreisstadt"},"district":{"key":"08116","name":"Esslingen","type":"Landkreis"},"federalState":{"key":"08","name":"Baden-Württemberg"}},{"name":"Urbanweg","postalCode":"75038","locality":"Oberderdingen","municipality":{"key":"08215059","name":"Oberderdingen","type":"Kreisangehörige_Gemeinde"},"district":{"key":"08215","name":"Karlsruhe","type":"Landkreis"},"federalState":{"key":"08","name":"Baden-Württemberg"}},{"name":"Ursulastr.","postalCode":"72131","locality":"Ofterdingen","municipality":{"key":"08416031","name":"Ofterdingen","type":"Kreisangehörige_Gemeinde"},"district":{"key":"08416","name":"Tübingen","type":"Landkreis"},"federalState":{"key":"08","name":"Baden-Württemberg"}},{"name":"Ursulaweg","postalCode":"70771","locality":"Leinfelden-Echterdingen","municipality":{"key":"08116078","name":"Leinfelden-Echterdingen, Stadt","type":"Große_Kreisstadt"},"district":{"key":"08116","name":"Esslingen","type":"Landkreis"},"federalState":{"key":"08","name":"Baden-Württemberg"}},{"name":"Vahlzener Str.","postalCode":"29640","locality":"Schneverdingen","municipality":{"key":"03358019","name":"Schneverdingen, Stadt","type":"Stadt"},"district":{"key":"03358","name":"Heidekreis","type":"Landkreis"},"federalState":{"key":"03","name":"Niedersachsen"}},{"name":"Vaihinger Str.","postalCode":"70771","locality":"Leinfelden-Echterdingen","municipality":{"key":"08116078","name":"Leinfelden-Echterdingen, Stadt","type":"Große_Kreisstadt"},"district":{"key":"08116","name":"Esslingen","type":"Landkreis"},"federalState":{"key":"08","name":"Baden-Württemberg"}},{"name":"Vaihinger Str.","postalCode":"71701","locality":"Schwieberdingen","municipality":{"key":"08118067","name":"Schwieberdingen","type":"Kreisangehörige_Gemeinde"},"district":{"key":"08118","name":"Ludwigsburg","type":"Landkreis"},"federalState":{"key":"08","name":"Baden-Württemberg"}},{"name":"Vaihinger Str.","postalCode":"71735","locality":"Eberdingen","municipality":{"key":"08118012","name":"Eberdingen","type":"Kreisangehörige_Gemeinde"},"district":{"key":"08118","name":"Ludwigsburg","type":"Landkreis"},"federalState":{"key":"08","name":"Baden-Württemberg"}},{"name":"Valentin-Kirmeyer-Str.","postalCode":"85435","locality":"Erding","municipality":{"key":"09177117","name":"Erding, GKSt","type":"Große_Kreisstadt"},"district":{"key":"09177","name":"Erding","type":"Landkreis"},"federalState":{"key":"09","name":"Bayern"}},{"name":"Veigelweg","postalCode":"72127","locality":"Kusterdingen","municipality":{"key":"08416023","name":"Kusterdingen","type":"Kreisangehörige_Gemeinde"},"district":{"key":"08416","name":"Tübingen","type":"Landkreis"},"federalState":{"key":"08","name":"Baden-Württemberg"}},{"name":"Veilchenweg","postalCode":"70771","locality":"Leinfelden-Echterdingen","municipality":{"key":"08116078","name":"Leinfelden-Echterdingen, Stadt","type":"Große_Kreisstadt"},"district":{"key":"08116","name":"Esslingen","type":"Landkreis"},"federalState":{"key":"08","name":"Baden-Württemberg"}},{"name":"Verdener Str.","postalCode":"29640","locality":"Schneverdingen","municipality":{"key":"03358019","name":"Schneverdingen, Stadt","type":"Stadt"},"district":{"key":"03358","name":"Heidekreis","type":"Landkreis"},"federalState":{"key":"03","name":"Niedersachsen"}},{"name":"Verdiweg","postalCode":"70771","locality":"Leinfelden-Echterdingen","municipality":{"key":"08116078","name":"Leinfelden-Echterdingen, Stadt","type":"Große_Kreisstadt"},"district":{"key":"08116","name":"Esslingen","type":"Landkreis"},"federalState":{"key":"08","name":"Baden-Württemberg"}},{"name":"Vespucciweg","postalCode":"70771","locality":"Leinfelden-Echterdingen","municipality":{"key":"08116078","name":"Leinfelden-Echterdingen, Stadt","type":"Große_Kreisstadt"},"district":{"key":"08116","name":"Esslingen","type":"Landkreis"},"federalState":{"key":"08","name":"Baden-Württemberg"}},{"name":"Viehweg","postalCode":"70771","locality":"Leinfelden-Echterdingen","municipality":{"key":"08116078","name":"Leinfelden-Echterdingen, Stadt","type":"Große_Kreisstadt"},"district":{"key":"08116","name":"Esslingen","type":"Landkreis"},"federalState":{"key":"08","name":"Baden-Württemberg"}},{"name":"Vierburgenweg","postalCode":"79364","locality":"Malterdingen","municipality":{"key":"08316024","name":"Malterdingen","type":"Kreisangehörige_Gemeinde"},"district":{"key":"08316","name":"Emmendingen","type":"Landkreis"},"federalState":{"key":"08","name":"Baden-Württemberg"}},{"name":"Villar-Perosa-Str.","postalCode":"75038","locality":"Oberderdingen","municipality":{"key":"08215059","name":"Oberderdingen","type":"Kreisangehörige_Gemeinde"},"district":{"key":"08215","name":"Karlsruhe","type":"Landkreis"},"federalState":{"key":"08","name":"Baden-Württemberg"}},{"name":"Vinzenzstr.","postalCode":"85435","locality":"Erding","municipality":{"key":"09177117","name":"Erding, GKSt","type":"Große_Kreisstadt"},"district":{"key":"09177","name":"Erding","type":"Landkreis"},"federalState":{"key":"09","name":"Bayern"}},{"name":"Vogelbeerweg","postalCode":"29640","locality":"Schneverdingen","municipality":{"key":"03358019","name":"Schneverdingen, Stadt","type":"Stadt"},"district":{"key":"03358","name":"Heidekreis","type":"Landkreis"},"federalState":{"key":"03","name":"Niedersachsen"}},{"name":"Vogelherdweg","postalCode":"70771","locality":"Leinfelden-Echterdingen","municipality":{"key":"08116078","name":"Leinfelden-Echterdingen, Stadt","type":"Große_Kreisstadt"},"district":{"key":"08116","name":"Esslingen","type":"Landkreis"},"federalState":{"key":"08","name":"Baden-Württemberg"}},{"name":"Vogelsangstr.","postalCode":"72131","locality":"Ofterdingen","municipality":{"key":"08416031","name":"Ofterdingen","type":"Kreisangehörige_Gemeinde"},"district":{"key":"08416","name":"Tübingen","type":"Landkreis"},"federalState":{"key":"08","name":"Baden-Württemberg"}},{"name":"Vogesenstr.","postalCode":"79291","locality":"Merdingen","municipality":{"key":"08315072","name":"Merdingen","type":"Kreisangehörige_Gemeinde"},"district":{"key":"08315","name":"Breisgau-Hochschwarzwald","type":"Landkreis"},"federalState":{"key":"08","name":"Baden-Württemberg"}},{"name":"Vögtleinweg","postalCode":"70771","locality":"Leinfelden-Echterdingen","municipality":{"key":"08116078","name":"Leinfelden-Echterdingen, Stadt","type":"Große_Kreisstadt"},"district":{"key":"08116","name":"Esslingen","type":"Landkreis"},"federalState":{"key":"08","name":"Baden-Württemberg"}},{"name":"Vogtweg","postalCode":"79364","locality":"Malterdingen","municipality":{"key":"08316024","name":"Malterdingen","type":"Kreisangehörige_Gemeinde"},"district":{"key":"08316","name":"Emmendingen","type":"Landkreis"},"federalState":{"key":"08","name":"Baden-Württemberg"}},{"name":"Vöhinger Weg","postalCode":"71701","locality":"Schwieberdingen","municipality":{"key":"08118067","name":"Schwieberdingen","type":"Kreisangehörige_Gemeinde"},"district":{"key":"08118","name":"Ludwigsburg","type":"Landkreis"},"federalState":{"key":"08","name":"Baden-Württemberg"}},{"name":"Voigten","postalCode":"29640","locality":"Schneverdingen","municipality":{"key":"03358019","name":"Schneverdingen, Stadt","type":"Stadt"},"district":{"key":"03358","name":"Heidekreis","type":"Landkreis"},"federalState":{"key":"03","name":"Niedersachsen"}},{"name":"Von-Droste-Hülshoff-Weg","postalCode":"29640","locality":"Schneverdingen","municipality":{"key":"03358019","name":"Schneverdingen, Stadt","type":"Stadt"},"district":{"key":"03358","name":"Heidekreis","type":"Landkreis"},"federalState":{"key":"03","name":"Niedersachsen"}},{"name":"Von-Grainger-Weg","postalCode":"85435","locality":"Erding","municipality":{"key":"09177117","name":"Erding, GKSt","type":"Große_Kreisstadt"},"district":{"key":"09177","name":"Erding","type":"Landkreis"},"federalState":{"key":"09","name":"Bayern"}},{"name":"Von-Haag-Str.","postalCode":"85435","locality":"Erding","municipality":{"key":"09177117","name":"Erding, GKSt","type":"Große_Kreisstadt"},"district":{"key":"09177","name":"Erding","type":"Landkreis"},"federalState":{"key":"09","name":"Bayern"}},{"name":"Von-Kleist-Str.","postalCode":"85435","locality":"Erding","municipality":{"key":"09177117","name":"Erding, GKSt","type":"Große_Kreisstadt"},"district":{"key":"09177","name":"Erding","type":"Landkreis"},"federalState":{"key":"09","name":"Bayern"}},{"name":"Von-Linde-Str.","postalCode":"85435","locality":"Erding","municipality":{"key":"09177117","name":"Erding, GKSt","type":"Große_Kreisstadt"},"district":{"key":"09177","name":"Erding","type":"Landkreis"},"federalState":{"key":"09","name":"Bayern"}},{"name":"Von-Puech-Str.","postalCode":"85435","locality":"Erding","municipality":{"key":"09177117","name":"Erding, GKSt","type":"Große_Kreisstadt"},"district":{"key":"09177","name":"Erding","type":"Landkreis"},"federalState":{"key":"09","name":"Bayern"}},{"name":"Vor dem Holz","postalCode":"70771","locality":"Leinfelden-Echterdingen","municipality":{"key":"08116078","name":"Leinfelden-Echterdingen, Stadt","type":"Große_Kreisstadt"},"district":{"key":"08116","name":"Esslingen","type":"Landkreis"},"federalState":{"key":"08","name":"Baden-Württemberg"}},{"name":"Vor den Höfen","postalCode":"29640","locality":"Schneverdingen","municipality":{"key":"03358019","name":"Schneverdingen, Stadt","type":"Stadt"},"district":{"key":"03358","name":"Heidekreis","type":"Landkreis"},"federalState":{"key":"03","name":"Niedersachsen"}},{"name":"Vordere Weingartenstr.","postalCode":"71735","locality":"Eberdingen","municipality":{"key":"08118012","name":"Eberdingen","type":"Kreisangehörige_Gemeinde"},"district":{"key":"08118","name":"Ludwigsburg","type":"Landkreis"},"federalState":{"key":"08","name":"Baden-Württemberg"}},{"name":"Voßbarg","postalCode":"29640","locality":"Schneverdingen","municipality":{"key":"03358019","name":"Schneverdingen, Stadt","type":"Stadt"},"district":{"key":"03358","name":"Heidekreis","type":"Landkreis"},"federalState":{"key":"03","name":"Niedersachsen"}},{"name":"Wendelsteinstr.","postalCode":"85669","locality":"Pastetten","municipality":{"key":"09177135","name":"Pastetten","type":"Kreisangehörige_Gemeinde"},"district":{"key":"09177","name":"Erding","type":"Landkreis"},"federalState":{"key":"09","name":"Bayern"}},{"name":"Westendstr.","postalCode":"85669","locality":"Pastetten","municipality":{"key":"09177135","name":"Pastetten","type":"Kreisangehörige_Gemeinde"},"district":{"key":"09177","name":"Erding","type":"Landkreis"},"federalState":{"key":"09","name":"Bayern"}},{"name":"Zahrenhusenstr.","postalCode":"29640","locality":"Schneverdingen","municipality":{"key":"03358019","name":"Schneverdingen, Stadt","type":"Stadt"},"district":{"key":"03358","name":"Heidekreis","type":"Landkreis"},"federalState":{"key":"03","name":"Niedersachsen"}},{"name":"Zahrenser Weg","postalCode":"29640","locality":"Schneverdingen","municipality":{"key":"03358019","name":"Schneverdingen, Stadt","type":"Stadt"},"district":{"key":"03358","name":"Heidekreis","type":"Landkreis"},"federalState":{"key":"03","name":"Niedersachsen"}},{"name":"Zaunackerstr.","postalCode":"70771","locality":"Leinfelden-Echterdingen","municipality":{"key":"08116078","name":"Leinfelden-Echterdingen, Stadt","type":"Große_Kreisstadt"},"district":{"key":"08116","name":"Esslingen","type":"Landkreis"},"federalState":{"key":"08","name":"Baden-Württemberg"}},{"name":"Zehentstr.","postalCode":"85445","locality":"Oberding","municipality":{"key":"09177133","name":"Oberding","type":"Kreisangehörige_Gemeinde"},"district":{"key":"09177","name":"Erding","type":"Landkreis"},"federalState":{"key":"09","name":"Bayern"}},{"name":"Zehentweg","postalCode":"86862","locality":"Lamerdingen","municipality":{"key":"09777145","name":"Lamerdingen","type":"Kreisangehörige_Gemeinde"},"district":{"key":"09777","name":"Ostallgäu","type":"Landkreis"},"federalState":{"key":"09","name":"Bayern"}},{"name":"Zehnthof","postalCode":"79364","locality":"Malterdingen","municipality":{"key":"08316024","name":"Malterdingen","type":"Kreisangehörige_Gemeinde"},"district":{"key":"08316","name":"Emmendingen","type":"Landkreis"},"federalState":{"key":"08","name":"Baden-Württemberg"}},{"name":"Zeilackerweg","postalCode":"70771","locality":"Leinfelden-Echterdingen","municipality":{"key":"08116078","name":"Leinfelden-Echterdingen, Stadt","type":"Große_Kreisstadt"},"district":{"key":"08116","name":"Esslingen","type":"Landkreis"},"federalState":{"key":"08","name":"Baden-Württemberg"}},{"name":"Zeisigstr.","postalCode":"70771","locality":"Leinfelden-Echterdingen","municipality":{"key":"08116078","name":"Leinfelden-Echterdingen, Stadt","type":"Große_Kreisstadt"},"district":{"key":"08116","name":"Esslingen","type":"Landkreis"},"federalState":{"key":"08","name":"Baden-Württemberg"}},{"name":"Zeppelinring","postalCode":"71735","locality":"Eberdingen","municipality":{"key":"08118012","name":"Eberdingen","type":"Kreisangehörige_Gemeinde"},"district":{"key":"08118","name":"Ludwigsburg","type":"Landkreis"},"federalState":{"key":"08","name":"Baden-Württemberg"}},{"name":"Zeppelinstr.","postalCode":"72127","locality":"Kusterdingen","municipality":{"key":"08416023","name":"Kusterdingen","type":"Kreisangehörige_Gemeinde"},"district":{"key":"08416","name":"Tübingen","type":"Landkreis"},"federalState":{"key":"08","name":"Baden-Württemberg"}},{"name":"Zeppelinstr.","postalCode":"72131","locality":"Ofterdingen","municipality":{"key":"08416031","name":"Ofterdingen","type":"Kreisangehörige_Gemeinde"},"district":{"key":"08416","name":"Tübingen","type":"Landkreis"},"federalState":{"key":"08","name":"Baden-Württemberg"}},{"name":"Zeppelinweg","postalCode":"70771","locality":"Leinfelden-Echterdingen","municipality":{"key":"08116078","name":"Leinfelden-Echterdingen, Stadt","type":"Große_Kreisstadt"},"district":{"key":"08116","name":"Esslingen","type":"Landkreis"},"federalState":{"key":"08","name":"Baden-Württemberg"}},{"name":"Ziegeläckerweg","postalCode":"70771","locality":"Leinfelden-Echterdingen","municipality":{"key":"08116078","name":"Leinfelden-Echterdingen, Stadt","type":"Große_Kreisstadt"},"district":{"key":"08116","name":"Esslingen","type":"Landkreis"},"federalState":{"key":"08","name":"Baden-Württemberg"}},{"name":"Ziegeleistr.","postalCode":"70771","locality":"Leinfelden-Echterdingen","municipality":{"key":"08116078","name":"Leinfelden-Echterdingen, Stadt","type":"Große_Kreisstadt"},"district":{"key":"08116","name":"Esslingen","type":"Landkreis"},"federalState":{"key":"08","name":"Baden-Württemberg"}},{"name":"Ziegelhütte","postalCode":"75038","locality":"Oberderdingen","municipality":{"key":"08215059","name":"Oberderdingen","type":"Kreisangehörige_Gemeinde"},"district":{"key":"08215","name":"Karlsruhe","type":"Landkreis"},"federalState":{"key":"08","name":"Baden-Württemberg"}},{"name":"Ziegelstatt","postalCode":"85435","locality":"Erding","municipality":{"key":"09177117","name":"Erding, GKSt","type":"Große_Kreisstadt"},"district":{"key":"09177","name":"Erding","type":"Landkreis"},"federalState":{"key":"09","name":"Bayern"}},{"name":"Zieglerfeldstr.","postalCode":"85435","locality":"Erding","municipality":{"key":"09177117","name":"Erding, GKSt","type":"Große_Kreisstadt"},"district":{"key":"09177","name":"Erding","type":"Landkreis"},"federalState":{"key":"09","name":"Bayern"}},{"name":"Zigeunergrabenweg","postalCode":"75038","locality":"Oberderdingen","municipality":{"key":"08215059","name":"Oberderdingen","type":"Kreisangehörige_Gemeinde"},"district":{"key":"08215","name":"Karlsruhe","type":"Landkreis"},"federalState":{"key":"08","name":"Baden-Württemberg"}},{"name":"Zinnkopfweg","postalCode":"85435","locality":"Erding","municipality":{"key":"09177117","name":"Erding, GKSt","type":"Große_Kreisstadt"},"district":{"key":"09177","name":"Erding","type":"Landkreis"},"federalState":{"key":"09","name":"Bayern"}},{"name":"Zirbelstr.","postalCode":"85435","locality":"Erding","municipality":{"key":"09177117","name":"Erding, GKSt","type":"Große_Kreisstadt"},"district":{"key":"09177","name":"Erding","type":"Landkreis"},"federalState":{"key":"09","name":"Bayern"}},{"name":"Zollernstr.","postalCode":"72127","locality":"Kusterdingen","municipality":{"key":"08416023","name":"Kusterdingen","type":"Kreisangehörige_Gemeinde"},"district":{"key":"08416","name":"Tübingen","type":"Landkreis"},"federalState":{"key":"08","name":"Baden-Württemberg"}},{"name":"Zollernstr.","postalCode":"72131","locality":"Ofterdingen","municipality":{"key":"08416031","name":"Ofterdingen","type":"Kreisangehörige_Gemeinde"},"district":{"key":"08416","name":"Tübingen","type":"Landkreis"},"federalState":{"key":"08","name":"Baden-Württemberg"}},{"name":"Zollernweg","postalCode":"70771","locality":"Leinfelden-Echterdingen","municipality":{"key":"08116078","name":"Leinfelden-Echterdingen, Stadt","type":"Große_Kreisstadt"},"district":{"key":"08116","name":"Esslingen","type":"Landkreis"},"federalState":{"key":"08","name":"Baden-Württemberg"}},{"name":"Zollnerstr.","postalCode":"85435","locality":"Erding","municipality":{"key":"09177117","name":"Erding, GKSt","type":"Große_Kreisstadt"},"district":{"key":"09177","name":"Erding","type":"Landkreis"},"federalState":{"key":"09","name":"Bayern"}},{"name":"Zoltinger Str.","postalCode":"86735","locality":"Amerdingen","municipality":{"key":"09779112","name":"Amerdingen","type":"Kreisangehörige_Gemeinde"},"district":{"key":"09779","name":"Donau-Ries","type":"Landkreis"},"federalState":{"key":"09","name":"Bayern"}},{"name":"Zu den Wetteäckern","postalCode":"70771","locality":"Leinfelden-Echterdingen","municipality":{"key":"08116078","name":"Leinfelden-Echterdingen, Stadt","type":"Große_Kreisstadt"},"district":{"key":"08116","name":"Esslingen","type":"Landkreis"},"federalState":{"key":"08","name":"Baden-Württemberg"}},{"name":"Zugspitzstr.","postalCode":"85435","locality":"Erding","municipality":{"key":"09177117","name":"Erding, GKSt","type":"Große_Kreisstadt"},"district":{"key":"09177","name":"Erding","type":"Landkreis"},"federalState":{"key":"09","name":"Bayern"}},{"name":"Zum Schießstand","postalCode":"29640","locality":"Schneverdingen","municipality":{"key":"03358019","name":"Schneverdingen, Stadt","type":"Stadt"},"district":{"key":"03358","name":"Heidekreis","type":"Landkreis"},"federalState":{"key":"03","name":"Niedersachsen"}},{"name":"Zum Wasserwerk","postalCode":"29640","locality":"Schneverdingen","municipality":{"key":"03358019","name":"Schneverdingen, Stadt","type":"Stadt"},"district":{"key":"03358","name":"Heidekreis","type":"Landkreis"},"federalState":{"key":"03","name":"Niedersachsen"}},{"name":"Zum Wehr","postalCode":"85435","locality":"Erding","municipality":{"key":"09177117","name":"Erding, GKSt","type":"Große_Kreisstadt"},"district":{"key":"09177","name":"Erding","type":"Landkreis"},"federalState":{"key":"09","name":"Bayern"}},{"name":"Zur Adelgrube","postalCode":"79364","locality":"Malterdingen","municipality":{"key":"08316024","name":"Malterdingen","type":"Kreisangehörige_Gemeinde"},"district":{"key":"08316","name":"Emmendingen","type":"Landkreis"},"federalState":{"key":"08","name":"Baden-Württemberg"}},{"name":"Zur Forst","postalCode":"29640","locality":"Schneverdingen","municipality":{"key":"03358019","name":"Schneverdingen, Stadt","type":"Stadt"},"district":{"key":"03358","name":"Heidekreis","type":"Landkreis"},"federalState":{"key":"03","name":"Niedersachsen"}},{"name":"Zur Kehrmühle","postalCode":"85435","locality":"Erding","municipality":{"key":"09177117","name":"Erding, GKSt","type":"Große_Kreisstadt"},"district":{"key":"09177","name":"Erding","type":"Landkreis"},"federalState":{"key":"09","name":"Bayern"}},{"name":"Zur Niedermühle","postalCode":"85435","locality":"Erding","municipality":{"key":"09177117","name":"Erding, GKSt","type":"Große_Kreisstadt"},"district":{"key":"09177","name":"Erding","type":"Landkreis"},"federalState":{"key":"09","name":"Bayern"}},{"name":"Zur Pointnermühle","postalCode":"85435","locality":"Erding","municipality":{"key":"09177117","name":"Erding, GKSt","type":"Große_Kreisstadt"},"district":{"key":"09177","name":"Erding","type":"Landkreis"},"federalState":{"key":"09","name":"Bayern"}},{"name":"Zwiebelgasse","postalCode":"79291","locality":"Merdingen","municipality":{"key":"08315072","name":"Merdingen","type":"Kreisangehörige_Gemeinde"},"district":{"key":"08315","name":"Breisgau-Hochschwarzwald","type":"Landkreis"},"federalState":{"key":"08","name":"Baden-Württemberg"}},{"name":"Zwinkenstr.","postalCode":"70771","locality":"Leinfelden-Echterdingen","municipality":{"key":"08116078","name":"Leinfelden-Echterdingen, Stadt","type":"Große_Kreisstadt"},"district":{"key":"08116","name":"Esslingen","type":"Landkreis"},"federalState":{"key":"08","name":"Baden-Württemberg"}},{"name":"Ölbergweg","postalCode":"75038","locality":"Oberderdingen","municipality":{"key":"08215059","name":"Oberderdingen","type":"Kreisangehörige_Gemeinde"},"district":{"key":"08215","name":"Karlsruhe","type":"Landkreis"},"federalState":{"key":"08","name":"Baden-Württemberg"}},{"name":"Ölmühle","postalCode":"75038","locality":"Oberderdingen","municipality":{"key":"08215059","name":"Oberderdingen","type":"Kreisangehörige_Gemeinde"},"district":{"key":"08215","name":"Karlsruhe","type":"Landkreis"},"federalState":{"key":"08","name":"Baden-Württemberg"}},{"name":"Ölmühlenkopfweg","postalCode":"75038","locality":"Oberderdingen","municipality":{"key":"08215059","name":"Oberderdingen","type":"Kreisangehörige_Gemeinde"},"district":{"key":"08215","name":"Karlsruhe","type":"Landkreis"},"federalState":{"key":"08","name":"Baden-Württemberg"}},{"name":"Örlesweg","postalCode":"70771","locality":"Leinfelden-Echterdingen","municipality":{"key":"08116078","name":"Leinfelden-Echterdingen, Stadt","type":"Große_Kreisstadt"},"district":{"key":"08116","name":"Esslingen","type":"Landkreis"},"federalState":{"key":"08","name":"Baden-Württemberg"}},{"name":"Österbergweg","postalCode":"72127","locality":"Kusterdingen","municipality":{"key":"08416023","name":"Kusterdingen","type":"Kreisangehörige_Gemeinde"},"district":{"key":"08416","name":"Tübingen","type":"Landkreis"},"federalState":{"key":"08","name":"Baden-Württemberg"}},{"name":"Östliche Bahnhofstr.","postalCode":"75038","locality":"Oberderdingen","municipality":{"key":"08215059","name":"Oberderdingen","type":"Kreisangehörige_Gemeinde"},"district":{"key":"08215","name":"Karlsruhe","type":"Landkreis"},"federalState":{"key":"08","name":"Baden-Württemberg"}},]