[{"name":"Alte Landstr.","postalCode":"02779","locality":"Großschönau","municipality":{"key":"14626140","name":"Großschönau","type":"Kreisangehörige_Gemeinde"},"district":{"key":"14626","name":"Görlitz","type":"Landkreis"},"federalState":{"key":"14","name":"Sachsen"}},{"name":"Am Aueteich","postalCode":"02779","locality":"Großschönau","municipality":{"key":"14626140","name":"Großschönau","type":"Kreisangehörige_Gemeinde"},"district":{"key":"14626","name":"Görlitz","type":"Landkreis"},"federalState":{"key":"14","name":"Sachsen"}},{"name":"Am Butterberg","postalCode":"02799","locality":"Großschönau","municipality":{"key":"14626140","name":"Großschönau","type":"Kreisangehörige_Gemeinde"},"district":{"key":"14626","name":"Görlitz","type":"Landkreis"},"federalState":{"key":"14","name":"Sachsen"}},{"name":"Am Damm","postalCode":"02779","locality":"Großschönau","municipality":{"key":"14626140","name":"Großschönau","type":"Kreisangehörige_Gemeinde"},"district":{"key":"14626","name":"Görlitz","type":"Landkreis"},"federalState":{"key":"14","name":"Sachsen"}},{"name":"Am Gänsehals","postalCode":"02779","locality":"Großschönau","municipality":{"key":"14626140","name":"Großschönau","type":"Kreisangehörige_Gemeinde"},"district":{"key":"14626","name":"Görlitz","type":"Landkreis"},"federalState":{"key":"14","name":"Sachsen"}},{"name":"Am Hauserberg","postalCode":"02799","locality":"Großschönau","municipality":{"key":"14626140","name":"Großschönau","type":"Kreisangehörige_Gemeinde"},"district":{"key":"14626","name":"Görlitz","type":"Landkreis"},"federalState":{"key":"14","name":"Sachsen"}},{"name":"Am Hofe","postalCode":"02779","locality":"Großschönau","municipality":{"key":"14626140","name":"Großschönau","type":"Kreisangehörige_Gemeinde"},"district":{"key":"14626","name":"Görlitz","type":"Landkreis"},"federalState":{"key":"14","name":"Sachsen"}},{"name":"Am Hofeberg","postalCode":"02779","locality":"Großschönau","municipality":{"key":"14626140","name":"Großschönau","type":"Kreisangehörige_Gemeinde"},"district":{"key":"14626","name":"Görlitz","type":"Landkreis"},"federalState":{"key":"14","name":"Sachsen"}},{"name":"Am Hofebusch","postalCode":"02779","locality":"Großschönau","municipality":{"key":"14626140","name":"Großschönau","type":"Kreisangehörige_Gemeinde"},"district":{"key":"14626","name":"Görlitz","type":"Landkreis"},"federalState":{"key":"14","name":"Sachsen"}},{"name":"Am Hutberg","postalCode":"02779","locality":"Großschönau","municipality":{"key":"14626140","name":"Großschönau","type":"Kreisangehörige_Gemeinde"},"district":{"key":"14626","name":"Görlitz","type":"Landkreis"},"federalState":{"key":"14","name":"Sachsen"}},{"name":"Am Kirschhübel","postalCode":"02799","locality":"Großschönau","municipality":{"key":"14626140","name":"Großschönau","type":"Kreisangehörige_Gemeinde"},"district":{"key":"14626","name":"Görlitz","type":"Landkreis"},"federalState":{"key":"14","name":"Sachsen"}},{"name":"Am Kux","postalCode":"02779","locality":"Großschönau","municipality":{"key":"14626140","name":"Großschönau","type":"Kreisangehörige_Gemeinde"},"district":{"key":"14626","name":"Görlitz","type":"Landkreis"},"federalState":{"key":"14","name":"Sachsen"}},{"name":"Am Sonneberg","postalCode":"02799","locality":"Großschönau","municipality":{"key":"14626140","name":"Großschönau","type":"Kreisangehörige_Gemeinde"},"district":{"key":"14626","name":"Görlitz","type":"Landkreis"},"federalState":{"key":"14","name":"Sachsen"}},{"name":"Am Steinberg","postalCode":"02779","locality":"Großschönau","municipality":{"key":"14626140","name":"Großschönau","type":"Kreisangehörige_Gemeinde"},"district":{"key":"14626","name":"Görlitz","type":"Landkreis"},"federalState":{"key":"14","name":"Sachsen"}},{"name":"An der Lausur","postalCode":"02779","locality":"Großschönau","municipality":{"key":"14626140","name":"Großschönau","type":"Kreisangehörige_Gemeinde"},"district":{"key":"14626","name":"Görlitz","type":"Landkreis"},"federalState":{"key":"14","name":"Sachsen"}},{"name":"An der Poche","postalCode":"02779","locality":"Großschönau","municipality":{"key":"14626140","name":"Großschönau","type":"Kreisangehörige_Gemeinde"},"district":{"key":"14626","name":"Görlitz","type":"Landkreis"},"federalState":{"key":"14","name":"Sachsen"}},{"name":"An der Sense","postalCode":"02779","locality":"Großschönau","municipality":{"key":"14626140","name":"Großschönau","type":"Kreisangehörige_Gemeinde"},"district":{"key":"14626","name":"Görlitz","type":"Landkreis"},"federalState":{"key":"14","name":"Sachsen"}},{"name":"An der Teufe","postalCode":"02779","locality":"Großschönau","municipality":{"key":"14626140","name":"Großschönau","type":"Kreisangehörige_Gemeinde"},"district":{"key":"14626","name":"Görlitz","type":"Landkreis"},"federalState":{"key":"14","name":"Sachsen"}},{"name":"Apothekenbrücke","postalCode":"02779","locality":"Großschönau","municipality":{"key":"14626140","name":"Großschönau","type":"Kreisangehörige_Gemeinde"},"district":{"key":"14626","name":"Görlitz","type":"Landkreis"},"federalState":{"key":"14","name":"Sachsen"}},{"name":"Apothekenstr.","postalCode":"02779","locality":"Großschönau","municipality":{"key":"14626140","name":"Großschönau","type":"Kreisangehörige_Gemeinde"},"district":{"key":"14626","name":"Görlitz","type":"Landkreis"},"federalState":{"key":"14","name":"Sachsen"}},{"name":"Auf dem Hofefeld","postalCode":"02779","locality":"Großschönau","municipality":{"key":"14626140","name":"Großschönau","type":"Kreisangehörige_Gemeinde"},"district":{"key":"14626","name":"Görlitz","type":"Landkreis"},"federalState":{"key":"14","name":"Sachsen"}},{"name":"Auf dem Sande","postalCode":"02779","locality":"Großschönau","municipality":{"key":"14626140","name":"Großschönau","type":"Kreisangehörige_Gemeinde"},"district":{"key":"14626","name":"Görlitz","type":"Landkreis"},"federalState":{"key":"14","name":"Sachsen"}},{"name":"August-Bebel-Str.","postalCode":"02799","locality":"Großschönau","municipality":{"key":"14626140","name":"Großschönau","type":"Kreisangehörige_Gemeinde"},"district":{"key":"14626","name":"Görlitz","type":"Landkreis"},"federalState":{"key":"14","name":"Sachsen"}},{"name":"Bahnhofstr.","postalCode":"02779","locality":"Großschönau","municipality":{"key":"14626140","name":"Großschönau","type":"Kreisangehörige_Gemeinde"},"district":{"key":"14626","name":"Görlitz","type":"Landkreis"},"federalState":{"key":"14","name":"Sachsen"}},{"name":"Bergstr.","postalCode":"02779","locality":"Großschönau","municipality":{"key":"14626140","name":"Großschönau","type":"Kreisangehörige_Gemeinde"},"district":{"key":"14626","name":"Görlitz","type":"Landkreis"},"federalState":{"key":"14","name":"Sachsen"}},{"name":"Birkenweg","postalCode":"02779","locality":"Großschönau","municipality":{"key":"14626140","name":"Großschönau","type":"Kreisangehörige_Gemeinde"},"district":{"key":"14626","name":"Görlitz","type":"Landkreis"},"federalState":{"key":"14","name":"Sachsen"}},{"name":"Breite Aue","postalCode":"02779","locality":"Großschönau","municipality":{"key":"14626140","name":"Großschönau","type":"Kreisangehörige_Gemeinde"},"district":{"key":"14626","name":"Görlitz","type":"Landkreis"},"federalState":{"key":"14","name":"Sachsen"}},{"name":"Buchbergstr.","postalCode":"02779","locality":"Großschönau","municipality":{"key":"14626140","name":"Großschönau","type":"Kreisangehörige_Gemeinde"},"district":{"key":"14626","name":"Görlitz","type":"Landkreis"},"federalState":{"key":"14","name":"Sachsen"}},{"name":"Buschstr.","postalCode":"02779","locality":"Großschönau","municipality":{"key":"14626140","name":"Großschönau","type":"Kreisangehörige_Gemeinde"},"district":{"key":"14626","name":"Görlitz","type":"Landkreis"},"federalState":{"key":"14","name":"Sachsen"}},{"name":"Carl-Friedrich-Gauß-Str.","postalCode":"02826","locality":"Görlitz","municipality":{"key":"14626110","name":"Görlitz, Stadt","type":"Stadt"},"district":{"key":"14626","name":"Görlitz","type":"Landkreis"},"federalState":{"key":"14","name":"Sachsen"}},{"name":"Carl-von-Ossietzky-Str.","postalCode":"02826","locality":"Görlitz","municipality":{"key":"14626110","name":"Görlitz, Stadt","type":"Stadt"},"district":{"key":"14626","name":"Görlitz","type":"Landkreis"},"federalState":{"key":"14","name":"Sachsen"}},{"name":"Carolusstr.","postalCode":"02827","locality":"Görlitz","municipality":{"key":"14626110","name":"Görlitz, Stadt","type":"Stadt"},"district":{"key":"14626","name":"Görlitz","type":"Landkreis"},"federalState":{"key":"14","name":"Sachsen"}},{"name":"Christian-Heuck-Str.","postalCode":"02827","locality":"Görlitz","municipality":{"key":"14626110","name":"Görlitz, Stadt","type":"Stadt"},"district":{"key":"14626","name":"Görlitz","type":"Landkreis"},"federalState":{"key":"14","name":"Sachsen"}},{"name":"Christoph-Lüders-Str.","postalCode":"02826","locality":"Görlitz","municipality":{"key":"14626110","name":"Görlitz, Stadt","type":"Stadt"},"district":{"key":"14626","name":"Görlitz","type":"Landkreis"},"federalState":{"key":"14","name":"Sachsen"}},{"name":"Chrysanthemenweg","postalCode":"02827","locality":"Görlitz","municipality":{"key":"14626110","name":"Görlitz, Stadt","type":"Stadt"},"district":{"key":"14626","name":"Görlitz","type":"Landkreis"},"federalState":{"key":"14","name":"Sachsen"}},{"name":"Clara-Zetkin-Str.","postalCode":"02827","locality":"Görlitz","municipality":{"key":"14626110","name":"Görlitz, Stadt","type":"Stadt"},"district":{"key":"14626","name":"Görlitz","type":"Landkreis"},"federalState":{"key":"14","name":"Sachsen"}},{"name":"Conrad-Schiedt-Str.","postalCode":"02826","locality":"Görlitz","municipality":{"key":"14626110","name":"Görlitz, Stadt","type":"Stadt"},"district":{"key":"14626","name":"Görlitz","type":"Landkreis"},"federalState":{"key":"14","name":"Sachsen"}},{"name":"Cottbuser Str.","postalCode":"02826","locality":"Görlitz","municipality":{"key":"14626110","name":"Görlitz, Stadt","type":"Stadt"},"district":{"key":"14626","name":"Görlitz","type":"Landkreis"},"federalState":{"key":"14","name":"Sachsen"}},{"name":"David-Goldberg-Str.","postalCode":"02779","locality":"Großschönau","municipality":{"key":"14626140","name":"Großschönau","type":"Kreisangehörige_Gemeinde"},"district":{"key":"14626","name":"Görlitz","type":"Landkreis"},"federalState":{"key":"14","name":"Sachsen"}},{"name":"Dorfstr.","postalCode":"02799","locality":"Großschönau","municipality":{"key":"14626140","name":"Großschönau","type":"Kreisangehörige_Gemeinde"},"district":{"key":"14626","name":"Görlitz","type":"Landkreis"},"federalState":{"key":"14","name":"Sachsen"}},{"name":"Dr.-Külz-Str.","postalCode":"02779","locality":"Großschönau","municipality":{"key":"14626140","name":"Großschönau","type":"Kreisangehörige_Gemeinde"},"district":{"key":"14626","name":"Görlitz","type":"Landkreis"},"federalState":{"key":"14","name":"Sachsen"}},{"name":"Eisgasse","postalCode":"02799","locality":"Großschönau","municipality":{"key":"14626140","name":"Großschönau","type":"Kreisangehörige_Gemeinde"},"district":{"key":"14626","name":"Görlitz","type":"Landkreis"},"federalState":{"key":"14","name":"Sachsen"}},{"name":"Emil-Schiffner-Str.","postalCode":"02779","locality":"Großschönau","municipality":{"key":"14626140","name":"Großschönau","type":"Kreisangehörige_Gemeinde"},"district":{"key":"14626","name":"Görlitz","type":"Landkreis"},"federalState":{"key":"14","name":"Sachsen"}},{"name":"Erich Weber Brücke","postalCode":"02799","locality":"Großschönau","municipality":{"key":"14626140","name":"Großschönau","type":"Kreisangehörige_Gemeinde"},"district":{"key":"14626","name":"Görlitz","type":"Landkreis"},"federalState":{"key":"14","name":"Sachsen"}},{"name":"Feldstr.","postalCode":"02779","locality":"Großschönau","municipality":{"key":"14626140","name":"Großschönau","type":"Kreisangehörige_Gemeinde"},"district":{"key":"14626","name":"Görlitz","type":"Landkreis"},"federalState":{"key":"14","name":"Sachsen"}},{"name":"Finkenhübelstr.","postalCode":"02779","locality":"Großschönau","municipality":{"key":"14626140","name":"Großschönau","type":"Kreisangehörige_Gemeinde"},"district":{"key":"14626","name":"Görlitz","type":"Landkreis"},"federalState":{"key":"14","name":"Sachsen"}},{"name":"Flügelweg","postalCode":"02779","locality":"Großschönau","municipality":{"key":"14626140","name":"Großschönau","type":"Kreisangehörige_Gemeinde"},"district":{"key":"14626","name":"Görlitz","type":"Landkreis"},"federalState":{"key":"14","name":"Sachsen"}},{"name":"Forstweg","postalCode":"02779","locality":"Großschönau","municipality":{"key":"14626140","name":"Großschönau","type":"Kreisangehörige_Gemeinde"},"district":{"key":"14626","name":"Görlitz","type":"Landkreis"},"federalState":{"key":"14","name":"Sachsen"}},{"name":"Friedrich-Schneider-Weg","postalCode":"02799","locality":"Großschönau","municipality":{"key":"14626140","name":"Großschönau","type":"Kreisangehörige_Gemeinde"},"district":{"key":"14626","name":"Görlitz","type":"Landkreis"},"federalState":{"key":"14","name":"Sachsen"}},{"name":"Gabelsbergerstr.","postalCode":"02779","locality":"Großschönau","municipality":{"key":"14626140","name":"Großschönau","type":"Kreisangehörige_Gemeinde"},"district":{"key":"14626","name":"Görlitz","type":"Landkreis"},"federalState":{"key":"14","name":"Sachsen"}},{"name":"Gartenstr.","postalCode":"02779","locality":"Großschönau","municipality":{"key":"14626140","name":"Großschönau","type":"Kreisangehörige_Gemeinde"},"district":{"key":"14626","name":"Görlitz","type":"Landkreis"},"federalState":{"key":"14","name":"Sachsen"}},{"name":"Gemeindepark","postalCode":"02779","locality":"Großschönau","municipality":{"key":"14626140","name":"Großschönau","type":"Kreisangehörige_Gemeinde"},"district":{"key":"14626","name":"Görlitz","type":"Landkreis"},"federalState":{"key":"14","name":"Sachsen"}},{"name":"Gerichtsstr.","postalCode":"02779","locality":"Großschönau","municipality":{"key":"14626140","name":"Großschönau","type":"Kreisangehörige_Gemeinde"},"district":{"key":"14626","name":"Görlitz","type":"Landkreis"},"federalState":{"key":"14","name":"Sachsen"}},{"name":"Goethestr.","postalCode":"02779","locality":"Großschönau","municipality":{"key":"14626140","name":"Großschönau","type":"Kreisangehörige_Gemeinde"},"district":{"key":"14626","name":"Görlitz","type":"Landkreis"},"federalState":{"key":"14","name":"Sachsen"}},{"name":"Goethestr.","postalCode":"02799","locality":"Großschönau","municipality":{"key":"14626140","name":"Großschönau","type":"Kreisangehörige_Gemeinde"},"district":{"key":"14626","name":"Görlitz","type":"Landkreis"},"federalState":{"key":"14","name":"Sachsen"}},{"name":"Gründischer Weg","postalCode":"02779","locality":"Großschönau","municipality":{"key":"14626140","name":"Großschönau","type":"Kreisangehörige_Gemeinde"},"district":{"key":"14626","name":"Görlitz","type":"Landkreis"},"federalState":{"key":"14","name":"Sachsen"}},{"name":"Güterbodenstr.","postalCode":"02779","locality":"Großschönau","municipality":{"key":"14626140","name":"Großschönau","type":"Kreisangehörige_Gemeinde"},"district":{"key":"14626","name":"Görlitz","type":"Landkreis"},"federalState":{"key":"14","name":"Sachsen"}},{"name":"Hainewalder Str.","postalCode":"02779","locality":"Großschönau","municipality":{"key":"14626140","name":"Großschönau","type":"Kreisangehörige_Gemeinde"},"district":{"key":"14626","name":"Görlitz","type":"Landkreis"},"federalState":{"key":"14","name":"Sachsen"}},{"name":"Hänschgässel","postalCode":"02779","locality":"Großschönau","municipality":{"key":"14626140","name":"Großschönau","type":"Kreisangehörige_Gemeinde"},"district":{"key":"14626","name":"Görlitz","type":"Landkreis"},"federalState":{"key":"14","name":"Sachsen"}},{"name":"Hauptstr.","postalCode":"02779","locality":"Großschönau","municipality":{"key":"14626140","name":"Großschönau","type":"Kreisangehörige_Gemeinde"},"district":{"key":"14626","name":"Görlitz","type":"Landkreis"},"federalState":{"key":"14","name":"Sachsen"}},{"name":"Hauptstr.","postalCode":"02799","locality":"Großschönau","municipality":{"key":"14626140","name":"Großschönau","type":"Kreisangehörige_Gemeinde"},"district":{"key":"14626","name":"Görlitz","type":"Landkreis"},"federalState":{"key":"14","name":"Sachsen"}},{"name":"Heideweg","postalCode":"02799","locality":"Großschönau","municipality":{"key":"14626140","name":"Großschönau","type":"Kreisangehörige_Gemeinde"},"district":{"key":"14626","name":"Görlitz","type":"Landkreis"},"federalState":{"key":"14","name":"Sachsen"}},{"name":"Herrenwalde","postalCode":"02799","locality":"Großschönau","municipality":{"key":"14626140","name":"Großschönau","type":"Kreisangehörige_Gemeinde"},"district":{"key":"14626","name":"Görlitz","type":"Landkreis"},"federalState":{"key":"14","name":"Sachsen"}},{"name":"Herrenwalde-Oberdörfel","postalCode":"02799","locality":"Großschönau","municipality":{"key":"14626140","name":"Großschönau","type":"Kreisangehörige_Gemeinde"},"district":{"key":"14626","name":"Görlitz","type":"Landkreis"},"federalState":{"key":"14","name":"Sachsen"}},{"name":"Herrenwalder Str.","postalCode":"02799","locality":"Großschönau","municipality":{"key":"14626140","name":"Großschönau","type":"Kreisangehörige_Gemeinde"},"district":{"key":"14626","name":"Görlitz","type":"Landkreis"},"federalState":{"key":"14","name":"Sachsen"}},{"name":"Hirschweg","postalCode":"02799","locality":"Großschönau","municipality":{"key":"14626140","name":"Großschönau","type":"Kreisangehörige_Gemeinde"},"district":{"key":"14626","name":"Görlitz","type":"Landkreis"},"federalState":{"key":"14","name":"Sachsen"}},{"name":"Hofeweg","postalCode":"02779","locality":"Großschönau","municipality":{"key":"14626140","name":"Großschönau","type":"Kreisangehörige_Gemeinde"},"district":{"key":"14626","name":"Görlitz","type":"Landkreis"},"federalState":{"key":"14","name":"Sachsen"}},{"name":"Hohlweg","postalCode":"02799","locality":"Großschönau","municipality":{"key":"14626140","name":"Großschönau","type":"Kreisangehörige_Gemeinde"},"district":{"key":"14626","name":"Görlitz","type":"Landkreis"},"federalState":{"key":"14","name":"Sachsen"}},{"name":"Hückelweg","postalCode":"02799","locality":"Großschönau","municipality":{"key":"14626140","name":"Großschönau","type":"Kreisangehörige_Gemeinde"},"district":{"key":"14626","name":"Görlitz","type":"Landkreis"},"federalState":{"key":"14","name":"Sachsen"}},{"name":"Hutbergstr.","postalCode":"02779","locality":"Großschönau","municipality":{"key":"14626140","name":"Großschönau","type":"Kreisangehörige_Gemeinde"},"district":{"key":"14626","name":"Görlitz","type":"Landkreis"},"federalState":{"key":"14","name":"Sachsen"}},{"name":"Im Angstkorb","postalCode":"02799","locality":"Großschönau","municipality":{"key":"14626140","name":"Großschönau","type":"Kreisangehörige_Gemeinde"},"district":{"key":"14626","name":"Görlitz","type":"Landkreis"},"federalState":{"key":"14","name":"Sachsen"}},{"name":"Jonsdorfer Str.","postalCode":"02779","locality":"Großschönau","municipality":{"key":"14626140","name":"Großschönau","type":"Kreisangehörige_Gemeinde"},"district":{"key":"14626","name":"Görlitz","type":"Landkreis"},"federalState":{"key":"14","name":"Sachsen"}},{"name":"Jonsdorfer Str.","postalCode":"02799","locality":"Großschönau","municipality":{"key":"14626140","name":"Großschönau","type":"Kreisangehörige_Gemeinde"},"district":{"key":"14626","name":"Görlitz","type":"Landkreis"},"federalState":{"key":"14","name":"Sachsen"}},{"name":"Kachelsteinweg","postalCode":"02799","locality":"Großschönau","municipality":{"key":"14626140","name":"Großschönau","type":"Kreisangehörige_Gemeinde"},"district":{"key":"14626","name":"Görlitz","type":"Landkreis"},"federalState":{"key":"14","name":"Sachsen"}},{"name":"Kammweg","postalCode":"02799","locality":"Großschönau","municipality":{"key":"14626140","name":"Großschönau","type":"Kreisangehörige_Gemeinde"},"district":{"key":"14626","name":"Görlitz","type":"Landkreis"},"federalState":{"key":"14","name":"Sachsen"}},{"name":"Karl-Kahlert-Weg","postalCode":"02779","locality":"Großschönau","municipality":{"key":"14626140","name":"Großschönau","type":"Kreisangehörige_Gemeinde"},"district":{"key":"14626","name":"Görlitz","type":"Landkreis"},"federalState":{"key":"14","name":"Sachsen"}},{"name":"Kirchstr.","postalCode":"02779","locality":"Großschönau","municipality":{"key":"14626140","name":"Großschönau","type":"Kreisangehörige_Gemeinde"},"district":{"key":"14626","name":"Görlitz","type":"Landkreis"},"federalState":{"key":"14","name":"Sachsen"}},{"name":"Kronsteg","postalCode":"02779","locality":"Großschönau","municipality":{"key":"14626140","name":"Großschönau","type":"Kreisangehörige_Gemeinde"},"district":{"key":"14626","name":"Görlitz","type":"Landkreis"},"federalState":{"key":"14","name":"Sachsen"}},{"name":"Kupferhausbrücke","postalCode":"02779","locality":"Großschönau","municipality":{"key":"14626140","name":"Großschönau","type":"Kreisangehörige_Gemeinde"},"district":{"key":"14626","name":"Görlitz","type":"Landkreis"},"federalState":{"key":"14","name":"Sachsen"}},{"name":"Landbrücke","postalCode":"02779","locality":"Großschönau","municipality":{"key":"14626140","name":"Großschönau","type":"Kreisangehörige_Gemeinde"},"district":{"key":"14626","name":"Görlitz","type":"Landkreis"},"federalState":{"key":"14","name":"Sachsen"}},{"name":"Lauscheweg","postalCode":"02799","locality":"Großschönau","municipality":{"key":"14626140","name":"Großschönau","type":"Kreisangehörige_Gemeinde"},"district":{"key":"14626","name":"Görlitz","type":"Landkreis"},"federalState":{"key":"14","name":"Sachsen"}},{"name":"Lindenweg","postalCode":"02779","locality":"Großschönau","municipality":{"key":"14626140","name":"Großschönau","type":"Kreisangehörige_Gemeinde"},"district":{"key":"14626","name":"Görlitz","type":"Landkreis"},"federalState":{"key":"14","name":"Sachsen"}},{"name":"Ludwig-Jahn-Str.","postalCode":"02779","locality":"Großschönau","municipality":{"key":"14626140","name":"Großschönau","type":"Kreisangehörige_Gemeinde"},"district":{"key":"14626","name":"Görlitz","type":"Landkreis"},"federalState":{"key":"14","name":"Sachsen"}},{"name":"Mauerweg","postalCode":"02779","locality":"Großschönau","municipality":{"key":"14626140","name":"Großschönau","type":"Kreisangehörige_Gemeinde"},"district":{"key":"14626","name":"Görlitz","type":"Landkreis"},"federalState":{"key":"14","name":"Sachsen"}},{"name":"Mühlgässel","postalCode":"02799","locality":"Großschönau","municipality":{"key":"14626140","name":"Großschönau","type":"Kreisangehörige_Gemeinde"},"district":{"key":"14626","name":"Görlitz","type":"Landkreis"},"federalState":{"key":"14","name":"Sachsen"}},{"name":"Mühlsteinsteg","postalCode":"02779","locality":"Großschönau","municipality":{"key":"14626140","name":"Großschönau","type":"Kreisangehörige_Gemeinde"},"district":{"key":"14626","name":"Görlitz","type":"Landkreis"},"federalState":{"key":"14","name":"Sachsen"}},{"name":"Mühlstr.","postalCode":"02779","locality":"Großschönau","municipality":{"key":"14626140","name":"Großschönau","type":"Kreisangehörige_Gemeinde"},"district":{"key":"14626","name":"Görlitz","type":"Landkreis"},"federalState":{"key":"14","name":"Sachsen"}},{"name":"Neuschönauer Str.","postalCode":"02779","locality":"Großschönau","municipality":{"key":"14626140","name":"Großschönau","type":"Kreisangehörige_Gemeinde"},"district":{"key":"14626","name":"Görlitz","type":"Landkreis"},"federalState":{"key":"14","name":"Sachsen"}},{"name":"Neu Sorge","postalCode":"02799","locality":"Großschönau","municipality":{"key":"14626140","name":"Großschönau","type":"Kreisangehörige_Gemeinde"},"district":{"key":"14626","name":"Görlitz","type":"Landkreis"},"federalState":{"key":"14","name":"Sachsen"}},{"name":"Niedere Mühlwiese","postalCode":"02779","locality":"Großschönau","municipality":{"key":"14626140","name":"Großschönau","type":"Kreisangehörige_Gemeinde"},"district":{"key":"14626","name":"Görlitz","type":"Landkreis"},"federalState":{"key":"14","name":"Sachsen"}},{"name":"Niederer Mandauweg","postalCode":"02779","locality":"Großschönau","municipality":{"key":"14626140","name":"Großschönau","type":"Kreisangehörige_Gemeinde"},"district":{"key":"14626","name":"Görlitz","type":"Landkreis"},"federalState":{"key":"14","name":"Sachsen"}},{"name":"Obere Mandaustr.","postalCode":"02779","locality":"Großschönau","municipality":{"key":"14626140","name":"Großschönau","type":"Kreisangehörige_Gemeinde"},"district":{"key":"14626","name":"Görlitz","type":"Landkreis"},"federalState":{"key":"14","name":"Sachsen"}},{"name":"Obere Mühlwiese","postalCode":"02779","locality":"Großschönau","municipality":{"key":"14626140","name":"Großschönau","type":"Kreisangehörige_Gemeinde"},"district":{"key":"14626","name":"Görlitz","type":"Landkreis"},"federalState":{"key":"14","name":"Sachsen"}},{"name":"Oberer Bornweg","postalCode":"02799","locality":"Großschönau","municipality":{"key":"14626140","name":"Großschönau","type":"Kreisangehörige_Gemeinde"},"district":{"key":"14626","name":"Görlitz","type":"Landkreis"},"federalState":{"key":"14","name":"Sachsen"}},{"name":"Obere Str.","postalCode":"02779","locality":"Großschönau","municipality":{"key":"14626140","name":"Großschönau","type":"Kreisangehörige_Gemeinde"},"district":{"key":"14626","name":"Görlitz","type":"Landkreis"},"federalState":{"key":"14","name":"Sachsen"}},{"name":"Peukers Sackgasse","postalCode":"02779","locality":"Großschönau","municipality":{"key":"14626140","name":"Großschönau","type":"Kreisangehörige_Gemeinde"},"district":{"key":"14626","name":"Görlitz","type":"Landkreis"},"federalState":{"key":"14","name":"Sachsen"}},{"name":"Prof.-Krumbholz-Str.","postalCode":"02779","locality":"Großschönau","municipality":{"key":"14626140","name":"Großschönau","type":"Kreisangehörige_Gemeinde"},"district":{"key":"14626","name":"Görlitz","type":"Landkreis"},"federalState":{"key":"14","name":"Sachsen"}},{"name":"Quellweg","postalCode":"02827","locality":"Görlitz","municipality":{"key":"14626110","name":"Görlitz, Stadt","type":"Stadt"},"district":{"key":"14626","name":"Görlitz","type":"Landkreis"},"federalState":{"key":"14","name":"Sachsen"}},{"name":"Querstr.","postalCode":"02826","locality":"Görlitz","municipality":{"key":"14626110","name":"Görlitz, Stadt","type":"Stadt"},"district":{"key":"14626","name":"Görlitz","type":"Landkreis"},"federalState":{"key":"14","name":"Sachsen"}},{"name":"Renners Feldweg","postalCode":"02779","locality":"Großschönau","municipality":{"key":"14626140","name":"Großschönau","type":"Kreisangehörige_Gemeinde"},"district":{"key":"14626","name":"Görlitz","type":"Landkreis"},"federalState":{"key":"14","name":"Sachsen"}},{"name":"Richard-Goldberg-Str.","postalCode":"02779","locality":"Großschönau","municipality":{"key":"14626140","name":"Großschönau","type":"Kreisangehörige_Gemeinde"},"district":{"key":"14626","name":"Görlitz","type":"Landkreis"},"federalState":{"key":"14","name":"Sachsen"}},{"name":"Sandschänkenbrücke","postalCode":"02779","locality":"Großschönau","municipality":{"key":"14626140","name":"Großschönau","type":"Kreisangehörige_Gemeinde"},"district":{"key":"14626","name":"Görlitz","type":"Landkreis"},"federalState":{"key":"14","name":"Sachsen"}},{"name":"Schafgasse","postalCode":"02779","locality":"Großschönau","municipality":{"key":"14626140","name":"Großschönau","type":"Kreisangehörige_Gemeinde"},"district":{"key":"14626","name":"Görlitz","type":"Landkreis"},"federalState":{"key":"14","name":"Sachsen"}},{"name":"Schenaustr.","postalCode":"02779","locality":"Großschönau","municipality":{"key":"14626140","name":"Großschönau","type":"Kreisangehörige_Gemeinde"},"district":{"key":"14626","name":"Görlitz","type":"Landkreis"},"federalState":{"key":"14","name":"Sachsen"}},{"name":"Schiffnerweg","postalCode":"02799","locality":"Großschönau","municipality":{"key":"14626140","name":"Großschönau","type":"Kreisangehörige_Gemeinde"},"district":{"key":"14626","name":"Görlitz","type":"Landkreis"},"federalState":{"key":"14","name":"Sachsen"}},{"name":"Schmiedebrücke","postalCode":"02779","locality":"Großschönau","municipality":{"key":"14626140","name":"Großschönau","type":"Kreisangehörige_Gemeinde"},"district":{"key":"14626","name":"Görlitz","type":"Landkreis"},"federalState":{"key":"14","name":"Sachsen"}},{"name":"Schmiedestr.","postalCode":"02779","locality":"Großschönau","municipality":{"key":"14626140","name":"Großschönau","type":"Kreisangehörige_Gemeinde"},"district":{"key":"14626","name":"Görlitz","type":"Landkreis"},"federalState":{"key":"14","name":"Sachsen"}},{"name":"Schreberstr.","postalCode":"02779","locality":"Großschönau","municipality":{"key":"14626140","name":"Großschönau","type":"Kreisangehörige_Gemeinde"},"district":{"key":"14626","name":"Görlitz","type":"Landkreis"},"federalState":{"key":"14","name":"Sachsen"}},{"name":"Schulgasse","postalCode":"02799","locality":"Großschönau","municipality":{"key":"14626140","name":"Großschönau","type":"Kreisangehörige_Gemeinde"},"district":{"key":"14626","name":"Görlitz","type":"Landkreis"},"federalState":{"key":"14","name":"Sachsen"}},{"name":"Sonnebergstr.","postalCode":"02779","locality":"Großschönau","municipality":{"key":"14626140","name":"Großschönau","type":"Kreisangehörige_Gemeinde"},"district":{"key":"14626","name":"Görlitz","type":"Landkreis"},"federalState":{"key":"14","name":"Sachsen"}},{"name":"Spitzkunnersdorfer Str.","postalCode":"02779","locality":"Großschönau","municipality":{"key":"14626140","name":"Großschönau","type":"Kreisangehörige_Gemeinde"},"district":{"key":"14626","name":"Görlitz","type":"Landkreis"},"federalState":{"key":"14","name":"Sachsen"}},{"name":"Stätlerweg","postalCode":"02799","locality":"Großschönau","municipality":{"key":"14626140","name":"Großschönau","type":"Kreisangehörige_Gemeinde"},"district":{"key":"14626","name":"Görlitz","type":"Landkreis"},"federalState":{"key":"14","name":"Sachsen"}},{"name":"Str. der Jugend","postalCode":"02779","locality":"Großschönau","municipality":{"key":"14626140","name":"Großschönau","type":"Kreisangehörige_Gemeinde"},"district":{"key":"14626","name":"Görlitz","type":"Landkreis"},"federalState":{"key":"14","name":"Sachsen"}},{"name":"Südstr.","postalCode":"02779","locality":"Großschönau","municipality":{"key":"14626140","name":"Großschönau","type":"Kreisangehörige_Gemeinde"},"district":{"key":"14626","name":"Görlitz","type":"Landkreis"},"federalState":{"key":"14","name":"Sachsen"}},{"name":"Talweg","postalCode":"02799","locality":"Großschönau","municipality":{"key":"14626140","name":"Großschönau","type":"Kreisangehörige_Gemeinde"},"district":{"key":"14626","name":"Görlitz","type":"Landkreis"},"federalState":{"key":"14","name":"Sachsen"}},{"name":"Teichstr.","postalCode":"02779","locality":"Großschönau","municipality":{"key":"14626140","name":"Großschönau","type":"Kreisangehörige_Gemeinde"},"district":{"key":"14626","name":"Görlitz","type":"Landkreis"},"federalState":{"key":"14","name":"Sachsen"}},{"name":"Theodor-Haebler-Str.","postalCode":"02779","locality":"Großschönau","municipality":{"key":"14626140","name":"Großschönau","type":"Kreisangehörige_Gemeinde"},"district":{"key":"14626","name":"Görlitz","type":"Landkreis"},"federalState":{"key":"14","name":"Sachsen"}},{"name":"Uferweg","postalCode":"02779","locality":"Großschönau","municipality":{"key":"14626140","name":"Großschönau","type":"Kreisangehörige_Gemeinde"},"district":{"key":"14626","name":"Görlitz","type":"Landkreis"},"federalState":{"key":"14","name":"Sachsen"}},{"name":"Unterer Bornweg","postalCode":"02799","locality":"Großschönau","municipality":{"key":"14626140","name":"Großschönau","type":"Kreisangehörige_Gemeinde"},"district":{"key":"14626","name":"Görlitz","type":"Landkreis"},"federalState":{"key":"14","name":"Sachsen"}},{"name":"Veilchenweg","postalCode":"02827","locality":"Görlitz","municipality":{"key":"14626110","name":"Görlitz, Stadt","type":"Stadt"},"district":{"key":"14626","name":"Görlitz","type":"Landkreis"},"federalState":{"key":"14","name":"Sachsen"}},{"name":"Verrätergasse","postalCode":"02826","locality":"Görlitz","municipality":{"key":"14626110","name":"Görlitz, Stadt","type":"Stadt"},"district":{"key":"14626","name":"Görlitz","type":"Landkreis"},"federalState":{"key":"14","name":"Sachsen"}},{"name":"Viehweg","postalCode":"02827","locality":"Görlitz","municipality":{"key":"14626110","name":"Görlitz, Stadt","type":"Stadt"},"district":{"key":"14626","name":"Görlitz","type":"Landkreis"},"federalState":{"key":"14","name":"Sachsen"}},{"name":"Virchowstr.","postalCode":"02828","locality":"Görlitz","municipality":{"key":"14626110","name":"Görlitz, Stadt","type":"Stadt"},"district":{"key":"14626","name":"Görlitz","type":"Landkreis"},"federalState":{"key":"14","name":"Sachsen"}},{"name":"Von-Rodewitz-Weg","postalCode":"02828","locality":"Görlitz","municipality":{"key":"14626110","name":"Görlitz, Stadt","type":"Stadt"},"district":{"key":"14626","name":"Görlitz","type":"Landkreis"},"federalState":{"key":"14","name":"Sachsen"}},{"name":"Waltersdorfer Str.","postalCode":"02779","locality":"Großschönau","municipality":{"key":"14626140","name":"Großschönau","type":"Kreisangehörige_Gemeinde"},"district":{"key":"14626","name":"Görlitz","type":"Landkreis"},"federalState":{"key":"14","name":"Sachsen"}},{"name":"Wiesenweg","postalCode":"02779","locality":"Großschönau","municipality":{"key":"14626140","name":"Großschönau","type":"Kreisangehörige_Gemeinde"},"district":{"key":"14626","name":"Görlitz","type":"Landkreis"},"federalState":{"key":"14","name":"Sachsen"}},{"name":"Windgasse","postalCode":"02799","locality":"Großschönau","municipality":{"key":"14626140","name":"Großschönau","type":"Kreisangehörige_Gemeinde"},"district":{"key":"14626","name":"Görlitz","type":"Landkreis"},"federalState":{"key":"14","name":"Sachsen"}},{"name":"Ziegelstr.","postalCode":"02779","locality":"Großschönau","municipality":{"key":"14626140","name":"Großschönau","type":"Kreisangehörige_Gemeinde"},"district":{"key":"14626","name":"Görlitz","type":"Landkreis"},"federalState":{"key":"14","name":"Sachsen"}},{"name":"Zollgasse","postalCode":"02779","locality":"Großschönau","municipality":{"key":"14626140","name":"Großschönau","type":"Kreisangehörige_Gemeinde"},"district":{"key":"14626","name":"Görlitz","type":"Landkreis"},"federalState":{"key":"14","name":"Sachsen"}},]