[{"key":"10207521","name":"Aeberliswaldstrasse","postalCode":"8499","locality":"Sternenberg","commune":{"key":"4726","name":"Fischingen","shortName":"Fischingen"},"district":{"key":"2014","name":"Bezirk Münchwilen"},"canton":{"key":"20","code":"TG","name":"Thurgau"},"status":"Real"},{"key":"10123320","name":"Aefligenstrasse","postalCode":"3309","locality":"Kernenried","commune":{"key":"411","name":"Kernenried","shortName":"Kernenried"},"district":{"key":"245","name":"Verwaltungskreis Emmental"},"canton":{"key":"2","code":"BE","name":"Bern / Berne"},"status":"Real"},{"key":"10246812","name":"Aegerta","postalCode":"3995","locality":"Ernen","commune":{"key":"6056","name":"Ernen","shortName":"Ernen"},"district":{"key":"2304","name":"Bezirk Goms"},"canton":{"key":"23","code":"VS","name":"Valais / Wallis"},"status":"Real"},{"key":"10088948","name":"Aegerten","postalCode":"3309","locality":"Kernenried","commune":{"key":"411","name":"Kernenried","shortName":"Kernenried"},"district":{"key":"245","name":"Verwaltungskreis Emmental"},"canton":{"key":"2","code":"BE","name":"Bern / Berne"},"status":"Real"},{"key":"10123321","name":"Amselweg","postalCode":"3309","locality":"Kernenried","commune":{"key":"411","name":"Kernenried","shortName":"Kernenried"},"district":{"key":"245","name":"Verwaltungskreis Emmental"},"canton":{"key":"2","code":"BE","name":"Bern / Berne"},"status":"Real"},{"key":"10174231","name":"Aragon","postalCode":"3995","locality":"Ernen","commune":{"key":"6056","name":"Ernen","shortName":"Ernen"},"district":{"key":"2304","name":"Bezirk Goms"},"canton":{"key":"23","code":"VS","name":"Valais / Wallis"},"status":"Real"},{"key":"10217891","name":"Bern-Zürich-Strasse","postalCode":"3309","locality":"Kernenried","commune":{"key":"411","name":"Kernenried","shortName":"Kernenried"},"district":{"key":"245","name":"Verwaltungskreis Emmental"},"canton":{"key":"2","code":"BE","name":"Bern / Berne"},"status":"Real"},{"key":"10246802","name":"Bienenfeldweg","postalCode":"3995","locality":"Ernen","commune":{"key":"6056","name":"Ernen","shortName":"Ernen"},"district":{"key":"2304","name":"Bezirk Goms"},"canton":{"key":"23","code":"VS","name":"Valais / Wallis"},"status":"Real"},{"key":"10246806","name":"Bienengasse","postalCode":"3995","locality":"Ernen","commune":{"key":"6056","name":"Ernen","shortName":"Ernen"},"district":{"key":"2304","name":"Bezirk Goms"},"canton":{"key":"23","code":"VS","name":"Valais / Wallis"},"status":"Real"},{"key":"10160832","name":"Bieu","postalCode":"3995","locality":"Ernen","commune":{"key":"6056","name":"Ernen","shortName":"Ernen"},"district":{"key":"2304","name":"Bezirk Goms"},"canton":{"key":"23","code":"VS","name":"Valais / Wallis"},"status":"Real"},{"key":"10126970","name":"Bieutistrasse","postalCode":"3995","locality":"Ernen","commune":{"key":"6056","name":"Ernen","shortName":"Ernen"},"district":{"key":"2304","name":"Bezirk Goms"},"canton":{"key":"23","code":"VS","name":"Valais / Wallis"},"status":"Real"},{"key":"10246842","name":"Binnachraweg","postalCode":"3995","locality":"Ernen","commune":{"key":"6056","name":"Ernen","shortName":"Ernen"},"district":{"key":"2304","name":"Bezirk Goms"},"canton":{"key":"23","code":"VS","name":"Valais / Wallis"},"status":"Real"},{"key":"10246839","name":"Binneggaweg","postalCode":"3995","locality":"Ernen","commune":{"key":"6056","name":"Ernen","shortName":"Ernen"},"district":{"key":"2304","name":"Bezirk Goms"},"canton":{"key":"23","code":"VS","name":"Valais / Wallis"},"status":"Real"},{"key":"10185780","name":"Binntalstrasse","postalCode":"3995","locality":"Ernen","commune":{"key":"6056","name":"Ernen","shortName":"Ernen"},"district":{"key":"2304","name":"Bezirk Goms"},"canton":{"key":"23","code":"VS","name":"Valais / Wallis"},"status":"Real"},{"key":"10189793","name":"Bleumatt","postalCode":"3309","locality":"Kernenried","commune":{"key":"411","name":"Kernenried","shortName":"Kernenried"},"district":{"key":"245","name":"Verwaltungskreis Emmental"},"canton":{"key":"2","code":"BE","name":"Bern / Berne"},"status":"Real"},{"key":"10076102","name":"Blitterswilerstrasse","postalCode":"8499","locality":"Sternenberg","commune":{"key":"4726","name":"Fischingen","shortName":"Fischingen"},"district":{"key":"2014","name":"Bezirk Münchwilen"},"canton":{"key":"20","code":"TG","name":"Thurgau"},"status":"Real"},{"key":"10110675","name":"Boden","postalCode":"3309","locality":"Kernenried","commune":{"key":"411","name":"Kernenried","shortName":"Kernenried"},"district":{"key":"245","name":"Verwaltungskreis Emmental"},"canton":{"key":"2","code":"BE","name":"Bern / Berne"},"status":"Real"},{"key":"10207551","name":"Bogenstrasse","postalCode":"8499","locality":"Sternenberg","commune":{"key":"4726","name":"Fischingen","shortName":"Fischingen"},"district":{"key":"2014","name":"Bezirk Münchwilen"},"canton":{"key":"20","code":"TG","name":"Thurgau"},"status":"Real"},{"key":"10246819","name":"Bonacherweg","postalCode":"3995","locality":"Ernen","commune":{"key":"6056","name":"Ernen","shortName":"Ernen"},"district":{"key":"2304","name":"Bezirk Goms"},"canton":{"key":"23","code":"VS","name":"Valais / Wallis"},"status":"Real"},{"key":"10217895","name":"Brächhütteweg","postalCode":"3309","locality":"Kernenried","commune":{"key":"411","name":"Kernenried","shortName":"Kernenried"},"district":{"key":"245","name":"Verwaltungskreis Emmental"},"canton":{"key":"2","code":"BE","name":"Bern / Berne"},"status":"Real"},{"key":"10217899","name":"Breitligweg","postalCode":"3309","locality":"Kernenried","commune":{"key":"411","name":"Kernenried","shortName":"Kernenried"},"district":{"key":"245","name":"Verwaltungskreis Emmental"},"canton":{"key":"2","code":"BE","name":"Bern / Berne"},"status":"Real"},{"key":"10207552","name":"Bruecheggstrasse","postalCode":"8499","locality":"Sternenberg","commune":{"key":"4726","name":"Fischingen","shortName":"Fischingen"},"district":{"key":"2014","name":"Bezirk Münchwilen"},"canton":{"key":"20","code":"TG","name":"Thurgau"},"status":"Real"},{"key":"10244704","name":"Buchwaldweg","postalCode":"8499","locality":"Sternenberg","commune":{"key":"4726","name":"Fischingen","shortName":"Fischingen"},"district":{"key":"2014","name":"Bezirk Münchwilen"},"canton":{"key":"20","code":"TG","name":"Thurgau"},"status":"Real"},{"key":"10123322","name":"Bühlweg","postalCode":"3309","locality":"Kernenried","commune":{"key":"411","name":"Kernenried","shortName":"Kernenried"},"district":{"key":"245","name":"Verwaltungskreis Emmental"},"canton":{"key":"2","code":"BE","name":"Bern / Berne"},"status":"Real"},{"key":"10217903","name":"Burgdorfstrasse","postalCode":"3309","locality":"Kernenried","commune":{"key":"411","name":"Kernenried","shortName":"Kernenried"},"district":{"key":"245","name":"Verwaltungskreis Emmental"},"canton":{"key":"2","code":"BE","name":"Bern / Berne"},"status":"Real"},{"key":"10199377","name":"Bürglet","postalCode":"8499","locality":"Sternenberg","commune":{"key":"4726","name":"Fischingen","shortName":"Fischingen"},"district":{"key":"2014","name":"Bezirk Münchwilen"},"canton":{"key":"20","code":"TG","name":"Thurgau"},"status":"Real"},{"key":"10192305","name":"Burgweg","postalCode":"3309","locality":"Kernenried","commune":{"key":"411","name":"Kernenried","shortName":"Kernenried"},"district":{"key":"245","name":"Verwaltungskreis Emmental"},"canton":{"key":"2","code":"BE","name":"Bern / Berne"},"status":"Real"},{"key":"10000683","name":"Chalspel","postalCode":"8499","locality":"Sternenberg","commune":{"key":"4726","name":"Fischingen","shortName":"Fischingen"},"district":{"key":"2014","name":"Bezirk Münchwilen"},"canton":{"key":"20","code":"TG","name":"Thurgau"},"status":"Real"},{"key":"10207522","name":"Chalspelweg","postalCode":"8499","locality":"Sternenberg","commune":{"key":"4726","name":"Fischingen","shortName":"Fischingen"},"district":{"key":"2014","name":"Bezirk Münchwilen"},"canton":{"key":"20","code":"TG","name":"Thurgau"},"status":"Real"},{"key":"10023828","name":"Chemin de Kaisa","postalCode":"1696","locality":"Vuisternens-en-Ogoz","commune":{"key":"2236","name":"Gibloux","shortName":"Gibloux"},"district":{"key":"1004","name":"District de la Sarine"},"canton":{"key":"10","code":"FR","name":"Fribourg / Freiburg"},"status":"Real"},{"key":"10072675","name":"Chemin de la Clavaleyre","postalCode":"1696","locality":"Vuisternens-en-Ogoz","commune":{"key":"2236","name":"Gibloux","shortName":"Gibloux"},"district":{"key":"1004","name":"District de la Sarine"},"canton":{"key":"10","code":"FR","name":"Fribourg / Freiburg"},"status":"Real"},{"key":"10023829","name":"Chemin de la Faye","postalCode":"1696","locality":"Vuisternens-en-Ogoz","commune":{"key":"2236","name":"Gibloux","shortName":"Gibloux"},"district":{"key":"1004","name":"District de la Sarine"},"canton":{"key":"10","code":"FR","name":"Fribourg / Freiburg"},"status":"Real"},{"key":"10086252","name":"Chemin de la Scie","postalCode":"1696","locality":"Vuisternens-en-Ogoz","commune":{"key":"2236","name":"Gibloux","shortName":"Gibloux"},"district":{"key":"1004","name":"District de la Sarine"},"canton":{"key":"10","code":"FR","name":"Fribourg / Freiburg"},"status":"Real"},{"key":"10086251","name":"Chemin de l'Echenalla","postalCode":"1696","locality":"Vuisternens-en-Ogoz","commune":{"key":"2236","name":"Gibloux","shortName":"Gibloux"},"district":{"key":"1004","name":"District de la Sarine"},"canton":{"key":"10","code":"FR","name":"Fribourg / Freiburg"},"status":"Real"},{"key":"10185745","name":"Chemin de l'Ecole","postalCode":"1696","locality":"Vuisternens-en-Ogoz","commune":{"key":"2236","name":"Gibloux","shortName":"Gibloux"},"district":{"key":"1004","name":"District de la Sarine"},"canton":{"key":"10","code":"FR","name":"Fribourg / Freiburg"},"status":"Real"},{"key":"10165444","name":"Chemin de Mouna","postalCode":"1687","locality":"Vuisternens-devant-Romont","commune":{"key":"2113","name":"Vuisternens-devant-Romont","shortName":"Vuisternens-dev-Romont"},"district":{"key":"1002","name":"District de la Glâne"},"canton":{"key":"10","code":"FR","name":"Fribourg / Freiburg"},"status":"Real"},{"key":"10253252","name":"Chemin des Tourbières","postalCode":"1696","locality":"Vuisternens-en-Ogoz","commune":{"key":"2236","name":"Gibloux","shortName":"Gibloux"},"district":{"key":"1004","name":"District de la Sarine"},"canton":{"key":"10","code":"FR","name":"Fribourg / Freiburg"},"status":"Real"},{"key":"10023830","name":"Chemin du Bregeau","postalCode":"1696","locality":"Vuisternens-en-Ogoz","commune":{"key":"2236","name":"Gibloux","shortName":"Gibloux"},"district":{"key":"1004","name":"District de la Sarine"},"canton":{"key":"10","code":"FR","name":"Fribourg / Freiburg"},"status":"Real"},{"key":"10107896","name":"Chemin du Montet","postalCode":"1696","locality":"Vuisternens-en-Ogoz","commune":{"key":"2236","name":"Gibloux","shortName":"Gibloux"},"district":{"key":"1004","name":"District de la Sarine"},"canton":{"key":"10","code":"FR","name":"Fribourg / Freiburg"},"status":"Real"},{"key":"10086253","name":"Chemin du Mystère","postalCode":"1696","locality":"Vuisternens-en-Ogoz","commune":{"key":"2236","name":"Gibloux","shortName":"Gibloux"},"district":{"key":"1004","name":"District de la Sarine"},"canton":{"key":"10","code":"FR","name":"Fribourg / Freiburg"},"status":"Real"},{"key":"10023831","name":"Chemin du Publet","postalCode":"1696","locality":"Vuisternens-en-Ogoz","commune":{"key":"2236","name":"Gibloux","shortName":"Gibloux"},"district":{"key":"1004","name":"District de la Sarine"},"canton":{"key":"10","code":"FR","name":"Fribourg / Freiburg"},"status":"Real"},{"key":"10177632","name":"Chilchweg","postalCode":"3309","locality":"Kernenried","commune":{"key":"411","name":"Kernenried","shortName":"Kernenried"},"district":{"key":"245","name":"Verwaltungskreis Emmental"},"canton":{"key":"2","code":"BE","name":"Bern / Berne"},"status":"Real"},{"key":"10123323","name":"Chutzeweg","postalCode":"3309","locality":"Kernenried","commune":{"key":"411","name":"Kernenried","shortName":"Kernenried"},"district":{"key":"245","name":"Verwaltungskreis Emmental"},"canton":{"key":"2","code":"BE","name":"Bern / Berne"},"status":"Real"},{"key":"10066866","name":"Dorfstrasse","postalCode":"3309","locality":"Kernenried","commune":{"key":"411","name":"Kernenried","shortName":"Kernenried"},"district":{"key":"245","name":"Verwaltungskreis Emmental"},"canton":{"key":"2","code":"BE","name":"Bern / Berne"},"status":"Real"},{"key":"10248123","name":"Dorfstrasse","postalCode":"8499","locality":"Sternenberg","commune":{"key":"4726","name":"Fischingen","shortName":"Fischingen"},"district":{"key":"2014","name":"Bezirk Münchwilen"},"canton":{"key":"20","code":"TG","name":"Thurgau"},"status":"Real"},{"key":"10206125","name":"Ebnistrasse","postalCode":"8499","locality":"Sternenberg","commune":{"key":"4726","name":"Fischingen","shortName":"Fischingen"},"district":{"key":"2014","name":"Bezirk Münchwilen"},"canton":{"key":"20","code":"TG","name":"Thurgau"},"status":"Real"},{"key":"10246817","name":"Eggenstrasse","postalCode":"3995","locality":"Ernen","commune":{"key":"6056","name":"Ernen","shortName":"Ernen"},"district":{"key":"2304","name":"Bezirk Goms"},"canton":{"key":"23","code":"VS","name":"Valais / Wallis"},"status":"Real"},{"key":"10199378","name":"Eggweid","postalCode":"8499","locality":"Sternenberg","commune":{"key":"4726","name":"Fischingen","shortName":"Fischingen"},"district":{"key":"2014","name":"Bezirk Münchwilen"},"canton":{"key":"20","code":"TG","name":"Thurgau"},"status":"Real"},{"key":"10244699","name":"Eggweidweg","postalCode":"8499","locality":"Sternenberg","commune":{"key":"4726","name":"Fischingen","shortName":"Fischingen"},"district":{"key":"2014","name":"Bezirk Münchwilen"},"canton":{"key":"20","code":"TG","name":"Thurgau"},"status":"Real"},{"key":"10088947","name":"Eichelacker","postalCode":"3309","locality":"Kernenried","commune":{"key":"411","name":"Kernenried","shortName":"Kernenried"},"district":{"key":"245","name":"Verwaltungskreis Emmental"},"canton":{"key":"2","code":"BE","name":"Bern / Berne"},"status":"Real"},{"key":"10246824","name":"Ernerstrasse","postalCode":"3995","locality":"Ernen","commune":{"key":"6056","name":"Ernen","shortName":"Ernen"},"district":{"key":"2304","name":"Bezirk Goms"},"canton":{"key":"23","code":"VS","name":"Valais / Wallis"},"status":"Real"},{"key":"10246834","name":"Ernerwaldstrasse","postalCode":"3995","locality":"Ernen","commune":{"key":"6056","name":"Ernen","shortName":"Ernen"},"district":{"key":"2304","name":"Bezirk Goms"},"canton":{"key":"23","code":"VS","name":"Valais / Wallis"},"status":"Real"},{"key":"10120578","name":"Eulenweg","postalCode":"3309","locality":"Kernenried","commune":{"key":"411","name":"Kernenried","shortName":"Kernenried"},"district":{"key":"245","name":"Verwaltungskreis Emmental"},"canton":{"key":"2","code":"BE","name":"Bern / Berne"},"status":"Real"},{"key":"10207523","name":"Farneggweg","postalCode":"8499","locality":"Sternenberg","commune":{"key":"4726","name":"Fischingen","shortName":"Fischingen"},"district":{"key":"2014","name":"Bezirk Münchwilen"},"canton":{"key":"20","code":"TG","name":"Thurgau"},"status":"Real"},{"key":"10246828","name":"Feldgasse","postalCode":"3995","locality":"Ernen","commune":{"key":"6056","name":"Ernen","shortName":"Ernen"},"district":{"key":"2304","name":"Bezirk Goms"},"canton":{"key":"23","code":"VS","name":"Valais / Wallis"},"status":"Real"},{"key":"10207524","name":"Felseneggstrasse","postalCode":"8499","locality":"Sternenberg","commune":{"key":"4726","name":"Fischingen","shortName":"Fischingen"},"district":{"key":"2014","name":"Bezirk Münchwilen"},"canton":{"key":"20","code":"TG","name":"Thurgau"},"status":"Real"},{"key":"10207525","name":"Felsenholzweg","postalCode":"8499","locality":"Sternenberg","commune":{"key":"4726","name":"Fischingen","shortName":"Fischingen"},"district":{"key":"2014","name":"Bezirk Münchwilen"},"canton":{"key":"20","code":"TG","name":"Thurgau"},"status":"Real"},{"key":"10246811","name":"Fieschergasse","postalCode":"3995","locality":"Ernen","commune":{"key":"6056","name":"Ernen","shortName":"Ernen"},"district":{"key":"2304","name":"Bezirk Goms"},"canton":{"key":"23","code":"VS","name":"Valais / Wallis"},"status":"Real"},{"key":"10120579","name":"Fliederweg","postalCode":"3309","locality":"Kernenried","commune":{"key":"411","name":"Kernenried","shortName":"Kernenried"},"district":{"key":"245","name":"Verwaltungskreis Emmental"},"canton":{"key":"2","code":"BE","name":"Bern / Berne"},"status":"Real"},{"key":"10246820","name":"Flüe","postalCode":"3995","locality":"Ernen","commune":{"key":"6056","name":"Ernen","shortName":"Ernen"},"district":{"key":"2304","name":"Bezirk Goms"},"canton":{"key":"23","code":"VS","name":"Valais / Wallis"},"status":"Real"},{"key":"10246826","name":"Galgenweg","postalCode":"3995","locality":"Ernen","commune":{"key":"6056","name":"Ernen","shortName":"Ernen"},"district":{"key":"2304","name":"Bezirk Goms"},"canton":{"key":"23","code":"VS","name":"Valais / Wallis"},"status":"Real"},{"key":"10207553","name":"Geisseggbodenweg","postalCode":"8499","locality":"Sternenberg","commune":{"key":"4726","name":"Fischingen","shortName":"Fischingen"},"district":{"key":"2014","name":"Bezirk Münchwilen"},"canton":{"key":"20","code":"TG","name":"Thurgau"},"status":"Real"},{"key":"10207526","name":"Geisseggstrasse","postalCode":"8499","locality":"Sternenberg","commune":{"key":"4726","name":"Fischingen","shortName":"Fischingen"},"district":{"key":"2014","name":"Bezirk Münchwilen"},"canton":{"key":"20","code":"TG","name":"Thurgau"},"status":"Real"},{"key":"10207527","name":"Gersterstrasse","postalCode":"8499","locality":"Sternenberg","commune":{"key":"4726","name":"Fischingen","shortName":"Fischingen"},"district":{"key":"2014","name":"Bezirk Münchwilen"},"canton":{"key":"20","code":"TG","name":"Thurgau"},"status":"Real"},{"key":"10207528","name":"Gfellstrasse","postalCode":"8499","locality":"Sternenberg","commune":{"key":"4726","name":"Fischingen","shortName":"Fischingen"},"district":{"key":"2014","name":"Bezirk Münchwilen"},"canton":{"key":"20","code":"TG","name":"Thurgau"},"status":"Real"},{"key":"10207529","name":"Gipseggstrasse","postalCode":"8499","locality":"Sternenberg","commune":{"key":"4726","name":"Fischingen","shortName":"Fischingen"},"district":{"key":"2014","name":"Bezirk Münchwilen"},"canton":{"key":"20","code":"TG","name":"Thurgau"},"status":"Real"},{"key":"10244706","name":"Gubelweidweg","postalCode":"8499","locality":"Sternenberg","commune":{"key":"4726","name":"Fischingen","shortName":"Fischingen"},"district":{"key":"2014","name":"Bezirk Münchwilen"},"canton":{"key":"20","code":"TG","name":"Thurgau"},"status":"Real"},{"key":"10120580","name":"Gygerweg","postalCode":"3309","locality":"Kernenried","commune":{"key":"411","name":"Kernenried","shortName":"Kernenried"},"district":{"key":"245","name":"Verwaltungskreis Emmental"},"canton":{"key":"2","code":"BE","name":"Bern / Berne"},"status":"Real"},{"key":"10122217","name":"Hauptstrasse","postalCode":"3309","locality":"Kernenried","commune":{"key":"411","name":"Kernenried","shortName":"Kernenried"},"district":{"key":"245","name":"Verwaltungskreis Emmental"},"canton":{"key":"2","code":"BE","name":"Bern / Berne"},"status":"Real"},{"key":"10246809","name":"Heidenhubelweg","postalCode":"3995","locality":"Ernen","commune":{"key":"6056","name":"Ernen","shortName":"Ernen"},"district":{"key":"2304","name":"Bezirk Goms"},"canton":{"key":"23","code":"VS","name":"Valais / Wallis"},"status":"Real"},{"key":"10005677","name":"Heidmoos","postalCode":"3309","locality":"Kernenried","commune":{"key":"411","name":"Kernenried","shortName":"Kernenried"},"district":{"key":"245","name":"Verwaltungskreis Emmental"},"canton":{"key":"2","code":"BE","name":"Bern / Berne"},"status":"Real"},{"key":"10119783","name":"Heiletseggstrasse","postalCode":"8499","locality":"Sternenberg","commune":{"key":"4726","name":"Fischingen","shortName":"Fischingen"},"district":{"key":"2014","name":"Bezirk Münchwilen"},"canton":{"key":"20","code":"TG","name":"Thurgau"},"status":"Real"},{"key":"10170845","name":"Hengert","postalCode":"3995","locality":"Ernen","commune":{"key":"6056","name":"Ernen","shortName":"Ernen"},"district":{"key":"2304","name":"Bezirk Goms"},"canton":{"key":"23","code":"VS","name":"Valais / Wallis"},"status":"Real"},{"key":"10207530","name":"Heurütistrasse","postalCode":"8499","locality":"Sternenberg","commune":{"key":"4726","name":"Fischingen","shortName":"Fischingen"},"district":{"key":"2014","name":"Bezirk Münchwilen"},"canton":{"key":"20","code":"TG","name":"Thurgau"},"status":"Real"},{"key":"10120581","name":"Hindelbankstrasse","postalCode":"3309","locality":"Kernenried","commune":{"key":"411","name":"Kernenried","shortName":"Kernenried"},"district":{"key":"245","name":"Verwaltungskreis Emmental"},"canton":{"key":"2","code":"BE","name":"Bern / Berne"},"status":"Real"},{"key":"10207531","name":"Hinterbergstrasse","postalCode":"8499","locality":"Sternenberg","commune":{"key":"4726","name":"Fischingen","shortName":"Fischingen"},"district":{"key":"2014","name":"Bezirk Münchwilen"},"canton":{"key":"20","code":"TG","name":"Thurgau"},"status":"Real"},{"key":"10000687","name":"Hintertobel","postalCode":"8499","locality":"Sternenberg","commune":{"key":"4726","name":"Fischingen","shortName":"Fischingen"},"district":{"key":"2014","name":"Bezirk Münchwilen"},"canton":{"key":"20","code":"TG","name":"Thurgau"},"status":"Real"},{"key":"10207532","name":"Höchstockstrasse","postalCode":"8499","locality":"Sternenberg","commune":{"key":"4726","name":"Fischingen","shortName":"Fischingen"},"district":{"key":"2014","name":"Bezirk Münchwilen"},"canton":{"key":"20","code":"TG","name":"Thurgau"},"status":"Real"},{"key":"10246801","name":"Hockmattenweg","postalCode":"3995","locality":"Ernen","commune":{"key":"6056","name":"Ernen","shortName":"Ernen"},"district":{"key":"2304","name":"Bezirk Goms"},"canton":{"key":"23","code":"VS","name":"Valais / Wallis"},"status":"Real"},{"key":"10246838","name":"Hohe Gasse","postalCode":"3995","locality":"Ernen","commune":{"key":"6056","name":"Ernen","shortName":"Ernen"},"district":{"key":"2304","name":"Bezirk Goms"},"canton":{"key":"23","code":"VS","name":"Valais / Wallis"},"status":"Real"},{"key":"10038901","name":"Horn","postalCode":"8499","locality":"Sternenberg","commune":{"key":"4726","name":"Fischingen","shortName":"Fischingen"},"district":{"key":"2014","name":"Bezirk Münchwilen"},"canton":{"key":"20","code":"TG","name":"Thurgau"},"status":"Real"},{"key":"10161614","name":"Hostetweg","postalCode":"3309","locality":"Kernenried","commune":{"key":"411","name":"Kernenried","shortName":"Kernenried"},"district":{"key":"245","name":"Verwaltungskreis Emmental"},"canton":{"key":"2","code":"BE","name":"Bern / Berne"},"status":"Real"},{"key":"10216819","name":"Hurst","postalCode":"3309","locality":"Kernenried","commune":{"key":"411","name":"Kernenried","shortName":"Kernenried"},"district":{"key":"245","name":"Verwaltungskreis Emmental"},"canton":{"key":"2","code":"BE","name":"Bern / Berne"},"status":"Real"},{"key":"10120582","name":"Hüsligässli","postalCode":"3309","locality":"Kernenried","commune":{"key":"411","name":"Kernenried","shortName":"Kernenried"},"district":{"key":"245","name":"Verwaltungskreis Emmental"},"canton":{"key":"2","code":"BE","name":"Bern / Berne"},"status":"Real"},{"key":"10066867","name":"Im Holz","postalCode":"3309","locality":"Kernenried","commune":{"key":"411","name":"Kernenried","shortName":"Kernenried"},"district":{"key":"245","name":"Verwaltungskreis Emmental"},"canton":{"key":"2","code":"BE","name":"Bern / Berne"},"status":"Real"},{"key":"10128581","name":"Impasse de l'Abbaye","postalCode":"1696","locality":"Vuisternens-en-Ogoz","commune":{"key":"2236","name":"Gibloux","shortName":"Gibloux"},"district":{"key":"1004","name":"District de la Sarine"},"canton":{"key":"10","code":"FR","name":"Fribourg / Freiburg"},"status":"Real"},{"key":"10060024","name":"Impasse de la Condémine","postalCode":"1687","locality":"Vuisternens-devant-Romont","commune":{"key":"2113","name":"Vuisternens-devant-Romont","shortName":"Vuisternens-dev-Romont"},"district":{"key":"1002","name":"District de la Glâne"},"canton":{"key":"10","code":"FR","name":"Fribourg / Freiburg"},"status":"Real"},{"key":"10134101","name":"Impasse de la Côte","postalCode":"1687","locality":"Vuisternens-devant-Romont","commune":{"key":"2113","name":"Vuisternens-devant-Romont","shortName":"Vuisternens-dev-Romont"},"district":{"key":"1002","name":"District de la Glâne"},"canton":{"key":"10","code":"FR","name":"Fribourg / Freiburg"},"status":"Real"},{"key":"10023833","name":"Impasse de la Grangette","postalCode":"1696","locality":"Vuisternens-en-Ogoz","commune":{"key":"2236","name":"Gibloux","shortName":"Gibloux"},"district":{"key":"1004","name":"District de la Sarine"},"canton":{"key":"10","code":"FR","name":"Fribourg / Freiburg"},"status":"Real"},{"key":"10023834","name":"Impasse de la Perrausa","postalCode":"1696","locality":"Vuisternens-en-Ogoz","commune":{"key":"2236","name":"Gibloux","shortName":"Gibloux"},"district":{"key":"1004","name":"District de la Sarine"},"canton":{"key":"10","code":"FR","name":"Fribourg / Freiburg"},"status":"Real"},{"key":"10169898","name":"Impasse de l'Opéra","postalCode":"1696","locality":"Vuisternens-en-Ogoz","commune":{"key":"2236","name":"Gibloux","shortName":"Gibloux"},"district":{"key":"1004","name":"District de la Sarine"},"canton":{"key":"10","code":"FR","name":"Fribourg / Freiburg"},"status":"Real"},{"key":"10188361","name":"Impasse de Pra-de-Vaud","postalCode":"1696","locality":"Vuisternens-en-Ogoz","commune":{"key":"2236","name":"Gibloux","shortName":"Gibloux"},"district":{"key":"1004","name":"District de la Sarine"},"canton":{"key":"10","code":"FR","name":"Fribourg / Freiburg"},"status":"Real"},{"key":"10168769","name":"Impasse Derrière l'Eglise","postalCode":"1687","locality":"Vuisternens-devant-Romont","commune":{"key":"2113","name":"Vuisternens-devant-Romont","shortName":"Vuisternens-dev-Romont"},"district":{"key":"1002","name":"District de la Glâne"},"canton":{"key":"10","code":"FR","name":"Fribourg / Freiburg"},"status":"Real"},{"key":"10060028","name":"Impasse de Sapaya","postalCode":"1687","locality":"Vuisternens-devant-Romont","commune":{"key":"2113","name":"Vuisternens-devant-Romont","shortName":"Vuisternens-dev-Romont"},"district":{"key":"1002","name":"District de la Glâne"},"canton":{"key":"10","code":"FR","name":"Fribourg / Freiburg"},"status":"Real"},{"key":"10086254","name":"Impasse des Chaux","postalCode":"1696","locality":"Vuisternens-en-Ogoz","commune":{"key":"2236","name":"Gibloux","shortName":"Gibloux"},"district":{"key":"1004","name":"District de la Sarine"},"canton":{"key":"10","code":"FR","name":"Fribourg / Freiburg"},"status":"Real"},{"key":"10165105","name":"Impasse des Râpes","postalCode":"1687","locality":"Vuisternens-devant-Romont","commune":{"key":"2113","name":"Vuisternens-devant-Romont","shortName":"Vuisternens-dev-Romont"},"district":{"key":"1002","name":"District de la Glâne"},"canton":{"key":"10","code":"FR","name":"Fribourg / Freiburg"},"status":"Real"},{"key":"10023835","name":"Impasse du Beau-Crêt","postalCode":"1696","locality":"Vuisternens-en-Ogoz","commune":{"key":"2236","name":"Gibloux","shortName":"Gibloux"},"district":{"key":"1004","name":"District de la Sarine"},"canton":{"key":"10","code":"FR","name":"Fribourg / Freiburg"},"status":"Real"},{"key":"10098261","name":"Impasse du Château","postalCode":"1696","locality":"Vuisternens-en-Ogoz","commune":{"key":"2236","name":"Gibloux","shortName":"Gibloux"},"district":{"key":"1004","name":"District de la Sarine"},"canton":{"key":"10","code":"FR","name":"Fribourg / Freiburg"},"status":"Real"},{"key":"10017588","name":"Impasse du Clos Dessus","postalCode":"1687","locality":"Vuisternens-devant-Romont","commune":{"key":"2113","name":"Vuisternens-devant-Romont","shortName":"Vuisternens-dev-Romont"},"district":{"key":"1002","name":"District de la Glâne"},"canton":{"key":"10","code":"FR","name":"Fribourg / Freiburg"},"status":"Real"},{"key":"10168768","name":"Impasse du Geneivro","postalCode":"1687","locality":"Vuisternens-devant-Romont","commune":{"key":"2113","name":"Vuisternens-devant-Romont","shortName":"Vuisternens-dev-Romont"},"district":{"key":"1002","name":"District de la Glâne"},"canton":{"key":"10","code":"FR","name":"Fribourg / Freiburg"},"status":"Real"},{"key":"10168767","name":"Impasse du Jordil","postalCode":"1687","locality":"Vuisternens-devant-Romont","commune":{"key":"2113","name":"Vuisternens-devant-Romont","shortName":"Vuisternens-dev-Romont"},"district":{"key":"1002","name":"District de la Glâne"},"canton":{"key":"10","code":"FR","name":"Fribourg / Freiburg"},"status":"Real"},{"key":"10072676","name":"Impasse du Pré-de-Bouleyres","postalCode":"1696","locality":"Vuisternens-en-Ogoz","commune":{"key":"2236","name":"Gibloux","shortName":"Gibloux"},"district":{"key":"1004","name":"District de la Sarine"},"canton":{"key":"10","code":"FR","name":"Fribourg / Freiburg"},"status":"Real"},{"key":"10086255","name":"Impasse du Signal","postalCode":"1696","locality":"Vuisternens-en-Ogoz","commune":{"key":"2236","name":"Gibloux","shortName":"Gibloux"},"district":{"key":"1004","name":"District de la Sarine"},"canton":{"key":"10","code":"FR","name":"Fribourg / Freiburg"},"status":"Real"},{"key":"10185746","name":"Impasse du Tilleul","postalCode":"1696","locality":"Vuisternens-en-Ogoz","commune":{"key":"2236","name":"Gibloux","shortName":"Gibloux"},"district":{"key":"1004","name":"District de la Sarine"},"canton":{"key":"10","code":"FR","name":"Fribourg / Freiburg"},"status":"Real"},{"key":"10165657","name":"Impasse du Verné","postalCode":"1696","locality":"Vuisternens-en-Ogoz","commune":{"key":"2236","name":"Gibloux","shortName":"Gibloux"},"district":{"key":"1004","name":"District de la Sarine"},"canton":{"key":"10","code":"FR","name":"Fribourg / Freiburg"},"status":"Real"},{"key":"10148233","name":"Impasse Haut-du-Pré","postalCode":"1687","locality":"Vuisternens-devant-Romont","commune":{"key":"2113","name":"Vuisternens-devant-Romont","shortName":"Vuisternens-dev-Romont"},"district":{"key":"1002","name":"District de la Glâne"},"canton":{"key":"10","code":"FR","name":"Fribourg / Freiburg"},"status":"Real"},{"key":"10023832","name":"Impasse Pra-Genilloud","postalCode":"1696","locality":"Vuisternens-en-Ogoz","commune":{"key":"2236","name":"Gibloux","shortName":"Gibloux"},"district":{"key":"1004","name":"District de la Sarine"},"canton":{"key":"10","code":"FR","name":"Fribourg / Freiburg"},"status":"Real"},{"key":"10217911","name":"Ischlagweg","postalCode":"3309","locality":"Kernenried","commune":{"key":"411","name":"Kernenried","shortName":"Kernenried"},"district":{"key":"245","name":"Verwaltungskreis Emmental"},"canton":{"key":"2","code":"BE","name":"Bern / Berne"},"status":"Real"},{"key":"10246832","name":"Kirchengutweg","postalCode":"3995","locality":"Ernen","commune":{"key":"6056","name":"Ernen","shortName":"Ernen"},"district":{"key":"2304","name":"Bezirk Goms"},"canton":{"key":"23","code":"VS","name":"Valais / Wallis"},"status":"Real"},{"key":"10167915","name":"Kirchweg","postalCode":"3995","locality":"Ernen","commune":{"key":"6056","name":"Ernen","shortName":"Ernen"},"district":{"key":"2304","name":"Bezirk Goms"},"canton":{"key":"23","code":"VS","name":"Valais / Wallis"},"status":"Real"},{"key":"10205550","name":"Kohltobelstrasse","postalCode":"8499","locality":"Sternenberg","commune":{"key":"4726","name":"Fischingen","shortName":"Fischingen"},"district":{"key":"2014","name":"Bezirk Münchwilen"},"canton":{"key":"20","code":"TG","name":"Thurgau"},"status":"Real"},{"key":"10252961","name":"La Fontaine","postalCode":"1696","locality":"Vuisternens-en-Ogoz","commune":{"key":"2236","name":"Gibloux","shortName":"Gibloux"},"district":{"key":"1004","name":"District de la Sarine"},"canton":{"key":"10","code":"FR","name":"Fribourg / Freiburg"},"status":"Real"},{"key":"10252966","name":"La Gotta","postalCode":"1696","locality":"Vuisternens-en-Ogoz","commune":{"key":"2236","name":"Gibloux","shortName":"Gibloux"},"district":{"key":"1004","name":"District de la Sarine"},"canton":{"key":"10","code":"FR","name":"Fribourg / Freiburg"},"status":"Real"},{"key":"10246814","name":"Lärchendörfli","postalCode":"3995","locality":"Ernen","commune":{"key":"6056","name":"Ernen","shortName":"Ernen"},"district":{"key":"2304","name":"Bezirk Goms"},"canton":{"key":"23","code":"VS","name":"Valais / Wallis"},"status":"Real"},{"key":"10246816","name":"Lärchgasse","postalCode":"3995","locality":"Ernen","commune":{"key":"6056","name":"Ernen","shortName":"Ernen"},"district":{"key":"2304","name":"Bezirk Goms"},"canton":{"key":"23","code":"VS","name":"Valais / Wallis"},"status":"Real"},{"key":"10252979","name":"Le Bornalet","postalCode":"1696","locality":"Vuisternens-en-Ogoz","commune":{"key":"2236","name":"Gibloux","shortName":"Gibloux"},"district":{"key":"1004","name":"District de la Sarine"},"canton":{"key":"10","code":"FR","name":"Fribourg / Freiburg"},"status":"Real"},{"key":"10254417","name":"Le Brêt","postalCode":"1687","locality":"Vuisternens-devant-Romont","commune":{"key":"2113","name":"Vuisternens-devant-Romont","shortName":"Vuisternens-dev-Romont"},"district":{"key":"1002","name":"District de la Glâne"},"canton":{"key":"10","code":"FR","name":"Fribourg / Freiburg"},"status":"Real"},{"key":"10122718","name":"Le Chenévé","postalCode":"1696","locality":"Vuisternens-en-Ogoz","commune":{"key":"2236","name":"Gibloux","shortName":"Gibloux"},"district":{"key":"1004","name":"District de la Sarine"},"canton":{"key":"10","code":"FR","name":"Fribourg / Freiburg"},"status":"Real"},{"key":"10254413","name":"Le Grand Pra","postalCode":"1687","locality":"Vuisternens-devant-Romont","commune":{"key":"2113","name":"Vuisternens-devant-Romont","shortName":"Vuisternens-dev-Romont"},"district":{"key":"1002","name":"District de la Glâne"},"canton":{"key":"10","code":"FR","name":"Fribourg / Freiburg"},"status":"Real"},{"key":"10254405","name":"Les Etreys","postalCode":"1687","locality":"Vuisternens-devant-Romont","commune":{"key":"2113","name":"Vuisternens-devant-Romont","shortName":"Vuisternens-dev-Romont"},"district":{"key":"1002","name":"District de la Glâne"},"canton":{"key":"10","code":"FR","name":"Fribourg / Freiburg"},"status":"Real"},{"key":"10255414","name":"Les Râpes","postalCode":"1687","locality":"Vuisternens-devant-Romont","commune":{"key":"2113","name":"Vuisternens-devant-Romont","shortName":"Vuisternens-dev-Romont"},"district":{"key":"1002","name":"District de la Glâne"},"canton":{"key":"10","code":"FR","name":"Fribourg / Freiburg"},"status":"Real"},{"key":"10254423","name":"Les Roubattes","postalCode":"1687","locality":"Vuisternens-devant-Romont","commune":{"key":"2113","name":"Vuisternens-devant-Romont","shortName":"Vuisternens-dev-Romont"},"district":{"key":"1002","name":"District de la Glâne"},"canton":{"key":"10","code":"FR","name":"Fribourg / Freiburg"},"status":"Real"},{"key":"10205551","name":"Lettenbodenstrasse","postalCode":"8499","locality":"Sternenberg","commune":{"key":"4726","name":"Fischingen","shortName":"Fischingen"},"district":{"key":"2014","name":"Bezirk Münchwilen"},"canton":{"key":"20","code":"TG","name":"Thurgau"},"status":"Real"},{"key":"10244701","name":"Lettenweg","postalCode":"8499","locality":"Sternenberg","commune":{"key":"4726","name":"Fischingen","shortName":"Fischingen"},"district":{"key":"2014","name":"Bezirk Münchwilen"},"canton":{"key":"20","code":"TG","name":"Thurgau"},"status":"Real"},{"key":"10023837","name":"Maison-Neuve","postalCode":"1696","locality":"Vuisternens-en-Ogoz","commune":{"key":"2236","name":"Gibloux","shortName":"Gibloux"},"district":{"key":"1004","name":"District de la Sarine"},"canton":{"key":"10","code":"FR","name":"Fribourg / Freiburg"},"status":"Real"},{"key":"10207752","name":"Martinsacherweg","postalCode":"8499","locality":"Sternenberg","commune":{"key":"4726","name":"Fischingen","shortName":"Fischingen"},"district":{"key":"2014","name":"Bezirk Münchwilen"},"canton":{"key":"20","code":"TG","name":"Thurgau"},"status":"Real"},{"key":"10205552","name":"Mattstrasse","postalCode":"8499","locality":"Sternenberg","commune":{"key":"4726","name":"Fischingen","shortName":"Fischingen"},"district":{"key":"2014","name":"Bezirk Münchwilen"},"canton":{"key":"20","code":"TG","name":"Thurgau"},"status":"Real"},{"key":"10207533","name":"Mattstutzstrasse","postalCode":"8499","locality":"Sternenberg","commune":{"key":"4726","name":"Fischingen","shortName":"Fischingen"},"district":{"key":"2014","name":"Bezirk Münchwilen"},"canton":{"key":"20","code":"TG","name":"Thurgau"},"status":"Real"},{"key":"10038902","name":"Meiersboden","postalCode":"8499","locality":"Sternenberg","commune":{"key":"4726","name":"Fischingen","shortName":"Fischingen"},"district":{"key":"2014","name":"Bezirk Münchwilen"},"canton":{"key":"20","code":"TG","name":"Thurgau"},"status":"Real"},{"key":"10246807","name":"Michligbodenweg","postalCode":"3995","locality":"Ernen","commune":{"key":"6056","name":"Ernen","shortName":"Ernen"},"district":{"key":"2304","name":"Bezirk Goms"},"canton":{"key":"23","code":"VS","name":"Valais / Wallis"},"status":"Real"},{"key":"10174229","name":"Michligschrota","postalCode":"3995","locality":"Ernen","commune":{"key":"6056","name":"Ernen","shortName":"Ernen"},"district":{"key":"2304","name":"Bezirk Goms"},"canton":{"key":"23","code":"VS","name":"Valais / Wallis"},"status":"Real"},{"key":"10005678","name":"Moosstrasse","postalCode":"3309","locality":"Kernenried","commune":{"key":"411","name":"Kernenried","shortName":"Kernenried"},"district":{"key":"245","name":"Verwaltungskreis Emmental"},"canton":{"key":"2","code":"BE","name":"Bern / Berne"},"status":"Real"},{"key":"10085312","name":"Mühlebachstrasse","postalCode":"3995","locality":"Ernen","commune":{"key":"6056","name":"Ernen","shortName":"Ernen"},"district":{"key":"2304","name":"Bezirk Goms"},"canton":{"key":"23","code":"VS","name":"Valais / Wallis"},"status":"Real"},{"key":"10246804","name":"Mühleweg","postalCode":"3995","locality":"Ernen","commune":{"key":"6056","name":"Ernen","shortName":"Ernen"},"district":{"key":"2304","name":"Bezirk Goms"},"canton":{"key":"23","code":"VS","name":"Valais / Wallis"},"status":"Real"},{"key":"10199328","name":"Neugüetli","postalCode":"8499","locality":"Sternenberg","commune":{"key":"4726","name":"Fischingen","shortName":"Fischingen"},"district":{"key":"2014","name":"Bezirk Münchwilen"},"canton":{"key":"20","code":"TG","name":"Thurgau"},"status":"Real"},{"key":"10217915","name":"Neumattweg","postalCode":"3309","locality":"Kernenried","commune":{"key":"411","name":"Kernenried","shortName":"Kernenried"},"district":{"key":"245","name":"Verwaltungskreis Emmental"},"canton":{"key":"2","code":"BE","name":"Bern / Berne"},"status":"Real"},{"key":"10182236","name":"Obere Langfurri","postalCode":"8499","locality":"Sternenberg","commune":{"key":"4726","name":"Fischingen","shortName":"Fischingen"},"district":{"key":"2014","name":"Bezirk Münchwilen"},"canton":{"key":"20","code":"TG","name":"Thurgau"},"status":"Real"},{"key":"10174230","name":"Panoramaweg","postalCode":"3995","locality":"Ernen","commune":{"key":"6056","name":"Ernen","shortName":"Ernen"},"district":{"key":"2304","name":"Bezirk Goms"},"canton":{"key":"23","code":"VS","name":"Valais / Wallis"},"status":"Real"},{"key":"10067921","name":"Place de la Gare","postalCode":"1687","locality":"Vuisternens-devant-Romont","commune":{"key":"2113","name":"Vuisternens-devant-Romont","shortName":"Vuisternens-dev-Romont"},"district":{"key":"1002","name":"District de la Glâne"},"canton":{"key":"10","code":"FR","name":"Fribourg / Freiburg"},"status":"Real"},{"key":"10005679","name":"Postweg","postalCode":"3309","locality":"Kernenried","commune":{"key":"411","name":"Kernenried","shortName":"Kernenried"},"district":{"key":"245","name":"Verwaltungskreis Emmental"},"canton":{"key":"2","code":"BE","name":"Bern / Berne"},"status":"Real"},{"key":"10253548","name":"Pra My","postalCode":"1696","locality":"Vuisternens-en-Ogoz","commune":{"key":"2236","name":"Gibloux","shortName":"Gibloux"},"district":{"key":"1004","name":"District de la Sarine"},"canton":{"key":"10","code":"FR","name":"Fribourg / Freiburg"},"status":"Real"},{"key":"10038903","name":"Reggtal","postalCode":"8499","locality":"Sternenberg","commune":{"key":"4726","name":"Fischingen","shortName":"Fischingen"},"district":{"key":"2014","name":"Bezirk Münchwilen"},"canton":{"key":"20","code":"TG","name":"Thurgau"},"status":"Real"},{"key":"10207534","name":"Rietlistrasse","postalCode":"8499","locality":"Sternenberg","commune":{"key":"4726","name":"Fischingen","shortName":"Fischingen"},"district":{"key":"2014","name":"Bezirk Münchwilen"},"canton":{"key":"20","code":"TG","name":"Thurgau"},"status":"Real"},{"key":"10246813","name":"Ritiweg","postalCode":"3995","locality":"Ernen","commune":{"key":"6056","name":"Ernen","shortName":"Ernen"},"district":{"key":"2304","name":"Bezirk Goms"},"canton":{"key":"23","code":"VS","name":"Valais / Wallis"},"status":"Real"},{"key":"10086256","name":"Route de Bouleyres","postalCode":"1696","locality":"Vuisternens-en-Ogoz","commune":{"key":"2236","name":"Gibloux","shortName":"Gibloux"},"district":{"key":"1004","name":"District de la Sarine"},"canton":{"key":"10","code":"FR","name":"Fribourg / Freiburg"},"status":"Real"},{"key":"10013434","name":"Route de Bulle","postalCode":"1687","locality":"Vuisternens-devant-Romont","commune":{"key":"2113","name":"Vuisternens-devant-Romont","shortName":"Vuisternens-dev-Romont"},"district":{"key":"1002","name":"District de la Glâne"},"canton":{"key":"10","code":"FR","name":"Fribourg / Freiburg"},"status":"Real"},{"key":"10023838","name":"Route de Bulle","postalCode":"1696","locality":"Vuisternens-en-Ogoz","commune":{"key":"2236","name":"Gibloux","shortName":"Gibloux"},"district":{"key":"1004","name":"District de la Sarine"},"canton":{"key":"10","code":"FR","name":"Fribourg / Freiburg"},"status":"Real"},{"key":"10246870","name":"Route de Farvagny","postalCode":"1696","locality":"Vuisternens-en-Ogoz","commune":{"key":"2236","name":"Gibloux","shortName":"Gibloux"},"district":{"key":"1004","name":"District de la Sarine"},"canton":{"key":"10","code":"FR","name":"Fribourg / Freiburg"},"status":"Real"},{"key":"10158515","name":"Route de la Magne","postalCode":"1687","locality":"Vuisternens-devant-Romont","commune":{"key":"2113","name":"Vuisternens-devant-Romont","shortName":"Vuisternens-dev-Romont"},"district":{"key":"1002","name":"District de la Glâne"},"canton":{"key":"10","code":"FR","name":"Fribourg / Freiburg"},"status":"Real"},{"key":"10023841","name":"Route de la Pépinière","postalCode":"1696","locality":"Vuisternens-en-Ogoz","commune":{"key":"2236","name":"Gibloux","shortName":"Gibloux"},"district":{"key":"1004","name":"District de la Sarine"},"canton":{"key":"10","code":"FR","name":"Fribourg / Freiburg"},"status":"Real"},{"key":"10086257","name":"Route de la Vuisterna","postalCode":"1696","locality":"Vuisternens-en-Ogoz","commune":{"key":"2236","name":"Gibloux","shortName":"Gibloux"},"district":{"key":"1004","name":"District de la Sarine"},"canton":{"key":"10","code":"FR","name":"Fribourg / Freiburg"},"status":"Real"},{"key":"10087128","name":"Route de Montban","postalCode":"1696","locality":"Vuisternens-en-Ogoz","commune":{"key":"2236","name":"Gibloux","shortName":"Gibloux"},"district":{"key":"1004","name":"District de la Sarine"},"canton":{"key":"10","code":"FR","name":"Fribourg / Freiburg"},"status":"Real"},{"key":"10098213","name":"Route de Romanoche","postalCode":"1696","locality":"Vuisternens-en-Ogoz","commune":{"key":"2236","name":"Gibloux","shortName":"Gibloux"},"district":{"key":"1004","name":"District de la Sarine"},"canton":{"key":"10","code":"FR","name":"Fribourg / Freiburg"},"status":"Real"},{"key":"10168759","name":"Route de Romont","postalCode":"1687","locality":"Vuisternens-devant-Romont","commune":{"key":"2113","name":"Vuisternens-devant-Romont","shortName":"Vuisternens-dev-Romont"},"district":{"key":"1002","name":"District de la Glâne"},"canton":{"key":"10","code":"FR","name":"Fribourg / Freiburg"},"status":"Real"},{"key":"10023105","name":"Route de Rueyres","postalCode":"1696","locality":"Vuisternens-en-Ogoz","commune":{"key":"2236","name":"Gibloux","shortName":"Gibloux"},"district":{"key":"1004","name":"District de la Sarine"},"canton":{"key":"10","code":"FR","name":"Fribourg / Freiburg"},"status":"Real"},{"key":"10023842","name":"Route des Condémines","postalCode":"1696","locality":"Vuisternens-en-Ogoz","commune":{"key":"2236","name":"Gibloux","shortName":"Gibloux"},"district":{"key":"1004","name":"District de la Sarine"},"canton":{"key":"10","code":"FR","name":"Fribourg / Freiburg"},"status":"Real"},{"key":"10013433","name":"Route de Sommentier","postalCode":"1687","locality":"Vuisternens-devant-Romont","commune":{"key":"2113","name":"Vuisternens-devant-Romont","shortName":"Vuisternens-dev-Romont"},"district":{"key":"1002","name":"District de la Glâne"},"canton":{"key":"10","code":"FR","name":"Fribourg / Freiburg"},"status":"Real"},{"key":"10165436","name":"Route des Petits Marais","postalCode":"1687","locality":"Vuisternens-devant-Romont","commune":{"key":"2113","name":"Vuisternens-devant-Romont","shortName":"Vuisternens-dev-Romont"},"district":{"key":"1002","name":"District de la Glâne"},"canton":{"key":"10","code":"FR","name":"Fribourg / Freiburg"},"status":"Real"},{"key":"10165442","name":"Route de Villaraboud","postalCode":"1687","locality":"Vuisternens-devant-Romont","commune":{"key":"2113","name":"Vuisternens-devant-Romont","shortName":"Vuisternens-dev-Romont"},"district":{"key":"1002","name":"District de la Glâne"},"canton":{"key":"10","code":"FR","name":"Fribourg / Freiburg"},"status":"Real"},{"key":"10165430","name":"Route de Villariaz","postalCode":"1687","locality":"Vuisternens-devant-Romont","commune":{"key":"2113","name":"Vuisternens-devant-Romont","shortName":"Vuisternens-dev-Romont"},"district":{"key":"1002","name":"District de la Glâne"},"canton":{"key":"10","code":"FR","name":"Fribourg / Freiburg"},"status":"Real"},{"key":"10191559","name":"Route de Villarlod","postalCode":"1696","locality":"Vuisternens-en-Ogoz","commune":{"key":"2236","name":"Gibloux","shortName":"Gibloux"},"district":{"key":"1004","name":"District de la Sarine"},"canton":{"key":"10","code":"FR","name":"Fribourg / Freiburg"},"status":"Real"},{"key":"10165438","name":"Route d'Oron","postalCode":"1687","locality":"Vuisternens-devant-Romont","commune":{"key":"2113","name":"Vuisternens-devant-Romont","shortName":"Vuisternens-dev-Romont"},"district":{"key":"1002","name":"District de la Glâne"},"canton":{"key":"10","code":"FR","name":"Fribourg / Freiburg"},"status":"Real"},{"key":"10072677","name":"Route du Biolley","postalCode":"1696","locality":"Vuisternens-en-Ogoz","commune":{"key":"2236","name":"Gibloux","shortName":"Gibloux"},"district":{"key":"1004","name":"District de la Sarine"},"canton":{"key":"10","code":"FR","name":"Fribourg / Freiburg"},"status":"Real"},{"key":"10110340","name":"Route du Chaussié","postalCode":"1687","locality":"Vuisternens-devant-Romont","commune":{"key":"2113","name":"Vuisternens-devant-Romont","shortName":"Vuisternens-dev-Romont"},"district":{"key":"1002","name":"District de la Glâne"},"canton":{"key":"10","code":"FR","name":"Fribourg / Freiburg"},"status":"Real"},{"key":"10246844","name":"Sangjiweg","postalCode":"3995","locality":"Ernen","commune":{"key":"6056","name":"Ernen","shortName":"Ernen"},"district":{"key":"2304","name":"Bezirk Goms"},"canton":{"key":"23","code":"VS","name":"Valais / Wallis"},"status":"Real"},{"key":"10246821","name":"Schlundweg","postalCode":"3995","locality":"Ernen","commune":{"key":"6056","name":"Ernen","shortName":"Ernen"},"district":{"key":"2304","name":"Bezirk Goms"},"canton":{"key":"23","code":"VS","name":"Valais / Wallis"},"status":"Real"},{"key":"10207535","name":"Schulhausstrasse","postalCode":"8499","locality":"Sternenberg","commune":{"key":"4726","name":"Fischingen","shortName":"Fischingen"},"district":{"key":"2014","name":"Bezirk Münchwilen"},"canton":{"key":"20","code":"TG","name":"Thurgau"},"status":"Real"},{"key":"10207536","name":"Schürlistrasse","postalCode":"8499","locality":"Sternenberg","commune":{"key":"4726","name":"Fischingen","shortName":"Fischingen"},"district":{"key":"2014","name":"Bezirk Münchwilen"},"canton":{"key":"20","code":"TG","name":"Thurgau"},"status":"Real"},{"key":"10248126","name":"Schwendi","postalCode":"8499","locality":"Sternenberg","commune":{"key":"4726","name":"Fischingen","shortName":"Fischingen"},"district":{"key":"2014","name":"Bezirk Münchwilen"},"canton":{"key":"20","code":"TG","name":"Thurgau"},"status":"Real"},{"key":"10246840","name":"Sengweg","postalCode":"3995","locality":"Ernen","commune":{"key":"6056","name":"Ernen","shortName":"Ernen"},"district":{"key":"2304","name":"Bezirk Goms"},"canton":{"key":"23","code":"VS","name":"Valais / Wallis"},"status":"Real"},{"key":"10207537","name":"Spältrütistrasse","postalCode":"8499","locality":"Sternenberg","commune":{"key":"4726","name":"Fischingen","shortName":"Fischingen"},"district":{"key":"2014","name":"Bezirk Münchwilen"},"canton":{"key":"20","code":"TG","name":"Thurgau"},"status":"Real"},{"key":"10246808","name":"Staaleweg","postalCode":"3995","locality":"Ernen","commune":{"key":"6056","name":"Ernen","shortName":"Ernen"},"district":{"key":"2304","name":"Bezirk Goms"},"canton":{"key":"23","code":"VS","name":"Valais / Wallis"},"status":"Real"},{"key":"10199364","name":"Steine","postalCode":"8499","locality":"Sternenberg","commune":{"key":"4726","name":"Fischingen","shortName":"Fischingen"},"district":{"key":"2014","name":"Bezirk Münchwilen"},"canton":{"key":"20","code":"TG","name":"Thurgau"},"status":"Real"},{"key":"10205553","name":"Steinenbachstrasse","postalCode":"8499","locality":"Sternenberg","commune":{"key":"4726","name":"Fischingen","shortName":"Fischingen"},"district":{"key":"2014","name":"Bezirk Münchwilen"},"canton":{"key":"20","code":"TG","name":"Thurgau"},"status":"Real"},{"key":"10207538","name":"Sternenstrasse","postalCode":"8499","locality":"Sternenberg","commune":{"key":"4726","name":"Fischingen","shortName":"Fischingen"},"district":{"key":"2014","name":"Bezirk Münchwilen"},"canton":{"key":"20","code":"TG","name":"Thurgau"},"status":"Real"},{"key":"10205554","name":"Stierweidweg","postalCode":"8499","locality":"Sternenberg","commune":{"key":"4726","name":"Fischingen","shortName":"Fischingen"},"district":{"key":"2014","name":"Bezirk Münchwilen"},"canton":{"key":"20","code":"TG","name":"Thurgau"},"status":"Real"},{"key":"10246822","name":"St. Katharinenbodenweg","postalCode":"3995","locality":"Ernen","commune":{"key":"6056","name":"Ernen","shortName":"Ernen"},"district":{"key":"2304","name":"Bezirk Goms"},"canton":{"key":"23","code":"VS","name":"Valais / Wallis"},"status":"Real"},{"key":"10205555","name":"Stutzenrütistrasse","postalCode":"8499","locality":"Sternenberg","commune":{"key":"4726","name":"Fischingen","shortName":"Fischingen"},"district":{"key":"2014","name":"Bezirk Münchwilen"},"canton":{"key":"20","code":"TG","name":"Thurgau"},"status":"Real"},{"key":"10199382","name":"Stutzweid","postalCode":"8499","locality":"Sternenberg","commune":{"key":"4726","name":"Fischingen","shortName":"Fischingen"},"district":{"key":"2014","name":"Bezirk Münchwilen"},"canton":{"key":"20","code":"TG","name":"Thurgau"},"status":"Real"},{"key":"10119796","name":"Sülchstrasse","postalCode":"8499","locality":"Sternenberg","commune":{"key":"4726","name":"Fischingen","shortName":"Fischingen"},"district":{"key":"2014","name":"Bezirk Münchwilen"},"canton":{"key":"20","code":"TG","name":"Thurgau"},"status":"Real"},{"key":"10207753","name":"Tiefmoosstrasse","postalCode":"8499","locality":"Sternenberg","commune":{"key":"4726","name":"Fischingen","shortName":"Fischingen"},"district":{"key":"2014","name":"Bezirk Münchwilen"},"canton":{"key":"20","code":"TG","name":"Thurgau"},"status":"Real"},{"key":"10244705","name":"Töbeliweg","postalCode":"8499","locality":"Sternenberg","commune":{"key":"4726","name":"Fischingen","shortName":"Fischingen"},"district":{"key":"2014","name":"Bezirk Münchwilen"},"canton":{"key":"20","code":"TG","name":"Thurgau"},"status":"Real"},{"key":"10246830","name":"Truseraweg","postalCode":"3995","locality":"Ernen","commune":{"key":"6056","name":"Ernen","shortName":"Ernen"},"district":{"key":"2304","name":"Bezirk Goms"},"canton":{"key":"23","code":"VS","name":"Valais / Wallis"},"status":"Real"},{"key":"10246815","name":"Ubermossweg","postalCode":"3995","locality":"Ernen","commune":{"key":"6056","name":"Ernen","shortName":"Ernen"},"district":{"key":"2304","name":"Bezirk Goms"},"canton":{"key":"23","code":"VS","name":"Valais / Wallis"},"status":"Real"},{"key":"10065557","name":"Untere Heurüti","postalCode":"8499","locality":"Sternenberg","commune":{"key":"4726","name":"Fischingen","shortName":"Fischingen"},"district":{"key":"2014","name":"Bezirk Münchwilen"},"canton":{"key":"20","code":"TG","name":"Thurgau"},"status":"Real"},{"key":"10205556","name":"Untere Langfurri","postalCode":"8499","locality":"Sternenberg","commune":{"key":"4726","name":"Fischingen","shortName":"Fischingen"},"district":{"key":"2014","name":"Bezirk Münchwilen"},"canton":{"key":"20","code":"TG","name":"Thurgau"},"status":"Real"},{"key":"10179258","name":"Untere Matt","postalCode":"8499","locality":"Sternenberg","commune":{"key":"4726","name":"Fischingen","shortName":"Fischingen"},"district":{"key":"2014","name":"Bezirk Münchwilen"},"canton":{"key":"20","code":"TG","name":"Thurgau"},"status":"Real"},{"key":"10052269","name":"Widenwald","postalCode":"8499","locality":"Sternenberg","commune":{"key":"4726","name":"Fischingen","shortName":"Fischingen"},"district":{"key":"2014","name":"Bezirk Münchwilen"},"canton":{"key":"20","code":"TG","name":"Thurgau"},"status":"Real"},{"key":"10120583","name":"Widmatte","postalCode":"3309","locality":"Kernenried","commune":{"key":"411","name":"Kernenried","shortName":"Kernenried"},"district":{"key":"245","name":"Verwaltungskreis Emmental"},"canton":{"key":"2","code":"BE","name":"Bern / Berne"},"status":"Real"},{"key":"10207754","name":"Wolfenzädelstrasse","postalCode":"8499","locality":"Sternenberg","commune":{"key":"4726","name":"Fischingen","shortName":"Fischingen"},"district":{"key":"2014","name":"Bezirk Münchwilen"},"canton":{"key":"20","code":"TG","name":"Thurgau"},"status":"Real"},{"key":"10179275","name":"Z.A. du Tintébin","postalCode":"1687","locality":"Vuisternens-devant-Romont","commune":{"key":"2113","name":"Vuisternens-devant-Romont","shortName":"Vuisternens-dev-Romont"},"district":{"key":"1002","name":"District de la Glâne"},"canton":{"key":"10","code":"FR","name":"Fribourg / Freiburg"},"status":"Real"},{"key":"10207539","name":"Zapfenstrasse","postalCode":"8499","locality":"Sternenberg","commune":{"key":"4726","name":"Fischingen","shortName":"Fischingen"},"district":{"key":"2014","name":"Bezirk Münchwilen"},"canton":{"key":"20","code":"TG","name":"Thurgau"},"status":"Real"},{"key":"10246836","name":"Z Brigg","postalCode":"3995","locality":"Ernen","commune":{"key":"6056","name":"Ernen","shortName":"Ernen"},"district":{"key":"2304","name":"Bezirk Goms"},"canton":{"key":"23","code":"VS","name":"Valais / Wallis"},"status":"Real"},{"key":"10246810","name":"Zimmerschgadenstrasse","postalCode":"3995","locality":"Ernen","commune":{"key":"6056","name":"Ernen","shortName":"Ernen"},"district":{"key":"2304","name":"Bezirk Goms"},"canton":{"key":"23","code":"VS","name":"Valais / Wallis"},"status":"Real"},{"key":"10207550","name":"Äspenstrasse","postalCode":"8499","locality":"Sternenberg","commune":{"key":"4726","name":"Fischingen","shortName":"Fischingen"},"district":{"key":"2014","name":"Bezirk Münchwilen"},"canton":{"key":"20","code":"TG","name":"Thurgau"},"status":"Real"},]