[{"name":"Gartenstr.","postalCode":"56357","locality":"Oberwallmenach","municipality":{"key":"07141105","name":"Oberwallmenach","type":"Kreisangehörige_Gemeinde"},"district":{"key":"07141","name":"Rhein-Lahn-Kreis","type":"Landkreis"},"federalState":{"key":"07","name":"Rheinland-Pfalz"}},{"name":"Hauptstr.","postalCode":"56357","locality":"Oberwallmenach","municipality":{"key":"07141105","name":"Oberwallmenach","type":"Kreisangehörige_Gemeinde"},"district":{"key":"07141","name":"Rhein-Lahn-Kreis","type":"Landkreis"},"federalState":{"key":"07","name":"Rheinland-Pfalz"}},{"name":"Hessenstr.","postalCode":"56357","locality":"Oberwallmenach","municipality":{"key":"07141105","name":"Oberwallmenach","type":"Kreisangehörige_Gemeinde"},"district":{"key":"07141","name":"Rhein-Lahn-Kreis","type":"Landkreis"},"federalState":{"key":"07","name":"Rheinland-Pfalz"}},{"name":"Hochstr.","postalCode":"56357","locality":"Oberwallmenach","municipality":{"key":"07141105","name":"Oberwallmenach","type":"Kreisangehörige_Gemeinde"},"district":{"key":"07141","name":"Rhein-Lahn-Kreis","type":"Landkreis"},"federalState":{"key":"07","name":"Rheinland-Pfalz"}},{"name":"Kirchweg","postalCode":"56357","locality":"Oberwallmenach","municipality":{"key":"07141105","name":"Oberwallmenach","type":"Kreisangehörige_Gemeinde"},"district":{"key":"07141","name":"Rhein-Lahn-Kreis","type":"Landkreis"},"federalState":{"key":"07","name":"Rheinland-Pfalz"}},{"name":"Lindenstr.","postalCode":"56357","locality":"Oberwallmenach","municipality":{"key":"07141105","name":"Oberwallmenach","type":"Kreisangehörige_Gemeinde"},"district":{"key":"07141","name":"Rhein-Lahn-Kreis","type":"Landkreis"},"federalState":{"key":"07","name":"Rheinland-Pfalz"}},{"name":"Mittelstr.","postalCode":"56357","locality":"Oberwallmenach","municipality":{"key":"07141105","name":"Oberwallmenach","type":"Kreisangehörige_Gemeinde"},"district":{"key":"07141","name":"Rhein-Lahn-Kreis","type":"Landkreis"},"federalState":{"key":"07","name":"Rheinland-Pfalz"}},{"name":"Rheingaustr.","postalCode":"56357","locality":"Oberwallmenach","municipality":{"key":"07141105","name":"Oberwallmenach","type":"Kreisangehörige_Gemeinde"},"district":{"key":"07141","name":"Rhein-Lahn-Kreis","type":"Landkreis"},"federalState":{"key":"07","name":"Rheinland-Pfalz"}},{"name":"Taunusstr.","postalCode":"56357","locality":"Oberwallmenach","municipality":{"key":"07141105","name":"Oberwallmenach","type":"Kreisangehörige_Gemeinde"},"district":{"key":"07141","name":"Rhein-Lahn-Kreis","type":"Landkreis"},"federalState":{"key":"07","name":"Rheinland-Pfalz"}},{"name":"Waldstr.","postalCode":"56357","locality":"Oberwallmenach","municipality":{"key":"07141105","name":"Oberwallmenach","type":"Kreisangehörige_Gemeinde"},"district":{"key":"07141","name":"Rhein-Lahn-Kreis","type":"Landkreis"},"federalState":{"key":"07","name":"Rheinland-Pfalz"}},{"name":"Zum Wiesengrund","postalCode":"56357","locality":"Oberwallmenach","municipality":{"key":"07141105","name":"Oberwallmenach","type":"Kreisangehörige_Gemeinde"},"district":{"key":"07141","name":"Rhein-Lahn-Kreis","type":"Landkreis"},"federalState":{"key":"07","name":"Rheinland-Pfalz"}},]