[{"name":"1. Wasserstr.","postalCode":"19089","locality":"Crivitz","municipality":{"key":"13076025","name":"Crivitz, Stadt","type":"Stadt"},"district":{"key":"13076","name":"Ludwigslust-Parchim","type":"Landkreis"},"federalState":{"key":"13","name":"Mecklenburg-Vorpommern"}},{"name":"2. Wasserstr.","postalCode":"19089","locality":"Crivitz","municipality":{"key":"13076025","name":"Crivitz, Stadt","type":"Stadt"},"district":{"key":"13076","name":"Ludwigslust-Parchim","type":"Landkreis"},"federalState":{"key":"13","name":"Mecklenburg-Vorpommern"}},{"name":"3. Wasserstr.","postalCode":"19089","locality":"Crivitz","municipality":{"key":"13076025","name":"Crivitz, Stadt","type":"Stadt"},"district":{"key":"13076","name":"Ludwigslust-Parchim","type":"Landkreis"},"federalState":{"key":"13","name":"Mecklenburg-Vorpommern"}},{"name":"Ahornweg","postalCode":"19089","locality":"Crivitz","municipality":{"key":"13076025","name":"Crivitz, Stadt","type":"Stadt"},"district":{"key":"13076","name":"Ludwigslust-Parchim","type":"Landkreis"},"federalState":{"key":"13","name":"Mecklenburg-Vorpommern"}},{"name":"Am Bahnhof","postalCode":"19089","locality":"Crivitz","municipality":{"key":"13076025","name":"Crivitz, Stadt","type":"Stadt"},"district":{"key":"13076","name":"Ludwigslust-Parchim","type":"Landkreis"},"federalState":{"key":"13","name":"Mecklenburg-Vorpommern"}},{"name":"Am Basthorst","postalCode":"19089","locality":"Crivitz","municipality":{"key":"13076025","name":"Crivitz, Stadt","type":"Stadt"},"district":{"key":"13076","name":"Ludwigslust-Parchim","type":"Landkreis"},"federalState":{"key":"13","name":"Mecklenburg-Vorpommern"}},{"name":"Am Bruch","postalCode":"19089","locality":"Crivitz","municipality":{"key":"13076025","name":"Crivitz, Stadt","type":"Stadt"},"district":{"key":"13076","name":"Ludwigslust-Parchim","type":"Landkreis"},"federalState":{"key":"13","name":"Mecklenburg-Vorpommern"}},{"name":"Am Güterbahnhof","postalCode":"19089","locality":"Crivitz","municipality":{"key":"13076025","name":"Crivitz, Stadt","type":"Stadt"},"district":{"key":"13076","name":"Ludwigslust-Parchim","type":"Landkreis"},"federalState":{"key":"13","name":"Mecklenburg-Vorpommern"}},{"name":"Am Kirchberg","postalCode":"19089","locality":"Crivitz","municipality":{"key":"13076025","name":"Crivitz, Stadt","type":"Stadt"},"district":{"key":"13076","name":"Ludwigslust-Parchim","type":"Landkreis"},"federalState":{"key":"13","name":"Mecklenburg-Vorpommern"}},{"name":"Am Krebsgarten","postalCode":"19089","locality":"Crivitz","municipality":{"key":"13076025","name":"Crivitz, Stadt","type":"Stadt"},"district":{"key":"13076","name":"Ludwigslust-Parchim","type":"Landkreis"},"federalState":{"key":"13","name":"Mecklenburg-Vorpommern"}},{"name":"Am Kulturhaus","postalCode":"19089","locality":"Crivitz","municipality":{"key":"13076025","name":"Crivitz, Stadt","type":"Stadt"},"district":{"key":"13076","name":"Ludwigslust-Parchim","type":"Landkreis"},"federalState":{"key":"13","name":"Mecklenburg-Vorpommern"}},{"name":"Am Markt","postalCode":"19089","locality":"Crivitz","municipality":{"key":"13076025","name":"Crivitz, Stadt","type":"Stadt"},"district":{"key":"13076","name":"Ludwigslust-Parchim","type":"Landkreis"},"federalState":{"key":"13","name":"Mecklenburg-Vorpommern"}},{"name":"Am Militzsee","postalCode":"19089","locality":"Crivitz","municipality":{"key":"13076025","name":"Crivitz, Stadt","type":"Stadt"},"district":{"key":"13076","name":"Ludwigslust-Parchim","type":"Landkreis"},"federalState":{"key":"13","name":"Mecklenburg-Vorpommern"}},{"name":"Am Sonnenberg","postalCode":"19089","locality":"Crivitz","municipality":{"key":"13076025","name":"Crivitz, Stadt","type":"Stadt"},"district":{"key":"13076","name":"Ludwigslust-Parchim","type":"Landkreis"},"federalState":{"key":"13","name":"Mecklenburg-Vorpommern"}},{"name":"Amtsstr.","postalCode":"19089","locality":"Crivitz","municipality":{"key":"13076025","name":"Crivitz, Stadt","type":"Stadt"},"district":{"key":"13076","name":"Ludwigslust-Parchim","type":"Landkreis"},"federalState":{"key":"13","name":"Mecklenburg-Vorpommern"}},{"name":"An der Bahnstrecke","postalCode":"19089","locality":"Crivitz","municipality":{"key":"13076025","name":"Crivitz, Stadt","type":"Stadt"},"district":{"key":"13076","name":"Ludwigslust-Parchim","type":"Landkreis"},"federalState":{"key":"13","name":"Mecklenburg-Vorpommern"}},{"name":"An der Warnow","postalCode":"19089","locality":"Crivitz","municipality":{"key":"13076025","name":"Crivitz, Stadt","type":"Stadt"},"district":{"key":"13076","name":"Ludwigslust-Parchim","type":"Landkreis"},"federalState":{"key":"13","name":"Mecklenburg-Vorpommern"}},{"name":"Bahnhofstr.","postalCode":"19089","locality":"Crivitz","municipality":{"key":"13076025","name":"Crivitz, Stadt","type":"Stadt"},"district":{"key":"13076","name":"Ludwigslust-Parchim","type":"Landkreis"},"federalState":{"key":"13","name":"Mecklenburg-Vorpommern"}},{"name":"Basthorster Weg","postalCode":"19089","locality":"Crivitz","municipality":{"key":"13076025","name":"Crivitz, Stadt","type":"Stadt"},"district":{"key":"13076","name":"Ludwigslust-Parchim","type":"Landkreis"},"federalState":{"key":"13","name":"Mecklenburg-Vorpommern"}},{"name":"Bergstr.","postalCode":"19089","locality":"Crivitz","municipality":{"key":"13076025","name":"Crivitz, Stadt","type":"Stadt"},"district":{"key":"13076","name":"Ludwigslust-Parchim","type":"Landkreis"},"federalState":{"key":"13","name":"Mecklenburg-Vorpommern"}},{"name":"Bleicherstr.","postalCode":"19089","locality":"Crivitz","municipality":{"key":"13076025","name":"Crivitz, Stadt","type":"Stadt"},"district":{"key":"13076","name":"Ludwigslust-Parchim","type":"Landkreis"},"federalState":{"key":"13","name":"Mecklenburg-Vorpommern"}},{"name":"Breite Str.","postalCode":"19089","locality":"Crivitz","municipality":{"key":"13076025","name":"Crivitz, Stadt","type":"Stadt"},"district":{"key":"13076","name":"Ludwigslust-Parchim","type":"Landkreis"},"federalState":{"key":"13","name":"Mecklenburg-Vorpommern"}},{"name":"Brüeler Str.","postalCode":"19089","locality":"Crivitz","municipality":{"key":"13076025","name":"Crivitz, Stadt","type":"Stadt"},"district":{"key":"13076","name":"Ludwigslust-Parchim","type":"Landkreis"},"federalState":{"key":"13","name":"Mecklenburg-Vorpommern"}},{"name":"Bülower Str.","postalCode":"19089","locality":"Crivitz","municipality":{"key":"13076025","name":"Crivitz, Stadt","type":"Stadt"},"district":{"key":"13076","name":"Ludwigslust-Parchim","type":"Landkreis"},"federalState":{"key":"13","name":"Mecklenburg-Vorpommern"}},{"name":"Bürgerholz","postalCode":"19089","locality":"Crivitz","municipality":{"key":"13076025","name":"Crivitz, Stadt","type":"Stadt"},"district":{"key":"13076","name":"Ludwigslust-Parchim","type":"Landkreis"},"federalState":{"key":"13","name":"Mecklenburg-Vorpommern"}},{"name":"Crivitz Arboretum","postalCode":"19089","locality":"Crivitz","municipality":{"key":"13076025","name":"Crivitz, Stadt","type":"Stadt"},"district":{"key":"13076","name":"Ludwigslust-Parchim","type":"Landkreis"},"federalState":{"key":"13","name":"Mecklenburg-Vorpommern"}},{"name":"Crivitzer Str.","postalCode":"19089","locality":"Crivitz","municipality":{"key":"13076025","name":"Crivitz, Stadt","type":"Stadt"},"district":{"key":"13076","name":"Ludwigslust-Parchim","type":"Landkreis"},"federalState":{"key":"13","name":"Mecklenburg-Vorpommern"}},{"name":"Crivitzer Weg","postalCode":"19089","locality":"Crivitz","municipality":{"key":"13076025","name":"Crivitz, Stadt","type":"Stadt"},"district":{"key":"13076","name":"Ludwigslust-Parchim","type":"Landkreis"},"federalState":{"key":"13","name":"Mecklenburg-Vorpommern"}},{"name":"Dorfstr.","postalCode":"19089","locality":"Crivitz","municipality":{"key":"13076025","name":"Crivitz, Stadt","type":"Stadt"},"district":{"key":"13076","name":"Ludwigslust-Parchim","type":"Landkreis"},"federalState":{"key":"13","name":"Mecklenburg-Vorpommern"}},{"name":"Drosselweg","postalCode":"19089","locality":"Crivitz","municipality":{"key":"13076025","name":"Crivitz, Stadt","type":"Stadt"},"district":{"key":"13076","name":"Ludwigslust-Parchim","type":"Landkreis"},"federalState":{"key":"13","name":"Mecklenburg-Vorpommern"}},{"name":"Eichholzstr.","postalCode":"19089","locality":"Crivitz","municipality":{"key":"13076025","name":"Crivitz, Stadt","type":"Stadt"},"district":{"key":"13076","name":"Ludwigslust-Parchim","type":"Landkreis"},"federalState":{"key":"13","name":"Mecklenburg-Vorpommern"}},{"name":"Finkenweg","postalCode":"19089","locality":"Crivitz","municipality":{"key":"13076025","name":"Crivitz, Stadt","type":"Stadt"},"district":{"key":"13076","name":"Ludwigslust-Parchim","type":"Landkreis"},"federalState":{"key":"13","name":"Mecklenburg-Vorpommern"}},{"name":"Fischerstr.","postalCode":"19089","locality":"Crivitz","municipality":{"key":"13076025","name":"Crivitz, Stadt","type":"Stadt"},"district":{"key":"13076","name":"Ludwigslust-Parchim","type":"Landkreis"},"federalState":{"key":"13","name":"Mecklenburg-Vorpommern"}},{"name":"Freiheitsallee","postalCode":"19089","locality":"Crivitz","municipality":{"key":"13076025","name":"Crivitz, Stadt","type":"Stadt"},"district":{"key":"13076","name":"Ludwigslust-Parchim","type":"Landkreis"},"federalState":{"key":"13","name":"Mecklenburg-Vorpommern"}},{"name":"Friedensstr.","postalCode":"19089","locality":"Crivitz","municipality":{"key":"13076025","name":"Crivitz, Stadt","type":"Stadt"},"district":{"key":"13076","name":"Ludwigslust-Parchim","type":"Landkreis"},"federalState":{"key":"13","name":"Mecklenburg-Vorpommern"}},{"name":"Fritz-Reuter-Str.","postalCode":"19089","locality":"Crivitz","municipality":{"key":"13076025","name":"Crivitz, Stadt","type":"Stadt"},"district":{"key":"13076","name":"Ludwigslust-Parchim","type":"Landkreis"},"federalState":{"key":"13","name":"Mecklenburg-Vorpommern"}},{"name":"Fronereiweg","postalCode":"19089","locality":"Crivitz","municipality":{"key":"13076025","name":"Crivitz, Stadt","type":"Stadt"},"district":{"key":"13076","name":"Ludwigslust-Parchim","type":"Landkreis"},"federalState":{"key":"13","name":"Mecklenburg-Vorpommern"}},{"name":"Gädebehner Str.","postalCode":"19089","locality":"Crivitz","municipality":{"key":"13076025","name":"Crivitz, Stadt","type":"Stadt"},"district":{"key":"13076","name":"Ludwigslust-Parchim","type":"Landkreis"},"federalState":{"key":"13","name":"Mecklenburg-Vorpommern"}},{"name":"Gartenstr.","postalCode":"19089","locality":"Crivitz","municipality":{"key":"13076025","name":"Crivitz, Stadt","type":"Stadt"},"district":{"key":"13076","name":"Ludwigslust-Parchim","type":"Landkreis"},"federalState":{"key":"13","name":"Mecklenburg-Vorpommern"}},{"name":"Geschwister-Scholl-Platz","postalCode":"19089","locality":"Crivitz","municipality":{"key":"13076025","name":"Crivitz, Stadt","type":"Stadt"},"district":{"key":"13076","name":"Ludwigslust-Parchim","type":"Landkreis"},"federalState":{"key":"13","name":"Mecklenburg-Vorpommern"}},{"name":"Gewerbeallee","postalCode":"19089","locality":"Crivitz","municipality":{"key":"13076025","name":"Crivitz, Stadt","type":"Stadt"},"district":{"key":"13076","name":"Ludwigslust-Parchim","type":"Landkreis"},"federalState":{"key":"13","name":"Mecklenburg-Vorpommern"}},{"name":"Gimpelweg","postalCode":"19089","locality":"Crivitz","municipality":{"key":"13076025","name":"Crivitz, Stadt","type":"Stadt"},"district":{"key":"13076","name":"Ludwigslust-Parchim","type":"Landkreis"},"federalState":{"key":"13","name":"Mecklenburg-Vorpommern"}},{"name":"Goethestr.","postalCode":"19089","locality":"Crivitz","municipality":{"key":"13076025","name":"Crivitz, Stadt","type":"Stadt"},"district":{"key":"13076","name":"Ludwigslust-Parchim","type":"Landkreis"},"federalState":{"key":"13","name":"Mecklenburg-Vorpommern"}},{"name":"Goldberger Chaussee","postalCode":"19089","locality":"Crivitz","municipality":{"key":"13076025","name":"Crivitz, Stadt","type":"Stadt"},"district":{"key":"13076","name":"Ludwigslust-Parchim","type":"Landkreis"},"federalState":{"key":"13","name":"Mecklenburg-Vorpommern"}},{"name":"Goldberger Str.","postalCode":"19089","locality":"Crivitz","municipality":{"key":"13076025","name":"Crivitz, Stadt","type":"Stadt"},"district":{"key":"13076","name":"Ludwigslust-Parchim","type":"Landkreis"},"federalState":{"key":"13","name":"Mecklenburg-Vorpommern"}},{"name":"Große Str.","postalCode":"19089","locality":"Crivitz","municipality":{"key":"13076025","name":"Crivitz, Stadt","type":"Stadt"},"district":{"key":"13076","name":"Ludwigslust-Parchim","type":"Landkreis"},"federalState":{"key":"13","name":"Mecklenburg-Vorpommern"}},{"name":"Grüne Str.","postalCode":"19089","locality":"Crivitz","municipality":{"key":"13076025","name":"Crivitz, Stadt","type":"Stadt"},"district":{"key":"13076","name":"Ludwigslust-Parchim","type":"Landkreis"},"federalState":{"key":"13","name":"Mecklenburg-Vorpommern"}},{"name":"Hainbuchenweg","postalCode":"19089","locality":"Crivitz","municipality":{"key":"13076025","name":"Crivitz, Stadt","type":"Stadt"},"district":{"key":"13076","name":"Ludwigslust-Parchim","type":"Landkreis"},"federalState":{"key":"13","name":"Mecklenburg-Vorpommern"}},{"name":"Kapellensteig","postalCode":"19089","locality":"Crivitz","municipality":{"key":"13076025","name":"Crivitz, Stadt","type":"Stadt"},"district":{"key":"13076","name":"Ludwigslust-Parchim","type":"Landkreis"},"federalState":{"key":"13","name":"Mecklenburg-Vorpommern"}},{"name":"Kiebitzviertel","postalCode":"19089","locality":"Crivitz","municipality":{"key":"13076025","name":"Crivitz, Stadt","type":"Stadt"},"district":{"key":"13076","name":"Ludwigslust-Parchim","type":"Landkreis"},"federalState":{"key":"13","name":"Mecklenburg-Vorpommern"}},{"name":"Kirchenstr.","postalCode":"19089","locality":"Crivitz","municipality":{"key":"13076025","name":"Crivitz, Stadt","type":"Stadt"},"district":{"key":"13076","name":"Ludwigslust-Parchim","type":"Landkreis"},"federalState":{"key":"13","name":"Mecklenburg-Vorpommern"}},{"name":"Kladower Weg","postalCode":"19089","locality":"Crivitz","municipality":{"key":"13076025","name":"Crivitz, Stadt","type":"Stadt"},"district":{"key":"13076","name":"Ludwigslust-Parchim","type":"Landkreis"},"federalState":{"key":"13","name":"Mecklenburg-Vorpommern"}},{"name":"Krudopp","postalCode":"19089","locality":"Crivitz","municipality":{"key":"13076025","name":"Crivitz, Stadt","type":"Stadt"},"district":{"key":"13076","name":"Ludwigslust-Parchim","type":"Landkreis"},"federalState":{"key":"13","name":"Mecklenburg-Vorpommern"}},{"name":"Lercheneck","postalCode":"19089","locality":"Crivitz","municipality":{"key":"13076025","name":"Crivitz, Stadt","type":"Stadt"},"district":{"key":"13076","name":"Ludwigslust-Parchim","type":"Landkreis"},"federalState":{"key":"13","name":"Mecklenburg-Vorpommern"}},{"name":"Lindenallee","postalCode":"19089","locality":"Crivitz","municipality":{"key":"13076025","name":"Crivitz, Stadt","type":"Stadt"},"district":{"key":"13076","name":"Ludwigslust-Parchim","type":"Landkreis"},"federalState":{"key":"13","name":"Mecklenburg-Vorpommern"}},{"name":"Lindenstr.","postalCode":"19089","locality":"Crivitz","municipality":{"key":"13076025","name":"Crivitz, Stadt","type":"Stadt"},"district":{"key":"13076","name":"Ludwigslust-Parchim","type":"Landkreis"},"federalState":{"key":"13","name":"Mecklenburg-Vorpommern"}},{"name":"Mauerstr.","postalCode":"19089","locality":"Crivitz","municipality":{"key":"13076025","name":"Crivitz, Stadt","type":"Stadt"},"district":{"key":"13076","name":"Ludwigslust-Parchim","type":"Landkreis"},"federalState":{"key":"13","name":"Mecklenburg-Vorpommern"}},{"name":"Mehlbeerenweg","postalCode":"19089","locality":"Crivitz","municipality":{"key":"13076025","name":"Crivitz, Stadt","type":"Stadt"},"district":{"key":"13076","name":"Ludwigslust-Parchim","type":"Landkreis"},"federalState":{"key":"13","name":"Mecklenburg-Vorpommern"}},{"name":"Milanring","postalCode":"19089","locality":"Crivitz","municipality":{"key":"13076025","name":"Crivitz, Stadt","type":"Stadt"},"district":{"key":"13076","name":"Ludwigslust-Parchim","type":"Landkreis"},"federalState":{"key":"13","name":"Mecklenburg-Vorpommern"}},{"name":"Molkereistr.","postalCode":"19089","locality":"Crivitz","municipality":{"key":"13076025","name":"Crivitz, Stadt","type":"Stadt"},"district":{"key":"13076","name":"Ludwigslust-Parchim","type":"Landkreis"},"federalState":{"key":"13","name":"Mecklenburg-Vorpommern"}},{"name":"Moorwiesenweg","postalCode":"19089","locality":"Crivitz","municipality":{"key":"13076025","name":"Crivitz, Stadt","type":"Stadt"},"district":{"key":"13076","name":"Ludwigslust-Parchim","type":"Landkreis"},"federalState":{"key":"13","name":"Mecklenburg-Vorpommern"}},{"name":"MTS-Siedlung","postalCode":"19089","locality":"Crivitz","municipality":{"key":"13076025","name":"Crivitz, Stadt","type":"Stadt"},"district":{"key":"13076","name":"Ludwigslust-Parchim","type":"Landkreis"},"federalState":{"key":"13","name":"Mecklenburg-Vorpommern"}},{"name":"Muchelwitzer Weg","postalCode":"19089","locality":"Crivitz","municipality":{"key":"13076025","name":"Crivitz, Stadt","type":"Stadt"},"district":{"key":"13076","name":"Ludwigslust-Parchim","type":"Landkreis"},"federalState":{"key":"13","name":"Mecklenburg-Vorpommern"}},{"name":"Mühlenbergstr.","postalCode":"19089","locality":"Crivitz","municipality":{"key":"13076025","name":"Crivitz, Stadt","type":"Stadt"},"district":{"key":"13076","name":"Ludwigslust-Parchim","type":"Landkreis"},"federalState":{"key":"13","name":"Mecklenburg-Vorpommern"}},{"name":"Pappelweg","postalCode":"19089","locality":"Crivitz","municipality":{"key":"13076025","name":"Crivitz, Stadt","type":"Stadt"},"district":{"key":"13076","name":"Ludwigslust-Parchim","type":"Landkreis"},"federalState":{"key":"13","name":"Mecklenburg-Vorpommern"}},{"name":"Parchimer Str.","postalCode":"19089","locality":"Crivitz","municipality":{"key":"13076025","name":"Crivitz, Stadt","type":"Stadt"},"district":{"key":"13076","name":"Ludwigslust-Parchim","type":"Landkreis"},"federalState":{"key":"13","name":"Mecklenburg-Vorpommern"}},{"name":"Parkweg","postalCode":"19089","locality":"Crivitz","municipality":{"key":"13076025","name":"Crivitz, Stadt","type":"Stadt"},"district":{"key":"13076","name":"Ludwigslust-Parchim","type":"Landkreis"},"federalState":{"key":"13","name":"Mecklenburg-Vorpommern"}},{"name":"Plantagenweg","postalCode":"19089","locality":"Crivitz","municipality":{"key":"13076025","name":"Crivitz, Stadt","type":"Stadt"},"district":{"key":"13076","name":"Ludwigslust-Parchim","type":"Landkreis"},"federalState":{"key":"13","name":"Mecklenburg-Vorpommern"}},{"name":"Rabahnweg","postalCode":"19089","locality":"Crivitz","municipality":{"key":"13076025","name":"Crivitz, Stadt","type":"Stadt"},"district":{"key":"13076","name":"Ludwigslust-Parchim","type":"Landkreis"},"federalState":{"key":"13","name":"Mecklenburg-Vorpommern"}},{"name":"Rathausstr.","postalCode":"19089","locality":"Crivitz","municipality":{"key":"13076025","name":"Crivitz, Stadt","type":"Stadt"},"district":{"key":"13076","name":"Ludwigslust-Parchim","type":"Landkreis"},"federalState":{"key":"13","name":"Mecklenburg-Vorpommern"}},{"name":"Rehagen","postalCode":"19089","locality":"Crivitz","municipality":{"key":"13076025","name":"Crivitz, Stadt","type":"Stadt"},"district":{"key":"13076","name":"Ludwigslust-Parchim","type":"Landkreis"},"federalState":{"key":"13","name":"Mecklenburg-Vorpommern"}},{"name":"Ringstr.","postalCode":"19089","locality":"Crivitz","municipality":{"key":"13076025","name":"Crivitz, Stadt","type":"Stadt"},"district":{"key":"13076","name":"Ludwigslust-Parchim","type":"Landkreis"},"federalState":{"key":"13","name":"Mecklenburg-Vorpommern"}},{"name":"Rönkendorfer Mühle","postalCode":"19089","locality":"Crivitz","municipality":{"key":"13076025","name":"Crivitz, Stadt","type":"Stadt"},"district":{"key":"13076","name":"Ludwigslust-Parchim","type":"Landkreis"},"federalState":{"key":"13","name":"Mecklenburg-Vorpommern"}},{"name":"Rönkenhofer Weg","postalCode":"19089","locality":"Crivitz","municipality":{"key":"13076025","name":"Crivitz, Stadt","type":"Stadt"},"district":{"key":"13076","name":"Ludwigslust-Parchim","type":"Landkreis"},"federalState":{"key":"13","name":"Mecklenburg-Vorpommern"}},{"name":"Rosenstr.","postalCode":"19089","locality":"Crivitz","municipality":{"key":"13076025","name":"Crivitz, Stadt","type":"Stadt"},"district":{"key":"13076","name":"Ludwigslust-Parchim","type":"Landkreis"},"federalState":{"key":"13","name":"Mecklenburg-Vorpommern"}},{"name":"Rudolf-Breitscheid-Str.","postalCode":"19089","locality":"Crivitz","municipality":{"key":"13076025","name":"Crivitz, Stadt","type":"Stadt"},"district":{"key":"13076","name":"Ludwigslust-Parchim","type":"Landkreis"},"federalState":{"key":"13","name":"Mecklenburg-Vorpommern"}},{"name":"Samelower Weg","postalCode":"19089","locality":"Crivitz","municipality":{"key":"13076025","name":"Crivitz, Stadt","type":"Stadt"},"district":{"key":"13076","name":"Ludwigslust-Parchim","type":"Landkreis"},"federalState":{"key":"13","name":"Mecklenburg-Vorpommern"}},{"name":"Schlossstr.","postalCode":"19089","locality":"Crivitz","municipality":{"key":"13076025","name":"Crivitz, Stadt","type":"Stadt"},"district":{"key":"13076","name":"Ludwigslust-Parchim","type":"Landkreis"},"federalState":{"key":"13","name":"Mecklenburg-Vorpommern"}},{"name":"Schulgartenweg","postalCode":"19089","locality":"Crivitz","municipality":{"key":"13076025","name":"Crivitz, Stadt","type":"Stadt"},"district":{"key":"13076","name":"Ludwigslust-Parchim","type":"Landkreis"},"federalState":{"key":"13","name":"Mecklenburg-Vorpommern"}},{"name":"Schulstr.","postalCode":"19089","locality":"Crivitz","municipality":{"key":"13076025","name":"Crivitz, Stadt","type":"Stadt"},"district":{"key":"13076","name":"Ludwigslust-Parchim","type":"Landkreis"},"federalState":{"key":"13","name":"Mecklenburg-Vorpommern"}},{"name":"Schweriner Chaussee","postalCode":"19089","locality":"Crivitz","municipality":{"key":"13076025","name":"Crivitz, Stadt","type":"Stadt"},"district":{"key":"13076","name":"Ludwigslust-Parchim","type":"Landkreis"},"federalState":{"key":"13","name":"Mecklenburg-Vorpommern"}},{"name":"Seestr.","postalCode":"19089","locality":"Crivitz","municipality":{"key":"13076025","name":"Crivitz, Stadt","type":"Stadt"},"district":{"key":"13076","name":"Ludwigslust-Parchim","type":"Landkreis"},"federalState":{"key":"13","name":"Mecklenburg-Vorpommern"}},{"name":"Sonnenweg","postalCode":"19089","locality":"Crivitz","municipality":{"key":"13076025","name":"Crivitz, Stadt","type":"Stadt"},"district":{"key":"13076","name":"Ludwigslust-Parchim","type":"Landkreis"},"federalState":{"key":"13","name":"Mecklenburg-Vorpommern"}},{"name":"Spechtweg","postalCode":"19089","locality":"Crivitz","municipality":{"key":"13076025","name":"Crivitz, Stadt","type":"Stadt"},"district":{"key":"13076","name":"Ludwigslust-Parchim","type":"Landkreis"},"federalState":{"key":"13","name":"Mecklenburg-Vorpommern"}},{"name":"Stadtrandsiedlung","postalCode":"19089","locality":"Crivitz","municipality":{"key":"13076025","name":"Crivitz, Stadt","type":"Stadt"},"district":{"key":"13076","name":"Ludwigslust-Parchim","type":"Landkreis"},"federalState":{"key":"13","name":"Mecklenburg-Vorpommern"}},{"name":"Str. der Freundschaft","postalCode":"19089","locality":"Crivitz","municipality":{"key":"13076025","name":"Crivitz, Stadt","type":"Stadt"},"district":{"key":"13076","name":"Ludwigslust-Parchim","type":"Landkreis"},"federalState":{"key":"13","name":"Mecklenburg-Vorpommern"}},{"name":"Taubenweg","postalCode":"19089","locality":"Crivitz","municipality":{"key":"13076025","name":"Crivitz, Stadt","type":"Stadt"},"district":{"key":"13076","name":"Ludwigslust-Parchim","type":"Landkreis"},"federalState":{"key":"13","name":"Mecklenburg-Vorpommern"}},{"name":"Trammer Str.","postalCode":"19089","locality":"Crivitz","municipality":{"key":"13076025","name":"Crivitz, Stadt","type":"Stadt"},"district":{"key":"13076","name":"Ludwigslust-Parchim","type":"Landkreis"},"federalState":{"key":"13","name":"Mecklenburg-Vorpommern"}},{"name":"Turmgasse","postalCode":"19089","locality":"Crivitz","municipality":{"key":"13076025","name":"Crivitz, Stadt","type":"Stadt"},"district":{"key":"13076","name":"Ludwigslust-Parchim","type":"Landkreis"},"federalState":{"key":"13","name":"Mecklenburg-Vorpommern"}},{"name":"Unter den Eichen","postalCode":"19089","locality":"Crivitz","municipality":{"key":"13076025","name":"Crivitz, Stadt","type":"Stadt"},"district":{"key":"13076","name":"Ludwigslust-Parchim","type":"Landkreis"},"federalState":{"key":"13","name":"Mecklenburg-Vorpommern"}},{"name":"Waldrandsiedlung","postalCode":"19089","locality":"Crivitz","municipality":{"key":"13076025","name":"Crivitz, Stadt","type":"Stadt"},"district":{"key":"13076","name":"Ludwigslust-Parchim","type":"Landkreis"},"federalState":{"key":"13","name":"Mecklenburg-Vorpommern"}},{"name":"Weinbergstr.","postalCode":"19089","locality":"Crivitz","municipality":{"key":"13076025","name":"Crivitz, Stadt","type":"Stadt"},"district":{"key":"13076","name":"Ludwigslust-Parchim","type":"Landkreis"},"federalState":{"key":"13","name":"Mecklenburg-Vorpommern"}},{"name":"Zapeler Weg","postalCode":"19089","locality":"Crivitz","municipality":{"key":"13076025","name":"Crivitz, Stadt","type":"Stadt"},"district":{"key":"13076","name":"Ludwigslust-Parchim","type":"Landkreis"},"federalState":{"key":"13","name":"Mecklenburg-Vorpommern"}},{"name":"Zum Sportplatz","postalCode":"19089","locality":"Crivitz","municipality":{"key":"13076025","name":"Crivitz, Stadt","type":"Stadt"},"district":{"key":"13076","name":"Ludwigslust-Parchim","type":"Landkreis"},"federalState":{"key":"13","name":"Mecklenburg-Vorpommern"}},{"name":"Zur Warnow","postalCode":"19089","locality":"Crivitz","municipality":{"key":"13076025","name":"Crivitz, Stadt","type":"Stadt"},"district":{"key":"13076","name":"Ludwigslust-Parchim","type":"Landkreis"},"federalState":{"key":"13","name":"Mecklenburg-Vorpommern"}},]