[{"key":"10087400","name":"Aecherlistrasse","postalCode":"6055","locality":"Alpnach Dorf","commune":{"key":"1401","name":"Alpnach","shortName":"Alpnach"},"district":{"key":"600","name":"Kanton Obwalden"},"canton":{"key":"6","code":"OW","name":"Obwalden"},"status":"Real"},{"key":"10010456","name":"Aeschi","postalCode":"6055","locality":"Alpnach Dorf","commune":{"key":"1401","name":"Alpnach","shortName":"Alpnach"},"district":{"key":"600","name":"Kanton Obwalden"},"canton":{"key":"6","code":"OW","name":"Obwalden"},"status":"Real"},{"key":"10145767","name":"Allmendli","postalCode":"6055","locality":"Alpnach Dorf","commune":{"key":"1401","name":"Alpnach","shortName":"Alpnach"},"district":{"key":"600","name":"Kanton Obwalden"},"canton":{"key":"6","code":"OW","name":"Obwalden"},"status":"Real"},{"key":"10010457","name":"Allmendstrasse","postalCode":"6055","locality":"Alpnach Dorf","commune":{"key":"1401","name":"Alpnach","shortName":"Alpnach"},"district":{"key":"600","name":"Kanton Obwalden"},"canton":{"key":"6","code":"OW","name":"Obwalden"},"status":"Real"},{"key":"10169546","name":"Allmendweg","postalCode":"6055","locality":"Alpnach Dorf","commune":{"key":"1401","name":"Alpnach","shortName":"Alpnach"},"district":{"key":"600","name":"Kanton Obwalden"},"canton":{"key":"6","code":"OW","name":"Obwalden"},"status":"Real"},{"key":"10114793","name":"Alpeli","postalCode":"6055","locality":"Alpnach Dorf","commune":{"key":"1401","name":"Alpnach","shortName":"Alpnach"},"district":{"key":"600","name":"Kanton Obwalden"},"canton":{"key":"6","code":"OW","name":"Obwalden"},"status":"Real"},{"key":"10071245","name":"Alprüti","postalCode":"6053","locality":"Alpnachstad","commune":{"key":"1401","name":"Alpnach","shortName":"Alpnach"},"district":{"key":"600","name":"Kanton Obwalden"},"canton":{"key":"6","code":"OW","name":"Obwalden"},"status":"Real"},{"key":"10185582","name":"Alte Landstrasse","postalCode":"6055","locality":"Alpnach Dorf","commune":{"key":"1401","name":"Alpnach","shortName":"Alpnach"},"district":{"key":"600","name":"Kanton Obwalden"},"canton":{"key":"6","code":"OW","name":"Obwalden"},"status":"Real"},{"key":"10196838","name":"Arviblick","postalCode":"6055","locality":"Alpnach Dorf","commune":{"key":"1401","name":"Alpnach","shortName":"Alpnach"},"district":{"key":"600","name":"Kanton Obwalden"},"canton":{"key":"6","code":"OW","name":"Obwalden"},"status":"Real"},{"key":"10051081","name":"Bächli","postalCode":"6055","locality":"Alpnach Dorf","commune":{"key":"1401","name":"Alpnach","shortName":"Alpnach"},"district":{"key":"600","name":"Kanton Obwalden"},"canton":{"key":"6","code":"OW","name":"Obwalden"},"status":"Real"},{"key":"10257913","name":"Bahnhofplatz","postalCode":"6053","locality":"Alpnachstad","commune":{"key":"1401","name":"Alpnach","shortName":"Alpnach"},"district":{"key":"600","name":"Kanton Obwalden"},"canton":{"key":"6","code":"OW","name":"Obwalden"},"status":"Real"},{"key":"10059959","name":"Bahnhofplatz","postalCode":"6055","locality":"Alpnach Dorf","commune":{"key":"1401","name":"Alpnach","shortName":"Alpnach"},"district":{"key":"600","name":"Kanton Obwalden"},"canton":{"key":"6","code":"OW","name":"Obwalden"},"status":"Real"},{"key":"10110567","name":"Bahnhofstrasse","postalCode":"6055","locality":"Alpnach Dorf","commune":{"key":"1401","name":"Alpnach","shortName":"Alpnach"},"district":{"key":"600","name":"Kanton Obwalden"},"canton":{"key":"6","code":"OW","name":"Obwalden"},"status":"Real"},{"key":"10071246","name":"Balisried","postalCode":"6055","locality":"Alpnach Dorf","commune":{"key":"1401","name":"Alpnach","shortName":"Alpnach"},"district":{"key":"600","name":"Kanton Obwalden"},"canton":{"key":"6","code":"OW","name":"Obwalden"},"status":"Real"},{"key":"10183968","name":"Baumgartenstrasse","postalCode":"6055","locality":"Alpnach Dorf","commune":{"key":"1401","name":"Alpnach","shortName":"Alpnach"},"district":{"key":"600","name":"Kanton Obwalden"},"canton":{"key":"6","code":"OW","name":"Obwalden"},"status":"Real"},{"key":"10120244","name":"Baumlisberg","postalCode":"6055","locality":"Alpnach Dorf","commune":{"key":"1401","name":"Alpnach","shortName":"Alpnach"},"district":{"key":"600","name":"Kanton Obwalden"},"canton":{"key":"6","code":"OW","name":"Obwalden"},"status":"Real"},{"key":"10010458","name":"Bergli","postalCode":"6055","locality":"Alpnach Dorf","commune":{"key":"1401","name":"Alpnach","shortName":"Alpnach"},"district":{"key":"600","name":"Kanton Obwalden"},"canton":{"key":"6","code":"OW","name":"Obwalden"},"status":"Real"},{"key":"10071247","name":"Biel","postalCode":"6055","locality":"Alpnach Dorf","commune":{"key":"1401","name":"Alpnach","shortName":"Alpnach"},"district":{"key":"600","name":"Kanton Obwalden"},"canton":{"key":"6","code":"OW","name":"Obwalden"},"status":"Real"},{"key":"10010459","name":"Bitzeli","postalCode":"6055","locality":"Alpnach Dorf","commune":{"key":"1401","name":"Alpnach","shortName":"Alpnach"},"district":{"key":"600","name":"Kanton Obwalden"},"canton":{"key":"6","code":"OW","name":"Obwalden"},"status":"Real"},{"key":"10051080","name":"Bitzi","postalCode":"6055","locality":"Alpnach Dorf","commune":{"key":"1401","name":"Alpnach","shortName":"Alpnach"},"district":{"key":"600","name":"Kanton Obwalden"},"canton":{"key":"6","code":"OW","name":"Obwalden"},"status":"Real"},{"key":"10192191","name":"Bitzistrasse","postalCode":"6055","locality":"Alpnach Dorf","commune":{"key":"1401","name":"Alpnach","shortName":"Alpnach"},"district":{"key":"600","name":"Kanton Obwalden"},"canton":{"key":"6","code":"OW","name":"Obwalden"},"status":"Real"},{"key":"10015564","name":"Brünigstrasse","postalCode":"6053","locality":"Alpnachstad","commune":{"key":"1401","name":"Alpnach","shortName":"Alpnach"},"district":{"key":"600","name":"Kanton Obwalden"},"canton":{"key":"6","code":"OW","name":"Obwalden"},"status":"Real"},{"key":"10015564","name":"Brünigstrasse","postalCode":"6055","locality":"Alpnach Dorf","commune":{"key":"1401","name":"Alpnach","shortName":"Alpnach"},"district":{"key":"600","name":"Kanton Obwalden"},"canton":{"key":"6","code":"OW","name":"Obwalden"},"status":"Real"},{"key":"10087396","name":"Brunnmatt","postalCode":"6053","locality":"Alpnachstad","commune":{"key":"1401","name":"Alpnach","shortName":"Alpnach"},"district":{"key":"600","name":"Kanton Obwalden"},"canton":{"key":"6","code":"OW","name":"Obwalden"},"status":"Real"},{"key":"10105894","name":"Buchen","postalCode":"6055","locality":"Alpnach Dorf","commune":{"key":"1401","name":"Alpnach","shortName":"Alpnach"},"district":{"key":"600","name":"Kanton Obwalden"},"canton":{"key":"6","code":"OW","name":"Obwalden"},"status":"Real"},{"key":"10087401","name":"Burketen","postalCode":"6055","locality":"Alpnach Dorf","commune":{"key":"1401","name":"Alpnach","shortName":"Alpnach"},"district":{"key":"600","name":"Kanton Obwalden"},"canton":{"key":"6","code":"OW","name":"Obwalden"},"status":"Real"},{"key":"10087397","name":"Chälengasse","postalCode":"6053","locality":"Alpnachstad","commune":{"key":"1401","name":"Alpnach","shortName":"Alpnach"},"district":{"key":"600","name":"Kanton Obwalden"},"canton":{"key":"6","code":"OW","name":"Obwalden"},"status":"Real"},{"key":"10071249","name":"Chälenrain","postalCode":"6053","locality":"Alpnachstad","commune":{"key":"1401","name":"Alpnach","shortName":"Alpnach"},"district":{"key":"600","name":"Kanton Obwalden"},"canton":{"key":"6","code":"OW","name":"Obwalden"},"status":"Real"},{"key":"10015565","name":"Charrengasse","postalCode":"6053","locality":"Alpnachstad","commune":{"key":"1401","name":"Alpnach","shortName":"Alpnach"},"district":{"key":"600","name":"Kanton Obwalden"},"canton":{"key":"6","code":"OW","name":"Obwalden"},"status":"Real"},{"key":"10071248","name":"Chilcherlistrasse","postalCode":"6055","locality":"Alpnach Dorf","commune":{"key":"1401","name":"Alpnach","shortName":"Alpnach"},"district":{"key":"600","name":"Kanton Obwalden"},"canton":{"key":"6","code":"OW","name":"Obwalden"},"status":"Real"},{"key":"10174137","name":"Chilenmattli","postalCode":"6055","locality":"Alpnach Dorf","commune":{"key":"1401","name":"Alpnach","shortName":"Alpnach"},"district":{"key":"600","name":"Kanton Obwalden"},"canton":{"key":"6","code":"OW","name":"Obwalden"},"status":"Real"},{"key":"10010460","name":"Chlewigen","postalCode":"6055","locality":"Alpnach Dorf","commune":{"key":"1401","name":"Alpnach","shortName":"Alpnach"},"district":{"key":"600","name":"Kanton Obwalden"},"canton":{"key":"6","code":"OW","name":"Obwalden"},"status":"Real"},{"key":"10010461","name":"Chlewigenmatt","postalCode":"6055","locality":"Alpnach Dorf","commune":{"key":"1401","name":"Alpnach","shortName":"Alpnach"},"district":{"key":"600","name":"Kanton Obwalden"},"canton":{"key":"6","code":"OW","name":"Obwalden"},"status":"Real"},{"key":"10087402","name":"Chlewigenstrasse","postalCode":"6055","locality":"Alpnach Dorf","commune":{"key":"1401","name":"Alpnach","shortName":"Alpnach"},"district":{"key":"600","name":"Kanton Obwalden"},"canton":{"key":"6","code":"OW","name":"Obwalden"},"status":"Real"},{"key":"10010462","name":"Chlewigenweg","postalCode":"6055","locality":"Alpnach Dorf","commune":{"key":"1401","name":"Alpnach","shortName":"Alpnach"},"district":{"key":"600","name":"Kanton Obwalden"},"canton":{"key":"6","code":"OW","name":"Obwalden"},"status":"Real"},{"key":"10010463","name":"Dammstrasse","postalCode":"6055","locality":"Alpnach Dorf","commune":{"key":"1401","name":"Alpnach","shortName":"Alpnach"},"district":{"key":"600","name":"Kanton Obwalden"},"canton":{"key":"6","code":"OW","name":"Obwalden"},"status":"Real"},{"key":"10183966","name":"Dellacher","postalCode":"6053","locality":"Alpnachstad","commune":{"key":"1401","name":"Alpnach","shortName":"Alpnach"},"district":{"key":"600","name":"Kanton Obwalden"},"canton":{"key":"6","code":"OW","name":"Obwalden"},"status":"Real"},{"key":"10105895","name":"Dirnachen","postalCode":"6055","locality":"Alpnach Dorf","commune":{"key":"1401","name":"Alpnach","shortName":"Alpnach"},"district":{"key":"600","name":"Kanton Obwalden"},"canton":{"key":"6","code":"OW","name":"Obwalden"},"status":"Real"},{"key":"10183969","name":"Dorflistrasse","postalCode":"6055","locality":"Alpnach Dorf","commune":{"key":"1401","name":"Alpnach","shortName":"Alpnach"},"district":{"key":"600","name":"Kanton Obwalden"},"canton":{"key":"6","code":"OW","name":"Obwalden"},"status":"Real"},{"key":"10087403","name":"Eggmatt","postalCode":"6055","locality":"Alpnach Dorf","commune":{"key":"1401","name":"Alpnach","shortName":"Alpnach"},"district":{"key":"600","name":"Kanton Obwalden"},"canton":{"key":"6","code":"OW","name":"Obwalden"},"status":"Real"},{"key":"10196926","name":"Eichetschwand","postalCode":"6055","locality":"Alpnach Dorf","commune":{"key":"1401","name":"Alpnach","shortName":"Alpnach"},"district":{"key":"600","name":"Kanton Obwalden"},"canton":{"key":"6","code":"OW","name":"Obwalden"},"status":"Real"},{"key":"10212163","name":"Eichi","postalCode":"6055","locality":"Alpnach Dorf","commune":{"key":"1401","name":"Alpnach","shortName":"Alpnach"},"district":{"key":"600","name":"Kanton Obwalden"},"canton":{"key":"6","code":"OW","name":"Obwalden"},"status":"Real"},{"key":"10010464","name":"Eichistrasse","postalCode":"6055","locality":"Alpnach Dorf","commune":{"key":"1401","name":"Alpnach","shortName":"Alpnach"},"district":{"key":"600","name":"Kanton Obwalden"},"canton":{"key":"6","code":"OW","name":"Obwalden"},"status":"Real"},{"key":"10010465","name":"Etzweid","postalCode":"6055","locality":"Alpnach Dorf","commune":{"key":"1401","name":"Alpnach","shortName":"Alpnach"},"district":{"key":"600","name":"Kanton Obwalden"},"canton":{"key":"6","code":"OW","name":"Obwalden"},"status":"Real"},{"key":"10180573","name":"Feldheimstrasse","postalCode":"6055","locality":"Alpnach Dorf","commune":{"key":"1401","name":"Alpnach","shortName":"Alpnach"},"district":{"key":"600","name":"Kanton Obwalden"},"canton":{"key":"6","code":"OW","name":"Obwalden"},"status":"Real"},{"key":"10192136","name":"Gadenächerli","postalCode":"6053","locality":"Alpnachstad","commune":{"key":"1401","name":"Alpnach","shortName":"Alpnach"},"district":{"key":"600","name":"Kanton Obwalden"},"canton":{"key":"6","code":"OW","name":"Obwalden"},"status":"Real"},{"key":"10010472","name":"Gärtli","postalCode":"6055","locality":"Alpnach Dorf","commune":{"key":"1401","name":"Alpnach","shortName":"Alpnach"},"district":{"key":"600","name":"Kanton Obwalden"},"canton":{"key":"6","code":"OW","name":"Obwalden"},"status":"Real"},{"key":"10010764","name":"Gässli","postalCode":"6055","locality":"Alpnach Dorf","commune":{"key":"1401","name":"Alpnach","shortName":"Alpnach"},"district":{"key":"600","name":"Kanton Obwalden"},"canton":{"key":"6","code":"OW","name":"Obwalden"},"status":"Real"},{"key":"10087404","name":"Geissfuss","postalCode":"6055","locality":"Alpnach Dorf","commune":{"key":"1401","name":"Alpnach","shortName":"Alpnach"},"district":{"key":"600","name":"Kanton Obwalden"},"canton":{"key":"6","code":"OW","name":"Obwalden"},"status":"Real"},{"key":"10010466","name":"Geretschwand","postalCode":"6055","locality":"Alpnach Dorf","commune":{"key":"1401","name":"Alpnach","shortName":"Alpnach"},"district":{"key":"600","name":"Kanton Obwalden"},"canton":{"key":"6","code":"OW","name":"Obwalden"},"status":"Real"},{"key":"10010467","name":"Grabi","postalCode":"6055","locality":"Alpnach Dorf","commune":{"key":"1401","name":"Alpnach","shortName":"Alpnach"},"district":{"key":"600","name":"Kanton Obwalden"},"canton":{"key":"6","code":"OW","name":"Obwalden"},"status":"Real"},{"key":"10010468","name":"Gresigengasse","postalCode":"6055","locality":"Alpnach Dorf","commune":{"key":"1401","name":"Alpnach","shortName":"Alpnach"},"district":{"key":"600","name":"Kanton Obwalden"},"canton":{"key":"6","code":"OW","name":"Obwalden"},"status":"Real"},{"key":"10177120","name":"Gresigenweid","postalCode":"6055","locality":"Alpnach Dorf","commune":{"key":"1401","name":"Alpnach","shortName":"Alpnach"},"district":{"key":"600","name":"Kanton Obwalden"},"canton":{"key":"6","code":"OW","name":"Obwalden"},"status":"Real"},{"key":"10110566","name":"Grossmatt","postalCode":"6053","locality":"Alpnachstad","commune":{"key":"1401","name":"Alpnach","shortName":"Alpnach"},"district":{"key":"600","name":"Kanton Obwalden"},"canton":{"key":"6","code":"OW","name":"Obwalden"},"status":"Real"},{"key":"10062750","name":"Grossrüti","postalCode":"6053","locality":"Alpnachstad","commune":{"key":"1401","name":"Alpnach","shortName":"Alpnach"},"district":{"key":"600","name":"Kanton Obwalden"},"canton":{"key":"6","code":"OW","name":"Obwalden"},"status":"Real"},{"key":"10071250","name":"Grueben","postalCode":"6055","locality":"Alpnach Dorf","commune":{"key":"1401","name":"Alpnach","shortName":"Alpnach"},"district":{"key":"600","name":"Kanton Obwalden"},"canton":{"key":"6","code":"OW","name":"Obwalden"},"status":"Real"},{"key":"10183970","name":"Gruebengasse","postalCode":"6055","locality":"Alpnach Dorf","commune":{"key":"1401","name":"Alpnach","shortName":"Alpnach"},"district":{"key":"600","name":"Kanton Obwalden"},"canton":{"key":"6","code":"OW","name":"Obwalden"},"status":"Real"},{"key":"10254331","name":"Gruebenrain","postalCode":"6055","locality":"Alpnach Dorf","commune":{"key":"1401","name":"Alpnach","shortName":"Alpnach"},"district":{"key":"600","name":"Kanton Obwalden"},"canton":{"key":"6","code":"OW","name":"Obwalden"},"status":"Planned"},{"key":"10110568","name":"Gruebli","postalCode":"6055","locality":"Alpnach Dorf","commune":{"key":"1401","name":"Alpnach","shortName":"Alpnach"},"district":{"key":"600","name":"Kanton Obwalden"},"canton":{"key":"6","code":"OW","name":"Obwalden"},"status":"Real"},{"key":"10212170","name":"Grund","postalCode":"6055","locality":"Alpnach Dorf","commune":{"key":"1401","name":"Alpnach","shortName":"Alpnach"},"district":{"key":"600","name":"Kanton Obwalden"},"canton":{"key":"6","code":"OW","name":"Obwalden"},"status":"Real"},{"key":"10071251","name":"Grunderbergstrasse","postalCode":"6055","locality":"Alpnach Dorf","commune":{"key":"1401","name":"Alpnach","shortName":"Alpnach"},"district":{"key":"600","name":"Kanton Obwalden"},"canton":{"key":"6","code":"OW","name":"Obwalden"},"status":"Real"},{"key":"10087405","name":"Grundermatte","postalCode":"6055","locality":"Alpnach Dorf","commune":{"key":"1401","name":"Alpnach","shortName":"Alpnach"},"district":{"key":"600","name":"Kanton Obwalden"},"canton":{"key":"6","code":"OW","name":"Obwalden"},"status":"Real"},{"key":"10010469","name":"Grundstrasse","postalCode":"6055","locality":"Alpnach Dorf","commune":{"key":"1401","name":"Alpnach","shortName":"Alpnach"},"district":{"key":"600","name":"Kanton Obwalden"},"canton":{"key":"6","code":"OW","name":"Obwalden"},"status":"Real"},{"key":"10010471","name":"Grüneckweg","postalCode":"6055","locality":"Alpnach Dorf","commune":{"key":"1401","name":"Alpnach","shortName":"Alpnach"},"district":{"key":"600","name":"Kanton Obwalden"},"canton":{"key":"6","code":"OW","name":"Obwalden"},"status":"Real"},{"key":"10010470","name":"Grunz","postalCode":"6055","locality":"Alpnach Dorf","commune":{"key":"1401","name":"Alpnach","shortName":"Alpnach"},"district":{"key":"600","name":"Kanton Obwalden"},"canton":{"key":"6","code":"OW","name":"Obwalden"},"status":"Real"},{"key":"10122360","name":"Grunzlistrasse","postalCode":"6055","locality":"Alpnach Dorf","commune":{"key":"1401","name":"Alpnach","shortName":"Alpnach"},"district":{"key":"600","name":"Kanton Obwalden"},"canton":{"key":"6","code":"OW","name":"Obwalden"},"status":"Real"},{"key":"10188238","name":"Guber","postalCode":"6055","locality":"Alpnach Dorf","commune":{"key":"1401","name":"Alpnach","shortName":"Alpnach"},"district":{"key":"600","name":"Kanton Obwalden"},"canton":{"key":"6","code":"OW","name":"Obwalden"},"status":"Real"},{"key":"10087406","name":"Guberstrasse","postalCode":"6055","locality":"Alpnach Dorf","commune":{"key":"1401","name":"Alpnach","shortName":"Alpnach"},"district":{"key":"600","name":"Kanton Obwalden"},"canton":{"key":"6","code":"OW","name":"Obwalden"},"status":"Real"},{"key":"10010451","name":"Güetigen","postalCode":"6053","locality":"Alpnachstad","commune":{"key":"1401","name":"Alpnach","shortName":"Alpnach"},"district":{"key":"600","name":"Kanton Obwalden"},"canton":{"key":"6","code":"OW","name":"Obwalden"},"status":"Real"},{"key":"10171771","name":"Güetletschwand","postalCode":"6055","locality":"Alpnach Dorf","commune":{"key":"1401","name":"Alpnach","shortName":"Alpnach"},"district":{"key":"600","name":"Kanton Obwalden"},"canton":{"key":"6","code":"OW","name":"Obwalden"},"status":"Real"},{"key":"10251811","name":"Gumeli","postalCode":"6055","locality":"Alpnach Dorf","commune":{"key":"1401","name":"Alpnach","shortName":"Alpnach"},"district":{"key":"600","name":"Kanton Obwalden"},"canton":{"key":"6","code":"OW","name":"Obwalden"},"status":"Planned"},{"key":"10196923","name":"Hauetli","postalCode":"6053","locality":"Alpnachstad","commune":{"key":"1401","name":"Alpnach","shortName":"Alpnach"},"district":{"key":"600","name":"Kanton Obwalden"},"canton":{"key":"6","code":"OW","name":"Obwalden"},"status":"Real"},{"key":"10196924","name":"Hebrigsmatt","postalCode":"6055","locality":"Alpnach Dorf","commune":{"key":"1401","name":"Alpnach","shortName":"Alpnach"},"district":{"key":"600","name":"Kanton Obwalden"},"canton":{"key":"6","code":"OW","name":"Obwalden"},"status":"Real"},{"key":"10209060","name":"Heiti","postalCode":"6055","locality":"Alpnach Dorf","commune":{"key":"1401","name":"Alpnach","shortName":"Alpnach"},"district":{"key":"600","name":"Kanton Obwalden"},"canton":{"key":"6","code":"OW","name":"Obwalden"},"status":"Real"},{"key":"10010765","name":"Hinterdorfstrasse","postalCode":"6055","locality":"Alpnach Dorf","commune":{"key":"1401","name":"Alpnach","shortName":"Alpnach"},"district":{"key":"600","name":"Kanton Obwalden"},"canton":{"key":"6","code":"OW","name":"Obwalden"},"status":"Real"},{"key":"10087407","name":"Hinteregg","postalCode":"6055","locality":"Alpnach Dorf","commune":{"key":"1401","name":"Alpnach","shortName":"Alpnach"},"district":{"key":"600","name":"Kanton Obwalden"},"canton":{"key":"6","code":"OW","name":"Obwalden"},"status":"Real"},{"key":"10196925","name":"Hinteres Städerried","postalCode":"6055","locality":"Alpnach Dorf","commune":{"key":"1401","name":"Alpnach","shortName":"Alpnach"},"district":{"key":"600","name":"Kanton Obwalden"},"canton":{"key":"6","code":"OW","name":"Obwalden"},"status":"Real"},{"key":"10183971","name":"Hintermatt","postalCode":"6055","locality":"Alpnach Dorf","commune":{"key":"1401","name":"Alpnach","shortName":"Alpnach"},"district":{"key":"600","name":"Kanton Obwalden"},"canton":{"key":"6","code":"OW","name":"Obwalden"},"status":"Real"},{"key":"10071253","name":"Hintermattli","postalCode":"6055","locality":"Alpnach Dorf","commune":{"key":"1401","name":"Alpnach","shortName":"Alpnach"},"district":{"key":"600","name":"Kanton Obwalden"},"canton":{"key":"6","code":"OW","name":"Obwalden"},"status":"Real"},{"key":"10010766","name":"Hofmättelistrasse","postalCode":"6055","locality":"Alpnach Dorf","commune":{"key":"1401","name":"Alpnach","shortName":"Alpnach"},"district":{"key":"600","name":"Kanton Obwalden"},"canton":{"key":"6","code":"OW","name":"Obwalden"},"status":"Real"},{"key":"10131259","name":"Hofmätteliweg","postalCode":"6055","locality":"Alpnach Dorf","commune":{"key":"1401","name":"Alpnach","shortName":"Alpnach"},"district":{"key":"600","name":"Kanton Obwalden"},"canton":{"key":"6","code":"OW","name":"Obwalden"},"status":"Real"},{"key":"10010767","name":"Hostatt","postalCode":"6055","locality":"Alpnach Dorf","commune":{"key":"1401","name":"Alpnach","shortName":"Alpnach"},"district":{"key":"600","name":"Kanton Obwalden"},"canton":{"key":"6","code":"OW","name":"Obwalden"},"status":"Real"},{"key":"10130532","name":"Hostett","postalCode":"6055","locality":"Alpnach Dorf","commune":{"key":"1401","name":"Alpnach","shortName":"Alpnach"},"district":{"key":"600","name":"Kanton Obwalden"},"canton":{"key":"6","code":"OW","name":"Obwalden"},"status":"Real"},{"key":"10110569","name":"Hostettlistrasse","postalCode":"6055","locality":"Alpnach Dorf","commune":{"key":"1401","name":"Alpnach","shortName":"Alpnach"},"district":{"key":"600","name":"Kanton Obwalden"},"canton":{"key":"6","code":"OW","name":"Obwalden"},"status":"Real"},{"key":"10071254","name":"Im Widi","postalCode":"6053","locality":"Alpnachstad","commune":{"key":"1401","name":"Alpnach","shortName":"Alpnach"},"district":{"key":"600","name":"Kanton Obwalden"},"canton":{"key":"6","code":"OW","name":"Obwalden"},"status":"Real"},{"key":"10105896","name":"Industriestrasse","postalCode":"6055","locality":"Alpnach Dorf","commune":{"key":"1401","name":"Alpnach","shortName":"Alpnach"},"district":{"key":"600","name":"Kanton Obwalden"},"canton":{"key":"6","code":"OW","name":"Obwalden"},"status":"Real"},{"key":"10010768","name":"Issern","postalCode":"6055","locality":"Alpnach Dorf","commune":{"key":"1401","name":"Alpnach","shortName":"Alpnach"},"district":{"key":"600","name":"Kanton Obwalden"},"canton":{"key":"6","code":"OW","name":"Obwalden"},"status":"Real"},{"key":"10009905","name":"Kapellenmattli","postalCode":"6053","locality":"Alpnachstad","commune":{"key":"1401","name":"Alpnach","shortName":"Alpnach"},"district":{"key":"600","name":"Kanton Obwalden"},"canton":{"key":"6","code":"OW","name":"Obwalden"},"status":"Real"},{"key":"10185583","name":"Kleine Schlierenstrasse","postalCode":"6055","locality":"Alpnach Dorf","commune":{"key":"1401","name":"Alpnach","shortName":"Alpnach"},"district":{"key":"600","name":"Kanton Obwalden"},"canton":{"key":"6","code":"OW","name":"Obwalden"},"status":"Real"},{"key":"10087398","name":"Kleinmatt","postalCode":"6053","locality":"Alpnachstad","commune":{"key":"1401","name":"Alpnach","shortName":"Alpnach"},"district":{"key":"600","name":"Kanton Obwalden"},"canton":{"key":"6","code":"OW","name":"Obwalden"},"status":"Real"},{"key":"10010452","name":"Kleinmattweg","postalCode":"6053","locality":"Alpnachstad","commune":{"key":"1401","name":"Alpnach","shortName":"Alpnach"},"district":{"key":"600","name":"Kanton Obwalden"},"canton":{"key":"6","code":"OW","name":"Obwalden"},"status":"Real"},{"key":"10192137","name":"Klostermatte","postalCode":"6055","locality":"Alpnach Dorf","commune":{"key":"1401","name":"Alpnach","shortName":"Alpnach"},"district":{"key":"600","name":"Kanton Obwalden"},"canton":{"key":"6","code":"OW","name":"Obwalden"},"status":"Real"},{"key":"10010769","name":"Kreuzästi","postalCode":"6055","locality":"Alpnach Dorf","commune":{"key":"1401","name":"Alpnach","shortName":"Alpnach"},"district":{"key":"600","name":"Kanton Obwalden"},"canton":{"key":"6","code":"OW","name":"Obwalden"},"status":"Real"},{"key":"10010771","name":"Laubligenstrasse","postalCode":"6055","locality":"Alpnach Dorf","commune":{"key":"1401","name":"Alpnach","shortName":"Alpnach"},"district":{"key":"600","name":"Kanton Obwalden"},"canton":{"key":"6","code":"OW","name":"Obwalden"},"status":"Real"},{"key":"10175358","name":"Lieren","postalCode":"6053","locality":"Alpnachstad","commune":{"key":"1401","name":"Alpnach","shortName":"Alpnach"},"district":{"key":"600","name":"Kanton Obwalden"},"canton":{"key":"6","code":"OW","name":"Obwalden"},"status":"Real"},{"key":"10192192","name":"Lindenmattli","postalCode":"6055","locality":"Alpnach Dorf","commune":{"key":"1401","name":"Alpnach","shortName":"Alpnach"},"district":{"key":"600","name":"Kanton Obwalden"},"canton":{"key":"6","code":"OW","name":"Obwalden"},"status":"Real"},{"key":"10071255","name":"Lochmattli","postalCode":"6053","locality":"Alpnachstad","commune":{"key":"1401","name":"Alpnach","shortName":"Alpnach"},"district":{"key":"600","name":"Kanton Obwalden"},"canton":{"key":"6","code":"OW","name":"Obwalden"},"status":"Real"},{"key":"10183972","name":"Lütholdsmatt","postalCode":"6055","locality":"Alpnach Dorf","commune":{"key":"1401","name":"Alpnach","shortName":"Alpnach"},"district":{"key":"600","name":"Kanton Obwalden"},"canton":{"key":"6","code":"OW","name":"Obwalden"},"status":"Real"},{"key":"10051085","name":"Maligen","postalCode":"6055","locality":"Alpnach Dorf","commune":{"key":"1401","name":"Alpnach","shortName":"Alpnach"},"district":{"key":"600","name":"Kanton Obwalden"},"canton":{"key":"6","code":"OW","name":"Obwalden"},"status":"Real"},{"key":"10010772","name":"Meisi","postalCode":"6055","locality":"Alpnach Dorf","commune":{"key":"1401","name":"Alpnach","shortName":"Alpnach"},"district":{"key":"600","name":"Kanton Obwalden"},"canton":{"key":"6","code":"OW","name":"Obwalden"},"status":"Real"},{"key":"10087408","name":"Mettlacheli","postalCode":"6055","locality":"Alpnach Dorf","commune":{"key":"1401","name":"Alpnach","shortName":"Alpnach"},"district":{"key":"600","name":"Kanton Obwalden"},"canton":{"key":"6","code":"OW","name":"Obwalden"},"status":"Real"},{"key":"10212183","name":"Milchrüti","postalCode":"6053","locality":"Alpnachstad","commune":{"key":"1401","name":"Alpnach","shortName":"Alpnach"},"district":{"key":"600","name":"Kanton Obwalden"},"canton":{"key":"6","code":"OW","name":"Obwalden"},"status":"Real"},{"key":"10144108","name":"Monopolriedstrasse","postalCode":"6053","locality":"Alpnachstad","commune":{"key":"1401","name":"Alpnach","shortName":"Alpnach"},"district":{"key":"600","name":"Kanton Obwalden"},"canton":{"key":"6","code":"OW","name":"Obwalden"},"status":"Real"},{"key":"10071256","name":"Moosmatt","postalCode":"6055","locality":"Alpnach Dorf","commune":{"key":"1401","name":"Alpnach","shortName":"Alpnach"},"district":{"key":"600","name":"Kanton Obwalden"},"canton":{"key":"6","code":"OW","name":"Obwalden"},"status":"Real"},{"key":"10051086","name":"Mühle","postalCode":"6055","locality":"Alpnach Dorf","commune":{"key":"1401","name":"Alpnach","shortName":"Alpnach"},"district":{"key":"600","name":"Kanton Obwalden"},"canton":{"key":"6","code":"OW","name":"Obwalden"},"status":"Real"},{"key":"10199825","name":"Mühlegässli","postalCode":"6055","locality":"Alpnach Dorf","commune":{"key":"1401","name":"Alpnach","shortName":"Alpnach"},"district":{"key":"600","name":"Kanton Obwalden"},"canton":{"key":"6","code":"OW","name":"Obwalden"},"status":"Real"},{"key":"10116611","name":"Neugrund","postalCode":"6055","locality":"Alpnach Dorf","commune":{"key":"1401","name":"Alpnach","shortName":"Alpnach"},"district":{"key":"600","name":"Kanton Obwalden"},"canton":{"key":"6","code":"OW","name":"Obwalden"},"status":"Real"},{"key":"10010453","name":"Neuhof","postalCode":"6053","locality":"Alpnachstad","commune":{"key":"1401","name":"Alpnach","shortName":"Alpnach"},"district":{"key":"600","name":"Kanton Obwalden"},"canton":{"key":"6","code":"OW","name":"Obwalden"},"status":"Real"},{"key":"10010773","name":"Neumatt","postalCode":"6055","locality":"Alpnach Dorf","commune":{"key":"1401","name":"Alpnach","shortName":"Alpnach"},"district":{"key":"600","name":"Kanton Obwalden"},"canton":{"key":"6","code":"OW","name":"Obwalden"},"status":"Real"},{"key":"10010454","name":"Niederstad","postalCode":"6053","locality":"Alpnachstad","commune":{"key":"1401","name":"Alpnach","shortName":"Alpnach"},"district":{"key":"600","name":"Kanton Obwalden"},"canton":{"key":"6","code":"OW","name":"Obwalden"},"status":"Real"},{"key":"10051087","name":"Oberbächli","postalCode":"6055","locality":"Alpnach Dorf","commune":{"key":"1401","name":"Alpnach","shortName":"Alpnach"},"district":{"key":"600","name":"Kanton Obwalden"},"canton":{"key":"6","code":"OW","name":"Obwalden"},"status":"Real"},{"key":"10087409","name":"Obere Bodenmatt","postalCode":"6055","locality":"Alpnach Dorf","commune":{"key":"1401","name":"Alpnach","shortName":"Alpnach"},"district":{"key":"600","name":"Kanton Obwalden"},"canton":{"key":"6","code":"OW","name":"Obwalden"},"status":"Real"},{"key":"10071257","name":"Obere Feldstrasse","postalCode":"6055","locality":"Alpnach Dorf","commune":{"key":"1401","name":"Alpnach","shortName":"Alpnach"},"district":{"key":"600","name":"Kanton Obwalden"},"canton":{"key":"6","code":"OW","name":"Obwalden"},"status":"Real"},{"key":"10010774","name":"Obere Gründlistrasse","postalCode":"6055","locality":"Alpnach Dorf","commune":{"key":"1401","name":"Alpnach","shortName":"Alpnach"},"district":{"key":"600","name":"Kanton Obwalden"},"canton":{"key":"6","code":"OW","name":"Obwalden"},"status":"Real"},{"key":"10114396","name":"Obsee","postalCode":"6053","locality":"Alpnachstad","commune":{"key":"1401","name":"Alpnach","shortName":"Alpnach"},"district":{"key":"600","name":"Kanton Obwalden"},"canton":{"key":"6","code":"OW","name":"Obwalden"},"status":"Real"},{"key":"10010775","name":"Obwil","postalCode":"6055","locality":"Alpnach Dorf","commune":{"key":"1401","name":"Alpnach","shortName":"Alpnach"},"district":{"key":"600","name":"Kanton Obwalden"},"canton":{"key":"6","code":"OW","name":"Obwalden"},"status":"Real"},{"key":"10087410","name":"Pfisternstrasse","postalCode":"6055","locality":"Alpnach Dorf","commune":{"key":"1401","name":"Alpnach","shortName":"Alpnach"},"district":{"key":"600","name":"Kanton Obwalden"},"canton":{"key":"6","code":"OW","name":"Obwalden"},"status":"Real"},{"key":"10051788","name":"Pilatus Kulm","postalCode":"6053","locality":"Alpnachstad","commune":{"key":"1401","name":"Alpnach","shortName":"Alpnach"},"district":{"key":"600","name":"Kanton Obwalden"},"canton":{"key":"6","code":"OW","name":"Obwalden"},"status":"Real"},{"key":"10087399","name":"Pilatusweg","postalCode":"6053","locality":"Alpnachstad","commune":{"key":"1401","name":"Alpnach","shortName":"Alpnach"},"district":{"key":"600","name":"Kanton Obwalden"},"canton":{"key":"6","code":"OW","name":"Obwalden"},"status":"Real"},{"key":"10183973","name":"Rainliweg","postalCode":"6055","locality":"Alpnach Dorf","commune":{"key":"1401","name":"Alpnach","shortName":"Alpnach"},"district":{"key":"600","name":"Kanton Obwalden"},"canton":{"key":"6","code":"OW","name":"Obwalden"},"status":"Real"},{"key":"10116610","name":"Rengg","postalCode":"6053","locality":"Alpnachstad","commune":{"key":"1401","name":"Alpnach","shortName":"Alpnach"},"district":{"key":"600","name":"Kanton Obwalden"},"canton":{"key":"6","code":"OW","name":"Obwalden"},"status":"Real"},{"key":"10173858","name":"Renggstrasse","postalCode":"6053","locality":"Alpnachstad","commune":{"key":"1401","name":"Alpnach","shortName":"Alpnach"},"district":{"key":"600","name":"Kanton Obwalden"},"canton":{"key":"6","code":"OW","name":"Obwalden"},"status":"Real"},{"key":"10071258","name":"Riedacher","postalCode":"6055","locality":"Alpnach Dorf","commune":{"key":"1401","name":"Alpnach","shortName":"Alpnach"},"district":{"key":"600","name":"Kanton Obwalden"},"canton":{"key":"6","code":"OW","name":"Obwalden"},"status":"Real"},{"key":"10183967","name":"Rieden","postalCode":"6053","locality":"Alpnachstad","commune":{"key":"1401","name":"Alpnach","shortName":"Alpnach"},"district":{"key":"600","name":"Kanton Obwalden"},"canton":{"key":"6","code":"OW","name":"Obwalden"},"status":"Real"},{"key":"10077677","name":"Robert Barmettlerstrasse","postalCode":"6055","locality":"Alpnach Dorf","commune":{"key":"1401","name":"Alpnach","shortName":"Alpnach"},"district":{"key":"600","name":"Kanton Obwalden"},"canton":{"key":"6","code":"OW","name":"Obwalden"},"status":"Real"},{"key":"10010776","name":"Rosen","postalCode":"6055","locality":"Alpnach Dorf","commune":{"key":"1401","name":"Alpnach","shortName":"Alpnach"},"district":{"key":"600","name":"Kanton Obwalden"},"canton":{"key":"6","code":"OW","name":"Obwalden"},"status":"Real"},{"key":"10071259","name":"Rosenmattli","postalCode":"6055","locality":"Alpnach Dorf","commune":{"key":"1401","name":"Alpnach","shortName":"Alpnach"},"district":{"key":"600","name":"Kanton Obwalden"},"canton":{"key":"6","code":"OW","name":"Obwalden"},"status":"Real"},{"key":"10135288","name":"Rosenrain","postalCode":"6055","locality":"Alpnach Dorf","commune":{"key":"1401","name":"Alpnach","shortName":"Alpnach"},"district":{"key":"600","name":"Kanton Obwalden"},"canton":{"key":"6","code":"OW","name":"Obwalden"},"status":"Real"},{"key":"10252535","name":"Rösslimattli","postalCode":"6053","locality":"Alpnachstad","commune":{"key":"1401","name":"Alpnach","shortName":"Alpnach"},"district":{"key":"600","name":"Kanton Obwalden"},"canton":{"key":"6","code":"OW","name":"Obwalden"},"status":"Planned"},{"key":"10112711","name":"Rothenbächli","postalCode":"6053","locality":"Alpnachstad","commune":{"key":"1401","name":"Alpnach","shortName":"Alpnach"},"district":{"key":"600","name":"Kanton Obwalden"},"canton":{"key":"6","code":"OW","name":"Obwalden"},"status":"Real"},{"key":"10252469","name":"Ruessig-Planggen","postalCode":"6055","locality":"Alpnach Dorf","commune":{"key":"1401","name":"Alpnach","shortName":"Alpnach"},"district":{"key":"600","name":"Kanton Obwalden"},"canton":{"key":"6","code":"OW","name":"Obwalden"},"status":"Real"},{"key":"10112712","name":"Ruodetschwand","postalCode":"6055","locality":"Alpnach Dorf","commune":{"key":"1401","name":"Alpnach","shortName":"Alpnach"},"district":{"key":"600","name":"Kanton Obwalden"},"canton":{"key":"6","code":"OW","name":"Obwalden"},"status":"Real"},{"key":"10010777","name":"Rüteli","postalCode":"6055","locality":"Alpnach Dorf","commune":{"key":"1401","name":"Alpnach","shortName":"Alpnach"},"district":{"key":"600","name":"Kanton Obwalden"},"canton":{"key":"6","code":"OW","name":"Obwalden"},"status":"Real"},{"key":"10010778","name":"Rüti","postalCode":"6055","locality":"Alpnach Dorf","commune":{"key":"1401","name":"Alpnach","shortName":"Alpnach"},"district":{"key":"600","name":"Kanton Obwalden"},"canton":{"key":"6","code":"OW","name":"Obwalden"},"status":"Real"},{"key":"10071260","name":"Rütiberg","postalCode":"6055","locality":"Alpnach Dorf","commune":{"key":"1401","name":"Alpnach","shortName":"Alpnach"},"district":{"key":"600","name":"Kanton Obwalden"},"canton":{"key":"6","code":"OW","name":"Obwalden"},"status":"Real"},{"key":"10010779","name":"Sagengasse","postalCode":"6055","locality":"Alpnach Dorf","commune":{"key":"1401","name":"Alpnach","shortName":"Alpnach"},"district":{"key":"600","name":"Kanton Obwalden"},"canton":{"key":"6","code":"OW","name":"Obwalden"},"status":"Real"},{"key":"10135292","name":"Sagibach","postalCode":"6055","locality":"Alpnach Dorf","commune":{"key":"1401","name":"Alpnach","shortName":"Alpnach"},"district":{"key":"600","name":"Kanton Obwalden"},"canton":{"key":"6","code":"OW","name":"Obwalden"},"status":"Real"},{"key":"10145990","name":"Sattelstrasse","postalCode":"6055","locality":"Alpnach Dorf","commune":{"key":"1401","name":"Alpnach","shortName":"Alpnach"},"district":{"key":"600","name":"Kanton Obwalden"},"canton":{"key":"6","code":"OW","name":"Obwalden"},"status":"Real"},{"key":"10087411","name":"Schlieren","postalCode":"6055","locality":"Alpnach Dorf","commune":{"key":"1401","name":"Alpnach","shortName":"Alpnach"},"district":{"key":"600","name":"Kanton Obwalden"},"canton":{"key":"6","code":"OW","name":"Obwalden"},"status":"Real"},{"key":"10135559","name":"Schönenbüel","postalCode":"6055","locality":"Alpnach Dorf","commune":{"key":"1401","name":"Alpnach","shortName":"Alpnach"},"district":{"key":"600","name":"Kanton Obwalden"},"canton":{"key":"6","code":"OW","name":"Obwalden"},"status":"Real"},{"key":"10191921","name":"Schoried","postalCode":"6055","locality":"Alpnach Dorf","commune":{"key":"1401","name":"Alpnach","shortName":"Alpnach"},"district":{"key":"600","name":"Kanton Obwalden"},"canton":{"key":"6","code":"OW","name":"Obwalden"},"status":"Real"},{"key":"10010780","name":"Schoriederstrasse","postalCode":"6055","locality":"Alpnach Dorf","commune":{"key":"1401","name":"Alpnach","shortName":"Alpnach"},"district":{"key":"600","name":"Kanton Obwalden"},"canton":{"key":"6","code":"OW","name":"Obwalden"},"status":"Real"},{"key":"10116612","name":"Schulhausstrasse","postalCode":"6055","locality":"Alpnach Dorf","commune":{"key":"1401","name":"Alpnach","shortName":"Alpnach"},"district":{"key":"600","name":"Kanton Obwalden"},"canton":{"key":"6","code":"OW","name":"Obwalden"},"status":"Real"},{"key":"10105897","name":"Schürmatt","postalCode":"6055","locality":"Alpnach Dorf","commune":{"key":"1401","name":"Alpnach","shortName":"Alpnach"},"district":{"key":"600","name":"Kanton Obwalden"},"canton":{"key":"6","code":"OW","name":"Obwalden"},"status":"Real"},{"key":"10010781","name":"Schützenmatt","postalCode":"6055","locality":"Alpnach Dorf","commune":{"key":"1401","name":"Alpnach","shortName":"Alpnach"},"district":{"key":"600","name":"Kanton Obwalden"},"canton":{"key":"6","code":"OW","name":"Obwalden"},"status":"Real"},{"key":"10071261","name":"Schwand","postalCode":"6055","locality":"Alpnach Dorf","commune":{"key":"1401","name":"Alpnach","shortName":"Alpnach"},"district":{"key":"600","name":"Kanton Obwalden"},"canton":{"key":"6","code":"OW","name":"Obwalden"},"status":"Real"},{"key":"10183974","name":"Schwändli","postalCode":"6055","locality":"Alpnach Dorf","commune":{"key":"1401","name":"Alpnach","shortName":"Alpnach"},"district":{"key":"600","name":"Kanton Obwalden"},"canton":{"key":"6","code":"OW","name":"Obwalden"},"status":"Real"},{"key":"10212192","name":"Schwarzenbergstrasse","postalCode":"6055","locality":"Alpnach Dorf","commune":{"key":"1401","name":"Alpnach","shortName":"Alpnach"},"district":{"key":"600","name":"Kanton Obwalden"},"canton":{"key":"6","code":"OW","name":"Obwalden"},"status":"Real"},{"key":"10087412","name":"Schwarziberg","postalCode":"6055","locality":"Alpnach Dorf","commune":{"key":"1401","name":"Alpnach","shortName":"Alpnach"},"district":{"key":"600","name":"Kanton Obwalden"},"canton":{"key":"6","code":"OW","name":"Obwalden"},"status":"Real"},{"key":"10051088","name":"Schwerzi","postalCode":"6055","locality":"Alpnach Dorf","commune":{"key":"1401","name":"Alpnach","shortName":"Alpnach"},"district":{"key":"600","name":"Kanton Obwalden"},"canton":{"key":"6","code":"OW","name":"Obwalden"},"status":"Real"},{"key":"10010782","name":"Seewli","postalCode":"6055","locality":"Alpnach Dorf","commune":{"key":"1401","name":"Alpnach","shortName":"Alpnach"},"district":{"key":"600","name":"Kanton Obwalden"},"canton":{"key":"6","code":"OW","name":"Obwalden"},"status":"Real"},{"key":"10051089","name":"Sessel","postalCode":"6055","locality":"Alpnach Dorf","commune":{"key":"1401","name":"Alpnach","shortName":"Alpnach"},"district":{"key":"600","name":"Kanton Obwalden"},"canton":{"key":"6","code":"OW","name":"Obwalden"},"status":"Real"},{"key":"10010783","name":"Sonnmattstrasse","postalCode":"6055","locality":"Alpnach Dorf","commune":{"key":"1401","name":"Alpnach","shortName":"Alpnach"},"district":{"key":"600","name":"Kanton Obwalden"},"canton":{"key":"6","code":"OW","name":"Obwalden"},"status":"Real"},{"key":"10192193","name":"Sonnmattweg","postalCode":"6055","locality":"Alpnach Dorf","commune":{"key":"1401","name":"Alpnach","shortName":"Alpnach"},"district":{"key":"600","name":"Kanton Obwalden"},"canton":{"key":"6","code":"OW","name":"Obwalden"},"status":"Real"},{"key":"10010784","name":"Spittelgasse","postalCode":"6055","locality":"Alpnach Dorf","commune":{"key":"1401","name":"Alpnach","shortName":"Alpnach"},"district":{"key":"600","name":"Kanton Obwalden"},"canton":{"key":"6","code":"OW","name":"Obwalden"},"status":"Real"},{"key":"10087413","name":"Spitzachen","postalCode":"6055","locality":"Alpnach Dorf","commune":{"key":"1401","name":"Alpnach","shortName":"Alpnach"},"district":{"key":"600","name":"Kanton Obwalden"},"canton":{"key":"6","code":"OW","name":"Obwalden"},"status":"Real"},{"key":"10010455","name":"Städerried","postalCode":"6053","locality":"Alpnachstad","commune":{"key":"1401","name":"Alpnach","shortName":"Alpnach"},"district":{"key":"600","name":"Kanton Obwalden"},"canton":{"key":"6","code":"OW","name":"Obwalden"},"status":"Real"},{"key":"10114794","name":"Staldeli","postalCode":"6055","locality":"Alpnach Dorf","commune":{"key":"1401","name":"Alpnach","shortName":"Alpnach"},"district":{"key":"600","name":"Kanton Obwalden"},"canton":{"key":"6","code":"OW","name":"Obwalden"},"status":"Real"},{"key":"10010785","name":"Steinmattli","postalCode":"6055","locality":"Alpnach Dorf","commune":{"key":"1401","name":"Alpnach","shortName":"Alpnach"},"district":{"key":"600","name":"Kanton Obwalden"},"canton":{"key":"6","code":"OW","name":"Obwalden"},"status":"Real"},{"key":"10183975","name":"Steinweid","postalCode":"6055","locality":"Alpnach Dorf","commune":{"key":"1401","name":"Alpnach","shortName":"Alpnach"},"district":{"key":"600","name":"Kanton Obwalden"},"canton":{"key":"6","code":"OW","name":"Obwalden"},"status":"Real"},{"key":"10175359","name":"Stieg","postalCode":"6055","locality":"Alpnach Dorf","commune":{"key":"1401","name":"Alpnach","shortName":"Alpnach"},"district":{"key":"600","name":"Kanton Obwalden"},"canton":{"key":"6","code":"OW","name":"Obwalden"},"status":"Real"},{"key":"10071262","name":"Stöcken","postalCode":"6055","locality":"Alpnach Dorf","commune":{"key":"1401","name":"Alpnach","shortName":"Alpnach"},"district":{"key":"600","name":"Kanton Obwalden"},"canton":{"key":"6","code":"OW","name":"Obwalden"},"status":"Real"},{"key":"10010786","name":"Stöckenried","postalCode":"6055","locality":"Alpnach Dorf","commune":{"key":"1401","name":"Alpnach","shortName":"Alpnach"},"district":{"key":"600","name":"Kanton Obwalden"},"canton":{"key":"6","code":"OW","name":"Obwalden"},"status":"Real"},{"key":"10051090","name":"Uechteren","postalCode":"6055","locality":"Alpnach Dorf","commune":{"key":"1401","name":"Alpnach","shortName":"Alpnach"},"district":{"key":"600","name":"Kanton Obwalden"},"canton":{"key":"6","code":"OW","name":"Obwalden"},"status":"Real"},{"key":"10087414","name":"Unterdorfstrasse","postalCode":"6055","locality":"Alpnach Dorf","commune":{"key":"1401","name":"Alpnach","shortName":"Alpnach"},"district":{"key":"600","name":"Kanton Obwalden"},"canton":{"key":"6","code":"OW","name":"Obwalden"},"status":"Real"},{"key":"10110570","name":"Unterdorfweg","postalCode":"6055","locality":"Alpnach Dorf","commune":{"key":"1401","name":"Alpnach","shortName":"Alpnach"},"district":{"key":"600","name":"Kanton Obwalden"},"canton":{"key":"6","code":"OW","name":"Obwalden"},"status":"Real"},{"key":"10071263","name":"Untere Bodenmatt","postalCode":"6055","locality":"Alpnach Dorf","commune":{"key":"1401","name":"Alpnach","shortName":"Alpnach"},"district":{"key":"600","name":"Kanton Obwalden"},"canton":{"key":"6","code":"OW","name":"Obwalden"},"status":"Real"},{"key":"10087415","name":"Untere Feldstrasse","postalCode":"6055","locality":"Alpnach Dorf","commune":{"key":"1401","name":"Alpnach","shortName":"Alpnach"},"district":{"key":"600","name":"Kanton Obwalden"},"canton":{"key":"6","code":"OW","name":"Obwalden"},"status":"Real"},{"key":"10122361","name":"Untere Gründlistrasse","postalCode":"6055","locality":"Alpnach Dorf","commune":{"key":"1401","name":"Alpnach","shortName":"Alpnach"},"district":{"key":"600","name":"Kanton Obwalden"},"canton":{"key":"6","code":"OW","name":"Obwalden"},"status":"Real"},{"key":"10051091","name":"Unterfuhr","postalCode":"6055","locality":"Alpnach Dorf","commune":{"key":"1401","name":"Alpnach","shortName":"Alpnach"},"district":{"key":"600","name":"Kanton Obwalden"},"canton":{"key":"6","code":"OW","name":"Obwalden"},"status":"Real"},{"key":"10010787","name":"Vockigenstrasse","postalCode":"6055","locality":"Alpnach Dorf","commune":{"key":"1401","name":"Alpnach","shortName":"Alpnach"},"district":{"key":"600","name":"Kanton Obwalden"},"canton":{"key":"6","code":"OW","name":"Obwalden"},"status":"Real"},{"key":"10087416","name":"Waldegg","postalCode":"6055","locality":"Alpnach Dorf","commune":{"key":"1401","name":"Alpnach","shortName":"Alpnach"},"district":{"key":"600","name":"Kanton Obwalden"},"canton":{"key":"6","code":"OW","name":"Obwalden"},"status":"Real"},{"key":"10105898","name":"Walkersrüti","postalCode":"6055","locality":"Alpnach Dorf","commune":{"key":"1401","name":"Alpnach","shortName":"Alpnach"},"district":{"key":"600","name":"Kanton Obwalden"},"canton":{"key":"6","code":"OW","name":"Obwalden"},"status":"Real"},{"key":"10112713","name":"Weidli","postalCode":"6055","locality":"Alpnach Dorf","commune":{"key":"1401","name":"Alpnach","shortName":"Alpnach"},"district":{"key":"600","name":"Kanton Obwalden"},"canton":{"key":"6","code":"OW","name":"Obwalden"},"status":"Real"},{"key":"10010788","name":"Wichelseestrasse","postalCode":"6055","locality":"Alpnach Dorf","commune":{"key":"1401","name":"Alpnach","shortName":"Alpnach"},"district":{"key":"600","name":"Kanton Obwalden"},"canton":{"key":"6","code":"OW","name":"Obwalden"},"status":"Real"},{"key":"10183976","name":"Wicketli","postalCode":"6055","locality":"Alpnach Dorf","commune":{"key":"1401","name":"Alpnach","shortName":"Alpnach"},"district":{"key":"600","name":"Kanton Obwalden"},"canton":{"key":"6","code":"OW","name":"Obwalden"},"status":"Real"},{"key":"10087417","name":"Zeissel","postalCode":"6055","locality":"Alpnach Dorf","commune":{"key":"1401","name":"Alpnach","shortName":"Alpnach"},"district":{"key":"600","name":"Kanton Obwalden"},"canton":{"key":"6","code":"OW","name":"Obwalden"},"status":"Real"},{"key":"10010789","name":"Zelg","postalCode":"6055","locality":"Alpnach Dorf","commune":{"key":"1401","name":"Alpnach","shortName":"Alpnach"},"district":{"key":"600","name":"Kanton Obwalden"},"canton":{"key":"6","code":"OW","name":"Obwalden"},"status":"Real"},{"key":"10192138","name":"Zelgwald","postalCode":"6055","locality":"Alpnach Dorf","commune":{"key":"1401","name":"Alpnach","shortName":"Alpnach"},"district":{"key":"600","name":"Kanton Obwalden"},"canton":{"key":"6","code":"OW","name":"Obwalden"},"status":"Real"},{"key":"10180574","name":"Zineichen","postalCode":"6055","locality":"Alpnach Dorf","commune":{"key":"1401","name":"Alpnach","shortName":"Alpnach"},"district":{"key":"600","name":"Kanton Obwalden"},"canton":{"key":"6","code":"OW","name":"Obwalden"},"status":"Real"},{"key":"10251582","name":"Zineichengasse","postalCode":"6055","locality":"Alpnach Dorf","commune":{"key":"1401","name":"Alpnach","shortName":"Alpnach"},"district":{"key":"600","name":"Kanton Obwalden"},"canton":{"key":"6","code":"OW","name":"Obwalden"},"status":"Real"},{"key":"10196655","name":"Älggäu","postalCode":"6055","locality":"Alpnach Dorf","commune":{"key":"1401","name":"Alpnach","shortName":"Alpnach"},"district":{"key":"600","name":"Kanton Obwalden"},"canton":{"key":"6","code":"OW","name":"Obwalden"},"status":"Real"},]