[{"key":"10248735","name":"Ahornweg","postalCode":"8142","locality":"Uitikon Waldegg","commune":{"key":"261","name":"Zürich","shortName":"Zürich"},"district":{"key":"112","name":"Bezirk Zürich"},"canton":{"key":"1","code":"ZH","name":"Zürich"},"status":"Real"},{"key":"10105483","name":"Albisriederstrasse","postalCode":"8142","locality":"Uitikon Waldegg","commune":{"key":"261","name":"Zürich","shortName":"Zürich"},"district":{"key":"112","name":"Bezirk Zürich"},"canton":{"key":"1","code":"ZH","name":"Zürich"},"status":"Real"},{"key":"10006759","name":"Allmendstrasse","postalCode":"8142","locality":"Uitikon Waldegg","commune":{"key":"261","name":"Zürich","shortName":"Zürich"},"district":{"key":"112","name":"Bezirk Zürich"},"canton":{"key":"1","code":"ZH","name":"Zürich"},"status":"Real"},{"key":"10074832","name":"Altenweg","postalCode":"8142","locality":"Uitikon Waldegg","commune":{"key":"261","name":"Zürich","shortName":"Zürich"},"district":{"key":"112","name":"Bezirk Zürich"},"canton":{"key":"1","code":"ZH","name":"Zürich"},"status":"Real"},{"key":"10142893","name":"Altstetter-Weg","postalCode":"8142","locality":"Uitikon Waldegg","commune":{"key":"261","name":"Zürich","shortName":"Zürich"},"district":{"key":"112","name":"Bezirk Zürich"},"canton":{"key":"1","code":"ZH","name":"Zürich"},"status":"Real"},{"key":"10190085","name":"Arthur-Rohn-Strasse","postalCode":"8142","locality":"Uitikon Waldegg","commune":{"key":"261","name":"Zürich","shortName":"Zürich"},"district":{"key":"112","name":"Bezirk Zürich"},"canton":{"key":"1","code":"ZH","name":"Zürich"},"status":"Real"},{"key":"10178618","name":"Bahnweg","postalCode":"8142","locality":"Uitikon Waldegg","commune":{"key":"261","name":"Zürich","shortName":"Zürich"},"district":{"key":"112","name":"Bezirk Zürich"},"canton":{"key":"1","code":"ZH","name":"Zürich"},"status":"Real"},{"key":"10006760","name":"Bergstrasse","postalCode":"8142","locality":"Uitikon Waldegg","commune":{"key":"261","name":"Zürich","shortName":"Zürich"},"district":{"key":"112","name":"Bezirk Zürich"},"canton":{"key":"1","code":"ZH","name":"Zürich"},"status":"Real"},{"key":"10060424","name":"Binzmatt","postalCode":"8142","locality":"Uitikon Waldegg","commune":{"key":"261","name":"Zürich","shortName":"Zürich"},"district":{"key":"112","name":"Bezirk Zürich"},"canton":{"key":"1","code":"ZH","name":"Zürich"},"status":"Real"},{"key":"10074833","name":"Birmensdorferstrasse","postalCode":"8142","locality":"Uitikon Waldegg","commune":{"key":"261","name":"Zürich","shortName":"Zürich"},"district":{"key":"112","name":"Bezirk Zürich"},"canton":{"key":"1","code":"ZH","name":"Zürich"},"status":"Real"},{"key":"10142894","name":"Bodenweg","postalCode":"8142","locality":"Uitikon Waldegg","commune":{"key":"261","name":"Zürich","shortName":"Zürich"},"district":{"key":"112","name":"Bezirk Zürich"},"canton":{"key":"1","code":"ZH","name":"Zürich"},"status":"Real"},{"key":"10006761","name":"Breitacherstrasse","postalCode":"8142","locality":"Uitikon Waldegg","commune":{"key":"261","name":"Zürich","shortName":"Zürich"},"district":{"key":"112","name":"Bezirk Zürich"},"canton":{"key":"1","code":"ZH","name":"Zürich"},"status":"Real"},{"key":"10240800","name":"Bruno-Bauder-Weg","postalCode":"8142","locality":"Uitikon Waldegg","commune":{"key":"261","name":"Zürich","shortName":"Zürich"},"district":{"key":"112","name":"Bezirk Zürich"},"canton":{"key":"1","code":"ZH","name":"Zürich"},"status":"Real"},{"key":"10245443","name":"Buechhogerstrasse","postalCode":"8142","locality":"Uitikon Waldegg","commune":{"key":"261","name":"Zürich","shortName":"Zürich"},"district":{"key":"112","name":"Bezirk Zürich"},"canton":{"key":"1","code":"ZH","name":"Zürich"},"status":"Real"},{"key":"10060425","name":"Büelweg","postalCode":"8142","locality":"Uitikon Waldegg","commune":{"key":"261","name":"Zürich","shortName":"Zürich"},"district":{"key":"112","name":"Bezirk Zürich"},"canton":{"key":"1","code":"ZH","name":"Zürich"},"status":"Real"},{"key":"10006762","name":"Bühlstrasse","postalCode":"8142","locality":"Uitikon Waldegg","commune":{"key":"261","name":"Zürich","shortName":"Zürich"},"district":{"key":"112","name":"Bezirk Zürich"},"canton":{"key":"1","code":"ZH","name":"Zürich"},"status":"Real"},{"key":"10006763","name":"Chapfstrasse","postalCode":"8142","locality":"Uitikon Waldegg","commune":{"key":"261","name":"Zürich","shortName":"Zürich"},"district":{"key":"112","name":"Bezirk Zürich"},"canton":{"key":"1","code":"ZH","name":"Zürich"},"status":"Real"},{"key":"10006764","name":"Chliwisstrasse","postalCode":"8142","locality":"Uitikon Waldegg","commune":{"key":"261","name":"Zürich","shortName":"Zürich"},"district":{"key":"112","name":"Bezirk Zürich"},"canton":{"key":"1","code":"ZH","name":"Zürich"},"status":"Real"},{"key":"10074834","name":"Eduard-Gut-Strasse","postalCode":"8142","locality":"Uitikon Waldegg","commune":{"key":"261","name":"Zürich","shortName":"Zürich"},"district":{"key":"112","name":"Bezirk Zürich"},"canton":{"key":"1","code":"ZH","name":"Zürich"},"status":"Real"},{"key":"10055528","name":"Eggetürliweg","postalCode":"8142","locality":"Uitikon Waldegg","commune":{"key":"261","name":"Zürich","shortName":"Zürich"},"district":{"key":"112","name":"Bezirk Zürich"},"canton":{"key":"1","code":"ZH","name":"Zürich"},"status":"Real"},{"key":"10060426","name":"Eichstrasse","postalCode":"8142","locality":"Uitikon Waldegg","commune":{"key":"261","name":"Zürich","shortName":"Zürich"},"district":{"key":"112","name":"Bezirk Zürich"},"canton":{"key":"1","code":"ZH","name":"Zürich"},"status":"Real"},{"key":"10249107","name":"Feldenmoosstrasse","postalCode":"8142","locality":"Uitikon Waldegg","commune":{"key":"261","name":"Zürich","shortName":"Zürich"},"district":{"key":"112","name":"Bezirk Zürich"},"canton":{"key":"1","code":"ZH","name":"Zürich"},"status":"Real"},{"key":"10111563","name":"Gätternstrasse","postalCode":"8142","locality":"Uitikon Waldegg","commune":{"key":"261","name":"Zürich","shortName":"Zürich"},"district":{"key":"112","name":"Bezirk Zürich"},"canton":{"key":"1","code":"ZH","name":"Zürich"},"status":"Real"},{"key":"10178619","name":"Gläserenstrasse","postalCode":"8142","locality":"Uitikon Waldegg","commune":{"key":"261","name":"Zürich","shortName":"Zürich"},"district":{"key":"112","name":"Bezirk Zürich"},"canton":{"key":"1","code":"ZH","name":"Zürich"},"status":"Real"},{"key":"10055529","name":"Gnellenstrasse","postalCode":"8142","locality":"Uitikon Waldegg","commune":{"key":"261","name":"Zürich","shortName":"Zürich"},"district":{"key":"112","name":"Bezirk Zürich"},"canton":{"key":"1","code":"ZH","name":"Zürich"},"status":"Real"},{"key":"10245444","name":"Grossmattstrasse","postalCode":"8142","locality":"Uitikon Waldegg","commune":{"key":"261","name":"Zürich","shortName":"Zürich"},"district":{"key":"112","name":"Bezirk Zürich"},"canton":{"key":"1","code":"ZH","name":"Zürich"},"status":"Real"},{"key":"10248822","name":"Grossmattweg","postalCode":"8142","locality":"Uitikon Waldegg","commune":{"key":"261","name":"Zürich","shortName":"Zürich"},"district":{"key":"112","name":"Bezirk Zürich"},"canton":{"key":"1","code":"ZH","name":"Zürich"},"status":"Real"},{"key":"10074835","name":"Haldenacherstrasse","postalCode":"8142","locality":"Uitikon Waldegg","commune":{"key":"261","name":"Zürich","shortName":"Zürich"},"district":{"key":"112","name":"Bezirk Zürich"},"canton":{"key":"1","code":"ZH","name":"Zürich"},"status":"Real"},{"key":"10006765","name":"Haldenstrasse","postalCode":"8142","locality":"Uitikon Waldegg","commune":{"key":"261","name":"Zürich","shortName":"Zürich"},"district":{"key":"112","name":"Bezirk Zürich"},"canton":{"key":"1","code":"ZH","name":"Zürich"},"status":"Real"},{"key":"10055530","name":"Haslenweg","postalCode":"8142","locality":"Uitikon Waldegg","commune":{"key":"261","name":"Zürich","shortName":"Zürich"},"district":{"key":"112","name":"Bezirk Zürich"},"canton":{"key":"1","code":"ZH","name":"Zürich"},"status":"Real"},{"key":"10167441","name":"Hohensteinstrasse","postalCode":"8142","locality":"Uitikon Waldegg","commune":{"key":"261","name":"Zürich","shortName":"Zürich"},"district":{"key":"112","name":"Bezirk Zürich"},"canton":{"key":"1","code":"ZH","name":"Zürich"},"status":"Real"},{"key":"10118002","name":"Höhenweg","postalCode":"8142","locality":"Uitikon Waldegg","commune":{"key":"261","name":"Zürich","shortName":"Zürich"},"district":{"key":"112","name":"Bezirk Zürich"},"canton":{"key":"1","code":"ZH","name":"Zürich"},"status":"Real"},{"key":"10060427","name":"Husacherstrasse","postalCode":"8142","locality":"Uitikon Waldegg","commune":{"key":"261","name":"Zürich","shortName":"Zürich"},"district":{"key":"112","name":"Bezirk Zürich"},"canton":{"key":"1","code":"ZH","name":"Zürich"},"status":"Real"},{"key":"10006766","name":"Im Spilhöfler","postalCode":"8142","locality":"Uitikon Waldegg","commune":{"key":"261","name":"Zürich","shortName":"Zürich"},"district":{"key":"112","name":"Bezirk Zürich"},"canton":{"key":"1","code":"ZH","name":"Zürich"},"status":"Real"},{"key":"10164856","name":"Im Sürenloh","postalCode":"8142","locality":"Uitikon Waldegg","commune":{"key":"261","name":"Zürich","shortName":"Zürich"},"district":{"key":"112","name":"Bezirk Zürich"},"canton":{"key":"1","code":"ZH","name":"Zürich"},"status":"Real"},{"key":"10182270","name":"Im Waidli","postalCode":"8142","locality":"Uitikon Waldegg","commune":{"key":"261","name":"Zürich","shortName":"Zürich"},"district":{"key":"112","name":"Bezirk Zürich"},"canton":{"key":"1","code":"ZH","name":"Zürich"},"status":"Real"},{"key":"10060428","name":"In der Rüti","postalCode":"8142","locality":"Uitikon Waldegg","commune":{"key":"261","name":"Zürich","shortName":"Zürich"},"district":{"key":"112","name":"Bezirk Zürich"},"canton":{"key":"1","code":"ZH","name":"Zürich"},"status":"Real"},{"key":"10142899","name":"Jurablick","postalCode":"8142","locality":"Uitikon Waldegg","commune":{"key":"261","name":"Zürich","shortName":"Zürich"},"district":{"key":"112","name":"Bezirk Zürich"},"canton":{"key":"1","code":"ZH","name":"Zürich"},"status":"Real"},{"key":"10142895","name":"Kreuzwegstrasse","postalCode":"8142","locality":"Uitikon Waldegg","commune":{"key":"261","name":"Zürich","shortName":"Zürich"},"district":{"key":"112","name":"Bezirk Zürich"},"canton":{"key":"1","code":"ZH","name":"Zürich"},"status":"Real"},{"key":"10152676","name":"Kurt-Neeser-Weg","postalCode":"8142","locality":"Uitikon Waldegg","commune":{"key":"261","name":"Zürich","shortName":"Zürich"},"district":{"key":"112","name":"Bezirk Zürich"},"canton":{"key":"1","code":"ZH","name":"Zürich"},"status":"Real"},{"key":"10055531","name":"Langackerstrasse","postalCode":"8142","locality":"Uitikon Waldegg","commune":{"key":"261","name":"Zürich","shortName":"Zürich"},"district":{"key":"112","name":"Bezirk Zürich"},"canton":{"key":"1","code":"ZH","name":"Zürich"},"status":"Real"},{"key":"10006767","name":"Langwiesstrasse","postalCode":"8142","locality":"Uitikon Waldegg","commune":{"key":"261","name":"Zürich","shortName":"Zürich"},"district":{"key":"112","name":"Bezirk Zürich"},"canton":{"key":"1","code":"ZH","name":"Zürich"},"status":"Real"},{"key":"10142896","name":"Lättensteig","postalCode":"8142","locality":"Uitikon Waldegg","commune":{"key":"261","name":"Zürich","shortName":"Zürich"},"district":{"key":"112","name":"Bezirk Zürich"},"canton":{"key":"1","code":"ZH","name":"Zürich"},"status":"Real"},{"key":"10098534","name":"Lättenstrasse","postalCode":"8142","locality":"Uitikon Waldegg","commune":{"key":"261","name":"Zürich","shortName":"Zürich"},"district":{"key":"112","name":"Bezirk Zürich"},"canton":{"key":"1","code":"ZH","name":"Zürich"},"status":"Real"},{"key":"10209135","name":"Leuengasse","postalCode":"8142","locality":"Uitikon Waldegg","commune":{"key":"261","name":"Zürich","shortName":"Zürich"},"district":{"key":"112","name":"Bezirk Zürich"},"canton":{"key":"1","code":"ZH","name":"Zürich"},"status":"Real"},{"key":"10248804","name":"Leuenplatz","postalCode":"8142","locality":"Uitikon Waldegg","commune":{"key":"261","name":"Zürich","shortName":"Zürich"},"district":{"key":"112","name":"Bezirk Zürich"},"canton":{"key":"1","code":"ZH","name":"Zürich"},"status":"Real"},{"key":"10006768","name":"Leuenweg","postalCode":"8142","locality":"Uitikon Waldegg","commune":{"key":"261","name":"Zürich","shortName":"Zürich"},"district":{"key":"112","name":"Bezirk Zürich"},"canton":{"key":"1","code":"ZH","name":"Zürich"},"status":"Real"},{"key":"10074836","name":"Lindenweg","postalCode":"8142","locality":"Uitikon Waldegg","commune":{"key":"261","name":"Zürich","shortName":"Zürich"},"district":{"key":"112","name":"Bezirk Zürich"},"canton":{"key":"1","code":"ZH","name":"Zürich"},"status":"Real"},{"key":"10060429","name":"Mangoldweg","postalCode":"8142","locality":"Uitikon Waldegg","commune":{"key":"261","name":"Zürich","shortName":"Zürich"},"district":{"key":"112","name":"Bezirk Zürich"},"canton":{"key":"1","code":"ZH","name":"Zürich"},"status":"Real"},{"key":"10006769","name":"Mangoldwiese","postalCode":"8142","locality":"Uitikon Waldegg","commune":{"key":"261","name":"Zürich","shortName":"Zürich"},"district":{"key":"112","name":"Bezirk Zürich"},"canton":{"key":"1","code":"ZH","name":"Zürich"},"status":"Real"},{"key":"10178620","name":"Mettlenstrasse","postalCode":"8142","locality":"Uitikon Waldegg","commune":{"key":"261","name":"Zürich","shortName":"Zürich"},"district":{"key":"112","name":"Bezirk Zürich"},"canton":{"key":"1","code":"ZH","name":"Zürich"},"status":"Real"},{"key":"10055532","name":"Neuhausstrasse","postalCode":"8142","locality":"Uitikon Waldegg","commune":{"key":"261","name":"Zürich","shortName":"Zürich"},"district":{"key":"112","name":"Bezirk Zürich"},"canton":{"key":"1","code":"ZH","name":"Zürich"},"status":"Real"},{"key":"10142897","name":"Oberer Brandweg","postalCode":"8142","locality":"Uitikon Waldegg","commune":{"key":"261","name":"Zürich","shortName":"Zürich"},"district":{"key":"112","name":"Bezirk Zürich"},"canton":{"key":"1","code":"ZH","name":"Zürich"},"status":"Real"},{"key":"10124102","name":"Obere Stockrütistrasse","postalCode":"8142","locality":"Uitikon Waldegg","commune":{"key":"261","name":"Zürich","shortName":"Zürich"},"district":{"key":"112","name":"Bezirk Zürich"},"canton":{"key":"1","code":"ZH","name":"Zürich"},"status":"Real"},{"key":"10248833","name":"Panoramaweg","postalCode":"8142","locality":"Uitikon Waldegg","commune":{"key":"261","name":"Zürich","shortName":"Zürich"},"district":{"key":"112","name":"Bezirk Zürich"},"canton":{"key":"1","code":"ZH","name":"Zürich"},"status":"Real"},{"key":"10006770","name":"Pfaffenacherstrasse","postalCode":"8142","locality":"Uitikon Waldegg","commune":{"key":"261","name":"Zürich","shortName":"Zürich"},"district":{"key":"112","name":"Bezirk Zürich"},"canton":{"key":"1","code":"ZH","name":"Zürich"},"status":"Real"},{"key":"10142898","name":"Plenterstrasse","postalCode":"8142","locality":"Uitikon Waldegg","commune":{"key":"261","name":"Zürich","shortName":"Zürich"},"district":{"key":"112","name":"Bezirk Zürich"},"canton":{"key":"1","code":"ZH","name":"Zürich"},"status":"Real"},{"key":"10152677","name":"Polenweg","postalCode":"8142","locality":"Uitikon Waldegg","commune":{"key":"261","name":"Zürich","shortName":"Zürich"},"district":{"key":"112","name":"Bezirk Zürich"},"canton":{"key":"1","code":"ZH","name":"Zürich"},"status":"Real"},{"key":"10055533","name":"Rietwisstrasse","postalCode":"8142","locality":"Uitikon Waldegg","commune":{"key":"261","name":"Zürich","shortName":"Zürich"},"district":{"key":"112","name":"Bezirk Zürich"},"canton":{"key":"1","code":"ZH","name":"Zürich"},"status":"Real"},{"key":"10060430","name":"Ringlikerstrasse","postalCode":"8142","locality":"Uitikon Waldegg","commune":{"key":"261","name":"Zürich","shortName":"Zürich"},"district":{"key":"112","name":"Bezirk Zürich"},"canton":{"key":"1","code":"ZH","name":"Zürich"},"status":"Real"},{"key":"10152678","name":"Ringstrasse","postalCode":"8142","locality":"Uitikon Waldegg","commune":{"key":"261","name":"Zürich","shortName":"Zürich"},"district":{"key":"112","name":"Bezirk Zürich"},"canton":{"key":"1","code":"ZH","name":"Zürich"},"status":"Real"},{"key":"10006771","name":"Schlierenstrasse","postalCode":"8142","locality":"Uitikon Waldegg","commune":{"key":"261","name":"Zürich","shortName":"Zürich"},"district":{"key":"112","name":"Bezirk Zürich"},"canton":{"key":"1","code":"ZH","name":"Zürich"},"status":"Real"},{"key":"10177520","name":"Schwandenhof","postalCode":"8142","locality":"Uitikon Waldegg","commune":{"key":"261","name":"Zürich","shortName":"Zürich"},"district":{"key":"112","name":"Bezirk Zürich"},"canton":{"key":"1","code":"ZH","name":"Zürich"},"status":"Real"},{"key":"10245865","name":"Schwandenhofweg","postalCode":"8142","locality":"Uitikon Waldegg","commune":{"key":"261","name":"Zürich","shortName":"Zürich"},"district":{"key":"112","name":"Bezirk Zürich"},"canton":{"key":"1","code":"ZH","name":"Zürich"},"status":"Real"},{"key":"10201473","name":"Schwandenstrasse","postalCode":"8142","locality":"Uitikon Waldegg","commune":{"key":"261","name":"Zürich","shortName":"Zürich"},"district":{"key":"112","name":"Bezirk Zürich"},"canton":{"key":"1","code":"ZH","name":"Zürich"},"status":"Real"},{"key":"10169052","name":"Schwerzgruebstrasse","postalCode":"8142","locality":"Uitikon Waldegg","commune":{"key":"261","name":"Zürich","shortName":"Zürich"},"district":{"key":"112","name":"Bezirk Zürich"},"canton":{"key":"1","code":"ZH","name":"Zürich"},"status":"Real"},{"key":"10074837","name":"Sonnhaldenstrasse","postalCode":"8142","locality":"Uitikon Waldegg","commune":{"key":"261","name":"Zürich","shortName":"Zürich"},"district":{"key":"112","name":"Bezirk Zürich"},"canton":{"key":"1","code":"ZH","name":"Zürich"},"status":"Real"},{"key":"10055534","name":"Stallikerstrasse","postalCode":"8142","locality":"Uitikon Waldegg","commune":{"key":"261","name":"Zürich","shortName":"Zürich"},"district":{"key":"112","name":"Bezirk Zürich"},"canton":{"key":"1","code":"ZH","name":"Zürich"},"status":"Real"},{"key":"10248666","name":"Steinenlooweg","postalCode":"8142","locality":"Uitikon Waldegg","commune":{"key":"261","name":"Zürich","shortName":"Zürich"},"district":{"key":"112","name":"Bezirk Zürich"},"canton":{"key":"1","code":"ZH","name":"Zürich"},"status":"Real"},{"key":"10006772","name":"Suracherstrasse","postalCode":"8142","locality":"Uitikon Waldegg","commune":{"key":"261","name":"Zürich","shortName":"Zürich"},"district":{"key":"112","name":"Bezirk Zürich"},"canton":{"key":"1","code":"ZH","name":"Zürich"},"status":"Real"},{"key":"10006773","name":"Uetlibergstrasse","postalCode":"8142","locality":"Uitikon Waldegg","commune":{"key":"261","name":"Zürich","shortName":"Zürich"},"district":{"key":"112","name":"Bezirk Zürich"},"canton":{"key":"1","code":"ZH","name":"Zürich"},"status":"Real"},{"key":"10060431","name":"Under Mangoldwis","postalCode":"8142","locality":"Uitikon Waldegg","commune":{"key":"261","name":"Zürich","shortName":"Zürich"},"district":{"key":"112","name":"Bezirk Zürich"},"canton":{"key":"1","code":"ZH","name":"Zürich"},"status":"Real"},{"key":"10074838","name":"Untere Stockrütistrasse","postalCode":"8142","locality":"Uitikon Waldegg","commune":{"key":"261","name":"Zürich","shortName":"Zürich"},"district":{"key":"112","name":"Bezirk Zürich"},"canton":{"key":"1","code":"ZH","name":"Zürich"},"status":"Real"},{"key":"10098535","name":"Urdorferstrasse","postalCode":"8142","locality":"Uitikon Waldegg","commune":{"key":"261","name":"Zürich","shortName":"Zürich"},"district":{"key":"112","name":"Bezirk Zürich"},"canton":{"key":"1","code":"ZH","name":"Zürich"},"status":"Real"},{"key":"10248357","name":"Waldeggweg","postalCode":"8142","locality":"Uitikon Waldegg","commune":{"key":"261","name":"Zürich","shortName":"Zürich"},"district":{"key":"112","name":"Bezirk Zürich"},"canton":{"key":"1","code":"ZH","name":"Zürich"},"status":"Real"},{"key":"10118003","name":"Wängimattweg","postalCode":"8142","locality":"Uitikon Waldegg","commune":{"key":"261","name":"Zürich","shortName":"Zürich"},"district":{"key":"112","name":"Bezirk Zürich"},"canton":{"key":"1","code":"ZH","name":"Zürich"},"status":"Real"},{"key":"10006774","name":"Wängistrasse","postalCode":"8142","locality":"Uitikon Waldegg","commune":{"key":"261","name":"Zürich","shortName":"Zürich"},"district":{"key":"112","name":"Bezirk Zürich"},"canton":{"key":"1","code":"ZH","name":"Zürich"},"status":"Real"},{"key":"10245445","name":"Widacherstrasse","postalCode":"8142","locality":"Uitikon Waldegg","commune":{"key":"261","name":"Zürich","shortName":"Zürich"},"district":{"key":"112","name":"Bezirk Zürich"},"canton":{"key":"1","code":"ZH","name":"Zürich"},"status":"Real"},{"key":"10055535","name":"Zopfstrasse","postalCode":"8142","locality":"Uitikon Waldegg","commune":{"key":"261","name":"Zürich","shortName":"Zürich"},"district":{"key":"112","name":"Bezirk Zürich"},"canton":{"key":"1","code":"ZH","name":"Zürich"},"status":"Real"},{"key":"10190081","name":"Zürcherstrasse","postalCode":"8142","locality":"Uitikon Waldegg","commune":{"key":"261","name":"Zürich","shortName":"Zürich"},"district":{"key":"112","name":"Bezirk Zürich"},"canton":{"key":"1","code":"ZH","name":"Zürich"},"status":"Real"},]