[{"key":"10235721","name":"Buarina","postalCode":"6720","locality":"Campo (Blenio)","commune":{"key":"5049","name":"Blenio","shortName":"Blenio"},"district":{"key":"2102","name":"Distretto di Blenio"},"canton":{"key":"21","code":"TI","name":"Ticino"},"status":"Real"},{"key":"10206926","name":"Campo (Nucleo)","postalCode":"6720","locality":"Campo (Blenio)","commune":{"key":"5049","name":"Blenio","shortName":"Blenio"},"district":{"key":"2102","name":"Distretto di Blenio"},"canton":{"key":"21","code":"TI","name":"Ticino"},"status":"Real"},{"key":"10131807","name":"Carcarida","postalCode":"6720","locality":"Campo (Blenio)","commune":{"key":"5049","name":"Blenio","shortName":"Blenio"},"district":{"key":"2102","name":"Distretto di Blenio"},"canton":{"key":"21","code":"TI","name":"Ticino"},"status":"Real"},{"key":"10235398","name":"Cregua","postalCode":"6721","locality":"Motto (Blenio)","commune":{"key":"5048","name":"Acquarossa","shortName":"Acquarossa"},"district":{"key":"2102","name":"Distretto di Blenio"},"canton":{"key":"21","code":"TI","name":"Ticino"},"status":"Real"},{"key":"10206927","name":"Fáura","postalCode":"6720","locality":"Campo (Blenio)","commune":{"key":"5049","name":"Blenio","shortName":"Blenio"},"district":{"key":"2102","name":"Distretto di Blenio"},"canton":{"key":"21","code":"TI","name":"Ticino"},"status":"Real"},{"key":"10235428","name":"Lavill","postalCode":"6721","locality":"Motto (Blenio)","commune":{"key":"5048","name":"Acquarossa","shortName":"Acquarossa"},"district":{"key":"2102","name":"Distretto di Blenio"},"canton":{"key":"21","code":"TI","name":"Ticino"},"status":"Real"},{"key":"10131809","name":"Orsàira","postalCode":"6720","locality":"Campo (Blenio)","commune":{"key":"5049","name":"Blenio","shortName":"Blenio"},"district":{"key":"2102","name":"Distretto di Blenio"},"canton":{"key":"21","code":"TI","name":"Ticino"},"status":"Real"},{"key":"10206636","name":"Pianchéra","postalCode":"6720","locality":"Campo (Blenio)","commune":{"key":"5049","name":"Blenio","shortName":"Blenio"},"district":{"key":"2102","name":"Distretto di Blenio"},"canton":{"key":"21","code":"TI","name":"Ticino"},"status":"Real"},{"key":"10235722","name":"Piatagn","postalCode":"6720","locality":"Campo (Blenio)","commune":{"key":"5049","name":"Blenio","shortName":"Blenio"},"district":{"key":"2102","name":"Distretto di Blenio"},"canton":{"key":"21","code":"TI","name":"Ticino"},"status":"Real"},{"key":"10235723","name":"Pradasca","postalCode":"6720","locality":"Campo (Blenio)","commune":{"key":"5049","name":"Blenio","shortName":"Blenio"},"district":{"key":"2102","name":"Distretto di Blenio"},"canton":{"key":"21","code":"TI","name":"Ticino"},"status":"Real"},{"key":"10157558","name":"Ronch da Guald","postalCode":"6720","locality":"Campo (Blenio)","commune":{"key":"5049","name":"Blenio","shortName":"Blenio"},"district":{"key":"2102","name":"Distretto di Blenio"},"canton":{"key":"21","code":"TI","name":"Ticino"},"status":"Real"},{"key":"10235724","name":"Ronco Loda","postalCode":"6720","locality":"Campo (Blenio)","commune":{"key":"5049","name":"Blenio","shortName":"Blenio"},"district":{"key":"2102","name":"Distretto di Blenio"},"canton":{"key":"21","code":"TI","name":"Ticino"},"status":"Real"},{"key":"10235725","name":"Stabia Noü","postalCode":"6720","locality":"Campo (Blenio)","commune":{"key":"5049","name":"Blenio","shortName":"Blenio"},"district":{"key":"2102","name":"Distretto di Blenio"},"canton":{"key":"21","code":"TI","name":"Ticino"},"status":"Real"},{"key":"10157575","name":"Stabio","postalCode":"6721","locality":"Motto (Blenio)","commune":{"key":"5048","name":"Acquarossa","shortName":"Acquarossa"},"district":{"key":"2102","name":"Distretto di Blenio"},"canton":{"key":"21","code":"TI","name":"Ticino"},"status":"Real"},{"key":"10157948","name":"Teciallo","postalCode":"6721","locality":"Motto (Blenio)","commune":{"key":"5048","name":"Acquarossa","shortName":"Acquarossa"},"district":{"key":"2102","name":"Distretto di Blenio"},"canton":{"key":"21","code":"TI","name":"Ticino"},"status":"Real"},{"key":"10204660","name":"Via Carlo Gatti","postalCode":"6721","locality":"Motto (Blenio)","commune":{"key":"5048","name":"Acquarossa","shortName":"Acquarossa"},"district":{"key":"2102","name":"Distretto di Blenio"},"canton":{"key":"21","code":"TI","name":"Ticino"},"status":"Real"},{"key":"10206934","name":"Via Chiesa Sant'Agata","postalCode":"6720","locality":"Campo (Blenio)","commune":{"key":"5049","name":"Blenio","shortName":"Blenio"},"district":{"key":"2102","name":"Distretto di Blenio"},"canton":{"key":"21","code":"TI","name":"Ticino"},"status":"Real"},{"key":"10204661","name":"Via Ciosso","postalCode":"6721","locality":"Motto (Blenio)","commune":{"key":"5048","name":"Acquarossa","shortName":"Acquarossa"},"district":{"key":"2102","name":"Distretto di Blenio"},"canton":{"key":"21","code":"TI","name":"Ticino"},"status":"Real"},{"key":"10204630","name":"Via Cogno","postalCode":"6721","locality":"Motto (Blenio)","commune":{"key":"5048","name":"Acquarossa","shortName":"Acquarossa"},"district":{"key":"2102","name":"Distretto di Blenio"},"canton":{"key":"21","code":"TI","name":"Ticino"},"status":"Real"},{"key":"10206641","name":"Via Cristallina","postalCode":"6720","locality":"Campo (Blenio)","commune":{"key":"5049","name":"Blenio","shortName":"Blenio"},"district":{"key":"2102","name":"Distretto di Blenio"},"canton":{"key":"21","code":"TI","name":"Ticino"},"status":"Real"},{"key":"10206935","name":"Via Greina","postalCode":"6720","locality":"Campo (Blenio)","commune":{"key":"5049","name":"Blenio","shortName":"Blenio"},"district":{"key":"2102","name":"Distretto di Blenio"},"canton":{"key":"21","code":"TI","name":"Ticino"},"status":"Real"},{"key":"10204634","name":"Via Intragagno","postalCode":"6721","locality":"Motto (Blenio)","commune":{"key":"5048","name":"Acquarossa","shortName":"Acquarossa"},"district":{"key":"2102","name":"Distretto di Blenio"},"canton":{"key":"21","code":"TI","name":"Ticino"},"status":"Real"},{"key":"10204665","name":"Via Lucomagno","postalCode":"6721","locality":"Motto (Blenio)","commune":{"key":"5048","name":"Acquarossa","shortName":"Acquarossa"},"district":{"key":"2102","name":"Distretto di Blenio"},"canton":{"key":"21","code":"TI","name":"Ticino"},"status":"Real"},{"key":"10204635","name":"Via Marogno","postalCode":"6721","locality":"Motto (Blenio)","commune":{"key":"5048","name":"Acquarossa","shortName":"Acquarossa"},"district":{"key":"2102","name":"Distretto di Blenio"},"canton":{"key":"21","code":"TI","name":"Ticino"},"status":"Real"},{"key":"10204637","name":"Via Oltredongia","postalCode":"6721","locality":"Motto (Blenio)","commune":{"key":"5048","name":"Acquarossa","shortName":"Acquarossa"},"district":{"key":"2102","name":"Distretto di Blenio"},"canton":{"key":"21","code":"TI","name":"Ticino"},"status":"Real"},{"key":"10204667","name":"Via Pedemonte","postalCode":"6721","locality":"Motto (Blenio)","commune":{"key":"5048","name":"Acquarossa","shortName":"Acquarossa"},"district":{"key":"2102","name":"Distretto di Blenio"},"canton":{"key":"21","code":"TI","name":"Ticino"},"status":"Real"},{"key":"10209557","name":"Via San Vittore","postalCode":"6721","locality":"Motto (Blenio)","commune":{"key":"5048","name":"Acquarossa","shortName":"Acquarossa"},"district":{"key":"2102","name":"Distretto di Blenio"},"canton":{"key":"21","code":"TI","name":"Ticino"},"status":"Real"},{"key":"10206643","name":"Via Valle di Campo","postalCode":"6720","locality":"Campo (Blenio)","commune":{"key":"5049","name":"Blenio","shortName":"Blenio"},"district":{"key":"2102","name":"Distretto di Blenio"},"canton":{"key":"21","code":"TI","name":"Ticino"},"status":"Real"},{"key":"10235388","name":"Ör di Barch","postalCode":"6721","locality":"Motto (Blenio)","commune":{"key":"5048","name":"Acquarossa","shortName":"Acquarossa"},"district":{"key":"2102","name":"Distretto di Blenio"},"canton":{"key":"21","code":"TI","name":"Ticino"},"status":"Real"},]